0168825710999992006010100004-05500-045267FM-12+015399999V0209999C000010150019N0100001N1+02791+02521100961ADDGF106991061001017501071001KA1240M+03101MA1999999099221MD1999999-0041REMSYN088AAXX  01004 82571 32797 62700 10279 20252 39922 40096 86070 333 10310 29081 55034 59004;
0156825710999992006010112004-05500-045267FM-12+015399999V0202301N001010042019N0100001N1+02331+02171101161ADDGF108991081051004501999999KA1240N+02221MA1999999099411MD1999999+0021REMSYN076AAXX  01124 82571 32497 82302 10233 20217 39941 40116 885// 333 20222 58002;
0178825710999992006010200004-05500-045267FM-12+015399999V0200501N000512200019N0100001N1+02611+02351101001ADDGA1001+999999999GF100991001001999999001001KA1240M+03051MA1999999099251MD1999999+0031REMSYN082AAXX  02004 82571 32997 00501 10261 20235 39925 40100 333 10305 29081 55029 58003;
0137825710999992006010218004-05500-045267FM-12+015399999V0200901N002610450019N0100001N1+03181+02251100661ADDGF106991041021004501041001MA1999999098941MD1999999-0121REMSYN070AAXX  02184 82571 32497 60905 10318 20225 39894 40066 84240 333 59012;
0213825710999992006010300004-05500-045267FM-12+015399999V0209999C000012200019N0100001N1+02481+02341100881ADDAA106009991AY191061AY261061GF104991041021004501001001KA1240M+03251MA1999999099141MD1999999-0111MW1131REMSYN100AAXX  03004 82571 21497 40000 10248 20234 39914 40088 71396 84200 333 10325 29081 55079 59011 60101;
0173825710999992006010312004-05500-045267FM-12+015399999V0200501N001510042019N0100001N1+02671+02391101091ADDAA124009991GF107991071051004501001001KA1240N+02371MA1999999099351MD1999999+0051REMSYN082AAXX  03124 82571 22497 70503 10267 20239 39935 40109 87500 333 20237 58005 60104;
0137825710999992006010318004-05500-045267FM-12+015399999V0200901N001510450019N0100001N1+03191+02301100611ADDGF106991031021004501011001MA1999999098891MD1999999-0051REMSYN070AAXX  03184 82571 32497 60903 10319 20230 39889 40061 83210 333 59005;
0213825710999992006010400004-05500-045267FM-12+015399999V0200501N001012200019N0100001N1+02611+02421100741ADDAA106005191AY161061AY211061GF103991011031004501011001KA1240M+03271MA1999999099011MD1999999-0131MW1131REMSYN100AAXX  04004 82571 21497 30502 10261 20242 39901 40074 71361 81310 333 10327 29080 55059 59013 60051;
0173825710999992006010412004-05500-045267FM-12+015399999V0200501N002610042019N0100001N1+02591+02371100951ADDAA124005191GF106991061021004501001001KA1240N+02371MA1999999099211MD1999999-0141REMSYN082AAXX  04124 82571 22497 60505 10259 20237 39921 40095 86200 333 20237 59014 60054;
0182825710999992006010418004-05500-045267FM-12+015399999V0203601N000510450019N0100001N1+02841+02461100561ADDAA106003091AY161061AY221061GF107991021021004501071011MA1999999098831MD1999999-0061MW1021REMSYN082AAXX  04184 82571 21497 73601 10284 20246 39883 40056 70262 82271 333 59006 60031;
0196825710999992006010500004-05500-045267FM-12+015399999V0202301N001512200019N0100001N1+02571+02371100791ADDAY121061AY221061GF104991041001017501031001KA1240M+03161MA1999999099051MD1999999+0041MW1131REMSYN094AAXX  05004 82571 31797 42303 10257 20237 39905 40079 71322 84030 333 10316 29086 55043 58004;
0173825710999992006010512004-05500-045267FM-12+015399999V0200501N000510042019N0100001N1+02571+02371100991ADDAA124003091GF108991081051004501999999KA1240N+02401MA1999999099251MD1999999+0041REMSYN082AAXX  05124 82571 22497 80501 10257 20237 39925 40099 885// 333 20240 58004 60034;
0182825710999992006010518004-05500-045267FM-12+015399999V0203201N002610450019N0100001N1+02911+02451100591ADDAA106006191AY161061AY221061GF106991041051004501071001MA1999999098861MD1999999+0031MW1011REMSYN082AAXX  05184 82571 21497 63205 10291 20245 39886 40059 70162 84570 333 58003 60061;
0173825710999992006010612004-05500-045267FM-12+015399999V0200501N001010042019N0100001N1+02571+02371101051ADDAA124006191GF107991061051004501031001KA1240N+02391MA1999999099301MD1999999+0051REMSYN082AAXX  06124 82571 22497 70502 10257 20237 39930 40105 86530 333 20239 58005 60064;
0137825710999992006010618004-05500-045267FM-12+015399999V0200901N002110450019N0100001N1+02941+02401100731ADDGF106991021021004501071001MA1999999099001MD1999999+0141REMSYN070AAXX  06184 82571 32497 60904 10294 20240 39900 40073 82270 333 58014;
0178825710999992006010700004-05500-045267FM-12+015399999V0209999C000012200019N0100001N1+02691+02481100931ADDGA1001+999999999GF100991001001999999001001KA1240M+03011MA1999999099191MD1999999+0101REMSYN082AAXX  07004 82571 32997 00000 10269 20248 39919 40093 333 10301 29084 55023 58010;
0201825710999992006010712004-05500-045267FM-12+015399999V0200501N001510450019N0100001N1+02471+02391101111ADDAA124002091AY161061AY221061GF108991041071004501021999KA1240N+02401MA1999999099371MD1999999+0071MW1021REMSYN088AAXX  07124 82571 21497 80503 10247 20239 39937 40111 70262 8472/ 333 20240 58007 60024;
0182825710999992006010718004-05500-045267FM-12+015399999V0202301N002110450019N0100001N1+02731+02451100741ADDAA106006191AY161061AY221061GF106991041031004501031001MA1999999099011MD1999999+0011MW1021REMSYN082AAXX  07184 82571 21497 62304 10273 20245 39901 40074 70262 84330 333 58001 60061;
0196825710999992006010800004-05500-045267FM-12+015399999V0202701N001012200019N0100001N1+02511+02331100881ADDAY121061AY221061GF103991031001004501031001KA1240M+02981MA1999999099131MD1999999-0061MW1131REMSYN094AAXX  08004 82571 31497 32702 10251 20233 39913 40088 71322 83030 333 10298 29089 55014 59006;
0173825710999992006010812004-05500-045267FM-12+015399999V0202701N001510042019N0100001N1+02571+02381101121ADDAA124006191GF107991071051004501021021KA1240N+02261MA1999999099371MD1999999+0001REMSYN082AAXX  08124 82571 22497 72703 10257 20238 39937 40112 87522 333 20226 58000 60064;
0182825710999992006010818004-05500-045267FM-12+015399999V0203201N002610450019N0100001N1+03071+02471100741ADDAA106005191AY161061AY211061GF106991041031004501041001MA1999999099011MD1999999+0001MW1031REMSYN082AAXX  08184 82571 21497 63205 10307 20247 39901 40074 70361 84340 333 58000 60051;
0213825710999992006010900004-05500-045267FM-12+015399999V0203601N001010150019N0100001N1+02371+02291101081ADDAA106007191AY191061AY261061GF106991061001017501071001KA1240M+03181MA1999999099331MD1999999+0201MW1131REMSYN100AAXX  09004 82571 21797 63602 10237 20229 39933 40108 71396 86070 333 10318 29087 55041 58020 60071;
0201825710999992006010912004-05500-045267FM-12+015399999V0202301N000510042019N0100001N1+02431+02351101221ADDAA124016091AY161061AY221061GF108991081051004501999999KA1240N+02341MA1999999099461MD1999999+0091MW1211REMSYN088AAXX  09124 82571 21497 82301 10243 20235 39946 40122 72162 885// 333 20234 58009 60164;
0182825710999992006010918004-05500-045267FM-12+015399999V0200501N004610150019N0100001N1+02351+02241100941ADDAA106019191AY121061AY211061GF108991081001017501021999MA1999999099181MD1999999+0171MW1951REMSYN082AAXX  09184 82571 21797 80509 10235 20224 39918 40094 79521 8802/ 333 58017 60191;
0213825710999992006011000004-05500-045267FM-12+015399999V0209999C000010042019N0100001N1+02311+02271101161ADDAA106025991AY191061AY261061GF108991061071004501021999KA1240M+02861MA1999999099401MD1999999+0071MW1911REMSYN100AAXX  10004 82571 21497 83600 10231 20227 39940 40116 79196 8672/ 333 10286 29096 55015 58007 60261;
0201825710999992006011012004-05500-045267FM-12+015399999V0200901N001010042019N0100001N1+02381+02221101311ADDAA124045091AY161061AY221061GF107991071051004501001001KA1240N+02261MA1999999099551MD1999999+0091MW1021REMSYN088AAXX  10124 82571 21497 70902 10238 20222 39955 40131 70262 87500 333 20226 58009 60454;
0213825710999992006011100004-05500-045267FM-12+015399999V0200901N000510450019N0100001N1+02571+02351101121ADDAA106001091AY161061AY221061GF106991011021004501031001KA1240M+03051MA1999999099371MD1999999-0131MW1131REMSYN100AAXX  11004 82571 21497 60901 10257 20235 39937 40112 71362 81230 333 10305 29084 55045 59013 60011;
0201825710999992006011112004-05500-045267FM-12+015399999V0200901N002110042019N0100001N1+02501+02321101221ADDAA124001091AY141061AY221061GF107991061051004501031001KA1240N+02221MA1999999099471MD1999999-0081MW1021REMSYN088AAXX  11124 82571 21497 70904 10250 20232 39947 40122 70242 86530 333 20222 59008 60014;
0182825710999992006011118004-05500-045267FM-12+015399999V0201401N001510090019N0100001N1+02631+02371100851ADDAA106000591AY161061AY221061GF107991071081004501001001MA1999999099101MD1999999-0141MW1951REMSYN082AAXX  11184 82571 21497 71403 10263 20237 39910 40085 79562 87800 333 59014 69941;
0182825710999992006011218004-05500-045267FM-12+015399999V0200901N002611050019N0100001N1+03131+02181100851ADDAA106002091AY161061AY221061GF105991021021004501011011MA1999999099121MD1999999+0021MW1011REMSYN082AAXX  12184 82571 21497 50905 10313 20218 39912 40085 70162 82211 333 58002 60021;
0196825710999992006011300004-05500-045267FM-12+015399999V0200501N000510450019N0100001N1+02721+02371101021ADDAY121061AY221061GF106991011031004501011011KA1240M+03201MA1999999099281MD1999999+0051MW1131REMSYN094AAXX  13004 82571 31497 60501 10272 20237 39928 40102 71322 81311 333 10320 29076 55079 58005;
0173825710999992006011312004-05500-045267FM-12+015399999V0209999C000012200019N0100001N1+02531+02361101181ADDAA124002091GF104991021021004501011011KA1240N+02291MA1999999099441MD1999999-0061REMSYN082AAXX  13124 82571 22497 42700 10253 20236 39944 40118 82211 333 20229 59006 60024;
0137825710999992006011318004-05500-045267FM-12+015399999V0201401N001510450019N0100001N1+03181+02331100901ADDGF106991031021004501011011MA1999999099181MD1999999+0061REMSYN070AAXX  13184 82571 32497 61403 10318 20233 39918 40090 83211 333 58006;
0178825710999992006011400004-05500-045267FM-12+015399999V0209999C000012200019N0100001N1+02841+02401101011ADDGA1001+999999999GF100991001001999999001001KA1240M+03311MA1999999099281MD1999999+0001REMSYN082AAXX  14004 82571 32997 00500 10284 20240 39928 40101 333 10331 29076 55084 58000;
0156825710999992006011412004-05500-045267FM-12+015399999V0200501N001512200019N0100001N1+02611+02331101131ADDGF103991011021004501031011KA1240N+02301MA1999999099391MD1999999-0051REMSYN076AAXX  14124 82571 32497 30503 10261 20233 39939 40113 81231 333 20230 59005;
0137825710999992006011418004-05500-045267FM-12+015399999V0200901N002112200019N0100001N1+03101+02291100821ADDGF103991031021004501001001MA1999999099101MD1999999-0081REMSYN070AAXX  14184 82571 32497 30904 10310 20229 39910 40082 83200 333 59008;
0168825710999992006011500004-05500-045267FM-12+015399999V0203601N000512200019N0100001N1+02821+02561100941ADDGF102991021001017501041001KA1240M+03171MA1999999099211MD1999999-0071REMSYN088AAXX  15004 82571 32797 23601 10282 20256 39921 40094 82040 333 10317 29080 55076 59007;
0156825710999992006011512004-05500-045267FM-12+015399999V0200901N003610450019N0100001N1+02621+02181101101ADDGF106991041031004501031001KA1240N+02421MA1999999099361MD1999999-0031REMSYN076AAXX  15124 82571 32497 60907 10262 20218 39936 40110 84330 333 20242 59003;
0201825710999992006011518004-05500-045267FM-12+015399999V0200901N002110042019N0100001N1+03051+02451100272ADDAA106000021AY111061AY201061GF105991051021004501001001MA1999999099001MD1999999-0101MW1611REMSYN082AAXX  15184 82571 21497 50904 10305 20245 39900 40027 76110 85200 333 59010 69911;EQDQ01+100273APOSLP
0168825710999992006011600004-05500-045267FM-12+015399999V0209999C000012200019N0100001N1+02831+02461100871ADDGF102991021001017501041001KA1240M+03231MA1999999099141MD1999999-0071REMSYN088AAXX  16004 82571 32797 20000 10283 20246 39914 40087 82040 333 10323 29077 55084 59007;
0173825710999992006011612004-05500-045267FM-12+015399999V0203601N001010042019N0100001N1+02521+02401101091ADDAA124000021GF108991081051004501999999KA1240N+02271MA1999999099351MD1999999-0011REMSYN082AAXX  16124 82571 22497 83602 10252 20240 39935 40109 885// 333 20227 59001 69914;
0137825710999992006011618004-05500-045267FM-12+015399999V0200501N001510450019N0100001N1+03201+02341100711ADDGF106991031021004501011011MA1999999099001MD1999999+0001REMSYN070AAXX  16184 82571 32497 60503 10320 20234 39900 40071 83211 333 58000;
0168825710999992006011700004-05500-045267FM-12+015399999V0209999C000012200019N0100001N1+02741+02341100911ADDGF102991001001999999001011KA1240M+03291MA1999999099171MD1999999+0031REMSYN088AAXX  17004 82571 32997 20500 10274 20234 39917 40091 80001 333 10329 29078 55061 58003;
0156825710999992006011712004-05500-045267FM-12+015399999V0203201N001010450019N0100001N1+02621+02411101061ADDGF105991031021004501031001KA1240N+02271MA1999999099331MD1999999-0021REMSYN076AAXX  17124 82571 32497 53202 10262 20241 39933 40106 83230 333 20227 59002;
0137825710999992006011718004-05500-045267FM-12+015399999V0202301N002610450019N0100001N1+03281+02371100731ADDGF106991031021004501011011MA1999999099021MD1999999+0021REMSYN070AAXX  17184 82571 32497 62305 10328 20237 39902 40073 83211 333 58002;
0168825710999992006011800004-05500-045267FM-12+015399999V0209999C000012200019N0100001N1+02931+02541100961ADDGF102991021001017501031001KA1240M+03331MA1999999099231MD1999999+0061REMSYN088AAXX  18004 82571 32797 20000 10293 20254 39923 40096 82030 333 10333 29076 55082 58006;
0156825710999992006011812004-05500-045267FM-12+015399999V0200901N001510042019N0100001N1+02561+02251101151ADDGF107991061021004501031001KA1240N+02471MA1999999099421MD1999999+0091REMSYN076AAXX  18124 82571 32497 70903 10256 20225 39942 40115 86230 333 20247 58009;
0196825710999992006011900004-05500-045267FM-12+015399999V0200501N001510042019N0100001N1+02471+02301101031ADDAY121061AY221061GF107991071021004501001001KA1240M+03051MA1999999099281MD1999999+0051MW1131REMSYN094AAXX  19004 82571 31497 70503 10247 20230 39928 40103 71322 87200 333 10305 29084 55043 58005;
0192825710999992006011912004-05500-045267FM-12+015399999V0202301N001010042019N0100001N1+02431+02301101041ADDAA124000091GF108991081051004501999999KA1240N+02271MA1999999099291MD1999999-0131REMSYN082AAXX  19124 82571 22497 82302 10243 20230 39929 40104 885// 333 20227 59013 69924;EQDQ01  00002PRCP24
0137825710999992006011918004-05500-045267FM-12+015399999V0200901N001010450019N0100001N1+02991+02371100531ADDGF106991041021004501031001MA1999999098801MD1999999-0251REMSYN070AAXX  19184 82571 32497 60902 10299 20237 39880 40053 84230 333 59025;
0156825710999992006012012004-05500-045267FM-12+015399999V0203601N000510450019N0100001N1+02611+02371101021ADDGF107991041051004501041001KA1240N+02481MA1999999099281MD1999999-0011REMSYN076AAXX  20124 82571 32497 73601 10261 20237 39928 40102 84540 333 20248 59001;
0182825710999992006012018004-05500-045267FM-12+015399999V0209999C000010090019N0100001N1+02321+02241100811ADDAA106005191AY191061AY261061GF107991071081004501001001MA1999999099061MD1999999+0261MW1021REMSYN082AAXX  20184 82571 21497 72700 10232 20224 39906 40081 70296 87800 333 58026 60051;
0168825710999992006012100004-05500-045267FM-12+015399999V0209999C000010150019N0100001N1+02331+02271100881ADDGF106991061001017501031001KA1240M+02881MA1999999099151MD1999999+0171REMSYN088AAXX  21004 82571 32797 60000 10233 20227 39915 40088 86030 333 10288 29093 55003 58017;
0173825710999992006012112004-05500-045267FM-12+015399999V0202301N001510042019N0100001N1+02411+02331101121ADDAA124005191GF108991051071004501021999KA1240N+02221MA1999999099361MD1999999+0081REMSYN082AAXX  21124 82571 22497 82303 10241 20233 39936 40112 8572/ 333 20222 58008 60054;
0137825710999992006012118004-05500-045267FM-12+015399999V0202301N002610450019N0100001N1+02761+02341100871ADDGF106991041041004501031001MA1999999099121MD1999999+0061REMSYN070AAXX  21184 82571 32497 62305 10276 20234 39912 40087 84430 333 58006;
0178825710999992006012200004-05500-045267FM-12+015399999V0209999C000012200019N0100001N1+02671+02411100901ADDGA1001+999999999GF100991001001999999001001KA1240M+02941MA1999999099161MD1999999+0011REMSYN082AAXX  22004 82571 32997 00000 10267 20241 39916 40090 333 10294 29086 55035 58001;
0156825710999992006012212004-05500-045267FM-12+015399999V0200501N001510042019N0100001N1+02611+02391101091ADDGF106991061021004501001001KA1240N+02321MA1999999099351MD1999999-0011REMSYN076AAXX  22124 82571 32497 60503 10261 20239 39935 40109 86200 333 20232 59001;
0137825710999992006012218004-05500-045267FM-12+015399999V0200901N002612200019N0100001N1+03151+02261100791ADDGF103991021021004501001011MA1999999099071MD1999999-0051REMSYN070AAXX  22184 82571 32497 30905 10315 20226 39907 40079 82201 333 59005;
0178825710999992006012300004-05500-045267FM-12+015399999V0200501N001012200019N0100001N1+02811+02521100881ADDGA1001+999999999GF100991001001999999001001KA1240M+03301MA1999999099151MD1999999-0011REMSYN082AAXX  23004 82571 32997 00502 10281 20252 39915 40088 333 10330 29078 55077 59001;
0156825710999992006012312004-05500-045267FM-12+015399999V0200501N002110042019N0100001N1+02631+02391101121ADDGF108991061071004501021999KA1240N+02451MA1999999099381MD1999999+0031REMSYN076AAXX  23124 82571 32497 80504 10263 20239 39938 40112 8672/ 333 20245 58003;
0137825710999992006012318004-05500-045267FM-12+015399999V0201401N002110450019N0100001N1+03071+02351100801ADDGF106991041021004501031001MA1999999099081MD1999999+0011REMSYN070AAXX  23184 82571 32497 61404 10307 20235 39908 40080 84230 333 58001;
0178825710999992006012400004-05500-045267FM-12+015399999V0203201N000512200019N0100001N1+02771+02501100821ADDGA1001+999999999GF100991001001999999001001KA1240M+03151MA1999999099091MD1999999-0061REMSYN082AAXX  24004 82571 32997 03201 10277 20250 39909 40082 333 10315 29080 55025 59006;
0156825710999992006012412004-05500-045267FM-12+015399999V0203601N002112200019N0100001N1+02641+02291101051ADDGF102991011011004501031001KA1240N+02391MA1999999099321MD1999999-0061REMSYN076AAXX  24124 82571 32497 23604 10264 20229 39932 40105 81130 333 20239 59006;
0137825710999992006012418004-05500-045267FM-12+015399999V0200501N002612200019N0100001N1+03241+02391100761ADDGF103991031021004501001001MA1999999099051MD1999999-0031REMSYN070AAXX  24184 82571 32497 30505 10324 20239 39905 40076 83200 333 59003;
0178825710999992006012500004-05500-045267FM-12+015399999V0200501N000512200019N0100001N1+02851+02521100831ADDGA1001+999999999GF100991001001999999001001KA1240M+03321MA1999999099101MD1999999+0011REMSYN082AAXX  25004 82571 32997 00501 10285 20252 39910 40083 333 10332 29076 55103 58001;
0156825710999992006012512004-05500-045267FM-12+015399999V0203601N001010042019N0100001N1+02731+02431101191ADDGF106991051021004501001011KA1240N+02461MA1999999099461MD1999999+0141REMSYN076AAXX  25124 82571 32497 63602 10273 20243 39946 40119 85201 333 20246 58014;
0182825710999992006012518004-05500-045267FM-12+015399999V0200501N001010450019N0100001N1+03311+02471100851ADDAA106001091AY161061AY221061GF105991031021004501041011MA1999999099141MD1999999+0091MW1211REMSYN082AAXX  25184 82571 21497 50502 10331 20247 39914 40085 72162 83241 333 58009 60011;
0196825710999992006012600004-05500-045267FM-12+015399999V0200501N001012200019N0100001N1+02931+02491100931ADDAY121061AY201061GF101991011031004501001001KA1240M+03421MA1999999099211MD1999999+0111MW1131REMSYN094AAXX  26004 82571 31497 10502 10293 20249 39921 40093 71320 81300 333 10342 29074 55099 58011;
0173825710999992006012612004-05500-045267FM-12+015399999V0200501N002610042019N0100001N1+02781+02401101221ADDAA124001091GF106991051021004501001011KA1240N+02481MA1999999099491MD1999999+0031REMSYN082AAXX  26124 82571 22497 60505 10278 20240 39949 40122 85201 333 20248 58003 60014;
0137825710999992006012618004-05500-045267FM-12+015399999V0200501N000510450019N0100001N1+03311+02411100801ADDGF107991031021004501011011MA1999999099091MD1999999-0051REMSYN070AAXX  26184 82571 32497 70501 10331 20241 39909 40080 83211 333 59005;
0178825710999992006012700004-05500-045267FM-12+015399999V0203601N000512200019N0100001N1+02931+02491100901ADDGA1001+999999999GF100991001001999999001001KA1240M+03411MA1999999099181MD1999999-0031REMSYN082AAXX  27004 82571 32997 03601 10293 20249 39918 40090 333 10341 29073 55084 59003;
0156825710999992006012712004-05500-045267FM-12+015399999V0200501N001510042019N0100001N1+02731+02381101271ADDGF105991051021004501001001KA1240N+02471MA1999999099541MD1999999+0051REMSYN076AAXX  27124 82571 32497 50503 10273 20238 39954 40127 85200 333 20247 58005;
0137825710999992006012718004-05500-045267FM-12+015399999V0200501N002110450019N0100001N1+03321+02351100861ADDGF106991031021004501011001MA1999999099151MD1999999+0061REMSYN070AAXX  27184 82571 32497 60504 10332 20235 39915 40086 83210 333 58006;
0178825710999992006012800004-05500-045267FM-12+015399999V0203201N000512200019N0100001N1+02911+02541101021ADDGA1001+999999999GF100991001001999999001001KA1240M+03371MA1999999099291MD1999999+0111REMSYN082AAXX  28004 82571 32997 03201 10291 20254 39929 40102 333 10337 29074 55080 58011;
0156825710999992006012812004-05500-045267FM-12+015399999V0200501N002612200019N0100001N1+02731+02381101251ADDGF104991021021004501031001KA1240N+02541MA1999999099521MD1999999-0021REMSYN076AAXX  28124 82571 32497 40505 10273 20238 39952 40125 82230 333 20254 59002;
0137825710999992006012818004-05500-045267FM-12+015399999V0200501N001510450019N0100001N1+03251+02441100941ADDGF106991041021004501041001MA1999999099231MD1999999+0081REMSYN070AAXX  28184 82571 32497 60503 10325 20244 39923 40094 84240 333 58008;
0223825710999992006012900004-05500-045267FM-12+015399999V0203601N001012200019N0100001N1+02811+02561101041ADDAA106006191AY161061AY211061GA1001+999999999GF100991001001999999001001KA1240M+03301MA1999999099311MD1999999+0021MW1001REMSYN094AAXX  29004 82571 21997 03602 10281 20256 39931 40104 70061 333 10330 29079 55068 58002 60061;
0137825710999992006012918004-05500-045267FM-12+015399999V0200501N003612200019N0100001N1+03111+02361100821ADDGF105991031021004501001011MA1999999099101MD1999999-0131REMSYN070AAXX  29184 82571 32497 50507 10311 20236 39910 40082 83201 333 59013;
0178825710999992006013000004-05500-045267FM-12+015399999V0209999C000012200019N0100001N1+02371+02361100901ADDGA1001+999999999GF100991001001999999001001KA1240M+03201MA1999999099171MD1999999-0141REMSYN082AAXX  30004 82571 32997 00000 10237 20236 39917 40090 333 10320 29077 55067 59014;
0156825710999992006013012004-05500-045267FM-12+015399999V0200501N002112200019N0100001N1+02711+02341101111ADDGF104991021021004501031011KA1240N+02421MA1999999099371MD1999999-0061REMSYN076AAXX  30124 82571 32497 40504 10271 20234 39937 40111 82231 333 20242 59006;
0182825710999992006013018004-05500-045267FM-12+015399999V0200501N001012200019N0040001N1+03161+02571100671ADDAA106001091AY101061AY201061GF104991031021004501031001MA1999999098951MD1999999-0151MW1811REMSYN082AAXX  30184 82571 21496 40502 10316 20257 39895 40067 78100 83230 333 59015 60011;
0226825710999992006013100004-05500-045267FM-12+015399999V0200501N001012200019N0040001N1+02671+02311100871ADDAA106000021AY161061AY201061GF104991031071004501041001KA1240M+03341MA1999999099141MD1999999-0031REMSYN100AAXX  31004 82571 21496 40502 10267 20231 39914 40087 75560 83740 333 10334 29079 55089 59003 69921;EQDQ01+000552PRSWM1
0201825710999992006013112004-05500-045267FM-12+015399999V0200501N002110042019N0100001N1+02621+02421101111ADDAA124002091AY161061AY221061GF106991051021004501031001KA1240N+02391MA1999999099371MD1999999+0001MW1011REMSYN088AAXX  31124 82571 21497 60504 10262 20242 39937 40111 70162 85230 333 20239 58000 60024;
0137825710999992006013118004-05500-045267FM-12+015399999V0200501N003110450019N0100001N1+03231+02191100651ADDGF106991041051004501011001MA1999999098941MD1999999-0011REMSYN070AAXX  31184 82571 32497 60506 10323 20219 39894 40065 84510 333 59001;
0178825710999992006020100004-05500-045267FM-12+015399999V0202301N001012200019N0100001N1+02601+02271100861ADDGA1001+999999999GF100991001001999999001001KA1240M+03271MA1999999099121MD1999999-0021REMSYN082AAXX  01004 82571 32997 02302 10260 20227 39912 40086 333 10327 29077 55059 59002;
0156825710999992006020112004-05500-045267FM-12+015399999V0200501N003110042019N0100001N1+02681+02331101111ADDGF107991071051004501001001KA1240N+02461MA1999999099371MD1999999+0001REMSYN076AAXX  01124 82571 32497 70506 10268 20233 39937 40111 87500 333 20246 58000;
0137825710999992006020118004-05500-045267FM-12+015399999V0200501N002110450019N0100001N1+03221+02321100651ADDGF105991041021004501031001MA1999999098941MD1999999+0001REMSYN070AAXX  01184 82571 32497 50504 10322 20232 39894 40065 84230 333 58000;
0196825710999992006020200004-05500-045267FM-12+015399999V0202701N001012200019N0100001N1+02531+02311100921ADDAY111061AY211061GF104991041021004501001001KA1240M+03291MA1999999099181MD1999999+0061MW1131REMSYN094AAXX  02004 82571 31497 42702 10253 20231 39918 40092 71311 84200 333 10329 29078 55073 58006;
0201825710999992006020212004-05500-045267FM-12+015399999V0203601N000510450019N0100001N1+02511+02331101111ADDAA124002091AY191061AY261061GF106991031021004501031011KA1240N+02261MA1999999099361MD1999999-0011MW1011REMSYN088AAXX  02124 82571 21497 63601 10251 20233 39936 40111 70196 83231 333 20226 59001 60024;
0137825710999992006020218004-05500-045267FM-12+015399999V0200501N002110450019N0100001N1+02991+02241100811ADDGF106991021021004501031001MA1999999099081MD1999999+0141REMSYN070AAXX  02184 82571 32497 60504 10299 20224 39908 40081 82230 333 58014;
0168825710999992006020300004-05500-045267FM-12+015399999V0201401N001512200019N0100001N1+02651+02441100981ADDGF103991031001017501031001KA1240M+03061MA1999999099241MD1999999+0061REMSYN088AAXX  03004 82571 32797 31403 10265 20244 39924 40098 83030 333 10306 29082 55051 58006;
0156825710999992006020312004-05500-045267FM-12+015399999V0200501N001510150019N0100001N1+02581+02251101031ADDGF106991051001017501031011KA1240N+02291MA1999999099291MD1999999-0071REMSYN076AAXX  03124 82571 32797 60503 10258 20225 39929 40103 85031 333 20229 59007;
0137825710999992006020318004-05500-045267FM-12+015399999V0200501N002610450019N0100001N1+03091+02181100691ADDGF106991041031004501031001MA1999999098971MD1999999-0111REMSYN070AAXX  03184 82571 32497 60505 10309 20218 39897 40069 84330 333 59011;
0168825710999992006020400004-05500-045267FM-12+015399999V0202701N002110150019N0100001N1+02551+02381100821ADDGF106991061001017501071001KA1240M+03171MA1999999099081MD1999999-0161REMSYN088AAXX  04004 82571 32797 62704 10255 20238 39908 40082 86070 333 10317 29080 55057 59016;
0182825710999992006020418004-05500-045267FM-12+015399999V0202301N001510042019N0100001N1+02551+02421100701ADDAA106006191AY161061AY201061GF108991051071004501021999MA1999999098961MD1999999-0011MW1801REMSYN082AAXX  04184 82571 21497 82303 10255 20242 39896 40070 78060 8572/ 333 59001 60061;
0201825710999992006020512004-05500-045267FM-12+015399999V0203201N000510042019N0100001N1+02501+02381101131ADDAA124032091AY161061AY221061GF108991081051004501999999KA1240N+02321MA1999999099381MD1999999+0091MW1021REMSYN088AAXX  05124 82571 21497 83201 10250 20238 39938 40113 70262 885// 333 20232 58009 60324;
0182825710999992006020518004-05500-045267FM-12+015399999V0203601N001010042019N0100001N1+02521+02381100801ADDAA106002091AY191061AY261061GF106991051051004501031001MA1999999099051MD1999999+0091MW1211REMSYN082AAXX  05184 82571 21497 63602 10252 20238 39905 40080 72196 85530 333 58009 60021;
0168825710999992006020600004-05500-045267FM-12+015399999V0209999C000012200019N0100001N1+02481+02411100991ADDGF102991021001017501031001KA1240M+02891MA1999999099241MD1999999+0171REMSYN088AAXX  06004 82571 32797 22700 10248 20241 39924 40099 82030 333 10289 29094 55000 58017;
0173825710999992006020612004-05500-045267FM-12+015399999V0203601N000510042019N0100001N1+02371+02131101241ADDAA124002091GF108991081051004501999999KA1240N+02321MA1999999099481MD1999999+0101REMSYN082AAXX  06124 82571 22497 83601 10237 20213 39948 40124 885// 333 20232 58010 60024;
0137825710999992006020618004-05500-045267FM-12+015399999V0203601N002610042019N0100001N1+02881+02281100911ADDGF107991051051004501031001MA1999999099171MD1999999+0171REMSYN070AAXX  06184 82571 32497 73605 10288 20228 39917 40091 85530 333 58017;
0213825710999992006020700004-05500-045267FM-12+015399999V0201801N001010042019N0100001N1+02441+02341101101ADDAA106006191AY161061AY221061GF108991051071004501021999KA1240M+02941MA1999999099341MD1999999+0101MW1021REMSYN100AAXX  07004 82571 21497 81802 10244 20234 39934 40110 70262 8572/ 333 10294 29086 55028 58010 60061;
0201825710999992006020712004-05500-045267FM-12+015399999V0200501N000510042019N0100001N1+02291+02201101221ADDAA124053191AY161061AY221061GF107991061051004501031001KA1240N+02171MA1999999099461MD1999999-0021MW1011REMSYN088AAXX  07124 82571 21497 70501 10229 20220 39946 40122 70162 86530 333 20217 59002 60534;
0137825710999992006020718004-05500-045267FM-12+015399999V0200501N002610450019N0100001N1+02901+02221100861ADDGF106991031021004501031001MA1999999099121MD1999999-0051REMSYN070AAXX  07184 82571 32497 60505 10290 20222 39912 40086 83230 333 59005;
0168825710999992006020800004-05500-045267FM-12+015399999V0209999C000010150019N0100001N1+02561+02421101041ADDGF106991061001017501031001KA1240M+02961MA1999999099221MD1999999-0061REMSYN088AAXX  08004 82571 32797 60000 10256 20242 39922 40104 86030 333 10296 29086 55023 59006;
0184825710999992006020812004-05500-045267FM-12+015399999V0202301N000512200019N0100001N1+02441+02321101161ADDAY141061AY201061GF102991011011004501001011KA1240N+02151MA1999999099411MD1999999-0051MW1031REMSYN082AAXX  08124 82571 31497 22301 10244 20232 39941 40116 70340 81101 333 20215 59005;
0137825710999992006020818004-05500-045267FM-12+015399999V0200501N003612200019N0100001N1+03151+02171100841ADDGF103991031021004501001001MA1999999099111MD1999999-0011REMSYN070AAXX  08184 82571 32497 30507 10315 20217 39911 40084 83200 333 59001;
0168825710999992006020900004-05500-045267FM-12+015399999V0209999C000012200019N0100001N1+02771+02501100961ADDGF102991021001017501011001KA1240M+03221MA1999999099221MD1999999-0061REMSYN088AAXX  09004 82571 32797 20000 10277 20250 39922 40096 82010 333 10322 29080 55103 59006;
0137825710999992006020918004-05500-045267FM-12+015399999V0200501N002110450019N0100001N1+03161+02321100941ADDGF106991021021004501031011MA1999999099221MD1999999+0111REMSYN070AAXX  09184 82571 32497 60504 10316 20232 39922 40094 82231 333 58011;
0168825710999992006021000004-05500-045267FM-12+015399999V0209999C000012200019N0100001N1+02761+02421101051ADDGF103991031001017501011001KA1240M+03231MA1999999099321MD1999999+0101REMSYN088AAXX  10004 82571 32797 30500 10276 20242 39932 40105 83010 333 10323 29078 55103 58010;
0156825710999992006021012004-05500-045267FM-12+015399999V0203601N003110450019N0100001N1+02711+02391101361ADDGF106991041021004501031001KA1240N+02471MA1999999099621MD1999999+0051REMSYN076AAXX  10124 82571 32497 63606 10271 20239 39962 40136 84230 333 20247 58005;
0137825710999992006021018004-05500-045267FM-12+015399999V0200501N002110450019N0100001N1+03051+02521101121ADDGF107991041021004501011001MA1999999099391MD1999999+0171REMSYN070AAXX  10184 82571 32497 70504 10305 20252 39939 40112 84210 333 58017;
0156825710999992006021112004-05500-045267FM-12+015399999V0203601N001010150019N0100001N1+02461+02341101401ADDGF108991081001017501021999KA1240N+02271MA1999999099641MD1999999+0021REMSYN076AAXX  11124 82571 32797 83602 10246 20234 39964 40140 8802/ 333 20227 58002;
0137825710999992006021118004-05500-045267FM-12+015399999V0200901N005110042019N0100001N1+02921+02191101041ADDGF106991061031004501001001MA1999999099301MD1999999-0091REMSYN070AAXX  11184 82571 32497 60910 10292 20219 39930 40104 86300 333 59009;
0168825710999992006021200004-05500-045267FM-12+015399999V0200501N000510150019N0100001N1+02461+02301101231ADDGF105991051001017501031001KA1240M+03031MA1999999099471MD1999999-0171REMSYN088AAXX  12004 82571 32797 50501 10246 20230 39947 40123 85030 333 10303 29085 55036 59017;
0156825710999992006021212004-05500-045267FM-12+015399999V0200501N001512200019N0100001N1+02671+02311101321ADDGF105991041021004501001011KA1240N+02351MA1999999099571MD1999999-0071REMSYN076AAXX  12124 82571 32497 50503 10267 20231 39957 40132 84201 333 20235 59007;
0137825710999992006021218004-05500-045267FM-12+015399999V0200501N001510042019N0100001N1+03031+02381100931ADDGF107991051021004501041001MA1999999099201MD1999999-0101REMSYN070AAXX  12184 82571 32497 70503 10303 20238 39920 40093 85240 333 59010;
0213825710999992006021300004-05500-045267FM-12+015399999V0209999C000010042019N0100001N1+02581+02441101231ADDAA106001091AY161061AY221061GF108991051071004501021999KA1240M+03081MA1999999099481MD1999999+0011MW1131REMSYN100AAXX  13004 82571 21497 80000 10258 20244 39948 40123 71362 8572/ 333 10308 29083 55057 58001 60011;
0201825710999992006021312004-05500-045267FM-12+015399999V0200901N001010450019N0100001N1+02351+02241101361ADDAA124007991AY191061AY261061GF106991041021004501041001KA1240N+02291MA1999999099601MD1999999+0031MW1011REMSYN088AAXX  13124 82571 21497 60902 10235 20224 39960 40136 70196 84240 333 20229 58003 60084;
0137825710999992006021318004-05500-045267FM-12+015399999V0200501N002610450019N0100001N1+02971+02331101041ADDGF105991031021004501031001MA1999999099311MD1999999+0111REMSYN070AAXX  13184 82571 32497 50505 10297 20233 39931 40104 83230 333 58011;
0168825710999992006021400004-05500-045267FM-12+015399999V0201401N005710042019N0100001N1+02511+02191101291ADDGF108991081051004501999999KA1240M+03051MA1999999099531MD1999999+0051REMSYN088AAXX  14004 82571 32497 81411 10251 20219 39953 40129 885// 333 10305 29081 55049 58005;
0201825710999992006021412004-05500-045267FM-12+015399999V0203601N000510450019N0100001N1+02361+02201101351ADDAA124021191AY161061AY221061GF106991021021004501031001KA1240N+02221MA1999999099591MD1999999-0011MW1011REMSYN088AAXX  14124 82571 21497 63601 10236 20220 39959 40135 70162 82230 333 20222 59001 60214;
0182825710999992006021418004-05500-045267FM-12+015399999V0203601N001510042019N0100001N1+02611+02351101051ADDAA106000591AY121061AY221061GF107991071051004501001001MA1999999099301MD1999999-0011MW1511REMSYN082AAXX  14184 82571 21497 73603 10261 20235 39930 40105 75122 87500 333 59001 69941;
0168825710999992006021500004-05500-045267FM-12+015399999V0201401N002110090019N0100001N1+02551+02351101231ADDGF107991071081004501001001KA1240M+02861MA1999999099471MD1999999-0021REMSYN088AAXX  15004 82571 32497 71404 10255 20235 39947 40123 87800 333 10286 29088 55020 59002;
0173825710999992006021512004-05500-045267FM-12+015399999V0202301N001010450019N0100001N1+02451+02301101191ADDAA124000591GF106991021021004501051001KA1240N+02261MA1999999099441MD1999999-0151REMSYN082AAXX  15124 82571 22497 62302 10245 20230 39944 40119 82250 333 20226 59015 69944;
0137825710999992006021518004-05500-045267FM-12+015399999V0203601N002110450019N0100001N1+03041+02381100921ADDGF106991021021004501031001MA1999999099191MD1999999-0111REMSYN070AAXX  15184 82571 32497 63604 10304 20238 39919 40092 82230 333 59011;
0168825710999992006021600004-05500-045267FM-12+015399999V0200501N001012200019N0100001N1+02701+02461101031ADDGF103991011011004501031001KA1240M+03081MA1999999099291MD1999999-0181REMSYN088AAXX  16004 82571 32497 30502 10270 20246 39929 40103 81130 333 10308 29083 55031 59018;
0220825710999992006021612004-05500-045267FM-12+015399999V0200501N001510450019N0100001N1+02581+02381101171ADDAA124000091AY161061AY201061GF106991041021004501031011KA1240N+02261MA1999999099431MD1999999-0011MW1031REMSYN088AAXX  16124 82571 21497 60503 10258 20238 39943 40117 70360 84231 333 20226 59001 69914;EQDQ01  00002PRCP24
0137825710999992006021618004-05500-045267FM-12+015399999V0200501N000510450019N0100001N1+03151+02471100671ADDGF107991031021004501071001MA1999999098951MD1999999-0241REMSYN070AAXX  16184 82571 32497 70501 10315 20247 39895 40067 83270 333 59024;
0168825710999992006021700004-05500-045267FM-12+015399999V0200501N000512200019N0100001N1+02661+02441101011ADDGF102991021001017501041001KA1240M+03221MA1999999099271MD1999999-0021REMSYN088AAXX  17004 82571 32797 20501 10266 20244 39927 40101 82040 333 10322 29083 55050 59002;
0156825710999992006021712004-05500-045267FM-12+015399999V0203201N002110042019N0100001N1+02641+02421101191ADDGF107991071051004501001001KA1240N+02291MA1999999099451MD1999999+0021REMSYN076AAXX  17124 82571 32497 73204 10264 20242 39945 40119 87500 333 20229 58002;
0137825710999992006021718004-05500-045267FM-12+015399999V0203601N002611050019N0100001N1+03231+02361100671ADDGF105991021021004501011011MA1999999098951MD1999999+0001REMSYN070AAXX  17184 82571 32497 53605 10323 20236 39895 40067 82211 333 58000;
0213825710999992006021800004-05500-045267FM-12+015399999V0200501N004610042019N0100001N1+02271+02231101271ADDAA106025991AY191061AY261061GF108991061071004501021999KA1240M+03281MA1999999099511MD1999999+0241MW1951REMSYN100AAXX  18004 82571 21497 80509 10227 20223 39951 40127 79596 8672/ 333 10328 29086 55070 58024 60261;
0201825710999992006021812004-05500-045267FM-12+015399999V0200501N000512200019N0100001N1+02431+02211101361ADDAA124033091AY191061AY261061GF103991021071017501031011KA1240N+02211MA1999999099601MD1999999+0151MW1021REMSYN088AAXX  18124 82571 21797 30501 10243 20221 39960 40136 70296 82731 333 20221 58015 60334;
0137825710999992006021818004-05500-045267FM-12+015399999V0203601N001512200019N0100001N1+03161+02371100901ADDGF102991011021004501031001MA1999999099171MD1999999+0221REMSYN070AAXX  18184 82571 32497 23603 10316 20237 39917 40090 81230 333 58022;
0206825710999992006021900004-05500-045267FM-12+015399999V0200901N001512200019N0100001N1+02751+02361101091ADDAY111061AY201061GA1001+999999999GF100991001001999999001001KA1240M+03211MA1999999099351MD1999999-0161MW1131REMSYN088AAXX  19004 82571 31997 00903 10275 20236 39935 40109 71310 333 10321 29077 55102 59016;
0156825710999992006021912004-05500-045267FM-12+015399999V0200501N001510042019N0100001N1+02671+02371101311ADDGF106991051021004501031001KA1240N+02371MA1999999099571MD1999999-0031REMSYN076AAXX  19124 82571 32497 60503 10267 20237 39957 40131 85230 333 20237 59003;
0137825710999992006021918004-05500-045267FM-12+015399999V0200501N001510450019N0100001N1+03171+02391100931ADDGF105991031021004501011011MA1999999099211MD1999999+0041REMSYN070AAXX  19184 82571 32497 50503 10317 20239 39921 40093 83211 333 58004;
0178825710999992006022000004-05500-045267FM-12+015399999V0209999C000012200019N0100001N1+02691+02431101061ADDGA1001+999999999GF100991001001999999001001KA1240M+03221MA1999999099331MD1999999-0021REMSYN082AAXX  20004 82571 32997 00000 10269 20243 39933 40106 333 10322 29079 55089 59002;
0156825710999992006022012004-05500-045267FM-12+015399999V0203601N002110450019N0100001N1+02601+02351101141ADDGF106991041021004501031011KA1240N+02371MA1999999099401MD1999999-0171REMSYN076AAXX  20124 82571 32497 63604 10260 20235 39940 40114 84231 333 20237 59017;
0137825710999992006022018004-05500-045267FM-12+015399999V0200501N002612200019N0100001N1+03191+02431100781ADDGF105991031021004501001011MA1999999099061MD1999999-0151REMSYN070AAXX  20184 82571 32497 50505 10319 20243 39906 40078 83201 333 59015;
0206825710999992006022100004-05500-045267FM-12+015399999V0200501N001012200019N0100001N1+02591+02351100971ADDAY191061AY211061GA1001+999999999GF100991001001999999001001KA1240M+03271MA1999999099231MD1999999-0101MW1131REMSYN088AAXX  21004 82571 31997 00502 10259 20235 39923 40097 71391 333 10327 29080 55068 59010;
0201825710999992006022112004-05500-045267FM-12+015399999V0200501N001010450019N0100001N1+02491+02411101201ADDAA124004191AY161061AY221061GF106991031051004501041001KA1240N+02331MA1999999099451MD1999999+0051MW1011REMSYN088AAXX  21124 82571 21497 60502 10249 20241 39945 40120 70162 83540 333 20233 58005 60044;
0165825710999992006022118004-05500-045267FM-12+015399999V0201401N001510450019N0100001N1+02691+02411100881ADDAY191061AY221061GF107991021031004501071001MA1999999099141MD1999999+0081MW1021REMSYN076AAXX  21184 82571 31497 71403 10269 20241 39914 40088 70292 82370 333 58008;
0168825710999992006022200004-05500-045267FM-12+015399999V0202701N001512200019N0100001N1+02501+02411100951ADDGF101991011011004501001001KA1240M+03051MA1999999099201MD1999999-0031REMSYN088AAXX  22004 82571 32497 12703 10250 20241 39920 40095 81100 333 10305 29092 55042 59003;
0156825710999992006022212004-05500-045267FM-12+015399999V0200501N001010450019N0100001N1+02541+02381101261ADDGF106991041021004501051011KA1240N+02241MA1999999099511MD1999999+0061REMSYN076AAXX  22124 82571 32497 60502 10254 20238 39951 40126 84251 333 20224 58006;
0137825710999992006022218004-05500-045267FM-12+015399999V0203201N000510450019N0100001N1+03191+02411100771ADDGF106991031021004501011011MA1999999099051MD1999999-0091REMSYN070AAXX  22184 82571 32497 63201 10319 20241 39905 40077 83211 333 59009;
0196825710999992006022300004-05500-045267FM-12+015399999V0209999C000012200019N0100001N1+02731+02541100971ADDAY101061AY201061GF101991011001017501041001KA1240M+03251MA1999999099231MD1999999+0031MW1131REMSYN094AAXX  23004 82571 31797 10000 10273 20254 39923 40097 71300 81040 333 10325 29083 55089 58003;
0201825710999992006022312004-05500-045267FM-12+015399999V0203601N001512200019N0100001N1+02631+02411101211ADDAA124000391AY161061AY211061GF103991021021004501001011KA1240N+02441MA1999999099471MD1999999-0041MW1011REMSYN088AAXX  23124 82571 21497 33603 10263 20241 39947 40121 70161 82201 333 20244 59004 69934;
0137825710999992006022318004-05500-045267FM-12+015399999V0200501N002112200019N0100001N1+03191+02351100731ADDGF104991041021004501041001MA1999999099021MD1999999-0031REMSYN070AAXX  23184 82571 32497 40504 10319 20235 39902 40073 84240 333 59003;
0196825710999992006022400004-05500-045267FM-12+015399999V0209999C000012200019N0100001N1+02771+02561101051ADDAY101061AY201061GF101991011031004501001001KA1240M+03301MA1999999099321MD1999999+0091MW1131REMSYN094AAXX  24004 82571 31497 10000 10277 20256 39932 40105 71300 81300 333 10330 29081 55091 58009;
0175825710999992006022412004-05500-045267FM-12+015399999V0200501N002619999999N0100001N1+02651+02391101171ADDGF107991999051004501001001KA1240N+02411MA1999999099431MD1999999-0041REMSYN076AAXX  24124 82571 32497 70505 10265 20239 39943 40117 84500 333 20241 59004;EQDQ01+000042SCOTLC
0137825710999992006022418004-05500-045267FM-12+015399999V0203601N002112200019N0100001N1+03071+02371100741ADDGF104991021021004501041011MA1999999099021MD1999999+0001REMSYN070AAXX  24184 82571 32497 43604 10307 20237 39902 40074 82241 333 58000;
0178825710999992006022500004-05500-045267FM-12+015399999V0203601N002112200019N0100001N1+02571+02441101041ADDGA1001+999999999GF100991001001999999001001KA1240M+03151MA1999999099301MD1999999-0021REMSYN082AAXX  25004 82571 32997 03604 10257 20244 39930 40104 333 10315 29084 55059 59002;
0201825710999992006022512004-05500-045267FM-12+015399999V0209999C000010450019N0100001N1+02571+02401101231ADDAA124023191AY161061AY221061GF106991031021004501031001KA1240N+02351MA1999999099481MD1999999+0051MW1031REMSYN088AAXX  25124 82571 21497 60500 10257 20240 39948 40123 70362 83230 333 20235 58005 60234;
0137825710999992006022518004-05500-045267FM-12+015399999V0200501N002112200019N0100001N1+03131+02351100731ADDGF102991021021004501001001MA1999999099011MD1999999-0011REMSYN070AAXX  25184 82571 32497 20504 10313 20235 39901 40073 82200 333 59001;
0178825710999992006022600004-05500-045267FM-12+015399999V0209999C000012200019N0100001N1+02711+02521100941ADDGA1001+999999999GF100991001001999999001001KA1240M+03181MA1999999099201MD1999999-0101REMSYN082AAXX  26004 82571 32997 00000 10271 20252 39920 40094 333 10318 29083 55082 59010;
0156825710999992006022612004-05500-045267FM-12+015399999V0203601N001010042019N0100001N1+02531+02441101141ADDGF106991061051004501001001KA1240N+02371MA1999999099401MD1999999-0081REMSYN076AAXX  26124 82571 32497 63602 10253 20244 39940 40114 86500 333 20237 59008;
0137825710999992006022618004-05500-045267FM-12+015399999V0200501N003112200019N0100001N1+03091+02411100681ADDGF103991021021004501001011MA1999999098961MD1999999-0051REMSYN070AAXX  26184 82571 32497 30506 10309 20241 39896 40068 82201 333 59005;
0213825710999992006022700004-05500-045267FM-12+015399999V0203601N002110042019N0100001N1+02511+02291101041ADDAA106000021AY121061AY211061GF108991081051004501999999KA1240M+03151MA1999999099291MD1999999+0091MW1951REMSYN100AAXX  27004 82571 21497 83604 10251 20229 39929 40104 79521 885// 333 10315 29084 55065 58009 69921;
0173825710999992006022712004-05500-045267FM-12+015399999V0200501N002110042019N0100001N1+02571+02351101121ADDAA124000021GF106991061021004501001001KA1240N+02281MA1999999099371MD1999999-0031REMSYN082AAXX  27124 82571 22497 60504 10257 20235 39937 40112 86200 333 20228 59003 69924;
0137825710999992006022718004-05500-045267FM-12+015399999V0200901N001512200019N0100001N1+03051+02451100761ADDGF102991021021004501001001MA1999999099031MD1999999+0071REMSYN070AAXX  27184 82571 32497 20903 10305 20245 39903 40076 82200 333 58007;
0196825710999992006022800004-05500-045267FM-12+015399999V0202301N001012200019N0100001N1+02771+02581101011ADDAY111061AY201061GF102991021031004501001001KA1240M+03171MA1999999099271MD1999999-0021MW1131REMSYN094AAXX  28004 82571 31497 22302 10277 20258 39927 40101 71310 82300 333 10317 29084 55071 59002;
0156825710999992006022812004-05500-045267FM-12+015399999V0203601N001512200019N0100001N1+02511+02291101241ADDGF104991021041004501031001KA1240N+02321MA1999999099501MD1999999+0131REMSYN076AAXX  28124 82571 32497 43603 10251 20229 39950 40124 82430 333 20232 58013;
0182825710999992006022818004-05500-045267FM-12+015399999V0200901N002110450019N0100001N1+02681+02431100851ADDAA106005191AY111061AY201061GF106991041031004501041001MA1999999099111MD1999999+0081MW1951REMSYN082AAXX  28184 82571 21497 60904 10268 20243 39911 40085 79510 84340 333 58008 60051;
0196825710999992006030100004-05500-045267FM-12+015399999V0200501N001010042019N0100001N1+02571+02491101131ADDAY121061AY211061GF105991051061004501001001KA1240M+03121MA1999999099381MD1999999+0111MW1131REMSYN094AAXX  01004 82571 31497 50502 10257 20249 39938 40113 71321 85600 333 10312 29091 55040 58011;
0201825710999992006030112004-05500-045267FM-12+015399999V0203201N000510450019N0100001N1+02471+02321101341ADDAA124007991AY161061AY221061GF106991041021004501031001KA1240N+02271MA1999999099591MD1999999+0091MW1021REMSYN088AAXX  01124 82571 21497 63201 10247 20232 39959 40134 70262 84230 333 20227 58009 60084;
0137825710999992006030118004-05500-045267FM-12+015399999V0202301N002612200019N0100001N1+03011+02461100921ADDGF106991041021004501001011MA1999999099191MD1999999+0081REMSYN070AAXX  01184 82571 32497 62305 10301 20246 39919 40092 84201 333 58008;
0213825710999992006030200004-05500-045267FM-12+015399999V0200501N001010042019N0100001N1+02401+02331101231ADDAA106008991AY191061AY261061GF108991081051004501999999KA1240M+03081MA1999999099471MD1999999+0091MW1131REMSYN100AAXX  02004 82571 21497 80502 10240 20233 39947 40123 71396 885// 333 10308 29088 55035 58009 60091;
0173825710999992006030212004-05500-045267FM-12+015399999V0200501N000510042019N0100001N1+02421+02331101491ADDAA124008991GF107991051051004501041001KA1240N+02361MA1999999099731MD1999999+0141REMSYN082AAXX  02124 82571 22497 70501 10242 20233 39973 40149 85540 333 20236 58014 60094;
0201825710999992006030218004-05500-045267FM-12+015399999V0203601N001511050019N0100001N1+03001+02461100951ADDAA106000091AY161061AY221061GF105991021021004501031011MA1999999099221MD1999999+0031MW1011REMSYN082AAXX  02184 82571 21497 53603 10300 20246 39922 40095 70162 82231 333 58003 69921;EQDQ01  00002PRCP06
0196825710999992006030300004-05500-045267FM-12+015399999V0200501N000512200019N0100001N1+02571+02371101171ADDAY121061AY201061GF103991031021004501001001KA1240M+03081MA1999999099421MD1999999-0051MW1131REMSYN094AAXX  03004 82571 31497 30501 10257 20237 39942 40117 71320 83200 333 10308 29086 55046 59005;
0192825710999992006030312004-05500-045267FM-12+015399999V0200501N000510042019N0100001N1+02561+02381101371ADDAA124000091GF108991081051004501999999KA1240N+02411MA1999999099621MD1999999-0111REMSYN082AAXX  03124 82571 22497 80501 10256 20238 39962 40137 885// 333 20241 59011 69924;EQDQ01  00002PRCP24
0137825710999992006030318004-05500-045267FM-12+015399999V0201801N001010450019N0100001N1+03101+02341100851ADDGF105991031021004501041011MA1999999099131MD1999999-0091REMSYN070AAXX  03184 82571 32497 51802 10310 20234 39913 40085 83241 333 59009;
0213825710999992006030400004-05500-045267FM-12+015399999V0200501N000510042019N0040001N1+02421+02351101221ADDAA106006191AY191061AY261061GF108991081051004501999999KA1240M+03181MA1999999099471MD1999999+0051MW1551REMSYN100AAXX  04004 82571 21496 80501 10242 20235 39947 40122 75596 885// 333 10318 29086 55/// 58005 60061;
0173825710999992006030412004-05500-045267FM-12+015399999V0200501N000510042019N0100001N1+02531+02401101371ADDAA124006191GF107991071051004501001001KA1240N+02371MA1999999099621MD1999999+0001REMSYN082AAXX  04124 82571 22497 70501 10253 20240 39962 40137 87500 333 20237 58000 60064;
0213825710999992006030500004-05500-045267FM-12+015399999V0209999C000010042019N0100001N1+02741+02521101221ADDAA106001091AY121061AY211061GF106991061051004501001001KA1240M+03171MA1999999099481MD1999999+0011MW1811REMSYN100AAXX  05004 82571 21497 60000 10274 20252 39948 40122 78121 86500 333 10317 29083 55/// 58001 69991;
0201825710999992006030512004-05500-045267FM-12+015399999V0209999C000011050019N0100001N1+02411+02301101431ADDAA124003091AY161061AY241061GF105991021021004501031011KA1240N+02241MA1999999099681MD1999999+0061MW1011REMSYN088AAXX  05124 82571 21497 50000 10241 20230 39968 40143 70164 82231 333 20224 58006 60034;
0137825710999992006030518004-05500-045267FM-12+015399999V0200901N001510042019N0100001N1+03151+02451100921ADDGF105991051021004501001001MA1999999099191MD1999999-0011REMSYN070AAXX  05184 82571 32497 50903 10315 20245 39919 40092 85200 333 59001;
0213825710999992006030600004-05500-045267FM-12+015399999V0203201N001010150019N0100001N1+02501+02401101231ADDAA106006191AY191061AY261061GF106991061001017501031001KA1240M+03201MA1999999099471MD1999999-0011MW1021REMSYN100AAXX  06004 82571 21797 63202 10250 20240 39947 40123 70296 86030 333 10320 29087 55064 59001 60061;
0173825710999992006030612004-05500-045267FM-12+015399999V0200501N002110042019N0100001N1+02681+02411101381ADDAA124006191GF107991071051004501001001KA1240N+02421MA1999999099631MD1999999-0051REMSYN082AAXX  06124 82571 22497 70504 10268 20241 39963 40138 87500 333 20242 59005 60064;
0137825710999992006030618004-05500-045267FM-12+015399999V0200501N002611050019N0100001N1+03131+02451101001ADDGF105991021021004501011011MA1999999099271MD1999999+0081REMSYN070AAXX  06184 82571 32497 50505 10313 20245 39927 40100 82211 333 58008;
0196825710999992006030700004-05500-045267FM-12+015399999V0201401N001010150019N0100001N1+02811+02481101181ADDAY111061AY201061GF105991051001017501071001KA1240M+03171MA1999999099451MD1999999-0021MW1131REMSYN094AAXX  07004 82571 31797 51402 10281 20248 39945 40118 71310 85070 333 10317 29079 55086 59002;
0156825710999992006030712004-05500-045267FM-12+015399999V0200501N002610042019N0100001N1+02591+02421101231ADDGF106991061021004501001001KA1240N+02371MA1999999099491MD1999999-0141REMSYN076AAXX  07124 82571 32497 60505 10259 20242 39949 40123 86200 333 20237 59014;
0137825710999992006030718004-05500-045267FM-12+015399999V0200701N002610042019N0100001N1+03111+02361100801ADDGF106991061021004501001001MA1999999099081MD1999999-0191REMSYN070AAXX  07184 82571 32497 60705 10311 20236 39908 40080 86200 333 59019;
0168825710999992006030800004-05500-045267FM-12+015399999V0200501N001512200019N0100001N1+02671+02411101001ADDGF103991031001017501031001KA1240M+03171MA1999999099261MD1999999-0191REMSYN088AAXX  08004 82571 32797 30503 10267 20241 39926 40100 83030 333 10317 29081 55086 59019;
0220825710999992006030812004-05500-045267FM-12+015399999V0200501N002610042019N0100001N1+02711+02411101211ADDAA124000091AY161061AY221061GF106991061021004501001001KA1240N+02451MA1999999099471MD1999999-0021MW1011REMSYN088AAXX  08124 82571 21497 60505 10271 20241 39947 40121 70162 86200 333 20245 59002 69914;EQDQ01  00002PRCP24
0137825710999992006030818004-05500-045267FM-12+015399999V0202301N002610450019N0100001N1+02861+02421100711ADDGF106991041051004501041001MA1999999098981MD1999999-0101REMSYN070AAXX  08184 82571 32497 62305 10286 20242 39898 40071 84540 333 59010;
0213825710999992006030900004-05500-045267FM-12+015399999V0202301N000510150019N0100001N1+02521+02401100941ADDAA106000591AY161061AY221061GF105991051001017501041001KA1240M+03011MA1999999099201MD1999999-0061MW1031REMSYN100AAXX  09004 82571 21797 52301 10252 20240 39920 40094 70362 85040 333 10301 29086 55049 59006 69961;
0173825710999992006030912004-05500-045267FM-12+015399999V0200201N001010042019N0100001N1+02641+02481101191ADDAA124000591GF107991061051004501031001KA1240N+02421MA1999999099451MD1999999-0021REMSYN082AAXX  09124 82571 22497 70202 10264 20248 39945 40119 86530 333 20242 59002 69964;
0137825710999992006030918004-05500-045267FM-12+015399999V0202701N001510450019N0100001N1+02921+02521100801ADDGF107991031051004501041001MA1999999099071MD1999999-0091REMSYN070AAXX  09184 82571 32497 72703 10292 20252 39907 40080 83540 333 59009;
0168825710999992006031000004-05500-045267FM-12+015399999V0209999C000012200019N0100001N1+02611+02411100991ADDGF102991021001017501031001KA1240M+03141MA1999999099251MD1999999+0051REMSYN088AAXX  10004 82571 32797 20000 10261 20241 39925 40099 82030 333 10314 29086 55039 58005;
0201825710999992006031012004-05500-045267FM-12+015399999V0200501N001010042019N0100001N1+02601+02401101241ADDAA124008991AY161061AY221061GF107991061051004501041001KA1240N+02421MA1999999099491MD1999999+0041MW1011REMSYN088AAXX  10124 82571 21497 70502 10260 20240 39949 40124 70162 86540 333 20242 58004 60094;
0137825710999992006031018004-05500-045267FM-12+015399999V0203601N002612200019N0100001N1+03131+02451100721ADDGF104991021021004501011011MA1999999099001MD1999999-0071REMSYN070AAXX  10184 82571 32497 43605 10313 20245 39900 40072 82211 333 59007;
0196825710999992006031100004-05500-045267FM-12+015399999V0200901N000510042019N0100001N1+02751+02501101021ADDAY111061AY201061GF108991081051004501999999KA1240M+03201MA1999999099291MD1999999+0041MW1131REMSYN094AAXX  11004 82571 31497 80901 10275 20250 39929 40102 71310 885// 333 10320 29082 55059 58004;
0201825710999992006031112004-05500-045267FM-12+015399999V0200501N000510042019N0100001N1+02521+02421101281ADDAA124030091AY161061AY221061GF107991051051004501031001KA1240N+02351MA1999999099541MD1999999+0051MW1011REMSYN088AAXX  11124 82571 21497 70501 10252 20242 39954 40128 70162 85530 333 20235 58005 60304;
0137825710999992006031118004-05500-045267FM-12+015399999V0200501N001510450019N0100001N1+03041+02481100841ADDGF106991031021004501041001MA1999999099121MD1999999+0121REMSYN070AAXX  11184 82571 32497 60503 10304 20248 39912 40084 83240 333 58012;
0168825710999992006031200004-05500-045267FM-12+015399999V0209999C000012200019N0100001N1+02711+02471101031ADDGF102991021001017501031001KA1240M+03111MA1999999099291MD1999999+0001REMSYN088AAXX  12004 82571 32797 20500 10271 20247 39929 40103 82030 333 10311 29084 55061 58000;
0156825710999992006031212004-05500-045267FM-12+015399999V0200201N002110450019N0100001N1+02571+02331101271ADDGF106991041021004501041001KA1240N+02351MA1999999099531MD1999999-0011REMSYN076AAXX  12124 82571 32497 60204 10257 20233 39953 40127 84240 333 20235 59001;
0137825710999992006031218004-05500-045267FM-12+015399999V0200501N002612200019N0100001N1+03131+02271100731ADDGF103991021021004501001011MA1999999099011MD1999999-0111REMSYN070AAXX  12184 82571 32497 30505 10313 20227 39901 40073 82201 333 59011;
0232825710999992006031300004-05500-045267FM-12+015399999V0209999C000012200019N0100001N1+02751+02461101021ADDAA106000091AY151061AY201061GF102991021001017501031001KA1240M+03201MA1999999099281MD1999999-0011MW1131REMSYN100AAXX  13004 82571 21797 23200 10275 20246 39928 40102 71350 82030 333 10320 29079 55094 59001 69911;EQDQ01  00002PRCP06
0192825710999992006031312004-05500-045267FM-12+015399999V0200201N002110042019N0100001N1+02531+02381101161ADDAA124000091GF107991051021004501041001KA1240N+02351MA1999999099421MD1999999-0111REMSYN082AAXX  13124 82571 22497 70204 10253 20238 39942 40116 85240 333 20235 59011 69914;EQDQ01  00002PRCP24
0137825710999992006031318004-05500-045267FM-12+015399999V0200201N001510042019N0100001N1+03131+02321100651ADDGF105991051021004501001001MA1999999098931MD1999999-0081REMSYN070AAXX  13184 82571 32497 50203 10313 20232 39893 40065 85200 333 59008;
0213825710999992006031400004-05500-045267FM-12+015399999V0203201N002110042019N0100001N1+02431+02391101061ADDAA106024991AY191061AY261061GF108991061071004501021999KA1240M+03211MA1999999099311MD1999999+0021MW1611REMSYN100AAXX  14004 82571 21497 83204 10243 20239 39931 40106 76196 8672/ 333 10321 29087 55055 58002 60251;
0173825710999992006031412004-05500-045267FM-12+015399999V0202701N002110450019N0100001N1+02531+02361101221ADDAA124024991GF106991041051004501031011KA1240N+02351MA1999999099471MD1999999+0051REMSYN082AAXX  14124 82571 22497 62704 10253 20236 39947 40122 84531 333 20235 58005 60254;
0182825710999992006031418004-05500-045267FM-12+015399999V0202701N001010042019N0100001N1+02571+02371100891ADDAA106007991AY161061AY221061GF108991081051004501999999MA1999999099141MD1999999+0211MW1021REMSYN082AAXX  14184 82571 21497 82702 10257 20237 39914 40089 70262 885// 333 58021 60081;
0213825710999992006031500004-05500-045267FM-12+015399999V0200701N000510450019N0100001N1+02401+02351101271ADDAA106002091AY161061AY221061GF107991041051004501071001KA1240M+02761MA1999999099511MD1999999+0201MW1021REMSYN100AAXX  15004 82571 21497 70701 10240 20235 39951 40127 70262 84570 333 10276 29093 55018 58020 60021;
0201825710999992006031512004-05500-045267FM-12+015399999V0200501N000510042019N0100001N1+02371+02311101231ADDAA124010991AY161061AY221061GF107991051051004501031001KA1240N+02291MA1999999099471MD1999999+0001MW1011REMSYN088AAXX  15124 82571 21497 70501 10237 20231 39947 40123 70162 85530 333 20229 58000 60114;
0137825710999992006031518004-05500-045267FM-12+015399999V0200501N001510450019N0100001N1+03081+02421100801ADDGF105991031021004501031011MA1999999099071MD1999999-0071REMSYN070AAXX  15184 82571 32497 50503 10308 20242 39907 40080 83231 333 59007;
0220825710999992006031612004-05500-045267FM-12+015399999V0200901N002110450019N0100001N1+02671+02391101241ADDAA124000091AY161061AY221061GF105991021021004501031001KA1240N+02381MA1999999099501MD1999999+0031MW1011REMSYN088AAXX  16124 82571 21497 50904 10267 20239 39950 40124 70162 82230 333 20238 58003 69914;EQDQ01  00002PRCP24
0182825710999992006031618004-05500-045267FM-12+015399999V0200501N002610450019N0100001N1+03041+02521100721ADDAA106013091AY161061AY221061GF106991031051004501041001MA1999999099001MD1999999-0071MW1001REMSYN082AAXX  16184 82571 21497 60505 10304 20252 39900 40072 70062 83540 333 59007 60131;
0232825710999992006031700004-05500-045267FM-12+015399999V0209999C000012200019N0100001N1+02641+02441100941ADDAA106000091AY161061AY221061GF104991011031004501041001KA1240M+03151MA1999999099201MD1999999-0041MW1131REMSYN100AAXX  17004 82571 21497 40000 10264 20244 39920 40094 71362 81340 333 10315 29084 55069 59004 69921;EQDQ01  00002PRCP06
0201825710999992006031712004-05500-045267FM-12+015399999V0200501N002610042019N0100001N1+02641+02411101071ADDAA124014091AY161061AY221061GF107991071051004501001001KA1240N+02391MA1999999099331MD1999999-0171MW1021REMSYN088AAXX  17124 82571 21497 70505 10264 20241 39933 40107 70262 87500 333 20239 59017 60144;
0168825710999992006031800004-05500-045267FM-12+015399999V0202301N001012200019N0100001N1+02551+02381100911ADDGF103991031001017501071001KA1240M+03171MA1999999099171MD1999999-0031REMSYN088AAXX  18004 82571 32797 32302 10255 20238 39917 40091 83070 333 10317 29083 55065 59003;
0156825710999992006031812004-05500-045267FM-12+015399999V0202901N000510042019N0100001N1+02481+02411101101ADDGF108991081051004501999999KA1240N+02341MA1999999099351MD1999999+0021REMSYN076AAXX  18124 82571 32497 82901 10248 20241 39935 40110 885// 333 20234 58002;
0182825710999992006031818004-05500-045267FM-12+015399999V0202301N001510042019N0100001N1+02311+02241100881ADDAA106003091AY191061AY251061GF108991081051004501999999MA1999999099131MD1999999+0171MW1611REMSYN082AAXX  18184 82571 21497 82303 10231 20224 39913 40088 76195 885// 333 58017 60031;
0196825710999992006031900004-05500-045267FM-12+015399999V0202701N001012200019N0100001N1+02291+02251101091ADDAY121061AY221061GF104991041061004501001001KA1240M+02791MA1999999099331MD1999999+0161MW1131REMSYN094AAXX  19004 82571 31497 42702 10229 20225 39933 40109 71322 84600 333 10279 29096 55000 58016;
0201825710999992006031912004-05500-045267FM-12+015399999V0203401N000510042019N0100001N1+02371+02291101201ADDAA124004191AY161061AY221061GF108991081051004501999999KA1240N+02171MA1999999099441MD1999999+0091MW1021REMSYN088AAXX  19124 82571 21497 83401 10237 20229 39944 40120 70262 885// 333 20217 58009 60044;
0178825710999992006032000004-05500-045267FM-12+015399999V0209999C000012200019N0100001N1+02511+02401100991ADDGA1001+999999999GF100991001001999999001001KA1240M+03101MA1999999099241MD1999999-0091REMSYN082AAXX  20004 82571 32997 00000 10251 20240 39924 40099 333 10310 29089 55040 59009;
0156825710999992006032012004-05500-045267FM-12+015399999V0203201N001010450019N0100001N1+02461+02361101241ADDGF106991031021004501011011KA1240N+02251MA1999999099491MD1999999-0051REMSYN076AAXX  20124 82571 32497 63202 10246 20236 39949 40124 83211 333 20225 59005;
0201825710999992006032018004-05500-045267FM-12+015399999V0202301N001012200019N0100001N1+03031+02481100781ADDAA106000091AY161061AY221061GF106991041021004501001011MA1999999099051MD1999999+0001MW1021REMSYN082AAXX  20184 82571 21497 62302 10303 20248 39905 40078 70262 84201 333 58000 69921;EQDQ01  00002PRCP06
0213825710999992006032100004-05500-045267FM-12+015399999V0201801N000510042019N0100001N1+02451+02361100981ADDAA106009991AY161061AY221061GF108991081051004501999999KA1240M+03071MA1999999099231MD1999999-0011MW1021REMSYN100AAXX  21004 82571 21497 81801 10245 20236 39923 40098 70262 885// 333 10307 29088 55051 59001 60101;
0173825710999992006032112004-05500-045267FM-12+015399999V0200501N002112200019N0100001N1+02591+02371101121ADDAA124010991GF103991021021004501001011KA1240N+02241MA1999999099371MD1999999-0121REMSYN082AAXX  21124 82571 22497 30504 10259 20237 39937 40112 82201 333 20224 59012 60114;
0201825710999992006032118004-05500-045267FM-12+015399999V0201401N002112200019N0100001N1+02931+02361100751ADDAA106000091AY161061AY211061GF106991041021004501001011MA1999999099021MD1999999-0031MW1011REMSYN082AAXX  21184 82571 21497 61404 10293 20236 39902 40075 70161 84201 333 59003 69921;EQDQ01  00002PRCP06
0206825710999992006032200004-05500-045267FM-12+015399999V0203201N000512200019N0100001N1+02661+02501101011ADDAY121061AY211061GA1001+999999999GF100991001001999999001001KA1240M+03181MA1999999099271MD1999999+0041MW1131REMSYN088AAXX  22004 82571 31997 03201 10266 20250 39927 40101 71321 333 10318 29085 55079 58004;
0201825710999992006032212004-05500-045267FM-12+015399999V0200501N000510450019N0100001N1+02471+02301101171ADDAA124001091AY161061AY221061GF106991041021004501041001KA1240N+02291MA1999999099421MD1999999+0051MW1011REMSYN088AAXX  22124 82571 21497 60501 10247 20230 39942 40117 70162 84240 333 20229 58005 60014;
0182825710999992006032218004-05500-045267FM-12+015399999V0201801N001510450019N0100001N1+03041+02521100731ADDAA106002091AY121061AY221061GF106991031051004501041011MA1999999099001MD1999999-0021MW1811REMSYN082AAXX  22184 82571 21497 61803 10304 20252 39900 40073 78122 83541 333 59002 60021;
0201825710999992006032312004-05500-045267FM-12+015399999V0202901N001010450019N0100001N1+02421+02301101251ADDAA124018091AY161061AY221061GF106991021021004501051011KA1240N+02271MA1999999099491MD1999999+0071MW1011REMSYN088AAXX  23124 82571 21497 62902 10242 20230 39949 40125 70162 82251 333 20227 58007 60184;
0182825710999992006032318004-05500-045267FM-12+015399999V0202501N001510450019N0100001N1+02591+02401100871ADDAA106011991AY191061AY261061GF107991031031004501071001MA1999999099121MD1999999+0121MW1951REMSYN082AAXX  23184 82571 21497 72503 10259 20240 39912 40087 79596 83370 333 58012 60121;
0196825710999992006032400004-05500-045267FM-12+015399999V0209999C000012200019N0100001N1+02541+02471101021ADDAY111061AY201061GF101991011031004501001001KA1240M+03101MA1999999099271MD1999999-0131MW1131REMSYN094AAXX  24004 82571 31497 10000 10254 20247 39927 40102 71310 81300 333 10310 29094 55037 59013;
0201825710999992006032412004-05500-045267FM-12+015399999V0201101N002610450019N0100001N1+02391+02241101351ADDAA124031091AY161061AY221061GF107991031051004501071001KA1240N+02251MA1999999099591MD1999999+0101MW1021REMSYN088AAXX  24124 82571 21497 71105 10239 20224 39959 40135 70262 83570 333 20225 58010 60314;
0137825710999992006032418004-05500-045267FM-12+015399999V0200901N002610450019N0100001N1+02801+02311100931ADDGF106991021021004501071001MA1999999099191MD1999999+0071REMSYN070AAXX  24184 82571 32497 60905 10280 20231 39919 40093 82270 333 58007;
0196825710999992006032500004-05500-045267FM-12+015399999V0209999C000012200019N0100001N1+02571+02441101131ADDAY111061AY201061GF102991021001017501031001KA1240M+02881MA1999999099381MD1999999+0111MW1131REMSYN094AAXX  25004 82571 31797 20000 10257 20244 39938 40113 71310 82030 333 10288 29088 55016 58011;
0220825710999992006032512004-05500-045267FM-12+015399999V0203601N000510450019N0100001N1+02611+02421101321ADDAA124000091AY151061AY211061GF106991031021004501031001KA1240N+02291MA1999999099571MD1999999-0021MW1011REMSYN088AAXX  25124 82571 21497 63601 10261 20242 39957 40132 70151 83230 333 20229 59002 69914;EQDQ01  00002PRCP24
0137825710999992006032518004-05500-045267FM-12+015399999V0201601N002610042019N0100001N1+03151+02421100811ADDGF106991061021004501001001MA1999999099091MD1999999-0101REMSYN070AAXX  25184 82571 32497 61605 10315 20242 39909 40081 86200 333 59010;
0213825710999992006032600004-05500-045267FM-12+015399999V0200201N000510042019N0100001N1+02471+02341101231ADDAA106002091AY161061AY221061GF108991081051004501999999KA1240M+03221MA1999999099481MD1999999+0101MW1611REMSYN100AAXX  26004 82571 21497 80201 10247 20234 39948 40123 76162 885// 333 10322 29084 55046 58010 60021;
0201825710999992006032612004-05500-045267FM-12+015399999V0202301N000510450019N0100001N1+02531+02381101371ADDAA124004191AY161061AY221061GF106991031021004501031011KA1240N+02291MA1999999099621MD1999999+0051MW1021REMSYN088AAXX  26124 82571 21497 62301 10253 20238 39962 40137 70262 83231 333 20229 58005 60044;
0137825710999992006032618004-05500-045267FM-12+015399999V0200501N002110450019N0100001N1+03031+02521100861ADDGF106991041031004501011011MA1999999099131MD1999999+0041REMSYN070AAXX  26184 82571 32497 60504 10303 20252 39913 40086 84311 333 58004;
0196825710999992006032700004-05500-045267FM-12+015399999V0203201N001512200019N0100001N1+02561+02361101261ADDAY111061AY201061GF102991021031004501001001KA1240M+03151MA1999999099511MD1999999+0031MW1131REMSYN094AAXX  27004 82571 31497 23203 10256 20236 39951 40126 71310 82300 333 10315 29086 55050 58003;
0156825710999992006032712004-05500-045267FM-12+015399999V0203601N000510450019N0100001N1+02551+02381101441ADDGF106991041051004501031011KA1240N+02361MA1999999099681MD1999999+0071REMSYN076AAXX  27124 82571 32497 63601 10255 20238 39968 40144 84531 333 20236 58007;
0182825710999992006032718004-05500-045267FM-12+015399999V0200501N002111050019N0100001N1+02851+02521101021ADDAA106000591AY161061AY211061GF105991021021004501041011MA1999999099281MD1999999+0151MW1511REMSYN082AAXX  27184 82571 21497 50504 10285 20252 39928 40102 75161 82241 333 58015 69961;
0196825710999992006032800004-05500-045267FM-12+015399999V0202701N001012200019N0100001N1+02561+02461101221ADDAY111061AY201061GF102991021031004501001001KA1240M+03071MA1999999099471MD1999999-0041MW1131REMSYN094AAXX  28004 82571 31497 22702 10256 20246 39947 40122 71310 82300 333 10307 29090 55045 59004;
0201825710999992006032812004-05500-045267FM-12+015399999V0209999C000010450019N0100001N1+02581+02441101381ADDAA124000891AY161061AY221061GF106991031051004501031011KA1240N+02391MA1999999099631MD1999999-0061MW1011REMSYN088AAXX  28124 82571 21497 62900 10258 20244 39963 40138 70162 83531 333 20239 59006 69974;
0182825710999992006032818004-05500-045267FM-12+015399999V0202301N002110450019N0100001N1+02821+02581100841ADDAA106001091AY161061AY221061GF106991031021004501041001MA1999999099111MD1999999-0171MW1021REMSYN082AAXX  28184 82571 21497 62304 10282 20258 39911 40084 70262 83240 333 59017 60011;
0173825710999992006032912004-05500-045267FM-12+015399999V0200501N000510450019N0100001N1+02521+02401101301ADDAA124002091GF107991041021004501011011KA1240N+02321MA1999999099551MD1999999-0081REMSYN082AAXX  29124 82571 22497 70501 10252 20240 39955 40130 84211 333 20232 59008 60024;
0213825710999992006033000004-05500-045267FM-12+015399999V0202301N002110042019N0020001N1+02371+02331101351ADDAA106024991AY191061AY261061GF108991081001004501021999KA1240M+03161MA1999999099591MD1999999+0131MW1921REMSYN100AAXX  30004 82571 21495 82304 10237 20233 39959 40135 79296 8802/ 333 10316 29088 55049 58013 60251;
0201825710999992006033012004-05500-045267FM-12+015399999V0202301N001010450019N0100001N1+02431+02371101351ADDAA124046091AY161061AY221061GF107991041051004501031001KA1240N+02271MA1999999099591MD1999999+0041MW1011REMSYN088AAXX  30124 82571 21497 72302 10243 20237 39959 40135 70162 84530 333 20227 58004 60464;
0137825710999992006033018004-05500-045267FM-12+015399999V0200701N001012200019N0100001N1+02971+02371100811ADDGF104991021021004501041001MA1999999099081MD1999999+0081REMSYN070AAXX  30184 82571 32497 40702 10297 20237 39908 40081 82240 333 58008;
0213825710999992006033100004-05500-045267FM-12+015399999V0203601N000510042019N0040001N1+02371+02331101331ADDAA106055991AY191061AY261061GF108991081001004501021999KA1240M+03141MA1999999099571MD1999999-0021MW1611REMSYN100AAXX  31004 82571 21496 83601 10237 20233 39957 40133 76196 8802/ 333 10314 29090 55049 59002 60561;
0201825710999992006033112004-05500-045267FM-12+015399999V0202301N000510042019N0100001N1+02491+02381101441ADDAA124063091AY161061AY221061GF107991051051004501031001KA1240N+02351MA1999999099681MD1999999+0091MW1011REMSYN088AAXX  31124 82571 21497 72301 10249 20238 39968 40144 70162 85530 333 20235 58009 60634;
0182825710999992006033118004-05500-045267FM-12+015399999V0201601N001510450019N0100001N1+02691+02451100891ADDAA106002091AY121061AY221061GF106991031051004501041001MA1999999099141MD1999999+0061MW1811REMSYN082AAXX  31184 82571 21497 61603 10269 20245 39914 40089 78122 83540 333 58006 60021;
0196825710999992006040100004-05500-045267FM-12+015399999V0203201N001010090019N0100001N1+02541+02471101221ADDAY121061AY211061GF106991061081004501001001KA1240M+03051MA1999999099471MD1999999-0101MW1131REMSYN094AAXX  01004 82571 31497 63202 10254 20247 39947 40122 71321 86800 333 10305 29093 55022 59010;
0201825710999992006040112004-05500-045267FM-12+015399999V0200201N001510042019N0100001N1+02441+02371101341ADDAA124075991AY161061AY221061GF107991071051004501001001KA1240N+02281MA1999999099591MD1999999+0021MW1021REMSYN088AAXX  01124 82571 21497 70203 10244 20237 39959 40134 70262 87500 333 20228 58002 60764;
0137825710999992006040118004-05500-045267FM-12+015399999V0203601N003111050019N0100001N1+02811+02441100951ADDGF105991021021004501031011MA1999999099211MD1999999+0071REMSYN070AAXX  01184 82571 32497 53606 10281 20244 39921 40095 82231 333 58007;
0178825710999992006040200004-05500-045267FM-12+015399999V0209999C000012200019N0100001N1+02521+02381101201ADDGA1001+999999999GF100991001001999999001001KA1240M+03011MA1999999099451MD1999999-0021REMSYN082AAXX  02004 82571 32997 00000 10252 20238 39945 40120 333 10301 29090 55047 59002;
0201825710999992006040212004-05500-045267FM-12+015399999V0200701N000510042019N0100001N1+02631+02481101311ADDAA124000591AY121061AY211061GF105991051021004501001001KA1240N+02361MA1999999099561MD1999999-0031MW1811REMSYN088AAXX  02124 82571 21497 50701 10263 20248 39956 40131 78121 85200 333 20236 59003 69944;
0137825710999992006040218004-05500-045267FM-12+015399999V0200901N001512200019N0100001N1+03131+02321100851ADDGF104991021021004501001011MA1999999099131MD1999999-0081REMSYN070AAXX  02184 82571 32497 40903 10313 20232 39913 40085 82201 333 59008;
0213825710999992006040300004-05500-045267FM-12+015399999V0202001N001010042019N0100001N1+02431+02371101201ADDAA106007991AY161061AY211061GF108991081051004501999999KA1240M+03181MA1999999099451MD1999999+0001MW1131REMSYN100AAXX  03004 82571 21497 82002 10243 20237 39945 40120 71361 885// 333 10318 29087 55067 58000 60081;
0201825710999992006040312004-05500-045267FM-12+015399999V0200501N000512200019N0100001N1+02491+02401101261ADDAA124007991AY161061AY241061GF103991021021004501031001KA1240N+02271MA1999999099501MD1999999-0061MW1011REMSYN088AAXX  03124 82571 21497 30501 10249 20240 39950 40126 70164 82230 333 20227 59006 60084;
0137825710999992006040318004-05500-045267FM-12+015399999V0200201N002612200019N0100001N1+03081+02471100781ADDGF103991021021004501001011MA1999999099051MD1999999-0081REMSYN070AAXX  03184 82571 32497 30205 10308 20247 39905 40078 82201 333 59008;
0196825710999992006040400004-05500-045267FM-12+015399999V0209999C000012200019N0100001N1+02631+02501101121ADDAY191061AY211061GF102991021001017501031001KA1240M+03151MA1999999099371MD1999999-0081MW1131REMSYN094AAXX  04004 82571 31797 22900 10263 20250 39937 40112 71391 82030 333 10315 29087 55074 59008;
0201825710999992006040412004-05500-045267FM-12+015399999V0201601N001010450019N0100001N1+02191+02131101281ADDAA124033091AY161061AY291061GF108991041071004501021999KA1240N+02141MA1999999099521MD1999999+0021MW1201REMSYN088AAXX  04124 82571 21497 81602 10219 20213 39952 40128 72069 8472/ 333 20214 58002 60334;
0182825710999992006040418004-05500-045267FM-12+015399999V0203401N002610450019N0100001N1+02731+02451100971ADDAA106001091AY161061AY221061GF108991041071004501021999MA1999999099231MD1999999+0181MW1951REMSYN082AAXX  04184 82571 21497 83405 10273 20245 39923 40097 79562 8472/ 333 58018 60011;
0213825710999992006040500004-05500-045267FM-12+015399999V0209999C000010042019N0100001N1+02391+02371101151ADDAA106001091AY161061AY221061GF106991061051004501001001KA1240M+02841MA1999999099391MD1999999+0021MW1011REMSYN100AAXX  05004 82571 21497 60500 10239 20237 39939 40115 70162 86500 333 10284 29094 55004 58002 60011;
0201825710999992006040512004-05500-045267FM-12+015399999V0201101N000510042019N0100001N1+02431+02351101271ADDAA124003091AY161061AY221061GF108991081051004501999999KA1240N+02221MA1999999099511MD1999999-0011MW1021REMSYN088AAXX  05124 82571 21497 81101 10243 20235 39951 40127 70262 885// 333 20222 59001 60034;
0137825710999992006040518004-05500-045267FM-12+015399999V0200201N001512200019N0100001N1+03071+02401100741ADDGF104991021021004501011011MA1999999099011MD1999999-0221REMSYN070AAXX  05184 82571 32497 40203 10307 20240 39901 40074 82211 333 59022;
0201825710999992006040612004-05500-045267FM-12+015399999V0203401N000510042019N0100001N1+02531+02471101221ADDAA124018091AY161061AY221061GF108991081051004501999999KA1240N+02351MA1999999099471MD1999999-0041MW1021REMSYN088AAXX  06124 82571 21497 83401 10253 20247 39947 40122 70262 885// 333 20235 59004 60184;
0137825710999992006040618004-05500-045267FM-12+015399999V0202501N001010450019N0100001N1+03021+02501100661ADDGF106991021031004501041011MA1999999098941MD1999999-0071REMSYN070AAXX  06184 82571 32497 62502 10302 20250 39894 40066 82341 333 59007;
0156825710999992006040712004-05500-045267FM-12+015399999V0203201N000510042019N0100001N1+02501+02341101201ADDGF107991051051004501031001KA1240N+02251MA1999999099451MD1999999-0021REMSYN076AAXX  07124 82571 32497 73201 10250 20234 39945 40120 85530 333 20225 59002;
0137825710999992006040718004-05500-045267FM-12+015399999V0203601N002112200019N0100001N1+03111+02481100651ADDGF104991031021004501001011MA1999999098931MD1999999-0011REMSYN070AAXX  07184 82571 32497 43604 10311 20248 39893 40065 83201 333 59001;
0213825710999992006040800004-05500-045267FM-12+015399999V0200901N000510042019N0100001N1+02571+02441101041ADDAA106000391AY161061AY221061GF108991081051004501999999KA1240M+03171MA1999999099291MD1999999-0051MW1131REMSYN100AAXX  08004 82571 21497 80901 10257 20244 39929 40104 71362 885// 333 10317 29086 55037 59005 69931;
0201825710999992006040812004-05500-045267FM-12+015399999V0202901N001010042019N0100001N1+02421+02321101151ADDAA124003091AY161061AY221061GF106991061051004501001001KA1240N+02281MA1999999099401MD1999999-0041MW1511REMSYN088AAXX  08124 82571 21497 62902 10242 20232 39940 40115 75162 86500 333 20228 59004 60034;
0182825710999992006040818004-05500-045267FM-12+015399999V0203201N002110450019N0100001N1+02671+02461100741ADDAA106001091AY161061AY221061GF106991041021004501031001MA1999999099001MD1999999+0071MW1021REMSYN082AAXX  08184 82571 21497 63204 10267 20246 39900 40074 70262 84230 333 58007 60011;
0232825710999992006040900004-05500-045267FM-12+015399999V0202301N000510042019N0100001N1+02311+02251101181ADDAA106002091AY161061AY221061GF108991999061004501001001KA1240M+03021MA1999999099421MD1999999+0131MW1131REMSYN100AAXX  09004 82571 21497 82301 10231 20225 39942 40118 71362 85600 333 10302 29094 55015 58013 60021;EQDQ01+000052SCOTLC
0201825710999992006040912004-05500-045267FM-12+015399999V0202701N002110042019N0100001N1+02291+02251101281ADDAA124023191AY161061AY221061GF108991081051004501999999KA1240N+02221MA1999999099511MD1999999+0111MW1021REMSYN088AAXX  09124 82571 21497 82704 10229 20225 39951 40128 70262 885// 333 20222 58011 60234;
0137825710999992006040918004-05500-045267FM-12+015399999V0200201N002110450019N0100001N1+02781+02381100691ADDGF106991021021004501041011MA1999999098951MD1999999-0051REMSYN070AAXX  09184 82571 32497 60204 10278 20238 39895 40069 82241 333 59005;
0168825710999992006041000004-05500-045267FM-12+015399999V0209999C000012200019N0100001N1+02491+02381100851ADDGF102991021001017501031001KA1240M+02881MA1999999099101MD1999999-0321REMSYN088AAXX  10004 82571 32797 20000 10249 20238 39910 40085 82030 333 10288 29090 55022 59032;
0184825710999992006041012004-05500-045267FM-12+015399999V0202701N000510450019N0100001N1+02481+02391101121ADDAY141061AY221061GF106991031021004501031011KA1240N+02281MA1999999099371MD1999999-0141MW1011REMSYN082AAXX  10124 82571 31497 62701 10248 20239 39937 40112 70142 83231 333 20228 59014;
0137825710999992006041018004-05500-045267FM-12+015399999V0200501N001012200019N0100001N1+03231+02391100701ADDGF104991031021004501001011MA1999999098781MD1999999-0171REMSYN070AAXX  10184 82571 32497 40502 10323 20239 39878 40070 83201 333 59017;
0196825710999992006041100004-05500-045267FM-12+015399999V0200501N003110450019N0100001N1+02541+02311100931ADDAY111061AY201061GF106991031021004501031001KA1240M+03281MA1999999099181MD1999999+0081MW1131REMSYN094AAXX  11004 82571 31497 60506 10254 20231 39918 40093 71310 83230 333 10328 29082 55086 58008;
0201825710999992006041112004-05500-045267FM-12+015399999V0202901N001510450019N0100001N1+02531+02401101141ADDAA124016091AY161061AY211061GF106991021021004501031011KA1240N+02351MA1999999099391MD1999999+0021MW1031REMSYN088AAXX  11124 82571 21497 62903 10253 20240 39939 40114 70361 82231 333 20235 58002 60164;
0182825710999992006041118004-05500-045267FM-12+015399999V0200501N002610450019N0040001N1+02621+02421100691ADDAA106009991AY161061AY221061GF107991041091004501041001MA1999999098951MD1999999+0171MW1951REMSYN082AAXX  11184 82571 21496 70505 10262 20242 39895 40069 79562 84940 333 58017 60101;
0213825710999992006041200004-05500-045267FM-12+015399999V0200701N001010150019N0100001N1+02381+02351101051ADDAA106000391AY161061AY221061GF106991061001017501071001KA1240M+03131MA1999999099301MD1999999+0121MW1131REMSYN100AAXX  12004 82571 21797 60702 10238 20235 39930 40105 71362 86070 333 10313 29094 55040 58012 69931;
0173825710999992006041212004-05500-045267FM-12+015399999V0209999C000010042019N0100001N1+02411+02261101301ADDAA124009991GF107991051051004501031011KA1240N+02241MA1999999099541MD1999999+0151REMSYN082AAXX  12124 82571 22497 70700 10241 20226 39954 40130 85531 333 20224 58015 60104;
0137825710999992006041218004-05500-045267FM-12+015399999V0200501N001510450019N0100001N1+03011+02461100741ADDGF105991031021004501011011MA1999999099011MD1999999+0061REMSYN070AAXX  12184 82571 32497 50503 10301 20246 39901 40074 83211 333 58006;
0196825710999992006041300004-05500-045267FM-12+015399999V0202701N001012200019N0100001N1+02641+02501101081ADDAY111061AY201061GF103991011021004501011011KA1240M+03081MA1999999099331MD1999999+0031MW1131REMSYN094AAXX  13004 82571 31497 32702 10264 20250 39933 40108 71310 81211 333 10308 29087 55075 58003;
0201825710999992006041312004-05500-045267FM-12+015399999V0201601N001010450019N0100001N1+02451+02411101221ADDAA124000391AY161061AY221061GF108991041071004501021999KA1240N+02391MA1999999099471MD1999999-0071MW1021REMSYN088AAXX  13124 82571 21497 81602 10245 20241 39947 40122 70262 8472/ 333 20239 59007 69934;
0182825710999992006041318004-05500-045267FM-12+015399999V0203401N001010450019N0100001N1+02991+02421100611ADDAA106009991AY161061AY221061GF106991041021004501031001MA1999999098891MD1999999-0121MW1021REMSYN082AAXX  13184 82571 21497 63402 10299 20242 39889 40061 70262 84230 333 59012 60101;
0168825710999992006041400004-05500-045267FM-12+015399999V0209999C000012200019N0100001N1+02551+02461100931ADDGF102991021001017501041001KA1240M+03111MA1999999099181MD1999999-0151REMSYN088AAXX  14004 82571 32797 20000 10255 20246 39918 40093 82040 333 10311 29089 55026 59015;
0184825710999992006041412004-05500-045267FM-12+015399999V0200901N001010042019N0100001N1+02481+02411101031ADDAY141061AY221061GF106991061021004501001001KA1240N+02291MA1999999099281MD1999999-0191MW1011REMSYN082AAXX  14124 82571 31497 60902 10248 20241 39928 40103 70142 86200 333 20229 59019;
0137825710999992006041418004-05500-045267FM-12+015399999V0200501N001512200019N0100001N1+03121+02411100511ADDGF106991041021004501001011MA1999999098791MD1999999-0101REMSYN070AAXX  14184 82571 32497 60503 10312 20241 39879 40051 84201 333 59010;
0168825710999992006041500004-05500-045267FM-12+015399999V0209999C000012200019N0100001N1+02711+02521100831ADDGF103991031001017501031001KA1240M+03181MA1999999099091MD1999999-0091REMSYN088AAXX  15004 82571 32797 30000 10271 20252 39909 40083 83030 333 10318 29085 55069 59009;
0201825710999992006041512004-05500-045267FM-12+015399999V0201601N002110042019N0100001N1+02311+02271101121ADDAA124007191AY161061AY221061GF108991051071004501021999KA1240N+02311MA1999999099371MD1999999+0091MW1291REMSYN088AAXX  15124 82571 21497 81604 10231 20227 39937 40112 72962 8572/ 333 20231 58009 60074;
0137825710999992006041518004-05500-045267FM-12+015399999V0202301N002610042019N0100001N1+03051+02521100641ADDGF106991051021004501031001MA1999999098921MD1999999+0131REMSYN070AAXX  15184 82571 32497 62305 10305 20252 39892 40064 85230 333 58013;
0201825710999992006041612004-05500-045267FM-12+015399999V0203201N001010042019N0100001N1+02391+02351101481ADDAA124013091AY161061AY221061GF108991081051004501999999KA1240N+02321MA1999999099721MD1999999+0351MW1021REMSYN088AAXX  16124 82571 21497 83202 10239 20235 39972 40148 70262 885// 333 20232 58035 60134;
0137825710999992006041618004-05500-045267FM-12+015399999V0202701N001510450019N0100001N1+02881+02461101001ADDGF106991031031004501041011MA1999999099261MD1999999+0341REMSYN070AAXX  16184 82571 32497 62703 10288 20246 39926 40100 83341 333 58034;
0213825710999992006041700004-05500-045267FM-12+015399999V0209999C000010042019N0040001N1+02391+02311101421ADDAA106011991AY191061AY261061GF108991051071004501021999KA1240M+02931MA1999999099661MD1999999+0291MW1911REMSYN100AAXX  17004 82571 21496 80200 10239 20231 39966 40142 79196 8572/ 333 10293 29091 55012 58029 60121;
0201825710999992006041712004-05500-045267FM-12+015399999V0202301N000510042019N0100001N1+02431+02341101411ADDAA124013091AY161061AY221061GF107991051021004501041011KA1240N+02281MA1999999099651MD1999999-0071MW1021REMSYN088AAXX  17124 82571 21497 72301 10243 20234 39965 40141 70262 85241 333 20228 59007 60134;
0178825710999992006041800004-05500-045267FM-12+015399999V0203601N000512200019N0100001N1+02591+02461101211ADDGA1001+999999999GF100991001001999999001001KA1240M+03021MA1999999099461MD1999999-0201REMSYN082AAXX  18004 82571 32997 03601 10259 20246 39946 40121 333 10302 29088 55036 59020;
0156825710999992006041812004-05500-045267FM-12+015399999V0202901N001510042019N0100001N1+02581+02381101341ADDGF106991051021004501011011KA1240N+02321MA1999999099591MD1999999-0061REMSYN076AAXX  18124 82571 32497 62903 10258 20238 39959 40134 85211 333 20232 59006;
0137825710999992006041818004-05500-045267FM-12+015399999V0203401N002110450019N0100001N1+03101+02411100811ADDGF105991031021004501011011MA1999999099091MD1999999-0111REMSYN070AAXX  18184 82571 32497 53404 10310 20241 39909 40081 83211 333 59011;
0168825710999992006041900004-05500-045267FM-12+015399999V0209999C000012200019N0100001N1+02671+02461101151ADDGF101991011011999999001001KA1240M+03151MA1999999099411MD1999999-0051REMSYN088AAXX  19004 82571 32997 10000 10267 20246 39941 40115 81100 333 10315 29083 55085 59005;
0201825710999992006041912004-05500-045267FM-12+015399999V0200901N000510042019N0100001N1+02431+02371101371ADDAA124000021AY121061AY221061GF107991051051004501051001KA1240N+02321MA1999999099621MD1999999+0031MW1201REMSYN088AAXX  19124 82571 21497 70901 10243 20237 39962 40137 72022 85550 333 20232 58003 69914;
0178825710999992006042000004-05500-045267FM-12+015399999V0209999C000012200019N0100001N1+02651+02481101111ADDGA1001+999999999GF100991001001999999001001KA1240M+03101MA1999999099361MD1999999-0051REMSYN082AAXX  20004 82571 32997 00000 10265 20248 39936 40111 333 10310 29086 55075 59005;
0156825710999992006042012004-05500-045267FM-12+015399999V0200701N000510042019N0100001N1+02511+02401101361ADDGF107991061051004501001011KA1240N+02351MA1999999099611MD1999999-0011REMSYN076AAXX  20124 82571 32497 70701 10251 20240 39961 40136 86501 333 20235 59001;
0206825710999992006042100004-05500-045267FM-12+015399999V0203601N000512200019N0100001N1+02491+02411101311ADDAY191061AY211061GA1001+999999999GF100991001001999999001001KA1240M+03081MA1999999099561MD1999999+0201MW1001REMSYN088AAXX  21004 82571 31997 03601 10249 20241 39956 40131 70091 333 10308 29090 55038 58020;
0201825710999992006042112004-05500-045267FM-12+015399999V0209999C000010042019N0100001N1+02391+02371101401ADDAA124006191AY161061AY221061GF106991051051004501031001KA1240N+02301MA1999999099641MD1999999+0031MW1631REMSYN088AAXX  21124 82571 21497 60000 10239 20237 39964 40140 76362 85530 333 20230 58003 60064;
0137825710999992006042118004-05500-045267FM-12+015399999V0202701N000510042019N0100001N1+02761+02421101071ADDGF107991051031004501041001MA1999999099331MD1999999+0131REMSYN070AAXX  21184 82571 32497 72701 10276 20242 39933 40107 85340 333 58013;
0232825710999992006042200004-05500-045267FM-12+015399999V0209999C000012200019N0100001N1+02741+02391101411ADDAA106000091AY151061AY221061GF104991041061004501001001KA1240M+02831MA1999999099651MD1999999+0091MW1021REMSYN100AAXX  22004 82571 21497 40000 10274 20239 39965 40141 70252 84600 333 10283 29092 55002 58009 69921;EQDQ01  00002PRCP06
0201825710999992006042212004-05500-045267FM-12+015399999V0200901N003110042019N0100001N1+02491+02411101441ADDAA124002091AY161061AY221061GF107991051051004501031001KA1240N+02381MA1999999099681MD1999999+0041MW1211REMSYN088AAXX  22124 82571 21497 70906 10249 20241 39968 40144 72162 85530 333 20238 58004 60024;
0137825710999992006042218004-05500-045267FM-12+015399999V0203601N001010450019N0100001N1+02991+02371100911ADDGF106991021021004501071011MA1999999099181MD1999999-0151REMSYN070AAXX  22184 82571 32497 63602 10299 20237 39918 40091 82271 333 59015;
0206825710999992006042300004-05500-045267FM-12+015399999V0202701N001012200019N0100001N1+02611+02501101161ADDAY121061AY211061GA1001+999999999GF100991001001999999001001KA1240M+03051MA1999999099411MD1999999-0241MW1131REMSYN088AAXX  23004 82571 31997 02702 10261 20250 39941 40116 71321 333 10305 29088 55038 59024;
0201825710999992006042312004-05500-045267FM-12+015399999V0200701N001010042019N0100001N1+02351+02261101311ADDAA124000021AY161061AY221061GF107991051071004501021001KA1240N+02321MA1999999099561MD1999999-0121MW1011REMSYN088AAXX  23124 82571 21497 70702 10235 20226 39956 40131 70162 85720 333 20232 59012 69924;
0137825710999992006042318004-05500-045267FM-12+015399999V0201401N002610042019N0100001N1+03091+02461100831ADDGF106991051021004501001011MA1999999099111MD1999999-0071REMSYN070AAXX  23184 82571 32497 61405 10309 20246 39911 40083 85201 333 59007;
0196825710999992006042400004-05500-045267FM-12+015399999V0201101N000512200019N0100001N1+02581+02491101121ADDAY111061AY201061GF102991021001017501031001KA1240M+03151MA1999999099371MD1999999-0041MW1131REMSYN094AAXX  24004 82571 31797 21101 10258 20249 39937 40112 71310 82030 333 10315 29088 55051 59004;
0156825710999992006042412004-05500-045267FM-12+015399999V0202301N001010042019N0100001N1+02551+02471101181ADDGF108991051071004501021999KA1240N+02351MA1999999099431MD1999999-0131REMSYN076AAXX  24124 82571 32497 82302 10255 20247 39943 40118 8572/ 333 20235 59013;
0182825710999992006042418004-05500-045267FM-12+015399999V0201101N003110450019N0100001N1+02811+02501100741ADDAA106001091AY191061AY261061GF106991031021004501041001MA1999999099011MD1999999-0101MW1011REMSYN082AAXX  24184 82571 21497 61106 10281 20250 39901 40074 70196 83240 333 59010 60011;
0168825710999992006042500004-05500-045267FM-12+015399999V0209999C000012200019N0100001N1+02511+02421101031ADDGF102991021001017501031001KA1240M+03031MA1999999099281MD1999999-0021REMSYN088AAXX  25004 82571 32797 20000 10251 20242 39928 40103 82030 333 10303 29092 55027 59002;
0173825710999992006042512004-05500-045267FM-12+015399999V0203601N001010042019N0100001N1+02621+02411101141ADDAA124001091GF107991051051004501031001KA1240N+02361MA1999999099391MD1999999-0041REMSYN082AAXX  25124 82571 22497 73602 10262 20241 39939 40114 85530 333 20236 59004 60014;
0182825710999992006042518004-05500-045267FM-12+015399999V0202301N001010450019N0100001N1+02791+02541100721ADDAA106005191AY191061AY261061GF107991041091004501041011MA1999999098981MD1999999-0031MW1201REMSYN082AAXX  25184 82571 21497 72302 10279 20254 39898 40072 72096 84941 333 59003 60051;
0213825710999992006042600004-05500-045267FM-12+015399999V0209999C000010090019N0100001N1+02471+02411101131ADDAA106013091AY191061AY261061GF108991081081004501999999KA1240M+03131MA1999999099381MD1999999+0101MW1021REMSYN100AAXX  26004 82571 21497 80700 10247 20241 39938 40113 70296 888// 333 10313 29092 55046 58010 60131;
0201825710999992006042612004-05500-045267FM-12+015399999V0203601N000510042019N0100001N1+02471+02381101331ADDAA124032091AY161061AY221061GF107991061021004501031001KA1240N+02321MA1999999099571MD1999999+0181MW1011REMSYN088AAXX  26124 82571 21497 73601 10247 20238 39957 40133 70162 86230 333 20232 58018 60324;
0137825710999992006042618004-05500-045267FM-12+015399999V0200901N000510450019N0100001N1+02891+02501100841ADDGF106991021021004501071001MA1999999099111MD1999999+0131REMSYN070AAXX  26184 82571 32497 60901 10289 20250 39911 40084 82270 333 58013;
0168825710999992006042700004-05500-045267FM-12+015399999V0209999C000012200019N0100001N1+02661+02541101131ADDGF102991021021004501001001KA1240M+02971MA1999999099381MD1999999+0001REMSYN088AAXX  27004 82571 32497 20000 10266 20254 39938 40113 82200 333 10297 29090 55017 58000;
0184825710999992006042712004-05500-045267FM-12+015399999V0202501N000512200019N0100001N1+02521+02451101231ADDAY141061AY201061GF103991011011004501031011KA1240N+02261MA1999999099481MD1999999-0091MW1021REMSYN082AAXX  27124 82571 31497 32501 10252 20245 39948 40123 70240 81131 333 20226 59009;
0137825710999992006042718004-05500-045267FM-12+015399999V0200901N002612200019N0100001N1+03171+02441100771ADDGF103991021021004501011001MA1999999099051MD1999999-0061REMSYN070AAXX  27184 82571 32497 30905 10317 20244 39905 40077 82210 333 59006;
0196825710999992006042800004-05500-045267FM-12+015399999V0209999C000012200019N0100001N1+02701+02451101121ADDAY101061AY201061GF101991011031004501001001KA1240M+03241MA1999999099381MD1999999+0001MW1131REMSYN094AAXX  28004 82571 31497 10000 10270 20245 39938 40112 71300 81300 333 10324 29083 55099 58000;
0156825710999992006042812004-05500-045267FM-12+015399999V0200501N002110450019N0100001N1+02621+02311101241ADDGF106991041021004501011011KA1240N+02361MA1999999099501MD1999999+0021REMSYN076AAXX  28124 82571 32497 60504 10262 20231 39950 40124 84211 333 20236 58002;
0137825710999992006042818004-05500-045267FM-12+015399999V0201401N000510450019N0100001N1+03011+02501100721ADDGF106991031021004501031011MA1999999098991MD1999999-0061REMSYN070AAXX  28184 82571 32497 61401 10301 20250 39899 40072 83231 333 59006;
0178825710999992006042900004-05500-045267FM-12+015399999V0209999C000012200019N0100001N1+02541+02381101051ADDGA1001+999999999GF100991001001999999001001KA1240M+03101MA1999999099311MD1999999-0071REMSYN082AAXX  29004 82571 32997 00000 10254 20238 39931 40105 333 10310 29085 55071 59007;
0175825710999992006042912004-05500-045267FM-12+015399999V0202901N002112200019N0100001N1+02491+02401101221ADDGF104991999021004501031001KA1240N+02371MA1999999099471MD1999999-0031REMSYN076AAXX  29124 82571 32497 42904 10249 20240 39947 40122 85230 333 20237 59003;EQDQ01+000052SCOTLC
0182825710999992006042918004-05500-045267FM-12+015399999V0200701N001010042019N0100001N1+02611+02351100791ADDAA106000591AY191061AY261061GF108991051071004501021999MA1999999099051MD1999999+0061MW1171REMSYN082AAXX  29184 82571 21497 80702 10261 20235 39905 40079 71796 8572/ 333 58006 69951;
0213825710999992006043000004-05500-045267FM-12+015399999V0202501N001010042019N0100001N1+02451+02431101061ADDAA106002091AY161061AY221061GF105991051051004501001001KA1240M+03101MA1999999099311MD1999999+0001MW1021REMSYN100AAXX  30004 82571 21497 52502 10245 20243 39931 40106 70262 85500 333 10310 29094 55026 58000 60021;
0201825710999992006043012004-05500-045267FM-12+015399999V0200701N002110042019N0100001N1+02291+02221101341ADDAA124005191AY161061AY221061GF108991051071004501021999KA1240N+02261MA1999999099581MD1999999+0111MW1251REMSYN088AAXX  30124 82571 21497 80704 10229 20222 39958 40134 72562 8572/ 333 20226 58011 60054;
0182825710999992006043018004-05500-045267FM-12+015399999V0200501N000510042019N0100001N1+02591+02371101011ADDAA106008991AY161061AY221061GF106991061021004501011001MA1999999099261MD1999999+0211MW1021REMSYN082AAXX  30184 82571 21497 60501 10259 20237 39926 40101 70262 86210 333 58021 60091;
0196825710999992006050100004-05500-045267FM-12+015399999V0209999C000012200019N0100001N1+02451+02391101241ADDAY121061AY201061GF104991041021004501001001KA1240M+02651MA1999999099481MD1999999+0171MW1131REMSYN094AAXX  01004 82571 31497 40000 10245 20239 39948 40124 71320 84200 333 10265 29094 55000 58017;
0201825710999992006050112004-05500-045267FM-12+015399999V0200901N002110450019N0100001N1+02411+02261101281ADDAA124029091AY161061AY221061GF106991011021004501071011KA1240N+02231MA1999999099521MD1999999-0061MW1021REMSYN088AAXX  01124 82571 21497 60904 10241 20226 39952 40128 70262 81271 333 20223 59006 60294;
0137825710999992006050118004-05500-045267FM-12+015399999V0201101N002110042019N0100001N1+02951+02451100971ADDGF106991051051004501041001MA1999999099231MD1999999-0031REMSYN070AAXX  01184 82571 32497 61104 10295 20245 39923 40097 85540 333 59003;
0213825710999992006050200004-05500-045267FM-12+015399999V0209999C000010042019N0100001N1+02461+02371101261ADDAA106007191AY161061AY221061GF108991051071004501021999KA1240M+03131MA1999999099501MD1999999+0021MW1921REMSYN100AAXX  02004 82571 21497 80000 10246 20237 39950 40126 79262 8572/ 333 10313 29089 55026 58002 60071;
0201825710999992006050212004-05500-045267FM-12+015399999V0200901N001510450019N0100001N1+02521+02421101331ADDAA124007991AY161061AY241061GF106991031021004501031001KA1240N+02391MA1999999099581MD1999999+0061MW1011REMSYN088AAXX  02124 82571 21497 60903 10252 20242 39958 40133 70164 83230 333 20239 58006 60084;
0137825710999992006050218004-05500-045267FM-12+015399999V0209999C000010450019N0100001N1+02851+02601100911ADDGF106991021031004501041011MA1999999099171MD1999999-0061REMSYN070AAXX  02184 82571 32497 60200 10285 20260 39917 40091 82341 333 59006;
0168825710999992006050300004-05500-045267FM-12+015399999V0209999C000012200019N0100001N1+02661+02591101111ADDGF102991021001017501031001KA1240M+03051MA1999999099371MD1999999-0131REMSYN088AAXX  03004 82571 32797 20000 10266 20259 39937 40111 82030 333 10305 29093 55017 59013;
0220825710999992006050312004-05500-045267FM-12+015399999V0201101N001012200019N0100001N1+02571+02441101221ADDAA124000091AY151061AY241061GF106991021001017501041011KA1240N+02271MA1999999099471MD1999999-0111MW1011REMSYN088AAXX  03124 82571 21797 61102 10257 20244 39947 40122 70154 82041 333 20227 59011 69924;EQDQ01  00002PRCP24
0137825710999992006050318004-05500-045267FM-12+015399999V0201401N002610450019N0100001N1+03111+02381100841ADDGF106991021021004501011011MA1999999099121MD1999999-0051REMSYN070AAXX  03184 82571 32497 61405 10311 20238 39912 40084 82211 333 59005;
0168825710999992006050400004-05500-045267FM-12+015399999V0209999C000012200019N0100001N1+02641+02481101111ADDGF102991021001017501011001KA1240M+03231MA1999999099371MD1999999+0001REMSYN088AAXX  04004 82571 32797 20000 10264 20248 39937 40111 82010 333 10323 29085 55074 58000;
0184825710999992006050412004-05500-045267FM-12+015399999V0209999C000010450019N0100001N1+02521+02451101151ADDAY141061AY221061GF106991031021004501031011KA1240N+02321MA1999999099411MD1999999-0061MW1011REMSYN082AAXX  04124 82571 31497 60000 10252 20245 39941 40115 70142 83231 333 20232 59006;
0137825710999992006050418004-05500-045267FM-12+015399999V0200501N002110450019N0100001N1+03211+02371100811ADDGF106991021021004501011011MA1999999099091MD1999999-0031REMSYN070AAXX  04184 82571 32497 60504 10321 20237 39909 40081 82211 333 59003;
0196825710999992006050500004-05500-045267FM-12+015399999V0200701N001010450019N0100001N1+02711+02471101111ADDAY121061AY201061GF106991011031004501011011KA1240M+03271MA1999999099371MD1999999+0001MW1131REMSYN094AAXX  05004 82571 31497 60702 10271 20247 39937 40111 71320 81311 333 10327 29082 55084 58000;
0184825710999992006050512004-05500-045267FM-12+015399999V0200901N000510450019N0100001N1+02721+02501101201ADDAY141061AY201061GF106991021021004501051011KA1240N+02371MA1999999099461MD1999999+0051MW1031REMSYN082AAXX  05124 82571 31497 60901 10272 20250 39946 40120 70340 82251 333 20237 58005;
0137825710999992006050518004-05500-045267FM-12+015399999V0200701N001510450019N0100001N1+03191+02461100791ADDGF106991031021004501011011MA1999999099071MD1999999-0021REMSYN070AAXX  05184 82571 32497 60703 10319 20246 39907 40079 83211 333 59002;
0168825710999992006050600004-05500-045267FM-12+015399999V0209999C000012200019N0100001N1+02741+02601101101ADDGF104991041001017501031001KA1240M+03251MA1999999099371MD1999999+0001REMSYN088AAXX  06004 82571 32797 40000 10274 20260 39937 40110 84030 333 10325 29084 55090 58000;
0220825710999992006050612004-05500-045267FM-12+015399999V0200201N001010450019N0100001N1+02611+02441101301ADDAA124000091AY151061AY221061GF106991031051004501031001KA1240N+02451MA1999999099561MD1999999+0101MW1011REMSYN088AAXX  06124 82571 21497 60202 10261 20244 39956 40130 70152 83530 333 20245 58010 69924;EQDQ01  00002PRCP24
0137825710999992006050618004-05500-045267FM-12+015399999V0202901N000510450019N0100001N1+03121+02531100801ADDGF106991031021004501041011MA1999999099081MD1999999+0011REMSYN070AAXX  06184 82571 32497 62901 10312 20253 39908 40080 83241 333 58001;
0213825710999992006050700004-05500-045267FM-12+015399999V0200501N002110042019N0100001N1+02441+02311101291ADDAA106000591AY191061AY261061GF108991081051004501999999KA1240M+03181MA1999999099541MD1999999+0171MW1021REMSYN100AAXX  07004 82571 21497 80504 10244 20231 39954 40129 70296 885// 333 10318 29088 55042 58017 69941;
0201825710999992006050712004-05500-045267FM-12+015399999V0200201N001010450019N0100001N1+02551+02311101331ADDAA124001091AY161061AY221061GF105991031021004501031011KA1240N+02251MA1999999099581MD1999999+0021MW1011REMSYN088AAXX  07124 82571 21497 50202 10255 20231 39958 40133 70162 83231 333 20225 58002 60014;
0137825710999992006050718004-05500-045267FM-12+015399999V0200901N001510450019N0100001N1+03051+02381100931ADDGF106991021021004501071011MA1999999099201MD1999999+0121REMSYN070AAXX  07184 82571 32497 60903 10305 20238 39920 40093 82271 333 58012;
0168825710999992006050800004-05500-045267FM-12+015399999V0209999C000012200019N0100001N1+02581+02491101181ADDGF101991011001017501011001KA1240M+03121MA1999999099431MD1999999-0111REMSYN088AAXX  08004 82571 32797 10000 10258 20249 39943 40118 81010 333 10312 29086 55079 59011;
0184825710999992006050812004-05500-045267FM-12+015399999V0200701N001010042019N0100001N1+02541+02451101311ADDAY141061AY221061GF107991061051004501051001KA1240N+02331MA1999999099561MD1999999-0021MW1011REMSYN082AAXX  08124 82571 31497 70702 10254 20245 39956 40131 70142 86550 333 20233 59002;
0137825710999992006050818004-05500-045267FM-12+015399999V0201401N002612200019N0100001N1+03071+02271100771ADDGF104991021021004501011011MA1999999099041MD1999999-0161REMSYN070AAXX  08184 82571 32497 41405 10307 20227 39904 40077 82211 333 59016;
0168825710999992006050900004-05500-045267FM-12+015399999V0200901N000512200019N0100001N1+02661+02411101171ADDGF103991031001017501031001KA1240M+03151MA1999999099431MD1999999+0001REMSYN088AAXX  09004 82571 32797 30901 10266 20241 39943 40117 83030 333 10315 29082 55077 58000;
0156825710999992006050912004-05500-045267FM-12+015399999V0200501N002110042019N0100001N1+02501+02321101331ADDGF107991071051004501001001KA1240N+02271MA1999999099581MD1999999+0021REMSYN076AAXX  09124 82571 32497 70504 10250 20232 39958 40133 87500 333 20227 58002;
0137825710999992006050918004-05500-045267FM-12+015399999V0200501N002112200019N0100001N1+03051+02431100791ADDGF104991021021004501041011MA1999999099061MD1999999+0021REMSYN070AAXX  09184 82571 32497 40504 10305 20243 39906 40079 82241 333 58002;
0213825710999992006051000004-05500-045267FM-12+015399999V0209999C000010090019N0100001N1+02521+02421101151ADDAA106002091AY161061AY221061GF107991071081004501001001KA1240M+03111MA1999999099401MD1999999-0031MW1021REMSYN100AAXX  10004 82571 21497 70000 10252 20242 39940 40115 70262 87800 333 10311 29087 55070 59003 60021;
0173825710999992006051012004-05500-045267FM-12+015399999V0200901N001010450019N0100001N1+02601+02421101321ADDAA124002091GF106991031021004501031001KA1240N+02351MA1999999099571MD1999999-0011REMSYN082AAXX  10124 82571 22497 60902 10260 20242 39957 40132 83230 333 20235 59001 60024;
0182825710999992006051018004-05500-045267FM-12+015399999V0200901N000510450019N0100001N1+02801+02401100821ADDAA106002091AY161061AY221061GF106991031061004501031011MA1999999099081MD1999999+0021MW1811REMSYN082AAXX  10184 82571 21497 60901 10280 20240 39908 40082 78162 83631 333 58002 60021;
0213825710999992006051100004-05500-045267FM-12+015399999V0203201N001019999999N0100001N1+02491+02411101201ADDAA106000021AY161061AY221061GF107991071001004501071001KA1240M+03051MA1999999099451MD1999999+0051MW1131REMSYN100AAXX  11004 82571 21497 73202 10249 20241 39945 40120 71362 87070 333 10305 29090 55048 58005 69921;
0201825710999992006051112004-05500-045267FM-12+015399999V0200501N001010042019N0100001N1+02501+02361101381ADDAA124002091AY141061AY221061GF107991061051004501031001KA1240N+02361MA1999999099631MD1999999+0061MW1021REMSYN088AAXX  11124 82571 21497 70502 10250 20236 39963 40138 70242 86530 333 20236 58006 60024;
0182825710999992006051118004-05500-045267FM-12+015399999V0200501N001010450019N0100001N1+02921+02581100831ADDAA106000391AY121061AY221061GF105991031021004501031011MA1999999099101MD1999999+0021MW1211REMSYN082AAXX  11184 82571 21497 50502 10292 20258 39910 40083 72122 83231 333 58002 69931;
0196825710999992006051200004-05500-045267FM-12+015399999V0202701N001010090019N0100001N1+02491+02341101211ADDAY191061AY221061GF107991071081004501001001KA1240M+03031MA1999999099461MD1999999+0011MW1131REMSYN094AAXX  12004 82571 31497 72702 10249 20234 39946 40121 71392 87800 333 10303 29089 55024 58001;
0201825710999992006051212004-05500-045267FM-12+015399999V0202701N001510042019N0100001N1+02431+02371101401ADDAA124000891AY141061AY221061GF107991051051004501071001KA1240N+02351MA1999999099641MD1999999+0011MW1021REMSYN088AAXX  12124 82571 21497 72703 10243 20237 39964 40140 70242 85570 333 20235 58001 69984;
0165825710999992006051218004-05500-045267FM-12+015399999V0202701N002110450019N0100001N1+02991+02551100991ADDAY121061AY221061GF106991031091004501031011MA1999999099261MD1999999-0161MW1171REMSYN076AAXX  12184 82571 31497 62704 10299 20255 39926 40099 71722 83931 333 59016;
0213825710999992006051300004-05500-045267FM-12+015399999V0209999C000010450019N0040001N1+02421+02351101421ADDAA106026991AY191061AY261061GF108991041071004501021999KA1240M+03051MA1999999099661MD1999999+0201MW1911REMSYN100AAXX  13004 82571 21496 80000 10242 20235 39966 40142 79196 8472/ 333 10305 29091 55024 58020 60271;
0201825710999992006051312004-05500-045267FM-12+015399999V0200901N001010042019N0100001N1+02491+02431101561ADDAA124030091AY161061AY241061GF108991081051004501999999KA1240N+02311MA1999999099801MD1999999+0161MW1021REMSYN088AAXX  13124 82571 21497 80902 10249 20243 39980 40156 70264 885// 333 20231 58016 60304;
0137825710999992006051318004-05500-045267FM-12+015399999V0201401N002110450019N0100001N1+02881+02441101111ADDGF106991021021004501041011MA1999999099371MD1999999+0111REMSYN070AAXX  13184 82571 32497 61404 10288 20244 39937 40111 82241 333 58011;
0168825710999992006051400004-05500-045267FM-12+015399999V0202701N000510450019N0100001N1+02541+02441101541ADDGF106991021021004501051011KA1240M+03011MA1999999099691MD1999999+0031REMSYN088AAXX  14004 82571 32497 62701 10254 20244 39969 40154 82251 333 10301 29090 55029 58003;
0201825710999992006051412004-05500-045267FM-12+015399999V0200501N002110450019N0040001N1+02271+02261101681ADDAA124005191AY161061AY221061GF108991031071004501021999KA1240N+02261MA1999999099911MD1999999+0111MW1611REMSYN088AAXX  14124 82571 21496 80504 10227 20226 39991 40168 76162 8372/ 333 20226 58011 60054;
0182825710999992006051418004-05500-045267FM-12+015399999V0201401N002110450019N0100001N1+02791+02481101191ADDAA106002091AY161061AY221061GF105991031021004501041011MA1999999099451MD1999999+0081MW1211REMSYN082AAXX  14184 82571 21497 51404 10279 20248 39945 40119 72162 83241 333 58008 60021;
0196825710999992006051500004-05500-045267FM-12+015399999V0209999C000012200019N0100001N1+02531+02471101501ADDAY111061AY201061GF104991011031004501031011KA1240M+02911MA1999999099741MD1999999+0051MW1131REMSYN094AAXX  15004 82571 31497 40000 10253 20247 39974 40150 71310 81331 333 10291 29094 55030 58005;
0173825710999992006051512004-05500-045267FM-12+015399999V0200501N000510042019N0100001N1+02591+02441101561ADDAA124002091GF106991051051004501031001KA1240N+02291MA1999999099811MD1999999-0101REMSYN082AAXX  15124 82571 22497 60501 10259 20244 39981 40156 85530 333 20229 59010 60024;
0137825710999992006051518004-05500-045267FM-12+015399999V0200901N001012200019N0100001N1+03091+02441101131ADDGF103991021021004501001011MA1999999099401MD1999999-0051REMSYN070AAXX  15184 82571 32497 30902 10309 20244 39940 40113 82201 333 59005;
0168825710999992006051600004-05500-045267FM-12+015399999V0200701N000510042019N0100001N1+02631+02411101341ADDGF107991051051004501031001KA1240M+03151MA1999999099591MD1999999-0151REMSYN088AAXX  16004 82571 32497 70701 10263 20241 39959 40134 85530 333 10315 29083 55083 59015;
0184825710999992006051612004-05500-045267FM-12+015399999V0201101N003612200019N0100001N1+02591+02421101401ADDAY141061AY211061GF103991011011004501031011KA1240N+02281MA1999999099651MD1999999-0161MW1031REMSYN082AAXX  16124 82571 31497 31107 10259 20242 39965 40140 70341 81131 333 20228 59016;
0182825710999992006051618004-05500-045267FM-12+015399999V0209999C000010450019N0100001N1+02761+02481101051ADDAA106004191AY111061AY201061GF106991031021004501031011MA1999999099311MD1999999-0091MW1811REMSYN082AAXX  16184 82571 21497 60000 10276 20248 39931 40105 78110 83231 333 59009 60041;
0196825710999992006051700004-05500-045267FM-12+015399999V0200901N001012200019N0100001N1+02591+02441101311ADDAY111061AY201061GF101991011001017501041001KA1240M+03101MA1999999099561MD1999999-0031MW1131REMSYN094AAXX  17004 82571 31797 10902 10259 20244 39956 40131 71310 81040 333 10310 29089 55085 59003;
0173825710999992006051712004-05500-045267FM-12+015399999V0201101N002610450019N0100001N1+02591+02371101551ADDAA124004191GF106991041021004501031011KA1240N+02371MA1999999099801MD1999999+0151REMSYN082AAXX  17124 82571 22497 61105 10259 20237 39980 40155 84231 333 20237 58015 60044;
0137825710999992006051718004-05500-045267FM-12+015399999V0201101N003110450019N0100001N1+02991+02321101211ADDGF106991031021004501011011MA1999999099481MD1999999+0171REMSYN070AAXX  17184 82571 32497 61106 10299 20232 39948 40121 83211 333 58017;
0178825710999992006051800004-05500-045267FM-12+015399999V0201401N001012200019N0100001N1+02511+02331101411ADDGA1001+999999999GF100991001001999999001001KA1240M+03051MA1999999099661MD1999999+0101REMSYN082AAXX  18004 82571 32997 01402 10251 20233 39966 40141 333 10305 29083 55081 58010;
0156825710999992006051812004-05500-045267FM-12+015399999V0201401N003110150019N0100001N1+02461+02191101561ADDGF105991051001017501031001KA1240N+02191MA1999999099801MD1999999+0001REMSYN076AAXX  18124 82571 32797 51406 10246 20219 39980 40156 85030 333 20219 58000;
0137825710999992006051818004-05500-045267FM-12+015399999V0200701N002111050019N0100001N1+03101+02291101191ADDGF105991021021004501031011MA1999999099451MD1999999-0031REMSYN070AAXX  18184 82571 32497 50704 10310 20229 39945 40119 82231 333 59003;
0168825710999992006051900004-05500-045267FM-12+015399999V0209999C000012200019N0100001N1+02661+02541101401ADDGF102991021021004501001001KA1240M+03161MA1999999099651MD1999999-0011REMSYN088AAXX  19004 82571 32497 20000 10266 20254 39965 40140 82200 333 10316 29083 55088 59001;
0156825710999992006051912004-05500-045267FM-12+015399999V0201101N004612200019N0100001N1+02651+02111101511ADDGF102991011011004501031001KA1240N+02291MA1999999099761MD1999999-0041REMSYN076AAXX  19124 82571 32497 21109 10265 20211 39976 40151 81130 333 20229 59004;
0137825710999992006051918004-05500-045267FM-12+015399999V0201401N002612200019N0100001N1+03031+02201101071ADDGF104991021021004501041011MA1999999099341MD1999999-0111REMSYN070AAXX  19184 82571 32497 41405 10303 20220 39934 40107 82241 333 59011;
0178825710999992006052000004-05500-045267FM-12+015399999V0201101N001012200019N0100001N1+02621+02351101281ADDGA1001+999999999GF100991001001999999001001KA1240M+03141MA1999999099541MD1999999-0111REMSYN082AAXX  20004 82571 32997 01102 10262 20235 39954 40128 333 10314 29076 55083 59011;
0156825710999992006052012004-05500-045267FM-12+015399999V0201101N000510090019N0100001N1+02401+02211101431ADDGF107991071081004501001001KA1240N+02251MA1999999099671MD1999999-0091REMSYN076AAXX  20124 82571 32497 71101 10240 20221 39967 40143 87800 333 20225 59009;
0137825710999992006052018004-05500-045267FM-12+015399999V0200501N001510450019N0100001N1+02911+02291101061ADDGF106991031021004501031011MA1999999099331MD1999999-0011REMSYN070AAXX  20184 82571 32497 60503 10291 20229 39933 40106 83231 333 59001;
0196825710999992006052100004-05500-045267FM-12+015399999V0200201N001512200019N0100001N1+02511+02311101241ADDAY121061AY211061GF102991021001017501031001KA1240M+03011MA1999999099481MD1999999-0061MW1131REMSYN094AAXX  21004 82571 31797 20203 10251 20231 39948 40124 71321 82030 333 10301 29084 55031 59006;
0156825710999992006052112004-05500-045267FM-12+015399999V0202501N000512200019N0100001N1+02611+02311101351ADDGF103991021021004501031001KA1240N+02191MA1999999099601MD1999999-0071REMSYN076AAXX  21124 82571 32497 32501 10261 20231 39960 40135 82230 333 20219 59007;
0137825710999992006052118004-05500-045267FM-12+015399999V0200501N001512200019N0100001N1+03171+02281100931ADDGF103991021021004501001011MA1999999099201MD1999999-0131REMSYN070AAXX  21184 82571 32497 30503 10317 20228 39920 40093 82201 333 59013;
0168825710999992006052200004-05500-045267FM-12+015399999V0200501N001512200019N0100001N1+02581+02331101211ADDGF102991021021004501001001KA1240M+03241MA1999999099461MD1999999-0021REMSYN088AAXX  22004 82571 32497 20503 10258 20233 39946 40121 82200 333 10324 29078 55101 59002;
0178825710999992006052300004-05500-045267FM-12+015399999V0209999C000012200019N0100001N1+02661+02391101351ADDGA1001+999999999GF100991001001999999001001KA1240M+03211MA1999999099611MD1999999+0151REMSYN082AAXX  23004 82571 32997 00000 10266 20239 39961 40135 333 10321 29080 55093 58015;
0184825710999992006052312004-05500-045267FM-12+015399999V0200901N001512200019N0100001N1+02571+02291101511ADDAY141061AY201061GF103991021001017501031011KA1240N+02121MA1999999099761MD1999999+0131MW1011REMSYN082AAXX  23124 82571 31797 30903 10257 20229 39976 40151 70140 82031 333 20212 58013;
0137825710999992006052318004-05500-045267FM-12+015399999V0200901N002110450019N0100001N1+03081+02241101091ADDGF105991021021004501031001MA1999999099361MD1999999-0071REMSYN070AAXX  23184 82571 32497 50904 10308 20224 39936 40109 82230 333 59007;
0178825710999992006052400004-05500-045267FM-12+015399999V0201401N001512200019N0100001N1+02641+02331101441ADDGA1001+999999999GF100991001001999999001001KA1240M+03231MA1999999099691MD1999999+0081REMSYN082AAXX  24004 82571 32997 01403 10264 20233 39969 40144 333 10323 29078 55088 58008;
0184825710999992006052412004-05500-045267FM-12+015399999V0200901N002112200019N0100001N1+02591+02311101491ADDAY141061AY201061GF103991011021004501031011KA1240N+02151MA1999999099741MD1999999-0021MW1011REMSYN082AAXX  24124 82571 31497 30904 10259 20231 39974 40149 70140 81231 333 20215 59002;
0137825710999992006052418004-05500-045267FM-12+015399999V0201101N001512200019N0100001N1+03141+02211100971ADDGF104991021021004501011011MA1999999099241MD1999999-0121REMSYN070AAXX  24184 82571 32497 41103 10314 20221 39924 40097 82211 333 59012;
0196825710999992006052500004-05500-045267FM-12+015399999V0209999C000012200019N0100001N1+02741+02501101301ADDAY111061AY201061GF102991011031004501041001KA1240M+03261MA1999999099561MD1999999-0131MW1131REMSYN094AAXX  25004 82571 31497 20000 10274 20250 39956 40130 71310 81340 333 10326 29079 55100 59013;
0156825710999992006052512004-05500-045267FM-12+015399999V0200701N000510042019N0100001N1+02661+02391101471ADDGF107991051051004501051001KA1240N+02311MA1999999099731MD1999999-0011REMSYN076AAXX  25124 82571 32497 70701 10266 20239 39973 40147 85550 333 20231 59001;
0182825710999992006052518004-05500-045267FM-12+015399999V0202301N002610450019N0100001N1+02621+02421101071ADDAA106003091AY161061AY221061GF106991031051004501041001MA1999999099321MD1999999+0081MW1011REMSYN082AAXX  25184 82571 21497 62305 10262 20242 39932 40107 70162 83540 333 58008 60031;
0196825710999992006052600004-05500-045267FM-12+015399999V0209999C000012200019N0100001N1+02491+02401101301ADDAY191061AY211061GF102991021001017501011001KA1240M+02911MA1999999099551MD1999999-0011MW1021REMSYN094AAXX  26004 82571 31797 20000 10249 20240 39955 40130 70291 82010 333 10291 29090 55044 59001;
0201825710999992006052612004-05500-045267FM-12+015399999V0209999C000010042019N0100001N1+02291+02281101481ADDAA124018091AY161061AY221061GF108991081051004501999999KA1240N+02221MA1999999099721MD1999999-0011MW1811REMSYN088AAXX  26124 82571 21497 80000 10229 20228 39972 40148 78162 885// 333 20222 59001 60184;
0137825710999992006052618004-05500-045267FM-12+015399999V0201401N001510450019N0100001N1+02811+02311101121ADDGF106991031021004501031011MA1999999099381MD1999999+0061REMSYN070AAXX  26184 82571 32497 61403 10281 20231 39938 40112 83231 333 58006;
0168825710999992006052700004-05500-045267FM-12+015399999V0209999C000012200019N0100001N1+02621+02421101321ADDGF104991041001017501011001KA1240M+02981MA1999999099561MD1999999+0011REMSYN088AAXX  27004 82571 32797 40000 10262 20242 39956 40132 84010 333 10298 29088 55021 58001;
0184825710999992006052712004-05500-045267FM-12+015399999V0200201N000510450019N0100001N1+02511+02401101411ADDAY141061AY221061GF107991041051004501041001KA1240N+02321MA1999999099661MD1999999-0061MW1021REMSYN082AAXX  27124 82571 31497 70201 10251 20240 39966 40141 70242 84540 333 20232 59006;
0137825710999992006052718004-05500-045267FM-12+015399999V0201101N002110450019N0100001N1+03041+02231101071ADDGF105991031021004501041011MA1999999099341MD1999999-0041REMSYN070AAXX  27184 82571 32497 51104 10304 20223 39934 40107 83241 333 59004;
0178825710999992006052800004-05500-045267FM-12+015399999V0201401N001512200019N0100001N1+02591+02311101271ADDGA1001+999999999GF100991001001999999001001KA1240M+03131MA1999999099521MD1999999-0041REMSYN082AAXX  28004 82571 32997 01403 10259 20231 39952 40127 333 10313 29081 55064 59004;
0156825710999992006052812004-05500-045267FM-12+015399999V0201401N002612200019N0100001N1+02641+02251101421ADDGF105991021001017501041011KA1240N+02191MA1999999099671MD1999999+0011REMSYN076AAXX  28124 82571 32797 51405 10264 20225 39967 40142 82041 333 20219 58001;
0137825710999992006052818004-05500-045267FM-12+015399999V0201101N003110450019N0100001N1+03081+02211101051ADDGF106991021021004501041011MA1999999099321MD1999999-0021REMSYN070AAXX  28184 82571 32497 61106 10308 20221 39932 40105 82241 333 59002;
0178825710999992006052900004-05500-045267FM-12+015399999V0209999C000012200019N0100001N1+02651+02411101251ADDGA1001+999999999GF100991001001999999001001KA1240M+03141MA1999999099511MD1999999-0011REMSYN082AAXX  29004 82571 32997 00000 10265 20241 39951 40125 333 10314 29078 55088 59001;
0156825710999992006052912004-05500-045267FM-12+015399999V0200701N001510450019N0100001N1+02611+02411101381ADDGF106991041021004501041011KA1240N+02221MA1999999099641MD1999999-0031REMSYN076AAXX  29124 82571 32497 60703 10261 20241 39964 40138 84241 333 20222 59003;
0137825710999992006052918004-05500-045267FM-12+015399999V0201101N002110450019N0100001N1+02971+02301101051ADDGF106991031021004501051011MA1999999099321MD1999999+0001REMSYN070AAXX  29184 82571 32497 61104 10297 20230 39932 40105 83251 333 58000;
0178825710999992006053000004-05500-045267FM-12+015399999V0200901N000512200019N0100001N1+02601+02371101241ADDGA1001+999999999GF100991001001999999001001KA1240M+03081MA1999999099491MD1999999-0021REMSYN082AAXX  30004 82571 32997 00901 10260 20237 39949 40124 333 10308 29082 55054 59002;
0156825710999992006053012004-05500-045267FM-12+015399999V0201401N003612200019N0100001N1+02591+02291101271ADDGF103991011011004501041011KA1240N+02171MA1999999099521MD1999999-0121REMSYN076AAXX  30124 82571 32497 31407 10259 20229 39952 40127 81141 333 20217 59012;
0168825710999992006053100004-05500-045267FM-12+015399999V0201801N002112200019N0100001N1+02531+02231101321ADDGF102991021021004501001001KA1240M+03151MA1999999099571MD1999999-0081REMSYN088AAXX  31004 82571 32497 21804 10253 20223 39957 40132 82200 333 10315 29076 55095 59008;
0184825710999992006053112004-05500-045267FM-12+015399999V0201401N004612200019N0100001N1+02521+01821101431ADDAY141061AY201061GF104991021001017501041011KA1240N+02051MA1999999099671MD1999999+0151MW1011REMSYN082AAXX  31124 82571 31797 41409 10252 20182 39967 40143 70140 82041 333 20205 58015;
0137825710999992006053118004-05500-045267FM-12+015399999V0200901N002610450019N0100001N1+03001+01971101171ADDGF106991011011004501041011MA1999999099431MD1999999+0171REMSYN070AAXX  31184 82571 32497 60905 10300 20197 39943 40117 81141 333 58017;
0168825710999992006060100004-05500-045267FM-12+015399999V0201401N002112200019N0100001N1+02471+02071101401ADDGF102991021001017501031001KA1240M+03081MA1999999099651MD1999999+0081REMSYN088AAXX  01004 82571 32797 21404 10247 20207 39965 40140 82030 333 10308 29069 55093 58008;
0184825710999992006060112004-05500-045267FM-12+015399999V0202001N000512200019N0100001N1+02431+02091101451ADDAY141061AY201061GF102991011001017501041011KA1240N+01901MA1999999099691MD1999999+0021MW1011REMSYN082AAXX  01124 82571 31797 22001 10243 20209 39969 40145 70140 81041 333 20190 58002;
0137825710999992006060118004-05500-045267FM-12+015399999V0200901N003112200019N0100001N1+03101+02001101141ADDGF103991021021004501001011MA1999999099401MD1999999-0031REMSYN070AAXX  01184 82571 32497 30906 10310 20200 39940 40114 82201 333 59003;
0178825710999992006060200004-05500-045267FM-12+015399999V0200901N000512200019N0100001N1+02491+02091101411ADDGA1001+999999999GF100991001001999999001001KA1240M+03171MA1999999099651MD1999999+0001REMSYN082AAXX  02004 82571 32997 00901 10249 20209 39965 40141 333 10317 29072 55103 58000;
0156825710999992006060212004-05500-045267FM-12+015399999V0201401N004112200019N0100001N1+02531+02061101491ADDGF102991001001999999001011KA1240N+01951MA1999999099731MD1999999+0041REMSYN076AAXX  02124 82571 32997 21408 10253 20206 39973 40149 80001 333 20195 58004;
0137825710999992006060218004-05500-045267FM-12+015399999V0201101N003112200019N0100001N1+02991+02051101191ADDGF102991021021004501001001MA1999999099441MD1999999+0041REMSYN070AAXX  02184 82571 32497 21106 10299 20205 39944 40119 82200 333 58004;
0178825710999992006060300004-05500-045267FM-12+015399999V0209999C000012200019N0100001N1+02581+02291101381ADDGA1001+999999999GF100991001001999999001001KA1240M+03091MA1999999099631MD1999999-0021REMSYN082AAXX  03004 82571 32997 00000 10258 20229 39963 40138 333 10309 29075 55104 59002;
0156825710999992006060312004-05500-045267FM-12+015399999V0201401N003612200019N0100001N1+02531+01831101391ADDGF102991011011004501001011KA1240N+02001MA1999999099641MD1999999-0091REMSYN076AAXX  03124 82571 32497 21407 10253 20183 39964 40139 81101 333 20200 59009;
0137825710999992006060318004-05500-045267FM-12+015399999V0201401N004112200019N0100001N1+03021+02021101041ADDGF102991021011004501001001MA1999999099291MD1999999-0151REMSYN070AAXX  03184 82571 32497 21408 10302 20202 39929 40104 82100 333 59015;
0156825710999992006060412004-05500-045267FM-12+015399999V0201401N004112200019N0100001N1+02481+01911101331ADDGF102991001001999999001011KA1240N+02191MA1999999099581MD1999999-0061REMSYN076AAXX  04124 82571 32997 21408 10248 20191 39958 40133 80001 333 20219 59006;
0137825710999992006060418004-05500-045267FM-12+015399999V0201401N003112200019N0100001N1+02921+01901101051ADDGF103991021021004501001011MA1999999099301MD1999999+0011REMSYN070AAXX  04184 82571 32497 31406 10292 20190 39930 40105 82201 333 58001;
0178825710999992006060500004-05500-045267FM-12+015399999V0209999C000012200019N0100001N1+02471+02271101281ADDGA1001+999999999GF100991001001999999001001KA1240M+03151MA1999999099531MD1999999-0061REMSYN082AAXX  05004 82571 32997 00000 10247 20227 39953 40128 333 10315 29075 55101 59006;
0156825710999992006060512004-05500-045267FM-12+015399999V0201401N005112200019N0100001N1+02511+01841101391ADDGF106991031001017501061011KA1240N+01981MA1999999099641MD1999999+0061REMSYN076AAXX  05124 82571 32797 61410 10251 20184 39964 40139 83061 333 20198 58006;
0137825710999992006060518004-05500-045267FM-12+015399999V0201101N003610450019N0100001N1+03011+01991101051ADDGF106991031021004501031011MA1999999099301MD1999999+0001REMSYN070AAXX  05184 82571 32497 61107 10301 20199 39930 40105 83231 333 58000;
0168825710999992006060600004-05500-045267FM-12+015399999V0201401N001010150019N0100001N1+02591+02211101231ADDGF105991051001017501031001KA1240M+03081MA1999999099481MD1999999-0051REMSYN088AAXX  06004 82571 32797 51402 10259 20221 39948 40123 85030 333 10308 29070 55079 59005;
0156825710999992006060612004-05500-045267FM-12+015399999V0202301N000510042019N0100001N1+02501+02381101411ADDGF108991081051004501999999KA1240N+01981MA1999999099661MD1999999+0021REMSYN076AAXX  06124 82571 32497 82301 10250 20238 39966 40141 885// 333 20198 58002;
0137825710999992006060618004-05500-045267FM-12+015399999V0201401N002610090019N0100001N1+02851+02161101111ADDGF107991051081004501031001MA1999999099371MD1999999+0071REMSYN070AAXX  06184 82571 32497 71405 10285 20216 39937 40111 85830 333 58007;
0168825710999992006060700004-05500-045267FM-12+015399999V0200901N000510450019N0100001N1+02661+02391101351ADDGF107991021021004501051001KA1240M+02991MA1999999099601MD1999999+0121REMSYN088AAXX  07004 82571 32497 70901 10266 20239 39960 40135 82250 333 10299 29082 55019 58012;
0194825710999992006060712004-05500-045267FM-12+015399999V0201101N002112200019N0100001N1+02731+02241101381ADDAY141061AY201061GA1001+999999999GF100991001001999999001001KA1240N+02361MA1999999099641MD1999999-0021MW1021REMSYN076AAXX  07124 82571 31997 01104 10273 20224 39964 40138 70240 333 20236 59002;
0137825710999992006060718004-05500-045267FM-12+015399999V0201401N002612200019N0100001N1+03151+02121101011ADDGF103991031021004501001001MA1999999099281MD1999999-0091REMSYN070AAXX  07184 82571 32497 31405 10315 20212 39928 40101 83200 333 59009;
0178825710999992006060800004-05500-045267FM-12+015399999V0209999C000012200019N0100001N1+02671+02311101241ADDGA1001+999999999GF100991001001999999001001KA1240M+03241MA1999999099501MD1999999-0101REMSYN082AAXX  08004 82571 32997 00000 10267 20231 39950 40124 333 10324 29072 55102 59010;
0184825710999992006060812004-05500-045267FM-12+015399999V0201101N002611050019N0100001N1+02651+02091101391ADDAY141061AY201061GF105991011011004501041011KA1240N+02101MA1999999099651MD1999999+0011MW1011REMSYN082AAXX  08124 82571 31497 51105 10265 20209 39965 40139 70140 81141 333 20210 58001;
0137825710999992006060818004-05500-045267FM-12+015399999V0200901N002112200019N0100001N1+03111+02171100981ADDGF105991031021004501001011MA1999999099241MD1999999-0041REMSYN070AAXX  08184 82571 32497 50904 10311 20217 39924 40098 83201 333 59004;
0178825710999992006060900004-05500-045267FM-12+015399999V0200901N002112200019N0100001N1+02511+02171101191ADDGA1001+999999999GF100991001001999999001001KA1240M+03221MA1999999099451MD1999999-0051REMSYN082AAXX  09004 82571 32997 00904 10251 20217 39945 40119 333 10322 29072 55104 59005;
0184825710999992006060912004-05500-045267FM-12+015399999V0201101N003112200019N0100001N1+02631+02031101291ADDAY141061AY201061GF101991011001017501041001KA1240N+02071MA1999999099541MD1999999-0111MW1021REMSYN082AAXX  09124 82571 31797 11106 10263 20203 39954 40129 70240 81040 333 20207 59011;
0137825710999992006060918004-05500-045267FM-12+015399999V0201101N002612200019N0100001N1+03061+02021100931ADDGF103991021021004501011001MA1999999099191MD1999999-0051REMSYN070AAXX  09184 82571 32497 31105 10306 20202 39919 40093 82210 333 59005;
0168825710999992006061000004-05500-045267FM-12+015399999V0209999C000012200019N0100001N1+02631+02251101141ADDGF102991001001999999001011KA1240M+03171MA1999999099401MD1999999-0051REMSYN088AAXX  10004 82571 32997 20500 10263 20225 39940 40114 80001 333 10317 29070 55105 59005;
0156825710999992006061012004-05500-045267FM-12+015399999V0201401N004112200019N0100001N1+02611+01961101281ADDGF102991021001017501041001KA1240N+02121MA1999999099481MD1999999-0061REMSYN076AAXX  10124 82571 32797 21408 10261 20196 39948 40128 82040 333 20212 59006;
0137825710999992006061018004-05500-045267FM-12+015399999V0200901N003112200019N0100001N1+03121+02081100911ADDGF103991021021004501001011MA1999999099171MD1999999-0021REMSYN070AAXX  10184 82571 32497 30906 10312 20208 39917 40091 82201 333 59002;
0168825710999992006061100004-05500-045267FM-12+015399999V0209999C000012200019N0100001N1+02641+02271101111ADDGF102991021001017501041001KA1240M+03201MA1999999099371MD1999999-0031REMSYN088AAXX  11004 82571 32797 20000 10264 20227 39937 40111 82040 333 10320 29070 55103 59003;
0156825710999992006061112004-05500-045267FM-12+015399999V0201101N002612200019N0100001N1+02591+01991101281ADDGF106991031001017501041011KA1240N+01981MA1999999099531MD1999999+0051REMSYN076AAXX  11124 82571 32797 61105 10259 20199 39953 40128 83041 333 20198 58005;
0137825710999992006061118004-05500-045267FM-12+015399999V0200501N001012200019N0100001N1+03071+02041101031ADDGF103991021021004501001011MA1999999099291MD1999999+0121REMSYN070AAXX  11184 82571 32497 30502 10307 20204 39929 40103 82201 333 58012;
0156825710999992006061212004-05500-045267FM-12+015399999V0200501N000510042019N0100001N1+02291+02181101441ADDGF108991081051004501999999KA1240N+02001MA1999999099681MD1999999+0151REMSYN076AAXX  12124 82571 32497 80501 10229 20218 39968 40144 885// 333 20200 58015;
0137825710999992006061218004-05500-045267FM-12+015399999V0200501N002112200019N0100001N1+02971+02121101141ADDGF103991011021004501011011MA1999999099401MD1999999-0111REMSYN070AAXX  12184 82571 32497 30504 10297 20212 39940 40114 81211 333 59011;
0168825710999992006061300004-05500-045267FM-12+015399999V0200501N000512200019N0100001N1+02521+02271101391ADDGF101991011001017501041001KA1240M+03071MA1999999099631MD1999999+0181REMSYN088AAXX  13004 82571 32797 10501 10252 20227 39963 40139 81040 333 10307 29081 55068 58018;
0156825710999992006061312004-05500-045267FM-12+015399999V0201401N002112200019N0100001N1+02611+02271101461ADDGF104991021021004501041011KA1240N+02241MA1999999099711MD1999999+0031REMSYN076AAXX  13124 82571 32497 41404 10261 20227 39971 40146 82241 333 20224 58003;
0137825710999992006061318004-05500-045267FM-12+015399999V0201401N003112200019N0100001N1+03131+02101101071ADDGF104991031021004501001011MA1999999099341MD1999999-0061REMSYN070AAXX  13184 82571 32497 41406 10313 20210 39934 40107 83201 333 59006;
0156825710999992006061412004-05500-045267FM-12+015399999V0201801N004610450019N0100001N1+02481+01901101511ADDGF106991021021004501041011KA1240N+02221MA1999999099761MD1999999+0051REMSYN076AAXX  14124 82571 32497 61809 10248 20190 39976 40151 82241 333 20222 58005;
0137825710999992006061418004-05500-045267FM-12+015399999V0201401N003610450019N0100001N1+02911+02091101131ADDGF106991021021004501041011MA1999999099391MD1999999+0051REMSYN070AAXX  14184 82571 32497 61407 10291 20209 39939 40113 82241 333 58005;
0178825710999992006061500004-05500-045267FM-12+015399999V0209999C000012200019N0100001N1+02491+02191101331ADDGA1001+999999999GF100991001001999999001001KA1240M+03011MA1999999099581MD1999999-0011REMSYN082AAXX  15004 82571 32997 00000 10249 20219 39958 40133 333 10301 29074 55036 59001;
0184825710999992006061512004-05500-045267FM-12+015399999V0201401N004112200019N0100001N1+02481+02051101421ADDAY141061AY201061GF102991011011004501001011KA1240N+01951MA1999999099661MD1999999-0101MW1001REMSYN082AAXX  15124 82571 31497 21408 10248 20205 39966 40142 70040 81101 333 20195 59010;
0137825710999992006061518004-05500-045267FM-12+015399999V0200901N002612200019N0100001N1+03011+02041101171ADDGF103991031021004501001001MA1999999099431MD1999999+0041REMSYN070AAXX  15184 82571 32497 30905 10301 20204 39943 40117 83200 333 58004;
0178825710999992006061600004-05500-045267FM-12+015399999V0209999C000012200019N0100001N1+02551+02211101361ADDGA1001+999999999GF100991001001999999001001KA1240M+03101MA1999999099611MD1999999+0031REMSYN082AAXX  16004 82571 32997 01800 10255 20221 39961 40136 333 10310 29074 55096 58003;
0156825710999992006061612004-05500-045267FM-12+015399999V0201801N003612200019N0100001N1+02591+02011101431ADDGF101991011001017501041001KA1240N+02161MA1999999099681MD1999999+0021REMSYN076AAXX  16124 82571 32797 11807 10259 20201 39968 40143 81040 333 20216 58002;
0137825710999992006061618004-05500-045267FM-12+015399999V0201401N003110450019N0100001N1+03041+02031101151ADDGF106991031021004501031001MA1999999099411MD1999999-0021REMSYN070AAXX  16184 82571 32497 61406 10304 20203 39941 40115 83230 333 59002;
0178825710999992006061700004-05500-045267FM-12+015399999V0209999C000012200019N0100001N1+02691+02331101311ADDGA1001+999999999GF100991001001999999001001KA1240M+03131MA1999999099571MD1999999-0041REMSYN082AAXX  17004 82571 32997 00000 10269 20233 39957 40131 333 10313 29075 55088 59004;
0156825710999992006061712004-05500-045267FM-12+015399999V0201401N004612200019N0100001N1+02661+02021101491ADDGF103991011011004501031011KA1240N+02291MA1999999099751MD1999999+0071REMSYN076AAXX  17124 82571 32497 31409 10266 20202 39975 40149 81131 333 20229 58007;
0137825710999992006061718004-05500-045267FM-12+015399999V0201401N002110450019N0100001N1+03011+02161101221ADDGF105991021021004501031001MA1999999099481MD1999999+0011REMSYN070AAXX  17184 82571 32497 51404 10301 20216 39948 40122 82230 333 58001;
0178825710999992006061800004-05500-045267FM-12+015399999V0201601N001512200019N0100001N1+02611+02161101321ADDGA1001+999999999GF100991001001999999001001KA1240M+03151MA1999999099581MD1999999+0011REMSYN082AAXX  18004 82571 32997 01603 10261 20216 39958 40132 333 10315 29070 55091 58001;
0175825710999992006061812004-05500-045267FM-12+015399999V0200401N003612200019N0100001N1+02551+01971101431ADDGF101991999001017501051001KA1240N+02001MA1999999099681MD1999999-0071REMSYN076AAXX  18124 82571 32797 10407 10255 20197 39968 40143 82050 333 20200 59007;EQDQ01+000022SCOTLC
0137825710999992006061818004-05500-045267FM-12+015399999V0201401N004112200019N0100001N1+02961+02101101251ADDGF103991031021004501001001MA1999999099501MD1999999+0021REMSYN070AAXX  18184 82571 32497 31408 10296 20210 39950 40125 83200 333 58002;
0178825710999992006061900004-05500-045267FM-12+015399999V0201401N001012200019N0100001N1+02471+02091101331ADDGA1001+999999999GF100991001001999999001001KA1240M+03151MA1999999099581MD1999999+0001REMSYN082AAXX  19004 82571 32997 01402 10247 20209 39958 40133 333 10315 29072 55088 58000;
0156825710999992006061912004-05500-045267FM-12+015399999V0201401N001512200019N0100001N1+02601+01961101441ADDGF101991011011004501001001KA1240N+02161MA1999999099691MD1999999+0011REMSYN076AAXX  19124 82571 32497 11403 10260 20196 39969 40144 81100 333 20216 58001;
0137825710999992006061918004-05500-045267FM-12+015399999V0201401N004612200019N0100001N1+02891+01871101281ADDGF104991031021004501001011MA1999999099531MD1999999+0031REMSYN070AAXX  19184 82571 32497 41409 10289 20187 39953 40128 83201 333 58003;
0178825710999992006062000004-05500-045267FM-12+015399999V0200901N001012200019N0100001N1+02431+01971101401ADDGA1001+999999999GF100991001001999999001001KA1240M+03071MA1999999099651MD1999999+0071REMSYN082AAXX  20004 82571 32997 00902 10243 20197 39965 40140 333 10307 29068 55096 58007;
0156825710999992006062012004-05500-045267FM-12+015399999V0201401N005112200019N0100001N1+02521+01981101461ADDGF101991011011004501001001KA1240N+01831MA1999999099701MD1999999+0011REMSYN076AAXX  20124 82571 32497 11410 10252 20198 39970 40146 81100 333 20183 58001;
0137825710999992006062018004-05500-045267FM-12+015399999V0201401N003612200019N0100001N1+03001+01911101181ADDGF103991031021004501001001MA1999999099431MD1999999-0101REMSYN070AAXX  20184 82571 32497 31407 10300 20191 39943 40118 83200 333 59010;
0178825710999992006062100004-05500-045267FM-12+015399999V0201401N000512200019N0100001N1+02481+02031101451ADDGA1001+999999999GF100991001001999999001001KA1240M+03101MA1999999099691MD1999999+0041REMSYN082AAXX  21004 82571 32997 01401 10248 20203 39969 40145 333 10310 29069 55099 58004;
0166825710999992006062112004-05500-045267FM-12+015399999V0201401N005112200019N0100001N1+02471+01831101581ADDGA1001+999999999GF100991001001999999001001KA1240N+02081MA1999999099821MD1999999+0121REMSYN070AAXX  21124 82571 32997 01410 10247 20183 39982 40158 333 20208 58012;
0137825710999992006062118004-05500-045267FM-12+015399999V0201401N002112200019N0100001N1+03031+01881101271ADDGF102991021011004501001001MA1999999099721MD1999999+0091REMSYN070AAXX  21184 82571 32497 21404 10303 20188 39972 40127 82100 333 58009;
0178825710999992006062200004-05500-045267FM-12+015399999V0201801N001012200019N0100001N1+02541+01981101491ADDGA1001+999999999GF100991001001999999001001KA1240M+03141MA1999999099731MD1999999+0041REMSYN082AAXX  22004 82571 32997 01802 10254 20198 39973 40149 333 10314 29065 55107 58004;
0156825710999992006062212004-05500-045267FM-12+015399999V0201401N004112200019N0100001N1+02511+01931101531ADDGF101991011001017501031001KA1240N+01951MA1999999099771MD1999999-0051REMSYN076AAXX  22124 82571 32797 11408 10251 20193 39977 40153 81030 333 20195 59005;
0137825710999992006062218004-05500-045267FM-12+015399999V0200901N003612200019N0100001N1+03191+02031101141ADDGF104991041021004501001001MA1999999099401MD1999999-0121REMSYN070AAXX  22184 82571 32497 40907 10319 20203 39940 40114 84200 333 59012;
0178825710999992006062300004-05500-045267FM-12+015399999V0201401N002112200019N0100001N1+02531+02041101391ADDGA1001+999999999GF100991001001999999001001KA1240M+03281MA1999999099641MD1999999-0091REMSYN082AAXX  23004 82571 32997 01404 10253 20204 39964 40139 333 10328 29067 55103 59009;
0156825710999992006062312004-05500-045267FM-12+015399999V0201801N004112200019N0100001N1+02511+01981101541ADDGF101991011001017501041001KA1240N+02001MA1999999099781MD1999999+0011REMSYN076AAXX  23124 82571 32797 11808 10251 20198 39978 40154 81040 333 20200 58001;
0156825710999992006062318004-05500-045267FM-12+015399999V0201401N003612200019N0100001N1+03051+01931101201ADDGF102991999021004501001001MA1999999099451MD1999999+0051REMSYN070AAXX  23184 82571 32497 21407 10305 20193 39945 40120 83200 333 58005;EQDQ01+000032SCOTLC
0168825710999992006062400004-05500-045267FM-12+015399999V0200901N001512200019N0100001N1+02581+02101101411ADDGF104991041001017501031001KA1240M+03131MA1999999099661MD1999999+0021REMSYN088AAXX  24004 82571 32797 40903 10258 20210 39966 40141 84030 333 10313 29068 55104 58002;
0166825710999992006062412004-05500-045267FM-12+015399999V0201401N003112200019N0100001N1+02391+01821101441ADDGA1001+999999999GF100991001001999999001001KA1240N+01861MA1999999099681MD1999999-0101REMSYN070AAXX  24124 82571 32997 01406 10239 20182 39968 40144 333 20186 59010;
0156825710999992006062418004-05500-045267FM-12+015399999V0201401N003612200019N0100001N1+03011+01861101171ADDGF104991999021004501001001MA1999999099421MD1999999-0031REMSYN070AAXX  24184 82571 32497 41407 10301 20186 39942 40117 83200 333 59003;EQDQ01+000032SCOTLC
0178825710999992006062500004-05500-045267FM-12+015399999V0209999C000012200019N0100001N1+02611+02101101351ADDGA1001+999999999GF100991001001999999001001KA1240M+03201MA1999999099601MD1999999-0061REMSYN082AAXX  25004 82571 32997 00000 10261 20210 39960 40135 333 10320 29013 55103 59006;
0166825710999992006062512004-05500-045267FM-12+015399999V0201401N003612200019N0100001N1+02491+02031101421ADDGA1001+999999999GF100991001001999999001001KA1240N+01941MA1999999099671MD1999999-0011REMSYN070AAXX  25124 82571 32997 01407 10249 20203 39967 40142 333 20194 59001;
0137825710999992006062518004-05500-045267FM-12+015399999V0200901N002112200019N0100001N1+02991+02141101171ADDGF103991031021004501001001MA1999999099421MD1999999+0051REMSYN070AAXX  25184 82571 32497 30904 10299 20214 39942 40117 83200 333 58005;
0168825710999992006062600004-05500-045267FM-12+015399999V0209999C000012200019N0100001N1+02711+02281101361ADDGF102991021001017501031001KA1240M+03151MA1999999099611MD1999999+0011REMSYN088AAXX  26004 82571 32797 20000 10271 20228 39961 40136 82030 333 10315 29072 55082 58001;
0156825710999992006062612004-05500-045267FM-12+015399999V0200901N003110150019N0100001N1+02561+01971101481ADDGF105991051001017501051001KA1240N+02351MA1999999099761MD1999999-0091REMSYN076AAXX  26124 82571 32797 50906 10256 20197 39976 40148 85050 333 20235 59009;
0137825710999992006062618004-05500-045267FM-12+015399999V0200901N002612200019N0100001N1+03161+01941101261ADDGF103991031021004501001001MA1999999099531MD1999999+0111REMSYN070AAXX  26184 82571 32497 30905 10316 20194 39953 40126 83200 333 58011;
0168825710999992006062700004-05500-045267FM-12+015399999V0209999C000012200019N0100001N1+02811+02381101371ADDGF102991021001017501031001KA1240M+03271MA1999999099631MD1999999+0021REMSYN088AAXX  27004 82571 32797 20000 10281 20238 39963 40137 82030 333 10327 29068 55090 58002;
0156825710999992006062712004-05500-045267FM-12+015399999V0200901N001012200019N0100001N1+02681+02281101571ADDGF102991021001017501031001KA1240N+02271MA1999999099831MD1999999+0071REMSYN076AAXX  27124 82571 32797 20902 10268 20228 39983 40157 82030 333 20227 58007;
0137825710999992006062718004-05500-045267FM-12+015399999V0200501N002112200019N0100001N1+03291+02051101281ADDGF103991031021017501001001MA1999999099531MD1999999+0001REMSYN070AAXX  27184 82571 32797 30504 10329 20205 39953 40128 83200 333 58000;
0178825710999992006062800004-05500-045267FM-12+015399999V0209999C000012200019N0100001N1+02791+02311101431ADDGA1001+999999999GF100991001001999999001001KA1240M+03381MA1999999099691MD1999999+0061REMSYN082AAXX  28004 82571 32997 00000 10279 20231 39969 40143 333 10338 29069 55105 58006;
0156825710999992006062812004-05500-045267FM-12+015399999V0200501N002112200019N0100001N1+02641+02311101601ADDGF102991021021004501031001KA1240N+02201MA1999999099861MD1999999+0031REMSYN076AAXX  28124 82571 32497 20504 10264 20231 39986 40160 82230 333 20220 58003;
0182825710999992006062818004-05500-045267FM-12+015399999V0200501N001510450019N0100001N1+02631+02391101341ADDAA106006191AY121061AY211061GF106991031051004501041001MA1999999099581MD1999999+0051MW1951REMSYN082AAXX  28184 82571 21497 60503 10263 20239 39958 40134 79521 83540 333 58005 60061;
0178825710999992006062900004-05500-045267FM-12+015399999V0209999C000012200019N0100001N1+02511+02331101441ADDGA1001+999999999GF100991001001999999001001KA1240M+03271MA1999999099691MD1999999+0001REMSYN082AAXX  29004 82571 32997 00000 10251 20233 39969 40144 333 10327 29086 55075 58000;
0156825710999992006063012004-05500-045267FM-12+015399999V0201401N003610450019N0100001N1+02561+02021101641ADDGF106991031021004501031001KA1240N+02271MA1999999099891MD1999999-0061REMSYN076AAXX  30124 82571 32497 61407 10256 20202 39989 40164 83230 333 20227 59006;
0137825710999992006063018004-05500-045267FM-12+015399999V0200901N002612200019N0100001N1+03051+02061101301ADDGF103991031021004501001001MA1999999099561MD1999999+0021REMSYN070AAXX  30184 82571 32497 30905 10305 20206 39956 40130 83200 333 58002;
0156825710999992006070112004-05500-045267FM-12+015399999V0201401N003612200019N0100001N1+02551+01971101651ADDGF101991011011004501001001KA1240N+02061MA1999999099891MD1999999+0001REMSYN076AAXX  01124 82571 32497 11407 10255 20197 39989 40165 81100 333 20206 58000;
0137825710999992006070118004-05500-045267FM-12+015399999V0200901N004612200019N0100001N1+03031+02001101391ADDGF103991031021004501001001MA1999999099641MD1999999+0081REMSYN070AAXX  01184 82571 32497 30909 10303 20200 39964 40139 83200 333 58008;
0168825710999992006070200004-05500-045267FM-12+015399999V0209999C000010150019N0100001N1+02471+02031101661ADDGF105991051001017501031001KA1240M+03101MA1999999099881MD1999999+0141REMSYN088AAXX  02004 82571 32797 50000 10247 20203 39988 40166 85030 333 10310 29069 55099 58014;
0156825710999992006070212004-05500-045267FM-12+015399999V0201401N004612200019N0100001N1+02591+01961101641ADDGF103991021001017501031011KA1240N+02071MA1999999099881MD1999999-0011REMSYN076AAXX  02124 82571 32797 31409 10259 20196 39988 40164 82031 333 20207 59001;
0137825710999992006070218004-05500-045267FM-12+015399999V0200901N004610450019N0100001N1+03041+01851101461ADDGF106991021021004501071011MA1999999099711MD1999999+0071REMSYN070AAXX  02184 82571 32497 60909 10304 20185 39971 40146 82271 333 58007;
0178825710999992006070300004-05500-045267FM-12+015399999V0201401N002112200019N0100001N1+02491+02001101621ADDGA1001+999999999GF100991001001999999001001KA1240M+03101MA1999999099861MD1999999-0021REMSYN082AAXX  03004 82571 32997 01404 10249 20200 39986 40162 333 10310 29063 55093 59002;
0156825710999992006070312004-05500-045267FM-12+015399999V0201401N003612200019N0100001N1+02541+01831101721ADDGF102991011001017501031011KA1240N+02101MA1999999099961MD1999999+0081REMSYN076AAXX  03124 82571 32797 21407 10254 20183 39996 40172 81031 333 20210 58008;
0137825710999992006070318004-05500-045267FM-12+015399999V0200901N002110450019N0100001N1+03071+01951101401ADDGF106991031021004501031051MA1999999099651MD1999999-0061REMSYN070AAXX  03184 82571 32497 60904 10307 20195 39965 40140 83235 333 59006;
0187825710999992006070400004-05500-045267FM-12+015399999V0200901N000512200019N0100001N1+02571+02061101601ADDGF103991999081004501041001KA1240M+03161MA1999999099851MD1999999-0011REMSYN088AAXX  04004 82571 32497 30901 10257 20206 39985 40160 84840 333 10316 29065 55098 59001;EQDQ01+000042SCOTLC
0166825710999992006070412004-05500-045267FM-12+015399999V0201401N003112200019N0100001N1+02541+01931101721ADDGA1001+999999999GF100991001001999999001001KA1240N+02041MA1999999099961MD1999999+0001REMSYN070AAXX  04124 82571 32997 01406 10254 20193 39996 40172 333 20204 58000;
0137825710999992006070418004-05500-045267FM-12+015399999V0200901N002612200019N0100001N1+03131+01971101341ADDGF104991041021004501001001MA1999999099601MD1999999-0051REMSYN070AAXX  04184 82571 32497 40905 10313 20197 39960 40134 84200 333 59005;
0168825710999992006070500004-05500-045267FM-12+015399999V0209999C000012200019N0100001N1+02651+02181101531ADDGF102991021001017501031001KA1240M+03251MA1999999099771MD1999999-0081REMSYN088AAXX  05004 82571 32797 20000 10265 20218 39977 40153 82030 333 10325 29067 55100 59008;
0156825710999992006070512004-05500-045267FM-12+015399999V0201401N002112200019N0100001N1+02511+01911101681ADDGF104991021001017501041011KA1240N+02041MA1999999099931MD1999999-0031REMSYN076AAXX  05124 82571 32797 41404 10251 20191 39993 40168 82041 333 20204 59003;
0137825710999992006070518004-05500-045267FM-12+015399999V0200901N003612200019N0100001N1+03111+01921101321ADDGF103991021021004501001011MA1999999099581MD1999999-0021REMSYN070AAXX  05184 82571 32497 30907 10311 20192 39958 40132 82201 333 59002;
0168825710999992006070600004-05500-045267FM-12+015399999V0200501N000510450019N0100001N1+02611+02121101601ADDGF105991031081004501041001KA1240M+03161MA1999999099851MD1999999+0081REMSYN088AAXX  06004 82571 32497 50501 10261 20212 39985 40160 83840 333 10316 29066 55100 58008;
0156825710999992006070612004-05500-045267FM-12+015399999V0200901N002612200019N0100001N1+02491+02031101731ADDGF106991041001017501041011KA1240N+01941MA1999999099971MD1999999+0041REMSYN076AAXX  06124 82571 32797 60905 10249 20203 39997 40173 84041 333 20194 58004;
0137825710999992006070618004-05500-045267FM-12+015399999V0200901N002112200019N0100001N1+03091+01901101451ADDGF104991021021004501031011MA1999999099701MD1999999+0121REMSYN070AAXX  06184 82571 32497 40904 10309 20190 39970 40145 82231 333 58012;
0178825710999992006070700004-05500-045267FM-12+015399999V0209999C000012200019N0100001N1+02571+02121101631ADDGA1001+999999999GF100991001001999999001001KA1240M+03231MA1999999099871MD1999999+0021REMSYN082AAXX  07004 82571 32997 00000 10257 20212 39987 40163 333 10323 29069 55096 58002;
0156825710999992006070712004-05500-045267FM-12+015399999V0203201N001012200019N0100001N1+02511+02091101721ADDGF102991011021004501001011KA1240N+01911MA1999999099961MD1999999-0011REMSYN076AAXX  07124 82571 32497 23202 10251 20209 39996 40172 81201 333 20191 59001;
0137825710999992006070718004-05500-045267FM-12+015399999V0200901N002612200019N0100001N1+03161+02081101341ADDGF104991021021004501031011MA1999999099591MD1999999-0111REMSYN070AAXX  07184 82571 32497 40905 10316 20208 39959 40134 82231 333 59011;
0168825710999992006070800004-05500-045267FM-12+015399999V0200901N001510150019N0100001N1+02701+02221101461ADDGF107991061001017501081011KA1240M+03221MA1999999099711MD1999999-0161REMSYN088AAXX  08004 82571 32797 70903 10270 20222 39971 40146 86081 333 10322 29070 55103 59016;
0156825710999992006070812004-05500-045267FM-12+015399999V0200901N004112200019N0100001N1+02651+01951101561ADDGF102991011011004501051001KA1240N+02361MA1999999099821MD1999999-0141REMSYN076AAXX  08124 82571 32497 20908 10265 20195 39982 40156 81150 333 20236 59014;
0137825710999992006070818004-05500-045267FM-12+015399999V0200501N002110450019N0100001N1+03061+02111101251ADDGF106991041021004501041001MA1999999099521MD1999999-0071REMSYN070AAXX  08184 82571 32497 60504 10306 20211 39952 40125 84240 333 59007;
0178825710999992006070900004-05500-045267FM-12+015399999V0209999C000012200019N0100001N1+02651+02291101341ADDGA1001+999999999GF100991001001999999001001KA1240M+03121MA1999999099601MD1999999-0111REMSYN082AAXX  09004 82571 32997 00000 10265 20229 39960 40134 333 10312 29070 55081 59011;
0156825710999992006070912004-05500-045267FM-12+015399999V0201401N002112200019N0100001N1+02511+01911101391ADDGF103991021001999999051011KA1240N+02051MA1999999099641MD1999999-0181REMSYN076AAXX  09124 82571 32997 31404 10251 20191 39964 40139 82051 333 20205 59018;
0137825710999992006070918004-05500-045267FM-12+015399999V0200901N002612200019N0100001N1+03191+01891101031ADDGF102991011011004501001011MA1999999099301MD1999999-0221REMSYN070AAXX  09184 82571 32497 20905 10319 20189 39930 40103 81101 333 59022;
0178825710999992006071000004-05500-045267FM-12+015399999V0200901N001512200019N0100001N1+02651+02021101271ADDGA1001+999999999GF100991001001999999001001KA1240M+03271MA1999999099521MD1999999-0021REMSYN082AAXX  10004 82571 32997 00903 10265 20202 39952 40127 333 10327 29063 55103 59002;
0156825710999992006071012004-05500-045267FM-12+015399999V0200901N003112200019N0100001N1+02541+01881101411ADDGF102991021001017501041011KA1240N+01951MA1999999099661MD1999999+0021REMSYN076AAXX  10124 82571 32797 20906 10254 20188 39966 40141 82041 333 20195 58002;
0137825710999992006071018004-05500-045267FM-12+015399999V0201401N004112200019N0100001N1+03271+01661101041ADDGF102991021011004501001001MA1999999099311MD1999999+0011REMSYN070AAXX  10184 82571 32497 21408 10327 20166 39931 40104 82100 333 58001;
0178825710999992006071100004-05500-045267FM-12+015399999V0200901N002112200019N0100001N1+02541+01811101301ADDGA1001+999999999GF100991001001999999001001KA1240M+03311MA1999999099551MD1999999+0031REMSYN082AAXX  11004 82571 32997 00904 10254 20181 39955 40130 333 10331 29058 55103 58003;
0166825710999992006071112004-05500-045267FM-12+015399999V0200901N002112200019N0100001N1+02411+01671101461ADDGA1001+999999999GF100991001001999999001001KA1240N+01901MA1999999099701MD1999999+0041REMSYN070AAXX  11124 82571 32997 00904 10241 20167 39970 40146 333 20190 58004;
0137825710999992006071118004-05500-045267FM-12+015399999V0200901N003612200019N0100001N1+03131+01971101161ADDGF104991041021004501001001MA1999999099411MD1999999+0101REMSYN070AAXX  11184 82571 32497 40907 10313 20197 39941 40116 84200 333 58010;
0168825710999992006071200004-05500-045267FM-12+015399999V0209999C000012200019N0100001N1+02651+02241101311ADDGF102991021001017501031001KA1240M+03211MA1999999099561MD1999999+0011REMSYN088AAXX  12004 82571 32797 20000 10265 20224 39956 40131 82030 333 10321 29067 55105 58001;
0166825710999992006071212004-05500-045267FM-12+015399999V0201401N004112200019N0100001N1+02621+01761101471ADDGA1001+999999999GF100991001001999999001001KA1240N+02171MA1999999099721MD1999999+0021REMSYN070AAXX  12124 82571 32997 01408 10262 20176 39972 40147 333 20217 58002;
0137825710999992006071218004-05500-045267FM-12+015399999V0201401N004612200019N0100001N1+03171+01801101211ADDGF102991021021004501001001MA1999999099471MD1999999+0061REMSYN070AAXX  12184 82571 32497 21409 10317 20180 39947 40121 82200 333 58006;
0178825710999992006071300004-05500-045267FM-12+015399999V0200901N001012200019N0100001N1+02611+02011101331ADDGA1001+999999999GF100991001001999999001001KA1240M+03241MA1999999099581MD1999999+0021REMSYN082AAXX  13004 82571 32997 00902 10261 20201 39958 40133 333 10324 29060 55105 58002;
0156825710999992006071312004-05500-045267FM-12+015399999V0200901N004612200019N0100001N1+02591+01871101451ADDGF102991011001017501041011KA1240N+01931MA1999999099701MD1999999-0021REMSYN076AAXX  13124 82571 32797 20909 10259 20187 39970 40145 81041 333 20193 59002;
0137825710999992006071318004-05500-045267FM-12+015399999V0201401N003612200019N0100001N1+03161+01891101211ADDGF103991031021004501001001MA1999999099461MD1999999-0011REMSYN070AAXX  13184 82571 32497 31407 10316 20189 39946 40121 83200 333 59001;
0178825710999992006071400004-05500-045267FM-12+015399999V0209999C000012200019N0100001N1+02601+02011101391ADDGA1001+999999999GF100991001001999999001001KA1240M+03231MA1999999099641MD1999999+0061REMSYN082AAXX  14004 82571 32997 00000 10260 20201 39964 40139 333 10323 29063 55103 58006;
0166825710999992006071412004-05500-045267FM-12+015399999V0201401N003612200019N0100001N1+02491+01621101501ADDGA1001+999999999GF100991001001999999001001KA1240N+01831MA1999999099751MD1999999+0051REMSYN070AAXX  14124 82571 32997 01407 10249 20162 39975 40150 333 20183 58005;
0137825710999992006071418004-05500-045267FM-12+015399999V0200901N002112200019N0100001N1+03051+01621101211ADDGF102991011011004501001011MA1999999099461MD1999999+0001REMSYN070AAXX  14184 82571 32497 20904 10305 20162 39946 40121 81101 333 58000;
0178825710999992006071500004-05500-045267FM-12+015399999V0200901N002112200019N0100001N1+02351+01831101411ADDGA1001+999999999GF100991001001999999001001KA1240M+03141MA1999999099651MD1999999+0011REMSYN082AAXX  15004 82571 32997 00904 10235 20183 39965 40141 333 10314 29061 55103 58001;
0156825710999992006071512004-05500-045267FM-12+015399999V0201401N005112200019N0100001N1+02431+01691101591ADDGF102991011001017501041011KA1240N+01651MA1999999099831MD1999999-0081REMSYN076AAXX  15124 82571 32797 21410 10243 20169 39983 40159 81041 333 20165 59008;
0137825710999992006071518004-05500-045267FM-12+015399999V0200901N003112200019N0100001N1+03091+01701101291ADDGF103991021011004501001011MA1999999099531MD1999999+0071REMSYN070AAXX  15184 82571 32497 30906 10309 20170 39953 40129 82101 333 58007;
0178825710999992006071600004-05500-045267FM-12+015399999V0200901N001012200019N0100001N1+02581+01971101401ADDGA1001+999999999GF100991001001999999001001KA1240M+03201MA1999999099651MD1999999+0001REMSYN082AAXX  16004 82571 32997 00902 10258 20197 39965 40140 333 10320 29059 55105 58000;
0156825710999992006071612004-05500-045267FM-12+015399999V0201401N002612200019N0100001N1+03241+01341101521ADDGF106991031001017501041011KA1240N+01831MA1999999099761MD1999999-0071REMSYN076AAXX  16124 82571 32797 61405 10324 20134 39976 40152 83041 333 20183 59007;
0137825710999992006071618004-05500-045267FM-12+015399999V0201401N002612200019N0100001N1+03101+01901101221ADDGF106991041021004501001011MA1999999099471MD1999999-0061REMSYN070AAXX  16184 82571 32497 61405 10310 20190 39947 40122 84201 333 59006;
0178825710999992006071700004-05500-045267FM-12+015399999V0209999C000012200019N0100001N1+02631+02091101421ADDGA1001+999999999GF100991001001999999001001KA1240M+03231MA1999999099661MD1999999+0011REMSYN082AAXX  17004 82571 32997 00000 10263 20209 39966 40142 333 10323 29066 55093 58001;
0156825710999992006071712004-05500-045267FM-12+015399999V0201401N004612200019N0100001N1+02561+01831101581ADDGF101991011001017501031001KA1240N+01971MA1999999099831MD1999999+0071REMSYN076AAXX  17124 82571 32797 11409 10256 20183 39983 40158 81030 333 20197 58007;
0137825710999992006071718004-05500-045267FM-12+015399999V0200901N003110042019N0100001N1+03131+01871101231ADDGF105991051021004501001001MA1999999099481MD1999999+0011REMSYN070AAXX  17184 82571 32497 50906 10313 20187 39948 40123 85200 333 58001;
0178825710999992006071800004-05500-045267FM-12+015399999V0200901N001512200019N0100001N1+02611+02051101381ADDGA1001+999999999GF100991001001999999001001KA1240M+03251MA1999999099631MD1999999-0031REMSYN082AAXX  18004 82571 32997 00903 10261 20205 39963 40138 333 10325 29063 55104 59003;
0166825710999992006071812004-05500-045267FM-12+015399999V0201401N003112200019N0100001N1+02491+01801101351ADDGA1001+999999999GF100991001001999999001001KA1240N+01961MA1999999099601MD1999999-0231REMSYN070AAXX  18124 82571 32997 01406 10249 20180 39960 40135 333 20196 59023;
0137825710999992006071818004-05500-045267FM-12+015399999V0201401N002612200019N0100001N1+03161+01431101171ADDGF101991011011004501001001MA1999999099431MD1999999-0051REMSYN070AAXX  18184 82571 32497 11405 10316 20143 39943 40117 81100 333 59005;
0178825710999992006071900004-05500-045267FM-12+015399999V0200901N001512200019N0100001N1+02611+01931101341ADDGA1001+999999999GF100991001001999999001001KA1240M+03251MA1999999099591MD1999999-0041REMSYN082AAXX  19004 82571 32997 00903 10261 20193 39959 40134 333 10325 29058 55107 59004;
0156825710999992006071912004-05500-045267FM-12+015399999V0201401N003112200019N0100001N1+02461+01711101571ADDGF101991011001017501031001KA1240N+01891MA1999999099821MD1999999+0221REMSYN076AAXX  19124 82571 32797 11406 10246 20171 39982 40157 81030 333 20189 58022;
0137825710999992006071918004-05500-045267FM-12+015399999V0201401N003112200019N0100001N1+03161+01821101291ADDGF102991021011004501001001MA1999999099541MD1999999+0111REMSYN070AAXX  19184 82571 32497 21406 10316 20182 39954 40129 82100 333 58011;
0178825710999992006072000004-05500-045267FM-12+015399999V0201401N001012200019N0100001N1+02651+02181101381ADDGA1001+999999999GF100991001001999999001001KA1240M+03261MA1999999099631MD1999999+0041REMSYN082AAXX  20004 82571 32997 01402 10265 20218 39963 40138 333 10326 29064 55106 58004;
0156825710999992006072012004-05500-045267FM-12+015399999V0200901N002610042019N0100001N1+02311+01961101581ADDGF108991081051004501999999KA1240N+01851MA1999999099821MD1999999+0001REMSYN076AAXX  20124 82571 32497 80905 10231 20196 39982 40158 885// 333 20185 58000;
0137825710999992006072018004-05500-045267FM-12+015399999V0200901N002112200019N0100001N1+03221+02011101261ADDGF104991031021004501001011MA1999999099511MD1999999-0031REMSYN070AAXX  20184 82571 32497 40904 10322 20201 39951 40126 83201 333 59003;
0178825710999992006072100004-05500-045267FM-12+015399999V0200901N001012200019N0100001N1+02651+02111101381ADDGA1001+999999999GF100991001001999999001001KA1240M+03311MA1999999099631MD1999999+0001REMSYN082AAXX  21004 82571 32997 00902 10265 20211 39963 40138 333 10331 29068 55087 58000;
0156825710999992006072112004-05500-045267FM-12+015399999V0200901N002110042019N0100001N1+02231+02091101621ADDGF108991081051004501999999KA1240N+01971MA1999999099861MD1999999+0041REMSYN076AAXX  21124 82571 32497 80904 10223 20209 39986 40162 885// 333 20197 58004;
0137825710999992006072118004-05500-045267FM-12+015399999V0200501N002112200019N0100001N1+03191+02061101211ADDGF103991031021004501001001MA1999999099461MD1999999+0051REMSYN070AAXX  21184 82571 32497 30504 10319 20206 39946 40121 83200 333 58005;
0178825710999992006072200004-05500-045267FM-12+015399999V0209999C000012200019N0100001N1+02691+02301101331ADDGA1001+999999999GF100991001001999999001001KA1240M+03331MA1999999099571MD1999999-0061REMSYN082AAXX  22004 82571 32997 00000 10269 20230 39957 40133 333 10333 29075 55061 59006;
0166825710999992006072212004-05500-045267FM-12+015399999V0200901N003112200019N0100001N1+02511+01711101501ADDGA1001+999999999GF100991001001999999001001KA1240N+01951MA1999999099751MD1999999-0111REMSYN070AAXX  22124 82571 32997 00906 10251 20171 39975 40150 333 20195 59011;
0147825710999992006072218004-05500-045267FM-12+015399999V0201401N002612200019N0100001N1+03191+01671101111ADDGA1001+999999999GF100991001001999999001001MA1999999099371MD1999999-0091REMSYN064AAXX  22184 82571 32997 01405 10319 20167 39937 40111 333 59009;
0178825710999992006072300004-05500-045267FM-12+015399999V0200901N001012200019N0100001N1+02531+01811101201ADDGA1001+999999999GF100991001001999999001001KA1240M+03281MA1999999099451MD1999999-0121REMSYN082AAXX  23004 82571 32997 00902 10253 20181 39945 40120 333 10328 29057 55102 59012;
0166825710999992006072312004-05500-045267FM-12+015399999V0200901N003112200019N0100001N1+02231+01501101411ADDGA1001+999999999GF100991001001999999001001KA1240N+01571MA1999999099651MD1999999-0101REMSYN070AAXX  23124 82571 32997 00906 10223 20150 39965 40141 333 20157 59010;
0137825710999992006072318004-05500-045267FM-12+015399999V0200901N003112200019N0100001N1+03111+01521101051ADDGF102991021011004501001001MA1999999099291MD1999999-0081REMSYN070AAXX  23184 82571 32497 20906 10311 20152 39929 40105 82100 333 59008;
0178825710999992006072400004-05500-045267FM-12+015399999V0201401N000512200019N0100001N1+02581+01901101211ADDGA1001+999999999GF100991001001999999001001KA1240M+03221MA1999999099451MD1999999+0001REMSYN082AAXX  24004 82571 32997 01401 10258 20190 39945 40121 333 10322 29058 55106 58000;
0156825710999992006072412004-05500-045267FM-12+015399999V0200501N002112200019N0100001N1+02451+01921101371ADDGF102991021041004501001001KA1240N+01781MA1999999099621MD1999999-0031REMSYN076AAXX  24124 82571 32497 20504 10245 20192 39962 40137 82400 333 20178 59003;
0137825710999992006072418004-05500-045267FM-12+015399999V0201401N002110450019N0100001N1+03111+01851101071ADDGF106991031021004501031001MA1999999099321MD1999999+0031REMSYN070AAXX  24184 82571 32497 61404 10311 20185 39932 40107 83230 333 58003;
0178825710999992006072500004-05500-045267FM-12+015399999V0200901N001012200019N0100001N1+02711+02001101121ADDGA1001+999999999GF100991001001999999001001KA1240M+03231MA1999999099381MD1999999-0071REMSYN082AAXX  25004 82571 32997 00902 10271 20200 39938 40112 333 10323 29062 55076 59007;
0156825710999992006072512004-05500-045267FM-12+015399999V0201401N003612200019N0100001N1+02691+01831101191ADDGF101991011001017501031001KA1240N+02421MA1999999099451MD1999999-0171REMSYN076AAXX  25124 82571 32797 11407 10269 20183 39945 40119 81030 333 20242 59017;
0137825710999992006072518004-05500-045267FM-12+015399999V0200901N003612200019N0100001N1+03221+01651100921ADDGF101991011011004501001001MA1999999099201MD1999999-0121REMSYN070AAXX  25184 82571 32497 10907 10322 20165 39920 40092 81100 333 59012;
0178825710999992006072600004-05500-045267FM-12+015399999V0200901N000512200019N0100001N1+02631+01951101051ADDGA1001+999999999GF100991001001999999001001KA1240M+03251MA1999999099311MD1999999-0071REMSYN082AAXX  26004 82571 32997 00901 10263 20195 39931 40105 333 10325 29058 55103 59007;
0166825710999992006072612004-05500-045267FM-12+015399999V0200901N002112200019N0100001N1+02541+01361101161ADDGA1001+999999999GF100991001001999999001001KA1240N+01941MA1999999099421MD1999999-0031REMSYN070AAXX  26124 82571 32997 00904 10254 20136 39942 40116 333 20194 59003;
0137825710999992006072618004-05500-045267FM-12+015399999V0200901N002612200019N0100001N1+03261+02021100961ADDGF104991031021004501001011MA1999999099221MD1999999+0021REMSYN070AAXX  26184 82571 32497 40905 10326 20202 39922 40096 83201 333 58002;
0178825710999992006072700004-05500-045267FM-12+015399999V0209999C000012200019N0100001N1+02751+02141101131ADDGA1001+999999999GF100991001001999999001001KA1240M+03371MA1999999099391MD1999999+0081REMSYN082AAXX  27004 82571 32997 00000 10275 20214 39939 40113 333 10337 29063 55107 58008;
0156825710999992006072712004-05500-045267FM-12+015399999V0200901N002110450019N0100001N1+02681+02281101221ADDGF105991041021004501031001KA1240N+02171MA1999999099481MD1999999+0061REMSYN076AAXX  27124 82571 32497 50904 10268 20228 39948 40122 84230 333 20217 58006;
0137825710999992006072718004-05500-045267FM-12+015399999V0201401N003610042019N0100001N1+03251+02021101071ADDGF106991051021004501001011MA1999999099341MD1999999+0121REMSYN070AAXX  27184 82571 32497 61407 10325 20202 39934 40107 85201 333 58012;
0168825710999992006072800004-05500-045267FM-12+015399999V0209999C000012200019N0100001N1+02801+02311101061ADDGF101991011001017501041001KA1240M+03351MA1999999099331MD1999999-0061REMSYN088AAXX  28004 82571 32797 10000 10280 20231 39933 40106 81040 333 10335 29069 55084 59006;
0156825710999992006072812004-05500-045267FM-12+015399999V0200901N000510450019N0100001N1+02501+02231101331ADDGF106991031041004501051011KA1240N+02181MA1999999099591MD1999999+0111REMSYN076AAXX  28124 82571 32497 60901 10250 20223 39959 40133 83451 333 20218 58011;
0137825710999992006072818004-05500-045267FM-12+015399999V0201401N002610042019N0100001N1+03341+01981101041ADDGF106991061021004501001001MA1999999099311MD1999999-0031REMSYN070AAXX  28184 82571 32497 61405 10334 20198 39931 40104 86200 333 59003;
0178825710999992006072900004-05500-045267FM-12+015399999V0209999C000012200019N0100001N1+02831+02141101101ADDGA1001+999999999GF100991001001999999001001KA1240M+03461MA1999999099361MD1999999+0031REMSYN082AAXX  29004 82571 32997 00000 10283 20214 39936 40110 333 10346 29066 55084 58003;
0156825710999992006072912004-05500-045267FM-12+015399999V0200901N002110042019N0100001N1+02511+02291101351ADDGF106991061021004501001001KA1240N+02071MA1999999099611MD1999999+0021REMSYN076AAXX  29124 82571 32497 60904 10251 20229 39961 40135 86200 333 20207 58002;
0137825710999992006072918004-05500-045267FM-12+015399999V0201401N002112200019N0100001N1+03341+02091100961ADDGF103991021021004501001011MA1999999099231MD1999999-0081REMSYN070AAXX  29184 82571 32497 31404 10334 20209 39923 40096 82201 333 59008;
0178825710999992006073000004-05500-045267FM-12+015399999V0209999C000012200019N0100001N1+02821+02241101081ADDGA1001+999999999GF100991001001999999001001KA1240M+03471MA1999999099341MD1999999-0021REMSYN082AAXX  30004 82571 32997 00000 10282 20224 39934 40108 333 10347 29069 55084 59002;
0156825710999992006073012004-05500-045267FM-12+015399999V0200501N001510042019N0100001N1+02391+02241101371ADDGF108991081051004501999999KA1240N+01991MA1999999099621MD1999999+0011REMSYN076AAXX  30124 82571 32497 80503 10239 20224 39962 40137 885// 333 20199 58001;
0182825710999992006073018004-05500-045267FM-12+015399999V0200901N005110042019N0100001N1+02761+02041101111ADDAA106000021AY111061AY201061GF108991061031004501041999MA1999999099361MD1999999+0131MW1951REMSYN082AAXX  30184 82571 21497 80910 10276 20204 39936 40111 79510 8634/ 333 58013 69921;
0223825710999992006073100004-05500-045267FM-12+015399999V0202701N002112200019N0100001N1+02231+02071101321ADDAA106001091AY191061AY261061GA1001+999999999GF100991001001999999001001KA1240M+03411MA1999999099551MD1999999+0211MW1001REMSYN094AAXX  31004 82571 21997 02704 10223 20207 39955 40132 70096 333 10341 29084 55054 58021 60011;
0173825710999992006073112004-05500-045267FM-12+015399999V0202701N001510042019N0100001N1+02371+02241101671ADDAA124002091GF108991081051004501999999KA1240N+01971MA1999999099901MD1999999+0281REMSYN082AAXX  31124 82571 22497 82703 10237 20224 39990 40167 885// 333 20197 58028 60024;
0137825710999992006073118004-05500-045267FM-12+015399999V0201801N000512200019N0100001N1+03271+02161101271ADDGF102991021021004501001001MA1999999099531MD1999999+0171REMSYN070AAXX  31184 82571 32497 21801 10327 20216 39953 40127 82200 333 58017;
0178825710999992006080100004-05500-045267FM-12+015399999V0209999C000012200019N0100001N1+02821+02401101401ADDGA1001+999999999GF100991001001999999001001KA1240M+03401MA1999999099651MD1999999+0101REMSYN082AAXX  01004 82571 32997 00000 10282 20240 39965 40140 333 10340 29075 55037 58010;
0201825710999992006080112004-05500-045267FM-12+015399999V0201801N000510450019N0100001N1+02141+02091101911ADDAA124011991AY191061AY261061GF106991031051004501031011KA1240N+02141MA1999999100151MD1999999+0251MW1211REMSYN088AAXX  01124 82571 21497 61801 10214 20209 30015 40191 72196 83531 333 20214 58025 60124;
0137825710999992006080118004-05500-045267FM-12+015399999V0201401N001512200019N0100001N1+03111+02111101451ADDGF103991021021004501001011MA1999999099711MD1999999+0181REMSYN070AAXX  01184 82571 32497 31403 10311 20211 39971 40145 82201 333 58018;
0156825710999992006080212004-05500-045267FM-12+015399999V0201401N001010042019N0100001N1+02451+02271101821ADDGF107991071021004501001001KA1240N+02101MA1999999100061MD1999999-0091REMSYN076AAXX  02124 82571 32497 71402 10245 20227 30006 40182 87200 333 20210 59009;
0137825710999992006080218004-05500-045267FM-12+015399999V0201801N002112200019N0100001N1+03151+01961101321ADDGF102991021021004501001001MA1999999099581MD1999999-0131REMSYN070AAXX  02184 82571 32497 21804 10315 20196 39958 40132 82200 333 59013;
0178825710999992006080300004-05500-045267FM-12+015399999V0201401N000512200019N0100001N1+02671+02351101381ADDGA1001+999999999GF100991001001999999001001KA1240M+03261MA1999999099631MD1999999-0111REMSYN082AAXX  03004 82571 32997 01401 10267 20235 39963 40138 333 10326 29076 55095 59011;
0156825710999992006080312004-05500-045267FM-12+015399999V0200901N003110042019N0100001N1+02411+02231101741ADDGF108991081051004501999999KA1240N+02121MA1999999099981MD1999999-0081REMSYN076AAXX  03124 82571 32497 80906 10241 20223 39998 40174 885// 333 20212 59008;
0137825710999992006080318004-05500-045267FM-12+015399999V0201401N002112200019N0100001N1+03121+01821101301ADDGF103991021021004501001011MA1999999099551MD1999999-0031REMSYN070AAXX  03184 82571 32497 31404 10312 20182 39955 40130 82201 333 59003;
0178825710999992006080400004-05500-045267FM-12+015399999V0209999C000012200019N0100001N1+02621+02161101341ADDGA1001+999999999GF100991001001999999001001KA1240M+03241MA1999999099591MD1999999-0041REMSYN082AAXX  04004 82571 32997 00000 10262 20216 39959 40134 333 10324 29072 55088 59004;
0137825710999992006080418004-05500-045267FM-12+015399999V0201401N002112200019N0100001N1+03081+01681101111ADDGF103991031021004501001001MA1999999099361MD1999999-0191REMSYN070AAXX  04184 82571 32497 31404 10308 20168 39936 40111 83200 333 59019;
0178825710999992006080500004-05500-045267FM-12+015399999V0209999C000012200019N0100001N1+02551+02151101311ADDGA1001+999999999GF100991001001999999001001KA1240M+03231MA1999999099551MD1999999-0041REMSYN082AAXX  05004 82571 32997 00000 10255 20215 39955 40131 333 10323 29072 55095 59004;
0166825710999992006080512004-05500-045267FM-12+015399999V0203201N002112200019N0100001N1+02331+01621101451ADDGA1001+999999999GF100991001001999999001001KA1240N+01671MA1999999099691MD1999999-0201REMSYN070AAXX  05124 82571 32997 03204 10233 20162 39969 40145 333 20167 59020;
0147825710999992006080518004-05500-045267FM-12+015399999V0203201N002612200019N0100001N1+03151+01551101071ADDGA1001+999999999GF100991001001999999001001MA1999999099321MD1999999-0041REMSYN064AAXX  05184 82571 32997 03205 10315 20155 39932 40107 333 59004;
0178825710999992006080600004-05500-045267FM-12+015399999V0203201N002112200019N0100001N1+02591+01781101291ADDGA1001+999999999GF100991001001999999001001KA1240M+03301MA1999999099531MD1999999-0021REMSYN082AAXX  06004 82571 32997 03204 10259 20178 39953 40129 333 10330 29056 55103 59002;
0166825710999992006080612004-05500-045267FM-12+015399999V0203201N004112200019N0100001N1+02431+01531101521ADDGA1001+999999999GF100991001001999999001001KA1240N+01741MA1999999099761MD1999999+0071REMSYN070AAXX  06124 82571 32997 03208 10243 20153 39976 40152 333 20174 58007;
0147825710999992006080618004-05500-045267FM-12+015399999V0203201N003112200019N0100001N1+03151+01511101101ADDGA1001+999999999GF100991001001999999001001MA1999999099351MD1999999+0031REMSYN064AAXX  06184 82571 32997 03206 10315 20151 39935 40110 333 58003;
0178825710999992006080700004-05500-045267FM-12+015399999V0203201N001012200019N0100001N1+02631+01751101191ADDGA1001+999999999GF100991001001999999001001KA1240M+03301MA1999999099441MD1999999-0091REMSYN082AAXX  07004 82571 32997 03202 10263 20175 39944 40119 333 10330 29052 55105 59009;
0166825710999992006080712004-05500-045267FM-12+015399999V0201401N002112200019N0100001N1+02371+01661101471ADDGA1001+999999999GF100991001001999999001001KA1240N+01691MA1999999099711MD1999999-0051REMSYN070AAXX  07124 82571 32997 01404 10237 20166 39971 40147 333 20169 59005;
0137825710999992006080718004-05500-045267FM-12+015399999V0201401N003612200019N0100001N1+03111+01751101091ADDGF101991011011004501001001MA1999999099341MD1999999-0011REMSYN070AAXX  07184 82571 32497 11407 10311 20175 39934 40109 81100 333 59001;
0168825710999992006080800004-05500-045267FM-12+015399999V0201801N000512200019N0100001N1+02491+02031101361ADDGF101991011001017501031001KA1240M+03231MA1999999099601MD1999999+0161REMSYN088AAXX  08004 82571 32797 11801 10249 20203 39960 40136 81030 333 10323 29064 55101 58016;
0166825710999992006080812004-05500-045267FM-12+015399999V0201401N002612200019N0100001N1+02431+01741101441ADDGA1001+999999999GF100991001001999999001001KA1240N+01721MA1999999099681MD1999999-0031REMSYN070AAXX  08124 82571 32997 01405 10243 20174 39968 40144 333 20172 59003;
0137825710999992006080818004-05500-045267FM-12+015399999V0200501N003112200019N0100001N1+03161+01751101121ADDGF103991021021004501001011MA1999999099371MD1999999+0031REMSYN070AAXX  08184 82571 32497 30506 10316 20175 39937 40112 82201 333 58003;
0156825710999992006080912004-05500-045267FM-12+015399999V0201401N002110150019N0100001N1+02391+01821101371ADDGF106991061001017501031001KA1240N+01931MA1999999099621MD1999999-0061REMSYN076AAXX  09124 82571 32797 61404 10239 20182 39962 40137 86030 333 20193 59006;
0137825710999992006080918004-05500-045267FM-12+015399999V0201401N003112200019N0100001N1+03311+01651100941ADDGF101991011001017501031001MA1999999099201MD1999999-0171REMSYN070AAXX  09184 82571 32797 11406 10331 20165 39920 40094 81030 333 59017;
0168825710999992006081000004-05500-045267FM-12+015399999V0201801N001012200019N0100001N1+02751+02041101171ADDGF102991021001017501031001KA1240M+03431MA1999999099421MD1999999-0021REMSYN088AAXX  10004 82571 32797 21802 10275 20204 39942 40117 82030 333 10343 29059 55090 59002;
0156825710999992006081012004-05500-045267FM-12+015399999V0201401N000512200019N0100001N1+02611+02161101411ADDGF101991011001017501051001KA1240N+02221MA1999999099671MD1999999+0051REMSYN076AAXX  10124 82571 32797 11401 10261 20216 39967 40141 81050 333 20222 58005;
0137825710999992006081018004-05500-045267FM-12+015399999V0201401N003612200019N0100001N1+03391+01891100971ADDGF103991031021004501001001MA1999999099241MD1999999+0041REMSYN070AAXX  10184 82571 32497 31407 10339 20189 39924 40097 83200 333 58004;
0178825710999992006081100004-05500-045267FM-12+015399999V0209999C000012200019N0100001N1+02871+02211101131ADDGA1001+999999999GF100991001001999999001001KA1240M+03491MA1999999099401MD1999999-0021REMSYN082AAXX  11004 82571 32997 00000 10287 20221 39940 40113 333 10349 29063 55104 59002;
0156825710999992006081112004-05500-045267FM-12+015399999V0201401N002612200019N0100001N1+02671+01811101351ADDGF103991011011004501031011KA1240N+02051MA1999999099611MD1999999-0061REMSYN076AAXX  11124 82571 32497 31405 10267 20181 39961 40135 81131 333 20205 59006;
0137825710999992006081118004-05500-045267FM-12+015399999V0201401N002612200019N0100001N1+03251+01801100941ADDGF102991021011004501001001MA1999999099211MD1999999-0031REMSYN070AAXX  11184 82571 32497 21405 10325 20180 39921 40094 82100 333 59003;
0178825710999992006081200004-05500-045267FM-12+015399999V0201401N002112200019N0100001N1+02661+01901101191ADDGA1001+999999999GF100991001001999999001001KA1240M+03371MA1999999099451MD1999999+0051REMSYN082AAXX  12004 82571 32997 01404 10266 20190 39945 40119 333 10337 29057 55108 58005;
0166825710999992006081212004-05500-045267FM-12+015399999V0201401N003112200019N0100001N1+02511+01551101421ADDGA1001+999999999GF100991001001999999001001KA1240N+01851MA1999999099671MD1999999+0061REMSYN070AAXX  12124 82571 32997 01406 10251 20155 39967 40142 333 20185 58006;
0137825710999992006081218004-05500-045267FM-12+015399999V0201401N003112200019N0100001N1+03221+01731101071ADDGF105991031021004501001011MA1999999099331MD1999999+0121REMSYN070AAXX  12184 82571 32497 51406 10322 20173 39933 40107 83201 333 58012;
0178825710999992006081300004-05500-045267FM-12+015399999V0209999C000012200019N0100001N1+02671+01971101261ADDGA1001+999999999GF100991001001999999001001KA1240M+03331MA1999999099511MD1999999+0061REMSYN082AAXX  13004 82571 32997 00000 10267 20197 39951 40126 333 10333 29056 55098 58006;
0166825710999992006081312004-05500-045267FM-12+015399999V0200901N002612200019N0100001N1+02511+01891101431ADDGA1001+999999999GF100991001001999999001001KA1240N+01801MA1999999099681MD1999999+0011REMSYN070AAXX  13124 82571 32497 00905 10251 20189 39968 40143 333 20180 58001;
0137825710999992006081318004-05500-045267FM-12+015399999V0201401N003112200019N0100001N1+03271+01781101011ADDGF102991021011004501001001MA1999999099271MD1999999-0061REMSYN070AAXX  13184 82571 32497 21406 10327 20178 39927 40101 82100 333 59006;
0178825710999992006081400004-05500-045267FM-12+015399999V0209999C000012200019N0100001N1+02711+01901101181ADDGA1001+999999999GF100991001001999999001001KA1240M+03361MA1999999099441MD1999999-0071REMSYN082AAXX  14004 82571 32997 00000 10271 20190 39944 40118 333 10336 29058 55109 59007;
0166825710999992006081412004-05500-045267FM-12+015399999V0200501N002112200019N0100001N1+02581+01901101431ADDGA1001+999999999GF100991001001999999001001KA1240N+01881MA1999999099681MD1999999+0001REMSYN070AAXX  14124 82571 32997 00504 10258 20190 39968 40143 333 20188 58000;
0137825710999992006081418004-05500-045267FM-12+015399999V0201401N003112200019N0100001N1+03291+01761100961ADDGF102991021011004501001001MA1999999099221MD1999999-0051REMSYN070AAXX  14184 82571 32497 21406 10329 20176 39922 40096 82100 333 59005;
0178825710999992006081500004-05500-045267FM-12+015399999V0201801N000512200019N0100001N1+02781+01961101151ADDGA1001+999999999GF100991001001999999001001KA1240M+03451MA1999999099411MD1999999-0031REMSYN082AAXX  15004 82571 32997 01801 10278 20196 39941 40115 333 10345 29057 55108 59003;
0166825710999992006081512004-05500-045267FM-12+015399999V0200901N002112200019N0100001N1+02471+01981101431ADDGA1001+999999999GF100991001001999999001001KA1240N+01661MA1999999099681MD1999999+0001REMSYN070AAXX  15124 82571 32997 00904 10247 20198 39968 40143 333 20166 58000;
0137825710999992006081518004-05500-045267FM-12+015399999V0201401N003612200019N0100001N1+03311+01701100991ADDGF101991011011004501001001MA1999999099251MD1999999+0031REMSYN070AAXX  15184 82571 32497 11407 10331 20170 39925 40099 81100 333 58003;
0178825710999992006081600004-05500-045267FM-12+015399999V0209999C000012200019N0100001N1+02791+02131101141ADDGA1001+999999999GF100991001001999999001001KA1240M+03451MA1999999099401MD1999999-0011REMSYN082AAXX  16004 82571 32997 00000 10279 20213 39940 40114 333 10345 29062 55103 59001;
0156825710999992006081612004-05500-045267FM-12+015399999V0201401N002112200019N0100001N1+02591+02061101351ADDGF101991011001017501041001KA1240N+01971MA1999999099611MD1999999-0071REMSYN076AAXX  16124 82571 32797 11404 10259 20206 39961 40135 81040 333 20197 59007;
0137825710999992006081618004-05500-045267FM-12+015399999V0200901N002112200019N0100001N1+03221+01911101051ADDGF103991031021004501001001MA1999999099311MD1999999+0091REMSYN070AAXX  16184 82571 32497 30904 10322 20191 39931 40105 83200 333 58009;
0178825710999992006081700004-05500-045267FM-12+015399999V0209999C000012200019N0100001N1+02771+02211101191ADDGA1001+999999999GF100991001001999999001001KA1240M+03421MA1999999099451MD1999999+0051REMSYN082AAXX  17004 82571 32997 00000 10277 20221 39945 40119 333 10342 29065 55099 58005;
0166825710999992006081712004-05500-045267FM-12+015399999V0201401N003112200019N0100001N1+02691+01881101251ADDGA1001+999999999GF100991001001999999001001KA1240N+02061MA1999999099521MD1999999-0091REMSYN070AAXX  17124 82571 32997 01406 10269 20188 39952 40125 333 20206 59009;
0137825710999992006081718004-05500-045267FM-12+015399999V0201401N003612200019N0100001N1+03351+01971100921ADDGF103991031021004501001001MA1999999099191MD1999999-0121REMSYN070AAXX  17184 82571 32497 31407 10335 20197 39919 40092 83200 333 59012;
0178825710999992006081800004-05500-045267FM-12+015399999V0200901N001012200019N0100001N1+02731+01991101011ADDGA1001+999999999GF100991001001999999001001KA1240M+03501MA1999999099281MD1999999-0171REMSYN082AAXX  18004 82571 32997 00902 10273 20199 39928 40101 333 10350 29056 55110 59017;
0156825710999992006081812004-05500-045267FM-12+015399999V0201401N003112200019N0100001N1+02631+02181101421ADDGF102991011011004501031001KA1240N+02131MA1999999099681MD1999999+0161REMSYN076AAXX  18124 82571 32497 21406 10263 20218 39968 40142 81130 333 20213 58016;
0137825710999992006081818004-05500-045267FM-12+015399999V0201801N002612200019N0100001N1+03341+01981100991ADDGF101991011011004501001001MA1999999099261MD1999999+0071REMSYN070AAXX  18184 82571 32497 11805 10334 20198 39926 40099 81100 333 58007;
0178825710999992006081900004-05500-045267FM-12+015399999V0209999C000012200019N0100001N1+02791+02061100941ADDGA1001+999999999GF100991001001999999001001KA1240M+03471MA1999999099211MD1999999-0071REMSYN082AAXX  19004 82571 32997 00000 10279 20206 39921 40094 333 10347 29062 55110 59007;
0156825710999992006081912004-05500-045267FM-12+015399999V0202301N000510042019N0100001N1+02331+02111101441ADDGF106991061051004501001001KA1240N+01931MA1999999099691MD1999999+0011REMSYN076AAXX  19124 82571 32497 62301 10233 20211 39969 40144 86500 333 20193 58001;
0137825710999992006081918004-05500-045267FM-12+015399999V0200901N001512200019N0100001N1+03371+02061100951ADDGF103991031021004501001001MA1999999099221MD1999999-0041REMSYN070AAXX  19184 82571 32497 30903 10337 20206 39922 40095 83200 333 59004;
0178825710999992006082000004-05500-045267FM-12+015399999V0200501N001012200019N0100001N1+02751+02141101161ADDGA1001+999999999GF100991001001999999001001KA1240M+03471MA1999999099411MD1999999+0201REMSYN082AAXX  20004 82571 32997 00502 10275 20214 39941 40116 333 10347 29068 55080 58020;
0156825710999992006082012004-05500-045267FM-12+015399999V0200901N002110042019N0100001N1+02551+02271101551ADDGF106991061051004501001001KA1240N+02201MA1999999099801MD1999999+0111REMSYN076AAXX  20124 82571 32497 60904 10255 20227 39980 40155 86500 333 20220 58011;
0137825710999992006082018004-05500-045267FM-12+015399999V0203201N001012200019N0100001N1+03311+02141100981ADDGF103991031021004501001001MA1999999099251MD1999999+0031REMSYN070AAXX  20184 82571 32497 33202 10331 20214 39925 40098 83200 333 58003;
0178825710999992006082100004-05500-045267FM-12+015399999V0202301N000512200019N0100001N1+02851+02281101171ADDGA1001+999999999GF100991001001999999001001KA1240M+03421MA1999999099431MD1999999+0021REMSYN082AAXX  21004 82571 32997 02301 10285 20228 39943 40117 333 10342 29069 55080 58002;
0156825710999992006082112004-05500-045267FM-12+015399999V0203201N001010042019N0100001N1+02421+02331101591ADDGF108991081051004501999999KA1240N+02191MA1999999099841MD1999999+0041REMSYN076AAXX  21124 82571 32497 83202 10242 20233 39984 40159 885// 333 20219 58004;
0137825710999992006082118004-05500-045267FM-12+015399999V0200501N001011050019N0100001N1+03341+02121100991ADDGF105991021011004501011011MA1999999099271MD1999999+0021REMSYN070AAXX  21184 82571 32497 50502 10334 20212 39927 40099 82111 333 58002;
0178825710999992006082200004-05500-045267FM-12+015399999V0209999C000012200019N0100001N1+02911+02391101161ADDGA1001+999999999GF100991001001999999001001KA1240M+03501MA1999999099421MD1999999-0011REMSYN082AAXX  22004 82571 32997 00000 10291 20239 39942 40116 333 10350 29072 55080 59001;
0156825710999992006082212004-05500-045267FM-12+015399999V0200501N002610042019N0100001N1+02541+02271101501ADDGF107991071051004501001001KA1240N+02341MA1999999099761MD1999999-0081REMSYN076AAXX  22124 82571 32497 70505 10254 20227 39976 40150 87500 333 20234 59008;
0137825710999992006082218004-05500-045267FM-12+015399999V0202301N000510450019N0100001N1+03281+02201101051ADDGF105991031021004501011001MA1999999099321MD1999999+0051REMSYN070AAXX  22184 82571 32497 52301 10328 20220 39932 40105 83210 333 58005;
0206825710999992006082300004-05500-045267FM-12+015399999V0209999C000012200019N0100001N1+02531+02171101271ADDAY191061AY211061GA1001+999999999GF100991001001999999001001KA1240M+03441MA1999999099521MD1999999+0101MW1021REMSYN088AAXX  23004 82571 31997 00000 10253 20217 39952 40127 70291 333 10344 29074 55057 58010;
0156825710999992006082312004-05500-045267FM-12+015399999V0200901N002610042019N0100001N1+02491+02431101591ADDGF108991081051004501999999KA1240N+02271MA1999999099831MD1999999+0071REMSYN076AAXX  23124 82571 32497 80905 10249 20243 39983 40159 885// 333 20227 58007;
0137825710999992006082318004-05500-045267FM-12+015399999V0201401N001512200019N0100001N1+03281+02071101091ADDGF104991041021004501001001MA1999999099361MD1999999+0041REMSYN070AAXX  23184 82571 32497 41403 10328 20207 39936 40109 84200 333 58004;
0178825710999992006082400004-05500-045267FM-12+015399999V0202301N000512200019N0100001N1+02781+02161101151ADDGA1001+999999999GF100991001001999999001001KA1240M+03401MA1999999099411MD1999999-0111REMSYN082AAXX  24004 82571 32997 02301 10278 20216 39941 40115 333 10340 29071 55074 59011;
0156825710999992006082412004-05500-045267FM-12+015399999V0200901N002112200019N0100001N1+02631+02271101551ADDGF103991021021004501001011KA1240N+02101MA1999999099811MD1999999-0021REMSYN076AAXX  24124 82571 32497 30904 10263 20227 39981 40155 82201 333 20210 59002;
0137825710999992006082418004-05500-045267FM-12+015399999V0201401N003612200019N0100001N1+03331+01831101021ADDGF103991031021004501001001MA1999999099291MD1999999-0071REMSYN070AAXX  24184 82571 32497 31407 10333 20183 39929 40102 83200 333 59007;
0178825710999992006082500004-05500-045267FM-12+015399999V0200901N000512200019N0100001N1+02771+02041101161ADDGA1001+999999999GF100991001001999999001001KA1240M+03461MA1999999099421MD1999999+0011REMSYN082AAXX  25004 82571 32997 00901 10277 20204 39942 40116 333 10346 29062 55097 58001;
0166825710999992006082512004-05500-045267FM-12+015399999V0201401N003612200019N0100001N1+02691+01721101421ADDGA1001+999999999GF100991001001999999001001KA1240N+02041MA1999999099681MD1999999-0131REMSYN070AAXX  25124 82571 32997 01407 10269 20172 39968 40142 333 20204 59013;
0137825710999992006082518004-05500-045267FM-12+015399999V0201401N003612200019N0100001N1+03271+01701100921ADDGF102991021011004501001001MA1999999099191MD1999999-0101REMSYN070AAXX  25184 82571 32497 21407 10327 20170 39919 40092 82100 333 59010;
0178825710999992006082600004-05500-045267FM-12+015399999V0201801N000512200019N0100001N1+02711+01881101151ADDGA1001+999999999GF100991001001999999001001KA1240M+03431MA1999999099411MD1999999-0011REMSYN082AAXX  26004 82571 32997 01801 10271 20188 39941 40115 333 10343 29054 55104 59001;
0166825710999992006082612004-05500-045267FM-12+015399999V0200901N003612200019N0100001N1+02651+01851101311ADDGA1001+999999999GF100991001001999999001001KA1240N+01901MA1999999099571MD1999999-0111REMSYN070AAXX  26124 82571 32997 00907 10265 20185 39957 40131 333 20190 59011;
0137825710999992006082618004-05500-045267FM-12+015399999V0200501N002612200019N0100001N1+03311+01781100891ADDGF102991021011004501001001MA1999999099151MD1999999-0041REMSYN070AAXX  26184 82571 32497 20505 10331 20178 39915 40089 82100 333 59004;
0168825710999992006082700004-05500-045267FM-12+015399999V0201801N001512200019N0100001N1+02861+02141101101ADDGF102991021001017501031001KA1240M+03461MA1999999099371MD1999999-0041REMSYN088AAXX  27004 82571 32797 21803 10286 20214 39937 40110 82030 333 10346 29058 55108 59004;
0156825710999992006082712004-05500-045267FM-12+015399999V0201801N001512200019N0100001N1+02631+02031101291ADDGF101991011011004501001001KA1240N+02091MA1999999099551MD1999999-0021REMSYN076AAXX  27124 82571 32497 11803 10263 20203 39955 40129 81100 333 20209 59002;
0137825710999992006082718004-05500-045267FM-12+015399999V0201801N003612200019N0100001N1+03421+01701100881ADDGF103991011011004501001011MA1999999099151MD1999999+0001REMSYN070AAXX  27184 82571 32497 31807 10342 20170 39915 40088 81101 333 58000;
0156825710999992006082812004-05500-045267FM-12+015399999V0200501N002110042019N0100001N1+02501+02171101411ADDGF108991081051004501999999KA1240N+01971MA1999999099661MD1999999-0111REMSYN076AAXX  28124 82571 32497 80504 10250 20217 39966 40141 885// 333 20197 59011;
0137825710999992006082818004-05500-045267FM-12+015399999V0201401N002612200019N0100001N1+03491+01631100891ADDGF103991031021004501001001MA1999999099161MD1999999+0011REMSYN070AAXX  28184 82571 32497 31405 10349 20163 39916 40089 83200 333 58001;
0178825710999992006082900004-05500-045267FM-12+015399999V0201801N001012200019N0100001N1+02831+01881101091ADDGA1001+999999999GF100991001001999999001001KA1240M+03611MA1999999099351MD1999999+0051REMSYN082AAXX  29004 82571 32997 01802 10283 20188 39935 40109 333 10361 29057 55085 58005;
0156825710999992006082912004-05500-045267FM-12+015399999V0201401N002112200019N0100001N1+02421+02131101481ADDGF103991031021004501001001KA1240N+01891MA1999999099731MD1999999+0071REMSYN076AAXX  29124 82571 32497 31404 10242 20213 39973 40148 83200 333 20189 58007;
0137825710999992006082918004-05500-045267FM-12+015399999V0201401N002112200019N0100001N1+03451+01551100911ADDGF102991011011004501001011MA1999999099181MD1999999+0021REMSYN070AAXX  29184 82571 32497 21404 10345 20155 39918 40091 81101 333 58002;
0178825710999992006083000004-05500-045267FM-12+015399999V0200501N001512200019N0100001N1+02791+01921101101ADDGA1001+999999999GF100991001001999999001001KA1240M+03571MA1999999099361MD1999999+0011REMSYN082AAXX  30004 82571 32997 00503 10279 20192 39936 40110 333 10357 29058 55091 58001;
0156825710999992006083012004-05500-045267FM-12+015399999V0200501N001510042019N0100001N1+02621+01981101421ADDGF107991071051004501001001KA1240N+02361MA1999999099681MD1999999+0021REMSYN076AAXX  30124 82571 32497 70503 10262 20198 39968 40142 87500 333 20236 58002;
0137825710999992006083018004-05500-045267FM-12+015399999V0201401N002612200019N0100001N1+03341+01951100921ADDGF103991031021004501001001MA1999999099191MD1999999+0011REMSYN070AAXX  30184 82571 32497 31405 10334 20195 39919 40092 83200 333 58001;
0168825710999992006083100004-05500-045267FM-12+015399999V0209999C000012200019N0100001N1+02891+02301101191ADDGF102991021001017501031001KA1240M+03501MA1999999099461MD1999999+0101REMSYN088AAXX  31004 82571 32797 22300 10289 20230 39946 40119 82030 333 10350 29065 55067 58010;
0201825710999992006083112004-05500-045267FM-12+015399999V0200901N002110150019N0100001N1+02471+02111101561ADDAA124007191AY161061AY221061GF106991051001017501051011KA1240N+02241MA1999999099821MD1999999+0141MW1011REMSYN088AAXX  31124 82571 21797 60904 10247 20211 39982 40156 70162 85051 333 20224 58014 60074;
0137825710999992006083118004-05500-045267FM-12+015399999V0203601N002112200019N0100001N1+03161+02051101071ADDGF104991041021004501001001MA1999999099341MD1999999+0151REMSYN070AAXX  31184 82571 32497 43604 10316 20205 39934 40107 84200 333 58015;
0168825710999992006090100004-05500-045267FM-12+015399999V0203601N001012200019N0100001N1+02691+02241101241ADDGF101991011001017501031001KA1240M+03271MA1999999099491MD1999999+0031REMSYN088AAXX  01004 82571 32797 13602 10269 20224 39949 40124 81030 333 10327 29071 55072 58003;
0156825710999992006090112004-05500-045267FM-12+015399999V0201401N001012200019N0100001N1+02701+02221101371ADDGF104991041051004501001001KA1240N+02201MA1999999099631MD1999999-0191REMSYN076AAXX  01124 82571 32497 41402 10270 20222 39963 40137 84500 333 20220 59019;
0137825710999992006090118004-05500-045267FM-12+015399999V0201801N003112200019N0100001N1+03461+01731100791ADDGF103991031011004501001001MA1999999099071MD1999999-0271REMSYN070AAXX  01184 82571 32497 31806 10346 20173 39907 40079 83100 333 59027;
0178825710999992006090200004-05500-045267FM-12+015399999V0209999C000012200019N0100001N1+02891+02121100971ADDGA1001+999999999GF100991001001999999001001KA1240M+03561MA1999999099241MD1999999-0251REMSYN082AAXX  02004 82571 32997 00000 10289 20212 39924 40097 333 10356 29059 55105 59025;
0156825710999992006090212004-05500-045267FM-12+015399999V0200901N002612200019N0100001N1+02751+02251101201ADDGF102991021021004501001001KA1240N+02341MA1999999099471MD1999999-0161REMSYN076AAXX  02124 82571 32497 20905 10275 20225 39947 40120 82200 333 20234 59016;
0156825710999992006090218004-05500-045267FM-12+015399999V0200501N001512200019N0100001N1+03351+02001100691ADDGF102991999001004501021021MA1999999098971MD1999999-0101REMSYN070AAXX  02184 82571 32497 20503 10335 20200 39897 40069 80022 333 59010;EQDQ01+000002SCOTLC
0178825710999992006090300004-05500-045267FM-12+015399999V0201401N001012200019N0100001N1+02871+02081100911ADDGA1001+999999999GF100991001001999999001001KA1240M+03481MA1999999099181MD1999999-0061REMSYN082AAXX  03004 82571 32997 01402 10287 20208 39918 40091 333 10348 29061 55090 59006;
0156825710999992006090312004-05500-045267FM-12+015399999V0200501N002110042019N0100001N1+02611+02181101121ADDGF106991061051004501001001KA1240N+02221MA1999999099391MD1999999-0081REMSYN076AAXX  03124 82571 32497 60504 10261 20218 39939 40112 86500 333 20222 59008;
0137825710999992006090318004-05500-045267FM-12+015399999V0201801N002112200019N0100001N1+03411+02021100711ADDGF102991021021004501001001MA1999999099001MD1999999+0031REMSYN070AAXX  03184 82571 32497 21804 10341 20202 39900 40071 82200 333 58003;
0178825710999992006090400004-05500-045267FM-12+015399999V0209999C000012200019N0100001N1+02881+02231100901ADDGA1001+999999999GF100991001001999999001001KA1240M+03521MA1999999099171MD1999999-0011REMSYN082AAXX  04004 82571 32997 00000 10288 20223 39917 40090 333 10352 29064 55085 59001;
0156825710999992006090412004-05500-045267FM-12+015399999V0200501N002110042019N0100001N1+02711+02301101291ADDGF106991061021004501001001KA1240N+02391MA1999999099561MD1999999+0171REMSYN076AAXX  04124 82571 32497 60504 10271 20230 39956 40129 86200 333 20239 58017;
0137825710999992006090418004-05500-045267FM-12+015399999V0200501N002612200019N0100001N1+03431+02211100841ADDGF103991021011004501011001MA1999999099121MD1999999+0121REMSYN070AAXX  04184 82571 32497 30505 10343 20221 39912 40084 82110 333 58012;
0168825710999992006090500004-05500-045267FM-12+015399999V0200901N001012200019N0100001N1+02891+02301101121ADDGF102991021001017501041001KA1240M+03551MA1999999099391MD1999999+0221REMSYN088AAXX  05004 82571 32797 20902 10289 20230 39939 40112 82040 333 10355 29067 55089 58022;
0156825710999992006090512004-05500-045267FM-12+015399999V0200501N002110042019N0100001N1+02601+02251101511ADDGF108991081051004501999999KA1240N+02491MA1999999099771MD1999999+0211REMSYN076AAXX  05124 82571 32497 80504 10260 20225 39977 40151 885// 333 20249 58021;
0137825710999992006090518004-05500-045267FM-12+015399999V0202301N001010450019N0100001N1+03401+02181100971ADDGF106991041021004501011001MA1999999099251MD1999999+0131REMSYN070AAXX  05184 82571 32497 62302 10340 20218 39925 40097 84210 333 58013;
0213825710999992006090600004-05500-045267FM-12+015399999V0202701N002610450019N0100001N1+02521+02171101201ADDAA106006191AY161061AY221061GF106991031021004501031001KA1240M+03521MA1999999099451MD1999999+0061MW1131REMSYN100AAXX  06004 82571 21497 62705 10252 20217 39945 40120 71362 83230 333 10352 29073 55054 58006 60061;
0173825710999992006090612004-05500-045267FM-12+015399999V0200501N003612200019N0100001N1+02691+02151101561ADDAA124006191GF104991021021004501031011KA1240N+02291MA1999999099811MD1999999+0041REMSYN082AAXX  06124 82571 22497 40507 10269 20215 39981 40156 82231 333 20229 58004 60064;
0137825710999992006090618004-05500-045267FM-12+015399999V0202301N001511050019N0100001N1+03261+02151101061ADDGF105991021021004501031011MA1999999099331MD1999999+0081REMSYN070AAXX  06184 82571 32497 52303 10326 20215 39933 40106 82231 333 58008;
0213825710999992006090700004-05500-045267FM-12+015399999V0203201N000510450019N0100001N1+02501+02291101281ADDAA106001091AY161061AY221061GF106991011021004501051001KA1240M+03421MA1999999099531MD1999999+0081MW1251REMSYN100AAXX  07004 82571 21497 63201 10250 20229 39953 40128 72562 81250 333 10342 29075 55086 58008 60011;
0173825710999992006090712004-05500-045267FM-12+015399999V0201401N003112200019N0100001N1+02601+02271101541ADDAA124010991GF104991041021004501001001KA1240N+02261MA1999999099791MD1999999-0021REMSYN082AAXX  07124 82571 22497 41406 10260 20227 39979 40154 84200 333 20226 59002 60114;
0137825710999992006090718004-05500-045267FM-12+015399999V0201401N002612200019N0100001N1+03311+01781101071ADDGF103991031011004501001001MA1999999099341MD1999999+0011REMSYN070AAXX  07184 82571 32497 31405 10331 20178 39934 40107 83100 333 58001;
0168825710999992006090800004-05500-045267FM-12+015399999V0203201N000512200019N0100001N1+02561+02191101181ADDGF102991021001017501031001KA1240M+03451MA1999999099441MD1999999-0091REMSYN088AAXX  08004 82571 32797 23201 10256 20219 39944 40118 82030 333 10345 29070 55100 59009;
0156825710999992006090812004-05500-045267FM-12+015399999V0200501N002612200019N0100001N1+02641+02161101521ADDGF101991011011004501001001KA1240N+02041MA1999999099771MD1999999-0021REMSYN076AAXX  08124 82571 32497 10505 10264 20216 39977 40152 81100 333 20204 59002;
0137825710999992006090818004-05500-045267FM-12+015399999V0201401N004112200019N0100001N1+03401+01681101031ADDGF101991011011004501001001MA1999999099301MD1999999-0041REMSYN070AAXX  08184 82571 32497 11408 10340 20168 39930 40103 81100 333 59004;
0168825710999992006090900004-05500-045267FM-12+015399999V0203601N001012200019N0100001N1+02771+01791101191ADDGF102991021001017501031001KA1240M+03531MA1999999099451MD1999999+0011REMSYN088AAXX  09004 82571 32797 23602 10277 20179 39945 40119 82030 333 10353 29055 55098 58001;
0156825710999992006090912004-05500-045267FM-12+015399999V0201401N004112200019N0100001N1+02651+01851101541ADDGF102991021021004501001001KA1240N+02271MA1999999099801MD1999999-0031REMSYN076AAXX  09124 82571 32497 21408 10265 20185 39980 40154 82200 333 20227 59003;
0137825710999992006090918004-05500-045267FM-12+015399999V0201401N002612200019N0100001N1+03301+01681101051ADDGF104991041021004501001001MA1999999099321MD1999999+0021REMSYN070AAXX  09184 82571 32497 41405 10330 20168 39932 40105 84200 333 58002;
0168825710999992006091000004-05500-045267FM-12+015399999V0201601N002612200019N0100001N1+02781+01721101191ADDGF102991021001017501031001KA1240M+03451MA1999999099451MD1999999+0001REMSYN088AAXX  10004 82571 32797 21605 10278 20172 39945 40119 82030 333 10345 29051 55099 58000;
0166825710999992006091012004-05500-045267FM-12+015399999V0201401N002112200019N0100001N1+02691+01801101541ADDGA1001+999999999GF100991001001999999001001KA1240N+02001MA1999999099801MD1999999+0001REMSYN070AAXX  10124 82571 32997 01404 10269 20180 39980 40154 333 20200 58000;
0137825710999992006091018004-05500-045267FM-12+015399999V0200501N003112200019N0100001N1+03441+01671101091ADDGF103991031021004501001001MA1999999099361MD1999999+0041REMSYN070AAXX  10184 82571 32497 30506 10344 20167 39936 40109 83200 333 58004;
0178825710999992006091100004-05500-045267FM-12+015399999V0201801N001512200019N0100001N1+02861+02031101211ADDGA1001+999999999GF100991001001999999001001KA1240M+03551MA1999999099481MD1999999+0031REMSYN082AAXX  11004 82571 32997 01803 10286 20203 39948 40121 333 10355 29054 55099 58003;
0166825710999992006091112004-05500-045267FM-12+015399999V0201401N003112200019N0100001N1+02691+01751101381ADDGA1001+999999999GF100991001001999999001001KA1240N+02091MA1999999099651MD1999999-0151REMSYN070AAXX  11124 82571 32997 01406 10269 20175 39965 40138 333 20209 59015;
0137825710999992006091118004-05500-045267FM-12+015399999V0200901N002612200019N0100001N1+03551+01781100951ADDGF102991021011004501001001MA1999999099231MD1999999-0131REMSYN070AAXX  11184 82571 32497 20905 10355 20178 39923 40095 82100 333 59013;
0178825710999992006091200004-05500-045267FM-12+015399999V0201401N001512200019N0100001N1+02971+01831101151ADDGA1001+999999999GF100991001001999999001001KA1240M+03651MA1999999099421MD1999999-0061REMSYN082AAXX  12004 82571 32997 01403 10297 20183 39942 40115 333 10365 29048 55112 59006;
0156825710999992006091212004-05500-045267FM-12+015399999V0201401N002112200019N0100001N1+02781+02061101401ADDGF102991021011004501001001KA1240N+02371MA1999999099671MD1999999+0021REMSYN076AAXX  12124 82571 32497 21404 10278 20206 39967 40140 82100 333 20237 58002;
0137825710999992006091218004-05500-045267FM-12+015399999V0200901N002612200019N0100001N1+03351+01811100951ADDGF103991031021004501001001MA1999999099221MD1999999-0011REMSYN070AAXX  12184 82571 32497 30905 10335 20181 39922 40095 83200 333 59001;
0178825710999992006091300004-05500-045267FM-12+015399999V0201401N001512200019N0100001N1+02871+01911101101ADDGA1001+999999999GF100991001001999999001001KA1240M+03541MA1999999099371MD1999999-0051REMSYN082AAXX  13004 82571 32997 01403 10287 20191 39937 40110 333 10354 29054 55099 59005;
0156825710999992006091312004-05500-045267FM-12+015399999V0201401N002612200019N0100001N1+02771+02131101441ADDGF103991031021004501001001KA1240N+02191MA1999999099711MD1999999+0041REMSYN076AAXX  13124 82571 32497 31405 10277 20213 39971 40144 83200 333 20219 58004;
0137825710999992006091318004-05500-045267FM-12+015399999V0200901N002612200019N0100001N1+03391+01721100941ADDGF103991031021004501001001MA1999999099211MD1999999-0011REMSYN070AAXX  13184 82571 32497 30905 10339 20172 39921 40094 83200 333 59001;
0178825710999992006091400004-05500-045267FM-12+015399999V0209999C000012200019N0100001N1+02931+01971101061ADDGA1001+999999999GF100991001001999999001001KA1240M+03521MA1999999099341MD1999999-0031REMSYN082AAXX  14004 82571 32997 00000 10293 20197 39934 40106 333 10352 29054 55108 59003;
0156825710999992006091412004-05500-045267FM-12+015399999V0200501N000512200019N0100001N1+02641+02161101391ADDGF102991011001017501031011KA1240N+02141MA1999999099661MD1999999-0051REMSYN076AAXX  14124 82571 32797 20501 10264 20216 39966 40139 81031 333 20214 59005;
0137825710999992006091418004-05500-045267FM-12+015399999V0201801N001512200019N0100001N1+03521+02161100991ADDGF102991011011004501031001MA1999999099261MD1999999+0051REMSYN070AAXX  14184 82571 32497 21803 10352 20216 39926 40099 81130 333 58005;
0178825710999992006091500004-05500-045267FM-12+015399999V0209999C000012200019N0100001N1+02941+02001101021ADDGA1001+999999999GF100991001001999999001001KA1240M+03671MA1999999099291MD1999999-0051REMSYN082AAXX  15004 82571 32997 00000 10294 20200 39929 40102 333 10367 29056 55108 59005;
0156825710999992006091512004-05500-045267FM-12+015399999V0200501N001510042019N0100001N1+02791+02271101431ADDGF105991051021004501001001KA1240N+02091MA1999999099701MD1999999+0041REMSYN076AAXX  15124 82571 32497 50503 10279 20227 39970 40143 85200 333 20209 58004;
0137825710999992006091518004-05500-045267FM-12+015399999V0200501N002612200019N0100001N1+03331+01981100971ADDGF102991021021004501001001MA1999999099241MD1999999-0021REMSYN070AAXX  15184 82571 32497 20505 10333 20198 39924 40097 82200 333 59002;
0178825710999992006091600004-05500-045267FM-12+015399999V0202301N000512200019N0100001N1+02911+02041101131ADDGA1001+999999999GF100991001001999999001001KA1240M+03471MA1999999099401MD1999999+0111REMSYN082AAXX  16004 82571 32997 02301 10291 20204 39940 40113 333 10347 29059 55100 58011;
0156825710999992006091612004-05500-045267FM-12+015399999V0200501N001512200019N0100001N1+02741+02261101271ADDGF102991011011004501001011KA1240N+02121MA1999999099541MD1999999-0161REMSYN076AAXX  16124 82571 32497 20503 10274 20226 39954 40127 81101 333 20212 59016;
0137825710999992006091618004-05500-045267FM-12+015399999V0200501N002612200019N0100001N1+03521+01791100801ADDGF102991021021004501001001MA1999999099081MD1999999-0161REMSYN070AAXX  16184 82571 32497 20505 10352 20179 39908 40080 82200 333 59016;
0178825710999992006091700004-05500-045267FM-12+015399999V0209999C000012200019N0100001N1+02981+02041100981ADDGA1001+999999999GF100991001001999999001001KA1240M+03621MA1999999099261MD1999999-0141REMSYN082AAXX  17004 82571 32997 00000 10298 20204 39926 40098 333 10362 29056 55087 59014;
0156825710999992006091712004-05500-045267FM-12+015399999V0201401N003610042019N0100001N1+02671+02181101361ADDGF106991061051004501001001KA1240N+02401MA1999999099631MD1999999+0091REMSYN076AAXX  17124 82571 32497 61407 10267 20218 39963 40136 86500 333 20240 58009;
0137825710999992006091718004-05500-045267FM-12+015399999V0201401N002612200019N0100001N1+03371+01911100881ADDGF103991031021004501001001MA1999999099161MD1999999+0081REMSYN070AAXX  17184 82571 32497 31405 10337 20191 39916 40088 83200 333 58008;
0178825710999992006091800004-05500-045267FM-12+015399999V0209999C000012200019N0100001N1+02951+02181101091ADDGA1001+999999999GF100991001001999999001001KA1240M+03511MA1999999099361MD1999999+0101REMSYN082AAXX  18004 82571 32997 00000 10295 20218 39936 40109 333 10351 29060 55068 58010;
0137825710999992006091818004-05500-045267FM-12+015399999V0202701N001012200019N0100001N1+03631+02101100821ADDGF103991031021004501001001MA1999999099111MD1999999-0051REMSYN070AAXX  18184 82571 32497 32702 10363 20210 39911 40082 83200 333 59005;
0232825710999992006091900004-05500-045267FM-12+015399999V0203601N001012200019N0100001N1+03051+02111101041ADDAA106000091AY161061AY211061GF102991021021004501001001KA1240M+03761MA1999999099321MD1999999-0041MW1011REMSYN100AAXX  19004 82571 21497 23602 10305 20211 39932 40104 70161 82200 333 10376 29058 55095 59004 69911;EQDQ01  00002PRCP06
0192825710999992006091912004-05500-045267FM-12+015399999V0200501N003110042019N0100001N1+02671+02181101431ADDAA124000091GF108991081051004501999999KA1240N+02551MA1999999099701MD1999999-0011REMSYN082AAXX  19124 82571 22497 80506 10267 20218 39970 40143 885// 333 20255 59001 69914;EQDQ01  00002PRCP24
0137825710999992006091918004-05500-045267FM-12+015399999V0201401N002112200019N0100001N1+03281+02201100971ADDGF103991031011004501001001MA1999999099251MD1999999+0141REMSYN070AAXX  19184 82571 32497 31404 10328 20220 39925 40097 83100 333 58014;
0178825710999992006092000004-05500-045267FM-12+015399999V0203201N000512200019N0100001N1+02921+02271101151ADDGA1001+999999999GF100991001001999999001001KA1240M+03401MA1999999099421MD1999999+0101REMSYN082AAXX  20004 82571 32997 03201 10292 20227 39942 40115 333 10340 29066 55037 58010;
0156825710999992006092012004-05500-045267FM-12+015399999V0200501N003110042019N0100001N1+02631+02271101431ADDGF107991051021004501031001KA1240N+02371MA1999999099701MD1999999+0001REMSYN076AAXX  20124 82571 32497 70506 10263 20227 39970 40143 85230 333 20237 58000;
0137825710999992006092018004-05500-045267FM-12+015399999V0203201N000512200019N0100001N1+03341+02221100901ADDGF103991011021004501031011MA1999999099181MD1999999-0071REMSYN070AAXX  20184 82571 32497 33201 10334 20222 39918 40090 81231 333 59007;
0223825710999992006092100004-05500-045267FM-12+015399999V0209999C000012200019N0100001N1+02451+02321101121ADDAA106114091AY191061AY261061GA1001+999999999GF100991001001999999001001KA1240M+03481MA1999999099371MD1999999-0051MW1021REMSYN094AAXX  21004 82571 21997 00000 10245 20232 39937 40112 70296 333 10348 29011 55029 59005 61141;
0192825710999992006092112004-05500-045267FM-12+015399999V0200501N003110042019N0100001N1+02591+02251101541ADDAA124000091GF107991071051004501001001KA1240N+02381MA1999999099781MD1999999+0081REMSYN082AAXX  21124 82571 22497 70506 10259 20225 39978 40154 87500 333 20238 58008 69924;EQDQ01  00002PRCP24
0137825710999992006092118004-05500-045267FM-12+015399999V0201401N002610450019N0100001N1+02721+02321101221ADDGF107991041021004501041001MA1999999099451MD1999999+0271REMSYN070AAXX  21184 82571 32497 71405 10272 20232 39945 40122 84240 333 58027;
0178825710999992006092200004-05500-045267FM-12+015399999V0202301N001512200019N0100001N1+02441+02151101271ADDGA1001+999999999GF100991001001999999001001KA1240M+02921MA1999999099521MD1999999+0151REMSYN082AAXX  22004 82571 32997 02303 10244 20215 39952 40127 333 10292 29082 55000 58015;
0156825710999992006092212004-05500-045267FM-12+015399999V0202301N000512200019N0100001N1+02471+02171101541ADDGF102991011021004501041001KA1240N+02081MA1999999099781MD1999999+0001REMSYN076AAXX  22124 82571 32497 22301 10247 20217 39978 40154 81240 333 20208 58000;
0137825710999992006092218004-05500-045267FM-12+015399999V0202301N001512200019N0100001N1+03331+02051101011ADDGF103991031021004501001001MA1999999099271MD1999999-0181REMSYN070AAXX  22184 82571 32497 32303 10333 20205 39927 40101 83200 333 59018;
0168825710999992006092300004-05500-045267FM-12+015399999V0201401N000512200019N0100001N1+02951+02071101051ADDGF102991021001004501041001KA1240M+03581MA1999999099321MD1999999-0201REMSYN088AAXX  23004 82571 32497 21401 10295 20207 39932 40105 82040 333 10358 29062 55097 59020;
0156825710999992006092312004-05500-045267FM-12+015399999V0200501N002612200019N0100001N1+02671+02201101371ADDGF104991041021004501001001KA1240N+02351MA1999999099641MD1999999-0141REMSYN076AAXX  23124 82571 32497 40505 10267 20220 39964 40137 84200 333 20235 59014;
0137825710999992006092318004-05500-045267FM-12+015399999V0201801N001512200019N0100001N1+03491+02021100851ADDGF103991031021004501001001MA1999999099141MD1999999-0131REMSYN070AAXX  23184 82571 32497 31803 10349 20202 39914 40085 83200 333 59013;
0178825710999992006092400004-05500-045267FM-12+015399999V0203201N001012200019N0100001N1+02911+01921101031ADDGA1001+999999999GF100991001001999999001001KA1240M+03601MA1999999099301MD1999999-0021REMSYN082AAXX  24004 82571 32997 03202 10291 20192 39930 40103 333 10360 29057 55083 59002;
0156825710999992006092412004-05500-045267FM-12+015399999V0200501N002610042019N0100001N1+02661+02111101341ADDGF106991061051004501001001KA1240N+02381MA1999999099611MD1999999-0031REMSYN076AAXX  24124 82571 32497 60505 10266 20211 39961 40134 86500 333 20238 59003;
0137825710999992006092418004-05500-045267FM-12+015399999V0201801N001512200019N0100001N1+03511+02031100831ADDGF102991021021004501001001MA1999999099121MD1999999-0021REMSYN070AAXX  24184 82571 32497 21803 10351 20203 39912 40083 82200 333 59002;
0168825710999992006092500004-05500-045267FM-12+015399999V0202701N002610042019N0100001N1+02951+02151101141ADDGF106991061021004501001001KA1240M+03621MA1999999099411MD1999999-0111REMSYN088AAXX  25004 82571 32497 62705 10295 20215 39941 40114 86200 333 10362 29060 55081 59011;
0156825710999992006092512004-05500-045267FM-12+015399999V0200901N002110042019N0100001N1+02641+02181101551ADDGF106991061021004501001001KA1240N+02341MA1999999099811MD1999999+0201REMSYN076AAXX  25124 82571 32497 60904 10264 20218 39981 40155 86200 333 20234 58020;
0156825710999992006092518004-05500-045267FM-12+015399999V0201401N002112200019N0100001N1+03551+01991100991ADDGF104991999021004501001001MA1999999099281MD1999999+0161REMSYN070AAXX  25184 82571 32497 41404 10355 20199 39928 40099 83200 333 58016;EQDQ01+000032SCOTLC
0178825710999992006092600004-05500-045267FM-12+015399999V0201401N000512200019N0100001N1+03031+02181101111ADDGA1001+999999999GF100991001001999999001001KA1240M+03651MA1999999099381MD1999999-0031REMSYN082AAXX  26004 82571 32997 01401 10303 20218 39938 40111 333 10365 29059 55084 59003;
0156825710999992006092612004-05500-045267FM-12+015399999V0201401N001512200019N0100001N1+02721+02151101451ADDGF102991021011004501001001KA1240N+02301MA1999999099721MD1999999-0091REMSYN076AAXX  26124 82571 32497 21403 10272 20215 39972 40145 82100 333 20230 59009;
0137825710999992006092618004-05500-045267FM-12+015399999V0203201N002112200019N0100001N1+03471+02071100961ADDGF103991031021004501001001MA1999999099251MD1999999-0031REMSYN070AAXX  26184 82571 32497 33204 10347 20207 39925 40096 83200 333 59003;
0178825710999992006092700004-05500-045267FM-12+015399999V0209999C000012200019N0100001N1+02971+02251101131ADDGA1001+999999999GF100991001001999999001001KA1240M+03601MA1999999099401MD1999999+0021REMSYN082AAXX  27004 82571 32997 00000 10297 20225 39940 40113 333 10360 29061 55098 58002;
0156825710999992006092712004-05500-045267FM-12+015399999V0200501N002610042019N0100001N1+02591+02211101581ADDGF106991061051004501001001KA1240N+02471MA1999999099841MD1999999+0121REMSYN076AAXX  27124 82571 32497 60505 10259 20221 39984 40158 86500 333 20247 58012;
0178825710999992006092800004-05500-045267FM-12+015399999V0201401N001012200019N0100001N1+02871+02001101081ADDGA1001+999999999GF100991001001999999001001KA1240M+03501MA1999999099351MD1999999-0051REMSYN082AAXX  28004 82571 32997 01402 10287 20200 39935 40108 333 10350 29061 55061 59005;
0201825710999992006092812004-05500-045267FM-12+015399999V0200501N001012200019N0100001N1+02691+02391101461ADDAA124002091AY161061AY221061GF104991031021004501031001KA1240N+02411MA1999999099731MD1999999-0111MW1011REMSYN088AAXX  28124 82571 21497 40502 10269 20239 39973 40146 70162 83230 333 20241 59011 60024;
0137825710999992006092818004-05500-045267FM-12+015399999V0201401N002612200019N0100001N1+03361+01771100921ADDGF103991031021004501001001MA1999999099201MD1999999-0111REMSYN070AAXX  28184 82571 32497 31405 10336 20177 39920 40092 83200 333 59011;
0168825710999992006092900004-05500-045267FM-12+015399999V0201401N003112200019N0100001N1+02811+01891101051ADDGF102991021001017501031001KA1240M+03521MA1999999099321MD1999999-0031REMSYN088AAXX  29004 82571 32797 21406 10281 20189 39932 40105 82030 333 10352 29059 55087 59003;
0156825710999992006092912004-05500-045267FM-12+015399999V0201801N001012200019N0100001N1+02731+02241101471ADDGF102991021021004501001001KA1240N+02161MA1999999099731MD1999999+0001REMSYN076AAXX  29124 82571 32497 21802 10273 20224 39973 40147 82200 333 20216 58000;
0137825710999992006092918004-05500-045267FM-12+015399999V0200901N002612200019N0100001N1+02321+01771100951ADDGF102991021021004501001001MA1999999099221MD1999999+0021REMSYN070AAXX  29184 82571 32497 20905 10232 20177 39922 40095 82200 333 58002;
0178825710999992006093000004-05500-045267FM-12+015399999V0202301N000512200019N0100001N1+02971+01981101041ADDGA1001+999999999GF100991001001999999001001KA1240M+03631MA1999999099321MD1999999+0001REMSYN082AAXX  30004 82571 32997 02301 10297 20198 39932 40104 333 10363 29055 55099 58000;
0156825710999992006093012004-05500-045267FM-12+015399999V0200501N002612200019N0100001N1+02791+02181101411ADDGF102991021021004501001001KA1240N+02421MA1999999099681MD1999999-0051REMSYN076AAXX  30124 82571 32497 20505 10279 20218 39968 40141 82200 333 20242 59005;
0137825710999992006093018004-05500-045267FM-12+015399999V0201401N002110042019N0100001N1+03441+01881100931ADDGF105991051021004501001001MA1999999099211MD1999999-0011REMSYN070AAXX  30184 82571 32497 51404 10344 20188 39921 40093 85200 333 59001;
0178825710999992006100100004-05500-045267FM-12+015399999V0209999C000012200019N0100001N1+02981+02151101101ADDGA1001+999999999GF100991001001999999001001KA1240M+03621MA1999999099381MD1999999+0061REMSYN082AAXX  01004 82571 32997 00000 10298 20215 39938 40110 333 10362 29058 55091 58006;
0156825710999992006100112004-05500-045267FM-12+015399999V0200501N002612200019N0100001N1+02731+02121101361ADDGF102991021021004501001001KA1240N+02361MA1999999099631MD1999999-0051REMSYN076AAXX  01124 82571 32497 20505 10273 20212 39963 40136 82200 333 20236 59005;
0156825710999992006100212004-05500-045267FM-12+015399999V0200901N001512200019N0100001N1+02731+02191101311ADDGF103991031011004501001001KA1240N+02361MA1999999099581MD1999999-0051REMSYN076AAXX  02124 82571 32497 30903 10273 20219 39958 40131 83100 333 20236 59005;
0156825710999992006100218004-05500-045267FM-12+015399999V0201801N001019999999N0100001N1+03581+01971100691ADDGF107991999021004501001001MA1999999098971MD1999999-0121REMSYN070AAXX  02184 82571 32497 71802 10358 20197 39897 40069 84200 333 59012;EQDQ01+000042SCOTLC
0178825710999992006100300004-05500-045267FM-12+015399999V0209999C000012200019N0100001N1+03011+02181100881ADDGA1001+999999999GF100991001001999999001001KA1240M+03671MA1999999099161MD1999999-0121REMSYN082AAXX  03004 82571 32997 00000 10301 20218 39916 40088 333 10367 29058 55099 59012;
0156825710999992006100312004-05500-045267FM-12+015399999V0203601N003111050019N0100001N1+02771+02131101171ADDGF105991021011004501051011KA1240N+02411MA1999999099451MD1999999-0131REMSYN076AAXX  03124 82571 32497 53606 10277 20213 39945 40117 82151 333 20241 59013;
0137825710999992006100318004-05500-045267FM-12+015399999V0200501N002110450019N0100001N1+03491+02021100611ADDGF106991041021004501011011MA1999999098901MD1999999-0091REMSYN070AAXX  03184 82571 32497 60504 10349 20202 39890 40061 84211 333 59009;
0213825710999992006100400004-05500-045267FM-12+015399999V0200501N000512200019N0100001N1+02711+02391100871ADDAA106002091AY191061AY261061GF104991011011004501031001KA1240M+03601MA1999999099141MD1999999-0021MW1021REMSYN100AAXX  04004 82571 21497 40501 10271 20239 39914 40087 70296 81130 333 10360 29068 55075 59002 60021;
0173825710999992006100412004-05500-045267FM-12+015399999V0201401N003110042019N0100001N1+02731+02211101181ADDAA124002091GF106991061021004501001001KA1240N+02351MA1999999099441MD1999999-0011REMSYN082AAXX  04124 82571 22497 61406 10273 20221 39944 40118 86200 333 20235 59001 60024;
0137825710999992006100418004-05500-045267FM-12+015399999V0201401N001512200019N0100001N1+03441+02071100631ADDGF104991041021004501001001MA1999999098921MD1999999+0021REMSYN070AAXX  04184 82571 32497 41403 10344 20207 39892 40063 84200 333 58002;
0168825710999992006100500004-05500-045267FM-12+015399999V0200501N000512200019N0100001N1+02991+02221100831ADDGF101991011001017501031001KA1240M+03571MA1999999099111MD1999999-0031REMSYN088AAXX  05004 82571 32797 10501 10299 20222 39911 40083 81030 333 10357 29061 55098 59003;
0156825710999992006100512004-05500-045267FM-12+015399999V0200501N002110042019N0100001N1+02631+02181101321ADDGF108991081051004501999999KA1240N+02531MA1999999099591MD1999999+0151REMSYN076AAXX  05124 82571 32497 80504 10263 20218 39959 40132 885// 333 20253 58015;
0137825710999992006100518004-05500-045267FM-12+015399999V0201401N001512200019N0100001N1+03351+02111100851ADDGF103991031021004501001001MA1999999099131MD1999999+0211REMSYN070AAXX  05184 82571 32497 31403 10335 20211 39913 40085 83200 333 58021;
0178825710999992006100600004-05500-045267FM-12+015399999V0201401N000512200019N0100001N1+02921+02171100911ADDGA1001+999999999GF100991001001999999001001KA1240M+03541MA1999999099181MD1999999+0071REMSYN082AAXX  06004 82571 32997 01401 10292 20217 39918 40091 333 10354 29063 55066 58007;
0156825710999992006100612004-05500-045267FM-12+015399999V0201801N001010042019N0100001N1+02711+02221101241ADDGF106991061021004501001001KA1240N+02521MA1999999099511MD1999999-0081REMSYN076AAXX  06124 82571 32497 61802 10271 20222 39951 40124 86200 333 20252 59008;
0137825710999992006100618004-05500-045267FM-12+015399999V0200501N001512200019N0100001N1+03621+01961100691ADDGF103991021021004501001011MA1999999098981MD1999999-0151REMSYN070AAXX  06184 82571 32497 30503 10362 20196 39898 40069 82201 333 59015;
0178825710999992006100700004-05500-045267FM-12+015399999V0201801N000512200019N0100001N1+03051+01991100971ADDGA1001+999999999GF100991001001999999001001KA1240M+03721MA1999999099251MD1999999+0071REMSYN082AAXX  07004 82571 32997 01801 10305 20199 39925 40097 333 10372 29054 55079 58007;
0156825710999992006100712004-05500-045267FM-12+015399999V0200901N001510042019N0100001N1+02771+02251101251ADDGF106991061021004501001001KA1240N+02481MA1999999099531MD1999999+0021REMSYN076AAXX  07124 82571 32497 60903 10277 20225 39953 40125 86200 333 20248 58002;
0137825710999992006100718004-05500-045267FM-12+015399999V0200501N001512200019N0100001N1+03561+02221100711ADDGF104991041021004501001001MA1999999099001MD1999999+0021REMSYN070AAXX  07184 82571 32497 40503 10356 20222 39900 40071 84200 333 58002;
0178825710999992006100800004-05500-045267FM-12+015399999V0201401N001512200019N0100001N1+03051+01991100831ADDGA1001+999999999GF100991001001999999001001KA1240M+03701MA1999999099111MD1999999-0141REMSYN082AAXX  08004 82571 32997 01403 10305 20199 39911 40083 333 10370 29056 55085 59014;
0156825710999992006100812004-05500-045267FM-12+015399999V0200901N002112200019N0100001N1+02891+02201101201ADDGF102991001001999999001011KA1240N+02511MA1999999099481MD1999999-0051REMSYN076AAXX  08124 82571 32997 20904 10289 20220 39948 40120 80001 333 20251 59005;
0137825710999992006100818004-05500-045267FM-12+015399999V0200901N001012200019N0100001N1+03721+02091100591ADDGF104991031021004501001011MA1999999098891MD1999999-0111REMSYN070AAXX  08184 82571 32497 40902 10372 20209 39889 40059 83201 333 59011;
0168825710999992006100900004-05500-045267FM-12+015399999V0200501N001012200019N0100001N1+03191+02061100811ADDGF102991021021004501001001KA1240M+03871MA1999999099101MD1999999-0011REMSYN088AAXX  09004 82571 32497 20502 10319 20206 39910 40081 82200 333 10387 29052 55098 59001;
0156825710999992006100912004-05500-045267FM-12+015399999V0200501N002612200019N0100001N1+02881+02231101241ADDGF102991021021004501001001KA1240N+02531MA1999999099531MD1999999+0051REMSYN076AAXX  09124 82571 32497 20505 10288 20223 39953 40124 82200 333 20253 58005;
0137825710999992006100918004-05500-045267FM-12+015399999V0202301N001010450019N0100001N1+03631+02141100751ADDGF105991031021004501011001MA1999999099051MD1999999+0161REMSYN070AAXX  09184 82571 32497 52302 10363 20214 39905 40075 83210 333 58016;
0168825710999992006101000004-05500-045267FM-12+015399999V0209999C000012200019N0100001N1+03091+02261100901ADDGF101991011001017501031001KA1240M+03701MA1999999099191MD1999999+0091REMSYN088AAXX  10004 82571 32797 10000 10309 20226 39919 40090 81030 333 10370 29058 55094 58009;
0156825710999992006101012004-05500-045267FM-12+015399999V0200501N002110042019N0100001N1+02771+02231101341ADDGF106991061021004501001001KA1240N+02551MA1999999099621MD1999999+0091REMSYN076AAXX  10124 82571 32497 60504 10277 20223 39962 40134 86200 333 20255 58009;
0137825710999992006101018004-05500-045267FM-12+015399999V0201401N001010450019N0100001N1+03591+02071100841ADDGF106991041021004501011001MA1999999099131MD1999999+0081REMSYN070AAXX  10184 82571 32497 61402 10359 20207 39913 40084 84210 333 58008;
0178825710999992006101100004-05500-045267FM-12+015399999V0202701N001512200019N0100001N1+02951+02151101081ADDGA1001+999999999GF100991001001999999001001KA1240M+03701MA1999999099351MD1999999+0161REMSYN082AAXX  11004 82571 32997 02703 10295 20215 39935 40108 333 10370 29059 55071 58016;
0156825710999992006101112004-05500-045267FM-12+015399999V0200501N001510450019N0100001N1+02721+02191101401ADDGF106991041021004501031011KA1240N+02501MA1999999099671MD1999999+0051REMSYN076AAXX  11124 82571 32497 60503 10272 20219 39967 40140 84231 333 20250 58005;
0137825710999992006101118004-05500-045267FM-12+015399999V0203201N001512200019N0100001N1+03521+02031100821ADDGF103991021021004501031001MA1999999099111MD1999999-0021REMSYN070AAXX  11184 82571 32497 33203 10352 20203 39911 40082 82230 333 59002;
0168825710999992006101200004-05500-045267FM-12+015399999V0200901N001012200019N0100001N1+03111+02081100961ADDGF101991011001017501031001KA1240M+03651MA1999999099241MD1999999-0111REMSYN088AAXX  12004 82571 32797 10902 10311 20208 39924 40096 81030 333 10365 29056 55081 59011;
0137825710999992006101218004-05500-045267FM-12+015399999V0201401N002612200019N0100001N1+03591+02071100631ADDGF103991031021004501001001MA1999999098921MD1999999-0191REMSYN070AAXX  12184 82571 32497 31405 10359 20207 39892 40063 83200 333 59019;
0178825710999992006101300004-05500-045267FM-12+015399999V0203201N000512200019N0100001N1+03041+02031100731ADDGA1001+999999999GF100991001001999999001001KA1240M+03741MA1999999099021MD1999999-0221REMSYN082AAXX  13004 82571 32997 03201 10304 20203 39902 40073 333 10374 29055 55102 59022;
0156825710999992006101312004-05500-045267FM-12+015399999V0201401N002610042019N0100001N1+02761+02191101151ADDGF105991051021004501001001KA1240N+02481MA1999999099431MD1999999-0101REMSYN076AAXX  13124 82571 32497 51405 10276 20219 39943 40115 85200 333 20248 59010;
0137825710999992006101318004-05500-045267FM-12+015399999V0200501N002612200019N0100001N1+03621+02041100571ADDGF103991031021004501001001MA1999999098861MD1999999-0061REMSYN070AAXX  13184 82571 32497 30505 10362 20204 39886 40057 83200 333 59006;
0178825710999992006101400004-05500-045267FM-12+015399999V0200501N001012200019N0100001N1+03081+02071100621ADDGA1001+999999999GF100991001001999999001001KA1240M+03761MA1999999098911MD1999999-0111REMSYN082AAXX  14004 82571 32997 00502 10308 20207 39891 40062 333 10376 29055 55102 59011;
0156825710999992006101412004-05500-045267FM-12+015399999V0200501N004612200019N0100001N1+02791+02181101081ADDGF105991041021004501001011KA1240N+02471MA1999999099361MD1999999-0071REMSYN076AAXX  14124 82571 32497 50509 10279 20218 39936 40108 84201 333 20247 59007;
0137825710999992006101418004-05500-045267FM-12+015399999V0200501N002110042019N0100001N1+03571+02051100591ADDGF106991051021004501001011MA1999999098881MD1999999+0021REMSYN070AAXX  14184 82571 32497 60504 10357 20205 39888 40059 85201 333 58002;
0178825710999992006101500004-05500-045267FM-12+015399999V0202701N002112200019N0100001N1+03111+02111100781ADDGA1001+999999999GF100991001001999999001001KA1240M+03721MA1999999099071MD1999999+0161REMSYN082AAXX  15004 82571 32997 02704 10311 20211 39907 40078 333 10372 29055 55087 58016;
0156825710999992006101512004-05500-045267FM-12+015399999V0203201N002610042019N0100001N1+02831+02171101121ADDGF106991061051004501001001KA1240N+02611MA1999999099401MD1999999+0041REMSYN076AAXX  15124 82571 32497 63205 10283 20217 39940 40112 86500 333 20261 58004;
0137825710999992006101518004-05500-045267FM-12+015399999V0200901N001510450019N0100001N1+03211+02141100711ADDGF106991041021004501031001MA1999999098991MD1999999+0111REMSYN070AAXX  15184 82571 32497 60903 10321 20214 39899 40071 84230 333 58011;
0196825710999992006101600004-05500-045267FM-12+015399999V0201401N001512200019N0100001N1+02751+02321100951ADDAY121061AY211061GF102991021061004501001001KA1240M+03301MA1999999099221MD1999999+0131MW1131REMSYN094AAXX  16004 82571 31497 21403 10275 20232 39922 40095 71321 82600 333 10330 29068 55033 58013;
0156825710999992006101612004-05500-045267FM-12+015399999V0200501N003110450019N0100001N1+02771+02111101251ADDGF106991021021004501031001KA1240N+02481MA1999999099521MD1999999+0121REMSYN076AAXX  16124 82571 32497 60506 10277 20211 39952 40125 82230 333 20248 58012;
0137825710999992006101618004-05500-045267FM-12+015399999V0201401N003110450019N0100001N1+03051+02191100851ADDGF107991031021004501071001MA1999999099121MD1999999+0131REMSYN070AAXX  16184 82571 32497 71406 10305 20219 39912 40085 83270 333 58013;
0168825710999992006101700004-05500-045267FM-12+015399999V0201801N001012200019N0100001N1+02761+02231100991ADDGF103991031001017501011001KA1240M+03141MA1999999099261MD1999999+0041REMSYN088AAXX  17004 82571 32797 31802 10276 20223 39926 40099 83010 333 10314 29068 55000 58004;
0156825710999992006101712004-05500-045267FM-12+015399999V0201401N003110450019N0100001N1+02761+02161101161ADDGF106991031021004501031011KA1240N+02481MA1999999099431MD1999999-0091REMSYN076AAXX  17124 82571 32497 61406 10276 20216 39943 40116 83231 333 20248 59009;
