0213826780999992006010100004-06767-043017FM-12+012799999V0209999C000010075019N0002001N1+02561+02441101161ADDAA106000591AY161061AY221061GF108991081051008001999999KA1240M+03351MA1999999099581MD1999999-0031MW1031REMSYN100AAXX  01004 82678 21592 80000 10256 20244 39958 40116 70362 885// 333 10335 29081 55032 59003 69941;
0201826780999992006010112004-06767-043017FM-12+012799999V0200501N002610075019N0040001N1+02261+02181101531ADDAA124003091AY161061AY221061GF108991081051008001999999KA1240N+02281MA1999999099931MD1999999+0211MW1511REMSYN088AAXX  01124 82678 21596 80505 10226 20218 39993 40153 75162 885// 333 20228 58021 60034;
0192826780999992006010212004-06767-043017FM-12+012799999V0203201N001019999999N0040001N1+02781+02481101351ADDAA124000591GF108991999021008001001001KA1240N+02181MA1999999099771MD1999999-0161REMSYN082AAXX  02124 82678 22596 83202 10278 20248 39977 40135 84200 333 20218 59016 69944;EQDQ01+000042SCOTLC
0137826780999992006010218004-06767-043017FM-12+012799999V0200501N001512200019N0040001N1+03301+02451101011ADDGF103991031081008001081021MA1999999099451MD1999999+0041REMSYN070AAXX  02184 82678 32596 30503 10330 20245 39945 40101 83882 333 58004;
0168826780999992006010300004-06767-043017FM-12+012799999V0200901N001012200019N0002001N1+02801+02661101081ADDGF104991041041008001001001KA1240M+03371MA1999999099511MD1999999-0081REMSYN088AAXX  03004 82678 32592 40902 10280 20266 39951 40108 84400 333 10337 29082 55077 59008;
0156826780999992006010312004-06767-043017FM-12+012799999V0203601N000510120019N0040001N1+02801+02621101331ADDGF108991051081008001031011KA1240N+02451MA1999999099761MD1999999-0011REMSYN076AAXX  03124 82678 32596 83601 10280 20262 39976 40133 85831 333 20245 59001;
0137826780999992006010318004-06767-043017FM-12+012799999V0203601N001012200019N0040001N1+03401+02721100841ADDGF105991041021008001001011MA1999999099291MD1999999-0161REMSYN070AAXX  03184 82678 32596 53602 10340 20272 39929 40084 84201 333 59016;
0168826780999992006010400004-06767-043017FM-12+012799999V0200901N000512200019N0002001N1+02941+02641100891ADDGF102991011001017501041011KA1240M+03511MA1999999099331MD1999999-0181REMSYN088AAXX  04004 82678 32792 20901 10294 20264 39933 40089 81041 333 10351 29082 55091 59018;
0175826780999992006010412004-06767-043017FM-12+012799999V0200501N001519999999N0040001N1+02781+02421101191ADDGF105991999021008001001001KA1240N+02581MA1999999099631MD1999999-0131REMSYN076AAXX  04124 82678 32596 50503 10278 20242 39963 40119 83200 333 20258 59013;EQDQ01+000032SCOTLC
0137826780999992006010418004-06767-043017FM-12+012799999V0203601N001512200019N0040001N1+03421+02531100661ADDGF104991021011008001001011MA1999999099111MD1999999-0181REMSYN070AAXX  04184 82678 32596 43603 10342 20253 39911 40066 82101 333 59018;
0168826780999992006010500004-06767-043017FM-12+012799999V0202301N001512200019N0002001N1+02941+02581100861ADDGF102991021001017501031011KA1240M+02991MA1999999099301MD1999999-0031REMSYN088AAXX  05004 82678 32792 22303 10294 20258 39930 40086 82031 333 10299 29076 55087 59003;
0156826780999992006010512004-06767-043017FM-12+012799999V0200901N001010075019N0040001N1+02761+02441101201ADDGF108991061051008001001011KA1240N+02441MA1999999099641MD1999999+0011REMSYN076AAXX  05124 82678 32596 80902 10276 20244 39964 40120 86501 333 20244 58001;
0137826780999992006010518004-06767-043017FM-12+012799999V0203201N001510450019N0040001N1+03361+02451100671ADDGF108991041021008001011011MA1999999099121MD1999999+0011REMSYN070AAXX  05184 82678 32596 83203 10336 20245 39912 40067 84211 333 58001;
0201826780999992006010612004-06767-043017FM-12+012799999V0203601N001010075019N0040001N1+02521+02401101331ADDAA124002091AY161061AY211061GF108991081051008001001001KA1240N+02341MA1999999099751MD1999999+0111MW1021REMSYN088AAXX  06124 82678 21596 83602 10252 20240 39975 40133 70261 88500 333 20234 58011 60024;
0137826780999992006010618004-06767-043017FM-12+012799999V0203201N001510075019N0040001N1+03061+02501100991ADDGF108991081051008001999999MA1999999099421MD1999999+0301REMSYN070AAXX  06184 82678 32596 83203 10306 20250 39942 40099 885// 333 58030;
0168826780999992006010700004-06767-043017FM-12+012799999V0209999C000010075019N0002001N1+02661+02551101071ADDGF108991051021008001001011KA1240M+03191MA1999999099491MD1999999+0161REMSYN088AAXX  07004 82678 32592 80000 10266 20255 39949 40107 85201 333 10319 29089 55026 58016;
0156826780999992006010712004-06767-043017FM-12+012799999V0203601N001010075019N0040001N1+02661+02541101321ADDGF108991081051008001999999KA1240N+02321MA1999999099801MD1999999+0051REMSYN076AAXX  07124 82678 32596 83602 10266 20254 39980 40132 885// 333 20232 58005;
0182826780999992006010718004-06767-043017FM-12+012799999V0203201N001012200019N0040001N1+03141+02601100901ADDAA106010991AY161061AY221061GF104991021081008001031011MA1999999099341MD1999999-0081MW1621REMSYN082AAXX  07184 82678 21596 43202 10314 20260 39934 40090 76262 82831 333 59008 60111;
0178826780999992006010800004-06767-043017FM-12+012799999V0209999C000012200019N0002001N1+02781+02671101001ADDGA1001+999999999GF100991001001999999001001KA1240M+03251MA1999999099431MD1999999+0061REMSYN082AAXX  08004 82678 32792 00000 10278 20267 39943 40100 333 10325 29088 55055 58006;
0192826780999992006010812004-06767-043017FM-12+012799999V0209999C000010075019N0040001N1+02561+02511101401ADDAA124010991GF108991999021008001001001KA1240N+02261MA1999999099821MD1999999+0021REMSYN082AAXX  08124 82678 22596 80000 10256 20251 39982 40140 85200 333 20226 58002 60114;EQDQ01+000052SCOTLC
0182826780999992006010818004-06767-043017FM-12+012799999V0209999C000010450019N0040001N1+02921+02621100991ADDAA106006191AY161061AY221061GF108991041081008001031011MA1999999099421MD1999999+0001MW1021REMSYN082AAXX  08184 82678 21596 80000 10292 20262 39942 40099 70262 84831 333 58000 60061;
0168826780999992006010900004-06767-043017FM-12+012799999V0200501N000510075019N0040001N1+02681+02581101141ADDGF108991999021008001001001KA1240M+03041MA1999999099561MD1999999+0131REMSYN088AAXX  09004 82678 32596 80501 10268 20258 39956 40114 85200 333 10304 29091 55013 58013;
0201826780999992006010912004-06767-043017FM-12+012799999V0202701N001510075019N0040001N1+02561+02441101441ADDAA124007991AY161061AY221061GF108991061051008001021001KA1240N+02301MA1999999099851MD1999999+0031MW1291REMSYN088AAXX  09124 82678 21596 82703 10256 20244 39985 40144 72962 86520 333 20230 58003 60084;
0182826780999992006010918004-06767-043017FM-12+012799999V0203201N001510075019N0040001N1+02761+02481101051ADDAA106000591AY161061AY291061GF108991051051008001031001MA1999999099471MD1999999+0051MW1021REMSYN082AAXX  09184 82678 21596 83203 10276 20248 39947 40105 70269 85530 333 58005 69961;
0168826780999992006011000004-06767-043017FM-12+012799999V0202701N000510075019N0002001N1+02601+02511101181ADDGF108991081051008001999999KA1240M+02881MA1999999099601MD1999999+0041REMSYN088AAXX  10004 82678 32592 82701 10260 20251 39960 40118 885// 333 10288 29092 55007 58004;
0173826780999992006011012004-06767-043017FM-12+012799999V0202301N001510075019N0040001N1+02631+02391101571ADDAA124000591GF108991061051008001011001KA1240N+02301MA1999999099981MD1999999+0131REMSYN082AAXX  10124 82678 22596 82303 10263 20239 39998 40157 86510 333 20230 58013 69964;
0168826780999992006011100004-06767-043017FM-12+012799999V0200501N001010150019N0002001N1+02641+02541101351ADDGF108991051001017501021021KA1240M+03151MA1999999099771MD1999999+0171REMSYN088AAXX  11004 82678 32792 80502 10264 20254 39977 40135 85022 333 10315 29087 55051 58017;
0175826780999992006011112004-06767-043017FM-12+012799999V0200901N005119999999N0040001N1+02861+02061101411ADDGF105991999021008001001001KA1240N+02341MA1999999099841MD1999999-0141REMSYN076AAXX  11124 82678 32596 50910 10286 20206 39984 40141 83200 333 20234 59014;EQDQ01+000032SCOTLC
0137826780999992006011118004-06767-043017FM-12+012799999V0201401N003112200019N0040001N1+03341+02121101011ADDGF104991021021008001001011MA1999999099451MD1999999-0131REMSYN070AAXX  11184 82678 32596 41406 10334 20212 39945 40101 82201 333 59013;
0156826780999992006011218004-06767-043017FM-12+012799999V0200901N003112200019N0040001N1+03441+01921101061ADDGF102991999021017501001001MA1999999099501MD1999999+0051REMSYN070AAXX  12184 82678 32796 20906 10344 20192 39950 40106 83200 333 58005;EQDQ01+000032SCOTLC
0178826780999992006011300004-06767-043017FM-12+012799999V0209999C000012200019N0002001N1+02841+02581101141ADDGA1001+999999999GF100991001001999999001001KA1240M+03521MA1999999099581MD1999999+0051REMSYN082AAXX  13004 82678 32992 00000 10284 20258 39958 40114 333 10352 29066 55112 58005;
0166826780999992006011312004-06767-043017FM-12+012799999V0200901N004112200019N0040001N1+02961+02021101401ADDGA1001+999999999GF100991001001999999001001KA1240N+02321MA1999999099841MD1999999-0061REMSYN070AAXX  13124 82678 32996 00908 10296 20202 39984 40140 333 20232 59006;
0137826780999992006011318004-06767-043017FM-12+012799999V0200901N001512200019N0040001N1+03521+02351100901ADDGF104991021021008001001011MA1999999099531MD1999999+0031REMSYN070AAXX  13184 82678 32596 40903 10352 20235 39953 40090 82201 333 58003;
0168826780999992006011400004-06767-043017FM-12+012799999V0200901N000512200019N0002001N1+02941+02701101131ADDGF103991031021017501001001KA1240M+03621MA1999999099601MD1999999+0021REMSYN088AAXX  14004 82678 32792 30901 10294 20270 39960 40113 83200 333 10362 29070 55106 58002;
0156826780999992006011412004-06767-043017FM-12+012799999V0200901N004619999999N0040001N1+02971+01811101301ADDGF106991001001999999001011KA1240N+02401MA1999999099741MD1999999-0101REMSYN076AAXX  14124 82678 32996 60909 10297 20181 39974 40130 80001 333 20240 59010;
0137826780999992006011418004-06767-043017FM-12+012799999V0201401N002612200019N0040001N1+03641+02251100951ADDGF106991041021008001001011MA1999999099401MD1999999-0131REMSYN070AAXX  14184 82678 32596 61405 10364 20225 39940 40095 84201 333 59013;
0168826780999992006011500004-06767-043017FM-12+012799999V0200901N000510450019N0002001N1+03041+02681101111ADDGF106991021011008001031011KA1240M+03681MA1999999099561MD1999999-0041REMSYN088AAXX  15004 82678 32592 60901 10304 20268 39956 40111 82131 333 10368 29064 55110 59004;
0156826780999992006011512004-06767-043017FM-12+012799999V0200901N002612200019N0040001N1+02941+02081101371ADDGF103991011011008001001021KA1240N+02621MA1999999099811MD1999999+0071REMSYN076AAXX  15124 82678 32596 30905 10294 20208 39981 40137 81102 333 20262 58007;
0137826780999992006011518004-06767-043017FM-12+012799999V0200901N001011050019N0040001N1+03521+02151100951ADDGF105991031011008001001021MA1999999099401MD1999999+0001REMSYN070AAXX  15184 82678 32596 50902 10352 20215 39940 40095 83102 333 58000;
0178826780999992006011600004-06767-043017FM-12+012799999V0209999C000012200019N0002001N1+02981+02701101031ADDGA1001+999999999GF100991001001999999001001KA1240M+03631MA1999999099471MD1999999-0091REMSYN082AAXX  16004 82678 32992 00000 10298 20270 39947 40103 333 10363 29069 55114 59009;
0156826780999992006011612004-06767-043017FM-12+012799999V0200901N002112200019N0040001N1+03001+01921101351ADDGF103991021011008001001011KA1240N+02241MA1999999099791MD1999999-0021REMSYN076AAXX  16124 82678 32596 30904 10300 20192 39979 40135 82101 333 20224 59002;
0178826780999992006011700004-06767-043017FM-12+012799999V0209999C000012200019N0002001N1+02941+02741100991ADDGA1001+999999999GF100991001001999999001001KA1240M+03641MA1999999099441MD1999999-0031REMSYN082AAXX  17004 82678 32592 00000 10294 20274 39944 40099 333 10364 29069 55105 59003;
0175826780999992006011712004-06767-043017FM-12+012799999V0200901N004619999999N0040001N1+03101+01841101321ADDGF108991999021017501001001KA1240N+02321MA1999999099761MD1999999-0031REMSYN076AAXX  17124 82678 32796 80909 10310 20184 39976 40132 83200 333 20232 59003;EQDQ01+000032SCOTLC
0156826780999992006011718004-06767-043017FM-12+012799999V0200901N002119999999N0040001N1+03481+02151100991ADDGF108991999021008001001001MA1999999099441MD1999999+0081REMSYN070AAXX  17184 82678 32596 80904 10348 20215 39944 40099 83200 333 58008;EQDQ01+000032SCOTLC
0178826780999992006011800004-06767-043017FM-12+012799999V0209999C000012200019N0002001N1+02911+02701101061ADDGA1001+999999999GF100991001001999999001001KA1240M+03611MA1999999099511MD1999999+0071REMSYN082AAXX  18004 82678 32992 00000 10291 20270 39951 40106 333 10361 29067 55069 58007;
0156826780999992006011812004-06767-043017FM-12+012799999V0200501N001010120019N0040001N1+02781+02461101421ADDGF108991061081008001001011KA1240N+02471MA1999999099851MD1999999+0091REMSYN076AAXX  18124 82678 32596 80502 10278 20246 39985 40142 86801 333 20247 58009;
0213826780999992006011900004-06767-043017FM-12+012799999V0200901N000510075019N0002001N1+02681+02611101081ADDAA106002091AY161061AY221061GF108991061051008001011999KA1240M+03431MA1999999099511MD1999999+0001MW1021REMSYN100AAXX  19004 82678 21592 80901 10268 20261 39951 40108 70262 8651/ 333 10343 29086 55049 58000 60021;
0173826780999992006011912004-06767-043017FM-12+012799999V0201801N001010075019N0040001N1+02601+02501101291ADDAA124002091GF108991081051008001999999KA1240N+02451MA1999999099711MD1999999-0141REMSYN082AAXX  19124 82678 22596 81802 10260 20250 39971 40129 885// 333 20245 59014 60024;
0137826780999992006011918004-06767-043017FM-12+012799999V0200501N001010075019N0040001N1+03261+02621100851ADDGF108991071051008001031001MA1999999099291MD1999999-0051REMSYN070AAXX  19184 82678 32596 80502 10326 20262 39929 40085 87530 333 59005;
0178826780999992006012000004-06767-043017FM-12+012799999V0209999C000012200019N0002001N1+02681+02611100931ADDGA1001+999999999GF100991001001999999001001KA1240M+03391MA1999999099361MD1999999-0151REMSYN082AAXX  20004 82678 32992 00000 10268 20261 39936 40093 333 10339 29089 55051 59015;
0156826780999992006012012004-06767-043017FM-12+012799999V0200901N002110450019N0040001N1+02821+02151101321ADDGF108991031021008001011001KA1240N+02401MA1999999099751MD1999999+0041REMSYN076AAXX  20124 82678 32596 80904 10282 20215 39975 40132 83210 333 20240 58004;
0137826780999992006012018004-06767-043017FM-12+012799999V0203201N003110450019N0040001N1+03221+02141100841ADDGF108991021041008001021021MA1999999099291MD1999999+0001REMSYN070AAXX  20184 82678 32596 83206 10322 20214 39929 40084 82422 333 58000;
0178826780999992006012100004-06767-043017FM-12+012799999V0203601N000512200019N0002001N1+02721+02521101011ADDGA1001+999999999GF100991001001999999001001KA1240M+03461MA1999999099441MD1999999+0081REMSYN082AAXX  21004 82678 32992 03601 10272 20252 39944 40101 333 10346 29074 55027 58008;
0156826780999992006012112004-06767-043017FM-12+012799999V0202301N001010450019N0040001N1+02701+02501101351ADDGF108991021041008001021011KA1240N+02241MA1999999099771MD1999999+0021REMSYN076AAXX  21124 82678 32596 82302 10270 20250 39977 40135 82421 333 20224 58002;
0137826780999992006012118004-06767-043017FM-12+012799999V0200501N001510450019N0040001N1+03271+02491100971ADDGF108991011041008001021021MA1999999099401MD1999999+0111REMSYN070AAXX  21184 82678 32596 80503 10327 20249 39940 40097 81422 333 58011;
0178826780999992006012200004-06767-043017FM-12+012799999V0209999C000012200019N0002001N1+02761+02621101071ADDGA1001+999999999GF100991001001999999001001KA1240M+03361MA1999999099501MD1999999+0061REMSYN082AAXX  22004 82678 32992 00000 10276 20262 39950 40107 333 10336 29084 55017 58006;
0156826780999992006012212004-06767-043017FM-12+012799999V0200901N003612200019N0040001N1+03041+02061101291ADDGF106991041021008001001011KA1240N+02381MA1999999099731MD1999999-0041REMSYN076AAXX  22124 82678 32596 60907 10304 20206 39973 40129 84201 333 20238 59004;
0156826780999992006012218004-06767-043017FM-12+012799999V0200501N002119999999N0040001N1+03571+02581100881ADDGF105991999021008001001001MA1999999099331MD1999999-0071REMSYN070AAXX  22184 82678 32596 50504 10357 20258 39933 40088 84200 333 59007;EQDQ01+000042SCOTLC
0178826780999992006012300004-06767-043017FM-12+012799999V0209999C000012200019N0002001N1+02971+02681101041ADDGA1001+999999999GF100991001001999999001001KA1240M+03671MA1999999099491MD1999999-0011REMSYN082AAXX  23004 82678 32992 00000 10297 20268 39949 40104 333 10367 29071 55107 59001;
0156826780999992006012312004-06767-043017FM-12+012799999V0200901N001012200019N0040001N1+02941+02561101311ADDGF104991021021008001001011KA1240N+02441MA1999999099751MD1999999+0021REMSYN076AAXX  23124 82678 32596 40902 10294 20256 39975 40131 82201 333 20244 58002;
0137826780999992006012318004-06767-043017FM-12+012799999V0209999C000011050019N0040001N1+03301+02651100901ADDGF105991031021008001001021MA1999999099341MD1999999+0011REMSYN070AAXX  23184 82678 32596 50000 10330 20265 39934 40090 83202 333 58001;
0178826780999992006012400004-06767-043017FM-12+012799999V0209999C000012200019N0002001N1+02941+02681100991ADDGA1001+999999999GF100991001001999999001001KA1240M+03451MA1999999099441MD1999999-0051REMSYN082AAXX  24004 82678 32792 00000 10294 20268 39944 40099 333 10345 29083 55053 59005;
0175826780999992006012412004-06767-043017FM-12+012799999V0209999C000019999999N0040001N1+02821+02601101291ADDGF105991999021008001001001KA1240N+02241MA1999999099731MD1999999-0021REMSYN076AAXX  24124 82678 32596 50000 10282 20260 39973 40129 83200 333 20224 59002;EQDQ01+000032SCOTLC
0137826780999992006012418004-06767-043017FM-12+012799999V0203601N001511050019N0040001N1+03621+02661100781ADDGF105991021021008001001021MA1999999099241MD1999999-0101REMSYN070AAXX  24184 82678 32596 53603 10362 20266 39924 40078 82202 333 59010;
0213826780999992006012500004-06767-043017FM-12+012799999V0209999C000010075019N0002001N1+03001+02781100981ADDAA106001091AY161061AY221061GF108991051051008001021999KA1240M+03761MA1999999099421MD1999999-0021MW1021REMSYN100AAXX  25004 82678 21592 80000 10300 20278 39942 40098 70262 8552/ 333 10376 29080 55072 59002 60011;
0173826780999992006012512004-06767-043017FM-12+012799999V0200501N000519999999N0040001N1+03011+02491101371ADDAA124000891GF106991001001999999001011KA1240N+02421MA1999999099811MD1999999+0081REMSYN082AAXX  25124 82678 22996 60501 10301 20249 39981 40137 80001 333 20242 58008 69984;
0137826780999992006012518004-06767-043017FM-12+012799999V0200501N003110075019N0040001N1+03821+02341100941ADDGF105991051021008001001001MA1999999099401MD1999999+0161REMSYN070AAXX  25184 82678 32596 50506 10382 20234 39940 40094 85200 333 58016;
0168826780999992006012600004-06767-043017FM-12+012799999V0200901N001012200019N0002001N1+03121+02731101131ADDGF101991001001999999001021KA1240M+03911MA1999999099581MD1999999+0161REMSYN088AAXX  26004 82678 32992 10902 10312 20273 39958 40113 80002 333 10391 29071 55102 58016;
0156826780999992006012612004-06767-043017FM-12+012799999V0200501N001019999999N0040001N1+02981+02471101421ADDGF108991001001999999001011KA1240N+02301MA1999999099861MD1999999+0051REMSYN076AAXX  26124 82678 32996 80502 10298 20247 39986 40142 80001 333 20230 58005;
0156826780999992006012618004-06767-043017FM-12+012799999V0201401N003112200019N0040001N1+03821+02721100901ADDGF104991999021008001001001MA1999999099361MD1999999-0011REMSYN070AAXX  26184 82678 32596 41406 10382 20272 39936 40090 83200 333 59001;EQDQ01+000032SCOTLC
0168826780999992006012700004-06767-043017FM-12+012799999V0200901N000512200019N0002001N1+03111+02801101011ADDGF101991011001017501011001KA1240M+03981MA1999999099461MD1999999-0121REMSYN088AAXX  27004 82678 32792 10901 10311 20280 39946 40101 81010 333 10398 29074 55109 59012;
0175826780999992006012712004-06767-043017FM-12+012799999V0200501N001012200019N0040001N1+03021+02571101451ADDGF104991999021008001001001KA1240N+02921MA1999999099891MD1999999+0031REMSYN076AAXX  27124 82678 32596 40502 10302 20257 39989 40145 83200 333 20292 58003;EQDQ01+000032SCOTLC
0137826780999992006012718004-06767-043017FM-12+012799999V0202301N001010075019N0040001N1+03681+02601100941ADDGF108991051021008001001021MA1999999099401MD1999999+0041REMSYN070AAXX  27184 82678 32596 82302 10368 20260 39940 40094 85202 333 58004;
0178826780999992006012800004-06767-043017FM-12+012799999V0209999C000012200019N0002001N1+03161+02881101111ADDGA1001+999999999GF100991001001999999001001KA1240M+03721MA1999999099561MD1999999+0101REMSYN082AAXX  28004 82678 32992 00000 10316 20288 39956 40111 333 10372 29075 55057 58010;
0156826780999992006012812004-06767-043017FM-12+012799999V0202701N001510075019N0040001N1+02961+02471101481ADDGF108991051051008001051021KA1240N+02681MA1999999099921MD1999999+0031REMSYN076AAXX  28124 82678 32596 82703 10296 20247 39992 40148 85552 333 20268 58003;
0137826780999992006012818004-06767-043017FM-12+012799999V0201401N002610075019N0040001N1+03461+02571101041ADDGF108991061021008001001011MA1999999099511MD1999999+0111REMSYN070AAXX  28184 82678 32596 81405 10346 20257 39951 40104 86201 333 58011;
0178826780999992006012900004-06767-043017FM-12+012799999V0202701N001012200019N0002001N1+03001+02701101091ADDGA1001+999999999GF100991001001999999001001KA1240M+03541MA1999999099541MD1999999-0021REMSYN082AAXX  29004 82678 32992 02702 10300 20270 39954 40109 333 10354 29076 55041 59002;
0137826780999992006012918004-06767-043017FM-12+012799999V0200501N002110450019N0040001N1+03321+02621101051ADDGF108991031051008001021011MA1999999099501MD1999999-0011REMSYN070AAXX  29184 82678 32596 80504 10332 20262 39950 40105 83521 333 59001;
0178826780999992006013000004-06767-043017FM-12+012799999V0209999C000012200019N0002001N1+02831+02701101041ADDGA1001+999999999GF100991001001999999001001KA1240M+03361MA1999999099471MD1999999-0071REMSYN082AAXX  30004 82678 32992 00000 10283 20270 39947 40104 333 10336 29085 55048 59007;
0156826780999992006013012004-06767-043017FM-12+012799999V0200901N001010075019N0040001N1+02801+02601101301ADDGF108991999021008001001001KA1240N+02461MA1999999099801MD1999999-0071REMSYN076AAXX  30124 82678 32596 80902 10280 20260 39980 40130 85200 333 20246 59007;
0182826780999992006013018004-06767-043017FM-12+012799999V0201401N000510450019N0040001N1+02711+02351101131ADDAA106006191AY161061AY221061GF108991041051008001021011MA1999999099541MD1999999+0041MW1021REMSYN082AAXX  30184 82678 21596 81401 10271 20235 39954 40113 70262 84521 333 58004 60061;
0178826780999992006013100004-06767-043017FM-12+012799999V0201801N000512200019N0002001N1+02471+02411101071ADDGA1001+999999999GF100991001001999999001001KA1240M+03051MA1999999099491MD1999999+0021REMSYN082AAXX  31004 82678 32992 01801 10247 20241 39949 40107 333 10305 29095 55010 58002;
0201826780999992006013112004-06767-043017FM-12+012799999V0201401N002110075019N0040001N1+02421+02331101471ADDAA124007191AY161061AY211061GF108991081051008001999999KA1240N+02321MA1999999099871MD1999999+0071MW1021REMSYN088AAXX  31124 82678 21596 81404 10242 20233 39987 40147 70261 885// 333 20232 58007 60074;
0182826780999992006013118004-06767-043017FM-12+012799999V0203201N001010450019N0040001N1+02781+02601101031ADDAA106017091AY121061AY261061GF106991031041008001031011MA1999999099451MD1999999-0091MW1021REMSYN082AAXX  31184 82678 21596 63202 10278 20260 39945 40103 70226 83431 333 59009 60171;
0168826780999992006020100004-06767-043017FM-12+012799999V0200501N000512200019N0002001N1+02641+02551101041ADDGF101991001001999999001011KA1240M+03071MA1999999099461MD1999999-0031REMSYN088AAXX  01004 82678 32992 10501 10264 20255 39946 40104 80001 333 10307 29094 55022 59003;
0201826780999992006020112004-06767-043017FM-12+012799999V0209999C000010075019N0040001N1+02561+02511101371ADDAA124017091AY161061AY211061GF108991081051008001999999KA1240N+02241MA1999999099791MD1999999-0081MW1021REMSYN088AAXX  01124 82678 21596 80000 10256 20251 39979 40137 70261 885// 333 20224 59008 60174;
0182826780999992006020118004-06767-043017FM-12+012799999V0202301N001010075019N0040001N1+02311+02251101161ADDAA106042991AY161061AY261061GF108991051051008001021011MA1999999099561MD1999999+0111MW1501REMSYN082AAXX  01184 82678 21596 82302 10231 20225 39956 40116 75066 85521 333 58011 60431;
0185826780999992006020200004-06767-043017FM-12+012799999V0200901N000512200019N0002001N1+02331+02271101171ADDAA106000021GF104991041051008001001001KA1240M+02631MA1999999099581MD1999999-0121REMSYN094AAXX  02004 82678 22592 40901 10233 20227 39958 40117 84500 333 10263 29097 55000 59012 69921;
0173826780999992006020212004-06767-043017FM-12+012799999V0201401N001010075019N0040001N1+02451+02351101431ADDAA124042991GF108991061051008001021999KA1240N+02211MA1999999099831MD1999999+0041REMSYN082AAXX  02124 82678 22596 81402 10245 20235 39983 40143 8652/ 333 20221 58004 60434;
0137826780999992006020218004-06767-043017FM-12+012799999V0202301N001510075019N0040001N1+02721+02581101191ADDGF108991081051008001999999MA1999999099831MD1999999+0041REMSYN070AAXX  02184 82678 32596 82303 10272 20258 39983 40119 885// 333 58004;
0213826780999992006020300004-06767-043017FM-12+012799999V0209999C000012200019N0002001N1+02461+02431101231ADDAA106004191AY161061AY211061GF103991031051008001001001KA1240M+02891MA1999999099641MD1999999+0061MW1011REMSYN100AAXX  03004 82678 21592 30000 10246 20243 39964 40123 70161 83500 333 10289 29096 55008 58006 60041;
0173826780999992006020312004-06767-043017FM-12+012799999V0209999C000010450019N0040001N1+02501+02451101311ADDAA124004191GF108991041051008001021999KA1240N+02401MA1999999099721MD1999999-0111REMSYN082AAXX  03124 82678 22596 80000 10250 20245 39972 40131 8452/ 333 20240 59011 60044;
0137826780999992006020318004-06767-043017FM-12+012799999V0200501N001010450019N0040001N1+03261+02781100851ADDGF108991031051008001031011MA1999999099291MD1999999-0311REMSYN070AAXX  03184 82678 32596 80502 10326 20278 39929 40085 83531 333 59031;
0168826780999992006020400004-06767-043017FM-12+012799999V0200901N001010075019N0002001N1+02761+02481101091ADDGF108991071051008001031999KA1240M+03391MA1999999099511MD1999999-0131REMSYN088AAXX  04004 82678 32592 80902 10276 20248 39951 40109 8753/ 333 10339 29086 55055 59013;
0182826780999992006020418004-06767-043017FM-12+012799999V0202701N001510075019N0040001N1+02781+02481100941ADDAA106002091AY161061AY211061GF108991051051008001031999MA1999999099361MD1999999+0071MW1021REMSYN082AAXX  04184 82678 21596 82703 10278 20248 39936 40094 70261 8553/ 333 58007 60021;
0168826780999992006020500004-06767-043017FM-12+012799999V0209999C000010450019N0040001N1+02641+02501101061ADDGF108991041051008001021999KA1240M+03031MA1999999099481MD1999999-0041REMSYN088AAXX  05004 82678 32596 80000 10264 20250 39948 40106 8452/ 333 10303 29090 55011 59004;
0173826780999992006020512004-06767-043017FM-12+012799999V0209999C000010075019N0040001N1+02621+02551101361ADDAA124002091GF108991051051008001021999KA1240N+02441MA1999999099771MD1999999+0031REMSYN082AAXX  05124 82678 22596 80000 10262 20255 39977 40136 8552/ 333 20244 58003 60024;
0182826780999992006020518004-06767-043017FM-12+012799999V0209999C000019999999N0040001N1+02721+02601101051ADDAA106002091AY161061AY211061GF108991041001008001031011MA1999999099471MD1999999+0111MW1021REMSYN082AAXX  05184 82678 21596 80000 10272 20260 39947 40105 70261 84031 333 58011 60021;
0168826780999992006020600004-06767-043017FM-12+012799999V0209999C000012200019N0002001N1+02581+02491101131ADDGF108991031051008001001011KA1240M+03031MA1999999099551MD1999999+0071REMSYN088AAXX  06004 82678 32592 80000 10258 20249 39955 40113 83501 333 10303 29096 55009 58007;
0173826780999992006020612004-06767-043017FM-12+012799999V0203201N001510075019N0040001N1+02581+02291101361ADDAA124002091GF108991051051008001021999KA1240N+02441MA1999999099781MD1999999+0011REMSYN082AAXX  06124 82678 22596 83203 10258 20229 39978 40136 8552/ 333 20244 58001 60024;
0182826780999992006020618004-06767-043017FM-12+012799999V0201401N000510075019N0040001N1+02341+02261101231ADDAA106009991AY161061AY211061GF108991081051008001999999MA1999999099641MD1999999+0171MW1611REMSYN082AAXX  06184 82678 21596 81401 10234 20226 39964 40123 76161 885// 333 58017 60101;
0213826780999992006020700004-06767-043017FM-12+012799999V0202301N000510075019N0002001N1+02321+02291101341ADDAA106000391AY161061AY221061GF108991081051008001999999KA1240M+02651MA1999999099751MD1999999+0201MW1031REMSYN100AAXX  07004 82678 21592 82301 10232 20229 39975 40134 70362 885// 333 10265 29094 55000 58020 69931;
0201826780999992006020712004-06767-043017FM-12+012799999V0200901N000510075019N0040001N1+02361+02311101541ADDAA124010991AY161061AY221061GF108991061051008001021999KA1240N+02281MA1999999099941MD1999999+0161MW1611REMSYN088AAXX  07124 82678 21596 80901 10236 20231 39994 40154 76162 8652/ 333 20228 58016 60114;
0168826780999992006020800004-06767-043017FM-12+012799999V0203601N001010075019N0002001N1+02601+02351101291ADDGF107991051051008001031011KA1240M+03251MA1999999099701MD1999999-0051REMSYN088AAXX  08004 82678 32592 73602 10260 20235 39970 40129 85531 333 10325 29087 55048 59005;
0173826780999992006020812004-06767-043017FM-12+012799999V0209999C000012200019N0040001N1+02701+02411101441ADDAA124004191GF101991011001017501031001KA1240N+02301MA1999999099861MD1999999-0081REMSYN082AAXX  08124 82678 22796 10000 10270 20241 39986 40144 81030 333 20230 59008 60044;
0137826780999992006020818004-06767-043017FM-12+012799999V0200901N001010075019N0040001N1+03401+02571101111ADDGF105991051021008001001001MA1999999099551MD1999999+0001REMSYN070AAXX  08184 82678 32596 50902 10340 20257 39955 40111 85200 333 58000;
0168826780999992006020900004-06767-043017FM-12+012799999V0209999C000012200019N0002001N1+02801+02521101131ADDGF103991001001999999001011KA1240M+03471MA1999999099561MD1999999-0141REMSYN088AAXX  09004 82678 32992 30000 10280 20252 39956 40113 80001 333 10347 29079 55108 59014;
0156826780999992006020912004-06767-043017FM-12+012799999V0209999C000010450019N0040001N1+02841+02581101551ADDGF108991041021008001031011KA1240N+02341MA1999999099981MD1999999+0121REMSYN076AAXX  09124 82678 32596 80000 10284 20258 39998 40155 84231 333 20234 58012;
0137826780999992006020918004-06767-043017FM-12+012799999V0203601N001012200019N0040001N1+03281+02591101211ADDGF105991031021008001001011MA1999999099651MD1999999+0101REMSYN070AAXX  09184 82678 32596 53602 10328 20259 39965 40121 83201 333 58010;
0187826780999992006021000004-06767-043017FM-12+012799999V0209999C000012200019N0002001N1+02841+02641101241ADDGF103991999001017501031001KA1240M+03361MA1999999099671MD1999999+0111REMSYN088AAXX  10004 82678 32792 30000 10284 20264 39967 40124 81030 333 10336 29083 55062 58011;EQDQ01+000012SCOTLC
0156826780999992006021012004-06767-043017FM-12+012799999V0209999C000010075019N0040001N1+02601+02511101631ADDGF108991081051008001999999KA1240N+02501MA1999999100051MD1999999+0071REMSYN076AAXX  10124 82678 32596 80000 10260 20251 30005 40163 885// 333 20250 58007;
0137826780999992006021018004-06767-043017FM-12+012799999V0200501N001010075019N0040001N1+02821+02701101371ADDGF108991051051008001031011MA1999999099791MD1999999+0141REMSYN070AAXX  10184 82678 32596 80502 10282 20270 39979 40137 85531 333 58014;
0178826780999992006021100004-06767-043017FM-12+012799999V0209999C000012200019N0002001N1+02641+02541101501ADDGA1001+999999999GF100991001001999999001001KA1240M+03071MA1999999099911MD1999999+0241REMSYN082AAXX  11004 82678 32992 00000 10264 20254 39991 40150 333 10307 29094 55028 58024;
0156826780999992006021112004-06767-043017FM-12+012799999V0209999C000010075019N0040001N1+02661+02391101631ADDGF108991071051008001031999KA1240N+02421MA1999999100051MD1999999+0001REMSYN076AAXX  11124 82678 32596 80000 10266 20239 30005 40163 8753/ 333 20242 58000;
0182826780999992006021118004-06767-043017FM-12+012799999V0209999C000010450019N0040001N1+02961+02721101221ADDAA106000591AY161061AY221061GF105991041051008001031001MA1999999099651MD1999999-0141MW1911REMSYN082AAXX  11184 82678 21596 50000 10296 20272 39965 40122 79162 84530 333 59014 69941;
0168826780999992006021200004-06767-043017FM-12+012799999V0209999C000019999999N0002001N1+02801+02711101311ADDGF108991001001999999001021KA1240M+03351MA1999999099741MD1999999-0171REMSYN088AAXX  12004 82678 32992 80000 10280 20271 39974 40131 80002 333 10335 29090 55067 59017;
0201826780999992006021212004-06767-043017FM-12+012799999V0200901N000510075019N0040001N1+02561+02361101601ADDAA124002091AY161061AY221061GF108991051051008001031021KA1240N+02281MA1999999100021MD1999999-0031MW1031REMSYN088AAXX  12124 82678 21596 80901 10256 20236 30002 40160 70362 85532 333 20228 59003 60024;
0137826780999992006021218004-06767-043017FM-12+012799999V0200901N000510450019N0040001N1+03021+02571101211ADDGF107991031051008001031021MA1999999099641MD1999999-0011REMSYN070AAXX  12184 82678 32596 70901 10302 20257 39964 40121 83532 333 59001;
0168826780999992006021300004-06767-043017FM-12+012799999V0201801N001010150019N0002001N1+02661+02461101361ADDGF107991051001017501031021KA1240M+03121MA1999999099811MD1999999+0071REMSYN088AAXX  13004 82678 32792 71802 10266 20246 39981 40136 85032 333 10312 29086 55033 58007;
0201826780999992006021312004-06767-043017FM-12+012799999V0200501N001510450019N0040001N1+02721+02451101581ADDAA124000891AY161061AY221061GF105991041051008001031011KA1240N+02311MA1999999100001MD1999999-0021MW1031REMSYN088AAXX  13124 82678 21596 50503 10272 20245 30000 40158 70362 84531 333 20231 59002 69984;
0182826780999992006021318004-06767-043017FM-12+012799999V0209999C000010075019N0040001N1+02901+02661101211ADDAA106036191AY161061AY221061GF108991051051008001031021MA1999999099631MD1999999-0011MW1021REMSYN082AAXX  13184 82678 21596 80000 10290 20266 39963 40121 70262 85532 333 59001 60361;
0168826780999992006021400004-06767-043017FM-12+012799999V0209999C000019999999N0040001N1+02401+02351101381ADDGF108991051001008001031021KA1240M+03041MA1999999099791MD1999999-0021REMSYN088AAXX  14004 82678 32596 80000 10240 20235 39979 40138 85032 333 10304 29092 55032 59002;
0173826780999992006021412004-06767-043017FM-12+012799999V0200501N001010075019N0040001N1+02461+02341101681ADDAA124036191GF108991081051008001999999KA1240N+02301MA1999999100081MD1999999+0081REMSYN082AAXX  14124 82678 22596 80502 10246 20234 30008 40168 885// 333 20230 58008 60364;
0182826780999992006021418004-06767-043017FM-12+012799999V0201401N001010075019N0040001N1+02541+02451101341ADDAA106023991AY161061AY221061GF108991081051008001999999MA1999999099741MD1999999+0111MW1611REMSYN082AAXX  14184 82678 21596 81402 10254 20245 39974 40134 76162 885// 333 58011 60241;
0168826780999992006021500004-06767-043017FM-12+012799999V0209999C000010075019N0040001N1+02381+02331101521ADDGF108991081051008001999999KA1240M+02651MA1999999099921MD1999999+0131REMSYN088AAXX  15004 82678 32596 80000 10238 20233 39992 40152 885// 333 10265 29096 55000 58013;
0173826780999992006021512004-06767-043017FM-12+012799999V0200901N000512200019N0040001N1+02541+02351101561ADDAA124023991GF104991031011008001001011KA1240N+02141MA1999999099961MD1999999-0121REMSYN082AAXX  15124 82678 22596 40901 10254 20235 39996 40156 83101 333 20214 59012 60244;
0137826780999992006021518004-06767-043017FM-12+012799999V0209999C000012200019N0040001N1+03181+02611101221ADDGF106991041021008001001011MA1999999099651MD1999999-0091REMSYN070AAXX  15184 82678 32596 60000 10318 20261 39965 40122 84201 333 59009;
0168826780999992006021600004-06767-043017FM-12+012799999V0209999C000012200019N0002001N1+02701+02591101231ADDGF104991031051008001031001KA1240M+03291MA1999999099651MD1999999-0271REMSYN088AAXX  16004 82678 32592 40000 10270 20259 39965 40123 83530 333 10329 29087 55102 59027;
0156826780999992006021612004-06767-043017FM-12+012799999V0200901N001010450019N0040001N1+02661+02481101481ADDGF107991041051008001071011KA1240N+02341MA1999999099901MD1999999-0061REMSYN076AAXX  16124 82678 32596 70902 10266 20248 39990 40148 84571 333 20234 59006;
0182826780999992006021618004-06767-043017FM-12+012799999V0201801N000510450019N0040001N1+03001+02701101161ADDAA106000591AY161061AY221061GF107991041051008001031001MA1999999099591MD1999999-0061MW1021REMSYN082AAXX  16184 82678 21596 71801 10300 20270 39959 40116 70262 84530 333 59006 69951;
0178826780999992006021700004-06767-043017FM-12+012799999V0209999C000012200019N0002001N1+02621+02531101201ADDGA1001+999999999GF100991001001999999001001KA1240M+03121MA1999999099621MD1999999-0031REMSYN082AAXX  17004 82678 32992 00000 10262 20253 39962 40120 333 10312 29091 55057 59003;
0173826780999992006021712004-06767-043017FM-12+012799999V0203601N001510075019N0040001N1+02661+02481101461ADDAA124000591GF108991051051008001001021KA1240N+02291MA1999999099881MD1999999-0021REMSYN082AAXX  17124 82678 22596 83603 10266 20248 39988 40146 85502 333 20229 59002 69954;
0137826780999992006021718004-06767-043017FM-12+012799999V0200901N001012200019N0040001N1+03161+02551101121ADDGF104991031021008001001011MA1999999099551MD1999999-0041REMSYN070AAXX  17184 82678 32596 40902 10316 20255 39955 40112 83201 333 59004;
0168826780999992006021800004-06767-043017FM-12+012799999V0209999C000010075019N0002001N1+02561+02511101291ADDGF108991051051008001031011KA1240M+03311MA1999999099711MD1999999+0091REMSYN088AAXX  18004 82678 32592 80000 10256 20251 39971 40129 85531 333 10331 29088 55092 58009;
0201826780999992006021812004-06767-043017FM-12+012799999V0209999C000011050019N0040001N1+02521+02381101541ADDAA124003091AY161061AY211061GF105991031051008001001021KA1240N+02261MA1999999099951MD1999999+0071MW1031REMSYN088AAXX  18124 82678 21596 50000 10252 20238 39995 40154 70361 83502 333 20226 58007 60034;
0137826780999992006021818004-06767-043017FM-12+012799999V0200901N001010075019N0040001N1+02861+02541101271ADDGF108991051051008001051021MA1999999099691MD1999999+0141REMSYN070AAXX  18184 82678 32596 80902 10286 20254 39969 40127 85552 333 58014;
0168826780999992006021900004-06767-043017FM-12+012799999V0209999C000010075019N0002001N1+02601+02501101521ADDGF108991051051008001031999KA1240M+02951MA1999999099931MD1999999+0221REMSYN088AAXX  19004 82678 32592 80000 10260 20250 39993 40152 8553/ 333 10295 29091 55014 58022;
0201826780999992006021912004-06767-043017FM-12+012799999V0200901N000510450019N0040001N1+02581+02421101611ADDAA124001091AY161061AY221061GF107991041051008001031021KA1240N+02241MA1999999100021MD1999999+0071MW1021REMSYN088AAXX  19124 82678 21596 70901 10258 20242 30002 40161 70262 84532 333 20224 58007 60014;
0137826780999992006021918004-06767-043017FM-12+012799999V0200901N002611050019N0040001N1+03301+02421101281ADDGF106991041051008001001021MA1999999099711MD1999999+0021REMSYN070AAXX  19184 82678 32596 60905 10330 20242 39971 40128 84502 333 58002;
0178826780999992006022000004-06767-043017FM-12+012799999V0209999C000012200019N0040001N1+02701+02521101321ADDGA1001+999999999GF100991001001999999001001KA1240M+03371MA1999999099741MD1999999-0191REMSYN082AAXX  20004 82678 32996 00000 10270 20252 39974 40132 333 10337 29083 55072 59019;
0156826780999992006022012004-06767-043017FM-12+012799999V0200901N000512200019N0040001N1+02761+02561101511ADDGF105991031021008001001011KA1240N+02361MA1999999099931MD1999999-0091REMSYN076AAXX  20124 82678 32596 50901 10276 20256 39993 40151 83201 333 20236 59009;
0137826780999992006022018004-06767-043017FM-12+012799999V0200901N001512200019N0040001N1+03281+02561101101ADDGF105991031021008001001011MA1999999099541MD1999999-0171REMSYN070AAXX  20184 82678 32596 50903 10328 20256 39954 40110 83201 333 59017;
0168826780999992006022100004-06767-043017FM-12+012799999V0209999C000012200019N0002001N1+02881+02621101121ADDGF104991041051008001001001KA1240M+03421MA1999999099551MD1999999-0191REMSYN088AAXX  21004 82678 32592 40000 10288 20262 39955 40112 84500 333 10342 29082 55091 59019;
0156826780999992006022112004-06767-043017FM-12+012799999V0200501N001510075019N0040001N1+02661+02461101421ADDGF108991051051008001001021KA1240N+02341MA1999999099851MD1999999-0081REMSYN076AAXX  21124 82678 32596 80503 10266 20246 39985 40142 85502 333 20234 59008;
0137826780999992006022118004-06767-043017FM-12+012799999V0200901N000511050019N0040001N1+03241+02761101041ADDGF108991041021008001001021MA1999999099471MD1999999-0071REMSYN070AAXX  21184 82678 32596 80901 10324 20276 39947 40104 84202 333 59007;
0178826780999992006022200004-06767-043017FM-12+012799999V0209999C000012200019N0002001N1+02761+02621101081ADDGA1001+999999999GF100991001001999999001001KA1240M+03381MA1999999099511MD1999999-0041REMSYN082AAXX  22004 82678 32992 00000 10276 20262 39951 40108 333 10338 29087 55081 59004;
0156826780999992006022212004-06767-043017FM-12+012799999V0203201N001510075019N0040001N1+02801+02311101461ADDGF108991051031008001001021KA1240N+02401MA1999999099891MD1999999+0041REMSYN076AAXX  22124 82678 32596 83203 10280 20231 39989 40146 85302 333 20240 58004;
0137826780999992006022218004-06767-043017FM-12+012799999V0202701N001510075019N0040001N1+03021+02531101141ADDGF108991051051008001021999MA1999999099571MD1999999+0101REMSYN070AAXX  22184 82678 32596 82703 10302 20253 39957 40114 8552/ 333 58010;
0168826780999992006022300004-06767-043017FM-12+012799999V0209999C000010075019N0002001N1+02721+02521101241ADDGF108991051051008001031021KA1240M+03151MA1999999099671MD1999999+0161REMSYN088AAXX  23004 82678 32592 80000 10272 20252 39967 40124 85532 333 10315 29082 55038 58016;
0156826780999992006022312004-06767-043017FM-12+012799999V0200901N000510450019N0040001N1+02621+02441101481ADDGF108991041051008001031021KA1240N+02321MA1999999099901MD1999999+0011REMSYN076AAXX  23124 82678 32596 80901 10262 20244 39990 40148 84532 333 20232 58001;
0137826780999992006022318004-06767-043017FM-12+012799999V0203201N001510075019N0040001N1+03221+02451101031ADDGF108991051051008001031011MA1999999099471MD1999999-0101REMSYN070AAXX  23184 82678 32596 83203 10322 20245 39947 40103 85531 333 59010;
0168826780999992006022400004-06767-043017FM-12+012799999V0209999C000012200019N0002001N1+02861+02741101301ADDGF102991021011008001001001KA1240M+03371MA1999999099731MD1999999+0061REMSYN088AAXX  24004 82678 32592 20000 10286 20274 39973 40130 82100 333 10337 29083 55068 58006;
0156826780999992006022412004-06767-043017FM-12+012799999V0203601N001010075019N0040001N1+02701+02521101421ADDGF108991081051008001999999KA1240N+02481MA1999999099851MD1999999-0051REMSYN076AAXX  24124 82678 32596 83602 10270 20252 39985 40142 885// 333 20248 59005;
0137826780999992006022418004-06767-043017FM-12+012799999V0203601N000511050019N0040001N1+03341+02741101041ADDGF106991041051008001001021MA1999999099481MD1999999+0011REMSYN070AAXX  24184 82678 32596 63601 10334 20274 39948 40104 84502 333 58001;
0213826780999992006022500004-06767-043017FM-12+012799999V0202701N000510075019N0002001N1+02361+02311101431ADDAA106024991AY161061AY221061GF108991061051008001021999KA1240M+03431MA1999999099841MD1999999+0111MW1611REMSYN100AAXX  25004 82678 21592 82701 10236 20231 39984 40143 76162 8652/ 333 10343 29089 55048 58011 60251;
0201826780999992006022512004-06767-043017FM-12+012799999V0202301N001010075019N0040001N1+02581+02301101501ADDAA124000021AY161061AY221061GF108991081051008001999999KA1240N+02441MA1999999099911MD1999999+0031MW1021REMSYN088AAXX  25124 82678 21596 82302 10258 20230 39991 40150 70262 885// 333 20244 58003 69914;
0156826780999992006022518004-06767-043017FM-12+012799999V0203201N001019999999N0040001N1+03121+02651101071ADDGF105991999021008001001001MA1999999099501MD1999999+0021REMSYN070AAXX  25184 82678 32596 53202 10312 20265 39950 40107 86200 333 58002;EQDQ01+000062SCOTLC
0156826780999992006022612004-06767-043017FM-12+012799999V0209999C000010075019N0040001N1+02881+02661101381ADDGF108991051021008001001021KA1240N+02461MA1999999099811MD1999999-0101REMSYN076AAXX  26124 82678 32596 80000 10288 20266 39981 40138 85202 333 20246 59010;
0137826780999992006022618004-06767-043017FM-12+012799999V0203601N000511050019N0040001N1+03341+02621101021ADDGF105991041051008001001021MA1999999099461MD1999999-0041REMSYN070AAXX  26184 82678 32596 53601 10334 20262 39946 40102 84502 333 59004;
0168826780999992006022700004-06767-043017FM-12+012799999V0200501N000510075019N0002001N1+02901+02721101121ADDGF107991051051008001001021KA1240M+03451MA1999999099561MD1999999-0021REMSYN088AAXX  27004 82678 32592 70501 10290 20272 39956 40112 85502 333 10345 29084 55103 59002;
0156826780999992006022712004-06767-043017FM-12+012799999V0200901N001010075019N0040001N1+02701+02391101421ADDGF106991061051008001001001KA1240N+02361MA1999999099851MD1999999+0041REMSYN076AAXX  27124 82678 32596 60902 10270 20239 39985 40142 86500 333 20236 58004;
0137826780999992006022718004-06767-043017FM-12+012799999V0203601N001010075019N0040001N1+03261+02641101011ADDGF106991051051008001001021MA1999999099451MD1999999-0011REMSYN070AAXX  27184 82678 32596 63602 10326 20264 39945 40101 85502 333 59001;
0213826780999992006022800004-06767-043017FM-12+012799999V0209999C000010075019N0002001N1+02581+02481101251ADDAA106005191AY161061AY221061GF108991061051008001021999KA1240M+03411MA1999999099671MD1999999+0111MW1911REMSYN100AAXX  28004 82678 21592 80000 10258 20248 39967 40125 79162 8652/ 333 10341 29085 55076 58011 60051;
0173826780999992006022812004-06767-043017FM-12+012799999V0203601N000510075019N0040001N1+02741+02541101471ADDAA124005191GF108991081051008001999999KA1240N+02421MA1999999099891MD1999999+0041REMSYN082AAXX  28124 82678 22596 83601 10274 20254 39989 40147 885// 333 20242 58004 60054;
0137826780999992006022818004-06767-043017FM-12+012799999V0200901N000510075019N0040001N1+03001+02681101071ADDGF107991051051008001051001MA1999999099501MD1999999+0051REMSYN070AAXX  28184 82678 32596 70901 10300 20268 39950 40107 85550 333 58005;
0168826780999992006030100004-06767-043017FM-12+012799999V0209999C000010075019N0002001N1+02541+02491101261ADDGF105991051051008001001001KA1240M+03201MA1999999099681MD1999999+0011REMSYN088AAXX  01004 82678 32592 50000 10254 20249 39968 40126 85500 333 10320 29092 55026 58001;
0201826780999992006030112004-06767-043017FM-12+012799999V0200501N001010075019N0040001N1+02621+02421101601ADDAA124003091AY161061AY221061GF108991051051008001021999KA1240N+02401MA1999999100011MD1999999+0121MW1021REMSYN088AAXX  01124 82678 21596 80502 10262 20242 30001 40160 70262 8552/ 333 20240 58012 60034;
0156826780999992006030118004-06767-043017FM-12+012799999V0203601N001010075019N0040001N1+03001+02641101141ADDGF108991999021008001001001MA1999999099571MD1999999-0071REMSYN070AAXX  01184 82678 32596 83602 10300 20264 39957 40114 86200 333 59007;EQDQ01+000062SCOTLC
0187826780999992006030200004-06767-043017FM-12+012799999V0209999C000019999999N0002001N1+02761+02621101451ADDGF105991999051008001999999KA1240M+03151MA1999999099871MD1999999-0191REMSYN088AAXX  02004 82678 32592 50000 10276 20262 39987 40145 885// 333 10315 29088 55042 59019;EQDQ01+000082SCOTLC
0156826780999992006030212004-06767-043017FM-12+012799999V0209999C000012200019N0040001N1+02621+02211101581ADDGF105991031021008001001011KA1240N+02361MA1999999100001MD1999999-0011REMSYN076AAXX  02124 82678 32596 50000 10262 20221 30000 40158 83201 333 20236 59001;
0137826780999992006030218004-06767-043017FM-12+012799999V0200501N001511050019N0040001N1+03141+02131101231ADDGF105991041021008001001021MA1999999099661MD1999999+0091REMSYN070AAXX  02184 82678 32596 50503 10314 20213 39966 40123 84202 333 58009;
0178826780999992006030300004-06767-043017FM-12+012799999V0200501N001012200019N0002001N1+02601+02501101351ADDGA1001+999999999GF100991001001999999001001KA1240M+03251MA1999999099771MD1999999-0101REMSYN082AAXX  03004 82678 32992 00502 10260 20250 39977 40135 333 10325 29084 55062 59010;
0156826780999992006030312004-06767-043017FM-12+012799999V0209999C000010075019N0040001N1+02761+02541101621ADDGF108991081051008001999999KA1240N+02361MA1999999100041MD1999999+0041REMSYN076AAXX  03124 82678 32596 80000 10276 20254 30004 40162 885// 333 20236 58004;
0137826780999992006030318004-06767-043017FM-12+012799999V0200901N001510075019N0040001N1+03261+02591101211ADDGF105991051021008001001001MA1999999099651MD1999999-0011REMSYN070AAXX  03184 82678 32596 50903 10326 20259 39965 40121 85200 333 59001;
0168826780999992006030400004-06767-043017FM-12+012799999V0209999C000010075019N0002001N1+02681+02581101351ADDGF105991051051008001001001KA1240M+03351MA1999999099771MD1999999+0001REMSYN088AAXX  04004 82678 32592 50000 10268 20258 39977 40135 85500 333 10335 29086 55061 58000;
0156826780999992006030412004-06767-043017FM-12+012799999V0203601N001010450019N0040001N1+02781+02521101631ADDGF105991031021008001031001KA1240N+02441MA1999999100051MD1999999+0011REMSYN076AAXX  04124 82678 32596 53602 10278 20252 30005 40163 83230 333 20244 58001;
0137826780999992006030418004-06767-043017FM-12+012799999V0200901N001510075019N0040001N1+03301+02631101171ADDGF106991061051008001001001MA1999999099611MD1999999-0041REMSYN070AAXX  04184 82678 32596 60903 10330 20263 39961 40117 86500 333 59004;
0168826780999992006030500004-06767-043017FM-12+012799999V0209999C000010450019N0002001N1+02581+02481101461ADDGF105991041051008001031001KA1240M+03391MA1999999099881MD1999999+0111REMSYN088AAXX  05004 82678 32592 50000 10258 20248 39988 40146 84530 333 10339 29086 55100 58011;
0201826780999992006030512004-06767-043017FM-12+012799999V0209999C000012200019N0040001N1+02741+02581101651ADDAA124007991AY161061AY221061GF103991021011008001001011KA1240N+02311MA1999999100061MD1999999+0011MW1621REMSYN088AAXX  05124 82678 21596 30000 10274 20258 30006 40165 76262 82101 333 20231 58001 60084;
0137826780999992006030518004-06767-043017FM-12+012799999V0203601N001512200019N0040001N1+03301+02701101261ADDGF104991021021008001001011MA1999999099691MD1999999+0081REMSYN070AAXX  05184 82678 32596 43603 10330 20270 39969 40126 82201 333 58008;
0187826780999992006030600004-06767-043017FM-12+012799999V0201401N001012200019N0002001N1+02581+02481101361ADDGF104991999021008001001001KA1240M+03431MA1999999099781MD1999999-0101REMSYN088AAXX  06004 82678 32592 41402 10258 20248 39978 40136 83200 333 10343 29088 55080 59010;EQDQ01+000032SCOTLC
0201826780999992006030612004-06767-043017FM-12+012799999V0209999C000010075019N0040001N1+02741+02601101651ADDAA124004191AY161061AY211061GF108991081051008001999999KA1240N+02381MA1999999100061MD1999999+0001MW1021REMSYN088AAXX  06124 82678 21596 80000 10274 20260 30006 40165 70261 885// 333 20238 58000 60044;
0156826780999992006030618004-06767-043017FM-12+012799999V0203601N002119999999N0040001N1+03361+02901101151ADDGF105991999021008001001001MA1999999099591MD1999999-0101REMSYN070AAXX  06184 82678 32596 53604 10336 20290 39959 40115 83200 333 59010;EQDQ01+000032SCOTLC
0168826780999992006030700004-06767-043017FM-12+012799999V0209999C000012200019N0002001N1+02881+02681101391ADDGF104991021001008001031021KA1240M+03471MA1999999099821MD1999999+0041REMSYN088AAXX  07004 82678 32592 40000 10288 20268 39982 40139 82032 333 10347 29087 55091 58004;
0156826780999992006030712004-06767-043017FM-12+012799999V0200901N000512200019N0040001N1+02861+02641101461ADDGF103991021021008001031001KA1240N+02481MA1999999099891MD1999999-0171REMSYN076AAXX  07124 82678 32596 30901 10286 20264 39989 40146 82230 333 20248 59017;
0137826780999992006030718004-06767-043017FM-12+012799999V0203601N001010075019N0040001N1+03301+02551101101ADDGF106991061021008001001001MA1999999099541MD1999999-0051REMSYN070AAXX  07184 82678 32596 63602 10330 20255 39954 40110 86200 333 59005;
0178826780999992006030800004-06767-043017FM-12+012799999V0209999C000012200019N0002001N1+02841+02701101121ADDGA1001+999999999GF100991001001999999001001KA1240M+03371MA1999999099561MD1999999-0261REMSYN082AAXX  08004 82678 32992 00000 10284 20270 39956 40112 333 10337 29084 55103 59026;
0156826780999992006030812004-06767-043017FM-12+012799999V0209999C000010075019N0040001N1+02781+02641101471ADDGF107991071051008001001001KA1240N+02451MA1999999099891MD1999999+0001REMSYN076AAXX  08124 82678 32596 70000 10278 20264 39989 40147 87500 333 20245 58000;
0137826780999992006030818004-06767-043017FM-12+012799999V0200501N002110075019N0040001N1+03281+02781100931ADDGF108991051021008001021011MA1999999099371MD1999999-0171REMSYN070AAXX  08184 82678 32596 80504 10328 20278 39937 40093 85221 333 59017;
0168826780999992006030900004-06767-043017FM-12+012799999V0209999C000012200019N0002001N1+02621+02531101131ADDGF103991011001017501031021KA1240M+03411MA1999999099561MD1999999+0001REMSYN088AAXX  09004 82678 32792 30000 10262 20253 39956 40113 81032 333 10341 29089 55063 58000;
0201826780999992006030912004-06767-043017FM-12+012799999V0201801N000510075019N0040001N1+02641+02551101421ADDAA124023191AY121061AY261061GF108991061051008001021999KA1240N+02301MA1999999099841MD1999999-0051MW1021REMSYN088AAXX  09124 82678 21596 81801 10264 20255 39984 40142 70226 8652/ 333 20230 59005 60234;
0182826780999992006030918004-06767-043017FM-12+012799999V0200501N001010120019N0040001N1+03141+03011100981ADDAA106051191AY121061AY261061GF108991051081008001021011MA1999999099411MD1999999+0041MW1021REMSYN082AAXX  09184 82678 21596 80502 10314 20301 39941 40098 70226 85821 333 58004 60511;
0168826780999992006031000004-06767-043017FM-12+012799999V0201801N000511050019N0002001N1+02551+02471101241ADDGF108991021001017501031071KA1240M+03251MA1999999099661MD1999999+0101REMSYN088AAXX  10004 82678 32792 81801 10255 20247 39966 40124 82037 333 10325 29095 55029 58010;
0201826780999992006031012004-06767-043017FM-12+012799999V0201401N000510075019N0040001N1+02341+02311101471ADDAA124091991AY161061AY221061GF108991081071008001999999KA1240N+02331MA1999999099871MD1999999+0031MW1621REMSYN088AAXX  10124 82678 21596 81401 10234 20231 39987 40147 76262 887// 333 20233 58003 60924;
0182826780999992006031018004-06767-043017FM-12+012799999V0203601N001010075019N0040001N1+02981+02641101111ADDAA106001091AY161061AY221061GF107991071051008001001001MA1999999099541MD1999999+0131MW1021REMSYN082AAXX  10184 82678 21596 73602 10298 20264 39954 40111 70262 87500 333 58013 60011;
0168826780999992006031100004-06767-043017FM-12+012799999V0203601N001010450019N0002001N1+02561+02511101291ADDGF108991041041008001031011KA1240M+03061MA1999999099701MD1999999+0041REMSYN088AAXX  11004 82678 32592 83602 10256 20251 39970 40129 84431 333 10306 29094 55012 58004;
0201826780999992006031112004-06767-043017FM-12+012799999V0209999C000010075019N0040001N1+02381+02361101571ADDAA124026991AY161061AY211061GF108991081051008001999999KA1240N+02341MA1999999099981MD1999999+0111MW1621REMSYN088AAXX  11124 82678 21596 80000 10238 20236 39998 40157 76261 885// 333 20234 58011 60274;
0168826780999992006031200004-06767-043017FM-12+012799999V0209999C000010450019N0040001N1+02541+02491101301ADDGF108991031041008001031011KA1240M+03131MA1999999099711MD1999999+0011REMSYN088AAXX  12004 82678 32596 80000 10254 20249 39971 40130 83431 333 10313 29095 55007 58001;
0173826780999992006031212004-06767-043017FM-12+012799999V0200901N001510075019N0040001N1+02561+02511101601ADDAA124002091GF108991061051008001001011KA1240N+02321MA1999999100011MD1999999+0031REMSYN082AAXX  12124 82678 22596 80903 10256 20251 30001 40160 86501 333 20232 58003 60024;
0137826780999992006031218004-06767-043017FM-12+012799999V0200901N001510075019N0040001N1+03081+02691101021ADDGF108991051041008001001011MA1999999099451MD1999999-0121REMSYN070AAXX  12184 82678 32596 80903 10308 20269 39945 40102 85401 333 59012;
0168826780999992006031300004-06767-043017FM-12+012799999V0209999C000012200019N0002001N1+02641+02591101191ADDGF103991021011008001001011KA1240M+03191MA1999999099611MD1999999+0101REMSYN088AAXX  13004 82678 32592 30000 10264 20259 39961 40119 82101 333 10319 29092 55055 58010;
0201826780999992006031312004-06767-043017FM-12+012799999V0200901N001010120019N0040001N1+02631+02521101391ADDAA124004191AY161061AY261061GF108991061081008001021999KA1240N+02351MA1999999099811MD1999999+0201MW1021REMSYN088AAXX  13124 82678 21596 80902 10263 20252 39981 40139 70266 8682/ 333 20235 58020 60044;
0182826780999992006031318004-06767-043017FM-12+012799999V0202701N001510075019N0040001N1+02801+02521101021ADDAA106001091AY161061AY221061GF107991061051008001001011MA1999999099441MD1999999-0011MW1031REMSYN082AAXX  13184 82678 21596 72703 10280 20252 39944 40102 70362 86501 333 59001 60011;
0168826780999992006031400004-06767-043017FM-12+012799999V0209999C000010075019N0002001N1+02561+02511101201ADDGF108991061051008001031999KA1240M+03051MA1999999099621MD1999999+0011REMSYN088AAXX  14004 82678 32592 80000 10256 20251 39962 40120 8653/ 333 10305 29093 55040 58001;
0201826780999992006031412004-06767-043017FM-12+012799999V0202701N000510075019N0040001N1+02701+02501101401ADDAA124005191AY161061AY221061GF108991061051008001031011KA1240N+02341MA1999999099821MD1999999+0011MW1021REMSYN088AAXX  14124 82678 21596 82701 10270 20250 39982 40140 70262 86531 333 20234 58001 60054;
0182826780999992006031418004-06767-043017FM-12+012799999V0202701N000510075019N0040001N1+02761+02541101101ADDAA106002091AY161061AY221061GF108991071051008001001021MA1999999099521MD1999999+0081MW1031REMSYN082AAXX  14184 82678 21596 82701 10276 20254 39952 40110 70362 87502 333 58008 60021;
0213826780999992006031500004-06767-043017FM-12+012799999V0209999C000010075019N0002001N1+02481+02461101371ADDAA106001091AY161061AY221061GF108991081051008001999999KA1240M+02911MA1999999099791MD1999999+0171MW1031REMSYN100AAXX  15004 82678 21592 80000 10248 20246 39979 40137 70362 885// 333 10291 29094 55022 58017 60011;
0173826780999992006031512004-06767-043017FM-12+012799999V0201401N001010450019N0040001N1+02531+02431101521ADDAA124003091GF108991041051008001021999KA1240N+02321MA1999999099931MD1999999+0111REMSYN082AAXX  15124 82678 22596 81402 10253 20243 39993 40152 8452/ 333 20232 58011 60034;
0137826780999992006031518004-06767-043017FM-12+012799999V0202701N001510450019N0040001N1+03081+02541101091ADDGF107991041021008001021011MA1999999099521MD1999999+0001REMSYN070AAXX  15184 82678 32596 72703 10308 20254 39952 40109 84221 333 58000;
0156826780999992006031612004-06767-043017FM-12+012799999V0200501N002110075019N0040001N1+02861+02541101511ADDGF107991051021008001001011KA1240N+02401MA1999999099931MD1999999+0001REMSYN076AAXX  16124 82678 32596 70504 10286 20254 39993 40151 85201 333 20240 58000;
0182826780999992006031618004-06767-043017FM-12+012799999V0200501N000510120019N0040001N1+02741+02651101111ADDAA106008991AY161061AY221061GF108991051081008001021011MA1999999099531MD1999999+0011MW1021REMSYN082AAXX  16184 82678 21596 80501 10274 20265 39953 40111 70262 85821 333 58001 60091;
0168826780999992006031700004-06767-043017FM-12+012799999V0209999C000012200019N0002001N1+02621+02551101141ADDGF107991011001017501031011KA1240M+03251MA1999999099571MD1999999-0061REMSYN088AAXX  17004 82678 32792 70000 10262 20255 39957 40114 81031 333 10325 29092 55057 59006;
0173826780999992006031712004-06767-043017FM-12+012799999V0200501N001019999999N0040001N1+02721+02631101331ADDAA124008991GF108991051001008001031021KA1240N+02421MA1999999099751MD1999999-0181REMSYN082AAXX  17124 82678 22596 80502 10272 20263 39975 40133 85032 333 20242 59018 60094;
0182826780999992006031718004-06767-043017FM-12+012799999V0200501N001010075019N0040001N1+03241+02891100921ADDAA106002091AY161061AY221061GF108991051051008001021011MA1999999099361MD1999999-0171MW1021REMSYN082AAXX  17184 82678 21596 80502 10324 20289 39936 40092 70262 85521 333 59017 60021;
0213826780999992006031800004-06767-043017FM-12+012799999V0209999C000010075019N0040001N1+02461+02411101141ADDAA106009991AY161061AY221061GF108991081051008001999999KA1240M+03391MA1999999099561MD1999999-0011MW1021REMSYN100AAXX  18004 82678 21596 80000 10246 20241 39956 40114 70262 885// 333 10339 29093 55053 59001 60101;
0201826780999992006031812004-06767-043017FM-12+012799999V0209999C000010075019N0040001N1+02381+02311101421ADDAA124021191AY161061AY221061GF108991081051008001999999KA1240N+02311MA1999999099821MD1999999+0071MW1021REMSYN088AAXX  18124 82678 21596 80000 10238 20231 39982 40142 70262 885// 333 20231 58007 60214;
0182826780999992006031818004-06767-043017FM-12+012799999V0209999C000010075019N0040001N1+02581+02481101121ADDAA106004191AY161061AY221061GF108991051051008001001011MA1999999099531MD1999999+0171MW1611REMSYN082AAXX  18184 82678 21596 80000 10258 20248 39953 40112 76162 85501 333 58017 60041;
0178826780999992006031900004-06767-043017FM-12+012799999V0209999C000012200019N0002001N1+02461+02431101221ADDGA1001+999999999GF100991001001999999001001KA1240M+02751MA1999999099631MD1999999+0071REMSYN082AAXX  19004 82678 32992 00000 10246 20243 39963 40122 333 10275 29096 55000 58007;
0173826780999992006031912004-06767-043017FM-12+012799999V0209999C000010075019N0040001N1+02621+02551101451ADDAA124004191GF107991071051008001001001KA1240N+02291MA1999999099861MD1999999+0041REMSYN082AAXX  19124 82678 22596 70000 10262 20255 39986 40145 87500 333 20229 58004 60044;
0137826780999992006031918004-06767-043017FM-12+012799999V0201401N001010075019N0040001N1+03141+02791101021ADDGF105991051021008001001001MA1999999099451MD1999999-0081REMSYN070AAXX  19184 82678 32596 51402 10314 20279 39945 40102 85200 333 59008;
0178826780999992006032000004-06767-043017FM-12+012799999V0209999C000012200019N0002001N1+02661+02571101161ADDGA1001+999999999GF100991001001999999001001KA1240M+03291MA1999999099581MD1999999-0051REMSYN082AAXX  20004 82678 32992 00000 10266 20257 39958 40116 333 10329 29092 55074 59005;
0201826780999992006032012004-06767-043017FM-12+012799999V0209999C000010075019N0040001N1+02701+02581101481ADDAA124007191AY161061AY221061GF108991081051008001999999KA1240N+02421MA1999999099901MD1999999+0041MW1031REMSYN088AAXX  20124 82678 21596 80000 10270 20258 39990 40148 70362 885// 333 20242 58004 60074;
0182826780999992006032018004-06767-043017FM-12+012799999V0202301N000510075019N0040001N1+02741+02541101191ADDAA106003091AY161061AY221061GF107991051051008001031011MA1999999099611MD1999999+0161MW1021REMSYN082AAXX  20184 82678 21596 72301 10274 20254 39961 40119 70262 85531 333 58016 60031;
0213826780999992006032100004-06767-043017FM-12+012799999V0200901N000510075019N0002001N1+02441+02391101191ADDAA106003091AY161061AY221061GF108991061051008001021999KA1240M+03011MA1999999099611MD1999999+0031MW1021REMSYN100AAXX  21004 82678 21592 80901 10244 20239 39961 40119 70262 8652/ 333 10301 29094 55015 58003 60031;
0201826780999992006032112004-06767-043017FM-12+012799999V0200901N002610450019N0040001N1+02731+02431101481ADDAA124007191AY161061AY221061GF106991031081008001021011KA1240N+02411MA1999999099891MD1999999-0011MW1021REMSYN088AAXX  21124 82678 21596 60905 10273 20243 39989 40148 70262 83821 333 20241 59001 60074;
0137826780999992006032118004-06767-043017FM-12+012799999V0200901N003112200019N0040001N1+03241+02421100981ADDGF104991021021008001031021MA1999999099421MD1999999-0191REMSYN070AAXX  21184 82678 32596 40906 10324 20242 39942 40098 82232 333 59019;
0178826780999992006032200004-06767-043017FM-12+012799999V0209999C000012200019N0002001N1+02721+02631101181ADDGA1001+999999999GF100991001001999999001001KA1240M+03311MA1999999099611MD1999999+0001REMSYN082AAXX  22004 82678 32992 00000 10272 20263 39961 40118 333 10331 29084 55070 58000;
0156826780999992006032212004-06767-043017FM-12+012799999V0200901N001510120019N0040001N1+02951+02541101421ADDGF107991051081008001031011KA1240N+02521MA1999999099851MD1999999-0041REMSYN076AAXX  22124 82678 32596 70903 10295 20254 39985 40142 85831 333 20252 59004;
0137826780999992006032218004-06767-043017FM-12+012799999V0200501N002110075019N0040001N1+03011+02551101021ADDGF108991061051008001021999MA1999999099451MD1999999+0031REMSYN070AAXX  22184 82678 32596 80504 10301 20255 39945 40102 8652/ 333 58003;
0168826780999992006032300004-06767-043017FM-12+012799999V0209999C000010075019N0002001N1+02641+02611101261ADDGF108991061051008001011999KA1240M+03281MA1999999099691MD1999999+0081REMSYN088AAXX  23004 82678 32592 80000 10264 20261 39969 40126 8651/ 333 10328 29088 55044 58008;
0156826780999992006032312004-06767-043017FM-12+012799999V0203601N001010450019N0040001N1+02801+02521101501ADDGF108991041051008001031011KA1240N+02461MA1999999099921MD1999999+0071REMSYN076AAXX  23124 82678 32596 83602 10280 20252 39992 40150 84531 333 20246 58007;
0137826780999992006032318004-06767-043017FM-12+012799999V0201401N001010075019N0040001N1+03201+02631101001ADDGF108991051051008001031021MA1999999099441MD1999999-0011REMSYN070AAXX  23184 82678 32596 81402 10320 20263 39944 40100 85532 333 59001;
0168826780999992006032400004-06767-043017FM-12+012799999V0209999C000010075019N0002001N1+02701+02561101211ADDGF108991051051008001011999KA1240M+03351MA1999999099641MD1999999-0211REMSYN088AAXX  24004 82678 32592 80000 10270 20256 39964 40121 8551/ 333 10335 29085 55066 59021;
0201826780999992006032412004-06767-043017FM-12+012799999V0201401N001010450019N0040001N1+02481+02411101551ADDAA124019191AY161061AY221061GF108991041051008001021001KA1240N+02341MA1999999099961MD1999999+0041MW1021REMSYN088AAXX  24124 82678 21596 81402 10248 20241 39996 40155 70262 84520 333 20234 58004 60194;
0137826780999992006032418004-06767-043017FM-12+012799999V0201801N000510450019N0040001N1+03161+02681101111ADDGF106991031051008001031001MA1999999099541MD1999999+0101REMSYN070AAXX  24184 82678 32596 61801 10316 20268 39954 40111 83530 333 58010;
0213826780999992006032500004-06767-043017FM-12+012799999V0209999C000010075019N0040001N1+02511+02401101441ADDAA106002091AY161061AY221061GF108991081051008001999999KA1240M+03321MA1999999099851MD1999999+0211MW1021REMSYN100AAXX  25004 82678 21596 80000 10251 20240 39985 40144 70262 885// 333 10332 29090 55048 58021 60021;
0173826780999992006032512004-06767-043017FM-12+012799999V0200901N001012200019N0040001N1+02821+02461101531ADDAA124002091GF102991011011008001031001KA1240N+02321MA1999999099951MD1999999-0011REMSYN082AAXX  25124 82678 22596 20902 10282 20246 39995 40153 81130 333 20232 59001 60024;
0137826780999992006032518004-06767-043017FM-12+012799999V0200901N001010075019N0040001N1+03281+02611101101ADDGF105991051051008001001001MA1999999099531MD1999999-0011REMSYN070AAXX  25184 82678 32596 50902 10328 20261 39953 40110 85500 333 59001;
0213826780999992006032600004-06767-043017FM-12+012799999V0209999C000010075019N0002001N1+02401+02351101531ADDAA106007991AY161061AY221061GF108991061051008001021999KA1240M+03371MA1999999099941MD1999999+0091MW1611REMSYN100AAXX  26004 82678 21592 80000 10240 20235 39994 40153 76162 8652/ 333 10337 29086 55088 58009 60081;
0201826780999992006032612004-06767-043017FM-12+012799999V0209999C000012200019N0040001N1+02741+02581101561ADDAA124008991AY161061AY221061GF106991041021008001001011KA1240N+02341MA1999999099971MD1999999+0021MW1021REMSYN088AAXX  26124 82678 21596 60000 10274 20258 39997 40156 70262 84201 333 20234 58002 60094;
0137826780999992006032618004-06767-043017FM-12+012799999V0200901N001010075019N0040001N1+03281+02591101091ADDGF106991051051008001001011MA1999999099521MD1999999-0011REMSYN070AAXX  26184 82678 32596 60902 10328 20259 39952 40109 85501 333 59001;
0168826780999992006032700004-06767-043017FM-12+012799999V0209999C000010075019N0002001N1+02541+02401101391ADDGF108991081051008001999999KA1240M+03351MA1999999099811MD1999999-0131REMSYN088AAXX  27004 82678 32592 80000 10254 20240 39981 40139 885// 333 10335 29086 55084 59013;
0156826780999992006032712004-06767-043017FM-12+012799999V0202701N001510075019N0040001N1+02841+02481101681ADDGF108991051041008001011021KA1240N+02421MA1999999100101MD1999999+0131REMSYN076AAXX  27124 82678 32596 82703 10284 20248 30010 40168 85412 333 20242 58013;
0137826780999992006032718004-06767-043017FM-12+012799999V0200501N000510450019N0200001N1+03081+02781101221ADDGF108991031021008001021021MA1999999099651MD1999999+0131REMSYN070AAXX  27184 82678 32598 80501 10308 20278 39965 40122 83222 333 58013;
0168826780999992006032800004-06767-043017FM-12+012799999V0209999C000012200019N0002001N1+02761+02641101431ADDGF105991031001017501031011KA1240M+03231MA1999999099861MD1999999+0051REMSYN088AAXX  28004 82678 32792 50000 10276 20264 39986 40143 83031 333 10323 29088 55049 58005;
0220826780999992006032812004-06767-043017FM-12+012799999V0200501N001010450019N0040001N1+02831+02541101601ADDAA124000091AY121061AY261061GF108991031021008001021011KA1240N+02421MA1999999100031MD1999999-0071MW1021REMSYN088AAXX  28124 82678 21596 80502 10283 20254 30003 40160 70226 83221 333 20242 59007 69914;EQDQ01  00002PRCP24
0137826780999992006032818004-06767-043017FM-12+012799999V0203601N002110450019N0040001N1+03321+02621101011ADDGF108991041081008001021011MA1999999099451MD1999999-0201REMSYN070AAXX  28184 82678 32596 83604 10332 20262 39945 40101 84821 333 59020;
0168826780999992006032900004-06767-043017FM-12+012799999V0202301N001012200019N0002001N1+02741+02581101371ADDGF105991031041008001001011KA1240M+03441MA1999999099801MD1999999-0061REMSYN088AAXX  29004 82678 32592 52302 10274 20258 39980 40137 83401 333 10344 29084 55072 59006;
0201826780999992006032912004-06767-043017FM-12+012799999V0209999C000010075019N0040001N1+02581+02511101541ADDAA124043991AY161061AY221061GF108991081051008001999999KA1240N+02381MA1999999099961MD1999999-0071MW1021REMSYN088AAXX  29124 82678 21596 80000 10258 20251 39996 40154 70262 885// 333 20238 59007 60444;
0137826780999992006032918004-06767-043017FM-12+012799999V0200501N001010075019N0040001N1+03161+02621101011ADDGF108991051021008001001021MA1999999099441MD1999999-0011REMSYN070AAXX  29184 82678 32596 80502 10316 20262 39944 40101 85202 333 59001;
0213826780999992006033000004-06767-043017FM-12+012799999V0209999C000010075019N0002001N1+02381+02331101351ADDAA106019191AY161061AY211061GF108991081051008001999999KA1240M+03251MA1999999099761MD1999999-0041MW1611REMSYN100AAXX  30004 82678 21592 80000 10238 20233 39976 40135 76161 885// 333 10325 29091 55037 59004 60191;
0201826780999992006033012004-06767-043017FM-12+012799999V0209999C000010075019N0040001N1+02461+02341101601ADDAA124025991AY161061AY221061GF108991051051008001001011KA1240N+02381MA1999999100001MD1999999+0041MW1021REMSYN088AAXX  30124 82678 21596 80000 10246 20234 30000 40160 70262 85501 333 20238 58004 60264;
0137826780999992006033018004-06767-043017FM-12+012799999V0209999C000012200019N0040001N1+03061+02741101061ADDGF105991031021008001001011MA1999999099491MD1999999+0051REMSYN070AAXX  30184 82678 32596 50000 10306 20274 39949 40106 83201 333 58005;
0168826780999992006033100004-06767-043017FM-12+012799999V0200901N000512200019N0002001N1+02721+02631101411ADDGF105991031001017501021011KA1240M+03201MA1999999099831MD1999999+0071REMSYN088AAXX  31004 82678 32792 50901 10272 20263 39983 40141 83021 333 10320 29092 55050 58007;
0201826780999992006033112004-06767-043017FM-12+012799999V0202701N000510450019N0040001N1+02781+02581101631ADDAA124021191AY161061AY221061GF107991041051008001031011KA1240N+02361MA1999999100051MD1999999+0051MW1031REMSYN088AAXX  31124 82678 21596 72701 10278 20258 30005 40163 70362 84531 333 20236 58005 60214;
0182826780999992006033118004-06767-043017FM-12+012799999V0209999C000010075019N0040001N1+02461+02411101291ADDAA106005191AY161061AY221061GF108991061051008001021999MA1999999099691MD1999999+0201MW1031REMSYN082AAXX  31184 82678 21596 80000 10246 20241 39969 40129 70362 8652/ 333 58020 60051;
0213826780999992006040100004-06767-043017FM-12+012799999V0209999C000010075019N0002001N1+02401+02351101421ADDAA106003091AY161061AY221061GF107991071051008001001001KA1240M+02951MA1999999099841MD1999999+0011MW1021REMSYN100AAXX  01004 82678 21592 70000 10240 20235 39984 40142 70262 87500 333 10295 29094 55026 58001 60031;
0128826780999992006040112004-06767-043017FM-12+012799999V0200501N001519999999N0040001N1+02371+02261999999ADDGF108991999999008001999999REMSYN090AAXX  01124 82678 21596 80503 10237 20226 10154 20236 30010 40170 58005 60154 76162 887//;
0164826780999992006040118004-06767-043017FM-12+012799999V0200501N001510450019N0040001N1+02981+02551101091ADDAA106005191AY121061AY261061GF107991041021008001031021MA1999999099521MW1021REMSYN078AAXX  01184 82678 21596 70503 10298 20255 39952 40109 59017 60051 70226 84232;
0128826780999992006040200004-06767-043017FM-12+012799999V0209999C000012200019N0002001N1+02661+02571999999ADDGF104991999999008001999999REMSYN090AAXX  02004 82678 32592 40000 10266 20257 10311 29090 39973 40132 40132 55035 59011 84500;
0201826780999992006040212004-06767-043017FM-12+012799999V0209999C000010075019N0040001N1+02421+02331101581ADDAA124007191AY161061AY221061GF108991081051008001999999KA1240N+02241MA1999999099991MD1999999+0111MW1031REMSYN088AAXX  02124 82678 21596 80000 10242 20233 39999 40158 70362 885// 333 20224 58011 60074;
0137826780999992006040218004-06767-043017FM-12+012799999V0202701N003110450019N0040001N1+02901+02481101101ADDGF106991031021008001021091MA1999999099521MD1999999+0001REMSYN070AAXX  02184 82678 32596 62706 10290 20248 39952 40110 83229 333 58000;
0168826780999992006040300004-06767-043017FM-12+012799999V0201801N001012200019N0002001N1+02601+02551101331ADDGF104991021001017501021011KA1240M+03061MA1999999099741MD1999999+0011REMSYN088AAXX  03004 82678 32792 41802 10260 20255 39974 40133 82021 333 10306 29092 55037 58001;
0156826780999992006040312004-06767-043017FM-12+012799999V0201401N002110450019N0040001N1+02781+02461101491ADDGF106991031081008001031011KA1240N+02321MA1999999099911MD1999999-0081REMSYN076AAXX  03124 82678 32596 61404 10278 20246 39991 40149 83831 333 20232 59008;
0137826780999992006040318004-06767-043017FM-12+012799999V0200501N001011050019N0040001N1+03001+02821101051ADDGF105991031031008001001021MA1999999099481MD1999999-0041REMSYN070AAXX  03184 82678 32596 50502 10300 20282 39948 40105 83302 333 59004;
0213826780999992006040400004-06767-043017FM-12+012799999V0203601N000510450019N0002001N1+02551+02451101311ADDAA106001091AY161061AY211061GF108991041041008001011011KA1240M+03281MA1999999099731MD1999999-0011MW1021REMSYN100AAXX  04004 82678 21592 83601 10255 20245 39973 40131 70261 84411 333 10328 29091 55086 59001 60011;
0201826780999992006040412004-06767-043017FM-12+012799999V0200201N002610075019N0040001N1+02621+02531101461ADDAA124004191AY161061AY211061GF108991081051008001999999KA1240N+02421MA1999999099871MD1999999-0041MW1611REMSYN088AAXX  04124 82678 21596 80205 10262 20253 39987 40146 76161 885// 333 20242 59004 60044;
0182826780999992006040418004-06767-043017FM-12+012799999V0203201N001010075019N0040001N1+02481+02461101151ADDAA106018091AY161061AY261061GF108991061051008001021999MA1999999099561MD1999999+0081MW1021REMSYN082AAXX  04184 82678 21596 83202 10248 20246 39956 40115 70266 8652/ 333 58008 60181;
0168826780999992006040500004-06767-043017FM-12+012799999V0209999C000010075019N0002001N1+02461+02411101421ADDGF108991081051008001999999KA1240M+02711MA1999999099831MD1999999+0101REMSYN088AAXX  05004 82678 32592 80000 10246 20241 39983 40142 885// 333 10271 29097 55000 58010;
0201826780999992006040512004-06767-043017FM-12+012799999V0203601N001010075019N0040001N1+02781+02521101481ADDAA124019191AY161061AY221061GF108991051051008001021011KA1240N+02321MA1999999099891MD1999999+0061MW1021REMSYN088AAXX  05124 82678 21596 83602 10278 20252 39989 40148 70262 85521 333 20232 58006 60194;
0137826780999992006040518004-06767-043017FM-12+012799999V0201401N001511050019N0040001N1+03241+02761100991ADDGF105991031031008001001021MA1999999099431MD1999999-0131REMSYN070AAXX  05184 82678 32596 51403 10324 20276 39943 40099 83302 333 59013;
0168826780999992006040600004-06767-043017FM-12+012799999V0201401N001012200019N0002001N1+02721+02501101241ADDGF104991021011008001001011KA1240M+03371MA1999999099661MD1999999-0171REMSYN088AAXX  06004 82678 32592 41402 10272 20250 39966 40124 82101 333 10337 29084 55082 59017;
0201826780999992006040612004-06767-043017FM-12+012799999V0200901N001510075019N0040001N1+02741+02361101371ADDAA124000591AY161061AY221061GF107991061051008001031001KA1240N+02461MA1999999099801MD1999999-0091MW1031REMSYN088AAXX  06124 82678 21596 70903 10274 20236 39980 40137 70362 86530 333 20246 59009 69944;
0182826780999992006040618004-06767-043017FM-12+012799999V0201401N001010450019N0040001N1+02781+02251101001ADDAA106007991AY161061AY221061GF107991041051008001021001MA1999999099421MD1999999-0011MW1911REMSYN082AAXX  06184 82678 21596 71402 10278 20225 39942 40100 79162 84520 333 59001 60081;
0168826780999992006040700004-06767-043017FM-12+012799999V0209999C000010450019N0002001N1+02521+02431101151ADDGF105991041051008001031001KA1240M+03211MA1999999099571MD1999999-0091REMSYN088AAXX  07004 82678 32592 50000 10252 20243 39957 40115 84530 333 10321 29086 55046 59009;
0173826780999992006040712004-06767-043017FM-12+012799999V0209999C000010075019N0040001N1+02681+02371101351ADDAA124007991GF107991051051008001001011KA1240N+02321MA1999999099771MD1999999-0031REMSYN082AAXX  07124 82678 22596 70000 10268 20237 39977 40135 85501 333 20232 59003 60084;
0137826780999992006040718004-06767-043017FM-12+012799999V0200901N001510075019N0040001N1+03161+02451100961ADDGF108991061051008001021999MA1999999099401MD1999999-0021REMSYN070AAXX  07184 82678 32596 80903 10316 20245 39940 40096 8652/ 333 59002;
0173826780999992006040812004-06767-043017FM-12+012799999V0201801N001510075019N0040001N1+02661+02481101401ADDAA124032091GF108991081071008001999999KA1240N+02401MA1999999099821MD1999999+0051REMSYN082AAXX  08124 82678 22596 81803 10266 20248 39982 40140 887// 333 20240 58005 60324;
0182826780999992006040818004-06767-043017FM-12+012799999V0200901N003110120019N0040001N1+03041+02431100871ADDAA106002091AY121061AY261061GF108991061081008001021999MA1999999099311MD1999999-0091MW1021REMSYN082AAXX  08184 82678 21596 80906 10304 20243 39931 40087 70226 8682/ 333 59009 60021;
0168826780999992006040900004-06767-043017FM-12+012799999V0202701N000510075019N0002001N1+02531+02421101231ADDGF108991061051008001021999KA1240M+03191MA1999999099651MD1999999+0001REMSYN088AAXX  09004 82678 32592 82701 10253 20242 39965 40123 8652/ 333 10319 29086 55024 58000;
0201826780999992006040912004-06767-043017FM-12+012799999V0202701N001510075019N0040001N1+02421+02281101421ADDAA124008991AY161061AY261061GF108991081061008001001001KA1240N+02331MA1999999099821MD1999999+0001MW1021REMSYN088AAXX  09124 82678 21596 82703 10242 20228 39982 40142 70266 88600 333 20233 58000 60094;
0137826780999992006040918004-06767-043017FM-12+012799999V0201801N001510120019N0040001N1+02881+02441101001ADDGF108991051081008001021011MA1999999099431MD1999999+0121REMSYN070AAXX  09184 82678 32596 81803 10288 20244 39943 40100 85821 333 58012;
0168826780999992006041000004-06767-043017FM-12+012799999V0202301N000510075019N0002001N1+02581+02401101111ADDGF108991081051008001999999KA1240M+02941MA1999999099521MD1999999-0161REMSYN088AAXX  10004 82678 32592 82301 10258 20240 39952 40111 885// 333 10294 29087 55038 59016;
0175826780999992006041012004-06767-043017FM-12+012799999V0203601N001019999999N0040001N1+02641+02331101321ADDGF105991999021008001001001KA1240N+02341MA1999999099741MD1999999-0081REMSYN076AAXX  10124 82678 32596 53602 10264 20233 39974 40132 83200 333 20234 59008;EQDQ01+000032SCOTLC
0156826780999992006041018004-06767-043017FM-12+012799999V0203201N001012200019N0040001N1+03201+02181100771ADDGF104991999021008001001001MA1999999099211MD1999999-0221REMSYN070AAXX  10184 82678 32596 43202 10320 20218 39921 40077 83200 333 59022;EQDQ01+000032SCOTLC
0168826780999992006041100004-06767-043017FM-12+012799999V0200501N001512200019N0002001N1+02661+02441101211ADDGF104991021021008001001021KA1240M+03251MA1999999099631MD1999999+0111REMSYN088AAXX  11004 82678 32592 40503 10266 20244 39963 40121 82202 333 10325 29078 55089 58011;
0201826780999992006041112004-06767-043017FM-12+012799999V0200901N001010075019N0040001N1+02601+02311101411ADDAA124006191AY161061AY211061GF108991081051008001999999KA1240N+02341MA1999999099831MD1999999+0091MW1021REMSYN088AAXX  11124 82678 21596 80902 10260 20231 39983 40141 70261 885// 333 20234 58009 60064;
0137826780999992006041118004-06767-043017FM-12+012799999V0209999C000010075019N0040001N1+03021+02311100931ADDGF108991051051008001021999MA1999999099331MD1999999+0121REMSYN070AAXX  11184 82678 32596 80000 10302 20231 39933 40093 8552/ 333 58012;
0168826780999992006041200004-06767-043017FM-12+012799999V0209999C000010075019N0002001N1+02501+02311101261ADDGF108991081051008001999999KA1240M+03071MA1999999099671MD1999999+0041REMSYN088AAXX  12004 82678 32592 80000 10250 20231 39967 40126 885// 333 10307 29082 55030 58004;
0192826780999992006041212004-06767-043017FM-12+012799999V0203601N000510075019N0040001N1+02701+02331101461ADDAA124000091GF108991081051008001999999KA1240N+02401MA1999999099871MD1999999+0041REMSYN082AAXX  12124 82678 22596 83601 10270 20233 39987 40146 885// 333 20240 58004 69924;EQDQ01  00002PRCP24
0201826780999992006041218004-06767-043017FM-12+012799999V0200901N000510075019N0040001N1+03101+02391100981ADDAA106000091AY161061AY221061GF106991051051008001001011MA1999999099411MD1999999+0081MW1021REMSYN082AAXX  12184 82678 21596 60901 10310 20239 39941 40098 70262 85501 333 58008 69921;EQDQ01  00002PRCP06
0168826780999992006041300004-06767-043017FM-12+012799999V0209999C000010450019N0002001N1+02741+02581101251ADDGF108991041051008001031021KA1240M+03191MA1999999099671MD1999999+0001REMSYN088AAXX  13004 82678 32592 80000 10274 20258 39967 40125 84532 333 10319 29082 55052 58000;
0201826780999992006041312004-06767-043017FM-12+012799999V0209999C000010075019N0040001N1+02841+02401101361ADDAA124000591AY161061AY221061GF107991051051008001001011KA1240N+02441MA1999999099791MD1999999-0081MW1021REMSYN088AAXX  13124 82678 21596 70000 10284 20240 39979 40136 70262 85501 333 20244 59008 69944;
0137826780999992006041318004-06767-043017FM-12+012799999V0209999C000012200019N0040001N1+03261+02211100841ADDGF105991031021008001001011MA1999999099281MD1999999-0131REMSYN070AAXX  13184 82678 32596 50000 10326 20221 39928 40084 83201 333 59013;
0168826780999992006041400004-06767-043017FM-12+012799999V0209999C000019999999N0002001N1+02661+02411101121ADDGF106991001001999999001021KA1240M+03311MA1999999099551MD1999999-0121REMSYN088AAXX  14004 82678 32992 60000 10266 20241 39955 40112 80002 333 10331 29076 55093 59012;
0201826780999992006041412004-06767-043017FM-12+012799999V0202701N000511050019N0040001N1+02701+02451101241ADDAA124003091AY161061AY221061GF105991021021008001031021KA1240N+02431MA1999999099661MD1999999-0131MW1021REMSYN088AAXX  14124 82678 21596 52701 10270 20245 39966 40124 70262 82232 333 20243 59013 60034;
0165826780999992006041418004-06767-043017FM-12+012799999V0200501N002610120019N0040001N1+03201+02271100721ADDAY191061AY221061GF108991061081008001001021MA1999999099161MD1999999-0121MW1021REMSYN076AAXX  14184 82678 31596 80505 10320 20227 39916 40072 70292 86802 333 59012;
0168826780999992006041500004-06767-043017FM-12+012799999V0201801N000510450019N0002001N1+02651+02521101041ADDGF108991031041008001031021KA1240M+03331MA1999999099471MD1999999-0081REMSYN088AAXX  15004 82678 32592 81801 10265 20252 39947 40104 83432 333 10333 29082 55069 59008;
0201826780999992006041512004-06767-043017FM-12+012799999V0201401N002110450019N0040001N1+02811+02341101301ADDAA124023191AY121061AY261061GF108991041041008001021021KA1240N+02391MA1999999099731MD1999999+0071MW1021REMSYN088AAXX  15124 82678 21596 81404 10281 20234 39973 40130 70226 84422 333 20239 58007 60234;
0182826780999992006041518004-06767-043017FM-12+012799999V0202701N001010450019N0040001N1+02821+02461100941ADDAA106008991AY161061AY221061GF108991031031008001021021MA1999999099361MD1999999+0201MW1021REMSYN082AAXX  15184 82678 21596 82702 10282 20246 39936 40094 70262 83322 333 58020 60091;
0168826780999992006041600004-06767-043017FM-12+012799999V0209999C000010450019N0002001N1+02631+02521101311ADDGF108991031041008001031011KA1240M+03061MA1999999099731MD1999999+0261REMSYN088AAXX  16004 82678 32592 80000 10263 20252 39973 40131 83431 333 10306 29086 55019 58026;
0201826780999992006041612004-06767-043017FM-12+012799999V0202701N000510075019N0040001N1+02641+02331101691ADDAA124061091AY161061AY221061GF108991081051008001999999KA1240N+02281MA1999999100091MD1999999+0361MW1021REMSYN088AAXX  16124 82678 21596 82701 10264 20233 30009 40169 70262 885// 333 20228 58036 60614;
0137826780999992006041618004-06767-043017FM-12+012799999V0201801N000510075019N0040001N1+03121+02381101261ADDGF107991051051008001001011MA1999999099691MD1999999+0331REMSYN070AAXX  16184 82678 32596 71801 10312 20238 39969 40126 85501 333 58033;
0168826780999992006041700004-06767-043017FM-12+012799999V0209999C000010075019N0002001N1+02561+02441101541ADDGF107991051051008001001011KA1240M+03211MA1999999099951MD1999999+0221REMSYN088AAXX  17004 82678 32592 70000 10256 20244 39995 40154 85501 333 10321 29084 55052 58022;
0201826780999992006041712004-06767-043017FM-12+012799999V0200501N001010075019N0040001N1+02651+02371101601ADDAA124004191AY161061AY221061GF108991051051008001999999KA1240N+02301MA1999999100011MD1999999-0081MW1021REMSYN088AAXX  17124 82678 21596 80502 10265 20237 30001 40160 70262 855// 333 20230 59008 60044;
0168826780999992006041800004-06767-043017FM-12+012799999V0209999C000010075019N0002001N1+02621+02481101361ADDGF105991051051008001001001KA1240M+03061MA1999999099781MD1999999-0171REMSYN088AAXX  18004 82678 32592 50000 10262 20248 39978 40136 85500 333 10306 29083 55024 59017;
0156826780999992006041812004-06767-043017FM-12+012799999V0209999C000010075019N0040001N1+02561+02361101541ADDGF108991081051008001999999KA1240N+02411MA1999999099951MD1999999-0061REMSYN076AAXX  18124 82678 32596 80000 10256 20236 39995 40154 885// 333 20241 59006;
0182826780999992006041818004-06767-043017FM-12+012799999V0201801N002610075019N0040001N1+02941+02331101101ADDAA106001091AY161061AY221061GF107991051051008001001011MA1999999099531MD1999999-0161MW1021REMSYN082AAXX  18184 82678 21596 71805 10294 20233 39953 40110 70262 85501 333 59016 60011;
0168826780999992006041900004-06767-043017FM-12+012799999V0200901N000512200019N0002001N1+02581+02441101391ADDGF104991041051008001001001KA1240M+03051MA1999999099781MD1999999+0001REMSYN088AAXX  19004 82678 32592 40901 10258 20244 39978 40139 84500 333 10305 29086 55032 58000;
0173826780999992006041912004-06767-043017FM-12+012799999V0201401N000511050019N0040001N1+02741+02301101581ADDAA124001091GF105991021011008001031011KA1240N+02341MA1999999100001MD1999999+0051REMSYN082AAXX  19124 82678 22596 51401 10274 20230 30000 40158 82131 333 20234 58005 60014;
0168826780999992006042000004-06767-043017FM-12+012799999V0209999C000012200019N0002001N1+02601+02311101361ADDGF104991001001999999001021KA1240M+03191MA1999999099781MD1999999+0001REMSYN088AAXX  20004 82678 32992 40000 10260 20231 39978 40136 80002 333 10319 29080 55069 58000;
0173826780999992006042012004-06767-043017FM-12+012799999V0201801N001010075019N0040001N1+02741+02361101581ADDAA124009991GF108991061051008001021999KA1240N+02411MA1999999100001MD1999999+0001REMSYN082AAXX  20124 82678 22596 81802 10274 20236 30000 40158 8652/ 333 20241 58000 60104;
0168826780999992006042100004-06767-043017FM-12+012799999V0202301N000510450019N0002001N1+02661+02481101411ADDGF108991021031008001021011KA1240M+03161MA1999999099831MD1999999+0051REMSYN088AAXX  21004 82678 32592 82301 10266 20248 39983 40141 82321 333 10316 29080 55051 58005;
0156826780999992006042112004-06767-043017FM-12+012799999V0200901N000510075019N0040001N1+02541+02361101631ADDGF108991061051008001021999KA1240N+02451MA1999999100041MD1999999+0041REMSYN076AAXX  21124 82678 32596 80901 10254 20236 30004 40163 8652/ 333 20245 58004;
0182826780999992006042118004-06767-043017FM-12+012799999V0203201N001010450019N0040001N1+03001+02461101181ADDAA106001091AY121061AY261061GF108991041081008001021021MA1999999099611MD1999999+0101MW1021REMSYN082AAXX  21184 82678 21596 83202 10300 20246 39961 40118 70226 84822 333 58010 60011;
0213826780999992006042200004-06767-043017FM-12+012799999V0200901N002110075019N0002001N1+02591+02481101541ADDAA106011991AY161061AY221061GF108991081071008001999999KA1240M+03071MA1999999099951MD1999999+0121MW1631REMSYN100AAXX  22004 82678 21592 80904 10259 20248 39995 40154 76362 887// 333 10307 29088 55015 58012 60121;
0201826780999992006042212004-06767-043017FM-12+012799999V0200901N001510075019N0040001N1+02521+02291101691ADDAA124075991AY161061AY221061GF108991081051008001001001KA1240N+02311MA1999999100101MD1999999+0061MW1021REMSYN088AAXX  22124 82678 21596 80903 10252 20229 30010 40169 70262 88500 333 20231 58006 60764;
0137826780999992006042218004-06767-043017FM-12+012799999V0201401N001510450019N0040001N1+03121+02331101131ADDGF108991041031008001021011MA1999999099561MD1999999-0011REMSYN070AAXX  22184 82678 32596 81403 10312 20233 39956 40113 84321 333 59001;
0178826780999992006042300004-06767-043017FM-12+012799999V0209999C000012200019N0040001N1+02621+02501101351ADDGA1001+999999999GF100991001001999999001001KA1240M+03291MA1999999099761MD1999999-0191REMSYN082AAXX  23004 82678 32996 00000 10262 20250 39976 40135 333 10329 29084 55046 59019;
0201826780999992006042312004-06767-043017FM-12+012799999V0209999C000010075019N0002001N1+02501+02401101471ADDAA124005191AY161061AY211061GF108991081051008001999999KA1240N+02441MA1999999099881MD1999999-0221MW1611REMSYN088AAXX  23124 82678 21592 80000 10250 20240 39988 40147 76161 885// 333 20244 59022 60054;
0137826780999992006042318004-06767-043017FM-12+012799999V0201401N001010450019N0040001N1+03101+02441101021ADDGF105991031081008001021011MA1999999099451MD1999999-0111REMSYN070AAXX  23184 82678 32596 51402 10310 20244 39945 40102 83821 333 59011;
0178826780999992006042400004-06767-043017FM-12+012799999V0209999C000012200019N0002001N1+02521+02421101391ADDGA1001+999999999GF100991001001999999001001KA1240M+03171MA1999999099801MD1999999+0041REMSYN082AAXX  24004 82678 32592 00000 10252 20242 39980 40139 333 10317 29088 55022 58004;
0173826780999992006042412004-06767-043017FM-12+012799999V0200901N001510450019N0040001N1+02801+02401101411ADDAA124000591GF108991041051008001031021KA1240N+02391MA1999999099831MD1999999-0051REMSYN082AAXX  24124 82678 22596 80903 10280 20240 39983 40141 84532 333 20239 59005 69954;
0137826780999992006042418004-06767-043017FM-12+012799999V0201401N001512200019N0040001N1+03181+02311100961ADDGF106991041051008001001011MA1999999099391MD1999999-0061REMSYN070AAXX  24184 82678 32596 61403 10318 20231 39939 40096 84501 333 59006;
0178826780999992006042500004-06767-043017FM-12+012799999V0209999C000012200019N0002001N1+02701+02521101191ADDGA1001+999999999GF100991001001999999001001KA1240M+03241MA1999999099621MD1999999-0181REMSYN082AAXX  25004 82678 32992 00000 10270 20252 39962 40119 333 10324 29080 55077 59018;
0156826780999992006042512004-06767-043017FM-12+012799999V0201401N001010075019N0040001N1+02641+02331101371ADDGF108991081051008001999999KA1240N+02421MA1999999099791MD1999999-0041REMSYN076AAXX  25124 82678 32596 81402 10264 20233 39979 40137 885// 333 20242 59004;
0201826780999992006042518004-06767-043017FM-12+012799999V0201801N001510075019N0040001N1+02921+02271100981ADDAA106000091AY161061AY221061GF107991051051008001001021MA1999999099401MD1999999+0011MW1031REMSYN082AAXX  25184 82678 21596 71803 10292 20227 39940 40098 70362 85502 333 58001 69921;EQDQ01  00002PRCP06
0168826780999992006042600004-06767-043017FM-12+012799999V0200901N001010075019N0002001N1+02581+02441101331ADDGF107991071051008001001001KA1240M+03031MA1999999099751MD1999999+0131REMSYN088AAXX  26004 82678 32592 70902 10258 20244 39975 40133 87500 333 10303 29084 55044 58013;
0192826780999992006042612004-06767-043017FM-12+012799999V0200901N001510450019N0040001N1+02721+02221101521ADDAA124000091GF108991041021008001021011KA1240N+02361MA1999999099941MD1999999+0151REMSYN082AAXX  26124 82678 22596 80903 10272 20222 39994 40152 84221 333 20236 58015 69924;EQDQ01  00002PRCP24
0201826780999992006042618004-06767-043017FM-12+012799999V0201801N001510450019N0040001N1+03031+02341101101ADDAA106000091AY161061AY221061GF106991031021008001021011MA1999999099531MD1999999+0131MW1021REMSYN082AAXX  26184 82678 21596 61803 10303 20234 39953 40110 70262 83221 333 58013 69911;EQDQ01  00002PRCP06
0168826780999992006042700004-06767-043017FM-12+012799999V0209999C000019999999N0002001N1+02621+02441101341ADDGF106991061041999999001001KA1240M+03131MA1999999099761MD1999999+0011REMSYN088AAXX  27004 82678 32992 60000 10262 20244 39976 40134 86400 333 10313 29080 55080 58001;
0192826780999992006042712004-06767-043017FM-12+012799999V0201401N003612200019N0040001N1+02881+02101101461ADDAA124000091GF104991021011008001001011KA1240N+02461MA1999999099881MD1999999-0061REMSYN082AAXX  27124 82678 22596 41407 10288 20210 39988 40146 82101 333 20246 59006 69914;EQDQ01  00002PRCP24
0156826780999992006042718004-06767-043017FM-12+012799999V0201401N002119999999N0040001N1+03141+02241101011ADDGF105991999021008001001001MA1999999099451MD1999999-0081REMSYN070AAXX  27184 82678 32596 51404 10314 20224 39945 40101 83200 333 59008;EQDQ01+000032SCOTLC
0178826780999992006042800004-06767-043017FM-12+012799999V0201401N000512200019N0002001N1+02711+02501101311ADDGA1001+999999999GF100991001001999999001001KA1240M+03271MA1999999099741MD1999999-0021REMSYN082AAXX  28004 82678 32992 01401 10271 20250 39974 40131 333 10327 29075 55105 59002;
0201826780999992006042812004-06767-043017FM-12+012799999V0200501N001010075019N0040001N1+02881+02351101451ADDAA124003091AY161061AY231061GF108991051021008001001021KA1240N+02341MA1999999099881MD1999999+0001MW1021REMSYN088AAXX  28124 82678 21596 80502 10288 20235 39988 40145 70263 85202 333 20234 58000 60034;
0137826780999992006042818004-06767-043017FM-12+012799999V0200501N001512200019N0040001N1+03241+02331100931ADDGF105991031021008001001011MA1999999099371MD1999999-0081REMSYN070AAXX  28184 82678 32596 50503 10324 20233 39937 40093 83201 333 59008;
0178826780999992006042900004-06767-043017FM-12+012799999V0209999C000012200019N0002001N1+02661+02431101321ADDGA1001+999999999GF100991001001999999001001KA1240M+03531MA1999999099751MD1999999+0011REMSYN082AAXX  29004 82678 32992 00000 10266 20243 39975 40132 333 10353 29076 55084 58001;
0201826780999992006042912004-06767-043017FM-12+012799999V0209999C000010075019N0040001N1+02621+02421101441ADDAA124011991AY161061AY211061GF108991081051008001999999KA1240N+02281MA1999999099861MD1999999-0021MW1021REMSYN088AAXX  29124 82678 21596 80000 10262 20242 39986 40144 70261 885// 333 20228 59002 60124;
0137826780999992006042918004-06767-043017FM-12+012799999V0209999C000010075019N0040001N1+02741+02471100991ADDGF108991051051008001021999MA1999999099411MD1999999+0041REMSYN070AAXX  29184 82678 32596 80000 10274 20247 39941 40099 8552/ 333 58004;
0178826780999992006043000004-06767-043017FM-12+012799999V0209999C000012200019N0002001N1+02581+02481101201ADDGA1001+999999999GF100991001001999999001001KA1240M+03051MA1999999099721MD1999999-0031REMSYN082AAXX  30004 82678 32792 00000 10258 20248 39972 40120 333 10305 29090 55005 59003;
0156826780999992006043012004-06767-043017FM-12+012799999V0201401N001510450019N0040001N1+02621+02181101511ADDGF108991041051008001071999KA1240N+02411MA1999999099921MD1999999+0061REMSYN076AAXX  30124 82678 32596 81403 10262 20218 39992 40151 8457/ 333 20241 58006;
0156826780999992006043018004-06767-043017FM-12+012799999V0201801N001019999999N0040001N1+02861+02211101131ADDGF107991999021008001001001MA1999999099601MD1999999+0191REMSYN070AAXX  30184 82678 32596 71802 10286 20221 39960 40113 84200 333 58019;EQDQ01+000042SCOTLC
0197826780999992006050100004-06767-043017FM-12+012799999V0209999C000012200019N0002001N1+02561+02381101411ADDGA1001+999999999GF100991001001999999001001KA1240M+99999MA1999999099831MD1999999+0111REMSYN082AAXX  01004 82678 32992 00000 10256 20238 39983 40141 333 11291 29081 55009 58011;EQDQ01 -02912ATMX  
0201826780999992006050112004-06767-043017FM-12+012799999V0209999C000010075019N0040001N1+02381+02241101701ADDAA124009991AY161061AY221061GF108991051051008001021999KA1240N+02201MA1999999100101MD1999999+0181MW1611REMSYN088AAXX  01124 82678 21596 80000 10238 20224 30010 40170 76162 8552/ 333 20220 58018 60104;
0182826780999992006050118004-06767-043017FM-12+012799999V0201401N000510450019N0040001N1+03001+02391101241ADDAA106006191AY161061AY221061GF107991041051008001031021MA1999999099671MD1999999+0061MW1021REMSYN082AAXX  01184 82678 21596 71401 10300 20239 39967 40124 70262 84532 333 58006 60061;
0168826780999992006050200004-06767-043017FM-12+012799999V0201801N000512200019N0002001N1+02571+02351101501ADDGF103991001001999999001011KA1240M+03061MA1999999099911MD1999999+0081REMSYN088AAXX  02004 82678 32992 31801 10257 20235 39991 40150 80001 333 10306 29084 55033 58008;
0173826780999992006050212004-06767-043017FM-12+012799999V0201401N002612200019N0040001N1+02901+02271101601ADDAA124006191GF104991021011008001051011KA1240N+02321MA1999999100021MD1999999-0081REMSYN082AAXX  02124 82678 22596 41405 10290 20227 30002 40160 82151 333 20232 59008 60064;
0137826780999992006050218004-06767-043017FM-12+012799999V0201401N002612200019N0040001N1+03221+02201101211ADDGF103991031021008001001001MA1999999099651MD1999999-0011REMSYN070AAXX  02184 82678 32596 31405 10322 20220 39965 40121 83200 333 59001;
0178826780999992006050300004-06767-043017FM-12+012799999V0209999C000012200019N0002001N1+02661+02391101321ADDGA1001+999999999GF100991001001999999001001KA1240M+03271MA1999999099751MD1999999-0161REMSYN082AAXX  03004 82678 32992 00000 10266 20239 39975 40132 333 10327 29074 55102 59016;
0156826780999992006050312004-06767-043017FM-12+012799999V0201401N004110450019N0040001N1+02831+02171101491ADDGF106991021011008001041021KA1240N+02271MA1999999099911MD1999999-0111REMSYN076AAXX  03124 82678 32596 61408 10283 20217 39991 40149 82142 333 20227 59011;
0137826780999992006050318004-06767-043017FM-12+012799999V0201401N002110450019N0040001N1+03241+02221101101ADDGF108991031021008001021011MA1999999099531MD1999999-0121REMSYN070AAXX  03184 82678 32596 81404 10324 20222 39953 40110 83221 333 59012;
0168826780999992006050400004-06767-043017FM-12+012799999V0209999C000012200019N0002001N1+02631+02371101281ADDGF103991001001999999001011KA1240M+03271MA1999999099701MD1999999-0051REMSYN088AAXX  04004 82678 32992 30000 10263 20237 39970 40128 80001 333 10327 29074 55089 59005;
0156826780999992006050412004-06767-043017FM-12+012799999V0209999C000011050019N0040001N1+02801+02401101371ADDGF107991031001017501031021KA1240N+02341MA1999999099791MD1999999-0121REMSYN076AAXX  04124 82678 32796 70000 10280 20240 39979 40137 83032 333 20234 59012;
0137826780999992006050418004-06767-043017FM-12+012799999V0201801N000511050019N0040001N1+03241+02281101071ADDGF107991041051008001001021MA1999999099511MD1999999-0021REMSYN070AAXX  04184 82678 32596 71801 10324 20228 39951 40107 84502 333 59002;
0213826780999992006050500004-06767-043017FM-12+012799999V0200901N000510450019N0002001N1+02521+02431101371ADDAA106004191AY161061AY221061GF107991041051008001031021KA1240M+03311MA1999999099791MD1999999+0091MW1021REMSYN100AAXX  05004 82678 21592 70901 10252 20243 39979 40137 70262 84532 333 10331 29082 55070 58009 60041;
0173826780999992006050512004-06767-043017FM-12+012799999V0209999C000011050019N0040001N1+02801+02251101451ADDAA124004191GF105991031001017501031021KA1240N+02341MA1999999099871MD1999999+0081REMSYN082AAXX  05124 82678 22796 50000 10280 20225 39987 40145 83032 333 20234 58008 60044;
0137826780999992006050518004-06767-043017FM-12+012799999V0201401N000512200019N0040001N1+03261+02181101081ADDGF105991041021008001001011MA1999999099521MD1999999+0011REMSYN070AAXX  05184 82678 32596 51401 10326 20218 39952 40108 84201 333 58001;
0178826780999992006050600004-06767-043017FM-12+012799999V0209999C000012200019N0002001N1+02681+02461101331ADDGA1001+999999999GF100991001001999999001001KA1240M+03321MA1999999099761MD1999999-0031REMSYN082AAXX  06004 82678 32792 00000 10268 20246 39976 40133 333 10332 29075 55097 59003;
0156826780999992006050612004-06767-043017FM-12+012799999V0200901N000510075019N0040001N1+02681+02371101541ADDGF108991081051008001999999KA1240N+02401MA1999999099961MD1999999+0091REMSYN076AAXX  06124 82678 32596 80901 10268 20237 39996 40154 885// 333 20240 58009;
0137826780999992006050618004-06767-043017FM-12+012799999V0201801N001510450019N0040001N1+03201+02241101081ADDGF108991041021008001031021MA1999999099511MD1999999-0011REMSYN070AAXX  06184 82678 32596 81803 10320 20224 39951 40108 84232 333 59001;
0168826780999992006050700004-06767-043017FM-12+012799999V0209999C000019999999N0002001N1+02661+02431101411ADDGF105991001001999999001021KA1240M+03271MA1999999099831MD1999999+0071REMSYN088AAXX  07004 82678 32992 50000 10266 20243 39983 40141 80002 333 10327 29079 55054 58007;
0156826780999992006050712004-06767-043017FM-12+012799999V0209999C000010075019N0040001N1+02521+02251101621ADDGF108991081051008001999999KA1240N+02361MA1999999100031MD1999999+0071REMSYN076AAXX  07124 82678 32596 80000 10252 20225 30003 40162 885// 333 20236 58007;
0137826780999992006050718004-06767-043017FM-12+012799999V0201801N001011050019N0040001N1+03061+02221101261ADDGF106991031051008001001021MA1999999099691MD1999999+0181REMSYN070AAXX  07184 82678 32596 61802 10306 20222 39969 40126 83502 333 58018;
0178826780999992006050800004-06767-043017FM-12+012799999V0201801N000512200019N0002001N1+02581+02311101371ADDGA1001+999999999GF100991001001999999001001KA1240M+03141MA1999999099781MD1999999-0051REMSYN082AAXX  08004 82678 32992 01801 10258 20231 39978 40137 333 10314 29079 55059 59005;
0156826780999992006050812004-06767-043017FM-12+012799999V0200901N003610450019N0040001N1+02781+02091101621ADDGF106991021011008001021011KA1240N+02321MA1999999100041MD1999999+0011REMSYN076AAXX  08124 82678 32596 60907 10278 20209 30004 40162 82121 333 20232 58001;
0137826780999992006050818004-06767-043017FM-12+012799999V0201401N002611050019N0040001N1+03101+02091101081ADDGF108991041021008001001021MA1999999099511MD1999999-0081REMSYN070AAXX  08184 82678 32596 81405 10310 20209 39951 40108 84202 333 59008;
0168826780999992006050900004-06767-043017FM-12+012799999V0209999C000011050019N0002001N1+02641+02331101331ADDGF105991031001017501031021KA1240M+03171MA1999999099771MD1999999-0011REMSYN088AAXX  09004 82678 32792 50000 10264 20233 39977 40133 83032 333 10317 29072 55092 59001;
0156826780999992006050912004-06767-043017FM-12+012799999V0201401N003611050019N0040001N1+02801+02061101581ADDGF105991021011008001031011KA1240N+02301MA1999999100001MD1999999-0041REMSYN076AAXX  09124 82678 32596 51407 10280 20206 30000 40158 82131 333 20230 59004;
0137826780999992006050918004-06767-043017FM-12+012799999V0201401N002612200019N0040001N1+03161+02141101071ADDGF104991021021008001001021MA1999999099501MD1999999-0011REMSYN070AAXX  09184 82678 32596 41405 10316 20214 39950 40107 82202 333 59001;
0156826780999992006051012004-06767-043017FM-12+012799999V0201401N001512200019N0040001N1+02761+02281101551ADDGF108991041021008001001011KA1240N+02341MA1999999099971MD1999999-0031REMSYN076AAXX  10124 82678 32596 81403 10276 20228 39997 40155 84201 333 20234 59003;
0156826780999992006051018004-06767-043017FM-12+012799999V0201401N001510075019N0040001N1+03181+02191101111ADDGF108991999021008001001001MA1999999099541MD1999999+0041REMSYN070AAXX  10184 82678 32596 81403 10318 20219 39954 40111 85200 333 58004;EQDQ01+000052SCOTLC
0178826780999992006051100004-06767-043017FM-12+012799999V0201401N001512200019N0002001N1+02681+02461101421ADDGA1001+999999999GF100991001001999999001001KA1240M+03251MA1999999099841MD1999999+0051REMSYN082AAXX  11004 82678 32992 01403 10268 20246 39984 40142 333 10325 29077 55079 58005;
0156826780999992006051112004-06767-043017FM-12+012799999V0201401N003612200019N0040001N1+02801+02111101531ADDGF108991031021008001001011KA1240N+02501MA1999999099951MD1999999-0021REMSYN076AAXX  11124 82678 32596 81407 10280 20211 39995 40153 83201 333 20250 59002;
0156826780999992006051118004-06767-043017FM-12+012799999V0201801N001010075019N0040001N1+03201+02211101071ADDGF108991999021008001001001MA1999999099511MD1999999+0031REMSYN070AAXX  11184 82678 32596 81802 10320 20221 39951 40107 86200 333 58003;EQDQ01+000062SCOTLC
0168826780999992006051200004-06767-043017FM-12+012799999V0209999C000012200019N0002001N1+02661+02431101341ADDGF104991021011008001001011KA1240M+03271MA1999999099771MD1999999-0071REMSYN088AAXX  12004 82678 32592 40000 10266 20243 39977 40134 82101 333 10327 29074 55073 59007;
0156826780999992006051212004-06767-043017FM-12+012799999V0202701N001510120019N0040001N1+02921+02361101581ADDGF108991061081008001011001KA1240N+02461MA1999999100011MD1999999+0061REMSYN076AAXX  12124 82678 32596 82703 10292 20236 30001 40158 86810 333 20246 58006;
0182826780999992006051218004-06767-043017FM-12+012799999V0209999C000010450019N0040001N1+02641+02411101211ADDAA106011991AY161061AY221061GF106991031051008001071001MA1999999099631MD1999999+0121MW1021REMSYN082AAXX  12184 82678 21596 60000 10264 20241 39963 40121 70262 83570 333 58012 60121;
0168826780999992006051300004-06767-043017FM-12+012799999V0201801N000511050019N0002001N1+02561+02441101501ADDGF105991031001017501031021KA1240M+03091MA1999999099921MD1999999+0151REMSYN088AAXX  13004 82678 32792 51801 10256 20244 39992 40150 83032 333 10309 29086 55027 58015;
0201826780999992006051312004-06767-043017FM-12+012799999V0203601N000510075019N0040001N1+02221+02121101931ADDAA124014091AY161061AY221061GF108991051051008001051021KA1240N+02201MA1999999100331MD1999999+0321MW1911REMSYN088AAXX  13124 82678 21596 83601 10222 20212 30033 40193 79162 85552 333 20220 58032 60144;
0137826780999992006051318004-06767-043017FM-12+012799999V0201801N000510075019N0040001N1+03021+02241101421ADDGF107991051051008001001021MA1999999099841MD1999999+0211REMSYN070AAXX  13184 82678 32596 71801 10302 20224 39984 40142 85502 333 58021;
0168826780999992006051400004-06767-043017FM-12+012799999V0209999C000010150019N0002001N1+02521+02381101691ADDGF105991051001017501031001KA1240M+03051MA1999999100071MD1999999+0171REMSYN088AAXX  14004 82678 32792 50000 10252 20238 30007 40169 85030 333 10305 29085 55031 58017;
0201826780999992006051412004-06767-043017FM-12+012799999V0201801N001010075019N0040001N1+02401+02241101961ADDAA124009991AY161061AY221061GF108991051051008001051021KA1240N+02221MA1999999100361MD1999999+0031MW1911REMSYN088AAXX  14124 82678 21596 81802 10240 20224 30036 40196 79162 85552 333 20222 58003 60104;
0137826780999992006051418004-06767-043017FM-12+012799999V0201401N002610450019N0040001N1+03091+02241101451ADDGF105991031031008001021011MA1999999099871MD1999999+0031REMSYN070AAXX  14184 82678 32596 51405 10309 20224 39987 40145 83321 333 58003;
0168826780999992006051500004-06767-043017FM-12+012799999V0209999C000011050019N0002001N1+02551+02361101671ADDGF107991021001017501031021KA1240M+03131MA1999999100081MD1999999-0011REMSYN088AAXX  15004 82678 32792 70000 10255 20236 30008 40167 82032 333 10313 29083 55043 59001;
0156826780999992006051512004-06767-043017FM-12+012799999V0201401N004110450019N0040001N1+02801+02181101801ADDGF105991031021008001041011KA1240N+02331MA1999999100221MD1999999-0141REMSYN076AAXX  15124 82678 32596 51408 10280 20218 30022 40180 83241 333 20233 59014;
0156826780999992006051518004-06767-043017FM-12+012799999V0201401N003119999999N0040001N1+03141+02181101401ADDGF105991999021008001001001MA1999999099831MD1999999-0041REMSYN070AAXX  15184 82678 32596 51406 10314 20218 39983 40140 84200 333 59004;EQDQ01+000042SCOTLC
0168826780999992006051600004-06767-043017FM-12+012799999V0201801N000510450019N0002001N1+02701+02391101581ADDGF107991021041008001031011KA1240M+03181MA1999999100001MD1999999-0081REMSYN088AAXX  16004 82678 32592 71801 10270 20239 30000 40158 82431 333 10318 29073 55103 59008;
0156826780999992006051612004-06767-043017FM-12+012799999V0201401N004612200019N0040001N1+02781+02061101681ADDGF104991021011008001001011KA1240N+02281MA1999999100101MD1999999-0121REMSYN076AAXX  16124 82678 32596 41409 10278 20206 30010 40168 82101 333 20228 59012;
0137826780999992006051618004-06767-043017FM-12+012799999V0200901N003112200019N0040001N1+03021+02211101391ADDGF105991031021008001001011MA1999999099811MD1999999-0021REMSYN070AAXX  16184 82678 32596 50906 10302 20221 39981 40139 83201 333 59002;
0178826780999992006051700004-06767-043017FM-12+012799999V0209999C000012200019N0002001N1+02601+02031101551ADDGA1001+999999999GF100991001001999999001001KA1240M+03091MA1999999099971MD1999999-0031REMSYN082AAXX  17004 82678 32792 00000 10260 20203 39997 40155 333 10309 29067 55082 59003;
0156826780999992006051712004-06767-043017FM-12+012799999V0200901N002610075019N0040001N1+02621+01981101851ADDGF108991051031008001001021KA1240N+02331MA1999999100261MD1999999+0161REMSYN076AAXX  17124 82678 32596 80905 10262 20198 30026 40185 85302 333 20233 58016;
0137826780999992006051718004-06767-043017FM-12+012799999V0200901N002611050019N0040001N1+02921+02041101551ADDGF108991041031008001001021MA1999999099961MD1999999+0151REMSYN070AAXX  17184 82678 32596 80905 10292 20204 39996 40155 84302 333 58015;
0156826780999992006051812004-06767-043017FM-12+012799999V0200901N001512200019N0040001N1+02701+01881101851ADDGF105991021011008001001011KA1240N+02261MA1999999100261MD1999999+0001REMSYN076AAXX  18124 82678 32596 50903 10270 20188 30026 40185 82101 333 20226 58000;
0156826780999992006051818004-06767-043017FM-12+012799999V0200901N001519999999N0040001N1+02981+02011101521ADDGF107991999021008001001001MA1999999099941MD1999999-0021REMSYN070AAXX  18184 82678 32596 70903 10298 20201 39994 40152 83200 333 59002;EQDQ01+000032SCOTLC
0178826780999992006051900004-06767-043017FM-12+012799999V0209999C000012200019N0002001N1+02501+02171101641ADDGA1001+999999999GF100991001001999999001001KA1240M+03111MA1999999100051MD1999999-0011REMSYN082AAXX  19004 82678 32992 00000 10250 20217 30005 40164 333 10311 29070 55101 59001;
0156826780999992006051912004-06767-043017FM-12+012799999V0200901N002612200019N0040001N1+02681+01921101801ADDGF102991011001017501031021KA1240N+02181MA1999999100211MD1999999-0051REMSYN076AAXX  19124 82678 32796 20905 10268 20192 30021 40180 81032 333 20218 59005;
0137826780999992006051918004-06767-043017FM-12+012799999V0200901N001510075019N0040001N1+03101+02061101421ADDGF105991051021008001001001MA1999999099841MD1999999-0101REMSYN070AAXX  19184 82678 32596 50903 10310 20206 39984 40142 85200 333 59010;
0178826780999992006052000004-06767-043017FM-12+012799999V0209999C000012200019N0002001N1+02521+02231101511ADDGA1001+999999999GF100991001001999999001001KA1240M+03161MA1999999099921MD1999999-0131REMSYN082AAXX  20004 82678 32992 00000 10252 20223 39992 40151 333 10316 29071 55104 59013;
0156826780999992006052012004-06767-043017FM-12+012799999V0200901N003610150019N0040001N1+02661+01901101631ADDGF107991061001017501031011KA1240N+02121MA1999999100041MD1999999-0171REMSYN076AAXX  20124 82678 32796 70907 10266 20190 30004 40163 86031 333 20212 59017;
0156826780999992006052018004-06767-043017FM-12+012799999V0200901N001519999999N0040001N1+03121+02051101251ADDGF106991999021008001001001MA1999999099671MD1999999-0171REMSYN070AAXX  20184 82678 32596 60903 10312 20205 39967 40125 83200 333 59017;EQDQ01+000032SCOTLC
0178826780999992006052100004-06767-043017FM-12+012799999V0201801N000512200019N0002001N1+02531+02211101491ADDGA1001+999999999GF100991001001999999001001KA1240M+03161MA1999999099901MD1999999-0021REMSYN082AAXX  21004 82678 32992 01801 10253 20221 39990 40149 333 10316 29070 55103 59002;
0156826780999992006052112004-06767-043017FM-12+012799999V0201401N001010450019N0040001N1+02501+02251101621ADDGF107991021041008001031021KA1240N+02251MA1999999100031MD1999999-0011REMSYN076AAXX  21124 82678 32596 71402 10250 20225 30003 40162 82432 333 20225 59001;
0178826780999992006052200004-06767-043017FM-12+012799999V0209999C000012200019N0002001N1+02541+02291101411ADDGA1001+999999999GF100991001001999999001001KA1240M+03241MA1999999099821MD1999999-0081REMSYN082AAXX  22004 82678 32992 00000 10254 20229 39982 40141 333 10324 29077 55069 59008;
0166826780999992006052212004-06767-043017FM-12+012799999V0200901N003112200019N0040001N1+02781+01911101681ADDGA1001+999999999GF100991001001999999001001KA1240N+02161MA1999999100091MD1999999+0061REMSYN070AAXX  22124 82678 32796 00906 10278 20191 30009 40168 333 20216 58006;
0137826780999992006052218004-06767-043017FM-12+012799999V0201401N002612200019N0040001N1+03201+01861101391ADDGF102991021001008001001011MA1999999099811MD1999999+0161REMSYN070AAXX  22184 82678 32596 21405 10320 20186 39981 40139 82001 333 58016;
0178826780999992006052300004-06767-043017FM-12+012799999V0209999C000012200019N0002001N1+02521+02191101601ADDGA1001+999999999GF100991001001999999001001KA1240M+03231MA1999999100021MD1999999+0201REMSYN082AAXX  23004 82678 32792 00000 10252 20219 30002 40160 333 10323 29067 55102 58020;
0156826780999992006052312004-06767-043017FM-12+012799999V0200901N003112200019N0040001N1+02741+01781101771ADDGF103991021011008001001011KA1240N+02161MA1999999100181MD1999999+0091REMSYN076AAXX  23124 82678 32596 30906 10274 20178 30018 40177 82101 333 20216 58009;
0137826780999992006052318004-06767-043017FM-12+012799999V0200901N001512200019N0040001N1+03141+02041101391ADDGF104991031021008001001011MA1999999099811MD1999999+0001REMSYN070AAXX  23184 82678 32596 40903 10314 20204 39981 40139 83201 333 58000;
0178826780999992006052400004-06767-043017FM-12+012799999V0209999C000012200019N0002001N1+02601+02271101661ADDGA1001+999999999GF100991001001999999001001KA1240M+03251MA1999999100071MD1999999+0021REMSYN082AAXX  24004 82678 32992 00000 10260 20227 30007 40166 333 10325 29068 55098 58002;
0156826780999992006052412004-06767-043017FM-12+012799999V0200901N001511050019N0040001N1+02781+02091101821ADDGF105991011011008001001021KA1240N+02241MA1999999100241MD1999999+0061REMSYN076AAXX  24124 82678 32596 50903 10278 20209 30024 40182 81102 333 20224 58006;
0137826780999992006052418004-06767-043017FM-12+012799999V0200901N001511050019N0040001N1+03181+02191101281ADDGF106991031021008001001021MA1999999099701MD1999999-0111REMSYN070AAXX  24184 82678 32596 60903 10318 20219 39970 40128 83202 333 59011;
0168826780999992006052500004-06767-043017FM-12+012799999V0209999C000012200019N0002001N1+02661+02391101481ADDGF103991001001999999001021KA1240M+03251MA1999999099901MD1999999-0171REMSYN088AAXX  25004 82678 32992 30000 10266 20239 39990 40148 80002 333 10325 29073 55101 59017;
0201826780999992006052512004-06767-043017FM-12+012799999V0201401N000510450019N0040001N1+02721+02301101771ADDAA124007191AY161061AY221061GF108991041051008001031021KA1240N+02381MA1999999100191MD1999999-0051MW1021REMSYN088AAXX  25124 82678 21596 81401 10272 20230 30019 40177 70262 84532 333 20238 59005 60074;
0137826780999992006052518004-06767-043017FM-12+012799999V0200901N002611050019N0040001N1+03141+02161101321ADDGF105991041021008001001021MA1999999099751MD1999999+0051REMSYN070AAXX  25184 82678 32596 50905 10314 20216 39975 40132 84202 333 58005;
0168826780999992006052600004-06767-043017FM-12+012799999V0209999C000011050019N0002001N1+02601+02371101481ADDGF105991041051008001001021KA1240M+03211MA1999999099901MD1999999+0001REMSYN088AAXX  26004 82678 32592 50000 10260 20237 39990 40148 84502 333 10321 29077 55064 58000;
0156826780999992006052612004-06767-043017FM-12+012799999V0201401N003610450019N0040001N1+02801+02061101701ADDGF108991031021008001021011KA1240N+02351MA1999999100121MD1999999-0071REMSYN076AAXX  26124 82678 32596 81407 10280 20206 30012 40170 83221 333 20235 59007;
0156826780999992006052618004-06767-043017FM-12+012799999V0200901N003119999999N0040001N1+03101+02121101351ADDGF107991999021008001001001MA1999999099781MD1999999+0031REMSYN070AAXX  26184 82678 32596 70906 10310 20212 39978 40135 84200 333 58003;EQDQ01+000042SCOTLC
0168826780999992006052700004-06767-043017FM-12+012799999V0200901N001512200019N0002001N1+02701+02171101541ADDGF104991021001017501031021KA1240M+03171MA1999999099961MD1999999+0061REMSYN088AAXX  27004 82678 32792 40903 10270 20217 39996 40154 82032 333 10317 29066 55090 58006;
0156826780999992006052712004-06767-043017FM-12+012799999V0200901N003110450019N0040001N1+02701+02011101681ADDGF108991021011008001021081KA1240N+02271MA1999999100101MD1999999-0021REMSYN076AAXX  27124 82678 32596 80906 10270 20201 30010 40168 82128 333 20227 59002;
0137826780999992006052718004-06767-043017FM-12+012799999V0200901N003111050019N0040001N1+03011+02081101411ADDGF106991031021008001001021MA1999999099831MD1999999+0051REMSYN070AAXX  27184 82678 32596 60906 10301 20208 39983 40141 83202 333 58005;
0178826780999992006052800004-06767-043017FM-12+012799999V0201801N000512200019N0002001N1+02491+02211101531ADDGA1001+999999999GF100991001001999999001001KA1240M+03051MA1999999099931MD1999999-0031REMSYN082AAXX  28004 82678 32992 01801 10249 20221 39993 40153 333 10305 29074 55084 59003;
0156826780999992006052812004-06767-043017FM-12+012799999V0200901N005112200019N0040001N1+02721+02101101721ADDGF104991021011008001001011KA1240N+02161MA1999999100131MD1999999+0031REMSYN076AAXX  28124 82678 32596 40910 10272 20210 30013 40172 82101 333 20216 58003;
0137826780999992006052818004-06767-043017FM-12+012799999V0200901N003112200019N0040001N1+03161+02141101331ADDGF105991031021008001001011MA1999999099751MD1999999-0081REMSYN070AAXX  28184 82678 32596 50906 10316 20214 39975 40133 83201 333 59008;
0178826780999992006052900004-06767-043017FM-12+012799999V0209999C000012200019N0002001N1+02561+02331101481ADDGA1001+999999999GF100991001001999999001001KA1240M+03191MA1999999099901MD1999999-0031REMSYN082AAXX  29004 82678 32792 00000 10256 20233 39990 40148 333 10319 29074 55083 59003;
0156826780999992006052912004-06767-043017FM-12+012799999V0200501N001512200019N0040001N1+02801+02201101661ADDGF104991021011008001001011KA1240N+02141MA1999999100081MD1999999-0051REMSYN076AAXX  29124 82678 32596 40503 10280 20220 30008 40166 82101 333 20214 59005;
0137826780999992006052918004-06767-043017FM-12+012799999V0200901N001511050019N0040001N1+03201+02151101281ADDGF105991031021008001001021MA1999999099711MD1999999-0041REMSYN070AAXX  29184 82678 32596 50903 10320 20215 39971 40128 83202 333 59004;
0178826780999992006053000004-06767-043017FM-12+012799999V0209999C000012200019N0002001N1+02541+02231101491ADDGA1001+999999999GF100991001001999999001001KA1240M+03271MA1999999099911MD1999999+0011REMSYN082AAXX  30004 82678 32792 00000 10254 20223 39991 40149 333 10327 29072 55083 58001;
0156826780999992006053012004-06767-043017FM-12+012799999V0200901N003112200019N0040001N1+02741+02021101561ADDGF104991021011008001001011KA1240N+02121MA1999999099981MD1999999-0101REMSYN076AAXX  30124 82678 32596 40906 10274 20202 39998 40156 82101 333 20212 59010;
0137826780999992006053018004-06767-043017FM-12+012799999V0200901N003110075019N0040001N1+02921+01951101411ADDGF107991051051008001031001MA1999999099821MD1999999+0011REMSYN070AAXX  30184 82678 32596 70906 10292 20195 39982 40141 85530 333 58001;
0168826780999992006053100004-06767-043017FM-12+012799999V0200901N000512200019N0002001N1+02541+02001101611ADDGF103991031001017501031001KA1240M+03031MA1999999100031MD1999999+0121REMSYN088AAXX  31004 82678 32792 30901 10254 20200 30003 40161 83030 333 10303 29066 55066 58012;
0156826780999992006053112004-06767-043017FM-12+012799999V0200901N003112200019N0040001N1+02561+01801101791ADDGF103991001001999999001011KA1240N+02101MA1999999100201MD1999999+0221REMSYN076AAXX  31124 82678 32996 30906 10256 20180 30020 40179 80001 333 20210 58022;
0137826780999992006053118004-06767-043017FM-12+012799999V0201401N002612200019N0040001N1+03041+01881101391ADDGF104991021011008001031011MA1999999099811MD1999999-0011REMSYN070AAXX  31184 82678 32596 41405 10304 20188 39981 40139 82131 333 59001;
0168826780999992006060100004-06767-043017FM-12+012799999V0200901N000512200019N0002001N1+02511+02151101611ADDGF104991031001017501031021KA1240M+03071MA1999999100021MD1999999-0011REMSYN088AAXX  01004 82678 32792 40901 10251 20215 30002 40161 83032 333 10307 29069 55103 59001;
0166826780999992006060112004-06767-043017FM-12+012799999V0200901N003612200019N0040001N1+02631+01811101791ADDGA1001+999999999GF100991001001999999001001KA1240N+02001MA1999999100201MD1999999+0001REMSYN070AAXX  01124 82678 32996 00907 10263 20181 30020 40179 333 20200 58000;
0137826780999992006060118004-06767-043017FM-12+012799999V0200901N002611050019N0040001N1+03061+01801101451ADDGF105991021011008001031011MA1999999099871MD1999999+0061REMSYN070AAXX  01184 82678 32596 50905 10306 20180 39987 40145 82131 333 58006;
0178826780999992006060200004-06767-043017FM-12+012799999V0209999C000012200019N0002001N1+02421+02031101601ADDGA1001+999999999GF100991001001999999001001KA1240M+03111MA1999999100011MD1999999-0011REMSYN082AAXX  02004 82678 32792 00000 10242 20203 30001 40160 333 10311 29066 55104 59001;
0156826780999992006060212004-06767-043017FM-12+012799999V0201401N005112200019N0040001N1+02671+01901101751ADDGF102991011011008001001021KA1240N+01981MA1999999100161MD1999999-0041REMSYN076AAXX  02124 82678 32596 21410 10267 20190 30016 40175 81102 333 20198 59004;
0137826780999992006060218004-06767-043017FM-12+012799999V0200901N003110075019N0040001N1+03041+01851101531ADDGF105991051021008001001001MA1999999099941MD1999999+0071REMSYN070AAXX  02184 82678 32596 50906 10304 20185 39994 40153 85200 333 58007;
0168826780999992006060300004-06767-043017FM-12+012799999V0209999C000010150019N0002001N1+02431+02091101601ADDGF106991061001017501031001KA1240M+03131MA1999999100011MD1999999+0001REMSYN088AAXX  03004 82678 32792 60000 10243 20209 30001 40160 86030 333 10313 29069 55103 58000;
0156826780999992006060312004-06767-043017FM-12+012799999V0200901N005112200019N0040001N1+02561+01751101751ADDGF102991001001999999001011KA1240N+02201MA1999999100151MD1999999-0011REMSYN076AAXX  03124 82678 32996 20910 10256 20175 30015 40175 80001 333 20220 59001;
0137826780999992006060318004-06767-043017FM-12+012799999V0200901N004112200019N0040001N1+03081+01781101381ADDGF105991041011008001001011MA1999999099801MD1999999-0141REMSYN070AAXX  03184 82678 32596 50908 10308 20178 39980 40138 84101 333 59014;
0178826780999992006060400004-06767-043017FM-12+012799999V0201401N001512200019N0002001N1+02541+01861101321ADDGA1001+999999999GF100991001001999999001001KA1240M+03111MA1999999100031MD1999999+0021REMSYN082AAXX  04004 82678 32992 01403 10254 20186 30003 40132 333 10311 29060 55102 58002;
0156826780999992006060412004-06767-043017FM-12+012799999V0201401N004110075019N0040001N1+02581+01801101661ADDGF105991051011008001001001KA1240N+02001MA1999999100071MD1999999+0041REMSYN076AAXX  04124 82678 32596 51408 10258 20180 30007 40166 85100 333 20200 58004;
0137826780999992006060418004-06767-043017FM-12+012799999V0201401N004112200019N0040001N1+03021+01731101341ADDGF106991041021008001001011MA1999999099751MD1999999-0051REMSYN070AAXX  04184 82678 32596 61408 10302 20173 39975 40134 84201 333 59005;
0178826780999992006060500004-06767-043017FM-12+012799999V0201401N000512200019N0002001N1+02441+02011101521ADDGA1001+999999999GF100991001001999999001001KA1240M+03111MA1999999099931MD1999999-0101REMSYN082AAXX  05004 82678 32992 01401 10244 20201 39993 40152 333 10311 29066 55102 59010;
0156826780999992006060512004-06767-043017FM-12+012799999V0201401N004111050019N0040001N1+02581+01821101761ADDGF105991021011008001001021KA1240N+02081MA1999999100161MD1999999+0091REMSYN076AAXX  05124 82678 32596 51408 10258 20182 30016 40176 82102 333 20208 58009;
0137826780999992006060518004-06767-043017FM-12+012799999V0200901N001010075019N0040001N1+02901+01961101341ADDGF107991061051008001001011MA1999999099751MD1999999+0001REMSYN070AAXX  05184 82678 32596 70902 10290 20196 39975 40134 86501 333 58000;
0168826780999992006060600004-06767-043017FM-12+012799999V0209999C000010075019N0002001N1+02681+02221101461ADDGF107991071051008001001001KA1240M+03101MA1999999099881MD1999999-0051REMSYN088AAXX  06004 82678 32592 70000 10268 20222 39988 40146 87500 333 10310 29068 55060 59005;
0156826780999992006060612004-06767-043017FM-12+012799999V0200901N002110075019N0040001N1+02651+01831101791ADDGF108991081061008001999999KA1240N+02451MA1999999100131MD1999999-0031REMSYN076AAXX  06124 82678 32596 80904 10265 20183 30013 40179 886// 333 20245 59003;
0137826780999992006060618004-06767-043017FM-12+012799999V0200901N002610450019N0040001N1+02971+01961101381ADDGF107991031081008001031011MA1999999099811MD1999999+0061REMSYN070AAXX  06184 82678 32596 70905 10297 20196 39981 40138 83831 333 58006;
0168826780999992006060700004-06767-043017FM-12+012799999V0209999C000010450019N0002001N1+02561+02271101661ADDGF105991031021008001031021KA1240M+03071MA1999999100071MD1999999+0191REMSYN088AAXX  07004 82678 32592 50000 10256 20227 30007 40166 83232 333 10307 29071 55027 58019;
0156826780999992006060712004-06767-043017FM-12+012799999V0200901N003112200019N0040001N1+02741+01921101711ADDGF103991021021008001001011KA1240N+02221MA1999999100121MD1999999-0011REMSYN076AAXX  07124 82678 32596 30906 10274 20192 30012 40171 82201 333 20222 59001;
0137826780999992006060718004-06767-043017FM-12+012799999V0201401N001510075019N0200001N1+03221+01951101361ADDGF105991051011008001001001MA1999999099781MD1999999-0031REMSYN070AAXX  07184 82678 32598 51403 10322 20195 39978 40136 85100 333 59003;
0168826780999992006060800004-06767-043017FM-12+012799999V0200901N000512200019N0002001N1+02521+02231101531ADDGF102991021001017501031001KA1240M+03261MA1999999099951MD1999999-0121REMSYN088AAXX  08004 82678 32792 20901 10252 20223 39995 40153 82030 333 10326 29069 55094 59012;
0156826780999992006060812004-06767-043017FM-12+012799999V0200901N004112200019N0040001N1+02671+01791101691ADDGF104991021011008001001011KA1240N+02141MA1999999100101MD1999999-0021REMSYN076AAXX  08124 82678 32596 40908 10267 20179 30010 40169 82101 333 20214 59002;
0137826780999992006060818004-06767-043017FM-12+012799999V0201801N003610450019N0040001N1+03131+01851101291ADDGF108991031011008001031011MA1999999099711MD1999999-0071REMSYN070AAXX  08184 82678 32596 81807 10313 20185 39971 40129 83131 333 59007;
0168826780999992006060900004-06767-043017FM-12+012799999V0200901N001012200019N0002001N1+02671+02311101461ADDGF102991001001999999001011KA1240M+03171MA1999999099871MD1999999-0081REMSYN088AAXX  09004 82678 32992 20902 10267 20231 39987 40146 80001 333 10317 29067 55102 59008;
0156826780999992006060912004-06767-043017FM-12+012799999V0201401N004112200019N0040001N1+02661+01821101571ADDGF103991031021008001001001KA1240N+02081MA1999999099981MD1999999-0121REMSYN076AAXX  09124 82678 32596 31408 10266 20182 39998 40157 83200 333 20208 59012;
0137826780999992006060918004-06767-043017FM-12+012799999V0200901N002612200019N0040001N1+03181+01841101201ADDGF103991021011008001001011MA1999999099621MD1999999-0091REMSYN070AAXX  09184 82678 32596 30905 10318 20184 39962 40120 82101 333 59009;
0178826780999992006061000004-06767-043017FM-12+012799999V0209999C000012200019N0002001N1+02561+02151101411ADDGA1001+999999999GF100991001001999999001001KA1240M+03231MA1999999099831MD1999999-0041REMSYN082AAXX  10004 82678 32992 00000 10256 20215 39983 40141 333 10323 29065 55103 59004;
0156826780999992006061012004-06767-043017FM-12+012799999V0201401N003112200019N0040001N1+02681+01941101531ADDGF102991021011008001001011KA1240N+02061MA1999999099941MD1999999-0041REMSYN076AAXX  10124 82678 32596 21406 10268 20194 39994 40153 82101 333 20206 59004;
0137826780999992006061018004-06767-043017FM-12+012799999V0201401N002612200019N0040001N1+03221+01881101131ADDGF104991031021008001001011MA1999999099561MD1999999-0061REMSYN070AAXX  10184 82678 32596 41405 10322 20188 39956 40113 83201 333 59006;
0178826780999992006061100004-06767-043017FM-12+012799999V0209999C000012200019N0002001N1+02521+02051101361ADDGA1001+999999999GF100991001001999999001001KA1240M+03271MA1999999099781MD1999999-0051REMSYN082AAXX  11004 82678 32992 00000 10252 20205 39978 40136 333 10327 29065 55098 59005;
0156826780999992006061112004-06767-043017FM-12+012799999V0201401N001512200019N0040001N1+02561+01731101631ADDGF102991001001999999001011KA1240N+02001MA1999999100041MD1999999+0101REMSYN076AAXX  11124 82678 32996 21403 10256 20173 30004 40163 80001 333 20200 58010;
0137826780999992006061118004-06767-043017FM-12+012799999V0201801N001512200019N0040001N1+03241+01821101321ADDGF105991011011008001001011MA1999999099741MD1999999+0181REMSYN070AAXX  11184 82678 32596 51803 10324 20182 39974 40132 81101 333 58018;
0156826780999992006061212004-06767-043017FM-12+012799999V0200901N000512200019N0040001N1+02761+01861101701ADDGF104991001001999999001021KA1240N+02101MA1999999100111MD1999999+0071REMSYN076AAXX  12124 82678 32996 40901 10276 20186 30011 40170 80002 333 20210 58007;
0137826780999992006061218004-06767-043017FM-12+012799999V0201801N001012200019N0040001N1+03281+01541101391ADDGF104991031011008001001021MA1999999099821MD1999999+0081REMSYN070AAXX  12184 82678 32596 41802 10328 20154 39982 40139 83102 333 58008;
0168826780999992006061300004-06767-043017FM-12+012799999V0209999C000010150019N0002001N1+02541+02131101511ADDGF107991071001017501031001KA1240M+03371MA1999999099931MD1999999+0081REMSYN088AAXX  13004 82678 32792 70000 10254 20213 39993 40151 87030 333 10337 29064 55102 58008;
0175826780999992006061312004-06767-043017FM-12+012799999V0201401N003110075019N0040001N1+02701+02061101791ADDGF108991999021008001001001KA1240N+02371MA1999999100201MD1999999+0091REMSYN076AAXX  13124 82678 32596 81406 10270 20206 30020 40179 85200 333 20237 58009;EQDQ01+000052SCOTLC
0156826780999992006061318004-06767-043017FM-12+012799999V0202701N001519999999N0040001N1+03001+02241101441ADDGF106991999021008001001001MA1999999099861MD1999999+0041REMSYN070AAXX  13184 82678 32596 62703 10300 20224 39986 40144 83200 333 58004;EQDQ01+000032SCOTLC
0213826780999992006061400004-06767-043017FM-12+012799999V0201401N001519999999N0002001N1+02531+02151101721ADDAA106000591AY161061AY221061GF106991021001008001041021KA1240M+03151MA1999999100131MD1999999+0201MW1021REMSYN100AAXX  14004 82678 21592 61403 10253 20215 30013 40172 70262 82042 333 10315 29073 55063 58020 69961;
0173826780999992006061412004-06767-043017FM-12+012799999V0201401N003610075019N0040001N1+02461+01971101901ADDAA124000591GF108991061041008001001021KA1240N+02161MA1999999100291MD1999999+0091REMSYN082AAXX  14124 82678 22596 81407 10246 20197 30029 40190 86402 333 20216 58009 69964;
0137826780999992006061418004-06767-043017FM-12+012799999V0201401N004110450019N0040001N1+03081+01851101431ADDGF107991031021008001011021MA1999999099851MD1999999-0011REMSYN070AAXX  14184 82678 32596 71408 10308 20185 39985 40143 83212 333 59001;
0178826780999992006061500004-06767-043017FM-12+012799999V0201401N001012200019N0002001N1+02411+01891101571ADDGA1001+999999999GF100991001001999999001001KA1240M+03161MA1999999099971MD1999999-0161REMSYN082AAXX  15004 82678 32992 01402 10241 20189 39997 40157 333 10316 29067 55060 59016;
0156826780999992006061512004-06767-043017FM-12+012799999V0200901N003112200019N0040001N1+02661+01871101801ADDGF103991021031008001001021KA1240N+02261MA1999999100211MD1999999-0081REMSYN076AAXX  15124 82678 32596 30906 10266 20187 30021 40180 82302 333 20226 59008;
0137826780999992006061518004-06767-043017FM-12+012799999V0201401N005112200019N0040001N1+03081+01711101431ADDGF104991031021008001001021MA1999999099851MD1999999+0001REMSYN070AAXX  15184 82678 32596 41410 10308 20171 39985 40143 83202 333 58000;
0168826780999992006061600004-06767-043017FM-12+012799999V0202301N000510075019N0002001N1+02521+02071101561ADDGF105991051041008001001001KA1240M+03141MA1999999099971MD1999999+0001REMSYN088AAXX  16004 82678 32592 52301 10252 20207 39997 40156 85400 333 10314 29064 55097 58000;
0156826780999992006061612004-06767-043017FM-12+012799999V0200901N003612200019N0040001N1+02681+01921101801ADDGF103991021011008001001011KA1240N+02241MA1999999100211MD1999999+0001REMSYN076AAXX  16124 82678 32596 30907 10268 20192 30021 40180 82101 333 20224 58000;
0137826780999992006061618004-06767-043017FM-12+012799999V0200901N002612200019N0040001N1+03201+01821101451ADDGF104991021021008001011021MA1999999099881MD1999999+0031REMSYN070AAXX  16184 82678 32596 40905 10320 20182 39988 40145 82212 333 58003;
0178826780999992006061700004-06767-043017FM-12+012799999V0209999C000012200019N0002001N1+02561+02191101611ADDGA1001+999999999GF100991001001999999001001KA1240M+03291MA1999999100021MD1999999+0051REMSYN082AAXX  17004 82678 32792 00000 10256 20219 30002 40161 333 10329 29067 55097 58005;
0156826780999992006061712004-06767-043017FM-12+012799999V0200901N004112200019N0040001N1+02681+01891101811ADDGF102991021011008001001001KA1240N+02261MA1999999100221MD1999999+0011REMSYN076AAXX  17124 82678 32596 20908 10268 20189 30022 40181 82100 333 20226 58001;
0137826780999992006061718004-06767-043017FM-12+012799999V0200901N003110075019N0040001N1+03141+01801101531ADDGF105991051021008001001001MA1999999099951MD1999999+0071REMSYN070AAXX  17184 82678 32596 50906 10314 20180 39995 40153 85200 333 58007;
0178826780999992006061800004-06767-043017FM-12+012799999V0209999C000012200019N0002001N1+02501+01981101611ADDGA1001+999999999GF100991001001999999001001KA1240M+03211MA1999999100021MD1999999+0001REMSYN082AAXX  18004 82678 32992 00000 10250 20198 30002 40161 333 10321 29063 55104 58000;
0156826780999992006061812004-06767-043017FM-12+012799999V0200901N005112200019N0040001N1+02661+01871101831ADDGF104991021011008001031001KA1240N+02201MA1999999100241MD1999999+0021REMSYN076AAXX  18124 82678 32596 40910 10266 20187 30024 40183 82130 333 20220 58002;
0137826780999992006061818004-06767-043017FM-12+012799999V0201401N001510075019N0040001N1+02861+01981101561ADDGF107991061051008001031001MA1999999099971MD1999999+0021REMSYN070AAXX  18184 82678 32596 71403 10286 20198 39997 40156 86530 333 58002;
0178826780999992006061900004-06767-043017FM-12+012799999V0209999C000012200019N0002001N1+02461+01941101641ADDGA1001+999999999GF100991001001999999001001KA1240M+02951MA1999999100051MD1999999+0031REMSYN082AAXX  19004 82678 32992 00000 10246 20194 30005 40164 333 10295 29067 55049 58003;
0156826780999992006061912004-06767-043017FM-12+012799999V0201401N005112200019N0040001N1+02531+01631101891ADDGF104991031011008001041001KA1240N+02201MA1999999100291MD1999999+0051REMSYN076AAXX  19124 82678 32596 41410 10253 20163 30029 40189 83140 333 20220 58005;
0137826780999992006061918004-06767-043017FM-12+012799999V0200901N003110075019N0040001N1+02941+01761101471ADDGF105991051021008001001001MA1999999099891MD1999999-0081REMSYN070AAXX  19184 82678 32596 50906 10294 20176 39989 40147 85200 333 59008;
0168826780999992006062000004-06767-043017FM-12+012799999V0209999C000019999999N0002001N1+02401+01931101651ADDGF108991051001008001031011KA1240M+03071MA1999999100051MD1999999+0001REMSYN088AAXX  20004 82678 32592 80000 10240 20193 30005 40165 85031 333 10307 29064 55087 58000;
0156826780999992006062012004-06767-043017FM-12+012799999V0200901N005112200019N0040001N1+02601+01791101821ADDGF102991021011008001001001KA1240N+02221MA1999999100221MD1999999-0071REMSYN076AAXX  20124 82678 32596 20910 10260 20179 30022 40182 82100 333 20222 59007;
0137826780999992006062018004-06767-043017FM-12+012799999V0201401N003610075019N0040001N1+03071+01701101471ADDGF105991051041008001001001MA1999999099891MD1999999+0001REMSYN070AAXX  20184 82678 32596 51407 10307 20170 39989 40147 85400 333 58000;
0178826780999992006062100004-06767-043017FM-12+012799999V0201401N001512200019N0002001N1+02491+01781101721ADDGA1001+999999999GF100991001001999999001001KA1240M+03151MA1999999100131MD1999999+0081REMSYN082AAXX  21004 82678 32992 01403 10249 20178 30013 40172 333 10315 29059 55091 58008;
0156826780999992006062112004-06767-043017FM-12+012799999V0200901N004112200019N0040001N1+02561+01671101941ADDGF103991031001008001001011KA1240N+02061MA1999999100341MD1999999+0121REMSYN076AAXX  21124 82678 32596 30908 10256 20167 30034 40194 83001 333 20206 58012;
0137826780999992006062118004-06767-043017FM-12+012799999V0200901N004112200019N0040001N1+03121+01751101571ADDGF104991031021008001001021MA1999999099991MD1999999+0101REMSYN070AAXX  21184 82678 32596 40908 10312 20175 39999 40157 83202 333 58010;
0178826780999992006062200004-06767-043017FM-12+012799999V0209999C000012200019N0002001N1+02521+01931101771ADDGA1001+999999999GF100991001001999999001001KA1240M+03211MA1999999100181MD1999999+0051REMSYN082AAXX  22004 82678 32792 00000 10252 20193 30018 40177 333 10321 29060 55097 58005;
0175826780999992006062212004-06767-043017FM-12+012799999V0200901N003612200019N0040001N1+02721+01851101891ADDGF102991999021008001001011KA1240N+02301MA1999999100301MD1999999-0031REMSYN076AAXX  22124 82678 32596 20907 10272 20185 30030 40189 80201 333 20230 59003;EQDQ01+000002SCOTLC
0137826780999992006062218004-06767-043017FM-12+012799999V0200901N003111050019N0040001N1+03201+01781101411ADDGF105991041021008001001021MA1999999099841MD1999999-0151REMSYN070AAXX  22184 82678 32596 50906 10320 20178 39984 40141 84202 333 59015;
0178826780999992006062300004-06767-043017FM-12+012799999V0209999C000012200019N0002001N1+02621+02101101671ADDGA1001+999999999GF100991001001999999001001KA1240M+03251MA1999999100081MD1999999-0101REMSYN082AAXX  23004 82678 32992 00000 10262 20210 30008 40167 333 10325 29062 55097 59010;
0156826780999992006062312004-06767-043017FM-12+012799999V0200901N004112200019N0040001N1+02621+01701101841ADDGF102991021011008001001001KA1240N+02401MA1999999100251MD1999999-0051REMSYN076AAXX  23124 82678 32596 20908 10262 20170 30025 40184 82100 333 20240 59005;
0137826780999992006062318004-06767-043017FM-12+012799999V0200901N004110075019N0040001N1+03101+01541101521ADDGF105991051051008001001001MA1999999099941MD1999999+0101REMSYN070AAXX  23184 82678 32596 50908 10310 20154 39994 40152 85500 333 58010;
0178826780999992006062400004-06767-043017FM-12+012799999V0200901N000512200019N0002001N1+02421+01821101691ADDGA1001+999999999GF100991001001999999001001KA1240M+03171MA1999999100091MD1999999+0011REMSYN082AAXX  24004 82678 32992 00901 10242 20182 30009 40169 333 10317 29058 55096 58001;
0156826780999992006062412004-06767-043017FM-12+012799999V0200901N004112200019N0040001N1+02561+01731101751ADDGF101991011001017501031001KA1240N+01861MA1999999100151MD1999999-0101REMSYN076AAXX  24124 82678 32796 10908 10256 20173 30015 40175 81030 333 20186 59010;
0137826780999992006062418004-06767-043017FM-12+012799999V0200901N003110075019N0040001N1+03201+01631101401ADDGF105991051021008001001001MA1999999099811MD1999999-0131REMSYN070AAXX  24184 82678 32596 50906 10320 20163 39981 40140 85200 333 59013;
0168826780999992006062500004-06767-043017FM-12+012799999V0209999C000012200019N0002001N1+02621+01911101581ADDGF101991011001017501031001KA1240M+03271MA1999999099991MD1999999-0101REMSYN088AAXX  25004 82678 32792 10000 10262 20191 39999 40158 81030 333 10327 29057 55093 59010;
0156826780999992006062512004-06767-043017FM-12+012799999V0200901N005112200019N0040001N1+02661+01791101741ADDGF103991031011008001001001KA1240N+02141MA1999999100151MD1999999+0001REMSYN076AAXX  25124 82678 32596 30910 10266 20179 30015 40174 83100 333 20214 58000;
0137826780999992006062518004-06767-043017FM-12+012799999V0200901N003110075019N0040001N1+03101+01771101381ADDGF107991061041008001031001MA1999999099801MD1999999-0011REMSYN070AAXX  25184 82678 32596 70906 10310 20177 39980 40138 86430 333 59001;
0168826780999992006062600004-06767-043017FM-12+012799999V0201801N000510075019N0002001N1+02631+01961101661ADDGF106991061041008001001001KA1240M+03151MA1999999100071MD1999999+0081REMSYN088AAXX  26004 82678 32592 61801 10263 20196 30007 40166 86400 333 10315 29060 55079 58008;
0156826780999992006062612004-06767-043017FM-12+012799999V0200901N003612200019N0040001N1+02781+01761101821ADDGF103991031001017501031001KA1240N+02351MA1999999100241MD1999999+0091REMSYN076AAXX  26124 82678 32796 30907 10278 20176 30024 40182 83030 333 20235 58009;
0137826780999992006062618004-06767-043017FM-12+012799999V0200901N002612200019N0040001N1+03301+01761101411ADDGF103991021011008001001011MA1999999099841MD1999999+0041REMSYN070AAXX  26184 82678 32596 30905 10330 20176 39984 40141 82101 333 58004;
0168826780999992006062700004-06767-043017FM-12+012799999V0202301N000512200019N0002001N1+02711+02031101581ADDGF103991011001017501031011KA1240M+03351MA1999999100001MD1999999-0071REMSYN088AAXX  27004 82678 32792 32301 10271 20203 30000 40158 81031 333 10335 29057 55097 59007;
0166826780999992006062712004-06767-043017FM-12+012799999V0201401N001512200019N0040001N1+02861+01951101881ADDGA1001+999999999GF100991001001999999001001KA1240N+02141MA1999999100301MD1999999+0061REMSYN070AAXX  27124 82678 32996 01403 10286 20195 30030 40188 333 20214 58006;
0156826780999992006062718004-06767-043017FM-12+012799999V0200901N001019999999N0040001N1+03281+01871101481ADDGF105991999021008001001001MA1999999099911MD1999999-0071REMSYN070AAXX  27184 82678 32596 50902 10328 20187 39991 40148 86200 333 59007;EQDQ01+000062SCOTLC
0178826780999992006062800004-06767-043017FM-12+012799999V0209999C000012200019N0002001N1+02661+02071101571ADDGA1001+999999999GF100991001001999999001001KA1240M+03531MA1999999099991MD1999999-0011REMSYN082AAXX  28004 82678 32992 00000 10266 20207 39999 40157 333 10353 29060 55104 59001;
0156826780999992006062812004-06767-043017FM-12+012799999V0200901N001012200019N0040001N1+02761+02121101851ADDGF102991021001008001001011KA1240N+02181MA1999999100261MD1999999-0041REMSYN076AAXX  28124 82678 32596 20902 10276 20212 30026 40185 82001 333 20218 59004;
0137826780999992006062818004-06767-043017FM-12+012799999V0209999C000012200019N0040001N1+03341+01951101481ADDGF104991021021008001001021MA1999999099911MD1999999+0001REMSYN070AAXX  28184 82678 32596 40000 10334 20195 39991 40148 82202 333 58000;
0178826780999992006062900004-06767-043017FM-12+012799999V0209999C000012200019N0002001N1+02641+02161101651ADDGA1001+999999999GF100991001001999999001001KA1240M+03451MA1999999100071MD1999999+0081REMSYN082AAXX  29004 82678 32992 00000 10264 20216 30007 40165 333 10345 29066 55094 58008;
0156826780999992006063012004-06767-043017FM-12+012799999V0200901N004112200019N0040001N1+02701+01781101951ADDGF102991021011008001001001KA1240N+02341MA1999999100361MD1999999+0021REMSYN076AAXX  30124 82678 32596 20908 10270 20178 30036 40195 82100 333 20234 58002;
0137826780999992006063018004-06767-043017FM-12+012799999V0201401N004110075019N0040001N1+03221+01771101641ADDGF106991061021008001001001MA1999999100061MD1999999+0111REMSYN070AAXX  30184 82678 32596 61408 10322 20177 30006 40164 86200 333 58011;
0168826780999992006070100004-06767-043017FM-12+012799999V0201401N000512200019N0002001N1+02681+01861101791ADDGF103991031001017501031001KA1240M+03311MA1999999100201MD1999999+0151REMSYN088AAXX  01004 82678 32792 31401 10268 20186 30020 40179 83030 333 10331 29055 55086 58015;
0156826780999992006070112004-06767-043017FM-12+012799999V0201401N005110075019N0040001N1+02681+01811102001ADDGF107991071051008001001001KA1240N+02221MA1999999100411MD1999999+0051REMSYN076AAXX  01124 82678 32596 71410 10268 20181 30041 40200 87500 333 20222 58005;
0188826780999992006070118004-06767-043017FM-12+012799999V0201401N002619999999N0040001N1+02801+01811101751ADDGF108991999021008001001001MA1999999999999MD1999999+0101REMSYN070AAXX  01184 82678 32596 81405 10280 20181 39001 40175 83200 333 58010;EQDQ01+000032SCOTLCQ02+090013APOSP Q03 090013APOSP 
0168826780999992006070200004-06767-043017FM-12+012799999V0209999C000010075019N0002001N1+02571+02131101821ADDGF108991081041008001001001KA1240M+02851MA1999999100231MD1999999+0031REMSYN088AAXX  02004 82678 32592 80000 10257 20213 30023 40182 88400 333 10285 29067 55029 58003;
0156826780999992006070212004-06767-043017FM-12+012799999V0201401N005110450019N0040001N1+02661+01871102001ADDGF105991031011008001041011KA1240N+02381MA1999999100411MD1999999+0001REMSYN076AAXX  02124 82678 32596 51410 10266 20187 30041 40200 83141 333 20238 58000;
0137826780999992006070218004-06767-043017FM-12+012799999V0201401N003610450019N0040001N1+03131+01751101651ADDGF107991041081008001021011MA1999999100071MD1999999-0091REMSYN070AAXX  02184 82678 32596 71407 10313 20175 30007 40165 84821 333 59009;
0168826780999992006070300004-06767-043017FM-12+012799999V0201801N000512200019N0002001N1+02491+01921101941ADDGF104991041001017501051001KA1240M+03211MA1999999100351MD1999999+0121REMSYN088AAXX  03004 82678 32792 41801 10249 20192 30035 40194 84050 333 10321 29062 55086 58012;
0166826780999992006070312004-06767-043017FM-12+012799999V0201401N002612200019N0040001N1+02641+01601102021ADDGA1001+999999999GF100991001001999999001001KA1240N+02151MA1999999100421MD1999999+0011REMSYN070AAXX  03124 82678 32796 01405 10264 20160 30042 40202 333 20215 58001;
0137826780999992006070318004-06767-043017FM-12+012799999V0200901N002612200019N0040001N1+03141+01771101651ADDGF104991031021008001001021MA1999999100061MD1999999-0011REMSYN070AAXX  03184 82678 32596 40905 10314 20177 30006 40165 83202 333 59001;
0178826780999992006070400004-06767-043017FM-12+012799999V0209999C000012200019N0002001N1+02521+02001101871ADDGA1001+999999999GF100991001001999999001001KA1240M+03251MA1999999100281MD1999999-0071REMSYN082AAXX  04004 82678 32792 00000 10252 20200 30028 40187 333 10325 29061 55101 59007;
0156826780999992006070412004-06767-043017FM-12+012799999V0200901N005112200019N0040001N1+02641+01831102031ADDGF102991021001008001001011KA1240N+02101MA1999999100441MD1999999+0021REMSYN076AAXX  04124 82678 32596 20910 10264 20183 30044 40203 82001 333 20210 58002;
0137826780999992006070418004-06767-043017FM-12+012799999V0201401N003612200019N0040001N1+02061+01771101621ADDGF104991031021008001001021MA1999999100931MD1999999-0031REMSYN070AAXX  04184 82678 32596 41407 10206 20177 30093 40162 83202 333 59003;
0168826780999992006070500004-06767-043017FM-12+012799999V0201801N001010150019N0002001N1+02581+01801101841ADDGF106991061001017501031001KA1240M+03181MA1999999100251MD1999999-0031REMSYN088AAXX  05004 82678 32792 61802 10258 20180 30025 40184 86030 333 10318 29058 55102 59003;
0156826780999992006070512004-06767-043017FM-12+012799999V0201401N005112200019N0040001N1+02661+01791102001ADDGF103991011011008001031011KA1240N+02201MA1999999100411MD1999999-0031REMSYN076AAXX  05124 82678 32596 31410 10266 20179 30041 40200 81131 333 20220 59003;
0137826780999992006070518004-06767-043017FM-12+012799999V0200901N001511050019N0040001N1+03061+01771101691ADDGF106991041051008001001021MA1999999100101MD1999999+0071REMSYN070AAXX  05184 82678 32596 60903 10306 20177 30010 40169 84502 333 58007;
0178826780999992006070600004-06767-043017FM-12+012799999V0209999C000012200019N0002001N1+02421+01861101841ADDGA1001+999999999GF100991001001999999001001KA1240M+03171MA1999999100251MD1999999+0001REMSYN082AAXX  06004 82678 32992 00000 10242 20186 30025 40184 333 10317 29062 55086 58000;
0156826780999992006070612004-06767-043017FM-12+012799999V0200901N003119999999N0040001N1+02681+01761102041ADDGF105991001001999999001021KA1240N+02101MA1999999100441MD1999999+0031REMSYN076AAXX  06124 82678 32996 50906 10268 20176 30044 40204 80002 333 20210 58003;
0137826780999992006070618004-06767-043017FM-12+012799999V0201401N001510075019N0040001N1+03301+01641101631ADDGF106991051021008001001011MA1999999100051MD1999999-0051REMSYN070AAXX  06184 82678 32596 61403 10330 20164 30005 40163 85201 333 59005;
0168826780999992006070700004-06767-043017FM-12+012799999V0209999C000010150019N0002001N1+02561+01801101841ADDGF105991051001017501031001KA1240M+03371MA1999999100251MD1999999+0001REMSYN088AAXX  07004 82678 32792 50000 10256 20180 30025 40184 85030 333 10337 29055 55097 58000;
0156826780999992006070712004-06767-043017FM-12+012799999V0200901N003610075019N0040001N1+02401+01961102011ADDGF105991051011008001001001KA1240N+02201MA1999999100421MD1999999-0021REMSYN076AAXX  07124 82678 32596 50907 10240 20196 30042 40201 85100 333 20220 59002;
0137826780999992006070718004-06767-043017FM-12+012799999V0200901N002610450019N0040001N1+03191+01841101571ADDGF105991031021008001031021MA1999999099991MD1999999-0061REMSYN070AAXX  07184 82678 32596 50905 10319 20184 39999 40157 83232 333 59006;
0168826780999992006070800004-06767-043017FM-12+012799999V0200901N001510075019N0002001N1+02701+01991101891ADDGF108991081051008001999999KA1240M+03321MA1999999100301MD1999999+0051REMSYN088AAXX  08004 82678 32592 80903 10270 20199 30030 40189 885// 333 10332 29060 55083 58005;
0173826780999992006070812004-06767-043017FM-12+012799999V0200901N004612200019N0040001N1+02581+01801101881ADDAA124000391GF103991031011008001001001KA1240N+02171MA1999999100291MD1999999-0131REMSYN082AAXX  08124 82678 22596 30909 10258 20180 30029 40188 83100 333 20217 59013 69934;
0137826780999992006070818004-06767-043017FM-12+012799999V0200901N002612200019N0040001N1+03151+01771101411ADDGF102991021011008001001001MA1999999099841MD1999999-0151REMSYN070AAXX  08184 82678 32596 20905 10315 20177 39984 40141 82100 333 59015;
0178826780999992006070900004-06767-043017FM-12+012799999V0201801N000512200019N0002001N1+02531+01911101611ADDGA1001+999999999GF100991001001999999001001KA1240M+03271MA1999999100021MD1999999-0281REMSYN082AAXX  09004 82678 32992 01801 10253 20191 30002 40161 333 10327 29061 55104 59028;
0166826780999992006070912004-06767-043017FM-12+012799999V0201401N004112200019N0040001N1+02641+01661101851ADDGA1001+999999999GF100991001001999999001001KA1240N+02141MA1999999100261MD1999999-0031REMSYN070AAXX  09124 82678 32996 01408 10264 20166 30026 40185 333 20214 59003;
0137826780999992006070918004-06767-043017FM-12+012799999V0201401N004112200019N0040001N1+03321+01701101401ADDGF104991041011008001001001MA1999999099831MD1999999-0011REMSYN070AAXX  09184 82678 32596 41408 10332 20170 39983 40140 84100 333 59001;
0178826780999992006071000004-06767-043017FM-12+012799999V0200901N003112200019N0002001N1+02801+01721101561ADDGA1001+999999999GF100991001001999999001001KA1240M+03411MA1999999099981MD1999999-0041REMSYN082AAXX  10004 82678 32992 00906 10280 20172 39998 40156 333 10341 29049 55100 59004;
0156826780999992006071012004-06767-043017FM-12+012799999V0201401N005112200019N0040001N1+02661+01651101811ADDGF103991011021017501031021KA1240N+02281MA1999999100231MD1999999-0031REMSYN076AAXX  10124 82678 32796 31410 10266 20165 30023 40181 81232 333 20228 59003;
0147826780999992006071018004-06767-043017FM-12+012799999V0200901N003112200019N0040001N1+03261+01231101411ADDGA1001+999999999GF100991001001999999001001MA1999999099841MD1999999+0011REMSYN064AAXX  10184 82678 32996 00906 10326 20123 39984 40141 333 58001;
0178826780999992006071100004-06767-043017FM-12+012799999V0209999C000012200019N0002001N1+02381+01561101591ADDGA1001+999999999GF100991001001999999001001KA1240M+03331MA1999999100001MD1999999+0021REMSYN082AAXX  11004 82678 32992 00000 10238 20156 30000 40159 333 10333 29051 55103 58002;
0156826780999992006071112004-06767-043017FM-12+012799999V0201401N003612200019N0040001N1+02581+01801101851ADDGF103991031021008001001001KA1240N+02011MA1999999100251MD1999999+0021REMSYN076AAXX  11124 82678 32596 31407 10258 20180 30025 40185 83200 333 20201 58002;
0137826780999992006071118004-06767-043017FM-12+012799999V0200901N002610450019N0040001N1+03381+01791101371ADDGF105991041081008001031001MA1999999099801MD1999999-0041REMSYN070AAXX  11184 82678 32596 50905 10338 20179 39980 40137 84830 333 59004;
0168826780999992006071200004-06767-043017FM-12+012799999V0201801N000510450019N0002001N1+02731+01931101521ADDGF105991021041008001031001KA1240M+03451MA1999999099941MD1999999-0061REMSYN088AAXX  12004 82678 32592 51801 10273 20193 39994 40152 82430 333 10345 29056 55091 59006;
0175826780999992006071212004-06767-043017FM-12+012799999V0200901N004612200019N0040001N1+02701+01411101851ADDGF103991999001017501011001KA1240N+02431MA1999999100261MD1999999+0011REMSYN076AAXX  12124 82678 32796 30909 10270 20141 30026 40185 82010 333 20243 58001;EQDQ01+000022SCOTLC
0178826780999992006071300004-06767-043017FM-12+012799999V0201401N001512200019N0002001N1+02771+01691101591ADDGA1001+999999999GF100991001001999999001001KA1240M+03361MA1999999100011MD1999999+0071REMSYN082AAXX  13004 82678 32992 01403 10277 20169 30001 40159 333 10336 29046 55091 58007;
0156826780999992006071312004-06767-043017FM-12+012799999V0201401N005112200019N0040001N1+02601+01711101891ADDGF104991041011008001001001KA1240N+02341MA1999999100301MD1999999+0041REMSYN076AAXX  13124 82678 32596 41410 10260 20171 30030 40189 84100 333 20234 58004;
0137826780999992006071318004-06767-043017FM-12+012799999V0201401N004110075019N0040001N1+03161+01631101541ADDGF105991051051008001001001MA1999999099971MD1999999+0131REMSYN070AAXX  13184 82678 32596 51408 10316 20163 39997 40154 85500 333 58013;
0178826780999992006071400004-06767-043017FM-12+012799999V0201401N001012200019N0002001N1+02681+01781101701ADDGA1001+999999999GF100991001001999999001001KA1240M+03251MA1999999100111MD1999999+0101REMSYN082AAXX  14004 82678 32992 01402 10268 20178 30011 40170 333 10325 29054 55099 58010;
0156826780999992006071412004-06767-043017FM-12+012799999V0201401N005112200019N0040001N1+02441+01661101941ADDGF103991031011008001001001KA1240N+02161MA1999999100341MD1999999+0041REMSYN076AAXX  14124 82678 32596 31410 10244 20166 30034 40194 83100 333 20216 58004;
0137826780999992006071418004-06767-043017FM-12+012799999V0201401N003112200019N0040001N1+03081+01441101591ADDGF104991041011008001001001MA1999999100011MD1999999+0041REMSYN070AAXX  14184 82678 32596 41406 10308 20144 30001 40159 84100 333 58004;
0178826780999992006071500004-06767-043017FM-12+012799999V0209999C000012200019N0002001N1+02421+01721101711ADDGA1001+999999999GF100991001001999999001001KA1240M+03171MA1999999100111MD1999999+0001REMSYN082AAXX  15004 82678 32992 00000 10242 20172 30011 40171 333 10317 29057 55100 58000;
0156826780999992006071512004-06767-043017FM-12+012799999V0201401N003612200019N0040001N1+02501+01671101971ADDGF101991011011008001001001KA1240N+02041MA1999999100371MD1999999+0031REMSYN076AAXX  15124 82678 32596 11407 10250 20167 30037 40197 81100 333 20204 58003;
0137826780999992006071518004-06767-043017FM-12+012799999V0200901N002112200019N0040001N1+03281+01491101471ADDGF103991021011008001001011MA1999999099891MD1999999-0121REMSYN070AAXX  15184 82678 32596 30904 10328 20149 39989 40147 82101 333 59012;
0178826780999992006071600004-06767-043017FM-12+012799999V0209999C000012200019N0002001N1+02481+01751101731ADDGA1001+999999999GF100991001001999999001001KA1240M+03371MA1999999100131MD1999999+0021REMSYN082AAXX  16004 82678 32992 00000 10248 20175 30013 40173 333 10337 29056 55104 58002;
0156826780999992006071612004-06767-043017FM-12+012799999V0201401N003611050019N0040001N1+02621+01781101871ADDGF105991011011008001011011KA1240N+02161MA1999999100271MD1999999-0101REMSYN076AAXX  16124 82678 32596 51407 10262 20178 30027 40187 81111 333 20216 59010;
0137826780999992006071618004-06767-043017FM-12+012799999V0200901N002112200019N0040001N1+03331+01701101381ADDGF105991041021008001001011MA1999999099821MD1999999-0071REMSYN070AAXX  16184 82678 32596 50904 10333 20170 39982 40138 84201 333 59007;
0178826780999992006071700004-06767-043017FM-12+012799999V0201401N000512200019N0002001N1+02621+01811101641ADDGA1001+999999999GF100991001001999999001001KA1240M+03371MA1999999100051MD1999999-0081REMSYN082AAXX  17004 82678 32992 01401 10262 20181 30005 40164 333 10337 29055 55101 59008;
0156826780999992006071712004-06767-043017FM-12+012799999V0201401N004112200019N0040001N1+02601+01601101991ADDGF101991011001017501031001KA1240N+02281MA1999999100401MD1999999+0131REMSYN076AAXX  17124 82678 32796 11408 10260 20160 30040 40199 81030 333 20228 58013;
0137826780999992006071718004-06767-043017FM-12+012799999V0201401N001510075019N0040001N1+03261+01721101501ADDGF105991051021008001001001MA1999999099042MD1999999+0121REMSYN070AAXX  17184 82678 32596 51403 10326 20172 39904 40150 85200 333 58012;
0178826780999992006071800004-06767-043017FM-12+012799999V0201401N001012200019N0002001N1+02781+01671101691ADDGA1001+999999999GF100991001001999999001001KA1240M+03331MA1999999100111MD1999999+0061REMSYN082AAXX  18004 82678 32592 01402 10278 20167 30011 40169 333 10333 29049 55098 58006;
0156826780999992006071812004-06767-043017FM-12+012799999V0201401N004112200019N0040001N1+02521+01631101911ADDGF102991021011008001001001KA1240N+02261MA1999999100321MD1999999-0081REMSYN076AAXX  18124 82678 32596 21408 10252 20163 30032 40191 82100 333 20226 59008;
0147826780999992006071818004-06767-043017FM-12+012799999V0200901N003112200019N0040001N1+03281+01341101441ADDGA1001+999999999GF100991001001999999001001MA1999999099871MD1999999-0071REMSYN064AAXX  18184 82678 32996 00906 10328 20134 39987 40144 333 59007;
0178826780999992006071900004-06767-043017FM-12+012799999V0209999C000012200019N0002001N1+02541+01731101661ADDGA1001+999999999GF100991001001999999001001KA1240M+03311MA1999999100071MD1999999-0041REMSYN082AAXX  19004 82678 32992 00000 10254 20173 30007 40166 333 10331 29053 55104 59004;
0156826780999992006071912004-06767-043017FM-12+012799999V0201401N004612200019N0040001N1+02591+01771101911ADDGF103991021001017501031091KA1240N+02221MA1999999100311MD1999999-0011REMSYN076AAXX  19124 82678 32796 31409 10259 20177 30031 40191 82039 333 20222 59001;
0137826780999992006071918004-06767-043017FM-12+012799999V0201401N002112200019N0040001N1+03381+01531101431ADDGF102991021011008001001001MA1999999099861MD1999999-0011REMSYN070AAXX  19184 82678 32596 21404 10338 20153 39986 40143 82100 333 59001;
0178826780999992006072000004-06767-043017FM-12+012799999V0201801N000512200019N0002001N1+02561+01881101641ADDGA1001+999999999GF100991001001999999001001KA1240M+03441MA1999999100051MD1999999-0021REMSYN082AAXX  20004 82678 32992 01801 10256 20188 30005 40164 333 10344 29056 55104 59002;
0156826780999992006072012004-06767-043017FM-12+012799999V0202701N000512200019N0040001N1+02551+01711101961ADDGF104991021001017501031011KA1240N+01951MA1999999100361MD1999999+0051REMSYN076AAXX  20124 82678 32796 42701 10255 20171 30036 40196 82031 333 20195 58005;
0137826780999992006072018004-06767-043017FM-12+012799999V0200901N001012200019N0040001N1+03481+01571101441ADDGF105991041011008001001011MA1999999099871MD1999999+0011REMSYN070AAXX  20184 82678 32596 50902 10348 20157 39987 40144 84101 333 58001;
0178826780999992006072100004-06767-043017FM-12+012799999V0201801N000512200019N0002001N1+02691+01891101601ADDGA1001+999999999GF100991001001999999001001KA1240M+03541MA1999999100011MD1999999-0041REMSYN082AAXX  21004 82678 32992 01801 10269 20189 30001 40160 333 10354 29054 55103 59004;
0166826780999992006072112004-06767-043017FM-12+012799999V0200901N001512200019N0040001N1+02781+01701101941ADDGA1001+999999999GF100991001001999999001001KA1240N+02161MA1999999100361MD1999999+0001REMSYN070AAXX  21124 82678 32996 00903 10278 20170 30036 40194 333 20216 58000;
0137826780999992006072118004-06767-043017FM-12+012799999V0200901N003110075019N0040001N1+03401+01591101481ADDGF105991051021008001001001MA1999999099901MD1999999+0041REMSYN070AAXX  21184 82678 32596 50906 10340 20159 39990 40148 85200 333 58004;
0178826780999992006072200004-06767-043017FM-12+012799999V0209999C000012200019N0002001N1+02701+01801101591ADDGA1001+999999999GF100991001001999999001001KA1240M+03471MA1999999100011MD1999999+0001REMSYN082AAXX  22004 82678 32992 00000 10270 20180 30001 40159 333 10347 29050 55098 58000;
0166826780999992006072212004-06767-043017FM-12+012799999V0201401N004112200019N0040001N1+02621+01261101851ADDGA1001+999999999GF100991001001999999001001KA1240N+02291MA1999999100261MD1999999-0101REMSYN070AAXX  22124 82678 32996 01408 10262 20126 30026 40185 333 20229 59010;
0147826780999992006072218004-06767-043017FM-12+012799999V0201401N003112200019N0040001N1+03361+01021101441ADDGA1001+999999999GF100991001001999999001001MA1999999099881MD1999999-0031REMSYN064AAXX  22184 82678 32996 01406 10336 20102 39988 40144 333 59003;
0178826780999992006072300004-06767-043017FM-12+012799999V0201801N000512200019N0002001N1+02441+01271101561ADDGA1001+999999999GF100991001001999999001001KA1240M+03431MA1999999099971MD1999999-0041REMSYN082AAXX  23004 82678 32992 01801 10244 20127 39997 40156 333 10343 29041 55105 59004;
0156826780999992006072312004-06767-043017FM-12+012799999V0201401N003112200019N0040001N1+02481+01601101771ADDGF102991001001999999001011KA1240N+01841MA1999999100171MD1999999-0091REMSYN076AAXX  23124 82678 32996 21406 10248 20160 30017 40177 80001 333 20184 59009;
0137826780999992006072318004-06767-043017FM-12+012799999V0201801N002612200019N0040001N1+03261+01561101231ADDGF105991041021008001001011MA1999999099661MD1999999-0221REMSYN070AAXX  23184 82678 32596 51805 10326 20156 39966 40123 84201 333 59022;
0178826780999992006072400004-06767-043017FM-12+012799999V0202301N001012200019N0002001N1+02581+01821101391ADDGA1001+999999999GF100991001001999999001001KA1240M+03341MA1999999099801MD1999999-0171REMSYN082AAXX  24004 82678 32992 02302 10258 20182 39980 40139 333 10334 29055 55105 59017;
0156826780999992006072412004-06767-043017FM-12+012799999V0201401N005110150019N0040001N1+02741+01841101601ADDGF106991061001017501051001KA1240N+01981MA1999999100021MD1999999-0151REMSYN076AAXX  24124 82678 32796 61410 10274 20184 30002 40160 86050 333 20198 59015;
0137826780999992006072418004-06767-043017FM-12+012799999V0201401N004110075019N0040001N1+03211+01781101271ADDGF107991061041008001031001MA1999999099691MD1999999+0031REMSYN070AAXX  24184 82678 32596 71408 10321 20178 39969 40127 86430 333 58003;
0168826780999992006072500004-06767-043017FM-12+012799999V0200901N000510075019N0002001N1+02721+01981101511ADDGF108991081041008001999999KA1240M+03281MA1999999099931MD1999999+0131REMSYN088AAXX  25004 82678 32592 80901 10272 20198 39993 40151 884// 333 10328 29057 55049 58013;
0166826780999992006072512004-06767-043017FM-12+012799999V0201401N004112200019N0040001N1+02681+01641101621ADDGA1001+999999999GF100991001001999999001001KA1240N+02141MA1999999100041MD1999999+0021REMSYN070AAXX  25124 82678 32996 01408 10268 20164 30004 40162 333 20214 58002;
0137826780999992006072518004-06767-043017FM-12+012799999V0201801N002610075019N0040001N1+03421+01411101211ADDGF105991051011008001001001MA1999999099651MD1999999-0041REMSYN070AAXX  25184 82678 32596 51805 10342 20141 39965 40121 85100 333 59004;
0178826780999992006072600004-06767-043017FM-12+012799999V0209999C000012200019N0002001N1+02721+01771101331ADDGA1001+999999999GF100991001001999999001001KA1240M+03471MA1999999099751MD1999999-0181REMSYN082AAXX  26004 82678 32992 00000 10272 20177 39975 40133 333 10347 29049 55104 59018;
0166826780999992006072612004-06767-043017FM-12+012799999V0201401N004112200019N0040001N1+02781+01821101561ADDGA1001+999999999GF100991001001999999001001KA1240N+02401MA1999999099981MD1999999-0061REMSYN070AAXX  26124 82678 32996 01408 10278 20182 39998 40156 333 20240 59006;
0137826780999992006072618004-06767-043017FM-12+012799999V0201401N002610075019N0040001N1+02441+01761101161ADDGF105991051021008001001001MA1999999099611MD1999999-0041REMSYN070AAXX  26184 82678 32596 51405 10244 20176 39961 40116 85200 333 59004;
0178826780999992006072700004-06767-043017FM-12+012799999V0209999C000012200019N0002001N1+02801+01921101301ADDGA1001+999999999GF100991001001999999001001KA1240M+03531MA1999999099731MD1999999-0021REMSYN082AAXX  27004 82678 32992 00000 10280 20192 39973 40130 333 10353 29053 55103 59002;
0156826780999992006072712004-06767-043017FM-12+012799999V0200901N004610075019N0040001N1+02821+01971101671ADDGF106991051021008001031001KA1240N+02501MA1999999100091MD1999999+0111REMSYN076AAXX  27124 82678 32596 60909 10282 20197 30009 40167 85230 333 20250 58011;
0137826780999992006072718004-06767-043017FM-12+012799999V0201401N003110075019N0040001N1+03401+01851101271ADDGF106991051021008001001011MA1999999099711MD1999999+0101REMSYN070AAXX  27184 82678 32596 61406 10340 20185 39971 40127 85201 333 58010;
0168826780999992006072800004-06767-043017FM-12+012799999V0209999C000012200019N0002001N1+02801+02001101411ADDGF102991001001999999001011KA1240M+03481MA1999999099841MD1999999+0111REMSYN088AAXX  28004 82678 32992 20000 10280 20200 39984 40141 80001 333 10348 29056 55090 58011;
0175826780999992006072812004-06767-043017FM-12+012799999V0200901N004112200019N0040001N1+02841+01791101671ADDGF102991999021017501001001KA1240N+02491MA1999999100091MD1999999+0001REMSYN076AAXX  28124 82678 32796 20908 10284 20179 30009 40167 83200 333 20249 58000;EQDQ01+000032SCOTLC
0137826780999992006072818004-06767-043017FM-12+012799999V0201801N002110075019N0040001N1+03541+01671101181ADDGF105991051011008001001001MA1999999099631MD1999999-0081REMSYN070AAXX  28184 82678 32596 51804 10354 20167 39963 40118 85100 333 59008;
0178826780999992006072900004-06767-043017FM-12+012799999V0201401N000512200019N0002001N1+02801+01901101331ADDGA1001+999999999GF100991001001999999001001KA1240M+03621MA1999999099761MD1999999-0081REMSYN082AAXX  29004 82678 32992 01401 10280 20190 39976 40133 333 10362 29050 55105 59008;
0156826780999992006072912004-06767-043017FM-12+012799999V0200901N002612200019N0040001N1+02881+01671101641ADDGF103991011011008001031011KA1240N+02441MA1999999100071MD1999999-0021REMSYN076AAXX  29124 82678 32596 30905 10288 20167 30007 40164 81131 333 20244 59002;
0137826780999992006072918004-06767-043017FM-12+012799999V0200901N001012200019N0040001N1+03661+01571101141ADDGF104991041011008001001001MA1999999099601MD1999999-0031REMSYN070AAXX  29184 82678 32596 40902 10366 20157 39960 40114 84100 333 59003;
0178826780999992006073000004-06767-043017FM-12+012799999V0201801N001012200019N0002001N1+02841+01791101261ADDGA1001+999999999GF100991001001999999001001KA1240M+03711MA1999999099691MD1999999-0071REMSYN082AAXX  30004 82678 32992 01802 10284 20179 39969 40126 333 10371 29046 55093 59007;
0156826780999992006073012004-06767-043017FM-12+012799999V0200901N001012200019N0040001N1+02921+01641101621ADDGF102991011001017501031011KA1240N+02581MA1999999100051MD1999999-0021REMSYN076AAXX  30124 82678 32796 20902 10292 20164 30005 40162 81031 333 20258 59002;
0137826780999992006073018004-06767-043017FM-12+012799999V0203201N001512200019N0040001N1+03541+01671101301ADDGF105991041021008001001011MA1999999099731MD1999999+0131REMSYN070AAXX  30184 82678 32596 53203 10354 20167 39973 40130 84201 333 58013;
0168826780999992006073100004-06767-043017FM-12+012799999V0200901N000512200019N0002001N1+02701+01911101441ADDGF104991031051008001001011KA1240M+03621MA1999999099871MD1999999+0181REMSYN088AAXX  31004 82678 32592 40901 10270 20191 39987 40144 83501 333 10362 29051 55103 58018;
0156826780999992006073112004-06767-043017FM-12+012799999V0200501N001512200019N0040001N1+02841+02091101941ADDGF102991001001999999001021KA1240N+02301MA1999999100361MD1999999+0311REMSYN076AAXX  31124 82678 32996 20503 10284 20209 30036 40194 80002 333 20230 58031;
0137826780999992006073118004-06767-043017FM-12+012799999V0200901N002612200019N0040001N1+03601+01571101451ADDGF105991041011008001001011MA1999999099891MD1999999+0161REMSYN070AAXX  31184 82678 32596 50905 10360 20157 39989 40145 84101 333 58016;
0168826780999992006080100004-06767-043017FM-12+012799999V0202301N000510075019N0002001N1+02811+01901101641ADDGF107991061051008001031001KA1240M+03661MA1999999100061MD1999999+0191REMSYN088AAXX  01004 82678 32592 72301 10281 20190 30006 40164 86530 333 10366 29052 55106 58019;
0156826780999992006080112004-06767-043017FM-12+012799999V0200901N004112200019N0040001N1+02881+01641102131ADDGF101991001001999999001011KA1240N+02531MA1999999100551MD1999999+0191REMSYN076AAXX  01124 82678 32996 10908 10288 20164 30055 40213 80001 333 20253 58019;
0137826780999992006080118004-06767-043017FM-12+012799999V0201801N001512200019N0040001N1+03561+01531101611ADDGF105991031011008001001011MA1999999100051MD1999999+0161REMSYN070AAXX  01184 82678 32596 51803 10356 20153 30005 40161 83101 333 58016;
0178826780999992006080200004-06767-043017FM-12+012799999V0201801N000512200019N0002001N1+02671+01711101691ADDGA1001+999999999GF100991001001999999001001KA1240M+03611MA1999999100111MD1999999+0051REMSYN082AAXX  02004 82678 32992 01801 10267 20171 30011 40169 333 10361 29047 55107 58005;
0166826780999992006080212004-06767-043017FM-12+012799999V0200901N003112200019N0040001N1+02741+01731102061ADDGA1001+999999999GF100991001001999999001001KA1240N+02291MA1999999100471MD1999999-0081REMSYN070AAXX  02124 82678 32996 00906 10274 20173 30047 40206 333 20229 59008;
0137826780999992006080218004-06767-043017FM-12+012799999V0201401N001510075019N0040001N1+03521+02031101521ADDGF105991051011008001001001MA1999999099961MD1999999-0091REMSYN070AAXX  02184 82678 32596 51403 10352 20203 39996 40152 85100 333 59009;
0178826780999992006080300004-06767-043017FM-12+012799999V0209999C000012200019N0002001N1+02641+02331101651ADDGA1001+999999999GF100991001001999999001001KA1240M+03671MA1999999100071MD1999999-0041REMSYN082AAXX  03004 82678 32992 00000 10264 20233 30007 40165 333 10367 29066 55108 59004;
0156826780999992006080312004-06767-043017FM-12+012799999V0200901N003112200019N0040001N1+02801+01951101931ADDGF103991011011008001001011KA1240N+02201MA1999999100341MD1999999-0131REMSYN076AAXX  03124 82678 32596 30906 10280 20195 30034 40193 81101 333 20220 59013;
0137826780999992006080318004-06767-043017FM-12+012799999V0201401N002612200019N0040001N1+03401+01891101381ADDGF105991041021008001001011MA1999999099861MD1999999-0151REMSYN070AAXX  03184 82678 32596 51405 10340 20189 39986 40138 84201 333 59015;
0168826780999992006080400004-06767-043017FM-12+012799999V0209999C000010075019N0002001N1+02601+02171101691ADDGF107991051051008001031001KA1240M+03471MA1999999100111MD1999999+0041REMSYN088AAXX  04004 82678 32592 70000 10260 20217 30011 40169 85530 333 10347 29064 55098 58004;
0156826780999992006080412004-06767-043017FM-12+012799999V0201401N003612200019N0040001N1+02681+01781101921ADDGF103991011001017501031011KA1240N+02181MA1999999100331MD1999999-0011REMSYN076AAXX  04124 82678 32796 31407 10268 20178 30033 40192 81031 333 20218 59001;
0137826780999992006080418004-06767-043017FM-12+012799999V0201401N002612200019N0040001N1+03371+02001101351ADDGF104991021011008001001021MA1999999099781MD1999999-0031REMSYN070AAXX  04184 82678 32596 41405 10337 20200 39978 40135 82102 333 59003;
0178826780999992006080500004-06767-043017FM-12+012799999V0202301N001012200019N0002001N1+02441+02151101521ADDGA1001+999999999GF100991001001999999001001KA1240M+03411MA1999999099931MD1999999-0181REMSYN082AAXX  05004 82678 32992 02302 10244 20215 39993 40152 333 10341 29068 55108 59018;
0166826780999992006080512004-06767-043017FM-12+012799999V0201401N005112200019N0040001N1+02661+01621101881ADDGA1001+999999999GF100991001001999999001001KA1240N+01961MA1999999100281MD1999999-0051REMSYN070AAXX  05124 82678 32996 01410 10266 20162 30028 40188 333 20196 59005;
0147826780999992006080518004-06767-043017FM-12+012799999V0201401N002112200019N0002001N1+03451+02341101321ADDGA1001+999999999GF100991001001999999001001MA1999999099751MD1999999-0031REMSYN064AAXX  05184 82678 32992 01404 10345 20234 39975 40132 333 59003;
0178826780999992006080600004-06767-043017FM-12+012799999V0201401N001512200019N0002001N1+02821+02241101531ADDGA1001+999999999GF100991001001999999001001KA1240M+03491MA1999999098991MD1999999+0021REMSYN082AAXX  06004 82678 32992 01403 10282 20224 39899 40153 333 10349 29062 55109 58002;
0166826780999992006080612004-06767-043017FM-12+012799999V0201401N005112200019N0040001N1+02701+01691101781ADDGA1001+999999999GF100991001001999999001001KA1240N+02341MA1999999100201MD1999999-0081REMSYN070AAXX  06124 82678 32996 01410 10270 20169 30020 40178 333 20234 59008;
0147826780999992006080618004-06767-043017FM-12+012799999V0201401N004112200019N0040001N1+03401+01811101281ADDGA1001+999999999GF100991001001999999001001MA1999999099721MD1999999-0031REMSYN064AAXX  06184 82678 32996 01408 10340 20181 39972 40128 333 59003;
0178826780999992006080700004-06767-043017FM-12+012799999V0201401N002112200019N0002001N1+02681+02221101531ADDGA1001+999999999GF100991001001999999001001KA1240M+03461MA1999999099951MD1999999+0001REMSYN082AAXX  07004 82678 32992 01404 10268 20222 39995 40153 333 10346 29061 55109 58000;
0166826780999992006080712004-06767-043017FM-12+012799999V0200901N005112200019N0040001N1+02601+01631101761ADDGA1001+999999999GF100991001001999999001001KA1240N+02281MA1999999100171MD1999999-0031REMSYN070AAXX  07124 82678 32996 00910 10260 20163 30017 40176 333 20228 59003;
0147826780999992006080718004-06767-043017FM-12+012799999V0200901N001512200019N0040001N1+03381+01911101281ADDGA1001+999999999GF100991001001999999001001MA1999999099721MD1999999+0001REMSYN064AAXX  07184 82678 32996 00903 10338 20191 39972 40128 333 58000;
0178826780999992006080800004-06767-043017FM-12+012799999V0201401N001512200019N0002001N1+02861+02111101421ADDGA1001+999999999GF100991001001999999001001KA1240M+03451MA1999999099851MD1999999-0101REMSYN082AAXX  08004 82678 32992 01403 10286 20211 39985 40142 333 10345 29056 55108 59010;
0156826780999992006080812004-06767-043017FM-12+012799999V0201401N003110450019N0040001N1+02661+02091101741ADDGF108991031011008001031021KA1240N+02341MA1999999100161MD1999999-0011REMSYN076AAXX  08124 82678 32596 81406 10266 20209 30016 40174 83132 333 20234 59001;
0137826780999992006080818004-06767-043017FM-12+012799999V0201401N003610075019N0040001N1+03361+02001101221ADDGF108991051021008001031021MA1999999099661MD1999999-0061REMSYN070AAXX  08184 82678 32596 81407 10336 20200 39966 40122 85232 333 59006;
0178826780999992006080900004-06767-043017FM-12+012799999V0201401N001012200019N0002001N1+02761+02281101491ADDGA1001+999999999GF100991001001999999001001KA1240M+03391MA1999999099911MD1999999+0061REMSYN082AAXX  09004 82678 32992 01402 10276 20228 39991 40149 333 10339 29066 55093 58006;
0166826780999992006080912004-06767-043017FM-12+012799999V0200901N003612200019N0040001N1+02781+01761101701ADDGA1001+999999999GF100991001001999999001001KA1240N+02281MA1999999100121MD1999999-0041REMSYN070AAXX  09124 82678 32796 00907 10278 20176 30012 40170 333 20228 59004;
0137826780999992006080918004-06767-043017FM-12+012799999V0201401N002112200019N0040001N1+03521+02291101201ADDGF103991021011008001001011MA1999999099651MD1999999-0011REMSYN070AAXX  09184 82678 32596 31404 10352 20229 39965 40120 82101 333 59001;
0178826780999992006081000004-06767-043017FM-12+012799999V0201401N001512200019N0002001N1+03061+02501101421ADDGA1001+999999999GF100991001001999999001001KA1240M+03571MA1999999099851MD1999999-0061REMSYN082AAXX  10004 82678 32992 01403 10306 20250 39985 40142 333 10357 29062 55097 59006;
0156826780999992006081012004-06767-043017FM-12+012799999V0201401N005712200019N0040001N1+02881+01971101751ADDGF103991011011008001041011KA1240N+02551MA1999999100181MD1999999+0061REMSYN076AAXX  10124 82678 32596 31411 10288 20197 30018 40175 81141 333 20255 58006;
0137826780999992006081018004-06767-043017FM-12+012799999V0200901N003612200019N0040001N1+03571+02031101201ADDGF104991041011008001001001MA1999999099651MD1999999+0001REMSYN070AAXX  10184 82678 32596 40907 10357 20203 39965 40120 84100 333 58000;
0178826780999992006081100004-06767-043017FM-12+012799999V0200901N001012200019N0002001N1+02901+02411101381ADDGA1001+999999999GF100991001001999999001001KA1240M+03661MA1999999099821MD1999999-0031REMSYN082AAXX  11004 82678 32992 00902 10290 20241 39982 40138 333 10366 29062 55106 59003;
0156826780999992006081112004-06767-043017FM-12+012799999V0200901N006712200019N0040001N1+02761+01691101681ADDGF101991011011008001001001KA1240N+02451MA1999999100111MD1999999-0071REMSYN076AAXX  11124 82678 32596 10913 10276 20169 30011 40168 81100 333 20245 59007;
0147826780999992006081118004-06767-043017FM-12+012799999V0201401N003612200019N0040001N1+03381+01751101251ADDGA1001+999999999GF100991001001999999001001MA1999999099691MD1999999+0041REMSYN064AAXX  11184 82678 32996 01407 10338 20175 39969 40125 333 58004;
0178826780999992006081200004-06767-043017FM-12+012799999V0201801N000512200019N0002001N1+02571+02041101441ADDGA1001+999999999GF100991001001999999001001KA1240M+03401MA1999999099861MD1999999+0041REMSYN082AAXX  12004 82678 32992 01801 10257 20204 39986 40144 333 10340 29059 55108 58004;
0166826780999992006081212004-06767-043017FM-12+012799999V0200901N004112200019N0040001N1+02721+01791101711ADDGA1001+999999999GF100991001001999999001001KA1240N+02201MA1999999100121MD1999999+0011REMSYN070AAXX  12124 82678 32996 00908 10272 20179 30012 40171 333 20220 58001;
0137826780999992006081218004-06767-043017FM-12+012799999V0200901N003110075019N0040001N1+03401+02001101271ADDGF105991051021008001001001MA1999999099711MD1999999+0021REMSYN070AAXX  12184 82678 32596 50906 10340 20200 39971 40127 85200 333 58002;
0178826780999992006081300004-06767-043017FM-12+012799999V0200901N002612200019N0002001N1+02901+02021101441ADDGA1001+999999999GF100991001001999999001001KA1240M+03491MA1999999099871MD1999999+0011REMSYN082AAXX  13004 82678 32992 00905 10290 20202 39987 40144 333 10349 29055 55108 58001;
0166826780999992006081312004-06767-043017FM-12+012799999V0201401N004112200019N0040001N1+02781+01851101751ADDGA1001+999999999GF100991001001999999001001KA1240N+02191MA1999999100181MD1999999+0061REMSYN070AAXX  13124 82678 32996 01408 10278 20185 30018 40175 333 20219 58006;
0137826780999992006081318004-06767-043017FM-12+012799999V0200901N003112200019N0040001N1+03461+02091101221ADDGF101991011011008001001001MA1999999099661MD1999999-0051REMSYN070AAXX  13184 82678 32596 10906 10346 20209 39966 40122 81100 333 59005;
0178826780999992006081400004-06767-043017FM-12+012799999V0209999C000012200019N0002001N1+02841+02191101371ADDGA1001+999999999GF100991001001999999001001KA1240M+03531MA1999999100801MD1999999-0071REMSYN082AAXX  14004 82678 32992 00000 10284 20219 30080 40137 333 10353 29060 55108 59007;
0166826780999992006081412004-06767-043017FM-12+012799999V0201401N003112200019N0040001N1+02721+01851101741ADDGA1001+999999999GF100991001001999999001001KA1240N+02381MA1999999100161MD1999999-0021REMSYN070AAXX  14124 82678 32996 01406 10272 20185 30016 40174 333 20238 59002;
0147826780999992006081418004-06767-043017FM-12+012799999V0201401N001512200019N0040001N1+03441+01841101201ADDGA1001+999999999GF100991001001999999001001MA1999999099651MD1999999+0011REMSYN064AAXX  14184 82678 32796 01403 10344 20184 39965 40120 333 58001;
0178826780999992006081500004-06767-043017FM-12+012799999V0201401N001012200019N0002001N1+02661+02331101341ADDGA1001+999999999GF100991001001999999001001KA1240M+03531MA1999999099761MD1999999-0041REMSYN082AAXX  15004 82678 32792 01402 10266 20233 39976 40134 333 10353 29066 55108 59004;
0166826780999992006081512004-06767-043017FM-12+012799999V0200901N002612200019N0040001N1+02821+01971101741ADDGA1001+999999999GF100991001001999999001001KA1240N+01911MA1999999100161MD1999999+0001REMSYN070AAXX  15124 82678 32796 00905 10282 20197 30016 40174 333 20191 58000;
0137826780999992006081518004-06767-043017FM-12+012799999V0200901N001512200019N0040001N1+03581+02011101171ADDGF103991021011008001001011MA1999999099631MD1999999-0021REMSYN070AAXX  15184 82678 32596 30903 10358 20201 39963 40117 82101 333 59002;
0178826780999992006081600004-06767-043017FM-12+012799999V0209999C000012200019N0002001N1+02721+02411101361ADDGA1001+999999999GF100991001001999999001001KA1240M+03731MA1999999099791MD1999999+0031REMSYN082AAXX  16004 82678 32992 00000 10272 20241 39979 40136 333 10373 29066 55105 58003;
0156826780999992006081612004-06767-043017FM-12+012799999V0200901N004110075019N0040001N1+02851+02191101651ADDGF106991061021008001001001KA1240N+02351MA1999999100071MD1999999-0091REMSYN076AAXX  16124 82678 32596 60908 10285 20219 30007 40165 86200 333 20235 59009;
0137826780999992006081618004-06767-043017FM-12+012799999V0201401N002110075019N0040001N1+03531+02091101171ADDGF105991051021008001001001MA1999999099621MD1999999-0011REMSYN070AAXX  16184 82678 32596 51404 10353 20209 39962 40117 85200 333 59001;
0178826780999992006081700004-06767-043017FM-12+012799999V0201401N002112200019N0002001N1+02981+02151101411ADDGA1001+999999999GF100991001001999999001001KA1240M+03601MA1999999099851MD1999999+0061REMSYN082AAXX  17004 82678 32992 01404 10298 20215 39985 40141 333 10360 29060 55106 58006;
0156826780999992006081712004-06767-043017FM-12+012799999V0200901N004112200019N0040001N1+02831+01681101721ADDGF101991011001017501031001KA1240N+02551MA1999999100151MD1999999+0081REMSYN076AAXX  17124 82678 32796 10908 10283 20168 30015 40172 81030 333 20255 58008;
0137826780999992006081718004-06767-043017FM-12+012799999V0201401N003112200019N0040001N1+03631+02081101081ADDGF102991011011008001001011MA1999999099541MD1999999-0081REMSYN070AAXX  17184 82678 32596 21406 10363 20208 39954 40108 81101 333 59008;
0178826780999992006081800004-06767-043017FM-12+012799999V0200901N000512200019N0002001N1+02821+02521101311ADDGA1001+999999999GF100991001001999999001001KA1240M+03661MA1999999099741MD1999999-0111REMSYN082AAXX  18004 82678 32992 00901 10282 20252 39974 40131 333 10366 29065 55109 59011;
0156826780999992006081812004-06767-043017FM-12+012799999V0201401N004112200019N0040001N1+02761+01891101601ADDGF102991001001999999001011KA1240N+02481MA1999999100031MD1999999-0121REMSYN076AAXX  18124 82678 32996 21408 10276 20189 30003 40160 80001 333 20248 59012;
0147826780999992006081818004-06767-043017FM-12+012799999V0201801N001512200019N0040001N1+03621+02311101091ADDGA1001+999999999GF100991001001999999001001MA1999999099541MD1999999+0001REMSYN064AAXX  18184 82678 32996 01803 10362 20231 39954 40109 333 58000;
0178826780999992006081900004-06767-043017FM-12+012799999V0209999C000012200019N0002001N1+02801+02541101211ADDGA1001+999999999GF100991001001999999001001KA1240M+03651MA1999999099641MD1999999-0101REMSYN082AAXX  19004 82678 32992 00000 10280 20254 39964 40121 333 10365 29070 55107 59010;
0166826780999992006081912004-06767-043017FM-12+012799999V0200901N003112200019N0040001N1+02821+01911101661ADDGA1001+999999999GF100991001001999999001001KA1240N+02261MA1999999100081MD1999999+0051REMSYN070AAXX  19124 82678 32996 00906 10282 20191 30008 40166 333 20226 58005;
0137826780999992006081918004-06767-043017FM-12+012799999V0200901N000512200019N0040001N1+03561+02421101101ADDGF101991011011008001001001MA1999999099541MD1999999+0001REMSYN070AAXX  19184 82678 32596 10901 10356 20242 39954 40110 81100 333 58000;
0178826780999992006082000004-06767-043017FM-12+012799999V0209999C000012200019N0002001N1+02881+02501101261ADDGA1001+999999999GF100991001001999999001001KA1240M+03651MA1999999099691MD1999999+0051REMSYN082AAXX  20004 82678 32992 00000 10288 20250 39969 40126 333 10365 29068 55100 58005;
0166826780999992006082012004-06767-043017FM-12+012799999V0201401N001512200019N0040001N1+03001+02111101631ADDGA1001+999999999GF100991001001999999001001KA1240N+02161MA1999999100061MD1999999-0021REMSYN070AAXX  20124 82678 32796 01403 10300 20211 30006 40163 333 20216 59002;
0166826780999992006082018004-06767-043017FM-12+012799999V0201401N001512200019N0040001N1+03741+02521101071ADDGA1001+999999999GF100991001001999999001001MA1999999099112MD1999999-0031REMSYN064AAXX  20184 82678 32796 01403 10374 20252 39911 40107 333 59003;EQDQ01+099113APOSP 
0178826780999992006082100004-06767-043017FM-12+012799999V0209999C000012200019N0002001N1+02781+02461101341ADDGA1001+999999999GF100991001001999999001001KA1240M+03811MA1999999099781MD1999999+0091REMSYN082AAXX  21004 82678 32992 00000 10278 20246 39978 40134 333 10381 29069 55107 58009;
0156826780999992006082112004-06767-043017FM-12+012799999V0209999C000012200019N0040001N1+02941+02491101631ADDGF104991011011008001001011KA1240N+02641MA1999999100061MD1999999+0001REMSYN076AAXX  21124 82678 32596 40000 10294 20249 30006 40163 81101 333 20264 58000;
0137826780999992006082118004-06767-043017FM-12+012799999V0202701N001512200019N0040001N1+03721+02361101111ADDGF104991021021008001001011MA1999999099561MD1999999+0051REMSYN070AAXX  21184 82678 32596 42703 10372 20236 39956 40111 82201 333 58005;
0178826780999992006082200004-06767-043017FM-12+012799999V0209999C000012200019N0002001N1+03041+02661101211ADDGA1001+999999999GF100991001001999999001001KA1240M+03841MA1999999099651MD1999999-0131REMSYN082AAXX  22004 82678 32792 00000 10304 20266 39965 40121 333 10384 29071 55103 59013;
0156826780999992006082212004-06767-043017FM-12+012799999V0200501N002610450019N0040001N1+02951+02361101751ADDGF105991021041008001031001KA1240N+02351MA1999999100191MD1999999+0131REMSYN076AAXX  22124 82678 32596 50505 10295 20236 30019 40175 82430 333 20235 58013;
0156826780999992006082218004-06767-043017FM-12+012799999V0201401N001510075019N0040001N1+03721+02571101191ADDGF106991999021008001001001MA1999999099641MD1999999+0081REMSYN070AAXX  22184 82678 32596 61403 10372 20257 39964 40119 85200 333 58008;EQDQ01+000052SCOTLC
0178826780999992006082300004-06767-043017FM-12+012799999V0202301N000512200019N0002001N1+02771+02461101421ADDGA1001+999999999GF100991001001999999001001KA1240M+03781MA1999999099851MD1999999+0201REMSYN082AAXX  23004 82678 32992 02301 10277 20246 39985 40142 333 10378 29073 55100 58020;
0156826780999992006082312004-06767-043017FM-12+012799999V0200901N004612200019N0040001N1+02891+01861101891ADDGF102991011011008001001011KA1240N+02441MA1999999100311MD1999999+0121REMSYN076AAXX  23124 82678 32596 20909 10289 20186 30031 40189 81101 333 20244 58012;
0137826780999992006082318004-06767-043017FM-12+012799999V0200901N003112200019N0040001N1+03581+02011101271ADDGF102991021011008001001001MA1999999099721MD1999999+0081REMSYN070AAXX  23184 82678 32596 20906 10358 20201 39972 40127 82100 333 58008;
0178826780999992006082400004-06767-043017FM-12+012799999V0201401N000512200019N0002001N1+02981+02441101371ADDGA1001+999999999GF100991001001999999001001KA1240M+03651MA1999999099811MD1999999-0041REMSYN082AAXX  24004 82678 32992 01401 10298 20244 39981 40137 333 10365 29060 55108 59004;
0156826780999992006082412004-06767-043017FM-12+012799999V0201401N005112200019N0040001N1+02821+01891101761ADDGF101991011001017501031001KA1240N+02481MA1999999100191MD1999999-0121REMSYN076AAXX  24124 82678 32796 11410 10282 20189 30019 40176 81030 333 20248 59012;
0137826780999992006082418004-06767-043017FM-12+012799999V0201401N003112200019N0040001N1+03521+01601101241ADDGF102991021011008001001001MA1999999099681MD1999999-0041REMSYN070AAXX  24184 82678 32596 21406 10352 20160 39968 40124 82100 333 59004;
0178826780999992006082500004-06767-043017FM-12+012799999V0209999C000012200019N0002001N1+02941+02361101371ADDGA1001+999999999GF100991001001999999001001KA1240M+03591MA1999999100811MD1999999+0001REMSYN082AAXX  25004 82678 32992 00000 10294 20236 30081 40137 333 10359 29058 55109 58000;
0166826780999992006082512004-06767-043017FM-12+012799999V0200901N005112200019N0040001N1+02741+01641101671ADDGA1001+999999999GF100991001001999999001001KA1240N+02481MA1999999100101MD1999999-0091REMSYN070AAXX  25124 82678 32996 00910 10274 20164 30010 40167 333 20248 59009;
0137826780999992006082518004-06767-043017FM-12+012799999V0200901N001512200019N0040001N1+03481+02001101131ADDGF103991031011008001001001MA1999999099581MD1999999-0101REMSYN070AAXX  25184 82678 32596 30903 10348 20200 39958 40113 83100 333 59010;
0178826780999992006082600004-06767-043017FM-12+012799999V0201401N001012200019N0002001N1+02941+02031101381ADDGA1001+999999999GF100991001001999999001001KA1240M+03531MA1999999099811MD1999999+0001REMSYN082AAXX  26004 82678 32992 01402 10294 20203 39981 40138 333 10353 29052 55106 58000;
0166826780999992006082612004-06767-043017FM-12+012799999V0200901N003612200019N0002001N1+02821+01861101641ADDGA1001+999999999GF100991001001999999001001KA1240N+02381MA1999999100071MD1999999-0061REMSYN070AAXX  26124 82678 32792 00907 10282 20186 30007 40164 333 20238 59006;
0147826780999992006082618004-06767-043017FM-12+012799999V0201401N002612200019N0040001N1+03521+01701101091ADDGA1001+999999999GF100991001001999999001001MA1999999099531MD1999999-0051REMSYN064AAXX  26184 82678 32796 01405 10352 20170 39953 40109 333 59005;
0178826780999992006082700004-06767-043017FM-12+012799999V0202301N000512200019N0002001N1+02941+02261101331ADDGA1001+999999999GF100991001001999999001001KA1240M+03891MA1999999099771MD1999999-0041REMSYN082AAXX  27004 82678 32792 02301 10294 20226 39977 40133 333 10389 29056 55107 59004;
0166826780999992006082712004-06767-043017FM-12+012799999V0201401N004112200019N0040001N1+02861+01621101671ADDGA1001+999999999GF100991001001999999001001KA1240N+02341MA1999999100101MD1999999+0031REMSYN070AAXX  27124 82678 32796 01408 10286 20162 30010 40167 333 20234 58003;
0137826780999992006082718004-06767-043017FM-12+012799999V0201401N002112200019N0040001N1+03561+01991101131ADDGF103991021011008001001011MA1999999099571MD1999999+0041REMSYN070AAXX  27184 82678 32596 31404 10356 20199 39957 40113 82101 333 58004;
0178826780999992006082800004-06767-043017FM-12+012799999V0209999C000012200019N0002001N1+02761+02361101231ADDGA1001+999999999GF100991001001999999001001KA1240M+03631MA1999999099661MD1999999-0111REMSYN082AAXX  28004 82678 32992 00000 10276 20236 39966 40123 333 10363 29061 55106 59011;
0156826780999992006082812004-06767-043017FM-12+012799999V0200901N003112200019N0040001N1+02891+01601101611ADDGF104991001001999999001011KA1240N+02081MA1999999100041MD1999999-0061REMSYN076AAXX  28124 82678 32996 40906 10289 20160 30004 40161 80001 333 20208 59006;
0137826780999992006082818004-06767-043017FM-12+012799999V0201401N003612200019N0040001N1+03761+01081101041ADDGF101991011011008001001001MA1999999099501MD1999999-0071REMSYN070AAXX  28184 82678 32596 11407 10376 20108 39950 40104 81100 333 59007;
0178826780999992006082900004-06767-043017FM-12+012799999V0201401N000512200019N0002001N1+02791+01221101291ADDGA1001+999999999GF100991001001999999001001KA1240M+03501MA1999999099721MD1999999+0061REMSYN082AAXX  29004 82678 32992 01401 10279 20122 39972 40129 333 10350 29036 55109 58006;
0156826780999992006082912004-06767-043017FM-12+012799999V0200901N002612200019N0040001N1+02941+01441101651ADDGF102991001001999999001011KA1240N+02001MA1999999100081MD1999999+0041REMSYN076AAXX  29124 82678 32996 20905 10294 20144 30008 40165 80001 333 20200 58004;
0137826780999992006082918004-06767-043017FM-12+012799999V0202701N001512200019N0040001N1+03761+01231101091ADDGF103991001001999999001011MA1999999099531MD1999999+0031REMSYN070AAXX  29184 82678 32996 32703 10376 20123 39953 40109 80001 333 58003;
0178826780999992006083000004-06767-043017FM-12+012799999V0200901N000512200019N0002001N1+02791+01261101271ADDGA1001+999999999GF100991001001999999001001KA1240M+03841MA1999999099701MD1999999-0021REMSYN082AAXX  30004 82678 32992 00901 10279 20126 39970 40127 333 10384 29035 55109 59002;
0156826780999992006083012004-06767-043017FM-12+012799999V0200501N001012200019N0040001N1+02841+02091101651ADDGF105991031011008001001011KA1240N+02181MA1999999100071MD1999999-0011REMSYN076AAXX  30124 82678 32596 50502 10284 20209 30007 40165 83101 333 20218 59001;
0137826780999992006083018004-06767-043017FM-12+012799999V0200501N001010075019N0040001N1+03681+01791101141ADDGF106991061051008001001001MA1999999099581MD1999999+0051REMSYN070AAXX  30184 82678 32596 60502 10368 20179 39958 40114 86500 333 58005;
0178826780999992006083100004-06767-043017FM-12+012799999V0209999C000012200019N0002001N1+02841+01731101371ADDGA1001+999999999GF100991001001999999001001KA1240M+03711MA1999999099801MD1999999+0101REMSYN082AAXX  31004 82678 32992 00000 10284 20173 39980 40137 333 10371 29050 55094 58010;
0156826780999992006083112004-06767-043017FM-12+012799999V0201401N004112200019N0040001N1+02901+01651101791ADDGF103991021051008001031001KA1240N+02401MA1999999100221MD1999999+0151REMSYN076AAXX  31124 82678 32596 31408 10290 20165 30022 40179 82530 333 20240 58015;
0137826780999992006083118004-06767-043017FM-12+012799999V0201401N002610450019N0040001N1+03621+01531101261ADDGF106991041021008001031001MA1999999099701MD1999999+0121REMSYN070AAXX  31184 82678 32596 61405 10362 20153 39970 40126 84230 333 58012;
0178826780999992006090100004-06767-043017FM-12+012799999V0201401N001512200019N0002001N1+03081+01521101441ADDGA1001+999999999GF100991001001999999001001KA1240M+03671MA1999999099881MD1999999+0081REMSYN082AAXX  01004 82678 32992 01403 10308 20152 39988 40144 333 10367 29038 55093 58008;
0166826780999992006090112004-06767-043017FM-12+012799999V0201401N003612200019N0040001N1+02861+01841101641ADDGA1001+999999999GF100991001001999999001001KA1240N+02331MA1999999100081MD1999999-0141REMSYN070AAXX  01124 82678 32996 01407 10286 20184 30008 40164 333 20233 59014;
0147826780999992006090118004-06767-043017FM-12+012799999V0200901N001512200019N0040001N1+03601+01571101021ADDGA1001+999999999GF100991001001999999001001MA1999999099471MD1999999-0231REMSYN064AAXX  01184 82678 32996 00903 10360 20157 39947 40102 333 59023;
0178826780999992006090200004-06767-043017FM-12+012799999V0209999C000012200019N0002001N1+02781+01551101261ADDGA1001+999999999GF100991001001999999001001KA1240M+03691MA1999999099691MD1999999-0191REMSYN082AAXX  02004 82678 32992 00000 10278 20155 39969 40126 333 10369 29044 55108 59019;
0166826780999992006090212004-06767-043017FM-12+012799999V0200901N001512200019N0040001N1+03021+01621101501ADDGA1001+999999999GF100991001001999999001001KA1240N+02381MA1999999099931MD1999999-0151REMSYN070AAXX  02124 82678 32996 00903 10302 20162 39993 40150 333 20238 59015;
0137826780999992006090218004-06767-043017FM-12+012799999V0201401N001512200019N0040001N1+03661+01771100821ADDGF102991011011008001001011MA1999999099281MD1999999-0191REMSYN070AAXX  02184 82678 32596 21403 10366 20177 39928 40082 81101 333 59019;
0178826780999992006090300004-06767-043017FM-12+012799999V0209999C000012200019N0002001N1+02821+01681101001ADDGA1001+999999999GF100991001001999999001001KA1240M+03791MA1999999099441MD1999999-0251REMSYN082AAXX  03004 82678 32792 00000 10282 20168 39944 40100 333 10379 29057 55109 59025;
0156826780999992006090312004-06767-043017FM-12+012799999V0200901N003112200019N0040001N1+03021+02131101401ADDGF102991021011008001001001KA1240N+02201MA1999999099841MD1999999-0091REMSYN076AAXX  03124 82678 32596 20906 10302 20213 39984 40140 82100 333 20220 59009;
0137826780999992006090318004-06767-043017FM-12+012799999V0201801N001010075019N0040001N1+03701+01851100841ADDGF106991061021008001001001MA1999999099291MD1999999+0011REMSYN070AAXX  03184 82678 32596 61802 10370 20185 39929 40084 86200 333 58001;
0168826780999992006090400004-06767-043017FM-12+012799999V0202301N000512200019N0002001N1+03101+01771101081ADDGF102991021001017501031001KA1240M+03761MA1999999099531MD1999999+0091REMSYN088AAXX  04004 82678 32792 22301 10310 20177 39953 40108 82030 333 10376 29046 55095 58009;
0156826780999992006090412004-06767-043017FM-12+012799999V0200501N002110075019N0040001N1+02781+02251101601ADDGF108991081051008001999999KA1240N+02501MA1999999100041MD1999999+0201REMSYN076AAXX  04124 82678 32596 80504 10278 20225 30004 40160 885// 333 20250 58020;
0137826780999992006090418004-06767-043017FM-12+012799999V0200501N001512200019N0040001N1+03621+02161101081ADDGF106991041021008001001011MA1999999099531MD1999999+0241REMSYN070AAXX  04184 82678 32596 60503 10362 20216 39953 40108 84201 333 58024;
0178826780999992006090500004-06767-043017FM-12+012799999V0202301N001012200019N0002001N1+03051+01911101321ADDGA1001+999999999GF100991001001999999001001KA1240M+03741MA1999999099661MD1999999+0131REMSYN082AAXX  05004 82678 32992 02302 10305 20191 39966 40132 333 10374 29054 55071 58013;
0156826780999992006090512004-06767-043017FM-12+012799999V0200501N001010075019N0040001N1+03001+02291101731ADDGF106991051051008001001021KA1240N+02401MA1999999100171MD1999999+0131REMSYN076AAXX  05124 82678 32596 60502 10300 20229 30017 40173 85502 333 20240 58013;
0137826780999992006090518004-06767-043017FM-12+012799999V0203201N001010450019N0040001N1+03641+01981101171ADDGF108991041021008001011011MA1999999099621MD1999999+0091REMSYN070AAXX  05184 82678 32596 83202 10364 20198 39962 40117 84211 333 58009;
0168826780999992006090600004-06767-043017FM-12+012799999V0203201N001010075019N0002001N1+03141+02071101351ADDGF108991051051008001031021KA1240M+03731MA1999999099801MD1999999+0141REMSYN088AAXX  06004 82678 32592 83202 10314 20207 39980 40135 85532 333 10373 29052 55095 58014;
0156826780999992006090612004-06767-043017FM-12+012799999V0200501N000510075019N0040001N1+02721+02151101841ADDGF108991051051008001031021KA1240N+02501MA1999999100271MD1999999+0101REMSYN076AAXX  06124 82678 32596 80501 10272 20215 30027 40184 85532 333 20250 58010;
0137826780999992006090618004-06767-043017FM-12+012799999V0201401N002611050019N0040001N1+03681+01791101231ADDGF105991031011008001001021MA1999999099681MD1999999+0061REMSYN070AAXX  06184 82678 32596 51405 10368 20179 39968 40123 83102 333 58006;
0168826780999992006090700004-06767-043017FM-12+012799999V0209999C000012200019N0002001N1+02901+02021101491ADDGF102991001001999999001011KA1240M+03711MA1999999099921MD1999999+0121REMSYN088AAXX  07004 82678 32992 20000 10290 20202 39992 40149 80001 333 10371 29056 55075 58012;
0166826780999992006090712004-06767-043017FM-12+012799999V0201401N003612200019N0040001N1+02961+01781101851ADDGA1001+999999999GF100991001001999999001001KA1240N+02581MA1999999100281MD1999999+0011REMSYN070AAXX  07124 82678 32996 01407 10296 20178 30028 40185 333 20258 58001;
0137826780999992006090718004-06767-043017FM-12+012799999V0201401N003112200019N0040001N1+03681+01931101411ADDGF103991031001008001001011MA1999999099621MD1999999-0061REMSYN070AAXX  07184 82678 32596 31406 10368 20193 39962 40141 83001 333 59006;
0178826780999992006090800004-06767-043017FM-12+012799999V0201401N001512200019N0002001N1+03181+01691101441ADDGA1001+999999999GF100991001001999999001001KA1240M+03731MA1999999099881MD1999999-0041REMSYN082AAXX  08004 82678 32992 01403 10318 20169 39988 40144 333 10373 29042 55108 59004;
0166826780999992006090812004-06767-043017FM-12+012799999V0200901N005112200019N0040001N1+03001+01681101801ADDGA1001+999999999GF100991001001999999001001KA1240N+02481MA1999999100241MD1999999-0041REMSYN070AAXX  08124 82678 32996 00910 10300 20168 30024 40180 333 20248 59004;
0137826780999992006090818004-06767-043017FM-12+012799999V0201401N004612200019N0040001N1+03521+01911101261ADDGF104991021021008001001021MA1999999099711MD1999999+0091REMSYN070AAXX  08184 82678 32596 41409 10352 20191 39971 40126 82202 333 58009;
0178826780999992006090900004-06767-043017FM-12+012799999V0201401N003112200019N0002001N1+02841+01911101671ADDGA1001+999999999GF100991001001999999001001KA1240M+03651MA1999999100101MD1999999+0221REMSYN082AAXX  09004 82678 32992 01406 10284 20191 30010 40167 333 10365 29050 55107 58022;
0156826780999992006090912004-06767-043017FM-12+012799999V0200901N005112200019N0040001N1+02731+01561101901ADDGF101991011011008001001001KA1240N+02371MA1999999100321MD1999999+0081REMSYN076AAXX  09124 82678 32596 10910 10273 20156 30032 40190 81100 333 20237 58008;
0137826780999992006090918004-06767-043017FM-12+012799999V0201801N002612200019N0040001N1+03501+01681101301ADDGF104991041021008001001001MA1999999099741MD1999999+0031REMSYN070AAXX  09184 82678 32596 41805 10350 20168 39974 40130 84200 333 58003;
0178826780999992006091000004-06767-043017FM-12+012799999V0201401N004112200019N0002001N1+02991+01591101571ADDGA1001+999999999GF100991001001999999001001KA1240M+03551MA1999999100001MD1999999-0101REMSYN082AAXX  10004 82678 32992 01408 10299 20159 30000 40157 333 10355 29042 55110 59010;
0166826780999992006091012004-06767-043017FM-12+012799999V0201401N005112200019N0040001N1+02901+01811101851ADDGA1001+999999999GF100991001001999999001001KA1240N+02481MA1999999100281MD1999999-0041REMSYN070AAXX  10124 82678 32996 01410 10290 20181 30028 40185 333 20248 59004;
0137826780999992006091018004-06767-043017FM-12+012799999V0201401N002110075019N0040001N1+03601+01901101371ADDGF105991051021008001001001MA1999999099811MD1999999+0071REMSYN070AAXX  10184 82678 32596 51404 10360 20190 39981 40137 85200 333 58007;
0178826780999992006091100004-06767-043017FM-12+012799999V0200901N003112200019N0002001N1+03091+01711101571ADDGA1001+999999999GF100991001001999999001001KA1240M+03681MA1999999100011MD1999999+0011REMSYN082AAXX  11004 82678 32992 00906 10309 20171 30001 40157 333 10368 29044 55110 58001;
0166826780999992006091112004-06767-043017FM-12+012799999V0201401N005112200019N0040001N1+02881+01771101691ADDGA1001+999999999GF100991001001999999001001KA1240N+02461MA1999999100131MD1999999-0151REMSYN070AAXX  11124 82678 32996 01410 10288 20177 30013 40169 333 20246 59015;
0137826780999992006091118004-06767-043017FM-12+012799999V0201401N004110075019N0040001N1+03701+01431101231ADDGF105991051011008001001001MA1999999099681MD1999999-0131REMSYN070AAXX  11184 82678 32596 51408 10370 20143 39968 40123 85100 333 59013;
0178826780999992006091200004-06767-043017FM-12+012799999V0201401N003112200019N0002001N1+03181+01491101461ADDGA1001+999999999GF100991001001999999001001KA1240M+03731MA1999999099901MD1999999-0111REMSYN082AAXX  12004 82678 32992 01406 10318 20149 39990 40146 333 10373 29037 55108 59011;
0147826780999992006091218004-06767-043017FM-12+012799999V0201401N001012200019N0040001N1+03601+01521101231ADDGA1001+999999999GF100991001001999999001001MA1999999099681MD1999999+0001REMSYN064AAXX  12184 82678 32996 01402 10360 20152 39968 40123 333 58000;
0178826780999992006091300004-06767-043017FM-12+012799999V0201401N000512200019N0002001N1+03021+01261101331ADDGA1001+999999999GF100991001001999999001001KA1240M+03681MA1999999099771MD1999999-0131REMSYN082AAXX  13004 82678 32992 01401 10302 20126 39977 40133 333 10368 29035 55111 59013;
0166826780999992006091312004-06767-043017FM-12+012799999V0200901N005112200019N0040001N1+02861+01441101801ADDGA1001+999999999GF100991001001999999001001KA1240N+02441MA1999999100231MD1999999+0031REMSYN070AAXX  13124 82678 32796 00910 10286 20144 30023 40180 333 20244 58003;
0137826780999992006091318004-06767-043017FM-12+012799999V0201401N002112200019N0040001N1+03661+01271101191ADDGF103991021021008001001011MA1999999099941MD1999999-0041REMSYN070AAXX  13184 82678 32596 31404 10366 20127 30994 40119 82201 333 59004;
0178826780999992006091400004-06767-043017FM-12+012799999V0201401N001512200019N0002001N1+03041+01281101361ADDGA1001+999999999GF100991001001999999001001KA1240M+03711MA1999999099801MD1999999+0031REMSYN082AAXX  14004 82678 32992 01403 10304 20128 39980 40136 333 10371 29034 55110 58003;
0166826780999992006091412004-06767-043017FM-12+012799999V0200901N004112200019N0040001N1+02981+01791101671ADDGA1001+999999999GF100991001001999999001001KA1240N+02491MA1999999100111MD1999999-0121REMSYN070AAXX  14124 82678 32996 00908 10298 20179 30011 40167 333 20249 59012;
0137826780999992006091418004-06767-043017FM-12+012799999V0201401N003112200019N0040001N1+03741+01281101061ADDGF103991021011008001001011MA1999999099521MD1999999-0121REMSYN070AAXX  14184 82678 32596 31406 10374 20128 39952 40106 82101 333 59012;
0178826780999992006091500004-06767-043017FM-12+012799999V0209999C000012200019N0002001N1+02821+01371101271ADDGA1001+999999999GF100991001001999999001001KA1240M+03801MA1999999099711MD1999999-0091REMSYN082AAXX  15004 82678 32992 00000 10282 20137 39971 40127 333 10380 29038 55110 59009;
0166826780999992006091512004-06767-043017FM-12+012799999V0200901N001512200019N0040001N1+03061+01621101741ADDGA1001+999999999GF100991001001999999001001KA1240N+02401MA1999999100171MD1999999+0061REMSYN070AAXX  15124 82678 32796 00903 10306 20162 30017 40174 333 20240 58006;
0137826780999992006091518004-06767-043017FM-12+012799999V0201401N001512200019N0040001N1+03641+01441101131ADDGF104991021021008001001011MA1999999099591MD1999999+0071REMSYN070AAXX  15184 82678 32596 41403 10364 20144 39959 40113 82201 333 58007;
0178826780999992006091600004-06767-043017FM-12+012799999V0209999C000012200019N0002001N1+03001+01371101381ADDGA1001+999999999GF100991001001999999001001KA1240M+03751MA1999999099831MD1999999+0121REMSYN082AAXX  16004 82678 32992 00000 10300 20137 39983 40138 333 10375 29036 55108 58012;
0166826780999992006091612004-06767-043017FM-12+012799999V0200901N004112200019N0040001N1+03121+01601101611ADDGA1001+999999999GF100991001001999999001001KA1240N+02301MA1999999100051MD1999999-0121REMSYN070AAXX  16124 82678 32996 00908 10312 20160 30005 40161 333 20230 59012;
0137826780999992006091618004-06767-043017FM-12+012799999V0200901N002612200019N0040001N1+03731+01391101051ADDGF104991031021008001001011MA1999999099501MD1999999-0091REMSYN070AAXX  16184 82678 32596 40905 10373 20139 39950 40105 83201 333 59009;
0168826780999992006091700004-06767-043017FM-12+012799999V0201801N000510075019N0002001N1+03221+01731101231ADDGF107991051041008001001021KA1240M+03831MA1999999099681MD1999999-0151REMSYN088AAXX  17004 82678 32592 71801 10322 20173 39968 40123 85402 333 10383 29037 55104 59015;
0156826780999992006091712004-06767-043017FM-12+012799999V0200901N002610075019N0040001N1+03021+01921101641ADDGF106991061021008001001001KA1240N+02701MA1999999100081MD1999999+0031REMSYN076AAXX  17124 82678 32596 60905 10302 20192 30008 40164 86200 333 20270 58003;
0137826780999992006091718004-06767-043017FM-12+012799999V0200901N001510075019N0040001N1+03721+01451101111ADDGF105991051021008001001001MA1999999099581MD1999999+0081REMSYN070AAXX  17184 82678 32596 50903 10372 20145 39958 40111 85200 333 58008;
0178826780999992006091800004-06767-043017FM-12+012799999V0209999C000012200019N0002001N1+03161+01861101281ADDGA1001+999999999GF100991001001999999001001KA1240M+03791MA1999999099731MD1999999+0051REMSYN082AAXX  18004 82678 32992 00000 10316 20186 39973 40128 333 10379 29042 55087 58005;
0230826780999992006091812004-06767-043017FM-12+012799999V0200901N003112200019N9999999N1+03301+01641101561ADDAA124000591AY101061AY261061GA1001+999999999GF100991001001999999001001KA1240N+02601MA1999999100021MD1999999-0061MW1001REMSYN082AAXX  18124 82678 21996 00906 10330 20164 30002 40156 70006 333 20260 59006 69964;EQDQ01+040002VODIS 
0137826780999992006091818004-06767-043017FM-12+012799999V0201801N001010075019N0040001N1+03901+01471100991ADDGF105991051021008001001001MA1999999099461MD1999999-0121REMSYN070AAXX  18184 82678 32596 51802 10390 20147 39946 40099 85200 333 59012;
0178826780999992006091900004-06767-043017FM-12+012799999V0209999C000012200019N0002001N1+03061+01661101141ADDGA1001+999999999GF100991001001999999001001KA1240M+03981MA1999999099601MD1999999-0131REMSYN082AAXX  19004 82678 32992 00000 10306 20166 39960 40114 333 10398 29037 55107 59013;
0156826780999992006091912004-06767-043017FM-12+012799999V0200501N001511050019N0040001N1+03081+02191101621ADDGF105991031021008001001021KA1240N+02561MA1999999100061MD1999999+0041REMSYN076AAXX  19124 82678 32596 50503 10308 20219 30006 40162 83202 333 20256 58004;
0137826780999992006091918004-06767-043017FM-12+012799999V0201401N001510450019N0040001N1+03761+01811100921ADDGF105991031021008001031011MA1999999099391MD1999999-0071REMSYN070AAXX  19184 82678 32596 51403 10376 20181 39939 40092 83231 333 59007;
0178826780999992006092000004-06767-043017FM-12+012799999V0209999C000012200019N0002001N1+03161+01891101241ADDGA1001+999999999GF100991001001999999001001KA1240M+03871MA1999999099691MD1999999+0091REMSYN082AAXX  20004 82678 32792 00000 10316 20189 39969 40124 333 10387 29046 55098 58009;
0201826780999992006092012004-06767-043017FM-12+012799999V0200901N001510450019N0040001N1+02741+02021101691ADDAA124031091AY161061AY221061GF108991041071008001031999KA1240N+02181MA1999999100121MD1999999+0061MW1021REMSYN088AAXX  20124 82678 21596 80903 10274 20202 30012 40169 70262 8473/ 333 20218 58006 60314;
0137826780999992006092018004-06767-043017FM-12+012799999V0200901N001510450019N0040001N1+03461+02061101081ADDGF108991041031008001021011MA1999999099521MD1999999+0131REMSYN070AAXX  20184 82678 32596 80903 10346 20206 39952 40108 84321 333 58013;
0178826780999992006092100004-06767-043017FM-12+012799999V0201401N001012200019N0002001N1+02901+02271101331ADDGA1001+999999999GF100991001001999999001001KA1240M+03491MA1999999099761MD1999999+0071REMSYN082AAXX  21004 82678 32792 01402 10290 20227 39976 40133 333 10349 29062 55056 58007;
0201826780999992006092112004-06767-043017FM-12+012799999V0203601N001010075019N0040001N1+02461+02271101871ADDAA124001091AY121061AY261061GF108991081051008001999999KA1240N+02401MA1999999100281MD1999999+0161MW1021REMSYN088AAXX  21124 82678 21596 83602 10246 20227 30028 40187 70226 885// 333 20240 58016 60014;
0137826780999992006092118004-06767-043017FM-12+012799999V0202701N002610450019N0040001N1+02981+02151101431ADDGF108991041041008001031021MA1999999099851MD1999999+0331REMSYN070AAXX  21184 82678 32596 82705 10298 20215 39985 40143 84432 333 58033;
0168826780999992006092200004-06767-043017FM-12+012799999V0202301N001512200019N0002001N1+02601+02191101551ADDGF102991001001999999001011KA1240M+03181MA1999999099961MD1999999+0201REMSYN088AAXX  22004 82678 32992 22303 10260 20219 39996 40155 80001 333 10318 29076 55017 58020;
0156826780999992006092212004-06767-043017FM-12+012799999V0201401N001512200019N0040001N1+02701+01991101831ADDGF104991011011008001031011KA1240N+02241MA1999999100241MD1999999-0041REMSYN076AAXX  22124 82678 32596 41403 10270 20199 30024 40183 81131 333 20224 59004;
0137826780999992006092218004-06767-043017FM-12+012799999V0203201N001010075019N0040001N1+03571+01781101151ADDGF105991051021008001001001MA1999999099591MD1999999-0261REMSYN070AAXX  22184 82678 32596 53202 10357 20178 39959 40115 85200 333 59026;
0178826780999992006092300004-06767-043017FM-12+012799999V0202301N000512200019N0002001N1+02921+02061101291ADDGA1001+999999999GF100991001001999999001001KA1240M+03631MA1999999099721MD1999999-0241REMSYN082AAXX  23004 82678 32992 02301 10292 20206 39972 40129 333 10363 29055 55094 59024;
0156826780999992006092312004-06767-043017FM-12+012799999V0200901N001512200019N0040001N1+03141+01641101541ADDGF101991011011008001001001KA1240N+02421MA1999999099981MD1999999-0261REMSYN076AAXX  23124 82678 32596 10903 10314 20164 39998 40154 81100 333 20242 59026;
0137826780999992006092318004-06767-043017FM-12+012799999V0200901N001010075019N0040001N1+03681+01581101061ADDGF105991051021008001001001MA1999999099511MD1999999-0081REMSYN070AAXX  23184 82678 32596 50902 10368 20158 39951 40106 85200 333 59008;
0168826780999992006092400004-06767-043017FM-12+012799999V0209999C000012200019N0002001N1+03021+01921101111ADDGF104991041051008001001001KA1240M+03811MA1999999099561MD1999999-0161REMSYN088AAXX  24004 82678 32592 40000 10302 20192 39956 40111 84500 333 10381 29043 55108 59016;
0156826780999992006092412004-06767-043017FM-12+012799999V0200501N001012200019N0040001N1+02941+02031101541ADDGF104991041011008001001001KA1240N+02501MA1999999099981MD1999999+0001REMSYN076AAXX  24124 82678 32596 40502 10294 20203 39998 40154 84100 333 20250 58000;
0137826780999992006092418004-06767-043017FM-12+012799999V0201801N001010075019N0040001N1+03601+01671101051ADDGF105991051011008001001001MA1999999099511MD1999999+0001REMSYN070AAXX  24184 82678 32596 51802 10360 20167 39951 40105 85100 333 58000;
0178826780999992006092500004-06767-043017FM-12+012799999V0209999C000012200019N0002001N1+03061+01831101201ADDGA1001+999999999GF100991001001999999001001KA1240M+03841MA1999999099651MD1999999+0091REMSYN082AAXX  25004 82678 32992 00000 10306 20183 39965 40120 333 10384 29046 55106 58009;
0230826780999992006092512004-06767-043017FM-12+012799999V0200501N000512200019N9999999N1+02881+02031101701ADDAA124003091AY161061AY211061GA1001+999999999GF100991001001999999001001KA1240N+02461MA1999999100131MD1999999+0151MW1001REMSYN082AAXX  25124 82678 21996 00501 10288 20203 30013 40170 70061 333 20246 58015 60034;EQDQ01+040002VODIS 
0137826780999992006092518004-06767-043017FM-12+012799999V0202701N001010075019N0040001N1+03661+01821101201ADDGF105991051021008001001001MA1999999099661MD1999999+0151REMSYN070AAXX  25184 82678 32596 52702 10366 20182 39966 40120 85200 333 58015;
0178826780999992006092600004-06767-043017FM-12+012799999V0209999C000012200019N0002001N1+03081+01981101231ADDGA1001+999999999GF100991001001999999001001KA1240M+03731MA1999999099671MD1999999+0021REMSYN082AAXX  26004 82678 32992 00000 10308 20198 39967 40123 333 10373 29050 55102 58002;
0166826780999992006092612004-06767-043017FM-12+012799999V0200501N001512200019N0040001N1+03061+02021101651ADDGA1001+999999999GF100991001001999999001001KA1240N+02171MA1999999100091MD1999999-0041REMSYN070AAXX  26124 82678 32996 00503 10306 20202 30009 40165 333 20217 59004;
0137826780999992006092618004-06767-043017FM-12+012799999V0203601N001512200019N0040001N1+03681+01691101131ADDGF105991041021008001001011MA1999999099591MD1999999-0071REMSYN070AAXX  26184 82678 32596 53603 10368 20169 39959 40113 84201 333 59007;
0168826780999992006092700004-06767-043017FM-12+012799999V0201401N000512200019N0002001N1+02971+02051101331ADDGF101991001001999999001011KA1240M+03791MA1999999099771MD1999999+0101REMSYN088AAXX  27004 82678 32992 11401 10297 20205 39977 40133 80001 333 10379 29070 55095 58010;
0175826780999992006092712004-06767-043017FM-12+012799999V0201401N003619999999N0040001N1+02991+01591101801ADDGF107991999021017501001001KA1240N+02621MA1999999100241MD1999999+0151REMSYN076AAXX  27124 82678 32796 71407 10299 20159 30024 40180 83200 333 20262 58015;EQDQ01+000032SCOTLC
0178826780999992006092800004-06767-043017FM-12+012799999V0201401N001012200019N0002001N1+02781+01671101341ADDGA1001+999999999GF100991001001999999001001KA1240M+03641MA1999999099781MD1999999+0011REMSYN082AAXX  28004 82678 32992 01402 10278 20167 39978 40134 333 10364 29043 55105 58001;
0156826780999992006092812004-06767-043017FM-12+012799999V0201401N004612200019N0040001N1+02861+01751101791ADDGF103991021011008001001011KA1240N+02551MA1999999100211MD1999999-0031REMSYN076AAXX  28124 82678 32596 31409 10286 20175 30021 40179 82101 333 20255 59003;
0156826780999992006092818004-06767-043017FM-12+012799999V0201401N002612200019N0040001N1+03611+01411100962ADDGF103991031011008001001001MA1999999099521MD1999999-0191REMSYN070AAXX  28184 82678 32596 31405 10361 20141 39952 40096 83100 333 59019;EQDQ01+100963APOSLP
0178826780999992006092900004-06767-043017FM-12+012799999V0201401N001012200019N0002001N1+03011+01331101241ADDGA1001+999999999GF100991001001999999001001KA1240M+03681MA1999999099681MD1999999-0101REMSYN082AAXX  29004 82678 32992 01402 10301 20133 39968 40124 333 10368 29038 55108 59010;
0156826780999992006092912004-06767-043017FM-12+012799999V0201401N002612200019N0040001N1+02961+01931101711ADDGF101991011011008001001001KA1240N+02581MA1999999100151MD1999999-0061REMSYN076AAXX  29124 82678 32596 11405 10296 20193 30015 40171 81100 333 20258 59006;
0137826780999992006092918004-06767-043017FM-12+012799999V0201401N001510075019N0040001N1+03721+01621101111ADDGF105991051021008001001001MA1999999099571MD1999999+0051REMSYN070AAXX  29184 82678 32596 51403 10372 20162 39957 40111 85200 333 58005;
0168826780999992006093000004-06767-043017FM-12+012799999V0209999C000012200019N0002001N1+02961+01871101201ADDGF102991021001017501031001KA1240M+03821MA1999999099641MD1999999-0041REMSYN088AAXX  30004 82678 32792 20000 10296 20187 39964 40120 82030 333 10382 29047 55108 59004;
0156826780999992006093012004-06767-043017FM-12+012799999V0200901N001512200019N0040001N1+03181+01691101641ADDGF103991021011017501001011KA1240N+02541MA1999999100081MD1999999-0071REMSYN076AAXX  30124 82678 32796 30903 10318 20169 30008 40164 82101 333 20254 59007;
0137826780999992006093018004-06767-043017FM-12+012799999V0201801N001510075019N0040001N1+03701+01711101171ADDGF105991051021008001001001MA1999999099631MD1999999+0061REMSYN070AAXX  30184 82678 32596 51803 10370 20171 39963 40117 85200 333 58006;
0168826780999992006100100004-06767-043017FM-12+012799999V0209999C000012200019N0002001N1+03061+01831101251ADDGF103991031001017501031001KA1240M+03811MA1999999099701MD1999999+0061REMSYN088AAXX  01004 82678 32792 30000 10306 20183 39970 40125 83030 333 10381 29042 55110 58006;
0156826780999992006100112004-06767-043017FM-12+012799999V0200901N003112200019N0040001N1+03201+01711101581ADDGF104991021021008001001011KA1240N+02681MA1999999100031MD1999999-0051REMSYN076AAXX  01124 82678 32596 40906 10320 20171 30003 40158 82201 333 20268 59005;
0137826780999992006100118004-06767-043017FM-12+012799999V0201401N001012200019N0040001N1+03801+01521101051ADDGF103991031011008001001001MA1999999099501MD1999999-0131REMSYN070AAXX  01184 82678 32596 31402 10380 20152 39950 40105 83100 333 59013;
0168826780999992006100200004-06767-043017FM-12+012799999V0209999C000012200019N0002001N1+02981+01591101191ADDGF104991021011008001031011KA1240M+03251MA1999999099641MD1999999+0061REMSYN088AAXX  02004 82678 32592 40000 10298 20159 39964 40119 82131 333 10325 29038 55110 58006;
0156826780999992006100212004-06767-043017FM-12+012799999V0201401N001512200019N0040001N1+03161+01821101551ADDGF101991011011008001001001KA1240N+02681MA1999999099991MD1999999-0041REMSYN076AAXX  02124 82678 32596 11403 10316 20182 39999 40155 81100 333 20268 59004;
0137826780999992006100218004-06767-043017FM-12+012799999V0200901N001512200019N0040001N1+03761+01541100831ADDGF107991041021008001001011MA1999999099301MD1999999-0201REMSYN070AAXX  02184 82678 32596 70903 10376 20154 39930 40083 84201 333 59020;
0168826780999992006100300004-06767-043017FM-12+012799999V0209999C000010450019N0002001N1+03281+01781101021ADDGF105991031021008001031011KA1240M+03821MA1999999099481MD1999999-0161REMSYN088AAXX  03004 82678 32592 50000 10328 20178 39948 40102 83231 333 10382 29038 55103 59016;
0156826780999992006100312004-06767-043017FM-12+012799999V0200901N001512200019N0040001N1+03141+01841101321ADDGF103991031011008001001001KA1240N+02601MA1999999099781MD1999999-0211REMSYN076AAXX  03124 82678 32596 30903 10314 20184 39978 40132 83100 333 20260 59021;
0137826780999992006100318004-06767-043017FM-12+012799999V0202701N001012200019N0040001N1+03861+01571100781ADDGF105991041011008001001011MA1999999099251MD1999999-0051REMSYN070AAXX  03184 82678 32596 52702 10386 20157 39925 40078 84101 333 59005;
0168826780999992006100400004-06767-043017FM-12+012799999V0209999C000012200019N0002001N1+03121+01851100971ADDGF104991021011008001031011KA1240M+03931MA1999999099431MD1999999-0051REMSYN088AAXX  04004 82678 32592 40000 10312 20185 39943 40097 82131 333 10393 29042 55109 59005;
0156826780999992006100412004-06767-043017FM-12+012799999V0200501N001510120019N0040001N1+03101+02031101351ADDGF107991061081008001001011KA1240N+02781MA1999999099801MD1999999+0021REMSYN076AAXX  04124 82678 32596 70503 10310 20203 39980 40135 86801 333 20278 58002;
0137826780999992006100418004-06767-043017FM-12+012799999V0200901N002610075019N0040001N1+03821+01531100721ADDGF105991051011008001001001MA1999999099191MD1999999-0061REMSYN070AAXX  04184 82678 32596 50905 10382 20153 39919 40072 85100 333 59006;
0178826780999992006100500004-06767-043017FM-12+012799999V0202301N000512200019N0002001N1+03171+01861100991ADDGA1001+999999999GF100991001001999999001001KA1240M+03851MA1999999099451MD1999999+0021REMSYN082AAXX  05004 82678 32992 02301 10317 20186 39945 40099 333 10385 29043 55101 58002;
0156826780999992006100512004-06767-043017FM-12+012799999V0200901N001512200019N0040001N1+03201+01711101431ADDGF103991021011008001001011KA1240N+02501MA1999999099881MD1999999+0081REMSYN076AAXX  05124 82678 32596 30903 10320 20171 39988 40143 82101 333 20250 58008;
0137826780999992006100518004-06767-043017FM-12+012799999V0201801N001510075019N0040001N1+03701+01711100971ADDGF105991051021008001001001MA1999999099431MD1999999+0241REMSYN070AAXX  05184 82678 32596 51803 10370 20171 39943 40097 85200 333 58024;
0168826780999992006100600004-06767-043017FM-12+012799999V0209999C000012200019N0002001N1+03081+01881101121ADDGF101991011001017501031001KA1240M+03811MA1999999099581MD1999999+0131REMSYN088AAXX  06004 82678 32792 10000 10308 20188 39958 40112 81030 333 10381 29042 55107 58013;
0156826780999992006100612004-06767-043017FM-12+012799999V0200901N003112200019N0040001N1+03161+01711101391ADDGF101991011011008001001001KA1240N+02701MA1999999099841MD1999999-0041REMSYN076AAXX  06124 82678 32596 10906 10316 20171 39984 40139 81100 333 20270 59004;
0137826780999992006100618004-06767-043017FM-12+012799999V0201401N001512200019N0040001N1+03841+01361100881ADDGF103991031021008001001001MA1999999099351MD1999999-0081REMSYN070AAXX  06184 82678 32596 31403 10384 20136 39935 40088 83200 333 59008;
0168826780999992006100700004-06767-043017FM-12+012799999V0201801N001012200019N0002001N1+03301+01361101051ADDGF104991041001017501031001KA1240M+03911MA1999999099511MD1999999-0071REMSYN088AAXX  07004 82678 32792 41802 10330 20136 39951 40105 84030 333 10391 29032 55110 59007;
0156826780999992006100712004-06767-043017FM-12+012799999V0200901N003112200019N0040001N1+03221+01841101491ADDGF103991021011008001001011KA1240N+02721MA1999999099951MD1999999+0111REMSYN076AAXX  07124 82678 32596 30906 10322 20184 39995 40149 82101 333 20272 58011;
0137826780999992006100718004-06767-043017FM-12+012799999V0201401N001512200019N0040001N1+03781+01771100891ADDGF105991041021008001001011MA1999999099361MD1999999+0011REMSYN070AAXX  07184 82678 32596 51403 10378 20177 39936 40089 84201 333 58001;
0178826780999992006100800004-06767-043017FM-12+012799999V0209999C000012200019N0002001N1+03061+01901101051ADDGA1001+999999999GF100991001001999999001001KA1240M+03861MA1999999099511MD1999999+0001REMSYN082AAXX  08004 82678 32992 00000 10306 20190 39951 40105 333 10386 29044 55110 58000;
0166826780999992006100812004-06767-043017FM-12+012799999V0200901N003112200019N0040001N1+03321+01851101371ADDGA1001+999999999GF100991001001999999001001KA1240N+02721MA1999999099831MD1999999-0121REMSYN070AAXX  08124 82678 32996 00906 10332 20185 39983 40137 333 20272 59012;
0137826780999992006100818004-06767-043017FM-12+012799999V0201801N001010450019N0040001N1+03841+01671100771ADDGF105991031021008001031011MA1999999099251MD1999999-0111REMSYN070AAXX  08184 82678 32596 51802 10384 20167 39925 40077 83231 333 59011;
0168826780999992006100900004-06767-043017FM-12+012799999V0201801N001510075019N0002001N1+03341+01581101101ADDGF108991051021008001031021KA1240M+03931MA1999999099551MD1999999+0041REMSYN088AAXX  09004 82678 32592 81803 10334 20158 39955 40110 85232 333 10393 29035 55105 58004;
0156826780999992006100912004-06767-043017FM-12+012799999V0200901N003612200019N0040001N1+03301+01721101451ADDGF106991021011008001001011KA1240N+03041MA1999999099911MD1999999+0081REMSYN076AAXX  09124 82678 32596 60907 10330 20172 39991 40145 82101 333 20304 58008;
0137826780999992006100918004-06767-043017FM-12+012799999V0201401N001510075019N0040001N1+03841+01551100891ADDGF106991051021008001001011MA1999999099371MD1999999+0121REMSYN070AAXX  09184 82678 32596 61403 10384 20155 39937 40089 85201 333 58012;
0168826780999992006101000004-06767-043017FM-12+012799999V0202701N000510450019N0002001N1+03191+01691101071ADDGF107991041041008001031021KA1240M+03951MA1999999099531MD1999999-0021REMSYN088AAXX  10004 82678 32592 72701 10319 20169 39953 40107 84432 333 10395 29037 55108 59002;
0156826780999992006101012004-06767-043017FM-12+012799999V0201401N004112200019N0040001N1+03221+01731101541ADDGF105991031011008001001011KA1240N+02821MA1999999099991MD1999999+0081REMSYN076AAXX  10124 82678 32596 51408 10322 20173 39999 40154 83101 333 20282 58008;
0137826780999992006101018004-06767-043017FM-12+012799999V0201401N002610450019N0040001N1+03731+01621101051ADDGF108991041021008001021011MA1999999099511MD1999999+0141REMSYN070AAXX  10184 82678 32596 81405 10373 20162 39951 40105 84221 333 58014;
0168826780999992006101100004-06767-043017FM-12+012799999V0201401N001512200019N0002001N1+03251+01211101221ADDGF104991031001017501021011KA1240M+03811MA1999999099681MD1999999+0151REMSYN088AAXX  11004 82678 32792 41403 10325 20121 39968 40122 83021 333 10381 29032 55089 58015;
0156826780999992006101112004-06767-043017FM-12+012799999V0201401N004111050019N0040001N1+03161+01711101591ADDGF106991031001017501031021KA1240N+02801MA1999999100041MD1999999+0051REMSYN076AAXX  11124 82678 32796 61408 10316 20171 30004 40159 83032 333 20280 58005;
0137826780999992006101118004-06767-043017FM-12+012799999V0201401N002612200019N0040001N1+03721+01621101061ADDGF104991021011008001001011MA1999999099531MD1999999+0021REMSYN070AAXX  11184 82678 32596 41405 10372 20162 39953 40106 82101 333 58002;
0178826780999992006101200004-06767-043017FM-12+012799999V0209999C000012200019N0002001N1+03001+01751101171ADDGA1001+999999999GF100991001001999999001001KA1240M+03691MA1999999099621MD1999999-0061REMSYN082AAXX  12004 82678 32992 00000 10300 20175 39962 40117 333 10369 29041 55108 59006;
0137826780999992006101218004-06767-043017FM-12+012799999V0200901N001510075019N0040001N1+03861+01381100811ADDGF105991051021008001001001MA1999999099291MD1999999-0241REMSYN070AAXX  12184 82678 32596 50903 10386 20138 39929 40081 85200 333 59024;
0178826780999992006101300004-06767-043017FM-12+012799999V0209999C000012200019N0002001N1+03101+01581100891ADDGA1001+999999999GF100991001001999999001001KA1240M+03991MA1999999099351MD1999999-0271REMSYN082AAXX  13004 82678 32992 00000 10310 20158 39935 40089 333 10399 29034 55107 59027;
0166826780999992006101312004-06767-043017FM-12+012799999V0200501N001512200019N0040001N1+03221+02011101291ADDGA1001+999999999GF100991001001999999001001KA1240N+02641MA1999999099741MD1999999-0111REMSYN070AAXX  13124 82678 32996 00503 10322 20201 39974 40129 333 20264 59011;
0156826780999992006101318004-06767-043017FM-12+012799999V0201401N001519999999N0040001N1+03881+01701100711ADDGF105991999021008001001001MA1999999099191MD1999999-0101REMSYN070AAXX  13184 82678 32596 51403 10388 20170 39919 40071 83200 333 59010;EQDQ01+000032SCOTLC
0178826780999992006101400004-06767-043017FM-12+012799999V0209999C000012200019N0002001N1+03221+01801100841ADDGA1001+999999999GF100991001001999999001001KA1240M+03951MA1999999099301MD1999999-0051REMSYN082AAXX  14004 82678 32992 00000 10322 20180 39930 40084 333 10395 29041 55106 59005;
0156826780999992006101412004-06767-043017FM-12+012799999V0201401N001512200019N0040001N1+03141+02041101241ADDGF103991011011008001031011KA1240N+02611MA1999999099701MD1999999-0041REMSYN076AAXX  14124 82678 32596 31403 10314 20204 39970 40124 81131 333 20261 59004;
0137826780999992006101418004-06767-043017FM-12+012799999V0201401N001511050019N0040001N1+03861+01681100721ADDGF105991031021008001001021MA1999999099201MD1999999+0011REMSYN070AAXX  14184 82678 32596 51403 10386 20168 39920 40072 83202 333 58001;
0178826780999992006101500004-06767-043017FM-12+012799999V0209999C000012200019N0002001N1+03301+01891100931ADDGA1001+999999999GF100991001001999999001001KA1240M+03971MA1999999099401MD1999999+0101REMSYN082AAXX  15004 82678 32992 00000 10330 20189 39940 40093 333 10397 29041 55099 58010;
0175826780999992006101512004-06767-043017FM-12+012799999V0201801N001510075019N0040001N1+02861+02161101361ADDGF108991999021008001001001KA1240N+02721MA1999999099811MD1999999+0111REMSYN076AAXX  15124 82678 32596 81803 10286 20216 39981 40136 86200 333 20272 58011;EQDQ01+000062SCOTLC
0137826780999992006101518004-06767-043017FM-12+012799999V0202701N003110450019N0040001N1+03201+02181100891ADDGF108991041081008001021021MA1999999099341MD1999999+0141REMSYN070AAXX  15184 82678 32596 82706 10320 20218 39934 40089 84822 333 58014;
0168826780999992006101600004-06767-043017FM-12+012799999V0202701N002110450019N0002001N1+02821+02291101061ADDGF106991031051008001021011KA1240M+03551MA1999999099501MD1999999+0101REMSYN088AAXX  16004 82678 32592 62704 10282 20229 39950 40106 83521 333 10355 29067 55014 58010;
0201826780999992006101612004-06767-043017FM-12+012799999V0200901N000510075019N0040001N1+02281+02231101671ADDAA124022191AY161061AY291061GF108991081071008001999999KA1240N+02281MA1999999100081MD1999999+0271MW1611REMSYN088AAXX  16124 82678 21596 80901 10228 20223 30008 40167 76169 887// 333 20228 58027 60224;
0182826780999992006101618004-06767-043017FM-12+012799999V0202701N003110075019N0040001N1+02491+02231101191ADDAA106006191AY161061AY221061GF108991061051008001021999MA1999999099611MD1999999+0271MW1021REMSYN082AAXX  16184 82678 21596 82706 10249 20223 39961 40119 70262 8652/ 333 58027 60061;
0168826780999992006101700004-06767-043017FM-12+012799999V0202301N001510075019N0002001N1+02381+02241101271ADDGF108991051051008001011999KA1240M+03141MA1999999099671MD1999999+0171REMSYN088AAXX  17004 82678 32592 82303 10238 20224 39967 40127 8551/ 333 10314 29092 55000 58017;
0173826780999992006101712004-06767-043017FM-12+012799999V0209999C000010075019N0040001N1+02501+02251101571ADDAA124006191GF108991081051008001999999KA1240N+02301MA1999999099971MD1999999-0111REMSYN082AAXX  17124 82678 22596 80000 10250 20225 39997 40157 885// 333 20230 59011 60064;
