0196827650999992006010100004-07333-047467FM-12+019399999V0209999C000010120019N0200001N1+02641+02351101411ADDAY191061AY291061GF108991061081008001021999KA1240M+03141MA1999999099001MD1999999-0081MW1001REMSYN094AAXX  01004 82765 31598 80000 10264 20235 39900 40141 70099 8682/ 333 10314 29081 55068 59008;
0201827650999992006010112004-07333-047467FM-12+019399999V0201801N001010120019N0200001N1+02521+02341101521ADDAA124001091AY151061AY251061GF107991061081008001021999KA1240N+02391MA1999999099121MD1999999-0011MW1001REMSYN088AAXX  01124 82765 21598 71802 10252 20234 39912 40152 70055 8682/ 333 20239 59001 60014;
0213827650999992006010200004-07333-047467FM-12+019399999V0201101N001510450019N0200001N1+02421+02281101311ADDAA106000591AY151061AY251061GF107991041081008001021001KA1240M+03001MA1999999098901MD1999999-0101MW1001REMSYN100AAXX  02004 82765 21598 71103 10242 20228 39890 40131 70055 84820 333 10300 29086 55011 59010 69951;
0173827650999992006010212004-07333-047467FM-12+019399999V0209999C000012200019N0200001N1+02561+02271101401ADDAA124001091GF103991031011008001001001KA1240N+02291MA1999999098991MD1999999-0131REMSYN082AAXX  02124 82765 22598 30000 10256 20227 39899 40140 83100 333 20229 59013 60014;
0182827650999992006010218004-07333-047467FM-12+019399999V0200901N002110450019N0200001N1+02681+02261101131ADDAA106002091AY191061AY291061GF107991041051008001021001MA1999999098731MD1999999-0021MW1611REMSYN082AAXX  02184 82765 21598 70904 10268 20226 39873 40113 76199 84520 333 59002 60021;
0213827650999992006010300004-07333-047467FM-12+019399999V0209999C000012200019N0200001N1+02641+02481101171ADDAA106000591AY101061AY201061GF103991021011008001041001KA1240M+03141MA1999999098781MD1999999-0121MW1131REMSYN100AAXX  03004 82765 21598 30000 10264 20248 39878 40117 71300 82140 333 10314 29086 55066 59012 69941;
0173827650999992006010312004-07333-047467FM-12+019399999V0203201N001010450019N0200001N1+02631+02461101441ADDAA124003091GF106991041081008001041001KA1240N+02441MA1999999099051MD1999999+0061REMSYN082AAXX  03124 82765 22598 63202 10263 20246 39905 40144 84840 333 20244 58006 60034;
0137827650999992006010318004-07333-047467FM-12+019399999V0203201N000510450019N0200001N1+03171+02421100981ADDGF106991041021008001011001MA1999999098611MD1999999-0121REMSYN070AAXX  03184 82765 32598 63201 10317 20242 39861 40098 84210 333 59012;
0168827650999992006010400004-07333-047467FM-12+019399999V0201801N002110120019N0200001N1+02691+02391101101ADDGF108991081081008001999999KA1240M+03251MA1999999098711MD1999999-0071REMSYN088AAXX  04004 82765 32598 81804 10269 20239 39871 40110 888// 333 10325 29081 55047 59007;
0156827650999992006010412004-07333-047467FM-12+019399999V0202301N001510075019N0200001N1+02551+02271101321ADDGF106991061031008001001001KA1240N+02361MA1999999098921MD1999999-0131REMSYN076AAXX  04124 82765 32598 62303 10255 20227 39892 40132 86300 333 20236 59013;
0182827650999992006010418004-07333-047467FM-12+019399999V0203201N001010042019N0100001N1+02311+02091101031ADDAA106017091AY161061AY221061GF108991051071004501021999MA1999999098621MD1999999+0011MW1501REMSYN082AAXX  04184 82765 21497 83202 10231 20209 39862 40103 75062 8572/ 333 58001 60171;
0213827650999992006010500004-07333-047467FM-12+019399999V0209999C000010120019N0200001N1+02331+02201101171ADDAA106000391AY151061AY221061GF108991081001012501021999KA1240M+03261MA1999999098761MD1999999+0051MW1001REMSYN100AAXX  05004 82765 21698 80000 10233 20220 39876 40117 70052 8802/ 333 10326 29090 55053 58005 69931;
0220827650999992006010512004-07333-047467FM-12+019399999V0201401N001010042019N0200001N1+02371+02221101351ADDAA124017091AY151061AY221061GF108991999071004501021999KA1240N+02281MA1999999098931MD1999999+0011MW1031REMSYN088AAXX  05124 82765 21498 81402 10237 20222 39893 40135 70352 8872/ 333 20228 58001 60174;EQDQ01+000082SCOTLC
0137827650999992006010518004-07333-047467FM-12+019399999V0203501N003110450019N0200001N1+02651+02201101031ADDGF108991041081008001021999MA1999999098631MD1999999+0011REMSYN070AAXX  05184 82765 32598 83506 10265 20220 39863 40103 8482/ 333 58001;
0201827650999992006010612004-07333-047467FM-12+019399999V0200901N001510075019N0200001N1+02261+02181101441ADDAA124000891AY121061AY201061GF108991071051008001021999KA1240N+02221MA1999999099011MD1999999+0081MW1031REMSYN088AAXX  06124 82765 21598 80903 10226 20218 39901 40144 70320 8752/ 333 20222 58008 69984;
0137827650999992006010618004-07333-047467FM-12+019399999V0201401N000510450019N0200001N1+03041+02431101031ADDGF105991041021008001041001MA1999999098651MD1999999+0021REMSYN070AAXX  06184 82765 32598 51401 10304 20243 39865 40103 84240 333 58002;
0213827650999992006010700004-07333-047467FM-12+019399999V0203601N000510075019N0200001N1+02381+02221101311ADDAA106024991AY191061AY261061GF108991051071008001021999KA1240M+03201MA1999999098881MD1999999+0081MW1511REMSYN100AAXX  07004 82765 21598 83601 10238 20222 39888 40131 75196 8572/ 333 10320 29087 55054 58008 60251;
0201827650999992006010712004-07333-047467FM-12+019399999V0203401N000510120019N0200001N1+02421+02281101461ADDAA124024991AY151061AY251061GF107991051081008001021001KA1240N+02291MA1999999099041MD1999999+0031MW1001REMSYN088AAXX  07124 82765 21598 73401 10242 20228 39904 40146 70055 85820 333 20229 58003 60254;
0182827650999992006010718004-07333-047467FM-12+019399999V0203601N002110120019N0200001N1+02461+02281101201ADDAA106010991AY161061AY261061GF108991061081008001021999MA1999999098791MD1999999+0141MW1031REMSYN082AAXX  07184 82765 21598 83604 10246 20228 39879 40120 70366 8682/ 333 58014 60111;
0168827650999992006010800004-07333-047467FM-12+019399999V0202701N000512200019N0200001N1+02381+02261101281ADDGF104991041001008001011001KA1240M+02501MA1999999098861MD1999999-0021REMSYN088AAXX  08004 82765 32598 42701 10238 20226 39886 40128 84010 333 10250 29092 55000 59002;
0173827650999992006010812004-07333-047467FM-12+019399999V0209999C000010120019N0200001N1+02361+02311101521ADDAA124010991GF108991061081008001021999KA1240N+02271MA1999999099101MD1999999+0061REMSYN082AAXX  08124 82765 22598 80000 10236 20231 39910 40152 8682/ 333 20227 58006 60114;
0182827650999992006010818004-07333-047467FM-12+019399999V0209999C000010450019N0200001N1+02701+02261101101ADDAA106007991AY191061AY261061GF107991031021008001021001MA1999999098701MD1999999-0091MW1001REMSYN082AAXX  08184 82765 21598 70000 10270 20226 39870 40110 70096 83220 333 59009 60081;
0213827650999992006010900004-07333-047467FM-12+019399999V0200501N001510450019N0200001N1+02541+02351101441ADDAA106000021AY191061AY251061GF108991041051008001021999KA1240M+02931MA1999999099031MD1999999+0171MW1501REMSYN100AAXX  09004 82765 21598 80503 10254 20235 39903 40144 75095 8452/ 333 10293 29088 55040 58017 69911;
0201827650999992006010912004-07333-047467FM-12+019399999V0203201N000510075019N0100001N1+02281+02051101641ADDAA124045091AY161061AY261061GF108991061051008001021999KA1240N+02151MA1999999099231MD1999999+0131MW1631REMSYN088AAXX  09124 82765 21597 83201 10228 20205 39923 40164 76366 8652/ 333 20215 58013 60454;
0182827650999992006010918004-07333-047467FM-12+019399999V0203201N002110450019N0200001N1+02841+02351101171ADDAA106007991AY161061AY261061GF105991031021008001041001MA1999999098771MD1999999+0071MW1001REMSYN082AAXX  09184 82765 21598 53204 10284 20235 39877 40117 70066 83240 333 58007 60081;
0168827650999992006011000004-07333-047467FM-12+019399999V0202701N002610120019N0200001N1+02461+02271101451ADDGF108991061081008001021999KA1240M+02921MA1999999099031MD1999999+0061REMSYN088AAXX  10004 82765 32598 82705 10246 20227 39903 40145 8682/ 333 10292 29085 55030 58006;
0173827650999992006011012004-07333-047467FM-12+019399999V0200501N000510450019N0200001N1+02521+02251101171ADDAA124007991GF105991041021008001041001KA1240N+02191MA1999999099161MD1999999-0071REMSYN082AAXX  10124 82765 22598 50501 10252 20225 39916 40117 84240 333 20219 59007 60084;
0196827650999992006011100004-07333-047467FM-12+019399999V0209999C000010450019N0200001N1+02681+02311101461ADDAY191061AY291061GF106991041021008001041001KA1240M+03201MA1999999099061MD1999999+0031MW1131REMSYN094AAXX  11004 82765 31598 60000 10268 20231 39906 40146 71399 84240 333 10320 29076 55075 58003;
0156827650999992006011112004-07333-047467FM-12+019399999V0209999C000012200019N0200001N1+02721+02411101401ADDGF104991021011008001041001KA1240N+02331MA1999999099011MD1999999-0151REMSYN076AAXX  11124 82765 32598 40000 10272 20241 39901 40140 82140 333 20233 59015;
0165827650999992006011118004-07333-047467FM-12+019399999V0200501N001510450019N0200001N1+03101+02411101091ADDAY101061AY201061GF106991031031008001041001MA1999999098711MD1999999+0161MW1961REMSYN076AAXX  11184 82765 31598 60503 10310 20241 39871 40109 79600 83340 333 58016;
0137827650999992006011218004-07333-047467FM-12+019399999V0200501N003610450019N0200001N1+03221+02201101151ADDGF106991031021008001011041MA1999999098781MD1999999+0071REMSYN070AAXX  12184 82765 32598 60507 10322 20220 39878 40115 83214 333 58007;
0168827650999992006011300004-07333-047467FM-12+019399999V0209999C000010450019N0200001N1+02751+02481101341ADDGF105991031021008001011001KA1240M+03321MA1999999098951MD1999999+0041REMSYN088AAXX  13004 82765 32598 50000 10275 20248 39895 40134 83210 333 10332 29078 55071 58004;
0156827650999992006011312004-07333-047467FM-12+019399999V0201801N001512200019N0200001N1+02581+02371101561ADDGF104991031011008001001041KA1240N+02311MA1999999099161MD1999999+0001REMSYN076AAXX  13124 82765 32598 41803 10258 20237 39916 40156 83104 333 20231 58000;
0137827650999992006011318004-07333-047467FM-12+019399999V0201101N002610450019N0200001N1+03191+02311101331ADDGF106991031021008001011041MA1999999098951MD1999999+0171REMSYN070AAXX  13184 82765 32598 61105 10319 20231 39895 40133 83214 333 58017;
0168827650999992006011400004-07333-047467FM-12+019399999V0209999C000012200019N0200001N1+02831+02521101311ADDGF102991001001999999001041KA1240M+03261MA1999999098921MD1999999-0031REMSYN088AAXX  14004 82765 32998 20000 10283 20252 39892 40131 80004 333 10326 29079 55063 59003;
0156827650999992006011412004-07333-047467FM-12+019399999V0201801N001012200019N0200001N1+02771+02341101331ADDGF103991011011012501031041KA1240N+02311MA1999999098951MD1999999-0211REMSYN076AAXX  14124 82765 32698 31802 10277 20234 39895 40133 81134 333 20231 59021;
0168827650999992006011500004-07333-047467FM-12+019399999V0203601N000519999999N0200001N1+02861+02441101211ADDGF106991061001008001011001KA1240M+03481MA1999999098841MD1999999-0081REMSYN088AAXX  15004 82765 32598 63601 10286 20244 39884 40121 86010 333 10348 29073 55106 59008;
0156827650999992006011512004-07333-047467FM-12+019399999V0200201N002110075019N0200001N1+02661+02411101371ADDGF108991061021008001021999KA1240N+02491MA1999999098991MD1999999+0041REMSYN076AAXX  15124 82765 32598 80204 10266 20241 39899 40137 8622/ 333 20249 58004;
0137827650999992006011518004-07333-047467FM-12+019399999V0201801N001510075019N0200001N1+03041+02481101061ADDGF106991051021008001021001MA1999999098681MD1999999-0031REMSYN070AAXX  15184 82765 32598 61803 10304 20248 39868 40106 85220 333 59003;
0168827650999992006011600004-07333-047467FM-12+019399999V0200501N000510450019N0200001N1+02801+02401101211ADDGF106991041081008001011001KA1240M+03221MA1999999098831MD1999999-0011REMSYN088AAXX  16004 82765 32598 60501 10280 20240 39883 40121 84810 333 10322 29079 55053 59001;
0156827650999992006011612004-07333-047467FM-12+019399999V0201401N000512200019N0200001N1+02641+02441101341ADDGF104991021021008001041001KA1240N+02331MA1999999098951MD1999999-0041REMSYN076AAXX  16124 82765 32598 41401 10264 20244 39895 40134 82240 333 20233 59004;
0137827650999992006011618004-07333-047467FM-12+019399999V0201401N000510450019N0200001N1+03381+02601101041ADDGF106991031021008001011001MA1999999098671MD1999999-0011REMSYN070AAXX  16184 82765 32598 61401 10338 20260 39867 40104 83210 333 59001;
0168827650999992006011700004-07333-047467FM-12+019399999V0209999C000010450019N0200001N1+02881+02521101151ADDGF105991011021008001021001KA1240M+03461MA1999999098771MD1999999-0061REMSYN088AAXX  17004 82765 32598 50000 10288 20252 39877 40115 81220 333 10346 29076 55090 59006;
0156827650999992006011712004-07333-047467FM-12+019399999V0201801N002610450019N0200001N1+02661+02351101371ADDGF106991021011008001041001KA1240N+02371MA1999999098991MD1999999+0041REMSYN076AAXX  17124 82765 32598 61805 10266 20235 39899 40137 82140 333 20237 58004;
0137827650999992006011718004-07333-047467FM-12+019399999V0201401N001510450019N0200001N1+03441+02111101061ADDGF106991031021008001041001MA1999999098701MD1999999+0031REMSYN070AAXX  17184 82765 32598 61403 10344 20211 39870 40106 83240 333 58003;
0178827650999992006011800004-07333-047467FM-12+019399999V0200501N001012200019N0200001N1+02951+02491101181ADDGA1001+999999999GF100991001001999999001001KA1240M+03511MA1999999098811MD1999999+0041REMSYN082AAXX  18004 82765 32998 00502 10295 20249 39881 40118 333 10351 29071 55098 58004;
0156827650999992006011812004-07333-047467FM-12+019399999V0203201N002110450019N0200001N1+02801+02361101441ADDGF106991041021008001041001KA1240N+02501MA1999999099071MD1999999+0081REMSYN076AAXX  18124 82765 32598 63204 10280 20236 39907 40144 84240 333 20250 58008;
0232827650999992006011900004-07333-047467FM-12+019399999V0203601N001510450019N0200001N1+02481+02411101391ADDAA106000091AY191061AY251061GF106991041081008001021001KA1240M+03361MA1999999098981MD1999999+0171MW1131REMSYN100AAXX  19004 82765 21598 63603 10248 20241 39898 40139 71395 84820 333 10336 29082 55076 58017 69921;EQDQ01  00002PRCP06
0192827650999992006011912004-07333-047467FM-12+019399999V0203601N001510450019N0200001N1+02601+02191101371ADDAA124000091GF106991041011008001041001KA1240N+02251MA1999999098971MD1999999-0101REMSYN082AAXX  19124 82765 22598 63603 10260 20219 39897 40137 84140 333 20225 59010 69924;EQDQ01  00002PRCP24
0137827650999992006011918004-07333-047467FM-12+019399999V0202901N002610450019N0200001N1+03061+02351100911ADDGF106991041021008001041001MA1999999098521MD1999999-0121REMSYN070AAXX  19184 82765 32598 62905 10306 20235 39852 40091 84240 333 59012;
0173827650999992006012012004-07333-047467FM-12+019399999V0209999C000010120019N0200001N1+02441+02271101381ADDAA124000591GF107991051081008001041001KA1240N+02331MA1999999098971MD1999999+0001REMSYN082AAXX  20124 82765 22598 70000 10244 20227 39897 40138 85840 333 20233 58000 69944;
0137827650999992006012018004-07333-047467FM-12+019399999V0200501N003110120019N0200001N1+02881+02281101121ADDGF107991061081008001021001MA1999999098721MD1999999+0201REMSYN070AAXX  20184 82765 32598 70506 10288 20228 39872 40112 86820 333 58020;
0168827650999992006012100004-07333-047467FM-12+019399999V0202301N001010120019N0200001N1+02521+01191101181ADDGF108991061081008001021999KA1240M+03301MA1999999098781MD1999999-0051REMSYN088AAXX  21004 82765 32598 82302 10252 20119 39878 40118 8682/ 333 10330 29081 55052 59005;
0156827650999992006012112004-07333-047467FM-12+019399999V0201401N001012200019N0200001N1+02611+02291101401ADDGF104991021011008001041091KA1240N+02241MA1999999099001MD1999999+0031REMSYN076AAXX  21124 82765 32598 41402 10261 20229 39900 40140 82149 333 20224 58003;
0137827650999992006012118004-07333-047467FM-12+019399999V0201401N004110450019N0200001N1+03231+02111101071ADDGF105991031021008001031041MA1999999098691MD1999999-0031REMSYN070AAXX  21184 82765 32598 51408 10323 20211 39869 40107 83234 333 59003;
0178827650999992006012200004-07333-047467FM-12+019399999V0200501N002612200019N0200001N1+02831+02171101141ADDGA1001+999999999GF100991001001999999001001KA1240M+03371MA1999999098761MD1999999-0021REMSYN082AAXX  22004 82765 32998 00505 10283 20217 39876 40114 333 10337 29068 55101 59002;
0156827650999992006012212004-07333-047467FM-12+019399999V0203601N000512200019N0200001N1+02721+02411101421ADDGF103991031011008001001001KA1240N+02291MA1999999099041MD1999999+0041REMSYN076AAXX  22124 82765 32598 33601 10272 20241 39904 40142 83100 333 20229 58004;
0137827650999992006012218004-07333-047467FM-12+019399999V0200501N001510450019N0200001N1+03401+02311101071ADDGF106991041011008001041001MA1999999098711MD1999999+0021REMSYN070AAXX  22184 82765 32598 60503 10340 20231 39871 40107 84140 333 58002;
0178827650999992006012300004-07333-047467FM-12+019399999V0209999C000012200019N0200001N1+02841+02441101151ADDGA1001+999999999GF100991001001999999001001KA1240M+03461MA1999999098781MD1999999+0021REMSYN082AAXX  23004 82765 32998 00000 10284 20244 39878 40115 333 10346 29074 55106 58002;
0156827650999992006012312004-07333-047467FM-12+019399999V0209999C000012200019N0200001N1+02851+02441101391ADDGF103991011011012501061041KA1240N+02411MA1999999099021MD1999999-0021REMSYN076AAXX  23124 82765 32698 30000 10285 20244 39902 40139 81164 333 20241 59002;
0182827650999992006012318004-07333-047467FM-12+019399999V0202301N002610450019N0200001N1+02431+02131101111ADDAA106007191AY161061AY221061GF107991041021008001021031MA1999999098701MD1999999-0011MW1031REMSYN082AAXX  23184 82765 21598 72305 10243 20213 39870 40111 70362 84223 333 59001 60071;
0178827650999992006012400004-07333-047467FM-12+019399999V0202001N001012200019N0200001N1+02481+02341101191ADDGA1001+999999999GF100991001001999999001001KA1240M+03321MA1999999098801MD1999999+0021REMSYN082AAXX  24004 82765 32998 02002 10248 20234 39880 40119 333 10332 29087 55057 58002;
0173827650999992006012412004-07333-047467FM-12+019399999V0200501N000512200019N0200001N1+02681+02431101401ADDAA124007191GF102991021011008001001001KA1240N+02271MA1999999099001MD1999999-0021REMSYN082AAXX  24124 82765 22598 20501 10268 20243 39900 40140 82100 333 20227 59002 60074;
0137827650999992006012418004-07333-047467FM-12+019399999V0200901N001510075019N0200001N1+03341+02431100991ADDGF105991051021008001001001MA1999999098621MD1999999-0081REMSYN070AAXX  24184 82765 32598 50903 10334 20243 39862 40099 85200 333 59008;
0223827650999992006012500004-07333-047467FM-12+019399999V0203601N000512200019N0200001N1+02881+02581101041ADDAA106000391AY151061AY251061GA1001+999999999GF100991001001999999001001KA1240M+03521MA1999999098671MD1999999-0131MW1001REMSYN094AAXX  25004 82765 21998 03601 10288 20258 39867 40104 70055 333 10352 29078 55089 59013 69931;
0173827650999992006012512004-07333-047467FM-12+019399999V0201801N001510450019N0200001N1+02661+02291101551ADDAA124000391GF107991031011008001041001KA1240N+02451MA1999999099161MD1999999+0161REMSYN082AAXX  25124 82765 22598 71803 10266 20229 39916 40155 83140 333 20245 58016 69934;
0137827650999992006012518004-07333-047467FM-12+019399999V0203601N001510450019N0200001N1+03361+02481101241ADDGF106991031021008001041001MA1999999098871MD1999999+0251REMSYN070AAXX  25184 82765 32598 63603 10336 20248 39887 40124 83240 333 58025;
0196827650999992006012600004-07333-047467FM-12+019399999V0209999C000012200019N0200001N1+03061+02671101221ADDAY101061AY201061GF103991021031008001041001KA1240M+03481MA1999999098851MD1999999+0181MW1131REMSYN094AAXX  26004 82765 31598 30000 10306 20267 39885 40122 71300 82340 333 10348 29075 55087 58018;
0201827650999992006012612004-07333-047467FM-12+019399999V0203401N001510450019N0200001N1+02601+02511101561ADDAA124002091AY191061AY261061GF108991041081008001021999KA1240N+02581MA1999999099181MD1999999+0021MW1001REMSYN088AAXX  26124 82765 21598 83403 10260 20251 39918 40156 70096 8482/ 333 20258 58002 60024;
0137827650999992006012618004-07333-047467FM-12+019399999V0200501N001510450019N0200001N1+03301+02581101171ADDGF106991031021008001041001MA1999999098811MD1999999-0061REMSYN070AAXX  26184 82765 32598 60503 10330 20258 39881 40117 83240 333 59006;
0178827650999992006012700004-07333-047467FM-12+019399999V0202901N002112200019N0200001N1+02981+02551101271ADDGA1001+999999999GF100991001001999999001001KA1240M+03381MA1999999098891MD1999999+0041REMSYN082AAXX  27004 82765 32998 02904 10298 20255 39889 40127 333 10338 29079 55052 58004;
0156827650999992006012712004-07333-047467FM-12+019399999V0209999C000011050019N0200001N1+02891+02541101581ADDGF105991021011012501061041KA1240N+02591MA1999999099241MD1999999+0061REMSYN076AAXX  27124 82765 32698 50000 10289 20254 39924 40158 82164 333 20259 58006;
0137827650999992006012718004-07333-047467FM-12+019399999V0202301N000510075019N0200001N1+03151+02691101201ADDGF108991051071008001021999MA1999999098841MD1999999+0031REMSYN070AAXX  27184 82765 32598 82301 10315 20269 39884 40120 8572/ 333 58003;
0156827650999992006012812004-07333-047467FM-12+019399999V0201401N001510450019N0200001N1+02661+02461101631ADDGF107991041081008001041001KA1240N+02411MA1999999099241MD1999999+0001REMSYN076AAXX  28124 82765 32598 71403 10266 20246 39924 40163 84840 333 20241 58000;
0137827650999992006012818004-07333-047467FM-12+019399999V0202301N000512200019N0200001N1+03361+02361101161ADDGF104991031021008001041001MA1999999098791MD1999999+0051REMSYN070AAXX  28184 82765 32598 42301 10336 20236 39879 40116 83240 333 58005;
0196827650999992006012900004-07333-047467FM-12+019399999V0201801N000510450019N0200001N1+02501+02171101521ADDAY191061AY291061GF108991041031008001021999KA1240M+03521MA1999999099121MD1999999+0151MW1291REMSYN094AAXX  29004 82765 31598 81801 10250 20217 39912 40152 72999 8432/ 333 10352 29077 55093 58015;
0182827650999992006012918004-07333-047467FM-12+019399999V0203201N002110450019N0200001N1+02561+02271101241ADDAA106007991AY191061AY261061GF106991021031008001021001MA1999999098821MD1999999+0031MW1291REMSYN082AAXX  29184 82765 21598 63204 10256 20227 39882 40124 72996 82320 333 58003 60081;
0196827650999992006013000004-07333-047467FM-12+019399999V0200501N000512200019N0200001N1+02761+02501101201ADDAY101061AY201061GF103991021021008001041001KA1240M+03281MA1999999098821MD1999999-0301MW1131REMSYN094AAXX  30004 82765 31598 30501 10276 20250 39882 40120 71300 82240 333 10328 29085 55058 59030;
0173827650999992006013012004-07333-047467FM-12+019399999V0203201N000510075019N0200001N1+02721+02451101461ADDAA124007991GF105991051031008001001001KA1240N+02381MA1999999099071MD1999999-0011REMSYN082AAXX  30124 82765 22598 53201 10272 20245 39907 40146 85300 333 20238 59001 60084;
0137827650999992006013018004-07333-047467FM-12+019399999V0202301N001010450019N0200001N1+03321+02321101011ADDGF106991041031008001061001MA1999999098641MD1999999-0181REMSYN070AAXX  30184 82765 32598 62302 10332 20232 39864 40101 84360 333 59018;
0201827650999992006013112004-07333-047467FM-12+019399999V0209999C000010450019N0200001N1+02741+02481101441ADDAA124016091AY151061AY221061GF106991041021008001031001KA1240N+02441MA1999999099051MD1999999-0071MW1031REMSYN088AAXX  31124 82765 21598 60000 10274 20248 39905 40144 70352 84230 333 20244 59007 60164;
0182827650999992006013118004-07333-047467FM-12+019399999V0200501N003110042019N0200001N1+02861+02391101121ADDAA106005191AY161061AY221061GF108991051021004501021999MA1999999098731MD1999999+0091MW1031REMSYN082AAXX  31184 82765 21498 80506 10286 20239 39873 40112 70362 8522/ 333 58009 60051;
0213827650999992006020100004-07333-047467FM-12+019399999V0209999C000010450019N0200001N1+02391+02261101231ADDAA106000591AY161061AY221061GF106991041021008001011001KA1240M+03061MA1999999098831MD1999999-0011MW1131REMSYN100AAXX  01004 82765 21598 60000 10239 20226 39883 40123 71362 84210 333 10306 29087 55040 59001 69951;
0201827650999992006020112004-07333-047467FM-12+019399999V0201401N001510042019N0040001N1+02361+02281101471ADDAA124005191AY121061AY221061GF108991081071004501999999KA1240N+02341MA1999999099051MD1999999+0001MW1611REMSYN088AAXX  01124 82765 21496 81403 10236 20228 39905 40147 76122 887// 333 20234 58000 60054;
0182827650999992006020118004-07333-047467FM-12+019399999V0201401N000510090019N0200001N1+02281+02211101251ADDAA106025991AY161061AY251061GF108991051081004501021999MA1999999098821MD1999999+0091MW1021REMSYN082AAXX  01184 82765 21498 81401 10228 20221 39882 40125 70265 8582/ 333 58009 60261;
0168827650999992006020200004-07333-047467FM-12+019399999V0209999C000010090019N0200001N1+02381+02291101371ADDGF108991051081004501021999KA1240M+02481MA1999999098951MD1999999+0121REMSYN088AAXX  02004 82765 32498 80000 10238 20229 39895 40137 8582/ 333 10248 29095 55000 58012;
0201827650999992006020212004-07333-047467FM-12+019399999V0203601N001010450019N0200001N1+02401+02281101451ADDAA124034091AY161061AY261061GF108991021011008001021999KA1240N+02251MA1999999099031MD1999999-0021MW1031REMSYN088AAXX  02124 82765 21598 83602 10240 20228 39903 40145 70366 8212/ 333 20225 59002 60344;
0137827650999992006020218004-07333-047467FM-12+019399999V0203601N001510450019N0200001N1+03041+02431101131ADDGF108991041021008001041001MA1999999098741MD1999999-0081REMSYN070AAXX  02184 82765 32598 83603 10304 20243 39874 40113 84240 333 59008;
0213827650999992006020300004-07333-047467FM-12+019399999V0203601N002610450019N0200001N1+02441+02341101401ADDAA106004191AY161061AY261061GF108991031081008001021999KA1240M+03181MA1999999098981MD1999999+0031MW1031REMSYN100AAXX  03004 82765 21598 83605 10244 20234 39898 40140 70366 8382/ 333 10318 29088 55026 58003 60041;
0201827650999992006020312004-07333-047467FM-12+019399999V0202701N001010450019N0200001N1+02381+02291101381ADDAA124025991AY161061AY261061GF108991041051008001021999KA1240N+02331MA1999999098961MD1999999-0071MW1031REMSYN088AAXX  03124 82765 21598 82702 10238 20229 39896 40138 70366 8452/ 333 20233 59007 60264;
0165827650999992006020318004-07333-047467FM-12+019399999V0202701N002610450019N0200001N1+03081+02401101011ADDAY101061AY201061GF106991041021008001041001MA1999999098631MD1999999-0111MW1151REMSYN076AAXX  03184 82765 31598 62705 10308 20240 39863 40101 71500 84240 333 59011;
0213827650999992006020400004-07333-047467FM-12+019399999V0209999C000010075019N0200001N1+02541+02381101301ADDAA106000021AY151061AY251061GF108991051051008001021999KA1240M+03201MA1999999098891MD1999999-0091MW1511REMSYN100AAXX  04004 82765 21598 80000 10254 20238 39889 40130 75155 8552/ 333 10320 29086 55054 59009 69921;
0137827650999992006020418004-07333-047467FM-12+019399999V0202001N002612200019N0200001N1+03021+02261100921ADDGF104991031021008001041001MA1999999098511MD1999999-0091REMSYN070AAXX  04184 82765 32598 42005 10302 20226 39851 40092 83240 333 59009;
0201827650999992006020512004-07333-047467FM-12+019399999V0209999C000010120019N0200001N1+02461+02341101511ADDAA124023191AY151061AY251061GF108991061081008001021999KA1240N+02371MA1999999099091MD1999999+0121MW1001REMSYN088AAXX  05124 82765 21598 80000 10246 20234 39909 40151 70055 8682/ 333 20237 58012 60234;
0137827650999992006020518004-07333-047467FM-12+019399999V0203201N001510120019N0200001N1+02921+02471101081ADDGF107991051081008001041001MA1999999098691MD1999999+0151REMSYN070AAXX  05184 82765 32598 73203 10292 20247 39869 40108 85840 333 58015;
0213827650999992006020600004-07333-047467FM-12+019399999V0209999C000010075019N0200001N1+02501+02311101361ADDAA106000021AY101061AY201061GF108991061051008001021999KA1240M+02961MA1999999098951MD1999999+0071MW1511REMSYN100AAXX  06004 82765 21598 80000 10250 20231 39895 40136 75100 8652/ 333 10296 29087 55018 58007 69921;
0201827650999992006020612004-07333-047467FM-12+019399999V0209999C000010120019N0200001N1+02421+02301101561ADDAA124008991AY161061AY261061GF108991061081008001021999KA1240N+02351MA1999999099141MD1999999+0051MW1001REMSYN088AAXX  06124 82765 21598 80000 10242 20230 39914 40156 70066 8682/ 333 20235 58005 60094;
0137827650999992006020618004-07333-047467FM-12+019399999V0209999C000010450019N0200001N1+03021+02441101121ADDGF106991041021008001041001MA1999999098731MD1999999+0041REMSYN070AAXX  06184 82765 32598 60000 10302 20244 39873 40112 84240 333 58004;
0213827650999992006020700004-07333-047467FM-12+019399999V0200701N003110075019N0200001N1+02461+02321101451ADDAA106014091AY161061AY261061GF108991061051008001021999KA1240M+03121MA1999999099041MD1999999+0091MW1511REMSYN100AAXX  07004 82765 21598 80706 10246 20232 39904 40145 75166 8652/ 333 10312 29087 55034 58009 60141;
0201827650999992006020712004-07333-047467FM-12+019399999V0203601N001510120019N0200001N1+02361+02221101521ADDAA124015091AY151061AY251061GF108991061081008001021999KA1240N+02231MA1999999099101MD1999999-0041MW1001REMSYN088AAXX  07124 82765 21598 83603 10236 20222 39910 40152 70055 8682/ 333 20223 59004 60154;
0137827650999992006020718004-07333-047467FM-12+019399999V0203601N001510450019N0200001N1+03141+02271101141ADDGF106991041021008001041001MA1999999098761MD1999999+0031REMSYN070AAXX  07184 82765 32598 63603 10314 20227 39876 40114 84240 333 58003;
0168827650999992006020800004-07333-047467FM-12+019399999V0209999C000012200019N0200001N1+02661+02431101311ADDGF102991021011008001001001KA1240M+03221MA1999999098901MD1999999-0141REMSYN088AAXX  08004 82765 32598 20000 10266 20243 39890 40131 82100 333 10322 29082 55046 59014;
0166827650999992006020812004-07333-047467FM-12+019399999V0200201N001512200019N0200001N1+02611+02291101491ADDGA1001+999999999GF100991001001999999001001KA1240N+02261MA1999999099091MD1999999-0011REMSYN070AAXX  08124 82765 32998 00203 10261 20229 39909 40149 333 20226 59001;
0137827650999992006020818004-07333-047467FM-12+019399999V0203601N002610075019N0200001N1+03281+02161101091ADDGF105991051021008001001001MA1999999098721MD1999999-0041REMSYN070AAXX  08184 82765 32598 53605 10328 20216 39872 40109 85200 333 59004;
0178827650999992006020900004-07333-047467FM-12+019399999V0200501N000512200019N0200001N1+02891+02501101251ADDGA1001+999999999GF100991001001999999001001KA1240M+03411MA1999999098871MD1999999-0031REMSYN082AAXX  09004 82765 32998 00501 10289 20250 39887 40125 333 10341 29074 55108 59003;
0137827650999992006020918004-07333-047467FM-12+019399999V0202301N001510450019N0200001N1+03331+02441101231ADDGF106991041021008001061001MA1999999098861MD1999999+0141REMSYN070AAXX  09184 82765 32598 62303 10333 20244 39886 40123 84260 333 58014;
0168827650999992006021000004-07333-047467FM-12+019399999V0209999C000010450019N0200001N1+02951+02581101331ADDGF108991041011008001011999KA1240M+03441MA1999999098951MD1999999+0081REMSYN088AAXX  10004 82765 32598 80000 10295 20258 39895 40133 8411/ 333 10344 29076 55088 58008;
0201827650999992006021012004-07333-047467FM-12+019399999V0202701N002110450019N0200001N1+02591+02481101671ADDAA124000891AY161061AY221061GF107991041021004501041041KA1240N+02551MA1999999099281MD1999999+0071MW1031REMSYN088AAXX  10124 82765 21498 72704 10259 20248 39928 40167 70362 84244 333 20255 58007 69984;
0137827650999992006021018004-07333-047467FM-12+019399999V0203201N001510450019N0200001N1+03171+02421101311ADDGF108991031021008001011999MA1999999098941MD1999999+0081REMSYN070AAXX  10184 82765 32598 83203 10317 20242 39894 40131 8321/ 333 58008;
0168827650999992006021100004-07333-047467FM-12+019399999V0200901N001510450019N0200001N1+02821+02561101501ADDGF108991021011008001011999KA1240M+03221MA1999999099111MD1999999+0161REMSYN088AAXX  11004 82765 32598 80903 10282 20256 39911 40150 8211/ 333 10322 29083 55032 58016;
0201827650999992006021112004-07333-047467FM-12+019399999V0209999C000010450019N0200001N1+02461+02321101681ADDAA124049091AY161061AY261061GF107991031081008001041001KA1240N+02311MA1999999099281MD1999999+0001MW1001REMSYN088AAXX  11124 82765 21598 70000 10246 20232 39928 40168 70066 83840 333 20231 58000 60494;
0137827650999992006021118004-07333-047467FM-12+019399999V0200501N001010450019N0200001N1+02941+02401101281ADDGF106991031021008001011001MA1999999098881MD1999999-0061REMSYN070AAXX  11184 82765 32598 60502 10294 20240 39888 40128 83210 333 59006;
0168827650999992006021200004-07333-047467FM-12+019399999V0209999C000010450019N0200001N1+02741+02541101381ADDGF108991021011008001011999KA1240M+03121MA1999999098981MD1999999-0131REMSYN088AAXX  12004 82765 32598 80000 10274 20254 39898 40138 8211/ 333 10312 29086 55007 59013;
0201827650999992006021212004-07333-047467FM-12+019399999V0203601N001510450019N0200001N1+02501+02361101671ADDAA124002091AY161061AY261061GF108991041081008001021999KA1240N+02451MA1999999099261MD1999999-0021MW1031REMSYN088AAXX  12124 82765 21598 83603 10250 20236 39926 40167 70366 8482/ 333 20245 59002 60024;
0137827650999992006021218004-07333-047467FM-12+019399999V0202501N001010075019N0200001N1+02801+02361101361ADDGF108991061021008001021999MA1999999098961MD1999999+0081REMSYN070AAXX  12184 82765 32598 82502 10280 20236 39896 40136 8622/ 333 58008;
0213827650999992006021300004-07333-047467FM-12+019399999V0209999C000010120019N0200001N1+02381+02261101571ADDAA106000591AY151061AY251061GF108991051081008001021999KA1240M+02901MA1999999099151MD1999999+0171MW1031REMSYN100AAXX  13004 82765 21598 80000 10238 20226 39915 40157 70355 8582/ 333 10290 29089 55000 58017 69961;
0173827650999992006021312004-07333-047467FM-12+019399999V0209999C000010120019N0200001N1+02441+02341101761ADDAA124001091GF108991061081008001021999KA1240N+02311MA1999999099331MD1999999+0071REMSYN082AAXX  13124 82765 22598 80000 10244 20234 39933 40176 8682/ 333 20231 58007 60014;
0168827650999992006021400004-07333-047467FM-12+019399999V0201801N000510450019N0200001N1+02601+02401101471ADDGF107991031011008001011001KA1240M+03021MA1999999099061MD1999999-0091REMSYN088AAXX  14004 82765 32598 71801 10260 20240 39906 40147 83110 333 10302 29088 55038 59009;
0201827650999992006021412004-07333-047467FM-12+019399999V0203201N001010120019N0200001N1+02481+02411101661ADDAA124005191AY161061AY261061GF107991051081008001041001KA1240N+02291MA1999999099251MD1999999-0081MW1001REMSYN088AAXX  14124 82765 21598 73202 10248 20241 39925 40166 70066 85840 333 20229 59008 60054;
0137827650999992006021418004-07333-047467FM-12+019399999V0203201N001510450019N0200001N1+03021+02611101231ADDGF105991031021008001041001MA1999999098841MD1999999-0101REMSYN070AAXX  14184 82765 32598 53203 10302 20261 39884 40123 83240 333 59010;
0168827650999992006021500004-07333-047467FM-12+019399999V0209999C000010120019N0200001N1+02701+02461101461ADDGF107991061081008001041001KA1240M+03181MA1999999099061MD1999999+0001REMSYN088AAXX  15004 82765 32598 70000 10270 20246 39906 40146 86840 333 10318 29085 55051 58000;
0156827650999992006021512004-07333-047467FM-12+019399999V0203201N000510450019N0200001N1+02621+02351101541ADDGF106991041081008001041001KA1240N+02451MA1999999099151MD1999999-0101REMSYN076AAXX  15124 82765 32598 63201 10262 20235 39915 40154 84840 333 20245 59010;
0137827650999992006021518004-07333-047467FM-12+019399999V0201801N000510450019N0200001N1+03161+02391101301ADDGF107991041011008001071001MA1999999098921MD1999999+0081REMSYN070AAXX  15184 82765 32598 71801 10316 20239 39892 40130 84170 333 58008;
0168827650999992006021600004-07333-047467FM-12+019399999V0209999C000012200019N0200001N1+02741+02451101321ADDGF104991021021008001041001KA1240M+03221MA1999999098931MD1999999-0131REMSYN088AAXX  16004 82765 32598 40000 10274 20245 39893 40132 82240 333 10322 29079 55033 59013;
0156827650999992006021612004-07333-047467FM-12+019399999V0201801N000512200019N0200001N1+02681+02501101481ADDGF104991021011008001071001KA1240N+02411MA1999999099091MD1999999-0061REMSYN076AAXX  16124 82765 32598 41801 10268 20250 39909 40148 82170 333 20241 59006;
0137827650999992006021618004-07333-047467FM-12+019399999V0202301N002110450019N0200001N1+03321+02321101111ADDGF106991041021008001041001MA1999999098691MD1999999-0231REMSYN070AAXX  16184 82765 32598 62304 10332 20232 39869 40111 84240 333 59023;
0168827650999992006021700004-07333-047467FM-12+019399999V0202001N001010450019N0200001N1+02641+02181101341ADDGF105991031021008001041001KA1240M+03381MA1999999098951MD1999999+0021REMSYN088AAXX  17004 82765 32598 52002 10264 20218 39895 40134 83240 333 10338 29074 55092 58002;
0156827650999992006021712004-07333-047467FM-12+019399999V0202501N001010450019N0200001N1+02451+02271101531ADDGF107991041011008001031001KA1240N+02321MA1999999099121MD1999999+0031REMSYN076AAXX  17124 82765 32598 72502 10245 20227 39912 40153 84130 333 20232 58003;
0137827650999992006021718004-07333-047467FM-12+019399999V0202701N004110450019N0200001N1+02911+02201101121ADDGF106991031021008001061041MA1999999098731MD1999999+0041REMSYN070AAXX  17184 82765 32598 62708 10291 20220 39873 40112 83264 333 58004;
0168827650999992006021800004-07333-047467FM-12+019399999V0209999C000010450019N0200001N1+02741+02431101271ADDGF107991041021008001021001KA1240M+03131MA1999999098871MD1999999-0081REMSYN088AAXX  18004 82765 32598 70000 10274 20243 39887 40127 84220 333 10313 29080 55052 59008;
0201827650999992006021812004-07333-047467FM-12+019399999V0202901N001510450019N0200001N1+02341+02241101641ADDAA124054191AY161061AY261061GF107991041081004501031001KA1240N+02261MA1999999099231MD1999999+0111MW1031REMSYN088AAXX  18124 82765 21498 72903 10234 20224 39923 40164 70366 84830 333 20226 58011 60544;
0137827650999992006021818004-07333-047467FM-12+019399999V0202301N002112200019N0200001N1+03161+02341101211ADDGF104991021021008001031091MA1999999098831MD1999999+0101REMSYN070AAXX  18184 82765 32598 42304 10316 20234 39883 40121 82239 333 58010;
0178827650999992006021900004-07333-047467FM-12+019399999V0209999C000012200019N0200001N1+02861+02581101331ADDGA1001+999999999GF100991001001999999001001KA1240M+03391MA1999999098931MD1999999+0061REMSYN082AAXX  19004 82765 32998 00000 10286 20258 39893 40133 333 10339 29082 55074 58006;
0156827650999992006021912004-07333-047467FM-12+019399999V0209999C000012200019N0200001N1+02631+02331101621ADDGF103991031011008001001001KA1240N+02401MA1999999099231MD1999999+0001REMSYN076AAXX  19124 82765 32598 30000 10263 20233 39923 40162 83100 333 20240 58000;
0137827650999992006021918004-07333-047467FM-12+019399999V0203601N001512200019N0200001N1+03261+02381101221ADDGF104991021021008001061051MA1999999098851MD1999999+0021REMSYN070AAXX  19184 82765 32598 43603 10326 20238 39885 40122 82265 333 58002;
0196827650999992006022000004-07333-047467FM-12+019399999V0200501N001510450019N0200001N1+02811+02291101411ADDAY121061AY221061GF105991031021004501021001KA1240M+03361MA1999999099021MD1999999+0091MW1131REMSYN094AAXX  20004 82765 31498 50503 10281 20229 39902 40141 71322 83220 333 10336 29073 55095 58009;
0156827650999992006022012004-07333-047467FM-12+019399999V0200901N000519999999N0200001N1+02621+02371101431ADDGF106991021001008001041021KA1240N+02371MA1999999099041MD1999999-0191REMSYN076AAXX  20124 82765 32598 60901 10262 20237 39904 40143 82042 333 20237 59019;
0165827650999992006022018004-07333-047467FM-12+019399999V0203601N002610075019N0200001N1+02721+02261101071ADDAY191061AY201061GF107991051021008001041001MA1999999098671MD1999999-0181MW1291REMSYN076AAXX  20184 82765 31598 73605 10272 20226 39867 40107 72990 85240 333 59018;
0213827650999992006022100004-07333-047467FM-12+019399999V0203601N001510450019N0200001N1+02261+02111101271ADDAA106009991AY191061AY261061GF108991021031008001021999KA1240M+03361MA1999999098861MD1999999-0161MW1631REMSYN100AAXX  21004 82765 21598 83603 10226 20211 39886 40127 76396 8232/ 333 10336 29086 55062 59016 60101;
0201827650999992006022112004-07333-047467FM-12+019399999V0202701N001010120019N0200001N1+02361+02281101541ADDAA124011991AY191061AY261061GF108991051081008001021999KA1240N+02251MA1999999099111MD1999999+0071MW1031REMSYN088AAXX  21124 82765 21598 82702 10236 20228 39911 40154 70396 8582/ 333 20225 58007 60124;
0165827650999992006022118004-07333-047467FM-12+019399999V0201801N002110450019N0200001N1+03001+02441101171ADDAY101061AY201061GF108991031021008001011999MA1999999098781MD1999999+0111MW1291REMSYN076AAXX  21184 82765 31598 81804 10300 20244 39878 40117 72900 8321/ 333 58011;
0223827650999992006022200004-07333-047467FM-12+019399999V0203601N000512200019N0200001N1+02641+02481101181ADDAA106000391AY151061AY201061GA1001+999999999GF100991001001999999001001KA1240M+03041MA1999999098781MD1999999-0081MW1001REMSYN094AAXX  22004 82765 21998 03601 10264 20248 39878 40118 70050 333 10304 29087 55000 59008 69931;
0173827650999992006022212004-07333-047467FM-12+019399999V0209999C000010075019N0200001N1+02601+02421101581ADDAA124000391GF107991061021008001041001KA1240N+02391MA1999999099181MD1999999+0071REMSYN082AAXX  22124 82765 22598 70000 10260 20242 39918 40158 86240 333 20239 58007 69934;
0137827650999992006022218004-07333-047467FM-12+019399999V0202901N001510075019N0200001N1+03261+02331101091ADDGF106991051021008001041001MA1999999098721MD1999999-0061REMSYN070AAXX  22184 82765 32598 62903 10326 20233 39872 40109 85240 333 59006;
0168827650999992006022300004-07333-047467FM-12+019399999V0209999C000012200019N0200001N1+02901+02521101201ADDGF102991021031008001001001KA1240M+03361MA1999999098821MD1999999+0041REMSYN088AAXX  23004 82765 32598 20000 10290 20252 39882 40120 82300 333 10336 29077 55104 58004;
0156827650999992006022312004-07333-047467FM-12+019399999V0200501N000510450019N0200001N1+02741+02451101541ADDGF105991031021008001041001KA1240N+02451MA1999999099161MD1999999-0021REMSYN076AAXX  23124 82765 32598 50501 10274 20245 39916 40154 83240 333 20245 59002;
0137827650999992006022318004-07333-047467FM-12+019399999V0203201N002110450019N0200001N1+03341+02431101071ADDGF105991041021008001041001MA1999999098701MD1999999-0021REMSYN070AAXX  23184 82765 32598 53204 10334 20243 39870 40107 84240 333 59002;
0196827650999992006022400004-07333-047467FM-12+019399999V0203401N001010450019N0200001N1+02841+02441101321ADDAY191061AY291061GF106991041081008001041001KA1240M+03441MA1999999098941MD1999999+0121MW1131REMSYN094AAXX  24004 82765 31598 63402 10284 20244 39894 40132 71399 84840 333 10344 29075 55099 58012;
0156827650999992006022412004-07333-047467FM-12+019399999V0209999C000010075019N0200001N1+02501+02271101491ADDGF108991051051008001011999KA1240N+02371MA1999999099091MD1999999-0071REMSYN076AAXX  24124 82765 32598 80000 10250 20227 39909 40149 8551/ 333 20237 59007;
0182827650999992006022418004-07333-047467FM-12+019399999V0202301N000510120019N0200001N1+02721+02471101121ADDAA106011991AY191061AY261061GF108991061081008001051999MA1999999098721MD1999999+0021MW1001REMSYN082AAXX  24184 82765 21598 82301 10272 20247 39872 40112 70096 8685/ 333 58002 60121;
0213827650999992006022500004-07333-047467FM-12+019399999V0201401N001510075019N0200001N1+02521+02401101411ADDAA106020191AY191061AY261061GF108991051051008001021999KA1240M+03061MA1999999099001MD1999999+0061MW1551REMSYN100AAXX  25004 82765 21598 81403 10252 20240 39900 40141 75596 8552/ 333 10306 29090 55024 58006 60201;
0167827650999992006022512004-07333-047467FM-12+019399999V0203601N002119999999N0200001N1+02601+02391101581ADDGF108991999999004501999999KA1240N+02351MA1999999099171MD1999999+0081REMSYN087AAXX  25124 82765 21498 83604 10260 20239 39917 40158 7362 8582/ 333 20235 58008 60424;
0182827650999992006022518004-07333-047467FM-12+019399999V0203201N002610450019N0200001N1+03041+02591101051ADDAA106002091AY161061AY221061GF105991031091004501061041MA1999999098661MD1999999-0061MW1031REMSYN082AAXX  25184 82765 21498 53205 10304 20259 39866 40105 70362 83964 333 59006 60021;
0168827650999992006022600004-07333-047467FM-12+019399999V0203601N001510090019N0200001N1+02641+02461101271ADDGF108991051081004501021999KA1240M+03221MA1999999098871MD1999999-0131REMSYN088AAXX  26004 82765 32498 83603 10264 20246 39887 40127 8582/ 333 10322 29086 55057 59013;
0201827650999992006022612004-07333-047467FM-12+019399999V0209999C000010090019N0200001N1+02561+02461101491ADDAA124003091AY161061AY221061GF108991051081004501021999KA1240N+02501MA1999999099091MD1999999-0081MW1031REMSYN088AAXX  26124 82765 21498 80000 10256 20246 39909 40149 70362 8582/ 333 20250 59008 60034;
0182827650999992006022618004-07333-047467FM-12+019399999V0201801N002610090019N0100001N1+02981+02631101071ADDAA106000591AY161061AY221061GF108991051081004501021999MA1999999098691MD1999999+0031MW1521REMSYN082AAXX  26184 82765 21497 81805 10298 20263 39869 40107 75262 8582/ 333 58003 69951;
0213827650999992006022700004-07333-047467FM-12+019399999V0200501N002110090019N0200001N1+02651+02501101221ADDAA106000391AY151061AY221061GF108991051081004501021999KA1240M+03081MA1999999098831MD1999999-0041MW1131REMSYN100AAXX  27004 82765 21498 80504 10265 20250 39883 40122 71352 8582/ 333 10308 29088 55017 59004 69931;
0201827650999992006022712004-07333-047467FM-12+019399999V0209999C000010450019N0200001N1+02601+02391101481ADDAA124001091AY151061AY221061GF107991041081004501021001KA1240N+02451MA1999999099081MD1999999-0011MW1031REMSYN088AAXX  27124 82765 21498 70000 10260 20239 39908 40148 70352 84820 333 20245 59001 60014;
0137827650999992006022718004-07333-047467FM-12+019399999V0203601N002110090019N0200001N1+03091+02491101121ADDGF108991051081004501021999MA1999999098741MD1999999+0051REMSYN070AAXX  27184 82765 32498 83604 10309 20249 39874 40112 8582/ 333 58005;
0201827650999992006022812004-07333-047467FM-12+019399999V0201801N001010120019N0200001N1+02521+02401101561ADDAA124004191AY161061AY201061GF108991061081008001021999KA1240N+02441MA1999999099161MD1999999+0081MW1031REMSYN088AAXX  28124 82765 21598 81802 10252 20240 39916 40156 70360 8682/ 333 20244 58008 60044;
0165827650999992006022818004-07333-047467FM-12+019399999V0202301N003110075019N0200001N1+02801+02401101231ADDAY191061AY221061GF108991061051008001021999MA1999999098841MD1999999+0101MW1161REMSYN076AAXX  28184 82765 31598 82306 10280 20240 39884 40123 71692 8652/ 333 58010;
0213827650999992006030100004-07333-047467FM-12+019399999V0201401N001010090019N0200001N1+02461+02371101481ADDAA106002091AY161061AY221061GF108991051081004501021999KA1240M+03141MA1999999099071MD1999999+0111MW1031REMSYN100AAXX  01004 82765 21498 81402 10246 20237 39907 40148 70362 8582/ 333 10314 29090 55027 58011 60021;
0173827650999992006030112004-07333-047467FM-12+019399999V0203201N002610450019N0200001N1+02441+02301101701ADDAA124002091GF108991041081008001021999KA1240N+02411MA1999999099281MD1999999+0121REMSYN082AAXX  01124 82765 22598 83205 10244 20230 39928 40170 8482/ 333 20241 58012 60024;
0137827650999992006030118004-07333-047467FM-12+019399999V0202901N001510120019N0200001N1+02761+02301101411ADDGF108991061081008001021999MA1999999099011MD1999999-0061REMSYN070AAXX  01184 82765 32598 82903 10276 20230 39901 40141 8682/ 333 59006;
0168827650999992006030200004-07333-047467FM-12+019399999V0209999C000010120019N0200001N1+02621+02441101511ADDGF108991051081008001021999KA1240M+02841MA1999999099101MD1999999+0261REMSYN088AAXX  02004 82765 32598 80000 10262 20244 39910 40151 8582/ 333 10284 29087 55000 58026;
0156827650999992006030212004-07333-047467FM-12+019399999V0209999C000010450019N0200001N1+02541+02381101731ADDGF106991021011008001041001KA1240N+02411MA1999999099321MD1999999+0041REMSYN076AAXX  02124 82765 32598 60000 10254 20238 39932 40173 82140 333 20241 58004;
0165827650999992006030218004-07333-047467FM-12+019399999V0209999C000010450019N0200001N1+03181+02441101281ADDAY101061AY201061GF106991041021008001041001MA1999999098901MD1999999-0111MW1161REMSYN076AAXX  02184 82765 31598 60000 10318 20244 39890 40128 71600 84240 333 59011;
0196827650999992006030300004-07333-047467FM-12+019399999V0209999C000012200019N0200001N1+02801+02561101351ADDAY101061AY201061GF103991031031008001001001KA1240M+03241MA1999999098961MD1999999-0141MW1131REMSYN094AAXX  03004 82765 31598 30000 10280 20256 39896 40135 71300 83300 333 10324 29082 55062 59014;
0192827650999992006030312004-07333-047467FM-12+019399999V0203601N002110450019N0200001N1+02661+02391101661ADDAA124000091GF106991041021008001041001KA1240N+02431MA1999999099271MD1999999-0051REMSYN082AAXX  03124 82765 22598 63604 10266 20239 39927 40166 84240 333 20243 59005 69924;EQDQ01  00002PRCP24
0182827650999992006030318004-07333-047467FM-12+019399999V0200901N000510450019N0200001N1+03101+02411101241ADDAA106005191AY161061AY261061GF105991031021008001041001MA1999999098851MD1999999-0051MW1001REMSYN082AAXX  03184 82765 21598 50901 10310 20241 39885 40124 70066 83240 333 59005 60051;
0196827650999992006030400004-07333-047467FM-12+019399999V0209999C000012200019N0200001N1+02741+02341101361ADDAY101061AY201061GF103991021011008001041001KA1240M+03241MA1999999098971MD1999999+0011MW1131REMSYN094AAXX  04004 82765 31598 30000 10274 20234 39897 40136 71300 82140 333 10324 29078 55084 58001;
0173827650999992006030412004-07333-047467FM-12+019399999V0203201N001510450019N0200001N1+02721+02391101671ADDAA124006191GF106991041011008001041001KA1240N+02411MA1999999099281MD1999999+0011REMSYN082AAXX  04124 82765 22598 63203 10272 20239 39928 40167 84140 333 20241 58001 60064;
0196827650999992006030500004-07333-047467FM-12+019399999V0200501N000512200019N0200001N1+02781+02481101491ADDAY101061AY201061GF104991021031008001041001KA1240M+03241MA1999999099101MD1999999+0131MW1131REMSYN094AAXX  05004 82765 31598 40501 10278 20248 39910 40149 71300 82340 333 10324 29081 55085 58013;
0173827650999992006030512004-07333-047467FM-12+019399999V0203401N002110450019N0200001N1+02651+02411101801ADDAA124005191GF106991041081008001041001KA1240N+02451MA1999999099401MD1999999+0121REMSYN082AAXX  05124 82765 22598 63404 10265 20241 39940 40180 84840 333 20245 58012 60054;
0201827650999992006030518004-07333-047467FM-12+019399999V0203201N001510450019N0200001N1+03241+02551101221ADDAA106000091AY151061AY251061GF106991041021008001041001MA1999999098861MD1999999-0041MW1001REMSYN082AAXX  05184 82765 21598 63203 10324 20255 39886 40122 70055 84240 333 59004 69921;EQDQ01  00002PRCP06
0196827650999992006030600004-07333-047467FM-12+019399999V0201401N001512200019N0200001N1+02761+02481101501ADDAY101061AY201061GF103991011011008001041001KA1240M+03341MA1999999099111MD1999999+0011MW1131REMSYN094AAXX  06004 82765 31598 31403 10276 20248 39911 40150 71300 81140 333 10334 29081 55075 58001;
0201827650999992006030612004-07333-047467FM-12+019399999V0203201N001510120019N0200001N1+02601+02371101751ADDAA124000591AY151061AY201061GF108991051081008001021999KA1240N+02451MA1999999099351MD1999999-0051MW1001REMSYN088AAXX  06124 82765 21598 83203 10260 20237 39935 40175 70050 8582/ 333 20245 59005 69964;
0137827650999992006030618004-07333-047467FM-12+019399999V0203201N002110075019N0200001N1+03221+02431101251ADDGF106991051021008001041001MA1999999098881MD1999999+0021REMSYN070AAXX  06184 82765 32598 63204 10322 20243 39888 40125 85240 333 58002;
0196827650999992006030700004-07333-047467FM-12+019399999V0200901N000512200019N0200001N1+02821+02461101481ADDAY101061AY201061GF104991021011008001011001KA1240M+03281MA1999999099091MD1999999-0021MW1131REMSYN094AAXX  07004 82765 31598 40901 10282 20246 39909 40148 71300 82110 333 10328 29078 55068 59002;
0156827650999992006030712004-07333-047467FM-12+019399999V0203601N001510090019N0200001N1+02681+02391101621ADDGF107991051081004501011001KA1240N+02521MA1999999099231MD1999999-0121REMSYN076AAXX  07124 82765 32498 73603 10268 20239 39923 40162 85810 333 20252 59012;
0137827650999992006030718004-07333-047467FM-12+019399999V0203601N001510450019N0200001N1+03251+02331101051ADDGF106991041021008001061001MA1999999098711MD1999999-0171REMSYN070AAXX  07184 82765 32598 63603 10325 20233 39871 40105 84260 333 59017;
0168827650999992006030800004-07333-047467FM-12+019399999V0209999C000010450019N0200001N1+02911+02481101301ADDGF105991031021008001061001KA1240M+03341MA1999999098921MD1999999-0171REMSYN088AAXX  08004 82765 32598 50000 10291 20248 39892 40130 83260 333 10334 29075 55088 59017;
0156827650999992006030812004-07333-047467FM-12+019399999V0209999C000010450019N0200001N1+02531+02431101561ADDGF107991041021008001011001KA1240N+02531MA1999999099171MD1999999-0061REMSYN076AAXX  08124 82765 32598 70000 10253 20243 39917 40156 84210 333 20253 59006;
0137827650999992006030818004-07333-047467FM-12+019399999V0203601N002110450019N0200001N1+03251+02361100961ADDGF105991031021008001061041MA1999999098601MD1999999-0111REMSYN070AAXX  08184 82765 32598 53604 10325 20236 39860 40096 83264 333 59011;
0196827650999992006030900004-07333-047467FM-12+019399999V0200901N001510042019N0200001N1+02631+02311101301ADDAY191061AY221061GF108991051021004501021999KA1240M+03351MA1999999098901MD1999999-0021MW1171REMSYN094AAXX  09004 82765 31498 80903 10263 20231 39890 40130 71792 8522/ 333 10335 29080 55065 59002;
0201827650999992006030912004-07333-047467FM-12+019399999V0201401N000510090019N0200001N1+02521+02291101511ADDAA124002091AY161061AY221061GF107991051081004501041001KA1240N+02401MA1999999099111MD1999999-0061MW1031REMSYN088AAXX  09124 82765 21498 71401 10252 20229 39911 40151 70362 85840 333 20240 59006 60024;
0182827650999992006030918004-07333-047467FM-12+019399999V0203201N002110042019N0020001N1+02661+02391101281ADDAA106007991AY121061AY221061GF108991051071004501021999MA1999999098871MD1999999+0271MW1631REMSYN082AAXX  09184 82765 21495 83204 10266 20239 39887 40128 76322 8572/ 333 58027 60081;
0213827650999992006031000004-07333-047467FM-12+019399999V0201101N001010042019N0200001N1+02531+02401101311ADDAA106004191AY161061AY221061GF108991051071004501021999KA1240M+03281MA1999999098901MD1999999+0001MW1031REMSYN100AAXX  10004 82765 21498 81102 10253 20240 39890 40131 70362 8572/ 333 10328 29090 55049 58000 60041;
0173827650999992006031012004-07333-047467FM-12+019399999V0203601N001010120019N0200001N1+02521+02381101591ADDAA124011991GF108991061081008001021999KA1240N+02391MA1999999099181MD1999999+0071REMSYN082AAXX  10124 82765 22598 83602 10252 20238 39918 40159 8682/ 333 20239 58007 60124;
0201827650999992006031018004-07333-047467FM-12+019399999V0203201N001510450019N0200001N1+02721+02391101191ADDAA106000091AY151061AY251061GF106991041021008001041021MA1999999098791MD1999999-0081MW1001REMSYN082AAXX  10184 82765 21598 63203 10272 20239 39879 40119 70055 84242 333 59008 69911;EQDQ01  00002PRCP06
0168827650999992006031100004-07333-047467FM-12+019399999V0209999C000010450019N0200001N1+02581+02421101361ADDGF108991021031008001041001KA1240M+02881MA1999999098961MD1999999+0061REMSYN088AAXX  11004 82765 32598 80000 10258 20242 39896 40136 82340 333 10288 29089 55006 58006;
0220827650999992006031112004-07333-047467FM-12+019399999V0200501N000510120019N0200001N1+02461+02371101651ADDAA124000091AY101061AY201061GF108991061081008001021999KA1240N+02371MA1999999099241MD1999999+0061MW1101REMSYN088AAXX  11124 82765 21598 80501 10246 20237 39924 40165 71000 8682/ 333 20237 58006 69914;EQDQ01  00002PRCP24
0137827650999992006031118004-07333-047467FM-12+019399999V0200901N001010450019N0200001N1+02801+02361101151ADDGF107991031021008001021001MA1999999098761MD1999999-0031REMSYN070AAXX  11184 82765 32598 70902 10280 20236 39876 40115 83220 333 59003;
0168827650999992006031200004-07333-047467FM-12+019399999V0209999C000010450019N0200001N1+02681+02541101371ADDGF108991041021008001011001KA1240M+03001MA1999999098971MD1999999+0011REMSYN088AAXX  12004 82765 32598 80000 10268 20254 39897 40137 84210 333 10300 29090 55025 58001;
0156827650999992006031212004-07333-047467FM-12+019399999V0203601N001010450019N0200001N1+02661+02431101511ADDGF105991031021008001041001KA1240N+02411MA1999999099111MD1999999-0131REMSYN076AAXX  12124 82765 32598 53602 10266 20243 39911 40151 83240 333 20241 59013;
0182827650999992006031218004-07333-047467FM-12+019399999V0203601N001010450019N0200001N1+02861+02391101021ADDAA106004191AY161061AY261061GF107991041021008001041001MA1999999098641MD1999999-0121MW1001REMSYN082AAXX  12184 82765 21598 73602 10286 20239 39864 40102 70066 84240 333 59012 60041;
0168827650999992006031300004-07333-047467FM-12+019399999V0209999C000010450019N0200001N1+02681+02391101241ADDGF108991021011008001011001KA1240M+03181MA1999999098851MD1999999-0121REMSYN088AAXX  13004 82765 32598 80000 10268 20239 39885 40124 82110 333 10318 29083 55063 59012;
0173827650999992006031312004-07333-047467FM-12+019399999V0202301N000512200019N0200001N1+02661+02391101441ADDAA124004191GF104991021011008001041001KA1240N+02391MA1999999099051MD1999999-0061REMSYN082AAXX  13124 82765 22598 42301 10266 20239 39905 40144 82140 333 20239 59006 60044;
0182827650999992006031318004-07333-047467FM-12+019399999V0209999C000010450019N0200001N1+02761+02441101041ADDAA106002091AY191061AY251061GF106991021021008001041081MA1999999098651MD1999999+0011MW1001REMSYN082AAXX  13184 82765 21598 60000 10276 20244 39865 40104 70095 82248 333 58001 60021;
0232827650999992006031400004-07333-047467FM-12+019399999V0201801N002110450019N0200001N1+02621+02371101341ADDAA106000091AY151061AY251061GF108991031011008001021999KA1240M+03061MA1999999098941MD1999999+0091MW1001REMSYN100AAXX  14004 82765 21598 81804 10262 20237 39894 40134 70055 8312/ 333 10306 29085 55048 58009 69921;EQDQ01  00002PRCP06
0201827650999992006031412004-07333-047467FM-12+019399999V0201801N001010075019N0200001N1+02321+02241101711ADDAA124037191AY161061AY261061GF108991061051008001021999KA1240N+02211MA1999999099291MD1999999+0141MW1001REMSYN088AAXX  14124 82765 21598 81802 10232 20224 39929 40171 70066 8652/ 333 20221 58014 60374;
0137827650999992006031418004-07333-047467FM-12+019399999V0203201N001510450019N0200001N1+02961+02381101231ADDGF105991031021008001041001MA1999999098841MD1999999+0191REMSYN070AAXX  14184 82765 32598 53203 10296 20238 39884 40123 83240 333 58019;
0168827650999992006031500004-07333-047467FM-12+019399999V0209999C000010120019N0200001N1+02761+02481101461ADDGF108991061081008001021999KA1240M+03081MA1999999099051MD1999999+0111REMSYN088AAXX  15004 82765 32598 80000 10276 20248 39905 40146 8682/ 333 10308 29084 55070 58011;
0201827650999992006031512004-07333-047467FM-12+019399999V0201401N000510450019N0200001N1+02541+02351101511ADDAA124032091AY161061AY261061GF105991031021008001041001KA1240N+02311MA1999999099111MD1999999-0181MW1001REMSYN088AAXX  15124 82765 21598 51401 10254 20235 39911 40151 70066 83240 333 20231 59018 60324;
0137827650999992006031518004-07333-047467FM-12+019399999V0200901N001010450019N0200001N1+03241+02391101101ADDGF105991041021008001041001MA1999999098731MD1999999-0101REMSYN070AAXX  15184 82765 32598 50902 10324 20239 39873 40110 84240 333 59010;
0201827650999992006031612004-07333-047467FM-12+019399999V0209999C000012200019N0200001N1+02671+02391101541ADDAA124002091AY161061AY221061GF105991021011008001011091KA1240N+02431MA1999999099151MD1999999+0041MW1011REMSYN088AAXX  16124 82765 21598 50000 10267 20239 39915 40154 70162 82119 333 20243 58004 60024;
0137827650999992006031618004-07333-047467FM-12+019399999V0203601N001510450019N0200001N1+03331+02381100971ADDGF106991041031008001061001MA1999999098611MD1999999-0121REMSYN070AAXX  16184 82765 32598 63603 10333 20238 39861 40097 84360 333 59012;
0213827650999992006031700004-07333-047467FM-12+019399999V0200501N001010090019N0200001N1+02621+02461101221ADDAA106014091AY161061AY221061GF108991051081004501021999KA1240M+03421MA1999999098831MD1999999-0071MW1131REMSYN100AAXX  17004 82765 21498 80502 10262 20246 39883 40122 71362 8582/ 333 10342 29081 55076 59007 60141;
0173827650999992006031712004-07333-047467FM-12+019399999V0209999C000010450019N0200001N1+02581+02441101381ADDAA124014091GF106991041021004501041001KA1240N+02441MA1999999098981MD1999999-0171REMSYN082AAXX  17124 82765 22498 60000 10258 20244 39898 40138 84240 333 20244 59017 60144;
0196827650999992006031800004-07333-047467FM-12+019399999V0209999C000010090019N0200001N1+02581+02441101311ADDAY121061AY221061GF108991081081004501999999KA1240M+02921MA1999999098911MD1999999+0081MW1131REMSYN094AAXX  18004 82765 31498 80000 10258 20244 39891 40131 71322 888// 333 10292 29089 55017 58008;
0201827650999992006031812004-07333-047467FM-12+019399999V0202301N002112200019N0200001N1+02401+02311101471ADDAA124015091AY161061AY221061GF105991021011008001041091KA1240N+02341MA1999999099061MD1999999+0081MW1011REMSYN088AAXX  18124 82765 21598 52304 10240 20231 39906 40147 70162 82149 333 20234 58008 60154;
0137827650999992006031818004-07333-047467FM-12+019399999V0202301N001510450019N0200001N1+03191+02441101031ADDGF105991031021008001061001MA1999999098651MD1999999-0031REMSYN070AAXX  18184 82765 32598 52303 10319 20244 39865 40103 83260 333 59003;
0213827650999992006031900004-07333-047467FM-12+019399999V0209999C000010090019N0200001N1+02391+02241101441ADDAA106002091AY161061AY221061GF108991081081004501999999KA1240M+03321MA1999999099021MD1999999+0111MW1131REMSYN100AAXX  19004 82765 21498 80000 10239 20224 39902 40144 71362 888// 333 10332 29086 55071 58011 60021;
0173827650999992006031912004-07333-047467FM-12+019399999V0203601N000510120019N0200001N1+02441+02301101531ADDAA124002091GF108991071081008001021999KA1240N+02291MA1999999099101MD1999999+0041REMSYN082AAXX  19124 82765 22598 83601 10244 20230 39910 40153 8782/ 333 20229 58004 60024;
0213827650999992006032000004-07333-047467FM-12+019399999V0202701N001010450019N0200001N1+02341+02221101311ADDAA106005191AY191061AY261061GF108991031031008001021999KA1240M+03201MA1999999098891MD1999999-0131MW1131REMSYN100AAXX  20004 82765 21598 82702 10234 20222 39889 40131 71396 8332/ 333 10320 29086 55056 59013 60051;
0173827650999992006032012004-07333-047467FM-12+019399999V0203601N001010450019N0200001N1+02621+02421101531ADDAA124005191GF107991041021008001011001KA1240N+02351MA1999999099121MD1999999+0021REMSYN082AAXX  20124 82765 22598 73602 10262 20242 39912 40153 84210 333 20235 58002 60054;
0137827650999992006032018004-07333-047467FM-12+019399999V0201801N001010450019N0200001N1+03241+02421101061ADDGF106991041021008001041001MA1999999098691MD1999999+0031REMSYN070AAXX  20184 82765 32598 61802 10324 20242 39869 40106 84240 333 58003;
0213827650999992006032100004-07333-047467FM-12+019399999V0200901N001512200019N0200001N1+02621+02421101301ADDAA106001091AY191061AY261061GF102991021021008001001001KA1240M+03361MA1999999098901MD1999999+0011MW1001REMSYN100AAXX  21004 82765 21598 20903 10262 20242 39890 40130 70096 82200 333 10336 29082 55072 58001 60011;
0173827650999992006032112004-07333-047467FM-12+019399999V0203201N000510450019N0200001N1+02661+02501101401ADDAA124001091GF105991031021008001041001KA1240N+02391MA1999999099011MD1999999-0111REMSYN082AAXX  21124 82765 22598 53201 10266 20250 39901 40140 83240 333 20239 59011 60014;
0137827650999992006032118004-07333-047467FM-12+019399999V0202701N002110450019N0200001N1+02941+02521101031ADDGF106991021021008001021001MA1999999098651MD1999999-0041REMSYN070AAXX  21184 82765 32598 62704 10294 20252 39865 40103 82220 333 59004;
0168827650999992006032200004-07333-047467FM-12+019399999V0203601N001012200019N0200001N1+02701+02521101271ADDGF103991021021008001041001KA1240M+03271MA1999999098881MD1999999-0021REMSYN088AAXX  22004 82765 32598 33602 10270 20252 39888 40127 82240 333 10327 29086 55050 59002;
0184827650999992006032212004-07333-047467FM-12+019399999V0202301N001010450019N0200001N1+02661+02461101541ADDAY191061AY221061GF106991031071008001031011KA1240N+02471MA1999999099151MD1999999+0141MW1031REMSYN082AAXX  22124 82765 31598 62302 10266 20246 39915 40154 70392 83731 333 20247 58014;
0165827650999992006032218004-07333-047467FM-12+019399999V0201101N001010450019N0200001N1+02841+02461101141ADDAY191061AY221061GF106991031071008001041011MA1999999098751MD1999999+0101MW1001REMSYN076AAXX  22184 82765 31598 61102 10284 20246 39875 40114 70092 83741 333 58010;
0156827650999992006032312004-07333-047467FM-12+019399999V0203601N001010450019N0200001N1+02661+02391101631ADDGF107991041071008001031011KA1240N+02471MA1999999099241MD1999999+0091REMSYN076AAXX  23124 82765 32598 73602 10266 20239 39924 40163 84731 333 20247 58009;
0184827650999992006032318004-07333-047467FM-12+019399999V0200501N002610120019N0200001N1+02801+02421101321ADDAY191061AY221061GF107991051081008001031011MA1999999098022MD1999999+0171MW1161REMSYN076AAXX  23184 82765 31598 70505 10280 20242 39802 40132 71692 85831 333 58017;EQDQ01+098023APOSP 
0168827650999992006032400004-07333-047467FM-12+019399999V0209999C000012200019N0200001N1+02561+02421101251ADDGF103991021021008001041001KA1240M+03111MA1999999098861MD1999999-0101REMSYN088AAXX  24004 82765 32598 30000 10256 20242 39886 40125 82240 333 10311 29087 55029 59010;
0220827650999992006032412004-07333-047467FM-12+019399999V0203601N003110450019N0200001N1+02501+02211101701ADDAA124000091AY151061AY251061GF107991041071008001021011KA1240N+02451MA1999999099291MD1999999+0051MW1001REMSYN088AAXX  24124 82765 21598 73606 10250 20221 39929 40170 70055 84721 333 20245 58005 69924;EQDQ01  00002PRCP24
0137827650999992006032418004-07333-047467FM-12+019399999V0200501N001510450019N0200001N1+03161+02421101211ADDGF106991041021008001041011MA1999999098841MD1999999-0081REMSYN070AAXX  24184 82765 32598 60503 10316 20242 39884 40121 84241 333 59008;
0168827650999992006032500004-07333-047467FM-12+019399999V0200501N001012200019N0200001N1+02741+02431101341ADDGF102991011021008001041001KA1240M+03171MA1999999098941MD1999999+0081REMSYN088AAXX  25004 82765 32598 20502 10274 20243 39894 40134 81240 333 10317 29079 55046 58008;
0156827650999992006032512004-07333-047467FM-12+019399999V0201801N001010450019N0200001N1+02711+02411101701ADDGF106991031011008001031041KA1240N+02411MA1999999099301MD1999999+0011REMSYN076AAXX  25124 82765 32598 61802 10271 20241 39930 40170 83134 333 20241 58001;
0137827650999992006032518004-07333-047467FM-12+019399999V0201401N002610450019N0200001N1+03281+02401101201ADDGF106991041021008001011001MA1999999098841MD1999999+0001REMSYN070AAXX  25184 82765 32598 61405 10328 20240 39884 40120 84210 333 58000;
0196827650999992006032600004-07333-047467FM-12+019399999V0209999C000010450019N0200001N1+02661+02411101431ADDAY121061AY221061GF106991041021008001011001KA1240M+03401MA1999999099041MD1999999+0001MW1131REMSYN094AAXX  26004 82765 31598 60000 10266 20241 39904 40143 71322 84210 333 10340 29079 55040 58000;
0201827650999992006032612004-07333-047467FM-12+019399999V0202701N000510075019N0200001N1+02521+02311101731ADDAA124002091AY161061AY221061GF107991051021008001031001KA1240N+02371MA1999999099321MD1999999+0021MW1021REMSYN088AAXX  26124 82765 21598 72701 10252 20231 39932 40173 70262 85230 333 20237 58002 60024;
0165827650999992006032618004-07333-047467FM-12+019399999V0202301N002110450019N0200001N1+03141+02481101251ADDAY121061AY221061GF106991041031008001041001MA1999999098871MD1999999+0031MW1171REMSYN076AAXX  26184 82765 31598 62304 10314 20248 39887 40125 71722 84340 333 58003;
0213827650999992006032700004-07333-047467FM-12+019399999V0203601N001510075019N0040001N1+02441+02341101681ADDAA106007991AY161061AY221061GF108991081071008001999999KA1240M+03291MA1999999099261MD1999999+0221MW1531REMSYN100AAXX  27004 82765 21596 83603 10244 20234 39926 40168 75362 887// 333 10329 29086 55047 58022 60081;
0201827650999992006032712004-07333-047467FM-12+019399999V0200901N000510120019N0200001N1+02461+02321101901ADDAA124007991AY151061AY251061GF108991061081008001021999KA1240N+02331MA1999999099471MD1999999+0151MW1001REMSYN088AAXX  27124 82765 21598 80901 10246 20232 39947 40190 70055 8682/ 333 20233 58015 60084;
0201827650999992006032718004-07333-047467FM-12+019399999V0200201N001510075019N0200001N1+02821+02171101471ADDAA106000091AY151061AY251061GF107991051061008001021011MA1999999099061MD1999999+0191MW1161REMSYN082AAXX  27184 82765 21598 70203 10282 20217 39906 40147 71655 85621 333 58019 69921;EQDQ01  00002PRCP06
0168827650999992006032800004-07333-047467FM-12+019399999V0200501N000512200019N0200001N1+02541+02401101641ADDGF104991021021008001041001KA1240M+03211MA1999999099231MD1999999-0031REMSYN088AAXX  28004 82765 32598 40501 10254 20240 39923 40164 82240 333 10321 29088 55024 59003;
0192827650999992006032812004-07333-047467FM-12+019399999V0200501N000510450019N0200001N1+02661+02431101681ADDAA124000091GF106991021021008001011001KA1240N+02391MA1999999099271MD1999999-0201REMSYN082AAXX  28124 82765 22598 60501 10266 20243 39927 40168 82210 333 20239 59020 69924;EQDQ01  00002PRCP24
0165827650999992006032818004-07333-047467FM-12+019399999V0202001N001510075019N0200001N1+03401+02401101091ADDAY101061AY201061GF106991051021008001041001MA1999999098721MD1999999-0341MW1151REMSYN076AAXX  28184 82765 31598 62003 10340 20240 39872 40109 71500 85240 333 59034;
0201827650999992006032912004-07333-047467FM-12+019399999V0202901N001510120019N0200001N1+02521+02401101661ADDAA124024991AY161061AY251061GF108991061081008001021999KA1240N+02431MA1999999099251MD1999999-0021MW1001REMSYN088AAXX  29124 82765 21598 82903 10252 20240 39925 40166 70065 8682/ 333 20243 59002 60254;
0168827650999992006033000004-07333-047467FM-12+019399999V0209999C000010450019N0200001N1+02441+02341101611ADDGF108991031081008001021999KA1240M+02751MA1999999099191MD1999999+0011REMSYN088AAXX  30004 82765 32598 80000 10244 20234 39919 40161 8382/ 333 10275 29093 55000 58001;
0201827650999992006033012004-07333-047467FM-12+019399999V0201401N001010075019N0200001N1+02401+02311101751ADDAA124004191AY121061AY201061GF108991061051008001021999KA1240N+02351MA1999999099321MD1999999+0071MW1621REMSYN088AAXX  30124 82765 21598 81402 10240 20231 39932 40175 76220 8652/ 333 20235 58007 60044;
0182827650999992006033018004-07333-047467FM-12+019399999V0202301N000510450019N0200001N1+02441+02301101361ADDAA106019191AY121061AY201061GF108991031051008001021999MA1999999098941MD1999999-0011MW1501REMSYN082AAXX  30184 82765 21598 82301 10244 20230 39894 40136 75020 8352/ 333 59001 60191;
0168827650999992006033100004-07333-047467FM-12+019399999V0201401N001010120019N0200001N1+02501+02401101591ADDGF108991061081008001021999KA1240M+02751MA1999999099171MD1999999+0021REMSYN088AAXX  31004 82765 32598 81402 10250 20240 39917 40159 8682/ 333 10275 29094 55008 58002;
0173827650999992006033112004-07333-047467FM-12+019399999V0202701N000510090019N0200001N1+02451+02251101851ADDAA124019191GF108991081081004501999999KA1240N+02291MA1999999099431MD1999999+0111REMSYN082AAXX  31124 82765 22498 82701 10245 20225 39943 40185 888// 333 20229 58011 60194;
0165827650999992006033118004-07333-047467FM-12+019399999V0203601N001010450019N0200001N1+03141+02401101201ADDAY121061AY221061GF105991031031008001041001MA1999999098821MD1999999-0121MW1151REMSYN076AAXX  31184 82765 31598 53602 10314 20240 39882 40120 71522 83340 333 59012;
0196827650999992006040100004-07333-047467FM-12+019399999V0200901N001510090019N0200001N1+02621+02441101521ADDAY121061AY221061GF108991081081004501999999KA1240M+03311MA1999999099111MD1999999-0061MW1131REMSYN094AAXX  01004 82765 31498 80903 10262 20244 39911 40152 71322 888// 333 10331 29084 55056 59006;
0201827650999992006040112004-07333-047467FM-12+019399999V0209999C000010075019N0100001N1+02341+02271101811ADDAA124027991AY161061AY261061GF108991061051008001021999KA1240N+02311MA1999999099391MD1999999-0041MW1551REMSYN088AAXX  01124 82765 21597 80000 10234 20227 39939 40181 75566 8652/ 333 20231 59004 60284;
0182827650999992006040118004-07333-047467FM-12+019399999V0203601N001510450019N0500001N1+02921+02271101261ADDAA106005191AY161061AY261061GF106991031021008001071011MA1999999098871MD1999999+0051MW1001REMSYN082AAXX  01184 82765 21599 63603 10292 20227 39887 40126 70066 83271 333 58005 60051;
0168827650999992006040200004-07333-047467FM-12+019399999V0200701N001510120019N0200001N1+02561+02361101531ADDGF108991061081008001021999KA1240M+03051MA1999999099111MD1999999+0001REMSYN088AAXX  02004 82765 32598 80703 10256 20236 39911 40153 8682/ 333 10305 29085 55022 58000;
0201827650999992006040212004-07333-047467FM-12+019399999V0209999C000010120019N0200001N1+02421+02331101711ADDAA124007991AY161061AY261061GF108991061081008001021999KA1240N+02311MA1999999099291MD1999999-0101MW1001REMSYN088AAXX  02124 82765 21598 80000 10242 20233 39929 40171 70066 8682/ 333 20231 59010 60084;
0137827650999992006040218004-07333-047467FM-12+019399999V0202701N000510450019N0200001N1+03121+02361101191ADDGF106991041081008001041001MA1999999098811MD1999999-0061REMSYN070AAXX  02184 82765 32598 62701 10312 20236 39881 40119 84840 333 59006;
0213827650999992006040300004-07333-047467FM-12+019399999V0200501N000510450019N0200001N1+02521+02401101531ADDAA106010991AY161061AY261061GF106991041081008001021001KA1240M+03211MA1999999099111MD1999999+0001MW1131REMSYN100AAXX  03004 82765 21598 60501 10252 20240 39911 40153 71366 84820 333 10321 29086 55035 58000 60111;
0173827650999992006040312004-07333-047467FM-12+019399999V0209999C000012200019N0200001N1+02631+02411101611ADDAA124010991GF104991031011008001041001KA1240N+02391MA1999999099211MD1999999-0081REMSYN082AAXX  03124 82765 22598 40000 10263 20241 39921 40161 83140 333 20239 59008 60114;
0137827650999992006040318004-07333-047467FM-12+019399999V0203201N001512200019N0200001N1+03241+02421101081ADDGF104991031031008001061001MA1999999098711MD1999999-0101REMSYN070AAXX  03184 82765 32598 43203 10324 20242 39871 40108 83360 333 59010;
0196827650999992006040400004-07333-047467FM-12+019399999V0203601N001010450019N0200001N1+02811+02441101391ADDAY121061AY221061GF106991041031008001061001KA1240M+03401MA1999999099001MD1999999-0111MW1131REMSYN094AAXX  04004 82765 31598 63602 10281 20244 39900 40139 71322 84360 333 10340 29078 55098 59011;
0201827650999992006040412004-07333-047467FM-12+019399999V0201401N001010042019N0200001N1+02281+02251101721ADDAA124027991AY161061AY251061GF108991081071004501999999KA1240N+02271MA1999999099311MD1999999+0101MW1031REMSYN088AAXX  04124 82765 21498 81402 10228 20225 39931 40172 70365 887// 333 20227 58010 60284;
0182827650999992006040418004-07333-047467FM-12+019399999V0202301N001510042019N0040001N1+02191+02101101471ADDAA106020191AY161061AY261061GF108991081071004501999999MA1999999099041MD1999999+0331MW1511REMSYN082AAXX  04184 82765 21496 82303 10219 20210 39904 40147 75166 887// 333 58033 60201;
0213827650999992006040500004-07333-047467FM-12+019399999V0200501N001510042019N0100001N1+02201+02131101461ADDAA106000021AY151061AY251061GF108991081071004501999999KA1240M+02831MA1999999099031MD1999999+0031MW1021REMSYN100AAXX  05004 82765 21497 80503 10220 20213 39903 40146 70255 887// 333 10283 29096 55000 58003 69921;
0173827650999992006040512004-07333-047467FM-12+019399999V0209999C000010090019N0200001N1+02421+02321101601ADDAA124020191GF107991071081004501001001KA1240N+02201MA1999999099171MD1999999-0141REMSYN082AAXX  05124 82765 22498 70000 10242 20232 39917 40160 87800 333 20220 59014 60204;
0137827650999992006040518004-07333-047467FM-12+019399999V0201401N001510450019N0200001N1+03061+02381101131ADDGF105991031091008001051041MA1999999098741MD1999999-0301REMSYN070AAXX  05184 82765 32598 51403 10306 20238 39874 40113 83954 333 59030;
0173827650999992006040612004-07333-047467FM-12+019399999V0209999C000010450019N0200001N1+02641+02481101461ADDAA124011991GF107991031021008001041001KA1240N+02351MA1999999099061MD1999999-0111REMSYN082AAXX  06124 82765 22598 70000 10264 20248 39906 40146 83240 333 20235 59011 60124;
0165827650999992006040618004-07333-047467FM-12+019399999V0209999C000010450019N0200001N1+02861+02371101051ADDAY191061AY201061GF108991031021008001021999MA1999999098661MD1999999-0081MW1001REMSYN076AAXX  06184 82765 31598 80000 10286 20237 39866 40105 70090 8322/ 333 59008;
0156827650999992006040712004-07333-047467FM-12+019399999V0203201N001010075019N0200001N1+02621+02421101481ADDGF107991061021008001041001KA1240N+02411MA1999999099081MD1999999+0021REMSYN076AAXX  07124 82765 32598 73202 10262 20242 39908 40148 86240 333 20241 58002;
0165827650999992006040718004-07333-047467FM-12+019399999V0201101N002110075019N0200001N1+03021+02551101051ADDAY101061AY201061GF108991061021008001021999MA1999999098671MD1999999+0011MW1151REMSYN076AAXX  07184 82765 31598 81104 10302 20255 39867 40105 71500 8622/ 333 58001;
0196827650999992006040800004-07333-047467FM-12+019399999V0202301N000510450019N0200001N1+02741+02541101361ADDAY101061AY201061GF108991031031008001011001KA1240M+03111MA1999999098971MD1999999+0111MW1131REMSYN094AAXX  08004 82765 31598 82301 10274 20254 39897 40136 71300 83310 333 10311 29086 55026 58011;
0201827650999992006040812004-07333-047467FM-12+019399999V0200501N000510450019N0200001N1+02361+02281101621ADDAA124020191AY161061AY261061GF108991041051008001021999KA1240N+02271MA1999999099211MD1999999+0131MW1161REMSYN088AAXX  08124 82765 21598 80501 10236 20228 39921 40162 71666 8452/ 333 20227 58013 60204;
0182827650999992006040818004-07333-047467FM-12+019399999V0201801N000510075019N0200001N1+03041+02361101081ADDAA106004191AY161061AY261061GF106991051021008001041001MA1999999098691MD1999999+0021MW1001REMSYN082AAXX  08184 82765 21598 61801 10304 20236 39869 40108 70066 85240 333 58002 60041;
0168827650999992006040900004-07333-047467FM-12+019399999V0209999C000010450019N0200001N1+02741+02481101411ADDGF108991041021008001041001KA1240M+03211MA1999999099011MD1999999+0041REMSYN088AAXX  09004 82765 32598 80000 10274 20248 39901 40141 84240 333 10321 29084 55049 58004;
0201827650999992006040912004-07333-047467FM-12+019399999V0201401N002110075019N0200001N1+02261+02211101651ADDAA124043991AY161061AY261061GF108991061051008001021999KA1240N+02191MA1999999099241MD1999999+0031MW1511REMSYN088AAXX  09124 82765 21598 81404 10226 20221 39924 40165 75166 8652/ 333 20219 58003 60444;
0182827650999992006040918004-07333-047467FM-12+019399999V0202701N001510450019N0200001N1+02891+02211101001ADDAA106000021AY151061AY251061GF106991041021008001041001MA1999999098621MD1999999-0071MW1001REMSYN082AAXX  09184 82765 21598 62703 10289 20221 39862 40100 70055 84240 333 59007 69911;
0168827650999992006041000004-07333-047467FM-12+019399999V0209999C000012200019N0200001N1+02681+02481101411ADDGF102991021011008001001001KA1240M+03071MA1999999098701MD1999999-0311REMSYN088AAXX  10004 82765 32598 20000 10268 20248 39870 40141 82100 333 10307 29085 55035 59031;
0173827650999992006041012004-07333-047467FM-12+019399999V0201401N000510450019N0200001N1+02641+02481101391ADDAA124000021GF106991041071008001041001KA1240N+02271MA1999999099001MD1999999-0241REMSYN082AAXX  10124 82765 22598 61401 10264 20248 39900 40139 84740 333 20227 59024 69914;
0137827650999992006041018004-07333-047467FM-12+019399999V0203601N000512200019N0200001N1+03321+02351100841ADDGF104991031021008001041001MA1999999098481MD1999999-0141REMSYN070AAXX  10184 82765 32598 43601 10332 20235 39848 40084 83240 333 59014;
0196827650999992006041100004-07333-047467FM-12+019399999V0209999C000012200019N0200001N1+02921+02561101141ADDAY101061AY201061GF104991031021008001011041KA1240M+03471MA1999999098771MD1999999+0071MW1131REMSYN094AAXX  11004 82765 31598 40000 10292 20256 39877 40114 71300 83214 333 10347 29077 55081 58007;
0201827650999992006041112004-07333-047467FM-12+019399999V0203201N000510075019N0200001N1+02321+02251101531ADDAA124039191AY161061AY261061GF108991061071008001041999KA1240N+02331MA1999999099131MD1999999+0131MW1611REMSYN088AAXX  11124 82765 21598 83201 10232 20225 39913 40153 76166 8674/ 333 20233 58013 60394;
0182827650999992006041118004-07333-047467FM-12+019399999V0202701N002110450019N0200001N1+02841+02381101001ADDAA106007191AY161061AY261061GF106991031021008001021001MA1999999098621MD1999999+0141MW1001REMSYN082AAXX  11184 82765 21598 62704 10284 20238 39862 40100 70066 83220 333 58014 60071;
0196827650999992006041200004-07333-047467FM-12+019399999V0202701N000510450019N0200001N1+02641+02441101341ADDAY101061AY201061GF106991031031008001041001KA1240M+03071MA1999999098931MD1999999+0161MW1131REMSYN094AAXX  12004 82765 31598 62701 10264 20244 39893 40134 71300 83340 333 10307 29088 55042 58016;
0201827650999992006041212004-07333-047467FM-12+019399999V0203601N000510450019N0200001N1+02401+02311101531ADDAA124022191AY161061AY241061GF106991041081004501031001KA1240N+02291MA1999999099121MD1999999-0011MW1011REMSYN088AAXX  12124 82765 21498 63601 10240 20231 39912 40153 70164 84830 333 20229 59001 60224;
0165827650999992006041218004-07333-047467FM-12+019399999V0203201N001010450019N0040001N1+03081+02371101091ADDAY121061AY221061GF106991041021004501061041MA1999999098701MD1999999+0081MW1151REMSYN076AAXX  12184 82765 31496 63202 10308 20237 39870 40109 71522 84264 333 58008;
0220827650999992006041412004-07333-047467FM-12+019399999V0200701N000512200019N0200001N1+02681+02461101261ADDAA124000091AY151061AY251061GF103991031011008001001001KA1240N+02411MA1999999098871MD1999999-0201MW1001REMSYN088AAXX  14124 82765 21598 30701 10268 20246 39887 40126 70055 83100 333 20241 59020 69914;EQDQ01  00002PRCP24
0137827650999992006041418004-07333-047467FM-12+019399999V0201801N001512200019N0200001N1+03341+02481100761ADDGF104991041021008001001001MA1999999098411MD1999999-0111REMSYN070AAXX  14184 82765 32598 41803 10334 20248 39841 40076 84200 333 59011;
0213827650999992006041500004-07333-047467FM-12+019399999V0203601N000510450019N0200001N1+02681+02461101101ADDAA106002091AY161061AY261061GF106991041081008001041001KA1240M+03451MA1999999098721MD1999999-0151MW1001REMSYN100AAXX  15004 82765 21598 63601 10268 20246 39872 40110 70066 84840 333 10345 29081 55080 59015 60021;
0201827650999992006041512004-07333-047467FM-12+019399999V0201401N002110042019N0040001N1+02281+02231101591ADDAA124051191AY191061AY261061GF108991051061004501021999KA1240N+02251MA1999999099181MD1999999+0311MW1971REMSYN088AAXX  15124 82765 21496 81404 10228 20223 39918 40159 79796 8562/ 333 20225 58031 60514;
0182827650999992006041518004-07333-047467FM-12+019399999V0209999C000010075019N0200001N1+02601+02271101211ADDAA106010991AY161061AY261061GF107991051071008001041001MA1999999098811MD1999999+0401MW1001REMSYN082AAXX  15184 82765 21598 70000 10260 20227 39881 40121 70066 85740 333 58040 60111;
0168827650999992006041600004-07333-047467FM-12+019399999V0209999C000010450019N0200001N1+02521+02401101491ADDGF106991041081008001041001KA1240M+02871MA1999999099071MD1999999+0351REMSYN088AAXX  16004 82765 32598 60000 10252 20240 39907 40149 84840 333 10287 29091 55016 58035;
0201827650999992006041612004-07333-047467FM-12+019399999V0200501N000510075019N0200001N1+02441+02341101951ADDAA124029091AY101061AY201061GF108991061071008001021999KA1240N+02271MA1999999099531MD1999999+0351MW1631REMSYN088AAXX  16124 82765 21598 80501 10244 20234 39953 40195 76300 8672/ 333 20227 58035 60294;
0182827650999992006041618004-07333-047467FM-12+019399999V0209999C000010450019N0200001N1+02701+02371101511ADDAA106031091AY191061AY261061GF108991031021008001041999MA1999999099101MD1999999+0291MW1001REMSYN082AAXX  16184 82765 21598 80000 10270 20237 39910 40151 70096 8324/ 333 58029 60311;
0201827650999992006041712004-07333-047467FM-12+019399999V0201801N000510075019N0200001N1+02501+02361101721ADDAA124039191AY161061AY261061GF108991071021008001011001KA1240N+02231MA1999999099301MD1999999-0231MW1001REMSYN088AAXX  17124 82765 21598 81801 10250 20236 39930 40172 70066 87210 333 20223 59023 60394;
0168827650999992006041800004-07333-047467FM-12+019399999V0209999C000010450019N0200001N1+02481+02411101621ADDGF105991031081008001021001KA1240M+03171MA1999999099211MD1999999-0041REMSYN088AAXX  18004 82765 32598 50000 10248 20241 39921 40162 83820 333 10317 29091 55032 59004;
0156827650999992006041812004-07333-047467FM-12+019399999V0203201N001010090019N0200001N1+02561+02311101661ADDGF107991051081004501031001KA1240N+02331MA1999999099251MD1999999-0051REMSYN076AAXX  18124 82765 32498 73202 10256 20231 39925 40166 85830 333 20233 59005;
0137827650999992006041818004-07333-047467FM-12+019399999V0203601N001010450019N0200001N1+03121+02361101131ADDGF106991031021008001061041MA1999999098751MD1999999-0201REMSYN070AAXX  18184 82765 32598 63602 10312 20236 39875 40113 83264 333 59020;
0168827650999992006041900004-07333-047467FM-12+019399999V0209999C000010210019N0200001N1+02601+02481101471ADDGF106991061001022501011001KA1240M+03261MA1999999099071MD1999999-0141REMSYN088AAXX  19004 82765 32898 60000 10260 20248 39907 40147 86010 333 10326 29084 55060 59014;
0156827650999992006041912004-07333-047467FM-12+019399999V0209999C000010450019N0200001N1+02681+02391101621ADDGF106991041021008001041041KA1240N+02431MA1999999099221MD1999999-0031REMSYN076AAXX  19124 82765 32598 60000 10268 20239 39922 40162 84244 333 20243 59003;
0213827650999992006042000004-07333-047467FM-12+019399999V0209999C000010450019N0200001N1+02631+02481101391ADDAA106000391AY161061AY221061GF107991041021008001011001KA1240M+03371MA1999999099001MD1999999-0071MW1131REMSYN100AAXX  20004 82765 21598 70000 10263 20248 39900 40139 71362 84210 333 10337 29082 55063 59007 69931;
0201827650999992006042012004-07333-047467FM-12+019399999V0201801N002110075019N0200001N1+02281+02131101791ADDAA124051191AY161061AY261061GF108991071051008001021999KA1240N+02211MA1999999099371MD1999999+0151MW1001REMSYN088AAXX  20124 82765 21598 81804 10228 20213 39937 40179 70066 8752/ 333 20221 58015 60514;
0168827650999992006042100004-07333-047467FM-12+019399999V0209999C000012200019N0200001N1+02441+02341101621ADDGF103991021021008001041001KA1240M+02651MA1999999099191MD1999999+0191REMSYN088AAXX  21004 82765 32598 30000 10244 20234 39919 40162 82240 333 10265 29092 55000 58019;
0173827650999992006042112004-07333-047467FM-12+019399999V0209999C000010450019N0200001N1+02541+02381101771ADDAA124002091GF107991041021008001041041KA1240N+02291MA1999999099351MD1999999-0021REMSYN082AAXX  21124 82765 22598 70000 10254 20238 39935 40177 84244 333 20229 59002 60024;
0165827650999992006042118004-07333-047467FM-12+019399999V0201401N004110042019N0040001N1+02791+02381101411ADDAY121061AY221061GF107991051021004501061001MA1999999099001MD1999999+0021MW1151REMSYN076AAXX  21184 82765 31496 71408 10279 20238 39900 40141 71522 85260 333 58002;
0156827650999992006042212004-07333-047467FM-12+019399999V0201801N001010120019N0200001N1+02481+02381101761ADDGF108991061081008001021999KA1240N+02391MA1999999099341MD1999999-0011REMSYN076AAXX  22124 82765 32598 81802 10248 20238 39934 40176 8682/ 333 20239 59001;
0182827650999992006042218004-07333-047467FM-12+019399999V0203601N000510450019N0200001N1+02861+02461101281ADDAA106002091AY161061AY251061GF106991021031008001041001MA1999999098881MD1999999-0121MW1001REMSYN082AAXX  22184 82765 21598 63601 10286 20246 39888 40128 70065 82340 333 59012 60021;
0168827650999992006042300004-07333-047467FM-12+019399999V0202301N000512200019N0200001N1+02741+02541101401ADDGF103991011011008001041001KA1240M+03191MA1999999099001MD1999999-0261REMSYN088AAXX  23004 82765 32598 32301 10274 20254 39900 40140 81140 333 10319 29088 55039 59026;
0173827650999992006042312004-07333-047467FM-12+019399999V0201801N000510120019N0200001N1+02481+02381101641ADDAA124002091GF107991051081008001041001KA1240N+02371MA1999999099241MD1999999-0101REMSYN082AAXX  23124 82765 22598 71801 10248 20238 39924 40164 85840 333 20237 59010 60024;
0137827650999992006042318004-07333-047467FM-12+019399999V0200501N003610450019N0200001N1+02861+02311101221ADDGF107991041061008001021001MA1999999098831MD1999999-0051REMSYN070AAXX  23184 82765 32598 70507 10286 20231 39883 40122 84620 333 59005;
0168827650999992006042400004-07333-047467FM-12+019399999V0209999C000010120019N0200001N1+02621+02481101401ADDGF108991061081008001021999KA1240M+03351MA1999999099001MD1999999+0001REMSYN088AAXX  24004 82765 32598 80000 10262 20248 39900 40140 8682/ 333 10335 29088 55052 58000;
0184827650999992006042412004-07333-047467FM-12+019399999V0201401N001010120019N0200001N1+02521+02401101511ADDAY121061AY201061GF108991071081008001021999KA1240N+02441MA1999999099101MD1999999-0141MW1031REMSYN082AAXX  24124 82765 31598 81402 10252 20240 39910 40151 70320 8782/ 333 20244 59014;
0182827650999992006042418004-07333-047467FM-12+019399999V0203601N001510450019N0200001N1+02741+02381101031ADDAA106001091AY191061AY261061GF108991041021008001021999MA1999999098641MD1999999-0191MW1001REMSYN082AAXX  24184 82765 21598 83603 10274 20238 39864 40103 70096 8422/ 333 59019 60011;
0168827650999992006042500004-07333-047467FM-12+019399999V0209999C000010120019N0200001N1+02621+02441101311ADDGF108991061081008001021999KA1240M+03271MA1999999098911MD1999999-0091REMSYN088AAXX  25004 82765 32598 80000 10262 20244 39891 40131 8682/ 333 10327 29088 55036 59009;
0173827650999992006042512004-07333-047467FM-12+019399999V0201401N001010450019N0200001N1+02561+02421101521ADDAA124001091GF106991041021008001021001KA1240N+02371MA1999999099121MD1999999+0021REMSYN082AAXX  25124 82765 22598 61402 10256 20242 39912 40152 84220 333 20237 58002 60014;
0165827650999992006042518004-07333-047467FM-12+019399999V0200901N003110450019N0200001N1+03141+02481101061ADDAY121061AY201061GF107991031071008001041001MA1999999098681MD1999999+0041MW1161REMSYN076AAXX  25184 82765 31598 70906 10314 20248 39868 40106 71620 83740 333 58004;
0232827650999992006042600004-07333-047467FM-12+019399999V0203201N000519999999N0200001N1+02521+02401101441ADDAA106002091AY161061AY261061GF106991999011008001031021KA1240M+03251MA1999999099041MD1999999+0131MW1131REMSYN100AAXX  26004 82765 21598 63201 10252 20240 39904 40144 71366 88132 333 10325 29086 55028 58013 60021;EQDQ01+000082SCOTLC
0201827650999992006042612004-07333-047467FM-12+019399999V0202501N001010120019N0200001N1+02561+02461101681ADDAA124002091AY151061AY201061GF108991061081008001021999KA1240N+02431MA1999999099271MD1999999+0151MW1031REMSYN088AAXX  26124 82765 21598 82502 10256 20246 39927 40168 70350 8682/ 333 20243 58015 60024;
0137827650999992006042618004-07333-047467FM-12+019399999V0202301N002110120019N0200001N1+02841+02401101251ADDGF108991051081008001021999MA1999999098861MD1999999+0181REMSYN070AAXX  26184 82765 32598 82304 10284 20240 39886 40125 8582/ 333 58018;
0168827650999992006042700004-07333-047467FM-12+019399999V0202701N000510120019N0200001N1+02541+02381101431ADDGF108991061081008001021999KA1240M+02911MA1999999099031MD1999999-0011REMSYN088AAXX  27004 82765 32598 82701 10254 20238 39903 40143 8682/ 333 10291 29088 55007 59001;
0192827650999992006042712004-07333-047467FM-12+019399999V0209999C000010450019N0200001N1+02601+02421101601ADDAA124000091GF105991031021008001031041KA1240N+02431MA1999999099191MD1999999-0081REMSYN082AAXX  27124 82765 22598 50000 10260 20242 39919 40160 83234 333 20243 59008 69914;EQDQ01  00002PRCP24
0137827650999992006042718004-07333-047467FM-12+019399999V0201401N001512200019N0200001N1+03291+02321101121ADDGF104991021021008001041041MA1999999098751MD1999999-0111REMSYN070AAXX  27184 82765 32598 41403 10329 20232 39875 40112 82244 333 59011;
0178827650999992006042800004-07333-047467FM-12+019399999V0209999C000012200019N0200001N1+02841+02601101361ADDGA1001+999999999GF100991001001999999001001KA1240M+03411MA1999999098971MD1999999-0061REMSYN082AAXX  28004 82765 32998 00000 10284 20260 39897 40136 333 10341 29080 55096 59006;
0201827650999992006042812004-07333-047467FM-12+019399999V0203201N001510090019N0200001N1+02661+02441101511ADDAA124000391AY161061AY221061GF107991051081004501061001KA1240N+02491MA1999999099121MD1999999-0071MW1031REMSYN088AAXX  28124 82765 21498 73203 10266 20244 39912 40151 70362 85860 333 20249 59007 69934;
0182827650999992006042818004-07333-047467FM-12+019399999V0201601N002110075019N0200001N1+03081+02521101011ADDAA106002091AY161061AY221061GF107991051021008001011001MA1999999098641MD1999999-0111MW1031REMSYN082AAXX  28184 82765 21598 71604 10308 20252 39864 40101 70362 85210 333 59011 60021;
0196827650999992006042900004-07333-047467FM-12+019399999V0209999C000010042019N0200001N1+02701+02501101361ADDAY191061AY221061GF108991051031004501021999KA1240M+03251MA1999999098971MD1999999+0001MW1171REMSYN094AAXX  29004 82765 31498 80000 10270 20250 39897 40136 71792 8532/ 333 10325 29084 55022 58000;
0201827650999992006042912004-07333-047467FM-12+019399999V0203601N001510075019N0100001N1+02461+02341101581ADDAA124007991AY101061AY201061GF108991061051008001021999KA1240N+02391MA1999999099181MD1999999+0061MW1631REMSYN088AAXX  29124 82765 21597 83603 10246 20234 39918 40158 76300 8652/ 333 20239 58006 60084;
0182827650999992006042918004-07333-047467FM-12+019399999V0209999C000010075019N0200001N1+02521+02451101221ADDAA106013091AY161061AY261061GF108991061051008001021999MA1999999098811MD1999999+0171MW1511REMSYN082AAXX  29184 82765 21598 80000 10252 20245 39881 40122 75166 8652/ 333 58017 60131;
0213827650999992006043000004-07333-047467FM-12+019399999V0201801N000510075019N0200001N1+02461+02411101401ADDAA106002091AY161061AY251061GF108991061051008001021999KA1240M+03111MA1999999098991MD1999999+0021MW1001REMSYN100AAXX  30004 82765 21598 81801 10246 20241 39899 40140 70065 8652/ 333 10311 29096 55018 58002 60021;
0173827650999992006043012004-07333-047467FM-12+019399999V0209999C000010090019N0200001N1+02461+02361101611ADDAA124014091GF108991061081004501021999KA1240N+02371MA1999999099191MD1999999+0011REMSYN082AAXX  30124 82765 22498 80000 10246 20236 39919 40161 8682/ 333 20237 58001 60144;
0182827650999992006043018004-07333-047467FM-12+019399999V0203601N002110090019N0020001N1+02501+02321101411ADDAA106002091AY161061AY221061GF108991051081004501021999MA1999999098991MD1999999+0181MW1531REMSYN082AAXX  30184 82765 21495 83604 10250 20232 39899 40141 75362 8582/ 333 58018 60021;
0213827650999992006050100004-07333-047467FM-12+019399999V0200501N001010150019N0200001N1+02311+02201101551ADDAA106000021AY151061AY221061GF108991081001017501011999KA1240M+02791MA1999999099131MD1999999+0141MW1001REMSYN100AAXX  01004 82765 21798 80502 10231 20220 39913 40155 70052 8801/ 333 10279 29093 55000 58014 69911;
0173827650999992006050112004-07333-047467FM-12+019399999V0201401N001010450019N0200001N1+02381+02291101621ADDAA124002091GF107991031081004501031001KA1240N+02211MA1999999099191MD1999999+0001REMSYN082AAXX  01124 82765 22498 71402 10238 20229 39919 40162 83830 333 20221 58000 60024;
0201827650999992006050118004-07333-047467FM-12+019399999V0200201N001511050019N0040001N1+03081+02521101241ADDAA106000091AY151061AY221061GF106991021031008001031041MA1999999098851MD1999999-0141MW1151REMSYN082AAXX  01184 82765 21596 60203 10308 20252 39885 40124 71552 82334 333 59014 69911;EQDQ01  00002PRCP06
0168827650999992006050200004-07333-047467FM-12+019399999V0209999C000010450019N0200001N1+02601+02461101491ADDGF105991031081008001011001KA1240M+03271MA1999999099081MD1999999-0051REMSYN088AAXX  02004 82765 32598 50000 10260 20246 39908 40149 83810 333 10327 29088 55044 59005;
0192827650999992006050212004-07333-047467FM-12+019399999V0200701N002110450019N0200001N1+02741+02381101671ADDAA124000091GF106991021011008001031091KA1240N+02441MA1999999099271MD1999999+0081REMSYN082AAXX  02124 82765 22598 60704 10274 20238 39927 40167 82139 333 20244 58008 69914;EQDQ01  00002PRCP24
0137827650999992006050218004-07333-047467FM-12+019399999V0200501N002110450019N0200001N1+03191+02441101181ADDGF107991041031008001011051MA1999999098811MD1999999-0041REMSYN070AAXX  02184 82765 32598 70504 10319 20244 39881 40118 84315 333 59004;
0168827650999992006050300004-07333-047467FM-12+019399999V0202701N001012200019N0200001N1+02811+02541101421ADDGF103991031011008001001001KA1240M+03341MA1999999099041MD1999999-0041REMSYN088AAXX  03004 82765 32598 32702 10281 20254 39904 40142 83100 333 10334 29080 55040 59004;
0220827650999992006050312004-07333-047467FM-12+019399999V0202301N001012200019N0200001N1+02581+02481101611ADDAA124000091AY151061AY201061GF104991031081008001021999KA1240N+02411MA1999999099221MD1999999-0051MW1001REMSYN088AAXX  03124 82765 21598 42302 10258 20248 39922 40161 70050 8382/ 333 20241 59005 69924;EQDQ01  00002PRCP24
0137827650999992006050318004-07333-047467FM-12+019399999V0201601N001010450019N0200001N1+03081+02541101201ADDGF107991031021008001021001MA1999999098821MD1999999+0011REMSYN070AAXX  03184 82765 32598 71602 10308 20254 39882 40120 83220 333 58001;
0168827650999992006050400004-07333-047467FM-12+019399999V0209999C000012200019N0200001N1+02721+02581101391ADDGF103991031001008001011001KA1240M+03231MA1999999099001MD1999999-0041REMSYN088AAXX  04004 82765 32598 30000 10272 20258 39900 40139 83010 333 10323 29088 55010 59004;
0156827650999992006050412004-07333-047467FM-12+019399999V0203601N000510450019N0200001N1+02581+02381101511ADDGF106991011011008001091001KA1240N+02331MA1999999099111MD1999999-0111REMSYN076AAXX  04124 82765 32598 63601 10258 20238 39911 40151 81190 333 20233 59011;
0137827650999992006050418004-07333-047467FM-12+019399999V0201801N000511050019N0200001N1+03281+02401101101ADDGF106991041021008001001051MA1999999098731MD1999999-0091REMSYN070AAXX  04184 82765 32598 61801 10328 20240 39873 40110 84205 333 59009;
0187827650999992006050500004-07333-047467FM-12+019399999V0203601N000512200019N0200001N1+02781+02421101371ADDGF104991031031008001021001KA1240M+99999MA1999999098981MD1999999-0021REMSYN088AAXX  05004 82765 32598 43601 10278 20242 39898 40137 83320 333 10243 29073 55071 59002;EQDQ01 +02432ATMX  
0156827650999992006050512004-07333-047467FM-12+019399999V0201801N001512200019N0200001N1+02701+02451101531ADDGF104991021011008001041001KA1240N+02431MA1999999099141MD1999999+0031REMSYN076AAXX  05124 82765 32598 41803 10270 20245 39914 40153 82140 333 20243 58003;
0137827650999992006050518004-07333-047467FM-12+019399999V0201801N002110450019N0200001N1+03321+02661101061ADDGF106991031021008001041001MA1999999098691MD1999999-0041REMSYN070AAXX  05184 82765 32598 61804 10332 20266 39869 40106 83240 333 59004;
0196827650999992006050600004-07333-047467FM-12+019399999V0200501N001510450019N0200001N1+02821+02481101411ADDAY101061AY201061GF106991021031008001041001KA1240M+03431MA1999999099031MD1999999+0051MW1131REMSYN094AAXX  06004 82765 31598 60503 10282 20248 39903 40141 71300 82340 333 10343 29077 55097 58005;
0201827650999992006050612004-07333-047467FM-12+019399999V0203201N001510120019N0200001N1+02681+02481101601ADDAA124005191AY161061AY261061GF107991051081008001041001KA1240N+02391MA1999999099211MD1999999+0071MW1001REMSYN088AAXX  06124 82765 21598 73203 10268 20248 39921 40160 70066 85840 333 20239 58007 60054;
0165827650999992006050618004-07333-047467FM-12+019399999V0203201N002110450019N0200001N1+03201+02481101131ADDAY101061AY201061GF107991031031008001021001MA1999999098761MD1999999+0071MW1961REMSYN076AAXX  06184 82765 31598 73204 10320 20248 39876 40113 79600 83320 333 58007;
0213827650999992006050700004-07333-047467FM-12+019399999V0203601N001010120019N0200001N1+02461+02341101481ADDAA106031091AY161061AY261061GF108991061081008001021999KA1240M+03291MA1999999099081MD1999999+0051MW1001REMSYN100AAXX  07004 82765 21598 83602 10246 20234 39908 40148 70066 8682/ 333 10329 29084 55050 58005 60311;
0173827650999992006050712004-07333-047467FM-12+019399999V0203601N002110120019N0200001N1+02541+02351101711ADDAA124031091GF108991061081008001021999KA1240N+02391MA1999999099291MD1999999+0081REMSYN082AAXX  07124 82765 22598 83604 10254 20235 39929 40171 8682/ 333 20239 58008 60314;
0137827650999992006050718004-07333-047467FM-12+019399999V0209999C000010450019N0200001N1+03161+02321101281ADDGF105991041021008001041001MA1999999098901MD1999999+0141REMSYN070AAXX  07184 82765 32598 50000 10316 20232 39890 40128 84240 333 58014;
0168827650999992006050800004-07333-047467FM-12+019399999V0209999C000012200019N0200001N1+02701+02451101521ADDGF104991041011008001001001KA1240M+03191MA1999999099121MD1999999+0041REMSYN088AAXX  08004 82765 32598 40000 10270 20245 39912 40152 84100 333 10319 29081 55056 58004;
0156827650999992006050812004-07333-047467FM-12+019399999V0200901N001010450019N0200001N1+02661+02391101671ADDGF105991031011008001041001KA1240N+02311MA1999999099271MD1999999-0021REMSYN076AAXX  08124 82765 32598 50902 10266 20239 39927 40167 83140 333 20231 59002;
0137827650999992006050818004-07333-047467FM-12+019399999V0201401N001012200019N0200001N1+03261+02351101131ADDGF103991031011008001001001MA1999999098761MD1999999-0141REMSYN070AAXX  08184 82765 32598 31402 10326 20235 39876 40113 83100 333 59014;
0168827650999992006050900004-07333-047467FM-12+019399999V0201401N000512200019N0200001N1+02761+02481101451ADDGF102991021011008001001001KA1240M+03411MA1999999099061MD1999999-0061REMSYN088AAXX  09004 82765 32598 21401 10276 20248 39906 40145 82100 333 10341 29078 55102 59006;
0156827650999992006050912004-07333-047467FM-12+019399999V0200501N001510450019N0200001N1+02601+02371101571ADDGF106991031011008001031091KA1240N+02421MA1999999099181MD1999999-0091REMSYN076AAXX  09124 82765 32598 60503 10260 20237 39918 40157 83139 333 20242 59009;
0137827650999992006050918004-07333-047467FM-12+019399999V0203601N003110450019N0200001N1+03161+02321101121ADDGF106991041021008001011041MA1999999098751MD1999999-0011REMSYN070AAXX  09184 82765 32598 63606 10316 20232 39875 40112 84214 333 59001;
0168827650999992006051000004-07333-047467FM-12+019399999V0209999C000012200019N0200001N1+02721+02431101431ADDGF102991011001017501031091KA1240M+03251MA1999999099041MD1999999-0021REMSYN088AAXX  10004 82765 32798 20000 10272 20243 39904 40143 81039 333 10325 29079 55069 59002;
0156827650999992006051012004-07333-047467FM-12+019399999V0209999C000010450019N0200001N1+02551+02421101661ADDGF107991041081004501031001KA1240N+02401MA1999999099261MD1999999+0081REMSYN076AAXX  10124 82765 32498 70000 10255 20242 39926 40166 84830 333 20240 58008;
0137827650999992006051018004-07333-047467FM-12+019399999V0201401N000510450019N0200001N1+03271+02351101141ADDGF106991041031008001061001MA1999999098771MD1999999+0021REMSYN070AAXX  10184 82765 32598 61401 10327 20235 39877 40114 84360 333 58002;
0213827650999992006051100004-07333-047467FM-12+019399999V0200501N006710042019N0020001N1+02531+02451101631ADDAA106023191AY191061AY221061GF108991081091004501999999KA1240M+03401MA1999999099221MD1999999+0181MW1651REMSYN100AAXX  11004 82765 21495 80513 10253 20245 39922 40163 76592 889// 333 10340 29086 55066 58018 60231;
0201827650999992006051112004-07333-047467FM-12+019399999V0201401N000510042019N0200001N1+02371+02291101761ADDAA124041991AY191061AY261061GF108991051071004501021999KA1240N+02281MA1999999099341MD1999999+0081MW1031REMSYN088AAXX  11124 82765 21498 81401 10237 20229 39934 40176 70396 8572/ 333 20228 58008 60424;
0182827650999992006051118004-07333-047467FM-12+019399999V0202301N001510090019N0200001N1+02641+02411101371ADDAA106004191AY161061AY221061GF107991051081004501041001MA1999999098961MD1999999+0221MW1031REMSYN082AAXX  11184 82765 21498 72303 10264 20241 39896 40137 70362 85840 333 58022 60041;
0168827650999992006051200004-07333-047467FM-12+019399999V0209999C000010090019N0200001N1+02531+02431101621ADDGF108991051081004501021999KA1240M+02761MA1999999099201MD1999999-0021REMSYN088AAXX  12004 82765 32498 80000 10253 20243 39920 40162 8582/ 333 10276 29093 55011 59002;
0173827650999992006051212004-07333-047467FM-12+019399999V0200501N000510450019N0200001N1+02481+02381101821ADDAA124004191GF108991041051008001021999KA1240N+02411MA1999999099401MD1999999+0061REMSYN082AAXX  12124 82765 22598 80501 10248 20238 39940 40182 8452/ 333 20241 58006 60044;
0182827650999992006051218004-07333-047467FM-12+019399999V0200501N001510450019N0200001N1+02801+02401101381ADDAA106003091AY191061AY261061GF107991041021008001021001MA1999999098981MD1999999+0021MW1001REMSYN082AAXX  12184 82765 21598 70503 10280 20240 39898 40138 70096 84220 333 58002 60031;
0168827650999992006051300004-07333-047467FM-12+019399999V0209999C000010120019N0200001N1+02541+02401101691ADDGF108991051081008001021999KA1240M+03051MA1999999099271MD1999999+0071REMSYN088AAXX  13004 82765 32598 80000 10254 20240 39927 40169 8582/ 333 10305 29089 55012 58007;
0173827650999992006051312004-07333-047467FM-12+019399999V0202701N000510450019N0200001N1+02681+02431101861ADDAA124003091GF106991041021008001041001KA1240N+02461MA1999999099451MD1999999+0051REMSYN082AAXX  13124 82765 22598 62701 10268 20243 39945 40186 84240 333 20246 58005 60034;
0165827650999992006051318004-07333-047467FM-12+019399999V0201801N003110450019N0200001N1+03001+02291101441ADDAY101061AY201061GF106991041071008001041001MA1999999099051MD1999999+0071MW1161REMSYN076AAXX  13184 82765 31598 61806 10300 20229 39905 40144 71600 84740 333 58007;
0192827650999992006051412004-07333-047467FM-12+019399999V0201401N001510120019N0200001N1+02481+02381101961ADDAA124000091GF107991051081008001041001KA1240N+02371MA1999999099541MD1999999+0091REMSYN082AAXX  14124 82765 22598 71403 10248 20238 39954 40196 85840 333 20237 58009 69914;EQDQ01  00002PRCP24
0182827650999992006051418004-07333-047467FM-12+019399999V0200901N001510075019N0200001N1+02981+02331101491ADDAA106021191AY161061AY261061GF106991051021008001021001MA1999999099091MD1999999+0041MW1001REMSYN082AAXX  14184 82765 21598 60903 10298 20233 39909 40149 70066 85220 333 58004 60211;
0213827650999992006051500004-07333-047467FM-12+019399999V0202301N000510120019N0200001N1+02541+02451101831ADDAA106006191AY161061AY261061GF108991061081008001021999KA1240M+03091MA1999999099411MD1999999+0041MW1001REMSYN100AAXX  15004 82765 21598 82301 10254 20245 39941 40183 70066 8682/ 333 10309 29088 55035 58004 60061;
0173827650999992006051512004-07333-047467FM-12+019399999V0200901N000510450019N0200001N1+02461+02411101991ADDAA124025991GF106991041081008001041001KA1240N+02371MA1999999099561MD1999999+0021REMSYN082AAXX  15124 82765 22598 60901 10246 20241 39956 40199 84840 333 20237 58002 60264;
0137827650999992006051518004-07333-047467FM-12+019399999V0200901N002110450019N0200001N1+03181+02331101521ADDGF106991041011008001041001MA1999999099131MD1999999+0041REMSYN070AAXX  15184 82765 32598 60904 10318 20233 39913 40152 84140 333 58004;
0168827650999992006051600004-07333-047467FM-12+019399999V0209999C000010450019N0200001N1+02721+02451101591ADDGF105991031011008001041001KA1240M+03211MA1999999099191MD1999999-0221REMSYN088AAXX  16004 82765 32598 50000 10272 20245 39919 40159 83140 333 10321 29082 55080 59022;
0156827650999992006051612004-07333-047467FM-12+019399999V0200701N001512200019N0200001N1+02741+02361101751ADDGF102991021011008001001001KA1240N+02371MA1999999099361MD1999999-0201REMSYN076AAXX  16124 82765 32598 20703 10274 20236 39936 40175 82100 333 20237 59020;
0137827650999992006051618004-07333-047467FM-12+019399999V0200901N001510450019N0200001N1+03281+02341101411ADDGF106991041021008001041001MA1999999099031MD1999999-0101REMSYN070AAXX  16184 82765 32598 60903 10328 20234 39903 40141 84240 333 59010;
0168827650999992006051700004-07333-047467FM-12+019399999V0200501N001012200019N0200001N1+02821+02521101561ADDGF102991021011008001001001KA1240M+03391MA1999999099181MD1999999-0011REMSYN088AAXX  17004 82765 32598 20502 10282 20252 39918 40156 82100 333 10339 29076 55107 59001;
0156827650999992006051712004-07333-047467FM-12+019399999V0200901N000510450019N0200001N1+02561+02271101861ADDGF106991041041008001071001KA1240N+02451MA1999999099461MD1999999+0101REMSYN076AAXX  17124 82765 32598 60901 10256 20227 39946 40186 84470 333 20245 58010;
0137827650999992006051718004-07333-047467FM-12+019399999V0200901N001510450019N0200001N1+03181+02391101511ADDGF106991041021008001041001MA1999999099131MD1999999+0101REMSYN070AAXX  17184 82765 32598 60903 10318 20239 39913 40151 84240 333 58010;
0168827650999992006051800004-07333-047467FM-12+019399999V0209999C000012200019N0200001N1+02701+02461101731ADDGF102991021011008001001001KA1240M+03271MA1999999099321MD1999999+0141REMSYN088AAXX  18004 82765 32598 20000 10270 20246 39932 40173 82100 333 10327 29080 55049 58014;
0201827650999992006051812004-07333-047467FM-12+019399999V0200501N002611050019N0200001N1+02701+02281101851ADDAA124006191AY161061AY221061GF105991021011008001061041KA1240N+02391MA1999999099451MD1999999-0011MW1011REMSYN088AAXX  18124 82765 21598 50505 10270 20228 39945 40185 70162 82164 333 20239 59001 60064;
0137827650999992006051818004-07333-047467FM-12+019399999V0200901N002110450019N0200001N1+03211+02301101501ADDGF105991031021008001031041MA1999999099121MD1999999-0011REMSYN070AAXX  18184 82765 32598 50904 10321 20230 39912 40150 83234 333 59001;
0168827650999992006051900004-07333-047467FM-12+019399999V0209999C000010450019N0200001N1+02761+02541101711ADDGF105991031021008001011001KA1240M+03321MA1999999099321MD1999999+0001REMSYN088AAXX  19004 82765 32598 50000 10276 20254 39932 40171 83210 333 10332 29078 55094 58000;
0156827650999992006051912004-07333-047467FM-12+019399999V0200701N000510450019N0200001N1+02661+02391101821ADDGF105991031011008001031001KA1240N+02491MA1999999099421MD1999999-0031REMSYN076AAXX  19124 82765 32598 50701 10266 20239 39942 40182 83130 333 20249 59003;
0165827650999992006051918004-07333-047467FM-12+019399999V0203601N001510450019N0040001N1+02891+02321101421ADDAY121061AY221061GF107991041081004501061001MA1999999099031MD1999999-0091MW1161REMSYN076AAXX  19184 82765 31496 73603 10289 20232 39903 40142 71622 84860 333 59009;
0168827650999992006052000004-07333-047467FM-12+019399999V0203201N000510150019N0200001N1+02581+02421101621ADDGF108991081001017501021999KA1240M+03301MA1999999099221MD1999999-0101REMSYN088AAXX  20004 82765 32798 83201 10258 20242 39922 40162 8802/ 333 10330 29085 55045 59010;
0156827650999992006052012004-07333-047467FM-12+019399999V0203201N001510450019N0200001N1+02621+02421101671ADDGF106991041011008001031001KA1240N+02491MA1999999099261MD1999999-0161REMSYN076AAXX  20124 82765 32598 63203 10262 20242 39926 40167 84130 333 20249 59016;
0182827650999992006052018004-07333-047467FM-12+019399999V0209999C000010450019N0200001N1+02581+02331101371ADDAA106003091AY161061AY221061GF107991041021004501021001MA1999999098961MD1999999-0071MW1021REMSYN082AAXX  20184 82765 21498 70000 10258 20233 39896 40137 70262 84220 333 59007 60031;
0213827650999992006052100004-07333-047467FM-12+019399999V0209999C000010450019N0200001N1+02421+02321101641ADDAA106000591AY151061AY221061GF108991041081004501021999KA1240M+03181MA1999999099231MD1999999+0011MW1021REMSYN100AAXX  21004 82765 21498 80000 10242 20232 39923 40164 70252 8482/ 333 10318 29091 55023 58001 69941;
0201827650999992006052112004-07333-047467FM-12+019399999V0201801N000510450019N0200001N1+02401+02311101811ADDAA124004191AY151061AY221061GF107991031051008001041001KA1240N+02341MA1999999099381MD1999999+0121MW1001REMSYN088AAXX  21124 82765 21598 71801 10240 20231 39938 40181 70052 83540 333 20234 58012 60044;
0137827650999992006052118004-07333-047467FM-12+019399999V0200501N000510450019N0200001N1+02961+02381101351ADDGF105991031021008001041001MA1999999098961MD1999999+0001REMSYN070AAXX  21184 82765 32598 50501 10296 20238 39896 40135 83240 333 58000;
0168827650999992006052200004-07333-047467FM-12+019399999V0201401N002610450019N0200001N1+02541+02231101621ADDGF107991021031008001021001KA1240M+03131MA1999999099201MD1999999-0031REMSYN088AAXX  22004 82765 32598 71405 10254 20223 39920 40162 82320 333 10313 29083 55037 59003;
0168827650999992006052300004-07333-047467FM-12+019399999V0209999C000012200019N0200001N1+02781+02421101651ADDGF102991021021008001001001KA1240M+03351MA1999999099251MD1999999+0051REMSYN088AAXX  23004 82765 32598 20000 10278 20242 39925 40165 82200 333 10335 29077 55098 58005;
0156827650999992006052312004-07333-047467FM-12+019399999V0200901N000512200019N0200001N1+02641+02231101861ADDGF101991011001008001001011KA1240N+02271MA1999999099461MD1999999+0081REMSYN076AAXX  23124 82765 32598 10901 10264 20223 39946 40186 81001 333 20227 58008;
0137827650999992006052318004-07333-047467FM-12+019399999V0200901N002112200019N0200001N1+03301+02181101431ADDGF103991021021008001041001MA1999999099051MD1999999+0031REMSYN070AAXX  23184 82765 32598 30904 10330 20218 39905 40143 82240 333 58003;
0178827650999992006052400004-07333-047467FM-12+019399999V0200501N000512200019N0200001N1+02761+02361101771ADDGA1001+999999999GF100991001001999999001001KA1240M+03421MA1999999099371MD1999999+0121REMSYN082AAXX  24004 82765 32598 00501 10276 20236 39937 40177 333 10342 29072 55104 58012;
0156827650999992006052412004-07333-047467FM-12+019399999V0200901N001512200019N0200001N1+02681+02221101861ADDGF102991021011008001001001KA1240N+02291MA1999999099461MD1999999+0001REMSYN076AAXX  24124 82765 32598 20903 10268 20222 39946 40186 82100 333 20229 58000;
0137827650999992006052418004-07333-047467FM-12+019399999V0200901N002112200019N0200001N1+03341+02221101351ADDGF104991021011008001041001MA1999999098981MD1999999-0071REMSYN070AAXX  24184 82765 32598 40904 10334 20222 39898 40135 82140 333 59007;
0178827650999992006052500004-07333-047467FM-12+019399999V0209999C000012200019N0200001N1+02761+02541101621ADDGA1001+999999999GF100991001001999999001001KA1240M+03451MA1999999099231MD1999999-0141REMSYN082AAXX  25004 82765 32998 00000 10276 20254 39923 40162 333 10345 29076 55107 59014;
0156827650999992006052512004-07333-047467FM-12+019399999V0209999C000012200019N0200001N1+02761+02281101761ADDGF104991021011008001031041KA1240N+02321MA1999999099371MD1999999-0091REMSYN076AAXX  25124 82765 32598 40000 10276 20228 39937 40176 82134 333 20232 59009;
0137827650999992006052518004-07333-047467FM-12+019399999V0200501N002610450019N0200001N1+02911+02321101371ADDGF106991041021008001061001MA1999999098981MD1999999+0001REMSYN070AAXX  25184 82765 32598 60505 10291 20232 39898 40137 84260 333 58000;
0168827650999992006052600004-07333-047467FM-12+019399999V0200501N001010120019N0200001N1+02641+02291101621ADDGF108991081081008001999999KA1240M+03391MA1999999099231MD1999999+0001REMSYN088AAXX  26004 82765 32598 80502 10264 20229 39923 40162 888// 333 10339 29077 55057 58000;
0201827650999992006052612004-07333-047467FM-12+019399999V0209999C000010450019N0200001N1+02661+02351101761ADDAA124003091AY161061AY221061GF106991031011008001061001KA1240N+02441MA1999999099361MD1999999-0011MW1021REMSYN088AAXX  26124 82765 21598 60000 10266 20235 39936 40176 70262 83160 333 20244 59001 60034;
0137827650999992006052618004-07333-047467FM-12+019399999V0200901N002612200019N0200001N1+03241+02361101361ADDGF104991021021008001061041MA1999999098991MD1999999+0011REMSYN070AAXX  26184 82765 32598 40905 10324 20236 39899 40136 82264 333 58001;
0178827650999992006052700004-07333-047467FM-12+019399999V0209999C000012200019N0200001N1+02751+02401101581ADDGA1001+999999999GF100991001001999999001001KA1240M+03361MA1999999099191MD1999999-0041REMSYN082AAXX  27004 82765 32998 00000 10275 20240 39919 40158 333 10336 29077 55070 59004;
0156827650999992006052712004-07333-047467FM-12+019399999V0200901N000510450019N0200001N1+02541+02331101761ADDGF107991041011008001041001KA1240N+02311MA1999999099361MD1999999+0001REMSYN076AAXX  27124 82765 32598 70901 10254 20233 39936 40176 84140 333 20231 58000;
0137827650999992006052718004-07333-047467FM-12+019399999V0200501N001010450019N0200001N1+03221+02321101411ADDGF107991041011008001041061MA1999999099031MD1999999+0041REMSYN070AAXX  27184 82765 32598 70502 10322 20232 39903 40141 84146 333 58004;
0178827650999992006052800004-07333-047467FM-12+019399999V0209999C000012200019N0200001N1+02761+02481101561ADDGA1001+999999999GF100991001001999999001001KA1240M+03371MA1999999099161MD1999999-0031REMSYN082AAXX  28004 82765 32998 00000 10276 20248 39916 40156 333 10337 29079 55071 59003;
0156827650999992006052812004-07333-047467FM-12+019399999V0201101N001512200019N0200001N1+02741+02341101761ADDGF103991021011008001041001KA1240N+02291MA1999999099371MD1999999+0011REMSYN076AAXX  28124 82765 32598 31103 10274 20234 39937 40176 82140 333 20229 58001;
0137827650999992006052818004-07333-047467FM-12+019399999V0200901N001510450019N0200001N1+03321+02261101411ADDGF106991031021008001091051MA1999999099041MD1999999+0011REMSYN070AAXX  28184 82765 32598 60903 10332 20226 39904 40141 83295 333 58001;
0178827650999992006052900004-07333-047467FM-12+019399999V0200501N000512200019N0200001N1+02801+02461101521ADDGA1001+999999999GF100991001001999999001001KA1240M+03411MA1999999099141MD1999999-0021REMSYN082AAXX  29004 82765 32998 00501 10280 20246 39914 40152 333 10341 29074 55078 59002;
0156827650999992006052912004-07333-047467FM-12+019399999V0200901N001511050019N0200001N1+02691+02331101741ADDGF105991011011008001071041KA1240N+02331MA1999999099351MD1999999-0021REMSYN076AAXX  29124 82765 32598 50903 10269 20233 39935 40174 81174 333 20233 59002;
0137827650999992006052918004-07333-047467FM-12+019399999V0200901N002110450019N0200001N1+03241+02281101381ADDGF105991021021008001011001MA1999999099001MD1999999-0041REMSYN070AAXX  29184 82765 32598 50904 10324 20228 39900 40138 82210 333 59004;
0178827650999992006053000004-07333-047467FM-12+019399999V0200901N000512200019N0200001N1+02741+02451101531ADDGA1001+999999999GF100991001001999999001001KA1240M+03351MA1999999099141MD1999999+0001REMSYN082AAXX  30004 82765 32998 00901 10274 20245 39914 40153 333 10335 29076 55092 58000;
0156827650999992006053012004-07333-047467FM-12+019399999V0200901N002112200019N0200001N1+02601+02271101661ADDGF104991031011008001041001KA1240N+02291MA1999999099261MD1999999-0091REMSYN076AAXX  30124 82765 32598 40904 10260 20227 39926 40166 83140 333 20229 59009;
0137827650999992006053018004-07333-047467FM-12+019399999V0200501N003112200019N0200001N1+03241+02281101341ADDGF103991021021008001041001MA1999999098961MD1999999-0041REMSYN070AAXX  30184 82765 32598 30506 10324 20228 39896 40134 82240 333 59004;
0168827650999992006053100004-07333-047467FM-12+019399999V0200901N000512200019N0200001N1+02781+02401101591ADDGF102991021021008001001001KA1240M+03371MA1999999099201MD1999999+0061REMSYN088AAXX  31004 82765 32598 20901 10278 20240 39920 40159 82200 333 10337 29075 55097 58006;
0156827650999992006053112004-07333-047467FM-12+019399999V0200901N002612200019N0200001N1+02541+02221101811ADDGF102991021001008001001061KA1240N+02171MA1999999099411MD1999999+0151REMSYN076AAXX  31124 82765 32598 20905 10254 20222 39941 40181 82006 333 20217 58015;
0137827650999992006053118004-07333-047467FM-12+019399999V0201401N001512200019N0200001N1+03151+02001101531ADDGF104991011011008001001061MA1999999099131MD1999999+0171REMSYN070AAXX  31184 82765 32598 41403 10315 20200 39913 40153 81106 333 58017;
0178827650999992006060100004-07333-047467FM-12+019399999V0209999C000012200019N0200001N1+02661+02241101741ADDGA1001+999999999GF100991001001999999001001KA1240M+03251MA1999999099331MD1999999+0131REMSYN082AAXX  01004 82765 32998 00000 10266 20224 39933 40174 333 10325 29070 55099 58013;
0156827650999992006060112004-07333-047467FM-12+019399999V0200901N001512200019N0200001N1+02481+01871101891ADDGF102991021001008001001061KA1240N+02071MA1999999099471MD1999999+0061REMSYN076AAXX  01124 82765 32598 20903 10248 20187 39947 40189 82006 333 20207 58006;
0137827650999992006060118004-07333-047467FM-12+019399999V0200701N001512200019N0200001N1+03141+02071101541ADDGF104991041021008001001001MA1999999099141MD1999999+0011REMSYN070AAXX  01184 82765 32598 40703 10314 20207 39914 40154 84200 333 58001;
0178827650999992006060200004-07333-047467FM-12+019399999V0209999C000012200019N0200001N1+02661+02351101651ADDGA1001+999999999GF100991001001999999001001KA1240M+03311MA1999999099241MD1999999-0091REMSYN082AAXX  02004 82765 32998 00000 10266 20235 39924 40165 333 10331 29072 55102 59009;
0166827650999992006060212004-07333-047467FM-12+019399999V0200901N002112200019N0200001N1+02521+02231101781ADDGA1001+999999999GF100991001001999999001001KA1240N+02091MA1999999099371MD1999999-0101REMSYN070AAXX  02124 82765 32998 00904 10252 20223 39937 40178 333 20209 59010;
0137827650999992006060218004-07333-047467FM-12+019399999V0200901N002612200019N0200001N1+03241+02031101451ADDGF103991031021008001001001MA1999999099061MD1999999-0081REMSYN070AAXX  02184 82765 32598 30905 10324 20203 39906 40145 83200 333 59008;
0156827650999992006060312004-07333-047467FM-12+019399999V0200901N002612200019N0200001N1+02441+01971101791ADDGF102991021011008001001001KA1240N+02031MA1999999099381MD1999999+0011REMSYN076AAXX  03124 82765 32598 20905 10244 20197 39938 40179 82100 333 20203 58001;
0137827650999992006060318004-07333-047467FM-12+019399999V0200901N002612200019N0200001N1+03181+01981101411ADDGF103991031011008001001001MA1999999099021MD1999999-0041REMSYN070AAXX  03184 82765 32598 30905 10318 20198 39902 40141 83100 333 59004;
0178827650999992006060400004-07333-047467FM-12+019399999V0200501N000512200019N0200001N1+02621+02211101691ADDGA1001+999999999GF100991001001999999001001KA1240M+03311MA1999999099281MD1999999+0031REMSYN082AAXX  04004 82765 32998 00501 10262 20221 39928 40169 333 10331 29070 55106 58003;
0156827650999992006060412004-07333-047467FM-12+019399999V0201401N001011050019N0200001N1+02301+01901101791ADDGF106991011011008001001091KA1240N+01931MA1999999099371MD1999999-0011REMSYN076AAXX  04124 82765 32598 61402 10230 20190 39937 40179 81109 333 20193 59001;
0137827650999992006060418004-07333-047467FM-12+019399999V0200901N002611050019N0200001N1+03101+02031101391ADDGF107991031011008001001091MA1999999098991MD1999999+0031REMSYN070AAXX  04184 82765 32598 70905 10310 20203 39899 40139 83109 333 58003;
0168827650999992006060500004-07333-047467FM-12+019399999V0200501N001012200019N0200001N1+02641+02231101631ADDGF104991041011008001001001KA1240M+03211MA1999999099221MD1999999-0061REMSYN088AAXX  05004 82765 32598 40502 10264 20223 39922 40163 84100 333 10321 29072 55094 59006;
0156827650999992006060512004-07333-047467FM-12+019399999V0200901N003112200019N0200001N1+02481+01941101761ADDGF103991021001022501011041KA1240N+02091MA1999999099351MD1999999-0021REMSYN076AAXX  05124 82765 32898 30906 10248 20194 39935 40176 82014 333 20209 59002;
0137827650999992006060518004-07333-047467FM-12+019399999V0201401N001512200019N0200001N1+03131+01921101341ADDGF103991011011008001061041MA1999999098941MD1999999-0051REMSYN070AAXX  05184 82765 32598 31403 10313 20192 39894 40134 81164 333 59005;
0168827650999992006060600004-07333-047467FM-12+019399999V0209999C000012200019N0200001N1+02661+02221101591ADDGF104991041021008001001001KA1240M+03271MA1999999099181MD1999999-0041REMSYN088AAXX  06004 82765 32598 40000 10266 20222 39918 40159 84200 333 10327 29069 55099 59004;
0156827650999992006060612004-07333-047467FM-12+019399999V0209999C000010450019N0200001N1+02511+02211101751ADDGF107991031011008001031001KA1240N+02281MA1999999099341MD1999999-0011REMSYN076AAXX  06124 82765 32598 70000 10251 20221 39934 40175 83130 333 20228 59001;
0137827650999992006060618004-07333-047467FM-12+019399999V0200501N001510075019N0200001N1+02981+02091101481ADDGF107991071021008001001001MA1999999099081MD1999999+0141REMSYN070AAXX  06184 82765 32598 70503 10298 20209 39908 40148 87200 333 58014;
0168827650999992006060700004-07333-047467FM-12+019399999V0209999C000010450019N0200001N1+02741+02401101671ADDGF107991041011008001031001KA1240M+03121MA1999999099261MD1999999+0081REMSYN088AAXX  07004 82765 32598 70000 10274 20240 39926 40167 84130 333 10312 29076 55007 58008;
0156827650999992006060712004-07333-047467FM-12+019399999V0209999C000012200019N0200001N1+02621+02211101751ADDGF104991041001022501031001KA1240N+02401MA1999999099351MD1999999+0011REMSYN076AAXX  07124 82765 32898 40000 10262 20221 39935 40175 84030 333 20240 58001;
0137827650999992006060718004-07333-047467FM-12+019399999V0200701N001512200019N0200001N1+03391+02021101341ADDGF104991021021008001011041MA1999999098971MD1999999-0111REMSYN070AAXX  07184 82765 32598 40703 10339 20202 39897 40134 82214 333 59011;
0178827650999992006060800004-07333-047467FM-12+019399999V0209999C000012200019N0200001N1+02781+02421101531ADDGA1001+999999999GF100991001001999999001001KA1240M+03511MA1999999099141MD1999999-0121REMSYN082AAXX  08004 82765 32998 00000 10278 20242 39914 40153 333 10351 29071 55096 59012;
0156827650999992006060812004-07333-047467FM-12+019399999V0200501N000519999999N0200001N1+02601+02191101701ADDGF107991071001008001001091KA1240N+02191MA1999999099301MD1999999-0051REMSYN076AAXX  08124 82765 32598 70501 10260 20219 39930 40170 87009 333 20219 59005;
0137827650999992006060818004-07333-047467FM-12+019399999V0201101N003112200019N0200001N1+03301+02121101311ADDGF104991031021008001001091MA1999999098931MD1999999-0041REMSYN070AAXX  08184 82765 32598 41106 10330 20212 39893 40131 83209 333 59004;
0178827650999992006060900004-07333-047467FM-12+019399999V0209999C000012200019N0200001N1+02741+02261101481ADDGA1001+999999999GF100991001001999999001001KA1240M+03441MA1999999099081MD1999999-0061REMSYN082AAXX  09004 82765 32998 00000 10274 20226 39908 40148 333 10344 29070 55101 59006;
0156827650999992006060912004-07333-047467FM-12+019399999V0200701N001512200019N0200001N1+02541+02131101601ADDGF102991021001008001001091KA1240N+02541MA1999999099201MD1999999-0101REMSYN076AAXX  09124 82765 32598 20703 10254 20213 39920 40160 82009 333 20254 59010;
0137827650999992006060918004-07333-047467FM-12+019399999V0201401N003112200019N0200001N1+03281+02031101281ADDGF103991021011008001001091MA1999999098891MD1999999-0041REMSYN070AAXX  09184 82765 32598 31406 10328 20203 39889 40128 82109 333 59004;
0178827650999992006061000004-07333-047467FM-12+019399999V0209999C000012200019N0200001N1+02741+02281101471ADDGA1001+999999999GF100991001001999999001001KA1240M+03411MA1999999099071MD1999999-0011REMSYN082AAXX  10004 82765 32998 00000 10274 20228 39907 40147 333 10341 29070 55105 59001;
0156827650999992006061012004-07333-047467FM-12+019399999V0201101N000512200019N0200001N1+02531+02111101641ADDGF102991011001022501061041KA1240N+02141MA1999999099241MD1999999+0041REMSYN076AAXX  10124 82765 32898 21101 10253 20211 39924 40164 81064 333 20214 58004;
0137827650999992006061018004-07333-047467FM-12+019399999V0200501N002612200019N0200001N1+03281+01931101191ADDGF104991021011008001041041MA1999999098811MD1999999-0081REMSYN070AAXX  10184 82765 32598 40505 10328 20193 39881 40119 82144 333 59008;
0178827650999992006061100004-07333-047467FM-12+019399999V0209999C000012200019N0200001N1+02681+02391101441ADDGA1001+999999999GF100991001001999999001001KA1240M+03411MA1999999099041MD1999999-0031REMSYN082AAXX  11004 82765 32998 00000 10268 20239 39904 40144 333 10341 29073 55102 59003;
0156827650999992006061112004-07333-047467FM-12+019399999V0201401N001012200019N0200001N1+02441+02171101751ADDGF102991021011008001001001KA1240N+02011MA1999999099341MD1999999-0101REMSYN076AAXX  11124 82765 32598 21402 10244 20217 39934 40175 82100 333 20201 59010;
0137827650999992006061118004-07333-047467FM-12+019399999V0201601N001510075019N0200001N1+03321+02001101391ADDGF105991051011008001001001MA1999999099001MD1999999+0191REMSYN070AAXX  11184 82765 32598 51603 10332 20200 39900 40139 85100 333 58019;
0156827650999992006061212004-07333-047467FM-12+019399999V0201401N000512200019N0200001N1+02461+02071101781ADDGF102991021011008001001001KA1240N+02071MA1999999099371MD1999999+0031REMSYN076AAXX  12124 82765 32598 21401 10246 20207 39937 40178 82100 333 20207 58003;
0137827650999992006061218004-07333-047467FM-12+019399999V0200901N002612200019N0200001N1+03321+01851101461ADDGF104991031011008001031001MA1999999099071MD1999999+0071REMSYN070AAXX  12184 82765 32598 40905 10332 20185 39907 40146 83130 333 58007;
0178827650999992006061300004-07333-047467FM-12+019399999V0209999C000012200019N0200001N1+02721+02191101671ADDGA1001+999999999GF100991001001999999001001KA1240M+03451MA1999999099261MD1999999+0161REMSYN082AAXX  13004 82765 32998 00000 10272 20219 39926 40167 333 10345 29067 55104 58016;
0156827650999992006061312004-07333-047467FM-12+019399999V0201401N001012200019N0200001N1+02461+02171101841ADDGF102991011011008001001091KA1240N+02011MA1999999099431MD1999999+0061REMSYN076AAXX  13124 82765 32598 21402 10246 20217 39943 40184 81109 333 20201 58006;
0137827650999992006061318004-07333-047467FM-12+019399999V0200901N001510450019N0200001N1+03361+02171101431ADDGF106991041021008001041001MA1999999099041MD1999999-0031REMSYN070AAXX  13184 82765 32598 60903 10336 20217 39904 40143 84240 333 59003;
0156827650999992006061412004-07333-047467FM-12+019399999V0200701N003612200019N0200001N1+02661+02001101861ADDGF103991011011008001031041KA1240N+02301MA1999999099461MD1999999+0031REMSYN076AAXX  14124 82765 32598 30707 10266 20200 39946 40186 81134 333 20230 58003;
0137827650999992006061418004-07333-047467FM-12+019399999V0200701N002612200019N0200001N1+03191+02011101471ADDGF104991021011008001041041MA1999999099081MD1999999+0041REMSYN070AAXX  14184 82765 32598 40705 10319 20201 39908 40147 82144 333 58004;
0168827650999992006061500004-07333-047467FM-12+019399999V0200501N002112200019N0200001N1+02751+02211101631ADDGF104991021011008001031001KA1240M+03341MA1999999099241MD1999999+0001REMSYN088AAXX  15004 82765 32598 40504 10275 20221 39924 40163 82130 333 10334 29066 55105 58000;
0166827650999992006061512004-07333-047467FM-12+019399999V0200701N004112200019N0200001N1+02591+01901101851ADDGA1001+999999999GF100991001001999999001001KA1240N+02141MA1999999099451MD1999999-0011REMSYN070AAXX  15124 82765 32998 00708 10259 20190 39945 40185 333 20214 59001;
0137827650999992006061518004-07333-047467FM-12+019399999V0200501N003610075019N0200001N1+02921+02011101611ADDGF107991061011008001041001MA1999999099201MD1999999+0121REMSYN070AAXX  15184 82765 32598 70507 10292 20201 39920 40161 86140 333 58012;
0168827650999992006061600004-07333-047467FM-12+019399999V0209999C000010450019N0200001N1+02631+02211101741ADDGF107991041011008001011001KA1240M+03281MA1999999099331MD1999999+0091REMSYN088AAXX  16004 82765 32598 70000 10263 20221 39933 40174 84110 333 10328 29070 55056 58009;
0156827650999992006061612004-07333-047467FM-12+019399999V0201101N001512200019N0200001N1+02501+01911101891ADDGF102991001001999999001041KA1240N+02061MA1999999099471MD1999999+0021REMSYN076AAXX  16124 82765 32998 21103 10250 20191 39947 40189 80004 333 20206 58002;
0137827650999992006061618004-07333-047467FM-12+019399999V0200701N001512200019N0200001N1+03221+02051101581ADDGF106991041011008001001041MA1999999099191MD1999999-0011REMSYN070AAXX  16184 82765 32598 60703 10322 20205 39919 40158 84104 333 59001;
0178827650999992006061700004-07333-047467FM-12+019399999V0209999C000012200019N0200001N1+02701+02301101721ADDGA1001+999999999GF100991001001999999001001KA1240M+03391MA1999999099311MD1999999-0021REMSYN082AAXX  17004 82765 32998 00000 10270 20230 39931 40172 333 10339 29070 55103 59002;
0156827650999992006061712004-07333-047467FM-12+019399999V0200901N001012200019N0200001N1+02581+02171101761ADDGF102991021041008001001001KA1240N+02251MA1999999099361MD1999999-0111REMSYN076AAXX  17124 82765 32598 20902 10258 20217 39936 40176 82400 333 20225 59011;
0137827650999992006061718004-07333-047467FM-12+019399999V0200701N002610075019N0200001N1+03301+02051101511ADDGF106991051021008001041001MA1999999099121MD1999999-0071REMSYN070AAXX  17184 82765 32598 60705 10330 20205 39912 40151 85240 333 59007;
0168827650999992006061800004-07333-047467FM-12+019399999V0209999C000012200019N0200001N1+02781+02341101621ADDGF102991021021008001001001KA1240M+03351MA1999999099231MD1999999-0081REMSYN088AAXX  18004 82765 32598 20000 10278 20234 39923 40162 82200 333 10335 29070 55091 59008;
0156827650999992006061812004-07333-047467FM-12+019399999V0200501N004112200019N0200001N1+02661+01901101801ADDGF102991021001008001001051KA1240N+02191MA1999999099401MD1999999+0041REMSYN076AAXX  18124 82765 32598 20508 10266 20190 39940 40180 82005 333 20219 58004;
0137827650999992006061818004-07333-047467FM-12+019399999V0200901N003110075019N0200001N1+03321+02001101511ADDGF106991051021008001041001MA1999999099121MD1999999+0001REMSYN070AAXX  18184 82765 32598 60906 10332 20200 39912 40151 85240 333 58000;
0178827650999992006061900004-07333-047467FM-12+019399999V0200901N003112200019N0200001N1+02681+02061101651ADDGA1001+999999999GF100991001001999999001001KA1240M+03471MA1999999099251MD1999999+0021REMSYN082AAXX  19004 82765 32998 00906 10268 20206 39925 40165 333 10347 29062 55103 58002;
0156827650999992006061912004-07333-047467FM-12+019399999V0200701N002612200019N0200001N1+02501+01941101861ADDGF102991021001008001001091KA1240N+02131MA1999999099451MD1999999+0051REMSYN076AAXX  19124 82765 32598 20705 10250 20194 39945 40186 82009 333 20213 58005;
0137827650999992006061918004-07333-047467FM-12+019399999V0200501N003110450019N0200001N1+03221+02051101471ADDGF105991041011008001041001MA1999999099071MD1999999-0051REMSYN070AAXX  19184 82765 32598 50506 10322 20205 39907 40147 84140 333 59005;
0178827650999992006062000004-07333-047467FM-12+019399999V0200901N001512200019N0200001N1+02601+01941101721ADDGA1001+999999999GF100991001001999999001001KA1240M+03351MA1999999099311MD1999999+0061REMSYN082AAXX  20004 82765 32998 00903 10260 20194 39931 40172 333 10335 29064 55107 58006;
0166827650999992006062012004-07333-047467FM-12+019399999V0200501N001512200019N0200001N1+02561+01831101841ADDGA1001+999999999GF100991001001999999001001KA1240N+02011MA1999999099431MD1999999-0021REMSYN070AAXX  20124 82765 32998 00503 10256 20183 39943 40184 333 20201 59002;
0137827650999992006062018004-07333-047467FM-12+019399999V0200501N004110075019N0200001N1+03161+01921101531ADDGF106991061021008001001001MA1999999099131MD1999999+0061REMSYN070AAXX  20184 82765 32598 60508 10316 20192 39913 40153 86200 333 58006;
0178827650999992006062100004-07333-047467FM-12+019399999V0209999C000012200019N0200001N1+02641+02161101871ADDGA1001+999999999GF100991001001999999001001KA1240M+03271MA1999999099461MD1999999+0151REMSYN082AAXX  21004 82765 32998 00000 10264 20216 39946 40187 333 10327 29066 55080 58015;
0166827650999992006062112004-07333-047467FM-12+019399999V0200701N003112200019N0200001N1+02441+01811102031ADDGA1001+999999999GF100991001001999999001001KA1240N+01931MA1999999099611MD1999999+0181REMSYN070AAXX  21124 82765 32998 00706 10244 20181 39961 40203 333 20193 58018;
0137827650999992006062118004-07333-047467FM-12+019399999V0200501N003112200019N0200001N1+03241+01821101651ADDGF103991031011008001001001MA1999999099251MD1999999+0121REMSYN070AAXX  21184 82765 32598 30506 10324 20182 39925 40165 83100 333 58012;
0178827650999992006062200004-07333-047467FM-12+019399999V0209999C000012200019N0200001N1+02661+02111101881ADDGA1001+999999999GF100991001001999999001001KA1240M+03371MA1999999099461MD1999999+0001REMSYN082AAXX  22004 82765 32998 00000 10266 20211 39946 40188 333 10337 29064 55105 58000;
0166827650999992006062212004-07333-047467FM-12+019399999V0200901N001512200019N0200001N1+02601+01921101961ADDGA1001+999999999GF100991001001999999001001KA1240N+02081MA1999999099551MD1999999-0061REMSYN070AAXX  22124 82765 32998 00903 10260 20192 39955 40196 333 20208 59006;
0137827650999992006062218004-07333-047467FM-12+019399999V0200901N003112200019N0200001N1+03331+02001101471ADDGF104991041011012501001001MA1999999099081MD1999999-0171REMSYN070AAXX  22184 82765 32698 40906 10333 20200 39908 40147 84100 333 59017;
0178827650999992006062300004-07333-047467FM-12+019399999V0209999C000012200019N0200001N1+02861+02211101691ADDGA1001+999999999GF100991001001999999001001KA1240M+03511MA1999999099301MD1999999-0161REMSYN082AAXX  23004 82765 32998 00000 10286 20221 39930 40169 333 10351 29062 55106 59016;
0166827650999992006062312004-07333-047467FM-12+019399999V0200701N004112200019N0200001N1+02681+01781101911ADDGA1001+999999999GF100991001001999999001001KA1240N+02231MA1999999099511MD1999999-0041REMSYN070AAXX  23124 82765 32998 00708 10268 20178 39951 40191 333 20223 59004;
0137827650999992006062318004-07333-047467FM-12+019399999V0200901N003612200019N0200001N1+03261+01951101491ADDGF103991021011008001041001MA1999999099111MD1999999+0031REMSYN070AAXX  23184 82765 32598 30907 10326 20195 39911 40149 82140 333 58003;
0178827650999992006062400004-07333-047467FM-12+019399999V0209999C000012200019N0200001N1+02721+02121101701ADDGA1001+999999999GF100991001001999999001001KA1240M+03411MA1999999099301MD1999999+0001REMSYN082AAXX  24004 82765 32998 00000 10272 20212 39930 40170 333 10341 29061 55106 58000;
0166827650999992006062412004-07333-047467FM-12+019399999V0200901N003112200019N0200001N1+02421+01741101811ADDGA1001+999999999GF100991001001999999001001KA1240N+01971MA1999999099401MD1999999-0111REMSYN070AAXX  24124 82765 32998 00906 10242 20174 39940 40181 333 20197 59011;
0137827650999992006062418004-07333-047467FM-12+019399999V0200701N003112200019N0200001N1+03241+01581101471ADDGF102991021011008001001001MA1999999099071MD1999999-0011REMSYN070AAXX  24184 82765 32598 20706 10324 20158 39907 40147 82100 333 59001;
0178827650999992006062500004-07333-047467FM-12+019399999V0209999C000012200019N0200001N1+02701+02131101621ADDGA1001+999999999GF100991001001999999001001KA1240M+03411MA1999999099211MD1999999-0091REMSYN082AAXX  25004 82765 32998 00000 10270 20213 39921 40162 333 10341 29061 55107 59009;
0166827650999992006062512004-07333-047467FM-12+019399999V0200901N001512200019N0200001N1+02621+01931101801ADDGA1001+999999999GF100991001001999999001001KA1240N+02051MA1999999099401MD1999999+0001REMSYN070AAXX  25124 82765 32998 00903 10262 20193 39940 40180 333 20205 58000;
0137827650999992006062518004-07333-047467FM-12+019399999V0200501N004110075019N0200001N1+03241+01931101461ADDGF105991051011008001001001MA1999999099061MD1999999-0011REMSYN070AAXX  25184 82765 32598 50508 10324 20193 39906 40146 85100 333 59001;
0178827650999992006062600004-07333-047467FM-12+019399999V0209999C000012200019N0200001N1+02701+02151101681ADDGA1001+999999999GF100991001001999999001001KA1240M+03411MA1999999099281MD1999999+0071REMSYN082AAXX  26004 82765 32998 00000 10270 20215 39928 40168 333 10341 29064 55105 58007;
0156827650999992006062612004-07333-047467FM-12+019399999V0200701N002112200019N0200001N1+02601+02031101881ADDGF101991011011008001001001KA1240N+02151MA1999999099471MD1999999+0071REMSYN076AAXX  26124 82765 32598 10704 10260 20203 39947 40188 81100 333 20215 58007;
0137827650999992006062618004-07333-047467FM-12+019399999V0200701N002612200019N0200001N1+03361+01971101471ADDGF104991041021008001001001MA1999999099081MD1999999+0021REMSYN070AAXX  26184 82765 32598 40705 10336 20197 39908 40147 84200 333 58002;
0178827650999992006062700004-07333-047467FM-12+019399999V0209999C000012200019N0200001N1+02801+02311101711ADDGA1001+999999999GF100991001001999999001001KA1240M+03541MA1999999099311MD1999999+0031REMSYN082AAXX  27004 82765 32998 00000 10280 20231 39931 40171 333 10354 29066 55100 58003;
0156827650999992006062712004-07333-047467FM-12+019399999V0201801N000512200019N0200001N1+02531+02071101971ADDGF102991021001008001031001KA1240N+02111MA1999999099561MD1999999+0091REMSYN076AAXX  27124 82765 32598 21801 10253 20207 39956 40197 82030 333 20211 58009;
0137827650999992006062718004-07333-047467FM-12+019399999V0200901N001510450019N0200001N1+03441+02041101551ADDGF105991041021008001041001MA1999999099161MD1999999+0081REMSYN070AAXX  27184 82765 32598 50903 10344 20204 39916 40155 84240 333 58008;
0178827650999992006062800004-07333-047467FM-12+019399999V0209999C000012200019N0200001N1+02861+02371101711ADDGA1001+999999999GF100991001001999999001001KA1240M+03591MA1999999099311MD1999999+0001REMSYN082AAXX  28004 82765 32998 00000 10286 20237 39931 40171 333 10359 29068 55100 58000;
0156827650999992006062812004-07333-047467FM-12+019399999V0200501N000512200019N0200001N1+02641+02091101871ADDGF101991011001008001001011KA1240N+02121MA1999999099471MD1999999-0091REMSYN076AAXX  28124 82765 32598 10501 10264 20209 39947 40187 81001 333 20212 59009;
0137827650999992006062818004-07333-047467FM-12+019399999V0200701N002610450019N0200001N1+03481+02071101531ADDGF105991041021008001041001MA1999999099151MD1999999-0011REMSYN070AAXX  28184 82765 32598 50705 10348 20207 39915 40153 84240 333 59001;
0178827650999992006062900004-07333-047467FM-12+019399999V0209999C000012200019N0200001N1+02801+02181101721ADDGA1001+999999999GF100991001001999999001001KA1240M+03611MA1999999099331MD1999999+0021REMSYN082AAXX  29004 82765 32998 00000 10280 20218 39933 40172 333 10361 29064 55106 58002;
0156827650999992006063012004-07333-047467FM-12+019399999V0200901N004112200019N0200001N1+02701+02031101951ADDGF101991011011008001001001KA1240N+02301MA1999999099551MD1999999-0091REMSYN076AAXX  30124 82765 32598 10908 10270 20203 39955 40195 81100 333 20230 59009;
0137827650999992006063018004-07333-047467FM-12+019399999V0200901N002111050019N0200001N1+03341+01981101611ADDGF107991031011008001001051MA1999999099231MD1999999+0021REMSYN070AAXX  30184 82765 32598 70904 10334 20198 39923 40161 83105 333 58002;
0178827650999992006070100004-07333-047467FM-12+019399999V0209999C000012200019N0200001N1+02831+02201101751ADDGA1001+999999999GF100991001001999999001001KA1240M+03521MA1999999099361MD1999999-0011REMSYN082AAXX  01004 82765 32998 00000 10283 20220 39936 40175 333 10352 29062 55106 59001;
0166827650999992006070112004-07333-047467FM-12+019399999V0200901N005112200019N0200001N1+02661+01821102011ADDGA1001+999999999GF100991001001999999001001KA1240N+02211MA1999999099611MD1999999+0061REMSYN070AAXX  01124 82765 32998 00910 10266 20182 39961 40201 333 20221 58006;
0137827650999992006070118004-07333-047467FM-12+019399999V0200701N002112200019N0200001N1+03281+01931101651ADDGF104991041021008001001001MA1999999099261MD1999999+0031REMSYN070AAXX  01184 82765 32598 40704 10328 20193 39926 40165 84200 333 58003;
0168827650999992006070200004-07333-047467FM-12+019399999V0200701N001512200019N0200001N1+02571+01881101931ADDGF102991021011008001001001KA1240M+03431MA1999999099521MD1999999+0161REMSYN088AAXX  02004 82765 32598 20703 10257 20188 39952 40193 82100 333 10343 29059 55106 58016;
0156827650999992006070212004-07333-047467FM-12+019399999V0200901N001510450019N0200001N1+02541+02021102031ADDGF106991021011008001041001KA1240N+02171MA1999999099611MD1999999+0001REMSYN076AAXX  02124 82765 32598 60903 10254 20202 39961 40203 82140 333 20217 58000;
0137827650999992006070218004-07333-047467FM-12+019399999V0200901N003111050019N0200001N1+03241+01891101721ADDGF106991021011008001041061MA1999999099321MD1999999+0161REMSYN070AAXX  02184 82765 32598 60906 10324 20189 39932 40172 82146 333 58016;
0168827650999992006070300004-07333-047467FM-12+019399999V0200701N000510450019N0200001N1+02701+02081101951ADDGF106991041081008001041001KA1240M+03411MA1999999099541MD1999999+0021REMSYN088AAXX  03004 82765 32598 60701 10270 20208 39954 40195 84840 333 10341 29064 55071 58002;
0156827650999992006070312004-07333-047467FM-12+019399999V0200901N001010450019N0200001N1+02481+01981102061ADDGF106991021011008001041001KA1240N+02071MA1999999099651MD1999999+0041REMSYN076AAXX  03124 82765 32598 60902 10248 20198 39965 40206 82140 333 20207 58004;
0137827650999992006070318004-07333-047467FM-12+019399999V0200501N003110450019N0200001N1+03301+02071101711ADDGF106991021011008001041001MA1999999099321MD1999999+0001REMSYN070AAXX  03184 82765 32598 60506 10330 20207 39932 40171 82140 333 58000;
0168827650999992006070400004-07333-047467FM-12+019399999V0200501N000510450019N0200001N1+02781+02091101821ADDGF106991021011008001041001KA1240M+03491MA1999999099481MD1999999-0061REMSYN088AAXX  04004 82765 32598 60501 10278 20209 39948 40182 82140 333 10349 29063 55101 59006;
0156827650999992006070412004-07333-047467FM-12+019399999V0201101N001012200019N0200001N1+02541+01911101991ADDGF106991011011008001001011KA1240N+02191MA1999999099581MD1999999-0071REMSYN076AAXX  04124 82765 32598 61102 10254 20191 39958 40199 81101 333 20219 59007;
0137827650999992006070418004-07333-047467FM-12+019399999V0200901N002611050019N0200001N1+03381+01981101611ADDGF107991031011008001001061MA1999999099231MD1999999-0091REMSYN070AAXX  04184 82765 32598 70905 10338 20198 39923 40161 83106 333 59009;
0168827650999992006070500004-07333-047467FM-12+019399999V0200501N000519999999N0200001N1+02801+02151101871ADDGF106991061001008001001061KA1240M+03511MA1999999099461MD1999999-0021REMSYN088AAXX  05004 82765 32598 60501 10280 20215 39946 40187 86006 333 10351 29062 55105 59002;
0156827650999992006070512004-07333-047467FM-12+019399999V0200701N003619999999N0200001N1+02621+01931101991ADDGF106991061001008001001081KA1240N+02191MA1999999099591MD1999999+0011REMSYN076AAXX  05124 82765 32598 60707 10262 20193 39959 40199 86008 333 20219 58001;
0137827650999992006070518004-07333-047467FM-12+019399999V0200701N003111050019N0200001N1+03341+01871101561ADDGF107991011011008001001081MA1999999099171MD1999999-0061REMSYN070AAXX  05184 82765 32598 70706 10334 20187 39917 40156 81108 333 59006;
0168827650999992006070600004-07333-047467FM-12+019399999V0200901N001512200019N0200001N1+02761+02041101851ADDGF104991021011008001001081KA1240M+03491MA1999999099451MD1999999-0011REMSYN088AAXX  06004 82765 32598 40903 10276 20204 39945 40185 82108 333 10349 29060 55099 59001;
0156827650999992006070612004-07333-047467FM-12+019399999V0201401N001010450019N0200001N1+02481+02211102071ADDGF106991021011008001051051KA1240N+02091MA1999999099661MD1999999+0071REMSYN076AAXX  06124 82765 32598 61402 10248 20221 39966 40207 82155 333 20209 58007;
0137827650999992006070618004-07333-047467FM-12+019399999V0200701N002110450019N0200001N1+03241+01891101701ADDGF107991021021008001041061MA1999999099301MD1999999+0131REMSYN070AAXX  06184 82765 32598 70704 10324 20189 39930 40170 82246 333 58013;
0168827650999992006070700004-07333-047467FM-12+019399999V0209999C000019999999N0200001N1+02821+02171101921ADDGF107991041001008001031061KA1240M+03411MA1999999099511MD1999999+0061REMSYN088AAXX  07004 82765 32598 70000 10282 20217 39951 40192 84036 333 10341 29066 55077 58006;
0156827650999992006070712004-07333-047467FM-12+019399999V0200901N000510450019N0200001N1+02581+02041102011ADDGF105991021011008001051051KA1240N+02151MA1999999099611MD1999999-0051REMSYN076AAXX  07124 82765 32598 50901 10258 20204 39961 40201 82155 333 20215 59005;
0137827650999992006070718004-07333-047467FM-12+019399999V0200901N001510450019N0200001N1+03361+02001101621ADDGF106991041021008001041051MA1999999099921MD1999999-0061REMSYN070AAXX  07184 82765 32598 60903 10336 20200 39992 40162 84245 333 59006;
0178827650999992006070800004-07333-047467FM-12+019399999V0209999C000012200019N0200001N1+02761+02341101821ADDGA1001+999999999GF100991001001999999001001KA1240M+03511MA1999999099421MD1999999-0091REMSYN082AAXX  08004 82765 32998 00000 10276 20234 39942 40182 333 10351 29068 55084 59009;
0156827650999992006070812004-07333-047467FM-12+019399999V0200501N003112200019N0200001N1+02741+02101101951ADDGF104991011011008001001051KA1240N+02291MA1999999099551MD1999999-0061REMSYN076AAXX  08124 82765 32598 40506 10274 20210 39955 40195 81105 333 20229 59006;
0137827650999992006070818004-07333-047467FM-12+019399999V0201401N001510450019N0200001N1+03421+01941101481ADDGF106991041021008001041001MA1999999099101MD1999999-0141REMSYN070AAXX  08184 82765 32598 61403 10342 20194 39910 40148 84240 333 59014;
0168827650999992006070900004-07333-047467FM-12+019399999V0209999C000012200019N0200001N1+02861+02311101701ADDGF102991011011008001001011KA1240M+03571MA1999999099311MD1999999-0111REMSYN088AAXX  09004 82765 32598 20000 10286 20231 39931 40170 81101 333 10357 29064 55090 59011;
0156827650999992006070912004-07333-047467FM-12+019399999V0201101N000512200019N0200001N1+02601+02121101861ADDGF102991021011008001001001KA1240N+02211MA1999999099461MD1999999-0091REMSYN076AAXX  09124 82765 32598 21101 10260 20212 39946 40186 82100 333 20221 59009;
0137827650999992006070918004-07333-047467FM-12+019399999V0200501N002111050019N0200001N1+03461+01981101361ADDGF106991031011008001001051MA1999999098991MD1999999-0111REMSYN070AAXX  09184 82765 32598 60504 10346 20198 39899 40136 83105 333 59011;
0168827650999992006071000004-07333-047467FM-12+019399999V0209999C000012200019N0200001N1+02861+02161101561ADDGF103991011011008001001091KA1240M+03611MA1999999099171MD1999999-0141REMSYN088AAXX  10004 82765 32598 30000 10286 20216 39917 40156 81109 333 10361 29062 55098 59014;
0156827650999992006071012004-07333-047467FM-12+019399999V0200901N002112200019N0200001N1+02581+01971101741ADDGF101991011001008001001091KA1240N+02091MA1999999099341MD1999999-0121REMSYN076AAXX  10124 82765 32598 10904 10258 20197 39934 40174 81009 333 20209 59012;
0137827650999992006071018004-07333-047467FM-12+019399999V0200701N002612200019N0200001N1+03461+01941101381ADDGF102991021011008001001001MA1999999099011MD1999999-0021REMSYN070AAXX  10184 82765 32598 20705 10346 20194 39901 40138 82100 333 59002;
0178827650999992006071100004-07333-047467FM-12+019399999V0200701N001512200019N0200001N1+02841+02141101521ADDGA1001+999999999GF100991001001999999001001KA1240M+03611MA1999999099131MD1999999-0041REMSYN082AAXX  11004 82765 32998 00703 10284 20214 39913 40152 333 10361 29060 55106 59004;
0156827650999992006071112004-07333-047467FM-12+019399999V0200701N003112200019N0200001N1+02501+01451101841ADDGF102991021001008001001091KA1240N+02031MA1999999099441MD1999999+0101REMSYN076AAXX  11124 82765 32598 20706 10250 20145 39944 40184 82009 333 20203 58010;
0147827650999992006071118004-07333-047467FM-12+019399999V0200901N002612200019N0200001N1+03401+01591101471ADDGA1001+999999999GF100991001001999999001001MA1999999099081MD1999999+0071REMSYN064AAXX  11184 82765 32998 00905 10340 20159 39908 40147 333 58007;
0168827650999992006071200004-07333-047467FM-12+019399999V0203601N000512200019N0200001N1+02721+01881101641ADDGF101991011011008001001001KA1240M+03571MA1999999099241MD1999999+0111REMSYN088AAXX  12004 82765 32598 13601 10272 20188 39924 40164 81100 333 10357 29052 55109 58011;
0166827650999992006071212004-07333-047467FM-12+019399999V0200701N004112200019N0200001N1+02681+01811101811ADDGA1001+999999999GF100991001001999999001001KA1240N+02131MA1999999099411MD1999999-0011REMSYN070AAXX  12124 82765 32998 00708 10268 20181 39941 40181 333 20213 59001;
0137827650999992006071218004-07333-047467FM-12+019399999V0200701N002611050019N0200001N1+03401+01851101451ADDGF106991011011008001001051MA1999999099071MD1999999-0011REMSYN070AAXX  12184 82765 32598 60705 10340 20185 39907 40145 81105 333 59001;
0168827650999992006071300004-07333-047467FM-12+019399999V0200501N001012200019N0200001N1+02781+02061101611ADDGF102991011011008001001051KA1240M+03571MA1999999099221MD1999999-0021REMSYN088AAXX  13004 82765 32598 20502 10278 20206 39922 40161 81105 333 10357 29056 55106 59002;
0156827650999992006071312004-07333-047467FM-12+019399999V0200701N003112200019N0200001N1+02601+01791101891ADDGF103991011011008001001051KA1240N+02211MA1999999099491MD1999999+0081REMSYN076AAXX  13124 82765 32598 30706 10260 20179 39949 40189 81105 333 20221 58008;
0137827650999992006071318004-07333-047467FM-12+019399999V0200901N003112200019N0200001N1+03321+01931101491ADDGF104991021011008001041001MA1999999099111MD1999999+0041REMSYN070AAXX  13184 82765 32598 40906 10332 20193 39911 40149 82140 333 58004;
0178827650999992006071400004-07333-047467FM-12+019399999V0200901N001012200019N0200001N1+02761+02071101691ADDGA1001+999999999GF100991001001999999001001KA1240M+03511MA1999999099291MD1999999+0071REMSYN082AAXX  14004 82765 32998 00902 10276 20207 39929 40169 333 10351 29059 55106 58007;
0156827650999992006071412004-07333-047467FM-12+019399999V0200701N003112200019N0200001N1+02491+01541101861ADDGF102991021001008001001091KA1240N+02051MA1999999099451MD1999999-0041REMSYN076AAXX  14124 82765 32598 20706 10249 20154 39945 40186 82009 333 20205 59004;
0137827650999992006071418004-07333-047467FM-12+019399999V0201101N003112200019N0200001N1+03281+01861101521ADDGF103991031011008001001001MA1999999099121MD1999999+0011REMSYN070AAXX  14184 82765 32598 31106 10328 20186 39912 40152 83100 333 58001;
0178827650999992006071500004-07333-047467FM-12+019399999V0200901N001012200019N0200001N1+02641+01931101731ADDGA1001+999999999GF100991001001999999001001KA1240M+03431MA1999999099321MD1999999+0031REMSYN082AAXX  15004 82765 32998 00902 10264 20193 39932 40173 333 10343 29057 55100 58003;
0156827650999992006071512004-07333-047467FM-12+019399999V0200901N002112200019N0200001N1+02321+01601102021ADDGF102991021001012501001081KA1240N+01831MA1999999099601MD1999999+0151REMSYN076AAXX  15124 82765 32698 20904 10232 20160 39960 40202 82008 333 20183 58015;
0137827650999992006071518004-07333-047467FM-12+019399999V0201401N002112200019N0200001N1+03301+01591101621ADDGF103991021011008001001081MA1999999099221MD1999999+0101REMSYN070AAXX  15184 82765 32598 31404 10330 20159 39922 40162 82108 333 58010;
0178827650999992006071600004-07333-047467FM-12+019399999V0209999C000012200019N0200001N1+02661+01871101761ADDGA1001+999999999GF100991001001999999001001KA1240M+03451MA1999999099341MD1999999+0021REMSYN082AAXX  16004 82765 32998 00000 10266 20187 39934 40176 333 10345 29056 55107 58002;
0156827650999992006071612004-07333-047467FM-12+019399999V0201401N001519999999N0200001N1+02331+01631101911ADDGF106991061001012501001051KA1240N+01871MA1999999099491MD1999999-0111REMSYN076AAXX  16124 82765 32698 61403 10233 20163 39949 40191 86005 333 20187 59011;
0137827650999992006071618004-07333-047467FM-12+019399999V0200901N002111050019N0200001N1+03301+01801101601ADDGF106991041011008001001081MA1999999099201MD1999999-0021REMSYN070AAXX  16184 82765 32598 60904 10330 20180 39920 40160 84108 333 59002;
0168827650999992006071700004-07333-047467FM-12+019399999V0203601N000512200019N0200001N1+02801+01981101751ADDGF104991041011008001001001KA1240M+03551MA1999999099341MD1999999+0001REMSYN088AAXX  17004 82765 32598 43601 10280 20198 39934 40175 84100 333 10355 29057 55105 58000;
0156827650999992006071712004-07333-047467FM-12+019399999V0200701N004612200019N0200001N1+02561+01801101931ADDGF102991011011008001001051KA1240N+01961MA1999999099531MD1999999+0041REMSYN076AAXX  17124 82765 32598 20709 10256 20180 39953 40193 81105 333 20196 58004;
0137827650999992006071718004-07333-047467FM-12+019399999V0200901N003610075019N0200001N1+03301+01911101551ADDGF106991051021008001001051MA1999999099151MD1999999-0051REMSYN070AAXX  17184 82765 32598 60907 10330 20191 39915 40155 85205 333 59005;
0168827650999992006071800004-07333-047467FM-12+019399999V0201801N000511050019N0200001N1+02821+01711101791ADDGF106991041021008001001051KA1240M+03451MA1999999099391MD1999999+0051REMSYN088AAXX  18004 82765 32598 61801 10282 20171 39939 40179 84205 333 10345 29059 55105 58005;
0156827650999992006071812004-07333-047467FM-12+019399999V0200901N004112200019N0200001N1+02641+01771101801ADDGF102991021001012501001081KA1240N+02141MA1999999099411MD1999999-0121REMSYN076AAXX  18124 82765 32698 20908 10264 20177 39941 40180 82008 333 20214 59012;
0137827650999992006071818004-07333-047467FM-12+019399999V0200701N003112200019N0200001N1+03401+01721101431ADDGF103991031011008001001001MA1999999099051MD1999999-0101REMSYN070AAXX  18184 82765 32598 30706 10340 20172 39905 40143 83100 333 59010;
0178827650999992006071900004-07333-047467FM-12+019399999V0209999C000012200019N0200001N1+02821+02021101691ADDGA1001+999999999GF100991001001999999001001KA1240M+03581MA1999999099281MD1999999-0111REMSYN082AAXX  19004 82765 32998 00000 10282 20202 39928 40169 333 10358 29055 55109 59011;
0156827650999992006071912004-07333-047467FM-12+019399999V0200901N002612200019N0200001N1+02521+01691101961ADDGF102991021011008001001001KA1240N+02011MA1999999099551MD1999999+0141REMSYN076AAXX  19124 82765 32598 20905 10252 20169 39955 40196 82100 333 20201 58014;
0137827650999992006071918004-07333-047467FM-12+019399999V0200901N002112200019N0200001N1+03441+01801101551ADDGF103991021011008001021001MA1999999099161MD1999999+0111REMSYN070AAXX  19184 82765 32598 30904 10344 20180 39916 40155 82120 333 58011;
0178827650999992006072000004-07333-047467FM-12+019399999V0201801N000512200019N0200001N1+02761+01941101751ADDGA1001+999999999GF100991001001999999001001KA1240M+03631MA1999999099351MD1999999+0071REMSYN082AAXX  20004 82765 32998 01801 10276 20194 39935 40175 333 10363 29055 55105 58007;
0156827650999992006072012004-07333-047467FM-12+019399999V0209999C000011050019N0200001N1+02581+02081101901ADDGF106991011011008001001091KA1240N+01991MA1999999099501MD1999999-0051REMSYN076AAXX  20124 82765 32598 60000 10258 20208 39950 40190 81109 333 20199 59005;
0137827650999992006072018004-07333-047467FM-12+019399999V0200901N001510450019N0200001N1+03421+01911101501ADDGF105991041021008001041001MA1999999099111MD1999999-0051REMSYN070AAXX  20184 82765 32598 50903 10342 20191 39911 40150 84240 333 59005;
0178827650999992006072100004-07333-047467FM-12+019399999V0200501N000512200019N0200001N1+02841+02141101641ADDGA1001+999999999GF100991001001999999001001KA1240M+03631MA1999999099251MD1999999-0101REMSYN082AAXX  21004 82765 32998 00501 10284 20214 39925 40164 333 10363 29059 55099 59010;
0156827650999992006072112004-07333-047467FM-12+019399999V0200901N001510450019N0200001N1+02561+01881101901ADDGF106991011011008001041091KA1240N+02131MA1999999099501MD1999999+0001REMSYN076AAXX  21124 82765 32598 60903 10256 20188 39950 40190 81149 333 20213 58000;
0137827650999992006072118004-07333-047467FM-12+019399999V0200901N003110450019N0200001N1+03421+01781101491ADDGF106991041021008001041001MA1999999099111MD1999999+0001REMSYN070AAXX  21184 82765 32598 60906 10342 20178 39911 40149 84240 333 58000;
0178827650999992006072200004-07333-047467FM-12+019399999V0200501N005112200019N0200001N1+02821+01971101631ADDGA1001+999999999GF100991001001999999001001KA1240M+03591MA1999999099241MD1999999-0011REMSYN082AAXX  22004 82765 32998 00510 10282 20197 39924 40163 333 10359 29056 55098 59001;
0166827650999992006072212004-07333-047467FM-12+019399999V0200901N003112200019N0200001N1+02581+01771101761ADDGA1001+999999999GF100991001001999999001001KA1240N+02071MA1999999099361MD1999999-0141REMSYN070AAXX  22124 82765 32998 00906 10258 20177 39936 40176 333 20207 59014;
0137827650999992006072218004-07333-047467FM-12+019399999V0200901N002112200019N0200001N1+03461+01691101371ADDGF101991011011008001001001MA1999999098991MD1999999-0121REMSYN070AAXX  22184 82765 32598 10904 10346 20169 39899 40137 81100 333 59012;
0178827650999992006072300004-07333-047467FM-12+019399999V0200501N000512200019N0200001N1+02801+01921101541ADDGA1001+999999999GF100991001001999999001001KA1240M+03631MA1999999099151MD1999999-0091REMSYN082AAXX  23004 82765 32998 00501 10280 20192 39915 40154 333 10363 29054 55103 59009;
0166827650999992006072312004-07333-047467FM-12+019399999V0200701N004112200019N0200001N1+02401+01231101701ADDGA1001+999999999GF100991001001999999001001KA1240N+01831MA1999999099291MD1999999-0071REMSYN070AAXX  23124 82765 32998 00708 10240 20123 39929 40170 333 20183 59007;
0147827650999992006072318004-07333-047467FM-12+019399999V0200901N002612200019N0200001N1+03301+01211101311ADDGA1001+999999999GF100991001001999999001001MA1999999098921MD1999999-0071REMSYN064AAXX  23184 82765 32998 00905 10330 20121 39892 40131 333 59007;
0178827650999992006072400004-07333-047467FM-12+019399999V0200901N001512200019N0200001N1+02561+01591101551ADDGA1001+999999999GF100991001001999999001001KA1240M+03471MA1999999099141MD1999999-0011REMSYN082AAXX  24004 82765 32998 00903 10256 20159 39914 40155 333 10347 29046 55109 59001;
0156827650999992006072412004-07333-047467FM-12+019399999V0201401N001512200019N0200001N1+02251+01371101761ADDGF102991021001008001081001KA1240N+01741MA1999999099331MD1999999+0041REMSYN076AAXX  24124 82765 32598 21403 10225 20137 39933 40176 82080 333 20174 58004;
0137827650999992006072418004-07333-047467FM-12+019399999V0200901N002110450019N0200001N1+03401+01721101361ADDGF108991041021008001041001MA1999999098951MD1999999+0031REMSYN070AAXX  24184 82765 32598 80904 10340 20172 39895 40136 84240 333 58003;
0168827650999992006072500004-07333-047467FM-12+019399999V0209999C000010450019N0200001N1+02861+02011101441ADDGF106991041021008001041001KA1240M+03571MA1999999099041MD1999999-0101REMSYN088AAXX  25004 82765 32598 60000 10286 20201 39904 40144 84240 333 10357 29054 55102 59010;
0156827650999992006072512004-07333-047467FM-12+019399999V0200701N003112200019N0200001N1+02741+02121101631ADDGF102991021011008001001001KA1240N+02311MA1999999099251MD1999999-0081REMSYN076AAXX  25124 82765 32598 20706 10274 20212 39925 40163 82100 333 20231 59008;
0137827650999992006072518004-07333-047467FM-12+019399999V0200501N003112200019N0200001N1+03481+01751101251ADDGF103991031011008001001001MA1999999098881MD1999999-0071REMSYN070AAXX  25184 82765 32598 30506 10348 20175 39888 40125 83100 333 59007;
0178827650999992006072600004-07333-047467FM-12+019399999V0200901N002112200019N0200001N1+02761+01771101411ADDGA1001+999999999GF100991001001999999001001KA1240M+03631MA1999999099031MD1999999-0011REMSYN082AAXX  26004 82765 32998 00904 10276 20177 39903 40141 333 10363 29054 55104 59001;
0166827650999992006072612004-07333-047467FM-12+019399999V0200701N000512200019N0200001N1+02641+01831101621ADDGA1001+999999999GF100991001001999999001001KA1240N+02271MA1999999099231MD1999999-0021REMSYN070AAXX  26124 82765 32998 00701 10264 20183 39923 40162 333 20227 59002;
0137827650999992006072618004-07333-047467FM-12+019399999V0200901N001012200019N0200001N1+03581+01791101201ADDGF103991031011008001001001MA1999999098831MD1999999-0051REMSYN070AAXX  26184 82765 32598 30902 10358 20179 39883 40120 83100 333 59005;
0178827650999992006072700004-07333-047467FM-12+019399999V0200701N000512200019N0200001N1+02941+02001101371ADDGA1001+999999999GF100991001001999999001001KA1240M+03771MA1999999098991MD1999999-0041REMSYN082AAXX  27004 82765 32998 00701 10294 20200 39899 40137 333 10377 29052 55108 59004;
0156827650999992006072712004-07333-047467FM-12+019399999V0200501N000512200019N0200001N1+02721+02151101641ADDGF102991021011008001001001KA1240N+02171MA1999999099261MD1999999+0031REMSYN076AAXX  27124 82765 32598 20501 10272 20215 39926 40164 82100 333 20217 58003;
0137827650999992006072718004-07333-047467FM-12+019399999V0201101N002110450019N0200001N1+03621+01921101241ADDGF106991041021008001041001MA1999999098881MD1999999-0051REMSYN070AAXX  27184 82765 32598 61104 10362 20192 39888 40124 84240 333 59005;
0168827650999992006072800004-07333-047467FM-12+019399999V0200501N000512200019N0200001N1+03041+02201101431ADDGF103991021021008001041001KA1240M+03771MA1999999099051MD1999999+0061REMSYN088AAXX  28004 82765 32598 30501 10304 20220 39905 40143 82240 333 10377 29058 55100 58006;
0156827650999992006072812004-07333-047467FM-12+019399999V0200501N002112200019N0200001N1+02781+02061101601ADDGF104991041001008001081001KA1240N+02341MA1999999099321MD1999999+0041REMSYN076AAXX  28124 82765 32598 40504 10278 20206 39932 40160 84080 333 20234 58004;
0137827650999992006072818004-07333-047467FM-12+019399999V0200901N001012200019N0200001N1+03581+02291101271ADDGF104991041011008001001001MA1999999098911MD1999999+0031REMSYN070AAXX  28184 82765 32598 40902 10358 20229 39891 40127 84100 333 58003;
0178827650999992006072900004-07333-047467FM-12+019399999V0209999C000012200019N0200001N1+03041+02231101331ADDGA1001+999999999GF100991001001999999001001KA1240M+03751MA1999999098961MD1999999-0091REMSYN082AAXX  29004 82765 32998 00000 10304 20223 39896 40133 333 10375 29057 55102 59009;
0156827650999992006072912004-07333-047467FM-12+019399999V0201801N002119999999N0200001N1+02681+01971101621ADDGF106991061001008001081001KA1240N+02311MA1999999099241MD1999999-0081REMSYN076AAXX  29124 82765 32598 61804 10268 20197 39924 40162 86080 333 20231 59008;
0137827650999992006072918004-07333-047467FM-12+019399999V0200901N002111050019N0200001N1+03581+01971101211ADDGF106991041021008001001051MA1999999098851MD1999999-0061REMSYN070AAXX  29184 82765 32598 60904 10358 20197 39885 40121 84205 333 59006;
0178827650999992006073000004-07333-047467FM-12+019399999V0209999C000012200019N0200001N1+02941+02031101381ADDGA1001+999999999GF100991001001999999001001KA1240M+03771MA1999999099001MD1999999+0041REMSYN082AAXX  30004 82765 32998 00000 10294 20203 39900 40138 333 10377 29055 55091 58004;
0156827650999992006073012004-07333-047467FM-12+019399999V0209999C000012200019N0200001N1+02701+01881101631ADDGF102991021001008001001051KA1240N+02111MA1999999099251MD1999999+0011REMSYN076AAXX  30124 82765 32598 20000 10270 20188 39925 40163 82005 333 20211 58001;
0137827650999992006073018004-07333-047467FM-12+019399999V0201101N002110450019N0200001N1+03641+01941101301ADDGF106991031021008001041061MA1999999098931MD1999999+0081REMSYN070AAXX  30184 82765 32598 61104 10364 20194 39893 40130 83246 333 58008;
0196827650999992006073100004-07333-047467FM-12+019399999V0209999C000012200019N0200001N1+02761+02161101531ADDAY191061AY201061GF103991021021008001041001KA1240M+03791MA1999999099141MD1999999+0141MW1001REMSYN094AAXX  31004 82765 31598 30000 10276 20216 39914 40153 70090 82240 333 10379 29060 55090 58014;
0156827650999992006073112004-07333-047467FM-12+019399999V0203601N002112200019N0200001N1+02661+02071101971ADDGF104991021011008001031001KA1240N+02191MA1999999099571MD1999999+0321REMSYN076AAXX  31124 82765 32598 43604 10266 20207 39957 40197 82130 333 20219 58032;
0165827650999992006073118004-07333-047467FM-12+019399999V0203601N001510450019N0040001N1+03311+02121101591ADDAY121061AY221061GF106991041021004501061001MA1999999099211MD1999999+0281MW1151REMSYN076AAXX  31184 82765 31496 63603 10331 20212 39921 40159 71522 84260 333 58028;
0223827650999992006080100004-07333-047467FM-12+019399999V0209999C000012200019N0200001N1+02491+02271101851ADDAA106002091AY161061AY221061GA1001+999999999GF100991001001999999001001KA1240M+03711MA1999999099441MD1999999+0301MW1001REMSYN094AAXX  01004 82765 21998 00000 10249 20227 39944 40185 70062 333 10371 29074 55081 58030 60021;
0173827650999992006080112004-07333-047467FM-12+019399999V0200501N001010075019N0200001N1+02481+02151102221ADDAA124002091GF106991061021008001001001KA1240N+02151MA1999999099791MD1999999+0221REMSYN082AAXX  01124 82765 22598 60502 10248 20215 39979 40222 86200 333 20215 58022 60024;
0137827650999992006080118004-07333-047467FM-12+019399999V0200501N001510450019N0200001N1+03321+02101101741ADDGF106991041021008001031041MA1999999099351MD1999999+0141REMSYN070AAXX  01184 82765 32598 60503 10332 20210 39935 40174 84234 333 58014;
0166827650999992006080212004-07333-047467FM-12+019399999V0200501N000512200019N0200001N1+02521+02151102141ADDGA1001+999999999GF100991001001999999001001KA1240N+02151MA1999999099721MD1999999-0071REMSYN070AAXX  02124 82765 32998 00501 10252 20215 39972 40214 333 20215 59007;
0137827650999992006080218004-07333-047467FM-12+019399999V0203601N000510075019N0200001N1+03461+01901101531ADDGF105991051021008001001001MA1999999099151MD1999999-0201REMSYN070AAXX  02184 82765 32598 53601 10346 20190 39915 40153 85200 333 59020;
0178827650999992006080300004-07333-047467FM-12+019399999V0200501N001012200019N0200001N1+02831+01891101651ADDGA1001+999999999GF100991001001999999001001KA1240M+03681MA1999999099291MD1999999-0151REMSYN082AAXX  03004 82765 32998 00502 10283 20189 39929 40165 333 10368 29058 55104 59015;
0156827650999992006080312004-07333-047467FM-12+019399999V0201101N001512200019N0200001N1+02681+01991101961ADDGF103991031001008001001061KA1240N+02151MA1999999099561MD1999999-0161REMSYN076AAXX  03124 82765 32598 31103 10268 20199 39956 40196 83006 333 20215 59016;
0137827650999992006080318004-07333-047467FM-12+019399999V0200901N002610450019N0200001N1+03501+01861101471ADDGF106991041021008001041061MA1999999099091MD1999999-0061REMSYN070AAXX  03184 82765 32598 60905 10350 20186 39909 40147 84246 333 59006;
0168827650999992006080400004-07333-047467FM-12+019399999V0200901N000510450019N0200001N1+02881+02001101701ADDGF105991031021008001041001KA1240M+03651MA1999999099311MD1999999+0021REMSYN088AAXX  04004 82765 32598 50901 10288 20200 39931 40170 83240 333 10365 29056 55108 58002;
0156827650999992006080412004-07333-047467FM-12+019399999V0200501N002112200019N0200001N1+02681+01701101881ADDGF101991011001008001001051KA1240N+02031MA1999999099491MD1999999-0071REMSYN076AAXX  04124 82765 32598 10504 10268 20170 39949 40188 81005 333 20203 59007;
0137827650999992006080418004-07333-047467FM-12+019399999V0200901N004110450019N0200001N1+03441+01481101391ADDGF106991041021008001041001MA1999999099011MD1999999-0081REMSYN070AAXX  04184 82765 32598 60908 10344 20148 39901 40139 84240 333 59008;
0168827650999992006080500004-07333-047467FM-12+019399999V0200901N000510450019N0200001N1+02761+01691101581ADDGF105991031011008001041001KA1240M+03611MA1999999099191MD1999999-0121REMSYN088AAXX  05004 82765 32598 50901 10276 20169 39919 40158 83140 333 10361 29048 55109 59012;
0166827650999992006080512004-07333-047467FM-12+019399999V0200701N004112200019N0200001N1+02601+01511101801ADDGA1001+999999999GF100991001001999999001001KA1240N+01981MA1999999099401MD1999999-0091REMSYN070AAXX  05124 82765 32998 00708 10260 20151 39940 40180 333 20198 59009;
0137827650999992006080518004-07333-047467FM-12+019399999V0200901N003112200019N0200001N1+03501+01261101391ADDGF102991021011008001001001MA1999999099011MD1999999+0001REMSYN070AAXX  05184 82765 32598 20906 10350 20126 39901 40139 82100 333 58000;
0178827650999992006080600004-07333-047467FM-12+019399999V0200901N001012200019N0200001N1+02811+01631101591ADDGA1001+999999999GF100991001001999999001001KA1240M+03631MA1999999099201MD1999999+0011REMSYN082AAXX  06004 82765 32998 00902 10281 20163 39920 40159 333 10363 29044 55109 58001;
0166827650999992006080612004-07333-047467FM-12+019399999V0200701N005112200019N0200001N1+02521+01431101871ADDGA1001+999999999GF100991001001999999001001KA1240N+01911MA1999999099461MD1999999+0061REMSYN070AAXX  06124 82765 32998 00710 10252 20143 39946 40187 333 20191 58006;
0147827650999992006080618004-07333-047467FM-12+019399999V0200501N003112200019N0200001N1+03461+01451101391ADDGA1001+999999999GF100991001001999999001001MA1999999099011MD1999999+0001REMSYN064AAXX  06184 82765 32998 00506 10346 20145 39901 40139 333 58000;
0178827650999992006080700004-07333-047467FM-12+019399999V0200901N000512200019N0200001N1+02821+01911101551ADDGA1001+999999999GF100991001001999999001001KA1240M+03611MA1999999099161MD1999999-0041REMSYN082AAXX  07004 82765 32998 00901 10282 20191 39916 40155 333 10361 29049 55109 59004;
0166827650999992006080712004-07333-047467FM-12+019399999V0200501N003612200019N0200001N1+02541+01451101821ADDGA1001+999999999GF100991001001999999001001KA1240N+01891MA1999999099421MD1999999+0041REMSYN070AAXX  07124 82765 32998 00507 10254 20145 39942 40182 333 20189 58004;
0147827650999992006080718004-07333-047467FM-12+019399999V0200701N002112200019N0200001N1+03441+01581101401ADDGA1001+999999999GF100991001001999999001001MA1999999099011MD1999999+0001REMSYN064AAXX  07184 82765 32998 00704 10344 20158 39901 40140 333 58000;
0178827650999992006080800004-07333-047467FM-12+019399999V0200901N001012200019N0200001N1+02761+01691101591ADDGA1001+999999999GF100991001001999999001001KA1240M+03571MA1999999099191MD1999999+0031REMSYN082AAXX  08004 82765 32998 00902 10276 20169 39919 40159 333 10357 29047 55108 58003;
0166827650999992006080812004-07333-047467FM-12+019399999V0200501N003612200019N0200001N1+02561+01591101751ADDGA1001+999999999GF100991001001999999001001KA1240N+01931MA1999999099351MD1999999+0071REMSYN070AAXX  08124 82765 32998 00507 10256 20159 39935 40175 333 20193 58007;
0137827650999992006080818004-07333-047467FM-12+019399999V0200701N001012200019N0200001N1+03461+01861101261ADDGF103991031011008001001001MA1999999098881MD1999999-0131REMSYN070AAXX  08184 82765 32598 30702 10346 20186 39888 40126 83100 333 59013;
0168827650999992006080900004-07333-047467FM-12+019399999V0200501N001012200019N0200001N1+02841+01791101491ADDGF102991021011008001001001KA1240M+03591MA1999999099101MD1999999-0091REMSYN088AAXX  09004 82765 32598 20502 10284 20179 39910 40149 82100 333 10359 29050 55109 59009;
0166827650999992006080912004-07333-047467FM-12+019399999V0200501N004112200019N0200001N1+02641+01631101681ADDGA1001+999999999GF100991001001999999001001KA1240N+02271MA1999999099291MD1999999-0061REMSYN070AAXX  09124 82765 32998 00508 10264 20163 39929 40168 333 20227 59006;
0147827650999992006080918004-07333-047467FM-12+019399999V0200501N003612200019N0200001N1+03501+01581101251ADDGA1001+999999999GF100991001001999999001001MA1999999098881MD1999999+0001REMSYN064AAXX  09184 82765 32998 00507 10350 20158 39888 40125 333 58000;
0178827650999992006081000004-07333-047467FM-12+019399999V0200501N000512200019N0200001N1+02901+01931101511ADDGA1001+999999999GF100991001001999999001001KA1240M+03681MA1999999099121MD1999999+0021REMSYN082AAXX  10004 82765 32998 00501 10290 20193 39912 40151 333 10368 29050 55110 58002;
0166827650999992006081012004-07333-047467FM-12+019399999V0201101N000512200019N0200001N1+02741+01671101741ADDGA1001+999999999GF100991001001999999001001KA1240N+02051MA1999999099351MD1999999+0061REMSYN070AAXX  10124 82765 32998 01101 10274 20167 39935 40174 333 20205 58006;
0137827650999992006081018004-07333-047467FM-12+019399999V0200501N002612200019N0200001N1+03671+01821101231ADDGF103991031011008001001001MA1999999098861MD1999999-0021REMSYN070AAXX  10184 82765 32598 30505 10367 20182 39886 40123 83100 333 59002;
0168827650999992006081100004-07333-047467FM-12+019399999V0209999C000012200019N0200001N1+03031+02101101361ADDGF101991011011008001001001KA1240M+03841MA1999999098991MD1999999-0131REMSYN088AAXX  11004 82765 32598 10000 10303 20210 39899 40136 81100 333 10384 29050 55109 59013;
0166827650999992006081112004-07333-047467FM-12+019399999V0200501N004612200019N0200001N1+02801+01631101591ADDGA1001+999999999GF100991001001999999001001KA1240N+02251MA1999999099221MD1999999-0131REMSYN070AAXX  11124 82765 32998 00509 10280 20163 39922 40159 333 20225 59013;
0147827650999992006081118004-07333-047467FM-12+019399999V0200501N003112200019N0200001N1+03481+01841101191ADDGA1001+999999999GF100991001001999999001001MA1999999098821MD1999999-0041REMSYN064AAXX  11184 82765 32998 00506 10348 20184 39882 40119 333 59004;
0178827650999992006081200004-07333-047467FM-12+019399999V0200201N001512200019N0200001N1+02881+01601101441ADDGA1001+999999999GF100991001001999999001001KA1240M+03681MA1999999099061MD1999999+0071REMSYN082AAXX  12004 82765 32998 00203 10288 20160 39906 40144 333 10368 29045 55109 58007;
0166827650999992006081212004-07333-047467FM-12+019399999V0200501N005112200019N0200001N1+02661+01441101721ADDGA1001+999999999GF100991001001999999001001KA1240N+02061MA1999999099331MD1999999+0111REMSYN070AAXX  12124 82765 32998 00510 10266 20144 39933 40172 333 20206 58011;
0137827650999992006081218004-07333-047467FM-12+019399999V0200201N002612200019N0200001N1+03481+01611101331ADDGF101991011011008001001001MA1999999098951MD1999999+0131REMSYN070AAXX  12184 82765 32598 10205 10348 20161 39895 40133 81100 333 58013;
0178827650999992006081300004-07333-047467FM-12+019399999V0200501N001012200019N0200001N1+02881+01861101461ADDGA1001+999999999GF100991001001999999001001KA1240M+03651MA1999999099081MD1999999+0021REMSYN082AAXX  13004 82765 32998 00502 10288 20186 39908 40146 333 10365 29047 55109 58002;
0166827650999992006081312004-07333-047467FM-12+019399999V0200701N004612200019N0200001N1+02761+01661101751ADDGA1001+999999999GF100991001001999999001001KA1240N+02211MA1999999099361MD1999999+0031REMSYN070AAXX  13124 82765 32998 00709 10276 20166 39936 40175 333 20221 58003;
0147827650999992006081318004-07333-047467FM-12+019399999V0200501N002112200019N0200001N1+03561+01681101281ADDGA1001+999999999GF100991001001999999001001MA1999999098911MD1999999-0041REMSYN064AAXX  13184 82765 32998 00504 10356 20168 39891 40128 333 59004;
0178827650999992006081400004-07333-047467FM-12+019399999V0200501N000512200019N0200001N1+02971+01951101451ADDGA1001+999999999GF100991001001999999001001KA1240M+03751MA1999999099071MD1999999-0011REMSYN082AAXX  14004 82765 32998 00501 10297 20195 39907 40145 333 10375 29048 55110 59001;
0166827650999992006081412004-07333-047467FM-12+019399999V0200501N002112200019N0200001N1+02761+01661101691ADDGA1001+999999999GF100991001001999999001001KA1240N+02071MA1999999099311MD1999999-0051REMSYN070AAXX  14124 82765 32998 00504 10276 20166 39931 40169 333 20207 59005;
0147827650999992006081418004-07333-047467FM-12+019399999V0200901N002112200019N0200001N1+03541+01711101311ADDGA1001+999999999GF100991001001999999001001MA1999999098931MD1999999+0021REMSYN064AAXX  14184 82765 32998 00904 10354 20171 39893 40131 333 58002;
0166827650999992006081512004-07333-047467FM-12+019399999V0200901N001512200019N0200001N1+02571+01531101721ADDGA1001+999999999GF100991001001999999001001KA1240N+02021MA1999999099331MD1999999+0021REMSYN070AAXX  15124 82765 32998 00903 10257 20153 39933 40172 333 20202 58002;
0147827650999992006081518004-07333-047467FM-12+019399999V0200901N002612200019N0200001N1+03581+01441101291ADDGA1001+999999999GF100991001001999999001001MA1999999098921MD1999999-0011REMSYN064AAXX  15184 82765 32998 00905 10358 20144 39892 40129 333 59001;
0178827650999992006081600004-07333-047467FM-12+019399999V0200501N001012200019N0200001N1+02711+01801101481ADDGA1001+999999999GF100991001001999999001001KA1240M+03761MA1999999099081MD1999999+0031REMSYN082AAXX  16004 82765 32998 00502 10271 20180 39908 40148 333 10376 29049 55110 58003;
0166827650999992006081612004-07333-047467FM-12+019399999V0200501N005112200019N0200001N1+02721+01771101621ADDGA1001+999999999GF100991001001999999001001KA1240N+01911MA1999999099231MD1999999+0101REMSYN070AAXX  16124 82765 32998 00510 10272 20177 39923 40162 333 20191 58010;
0137827650999992006081618004-07333-047467FM-12+019399999V0200701N003610075019N0200001N1+03571+01821101251ADDGF106991061021008001001001MA1999999098861MD1999999-0061REMSYN070AAXX  16184 82765 32598 60707 10357 20182 39886 40125 86200 333 59006;
0178827650999992006081700004-07333-047467FM-12+019399999V0200501N001012200019N0200001N1+03001+02051101451ADDGA1001+999999999GF100991001001999999001001KA1240M+03761MA1999999099071MD1999999-0011REMSYN082AAXX  17004 82765 32998 00502 10300 20205 39907 40145 333 10376 29052 55110 59001;
0156827650999992006081712004-07333-047467FM-12+019399999V0200501N004112200019N0200001N1+02861+01781101631ADDGF102991021011008001001001KA1240N+02311MA1999999099261MD1999999+0031REMSYN076AAXX  17124 82765 32598 20508 10286 20178 39926 40163 82100 333 20231 58003;
0137827650999992006081718004-07333-047467FM-12+019399999V0200901N003112200019N0200001N1+03601+01861101231ADDGF104991041011008001001001MA1999999098871MD1999999+0011REMSYN070AAXX  17184 82765 32598 40906 10360 20186 39887 40123 84100 333 58001;
0178827650999992006081800004-07333-047467FM-12+019399999V0200901N001512200019N0200001N1+03061+01831101351ADDGA1001+999999999GF100991001001999999001001KA1240M+03831MA1999999098941MD1999999-0131REMSYN082AAXX  18004 82765 32998 00903 10306 20183 39894 40135 333 10383 29046 55103 59013;
0156827650999992006081812004-07333-047467FM-12+019399999V0200701N002612200019N0200001N1+02801+01721101641ADDGF102991021001022501031001KA1240N+02221MA1999999099271MD1999999+0011REMSYN076AAXX  18124 82765 32898 20705 10280 20172 39927 40164 82030 333 20222 58001;
0147827650999992006081818004-07333-047467FM-12+019399999V0200501N002112200019N0200001N1+03621+01591101151ADDGA1001+999999999GF100991001001999999001001MA1999999098791MD1999999-0081REMSYN064AAXX  18184 82765 32998 00504 10362 20159 39879 40115 333 59008;
0178827650999992006081900004-07333-047467FM-12+019399999V0200501N002112200019N0200001N1+02941+01821101311ADDGA1001+999999999GF100991001001999999001001KA1240M+03841MA1999999098941MD1999999+0001REMSYN082AAXX  19004 82765 32998 00504 10294 20182 39894 40131 333 10384 29046 55109 58000;
0156827650999992006081912004-07333-047467FM-12+019399999V0200201N001511050019N0200001N1+02721+01621101651ADDGF106991011011008001001091KA1240N+02031MA1999999099271MD1999999+0001REMSYN076AAXX  19124 82765 32598 60203 10272 20162 39927 40165 81109 333 20203 58000;
0137827650999992006081918004-07333-047467FM-12+019399999V0203201N000511050019N0200001N1+03701+01601101221ADDGF106991011011008001001091MA1999999098851MD1999999+0061REMSYN070AAXX  19184 82765 32598 63201 10370 20160 39885 40122 81109 333 58006;
0178827650999992006082000004-07333-047467FM-12+019399999V0203601N000512200019N0200001N1+03021+01991101371ADDGA1001+999999999GF100991001001999999001001KA1240M+03851MA1999999099001MD1999999+0061REMSYN082AAXX  20004 82765 32998 03601 10302 20199 39900 40137 333 10385 29047 55107 58006;
0156827650999992006082012004-07333-047467FM-12+019399999V0203201N000512200019N0200001N1+02821+01911101721ADDGF103991011011008001001091KA1240N+02211MA1999999099341MD1999999+0071REMSYN076AAXX  20124 82765 32598 33201 10282 20191 39934 40172 81109 333 20221 58007;
0137827650999992006082018004-07333-047467FM-12+019399999V0201101N001510450019N0200001N1+03661+01951101261ADDGF107991041021008001041091MA1999999098901MD1999999+0051REMSYN070AAXX  20184 82765 32598 71103 10366 20195 39890 40126 84249 333 58005;
0178827650999992006082100004-07333-047467FM-12+019399999V0200501N000512200019N0200001N1+03161+02141101471ADDGA1001+999999999GF100991001001999999001001KA1240M+03831MA1999999099111MD1999999+0111REMSYN082AAXX  21004 82765 32998 00501 10316 20214 39911 40147 333 10383 29051 55094 58011;
0156827650999992006082112004-07333-047467FM-12+019399999V0200201N001512200019N0200001N1+02881+02101101721ADDGF102991021001008001001091KA1240N+02311MA1999999099351MD1999999+0011REMSYN076AAXX  21124 82765 32598 20203 10288 20210 39935 40172 82009 333 20231 58001;
0137827650999992006082118004-07333-047467FM-12+019399999V0200701N001010450019N0200001N1+03681+02011101201ADDGF106991041021008001041091MA1999999098851MD1999999-0051REMSYN070AAXX  21184 82765 32598 60702 10368 20201 39885 40120 84249 333 59005;
0178827650999992006082200004-07333-047467FM-12+019399999V0209999C000012200019N0200001N1+03081+02011101311ADDGA1001+999999999GF100991001001999999001001KA1240M+03911MA1999999098951MD1999999-0161REMSYN082AAXX  22004 82765 32998 00000 10308 20201 39895 40131 333 10391 29052 55101 59016;
0156827650999992006082212004-07333-047467FM-12+019399999V0203201N003619999999N0200001N1+03001+02141101651ADDGF106991021001012501041091KA1240N+02591MA1999999099291MD1999999-0061REMSYN076AAXX  22124 82765 32698 63207 10300 20214 39929 40165 82049 333 20259 59006;
0137827650999992006082218004-07333-047467FM-12+019399999V0203401N004110450019N0200001N1+03421+02161101311ADDGF106991041021008001041091MA1999999098951MD1999999+0101REMSYN070AAXX  22184 82765 32598 63408 10342 20216 39895 40131 84249 333 58010;
0168827650999992006082300004-07333-047467FM-12+019399999V0201801N001510075019N0200001N1+02721+02051101541ADDGF107991051021008001001091KA1240M+03551MA1999999099161MD1999999+0211REMSYN088AAXX  23004 82765 32598 71803 10272 20205 39916 40154 85209 333 10355 29060 55084 58021;
0156827650999992006082312004-07333-047467FM-12+019399999V0203601N002110075019N0200001N1+02661+02071101861ADDGF107991051021008001041091KA1240N+02291MA1999999099461MD1999999+0171REMSYN076AAXX  23124 82765 32598 73604 10266 20207 39946 40186 85249 333 20229 58017;
0137827650999992006082318004-07333-047467FM-12+019399999V0200501N003110450019N0200001N1+03561+01781101321ADDGF106991041011008001041061MA1999999098951MD1999999+0001REMSYN070AAXX  23184 82765 32598 60506 10356 20178 39895 40132 84146 333 58000;
0178827650999992006082400004-07333-047467FM-12+019399999V0201801N003112200019N0200001N1+02831+02121101501ADDGA1001+999999999GF100991001001999999001001KA1240M+03731MA1999999099111MD1999999-0051REMSYN082AAXX  24004 82765 32998 01806 10283 20212 39911 40150 333 10373 29059 55094 59005;
0166827650999992006082412004-07333-047467FM-12+019399999V0200501N002612200019N0200001N1+02801+02001101791ADDGA1001+999999999GF100991001001999999001001KA1240N+02171MA1999999099401MD1999999-0061REMSYN070AAXX  24124 82765 32998 00505 10280 20200 39940 40179 333 20217 59006;
0137827650999992006082418004-07333-047467FM-12+019399999V0200501N003110075019N0200001N1+03641+01801101301ADDGF106991051021008001041001MA1999999098931MD1999999-0021REMSYN070AAXX  24184 82765 32598 60506 10364 20180 39893 40130 85240 333 59002;
0168827650999992006082500004-07333-047467FM-12+019399999V0200501N002112200019N0200001N1+03041+01781101401ADDGF104991031011008001041001KA1240M+03811MA1999999099031MD1999999-0081REMSYN088AAXX  25004 82765 32598 40504 10304 20178 39903 40140 83140 333 10381 29047 55103 59008;
0166827650999992006082512004-07333-047467FM-12+019399999V0200501N005112200019N0200001N1+02841+01531101691ADDGA1001+999999999GF100991001001999999001001KA1240N+02191MA1999999099321MD1999999-0081REMSYN070AAXX  25124 82765 32998 00510 10284 20153 39932 40169 333 20219 59008;
0137827650999992006082518004-07333-047467FM-12+019399999V0200201N001512200019N0200001N1+03641+01601101191ADDGF102991021011008001001001MA1999999098831MD1999999-0101REMSYN070AAXX  25184 82765 32598 20203 10364 20160 39883 40119 82100 333 59010;
0178827650999992006082600004-07333-047467FM-12+019399999V0200501N001012200019N0200001N1+02901+01751101391ADDGA1001+999999999GF100991001001999999001001KA1240M+03791MA1999999099021MD1999999-0011REMSYN082AAXX  26004 82765 32998 00502 10290 20175 39902 40139 333 10379 29044 55109 59001;
0166827650999992006082612004-07333-047467FM-12+019399999V0200501N011312200019N0200001N1+02791+01551101571ADDGA1001+999999999GF100991001001999999001001KA1240N+02121MA1999999099191MD1999999-0131REMSYN070AAXX  26124 82765 32998 00522 10279 20155 39919 40157 333 20212 59013;
0137827650999992006082618004-07333-047467FM-12+019399999V0200501N001012200019N0200001N1+03581+01701101181ADDGF102991021011008001001001MA1999999098811MD1999999-0021REMSYN070AAXX  26184 82765 32598 20502 10358 20170 39881 40118 82100 333 59002;
0156827650999992006082712004-07333-047467FM-12+019399999V0200501N002612200019N0200001N1+02921+01671101611ADDGF102991001001999999001041KA1240N+02271MA1999999099241MD1999999+0051REMSYN076AAXX  27124 82765 32998 20505 10292 20167 39924 40161 80004 333 20227 58005;
0156827650999992006082718004-07333-047467FM-12+019399999V0200701N001512200019N0200001N1+03691+01471101121ADDGF102991999011008001001001MA1999999098771MD1999999-0041REMSYN070AAXX  27184 82765 32598 20703 10369 20147 39877 40112 81100 333 59004;EQDQ01+000012SCOTLC
0156827650999992006082812004-07333-047467FM-12+019399999V0201401N001012200019N0200001N1+02881+01671101541ADDGF101991001001999999001051KA1240N+02211MA1999999099171MD1999999-0071REMSYN076AAXX  28124 82765 32998 11402 10288 20167 39917 40154 80005 333 20221 59007;
0137827650999992006082818004-07333-047467FM-12+019399999V0200901N002112200019N0200001N1+03881+01521101131ADDGF103991031011012501001001MA1999999098781MD1999999+0011REMSYN070AAXX  28184 82765 32698 30904 10388 20152 39878 40113 83100 333 58001;
0178827650999992006082900004-07333-047467FM-12+019399999V0203601N000512200019N0200001N1+03021+01861101311ADDGA1001+999999999GF100991001001999999001001KA1240M+03971MA1999999098951MD1999999+0041REMSYN082AAXX  29004 82765 32998 03601 10302 20186 39895 40131 333 10397 29043 55106 58004;
0166827650999992006082912004-07333-047467FM-12+019399999V0202701N000512200019N0200001N1+02741+01731101591ADDGA1001+999999999GF100991001001999999001001KA1240N+02131MA1999999099221MD1999999+0051REMSYN070AAXX  29124 82765 32998 02701 10274 20173 39922 40159 333 20213 58005;
0137827650999992006082918004-07333-047467FM-12+019399999V0200501N001512200019N0200001N1+03801+01631101081ADDGF103991031011012501001001MA1999999098731MD1999999-0051REMSYN070AAXX  29184 82765 32698 30503 10380 20163 39873 40108 83100 333 59005;
0178827650999992006083000004-07333-047467FM-12+019399999V0200901N002612200019N0200001N1+03101+02061101291ADDGA1001+999999999GF100991001001999999001001KA1240M+04011MA1999999098921MD1999999-0031REMSYN082AAXX  30004 82765 32998 00905 10310 20206 39892 40129 333 10401 29048 55103 59003;
0166827650999992006083012004-07333-047467FM-12+019399999V0203601N002612200019N0200001N1+02921+01831101601ADDGA1001+999999999GF100991001001999999001001KA1240N+02331MA1999999099241MD1999999+0021REMSYN070AAXX  30124 82765 32998 03605 10292 20183 39924 40160 333 20233 58002;
0137827650999992006083018004-07333-047467FM-12+019399999V0203601N002612200019N0200001N1+03461+01981101271ADDGF103991031011008001001001MA1999999098901MD1999999+0171REMSYN070AAXX  30184 82765 32598 33605 10346 20198 39890 40127 83100 333 58017;
0178827650999992006083100004-07333-047467FM-12+019399999V0203201N000512200019N0200001N1+03001+02141101471ADDGA1001+999999999GF100991001001999999001001KA1240M+03571MA1999999099101MD1999999+0181REMSYN082AAXX  31004 82765 32998 03201 10300 20214 39910 40147 333 10357 29054 55106 58018;
0156827650999992006083112004-07333-047467FM-12+019399999V0200201N002110075019N0200001N1+02871+01951101771ADDGF106991051021008001041001KA1240N+02421MA1999999099401MD1999999+0161REMSYN076AAXX  31124 82765 32598 60204 10287 20195 39940 40177 85240 333 20242 58016;
0137827650999992006083118004-07333-047467FM-12+019399999V0200201N003110450019N0200001N1+03541+01801101261ADDGF106991041021008001041001MA1999999098901MD1999999+0001REMSYN070AAXX  31184 82765 32598 60206 10354 20180 39890 40126 84240 333 58000;
0178827650999992006090100004-07333-047467FM-12+019399999V0203601N001012200019N0200001N1+03001+01811101441ADDGA1001+999999999GF100991001001999999001001KA1240M+03751MA1999999099071MD1999999-0031REMSYN082AAXX  01004 82765 32998 03602 10300 20181 39907 40144 333 10375 29048 55081 59003;
0166827650999992006090112004-07333-047467FM-12+019399999V0203601N001512200019N0200001N1+02861+02111101641ADDGA1001+999999999GF100991001001999999001001KA1240N+02411MA1999999099271MD1999999-0131REMSYN070AAXX  01124 82765 32998 03603 10286 20211 39927 40164 333 20241 59013;
0137827650999992006090118004-07333-047467FM-12+019399999V0201401N001510075019N0200001N1+03761+01761101041ADDGF105991051011008001001001MA1999999098701MD1999999-0201REMSYN070AAXX  01184 82765 32598 51403 10376 20176 39870 40104 85100 333 59020;
0178827650999992006090200004-07333-047467FM-12+019399999V0200201N001512200019N0200001N1+03081+01781101191ADDGA1001+999999999GF100991001001999999001001KA1240M+03911MA1999999098831MD1999999-0241REMSYN082AAXX  02004 82765 32998 00203 10308 20178 39883 40119 333 10391 29047 55100 59024;
0156827650999992006090212004-07333-047467FM-12+019399999V0203201N001512200019N0200001N1+02981+02011101471ADDGF101991011011008001001001KA1240N+02411MA1999999099111MD1999999-0161REMSYN076AAXX  02124 82765 32598 13203 10298 20201 39911 40147 81100 333 20241 59016;
0137827650999992006090218004-07333-047467FM-12+019399999V0202701N001510450019N0200001N1+03681+02011100911ADDGF105991041021008001041001MA1999999098571MD1999999-0131REMSYN070AAXX  02184 82765 32598 52703 10368 20201 39857 40091 84240 333 59013;
0178827650999992006090300004-07333-047467FM-12+019399999V0209999C000012200019N0200001N1+03081+02191101091ADDGA1001+999999999GF100991001001999999001001KA1240M+03871MA1999999098741MD1999999-0091REMSYN082AAXX  03004 82765 32998 00000 10308 20219 39874 40109 333 10387 29053 55098 59009;
0166827650999992006090312004-07333-047467FM-12+019399999V0202701N002112200019N0200001N1+02881+02051101391ADDGA1001+999999999GF100991001001999999001001KA1240N+02371MA1999999099031MD1999999-0081REMSYN070AAXX  03124 82765 32998 02704 10288 20205 39903 40139 333 20237 59008;
0137827650999992006090318004-07333-047467FM-12+019399999V0202301N000510450019N0200001N1+03721+01821100901ADDGF105991031011008001041001MA1999999098561MD1999999-0011REMSYN070AAXX  03184 82765 32598 52301 10372 20182 39856 40090 83140 333 59001;
0168827650999992006090400004-07333-047467FM-12+019399999V0200501N002610450019N0200001N1+03201+01961101131ADDGF106991041021008001041001KA1240M+04011MA1999999098881MD1999999+0141REMSYN088AAXX  04004 82765 32598 60505 10320 20196 39888 40113 84240 333 10401 29047 55098 58014;
0156827650999992006090412004-07333-047467FM-12+019399999V0202701N001510450019N0200001N1+02911+02121101511ADDGF106991031011008001041001KA1240N+02521MA1999999099151MD1999999+0121REMSYN076AAXX  04124 82765 32598 62703 10291 20212 39915 40151 83140 333 20252 58012;
0137827650999992006090418004-07333-047467FM-12+019399999V0203601N001510450019N0200001N1+03661+02001101101ADDGF106991041011008001041001MA1999999098771MD1999999+0211REMSYN070AAXX  04184 82765 32598 63603 10366 20200 39877 40110 84140 333 58021;
0168827650999992006090500004-07333-047467FM-12+019399999V0209999C000010120019N0200001N1+03121+02251101481ADDGF107991051081008001041001KA1240M+03821MA1999999099121MD1999999+0241REMSYN088AAXX  05004 82765 32598 70000 10312 20225 39912 40148 85840 333 10382 29060 55083 58024;
0156827650999992006090512004-07333-047467FM-12+019399999V0202301N001510120019N0200001N1+02781+02211101761ADDGF108991051081008001021999KA1240N+02491MA1999999099391MD1999999+0241REMSYN076AAXX  05124 82765 32598 82303 10278 20221 39939 40176 8582/ 333 20249 58024;
0137827650999992006090518004-07333-047467FM-12+019399999V0203601N002610450019N0200001N1+03441+02141101311ADDGF107991031021008001011041MA1999999098951MD1999999+0181REMSYN070AAXX  05184 82765 32598 73605 10344 20214 39895 40131 83214 333 58018;
0168827650999992006090600004-07333-047467FM-12+019399999V0203501N000510450019N0200001N1+03011+02241101551ADDGF105991031011008001011041KA1240M+03601MA1999999099181MD1999999+0061REMSYN088AAXX  06004 82765 32598 53501 10301 20224 39918 40155 83114 333 10360 29062 55040 58006;
0156827650999992006090612004-07333-047467FM-12+019399999V0203201N001010450019N0200001N1+02781+02131101751ADDGF106991031021008001041041KA1240N+02441MA1999999099371MD1999999-0021REMSYN076AAXX  06124 82765 32598 63202 10278 20213 39937 40175 83244 333 20244 59002;
0182827650999992006090618004-07333-047467FM-12+019399999V0202501N000510450019N0200001N1+02421+02211101581ADDAA106021191AY161061AY221061GF108991041081008001011999MA1999999099161MD1999999+0211MW1021REMSYN082AAXX  06184 82765 21598 82501 10242 20221 39916 40158 70262 8481/ 333 58021 60211;
0168827650999992006090700004-07333-047467FM-12+019399999V0209999C000010450019N0200001N1+02371+02281101701ADDGF107991041011008001031001KA1240M+03051MA1999999099291MD1999999+0111REMSYN088AAXX  07004 82765 32598 70000 10237 20228 39929 40170 84130 333 10305 29086 55010 58011;
0173827650999992006090712004-07333-047467FM-12+019399999V0200501N002612200019N0200001N1+02701+02241101831ADDAA124021191GF103991011021008001041041KA1240N+02241MA1999999099421MD1999999+0051REMSYN082AAXX  07124 82765 22598 30505 10270 20224 39942 40183 81244 333 20224 58005 60214;
0137827650999992006090718004-07333-047467FM-12+019399999V0200201N003112200019N0200001N1+03461+01861101281ADDGF104991031021008001011001MA1999999098911MD1999999-0251REMSYN070AAXX  07184 82765 32598 40206 10346 20186 39891 40128 83210 333 59025;
0168827650999992006090800004-07333-047467FM-12+019399999V0209999C000012200019N0200001N1+02821+02151101461ADDGF103991011011008001041041KA1240M+03621MA1999999099071MD1999999-0221REMSYN088AAXX  08004 82765 32598 30000 10282 20215 39907 40146 81144 333 10362 29062 55112 59022;
0156827650999992006090812004-07333-047467FM-12+019399999V0200501N005112200019N0200001N1+02911+01771101811ADDGF103991021011008001041001KA1240N+02391MA1999999099431MD1999999+0011REMSYN076AAXX  08124 82765 32598 30510 10291 20177 39943 40181 82140 333 20239 58001;
0137827650999992006090818004-07333-047467FM-12+019399999V0200501N004110450019N0200001N1+03521+01601101281ADDGF106991041011008001041001MA1999999098921MD1999999+0011REMSYN070AAXX  08184 82765 32598 60508 10352 20160 39892 40128 84140 333 58001;
0156827650999992006090912004-07333-047467FM-12+019399999V0200201N005112200019N0200001N1+02961+01711101691ADDGF103991011011008001031001KA1240N+02491MA1999999099321MD1999999-0111REMSYN076AAXX  09124 82765 32598 30210 10296 20171 39932 40169 81130 333 20249 59011;
0137827650999992006090918004-07333-047467FM-12+019399999V0200501N002110075019N0200001N1+03471+01731101281ADDGF106991051021008001041001MA1999999098921MD1999999+0001REMSYN070AAXX  09184 82765 32598 60504 10347 20173 39892 40128 85240 333 58000;
0168827650999992006091000004-07333-047467FM-12+019399999V0200201N001512200019N0200001N1+02901+01841101471ADDGF102991021001008001001091KA1240M+03671MA1999999099101MD1999999-0031REMSYN088AAXX  10004 82765 32598 20203 10290 20184 39910 40147 82009 333 10367 29047 55110 59003;
0156827650999992006091012004-07333-047467FM-12+019399999V0200201N002112200019N0200001N1+02871+01751101801ADDGF102991021001008001001061KA1240N+02291MA1999999099421MD1999999+0101REMSYN076AAXX  10124 82765 32598 20204 10287 20175 39942 40180 82006 333 20229 58010;
0137827650999992006091018004-07333-047467FM-12+019399999V0200501N004110450019N0200001N1+03581+01551101391ADDGF106991031021008001041061MA1999999099031MD1999999+0111REMSYN070AAXX  10184 82765 32598 60508 10358 20155 39903 40139 83246 333 58011;
0178827650999992006091100004-07333-047467FM-12+019399999V0200501N001012200019N0200001N1+02961+01991101521ADDGA1001+999999999GF100991001001999999001001KA1240M+03791MA1999999099151MD1999999+0051REMSYN082AAXX  11004 82765 32998 00502 10296 20199 39915 40152 333 10379 29048 55112 58005;
0166827650999992006091112004-07333-047467FM-12+019399999V0200501N004612200019N0200001N1+02921+01741101611ADDGA1001+999999999GF100991001001999999001001KA1240N+02301MA1999999099241MD1999999-0181REMSYN070AAXX  11124 82765 32998 00509 10292 20174 39924 40161 333 20230 59018;
0137827650999992006091118004-07333-047467FM-12+019399999V0200501N005110450019N0200001N1+03721+01771101181ADDGF106991041021008001041001MA1999999098831MD1999999-0201REMSYN070AAXX  11184 82765 32598 60510 10372 20177 39883 40118 84240 333 59020;
0178827650999992006091200004-07333-047467FM-12+019399999V0200701N001512200019N0200001N1+03091+01681101401ADDGA1001+999999999GF100991001001999999001001KA1240M+03911MA1999999099041MD1999999-0111REMSYN082AAXX  12004 82765 32998 00703 10309 20168 39904 40140 333 10391 29042 55113 59011;
0166827650999992006091212004-07333-047467FM-12+019399999V0200501N005712200019N0200001N1+03001+01781101631ADDGA1001+999999999GF100991001001999999001001KA1240N+02351MA1999999099271MD1999999+0031REMSYN070AAXX  12124 82765 32998 00511 10300 20178 39927 40163 333 20235 58003;
0137827650999992006091218004-07333-047467FM-12+019399999V0200501N001510450019N0200001N1+03661+01621101181ADDGF106991041011008001041001MA1999999098831MD1999999+0001REMSYN070AAXX  12184 82765 32598 60503 10366 20162 39883 40118 84140 333 58000;
0178827650999992006091300004-07333-047467FM-12+019399999V0209999C000012200019N0200001N1+03081+02041101291ADDGA1001+999999999GF100991001001999999001001KA1240M+03851MA1999999098941MD1999999-0101REMSYN082AAXX  13004 82765 32998 00000 10308 20204 39894 40129 333 10385 29046 55113 59010;
0166827650999992006091312004-07333-047467FM-12+019399999V0203601N002612200019N0200001N1+03021+01621101661ADDGA1001+999999999GF100991001001999999001001KA1240N+02301MA1999999099291MD1999999+0021REMSYN070AAXX  13124 82765 32998 03605 10302 20162 39929 40166 333 20230 58002;
0137827650999992006091318004-07333-047467FM-12+019399999V0203601N001512200019N0200001N1+03701+01711101221ADDGF104991041021008001001001MA1999999098861MD1999999+0031REMSYN070AAXX  13184 82765 32598 43603 10370 20171 39886 40122 84200 333 58003;
0178827650999992006091400004-07333-047467FM-12+019399999V0209999C000012200019N0200001N1+03041+01971101291ADDGA1001+999999999GF100991001001999999001001KA1240M+03871MA1999999098941MD1999999+0001REMSYN082AAXX  14004 82765 32998 00000 10304 20197 39894 40129 333 10387 29045 55109 58000;
0156827650999992006091412004-07333-047467FM-12+019399999V0200501N001512200019N0200001N1+02961+01811101651ADDGF102991021001022501011001KA1240N+02201MA1999999099281MD1999999-0011REMSYN076AAXX  14124 82765 32898 20503 10296 20181 39928 40165 82010 333 20220 59001;
0137827650999992006091418004-07333-047467FM-12+019399999V0200201N001512200019N0200001N1+03721+01511101151ADDGF103991031011008001001001MA1999999098801MD1999999-0061REMSYN070AAXX  14184 82765 32598 30203 10372 20151 39880 40115 83100 333 59006;
0178827650999992006091500004-07333-047467FM-12+019399999V0209999C000012200019N0200001N1+03101+02181101291ADDGA1001+999999999GF100991001001999999001001KA1240M+03931MA1999999098941MD1999999+0001REMSYN082AAXX  15004 82765 32998 00000 10310 20218 39894 40129 333 10393 29048 55111 58000;
0194827650999992006091512004-07333-047467FM-12+019399999V0209999C000012200019N0040001N1+02971+01871101671ADDAY141061AY241061GA1001+999999999GF100991001001999999001001KA1240N+02231MA1999999099311MD1999999+0031MW1051REMSYN076AAXX  15124 82765 31996 00000 10297 20187 39931 40167 70544 333 20223 58003;
0137827650999992006091518004-07333-047467FM-12+019399999V0200501N001010075019N0200001N1+03621+01741101231ADDGF105991051021008001001001MA1999999098861MD1999999+0061REMSYN070AAXX  15184 82765 32598 50502 10362 20174 39886 40123 85200 333 58006;
0178827650999992006091600004-07333-047467FM-12+019399999V0209999C000012200019N0200001N1+02991+01861101381ADDGA1001+999999999GF100991001001999999001001KA1240M+03811MA1999999099021MD1999999+0081REMSYN082AAXX  16004 82765 32998 00000 10299 20186 39902 40138 333 10381 29047 55100 58008;
0156827650999992006091612004-07333-047467FM-12+019399999V0203601N000512200019N0200001N1+03021+01861101521ADDGF102991021011008001001001KA1240N+02291MA1999999099161MD1999999+0151REMSYN076AAXX  16124 82765 32598 23601 10302 20186 39916 40152 82100 333 20229 58015;
0137827650999992006091618004-07333-047467FM-12+019399999V0200501N001512200019N0200001N1+03661+01571101061ADDGF105991021011008001041091MA1999999098711MD1999999+0151REMSYN070AAXX  16184 82765 32598 50503 10366 20157 39871 40106 82149 333 58015;
0178827650999992006091700004-07333-047467FM-12+019399999V0200201N001512200019N0200001N1+03091+01781101221ADDGA1001+999999999GF100991001001999999001001KA1240M+03821MA1999999098871MD1999999-0151REMSYN082AAXX  17004 82765 32998 00203 10309 20178 39887 40122 333 10382 29043 55099 59015;
0156827650999992006091712004-07333-047467FM-12+019399999V0203601N003110450019N0200001N1+02981+01891101601ADDGF107991041021008001041091KA1240N+02371MA1999999099241MD1999999+0081REMSYN076AAXX  17124 82765 32598 73606 10298 20189 39924 40160 84249 333 20237 58008;
0137827650999992006091718004-07333-047467FM-12+019399999V0200501N002110450019N0200001N1+03541+02011101271ADDGF107991041021008001041091MA1999999098911MD1999999+0201REMSYN070AAXX  17184 82765 32598 70504 10354 20201 39891 40127 84249 333 58020;
0178827650999992006091800004-07333-047467FM-12+019399999V0200501N000512200019N0200001N1+03021+02131101411ADDGA1001+999999999GF100991001001999999001001KA1240M+03651MA1999999099051MD1999999+0181REMSYN082AAXX  18004 82765 32998 00501 10302 20213 39905 40141 333 10365 29053 55078 58018;
0137827650999992006091818004-07333-047467FM-12+019399999V0203601N003112200019N0200001N1+03781+01921101111ADDGF104991041021008001001001MA1999999098771MD1999999-0141REMSYN070AAXX  18184 82765 32598 43606 10378 20192 39877 40111 84200 333 59014;
0178827650999992006091900004-07333-047467FM-12+019399999V0203601N000512200019N0200001N1+03261+02081101291ADDGA1001+999999999GF100991001001999999001001KA1240M+03911MA1999999098951MD1999999-0101REMSYN082AAXX  19004 82765 32998 03601 10326 20208 39895 40129 333 10391 29047 55109 59010;
0156827650999992006091912004-07333-047467FM-12+019399999V0203201N003110120019N0200001N1+03001+02111101641ADDGF107991051081008001041001KA1240N+02531MA1999999099291MD1999999-0051REMSYN076AAXX  19124 82765 32598 73206 10300 20211 39929 40164 85840 333 20253 59005;
0137827650999992006091918004-07333-047467FM-12+019399999V0203601N002610120019N0200001N1+03261+02151101261ADDGF107991051081008001041001MA1999999098921MD1999999+0151REMSYN070AAXX  19184 82765 32598 73605 10326 20215 39892 40126 85840 333 58015;
0168827650999992006092000004-07333-047467FM-12+019399999V0209999C000010120019N0200001N1+02941+02211101471ADDGF107991061081008001041001KA1240M+03411MA1999999099111MD1999999+0161REMSYN088AAXX  20004 82765 32598 70000 10294 20221 39911 40147 86840 333 10341 29060 55061 58016;
0156827650999992006092012004-07333-047467FM-12+019399999V0203601N003110450019N0200001N1+02891+02161101681ADDGF106991041011008001031001KA1240N+02591MA1999999099301MD1999999+0011REMSYN076AAXX  20124 82765 32598 63606 10289 20216 39930 40168 84130 333 20259 58001;
0137827650999992006092018004-07333-047467FM-12+019399999V0203601N001510075019N0200001N1+03311+02121101211ADDGF108991051021008001021999MA1999999098851MD1999999-0071REMSYN070AAXX  20184 82765 32598 83603 10331 20212 39885 40121 8522/ 333 59007;
0168827650999992006092100004-07333-047467FM-12+019399999V0203601N001010450019N0200001N1+02471+02111102562ADDGF108991041081008001021999KA1240M+03451MA1999999099171MD1999999+0061REMSYN088AAXX  21004 82765 32598 83602 10247 20211 39917 40256 8482/ 333 10345 29069 55047 58006;
0156827650999992006092112004-07333-047467FM-12+019399999V0201101N000510450019N0200001N1+02531+02131101821ADDGF108991041081008001021999KA1240N+02281MA1999999099401MD1999999+0101REMSYN076AAXX  21124 82765 32598 81101 10253 20213 39940 40182 8482/ 333 20228 58010;
0182827650999992006092118004-07333-047467FM-12+019399999V0200501N003110042019N0020001N1+02231+02101101751ADDAA106029091AY161061AY221061GF108991081071004501999999MA1999999099301MD1999999+0451MW1611REMSYN082AAXX  21184 82765 21495 80506 10223 20210 39930 40175 76162 887// 333 58045 60291;
0213827650999992006092200004-07333-047467FM-12+019399999V0209999C000010120019N0200001N1+02221+02141101761ADDAA106005191AY161061AY221061GF108991051081008001021999KA1240M+03371MA1999999099331MD1999999+0161MW1021REMSYN100AAXX  22004 82765 21598 80000 10222 20214 39933 40176 70262 8582/ 333 10337 29090 55035 58016 60051;
0173827650999992006092212004-07333-047467FM-12+019399999V0200201N001512200019N0200001N1+02431+02191101861ADDAA124034091GF104991041011008001001001KA1240N+02231MA1999999099421MD1999999+0021REMSYN082AAXX  22124 82765 22598 40203 10243 20219 39942 40186 84100 333 20223 58002 60344;
0137827650999992006092218004-07333-047467FM-12+019399999V0201801N000512200019N0200001N1+03481+02041101261ADDGF104991041011008001001001MA1999999098881MD1999999-0421REMSYN070AAXX  22184 82765 32598 41801 10348 20204 39888 40126 84100 333 59042;
0178827650999992006092300004-07333-047467FM-12+019399999V0200501N000512200019N0200001N1+02941+02431101401ADDGA1001+999999999GF100991001001999999001001KA1240M+03671MA1999999099011MD1999999-0321REMSYN082AAXX  23004 82765 32998 00501 10294 20243 39901 40140 333 10367 29070 55092 59032;
0156827650999992006092312004-07333-047467FM-12+019399999V0200501N002112200019N0200001N1+02901+02041101591ADDGF102991021011008001001001KA1240N+02411MA1999999099231MD1999999-0191REMSYN076AAXX  23124 82765 32598 20504 10290 20204 39923 40159 82100 333 20241 59019;
0137827650999992006092318004-07333-047467FM-12+019399999V0200201N001510075019N0200001N1+03641+01941101131ADDGF106991051021008001041001MA1999999098781MD1999999+0101REMSYN070AAXX  23184 82765 32598 60203 10364 20194 39878 40113 85240 333 58010;
0178827650999992006092400004-07333-047467FM-12+019399999V0200201N001012200019N0200001N1+03041+02281101261ADDGA1001+999999999GF100991001001999999001001KA1240M+03791MA1999999098901MD1999999-0111REMSYN082AAXX  24004 82765 32998 00202 10304 20228 39890 40126 333 10379 29056 55106 59011;
0166827650999992006092412004-07333-047467FM-12+019399999V0200501N001512200019N0200001N1+02861+02061101621ADDGA1001+999999999GF100991001001999999001001KA1240N+02411MA1999999099251MD1999999+0021REMSYN070AAXX  24124 82765 32998 00503 10286 20206 39925 40162 333 20241 58002;
0137827650999992006092418004-07333-047467FM-12+019399999V0200201N001510450019N0200001N1+03461+02161101191ADDGF105991041021008001041001MA1999999098831MD1999999+0051REMSYN070AAXX  24184 82765 32598 50203 10346 20216 39883 40119 84240 333 58005;
0178827650999992006092500004-07333-047467FM-12+019399999V0209999C000012200019N0200001N1+03101+02581101411ADDGA1001+999999999GF100991001001999999001001KA1240M+03611MA1999999099051MD1999999+0151REMSYN082AAXX  25004 82765 32998 00000 10310 20258 39905 40141 333 10361 29064 55109 58015;
0156827650999992006092512004-07333-047467FM-12+019399999V0202701N000510450019N0200001N1+02821+02151101841ADDGF106991021011008001041091KA1240N+02451MA1999999099461MD1999999+0211REMSYN076AAXX  25124 82765 32598 62701 10282 20215 39946 40184 82149 333 20245 58021;
0137827650999992006092518004-07333-047467FM-12+019399999V0200901N002110450019N0200001N1+03541+02131101331ADDGF106991041021008001041001MA1999999098981MD1999999+0151REMSYN070AAXX  25184 82765 32598 60904 10354 20213 39898 40133 84240 333 58015;
0178827650999992006092600004-07333-047467FM-12+019399999V0209999C000012200019N0200001N1+03101+02511101461ADDGA1001+999999999GF100991001001999999001001KA1240M+03671MA1999999099091MD1999999+0041REMSYN082AAXX  26004 82765 32998 00000 10310 20251 39909 40146 333 10367 29063 55091 58004;
0184827650999992006092612004-07333-047467FM-12+019399999V0209999C000012200019N0040001N1+02921+02321101651ADDAY141061AY221061GF104991041021008001001001KA1240N+02501MA1999999099281MD1999999-0201MW1051REMSYN082AAXX  26124 82765 31596 40000 10292 20232 39928 40165 70542 84200 333 20250 59020;
0165827650999992006092618004-07333-047467FM-12+019399999V0202301N001510075019N0040001N1+03481+02221101131ADDAY141061AY241061GF105991051031008001001001MA1999999098771MD1999999-0211MW1051REMSYN076AAXX  26184 82765 31596 52303 10348 20222 39877 40113 70544 85300 333 59021;
0178827650999992006092700004-07333-047467FM-12+019399999V0201801N001512200019N0200001N1+02851+02171101441ADDGA1001+999999999GF100991001001999999001001KA1240M+03741MA1999999099071MD1999999-0021REMSYN082AAXX  27004 82765 32998 01803 10285 20217 39907 40144 333 10374 29063 55082 59002;
0156827650999992006092712004-07333-047467FM-12+019399999V0203601N003110042019N0200001N1+02761+02231101771ADDGF108991081071004501999999KA1240N+02541MA1999999099381MD1999999+0101REMSYN076AAXX  27124 82765 32498 83606 10276 20223 39938 40177 887// 333 20254 58010;
0178827650999992006092800004-07333-047467FM-12+019399999V0201801N000512200019N0200001N1+02601+02351101481ADDGA1001+999999999GF100991001001999999001001KA1240M+03341MA1999999099091MD1999999+0021REMSYN082AAXX  28004 82765 32998 01801 10260 20235 39909 40148 333 10334 29076 55043 58002;
0173827650999992006092812004-07333-047467FM-12+019399999V0200201N002612200019N0200001N1+02781+02231101781ADDAA124001091GF102991021011008001001001KA1240N+02231MA1999999099381MD1999999+0001REMSYN082AAXX  28124 82765 22598 20205 10278 20223 39938 40178 82100 333 20223 58000 60014;
0137827650999992006092818004-07333-047467FM-12+019399999V0200201N001512200019N0200001N1+03531+01871101191ADDGF104991031011008001041001MA1999999098821MD1999999-0191REMSYN070AAXX  28184 82765 32598 40203 10353 20187 39882 40119 83140 333 59019;
0166827650999992006092912004-07333-047467FM-12+019399999V0200501N000512200019N0200001N1+02901+01931101651ADDGA1001+999999999GF100991001001999999001001KA1240N+02231MA1999999099281MD1999999-0101REMSYN070AAXX  29124 82765 32998 00501 10290 20193 39928 40165 333 20223 59010;
0137827650999992006092918004-07333-047467FM-12+019399999V0200501N001510450019N0200001N1+03691+01881101141ADDGF105991041021008001041001MA1999999098781MD1999999-0041REMSYN070AAXX  29184 82765 32598 50503 10369 20188 39878 40114 84240 333 59004;
0178827650999992006093000004-07333-047467FM-12+019399999V0209999C000012200019N0200001N1+03111+02151101261ADDGA1001+999999999GF100991001001999999001001KA1240M+03111MA1999999098911MD1999999-0041REMSYN082AAXX  30004 82765 32998 00000 10311 20215 39891 40126 333 10311 29051 55101 59004;
0156827650999992006093012004-07333-047467FM-12+019399999V0200501N001012200019N0200001N1+03001+01941101631ADDGF102991021011008001001001KA1240N+02391MA1999999099271MD1999999-0011REMSYN076AAXX  30124 82765 32598 20502 10300 20194 39927 40163 82100 333 20239 59001;
0137827650999992006093018004-07333-047467FM-12+019399999V0200501N001510075019N0200001N1+03661+02001101191ADDGF106991051021008001041001MA1999999098841MD1999999+0061REMSYN070AAXX  30184 82765 32598 60503 10366 20200 39884 40119 85240 333 58006;
0196827650999992006100100004-07333-047467FM-12+019399999V0209999C000012200019N0200001N1+02761+02071101391ADDAY121061AY291061GF102991021011008001001001KA1240M+03831MA1999999099021MD1999999+0111MW1001REMSYN094AAXX  01004 82765 31598 20000 10276 20207 39902 40139 70029 82100 333 10383 29056 55095 58011;
0184827650999992006100112004-07333-047467FM-12+019399999V0203601N003112200019N0040001N1+02881+02031101681ADDAY111061AY211061GF102991021011008001001001KA1240N+02361MA1999999099291MD1999999+0021MW1051REMSYN082AAXX  01124 82765 31596 23606 10288 20203 39929 40168 70511 82100 333 20236 58002;
0178827650999992006100200004-07333-047467FM-12+019399999V0200201N001512200019N0200001N1+03061+02301101291ADDGA1001+999999999GF100991001001999999001001KA1240M+03751MA1999999098931MD1999999-0091REMSYN082AAXX  02004 82765 32998 00203 10306 20230 39893 40129 333 10375 29056 55110 59009;
0156827650999992006100212004-07333-047467FM-12+019399999V0200201N003112200019N0200001N1+02941+02051101611ADDGF103991021011012501041001KA1240N+02451MA1999999099251MD1999999-0041REMSYN076AAXX  02124 82765 32698 30206 10294 20205 39925 40161 82140 333 20245 59004;
0137827650999992006100218004-07333-047467FM-12+019399999V0203601N001510450019N0200001N1+03641+01981100991ADDGF105991031021008001011001MA1999999098651MD1999999-0131REMSYN070AAXX  02184 82765 32598 53603 10364 20198 39865 40099 83210 333 59013;
0168827650999992006100300004-07333-047467FM-12+019399999V0201801N002110075019N0200001N1+03041+02091101161ADDGF107991051021008001041001KA1240M+03811MA1999999098811MD1999999-0121REMSYN088AAXX  03004 82765 32598 71804 10304 20209 39881 40116 85240 333 10381 29053 55102 59012;
0184827650999992006100312004-07333-047467FM-12+019399999V0203201N003110450019N0040001N1+03021+02131101461ADDAY121061AY211061GF106991041021008001011001KA1240N+02581MA1999999099101MD1999999-0151MW1051REMSYN082AAXX  03124 82765 31596 63206 10302 20213 39910 40146 70521 84210 333 20258 59015;
0137827650999992006100318004-07333-047467FM-12+019399999V0200901N001510450019N0200001N1+03521+02151100991ADDGF106991041021008001041001MA1999999098651MD1999999+0001REMSYN070AAXX  03184 82765 32598 60903 10352 20215 39865 40099 84240 333 58000;
0178827650999992006100400004-07333-047467FM-12+019399999V0209999C000012200019N0200001N1+03061+02401101121ADDGA1001+999999999GF100991001001999999001001KA1240M+03701MA1999999098771MD1999999-0041REMSYN082AAXX  04004 82765 32998 00000 10306 20240 39877 40112 333 10370 29060 55083 59004;
0156827650999992006100412004-07333-047467FM-12+019399999V0203601N005112200019N0200001N1+02981+02121101431ADDGF103991031011008001001001KA1240N+02581MA1999999099071MD1999999-0031REMSYN076AAXX  04124 82765 32598 33610 10298 20212 39907 40143 83100 333 20258 59003;
0137827650999992006100418004-07333-047467FM-12+019399999V0200701N002110450019N0200001N1+03501+02201100881ADDGF106991041031008001011001MA1999999098531MD1999999-0121REMSYN070AAXX  04184 82765 32598 60704 10350 20220 39853 40088 84310 333 59012;
0168827650999992006100500004-07333-047467FM-12+019399999V0202301N000510150019N0200001N1+03061+02471101071ADDGF108991081001017501011999KA1240M+03661MA1999999098721MD1999999-0051REMSYN088AAXX  05004 82765 32798 82301 10306 20247 39872 40107 8801/ 333 10366 29062 55088 59005;
0201827650999992006100512004-07333-047467FM-12+019399999V0200501N001010120019N0100001N1+02641+02291101591ADDAA124003091AY161061AY251061GF107991051081008001011001KA1240N+02571MA1999999099211MD1999999+0141MW1041REMSYN088AAXX  05124 82765 21597 70502 10264 20229 39921 40159 70465 85810 333 20257 58014 60034;
0165827650999992006100518004-07333-047467FM-12+019399999V0202701N002610120019N0100001N1+03301+02271101121ADDAY101061AY201061GF107991051081008001041001MA1999999098761MD1999999+0231MW1041REMSYN076AAXX  05184 82765 31597 72705 10330 20227 39876 40112 70400 85840 333 58023;
0168827650999992006100600004-07333-047467FM-12+019399999V0209999C000012200019N0200001N1+02961+02531101271ADDGF103991021011008001011001KA1240M+03531MA1999999098881MD1999999+0161REMSYN088AAXX  06004 82765 32598 30000 10296 20253 39888 40127 82110 333 10353 29073 55051 58016;
0184827650999992006100612004-07333-047467FM-12+019399999V0200901N000512200019N0100001N1+02921+02411101521ADDAY101061AY201061GF104991021011008001041001KA1240N+02471MA1999999099151MD1999999-0061MW1041REMSYN082AAXX  06124 82765 31597 40901 10292 20241 39915 40152 70400 82140 333 20247 59006;
0165827650999992006100618004-07333-047467FM-12+019399999V0200501N000512200019N0100001N1+03041+01651100991ADDAY101061AY201061GF104991031011008001041001MA1999999098641MD1999999-0121MW1041REMSYN076AAXX  06184 82765 31597 40501 10304 20165 39864 40099 70400 83140 333 59012;
0194827650999992006100712004-07333-047467FM-12+019399999V0200501N001012200019N0100001N1+03041+02001101561ADDAY101061AY201061GA1001+999999999GF100991001001999999001001KA1240N+02531MA1999999099211MD1999999+0061MW1041REMSYN076AAXX  07124 82765 31997 00502 10304 20200 39921 40156 70400 333 20253 58006;
0165827650999992006100718004-07333-047467FM-12+019399999V0200501N000512200019N0100001N1+03681+02011101001ADDAY101061AY201061GF103991031011008001001001MA1999999098661MD1999999+0021MW1041REMSYN076AAXX  07184 82765 31597 30501 10368 20201 39866 40100 70400 83100 333 58002;
0178827650999992006100800004-07333-047467FM-12+019399999V0209999C000012200019N0200001N1+03161+02261101141ADDGA1001+999999999GF100991001001999999001001KA1240M+03871MA1999999098751MD1999999-0101REMSYN082AAXX  08004 82765 32998 00000 10316 20226 39875 40114 333 10387 29052 55108 59010;
0156827650999992006100812004-07333-047467FM-12+019399999V0200201N002110450019N0200001N1+02971+02071101541ADDGF108991041021008001011999KA1240N+02541MA1999999099181MD1999999-0031REMSYN076AAXX  08124 82765 32598 80204 10297 20207 39918 40154 8421/ 333 20254 59003;
0137827650999992006100818004-07333-047467FM-12+019399999V0202301N001510450019N0200001N1+03461+02301100991ADDGF108991041021008001011999MA1999999098651MD1999999-0011REMSYN070AAXX  08184 82765 32598 82303 10346 20230 39865 40099 8421/ 333 59001;
0168827650999992006100900004-07333-047467FM-12+019399999V0209999C000010450019N0200001N1+02971+02331101181ADDGF108991041021008001021999KA1240M+03601MA1999999098821MD1999999-0071REMSYN088AAXX  09004 82765 32598 80000 10297 20233 39882 40118 8422/ 333 10360 29062 55039 59007;
0156827650999992006100912004-07333-047467FM-12+019399999V0203601N003110120019N0200001N1+02771+02191101601ADDGF108991051081008001021999KA1240N+02531MA1999999099221MD1999999+0041REMSYN076AAXX  09124 82765 32598 83606 10277 20219 39922 40160 8582/ 333 20253 58004;
0137827650999992006100918004-07333-047467FM-12+019399999V0202701N004610450019N0200001N1+03111+02291101151ADDGF108991041031008001011999MA1999999098801MD1999999+0151REMSYN070AAXX  09184 82765 32598 82709 10311 20229 39880 40115 8431/ 333 58015;
0168827650999992006101000004-07333-047467FM-12+019399999V0203201N000510450019N0200001N1+02801+02361101251ADDGF106991041081008001041001KA1240M+03411MA1999999098871MD1999999+0051REMSYN088AAXX  10004 82765 32598 63201 10280 20236 39887 40125 84840 333 10341 29072 55059 58005;
0156827650999992006101012004-07333-047467FM-12+019399999V0203601N001510120019N0200001N1+02581+02291101721ADDGF108991081081008001999999KA1240N+02431MA1999999099321MD1999999+0101REMSYN076AAXX  10124 82765 32598 83603 10258 20229 39932 40172 888// 333 20243 58010;
0182827650999992006101018004-07333-047467FM-12+019399999V0202301N004110075019N0200001N1+02971+02381101381ADDAA106002091AY161061AY221061GF108991051021008001011999MA1999999098981MD1999999+0191MW1021REMSYN082AAXX  10184 82765 21598 82308 10297 20238 39898 40138 70262 8521/ 333 58019 60021;
0168827650999992006101100004-07333-047467FM-12+019399999V0201801N001010150019N0200001N1+02441+02191101501ADDGF108991081001017501021999KA1240M+03221MA1999999099101MD1999999+0231REMSYN088AAXX  11004 82765 32798 81802 10244 20219 39910 40150 8802/ 333 10322 29077 55013 58023;
0201827650999992006101112004-07333-047467FM-12+019399999V0203601N001510120019N0200001N1+02421+02281101731ADDAA124002091AY151061AY251061GF107991051081008001041001KA1240N+02291MA1999999099301MD1999999-0021MW1001REMSYN088AAXX  11124 82765 21598 73603 10242 20228 39930 40173 70055 85840 333 20229 59002 60024;
0182827650999992006101118004-07333-047467FM-12+019399999V0203201N000510450019N0200001N1+03141+02241101341ADDAA106002091AY161061AY261061GF106991041021008001041001MA1999999098941MD1999999-0051MW1001REMSYN082AAXX  11184 82765 21598 63201 10314 20224 39894 40134 70066 84240 333 59005 60021;
0168827650999992006101200004-07333-047467FM-12+019399999V0202701N001012200019N0200001N1+02621+02351101361ADDGF104991041011008001001001KA1240M+03171MA1999999098951MD1999999-0151REMSYN088AAXX  12004 82765 32598 42702 10262 20235 39895 40136 84100 333 10317 29080 55035 59015;
0137827650999992006101218004-07333-047467FM-12+019399999V0201801N000510450019N0200001N1+03541+02051100991ADDGF106991041021008001041001MA1999999098631MD1999999-0311REMSYN070AAXX  12184 82765 32598 61801 10354 20205 39863 40099 84240 333 59031;
0178827650999992006101300004-07333-047467FM-12+019399999V0209999C000012200019N0200001N1+03021+02611101031ADDGA1001+999999999GF100991001001999999001001KA1240M+03631MA1999999098651MD1999999-0301REMSYN082AAXX  13004 82765 32998 00000 10302 20261 39865 40103 333 10363 29068 55080 59030;
0156827650999992006101312004-07333-047467FM-12+019399999V0203601N003612200019N0200001N1+02981+02151101431ADDGF104991031011008001041001KA1240N+02451MA1999999099071MD1999999-0051REMSYN076AAXX  13124 82765 32598 43607 10298 20215 39907 40143 83140 333 20245 59005;
0165827650999992006101318004-07333-047467FM-12+019399999V0202701N002110450019N0100001N1+03521+02251100941ADDAY101061AY201061GF106991041011008001041001MA1999999098591MD1999999-0041MW1041REMSYN076AAXX  13184 82765 31597 62704 10352 20225 39859 40094 70400 84140 333 59004;
0168827650999992006101400004-07333-047467FM-12+019399999V0209999C000010450019N0200001N1+03081+02491101001ADDGF106991041021008001041001KA1240M+03611MA1999999098661MD1999999+0011REMSYN088AAXX  14004 82765 32598 60000 10308 20249 39866 40100 84240 333 10361 29063 55095 58001;
0184827650999992006101412004-07333-047467FM-12+019399999V0203601N001510090019N0100001N1+02791+02181101411ADDAY121061AY221061GF108991051081004501021999KA1240N+02591MA1999999099051MD1999999-0021MW1051REMSYN082AAXX  14124 82765 31497 83603 10279 20218 39905 40141 70522 8582/ 333 20259 59002;
0165827650999992006101418004-07333-047467FM-12+019399999V0201801N001510090019N0100001N1+02831+02361101111ADDAY121061AY221061GF108991051081004501021999MA1999999098731MD1999999+0141MW1051REMSYN076AAXX  14184 82765 31497 81803 10283 20236 39873 40111 70522 8582/ 333 58014;
0168827650999992006101500004-07333-047467FM-12+019399999V0209999C000010090019N0200001N1+02471+02301101291ADDGF108991081081004501999999KA1240M+03101MA1999999098801MD1999999+0241REMSYN088AAXX  15004 82765 32498 80000 10247 20230 39880 40129 888// 333 10310 29082 55000 58024;
0156827650999992006101512004-07333-047467FM-12+019399999V0202301N000510090019N0200001N1+02461+02341101501ADDGF108991051081004501021999KA1240N+02411MA1999999099081MD1999999+0031REMSYN076AAXX  15124 82765 32498 82301 10246 20234 39908 40150 8582/ 333 20241 58003;
0213827650999992006101600004-07333-047467FM-12+019399999V0209999C000010042019N0200001N1+02361+02281101441ADDAA106005191AY161061AY261061GF108991071071004501021999KA1240M+02741MA1999999099021MD1999999+0121MW1031REMSYN100AAXX  16004 82765 21498 80000 10236 20228 39902 40144 70366 8772/ 333 10274 29093 55003 58012 60051;
0201827650999992006101612004-07333-047467FM-12+019399999V0200501N000510120019N0200001N1+02431+02331101691ADDAA124005191AY151061AY221061GF108991071081008001021999KA1240N+02341MA1999999099261MD1999999+0181MW1031REMSYN088AAXX  16124 82765 21598 80501 10243 20233 39926 40169 70352 8782/ 333 20234 58018 60054;
0182827650999992006101618004-07333-047467FM-12+019399999V0209999C000010075019N0200001N1+02341+02271101401ADDAA106040991AY161061AY221061GF108991071051008001021999MA1999999098981MD1999999+0161MW1501REMSYN082AAXX  16184 82765 21598 80000 10234 20227 39898 40140 75062 8752/ 333 58016 60411;
0213827650999992006101700004-07333-047467FM-12+019399999V0209999C000012200019N0200001N1+02341+02271101401ADDAA106000021AY151061AY201061GF102991021081008001001001KA1240M+02491MA1999999098981MD1999999-0041MW1001REMSYN100AAXX  17004 82765 21598 20000 10234 20227 39898 40140 70050 82800 333 10249 29096 55000 59004 69921;
0173827650999992006101712004-07333-047467FM-12+019399999V0209999C000010120019N0200001N1+02421+02301101541ADDAA124041991GF108991071081008001021999KA1240N+02301MA1999999099121MD1999999-0141REMSYN082AAXX  17124 82765 22598 80000 10242 20230 39912 40154 8782/ 333 20230 59014 60424;
