0213827840999992006010100004-07317-039300FM-12+040999999V0200901N001512200019N0020001N1+02681+01991100951ADDAA106000591AY151061AY211061GF103991031011008001001001KA1240M+03291MA1999999096451MD1999999+0021MW1021REMSYN100AAXX  01004 82784 21595 30903 10268 20199 39645 40095 70251 83100 333 10329 29061 55064 58002 69951;
0201827840999992006010112004-07317-039300FM-12+040999999V0200501N001512200019N0200001N1+02681+01991101141ADDAA124000591AY101061AY251061GF103991021021008001021001KA1240N+02271MA1999999096641MD1999999+0051MW1021REMSYN088AAXX  01124 82784 21598 30503 10268 20199 39664 40114 70205 82220 333 20227 58005 69954;
0175827840999992006010212004-07317-039300FM-12+040999999V0201401N001519999999N0200001N1+02601+02101101171ADDGF108991999021008001001001KA1240N+02341MA1999999096661MD1999999+0021REMSYN076AAXX  02124 82784 32598 81403 10260 20210 39666 40117 83200 333 20234 58002;EQDQ01+000032SCOTLC
0137827840999992006010218004-07317-039300FM-12+040999999V0203201N001510450019N0200001N1+03221+01991100761ADDGF106991031021008001021001MA1999999096231MD1999999+0031REMSYN070AAXX  02184 82784 32598 63203 10322 20199 39623 40076 83220 333 58003;
0168827840999992006010300004-07317-039300FM-12+040999999V0202701N001512200019N0020001N1+02821+02201100881ADDGF104991041041008001001001KA1240M+03351MA1999999096391MD1999999+0001REMSYN088AAXX  03004 82784 32595 42703 10282 20220 39639 40088 84400 333 10335 29066 55070 58000;
0156827840999992006010312004-07317-039300FM-12+040999999V0200901N001510075019N0200001N1+02751+02091101071ADDGF106991061021008001001001KA1240N+02301MA1999999096591MD1999999-0071REMSYN076AAXX  03124 82784 32598 60903 10275 20209 39659 40107 86200 333 20230 59007;
0137827840999992006010318004-07317-039300FM-12+040999999V0200501N003110075019N0200001N1+03401+01721100641ADDGF105991051021008001001001MA1999999096211MD1999999-0051REMSYN070AAXX  03184 82784 32598 50506 10340 20172 39621 40064 85200 333 59005;
0168827840999992006010400004-07317-039300FM-12+040999999V0201801N002619999999N0020001N1+02841+02191100781ADDGF108991081081999999999999KA1240M+03471MA1999999096321MD1999999+0071REMSYN088AAXX  04004 82784 32/95 81805 10284 20219 39632 40078 888// 333 10347 29060 55085 58007;
0191827840999992006010412004-07317-039300FM-12+040999999V0200901N046329999999N0200001N1+02601+02101100981ADDGF108991999011008001001001KA1240N+02311MA1999999096491MD1999999+0101REMSYN076AAXX  04124 82784 32598 80990 10260 20210 39649 40098 82100 333 20231 58010;EQDQ01+004633WOSPD Q02+000022SCOTLC
0156827840999992006010418004-07317-039300FM-12+040999999V0201401N002119999999N0200001N1+03341+01751100551ADDGF106991999021008001001001MA1999999096081MD1999999-0131REMSYN070AAXX  04184 82784 32598 61404 10334 20175 39608 40055 84200 333 59013;EQDQ01+000042SCOTLC
0168827840999992006010500004-07317-039300FM-12+040999999V0203601N001512200019N0020001N1+02681+02111100641ADDGF102991021011008001001001KA1240M+03351MA1999999096151MD1999999-0171REMSYN088AAXX  05004 82784 32595 23603 10268 20211 39615 40064 82100 333 10335 29064 55086 59017;
0166827840999992006010512004-07317-039300FM-12+040999999V0200501N002112200019N0020001N1+02681+01921100961ADDGA1001+999999999GF100991001001999999001001KA1240N+02081MA1999999096471MD1999999-0021REMSYN070AAXX  05124 82784 32995 00504 10268 20192 39647 40096 333 20208 59002;
0156827840999992006010518004-07317-039300FM-12+040999999V0200501N002112200019N0200001N1+03431+01611100361ADDGF101991999011008001001001MA1999999095941MD1999999-0141REMSYN070AAXX  05184 82784 32598 10504 10343 20161 39594 40036 82100 333 59014;EQDQ01+000022SCOTLC
0156827840999992006010612004-07317-039300FM-12+040999999V0203601N002112200019N0200001N1+02681+01991101011ADDGF101991011021008001001001KA1240N+02061MA1999999096531MD1999999+0061REMSYN076AAXX  06124 82784 32598 13604 10268 20199 39653 40101 81200 333 20206 58006;
0137827840999992006010618004-07317-039300FM-12+040999999V0200501N002112200019N0200001N1+03341+01711100551ADDGF102991011021008001031001MA1999999096121MD1999999+0181REMSYN070AAXX  06184 82784 32598 20504 10334 20171 39612 40055 81230 333 58018;
0168827840999992006010700004-07317-039300FM-12+040999999V0209999C000012200019N0020001N1+02521+02001100831ADDGF102991011041008001031001KA1240M+03431MA1999999096331MD1999999+0121REMSYN088AAXX  07004 82784 32595 20000 10252 20200 39633 40083 81430 333 10343 29062 55101 58012;
0156827840999992006010712004-07317-039300FM-12+040999999V0200501N002112200019N0020001N1+02771+01961101151ADDGF102991021011008001001001KA1240N+02221MA1999999096641MD1999999+0111REMSYN076AAXX  07124 82784 32595 20504 10277 20196 39664 40115 82100 333 20222 58011;
0147827840999992006010718004-07317-039300FM-12+040999999V0200901N002612200019N0200001N1+03461+01601100541ADDGA1001+999999999GF100991001001999999001001MA1999999096111MD1999999-0011REMSYN064AAXX  07184 82784 32998 00905 10346 20160 39611 40054 333 59001;
0178827840999992006010800004-07317-039300FM-12+040999999V0209999C000012200019N0020001N1+02621+01881100761ADDGA1001+999999999GF100991001001999999001001KA1240M+03531MA1999999096281MD1999999-0051REMSYN082AAXX  08004 82784 32995 00000 10262 20188 39628 40076 333 10353 29056 55103 59005;
0156827840999992006010812004-07317-039300FM-12+040999999V0200501N001512200019N0200001N1+02721+01981101131ADDGF102991021011008001001001KA1240N+02031MA1999999096631MD1999999-0011REMSYN076AAXX  08124 82784 32598 20503 10272 20198 39663 40113 82100 333 20203 59001;
0137827840999992006010818004-07317-039300FM-12+040999999V0202301N001010075019N0200001N1+03441+01921100581ADDGF106991061021008001001001MA1999999096151MD1999999+0041REMSYN070AAXX  08184 82784 32598 62302 10344 20192 39615 40058 86200 333 58004;
0168827840999992006010900004-07317-039300FM-12+040999999V0201401N002112200019N0020001N1+02761+01581100801ADDGF103991031001017501001011KA1240M+03501MA1999999096321MD1999999+0041REMSYN088AAXX  09004 82784 32795 31404 10276 20158 39632 40080 83001 333 10350 29050 55114 58004;
0156827840999992006010912004-07317-039300FM-12+040999999V0200501N002110075019N0200001N1+02651+01981101141ADDGF107991071021008001001001KA1240N+02361MA1999999096641MD1999999+0011REMSYN076AAXX  09124 82784 32598 70504 10265 20198 39664 40114 87200 333 20236 58001;
0137827840999992006010918004-07317-039300FM-12+040999999V0203201N001019999999N0200001N1+03221+02081100581ADDGF108991999021008001001001MA1999999096141MD1999999-0011REMSYN070AAXX  09184 82784 32598 83202 10322 20208 39614 40058 83200 333 59001;
0168827840999992006011000004-07317-039300FM-12+040999999V0201801N003112200019N0020001N1+02821+01831100941ADDGF102991021001012501041001KA1240M+03361MA1999999096461MD1999999+0141REMSYN088AAXX  10004 82784 32695 21806 10282 20183 39646 40094 82040 333 10336 29062 55058 58014;
0201827840999992006011012004-07317-039300FM-12+040999999V0209999C000010042019N0200001N1+02391+02331101331ADDAA124039991AY191061AY261061GF108991081071004501999999KA1240N+02051MA1999999096811MD1999999+0171MW1021REMSYN088AAXX  10124 82784 21498 80000 10239 20233 39681 40133 70296 887// 333 20205 58017 60404;
0173827840999992006011112004-07317-039300FM-12+040999999V0200901N001512200019N0200001N1+02621+01811101251ADDAA124001091GF103991031011008001001001KA1240N+02281MA1999999096731MD1999999-0081REMSYN082AAXX  11124 82784 22598 30903 10262 20181 39673 40125 83100 333 20228 59008 69994;
0137827840999992006011118004-07317-039300FM-12+040999999V0201401N002612200019N0200001N1+03161+01921100771ADDGF105991031021008001001011MA1999999096321MD1999999-0121REMSYN070AAXX  11184 82784 32598 51405 10316 20192 39632 40077 83201 333 59012;
0137827840999992006011218004-07317-039300FM-12+040999999V0201401N002112200019N0200001N1+03171+02161100861ADDGF103991031021008001001001MA1999999096381MD1999999+0061REMSYN070AAXX  12184 82784 32598 31404 10317 20216 39638 40086 83200 333 58006;
0168827840999992006011300004-07317-039300FM-12+040999999V0200901N000510120019N0020001N1+02681+02311101011ADDGF108991081081008001999999KA1240M+03291MA1999999096511MD1999999+0081REMSYN088AAXX  13004 82784 32595 80901 10268 20231 39651 40101 888// 333 10329 29070 55107 58008;
0156827840999992006011312004-07317-039300FM-12+040999999V0200901N002112200019N0200001N1+02601+01961101281ADDGF103991031021008001001001KA1240N+02301MA1999999096771MD1999999+0001REMSYN076AAXX  13124 82784 32598 30904 10260 20196 39677 40128 83200 333 20230 58000;
0156827840999992006011318004-07317-039300FM-12+040999999V0201401N003112200019N0200001N1+03281+02101100851ADDGF104991999021008001001001MA1999999096401MD1999999+0021REMSYN070AAXX  13184 82784 32598 41406 10328 20210 39640 40085 83200 333 58002;EQDQ01+000032SCOTLC
0168827840999992006011400004-07317-039300FM-12+040999999V0201401N001510450019N0020001N1+02751+01941101051ADDGF107991041091008001031001KA1240M+03371MA1999999096551MD1999999+0041REMSYN088AAXX  14004 82784 32595 71403 10275 20194 39655 40105 84930 333 10337 29060 55102 58004;
0156827840999992006011412004-07317-039300FM-12+040999999V0201401N002110075019N0200001N1+02671+01971101221ADDGF106991061021008001001001KA1240N+02301MA1999999096721MD1999999-0051REMSYN076AAXX  14124 82784 32598 61404 10267 20197 39672 40122 86200 333 20230 59005;
0137827840999992006011418004-07317-039300FM-12+040999999V0200901N003112200019N0200001N1+03251+01891100791ADDGF102991021011008001001001MA1999999096341MD1999999-0061REMSYN070AAXX  14184 82784 32598 20906 10325 20189 39634 40079 82100 333 59006;
0178827840999992006011500004-07317-039300FM-12+040999999V0201401N001512200019N0020001N1+02731+01811101001ADDGA1001+999999999GF100991001001999999001001KA1240M+03361MA1999999096511MD1999999-0041REMSYN082AAXX  15004 82784 32995 01403 10273 20181 39651 40100 333 10336 29056 55114 59004;
0156827840999992006011512004-07317-039300FM-12+040999999V0201401N003112200019N0200001N1+02661+01681101201ADDGF102991011011008001041001KA1240N+02011MA1999999096701MD1999999-0021REMSYN076AAXX  15124 82784 32598 21406 10266 20168 39670 40120 81140 333 20201 59002;
0137827840999992006011518004-07317-039300FM-12+040999999V0201401N001510450019N0200001N1+03271+01841100711ADDGF105991011011008001021001MA1999999096241MD1999999-0101REMSYN070AAXX  15184 82784 32598 51403 10327 20184 39624 40071 81120 333 59010;
0168827840999992006011600004-07317-039300FM-12+040999999V0201801N001010150019N0020001N1+02571+02061100951ADDGF107991071001017501021001KA1240M+03351MA1999999096441MD1999999-0071REMSYN088AAXX  16004 82784 32795 71802 10257 20206 39644 40095 87020 333 10335 29061 55116 59007;
0156827840999992006011612004-07317-039300FM-12+040999999V0200901N002612200019N0100001N1+02681+01781101221ADDGF104991041001012501001021KA1240N+02061MA1999999096701MD1999999+0001REMSYN076AAXX  16124 82784 32697 40905 10268 20178 39670 40122 84002 333 20206 58000;
0168827840999992006011700004-07317-039300FM-12+040999999V0200901N001010450019N0020001N1+02601+02011100951ADDGF105991021011008001041001KA1240M+03401MA1999999096451MD1999999+0011REMSYN088AAXX  17004 82784 32595 50902 10260 20201 39645 40095 82140 333 10340 29062 55113 58001;
0156827840999992006011712004-07317-039300FM-12+040999999V0200901N003110120019N0200001N1+02781+01761101071ADDGF107991071021012501001001KA1240N+02301MA1999999096571MD1999999-0131REMSYN076AAXX  17124 82784 32698 70906 10278 20176 39657 40107 87200 333 20230 59013;
0137827840999992006011718004-07317-039300FM-12+040999999V0200901N002110450019N0200001N1+03291+01871100661ADDGF108991041011008001011001MA1999999096221MD1999999-0011REMSYN070AAXX  17184 82784 32598 80904 10329 20187 39622 40066 84110 333 59001;
0168827840999992006011800004-07317-039300FM-12+040999999V0200901N002112200019N0020001N1+02851+01701100911ADDGF102991021011008001001001KA1240M+03421MA1999999096441MD1999999-0011REMSYN088AAXX  18004 82784 32595 20904 10285 20170 39644 40091 82100 333 10342 29049 55105 59001;
0175827840999992006011812004-07317-039300FM-12+040999999V0201401N002619999999N0200001N1+02781+02041101091ADDGF106991999021008001001001KA1240N+02361MA1999999096611MD1999999+0041REMSYN076AAXX  18124 82784 32598 61405 10278 20204 39661 40109 84200 333 20236 58004;EQDQ01+000042SCOTLC
0178827840999992006011900004-07317-039300FM-12+040999999V0200501N001012200019N0020001N1+02661+02091100801ADDGA1001+999999999GF100991001001999999001001KA1240M+03411MA1999999096321MD1999999-0121REMSYN082AAXX  19004 82784 32995 00502 10266 20209 39632 40080 333 10341 29064 55105 59012;
0175827840999992006011912004-07317-039300FM-12+040999999V0200901N000519999999N0200001N1+02601+01171101051ADDGF108991999021008001001001KA1240N+02231MA1999999096551MD1999999-0061REMSYN076AAXX  19124 82784 32598 80901 10260 20117 39655 40105 82200 333 20223 59006;EQDQ01+000022SCOTLC
0156827840999992006011918004-07317-039300FM-12+040999999V0201801N003110075019N0200001N1+03141+02001100591ADDGF108991999021008001001001MA1999999096141MD1999999-0011REMSYN070AAXX  19184 82784 32598 81806 10314 20200 39614 40059 86200 333 59001;EQDQ01+000062SCOTLC
0178827840999992006012000004-07317-039300FM-12+040999999V0201801N000512200019N0020001N1+02421+01951100781ADDGA1001+999999999GF100991001001999999001001KA1240M+03231MA1999999096261MD1999999-0061REMSYN082AAXX  20004 82784 32995 01801 10242 20195 39626 40078 333 10323 29069 55042 59006;
0156827840999992006012012004-07317-039300FM-12+040999999V0201801N003112200019N0200001N1+02621+01811101051ADDGF102991021001017501031001KA1240N+02021MA1999999096521MD1999999-0031REMSYN076AAXX  20124 82784 32798 21806 10262 20181 39652 40105 82030 333 20202 59003;
0137827840999992006012018004-07317-039300FM-12+040999999V0201801N002112200019N0200001N1+03221+01611100611ADDGF104991011011008001031001MA1999999096141MD1999999+0001REMSYN070AAXX  20184 82784 32598 41804 10322 20161 39614 40061 81130 333 58000;
0187827840999992006012100004-07317-039300FM-12+040999999V0201401N000512200019N0020001N1+03631+01911100821ADDGF103991021021008001031001KA1240M+99999MA1999999096321MD1999999+0061REMSYN088AAXX  21004 82784 32595 31401 10363 20191 39632 40082 82230 333 10341 29057 55116 58006;EQDQ01 +03412ATMX  
0156827840999992006012112004-07317-039300FM-12+040999999V0201401N001512200019N0200001N1+02621+01121101141ADDGF104991031021008001021001KA1240N+02291MA1999999096631MD1999999+0111REMSYN076AAXX  21124 82784 32598 41403 10262 20112 39663 40114 83220 333 20229 58011;
0137827840999992006012118004-07317-039300FM-12+040999999V0201401N002110450019N0200001N1+03281+01861100721ADDGF106991031021008001021001MA1999999096241MD1999999+0101REMSYN070AAXX  21184 82784 32598 61404 10328 20186 39624 40072 83220 333 58010;
0168827840999992006012200004-07317-039300FM-12+040999999V0200901N001510075019N0020001N1+02861+02011100841ADDGF106991061041008001001001KA1240M+03431MA1999999096361MD1999999+0041REMSYN088AAXX  22004 82784 32595 60903 10286 20201 39636 40084 86400 333 10343 29059 55091 58004;
0156827840999992006012212004-07317-039300FM-12+040999999V0201401N001512200019N0200001N1+02661+02111101101ADDGF103991031021008001001001KA1240N+02321MA1999999096611MD1999999-0021REMSYN076AAXX  22124 82784 32598 31403 10266 20211 39661 40110 83200 333 20232 59002;
0137827840999992006012218004-07317-039300FM-12+040999999V0201401N002112200019N0200001N1+03281+02071100721ADDGF104991021021008001021001MA1999999096241MD1999999+0001REMSYN070AAXX  22184 82784 32598 41404 10328 20207 39624 40072 82220 333 58000;
0213827840999992006012300004-07317-039300FM-12+040999999V0201401N001510120019N0020001N1+02681+02221100931ADDAA106000021AY121061AY221061GF106991061081008001001001KA1240M+03501MA1999999096431MD1999999+0071MW1201REMSYN100AAXX  23004 82784 21595 61403 10268 20222 39643 40093 72022 86800 333 10350 29068 55105 58007 69921;
0173827840999992006012312004-07317-039300FM-12+040999999V0200901N003110450019N0200001N1+02821+02171101121ADDAA124000021GF106991041021008001011001KA1240N+02421MA1999999096621MD1999999+0011REMSYN082AAXX  23124 82784 22598 60906 10282 20217 39662 40112 84210 333 20242 58001 69924;
0137827840999992006012318004-07317-039300FM-12+040999999V0201401N002610075019N0200001N1+03461+02131100611ADDGF106991061021008001001001MA1999999096111MD1999999-0131REMSYN070AAXX  23184 82784 32598 61405 10346 20213 39611 40061 86200 333 59013;
0168827840999992006012400004-07317-039300FM-12+040999999V0209999C000010042019N0020001N1+02691+02171100901ADDGF106991061021004501001001KA1240M+03551MA1999999096421MD1999999-0011REMSYN088AAXX  24004 82784 32495 60000 10269 20217 39642 40090 86200 333 10355 29065 55099 59001;
0156827840999992006012412004-07317-039300FM-12+040999999V0201401N005110450019N0200001N1+02801+02271101121ADDGF106991041011008001011001KA1240N+02381MA1999999096631MD1999999+0011REMSYN076AAXX  24124 82784 32598 61410 10280 20227 39663 40112 84110 333 20238 58001;
0137827840999992006012418004-07317-039300FM-12+040999999V0200501N003110450019N0200001N1+02621+02251100681ADDGF106991041071008001011001MA1999999096171MD1999999+0061REMSYN070AAXX  24184 82784 32598 60506 10262 20225 39617 40068 84710 333 58006;
0178827840999992006012500004-07317-039300FM-12+040999999V0201401N001512200019N0020001N1+02761+02041100891ADDGA1001+999999999GF100991001001999999001001KA1240M+03201MA1999999096421MD1999999+0001REMSYN082AAXX  25004 82784 32995 01403 10276 20204 39642 40089 333 10320 29071 55097 58000;
0156827840999992006012512004-07317-039300FM-12+040999999V0200901N002610450019N0200001N1+02851+01931101241ADDGF108991011011008001011001KA1240N+02221MA1999999096761MD1999999+0131REMSYN076AAXX  25124 82784 32598 80905 10285 20193 39676 40124 81110 333 20222 58013;
0137827840999992006012518004-07317-039300FM-12+040999999V0200501N003110150019N0200001N1+03431+01781100741ADDGF108991081051017501999999MA1999999096291MD1999999+0121REMSYN070AAXX  25184 82784 32798 80506 10343 20178 39629 40074 885// 333 58012;
0168827840999992006012600004-07317-039300FM-12+040999999V0201801N001512200019N0200001N1+03141+02381101001ADDGF102991021041008001001001KA1240M+03711MA1999999096561MD1999999+0141REMSYN088AAXX  26004 82784 32598 21803 10314 20238 39656 40100 82400 333 10371 29056 55096 58014;
0156827840999992006012612004-07317-039300FM-12+040999999V0200501N002112200019N0020001N1+02861+02061101261ADDGF102991011011008001011001KA1240N+02361MA1999999096811MD1999999+0051REMSYN076AAXX  26124 82784 32595 20504 10286 20206 39681 40126 81110 333 20236 58005;
0147827840999992006012618004-07317-039300FM-12+040999999V0200901N002112200019N0200001N1+03291+01821100931ADDGA1001+999999999GF100991001001999999001001MA1999999096421MD1999999+0131REMSYN064AAXX  26184 82784 32598 00904 10329 20182 39642 40093 333 58013;
0168827840999992006012700004-07317-039300FM-12+040999999V0201801N001512200019N0200001N1+03161+02201100991ADDGF102991021041008001001001KA1240M+03691MA1999999096551MD1999999-0011REMSYN088AAXX  27004 82784 32598 21803 10316 20220 39655 40099 82400 333 10369 29054 55107 59001;
0156827840999992006012712004-07317-039300FM-12+040999999V0200501N002110150019N0200001N1+02871+02261101211ADDGF106991061001017501011001KA1240N+02381MA1999999096761MD1999999-0051REMSYN076AAXX  27124 82784 32798 60504 10287 20226 39676 40121 86010 333 20238 59005;
0156827840999992006012718004-07317-039300FM-12+040999999V0203601N003119999999N0200001N1+03601+01721100701ADDGF105991999021008001001001MA1999999096321MD1999999-0011REMSYN070AAXX  27184 82784 32598 53606 10360 20172 39632 40070 83200 333 59001;EQDQ01+000032SCOTLC
0178827840999992006012800004-07317-039300FM-12+040999999V0203201N001012200019N0020001N1+02691+02011101011ADDGA1001+999999999GF100991001001999999001001KA1240M+03711MA1999999096541MD1999999-0011REMSYN082AAXX  28004 82784 32995 03202 10269 20201 39654 40101 333 10371 29058 55111 59001;
0156827840999992006012812004-07317-039300FM-12+040999999V0200901N002110450019N0200001N1+02901+02171101161ADDGF106991021011008001011001KA1240N+02421MA1999999096681MD1999999-0081REMSYN076AAXX  28124 82784 32598 60904 10290 20217 39668 40116 82110 333 20242 59008;
0156827840999992006012818004-07317-039300FM-12+040999999V0200901N001010075019N0200001N1+03621+02081100651ADDGF108991999021008001001001MA1999999096241MD1999999-0081REMSYN070AAXX  28184 82784 32598 80902 10362 20208 39624 40065 86200 333 59008;EQDQ01+000062SCOTLC
0168827840999992006012900004-07317-039300FM-12+040999999V0201401N000519999999N0020001N1+02901+02431100961ADDGF105991051999999999999999KA1240M+03711MA1999999096511MD1999999-0031REMSYN088AAXX  29004 82784 32/95 51401 10290 20243 39651 40096 85/// 333 10371 29064 55108 59003;
0137827840999992006012918004-07317-039300FM-12+040999999V0203601N001010075019N0200001N1+03381+02161100671ADDGF105991051021008001021001MA1999999096251MD1999999+0011REMSYN070AAXX  29184 82784 32598 53602 10338 20216 39625 40067 85220 333 58001;
0213827840999992006013000004-07317-039300FM-12+040999999V0201401N001510120019N0020001N1+02481+02291100921ADDAA106000391AY121061AY221061GF108991081081008001999999KA1240M+03491MA1999999096411MD1999999-0101MW1201REMSYN100AAXX  30004 82784 21595 81403 10248 20229 39641 40092 72022 888// 333 10349 29077 55063 59010 69931;
0173827840999992006013012004-07317-039300FM-12+040999999V0200901N001510042019N0200001N1+02641+02181101171ADDAA124000391GF107991071051004501001001KA1240N+02321MA1999999096651MD1999999-0051REMSYN082AAXX  30124 82784 22498 70903 10264 20218 39665 40117 87500 333 20232 59005 69934;
0137827840999992006013018004-07317-039300FM-12+040999999V0200501N001012200019N0200001N1+03381+02061100641ADDGF104991041021008001001001MA1999999096211MD1999999-0041REMSYN070AAXX  30184 82784 32598 40502 10338 20206 39621 40064 84200 333 59004;
0168827840999992006013100004-07317-039300FM-12+040999999V0202301N001012200019N0020001N1+02781+02251100801ADDGF102991021041008001001001KA1240M+03511MA1999999096321MD1999999-0091REMSYN088AAXX  31004 82784 32595 22302 10278 20225 39632 40080 82400 333 10351 29067 55088 59009;
0156827840999992006013112004-07317-039300FM-12+040999999V0200501N002110075019N0020001N1+02681+02111101121ADDGF106991061021008001001001KA1240N+02261MA1999999096631MD1999999-0021REMSYN076AAXX  31124 82784 32595 60504 10268 20211 39663 40112 86200 333 20226 59002;
0137827840999992006013118004-07317-039300FM-12+040999999V0200501N001512200019N0200001N1+03321+02041100741ADDGF104991041021008001001001MA1999999096221MD1999999+0011REMSYN070AAXX  31184 82784 32598 40503 10332 20204 39622 40074 84200 333 58001;
0168827840999992006020100004-07317-039300FM-12+040999999V0203201N000512200019N0020001N1+02871+02281100751ADDGF104991041041008001001001KA1240M+03461MA1999999096281MD1999999-0041REMSYN088AAXX  01004 82784 32595 43201 10287 20228 39628 40075 84400 333 10346 29065 55076 59004;
0201827840999992006020112004-07317-039300FM-12+040999999V0203201N000510075019N0200001N1+02381+02311101101ADDAA124007991AY161061AY221061GF108991081061008001999999KA1240N+02201MA1999999096591MD1999999-0041MW1021REMSYN088AAXX  01124 82784 21598 83201 10238 20231 39659 40110 70262 886// 333 20220 59004 60084;
0137827840999992006020118004-07317-039300FM-12+040999999V0203601N001512200019N0200001N1+03181+02221100651ADDGF103991011021008001051001MA1999999096191MD1999999-0031REMSYN070AAXX  01184 82784 32598 33603 10318 20222 39619 40065 81250 333 59003;
0213827840999992006020200004-07317-039300FM-12+040999999V0201801N001010120019N0020001N1+02341+02261100901ADDAA106005191AY121061AY221061GF107991071081008001001001KA1240M+03301MA1999999096351MD1999999+0071MW1211REMSYN100AAXX  02004 82784 21595 71802 10234 20226 39635 40090 72122 87800 333 10330 29086 55069 58007 60051;
0201827840999992006020212004-07317-039300FM-12+040999999V0202301N002110075019N0200001N1+02131+02091101291ADDAA124042991AY161061AY221061GF108991081051008001999999KA1240N+02041MA1999999096701MD1999999+0111MW1211REMSYN088AAXX  02124 82784 21598 82304 10213 20209 39670 40129 72162 885// 333 20204 58011 60434;
0137827840999992006020218004-07317-039300FM-12+040999999V0200501N001512200019N0200001N1+03031+02241100801ADDGF103991011021008001031001MA1999999096311MD1999999+0121REMSYN070AAXX  02184 82784 32598 30503 10303 20224 39631 40080 81230 333 58012;
0168827840999992006020300004-07317-039300FM-12+040999999V0209999C000010120019N0020001N1+02531+02441100861ADDGF106991061081008001001001KA1240M+03171MA1999999096311MD1999999+0031REMSYN088AAXX  03004 82784 32595 60000 10253 20244 39631 40086 86800 333 10317 29087 55057 58003;
0201827840999992006020312004-07317-039300FM-12+040999999V0201401N001510075019N0200001N1+02481+02251101111ADDAA124000591AY151061AY221061GF108991081051008001999999KA1240N+02121MA1999999096571MD1999999-0131MW1021REMSYN088AAXX  03124 82784 21598 81403 10248 20225 39657 40111 70252 885// 333 20212 59013 69944;
0137827840999992006020318004-07317-039300FM-12+040999999V0200501N001010075019N0200001N1+03201+02331100561ADDGF106991051021008001031001MA1999999096101MD1999999-0211REMSYN070AAXX  03184 82784 32598 60502 10320 20233 39610 40056 85230 333 59021;
0168827840999992006020400004-07317-039300FM-12+040999999V0209999C000012200019N0020001N1+02561+02271100811ADDGF104991031081008001031001KA1240M+03271MA1999999096291MD1999999-0091REMSYN088AAXX  04004 82784 32595 40000 10256 20227 39629 40081 83830 333 10327 29079 55082 59009;
0156827840999992006020418004-07317-039300FM-12+040999999V0202701N003119999999N0200001N1+02881+02231100661ADDGF106991999021008001001001MA1999999096171MD1999999+0071REMSYN070AAXX  04184 82784 32598 62706 10288 20223 39617 40066 87200 333 58007;EQDQ01+000072SCOTLC
0168827840999992006020500004-07317-039300FM-12+040999999V0201801N001510120019N0020001N1+02541+02331100801ADDGF106991061081008001001001KA1240M+03081MA1999999096291MD1999999+0001REMSYN088AAXX  05004 82784 32595 61803 10254 20233 39629 40080 86800 333 10308 29083 55019 58000;
0201827840999992006020512004-07317-039300FM-12+040999999V0200501N002110120019N0200001N1+02621+02331101071ADDAA124001091AY121061AY221061GF106991061081008001001001KA1240N+02321MA1999999096561MD1999999+0011MW1211REMSYN088AAXX  05124 82784 21598 60504 10262 20233 39656 40107 72122 86800 333 20232 58001 60014;
0137827840999992006020518004-07317-039300FM-12+040999999V0200501N002110120019N0200001N1+02931+02431100671ADDGF107991071081008001001001MA1999999096191MD1999999+0021REMSYN070AAXX  05184 82784 32598 70504 10293 20243 39619 40067 87800 333 58002;
0168827840999992006020600004-07317-039300FM-12+040999999V0200501N000510120019N0020001N1+02551+02381100871ADDGF106991061081008001001001KA1240M+03191MA1999999096361MD1999999+0071REMSYN088AAXX  06004 82784 32595 60501 10255 20238 39636 40087 86800 333 10319 29084 55044 58007;
0201827840999992006020612004-07317-039300FM-12+040999999V0203201N001510075019N0200001N1+02201+02151101291ADDAA124036191AY161061AY221061GF108991081061008001001001KA1240N+02131MA1999999096721MD1999999+0161MW1021REMSYN088AAXX  06124 82784 21598 83203 10220 20215 39672 40129 70262 88600 333 20213 58016 60364;
0182827840999992006020618004-07317-039300FM-12+040999999V0202701N001510075019N0200001N1+02421+02281100991ADDAA106000891AY151061AY221061GF108991081051008001999999MA1999999096451MD1999999+0261MW1021REMSYN082AAXX  06184 82784 21598 82703 10242 20228 39645 40099 70252 885// 333 58026 69971;
0168827840999992006020700004-07317-039300FM-12+040999999V0200901N001010450019N0020001N1+02271+02191101121ADDGF105991041091008001031001KA1240M+03591MA1999999096541MD1999999+0181REMSYN088AAXX  07004 82784 32595 50902 10227 20219 39654 40112 84930 333 10359 29095 55000 58018;
0173827840999992006020712004-07317-039300FM-12+040999999V0203601N002110075019N0200001N1+02491+02291101201ADDAA124000891GF106991051021008001051001KA1240N+02061MA1999999096651MD1999999-0071REMSYN082AAXX  07124 82784 22598 63604 10249 20229 39665 40120 85250 333 20206 59007 69974;
0168827840999992006020800004-07317-039300FM-12+040999999V0201801N001010450019N0020001N1+02531+02271100951ADDGF105991011011008001021001KA1240M+03181MA1999999096431MD1999999-0111REMSYN088AAXX  08004 82784 32595 51802 10253 20227 39643 40095 81120 333 10318 29079 55087 59011;
0156827840999992006020812004-07317-039300FM-12+040999999V0200901N000512200019N0200001N1+02601+02101101221ADDGF101991011001017501031001KA1240N+02121MA1999999096691MD1999999+0041REMSYN076AAXX  08124 82784 32798 10901 10260 20210 39669 40122 81030 333 20212 58004;
0137827840999992006020818004-07317-039300FM-12+040999999V0203601N001512200019N0200001N1+03141+02131100751ADDGF101991011021008001001001MA1999999096271MD1999999+0041REMSYN070AAXX  08184 82784 32598 13603 10314 20213 39627 40075 81200 333 58004;
0168827840999992006020900004-07317-039300FM-12+040999999V0202701N000512200019N0020001N1+02601+02251100951ADDGF101991011001017501021001KA1240M+03291MA1999999096441MD1999999+0011REMSYN088AAXX  09004 82784 32795 12701 10260 20225 39644 40095 81020 333 10329 29072 55100 58001;
0156827840999992006020912004-07317-039300FM-12+040999999V0209999C000010075019N0200001N1+02581+02231101341ADDGF108991081041008001999999KA1240N+02201MA1999999096821MD1999999+0131REMSYN076AAXX  09124 82784 32598 80000 10258 20223 39682 40134 884// 333 20220 58013;
0137827840999992006020918004-07317-039300FM-12+040999999V0203601N001512200019N0200001N1+03191+02271100821ADDGF103991011021008001011051MA1999999096351MD1999999+0081REMSYN070AAXX  09184 82784 32598 33603 10319 20227 39635 40082 81215 333 58008;
0168827840999992006021000004-07317-039300FM-12+040999999V0201801N001512200019N0020001N1+02681+02331101031ADDGF102991021001017501021001KA1240M+03341MA1999999096531MD1999999+0091REMSYN088AAXX  10004 82784 32795 21803 10268 20233 39653 40103 82020 333 10334 29075 55084 58009;
0156827840999992006021012004-07317-039300FM-12+040999999V0202701N001010075019N0200001N1+02441+02211101331ADDGF108991081061008001999999KA1240N+02391MA1999999096801MD1999999-0021REMSYN076AAXX  10124 82784 32598 82702 10244 20221 39680 40133 886// 333 20239 59002;
0182827840999992006021018004-07317-039300FM-12+040999999V0203601N001510450019N0200001N1+03021+02311100991ADDAA106000391AY151061AY221061GF107991021021008001031001MA1999999096511MD1999999+0161MW1021REMSYN082AAXX  10184 82784 21598 73603 10302 20231 39651 40099 70252 82230 333 58016 69931;
0168827840999992006021100004-07317-039300FM-12+040999999V0209999C000010450019N0020001N1+02851+02381101181ADDGF105991011041008001021001KA1240M+03211MA1999999096651MD1999999+0121REMSYN088AAXX  11004 82784 32595 50000 10285 20238 39665 40118 81420 333 10321 29083 55053 58012;
0201827840999992006021112004-07317-039300FM-12+040999999V0203601N001510450019N0200001N1+02491+02191101491ADDAA124000391AY151061AY251061GF106991041041008001031001KA1240N+02201MA1999999096941MD1999999+0141MW1021REMSYN088AAXX  11124 82784 21598 63603 10249 20219 39694 40149 70255 84430 333 20220 58014 69934;
0137827840999992006021118004-07317-039300FM-12+040999999V0203601N001510120019N0200001N1+03041+02261100911ADDGF106991061081008001001001MA1999999096411MD1999999+0021REMSYN070AAXX  11184 82784 32598 63603 10304 20226 39641 40091 86800 333 58002;
0168827840999992006021200004-07317-039300FM-12+040999999V0201801N001012200019N0020001N1+02551+02311101141ADDGF103991021041008001021001KA1240M+03161MA1999999096611MD1999999-0051REMSYN088AAXX  12004 82784 32595 31802 10255 20231 39661 40114 82420 333 10316 29080 55069 59005;
0201827840999992006021212004-07317-039300FM-12+040999999V0209999C000010120019N0200001N1+02511+02331101291ADDAA124001091AY121061AY221061GF107991071081008001001001KA1240N+02241MA1999999096761MD1999999-0181MW1211REMSYN088AAXX  12124 82784 21598 70000 10251 20233 39676 40129 72122 87800 333 20224 59018 60014;
0137827840999992006021218004-07317-039300FM-12+040999999V0203201N001010120019N0200001N1+02881+02321100871ADDGF107991071081008001001001MA1999999096381MD1999999-0031REMSYN070AAXX  12184 82784 32598 73202 10288 20232 39638 40087 87800 333 59003;
0168827840999992006021300004-07317-039300FM-12+040999999V0201801N000510120019N0020001N1+02561+02361101071ADDGF108991081081008001999999KA1240M+02971MA1999999096551MD1999999-0061REMSYN088AAXX  13004 82784 32595 81801 10256 20236 39655 40107 888// 333 10297 29085 55014 59006;
0201827840999992006021312004-07317-039300FM-12+040999999V0203601N000510075019N0200001N1+02351+02291101381ADDAA124004191AY161061AY221061GF108991081061008001999999KA1240N+02211MA1999999096831MD1999999+0071MW1201REMSYN088AAXX  13124 82784 21598 83601 10235 20229 39683 40138 72062 886// 333 20221 58007 60044;
0137827840999992006021318004-07317-039300FM-12+040999999V0203601N002110450019N0200001N1+02991+02321100871ADDGF107991021021008001031001MA1999999096381MD1999999+0001REMSYN070AAXX  13184 82784 32598 73604 10299 20232 39638 40087 82230 333 58000;
0168827840999992006021400004-07317-039300FM-12+040999999V0209999C000010450019N0020001N1+02531+02361101001ADDGF105991031041008001031001KA1240M+03141MA1999999096461MD1999999-0091REMSYN088AAXX  14004 82784 32595 50000 10253 20236 39646 40100 83430 333 10314 29086 55049 59009;
0201827840999992006021412004-07317-039300FM-12+040999999V0202701N001510075019N0200001N1+02121+02091101421ADDAA124047091AY191061AY261061GF108991081071008001999999KA1240N+02051MA1999999096841MD1999999+0011MW1211REMSYN088AAXX  14124 82784 21598 82703 10212 20209 39684 40142 72196 887// 333 20205 58001 60474;
0182827840999992006021418004-07317-039300FM-12+040999999V0202701N002110075019N0200001N1+02561+02231101021ADDAA106000591AY151061AY221061GF108991081051008001999999MA1999999096501MD1999999+0121MW1021REMSYN082AAXX  14184 82784 21598 82704 10256 20223 39650 40102 70252 885// 333 58012 69961;
0168827840999992006021500004-07317-039300FM-12+040999999V0202301N000510450019N0020001N1+02221+02121101191ADDGF107991041081008001031001KA1240M+02751MA1999999096591MD1999999+0131REMSYN088AAXX  15004 82784 32595 72301 10222 20212 39659 40119 84830 333 10275 29092 55008 58013;
0201827840999992006021512004-07317-039300FM-12+040999999V0203601N000510075019N0200001N1+02381+02291101281ADDAA124007991AY191061AY261061GF108991071061008001031999KA1240N+02101MA1999999096701MD1999999-0141MW1021REMSYN088AAXX  15124 82784 21598 83601 10238 20229 39670 40128 70296 8763/ 333 20210 59014 60084;
0137827840999992006021518004-07317-039300FM-12+040999999V0202701N001510450019N0200001N1+03001+02271100871ADDGF105991041021008001031001MA1999999096311MD1999999-0191REMSYN070AAXX  15184 82784 32598 52703 10300 20227 39631 40087 84230 333 59019;
0168827840999992006021600004-07317-039300FM-12+040999999V0209999C000010450019N0020001N1+02431+02321101031ADDGF106991041081008001021001KA1240M+03071MA1999999096481MD1999999-0111REMSYN088AAXX  16004 82784 32595 60000 10243 20232 39648 40103 84820 333 10307 29087 55037 59011;
0201827840999992006021612004-07317-039300FM-12+040999999V0202301N001510075019N0200001N1+02321+02161101251ADDAA124026991AY191061AY261061GF108991081061008001999999KA1240N+02081MA1999999096681MD1999999-0021MW1021REMSYN088AAXX  16124 82784 21598 82303 10232 20216 39668 40125 70296 886// 333 20208 59002 60274;
0137827840999992006021618004-07317-039300FM-12+040999999V0203601N001510450019N0200001N1+02981+02351100751ADDGF106991041021008001031001MA1999999096241MD1999999-0071REMSYN070AAXX  16184 82784 32598 63603 10298 20235 39624 40075 84230 333 59007;
0168827840999992006021700004-07317-039300FM-12+040999999V0209999C000012200019N0020001N1+02521+02401101021ADDGF103991011041008001031001KA1240M+03121MA1999999096471MD1999999-0011REMSYN088AAXX  17004 82784 32595 30000 10252 20240 39647 40102 81430 333 10312 29086 55066 59001;
0156827840999992006021712004-07317-039300FM-12+040999999V0203601N001510075019N0200001N1+02421+02301101191ADDGF107991071051008001001001KA1240N+02201MA1999999096651MD1999999-0031REMSYN076AAXX  17124 82784 32598 73603 10242 20230 39665 40119 87500 333 20220 59003;
0137827840999992006021718004-07317-039300FM-12+040999999V0200501N002110075019N0200001N1+02931+02291100821ADDGF107991071021008001001001MA1999999096321MD1999999+0081REMSYN070AAXX  17184 82784 32598 70504 10293 20229 39632 40082 87200 333 58008;
0178827840999992006021800004-07317-039300FM-12+040999999V0209999C000012200019N0020001N1+02451+02301101031ADDGA1001+999999999GF100991001001999999001001KA1240M+03061MA1999999096491MD1999999+0021REMSYN082AAXX  18004 82784 32995 00000 10245 20230 39649 40103 333 10306 29086 55077 58002;
0201827840999992006021812004-07317-039300FM-12+040999999V0203601N000510120019N0200001N1+02251+02141101041ADDAA124008991AY101061AY201061GF108991081081008001999999KA1240N+01921MA1999999096841MD1999999+0191MW1201REMSYN088AAXX  18124 82784 21598 83601 10225 20214 39684 40104 72000 888// 333 20192 58019 60094;
0137827840999992006021818004-07317-039300FM-12+040999999V0200901N000510450019N0200001N1+03011+02341100891ADDGF106991031021008001021001MA1999999096371MD1999999+0051REMSYN070AAXX  18184 82784 32598 60901 10301 20234 39637 40089 83220 333 58005;
0213827840999992006021900004-07317-039300FM-12+040999999V0200901N001510120019N0020001N1+02341+02261101311ADDAA106002091AY121061AY221061GF108991081081008001999999KA1240M+03111MA1999999096731MD1999999+0241MW1201REMSYN100AAXX  19004 82784 21595 80903 10234 20226 39673 40131 72022 888// 333 10311 29088 55066 58024 60021;
0201827840999992006021912004-07317-039300FM-12+040999999V0203601N001010120019N0200001N1+02381+02281101461ADDAA124016091AY191061AY251061GF107991071081008001001001KA1240N+02161MA1999999096881MD1999999+0041MW1211REMSYN088AAXX  19124 82784 21598 73602 10238 20228 39688 40146 72195 87800 333 20216 58004 60164;
0137827840999992006021918004-07317-039300FM-12+040999999V0203601N002610450019N0200001N1+02961+02311101041ADDGF106991031021008001031091MA1999999096541MD1999999+0241REMSYN070AAXX  19184 82784 32598 63605 10296 20231 39654 40104 83239 333 58024;
0178827840999992006022000004-07317-039300FM-12+040999999V0209999C000012200019N0020001N1+02481+02381101151ADDGA1001+999999999GF100991001001999999001001KA1240M+03041MA1999999096611MD1999999-0121REMSYN082AAXX  20004 82784 32995 00000 10248 20238 39661 40115 333 10304 29088 55060 59012;
0201827840999992006022012004-07317-039300FM-12+040999999V0200501N002110075019N0200001N1+02611+02331101251ADDAA124003091AY161061AY221061GF108991081021008001999999KA1240N+02281MA1999999096721MD1999999-0161MW1021REMSYN088AAXX  20124 82784 21598 80504 10261 20233 39672 40125 70262 882// 333 20228 59016 60034;
0147827840999992006022018004-07317-039300FM-12+040999999V0200501N002112200019N0200001N1+03151+01961100901ADDGA1001+999999999GF100991001001999999001001MA1999999096421MD1999999-0121REMSYN064AAXX  20184 82784 32598 00504 10315 20196 39642 40090 333 59012;
0178827840999992006022100004-07317-039300FM-12+040999999V0203601N000512200019N0020001N1+02361+02151100911ADDGA1001+999999999GF100991001001999999001001KA1240M+03231MA1999999096391MD1999999-0221REMSYN082AAXX  21004 82784 32995 03601 10236 20215 39639 40091 333 10323 29078 55097 59022;
0156827840999992006022112004-07317-039300FM-12+040999999V0203601N000510075019N0200001N1+02461+02231101281ADDGF108991081021008001999999KA1240N+02061MA1999999096721MD1999999+0001REMSYN076AAXX  21124 82784 32598 83601 10246 20223 39672 40128 882// 333 20206 58000;
0137827840999992006022118004-07317-039300FM-12+040999999V0200901N000510450019N0200001N1+03001+02241100811ADDGF107991031021008001011001MA1999999096311MD1999999-0111REMSYN070AAXX  21184 82784 32598 70901 10300 20224 39631 40081 83210 333 59011;
0178827840999992006022200004-07317-039300FM-12+040999999V0209999C000012200019N0020001N1+02401+02241100941ADDGA1001+999999999GF100991001001999999001001KA1240M+03111MA1999999096411MD1999999+0021REMSYN082AAXX  22004 82784 32995 00000 10240 20224 39641 40094 333 10311 29083 55082 58002;
0156827840999992006022212004-07317-039300FM-12+040999999V0203201N001510075019N0200001N1+02581+02291101211ADDGF107991071021008001001001KA1240N+02081MA1999999096671MD1999999-0051REMSYN076AAXX  22124 82784 32598 73203 10258 20229 39667 40121 87200 333 20208 59005;
0137827840999992006022218004-07317-039300FM-12+040999999V0203201N002110075019N0200001N1+02921+02271100791ADDGF108991051061008001031001MA1999999096271MD1999999-0041REMSYN070AAXX  22184 82784 32598 83204 10292 20227 39627 40079 85630 333 59004;
0213827840999992006022300004-07317-039300FM-12+040999999V0209999C000010075019N0020001N1+02151+02111101301ADDAA106007991AY121061AY221061GF108991081091008001999999KA1240M+03061MA1999999096731MD1999999+0321MW1211REMSYN100AAXX  23004 82784 21595 80000 10215 20211 39673 40130 72122 889// 333 10306 29086 55062 58032 60081;
0201827840999992006022312004-07317-039300FM-12+040999999V0200901N001012200019N0200001N1+02471+02251101291ADDAA124010991AY161061AY221061GF103991021021008001011001KA1240N+02061MA1999999096711MD1999999+0041MW1021REMSYN088AAXX  23124 82784 21598 30902 10247 20225 39671 40129 70262 82210 333 20206 58004 60114;
0137827840999992006022318004-07317-039300FM-12+040999999V0202701N002110450019N0200001N1+03031+02391100791ADDGF106991031021008001041001MA1999999096281MD1999999+0011REMSYN070AAXX  23184 82784 32598 62704 10303 20239 39628 40079 83240 333 58001;
0168827840999992006022400004-07317-039300FM-12+040999999V0209999C000012200019N0020001N1+02551+02471101101ADDGF101991011041008001001001KA1240M+03161MA1999999096571MD1999999-0161REMSYN088AAXX  24004 82784 32595 10000 10255 20247 39657 40110 81400 333 10316 29087 55087 59016;
0201827840999992006022412004-07317-039300FM-12+040999999V0201801N001510075019N0200001N1+02261+02231101301ADDAA124007191AY191061AY211061GF108991081071008001999999KA1240N+02211MA1999999096741MD1999999+0031MW1211REMSYN088AAXX  24124 82784 21598 81803 10226 20223 39674 40130 72191 887// 333 20221 58003 60074;
0182827840999992006022418004-07317-039300FM-12+040999999V0202701N001510075019N0200001N1+02931+02401100781ADDAA106000891AY151061AY221061GF108991061051008001021999MA1999999096291MD1999999+0011MW1171REMSYN082AAXX  24184 82784 21598 82703 10293 20240 39629 40078 71752 8652/ 333 58001 69981;
0168827840999992006022500004-07317-039300FM-12+040999999V0209999C000012200019N0020001N1+02441+02351101041ADDGF102991021041008001001001KA1240M+03041MA1999999096481MD1999999-0091REMSYN088AAXX  25004 82784 32595 20000 10244 20235 39648 40104 82400 333 10304 29090 55031 59009;
0201827840999992006022512004-07317-039300FM-12+040999999V0200901N002110075019N0200001N1+02581+02421101231ADDAA124000021AY111061AY211061GF106991061021008001001001KA1240N+02211MA1999999096691MD1999999+0041MW1211REMSYN088AAXX  25124 82784 21598 60904 10258 20242 39669 40123 72111 86200 333 20221 58004 69914;
0137827840999992006022518004-07317-039300FM-12+040999999V0200901N001512200019N0200001N1+03031+02361100811ADDGF103991031021008001001001MA1999999096331MD1999999+0041REMSYN070AAXX  25184 82784 32598 30903 10303 20236 39633 40081 83200 333 58004;
0156827840999992006022612004-07317-039300FM-12+040999999V0200901N000510120019N0200001N1+02521+02341101161ADDGF107991071081008001001001KA1240N+02301MA1999999096631MD1999999-0061REMSYN076AAXX  26124 82784 32598 70901 10252 20234 39663 40116 87800 333 20230 59006;
0137827840999992006022618004-07317-039300FM-12+040999999V0200901N002612200019N0200001N1+03081+02401100691ADDGF104991041021008001001001MA1999999096221MD1999999-0111REMSYN070AAXX  26184 82784 32598 40905 10308 20240 39622 40069 84200 333 59011;
0168827840999992006022700004-07317-039300FM-12+040999999V0209999C000012200019N0020001N1+02571+02401101011ADDGF102991021041008001001001KA1240M+03151MA1999999096491MD1999999+0071REMSYN088AAXX  27004 82784 32595 20000 10257 20240 39649 40101 82400 333 10315 29084 55075 58007;
0156827840999992006022712004-07317-039300FM-12+040999999V0203601N001010075019N0200001N1+02531+02401101171ADDGF108991081021008001999999KA1240N+02321MA1999999096651MD1999999+0021REMSYN076AAXX  27124 82784 32598 83602 10253 20240 39665 40117 882// 333 20232 58002;
0137827840999992006022718004-07317-039300FM-12+040999999V0200901N001510075019N0200001N1+03041+02311100731ADDGF106991061021008001001001MA1999999096261MD1999999+0041REMSYN070AAXX  27184 82784 32598 60903 10304 20231 39626 40073 86200 333 58004;
0178827840999992006022800004-07317-039300FM-12+040999999V0209999C000012200019N0020001N1+02521+02341101031ADDGA1001+999999999GF100991001001999999001001KA1240M+03111MA1999999096501MD1999999+0011REMSYN082AAXX  28004 82784 32995 00000 10252 20234 39650 40103 333 10311 29084 55081 58001;
0214827840999992006022812004-07317-039300FM-12+040999999V0200901N001010075019N0200001N1+02271+02241101351ADDAA124029091AY191061AY261061GF108991081071008001999999KA1240N+02221MA1999999096791MD1999999+0141REMSYN088AAXX  28124 82784 21598 80902 10227 20224 39679 40135 72296 887// 333 20222 58014 60294;EQDQ01+000222PRSWM1
0137827840999992006022818004-07317-039300FM-12+040999999V0200501N002110075019N0200001N1+02821+02331100941ADDGF108991081021008001999999MA1999999096431MD1999999+0171REMSYN070AAXX  28184 82784 32598 80504 10282 20233 39643 40094 882// 333 58017;
0178827840999992006030100004-07317-039300FM-12+040999999V0209999C000012200019N0020001N1+02491+02371101091ADDGA1001+999999999GF100991001001999999001001KA1240M+02951MA1999999096531MD1999999+0031REMSYN082AAXX  01004 82784 32995 00000 10249 20237 39653 40109 333 10295 29091 55046 58003;
0201827840999992006030112004-07317-039300FM-12+040999999V0201401N001510075019N0200001N1+02231+02191101381ADDAA124006191AY121061AY221061GF108991081071008001999999KA1240N+02181MA1999999096811MD1999999+0021MW1211REMSYN088AAXX  01124 82784 21598 81403 10223 20219 39681 40138 72122 887// 333 20218 58002 60064;
0201827840999992006030118004-07317-039300FM-12+040999999V0200901N002110075019N0200001N1+02641+02351101001ADDAA106005191AY161061AY221061GF108991999021008001001001MA1999999096471MD1999999+0041MW1021REMSYN082AAXX  01184 82784 21598 80904 10264 20235 39647 40100 70262 86200 333 58004 60051;EQDQ01+000062SCOTLC
0168827840999992006030200004-07317-039300FM-12+040999999V0209999C000010075019N0020001N1+02381+02311101271ADDGF106991061021008001001001KA1240M+02731MA1999999096691MD1999999+0161REMSYN088AAXX  02004 82784 32595 60000 10238 20231 39669 40127 86200 333 10273 29094 55005 58016;
0173827840999992006030212004-07317-039300FM-12+040999999V0203201N001010075019N0200001N1+02531+02271101431ADDAA124005191GF108991071021008001011999KA1240N+02161MA1999999096871MD1999999+0061REMSYN082AAXX  02124 82784 22598 83202 10253 20227 39687 40143 8721/ 333 20216 58006 60054;
0165827840999992006030218004-07317-039300FM-12+040999999V0200901N001510075019N0200001N1+02681+02311101091ADDAY121061AY221061GF108991081051008001999999MA1999999096551MD1999999+0081MW1151REMSYN076AAXX  02184 82784 31598 80903 10268 20231 39655 40109 71522 885// 333 58008;
0168827840999992006030300004-07317-039300FM-12+040999999V0209999C000010075019N0020001N1+02391+02351101251ADDGF106991061021008001001001KA1240M+02831MA1999999096701MD1999999+0011REMSYN088AAXX  03004 82784 32595 60000 10239 20235 39670 40125 86200 333 10283 29090 55028 58001;
0156827840999992006030312004-07317-039300FM-12+040999999V0200901N001010075019N0200001N1+02901+02321101321ADDGF106991061021008001001001KA1240N+02241MA1999999096811MD1999999-0061REMSYN076AAXX  03124 82784 32598 60902 10290 20232 39681 40132 86200 333 20224 59006;
0137827840999992006030318004-07317-039300FM-12+040999999V0200901N003110075019N0200001N1+02811+02461101001ADDGF107991061051008001031001MA1999999096481MD1999999-0071REMSYN070AAXX  03184 82784 32598 70906 10281 20246 39648 40100 86530 333 59007;
0168827840999992006030400004-07317-039300FM-12+040999999V0209999C000010120019N0020001N1+02451+02371101201ADDGF106991061081008001001001KA1240M+02951MA1999999096691MD1999999-0011REMSYN088AAXX  04004 82784 32595 60000 10245 20237 39669 40120 86800 333 10295 29086 55087 59001;
0156827840999992006030412004-07317-039300FM-12+040999999V0200901N002110075019N0200001N1+02641+02291101321ADDGF106991061021008001001001KA1240N+02221MA1999999096791MD1999999-0021REMSYN076AAXX  04124 82784 32598 60904 10264 20229 39679 40132 86200 333 20222 59002;
0137827840999992006030418004-07317-039300FM-12+040999999V0200901N003112200019N0200001N1+02911+02271101021ADDGF104991041021008001001001MA1999999096521MD1999999+0041REMSYN070AAXX  04184 82784 32598 40906 10291 20227 39652 40102 84200 333 58004;
0178827840999992006030500004-07317-039300FM-12+040999999V0209999C000012200019N0020001N1+02521+02381101181ADDGA1001+999999999GF100991001001999999001001KA1240M+03131MA1999999096661MD1999999-0031REMSYN082AAXX  05004 82784 32995 00000 10252 20238 39666 40118 333 10313 29083 55096 59003;
0175827840999992006030512004-07317-039300FM-12+040999999V0201401N001519999999N0200001N1+02671+02331101461ADDGF105991999021008001001001KA1240N+02291MA1999999096931MD1999999+0171REMSYN076AAXX  05124 82784 32598 51403 10267 20233 39693 40146 84200 333 20229 58017;EQDQ01+000042SCOTLC
0156827840999992006030518004-07317-039300FM-12+040999999V0200901N002119999999N0200001N1+03051+02411101021ADDGF105991999021008001001001MA1999999096541MD1999999+0021REMSYN070AAXX  05184 82784 32598 50904 10305 20241 39654 40102 83200 333 58002;EQDQ01+000032SCOTLC
0178827840999992006030600004-07317-039300FM-12+040999999V0209999C000012200019N0020001N1+02521+02341101211ADDGA1001+999999999GF100991001001999999001001KA1240M+03131MA1999999096691MD1999999+0031REMSYN082AAXX  06004 82784 32995 00000 10252 20234 39669 40121 333 10313 29083 55109 58003;
0156827840999992006030612004-07317-039300FM-12+040999999V0203601N002610075019N0200001N1+02581+02151101311ADDGF106991061021008001001001KA1240N+02191MA1999999096781MD1999999-0151REMSYN076AAXX  06124 82784 32598 63605 10258 20215 39678 40131 86200 333 20219 59015;
0156827840999992006030618004-07317-039300FM-12+040999999V0200901N002612200019N0200001N1+03001+02171101001ADDGF102991999021008001001001MA1999999096511MD1999999-0031REMSYN070AAXX  06184 82784 32598 20905 10300 20217 39651 40100 83200 333 59003;EQDQ01+000032SCOTLC
0178827840999992006030700004-07317-039300FM-12+040999999V0209999C000012200019N0020001N1+02481+02301101221ADDGA1001+999999999GF100991001001999999001001KA1240M+03051MA1999999096691MD1999999+0001REMSYN082AAXX  07004 82784 32995 00000 10248 20230 39669 40122 333 10305 29080 55104 58000;
0156827840999992006030712004-07317-039300FM-12+040999999V0201801N003110075019N0200001N1+02601+02141101301ADDGF106991061021008001001001KA1240N+02261MA1999999096771MD1999999-0011REMSYN076AAXX  07124 82784 32598 61806 10260 20214 39677 40130 86200 333 20226 59001;
0137827840999992006030718004-07317-039300FM-12+040999999V0201801N003110075019N0200001N1+02981+02121100871ADDGF105991051011008001001001MA1999999096361MD1999999-0151REMSYN070AAXX  07184 82784 32598 51806 10298 20212 39636 40087 85100 333 59015;
0178827840999992006030800004-07317-039300FM-12+040999999V0202701N001512200019N0020001N1+02421+02171101031ADDGA1001+999999999GF100991001001999999001001KA1240M+03111MA1999999096501MD1999999-0191REMSYN082AAXX  08004 82784 32995 02703 10242 20217 39650 40103 333 10311 29077 55097 59019;
0156827840999992006030812004-07317-039300FM-12+040999999V0202701N000510042019N0200001N1+02511+02311101251ADDGF108991081051004501999999KA1240N+02161MA1999999096701MD1999999-0071REMSYN076AAXX  08124 82784 32498 82701 10251 20231 39670 40125 885// 333 20216 59007;
0137827840999992006030818004-07317-039300FM-12+040999999V0201801N003110075019N0200001N1+02981+02091100821ADDGF108991051021008001011999MA1999999096261MD1999999-0101REMSYN070AAXX  08184 82784 32598 81806 10298 20209 39626 40082 8521/ 333 59010;
0168827840999992006030900004-07317-039300FM-12+040999999V0209999C000019999999N0020001N1+02411+02191101021ADDGF105991051001017501001011KA1240M+03081MA1999999096481MD1999999-0021REMSYN088AAXX  09004 82784 32795 50000 10241 20219 39648 40102 85001 333 10308 29081 55072 59002;
0156827840999992006030912004-07317-039300FM-12+040999999V0203601N001010075019N0200001N1+02481+02191101241ADDGF108991081061008001999999KA1240N+02191MA1999999096691MD1999999-0011REMSYN076AAXX  09124 82784 32598 83602 10248 20219 39669 40124 886// 333 20219 59001;
0137827840999992006030918004-07317-039300FM-12+040999999V0200501N002110075019N0200001N1+02951+02281100891ADDGF107991071021008001001001MA1999999096381MD1999999+0121REMSYN070AAXX  09184 82784 32598 70504 10295 20228 39638 40089 87200 333 58012;
0168827840999992006031000004-07317-039300FM-12+040999999V0201801N000512200019N0020001N1+02511+02331101021ADDGF101991011001017501031001KA1240M+03051MA1999999096491MD1999999+0011REMSYN088AAXX  10004 82784 32795 11801 10251 20233 39649 40102 81030 333 10305 29082 55066 58001;
0156827840999992006031012004-07317-039300FM-12+040999999V0203601N001510075019N0200001N1+02501+02211101221ADDGF108991081021008001001001KA1240N+02261MA1999999096681MD1999999-0011REMSYN076AAXX  10124 82784 32598 83603 10250 20221 39668 40122 88200 333 20226 59001;
0137827840999992006031018004-07317-039300FM-12+040999999V0203201N002110075019N0200001N1+02981+02251100811ADDGF106991051021008001051001MA1999999096271MD1999999-0111REMSYN070AAXX  10184 82784 32598 63204 10298 20225 39627 40081 85250 333 59011;
0168827840999992006031100004-07317-039300FM-12+040999999V0209999C000012200019N0020001N1+02591+02571101031ADDGF104991021041008001031091KA1240M+03071MA1999999096511MD1999999+0021REMSYN088AAXX  11004 82784 32595 40000 10259 20257 39651 40103 82439 333 10307 29080 55063 58002;
0156827840999992006031112004-07317-039300FM-12+040999999V0203601N001510120019N0200001N1+02531+02311101321ADDGF106991061081008001001001KA1240N+02191MA1999999096791MD1999999+0111REMSYN076AAXX  11124 82784 32598 63603 10253 20231 39679 40132 86800 333 20219 58011;
0168827840999992006031200004-07317-039300FM-12+040999999V0209999C000012200019N0020001N1+02401+02211101091ADDGF103991021001017501021091KA1240M+03171MA1999999096551MD1999999+0041REMSYN088AAXX  12004 82784 32795 30000 10240 20221 39655 40109 82029 333 10317 29082 55070 58004;
0156827840999992006031212004-07317-039300FM-12+040999999V0200501N001012200019N0200001N1+02591+02371101291ADDGF104991041021008001001001KA1240N+02181MA1999999096751MD1999999-0041REMSYN076AAXX  12124 82784 32598 40502 10259 20237 39675 40129 84200 333 20218 59004;
0137827840999992006031218004-07317-039300FM-12+040999999V0203601N001010450019N0200001N1+03101+02411100671ADDGF106991031021008001021001MA1999999096211MD1999999-0111REMSYN070AAXX  12184 82784 32598 63602 10310 20241 39621 40067 83220 333 59011;
0168827840999992006031300004-07317-039300FM-12+040999999V0201801N000510150019N0020001N1+02521+02311100941ADDGF106991061001017501021001KA1240M+03191MA1999999096431MD1999999-0121REMSYN088AAXX  13004 82784 32795 61801 10252 20231 39643 40094 86020 333 10319 29082 55089 59012;
0214827840999992006031312004-07317-039300FM-12+040999999V0209999C000019999999N0040001N1+02321+02251101281ADDAA124009991AY161061AY251061GF108991081999999999999999KA1240N+02141MA1999999096721MD1999999-0031REMSYN088AAXX  13124 82784 21/96 80000 10232 20225 39672 40128 76765 88/// 333 20214 59003 60104;EQDQ01+000672PRSWM1
0182827840999992006031318004-07317-039300FM-12+040999999V0203601N001510075019N0200001N1+02851+02331100671ADDAA106007191AY151061AY221061GF107991051071008001041001MA1999999096131MD1999999-0081MW1021REMSYN082AAXX  13184 82784 21598 73603 10285 20233 39613 40067 70252 85740 333 59008 60071;
0168827840999992006031400004-07317-039300FM-12+040999999V0209999C000010090019N0020001N1+02531+02401101041ADDGF108991081081004501999999KA1240M+02931MA1999999096491MD1999999+0091REMSYN088AAXX  14004 82784 32495 80000 10253 20240 39649 40104 888// 333 10293 29089 55019 58009;
0137827840999992006031418004-07317-039300FM-12+040999999V0203201N002110450019N0200001N1+02801+02341100821ADDGF105991041021008001041001MA1999999096271MD1999999+0101REMSYN070AAXX  14184 82784 32598 53204 10280 20234 39627 40082 84240 333 58010;
0168827840999992006031500004-07317-039300FM-12+040999999V0209999C000012200019N0020001N1+02401+02351101051ADDGF103991031001017501001011KA1240M+02911MA1999999096491MD1999999+0001REMSYN088AAXX  15004 82784 32795 30000 10240 20235 39649 40105 83001 333 10291 29092 55049 58000;
0201827840999992006031512004-07317-039300FM-12+040999999V0201801N001010075019N0200001N1+02541+02351101251ADDAA124006191AY161061AY221061GF107991051021008001011001KA1240N+02141MA1999999096701MD1999999+0091MW1021REMSYN088AAXX  15124 82784 21598 71802 10254 20235 39670 40125 70262 85210 333 20214 58009 60064;
0137827840999992006031518004-07317-039300FM-12+040999999V0200501N002112200019N0200001N1+02951+02331100871ADDGF104991041051008001001001MA1999999096361MD1999999+0091REMSYN070AAXX  15184 82784 32598 40504 10295 20233 39636 40087 84500 333 58009;
0201827840999992006031612004-07317-039300FM-12+040999999V0200501N002110450019N0200001N1+02551+02111101311ADDAA124007191AY161061AY221061GF106991041021008001031001KA1240N+02211MA1999999096771MD1999999+0071MW1021REMSYN088AAXX  16124 82784 21598 60504 10255 20211 39677 40131 70262 84230 333 20221 58007 60074;
0137827840999992006031618004-07317-039300FM-12+040999999V0203601N001012200019N0200001N1+02911+02271100941ADDGF104991041021008001001001MA1999999096431MD1999999+0071REMSYN070AAXX  16184 82784 32598 43602 10291 20227 39643 40094 84200 333 58007;
0168827840999992006031700004-07317-039300FM-12+040999999V0201801N000510075019N0200001N1+02441+02301101031ADDGF106991061061008001001001KA1240M+03021MA1999999096501MD1999999-0021REMSYN088AAXX  17004 82784 32598 61801 10244 20230 39650 40103 86600 333 10302 29082 55096 59002;
0201827840999992006031712004-07317-039300FM-12+040999999V0200901N001010075019N0200001N1+02521+02381101131ADDAA124000591AY151061AY221061GF108991081061008001999999KA1240N+02211MA1999999096601MD1999999+0171MW1021REMSYN088AAXX  17124 82784 21598 80902 10252 20238 39660 40113 70252 886// 333 20221 58017 69964;
0137827840999992006031718004-07317-039300FM-12+040999999V0200501N002610450019N0200001N1+02981+02301100821ADDGF106991041021008001011001MA1999999096261MD1999999-0171REMSYN070AAXX  17184 82784 32598 60505 10298 20230 39626 40082 84210 333 59017;
0168827840999992006031800004-07317-039300FM-12+040999999V0209999C000012200019N0020001N1+02461+02341100901ADDGF102991011041008001001091KA1240M+03061MA1999999096381MD1999999-0121REMSYN088AAXX  18004 82784 32595 20000 10246 20234 39638 40090 81409 333 10306 29086 55082 59012;
0201827840999992006031812004-07317-039300FM-12+040999999V0202301N001510120019N0200001N1+02151+02141101341ADDAA124086191AY111061AY211061GF108991081081008001999999KA1240N+02011MA1999999096761MD1999999+0161MW1211REMSYN088AAXX  18124 82784 21598 82303 10215 20214 39676 40134 72111 888// 333 20201 58016 60864;
0137827840999992006031818004-07317-039300FM-12+040999999V0200501N001510450019N0200001N1+02791+02311100831ADDGF105991021021008001021001MA1999999096311MD1999999+0051REMSYN070AAXX  18184 82784 32598 50503 10279 20231 39631 40083 82220 333 58005;
0168827840999992006031900004-07317-039300FM-12+040999999V0202701N000512200019N0020001N1+02351+02261101091ADDGF101991011001017501021001KA1240M+02911MA1999999096511MD1999999+0131REMSYN088AAXX  19004 82784 32795 12701 10235 20226 39651 40109 81020 333 10291 29090 55059 58013;
0220827840999992006031912004-07317-039300FM-12+040999999V0202701N001019999999N0200001N1+02441+02341101241ADDAA124003091AY111061AY211061GF105991999021008001001001KA1240N+02131MA1999999096681MD1999999-0081MW1211REMSYN088AAXX  19124 82784 21598 52702 10244 20234 39668 40124 72111 83200 333 20213 59008 60034;EQDQ01+000032SCOTLC
0137827840999992006031918004-07317-039300FM-12+040999999V0203601N000510450019N0200001N1+02901+02271100801ADDGF106991041041008001021001MA1999999096301MD1999999-0011REMSYN070AAXX  19184 82784 32598 63601 10290 20227 39630 40080 84420 333 59001;
0168827840999992006032000004-07317-039300FM-12+040999999V0209999C000012200019N0020001N1+02501+02401101061ADDGF103991031021008001001001KA1240M+03011MA1999999096521MD1999999+0011REMSYN088AAXX  20004 82784 32595 30000 10250 20240 39652 40106 83200 333 10301 29088 55082 58001;
0201827840999992006032012004-07317-039300FM-12+040999999V0203601N001510042019N0200001N1+02321+02251101221ADDAA124007991AY161061AY251061GF108991081051004501999999KA1240N+02161MA1999999096661MD1999999-0021MW1021REMSYN088AAXX  20124 82784 21498 83603 10232 20225 39666 40122 70265 885// 333 20216 59002 60084;
0137827840999992006032018004-07317-039300FM-12+040999999V0200501N002110450019N0200001N1+02801+02201100841ADDGF106991031021008001031011MA1999999096291MD1999999-0011REMSYN070AAXX  20184 82784 32598 60504 10280 20220 39629 40084 83231 333 59001;
0196827840999992006032100004-07317-039300FM-12+040999999V0209999C000019999999N0020001N1+02361+02241101061ADDAY191061AY221061GF108991081081999999999999KA1240M+02951MA1999999096501MD1999999-0021MW1131REMSYN094AAXX  21004 82784 31/95 80000 10236 20224 39650 40106 71392 888// 333 10295 29088 55043 59002;
0201827840999992006032112004-07317-039300FM-12+040999999V0201401N002610075019N0200001N1+02691+02201101221ADDAA124001091AY151061AY221061GF105991051021008001001001KA1240N+02181MA1999999096681MD1999999+0021MW1021REMSYN088AAXX  21124 82784 21598 51405 10269 20220 39668 40122 70252 85200 333 20218 58002 69994;
0137827840999992006032118004-07317-039300FM-12+040999999V0201401N003110075019N0200001N1+03031+02021100861ADDGF105991051021008001001001MA1999999096341MD1999999+0051REMSYN070AAXX  21184 82784 32598 51406 10303 20202 39634 40086 85200 333 58005;
0168827840999992006032200004-07317-039300FM-12+040999999V0209999C000010075019N0020001N1+02461+02281101021ADDGF108991081071008001999999KA1240M+03101MA1999999096551MD1999999+0051REMSYN088AAXX  22004 82784 32595 80000 10246 20228 39655 40102 887// 333 10310 29077 55105 58005;
0201827840999992006032212004-07317-039300FM-12+040999999V0201801N002110450019N0200001N1+02641+02141101201ADDAA124000591AY151061AY221061GF108991031021008001011999KA1240N+02201MA1999999096671MD1999999-0011MW1021REMSYN088AAXX  22124 82784 21598 81804 10264 20214 39667 40120 70252 8321/ 333 20220 59001 69964;
0137827840999992006032218004-07317-039300FM-12+040999999V0200901N002112200019N0200001N1+02991+02001100831ADDGF103991021021008001031001MA1999999096341MD1999999+0001REMSYN070AAXX  22184 82784 32598 30904 10299 20200 39634 40083 82230 333 58000;
0168827840999992006032300004-07317-039300FM-12+040999999V0201801N000519999999N0200001N1+02441+02271101091ADDGF108991041999008001999999KA1240M+03061MA1999999096571MD1999999+0021REMSYN088AAXX  23004 82784 32598 81801 10244 20227 39657 40109 84/// 333 10306 29077 55094 58002;
0156827840999992006032312004-07317-039300FM-12+040999999V0200901N002110075019N0200001N1+02561+02331101261ADDGF108991051041008001051999KA1240N+02261MA1999999096721MD1999999+0051REMSYN076AAXX  23124 82784 32598 80904 10256 20233 39672 40126 8545/ 333 20226 58005;
0137827840999992006032318004-07317-039300FM-12+040999999V0200901N001510075019N0200001N1+02971+02351100741ADDGF107991051021008001021001MA1999999096251MD1999999-0091REMSYN070AAXX  23184 82784 32598 70903 10297 20235 39625 40074 85220 333 59009;
0213827840999992006032400004-07317-039300FM-12+040999999V0200901N003110075019N0200001N1+02251+02071101321ADDAA106006191AY121061AY221061GF108991081091008001999999KA1240M+03091MA1999999096761MD1999999+0191MW1951REMSYN100AAXX  24004 82784 21598 80906 10225 20207 39676 40132 79522 889// 333 10309 29084 55057 58019 60061;
0220827840999992006032412004-07317-039300FM-12+040999999V0200901N001510075019N0200001N1+02501+02321101281ADDAA124035191AY191061AY261061GF106991999021008001001001KA1240N+02061MA1999999096711MD1999999-0011MW1021REMSYN088AAXX  24124 82784 21598 60903 10250 20232 39671 40128 70296 85200 333 20206 59001 60354;EQDQ01+000052SCOTLC
0156827840999992006032418004-07317-039300FM-12+040999999V0203601N002619999999N0200001N1+02761+02421100881ADDGF108991999021008001001001MA1999999096351MD1999999+0101REMSYN070AAXX  24184 82784 32598 83605 10276 20242 39635 40088 84200 333 58010;EQDQ01+000042SCOTLC
0168827840999992006032500004-07317-039300FM-12+040999999V0200501N000510075019N0020001N1+02491+02361101221ADDGF106991061041008001001001KA1240M+02961MA1999999096681MD1999999-0081REMSYN088AAXX  25004 82784 32595 60501 10249 20236 39668 40122 86400 333 10296 29090 55035 59008;
0156827840999992006032512004-07317-039300FM-12+040999999V0200501N001510120019N0200001N1+02621+02311101311ADDGF106991051081008001001091KA1240N+02251MA1999999096781MD1999999+0071REMSYN076AAXX  25124 82784 32598 60503 10262 20231 39678 40131 85809 333 20225 58007;
0137827840999992006032518004-07317-039300FM-12+040999999V0200501N003110450019N0200001N1+02961+02231100961ADDGF105991031021008001021001MA1999999096441MD1999999+0091REMSYN070AAXX  25184 82784 32598 50506 10296 20223 39644 40096 83220 333 58009;
0178827840999992006032600004-07317-039300FM-12+040999999V0209999C000012200019N0020001N1+02381+02221101241ADDGA1001+999999999GF100991001001999999001001KA1240M+03031MA1999999096701MD1999999+0021REMSYN082AAXX  26004 82784 32995 00000 10238 20222 39670 40124 333 10303 29082 55076 58002;
0201827840999992006032612004-07317-039300FM-12+040999999V0200901N001510120019N0200001N1+02441+02321101451ADDAA124004191AY101061AY201061GF108991081081008001999999KA1240N+02111MA1999999096881MD1999999+0101MW1211REMSYN088AAXX  26124 82784 21598 80903 10244 20232 39688 40145 72100 888// 333 20211 58010 60044;
0137827840999992006032618004-07317-039300FM-12+040999999V0202701N001010450019N0200001N1+02741+02401100941ADDGF106991041041008001021001MA1999999096431MD1999999-0011REMSYN070AAXX  26184 82784 32598 62702 10274 20240 39643 40094 84420 333 59001;
0168827840999992006032700004-07317-039300FM-12+040999999V0202301N001510120019N0020001N1+02421+02351101311ADDGF106991061081008001001001KA1240M+02831MA1999999096761MD1999999+0061REMSYN088AAXX  27004 82784 32595 62303 10242 20235 39676 40131 86800 333 10283 29092 55000 58006;
0201827840999992006032712004-07317-039300FM-12+040999999V0202701N001010075019N0200001N1+02461+02341101521ADDAA124002091AY151061AY221061GF108991061071008001011999KA1240N+02141MA1999999096961MD1999999-0081MW1021REMSYN088AAXX  27124 82784 21598 82702 10246 20234 39696 40152 70252 8671/ 333 20214 59008 60024;
0137827840999992006032718004-07317-039300FM-12+040999999V0203601N001010450019N0200001N1+02971+02331100951ADDGF106991041021008001011011MA1999999096441MD1999999+0011REMSYN070AAXX  27184 82784 32598 63602 10297 20233 39644 40095 84211 333 58001;
0196827840999992006032800004-07317-039300FM-12+040999999V0202301N001012200019N0020001N1+02441+02341101291ADDAY111061AY201061GF103991031999999999999999KA1240M+03081MA1999999096741MD1999999-0021MW1131REMSYN094AAXX  28004 82784 31/95 32302 10244 20234 39674 40129 71310 83/// 333 10308 29087 55068 59002;
0201827840999992006032812004-07317-039300FM-12+040999999V0202701N001510042019N0200001N1+02341+02241101471ADDAA124018091AY161061AY221061GF108991081051004501999999KA1240N+02101MA1999999096901MD1999999-0061MW1021REMSYN088AAXX  28124 82784 21498 82703 10234 20224 39690 40147 70262 885// 333 20210 59006 60184;
0137827840999992006032818004-07317-039300FM-12+040999999V0203601N002110450019N0200001N1+02901+01851101031ADDGF107991041021008001041001MA1999999096371MD1999999-0071REMSYN070AAXX  28184 82784 32598 73604 10290 20185 39637 40103 84240 333 59007;
0178827840999992006032900004-07317-039300FM-12+040999999V0209999C000012200019N0020001N1+02421+02301101171ADDGA1001+999999999GF100991001001999999001001KA1240M+03001MA1999999096621MD1999999-0121REMSYN082AAXX  29004 82784 32995 00000 10242 20230 39662 40117 333 10300 29087 55053 59012;
0201827840999992006032912004-07317-039300FM-12+040999999V0209999C000010042019N0200001N1+02421+02321101351ADDAA124000891AY151061AY221061GF108991081051004501999999KA1240N+02201MA1999999096791MD1999999-0111MW1021REMSYN088AAXX  29124 82784 21498 80000 10242 20232 39679 40135 70252 885// 333 20220 59011 69984;
0137827840999992006032918004-07317-039300FM-12+040999999V0203601N002110075019N0200001N1+02941+02161100791ADDGF107991061021008001031001MA1999999096291MD1999999-0081REMSYN070AAXX  29184 82784 32598 73604 10294 20216 39629 40079 86230 333 59008;
0178827840999992006033000004-07317-039300FM-12+040999999V0209999C000012200019N0020001N1+02421+02321101221ADDGA1001+999999999GF100991001001999999001001KA1240M+03011MA1999999096661MD1999999+0041REMSYN082AAXX  30004 82784 32995 00000 10242 20232 39666 40122 333 10301 29086 55077 58004;
0201827840999992006033012004-07317-039300FM-12+040999999V0202301N000510075019N0200001N1+02241+02171101451ADDAA124007991AY161061AY211061GF108991081051008001999999KA1240N+02141MA1999999096871MD1999999+0081MW1211REMSYN088AAXX  30124 82784 21598 82301 10224 20217 39687 40145 72161 885// 333 20214 58008 60084;
0137827840999992006033018004-07317-039300FM-12+040999999V0200901N001010075019N0200001N1+02781+02321100911ADDGF106991051061008001031001MA1999999096401MD1999999+0111REMSYN070AAXX  30184 82784 32598 60902 10278 20232 39640 40091 85630 333 58011;
0168827840999992006033100004-07317-039300FM-12+040999999V0202301N000512200019N0020001N1+02341+02271101241ADDGF102991021051008001001001KA1240M+02901MA1999999096661MD1999999+0001REMSYN088AAXX  31004 82784 32595 22301 10234 20227 39666 40124 82500 333 10290 29091 55022 58000;
0201827840999992006033112004-07317-039300FM-12+040999999V0203601N000510075019N0200001N1+02451+02271101371ADDAA124000591AY151061AY211061GF108991081041008001999999KA1240N+02191MA1999999096811MD1999999-0061MW1021REMSYN088AAXX  31124 82784 21598 83601 10245 20227 39681 40137 70251 884// 333 20219 59006 69944;
0182827840999992006033118004-07317-039300FM-12+040999999V0200501N003110075019N0200001N1+02301+02181101031ADDAA106004191AY161061AY221061GF108991081051008001999999MA1999999096461MD1999999+0061MW1201REMSYN082AAXX  31184 82784 21598 80506 10230 20218 39646 40103 72062 885// 333 58006 60041;
0175827840999992006040100004-07317-039300FM-12+040999999V0200901N000512200019N0020001N1+99999+99999999999ADDGA1001+999999999GF100991001001999999001001KA1240M+02791MD1999999-0031REMSYN094AAXX  01004 82784 21995 00901 20219 20226 39663 40119 72066 333 10279 29094 55027 59003 69951;
0128827840999992006040112004-07317-039300FM-12+040999999V0201401N000519999999N0200001N1+02411+02231999999ADDGF106991999999008001999999REMSYN090AAXX  01124 82784 21598 61401 10241 20223 10080 20204 39686 40144 58005 60084 72155 84430;
0197827840999992006040118004-07317-039300FM-12+040999999V0200901N001019999999N0200001N1+02461+02271101191ADDAA106000891AY161061AY221061GF106991999081008001001001MA1999999096471MD1810011+9999MW1201REMSYN078AAXX  01184 82784 21598 60902 10246 20227 39647 40119 58001 69971 72062 88800;EQDQ01+000082SCOTLC
0138827840999992006040200004-07317-039300FM-12+040999999V0209999C000012200019N0020001N1+02281+02231999999ADDGA1001+999999999GF100991001001999999001001REMSYN084AAXX  02004 82784 21995 00000 10228 20223 10293 39678 40133 55043 58007 69911 70252;
0192827840999992006040212004-07317-039300FM-12+040999999V0200501N001010075019N0200001N1+02511+02271101311ADDAA124000891GF108991999021008001001001KA1240N+02141MA1999999096751MD1999999-0111REMSYN082AAXX  02124 82784 22598 80502 10251 20227 39675 40131 86200 333 20214 59011 69984;EQDQ01+000062SCOTLC
0137827840999992006040218004-07317-039300FM-12+040999999V0200901N006212200019N0200001N1+03011+02221100841ADDGF104991041021008001001001MA1999999096341MD1999999-0131REMSYN070AAXX  02184 82784 32598 40912 10301 20222 39634 40084 84200 333 59013;
0187827840999992006040300004-07317-039300FM-12+040999999V0201401N001010075019N0020001N1+02421+02251101251ADDGF107991999021008001001001KA1240M+03101MA1999999096701MD1999999+0001REMSYN088AAXX  03004 82784 32595 71402 10242 20225 39670 40125 85200 333 10310 29082 55072 58000;EQDQ01+000052SCOTLC
0201827840999992006040312004-07317-039300FM-12+040999999V0201401N001010075019N0200001N1+02561+02271101271ADDAA124008991AY161061AY221061GF106991061021008001001001KA1240N+02181MA1999999096731MD1999999-0021MW1021REMSYN088AAXX  03124 82784 21598 61402 10256 20227 39673 40127 70262 86200 333 20218 59002 60094;
0137827840999992006040318004-07317-039300FM-12+040999999V0201401N002110450019N0200001N1+03001+02391100791ADDGF106991041051008001041001MA1999999096331MD1999999-0011REMSYN070AAXX  03184 82784 32598 61404 10300 20239 39633 40079 84540 333 59001;
0201827840999992006040412004-07317-039300FM-12+040999999V0200501N001010042019N0100001N1+02241+02191101341ADDAA124026991AY161061AY261061GF108991081051004501999999KA1240N+02141MA1999999096771MD1999999+0041MW1631REMSYN088AAXX  04124 82784 21497 80502 10224 20219 39677 40134 76366 885// 333 20214 58004 60274;
0137827840999992006040418004-07317-039300FM-12+040999999V0202701N001510450019N0200001N1+02681+02111100911ADDGF107991031021008001041001MA1999999096351MD1999999+0021REMSYN070AAXX  04184 82784 32598 72703 10268 20211 39635 40091 83240 333 58002;
0168827840999992006040500004-07317-039300FM-12+040999999V0209999C000019999999N0020001N1+02321+02241101181ADDGF106991061001012501041001KA1240M+02851MA1999999096611MD1999999-0081REMSYN088AAXX  05004 82784 32695 60000 10232 20224 39661 40118 86040 333 10285 29090 55004 59008;
0201827840999992006040512004-07317-039300FM-12+040999999V0202701N001010042019N0200001N1+02411+02331101341ADDAA124000021AY151061AY221061GF108991061021004501051999KA1240N+02101MA1999999096761MD1999999-0011MW1151REMSYN088AAXX  05124 82784 21498 82702 10241 20233 39676 40134 71552 8625/ 333 20210 59001 69924;
0137827840999992006040518004-07317-039300FM-12+040999999V0203201N000510075019N0200001N1+02921+02431100811ADDGF105991051021008001001001MA1999999096301MD1999999-0051REMSYN070AAXX  05184 82784 32598 53201 10292 20243 39630 40081 85200 333 59005;
0168827840999992006040600004-07317-039300FM-12+040999999V0209999C000012200019N0200001N1+02481+02341101141ADDGF104991041041008001001001KA1240M+03031MA1999999096601MD1999999-0011REMSYN088AAXX  06004 82784 32598 40000 10248 20234 39660 40114 84400 333 10303 29089 55074 59001;
0201827840999992006040612004-07317-039300FM-12+040999999V0203601N000510450019N0200001N1+02381+02261101191ADDAA124007191AY161061AY221061GF108991011021008001031999KA1240N+02111MA1999999096651MD1999999-0011MW1021REMSYN088AAXX  06124 82784 21598 83601 10238 20226 39665 40119 70262 8123/ 333 20211 59001 60074;
0137827840999992006040618004-07317-039300FM-12+040999999V0203601N002112200019N0200001N1+02961+02311100761ADDGF104991031021008001021001MA1999999096261MD1999999-0041REMSYN070AAXX  06184 82784 32598 43604 10296 20231 39626 40076 83220 333 59004;
0178827840999992006040700004-07317-039300FM-12+040999999V0209999C000012200019N0020001N1+02401+02311101011ADDGA1001+999999999GF100991001001999999001001KA1240M+03051MA1999999096461MD1999999-0141REMSYN082AAXX  07004 82784 32995 00000 10240 20231 39646 40101 333 10305 29088 55071 59014;
0201827840999992006040712004-07317-039300FM-12+040999999V0203201N000510075019N0200001N1+02421+02331101161ADDAA124027991AY161061AY221061GF108991081051008001999999KA1240N+02181MA1999999096611MD1999999-0041MW1021REMSYN088AAXX  07124 82784 21598 83201 10242 20233 39661 40116 70262 885// 333 20218 59004 60284;
0137827840999992006040718004-07317-039300FM-12+040999999V0200501N002110075019N0200001N1+03011+02291100691ADDGF108991071021008001011999MA1999999096201MD1999999-0061REMSYN070AAXX  07184 82784 32598 80504 10301 20229 39620 40069 8721/ 333 59006;
0201827840999992006040812004-07317-039300FM-12+040999999V0200901N001510120019N0200001N1+02521+02341101121ADDAA124030091AY121061AY221061GF107991071081008001001001KA1240N+02111MA1999999096581MD1999999-0031MW1211REMSYN088AAXX  08124 82784 21598 70903 10252 20234 39658 40112 72122 87800 333 20211 59003 60304;
0137827840999992006040818004-07317-039300FM-12+040999999V0200901N001510450019N0200001N1+03031+02211100651ADDGF105991031021008001021001MA1999999096151MD1999999-0051REMSYN070AAXX  08184 82784 32598 50903 10303 20221 39615 40065 83220 333 59005;
0168827840999992006040900004-07317-039300FM-12+040999999V0209999C000012200019N0020001N1+02421+02331101001ADDGF101991011001017501021001KA1240M+03111MA1999999096461MD1999999-0091REMSYN088AAXX  09004 82784 32795 10000 10242 20233 39646 40100 81020 333 10311 29086 55072 59009;
0201827840999992006040912004-07317-039300FM-12+040999999V0202301N000512200019N0020001N1+02541+02351101101ADDAA124000021AY111061AY211061GF103991031021008001001001KA1240N+02161MA1999999096571MD1999999-0011MW1201REMSYN088AAXX  09124 82784 21595 32301 10254 20235 39657 40110 72011 83200 333 20216 59001 69924;
0137827840999992006040918004-07317-039300FM-12+040999999V0203601N001510450019N0200001N1+02841+02331100651ADDGF106991021021008001021001MA1999999096121MD1999999-0031REMSYN070AAXX  09184 82784 32598 63603 10284 20233 39612 40065 82220 333 59003;
0187827840999992006041000004-07317-039300FM-12+040999999V0209999C000012200019N0020001N1+02381+02361100881ADDGF102991999021017501021001KA1240M+02951MA1999999096351MD1999999-0111REMSYN088AAXX  10004 82784 32795 20000 10238 20236 39635 40088 85220 333 10295 29087 55055 59011;EQDQ01+000052SCOTLC
0156827840999992006041012004-07317-039300FM-12+040999999V0201401N000510042019N0200001N1+02501+02291101151ADDGF108991081051004501999999KA1240N+02141MA1999999096611MD1999999+0041REMSYN076AAXX  10124 82784 32498 81401 10250 20229 39661 40115 885// 333 20214 58004;
0217827840999992006041018004-07317-039300FM-12+040999999V0201401N001519999999N0200001N1+02741+02431100691ADDAA106000091AY151061AY221061GF107991999031004501041001MA1999999096131MD1999999+0011MW1021REMSYN082AAXX  10184 82784 21498 71403 10274 20243 39613 40069 70252 88340 333 58001 69911;EQDQ01+000082SCOTLCQ02  00002PRCP06
0196827840999992006041100004-07317-039300FM-12+040999999V0209999C000019999999N0020001N1+02251+02141100941ADDAY191061AY221061GF107991071001012501031999KA1240M+02891MA1999999096391MD1999999+0041MW1171REMSYN094AAXX  11004 82784 31695 70000 10225 20214 39639 40094 71792 8703/ 333 10289 29090 55033 58004;
0201827840999992006041112004-07317-039300FM-12+040999999V0209999C000010042019N0200001N1+02461+02341101081ADDAA124001091AY151061AY221061GF108991081051004501999999KA1240N+02201MA1999999096521MD1999999-0091MW1151REMSYN088AAXX  11124 82784 21498 80000 10246 20234 39652 40108 71552 885// 333 20220 59009 60014;
0165827840999992006041118004-07317-039300FM-12+040999999V0200901N001010042019N0200001N1+02901+02251100751ADDAY191061AY221061GF107991051051004501011001MA1999999096181MD1999999+0051MW1151REMSYN076AAXX  11184 82784 31498 70902 10290 20225 39618 40075 71592 85510 333 58005;
0196827840999992006041200004-07317-039300FM-12+040999999V0202301N000519999999N0020001N1+02451+02321101021ADDAY121061AY221061GF108991081001012501041999KA1240M+03011MA1999999096491MD1999999+0101MW1131REMSYN094AAXX  12004 82784 31695 82301 10245 20232 39649 40102 71322 8804/ 333 10301 29087 55050 58010;
0201827840999992006041212004-07317-039300FM-12+040999999V0203601N001510042019N0200001N1+02561+02291101231ADDAA124002091AY151061AY221061GF106991061021004501001001KA1240N+02151MA1999999096691MD1999999+0171MW1021REMSYN088AAXX  12124 82784 21498 63603 10256 20229 39669 40123 70252 86200 333 20215 58017 60024;
0137827840999992006041218004-07317-039300FM-12+040999999V0203601N002110075019N0200001N1+02971+02151100751ADDGF106991051021008001011001MA1999999096261MD1999999+0081REMSYN070AAXX  12184 82784 32598 63604 10297 20215 39626 40075 85210 333 58008;
0178827840999992006041300004-07317-039300FM-12+040999999V0201801N000512200019N0020001N1+02321+02201101101ADDGA1001+999999999GF100991001001999999001001KA1240M+03041MA1999999096561MD1999999+0071REMSYN082AAXX  13004 82784 32995 01801 10232 20220 39656 40110 333 10304 29083 55082 58007;
0156827840999992006041312004-07317-039300FM-12+040999999V0202701N001510075019N0200001N1+02561+02211101221ADDGF105991051021008001001001KA1240N+02111MA1999999096671MD1999999-0021REMSYN076AAXX  13124 82784 32598 52703 10256 20221 39667 40122 85200 333 20211 59002;
0137827840999992006041318004-07317-039300FM-12+040999999V0203201N000510075019N0200001N1+03041+02331100551ADDGF108991071021008001021999MA1999999096101MD1999999-0161REMSYN070AAXX  13184 82784 32598 83201 10304 20233 39610 40055 8722/ 333 59016;
0168827840999992006041400004-07317-039300FM-12+040999999V0209999C000010075019N0200001N1+02401+02311100951ADDGF105991051041008001001001KA1240M+03111MA1999999096431MD1999999-0131REMSYN088AAXX  14004 82784 32598 50000 10240 20231 39643 40095 85400 333 10311 29084 55081 59013;
0156827840999992006041412004-07317-039300FM-12+040999999V0202701N001010075019N0200001N1+02421+02251101101ADDGF108991081051008001999999KA1240N+02101MA1999999096551MD1999999-0121REMSYN076AAXX  14124 82784 32598 82702 10242 20225 39655 40110 885// 333 20210 59012;
0182827840999992006041418004-07317-039300FM-12+040999999V0203601N002110075019N0200001N1+02441+02211100671ADDAA106026991AY161061AY221061GF106991061061008001001001MA1999999096131MD1999999+0031MW1211REMSYN082AAXX  14184 82784 21598 63604 10244 20221 39613 40067 72162 86600 333 58003 60271;
0213827840999992006041500004-07317-039300FM-12+040999999V0201801N000512200019N0020001N1+02341+02271100931ADDAA106000021AY101061AY251061GF102991021001017501021001KA1240M+02931MA1999999096391MD1999999-0041MW1021REMSYN100AAXX  15004 82784 21795 21801 10234 20227 39639 40093 70205 82020 333 10293 29092 55037 59004 69911;
0201827840999992006041512004-07317-039300FM-12+040999999V0200901N000510075019N0200001N1+02441+02371101111ADDAA124026991AY161061AY261061GF107991071041008001001001KA1240N+02131MA1999999096561MD1999999+0011MW1201REMSYN088AAXX  15124 82784 21598 70901 10244 20237 39656 40111 72066 87400 333 20213 58001 60274;
0137827840999992006041518004-07317-039300FM-12+040999999V0200901N002112200019N0200001N1+02971+02281100681ADDGF103991031021008001001001MA1999999096141MD1999999+0011REMSYN070AAXX  15184 82784 32598 30904 10297 20228 39614 40068 83200 333 58001;
0213827840999992006041600004-07317-039300FM-12+040999999V0200901N000510120019N0020001N1+02241+02171101331ADDAA106013091AY121061AY221061GF108991081081008001999999KA1240M+03091MA1999999096761MD1999999+0371MW1611REMSYN100AAXX  16004 82784 21595 80901 10224 20217 39676 40133 76122 888// 333 10309 29088 55079 58037 60131;
0201827840999992006041612004-07317-039300FM-12+040999999V0203601N001010450019N0200001N1+02491+02341101451ADDAA124014091AY161061AY221061GF106991021021008001031001KA1240N+02101MA1999999096871MD1999999+0111MW1011REMSYN088AAXX  16124 82784 21598 63602 10249 20234 39687 40145 70162 82230 333 20210 58011 60144;
0137827840999992006041618004-07317-039300FM-12+040999999V0203601N001510450019N0200001N1+02891+02251101041ADDGF106991011021008001031001MA1999999096531MD1999999+0361REMSYN070AAXX  16184 82784 32598 63603 10289 20225 39653 40104 81230 333 58036;
0187827840999992006041700004-07317-039300FM-12+040999999V0202701N000512200019N0020001N1+02281+02141101321ADDGF102991999021008001001001KA1240M+02991MA1999999096761MD1999999+0001REMSYN088AAXX  17004 82784 32595 22701 10228 20214 39676 40132 83200 333 10299 29086 55035 58000;EQDQ01+000032SCOTLC
0201827840999992006041712004-07317-039300FM-12+040999999V0203601N001510042019N0200001N1+02641+02291101331ADDAA124001091AY151061AY221061GF106991061021004501001001KA1240N+02051MA1999999096781MD1999999-0091MW1021REMSYN088AAXX  17124 82784 21498 63603 10264 20229 39678 40133 70252 86200 333 20205 59009 60014;
0168827840999992006041800004-07317-039300FM-12+040999999V0200901N001010042019N0020001N1+02461+02271101161ADDGF106991061021004501001001KA1240M+03091MA1999999096641MD1999999-0121REMSYN088AAXX  18004 82784 32495 60902 10246 20227 39664 40116 86200 333 10309 29082 55065 59012;
0201827840999992006041812004-07317-039300FM-12+040999999V0201801N001510042019N0200001N1+02461+02321101301ADDAA124003091AY151061AY221061GF107991051051004501051011KA1240N+02101MA1999999096751MD1999999-0031MW1021REMSYN088AAXX  18124 82784 21498 71803 10246 20232 39675 40130 70252 85551 333 20210 59003 60034;
0137827840999992006041818004-07317-039300FM-12+040999999V0202301N001010450019N0200001N1+03051+02331100831ADDGF108991041031008001041999MA1999999096271MD1999999-0181REMSYN070AAXX  18184 82784 32598 82302 10305 20233 39627 40083 8434/ 333 59018;
0213827840999992006041900004-07317-039300FM-12+040999999V0202701N001519999999N0020001N1+02381+02151101261ADDAA106001091AY151061AY221061GF108991081999004501999999KA1240M+03121MA1999999096701MD1999999+0061MW1171REMSYN100AAXX  19004 82784 21495 82703 10238 20215 39670 40126 71752 88/// 333 10312 29083 55055 58006 60011;
0201827840999992006041912004-07317-039300FM-12+040999999V0200901N001510042019N0200001N1+02481+02251101371ADDAA124004191AY151061AY221061GF106991061021004501001001KA1240N+02141MA1999999096821MD1999999+0071MW1021REMSYN088AAXX  19124 82784 21498 60903 10248 20225 39682 40137 70252 86200 333 20214 58007 60044;
0178827840999992006042000004-07317-039300FM-12+040999999V0202701N000512200019N0020001N1+02361+02311101281ADDGA1001+999999999GF100991001001999999001001KA1240M+02871MA1999999096721MD1999999+0021REMSYN082AAXX  20004 82784 32995 02701 10236 20231 39672 40128 333 10287 29091 55054 58002;
0173827840999992006042012004-07317-039300FM-12+040999999V0200901N001510075019N0200001N1+02491+02171101351ADDAA124000591GF108991081021008001999999KA1240N+02091MA1999999096791MD1999999-0031REMSYN082AAXX  20124 82784 22598 80903 10249 20217 39679 40135 882// 333 20209 59003 69944;
0178827840999992006042100004-07317-039300FM-12+040999999V0200201N015912200019N0020001N1+02341+02221101231ADDGA1001+999999999GF100991001001999999001001KA1240M+03011MA1999999096671MD1999999-0051REMSYN082AAXX  21004 82784 32995 00231 10234 20222 39667 40123 333 10301 29084 55085 59005;
0201827840999992006042112004-07317-039300FM-12+040999999V0201401N001010075019N0200001N1+02271+02231101411ADDAA124037191AY161061AY221061GF108991081051008001999999KA1240N+02121MA1999999096831MD1999999+0041MW1021REMSYN088AAXX  21124 82784 21598 81402 10227 20223 39683 40141 70262 885// 333 20212 58004 60374;
0137827840999992006042118004-07317-039300FM-12+040999999V0202701N001510075019N0200001N1+02581+02331101011ADDGF108991051061008001031999MA1999999096461MD1999999+0091REMSYN070AAXX  21184 82784 32598 82703 10258 20233 39646 40101 8563/ 333 58009;
0187827840999992006042200004-07317-039300FM-12+040999999V0209999C000012200019N0020001N1+02401+02331101351ADDGF101991999021008001081091KA1240M+02891MA1999999096781MD1999999+0111REMSYN088AAXX  22004 82784 32595 10000 10240 20233 39678 40135 80289 333 10289 29094 55030 58011;EQDQ01+000002SCOTLC
0156827840999992006042212004-07317-039300FM-12+040999999V0203601N000510120019N0200001N1+02321+02251101511ADDGF108991081081008001999999KA1240N+02181MA1999999096931MD1999999+0101REMSYN076AAXX  22124 82784 32598 83601 10232 20225 39693 40151 888// 333 20218 58010;
0137827840999992006042218004-07317-039300FM-12+040999999V0203201N001512200019N0200001N1+02901+02321100961ADDGF103991021021008001021001MA1999999096451MD1999999-0011REMSYN070AAXX  22184 82784 32598 33203 10290 20232 39645 40096 82220 333 59001;
0168827840999992006042300004-07317-039300FM-12+040999999V0201801N000512200019N0020001N1+02361+02281101201ADDGF101991011011008001001001KA1240M+03031MA1999999096641MD1999999-0141REMSYN088AAXX  23004 82784 32595 11801 10236 20228 39664 40120 81100 333 10303 29089 55063 59014;
0156827840999992006042312004-07317-039300FM-12+040999999V0203601N001010120019N0200001N1+02241+02171101391ADDGF108991081081008001999999KA1240N+02121MA1999999096811MD1999999-0121REMSYN076AAXX  23124 82784 32598 83602 10224 20217 39681 40139 888// 333 20212 59012;
0137827840999992006042318004-07317-039300FM-12+040999999V0200501N001010120019N0200001N1+02621+02311100901ADDGF106991061081008001001001MA1999999096371MD1999999-0081REMSYN070AAXX  23184 82784 32598 60502 10262 20231 39637 40090 86800 333 59008;
0213827840999992006042400004-07317-039300FM-12+040999999V0209999C000012200019N0020001N1+02311+02271101271ADDAA106006191AY121061AY221061GF104991041041008001001001KA1240M+02841MA1999999096681MD1999999+0041MW1211REMSYN100AAXX  24004 82784 21595 40000 10231 20227 39668 40127 72122 84400 333 10284 29093 55035 58004 60061;
0173827840999992006042412004-07317-039300FM-12+040999999V0200901N001510075019N0200001N1+02561+02271101191ADDAA124006191GF108991081021008001999999KA1240N+02181MA1999999096651MD1999999-0161REMSYN082AAXX  24124 82784 22598 80903 10256 20227 39665 40119 882// 333 20218 59016 60064;
0156827840999992006042418004-07317-039300FM-12+040999999V0201401N001010075019N0200001N1+02921+02341100841ADDGF107991999021008001001001MA1999999096271MD1999999-0101REMSYN070AAXX  24184 82784 32598 71402 10292 20234 39627 40084 85200 333 59010;EQDQ01+000052SCOTLC
0213827840999992006042500004-07317-039300FM-12+040999999V0201801N001019999999N0020001N1+02371+02281101031ADDAA106001091AY151061AY211061GF105991051999999999999999KA1240M+03001MA1999999096491MD1999999-0191MW1011REMSYN100AAXX  25004 82784 21/95 51802 10237 20228 39649 40103 70151 85/// 333 10300 29086 55058 59019 60011;
0201827840999992006042512004-07317-039300FM-12+040999999V0201401N001010042019N0200001N1+02541+02381101191ADDAA124003091AY151061AY221061GF107991071051004501001001KA1240N+02201MA1999999096651MD1999999+0001MW1021REMSYN088AAXX  25124 82784 21498 71402 10254 20238 39665 40119 70252 87500 333 20220 58000 60034;
0137827840999992006042518004-07317-039300FM-12+040999999V0200901N001010450019N0200001N1+02901+02331100821ADDGF107991031021008001011011MA1999999096261MD1999999-0011REMSYN070AAXX  25184 82784 32598 70902 10290 20233 39626 40082 83211 333 59001;
0248827840999992006042600004-07317-039300FM-12+040999999V0202701N001019999999N0020001N1+02261+02161101201ADDAA106004191AY151061AY221061GF108991999001999999001001KA1240M+03021MA1999999096651MD1999999+0161MW1131REMSYN100AAXX  26004 82784 21/95 82702 10226 20216 39665 40120 71352 88000 333 10302 29087 55076 58016 60041;EQDQ01+000082SCOTLCQ02+000002SCOTLC
0173827840999992006042612004-07317-039300FM-12+040999999V0201401N002110075019N0200001N1+02561+02311101201ADDAA124004191GF108991051051008001011999KA1240N+02181MA1999999096651MD1999999+0001REMSYN082AAXX  26124 82784 22598 81404 10256 20231 39665 40120 8551/ 333 20218 58000 60044;
0137827840999992006042618004-07317-039300FM-12+040999999V0201801N002110450019N0200001N1+02991+02141100841ADDGF106991041021008001031001MA1999999096341MD1999999+0081REMSYN070AAXX  26184 82784 32598 61804 10299 20214 39634 40084 84230 333 58008;
0178827840999992006042700004-07317-039300FM-12+040999999V0201401N000512200019N0020001N1+02331+02171101231ADDGA1001+999999999GF100991001001999999001001KA1240M+02971MA1999999096681MD1999999+0031REMSYN082AAXX  27004 82784 32995 01401 10233 20217 39668 40123 333 10297 29082 55079 58003;
0156827840999992006042712004-07317-039300FM-12+040999999V0201801N001512200019N0200001N1+02661+02221101201ADDGF104991041021008001001001KA1240N+02001MA1999999096661MD1999999+0011REMSYN076AAXX  27124 82784 32598 41803 10266 20222 39666 40120 84200 333 20200 58001;
0156827840999992006042718004-07317-039300FM-12+040999999V0200501N002119999999N0200001N1+02921+02291100761ADDGF107991999021008001001001MA1999999096251MD1999999-0091REMSYN070AAXX  27184 82784 32598 70504 10292 20229 39625 40076 84200 333 59009;EQDQ01+000042SCOTLC
0178827840999992006042800004-07317-039300FM-12+040999999V0201801N000512200019N0020001N1+02431+02331101171ADDGA1001+999999999GF100991001001999999001001KA1240M+03091MA1999999096651MD1999999-0031REMSYN082AAXX  28004 82784 32995 01801 10243 20233 39665 40117 333 10309 29084 55090 59003;
0201827840999992006042812004-07317-039300FM-12+040999999V0202701N000510075019N0200001N1+02301+02271101291ADDAA124014091AY161061AY221061GF108991081051008001999999KA1240N+02191MA1999999096721MD1999999+0061MW1201REMSYN088AAXX  28124 82784 21598 82701 10230 20227 39672 40129 72062 885// 333 20219 58006 60144;
0182827840999992006042818004-07317-039300FM-12+040999999V0201801N001510075019N0200001N1+02881+02411100771ADDAA106000591AY151061AY221061GF108991061021008001021999MA1999999096271MD1999999+0021MW1021REMSYN082AAXX  28184 82784 21598 81803 10288 20241 39627 40077 70252 8622/ 333 58002 69941;
0168827840999992006042900004-07317-039300FM-12+040999999V0209999C000012200019N0020001N1+02401+02331101131ADDGF101991011041008001001001KA1240M+02991MA1999999096571MD1999999-0081REMSYN088AAXX  29004 82784 32595 10000 10240 20233 39657 40113 81400 333 10299 29092 55032 59008;
0192827840999992006042912004-07317-039300FM-12+040999999V0201401N001510120019N0200001N1+02591+02421101221ADDAA124000591GF108991999081008001001001KA1240N+02181MA1999999096681MD1999999-0041REMSYN082AAXX  29124 82784 22598 81403 10259 20242 39668 40122 87800 333 20218 59004 69944;EQDQ01+000072SCOTLC
0137827840999992006042918004-07317-039300FM-12+040999999V0201401N002612200019N0200001N1+03011+02321100721ADDGF104991031021008001021001MA1999999096211MD1999999-0061REMSYN070AAXX  29184 82784 32598 41405 10301 20232 39621 40072 83220 333 59006;
0178827840999992006043000004-07317-039300FM-12+040999999V0200901N000512200019N0020001N1+02481+02231101061ADDGA1001+999999999GF100991001001999999001001KA1240M+03091MA1999999096541MD1999999-0031REMSYN082AAXX  30004 82784 32995 00901 10248 20223 39654 40106 333 10309 29082 55063 59003;
0175827840999992006043012004-07317-039300FM-12+040999999V0201401N003110075019N0200001N1+02531+02191101261ADDGF107991999021008001001001KA1240N+02261MA1999999096721MD1999999+0041REMSYN076AAXX  30124 82784 32598 71406 10253 20219 39672 40126 85200 333 20226 58004;EQDQ01+000052SCOTLC
0137827840999992006043018004-07317-039300FM-12+040999999V0200501N002612200019N0200001N1+02941+02231100811ADDGF103991031021008001001001MA1999999096301MD1999999+0091REMSYN070AAXX  30184 82784 32598 30505 10294 20223 39630 40081 83200 333 58009;
0168827840999992006050100004-07317-039300FM-12+040999999V0209999C000010120019N0020001N1+02401+02341101211ADDGF106991061081008001001001KA1240M+03021MA1999999096671MD1999999+0131REMSYN088AAXX  01004 82784 32595 60000 10240 20234 39667 40121 86800 333 10302 29083 55084 58013;
0201827840999992006050112004-07317-039300FM-12+040999999V0201401N001010042019N0200001N1+02421+02281101391ADDAA124007991AY161061AY251061GF108991061051004501051999KA1240N+02181MA1999999096841MD1999999+0121MW1021REMSYN088AAXX  01124 82784 21498 81402 10242 20228 39684 40139 70265 8655/ 333 20218 58012 60084;
0137827840999992006050118004-07317-039300FM-12+040999999V0200901N001510450019N0200001N1+02791+02271101031ADDGF106991041021008001051001MA1999999096461MD1999999+0161REMSYN070AAXX  01184 82784 32598 60903 10279 20227 39646 40103 84250 333 58016;
0213827840999992006050200004-07317-039300FM-12+040999999V0201801N001010042019N0020001N1+02351+02281101391ADDAA106001091AY151061AY211061GF105991051021004501001001KA1240M+02931MA1999999096831MD1999999+0161MW1011REMSYN100AAXX  02004 82784 21495 51802 10235 20228 39683 40139 70151 85200 333 10293 29089 55038 58016 60011;
0173827840999992006050212004-07317-039300FM-12+040999999V0201401N001510075019N0200001N1+02661+02271101341ADDAA124001091GF106991061021008001001001KA1240N+02161MA1999999096801MD1999999-0041REMSYN082AAXX  02124 82784 22598 61403 10266 20227 39680 40134 86200 333 20216 59004 60014;
0137827840999992006050218004-07317-039300FM-12+040999999V0200901N003112200019N0200001N1+02941+02191101051ADDGF104991041021008001001001MA1999999096471MD1999999+0011REMSYN070AAXX  02184 82784 32598 40906 10294 20219 39647 40105 84200 333 58001;
0168827840999992006050300004-07317-039300FM-12+040999999V0209999C000012200019N0020001N1+02381+02261101241ADDGF102991021011008001001001KA1240M+03041MA1999999096701MD1999999-0131REMSYN088AAXX  03004 82784 32595 20000 10238 20226 39670 40124 82100 333 10304 29082 55096 59013;
0156827840999992006050312004-07317-039300FM-12+040999999V0200901N003110450019N0200001N1+02671+02131101311ADDGF106991041011008001011001KA1240N+02141MA1999999096771MD1999999-0031REMSYN076AAXX  03124 82784 32598 60906 10267 20213 39677 40131 84110 333 20214 59003;
0137827840999992006050318004-07317-039300FM-12+040999999V0200901N002110075019N0200001N1+02981+02151100881ADDGF107991061021008001011001MA1999999096371MD1999999-0101REMSYN070AAXX  03184 82784 32598 70904 10298 20215 39637 40088 86210 333 59010;
0168827840999992006050400004-07317-039300FM-12+040999999V0201401N000510075019N0020001N1+02391+02311101141ADDGF106991061041008001001001KA1240M+03071MA1999999096621MD1999999-0211REMSYN088AAXX  04004 82784 32595 61401 10239 20231 39662 40114 86400 333 10307 29081 55101 59021;
0156827840999992006050412004-07317-039300FM-12+040999999V0200501N001010450019N0200001N1+02671+02221101161ADDGF108991021011008001011999KA1240N+02141MA1999999096641MD1999999-0131REMSYN076AAXX  04124 82784 32598 80502 10267 20222 39664 40116 8211/ 333 20214 59013;
0137827840999992006050418004-07317-039300FM-12+040999999V0200501N002110450019N0200001N1+02901+02151100921ADDGF108991031021008001011999MA1999999096411MD1999999+0041REMSYN070AAXX  04184 82784 32598 80504 10290 20215 39641 40092 8321/ 333 58004;
0178827840999992006050500004-07317-039300FM-12+040999999V0202301N000512200019N0020001N1+02341+02221101221ADDGA1001+999999999GF100991001001999999001001KA1240M+02971MA1999999096681MD1999999+0061REMSYN082AAXX  05004 82784 32995 02301 10234 20222 39668 40122 333 10297 29082 55068 58006;
0156827840999992006050512004-07317-039300FM-12+040999999V0200501N002110075019N0200001N1+02631+02251101241ADDGF106991061021008001001001KA1240N+02001MA1999999096701MD1999999+0061REMSYN076AAXX  05124 82784 32598 60504 10263 20225 39670 40124 86200 333 20200 58006;
0137827840999992006050518004-07317-039300FM-12+040999999V0200901N002610450019N0200001N1+03011+02171100861ADDGF108991041021008001011999MA1999999096351MD1999999-0061REMSYN070AAXX  05184 82784 32598 80905 10301 20217 39635 40086 8421/ 333 59006;
0178827840999992006050600004-07317-039300FM-12+040999999V0209999C000012200019N0020001N1+02361+02241101201ADDGA1001+999999999GF100991001001999999001001KA1240M+03091MA1999999096661MD1999999-0021REMSYN082AAXX  06004 82784 32995 00000 10236 20224 39666 40120 333 10309 29082 55098 59002;
0156827840999992006050612004-07317-039300FM-12+040999999V0201401N005110450019N0200001N1+02581+02231101361ADDGF107991021021008001021001KA1240N+02021MA1999999096811MD1999999+0111REMSYN076AAXX  06124 82784 32598 71410 10258 20223 39681 40136 82220 333 20202 58011;
0156827840999992006050618004-07317-039300FM-12+040999999V0200901N001519999999N0200001N1+02831+02241100911ADDGF107991999021008001001001MA1999999096401MD1999999+0051REMSYN070AAXX  06184 82784 32598 70903 10283 20224 39640 40091 84200 333 58005;EQDQ01+000042SCOTLC
0168827840999992006050700004-07317-039300FM-12+040999999V0209999C000010150019N0020001N1+02341+02221101261ADDGF106991061001017501021001KA1240M+02931MA1999999096711MD1999999+0051REMSYN088AAXX  07004 82784 32795 60000 10234 20222 39671 40126 86020 333 10293 29084 55045 58005;
0156827840999992006050712004-07317-039300FM-12+040999999V0200501N001010120019N0200001N1+02451+02301101351ADDGF107991071081008001001001KA1240N+02101MA1999999096791MD1999999-0021REMSYN076AAXX  07124 82784 32598 70502 10245 20230 39679 40135 87800 333 20210 59002;
0137827840999992006050718004-07317-039300FM-12+040999999V0201401N001010450019N0200001N1+03011+02291100901ADDGF106991041081008001021001MA1999999096401MD1999999+0001REMSYN070AAXX  07184 82784 32598 61402 10301 20229 39640 40090 84820 333 58000;
0187827840999992006050800004-07317-039300FM-12+040999999V0201801N001019999999N0020001N1+02351+02191101191ADDGF106991999001017501051001KA1240M+03101MA1999999096641MD1999999-0071REMSYN088AAXX  08004 82784 32795 61802 10235 20219 39664 40119 87050 333 10310 29084 55036 59007;EQDQ01+000072SCOTLC
0156827840999992006050812004-07317-039300FM-12+040999999V0201801N003110450019N0200001N1+02641+02051101321ADDGF106991041011008001011001KA1240N+02221MA1999999096781MD1999999-0061REMSYN076AAXX  08124 82784 32598 61806 10264 20205 39678 40132 84110 333 20222 59006;
0137827840999992006050818004-07317-039300FM-12+040999999V0200901N002110450019N0200001N1+02901+02251100921ADDGF106991041021008001011001MA1999999096421MD1999999+0021REMSYN070AAXX  08184 82784 32598 60904 10290 20225 39642 40092 84210 333 58002;
0168827840999992006050900004-07317-039300FM-12+040999999V0209999C000012200019N0020001N1+02301+02111101231ADDGF103991031001017501001011KA1240M+02981MA1999999096681MD1999999+0041REMSYN088AAXX  09004 82784 32795 30000 10230 20211 39668 40123 83001 333 10298 29079 55092 58004;
0175827840999992006050912004-07317-039300FM-12+040999999V0201801N002110075019N0200001N1+02501+02071101351ADDGF107991999021008001001001KA1240N+02191MA1999999096791MD1999999+0011REMSYN076AAXX  09124 82784 32598 71804 10250 20207 39679 40135 85200 333 20219 58001;EQDQ01+000052SCOTLC
0137827840999992006050918004-07317-039300FM-12+040999999V0201401N001010075019N0200001N1+02851+02261101031ADDGF106991061021008001001001MA1999999096461MD1999999+0041REMSYN070AAXX  09184 82784 32598 61402 10285 20226 39646 40103 86200 333 58004;
0156827840999992006051012004-07317-039300FM-12+040999999V0201801N001010075019N0200001N1+02461+02171101361ADDGF108991081051008001999999KA1240N+02241MA1999999096801MD1999999+0001REMSYN076AAXX  10124 82784 32598 81802 10246 20217 39680 40136 885// 333 20224 58000;
0156827840999992006051018004-07317-039300FM-12+040999999V0201801N002119999999N0200001N1+02851+02171100951ADDGF106991999021008001001001MA1999999096441MD1999999-0021REMSYN070AAXX  10184 82784 32598 61804 10285 20217 39644 40095 84200 333 59002;EQDQ01+000042SCOTLC
0178827840999992006051100004-07317-039300FM-12+040999999V0202301N000512200019N0020001N1+02241+02091101231ADDGA1001+999999999GF100991001001999999001001KA1240M+02931MA1999999096661MD1999999-0021REMSYN082AAXX  11004 82784 32995 02301 10224 20209 39666 40123 333 10293 29083 55044 59002;
0156827840999992006051112004-07317-039300FM-12+040999999V0200901N001510450019N0200001N1+02591+02121101351ADDGF107991031021008001031001KA1240N+02031MA1999999096791MD1999999-0011REMSYN076AAXX  11124 82784 32598 70903 10259 20212 39679 40135 83230 333 20203 59001;
0137827840999992006051118004-07317-039300FM-12+040999999V0200901N001510075019N0200001N1+02981+02091100821ADDGF106991061021008001001001MA1999999096331MD1999999-0111REMSYN070AAXX  11184 82784 32598 60903 10298 20209 39633 40082 86200 333 59011;
0168827840999992006051200004-07317-039300FM-12+040999999V0200501N000512200019N0200001N1+02381+02221101181ADDGF101991011001017501031001KA1240M+03111MA1999999096651MD1999999-0011REMSYN088AAXX  12004 82784 32798 10501 10238 20222 39665 40118 81030 333 10311 29079 55078 59001;
0156827840999992006051212004-07317-039300FM-12+040999999V0203601N000510075019N0200001N1+02521+02341101351ADDGF108991081021008001999999KA1240N+01961MA1999999096801MD1999999+0011REMSYN076AAXX  12124 82784 32598 83601 10252 20234 39680 40135 882// 333 20196 58001;
0156827840999992006051218004-07317-039300FM-12+040999999V0200501N002110075019N0200001N1+02951+02331100911ADDGF107991999021008001001001MA1999999096401MD1999999+0071REMSYN070AAXX  12184 82784 32598 70504 10295 20233 39640 40091 86200 333 58007;EQDQ01+000062SCOTLC
0168827840999992006051300004-07317-039300FM-12+040999999V0209999C000012200019N0020001N1+02361+02241101331ADDGF102991021001017501021001KA1240M+03041MA1999999096781MD1999999+0131REMSYN088AAXX  13004 82784 32795 20000 10236 20224 39678 40133 82020 333 10304 29086 55077 58013;
0201827840999992006051312004-07317-039300FM-12+040999999V0200501N003110120019N0200001N1+02351+02201101611ADDAA124002091AY121061AY221061GF107991071081008001001001KA1240N+01941MA1999999097031MD1999999+0231MW1211REMSYN088AAXX  13124 82784 21598 70506 10235 20220 39703 40161 72122 87800 333 20194 58023 60024;
0137827840999992006051318004-07317-039300FM-12+040999999V0200501N001010450019N0200001N1+02921+02391101141ADDGF105991021021008001021001MA1999999096631MD1999999+0231REMSYN070AAXX  13184 82784 32598 50502 10292 20239 39663 40114 82220 333 58023;
0168827840999992006051400004-07317-039300FM-12+040999999V0209999C000010120019N0020001N1+02421+02321101551ADDGF107991061081008001031001KA1240M+03031MA1999999096981MD1999999+0201REMSYN088AAXX  14004 82784 32595 70000 10242 20232 39698 40155 86830 333 10303 29088 55058 58020;
0201827840999992006051412004-07317-039300FM-12+040999999V0203201N001510120019N0200001N1+02281+02231101761ADDAA124008991AY121061AY221061GF107991071081008001001001KA1240N+02151MA1999999097171MD1999999+0141MW1211REMSYN088AAXX  14124 82784 21598 73203 10228 20223 39717 40176 72122 87800 333 20215 58014 60094;
0137827840999992006051418004-07317-039300FM-12+040999999V0203601N001512200019N0200001N1+02821+02361101251ADDGF104991041021008001001001MA1999999096721MD1999999+0091REMSYN070AAXX  14184 82784 32598 43603 10282 20236 39672 40125 84200 333 58009;
0213827840999992006051500004-07317-039300FM-12+040999999V0209999C000012200019N0020001N1+02311+02201101541ADDAA106003091AY121061AY221061GF102991011021008001021001KA1240M+03011MA1999999096951MD1999999-0031MW1211REMSYN100AAXX  15004 82784 21595 20000 10231 20220 39695 40154 72122 81220 333 10301 29096 55052 59003 60031;
0173827840999992006051512004-07317-039300FM-12+040999999V0201801N001510120019N0200001N1+02531+02251101591ADDAA124003091GF107991051081008001031001KA1240N+02201MA1999999097021MD1999999-0151REMSYN082AAXX  15124 82784 22598 71803 10253 20225 39702 40159 85830 333 20220 59015 60034;
0156827840999992006051518004-07317-039300FM-12+040999999V0201401N001519999999N0200001N1+02941+02161101181ADDGF105991999021008001001001MA1999999096611MD1999999-0111REMSYN070AAXX  15184 82784 32598 51403 10294 20216 39661 40118 83200 333 59011;EQDQ01+000032SCOTLC
0196827840999992006051600004-07317-039300FM-12+040999999V0209999C000010075019N0020001N1+02511+02251101391ADDAY121061AY221061GF107991071071008001001001KA1240M+03051MA1999999096851MD1999999-0101MW1131REMSYN094AAXX  16004 82784 31595 70000 10251 20225 39685 40139 71322 87700 333 10305 29079 55057 59010;
0156827840999992006051612004-07317-039300FM-12+040999999V0201801N002610075019N0200001N1+02511+02051101441ADDGF107991071051008001001001KA1240N+02241MA1999999096891MD1999999-0131REMSYN076AAXX  16124 82784 32598 71805 10251 20205 39689 40144 87500 333 20224 59013;
0137827840999992006051618004-07317-039300FM-12+040999999V0201401N002110075019N0200001N1+02751+02141101161ADDGF106991061021008001001001MA1999999096631MD1999999+0021REMSYN070AAXX  16184 82784 32598 61404 10275 20214 39663 40116 86200 333 58002;
0168827840999992006051700004-07317-039300FM-12+040999999V0201401N001510075019N0020001N1+02431+02051101451ADDGF108991081071008001999999KA1240M+02911MA1999999096891MD1999999+0041REMSYN088AAXX  17004 82784 32595 81403 10243 20205 39689 40145 887// 333 10291 29076 55066 58004;
0156827840999992006051712004-07317-039300FM-12+040999999V0201801N002110075019N0200001N1+02301+01961101651ADDGF107991061051008001011001KA1240N+02181MA1999999097061MD1999999+0171REMSYN076AAXX  17124 82784 32598 71804 10230 20196 39706 40165 86510 333 20218 58017;
0137827840999992006051718004-07317-039300FM-12+040999999V0201801N002110075019N0200001N1+02591+02121101351ADDGF108991081041008001999999MA1999999096791MD1999999+0161REMSYN070AAXX  17184 82784 32598 81804 10259 20212 39679 40135 884// 333 58016;
0156827840999992006051812004-07317-039300FM-12+040999999V0201801N001512200019N0200001N1+02531+02021101571ADDGF101991011021008001001001KA1240N+01881MA1999999097011MD1999999-0051REMSYN076AAXX  18124 82784 32598 11803 10253 20202 39701 40157 81200 333 20188 59005;
0137827840999992006051818004-07317-039300FM-12+040999999V0201801N002110075019N0200001N1+02621+02011101361ADDGF108991081021008001999999MA1999999096791MD1999999+0001REMSYN070AAXX  18184 82784 32598 81804 10262 20201 39679 40136 882// 333 58000;
0178827840999992006051900004-07317-039300FM-12+040999999V0200501N001012200019N0020001N1+02081+01981101571ADDGA1001+999999999GF100991001001999999001001KA1240M+02781MA1999999096981MD1999999-0061REMSYN082AAXX  19004 82784 32995 00502 10208 20198 39698 40157 333 10278 29082 55076 59006;
0156827840999992006051912004-07317-039300FM-12+040999999V0201801N001510075019N0200001N1+02511+02001101561ADDGF106991061021008001001001KA1240N+01951MA1999999096971MD1999999-0041REMSYN076AAXX  19124 82784 32598 61803 10251 20200 39697 40156 86200 333 20195 59004;
0137827840999992006051918004-07317-039300FM-12+040999999V0201801N002610075019N0200001N1+02731+02001101241ADDGF105991051021008001001001MA1999999096681MD1999999-0111REMSYN070AAXX  19184 82784 32598 51805 10273 20200 39668 40124 85200 333 59011;
0168827840999992006052000004-07317-039300FM-12+040999999V0201401N001512200019N0020001N1+02281+01981101441ADDGF101991011001017501021001KA1240M+02811MA1999999096871MD1999999-0111REMSYN088AAXX  20004 82784 32795 11403 10228 20198 39687 40144 81020 333 10281 29076 55087 59011;
0156827840999992006052012004-07317-039300FM-12+040999999V0201401N001512200019N0200001N1+02451+01921101471ADDGF102991011011008001021001KA1240N+01891MA1999999096891MD1999999-0081REMSYN076AAXX  20124 82784 32598 21403 10245 20192 39689 40147 81120 333 20189 59008;
0156827840999992006052018004-07317-039300FM-12+040999999V0200501N002612200019N0200001N1+02871+01641101061ADDGF104991999021008001001001MA1999999096531MD1999999-0151REMSYN070AAXX  20184 82784 32598 40505 10287 20164 39653 40106 83200 333 59015;EQDQ01+000032SCOTLC
0168827840999992006052100004-07317-039300FM-12+040999999V0209999C000012200019N0020001N1+02231+02081101381ADDGF102991021021008001001001KA1240M+02951MA1999999096811MD1999999-0061REMSYN088AAXX  21004 82784 32595 20000 10223 20208 39681 40138 82200 333 10295 29080 55107 59006;
0156827840999992006052112004-07317-039300FM-12+040999999V0200501N001512200019N0200001N1+02531+02251101351ADDGF102991011011008001021001KA1240N+01771MA1999999096791MD1999999-0101REMSYN076AAXX  21124 82784 32598 20503 10253 20225 39679 40135 81120 333 20177 59010;
0168827840999992006052200004-07317-039300FM-12+040999999V0209999C000012200019N0200001N1+02311+02111101311ADDGF103991031021008001001001KA1240M+03091MA1999999096751MD1999999-0061REMSYN088AAXX  22004 82784 32598 30000 10231 20211 39675 40131 83200 333 10309 29083 55072 59006;
0156827840999992006052212004-07317-039300FM-12+040999999V0200901N001512200019N0200001N1+02601+01791101551ADDGF104991041001017501001011KA1240N+01911MA1999999096991MD1999999+0201REMSYN076AAXX  22124 82784 32798 40903 10260 20179 39699 40155 84001 333 20191 58020;
0137827840999992006052218004-07317-039300FM-12+040999999V0201401N001510450019N0200001N1+02951+01811101161ADDGF106991031011008001041001MA1999999096641MD1999999+0141REMSYN070AAXX  22184 82784 32598 61403 10295 20181 39664 40116 83140 333 58014;
0168827840999992006052300004-07317-039300FM-12+040999999V0209999C000010075019N0020001N1+02411+02211101421ADDGF108991081071008001999999KA1240M+03021MA1999999096871MD1999999+0121REMSYN088AAXX  23004 82784 32595 80000 10241 20221 39687 40142 887// 333 10302 29072 55097 58012;
0156827840999992006052312004-07317-039300FM-12+040999999V0200901N002112200019N0200001N1+02601+02061101531ADDGF106991021011008001001011KA1240N+01961MA1999999096981MD1999999-0011REMSYN076AAXX  23124 82784 32598 60904 10260 20206 39698 40153 82101 333 20196 59001;
0137827840999992006052318004-07317-039300FM-12+040999999V0201401N002610075019N0200001N1+02941+02211101121ADDGF106991061021008001001001MA1999999096611MD1999999-0031REMSYN070AAXX  23184 82784 32598 61405 10294 20221 39661 40112 86200 333 59003;
0196827840999992006052400004-07317-039300FM-12+040999999V0209999C000010075019N0020001N1+02341+02151101451ADDAY121061AY221061GF106991061071008001001001KA1240M+03011MA1999999096891MD1999999+0021MW1131REMSYN094AAXX  24004 82784 31595 60000 10234 20215 39689 40145 71322 86700 333 10301 29079 55102 58002;
0156827840999992006052412004-07317-039300FM-12+040999999V0201801N003110450019N0200001N1+02621+02181101521ADDGF108991031011008001051011KA1240N+02151MA1999999096971MD1999999-0011REMSYN076AAXX  24124 82784 32598 81806 10262 20218 39697 40152 83151 333 20215 59001;
0137827840999992006052418004-07317-039300FM-12+040999999V0200501N002110075019N0200001N1+02791+02201101101ADDGF108991081051008001999999MA1999999096581MD1999999+0011REMSYN070AAXX  24184 82784 32598 80504 10279 20220 39658 40110 885// 333 58001;
0168827840999992006052500004-07317-039300FM-12+040999999V0203201N001010075019N0020001N1+02421+02281101441ADDGF107991071051008001001001KA1240M+02931MA1999999096891MD1999999+0001REMSYN088AAXX  25004 82784 32595 73202 10242 20228 39689 40144 87500 333 10293 29083 55022 58000;
0156827840999992006052512004-07317-039300FM-12+040999999V0201801N001512200019N0200001N1+02591+02211101541ADDGF104991031021008001031001KA1240N+02021MA1999999096991MD1999999+0021REMSYN076AAXX  25124 82784 32598 41803 10259 20221 39699 40154 83230 333 20202 58002;
0137827840999992006052518004-07317-039300FM-12+040999999V0201801N002110075019N0200001N1+02911+02191101101ADDGF105991051021008001001001MA1999999096561MD1999999-0021REMSYN070AAXX  25184 82784 32598 51804 10291 20219 39656 40110 85200 333 59002;
0178827840999992006052600004-07317-039300FM-12+040999999V0201401N001512200019N0020001N1+02401+02011101391ADDGA1001+999999999GF100991001001999999001001KA1240M+03031MA1999999096851MD1999999-0041REMSYN082AAXX  26004 82784 32995 01403 10240 20201 39685 40139 333 10303 29076 55089 59004;
0156827840999992006052612004-07317-039300FM-12+040999999V0201801N003110075019N0200001N1+02581+02061101431ADDGF107991071021008001001001KA1240N+02261MA1999999096881MD1999999-0111REMSYN076AAXX  26124 82784 32598 71806 10258 20206 39688 40143 87200 333 20226 59011;
0137827840999992006052618004-07317-039300FM-12+040999999V0201801N002110075019N0200001N1+02881+02131100951ADDGF106991061021008001001001MA1999999096441MD1999999-0121REMSYN070AAXX  26184 82784 32598 61804 10288 20213 39644 40095 86200 333 59012;
0178827840999992006052700004-07317-039300FM-12+040999999V0201801N001012200019N0020001N1+02261+02071101411ADDGA1001+999999999GF100991001001999999001001KA1240M+03011MA1999999096851MD1999999+0001REMSYN082AAXX  27004 82784 32995 01802 10226 20207 39685 40141 333 10301 29079 55096 58000;
0156827840999992006052712004-07317-039300FM-12+040999999V0201401N001510120019N0200001N1+02431+02171101541ADDGF107991071081008001001001KA1240N+02101MA1999999096961MD1999999+0081REMSYN076AAXX  27124 82784 32598 71403 10243 20217 39696 40154 87800 333 20210 58008;
0137827840999992006052718004-07317-039300FM-12+040999999V0201401N002110450019N0200001N1+02861+01981101161ADDGF106991041021008001021001MA1999999096641MD1999999+0201REMSYN070AAXX  27184 82784 32598 61404 10286 20198 39664 40116 84220 333 58020;
0178827840999992006052800004-07317-039300FM-12+040999999V0209999C000012200019N0020001N1+02171+02031101411ADDGA1001+999999999GF100991001001999999001001KA1240M+02931MA1999999096831MD1999999-0021REMSYN082AAXX  28004 82784 32995 00000 10217 20203 39683 40141 333 10293 29082 55052 59002;
0156827840999992006052812004-07317-039300FM-12+040999999V0201401N001510075019N0200001N1+02531+02231101531ADDGF106991061021008001001001KA1240N+02061MA1999999096951MD1999999-0011REMSYN076AAXX  28124 82784 32598 61403 10253 20223 39695 40153 86200 333 20206 59001;
0137827840999992006052818004-07317-039300FM-12+040999999V0201401N002112200019N0200001N1+02931+02081101121ADDGF103991021021008001021001MA1999999096611MD1999999-0031REMSYN070AAXX  28184 82784 32598 31404 10293 20208 39661 40112 82220 333 59003;
0178827840999992006052900004-07317-039300FM-12+040999999V0209999C000012200019N0020001N1+02071+01891101381ADDGA1001+999999999GF100991001001999999001001KA1240M+03011MA1999999096801MD1999999-0031REMSYN082AAXX  29004 82784 32995 00000 10207 20189 39680 40138 333 10301 29080 55077 59003;
0156827840999992006052912004-07317-039300FM-12+040999999V0200901N004110075019N0200001N1+02461+02131101581ADDGF107991051021008001051001KA1240N+01951MA1999999096981MD1999999+0031REMSYN076AAXX  29124 82784 32598 70908 10246 20213 39698 40158 85250 333 20195 58003;
0137827840999992006052918004-07317-039300FM-12+040999999V0200901N002110450019N0200001N1+02951+01961101111ADDGF108991031011008001041999MA1999999096571MD1999999-0041REMSYN070AAXX  29184 82784 32598 80904 10295 20196 39657 40111 8314/ 333 59004;
0168827840999992006053000004-07317-039300FM-12+040999999V0201401N001512200019N0020001N1+02301+02111101461ADDGF104991041001012501041001KA1240M+03031MA1999999096891MD1999999+0091REMSYN088AAXX  30004 82784 32695 41403 10230 20211 39689 40146 84040 333 10303 29079 55079 58009;
0156827840999992006053012004-07317-039300FM-12+040999999V0201801N004110075019N0200001N1+02551+02041101361ADDGF107991051021008001031001KA1240N+02161MA1999999096801MD1999999-0181REMSYN076AAXX  30124 82784 32598 71808 10255 20204 39680 40136 85230 333 20216 59018;
0137827840999992006053018004-07317-039300FM-12+040999999V0201801N003110075019N0200001N1+02751+02041101111ADDGF106991061021008001001001MA1999999096571MD1999999+0001REMSYN070AAXX  30184 82784 32598 61806 10275 20204 39657 40111 86200 333 58000;
0168827840999992006053100004-07317-039300FM-12+040999999V0201401N001510075019N0020001N1+02331+02011101441ADDGF105991051011008001001001KA1240M+03081MA1999999096881MD1999999-0011REMSYN088AAXX  31004 82784 32595 51403 10233 20201 39688 40144 85100 333 10308 29076 55082 59001;
0156827840999992006053112004-07317-039300FM-12+040999999V0201801N002610075019N0200001N1+02441+02301101581ADDGF107991071021008001001001KA1240N+01901MA1999999097001MD1999999+0201REMSYN076AAXX  31124 82784 32598 71805 10244 20230 39700 40158 87200 333 20190 58020;
0137827840999992006053118004-07317-039300FM-12+040999999V0201801N003110075019N0200001N1+02751+01991101281ADDGF107991071021008001001001MA1999999096731MD1999999+0161REMSYN070AAXX  31184 82784 32598 71806 10275 20199 39673 40128 87200 333 58016;
0178827840999992006060100004-07317-039300FM-12+040999999V0201801N000512200019N0020001N1+02061+01741101491ADDGA1001+999999999GF100991001001999999001001KA1240M+03031MA1999999096891MD1999999+0011REMSYN082AAXX  01004 82784 32995 01801 10206 20174 39689 40149 333 10303 29076 55092 58001;
0166827840999992006060112004-07317-039300FM-12+040999999V0201801N003112200019N0200001N1+02491+01781101631ADDGA1001+999999999GF100991001001999999001001KA1240N+01921MA1999999097031MD1999999+0031REMSYN070AAXX  01124 82784 32998 01806 10249 20178 39703 40163 333 20192 58003;
0147827840999992006060118004-07317-039300FM-12+040999999V0201801N002112200019N0200001N1+02981+01761101181ADDGA1001+999999999GF100991001001999999001001MA1999999096651MD1999999-0081REMSYN064AAXX  01184 82784 32998 01804 10298 20176 39665 40118 333 59008;
0178827840999992006060200004-07317-039300FM-12+040999999V0201401N000512200019N0020001N1+02221+01941101591ADDGA1001+999999999GF100991001001999999001001KA1240M+03051MA1999999097011MD1999999+0121REMSYN082AAXX  02004 82784 32995 01401 10222 20194 39701 40159 333 10305 29070 55107 58012;
0156827840999992006060212004-07317-039300FM-12+040999999V0201801N002112200019N0200001N1+02431+01991101591ADDGF103991031021008001001001KA1240N+01761MA1999999097001MD1999999-0031REMSYN076AAXX  02124 82784 32598 31804 10243 20199 39700 40159 83200 333 20176 59003;
0137827840999992006060218004-07317-039300FM-12+040999999V0200901N002110075019N0200001N1+02821+02051101291ADDGF108991081041008001999999MA1999999096731MD1999999+0081REMSYN070AAXX  02184 82784 32598 80904 10282 20205 39673 40129 884// 333 58008;
0168827840999992006060300004-07317-039300FM-12+040999999V0201401N001512200019N0020001N1+02371+02031101511ADDGF103991031001017501031001KA1240M+02951MA1999999096931MD1999999-0081REMSYN088AAXX  03004 82784 32795 31403 10237 20203 39693 40151 83030 333 10295 29078 55084 59008;
0175827840999992006060312004-07317-039300FM-12+040999999V0201401N003619999999N0200001N1+02461+01941101541ADDGF105991999021008001001001KA1240N+02111MA1999999096971MD1999999-0031REMSYN076AAXX  03124 82784 32598 51407 10246 20194 39697 40154 83200 333 20211 59003;EQDQ01+000032SCOTLC
0137827840999992006060318004-07317-039300FM-12+040999999V0201401N003110075019N0200001N1+02721+02051101221ADDGF105991051021008001001001MA1999999096661MD1999999-0071REMSYN070AAXX  03184 82784 32598 51406 10272 20205 39666 40122 85200 333 59007;
0168827840999992006060400004-07317-039300FM-12+040999999V0201401N002610120019N0020001N1+02221+01841101561ADDGF107991071081008001001001KA1240M+02851MA1999999096981MD1999999+0051REMSYN088AAXX  04004 82784 32595 71405 10222 20184 39698 40156 87800 333 10285 29074 55091 58005;
0156827840999992006060412004-07317-039300FM-12+040999999V0201401N003112200019N0200001N1+02431+01881101491ADDGF103991021021008001021001KA1240N+01991MA1999999096901MD1999999-0071REMSYN076AAXX  04124 82784 32598 31406 10243 20188 39690 40149 82220 333 20199 59007;
0137827840999992006060418004-07317-039300FM-12+040999999V0201401N003112200019N0200001N1+02931+01881101071ADDGF104991041021008001001001MA1999999096531MD1999999-0131REMSYN070AAXX  04184 82784 32598 41406 10293 20188 39653 40107 84200 333 59013;
0178827840999992006060500004-07317-039300FM-12+040999999V0201401N001512200019N0020001N1+02271+01941101301ADDGA1001+999999999GF100991001001999999001001KA1240M+02991MA1999999096731MD1999999-0251REMSYN082AAXX  05004 82784 32995 01403 10227 20194 39673 40130 333 10299 29072 55106 59025;
0156827840999992006060512004-07317-039300FM-12+040999999V0201801N002610042019N0200001N1+02351+01991101511ADDGF108991061021004501021999KA1240N+02101MA1999999096921MD1999999+0021REMSYN076AAXX  05124 82784 32498 81805 10235 20199 39692 40151 8622/ 333 20210 58002;
0137827840999992006060518004-07317-039300FM-12+040999999V0201801N002610075019N0200001N1+02741+02071101141ADDGF107991071051008001001001MA1999999096591MD1999999+0061REMSYN070AAXX  05184 82784 32598 71805 10274 20207 39659 40114 87500 333 58006;
0168827840999992006060600004-07317-039300FM-12+040999999V0201801N003110120019N0020001N1+02531+02021101271ADDGF108991081081008001999999KA1240M+02901MA1999999096701MD1999999-0031REMSYN088AAXX  06004 82784 32595 81806 10253 20202 39670 40127 888// 333 10290 29073 55032 59003;
0156827840999992006060612004-07317-039300FM-12+040999999V0201801N002110042019N0200001N1+02461+02051101411ADDGF108991081021004501999999KA1240N+02191MA1999999096861MD1999999-0061REMSYN076AAXX  06124 82784 32498 81804 10246 20205 39686 40141 882// 333 20219 59006;
0137827840999992006060618004-07317-039300FM-12+040999999V0200901N002110075019N0200001N1+02761+02091101131ADDGF108991081071008001999999MA1999999096611MD1999999+0021REMSYN070AAXX  06184 82784 32598 80904 10276 20209 39661 40113 887// 333 58002;
0168827840999992006060700004-07317-039300FM-12+040999999V0209999C000010075019N0020001N1+02381+02191101471ADDGF107991071071008001001001KA1240M+02931MA1999999096901MD1999999+0201REMSYN088AAXX  07004 82784 32595 70000 10238 20219 39690 40147 87700 333 10293 29081 55028 58020;
0156827840999992006060712004-07317-039300FM-12+040999999V0201801N003110075019N0200001N1+02581+02291101491ADDGF107991061021008001051001KA1240N+02041MA1999999096941MD1999999+0081REMSYN076AAXX  07124 82784 32598 71806 10258 20229 39694 40149 86250 333 20204 58008;
0137827840999992006060718004-07317-039300FM-12+040999999V0201801N002110075019N0200001N1+02651+02141101231ADDGF108991081021008001999999MA1999999096671MD1999999+0061REMSYN070AAXX  07184 82784 32598 81804 10265 20214 39667 40123 882// 333 58006;
0168827840999992006060800004-07317-039300FM-12+040999999V0201801N002110150019N0020001N1+02281+02001101511ADDGF108991081001017501031999KA1240M+02871MA1999999096951MD1999999+0051REMSYN088AAXX  08004 82784 32795 81804 10228 20200 39695 40151 8803/ 333 10287 29082 55062 58005;
0156827840999992006060812004-07317-039300FM-12+040999999V0201801N003610450019N0200001N1+02471+01941101531ADDGF106991031021008001031001KA1240N+02041MA1999999096951MD1999999+0011REMSYN076AAXX  08124 82784 32598 61807 10247 20194 39695 40153 83230 333 20204 58001;
0137827840999992006060818004-07317-039300FM-12+040999999V0201801N002110075019N0200001N1+02641+02051101191ADDGF108991071021008001031999MA1999999096641MD1999999-0031REMSYN070AAXX  08184 82784 32598 81804 10264 20205 39664 40119 8723/ 333 59003;
0168827840999992006060900004-07317-039300FM-12+040999999V0200501N001510075019N0200001N1+02431+02051101391ADDGF108991081021008001999999KA1240M+02851MA1999999096841MD1999999-0111REMSYN088AAXX  09004 82784 32598 80503 10243 20205 39684 40139 882// 333 10285 29076 55059 59011;
0175827840999992006060912004-07317-039300FM-12+040999999V0201801N003112200019N0200001N1+02501+01981101371ADDGF102991999021008001001001KA1240N+02061MA1999999096821MD1999999-0131REMSYN076AAXX  09124 82784 32598 21806 10250 20198 39682 40137 83200 333 20206 59013;EQDQ01+000032SCOTLC
0137827840999992006060918004-07317-039300FM-12+040999999V0201801N003610075019N0200001N1+02831+01911101081ADDGF107991071021008001001001MA1999999096551MD1999999-0091REMSYN070AAXX  09184 82784 32598 71807 10283 20191 39655 40108 87200 333 59009;
0168827840999992006061000004-07317-039300FM-12+040999999V0201801N001012200019N0020001N1+02201+02031101331ADDGF102991011011008001031001KA1240M+03001MA1999999096761MD1999999-0081REMSYN088AAXX  10004 82784 32595 21802 10220 20203 39676 40133 81130 333 10300 29078 55107 59008;
0156827840999992006061012004-07317-039300FM-12+040999999V0201401N003110075019N0200001N1+02491+02091101391ADDGF106991061021008001001001KA1240N+02061MA1999999096881MD1999999+0001REMSYN076AAXX  10124 82784 32598 61406 10249 20209 39688 40139 86200 333 20206 58000;
0137827840999992006061018004-07317-039300FM-12+040999999V0201401N001510075019N0200001N1+02871+02111100951ADDGF106991061021008001001001MA1999999096441MD1999999-0111REMSYN070AAXX  10184 82784 32598 61403 10287 20211 39644 40095 86200 333 59011;
0168827840999992006061100004-07317-039300FM-12+040999999V0201801N002112200019N0020001N1+02111+01911101261ADDGF101991011001017501021001KA1240M+02961MA1999999096681MD1999999-0081REMSYN088AAXX  11004 82784 32795 11804 10211 20191 39668 40126 81020 333 10296 29080 55093 59008;
0156827840999992006061112004-07317-039300FM-12+040999999V0201401N001512200019N0020001N1+02541+02171101341ADDGF101991011001017501021001KA1240N+01941MA1999999096761MD1999999-0061REMSYN076AAXX  11124 82784 32795 11403 10254 20217 39676 40134 81020 333 20194 59006;
0137827840999992006061118004-07317-039300FM-12+040999999V0201401N001512200019N0200001N1+03091+02241100971ADDGF104991041021008001031001MA1999999096471MD1999999+0031REMSYN070AAXX  11184 82784 32598 41403 10309 20224 39647 40097 84230 333 58003;
0156827840999992006061212004-07317-039300FM-12+040999999V0202301N001512200019N0200001N1+02581+02381101371ADDGF102991021011008001001001KA1240N+01931MA1999999096781MD1999999+0021REMSYN076AAXX  12124 82784 32598 22303 10258 20238 39678 40137 82100 333 20193 58002;
0137827840999992006061218004-07317-039300FM-12+040999999V0201801N003612200019N0200001N1+03251+02081100941ADDGF106991041021008001001011MA1999999096461MD1999999-0011REMSYN070AAXX  12184 82784 32598 61807 10325 20208 39646 40094 84201 333 59001;
0168827840999992006061300004-07317-039300FM-12+040999999V0201401N001010042019N0020001N1+02531+02171101421ADDGF108991081021004501999999KA1240M+03321MA1999999096881MD1999999+0151REMSYN088AAXX  13004 82784 32495 81402 10253 20217 39688 40142 882// 333 10332 29075 55081 58015;
0201827840999992006061312004-07317-039300FM-12+040999999V0200901N001010042019N0200001N1+02381+02361101551ADDAA124001091AY151061AY251061GF108991081051004501999999KA1240N+02151MA1999999096991MD1999999+0211MW1201REMSYN088AAXX  13124 82784 21498 80902 10238 20236 39699 40155 72055 885// 333 20215 58021 60014;
0201827840999992006061318004-07317-039300FM-12+040999999V0202701N002119999999N0200001N1+02541+02381101201ADDAA106004191AY161061AY221061GF107991999051008001001001MA1999999096651MD1999999+0191MW1021REMSYN082AAXX  13184 82784 21598 72704 10254 20238 39665 40120 70262 88500 333 58019 60041;EQDQ01+000082SCOTLC
0168827840999992006061400004-07317-039300FM-12+040999999V0201801N002119999999N0020001N1+02361+02071101501ADDGF108991081001017501001011KA1240M+02651MA1999999096921MD1999999+0041REMSYN088AAXX  14004 82784 32795 81804 10236 20207 39692 40150 88001 333 10265 29090 55006 58004;
0173827840999992006061412004-07317-039300FM-12+040999999V0201801N004110450019N0200001N1+02431+01971101571ADDAA124004191GF106991031011008001011001KA1240N+02001MA1999999097001MD1999999+0011REMSYN082AAXX  14124 82784 22598 61808 10243 20197 39700 40157 83110 333 20200 58001 60044;
0137827840999992006061418004-07317-039300FM-12+040999999V0201801N003110075019N0200001N1+02801+02001101261ADDGF107991051021008001031001MA1999999096711MD1999999+0061REMSYN070AAXX  14184 82784 32598 71806 10280 20200 39671 40126 85230 333 58006;
0178827840999992006061500004-07317-039300FM-12+040999999V0201801N002112200019N0020001N1+02301+02111101461ADDGA1001+999999999GF100991001001999999001001KA1240M+02891MA1999999096881MD1999999-0041REMSYN082AAXX  15004 82784 32995 01804 10230 20211 39688 40146 333 10289 29079 55078 59004;
0156827840999992006061512004-07317-039300FM-12+040999999V0201801N003612200019N0200001N1+02481+02011101551ADDGF101991011021008001001001KA1240N+01981MA1999999096981MD1999999-0021REMSYN076AAXX  15124 82784 32598 11807 10248 20201 39698 40155 81200 333 20198 59002;
0137827840999992006061518004-07317-039300FM-12+040999999V0200501N002112200019N0200001N1+02941+02111101141ADDGF102991021021008001001001MA1999999096621MD1999999-0091REMSYN070AAXX  15184 82784 32598 20504 10294 20211 39662 40114 82200 333 59009;
0168827840999992006061600004-07317-039300FM-12+040999999V0201801N000510075019N0020001N1+02381+02111101401ADDGF108991081051008001999999KA1240M+03051MA1999999096851MD1999999-0041REMSYN088AAXX  16004 82784 32595 81801 10238 20211 39685 40140 885// 333 10305 29076 55096 59004;
0156827840999992006061612004-07317-039300FM-12+040999999V0201801N003110075019N0200001N1+02441+02111101641ADDGF108991081051008001999999KA1240N+02121MA1999999097061MD1999999+0081REMSYN076AAXX  16124 82784 32598 81806 10244 20211 39706 40164 885// 333 20212 58008;
0201827840999992006061618004-07317-039300FM-12+040999999V0200901N001510075019N0200001N1+02751+02211101351ADDAA106000091AY151061AY221061GF108991081021008001999999MA1999999096811MD1999999+0191MW1021REMSYN082AAXX  16184 82784 21598 80903 10275 20221 39681 40135 70252 882// 333 58019 69911;EQDQ01  00002PRCP06
0168827840999992006061700004-07317-039300FM-12+040999999V0201401N001510120019N0020001N1+02391+02171101591ADDGF106991061081008001001001KA1240M+02831MA1999999097021MD1999999+0171REMSYN088AAXX  17004 82784 32595 61403 10239 20217 39702 40159 86800 333 10283 29082 55052 58017;
0192827840999992006061712004-07317-039300FM-12+040999999V0201401N002112200019N0200001N1+02501+02111101641ADDAA124000091GF102991021021008001001001KA1240N+02051MA1999999097071MD1999999+0011REMSYN082AAXX  17124 82784 22598 21404 10250 20211 39707 40164 82200 333 20205 58001 69914;EQDQ01  00002PRCP24
0137827840999992006061718004-07317-039300FM-12+040999999V0201401N002612200019N0200001N1+02921+01981101311ADDGF103991031021008001001001MA1999999096791MD1999999-0021REMSYN070AAXX  17184 82784 32598 31405 10292 20198 39679 40131 83200 333 59002;
0168827840999992006061800004-07317-039300FM-12+040999999V0201401N002110120019N0020001N1+02431+02131101541ADDGF107991071081008001001001KA1240M+02991MA1999999096981MD1999999-0041REMSYN088AAXX  18004 82784 32595 71404 10243 20213 39698 40154 87800 333 10299 29076 55107 59004;
0201827840999992006061812004-07317-039300FM-12+040999999V0201401N003112200019N0200001N1+02421+02171101691ADDAA124000591AY121061AY221061GF103991031021008001001001KA1240N+02101MA1999999097111MD1999999+0041MW1201REMSYN088AAXX  18124 82784 21598 31406 10242 20217 39711 40169 72022 83200 333 20210 58004 69944;
0137827840999992006061818004-07317-039300FM-12+040999999V0201401N002612200019N0200001N1+02901+02151101271ADDGF103991031021008001001001MA1999999096751MD1999999-0041REMSYN070AAXX  18184 82784 32598 31405 10290 20215 39675 40127 83200 333 59004;
0178827840999992006061900004-07317-039300FM-12+040999999V0201401N002112200019N0020001N1+02341+02071101481ADDGA1001+999999999GF100991001001999999001001KA1240M+02961MA1999999096911MD1999999-0071REMSYN082AAXX  19004 82784 32995 01404 10234 20207 39691 40148 333 10296 29080 55080 59007;
0156827840999992006061912004-07317-039300FM-12+040999999V0201801N004112200019N0200001N1+02481+01961101671ADDGF103991031011008001001001KA1240N+02061MA1999999097091MD1999999-0021REMSYN076AAXX  19124 82784 32598 31808 10248 20196 39709 40167 83100 333 20206 59002;
0137827840999992006061918004-07317-039300FM-12+040999999V0201801N004110075019N0200001N1+02901+02021101191ADDGF106991061011008001001001MA1999999096661MD1999999-0091REMSYN070AAXX  19184 82784 32598 61808 10290 20202 39666 40119 86100 333 59009;
0168827840999992006062000004-07317-039300FM-12+040999999V0201401N001512200019N0020001N1+02331+02001101571ADDGF102991021001012501011011KA1240M+02981MA1999999097001MD1999999+0091REMSYN088AAXX  20004 82784 32695 21403 10233 20200 39700 40157 82011 333 10298 29074 55099 58009;
0156827840999992006062012004-07317-039300FM-12+040999999V0201801N003610075019N0200001N1+02361+01911101721ADDGF105991051011008001001001KA1240N+02001MA1999999097131MD1999999+0041REMSYN076AAXX  20124 82784 32598 51807 10236 20191 39713 40172 85100 333 20200 58004;
0137827840999992006062018004-07317-039300FM-12+040999999V0201801N004110075019N0200001N1+02841+01961101291ADDGF106991061021008001001001MA1999999096751MD1999999-0091REMSYN070AAXX  20184 82784 32598 61808 10284 20196 39675 40129 86200 333 59009;
0178827840999992006062100004-07317-039300FM-12+040999999V0201401N001012200019N0020001N1+02201+01781101601ADDGA1001+999999999GF100991001001999999001001KA1240M+02991MA1999999097011MD1999999+0011REMSYN082AAXX  21004 82784 32995 01402 10220 20178 39701 40160 333 10299 29072 55095 58001;
0156827840999992006062112004-07317-039300FM-12+040999999V0201801N002110075019N0200001N1+02461+01941101701ADDGF106991061071008001001001KA1240N+02081MA1999999097111MD1999999-0021REMSYN076AAXX  21124 82784 32598 61804 10246 20194 39711 40170 86700 333 20208 59002;
0137827840999992006062118004-07317-039300FM-12+040999999V0201801N003110075019N0200001N1+02761+02021101371ADDGF108991081021008001999999MA1999999096821MD1999999+0071REMSYN070AAXX  21184 82784 32598 81806 10276 20202 39682 40137 882// 333 58007;
0168827840999992006062200004-07317-039300FM-12+040999999V0201801N002110075019N0020001N1+02361+02011101621ADDGF108991081051008001999999KA1240M+02891MA1999999097051MD1999999+0041REMSYN088AAXX  22004 82784 32595 81804 10236 20201 39705 40162 885// 333 10289 29075 55076 58004;
0156827840999992006062212004-07317-039300FM-12+040999999V0201401N003610075019N0200001N1+02411+01861101671ADDGF107991061021008001031001KA1240N+02081MA1999999097091MD1999999-0021REMSYN076AAXX  22124 82784 32598 71407 10241 20186 39709 40167 86230 333 20208 59002;
0137827840999992006062218004-07317-039300FM-12+040999999V0201401N003110075019N0200001N1+02901+01871101191ADDGF106991061021008001001001MA1999999096671MD1999999-0151REMSYN070AAXX  22184 82784 32598 61406 10290 20187 39667 40119 86200 333 59015;
0168827840999992006062300004-07317-039300FM-12+040999999V0201801N005110075019N0200001N1+02311+01961101581ADDGF108991081051008001999999KA1240M+03031MA1999999097001MD1999999-0051REMSYN088AAXX  23004 82784 32598 81810 10231 20196 39700 40158 885// 333 10303 29072 55088 59005;
0156827840999992006062312004-07317-039300FM-12+040999999V0201801N004112200019N0200001N1+02401+01891101681ADDGF103991031021008001001001KA1240N+01931MA1999999097091MD1999999+0001REMSYN076AAXX  23124 82784 32598 31808 10240 20189 39709 40168 83200 333 20193 58000;
0137827840999992006062318004-07317-039300FM-12+040999999V0201801N003112200019N0200001N1+02641+01881101291ADDGF103991031021008001001001MA1999999096721MD1999999+0051REMSYN070AAXX  23184 82784 32598 31806 10264 20188 39672 40129 83200 333 58005;
0168827840999992006062400004-07317-039300FM-12+040999999V0201401N002612200019N0020001N1+02221+01861101541ADDGF102991021041008001001001KA1240M+02661MA1999999096951MD1999999-0051REMSYN088AAXX  24004 82784 32595 21405 10222 20186 39695 40154 82400 333 10266 29074 55095 59005;
0156827840999992006062412004-07317-039300FM-12+040999999V0201401N002610075019N0200001N1+02461+01921101591ADDGF106991061021008001001001KA1240N+01821MA1999999097011MD1999999-0081REMSYN076AAXX  24124 82784 32598 61405 10246 20192 39701 40159 86200 333 20182 59008;
0137827840999992006062418004-07317-039300FM-12+040999999V0201401N001510120019N0200001N1+02711+02001101221ADDGF107991071081008001001001MA1999999096661MD1999999-0061REMSYN070AAXX  24184 82784 32598 71403 10271 20200 39666 40122 87800 333 59006;
0168827840999992006062500004-07317-039300FM-12+040999999V0201801N000510120019N0020001N1+02381+02131101531ADDGF107991071081008001001001KA1240M+02881MA1999999096961MD1999999+0011REMSYN088AAXX  25004 82784 32595 71801 10238 20213 39696 40153 87800 333 10288 29077 55075 58001;
0201827840999992006062512004-07317-039300FM-12+040999999V0201401N002110120019N0200001N1+02301+01961101651ADDAA124002091AY161061AY221061GF107991071081008001001001KA1240N+01991MA1999999097061MD1999999+0051MW1021REMSYN088AAXX  25124 82784 21598 71404 10230 20196 39706 40165 70262 87800 333 20199 58005 60024;
0137827840999992006062518004-07317-039300FM-12+040999999V0201401N001510075019N0200001N1+02651+02051101321ADDGF108991081041008001999999MA1999999096751MD1999999+0091REMSYN070AAXX  25184 82784 32598 81403 10265 20205 39675 40132 884// 333 58009;
0168827840999992006062600004-07317-039300FM-12+040999999V0201401N001510075019N0020001N1+02461+01991101561ADDGF108991081041008001999999KA1240M+02851MA1999999096991MD1999999+0031REMSYN088AAXX  26004 82784 32595 81403 10246 20199 39699 40156 884// 333 10285 29075 55023 58003;
0156827840999992006062612004-07317-039300FM-12+040999999V0201401N002112200019N0200001N1+02581+01921101671ADDGF102991021011008001001001KA1240N+01861MA1999999097111MD1999999+0051REMSYN076AAXX  26124 82784 32598 21404 10258 20192 39711 40167 82100 333 20186 58005;
0137827840999992006062618004-07317-039300FM-12+040999999V0200901N002612200019N0200001N1+02981+02041101211ADDGF104991041011008001001001MA1999999096691MD1999999-0061REMSYN070AAXX  26184 82784 32598 40905 10298 20204 39669 40121 84100 333 59006;
0168827840999992006062700004-07317-039300FM-12+040999999V0209999C000010075019N0020001N1+02221+02081101561ADDGF108991081071008001999999KA1240M+03071MA1999999096991MD1999999+0001REMSYN088AAXX  27004 82784 32595 80000 10222 20208 39699 40156 887// 333 10307 29077 55094 58000;
0156827840999992006062712004-07317-039300FM-12+040999999V0200901N001510075019N0200001N1+02521+02131101681ADDGF106991061021008001001001KA1240N+02001MA1999999097091MD1999999-0081REMSYN076AAXX  27124 82784 32598 60903 10252 20213 39709 40168 86200 333 20200 59008;
0137827840999992006062718004-07317-039300FM-12+040999999V0200901N002110075019N0200001N1+03021+02071101301ADDGF106991061071008001001001MA1999999096771MD1999999+0081REMSYN070AAXX  27184 82784 32598 60904 10302 20207 39677 40130 86700 333 58008;
0168827840999992006062800004-07317-039300FM-12+040999999V0201801N001510075019N0020001N1+02381+02191101671ADDGF108991081071008001999999KA1240M+03181MA1999999097101MD1999999+0111REMSYN088AAXX  28004 82784 32595 81803 10238 20219 39710 40167 887// 333 10318 29078 55075 58011;
0156827840999992006062812004-07317-039300FM-12+040999999V0200901N002610075019N0200001N1+02441+02171101781ADDGF108991081051008001999999KA1240N+02081MA1999999097201MD1999999+0011REMSYN076AAXX  28124 82784 32598 80905 10244 20217 39720 40178 885// 333 20208 58001;
0137827840999992006062818004-07317-039300FM-12+040999999V0200901N001510075019N0200001N1+02971+02121101291ADDGF107991071021008001001001MA1999999096781MD1999999+0011REMSYN070AAXX  28184 82784 32598 70903 10297 20212 39678 40129 87200 333 58001;
0168827840999992006062900004-07317-039300FM-12+040999999V0200901N002110075019N0020001N1+02481+02111101721ADDGF108991081051008001999999KA1240M+03141MA1999999097151MD1999999+0051REMSYN088AAXX  29004 82784 32595 80904 10248 20211 39715 40172 885// 333 10314 29076 55065 58005;
0175827840999992006063012004-07317-039300FM-12+040999999V0201801N003112200019N0200001N1+02471+01881101841ADDGF102991999021008001001001KA1240N+01961MA1999999097251MD1999999+0051REMSYN076AAXX  30124 82784 32598 21806 10247 20188 39725 40184 83200 333 20196 58005;EQDQ01+000032SCOTLC
0137827840999992006063018004-07317-039300FM-12+040999999V0201801N002110075019N0200001N1+02841+01961101321ADDGF108991081021008001001001MA1999999096791MD1999999-0011REMSYN070AAXX  30184 82784 32598 81804 10284 20196 39679 40132 88200 333 59001;
0168827840999992006070100004-07317-039300FM-12+040999999V0201401N001510120019N0020001N1+02451+02011101711ADDGF107991071081008001001001KA1240M+02951MA1999999097141MD1999999+0001REMSYN088AAXX  01004 82784 32595 71403 10245 20201 39714 40171 87800 333 10295 29071 55076 58000;
0156827840999992006070112004-07317-039300FM-12+040999999V0201401N003110075019N0200001N1+02321+01891101811ADDGF106991061021008001001001KA1240N+02101MA1999999097231MD1999999-0021REMSYN076AAXX  01124 82784 32598 61406 10232 20189 39723 40181 86200 333 20210 59002;
0137827840999992006070118004-07317-039300FM-12+040999999V0201401N003610075019N0200001N1+02881+01971101381ADDGF105991051021008001001001MA1999999096851MD1999999+0061REMSYN070AAXX  01184 82784 32598 51407 10288 20197 39685 40138 85200 333 58006;
0178827840999992006070200004-07317-039300FM-12+040999999V0201801N001012200019N0020001N1+02231+01971101741ADDGA1001+999999999GF100991001001999999001001KA1240M+03041MA1999999097141MD1999999+0001REMSYN082AAXX  02004 82784 32995 01802 10223 20197 39714 40174 333 10304 29077 55067 58000;
0156827840999992006070212004-07317-039300FM-12+040999999V0201401N003110120019N0200001N1+02381+01971101841ADDGF107991071081008001001001KA1240N+01781MA1999999097241MD1999999+0011REMSYN076AAXX  02124 82784 32598 71406 10238 20197 39724 40184 87800 333 20178 58001;
0137827840999992006070218004-07317-039300FM-12+040999999V0201401N003110075019N0200001N1+02911+01951101361ADDGF105991051021008001001001MA1999999096821MD1999999-0031REMSYN070AAXX  02184 82784 32598 51406 10291 20195 39682 40136 85200 333 59003;
0168827840999992006070300004-07317-039300FM-12+040999999V0201401N001512200019N0020001N1+02401+02051101691ADDGF102991021081008001001001KA1240M+03031MA1999999097111MD1999999-0031REMSYN088AAXX  03004 82784 32595 21403 10240 20205 39711 40169 82800 333 10303 29074 55073 59003;
0156827840999992006070312004-07317-039300FM-12+040999999V0201801N004610075019N0200001N1+02381+01871101811ADDGF107991051021008001031001KA1240N+02001MA1999999097231MD1999999-0011REMSYN076AAXX  03124 82784 32598 71809 10238 20187 39723 40181 85230 333 20200 59001;
0137827840999992006070318004-07317-039300FM-12+040999999V0201801N004110075019N0200001N1+02891+01811101321ADDGF106991061011008001001001MA1999999096801MD1999999-0021REMSYN070AAXX  03184 82784 32598 61808 10289 20181 39680 40132 86100 333 59002;
0168827840999992006070400004-07317-039300FM-12+040999999V0201801N003112200019N0020001N1+02261+01981101781ADDGF102991021011008001001011KA1240M+03011MA1999999097181MD1999999+0071REMSYN088AAXX  04004 82784 32595 21806 10226 20198 39718 40178 82101 333 10301 29073 55083 58007;
0156827840999992006070412004-07317-039300FM-12+040999999V0201401N004110075019N0200001N1+02521+01931101261ADDGF107991071021008001001001KA1240N+02081MA1999999096701MD1999999+0071REMSYN076AAXX  04124 82784 32598 71408 10252 20193 39670 40126 87200 333 20208 58007;
0137827840999992006070418004-07317-039300FM-12+040999999V0201401N003110075019N0200001N1+02701+01891101441ADDGF108991081051008001999999MA1999999096881MD1999999+0081REMSYN070AAXX  04184 82784 32598 81406 10270 20189 39688 40144 885// 333 58008;
0168827840999992006070500004-07317-039300FM-12+040999999V0201801N004610120019N0020001N1+02701+02031101731ADDGF108991081081008001999999KA1240M+03031MA1999999097161MD1999999-0021REMSYN088AAXX  05004 82784 32595 81809 10270 20203 39716 40173 888// 333 10303 29075 55043 59002;
0156827840999992006070512004-07317-039300FM-12+040999999V0201801N004110075019N0200001N1+02361+01911101871ADDGF108991081051008001999999KA1240N+02021MA1999999097301MD1999999+0001REMSYN076AAXX  05124 82784 32598 81808 10236 20191 39730 40187 885// 333 20202 58000;
0137827840999992006070518004-07317-039300FM-12+040999999V0201801N003110075019N0200001N1+02801+02031101431ADDGF108991081021008001999999MA1999999096871MD1999999-0011REMSYN070AAXX  05184 82784 32598 81806 10280 20203 39687 40143 882// 333 59001;
0178827840999992006070600004-07317-039300FM-12+040999999V0201801N003112200019N0020001N1+02331+01951101721ADDGA1001+999999999GF100991001001999999001001KA1240M+02931MA1999999097131MD1999999-0031REMSYN082AAXX  06004 82784 32995 01806 10233 20195 39713 40172 333 10293 29074 55041 59003;
0156827840999992006070612004-07317-039300FM-12+040999999V0200501N002110075019N0200001N1+02371+01991101921ADDGF108991081021008001999999KA1240N+01801MA1999999097321MD1999999+0021REMSYN076AAXX  06124 82784 32598 80504 10237 20199 39732 40192 882// 333 20180 58002;
0156827840999992006070618004-07317-039300FM-12+040999999V0201801N001510075019N0200001N1+02781+02091101501ADDGF108991999021008001001001MA1999999096931MD1999999+0061REMSYN070AAXX  06184 82784 32598 81803 10278 20209 39693 40150 86200 333 58006;EQDQ01+000062SCOTLC
0168827840999992006070700004-07317-039300FM-12+040999999V0200901N001512200019N0020001N1+02321+02051101701ADDGF101991011001017501031001KA1240M+02901MA1999999097111MD1999999-0021REMSYN088AAXX  07004 82784 32795 10903 10232 20205 39711 40170 81030 333 10290 29079 55053 59002;
0156827840999992006070712004-07317-039300FM-12+040999999V0201401N001012200019N0200001N1+02491+01871101801ADDGF102991021011017501001001KA1240N+02081MA1999999097221MD1999999-0011REMSYN076AAXX  07124 82784 32798 21402 10249 20187 39722 40180 82100 333 20208 59001;
0156827840999992006070718004-07317-039300FM-12+040999999V0200501N003110075019N0200001N1+03091+02011101331ADDGF108991999021008001001001MA1999999096841MD1999999-0091REMSYN070AAXX  07184 82784 32598 80506 10309 20201 39684 40133 86200 333 59009;EQDQ01+000062SCOTLC
0168827840999992006070800004-07317-039300FM-12+040999999V0200901N001512200019N0020001N1+02471+02011101681ADDGF104991041081008001001001KA1240M+03211MA1999999097121MD1999999+0011REMSYN088AAXX  08004 82784 32595 40903 10247 20201 39712 40168 84800 333 10321 29068 55078 58001;
0156827840999992006070812004-07317-039300FM-12+040999999V0201401N001512200019N0200001N1+02371+01841101741ADDGF102991021011008001001001KA1240N+01881MA1999999097161MD1999999-0061REMSYN076AAXX  08124 82784 32598 21403 10237 20184 39716 40174 82100 333 20188 59006;
0137827840999992006070818004-07317-039300FM-12+040999999V0201401N003112200019N0200001N1+02851+01791101331ADDGF103991021021008001031001MA1999999096771MD1999999-0071REMSYN070AAXX  08184 82784 32598 31406 10285 20179 39677 40133 82230 333 59007;
0168827840999992006070900004-07317-039300FM-12+040999999V0201401N001510075019N0020001N1+02391+01861101581ADDGF105991051051008001001001KA1240M+02951MA1999999097011MD1999999-0111REMSYN088AAXX  09004 82784 32595 51403 10239 20186 39701 40158 85500 333 10295 29067 55094 59011;
0156827840999992006070912004-07317-039300FM-12+040999999V0201401N002110075019N0200001N1+02411+01861101731ADDGF106991061041008001001001KA1240N+02071MA1999999097151MD1999999-0011REMSYN076AAXX  09124 82784 32598 61404 10241 20186 39715 40173 86400 333 20207 59001;
0137827840999992006070918004-07317-039300FM-12+040999999V0201401N003110120019N0200001N1+02691+02041101331ADDGF106991061081008001001001MA1999999096771MD1999999+0001REMSYN070AAXX  09184 82784 32598 61406 10269 20204 39677 40133 86800 333 58000;
0232827840999992006071000004-07317-039300FM-12+040999999V0201401N002112200019N0020001N1+02381+01871101501ADDAA106000091AY151061AY221061GF101991011011008001001001KA1240M+02861MA1999999096931MD1999999-0081MW1031REMSYN100AAXX  10004 82784 21595 11404 10238 20187 39693 40150 70352 81100 333 10286 29072 55028 59008 69911;EQDQ01  00002PRCP06
0192827840999992006071012004-07317-039300FM-12+040999999V0201801N003612200019N0200001N1+02441+01711101581ADDAA124000091GF102991021011008001011001KA1240N+02101MA1999999097011MD1999999-0141REMSYN082AAXX  10124 82784 22598 21807 10244 20171 39701 40158 82110 333 20210 59014 69914;EQDQ01  00002PRCP24
0156827840999992006071018004-07317-039300FM-12+040999999V0201801N002612200019N0200001N1+02901+01781101171ADDGF102991999021008001001001MA1999999096681MD1999999-0091REMSYN070AAXX  10184 82784 32598 21805 10290 20178 39668 40117 83200 333 59009;EQDQ01+000032SCOTLC
0168827840999992006071100004-07317-039300FM-12+040999999V0201401N001512200019N0020001N1+02301+01921101581ADDGF103991011011008001031001KA1240M+03031MA1999999097001MD1999999+0071REMSYN088AAXX  11004 82784 32595 31403 10230 20192 39700 40158 81130 333 10303 29068 55106 58007;
0156827840999992006071112004-07317-039300FM-12+040999999V0201801N003610450019N0200001N1+02561+01671101581ADDGF105991031011008001041001KA1240N+01901MA1999999097021MD1999999+0011REMSYN076AAXX  11124 82784 32598 51807 10256 20167 39702 40158 83140 333 20190 58001;
0137827840999992006071118004-07317-039300FM-12+040999999V0201801N003110075019N0200001N1+03001+01781101201ADDGF108991081051008001001001MA1999999096661MD1999999-0021REMSYN070AAXX  11184 82784 32598 81806 10300 20178 39666 40120 88500 333 59002;
0168827840999992006071200004-07317-039300FM-12+040999999V0201801N004119999999N0020001N1+02561+01901101641ADDGF108991081071999999999999KA1240M+03191MA1999999097091MD1999999+0091REMSYN088AAXX  12004 82784 32/95 81808 10256 20190 39709 40164 887// 333 10319 29060 55057 58009;
0156827840999992006071212004-07317-039300FM-12+040999999V0201801N003110042019N0200001N1+02521+02001101601ADDGF107991071051004501001001KA1240N+02081MA1999999097051MD1999999+0031REMSYN076AAXX  12124 82784 32498 71806 10252 20200 39705 40160 87500 333 20208 58003;
0168827840999992006071300004-07317-039300FM-12+040999999V0201801N002610075019N0020001N1+02281+01961101641ADDGF108991081091008001999999KA1240M+02851MA1999999097061MD1999999-0031REMSYN088AAXX  13004 82784 32595 81805 10228 20196 39706 40164 889// 333 10285 29076 55063 59003;
0156827840999992006071312004-07317-039300FM-12+040999999V0201801N003110075019N0200001N1+02411+01841101661ADDGF107991071021008001001001KA1240N+02081MA1999999097071MD1999999+0021REMSYN076AAXX  13124 82784 32598 71806 10241 20184 39707 40166 87200 333 20208 58002;
0156827840999992006071318004-07317-039300FM-12+040999999V0201801N002110075019N0200001N1+02671+01921101451ADDGF108991999021008001001001MA1999999096871MD1999999+0111REMSYN070AAXX  13184 82784 32598 81804 10267 20192 39687 40145 85200 333 58011;EQDQ01+000052SCOTLC
0178827840999992006071400004-07317-039300FM-12+040999999V0201801N002612200019N0020001N1+02331+01721101671ADDGA1001+999999999GF100991001001999999001001KA1240M+02861MA1999999097081MD1999999+0021REMSYN082AAXX  14004 82784 32995 01805 10233 20172 39708 40167 333 10286 29067 55070 58002;
0175827840999992006071412004-07317-039300FM-12+040999999V0201801N002119999999N0200001N1+02321+01671101731ADDGF107991999021008001001001KA1240N+01801MA1999999097131MD1999999+0061REMSYN076AAXX  14124 82784 32598 71804 10232 20167 39713 40173 84200 333 20180 58006;EQDQ01+000042SCOTLC
0137827840999992006071418004-07317-039300FM-12+040999999V0201801N003110075019N0200001N1+02861+01721101321ADDGF105991051021008001001001MA1999999096751MD1999999-0121REMSYN070AAXX  14184 82784 32598 51806 10286 20172 39675 40132 85200 333 59012;
0178827840999992006071500004-07317-039300FM-12+040999999V0201401N001512200019N0020001N1+02161+01781101591ADDGA1001+999999999GF100991001001999999001001KA1240M+02921MA1999999096991MD1999999-0091REMSYN082AAXX  15004 82784 32995 01403 10216 20178 39699 40159 333 10292 29069 55096 59009;
0156827840999992006071512004-07317-039300FM-12+040999999V0201401N002112200019N0200001N1+02401+01861101771ADDGF102991021021008001001001KA1240N+01831MA1999999097161MD1999999+0031REMSYN076AAXX  15124 82784 32598 21404 10240 20186 39716 40177 82200 333 20183 58003;
0137827840999992006071518004-07317-039300FM-12+040999999V0201401N002112200019N0200001N1+02871+01781101371ADDGF103991031021008001001001MA1999999096821MD1999999+0071REMSYN070AAXX  15184 82784 32598 31404 10287 20178 39682 40137 83200 333 58007;
0164827840999992006071600004-07317-039300FM-12+040999999V0201401N002612200019N0020001N1+02381+01891101601ADDGA1001+999999999GF100991001001999999001001KA1240M+02991MA1999999097031REMSYN082AAXX  16004 82784 32995 01405 10238 20189 39703 40160 333 10299 29068 55105 58804;
0156827840999992006071612004-07317-039300FM-12+040999999V0201801N002110075019N0200001N1+02371+01911101681ADDGF106991061041008001001001KA1240N+02021MA1999999097101MD1999999-0061REMSYN076AAXX  16124 82784 32598 61804 10237 20191 39710 40168 86400 333 20202 59006;
0137827840999992006071618004-07317-039300FM-12+040999999V0201401N002112200019N0200001N1+02941+01881101291ADDGF103991031021008001001001MA1999999096751MD1999999-0071REMSYN070AAXX  16184 82784 32598 31404 10294 20188 39675 40129 83200 333 59007;
0178827840999992006071700004-07317-039300FM-12+040999999V0201401N001512200019N0020001N1+02191+01921101571ADDGA1001+999999999GF100991001001999999001001KA1240M+03051MA1999999096981MD1999999-0051REMSYN082AAXX  17004 82784 32995 01403 10219 20192 39698 40157 333 10305 29074 55057 59005;
0175827840999992006071712004-07317-039300FM-12+040999999V0201801N002610075019N0200001N1+02321+02051101741ADDGF107991999021008001001001KA1240N+02071MA1999999097141MD1999999+0041REMSYN076AAXX  17124 82784 32598 71805 10232 20205 39714 40174 86200 333 20207 58004;EQDQ01+000062SCOTLC
0137827840999992006071718004-07317-039300FM-12+040999999V0201801N004610075019N0200001N1+02781+01931101321ADDGF106991061011008001001001MA1999999096771MD1999999+0021REMSYN070AAXX  17184 82784 32598 61809 10278 20193 39677 40132 86100 333 58002;
0168827840999992006071800004-07317-039300FM-12+040999999V0201801N003119999999N0020001N1+02321+01851101751ADDGF106991061999008001999999KA1240M+02911MA1999999097161MD1999999-0181REMSYN088AAXX  18004 82784 32595 61806 10232 20185 39716 40175 86/// 333 10291 29073 55078 59018;
0156827840999992006071812004-07317-039300FM-12+040999999V0201801N004610075019N0200001N1+02361+01611101751ADDGF106991061021008001001001KA1240N+01901MA1999999097161MD1999999+0021REMSYN076AAXX  18124 82784 32598 61809 10236 20161 39716 40175 86200 333 20190 58002;
0137827840999992006071818004-07317-039300FM-12+040999999V0201801N003610075019N0200001N1+02801+01661101331ADDGF106991061021008001001001MA1999999096771MD1999999+0001REMSYN070AAXX  18184 82784 32598 61807 10280 20166 39677 40133 86200 333 58000;
0168827840999992006071900004-07317-039300FM-12+040999999V0209999C000012200019N0020001N1+02191+01781101591ADDGF103991021071008001001011KA1240M+02901MA1999999097001MD1999999-0161REMSYN088AAXX  19004 82784 32595 30000 10219 20178 39700 40159 82701 333 10290 29067 55100 59016;
0156827840999992006071912004-07317-039300FM-12+040999999V0201401N003112200019N0200001N1+02401+01801101801ADDGF102991021011008001001001KA1240N+01941MA1999999097201MD1999999+0041REMSYN076AAXX  19124 82784 32598 21406 10240 20180 39720 40180 82100 333 20194 58004;
0137827840999992006071918004-07317-039300FM-12+040999999V0201401N001512200019N0200001N1+02911+01711101451ADDGF104991041021008001001001MA1999999096881MD1999999+0111REMSYN070AAXX  19184 82784 32598 41403 10291 20171 39688 40145 84200 333 58011;
0178827840999992006072000004-07317-039300FM-12+040999999V0200901N001012200019N0010001N1+02181+01801101631ADDGA1001+999999999GF100991001001999999001001KA1240M+03081MA1999999097041MD1999999+0041REMSYN082AAXX  20004 82784 32994 00902 10218 20180 39704 40163 333 10308 29069 55107 58004;
0156827840999992006072012004-07317-039300FM-12+040999999V0200501N001012200019N0200001N1+02441+01901101771ADDGF101991011001008001001011KA1240N+01621MA1999999097171MD1999999-0031REMSYN076AAXX  20124 82784 32598 10502 10244 20190 39717 40177 81001 333 20162 59003;
0137827840999992006072018004-07317-039300FM-12+040999999V0201801N000510075019N0200001N1+03081+02131101331ADDGF105991051021008001001001MA1999999096771MD1999999-0111REMSYN070AAXX  20184 82784 32598 51801 10308 20213 39677 40133 85200 333 59011;
0178827840999992006072100004-07317-039300FM-12+040999999V0201801N001512200019N0020001N1+02541+01601101531ADDGA1001+999999999GF100991001001999999001001KA1240M+03311MA1999999096981MD1999999-0061REMSYN082AAXX  21004 82784 32995 01803 10254 20160 39698 40153 333 10331 29060 55103 59006;
0166827840999992006072112004-07317-039300FM-12+040999999V0201801N001512200019N0200001N1+02561+01531101741ADDGA1001+999999999GF100991001001999999001001KA1240N+01701MA1999999097191MD1999999+0021REMSYN070AAXX  21124 82784 32998 01803 10256 20153 39719 40174 333 20170 58002;
0137827840999992006072118004-07317-039300FM-12+040999999V0201801N003112200019N0200001N1+03081+01481101251ADDGF101991011021008001001001MA1999999096731MD1999999-0041REMSYN070AAXX  21184 82784 32598 11806 10308 20148 39673 40125 81200 333 59004;
0178827840999992006072200004-07317-039300FM-12+040999999V0201401N003112200019N0020001N1+02411+01581101611ADDGA1001+999999999GF100991001001999999001001KA1240M+03241MA1999999097051MD1999999+0071REMSYN082AAXX  22004 82784 32995 01406 10241 20158 39705 40161 333 10324 29053 55106 58007;
0156827840999992006072212004-07317-039300FM-12+040999999V0201401N003112200019N0200001N1+02341+01621101751ADDGF102991021011008001001001KA1240N+01811MA1999999097161MD1999999-0031REMSYN076AAXX  22124 82784 32598 21406 10234 20162 39716 40175 82100 333 20181 59003;
0147827840999992006072218004-07317-039300FM-12+040999999V0201401N003112200019N0200001N1+03021+01621101221ADDGA1001+999999999GF100991001001999999001001MA1999999096681MD1999999-0051REMSYN064AAXX  22184 82784 32598 01406 10302 20162 39668 40122 333 59005;
0178827840999992006072300004-07317-039300FM-12+040999999V0200901N001512200019N0020001N1+02271+01641101471ADDGA1001+999999999GF100991001001999999001001KA1240M+03321MA1999999096881MD1999999-0171REMSYN082AAXX  23004 82784 32995 00903 10227 20164 39688 40147 333 10332 29061 55017 59017;
0166827840999992006072312004-07317-039300FM-12+040999999V0201801N002112200019N0200001N1+02431+01721101521ADDGA1001+999999999GF100991001001999999001001KA1240N+01821MA1999999096941MD1999999-0221REMSYN070AAXX  23124 82784 32998 01804 10243 20172 39694 40152 333 20182 59022;
0137827840999992006072318004-07317-039300FM-12+040999999V0201801N001510075019N0200001N1+03091+01521100981ADDGF108991081021008001999999MA1999999096461MD1999999-0221REMSYN070AAXX  23184 82784 32598 81803 10309 20152 39646 40098 882// 333 59022;
0168827840999992006072400004-07317-039300FM-12+040999999V0200901N001010075019N0020001N1+02621+01831101321ADDGF108991081061008001999999KA1240M+03211MA1999999096781MD1999999-0101REMSYN088AAXX  24004 82784 32595 80902 10262 20183 39678 40132 886// 333 10321 29057 55084 59010;
0201827840999992006072412004-07317-039300FM-12+040999999V0200901N002610450019N0200001N1+02321+02071101461ADDAA124007191AY161061AY221061GF106991041021008001051001KA1240N+01951MA1999999096901MD1999999-0041MW1021REMSYN088AAXX  24124 82784 21598 60905 10232 20207 39690 40146 70262 84250 333 20195 59004 60074;
0137827840999992006072418004-07317-039300FM-12+040999999V0201401N002112200019N0200001N1+02991+01411101111ADDGF104991031011008001051001MA1999999096581MD1999999+0121REMSYN070AAXX  24184 82784 32598 41404 10299 20141 39658 40111 83150 333 58012;
0168827840999992006072500004-07317-039300FM-12+040999999V0201801N005112200019N0020001N1+02401+01631101381ADDGF102991021011008001001001KA1240M+03081MA1999999096811MD1999999+0031REMSYN088AAXX  25004 82784 32595 21810 10240 20163 39681 40138 82100 333 10308 29062 55084 58003;
0156827840999992006072512004-07317-039300FM-12+040999999V0201401N003110075019N0200001N1+02471+01881101461ADDGF105991051021008001001001KA1240N+01901MA1999999096901MD1999999+0001REMSYN076AAXX  25124 82784 32598 51406 10247 20188 39690 40146 85200 333 20190 58000;
0137827840999992006072518004-07317-039300FM-12+040999999V0201801N003610075019N0200001N1+02961+01871101091ADDGF105991051021008001001001MA1999999096561MD1999999-0021REMSYN070AAXX  25184 82784 32598 51807 10296 20187 39656 40109 85200 333 59002;
0178827840999992006072600004-07317-039300FM-12+040999999V0201401N002112200019N0020001N1+02371+01911101361ADDGA1001+999999999GF100991001001999999001001KA1240M+03051MA1999999096801MD1999999-0011REMSYN082AAXX  26004 82784 32995 01404 10237 20191 39680 40136 333 10305 29068 55100 59001;
0156827840999992006072612004-07317-039300FM-12+040999999V0201801N003112200019N0200001N1+02551+01931101391ADDGF103991031021008001001001KA1240N+02051MA1999999096841MD1999999-0061REMSYN076AAXX  26124 82784 32598 31806 10255 20193 39684 40139 83200 333 20205 59006;
0137827840999992006072618004-07317-039300FM-12+040999999V0201401N002612200019N0200001N1+03041+02001101051ADDGF102991021021008001001001MA1999999096531MD1999999-0031REMSYN070AAXX  26184 82784 32598 21405 10304 20200 39653 40105 82200 333 59003;
0168827840999992006072700004-07317-039300FM-12+040999999V0201801N002110075019N0200001N1+02471+01991101391ADDGF106991061051008001001001KA1240M+03131MA1999999096851MD1999999+0051REMSYN088AAXX  27004 82784 32598 61804 10247 20199 39685 40139 86500 333 10313 29068 55095 58005;
0156827840999992006072712004-07317-039300FM-12+040999999V0201401N003110075019N0200001N1+02461+01921101551ADDGF106991061041008001001001KA1240N+02141MA1999999096991MD1999999+0151REMSYN076AAXX  27124 82784 32598 61406 10246 20192 39699 40155 86400 333 20214 58015;
0137827840999992006072718004-07317-039300FM-12+040999999V0201401N002110120019N0200001N1+02941+01881101211ADDGF107991071081008001001001MA1999999096681MD1999999+0151REMSYN070AAXX  27184 82784 32598 71404 10294 20188 39668 40121 87800 333 58015;
0178827840999992006072800004-07317-039300FM-12+040999999V0200901N000512200019N0020001N1+02401+02031101391ADDGA1001+999999999GF100991001001999999001001KA1240M+03051MA1999999096841MD1999999-0011REMSYN082AAXX  28004 82784 32995 00901 10240 20203 39684 40139 333 10305 29070 55041 59001;
0156827840999992006072812004-07317-039300FM-12+040999999V0201401N003112200019N0200001N1+02521+01691101591ADDGF101991011011008001001001KA1240N+01831MA1999999097031MD1999999+0041REMSYN076AAXX  28124 82784 32598 11406 10252 20169 39703 40159 81100 333 20183 58004;
0137827840999992006072818004-07317-039300FM-12+040999999V0201401N003112200019N0200001N1+03181+01651101071ADDGF101991011011008001001001MA1999999096571MD1999999-0111REMSYN070AAXX  28184 82784 32598 11406 10318 20165 39657 40107 81100 333 59011;
0178827840999992006072900004-07317-039300FM-12+040999999V0201401N007212200019N0020001N1+02481+01701101351ADDGA1001+999999999GF100991001001999999001001KA1240M+03271MA1999999096811MD1999999-0031REMSYN082AAXX  29004 82784 32995 01414 10248 20170 39681 40135 333 10327 29056 55108 59003;
0166827840999992006072912004-07317-039300FM-12+040999999V0201401N001512200019N0200001N1+02451+01831101521ADDGA1001+999999999GF100991001001999999001001KA1240N+01581MA1999999096961MD1999999-0071REMSYN070AAXX  29124 82784 32998 01403 10245 20183 39696 40152 333 20158 59007;
0137827840999992006072918004-07317-039300FM-12+040999999V0200501N001512200019N0200001N1+03191+01821101061ADDGF102991021021008001001001MA1999999096531MD1999999-0041REMSYN070AAXX  29184 82784 32598 20503 10319 20182 39653 40106 82200 333 59004;
0178827840999992006073000004-07317-039300FM-12+040999999V0201801N000512200019N0020001N1+02291+01881101291ADDGA1001+999999999GF100991001001999999001001KA1240M+03271MA1999999096721MD1999999-0091REMSYN082AAXX  30004 82784 32995 01801 10229 20188 39672 40129 333 10327 29067 55107 59009;
0156827840999992006073012004-07317-039300FM-12+040999999V0200901N001512200019N0200001N1+02591+02121101561ADDGF102991021011008001001001KA1240N+01831MA1999999097001MD1999999+0041REMSYN076AAXX  30124 82784 32598 20903 10259 20212 39700 40156 82100 333 20183 58004;
0137827840999992006073018004-07317-039300FM-12+040999999V0200501N002112200019N0200001N1+03311+01741101111ADDGF103991031021008001001001MA1999999096611MD1999999+0081REMSYN070AAXX  30184 82784 32598 30504 10331 20174 39661 40111 83200 333 58008;
0178827840999992006073100004-07317-039300FM-12+040999999V0209999C000012200019N0020001N1+02321+01831101471ADDGA1001+999999999GF100991001001999999001001KA1240M+03381MA1999999096911MD1999999+0191REMSYN082AAXX  31004 82784 32995 00000 10232 20183 39691 40147 333 10338 29066 55106 58019;
0156827840999992006073112004-07317-039300FM-12+040999999V0200501N002112200019N0200001N1+02481+01961101871ADDGF103991011011008001051001KA1240N+02141MA1999999097281MD1999999+0281REMSYN076AAXX  31124 82784 32598 30504 10248 20196 39728 40187 81150 333 20214 58028;
0137827840999992006073118004-07317-039300FM-12+040999999V0201801N002610075019N0200001N1+03361+01601101311ADDGF106991061021008001001001MA1999999096781MD1999999+0171REMSYN070AAXX  31184 82784 32598 61805 10336 20160 39678 40131 86200 333 58017;
0168827840999992006080100004-07317-039300FM-12+040999999V0201801N001510075019N0020001N1+02621+01791101621ADDGF105991051071008001001001KA1240M+03351MA1999999097071MD1999999+0161REMSYN088AAXX  01004 82784 32595 51803 10262 20179 39707 40162 85700 333 10335 29058 55098 58016;
0156827840999992006080112004-07317-039300FM-12+040999999V0201801N003110075019N0200001N1+02621+01881101921ADDGF105991051011008001001001KA1240N+02101MA1999999097371MD1999999+0091REMSYN076AAXX  01124 82784 32598 51806 10262 20188 39737 40192 85100 333 20210 58009;
0137827840999992006080118004-07317-039300FM-12+040999999V0201801N003110075019N0200001N1+02921+01921101501ADDGF105991051021008001001001MA1999999096961MD1999999+0141REMSYN070AAXX  01184 82784 32598 51806 10292 20192 39696 40150 85200 333 58014;
0178827840999992006080200004-07317-039300FM-12+040999999V0201801N002612200019N0020001N1+02501+01721101791ADDGA1001+999999999GF100991001001999999001001KA1240M+03261MA1999999097241MD1999999+0171REMSYN082AAXX  02004 82784 32995 01805 10250 20172 39724 40179 333 10326 29061 55081 58017;
0156827840999992006080212004-07317-039300FM-12+040999999V0201801N004112200019N0200001N1+02441+01641101921ADDGF107991021011008001001011KA1240N+01901MA1999999097341MD1999999-0031REMSYN076AAXX  02124 82784 32598 71808 10244 20164 39734 40192 82101 333 20190 59003;
0137827840999992006080218004-07317-039300FM-12+040999999V0201801N003112200019N0200001N1+03001+01571101321ADDGF103991031001012501051001MA1999999096771MD1999999-0191REMSYN070AAXX  02184 82784 32698 31806 10300 20157 39677 40132 83050 333 59019;
0178827840999992006080300004-07317-039300FM-12+040999999V0201401N002612200019N0020001N1+02371+01681101701ADDGA1001+999999999GF100991001001999999001001KA1240M+03111MA1999999097121MD1999999-0121REMSYN082AAXX  03004 82784 32995 01405 10237 20168 39712 40170 333 10311 29058 55105 59012;
0156827840999992006080312004-07317-039300FM-12+040999999V0201801N003112200019N0200001N1+02421+01741101871ADDGF103991011021008001001011KA1240N+01931MA1999999097281MD1999999-0061REMSYN076AAXX  03124 82784 32598 31806 10242 20174 39728 40187 81201 333 20193 59006;
0137827840999992006080318004-07317-039300FM-12+040999999V0201401N003110450019N0200001N1+02871+01481101301ADDGF108991041021008001051999MA1999999096761MD1999999-0011REMSYN070AAXX  03184 82784 32598 81406 10287 20148 39676 40130 8425/ 333 59001;
0178827840999992006080400004-07317-039300FM-12+040999999V0200901N000512200019N0020001N1+02341+01721101601ADDGA1001+999999999GF100991001001999999001001KA1240M+03021MA1999999097031MD1999999-0091REMSYN082AAXX  04004 82784 32995 00901 10234 20172 39703 40160 333 10302 29061 55082 59009;
0156827840999992006080412004-07317-039300FM-12+040999999V0201801N002112200019N0200001N1+02451+01811101721ADDGF101991011011008001001001KA1240N+01921MA1999999097141MD1999999-0141REMSYN076AAXX  04124 82784 32598 11804 10245 20181 39714 40172 81100 333 20192 59014;
0137827840999992006080418004-07317-039300FM-12+040999999V0201401N002610075019N0200001N1+03041+01821101171ADDGF106991061021008001001001MA1999999096651MD1999999-0111REMSYN070AAXX  04184 82784 32598 61405 10304 20182 39665 40117 86200 333 59011;
0168827840999992006080500004-07317-039300FM-12+040999999V0201401N002612200019N0020001N1+02481+01891101451ADDGF102991021041008001001001KA1240M+03151MA1999999096891MD1999999-0141REMSYN088AAXX  05004 82784 32595 21405 10248 20189 39689 40145 82400 333 10315 29063 55106 59014;
0156827840999992006080512004-07317-039300FM-12+040999999V0201401N003112200019N0200001N1+02431+01821101701ADDGF101991011011008001001001KA1240N+01931MA1999999097131MD1999999-0011REMSYN076AAXX  05124 82784 32598 11406 10243 20182 39713 40170 81100 333 20193 59001;
0137827840999992006080518004-07317-039300FM-12+040999999V0201401N003112200019N0200001N1+03151+01671101161ADDGF101991011001017501021001MA1999999096651MD1999999+0001REMSYN070AAXX  05184 82784 32798 11406 10315 20167 39665 40116 81020 333 58000;
0178827840999992006080600004-07317-039300FM-12+040999999V0201401N003112200019N0020001N1+02491+01781101551ADDGA1001+999999999GF100991001001999999001001KA1240M+03231MA1999999096991MD1999999+0101REMSYN082AAXX  06004 82784 32995 01406 10249 20178 39699 40155 333 10323 29060 55109 58010;
0156827840999992006080612004-07317-039300FM-12+040999999V0201401N005112200019N0200001N1+02411+01991101741ADDGF102991021021008001001001KA1240N+01961MA1999999097171MD1999999+0041REMSYN076AAXX  06124 82784 32598 21410 10241 20199 39717 40174 82200 333 20196 58004;
0137827840999992006080618004-07317-039300FM-12+040999999V0201401N003612200019N0200001N1+03061+02301101161ADDGF103991031021008001001001MA1999999096651MD1999999+0001REMSYN070AAXX  06184 82784 32598 31407 10306 20230 39665 40116 83200 333 58000;
0178827840999992006080700004-07317-039300FM-12+040999999V0201401N003112200019N0200001N1+02401+02091101481ADDGA1001+999999999GF100991001001999999001001KA1240M+03161MA1999999096911MD1999999-0081REMSYN082AAXX  07004 82784 32598 01406 10240 20209 39691 40148 333 10316 29077 55109 59008;
0156827840999992006080712004-07317-039300FM-12+040999999V0201801N003610042019N0200001N1+02301+02111101611ADDGF108991081051004501999999KA1240N+01801MA1999999097031MD1999999-0141REMSYN076AAXX  07124 82784 32498 81807 10230 20211 39703 40161 885// 333 20180 59014;
0137827840999992006080718004-07317-039300FM-12+040999999V0201801N002110075019N0200001N1+02761+02161101261ADDGF107991071021008001001001MA1999999096701MD1999999+0051REMSYN070AAXX  07184 82784 32598 71804 10276 20216 39670 40126 87200 333 58005;
0168827840999992006080800004-07317-039300FM-12+040999999V0201401N001012200019N0020001N1+02371+02091101491ADDGF104991041011008001001001KA1240M+02891MA1999999096911MD1999999+0001REMSYN088AAXX  08004 82784 32595 41402 10237 20209 39691 40149 84100 333 10289 29082 55020 58000;
0156827840999992006080812004-07317-039300FM-12+040999999V0201401N002612200019N0200001N1+02401+02211101561ADDGF102991021011008001001001KA1240N+01881MA1999999096991MD1999999-0041REMSYN076AAXX  08124 82784 32598 21405 10240 20221 39699 40156 82100 333 20188 59004;
0137827840999992006080818004-07317-039300FM-12+040999999V0201801N002612200019N0200001N1+03131+01681100991ADDGF101991011011008001001001MA1999999096481MD1999999-0221REMSYN070AAXX  08184 82784 32598 11805 10313 20168 39648 40099 81100 333 59022;
0168827840999992006080900004-07317-039300FM-12+040999999V0200901N001512200019N0020001N1+02331+01891101411ADDGF103991031001017501001011KA1240M+03221MA1999999096841MD1999999-0071REMSYN088AAXX  09004 82784 32795 30903 10233 20189 39684 40141 83001 333 10322 29069 55109 59007;
0156827840999992006080912004-07317-039300FM-12+040999999V0201801N003110075019N0200001N1+02561+02131101451ADDGF106991061071008001001001KA1240N+02041MA1999999096891MD1999999-0101REMSYN076AAXX  09124 82784 32598 61806 10256 20213 39689 40145 86700 333 20204 59010;
0137827840999992006080918004-07317-039300FM-12+040999999V0201401N003110075019N0200001N1+02931+02141101171ADDGF108991081021008001001001MA1999999096651MD1999999+0171REMSYN070AAXX  09184 82784 32598 81406 10293 20214 39665 40117 88200 333 58017;
0168827840999992006081000004-07317-039300FM-12+040999999V0200901N001010075019N0020001N1+02531+02191101371ADDGF107991071021008001001001KA1240M+03071MA1999999096841MD1999999+0001REMSYN088AAXX  10004 82784 32595 70902 10253 20219 39684 40137 87200 333 10307 29075 55066 58000;
0156827840999992006081012004-07317-039300FM-12+040999999V0201801N003110075019N0200001N1+02461+02111101651ADDGF108991081021008001001001KA1240N+02161MA1999999097091MD1999999+0201REMSYN076AAXX  10124 82784 32598 81806 10246 20211 39709 40165 88200 333 20216 58020;
0137827840999992006081018004-07317-039300FM-12+040999999V0201801N003110075019N0200001N1+03111+02021101121ADDGF106991061021008001001001MA1999999096621MD1999999-0031REMSYN070AAXX  10184 82784 32598 61806 10311 20202 39662 40112 86200 333 59003;
0178827840999992006081100004-07317-039300FM-12+040999999V0201801N003112200019N0020001N1+02441+02031101361ADDGA1001+999999999GF100991001001999999001001KA1240M+03221MA1999999096811MD1999999-0031REMSYN082AAXX  11004 82784 32995 01806 10244 20203 39681 40136 333 10322 29072 55082 59003;
0156827840999992006081112004-07317-039300FM-12+040999999V0201801N003110075019N0200001N1+02431+01721101601ADDGF107991071021008001001001KA1240N+02021MA1999999097041MD1999999-0051REMSYN076AAXX  11124 82784 32598 71806 10243 20172 39704 40160 87200 333 20202 59005;
0147827840999992006081118004-07317-039300FM-12+040999999V0201801N003112200019N0200001N1+03151+01671101051ADDGA1001+999999999GF100991001001999999001001MA1999999096551MD1999999-0071REMSYN064AAXX  11184 82784 32998 01806 10315 20167 39655 40105 333 59007;
0168827840999992006081200004-07317-039300FM-12+040999999V0201401N003112200019N0020001N1+02471+01761101391ADDGF101991011011008001001001KA1240M+03231MA1999999096841MD1999999+0031REMSYN088AAXX  12004 82784 32595 11406 10247 20176 39684 40139 81100 333 10323 29059 55101 58003;
0156827840999992006081212004-07317-039300FM-12+040999999V0201401N001510120019N0200001N1+02371+01991101711ADDGF107991071081008001001001KA1240N+02041MA1999999097131MD1999999+0091REMSYN076AAXX  12124 82784 32598 71403 10237 20199 39713 40171 87800 333 20204 58009;
0137827840999992006081218004-07317-039300FM-12+040999999V0201401N003112200019N0200001N1+03111+01791101141ADDGF102991021011008001001001MA1999999096641MD1999999+0051REMSYN070AAXX  12184 82784 32598 21406 10311 20179 39664 40114 82100 333 58005;
0168827840999992006081300004-07317-039300FM-12+040999999V0201801N001012200019N0020001N1+02281+01831101451ADDGF102991011041008001031001KA1240M+03211MA1999999096871MD1999999+0031REMSYN088AAXX  13004 82784 32595 21802 10228 20183 39687 40145 81430 333 10321 29069 55074 58003;
0156827840999992006081312004-07317-039300FM-12+040999999V0201401N002110120019N0200001N1+02451+01951101661ADDGF106991061081008001001001KA1240N+01971MA1999999097071MD1999999-0061REMSYN076AAXX  13124 82784 32598 61404 10245 20195 39707 40166 86800 333 20197 59006;
0137827840999992006081318004-07317-039300FM-12+040999999V0201401N003110075019N0200001N1+02871+01871101201ADDGF105991051021008001001001MA1999999096671MD1999999+0031REMSYN070AAXX  13184 82784 32598 51406 10287 20187 39667 40120 85200 333 58003;
0178827840999992006081400004-07317-039300FM-12+040999999V0201401N003612200019N0020001N1+02431+01931101421ADDGA1001+999999999GF100991001001999999001001KA1240M+03081MA1999999096861MD1999999-0011REMSYN082AAXX  14004 82784 32995 01407 10243 20193 39686 40142 333 10308 29069 55089 59001;
0156827840999992006081412004-07317-039300FM-12+040999999V0201801N003112200019N0200001N1+02511+01941101681ADDGF102991021011008001001001KA1240N+02291MA1999999097111MD1999999+0041REMSYN076AAXX  14124 82784 32598 21806 10251 20194 39711 40168 82100 333 20229 58004;
0147827840999992006081418004-07317-039300FM-12+040999999V0201801N003112200019N0200001N1+03121+01641101091ADDGA1001+999999999GF100991001001999999001001MA1999999096591MD1999999-0081REMSYN064AAXX  14184 82784 32998 01806 10312 20164 39659 40109 333 59008;
0178827840999992006081500004-07317-039300FM-12+040999999V0201401N001512200019N0020001N1+02191+01741101361ADDGA1001+999999999GF100991001001999999001001KA1240M+03211MA1999999096791MD1999999-0071REMSYN082AAXX  15004 82784 32995 01403 10219 20174 39679 40136 333 10321 29066 55111 59007;
0156827840999992006081512004-07317-039300FM-12+040999999V0200901N002110075019N0200001N1+02561+02061101581ADDGF106991061021008001001001KA1240N+01981MA1999999097011MD1999999-0101REMSYN076AAXX  15124 82784 32598 60904 10256 20206 39701 40158 86200 333 20198 59010;
0137827840999992006081518004-07317-039300FM-12+040999999V0200901N002112200019N0200001N1+03141+01841101151ADDGF104991041011008001001001MA1999999096621MD1999999+0031REMSYN070AAXX  15184 82784 32598 40904 10314 20184 39662 40115 84100 333 58003;
0168827840999992006081600004-07317-039300FM-12+040999999V0202301N001012200019N0020001N1+02311+02091101351ADDGF104991041071008001001001KA1240M+03251MA1999999096801MD1999999+0011REMSYN088AAXX  16004 82784 32595 42302 10231 20209 39680 40135 84700 333 10325 29074 55094 58001;
0156827840999992006081612004-07317-039300FM-12+040999999V0201801N001512200019N0200001N1+02581+01971101531ADDGF102991021011008001001001KA1240N+01661MA1999999096971MD1999999-0041REMSYN076AAXX  16124 82784 32598 21803 10258 20197 39697 40153 82100 333 20166 59004;
0137827840999992006081618004-07317-039300FM-12+040999999V0200901N002610075019N0200001N1+03131+01971101021ADDGF107991071021008001001001MA1999999096501MD1999999-0121REMSYN070AAXX  16184 82784 32598 70905 10313 20197 39650 40102 87200 333 59012;
0178827840999992006081700004-07317-039300FM-12+040999999V0201801N002112200019N0020001N1+02561+01901101361ADDGA1001+999999999GF100991001001999999001001KA1240M+03271MA1999999096831MD1999999+0031REMSYN082AAXX  17004 82784 32995 01804 10256 20190 39683 40136 333 10327 29063 55104 58003;
0166827840999992006081712004-07317-039300FM-12+040999999V0201801N003112200019N0200001N1+02621+01961101541ADDGA1001+999999999GF100991001001999999001001KA1240N+02061MA1999999097011MD1999999+0041REMSYN070AAXX  17124 82784 32998 01806 10262 20196 39701 40154 333 20206 58004;
0137827840999992006081718004-07317-039300FM-12+040999999V0201801N003610075019N0200001N1+03181+01771101011ADDGF105991051021008001001001MA1999999096521MD1999999+0021REMSYN070AAXX  17184 82784 32598 51807 10318 20177 39652 40101 85200 333 58002;
0178827840999992006081800004-07317-039300FM-12+040999999V0201801N004612200019N0020001N1+02511+01931101311ADDGA1001+999999999GF100991001001999999001001KA1240M+03311MA1999999096781MD1999999-0051REMSYN082AAXX  18004 82784 32995 01809 10251 20193 39678 40131 333 10331 29062 55110 59005;
0156827840999992006081812004-07317-039300FM-12+040999999V0201801N002610075019N0200001N1+02511+01961101561ADDGF106991061021008001001001KA1240N+01921MA1999999097011MD1999999+0001REMSYN076AAXX  18124 82784 32598 61805 10251 20196 39701 40156 86200 333 20192 58000;
0137827840999992006081818004-07317-039300FM-12+040999999V0201401N002612200019N0200001N1+03151+01791101021ADDGF103991031021008001001001MA1999999096511MD1999999-0011REMSYN070AAXX  18184 82784 32598 31405 10315 20179 39651 40102 83200 333 59001;
0168827840999992006081900004-07317-039300FM-12+040999999V0200901N001512200019N0020001N1+02431+01861101281ADDGF101991011011008001001001KA1240M+03231MA1999999096731MD1999999-0051REMSYN088AAXX  19004 82784 32595 10903 10243 20186 39673 40128 81100 333 10323 29064 55101 59005;
0156827840999992006081912004-07317-039300FM-12+040999999V0201401N002612200019N0200001N1+02521+01841101551ADDGF102991021021008001001001KA1240N+01771MA1999999096991MD1999999-0021REMSYN076AAXX  19124 82784 32598 21405 10252 20184 39699 40155 82200 333 20177 59002;
0137827840999992006081918004-07317-039300FM-12+040999999V0201401N003112200019N0200001N1+03211+01781100961ADDGF101991011011008001001001MA1999999096461MD1999999-0051REMSYN070AAXX  19184 82784 32598 11406 10321 20178 39646 40096 81100 333 59005;
0178827840999992006082000004-07317-039300FM-12+040999999V0201401N004112200019N0020001N1+02561+01621101301ADDGA1001+999999999GF100991001001999999001001KA1240M+03311MA1999999096771MD1999999+0041REMSYN082AAXX  20004 82784 32995 01408 10256 20162 39677 40130 333 10331 29055 55106 58004;
0156827840999992006082012004-07317-039300FM-12+040999999V0201401N002112200019N0200001N1+02581+01901101611ADDGF102991021021008001001001KA1240N+01841MA1999999097061MD1999999+0071REMSYN076AAXX  20124 82784 32598 21404 10258 20190 39706 40161 82200 333 20184 58007;
0147827840999992006082018004-07317-039300FM-12+040999999V0201401N002612200019N0200001N1+03301+01841100941ADDGA1001+999999999GF100991001001999999001001MA1999999096431MD1999999-0031REMSYN064AAXX  20184 82784 32998 01405 10330 20184 39643 40094 333 59003;
0178827840999992006082100004-07317-039300FM-12+040999999V0201401N000512200019N0020001N1+02501+01591101341ADDGA1001+999999999GF100991001001999999001001KA1240M+03441MA1999999096811MD1999999+0041REMSYN082AAXX  21004 82784 32995 01401 10250 20159 39681 40134 333 10344 29056 55108 58004;
0156827840999992006082112004-07317-039300FM-12+040999999V0203201N001519999999N0200001N1+02541+01881101591ADDGF105991051001022501001011KA1240N+02081MA1999999097041MD1999999-0021REMSYN076AAXX  21124 82784 32898 53203 10254 20188 39704 40159 85001 333 20208 59002;
0137827840999992006082118004-07317-039300FM-12+040999999V0201801N003612200019N0200001N1+03541+01761100901ADDGF102991021011008001001001MA1999999096421MD1999999-0011REMSYN070AAXX  21184 82784 32598 21807 10354 20176 39642 40090 82100 333 59001;
0178827840999992006082200004-07317-039300FM-12+040999999V0200901N002112200019N0020001N1+02511+01561101291ADDGA1001+999999999GF100991001001999999001001KA1240M+03711MA1999999096751MD1999999-0061REMSYN082AAXX  22004 82784 32995 00904 10251 20156 39675 40129 333 10371 29054 55108 59006;
0156827840999992006082212004-07317-039300FM-12+040999999V0200501N003110075019N0200001N1+02591+02081101711ADDGF106991061011008001001001KA1240N+02221MA1999999097161MD1999999+0121REMSYN076AAXX  22124 82784 32598 60506 10259 20208 39716 40171 86100 333 20222 58012;
0137827840999992006082218004-07317-039300FM-12+040999999V0200501N002112200019N0200001N1+03341+01581101071ADDGF101991011011008001001001MA1999999096541MD1999999+0121REMSYN070AAXX  22184 82784 32598 10504 10334 20158 39654 40107 81100 333 58012;
0178827840999992006082300004-07317-039300FM-12+040999999V0201401N002612200019N0020001N1+02681+01731101351ADDGA1001+999999999GF100991001001999999001001KA1240M+03451MA1999999096841MD1999999+0091REMSYN082AAXX  23004 82784 32995 01405 10268 20173 39684 40135 333 10345 29055 55102 58009;
0156827840999992006082312004-07317-039300FM-12+040999999V0201401N002612200019N0200001N1+02651+01801101691ADDGF102991021011008001001001KA1240N+01951MA1999999097161MD1999999+0001REMSYN076AAXX  23124 82784 32598 21405 10265 20180 39716 40169 82100 333 20195 58000;
0137827840999992006082318004-07317-039300FM-12+040999999V0201801N002610075019N0200001N1+03191+01631101201ADDGF106991061021008001001001MA1999999096691MD1999999+0151REMSYN070AAXX  23184 82784 32598 61805 10319 20163 39669 40120 86200 333 58015;
0187827840999992006082400004-07317-039300FM-12+040999999V0201401N002112200019N0020001N1+02631+01831101351ADDGF101991011041008001001001KA1240M+99999MA1999999096841MD1999999+0001REMSYN088AAXX  24004 82784 32595 11404 10263 20183 39684 40135 81400 333 10257 29056 55109 58000;EQDQ01 +02572ATMX  
0166827840999992006082412004-07317-039300FM-12+040999999V0201801N003112200019N0020001N1+02551+01641101701ADDGA1001+999999999GF100991001001999999001001KA1240N+01941MA1999999097161MD1999999+0001REMSYN070AAXX  24124 82784 32995 01806 10255 20164 39716 40170 333 20194 58000;
0147827840999992006082418004-07317-039300FM-12+040999999V0200901N003612200019N0200001N1+03271+01261101111ADDGA1001+999999999GF100991001001999999001001MA1999999096611MD1999999-0081REMSYN064AAXX  24184 82784 32998 00907 10327 20126 39661 40111 333 59008;
0178827840999992006082500004-07317-039300FM-12+040999999V0201801N003112200019N0020001N1+02571+01921101401ADDGA1001+999999999GF100991001001999999001001KA1240M+03331MA1999999096861MD1999999+0021REMSYN082AAXX  25004 82784 32995 01806 10257 20192 39686 40140 333 10333 29055 55109 58002;
0156827840999992006082512004-07317-039300FM-12+040999999V0201801N002610075019N0200001N1+02401+01731101641ADDGF108991081051008001999999KA1240N+02001MA1999999097081MD1999999-0081REMSYN076AAXX  25124 82784 32598 81805 10240 20173 39708 40164 885// 333 20200 59008;
0137827840999992006082518004-07317-039300FM-12+040999999V0201401N003612200019N0200001N1+03151+01291101031ADDGF101991011011008001001001MA1999999096531MD1999999-0081REMSYN070AAXX  25184 82784 32598 11407 10315 20129 39653 40103 81100 333 59008;
0178827840999992006082600004-07317-039300FM-12+040999999V0201401N002612200019N0020001N1+02541+01681101331ADDGA1001+999999999GF100991001001999999001001KA1240M+03271MA1999999096781MD1999999-0081REMSYN082AAXX  26004 82784 32995 01405 10254 20168 39678 40133 333 10327 29054 55096 59008;
0156827840999992006082612004-07317-039300FM-12+040999999V0201401N003612200019N0200001N1+02471+01681101621ADDGF104991041021008001001001KA1240N+01741MA1999999097061MD1999999-0021REMSYN076AAXX  26124 82784 32598 41407 10247 20168 39706 40162 84200 333 20174 59002;
0137827840999992006082618004-07317-039300FM-12+040999999V0201401N002612200019N0200001N1+03161+01511100951ADDGF102991011011008001001041MA1999999096451MD1999999-0081REMSYN070AAXX  26184 82784 32598 21405 10316 20151 39645 40095 81104 333 59008;
0178827840999992006082700004-07317-039300FM-12+040999999V0201401N005712200019N0020001N1+02571+01461101241ADDGA1001+999999999GF100991001001999999001001KA1240M+03271MA1999999096701MD1999999-0081REMSYN082AAXX  27004 82784 32995 01411 10257 20146 39670 40124 333 10327 29050 55103 59008;
0175827840999992006082712004-07317-039300FM-12+040999999V0201801N001512200019N0200001N1+02521+01831101481ADDGF101991001001999999001041KA1240N+01921MA1999999096941MD1999999-0121REMSYN076AAXX  27124 82784 32998 11803 10252 20183 39694 40148 81004 333 20192 59012;EQDQ01+000012SCOTLC
0137827840999992006082718004-07317-039300FM-12+040999999V0201401N001512200019N0200001N1+03291+01531100941ADDGF102991021021008001001001MA1999999096451MD1999999+0001REMSYN070AAXX  27184 82784 32598 21403 10329 20153 39645 40094 82200 333 58000;
0178827840999992006082800004-07317-039300FM-12+040999999V0201401N005112200019N0020001N1+02661+01401101161ADDGA1001+999999999GF100991001001999999001001KA1240M+03401MA1999999096651MD1999999-0051REMSYN082AAXX  28004 82784 32995 01410 10266 20140 39665 40116 333 10340 29048 55109 59005;
0156827840999992006082812004-07317-039300FM-12+040999999V0200901N002112200019N0200001N1+02561+01831101481ADDGF103991031011008001001001KA1240N+01901MA1999999096951MD1999999+0011REMSYN076AAXX  28124 82784 32598 30904 10256 20183 39695 40148 83100 333 20190 58001;
0137827840999992006082818004-07317-039300FM-12+040999999V0203601N001512200019N0200001N1+03281+01661101041ADDGF101991011011008001001001MA1999999096541MD1999999+0091REMSYN070AAXX  28184 82784 32598 13603 10328 20166 39654 40104 81100 333 58009;
0168827840999992006082900004-07317-039300FM-12+040999999V0201801N000512200019N0020001N1+02261+01711101321ADDGF104991041011008001001001KA1240M+03411MA1999999096761MD1999999+0111REMSYN088AAXX  29004 82784 32595 41801 10226 20171 39676 40132 84100 333 10341 29061 55108 58011;
0156827840999992006082912004-07317-039300FM-12+040999999V0203601N002110075019N0200001N1+02601+01941101521ADDGF106991061011008001001001KA1240N+01751MA1999999096961MD1999999+0111REMSYN076AAXX  29124 82784 32598 63604 10260 20194 39696 40152 86100 333 20175 58011;
0137827840999992006082918004-07317-039300FM-12+040999999V0201401N001512200019N0200001N1+03301+01801100951ADDGF103991031011008001001001MA1999999096451MD1999999-0091REMSYN070AAXX  29184 82784 32598 31403 10330 20180 39645 40095 83100 333 59009;
0168827840999992006083000004-07317-039300FM-12+040999999V0209999C000010075019N0020001N1+02441+01881101211ADDGF105991051011008001001001KA1240M+03431MA1999999096671MD1999999-0091REMSYN088AAXX  30004 82784 32595 50000 10244 20188 39667 40121 85100 333 10343 29063 55102 59009;
0156827840999992006083012004-07317-039300FM-12+040999999V0203601N002610075019N0200001N1+02521+02111101541ADDGF107991071051008001001001KA1240N+01851MA1999999096991MD1999999+0031REMSYN076AAXX  30124 82784 32598 73605 10252 20211 39699 40154 87500 333 20185 58003;
0137827840999992006083018004-07317-039300FM-12+040999999V0200901N002110075019N0200001N1+03201+01751100961ADDGF106991061021008001001001MA1999999096461MD1999999+0011REMSYN070AAXX  30184 82784 32598 60904 10320 20175 39646 40096 86200 333 58001;
0168827840999992006083100004-07317-039300FM-12+040999999V0201801N002112200019N0020001N1+02811+01921101301ADDGF101991011051008001001001KA1240M+03411MA1999999096791MD1999999+0121REMSYN088AAXX  31004 82784 32595 11804 10281 20192 39679 40130 81500 333 10341 29060 55077 58012;
0156827840999992006083112004-07317-039300FM-12+040999999V0201801N003612200019N0200001N1+02621+01621101621ADDGF103991031021008001001001KA1240N+02091MA1999999097101MD1999999+0111REMSYN076AAXX  31124 82784 32598 31807 10262 20162 39710 40162 83200 333 20209 58011;
0137827840999992006083118004-07317-039300FM-12+040999999V0201801N003610450019N0200001N1+03241+01541101071ADDGF107991041021008001031001MA1999999096581MD1999999+0121REMSYN070AAXX  31184 82784 32598 71807 10324 20154 39658 40107 84230 333 58012;
0168827840999992006090100004-07317-039300FM-12+040999999V0201801N003612200019N0020001N1+02391+01841101511ADDGF102991021001017501031001KA1240M+03371MA1999999096961MD1999999+0171REMSYN088AAXX  01004 82784 32795 21807 10239 20184 39696 40151 82030 333 10337 29058 55097 58017;
0156827840999992006090112004-07317-039300FM-12+040999999V0201801N003110450019N0200001N1+02501+01701101461ADDGF108991011021008001031999KA1240N+02111MA1999999096901MD1999999-0201REMSYN076AAXX  01124 82784 32598 81806 10250 20170 39690 40146 8123/ 333 20211 59020;
0147827840999992006090118004-07317-039300FM-12+040999999V0201801N002112200019N0200001N1+03071+01661101011ADDGA1001+999999999GF100991001001999999001001MA1999999096511MD1999999-0071REMSYN064AAXX  01184 82784 32998 01804 10307 20166 39651 40101 333 59007;
0178827840999992006090200004-07317-039300FM-12+040999999V0201401N001512200019N0020001N1+02461+01611101211ADDGA1001+999999999GF100991001001999999001001KA1240M+03211MA1999999096671MD1999999-0291REMSYN082AAXX  02004 82784 32995 01403 10246 20161 39667 40121 333 10321 29056 55082 59029;
0156827840999992006090212004-07317-039300FM-12+040999999V0201401N001512200019N0200001N1+02471+01811101421ADDGF102991021011008001001001KA1240N+01771MA1999999096861MD1999999-0041REMSYN076AAXX  02124 82784 32598 21403 10247 20181 39686 40142 82100 333 20177 59004;
0137827840999992006090218004-07317-039300FM-12+040999999V0200901N002112200019N0200001N1+03221+01731100751ADDGF101991011021008001001001MA1999999096251MD1999999-0261REMSYN070AAXX  02184 82784 32598 10904 10322 20173 39625 40075 81200 333 59026;
0178827840999992006090300004-07317-039300FM-12+040999999V0209999C000012200019N0020001N1+02331+01811101021ADDGA1001+999999999GF100991001001999999001001KA1240M+03391MA1999999096471MD1999999-0201REMSYN082AAXX  03004 82784 32995 00000 10233 20181 39647 40102 333 10339 29063 55109 59020;
0156827840999992006090312004-07317-039300FM-12+040999999V0200501N002110075019N0200001N1+02501+01981101411ADDGF106991061041008001001001KA1240N+01791MA1999999096851MD1999999-0011REMSYN076AAXX  03124 82784 32598 60504 10250 20198 39685 40141 86400 333 20179 59001;
0156827840999992006090318004-07317-039300FM-12+040999999V0202301N001512200019N0200001N1+03371+01831100771ADDGF103991999021008001001001MA1999999096271MD1999999+0021REMSYN070AAXX  03184 82784 32598 32303 10337 20183 39627 40077 82200 333 58002;EQDQ01+000022SCOTLC
0168827840999992006090400004-07317-039300FM-12+040999999V0209999C000012200019N0020001N1+02521+01891101081ADDGF103991031041008001001001KA1240M+03501MA1999999096551MD1999999+0081REMSYN088AAXX  04004 82784 32595 30000 10252 20189 39655 40108 83400 333 10350 29062 55082 58008;
0156827840999992006090412004-07317-039300FM-12+040999999V0200901N002610075019N0200001N1+02561+02151101411ADDGF107991071051008001001001KA1240N+02121MA1999999096871MD1999999+0021REMSYN076AAXX  04124 82784 32598 70905 10256 20215 39687 40141 87500 333 20212 58002;
0137827840999992006090418004-07317-039300FM-12+040999999V0200501N003112200019N0200001N1+03321+01611100811ADDGF103991031011008001001001MA1999999096351MD1999999+0081REMSYN070AAXX  04184 82784 32598 30506 10332 20161 39635 40081 83100 333 58008;
0178827840999992006090500004-07317-039300FM-12+040999999V0202701N001012200019N0020001N1+02411+01751101211ADDGA1001+999999999GF100991001001999999001001KA1240M+03601MA1999999096671MD1999999+0121REMSYN082AAXX  05004 82784 32995 02702 10241 20175 39667 40121 333 10360 29062 55078 58012;
0156827840999992006090512004-07317-039300FM-12+040999999V0200501N002110042019N0200001N1+02541+02091101661ADDGF108991081051004501999999KA1240N+02041MA1999999097101MD1999999+0231REMSYN076AAXX  05124 82784 32498 80504 10254 20209 39710 40166 885// 333 20204 58023;
0137827840999992006090518004-07317-039300FM-12+040999999V0201401N001010450019N0200001N1+03381+02061101051ADDGF105991041011008001011001MA1999999096561MD1999999+0211REMSYN070AAXX  05184 82784 32598 51402 10338 20206 39656 40105 84110 333 58021;
0168827840999992006090600004-07317-039300FM-12+040999999V0209999C000010075019N0020001N1+02571+01901101481ADDGF105991051021008001001001KA1240M+03471MA1999999096941MD1999999+0071REMSYN088AAXX  06004 82784 32595 50000 10257 20190 39694 40148 85200 333 10347 29064 55073 58007;
0156827840999992006090612004-07317-039300FM-12+040999999V0200501N002110042019N0200001N1+02641+01881101691ADDGF107991071021004501001001KA1240N+02071MA1999999097151MD1999999+0051REMSYN076AAXX  06124 82784 32498 70504 10264 20188 39715 40169 87200 333 20207 58005;
0137827840999992006090618004-07317-039300FM-12+040999999V0201801N005112200019N0200001N1+03331+01951101061ADDGF101991011011008001001001MA1999999096561MD1999999+0001REMSYN070AAXX  06184 82784 32598 11810 10333 20195 39656 40106 81100 333 58000;
0178827840999992006090700004-07317-039300FM-12+040999999V0201401N001512200019N0020001N1+02571+01741101391ADDGA1001+999999999GF100991001001999999001001KA1240M+03431MA1999999096861MD1999999-0081REMSYN082AAXX  07004 82784 32995 01403 10257 20174 39686 40139 333 10343 29057 55094 59008;
0156827840999992006090712004-07317-039300FM-12+040999999V0201801N004112200019N0200001N1+02641+01751101541ADDGF101991011011008001001001KA1240N+02101MA1999999097011MD1999999-0141REMSYN076AAXX  07124 82784 32598 11808 10264 20175 39701 40154 81100 333 20210 59014;
0137827840999992006090718004-07317-039300FM-12+040999999V0201401N003612200019N0200001N1+03271+01721101081ADDGF103991031021008001001001MA1999999096591MD1999999+0031REMSYN070AAXX  07184 82784 32598 31407 10327 20172 39659 40108 83200 333 58003;
0178827840999992006090800004-07317-039300FM-12+040999999V0201401N003112200019N0020001N1+02621+01501101421ADDGA1001+999999999GF100991001001999999001001KA1240M+03361MA1999999096901MD1999999+0041REMSYN082AAXX  08004 82784 32995 01406 10262 20150 39690 40142 333 10336 29050 55110 58004;
0166827840999992006090812004-07317-039300FM-12+040999999V0201801N003612200019N0200001N1+02601+01481101611ADDGA1001+999999999GF100991001001999999001001KA1240N+01751MA1999999097771MD1999999+0061REMSYN070AAXX  08124 82784 32998 01807 10260 20148 39777 40161 333 20175 58006;
0156827840999992006090818004-07317-039300FM-12+040999999V0201401N003612200019N0200001N1+03221+01731101091ADDGF104991041021008001001001MA1999999096582MD1999999-0011REMSYN070AAXX  08184 82784 32598 41407 10322 20173 39658 40109 84200 333 59001;EQDQ01+096583APOSP 
0168827840999992006090900004-07317-039300FM-12+040999999V0201401N000512200019N0020001N1+02371+01821101541ADDGF101991011041008001001001KA1240M+03361MA1999999096991MD1999999+0091REMSYN088AAXX  09004 82784 32595 11401 10237 20182 39699 40154 81400 333 10336 29058 55110 58009;
0156827840999992006090912004-07317-039300FM-12+040999999V0201801N002610042019N0200001N1+02341+01781101891ADDGF107991071051004501001001KA1240N+02001MA1999999097101MD1999999+0031REMSYN076AAXX  09124 82784 32498 71805 10234 20178 39710 40189 87500 333 20200 58003;
0137827840999992006090918004-07317-039300FM-12+040999999V0201801N004110075019N0200001N1+02841+01821101201ADDGF106991061011008001001001MA1999999096681MD1999999+0101REMSYN070AAXX  09184 82784 32598 61808 10284 20182 39668 40120 86100 333 58010;
0168827840999992006091000004-07317-039300FM-12+040999999V0201401N001512200019N0020001N1+02401+01841101521ADDGF102991021041008001001001KA1240M+02931MA1999999096941MD1999999-0161REMSYN088AAXX  10004 82784 32595 21403 10240 20184 39694 40152 82400 333 10293 29067 55076 59016;
0156827840999992006091012004-07317-039300FM-12+040999999V0201401N002110120019N0200001N1+02401+01861101811ADDGF107991071081008001001001KA1240N+01931MA1999999097231MD1999999+0131REMSYN076AAXX  10124 82784 32598 71404 10240 20186 39723 40181 87800 333 20193 58013;
0137827840999992006091018004-07317-039300FM-12+040999999V0201801N002610075019N0200001N1+02741+01841101491ADDGF106991061041008001001001MA1999999096931MD1999999+0251REMSYN070AAXX  10184 82784 32598 61805 10274 20184 39693 40149 86400 333 58025;
0168827840999992006091100004-07317-039300FM-12+040999999V0201401N003112200019N0020001N1+02291+01881101671ADDGF102991021041008001001001KA1240M+02871MA1999999097081MD1999999+0141REMSYN088AAXX  11004 82784 32595 21406 10229 20188 39708 40167 82400 333 10287 29071 55031 58014;
0156827840999992006091112004-07317-039300FM-12+040999999V0201801N003110042019N0200001N1+02551+01851101721ADDGF108991081051004501999999KA1240N+02021MA1999999097141MD1999999-0091REMSYN076AAXX  11124 82784 32498 81806 10255 20185 39714 40172 885// 333 20202 59009;
0137827840999992006091118004-07317-039300FM-12+040999999V0201801N003110075019N0200001N1+03101+01731101161ADDGF106991061021008001001001MA1999999096651MD1999999-0281REMSYN070AAXX  11184 82784 32598 61806 10310 20173 39665 40116 86200 333 59028;
0168827840999992006091200004-07317-039300FM-12+040999999V0201801N004612200019N0020001N1+02461+01851101531ADDGF104991041011008001001001KA1240M+03251MA1999999096981MD1999999-0101REMSYN088AAXX  12004 82784 32595 41809 10246 20185 39698 40153 84100 333 10325 29062 55093 59010;
0137827840999992006091218004-07317-039300FM-12+040999999V0201801N003110075019N0200001N1+03141+01321101081ADDGF105991051011008001001001MA1999999096561MD1999999-0091REMSYN070AAXX  12184 82784 32598 51806 10314 20132 39656 40108 85100 333 59009;
0178827840999992006091300004-07317-039300FM-12+040999999V0201801N002612200019N0020001N1+02341+01721101471ADDGA1001+999999999GF100991001001999999001001KA1240M+03361MA1999999096911MD1999999-0071REMSYN082AAXX  13004 82784 32995 01805 10234 20172 39691 40147 333 10336 29056 55107 59007;
0156827840999992006091312004-07317-039300FM-12+040999999V0201801N003612200019N0200001N1+02491+01621101651ADDGF101991011011008001001001KA1240N+01981MA1999999097071MD1999999-0061REMSYN076AAXX  13124 82784 32598 11807 10249 20162 39707 40165 81100 333 20198 59006;
0147827840999992006091318004-07317-039300FM-12+040999999V0201401N003112200019N0200001N1+03231+01691101061ADDGA1001+999999999GF100991001001999999001001MA1999999096551MD1999999-0011REMSYN064AAXX  13184 82784 32998 01406 10323 20169 39655 40106 333 59001;
0178827840999992006091400004-07317-039300FM-12+040999999V0200901N001512200019N0020001N1+02521+01551101351ADDGA1001+999999999GF100991001001999999001001KA1240M+03351MA1999999096811MD1999999-0011REMSYN082AAXX  14004 82784 32995 00903 10252 20155 39681 40135 333 10335 29052 55109 59001;
0166827840999992006091412004-07317-039300FM-12+040999999V0201801N001512200019N0200001N1+02691+01691101541ADDGA1001+999999999GF100991001001999999001001KA1240N+02031MA1999999097011MD1999999-0061REMSYN070AAXX  14124 82784 32998 01803 10269 20169 39701 40154 333 20203 59006;
0137827840999992006091418004-07317-039300FM-12+040999999V0200901N002112200019N0200001N1+03311+01521100951ADDGF101991011011008001001001MA1999999096461MD1999999-0091REMSYN070AAXX  14184 82784 32598 10904 10331 20152 39646 40095 81100 333 59009;
0178827840999992006091500004-07317-039300FM-12+040999999V0201801N006712200019N0020001N1+02711+01521101211ADDGA1001+999999999GF100991001001999999001001KA1240M+03451MA1999999096711MD1999999-0101REMSYN082AAXX  15004 82784 32995 01813 10271 20152 39671 40121 333 10345 29046 55109 59010;
0156827840999992006091512004-07317-039300FM-12+040999999V0200901N003112200019N0200001N1+02611+01681101651ADDGF102991021021008001001001KA1240N+01961MA1999999097121MD1999999+0111REMSYN076AAXX  15124 82784 32598 20906 10261 20168 39712 40165 82200 333 20196 58011;
0137827840999992006091518004-07317-039300FM-12+040999999V0201401N002110075019N0200001N1+03291+01581101021ADDGF107991071021008001001001MA1999999096541MD1999999+0081REMSYN070AAXX  15184 82784 32598 71404 10329 20158 39654 40102 87200 333 58008;
0168827840999992006091600004-07317-039300FM-12+040999999V0201401N003112200019N0020001N1+02681+01551101301ADDGF101991011011008001001001KA1240M+03371MA1999999096791MD1999999+0081REMSYN088AAXX  16004 82784 32595 11406 10268 20155 39679 40130 81100 333 10337 29048 55101 58008;
0156827840999992006091612004-07317-039300FM-12+040999999V0201401N002112200019N0200001N1+02721+01741101591ADDGF102991021011008001001001KA1240N+01961MA1999999097071MD1999999-0051REMSYN076AAXX  16124 82784 32598 21404 10272 20174 39707 40159 82100 333 20196 59005;
0137827840999992006091618004-07317-039300FM-12+040999999V0203601N001010075019N0200001N1+03311+02001100961ADDGF105991051021008001001001MA1999999096501MD1999999-0041REMSYN070AAXX  16184 82784 32598 53602 10331 20200 39650 40096 85200 333 59004;
0178827840999992006091700004-07317-039300FM-12+040999999V0209999C000012200019N0020001N1+02501+01871101251ADDGA1001+999999999GF100991001001999999001001KA1240M+03431MA1999999096731MD1999999-0091REMSYN082AAXX  17004 82784 32995 00000 10250 20187 39673 40125 333 10343 29059 55103 59009;
0156827840999992006091712004-07317-039300FM-12+040999999V0201401N002610075019N0020001N1+02741+01971101601ADDGF106991061021008001001001KA1240N+02281MA1999999097061MD1999999-0011REMSYN076AAXX  17124 82784 32595 61405 10274 20197 39706 40160 86200 333 20228 59001;
0137827840999992006091718004-07317-039300FM-12+040999999V0201401N002110075019N0200001N1+03461+01641100921ADDGF105991051031008001001001MA1999999096481MD1999999-0021REMSYN070AAXX  17184 82784 32598 51404 10346 20164 39648 40092 85300 333 59002;
0168827840999992006091800004-07317-039300FM-12+040999999V0200901N002110120019N0020001N1+02941+01661101271ADDGF106991061081008001001001KA1240M+03551MA1999999096791MD1999999+0061REMSYN088AAXX  18004 82784 32595 60904 10294 20166 39679 40127 86800 333 10355 29047 55080 58006;
0166827840999992006091812004-07317-039300FM-12+040999999V0200901N002612200019N0200001N1+02861+01841101421ADDGA1001+999999999GF100991001001999999001001KA1240N+02001MA1999999096951MD1999999-0111REMSYN070AAXX  18124 82784 32998 00905 10286 20184 39695 40142 333 20200 59011;
0137827840999992006091818004-07317-039300FM-12+040999999V0203601N001512200019N0200001N1+03501+01681100881ADDGF104991041011008001001001MA1999999096401MD1999999-0091REMSYN070AAXX  18184 82784 32598 43603 10350 20168 39640 40088 84100 333 59009;
0168827840999992006091900004-07317-039300FM-12+040999999V0201801N002612200019N0020001N1+02721+01681101171ADDGF104991041011008001001001KA1240M+03621MA1999999096691MD1999999-0101REMSYN088AAXX  19004 82784 32595 41805 10272 20168 39669 40117 84100 333 10362 29048 55107 59010;
0166827840999992006091912004-07317-039300FM-12+040999999V0203601N003112200019N0200001N1+02701+01891101471ADDGA1001+999999999GF100991001001999999001001KA1240N+01861MA1999999096961MD1999999+0011REMSYN070AAXX  19124 82784 32998 03606 10270 20189 39696 40147 333 20186 58001;
0137827840999992006091918004-07317-039300FM-12+040999999V0203201N002112200019N0200001N1+03481+01841100851ADDGF104991041011008001001001MA1999999096381MD1999999-0021REMSYN070AAXX  19184 82784 32598 43204 10348 20184 39638 40085 84100 333 59002;
0168827840999992006092000004-07317-039300FM-12+040999999V0209999C000010075019N0020001N1+02701+01961101151ADDGF106991061071008001001001KA1240M+03591MA1999999096651MD1999999-0041REMSYN088AAXX  20004 82784 32595 60000 10270 20196 39665 40115 86700 333 10359 29058 55109 59004;
0156827840999992006092012004-07317-039300FM-12+040999999V0200901N002110075019N0200001N1+02741+02001101521ADDGF106991061021008001001001KA1240N+02301MA1999999097011MD1999999+0051REMSYN076AAXX  20124 82784 32598 60904 10274 20200 39701 40152 86200 333 20230 58005;
0137827840999992006092018004-07317-039300FM-12+040999999V0200901N002112200019N0200001N1+03411+01771100811ADDGF104991041021008001001001MA1999999096351MD1999999-0031REMSYN070AAXX  20184 82784 32598 40904 10341 20177 39635 40081 84200 333 59003;
0168827840999992006092100004-07317-039300FM-12+040999999V0202301N000510075019N0020001N1+02731+02101101131ADDGF106991061041008001001001KA1240M+03511MA1999999096641MD1999999-0011REMSYN088AAXX  21004 82784 32595 62301 10273 20210 39664 40113 86400 333 10351 29060 55090 59001;
0156827840999992006092112004-07317-039300FM-12+040999999V0200901N002112200019N0200001N1+02681+01671101561ADDGF101991011011008001001001KA1240N+02201MA1999999097051MD1999999+0041REMSYN076AAXX  21124 82784 32598 10904 10268 20167 39705 40156 81100 333 20220 58004;
0137827840999992006092118004-07317-039300FM-12+040999999V0200901N002112200019N0200001N1+03381+01711100941ADDGF102991021021008001001001MA1999999096481MD1999999+0131REMSYN070AAXX  21184 82784 32598 20904 10338 20171 39648 40094 82200 333 58013;
0178827840999992006092200004-07317-039300FM-12+040999999V0209999C000012200019N0020001N1+02731+01891101221ADDGA1001+999999999GF100991001001999999001001KA1240M+03491MA1999999096721MD1999999+0081REMSYN082AAXX  22004 82784 32995 00000 10273 20189 39672 40122 333 10349 29053 55107 58008;
0156827840999992006092212004-07317-039300FM-12+040999999V0200501N002110075019N0200001N1+02601+02101101601ADDGF107991071021008001001001KA1240N+02301MA1999999097071MD1999999+0021REMSYN076AAXX  22124 82784 32598 70504 10260 20210 39707 40160 87200 333 20230 58002;
0137827840999992006092218004-07317-039300FM-12+040999999V0200901N003112200019N0200001N1+03391+01811100941ADDGF102991021021008001001001MA1999999096481MD1999999+0001REMSYN070AAXX  22184 82784 32598 20906 10339 20181 39648 40094 82200 333 58000;
0178827840999992006092300004-07317-039300FM-12+040999999V0200901N001012200019N0020001N1+02621+01811101231ADDGA1001+999999999GF100991001001999999001001KA1240M+03501MA1999999096711MD1999999-0011REMSYN082AAXX  23004 82784 32995 00902 10262 20181 39671 40123 333 10350 29059 55082 59001;
0156827840999992006092312004-07317-039300FM-12+040999999V0200501N002612200019N0200001N1+02601+01871101551ADDGF103991031021008001001001KA1240N+01901MA1999999097021MD1999999-0051REMSYN076AAXX  23124 82784 32598 30505 10260 20187 39702 40155 83200 333 20190 59005;
0137827840999992006092318004-07317-039300FM-12+040999999V0200901N002612200019N0200001N1+03381+01331100861ADDGF101991011011008001001001MA1999999096381MD1999999-0101REMSYN070AAXX  23184 82784 32598 10905 10338 20133 39638 40086 81100 333 59010;
0168827840999992006092400004-07317-039300FM-12+040999999V0201801N002612200019N0020001N1+02261+01731101151ADDGF102991021011008001001001KA1240M+03581MA1999999096641MD1999999-0071REMSYN088AAXX  24004 82784 32595 21805 10226 20173 39664 40115 82100 333 10358 29052 55103 59007;
0156827840999992006092412004-07317-039300FM-12+040999999V0200501N002110075019N0200001N1+02571+01991101411ADDGF105991051021008001001001KA1240N+02151MA1999999096881MD1999999-0141REMSYN076AAXX  24124 82784 32598 50504 10257 20199 39688 40141 85200 333 20215 59014;
0137827840999992006092418004-07317-039300FM-12+040999999V0202301N001012200019N0200001N1+03361+01731100851ADDGF103991031021008001001001MA1999999096381MD1999999+0001REMSYN070AAXX  24184 82784 32598 32302 10336 20173 39638 40085 83200 333 58000;
0178827840999992006092500004-07317-039300FM-12+040999999V0209999C000012200019N0020001N1+02601+01711101191ADDGA1001+999999999GF100991001001999999001001KA1240M+03531MA1999999096671MD1999999+0031REMSYN082AAXX  25004 82784 32995 00000 10260 20171 39667 40119 333 10353 29056 55091 58003;
0156827840999992006092512004-07317-039300FM-12+040999999V0201401N002610075019N0200001N1+02601+01961101571ADDGF107991071021008001001001KA1240N+01921MA1999999097041MD1999999+0161REMSYN076AAXX  25124 82784 32598 71405 10260 20196 39704 40157 87200 333 20192 58016;
0137827840999992006092518004-07317-039300FM-12+040999999V0201801N002612200019N0200001N1+03441+01801100961ADDGF103991031011008001001001MA1999999096481MD1999999+0101REMSYN070AAXX  25184 82784 32598 31805 10344 20180 39648 40096 83100 333 58010;
0178827840999992006092600004-07317-039300FM-12+040999999V0201801N001512200019N0020001N1+02941+01941101121ADDGA1001+999999999GF100991001001999999001001KA1240M+03581MA1999999096631MD1999999-0041REMSYN082AAXX  26004 82784 32995 01803 10294 20194 39663 40112 333 10358 29054 55104 59004;
0156827840999992006092612004-07317-039300FM-12+040999999V0201801N002110075019N0200001N1+02691+01891101491ADDGF106991061011008001001001KA1240N+02141MA1999999097001MD1999999-0041REMSYN076AAXX  26124 82784 32598 61804 10269 20189 39700 40149 86100 333 20214 59004;
0147827840999992006092618004-07317-039300FM-12+040999999V0201401N003612200019N0200001N1+03441+01271100921ADDGA1001+999999999GF100991001001999999001001MA1999999096461MD1999999-0021REMSYN064AAXX  26184 82784 32598 01407 10344 20127 39646 40092 333 59002;
0178827840999992006092700004-07317-039300FM-12+040999999V0201801N007212200019N0020001N1+02841+01571101111ADDGA1001+999999999GF100991001001999999001001KA1240M+03591MA1999999096621MD1999999-0011REMSYN082AAXX  27004 82784 32995 01814 10284 20157 39662 40111 333 10359 29046 55097 59001;
0156827840999992006092712004-07317-039300FM-12+040999999V0201801N003110075019N0200001N1+02641+01691101661ADDGF106991061011008001001001KA1240N+02101MA1999999097151MD1999999+0151REMSYN076AAXX  27124 82784 32598 61806 10264 20169 39715 40166 86100 333 20210 58015;
0178827840999992006092800004-07317-039300FM-12+040999999V0201801N004612200019N0020001N1+02721+01561101321ADDGA1001+999999999GF100991001001999999001001KA1240M+03481MA1999999096821MD1999999+0201REMSYN082AAXX  28004 82784 32995 01809 10272 20156 39682 40132 333 10348 29046 55107 58020;
0156827840999992006092812004-07317-039300FM-12+040999999V0201801N005110075019N0200001N1+02701+01721101541ADDGF106991061021008001001001KA1240N+02141MA1999999097031MD1999999-0121REMSYN076AAXX  28124 82784 32598 61810 10270 20172 39703 40154 86200 333 20214 59012;
0137827840999992006092818004-07317-039300FM-12+040999999V0201801N006212200019N0200001N1+03221+01691100911ADDGF102991021021008001001001MA1999999096421MD1999999-0131REMSYN070AAXX  28184 82784 32598 21812 10322 20169 39642 40091 82200 333 59013;
0178827840999992006092900004-07317-039300FM-12+040999999V0200501N001012200019N0020001N1+02641+02001101231ADDGA1001+999999999GF100991001001999999001001KA1240M+03311MA1999999096721MD1999999-0101REMSYN082AAXX  29004 82784 32995 00502 10264 20200 39672 40123 333 10331 29058 55109 59010;
0156827840999992006092912004-07317-039300FM-12+040999999V0200501N003112200019N0200001N1+02701+01631101591ADDGF101991011021008001001001KA1240N+02061MA1999999097061MD1999999+0031REMSYN076AAXX  29124 82784 32598 10506 10270 20163 39706 40159 81200 333 20206 58003;
0137827840999992006092918004-07317-039300FM-12+040999999V0201401N001512200019N0200001N1+03381+01711100921ADDGF102991021021008001001001MA1999999096451MD1999999+0031REMSYN070AAXX  29184 82784 32598 21403 10338 20171 39645 40092 82200 333 58003;
0168827840999992006093000004-07317-039300FM-12+040999999V0201401N001512200019N0020001N1+02641+01581101261ADDGF102991021021008001001001KA1240M+03541MA1999999096751MD1999999+0031REMSYN088AAXX  30004 82784 32595 21403 10264 20158 39675 40126 82200 333 10354 29048 55111 58003;
0166827840999992006093012004-07317-039300FM-12+040999999V0200501N002612200019N0200001N1+02711+01651101891ADDGA1001+999999999GF100991001001999999001001KA1240N+02001MA1999999097061MD1999999+0001REMSYN070AAXX  30124 82784 32998 00505 10271 20165 39706 40189 333 20200 58000;
0137827840999992006093018004-07317-039300FM-12+040999999V0201401N003112200019N0200001N1+02251+01571100901ADDGF103991031021008001001001MA1999999096461MD1999999+0011REMSYN070AAXX  30184 82784 32598 31406 10225 20157 39646 40090 83200 333 58001;
0168827840999992006100100004-07317-039300FM-12+040999999V0201401N003112200019N0020001N1+02911+01671101271ADDGF101991011021008001001001KA1240M+03651MA1999999096791MD1999999+0041REMSYN088AAXX  01004 82784 32595 11406 10291 20167 39679 40127 81200 333 10365 29044 55110 58004;
0156827840999992006100112004-07317-039300FM-12+040999999V0200501N002612200019N0200001N1+02821+01651101451ADDGF101991011011008001001001KA1240N+02111MA1999999096971MD1999999-0091REMSYN076AAXX  01124 82784 32598 10505 10282 20165 39697 40145 81100 333 20211 59009;
0172827840999992006100118004-07317-039300FM-12+040999999V0201401N003112200019N0200001N1+03491+01581100861ADDGF102991021021008001001001MA1999999999999MD1999999-0031REMSYN070AAXX  01184 82784 32598 21406 10349 20158 39343 40086 82200 333 59003;EQDQ01+093433APOSP Q02 093433APOSP 
0168827840999992006100200004-07317-039300FM-12+040999999V0200501N002112200019N0020001N1+02851+01731101201ADDGF101991011041008001001001KA1240M+03551MA1999999096731MD1999999-0061REMSYN088AAXX  02004 82784 32595 10504 10285 20173 39673 40120 81400 333 10355 29045 55113 59006;
0156827840999992006100212004-07317-039300FM-12+040999999V0201401N002112200019N0200001N1+02801+01661101401ADDGF102991021011008001001001KA1240N+02201MA1999999096911MD1999999-0061REMSYN076AAXX  02124 82784 32598 21404 10280 20166 39691 40140 82100 333 20220 59006;
0137827840999992006100218004-07317-039300FM-12+040999999V0201401N003112200019N0200001N1+03301+01681100771ADDGF102991021011008001001001MA1999999096301MD1999999-0131REMSYN070AAXX  02184 82784 32598 21406 10330 20168 39630 40077 82100 333 59013;
0168827840999992006100300004-07317-039300FM-12+040999999V0201801N002112200019N0020001N1+02801+01531101111ADDGF103991031021008001001001KA1240M+03561MA1999999096631MD1999999-0101REMSYN088AAXX  03004 82784 32595 31804 10280 20153 39663 40111 83200 333 10356 29045 55109 59010;
0166827840999992006100312004-07317-039300FM-12+040999999V0200501N002612200019N0200001N1+02791+01841101211ADDGA1001+999999999GF100991001001999999001001KA1240N+02041MA1999999096731MD1999999-0181REMSYN070AAXX  03124 82784 32998 00505 10279 20184 39673 40121 333 20204 59018;
0137827840999992006100318004-07317-039300FM-12+040999999V0200501N002112200019N0200001N1+03501+01771100631ADDGF104991041011008001001001MA1999999096201MD1999999-0101REMSYN070AAXX  03184 82784 32598 40504 10350 20177 39620 40063 84100 333 59010;
0168827840999992006100400004-07317-039300FM-12+040999999V0200901N001510075019N0020001N1+03021+01801100981ADDGF106991061021008001001001KA1240M+03591MA1999999096531MD1999999-0101REMSYN088AAXX  04004 82784 32595 60903 10302 20180 39653 40098 86200 333 10359 29047 55109 59010;
0166827840999992006100412004-07317-039300FM-12+040999999V0200901N002612200019N0200001N1+02781+01881101291ADDGA1001+999999999GF100991001001999999001001KA1240N+02061MA1999999096821MD1999999+0091REMSYN070AAXX  04124 82784 32998 00905 10278 20188 39682 40129 333 20206 58009;
0137827840999992006100418004-07317-039300FM-12+040999999V0200901N002612200019N0200001N1+03501+01721100561ADDGF101991011021008001001001MA1999999096131MD1999999-0071REMSYN070AAXX  04184 82784 32598 10905 10350 20172 39613 40056 81200 333 59007;
0178827840999992006100500004-07317-039300FM-12+040999999V0201401N001512200019N0020001N1+02901+01991100971ADDGA1001+999999999GF100991001001999999001001KA1240M+03621MA1999999096511MD1999999-0021REMSYN082AAXX  05004 82784 32995 01403 10290 20199 39651 40097 333 10362 29052 55111 59002;
0156827840999992006100512004-07317-039300FM-12+040999999V0200901N003112200019N0200001N1+02821+01831101191ADDGF102991021021008001001001KA1240N+02071MA1999999096721MD1999999-0101REMSYN076AAXX  05124 82784 32598 20906 10282 20183 39672 40119 82200 333 20207 59010;
0137827840999992006100518004-07317-039300FM-12+040999999V0200901N002612200019N0200001N1+03371+01661100771ADDGF103991031021008001001001MA1999999096341MD1999999+0211REMSYN070AAXX  05184 82784 32598 30905 10337 20166 39634 40077 83200 333 58021;
0168827840999992006100600004-07317-039300FM-12+040999999V0201401N000512200019N0020001N1+02631+01881101161ADDGF101991011011008001001001KA1240M+03531MA1999999096661MD1999999+0151REMSYN088AAXX  06004 82784 32595 11401 10263 20188 39666 40116 81100 333 10353 29055 55102 58015;
0156827840999992006100612004-07317-039300FM-12+040999999V0200901N003112200019N0200001N1+02821+01741101221ADDGF101991011011008001001001KA1240N+02211MA1999999096721MD1999999+0001REMSYN076AAXX  06124 82784 32598 10906 10282 20174 39672 40122 81100 333 20221 58000;
0137827840999992006100618004-07317-039300FM-12+040999999V0200901N002112200019N0200001N1+03511+01551100731ADDGF101991011021008001001001MA1999999096311MD1999999-0031REMSYN070AAXX  06184 82784 32598 10904 10351 20155 39631 40073 81200 333 59003;
0156827840999992006100712004-07317-039300FM-12+040999999V0201801N001512200019N0200001N1+02761+01911101391ADDGF102991021021008001001001KA1240N+02301MA1999999096911MD1999999+0191REMSYN076AAXX  07124 82784 32598 21803 10276 20191 39691 40139 82200 333 20230 58019;
0137827840999992006100718004-07317-039300FM-12+040999999V0203601N002610075019N0200001N1+03481+01781100751ADDGF105991051021008001001001MA1999999096331MD1999999+0021REMSYN070AAXX  07184 82784 32598 53605 10348 20178 39633 40075 85200 333 58002;
0168827840999992006100800004-07317-039300FM-12+040999999V0201801N001012200019N0020001N1+02901+02121101051ADDGF102991021041008001001001KA1240M+03571MA1999999096581MD1999999-0081REMSYN088AAXX  08004 82784 32595 21802 10290 20212 39658 40105 82400 333 10357 29056 55089 59008;
0156827840999992006100812004-07317-039300FM-12+040999999V0201801N002110075019N0200001N1+02701+01991101321ADDGF105991051021008001001001KA1240N+02261MA1999999096841MD1999999-0071REMSYN076AAXX  08124 82784 32598 51804 10270 20199 39684 40132 85200 333 20226 59007;
0137827840999992006100818004-07317-039300FM-12+040999999V0202301N001512200019N0200001N1+03531+01971100661ADDGF103991031021008001001001MA1999999096241MD1999999-0091REMSYN070AAXX  08184 82784 32598 32303 10353 20197 39624 40066 83200 333 59009;
0168827840999992006100900004-07317-039300FM-12+040999999V0200501N000510120019N0020001N1+02921+02061101051ADDGF106991061081008001001001KA1240M+03641MA1999999096571MD1999999-0011REMSYN088AAXX  09004 82784 32595 60501 10292 20206 39657 40105 86800 333 10364 29056 55088 59001;
0156827840999992006100912004-07317-039300FM-12+040999999V0201401N001512200019N0200001N1+02821+01871101351ADDGF103991031011008001001001KA1240N+01901MA1999999096871MD1999999+0031REMSYN076AAXX  09124 82784 32598 31403 10282 20187 39687 40135 83100 333 20190 58003;
0137827840999992006100918004-07317-039300FM-12+040999999V0200901N001512200019N0200001N1+03541+01711100681ADDGF104991041011008001001001MA1999999096261MD1999999+0021REMSYN070AAXX  09184 82784 32598 40903 10354 20171 39626 40068 84100 333 58002;
0168827840999992006101000004-07317-039300FM-12+040999999V0201401N002612200019N0020001N1+02961+01991101071ADDGF103991031011008001001001KA1240M+03671MA1999999096611MD1999999+0041REMSYN088AAXX  10004 82784 32595 31405 10296 20199 39661 40107 83100 333 10367 29051 55109 58004;
0156827840999992006101012004-07317-039300FM-12+040999999V0201401N004612200019N0200001N1+02781+01671101531ADDGF102991011011008001011001KA1240N+02021MA1999999097021MD1999999+0151REMSYN076AAXX  10124 82784 32598 21409 10278 20167 39702 40153 81110 333 20202 58015;
0137827840999992006101018004-07317-039300FM-12+040999999V0201401N002612200019N0200001N1+03521+01741100961ADDGF104991031011008001011001MA1999999097021MD1999999+0241REMSYN070AAXX  10184 82784 32598 41405 10352 20174 39702 40096 83110 333 58024;
0168827840999992006101100004-07317-039300FM-12+040999999V0201801N002112200019N0020001N1+02851+01671101221ADDGF103991031011008001001001KA1240M+03651MA1999999096741MD1999999+0131REMSYN088AAXX  11004 82784 32595 31804 10285 20167 39674 40122 83100 333 10365 29046 55111 58013;
0156827840999992006101112004-07317-039300FM-12+040999999V0201401N002610450019N0200001N1+02811+01751101491ADDGF107991041011008001011001KA1240N+02201MA1999999097011MD1999999-0011REMSYN076AAXX  11124 82784 32598 71405 10281 20175 39701 40149 84110 333 20220 59001;
0156827840999992006101118004-07317-039300FM-12+040999999V0201401N002619999999N0200001N1+03331+01671100891ADDGF108991999021008001001001MA1999999096421MD1999999-0081REMSYN070AAXX  11184 82784 32598 81405 10333 20167 39642 40089 84200 333 59008;EQDQ01+000042SCOTLC
0178827840999992006101200004-07317-039300FM-12+040999999V0201401N001512200019N0020001N1+02721+01771101081ADDGA1001+999999999GF100991001001999999001001KA1240M+03651MA1999999096591MD1999999-0151REMSYN082AAXX  12004 82784 32995 01403 10272 20177 39659 40108 333 10365 29051 55101 59015;
0137827840999992006101218004-07317-039300FM-12+040999999V0200901N002612200019N0200001N1+03281+01931100731ADDGF102991021021008001001001MA1999999096271MD1999999-0151REMSYN070AAXX  12184 82784 32598 20905 10328 20193 39627 40073 82200 333 59015;
0178827840999992006101300004-07317-039300FM-12+040999999V0200901N000512200019N0020001N1+02641+02001100921ADDGA1001+999999999GF100991001001999999001001KA1240M+03651MA1999999096411MD1999999-0181REMSYN082AAXX  13004 82784 32995 00901 10264 20200 39641 40092 333 10365 29063 55073 59018;
0156827840999992006101312004-07317-039300FM-12+040999999V0200501N002612200019N0200001N1+02791+02061101201ADDGF101991011011008001001001KA1240N+01871MA1999999096701MD1999999-0191REMSYN076AAXX  13124 82784 32598 10505 10279 20206 39670 40120 81100 333 20187 59019;
0137827840999992006101318004-07317-039300FM-12+040999999V0201801N003612200019N0200001N1+03651+01551100561ADDGF101991011021008001001001MA1999999096131MD1999999-0141REMSYN070AAXX  13184 82784 32598 11807 10365 20155 39613 40056 81200 333 59014;
0178827840999992006101400004-07317-039300FM-12+040999999V0200901N001012200019N0020001N1+02821+01771100851ADDGA1001+999999999GF100991001001999999001001KA1240M+03731MA1999999096381MD1999999-0031REMSYN082AAXX  14004 82784 32995 00902 10282 20177 39638 40085 333 10373 29050 55112 59003;
0156827840999992006101412004-07317-039300FM-12+040999999V0200501N003112200019N0200001N1+02771+01981101151ADDGF102991021021008001001001KA1240N+01871MA1999999096671MD1999999-0031REMSYN076AAXX  14124 82784 32598 20506 10277 20198 39667 40115 82200 333 20187 59003;
0137827840999992006101418004-07317-039300FM-12+040999999V0200501N002610075019N0200001N1+03541+01801100551ADDGF106991051011008001021001MA1999999096101MD1999999-0031REMSYN070AAXX  14184 82784 32598 60505 10354 20180 39610 40055 85120 333 59003;
0168827840999992006101500004-07317-039300FM-12+040999999V0201801N001012200019N0020001N1+02651+01751100911ADDGF101991011011008001001001KA1240M+03631MA1999999096421MD1999999+0041REMSYN088AAXX  15004 82784 32595 11802 10265 20175 39642 40091 81100 333 10363 29053 55106 58004;
0156827840999992006101512004-07317-039300FM-12+040999999V0200501N003112200019N0200001N1+02821+02101101141ADDGF102991021021008001001001KA1240N+02021MA1999999096651MD1999999-0021REMSYN076AAXX  15124 82784 32598 20506 10282 20210 39665 40114 82200 333 20202 59002;
0137827840999992006101518004-07317-039300FM-12+040999999V0200501N002110075019N0200001N1+03551+01911100561ADDGF106991061021008001001001MA1999999096121MD1999999+0021REMSYN070AAXX  15184 82784 32598 60504 10355 20191 39612 40056 86200 333 58002;
0168827840999992006101600004-07317-039300FM-12+040999999V0201401N001010075019N0020001N1+02821+01891100861ADDGF105991051041008001001001KA1240M+03661MA1999999096391MD1999999-0031REMSYN088AAXX  16004 82784 32595 51402 10282 20189 39639 40086 85400 333 10366 29054 55098 59003;
0156827840999992006101612004-07317-039300FM-12+040999999V0200501N002110075019N0200001N1+02821+01941101211ADDGF106991061011008001001001KA1240N+02341MA1999999096731MD1999999+0081REMSYN076AAXX  16124 82784 32598 60504 10282 20194 39673 40121 86100 333 20234 58008;
0137827840999992006101618004-07317-039300FM-12+040999999V0203601N001010450019N0200001N1+03401+01851100661ADDGF108991041011008001041999MA1999999096231MD1999999+0111REMSYN070AAXX  16184 82784 32598 83602 10340 20185 39623 40066 8414/ 333 58011;
0168827840999992006101700004-07317-039300FM-12+040999999V0209999C000019999999N0020001N1+02661+01901100901ADDGF105991051999999999999999KA1240M+03531MA1999999096421MD1999999+0031REMSYN088AAXX  17004 82784 32/95 50000 10266 20190 39642 40090 85/// 333 10353 29056 55075 58003;
0156827840999992006101712004-07317-039300FM-12+040999999V0200901N001510075019N0200001N1+02731+02051101231ADDGF107991051021008001041001KA1240N+02181MA1999999096731MD1999999+0001REMSYN076AAXX  17124 82784 32598 70903 10273 20205 39673 40123 85240 333 20218 58000;
