0168827950999992006010100004-07217-035883FM-12+0548SBKG V0200901N003612200019N0010001N1+02221+01901101421ADDGF103991031021008001001001KA1240M+02771MA1999999095221MD1999999+0021REMSYN088AAXX  01004 82795 32594 30907 10222 20190 39522 40142 83200 333 10277 29081 55030 58002;
0173827950999992006010112004-07217-035883FM-12+0548SBKG V0201401N003610075019N0100001N1+02431+01931101361ADDAA124000591GF106991061021008001001001KA1240N+02031MA1999999095191MD1999999+0001REMSYN082AAXX  01124 82795 22597 61407 10243 20193 39519 40136 86200 333 20203 58000 69964;
0156827950999992006010212004-07217-035883FM-12+0548SBKG V0201801N003110075019N0100001N1+02491+01821101381ADDGF106991061021008001001001KA1240N+01961MA1999999095231MD1999999+0041REMSYN076AAXX  02124 82795 32597 61806 10249 20182 39523 40138 86200 333 20196 58004;
0156827950999992006010218004-07217-035883FM-12+0548SBKG V0201401N003119999999N0100001N1+02901+01781101031ADDGF106991999021008001001001MA1999999094931MD1999999+0081REMSYN070AAXX  02184 82795 32597 61406 10290 20178 39493 40103 84200 333 58008;EQDQ01+000042SCOTLC
0178827950999992006010300004-07217-035883FM-12+0548SBKG V0200901N004112200019N0010001N1+02291+01941101241ADDGA1001+999999999GF100991001001999999001001KA1240M+03771MA1999999095121MD1999999+0001REMSYN082AAXX  03004 82795 32994 00908 10229 20194 39512 40124 333 10377 29077 55093 58000;
0156827950999992006010312004-07217-035883FM-12+0548SBKG V0200901N003610075019N0100001N1+02531+01931101341ADDGF107991071071008001001001KA1240N+02061MA1999999095211MD1999999-0021REMSYN076AAXX  03124 82795 32597 70907 10253 20193 39521 40134 87700 333 20206 59002;
0137827950999992006010318004-07217-035883FM-12+0548SBKG V0201401N005112200019N0100001N1+03001+01811101041ADDGF105991031031008001001011MA1999999094951MD1999999+0021REMSYN070AAXX  03184 82795 32597 51410 10300 20181 39495 40104 83301 333 58002;
0168827950999992006010400004-07217-035883FM-12+0548SBKG V0200901N005110075019N0010001N1+02321+01981101161ADDGF106991061021008001001001KA1240M+03141MA1999999095041MD1999999-0081REMSYN088AAXX  04004 82795 32594 60910 10232 20198 39504 40116 86200 333 10314 29070 55099 59008;
0156827950999992006010412004-07217-035883FM-12+0548SBKG V0200901N003610075019N0100001N1+02511+01791101191ADDGF106991061021008001001001KA1240N+02031MA1999999095071MD1999999-0141REMSYN076AAXX  04124 82795 32597 60907 10251 20179 39507 40119 86200 333 20203 59014;
0137827950999992006010418004-07217-035883FM-12+0548SBKG V0201401N005112200019N0100001N1+03021+01831100831ADDGF103991031021008001001001MA1999999094751MD1999999-0201REMSYN070AAXX  04184 82795 32597 31410 10302 20183 39475 40083 83200 333 59020;
0168827950999992006010500004-07217-035883FM-12+0548SBKG V0201401N004112200019N0010001N1+02331+01811101081ADDGF101991011011008001001001KA1240M+03111MA1999999094961MD1999999-0081REMSYN088AAXX  05004 82795 32594 11408 10233 20181 39496 40108 81100 333 10311 29064 55104 59008;
0156827950999992006010512004-07217-035883FM-12+0548SBKG V0201401N003610075019N0100001N1+02541+01911101281ADDGF106991061021008001001001KA1240N+02081MA1999999095151MD1999999+0081REMSYN076AAXX  05124 82795 32597 61407 10254 20191 39515 40128 86200 333 20208 58008;
0137827950999992006010518004-07217-035883FM-12+0548SBKG V0201401N006212200019N0100001N1+03001+01681100821ADDGF103991031021008001001001MA1999999094751MD1999999+0001REMSYN070AAXX  05184 82795 32597 31412 10300 20168 39475 40082 83200 333 58000;
0156827950999992006010612004-07217-035883FM-12+0548SBKG V0201401N003610075019N0100001N1+02441+01811101321ADDGF106991061061008001001001KA1240N+02031MA1999999095181MD1999999+0031REMSYN076AAXX  06124 82795 32597 61407 10244 20181 39518 40132 86600 333 20203 58003;
0137827950999992006010618004-07217-035883FM-12+0548SBKG V0201401N006210450019N0100001N1+02931+01741100901ADDGF108991041081008001081001MA1999999094791MD1999999-0041REMSYN070AAXX  06184 82795 32597 81412 10293 20174 39479 40090 84880 333 59004;
0168827950999992006010700004-07217-035883FM-12+0548SBKG V0200901N003119999999N0010001N1+02281+01921101261ADDGF106991021001008001041051KA1240M+03111MA1999999095121MD1999999+0111REMSYN088AAXX  07004 82795 32594 60906 10228 20192 39512 40126 82045 333 10311 29069 55069 58011;
0156827950999992006010712004-07217-035883FM-12+0548SBKG V0201401N003112200019N0100001N1+02481+01681101371ADDGF106991031031008001001011KA1240N+01991MA1999999095231MD1999999+0051REMSYN076AAXX  07124 82795 32597 61406 10248 20168 39523 40137 83301 333 20199 58005;
0137827950999992006010718004-07217-035883FM-12+0548SBKG V0201401N003611050019N0100001N1+02911+01551100911ADDGF107991041041008001001081MA1999999094821MD1999999+0031REMSYN070AAXX  07184 82795 32597 71407 10291 20155 39482 40091 84408 333 58003;
0156827950999992006010812004-07217-035883FM-12+0548SBKG V0201401N002112200019N0100001N1+02551+01571101201ADDGF102991021021008001001001KA1240N+01921MA1999999095061MD1999999-0171REMSYN076AAXX  08124 82795 32597 21404 10255 20157 39506 40120 82200 333 20192 59017;
0156827950999992006010818004-07217-035883FM-12+0548SBKG V0201401N005112200019N0100001N1+03031+01591100951ADDGF102991999021008001001001MA1999999094841MD1999999+0051REMSYN070AAXX  08184 82795 32597 21410 10303 20159 39484 40095 83200 333 58005;EQDQ01+000032SCOTLC
0178827950999992006010900004-07217-035883FM-12+0548SBKG V0201401N005112200019N0010001N1+02241+01621101281ADDGA1001+999999999GF100991001001999999001001KA1240M+03121MA1999999095151MD1999999+0081REMSYN082AAXX  09004 82795 32994 01410 10224 20162 39515 40128 333 10312 29058 55116 58008;
0156827950999992006010912004-07217-035883FM-12+0548SBKG V0200901N003619999999N0100001N1+02501+01891101391ADDGF106991999021008001001001KA1240N+02031MA1999999095241MD1999999+0181REMSYN076AAXX  09124 82795 32597 60907 10250 20189 39524 40139 84200 333 20203 58018;
0137827950999992006010918004-07217-035883FM-12+0548SBKG V0200901N003610075019N0100001N1+02991+01911100941ADDGF106991999021008001001001MA1999999094861MD1999999+0021REMSYN070AAXX  09184 82795 32597 60907 10299 20191 39486 40094 85200 333 58002;
0168827950999992006011000004-07217-035883FM-12+0548SBKG V0200901N005110075019N0010001N1+02341+01931101291ADDGF106991051021008001041001KA1240M+03131MA1999999095161MD1999999+0011REMSYN088AAXX  10004 82795 32594 60910 10234 20193 39516 40129 85240 333 10313 29069 55091 58001;
0156827950999992006011012004-07217-035883FM-12+0548SBKG V0200901N005110075019N0100001N1+02481+01941101461ADDGF106991061021008001001001KA1240N+02111MA1999999095321MD1999999+0081REMSYN076AAXX  10124 82795 32597 60910 10248 20194 39532 40146 86200 333 20211 58008;
0168827950999992006011100004-07217-035883FM-12+0548SBKG V0201401N004112200019N0010001N1+02371+01781101441ADDGF102991021011008001001001KA1240M+03141MA1999999095301MD1999999+0141REMSYN088AAXX  11004 82795 32594 21408 10237 20178 39530 40144 82100 333 10314 29065 55098 58014;
0156827950999992006011112004-07217-035883FM-12+0548SBKG V0201401N005710075019N0100001N1+02631+01701101421ADDGF105991051011008001001001KA1240N+02081MA1999999095311MD1999999-0011REMSYN076AAXX  11124 82795 32597 51411 10263 20170 39531 40142 85100 333 20208 59001;
0137827950999992006011118004-07217-035883FM-12+0548SBKG V0200901N004612200019N0100001N1+03111+01751101021ADDGF104991041011008001001001MA1999999094961MD1999999-0011REMSYN070AAXX  11184 82795 32597 40909 10311 20175 39496 40102 84100 333 59001;
0156827950999992006011218004-07217-035883FM-12+0548SBKG V0200901N005110075019N0100001N1+02831+01801101161ADDGF107991999021008001001001MA1999999095041MD1999999+0081REMSYN070AAXX  12184 82795 32597 70910 10283 20180 39504 40116 85200 333 58008;EQDQ01+000052SCOTLC
0168827950999992006011300004-07217-035883FM-12+0548SBKG V0200901N005110075019N0010001N1+02281+01961101481ADDGF106991051021008001061001KA1240M+03031MA1999999095341MD1999999+0091REMSYN088AAXX  13004 82795 32594 60910 10228 20196 39534 40148 85260 333 10303 29071 55088 58009;
0156827950999992006011312004-07217-035883FM-12+0548SBKG V0201401N004610075019N0100001N1+02401+01911101541ADDGF107991071071008001001001KA1240N+02061MA1999999095361MD1999999+0051REMSYN076AAXX  13124 82795 32597 71409 10240 20191 39536 40154 87700 333 20206 58005;
0137827950999992006011318004-07217-035883FM-12+0548SBKG V0201401N005712200019N0100001N1+03011+01681101171ADDGF106991041021008001001011MA1999999095091MD1999999+0051REMSYN070AAXX  13184 82795 32597 61411 10301 20168 39509 40117 84201 333 58005;
0168827950999992006011400004-07217-035883FM-12+0548SBKG V0201401N004619999999N0010001N1+02411+01841101451ADDGF106991001001999999001061KA1240M+03081MA1999999095311MD1999999-0031REMSYN088AAXX  14004 82795 32994 61409 10241 20184 39531 40145 80006 333 10308 29065 55088 59003;
0201827950999992006011412004-07217-035883FM-12+0548SBKG V0201401N002610075019N0100001N1+02371+01821101431ADDAA124000591AY161061AY221061GF106991061021008001001001KA1240N+02031MA1999999095291MD1999999-0071MW1021REMSYN088AAXX  14124 82795 21597 61405 10237 20182 39529 40143 70262 86200 333 20203 59007 69944;
0137827950999992006011418004-07217-035883FM-12+0548SBKG V0201401N004112200019N0100001N1+03061+01551101081ADDGF104991021011008001001021MA1999999095001MD1999999-0091REMSYN070AAXX  14184 82795 32597 41408 10306 20155 39500 40108 82102 333 59009;
0168827950999992006011500004-07217-035883FM-12+0548SBKG V0201401N004112200019N0010001N1+02331+01871101401ADDGF103991031011008001001001KA1240M+03151MA1999999095251MD1999999-0061REMSYN088AAXX  15004 82795 32594 31408 10233 20187 39525 40140 83100 333 10315 29065 55100 59006;
0156827950999992006011512004-07217-035883FM-12+0548SBKG V0201401N004610075019N0100001N1+02471+01731101471ADDGF105991051021008001001001KA1240N+01951MA1999999095331MD1999999+0041REMSYN076AAXX  15124 82795 32597 51409 10247 20173 39533 40147 85200 333 20195 58004;
0137827950999992006011518004-07217-035883FM-12+0548SBKG V0201401N003611050019N0100001N1+03141+01501100921ADDGF106991021011008001001081MA1999999094881MD1999999-0121REMSYN070AAXX  15184 82795 32597 61407 10314 20150 39488 40092 82108 333 59012;
0168827950999992006011600004-07217-035883FM-12+0548SBKG V0200901N003611050019N0010001N1+02341+01851101341ADDGF106991011011008001001081KA1240M+03191MA1999999095211MD1999999-0041REMSYN088AAXX  16004 82795 32594 60907 10234 20185 39521 40134 81108 333 10319 29062 55106 59004;
0156827950999992006011612004-07217-035883FM-12+0548SBKG V0200901N004110075019N0100001N1+02231+01971101461ADDGF107991071071008001001001KA1240N+02061MA1999999095281MD1999999-0051REMSYN076AAXX  16124 82795 32597 70908 10223 20197 39528 40146 87700 333 20206 59005;
0168827950999992006011700004-07217-035883FM-12+0548SBKG V0200901N004612200019N0010001N1+02341+01931101371ADDGF104991021001012501051021KA1240M+03091MA1999999095201MD1999999-0011REMSYN088AAXX  17004 82795 32694 40909 10234 20193 39520 40137 82052 333 10309 29072 55064 59001;
0156827950999992006011712004-07217-035883FM-12+0548SBKG V0201401N004610075019N0100001N1+02571+01961101331ADDGF106991061021008001001001KA1240N+02091MA1999999095211MD1999999-0071REMSYN076AAXX  17124 82795 32597 61409 10257 20196 39521 40133 86200 333 20209 59007;
0137827950999992006011718004-07217-035883FM-12+0548SBKG V0201401N004610450019N0100001N1+02981+01791100941ADDGF106991041021008001021001MA1999999094851MD1999999+0051REMSYN070AAXX  17184 82795 32597 61409 10298 20179 39485 40094 84220 333 58005;
0168827950999992006011800004-07217-035883FM-12+0548SBKG V0200901N004610075019N0010001N1+02351+02011101321ADDGF105991051021008001001001KA1240M+03201MA1999999095201MD1999999+0001REMSYN088AAXX  18004 82795 32594 50909 10235 20201 39520 40132 85200 333 10320 29070 55084 58000;
0156827950999992006011812004-07217-035883FM-12+0548SBKG V0201401N003110075019N0100001N1+02571+01871101371ADDGF106991061021008001001001KA1240N+02131MA1999999095251MD1999999+0041REMSYN076AAXX  18124 82795 32597 61406 10257 20187 39525 40137 86200 333 20213 58004;
0168827950999992006011900004-07217-035883FM-12+0548SBKG V0200901N004610075019N0010001N1+02311+02021101211ADDGF106991051021008001001021KA1240M+03221MA1999999095101MD1999999-0101REMSYN088AAXX  19004 82795 32594 60909 10231 20202 39510 40121 85202 333 10322 29070 55074 59010;
0156827950999992006011912004-07217-035883FM-12+0548SBKG V0200901N003610075019N0100001N1+02431+01861101241ADDGF107991071071008001001001KA1240N+02051MA1999999095171MD1999999-0151REMSYN076AAXX  19124 82795 32597 70907 10243 20186 39517 40124 87700 333 20205 59015;
0137827950999992006011918004-07217-035883FM-12+0548SBKG V0201401N003610075019N0100001N1+03001+01911100741ADDGF107991051041008001011001MA1999999094671MD1999999-0121REMSYN070AAXX  19184 82795 32597 71407 10300 20191 39467 40074 85410 333 59012;
0168827950999992006012000004-07217-035883FM-12+0548SBKG V0201401N004110075019N0010001N1+02331+01951101101ADDGF106991061021008001001001KA1240M+03131MA1999999094971MD1999999-0151REMSYN088AAXX  20004 82795 32594 61408 10233 20195 39497 40110 86200 333 10313 29070 55062 59015;
0156827950999992006012012004-07217-035883FM-12+0548SBKG V0201401N004110075019N0100001N1+02561+01751101191ADDGF106991051021008001001041KA1240N+02031MA1999999095071MD1999999-0031REMSYN076AAXX  20124 82795 32597 61408 10256 20175 39507 40119 85204 333 20203 59003;
0137827950999992006012018004-07217-035883FM-12+0548SBKG V0200901N003612200019N0100001N1+02981+01591100881ADDGF104991031021008001001011MA1999999094801MD1999999+0131REMSYN070AAXX  20184 82795 32597 40907 10298 20159 39480 40088 83201 333 58013;
0168827950999992006012100004-07217-035883FM-12+0548SBKG V0200901N004612200019N0010001N1+02321+01871101181ADDGF103991011021008001041001KA1240M+03141MA1999999095071MD1999999+0101REMSYN088AAXX  21004 82795 32594 30909 10232 20187 39507 40118 81240 333 10314 29064 55091 58010;
0156827950999992006012112004-07217-035883FM-12+0548SBKG V0201401N004112200019N0100001N1+02441+01881101331ADDGF106991041021008001001011KA1240N+02031MA1999999095191MD1999999+0121REMSYN076AAXX  21124 82795 32597 61408 10244 20188 39519 40133 84201 333 20203 58012;
0137827950999992006012118004-07217-035883FM-12+0548SBKG V0201401N004611050019N0100001N1+03001+01711100991ADDGF106991031021008001001051MA1999999094921MD1999999+0121REMSYN070AAXX  21184 82795 32597 61409 10300 20171 39492 40099 83205 333 58012;
0168827950999992006012200004-07217-035883FM-12+0548SBKG V0201401N004610075019N0010001N1+02371+01991101291ADDGF106991051021008001041001KA1240M+03131MA1999999095161MD1999999+0091REMSYN088AAXX  22004 82795 32594 61409 10237 20199 39516 40129 85240 333 10313 29069 55096 58009;
0156827950999992006012212004-07217-035883FM-12+0548SBKG V0201401N003610075019N0100001N1+02461+01941101311ADDGF106991061021008001001001KA1240N+02031MA1999999095181MD1999999-0011REMSYN076AAXX  22124 82795 32597 61407 10246 20194 39518 40131 86200 333 20203 59001;
0137827950999992006012218004-07217-035883FM-12+0548SBKG V0201401N003611050019N0100001N1+03171+01691100891ADDGF108991041021008001001071MA1999999094851MD1999999-0071REMSYN070AAXX  22184 82795 32597 81407 10317 20169 39485 40089 84207 333 59007;
0187827950999992006012300004-07217-035883FM-12+0548SBKG V0200901N004619999999N0010001N1+02361+01991101351ADDGF108991999021008001001001KA1240M+03201MA1999999095281MD1999999+0061REMSYN088AAXX  23004 82795 32594 80909 10236 20199 39528 40135 83200 333 10320 29068 55095 58006;EQDQ01+000032SCOTLC
0156827950999992006012312004-07217-035883FM-12+0548SBKG V0201401N004610075019N0100001N1+02591+02101101361ADDGF105991051011008001001001KA1240N+02061MA1999999095241MD1999999+0061REMSYN076AAXX  23124 82795 32597 51409 10259 20210 39524 40136 85100 333 20206 58006;
0156827950999992006012318004-07217-035883FM-12+0548SBKG V0201401N004610075019N0100001N1+03101+01941100941ADDGF108991999021008001001001MA1999999094871MD1999999+0021REMSYN070AAXX  23184 82795 32597 81409 10310 20194 39487 40094 86200 333 58002;EQDQ01+000062SCOTLC
0168827950999992006012400004-07217-035883FM-12+0548SBKG V0200901N004612200019N0010001N1+02401+02031101271ADDGF103991031011008001001001KA1240M+03211MA1999999095171MD1999999-0051REMSYN088AAXX  24004 82795 32594 30909 10240 20203 39517 40127 83100 333 10321 29071 55096 59005;
0156827950999992006012412004-07217-035883FM-12+0548SBKG V0201401N005710075019N0100001N1+02591+02121101461ADDGF106991061021008001001001KA1240N+02111MA1999999095301MD1999999-0061REMSYN076AAXX  24124 82795 32597 61411 10259 20212 39530 40146 86200 333 20211 59006;
0137827950999992006012418004-07217-035883FM-12+0548SBKG V0200901N005110450019N0100001N1+02961+02021101051ADDGF107991041011008001081001MA1999999094961MD1999999+0091REMSYN070AAXX  24184 82795 32597 70910 10296 20202 39496 40105 84180 333 58009;
0178827950999992006012500004-07217-035883FM-12+0548SBKG V0200901N004612200019N0010001N1+02401+01971101321ADDGA1001+999999999GF100991001001999999001001KA1240M+03031MA1999999095221MD1999999+0051REMSYN082AAXX  25004 82795 32994 00909 10240 20197 39522 40132 333 10303 29072 55072 58005;
0156827950999992006012512004-07217-035883FM-12+0548SBKG V0200901N005710075019N0100001N1+02571+02121101461ADDGF106991061061008001001001KA1240N+02091MA1999999095361MD1999999+0031REMSYN076AAXX  25124 82795 32597 60911 10257 20212 39536 40146 86600 333 20209 58003;
0156827950999992006012518004-07217-035883FM-12+0548SBKG V0201401N005719999999N0100001N1+03001+01941101191ADDGF107991999021008001001001MA1999999095111MD1999999+0151REMSYN070AAXX  25184 82795 32597 71411 10300 20194 39511 40119 83200 333 58015;EQDQ01+000032SCOTLC
0178827950999992006012600004-07217-035883FM-12+0548SBKG V0200901N004112200019N0010001N1+02361+02111101411ADDGA1001+999999999GF100991001001999999001001KA1240M+03111MA1999999095291MD1999999+0071REMSYN082AAXX  26004 82795 32994 00908 10236 20211 39529 40141 333 10311 29075 55067 58007;
0156827950999992006012612004-07217-035883FM-12+0548SBKG V0200901N004610075019N0100001N1+02481+02031101491ADDGF106991061061008001001001KA1240N+02061MA1999999095351MD1999999+0021REMSYN076AAXX  26124 82795 32597 60909 10248 20203 39535 40149 86600 333 20206 58002;
0137827950999992006012618004-07217-035883FM-12+0548SBKG V0200901N004112200019N0100001N1+03201+01891101141ADDGF106991031011008001001041MA1999999095071MD1999999-0041REMSYN070AAXX  26184 82795 32597 60908 10320 20189 39507 40114 83104 333 59004;
0168827950999992006012700004-07217-035883FM-12+0548SBKG V0200901N004112200019N0010001N1+02391+02071101501ADDGF102991011011008001001011KA1240M+03241MA1999999095371MD1999999+0081REMSYN088AAXX  27004 82795 32594 20908 10239 20207 39537 40150 81101 333 10324 29072 55096 58008;
0156827950999992006012712004-07217-035883FM-12+0548SBKG V0200901N004110075019N0100001N1+02521+02201101401ADDGF107991061041008001021001KA1240N+02101MA1999999095281MD1999999-0071REMSYN076AAXX  27124 82795 32597 70908 10252 20220 39528 40140 86420 333 20210 59007;
0137827950999992006012718004-07217-035883FM-12+0548SBKG V0201401N005112200019N0100001N1+03171+02011101141ADDGF103991031011008001001001MA1999999095071MD1999999+0001REMSYN070AAXX  27184 82795 32597 31410 10317 20201 39507 40114 83100 333 58000;
0168827950999992006012800004-07217-035883FM-12+0548SBKG V0200901N004112200019N0010001N1+02451+02071101471ADDGF102991021011008001001001KA1240M+03201MA1999999095341MD1999999-0031REMSYN088AAXX  28004 82795 32594 20908 10245 20207 39534 40147 82100 333 10320 29071 55099 59003;
0156827950999992006012812004-07217-035883FM-12+0548SBKG V0201401N004610075019N0100001N1+02501+02111101491ADDGF106991061061008001001001KA1240N+02141MA1999999095361MD1999999+0081REMSYN076AAXX  28124 82795 32597 61409 10250 20211 39536 40149 86600 333 20214 58008;
0137827950999992006012818004-07217-035883FM-12+0548SBKG V0200901N004611050019N0100001N1+03131+01881101071ADDGF106991031021008001001051MA1999999095021MD1999999-0051REMSYN070AAXX  28184 82795 32597 60909 10313 20188 39502 40107 83205 333 59005;
0168827950999992006012900004-07217-035883FM-12+0548SBKG V0200901N004112200019N0010001N1+02401+01991101381ADDGF103991031011008001001001KA1240M+03201MA1999999095261MD1999999-0081REMSYN088AAXX  29004 82795 32594 30908 10240 20199 39526 40138 83100 333 10320 29070 55093 59008;
0137827950999992006012918004-07217-035883FM-12+0548SBKG V0200901N002112200019N0100001N1+03051+01941101041ADDGF104991031021008001001021MA1999999094981MD1999999-0041REMSYN070AAXX  29184 82795 32597 40904 10305 20194 39498 40104 83202 333 59004;
0168827950999992006013000004-07217-035883FM-12+0548SBKG V0200901N005110075019N0010001N1+02411+02071101221ADDGF105991051021008001001001KA1240M+03131MA1999999095111MD1999999-0151REMSYN088AAXX  30004 82795 32594 50910 10241 20207 39511 40122 85200 333 10313 29072 55099 59015;
0156827950999992006013012004-07217-035883FM-12+0548SBKG V0200901N003610075019N0100001N1+02461+02031101381ADDGF106991061021008001001001KA1240N+02131MA1999999095241MD1999999-0031REMSYN076AAXX  30124 82795 32597 60907 10246 20203 39524 40138 86200 333 20213 59003;
0137827950999992006013018004-07217-035883FM-12+0548SBKG V0201401N003110075019N0100001N1+03161+01991100901ADDGF106991061021008001001001MA1999999094861MD1999999-0121REMSYN070AAXX  30184 82795 32597 61406 10316 20199 39486 40090 86200 333 59012;
0168827950999992006013100004-07217-035883FM-12+0548SBKG V0200901N004610075019N0010001N1+02411+02091101161ADDGF106991061021008001001001KA1240M+03251MA1999999095051MD1999999-0061REMSYN088AAXX  31004 82795 32594 60909 10241 20209 39505 40116 86200 333 10325 29073 55089 59006;
0156827950999992006013112004-07217-035883FM-12+0548SBKG V0200901N004610450019N0100001N1+02471+02011101341ADDGF106991031021008001061001KA1240N+02131MA1999999095221MD1999999-0021REMSYN076AAXX  31124 82795 32597 60909 10247 20201 39522 40134 83260 333 20213 59002;
0137827950999992006013118004-07217-035883FM-12+0548SBKG V0201401N004610075019N0100001N1+03061+02021100911ADDGF106991061021008001001001MA1999999094851MD1999999-0011REMSYN070AAXX  31184 82795 32597 61409 10306 20202 39485 40091 86200 333 59001;
0168827950999992006020100004-07217-035883FM-12+0548SBKG V0200901N004612200019N0010001N1+02371+01891101551ADDGF104991041021008001001001KA1240M+03091MA1999999095031MD1999999-0021REMSYN088AAXX  01004 82795 32594 40909 10237 20189 39503 40155 84200 333 10309 29070 55088 59002;
0156827950999992006020112004-07217-035883FM-12+0548SBKG V0200901N004612200019N0100001N1+02561+01971101311ADDGF106991041021008001001011KA1240N+02051MA1999999095191MD1999999-0031REMSYN076AAXX  01124 82795 32597 60909 10256 20197 39519 40131 84201 333 20205 59003;
0137827950999992006020118004-07217-035883FM-12+0548SBKG V0200901N004110075019N0100001N1+03081+01781100971ADDGF106991061051008001001001MA1999999094911MD1999999+0061REMSYN070AAXX  01184 82795 32597 60908 10308 20178 39491 40097 86500 333 58006;
0168827950999992006020200004-07217-035883FM-12+0548SBKG V0200901N004612200019N0010001N1+02341+01931101171ADDGF102991021011008001001001KA1240M+03111MA1999999095061MD1999999+0031REMSYN088AAXX  02004 82795 32594 20909 10234 20193 39506 40117 82100 333 10311 29068 55104 58003;
0156827950999992006020212004-07217-035883FM-12+0548SBKG V0201401N004610075019N0100001N1+02651+02031101301ADDGF106991061021008001001001KA1240N+02061MA1999999095201MD1999999+0011REMSYN076AAXX  02124 82795 32597 61409 10265 20203 39520 40130 86200 333 20206 58001;
0137827950999992006020218004-07217-035883FM-12+0548SBKG V0200901N003112200019N0100001N1+03121+01921101011ADDGF106991041021008001001041MA1999999094931MD1999999+0021REMSYN070AAXX  02184 82795 32597 60906 10312 20192 39493 40101 84204 333 58002;
0168827950999992006020300004-07217-035883FM-12+0548SBKG V0200901N005112200019N0010001N1+02291+01961101231ADDGF103991021021008001001011KA1240M+03181MA1999999095121MD1999999+0061REMSYN088AAXX  03004 82795 32594 30910 10229 20196 39512 40123 82201 333 10318 29070 55092 58006;
0156827950999992006020312004-07217-035883FM-12+0548SBKG V0200901N005110075019N0100001N1+02981+02131101231ADDGF106991061041008001001001KA1240N+02081MA1999999095121MD1999999-0081REMSYN076AAXX  03124 82795 32597 60910 10298 20213 39512 40123 86400 333 20208 59008;
0137827950999992006020318004-07217-035883FM-12+0548SBKG V0201401N004610075019N0100001N1+03161+02141100941ADDGF105991051011008001001001MA1999999094881MD1999999-0051REMSYN070AAXX  03184 82795 32597 51409 10316 20214 39488 40094 85100 333 59005;
0168827950999992006020400004-07217-035883FM-12+0548SBKG V0200901N004612200019N0010001N1+02371+02071101101ADDGF103991031011008001001001KA1240M+03201MA1999999095011MD1999999-0111REMSYN088AAXX  04004 82795 32594 30909 10237 20207 39501 40110 83100 333 10320 29073 55103 59011;
0137827950999992006020418004-07217-035883FM-12+0548SBKG V0201401N003612200019N0100001N1+03261+01911100751ADDGF104991031021008001001011MA1999999094721MD1999999-0161REMSYN070AAXX  04184 82795 32597 41407 10326 20191 39472 40075 83201 333 59016;
0168827950999992006020500004-07217-035883FM-12+0548SBKG V0200901N005110075019N0010001N1+02411+02091101061ADDGF106991061021008001001001KA1240M+03291MA1999999094971MD1999999-0041REMSYN088AAXX  05004 82795 32594 60910 10241 20209 39497 40106 86200 333 10329 29071 55097 59004;
0156827950999992006020512004-07217-035883FM-12+0548SBKG V0201401N003610075019N0100001N1+02471+02051101281ADDGF106991061021008001001001KA1240N+02161MA1999999095151MD1999999+0031REMSYN076AAXX  05124 82795 32597 61407 10247 20205 39515 40128 86200 333 20216 58003;
0137827950999992006020518004-07217-035883FM-12+0548SBKG V0201401N003610075019N0100001N1+03051+01941100901ADDGF106991061021008001001001MA1999999094841MD1999999+0121REMSYN070AAXX  05184 82795 32597 61407 10305 20194 39484 40090 86200 333 58012;
0168827950999992006020600004-07217-035883FM-12+0548SBKG V0200901N004612200019N0010001N1+02361+02051101211ADDGF104991041021008001001001KA1240M+03141MA1999999095091MD1999999+0121REMSYN088AAXX  06004 82795 32594 40909 10236 20205 39509 40121 84200 333 10314 29074 55083 58012;
0156827950999992006020612004-07217-035883FM-12+0548SBKG V0200901N003610075019N0100001N1+02481+02091101291ADDGF108991061021008001011999KA1240N+02091MA1999999095161MD1999999+0011REMSYN076AAXX  06124 82795 32597 80907 10248 20209 39516 40129 8621/ 333 20209 58001;
0137827950999992006020618004-07217-035883FM-12+0548SBKG V0200901N003110450019N0100001N1+03061+01961100941ADDGF107991031021008001061041MA1999999094871MD1999999+0031REMSYN070AAXX  06184 82795 32597 70906 10306 20196 39487 40094 83264 333 58003;
0168827950999992006020700004-07217-035883FM-12+0548SBKG V0200901N003611050019N0010001N1+02401+02111101251ADDGF106991031021008001001051KA1240M+03101MA1999999095131MD1999999+0041REMSYN088AAXX  07004 82795 32594 60907 10240 20211 39513 40125 83205 333 10310 29075 55042 58004;
0156827950999992006020712004-07217-035883FM-12+0548SBKG V0200901N003612200019N0100001N1+02561+02021101381ADDGF106991041021008001001011KA1240N+02131MA1999999095261MD1999999+0101REMSYN076AAXX  07124 82795 32597 60907 10256 20202 39526 40138 84201 333 20213 58010;
0168827950999992006020800004-07217-035883FM-12+0548SBKG V0200901N003610075019N0010001N1+02431+02111101241ADDGF106991061021008001001001KA1240M+03271MA1999999095141MD1999999+0011REMSYN088AAXX  08004 82795 32594 60907 10243 20211 39514 40124 86200 333 10327 29073 55093 58001;
0156827950999992006020812004-07217-035883FM-12+0548SBKG V0200901N003112200019N0100001N1+02701+01961101401ADDGF106991041021008001001041KA1240N+02121MA1999999095301MD1999999+0041REMSYN076AAXX  08124 82795 32597 60906 10270 20196 39530 40140 84204 333 20212 58004;
0137827950999992006020818004-07217-035883FM-12+0548SBKG V0201401N002612200019N0100001N1+03211+01891100911ADDGF107991031021008001001041MA1999999094871MD1999999+0001REMSYN070AAXX  08184 82795 32597 71405 10321 20189 39487 40091 83204 333 58000;
0168827950999992006020900004-07217-035883FM-12+0548SBKG V0200901N004111050019N0010001N1+02411+02111101151ADDGF105991031021008001001021KA1240M+03291MA1999999095071MD1999999-0071REMSYN088AAXX  09004 82795 32594 50908 10241 20211 39507 40115 83202 333 10329 29070 55081 59007;
0156827950999992006020912004-07217-035883FM-12+0548SBKG V0200901N002110450019N0100001N1+02591+02121101441ADDGF106991041021008001091001KA1240N+02151MA1999999095331MD1999999+0031REMSYN076AAXX  09124 82795 32597 60904 10259 20212 39533 40144 84290 333 20215 58003;
0137827950999992006020918004-07217-035883FM-12+0548SBKG V0201401N004112200019N0100001N1+03031+01921101041ADDGF106991041031008001001041MA1999999094981MD1999999+0011REMSYN070AAXX  09184 82795 32597 61408 10303 20192 39498 40104 84304 333 58001;
0168827950999992006021000004-07217-035883FM-12+0548SBKG V0200901N004610450019N0010001N1+02411+02091101351ADDGF106991031021008001091001KA1240M+03171MA1999999095241MD1999999+0171REMSYN088AAXX  10004 82795 32594 60909 10241 20209 39524 40135 83290 333 10317 29073 55045 58017;
0156827950999992006021012004-07217-035883FM-12+0548SBKG V0200901N004110450019N0100001N1+02651+01981101501ADDGF105991031011008001041001KA1240N+02151MA1999999095381MD1999999+0051REMSYN076AAXX  10124 82795 32597 50908 10265 20198 39538 40150 83140 333 20215 58005;
0137827950999992006021018004-07217-035883FM-12+0548SBKG V0201401N003112200019N0100001N1+03151+01901101091ADDGF104991021021008001031001MA1999999095031MD1999999+0051REMSYN070AAXX  10184 82795 32597 41406 10315 20190 39503 40109 82230 333 58005;
0168827950999992006021100004-07217-035883FM-12+0548SBKG V0200901N004111050019N0010001N1+02391+02051101421ADDGF105991021021008001001021KA1240M+03171MA1999999095311MD1999999+0071REMSYN088AAXX  11004 82795 32594 50908 10239 20205 39531 40142 82202 333 10317 29070 55085 58007;
0201827950999992006021112004-07217-035883FM-12+0548SBKG V0200501N003610075019N0100001N1+02541+01951101591ADDAA124000591AY151061AY221061GF107991051071008001011001KA1240N+02141MA1999999095451MD1999999+0071MW1021REMSYN088AAXX  11124 82795 21597 70507 10254 20195 39545 40159 70252 85710 333 20214 58007 69944;
0137827950999992006021118004-07217-035883FM-12+0548SBKG V0200501N001512200019N0100001N1+02191+02051101221ADDGF105991031041008001001041MA1999999095111MD1999999+0081REMSYN070AAXX  11184 82795 32597 50503 10219 20205 39511 40122 83404 333 58008;
0168827950999992006021200004-07217-035883FM-12+0548SBKG V0200501N003110075019N0010001N1+02341+01961101381ADDGF105991051061008001001001KA1240M+03101MA1999999095241MD1999999-0071REMSYN088AAXX  12004 82795 32594 50506 10234 20196 39524 40138 85600 333 10310 29072 55050 59007;
0156827950999992006021212004-07217-035883FM-12+0548SBKG V0200501N003110075019N0100001N1+02421+01971101511ADDGF108991081041008001001001KA1240N+02131MA1999999095351MD1999999-0051REMSYN076AAXX  12124 82795 32597 80506 10242 20197 39535 40151 88400 333 20213 59005;
0137827950999992006021218004-07217-035883FM-12+0548SBKG V0201401N002610120019N0100001N1+02771+01971101211ADDGF108991051081008001001041MA1999999095091MD1999999-0021REMSYN070AAXX  12184 82795 32597 81405 10277 20197 39509 40121 85804 333 59002;
0156827950999992006021312004-07217-035883FM-12+0548SBKG V0200901N003110075019N0100001N1+02491+02151101441ADDGF107991071071008001001001KA1240N+02151MA1999999095321MD1999999-0031REMSYN076AAXX  13124 82795 32597 70906 10249 20215 39532 40144 87700 333 20215 59003;
0137827950999992006021318004-07217-035883FM-12+0548SBKG V0201401N003111050019N0100001N1+03091+02001100991ADDGF106991021031008001031041MA1999999094931MD1999999-0161REMSYN070AAXX  13184 82795 32597 61406 10309 20200 39493 40099 82334 333 59016;
0168827950999992006021400004-07217-035883FM-12+0548SBKG V0200901N004612200019N0010001N1+02371+02071101281ADDGF104991031021008001051001KA1240M+03221MA1999999095151MD1999999-0081REMSYN088AAXX  14004 82795 32594 40909 10237 20207 39515 40128 83250 333 10322 29075 55047 59008;
0156827950999992006021412004-07217-035883FM-12+0548SBKG V0200901N003610075019N0100001N1+02651+02051101381ADDGF106991061021008001001001KA1240N+02151MA1999999095271MD1999999-0051REMSYN076AAXX  14124 82795 32597 60907 10265 20205 39527 40138 86200 333 20215 59005;
0137827950999992006021418004-07217-035883FM-12+0548SBKG V0201401N004112200019N0100001N1+03231+01981100901ADDGF104991011041008001001011MA1999999094871MD1999999+0061REMSYN070AAXX  14184 82795 32597 41408 10323 20198 39487 40090 81401 333 58006;
0168827950999992006021500004-07217-035883FM-12+0548SBKG V0200901N004110450019N0010001N1+02401+02031101321ADDGF106991041021008001051001KA1240M+03351MA1999999095221MD1999999+0071REMSYN088AAXX  15004 82795 32594 60908 10240 20203 39522 40132 84250 333 10335 29070 55097 58007;
0156827950999992006021512004-07217-035883FM-12+0548SBKG V0201401N002110075019N0100001N1+02691+02061101331ADDGF105991051011008001001001KA1240N+02161MA1999999095231MD1999999-0041REMSYN076AAXX  15124 82795 32597 51404 10269 20206 39523 40133 85100 333 20216 59004;
0137827950999992006021518004-07217-035883FM-12+0548SBKG V0201401N003612200019N0100001N1+03251+01861100901ADDGF103991031021008001001001MA1999999094871MD1999999+0001REMSYN070AAXX  15184 82795 32597 31407 10325 20186 39487 40090 83200 333 58000;
0168827950999992006021600004-07217-035883FM-12+0548SBKG V0200901N004610450019N0010001N1+02421+02091101271ADDGF107991041091008001081031KA1240M+03331MA1999999095181MD1999999-0041REMSYN088AAXX  16004 82795 32594 70909 10242 20209 39518 40127 84983 333 10333 29069 55102 59004;
0156827950999992006021612004-07217-035883FM-12+0548SBKG V0200901N003110075019N0100001N1+02621+02011101251ADDGF105991051011008001001001KA1240N+02161MA1999999095161MD1999999-0071REMSYN076AAXX  16124 82795 32597 50906 10262 20201 39516 40125 85100 333 20216 59007;
0137827950999992006021618004-07217-035883FM-12+0548SBKG V0200501N004110075019N0100001N1+03141+01941100991ADDGF105991051041008001001001MA1999999094881MD1999999-0011REMSYN070AAXX  16184 82795 32597 50508 10314 20194 39488 40099 85400 333 59001;
0168827950999992006021700004-07217-035883FM-12+0548SBKG V0200901N005110450019N0010001N1+02421+02071101221ADDGF106991041021008001061001KA1240M+03261MA1999999095121MD1999999-0061REMSYN088AAXX  17004 82795 32594 60910 10242 20207 39512 40122 84260 333 10326 29070 55094 59006;
0156827950999992006021712004-07217-035883FM-12+0548SBKG V0201401N005712200019N0100001N1+02671+02021101251ADDGF106991041021008001001011KA1240N+02141MA1999999095161MD1999999+0001REMSYN076AAXX  17124 82795 32597 61411 10267 20202 39516 40125 84201 333 20214 58000;
0137827950999992006021718004-07217-035883FM-12+0548SBKG V0201401N004112200019N0100001N1+03021+01861101011ADDGF105991021021008001001011MA1999999094951MD1999999+0071REMSYN070AAXX  17184 82795 32597 51408 10302 20186 39495 40101 82201 333 58007;
0168827950999992006021800004-07217-035883FM-12+0548SBKG V0200901N005110075019N0010001N1+02441+02171101231ADDGF106991061021008001001001KA1240M+03091MA1999999095141MD1999999+0021REMSYN088AAXX  18004 82795 32594 60910 10244 20217 39514 40123 86200 333 10309 29072 55089 58002;
0201827950999992006021812004-07217-035883FM-12+0548SBKG V0200901N003610075019N0100001N1+02371+02151101501ADDAA124007191AY161061AY221061GF106991061061008001001001KA1240N+02111MA1999999095361MD1999999+0201MW1021REMSYN088AAXX  18124 82795 21597 60907 10237 20215 39536 40150 70262 86600 333 20211 58020 60074;
0137827950999992006021818004-07217-035883FM-12+0548SBKG V0201401N002612200019N0100001N1+03181+02041100991ADDGF104991041021008001001001MA1999999094951MD1999999+0001REMSYN070AAXX  18184 82795 32597 41405 10318 20204 39495 40099 84200 333 58000;
0168827950999992006021900004-07217-035883FM-12+0548SBKG V0200901N004610075019N0010001N1+02451+02171101381ADDGF105991051021008001001001KA1240M+03201MA1999999095241MD1999999+0101REMSYN088AAXX  19004 82795 32594 50909 10245 20217 39524 40138 85200 333 10320 29077 55078 58010;
0201827950999992006021912004-07217-035883FM-12+0548SBKG V0201401N003110075019N0100001N1+02341+02201101151ADDAA124005191AY161061AY221061GF107991071071008001001001KA1240N+02101MA1999999095411MD1999999+0051MW1021REMSYN088AAXX  19124 82795 21597 71406 10234 20220 39541 40115 70262 87700 333 20210 58005 60054;
0137827950999992006021918004-07217-035883FM-12+0548SBKG V0200901N003611050019N0100001N1+03111+02051101121ADDGF105991031021008001001021MA1999999095061MD1999999+0111REMSYN070AAXX  19184 82795 32597 50907 10311 20205 39506 40112 83202 333 58011;
0168827950999992006022000004-07217-035883FM-12+0548SBKG V0200901N004612200019N0010001N1+02351+02131101441ADDGF102991021011008001001001KA1240M+03141MA1999999095291MD1999999+0051REMSYN088AAXX  20004 82795 32594 20909 10235 20213 39529 40144 82100 333 10314 29083 55078 58005;
0156827950999992006022012004-07217-035883FM-12+0548SBKG V0201401N003610075019N0100001N1+02451+01971101401ADDGF106991051021008001001011KA1240N+02031MA1999999095261MD1999999-0151REMSYN076AAXX  20124 82795 32597 61407 10245 20197 39526 40140 85201 333 20203 59015;
0137827950999992006022018004-07217-035883FM-12+0548SBKG V0201401N004112200019N0100001N1+03041+01861100981ADDGF102991021021008001001001MA1999999094901MD1999999-0111REMSYN070AAXX  20184 82795 32597 21408 10304 20186 39490 40098 82200 333 59011;
0168827950999992006022100004-07217-035883FM-12+0548SBKG V0200901N004612200019N0010001N1+02441+02031101211ADDGF102991021011008001001001KA1240M+03111MA1999999095101MD1999999-0191REMSYN088AAXX  21004 82795 32594 20909 10244 20203 39510 40121 82100 333 10311 29070 55117 59019;
0156827950999992006022112004-07217-035883FM-12+0548SBKG V0201401N001010075019N0100001N1+02521+02091101351ADDGF106991061061008001001001KA1240N+02111MA1999999095231MD1999999-0031REMSYN076AAXX  21124 82795 32597 61402 10252 20209 39523 40135 86600 333 20211 59003;
0137827950999992006022118004-07217-035883FM-12+0548SBKG V0201401N006210120019N0100001N1+02821+02121100891ADDGF106991061081008001001001MA1999999094801MD1999999-0101REMSYN070AAXX  21184 82795 32597 61412 10282 20212 39480 40089 86800 333 59010;
0168827950999992006022200004-07217-035883FM-12+0548SBKG V0200901N004110450019N0010001N1+02411+02171101171ADDGF105991041021008001041001KA1240M+03191MA1999999095061MD1999999-0041REMSYN088AAXX  22004 82795 32594 50908 10241 20217 39506 40117 84240 333 10319 29079 55076 59004;
0156827950999992006022212004-07217-035883FM-12+0548SBKG V0200901N001010075019N0100001N1+02401+02171101381ADDGF108991051071008001011999KA1240N+02181MA1999999095241MD1999999+0011REMSYN076AAXX  22124 82795 32597 80902 10240 20217 39524 40138 8571/ 333 20218 58001;
0182827950999992006022218004-07217-035883FM-12+0548SBKG V0200901N003110075019N0100001N1+02331+02151101121ADDAA106005191AY161061AY221061GF108991081071008001999999MA1999999094951MD1999999+0151MW1021REMSYN082AAXX  22184 82795 21597 80906 10233 20215 39495 40112 70262 887// 333 58015 60051;
0168827950999992006022300004-07217-035883FM-12+0548SBKG V0200501N001010075019N0010001N1+02241+02091101351ADDGF107991061061008001081001KA1240M+02471MA1999999095191MD1999999+0131REMSYN088AAXX  23004 82795 32594 70502 10224 20209 39519 40135 86680 333 10247 29090 55000 58013;
0173827950999992006022312004-07217-035883FM-12+0548SBKG V0200901N001510075019N0100001N1+02421+02191101451ADDAA124002091GF108991061071008001999999KA1240N+02011MA1999999095291MD1999999+0051REMSYN082AAXX  23124 82795 22597 80903 10242 20219 39529 40145 867// 333 20201 58005 60024;
0165827950999992006022318004-07217-035883FM-12+0548SBKG V0201401N002110075019N0100001N1+03081+02161101001ADDAY101061AY201061GF105991051091008001001001MA1999999094921MD1999999-0031MW1151REMSYN076AAXX  23184 82795 31597 51404 10308 20216 39492 40100 71500 85900 333 59003;
0168827950999992006022400004-07217-035883FM-12+0548SBKG V0200901N003610075019N0010001N1+02431+02191101361ADDGF106991061021008001001001KA1240M+03161MA1999999095231MD1999999+0041REMSYN088AAXX  24004 82795 32594 60907 10243 20219 39523 40136 86200 333 10316 29080 55066 58004;
0201827950999992006022412004-07217-035883FM-12+0548SBKG V0200901N003110075019N0100001N1+02631+02141101431ADDAA124000591AY161061AY221061GF106991061021008001001001KA1240N+02161MA1999999095191MD1999999-0101MW1021REMSYN088AAXX  24124 82795 21597 60906 10263 20214 39519 40143 70262 86200 333 20216 59010 69944;
0137827950999992006022418004-07217-035883FM-12+0548SBKG V0201401N004612200019N0100001N1+03151+02071100951ADDGF102991021021008001001001MA1999999094851MD1999999-0071REMSYN070AAXX  24184 82795 32597 21409 10315 20207 39485 40095 82200 333 59007;
0168827950999992006022500004-07217-035883FM-12+0548SBKG V0200901N004112200019N0010001N1+02391+02131101221ADDGF104991041021008001001001KA1240M+03201MA1999999095121MD1999999-0111REMSYN088AAXX  25004 82795 32594 40908 10239 20213 39512 40122 84200 333 10320 29075 55093 59011;
0156827950999992006022512004-07217-035883FM-12+0548SBKG V0200901N002610075019N0100001N1+02491+02171101471ADDGF106991061021008001001001KA1240N+02121MA1999999095281MD1999999-0011REMSYN076AAXX  25124 82795 32597 60905 10249 20217 39528 40147 86200 333 20212 59001;
0156827950999992006022518004-07217-035883FM-12+0548SBKG V0200901N005712200019N0100001N1+03121+02221100951ADDGF104991999021008001001001MA1999999094891MD1999999+0041REMSYN070AAXX  25184 82795 32597 40911 10312 20222 39489 40095 83200 333 58004;EQDQ01+000032SCOTLC
0156827950999992006022612004-07217-035883FM-12+0548SBKG V0200501N001510075019N0100001N1+02521+02211101281ADDGF106991061061008001001001KA1240N+02231MA1999999095161MD1999999-0121REMSYN076AAXX  26124 82795 32597 60503 10252 20221 39516 40128 86600 333 20223 59012;
0137827950999992006022618004-07217-035883FM-12+0548SBKG V0200901N003612200019N0100001N1+03191+02091100801ADDGF103991031011008001001001MA1999999094771MD1999999-0121REMSYN070AAXX  26184 82795 32597 30907 10319 20209 39477 40080 83100 333 59012;
0168827950999992006022700004-07217-035883FM-12+0548SBKG V0200901N004110075019N0010001N1+02441+02231101171ADDGF106991061021008001001001KA1240M+03241MA1999999095061MD1999999-0061REMSYN088AAXX  27004 82795 32594 60908 10244 20223 39506 40117 86200 333 10324 29078 55097 59006;
0156827950999992006022712004-07217-035883FM-12+0548SBKG V0200901N004110075019N0100001N1+02721+02151101201ADDGF105991051021008001001001KA1240N+02221MA1999999095121MD1999999-0041REMSYN076AAXX  27124 82795 32597 50908 10272 20215 39512 40120 85200 333 20222 59004;
0137827950999992006022718004-07217-035883FM-12+0548SBKG V0201401N003612200019N0100001N1+03221+02011100811ADDGF103991031021008001001001MA1999999094801MD1999999+0031REMSYN070AAXX  27184 82795 32597 31407 10322 20201 39480 40081 83200 333 58003;
0168827950999992006022800004-07217-035883FM-12+0548SBKG V0200901N004610075019N0010001N1+02451+02211101191ADDGF106991061021008001001001KA1240M+03271MA1999999095111MD1999999+0051REMSYN088AAXX  28004 82795 32594 60909 10245 20221 39511 40119 86200 333 10327 29074 55099 58005;
0201827950999992006022812004-07217-035883FM-12+0548SBKG V0201401N003610075019N0100001N1+02561+02211101351ADDAA124000591AY161061AY221061GF106991061021008001001001KA1240N+02231MA1999999095241MD1999999+0121MW1021REMSYN088AAXX  28124 82795 21597 61407 10256 20221 39524 40135 70262 86200 333 20223 58012 69944;
0137827950999992006022818004-07217-035883FM-12+0548SBKG V0201401N003111050019N0100001N1+03111+02201100941ADDGF105991021021008001001031MA1999999094871MD1999999+0071REMSYN070AAXX  28184 82795 32597 51406 10311 20220 39487 40094 82203 333 58007;
0168827950999992006030100004-07217-035883FM-12+0548SBKG V0200901N004610075019N0010001N1+02421+02171101221ADDGF106991061021008001001001KA1240M+03201MA1999999095121MD1999999+0011REMSYN088AAXX  01004 82795 32594 60909 10242 20217 39512 40122 86200 333 10320 29078 55073 58001;
0156827950999992006030112004-07217-035883FM-12+0548SBKG V0201401N003612200019N0100001N1+02631+02141101381ADDGF106991031021008001001011KA1240N+02231MA1999999095271MD1999999+0031REMSYN076AAXX  01124 82795 32597 61407 10263 20214 39527 40138 83201 333 20223 58003;
0137827950999992006030118004-07217-035883FM-12+0548SBKG V0201401N003610450019N0100001N1+03081+02001100961ADDGF107991041081008001041001MA1999999094931MD1999999+0061REMSYN070AAXX  01184 82795 32597 71407 10308 20200 39493 40096 84840 333 58006;
0168827950999992006030200004-07217-035883FM-12+0548SBKG V0200901N004610075019N0010001N1+02421+02191101261ADDGF106991061021008001001001KA1240M+03171MA1999999095161MD1999999+0041REMSYN088AAXX  02004 82795 32594 60909 10242 20219 39516 40126 86200 333 10317 29076 55058 58004;
0156827950999992006030212004-07217-035883FM-12+0548SBKG V0200901N002110075019N0100001N1+02511+01961101431ADDGF108991051071008001011999KA1240N+02231MA1999999095311MD1999999+0041REMSYN076AAXX  02124 82795 32597 80904 10251 20196 39531 40143 8571/ 333 20223 58004;
0165827950999992006030218004-07217-035883FM-12+0548SBKG V0200501N003110075019N0100001N1+02581+02191102191ADDAY111061AY281061GF108991051071008001081999MA1999999095111MD1999999+0181MW1951REMSYN076AAXX  02184 82795 31597 80506 10258 20219 39511 40219 79518 8578/ 333 58018;
0232827950999992006030300004-07217-035883FM-12+0548SBKG V0200901N002110042019N0005001N1+02171+02041101531ADDAA106000021AY151061AY221061GF108991999021004501001001KA1240M+02871MA1999999095371MD1999999+0211MW1501REMSYN100AAXX  03004 82795 21493 80904 10217 20204 39537 40153 75052 86200 333 10287 29086 55000 58021 69911;EQDQ01+000062SCOTLC
0173827950999992006030312004-07217-035883FM-12+0548SBKG V0201401N003610075019N0100001N1+02491+02191101531ADDAA124000021GF107991071071008001001001KA1240N+02101MA1999999095361MD1999999+0051REMSYN082AAXX  03124 82795 22597 71407 10249 20219 39536 40153 87700 333 20210 58005 69914;
0137827950999992006030318004-07217-035883FM-12+0548SBKG V0201401N004610450019N0100001N1+02831+02201101241ADDGF107991041031008001041001MA1999999095141MD1999999+0031REMSYN070AAXX  03184 82795 32597 71409 10283 20220 39514 40124 84340 333 58003;
0168827950999992006030400004-07217-035883FM-12+0548SBKG V0200901N003110450019N0010001N1+02431+02171101391ADDGF107991041051008001071071KA1240M+02951MA1999999095271MD1999999-0101REMSYN088AAXX  04004 82795 32594 70906 10243 20217 39527 40139 84577 333 10295 29081 55018 59010;
0156827950999992006030412004-07217-035883FM-12+0548SBKG V0200901N003110075019N0100001N1+02631+02161101411ADDGF106991061031008001001001KA1240N+02231MA1999999095361MD1999999+0001REMSYN076AAXX  04124 82795 32597 60906 10263 20216 39536 40141 86300 333 20223 58000;
0137827950999992006030418004-07217-035883FM-12+0548SBKG V0201401N005112200019N0100001N1+02971+02151101211ADDGF104991041031008001001001MA1999999095181MD1999999+0041REMSYN070AAXX  04184 82795 32597 41410 10297 20215 39518 40121 84300 333 58004;
0168827950999992006030500004-07217-035883FM-12+0548SBKG V0201401N005112200019N0010001N1+02371+02151101531ADDGF104991041041008001001001KA1240M+03181MA1999999095361MD1999999+0091REMSYN088AAXX  05004 82795 32594 41410 10237 20215 39536 40153 84400 333 10318 29078 55093 58009;
0156827950999992006030512004-07217-035883FM-12+0548SBKG V0201401N005710075019N0100001N1+02641+02001101541ADDGF105991051031008001001001KA1240N+02211MA1999999095421MD1999999+0061REMSYN076AAXX  05124 82795 32597 51411 10264 20200 39542 40154 85300 333 20221 58006;
0137827950999992006030518004-07217-035883FM-12+0548SBKG V0201401N003612200019N0100001N1+03081+02101101281ADDGF103991031021008001001001MA1999999095451MD1999999-0011REMSYN070AAXX  05184 82795 32597 31407 10308 20210 39545 40128 83200 333 59001;
0178827950999992006030600004-07217-035883FM-12+0548SBKG V0201401N003112200019N0010001N1+02371+01991101481ADDGA1001+999999999GF100991001001999999001001KA1240M+03181MA1999999095361MD1999999+0001REMSYN082AAXX  06004 82795 32994 01406 10237 20199 39536 40148 333 10318 29071 55100 58000;
0156827950999992006030612004-07217-035883FM-12+0548SBKG V0200901N003610075019N0100001N1+02661+02081101501ADDGF106991061021008001001001KA1240N+02141MA1999999095381MD1999999-0041REMSYN076AAXX  06124 82795 32597 60907 10266 20208 39538 40150 86200 333 20214 59004;
0137827950999992006030618004-07217-035883FM-12+0548SBKG V0201401N003112200019N0100001N1+03121+01991101141ADDGF104991041021008001001001MA1999999095101MD1999999+0071REMSYN070AAXX  06184 82795 32597 41406 10312 20199 39510 40114 84200 333 58007;
0168827950999992006030700004-07217-035883FM-12+0548SBKG V0200901N004112200019N0010001N1+02411+02091101411ADDGF102991021011008001001001KA1240M+03171MA1999999095291MD1999999-0071REMSYN088AAXX  07004 82795 32594 20908 10241 20209 39529 40141 82100 333 10317 29072 55101 59007;
0156827950999992006030712004-07217-035883FM-12+0548SBKG V0200901N003110075019N0100001N1+02571+02081101421ADDGF105991051011008001001001KA1240N+02141MA1999999095311MD1999999-0071REMSYN076AAXX  07124 82795 32597 50906 10257 20208 39531 40142 85100 333 20214 59007;
0137827950999992006030718004-07217-035883FM-12+0548SBKG V0201401N004612200019N0100001N1+03151+02041100951ADDGF103991031021008001001001MA1999999094911MD1999999-0191REMSYN070AAXX  07184 82795 32597 31409 10315 20204 39491 40095 83200 333 59019;
0168827950999992006030800004-07217-035883FM-12+0548SBKG V0200901N004612200019N0010001N1+02371+02131101221ADDGF102991021011008001001001KA1240M+03201MA1999999095111MD1999999-0181REMSYN088AAXX  08004 82795 32594 20909 10237 20213 39511 40122 82100 333 10320 29074 55109 59018;
0156827950999992006030812004-07217-035883FM-12+0548SBKG V0201401N003110075019N0100001N1+02611+02121101321ADDGF106991061021008001001001KA1240N+02131MA1999999095221MD1999999-0091REMSYN076AAXX  08124 82795 32597 61406 10261 20212 39522 40132 86200 333 20213 59009;
0137827950999992006030818004-07217-035883FM-12+0548SBKG V0201401N002112200019N0100001N1+03211+02091100911ADDGF103991031021008001001001MA1999999094881MD1999999-0031REMSYN070AAXX  08184 82795 32597 31404 10321 20209 39488 40091 83200 333 59003;
0168827950999992006030900004-07217-035883FM-12+0548SBKG V0200901N004612200019N0010001N1+02411+02091101151ADDGF102991021021008001001001KA1240M+03261MA1999999095051MD1999999-0061REMSYN088AAXX  09004 82795 32594 20909 10241 20209 39505 40115 82200 333 10326 29073 55100 59006;
0156827950999992006030912004-07217-035883FM-12+0548SBKG V0200901N002610075019N0100001N1+02631+02101101261ADDGF106991061021008001001001KA1240N+02201MA1999999095161MD1999999-0061REMSYN076AAXX  09124 82795 32597 60905 10263 20210 39516 40126 86200 333 20220 59006;
0137827950999992006030918004-07217-035883FM-12+0548SBKG V0200501N002112200019N0100001N1+03181+02011100901ADDGF102991021021008001001001MA1999999094871MD1999999-0011REMSYN070AAXX  09184 82795 32597 20504 10318 20201 39487 40090 82200 333 59001;
0168827950999992006031000004-07217-035883FM-12+0548SBKG V0200901N004612200019N0010001N1+02341+02131101161ADDGF104991041021008001001001KA1240M+03231MA1999999095051MD1999999+0001REMSYN088AAXX  10004 82795 32594 40909 10234 20213 39505 40116 84200 333 10323 29075 55098 58000;
0156827950999992006031012004-07217-035883FM-12+0548SBKG V0200901N003112200019N0100001N1+02691+01991101261ADDGF104991041011008001001001KA1240N+02151MA1999999095161MD1999999+0001REMSYN076AAXX  10124 82795 32597 40906 10269 20199 39516 40126 84100 333 20215 58000;
0137827950999992006031018004-07217-035883FM-12+0548SBKG V0201401N002112200019N0100001N1+03181+01811100881ADDGF104991041031008001001001MA1999999094851MD1999999-0011REMSYN070AAXX  10184 82795 32597 41404 10318 20181 39485 40088 84300 333 59001;
0196827950999992006031100004-07217-035883FM-12+0548SBKG V0200901N003610075019N0010001N1+02461+02151101241ADDAY121061AY211061GF106991051031008001041001KA1240M+03251MA1999999095151MD1999999+0101MW1131REMSYN094AAXX  11004 82795 31594 60907 10246 20215 39515 40124 71321 85340 333 10325 29077 55097 58010;
0156827950999992006031112004-07217-035883FM-12+0548SBKG V0200501N003612200019N0100001N1+02561+02171101391ADDGF106991041021008001001011KA1240N+02201MA1999999095281MD1999999+0111REMSYN076AAXX  11124 82795 32597 60507 10256 20217 39528 40139 84201 333 20220 58011;
0213827950999992006031200004-07217-035883FM-12+0548SBKG V0200901N001510075019N0010001N1+02361+02191101281ADDAA106009991AY181061AY261061GF105991051061008001001001KA1240M+03321MA1999999095161MD1999999+0011MW1011REMSYN100AAXX  12004 82795 21594 50903 10236 20219 39516 40128 70186 85600 333 10332 29078 55073 58001 60101;
0173827950999992006031212004-07217-035883FM-12+0548SBKG V0200901N003110075019N0100001N1+02481+02151101451ADDAA124009991GF107991071071008001001001KA1240N+02161MA1999999095321MD1999999+0041REMSYN082AAXX  12124 82795 22597 70906 10248 20215 39532 40145 87700 333 20216 58004 60104;
0137827950999992006031218004-07217-035883FM-12+0548SBKG V0200901N002612200019N0100001N1+03171+02041100861ADDGF103991031021008001001001MA1999999094831MD1999999-0021REMSYN070AAXX  12184 82795 32597 30905 10317 20204 39483 40086 83200 333 59002;
0168827950999992006031300004-07217-035883FM-12+0548SBKG V0200901N005112200019N0010001N1+02411+02151101141ADDGF103991031021008001001001KA1240M+03211MA1999999095031MD1999999-0131REMSYN088AAXX  13004 82795 32594 30910 10241 20215 39503 40114 83200 333 10321 29076 55094 59013;
0156827950999992006031312004-07217-035883FM-12+0548SBKG V0201401N003610075019N0100001N1+02591+02121101241ADDGF106991061021008001001001KA1240N+02161MA1999999095141MD1999999-0181REMSYN076AAXX  13124 82795 32597 61407 10259 20212 39514 40124 86200 333 20216 59018;
0137827950999992006031318004-07217-035883FM-12+0548SBKG V0201401N003112200019N0100001N1+03091+02041100891ADDGF104991041041008001001001MA1999999094851MD1999999+0031REMSYN070AAXX  13184 82795 32597 41406 10309 20204 39485 40089 84400 333 58003;
0168827950999992006031400004-07217-035883FM-12+0548SBKG V0200901N004112200019N0010001N1+02421+02171101151ADDGF103991031021008001001001KA1240M+03161MA1999999095751MD1999999+0021REMSYN088AAXX  14004 82795 32594 30908 10242 20217 39575 40115 83200 333 10316 29076 55091 58002;
0156827950999992006031412004-07217-035883FM-12+0548SBKG V0201401N002610075019N0100001N1+02651+02071101361ADDGF106991061021008001001001KA1240N+02161MA1999999095251MD1999999+0111REMSYN076AAXX  14124 82795 32597 61405 10265 20207 39525 40136 86200 333 20216 58011;
0137827950999992006031418004-07217-035883FM-12+0548SBKG V0200901N002612200019N0100001N1+02921+02271101001ADDGF103991031021008001001001MA1999999094931MD1999999+0081REMSYN070AAXX  14184 82795 32597 30905 10292 20227 39493 40100 83200 333 58008;
0168827950999992006031500004-07217-035883FM-12+0548SBKG V0200901N003610450019N0100001N1+02371+02151101241ADDGF105991011021008001031001KA1240M+02951MA1999999095141MD1999999+0091REMSYN088AAXX  15004 82795 32597 50907 10237 20215 39514 40124 81230 333 10295 29078 55082 58009;
0156827950999992006031512004-07217-035883FM-12+0548SBKG V0200901N004110075019N0100001N1+02531+02131101411ADDGF106991061021008001001001KA1240N+02141MA1999999095291MD1999999+0041REMSYN076AAXX  15124 82795 32597 60908 10253 20213 39529 40141 86200 333 20214 58004;
0137827950999992006031518004-07217-035883FM-12+0548SBKG V0201401N003612200019N0100001N1+03121+01951101031ADDGF103991031021008001001001MA1999999094981MD1999999+0051REMSYN070AAXX  15184 82795 32597 31407 10312 20195 39498 40103 83200 333 58005;
0156827950999992006031612004-07217-035883FM-12+0548SBKG V0200901N004110075019N0100001N1+02601+02121101411ADDGF105991051021008001001001KA1240N+02131MA1999999095291MD1999999+0001REMSYN076AAXX  16124 82795 32597 50908 10260 20212 39529 40141 85200 333 20213 58000;
0137827950999992006031618004-07217-035883FM-12+0548SBKG V0201401N004112200019N0100001N1+03211+01961101031ADDGF104991041021008001001001MA1999999094991MD1999999+0011REMSYN070AAXX  16184 82795 32597 41408 10321 20196 39499 40103 84200 333 58001;
0168827950999992006031700004-07217-035883FM-12+0548SBKG V0200901N003612200019N0010001N1+02421+02191101301ADDGF104991021021008001041001KA1240M+03241MA1999999095171MD1999999-0021REMSYN088AAXX  17004 82795 32594 40907 10242 20219 39517 40130 82240 333 10324 29074 55099 59002;
0201827950999992006031712004-07217-035883FM-12+0548SBKG V0201401N003110075019N0100001N1+02521+02231101271ADDAA124000391AY161061AY221061GF107991071071008001001001KA1240N+02231MA1999999095151MD1999999-0141MW1021REMSYN088AAXX  17124 82795 21597 71406 10252 20223 39515 40127 70262 87700 333 20223 59014 69934;
0137827950999992006031718004-07217-035883FM-12+0548SBKG V0201401N005112200019N0100001N1+03051+02121100891ADDGF103991031021008001001001MA1999999094851MD1999999+0141REMSYN070AAXX  17184 82795 32597 31410 10305 20212 39485 40089 83200 333 58014;
0168827950999992006031800004-07217-035883FM-12+0548SBKG V0200901N004110075019N0010001N1+02411+02131101171ADDGF105991051021008001001001KA1240M+03161MA1999999095061MD1999999-0111REMSYN088AAXX  18004 82795 32594 50908 10241 20213 39506 40117 85200 333 10316 29078 55075 59011;
0156827950999992006031812004-07217-035883FM-12+0548SBKG V0201401N003612200019N0100001N1+02651+02071101261ADDGF106991041021008001001011KA1240N+02161MA1999999095161MD1999999+0011REMSYN076AAXX  18124 82795 32597 61407 10265 20207 39516 40126 84201 333 20216 58001;
0137827950999992006031818004-07217-035883FM-12+0548SBKG V0200901N003610450019N0100001N1+03051+02091100681ADDGF106991031021008001061001MA1999999094811MD1999999-0041REMSYN070AAXX  18184 82795 32597 60907 10305 20209 39481 40068 83260 333 59004;
0168827950999992006031900004-07217-035883FM-12+0548SBKG V0200901N003110075019N0010001N1+02421+02191101181ADDGF105991051021008001001001KA1240M+03221MA1999999095101MD1999999+0041REMSYN088AAXX  19004 82795 32594 50906 10242 20219 39510 40118 85200 333 10322 29076 55080 58004;
0156827950999992006031912004-07217-035883FM-12+0548SBKG V0201401N003610075019N0100001N1+02601+02141101281ADDGF106991061021008001001001KA1240N+02231MA1999999095141MD1999999-0021REMSYN076AAXX  19124 82795 32597 61407 10260 20214 39514 40128 86200 333 20223 59002;
0156827950999992006031918004-07217-035883FM-12+0548SBKG V0200901N005119999999N0100001N1+02971+02151100931ADDGF106991999041008001061021MA1999999094871MD1999999+0061REMSYN070AAXX  19184 82795 32597 60910 10297 20215 39487 40093 88462 333 58006;EQDQ01+000082SCOTLC
0168827950999992006032000004-07217-035883FM-12+0548SBKG V0201401N005112200019N0010001N1+02411+02151101231ADDGF103991031021008001001001KA1240M+03191MA1999999095131MD1999999+0031REMSYN088AAXX  20004 82795 32594 31410 10241 20215 39513 40123 83200 333 10319 29077 55083 58003;
0156827950999992006032012004-07217-035883FM-12+0548SBKG V0201401N003610075019N0100001N1+02581+02171101311ADDGF107991071071008001001001KA1240N+02161MA1999999095211MD1999999+0071REMSYN076AAXX  20124 82795 32597 71407 10258 20217 39521 40131 87700 333 20216 58007;
0182827950999992006032018004-07217-035883FM-12+0548SBKG V0201401N004110075019N0100001N1+02381+02211101111ADDAA106005191AY161061AY221061GF108991081091008001001001MA1999999094971MD1999999+0101MW1161REMSYN082AAXX  20184 82795 21597 81408 10238 20221 39497 40111 71662 88900 333 58010 60051;
0213827950999992006032100004-07217-035883FM-12+0548SBKG V0200901N002110042019N0010001N1+02181+02111101361ADDAA106054191AY191061AY281061GF108991081071004501999999KA1240M+02631MA1999999095221MD1999999+0111MW1011REMSYN100AAXX  21004 82795 21494 80904 10218 20211 39522 40136 70198 887// 333 10263 29090 55016 58011 60541;
0201827950999992006032112004-07217-035883FM-12+0548SBKG V0201401N002610075019N0100001N1+02471+02231101411ADDAA124058991AY161061AY221061GF106991061061008001001001KA1240N+02091MA1999999095251MD1999999+0041MW1021REMSYN088AAXX  21124 82795 21597 61405 10247 20223 39525 40141 70262 86600 333 20209 58004 60594;
0137827950999992006032118004-07217-035883FM-12+0548SBKG V0201401N003110450019N0100001N1+03011+02051100971ADDGF106991021041008001041051MA1999999094891MD1999999-0081REMSYN070AAXX  21184 82795 32597 61406 10301 20205 39489 40097 82445 333 59008;
0168827950999992006032200004-07217-035883FM-12+0548SBKG V0200901N004112200019N0010001N1+02341+02161101331ADDGF104991041021008001001001KA1240M+03041MA1999999095201MD1999999-0021REMSYN088AAXX  22004 82795 32594 40908 10234 20216 39520 40133 84200 333 10304 29082 55066 59002;
0156827950999992006032212004-07217-035883FM-12+0548SBKG V0201401N004610075019N0100001N1+02501+02131101281ADDGF106991061021008001001001KA1240N+02131MA1999999095151MD1999999-0101REMSYN076AAXX  22124 82795 32597 61409 10250 20213 39515 40128 86200 333 20213 59010;
0137827950999992006032218004-07217-035883FM-12+0548SBKG V0201401N004611050019N0100001N1+02821+02121101001ADDGF105991021081008001001031MA1999999094921MD1999999+0031REMSYN070AAXX  22184 82795 32597 51409 10282 20212 39492 40100 82803 333 58003;
0213827950999992006032300004-07217-035883FM-12+0548SBKG V0200901N004110120019N0010001N1+02361+02151101351ADDAA106004191AY181061AY221061GF107991071081008001001001KA1240M+02871MA1999999095221MD1999999+0021MW1021REMSYN100AAXX  23004 82795 21594 70908 10236 20215 39522 40135 70282 87800 333 10287 29080 55080 58002 60041;
0201827950999992006032312004-07217-035883FM-12+0548SBKG V0201401N002110120019N0100001N1+02541+02211101291ADDAA124005191AY161061AY221061GF107991051081008001021001KA1240N+02131MA1999999095171MD1999999+0021MW1021REMSYN088AAXX  23124 82795 21597 71404 10254 20221 39517 40129 70262 85820 333 20213 58002 60054;
0182827950999992006032318004-07217-035883FM-12+0548SBKG V0201401N003110075019N0100001N1+02291+02141101081ADDAA106009991AY161061AY221061GF108991051071008001021001MA1999999094911MD1999999-0011MW1021REMSYN082AAXX  23184 82795 21597 81406 10229 20214 39491 40108 70262 85720 333 59001 60101;
0213827950999992006032400004-07217-035883FM-12+0548SBKG V0201401N003610042019N0005001N1+02271+02191101351ADDAA106001091AY161061AY221061GF108991081071004501999999KA1240M+02811MA1999999095221MD1999999+0001MW1601REMSYN100AAXX  24004 82795 21493 81407 10227 20219 39522 40135 76062 887// 333 10281 29091 55032 58000 60011;
0201827950999992006032412004-07217-035883FM-12+0548SBKG V0201401N003110075019N0100001N1+02401+02211101391ADDAA124018091AY161061AY221061GF107991071071008001001001KA1240N+02141MA1999999095231MD1999999+0061MW1021REMSYN088AAXX  24124 82795 21597 71406 10240 20221 39523 40139 70262 87700 333 20214 58006 60184;
0201827950999992006032418004-07217-035883FM-12+0548SBKG V0201401N004119999999N0100001N1+02811+01871101041ADDAA106000591AY151061AY221061GF105991999021008001001001MA1999999094941MD1999999+0011MW1021REMSYN082AAXX  24184 82795 21597 51408 10281 20187 39494 40104 70252 83200 333 58001 69951;EQDQ01+000032SCOTLC
0168827950999992006032500004-07217-035883FM-12+0548SBKG V0201401N003610120019N0010001N1+02371+02191101401ADDGF107991071081008001001001KA1240M+02821MA1999999095251MD1999999+0031REMSYN088AAXX  25004 82795 32594 71407 10237 20219 39525 40140 87800 333 10282 29081 55029 58003;
0173827950999992006032512004-07217-035883FM-12+0548SBKG V0201401N003110075019N0100001N1+02541+02061101431ADDAA124000591GF106991061041008001001001KA1240N+02141MA1999999095311MD1999999+0081REMSYN082AAXX  25124 82795 22597 61406 10254 20206 39531 40143 86400 333 20214 58008 69954;
0137827950999992006032518004-07217-035883FM-12+0548SBKG V0201401N005112200019N0100001N1+02841+02121101061ADDGF104991041041008001001001MA1999999094961MD1999999+0021REMSYN070AAXX  25184 82795 32597 41410 10284 20212 39496 40106 84400 333 58002;
0168827950999992006032600004-07217-035883FM-12+0548SBKG V0201401N005112200019N0010001N1+02321+02151101441ADDGF104991041061008001001001KA1240M+03021MA1999999095301MD1999999+0051REMSYN088AAXX  26004 82795 32594 41410 10232 20215 39530 40144 84600 333 10302 29080 55091 58005;
0156827950999992006032612004-07217-035883FM-12+0548SBKG V0200901N003110120019N0100001N1+02611+02081101471ADDGF106991061081008001001001KA1240N+02231MA1999999095341MD1999999+0031REMSYN076AAXX  26124 82795 32597 60906 10261 20208 39534 40147 86800 333 20223 58003;
0182827950999992006032618004-07217-035883FM-12+0548SBKG V0201401N006710450019N0100001N1+02561+02191101181ADDAA106002091AY161061AY221061GF106991031081008001021001MA1999999095061MD1999999+0101MW1021REMSYN082AAXX  26184 82795 21597 61413 10256 20219 39506 40118 70262 83820 333 58010 60021;
0232827950999992006032700004-07217-035883FM-12+0548SBKG V0201401N002610075019N0010001N1+02331+02221101381ADDAA106000091AY151061AY221061GF106991061071008001001001KA1240M+02851MA1999999095261MD1999999-0041MW1021REMSYN100AAXX  27004 82795 21594 61405 10233 20222 39526 40138 70252 86700 333 10285 29085 55057 59004 69911;EQDQ01  00002PRCP06
0173827950999992006032712004-07217-035883FM-12+0548SBKG V0201401N003610075019N0100001N1+02571+02171101551ADDAA124002091GF107991071071008001001001KA1240N+02161MA1999999095441MD1999999+0111REMSYN082AAXX  27124 82795 22597 71407 10257 20217 39544 40155 87700 333 20216 58011 60024;
0137827950999992006032718004-07217-035883FM-12+0548SBKG V0201401N004610075019N0100001N1+02931+02061101081ADDGF105991051031008001001001MA1999999095001MD1999999-0061REMSYN070AAXX  27184 82795 32597 51409 10293 20206 39500 40108 85300 333 59006;
0168827950999992006032800004-07217-035883FM-12+0548SBKG V0200901N003110075019N0010001N1+02401+02231101501ADDGF106991061021008001001001KA1240M+03021MA1999999095371MD1999999+0111REMSYN088AAXX  28004 82795 32594 60906 10240 20223 39537 40150 86200 333 10302 29080 55093 58011;
0156827950999992006032812004-07217-035883FM-12+0548SBKG V0201401N004112200019N0100001N1+02651+01981101521ADDGF106991041021008001001011KA1240N+02221MA1999999095401MD1999999-0051REMSYN076AAXX  28124 82795 32597 61408 10265 20198 39540 40152 84201 333 20222 59005;
0137827950999992006032818004-07217-035883FM-12+0548SBKG V0200901N003112200019N0100001N1+02971+01901101121ADDGF103991011021008001001011MA1999999095051MD1999999+0051REMSYN070AAXX  28184 82795 32597 30906 10297 20190 39505 40112 81201 333 58005;
0168827950999992006032900004-07217-035883FM-12+0548SBKG V0200901N004110075019N0010001N1+02371+02151101341ADDGF106991061021008001001001KA1240M+03041MA1999999095231MD1999999-0141REMSYN088AAXX  29004 82795 32594 60908 10237 20215 39523 40134 86200 333 10304 29074 55097 59014;
0156827950999992006032912004-07217-035883FM-12+0548SBKG V0200901N003110075019N0100001N1+02521+02071101381ADDGF106991061041008001001001KA1240N+02181MA1999999095261MD1999999-0141REMSYN076AAXX  29124 82795 32597 60906 10252 20207 39526 40138 86400 333 20218 59014;
0168827950999992006033000004-07217-035883FM-12+0548SBKG V0200901N002610075019N0010001N1+02341+02111101321ADDGF105991051021008001001001KA1240M+02971MA1999999095191MD1999999-0041REMSYN088AAXX  30004 82795 32594 50905 10234 20211 39519 40132 85200 333 10297 29079 55086 59004;
0156827950999992006033012004-07217-035883FM-12+0548SBKG V0201401N003612200019N0100001N1+02681+02061101341ADDGF106991031021008001001011KA1240N+02161MA1999999095231MD1999999-0031REMSYN076AAXX  30124 82795 32597 61407 10268 20206 39523 40134 83201 333 20216 59003;
0137827950999992006033018004-07217-035883FM-12+0548SBKG V0201401N002612200019N0100001N1+03061+01931101021ADDGF106991041021008001001041MA1999999094961MD1999999+0011REMSYN070AAXX  30184 82795 32597 61405 10306 20193 39496 40102 84204 333 58001;
0168827950999992006033100004-07217-035883FM-12+0548SBKG V0200901N004110075019N0010001N1+02381+02171101301ADDGF105991051021008001001001KA1240M+03111MA1999999095201MD1999999+0011REMSYN088AAXX  31004 82795 32594 50908 10238 20217 39520 40130 85200 333 10311 29074 55098 58001;
0156827950999992006033112004-07217-035883FM-12+0548SBKG V0201401N001510075019N0100001N1+02551+02061101341ADDGF106991061021008001001001KA1240N+02181MA1999999095221MD1999999-0011REMSYN076AAXX  31124 82795 32597 61403 10255 20206 39522 40134 86200 333 20218 59001;
0201827950999992006033118004-07217-035883FM-12+0548SBKG V0201401N003612200019N0100001N1+02931+02061100961ADDAA106000091AY151061AY221061GF105991031081008001001041MA1999999094901MD1999999-0061MW1021REMSYN082AAXX  31184 82795 21597 51407 10293 20206 39490 40096 70252 83804 333 59006 69911;EQDQ01  00002PRCP06
0213827950999992006040100004-07217-035883FM-12+0548SBKG V0200901N002110075019N0010001N1+02361+02221101281ADDAA106000891AY161061AY221061GF107991071021008001001001KA1240M+03081MA1999999095161MD1999999-0041MW1021REMSYN100AAXX  01004 82795 21594 70904 10236 20222 39516 40128 70262 87200 333 10308 29080 55085 59004 69981;
0122827950999992006040112004-07217-035883FM-12+0548SBKG V0201401N003119999999N0100001N1+02561+01931999999ADDGF105991999999008001999999REMSYN084AAXX  01124 82795 22597 51406 10256 20193 10009 20213 39533 40146 58011 69994 85100;
0133827950999992006040118004-07217-035883FM-12+0548SBKG V0201401N003110450019N0100001N1+02821+01891101101ADDGF107991031021008001031041MA1999999095011MD1810111+9999REMSYN066AAXX  01184 82795 32597 71406 10282 20189 39501 40110 58011 83234;
0156827950999992006040212004-07217-035883FM-12+0548SBKG V0201401N001510075019N0100001N1+02431+01991101391ADDGF106991061021008001001001KA1240N+02131MA1999999095241MD1999999-0091REMSYN076AAXX  02124 82795 32597 61403 10243 20199 39524 40139 86200 333 20213 59009;
0137827950999992006040218004-07217-035883FM-12+0548SBKG V0200901N002110450019N0100001N1+03061+01831100931ADDGF106991031021008001031021MA1999999094871MD1999999-0141REMSYN070AAXX  02184 82795 32597 60904 10306 20183 39487 40093 83232 333 59014;
0213827950999992006040300004-07217-035883FM-12+0548SBKG V0200901N002110075019N0010001N1+02241+02171101341ADDAA106016091AY181061AY261061GF108991081091008001999999KA1240M+03091MA1999999095201MD1999999-0021MW1131REMSYN100AAXX  03004 82795 21594 80904 10224 20217 39520 40134 71386 889// 333 10309 29079 55088 59002 60161;
0173827950999992006040312004-07217-035883FM-12+0548SBKG V0201401N003610075019N0100001N1+02511+02051101391ADDAA124016091GF106991061021008001001001KA1240N+02131MA1999999095251MD1999999+0011REMSYN082AAXX  03124 82795 22597 61407 10251 20205 39525 40139 86200 333 20213 58001 60164;
0137827950999992006040318004-07217-035883FM-12+0548SBKG V0201401N003112200019N0100001N1+02921+01891100901ADDGF103991031031008001001001MA1999999094911MD1999999+0041REMSYN070AAXX  03184 82795 32597 31406 10292 20189 39491 40090 83300 333 58004;
0168827950999992006040400004-07217-035883FM-12+0548SBKG V0200901N005112200019N0010001N1+02371+02091101301ADDGF104991021021008001001021KA1240M+02971MA1999999095181MD1999999-0021REMSYN088AAXX  04004 82795 32594 40910 10237 20209 39518 40130 82202 333 10297 29074 55104 59002;
0156827950999992006040412004-07217-035883FM-12+0548SBKG V0201401N004610075019N0100001N1+02571+02081101231ADDGF106991061021008001001001KA1240N+02161MA1999999095121MD1999999-0131REMSYN076AAXX  04124 82795 32597 61409 10257 20208 39512 40123 86200 333 20216 59013;
0137827950999992006040418004-07217-035883FM-12+0548SBKG V0201401N003110450019N0100001N1+02911+01811100961ADDGF106991031041008001081001MA1999999094891MD1999999-0021REMSYN070AAXX  04184 82795 32597 61406 10291 20181 39489 40096 83480 333 59002;
0168827950999992006040500004-07217-035883FM-12+0548SBKG V0200901N002612200019N0010001N1+02481+02091101251ADDGF104991041021008001001001KA1240M+02991MA1999999095151MD1999999-0031REMSYN088AAXX  05004 82795 32594 40905 10248 20209 39515 40125 84200 333 10299 29071 55073 59003;
0156827950999992006040512004-07217-035883FM-12+0548SBKG V0201401N003110450019N0100001N1+02601+02141101351ADDGF106991031021008001041011KA1240N+02231MA1999999095251MD1999999+0131REMSYN076AAXX  05124 82795 32597 61406 10260 20214 39525 40135 83241 333 20223 58013;
0182827950999992006040518004-07217-035883FM-12+0548SBKG V0200501N006710075019N0100001N1+02551+02111101001ADDAA106022191AY161061AY261061GF106991061071008001001001MA1999999094901MD1999999+0011MW1161REMSYN082AAXX  05184 82795 21597 60513 10255 20211 39490 40100 71666 86700 333 58001 60221;
0213827950999992006040600004-07217-035883FM-12+0548SBKG V0201401N004110075019N0010001N1+02321+02271101311ADDAA106014091AY161061AY221061GF108991081091008001999999KA1240M+02941MA1999999095191MD1999999+0041MW1131REMSYN100AAXX  06004 82795 21594 81408 10232 20227 39519 40131 71362 889// 333 10294 29086 55049 58004 60141;
0173827950999992006040612004-07217-035883FM-12+0548SBKG V0201401N004610075019N0100001N1+02571+02171101201ADDAA124037191GF106991061021008001001001KA1240N+02201MA1999999095081MD1999999-0171REMSYN082AAXX  06124 82795 22597 61409 10257 20217 39508 40120 86200 333 20220 59017 60374;
0137827950999992006040618004-07217-035883FM-12+0548SBKG V0200901N004112200019N0100001N1+02841+02121100871ADDGF103991031031008001001001MA1999999094801MD1999999-0101REMSYN070AAXX  06184 82795 32597 30908 10284 20212 39480 40087 83300 333 59010;
0168827950999992006040700004-07217-035883FM-12+0548SBKG V0200901N004110075019N0010001N1+02381+02171101181ADDGF106991061021008001001001KA1240M+02891MA1999999095071MD1999999-0121REMSYN088AAXX  07004 82795 32594 60908 10238 20217 39507 40118 86200 333 10289 29080 55082 59012;
0201827950999992006040712004-07217-035883FM-12+0548SBKG V0201401N003610075019N0100001N1+02431+02211101231ADDAA124000591AY161061AY221061GF106991061071008001001001KA1240N+02171MA1999999095111MD1999999+0031MW1021REMSYN088AAXX  07124 82795 21597 61407 10243 20221 39511 40123 70262 86700 333 20217 58003 69964;
0182827950999992006040718004-07217-035883FM-12+0548SBKG V0201401N004110075019N0100001N1+02421+02251100951ADDAA106007991AY161061AY261061GF108991081071008001999999MA1999999094831MD1999999+0031MW1611REMSYN082AAXX  07184 82795 21597 81408 10242 20225 39483 40095 76166 887// 333 58003 60081;
0201827950999992006040812004-07217-035883FM-12+0548SBKG V0201401N003610075019N0100001N1+02491+02131101191ADDAA124007991AY161061AY221061GF106991061021008001001001KA1240N+02161MA1999999095071MD1999999-0041MW1021REMSYN088AAXX  08124 82795 21597 61407 10249 20213 39507 40119 70262 86200 333 20216 59004 60084;
0137827950999992006040818004-07217-035883FM-12+0548SBKG V0201401N002112200019N0100001N1+03001+02051100751ADDGF103991021021008001001011MA1999999094701MD1999999-0131REMSYN070AAXX  08184 82795 32597 31404 10300 20205 39470 40075 82201 333 59013;
0168827950999992006040900004-07217-035883FM-12+0548SBKG V0200901N002610075019N0010001N1+02471+02171101061ADDGF105991051021008001001001KA1240M+03011MA1999999094961MD1999999-0171REMSYN088AAXX  09004 82795 32594 50905 10247 20217 39496 40106 85200 333 10301 29076 55086 59017;
0156827950999992006040912004-07217-035883FM-12+0548SBKG V0201401N002610075019N0100001N1+02391+02151101151ADDGF108991061071008001011999KA1240N+02201MA1999999095021MD1999999-0041REMSYN076AAXX  09124 82795 32597 81405 10239 20215 39502 40115 8671/ 333 20220 59004;
0156827950999992006040918004-07217-035883FM-12+0548SBKG V0200901N003119999999N0100001N1+02631+02101100771ADDGF105991999051008001051001MA1999999094671MD1999999-0031REMSYN070AAXX  09184 82795 32597 50906 10263 20210 39467 40077 86550 333 59003;EQDQ01+000062SCOTLC
0168827950999992006041000004-07217-035883FM-12+0548SBKG V0200901N003110075019N0010001N1+02381+02211101091ADDGF107991071051008001001001KA1240M+02661MA1999999094961MD1999999+0001REMSYN088AAXX  10004 82795 32594 70906 10238 20221 39496 40109 87500 333 10266 29085 55013 58000;
0201827950999992006041012004-07217-035883FM-12+0548SBKG V0200901N002110075019N0100001N1+02601+02211101191ADDAA124004191AY161061AY221061GF106991061021008001001001KA1240N+02191MA1999999095091MD1999999+0061MW1021REMSYN088AAXX  10124 82795 21597 60904 10260 20221 39509 40119 70262 86200 333 20219 58006 60044;
0137827950999992006041018004-07217-035883FM-12+0548SBKG V0200901N003611050019N0100001N1+02801+02131100721ADDGF105991021021008001011041MA1999999094651MD1999999-0021REMSYN070AAXX  10184 82795 32597 50907 10280 20213 39465 40072 82214 333 59002;
0168827950999992006041100004-07217-035883FM-12+0548SBKG V0200901N003110450019N0010001N1+02401+02111101051ADDGF107991031021008001041021KA1240M+02941MA1999999094961MD1999999+0001REMSYN088AAXX  11004 82795 32594 70906 10240 20211 39496 40105 83242 333 10294 29078 55075 58000;
0156827950999992006041112004-07217-035883FM-12+0548SBKG V0201401N003610075019N0100001N1+02571+02101101121ADDGF106991061021008001001001KA1240N+02161MA1999999095011MD1999999-0081REMSYN076AAXX  11124 82795 32597 61407 10257 20210 39501 40112 86200 333 20216 59008;
0137827950999992006041118004-07217-035883FM-12+0548SBKG V0201401N004612200019N0100001N1+03001+01941100781ADDGF105991041021008001001011MA1999999094731MD1999999+0081REMSYN070AAXX  11184 82795 32597 51409 10300 20194 39473 40078 84201 333 58008;
0168827950999992006041200004-07217-035883FM-12+0548SBKG V0200901N003610075019N0010001N1+02371+02191101201ADDGF106991061021008001001001KA1240M+03001MA1999999095091MD1999999+0131REMSYN088AAXX  12004 82795 32594 60907 10237 20219 39509 40120 86200 333 10300 29076 55103 58013;
0156827950999992006041212004-07217-035883FM-12+0548SBKG V0201401N003610075019N0100001N1+02571+02121101401ADDGF106991061021008001001001KA1240N+02151MA1999999095281MD1999999+0271REMSYN076AAXX  12124 82795 32597 61407 10257 20212 39528 40140 86200 333 20215 58027;
0137827950999992006041218004-07217-035883FM-12+0548SBKG V0201401N004110120019N0100001N1+02941+01941100861ADDGF106991061081008001001001MA1999999094811MD1999999+0081REMSYN070AAXX  12184 82795 32597 61408 10294 20194 39481 40086 86800 333 58008;
0213827950999992006041300004-07217-035883FM-12+0548SBKG V0200901N002610450019N0010001N1+02351+02201101191ADDAA106000391AY161061AY221061GF106991031091008001091031KA1240M+03071MA1999999095081MD1999999-0011MW1131REMSYN100AAXX  13004 82795 21594 60905 10235 20220 39508 40119 71362 83993 333 10307 29078 55075 59001 69931;
0173827950999992006041312004-07217-035883FM-12+0548SBKG V0200901N002110075019N0100001N1+02591+02171101241ADDAA124000391GF106991061021008001001001KA1240N+02201MA1999999095131MD1999999-0151REMSYN082AAXX  13124 82795 22597 60904 10259 20217 39513 40124 86200 333 20220 59015 69934;
0201827950999992006041318004-07217-035883FM-12+0548SBKG V0200901N003110075019N0100001N1+02421+02251100851ADDAA106003091AY161061AY221061GF108991081071008001999999MA1999999094042MD1999999-0071MW1161REMSYN082AAXX  13184 82795 21597 80906 10242 20225 39404 40085 71662 887// 333 59007 60031;EQDQ01+094043APOSP 
0168827950999992006041400004-07217-035883FM-12+0548SBKG V0200901N002110075019N0010001N1+02321+02181101041ADDGF107991061061008001031001KA1240M+03001MA1999999094941MD1999999-0141REMSYN088AAXX  14004 82795 32594 70904 10232 20218 39494 40104 86630 333 10300 29088 55058 59014;
0173827950999992006041412004-07217-035883FM-12+0548SBKG V0201401N003110075019N0100001N1+02471+02151101191ADDAA124003091GF105991051021008001001001KA1240N+02161MA1999999095071MD1999999-0061REMSYN082AAXX  14124 82795 22597 51406 10247 20215 39507 40119 85200 333 20216 59006 60034;
0137827950999992006041418004-07217-035883FM-12+0548SBKG V0201401N003110120019N0100001N1+02821+02121100731ADDGF106991061081008001001001MA1999999094661MD1999999-0081REMSYN070AAXX  14184 82795 32597 61406 10282 20212 39466 40073 86800 333 59008;
0213827950999992006041500004-07217-035883FM-12+0548SBKG V0201401N004110042019N0005001N1+02321+02201101101ADDAA106037191AY191061AY281061GF108991081091004501999999KA1240M+02971MA1999999094981MD1999999+0041MW1951REMSYN100AAXX  15004 82795 21493 81408 10232 20220 39498 40110 79598 889// 333 10297 29084 55088 58004 60371;
0201827950999992006041512004-07217-035883FM-12+0548SBKG V0201401N004610075019N0100001N1+02471+02131101271ADDAA124039191AY161061AY221061GF106991061031008001001001KA1240N+02161MA1999999095091MD1999999+0021MW1021REMSYN088AAXX  15124 82795 21597 61409 10247 20213 39509 40127 70262 86300 333 20216 58002 60394;
0182827950999992006041518004-07217-035883FM-12+0548SBKG V0201401N004110075019N0100001N1+02391+02091101031ADDAA106006191AY161061AY221061GF107991071071008001001001MA1999999094901MD1999999+0241MW1151REMSYN082AAXX  15184 82795 21597 71408 10239 20209 39490 40103 71562 87700 333 58024 60061;
0187827950999992006041600004-07217-035883FM-12+0548SBKG V0201401N003110075019N0010001N1+02221+02101101401ADDGF108991999071008001051999KA1240M+02681MA1999999095251MD1999999+0271REMSYN088AAXX  16004 82795 32594 81406 10222 20210 39525 40140 8875/ 333 10268 29088 55020 58027;EQDQ01+000082SCOTLC
0192827950999992006041612004-07217-035883FM-12+0548SBKG V0201401N001512200019N0100001N1+02531+01881101421ADDAA124006191GF103991999011008001001001KA1240N+02031MA1999999095271MD1999999+0181REMSYN082AAXX  16124 82795 22597 31403 10253 20188 39527 40142 82100 333 20203 58018 60064;EQDQ01+000022SCOTLC
0137827950999992006041618004-07217-035883FM-12+0548SBKG V0201401N003112200019N0100001N1+02881+01831101191ADDGF104991011081008001001041MA1999999095111MD1999999+0111REMSYN070AAXX  16184 82795 32597 41406 10288 20183 39511 40119 81804 333 58011;
0187827950999992006041700004-07217-035883FM-12+0548SBKG V0201401N003119999999N0010001N1+02261+02011101441ADDGF105991999021008001001001KA1240M+02971MA1999999095301MD1999999+0051REMSYN088AAXX  17004 82795 32594 51406 10226 20201 39530 40144 83200 333 10297 29073 55090 58005;EQDQ01+000032SCOTLC
0175827950999992006041712004-07217-035883FM-12+0548SBKG V0200901N001519999999N0100001N1+02601+01991101411ADDGF106991999021008001001001KA1240N+01961MA1999999095271MD1999999+0001REMSYN076AAXX  17124 82795 32597 60903 10260 20199 39527 40141 84200 333 20196 58000;EQDQ01+000042SCOTLC
0168827950999992006041800004-07217-035883FM-12+0548SBKG V0200901N002110075019N0010001N1+02351+02171101231ADDGF105991051021008001001001KA1240M+02781MA1999999095121MD1999999-0181REMSYN088AAXX  18004 82795 32594 50904 10235 20217 39512 40123 85200 333 10278 29078 55049 59018;
0156827950999992006041812004-07217-035883FM-12+0548SBKG V0200901N002110450019N0100001N1+02491+02031101231ADDGF106991041021008001041001KA1240N+02151MA1999999095131MD1999999-0141REMSYN076AAXX  18124 82795 32597 60904 10249 20203 39513 40123 84240 333 20215 59014;
0165827950999992006041818004-07217-035883FM-12+0548SBKG V0201401N003110075019N0100001N1+02511+02071100991ADDAY121061AY221061GF108991051071008001021999MA1999999094881MD1999999-0041MW1151REMSYN076AAXX  18184 82795 31597 81406 10251 20207 39488 40099 71522 8572/ 333 59004;
0168827950999992006041900004-07217-035883FM-12+0548SBKG V0200901N001510450019N0010001N1+02361+02131101291ADDGF106991021021008001081001KA1240M+02841MA1999999095161MD1999999+0041REMSYN088AAXX  19004 82795 32594 60903 10236 20213 39516 40129 82280 333 10284 29082 55038 58004;
0156827950999992006041912004-07217-035883FM-12+0548SBKG V0203601N009312200019N0100001N1+02471+02031101371ADDGF106991041021008001001011KA1240N+02111MA1999999095231MD1999999+0101REMSYN076AAXX  19124 82795 32597 63618 10247 20203 39523 40137 84201 333 20211 58010;
0168827950999992006042000004-07217-035883FM-12+0548SBKG V0200901N002610075019N0010001N1+02321+02131101401ADDGF106991061021008001001001KA1240M+03001MA1999999095261MD1999999+0101REMSYN088AAXX  20004 82795 32594 60905 10232 20213 39526 40140 86200 333 10300 29083 55084 58010;
0201827950999992006042012004-07217-035883FM-12+0548SBKG V0201401N003610042019N0040001N1+02381+02171101401ADDAA124000021AY151061AY221061GF108991051071004501011999KA1240N+02131MA1999999095251MD1999999+0021MW1511REMSYN088AAXX  20124 82795 21496 81407 10238 20217 39525 40140 75152 8571/ 333 20213 58002 69914;
0168827950999992006042100004-07217-035883FM-12+0548SBKG V0200901N003110075019N0010001N1+02321+02151101421ADDGF106991061021008001001001KA1240M+02811MA1999999095271MD1999999+0011REMSYN088AAXX  21004 82795 32594 60906 10232 20215 39527 40142 86200 333 10281 29084 55039 58001;
0173827950999992006042112004-07217-035883FM-12+0548SBKG V0201401N003110075019N0100001N1+02471+02131101341ADDAA124002091GF106991061021008001001001KA1240N+02131MA1999999095211MD1999999-0031REMSYN082AAXX  21124 82795 22597 61406 10247 20213 39521 40134 86200 333 20213 59003 60024;
0137827950999992006042118004-07217-035883FM-12+0548SBKG V0201401N004112200019N0100001N1+02921+01951100911ADDGF104991011031008001001011MA1999999094951MD1999999+0021REMSYN070AAXX  21184 82795 32597 41408 10292 20195 39495 40091 81301 333 58002;
0196827950999992006042200004-07217-035883FM-12+0548SBKG V0200901N002612200019N0010001N1+02351+02151101431ADDAY121061AY211061GF102991021091008001001001KA1240M+02961MA1999999095291MD1999999+0021MW1131REMSYN094AAXX  22004 82795 31594 20905 10235 20215 39529 40143 71321 82900 333 10296 29078 55099 58002;
0156827950999992006042212004-07217-035883FM-12+0548SBKG V0201401N002110075019N0100001N1+02581+02041101441ADDGF106991061021008001001001KA1240N+02171MA1999999095591MD1999999+0081REMSYN076AAXX  22124 82795 32597 61404 10258 20204 39559 40144 86200 333 20217 58008;
0137827950999992006042218004-07217-035883FM-12+0548SBKG V0201401N003111050019N0100001N1+03001+01881101021ADDGF106991031021008001001021MA1999999094961MD1999999+0011REMSYN070AAXX  22184 82795 32597 61406 10300 20188 39496 40102 83202 333 58001;
0168827950999992006042300004-07217-035883FM-12+0548SBKG V0200901N003110075019N0010001N1+02381+02151101361ADDGF106991061021008001001001KA1240M+03021MA1999999095241MD1999999-0051REMSYN088AAXX  23004 82795 32594 60906 10238 20215 39524 40136 86200 333 10302 29074 55098 59005;
0201827950999992006042312004-07217-035883FM-12+0548SBKG V0201401N003110075019N0100001N1+02391+02151101481ADDAA124000591AY161061AY221061GF108991051071008001011999KA1240N+02161MA1999999095331MD1999999+0041MW1021REMSYN088AAXX  23124 82795 21597 81406 10239 20215 39533 40148 70262 8571/ 333 20216 58004 69954;
0182827950999992006042318004-07217-035883FM-12+0548SBKG V0201401N002610042019N0020001N1+02241+02161101221ADDAA106010991AY181061AY261061GF108991081071004501999999MA1999999095041MD1999999+0081MW1601REMSYN082AAXX  23184 82795 21495 81405 10224 20216 39504 40122 76086 887// 333 58008 60111;
0213827950999992006042400004-07217-035883FM-12+0548SBKG V0201401N001510075019N0010001N1+02261+02141101361ADDAA106000021AY161061AY261061GF105991051061008001001001KA1240M+02631MA1999999095201MD1999999-0041MW1011REMSYN100AAXX  24004 82795 21594 51403 10226 20214 39520 40136 70166 85600 333 10263 29092 55018 59004 69911;
0201827950999992006042412004-07217-035883FM-12+0548SBKG V0201401N003110075019N0040001N1+02371+02211101381ADDAA124011991AY161061AY221061GF108991081071008001999999KA1240N+02111MA1999999095221MD1999999-0111MW1501REMSYN088AAXX  24124 82795 21596 81406 10237 20221 39522 40138 75062 887// 333 20211 59011 60124;
0182827950999992006042418004-07217-035883FM-12+0548SBKG V0201401N004610075019N0040001N1+02341+02201101041ADDAA106011991AY161061AY221061GF108991081071008001999999MA1999999094891MD1999999-0151MW1031REMSYN082AAXX  24184 82795 21596 81409 10234 20220 39489 40104 70362 887// 333 59015 60121;
0168827950999992006042500004-07217-035883FM-12+0548SBKG V0200901N003110075019N0010001N1+02291+02161101331ADDGF108991081061008001999999KA1240M+02741MA1999999095171MD1999999-0031REMSYN088AAXX  25004 82795 32594 80906 10229 20216 39517 40133 886// 333 10274 29092 55024 59003;
0201827950999992006042512004-07217-035883FM-12+0548SBKG V0201401N002610120019N0100001N1+02461+02211101311ADDAA124011991AY151061AY221061GF107991071081008001001001KA1240N+02141MA1999999095171MD1999999-0051MW1021REMSYN088AAXX  25124 82795 21597 71405 10246 20221 39517 40131 70252 87800 333 20214 59005 60124;
0137827950999992006042518004-07217-035883FM-12+0548SBKG V0200901N004611050019N0100001N1+02731+02151100891ADDGF105991031031008001001021MA1999999094801MD1999999-0091REMSYN070AAXX  25184 82795 32597 50909 10273 20215 39480 40089 83302 333 59009;
0168827950999992006042600004-07217-035883FM-12+0548SBKG V0201401N002610450019N0100001N1+02311+02201101301ADDGF105991041021008001041001KA1240M+02831MA1999999095161MD1999999-0011REMSYN088AAXX  26004 82795 32597 51405 10231 20220 39516 40130 84240 333 10283 29086 55070 59001;
0156827950999992006042612004-07217-035883FM-12+0548SBKG V0201801N001510450019N0100001N1+02471+02071101191ADDGF106991041021008001011001KA1240N+02081MA1999999095071MD1999999-0101REMSYN076AAXX  26124 82795 32597 61803 10247 20207 39507 40119 84210 333 20208 59010;
0137827950999992006042618004-07217-035883FM-12+0548SBKG V0201401N003111050019N0100001N1+02871+01951100991ADDGF106991021081008001001031MA1999999094911MD1999999+0111REMSYN070AAXX  26184 82795 32597 61406 10287 20195 39491 40099 82803 333 58011;
0168827950999992006042700004-07217-035883FM-12+0548SBKG V0200901N003610120019N0010001N1+02321+02161101241ADDGF106991061081008001001001KA1240M+02911MA1999999095121MD1999999-0041REMSYN088AAXX  27004 82795 32594 60907 10232 20216 39512 40124 86800 333 10291 29080 55078 59004;
0175827950999992006042712004-07217-035883FM-12+0548SBKG V0201401N003119999999N0100001N1+02521+02091101321ADDGF106991999021008001001001KA1240N+02071MA1999999095191MD1999999+0121REMSYN076AAXX  27124 82795 32597 61406 10252 20209 39519 40132 83200 333 20207 58012;EQDQ01+000032SCOTLC
0156827950999992006042718004-07217-035883FM-12+0548SBKG V0201401N003119999999N0100001N1+02881+02051100891ADDGF105991999021008001001001MA1999999094821MD1999999+0011REMSYN070AAXX  27184 82795 32597 51406 10288 20205 39482 40089 83200 333 58001;EQDQ01+000032SCOTLC
0196827950999992006042800004-07217-035883FM-12+0548SBKG V0200901N003610450019N0010001N1+02351+02171101341ADDAY121061AY221061GF107991031091008001081031KA1240M+02951MA1999999095221MD1999999+0101MW1131REMSYN094AAXX  28004 82795 31594 70907 10235 20217 39522 40134 71322 83983 333 10295 29079 55099 58010;
0156827950999992006042812004-07217-035883FM-12+0548SBKG V0201401N002610075019N0100001N1+02531+02091101391ADDGF106991061021008001001001KA1240N+02131MA1999999095271MD1999999+0081REMSYN076AAXX  28124 82795 32597 61405 10253 20209 39527 40139 86200 333 20213 58008;
0137827950999992006042818004-07217-035883FM-12+0548SBKG V0201401N004112200019N0100001N1+02961+02021100841ADDGF106991041041008001001041MA1999999094791MD1999999-0031REMSYN070AAXX  28184 82795 32597 61408 10296 20202 39479 40084 84404 333 59003;
0168827950999992006042900004-07217-035883FM-12+0548SBKG V0200901N003110075019N0010001N1+02361+02191101271ADDGF106991051021008001041001KA1240M+03001MA1999999095151MD1999999-0071REMSYN088AAXX  29004 82795 32594 60906 10236 20219 39515 40127 85240 333 10300 29078 55089 59007;
0156827950999992006042912004-07217-035883FM-12+0548SBKG V0201401N003110075019N0100001N1+02591+02081101291ADDGF106991061021008001001001KA1240N+02161MA1999999095171MD1999999-0101REMSYN076AAXX  29124 82795 32597 61406 10259 20208 39517 40129 86200 333 20216 59010;
0182827950999992006042918004-07217-035883FM-12+0548SBKG V0201401N005110042019N0040001N1+02701+02221100951ADDAA106000021AY161061AY221061GF107991061031004501041001MA1999999094841MD1999999+0051MW1601REMSYN082AAXX  29184 82795 21496 71410 10270 20222 39484 40095 76062 86340 333 58005 69911;
0168827950999992006043000004-07217-035883FM-12+0548SBKG V0200901N002610075019N0010001N1+02381+02241101251ADDGF107991051021008001061001KA1240M+03041MA1999999095131MD1999999-0021REMSYN088AAXX  30004 82795 32594 70905 10238 20224 39513 40125 85260 333 10304 29084 55092 59002;
0173827950999992006043012004-07217-035883FM-12+0548SBKG V0200901N003610075019N0100001N1+02521+02211101341ADDAA124000021GF107991051021008001061021KA1240N+02221MA1999999095221MD1999999+0051REMSYN082AAXX  30124 82795 22597 70907 10252 20221 39522 40134 85262 333 20222 58005 69914;
0182827950999992006043018004-07217-035883FM-12+0548SBKG V0200901N002610042019N0100001N1+02511+02131101091ADDAA106004191AY161061AY221061GF108991051071004501071999MA1999999094961MD1999999+0121MW1021REMSYN082AAXX  30184 82795 21497 80905 10251 20213 39496 40109 70262 8577/ 333 58012 60041;
0187827950999992006050100004-07217-035883FM-12+0548SBKG V0200901N001010450019N0010001N1+02311+02161101361ADDGF106991031061008001071001KA1240M+02581MA1999999999999MD1999999+0101REMSYN088AAXX  01004 82795 32594 60902 10231 20216 39223 40136 83670 333 10258 29086 55016 58010;EQDQ01 092233APOSP 
0173827950999992006050112004-07217-035883FM-12+0548SBKG V0201401N002610075019N0100001N1+02451+02071101531ADDAA124004191GF106991061061008001001001KA1240N+02121MA1999999095371MD1999999+0151REMSYN082AAXX  01124 82795 22597 61405 10245 20207 39537 40153 86600 333 20212 58015 60044;
0182827950999992006050118004-07217-035883FM-12+0548SBKG V0201401N003610075019N0100001N1+02431+02191101251ADDAA106013091AY161061AY221061GF108991081071008001999999MA1999999095101MD1999999+0141MW1021REMSYN082AAXX  01184 82795 21597 81407 10243 20219 39510 40125 70262 887// 333 58014 60131;
0168827950999992006050200004-07217-035883FM-12+0548SBKG V0201401N001510042019N0010001N1+02321+02201101581ADDGF108991081071004501999999KA1240M+02651MA1999999095421MD1999999+0191REMSYN088AAXX  02004 82795 32494 81403 10232 20220 39542 40158 887// 333 10265 29088 55024 58019;
0173827950999992006050212004-07217-035883FM-12+0548SBKG V0201401N004610075019N0100001N1+02561+02171101561ADDAA124013091GF106991061021008001001001KA1240N+02101MA1999999095421MD1999999+0051REMSYN082AAXX  02124 82795 22597 61409 10256 20217 39542 40156 86200 333 20210 58005 60134;
0137827950999992006050218004-07217-035883FM-12+0548SBKG V0201401N004110450019N0100001N1+02801+02061101211ADDGF106991041021008001021001MA1999999095101MD1999999+0001REMSYN070AAXX  02184 82795 32597 61408 10280 20206 39510 40121 84220 333 58000;
0168827950999992006050300004-07217-035883FM-12+0548SBKG V0201401N004610075019N0010001N1+02351+02201101441ADDGF106991051021008001001021KA1240M+02871MA1999999095321MD1999999-0101REMSYN088AAXX  03004 82795 32594 61409 10235 20220 39532 40144 85202 333 10287 29081 55094 59010;
0156827950999992006050312004-07217-035883FM-12+0548SBKG V0200901N003610075019N0100001N1+02551+02151101421ADDGF106991061021008001001001KA1240N+02161MA1999999095301MD1999999-0121REMSYN076AAXX  03124 82795 32597 60907 10255 20215 39530 40142 86200 333 20216 59012;
0137827950999992006050318004-07217-035883FM-12+0548SBKG V0200901N004612200019N0100001N1+02381+02081101001ADDGF105991031041008001001041MA1999999094921MD1999999-0181REMSYN070AAXX  03184 82795 32597 50909 10238 20208 39492 40100 83404 333 59018;
0213827950999992006050400004-07217-035883FM-12+0548SBKG V0200901N003610042019N0010001N1+02281+02211101361ADDAA106006191AY161061AY221061GF107991071071004501001001KA1240M+02921MA1999999095231MD1999999-0091MW1011REMSYN100AAXX  04004 82795 21494 70907 10228 20221 39523 40136 70162 87700 333 10292 29084 55076 59009 60061;
0173827950999992006050412004-07217-035883FM-12+0548SBKG V0201401N004610075019N0100001N1+02451+02151101321ADDAA124006191GF106991061021008001001001KA1240N+02131MA1999999095181MD1999999-0121REMSYN082AAXX  04124 82795 22597 61409 10245 20215 39518 40132 86200 333 20213 59012 60064;
0182827950999992006050418004-07217-035883FM-12+0548SBKG V0201401N003110075019N0100001N1+02431+02151101151ADDAA106003091AY161061AY221061GF105991051041008001001001MA1999999095011MD1999999+0091MW1021REMSYN082AAXX  04184 82795 21597 51406 10243 20215 39501 40115 70262 85400 333 58009 60031;
0168827950999992006050500004-07217-035883FM-12+0548SBKG V0201401N002110075019N0010001N1+02271+02121101351ADDGF105991051051008001001001KA1240M+02651MA1999999095211MD1999999-0021REMSYN088AAXX  05004 82795 32594 51404 10227 20212 39521 40135 85500 333 10265 29088 55057 59002;
0173827950999992006050512004-07217-035883FM-12+0548SBKG V0201401N003110120019N0100001N1+02501+02051101371ADDAA124003091GF107991071081008001001001KA1240N+02081MA1999999095231MD1999999-0051REMSYN082AAXX  05124 82795 22597 71406 10250 20205 39523 40137 87800 333 20208 59005 60034;
0182827950999992006050518004-07217-035883FM-12+0548SBKG V0200501N002110075019N0100001N1+02491+01941101081ADDAA106001091AY161061AY221061GF107991071071008001001001MA1999999094941MD1999999-0071MW1021REMSYN082AAXX  05184 82795 21597 70504 10249 20194 39494 40108 70262 87700 333 59007 60011;
0168827950999992006050600004-07217-035883FM-12+0548SBKG V0201401N003610075019N0010001N1+02321+02151101341ADDGF105991051071008001001001KA1240M+02911MA1999999095211MD1999999+0001REMSYN088AAXX  06004 82795 32594 51407 10232 20215 39521 40134 85700 333 10291 29083 55058 58000;
0173827950999992006050612004-07217-035883FM-12+0548SBKG V0201401N003110075019N0100001N1+02411+02051101471ADDAA124001091GF106991061021008001001001KA1240N+02191MA1999999095321MD1999999+0091REMSYN082AAXX  06124 82795 22597 61406 10241 20205 39532 40147 86200 333 20219 58009 60014;
0137827950999992006050618004-07217-035883FM-12+0548SBKG V0201401N003612200019N0100001N1+02811+01971101061ADDGF104991041031008001001001MA1999999094971MD1999999+0031REMSYN070AAXX  06184 82795 32597 41407 10281 20197 39497 40106 84300 333 58003;
0168827950999992006050700004-07217-035883FM-12+0548SBKG V0201401N003112200019N0010001N1+02341+01981101351ADDGF104991041021008001001001KA1240M+02921MA1999999095211MD1999999+0001REMSYN088AAXX  07004 82795 32594 41406 10234 20198 39521 40135 84200 333 10292 29075 55060 58000;
0156827950999992006050712004-07217-035883FM-12+0548SBKG V0201401N003112200019N0100001N1+02641+01691101431ADDGF102991011061008001001011KA1240N+02101MA1999999095321MD1999999+0001REMSYN076AAXX  07124 82795 32597 21406 10264 20169 39532 40143 81601 333 20210 58000;
0137827950999992006050718004-07217-035883FM-12+0548SBKG V0200501N004612200019N0100001N1+02941+01971101031ADDGF103991011081008001041021MA1999999094951MD1999999-0021REMSYN070AAXX  07184 82795 32597 30509 10294 20197 39495 40103 81842 333 59002;
0168827950999992006050800004-07217-035883FM-12+0548SBKG V0201401N002110075019N0010001N1+02351+02001101411ADDGF105991051021008001001001KA1240M+03021MA1999999095301MD1999999+0091REMSYN088AAXX  08004 82795 32594 51404 10235 20200 39530 40141 85200 333 10302 29068 55103 58009;
0156827950999992006050812004-07217-035883FM-12+0548SBKG V0201801N003610450019N0100001N1+02521+02021101451ADDGF106991041021008001041001KA1240N+02111MA1999999095311MD1999999-0011REMSYN076AAXX  08124 82795 32597 61807 10252 20202 39531 40145 84240 333 20211 59001;
0182827950999992006050818004-07217-035883FM-12+0548SBKG V0200501N002110075019N0100001N1+02401+01971100981ADDAA106007991AY161061AY221061GF108991081071008001999999MA1999999094851MD1999999-0101MW1021REMSYN082AAXX  08184 82795 21597 80504 10240 20197 39485 40098 70262 887// 333 59010 60081;
0213827950999992006050900004-07217-035883FM-12+0548SBKG V0201401N001510450019N0010001N1+02271+02141101411ADDAA106000891AY161061AY221061GF107991041061008001071001KA1240M+02781MA1999999095271MD1999999-0031MW1021REMSYN100AAXX  09004 82795 21594 71403 10227 20214 39527 40141 70262 84670 333 10278 29084 55038 59003 69981;
0173827950999992006050912004-07217-035883FM-12+0548SBKG V0201401N001510075019N0100001N1+02471+02051101501ADDAA124008991GF106991061061008001001001KA1240N+02151MA1999999095341MD1999999+0031REMSYN082AAXX  09124 82795 22597 61403 10247 20205 39534 40150 86600 333 20215 58003 60094;
0137827950999992006050918004-07217-035883FM-12+0548SBKG V0200901N004111050019N0100001N1+02781+02041101011ADDGF107991031021008001001081MA1999999094911MD1999999-0041REMSYN070AAXX  09184 82795 32597 70908 10278 20204 39491 40101 83208 333 59004;
0192827950999992006051012004-07217-035883FM-12+0548SBKG V0201401N003110075019N0100001N1+02501+02301101501ADDAA124019191GF108991999021008001001001KA1240N+02101MA1999999095361MD1999999+0021REMSYN082AAXX  10124 82795 22597 81406 10250 20230 39536 40150 86200 333 20210 58002 60194;EQDQ01+000062SCOTLC
0156827950999992006051018004-07217-035883FM-12+0548SBKG V0201401N003119999999N0100001N1+02641+02031101121ADDGF105991999021008001001001MA1999999094991MD1999999+0081REMSYN070AAXX  10184 82795 32597 51406 10264 20203 39499 40112 83200 333 58008;EQDQ01+000032SCOTLC
0168827950999992006051100004-07217-035883FM-12+0548SBKG V0201401N002612200019N0010001N1+02291+02051101351ADDGF104991011021008001041021KA1240M+02661MA1999999095221MD1999999+0011REMSYN088AAXX  11004 82795 32594 41405 10229 20205 39522 40135 81242 333 10266 29080 55048 58001;
0156827950999992006051112004-07217-035883FM-12+0548SBKG V0201801N003619999999N0100001N1+02471+01881101421ADDGF106991031001008001041061KA1240N+02011MA1999999095271MD1999999-0111REMSYN076AAXX  11124 82795 32597 61807 10247 20188 39527 40142 83046 333 20201 59011;
0137827950999992006051118004-07217-035883FM-12+0548SBKG V0201401N003110120019N0100001N1+02811+01921101011ADDGF108991051081008001041999MA1999999094911MD1999999-0081REMSYN070AAXX  11184 82795 32597 81406 10281 20192 39491 40101 8584/ 333 59008;
0168827950999992006051200004-07217-035883FM-12+0548SBKG V0200901N001510450019N0010001N1+02351+02131101331ADDGF106991021021008001051001KA1240M+02931MA1999999095201MD1999999-0021REMSYN088AAXX  12004 82795 32594 60903 10235 20213 39520 40133 82250 333 10293 29076 55082 59002;
0156827950999992006051212004-07217-035883FM-12+0548SBKG V0200901N003610450019N0100001N1+02571+01821101561ADDGF107991011011008001041011KA1240N+02031MA1999999095321MD1999999+0051REMSYN076AAXX  12124 82795 32597 70907 10257 20182 39532 40156 81141 333 20203 58005;
0137827950999992006051218004-07217-035883FM-12+0548SBKG V0201401N004112200019N0100001N1+02941+01971101051ADDGF103991011021008001001041MA1999999094961MD1999999-0051REMSYN070AAXX  12184 82795 32597 31408 10294 20197 39496 40105 81204 333 59005;
0213827950999992006051300004-07217-035883FM-12+0548SBKG V0200901N002610042019N0005001N1+02381+02241101421ADDAA106000021AY161061AY221061GF108991081071004501999999KA1240M+02941MA1999999095301MD1999999+0101MW1601REMSYN100AAXX  13004 82795 21493 80905 10238 20224 39530 40142 76062 887// 333 10294 29076 55076 58010 69921;
0201827950999992006051312004-07217-035883FM-12+0548SBKG V0200901N002610075019N0100001N1+02551+02151101621ADDAA124007191AY161061AY221061GF105991051021008001001001KA1240N+02161MA1999999095481MD1999999+0161MW1021REMSYN088AAXX  13124 82795 21597 50905 10255 20215 39548 40162 70262 85200 333 20216 58016 60074;
0137827950999992006051318004-07217-035883FM-12+0548SBKG V0200901N003612200019N0100001N1+02941+02001101191ADDGF103991021021008001001011MA1999999095121MD1999999+0161REMSYN070AAXX  13184 82795 32597 30907 10294 20200 39512 40119 82201 333 58016;
0168827950999992006051400004-07217-035883FM-12+0548SBKG V0200901N003610075019N0010001N1+02391+02231101651ADDGF106991051031008001041001KA1240M+02971MA1999999095511MD1999999+0211REMSYN088AAXX  14004 82795 32594 60907 10239 20223 39551 40165 85340 333 10297 29079 55078 58021;
0201827950999992006051412004-07217-035883FM-12+0548SBKG V0200901N002110075019N0100001N1+02341+02151101761ADDAA124003091AY161061AY221061GF106991061061008001001001KA1240N+02101MA1999999095591MD1999999+0111MW1021REMSYN088AAXX  14124 82795 21597 60904 10234 20215 39559 40176 70262 86600 333 20210 58011 60034;
0137827950999992006051418004-07217-035883FM-12+0548SBKG V0200901N003110450019N0100001N1+02831+02051101351ADDGF106991031021008001061021MA1999999095251MD1999999+0131REMSYN070AAXX  14184 82795 32597 60906 10283 20205 39525 40135 83262 333 58013;
0168827950999992006051500004-07217-035883FM-12+0548SBKG V0200901N003110075019N0010001N1+02351+02201101631ADDGF107991051021008001061001KA1240M+02861MA1999999095471MD1999999-0041REMSYN088AAXX  15004 82795 32594 70906 10235 20220 39547 40163 85260 333 10286 29084 55073 59004;
0201827950999992006051512004-07217-035883FM-12+0548SBKG V0201401N003110075019N0100001N1+02451+02111101711ADDAA124002091AY161061AY221061GF107991071071008001001001KA1240N+02131MA1999999095551MD1999999-0041MW1021REMSYN088AAXX  15124 82795 21597 71406 10245 20211 39555 40171 70262 87700 333 20213 59004 60024;
0137827950999992006051518004-07217-035883FM-12+0548SBKG V0201401N003112200019N0100001N1+02821+01971101401ADDGF103991031021008001001001MA1999999095291MD1999999+0041REMSYN070AAXX  15184 82795 32597 31406 10282 20197 39529 40140 83200 333 58004;
0232827950999992006051600004-07217-035883FM-12+0548SBKG V0200901N003119999999N0010001N1+02291+02141101581ADDAA106000391AY161061AY221061GF107991999071008001081001KA1240M+02881MA1999999095421MD1999999-0051MW1021REMSYN100AAXX  16004 82795 21594 70906 10229 20214 39542 40158 70262 88780 333 10288 29082 55072 59005 69931;EQDQ01+000082SCOTLC
0173827950999992006051612004-07217-035883FM-12+0548SBKG V0200901N002610075019N0100001N1+02451+02091101611ADDAA124000391GF107991051021008001001011KA1240N+02101MA1999999095451MD1999999-0101REMSYN082AAXX  16124 82795 22597 70905 10245 20209 39545 40161 85201 333 20210 59010 69934;
0182827950999992006051618004-07217-035883FM-12+0548SBKG V0201401N004610075019N0100001N1+02571+02061101351ADDAA106001091AY161061AY221061GF106991061071008001001001MA1999999095191MD1999999-0101MW1021REMSYN082AAXX  16184 82795 21597 61409 10257 20206 39519 40135 70262 86700 333 59010 60011;
0213827950999992006051700004-07217-035883FM-12+0548SBKG V0201801N002110075019N0010001N1+02241+02091101601ADDAA106000891AY161061AY221061GF108991081071008001999999KA1240M+02801MA1999999095441MD1999999+0021MW1021REMSYN100AAXX  17004 82795 21594 81804 10224 20209 39544 40160 70262 887// 333 10280 29084 55052 58002 69981;
0173827950999992006051712004-07217-035883FM-12+0548SBKG V0201801N002110075019N0100001N1+02311+01981101691ADDAA124002091GF106991061061008001001001KA1240N+02041MA1999999095501MD1999999+0051REMSYN082AAXX  17124 82795 22597 61804 10231 20198 39550 40169 86600 333 20204 58005 60024;
0182827950999992006051718004-07217-035883FM-12+0548SBKG V0201401N001510075019N0100001N1+02231+02081101521ADDAA106004191AY161061AY221061GF108991081071008001999999MA1999999095301MD1999999+0111MW1511REMSYN082AAXX  17184 82795 21597 81403 10223 20208 39530 40152 75162 887// 333 58011 60041;
0173827950999992006051812004-07217-035883FM-12+0548SBKG V0201801N004110075019N0100001N1+02311+01961101811ADDAA124006191GF108991051071008001011999KA1240N+02021MA1999999095601MD1999999+0101REMSYN082AAXX  18124 82795 22597 81808 10231 20196 39560 40181 8571/ 333 20202 58010 60064;
0156827950999992006051818004-07217-035883FM-12+0548SBKG V0201401N003619999999N0100001N1+02521+02081101481ADDGF108991999051008001001001MA1999999095321MD1999999+0021REMSYN070AAXX  18184 82795 32597 81407 10252 20208 39532 40148 84500 333 58002;EQDQ01+000042SCOTLC
0168827950999992006051900004-07217-035883FM-12+0548SBKG V0201801N002610075019N0010001N1+02131+01971101761ADDGF108991081051008001999999KA1240M+02611MA1999999095551MD1999999-0011REMSYN088AAXX  19004 82795 32594 81805 10213 20197 39555 40176 885// 333 10261 29084 55021 59001;
0156827950999992006051912004-07217-035883FM-12+0548SBKG V0201801N004610075019N0100001N1+02281+01941101701ADDGF108991051071008001011999KA1240N+01951MA1999999095501MD1999999-0101REMSYN076AAXX  19124 82795 32597 81809 10228 20194 39550 40170 8571/ 333 20195 59010;
0165827950999992006051918004-07217-035883FM-12+0548SBKG V0201401N001510075019N0100001N1+02511+02051101391ADDAY121061AY221061GF108991081071008001999999MA1999999095221MD1999999-0101MW1151REMSYN076AAXX  19184 82795 31597 81403 10251 20205 39522 40139 71522 887// 333 59010;
0168827950999992006052000004-07217-035883FM-12+0548SBKG V0201401N001510075019N0010001N1+02101+01931101671ADDGF108991081061008001999999KA1240M+02631MA1999999095471MD1999999-0081REMSYN088AAXX  20004 82795 32594 81403 10210 20193 39547 40167 886// 333 10263 29084 55011 59008;
0156827950999992006052012004-07217-035883FM-12+0548SBKG V0201801N003610075019N0100001N1+02291+01831101671ADDGF106991061021008001001001KA1240N+01851MA1999999095471MD1999999-0031REMSYN076AAXX  20124 82795 32597 61807 10229 20183 39547 40167 86200 333 20185 59003;
0137827950999992006052018004-07217-035883FM-12+0548SBKG V0201401N002110075019N0100001N1+02561+01931101231ADDGF108991081051008001999999MA1999999095131MD1999999-0091REMSYN070AAXX  20184 82795 32597 81404 10256 20193 39513 40123 885// 333 59009;
0168827950999992006052100004-07217-035883FM-12+0548SBKG V0201401N002610450019N0010001N1+02261+02031101501ADDGF106991041051008001051001KA1240M+02641MA1999999095321MD1999999-0151REMSYN088AAXX  21004 82795 32594 61405 10226 20203 39532 40150 84550 333 10264 29079 55040 59015;
0156827950999992006052112004-07217-035883FM-12+0548SBKG V0201801N001512200019N0100001N1+02341+01891101541ADDGF101991011011008001001001KA1240N+01931MA1999999095371MD1999999-0101REMSYN076AAXX  21124 82795 32597 11803 10234 20189 39537 40154 81100 333 20193 59010;
0178827950999992006052200004-07217-035883FM-12+0548SBKG V0201401N002112200019N0010001N1+02331+02031101431ADDGA1001+999999999GF100991001001999999001001KA1240M+03011MA1999999095281MD1999999-0041REMSYN082AAXX  22004 82795 32994 01404 10233 20203 39528 40143 333 10301 29073 55091 59004;
0156827950999992006052212004-07217-035883FM-12+0548SBKG V0201801N004610075019N0100001N1+02391+01911101711ADDGF108991081071008001999999KA1240N+01981MA1999999095541MD1999999+0171REMSYN076AAXX  22124 82795 32597 81809 10239 20191 39554 40171 887// 333 20198 58017;
0137827950999992006052218004-07217-035883FM-12+0548SBKG V0201401N004612200019N0100001N1+02721+01651101401ADDGF105991031021008001001011MA1999999095251MD1999999+0181REMSYN070AAXX  22184 82795 32597 51409 10272 20165 39525 40140 83201 333 58018;
0168827950999992006052300004-07217-035883FM-12+0548SBKG V0201401N002112200019N0010001N1+02301+02011101651ADDGF102991021041008001001001KA1240M+02811MA1999999095491MD1999999+0211REMSYN088AAXX  23004 82795 32594 21404 10230 20201 39549 40165 82400 333 10281 29074 55052 58021;
0220827950999992006052312004-07217-035883FM-12+0548SBKG V0201401N003610075019N0100001N1+02321+02111101731ADDAA124000091AY161061AY221061GF107991071071008001001001KA1240N+02031MA1999999095551MD1999999+0011MW1021REMSYN088AAXX  23124 82795 21597 71407 10232 20211 39555 40173 70262 87700 333 20203 58001 69924;EQDQ01  00002PRCP24
0137827950999992006052318004-07217-035883FM-12+0548SBKG V0201401N003110075019N0100001N1+02771+01971101381ADDGF105991051021008001001001MA1999999095241MD1999999-0011REMSYN070AAXX  23184 82795 32597 51406 10277 20197 39524 40138 85200 333 59001;
0168827950999992006052400004-07217-035883FM-12+0548SBKG V0201401N002610120019N0010001N1+02391+02111101671ADDGF107991071081008001001001KA1240M+02881MA1999999095511MD1999999+0021REMSYN088AAXX  24004 82795 32594 71405 10239 20211 39551 40167 87800 333 10288 29080 55053 58002;
0201827950999992006052412004-07217-035883FM-12+0548SBKG V0200901N001519999999N0100001N1+02331+01721101681ADDAA124019191AY161061AY221061GF107991051001008001041061KA1240N+01921MA1999999095521MD1999999-0031MW1021REMSYN088AAXX  24124 82795 21597 70903 10233 20172 39552 40168 70262 85046 333 20192 59003 60194;
0137827950999992006052418004-07217-035883FM-12+0548SBKG V0200901N004110450019N0100001N1+02781+02061101381ADDGF105991031041008001031001MA1999999095231MD1999999-0011REMSYN070AAXX  24184 82795 32597 50908 10278 20206 39523 40138 83430 333 59001;
0168827950999992006052500004-07217-035883FM-12+0548SBKG V0200901N001012200019N0010001N1+02301+02091101631ADDGF104991031021008001061001KA1240M+02811MA1999999095451MD1999999-0061REMSYN088AAXX  25004 82795 32594 40902 10230 20209 39545 40163 83260 333 10281 29077 55072 59006;
0156827950999992006052512004-07217-035883FM-12+0548SBKG V0201801N004110075019N0100001N1+02431+01991101691ADDGF106991061021008001001001KA1240N+02081MA1999999095521MD1999999+0001REMSYN076AAXX  25124 82795 32597 61808 10243 20199 39552 40169 86200 333 20208 58000;
0165827950999992006052518004-07217-035883FM-12+0548SBKG V0201401N003110450019N0100001N1+02641+02091101271ADDAY121061AY221061GF107991041081008001051001MA1999999095131MD1999999-0101MW1161REMSYN076AAXX  25184 82795 31597 71406 10264 20209 39513 40127 71622 84850 333 59010;
0213827950999992006052600004-07217-035883FM-12+0548SBKG V0201401N002612200019N0010001N1+02281+02031101541ADDAA106000891AY161061AY221061GF103991031041008001001001KA1240M+02801MA1999999095381MD1999999-0071MW1011REMSYN100AAXX  26004 82795 21594 31405 10228 20203 39538 40154 70162 83400 333 10280 29080 55063 59007 69971;
0173827950999992006052612004-07217-035883FM-12+0548SBKG V0201801N004110075019N0100001N1+02311+02151101561ADDAA124000891GF108991081071008001999999KA1240N+01981MA1999999095391MD1999999-0131REMSYN082AAXX  26124 82795 22597 81808 10231 20215 39539 40156 887// 333 20198 59013 69974;
0156827950999992006052618004-07217-035883FM-12+0548SBKG V0201401N005119999999N0100001N1+02781+02121101281ADDGF106991999021008001001001MA1999999095141MD1999999+0011REMSYN070AAXX  26184 82795 32597 61410 10278 20212 39514 40128 84200 333 58001;EQDQ01+000042SCOTLC
0213827950999992006052700004-07217-035883FM-12+0548SBKG V0200901N003610120019N0010001N1+02221+02101101631ADDAA106000891AY161061AY221061GF107991071081008001001001KA1240M+02801MA1999999095441MD1999999+0061MW1021REMSYN100AAXX  27004 82795 21594 70907 10222 20210 39544 40163 70262 87800 333 10280 29086 55051 58006 69971;
0201827950999992006052712004-07217-035883FM-12+0548SBKG V0201401N002610450019N0100001N1+02291+02011101661ADDAA124000891AY151061AY221061GF107991041081008001071001KA1240N+02061MA1999999095471MD1999999+0081MW1021REMSYN088AAXX  27124 82795 21597 71405 10229 20201 39547 40166 70252 84870 333 20206 58008 69984;
0182827950999992006052718004-07217-035883FM-12+0548SBKG V0200901N002610075019N0020001N1+02241+02091101431ADDAA106002091AY161061AY251061GF108991081071008001999999MA1999999095231MD1999999+0091MW1501REMSYN082AAXX  27184 82795 21595 80905 10224 20209 39523 40143 75065 887// 333 58009 60021;
0213827950999992006052800004-07217-035883FM-12+0548SBKG V0200901N002110075019N0005001N1+02221+02101101631ADDAA106000591AY161061AY251061GF108991081071008001999999KA1240M+02631MA1999999095441MD1999999+0001MW1601REMSYN100AAXX  28004 82795 21593 80904 10222 20210 39544 40163 76065 887// 333 10263 29090 55034 58000 69941;
0201827950999992006052812004-07217-035883FM-12+0548SBKG V0201401N002112200019N0100001N1+02331+02031101671ADDAA124003091AY161061AY221061GF106991041021008001001011KA1240N+02021MA1999999095481MD1999999+0011MW1021REMSYN088AAXX  28124 82795 21597 61404 10233 20203 39548 40167 70262 84201 333 20202 58001 60034;
0182827950999992006052818004-07217-035883FM-12+0548SBKG V0200901N002610075019N0100001N1+02441+02231101411ADDAA106003091AY161061AY221061GF106991051031008001041001MA1999999095231MD1999999+0001MW1021REMSYN082AAXX  28184 82795 21597 60905 10244 20223 39523 40141 70262 85340 333 58000 60031;
0213827950999992006052900004-07217-035883FM-12+0548SBKG V0200901N002110075019N0010001N1+02211+02131101601ADDAA106007991AY161061AY221061GF107991071061008001001001KA1240M+02601MA1999999095421MD1999999-0021MW1021REMSYN100AAXX  29004 82795 21594 70904 10221 20213 39542 40160 70262 87600 333 10260 29091 55034 59002 60081;
0173827950999992006052912004-07217-035883FM-12+0548SBKG V0201401N003110075019N0100001N1+02351+02051101781ADDAA124010991GF106991061021008001001001KA1240N+02061MA1999999095521MD1999999+0041REMSYN082AAXX  29124 82795 22597 61406 10235 20205 39552 40178 86200 333 20206 58004 60114;
0137827950999992006052918004-07217-035883FM-12+0548SBKG V0201401N005110450019N0100001N1+02741+01891101261ADDGF106991031021008001021061MA1999999095131MD1999999-0101REMSYN070AAXX  29184 82795 32597 61410 10274 20189 39513 40126 83226 333 59010;
0168827950999992006053000004-07217-035883FM-12+0548SBKG V0200901N002110450019N0010001N1+02291+02071101621ADDGF106991031021008001061001KA1240M+02791MA1999999095441MD1999999+0021REMSYN088AAXX  30004 82795 32594 60904 10229 20207 39544 40162 83260 333 10279 29080 55086 58002;
0201827950999992006053012004-07217-035883FM-12+0548SBKG V0201401N003610075019N0100001N1+02221+02051101601ADDAA124006191AY161061AY221061GF108991051071008001011999KA1240N+02061MA1999999095421MD1999999-0101MW1021REMSYN088AAXX  30124 82795 21597 81407 10222 20205 39542 40160 70262 8571/ 333 20206 59010 60064;
0137827950999992006053018004-07217-035883FM-12+0548SBKG V0201401N003610120019N0100001N1+02511+01621101381ADDGF108991051081008001051999MA1999999095211MD1999999+0021REMSYN070AAXX  30184 82795 32597 81407 10251 20162 39521 40138 8585/ 333 58002;
0168827950999992006053100004-07217-035883FM-12+0548SBKG V0201401N002110075019N0010001N1+02151+01861101641ADDGF106991051021008001041001KA1240M+02701MA1999999095431MD1999999-0011REMSYN088AAXX  31004 82795 32594 61404 10215 20186 39543 40164 85240 333 10270 29078 55043 59001;
0156827950999992006053112004-07217-035883FM-12+0548SBKG V0201401N003110075019N0100001N1+02301+01961101601ADDGF108991051071008001011999KA1240N+02031MA1999999095401MD1999999-0021REMSYN076AAXX  31124 82795 32597 81406 10230 20196 39540 40160 8571/ 333 20203 59002;
0182827950999992006053118004-07217-035883FM-12+0548SBKG V0201401N004612200019N0100001N1+02581+01741101431ADDAA106001091AY151061AY221061GF104991041041008001001001MA1999999095271MD1999999+0061MW1021REMSYN082AAXX  31184 82795 21597 41409 10258 20174 39527 40143 70252 84400 333 58006 69991;
0168827950999992006060100004-07217-035883FM-12+0548SBKG V0201401N002110075019N0010001N1+02151+01931101651ADDGF106991061021008001001001KA1240M+02741MA1999999095451MD1999999+0021REMSYN088AAXX  01004 82795 32594 61404 10215 20193 39545 40165 86200 333 10274 29079 55069 58002;
0173827950999992006060112004-07217-035883FM-12+0548SBKG V0201401N003110075019N0100001N1+02311+01741101791ADDAA124001091GF105991051011008001001001KA1240N+01851MA1999999095581MD1999999+0181REMSYN082AAXX  01124 82795 22597 51406 10231 20174 39558 40179 85100 333 20185 58018 69994;
0137827950999992006060118004-07217-035883FM-12+0548SBKG V0201401N004612200019N0100001N1+02611+01701101501ADDGF104991041031008001001001MA1999999095311MD1999999+0041REMSYN070AAXX  01184 82795 32597 41409 10261 20170 39531 40150 84300 333 58004;
0168827950999992006060200004-07217-035883FM-12+0548SBKG V0201401N001012200019N0010001N1+02171+01671101701ADDGF103991011041008001041011KA1240M+02681MA1999999095511MD1999999+0061REMSYN088AAXX  02004 82795 32594 31402 10217 20167 39551 40170 81441 333 10268 29068 55079 58006;
0201827950999992006060212004-07217-035883FM-12+0548SBKG V0201401N002110450019N0100001N1+02201+02061101731ADDAA124000591AY161061AY221061GF106991021021008001041011KA1240N+01931MA1999999095511MD1999999-0071MW1021REMSYN088AAXX  02124 82795 21597 61404 10220 20206 39551 40173 70262 82241 333 20193 59007 69954;
0137827950999992006060218004-07217-035883FM-12+0548SBKG V0201401N006210075019N0100001N1+02611+01921101631ADDGF105991051031008001001001MA1999999095441MD1999999+0131REMSYN070AAXX  02184 82795 32597 51412 10261 20192 39544 40163 85300 333 58013;
0168827950999992006060300004-07217-035883FM-12+0548SBKG V0201401N001510120019N0010001N1+02131+01881101801ADDGF107991071081008001001001KA1240M+02651MA1999999095581MD1999999+0071REMSYN088AAXX  03004 82795 32594 71403 10213 20188 39558 40180 87800 333 10265 29082 55047 58007;
0220827950999992006060312004-07217-035883FM-12+0548SBKG V0201401N003612200019N0100001N1+02241+02011101701ADDAA124000091AY151061AY221061GF104991031041001501021001KA1240N+01941MA1999999095481MD1999999-0101MW1021REMSYN088AAXX  03124 82795 31297 41407 10224 20201 39548 40170 70252 83420 333 20194 59010 69924;EQDQ01  00002PRCP24
0137827950999992006060318004-07217-035883FM-12+0548SBKG V0201401N004610075019N0100001N1+02631+01721101411ADDGF105991051041008001001001MA1999999095251MD1999999-0191REMSYN070AAXX  03184 82795 32597 51409 10263 20172 39525 40141 85400 333 59019;
0168827950999992006060400004-07217-035883FM-12+0548SBKG V0201401N001512200019N0010001N1+02111+01901101701ADDGF104991041021008001001001KA1240M+02781MA1999999095481MD1999999-0101REMSYN088AAXX  04004 82795 32594 41403 10211 20190 39548 40170 84200 333 10278 29077 55087 59010;
0156827950999992006060412004-07217-035883FM-12+0548SBKG V0201401N005110075019N0100001N1+02321+01741101641ADDGF108991051041008001041999KA1240N+02021MA1999999095441MD1999999-0141REMSYN076AAXX  04124 82795 32597 81410 10232 20174 39544 40164 8544/ 333 20202 59014;
0137827950999992006060418004-07217-035883FM-12+0548SBKG V0201401N003119999999N0100001N1+02391+01681101341ADDGF108991081001008001071999MA1999999095171MD1999999-0041REMSYN070AAXX  04184 82795 32597 81406 10239 20168 39517 40134 8807/ 333 59004;
0168827950999992006060500004-07217-035883FM-12+0548SBKG V0201401N001510075019N0010001N1+02121+01891101491ADDGF108991081071008001999999KA1240M+02521MA1999999095301MD1999999-0021REMSYN088AAXX  05004 82795 32594 81403 10212 20189 39530 40149 887// 333 10252 29077 55016 59002;
0201827950999992006060512004-07217-035883FM-12+0548SBKG V0201801N002110120019N0100001N1+02221+01991101551ADDAA124004191AY161061AY251061GF108991081081008001999999KA1240N+02081MA1999999095341MD1999999-0101MW1021REMSYN088AAXX  05124 82795 21597 81804 10222 20199 39534 40155 70265 888// 333 20208 59010 60044;
0201827950999992006060518004-07217-035883FM-12+0548SBKG V0201401N003110075019N0100001N1+02281+02001101291ADDAA106000091AY151061AY221061GF108991081071008001999999MA1999999095101MD1999999-0071MW1161REMSYN082AAXX  05184 82795 21597 81406 10228 20200 39510 40129 71652 887// 333 59007 69921;EQDQ01  00002PRCP06
0213827950999992006060600004-07217-035883FM-12+0548SBKG V0201401N002610075019N0010001N1+02051+01941101551ADDAA106002091AY161061AY221061GF108991081071008001999999KA1240M+02521MA1999999095331MD1999999+0031MW1021REMSYN100AAXX  06004 82795 21594 81405 10205 20194 39533 40155 70262 887// 333 10252 29089 55006 58003 60021;
0201827950999992006060612004-07217-035883FM-12+0548SBKG V0202301N001510075019N0100001N1+02321+01961101681ADDAA124002091AY151061AY221061GF106991051021008001011001KA1240N+01931MA1999999095461MD1999999+0121MW1021REMSYN088AAXX  06124 82795 21597 62303 10232 20196 39546 40168 70252 85210 333 20193 58012 60024;
0137827950999992006060618004-07217-035883FM-12+0548SBKG V0200901N001510075019N0100001N1+02621+01911101311ADDGF107991071051008001001001MA1999999095131MD1999999+0031REMSYN070AAXX  06184 82795 32597 70903 10262 20191 39513 40131 87500 333 58003;
0168827950999992006060700004-07217-035883FM-12+0548SBKG V0201401N003110075019N0010001N1+02221+02031101581ADDGF106991061051008001001001KA1240M+02701MA1999999095401MD1999999+0061REMSYN088AAXX  07004 82795 32594 61406 10222 20203 39540 40158 86500 333 10270 29081 55040 58006;
0156827950999992006060712004-07217-035883FM-12+0548SBKG V0201801N001510450019N0100001N1+02461+01991101591ADDGF107991041041008001031001KA1240N+01961MA1999999095431MD1999999-0031REMSYN076AAXX  07124 82795 32597 71803 10246 20199 39543 40159 84430 333 20196 59003;
0182827950999992006060718004-07217-035883FM-12+0548SBKG V0201401N003110450019N0100001N1+02561+02111101431ADDAA106001091AY161061AY221061GF107991041081008001051001MA1999999095371MD1999999-0131MW1021REMSYN082AAXX  07184 82795 21597 71406 10256 20211 39537 40143 70262 84850 333 59013 60011;
0168827950999992006060800004-07217-035883FM-12+0548SBKG V0201401N002110075019N0010001N1+02191+02051101561ADDGF108991081071008001999999KA1240M+02791MA1999999095391MD1999999-0051REMSYN088AAXX  08004 82795 32594 81404 10219 20205 39539 40156 887// 333 10279 29083 55050 59005;
0201827950999992006060812004-07217-035883FM-12+0548SBKG V0201801N002110120019N0100001N1+02241+01921101681ADDAA124002091AY151061AY221061GF108991081081008001999999KA1240N+01931MA1999999095481MD1999999+0051MW1021REMSYN088AAXX  08124 82795 21597 81804 10224 20192 39548 40168 70252 888// 333 20193 58005 60024;
0137827950999992006060818004-07217-035883FM-12+0548SBKG V0201401N002610450019N0100001N1+02461+01851101341ADDGF108991041051008001051999MA1999999095161MD1999999+0091REMSYN070AAXX  08184 82795 32597 81405 10246 20185 39516 40134 8455/ 333 58009;
0168827950999992006060900004-07217-035883FM-12+0548SBKG V0201401N001010450019N0010001N1+02221+02121101611ADDGF106991041071008001021001KA1240M+02561MA1999999095401MD1999999+0001REMSYN088AAXX  09004 82795 32594 61402 10222 20212 39540 40161 84720 333 10256 29083 55012 58000;
0156827950999992006060912004-07217-035883FM-12+0548SBKG V0201801N004610450019N0100001N1+02341+01831101511ADDGF106991021021008001051001KA1240N+01901MA1999999095331MD1999999-0151REMSYN076AAXX  09124 82795 32597 61809 10234 20183 39533 40151 82250 333 20190 59015;
0182827950999992006060918004-07217-035883FM-12+0548SBKG V0201401N004610075019N0100001N1+02461+01971101311ADDAA106000591AY121061AY221061GF108991081071008001999999MA1999999095121MD1999999-0041MW1211REMSYN082AAXX  09184 82795 21597 81409 10246 20197 39512 40131 72122 887// 333 59004 69951;
0168827950999992006061000004-07217-035883FM-12+0548SBKG V0201401N003110075019N0010001N1+02131+02051101511ADDGF105991051061008001001001KA1240M+02771MA1999999095321MD1999999-0131REMSYN088AAXX  10004 82795 32594 51406 10213 20205 39532 40151 85600 333 10277 29083 55063 59013;
0173827950999992006061012004-07217-035883FM-12+0548SBKG V0201401N002612200019N0100001N1+02321+02031101501ADDAA124001091GF104991041021008001001001KA1240N+01971MA1999999095311MD1999999-0021REMSYN082AAXX  10124 82795 22597 41405 10232 20203 39531 40150 84200 333 20197 59002 69994;
0137827950999992006061018004-07217-035883FM-12+0548SBKG V0201401N003110075019N0100001N1+02631+01701101141ADDGF106991061051008001001001MA1999999095001MD1999999-0121REMSYN070AAXX  10184 82795 32597 61406 10263 20170 39500 40114 86500 333 59012;
0187827950999992006061100004-07217-035883FM-12+0548SBKG V0201401N001512200019N0010001N1+02211+01991101321ADDGF103991999021999999001001KA1240M+02771MA1999999095151MD1999999+0121REMSYN088AAXX  11004 82795 32994 31403 10221 20199 39515 40132 84200 333 10277 29078 55054 58012;EQDQ01+000042SCOTLC
0175827950999992006061112004-07217-035883FM-12+0548SBKG V0200501N003119999999N0100001N1+02411+01771101381ADDGF106991999021008001001001KA1240N+01841MA1999999095211MD1999999-0101REMSYN076AAXX  11124 82795 32597 60506 10241 20177 39521 40138 83200 333 20184 59010;EQDQ01+000032SCOTLC
0165827950999992006061118004-07217-035883FM-12+0548SBKG V0201401N002110075019N0100001N1+02331+02051101171ADDAY121061AY221061GF108991081071008001999999MA1999999095211MD1999999-0031MW1161REMSYN076AAXX  11184 82795 31597 81404 10233 20205 39521 40117 71622 887// 333 59003;
0201827950999992006061212004-07217-035883FM-12+0548SBKG V0200901N001010450019N0100001N1+02561+02061101471ADDAA124053191AY161061AY251061GF106991031021008001041001KA1240N+01961MA1999999095311MD1999999+0101MW1021REMSYN088AAXX  12124 82795 21597 60902 10256 20206 39531 40147 70265 83240 333 20196 58010 60534;
0137827950999992006061218004-07217-035883FM-12+0548SBKG V0201401N002110450019N0100001N1+02681+02081101261ADDGF106991031041008001051001MA1999999095121MD1999999-0091REMSYN070AAXX  12184 82795 32597 61404 10268 20208 39512 40126 83450 333 59009;
0168827950999992006061300004-07217-035883FM-12+0548SBKG V0201401N002610075019N0010001N1+02221+02151101431ADDGF106991061021008001001001KA1240M+02771MA1999999095271MD1999999+0061REMSYN088AAXX  13004 82795 32594 61405 10222 20215 39527 40143 86200 333 10277 29053 55060 58006;
0201827950999992006061312004-07217-035883FM-12+0548SBKG V0201401N003110120019N0040001N1+02241+02091101721ADDAA124000891AY151061AY221061GF108991081081008001999999KA1240N+02111MA1999999095521MD1999999+0211MW1201REMSYN088AAXX  13124 82795 21596 81406 10224 20209 39552 40172 72052 888// 333 20211 58021 69984;
0201827950999992006061318004-07217-035883FM-12+0548SBKG V0201401N005119999999N0100001N1+02481+01851101381ADDAA106000591AY151061AY221061GF107991999021008001001001MA1999999095221MD1999999+0101MW1021REMSYN082AAXX  13184 82795 21597 71410 10248 20185 39522 40138 70252 83200 333 58010 69961;EQDQ01+000032SCOTLC
0168827950999992006061400004-07217-035883FM-12+0548SBKG V0201401N002119999999N0010001N1+02091+01761101221ADDGF105991051001008001031001KA1240M+02551MA1999999095501MD1999999+0231REMSYN088AAXX  14004 82795 32594 51404 10209 20176 39550 40122 85030 333 10255 29080 55030 58023;
0173827950999992006061412004-07217-035883FM-12+0548SBKG V0201401N005710075019N0100001N1+02281+01791101691ADDAA124000591GF107991051051008001051021KA1240N+01951MA1999999095471MD1999999-0051REMSYN082AAXX  14124 82795 22597 71411 10228 20179 39547 40169 85552 333 20195 59005 69964;
0137827950999992006061418004-07217-035883FM-12+0548SBKG V0201401N006212200019N0100001N1+02641+01751101401ADDGF106991031021008001001041MA1999999095331MD1999999+0111REMSYN070AAXX  14184 82795 32597 61412 10264 20175 39533 40140 83204 333 58011;
0213827950999992006061500004-07217-035883FM-12+0548SBKG V0201401N002110075019N0010001N1+02051+01971101671ADDAA106000391AY151061AY221061GF106991061071008001001001KA1240M+02681MA1999999095451MD1999999-0051MW1021REMSYN100AAXX  15004 82795 21594 61404 10205 20197 39545 40167 70252 86700 333 10268 29082 55003 59005 69931;
0173827950999992006061512004-07217-035883FM-12+0548SBKG V0201401N001510075019N0100001N1+02221+01841101621ADDAA124000391GF108991081071008001999999KA1240N+01931MA1999999095401MD1999999-0071REMSYN082AAXX  15124 82795 22597 81403 10222 20184 39540 40162 887// 333 20193 59007 69934;
0165827950999992006061518004-07217-035883FM-12+0548SBKG V0201401N003110075019N0100001N1+02651+01901101401ADDAY121061AY221061GF108991071071008001999999MA1999999095231MD1999999-0101MW1161REMSYN076AAXX  15184 82795 31597 81406 10265 20190 39523 40140 71622 877// 333 59010;
0213827950999992006061600004-07217-035883FM-12+0548SBKG V0201401N002110075019N0010001N1+02121+02021101701ADDAA106004191AY161061AY221061GF108991081071008001999999KA1240M+02681MA1999999095451MD1999999+0031MW1021REMSYN100AAXX  16004 82795 21594 81404 10212 20202 39545 40170 70262 887// 333 10268 29083 55044 58003 60041;
0220827950999992006061612004-07217-035883FM-12+0548SBKG V0201401N003619999999N0010001N1+02271+02031101681ADDAA124006191AY161061AY221061GF106991999081008001001001KA1240N+02031MA1999999095481MD1999999+0081MW1021REMSYN088AAXX  16124 82795 21594 61407 10227 20203 39548 40168 70262 84800 333 20203 58008 60064;EQDQ01+000042SCOTLC
0137827950999992006061618004-07217-035883FM-12+0548SBKG V0201401N004612200019N0100001N1+02761+01621101501ADDGF102991021031008001001001MA1999999095341MD1999999+0111REMSYN070AAXX  16184 82795 32597 21409 10276 20162 39534 40150 82300 333 58011;
0168827950999992006061700004-07217-035883FM-12+0548SBKG V0201401N001512200019N0010001N1+02101+01861101651ADDGF102991021011008001001001KA1240M+02781MA1999999095531MD1999999+0051REMSYN088AAXX  17004 82795 32594 21403 10210 20186 39553 40165 82100 333 10278 29080 55074 58005;
0175827950999992006061712004-07217-035883FM-12+0548SBKG V0201401N002612200019N0100001N1+02321+01851101651ADDGF104991999021008001001001KA1240N+01851MA1999999095451MD1999999-0031REMSYN076AAXX  17124 82795 32597 41405 10232 20185 39545 40165 81200 333 20185 59003;EQDQ01+000012SCOTLC
0137827950999992006061718004-07217-035883FM-12+0548SBKG V0201401N001019999999N0100001N1+02551+01951101511ADDGF108991081001008001071001MA1999999095331MD1999999-0011REMSYN070AAXX  17184 82795 32597 81402 10255 20195 39533 40151 88070 333 59001;
0168827950999992006061800004-07217-035883FM-12+0548SBKG V0201401N003110075019N0010001N1+02191+01991101511ADDGF105991051041008001001001KA1240M+02681MA1999999095531MD1999999+0051REMSYN088AAXX  18004 82795 32594 51406 10219 20199 39553 40151 85400 333 10268 29082 55044 58005;
0201827950999992006061812004-07217-035883FM-12+0548SBKG V0201401N004110075019N0100001N1+02261+01901101701ADDAA124005191AY161061AY221061GF105991051041008001001001KA1240N+02031MA1999999095511MD1999999+0031MW1021REMSYN088AAXX  18124 82795 21597 51408 10226 20190 39551 40170 70262 85400 333 20203 58003 60054;
0182827950999992006061818004-07217-035883FM-12+0548SBKG V0201401N003110450019N0100001N1+02411+02111101511ADDAA106004191AY161061AY221061GF105991031041008001021001MA1999999095331MD1999999-0011MW1021REMSYN082AAXX  18184 82795 21597 51406 10241 20211 39533 40151 70262 83420 333 59001 60041;
0213827950999992006061900004-07217-035883FM-12+0548SBKG V0201401N003112200019N0010001N1+02091+01931101611ADDAA106000391AY151061AY221061GF104991041061008001001001KA1240M+02571MA1999999095401MD1999999-0081MW1021REMSYN100AAXX  19004 82795 21594 41406 10209 20193 39540 40161 70252 84600 333 10257 29086 55047 59008 69931;
0201827950999992006061912004-07217-035883FM-12+0548SBKG V0201401N004610075019N0100001N1+02241+01861101761ADDAA124009991AY151061AY221061GF105991051021008001001001KA1240N+01881MA1999999095541MD1999999+0031MW1021REMSYN088AAXX  19124 82795 21597 51409 10224 20186 39554 40176 70252 85200 333 20188 58003 60104;
0137827950999992006061918004-07217-035883FM-12+0548SBKG V0201401N005712200019N0100001N1+02581+01741101461ADDGF104991041021008001001001MA1999999095281MD1999999-0051REMSYN070AAXX  19184 82795 32597 41411 10258 20174 39528 40146 84200 333 59005;
0168827950999992006062000004-07217-035883FM-12+0548SBKG V0201401N003112200019N0010001N1+02021+01761101791ADDGF103991031021008001001001KA1240M+02671MA1999999095551MD1999999+0151REMSYN088AAXX  20004 82795 32594 31406 10202 20176 39555 40179 83200 333 10267 29077 55070 58015;
0156827950999992006062012004-07217-035883FM-12+0548SBKG V0201401N006710450019N0100001N1+02281+01771101821ADDGF106991041041008001021001KA1240N+01931MA1999999095601MD1999999+0061REMSYN076AAXX  20124 82795 32597 61413 10228 20177 39560 40182 84420 333 20193 58006;
0137827950999992006062018004-07217-035883FM-12+0548SBKG V0201401N004110450019N0100001N1+02621+01641101501ADDGF106991031021008001031011MA1999999095331MD1999999+0051REMSYN070AAXX  20184 82795 32597 61408 10262 20164 39533 40150 83231 333 58005;
0168827950999992006062100004-07217-035883FM-12+0548SBKG V0201401N003110075019N0010001N1+02111+01781101721ADDGF106991061071008001001001KA1240M+02651MA1999999095521MD1999999-0031REMSYN088AAXX  21004 82795 32594 61406 10211 20178 39552 40172 86700 333 10265 29073 55094 59003;
0201827950999992006062112004-07217-035883FM-12+0548SBKG V0201401N003110075019N0040001N1+02141+02061101821ADDAA124001091AY151061AY221061GF108991081071008001999999KA1240N+02001MA1999999095581MD1999999-0021MW1211REMSYN088AAXX  21124 82795 21596 81406 10214 20206 39558 40182 72152 887// 333 20200 59002 60014;
0182827950999992006062118004-07217-035883FM-12+0548SBKG V0201401N003110042019N0020001N1+02181+02131101581ADDAA106003091AY151061AY221061GF108991081071004501999999MA1999999095361MD1999999+0031MW1501REMSYN082AAXX  21184 82795 21495 81406 10218 20213 39536 40158 75052 887// 333 58003 60031;
0213827950999992006062200004-07217-035883FM-12+0548SBKG V0201401N002110075019N0010001N1+01981+01931101851ADDAA106038191AY161061AY251061GF108991081071008001999999KA1240M+02361MA1999999095591MD1999999+0071MW1511REMSYN100AAXX  22004 82795 21594 81404 10198 20193 39559 40185 75165 887// 333 10236 29096 55000 58007 60381;
0201827950999992006062212004-07217-035883FM-12+0548SBKG V0201401N003110075019N0020001N1+02101+01961101951ADDAA124041991AY161061AY251061GF108991081071008001999999KA1240N+01921MA1999999095691MD1999999+0111MW1501REMSYN088AAXX  22124 82795 21595 81406 10210 20196 39569 40195 75065 887// 333 20192 58011 60424;
0182827950999992006062218004-07217-035883FM-12+0548SBKG V0201401N005710075019N0100001N1+02521+01821101461ADDAA106000591AY151061AY221061GF106991061041008001001001MA1999999095281MD1999999-0081MW1021REMSYN082AAXX  22184 82795 21597 61411 10252 20182 39528 40146 70252 86400 333 59008 69961;
0187827950999992006062300004-07217-035883FM-12+0548SBKG V0201401N002119999999N0010001N1+01981+01931101761ADDGF106991999071008001999999KA1240M+02541MA1999999095521MD1999999-0031REMSYN088AAXX  23004 82795 32594 61404 10198 20193 39552 40176 887// 333 10254 29084 55016 59003;EQDQ01+000082SCOTLC
0220827950999992006062312004-07217-035883FM-12+0548SBKG V0201401N005110075019N0100001N1+02221+02011101781ADDAA124004191AY161061AY251061GF106991061021008001001001KA1240N+01881MA1999999999999MD1999999-0151MW1021REMSYN088AAXX  23124 82795 21597 61410 10222 20201 39775 40178 70265 86200 333 20188 59015 60044;EQDQ01 097753APOSP 
0201827950999992006062318004-07217-035883FM-12+0548SBKG V0201401N003110120019N0100001N1+02201+02101101511ADDAA106001091AY161061AY221061GF105991051081008001001001MA1999999095282MD1999999+0001MW1021REMSYN082AAXX  23184 82795 21597 51406 10220 20210 39528 40151 70262 85800 333 58000 60011;EQDQ01+095283APOSP 
0168827950999992006062400004-07217-035883FM-12+0548SBKG V0201401N001512200019N0010001N1+02061+01911101511ADDGF104991041051008001001001KA1240M+02471MA1999999095321MD1999999-0101REMSYN088AAXX  24004 82795 32594 41403 10206 20191 39532 40151 84500 333 10247 29090 55037 59010;
0173827950999992006062412004-07217-035883FM-12+0548SBKG V0201401N004110450019N0100001N1+02271+01881101701ADDAA124001091GF106991041041008001051001KA1240N+01941MA1999999095481MD1999999-0061REMSYN082AAXX  24124 82795 22597 61408 10227 20188 39548 40170 84450 333 20194 59006 60014;
0182827950999992006062418004-07217-035883FM-12+0548SBKG V0201401N004110075019N0100001N1+02081+02031101501ADDAA106006191AY161061AY251061GF108991081071008001999999MA1999999095271MD1999999-0271MW1501REMSYN082AAXX  24184 82795 21597 81408 10208 20203 39527 40150 75065 887// 333 59027 60061;
0213827950999992006062500004-07217-035883FM-12+0548SBKG V0201401N002110075019N0010001N1+01971+01831101771ADDAA106004191AY161061AY251061GF108991081071008001999999KA1240M+02401MA1999999095531MD1999999+0101MW1501REMSYN100AAXX  25004 82795 21594 81404 10197 20183 39553 40177 75065 887// 333 10240 29092 55044 58010 60041;
0201827950999992006062512004-07217-035883FM-12+0548SBKG V0201401N003110075019N0100001N1+02081+01881101821ADDAA124018091AY161061AY221061GF108991081071008001999999KA1240N+01941MA1999999095561MD1999999+0081MW1021REMSYN088AAXX  25124 82795 21597 81406 10208 20188 39556 40182 70262 887// 333 20194 58008 60184;
0182827950999992006062518004-07217-035883FM-12+0548SBKG V0201401N004110075019N0100001N1+02031+01891101611ADDAA106001091AY161061AY221061GF108991081071008001999999MA1999999095361MD1999999+0091MW1021REMSYN082AAXX  25184 82795 21597 81408 10203 20189 39536 40161 70262 887// 333 58009 60011;
0213827950999992006062600004-07217-035883FM-12+0548SBKG V0201401N003110075019N0010001N1+02081+01961101731ADDAA106002091AY161061AY221061GF108991081071008001999999KA1240M+02311MA1999999095491MD1999999-0041MW1021REMSYN100AAXX  26004 82795 21594 81406 10208 20196 39549 40173 70262 887// 333 10231 29092 55005 59004 60021;
0201827950999992006062612004-07217-035883FM-12+0548SBKG V0201401N003110075019N0040001N1+02221+02031101861ADDAA124004191AY161061AY251061GF108991081071008001999999KA1240N+01941MA1999999095631MD1999999+0071MW1151REMSYN088AAXX  26124 82795 21596 81406 10222 20203 39563 40186 71565 887// 333 20194 58007 60044;
0182827950999992006062618004-07217-035883FM-12+0548SBKG V0201401N003610450019N0100001N1+02381+01991101591ADDAA106000891AY151061AY221061GF106991041031008001031001MA1999999095381MD1999999+0021MW1021REMSYN082AAXX  26184 82795 21597 61407 10238 20199 39538 40159 70252 84330 333 58002 69981;
0168827950999992006062700004-07217-035883FM-12+0548SBKG V0200501N003110075019N0010001N1+02101+01911101821ADDGF105991051061008001001001KA1240M+02541MA1999999095601MD1999999+0111REMSYN088AAXX  27004 82795 32594 50506 10210 20191 39560 40182 85600 333 10254 29087 55033 58011;
0173827950999992006062712004-07217-035883FM-12+0548SBKG V0201401N001510075019N0100001N1+02261+01991101941ADDAA124000891GF108991081051008001999999KA1240N+02001MA1999999095711MD1999999+0081REMSYN082AAXX  27124 82795 22597 81403 10226 20199 39571 40194 885// 333 20200 58008 69984;
0201827950999992006062718004-07217-035883FM-12+0548SBKG V0201401N003119999999N0100001N1+02321+02021101781ADDAA106005191AY161061AY221061GF107991999021008001001001MA1999999095561MD1999999+0181MW1021REMSYN082AAXX  27184 82795 21597 71406 10232 20202 39556 40178 70262 84200 333 58018 60051;EQDQ01+000042SCOTLC
0168827950999992006062800004-07217-035883FM-12+0548SBKG V0201401N002110075019N0010001N1+02131+01951101891ADDGF106991061041008001001001KA1240M+02421MA1999999095671MD1999999+0031REMSYN088AAXX  28004 82795 32594 61404 10213 20195 39567 40189 86400 333 10242 29087 55001 58003;
0173827950999992006062812004-07217-035883FM-12+0548SBKG V0201401N001510075019N0100001N1+02261+02011102041ADDAA124005191GF108991061051008001031001KA1240N+02021MA1999999095821MD1999999+0111REMSYN082AAXX  28124 82795 22597 81403 10226 20201 39582 40204 86530 333 20202 58011 60054;
0182827950999992006062818004-07217-035883FM-12+0548SBKG V0201401N001510075019N0100001N1+02241+02121101751ADDAA106010991AY161061AY261061GF108991081071008001999999MA1999999095531MD1999999-0031MW1631REMSYN082AAXX  28184 82795 21597 81403 10224 20212 39553 40175 76366 887// 333 59003 60111;
0178827950999992006062900004-07217-035883FM-12+0548SBKG V0201401N001512200019N0010001N1+02081+01881101911ADDGA1001+999999999GF100991001001999999001001KA1240M+02581MA1999999095721MD1999999+0051REMSYN082AAXX  29004 82795 32594 01403 10208 20188 39572 40191 333 10258 29089 55042 58005;
0156827950999992006063012004-07217-035883FM-12+0548SBKG V0201401N003110075019N0100001N1+02301+01941101991ADDGF107991071021008001001001KA1240N+01851MA1999999095761MD1999999+0041REMSYN076AAXX  30124 82795 32597 71406 10230 20194 39576 40199 87200 333 20185 58004;
0137827950999992006063018004-07217-035883FM-12+0548SBKG V0201401N007212200019N0100001N1+02561+01921101651ADDGF104991041021008001001001MA1999999095451MD1999999+0021REMSYN070AAXX  30184 82795 32597 41414 10256 20192 39545 40165 84200 333 58002;
0168827950999992006070100004-07217-035883FM-12+0548SBKG V0201401N003112200019N0010001N1+02021+01811101961ADDGF102991021011008001001001KA1240M+02691MA1999999095731MD1999999+0141REMSYN088AAXX  01004 82795 32594 21406 10202 20181 39573 40196 82100 333 10269 29075 55084 58014;
0201827950999992006070112004-07217-035883FM-12+0548SBKG V0201401N004610075019N0100001N1+02021+01951102021ADDAA124000591AY151061AY221061GF108991081071008001999999KA1240N+02031MA1999999095741MD1999999-0021MW1501REMSYN088AAXX  01124 82795 21597 81409 10202 20195 39574 40202 75052 887// 333 20203 59002 69944;
0137827950999992006070118004-07217-035883FM-12+0548SBKG V0201801N005112200019N0100001N1+02591+01631101631ADDGF101991011021008001001001MA1999999095551MD1999999+0101REMSYN070AAXX  01184 82795 32597 11810 10259 20163 39555 40163 81200 333 58010;
0168827950999992006070200004-07217-035883FM-12+0548SBKG V0201401N003110075019N0010001N1+02041+01701101841ADDGF106991061051008001001001KA1240M+02661MA1999999095671MD1999999-0061REMSYN088AAXX  02004 82795 32594 61406 10204 20170 39567 40184 86500 333 10266 29078 55072 59006;
0156827950999992006070212004-07217-035883FM-12+0548SBKG V0201401N003610450019N0100001N1+02221+01781101941ADDGF107991041041008001021001KA1240N+01881MA1999999095701MD1999999-0041REMSYN076AAXX  02124 82795 32597 71407 10222 20178 39570 40194 84420 333 20188 59004;
0156827950999992006070218004-07217-035883FM-12+0548SBKG V0201401N004612200019N0100001N1+02601+01741101571ADDGF102991999021008001001001MA1999999095401MD1999999-0151REMSYN070AAXX  02184 82795 32597 21409 10260 20174 39540 40157 83200 333 59015;EQDQ01+000032SCOTLC
0168827950999992006070300004-07217-035883FM-12+0548SBKG V0201401N003112200019N0010001N1+02011+01831101781ADDGF103991031021008001001001KA1240M+02681MA1999999095601MD1999999-0071REMSYN088AAXX  03004 82795 32594 31406 10201 20183 39560 40178 83200 333 10268 29078 55079 59007;
0156827950999992006070312004-07217-035883FM-12+0548SBKG V0201401N003110450019N0100001N1+02241+01801101931ADDGF106991041021008001021001KA1240N+01881MA1999999095701MD1999999+0001REMSYN076AAXX  03124 82795 32597 61406 10224 20180 39570 40193 84220 333 20188 58000;
0137827950999992006070318004-07217-035883FM-12+0548SBKG V0201401N004612200019N0100001N1+02621+01641101581ADDGF103991031021008001001001MA1999999095411MD1999999+0011REMSYN070AAXX  03184 82795 32597 31409 10262 20164 39541 40158 83200 333 58001;
0168827950999992006070400004-07217-035883FM-12+0548SBKG V0201401N003110450019N0010001N1+02041+01801101931ADDGF105991031021008001061001KA1240M+02631MA1999999095701MD1999999+0011REMSYN088AAXX  04004 82795 32594 51406 10204 20180 39570 40193 83260 333 10263 29076 55089 58001;
0156827950999992006070412004-07217-035883FM-12+0548SBKG V0201401N003110075019N0100001N1+02381+01801102001ADDGF106991061041008001001001KA1240N+01901MA1999999095781MD1999999+0071REMSYN076AAXX  04124 82795 32597 61406 10238 20180 39578 40200 86400 333 20190 58007;
0137827950999992006070418004-07217-035883FM-12+0548SBKG V0201401N003112200019N0100001N1+02621+01961101641ADDGF104991041041008001001001MA1999999095471MD1999999+0061REMSYN070AAXX  04184 82795 32597 41406 10262 20196 39547 40164 84400 333 58006;
0168827950999992006070500004-07217-035883FM-12+0548SBKG V0201401N002112200019N0010001N1+02041+01721101811ADDGF103991031051008001001001KA1240M+02661MA1999999095601MD1999999+0101REMSYN088AAXX  05004 82795 32594 31404 10204 20172 39560 40181 83500 333 10266 29072 55081 58010;
0156827950999992006070512004-07217-035883FM-12+0548SBKG V0201801N002112200019N0100001N1+02221+01731101931ADDGF103991021011008001001011KA1240N+01851MA1999999095691MD1999999-0091REMSYN076AAXX  05124 82795 32597 31804 10222 20173 39569 40193 82101 333 20185 59009;
0137827950999992006070518004-07217-035883FM-12+0548SBKG V0201401N003111050019N0100001N1+02681+01921101581ADDGF105991031041008001001021MA1999999095411MD1999999-0061REMSYN070AAXX  05184 82795 32597 51406 10268 20192 39541 40158 83402 333 59006;
0168827950999992006070600004-07217-035883FM-12+0548SBKG V0201401N002610075019N0010001N1+02211+01971101871ADDGF106991061021008001001001KA1240M+02721MA1999999095651MD1999999+0051REMSYN088AAXX  06004 82795 32594 61405 10221 20197 39565 40187 86200 333 10272 29078 55093 58005;
0201827950999992006070612004-07217-035883FM-12+0548SBKG V0201401N003110042019N0100001N1+02111+02001101981ADDAA124003091AY161061AY221061GF108991061071004501011999KA1240N+01961MA1999999095741MD1999999+0051MW1501REMSYN088AAXX  06124 82795 21497 81406 10211 20200 39574 40198 75062 8671/ 333 20196 58005 60034;
0165827950999992006070618004-07217-035883FM-12+0548SBKG V0201401N003110075019N0100001N1+02441+01951101721ADDAY121061AY221061GF108991081071008001999999MA1999999095521MD1999999+0111MW1141REMSYN076AAXX  06184 82795 31597 81406 10244 20195 39552 40172 71422 887// 333 58011;
0213827950999992006070700004-07217-035883FM-12+0548SBKG V0201401N002110075019N0010001N1+02121+02041102021ADDAA106000591AY151061AY221061GF107991071061008001001001KA1240M+02551MA1999999095771MD1999999+0121MW1011REMSYN100AAXX  07004 82795 21594 71404 10212 20204 39577 40202 70152 87600 333 10255 29089 55022 58012 69951;
0173827950999992006070712004-07217-035883FM-12+0548SBKG V0201401N003110075019N0100001N1+02291+01921101931ADDAA124000591GF106991061021008001001001KA1240N+01901MA1999999095711MD1999999-0031REMSYN082AAXX  07124 82795 22597 61406 10229 20192 39571 40193 86200 333 20190 59003 69954;
0137827950999992006070718004-07217-035883FM-12+0548SBKG V0201401N003112200019N0100001N1+02681+02041101561ADDGF104991041021008001001001MA1999999095391MD1999999-0131REMSYN070AAXX  07184 82795 32597 41406 10268 20204 39539 40156 84200 333 59013;
0168827950999992006070800004-07217-035883FM-12+0548SBKG V0201401N002610075019N0010001N1+02231+01991101901ADDGF106991061021008001001001KA1240M+02721MA1999999095701MD1999999-0071REMSYN088AAXX  08004 82795 32594 61405 10223 20199 39570 40190 86200 333 10272 29080 55091 59007;
0156827950999992006070812004-07217-035883FM-12+0548SBKG V0201801N003110075019N0100001N1+02151+01861101871ADDGF106991061061008001001001KA1240N+01961MA1999999095651MD1999999-0061REMSYN076AAXX  08124 82795 32597 61806 10215 20186 39565 40187 86600 333 20196 59006;
0137827950999992006070818004-07217-035883FM-12+0548SBKG V0201801N003610075019N0100001N1+02471+01881101501ADDGF107991071061008001001001MA1999999095311MD1999999-0081REMSYN070AAXX  08184 82795 32597 71807 10247 20188 39531 40150 87600 333 59008;
0168827950999992006070900004-07217-035883FM-12+0548SBKG V0201801N002610075019N0010001N1+02121+01931101761ADDGF107991071061008001001001KA1240M+02521MA1999999095541MD1999999-0161REMSYN088AAXX  09004 82795 32594 71805 10212 20193 39554 40176 87600 333 10252 29083 55009 59016;
0182827950999992006070918004-07217-035883FM-12+0548SBKG V0201401N003610075019N0100001N1+02471+01851101501ADDAA106002091AY161061AY221061GF107991051021008001061001MA1999999095311MD1999999+0001MW1021REMSYN082AAXX  09184 82795 21597 71407 10247 20185 39531 40150 70262 85260 333 58000 60021;
0178827950999992006071000004-07217-035883FM-12+0548SBKG V0201401N003112200019N0010001N1+02041+01831101781ADDGA1001+999999999GF100991001001999999001001KA1240M+02531MA1999999095541MD1999999+0001REMSYN082AAXX  10004 82795 32994 01406 10204 20183 39554 40178 333 10253 29083 55013 58000;
0173827950999992006071012004-07217-035883FM-12+0548SBKG V0201401N003610075019N0100001N1+02181+01861101831ADDAA124002091GF106991061021008001001001KA1240N+01851MA1999999095591MD1999999+0011REMSYN082AAXX  10124 82795 22597 61407 10218 20186 39559 40183 86200 333 20185 58001 60024;
0137827950999992006071018004-07217-035883FM-12+0548SBKG V0201401N003119999999N0100001N1+02331+01851101581ADDGF108991081001008001071999MA1999999095341MD1999999+0031REMSYN070AAXX  10184 82795 32597 81406 10233 20185 39534 40158 8807/ 333 58003;
0168827950999992006071100004-07217-035883FM-12+0548SBKG V0201401N002610120019N0010001N1+02131+01801101791ADDGF107991071001012501071001KA1240M+02591MA1999999095571MD1999999+0031REMSYN088AAXX  11004 82795 32694 71405 10213 20180 39557 40179 87070 333 10259 29080 55037 58003;
0201827950999992006071112004-07217-035883FM-12+0548SBKG V0201401N003110075019N0040001N1+02061+01981101751ADDAA124000021AY161061AY221061GF108991051071008001021001KA1240N+01951MA1999999095521MD1999999-0071MW1501REMSYN088AAXX  11124 82795 21596 81406 10206 20198 39552 40175 75062 85720 333 20195 59007 69924;
0182827950999992006071118004-07217-035883FM-12+0548SBKG V0201401N003110075019N0040001N1+02111+02021101671ADDAA106003091AY161061AY261061GF108991081071008001999999MA1999999095421MD1999999+0081MW1601REMSYN082AAXX  11184 82795 21596 81406 10211 20202 39542 40167 76066 887// 333 58008 60031;
0213827950999992006071200004-07217-035883FM-12+0548SBKG V0201401N001510075019N0010001N1+02081+01961101801ADDAA106003091AY161061AY261061GF108991081071008001999999KA1240M+02311MA1999999095551MD1999999-0021MW1501REMSYN100AAXX  12004 82795 21594 81403 10208 20196 39555 40180 75066 887// 333 10231 29094 55000 59002 60031;
0201827950999992006071212004-07217-035883FM-12+0548SBKG V0200901N004610075019N0100001N1+02201+02031101811ADDAA124010991AY161061AY221061GF108991081071008001999999KA1240N+02001MA1999999095571MD1999999+0051MW1021REMSYN088AAXX  12124 82795 21597 80909 10220 20203 39557 40181 70262 887// 333 20200 58005 60114;
0168827950999992006071300004-07217-035883FM-12+0548SBKG V0201401N003610450019N0010001N1+02111+01891101811ADDGF106991021021008001081001KA1240M+02581MA1999999095591MD1999999+0041REMSYN088AAXX  13004 82795 32594 61407 10211 20189 39559 40181 82280 333 10258 29083 55063 58004;
0201827950999992006071312004-07217-035883FM-12+0548SBKG V0200901N004610042019N0020001N1+02001+01931101821ADDAA124003091AY161061AY251061GF108991061071004501021999KA1240N+01911MA1999999095581MD1999999+0011MW1511REMSYN088AAXX  13124 82795 21495 80909 10200 20193 39558 40182 75165 8672/ 333 20191 58001 60034;
0182827950999992006071318004-07217-035883FM-12+0548SBKG V0201401N003112200019N0100001N1+02521+01581101501ADDAA106000591AY151061AY221061GF104991041021008001001001MA1999999095321MD1999999+0011MW1021REMSYN082AAXX  13184 82795 21597 41406 10252 20158 39532 40150 70252 84200 333 58001 69951;
0178827950999992006071400004-07217-035883FM-12+0548SBKG V0201401N002612200019N0010001N1+01971+01721101861ADDGA1001+999999999GF100991001001999999001001KA1240M+02541MA1999999095581MD1999999-0011REMSYN082AAXX  14004 82795 32994 01405 10197 20172 39558 40186 333 10254 29080 55045 59001;
0201827950999992006071412004-07217-035883FM-12+0548SBKG V0201401N003610075019N0100001N1+02051+01831101801ADDAA124000891AY161061AY221061GF107991071071008001001001KA1240N+01781MA1999999095541MD1999999-0041MW1021REMSYN088AAXX  14124 82795 21597 71407 10205 20183 39554 40180 70262 87700 333 20178 59004 69984;
0137827950999992006071418004-07217-035883FM-12+0548SBKG V0201401N003112200019N0100001N1+02621+01431101481ADDGF101991011011008001001001MA1999999095291MD1999999-0031REMSYN070AAXX  14184 82795 32597 11406 10262 20143 39529 40148 81100 333 59003;
0168827950999992006071500004-07217-035883FM-12+0548SBKG V0201401N001010075019N0010001N1+02151+01721101741ADDGF106991051021008001041001KA1240M+02651MA1999999095511MD1999999-0071REMSYN088AAXX  15004 82795 32594 61402 10215 20172 39551 40174 85240 333 10265 29072 55077 59007;
0156827950999992006071512004-07217-035883FM-12+0548SBKG V0201801N003110075019N0100001N1+02121+01861101841ADDGF106991061061008001001001KA1240N+01801MA1999999095601MD1999999+0061REMSYN076AAXX  15124 82795 32597 61806 10212 20186 39560 40184 86600 333 20180 58006;
0182827950999992006071518004-07217-035883FM-12+0548SBKG V0200901N002610450019N0100001N1+02531+01981101571ADDAA106001091AY161061AY221061GF106991031021008001081001MA1999999095371MD1999999+0081MW1021REMSYN082AAXX  15184 82795 21597 60905 10253 20198 39537 40157 70262 83280 333 58008 69991;
0168827950999992006071600004-07217-035883FM-12+0548SBKG V0200901N001510450019N0010001N1+02151+01901101761ADDGF106991021021008001051001KA1240M+02551MA1999999095541MD1999999+0031REMSYN088AAXX  16004 82795 32594 60903 10215 20190 39554 40176 82250 333 10255 29082 55034 58003;
0173827950999992006071612004-07217-035883FM-12+0548SBKG V0201401N003110075019N0100001N1+02271+01881101751ADDAA124001091GF106991061021008001001001KA1240N+01931MA1999999095541MD1999999-0061REMSYN082AAXX  16124 82795 22597 61406 10227 20188 39554 40175 86200 333 20193 59006 69994;
0137827950999992006071618004-07217-035883FM-12+0548SBKG V0200901N002612200019N0100001N1+02711+01901101441ADDGF104991041021008001001001MA1999999095281MD1999999-0091REMSYN070AAXX  16184 82795 32597 40905 10271 20190 39528 40144 84200 333 59009;
0213827950999992006071700004-07217-035883FM-12+0548SBKG V0200901N003110075019N0010001N1+02191+02101101751ADDAA106003091AY161061AY221061GF108991081061008001999999KA1240M+02741MA1999999095541MD1999999+0001MW1021REMSYN100AAXX  17004 82795 21594 80906 10219 20210 39554 40175 70262 886// 333 10274 29082 55079 58000 60031;
0201827950999992006071712004-07217-035883FM-12+0548SBKG V0201401N003610075019N0100001N1+02121+01971101931ADDAA124004191AY161061AY221061GF108991061071008001011999KA1240N+02001MA1999999095691MD1999999+0151MW1021REMSYN088AAXX  17124 82795 21597 81407 10212 20197 39569 40193 70262 8671/ 333 20200 58015 60044;
0176827950999992006071718004-07217-035883FM-12+0548SBKG V0201401N003619999999N0040001N1+02061+01801101851ADDAA106008991AY161061AY251061GF108991999999008001999999MA1999999095431MD1999999+0151MW1501REMSYN076AAXX  17184 82795 21596 81407 10206 20180 39543 40185 75065 333 58015 60091;
0213827950999992006071800004-07217-035883FM-12+0548SBKG V0201401N002610075019N0010001N1+02031+01781101861ADDAA106000591AY161061AY251061GF108991081061008001999999KA1240M+02531MA1999999095611MD1999999+0071MW1021REMSYN100AAXX  18004 82795 21594 81405 10203 20178 39561 40186 70265 886// 333 10253 29088 55010 58007 69961;
0201827950999992006071812004-07217-035883FM-12+0548SBKG V0201401N003610042019N0020001N1+02001+01881101861ADDAA124010991AY161061AY251061GF108991051071004501021999KA1240N+01851MA1999999095601MD1999999-0091MW1521REMSYN088AAXX  18124 82795 21495 81407 10200 20188 39560 40186 75265 8572/ 333 20185 59009 60114;
0182827950999992006071818004-07217-035883FM-12+0548SBKG V0201401N005112200019N0100001N1+02481+01751101481ADDAA106000591AY151061AY221061GF104991021021008001031001MA1999999095291MD1999999-0141MW1021REMSYN082AAXX  18184 82795 21597 41410 10248 20175 39529 40148 70252 82230 333 59014 69951;
0168827950999992006071900004-07217-035883FM-12+0548SBKG V0201401N002112200019N0100001N1+02011+01781101811ADDGF102991021011008001001001KA1240M+02551MA1999999095551MD1999999-0061REMSYN088AAXX  19004 82795 32597 21404 10201 20178 39555 40181 82100 333 10255 29083 55051 59006;
0173827950999992006071912004-07217-035883FM-12+0548SBKG V0201801N003610075019N0100001N1+02071+01721102001ADDAA124000591GF106991061021008001001001KA1240N+01661MA1999999095641MD1999999+0041REMSYN082AAXX  19124 82795 22597 61807 10207 20172 39564 40200 86200 333 20166 58004 69954;
0137827950999992006071918004-07217-035883FM-12+0548SBKG V0201401N003112200019N0100001N1+02491+01781101531ADDGF104991041081008001001001MA1999999095311MD1999999+0021REMSYN070AAXX  19184 82795 32597 41406 10249 20178 39531 40153 84800 333 58002;
0168827950999992006072000004-07217-035883FM-12+0548SBKG V0200901N002612200019N0010001N1+02101+01861101871ADDGF102991021011008001001001KA1240M+02551MA1999999095621MD1999999+0071REMSYN088AAXX  20004 82795 32594 20905 10210 20186 39562 40187 82100 333 10255 29080 55056 58007;
0156827950999992006072012004-07217-035883FM-12+0548SBKG V0201801N003112200019N0100001N1+02131+01801101991ADDGF106991041021008001001011KA1240N+01711MA1999999095741MD1999999+0101REMSYN076AAXX  20124 82795 32597 61806 10213 20180 39574 40199 84201 333 20171 58010;
0137827950999992006072018004-07217-035883FM-12+0548SBKG V0201401N002612200019N0100001N1+02681+01701101531ADDGF103991031021008001001001MA1999999095351MD1999999+0041REMSYN070AAXX  20184 82795 32597 31405 10268 20170 39535 40153 83200 333 58004;
0178827950999992006072100004-07217-035883FM-12+0548SBKG V0200901N003112200019N0010001N1+02121+01881101881ADDGA1001+999999999GF100991001001999999001001KA1240M+02721MA1999999095641MD1999999+0021REMSYN082AAXX  21004 82795 32994 00906 10212 20188 39564 40188 333 10272 29077 55096 58002;
0156827950999992006072112004-07217-035883FM-12+0548SBKG V0201401N003110075019N0100001N1+02231+01761101991ADDGF105991051011008001001001KA1240N+01781MA1999999095751MD1999999+0011REMSYN076AAXX  21124 82795 32597 51406 10223 20176 39575 40199 85100 333 20178 58001;
0137827950999992006072118004-07217-035883FM-12+0548SBKG V0201401N004612200019N0100001N1+02621+01561101621ADDGF103991031021008001001001MA1999999095441MD1999999-0041REMSYN070AAXX  21184 82795 32597 31409 10262 20156 39544 40162 83200 333 59004;
0178827950999992006072200004-07217-035883FM-12+0548SBKG V0201401N002612200019N0010001N1+02091+01681101881ADDGA1001+999999999GF100991001001999999001001KA1240M+02691MA1999999095651MD1999999+0011REMSYN082AAXX  22004 82795 32994 01405 10209 20168 39565 40188 333 10269 29071 55100 58001;
0156827950999992006072212004-07217-035883FM-12+0548SBKG V0201801N004612200019N0100001N1+02141+01641101851ADDGF101991011011008001001001KA1240N+01731MA1999999095611MD1999999-0141REMSYN076AAXX  22124 82795 32597 11809 10214 20164 39561 40185 81100 333 20173 59014;
0137827950999992006072218004-07217-035883FM-12+0548SBKG V0201401N004612200019N0100001N1+02641+01631101411ADDGF103991031031008001001001MA1999999095301MD1999999-0131REMSYN070AAXX  22184 82795 32597 31409 10264 20163 39530 40141 83300 333 59013;
0168827950999992006072300004-07217-035883FM-12+0548SBKG V0201401N001512200019N0010001N1+02061+01781101781ADDGF104991041021008001001001KA1240M+02701MA1999999095541MD1999999-0111REMSYN088AAXX  23004 82795 32594 41403 10206 20178 39554 40178 84200 333 10270 29074 55101 59011;
0220827950999992006072312004-07217-035883FM-12+0548SBKG V0201401N003110075019N0100001N1+02011+01871101741ADDAA124000091AY151061AY221061GF107991071071008001001001KA1240N+01681MA1999999095481MD1999999-0131MW1021REMSYN088AAXX  23124 82795 21597 71406 10201 20187 39548 40174 70252 87700 333 20168 59013 69914;EQDQ01  00002PRCP24
0182827950999992006072318004-07217-035883FM-12+0548SBKG V0201401N004110075019N0040001N1+02011+01871101471ADDAA106005191AY161061AY221061GF108991081071008001999999MA1999999095201MD1999999-0101MW1021REMSYN082AAXX  23184 82795 21596 81408 10201 20187 39520 40147 70262 887// 333 59010 60051;
0213827950999992006072400004-07217-035883FM-12+0548SBKG V0201401N001510075019N0010001N1+02021+01851101711ADDAA106005191AY161061AY221061GF105991051061008001001001KA1240M+02331MA1999999095451MD1999999+0011MW1021REMSYN100AAXX  24004 82795 21594 51403 10202 20185 39545 40171 70262 85600 333 10233 29091 55018 58001 60051;
0173827950999992006072412004-07217-035883FM-12+0548SBKG V0201401N003610075019N0100001N1+02151+01841101681ADDAA124007191GF106991061021008001001001KA1240N+01711MA1999999095441MD1999999-0041REMSYN082AAXX  24124 82795 22597 61407 10215 20184 39544 40168 86200 333 20171 59004 60074;
0137827950999992006072418004-07217-035883FM-12+0548SBKG V0201401N002610450019N0100001N1+02331+01911101441ADDGF107991041041008001021001MA1999999095231MD1999999+0031REMSYN070AAXX  24184 82795 32597 71405 10233 20191 39523 40144 84420 333 58003;
0213827950999992006072500004-07217-035883FM-12+0548SBKG V0201401N001510042019N0005001N1+02021+01951101651ADDAA106002091AY151061AY221061GF108991081071004501999999KA1240M+02531MA1999999095411MD1999999-0041MW1501REMSYN100AAXX  25004 82795 21493 81403 10202 20195 39541 40165 75052 887// 333 10253 29084 55035 59004 60021;
0201827950999992006072512004-07217-035883FM-12+0548SBKG V0201801N003110075019N0040001N1+02121+01931101681ADDAA124002091AY161061AY221061GF108991051071008001011999KA1240N+01901MA1999999095441MD1999999+0001MW1501REMSYN088AAXX  25124 82795 21596 81806 10212 20193 39544 40168 75062 8571/ 333 20190 58000 60024;
0182827950999992006072518004-07217-035883FM-12+0548SBKG V0201401N003110450019N0100001N1+02481+02051101391ADDAA106000891AY151061AY221061GF106991041071008001021001MA1999999095211MD1999999-0021MW1151REMSYN082AAXX  25184 82795 21597 61406 10248 20205 39521 40139 71552 84720 333 59002 69971;
0213827950999992006072600004-07217-035883FM-12+0548SBKG V0201401N004110042019N0005001N1+02101+02051101591ADDAA106013091AY161061AY251061GF108991081071004501999999KA1240M+02581MA1999999095371MD1999999-0041MW1501REMSYN100AAXX  26004 82795 21493 81408 10210 20205 39537 40159 75065 887// 333 10258 29090 55022 59004 60131;
0201827950999992006072612004-07217-035883FM-12+0548SBKG V0201401N003610042019N0040001N1+02091+02051101621ADDAA124016091AY161061AY251061GF108991081071004501999999KA1240N+01881MA1999999095401MD1999999-0041MW1501REMSYN088AAXX  26124 82795 21496 81407 10209 20205 39540 40162 75065 887// 333 20188 59004 60164;
0182827950999992006072618004-07217-035883FM-12+0548SBKG V0201401N001510075019N0040001N1+02121+02051101401ADDAA106002091AY161061AY251061GF108991081071008001999999MA1999999095231MD1999999+0021MW1501REMSYN082AAXX  26184 82795 21596 81403 10212 20205 39523 40140 75065 887// 333 58002 60021;
0213827950999992006072700004-07217-035883FM-12+0548SBKG V0200901N002610042019N0005001N1+02031+02011101661ADDAA106002091AY161061AY251061GF108991081071004501999999KA1240M+02211MA1999999095421MD1999999+0051MW1501REMSYN100AAXX  27004 82795 21493 80905 10203 20201 39542 40166 75065 887// 333 10221 29097 55000 58005 60021;
0201827950999992006072712004-07217-035883FM-12+0548SBKG V0201401N005110075019N0100001N1+02271+01821101711ADDAA124004191AY161061AY221061GF105991051021008001001001KA1240N+01861MA1999999095491MD1999999+0091MW1021REMSYN088AAXX  27124 82795 21597 51410 10227 20182 39549 40171 70262 85200 333 20186 58009 60044;
0137827950999992006072718004-07217-035883FM-12+0548SBKG V0201401N002112200019N0100001N1+02451+01951101551ADDGF103991031021008001001001MA1999999095331MD1999999+0101REMSYN070AAXX  27184 82795 32597 31404 10245 20195 39533 40155 83200 333 58010;
0168827950999992006072800004-07217-035883FM-12+0548SBKG V0200901N002112200019N0010001N1+02051+01781101691ADDGF102991021011008001001001KA1240M+02511MA1999999095471MD1999999+0051REMSYN088AAXX  28004 82795 32594 20904 10205 20178 39547 40169 82100 333 10251 29080 55080 58005;
0156827950999992006072812004-07217-035883FM-12+0548SBKG V0201401N003610075019N0100001N1+02171+01881101801ADDGF106991061061008001001001KA1240N+01851MA1999999095561MD1999999+0071REMSYN076AAXX  28124 82795 32597 61407 10217 20188 39556 40180 86600 333 20185 58007;
0137827950999992006072818004-07217-035883FM-12+0548SBKG V0201401N003612200019N0100001N1+02681+01781101401ADDGF103991031021008001001001MA1999999095261MD1999999-0071REMSYN070AAXX  28184 82795 32597 31407 10268 20178 39526 40140 83200 333 59007;
0168827950999992006072900004-07217-035883FM-12+0548SBKG V0200901N002610075019N0010001N1+02121+01911101671ADDGF106991061021008001001001KA1240M+02741MA1999999095451MD1999999-0021REMSYN088AAXX  29004 82795 32594 60905 10212 20191 39545 40167 86200 333 10274 29079 55083 59002;
0175827950999992006072912004-07217-035883FM-12+0548SBKG V0200901N001510075019N0100001N1+02151+01931101691ADDGF108991999061008001001001KA1240N+01791MA1999999095461MD1999999-0101REMSYN076AAXX  29124 82795 32597 80903 10215 20193 39546 40169 86600 333 20179 59010;EQDQ01+000062SCOTLC
0137827950999992006072918004-07217-035883FM-12+0548SBKG V0200901N001510075019N0100001N1+02671+01951101421ADDGF105991051021008001001001MA1999999095231MD1999999-0031REMSYN070AAXX  29184 82795 32597 50903 10267 20195 39523 40142 85200 333 59003;
0168827950999992006073000004-07217-035883FM-12+0548SBKG V0200901N003110075019N0010001N1+02231+02031101621ADDGF106991051021008001061001KA1240M+02691MA1999999095421MD1999999-0031REMSYN088AAXX  30004 82795 32594 60906 10223 20203 39542 40162 85260 333 10269 29082 55047 59003;
0156827950999992006073012004-07217-035883FM-12+0548SBKG V0200901N003610075019N0100001N1+02291+01831101701ADDGF106991061021008001001001KA1240N+02051MA1999999095511MD1999999+0051REMSYN076AAXX  30124 82795 32597 60907 10229 20183 39551 40170 86200 333 20205 58005;
0137827950999992006073018004-07217-035883FM-12+0548SBKG V0200901N003112200019N0100001N1+02791+01871101451ADDGF102991021011008001001001MA1999999095311MD1999999+0081REMSYN070AAXX  30184 82795 32597 20906 10279 20187 39531 40145 82100 333 58008;
0168827950999992006073100004-07217-035883FM-12+0548SBKG V0200901N002610075019N0010001N1+02201+01991101781ADDGF105991051021008001001001KA1240M+02821MA1999999095581MD1999999+0161REMSYN088AAXX  31004 82795 32594 50905 10220 20199 39558 40178 85200 333 10282 29077 55086 58016;
0175827950999992006073112004-07217-035883FM-12+0548SBKG V0200901N003619999999N0100001N1+02281+02001102011ADDGF106991999061008001001001KA1240N+02001MA1999999095801MD1999999+0291REMSYN076AAXX  31124 82795 32597 60907 10228 20200 39580 40201 88600 333 20200 58029;EQDQ01+000082SCOTLC
0137827950999992006073118004-07217-035883FM-12+0548SBKG V0200901N005712200019N0100001N1+02701+01861101631ADDGF107991041051008001001041MA1999999095481MD1999999+0171REMSYN070AAXX  31184 82795 32597 70911 10270 20186 39548 40163 84504 333 58017;
0168827950999992006080100004-07217-035883FM-12+0548SBKG V0200901N002110075019N0010001N1+02151+01931101961ADDGF106991061021008001001001KA1240M+02771MA1999999095741MD1999999+0161REMSYN088AAXX  01004 82795 32594 60904 10215 20193 39574 40196 86200 333 10277 29080 55084 58016;
0156827950999992006080112004-07217-035883FM-12+0548SBKG V0201401N002610075019N0100001N1+02211+01841102091ADDGF106991061021008001001001KA1240N+02031MA1999999095871MD1999999+0071REMSYN076AAXX  01124 82795 32597 61405 10221 20184 39587 40209 86200 333 20203 58007;
0137827950999992006080118004-07217-035883FM-12+0548SBKG V0201401N003612200019N0100001N1+02731+01591101721ADDGF103991031021008001001001MA1999999095551MD1999999+0071REMSYN070AAXX  01184 82795 32597 31407 10273 20159 39555 40172 83200 333 58007;
0168827950999992006080200004-07217-035883FM-12+0548SBKG V0201401N003110075019N0010001N1+02131+01801102041ADDGF105991051021008001001001KA1240M+02811MA1999999095801MD1999999+0061REMSYN088AAXX  02004 82795 32594 51406 10213 20180 39580 40204 85200 333 10281 29073 55088 58006;
0156827950999992006080212004-07217-035883FM-12+0548SBKG V0201401N003110075019N0100001N1+02241+01731101981ADDGF105991051011008001001001KA1240N+01731MA1999999095741MD1999999-0131REMSYN076AAXX  02124 82795 32597 51406 10224 20173 39574 40198 85100 333 20173 59013;
0137827950999992006080218004-07217-035883FM-12+0548SBKG V0201401N003112200019N0100001N1+02661+01561101631ADDGF104991031021008001001011MA1999999095431MD1999999-0121REMSYN070AAXX  02184 82795 32597 41406 10266 20156 39543 40163 83201 333 59012;
0168827950999992006080300004-07217-035883FM-12+0548SBKG V0201401N002612200019N0010001N1+02091+01661101911ADDGF103991011021008001001021KA1240M+02741MA1999999095681MD1999999-0121REMSYN088AAXX  03004 82795 32594 31405 10209 20166 39568 40191 81202 333 10274 29070 55099 59012;
0156827950999992006080312004-07217-035883FM-12+0548SBKG V0201801N002610450019N0100001N1+02241+01711101911ADDGF107991021011008001041011KA1240N+01681MA1999999095681MD1999999-0061REMSYN076AAXX  03124 82795 32597 71805 10224 20171 39568 40191 82141 333 20168 59006;
0165827950999992006080318004-07217-035883FM-12+0548SBKG V0201401N002610450019N0100001N1+02611+01681101531ADDAY121061AY221061GF106991031041008001021011MA1999999095331MD1999999-0101MW1151REMSYN076AAXX  03184 82795 31597 61405 10261 20168 39533 40153 71522 83421 333 59010;
0168827950999992006080400004-07217-035883FM-12+0548SBKG V0201401N002610450019N0010001N1+02101+01801101871ADDGF106991021021008001061001KA1240M+02681MA1999999095641MD1999999-0041REMSYN088AAXX  04004 82795 32594 61405 10210 20180 39564 40187 82260 333 10268 29074 55084 59004;
0156827950999992006080412004-07217-035883FM-12+0548SBKG V0201801N004110075019N0100001N1+02191+01821101821ADDGF106991061061008001001001KA1240N+01881MA1999999095601MD1999999-0081REMSYN076AAXX  04124 82795 32597 61808 10219 20182 39560 40182 86600 333 20188 59008;
0137827950999992006080418004-07217-035883FM-12+0548SBKG V0201401N003112200019N0100001N1+02581+01821101561ADDGF104991041041008001001001MA1999999095381MD1999999+0051REMSYN070AAXX  04184 82795 32597 41406 10258 20182 39538 40156 84400 333 58005;
0168827950999992006080500004-07217-035883FM-12+0548SBKG V0201401N002110075019N0010001N1+02101+01681101761ADDGF105991051021008001001001KA1240M+02621MA1999999095541MD1999999-0101REMSYN088AAXX  05004 82795 32594 51404 10210 20168 39554 40176 85200 333 10262 29074 55047 59010;
0156827950999992006080512004-07217-035883FM-12+0548SBKG V0201801N004610075019N0100001N1+02211+01581101871ADDGF106991061021008001001001KA1240N+01721MA1999999095641MD1999999+0041REMSYN076AAXX  05124 82795 32597 61809 10221 20158 39564 40187 86200 333 20172 58004;
0137827950999992006080518004-07217-035883FM-12+0548SBKG V0201401N005710075019N0100001N1+02591+01511101521ADDGF106991051021008001001011MA1999999095311MD1999999-0071REMSYN070AAXX  05184 82795 32597 61411 10259 20151 39531 40152 85201 333 59007;
0168827950999992006080600004-07217-035883FM-12+0548SBKG V0201401N004112200019N0010001N1+02071+01621101831ADDGF103991021021008001001011KA1240M+02711MA1999999095611MD1999999+0071REMSYN088AAXX  06004 82795 32594 31408 10207 20162 39561 40183 82201 333 10271 29068 55105 58007;
0201827950999992006080612004-07217-035883FM-12+0548SBKG V0201401N003610075019N0100001N1+02121+01721101901ADDAA124000591AY161061AY221061GF106991061061008001001001KA1240N+01851MA1999999095661MD1999999+0021MW1021REMSYN088AAXX  06124 82795 21597 61407 10212 20172 39566 40190 70262 86600 333 20185 58002 69964;
0137827950999992006080618004-07217-035883FM-12+0548SBKG V0201401N004610075019N0100001N1+02681+01451101471ADDGF105991051021008001001001MA1999999095311MD1999999+0001REMSYN070AAXX  06184 82795 32597 51409 10268 20145 39531 40147 85200 333 58000;
0168827950999992006080700004-07217-035883FM-12+0548SBKG V0201401N003112200019N0010001N1+02051+01581101751ADDGF103991031021008001001001KA1240M+02711MA1999999095511MD1999999-0101REMSYN088AAXX  07004 82795 32594 31406 10205 20158 39551 40175 83200 333 10271 29069 55083 59010;
0201827950999992006080712004-07217-035883FM-12+0548SBKG V0201401N003610075019N0100001N1+02091+01821101781ADDAA124001091AY161061AY221061GF107991071071008001001001KA1240N+01851MA1999999095531MD1999999-0131MW1021REMSYN088AAXX  07124 82795 21597 71407 10209 20182 39553 40178 70262 87700 333 20185 59013 60014;
0137827950999992006080718004-07217-035883FM-12+0548SBKG V0201401N003612200019N0100001N1+02621+01561101501ADDGF103991031021008001001001MA1999999095321MD1999999+0101REMSYN070AAXX  07184 82795 32597 31407 10262 20156 39532 40150 83200 333 58010;
0168827950999992006080800004-07217-035883FM-12+0548SBKG V0201401N001512200019N0010001N1+02021+01521101791ADDGF102991021011008001001001KA1240M+02661MA1999999095541MD1999999+0031REMSYN088AAXX  08004 82795 32594 21403 10202 20152 39554 40179 82100 333 10266 29070 55064 58003;
0156827950999992006080812004-07217-035883FM-12+0548SBKG V0201401N004610075019N0100001N1+02301+01831101721ADDGF106991061021008001001001KA1240N+01721MA1999999095501MD1999999-0031REMSYN076AAXX  08124 82795 32597 61409 10230 20183 39550 40172 86200 333 20172 59003;
0137827950999992006080818004-07217-035883FM-12+0548SBKG V0201401N003619999999N0100001N1+02591+01771101371ADDGF108991081001008001071999MA1999999095191MD1999999-0151REMSYN070AAXX  08184 82795 32597 81407 10259 20177 39519 40137 8807/ 333 59015;
0213827950999992006080900004-07217-035883FM-12+0548SBKG V0201401N003610042019N0005001N1+02041+01971101681ADDAA106001091AY151061AY221061GF108991081071004501999999KA1240M+02711MA1999999095461MD1999999-0081MW1501REMSYN100AAXX  09004 82795 21493 81407 10204 20197 39546 40168 75052 887// 333 10271 29082 55072 59008 69991;
0201827950999992006080912004-07217-035883FM-12+0548SBKG V0201401N003610042019N0020001N1+02131+02021101711ADDAA124014091AY161061AY251061GF108991051071004501021999KA1240N+01931MA1999999095471MD1999999+0031MW1551REMSYN088AAXX  09124 82795 21495 81407 10213 20202 39547 40171 75565 8572/ 333 20193 58003 60144;
0201827950999992006080918004-07217-035883FM-12+0548SBKG V0201401N004610042019N0020001N1+02181+02131101371ADDAA106008991AY161061AY251061GF108991999071004501021999MA1999999095361MD1999999+0171MW1611REMSYN082AAXX  09184 82795 21495 81409 10218 20213 39536 40137 76165 8872/ 333 58017 60091;EQDQ01+000082SCOTLC
0213827950999992006081000004-07217-035883FM-12+0548SBKG V0200901N003110042019N0002001N1+02081+02031101701ADDAA106007191AY161061AY261061GF108991081071004501999999KA1240M+02361MA1999999095471MD1999999+0011MW1601REMSYN100AAXX  10004 82795 21492 80906 10208 20203 39547 40170 76066 887// 333 10236 29096 55000 58001 60071;
0201827950999992006081012004-07217-035883FM-12+0548SBKG V0201401N004610075019N0100001N1+02161+02041101721ADDAA124019191AY161061AY251061GF108991081071008001999999KA1240N+01981MA1999999095501MD1999999+0031MW1501REMSYN088AAXX  10124 82795 21597 81409 10216 20204 39550 40172 75065 887// 333 20198 58003 60194;
0137827950999992006081018004-07217-035883FM-12+0548SBKG V0201401N004110120019N0100001N1+02541+01931101481ADDGF106991061081008001001001MA1999999095291MD1999999-0071REMSYN070AAXX  10184 82795 32597 61408 10254 20193 39529 40148 86800 333 59007;
0168827950999992006081100004-07217-035883FM-12+0548SBKG V0201401N003112200019N0010001N1+02051+01831101701ADDGF104991041021008001001001KA1240M+02661MA1999999095471MD1999999+0001REMSYN088AAXX  11004 82795 32594 41406 10205 20183 39547 40170 84200 333 10266 29084 55048 58000;
0201827950999992006081112004-07217-035883FM-12+0548SBKG V0201401N004610075019N0100001N1+02161+01841101801ADDAA124000391AY161061AY221061GF105991051021008001001001KA1240N+01861MA1999999095561MD1999999+0061MW1021REMSYN088AAXX  11124 82795 21597 51409 10216 20184 39556 40180 70262 85200 333 20186 58006 69934;
0137827950999992006081118004-07217-035883FM-12+0548SBKG V0201401N006710450019N0100001N1+02421+01791101451ADDGF106991041041008001081001MA1999999095271MD1999999-0021REMSYN070AAXX  11184 82795 32597 61413 10242 20179 39527 40145 84480 333 59002;
0213827950999992006081200004-07217-035883FM-12+0548SBKG V0201401N003610042019N0010001N1+02001+01901101741ADDAA106002091AY161061AY221061GF108991081071004501999999KA1240M+02611MA1999999095501MD1999999+0031MW1021REMSYN100AAXX  12004 82795 21494 81407 10200 20190 39550 40174 70262 887// 333 10261 29084 55078 58003 60021;
0201827950999992006081212004-07217-035883FM-12+0548SBKG V0201401N003110450019N0100001N1+02131+01931101841ADDAA124002091AY161061AY221061GF108991041071008001011999KA1240N+01851MA1999999095581MD1999999+0081MW1021REMSYN088AAXX  12124 82795 21597 81406 10213 20193 39558 40184 70262 8471/ 333 20185 58008 60024;
0217827950999992006081218004-07217-035883FM-12+0548SBKG V0201401N003119999999N0100001N1+02221+01901101541ADDAA106000091AY151061AY221061GF108991999071008001001001MA1999999095341MD1999999+0071MW1021REMSYN082AAXX  12184 82795 21597 81406 10222 20190 39534 40154 70252 84700 333 58007 69911;EQDQ01+000042SCOTLCQ02  00002PRCP06
0232827950999992006081300004-07217-035883FM-12+0548SBKG V0201401N001510075019N0010001N1+02951+01791101801ADDAA106003091AY161061AY221061GF106991061071008001001001KA1240M+99999MA1999999095551MD1999999+0051MW1021REMSYN100AAXX  13004 82795 21594 61403 10295 20179 39555 40180 70262 86700 333 10230 29088 55005 58005 60031;EQDQ01 +02302ATMX  
0201827950999992006081312004-07217-035883FM-12+0548SBKG V0201401N003110450019N0100001N1+01911+01821101821ADDAA124005191AY161061AY221061GF107991031071008001021001KA1240N+01931MA1999999095561MD1999999-0021MW1021REMSYN088AAXX  13124 82795 21597 71406 10191 20182 39556 40182 70262 83720 333 20193 59002 60054;
0137827950999992006081318004-07217-035883FM-12+0548SBKG V0201401N004110450019N0100001N1+02481+01681101591ADDGF106991041041008001031001MA1999999095411MD1999999+0071REMSYN070AAXX  13184 82795 32597 61408 10248 20168 39541 40159 84430 333 58007;
0168827950999992006081400004-07217-035883FM-12+0548SBKG V0201401N003112200019N0010001N1+02041+01741101641ADDGF104991041011008001001001KA1240M+02601MA1999999095381MD1999999-0171REMSYN088AAXX  14004 82795 32594 41406 10204 20174 39538 40164 84100 333 10260 29080 55037 59017;
0156827950999992006081412004-07217-035883FM-12+0548SBKG V0201401N003610075019N0100001N1+02221+01711101801ADDGF105991051021008001001001KA1240N+01801MA1999999095561MD1999999+0001REMSYN076AAXX  14124 82795 32597 51407 10222 20171 39556 40180 85200 333 20180 58000;
0137827950999992006081418004-07217-035883FM-12+0548SBKG V0201401N004612200019N0100001N1+02621+01621101431ADDGF104991041021008001001001MA1999999095241MD1999999-0171REMSYN070AAXX  14184 82795 32597 41409 10262 20162 39524 40143 84200 333 59017;
0168827950999992006081500004-07217-035883FM-12+0548SBKG V0201401N002612200019N0010001N1+02091+01741101621ADDGF103991011011008001041001KA1240M+02701MA1999999095411MD1999999+0031REMSYN088AAXX  15004 82795 32594 31405 10209 20174 39541 40162 81140 333 10270 29072 55106 58003;
0156827950999992006081512004-07217-035883FM-12+0548SBKG V0201401N006210075019N0100001N1+02271+01791101731ADDGF106991061021008001001001KA1240N+01911MA1999999095511MD1999999-0051REMSYN076AAXX  15124 82795 32597 61412 10227 20179 39551 40173 86200 333 20191 59005;
0137827950999992006081518004-07217-035883FM-12+0548SBKG V0201401N005110075019N0100001N1+02641+01541101521ADDGF105991051021008001001001MA1999999095361MD1999999+0121REMSYN070AAXX  15184 82795 32597 51410 10264 20154 39536 40152 85200 333 58012;
0168827950999992006081600004-07217-035883FM-12+0548SBKG V0201401N002612200019N0010001N1+02131+01761101711ADDGF102991021011008001001001KA1240M+02691MA1999999095511MD1999999+0101REMSYN088AAXX  16004 82795 32594 21405 10213 20176 39551 40171 82100 333 10269 29072 55099 58010;
0201827950999992006081612004-07217-035883FM-12+0548SBKG V0201401N004610042019N0020001N1+02021+01921101811ADDAA124010991AY161061AY251061GF108991051071004501021999KA1240N+01911MA1999999095561MD1999999+0051MW1551REMSYN088AAXX  16124 82795 21495 81409 10202 20192 39556 40181 75565 8572/ 333 20191 58005 60114;
0182827950999992006081618004-07217-035883FM-12+0548SBKG V0201401N001510075019N0100001N1+02111+01961101541ADDAA106000391AY151061AY221061GF108991081071008001999999MA1999999095301MD1999999-0061MW1021REMSYN082AAXX  16184 82795 21597 81403 10211 20196 39530 40154 70252 887// 333 59006 69931;
0213827950999992006081700004-07217-035883FM-12+0548SBKG V0201401N001510042019N0002001N1+01981+01911101831ADDAA106006191AY161061AY221061GF108991081071004501999999KA1240M+02331MA1999999095571MD1999999+0061MW1601REMSYN100AAXX  17004 82795 21492 81403 10198 20191 39557 40183 76062 887// 333 10233 29094 55001 58006 60061;
0220827950999992006081712004-07217-035883FM-12+0548SBKG V0201401N002619999999N0100001N1+02191+01881101851ADDAA124007191AY161061AY221061GF106991999021008001001001KA1240N+01911MA1999999095601MD1999999+0041MW1021REMSYN088AAXX  17124 82795 21597 61405 10219 20188 39560 40185 70262 88200 333 20191 58004 60074;EQDQ01+000082SCOTLC
0137827950999992006081718004-07217-035883FM-12+0548SBKG V0201401N007212200019N0100001N1+02601+01511101381ADDGF103991031011008001001001MA1999999095211MD1999999-0091REMSYN070AAXX  17184 82795 32597 31414 10260 20151 39521 40138 83100 333 59009;
0168827950999992006081800004-07217-035883FM-12+0548SBKG V0200901N003112200019N0010001N1+01991+01881101681ADDGF102991021011008001001001KA1240M+02631MA1999999095451MD1999999-0121REMSYN088AAXX  18004 82795 32594 20906 10199 20188 39545 40168 82100 333 10263 29080 55050 59012;
0156827950999992006081812004-07217-035883FM-12+0548SBKG V0201401N004610075019N0100001N1+02211+01861101771ADDGF106991061061008001001001KA1240N+01881MA1999999095531MD1999999-0071REMSYN076AAXX  18124 82795 32597 61409 10221 20186 39553 40177 86600 333 20188 59007;
0137827950999992006081818004-07217-035883FM-12+0548SBKG V0201401N004610075019N0100001N1+02541+01811101431ADDGF105991051011008001001001MA1999999095241MD1999999+0031REMSYN070AAXX  18184 82795 32597 51409 10254 20181 39524 40143 85100 333 58003;
0168827950999992006081900004-07217-035883FM-12+0548SBKG V0201401N003110450019N0010001N1+02071+01871101621ADDGF105991021011008001041001KA1240M+02651MA1999999095411MD1999999-0041REMSYN088AAXX  19004 82795 32594 51406 10207 20187 39541 40162 82140 333 10265 29081 55081 59004;
0156827950999992006081912004-07217-035883FM-12+0548SBKG V0201401N002612200019N0100001N1+02271+01751101691ADDGF106991031011008001001011KA1240N+01791MA1999999095471MD1999999-0061REMSYN076AAXX  19124 82795 32597 61405 10227 20175 39547 40169 83101 333 20179 59006;
0137827950999992006081918004-07217-035883FM-12+0548SBKG V0201401N002610450019N0100001N1+02691+01611101321ADDGF105991031021008001061001MA1999999095151MD1999999-0091REMSYN070AAXX  19184 82795 32597 51405 10269 20161 39515 40132 83260 333 59009;
0168827950999992006082000004-07217-035883FM-12+0548SBKG V0200901N002612200019N0010001N1+02141+01861101621ADDGF102991021011008001001001KA1240M+02721MA1999999095421MD1999999+0011REMSYN088AAXX  20004 82795 32594 20905 10214 20186 39542 40162 82100 333 10272 29073 55098 58001;
0156827950999992006082012004-07217-035883FM-12+0548SBKG V0201401N002612200019N0100001N1+02231+01711101771ADDGF101991011011008001001001KA1240N+01771MA1999999095551MD1999999+0081REMSYN076AAXX  20124 82795 32597 11405 10223 20171 39555 40177 81100 333 20177 58008;
0137827950999992006082018004-07217-035883FM-12+0548SBKG V0200901N004612200019N0100001N1+02751+01721101311ADDGF103991031011008001001001MA1999999095151MD1999999+0001REMSYN070AAXX  20184 82795 32597 30909 10275 20172 39515 40131 83100 333 58000;
0178827950999992006082100004-07217-035883FM-12+0548SBKG V0200901N003612200019N0010001N1+02131+01971101671ADDGA1001+999999999GF100991001001999999001001KA1240M+02811MA1999999095451MD1999999+0031REMSYN082AAXX  21004 82795 32994 00907 10213 20197 39545 40167 333 10281 29076 55102 58003;
0156827950999992006082112004-07217-035883FM-12+0548SBKG V0200901N005110075019N0100001N1+02271+01841101771ADDGF106991061021008001001001KA1240N+01961MA1999999095561MD1999999+0011REMSYN076AAXX  21124 82795 32597 60910 10227 20184 39556 40177 86200 333 20196 58001;
0137827950999992006082118004-07217-035883FM-12+0548SBKG V0201401N002610075019N0100001N1+02741+01671101341ADDGF105991051011008001001001MA1999999095201MD1999999+0051REMSYN070AAXX  21184 82795 32597 51405 10274 20167 39520 40134 85100 333 58005;
0168827950999992006082200004-07217-035883FM-12+0548SBKG V0200901N003610075019N0010001N1+02141+01881101701ADDGF106991061021008001001001KA1240M+02821MA1999999095501MD1999999+0051REMSYN088AAXX  22004 82795 32594 60907 10214 20188 39550 40170 86200 333 10282 29075 55092 58005;
0156827950999992006082212004-07217-035883FM-12+0548SBKG V0200901N004610075019N0100001N1+02351+01911101831ADDGF106991061021008001001001KA1240N+02031MA1999999095631MD1999999+0071REMSYN076AAXX  22124 82795 32597 60909 10235 20191 39563 40183 86200 333 20203 58007;
0137827950999992006082218004-07217-035883FM-12+0548SBKG V0201401N002110075019N0100001N1+02771+01831101501ADDGF105991051031008001001001MA1999999095361MD1999999+0161REMSYN070AAXX  22184 82795 32597 51404 10277 20183 39536 40150 85300 333 58016;
0168827950999992006082300004-07217-035883FM-12+0548SBKG V0201401N003110075019N0010001N1+02061+01981101881ADDGF105991051011008001001001KA1240M+02781MA1999999095661MD1999999+0161REMSYN088AAXX  23004 82795 32594 51406 10206 20198 39566 40188 85100 333 10278 29081 55094 58016;
0156827950999992006082312004-07217-035883FM-12+0548SBKG V0201401N004610075019N0100001N1+02341+01851101981ADDGF106991061021008001001001KA1240N+02031MA1999999095761MD1999999+0131REMSYN076AAXX  23124 82795 32597 61409 10234 20185 39576 40198 86200 333 20203 58013;
0137827950999992006082318004-07217-035883FM-12+0548SBKG V0201401N003112200019N0100001N1+02621+01701101571ADDGF104991041021008001001001MA1999999095401MD1999999+0041REMSYN070AAXX  23184 82795 32597 41406 10262 20170 39540 40157 84200 333 58004;
0168827950999992006082400004-07217-035883FM-12+0548SBKG V0201401N003112200019N0010001N1+02151+01741101771ADDGF104991021021008001041001KA1240M+02731MA1999999095571MD1999999-0091REMSYN088AAXX  24004 82795 32594 41406 10215 20174 39557 40177 82240 333 10273 29071 55086 59009;
0156827950999992006082412004-07217-035883FM-12+0548SBKG V0201401N003110075019N0100001N1+02221+01781101881ADDGF106991061061008001001001KA1240N+01951MA1999999095651MD1999999-0111REMSYN076AAXX  24124 82795 32597 61406 10222 20178 39565 40188 86600 333 20195 59011;
0137827950999992006082418004-07217-035883FM-12+0548SBKG V0201401N003112200019N0100001N1+02721+01711101481ADDGF102991021021008001001001MA1999999095331MD1999999-0071REMSYN070AAXX  24184 82795 32597 21406 10272 20171 39533 40148 82200 333 59007;
0168827950999992006082500004-07217-035883FM-12+0548SBKG V0201401N003112200019N0010001N1+02111+01741101791ADDGF103991011021008001061001KA1240M+02761MA1999999095571MD1999999+0001REMSYN088AAXX  25004 82795 32594 31406 10211 20174 39557 40179 81260 333 10276 29072 55072 58000;
0156827950999992006082512004-07217-035883FM-12+0548SBKG V0201401N004610075019N0100001N1+02261+01711101821ADDGF106991061061008001001001KA1240N+01881MA1999999095601MD1999999-0051REMSYN076AAXX  25124 82795 32597 61409 10226 20171 39560 40182 86600 333 20188 59005;
0137827950999992006082518004-07217-035883FM-12+0548SBKG V0201401N004612200019N0100001N1+02451+01831101401ADDGF103991031021008001001001MA1999999095281MD1999999-0051REMSYN070AAXX  25184 82795 32597 31409 10245 20183 39528 40140 83200 333 59005;
0213827950999992006082600004-07217-035883FM-12+0548SBKG V0201401N003110042019N0005001N1+02101+01951101691ADDAA106000021AY161061AY221061GF108991081071004501999999KA1240M+02511MA1999999095471MD1999999-0101MW1601REMSYN100AAXX  26004 82795 21493 81406 10210 20195 39547 40169 76062 887// 333 10251 29080 55048 59010 69911;
0201827950999992006082612004-07217-035883FM-12+0548SBKG V0201401N003110075019N0100001N1+02161+01701101781ADDAA124002091AY161061AY221061GF106991061021008001001001KA1240N+01851MA1999999095541MD1999999-0061MW1021REMSYN088AAXX  26124 82795 21597 61406 10216 20170 39554 40178 70262 86200 333 20185 59006 60024;
0137827950999992006082618004-07217-035883FM-12+0548SBKG V0201401N003112200019N0100001N1+02731+01371101331ADDGF101991011011008001001001MA1999999095171MD1999999-0111REMSYN070AAXX  26184 82795 32597 11406 10273 20137 39517 40133 81100 333 59011;
0168827950999992006082700004-07217-035883FM-12+0548SBKG V0201401N003112200019N0010001N1+02131+01611101621ADDGF101991011011008001001001KA1240M+02761MA1999999095411MD1999999-0061REMSYN088AAXX  27004 82795 32594 11406 10213 20161 39541 40162 81100 333 10276 29066 55090 59006;
0156827950999992006082712004-07217-035883FM-12+0548SBKG V0201401N003612200019N0100001N1+02311+01671101701ADDGF105991021011008001001011KA1240N+01781MA1999999095501MD1999999-0041REMSYN076AAXX  27124 82795 32597 51407 10231 20167 39550 40170 82101 333 20178 59004;
0137827950999992006082718004-07217-035883FM-12+0548SBKG V0201401N002612200019N0100001N1+02851+01311101291ADDGF103991011011008001001021MA1999999095151MD1999999-0021REMSYN070AAXX  27184 82795 32597 31405 10285 20131 39515 40129 81102 333 59002;
0168827950999992006082800004-07217-035883FM-12+0548SBKG V0200901N003610075019N0010001N1+02121+01881101581ADDGF106991061021008001001001KA1240M+02871MA1999999095381MD1999999-0031REMSYN088AAXX  28004 82795 32594 60907 10212 20188 39538 40158 86200 333 10287 29070 55105 59003;
0156827950999992006082812004-07217-035883FM-12+0548SBKG V0201401N004112200019N0020001N1+02401+01771101661ADDGF106991031021008001001011KA1240N+01881MA1999999095471MD1999999-0031REMSYN076AAXX  28124 82795 32595 61408 10240 20177 39547 40166 83201 333 20188 59003;
0137827950999992006082818004-07217-035883FM-12+0548SBKG V0201401N003112200019N0100001N1+02811+01601101381ADDGF104991041021008001001001MA1999999095221MD1999999+0071REMSYN070AAXX  28184 82795 32597 41406 10281 20160 39522 40138 84200 333 58007;
0168827950999992006082900004-07217-035883FM-12+0548SBKG V0200901N004612200019N0010001N1+02141+01881101581ADDGF104991041021008001001001KA1240M+02871MA1999999095401MD1999999+0021REMSYN088AAXX  29004 82795 32594 40909 10214 20188 39540 40158 84200 333 10287 29072 55101 58002;
0156827950999992006082912004-07217-035883FM-12+0548SBKG V0201401N003610075019N0100001N1+02301+01831101731ADDGF106991061021008001001001KA1240N+01891MA1999999095521MD1999999+0051REMSYN076AAXX  29124 82795 32597 61407 10230 20183 39552 40173 86200 333 20189 58005;
0137827950999992006082918004-07217-035883FM-12+0548SBKG V0201401N004612200019N0100001N1+02891+01701101271ADDGF103991031021008001001001MA1999999095151MD1999999-0071REMSYN070AAXX  29184 82795 32597 31409 10289 20170 39515 40127 83200 333 59007;
0168827950999992006083000004-07217-035883FM-12+0548SBKG V0200901N004112200019N0010001N1+02201+01821101541ADDGF102991001001999999001011KA1240M+02861MA1999999095361MD1999999-0041REMSYN088AAXX  30004 82795 32994 20908 10220 20182 39536 40154 80001 333 10286 29070 55093 59004;
0156827950999992006083012004-07217-035883FM-12+0548SBKG V0201401N002610075019N0100001N1+02331+01871101731ADDGF106991061021008001001001KA1240N+01981MA1999999095531MD1999999+0011REMSYN076AAXX  30124 82795 32597 61405 10233 20187 39553 40173 86200 333 20198 58001;
0137827950999992006083018004-07217-035883FM-12+0548SBKG V0201401N002612200019N0100001N1+02901+01721101381ADDGF104991041021008001001001MA1999999095261MD1999999+0111REMSYN070AAXX  30184 82795 32597 41405 10290 20172 39526 40138 84200 333 58011;
0168827950999992006083100004-07217-035883FM-12+0548SBKG V0200901N003610075019N0010001N1+02311+02071101681ADDGF106991061021008001001001KA1240M+02971MA1999999095501MD1999999+0141REMSYN088AAXX  31004 82795 32594 60907 10231 20207 39550 40168 86200 333 10297 29074 55088 58014;
0156827950999992006083112004-07217-035883FM-12+0548SBKG V0201801N003110075019N0100001N1+02391+01771101771ADDGF106991061061008001001001KA1240N+02081MA1999999095601MD1999999+0071REMSYN076AAXX  31124 82795 32597 61806 10239 20177 39560 40177 86600 333 20208 58007;
0165827950999992006083118004-07217-035883FM-12+0548SBKG V0201401N005110075019N0100001N1+02341+01871101521ADDAY121061AY221061GF108991051071008001021999MA1999999095331MD1999999+0071MW1151REMSYN076AAXX  31184 82795 31597 81410 10234 20187 39533 40152 71522 8572/ 333 58007;
0213827950999992006090100004-07217-035883FM-12+0548SBKG V0201401N001510042019N0005001N1+01961+01891101781ADDAA106000591AY161061AY221061GF108991081071004501999999KA1240M+02641MA1999999095561MD1999999+0061MW1601REMSYN100AAXX  01004 82795 21493 81403 10196 20189 39556 40178 76062 887// 333 10264 29084 55005 58006 69951;
0201827950999992006090112004-07217-035883FM-12+0548SBKG V0201801N001510075019N0100001N1+02131+01821101801ADDAA124002091AY161061AY221061GF108991081071008001999999KA1240N+01931MA1999999095551MD1999999-0051MW1021REMSYN088AAXX  01124 82795 21597 81803 10213 20182 39555 40180 70262 887// 333 20193 59005 60024;
0137827950999992006090118004-07217-035883FM-12+0548SBKG V0201401N004612200019N0100001N1+02581+01691101271ADDGF103991031021008001001001MA1999999095111MD1999999-0221REMSYN070AAXX  01184 82795 32597 31409 10258 20169 39511 40127 83200 333 59022;
0168827950999992006090200004-07217-035883FM-12+0548SBKG V0201401N003112200019N0010001N1+02161+01861101551ADDGF102991011011008001041001KA1240M+02641MA1999999095341MD1999999-0221REMSYN088AAXX  02004 82795 32594 21406 10216 20186 39534 40155 81140 333 10264 29076 55048 59022;
0156827950999992006090212004-07217-035883FM-12+0548SBKG V0201401N002612200019N0100001N1+02311+01721101601ADDGF103991031021008001001001KA1240N+01781MA1999999095401MD1999999-0151REMSYN076AAXX  02124 82795 32597 31405 10231 20172 39540 40160 83200 333 20178 59015;
0137827950999992006090218004-07217-035883FM-12+0548SBKG V0201401N002112200019N0100001N1+02781+01851101091ADDGF103991031021008001001001MA1999999094951MD1999999+0161REMSYN070AAXX  02184 82795 32597 31404 10278 20185 39495 40109 83200 333 58016;
0168827950999992006090300004-07217-035883FM-12+0548SBKG V0201401N003610075019N0010001N1+02061+01851101391ADDGF105991051021008001001001KA1240M+02901MA1999999095191MD1999999-0151REMSYN088AAXX  03004 82795 32594 51407 10206 20185 39519 40139 85200 333 10290 29078 55098 59015;
0220827950999992006090312004-07217-035883FM-12+0548SBKG V0201401N004110075019N0100001N1+02331+01961101601ADDAA124000091AY151061AY221061GF106991061041008001001001KA1240N+02031MA1999999095401MD1999999+0001MW1021REMSYN088AAXX  03124 82795 21597 61408 10233 20196 39540 40160 70252 86400 333 20203 58000 69924;EQDQ01  00002PRCP24
0137827950999992006090318004-07217-035883FM-12+0548SBKG V0201401N005112200019N0100001N1+02831+01801101191ADDGF102991021031008001001001MA1999999094971MD1999999+0021REMSYN070AAXX  03184 82795 32597 21410 10283 20180 39497 40119 82300 333 58002;
0168827950999992006090400004-07217-035883FM-12+0548SBKG V0201401N004610075019N0010001N1+02131+01841101511ADDGF105991051061008001001001KA1240M+02911MA1999999095321MD1999999+0131REMSYN088AAXX  04004 82795 32594 51409 10213 20184 39532 40151 85600 333 10291 29076 55084 58013;
0156827950999992006090412004-07217-035883FM-12+0548SBKG V0200901N003110075019N0100001N1+02231+01901101731ADDGF107991071071008001001001KA1240N+02041MA1999999095511MD1999999+0111REMSYN076AAXX  04124 82795 32597 70906 10223 20190 39551 40173 87700 333 20204 58011;
0137827950999992006090418004-07217-035883FM-12+0548SBKG V0201401N004112200019N0100001N1+02821+01651101241ADDGF102991021021008001001001MA1999999095121MD1999999+0151REMSYN070AAXX  04184 82795 32597 21408 10282 20165 39512 40124 82200 333 58015;
0168827950999992006090500004-07217-035883FM-12+0548SBKG V0200901N004612200019N0010001N1+02151+01931101711ADDGF102991021021008001001001KA1240M+02931MA1999999095511MD1999999+0191REMSYN088AAXX  05004 82795 32594 20909 10215 20193 39551 40171 82200 333 10293 29076 55082 58019;
0156827950999992006090512004-07217-035883FM-12+0548SBKG V0200901N003610075019N0100001N1+02431+01841101771ADDGF106991061021008001001001KA1240N+02031MA1999999095591MD1999999+0081REMSYN076AAXX  05124 82795 32597 60907 10243 20184 39559 40177 86200 333 20203 58008;
0137827950999992006090518004-07217-035883FM-12+0548SBKG V0200901N003112200019N0100001N1+02931+01551101391ADDGF102991011011008001001011MA1999999095271MD1999999+0151REMSYN070AAXX  05184 82795 32597 20906 10293 20155 39527 40139 81101 333 58015;
0168827950999992006090600004-07217-035883FM-12+0548SBKG V0200901N003612200019N0010001N1+02161+01841101761ADDGF102991001001999999001011KA1240M+02951MA1999999095581MD1999999+0071REMSYN088AAXX  06004 82795 32994 20907 10216 20184 39558 40176 80001 333 10295 29069 55103 58007;
0156827950999992006090612004-07217-035883FM-12+0548SBKG V0200901N003110075019N0100001N1+02471+01781101891ADDGF106991061021008001001001KA1240N+01991MA1999999095701MD1999999+0111REMSYN076AAXX  06124 82795 32597 60906 10247 20178 39570 40189 86200 333 20199 58011;
0137827950999992006090618004-07217-035883FM-12+0548SBKG V0201401N003612200019N0100001N1+02841+01441101441ADDGF102991021021008001001001MA1999999095301MD1999999+0031REMSYN070AAXX  06184 82795 32597 21407 10284 20144 39530 40144 82200 333 58003;
0178827950999992006090700004-07217-035883FM-12+0548SBKG V0200901N003112200019N0010001N1+02211+01691101751ADDGA1001+999999999GF100991001001999999001001KA1240M+02891MA1999999095581MD1999999+0001REMSYN082AAXX  07004 82795 32994 00906 10221 20169 39558 40175 333 10289 29064 55095 58000;
0201827950999992006090712004-07217-035883FM-12+0548SBKG V0201401N005710075019N0100001N1+02301+01771101811ADDAA124000391AY161061AY221061GF106991061061008001001001KA1240N+01911MA1999999095611MD1999999-0091MW1021REMSYN088AAXX  07124 82795 21597 61411 10230 20177 39561 40181 70262 86600 333 20191 59009 69934;
0137827950999992006090718004-07217-035883FM-12+0548SBKG V0201401N008212200019N0100001N1+02751+01541101411ADDGF103991031021008001001001MA1999999095261MD1999999-0041REMSYN070AAXX  07184 82795 32597 31416 10275 20154 39526 40141 83200 333 59004;
0168827950999992006090800004-07217-035883FM-12+0548SBKG V0201401N003112200019N0010001N1+02221+01651101741ADDGF103991011011008001041001KA1240M+02871MA1999999095541MD1999999-0041REMSYN088AAXX  08004 82795 32594 31406 10222 20165 39554 40174 81140 333 10287 29065 55085 59004;
0201827950999992006090812004-07217-035883FM-12+0548SBKG V0201401N004610042019N0040001N1+02051+01871101861ADDAA124001091AY161061AY251061GF108991051071004501021999KA1240N+01921MA1999999095621MD1999999+0011MW1551REMSYN088AAXX  08124 82795 21496 81409 10205 20187 39562 40186 75565 8572/ 333 20192 58001 69994;
0137827950999992006090818004-07217-035883FM-12+0548SBKG V0201401N004612200019N0100001N1+02741+01481101361ADDGF101991011021008001001001MA1999999095181MD1999999-0081REMSYN070AAXX  08184 82795 32597 11409 10274 20148 39518 40136 81200 333 59008;
0168827950999992006090900004-07217-035883FM-12+0548SBKG V0201401N003612200019N0010001N1+02151+01801101841ADDGF103991031021008001001001KA1240M+02841MA1999999095601MD1999999+0061REMSYN088AAXX  09004 82795 32594 31407 10215 20180 39560 40184 83200 333 10284 29074 55066 58006;
0156827950999992006090912004-07217-035883FM-12+0548SBKG V0201401N002110075019N0100001N1+02321+01761101711ADDGF106991061021008001001001KA1240N+01861MA1999999095571MD1999999-0051REMSYN076AAXX  09124 82795 32597 61404 10232 20176 39557 40171 86200 333 20186 59005;
0137827950999992006090918004-07217-035883FM-12+0548SBKG V0200901N004610075019N0100001N1+02771+01611101411ADDGF105991051021008001001001MA1999999095231MD1999999+0051REMSYN070AAXX  09184 82795 32597 50909 10277 20161 39523 40141 85200 333 58005;
0168827950999992006091000004-07217-035883FM-12+0548SBKG V0201401N003610075019N0010001N1+02181+01921101671ADDGF106991061021008001001001KA1240M+02881MA1999999095481MD1999999-0121REMSYN088AAXX  10004 82795 32594 61407 10218 20192 39548 40167 86200 333 10288 29072 55109 59012;
0201827950999992006091012004-07217-035883FM-12+0548SBKG V0201401N004610075019N0100001N1+02311+01851101851ADDAA124000591AY161061AY221061GF106991061061008001001001KA1240N+01951MA1999999095651MD1999999+0081MW1021REMSYN088AAXX  10124 82795 21597 61409 10231 20185 39565 40185 70262 86600 333 20195 58008 69954;
0137827950999992006091018004-07217-035883FM-12+0548SBKG V0200901N004612200019N0100001N1+02771+01611101571ADDGF103991031021008001001001MA1999999095411MD1999999+0181REMSYN070AAXX  10184 82795 32597 30909 10277 20161 39541 40157 83200 333 58018;
0168827950999992006091100004-07217-035883FM-12+0548SBKG V0200901N002612200019N0010001N1+02161+01861101861ADDGF102991021011008001001001KA1240M+02881MA1999999095661MD1999999+0121REMSYN088AAXX  11004 82795 32594 20905 10216 20186 39566 40186 82100 333 10288 29073 55081 58012;
0156827950999992006091112004-07217-035883FM-12+0548SBKG V0201401N004110075019N0100001N1+02181+01951101971ADDGF108991081071008001999999KA1240N+01921MA1999999095741MD1999999+0091REMSYN076AAXX  11124 82795 32597 81408 10218 20195 39574 40197 887// 333 20192 58009;
0201827950999992006091118004-07217-035883FM-12+0548SBKG V0201401N005110075019N0100001N1+02421+01701101611ADDAA106000091AY151061AY221061GF108991051041008001041001MA1999999095411MD1999999+0001MW1021REMSYN082AAXX  11184 82795 21597 81410 10242 20170 39541 40161 70252 85440 333 58000 69911;EQDQ01  00002PRCP06
0168827950999992006091200004-07217-035883FM-12+0548SBKG V0200901N003110120019N0010001N1+02091+01741101871ADDGF106991061081008001001001KA1240M+02561MA1999999095641MD1999999-0021REMSYN088AAXX  12004 82795 32594 60906 10209 20174 39564 40187 86800 333 10256 29078 55045 59002;
0137827950999992006091218004-07217-035883FM-12+0548SBKG V0201401N005112200019N0100001N1+02711+01231101431ADDGF103991031031008001001001MA1999999095271MD1999999-0141REMSYN070AAXX  12184 82795 32597 31410 10271 20123 39527 40143 83300 333 59014;
0178827950999992006091300004-07217-035883FM-12+0548SBKG V0201401N002112200019N0100001N1+02091+01471101771ADDGA1001+999999999GF100991001001999999001001KA1240M+02801MA1999999095551MD1999999-0091REMSYN082AAXX  13004 82795 32997 01404 10209 20147 39555 40177 333 10280 29061 55089 59009;
0156827950999992006091312004-07217-035883FM-12+0548SBKG V0201401N004610075019N0100001N1+02391+01651101811ADDGF106991061021008001001001KA1240N+01781MA1999999095611MD1999999+0001REMSYN076AAXX  13124 82795 32597 61409 10239 20165 39561 40181 86200 333 20178 58000;
0137827950999992006091318004-07217-035883FM-12+0548SBKG V0200901N004610075019N0100001N1+02741+01541101371ADDGF106991061051008001001001MA1999999095201MD1999999-0071REMSYN070AAXX  13184 82795 32597 60909 10274 20154 39520 40137 86500 333 59007;
0168827950999992006091400004-07217-035883FM-12+0548SBKG V0201401N003610075019N0010001N1+02171+01841101731ADDGF106991061021008001001001KA1240M+02811MA1999999095531MD1999999-0021REMSYN088AAXX  14004 82795 32594 61407 10217 20184 39553 40173 86200 333 10281 29068 55089 59002;
0201827950999992006091412004-07217-035883FM-12+0548SBKG V0201401N003610075019N0100001N1+02391+01821101811ADDAA124000891AY161061AY221061GF106991061021008001001001KA1240N+01881MA1999999095611MD1999999+0001MW1021REMSYN088AAXX  14124 82795 21597 61407 10239 20182 39561 40181 70262 86200 333 20188 58000 69984;
0156827950999992006091418004-07217-035883FM-12+0548SBKG V0201401N005119999999N0100001N1+02691+01841101391ADDGF105991999031008001001001MA1999999095221MD1999999+0021REMSYN070AAXX  14184 82795 32597 51410 10269 20184 39522 40139 84300 333 58002;EQDQ01+000042SCOTLC
0168827950999992006091500004-07217-035883FM-12+0548SBKG V0201401N006710450019N0010001N1+02121+01781101651ADDGF106991031031008001021001KA1240M+02831MA1999999095461MD1999999-0071REMSYN088AAXX  15004 82795 32594 61413 10212 20178 39546 40165 83320 333 10283 29078 55082 59007;
0156827950999992006091512004-07217-035883FM-12+0548SBKG V0201401N004610075019N0100001N1+02481+01701101861ADDGF106991061021008001001001KA1240N+01851MA1999999095671MD1999999+0061REMSYN076AAXX  15124 82795 32597 61409 10248 20170 39567 40186 86200 333 20185 58006;
0137827950999992006091518004-07217-035883FM-12+0548SBKG V0200901N003110075019N0100001N1+02911+01591101261ADDGF105991051031008001001001MA1999999095141MD1999999-0081REMSYN070AAXX  15184 82795 32597 50906 10291 20159 39514 40126 85300 333 59008;
0168827950999992006091600004-07217-035883FM-12+0548SBKG V0200901N003612200019N0010001N1+02151+01931101731ADDGF104991041021008001001001KA1240M+02971MA1999999095551MD1999999+0091REMSYN088AAXX  16004 82795 32594 40907 10215 20193 39555 40173 84200 333 10297 29070 55104 58009;
0201827950999992006091612004-07217-035883FM-12+0548SBKG V0200901N004610042019N0020001N1+02131+02061101851ADDAA124002091AY161061AY221061GF108991081071004501999999KA1240N+02031MA1999999095631MD1999999-0041MW1601REMSYN088AAXX  16124 82795 21495 80909 10213 20206 39563 40185 76062 887// 333 20203 59004 60024;
0182827950999992006091618004-07217-035883FM-12+0548SBKG V0200901N004110450019N0100001N1+02451+02011101481ADDAA106004191AY161061AY261061GF106991041021008001031001MA1999999095301MD1999999+0161MW1011REMSYN082AAXX  16184 82795 21597 60908 10245 20201 39530 40148 70166 84230 333 58016 60041;
0213827950999992006091700004-07217-035883FM-12+0548SBKG V0200901N003610075019N0005001N1+02161+02081101751ADDAA106000391AY151061AY221061GF108991081071008001999999KA1240M+02561MA1999999095531MD1999999-0021MW1501REMSYN100AAXX  17004 82795 21593 80907 10216 20208 39553 40175 75052 887// 333 10256 29090 55027 59002 69931;
0201827950999992006091712004-07217-035883FM-12+0548SBKG V0200901N005110075019N0100001N1+02391+01771101861ADDAA124005191AY161061AY221061GF106991061021008001001001KA1240N+02021MA1999999095661MD1999999+0031MW1021REMSYN088AAXX  17124 82795 21597 60910 10239 20177 39566 40186 70262 86200 333 20202 58003 60054;
0137827950999992006091718004-07217-035883FM-12+0548SBKG V0200901N004612200019N0100001N1+02761+01661101451ADDGF103991031021008001001001MA1999999095331MD1999999+0031REMSYN070AAXX  17184 82795 32597 30909 10276 20166 39533 40145 83200 333 58003;
0168827950999992006091800004-07217-035883FM-12+0548SBKG V0200901N002612200019N0010001N1+02151+01861101801ADDGF102991021011008001001001KA1240M+02851MA1999999095601MD1999999+0071REMSYN088AAXX  18004 82795 32594 20905 10215 20186 39560 40180 82100 333 10285 29071 55090 58007;
0156827950999992006091812004-07217-035883FM-12+0548SBKG V0200901N004610075019N0100001N1+02521+01711101831ADDGF106991061021008001001001KA1240N+01901MA1999999095651MD1999999-0011REMSYN076AAXX  18124 82795 32597 60909 10252 20171 39565 40183 86200 333 20190 59001;
0137827950999992006091818004-07217-035883FM-12+0548SBKG V0201401N004612200019N0100001N1+02821+01651101331ADDGF101991011011008001001001MA1999999095201MD1999999-0131REMSYN070AAXX  18184 82795 32597 11409 10282 20165 39520 40133 81100 333 59013;
0168827950999992006091900004-07217-035883FM-12+0548SBKG V0200901N003612200019N0010001N1+02151+01861101601ADDGF102991021011008001001001KA1240M+02911MA1999999095441MD1999999-0161REMSYN088AAXX  19004 82795 32594 20907 10215 20186 39544 40160 82100 333 10291 29069 55096 59016;
0201827950999992006091912004-07217-035883FM-12+0548SBKG V0201401N004110075019N0100001N1+02381+01891101661ADDAA124000591AY161061AY221061GF106991061021008001001001KA1240N+01931MA1999999095471MD1999999-0181MW1021REMSYN088AAXX  19124 82795 21597 61408 10238 20189 39547 40166 70262 86200 333 20193 59018 69954;
0137827950999992006091918004-07217-035883FM-12+0548SBKG V0201401N006212200019N0100001N1+02851+01631101301ADDGF104991041011008001001001MA1999999095171MD1999999-0031REMSYN070AAXX  19184 82795 32597 41412 10285 20163 39517 40130 84100 333 59003;
0187827950999992006092000004-07217-035883FM-12+0548SBKG V0200501N003612200019N0010001N1+02091+01761101571ADDGF101991999011008001001001KA1240M+02941MA1999999095371MD1999999+0071REMSYN088AAXX  20004 82795 32594 10507 10209 20176 39537 40157 82100 333 10294 29071 55091 58007;EQDQ01+000022SCOTLC
0156827950999992006092012004-07217-035883FM-12+0548SBKG V0200901N006210075019N0100001N1+02401+01771101651ADDGF106991061021008001001001KA1240N+02101MA1999999095451MD1999999-0021REMSYN076AAXX  20124 82795 32597 60912 10240 20177 39545 40165 86200 333 20210 59002;
0137827950999992006092018004-07217-035883FM-12+0548SBKG V0201401N005112200019N0100001N1+02811+01391101271ADDGF104991041021008001001001MA1999999095141MD1999999-0031REMSYN070AAXX  20184 82795 32597 41410 10281 20139 39514 40127 84200 333 59003;
0168827950999992006092100004-07217-035883FM-12+0548SBKG V0200901N002612200019N0010001N1+02121+01841101641ADDGF102991021011008001001001KA1240M+02911MA1999999095451MD1999999+0081REMSYN088AAXX  21004 82795 32594 20905 10212 20184 39545 40164 82100 333 10291 29070 55092 58008;
0156827950999992006092112004-07217-035883FM-12+0548SBKG V0200901N002610075019N0100001N1+02371+01701101741ADDGF106991061021008001001001KA1240N+02001MA1999999095541MD1999999+0091REMSYN076AAXX  21124 82795 32597 60905 10237 20170 39554 40174 86200 333 20200 58009;
0137827950999992006092118004-07217-035883FM-12+0548SBKG V0200501N003612200019N0100001N1+02901+01781101351ADDGF104991041021008001001001MA1999999095231MD1999999+0091REMSYN070AAXX  21184 82795 32597 40507 10290 20178 39523 40135 84200 333 58009;
0168827950999992006092200004-07217-035883FM-12+0548SBKG V0201401N005110075019N0100001N1+02141+01931101541ADDGF105991051051008001001001KA1240M+02931MA1999999095361MD1999999+0091REMSYN088AAXX  22004 82795 32597 51410 10214 20193 39536 40154 85500 333 10293 29074 55086 58009;
0156827950999992006092212004-07217-035883FM-12+0548SBKG V0201401N005710075019N0100001N1+02331+01871101701ADDGF106991061021008001001001KA1240N+02031MA1999999095501MD1999999-0041REMSYN076AAXX  22124 82795 32597 61411 10233 20187 39550 40170 86200 333 20203 59004;
0137827950999992006092218004-07217-035883FM-12+0548SBKG V0201401N006710075019N0100001N1+02851+01721101731ADDGF105991051011008001001001MA1999999095241MD1999999+0011REMSYN070AAXX  22184 82795 32597 51413 10285 20172 39524 40173 85100 333 58001;
0168827950999992006092300004-07217-035883FM-12+0548SBKG V0200901N004610075019N0010001N1+02201+01901101681ADDGF106991061021008001001001KA1240M+02911MA1999999095491MD1999999+0131REMSYN088AAXX  23004 82795 32594 60909 10220 20190 39549 40168 86200 333 10291 29073 55085 58013;
0156827950999992006092312004-07217-035883FM-12+0548SBKG V0200501N005110075019N0100001N1+02441+01761101671ADDGF106991061021008001001001KA1240N+01931MA1999999095491MD1999999-0011REMSYN076AAXX  23124 82795 32597 60510 10244 20176 39549 40167 86200 333 20193 59001;
0137827950999992006092318004-07217-035883FM-12+0548SBKG V0200501N005112200019N0100001N1+02961+01421101291ADDGF102991021021008001001001MA1999999095171MD1999999-0071REMSYN070AAXX  23184 82795 32597 20510 10296 20142 39517 40129 82200 333 59007;
0168827950999992006092400004-07217-035883FM-12+0548SBKG V0201401N002112200019N0010001N1+02111+01761101541ADDGF103991031021008001001001KA1240M+02981MA1999999095361MD1999999-0131REMSYN088AAXX  24004 82795 32594 31404 10211 20176 39536 40154 83200 333 10298 29066 55102 59013;
0156827950999992006092412004-07217-035883FM-12+0548SBKG V0201401N001512200019N0100001N1+02511+01491101531ADDGF101991011011008001001001KA1240N+01951MA1999999095351MD1999999-0141REMSYN076AAXX  24124 82795 32597 11403 10251 20149 39535 40153 81100 333 20195 59014;
0147827950999992006092418004-07217-035883FM-12+0548SBKG V0201401N002112200019N0100001N1+03041+01451101171ADDGA1001+999999999GF100991001001999999001001MA1999999095071MD1999999-0071REMSYN064AAXX  24184 82795 32597 01404 10304 20145 39507 40117 333 59007;
0168827950999992006092500004-07217-035883FM-12+0548SBKG V0201401N004612200019N0010001N1+02111+01821101521ADDGF103991031021008001001001KA1240M+03101MA1999999095351MD1999999-0011REMSYN088AAXX  25004 82795 32594 31409 10211 20182 39535 40152 83200 333 10310 29064 55101 59001;
0156827950999992006092512004-07217-035883FM-12+0548SBKG V0200901N003610075019N0100001N1+02461+01831101931ADDGF106991061021008001001001KA1240N+02031MA1999999095731MD1999999+0381REMSYN076AAXX  25124 82795 32597 60907 10246 20183 39573 40193 86200 333 20203 58038;
0137827950999992006092518004-07217-035883FM-12+0548SBKG V0201401N004612200019N0100001N1+02941+01721101351ADDGF103991031021008001001001MA1999999095231MD1999999+0161REMSYN070AAXX  25184 82795 32597 31409 10294 20172 39523 40135 83200 333 58016;
0178827950999992006092600004-07217-035883FM-12+0548SBKG V0200901N003112200019N0010001N1+02201+01821101621ADDGA1001+999999999GF100991001001999999001001KA1240M+03051MA1999999095461MD1999999+0111REMSYN082AAXX  26004 82795 32994 00906 10220 20182 39546 40162 333 10305 29068 55097 58011;
0156827950999992006092612004-07217-035883FM-12+0548SBKG V0201401N004110075019N0100001N1+02561+01751101741ADDGF106991061021008001001001KA1240N+01961MA1999999095571MD1999999-0161REMSYN076AAXX  26124 82795 32597 61408 10256 20175 39557 40174 86200 333 20196 59016;
0137827950999992006092618004-07217-035883FM-12+0548SBKG V0201401N004610075019N0100001N1+02971+01781101361ADDGF105991051011008001001001MA1999999095241MD1999999+0011REMSYN070AAXX  26184 82795 32597 51409 10297 20178 39524 40136 85100 333 58001;
0168827950999992006092700004-07217-035883FM-12+0548SBKG V0201401N005112200019N0010001N1+02211+01781101781ADDGF102991021011008001001001KA1240M+03041MA1999999095611MD1999999+0261REMSYN088AAXX  27004 82795 32594 21410 10221 20178 39561 40178 82100 333 10304 29065 55102 58026;
0156827950999992006092712004-07217-035883FM-12+0548SBKG V0200901N003110075019N0100001N1+02291+01901101921ADDGF107991071071008001001001KA1240N+02061MA1999999095721MD1999999-0151REMSYN076AAXX  27124 82795 32597 70906 10229 20190 39572 40192 87700 333 20206 59015;
0168827950999992006092800004-07217-035883FM-12+0548SBKG V0201401N003112200019N0010001N1+02191+01841101591ADDGF102991021011008001001001KA1240M+02771MA1999999095591MD1999999-0021REMSYN088AAXX  28004 82795 32594 21406 10219 20184 39559 40159 82100 333 10277 29074 55050 59002;
0156827950999992006092812004-07217-035883FM-12+0548SBKG V0201401N003610075019N0100001N1+02451+01691101771ADDGF106991061021008001001001KA1240N+02011MA1999999095591MD1999999-0131REMSYN076AAXX  28124 82795 32597 61407 10245 20169 39559 40177 86200 333 20201 59013;
0137827950999992006092818004-07217-035883FM-12+0548SBKG V0201401N005112200019N0100001N1+02881+01501101101ADDGF103991031021008001001001MA1999999095001MD1999999-0321REMSYN070AAXX  28184 82795 32597 31410 10288 20150 39500 40110 83200 333 59032;
0178827950999992006092900004-07217-035883FM-12+0548SBKG V0201401N003112200019N0010001N1+02091+01681101751ADDGA1001+999999999GF100991001001999999001001KA1240M+02911MA1999999095551MD1999999-0041REMSYN082AAXX  29004 82795 32594 01406 10209 20168 39555 40175 333 10291 29064 55097 59004;
0156827950999992006092912004-07217-035883FM-12+0548SBKG V0201401N004110075019N0100001N1+02441+01661101751ADDGF106991061021008001001001KA1240N+01881MA1999999095551MD1999999-0041REMSYN076AAXX  29124 82795 32597 61408 10244 20166 39555 40175 86200 333 20188 59004;
0137827950999992006092918004-07217-035883FM-12+0548SBKG V0200901N004612200019N0100001N1+02911+01461101371ADDGF102991021011008001001001MA1999999095231MD1999999+0231REMSYN070AAXX  29184 82795 32597 20909 10291 20146 39523 40137 82100 333 58023;
0168827950999992006093000004-07217-035883FM-12+0548SBKG V0200901N003112200019N0010001N1+02141+01741101721ADDGF102991021011008001001001KA1240M+03021MA1999999095521MD1999999-0031REMSYN088AAXX  30004 82795 32594 20906 10214 20174 39552 40172 82100 333 10302 29065 55112 59003;
0156827950999992006093012004-07217-035883FM-12+0548SBKG V0201401N004610075019N0100001N1+02451+01731101801ADDGF106991061021008001001001KA1240N+01961MA1999999095621MD1999999+0071REMSYN076AAXX  30124 82795 32597 61409 10245 20173 39562 40180 86200 333 20196 58007;
0137827950999992006093018004-07217-035883FM-12+0548SBKG V0200901N004612200019N0100001N1+02951+01641101351ADDGF102991021021008001001001MA1999999095231MD1999999+0001REMSYN070AAXX  30184 82795 32597 20909 10295 20164 39523 40135 82200 333 58000;
0168827950999992006100100004-07217-035883FM-12+0548SBKG V0200901N004112200019N0010001N1+02251+01941101731ADDGF102991021011008001001001KA1240M+03011MA1999999095561MD1999999+0041REMSYN088AAXX  01004 82795 32594 20908 10225 20194 39556 40173 82100 333 10301 29069 55099 58004;
0156827950999992006100112004-07217-035883FM-12+0548SBKG V0201401N006210075019N0100001N1+02461+01881101681ADDGF106991061021008001001001KA1240N+02051MA1999999095521MD1999999+0101REMSYN076AAXX  01124 82795 32597 61412 10246 20188 39552 40168 86200 333 20205 58010;
0137827950999992006100118004-07217-035883FM-12+0548SBKG V0200901N005112200019N0100001N1+02891+01521101331ADDGF104991041021008001001001MA1999999095211MD1999999+0051REMSYN070AAXX  01184 82795 32597 40910 10289 20152 39521 40133 84200 333 58005;
0168827950999992006100200004-07217-035883FM-12+0548SBKG V0200901N004112200019N0010001N1+02181+01921101681ADDGF102991021011008001001001KA1240M+02991MA1999999095501MD1999999-0061REMSYN088AAXX  02004 82795 32594 20908 10218 20192 39550 40168 82100 333 10299 29071 55092 59006;
0156827950999992006100212004-07217-035883FM-12+0548SBKG V0200901N005710075019N0100001N1+02451+01731101631ADDGF106991061021008001001001KA1240N+02001MA1999999095451MD1999999-0071REMSYN076AAXX  02124 82795 32597 60911 10245 20173 39545 40163 86200 333 20200 59007;
0137827950999992006100218004-07217-035883FM-12+0548SBKG V0201401N004612200019N0100001N1+02891+01391101161ADDGF103991031021008001001001MA1999999095051MD1999999-0161REMSYN070AAXX  02184 82795 32597 31409 10289 20139 39505 40116 83200 333 59016;
0168827950999992006100300004-07217-035883FM-12+0548SBKG V0200901N005110075019N0010001N1+02191+01941101551ADDGF106991061021008001001001KA1240M+03021MA1999999095381MD1999999-0121REMSYN088AAXX  03004 82795 32594 60910 10219 20194 39538 40155 86200 333 10302 29068 55105 59012;
0156827950999992006100312004-07217-035883FM-12+0548SBKG V0201401N003610075019N0100001N1+02491+01781101541ADDGF105991051011008001001001KA1240N+01941MA1999999095381MD1999999-0071REMSYN076AAXX  03124 82795 32597 51407 10249 20178 39538 40154 85100 333 20194 59007;
0137827950999992006100318004-07217-035883FM-12+0548SBKG V0201401N003110075019N0100001N1+03011+01681101201ADDGF105991051011008001001001MA1999999095091MD1999999+0041REMSYN070AAXX  03184 82795 32597 51406 10301 20168 39509 40120 85100 333 58004;
0178827950999992006100400004-07217-035883FM-12+0548SBKG V0201401N005112200019N0010001N1+02111+01821101401ADDGA1001+999999999GF100991001001999999001001KA1240M+03171MA1999999095241MD1999999-0141REMSYN082AAXX  04004 82795 32994 01410 10211 20182 39524 40140 333 10317 29069 55102 59014;
0156827950999992006100412004-07217-035883FM-12+0548SBKG V0200901N004610075019N0100001N1+02491+01701101531ADDGF106991061021008001001001KA1240N+01931MA1999999095361MD1999999-0021REMSYN076AAXX  04124 82795 32597 60909 10249 20170 39536 40153 86200 333 20193 59002;
0137827950999992006100418004-07217-035883FM-12+0548SBKG V0201401N003612200019N0100001N1+02881+01571100951ADDGF104991041021008001001001MA1999999094841MD1999999-0251REMSYN070AAXX  04184 82795 32597 41407 10288 20157 39484 40095 84200 333 59025;
0168827950999992006100500004-07217-035883FM-12+0548SBKG V0200901N005712200019N0010001N1+02161+01861101471ADDGF104991041021008001001001KA1240M+03031MA1999999095311MD1999999+0071REMSYN088AAXX  05004 82795 32594 40911 10216 20186 39531 40147 84200 333 10303 29068 55107 58007;
0156827950999992006100512004-07217-035883FM-12+0548SBKG V0200901N004610075019N0100001N1+02541+01651101501ADDGF106991061011008001001001KA1240N+02021MA1999999095341MD1999999-0021REMSYN076AAXX  05124 82795 32597 60909 10254 20165 39534 40150 86100 333 20202 59002;
0137827950999992006100518004-07217-035883FM-12+0548SBKG V0201401N004612200019N0100001N1+02971+01611101191ADDGF103991031021008001001001MA1999999095091MD1999999+0251REMSYN070AAXX  05184 82795 32597 31409 10297 20161 39509 40119 83200 333 58025;
0168827950999992006100600004-07217-035883FM-12+0548SBKG V0201401N002612200019N0010001N1+02141+01801101641ADDGF103991031021008001001001KA1240M+03091MA1999999095481MD1999999+0171REMSYN088AAXX  06004 82795 32594 31405 10214 20180 39548 40164 83200 333 10309 29066 55097 58017;
0156827950999992006100612004-07217-035883FM-12+0548SBKG V0201401N003610075019N0100001N1+02411+01821101611ADDGF105991051021008001001001KA1240N+02031MA1999999095421MD1999999+0081REMSYN076AAXX  06124 82795 32597 51407 10241 20182 39542 40161 85200 333 20203 58008;
0137827950999992006100618004-07217-035883FM-12+0548SBKG V0200901N005712200019N0100001N1+02941+01941101211ADDGF104991041021008001001001MA1999999095101MD1999999+0011REMSYN070AAXX  06184 82795 32597 40911 10294 20194 39510 40121 84200 333 58001;
0168827950999992006100700004-07217-035883FM-12+0548SBKG V0201401N003612200019N0010001N1+02161+01821101711ADDGF102991021011008001001001KA1240M+03021MA1999999095491MD1999999+0011REMSYN088AAXX  07004 82795 32594 21407 10216 20182 39549 40171 82100 333 10302 29079 55097 58001;
0156827950999992006100712004-07217-035883FM-12+0548SBKG V0201401N004610075019N0100001N1+02491+01801101631ADDGF106991061021008001001001KA1240N+02041MA1999999095451MD1999999+0031REMSYN076AAXX  07124 82795 32597 61409 10249 20180 39545 40163 86200 333 20204 58003;
0137827950999992006100718004-07217-035883FM-12+0548SBKG V0201401N005110075019N0100001N1+02841+01701101271ADDGF105991051021008001001001MA1999999095151MD1999999+0021REMSYN070AAXX  07184 82795 32597 51410 10284 20170 39515 40127 85200 333 58002;
0168827950999992006100800004-07217-035883FM-12+0548SBKG V0201401N003610075019N0010001N1+02131+01881101511ADDGF105991051011008001001001KA1240M+03001MA1999999095351MD1999999-0141REMSYN088AAXX  08004 82795 32594 51407 10213 20188 39535 40151 85100 333 10300 29072 55095 59014;
0156827950999992006100812004-07217-035883FM-12+0548SBKG V0201401N004610075019N0100001N1+02531+02151101491ADDGF105991051041008001001001KA1240N+02031MA1999999095331MD1999999-0081REMSYN076AAXX  08124 82795 32597 51409 10253 20215 39533 40149 85400 333 20203 59008;
0137827950999992006100818004-07217-035883FM-12+0548SBKG V0201401N005112200019N0100001N1+02871+01721101161ADDGF102991021011008001001001MA1999999095081MD1999999-0071REMSYN070AAXX  08184 82795 32597 21410 10287 20172 39508 40116 82100 333 59007;
0168827950999992006100900004-07217-035883FM-12+0548SBKG V0201401N004612200019N0010001N1+02141+01861101461ADDGF104991041011008001001001KA1240M+03071MA1999999095301MD1999999-0051REMSYN088AAXX  09004 82795 32594 41409 10214 20186 39530 40146 84100 333 10307 29074 55096 59005;
0156827950999992006100912004-07217-035883FM-12+0548SBKG V0200901N004612200019N0100001N1+02521+01841101711ADDGF104991041021008001001001KA1240N+02001MA1999999095531MD1999999+0201REMSYN076AAXX  09124 82795 32597 40909 10252 20184 39553 40171 84200 333 20200 58020;
0137827950999992006100918004-07217-035883FM-12+0548SBKG V0201401N005112200019N0100001N1+02911+01401101321ADDGF102991021011008001001001MA1999999095201MD1999999+0281REMSYN070AAXX  09184 82795 32597 21410 10291 20140 39520 40132 82100 333 58028;
0168827950999992006101000004-07217-035883FM-12+0548SBKG V0200901N003112200019N0010001N1+02211+01901101661ADDGF104991041021008001001001KA1240M+03041MA1999999095471MD1999999+0201REMSYN088AAXX  10004 82795 32594 40906 10221 20190 39547 40166 84200 333 10304 29068 55107 58020;
0156827950999992006101012004-07217-035883FM-12+0548SBKG V0200901N003610075019N0100001N1+02461+01901101721ADDGF106991061061008001001001KA1240N+02091MA1999999095541MD1999999+0011REMSYN076AAXX  10124 82795 32597 60907 10246 20190 39554 40172 86600 333 20209 58001;
0137827950999992006101018004-07217-035883FM-12+0548SBKG V0201401N005110075019N0100001N1+02981+01591101371ADDGF105991051011008001001001MA1999999095251MD1999999+0051REMSYN070AAXX  10184 82795 32597 51410 10298 20159 39525 40137 85100 333 58005;
0168827950999992006101100004-07217-035883FM-12+0548SBKG V0201401N004612200019N0100001N1+02231+01941101691ADDGF103991031011008001001001KA1240M+03021MA1999999095531MD1999999+0061REMSYN088AAXX  11004 82795 32597 31409 10223 20194 39553 40169 83100 333 10302 29075 55089 58006;
0156827950999992006101112004-07217-035883FM-12+0548SBKG V0201401N003612200019N0100001N1+02551+01801101631ADDGF105991021011008001001011KA1240N+02081MA1999999095481MD1999999-0061REMSYN076AAXX  11124 82795 32597 51407 10255 20180 39548 40163 82101 333 20208 59006;
0137827950999992006101118004-07217-035883FM-12+0548SBKG V0201401N005112200019N0100001N1+03011+01841101161ADDGF102991021021008001001001MA1999999095061MD1999999-0191REMSYN070AAXX  11184 82795 32597 21410 10301 20184 39506 40116 82200 333 59019;
0168827950999992006101200004-07217-035883FM-12+0548SBKG V0200901N003610075019N0010001N1+02261+02031101541ADDGF106991061021008001001001KA1240M+03051MA1999999095401MD1999999-0131REMSYN088AAXX  12004 82795 32594 60907 10226 20203 39540 40154 86200 333 10305 29072 55102 59013;
0137827950999992006101218004-07217-035883FM-12+0548SBKG V0201401N003112200019N0100001N1+02931+01721101061ADDGF102991021021008001001001MA1999999095001MD1999999-0061REMSYN070AAXX  12184 82795 32597 21406 10293 20172 39500 40106 82200 333 59006;
0168827950999992006101300004-07217-035883FM-12+0548SBKG V0200901N004112200019N0010001N1+02211+01941101351ADDGF104991041021008001001001KA1240M+03061MA1999999095211MD1999999-0191REMSYN088AAXX  13004 82795 32594 40908 10221 20194 39521 40135 84200 333 10306 29072 55083 59019;
0156827950999992006101312004-07217-035883FM-12+0548SBKG V0200901N003110075019N0100001N1+02461+01811101531ADDGF106991061021008001001001KA1240N+02031MA1999999095361MD1999999-0061REMSYN076AAXX  13124 82795 32597 60906 10246 20181 39536 40153 86200 333 20203 59006;
0137827950999992006101318004-07217-035883FM-12+0548SBKG V0200901N005112200019N0100001N1+03021+01471101011ADDGF104991041021008001001001MA1999999094941MD1999999-0061REMSYN070AAXX  13184 82795 32597 40910 10302 20147 39494 40101 84200 333 59006;
0168827950999992006101400004-07217-035883FM-12+0548SBKG V0200901N004112200019N0010001N1+02811+01901101371ADDGF103991031021008001001001KA1240M+03051MA1999999095231MD1999999+0021REMSYN088AAXX  14004 82795 32594 30908 10281 20190 39523 40137 83200 333 10305 29068 55091 58002;
0156827950999992006101412004-07217-035883FM-12+0548SBKG V0200901N004110075019N0100001N1+02571+01901101391ADDGF106991061021008001001001KA1240N+02041MA1999999095241MD1999999-0121REMSYN076AAXX  14124 82795 32597 60908 10257 20190 39524 40139 86200 333 20204 59012;
0137827950999992006101418004-07217-035883FM-12+0548SBKG V0200901N005112200019N0100001N1+03051+01641100961ADDGF102991011011008001001011MA1999999094891MD1999999-0051REMSYN070AAXX  14184 82795 32597 20910 10305 20164 39489 40096 81101 333 59005;
0168827950999992006101500004-07217-035883FM-12+0548SBKG V0200901N004110075019N0010001N1+02301+02011101301ADDGF105991051021008001001001KA1240M+03141MA1999999095181MD1999999-0051REMSYN088AAXX  15004 82795 32594 50908 10230 20201 39518 40130 85200 333 10314 29069 55101 59005;
0156827950999992006101512004-07217-035883FM-12+0548SBKG V0200901N004610075019N0100001N1+02621+01861101421ADDGF106991061021008001001001KA1240N+02141MA1999999095271MD1999999+0041REMSYN076AAXX  15124 82795 32597 60909 10262 20186 39527 40142 86200 333 20214 58004;
0137827950999992006101518004-07217-035883FM-12+0548SBKG V0200901N004612200019N0100001N1+03031+01471100971ADDGF102991021011008001001001MA1999999094911MD1999999+0021REMSYN070AAXX  15184 82795 32597 20909 10303 20147 39491 40097 82100 333 58002;
0168827950999992006101600004-07217-035883FM-12+0548SBKG V0200901N003610075019N0010001N1+02301+02031101351ADDGF105991051021008001001001KA1240M+03151MA1999999095231MD1999999+0051REMSYN088AAXX  16004 82795 32594 50907 10230 20203 39523 40135 85200 333 10315 29068 55103 58005;
0156827950999992006101612004-07217-035883FM-12+0548SBKG V0200901N004612200019N0100001N1+02571+01691101451ADDGF104991041011008001001001KA1240N+02101MA1999999095311MD1999999+0031REMSYN076AAXX  16124 82795 32597 40909 10257 20169 39531 40145 84100 333 20210 58003;
0137827950999992006101618004-07217-035883FM-12+0548SBKG V0201401N005112200019N0100001N1+03011+01491101041ADDGF103991031011008001001001MA1999999094951MD1999999+0011REMSYN070AAXX  16184 82795 32597 31410 10301 20149 39495 40104 83100 333 58001;
0168827950999992006101700004-07217-035883FM-12+0548SBKG V0200901N004612200019N0010001N1+02251+01881101311ADDGF103991031021008001001001KA1240M+03121MA1999999095181MD1999999-0051REMSYN088AAXX  17004 82795 32594 30909 10225 20188 39518 40131 83200 333 10312 29064 55097 59005;
0156827950999992006101712004-07217-035883FM-12+0548SBKG V0201401N004610075019N0100001N1+02581+01901101441ADDGF106991061021008001001001KA1240N+02061MA1999999095301MD1999999-0011REMSYN076AAXX  17124 82795 32597 61409 10258 20190 39530 40144 86200 333 20206 59001;
0137827950999992006101718004-07217-035883FM-12+0548SBKG V0200901N005112200019N0100001N1+03101+01971100971ADDGF104991041011008001001001MA1999999094901MD1999999-0051REMSYN070AAXX  17184 82795 32597 40910 10310 20197 39490 40097 84100 333 59005;
0168827950999992006101800004-07217-035883FM-12+0548SBKG V0201401N003110075019N0010001N1+02171+01931101261ADDGF105991051031008001001001KA1240M+03171MA1999999095121MD1999999+0061REMSYN088AAXX  18004 82795 32594 51406 10217 20193 39512 40126 85300 333 10317 29073 55101 58006;
0156827950999992006101812004-07217-035883FM-12+0548SBKG V0200901N004110075019N0100001N1+02561+01831101291ADDGF106991061021008001001001KA1240N+02111MA1999999095151MD1999999-0151REMSYN076AAXX  18124 82795 32597 60908 10256 20183 39515 40129 86200 333 20211 59015;
0137827950999992006101818004-07217-035883FM-12+0548SBKG V0201401N003112200019N0100001N1+02991+01641100961ADDGF103991031021008001001001MA1999999094891MD1999999-0011REMSYN070AAXX  18184 82795 32597 31406 10299 20164 39489 40096 83200 333 59001;
0168827950999992006101900004-07217-035883FM-12+0548SBKG V0200901N005112200019N0010001N1+02241+02011101271ADDGF104991041021008001001001KA1240M+03141MA1999999095141MD1999999+0021REMSYN088AAXX  19004 82795 32594 40910 10224 20201 39514 40127 84200 333 10314 29071 55100 58002;
0156827950999992006101912004-07217-035883FM-12+0548SBKG V0200901N004110075019N0100001N1+02531+01861101411ADDGF106991061021008001001001KA1240N+02061MA1999999095261MD1999999+0111REMSYN076AAXX  19124 82795 32597 60908 10253 20186 39526 40141 86200 333 20206 58011;
0137827950999992006101918004-07217-035883FM-12+0548SBKG V0201401N005110075019N0100001N1+02771+01561101021ADDGF105991051031008001001001MA1999999094901MD1999999+0011REMSYN070AAXX  19184 82795 32597 51410 10277 20156 39490 40102 85300 333 58001;
0168827950999992006102000004-07217-035883FM-12+0548SBKG V0200501N003612200019N0010001N1+02191+01861101191ADDGF103991031021008001001001KA1240M+03121MA1999999095051MD1999999+0091REMSYN088AAXX  20004 82795 32594 30507 10219 20186 39505 40119 83200 333 10312 29070 55099 58009;
0156827950999992006102012004-07217-035883FM-12+0548SBKG V0200901N004112200019N0100001N1+02521+01721101511ADDGF104991041011008001001001KA1240N+02061MA1999999095351MD1999999+0091REMSYN076AAXX  20124 82795 32597 40908 10252 20172 39535 40151 84100 333 20206 58009;
0137827950999992006102018004-07217-035883FM-12+0548SBKG V0200901N002112200019N0100001N1+03151+01511100951ADDGF102991021011008001001001MA1999999094891MD1999999-0011REMSYN070AAXX  20184 82795 32597 20904 10315 20151 39489 40095 82100 333 59001;
0168827950999992006102100004-07217-035883FM-12+0548SBKG V0200901N005112200019N0010001N1+02221+01901101291ADDGF102991021011008001001001KA1240M+03191MA1999999095151MD1999999+0101REMSYN088AAXX  21004 82795 32594 20910 10222 20190 39515 40129 82100 333 10319 29066 55099 58010;
0175827950999992006102112004-07217-035883FM-12+0548SBKG V0200501N002612200019N0100001N1+02611+01791101471ADDGF101991999011008001001001KA1240N+02051MA1999999095331MD1999999-0021REMSYN076AAXX  21124 82795 32597 10505 10261 20179 39533 40147 82100 333 20205 59002;EQDQ01+000022SCOTLC
0137827950999992006102118004-07217-035883FM-12+0548SBKG V0200901N003112200019N0100001N1+03321+01651100971ADDGF102991021011008001001001MA1999999094931MD1999999+0041REMSYN070AAXX  21184 82795 32597 20906 10332 20165 39493 40097 82100 333 58004;
0168827950999992006102200004-07217-035883FM-12+0548SBKG V0200901N005710075019N0010001N1+02301+02011101401ADDGF106991061021008001001001KA1240M+03351MA1999999095281MD1999999+0131REMSYN088AAXX  22004 82795 32594 60911 10230 20201 39528 40140 86200 333 10335 29066 55107 58013;
0156827950999992006102212004-07217-035883FM-12+0548SBKG V0201401N002612200019N0100001N1+02661+01851101571ADDGF104991041011008001001001KA1240N+02131MA1999999095431MD1999999+0101REMSYN076AAXX  22124 82795 32597 41405 10266 20185 39543 40157 84100 333 20213 58010;
0137827950999992006102218004-07217-035883FM-12+0548SBKG V0200901N002112200019N0100001N1+03231+01571101051ADDGF103991031011008001001001MA1999999095011MD1999999+0081REMSYN070AAXX  22184 82795 32597 30904 10323 20157 39501 40105 83100 333 58008;
0168827950999992006102300004-07217-035883FM-12+0548SBKG V0200901N004610075019N0010001N1+02351+02031101521ADDGF106991061021008001001001KA1240M+03281MA1999999095381MD1999999+0121REMSYN088AAXX  23004 82795 32594 60909 10235 20203 39538 40152 86200 333 10328 29066 55101 58012;
0156827950999992006102312004-07217-035883FM-12+0548SBKG V0200901N004612200019N0100001N1+02651+01771101591ADDGF104991041021008001001001KA1240N+02111MA1999999095471MD1999999+0041REMSYN076AAXX  23124 82795 32597 40909 10265 20177 39547 40159 84200 333 20211 58004;
0137827950999992006102318004-07217-035883FM-12+0548SBKG V0201401N003610075019N0100001N1+02811+02031101401ADDGF108991051041008001041999MA1999999095281MD1999999+0261REMSYN070AAXX  23184 82795 32597 81407 10281 20203 39528 40140 8544/ 333 58026;
0168827950999992006102400004-07217-035883FM-12+0548SBKG V0200901N005110075019N0010001N1+02241+01961101631ADDGF105991051021008001001001KA1240M+03031MA1999999095491MD1999999+0091REMSYN088AAXX  24004 82795 32594 50910 10224 20196 39549 40163 85200 333 10303 29072 55081 58009;
0201827950999992006102412004-07217-035883FM-12+0548SBKG V0201401N004110075019N0100001N1+02451+01811101711ADDAA124001091AY161061AY221061GF106991061021008001001001KA1240N+01991MA1999999095551MD1999999+0081MW1021REMSYN088AAXX  24124 82795 21597 61408 10245 20181 39555 40171 70262 86200 333 20199 58008 60014;
0137827950999992006102418004-07217-035883FM-12+0548SBKG V0200901N004612200019N0100001N1+02901+01521101421ADDGF104991041011008001001001MA1999999095231MD1999999-0051REMSYN070AAXX  24184 82795 32597 40909 10290 20152 39523 40142 84100 333 59005;
0168827950999992006102500004-07217-035883FM-12+0548SBKG V0201401N003112200019N0010001N1+02171+01931101631ADDGF101991011011008001001001KA1240M+03031MA1999999095451MD1999999-0041REMSYN088AAXX  25004 82795 32594 11406 10217 20193 39545 40163 81100 333 10303 29071 55101 59004;
0201827950999992006102512004-07217-035883FM-12+0548SBKG V0200901N002110075019N0100001N1+02191+02011101781ADDAA124003091AY161061AY221061GF108991081071008001999999KA1240N+02041MA1999999095561MD1999999+0011MW1021REMSYN088AAXX  25124 82795 21597 80904 10219 20201 39556 40178 70262 887// 333 20204 58001 60034;
0137827950999992006102518004-07217-035883FM-12+0548SBKG V0200501N005112200019N0100001N1+03021+01671101281ADDGF103991031031008001001001MA1999999095181MD1999999-0051REMSYN070AAXX  25184 82795 32597 30510 10302 20167 39518 40128 83300 333 59005;
0168827950999992006102600004-07217-035883FM-12+0548SBKG V0200901N003612200019N0100001N1+02201+01951101721ADDGF102991021021008001001001KA1240M+03041MA1999999095521MD1999999+0071REMSYN088AAXX  26004 82795 32597 20907 10220 20195 39552 40172 82200 333 10304 29075 55060 58007;
0201827950999992006102612004-07217-035883FM-12+0548SBKG V0200901N003610075019N0040001N1+02181+01951101671ADDAA124000021AY161061AY221061GF108991081071008001999999KA1240N+02061MA1999999095451MD1999999-0111MW1501REMSYN088AAXX  26124 82795 21596 80907 10218 20195 39545 40167 75062 887// 333 20206 59011 69914;
0137827950999992006102618004-07217-035883FM-12+0548SBKG V0201401N005112200019N0100001N1+03001+01681101241ADDGF102991021021008001001001MA1999999095141MD1999999-0041REMSYN070AAXX  26184 82795 32597 21410 10300 20168 39514 40124 82200 333 59004;
0168827950999992006102700004-07217-035883FM-12+0548SBKG V0201401N005110075019N0010001N1+02221+01941101531ADDGF108991051071008001011001KA1240M+03041MA1999999095341MD1999999-0181REMSYN088AAXX  27004 82795 32594 81410 10222 20194 39534 40153 85710 333 10304 29075 55084 59018;
0156827950999992006102712004-07217-035883FM-12+0548SBKG V0201401N005110075019N0100001N1+02571+01771101381ADDGF106991061021008001001001KA1240N+02031MA1999999095241MD1999999-0211REMSYN076AAXX  27124 82795 32597 61410 10257 20177 39524 40138 86200 333 20203 59021;
0137827950999992006102718004-07217-035883FM-12+0548SBKG V0200901N002111050019N0100001N1+03151+01601100931ADDGF106991021011008001001081MA1999999094871MD1999999-0271REMSYN070AAXX  27184 82795 32597 60904 10315 20160 39487 40093 82108 333 59027;
0168827950999992006102800004-07217-035883FM-12+0548SBKG V0200901N005110075019N0010001N1+02241+01921101271ADDGF106991061021008001001001KA1240M+03151MA1999999095141MD1999999-0201REMSYN088AAXX  28004 82795 32594 60910 10224 20192 39514 40127 86200 333 10315 29066 55101 59020;
0156827950999992006102812004-07217-035883FM-12+0548SBKG V0200901N003112200019N0100001N1+02571+01721101411ADDGF101991011011008001001001KA1240N+02001MA1999999095271MD1999999+0031REMSYN076AAXX  28124 82795 32597 10906 10257 20172 39527 40141 81100 333 20200 58003;
0137827950999992006102818004-07217-035883FM-12+0548SBKG V0200901N003612200019N0100001N1+03101+01701100901ADDGF101991011011008001001001MA1999999094831MD1999999-0041REMSYN070AAXX  28184 82795 32597 10907 10310 20170 39483 40090 81100 333 59004;
0168827950999992006102900004-07217-035883FM-12+0548SBKG V0200901N005112200019N0010001N1+02221+01941101141ADDGF103991031021008001001001KA1240M+03181MA1999999095021MD1999999-0121REMSYN088AAXX  29004 82795 32594 30910 10222 20194 39502 40114 83200 333 10318 29068 55110 59012;
0156827950999992006102912004-07217-035883FM-12+0548SBKG V0200901N003610075019N0100001N1+02451+01791101361ADDGF106991061021008001001001KA1240N+02061MA1999999095201MD1999999-0071REMSYN076AAXX  29124 82795 32597 60907 10245 20179 39520 40136 86200 333 20206 59007;
0156827950999992006102918004-07217-035883FM-12+0548SBKG V0200901N003119999999N0100001N1+02961+01641100891ADDGF106991999021008001001001MA1999999094811MD1999999-0021REMSYN070AAXX  29184 82795 32597 60906 10296 20164 39481 40089 84200 333 59002;EQDQ01+000042SCOTLC
0187827950999992006103000004-07217-035883FM-12+0548SBKG V0200901N004612200019N0100001N1+02201+01881101281ADDGF104991999021008001001001KA1240M+03041MA1999999095131MD1999999+0111REMSYN088AAXX  30004 82795 32597 40909 10220 20188 39513 40128 83200 333 10304 29069 55083 58011;EQDQ01+000032SCOTLC
0156827950999992006103012004-07217-035883FM-12+0548SBKG V0200901N004610075019N0100001N1+02601+01761101251ADDGF105991051021008001001001KA1240N+02071MA1999999095131MD1999999-0071REMSYN076AAXX  30124 82795 32597 50909 10260 20176 39513 40125 85200 333 20207 59007;
0137827950999992006103018004-07217-035883FM-12+0548SBKG V0201401N005112200019N0100001N1+02971+01381100881ADDGF104991041021008001001001MA1999999094791MD1999999+0021REMSYN070AAXX  30184 82795 32597 41410 10297 20138 39479 40088 84200 333 58002;
0168827950999992006103100004-07217-035883FM-12+0548SBKG V0200901N002110450019N0010001N1+02261+01861101241ADDGF105991041021008001041001KA1240M+03021MA1999999095121MD1999999-0011REMSYN088AAXX  31004 82795 32594 50904 10226 20186 39512 40124 84240 333 10302 29064 55092 59001;
0201827950999992006103112004-07217-035883FM-12+0548SBKG V0200901N003610075019N0100001N1+02431+01911101351ADDAA124002091AY161061AY221061GF106991061021008001001001KA1240N+02031MA1999999095201MD1999999+0071MW1021REMSYN088AAXX  31124 82795 21597 60907 10243 20191 39520 40135 70262 86200 333 20203 58007 60024;
0137827950999992006103118004-07217-035883FM-12+0548SBKG V0200901N004610075019N0100001N1+02871+01681101061ADDGF106991061021008001001001MA1999999094961MD1999999+0171REMSYN070AAXX  31184 82795 32597 60909 10287 20168 39496 40106 86200 333 58017;
0168827950999992006110100004-07217-035883FM-12+0548SBKG V0200901N003612200019N0010001N1+02171+01861101191ADDGF103991031011008001001001KA1240M+03041MA1999999095051MD1999999-0071REMSYN088AAXX  01004 82795 32594 30907 10217 20186 39505 40119 83100 333 10304 29072 55076 59007;
0156827950999992006110112004-07217-035883FM-12+0548SBKG V0200901N005112200019N0100001N1+02501+01671101371ADDGF102991011011008001001011KA1240N+02001MA1999999095211MD1999999+0011REMSYN076AAXX  01124 82795 32597 20910 10250 20167 39521 40137 81101 333 20200 58001;
0137827950999992006110118004-07217-035883FM-12+0548SBKG V0201401N003612200019N0100001N1+03001+01491101041ADDGF104991021021008001001081MA1999999094951MD1999999-0011REMSYN070AAXX  01184 82795 32597 41407 10300 20149 39495 40104 82208 333 59001;
0168827950999992006110200004-07217-035883FM-12+0548SBKG V0200901N004612200019N0010001N1+02251+01881101351ADDGF103991021021008001041001KA1240M+03101MA1999999095211MD1999999+0161REMSYN088AAXX  02004 82795 32594 30909 10225 20188 39521 40135 82240 333 10310 29065 55104 58016;
0201827950999992006110212004-07217-035883FM-12+0548SBKG V0200901N004112200019N0100001N1+02691+01921101401ADDAA124000591AY161061AY221061GF104991041011008001001001KA1240N+02121MA1999999095281MD1999999+0071MW1021REMSYN088AAXX  02124 82795 21597 40908 10269 20192 39528 40140 70262 84100 333 20212 58007 69964;
0137827950999992006110218004-07217-035883FM-12+0548SBKG V0200901N005712200019N0100001N1+03101+01701101011ADDGF104991041031008001001001MA1999999094951MD1999999+0001REMSYN070AAXX  02184 82795 32597 40911 10310 20170 39495 40101 84300 333 58000;
0168827950999992006110300004-07217-035883FM-12+0548SBKG V0201401N004112200019N0010001N1+02231+01921101361ADDGF103991031021008001001001KA1240M+03131MA1999999095241MD1999999+0031REMSYN088AAXX  03004 82795 32594 31408 10223 20192 39524 40136 83200 333 10313 29068 55100 58003;
0156827950999992006110312004-07217-035883FM-12+0548SBKG V0201401N004610075019N0100001N1+02661+01621101381ADDGF106991061021008001001001KA1240N+02081MA1999999095241MD1999999-0041REMSYN076AAXX  03124 82795 32597 61409 10266 20162 39524 40138 86200 333 20208 59004;
0137827950999992006110318004-07217-035883FM-12+0548SBKG V0200901N004112200019N0100001N1+03011+01681100921ADDGF103991021021008001061001MA1999999094851MD1999999-0101REMSYN070AAXX  03184 82795 32597 30908 10301 20168 39485 40092 82260 333 59010;
0168827950999992006110400004-07217-035883FM-12+0548SBKG V0200901N004612200019N0010001N1+02221+01671101191ADDGF102991021011008001001001KA1240M+03091MA1999999095081MD1999999-0161REMSYN088AAXX  04004 82795 32594 20909 10222 20167 39508 40119 82100 333 10309 29060 55091 59016;
0156827950999992006110412004-07217-035883FM-12+0548SBKG V0201401N006212200019N0100001N1+02591+01581101241ADDGF102991021011008001001001KA1240N+01951MA1999999095121MD1999999-0181REMSYN076AAXX  04124 82795 32597 21412 10259 20158 39512 40124 82100 333 20195 59018;
0137827950999992006110418004-07217-035883FM-12+0548SBKG V0201401N004612200019N0100001N1+03011+01611100861ADDGF103991031021008001001001MA1999999094771MD1999999-0081REMSYN070AAXX  04184 82795 32597 31409 10301 20161 39477 40086 83200 333 59008;
0187827950999992006110500004-07217-035883FM-12+0548SBKG V0201401N003112200019N0010001N1+02131+01911101261ADDGF101991999021008001001001KA1240M+03071MA1999999095121MD1999999+0041REMSYN088AAXX  05004 82795 32594 11406 10213 20191 39512 40126 83200 333 10307 29068 55110 58004;EQDQ01+000032SCOTLC
0156827950999992006110512004-07217-035883FM-12+0548SBKG V0201401N005110075019N0100001N1+02671+01661101281ADDGF105991051021008001001001KA1240N+02051MA1999999095151MD1999999+0031REMSYN076AAXX  05124 82795 32597 51410 10267 20166 39515 40128 85200 333 20205 58003;
0137827950999992006110518004-07217-035883FM-12+0548SBKG V0201401N004612200019N0100001N1+03031+01591100831ADDGF102991021011008001001001MA1999999094741MD1999999-0041REMSYN070AAXX  05184 82795 32597 21409 10303 20159 39474 40083 82100 333 59004;
0168827950999992006110600004-07217-035883FM-12+0548SBKG V0201401N006710075019N0010001N1+02211+01901101121ADDGF105991051061008001001001KA1240M+03071MA1999999095021MD1999999-0101REMSYN088AAXX  06004 82795 32594 51413 10221 20190 39502 40112 85600 333 10307 29065 55106 59010;
0156827950999992006110612004-07217-035883FM-12+0548SBKG V0200901N003110075019N0100001N1+02511+01791101321ADDGF106991061021008001001001KA1240N+02101MA1999999095181MD1999999+0031REMSYN076AAXX  06124 82795 32597 60906 10251 20179 39518 40132 86200 333 20210 58003;
0137827950999992006110618004-07217-035883FM-12+0548SBKG V0200501N004612200019N0100001N1+03041+01601100831ADDGF104991041021008001001001MA1999999094701MD1999999-0041REMSYN070AAXX  06184 82795 32597 40509 10304 20160 39470 40083 84200 333 59004;
0168827950999992006110700004-07217-035883FM-12+0548SBKG V0200901N003112200019N0010001N1+02271+01961101211ADDGF101991011011008001001001KA1240M+03131MA1999999095091MD1999999+0071REMSYN088AAXX  07004 82795 32594 10906 10227 20196 39509 40121 81100 333 10313 29068 55082 58007;
0156827950999992006110712004-07217-035883FM-12+0548SBKG V0200901N003110075019N0100001N1+02651+01851101281ADDGF106991061021008001001001KA1240N+02101MA1999999095161MD1999999-0021REMSYN076AAXX  07124 82795 32597 60906 10265 20185 39516 40128 86200 333 20210 59002;
0137827950999992006110718004-07217-035883FM-12+0548SBKG V0200901N003612200019N0100001N1+03171+01731100871ADDGF104991021011008001001011MA1999999094811MD1999999+0111REMSYN070AAXX  07184 82795 32597 40907 10317 20173 39481 40087 82101 333 58011;
0168827950999992006110800004-07217-035883FM-12+0548SBKG V0201401N003612200019N0010001N1+02261+02071101111ADDGF102991021021008001001001KA1240M+03201MA1999999095011MD1999999-0081REMSYN088AAXX  08004 82795 32594 21407 10226 20207 39501 40111 82200 333 10320 29069 55105 59008;
0156827950999992006110812004-07217-035883FM-12+0548SBKG V0200901N002110075019N0100001N1+02721+01951101101ADDGF106991061021008001001001KA1240N+02211MA1999999095001MD1999999-0161REMSYN076AAXX  08124 82795 32597 60904 10272 20195 39500 40110 86200 333 20221 59016;
0137827950999992006110818004-07217-035883FM-12+0548SBKG V0200501N003611050019N0100001N1+03101+01661100781ADDGF106991021021008001001031MA1999999094681MD1999999-0131REMSYN070AAXX  08184 82795 32597 60507 10310 20166 39468 40078 82203 333 59013;
0168827950999992006110900004-07217-035883FM-12+0548SBKG V0200901N004112200019N0010001N1+02251+01981101081ADDGF104991041021008001001001KA1240M+03201MA1999999094981MD1999999-0031REMSYN088AAXX  09004 82795 32594 40908 10225 20198 39498 40108 84200 333 10320 29069 55097 59003;
0156827950999992006110912004-07217-035883FM-12+0548SBKG V0200901N004610075019N0100001N1+02681+01781101211ADDGF105991051011008001001001KA1240N+02111MA1999999095101MD1999999+0101REMSYN076AAXX  09124 82795 32597 50909 10268 20178 39510 40121 85100 333 20211 58010;
0137827950999992006110918004-07217-035883FM-12+0548SBKG V0200501N003612200019N0100001N1+03031+01761100881ADDGF104991021021008001001011MA1999999094811MD1999999+0131REMSYN070AAXX  09184 82795 32597 40507 10303 20176 39481 40088 82201 333 58013;
0156827950999992006111012004-07217-035883FM-12+0548SBKG V0201401N003610075019N0100001N1+02501+02001101261ADDGF106991061061008001001001KA1240N+02131MA1999999095121MD1999999+0021REMSYN076AAXX  10124 82795 32597 61407 10250 20200 39512 40126 86600 333 20213 58002;
0137827950999992006111018004-07217-035883FM-12+0548SBKG V0200901N003112200019N0100001N1+03051+01711100821ADDGF102991021021008001001001MA1999999094771MD1999999-0041REMSYN070AAXX  10184 82795 32597 20906 10305 20171 39477 40082 82200 333 59004;
0168827950999992006111100004-07217-035883FM-12+0548SBKG V0200901N004112200019N0010001N1+02291+02011101171ADDGF103991031021008001001001KA1240M+03091MA1999999095051MD1999999+0001REMSYN088AAXX  11004 82795 32594 30908 10229 20201 39505 40117 83200 333 10309 29072 55090 58000;
0156827950999992006111112004-07217-035883FM-12+0548SBKG V0200901N004610075019N0100001N1+02541+01761101421ADDGF106991061021008001001001KA1240N+01991MA1999999095231MD1999999+0111REMSYN076AAXX  11124 82795 32597 60909 10254 20176 39523 40142 86200 333 20199 58011;
0137827950999992006111118004-07217-035883FM-12+0548SBKG V0200501N003110450019N0100001N1+03051+01411101041ADDGF105991041021008001041001MA1999999094961MD1999999+0191REMSYN070AAXX  11184 82795 32597 50506 10305 20141 39496 40104 84240 333 58019;
0168827950999992006111200004-07217-035883FM-12+0548SBKG V0200901N003112200019N0010001N1+02361+01951101331ADDGF102991021011008001001001KA1240M+03161MA1999999095211MD1999999+0161REMSYN088AAXX  12004 82795 32594 20906 10236 20195 39521 40133 82100 333 10316 29064 55102 58016;
0156827950999992006111212004-07217-035883FM-12+0548SBKG V0201401N004610075019N0100001N1+02601+01971101501ADDGF105991051011008001001001KA1240N+02081MA1999999095371MD1999999+0141REMSYN076AAXX  12124 82795 32597 51409 10260 20197 39537 40150 85100 333 20208 58014;
0137827950999992006111218004-07217-035883FM-12+0548SBKG V0200901N003612200019N0100001N1+03151+01671101071ADDGF102991021011008001001001MA1999999095011MD1999999+0051REMSYN070AAXX  12184 82795 32597 20907 10315 20167 39501 40107 82100 333 58005;
0168827950999992006111300004-07217-035883FM-12+0548SBKG V0200901N005112200019N0010001N1+02261+01991101421ADDGF103991031021008001001001KA1240M+03221MA1999999095281MD1999999+0071REMSYN088AAXX  13004 82795 32594 30910 10226 20199 39528 40142 83200 333 10322 29069 55112 58007;
0156827950999992006111312004-07217-035883FM-12+0548SBKG V0201401N004610075019N0100001N1+02651+01901101551ADDGF106991061021008001001001KA1240N+02141MA1999999095341MD1999999-0031REMSYN076AAXX  13124 82795 32597 61409 10265 20190 39534 40155 86200 333 20214 59003;
0137827950999992006111318004-07217-035883FM-12+0548SBKG V0201401N006212200019N0100001N1+02981+01761101031ADDGF103991031021008001001001MA1999999094941MD1999999-0071REMSYN070AAXX  13184 82795 32597 31412 10298 20176 39494 40103 83200 333 59007;
0168827950999992006111400004-07217-035883FM-12+0548SBKG V0200901N003612200019N0010001N1+02241+01881101361ADDGF104991041021008001001001KA1240M+03161MA1999999095241MD1999999-0041REMSYN088AAXX  14004 82795 32594 40907 10224 20188 39524 40136 84200 333 10316 29068 55107 59004;
0156827950999992006111412004-07217-035883FM-12+0548SBKG V0200901N004610075019N0100001N1+02651+01601101391ADDGF105991051011008001001001KA1240N+02051MA1999999095271MD1999999-0091REMSYN076AAXX  14124 82795 32597 50909 10265 20160 39527 40139 85100 333 20205 59009;
0137827950999992006111418004-07217-035883FM-12+0548SBKG V0200901N006212200019N0100001N1+02991+01411100971ADDGF102991021011008001001001MA1999999094891MD1999999-0051REMSYN070AAXX  14184 82795 32597 20912 10299 20141 39489 40097 82100 333 59005;
0168827950999992006111500004-07217-035883FM-12+0548SBKG V0201401N003612200019N0010001N1+02261+01981101271ADDGF102991021011008001001001KA1240M+03121MA1999999095151MD1999999-0091REMSYN088AAXX  15004 82795 32594 21407 10226 20198 39515 40127 82100 333 10312 29063 55116 59009;
0201827950999992006111512004-07217-035883FM-12+0548SBKG V0201401N005110075019N0100001N1+02601+01871101441ADDAA124000891AY161061AY221061GF106991061061008001001001KA1240N+02131MA1999999095301MD1999999+0031MW1021REMSYN088AAXX  15124 82795 21597 61410 10260 20187 39530 40144 70262 86600 333 20213 58003 69984;
0165827950999992006111518004-07217-035883FM-12+0548SBKG V0201401N003610450019N0100001N1+02771+01941101001ADDAY121061AY221061GF106991041081008001021001MA1999999094891MD1999999+0001MW1161REMSYN076AAXX  15184 82795 31597 61407 10277 20194 39489 40100 71622 84820 333 58000;
0213827950999992006111600004-07217-035883FM-12+0548SBKG V0200901N003610042019N0005001N1+02101+02051101521ADDAA106004191AY181061AY221061GF108991081071004501999999KA1240M+03291MA1999999095361MD1999999+0211MW1601REMSYN100AAXX  16004 82795 21493 80907 10210 20205 39536 40152 76082 887// 333 10329 29080 55073 58021 60041;
0201827950999992006111612004-07217-035883FM-12+0548SBKG V0201401N003610075019N0040001N1+02331+02001101511ADDAA124009991AY161061AY251061GF108991081071008001999999KA1240N+01961MA1999999095321MD1999999+0021MW1551REMSYN088AAXX  16124 82795 21596 81407 10233 20200 39532 40151 75565 887// 333 20196 58002 60104;
0182827950999992006111618004-07217-035883FM-12+0548SBKG V0200901N006210450019N0100001N1+02761+01941101091ADDAA106001091AY161061AY251061GF106991041041008001021001MA1999999094961MD1999999+0071MW1021REMSYN082AAXX  16184 82795 21597 60912 10276 20194 39496 40109 70265 84420 333 58007 60011;
0168827950999992006111700004-07217-035883FM-12+0548SBKG V0201401N002612200019N0010001N1+02121+01881101451ADDGF101991011011008001001001KA1240M+02791MA1999999095261MD1999999-0261REMSYN088AAXX  17004 82795 32594 11405 10212 20188 39526 40145 81100 333 10279 29079 55055 59026;
0173827950999992006111712004-07217-035883FM-12+0548SBKG V0200901N004610075019N0100001N1+02481+01981101431ADDAA124001091GF106991061021008001001001KA1240N+02011MA1999999095281MD1999999-0041REMSYN082AAXX  17124 82795 22597 60909 10248 20198 39528 40143 86200 333 20201 59004 60014;
0182827950999992006111718004-07217-035883FM-12+0548SBKG V0200901N004110450019N0020001N1+02061+01991101311ADDAA106023191AY161061AY251061GF108991041071004501021999MA1999999095081MD1999999+0121MW1611REMSYN082AAXX  17184 82795 21495 80908 10206 20199 39508 40131 76165 8472/ 333 58012 60231;
0232827950999992006111800004-07217-035883FM-12+0548SBKG V0200901N004119999999N0010001N1+02121+02071101431ADDAA106002091AY101061AY201061GF107991999021008001071081KA1240M+02781MA1999999095271MD1999999+0011MW1321REMSYN100AAXX  18004 82795 21594 70908 10212 20207 39527 40143 73200 80278 333 10278 29091 55017 58001 60021;EQDQ01+000002SCOTLC
0173827950999992006111812004-07217-035883FM-12+0548SBKG V0201401N003110075019N0100001N1+02481+01821101511ADDAA124024991GF106991061021008001001001KA1240N+02011MA1999999095341MD1999999+0061REMSYN082AAXX  18124 82795 22597 61406 10248 20182 39534 40151 86200 333 20201 58006 60254;
0156827950999992006111818004-07217-035883FM-12+0548SBKG V0200901N004619999999N0100001N1+02831+01771101051ADDGF106991999021008001001001MA1999999094951MD1999999-0131REMSYN070AAXX  18184 82795 32597 60909 10283 20177 39495 40105 84200 333 59013;EQDQ01+000042SCOTLC
0187827950999992006111900004-07217-035883FM-12+0548SBKG V0200901N004619999999N0010001N1+02281+02051101411ADDGF107991999021008001001001KA1240M+02891MA1999999095261MD1999999-0011REMSYN088AAXX  19004 82795 32594 70909 10228 20205 39526 40141 84200 333 10289 29074 55102 59001;EQDQ01+000042SCOTLC
0156827950999992006111912004-07217-035883FM-12+0548SBKG V0200901N004610075019N0100001N1+02471+01971101531ADDGF106991061061008001001001KA1240N+02101MA1999999095331MD1999999+0031REMSYN076AAXX  19124 82795 32597 60909 10247 20197 39533 40153 86600 333 20210 58003;
0137827950999992006111918004-07217-035883FM-12+0548SBKG V0200901N004611050019N0100001N1+03011+01781101131ADDGF107991031021008001001061MA1999999095051MD1999999+0101REMSYN070AAXX  19184 82795 32597 70909 10301 20178 39505 40113 83206 333 58010;
0168827950999992006112000004-07217-035883FM-12+0548SBKG V0200901N004111050019N0010001N1+02301+02011101471ADDGF106991041021008001001021KA1240M+03041MA1999999095321MD1999999+0061REMSYN088AAXX  20004 82795 32594 60908 10230 20201 39532 40147 84202 333 10304 29072 55088 58006;
0201827950999992006112012004-07217-035883FM-12+0548SBKG V0200901N004110075019N0100001N1+02561+02081101551ADDAA124001091AY161061AY221061GF107991061021008001001021KA1240N+02091MA1999999095411MD1999999+0041MW1021REMSYN088AAXX  20124 82795 21597 70908 10256 20208 39541 40155 70262 86202 333 20209 58004 60014;
0137827950999992006112018004-07217-035883FM-12+0548SBKG V0201401N004612200019N0100001N1+02911+01841101161ADDGF103991031021008001001001MA1999999095061MD1999999+0011REMSYN070AAXX  20184 82795 32597 31409 10291 20184 39506 40116 83200 333 58001;
0168827950999992006112100004-07217-035883FM-12+0548SBKG V0200901N004110075019N0010001N1+02301+02091101511ADDGF107991071021008001001001KA1240M+03021MA1999999095381MD1999999+0061REMSYN088AAXX  21004 82795 32594 70908 10230 20209 39538 40151 87200 333 10302 29076 55084 58006;
0156827950999992006112112004-07217-035883FM-12+0548SBKG V0200901N005110075019N0100001N1+02571+01971101541ADDGF106991061021008001001001KA1240N+02131MA1999999095401MD1999999-0011REMSYN076AAXX  21124 82795 32597 60910 10257 20197 39540 40154 86200 333 20213 59001;
0137827950999992006112118004-07217-035883FM-12+0548SBKG V0200901N003612200019N0100001N1+03001+01611101141ADDGF104991041011008001001001MA1999999095071MD1999999+0011REMSYN070AAXX  21184 82795 32597 40907 10300 20161 39507 40114 84100 333 58001;
0168827950999992006112200004-07217-035883FM-12+0548SBKG V0201401N003112200019N0010001N1+02191+01941101421ADDGF101991011011008001001001KA1240M+03021MA1999999095271MD1999999-0111REMSYN088AAXX  22004 82795 32594 11406 10219 20194 39527 40142 81100 333 10302 29073 55093 59011;
0156827950999992006112212004-07217-035883FM-12+0548SBKG V0200901N004610075019N0100001N1+02521+01931101491ADDGF106991061061008001001001KA1240N+02101MA1999999095331MD1999999-0071REMSYN076AAXX  22124 82795 32597 60909 10252 20193 39533 40149 86600 333 20210 59007;
0137827950999992006112218004-07217-035883FM-12+0548SBKG V0201401N004612200019N0100001N1+02971+01741100961ADDGF105991041021008001001011MA1999999094881MD1999999-0191REMSYN070AAXX  22184 82795 32597 51409 10297 20174 39488 40096 84201 333 59019;
0168827950999992006112300004-07217-035883FM-12+0548SBKG V0200901N004110075019N0010001N1+02281+02001101311ADDGF105991051021008001001001KA1240M+03011MA1999999095181MD1999999-0091REMSYN088AAXX  23004 82795 32594 50908 10228 20200 39518 40131 85200 333 10301 29072 55090 59009;
0175827950999992006112312004-07217-035883FM-12+0548SBKG V0200901N005119999999N0100001N1+02611+01711101341ADDGF106991999021008001001001KA1240N+02081MA1999999095221MD1999999-0101REMSYN076AAXX  23124 82795 32597 60910 10261 20171 39522 40134 84200 333 20208 59010;EQDQ01+000042SCOTLC
0137827950999992006112318004-07217-035883FM-12+0548SBKG V0200901N006710450019N0100001N1+02911+01781101051ADDGF105991031041008001041001MA1999999094961MD1999999+0081REMSYN070AAXX  23184 82795 32597 50913 10291 20178 39496 40105 83440 333 58008;
0168827950999992006112400004-07217-035883FM-12+0548SBKG V0200901N004612200019N0010001N1+02281+01961101281ADDGF103991031021008001001001KA1240M+03131MA1999999095161MD1999999-0021REMSYN088AAXX  24004 82795 32594 30909 10228 20196 39516 40128 83200 333 10313 29068 55104 59002;
0201827950999992006112412004-07217-035883FM-12+0548SBKG V0200901N004110075019N0100001N1+02441+01901101431ADDAA124001091AY161061AY221061GF106991061021008001001001KA1240N+02031MA1999999095281MD1999999+0061MW1021REMSYN088AAXX  24124 82795 21597 60908 10244 20190 39528 40143 70262 86200 333 20203 58006 60014;
0137827950999992006112418004-07217-035883FM-12+0548SBKG V0200901N005110075019N0100001N1+02921+01861101081ADDGF106991061021008001001001MA1999999094991MD1999999+0031REMSYN070AAXX  24184 82795 32597 60910 10292 20186 39499 40108 86200 333 58003;
0156827950999992006112512004-07217-035883FM-12+0548SBKG V0200901N006712200019N0100001N1+02411+01891101501ADDGF104991041081008001001001KA1240N+02091MA1999999095321MD1999999+0041REMSYN076AAXX  25124 82795 32597 40913 10241 20189 39532 40150 84800 333 20209 58004;
0137827950999992006112518004-07217-035883FM-12+0548SBKG V0200901N005710075019N0100001N1+02821+01771101111ADDGF105991051041008001001001MA1999999095011MD1999999+0021REMSYN070AAXX  25184 82795 32597 50911 10282 20177 39501 40111 85400 333 58002;
0187827950999992006112600004-07217-035883FM-12+0548SBKG V0201401N005112200019N0010001N1+02181+01921101421ADDGF103991999021008001001001KA1240M+03001MA1999999095261MD1999999+0011REMSYN088AAXX  26004 82795 32594 31410 10218 20192 39526 40142 82200 333 10300 29074 55083 58001;EQDQ01+000022SCOTLC
0201827950999992006112612004-07217-035883FM-12+0548SBKG V0200501N004610075019N0100001N1+02441+01791101441ADDAA124001091AY161061AY221061GF105991051041008001001001KA1240N+01951MA1999999095281MD1999999+0271MW1021REMSYN088AAXX  26124 82795 21597 50509 10244 20179 39528 40144 70262 85400 333 20195 58027 60014;
0137827950999992006112618004-07217-035883FM-12+0548SBKG V0201401N002612200019N0100001N1+02931+01741101051ADDGF104991041041008001001001MA1999999094951MD1999999-0061REMSYN070AAXX  26184 82795 32597 41405 10293 20174 39495 40105 84400 333 59006;
0168827950999992006112700004-07217-035883FM-12+0548SBKG V0201401N005110075019N0010001N1+02181+01921101281ADDGF105991051031008001001001KA1240M+03001MA1999999095131MD1999999-0131REMSYN088AAXX  27004 82795 32594 51410 10218 20192 39513 40128 85300 333 10300 29071 55099 59013;
0156827950999992006112712004-07217-035883FM-12+0548SBKG V0200901N003610075019N0100001N1+02491+01911101351ADDGF106991061061008001001001KA1240N+02061MA1999999095211MD1999999-0071REMSYN076AAXX  27124 82795 32597 60907 10249 20191 39521 40135 86600 333 20206 59007;
0137827950999992006112718004-07217-035883FM-12+0548SBKG V0201401N005112200019N0100001N1+02931+01741100901ADDGF104991041021008001001001MA1999999094851MD1999999-0121REMSYN070AAXX  27184 82795 32597 41410 10293 20174 39485 40090 84200 333 59012;
0168827950999992006112800004-07217-035883FM-12+0548SBKG V0200901N004612200019N0010001N1+02281+01981101301ADDGF102991021021008001001001KA1240M+03081MA1999999095161MD1999999-0031REMSYN088AAXX  28004 82795 32594 20909 10228 20198 39516 40130 82200 333 10308 29071 55102 59003;
0156827950999992006112812004-07217-035883FM-12+0548SBKG V0200901N005710075019N0100001N1+02561+01881101261ADDGF106991061021008001001001KA1240N+02141MA1999999095131MD1999999-0081REMSYN076AAXX  28124 82795 32597 60911 10256 20188 39513 40126 86200 333 20214 59008;
0137827950999992006112818004-07217-035883FM-12+0548SBKG V0200901N005111050019N0100001N1+03001+01751100941ADDGF105991031021008001001021MA1999999094871MD1999999+0051REMSYN070AAXX  28184 82795 32597 50910 10300 20175 39487 40094 83202 333 58005;
0168827950999992006112900004-07217-035883FM-12+0548SBKG V0201401N005110075019N0010001N1+02251+01961101161ADDGF106991061051008001001001KA1240M+03101MA1999999095041MD1999999-0041REMSYN088AAXX  29004 82795 32594 61410 10225 20196 39504 40116 86500 333 10310 29070 55102 59004;
0156827950999992006112912004-07217-035883FM-12+0548SBKG V0200901N004110075019N0100001N1+02561+01971101281ADDGF106991061021008001001001KA1240N+02131MA1999999095151MD1999999+0021REMSYN076AAXX  29124 82795 32597 60908 10256 20197 39515 40128 86200 333 20213 58002;
0137827950999992006112918004-07217-035883FM-12+0548SBKG V0201401N005110120019N0100001N1+02911+01961101061ADDGF105991051081008001001001MA1999999094981MD1999999+0111REMSYN070AAXX  29184 82795 32597 51410 10291 20196 39498 40106 85800 333 58011;
0156827950999992006113012004-07217-035883FM-12+0548SBKG V0200901N003110075019N0100001N1+02591+01871101381ADDGF105991051021008001001001KA1240N+02131MA1999999095261MD1999999+0111REMSYN076AAXX  30124 82795 32597 50906 10259 20187 39526 40138 85200 333 20213 58011;
0137827950999992006113018004-07217-035883FM-12+0548SBKG V0200501N004610075019N0100001N1+02931+01771101011ADDGF105991051021008001001001MA1999999094931MD1999999-0051REMSYN070AAXX  30184 82795 32597 50509 10293 20177 39493 40101 85200 333 59005;
0168827950999992006120100004-07217-035883FM-12+0548SBKG V0201401N002612200019N0010001N1+02101+01781101251ADDGF102991021021008001001001KA1240M+03181MA1999999095101MD1999999-0031REMSYN088AAXX  01004 82795 32594 21405 10210 20178 39510 40125 82200 333 10318 29072 55110 59003;
0156827950999992006120112004-07217-035883FM-12+0548SBKG V0200901N004612200019N0100001N1+02541+01831101361ADDGF106991031021008001001011KA1240N+02011MA1999999095201MD1999999-0061REMSYN076AAXX  01124 82795 32597 60909 10254 20183 39520 40136 83201 333 20201 59006;
0137827950999992006120118004-07217-035883FM-12+0548SBKG V0200901N003611050019N0100001N1+03001+01571100961ADDGF105991021021008001041021MA1999999094891MD1999999-0041REMSYN070AAXX  01184 82795 32597 50907 10300 20157 39489 40096 82242 333 59004;
0168827950999992006120200004-07217-035883FM-12+0548SBKG V0200901N002611050019N0010001N1+02331+01951101231ADDGF105991011021008001041021KA1240M+03041MA1999999095121MD1999999+0021REMSYN088AAXX  02004 82795 32594 50905 10233 20195 39512 40123 81242 333 10304 29066 55089 58002;
0156827950999992006120212004-07217-035883FM-12+0548SBKG V0200901N004610075019N0100001N1+02441+01901101331ADDGF106991061061008001001001KA1240N+02101MA1999999095191MD1999999-0011REMSYN076AAXX  02124 82795 32597 60909 10244 20190 39519 40133 86600 333 20210 59001;
0137827950999992006120218004-07217-035883FM-12+0548SBKG V0200901N004110075019N0100001N1+02931+01621101061ADDGF107991061021008001061001MA1999999094971MD1999999+0081REMSYN070AAXX  02184 82795 32597 70908 10293 20162 39497 40106 86260 333 58008;
0168827950999992006120300004-07217-035883FM-12+0548SBKG V0200901N003611050019N0010001N1+02331+02051101331ADDGF106991021021008001041041KA1240M+03031MA1999999095191MD1999999+0071REMSYN088AAXX  03004 82795 32594 60907 10233 20205 39519 40133 82244 333 10303 29071 55040 58007;
0156827950999992006120312004-07217-035883FM-12+0548SBKG V0200901N004110450019N0100001N1+02591+01791101401ADDGF107991021021008001041041KA1240N+02091MA1999999095281MD1999999+0091REMSYN076AAXX  03124 82795 32597 70908 10259 20179 39528 40140 82244 333 20209 58009;
0137827950999992006120318004-07217-035883FM-12+0548SBKG V0200901N005711050019N0100001N1+02901+01721101011ADDGF106991021021008001031041MA1999999094931MD1999999-0041REMSYN070AAXX  03184 82795 32597 60911 10290 20172 39493 40101 82234 333 59004;
0168827950999992006120400004-07217-035883FM-12+0548SBKG V0200901N003610450019N0010001N1+02301+01901101421ADDGF107991011021008001031061KA1240M+03041MA1999999095301MD1999999+0111REMSYN088AAXX  04004 82795 32594 70907 10230 20190 39530 40142 81236 333 10304 29066 55103 58011;
0156827950999992006120418004-07217-035883FM-12+0548SBKG V0201401N003619999999N0100001N1+02881+01521101071ADDGF105991999021008001001001MA1999999094971MD1999999+0041REMSYN070AAXX  04184 82795 32597 51407 10288 20152 39497 40107 83200 333 58004;EQDQ01+000032SCOTLC
0168827950999992006120500004-07217-035883FM-12+0548SBKG V0200901N002619999999N0010001N1+02261+01751101411ADDGF107991001001999999001061KA1240M+03001MA1999999095261MD1999999-0041REMSYN088AAXX  05004 82795 32994 70905 10226 20175 39526 40141 80006 333 10300 29063 55076 59004;
0156827950999992006120512004-07217-035883FM-12+0548SBKG V0200901N003610075019N0100001N1+02571+01941101521ADDGF106991061061008001001001KA1240N+02051MA1999999095361MD1999999+0081REMSYN076AAXX  05124 82795 32597 60907 10257 20194 39536 40152 86600 333 20205 58008;
0137827950999992006120518004-07217-035883FM-12+0548SBKG V0200901N004610075019N0100001N1+02921+01801101201ADDGF106991061021008001001001MA1999999095091MD1999999+0121REMSYN070AAXX  05184 82795 32597 60909 10292 20180 39509 40120 86200 333 58012;
0168827950999992006120600004-07217-035883FM-12+0548SBKG V0201401N005112200019N0010001N1+02231+01421101521ADDGF102991021011008001001001KA1240M+03031MA1999999095381MD1999999+0121REMSYN088AAXX  06004 82795 32594 21410 10223 20142 39538 40152 82100 333 10303 29071 55085 58012;
0137827950999992006120618004-07217-035883FM-12+0548SBKG V0201401N004112200019N0100001N1+03051+01511101081ADDGF101991011011008001001001MA1999999094991MD1999999-0101REMSYN070AAXX  06184 82795 32597 11408 10305 20151 39499 40108 81100 333 59010;
0156827950999992006120712004-07217-035883FM-12+0548SBKG V0200901N003610075019N0100001N1+02511+01941101311ADDGF106991061021008001001001KA1240N+02051MA1999999095181MD1999999-0201REMSYN076AAXX  07124 82795 32597 60907 10251 20194 39518 40131 86200 333 20205 59020;
0137827950999992006120718004-07217-035883FM-12+0548SBKG V0200501N002112200019N0100001N1+03031+01801100921ADDGF105991031021008001001011MA1999999094841MD1999999-0051REMSYN070AAXX  07184 82795 32597 50504 10303 20180 39484 40092 83201 333 59005;
0168827950999992006120800004-07217-035883FM-12+0548SBKG V0201401N003112200019N0010001N1+02331+02031101491ADDGF104991041011008001001001KA1240M+03151MA1999999095161MD1999999-0071REMSYN088AAXX  08004 82795 32594 41406 10233 20203 39516 40149 84100 333 10315 29071 55099 59007;
0156827950999992006120812004-07217-035883FM-12+0548SBKG V0200901N003610075019N0100001N1+02751+01971101251ADDGF105991051021008001001001KA1240N+02211MA1999999095161MD1999999-0021REMSYN076AAXX  08124 82795 32597 50907 10275 20197 39516 40125 85200 333 20221 59002;
0137827950999992006120818004-07217-035883FM-12+0548SBKG V0201401N003610075019N0100001N1+02091+01781100941ADDGF105991051011008001001001MA1999999094901MD1999999+0061REMSYN070AAXX  08184 82795 32597 51407 10209 20178 39490 40094 85100 333 58006;
0168827950999992006120900004-07217-035883FM-12+0548SBKG V0200901N002612200019N0010001N1+02381+02011101171ADDGF102991021011008001001001KA1240M+03161MA1999999095091MD1999999-0091REMSYN088AAXX  09004 82795 32594 20905 10238 20201 39509 40117 82100 333 10316 29067 55097 59009;
0156827950999992006120912004-07217-035883FM-12+0548SBKG V0200901N004112200019N0100001N1+02491+02001101351ADDGF106991041021008001001011KA1240N+02201MA1999999095221MD1999999+0061REMSYN076AAXX  09124 82795 32597 60908 10249 20200 39522 40135 84201 333 20220 58006;
0168827950999992006121000004-07217-035883FM-12+0548SBKG V0200901N003112200019N0010001N1+02401+01931101351ADDGF102991021011008001001001KA1240M+03211MA1999999095231MD1999999+0141REMSYN088AAXX  10004 82795 32594 20906 10240 20193 39523 40135 82100 333 10321 29067 55098 58014;
0156827950999992006121012004-07217-035883FM-12+0548SBKG V0200901N004610075019N0100001N1+02571+01871101321ADDGF105991051021008001001001KA1240N+02131MA1999999095201MD1999999-0021REMSYN076AAXX  10124 82795 32597 50909 10257 20187 39520 40132 85200 333 20213 59002;
0137827950999992006121018004-07217-035883FM-12+0548SBKG V0200501N004112200019N0100001N1+03051+01571101051ADDGF104991031021008001001021MA1999999094991MD1999999+0001REMSYN070AAXX  10184 82795 32597 40508 10305 20157 39499 40105 83202 333 58000;
0168827950999992006121100004-07217-035883FM-12+0548SBKG V0200901N003110075019N0010001N1+02371+01991101331ADDGF106991061021008001001001KA1240M+03201MA1999999095211MD1999999-0021REMSYN088AAXX  11004 82795 32594 60906 10237 20199 39521 40133 86200 333 10320 29066 55101 59002;
0156827950999992006121112004-07217-035883FM-12+0548SBKG V0200901N004110075019N0100001N1+02691+01941101391ADDGF105991051011008001001001KA1240N+02131MA1999999095281MD1999999+0081REMSYN076AAXX  11124 82795 32597 50908 10269 20194 39528 40139 85100 333 20213 58008;
0137827950999992006121118004-07217-035883FM-12+0548SBKG V0201401N003112200019N0100001N1+03141+01661100991ADDGF103991031021008001001001MA1999999094931MD1999999-0061REMSYN070AAXX  11184 82795 32597 31406 10314 20166 39493 40099 83200 333 59006;
0168827950999992006121200004-07217-035883FM-12+0548SBKG V0200901N003610075019N0010001N1+02381+02011101351ADDGF105991051021008001001001KA1240M+03271MA1999999095251MD1999999+0041REMSYN088AAXX  12004 82795 32594 50907 10238 20201 39525 40135 85200 333 10327 29066 55099 58004;
0156827950999992006121212004-07217-035883FM-12+0548SBKG V0200901N004110075019N0100001N1+02631+01911101471ADDGF106991051021008001001011KA1240N+02191MA1999999095351MD1999999+0071REMSYN076AAXX  12124 82795 32597 60908 10263 20191 39535 40147 85201 333 20219 58007;
0137827950999992006121218004-07217-035883FM-12+0548SBKG V0200901N004112200019N0100001N1+03121+01711101051ADDGF105991021011008001001011MA1999999095001MD1999999+0071REMSYN070AAXX  12184 82795 32597 50908 10312 20171 39500 40105 82101 333 58007;
0168827950999992006121300004-07217-035883FM-12+0548SBKG V0201401N005112200019N0010001N1+02241+01991101401ADDGF102991021021008001001001KA1240M+03201MA1999999095221MD1999999-0031REMSYN088AAXX  13004 82795 32594 21410 10224 20199 39522 40140 82200 333 10320 29070 55095 59003;
0175827950999992006121312004-07217-035883FM-12+0548SBKG V0200901N005719999999N0100001N1+02701+01991101401ADDGF105991999021008001001001KA1240N+02151MA1999999095281MD1999999-0071REMSYN076AAXX  13124 82795 32597 50911 10270 20199 39528 40140 86200 333 20215 59007;EQDQ01+000062SCOTLC
0137827950999992006121318004-07217-035883FM-12+0548SBKG V0200501N004612200019N0100001N1+03121+01621101001ADDGF102991021021008001001001MA1999999094941MD1999999-0061REMSYN070AAXX  13184 82795 32597 20509 10312 20162 39494 40100 82200 333 59006;
0168827950999992006121400004-07217-035883FM-12+0548SBKG V0200901N004610075019N0010001N1+02391+02071101311ADDGF106991061021008001001001KA1240M+03241MA1999999095221MD1999999+0001REMSYN088AAXX  14004 82795 32594 60909 10239 20207 39522 40131 86200 333 10324 29068 55099 58000;
0156827950999992006121412004-07217-035883FM-12+0548SBKG V0200901N003110075019N0100001N1+02641+01831101371ADDGF105991051021008001001001KA1240N+02181MA1999999095261MD1999999-0021REMSYN076AAXX  14124 82795 32597 50906 10264 20183 39526 40137 85200 333 20218 59002;
0137827950999992006121418004-07217-035883FM-12+0548SBKG V0200501N006212200019N0100001N1+03121+01891100991ADDGF104991041021008001001001MA1999999094931MD1999999-0011REMSYN070AAXX  14184 82795 32597 40512 10312 20189 39493 40099 84200 333 59001;
0168827950999992006121500004-07217-035883FM-12+0548SBKG V0201401N005110075019N0010001N1+02281+01811101361ADDGF105991051051008001001001KA1240M+03201MA1999999095231MD1999999+0011REMSYN088AAXX  15004 82795 32594 51410 10228 20181 39523 40136 85500 333 10320 29064 55102 58001;
0156827950999992006121512004-07217-035883FM-12+0548SBKG V0200901N002610075019N0100001N1+02431+01811101431ADDGF106991061061008001001001KA1240N+02061MA1999999095281MD1999999+0021REMSYN076AAXX  15124 82795 32597 60905 10243 20181 39528 40143 86600 333 20206 58002;
0137827950999992006121518004-07217-035883FM-12+0548SBKG V0200901N005112200019N0100001N1+03151+01891100921ADDGF104991041011008001001001MA1999999094841MD1999999+0071REMSYN070AAXX  15184 82795 32597 40910 10315 20189 39484 40092 84100 333 58007;
0168827950999992006121600004-07217-035883FM-12+0548SBKG V0200901N004612200019N0010001N1+02361+01991101421ADDGF104991041021008001001001KA1240M+03171MA1999999095281MD1999999+0051REMSYN088AAXX  16004 82795 32594 40909 10236 20199 39528 40142 84200 333 10317 29069 55086 58005;
0220827950999992006121612004-07217-035883FM-12+0548SBKG V0201401N002610120019N0100001N1+02411+01971101441ADDAA124000091AY151061AY221061GF107991071081008001001001KA1240N+02151MA1999999095341MD1999999+0061MW1021REMSYN088AAXX  16124 82795 21597 71405 10241 20197 39534 40144 70252 87800 333 20215 58006 69924;EQDQ01  00002PRCP24
0137827950999992006121618004-07217-035883FM-12+0548SBKG V0200501N003612200019N0100001N1+03111+01581101051ADDGF103991031031008001001001MA1999999094991MD1999999+0131REMSYN070AAXX  16184 82795 32597 30507 10311 20158 39499 40105 83300 333 58013;
0168827950999992006121700004-07217-035883FM-12+0548SBKG V0200501N003612200019N0010001N1+02271+01991101511ADDGF102991021021008001001001KA1240M+03141MA1999999095351MD1999999+0071REMSYN088AAXX  17004 82795 32594 20507 10227 20199 39535 40151 82200 333 10314 29072 55082 58007;
0156827950999992006121812004-07217-035883FM-12+0548SBKG V0200901N004610075019N0100001N1+02531+01911101631ADDGF106991061021008001001001KA1240N+02231MA1999999095351MD1999999+0011REMSYN076AAXX  18124 82795 32597 60909 10253 20191 39535 40163 86200 333 20223 58001;
0137827950999992006121818004-07217-035883FM-12+0548SBKG V0201401N005112200019N0100001N1+03131+01641101131ADDGF103991031021008001001001MA1999999095001MD1999999-0081REMSYN070AAXX  18184 82795 32597 31410 10313 20164 39500 40113 83200 333 59008;
0168827950999992006121900004-07217-035883FM-12+0548SBKG V0200901N002612200019N0010001N1+02401+01991101431ADDGF103991031021008001001001KA1240M+03151MA1999999095311MD1999999-0031REMSYN088AAXX  19004 82795 32594 30905 10240 20199 39531 40143 83200 333 10315 29068 55104 59003;
0156827950999992006121912004-07217-035883FM-12+0548SBKG V0200901N004610450019N0100001N1+02571+01991101361ADDGF106991031021008001041001KA1240N+02081MA1999999095241MD1999999-0191REMSYN076AAXX  19124 82795 32597 60909 10257 20199 39524 40136 83240 333 20208 59019;
0201827950999992006121918004-07217-035883FM-12+0548SBKG V0200901N003110075019N0100001N1+02241+01961101411ADDAA106000091AY161061AY221061GF108991051071008001011999MA1999999095211MD1999999+0211MW1021REMSYN082AAXX  19184 82795 21597 80906 10224 20196 39521 40141 70262 8571/ 333 58021 69911;EQDQ01  00002PRCP06
0213827950999992006122000004-07217-035883FM-12+0548SBKG V0201401N003110075019N0010001N1+02121+01931101481ADDAA106002091AY161061AY221061GF108991081071008001999999KA1240M+02781MA1999999095331MD1999999+0021MW1021REMSYN100AAXX  20004 82795 21594 81406 10212 20193 39533 40148 70262 887// 333 10278 29083 55040 58002 60021;
0201827950999992006122012004-07217-035883FM-12+0548SBKG V0200901N004110075019N0100001N1+02551+02081101591ADDAA124002091AY161061AY221061GF107991071021008001001001KA1240N+02131MA1999999095431MD1999999+0191MW1021REMSYN088AAXX  20124 82795 21597 70908 10255 20208 39543 40159 70262 87200 333 20213 58019 60024;
0137827950999992006122018004-07217-035883FM-12+0548SBKG V0201401N005110075019N0100001N1+03031+01831101241ADDGF105991051021008001001001MA1999999095151MD1999999-0061REMSYN070AAXX  20184 82795 32597 51410 10303 20183 39515 40124 85200 333 59006;
0168827950999992006122100004-07217-035883FM-12+0548SBKG V0200901N003110075019N0010001N1+02351+02051101541ADDGF105991051021008001001001KA1240M+03091MA1999999095411MD1999999+0081REMSYN088AAXX  21004 82795 32594 50906 10235 20205 39541 40154 85200 333 10309 29072 55098 58008;
0156827950999992006122112004-07217-035883FM-12+0548SBKG V0200901N005710075019N0100001N1+02601+01841101631ADDGF106991061021008001001001KA1240N+02131MA1999999095491MD1999999+0061REMSYN076AAXX  21124 82795 32597 60911 10260 20184 39549 40163 86200 333 20213 58006;
0137827950999992006122118004-07217-035883FM-12+0548SBKG V0201401N003612200019N0100001N1+03041+01531101291ADDGF103991031021008001001001MA1999999095201MD1999999+0051REMSYN070AAXX  21184 82795 32597 31407 10304 20153 39520 40129 83200 333 58005;
0178827950999992006122200004-07217-035883FM-12+0548SBKG V0201401N004612200019N0010001N1+02231+01881101471ADDGA1001+999999999GF100991001001999999001001KA1240M+03091MA1999999095331MD1999999+0081REMSYN082AAXX  22004 82795 32994 01409 10223 20188 39533 40147 333 10309 29066 55104 58008;
0156827950999992006122212004-07217-035883FM-12+0548SBKG V0200901N004110075019N0100001N1+02511+01911101581ADDGF106991061021008001001001KA1240N+02001MA1999999095421MD1999999-0071REMSYN076AAXX  22124 82795 32597 60908 10251 20191 39542 40158 86200 333 20200 59007;
0137827950999992006122218004-07217-035883FM-12+0548SBKG V0200901N003112200019N0100001N1+03091+01521101191ADDGF102991021011008001001001MA1999999095111MD1999999-0091REMSYN070AAXX  22184 82795 32597 20906 10309 20152 39511 40119 82100 333 59009;
0168827950999992006122300004-07217-035883FM-12+0548SBKG V0200901N004112200019N0010001N1+02241+01921101501ADDGF104991041021008001001001KA1240M+03171MA1999999095341MD1999999+0011REMSYN088AAXX  23004 82795 32594 40908 10224 20192 39534 40150 84200 333 10317 29068 55083 58001;
0156827950999992006122312004-07217-035883FM-12+0548SBKG V0201401N003610075019N0100001N1+02501+01941101481ADDGF106991061021008001001001KA1240N+02061MA1999999095331MD1999999-0091REMSYN076AAXX  23124 82795 32597 61407 10250 20194 39533 40148 86200 333 20206 59009;
0137827950999992006122318004-07217-035883FM-12+0548SBKG V0200901N003110075019N0100001N1+03171+01611101061ADDGF105991051021008001001001MA1999999095001MD1999999-0041REMSYN070AAXX  23184 82795 32597 50906 10317 20161 39500 40106 85200 333 59004;
0168827950999992006122400004-07217-035883FM-12+0548SBKG V0200901N004110075019N0010001N1+02341+02001101341ADDGF106991061021008001001001KA1240M+03191MA1999999095211MD1999999-0131REMSYN088AAXX  24004 82795 32594 60908 10234 20200 39521 40134 86200 333 10319 29068 55091 59013;
0156827950999992006122412004-07217-035883FM-12+0548SBKG V0200901N003110075019N0100001N1+02531+01831101491ADDGF106991061061008001001001KA1240N+02131MA1999999095351MD1999999+0021REMSYN076AAXX  24124 82795 32597 60906 10253 20183 39535 40149 86600 333 20213 58002;
0156827950999992006122418004-07217-035883FM-12+0548SBKG V0200901N002612200019N0100001N1+03101+01621101061ADDGF102991999021008001001001MA1999999095011MD1999999+0011REMSYN070AAXX  24184 82795 32597 20905 10310 20162 39501 40106 83200 333 58001;EQDQ01+000032SCOTLC
0168827950999992006122500004-07217-035883FM-12+0548SBKG V0200901N004612200019N0010001N1+02311+01911101351ADDGF102991021011008001001001KA1240M+03131MA1999999095221MD1999999+0011REMSYN088AAXX  25004 82795 32594 20909 10231 20191 39522 40135 82100 333 10313 29066 55081 58001;
0156827950999992006122512004-07217-035883FM-12+0548SBKG V0200901N002612200019N0100001N1+02561+01801101541ADDGF106991041021008001001011KA1240N+02151MA1999999095401MD1999999+0051REMSYN076AAXX  25124 82795 32597 60905 10256 20180 39540 40154 84201 333 20215 58005;
0137827950999992006122518004-07217-035883FM-12+0548SBKG V0200901N004112200019N0100001N1+03111+01771101151ADDGF104991041021008001001001MA1999999095031MD1999999+0021REMSYN070AAXX  25184 82795 32597 40908 10311 20177 39503 40115 84200 333 58002;
0168827950999992006122600004-07217-035883FM-12+0548SBKG V0200901N004112200019N0010001N1+02251+01941101381ADDGF104991031021008001041001KA1240M+03241MA1999999095241MD1999999+0021REMSYN088AAXX  26004 82795 32594 40908 10225 20194 39524 40138 83240 333 10324 29068 55101 58002;
0156827950999992006122612004-07217-035883FM-12+0548SBKG V0200901N003110075019N0100001N1+02511+01881101531ADDGF106991061011008001001001KA1240N+02131MA1999999095371MD1999999-0031REMSYN076AAXX  26124 82795 32597 60906 10251 20188 39537 40153 86100 333 20213 59003;
0137827950999992006122618004-07217-035883FM-12+0548SBKG V0200901N002112200019N0100001N1+03061+01661101111ADDGF103991031021008001001001MA1999999095041MD1999999+0011REMSYN070AAXX  26184 82795 32597 30904 10306 20166 39504 40111 83200 333 58001;
0168827950999992006122700004-07217-035883FM-12+0548SBKG V0201401N005110075019N0010001N1+02251+01961101511ADDGF105991051021008001001001KA1240M+03141MA1999999095351MD1999999+0111REMSYN088AAXX  27004 82795 32594 51410 10225 20196 39535 40151 85200 333 10314 29072 55096 58011;
0137827950999992006122718004-07217-035883FM-12+0548SBKG V0200501N001511050019N0100001N1+03051+01681101251ADDGF105991031021008001001021MA1999999095161MD1999999+0121REMSYN070AAXX  27184 82795 32597 50503 10305 20168 39516 40125 83202 333 58012;
0168827950999992006122800004-07217-035883FM-12+0548SBKG V0200901N003612200019N0010001N1+02401+02031101541ADDGF102991021011008001001001KA1240M+03251MA1999999095421MD1999999+0071REMSYN088AAXX  28004 82795 32594 20907 10240 20203 39542 40154 82100 333 10325 29067 55100 58007;
0156827950999992006122812004-07217-035883FM-12+0548SBKG V0200901N004110075019N0100001N1+02701+02011101601ADDGF106991061021008001001001KA1240N+02201MA1999999095491MD1999999+0021REMSYN076AAXX  28124 82795 32597 60908 10270 20201 39549 40160 86200 333 20220 58002;
0137827950999992006122818004-07217-035883FM-12+0548SBKG V0200901N006710450019N0100001N1+02991+01921101231ADDGF105991021031008001041001MA1999999095141MD1999999-0021REMSYN070AAXX  28184 82795 32597 50913 10299 20192 39514 40123 82340 333 59002;
0168827950999992006122900004-07217-035883FM-12+0548SBKG V0200901N006212200019N0010001N1+02371+02091101491ADDGF104991041021008001001001KA1240M+03221MA1999999095391MD1999999-0091REMSYN088AAXX  29004 82795 32594 40912 10237 20209 39539 40149 84200 333 10322 29072 55092 59009;
0156827950999992006122912004-07217-035883FM-12+0548SBKG V0200901N003610075019N0100001N1+02541+01911101551ADDGF106991061021008001001001KA1240N+02231MA1999999095421MD1999999-0071REMSYN076AAXX  29124 82795 32597 60907 10254 20191 39542 40155 86200 333 20223 59007;
0137827950999992006122918004-07217-035883FM-12+0548SBKG V0200901N003612200019N0100001N1+03221+01771101111ADDGF104991031021008001041001MA1999999095081MD1999999-0061REMSYN070AAXX  29184 82795 32597 40907 10322 20177 39508 40111 83240 333 59006;
0168827950999992006123000004-07217-035883FM-12+0548SBKG V0200901N005710075019N0010001N1+02361+02071101091ADDGF106991061021008001001001KA1240M+03251MA1999999095361MD1999999+0031REMSYN088AAXX  30004 82795 32594 60911 10236 20207 39536 40109 86200 333 10325 29070 55098 58003;
0156827950999992006123012004-07217-035883FM-12+0548SBKG V0200901N003610075019N0020001N1+02571+01991101561ADDGF106991061021008001001001KA1240N+02171MA1999999095431MD1999999+0011REMSYN076AAXX  30124 82795 32595 60907 10257 20199 39543 40156 86200 333 20217 58001;
0137827950999992006123018004-07217-035883FM-12+0548SBKG V0200901N006210450019N0100001N1+02961+02021101171ADDGF105991031021008001061021MA1999999095091MD1999999+0011REMSYN070AAXX  30184 82795 32597 50912 10296 20202 39509 40117 83262 333 58001;
0213827950999992006123100004-07217-035883FM-12+0548SBKG V0200901N005110075019N0005001N1+02321+02071101501ADDAA106000021AY121061AY221061GF108991081021008001999999KA1240M+03101MA1999999095371MD1999999+0011MW1501REMSYN100AAXX  31004 82795 21593 80910 10232 20207 39537 40150 75022 882// 333 10310 29075 55097 58001 69901;
0201827950999992006123112004-07217-035883FM-12+0548SBKG V0200901N003610075019N0100001N1+02491+01981101541ADDAA124002091AY161061AY221061GF106991061021008001001001KA1240N+02131MA1999999095421MD1999999-0011MW1021REMSYN088AAXX  31124 82795 21597 60907 10249 20198 39542 40154 70262 86200 333 20213 59001 60024;
0137827950999992006123118004-07217-035883FM-12+0548SBKG V0200901N003110075019N0100001N1+03041+01881101181ADDGF105991051021008001001001MA1999999095101MD1999999+0011REMSYN070AAXX  31184 82795 32597 50906 10304 20188 39510 40118 85200 333 58001;
