0168827980999992006033100004-07100-034867FM-12+0007SBJP V0200901N002610075019N0040001N1+02841+02421101451ADDGF105991051041008001001001KA1240M+03121MA1999999101241MD1999999+0051REMSYN088AAXX  31004 82798 32596 50905 10284 20242 30124 40145 85400 333 10312 29074 55093 58005;
0136827980999992006071121004-07100-034867FM-15+0007SBJP V0201301N00461004801CN0112651N1+02601+02301999999ADDGA1075+004801999GA2045+021001999MA1101491999999REMMET058METAR SBJP 112100Z 13009KT 9999 BKN016 SCT070 26/23 Q1015;EQDQ01+000042SCOTCV
0131827980999992006081117004-07100-034867FM-15+0007SBJP V0201401N005112200019N0112651N1+02901+02001999999ADDGA1045+009001999GF104991999999999999999999MA1101391999999OC101131REMMET054METAR SBJP 111700Z 14010G22KT 9999 SCT030 29/20 Q1014;
