0178829860999992006010100004-09400-038217FM-12+0253SBUF V0200901N005712200019N0020001N1+02691+02041101141ADDGA1001+999999999GF100991001001999999001001KA1240M+03291MA1999999098311MD1999999-0101REMSYN082AAXX  01004 82986 32995 00911 10269 20204 39831 40114 333 10329 29064 55056 59010;
0156829860999992006010112004-09400-038217FM-12+0253SBUF V0200901N003610075019N0100001N1+02731+01951101231ADDGF106991061021008001001001KA1240N+02281MA1999999098401MD1999999-0031REMSYN076AAXX  01124 82986 32597 60907 10273 20195 39840 40123 86200 333 20228 59003;
0178829860999992006010200004-09400-038217FM-12+0253SBUF V0201401N007712200019N0020001N1+02681+01921101071ADDGA1001+999999999GF100991001001999999001001KA1240M+03461MA1999999098241MD1999999-0071REMSYN082AAXX  02004 82986 32995 01415 10268 20192 39824 40107 333 10346 29056 55109 59007;
0156829860999992006010212004-09400-038217FM-12+0253SBUF V0200901N004110075019N0100001N1+02631+01981101281ADDGF106991051021008001001041KA1240N+02201MA1999999098441MD1999999+0041REMSYN076AAXX  02124 82986 32597 60908 10263 20198 39844 40128 85204 333 20220 58004;
0137829860999992006010218004-09400-038217FM-12+0253SBUF V0201401N003112200019N0200001N1+03341+01831100801ADDGF104991031011008001001041MA1999999097991MD1999999+0031REMSYN070AAXX  02184 82986 32598 41406 10334 20183 39799 40080 83104 333 58003;
0178829860999992006010300004-09400-038217FM-12+0253SBUF V0200901N005712200019N0020001N1+02801+01691101051ADDGA1001+999999999GF100991001001999999001001KA1240M+03421MA1999999098221MD1999999-0021REMSYN082AAXX  03004 82986 32995 00911 10280 20169 39822 40105 333 10342 29052 55094 59002;
0156829860999992006010312004-09400-038217FM-12+0253SBUF V0201401N004610450019N0100001N1+02741+02071101221ADDGF106991041021008001031001KA1240N+02241MA1999999098391MD1999999-0051REMSYN076AAXX  03124 82986 32597 61409 10274 20207 39839 40122 84230 333 20224 59005;
0137829860999992006010318004-09400-038217FM-12+0253SBUF V0201401N003612200019N0200001N1+03471+01861100691ADDGF104991041021008001001001MA1999999097891MD1999999-0101REMSYN070AAXX  03184 82986 32598 41407 10347 20186 39789 40069 84200 333 59010;
0178829860999992006010400004-09400-038217FM-12+0253SBUF V0200901N007212200019N0020001N1+02721+02081100921ADDGA1001+999999999GF100991001001999999001001KA1240M+03501MA1999999098101MD1999999-0121REMSYN082AAXX  04004 82986 32995 00914 10272 20208 39810 40092 333 10350 29060 55110 59012;
0156829860999992006010412004-09400-038217FM-12+0253SBUF V0200901N006710075019N0040001N1+02641+01931101101ADDGF106991061041008001001001KA1240N+02261MA1999999097271MD1999999-0121REMSYN076AAXX  04124 82986 32596 60913 10264 20193 39727 40110 86400 333 20226 59012;
0137829860999992006010418004-09400-038217FM-12+0253SBUF V0200901N003112200019N0200001N1+03471+01731100571ADDGF103991021011008001001051MA1999999097781MD1999999-0111REMSYN070AAXX  04184 82986 32598 30906 10347 20173 39778 40057 82105 333 59011;
0178829860999992006010500004-09400-038217FM-12+0253SBUF V0200901N008212200019N0020001N1+02741+01951100821ADDGA1001+999999999GF100991001001999999001001KA1240M+03481MA1999999098001MD1999999-0101REMSYN082AAXX  05004 82986 32995 00916 10274 20195 39800 40082 333 10348 29056 55097 59010;
0156829860999992006010512004-09400-038217FM-12+0253SBUF V0200901N006210075019N0100001N1+02701+01991101021ADDGF106991061041008001001001KA1240N+02161MA1999999098191MD1999999-0081REMSYN076AAXX  05124 82986 32597 60912 10270 20199 39819 40102 86400 333 20216 59008;
0137829860999992006010518004-09400-038217FM-12+0253SBUF V0201401N004112200019N0200001N1+03451+01671100521ADDGF103991031011008001001001MA1999999097721MD1999999-0061REMSYN070AAXX  05184 82986 32598 31408 10345 20167 39772 40052 83100 333 59006;
0156829860999992006010612004-09400-038217FM-12+0253SBUF V0200901N004610075019N0100001N1+02651+02001101131ADDGF106991061021008001001001KA1240N+02181MA1999999098301MD1999999+0111REMSYN076AAXX  06124 82986 32597 60909 10265 20200 39830 40113 86200 333 20218 58011;
0137829860999992006010618004-09400-038217FM-12+0253SBUF V0201401N003112200019N0200001N1+03481+01661100691ADDGF103991031011008001001001MA1999999097891MD1999999+0171REMSYN070AAXX  06184 82986 32598 31406 10348 20166 39789 40069 83100 333 58017;
0178829860999992006010700004-09400-038217FM-12+0253SBUF V0201401N008212200019N0020001N1+02751+01761101021ADDGA1001+999999999GF100991001001999999001001KA1240M+03481MA1999999098191MD1999999+0101REMSYN082AAXX  07004 82986 32995 01416 10275 20176 39819 40102 333 10348 29053 55094 58010;
0156829860999992006010712004-09400-038217FM-12+0253SBUF V0201401N005112200019N0200001N1+02721+01931101221ADDGF102991021011008001001001KA1240N+02081MA1999999098391MD1999999+0091REMSYN076AAXX  07124 82986 32598 21410 10272 20193 39839 40122 82100 333 20208 58009;
0137829860999992006010718004-09400-038217FM-12+0253SBUF V0201401N005112200019N0200001N1+03341+01581100741ADDGF103991031021008001001001MA1999999097921MD1999999+0031REMSYN070AAXX  07184 82986 32598 31410 10334 20158 39792 40074 83200 333 58003;
0156829860999992006010812004-09400-038217FM-12+0253SBUF V0201401N005110075019N0100001N1+02701+01861101211ADDGF106991061021008001001001KA1240N+02181MA1999999098381MD1999999-0011REMSYN076AAXX  08124 82986 32597 61410 10270 20186 39838 40121 86200 333 20218 59001;
0137829860999992006010818004-09400-038217FM-12+0253SBUF V0200901N006210075019N0200001N1+03331+01821100781ADDGF106991051021008001031001MA1999999097971MD1999999+0051REMSYN070AAXX  08184 82986 32598 60912 10333 20182 39797 40078 85230 333 58005;
0156829860999992006010912004-09400-038217FM-12+0253SBUF V0200901N004110450019N0040001N1+02601+01891101281ADDGF107991031021008001051999KA1240N+02141MA1999999098451MD1999999+0071REMSYN076AAXX  09124 82986 32596 70908 10260 20189 39845 40128 8325/ 333 20214 58007;
0137829860999992006010918004-09400-038217FM-12+0253SBUF V0201401N002611050019N0100001N1+03271+01681100781ADDGF106991021011008001001081MA1999999097961MD1999999-0011REMSYN070AAXX  09184 82986 32597 61405 10327 20168 39796 40078 82108 333 59001;
0178829860999992006011000004-09400-038217FM-12+0253SBUF V0200901N006712200019N0020001N1+02691+02041101061ADDGA1001+999999999GF100991001001999999001001KA1240M+03341MA1999999098231MD1999999-0031REMSYN082AAXX  10004 82986 32995 00913 10269 20204 39823 40106 333 10334 29060 55063 59003;
0156829860999992006011012004-09400-038217FM-12+0253SBUF V0200901N004110042019N0040001N1+02661+02071101341ADDGF108991051071004501071999KA1240N+02181MA1999999098511MD1999999+0061REMSYN076AAXX  10124 82986 32496 80908 10266 20207 39851 40134 8577/ 333 20218 58006;
0168829860999992006011100004-09400-038217FM-12+0253SBUF V0200901N008212200019N0020001N1+02681+01891101371ADDGF103991031021008001001001KA1240M+03541MA1999999098531MD1999999+0301REMSYN088AAXX  11004 82986 32595 30916 10268 20189 39853 40137 83200 333 10354 29058 55077 58030;
0156829860999992006011112004-09400-038217FM-12+0253SBUF V0200901N006710075019N0100001N1+02721+01931101361ADDGF105991051041008001001001KA1240N+02151MA1999999098531MD1999999+0021REMSYN076AAXX  11124 82986 32597 50913 10272 20193 39853 40136 85400 333 20215 58002;
0137829860999992006011118004-09400-038217FM-12+0253SBUF V0201401N006710075019N0200001N1+03391+01871100861ADDGF105991051021008001001001MA1999999098091MD1999999+0021REMSYN070AAXX  11184 82986 32598 51413 10339 20187 39809 40086 85200 333 58002;
0137829860999992006011218004-09400-038217FM-12+0253SBUF V0200901N004112200019N0200001N1+03351+01631100941ADDGF104991041021008001001001MA1999999098131MD1999999+0041REMSYN070AAXX  12184 82986 32598 40908 10335 20163 39813 40094 84200 333 58004;
0178829860999992006011300004-09400-038217FM-12+0253SBUF V0200901N006212200019N0020001N1+02641+01951101301ADDGA1001+999999999GF100991001001999999001001KA1240M+03431MA1999999098461MD1999999+0031REMSYN082AAXX  13004 82986 32995 00912 10264 20195 39846 40130 333 10343 29058 55109 58003;
0156829860999992006011312004-09400-038217FM-12+0253SBUF V0200901N005110450019N0100001N1+02761+02041101391ADDGF106991041021008001081001KA1240N+02301MA1999999098551MD1999999+0011REMSYN076AAXX  13124 82986 32597 60910 10276 20204 39855 40139 84280 333 20230 58001;
0137829860999992006011318004-09400-038217FM-12+0253SBUF V0200901N004110450019N0200001N1+03351+01801101041ADDGF106991041021008001031001MA1999999098231MD1999999-0101REMSYN070AAXX  13184 82986 32598 60908 10335 20180 39823 40104 84230 333 59010;
0178829860999992006011400004-09400-038217FM-12+0253SBUF V0200901N005712200019N0020001N1+02721+01791101341ADDGA1001+999999999GF100991001001999999001001KA1240M+03411MA1999999098511MD1999999+0051REMSYN082AAXX  14004 82986 32995 00911 10272 20179 39851 40134 333 10341 29055 55100 58005;
0156829860999992006011412004-09400-038217FM-12+0253SBUF V0200901N006712200019N0100001N1+02801+01811101261ADDGF104991041011008001001001KA1240N+02281MA1999999098431MD1999999-0121REMSYN076AAXX  14124 82986 32597 40913 10280 20181 39843 40126 84100 333 20228 59012;
0137829860999992006011418004-09400-038217FM-12+0253SBUF V0200901N006710450019N0200001N1+03411+01591100931ADDGF106991041011008001031001MA1999999098131MD1999999-0101REMSYN070AAXX  14184 82986 32598 60913 10341 20159 39813 40093 84130 333 59010;
0156829860999992006011512004-09400-038217FM-12+0253SBUF V0201401N005112200019N0100001N1+02641+01881101341ADDGF103991021011008001031001KA1240N+02041MA1999999098501MD1999999+0071REMSYN076AAXX  15124 82986 32597 31410 10264 20188 39850 40134 82130 333 20204 58007;
0137829860999992006011518004-09400-038217FM-12+0253SBUF V0201401N006212200019N0200001N1+03411+01591100811ADDGF104991031011008001001011MA1999999098001MD1999999-0131REMSYN070AAXX  15184 82986 32598 41412 10341 20159 39800 40081 83101 333 59013;
0156829860999992006011612004-09400-038217FM-12+0253SBUF V0200901N005110075019N0100001N1+02711+01661101331ADDGF105991051021008001001001KA1240N+02151MA1999999098501MD1999999+0001REMSYN076AAXX  16124 82986 32597 50910 10271 20166 39850 40133 85200 333 20215 58000;
0178829860999992006011700004-09400-038217FM-12+0253SBUF V0201401N008212200019N0020001N1+02761+01661101141ADDGA1001+999999999GF100991001001999999001001KA1240M+03421MA1999999098321MD1999999-0111REMSYN082AAXX  17004 82986 32995 01416 10276 20166 39832 40114 333 10342 29048 55102 59011;
0156829860999992006011712004-09400-038217FM-12+0253SBUF V0200901N006210075019N0100001N1+02691+01811101301ADDGF105991051021008001001001KA1240N+02151MA1999999098471MD1999999-0031REMSYN076AAXX  17124 82986 32597 50912 10269 20181 39847 40130 85200 333 20215 59003;
0137829860999992006011718004-09400-038217FM-12+0253SBUF V0201401N004610075019N0200001N1+03481+01751100781ADDGF105991051021008001001001MA1999999097981MD1999999-0021REMSYN070AAXX  17184 82986 32598 51409 10348 20175 39798 40078 85200 333 59002;
0168829860999992006011800004-09400-038217FM-12+0253SBUF V0200901N006212200019N0020001N1+02761+01751101141ADDGF102991001001999999001031KA1240M+03501MA1999999098311MD1999999-0011REMSYN088AAXX  18004 82986 32995 20912 10276 20175 39831 40114 80003 333 10350 29051 55108 59001;
0156829860999992006011812004-09400-038217FM-12+0253SBUF V0200901N005111050019N0100001N1+02741+01891101231ADDGF105991021011008001031021KA1240N+02201MA1999999098401MD1999999-0071REMSYN076AAXX  18124 82986 32597 50910 10274 20189 39840 40123 82132 333 20220 59007;
0178829860999992006011900004-09400-038217FM-12+0253SBUF V0201401N008212200019N0020001N1+02741+01951100991ADDGA1001+999999999GF100991001001999999001001KA1240M+03501MA1999999098171MD1999999-0141REMSYN082AAXX  19004 82986 32995 01416 10274 20195 39817 40099 333 10350 29055 55103 59014;
0184829860999992006011912004-09400-038217FM-12+0253SBUF V0200901N005110042019N0100001N1+02661+02041101131ADDAY141061AY221061GF106991051021004501001061KA1240N+02301MA1999999098301MD1999999-0101MW1021REMSYN082AAXX  19124 82986 31497 60910 10266 20204 39830 40113 70242 85206 333 20230 59010;
0137829860999992006011918004-09400-038217FM-12+0253SBUF V0201401N005111050019N0200001N1+03261+01761100631ADDGF106991041021008001001081MA1999999097831MD1999999-0131REMSYN070AAXX  19184 82986 32598 61410 10326 20176 39783 40063 84208 333 59013;
0178829860999992006012000004-09400-038217FM-12+0253SBUF V0200901N004612200019N0020001N1+02661+01791100951ADDGA1001+999999999GF100991001001999999001001KA1240M+03481MA1999999098121MD1999999-0051REMSYN082AAXX  20004 82986 32995 00909 10266 20179 39812 40095 333 10348 29057 55051 59005;
0156829860999992006012012004-09400-038217FM-12+0253SBUF V0201401N005110450019N0100001N1+02631+01831101121ADDGF106991031041008001071001KA1240N+02061MA1999999098291MD1999999-0011REMSYN076AAXX  20124 82986 32597 61410 10263 20183 39829 40112 83470 333 20206 59001;
0137829860999992006012018004-09400-038217FM-12+0253SBUF V0201401N006710450019N0200001N1+03391+01661100731ADDGF106991031021008001041001MA1999999097921MD1999999+0091REMSYN070AAXX  20184 82986 32598 61413 10339 20166 39792 40073 83240 333 58009;
0178829860999992006012100004-09400-038217FM-12+0253SBUF V0201401N007212200019N0020001N1+02521+01891101171ADDGA1001+999999999GF100991001001999999001001KA1240M+03441MA1999999098331MD1999999+0211REMSYN082AAXX  21004 82986 32995 01414 10252 20189 39833 40117 333 10344 29058 55095 58021;
0156829860999992006012112004-09400-038217FM-12+0253SBUF V0200901N005110450019N0100001N1+02651+01931101241ADDGF106991021021008001071021KA1240N+02301MA1999999098401MD1999999+0111REMSYN076AAXX  21124 82986 32597 60910 10265 20193 39840 40124 82272 333 20230 58011;
0137829860999992006012118004-09400-038217FM-12+0253SBUF V0200901N003610450019N0200001N1+03261+01951100831ADDGF106991031021008001031021MA1999999098021MD1999999+0101REMSYN070AAXX  21184 82986 32598 60907 10326 20195 39802 40083 83232 333 58010;
0168829860999992006012200004-09400-038217FM-12+0253SBUF V0200901N007212200019N0020001N1+02641+02031101161ADDGF102991021001017501051001KA1240M+03361MA1999999098331MD1999999+0001REMSYN088AAXX  22004 82986 32795 20914 10264 20203 39833 40116 82050 333 10336 29062 55075 58000;
0220829860999992006012212004-09400-038217FM-12+0253SBUF V0201401N007210450019N0040001N1+02521+02151101221ADDAA124000091AY151061AY221061GF106991041021004501051021KA1240N+02281MA1999999098381MD1999999-0021MW1011REMSYN088AAXX  22124 82986 21496 61414 10252 20215 39838 40122 70152 84252 333 20228 59002 69904;EQDQ01  00002PRCP24
0137829860999992006012218004-09400-038217FM-12+0253SBUF V0201801N005112200019N0200001N1+03401+01931100891ADDGF104991041021008001001001MA1999999098091MD1999999+0071REMSYN070AAXX  22184 82986 32598 41810 10340 20193 39809 40089 84200 333 58007;
0156829860999992006012312004-09400-038217FM-12+0253SBUF V0200901N006210450019N0100001N1+02721+01981101281ADDGF106991031021008001061021KA1240N+02301MA1999999098451MD1999999+0071REMSYN076AAXX  23124 82986 32597 60912 10272 20198 39845 40128 83262 333 20230 58007;
0137829860999992006012318004-09400-038217FM-12+0253SBUF V0200901N005111050019N0200001N1+03381+01791100761ADDGF106991021011008001001081MA1999999097961MD1999999-0131REMSYN070AAXX  23184 82986 32598 60910 10338 20179 39796 40076 82108 333 59013;
0178829860999992006012400004-09400-038217FM-12+0253SBUF V0200901N005712200019N0020001N1+02731+01881101091ADDGA1001+999999999GF100991001001999999001001KA1240M+03421MA1999999098261MD1999999-0071REMSYN082AAXX  24004 82986 32995 00911 10273 20188 39826 40109 333 10342 29060 55062 59007;
0156829860999992006012412004-09400-038217FM-12+0253SBUF V0200901N006211050019N0100001N1+02751+02001101281ADDGF106991031011008001001081KA1240N+02311MA1999999098451MD1999999+0001REMSYN076AAXX  24124 82986 32597 60912 10275 20200 39845 40128 83108 333 20231 58000;
0137829860999992006012418004-09400-038217FM-12+0253SBUF V0200901N007212200019N0200001N1+03591+01551100731ADDGF103991011011008001001081MA1999999097951MD1999999-0011REMSYN070AAXX  24184 82986 32598 30914 10359 20155 39795 40073 81108 333 59001;
0178829860999992006012500004-09400-038217FM-12+0253SBUF V0200901N007212200019N0020001N1+02861+01921101061ADDGA1001+999999999GF100991001001999999001001KA1240M+03601MA1999999098251MD1999999-0011REMSYN082AAXX  25004 82986 32995 00914 10286 20192 39825 40106 333 10360 29052 55090 59001;
0156829860999992006012512004-09400-038217FM-12+0253SBUF V0200901N004111050019N0100001N1+02741+02071101421ADDGF106991021041008001001081KA1240N+02381MA1999999098601MD1999999+0151REMSYN076AAXX  25124 82986 32597 60908 10274 20207 39860 40142 82408 333 20238 58015;
0137829860999992006012518004-09400-038217FM-12+0253SBUF V0200901N005712200019N0200001N1+03331+01851101011ADDGF106991021011008001001061MA1999999098191MD1999999+0241REMSYN070AAXX  25184 82986 32598 60911 10333 20185 39819 40101 82106 333 58024;
0178829860999992006012600004-09400-038217FM-12+0253SBUF V0200901N006212200019N0020001N1+02821+02001101241ADDGA1001+999999999GF100991001001999999001001KA1240M+03461MA1999999098421MD1999999+0171REMSYN082AAXX  26004 82986 32995 00912 10282 20200 39842 40124 333 10346 29058 55065 58017;
0184829860999992006012612004-09400-038217FM-12+0253SBUF V0200901N003110042019N0100001N1+02641+02031101411ADDAY141061AY221061GF107991051021004501061081KA1240N+02261MA1999999098581MD1999999-0021MW1101REMSYN082AAXX  26124 82986 31497 70906 10264 20203 39858 40141 71042 85268 333 20226 59002;
0137829860999992006012618004-09400-038217FM-12+0253SBUF V0201401N006719999999N0200001N1+03431+01871101001ADDGF106991001001999999001081MA1999999098191MD1999999+0001REMSYN070AAXX  26184 82986 32998 61413 10343 20187 39819 40100 80008 333 58000;
0178829860999992006012700004-09400-038217FM-12+0253SBUF V0200901N008212200019N0020001N1+02881+01941101211ADDGA1001+999999999GF100991001001999999001001KA1240M+03371MA1999999098381MD1999999-0041REMSYN082AAXX  27004 82986 32995 00916 10288 20194 39838 40121 333 10337 29056 55056 59004;
0156829860999992006012712004-09400-038217FM-12+0253SBUF V0200901N005711050019N0100001N1+02781+01911101381ADDGF105991031041008001001021KA1240N+02201MA1999999098561MD1999999-0021REMSYN076AAXX  27124 82986 32597 50911 10278 20191 39856 40138 83402 333 20220 59002;
0137829860999992006012718004-09400-038217FM-12+0253SBUF V0200901N005112200019N0200001N1+03461+01941100901ADDGF104991021011008001001061MA1999999098101MD1999999-0091REMSYN070AAXX  27184 82986 32598 40910 10346 20194 39810 40090 82106 333 59009;
0178829860999992006012800004-09400-038217FM-12+0253SBUF V0200901N008712200019N0020001N1+02821+02001101201ADDGA1001+999999999GF100991001001999999001001KA1240M+03511MA1999999098381MD1999999+0001REMSYN082AAXX  28004 82986 32995 00917 10282 20200 39838 40120 333 10351 29056 55108 58000;
0156829860999992006012812004-09400-038217FM-12+0253SBUF V0201001N004610075019N0100001N1+02731+02031101351ADDGF106991051021008001001021KA1240N+02321MA1999999098531MD1999999-0031REMSYN076AAXX  28124 82986 32597 61009 10273 20203 39853 40135 85202 333 20232 59003;
0137829860999992006012818004-09400-038217FM-12+0253SBUF V0201401N002612200019N0200001N1+03541+02011100811ADDGF104991031011008001001011MA1999999098021MD1999999-0081REMSYN070AAXX  28184 82986 32598 41405 10354 20201 39802 40081 83101 333 59008;
0137829860999992006012918004-09400-038217FM-12+0253SBUF V0201401N004611050019N0200001N1+03481+01921100721ADDGF106991031011008001001081MA1999999097931MD1999999-0091REMSYN070AAXX  29184 82986 32598 61409 10348 20192 39793 40072 83108 333 59009;
0178829860999992006013000004-09400-038217FM-12+0253SBUF V0200901N009312200019N0020001N1+02861+01951100881ADDGA1001+999999999GF100991001001999999001001KA1240M+03511MA1999999098071MD1999999-0231REMSYN082AAXX  30004 82986 32995 00918 10286 20195 39807 40088 333 10351 29056 55077 59023;
0156829860999992006013012004-09400-038217FM-12+0253SBUF V0200501N002610450019N0100001N1+02791+02161101191ADDGF105991031041012501031001KA1240N+02361MA1999999098371MD1999999-0031REMSYN076AAXX  30124 82986 32697 50505 10279 20216 39837 40119 83430 333 20236 59003;
0137829860999992006013018004-09400-038217FM-12+0253SBUF V0201401N002112200019N0200001N1+03551+01971100661ADDGF104991041021008001001001MA1999999097881MD1999999-0051REMSYN070AAXX  30184 82986 32598 41404 10355 20197 39788 40066 84200 333 59005;
0178829860999992006013100004-09400-038217FM-12+0253SBUF V0201401N006212200019N0020001N1+02881+01941100911ADDGA1001+999999999GF100991001001999999001001KA1240M+03641MA1999999098111MD1999999+0041REMSYN082AAXX  31004 82986 32995 01412 10288 20194 39811 40091 333 10364 29056 55106 58004;
0184829860999992006013112004-09400-038217FM-12+0253SBUF V0200501N001510075019N0040001N1+02761+02161101161ADDAY141061AY211061GF106991051021008001061051KA1240N+02341MA1999999098341MD1999999-0031MW1101REMSYN082AAXX  31124 82986 31596 60503 10276 20216 39834 40116 71041 85265 333 20234 59003;
0137829860999992006013118004-09400-038217FM-12+0253SBUF V0200901N005710075019N0200001N1+03541+01801100691ADDGF105991051021008001001001MA1999999097901MD1999999+0021REMSYN070AAXX  31184 82986 32598 50911 10354 20180 39790 40069 85200 333 58002;
0178829860999992006020100004-09400-038217FM-12+0253SBUF V0200901N008212200019N0020001N1+02941+01911100861ADDGA1001+999999999GF100991001001999999001001KA1240M+03571MA1999999098061MD1999999-0051REMSYN082AAXX  01004 82986 32995 00916 10294 20191 39806 40086 333 10357 29054 55101 59005;
0156829860999992006020112004-09400-038217FM-12+0253SBUF V0200901N005110075019N0100001N1+02761+01941101131ADDGF106991061021008001001001KA1240N+02321MA1999999098321MD1999999-0021REMSYN076AAXX  01124 82986 32597 60910 10276 20194 39832 40113 86200 333 20232 59002;
0137829860999992006020118004-09400-038217FM-12+0253SBUF V0201401N005112200019N0200001N1+03531+01791100691ADDGF104991031021008001031001MA1999999097901MD1999999+0001REMSYN070AAXX  01184 82986 32598 41410 10353 20179 39790 40069 83230 333 58000;
0178829860999992006020200004-09400-038217FM-12+0253SBUF V0201401N009812200019N0020001N1+02871+01681100931ADDGA1001+999999999GF100991001001999999001001KA1240M+03551MA1999999098121MD1999999+0061REMSYN082AAXX  02004 82986 32995 01419 10287 20168 39812 40093 333 10355 29049 55108 58006;
0156829860999992006020212004-09400-038217FM-12+0253SBUF V0201401N002112200019N0100001N1+02761+01941101181ADDGF106991011011008001001041KA1240N+02221MA1999999098351MD1999999+0031REMSYN076AAXX  02124 82986 32597 61404 10276 20194 39835 40118 81104 333 20222 58003;
0137829860999992006020218004-09400-038217FM-12+0253SBUF V0200901N003111050019N0200001N1+03431+01831100771ADDGF105991031011008001001031MA1999999097961MD1999999+0061REMSYN070AAXX  02184 82986 32598 50906 10343 20183 39796 40077 83103 333 58006;
0178829860999992006020300004-09400-038217FM-12+0253SBUF V0200901N007212200019N0020001N1+02801+02031100971ADDGA1001+999999999GF100991001001999999001001KA1240M+03501MA1999999098161MD1999999+0041REMSYN082AAXX  03004 82986 32995 00914 10280 20203 39816 40097 333 10350 29056 55094 58004;
0156829860999992006020312004-09400-038217FM-12+0253SBUF V0200901N003610450019N0040001N1+02841+02071101131ADDGF106991041021008001071001KA1240N+02401MA1999999098311MD1999999-0041REMSYN076AAXX  03124 82986 32596 60907 10284 20207 39831 40113 84270 333 20240 59004;
0137829860999992006020318004-09400-038217FM-12+0253SBUF V0201401N005110450019N0200001N1+03461+02021100601ADDGF106991031021008001041011MA1999999097821MD1999999-0141REMSYN070AAXX  03184 82986 32598 61410 10346 20202 39782 40060 83241 333 59014;
0178829860999992006020400004-09400-038217FM-12+0253SBUF V0200901N006712200019N0020001N1+02671+02021100991ADDGA1001+999999999GF100991001001999999001001KA1240M+03501MA1999999098171MD1999999+0011REMSYN082AAXX  04004 82986 32995 00913 10267 20202 39817 40099 333 10350 29060 55095 58001;
0137829860999992006020418004-09400-038217FM-12+0253SBUF V0201401N003110450019N0200001N1+03501+01861100601ADDGF106991041021008001041011MA1999999097821MD1999999+0001REMSYN070AAXX  04184 82986 32598 61406 10350 20186 39782 40060 84241 333 58000;
0178829860999992006020500004-09400-038217FM-12+0253SBUF V0200901N007712200019N0020001N1+02781+01731100881ADDGA1001+999999999GF100991001001999999001001KA1240M+03531MA1999999098061MD1999999-0111REMSYN082AAXX  05004 82986 32995 00915 10278 20173 39806 40088 333 10353 29052 55098 59011;
0156829860999992006020512004-09400-038217FM-12+0253SBUF V0200501N005110450019N0100001N1+02681+02061101161ADDGF105991041021008001031001KA1240N+02251MA1999999098341MD1999999+0041REMSYN076AAXX  05124 82986 32597 50510 10268 20206 39834 40116 84230 333 20225 58004;
0137829860999992006020518004-09400-038217FM-12+0253SBUF V0201401N002610450019N0200001N1+03511+01721100641ADDGF106991041021008001041091MA1999999097851MD1999999+0031REMSYN070AAXX  05184 82986 32598 61405 10351 20172 39785 40064 84249 333 58003;
0156829860999992006020612004-09400-038217FM-12+0253SBUF V0200901N002610450019N0100001N1+02781+02111101141ADDGF106991041021008001051091KA1240N+02341MA1999999098331MD1999999-0011REMSYN076AAXX  06124 82986 32597 60905 10278 20211 39833 40114 84259 333 20234 59001;
0137829860999992006020618004-09400-038217FM-12+0253SBUF V0201401N004110450019N0200001N1+03451+01841100661ADDGF107991031021008001031031MA1999999097871MD1999999+0021REMSYN070AAXX  06184 82986 32598 71408 10345 20184 39787 40066 83233 333 58002;
0168829860999992006020700004-09400-038217FM-12+0253SBUF V0200901N005112200019N0020001N1+02921+02041101001ADDGF102991021001012501021001KA1240M+03501MA1999999098191MD1999999-0111REMSYN088AAXX  07004 82986 32695 20910 10292 20204 39819 40100 82020 333 10350 29056 55097 59011;
0156829860999992006020712004-09400-038217FM-12+0253SBUF V0202301N001012200019N0200001N1+02821+02191101111ADDGF104991031001017501031021KA1240N+02361MA1999999098301MD1999999-0031REMSYN076AAXX  07124 82986 32798 42302 10282 20219 39830 40111 83032 333 20236 59003;
0182829860999992006020718004-09400-038217FM-12+0253SBUF V0200501N004110450019N0040001N1+02801+02181100691ADDAA106004191AY121061AY221061GF107991041091002501081999MA1999999097861MD1999999-0011MW1621REMSYN082AAXX  07184 82986 21396 70508 10280 20218 39786 40069 76222 8498/ 333 59001 60041;
0213829860999992006020800004-09400-038217FM-12+0253SBUF V0200901N002610450019N0020001N1+02761+02161100911ADDAA106000021AY161061AY221061GF107991041071004501071999KA1240M+03541MA1999999098101MD1999999-0091MW1031REMSYN100AAXX  08004 82986 21495 70905 10276 20216 39810 40091 70362 8477/ 333 10354 29069 55067 59009 69921;
0201829860999992006020812004-09400-038217FM-12+0253SBUF V0202701N001510450019N0100001N1+02801+02291101141ADDAA124005191AY111061AY211061GF106991031021008001031011KA1240N+02441MA1999999098321MD1999999+0021MW1051REMSYN088AAXX  08124 82986 21597 62703 10280 20229 39832 40114 70511 83231 333 20244 58002 60054;
0137829860999992006020818004-09400-038217FM-12+0253SBUF V0203601N001011050019N0200001N1+03591+02161100601ADDGF105991021021008001041061MA1999999097821MD1999999-0041REMSYN070AAXX  08184 82986 32598 53602 10359 20216 39782 40060 82246 333 59004;
0178829860999992006020900004-09400-038217FM-12+0253SBUF V0200901N003612200019N0020001N1+02881+02181100961ADDGA1001+999999999GF100991001001999999001001KA1240M+03651MA1999999098151MD1999999+0051REMSYN082AAXX  09004 82986 32995 00907 10288 20218 39815 40096 333 10365 29062 55096 58005;
0156829860999992006020912004-09400-038217FM-12+0253SBUF V0202301N000510042019N0040001N1+02671+02291101331ADDGF108991081071004501999999KA1240N+02421MA1999999098511MD1999999+0191REMSYN076AAXX  09124 82986 32496 82301 10267 20229 39851 40133 887// 333 20242 58019;
0137829860999992006020918004-09400-038217FM-12+0253SBUF V0200901N003110450019N0200001N1+03581+01881100781ADDGF106991021011008001061051MA1999999098001MD1999999+0181REMSYN070AAXX  09184 82986 32598 60906 10358 20188 39800 40078 82165 333 58018;
0178829860999992006021000004-09400-038217FM-12+0253SBUF V0200901N005112200019N0020001N1+02961+01931101081ADDGA1001+999999999GF100991001001999999001001KA1240M+03651MA1999999098261MD1999999+0111REMSYN082AAXX  10004 82986 32995 00910 10296 20193 39826 40108 333 10365 29056 55079 58011;
0156829860999992006021012004-09400-038217FM-12+0253SBUF V0200901N002612200019N0100001N1+02741+02211101341ADDGF105991011021008001001041KA1240N+02321MA1999999098521MD1999999+0011REMSYN076AAXX  10124 82986 32597 50905 10274 20221 39852 40134 81204 333 20232 58001;
0137829860999992006021018004-09400-038217FM-12+0253SBUF V0201801N001510450019N0200001N1+03561+02221100841ADDGF106991031021008001031081MA1999999098051MD1999999+0051REMSYN070AAXX  10184 82986 32598 61803 10356 20222 39805 40084 83238 333 58005;
0168829860999992006021100004-09400-038217FM-12+0253SBUF V0201401N005712200019N0020001N1+02981+01891101031ADDGF102991021001017501031001KA1240M+03571MA1999999098221MD1999999-0041REMSYN088AAXX  11004 82986 32795 21411 10298 20189 39822 40103 82030 333 10357 29056 55091 59004;
0156829860999992006021112004-09400-038217FM-12+0253SBUF V0202701N002111050019N0100001N1+02751+02241101331ADDGF106991021021008001051061KA1240N+02371MA1999999098511MD1999999-0011REMSYN076AAXX  11124 82986 32597 62704 10275 20224 39851 40133 82256 333 20237 59001;
0137829860999992006021118004-09400-038217FM-12+0253SBUF V0203201N002110450019N0200001N1+03301+02451100821ADDGF106991031091008001051061MA1999999098021MD1999999-0031REMSYN070AAXX  11184 82986 32598 63204 10330 20245 39802 40082 83956 333 59003;
0168829860999992006021200004-09400-038217FM-12+0253SBUF V0200901N004612200019N0020001N1+02941+02261101021ADDGF102991021001017501031001KA1240M+03481MA1999999098211MD1999999-0011REMSYN088AAXX  12004 82986 32795 20909 10294 20226 39821 40102 82030 333 10348 29067 55079 59001;
0156829860999992006021212004-09400-038217FM-12+0253SBUF V0200901N001512200019N0100001N1+02911+02251101171ADDGF102991011011008001001061KA1240N+02481MA1999999098361MD1999999-0151REMSYN076AAXX  12124 82986 32597 20903 10291 20225 39836 40117 81106 333 20248 59015;
0137829860999992006021218004-09400-038217FM-12+0253SBUF V0200901N004110075019N0200001N1+03571+01821100641ADDGF105991051021008001001001MA1999999097871MD1999999-0151REMSYN070AAXX  12184 82986 32598 50908 10357 20182 39787 40064 85200 333 59015;
0168829860999992006021300004-09400-038217FM-12+0253SBUF V0200901N004112200019N0020001N1+03041+01971100941ADDGF103991021021008001001021KA1240M+03681MA1999999098151MD1999999-0061REMSYN088AAXX  13004 82986 32595 30908 10304 20197 39815 40094 82202 333 10368 29052 55088 59006;
0156829860999992006021312004-09400-038217FM-12+0253SBUF V0200901N001012200019N0200001N1+02941+02081101221ADDGF102991021001017501031001KA1240N+02441MA1999999098421MD1999999+0061REMSYN076AAXX  13124 82986 32798 20902 10294 20208 39842 40122 82030 333 20244 58006;
0137829860999992006021318004-09400-038217FM-12+0253SBUF V0201401N002112200019N0200001N1+03691+01791100671ADDGF103991031021008001001001MA1999999097891MD1999999+0021REMSYN070AAXX  13184 82986 32598 31404 10369 20179 39789 40067 83200 333 58002;
0178829860999992006021400004-09400-038217FM-12+0253SBUF V0201401N007212200019N0020001N1+02901+02101100941ADDGA1001+999999999GF100991001001999999001001KA1240M+03741MA1999999098141MD1999999-0011REMSYN082AAXX  14004 82986 32995 01414 10290 20210 39814 40094 333 10374 29054 55107 59001;
0184829860999992006021412004-09400-038217FM-12+0253SBUF V0203201N002111050019N0200001N1+02781+02131101211ADDAY121061AY201061GF106991021021008001031061KA1240N+02381MA1999999098401MD1999999-0021MW1051REMSYN082AAXX  14124 82986 31598 63204 10278 20213 39840 40121 70520 82236 333 20238 59002;
0137829860999992006021418004-09400-038217FM-12+0253SBUF V0201401N002112200019N0200001N1+03591+01881100651ADDGF103991031021008001001001MA1999999097871MD1999999-0021REMSYN070AAXX  14184 82986 32598 31404 10359 20188 39787 40065 83200 333 59002;
0168829860999992006021500004-09400-038217FM-12+0253SBUF V0200901N006719999999N0020001N1+02971+02071101051ADDGF106991061001012501071001KA1240M+03671MA1999999098241MD1999999+0101REMSYN088AAXX  15004 82986 32695 60913 10297 20207 39824 40105 86070 333 10367 29056 55102 58010;
0156829860999992006021512004-09400-038217FM-12+0253SBUF V0203601N000512200019N0200001N1+02831+02271101181ADDGF103991031021008001001001KA1240N+02461MA1999999098371MD1999999-0031REMSYN076AAXX  15124 82986 32598 33601 10283 20227 39837 40118 83200 333 20246 59003;
0137829860999992006021518004-09400-038217FM-12+0253SBUF V0202301N001512200019N0200001N1+03741+02071100511ADDGF104991021021008001041011MA1999999097741MD1999999-0131REMSYN070AAXX  15184 82986 32598 42303 10374 20207 39774 40051 82241 333 59013;
0213829860999992006021600004-09400-038217FM-12+0253SBUF V0200901N001519999999N0020001N1+02531+02251101071ADDAA106009991AY191061AY221061GF105991051001012501071001KA1240M+03741MA1999999098241MD1999999+0001MW1131REMSYN100AAXX  16004 82986 21695 50903 10253 20225 39824 40107 71392 85070 333 10374 29070 55090 58000 60101;
0173829860999992006021612004-09400-038217FM-12+0253SBUF V0200901N003110075019N0100001N1+02731+02191101221ADDAA124009991GF106991051021008001031011KA1240N+02341MA1999999098381MD1999999+0011REMSYN082AAXX  16124 82986 22597 60906 10273 20219 39838 40122 85231 333 20234 58001 60104;
0137829860999992006021618004-09400-038217FM-12+0253SBUF V0202301N002110075019N0200001N1+03511+02091100681ADDGF106991051021008001081001MA1999999097891MD1999999+0151REMSYN070AAXX  16184 82986 32598 62304 10351 20209 39789 40068 85280 333 58015;
0168829860999992006021700004-09400-038217FM-12+0253SBUF V0201401N006712200019N0020001N1+02921+01921100941ADDGF102991021041008001001001KA1240M+03601MA1999999098131MD1999999-0111REMSYN088AAXX  17004 82986 32595 21413 10292 20192 39813 40094 82400 333 10360 29057 55108 59011;
0156829860999992006021712004-09400-038217FM-12+0253SBUF V0201401N003110075019N0100001N1+02801+01901101151ADDGF105991051041008001001001KA1240N+02291MA1999999098341MD1999999-0041REMSYN076AAXX  17124 82986 32597 51406 10280 20190 39834 40115 85400 333 20229 59004;
0137829860999992006021718004-09400-038217FM-12+0253SBUF V0203201N001510075019N0200001N1+03471+02061100711ADDGF106991061021008001001001MA1999999097921MD1999999+0031REMSYN070AAXX  17184 82986 32598 63203 10347 20206 39792 40071 86200 333 58003;
0178829860999992006021800004-09400-038217FM-12+0253SBUF V0200901N005712200019N0020001N1+02881+02081100971ADDGA1001+999999999GF100991001001999999001001KA1240M+03651MA1999999098161MD1999999+0031REMSYN082AAXX  18004 82986 32995 00911 10288 20208 39816 40097 333 10365 29056 55112 58003;
0156829860999992006021812004-09400-038217FM-12+0253SBUF V0202301N000510450019N0100001N1+02821+02291101281ADDGF106991041021008001031061KA1240N+02441MA1999999098461MD1999999+0121REMSYN076AAXX  18124 82986 32597 62301 10282 20229 39846 40128 84236 333 20244 58012;
0137829860999992006021818004-09400-038217FM-12+0253SBUF V0201401N004110450019N0200001N1+03521+01991100751ADDGF106991041021008001071001MA1999999097971MD1999999+0051REMSYN070AAXX  18184 82986 32598 61408 10352 20199 39797 40075 84270 333 58005;
0213829860999992006021900004-09400-038217FM-12+0253SBUF V0200901N005712200019N0020001N1+02781+02231101161ADDAA106009991AY191061AY221061GF104991041071004501001001KA1240M+03581MA1999999098341MD1999999+0181MW1011REMSYN100AAXX  19004 82986 21495 40911 10278 20223 39834 40116 70192 84700 333 10358 29064 55096 58018 60101;
0173829860999992006021912004-09400-038217FM-12+0253SBUF V0202301N001510075019N0100001N1+02741+02281101391ADDAA124009991GF106991051021008001001051KA1240N+02361MA1999999098561MD1999999+0091REMSYN082AAXX  19124 82986 22597 62303 10274 20228 39856 40139 85205 333 20236 58009 60104;
0137829860999992006021918004-09400-038217FM-12+0253SBUF V0201401N003610075019N0200001N1+03511+01981100881ADDGF105991051021008001001001MA1999999098091MD1999999+0121REMSYN070AAXX  19184 82986 32598 51407 10351 20198 39809 40088 85200 333 58012;
0178829860999992006022000004-09400-038217FM-12+0253SBUF V0200901N008212200019N0020001N1+02961+02021101141ADDGA1001+999999999GF100991001001999999001001KA1240M+03581MA1999999098331MD1999999-0011REMSYN082AAXX  20004 82986 32995 00916 10296 20202 39833 40114 333 10358 29058 55109 59001;
0156829860999992006022012004-09400-038217FM-12+0253SBUF V0200901N003610450019N0100001N1+02861+01951101291ADDGF106991041021008001031011KA1240N+02381MA1999999098481MD1999999-0081REMSYN076AAXX  20124 82986 32597 60907 10286 20195 39848 40129 84231 333 20238 59008;
0137829860999992006022018004-09400-038217FM-12+0253SBUF V0200901N003112200019N0200001N1+03441+01921100781ADDGF104991031011008001031001MA1999999097981MD1999999-0111REMSYN070AAXX  20184 82986 32598 40906 10344 20192 39798 40078 83130 333 59011;
0178829860999992006022100004-09400-038217FM-12+0253SBUF V0200901N006212200019N0020001N1+02921+02091100911ADDGA1001+999999999GF100991001001999999001001KA1240M+03521MA1999999098111MD1999999-0221REMSYN082AAXX  21004 82986 32995 00912 10292 20209 39811 40091 333 10352 29055 55099 59022;
0156829860999992006022112004-09400-038217FM-12+0253SBUF V0200901N003112200019N0200001N1+02751+02051101151ADDGF103991011011008001001011KA1240N+02341MA1999999098341MD1999999-0141REMSYN076AAXX  21124 82986 32598 30906 10275 20205 39834 40115 81101 333 20234 59014;
0137829860999992006022118004-09400-038217FM-12+0253SBUF V0202701N001511050019N0200001N1+03631+02081100601ADDGF105991031011008001001051MA1999999097831MD1999999-0151REMSYN070AAXX  21184 82986 32598 52703 10363 20208 39783 40060 83105 333 59015;
0178829860999992006022200004-09400-038217FM-12+0253SBUF V0200901N006212200019N0020001N1+02961+02101100771ADDGA1001+999999999GF100991001001999999001001KA1240M+03631MA1999999097971MD1999999-0141REMSYN082AAXX  22004 82986 32995 00912 10296 20210 39797 40077 333 10363 29057 55106 59014;
0156829860999992006022212004-09400-038217FM-12+0253SBUF V0203601N000510450019N0040001N1+02651+02271101221ADDGF108991041081004501071999KA1240N+02531MA1999999098401MD1999999+0061REMSYN076AAXX  22124 82986 32496 83601 10265 20227 39840 40122 8487/ 333 20253 58006;
0137829860999992006022218004-09400-038217FM-12+0253SBUF V0203201N001510450019N0200001N1+03281+02321100651ADDGF106991041091004501031061MA1999999097861MD1999999+0001REMSYN070AAXX  22184 82986 32498 63203 10328 20232 39786 40065 84936 333 58000;
0168829860999992006022300004-09400-038217FM-12+0253SBUF V0200501N002610075019N0020001N1+02961+02181100911ADDGF106991051041008001011001KA1240M+03381MA1999999098101MD1999999+0131REMSYN088AAXX  23004 82986 32595 60505 10296 20218 39810 40091 85410 333 10338 29066 55026 58013;
0156829860999992006022312004-09400-038217FM-12+0253SBUF V0203201N001010450019N0200001N1+02851+02261101161ADDGF106991031011008001051001KA1240N+02531MA1999999098351MD1999999-0051REMSYN076AAXX  23124 82986 32598 63202 10285 20226 39835 40116 83150 333 20253 59005;
0137829860999992006022318004-09400-038217FM-12+0253SBUF V0203201N001512200019N0200001N1+03601+01771100561ADDGF105991041021008001001061MA1999999097791MD1999999-0071REMSYN070AAXX  23184 82986 32598 53203 10360 20177 39779 40056 84206 333 59007;
0178829860999992006022400004-09400-038217FM-12+0253SBUF V0200901N006212200019N0020001N1+03061+02251100901ADDGA1001+999999999GF100991001001999999001001KA1240M+03691MA1999999098111MD1999999+0011REMSYN082AAXX  24004 82986 32995 00912 10306 20225 39811 40090 333 10369 29057 55104 58001;
0156829860999992006022412004-09400-038217FM-12+0253SBUF V0203201N000510450019N0200001N1+02851+02331101131ADDGF106991041021008001041011KA1240N+02461MA1999999098331MD1999999-0021REMSYN076AAXX  24124 82986 32598 63201 10285 20233 39833 40113 84241 333 20246 59002;
0137829860999992006022418004-09400-038217FM-12+0253SBUF V0203601N001012200019N0200001N1+03691+01881100541ADDGF105991041021008001001011MA1999999097771MD1999999-0021REMSYN070AAXX  24184 82986 32598 53602 10369 20188 39777 40054 84201 333 59002;
0178829860999992006022500004-09400-038217FM-12+0253SBUF V0200901N007212200019N0020001N1+03061+02221100791ADDGA1001+999999999GF100991001001999999001001KA1240M+03781MA1999999098001MD1999999-0111REMSYN082AAXX  25004 82986 32995 00914 10306 20222 39800 40079 333 10378 29058 55110 59011;
0156829860999992006022512004-09400-038217FM-12+0253SBUF V0203201N001510075019N0200001N1+02921+02201101101ADDGF106991061011008001001001KA1240N+02481MA1999999098311MD1999999-0021REMSYN076AAXX  25124 82986 32598 63203 10292 20220 39831 40110 86100 333 20248 59002;
0137829860999992006022518004-09400-038217FM-12+0253SBUF V0203201N001512200019N0200001N1+03651+02141100541ADDGF103991031021008001001001MA1999999097771MD1999999+0001REMSYN070AAXX  25184 82986 32598 33203 10365 20214 39777 40054 83200 333 58000;
0156829860999992006022612004-09400-038217FM-12+0253SBUF V0203601N002612200019N0200001N1+02981+02171100981ADDGF101991011011008001001001KA1240N+02531MA1999999098201MD1999999-0111REMSYN076AAXX  26124 82986 32598 13605 10298 20217 39820 40098 81100 333 20253 59011;
0137829860999992006022618004-09400-038217FM-12+0253SBUF V0200501N002112200019N0200001N1+03641+02291100431ADDGF104991041041008001001001MA1999999097671MD1999999-0101REMSYN070AAXX  26184 82986 32598 40504 10364 20229 39767 40043 84400 333 59010;
0201829860999992006022712004-09400-038217FM-12+0253SBUF V0203601N000512200019N0100001N1+02861+02311101081ADDAA124014091AY191061AY221061GF103991011011008001001021KA1240N+02461MA1999999098261MD1999999+0061MW1011REMSYN088AAXX  27124 82986 21597 33601 10286 20231 39826 40108 70192 81102 333 20246 58006 60144;
0137829860999992006022718004-09400-038217FM-12+0253SBUF V0202301N001512200019N0200001N1+03691+01881100541ADDGF104991031011008001031021MA1999999097771MD1999999+0101REMSYN070AAXX  27184 82986 32598 42303 10369 20188 39777 40054 83132 333 58010;
0178829860999992006022800004-09400-038217FM-12+0253SBUF V0200901N003112200019N0020001N1+02961+02181100901ADDGA1001+999999999GF100991001001999999001001KA1240M+03701MA1999999098101MD1999999-0011REMSYN082AAXX  28004 82986 32995 00906 10296 20218 39810 40090 333 10370 29059 55098 59001;
0156829860999992006022812004-09400-038217FM-12+0253SBUF V0200901N003110450019N0100001N1+02691+02261101261ADDGF105991031041008001031021KA1240N+02451MA1999999098441MD1999999+0181REMSYN076AAXX  28124 82986 32597 50906 10269 20226 39844 40126 83432 333 20245 58018;
0137829860999992006022818004-09400-038217FM-12+0253SBUF V0202301N002612200019N0200001N1+03591+01551100561ADDGF104991031021008001001051MA1999999097821MD1999999+0051REMSYN070AAXX  28184 82986 32598 42305 10359 20155 39782 40056 83205 333 58005;
0156829860999992006030112004-09400-038217FM-12+0253SBUF V0200901N001512200019N0200001N1+02881+01941101261ADDGF105991031011008001001061KA1240N+02321MA1999999098451MD1999999+0011REMSYN076AAXX  01124 82986 32598 50903 10288 20194 39845 40126 83106 333 20232 58001;
0137829860999992006030118004-09400-038217FM-12+0253SBUF V0202701N002111050019N0200001N1+03491+02071100751ADDGF106991031021008001001081MA1999999097961MD1999999+0141REMSYN070AAXX  01184 82986 32598 62704 10349 20207 39796 40075 83208 333 58014;
0178829860999992006030200004-09400-038217FM-12+0253SBUF V0201401N007212200019N0020001N1+02881+02031101071ADDGA1001+999999999GF100991001001999999001001KA1240M+03511MA1999999098271MD1999999+0161REMSYN082AAXX  02004 82986 32995 01414 10288 20203 39827 40107 333 10351 29055 55104 58016;
0137829860999992006030218004-09400-038217FM-12+0253SBUF V0203201N001512200019N0200001N1+03551+02131100841ADDGF104991031021008001001011MA1999999098041MD1999999+0081REMSYN070AAXX  02184 82986 32598 43203 10355 20213 39804 40084 83201 333 58008;
0178829860999992006030300004-09400-038217FM-12+0253SBUF V0200901N008212200019N0020001N1+02921+02011101071ADDGA1001+999999999GF100991001001999999001001KA1240M+03561MA1999999098261MD1999999-0011REMSYN082AAXX  03004 82986 32995 00916 10292 20201 39826 40107 333 10356 29058 55108 59001;
0156829860999992006030312004-09400-038217FM-12+0253SBUF V0202301N001010450019N0100001N1+02821+02291101341ADDGF106991041021008001051001KA1240N+02281MA1999999098521MD1999999-0051REMSYN076AAXX  03124 82986 32597 62302 10282 20229 39852 40134 84250 333 20228 59005;
0137829860999992006030318004-09400-038217FM-12+0253SBUF V0200901N001510450019N0200001N1+03411+02071100871ADDGF106991031021008001051001MA1999999098081MD1999999+0041REMSYN070AAXX  03184 82986 32598 60903 10341 20207 39808 40087 83250 333 58004;
0178829860999992006030400004-09400-038217FM-12+0253SBUF V0200901N005112200019N0020001N1+02961+02051101021ADDGA1001+999999999GF100991001001999999001001KA1240M+03481MA1999999098241MD1999999-0021REMSYN082AAXX  04004 82986 32995 00910 10296 20205 39824 40102 333 10348 29059 55087 59002;
0156829860999992006030412004-09400-038217FM-12+0253SBUF V0200901N002110450019N0200001N1+02921+02121101391ADDGF105991031011008001041001KA1240N+02551MA1999999098581MD1999999+0061REMSYN076AAXX  04124 82986 32598 50904 10292 20212 39858 40139 83140 333 20255 58006;
0137829860999992006030418004-09400-038217FM-12+0253SBUF V0203601N001512200019N0200001N1+03651+02221100821ADDGF104991031011008001041001MA1999999098051MD1999999-0031REMSYN070AAXX  04184 82986 32598 43603 10365 20222 39805 40082 83140 333 59003;
0168829860999992006030500004-09400-038217FM-12+0253SBUF V0200901N003119999999N0020001N1+03011+02191101061ADDGF106991061001012501071001KA1240M+03681MA1999999098261MD1999999+0021REMSYN088AAXX  05004 82986 32695 60906 10301 20219 39826 40106 86070 333 10368 29058 55097 58002;
0156829860999992006030512004-09400-038217FM-12+0253SBUF V0203201N001510075019N0100001N1+02961+02311101401ADDGF105991051021008001001001KA1240N+02551MA1999999098601MD1999999+0021REMSYN076AAXX  05124 82986 32597 53203 10296 20231 39860 40140 85200 333 20255 58002;
0137829860999992006030518004-09400-038217FM-12+0253SBUF V0200901N003610450019N0200001N1+03611+01901100821ADDGF105991041021008001031001MA1999999098051MD1999999+0001REMSYN070AAXX  05184 82986 32598 50907 10361 20190 39805 40082 84230 333 58000;
0178829860999992006030600004-09400-038217FM-12+0253SBUF V0200901N004612200019N0020001N1+03091+01951101011ADDGA1001+999999999GF100991001001999999001001KA1240M+03671MA1999999098221MD1999999-0041REMSYN082AAXX  06004 82986 32995 00909 10309 20195 39822 40101 333 10367 29052 55094 59004;
0175829860999992006030612004-09400-038217FM-12+0253SBUF V0203201N001012200019N0200001N1+02901+02311101271ADDGF102991999001012501031001KA1240N+02321MA1999999098471MD1999999-0131REMSYN076AAXX  06124 82986 32698 23202 10290 20231 39847 40127 81030 333 20232 59013;EQDQ01+000012SCOTLC
0137829860999992006030618004-09400-038217FM-12+0253SBUF V0203601N002612200019N0200001N1+03751+01891100721ADDGF104991041011008001001001MA1999999097961MD1999999-0091REMSYN070AAXX  06184 82986 32598 43605 10375 20189 39796 40072 84100 333 59009;
0168829860999992006030700004-09400-038217FM-12+0253SBUF V0200901N003112200019N0020001N1+03171+02141100971ADDGF104991011041008001051001KA1240M+03761MA1999999098191MD1999999-0031REMSYN088AAXX  07004 82986 32595 40906 10317 20214 39819 40097 81450 333 10376 29052 55110 59003;
0156829860999992006030712004-09400-038217FM-12+0253SBUF V0203201N001511050019N0100001N1+02921+02221101161ADDGF105991041051008001001091KA1240N+02591MA1999999098371MD1999999-0101REMSYN076AAXX  07124 82986 32597 53203 10292 20222 39837 40116 84509 333 20259 59010;
0137829860999992006030718004-09400-038217FM-12+0253SBUF V0203201N001511050019N0200001N1+03601+02321100581ADDGF106991041021008001001051MA1999999097821MD1999999-0141REMSYN070AAXX  07184 82986 32598 63203 10360 20232 39782 40058 84205 333 59014;
0213829860999992006030800004-09400-038217FM-12+0253SBUF V0201001N021110042019N0020001N1+02441+02151101001ADDAA106001091AY191061AY221061GF108991081091004501999999KA1240M+03661MA1999999098171MD1999999-0021MW1951REMSYN100AAXX  08004 82986 21495 81041 10244 20215 39817 40100 79592 889// 333 10366 29070 55098 59002 60011;
0201829860999992006030812004-09400-038217FM-12+0253SBUF V0200901N002610450019N0100001N1+02751+02321101171ADDAA124007991AY191061AY261061GF106991031041008001051081KA1240N+02301MA1999999098331MD1999999-0041MW1021REMSYN088AAXX  08124 82986 21597 60905 10275 20232 39833 40117 70296 83458 333 20230 59004 60084;
0137829860999992006030818004-09400-038217FM-12+0253SBUF V0203201N001510450019N0200001N1+03431+02091100591ADDGF106991041021008001041081MA1999999097801MD1999999-0021REMSYN070AAXX  08184 82986 32598 63203 10343 20209 39780 40059 84248 333 59002;
0168829860999992006030900004-09400-038217FM-12+0253SBUF V0202301N001010042019N0020001N1+02801+02341100881ADDGF107991051021004501081001KA1240M+03521MA1999999098071MD1999999-0101REMSYN088AAXX  09004 82986 32495 72302 10280 20234 39807 40088 85280 333 10352 29069 55073 59010;
0156829860999992006030912004-09400-038217FM-12+0253SBUF V0203201N001010450019N0100001N1+02781+02301101061ADDGF106991041021008001031091KA1240N+02401MA1999999098251MD1999999-0081REMSYN076AAXX  09124 82986 32597 63202 10278 20230 39825 40106 84239 333 20240 59008;
0137829860999992006030918004-09400-038217FM-12+0253SBUF V0203201N002110450019N0200001N1+03491+02071100561ADDGF106991041021008001031061MA1999999097781MD1999999-0021REMSYN070AAXX  09184 82986 32598 63204 10349 20207 39778 40056 84236 333 59002;
0196829860999992006031000004-09400-038217FM-12+0253SBUF V0201801N002610042019N0020001N1+02901+02321100911ADDAY121061AY221061GF107991051091004501081001KA1240M+03511MA1999999098111MD1999999+0041MW1131REMSYN094AAXX  10004 82986 31495 71805 10290 20232 39811 40091 71322 85980 333 10351 29058 55107 58004;
0201829860999992006031012004-09400-038217FM-12+0253SBUF V0203601N002110090019N0020001N1+02471+02251101141ADDAA124015091AY151061AY221061GF108991081081004501999999KA1240N+02431MA1999999098311MD1999999+0061MW1631REMSYN088AAXX  10124 82986 21495 83604 10247 20225 39831 40114 76352 888// 333 20243 58006 60154;
0182829860999992006031018004-09400-038217FM-12+0253SBUF V0203601N003611050019N0200001N1+03101+02361100741ADDAA106005191AY161061AY221061GF106991021021008001051061MA1999999097931MD1999999+0151MW1021REMSYN082AAXX  10184 82986 21598 63607 10310 20236 39793 40074 70262 82256 333 58015 60051;
0196829860999992006031100004-09400-038217FM-12+0253SBUF V0202701N001010075019N0020001N1+02741+02341100931ADDAY121061AY221061GF108991051091008001021999KA1240M+03141MA1999999098101MD1999999-0011MW1131REMSYN094AAXX  11004 82986 31595 82702 10274 20234 39810 40093 71322 8592/ 333 10314 29078 55035 59001;
0201829860999992006031112004-09400-038217FM-12+0253SBUF V0200501N002110060019N0020001N1+02321+02221101351ADDAA124021191AY161061AY261061GF108991061081002501071999KA1240N+02301MA1999999098501MD1999999+0191MW1611REMSYN088AAXX  11124 82986 21395 80504 10232 20222 39850 40135 76166 8687/ 333 20230 58019 60214;
0182829860999992006031118004-09400-038217FM-12+0253SBUF V0203601N005110450019N0100001N1+03041+02451100851ADDAA106002091AY161061AY221061GF106991041021004501081061MA1999999098041MD1999999+0111MW1171REMSYN082AAXX  11184 82986 21497 63610 10304 20245 39804 40085 71762 84286 333 58011 60021;
0168829860999992006031200004-09400-038217FM-12+0253SBUF V0202701N001011050019N0020001N1+02621+02421100991ADDGF106991021001017501031071KA1240M+03071MA1999999098191MD1999999+0091REMSYN088AAXX  12004 82986 32795 62702 10262 20242 39819 40099 82037 333 10307 29086 55035 58009;
0173829860999992006031212004-09400-038217FM-12+0253SBUF V0202301N000510090019N0100001N1+02661+02391101261ADDAA124002091GF107991051081004501001081KA1240N+02301MA1999999098421MD1999999-0081REMSYN082AAXX  12124 82986 22497 72301 10266 20239 39842 40126 85808 333 20230 59008 60024;
0165829860999992006031218004-09400-038217FM-12+0253SBUF V0203601N002611050019N0040001N1+03261+02521100681ADDAY121061AY221061GF106991031021004501001081MA1999999097891MD1999999-0151MW1171REMSYN076AAXX  12184 82986 31496 63605 10326 20252 39789 40068 71722 83208 333 59015;
0168829860999992006031300004-09400-038217FM-12+0253SBUF V0200901N003112200019N0020001N1+02781+02341100911ADDGF104991011041008001031061KA1240M+03291MA1999999098091MD1999999-0101REMSYN088AAXX  13004 82986 32595 40906 10278 20234 39809 40091 81436 333 10329 29076 55037 59010;
0156829860999992006031312004-09400-038217FM-12+0253SBUF V0200501N001511050019N0100001N1+02731+02321101141ADDGF106991041021008001001081KA1240N+02381MA1999999098321MD1999999-0101REMSYN076AAXX  13124 82986 32597 60503 10273 20232 39832 40114 84208 333 20238 59010;
0137829860999992006031318004-09400-038217FM-12+0253SBUF V0200501N002111050019N0200001N1+03391+02321100561ADDGF105991031021008001001021MA1999999097781MD1999999-0111REMSYN070AAXX  13184 82986 32598 50504 10339 20232 39778 40056 83202 333 59011;
0168829860999992006031400004-09400-038217FM-12+0253SBUF V0200901N006212200019N0020001N1+02891+02101100891ADDGF102991021001017501031001KA1240M+03401MA1999999098081MD1999999-0011REMSYN088AAXX  14004 82986 32795 20912 10289 20210 39808 40089 82030 333 10340 29065 55086 59001;
0156829860999992006031412004-09400-038217FM-12+0253SBUF V0200901N002612200019N0100001N1+02601+02121101131ADDGF106991041041008001001061KA1240N+02221MA1999999098311MD1999999-0011REMSYN076AAXX  14124 82986 32597 60905 10260 20212 39831 40113 84406 333 20222 59001;
0137829860999992006031418004-09400-038217FM-12+0253SBUF V0200901N002112200019N0200001N1+03331+01971100701ADDGF104991031011008001001021MA1999999097891MD1999999+0111REMSYN070AAXX  14184 82986 32598 40904 10333 20197 39789 40070 83102 333 58011;
0168829860999992006031500004-09400-038217FM-12+0253SBUF V0200901N005712200019N0020001N1+02861+01951100991ADDGF102991001001999999001061KA1240M+03401MA1999999098171MD1999999+0091REMSYN088AAXX  15004 82986 32995 20911 10286 20195 39817 40099 80006 333 10340 29059 55107 58009;
0175829860999992006031512004-09400-038217FM-12+0253SBUF V0200901N002112200019N0200001N1+02701+02111101241ADDGF101991999011008001001001KA1240N+02261MA1999999098421MD1999999+0111REMSYN076AAXX  15124 82986 32598 10904 10270 20211 39842 40124 84100 333 20226 58011;EQDQ01+000042SCOTLC
0137829860999992006031518004-09400-038217FM-12+0253SBUF V0200501N003112200019N0200001N1+03391+01871100791ADDGF103991031021008001001001MA1999999097981MD1999999-0191REMSYN070AAXX  15184 82986 32598 30506 10339 20187 39798 40079 83200 333 59019;
0156829860999992006031612004-09400-038217FM-12+0253SBUF V0200501N001512200019N0200001N1+02781+02091101271ADDGF102991021011008001001001KA1240N+02301MA1999999098451MD1999999+0031REMSYN076AAXX  16124 82986 32598 20503 10278 20209 39845 40127 82100 333 20230 58003;
0137829860999992006031618004-09400-038217FM-12+0253SBUF V0203201N001512200019N0200001N1+03491+02041100811ADDGF104991041021008001001001MA1999999098011MD1999999+0031REMSYN070AAXX  16184 82986 32598 43203 10349 20204 39801 40081 84200 333 58003;
0168829860999992006031700004-09400-038217FM-12+0253SBUF V0201401N006712200019N0020001N1+02901+02201100991ADDGF102991021011008001001001KA1240M+03501MA1999999098181MD1999999-0011REMSYN088AAXX  17004 82986 32595 21413 10290 20220 39818 40099 82100 333 10350 29060 55110 59001;
0156829860999992006031712004-09400-038217FM-12+0253SBUF V0200901N003610075019N0100001N1+02841+02261101101ADDGF106991061021008001001001KA1240N+02401MA1999999098291MD1999999-0161REMSYN076AAXX  17124 82986 32597 60907 10284 20226 39829 40110 86200 333 20240 59016;
0137829860999992006031718004-09400-038217FM-12+0253SBUF V0201401N003110075019N0200001N1+03471+02021100581ADDGF105991051021008001001001MA1999999097801MD1999999-0211REMSYN070AAXX  17184 82986 32598 51406 10347 20202 39780 40058 85200 333 59021;
0168829860999992006031800004-09400-038217FM-12+0253SBUF V0201401N006712200019N0020001N1+02901+02431100871ADDGF102991011041017501031001KA1240M+03501MA1999999098071MD1999999-0111REMSYN088AAXX  18004 82986 32795 21413 10290 20243 39807 40087 81430 333 10350 29066 55106 59011;
0156829860999992006031812004-09400-038217FM-12+0253SBUF V0200901N002612200019N0100001N1+02801+02271101151ADDGF106991041021008001001061KA1240N+02401MA1999999098341MD1999999+0051REMSYN076AAXX  18124 82986 32597 60905 10280 20227 39834 40115 84206 333 20240 58005;
0137829860999992006031818004-09400-038217FM-12+0253SBUF V0201401N002611050019N0200001N1+03411+02241100621ADDGF106991041021008001001081MA1999999097831MD1999999+0031REMSYN070AAXX  18184 82986 32598 61405 10341 20224 39783 40062 84208 333 58003;
0213829860999992006031900004-09400-038217FM-12+0253SBUF V0200901N005110450019N0020001N1+02771+02231101001ADDAA106002091AY161061AY221061GF106991031041008001021001KA1240M+03461MA1999999098191MD1999999+0121MW1021REMSYN100AAXX  19004 82986 21595 60910 10277 20223 39819 40100 70262 83420 333 10346 29068 55104 58012 60021;
0173829860999992006031912004-09400-038217FM-12+0253SBUF V0200901N002610075019N0100001N1+02721+02341101191ADDAA124002091GF106991061021008001001001KA1240N+02381MA1999999098361MD1999999+0021REMSYN082AAXX  19124 82986 22597 60905 10272 20234 39836 40119 86200 333 20238 58002 60024;
0165829860999992006031918004-09400-038217FM-12+0253SBUF V0201401N002610450019N0200001N1+03301+02331100741ADDAY121061AY221061GF106991041081004501091001MA1999999097941MD1999999+0111MW1151REMSYN076AAXX  19184 82986 31498 61405 10330 20233 39794 40074 71522 84890 333 58011;
0213829860999992006032000004-09400-038217FM-12+0253SBUF V0200901N004110090019N0020001N1+02581+02251101141ADDAA106000891AY181061AY221061GF108991061081004501091999KA1240M+03331MA1999999098311MD1999999+0121MW1021REMSYN100AAXX  20004 82986 21495 80908 10258 20225 39831 40114 70282 8689/ 333 10333 29075 55063 58012 69981;
0173829860999992006032012004-09400-038217FM-12+0253SBUF V0200901N003110450019N0100001N1+02801+02301101251ADDAA124000891GF106991041021008001031061KA1240N+02301MA1999999098411MD1999999+0051REMSYN082AAXX  20124 82986 22597 60906 10280 20230 39841 40125 84236 333 20230 58005 69984;
0137829860999992006032018004-09400-038217FM-12+0253SBUF V0200901N003110075019N0200001N1+03371+02141100811ADDGF106991051021008001001061MA1999999098011MD1999999+0071REMSYN070AAXX  20184 82986 32598 60906 10337 20214 39801 40081 85206 333 58007;
0178829860999992006032100004-09400-038217FM-12+0253SBUF V0200901N006212200019N0020001N1+02781+02181101111ADDGA1001+999999999GF100991001001999999001001KA1240M+03421MA1999999098291MD1999999-0021REMSYN082AAXX  21004 82986 32995 00912 10278 20218 39829 40111 333 10342 29067 55092 59002;
0156829860999992006032112004-09400-038217FM-12+0253SBUF V0200901N004610042019N0100001N1+02761+02211101271ADDGF106991061021004501001001KA1240N+02361MA1999999098441MD1999999+0031REMSYN076AAXX  21124 82986 32497 60909 10276 20221 39844 40127 86200 333 20236 58003;
0137829860999992006032118004-09400-038217FM-12+0253SBUF V0200901N004110450019N0200001N1+03491+01841100751ADDGF106991031021008001031041MA1999999097961MD1999999-0051REMSYN070AAXX  21184 82986 32598 60908 10349 20184 39796 40075 83234 333 59005;
0178829860999992006032200004-09400-038217FM-12+0253SBUF V0200901N006712200019N0020001N1+02821+02071101131ADDGA1001+999999999GF100991001001999999001001KA1240M+03501MA1999999098311MD1999999+0021REMSYN082AAXX  22004 82986 32995 00913 10282 20207 39831 40113 333 10350 29060 55110 58002;
0156829860999992006032212004-09400-038217FM-12+0253SBUF V0201401N003110450019N0100001N1+02661+02241101291ADDGF107991031021008001071061KA1240N+02281MA1999999098461MD1999999+0021REMSYN076AAXX  22124 82986 32597 71406 10266 20224 39846 40129 83276 333 20228 58002;
0137829860999992006032218004-09400-038217FM-12+0253SBUF V0200901N003110450019N0200001N1+03321+01971100811ADDGF106991031021008001031061MA1999999098001MD1999999+0041REMSYN070AAXX  22184 82986 32598 60906 10332 20197 39800 40081 83236 333 58004;
0178829860999992006032300004-09400-038217FM-12+0253SBUF V0200901N006712200019N0020001N1+02721+02151101211ADDGA1001+999999999GF100991001001999999001001KA1240M+03411MA1999999098381MD1999999+0071REMSYN082AAXX  23004 82986 32995 00913 10272 20215 39838 40121 333 10341 29066 55081 58007;
0156829860999992006032312004-09400-038217FM-12+0253SBUF V0200901N003611050019N0100001N1+02731+02281101261ADDGF107991041041008001001061KA1240N+02351MA1999999098431MD1999999-0031REMSYN076AAXX  23124 82986 32597 70907 10273 20228 39843 40126 84406 333 20235 59003;
0137829860999992006032318004-09400-038217FM-12+0253SBUF V0201401N003612200019N0200001N1+03401+02111100751ADDGF106991021021008001001061MA1999999097951MD1999999-0051REMSYN070AAXX  23184 82986 32598 61407 10340 20211 39795 40075 82206 333 59005;
0232829860999992006032400004-09400-038217FM-12+0253SBUF V0200901N003119999999N0020001N1+02621+02351101131ADDAA106011991AY191061AY221061GF105991999001017501071001KA1240M+03421MA1999999098301MD1999999-0081MW1021REMSYN100AAXX  24004 82986 21795 50906 10262 20235 39830 40113 70292 84070 333 10342 29074 55083 59008 60121;EQDQ01+000042SCOTLC
0173829860999992006032412004-09400-038217FM-12+0253SBUF V0200901N002611050019N0100001N1+02711+02371101241ADDAA124011991GF106991021041008001071061KA1240N+02341MA1999999098401MD1999999-0031REMSYN082AAXX  24124 82986 22597 60905 10271 20237 39840 40124 82476 333 20234 59003 60124;
0137829860999992006032418004-09400-038217FM-12+0253SBUF V0200901N001510450019N0200001N1+03331+02351100691ADDGF106991041091008001031061MA1999999097901MD1999999-0051REMSYN070AAXX  24184 82986 32598 60903 10333 20235 39790 40069 84936 333 59005;
0232829860999992006032500004-09400-038217FM-12+0253SBUF V0202301N002610021019N0020001N1+02501+02341101321ADDAA106000091AY191061AY251061GF108991081091002501999999KA1240M+03411MA1999999098381MD1999999+0081MW1171REMSYN100AAXX  25004 82986 21395 82305 10250 20234 39838 40132 71795 889// 333 10341 29080 55089 58008 69901;EQDQ01  00002PRCP06
0192829860999992006032512004-09400-038217FM-12+0253SBUF V0200901N000510450019N0100001N1+02621+02421101351ADDAA124000091GF106991041071004501031011KA1240N+02361MA1999999098501MD1999999+0101REMSYN082AAXX  25124 82986 22497 60901 10262 20242 39850 40135 84731 333 20236 58010 69904;EQDQ01  00002PRCP24
0165829860999992006032518004-09400-038217FM-12+0253SBUF V0203201N001511050019N0200001N1+03421+02361100731ADDAY121061AY221061GF106991041021004501001081MA1999999097941MD1999999+0041MW1151REMSYN076AAXX  25184 82986 31498 63203 10342 20236 39794 40073 71522 84208 333 58004;
0168829860999992006032600004-09400-038217FM-12+0253SBUF V0202301N001510075019N0020001N1+02601+02351101261ADDGF108991061051008001071999KA1240M+03421MA1999999098421MD1999999+0041REMSYN088AAXX  26004 82986 32595 82303 10260 20235 39842 40126 8657/ 333 10342 29079 55070 58004;
0220829860999992006032612004-09400-038217FM-12+0253SBUF V0201401N001510075019N0100001N1+02741+02321101321ADDAA124000091AY151061AY221061GF106991051021008001001041KA1240N+02411MA1999999098481MD1999999-0021MW1011REMSYN088AAXX  26124 82986 21597 61403 10274 20232 39848 40132 70152 85204 333 20241 59002 69914;EQDQ01  00002PRCP24
0137829860999992006032618004-09400-038217FM-12+0253SBUF V0203201N002111050019N0200001N1+03411+02481100761ADDGF106991021021008001041031MA1999999097971MD1999999+0031REMSYN070AAXX  26184 82986 32598 63204 10341 20248 39797 40076 82243 333 58003;
0168829860999992006032700004-09400-038217FM-12+0253SBUF V0200901N002612200019N0020001N1+02681+02431101171ADDGF104991041001017501021001KA1240M+03441MA1999999098371MD1999999-0051REMSYN088AAXX  27004 82986 32795 40905 10268 20243 39837 40117 84020 333 10344 29077 55081 59005;
0201829860999992006032712004-09400-038217FM-12+0253SBUF V0200901N001510450019N0100001N1+02901+02371101401ADDAA124001091AY161061AY221061GF107991031041004501051001KA1240N+02381MA1999999098581MD1999999+0101MW1011REMSYN088AAXX  27124 82986 21497 70903 10290 20237 39858 40140 70162 83450 333 20238 58010 60014;
0137829860999992006032718004-09400-038217FM-12+0253SBUF V0203601N002611050019N0200001N1+03411+02481100811ADDGF105991021021008001041041MA1999999098011MD1999999+0041REMSYN070AAXX  27184 82986 32598 53605 10341 20248 39801 40081 82244 333 58004;
0196829860999992006032800004-09400-038217FM-12+0253SBUF V0201401N004110150019N0020001N1+02821+02331101201ADDAY101061AY201061GF105991051001017501021001KA1240M+03421MA1999999098391MD1999999+0021MW1131REMSYN094AAXX  28004 82986 31795 51408 10282 20233 39839 40120 71300 85020 333 10342 29070 55089 58002;
0156829860999992006032812004-09400-038217FM-12+0253SBUF V0203201N001511050019N0100001N1+02761+02401101341ADDGF106991011021008001031061KA1240N+02401MA1999999098521MD1999999-0061REMSYN076AAXX  28124 82986 32597 63203 10276 20240 39852 40134 81236 333 20240 59006;
0137829860999992006032818004-09400-038217FM-12+0253SBUF V0203201N001010450019N0100001N1+03161+02571100821ADDGF106991031041008001091081MA1999999098011MD1999999+0001REMSYN070AAXX  28184 82986 32597 63202 10316 20257 39801 40082 83498 333 58000;
0168829860999992006032900004-09400-038217FM-12+0253SBUF V0200901N001012200019N0020001N1+02831+02521101061ADDGF104991041001017501051001KA1240M+03291MA1999999098251MD1999999-0141REMSYN088AAXX  29004 82986 32795 40902 10283 20252 39825 40106 84050 333 10329 29080 55065 59014;
0156829860999992006032912004-09400-038217FM-12+0253SBUF V0203201N001011050019N0040001N1+02741+02431101221ADDGF106991021021008001051041KA1240N+02441MA1999999098401MD1999999-0121REMSYN076AAXX  29124 82986 32596 63202 10274 20243 39840 40122 82254 333 20244 59012;
0168829860999992006033000004-09400-038217FM-12+0253SBUF V0202701N001010150019N0020001N1+02681+02391101061ADDGF105991051001017501051001KA1240M+03101MA1999999098231MD1999999-0021REMSYN088AAXX  30004 82986 32795 52702 10268 20239 39823 40106 85050 333 10310 29078 55022 59002;
0156829860999992006033012004-09400-038217FM-12+0253SBUF V0203201N001512200019N0100001N1+02791+02401101291ADDGF105991031041008001001061KA1240N+02421MA1999999098461MD1999999+0061REMSYN076AAXX  30124 82986 32597 53203 10279 20240 39846 40129 83406 333 20242 58006;
0137829860999992006033018004-09400-038217FM-12+0253SBUF V0203601N002111050019N0100001N1+03341+02151100761ADDGF106991031021008001001081MA1999999097961MD1999999-0041REMSYN070AAXX  30184 82986 32597 63604 10334 20215 39796 40076 83208 333 59004;
0168829860999992006033100004-09400-038217FM-12+0253SBUF V0201401N002110075019N0020001N1+02631+02331101191ADDGF106991061021008001001001KA1240M+03371MA1999999098361MD1999999+0131REMSYN088AAXX  31004 82986 32595 61404 10263 20233 39836 40119 86200 333 10337 29074 55088 58013;
0201829860999992006033112004-09400-038217FM-12+0253SBUF V0200901N001512200019N0100001N1+02771+02401101341ADDAA124005191AY161061AY221061GF105991041021008001001011KA1240N+02401MA1999999098511MD1999999+0051MW1021REMSYN088AAXX  31124 82986 21597 50903 10277 20240 39851 40134 70262 84201 333 20240 58005 60054;
0137829860999992006033118004-09400-038217FM-12+0253SBUF V0203601N001511050019N0200001N1+03391+02061100751ADDGF106991041021008001001081MA1999999097951MD1999999-0011REMSYN070AAXX  31184 82986 32598 63603 10339 20206 39795 40075 84208 333 59001;
0168829860999992006040100004-09400-038217FM-12+0253SBUF V0200901N002110450019N0020001N1+02611+02291101181ADDGF106991041081008001051001KA1240M+03431MA1999999098351MD1999999-0011REMSYN088AAXX  01004 82986 32595 60904 10261 20229 39835 40118 84850 333 10343 29073 55102 59001;
0156829860999992006040112004-09400-038217FM-12+0253SBUF V0200901N001510042019N0100001N1+02731+02341101311ADDGF106991061051004501001001KA1240N+02441MA1999999098471MD1999999-0041REMSYN076AAXX  01124 82986 32497 60903 10273 20234 39847 40131 86500 333 20244 59004;
0165829860999992006040118004-09400-038217FM-12+0253SBUF V0200901N007710450019N0040001N1+02741+02191100911ADDAY101061AY211061GF106991031071004501071001MA1999999098091MD1999999+0141MW1151REMSYN076AAXX  01184 82986 31496 60915 10274 20219 39809 40091 71501 83770 333 58014;
0187829860999992006040200004-09400-038217FM-12+0253SBUF V0201401N002112200019N0020001N1+02581+02291101231ADDGF102991021011008001001001KA1240M+99999MA1999999098391MD1999999-0041REMSYN088AAXX  02004 82986 32595 21404 10258 20229 39839 40123 82100 333 10241 29080 55076 59004;EQDQ01 +02412ATMX  
0156829860999992006040212004-09400-038217FM-12+0253SBUF V0201401N001510075019N0100001N1+02661+02091101281ADDGF106991061021008001001001KA1240N+02281MA1999999098441MD1999999-0031REMSYN076AAXX  02124 82986 32597 61403 10266 20209 39844 40128 86200 333 20228 59003;
0137829860999992006040218004-09400-038217FM-12+0253SBUF V0201401N002110450019N0200001N1+03281+02131100811ADDGF106991031021008001061011MA1999999098011MD1999999-0081REMSYN070AAXX  02184 82986 32598 61404 10328 20213 39801 40081 83261 333 59008;
0178829860999992006040300004-09400-038217FM-12+0253SBUF V0201401N004112200019N0020001N1+02831+02151101161ADDGA1001+999999999GF100991001001999999001001KA1240M+03371MA1999999098341MD1999999-0051REMSYN082AAXX  03004 82986 32995 01408 10283 20215 39834 40116 333 10337 29064 55096 59005;
0156829860999992006040312004-09400-038217FM-12+0253SBUF V0200901N001510075019N0100001N1+02681+02331101271ADDGF106991051021008001031001KA1240N+02401MA1999999098441MD1999999+0001REMSYN076AAXX  03124 82986 32597 60903 10268 20233 39844 40127 85230 333 20240 58000;
0137829860999992006040318004-09400-038217FM-12+0253SBUF V0200901N003110450019N0200001N1+03261+02181100851ADDGF105991031021008001031001MA1999999098041MD1999999+0031REMSYN070AAXX  03184 82986 32598 50906 10326 20218 39804 40085 83230 333 58003;
0178829860999992006040400004-09400-038217FM-12+0253SBUF V0200901N004612200019N0020001N1+02791+02181101101ADDGA1001+999999999GF100991001001999999001001KA1240M+03341MA1999999098281MD1999999-0061REMSYN082AAXX  04004 82986 32995 00909 10279 20218 39828 40110 333 10334 29068 55103 59006;
0156829860999992006040412004-09400-038217FM-12+0253SBUF V0200901N002610450019N0100001N1+02741+02361101231ADDGF106991041041008001031021KA1240N+02361MA1999999098401MD1999999-0041REMSYN076AAXX  04124 82986 32597 60905 10274 20236 39840 40123 84432 333 20236 59004;
0137829860999992006040418004-09400-038217FM-12+0253SBUF V0200901N002111050019N0200001N1+03301+02391100731ADDGF105991021021008001031021MA1999999097931MD1999999-0111REMSYN070AAXX  04184 82986 32598 50904 10330 20239 39793 40073 82232 333 59011;
0168829860999992006040500004-09400-038217FM-12+0253SBUF V0200901N003110450019N0020001N1+02581+02331101191ADDGF105991021041008001051001KA1240M+03361MA1999999098351MD1999999+0071REMSYN088AAXX  05004 82986 32595 50906 10258 20233 39835 40119 82450 333 10336 29078 55088 58007;
0175829860999992006040512004-09400-038217FM-12+0253SBUF V0200901N003110450019N0100001N1+02771+02321101251ADDGF106991031041008001031021KA1240N+99999MA1999999098421MD1999999+0021REMSYN076AAXX  05124 82986 32597 60906 10277 20232 39842 40125 83432 333 20293 58002;EQDQ01 +02932ATMN  
0137829860999992006040518004-09400-038217FM-12+0253SBUF V0200901N003110450019N0200001N1+03321+02001100761ADDGF105991041021008001031031MA1999999097961MD1999999+0031REMSYN070AAXX  05184 82986 32598 50906 10332 20200 39796 40076 84233 333 58003;
0168829860999992006040600004-09400-038217FM-12+0253SBUF V0200901N006710075019N0020001N1+02761+02191101111ADDGF106991061021008001001001KA1240M+03361MA1999999098291MD1999999-0061REMSYN088AAXX  06004 82986 32595 60913 10276 20219 39829 40111 86200 333 10336 29066 55085 59006;
0156829860999992006040612004-09400-038217FM-12+0253SBUF V0200901N005112200019N0100001N1+02831+02291101171ADDGF105991041021008001001011KA1240N+02341MA1999999098351MD1999999-0071REMSYN076AAXX  06124 82986 32597 50910 10283 20229 39835 40117 84201 333 20234 59007;
0137829860999992006040618004-09400-038217FM-12+0253SBUF V0200901N003110075019N0200001N1+03431+01941100691ADDGF106991061021008001001001MA1999999097901MD1999999-0061REMSYN070AAXX  06184 82986 32598 60906 10343 20194 39790 40069 86200 333 59006;
0178829860999992006040700004-09400-038217FM-12+0253SBUF V0201401N005712200019N0020001N1+02801+02151100961ADDGA1001+999999999GF100991001001999999001001KA1240M+03451MA1999999098151MD1999999-0141REMSYN082AAXX  07004 82986 32995 01411 10280 20215 39815 40096 333 10345 29063 55099 59014;
0156829860999992006040712004-09400-038217FM-12+0253SBUF V0200901N004610075019N0100001N1+02761+02321101111ADDGF106991061021008001001001KA1240N+02421MA1999999098291MD1999999-0061REMSYN076AAXX  07124 82986 32597 60909 10276 20232 39829 40111 86200 333 20242 59006;
0137829860999992006040718004-09400-038217FM-12+0253SBUF V0200901N004110450019N0200001N1+03351+02151100661ADDGF105991011051008001021001MA1999999097871MD1999999-0031REMSYN070AAXX  07184 82986 32598 50908 10335 20215 39787 40066 81520 333 59003;
0178829860999992006040800004-09400-038217FM-12+0253SBUF V0200901N005112200019N0020001N1+02821+02271101081ADDGA1001+999999999GF100991001001999999001001KA1240M+03441MA1999999098261MD1999999+0111REMSYN082AAXX  08004 82986 32995 00910 10282 20227 39826 40108 333 10344 29068 55101 58011;
0156829860999992006040812004-09400-038217FM-12+0253SBUF V0201401N003110075019N0100001N1+02821+02241101111ADDGF106991061021008001001001KA1240N+02401MA1999999098291MD1999999+0001REMSYN076AAXX  08124 82986 32597 61406 10282 20224 39829 40111 86200 333 20240 58000;
0137829860999992006040818004-09400-038217FM-12+0253SBUF V0200901N003612200019N0200001N1+03331+02141100611ADDGF104991041021008001001001MA1999999097811MD1999999-0061REMSYN070AAXX  08184 82986 32598 40907 10333 20214 39781 40061 84200 333 59006;
0178829860999992006040900004-09400-038217FM-12+0253SBUF V0200901N005112200019N0020001N1+02841+02221100971ADDGA1001+999999999GF100991001001999999001001KA1240M+03411MA1999999098161MD1999999-0101REMSYN082AAXX  09004 82986 32995 00910 10284 20222 39816 40097 333 10341 29065 55097 59010;
0156829860999992006040912004-09400-038217FM-12+0253SBUF V0200901N003110450019N0100001N1+02741+02261101141ADDGF106991041041008001031021KA1240N+02261MA1999999098321MD1999999+0031REMSYN076AAXX  09124 82986 32597 60906 10274 20226 39832 40114 84432 333 20226 58003;
0137829860999992006040918004-09400-038217FM-12+0253SBUF V0201801N002611050019N0200001N1+03391+02161100491ADDGF105991021011008001041041MA1999999097701MD1999999-0111REMSYN070AAXX  09184 82986 32598 51805 10339 20216 39770 40049 82144 333 59011;
0178829860999992006041000004-09400-038217FM-12+0253SBUF V0201801N001012200019N0020001N1+02851+02291100731ADDGA1001+999999999GF100991001001999999001001KA1240M+03451MA1999999097931MD1999999-0231REMSYN082AAXX  10004 82986 32995 01802 10285 20229 39793 40073 333 10345 29067 55107 59023;
0156829860999992006041012004-09400-038217FM-12+0253SBUF V0203601N001010450019N0100001N1+02681+02351101041ADDGF107991021021008001071999KA1240N+02361MA1999999098221MD1999999-0101REMSYN076AAXX  10124 82986 32597 73602 10268 20235 39822 40104 8227/ 333 20236 59010;
0182829860999992006041018004-09400-038217FM-12+0253SBUF V0200901N001510450019N0100001N1+03071+02431100511ADDAA106000591AY191061AY221061GF107991041021008001091999MA1999999097701MD1999999+0001MW1031REMSYN082AAXX  10184 82986 21597 70903 10307 20243 39770 40051 70392 8429/ 333 58000 69961;
0168829860999992006041100004-09400-038217FM-12+0253SBUF V0202701N000510450019N0020001N1+02621+02421100701ADDGF108991041081008001091999KA1240M+03281MA1999999098121MD1999999+0191REMSYN088AAXX  11004 82986 32595 82701 10262 20242 39812 40070 8489/ 333 10328 29082 55047 58019;
0173829860999992006041112004-09400-038217FM-12+0253SBUF V0200901N001010450019N0100001N1+02761+02401101031ADDAA124000591GF105991031021008001041001KA1240N+02361MA1999999098201MD1999999-0021REMSYN082AAXX  11124 82986 22597 50902 10276 20240 39820 40103 83240 333 20236 59002 69964;
0182829860999992006041118004-09400-038217FM-12+0253SBUF V0200901N001510450019N0100001N1+03241+02621100511ADDAA106000591AY161061AY221061GF106991021021008001071001MA1999999097711MD1999999+0011MW1031REMSYN082AAXX  11184 82986 21597 60903 10324 20262 39771 40051 70362 82270 333 58001 69941;
0168829860999992006041200004-09400-038217FM-12+0253SBUF V0201401N003110075019N0020001N1+02931+02121100891ADDGF106991061021008001001001KA1240M+03341MA1999999098091MD1999999-0031REMSYN088AAXX  12004 82986 32595 61406 10293 20212 39809 40089 86200 333 10334 29069 55053 59003;
0173829860999992006041212004-09400-038217FM-12+0253SBUF V0202701N001511050019N0100001N1+02771+02401101111ADDAA124000591GF106991021021008001001081KA1240N+02361MA1999999098301MD1999999+0101REMSYN082AAXX  12124 82986 22597 62703 10277 20240 39830 40111 82208 333 20236 58010 69944;
0137829860999992006041218004-09400-038217FM-12+0253SBUF V0203601N002111050019N0200001N1+03451+01881100551ADDGF106991031021008001001081MA1999999097801MD1999999+0091REMSYN070AAXX  12184 82986 32598 63604 10345 20188 39780 40055 83208 333 58009;
0213829860999992006041300004-09400-038217FM-12+0253SBUF V0203201N001010075019N0020001N1+02801+02421100951ADDAA106001091AY161061AY221061GF106991061051008001001001KA1240M+03471MA1999999098141MD1999999+0051MW1021REMSYN100AAXX  13004 82986 21595 63202 10280 20242 39814 40095 70262 86500 333 10347 29070 55077 58005 60011;
0173829860999992006041312004-09400-038217FM-12+0253SBUF V0203201N001011050019N0100001N1+02661+02271101091ADDAA124001091GF107991041021008001001061KA1240N+02341MA1999999098271MD1999999-0031REMSYN082AAXX  13124 82986 22597 73202 10266 20227 39827 40109 84206 333 20234 59003 60014;
0137829860999992006041318004-09400-038217FM-12+0253SBUF V0203201N003110450019N0200001N1+03471+02421100471ADDGF106991031021008001041061MA1999999097681MD1999999-0121REMSYN070AAXX  13184 82986 32598 63206 10347 20242 39768 40047 83246 333 59012;
0168829860999992006041400004-09400-038217FM-12+0253SBUF V0200901N000510450019N0020001N1+02731+02411100891ADDGF105991021071004501071001KA1240M+03521MA1999999098071MD1999999-0071REMSYN088AAXX  14004 82986 32495 50901 10273 20241 39807 40089 82770 333 10352 29075 55064 59007;
0156829860999992006041412004-09400-038217FM-12+0253SBUF V0200901N002110075019N0200001N1+02861+02111101011ADDGF105991051021008001001001KA1240N+02281MA1999999098201MD1999999-0071REMSYN076AAXX  14124 82986 32598 50904 10286 20211 39820 40101 85200 333 20228 59007;
0137829860999992006041418004-09400-038217FM-12+0253SBUF V0201401N005112200019N0200001N1+03471+02061100471ADDGF103991031021008001001001MA1999999097681MD1999999+0001REMSYN070AAXX  14184 82986 32598 31410 10347 20206 39768 40047 83200 333 58000;
0178829860999992006041500004-09400-038217FM-12+0253SBUF V0200901N006712200019N0020001N1+02881+02131100921ADDGA1001+999999999GF100991001001999999001001KA1240M+03501MA1999999098121MD1999999+0051REMSYN082AAXX  15004 82986 32995 00913 10288 20213 39812 40092 333 10350 29059 55108 58005;
0156829860999992006041512004-09400-038217FM-12+0253SBUF V0200901N005710450019N0100001N1+02801+02341101111ADDGF106991031021008001071001KA1240N+02361MA1999999098301MD1999999+0101REMSYN076AAXX  15124 82986 32597 60911 10280 20234 39830 40111 83270 333 20236 58010;
0137829860999992006041518004-09400-038217FM-12+0253SBUF V0200901N003112200019N0200001N1+03401+02271100601ADDGF104991031021008001001021MA1999999097811MD1999999+0131REMSYN070AAXX  15184 82986 32598 40906 10340 20227 39781 40060 83202 333 58013;
0168829860999992006041600004-09400-038217FM-12+0253SBUF V0200901N001512200019N0020001N1+02701+02221101181ADDGF103991031001012501041001KA1240M+03421MA1999999098351MD1999999+0231REMSYN088AAXX  16004 82986 32695 30903 10270 20222 39835 40118 83040 333 10342 29070 55103 58023;
0156829860999992006041612004-09400-038217FM-12+0253SBUF V0200901N003110075019N0100001N1+02781+02301101391ADDGF105991051041008001001001KA1240N+02301MA1999999098561MD1999999+0261REMSYN076AAXX  16124 82986 32597 50906 10278 20230 39856 40139 85400 333 20230 58026;
0137829860999992006041618004-09400-038217FM-12+0253SBUF V0201801N001512200019N0200001N1+03451+02111100951ADDGF104991041021008001001001MA1999999098151MD1999999+0341REMSYN070AAXX  16184 82986 32598 41803 10345 20211 39815 40095 84200 333 58034;
0168829860999992006041700004-09400-038217FM-12+0253SBUF V0200901N005110450019N0020001N1+02781+02321101281ADDGF106991031021008001031001KA1240M+03501MA1999999098461MD1999999+0111REMSYN088AAXX  17004 82986 32595 60910 10278 20232 39846 40128 83230 333 10350 29068 55104 58011;
0156829860999992006041712004-09400-038217FM-12+0253SBUF V0200901N004111050019N0100001N1+02741+02341101331ADDGF106991031021008001001071KA1240N+02331MA1999999098501MD1999999-0061REMSYN076AAXX  17124 82986 32597 60908 10274 20234 39850 40133 83207 333 20233 59006;
0168829860999992006041800004-09400-038217FM-12+0253SBUF V0200901N005112200019N0020001N1+02821+02151101081ADDGF104991001001999999001081KA1240M+03311MA1999999098261MD1999999-0201REMSYN088AAXX  18004 82986 32995 40910 10282 20215 39826 40108 80008 333 10331 29066 55047 59020;
0156829860999992006041812004-09400-038217FM-12+0253SBUF V0201801N001511050019N0100001N1+02661+02351101231ADDGF106991021021008001001081KA1240N+02321MA1999999098401MD1999999-0101REMSYN076AAXX  18124 82986 32597 61803 10266 20235 39840 40123 82208 333 20232 59010;
0137829860999992006041818004-09400-038217FM-12+0253SBUF V0203201N002110450019N0200001N1+03261+01981100771ADDGF108991031041004501081081MA1999999097961MD1999999-0081REMSYN070AAXX  18184 82986 32498 83204 10326 20198 39796 40077 83488 333 59008;
0178829860999992006041900004-09400-038217FM-12+0253SBUF V0203601N000512200019N0020001N1+02741+02281101061ADDGA1001+999999999GF100991001001999999001001KA1240M+03351MA1999999098231MD1999999-0031REMSYN082AAXX  19004 82986 32995 03601 10274 20228 39823 40106 333 10335 29070 55036 59003;
0156829860999992006041912004-09400-038217FM-12+0253SBUF V0203201N001011050019N0100001N1+02781+02321101301ADDGF106991041021008001001081KA1240N+02421MA1999999098471MD1999999+0071REMSYN076AAXX  19124 82986 32597 63202 10278 20232 39847 40130 84208 333 20242 58007;
0182829860999992006041918004-09400-038217FM-12+0253SBUF V0203201N001010450019N0200001N1+03431+02471100811ADDAA106000891AY121061AY221061GF107991031071008001071061MA1999999098011MD1999999+0051MW1631REMSYN082AAXX  19184 82986 21598 73202 10343 20247 39801 40081 76322 83776 333 58005 69981;
0213829860999992006042000004-09400-038217FM-12+0253SBUF V0201401N002112200019N0020001N1+02521+02381101231ADDAA106016091AY161061AY221061GF104991041071002501001001KA1240M+03481MA1999999098391MD1999999+0161MW1131REMSYN100AAXX  20004 82986 21395 41404 10252 20238 39839 40123 71362 84700 333 10348 29080 55077 58016 60161;
0201829860999992006042012004-09400-038217FM-12+0253SBUF V0201801N001010450019N0100001N1+02631+02311101311ADDAA124017091AY151061AY221061GF106991041021004501061061KA1240N+02381MA1999999098461MD1999999-0011MW1021REMSYN088AAXX  20124 82986 21497 61802 10263 20231 39846 40131 70252 84266 333 20238 59001 60174;
0168829860999992006042100004-09400-038217FM-12+0253SBUF V0200901N006712200019N0020001N1+02741+02401101231ADDGF104991041001012501021001KA1240M+03371MA1999999098401MD1999999+0011REMSYN088AAXX  21004 82986 32695 40913 10274 20240 39840 40123 84020 333 10337 29076 55064 58001;
0156829860999992006042112004-09400-038217FM-12+0253SBUF V0201401N001510450019N0100001N1+02721+02391101331ADDGF106991031021008001071001KA1240N+02421MA1999999098501MD1999999+0041REMSYN076AAXX  21124 82986 32597 61403 10272 20239 39850 40133 83270 333 20242 58004;
0165829860999992006042118004-09400-038217FM-12+0253SBUF V0202301N002610450019N0200001N1+03251+02391100901ADDAY121061AY221061GF106991031021008001031021MA1999999098101MD1999999+0111MW1151REMSYN076AAXX  21184 82986 31598 62305 10325 20239 39810 40090 71522 83232 333 58011;
0168829860999992006042200004-09400-038217FM-12+0253SBUF V0200901N001512200019N0020001N1+02521+02431101381ADDGF104991041001017501021001KA1240M+03291MA1999999098531MD1999999+0131REMSYN088AAXX  22004 82986 32795 40903 10252 20243 39853 40138 84020 333 10329 29083 55082 58013;
0156829860999992006042212004-09400-038217FM-12+0253SBUF V0201801N002610042019N0040001N1+02601+02421101421ADDGF108991081071004501999999KA1240N+02361MA1999999098581MD1999999+0081REMSYN076AAXX  22124 82986 32496 81805 10260 20242 39858 40142 887// 333 20236 58008;
0137829860999992006042218004-09400-038217FM-12+0253SBUF V0201801N001511050019N0200001N1+03041+02361100931ADDGF105991031041008001001021MA1999999098111MD1999999+0011REMSYN070AAXX  22184 82986 32598 51803 10304 20236 39811 40093 83402 333 58001;
0178829860999992006042300004-09400-038217FM-12+0253SBUF V0200901N004612200019N0020001N1+02681+02411101241ADDGA1001+999999999GF100991001001999999001001KA1240M+03141MA1999999098401MD1999999-0131REMSYN082AAXX  23004 82986 32995 00909 10268 20241 39840 40124 333 10314 29082 55062 59013;
0201829860999992006042312004-09400-038217FM-12+0253SBUF V0201401N001512200019N0100001N1+02711+02371101291ADDAA124000591AY161061AY221061GF105991041021008001001011KA1240N+02321MA1999999098461MD1999999-0121MW1021REMSYN088AAXX  23124 82986 21597 51403 10271 20237 39846 40129 70262 84201 333 20232 59012 69964;
0137829860999992006042318004-09400-038217FM-12+0253SBUF V0201401N005712200019N0200001N1+03351+01951100771ADDGF104991041021008001001001MA1999999097991MD1999999-0121REMSYN070AAXX  23184 82986 32598 41411 10335 20195 39799 40077 84200 333 59012;
0168829860999992006042400004-09400-038217FM-12+0253SBUF V0200901N003110075019N0020001N1+02701+02221101171ADDGF106991061051008001001001KA1240M+03371MA1999999098341MD1999999-0061REMSYN088AAXX  24004 82986 32595 60906 10270 20222 39834 40117 86500 333 10337 29069 55093 59006;
0156829860999992006042412004-09400-038217FM-12+0253SBUF V0200901N003110075019N0100001N1+02701+02391101251ADDGF106991061071008001001001KA1240N+02311MA1999999098421MD1999999-0041REMSYN076AAXX  24124 82986 32597 60906 10270 20239 39842 40125 86700 333 20231 59004;
0165829860999992006042418004-09400-038217FM-12+0253SBUF V0201401N004610450019N0100001N1+03111+01941100761ADDAY121061AY221061GF106991031021008001041061MA1999999097951MD1999999-0041MW1151REMSYN076AAXX  24184 82986 31597 61409 10311 20194 39795 40076 71522 83246 333 59004;
0178829860999992006042500004-09400-038217FM-12+0253SBUF V0200901N004112200019N0020001N1+02691+02161101151ADDGA1001+999999999GF100991001001999999001001KA1240M+03291MA1999999098321MD1999999-0021REMSYN082AAXX  25004 82986 32995 00908 10269 20216 39832 40115 333 10329 29070 55064 59002;
0220829860999992006042512004-09400-038217FM-12+0253SBUF V0200901N003110042019N0100001N1+02601+02101101221ADDAA124000091AY151061AY221061GF106991051021004501001041KA1240N+02251MA1999999098381MD1999999-0041MW1011REMSYN088AAXX  25124 82986 21497 60906 10260 20210 39838 40122 70152 85204 333 20225 59004 69914;EQDQ01  00002PRCP24
0182829860999992006042518004-09400-038217FM-12+0253SBUF V0200901N005110021019N0040001N1+02571+02271100941ADDAA106001091AY121061AY221061GF108991081071002501999999MA1999999098081MD1999999+0131MW1211REMSYN082AAXX  25184 82986 21396 80910 10257 20227 39808 40094 72122 887// 333 58013 60011;
0213829860999992006042600004-09400-038217FM-12+0253SBUF V0201401N002612200019N0020001N1+02281+02071101261ADDAA106003091AY161061AY221061GF104991041001012501021001KA1240M+02971MA1999999098401MD1999999+0081MW1011REMSYN100AAXX  26004 82986 21695 41405 10228 20207 39840 40126 70162 84020 333 10297 29084 55026 58008 60031;
0173829860999992006042612004-09400-038217FM-12+0253SBUF V0201401N002110075019N0100001N1+02581+02121101271ADDAA124004191GF107991051051008001001061KA1240N+02261MA1999999098411MD1999999+0031REMSYN082AAXX  26124 82986 22597 71404 10258 20212 39841 40127 85506 333 20226 58003 60044;
0137829860999992006042618004-09400-038217FM-12+0253SBUF V0201401N003110450019N0100001N1+03041+02201100891ADDGF108991031021008001031081MA1999999098061MD1999999-0021REMSYN070AAXX  26184 82986 32597 81406 10304 20220 39806 40089 83238 333 59002;
0168829860999992006042700004-09400-038217FM-12+0253SBUF V0201401N002612200019N0020001N1+02401+02131101191ADDGF104991041001012501021001KA1240M+03091MA1999999098541MD1999999-0061REMSYN088AAXX  27004 82986 32695 41405 10240 20213 39854 40119 84020 333 10309 29077 55042 59006;
0201829860999992006042712004-09400-038217FM-12+0253SBUF V0200901N004110450019N0040001N1+02701+02151101221ADDAA124000591AY151061AY211061GF107991031071004501071999KA1240N+02301MA1999999098371MD1999999-0041MW1031REMSYN088AAXX  27124 82986 21496 70908 10270 20215 39837 40122 70351 8377/ 333 20230 59004 69944;
0137829860999992006042718004-09400-038217FM-12+0253SBUF V0201801N003110450019N0200001N1+03101+02411100751ADDGF105991031021008001041001MA1999999097931MD1999999-0131REMSYN070AAXX  27184 82986 32598 51806 10310 20241 39793 40075 83240 333 59013;
0213829860999992006042800004-09400-038217FM-12+0253SBUF V0200901N003119999999N0020001N1+02501+02401101201ADDAA106000021AY121061AY221061GF106991061001012501071001KA1240M+03181MA1999999098361MD1999999-0201MW1201REMSYN100AAXX  28004 82986 21695 60906 10250 20240 39836 40120 72022 86070 333 10318 29082 55060 59020 69901;
0173829860999992006042812004-09400-038217FM-12+0253SBUF V0200901N002110450019N0100001N1+02741+02191101261ADDAA124000021GF106991021021008001071011KA1240N+02381MA1999999098421MD1999999+0051REMSYN082AAXX  28124 82986 22597 60904 10274 20219 39842 40126 82271 333 20238 58005 69904;
0137829860999992006042818004-09400-038217FM-12+0253SBUF V0201801N003111050019N0200001N1+03271+02381100701ADDGF105991031021008001001021MA1999999097901MD1999999-0031REMSYN070AAXX  28184 82986 32598 51806 10327 20238 39790 40070 83202 333 59003;
0168829860999992006042900004-09400-038217FM-12+0253SBUF V0200901N003112200019N0020001N1+02611+02311101131ADDGF104991041001012501061001KA1240M+03301MA1999999098301MD1999999-0061REMSYN088AAXX  29004 82986 32695 40906 10261 20231 39830 40113 84060 333 10330 29075 55095 59006;
0220829860999992006042912004-09400-038217FM-12+0253SBUF V0200901N003110042019N0040001N1+02631+02391101241ADDAA124000091AY151061AY221061GF106991061071004501001001KA1240N+02381MA1999999098401MD1999999-0021MW1151REMSYN088AAXX  29124 82986 21496 60906 10263 20239 39840 40124 71552 86700 333 20238 59002 69904;EQDQ01  00002PRCP24
0182829860999992006042918004-09400-038217FM-12+0253SBUF V0200901N005110090019N0040001N1+02601+02391100941ADDAA106002091AY161061AY221061GF107991061081004501051001MA1999999098101MD1999999+0201MW1621REMSYN082AAXX  29184 82986 21496 70910 10260 20239 39810 40094 76262 86850 333 58020 60021;
0213829860999992006043000004-09400-038217FM-12+0253SBUF V0201401N004110090019N0020001N1+02361+02311101261ADDAA106000021AY151061AY221061GF106991061081004501001001KA1240M+03111MA1999999098401MD1999999+0101MW1021REMSYN100AAXX  30004 82986 21495 61408 10236 20231 39840 40126 70252 86800 333 10311 29092 55049 58010 69901;
0201829860999992006043012004-09400-038217FM-12+0253SBUF V0200901N002610060019N0020001N1+02461+02361101341ADDAA124003091AY161061AY221061GF108991081081002501999999KA1240N+02221MA1999999098471MD1999999+0071MW1151REMSYN088AAXX  30124 82986 21395 80905 10246 20236 39847 40134 71562 888// 333 20222 58007 60034;
0182829860999992006043018004-09400-038217FM-12+0253SBUF V0201401N004610060019N0100001N1+02701+02351101001ADDAA106001091AY161061AY261061GF107991051081002501071999MA1999999098151MD1999999+0051MW1151REMSYN082AAXX  30184 82986 21397 71409 10270 20235 39815 40100 71566 8587/ 333 58005 60011;
0213829860999992006050100004-09400-038217FM-12+0253SBUF V0200901N002110060019N0020001N1+02281+02261101391ADDAA106004191AY161061AY261061GF108991081081002501999999KA1240M+02811MA1999999098511MD1999999+0111MW1021REMSYN100AAXX  01004 82986 21395 80904 10228 20226 39851 40139 70266 888// 333 10281 29093 55000 58011 60041;
0201829860999992006050112004-09400-038217FM-12+0253SBUF V0201401N002110021019N0040001N1+02421+02281101501ADDAA124005191AY151061AY221061GF108991081071002501999999KA1240N+02161MA1999999098621MD1999999+0151MW1151REMSYN088AAXX  01124 82986 21396 81404 10242 20228 39862 40150 71552 887// 333 20216 58015 60054;
0137829860999992006050118004-09400-038217FM-12+0253SBUF V0202301N001512200019N0200001N1+03061+02191101041ADDGF104991021021008001041021MA1999999098211MD1999999+0061REMSYN070AAXX  01184 82986 32598 42303 10306 20219 39821 40104 82242 333 58006;
0213829860999992006050200004-09400-038217FM-12+0253SBUF V0200901N002110450019N0020001N1+02461+02281101391ADDAA106000021AY111061AY201061GF106991031071002501021001KA1240M+03131MA1999999098531MD1999999+0021MW1201REMSYN100AAXX  02004 82986 21395 60904 10246 20228 39853 40139 72010 83720 333 10313 29083 55063 58002 69901;
0173829860999992006050212004-09400-038217FM-12+0253SBUF V0200901N003110042019N0100001N1+02471+02251101511ADDAA124000021GF106991061071004501001001KA1240N+02311MA1999999098641MD1999999+0021REMSYN082AAXX  02124 82986 22497 60906 10247 20225 39864 40151 86700 333 20231 58002 69904;
0137829860999992006050218004-09400-038217FM-12+0253SBUF V0200901N003112200019N0200001N1+02941+02291101091ADDGF104991021021008001061041MA1999999098261MD1999999+0051REMSYN070AAXX  02184 82986 32598 40906 10294 20229 39826 40109 82264 333 58005;
0168829860999992006050300004-09400-038217FM-12+0253SBUF V0200901N005112200019N0020001N1+02581+02351101351ADDGF104991041001017501071001KA1240M+03111MA1999999098491MD1999999-0041REMSYN088AAXX  03004 82986 32795 40910 10258 20235 39849 40135 84070 333 10311 29082 55079 59004;
0156829860999992006050312004-09400-038217FM-12+0253SBUF V0200901N003610450019N0100001N1+02641+02331101401ADDGF107991031021008001071021KA1240N+02381MA1999999098551MD1999999-0091REMSYN076AAXX  03124 82986 32597 70907 10264 20233 39855 40140 83272 333 20238 59009;
0137829860999992006050318004-09400-038217FM-12+0253SBUF V0200901N002111050019N0200001N1+03161+02141100881ADDGF105991021021008001061011MA1999999098071MD1999999-0191REMSYN070AAXX  03184 82986 32598 50904 10316 20214 39807 40088 82261 333 59019;
0178829860999992006050400004-09400-038217FM-12+0253SBUF V0200901N005112200019N0020001N1+02711+02281101141ADDGA1001+999999999GF100991001001999999001001KA1240M+03241MA1999999098311MD1999999-0181REMSYN082AAXX  04004 82986 32995 00910 10271 20228 39831 40114 333 10324 29074 55099 59018;
0156829860999992006050412004-09400-038217FM-12+0253SBUF V0200901N004612200019N0200001N1+02701+02241101231ADDGF104991041041008001001001KA1240N+02281MA1999999098401MD1999999-0151REMSYN076AAXX  04124 82986 32598 40909 10270 20224 39840 40123 84400 333 20228 59015;
0137829860999992006050418004-09400-038217FM-12+0253SBUF V0201401N003111050019N0200001N1+03171+02171100911ADDGF106991031021008001001081MA1999999098091MD1999999+0021REMSYN070AAXX  04184 82986 32598 61406 10317 20217 39809 40091 83208 333 58002;
0178829860999992006050500004-09400-038217FM-12+0253SBUF V0200901N002112200019N0020001N1+02671+02271101151ADDGA1001+999999999GF100991001001999999001001KA1240M+03241MA1999999098321MD1999999+0011REMSYN082AAXX  05004 82986 32995 00904 10267 20227 39832 40115 333 10324 29072 55090 58001;
0156829860999992006050512004-09400-038217FM-12+0253SBUF V0200901N003611050019N0100001N1+02641+02311101271ADDGF106991021021008001061041KA1240N+02361MA1999999098431MD1999999+0031REMSYN076AAXX  05124 82986 32597 60907 10264 20231 39843 40127 82264 333 20236 58003;
0137829860999992006050518004-09400-038217FM-12+0253SBUF V0200901N002611050019N0200001N1+03161+01921100871ADDGF106991031021008001001081MA1999999098061MD1999999-0031REMSYN070AAXX  05184 82986 32598 60905 10316 20192 39806 40087 83208 333 59003;
0178829860999992006050600004-09400-038217FM-12+0253SBUF V0200901N004112200019N0020001N1+02711+02131101191ADDGA1001+999999999GF100991001001999999001001KA1240M+03261MA1999999098361MD1999999+0041REMSYN082AAXX  06004 82986 32995 00908 10271 20213 39836 40119 333 10326 29068 55077 58004;
0156829860999992006050612004-09400-038217FM-12+0253SBUF V0200901N003110450019N0100001N1+02641+02251101371ADDGF106991031021008001021001KA1240N+02301MA1999999098541MD1999999+0111REMSYN076AAXX  06124 82986 32597 60906 10264 20225 39854 40137 83220 333 20230 58011;
0137829860999992006050618004-09400-038217FM-12+0253SBUF V0200901N004111050019N0200001N1+03081+01921100921ADDGF106991031041008001001081MA1999999098101MD1999999+0041REMSYN070AAXX  06184 82986 32598 60908 10308 20192 39810 40092 83408 333 58004;
0168829860999992006050700004-09400-038217FM-12+0253SBUF V0200901N003112200019N0020001N1+02631+02181101251ADDGF102991021001017501051001KA1240M+03181MA1999999098411MD1999999+0051REMSYN088AAXX  07004 82986 32795 20906 10263 20218 39841 40125 82050 333 10318 29071 55069 58005;
0156829860999992006050712004-09400-038217FM-12+0253SBUF V0201401N005110450019N0100001N1+02691+02111101391ADDGF106991041021004501041001KA1240N+02281MA1999999098551MD1999999+0011REMSYN076AAXX  07124 82986 32497 61410 10269 20211 39855 40139 84240 333 20228 58001;
0137829860999992006050718004-09400-038217FM-12+0253SBUF V0201401N006710450019N0200001N1+03261+02211100921ADDGF106991031021008001071011MA1999999098111MD1999999+0011REMSYN070AAXX  07184 82986 32598 61413 10326 20221 39811 40092 83271 333 58001;
0178829860999992006050800004-09400-038217FM-12+0253SBUF V0200901N003612200019N0020001N1+02571+02071101361ADDGA1001+999999999GF100991001001999999001001KA1240M+03331MA1999999098511MD1999999+0101REMSYN082AAXX  08004 82986 32995 00907 10257 20207 39851 40136 333 10333 29070 55096 58010;
0156829860999992006050812004-09400-038217FM-12+0253SBUF V0201401N004610075019N0100001N1+02761+02041101391ADDGF106991051021008001001021KA1240N+02251MA1999999098551MD1999999+0001REMSYN076AAXX  08124 82986 32597 61409 10276 20204 39855 40139 85202 333 20225 58000;
0137829860999992006050818004-09400-038217FM-12+0253SBUF V0201401N003612200019N0100001N1+03031+02131100931ADDGF106991041021008001001061MA1999999098101MD1999999-0011REMSYN070AAXX  08184 82986 32597 61407 10303 20213 39810 40093 84206 333 59001;
0168829860999992006050900004-09400-038217FM-12+0253SBUF V0200901N003112200019N0020001N1+02541+02151101331ADDGF103991031001012501051001KA1240M+03091MA1999999098491MD1999999-0021REMSYN088AAXX  09004 82986 32695 30906 10254 20215 39849 40133 83050 333 10309 29070 55058 59002;
0201829860999992006050912004-09400-038217FM-12+0253SBUF V0201401N003110042019N0040001N1+02461+02191101431ADDAA124000591AY161061AY221061GF108991081071004501999999KA1240N+02221MA1999999098571MD1999999+0021MW1031REMSYN088AAXX  09124 82986 21496 81406 10246 20219 39857 40143 70362 887// 333 20222 58002 69954;
0137829860999992006050918004-09400-038217FM-12+0253SBUF V0201801N003110450019N0100001N1+02931+02271101001ADDGF106991031041008001051001MA1999999098161MD1999999+0061REMSYN070AAXX  09184 82986 32597 61806 10293 20227 39816 40100 83450 333 58006;
0178829860999992006051000004-09400-038217FM-12+0253SBUF V0200901N005112200019N0020001N1+02601+02191101251ADDGA1001+999999999GF100991001001999999001001KA1240M+03001MA1999999098401MD1999999-0091REMSYN082AAXX  10004 82986 32995 00910 10260 20219 39840 40125 333 10300 29077 55021 59009;
0156829860999992006051012004-09400-038217FM-12+0253SBUF V0200901N005110075019N0100001N1+02721+02151101431ADDGF106991061021008001071001KA1240N+02281MA1999999098591MD1999999+0021REMSYN076AAXX  10124 82986 32597 60910 10272 20215 39859 40143 86270 333 20228 58002;
0137829860999992006051018004-09400-038217FM-12+0253SBUF V0201401N003610075019N0200001N1+03211+02091100931ADDGF105991051041008001001001MA1999999098111MD1999999-0061REMSYN070AAXX  10184 82986 32598 51407 10321 20209 39811 40093 85400 333 59006;
0168829860999992006051100004-09400-038217FM-12+0253SBUF V0200901N003112200019N0020001N1+02531+02111101311ADDGF103991011021008001051001KA1240M+03281MA1999999098461MD1999999+0061REMSYN088AAXX  11004 82986 32595 30906 10253 20211 39846 40131 81250 333 10328 29070 55101 58006;
0156829860999992006051112004-09400-038217FM-12+0253SBUF V0200901N003110075019N0100001N1+02631+02231101371ADDGF106991061021008001001001KA1240N+02121MA1999999098521MD1999999-0071REMSYN076AAXX  11124 82986 32597 60906 10263 20223 39852 40137 86200 333 20212 59007;
0137829860999992006051118004-09400-038217FM-12+0253SBUF V0200901N003110075019N0200001N1+03201+02091100851ADDGF106991061021008001001001MA1999999098031MD1999999-0081REMSYN070AAXX  11184 82986 32598 60906 10320 20209 39803 40085 86200 333 59008;
0178829860999992006051200004-09400-038217FM-12+0253SBUF V0200901N003112200019N0020001N1+02641+02001101141ADDGA1001+999999999GF100991001001999999001001KA1240M+03261MA1999999098311MD1999999-0151REMSYN082AAXX  12004 82986 32995 00906 10264 20200 39831 40114 333 10326 29067 55099 59015;
0137829860999992006051218004-09400-038217FM-12+0253SBUF V0203201N001512200019N0200001N1+03411+01771100841ADDGF104991031021008001001041MA1999999098031MD1999999+0001REMSYN070AAXX  12184 82986 32598 43203 10341 20177 39803 40084 83204 333 58000;
0168829860999992006051300004-09400-038217FM-12+0253SBUF V0200901N004112200019N0020001N1+02821+02101101231ADDGF102991001001999999001041KA1240M+03421MA1999999098401MD1999999+0091REMSYN088AAXX  13004 82986 32995 20908 10282 20210 39840 40123 80004 333 10342 29061 55102 58009;
0156829860999992006051312004-09400-038217FM-12+0253SBUF V0201401N002110075019N0100001N1+02621+02351101631ADDGF108991081051008001999999KA1240N+02381MA1999999098691MD1999999+0171REMSYN076AAXX  13124 82986 32597 81404 10262 20235 39869 40163 885// 333 20238 58017;
0137829860999992006051318004-09400-038217FM-12+0253SBUF V0201801N004111050019N0200001N1+03351+02311101071ADDGF106991021021008001031041MA1999999098271MD1999999+0241REMSYN070AAXX  13184 82986 32598 61808 10335 20231 39827 40107 82234 333 58024;
0178829860999992006051400004-09400-038217FM-12+0253SBUF V0200901N006712200019N0020001N1+02461+02341101501ADDGA1001+999999999GF100991001001999999001001KA1240M+03411MA1999999098661MD1999999+0261REMSYN082AAXX  14004 82986 32995 00913 10246 20234 39866 40150 333 10341 29074 55044 58026;
0226829860999992006051412004-09400-038217FM-12+0253SBUF V0201401N004110450019N0100001N1+02221+99999101671ADDAA124004091AY161061AY221061GF106991031081004501031001KA1240N+99999MA1999999098831MD1999999+0141MW1011REMSYN094AAXX  14124 82986 21497 61408 10222 20227 39883 40167 70162 83830 333 20236 58014 60044 10037;EQDQ01 +02362ATMN  
0137829860999992006051418004-09400-038217FM-12+0253SBUF V0200901N002110450019N0200001N1+03181+02041101231ADDGF106991021021008001031011MA1999999098411MD1999999+0141REMSYN070AAXX  14184 82986 32598 60904 10318 20204 39841 40123 82231 333 58014;
0168829860999992006051500004-09400-038217FM-12+0253SBUF V0201401N005710150019N0020001N1+02641+02201101551ADDGF106991061001017501051001KA1240M+03291MA1999999098701MD1999999+0041REMSYN088AAXX  15004 82986 32795 61411 10264 20220 39870 40155 86050 333 10329 29071 55066 58004;
0156829860999992006051512004-09400-038217FM-12+0253SBUF V0201401N005110450019N0040001N1+02661+02331101701ADDGF106991041071004501051001KA1240N+02361MA1999999098851MD1999999+0021REMSYN076AAXX  15124 82986 32496 61410 10266 20233 39885 40170 84750 333 20236 58002;
0182829860999992006051518004-09400-038217FM-12+0253SBUF V0200901N003110450019N0100001N1+02651+02461101311ADDAA106002091AY161061AY221061GF106991031041004501051001MA1999999098451MD1999999+0041MW1151REMSYN082AAXX  15184 82986 21497 60906 10265 20246 39845 40131 71562 83450 333 58004 60021;
0213829860999992006051600004-09400-038217FM-12+0253SBUF V0200901N001019999999N0020001N1+02241+02241101641ADDAA106005191AY161061AY221061GF106991061001012501051001KA1240M+02801MA1999999098751MD1999999+0051MW1021REMSYN100AAXX  16004 82986 21695 60902 10224 20224 39875 40164 70262 86050 333 10280 29093 55022 58005 60051;
0201829860999992006051612004-09400-038217FM-12+0253SBUF V0201401N003610042019N0040001N1+02411+02261101621ADDAA124006191AY161061AY221061GF108991081071004501999999KA1240N+02181MA1999999098731MD1999999-0121MW1101REMSYN088AAXX  16124 82986 21496 81407 10241 20226 39873 40162 71062 887// 333 20218 59012 60064;
0201829860999992006051618004-09400-038217FM-12+0253SBUF V0201401N002610090019N0100001N1+02431+02331101361ADDAA106000091AY161061AY251061GF108991081081004501999999MA1999999098481MD1999999+0031MW1151REMSYN082AAXX  16184 82986 21497 81405 10243 20233 39848 40136 71565 888// 333 58003 69921;EQDQ01  00002PRCP06
0213829860999992006051700004-09400-038217FM-12+0253SBUF V0200901N002110090019N0020001N1+02201+02201101661ADDAA106000591AY161061AY251061GF108991081081004501999999KA1240M+02681MA1999999098761MD1999999+0011MW1201REMSYN100AAXX  17004 82986 21495 80904 10220 20220 39876 40166 72065 888// 333 10268 29097 55006 58001 69941;
0201829860999992006051712004-09400-038217FM-12+0253SBUF V0201401N005110450019N0100001N1+02481+02191101731ADDAA124000591AY151061AY221061GF106991031071004501071999KA1240N+02171MA1999999098851MD1999999+0121MW1201REMSYN088AAXX  17124 82986 21497 61410 10248 20219 39885 40173 72052 8377/ 333 20217 58012 69964;
0182829860999992006051718004-09400-038217FM-12+0253SBUF V0201801N005710450019N0100001N1+02601+02121101471ADDAA106000021AY161061AY251061GF108991041081004501071999MA1999999098601MD1999999+0121MW1031REMSYN082AAXX  17184 82986 21497 81811 10260 20212 39860 40147 70365 8487/ 333 58012 69921;
0213829860999992006051800004-09400-038217FM-12+0253SBUF V0200901N002110042019N0020001N1+02141+02071101761ADDAA106000591AY161061AY251061GF108991081071004501999999KA1240M+02701MA1999999098871MD1999999+0141MW1021REMSYN100AAXX  18004 82986 21495 80904 10214 20207 39887 40176 70265 887// 333 10270 29088 55015 58014 69951;
0173829860999992006051812004-09400-038217FM-12+0253SBUF V0201801N002610450019N0100001N1+02361+01131101851ADDAA124000891GF106991041071004501071999KA1240N+02101MA1999999098951MD1999999+0101REMSYN082AAXX  18124 82986 22497 61805 10236 20113 39895 40185 8477/ 333 20210 58010 69974;
0182829860999992006051818004-09400-038217FM-12+0253SBUF V0201801N003110042019N0100001N1+02261+02171101491ADDAA106000591AY121061AY221061GF108991051071004501071999MA1999999098611MD1999999+0011MW1211REMSYN082AAXX  18184 82986 21497 81806 10226 20217 39861 40149 72122 8577/ 333 58001 69941;
0213829860999992006051900004-09400-038217FM-12+0253SBUF V0200901N002610042019N0020001N1+02201+02011101731ADDAA106000021AY121061AY221061GF108991081071004501999999KA1240M+02771MA1999999098841MD1999999-0031MW1201REMSYN100AAXX  19004 82986 21495 80905 10220 20201 39884 40173 72022 887// 333 10277 29088 55023 59003 69901;
0201829860999992006051912004-09400-038217FM-12+0253SBUF V0201401N004110060019N0100001N1+02391+02011101721ADDAA124000891AY161061AY221061GF107991051081002501071001KA1240N+02101MA1999999098831MD1999999-0121MW1021REMSYN088AAXX  19124 82986 21397 71408 10239 20201 39883 40172 70262 85870 333 20210 59012 69974;
0137829860999992006051918004-09400-038217FM-12+0253SBUF V0200901N005110450019N0100001N1+02561+01971101401ADDGF108991041071002501071999MA1999999098521MD1999999-0091REMSYN070AAXX  19184 82986 32397 80910 10256 20197 39852 40140 8477/ 333 59009;
0156829860999992006052012004-09400-038217FM-12+0253SBUF V0201401N003610042019N0100001N1+02481+01851101571ADDGF106991061071004501001001KA1240N+02001MA1999999098691MD1999999-0141REMSYN076AAXX  20124 82986 32497 61407 10248 20185 39869 40157 86700 333 20200 59014;
0137829860999992006052018004-09400-038217FM-12+0253SBUF V0200901N003110450019N0200001N1+02761+02021101171ADDGF107991031041008001071999MA1999999098311MD1999999-0211REMSYN070AAXX  20184 82986 32598 70906 10276 20202 39831 40117 8347/ 333 59021;
0178829860999992006052100004-09400-038217FM-12+0253SBUF V0201401N004112200019N0020001N1+02381+02051101451ADDGA1001+999999999GF100991001001999999001001KA1240M+02811MA1999999098581MD1999999-0161REMSYN082AAXX  21004 82986 32995 01408 10238 20205 39858 40145 333 10281 29074 55044 59016;
0156829860999992006052112004-09400-038217FM-12+0253SBUF V0200901N003110075019N0100001N1+02431+01991101541ADDGF106991051041008001001021KA1240N+01921MA1999999098661MD1999999-0031REMSYN076AAXX  21124 82986 32597 60906 10243 20199 39866 40154 85402 333 20192 59003;
0137829860999992006052118004-09400-038217FM-12+0253SBUF V0200901N005110450019N0200001N1+03041+01881101151ADDGF105991031021008001031001MA1999999098301MD1999999-0011REMSYN070AAXX  21184 82986 32598 50910 10304 20188 39830 40115 83230 333 59001;
0178829860999992006052200004-09400-038217FM-12+0253SBUF V0200901N003612200019N0020001N1+02461+02011101421ADDGA1001+999999999GF100991001001999999001001KA1240M+03121MA1999999098551MD1999999-0031REMSYN082AAXX  22004 82986 32995 00907 10246 20201 39855 40142 333 10312 29068 55094 59003;
0156829860999992006052212004-09400-038217FM-12+0253SBUF V0201401N004110075019N0100001N1+02501+02031101691ADDGF106991061021008001001001KA1240N+01941MA1999999098821MD1999999+0161REMSYN076AAXX  22124 82986 32597 61408 10250 20203 39882 40169 86200 333 20194 58016;
0137829860999992006052218004-09400-038217FM-12+0253SBUF V0200901N004112200019N0200001N1+03071+01731101271ADDGF104991011001008001041051MA1999999098411MD1999999+0111REMSYN070AAXX  22184 82986 32598 40908 10307 20173 39841 40127 81045 333 58011;
0168829860999992006052300004-09400-038217FM-12+0253SBUF V0200901N006712200019N0020001N1+02651+01661101541ADDGF103991031001017501021001KA1240M+03091MA1999999098691MD1999999+0141REMSYN088AAXX  23004 82986 32795 30913 10265 20166 39869 40154 83020 333 10309 29058 55099 58014;
0201829860999992006052312004-09400-038217FM-12+0253SBUF V0201801N003110042019N0040001N1+02361+02071101691ADDAA124000021AY121061AY221061GF106991061071004501001001KA1240N+02201MA1999999098821MD1999999+0001MW1201REMSYN088AAXX  23124 82986 21496 61806 10236 20207 39882 40169 72022 86700 333 20220 58000 69904;
0137829860999992006052318004-09400-038217FM-12+0253SBUF V0201401N003110075019N0200001N1+03161+01921101191ADDGF105991051021008001001001MA1999999098361MD1999999-0051REMSYN070AAXX  23184 82986 32598 51406 10316 20192 39836 40119 85200 333 59005;
0168829860999992006052400004-09400-038217FM-12+0253SBUF V0201401N004610075019N0020001N1+02661+02161101621ADDGF106991061051008001001001KA1240M+03201MA1999999098751MD1999999+0061REMSYN088AAXX  24004 82986 32595 61409 10266 20216 39875 40162 86500 333 10320 29070 55072 58006;
0137829860999992006052418004-09400-038217FM-12+0253SBUF V0200901N003111050019N0200001N1+03211+01821101071ADDGF106991041041008001001021MA1999999098251MD1999999-0111REMSYN070AAXX  24184 82986 32598 60906 10321 20182 39825 40107 84402 333 59011;
0168829860999992006052500004-09400-038217FM-12+0253SBUF V0201401N005110075019N0020001N1+02591+01941101501ADDGF105991051021008001001001KA1240M+03231MA1999999098651MD1999999-0101REMSYN088AAXX  25004 82986 32595 51410 10259 20194 39865 40150 85200 333 10323 29068 55071 59010;
0182829860999992006052518004-09400-038217FM-12+0253SBUF V0201801N003110060019N0040001N1+02301+02201101391ADDAA106009991AY161061AY221061GF108991081081002501999999MA1999999098511MD1999999+0261MW1611REMSYN082AAXX  25184 82986 21396 81806 10230 20220 39851 40139 76162 888// 333 58026 60101;
0213829860999992006052600004-09400-038217FM-12+0253SBUF V0200901N001512200019N0020001N1+02251+02171101571ADDAA106002091AY161061AY201061GF104991041001017501021001KA1240M+02771MA1999999098681MD1999999+0031MW1011REMSYN100AAXX  26004 82986 21795 40903 10225 20217 39868 40157 70160 84020 333 10277 29096 55003 58003 60021;
0201829860999992006052612004-09400-038217FM-12+0253SBUF V0201801N003110042019N0040001N1+02521+02091101551ADDAA124010991AY121061AY221061GF106991061051004501001001KA1240N+02201MA1999999098671MD1999999-0171MW1101REMSYN088AAXX  26124 82986 21496 61806 10252 20209 39867 40155 71022 86500 333 20220 59017 60114;
0137829860999992006052618004-09400-038217FM-12+0253SBUF V0201801N003110450019N0200001N1+02921+02171101221ADDGF106991021021008001071001MA1999999098381MD1999999-0131REMSYN070AAXX  26184 82986 32598 61806 10292 20217 39838 40122 82270 333 59013;
0168829860999992006052700004-09400-038217FM-12+0253SBUF V0200901N003112200019N0020001N1+02501+02231101491ADDGF104991041001008001051001KA1240M+02991MA1999999098631MD1999999-0051REMSYN088AAXX  27004 82986 32595 40906 10250 20223 39863 40149 84050 333 10299 29078 55065 59005;
0184829860999992006052712004-09400-038217FM-12+0253SBUF V0201801N002610042019N0040001N1+02461+02211101551ADDAY121061AY211061GF108991081071004501999999KA1240N+02221MA1999999098691MD1999999+0021MW1151REMSYN082AAXX  27124 82986 31496 81805 10246 20221 39869 40155 71521 887// 333 20222 58002;
0201829860999992006052718004-09400-038217FM-12+0253SBUF V0200901N003111050019N0100001N1+02841+02191101201ADDAA106000091AY151061AY221061GF106991021021008001001081MA1999999098351MD1999999-0031MW1021REMSYN082AAXX  27184 82986 21597 60906 10284 20219 39835 40120 70252 82208 333 59003 69901;EQDQ01  00002PRCP06
0213829860999992006052800004-09400-038217FM-12+0253SBUF V0200901N003119999999N0020001N1+02461+02271101491ADDAA106000021AY121061AY221061GF105991051001012501071001KA1240M+02861MA1999999098621MD1999999-0011MW1201REMSYN100AAXX  28004 82986 21695 50906 10246 20227 39862 40149 72022 85070 333 10286 29083 55042 59001 69901;
0173829860999992006052812004-09400-038217FM-12+0253SBUF V0201401N002110450019N0100001N1+02561+02291101541ADDAA124000021GF107991021021008001071001KA1240N+02261MA1999999098681MD1999999-0011REMSYN082AAXX  28124 82986 22597 71404 10256 20229 39868 40154 82270 333 20226 59001 69904;
0182829860999992006052818004-09400-038217FM-12+0253SBUF V0200901N003112200019N0200001N1+02971+02151101131ADDAA106000391AY161061AY221061GF106991031021008001001061MA1999999098301MD1999999-0051MW1021REMSYN082AAXX  28184 82986 21598 60906 10297 20215 39830 40113 70262 83206 333 59005 69931;
0178829860999992006052900004-09400-038217FM-12+0253SBUF V0201401N001512200019N0020001N1+02581+02291101401ADDGA1001+999999999GF100991001001999999001001KA1240M+03001MA1999999098551MD1999999-0071REMSYN082AAXX  29004 82986 32995 01403 10258 20229 39855 40140 333 10300 29079 55058 59007;
0201829860999992006052912004-09400-038217FM-12+0253SBUF V0200901N002110060019N0020001N1+02351+02241101621ADDAA124002091AY121061AY221061GF108991081081002501999999KA1240N+02291MA1999999098751MD1999999+0061MW1611REMSYN088AAXX  29124 82986 21395 80904 10235 20224 39875 40162 76122 888// 333 20229 58006 60024;
0182829860999992006052918004-09400-038217FM-12+0253SBUF V0200901N002110060019N0040001N1+02561+02211101281ADDAA106002091AY161061AY221061GF108991051081002501091999MA1999999098421MD1999999+0121MW1151REMSYN082AAXX  29184 82986 21396 80904 10256 20221 39842 40128 71562 8589/ 333 58012 60021;
0232829860999992006053000004-09400-038217FM-12+0253SBUF V0201401N002112200019N0020001N1+02311+02251101591ADDAA106000091AY151061AY221061GF104991041051008001001001KA1240M+02781MA1999999098711MD1999999+0161MW1021REMSYN100AAXX  30004 82986 21595 41404 10231 20225 39871 40159 70252 84500 333 10278 29092 55000 58016 69901;EQDQ01  00002PRCP06
0201829860999992006053012004-09400-038217FM-12+0253SBUF V0201401N005110042019N0040001N1+02391+02011101581ADDAA124002091AY151061AY221061GF106991051071004501001011KA1240N+02181MA1999999098701MD1999999-0051MW1031REMSYN088AAXX  30124 82986 21496 61410 10239 20201 39870 40158 70352 85701 333 20218 59005 60024;
0137829860999992006053018004-09400-038217FM-12+0253SBUF V0200901N007210450019N0200001N1+02871+01871101231ADDGF106991031081008001081011MA1999999098381MD1999999-0041REMSYN070AAXX  30184 82986 32598 60914 10287 20187 39838 40123 83881 333 59004;
0168829860999992006053100004-09400-038217FM-12+0253SBUF V0201401N002610450019N0020001N1+02341+01911101611ADDGF107991041051008001031999KA1240M+02911MA1999999098731MD1999999+0021REMSYN088AAXX  31004 82986 32595 71405 10234 20191 39873 40161 8453/ 333 10291 29072 55061 58002;
0156829860999992006053112004-09400-038217FM-12+0253SBUF V0201401N005712200019N0100001N1+02491+01701101671ADDGF106991041021008001001061KA1240N+01901MA1999999098791MD1999999+0091REMSYN076AAXX  31124 82986 32597 61411 10249 20170 39879 40167 84206 333 20190 58009;
0137829860999992006053118004-09400-038217FM-12+0253SBUF V0200901N006211050019N0200001N1+02861+01871101331ADDGF106991021021008001001081MA1999999098461MD1999999+0061REMSYN070AAXX  31184 82986 32598 60912 10286 20187 39846 40133 82208 333 58006;
0178829860999992006060100004-09400-038217FM-12+0253SBUF V0201801N003112200019N0020001N1+02301+01961101601ADDGA1001+999999999GF100991001001999999001001KA1240M+02891MA1999999098721MD1999999-0011REMSYN082AAXX  01004 82986 32995 01806 10230 20196 39872 40160 333 10289 29070 55101 59001;
0201829860999992006060112004-09400-038217FM-12+0253SBUF V0201801N003610021019N0040001N1+02221+02101101741ADDAA124000391AY161061AY221061GF108991081061002501999999KA1240N+02061MA1999999098841MD1999999+0051MW1501REMSYN088AAXX  01124 82986 21396 81807 10222 20210 39884 40174 75062 886// 333 20206 58005 69934;
0182829860999992006060118004-09400-038217FM-12+0253SBUF V0201401N002110450019N0100001N1+02481+02271101431ADDAA106002091AY161061AY221061GF106991041071002501031001MA1999999098551MD1999999+0091MW1211REMSYN082AAXX  01184 82986 21397 61404 10248 20227 39855 40143 72162 84730 333 58009 60021;
0213829860999992006060200004-09400-038217FM-12+0253SBUF V0200901N001510120019N0020001N1+02201+02121101651ADDAA106000891AY161061AY221061GF106991061001012501021001KA1240M+02571MA1999999098751MD1999999+0031MW1021REMSYN100AAXX  02004 82986 21695 60903 10220 20212 39875 40165 70262 86020 333 10257 29093 55000 58003 69971;
0173829860999992006060212004-09400-038217FM-12+0253SBUF V0201401N004110042019N0100001N1+02441+02051101731ADDAA124002091GF106991051071004501001021KA1240N+02101MA1999999098841MD1999999+0001REMSYN082AAXX  02124 82986 22497 61408 10244 20205 39884 40173 85702 333 20210 58000 60024;
0182829860999992006060218004-09400-038217FM-12+0253SBUF V0201401N004110042019N0100001N1+02791+02041101451ADDAA106000391AY161061AY221061GF106991051071004501001011MA1999999098581MD1999999+0031MW1021REMSYN082AAXX  02184 82986 21497 61408 10279 20204 39858 40145 70262 85701 333 58003 69931;
0213829860999992006060300004-09400-038217FM-12+0253SBUF V0201801N003119999999N0020001N1+02181+01941101751ADDAA106007991AY161061AY221061GF105991051001012501051001KA1240M+02921MA1999999098861MD1999999+0111MW1021REMSYN100AAXX  03004 82986 21695 51806 10218 20194 39886 40175 70262 85050 333 10292 29079 55072 58011 60081;
0201829860999992006060312004-09400-038217FM-12+0253SBUF V0201401N002110060019N0040001N1+02181+02081101711ADDAA124013091AY161061AY221061GF108991081081002501999999KA1240N+02001MA1999999098811MD1999999-0031MW1611REMSYN088AAXX  03124 82986 21396 81404 10218 20208 39881 40171 76162 888// 333 20200 59003 60134;
0182829860999992006060318004-09400-038217FM-12+0253SBUF V0200901N005110075019N0100001N1+02691+01761101371ADDAA106000021AY151061AY221061GF106991061051008001001001MA1999999098501MD1999999-0081MW1021REMSYN082AAXX  03184 82986 21597 60910 10269 20176 39850 40137 70252 86500 333 59008 69921;
0178829860999992006060400004-09400-038217FM-12+0253SBUF V0201801N003112200019N0020001N1+02261+01881101711ADDGA1001+999999999GF100991001001999999001001KA1240M+02761MA1999999098811MD1999999-0051REMSYN082AAXX  04004 82986 32995 01806 10226 20188 39881 40171 333 10276 29077 55005 59005;
0173829860999992006060412004-09400-038217FM-12+0253SBUF V0200901N005110042019N0100001N1+02421+02071101641ADDAA124000021GF106991061071004501001001KA1240N+01971MA1999999098761MD1999999+0051REMSYN082AAXX  04124 82986 22497 60910 10242 20207 39876 40164 86700 333 20197 58005 69924;
0182829860999992006060418004-09400-038217FM-12+0253SBUF V0200901N003110075019N0100001N1+02461+02171101281ADDAA106006191AY161061AY221061GF106991051021008001061001MA1999999098401MD1999999-0101MW1201REMSYN082AAXX  04184 82986 21597 60906 10246 20217 39840 40128 72062 85260 333 59010 60061;
0168829860999992006060500004-09400-038217FM-12+0253SBUF V0201401N003110060019N0020001N1+02221+01991101501ADDGF108991081081002501999999KA1240M+02591MA1999999098621MD1999999-0191REMSYN088AAXX  05004 82986 32395 81406 10222 20199 39862 40150 888// 333 10259 29085 55036 59019;
0173829860999992006060512004-09400-038217FM-12+0253SBUF V0201401N004110042019N0100001N1+02431+02031101591ADDAA124006191GF106991061051004501001001KA1240N+02051MA1999999098701MD1999999-0061REMSYN082AAXX  05124 82986 22497 61408 10243 20203 39870 40159 86500 333 20205 59006 60064;
0137829860999992006060518004-09400-038217FM-12+0253SBUF V0201401N004110090019N0200001N1+02741+01891101211ADDGF107991071081004501001001MA1999999098351MD1999999-0051REMSYN070AAXX  05184 82986 32498 71408 10274 20189 39835 40121 87800 333 59005;
0168829860999992006060600004-09400-038217FM-12+0253SBUF V0200901N001010075019N0020001N1+02331+02071101471ADDGF107991071051008001001001KA1240M+02791MA1999999098601MD1999999-0021REMSYN088AAXX  06004 82986 32595 70902 10233 20207 39860 40147 87500 333 10279 29075 55034 59002;
0156829860999992006060612004-09400-038217FM-12+0253SBUF V0201401N004110450019N0100001N1+02361+01911101621ADDGF106991041051008001071001KA1240N+02041MA1999999098741MD1999999+0041REMSYN076AAXX  06124 82986 32597 61408 10236 20191 39874 40162 84570 333 20204 58004;
0137829860999992006060618004-09400-038217FM-12+0253SBUF V0201801N003110021019N0100001N1+02701+02221101311ADDGF108991071071002501021001MA1999999098441MD1999999+0091REMSYN070AAXX  06184 82986 32397 81806 10270 20222 39844 40131 87720 333 58009;
0213829860999992006060700004-09400-038217FM-12+0253SBUF V0201801N002610021019N0020001N1+02221+02101101621ADDAA106002091AY161061AY221061GF106991061071002501001001KA1240M+02751MA1999999098731MD1999999+0131MW1021REMSYN100AAXX  07004 82986 21395 61805 10222 20210 39873 40162 70262 86700 333 10275 29084 55038 58013 60021;
0201829860999992006060712004-09400-038217FM-12+0253SBUF V0201801N004610021019N0040001N1+02161+01991101701ADDAA124006191AY161061AY251061GF108991081071002501999999KA1240N+02041MA1999999098801MD1999999+0061MW1201REMSYN088AAXX  07124 82986 21396 81809 10216 20199 39880 40170 72065 887// 333 20204 58006 60064;
0182829860999992006060718004-09400-038217FM-12+0253SBUF V0201801N004110021019N0040001N1+02241+02051101441ADDAA106000591AY161061AY221061GF108991081071002501999999MA1999999098541MD1999999+0101MW1211REMSYN082AAXX  07184 82986 21396 81808 10224 20205 39854 40144 72162 887// 333 58010 69951;
0201829860999992006060812004-09400-038217FM-12+0253SBUF V0200901N002610021019N0100001N1+02181+02031101701ADDAA124002091AY161061AY251061GF108991081071002501999999KA1240N+02081MA1999999098801MD1999999+0001MW1021REMSYN088AAXX  08124 82986 21397 80905 10218 20203 39880 40170 70265 887// 333 20208 58000 60024;
0182829860999992006060818004-09400-038217FM-12+0253SBUF V0201801N001510042019N0100001N1+02581+02101101291ADDAA106000591AY161061AY251061GF108991081071004501999999MA1999999098421MD1999999-0121MW1151REMSYN082AAXX  08184 82986 21497 81803 10258 20210 39842 40129 71565 887// 333 59012 69941;
0213829860999992006060900004-09400-038217FM-12+0253SBUF V0200901N001010075019N0020001N1+02121+02021101641ADDAA106002091AY161061AY221061GF108991081071008001999999KA1240M+02631MA1999999098731MD1999999-0031MW1031REMSYN100AAXX  09004 82986 21595 80902 10212 20202 39873 40164 70362 887// 333 10263 29088 55010 59003 60021;
0173829860999992006060912004-09400-038217FM-12+0253SBUF V0201401N003110021019N0040001N1+02241+02051101551ADDAA124003091GF108991081071002501999999KA1240N+01921MA1999999098651MD1999999-0151REMSYN082AAXX  09124 82986 22396 81406 10224 20205 39865 40155 887// 333 20192 59015 60034;
0182829860999992006060918004-09400-038217FM-12+0253SBUF V0200901N004610075019N0100001N1+02531+02071101211ADDAA106003091AY161061AY221061GF106991061071008001001001MA1999999098331MD1999999-0091MW1021REMSYN082AAXX  09184 82986 21597 60909 10253 20207 39833 40121 70262 86700 333 59009 60031;
0168829860999992006061000004-09400-038217FM-12+0253SBUF V0200901N002610450019N0020001N1+02261+02091101451ADDGF106991031051008001051001KA1240M+02661MA1999999098561MD1999999-0171REMSYN088AAXX  10004 82986 32595 60905 10226 20209 39856 40145 83550 333 10266 29086 55008 59017;
0201829860999992006061012004-09400-038217FM-12+0253SBUF V0200901N005110075019N0100001N1+02391+02071101481ADDAA124003091AY151061AY221061GF106991061021008001001001KA1240N+02001MA1999999098601MD1999999-0051MW1021REMSYN088AAXX  10124 82986 21597 60910 10239 20207 39860 40148 70252 86200 333 20200 59005 60034;
0137829860999992006061018004-09400-038217FM-12+0253SBUF V0200901N005712200019N0200001N1+02711+01911101111ADDGF104991021021008001071001MA1999999098251MD1999999-0401REMSYN070AAXX  10184 82986 32598 40911 10271 20191 39825 40111 82270 333 59040;
0178829860999992006061100004-09400-038217FM-12+0253SBUF V0201401N003112200019N0020001N1+02271+01881101381ADDGA1001+999999999GF100991001001999999001001KA1240M+02811MA1999999098501MD1999999-0061REMSYN082AAXX  11004 82986 32995 01406 10227 20188 39850 40138 333 10281 29076 55079 59006;
0156829860999992006061112004-09400-038217FM-12+0253SBUF V0201801N001510075019N0100001N1+02301+01961101481ADDGF106991051041008001001011KA1240N+01951MA1999999098601MD1999999+0001REMSYN076AAXX  11124 82986 32597 61803 10230 20196 39860 40148 85401 333 20195 58000;
0137829860999992006061118004-09400-038217FM-12+0253SBUF V0201801N003110450019N0200001N1+02921+01921101091ADDGF106991031041008001051001MA1999999098241MD1999999-0011REMSYN070AAXX  11184 82986 32598 61806 10292 20192 39824 40109 83450 333 59001;
0201829860999992006061212004-09400-038217FM-12+0253SBUF V0201801N002110021019N0040001N1+02301+02071101471ADDAA124000891AY161061AY251061GF108991061071002501081999KA1240N+02121MA1999999098601MD1999999+0001MW1201REMSYN088AAXX  12124 82986 21396 81804 10230 20207 39860 40147 72065 8678/ 333 20212 58000 69974;
0137829860999992006061218004-09400-038217FM-12+0253SBUF V0200901N002610450019N0200001N1+02791+02301101221ADDGF106991031081002501071001MA1999999098361MD1999999+0121REMSYN070AAXX  12184 82986 32398 60905 10279 20230 39836 40122 83870 333 58012;
0213829860999992006061300004-09400-038217FM-12+0253SBUF V0201801N003110021019N0020001N1+02361+02201101581ADDAA106000591AY161061AY251061GF106991061071002501001001KA1240M+02811MA1999999098701MD1999999-0051MW1011REMSYN100AAXX  13004 82986 21395 61806 10236 20220 39870 40158 70165 86700 333 10281 29086 55015 59005 69941;
0201829860999992006061312004-09400-038217FM-12+0253SBUF V0200901N004610021019N0040001N1+02341+02111101721ADDAA124009991AY161061AY251061GF108991081071002501999999KA1240N+02081MA1999999098841MD1999999+0241MW1501REMSYN088AAXX  13124 82986 21396 80909 10234 20211 39884 40172 75065 887// 333 20208 58024 60104;
0182829860999992006061318004-09400-038217FM-12+0253SBUF V0200901N005710450019N0100001N1+02661+02221101401ADDAA106000021AY161061AY251061GF106991041081002501041001MA1999999098571MD1999999+0171MW1031REMSYN082AAXX  13184 82986 21397 60911 10266 20222 39857 40140 70365 84840 333 58017 69921;
0178829860999992006061400004-09400-038217FM-12+0253SBUF V0201801N003112200019N0020001N1+02211+01861101721ADDGA1001+999999999GF100991001001999999001001KA1240M+02731MA1999999098831MD1999999+0131REMSYN082AAXX  14004 82986 32995 01806 10221 20186 39883 40172 333 10273 29082 55035 58013;
0201829860999992006061412004-09400-038217FM-12+0253SBUF V0200901N004610060019N0040001N1+02311+02111101591ADDAA124000391AY161061AY251061GF106991061081002501001001KA1240N+02041MA1999999098701MD1999999-0141MW1031REMSYN088AAXX  14124 82986 21396 60909 10231 20211 39870 40159 70365 86800 333 20204 59014 69934;
0182829860999992006061418004-09400-038217FM-12+0253SBUF V0201801N003110021019N0020001N1+02371+02241101441ADDAA106007191AY161061AY221061GF108991081071002501999999MA1999999098551MD1999999+0021MW1611REMSYN082AAXX  14184 82986 21395 81806 10237 20224 39855 40144 76162 887// 333 58002 60071;
0213829860999992006061500004-09400-038217FM-12+0253SBUF V0201801N003110060019N0010001N1+02151+02091101701ADDAA106032091AY161061AY261061GF108991081081002501999999KA1240M+02701MA1999999098801MD1999999-0031MW1651REMSYN100AAXX  15004 82986 21394 81806 10215 20209 39880 40170 76566 888// 333 10270 29094 55032 59003 60321;
0201829860999992006061512004-09400-038217FM-12+0253SBUF V0201401N004110021019N0040001N1+02341+02151101701ADDAA124047091AY161061AY261061GF106991061071002501001001KA1240N+02061MA1999999098801MD1999999+0101MW1101REMSYN088AAXX  15124 82986 21396 61408 10234 20215 39880 40170 71066 86700 333 20206 58010 60474;
0201829860999992006061518004-09400-038217FM-12+0253SBUF V0200901N003110075019N0200001N1+02731+02031101331ADDAA106000091AY151061AY221061GF105991051021008001001001MA1999999098461MD1999999-0091MW1021REMSYN082AAXX  15184 82986 21598 50906 10273 20203 39846 40133 70252 85200 333 59009 69911;EQDQ01  00002PRCP06
0178829860999992006061600004-09400-038217FM-12+0253SBUF V0201801N001012200019N0020001N1+02231+02031101591ADDGA1001+999999999GF100991001001999999001001KA1240M+02821MA1999999098701MD1999999-0101REMSYN082AAXX  16004 82986 32995 01802 10223 20203 39870 40159 333 10282 29083 55060 59010;
0201829860999992006061612004-09400-038217FM-12+0253SBUF V0200901N005110060019N0020001N1+02141+02041101821ADDAA124000391AY121061AY221061GF108991081081002501999999KA1240N+02101MA1999999098911MD1999999+0021MW1211REMSYN088AAXX  16124 82986 21395 80910 10214 20204 39891 40182 72122 888// 333 20210 58002 69934;
0165829860999992006061618004-09400-038217FM-12+0253SBUF V0201401N004610450019N0100001N1+02631+02071101541ADDAY121061AY221061GF108991041041004501071999MA1999999098661MD1999999+0201MW1151REMSYN076AAXX  16184 82986 31497 81409 10263 20207 39866 40154 71522 8447/ 333 58020;
0213829860999992006061700004-09400-038217FM-12+0253SBUF V0201401N002110075019N0020001N1+02301+02111101701ADDAA106000391AY161061AY221061GF106991061051008001001001KA1240M+02651MA1999999098801MD1999999+0101MW1021REMSYN100AAXX  17004 82986 21595 61404 10230 20211 39880 40170 70262 86500 333 10265 29086 55006 58010 69931;
0182829860999992006061718004-09400-038217FM-12+0253SBUF V0200901N001510042019N0100001N1+02361+02071101531ADDAA106003091AY151061AY211061GF108991061071004501081999MA1999999098641MD1999999-0021MW1151REMSYN082AAXX  17184 82986 21497 80903 10236 20207 39864 40153 71551 8678/ 333 59002 60031;
0213829860999992006061800004-09400-038217FM-12+0253SBUF V0201801N003610060019N0020001N1+02111+01981101741ADDAA106003091AY181061AY261061GF108991081081002501999999KA1240M+02621MA1999999098841MD1999999+0041MW1021REMSYN100AAXX  18004 82986 21395 81807 10211 20198 39884 40174 70286 888// 333 10262 29088 55017 58004 60031;
0201829860999992006061812004-09400-038217FM-12+0253SBUF V0201401N002610021019N0100001N1+02201+02121101811ADDAA124007191AY161061AY251061GF108991081061002501999999KA1240N+02021MA1999999098901MD1999999+0051MW1021REMSYN088AAXX  18124 82986 21397 81405 10220 20212 39890 40181 70265 886// 333 20202 58005 60074;
0182829860999992006061818004-09400-038217FM-12+0253SBUF V0200901N005712200019N0200001N1+02561+02151101481ADDAA106001091AY161061AY251061GF104991021021008001031001MA1999999098601MD1999999-0041MW1011REMSYN082AAXX  18184 82986 21598 40911 10256 20215 39860 40148 70165 82230 333 59004 60011;
0213829860999992006061900004-09400-038217FM-12+0253SBUF V0201801N003110021019N0020001N1+02161+02091101711ADDAA106004191AY161061AY251061GF106991061071002501001001KA1240M+02671MA1999999098811MD1999999-0031MW1031REMSYN100AAXX  19004 82986 21395 61806 10216 20209 39881 40171 70365 86700 333 10267 29091 55019 59003 60041;
0201829860999992006061912004-09400-038217FM-12+0253SBUF V0200901N003610060019N0040001N1+02211+02101101771ADDAA124007991AY161061AY251061GF107991071081002501001001KA1240N+02081MA1999999098861MD1999999-0041MW1631REMSYN088AAXX  19124 82986 21396 70907 10221 20210 39886 40177 76365 87800 333 20208 59004 60084;
0137829860999992006061918004-09400-038217FM-12+0253SBUF V0200901N004110450019N0100001N1+02481+02011101451ADDGF106991041071002501051001MA1999999098561MD1999999-0041REMSYN070AAXX  19184 82986 32397 60908 10248 20201 39856 40145 84750 333 59004;
0178829860999992006062000004-09400-038217FM-12+0253SBUF V0201401N002612200019N0020001N1+02221+01971101731ADDGA1001+999999999GF100991001001999999001001KA1240M+02791MA1999999098831MD1999999+0021REMSYN082AAXX  20004 82986 32995 01405 10222 20197 39883 40173 333 10279 29085 55038 58002;
0156829860999992006062012004-09400-038217FM-12+0253SBUF V0200901N005110075019N0100001N1+02401+01951101801ADDGF105991051041008001001001KA1240N+01961MA1999999098911MD1999999+0051REMSYN076AAXX  20124 82986 32597 50910 10240 20195 39891 40180 85400 333 20196 58005;
0137829860999992006062018004-09400-038217FM-12+0253SBUF V0200901N006212200019N0200001N1+02761+01911101491ADDGF104991041021008001001001MA1999999098621MD1999999+0061REMSYN070AAXX  20184 82986 32598 40912 10276 20191 39862 40149 84200 333 58006;
0178829860999992006062100004-09400-038217FM-12+0253SBUF V0200901N002612200019N0020001N1+02111+01911101781ADDGA1001+999999999GF100991001001999999001001KA1240M+02771MA1999999098881MD1999999+0051REMSYN082AAXX  21004 82986 32995 00905 10211 20191 39888 40178 333 10277 29078 55096 58005;
0156829860999992006062112004-09400-038217FM-12+0253SBUF V0201401N004610021019N0100001N1+02301+02011101871ADDGF108991081071002501999999KA1240N+02001MA1999999098961MD1999999+0051REMSYN076AAXX  21124 82986 32397 81409 10230 20201 39896 40187 887// 333 20200 58005;
0201829860999992006062118004-09400-038217FM-12+0253SBUF V0200901N003110450019N0100001N1+02551+02061101501ADDAA106000091AY151061AY221061GF108991041081004501071999MA1999999098621MD1999999+0001MW1151REMSYN082AAXX  21184 82986 21497 80906 10255 20206 39862 40150 71552 8487/ 333 58000 69911;EQDQ01  00002PRCP06
0178829860999992006062200004-09400-038217FM-12+0253SBUF V0200901N002612200019N0020001N1+02281+02051101771ADDGA1001+999999999GF100991001001999999001001KA1240M+02641MA1999999098881MD1999999+0001REMSYN082AAXX  22004 82986 32995 00905 10228 20205 39888 40177 333 10264 29083 55016 58000;
0201829860999992006062212004-09400-038217FM-12+0253SBUF V0200901N003110042019N0100001N1+02221+02081101811ADDAA124000021AY161061AY221061GF106991061071004501001001KA1240N+02081MA1999999098911MD1999999-0051MW1201REMSYN088AAXX  22124 82986 21497 60906 10222 20208 39891 40181 72062 86700 333 20208 59005 69924;
0182829860999992006062218004-09400-038217FM-12+0253SBUF V0201401N006710021019N0040001N1+02361+02131101521ADDAA106003091AY161061AY221061GF107991061071002501081001MA1999999098641MD1999999+0021MW1631REMSYN082AAXX  22184 82986 21396 71413 10236 20213 39864 40152 76362 86780 333 58002 60031;
0213829860999992006062300004-09400-038217FM-12+0253SBUF V0200901N003110021019N0020001N1+02081+01931101801ADDAA106002091AY161061AY221061GF108991081071002501999999KA1240M+02711MA1999999098891MD1999999+0011MW1021REMSYN100AAXX  23004 82986 21395 80906 10208 20193 39889 40180 70262 887// 333 10271 29090 55030 58001 60021;
0201829860999992006062312004-09400-038217FM-12+0253SBUF V0201801N002610042019N0040001N1+02221+01921101821ADDAA124006191AY161061AY221061GF106991061071004501001001KA1240N+01961MA1999999098911MD1999999+0001MW1031REMSYN088AAXX  23124 82986 21496 61805 10222 20192 39891 40182 70362 86700 333 20196 58000 60064;
0182829860999992006062318004-09400-038217FM-12+0253SBUF V0201401N006210450019N0040001N1+02221+02071101501ADDAA106000021AY121061AY221061GF107991041071004501061001MA1999999098591MD1999999-0051MW1501REMSYN082AAXX  23184 82986 21496 71412 10222 20207 39859 40150 75022 84760 333 59005 69901;
0213829860999992006062400004-09400-038217FM-12+0253SBUF V0201801N003610075019N0020001N1+02191+01971101701ADDAA106000021AY121061AY221061GF106991061051008001001001KA1240M+02601MA1999999098801MD1999999-0091MW1501REMSYN100AAXX  24004 82986 21595 61807 10219 20197 39880 40170 75022 86500 333 10260 29088 55050 59009 69901;
0201829860999992006062412004-09400-038217FM-12+0253SBUF V0201401N003110021019N0040001N1+02201+02101101691ADDAA124001091AY161061AY251061GF108991081071002501999999KA1240N+02001MA1999999098791MD1999999-0121MW1501REMSYN088AAXX  24124 82986 21396 81406 10220 20210 39879 40169 75065 887// 333 20200 59012 60014;
0182829860999992006062418004-09400-038217FM-12+0253SBUF V0201401N003610450019N0100001N1+02521+02131101431ADDAA106000391AY161061AY251061GF106991041071002501041001MA1999999098551MD1999999-0041MW1211REMSYN082AAXX  24184 82986 21397 61407 10252 20213 39855 40143 72165 84740 333 59004 69931;
0213829860999992006062500004-09400-038217FM-12+0253SBUF V0201801N001512200019N0020001N1+02151+02021101741ADDAA106000021AY161061AY251061GF103991031001017501021001KA1240M+02591MA1999999098841MD1999999+0041MW1011REMSYN100AAXX  25004 82986 21795 31803 10215 20202 39884 40174 70165 83020 333 10259 29090 55032 58004 69921;
0201829860999992006062512004-09400-038217FM-12+0253SBUF V0200901N004110042019N0040001N1+02251+02011101781ADDAA124001091AY161061AY221061GF106991051071004501051001KA1240N+01991MA1999999098871MD1999999+0081MW1101REMSYN088AAXX  25124 82986 21496 60908 10225 20201 39887 40178 71062 85750 333 20199 58008 60014;
0137829860999992006062518004-09400-038217FM-12+0253SBUF V0200901N005110450019N0100001N1+02741+01951101431ADDGF106991031081002501071001MA1999999098561MD1999999+0011REMSYN070AAXX  25184 82986 32397 60910 10274 20195 39856 40143 83870 333 58001;
0178829860999992006062600004-09400-038217FM-12+0253SBUF V0200901N002612200019N0020001N1+02301+02031101681ADDGA1001+999999999GF100991001001999999001001KA1240M+02771MA1999999098791MD1999999-0051REMSYN082AAXX  26004 82986 32995 00905 10230 20203 39879 40168 333 10277 29080 55053 59005;
0137829860999992006062618004-09400-038217FM-12+0253SBUF V0200901N002112200019N0200001N1+02791+02091101341ADDGF104991041011008001001001MA1999999098481MD1999999-0061REMSYN070AAXX  26184 82986 32598 40904 10279 20209 39848 40134 84100 333 59006;
0178829860999992006062700004-09400-038217FM-12+0253SBUF V0200901N001012200019N0020001N1+02231+02071101641ADDGA1001+999999999GF100991001001999999001001KA1240M+02821MA1999999098741MD1999999-0051REMSYN082AAXX  27004 82986 32595 00902 10223 20207 39874 40164 333 10282 29084 55081 59005;
0156829860999992006062712004-09400-038217FM-12+0253SBUF V0200901N003110450019N0100001N1+02381+02151101851ADDGF106991041041004501031001KA1240N+02141MA1999999098951MD1999999+0101REMSYN076AAXX  27124 82986 32497 60906 10238 20215 39895 40185 84430 333 20214 58010;
0137829860999992006062718004-09400-038217FM-12+0253SBUF V0200901N001012200019N0200001N1+02851+02091101441ADDGF104991021011008001031011MA1999999098591MD1999999+0111REMSYN070AAXX  27184 82986 32598 40902 10285 20209 39859 40144 82131 333 58011;
0178829860999992006062800004-09400-038217FM-12+0253SBUF V0201801N001512200019N0020001N1+02351+02151101731ADDGA1001+999999999GF100991001001999999001001KA1240M+02881MA1999999098851MD1999999+0111REMSYN082AAXX  28004 82986 32995 01803 10235 20215 39885 40173 333 10288 29082 55077 58011;
0156829860999992006062812004-09400-038217FM-12+0253SBUF V0201801N001510450019N0100001N1+02371+02201101861ADDGF106991031051008001051001KA1240N+02171MA1999999098971MD1999999+0021REMSYN076AAXX  28124 82986 32597 61803 10237 20220 39897 40186 83550 333 20217 58002;
0137829860999992006062818004-09400-038217FM-12+0253SBUF V0200901N003610450019N0200001N1+02811+02221101531ADDGF106991031021008001081001MA1999999098671MD1999999+0081REMSYN070AAXX  28184 82986 32598 60907 10281 20222 39867 40153 83280 333 58008;
0213829860999992006062900004-09400-038217FM-12+0253SBUF V0201801N002110120019N0020001N1+02251+02121101851ADDAA106007191AY161061AY221061GF108991061081008001021999KA1240M+02871MA1999999091952MD1999999+0101MW1021REMSYN100AAXX  29004 82986 21595 81804 10225 20212 39195 40185 70262 8682/ 333 10287 29087 55040 58010 60071;
0192829860999992006063012004-09400-038217FM-12+0253SBUF V0201401N005110042019N0100001N1+02271+01891101941ADDAA124000091GF107991061071004501061001KA1240N+02081MA1999999099051MD1999999+0021REMSYN082AAXX  30124 82986 22497 71410 10227 20189 39905 40194 86760 333 20208 58002 69904;EQDQ01  00002PRCP24
0182829860999992006063018004-09400-038217FM-12+0253SBUF V0201401N005710060019N0020001N1+02621+02181101681ADDAA106006191AY161061AY251061GF108991081081002501999999MA1999999098801MD1999999+0191MW1631REMSYN082AAXX  30184 82986 21395 81411 10262 20218 39880 40168 76365 888// 333 58019 60061;
0213829860999992006070100004-09400-038217FM-12+0253SBUF V0201801N004612200019N0020001N1+02121+02021101941ADDAA106004191AY161061AY251061GF103991031001017501041001KA1240M+02691MA1999999099041MD1999999+0081MW1011REMSYN100AAXX  01004 82986 21795 31809 10212 20202 39904 40194 70165 83040 333 10269 29085 55055 58008 60041;
0201829860999992006070112004-09400-038217FM-12+0253SBUF V0201401N002610042019N0100001N1+02281+02131101931ADDAA124010991AY161061AY251061GF106991051071004501061001KA1240N+02061MA1999999099051MD1999999-0031MW1201REMSYN088AAXX  01124 82986 21497 61405 10228 20213 39905 40193 72065 85760 333 20206 59003 60114;
0182829860999992006070118004-09400-038217FM-12+0253SBUF V0201401N005110450019N0100001N1+02481+02031101641ADDAA106001091AY161061AY251061GF106991041081002501041011MA1999999098751MD1999999-0051MW1021REMSYN082AAXX  01184 82986 21397 61410 10248 20203 39875 40164 70265 84841 333 59005 60011;
0178829860999992006070200004-09400-038217FM-12+0253SBUF V0201401N005112200019N0020001N1+02261+02051101861ADDGA1001+999999999GF100991001001999999001001KA1240M+02691MA1999999098961MD1999999-0081REMSYN082AAXX  02004 82986 32995 01410 10226 20205 39896 40186 333 10269 29086 55014 59008;
0201829860999992006070212004-09400-038217FM-12+0253SBUF V0200901N004610021019N0040001N1+02221+02071101911ADDAA124002091AY161061AY251061GF108991081071002501999999KA1240N+02061MA1999999099011MD1999999-0011MW1601REMSYN088AAXX  02124 82986 21396 80909 10222 20207 39901 40191 76065 887// 333 20206 59001 60024;
0182829860999992006070218004-09400-038217FM-12+0253SBUF V0201401N003110042019N0100001N1+02231+02141101621ADDAA106007191AY161061AY251061GF106991061071004501001001MA1999999098721MD1999999-0031MW1151REMSYN082AAXX  02184 82986 21497 61406 10223 20214 39872 40162 71565 86700 333 59003 60071;
0213829860999992006070300004-09400-038217FM-12+0253SBUF V0201801N003110090019N0010001N1+02131+02021101911ADDAA106002091AY161061AY251061GF108991081081004501999999KA1240M+02511MA1999999099001MD1999999+0041MW1031REMSYN100AAXX  03004 82986 21494 81806 10213 20202 39900 40191 70365 888// 333 10251 29094 55000 58004 60021;
0201829860999992006070312004-09400-038217FM-12+0253SBUF V0201401N003110060019N0040001N1+02221+02071101951ADDAA124010991AY161061AY251061GF108991081081002501999999KA1240N+02001MA1999999099041MD1999999+0031MW1601REMSYN088AAXX  03124 82986 21396 81406 10222 20207 39904 40195 76065 888// 333 20200 58003 60114;
0182829860999992006070318004-09400-038217FM-12+0253SBUF V0200901N003610450019N0100001N1+02431+02171101611ADDAA106001091AY161061AY221061GF106991031081004501071001MA1999999098721MD1999999+0001MW1031REMSYN082AAXX  03184 82986 21497 60907 10243 20217 39872 40161 70362 83870 333 58000 60011;
0213829860999992006070400004-09400-038217FM-12+0253SBUF V0200901N001510450019N0010001N1+02101+02031101931ADDAA106002091AY161061AY221061GF108991041081008001071999KA1240M+02571MA1999999099021MD1999999+0021MW1031REMSYN100AAXX  04004 82986 21594 80903 10210 20203 39902 40193 70362 8487/ 333 10257 29092 55005 58002 60021;
0201829860999992006070412004-09400-038217FM-12+0253SBUF V0201401N003110450019N0040001N1+02141+02071102021ADDAA124004191AY161061AY251061GF108991041071004501081001KA1240N+02031MA1999999099101MD1999999+0061MW1601REMSYN088AAXX  04124 82986 21496 81406 10214 20207 39910 40202 76065 84780 333 20203 58006 60044;
0182829860999992006070418004-09400-038217FM-12+0253SBUF V0201801N005110042019N0100001N1+02201+02061101721ADDAA106007991AY161061AY251061GF108991051071004501071999MA1999999098811MD1999999+0091MW1201REMSYN082AAXX  04184 82986 21497 81810 10220 20206 39881 40172 72065 8577/ 333 58009 60081;
0168829860999992006070500004-09400-038217FM-12+0253SBUF V0201401N003110075019N0020001N1+02181+01941101911ADDGF107991061051008001071999KA1240M+02391MA1999999099001MD1999999-0021REMSYN088AAXX  05004 82986 32595 71406 10218 20194 39900 40191 8657/ 333 10239 29090 55000 59002;
0173829860999992006070512004-09400-038217FM-12+0253SBUF V0201801N003110042019N0040001N1+02211+01971101941ADDAA124007991GF108991081071004501999999KA1240N+02021MA1999999099031MD1999999-0071REMSYN082AAXX  05124 82986 22496 81806 10221 20197 39903 40194 887// 333 20202 59007 60084;
0182829860999992006070518004-09400-038217FM-12+0253SBUF V0200901N001510450019N0100001N1+02301+01871101611ADDAA106000891AY161061AY221061GF107991041071004501071999MA1999999098711MD1999999-0101MW1151REMSYN082AAXX  05184 82986 21497 70903 10230 20187 39871 40161 71562 8477/ 333 59010 69971;
0213829860999992006070600004-09400-038217FM-12+0253SBUF V0201801N003110090019N0020001N1+02121+01971101891ADDAA106005191AY161061AY251061GF108991081081004501999999KA1240M+02501MA1999999098981MD1999999-0021MW1021REMSYN100AAXX  06004 82986 21495 81806 10212 20197 39898 40189 70265 888// 333 10250 29086 55002 59002 60051;
0201829860999992006070612004-09400-038217FM-12+0253SBUF V0201401N001510021019N0040001N1+02201+02061101991ADDAA124006191AY151061AY221061GF108991081071002501999999KA1240N+01981MA1999999099071MD1999999+0041MW1161REMSYN088AAXX  06124 82986 21396 81403 10220 20206 39907 40199 71652 887// 333 20198 58004 60064;
0182829860999992006070618004-09400-038217FM-12+0253SBUF V0201801N001010021019N0040001N1+02461+02271101671ADDAA106001091AY161061AY251061GF108991081071002501999999MA1999999098771MD1999999+0061MW1501REMSYN082AAXX  06184 82986 21396 81802 10246 20227 39877 40167 75065 887// 333 58006 60011;
0213829860999992006070700004-09400-038217FM-12+0253SBUF V0201401N004610060019N0020001N1+02131+02041102001ADDAA106007191AY161061AY251061GF108991081081002501999999KA1240M+02551MA1999999099081MD1999999+0101MW1611REMSYN100AAXX  07004 82986 21395 81409 10213 20204 39908 40200 76165 888// 333 10255 29093 55010 58010 60071;
0201829860999992006070712004-09400-038217FM-12+0253SBUF V0200901N004110021019N0040001N1+02141+02071102031ADDAA124011991AY161061AY251061GF108991081071002501999999KA1240N+02061MA1999999099111MD1999999+0041MW1611REMSYN088AAXX  07124 82986 21396 80908 10214 20207 39911 40203 76165 887// 333 20206 58004 60124;
0182829860999992006070718004-09400-038217FM-12+0253SBUF V0200901N003110060019N0100001N1+02351+02151101701ADDAA106002091AY161061AY251061GF108991081081002501999999MA1999999098801MD1999999+0031MW1211REMSYN082AAXX  07184 82986 21397 80906 10235 20215 39880 40170 72165 888// 333 58003 60021;
0213829860999992006070800004-09400-038217FM-12+0253SBUF V0200901N002612200019N0020001N1+02141+02021101991ADDAA106000021AY151061AY251061GF103991031001017501031001KA1240M+02591MA1999999099071MD1999999-0011MW1011REMSYN100AAXX  08004 82986 21795 30905 10214 20202 39907 40199 70155 83030 333 10259 29093 55022 59001 69911;
0173829860999992006070812004-09400-038217FM-12+0253SBUF V0201801N004112200019N0100001N1+02181+01841102031ADDAA124002091GF104991041041008001001001KA1240N+01781MA1999999099111MD1999999+0001REMSYN082AAXX  08124 82986 22597 41808 10218 20184 39911 40203 84400 333 20178 58000 60024;
0137829860999992006070818004-09400-038217FM-12+0253SBUF V0201801N003611050019N0200001N1+02541+01811101561ADDGF105991021011008001061021MA1999999098661MD1999999-0141REMSYN070AAXX  08184 82986 32598 51807 10254 20181 39866 40156 82162 333 59014;
0156829860999992006070912004-09400-038217FM-12+0253SBUF V0201401N004610021019N0100001N1+02221+01991101851ADDGF108991081071002501999999KA1240N+01981MA1999999098951MD1999999-0061REMSYN076AAXX  09124 82986 32397 81409 10222 20199 39895 40185 887// 333 20198 59006;
0137829860999992006070918004-09400-038217FM-12+0253SBUF V0200901N003612200019N0200001N1+02731+02031101471ADDGF104991041021008001001001MA1999999098601MD1999999-0061REMSYN070AAXX  09184 82986 32598 40907 10273 20203 39860 40147 84200 333 59006;
0156829860999992006071012004-09400-038217FM-12+0253SBUF V0201401N003110450019N0100001N1+02141+01881101821ADDGF106991041041008001051001KA1240N+01941MA1999999098911MD1999999-0041REMSYN076AAXX  10124 82986 32597 61406 10214 20188 39891 40182 84450 333 20194 59004;
0137829860999992006071018004-09400-038217FM-12+0253SBUF V0201401N004610450019N0200001N1+02581+01641101491ADDGF106991041041008001051001MA1999999098591MD1999999-0011REMSYN070AAXX  10184 82986 32598 61409 10258 20164 39859 40149 84450 333 59001;
0213829860999992006071100004-09400-038217FM-12+0253SBUF V0201801N002610021019N0020001N1+02101+01961101741ADDAA106000021AY121061AY221061GF108991061071002501071999KA1240M+02611MA1999999098831MD1999999+0071MW1201REMSYN100AAXX  11004 82986 21395 81805 10210 20196 39883 40174 72022 8677/ 333 10261 29081 55050 58007 69911;
0173829860999992006071112004-09400-038217FM-12+0253SBUF V0200901N004610075019N0100001N1+02261+02011101931ADDAA124000021GF106991061021008001001001KA1240N+01931MA1999999099021MD1999999+0111REMSYN082AAXX  11124 82986 22597 60909 10226 20201 39902 40193 86200 333 20193 58011 69914;
0137829860999992006071118004-09400-038217FM-12+0253SBUF V0201401N004610450019N0040001N1+02581+01641101491ADDGF106991041041008001051001MA1999999098591MD1999999-0011REMSYN070AAXX  11184 82986 32596 61409 10258 20164 39859 40149 84450 333 59001;
0168829860999992006071200004-09400-038217FM-12+0253SBUF V0201401N004110450019N0020001N1+02271+01941101831ADDGF108991031051008001071999KA1240M+02721MA1999999098931MD1999999+0101REMSYN088AAXX  12004 82986 32595 81408 10227 20194 39893 40183 8357/ 333 10272 29075 55079 58010;
0201829860999992006071212004-09400-038217FM-12+0253SBUF V0201801N004610060019N0020001N1+02101+02031101851ADDAA124000891AY151061AY221061GF108991081081002501999999KA1240N+01981MA1999999098941MD1999999-0081MW1511REMSYN088AAXX  12124 82986 21395 81809 10210 20203 39894 40185 75152 888// 333 20198 59008 69984;
0182829860999992006071218004-09400-038217FM-12+0253SBUF V0200901N004610060019N0100001N1+02171+02021101651ADDAA106003091AY161061AY251061GF108991081081002501999999MA1999999098741MD1999999+0091MW1211REMSYN082AAXX  12184 82986 21397 80909 10217 20202 39874 40165 72165 888// 333 58009 60031;
0213829860999992006071300004-09400-038217FM-12+0253SBUF V0201401N003112200019N0020001N1+02081+01961101761ADDAA106000021AY161061AY221061GF102991021001017501041001KA1240M+02351MA1999999098851MD1999999-0081MW1011REMSYN100AAXX  13004 82986 21795 21406 10208 20196 39885 40176 70162 82040 333 10235 29094 55000 59008 69911;
0201829860999992006071312004-09400-038217FM-12+0253SBUF V0201401N004610450019N0100001N1+02251+01841101841ADDAA124007191AY161061AY251061GF107991031071004501051001KA1240N+01981MA1999999098931MD1999999-0011MW1011REMSYN088AAXX  13124 82986 21497 71409 10225 20184 39893 40184 70165 83750 333 20198 59001 60074;
0201829860999992006071318004-09400-038217FM-12+0253SBUF V0201401N005710450019N0200001N1+02481+01781101661ADDAA106000091AY161061AY211061GF105991031021004501041001MA1999999098761MD1999999+0021MW1011REMSYN082AAXX  13184 82986 21498 51411 10248 20178 39876 40166 70161 83240 333 58002 69911;EQDQ01  00002PRCP06
0178829860999992006071400004-09400-038217FM-12+0253SBUF V0201401N003112200019N0020001N1+01941+01661101861ADDGA1001+999999999GF100991001001999999001001KA1240M+02711MA1999999098941MD1999999+0091REMSYN082AAXX  14004 82986 32995 01406 10194 20166 39894 40186 333 10271 29078 55068 58009;
0201829860999992006071412004-09400-038217FM-12+0253SBUF V0201401N004110021019N0020001N1+02191+02011101811ADDAA124002091AY161061AY251061GF108991081071002501999999KA1240N+01841MA1999999098801MD1999999-0041MW1551REMSYN088AAXX  14124 82986 21395 81408 10219 20201 39880 40181 75565 887// 333 20184 59004 60024;
0182829860999992006071418004-09400-038217FM-12+0253SBUF V0200901N005110042019N0040001N1+02441+01971101551ADDAA106000021AY151061AY221061GF108991081071004501999999MA1999999098651MD1999999-0111MW1151REMSYN082AAXX  14184 82986 21496 80910 10244 20197 39865 40155 71552 887// 333 59011 69911;
0168829860999992006071500004-09400-038217FM-12+0253SBUF V0200901N003112200019N0020001N1+02081+01951101811ADDGF104991041001012501051001KA1240M+02561MA1999999098901MD1999999-0041REMSYN088AAXX  15004 82986 32695 40906 10208 20195 39890 40181 84050 333 10256 29087 55017 59004;
0173829860999992006071512004-09400-038217FM-12+0253SBUF V0201801N004610042019N0100001N1+02241+01961101851ADDAA124000021GF106991061071004501001001KA1240N+01881MA1999999098941MD1999999+0061REMSYN082AAXX  15124 82986 22497 61809 10224 20196 39894 40185 86700 333 20188 58006 69914;
0182829860999992006071518004-09400-038217FM-12+0253SBUF V0201801N001510042019N0100001N1+02531+02171101511ADDAA106000021AY121061AY221061GF106991061071004501001001MA1999999098631MD1999999-0021MW1201REMSYN082AAXX  15184 82986 21497 61803 10253 20217 39863 40151 72022 86700 333 59002 69901;
0201829860999992006071612004-09400-038217FM-12+0253SBUF V0201801N002610042019N0040001N1+02261+02071101771ADDAA124000021AY161061AY251061GF108991081071004501999999KA1240N+02041MA1999999098871MD1999999-0071MW1031REMSYN088AAXX  16124 82986 21496 81805 10226 20207 39887 40177 70365 887// 333 20204 59007 69924;
0165829860999992006071618004-09400-038217FM-12+0253SBUF V0201401N002610450019N0100001N1+02501+01841101471ADDAY121061AY221061GF107991041071004501071001MA1999999098591MD1999999-0041MW1151REMSYN076AAXX  16184 82986 31497 71405 10250 20184 39859 40147 71522 84770 333 59004;
0201829860999992006071712004-09400-038217FM-12+0253SBUF V0201801N005710042019N0040001N1+02251+02031101941ADDAA124019191AY161061AY251061GF108991081071004501999999KA1240N+01961MA1999999099031MD1999999+0161MW1031REMSYN088AAXX  17124 82986 21496 81811 10225 20203 39903 40194 70365 887// 333 20196 58016 60194;
0182829860999992006071718004-09400-038217FM-12+0253SBUF V0200901N003110450019N0100001N1+02401+02111101601ADDAA106000891AY161061AY251061GF107991041071004501071001MA1999999098711MD1999999+0121MW1021REMSYN082AAXX  17184 82986 21497 70906 10240 20211 39871 40160 70265 84770 333 58012 69971;
0232829860999992006071800004-09400-038217FM-12+0253SBUF V0201401N003110021019N0020001N1+02021+01921101901ADDAA106000091AY151061AY221061GF108991061071002501071999KA1240M+02491MA1999999098991MD1999999+0101MW1031REMSYN100AAXX  18004 82986 21395 81406 10202 20192 39899 40190 70352 8677/ 333 10249 29090 55012 58010 69911;EQDQ01  00002PRCP06
0173829860999992006071812004-09400-038217FM-12+0253SBUF V0201401N003610450019N0100001N1+02161+01821101931ADDAA124000891GF107991041071004501081999KA1240N+01791MA1999999099011MD1999999-0021REMSYN082AAXX  18124 82986 22497 71407 10216 20182 39901 40193 8478/ 333 20179 59002 69984;
0182829860999992006071818004-09400-038217FM-12+0253SBUF V0200901N005110450019N0100001N1+02381+02091101531ADDAA106000591AY111061AY201061GF106991041021008001031001MA1999999098621MD1999999-0091MW1501REMSYN082AAXX  18184 82986 21597 60910 10238 20209 39862 40153 75010 84230 333 59009 69951;
0173829860999992006071912004-09400-038217FM-12+0253SBUF V0201401N003610075019N0100001N1+02201+01881101941ADDAA124002091GF106991061021008001001001KA1240N+01881MA1999999099021MD1999999+0011REMSYN082AAXX  19124 82986 22597 61407 10220 20188 39902 40194 86200 333 20188 58001 60024;
0137829860999992006071918004-09400-038217FM-12+0253SBUF V0201401N002112200019N0200001N1+02591+01871101561ADDGF103991031011008001001001MA1999999098671MD1999999+0051REMSYN070AAXX  19184 82986 32598 31404 10259 20187 39867 40156 83100 333 58005;
0178829860999992006072000004-09400-038217FM-12+0253SBUF V0200901N002112200019N0020001N1+02121+01971101801ADDGA1001+999999999GF100991001001999999001001KA1240M+02631MA1999999098891MD1999999+0001REMSYN082AAXX  20004 82986 32995 00904 10212 20197 39889 40180 333 10263 29082 55095 58000;
0156829860999992006072012004-09400-038217FM-12+0253SBUF V0200901N004110075019N0100001N1+02261+01921101951ADDGF106991051041008001001011KA1240N+01941MA1999999099041MD1999999+0021REMSYN076AAXX  20124 82986 32597 60908 10226 20192 39904 40195 85401 333 20194 58002;
0137829860999992006072018004-09400-038217FM-12+0253SBUF V0200901N003110075019N0200001N1+02671+01951101581ADDGF105991051011008001001001MA1999999098701MD1999999+0031REMSYN070AAXX  20184 82986 32598 50906 10267 20195 39870 40158 85100 333 58003;
0178829860999992006072100004-09400-038217FM-12+0253SBUF V0200901N001512200019N0020001N1+02151+01971101831ADDGA1001+999999999GF100991001001999999001001KA1240M+02701MA1999999098921MD1999999+0031REMSYN082AAXX  21004 82986 32995 00903 10215 20197 39892 40183 333 10270 29082 55069 58003;
0156829860999992006072112004-09400-038217FM-12+0253SBUF V0200901N002110042019N0100001N1+02101+01931102021ADDGF106991061071004501001001KA1240N+01901MA1999999099101MD1999999+0061REMSYN076AAXX  21124 82986 32497 60904 10210 20193 39910 40202 86700 333 20190 58006;
0137829860999992006072118004-09400-038217FM-12+0253SBUF V0201401N003110075019N0200001N1+02651+01831101601ADDGF105991051041008001001001MA1999999098711MD1999999+0011REMSYN070AAXX  21184 82986 32598 51406 10265 20183 39871 40160 85400 333 58001;
0178829860999992006072200004-09400-038217FM-12+0253SBUF V0201401N002612200019N0020001N1+02101+01801101891ADDGA1001+999999999GF100991001001999999001001KA1240M+02701MA1999999098971MD1999999+0051REMSYN082AAXX  22004 82986 32995 01405 10210 20180 39897 40189 333 10270 29080 55078 58005;
0156829860999992006072212004-09400-038217FM-12+0253SBUF V0201401N002112200019N0100001N1+02141+01761101921ADDGF104991021011008001031001KA1240N+01601MA1999999099001MD1999999-0101REMSYN076AAXX  22124 82986 32597 41404 10214 20176 39900 40192 82130 333 20160 59010;
0137829860999992006072218004-09400-038217FM-12+0253SBUF V0201401N004610450019N0100001N1+02361+01831101551ADDGF106991041081008001051001MA1999999098641MD1999999-0071REMSYN070AAXX  22184 82986 32597 61409 10236 20183 39864 40155 84850 333 59007;
0168829860999992006072300004-09400-038217FM-12+0253SBUF V0200901N001510075019N0020001N1+02161+01881101701ADDGF108991081051008001999999KA1240M+02511MA1999999098791MD1999999-0181REMSYN088AAXX  23004 82986 32595 80903 10216 20188 39879 40170 885// 333 10251 29080 55057 59018;
0201829860999992006072312004-09400-038217FM-12+0253SBUF V0201401N001510450019N0040001N1+02101+01951101721ADDAA124001091AY161061AY251061GF108991041071004501071999KA1240N+01841MA1999999098811MD1999999-0191MW1031REMSYN088AAXX  23124 82986 21496 81403 10210 20195 39881 40172 70365 8477/ 333 20184 59019 69994;
0137829860999992006072318004-09400-038217FM-12+0253SBUF V0200901N002610075019N0100001N1+02541+01931101301ADDGF108991061051008001071999MA1999999098421MD1999999-0221REMSYN070AAXX  23184 82986 32597 80905 10254 20193 39842 40130 8657/ 333 59022;
0232829860999992006072400004-09400-038217FM-12+0253SBUF V0201401N002610042019N0020001N1+02131+02021101561ADDAA106000091AY161061AY251061GF107991061071004501021001KA1240M+02601MA1999999098651MD1999999-0141MW1011REMSYN100AAXX  24004 82986 21495 71405 10213 20202 39865 40156 70165 86720 333 10260 29087 55019 59014 69921;EQDQ01  00002PRCP06
0201829860999992006072412004-09400-038217FM-12+0253SBUF V0201401N004110090019N0040001N1+02201+01921101691ADDAA124007191AY161061AY221061GF106991061081004501001001KA1240N+01981MA1999999098781MD1999999-0021MW1101REMSYN088AAXX  24124 82986 21496 61408 10220 20192 39878 40169 71062 86800 333 20198 59002 60074;
0137829860999992006072418004-09400-038217FM-12+0253SBUF V0201401N005110450019N0200001N1+02601+02011101361ADDGF106991041041008001041001MA1999999098481MD1999999+0061REMSYN070AAXX  24184 82986 32598 61410 10260 20201 39848 40136 84440 333 58006;
0213829860999992006072500004-09400-038217FM-12+0253SBUF V0200901N003110021019N0200001N1+02161+02041101591ADDAA106000891AY121061AY211061GF107991071071002501999999KA1240M+02731MA1999999098681MD1999999+0031MW1201REMSYN100AAXX  25004 82986 21398 70906 10216 20204 39868 40159 72021 877// 333 10273 29085 55053 58003 69981;
0201829860999992006072512004-09400-038217FM-12+0253SBUF V0201401N003110021019N0100001N1+02241+01991101631ADDAA124000891AY121061AY221061GF108991081071002501999999KA1240N+02051MA1999999098731MD1999999-0051MW1151REMSYN088AAXX  25124 82986 21397 81406 10224 20199 39873 40163 71522 887// 333 20205 59005 69984;
0137829860999992006072518004-09400-038217FM-12+0253SBUF V0201401N003110021019N0100001N1+02541+02111101331ADDGF108991081071002501999999MA1999999098451MD1999999-0031REMSYN070AAXX  25184 82986 32397 81406 10254 20211 39845 40133 887// 333 59003;
0213829860999992006072600004-09400-038217FM-12+0253SBUF V0200901N003112200019N0020001N1+02161+02041101581ADDAA106000391AY161061AY251061GF104991041001017501021001KA1240M+02611MA1999999098681MD1999999+0001MW1011REMSYN100AAXX  26004 82986 21795 40906 10216 20204 39868 40158 70165 84020 333 10261 29087 55011 58000 69931;
0201829860999992006072612004-09400-038217FM-12+0253SBUF V0200901N001010021019N0040001N1+02141+02041101631ADDAA124000591AY161061AY251061GF108991081071002501999999KA1240N+02001MA1999999098721MD1999999-0011MW1511REMSYN088AAXX  26124 82986 21396 80902 10214 20204 39872 40163 75165 887// 333 20200 59001 69954;
0182829860999992006072618004-09400-038217FM-12+0253SBUF V0200901N001510450019N0100001N1+02411+02261101331ADDAA106002091AY161061AY221061GF106991031031004501071001MA1999999098451MD1999999+0001MW1211REMSYN082AAXX  26184 82986 21497 60903 10241 20226 39845 40133 72162 83370 333 58000 60021;
0213829860999992006072700004-09400-038217FM-12+0253SBUF V0200901N002110042019N0020001N1+02101+02021101661ADDAA106006191AY161061AY251061GF108991081071004501999999KA1240M+02561MA1999999098751MD1999999+0071MW1201REMSYN100AAXX  27004 82986 21495 80904 10210 20202 39875 40166 72065 887// 333 10256 29094 55000 58007 60061;
0173829860999992006072712004-09400-038217FM-12+0253SBUF V0200901N003110075019N0200001N1+02301+02071101701ADDAA124007191GF106991061021008001001001KA1240N+02021MA1999999098801MD1999999+0081REMSYN082AAXX  27124 82986 22598 60906 10230 20207 39880 40170 86200 333 20202 58008 60074;
0137829860999992006072718004-09400-038217FM-12+0253SBUF V0200901N003110075019N0200001N1+02741+01971101391ADDGF105991051021008001001001MA1999999098531MD1999999+0081REMSYN070AAXX  27184 82986 32598 50906 10274 20197 39853 40139 85200 333 58008;
0178829860999992006072800004-09400-038217FM-12+0253SBUF V0201801N001512200019N0020001N1+02251+02121101611ADDGA1001+999999999GF100991001001999999001001KA1240M+02781MA1999999098711MD1999999-0041REMSYN082AAXX  28004 82986 32995 01803 10225 20212 39871 40161 333 10278 29084 55052 59004;
0220829860999992006072812004-09400-038217FM-12+0253SBUF V0201401N001510042019N0040001N1+02261+02091101761ADDAA124000091AY151061AY221061GF106991061071004501001001KA1240N+02001MA1999999098861MD1999999+0061MW1151REMSYN088AAXX  28124 82986 21496 61403 10226 20209 39886 40176 71552 86700 333 20200 58006 69904;EQDQ01  00002PRCP24
0137829860999992006072818004-09400-038217FM-12+0253SBUF V0201401N004110075019N0200001N1+02681+01971101351ADDGF106991061021008001001001MA1999999098481MD1999999-0051REMSYN070AAXX  28184 82986 32598 61408 10268 20197 39848 40135 86200 333 59005;
0178829860999992006072900004-09400-038217FM-12+0253SBUF V0200901N002112200019N0020001N1+02181+01881101541ADDGA1001+999999999GF100991001001999999001001KA1240M+02751MA1999999098641MD1999999-0071REMSYN082AAXX  29004 82986 32995 00904 10218 20188 39864 40154 333 10275 29080 55061 59007;
0156829860999992006072912004-09400-038217FM-12+0253SBUF V0201401N001510075019N0100001N1+02301+02071101661ADDGF106991061021008001001001KA1240N+01871MA1999999098761MD1999999-0101REMSYN076AAXX  29124 82986 32597 61403 10230 20207 39876 40166 86200 333 20187 59010;
0137829860999992006072918004-09400-038217FM-12+0253SBUF V0201401N003612200019N0200001N1+02801+01841101251ADDGF104991041011008001001001MA1999999098391MD1999999-0091REMSYN070AAXX  29184 82986 32598 41407 10280 20184 39839 40125 84100 333 59009;
0178829860999992006073000004-09400-038217FM-12+0253SBUF V0200901N001012200019N0020001N1+02201+01971101431ADDGA1001+999999999GF100991001001999999001001KA1240M+02821MA1999999098541MD1999999-0101REMSYN082AAXX  30004 82986 32995 00902 10220 20197 39854 40143 333 10282 29079 55094 59010;
0156829860999992006073012004-09400-038217FM-12+0253SBUF V0200901N000510042019N0100001N1+02461+01921101591ADDGF106991061051004501001001KA1240N+02081MA1999999098711MD1999999-0051REMSYN076AAXX  30124 82986 32497 60901 10246 20192 39871 40159 86500 333 20208 59005;
0137829860999992006073018004-09400-038217FM-12+0253SBUF V0200901N003612200019N0200001N1+03001+02291101251ADDGF102991021021008001001001MA1999999098401MD1999999+0011REMSYN070AAXX  30184 82986 32598 20907 10300 20229 39840 40125 82200 333 58001;
0178829860999992006073100004-09400-038217FM-12+0253SBUF V0200901N001012200019N0020001N1+02381+02191101541ADDGA1001+999999999GF100991001001999999001001KA1240M+03031MA1999999098661MD1999999+0121REMSYN082AAXX  31004 82986 32995 00902 10238 20219 39866 40154 333 10303 29079 55082 58012;
0201829860999992006073112004-09400-038217FM-12+0253SBUF V0201401N004110075019N0100001N1+02461+02071101931ADDAA124000391AY161061AY221061GF106991061021008001021001KA1240N+02181MA1999999099051MD1999999+0341MW1021REMSYN088AAXX  31124 82986 21597 61408 10246 20207 39905 40193 70262 86220 333 20218 58034 69934;
0137829860999992006073118004-09400-038217FM-12+0253SBUF V0201401N005712200019N0200001N1+02841+02141101601ADDGF102991021011008001001001MA1999999098741MD1999999+0341REMSYN070AAXX  31184 82986 32598 21411 10284 20214 39874 40160 82100 333 58034;
0178829860999992006080100004-09400-038217FM-12+0253SBUF V0200901N004612200019N0020001N1+02381+02221101891ADDGA1001+999999999GF100991001001999999001001KA1240M+02891MA1999999099011MD1999999+0351REMSYN082AAXX  01004 82986 32995 00909 10238 20222 39901 40189 333 10289 29080 55094 58035;
0156829860999992006080112004-09400-038217FM-12+0253SBUF V0200901N003610021019N0040001N1+02361+02111102111ADDGF108991081071002501999999KA1240N+02161MA1999999099211MD1999999+0161REMSYN076AAXX  01124 82986 32396 80907 10236 20211 39921 40211 887// 333 20216 58016;
0182829860999992006080118004-09400-038217FM-12+0253SBUF V0200901N002610075019N0100001N1+02721+02051101741ADDAA106005191AY161061AY221061GF106991061041008001001001MA1999999098861MD1999999+0121MW1021REMSYN082AAXX  01184 82986 21597 60905 10272 20205 39886 40174 70262 86400 333 58012 60051;
0178829860999992006080200004-09400-038217FM-12+0253SBUF V0200901N003112200019N0020001N1+02141+01901101971ADDGA1001+999999999GF100991001001999999001001KA1240M+02741MA1999999099061MD1999999+0051REMSYN082AAXX  02004 82986 32995 00906 10214 20190 39906 40197 333 10274 29081 55034 58005;
0201829860999992006080212004-09400-038217FM-12+0253SBUF V0201401N003110021019N0100001N1+02251+02031102031ADDAA124005191AY161061AY251061GF108991081071002501999999KA1240N+01841MA1999999099121MD1999999-0091MW1101REMSYN088AAXX  02124 82986 21397 81406 10225 20203 39912 40203 71065 887// 333 20184 59009 60054;
0137829860999992006080218004-09400-038217FM-12+0253SBUF V0201401N003611050019N0200001N1+02711+01881101561ADDGF105991021021008001041021MA1999999098671MD1999999-0191REMSYN070AAXX  02184 82986 32598 51407 10271 20188 39867 40156 82242 333 59019;
0168829860999992006080300004-09400-038217FM-12+0253SBUF V0200901N003112200019N0020001N1+02151+01911101911ADDGF104991041001012501051001KA1240M+02791MA1999999099001MD1999999-0061REMSYN088AAXX  03004 82986 32695 40906 10215 20191 39900 40191 84050 333 10279 29081 55065 59006;
0156829860999992006080312004-09400-038217FM-12+0253SBUF V0200901N005110042019N0100001N1+02351+02001101971ADDGF106991061071004501001001KA1240N+01931MA1999999099061MD1999999-0061REMSYN076AAXX  03124 82986 32497 60910 10235 20200 39906 40197 86700 333 20193 59006;
0137829860999992006080318004-09400-038217FM-12+0253SBUF V0201401N005112200019N0200001N1+02791+01911101471ADDGF106991041021008001001011MA1999999098601MD1999999-0071REMSYN070AAXX  03184 82986 32598 61410 10279 20191 39860 40147 84201 333 59007;
0168829860999992006080400004-09400-038217FM-12+0253SBUF V0201801N003112200019N0020001N1+02161+01921101861ADDGF103991031041008001001001KA1240M+02801MA1999999098961MD1999999-0041REMSYN088AAXX  04004 82986 32595 31806 10216 20192 39896 40186 83400 333 10280 29078 55085 59004;
0156829860999992006080412004-09400-038217FM-12+0253SBUF V0200901N005110042019N0100001N1+02301+02001101901ADDGF106991061021004501001001KA1240N+01851MA1999999099001MD1999999-0061REMSYN076AAXX  04124 82986 32497 60910 10230 20200 39900 40190 86200 333 20185 59006;
0137829860999992006080418004-09400-038217FM-12+0253SBUF V0201401N006212200019N0200001N1+02761+01691101441ADDGF104991041011008001001001MA1999999098561MD1999999-0041REMSYN070AAXX  04184 82986 32598 41412 10276 20169 39856 40144 84100 333 59004;
0178829860999992006080500004-09400-038217FM-12+0253SBUF V0201401N003112200019N0020001N1+02041+01761101781ADDGA1001+999999999GF100991001001999999001001KA1240M+02791MA1999999098871MD1999999-0091REMSYN082AAXX  05004 82986 32995 01406 10204 20176 39887 40178 333 10279 29076 55084 59009;
0220829860999992006080512004-09400-038217FM-12+0253SBUF V0200901N002610042019N0040001N1+02091+01911101931ADDAA124000091AY151061AY221061GF107991061071004501081999KA1240N+01701MA1999999099001MD1999999+0001MW1021REMSYN088AAXX  05124 82986 21496 70905 10209 20191 39900 40193 70252 8678/ 333 20170 58000 69904;EQDQ01  00002PRCP24
0137829860999992006080518004-09400-038217FM-12+0253SBUF V0200901N005712200019N0200001N1+02761+01661101491ADDGF104991041011008001001001MA1999999098301MD1999999+0041REMSYN070AAXX  05184 82986 32598 40911 10276 20166 39830 40149 84100 333 58004;
0178829860999992006080600004-09400-038217FM-12+0253SBUF V0201401N004112200019N0020001N1+02151+01801101841ADDGA1001+999999999GF100991001001999999001001KA1240M+02791MA1999999098921MD1999999+0051REMSYN082AAXX  06004 82986 32995 01408 10215 20180 39892 40184 333 10279 29077 55079 58005;
0156829860999992006080612004-09400-038217FM-12+0253SBUF V0200901N004610075019N0100001N1+02201+01921101911ADDGF105991051041008001001001KA1240N+01861MA1999999099001MD1999999+0001REMSYN076AAXX  06124 82986 32597 50909 10220 20192 39900 40191 85400 333 20186 58000;
0137829860999992006080618004-09400-038217FM-12+0253SBUF V0200901N006212200019N0200001N1+02681+01641101511ADDGF104991041011008001001001MA1999999098631MD1999999+0031REMSYN070AAXX  06184 82986 32598 40912 10268 20164 39863 40151 84100 333 58003;
0168829860999992006080700004-09400-038217FM-12+0253SBUF V0200901N003112200019N0020001N1+02141+01781101761ADDGF103991031001017501051001KA1240M+02811MA1999999098851MD1999999-0071REMSYN088AAXX  07004 82986 32795 30906 10214 20178 39885 40176 83050 333 10281 29074 55090 59007;
0156829860999992006080712004-09400-038217FM-12+0253SBUF V0201801N003610021019N0040001N1+02201+01861101751ADDGF108991081071002501999999KA1240N+01841MA1999999098851MD1999999-0151REMSYN076AAXX  07124 82986 32396 81807 10220 20186 39885 40175 887// 333 20184 59015;
0182829860999992006080718004-09400-038217FM-12+0253SBUF V0201401N003110042019N0100001N1+02281+02141101511ADDAA106001091AY161061AY251061GF108991081071004501999999MA1999999098601MD1999999-0031MW1151REMSYN082AAXX  07184 82986 21497 81406 10228 20214 39860 40151 71565 887// 333 59003 60011;
0213829860999992006080800004-09400-038217FM-12+0253SBUF V0200901N005110060019N0010001N1+02071+01991101721ADDAA106007191AY161061AY261061GF108991081081002501999999KA1240M+02461MA1999999098811MD1999999-0041MW1631REMSYN100AAXX  08004 82986 21394 80910 10207 20199 39881 40172 76366 888// 333 10246 29091 55002 59004 60071;
0201829860999992006080812004-09400-038217FM-12+0253SBUF V0200901N004110042019N0100001N1+02201+02051101761ADDAA124007991AY161061AY251061GF106991061071004501001001KA1240N+01941MA1999999098851MD1999999+0001MW1101REMSYN088AAXX  08124 82986 21497 60908 10220 20205 39885 40176 71065 86700 333 20194 58000 60084;
0137829860999992006080818004-09400-038217FM-12+0253SBUF V0200901N004112200019N0200001N1+02731+01741101321ADDGF104991041021008001001001MA1999999098451MD1999999-0151REMSYN070AAXX  08184 82986 32598 40908 10273 20174 39845 40132 84200 333 59015;
0207829860999992006080912004-09400-038217FM-12+0253SBUF V0200901N002610042019N0040001N1+02151+02021101771ADDAA124000021AY121061AY221061GF108991081071004501999999KA1240N+01881MA1999999098861MD1999999+0011MW1201REMSYN094AAXX  09124 82986 21496 80905 10215 20202 39886 40177 72022 887// 333 20188 58001 69904 69999;
0165829860999992006080918004-09400-038217FM-12+0253SBUF V0201401N005110090019N0100001N1+02741+02071101401ADDAY151061AY221061GF106991051081004501061001MA1999999098521MD1999999+0071MW1151REMSYN076AAXX  09184 82986 31497 61410 10274 20207 39852 40140 71552 85860 333 58007;
0213829860999992006081000004-09400-038217FM-12+0253SBUF V0201401N003110021019N0020001N1+02161+02161101711ADDAA106002091AY161061AY221061GF108991081071002501999999KA1240M+02761MA1999999098801MD1999999-0011MW1501REMSYN100AAXX  10004 82986 21395 81406 10216 20216 39880 40171 75062 887// 333 10276 29090 55043 59001 60021;
0201829860999992006081012004-09400-038217FM-12+0253SBUF V0201801N003110042019N0040001N1+02271+02051101831ADDAA124003091AY161061AY251061GF108991081071004501999999KA1240N+02011MA1999999098921MD1999999+0061MW1031REMSYN088AAXX  10124 82986 21496 81806 10227 20205 39892 40183 70365 887// 333 20201 58006 60034;
0201829860999992006081112004-09400-038217FM-12+0253SBUF V0200901N003110450019N0100001N1+02251+01901101771ADDAA124000591AY151061AY221061GF107991041071004501071999KA1240N+01881MA1999999098871MD1999999-0051MW1021REMSYN088AAXX  11124 82986 21497 70906 10225 20190 39887 40177 70252 8477/ 333 20188 59005 69944;
0137829860999992006081118004-09400-038217FM-12+0253SBUF V0201401N003610450019N0200001N1+02641+01751101441ADDGF106991021011008001041001MA1999999098551MD1999999+0001REMSYN070AAXX  11184 82986 32598 61407 10264 20175 39855 40144 82140 333 58000;
0201829860999992006081212004-09400-038217FM-12+0253SBUF V0200901N004610450019N0100001N1+02401+01801101831ADDAA124000391AY151061AY221061GF106991041041008001031001KA1240N+01981MA1999999098941MD1999999+0071MW1021REMSYN088AAXX  12124 82986 21597 60909 10240 20180 39894 40183 70252 84430 333 20198 58007 69934;
0137829860999992006081218004-09400-038217FM-12+0253SBUF V0200901N005710450019N0200001N1+02821+01771101441ADDGF105991021011008001041001MA1999999098571MD1999999+0021REMSYN070AAXX  12184 82986 32598 50911 10282 20177 39857 40144 82140 333 58002;
0168829860999992006081300004-09400-038217FM-12+0253SBUF V0201401N003112200019N0020001N1+02241+01861101711ADDGF103991031001017501021001KA1240M+02871MA1999999098821MD1999999+0061REMSYN088AAXX  13004 82986 32795 31406 10224 20186 39882 40171 83020 333 10287 29070 55104 58006;
0201829860999992006081312004-09400-038217FM-12+0253SBUF V0200901N003110042019N0040001N1+02231+02031101781ADDAA124001091AY161061AY221061GF106991061071004501001001KA1240N+01981MA1999999098881MD1999999-0061MW1101REMSYN088AAXX  13124 82986 21496 60906 10223 20203 39888 40178 71062 86700 333 20198 59006 60014;
0182829860999992006081318004-09400-038217FM-12+0253SBUF V0200901N003110075019N0100001N1+02651+02001101451ADDAA106000591AY161061AY221061GF106991061041008001001001MA1999999098571MD1999999+0001MW1021REMSYN082AAXX  13184 82986 21597 60906 10265 20200 39857 40145 70262 86400 333 58000 69961;
0178829860999992006081400004-09400-038217FM-12+0253SBUF V0200901N003112200019N0020001N1+02171+01861101641ADDGA1001+999999999GF100991001001999999001001KA1240M+02691MA1999999098761MD1999999-0061REMSYN082AAXX  14004 82986 32995 00906 10217 20186 39876 40164 333 10269 29081 55038 59006;
0173829860999992006081412004-09400-038217FM-12+0253SBUF V0201401N002110042019N0040001N1+02181+01921101801ADDAA124000591GF108991081071004501999999KA1240N+01821MA1999999098891MD1999999+0011REMSYN082AAXX  14124 82986 22496 81404 10218 20192 39889 40180 887// 333 20182 58001 69964;
0137829860999992006081418004-09400-038217FM-12+0253SBUF V0200901N003110450019N0200001N1+02791+01931101341ADDGF105991031011008001031001MA1999999098461MD1999999-0111REMSYN070AAXX  14184 82986 32598 50906 10279 20193 39846 40134 83130 333 59011;
0168829860999992006081500004-09400-038217FM-12+0253SBUF V0201801N003119999999N0020001N1+02241+02121101601ADDGF106991061001008001071001KA1240M+02831MA1999999098701MD1999999-0061REMSYN088AAXX  15004 82986 32595 61806 10224 20212 39870 40160 86070 333 10283 29083 55071 59006;
0201829860999992006081512004-09400-038217FM-12+0253SBUF V0200901N002610075019N0100001N1+02361+02171101721ADDAA124002091AY161061AY221061GF106991061041008001001001KA1240N+02081MA1999999098831MD1999999-0061MW1021REMSYN088AAXX  15124 82986 21597 60905 10236 20217 39883 40172 70262 86400 333 20208 59006 60024;
0137829860999992006081518004-09400-038217FM-12+0253SBUF V0200901N003110075019N0200001N1+02841+02191101281ADDGF106991051021008001041001MA1999999098421MD1999999-0041REMSYN070AAXX  15184 82986 32598 60906 10284 20219 39842 40128 85240 333 59004;
0168829860999992006081600004-09400-038217FM-12+0253SBUF V0201401N003110075019N0020001N1+02321+02151101581ADDGF106991061051008001001001KA1240M+02891MA1999999098701MD1999999+0001REMSYN088AAXX  16004 82986 32595 61406 10232 20215 39870 40158 86500 333 10289 29084 55052 58000;
0184829860999992006081612004-09400-038217FM-12+0253SBUF V0200901N006210042019N0100001N1+02341+01931101761ADDAY121061AY221061GF106991061071004501001001KA1240N+02081MA1999999098871MD1999999+0041MW1101REMSYN082AAXX  16124 82986 31497 60912 10234 20193 39887 40176 71022 86700 333 20208 58004;
0137829860999992006081618004-09400-038217FM-12+0253SBUF V0200901N005110450019N0200001N1+02761+01861101321ADDGF105991031021008001031001MA1999999098461MD1999999+0041REMSYN070AAXX  16184 82986 32598 50910 10276 20186 39846 40132 83230 333 58004;
0178829860999992006081700004-09400-038217FM-12+0253SBUF V0201401N003112200019N0020001N1+02211+01781101731ADDGA1001+999999999GF100991001001999999001001KA1240M+02921MA1999999098841MD1999999+0141REMSYN082AAXX  17004 82986 32995 01406 10221 20178 39884 40173 333 10292 29072 55093 58014;
0220829860999992006081712004-09400-038217FM-12+0253SBUF V0201401N002610042019N0100001N1+02161+01951101841ADDAA124000091AY151061AY221061GF108991061071004501081999KA1240N+01701MA1999999098931MD1999999+0061MW1021REMSYN088AAXX  17124 82986 21497 81405 10216 20195 39893 40184 70252 8678/ 333 20170 58006 69904;EQDQ01  00002PRCP24
0137829860999992006081718004-09400-038217FM-12+0253SBUF V0200901N005712200019N0200001N1+02761+01831101351ADDGF104991041011008001001001MA1999999098641MD1999999+0001REMSYN070AAXX  17184 82986 32598 40911 10276 20183 39864 40135 84100 333 58000;
0168829860999992006081800004-09400-038217FM-12+0253SBUF V0200901N006212200019N0020001N1+02351+01891101621ADDGF103991031001017501021001KA1240M+02851MA1999999098731MD1999999-0111REMSYN088AAXX  18004 82986 32795 30912 10235 20189 39873 40162 83020 333 10285 29074 55065 59011;
0156829860999992006081812004-09400-038217FM-12+0253SBUF V0201401N003610075019N0100001N1+02381+01911101711ADDGF107991061021008001051999KA1240N+01981MA1999999098831MD1999999-0101REMSYN076AAXX  18124 82986 32597 71407 10238 20191 39883 40171 8625/ 333 20198 59010;
0137829860999992006081818004-09400-038217FM-12+0253SBUF V0200901N005110450019N0200001N1+02841+01881101301ADDGF106991031011008001041001MA1999999098431MD1999999-0031REMSYN070AAXX  18184 82986 32598 60910 10284 20188 39843 40130 83140 333 59003;
0220829860999992006081912004-09400-038217FM-12+0253SBUF V0201401N003110042019N0100001N1+02181+01941101731ADDAA124000091AY151061AY221061GF106991061071004501001001KA1240N+01901MA1999999098831MD1999999+0001MW1011REMSYN088AAXX  19124 82986 21497 61406 10218 20194 39883 40173 70152 86700 333 20190 58000 69924;EQDQ01  00002PRCP24
0137829860999992006081918004-09400-038217FM-12+0253SBUF V0200901N003110450019N0200001N1+02781+01911101231ADDGF105991031011008001041001MA1999999098361MD1999999-0071REMSYN070AAXX  19184 82986 32598 50906 10278 20191 39836 40123 83140 333 59007;
0178829860999992006082000004-09400-038217FM-12+0253SBUF V0200901N003112200019N0020001N1+02271+01961101541ADDGA1001+999999999GF100991001001999999001001KA1240M+02861MA1999999098641MD1999999-0031REMSYN082AAXX  20004 82986 32995 00906 10227 20196 39864 40154 333 10286 29078 55083 59003;
0156829860999992006082012004-09400-038217FM-12+0253SBUF V0200901N003110075019N0100001N1+02321+01981101771ADDGF105991051041008001001001KA1240N+01861MA1999999098881MD1999999+0051REMSYN076AAXX  20124 82986 32597 50906 10232 20198 39888 40177 85400 333 20186 58005;
0137829860999992006082018004-09400-038217FM-12+0253SBUF V0201401N005112200019N0200001N1+02851+01851101231ADDGF104991041011008001001001MA1999999098361MD1999999+0001REMSYN070AAXX  20184 82986 32598 41410 10285 20185 39836 40123 84100 333 58000;
0178829860999992006082100004-09400-038217FM-12+0253SBUF V0200901N002112200019N0020001N1+02271+01881101581ADDGA1001+999999999GF100991001001999999001001KA1240M+02901MA1999999098691MD1999999+0051REMSYN082AAXX  21004 82986 32995 00904 10227 20188 39869 40158 333 10290 29074 55100 58005;
0156829860999992006082112004-09400-038217FM-12+0253SBUF V0200901N002112200019N0100001N1+02171+01901101731ADDGF104991041011008001001001KA1240N+01831MA1999999098831MD1999999-0051REMSYN076AAXX  21124 82986 32597 40904 10217 20190 39883 40173 84100 333 20183 59005;
0137829860999992006082118004-09400-038217FM-12+0253SBUF V0200901N003112200019N0200001N1+03081+01851101171ADDGF101991001001999999001011MA1999999098311MD1999999-0051REMSYN070AAXX  21184 82986 32998 10906 10308 20185 39831 40117 80001 333 59005;
0178829860999992006082200004-09400-038217FM-12+0253SBUF V0200901N001012200019N0020001N1+02271+01841101491ADDGA1001+999999999GF100991001001999999001001KA1240M+03081MA1999999098591MD1999999-0101REMSYN082AAXX  22004 82986 32995 00902 10227 20184 39859 40149 333 10308 29072 55086 59010;
0156829860999992006082212004-09400-038217FM-12+0253SBUF V0200901N002610075019N0100001N1+02381+02011101871ADDGF106991061021008001001001KA1240N+01991MA1999999098971MD1999999+0141REMSYN076AAXX  22124 82986 32597 60905 10238 20201 39897 40187 86200 333 20199 58014;
0137829860999992006082218004-09400-038217FM-12+0253SBUF V0200901N005710075019N0200001N1+02961+01741101371ADDGF105991051011008001001001MA1999999098511MD1999999+0201REMSYN070AAXX  22184 82986 32598 50911 10296 20174 39851 40137 85100 333 58020;
0178829860999992006082300004-09400-038217FM-12+0253SBUF V0201401N004112200019N0020001N1+02321+01911101761ADDGA1001+999999999GF100991001001999999001001KA1240M+03091MA1999999098871MD1999999+0281REMSYN082AAXX  23004 82986 32995 01408 10232 20191 39887 40176 333 10309 29072 55089 58028;
0184829860999992006082312004-09400-038217FM-12+0253SBUF V0200901N005110060019N0040001N1+02401+02071101931ADDAY121061AY221061GF107991061081002501081999KA1240N+02081MA1999999099041MD1999999+0071MW1151REMSYN082AAXX  23124 82986 31396 70910 10240 20207 39904 40193 71522 8688/ 333 20208 58007;
0137829860999992006082318004-09400-038217FM-12+0253SBUF V0200901N006212200019N0200001N1+03051+01751101431ADDGF103991031011008001001001MA1999999098581MD1999999+0071REMSYN070AAXX  23184 82986 32598 30912 10305 20175 39858 40143 83100 333 58007;
0178829860999992006082400004-09400-038217FM-12+0253SBUF V0200901N003612200019N0020001N1+02301+02001101701ADDGA1001+999999999GF100991001001999999001001KA1240M+03071MA1999999098821MD1999999-0051REMSYN082AAXX  24004 82986 32995 00907 10230 20200 39882 40170 333 10307 29074 55086 59005;
0220829860999992006082412004-09400-038217FM-12+0253SBUF V0200901N003110075019N0100001N1+02381+01911101891ADDAA124000091AY151061AY221061GF106991061021008001001001KA1240N+01981MA1999999099001MD1999999-0041MW1021REMSYN088AAXX  24124 82986 21597 60906 10238 20191 39900 40189 70252 86200 333 20198 59004 69914;EQDQ01  00002PRCP24
0137829860999992006082418004-09400-038217FM-12+0253SBUF V0200901N004112200019N0200001N1+02961+01641101441ADDGF104991011011008001041001MA1999999098581MD1999999+0001REMSYN070AAXX  24184 82986 32598 40908 10296 20164 39858 40144 81140 333 58000;
0178829860999992006082500004-09400-038217FM-12+0253SBUF V0201401N005712200019N0020001N1+02281+01771101761ADDGA1001+999999999GF100991001001999999001001KA1240M+02971MA1999999098871MD1999999+0051REMSYN082AAXX  25004 82986 32995 01411 10228 20177 39887 40176 333 10297 29066 55096 58005;
0156829860999992006082512004-09400-038217FM-12+0253SBUF V0201401N004112200019N0100001N1+02461+01831101781ADDGF103991031021008001001001KA1240N+01881MA1999999098891MD1999999-0111REMSYN076AAXX  25124 82986 32597 31408 10246 20183 39889 40178 83200 333 20188 59011;
0137829860999992006082518004-09400-038217FM-12+0253SBUF V0200901N005710450019N0200001N1+02911+01841101331ADDGF106991031021008001041001MA1999999098461MD1999999-0121REMSYN070AAXX  25184 82986 32598 60911 10291 20184 39846 40133 83240 333 59012;
0168829860999992006082600004-09400-038217FM-12+0253SBUF V0200901N005712200019N0020001N1+02251+01841101651ADDGF104991041001017501051001KA1240M+03011MA1999999098771MD1999999-0101REMSYN088AAXX  26004 82986 32795 40911 10225 20184 39877 40165 84050 333 10301 29069 55095 59010;
0156829860999992006082612004-09400-038217FM-12+0253SBUF V0200901N004110042019N0040001N1+02331+01911101751ADDGF108991081071004501999999KA1240N+01981MA1999999098861MD1999999-0031REMSYN076AAXX  26124 82986 32496 80908 10233 20191 39886 40175 887// 333 20198 59003;
0137829860999992006082618004-09400-038217FM-12+0253SBUF V0200901N006212200019N0200001N1+02961+01641101221ADDGF103991011011008001041001MA1999999098361MD1999999-0101REMSYN070AAXX  26184 82986 32598 30912 10296 20164 39836 40122 81140 333 59010;
0178829860999992006082700004-09400-038217FM-12+0253SBUF V0201401N003112200019N0020001N1+02251+01711101571ADDGA1001+999999999GF100991001001999999001001KA1240M+03011MA1999999098681MD1999999-0091REMSYN082AAXX  27004 82986 32995 01406 10225 20171 39868 40157 333 10301 29067 55067 59009;
0184829860999992006082712004-09400-038217FM-12+0253SBUF V0200901N003110075019N0100001N1+02281+01961101721ADDAY121061AY221061GF106991061041008001001001KA1240N+01881MA1999999098821MD1999999-0041MW1101REMSYN082AAXX  27124 82986 31597 60906 10228 20196 39882 40172 71022 86400 333 20188 59004;
0137829860999992006082718004-09400-038217FM-12+0253SBUF V0200901N005112200019N0200001N1+03051+01571101211ADDGF104991041011008001001001MA1999999098351MD1999999-0011REMSYN070AAXX  27184 82986 32598 40910 10305 20157 39835 40121 84100 333 59001;
0168829860999992006082800004-09400-038217FM-12+0253SBUF V0200901N000512200019N0020001N1+02351+01981101481ADDGF104991041001017501021001KA1240M+03071MA1999999098601MD1999999-0081REMSYN088AAXX  28004 82986 32795 40901 10235 20198 39860 40148 84020 333 10307 29071 55086 59008;
0156829860999992006082812004-09400-038217FM-12+0253SBUF V0200901N004110075019N0100001N1+02351+01951101651ADDGF106991061021008001001001KA1240N+01861MA1999999098771MD1999999-0051REMSYN076AAXX  28124 82986 32597 60908 10235 20195 39877 40165 86200 333 20186 59005;
0137829860999992006082818004-09400-038217FM-12+0253SBUF V0201401N002112200019N0200001N1+03081+01841101181ADDGF103991031011008001001001MA1999999098331MD1999999-0021REMSYN070AAXX  28184 82986 32598 31404 10308 20184 39833 40118 83100 333 59002;
0178829860999992006082900004-09400-038217FM-12+0253SBUF V0200901N005712200019N0020001N1+02381+01731101501ADDGA1001+999999999GF100991001001999999001001KA1240M+03151MA1999999098621MD1999999+0021REMSYN082AAXX  29004 82986 32995 00911 10238 20173 39862 40150 333 10315 29064 55101 58002;
0156829860999992006082912004-09400-038217FM-12+0253SBUF V0200901N003610075019N0100001N1+02441+01881101621ADDGF105991051041008001001001KA1240N+02041MA1999999098741MD1999999-0031REMSYN076AAXX  29124 82986 32597 50907 10244 20188 39874 40162 85400 333 20204 59003;
0137829860999992006082918004-09400-038217FM-12+0253SBUF V0203601N002112200019N0200001N1+03131+01891101171ADDGF103991031011008001001001MA1999999098331MD1999999+0001REMSYN070AAXX  29184 82986 32598 33604 10313 20189 39833 40117 83100 333 58000;
0178829860999992006083000004-09400-038217FM-12+0253SBUF V0200901N003612200019N0020001N1+02441+01811101381ADDGA1001+999999999GF100991001001999999001001KA1240M+03191MA1999999098521MD1999999-0101REMSYN082AAXX  30004 82986 32995 00907 10244 20181 39852 40138 333 10319 29064 55097 59010;
0156829860999992006083012004-09400-038217FM-12+0253SBUF V0200901N003112200019N0100001N1+02481+02011101661ADDGF104991041011008001001001KA1240N+02201MA1999999098791MD1999999+0051REMSYN076AAXX  30124 82986 32597 40906 10248 20201 39879 40166 84100 333 20220 58005;
0137829860999992006083018004-09400-038217FM-12+0253SBUF V0200901N003110450019N0200001N1+03021+01961101211ADDGF106991041021008001031011MA1999999098361MD1999999+0031REMSYN070AAXX  30184 82986 32598 60906 10302 20196 39836 40121 84231 333 58003;
0178829860999992006083100004-09400-038217FM-12+0253SBUF V0200901N005712200019N0020001N1+02441+01951101681ADDGA1001+999999999GF100991001001999999001001KA1240M+03171MA1999999098811MD1999999+0291REMSYN082AAXX  31004 82986 32995 00911 10244 20195 39881 40168 333 10317 29069 55084 58029;
0156829860999992006083112004-09400-038217FM-12+0253SBUF V0201401N005110450019N0100001N1+02501+01871101801ADDGF106991041041008001051011KA1240N+01961MA1999999098921MD1999999+0131REMSYN076AAXX  31124 82986 32597 61410 10250 20187 39892 40180 84451 333 20196 58013;
0182829860999992006083118004-09400-038217FM-12+0253SBUF V0200901N001510042019N0040001N1+02211+02131101571ADDAA106004191AY161061AY251061GF108991081071004501999999MA1999999098661MD1999999+0301MW1031REMSYN082AAXX  31184 82986 21496 80903 10221 20213 39866 40157 70365 887// 333 58030 60041;
0213829860999992006090100004-09400-038217FM-12+0253SBUF V0200901N005110042019N0020001N1+02151+02001101761ADDAA106002091AY161061AY251061GF108991081071004501999999KA1240M+02781MA1999999098871MD1999999+0061MW1031REMSYN100AAXX  01004 82986 21495 80910 10215 20200 39887 40176 70365 887// 333 10278 29087 55042 58006 60021;
0201829860999992006090112004-09400-038217FM-12+0253SBUF V0201801N004110450019N0100001N1+02211+01741101761ADDAA124007191AY161061AY221061GF107991041021008001031021KA1240N+01881MA1999999098861MD1999999-0121MW1101REMSYN088AAXX  01124 82986 21597 71808 10221 20174 39886 40176 71062 84232 333 20188 59012 60074;
0137829860999992006090118004-09400-038217FM-12+0253SBUF V0200901N003610450019N0100001N1+02551+01681101281ADDGF107991041051008001051001MA1999999098401MD1999999-0261REMSYN070AAXX  01184 82986 32597 70907 10255 20168 39840 40128 84550 333 59026;
0168829860999992006090200004-09400-038217FM-12+0253SBUF V0200901N006710075019N0020001N1+02231+01781101521ADDGF106991061051008001001001KA1240M+02701MA1999999098621MD1999999-0191REMSYN088AAXX  02004 82986 32595 60913 10223 20178 39862 40152 86500 333 10270 29072 55051 59019;
0156829860999992006090212004-09400-038217FM-12+0253SBUF V0200901N001510075019N0100001N1+02381+01821101591ADDGF105991051011008001001001KA1240N+01921MA1999999098701MD1999999-0161REMSYN076AAXX  02124 82986 32597 50903 10238 20182 39870 40159 85100 333 20192 59016;
0156829860999992006090218004-09400-038217FM-12+0253SBUF V0201401N003112200019N0200001N1+03081+01881100881ADDGF101991011011008001001001MA1999999091042MD1999999-0361REMSYN070AAXX  02184 82986 32598 11406 10308 20188 39104 40088 81100 333 59036;EQDQ01+091043APOSP 
0156829860999992006090312004-09400-038217FM-12+0253SBUF V0200901N001510450019N0100001N1+02441+02011101421ADDGF105991031011008001061001KA1240N+02071MA1999999098551MD1999999-0151REMSYN076AAXX  03124 82986 32597 50903 10244 20201 39855 40142 83160 333 20207 59015;
0137829860999992006090318004-09400-038217FM-12+0253SBUF V0201801N002612200019N0200001N1+03391+01911100821ADDGF103991031011008001001001MA1999999098011MD1999999-0031REMSYN070AAXX  03184 82986 32598 31805 10339 20191 39801 40082 83100 333 59003;
0178829860999992006090400004-09400-038217FM-12+0253SBUF V0201401N003612200019N0020001N1+02561+02061101221ADDGA1001+999999999GF100991001001999999001001KA1240M+03411MA1999999098361MD1999999+0051REMSYN082AAXX  04004 82986 32995 01407 10256 20206 39836 40122 333 10341 29067 55097 58005;
0156829860999992006090412004-09400-038217FM-12+0253SBUF V0201401N002110075019N0200001N1+02701+02061101481ADDGF106991061021008001001001KA1240N+02191MA1999999098631MD1999999+0081REMSYN076AAXX  04124 82986 32598 61404 10270 20206 39863 40148 86200 333 20219 58008;
0137829860999992006090418004-09400-038217FM-12+0253SBUF V0201401N002112200019N0200001N1+03391+01911100931ADDGF101991011011008001001001MA1999999098131MD1999999+0121REMSYN070AAXX  04184 82986 32598 11404 10339 20191 39813 40093 81100 333 58012;
0178829860999992006090500004-09400-038217FM-12+0253SBUF V0201401N005112200019N0020001N1+02561+02131101381ADDGA1001+999999999GF100991001001999999001001KA1240M+03411MA1999999098541MD1999999+0181REMSYN082AAXX  05004 82986 32995 01410 10256 20213 39854 40138 333 10341 29066 55102 58018;
0156829860999992006090512004-09400-038217FM-12+0253SBUF V0202301N001012200019N0200001N1+02451+01921101631ADDGF104991031011008001001011KA1240N+02081MA1999999098761MD1999999+0131REMSYN076AAXX  05124 82986 32598 42302 10245 20192 39876 40163 83101 333 20208 58013;
0137829860999992006090518004-09400-038217FM-12+0253SBUF V0200901N003112200019N0200001N1+03431+01941101061ADDGF103991011011008001001021MA1999999098241MD1999999+0111REMSYN070AAXX  05184 82986 32598 30906 10343 20194 39824 40106 81102 333 58011;
0178829860999992006090600004-09400-038217FM-12+0253SBUF V0201401N005112200019N0020001N1+02661+02001101501ADDGA1001+999999999GF100991001001999999001001KA1240M+03461MA1999999098651MD1999999+0111REMSYN082AAXX  06004 82986 32995 01410 10266 20200 39865 40150 333 10346 29062 55092 58011;
0156829860999992006090612004-09400-038217FM-12+0253SBUF V0201401N004610450019N0100001N1+02581+01941101821ADDGF107991041041008001051999KA1240N+02141MA1999999098961MD1999999+0201REMSYN076AAXX  06124 82986 32597 71409 10258 20194 39896 40182 8445/ 333 20214 58020;
0137829860999992006090618004-09400-038217FM-12+0253SBUF V0200901N006212200019N0200001N1+02971+01931101361ADDGF104991041051008001001001MA1999999098511MD1999999+0271REMSYN070AAXX  06184 82986 32598 40912 10297 20193 39851 40136 84500 333 58027;
0168829860999992006090700004-09400-038217FM-12+0253SBUF V0200901N005110075019N0020001N1+02491+01851101751ADDGF106991061051008001001001KA1240M+03161MA1999999098891MD1999999+0241REMSYN088AAXX  07004 82986 32595 60910 10249 20185 39889 40175 86500 333 10316 29064 55087 58024;
0156829860999992006090712004-09400-038217FM-12+0253SBUF V0200901N004110075019N0100001N1+02401+01951101841ADDGF106991061021008001001001KA1240N+01981MA1999999098961MD1999999+0001REMSYN076AAXX  07124 82986 32597 60908 10240 20195 39896 40184 86200 333 20198 58000;
0137829860999992006090718004-09400-038217FM-12+0253SBUF V0201401N005712200019N0200001N1+03001+01531101321ADDGF102991021001012501041001MA1999999098461MD1999999-0061REMSYN070AAXX  07184 82986 32698 21411 10300 20153 39846 40132 82040 333 59006;
0178829860999992006090800004-09400-038217FM-12+0253SBUF V0200901N005112200019N0020001N1+02331+01741101781ADDGA1001+999999999GF100991001001999999001001KA1240M+03141MA1999999098891MD1999999+0001REMSYN082AAXX  08004 82986 32995 00910 10233 20174 39889 40178 333 10314 29064 55092 58000;
0156829860999992006090812004-09400-038217FM-12+0253SBUF V0200901N002610042019N0040001N1+02401+01891101791ADDGF108991081071004501999999KA1240N+01971MA1999999098901MD1999999-0061REMSYN076AAXX  08124 82986 32496 80905 10240 20189 39890 40179 887// 333 20197 59006;
0182829860999992006090818004-09400-038217FM-12+0253SBUF V0201401N006710042019N0020001N1+02181+02151101611ADDAA106004191AY161061AY251061GF108991081071004501999999MA1999999098701MD1999999+0241MW1611REMSYN082AAXX  08184 82986 21495 81413 10218 20215 39870 40161 76165 887// 333 58024 60041;
0213829860999992006090900004-09400-038217FM-12+0253SBUF V0201401N003110042019N0020001N1+01931+01891101921ADDAA106022191AY161061AY261061GF108991081071004501999999KA1240M+02731MA1999999099011MD1999999+0121MW1611REMSYN100AAXX  09004 82986 21495 81406 10193 20189 39901 40192 76166 887// 333 10273 29092 55013 58012 60221;
0201829860999992006090912004-09400-038217FM-12+0253SBUF V0201801N005110060019N0020001N1+02151+01861101881ADDAA124027991AY161061AY251061GF108991081081002501999999KA1240N+01881MA1999999098951MD1999999+0051MW1501REMSYN088AAXX  09124 82986 21395 81810 10215 20186 39895 40188 75065 888// 333 20188 58005 60284;
0182829860999992006090918004-09400-038217FM-12+0253SBUF V0200901N003110090019N0020001N1+02281+02131101481ADDAA106002091AY121061AY221061GF107991051081004501081999MA1999999098571MD1999999-0131MW1621REMSYN082AAXX  09184 82986 21495 70906 10228 20213 39857 40148 76222 8588/ 333 59013 60021;
0173829860999992006091012004-09400-038217FM-12+0253SBUF V0201401N004610042019N0040001N1+02311+02051101901ADDAA124002091GF108991061071004501021999KA1240N+01941MA1999999099001MD1999999+0051REMSYN082AAXX  10124 82986 22496 81409 10231 20205 39900 40190 8672/ 333 20194 58005 60024;
0182829860999992006091018004-09400-038217FM-12+0253SBUF V0203201N001510450019N0200001N1+02361+02201101631ADDAA106002091AY161061AY221061GF106991021041008001041021MA1999999098731MD1999999+0161MW1011REMSYN082AAXX  10184 82986 21598 63203 10236 20220 39873 40163 70162 82442 333 58016 60021;
0201829860999992006091112004-09400-038217FM-12+0253SBUF V0200901N005710021019N0040001N1+02281+02091101871ADDAA124004191AY161061AY221061GF108991061071002501021999KA1240N+02021MA1999999098961MD1999999-0041MW1011REMSYN088AAXX  11124 82986 21396 80911 10228 20209 39896 40187 70162 8672/ 333 20202 59004 60044;
0182829860999992006091118004-09400-038217FM-12+0253SBUF V0201401N008210450019N0100001N1+02641+02031101561ADDAA106000891AY161061AY221061GF106991041081004501061001MA1999999098681MD1999999-0051MW1151REMSYN082AAXX  11184 82986 21497 61416 10264 20203 39868 40156 71562 84860 333 59005 69981;
0213829860999992006091200004-09400-038217FM-12+0253SBUF V0201801N003112200019N0020001N1+02121+01931101861ADDAA106000391AY161061AY221061GF101991011001017501021001KA1240M+02751MA1999999098951MD1999999-0041MW1011REMSYN100AAXX  12004 82986 21795 11806 10212 20193 39895 40186 70162 81020 333 10275 29084 55018 59004 69931;
0201829860999992006091212004-09400-038217FM-12+0253SBUF V0201801N003110042019N0040001N1+02241+01991101851ADDAA124001091AY161061AY221061GF108991081071004501999999KA1240N+01801MA1999999098941MD1999999-0021MW1031REMSYN088AAXX  12124 82986 21496 81806 10224 20199 39894 40185 70362 887// 333 20180 59002 60014;
0201829860999992006091218004-09400-038217FM-12+0253SBUF V0200901N003610075019N0100001N1+02481+01831101551ADDAA106000091AY161061AY221061GF107991071051008001001001MA1999999098651MD1999999-0031MW1031REMSYN082AAXX  12184 82986 21597 70907 10248 20183 39865 40155 70362 87500 333 59003 69921;EQDQ01  00002PRCP06
0192829860999992006091312004-09400-038217FM-12+0253SBUF V0201401N003110075019N0100001N1+02201+01901101811ADDAA124000091GF106991061041008001001001KA1240N+01801MA1999999098901MD1999999-0041REMSYN082AAXX  13124 82986 22597 61406 10220 20190 39890 40181 86400 333 20180 59004 69924;EQDQ01  00002PRCP24
0137829860999992006091318004-09400-038217FM-12+0253SBUF V0200901N004610075019N0200001N1+02901+01871101391ADDGF105991051021008001001001MA1999999098511MD1999999-0141REMSYN070AAXX  13184 82986 32598 50909 10290 20187 39851 40139 85200 333 59014;
0178829860999992006091400004-09400-038217FM-12+0253SBUF V0200901N005112200019N0020001N1+02311+01831101671ADDGA1001+999999999GF100991001001999999001001KA1240M+02921MA1999999098771MD1999999-0091REMSYN082AAXX  14004 82986 32995 00910 10231 20183 39877 40167 333 10292 29072 55084 59009;
0156829860999992006091412004-09400-038217FM-12+0253SBUF V0200901N005710075019N0100001N1+02401+01191101791ADDGF106991061021008001001001KA1240N+01931MA1999999098901MD1999999+0001REMSYN076AAXX  14124 82986 32597 60911 10240 20119 39890 40179 86200 333 20193 58000;
0137829860999992006091418004-09400-038217FM-12+0253SBUF V0200901N004610075019N0200001N1+02871+01751101281ADDGF105991051011008001001001MA1999999098411MD1999999-0101REMSYN070AAXX  14184 82986 32598 50909 10287 20175 39841 40128 85100 333 59010;
0178829860999992006091500004-09400-038217FM-12+0253SBUF V0201401N003112200019N0020001N1+02321+01851101661ADDGA1001+999999999GF100991001001999999001001KA1240M+03011MA1999999098781MD1999999+0011REMSYN082AAXX  15004 82986 32995 01406 10232 20185 39878 40166 333 10301 29069 55093 58001;
0156829860999992006091512004-09400-038217FM-12+0253SBUF V0200901N005110075019N0100001N1+02511+01891101821ADDGF105991051021008001001001KA1240N+02021MA1999999098941MD1999999+0041REMSYN076AAXX  15124 82986 32597 50910 10251 20189 39894 40182 85200 333 20202 58004;
0137829860999992006091518004-09400-038217FM-12+0253SBUF V0201401N003112200019N0200001N1+02981+01861101311ADDGF104991041011008001001001MA1999999098461MD1999999+0051REMSYN070AAXX  15184 82986 32598 41406 10298 20186 39846 40131 84100 333 58005;
0178829860999992006091600004-09400-038217FM-12+0253SBUF V0201801N004612200019N0020001N1+02331+01871101621ADDGA1001+999999999GF100991001001999999001001KA1240M+03031MA1999999098741MD1999999-0041REMSYN082AAXX  16004 82986 32995 01809 10233 20187 39874 40162 333 10303 29068 55098 59004;
0156829860999992006091612004-09400-038217FM-12+0253SBUF V0200901N003610042019N0040001N1+02361+01911101751ADDGF108991081051004501999999KA1240N+02001MA1999999098861MD1999999+0081REMSYN076AAXX  16124 82986 32496 80907 10236 20191 39886 40175 885// 333 20200 58008;
0137829860999992006091618004-09400-038217FM-12+0253SBUF V0200901N003112200019N0200001N1+03061+01991101211ADDGF103991031011008001001001MA1999999098361MD1999999-0101REMSYN070AAXX  16184 82986 32598 30906 10306 20199 39836 40121 83100 333 59010;
0178829860999992006091700004-09400-038217FM-12+0253SBUF V0201401N006212200019N0020001N1+02441+02191101521ADDGA1001+999999999GF100991001001999999001001KA1240M+03091MA1999999098651MD1999999-0091REMSYN082AAXX  17004 82986 32995 01412 10244 20219 39865 40152 333 10309 29075 55080 59009;
0156829860999992006091712004-09400-038217FM-12+0253SBUF V0200901N004110075019N0100001N1+02501+02031101741ADDGF106991061021008001001001KA1240N+02001MA1999999098861MD1999999+0001REMSYN076AAXX  17124 82986 32597 60908 10250 20203 39886 40174 86200 333 20200 58000;
0137829860999992006091718004-09400-038217FM-12+0253SBUF V0200901N005112200019N0200001N1+03061+02051101291ADDGF104991031021008001041001MA1999999098451MD1999999+0091REMSYN070AAXX  17184 82986 32598 40910 10306 20205 39845 40129 83240 333 58009;
0178829860999992006091800004-09400-038217FM-12+0253SBUF V0201401N005112200019N0020001N1+02481+02091101581ADDGA1001+999999999GF100991001001999999001001KA1240M+03111MA1999999098721MD1999999+0071REMSYN082AAXX  18004 82986 32995 01410 10248 20209 39872 40158 333 10311 29072 55099 58007;
0156829860999992006091812004-09400-038217FM-12+0253SBUF V0200901N004112200019N0100001N1+02501+02071101701ADDGF103991031011008001001001KA1240N+01961MA1999999098831MD1999999-0031REMSYN076AAXX  18124 82986 32597 30908 10250 20207 39883 40170 83100 333 20196 59003;
0137829860999992006091818004-09400-038217FM-12+0253SBUF V0200901N005112200019N0200001N1+03091+02791101141ADDGF102991021011008001001001MA1999999098301MD1999999-0151REMSYN070AAXX  18184 82986 32598 20910 10309 20279 39830 40114 82100 333 59015;
0178829860999992006091900004-09400-038217FM-12+0253SBUF V0200901N005112200019N0020001N1+02501+02171101431ADDGA1001+999999999GF100991001001999999001001KA1240M+03111MA1999999098571MD1999999-0151REMSYN082AAXX  19004 82986 32995 00910 10250 20217 39857 40143 333 10311 29075 55101 59015;
0156829860999992006091912004-09400-038217FM-12+0253SBUF V0200901N003112200019N0100001N1+02441+02051101621ADDGF103991031011008001001001KA1240N+01981MA1999999098751MD1999999-0081REMSYN076AAXX  19124 82986 32597 30906 10244 20205 39875 40162 83100 333 20198 59008;
0137829860999992006091918004-09400-038217FM-12+0253SBUF V0200901N005112200019N0200001N1+03211+02181101051ADDGF102991021011008001001001MA1999999098211MD1999999-0091REMSYN070AAXX  19184 82986 32598 20910 10321 20218 39821 40105 82100 333 59009;
0178829860999992006092000004-09400-038217FM-12+0253SBUF V0200901N005112200019N0020001N1+02531+02331101471ADDGA1001+999999999GF100991001001999999001001KA1240M+03221MA1999999098611MD1999999+0041REMSYN082AAXX  20004 82986 32995 00910 10253 20233 39861 40147 333 10322 29078 55104 58004;
0156829860999992006092012004-09400-038217FM-12+0253SBUF V0200901N001010075019N0100001N1+02461+02191101651ADDGF105991051011008001001001KA1240N+02111MA1999999098781MD1999999+0031REMSYN076AAXX  20124 82986 32597 50902 10246 20219 39878 40165 85100 333 20211 58003;
0137829860999992006092018004-09400-038217FM-12+0253SBUF V0200901N005712200019N0200001N1+03021+01801101081ADDGF104991041011008001001001MA1999999098241MD1999999+0031REMSYN070AAXX  20184 82986 32598 40911 10302 20180 39824 40108 84100 333 58003;
0178829860999992006092100004-09400-038217FM-12+0253SBUF V0201401N006212200019N0020001N1+02361+02071101431ADDGA1001+999999999GF100991001001999999001001KA1240M+03151MA1999999098541MD1999999-0071REMSYN082AAXX  21004 82986 32995 01412 10236 20207 39854 40143 333 10315 29075 55093 59007;
0156829860999992006092112004-09400-038217FM-12+0253SBUF V0201401N003110075019N0100001N1+02471+02171101721ADDGF105991051041008001001001KA1240N+02081MA1999999098841MD1999999+0061REMSYN076AAXX  21124 82986 32597 51406 10247 20217 39884 40172 85400 333 20208 58006;
0137829860999992006092118004-09400-038217FM-12+0253SBUF V0201401N004112200019N0200001N1+03181+01731101151ADDGF102991011011008001001011MA1999999098321MD1999999+0081REMSYN070AAXX  21184 82986 32598 21408 10318 20173 39832 40115 81101 333 58008;
0178829860999992006092200004-09400-038217FM-12+0253SBUF V0201401N004612200019N0020001N1+02511+02051101481ADDGA1001+999999999GF100991001001999999001001KA1240M+03231MA1999999098621MD1999999+0081REMSYN082AAXX  22004 82986 32995 01409 10251 20205 39862 40148 333 10323 29070 55093 58008;
0156829860999992006092212004-09400-038217FM-12+0253SBUF V0201401N001510075019N0100001N1+02481+01901101721ADDGF106991061021008001001001KA1240N+02101MA1999999098851MD1999999+0011REMSYN076AAXX  22124 82986 32597 61403 10248 20190 39885 40172 86200 333 20210 58001;
0137829860999992006092218004-09400-038217FM-12+0253SBUF V0201401N003112200019N0200001N1+03181+02331101221ADDGF101991011011008001001001MA1999999098391MD1999999+0061REMSYN070AAXX  22184 82986 32598 11406 10318 20233 39839 40122 81100 333 58006;
0178829860999992006092300004-09400-038217FM-12+0253SBUF V0201401N005112200019N0020001N1+02581+02251101461ADDGA1001+999999999GF100991001001999999001001KA1240M+03231MA1999999098611MD1999999-0011REMSYN082AAXX  23004 82986 32995 01410 10258 20225 39861 40146 333 10323 29074 55096 59001;
0156829860999992006092312004-09400-038217FM-12+0253SBUF V0201401N004112200019N0100001N1+02581+02061101641ADDGF104991041011008001001001KA1240N+02111MA1999999098791MD1999999-0061REMSYN076AAXX  23124 82986 32597 41408 10258 20206 39879 40164 84100 333 20211 59006;
0137829860999992006092318004-09400-038217FM-12+0253SBUF V0201401N005112200019N0200001N1+03121+02111101101ADDGF102991021011008001001001MA1999999098271MD1999999-0111REMSYN070AAXX  23184 82986 32598 21410 10312 20211 39827 40110 82100 333 59011;
0178829860999992006092400004-09400-038217FM-12+0253SBUF V0201401N004612200019N0020001N1+02521+02271101361ADDGA1001+999999999GF100991001001999999001001KA1240M+03171MA1999999098511MD1999999-0101REMSYN082AAXX  24004 82986 32995 01409 10252 20227 39851 40136 333 10317 29075 55101 59010;
0156829860999992006092412004-09400-038217FM-12+0253SBUF V0201401N001512200019N0200001N1+02541+02231101521ADDGF104991041041008001001001KA1240N+02061MA1999999098661MD1999999-0131REMSYN076AAXX  24124 82986 32598 41403 10254 20223 39866 40152 84400 333 20206 59013;
0137829860999992006092418004-09400-038217FM-12+0253SBUF V0201401N001512200019N0200001N1+03261+02351100991ADDGF103991031011008001001001MA1999999098161MD1999999-0111REMSYN070AAXX  24184 82986 32598 31403 10326 20235 39816 40099 83100 333 59011;
0178829860999992006092500004-09400-038217FM-12+0253SBUF V0200901N001512200019N0020001N1+02591+02251101371ADDGA1001+999999999GF100991001001999999001001KA1240M+03261MA1999999098521MD1999999+0011REMSYN082AAXX  25004 82986 32995 00903 10259 20225 39852 40137 333 10326 29076 55107 58001;
0156829860999992006092512004-09400-038217FM-12+0253SBUF V0201401N001512200019N0100001N1+02601+02331101661ADDGF103991031041008001001001KA1240N+02041MA1999999098811MD1999999+0151REMSYN076AAXX  25124 82986 32597 31403 10260 20233 39881 40166 83400 333 20204 58015;
0137829860999992006092518004-09400-038217FM-12+0253SBUF V0201401N002112200019N0200001N1+03211+02351101161ADDGF102991021001012501041001MA1999999098321MD1999999+0161REMSYN070AAXX  25184 82986 32698 21404 10321 20235 39832 40116 82040 333 58016;
0178829860999992006092600004-09400-038217FM-12+0253SBUF V0200901N004112200019N0020001N1+02551+02211101491ADDGA1001+999999999GF100991001001999999001001KA1240M+03251MA1999999098641MD1999999+0121REMSYN082AAXX  26004 82986 32995 00908 10255 20221 39864 40149 333 10325 29078 55096 58012;
0156829860999992006092612004-09400-038217FM-12+0253SBUF V0201401N003110075019N0100001N1+02591+02121101761ADDGF105991051021008001001001KA1240N+02081MA1999999098901MD1999999+0091REMSYN076AAXX  26124 82986 32597 51406 10259 20212 39890 40176 85200 333 20208 58009;
0137829860999992006092618004-09400-038217FM-12+0253SBUF V0200901N005712200019N0200001N1+03081+01851101251ADDGF103991031011008001001001MA1999999098411MD1999999+0091REMSYN070AAXX  26184 82986 32598 30911 10308 20185 39841 40125 83100 333 58009;
0168829860999992006092700004-09400-038217FM-12+0253SBUF V0201401N004612200019N0020001N1+02401+02091101651ADDGF102991021011008001001001KA1240M+03121MA1999999098831MD1999999+0191REMSYN088AAXX  27004 82986 32595 21409 10240 20209 39883 40165 82100 333 10312 29072 55102 58019;
0156829860999992006092712004-09400-038217FM-12+0253SBUF V0200901N003110075019N0100001N1+02521+02171101871ADDGF106991061041008001001001KA1240N+01961MA1999999098991MD1999999+0091REMSYN076AAXX  27124 82986 32597 60906 10252 20217 39899 40187 86400 333 20196 58009;
0137829860999992006092718004-09400-038217FM-12+0253SBUF V0201401N005110075019N0200001N1+03021+02131101421ADDGF106991061051008001001001MA1999999098561MD1999999+0151REMSYN070AAXX  27184 82986 32598 61410 10302 20213 39856 40142 86500 333 58015;
0178829860999992006092800004-09400-038217FM-12+0253SBUF V0201401N004112200019N0020001N1+02401+01931101701ADDGA1001+999999999GF100991001001999999001001KA1240M+03071MA1999999098831MD1999999+0001REMSYN082AAXX  28004 82986 32995 01408 10240 20193 39883 40170 333 10307 29072 55069 58000;
0201829860999992006092812004-09400-038217FM-12+0253SBUF V0201801N004610042019N0100001N1+02401+02111101751ADDAA124000591AY161061AY221061GF108991081051004501999999KA1240N+02071MA1999999098871MD1999999-0121MW1021REMSYN088AAXX  28124 82986 21497 81809 10240 20211 39887 40175 70262 885// 333 20207 59012 69954;
0137829860999992006092818004-09400-038217FM-12+0253SBUF V0201401N005112200019N0200001N1+02931+02321101281ADDGF104991031021008001041001MA1999999098421MD1999999-0141REMSYN070AAXX  28184 82986 32598 41410 10293 20232 39842 40128 83240 333 59014;
0178829860999992006092900004-09400-038217FM-12+0253SBUF V0201401N005112200019N0020001N1+02481+02391101531ADDGA1001+999999999GF100991001001999999001001KA1240M+03031MA1999999098661MD1999999-0171REMSYN082AAXX  29004 82986 32995 01410 10248 20239 39866 40153 333 10303 29086 55047 59017;
0156829860999992006092912004-09400-038217FM-12+0253SBUF V0201401N004110450019N0100001N1+02661+01971101671ADDGF106991031011008001051001KA1240N+02101MA1999999098811MD1999999-0061REMSYN076AAXX  29124 82986 32597 61408 10266 20197 39881 40167 83150 333 20210 59006;
0137829860999992006092918004-09400-038217FM-12+0253SBUF V0200901N004110450019N0200001N1+03121+02111101191ADDGF106991021011008001031051MA1999999098351MD1999999-0071REMSYN070AAXX  29184 82986 32598 60908 10312 20211 39835 40119 82135 333 59007;
0178829860999992006093000004-09400-038217FM-12+0253SBUF V0200901N003612200019N0020001N1+02441+02281101491ADDGA1001+999999999GF100991001001999999001001KA1240M+03171MA1999999098641MD1999999-0021REMSYN082AAXX  30004 82986 32995 00907 10244 20228 39864 40149 333 10317 29076 55085 59002;
0156829860999992006093012004-09400-038217FM-12+0253SBUF V0200901N005112200019N0100001N1+02681+02161101691ADDGF102991021011008001001001KA1240N+02061MA1999999098831MD1999999+0021REMSYN076AAXX  30124 82986 32597 20910 10268 20216 39883 40169 82100 333 20206 58002;
0137829860999992006093018004-09400-038217FM-12+0253SBUF V0200901N005112200019N0200001N1+03261+02211101261ADDGF103991031011008001001001MA1999999098421MD1999999+0071REMSYN070AAXX  30184 82986 32598 30910 10326 20221 39842 40126 83100 333 58007;
0178829860999992006100100004-09400-038217FM-12+0253SBUF V0200901N006712200019N0020001N1+02541+02231101611ADDGA1001+999999999GF100991001001999999001001KA1240M+03281MA1999999098761MD1999999+0121REMSYN082AAXX  01004 82986 32995 00913 10254 20223 39876 40161 333 10328 29073 55100 58012;
0156829860999992006100112004-09400-038217FM-12+0253SBUF V0200901N005710075019N0100001N1+02621+02181101641ADDGF105991051041008001001001KA1240N+02021MA1999999098791MD1999999-0041REMSYN076AAXX  01124 82986 32597 50911 10262 20218 39879 40164 85400 333 20202 59004;
0137829860999992006100118004-09400-038217FM-12+0253SBUF V0200901N005710075019N0200001N1+03161+02261101151ADDGF105991051021008001001001MA1999999098311MD1999999-0111REMSYN070AAXX  01184 82986 32598 50911 10316 20226 39831 40115 85200 333 59011;
0178829860999992006100200004-09400-038217FM-12+0253SBUF V0200901N006712200019N0020001N1+02481+02171101571ADDGA1001+999999999GF100991001001999999001001KA1240M+03251MA1999999098711MD1999999-0051REMSYN082AAXX  02004 82986 32995 00913 10248 20217 39871 40157 333 10325 29076 55106 59005;
0156829860999992006100212004-09400-038217FM-12+0253SBUF V0200901N004610075019N0100001N1+02601+02271101571ADDGF105991051021008001001001KA1240N+02081MA1999999098711MD1999999-0081REMSYN076AAXX  02124 82986 32597 50909 10260 20227 39871 40157 85200 333 20208 59008;
0137829860999992006100218004-09400-038217FM-12+0253SBUF V0201401N004610075019N0200001N1+03221+01951100961ADDGF105991051011008001001001MA1999999098131MD1999999-0181REMSYN070AAXX  02184 82986 32598 51409 10322 20195 39813 40096 85100 333 59018;
0178829860999992006100300004-09400-038217FM-12+0253SBUF V0201401N005112200019N0020001N1+02541+02061101281ADDGA1001+999999999GF100991001001999999001001KA1240M+03261MA1999999098431MD1999999-0281REMSYN082AAXX  03004 82986 32995 01410 10254 20206 39843 40128 333 10326 29070 55102 59028;
0184829860999992006100312004-09400-038217FM-12+0253SBUF V0200901N005112200019N0100001N1+02651+02181101381ADDAY121061AY221061GF103991021011008001001011KA1240N+02081MA1999999098531MD1999999-0181MW1051REMSYN082AAXX  03124 82986 31597 30910 10265 20218 39853 40138 70522 82101 333 20208 59018;
0137829860999992006100318004-09400-038217FM-12+0253SBUF V0201401N003112200019N0200001N1+03321+01821100881ADDGF104991031011008001001011MA1999999098061MD1999999-0071REMSYN070AAXX  03184 82986 32598 41406 10332 20182 39806 40088 83101 333 59007;
0178829860999992006100400004-09400-038217FM-12+0253SBUF V0201401N005712200019N0020001N1+02561+02081101271ADDGA1001+999999999GF100991001001999999001001KA1240M+03331MA1999999098431MD1999999+0001REMSYN082AAXX  04004 82986 32995 01411 10256 20208 39843 40127 333 10333 29067 55108 58000;
0184829860999992006100412004-09400-038217FM-12+0253SBUF V0201401N005110075019N0100001N1+02751+01841101361ADDAY111061AY211061GF106991061021008001001001KA1240N+02061MA1999999098521MD1999999-0011MW1051REMSYN082AAXX  04124 82986 31597 61410 10275 20184 39852 40136 70511 86200 333 20206 59001;
0137829860999992006100418004-09400-038217FM-12+0253SBUF V0201401N006711050019N0200001N1+03121+02251100891ADDGF105991031011008001001021MA1999999098061MD1999999+0001REMSYN070AAXX  04184 82986 32598 51413 10312 20225 39806 40089 83102 333 58000;
0178829860999992006100500004-09400-038217FM-12+0253SBUF V0201401N006212200019N0020001N1+02561+02211101311ADDGA1001+999999999GF100991001001999999001001KA1240M+03251MA1999999098471MD1999999+0041REMSYN082AAXX  05004 82986 32995 01412 10256 20221 39847 40131 333 10325 29070 55100 58004;
0184829860999992006100512004-09400-038217FM-12+0253SBUF V0200901N005710075019N0100001N1+02641+02091101501ADDAY111061AY211061GF106991051021008001041001KA1240N+02161MA1999999098651MD1999999+0221MW1051REMSYN082AAXX  05124 82986 31597 60911 10264 20209 39865 40150 70511 85240 333 20216 58022;
0137829860999992006100518004-09400-038217FM-12+0253SBUF V0201401N007210450019N0200001N1+03281+01661101201ADDGF106991031011008001031041MA1999999098201MD1999999+0141REMSYN070AAXX  05184 82986 32598 61414 10328 20166 39820 40120 83134 333 58014;
0168829860999992006100600004-09400-038217FM-12+0253SBUF V0201401N006210150019N0200001N1+02561+02131101481ADDGF105991051001017501011001KA1240M+03341MA1999999098631MD1999999+0161REMSYN088AAXX  06004 82986 32798 51412 10256 20213 39863 40148 85010 333 10334 29077 55097 58016;
0156829860999992006100612004-09400-038217FM-12+0253SBUF V0200901N005710075019N0100001N1+02681+01971101521ADDGF106991051021008001031001KA1240N+02101MA1999999098671MD1999999+0021REMSYN076AAXX  06124 82986 32597 60911 10268 20197 39867 40152 85230 333 20210 58002;
0137829860999992006100618004-09400-038217FM-12+0253SBUF V0201401N004612200019N0200001N1+03191+01571101031ADDGF104991041011008001001001MA1999999098201MD1999999+0001REMSYN070AAXX  06184 82986 32598 41409 10319 20157 39820 40103 84100 333 58000;
0178829860999992006100700004-09400-038217FM-12+0253SBUF V0200901N007712200019N0020001N1+02541+02231101461ADDGA1001+999999999GF100991001001999999001001KA1240M+03291MA1999999098611MD1999999-0021REMSYN082AAXX  07004 82986 32995 00915 10254 20223 39861 40146 333 10329 29067 55102 59002;
0184829860999992006100712004-09400-038217FM-12+0253SBUF V0201401N004110042019N0100001N1+02561+02041101601ADDAY111061AY211061GF107991071071004501999999KA1240N+02121MA1999999098741MD1999999+0071MW1051REMSYN082AAXX  07124 82986 31497 71408 10256 20204 39874 40160 70511 877// 333 20212 58007;
0137829860999992006100718004-09400-038217FM-12+0253SBUF V0200901N003110075019N0200001N1+03261+01601101031ADDGF105991051041008001001001MA1999999098201MD1999999+0001REMSYN070AAXX  07184 82986 32598 50906 10326 20160 39820 40103 85400 333 58000;
0178829860999992006100800004-09400-038217FM-12+0253SBUF V0200901N003112200019N0020001N1+02451+02281101441ADDGA1001+999999999GF100991001001999999001001KA1240M+03281MA1999999098521MD1999999-0031REMSYN082AAXX  08004 82986 32995 00906 10245 20228 39852 40144 333 10328 29073 55070 59003;
0156829860999992006100812004-09400-038217FM-12+0253SBUF V0200901N003610075019N0100001N1+02801+02341101501ADDGF105991051021008001001001KA1240N+02201MA1999999098651MD1999999-0091REMSYN076AAXX  08124 82986 32597 50907 10280 20234 39865 40150 85200 333 20220 59009;
0137829860999992006100818004-09400-038217FM-12+0253SBUF V0201401N004112200019N0200001N1+03311+01721100951ADDGF104991041011008001001001MA1999999098141MD1999999-0061REMSYN070AAXX  08184 82986 32598 41408 10331 20172 39814 40095 84100 333 59006;
0178829860999992006100900004-09400-038217FM-12+0253SBUF V0201401N005712200019N0020001N1+02541+02091101341ADDGA1001+999999999GF100991001001999999001001KA1240M+03351MA1999999098501MD1999999-0081REMSYN082AAXX  09004 82986 32995 01411 10254 20209 39850 40134 333 10335 29067 55107 59008;
0156829860999992006100912004-09400-038217FM-12+0253SBUF V0200901N003110075019N0100001N1+02761+02341101531ADDGF105991051011008001001001KA1240N+02141MA1999999098681MD1999999+0031REMSYN076AAXX  09124 82986 32597 50906 10276 20234 39868 40153 85100 333 20214 58003;
0137829860999992006100918004-09400-038217FM-12+0253SBUF V0201401N004112200019N0200001N1+03361+01601101131ADDGF103991031011008001001001MA1999999098311MD1999999+0171REMSYN070AAXX  09184 82986 32598 31408 10336 20160 39831 40113 83100 333 58017;
0178829860999992006101000004-09400-038217FM-12+0253SBUF V0200901N005712200019N0020001N1+02501+02091101451ADDGA1001+999999999GF100991001001999999001001KA1240M+03381MA1999999098611MD1999999+0091REMSYN082AAXX  10004 82986 32995 00911 10250 20209 39861 40145 333 10338 29067 55102 58009;
0156829860999992006101012004-09400-038217FM-12+0253SBUF V0201401N006210075019N0100001N1+02691+01971101691ADDGF106991061021008001001001KA1240N+02121MA1999999098841MD1999999+0161REMSYN076AAXX  10124 82986 32597 61412 10269 20197 39884 40169 86200 333 20212 58016;
0137829860999992006101018004-09400-038217FM-12+0253SBUF V0201401N005112200019N0200001N1+03241+01751101241ADDGF103991031011008001001001MA1999999098401MD1999999+0091REMSYN070AAXX  10184 82986 32598 31410 10324 20175 39840 40124 83100 333 58009;
0178829860999992006101100004-09400-038217FM-12+0253SBUF V0201401N005112200019N0020001N1+02501+02071101621ADDGA1001+999999999GF100991001001999999001001KA1240M+03271MA1999999098771MD1999999+0161REMSYN082AAXX  11004 82986 32995 01410 10250 20207 39877 40162 333 10327 29065 55103 58016;
0156829860999992006101112004-09400-038217FM-12+0253SBUF V0201401N005711050019N0100001N1+02661+02041101641ADDGF106991031011008001001081KA1240N+02101MA1999999098791MD1999999-0051REMSYN076AAXX  11124 82986 32597 61411 10266 20204 39879 40164 83108 333 20210 59005;
0137829860999992006101118004-09400-038217FM-12+0253SBUF V0201401N005712200019N0200001N1+03281+01821101141ADDGF106991021031008001001041MA1999999098311MD1999999-0091REMSYN070AAXX  11184 82986 32598 61411 10328 20182 39831 40114 82304 333 59009;
0178829860999992006101200004-09400-038217FM-12+0253SBUF V0200901N006712200019N0020001N1+02521+02091101411ADDGA1001+999999999GF100991001001999999001001KA1240M+03331MA1999999098561MD1999999-0211REMSYN082AAXX  12004 82986 32995 00913 10252 20209 39856 40141 333 10333 29066 55078 59021;
0137829860999992006101218004-09400-038217FM-12+0253SBUF V0200901N003112200019N0200001N1+03361+01601100911ADDGF103991031011008001001001MA1999999098101MD1999999-0211REMSYN070AAXX  12184 82986 32598 30906 10336 20160 39810 40091 83100 333 59021;
0178829860999992006101300004-09400-038217FM-12+0253SBUF V0200901N007212200019N0020001N1+02631+02291101131ADDGA1001+999999999GF100991001001999999001001KA1240M+03401MA1999999098301MD1999999-0261REMSYN082AAXX  13004 82986 32995 00914 10263 20229 39830 40113 333 10340 29067 55105 59026;
0156829860999992006101312004-09400-038217FM-12+0253SBUF V0201401N003112200019N0100001N1+02661+02071101311ADDGF103991031011008001001001KA1240N+02201MA1999999098471MD1999999-0211REMSYN076AAXX  13124 82986 32597 31406 10266 20207 39847 40131 83100 333 20220 59021;
0147829860999992006101318004-09400-038217FM-12+0253SBUF V0201401N003112200019N0200001N1+03511+01631100701ADDGA1001+999999999GF100991001001999999001001MA1999999097901MD1999999-0201REMSYN064AAXX  13184 82986 32998 01406 10351 20163 39790 40070 333 59020;
0178829860999992006101400004-09400-038217FM-12+0253SBUF V0200901N006212200019N0020001N1+02671+02311100991ADDGA1001+999999999GF100991001001999999001001KA1240M+03531MA1999999098161MD1999999-0141REMSYN082AAXX  14004 82986 32995 00912 10267 20231 39816 40099 333 10353 29066 55100 59014;
0156829860999992006101412004-09400-038217FM-12+0253SBUF V0200901N002612200019N0200001N1+02681+02391101231ADDGF104991031011008001001021KA1240N+02121MA1999999098401MD1999999-0071REMSYN076AAXX  14124 82986 32598 40905 10268 20239 39840 40123 83102 333 20212 59007;
0137829860999992006101418004-09400-038217FM-12+0253SBUF V0201401N004112200019N0200001N1+03581+01601101591ADDGF103991011011999999001081MA1999999097791MD1999999-0111REMSYN070AAXX  14184 82986 32998 31408 10358 20160 39779 40159 81108 333 59011;
0178829860999992006101500004-09400-038217FM-12+0253SBUF V0201401N005112200019N0020001N1+02681+02131101081ADDGA1001+999999999GF100991001001999999001001KA1240M+03621MA1999999098251MD1999999+0091REMSYN082AAXX  15004 82986 32995 01410 10268 20213 39825 40108 333 10362 29065 55102 58009;
0156829860999992006101512004-09400-038217FM-12+0253SBUF V0200901N003110075019N0100001N1+02721+02241101231ADDGF105991051021008001001001KA1240N+02241MA1999999098401MD1999999+0001REMSYN076AAXX  15124 82986 32597 50906 10272 20224 39840 40123 85200 333 20224 58000;
0137829860999992006101518004-09400-038217FM-12+0253SBUF V0200901N003112200019N0200001N1+03501+01721100671ADDGF105991041021008001001011MA1999999097881MD1999999+0091REMSYN070AAXX  15184 82986 32598 50906 10350 20172 39788 40067 84201 333 58009;
0168829860999992006101600004-09400-038217FM-12+0253SBUF V0200901N005710075019N0020001N1+02601+02171101141ADDGF106991061051008001001001KA1240M+03591MA1999999098311MD1999999+0061REMSYN088AAXX  16004 82986 32595 60911 10260 20217 39831 40114 86500 333 10359 29066 55102 58006;
0184829860999992006101612004-09400-038217FM-12+0253SBUF V0200901N003610075019N0040001N1+02781+02091101271ADDAY141061AY221061GF106991061011008001001001KA1240N+02281MA1999999098441MD1999999+0041MW1051REMSYN082AAXX  16124 82986 31596 60907 10278 20209 39844 40127 70542 86100 333 20228 58004;
0137829860999992006101618004-09400-038217FM-12+0253SBUF V0201401N003112200019N0200001N1+03431+01741100731ADDGF106991021011008001001041MA1999999097941MD1999999+0061REMSYN070AAXX  16184 82986 32598 61406 10343 20174 39794 40073 82104 333 58006;
0178829860999992006101700004-09400-038217FM-12+0253SBUF V0201401N006712200019N0020001N1+02641+02261101091ADDGA1001+999999999GF100991001001999999001001KA1240M+03441MA1999999098261MD1999999-0051REMSYN082AAXX  17004 82986 32995 01413 10264 20226 39826 40109 333 10344 29064 55/// 59005;
0184829860999992006101712004-09400-038217FM-12+0253SBUF V0200901N002612200019N0040001N1+02601+02101101341ADDAY141061AY211061GF104991031011008001001021KA1240N+02231MA1999999098491MD1999999+0051MW1051REMSYN082AAXX  17124 82986 31596 40905 10260 20210 39849 40134 70541 83102 333 20223 58005;
0137829860999992006101718004-09400-038217FM-12+0253SBUF V0201401N004112200019N0200001N1+03431+01871100771ADDGF104991021021008001001021MA1999999097961MD1999999+0021REMSYN070AAXX  17184 82986 32598 41408 10343 20187 39796 40077 82202 333 58002;
0178829860999992006101800004-09400-038217FM-12+0253SBUF V0201401N006712200019N0020001N1+02641+02181101071ADDGA1001+999999999GF100991001001999999001001KA1240M+03481MA1999999098231MD1999999-0031REMSYN082AAXX  18004 82986 32995 01413 10264 20218 39823 40107 333 10348 29066 55100 59003;
0156829860999992006101812004-09400-038217FM-12+0253SBUF V0201801N002110075019N0100001N1+02701+02241101241ADDGF105991051011008001001001KA1240N+02321MA1999999098401MD1999999-0091REMSYN076AAXX  18124 82986 32597 51804 10270 20224 39840 40124 85100 333 20232 59009;
0137829860999992006101818004-09400-038217FM-12+0253SBUF V0200901N002112200019N0200001N1+03441+01841100691ADDGF104991031011008001001021MA1999999097901MD1999999-0061REMSYN070AAXX  18184 82986 32598 40904 10344 20184 39790 40069 83102 333 59006;
0168829860999992006101900004-09400-038217FM-12+0253SBUF V0200901N006212200019N0020001N1+02611+02311101071ADDGF102991021001012501031001KA1240M+03471MA1999999098241MD1999999+0011REMSYN088AAXX  19004 82986 32695 20912 10261 20231 39824 40107 82030 333 10347 29071 55100 58001;
0156829860999992006101912004-09400-038217FM-12+0253SBUF V0200901N001510075019N0100001N1+02741+02071101281ADDGF105991051011008001001001KA1240N+02201MA1999999098451MD1999999+0051REMSYN076AAXX  19124 82986 32597 50903 10274 20207 39845 40128 85100 333 20220 58005;
0137829860999992006101918004-09400-038217FM-12+0253SBUF V0201401N001512200019N0200001N1+03501+01631100661ADDGF103991031011008001001001MA1999999097861MD1999999-0041REMSYN070AAXX  19184 82986 32598 31403 10350 20163 39786 40066 83100 333 59004;
0178829860999992006102000004-09400-038217FM-12+0253SBUF V0200901N005112200019N0020001N1+02771+02361100981ADDGA1001+999999999GF100991001001999999001001KA1240M+03501MA1999999098161MD1999999-0081REMSYN082AAXX  20004 82986 32995 00910 10277 20236 39816 40098 333 10350 29064 55105 59008;
0194829860999992006102012004-09400-038217FM-12+0253SBUF V0203201N001512200019N0200001N1+02761+02341101261ADDAY121061AY221061GA1001+999999999GF100991001001999999001001KA1240N+02171MA1999999098431MD1999999-0021MW1051REMSYN076AAXX  20124 82986 31998 03203 10276 20234 39843 40126 70522 333 20217 59002;
0137829860999992006102018004-09400-038217FM-12+0253SBUF V0202301N002612200019N0200001N1+03671+01571100631ADDGF103991031011008001001001MA1999999097851MD1999999-0011REMSYN070AAXX  20184 82986 32598 32305 10367 20157 39785 40063 83100 333 59001;
0178829860999992006102100004-09400-038217FM-12+0253SBUF V0201401N005712200019N0020001N1+02981+01981100921ADDGA1001+999999999GF100991001001999999001001KA1240M+03721MA1999999098121MD1999999-0041REMSYN082AAXX  21004 82986 32995 01411 10298 20198 39812 40092 333 10372 29052 55110 59004;
0184829860999992006102112004-09400-038217FM-12+0253SBUF V0202701N001512200019N0200001N1+02831+02381101271ADDAY141061AY221061GF104991031001012501061021KA1240N+02261MA1999999098461MD1999999+0031MW1051REMSYN082AAXX  21124 82986 31698 42703 10283 20238 39846 40127 70542 83062 333 20226 58003;
0137829860999992006102118004-09400-038217FM-12+0253SBUF V0200901N005112200019N0200001N1+03671+01571100721ADDGF105991031021008001001081MA1999999097941MD1999999+0091REMSYN070AAXX  21184 82986 32598 50910 10367 20157 39794 40072 83208 333 58009;
0178829860999992006102200004-09400-038217FM-12+0253SBUF V0200901N005712200019N0020001N1+02721+02101101291ADDGA1001+999999999GF100991001001999999001001KA1240M+03701MA1999999098471MD1999999+0351REMSYN082AAXX  22004 82986 32995 00911 10272 20210 39847 40129 333 10370 29061 55098 58035;
0184829860999992006102212004-09400-038217FM-12+0253SBUF V0201801N002610450019N0100001N1+02701+02261101461ADDAY141061AY221061GF107991031041008001021999KA1240N+02381MA1999999098621MD1999999+0161MW1051REMSYN082AAXX  22124 82986 31597 71805 10270 20226 39862 40146 70542 8342/ 333 20238 58016;
0165829860999992006102218004-09400-038217FM-12+0253SBUF V0202701N005710450019N0200001N1+02731+02241101261ADDAY121061AY221061GF106991041081004501081001MA1999999098411MD1999999+0471MW1151REMSYN076AAXX  22184 82986 31498 62711 10273 20224 39841 40126 71522 84880 333 58047;
0168829860999992006102300004-09400-038217FM-12+0253SBUF V0202301N004110120019N0020001N1+02351+02261101621ADDGF108991081081008001999999KA1240M+03131MA1999999098751MD1999999+0281REMSYN088AAXX  23004 82986 32595 82308 10235 20226 39875 40162 888// 333 10313 29083 55025 58028;
0201829860999992006102312004-09400-038217FM-12+0253SBUF V0201801N003610042019N0040001N1+02361+02281101631ADDAA124002091AY161061AY251061GF108991081061004501999999KA1240N+02081MA1999999098741MD1999999+0121MW1501REMSYN088AAXX  23124 82986 21496 81807 10236 20228 39874 40163 75065 886// 333 20208 58012 60024;
0182829860999992006102318004-09400-038217FM-12+0253SBUF V0201801N002110090019N0100001N1+02381+02281101321ADDAA106005191AY161061AY251061GF107991071081004501999999MA1999999098441MD1999999+0031MW1211REMSYN082AAXX  23184 82986 21497 71804 10238 20228 39844 40132 72165 878// 333 58003 60051;
0168829860999992006102400004-09400-038217FM-12+0253SBUF V0201401N004612200019N0020001N1+02321+02241101641ADDGF104991041001022501021001KA1240M+02791MA1999999098761MD1999999+0011REMSYN088AAXX  24004 82986 32895 41409 10232 20224 39876 40164 84020 333 10279 29095 55004 58001;
0201829860999992006102412004-09400-038217FM-12+0253SBUF V0201401N003610042019N0040001N1+02281+02251101731ADDAA124021191AY161061AY251061GF108991081071004501999999KA1240N+01981MA1999999098841MD1999999+0101MW1031REMSYN088AAXX  24124 82986 21496 81407 10228 20225 39884 40173 70365 887// 333 20198 58010 60214;
0137829860999992006102418004-09400-038217FM-12+0253SBUF V0200901N004610450019N0100001N1+03051+01881101211ADDGF106991031041004501071001MA1999999098351MD1999999-0091REMSYN070AAXX  24184 82986 32497 60909 10305 20188 39835 40121 83470 333 59009;
0178829860999992006102500004-09400-038217FM-12+0253SBUF V0200901N003112200019N0020001N1+02461+02281101481ADDGA1001+999999999GF100991001001999999001001KA1240M+03071MA1999999098601MD1999999-0161REMSYN082AAXX  25004 82986 32995 00906 10246 20228 39860 40148 333 10307 29082 55050 59016;
0156829860999992006102512004-09400-038217FM-12+0253SBUF V0200901N003610075019N0100001N1+02701+02081101611ADDGF106991061021008001001001KA1240N+02181MA1999999098781MD1999999-0061REMSYN076AAXX  25124 82986 32597 60907 10270 20208 39878 40161 86200 333 20218 59006;
0137829860999992006102518004-09400-038217FM-12+0253SBUF V0200901N003612200019N0200001N1+03301+01801101091ADDGF104991041011008001001001MA1999999098271MD1999999-0081REMSYN070AAXX  25184 82986 32598 40907 10330 20180 39827 40109 84100 333 59008;
0178829860999992006102600004-09400-038217FM-12+0253SBUF V0200901N005112200019N0020001N1+02561+02251101521ADDGA1001+999999999GF100991001001999999001001KA1240M+03321MA1999999098671MD1999999+0071REMSYN082AAXX  26004 82986 32995 00910 10256 20225 39867 40152 333 10332 29069 55108 58007;
0156829860999992006102612004-09400-038217FM-12+0253SBUF V0201801N002610075019N0100001N1+02711+02351101481ADDGF105991051021008001001001KA1240N+02241MA1999999098641MD1999999-0141REMSYN076AAXX  26124 82986 32597 51805 10271 20235 39864 40148 85200 333 20224 59014;
0137829860999992006102618004-09400-038217FM-12+0253SBUF V0201401N003612200019N0200001N1+03261+01681100971ADDGF104991041021008001001001MA1999999098151MD1999999-0121REMSYN070AAXX  26184 82986 32598 41407 10326 20168 39815 40097 84200 333 59012;
0178829860999992006102700004-09400-038217FM-12+0253SBUF V0200901N004112200019N0020001N1+02581+02061101271ADDGA1001+999999999GF100991001001999999001001KA1240M+03331MA1999999098431MD1999999-0241REMSYN082AAXX  27004 82986 32995 00908 10258 20206 39843 40127 333 10333 29066 55107 59024;
0184829860999992006102712004-09400-038217FM-12+0253SBUF V0200901N001512200019N0100001N1+02731+02301101261ADDAY141061AY221061GF105991031011008001001041KA1240N+02161MA1999999098421MD1999999-0221MW1051REMSYN082AAXX  27124 82986 31597 50903 10273 20230 39842 40126 70542 83104 333 20216 59022;
0137829860999992006102718004-09400-038217FM-12+0253SBUF V0201401N002612200019N0200001N1+03331+01571100751ADDGF104991031011008001001061MA1999999097941MD1999999-0211REMSYN070AAXX  27184 82986 32598 41405 10333 20157 39794 40075 83106 333 59021;
0178829860999992006102800004-09400-038217FM-12+0253SBUF V0200901N004112200019N0020001N1+02691+02061101021ADDGA1001+999999999GF100991001001999999001001KA1240M+03391MA1999999098191MD1999999-0241REMSYN082AAXX  28004 82986 32995 00908 10269 20206 39819 40102 333 10339 29063 55109 59024;
0184829860999992006102812004-09400-038217FM-12+0253SBUF V0201801N001512200019N0100001N1+02641+01931101151ADDAY141061AY201061GF101991011011008001001001KA1240N+02131MA1999999098321MD1999999-0101MW1051REMSYN082AAXX  28124 82986 31597 11803 10264 20193 39832 40115 70540 81100 333 20213 59010;
0137829860999992006102818004-09400-038217FM-12+0253SBUF V0202301N001512200019N0200001N1+03591+02311100551ADDGF102991021011008001001001MA1999999097751MD1999999-0191REMSYN070AAXX  28184 82986 32598 22303 10359 20231 39775 40055 82100 333 59019;
0168829860999992006102900004-09400-038217FM-12+0253SBUF V0200901N005112200019N0020001N1+03001+02191100761ADDGF102991021051008001001001KA1240M+03661MA1999999097951MD1999999-0241REMSYN088AAXX  29004 82986 32595 20910 10300 20219 39795 40076 82500 333 10366 29059 55100 59024;
0156829860999992006102912004-09400-038217FM-12+0253SBUF V0201801N001510075019N0100001N1+02641+02181101111ADDGF108991081051008001999999KA1240N+02381MA1999999098291MD1999999-0031REMSYN076AAXX  29124 82986 32597 81803 10264 20218 39829 40111 885// 333 20238 59003;
0137829860999992006102918004-09400-038217FM-12+0253SBUF V0203201N001511050019N0200001N1+03391+01981100591ADDGF106991021021008001051041MA1999999097801MD1999999+0051REMSYN070AAXX  29184 82986 32598 63203 10339 20198 39780 40059 82254 333 58005;
0196829860999992006103000004-09400-038217FM-12+0253SBUF V0201801N002610150019N0020001N1+02561+02211101021ADDAY121061AY221061GF106991061001017501011001KA1240M+03411MA1999999098181MD1999999+0231MW1131REMSYN094AAXX  30004 82986 31795 61805 10256 20221 39818 40102 71322 86010 333 10341 29070 55049 58023;
0201829860999992006103012004-09400-038217FM-12+0253SBUF V0200901N002110042019N0040001N1+02581+02251101141ADDAA124009991AY161061AY221061GF108991081071004501999999KA1240N+02261MA1999999098291MD1999999+0001MW1101REMSYN088AAXX  30124 82986 21496 80904 10258 20225 39829 40114 71062 887// 333 20226 58000 60104;
0137829860999992006103018004-09400-038217FM-12+0253SBUF V0201801N002610042019N0100001N1+02821+02121100731ADDGF108991081061004501999999MA1999999097901MD1999999+0101REMSYN070AAXX  30184 82986 32497 81805 10282 20212 39790 40073 886// 333 58010;
0178829860999992006103100004-09400-038217FM-12+0253SBUF V0201801N001512200019N0020001N1+02411+02301100991ADDGA1001+999999999GF100991001001999999001001KA1240M+03071MA1999999098141MD1999999-0041REMSYN082AAXX  31004 82986 32995 01803 10241 20230 39814 40099 333 10307 29084 55002 59004;
0156829860999992006103112004-09400-038217FM-12+0253SBUF V0201401N003112200019N0100001N1+02661+02161101221ADDGF106991031041008001001061KA1240N+02121MA1999999098371MD1999999+0081REMSYN076AAXX  31124 82986 32597 61406 10266 20216 39837 40122 83406 333 20212 58008;
0137829860999992006103118004-09400-038217FM-12+0253SBUF V0201401N003112200019N0200001N1+03281+01701100741ADDGF104991021021008001031011MA1999999097921MD1999999+0021REMSYN070AAXX  31184 82986 32598 41406 10328 20170 39792 40074 82231 333 58002;
0168829860999992006110100004-09400-038217FM-12+0253SBUF V0200901N004610150019N0020001N1+02621+02101101011ADDGF105991051001017501031001KA1240M+03281MA1999999098111MD1999999+0041REMSYN088AAXX  01004 82986 32795 50909 10262 20210 39811 40101 85030 333 10328 29065 55105 58004;
0184829860999992006110112004-09400-038217FM-12+0253SBUF V0201401N003112200019N0100001N1+02661+01971101311ADDAY141061AY221061GF102991021001012501041001KA1240N+02001MA1999999098471MD1999999+0101MW1051REMSYN082AAXX  01124 82986 31697 21406 10266 20197 39847 40131 70542 82040 333 20200 58010;
0137829860999992006110118004-09400-038217FM-12+0253SBUF V0201401N003112200019N0200001N1+03341+01541100821ADDGF102991011011008001041001MA1999999097991MD1999999+0071REMSYN070AAXX  01184 82986 32598 21406 10334 20154 39799 40082 81140 333 58007;
0178829860999992006110200004-09400-038217FM-12+0253SBUF V0201401N006712200019N0020001N1+02581+02041101111ADDGA1001+999999999GF100991001001999999001001KA1240M+03381MA1999999098271MD1999999+0091REMSYN082AAXX  02004 82986 32995 01413 10258 20204 39827 40111 333 10338 29061 55108 58009;
0156829860999992006110212004-09400-038217FM-12+0253SBUF V0201401N003110450019N0100001N1+02711+01831101341ADDGF105991031011008001061001KA1240N+02071MA1999999098501MD1999999+0031REMSYN076AAXX  02124 82986 32597 51406 10271 20183 39850 40134 83160 333 20207 58003;
0137829860999992006110218004-09400-038217FM-12+0253SBUF V0201401N002612200019N0200001N1+03391+01531100771ADDGF104991041011008001001001MA1999999097961MD1999999-0031REMSYN070AAXX  02184 82986 32598 41405 10339 20153 39796 40077 84100 333 59003;
0178829860999992006110300004-09400-038217FM-12+0253SBUF V0200901N005712200019N0020001N1+02641+01981101141ADDGA1001+999999999GF100991001001999999001001KA1240M+03411MA1999999098311MD1999999+0041REMSYN082AAXX  03004 82986 32995 00911 10264 20198 39831 40114 333 10341 29056 55112 58004;
0184829860999992006110312004-09400-038217FM-12+0253SBUF V0201401N004610075019N0100001N1+02741+01971101261ADDAY141061AY221061GF106991061021008001001001KA1240N+02141MA1999999098431MD1999999-0071MW1051REMSYN082AAXX  03124 82986 31597 61409 10274 20197 39843 40126 70542 86200 333 20214 59007;
0137829860999992006110318004-09400-038217FM-12+0253SBUF V0201401N003612200019N0200001N1+03311+01841100771ADDGF104991041011008001001001MA1999999097961MD1999999+0001REMSYN070AAXX  03184 82986 32598 41407 10331 20184 39796 40077 84100 333 58000;
0178829860999992006110400004-09400-038217FM-12+0253SBUF V0201401N006212200019N0020001N1+02621+02071101091ADDGA1001+999999999GF100991001001999999001001KA1240M+03271MA1999999098261MD1999999-0051REMSYN082AAXX  04004 82986 32995 01412 10262 20207 39826 40109 333 10327 29062 55104 59005;
0156829860999992006110412004-09400-038217FM-12+0253SBUF V0201401N006212200019N0200001N1+02711+01861101151ADDGF102991021011008001001001KA1240N+02131MA1999999098321MD1999999-0111REMSYN076AAXX  04124 82986 32598 21412 10271 20186 39832 40115 82100 333 20213 59011;
0147829860999992006110418004-09400-038217FM-12+0253SBUF V0201401N004612200019N0200001N1+03331+01971100611ADDGA1001+999999999GF100991001001999999001001MA1999999097801MD1999999-0161REMSYN064AAXX  04184 82986 32998 01409 10333 20197 39780 40061 333 59016;
0178829860999992006110500004-09400-038217FM-12+0253SBUF V0200901N005712200019N0020001N1+02601+02031101031ADDGA1001+999999999GF100991001001999999001001KA1240M+03371MA1999999098201MD1999999-0061REMSYN082AAXX  05004 82986 32995 00911 10260 20203 39820 40103 333 10337 29062 55111 59006;
0156829860999992006110512004-09400-038217FM-12+0253SBUF V0201401N004112200019N0200001N1+02701+01911101141ADDGF102991021011008001001001KA1240N+02161MA1999999098311MD1999999-0011REMSYN076AAXX  05124 82986 32598 21408 10270 20191 39831 40114 82100 333 20216 59001;
0137829860999992006110518004-09400-038217FM-12+0253SBUF V0201401N003612200019N0200001N1+03441+01761100511ADDGF102991021011008001001001MA1999999097711MD1999999-0091REMSYN070AAXX  05184 82986 32598 21407 10344 20176 39771 40051 82100 333 59009;
0178829860999992006110600004-09400-038217FM-12+0253SBUF V0200901N005712200019N0020001N1+02651+01951100981ADDGA1001+999999999GF100991001001999999001001KA1240M+03461MA1999999098151MD1999999-0051REMSYN082AAXX  06004 82986 32995 00911 10265 20195 39815 40098 333 10346 29058 55106 59005;
0156829860999992006110612004-09400-038217FM-12+0253SBUF V0201401N001512200019N0100001N1+02741+01951101141ADDGF103991031011008001001001KA1240N+02201MA1999999098311MD1999999+0001REMSYN076AAXX  06124 82986 32597 31403 10274 20195 39831 40114 83100 333 20220 58000;
0137829860999992006110618004-09400-038217FM-12+0253SBUF V0200901N001512200019N0200001N1+03401+01681100601ADDGF102991021021008001001001MA1999999097801MD1999999+0091REMSYN070AAXX  06184 82986 32598 20903 10340 20168 39780 40060 82200 333 58009;
0178829860999992006110700004-09400-038217FM-12+0253SBUF V0200901N006212200019N0020001N1+02721+02301100851ADDGA1001+999999999GF100991001001999999001001KA1240M+03431MA1999999098041MD1999999-0111REMSYN082AAXX  07004 82986 32995 00912 10272 20230 39804 40085 333 10343 29064 55103 59011;
0184829860999992006110712004-09400-038217FM-12+0253SBUF V0202701N001512200019N0200001N1+02741+01971101071ADDAY141061AY221061GF102991021001012501021001KA1240N+02221MA1999999098251MD1999999-0061MW1051REMSYN082AAXX  07124 82986 31698 22703 10274 20197 39825 40107 70542 82020 333 20222 59006;
0137829860999992006110718004-09400-038217FM-12+0253SBUF V0203601N001511050019N0200001N1+03691+01641100431ADDGF106991031021008001001081MA1999999097651MD1999999-0151REMSYN070AAXX  07184 82986 32598 63603 10369 20164 39765 40043 83208 333 59015;
0178829860999992006110800004-09400-038217FM-12+0253SBUF V0200901N003112200019N0020001N1+02911+02201100671ADDGA1001+999999999GF100991001001999999001001KA1240M+03741MA1999999097871MD1999999-0171REMSYN082AAXX  08004 82986 32995 00906 10291 20220 39787 40067 333 10374 29056 55106 59017;
0184829860999992006110812004-09400-038217FM-12+0253SBUF V0203201N001010075019N0200001N1+02921+02041100861ADDAY121061AY221061GF105991051001008001021001KA1240N+02301MA1999999098061MD1999999-0191MW1051REMSYN082AAXX  08124 82986 31598 53202 10292 20204 39806 40086 70522 85020 333 20230 59019;
0168829860999992006110900004-09400-038217FM-12+0253SBUF V0200901N002110075019N0020001N1+03061+02171100701ADDGF106991061051008001001001KA1240M+03871MA1999999097921MD1999999+0051REMSYN088AAXX  09004 82986 32595 60904 10306 20217 39792 40070 86500 333 10387 29050 55113 58005;
0184829860999992006110912004-09400-038217FM-12+0253SBUF V0202301N001012200019N0040001N1+02931+01541100991ADDAY141061AY201061GF103991021011008001031011KA1240N+02481MA1999999098201MD1999999+0141MW1051REMSYN082AAXX  09124 82986 31596 32302 10293 20154 39820 40099 70540 82131 333 20248 58014;
0137829860999992006110918004-09400-038217FM-12+0253SBUF V0200901N002612200019N0200001N1+03661+01861100431ADDGF103991031021008001001001MA1999999097671MD1999999+0131REMSYN070AAXX  09184 82986 32598 30905 10366 20186 39767 40043 83200 333 58013;
0178829860999992006111000004-09400-038217FM-12+0253SBUF V0201801N004112200019N0020001N1+02821+02241100841ADDGA1001+999999999GF100991001001999999001001KA1240M+03701MA1999999098041MD1999999+0121REMSYN082AAXX  10004 82986 32995 01808 10282 20224 39804 40084 333 10370 29059 55105 58012;
0184829860999992006111012004-09400-038217FM-12+0253SBUF V0203201N001512200019N0100001N1+03031+02181101021ADDAY141061AY201061GF103991021011008001041001KA1240N+02461MA1999999098221MD1999999+0021MW1051REMSYN082AAXX  10124 82986 31597 33203 10303 20218 39822 40102 70540 82140 333 20246 58002;
0137829860999992006111018004-09400-038217FM-12+0253SBUF V0203201N002610075019N0200001N1+03731+01771100421ADDGF105991051041008001001001MA1999999097661MD1999999-0011REMSYN070AAXX  10184 82986 32598 53205 10373 20177 39766 40042 85400 333 59001;
0178829860999992006111100004-09400-038217FM-12+0253SBUF V0200901N003612200019N0020001N1+03041+02121100801ADDGA1001+999999999GF100991001001999999001001KA1240M+03721MA1999999098021MD1999999-0021REMSYN082AAXX  11004 82986 32995 00907 10304 20212 39802 40080 333 10372 29052 55099 59002;
0156829860999992006111112004-09400-038217FM-12+0253SBUF V0203201N003110450019N0100001N1+03101+02291101011ADDGF106991021011008001041021KA1240N+02561MA1999999098231MD1999999+0011REMSYN076AAXX  11124 82986 32597 63206 10310 20229 39823 40101 82142 333 20256 58001;
0165829860999992006111118004-09400-038217FM-12+0253SBUF V0203601N003110450019N0200001N1+03481+02111100581ADDAY121061AY221061GF106991031041008001041021MA1999999097801MD1999999+0141MW1151REMSYN076AAXX  11184 82986 31598 63606 10348 20211 39780 40058 71522 83442 333 58014;
0213829860999992006111200004-09400-038217FM-12+0253SBUF V0201801N001519999999N0020001N1+02601+02501101081ADDAA106004191AY161061AY221061GF106991061001008001071001KA1240M+03541MA1999999098271MD1999999+0251MW1021REMSYN100AAXX  12004 82986 21595 61803 10260 20250 39827 40108 70262 86070 333 10354 29074 55079 58025 60041;
0201829860999992006111212004-09400-038217FM-12+0253SBUF V0202701N001511050019N0100001N1+02741+02121101301ADDAA124005191AY161061AY251061GF106991011011008001031041KA1240N+02321MA1999999098461MD1999999+0231MW1011REMSYN088AAXX  12124 82986 21597 62703 10274 20212 39846 40130 70165 81134 333 20232 58023 60054;
0137829860999992006111218004-09400-038217FM-12+0253SBUF V0202701N001512200019N0200001N1+03591+01751100711ADDGF104991031021008001041001MA1999999097931MD1999999+0131REMSYN070AAXX  12184 82986 32598 42703 10359 20175 39793 40071 83240 333 58013;
0178829860999992006111300004-09400-038217FM-12+0253SBUF V0200901N003112200019N0020001N1+02831+02421101121ADDGA1001+999999999GF100991001001999999001001KA1240M+03601MA1999999098301MD1999999+0031REMSYN082AAXX  13004 82986 32995 00906 10283 20242 39830 40112 333 10360 29065 55081 58003;
0184829860999992006111312004-09400-038217FM-12+0253SBUF V0200901N001512200019N0100001N1+02841+01961101301ADDAY141061AY201061GF104991041011008001001001KA1240N+02271MA1999999098481MD1999999+0021MW1051REMSYN082AAXX  13124 82986 31597 40903 10284 20196 39848 40130 70540 84100 333 20227 58002;
0137829860999992006111318004-09400-038217FM-12+0253SBUF V0201401N004612200019N0200001N1+03491+01571100761ADDGF104991041011008001001001MA1999999097961MD1999999+0031REMSYN070AAXX  13184 82986 32598 41409 10349 20157 39796 40076 84100 333 58003;
0178829860999992006111400004-09400-038217FM-12+0253SBUF V0201401N009312200019N0020001N1+02601+02011101131ADDGA1001+999999999GF100991001001999999001001KA1240M+03511MA1999999098301MD1999999+0001REMSYN082AAXX  14004 82986 32995 01418 10260 20201 39830 40113 333 10351 29058 55111 58000;
0156829860999992006111412004-09400-038217FM-12+0253SBUF V0200901N005110075019N0100001N1+02781+01881101311ADDGF105991051021008001001001KA1240N+02161MA1999999098481MD1999999+0001REMSYN076AAXX  14124 82986 32597 50910 10278 20188 39848 40131 85200 333 20216 58000;
0137829860999992006111418004-09400-038217FM-12+0253SBUF V0201401N005710450019N0200001N1+03331+01331100791ADDGF106991041051008001041001MA1999999097981MD1999999+0021REMSYN070AAXX  14184 82986 32598 61411 10333 20133 39798 40079 84540 333 58002;
0178829860999992006111500004-09400-038217FM-12+0253SBUF V0201401N004112200019N0020001N1+02521+02071101151ADDGA1001+999999999GF100991001001999999001001KA1240M+03441MA1999999098321MD1999999+0021REMSYN082AAXX  15004 82986 32995 01408 10252 20207 39832 40115 333 10344 29060 55103 58002;
0156829860999992006111512004-09400-038217FM-12+0253SBUF V0200901N006210042019N0100001N1+02691+02061101431ADDGF107991051021004501081999KA1240N+02241MA1999999098561MD1999999+0081REMSYN076AAXX  15124 82986 32497 70912 10269 20206 39856 40143 8528/ 333 20224 58008;
0137829860999992006111518004-09400-038217FM-12+0253SBUF V0200901N006212200019N0200001N1+03261+02051100931ADDGF106991021021008001001041MA1999999098111MD1999999+0131REMSYN070AAXX  15184 82986 32598 60912 10326 20205 39811 40093 82204 333 58013;
0178829860999992006111600004-09400-038217FM-12+0253SBUF V0201401N005712200019N0020001N1+02521+02171101411ADDGA1001+999999999GF100991001001999999001001KA1240M+03391MA1999999098561MD1999999+0241REMSYN082AAXX  16004 82986 32995 01411 10252 20217 39856 40141 333 10339 29070 55085 58024;
0184829860999992006111612004-09400-038217FM-12+0253SBUF V0200901N006710075019N0040001N1+02781+02011101291ADDAY141061AY221061GF106991061021008001001001KA1240N+02261MA1999999098531MD1999999-0031MW1051REMSYN082AAXX  16124 82986 31596 60913 10278 20201 39853 40129 70542 86200 333 20226 59003;
0165829860999992006111618004-09400-038217FM-12+0253SBUF V0200901N006710042019N0040001N1+02881+02161101021ADDAY111061AY201061GF108991081071004501999999MA1999999098181MD1999999+0071MW1151REMSYN076AAXX  16184 82986 31496 80913 10288 20216 39818 40102 71510 887// 333 58007;
0213829860999992006111700004-09400-038217FM-12+0253SBUF V0201401N005712200019N0020001N1+02521+02331101371ADDAA106004191AY161061AY251061GF103991031001017501021001KA1240M+03411MA1999999098531MD1999999-0031MW1011REMSYN100AAXX  17004 82986 21795 31411 10252 20233 39853 40137 70165 83020 333 10341 29076 55074 59003 60041;
0201829860999992006111712004-09400-038217FM-12+0253SBUF V0200901N007710042019N0100001N1+02351+02051101551ADDAA124004191AY161061AY251061GF108991081071004501999999KA1240N+02101MA1999999098681MD1999999+0151MW1031REMSYN088AAXX  17124 82986 21497 80915 10235 20205 39868 40155 70365 887// 333 20210 58015 60044;
0137829860999992006111718004-09400-038217FM-12+0253SBUF V0201801N005110075019N0200001N1+03071+01661101021ADDGF105991051051008001001001MA1999999098181MD1999999+0001REMSYN070AAXX  17184 82986 32598 51810 10307 20166 39818 40102 85500 333 58000;
0178829860999992006111800004-09400-038217FM-12+0253SBUF V0200901N005712200019N0020001N1+02531+02341101291ADDGA1001+999999999GF100991001001999999001001KA1240M+03081MA1999999098431MD1999999-0101REMSYN082AAXX  18004 82986 32995 00911 10253 20234 39843 40129 333 10308 29077 55039 59010;
0156829860999992006111812004-09400-038217FM-12+0253SBUF V0200901N003610075019N0100001N1+02621+01831101451ADDGF106991061041008001001001KA1240N+02121MA1999999098601MD1999999-0081REMSYN076AAXX  18124 82986 32597 60907 10262 20183 39860 40145 86400 333 20212 59008;
0137829860999992006111818004-09400-038217FM-12+0253SBUF V0200901N003611050019N0200001N1+03341+01541100841ADDGF105991031021008001001021MA1999999098031MD1999999-0151REMSYN070AAXX  18184 82986 32598 50907 10334 20154 39803 40084 83202 333 59015;
0178829860999992006111900004-09400-038217FM-12+0253SBUF V0200901N005712200019N0020001N1+02671+02391101201ADDGA1001+999999999GF100991001001999999001001KA1240M+03481MA1999999098361MD1999999-0071REMSYN082AAXX  19004 82986 32995 00911 10267 20239 39836 40120 333 10348 29066 55099 59007;
0156829860999992006111912004-09400-038217FM-12+0253SBUF V0200901N002610075019N0100001N1+02771+02021101441ADDGF106991051041008001001011KA1240N+02261MA1999999098601MD1999999+0001REMSYN076AAXX  19124 82986 32597 60905 10277 20202 39860 40144 85401 333 20226 58000;
0137829860999992006111918004-09400-038217FM-12+0253SBUF V0200501N002111050019N0200001N1+03431+01561100861ADDGF105991041021008001001021MA1999999098061MD1999999+0031REMSYN070AAXX  19184 82986 32598 50504 10343 20156 39806 40086 84202 333 58003;
0178829860999992006112000004-09400-038217FM-12+0253SBUF V0201801N005112200019N0020001N1+02761+02021101191ADDGA1001+999999999GF100991001001999999001001KA1240M+03491MA1999999098361MD1999999+0001REMSYN082AAXX  20004 82986 32995 01810 10276 20202 39836 40119 333 10349 29056 55100 58000;
0156829860999992006112012004-09400-038217FM-12+0253SBUF V0200901N001510450019N0100001N1+02781+02061101431ADDGF106991031021008001051001KA1240N+02291MA1999999098601MD1999999+0001REMSYN076AAXX  20124 82986 32597 60903 10278 20206 39860 40143 83250 333 20229 59000;
0137829860999992006112018004-09400-038217FM-12+0253SBUF V0201401N003112200019N0200001N1+03551+01711100821ADDGF104991041021008001001001MA1999999098031MD1999999-0031REMSYN070AAXX  20184 82986 32598 41406 10355 20171 39803 40082 84200 333 59003;
0178829860999992006112100004-09400-038217FM-12+0253SBUF V0201801N001512200019N0020001N1+02461+02011101341ADDGA1001+999999999GF100991001001999999001001KA1240M+03581MA1999999098491MD1999999+0131REMSYN082AAXX  21004 82986 32995 01803 10246 20201 39849 40134 333 10358 29063 55090 58013;
0137829860999992006112118004-09400-038217FM-12+0253SBUF V0201801N004612200019N0200001N1+03531+01791100831ADDGF104991041021008001001001MA1999999098021MD1999999-0011REMSYN070AAXX  21184 82986 32598 41809 10353 20179 39802 40083 84200 333 59001;
0178829860999992006112200004-09400-038217FM-12+0253SBUF V0200901N004112200019N0020001N1+02581+02041101141ADDGA1001+999999999GF100991001001999999001001KA1240M+03581MA1999999098321MD1999999-0171REMSYN082AAXX  22004 82986 32995 00908 10258 20204 39832 40114 333 10358 29059 55113 59017;
0184829860999992006112212004-09400-038217FM-12+0253SBUF V0201401N001510450019N0040001N1+02781+02041101281ADDAY141061AY221061GF107991041041008001021001KA1240N+02261MA1999999098441MD1999999-0061MW1051REMSYN082AAXX  22124 82986 31596 71403 10278 20204 39844 40128 70542 84420 333 20226 59006;
0137829860999992006112218004-09400-038217FM-12+0253SBUF V0200901N002610450019N0200001N1+03311+01551100831ADDGF106991021021008001051081MA1999999098021MD1999999+0001REMSYN070AAXX  22184 82986 32598 60905 10331 20155 39802 40083 82258 333 58000;
0165829860999992006112300004-09400-038217FM-12+0253SBUF V0201401N006712200019N0020001N1+02801+02031101061ADDGA1001+999999999GF100991001001999999001001KA1240M+03421KA2999N+00561MA1999999098251REMSYN070AAXX  23004 82986 32995 01413 10280 20203 39825 40106 333 10342 29056;
0156829860999992006112312004-09400-038217FM-12+0253SBUF V0201401N003112200019N0100001N1+02861+01981101211ADDGF104991011011008001031011KA1240N+02261MA1999999098401MD1999999-0041REMSYN076AAXX  23124 82986 32597 41406 10286 20198 39840 40121 81131 333 20226 59004;
0137829860999992006112318004-09400-038217FM-12+0253SBUF V0200901N003112200019N0200001N1+03481+01791100801ADDGF105991031021008001001061MA1999999098001MD1999999-0021REMSYN070AAXX  23184 82986 32598 50906 10348 20179 39800 40080 83206 333 59002;
0178829860999992006112400004-09400-038217FM-12+0253SBUF V0200901N005112200019N0020001N1+02731+02051101081ADDGA1001+999999999GF100991001001999999001001KA1240M+03521MA1999999098261MD1999999+0011REMSYN082AAXX  24004 82986 32995 00910 10273 20205 39826 40108 333 10352 29058 55102 58001;
0156829860999992006112412004-09400-038217FM-12+0253SBUF V0200901N004112200019N0100001N1+02881+01941101301ADDGF104991041041008001001001KA1240N+02161MA1999999098481MD1999999+0081REMSYN076AAXX  24124 82986 32597 40908 10288 20194 39848 40130 84400 333 20216 58008;
0178829860999992006112500004-09400-038217FM-12+0253SBUF V0201401N006712200019N0020001N1+02651+01981101281ADDGA1001+999999999GF100991001001999999001001KA1240M+03331MA1999999098451MD1999999+0191REMSYN082AAXX  25004 82986 32995 01413 10265 20198 39845 40128 333 10333 29058 55099 58019;
0156829860999992006112512004-09400-038217FM-12+0253SBUF V0201401N003610075019N0100001N1+02721+02051101351ADDGF105991051041008001001001KA1240N+02161MA1999999098521MD1999999+0041REMSYN076AAXX  25124 82986 32597 51407 10272 20205 39852 40135 85400 333 20216 58004;
0137829860999992006112518004-09400-038217FM-12+0253SBUF V0200901N005110075019N0200001N1+03241+01711100901ADDGF106991061041008001001001MA1999999098081MD1999999+0001REMSYN070AAXX  25184 82986 32598 60910 10324 20171 39808 40090 86400 333 58000;
0168829860999992006112600004-09400-038217FM-12+0253SBUF V0201401N005119999999N0020001N1+02491+02031101231ADDGF106991061001012501071001KA1240M+03321MA1999999098391MD1999999-0061REMSYN088AAXX  26004 82986 32695 61410 10249 20203 39839 40123 86070 333 10332 29065 55092 59006;
0156829860999992006112612004-09400-038217FM-12+0253SBUF V0200901N002612200019N0200001N1+02841+01671101301ADDGF102991021011008001001001KA1240N+02241MA1999999098461MD1999999-0061REMSYN076AAXX  26124 82986 32598 20905 10284 20167 39846 40130 82100 333 20224 59006;
0137829860999992006112618004-09400-038217FM-12+0253SBUF V0200901N002612200019N0200001N1+03451+01381100731ADDGF104991041011008001001001MA1999999097941MD1999999-0141REMSYN070AAXX  26184 82986 32598 40905 10345 20138 39794 40073 84100 333 59014;
0178829860999992006112700004-09400-038217FM-12+0253SBUF V0201401N005712200019N0020001N1+02711+01721101001ADDGA1001+999999999GF100991001001999999001001KA1240M+03561MA1999999098191MD1999999-0201REMSYN082AAXX  27004 82986 32995 01411 10271 20172 39819 40100 333 10356 29049 55101 59020;
0197829860999992006112712004-09400-038217FM-12+0253SBUF V0200901N003112200019N0100001N1+02841+01821101161ADDAY151061AY241061GF102991021011008001001001KA1240N+02181MA1999999098341MD1999999-0121REMSYN082AAXX  27124 82986 31597 20906 10284 20182 39834 40116 77054 82100 333 20218 59012;EQDQ01+000702PRSWM1
0137829860999992006112718004-09400-038217FM-12+0253SBUF V0201801N002612200019N0200001N1+03551+01241100611ADDGF103991031011008001001001MA1999999097821MD1999999-0121REMSYN070AAXX  27184 82986 32598 31805 10355 20124 39782 40061 83100 333 59012;
0178829860999992006112800004-09400-038217FM-12+0253SBUF V0201401N007212200019N0020001N1+02821+01891100911ADDGA1001+999999999GF100991001001999999001001KA1240M+03621MA1999999098111MD1999999-0081REMSYN082AAXX  28004 82986 32995 01414 10282 20189 39811 40091 333 10362 29048 55112 59008;
0184829860999992006112812004-09400-038217FM-12+0253SBUF V0200901N003110450019N0040001N1+02871+02011101131ADDAY141061AY221061GF106991031011008001031061KA1240N+02321MA1999999098321MD1999999-0021MW1051REMSYN082AAXX  28124 82986 31596 60906 10287 20201 39832 40113 70542 83136 333 20232 59002;
0137829860999992006112818004-09400-038217FM-12+0253SBUF V0201401N004112200019N0200001N1+03611+01411100631ADDGF104991041041008001001001MA1999999097851MD1999999+0031REMSYN070AAXX  28184 82986 32598 41408 10361 20141 39785 40063 84400 333 58003;
0178829860999992006112900004-09400-038217FM-12+0253SBUF V0200901N006712200019N0020001N1+02761+01721100951ADDGA1001+999999999GF100991001001999999001001KA1240M+03581MA1999999098141MD1999999+0031REMSYN082AAXX  29004 82986 32995 00913 10276 20172 39814 40095 333 10358 29048 55091 58003;
0156829860999992006112912004-09400-038217FM-12+0253SBUF V0200901N001510075019N0100001N1+02661+01971101151ADDGF106991061041008001001001KA1240N+02221MA1999999098321MD1999999+0001REMSYN076AAXX  29124 82986 32597 60903 10266 20197 39832 40115 86400 333 20222 58000;
0137829860999992006112918004-09400-038217FM-12+0253SBUF V0200901N002612200019N0200001N1+03441+01431100711ADDGF104991041011008001001001MA1999999097911MD1999999+0061REMSYN070AAXX  29184 82986 32598 40905 10344 20143 39791 40071 84100 333 58006;
0156829860999992006113012004-09400-038217FM-12+0253SBUF V0202301N001512200019N0200001N1+02701+01941101201ADDGF102991021011008001001001KA1240N+02201MA1999999098371MD1999999+0051REMSYN076AAXX  30124 82986 32598 22303 10270 20194 39837 40120 82100 333 20220 58005;
0137829860999992006113018004-09400-038217FM-12+0253SBUF V0201801N001512200019N0200001N1+03571+01481100641ADDGF102991021021008001001001MA1999999097851MD1999999-0061REMSYN070AAXX  30184 82986 32598 21803 10357 20148 39785 40064 82200 333 59006;
0178829860999992006120100004-09400-038217FM-12+0253SBUF V0200901N006712200019N0020001N1+02771+02091100921ADDGA1001+999999999GF100991001001999999001001KA1240M+03591MA1999999098101MD1999999-0041REMSYN082AAXX  01004 82986 32995 00913 10277 20209 39810 40092 333 10359 29056 55102 59004;
0184829860999992006120112004-09400-038217FM-12+0253SBUF V0202301N001512200019N0100001N1+02781+02061101121ADDAY141061AY211061GF103991021011008001031001KA1240N+02311MA1999999098301MD1999999-0071MW1051REMSYN082AAXX  01124 82986 31597 32303 10278 20206 39830 40112 70541 82130 333 20231 59007;
0137829860999992006120118004-09400-038217FM-12+0253SBUF V0201801N003112200019N0200001N1+03641+01501100561ADDGF103991031021008001001001MA1999999097781MD1999999-0071REMSYN070AAXX  01184 82986 32598 31806 10364 20150 39778 40056 83200 333 59007;
0178829860999992006120200004-09400-038217FM-12+0253SBUF V0200901N005112200019N0020001N1+02791+02131100961ADDGA1001+999999999GF100991001001999999001001KA1240M+03651MA1999999098151MD1999999+0051REMSYN082AAXX  02004 82986 32995 00910 10279 20213 39815 40096 333 10365 29057 55103 58005;
0156829860999992006120212004-09400-038217FM-12+0253SBUF V0200901N003110075019N0100001N1+02861+02031101171ADDGF105991051021008001001001KA1240N+02371MA1999999098251MD1999999+0051REMSYN076AAXX  02124 82986 32597 50906 10286 20203 39825 40117 85200 333 20237 58005;
0137829860999992006120218004-09400-038217FM-12+0253SBUF V0201401N003611050019N0200001N1+03441+01381100721ADDGF106991021041008001051061MA1999999097551MD1999999+0061REMSYN070AAXX  02184 82986 32598 61407 10344 20138 39755 40072 82456 333 58006;
0178829860999992006120300004-09400-038217FM-12+0253SBUF V0200901N005712200019N0020001N1+02751+01971101091ADDGA1001+999999999GF100991001001999999001001KA1240M+03481MA1999999098281MD1999999+0131REMSYN082AAXX  03004 82986 32995 00911 10275 20197 39828 40109 333 10348 29054 55083 58013;
0156829860999992006120312004-09400-038217FM-12+0253SBUF V0201801N005710075019N0100001N1+02841+02011101211ADDGF105991051021008001001001KA1240N+02311MA1999999098391MD1999999+0041REMSYN076AAXX  03124 82986 32597 51811 10284 20201 39839 40121 85200 333 20231 58004;
0137829860999992006120318004-09400-038217FM-12+0253SBUF V0201401N005711050019N0200001N1+03501+01431100791ADDGF106991031041008001001021MA1999999097991MD1999999+0061REMSYN070AAXX  03184 82986 32598 61411 10350 20143 39799 40079 83402 333 58006;
0156829860999992006120412004-09400-038217FM-12+0253SBUF V0200901N006210075019N0100001N1+02811+01901101251ADDGF106991061021008001001001KA1240N+02101MA1999999098421MD1999999+0031REMSYN076AAXX  04124 82986 32597 60912 10281 20190 39842 40125 86200 333 20210 58003;
0165829860999992006120418004-09400-038217FM-12+0253SBUF V0200901N008210021019N0040001N1+02761+02071101031ADDAY121061AY211061GF108991051071002501071999MA1999999098221MD1999999+0231MW1151REMSYN076AAXX  04184 82986 31396 80916 10276 20207 39822 40103 71521 8577/ 333 58023;
0187829860999992006120500004-09400-038217FM-12+0253SBUF V0201801N004119999999N0020001N1+02561+02281101161ADDGF105991999051008001001001KA1240M+03131MA1999999098331MD1999999-0061REMSYN088AAXX  05004 82986 32595 51808 10256 20228 39833 40116 84500 333 10313 29070 55045 59006;EQDQ01+000042SCOTLC
0156829860999992006120512004-09400-038217FM-12+0253SBUF V0200901N003112200019N0100001N1+02821+01831101411ADDGF104991021011008001001021KA1240N+02201MA1999999098571MD1999999+0151REMSYN076AAXX  05124 82986 32597 40906 10282 20183 39857 40141 82102 333 20220 58015;
0137829860999992006120518004-09400-038217FM-12+0253SBUF V0200901N003111050019N0200001N1+03521+01601100941ADDGF106991021011008001031061MA1999999098141MD1999999-0081REMSYN070AAXX  05184 82986 32598 60906 10352 20160 39814 40094 82136 333 59008;
0168829860999992006120600004-09400-038217FM-12+0253SBUF V0200901N007712200019N0020001N1+02811+01691101181ADDGF102991001001999999001041KA1240M+03521MA1999999098361MD1999999+0031REMSYN088AAXX  06004 82986 32995 20915 10281 20169 39836 40118 80004 333 10352 29047 55108 58003;
0178829860999992006120700004-09400-038217FM-12+0253SBUF V0200901N006212200019N0020001N1+02861+01871101021ADDGA1001+999999999GF100991001001999999001001KA1240M+03591MA1999999098211MD1999999-0151REMSYN082AAXX  07004 82986 32995 00912 10286 20187 39821 40102 333 10359 29050 55112 59015;
0156829860999992006120712004-09400-038217FM-12+0253SBUF V0202301N001512200019N0200001N1+02721+01931101141ADDGF102991001001999999001051KA1240N+02201MA1999999098321MD1999999-0221REMSYN076AAXX  07124 82986 32998 22303 10272 20193 39832 40114 80005 333 20220 59022;
0137829860999992006120718004-09400-038217FM-12+0253SBUF V0202301N002612200019N0200001N1+03441+01211100551ADDGF103991011011012501001081MA1999999097771MD1999999-0231REMSYN070AAXX  07184 82986 32698 32305 10344 20121 39777 40055 81108 333 59023;
0168829860999992006120800004-09400-038217FM-12+0253SBUF V0200901N005112200019N0020001N1+02941+02081100811ADDGF103991021011008001001061KA1240M+03741MA1999999098011MD1999999-0201REMSYN088AAXX  08004 82986 32595 30910 10294 20208 39801 40081 82106 333 10374 29051 55086 59020;
0156829860999992006120812004-09400-038217FM-12+0253SBUF V0200501N002619999999N0200001N1+03071+02051101031ADDGF105991001001999999001061KA1240N+02471MA1999999098241MD1999999-0081REMSYN076AAXX  08124 82986 32998 50505 10307 20205 39824 40103 80006 333 20247 59008;
0213829860999992006120900004-09400-038217FM-12+0253SBUF V0201801N004610450019N0020001N1+02861+02421100831ADDAA106008991AY191061AY261061GF106991041021008001081001KA1240M+03871MA1999999098041MD1999999+0031MW1021REMSYN100AAXX  09004 82986 21595 61809 10286 20242 39804 40083 70296 84280 333 10387 29058 55105 58003 60091;
0201829860999992006120912004-09400-038217FM-12+0253SBUF V0203201N001511050019N0040001N1+02881+02081101151ADDAA124008991AY141061AY221061GF106991041001017501031091KA1240N+02481MA1999999098341MD1999999+0101MW1051REMSYN088AAXX  09124 82986 21796 63203 10288 20208 39834 40115 70542 84039 333 20248 58010 60094;
0137829860999992006120918004-09400-038217FM-12+0253SBUF V0201401N005711050019N0200001N1+02711+01311100531ADDGF106991021011008001001081MA1999999097761MD1999999+0101REMSYN070AAXX  09184 82986 32598 61411 10271 20131 39776 40053 82108 333 58010;
0178829860999992006121000004-09400-038217FM-12+0253SBUF V0201401N006712200019N0020001N1+02941+02051100971ADDGA1001+999999999GF100991001001999999001001KA1240M+03721MA1999999098171MD1999999+0171REMSYN082AAXX  10004 82986 32995 01413 10294 20205 39817 40097 333 10372 29051 55093 58017;
0156829860999992006121012004-09400-038217FM-12+0253SBUF V0200901N003612200019N0100001N1+03041+01881101151ADDGF102991011011008001001051KA1240N+02341MA1999999098351MD1999999+0011REMSYN076AAXX  10124 82986 32597 20907 10304 20188 39835 40115 81105 333 20234 58001;
0137829860999992006121018004-09400-038217FM-12+0253SBUF V0200501N002612200019N0200001N1+03701+01491100631ADDGF102991021011008001001041MA1999999097851MD1999999+0091REMSYN070AAXX  10184 82986 32598 20505 10370 20149 39785 40063 82104 333 58009;
0178829860999992006121100004-09400-038217FM-12+0253SBUF V0201401N005712200019N0020001N1+03021+02101100911ADDGA1001+999999999GF100991001001999999001001KA1240M+03701MA1999999098131MD1999999-0041REMSYN082AAXX  11004 82986 32995 01411 10302 20210 39813 40091 333 10370 29048 55099 59004;
0156829860999992006121112004-09400-038217FM-12+0253SBUF V0203201N002112200019N0100001N1+02981+01981101171ADDGF106991021011008001001041KA1240N+02361MA1999999098371MD1999999+0021REMSYN076AAXX  11124 82986 32597 63204 10298 20198 39837 40117 82104 333 20236 58002;
0137829860999992006121118004-09400-038217FM-12+0253SBUF V0203201N001012200019N0200001N1+03621+01641100641ADDGF104991041021008001001001MA1999999097861MD1999999+0011REMSYN070AAXX  11184 82986 32598 43202 10362 20164 39786 40064 84200 333 58001;
0178829860999992006121200004-09400-038217FM-12+0253SBUF V0200901N003612200019N0020001N1+02911+02271101031ADDGA1001+999999999GF100991001001999999001001KA1240M+03691MA1999999098231MD1999999+0101REMSYN082AAXX  12004 82986 32995 00907 10291 20227 39823 40103 333 10369 29056 55101 58010;
0156829860999992006121212004-09400-038217FM-12+0253SBUF V0202701N001012200019N0040001N1+02901+02041101291ADDGF106991021041008001001061KA1240N+02461MA1999999098481MD1999999+0111REMSYN076AAXX  12124 82986 32596 62702 10290 20204 39848 40129 82406 333 20246 58011;
0137829860999992006121218004-09400-038217FM-12+0253SBUF V0200901N002611050019N0200001N1+03511+01771100711ADDGF106991021021008001001081MA1999999097931MD1999999+0071REMSYN070AAXX  12184 82986 32598 60905 10351 20177 39793 40071 82208 333 58007;
0178829860999992006121300004-09400-038217FM-12+0253SBUF V0200901N006212200019N0020001N1+02881+02161101041ADDGA1001+999999999GF100991001001999999001001KA1240M+03601MA1999999098241MD1999999+0011REMSYN082AAXX  13004 82986 32995 00912 10288 20216 39824 40104 333 10360 29056 55078 58001;
0184829860999992006121312004-09400-038217FM-12+0253SBUF V0200901N002612200019N0100001N1+02931+01981101281ADDAY141061AY211061GF105991021011008001001041KA1240N+02301MA1999999098471MD1999999-0011MW1051REMSYN082AAXX  13124 82986 31597 50905 10293 20198 39847 40128 70541 82104 333 20230 59001;
0137829860999992006121318004-09400-038217FM-12+0253SBUF V0201401N003612200019N0200001N1+03541+01671100791ADDGF105991021011008001001081MA1999999097991MD1999999+0061REMSYN070AAXX  13184 82986 32598 51407 10354 20167 39799 40079 82108 333 58006;
0178829860999992006121400004-09400-038217FM-12+0253SBUF V0201401N005712200019N0020001N1+02781+01981101131ADDGA1001+999999999GF100991001001999999001001KA1240M+03591MA1999999098321MD1999999+0081REMSYN082AAXX  14004 82986 32995 01411 10278 20198 39832 40113 333 10359 29054 55109 58008;
0156829860999992006121412004-09400-038217FM-12+0253SBUF V0200901N003610075019N0100001N1+02781+02041101351ADDGF105991051041008001001001KA1240N+02301MA1999999098531MD1999999+0061REMSYN076AAXX  14124 82986 32597 50907 10278 20204 39853 40135 85400 333 20230 58006;
0137829860999992006121418004-09400-038217FM-12+0253SBUF V0201401N005112200019N0200001N1+03531+01741100821ADDGF104991041011008001001001MA1999999098021MD1999999+0031REMSYN070AAXX  14184 82986 32598 41410 10353 20174 39802 40082 84100 333 58003;
0178829860999992006121500004-09400-038217FM-12+0253SBUF V0201401N007712200019N0020001N1+02721+01881101241ADDGA1001+999999999GF100991001001999999001001KA1240M+03561MA1999999098411MD1999999+0091REMSYN082AAXX  15004 82986 32995 01415 10272 20188 39841 40124 333 10356 29054 55105 58009;
0156829860999992006121512004-09400-038217FM-12+0253SBUF V0200901N005110075019N0100001N1+02721+01931101341ADDGF105991051011008001001001KA1240N+02191MA1999999098511MD1999999-0021REMSYN076AAXX  15124 82986 32597 50910 10272 20193 39851 40134 85100 333 20219 59002;
0137829860999992006121518004-09400-038217FM-12+0253SBUF V0201401N005112200019N0200001N1+03411+01721100791ADDGF103991021011008001001011MA1999999097981MD1999999-0041REMSYN070AAXX  15184 82986 32598 31410 10341 20172 39798 40079 82101 333 59004;
0178829860999992006121600004-09400-038217FM-12+0253SBUF V0201401N006712200019N0020001N1+02741+01891101141ADDGA1001+999999999GF100991001001999999001001KA1240M+03481MA1999999098321MD1999999-0091REMSYN082AAXX  16004 82986 32995 01413 10274 20189 39832 40114 333 10348 29055 55112 59009;
0184829860999992006121612004-09400-038217FM-12+0253SBUF V0200901N002110075019N0040001N1+02881+01891101331ADDAY141061AY201061GF106991061011008001001001KA1240N+02281MA1999999098511MD1999999+0001MW1051REMSYN082AAXX  16124 82986 31596 60904 10288 20189 39851 40133 70540 86100 333 20228 58000;
0137829860999992006121618004-09400-038217FM-12+0253SBUF V0201401N003112200019N0200001N1+03591+01661100811ADDGF103991031021008001001001MA1999999098021MD1999999+0041REMSYN070AAXX  16184 82986 32598 31406 10359 20166 39802 40081 83200 333 58004;
0178829860999992006121700004-09400-038217FM-12+0253SBUF V0200901N006712200019N0020001N1+02801+02001101161ADDGA1001+999999999GF100991001001999999001001KA1240M+03621MA1999999098351MD1999999+0031REMSYN082AAXX  17004 82986 32995 00913 10280 20200 39835 40116 333 10362 29052 55107 58003;
0184829860999992006121812004-09400-038217FM-12+0253SBUF V0200901N004610450019N0100001N1+02851+01911101321ADDAY141061AY211061GF106991031041008001031091KA1240N+02301MA1999999098501MD1999999-0081MW1051REMSYN082AAXX  18124 82986 31597 60909 10285 20191 39850 40132 70541 83439 333 20230 59008;
0137829860999992006121818004-09400-038217FM-12+0253SBUF V0200901N002612200019N0200001N1+03661+01511100791ADDGF102991021011008001001001MA1999999098001MD1999999-0051REMSYN070AAXX  18184 82986 32598 20905 10366 20151 39800 40079 82100 333 59005;
0178829860999992006121900004-09400-038217FM-12+0253SBUF V0200901N007712200019N0020001N1+02781+02111101181ADDGA1001+999999999GF100991001001999999001001KA1240M+03671MA1999999098361MD1999999-0021REMSYN082AAXX  19004 82986 32995 00915 10278 20211 39836 40118 333 10367 29055 55104 59002;
0156829860999992006121912004-09400-038217FM-12+0253SBUF V0200901N004610075019N0100001N1+02721+02001101411ADDGF107991071041008001001001KA1240N+02321MA1999999098581MD1999999+0081REMSYN076AAXX  19124 82986 32597 70909 10272 20200 39858 40141 87400 333 20232 58008;
0137829860999992006121918004-09400-038217FM-12+0253SBUF V0201401N003111050019N0200001N1+03421+01831100871ADDGF106991031021008001001081MA1999999098071MD1999999+0071REMSYN070AAXX  19184 82986 32598 61406 10342 20183 39807 40087 83208 333 58007;
0168829860999992006122000004-09400-038217FM-12+0253SBUF V0201401N006219999999N0020001N1+02701+02171101231ADDGF106991061001012501051001KA1240M+03461MA1999999098401MD1999999+0041REMSYN088AAXX  20004 82986 32695 61412 10270 20217 39840 40123 86050 333 10346 29062 55059 58004;
0156829860999992006122012004-09400-038217FM-12+0253SBUF V0200901N005110075019N0100001N1+02861+02011101561ADDGF106991061021008001001001KA1240N+02341MA1999999098731MD1999999+0151REMSYN076AAXX  20124 82986 32597 60910 10286 20201 39873 40156 86200 333 20234 58015;
0137829860999992006122018004-09400-038217FM-12+0253SBUF V0201401N004610075019N0200001N1+03421+01651100941ADDGF106991061021008001001001MA1999999098141MD1999999+0041REMSYN070AAXX  20184 82986 32598 61409 10342 20165 39814 40094 86200 333 58004;
0168829860999992006122100004-09400-038217FM-12+0253SBUF V0201801N006212200019N0020001N1+02761+02021101301ADDGF103991031011008001001001KA1240M+03551MA1999999098481MD1999999+0081REMSYN088AAXX  21004 82986 32595 31812 10276 20202 39848 40130 83100 333 10355 29056 55085 58008;
0156829860999992006122112004-09400-038217FM-12+0253SBUF V0200901N005110075019N0100001N1+02861+02141101511ADDGF106991061041008001001001KA1240N+02331MA1999999098681MD1999999-0051REMSYN076AAXX  21124 82986 32597 60910 10286 20214 39868 40151 86400 333 20233 59005;
0137829860999992006122118004-09400-038217FM-12+0253SBUF V0201401N004112200019N0200001N1+03531+01601101031ADDGF103991031011008001001001MA1999999098231MD1999999+0091REMSYN070AAXX  21184 82986 32598 31408 10353 20160 39823 40103 83100 333 58009;
0178829860999992006122200004-09400-038217FM-12+0253SBUF V0201401N006712200019N0020001N1+02801+02001101341ADDGA1001+999999999GF100991001001999999001001KA1240M+03561MA1999999098531MD1999999+0041REMSYN082AAXX  22004 82986 32995 01413 10280 20200 39853 40134 333 10356 29055 55101 58004;
0184829860999992006122212004-09400-038217FM-12+0253SBUF V0200901N005110075019N0100001N1+02811+01841101471ADDAY141061AY221061GF105991051011008001001001KA1240N+02241MA1999999098651MD1999999-0031MW1051REMSYN082AAXX  22124 82986 31597 50910 10281 20184 39865 40147 70542 85100 333 20224 59003;
0137829860999992006122218004-09400-038217FM-12+0253SBUF V0200901N003612200019N0200001N1+03611+01291100931ADDGF102991021011008001001011MA1999999098141MD1999999-0091REMSYN070AAXX  22184 82986 32598 20907 10361 20129 39814 40093 82101 333 59009;
0178829860999992006122300004-09400-038217FM-12+0253SBUF V0200901N006712200019N0020001N1+02721+02001101271ADDGA1001+999999999GF100991001001999999001001KA1240M+03541MA1999999098441MD1999999-0081REMSYN082AAXX  23004 82986 32995 00913 10272 20200 39844 40127 333 10354 29055 55110 59008;
0156829860999992006122312004-09400-038217FM-12+0253SBUF V0200901N004610075019N0100001N1+02801+01901101391ADDGF106991061041008001001001KA1240N+02301MA1999999098561MD1999999-0091REMSYN076AAXX  23124 82986 32597 60909 10280 20190 39856 40139 86400 333 20230 59009;
0137829860999992006122318004-09400-038217FM-12+0253SBUF V0200901N001010075019N0200001N1+03461+01231100901ADDGF105991051021008001001001MA1999999098101MD1999999-0041REMSYN070AAXX  23184 82986 32598 50902 10346 20123 39810 40090 85200 333 59004;
0156829860999992006122412004-09400-038217FM-12+0253SBUF V0200901N002110042019N0100001N1+02681+02111101411ADDGF108991081071004501999999KA1240N+02281MA1999999098571MD1999999+0011REMSYN076AAXX  24124 82986 32497 80904 10268 20211 39857 40141 887// 333 20228 58001;
0137829860999992006122418004-09400-038217FM-12+0253SBUF V0200901N001512200019N0200001N1+03481+01471100901ADDGF103991031021008001001001MA1999999098101MD1999999+0001REMSYN070AAXX  24184 82986 32598 30903 10348 20147 39810 40090 83200 333 58000;
0156829860999992006122512004-09400-038217FM-12+0253SBUF V0200901N002612200019N0200001N1+02861+01921101361ADDGF103991031011008001001001KA1240N+02301MA1999999098541MD1999999-0031REMSYN076AAXX  25124 82986 32598 30905 10286 20192 39854 40136 83100 333 20230 59003;
0137829860999992006122518004-09400-038217FM-12+0253SBUF V0201401N004112200019N0200001N1+03691+01291101761ADDGF102991021011008001001001MA1999999097981MD1999999-0121REMSYN070AAXX  25184 82986 32598 21408 10369 20129 39798 40176 82100 333 59012;
0178829860999992006122600004-09400-038217FM-12+0253SBUF V0201801N006712200019N0020001N1+02851+01761101041ADDGA1001+999999999GF100991001001999999001001KA1240M+03721MA1999999098231MD1999999-0011REMSYN082AAXX  26004 82986 32995 01813 10285 20176 39823 40104 333 10372 29046 55110 59001;
0156829860999992006122612004-09400-038217FM-12+0253SBUF V0202701N001012200019N0200001N1+02921+01861101311ADDGF102991021011008001001001KA1240N+02231MA1999999098501MD1999999-0041REMSYN076AAXX  26124 82986 32598 22702 10292 20186 39850 40131 82100 333 20223 59004;
0137829860999992006122618004-09400-038217FM-12+0253SBUF V0201401N002112200019N0200001N1+03711+01311100781ADDGF101991011011008001001001MA1999999098001MD1999999+0021REMSYN070AAXX  26184 82986 32598 11404 10371 20131 39800 40078 81100 333 58002;
0178829860999992006122700004-09400-038217FM-12+0253SBUF V0200901N005712200019N0020001N1+02901+01901101051ADDGA1001+999999999GF100991001001999999001001KA1240M+03731MA1999999098251MD1999999+0021REMSYN082AAXX  27004 82986 32995 00911 10290 20190 39825 40105 333 10373 29047 55112 58002;
0203829860999992006122712004-09400-038217FM-12+0253SBUF V0201401N000512200019N0040001N1+02841+01821101411ADDAY141061AY201061GF102991001001999999001021KA1240N+02341MA1999999098591MD1999999+0091MW1051REMSYN082AAXX  27124 82986 31996 21401 10284 20182 39859 40141 70540 82002 333 20234 58009;EQDQ01+000022SCOTLC
0137829860999992006122718004-09400-038217FM-12+0253SBUF V0201401N003112200019N0200001N1+03631+01301100961ADDGF106991021021008001001041MA1999999098171MD1999999+0171REMSYN070AAXX  27184 82986 32598 61406 10363 20130 39817 40096 82204 333 58017;
0178829860999992006122800004-09400-038217FM-12+0253SBUF V0200901N007212200019N0020001N1+02901+01901101211ADDGA1001+999999999GF100991001001999999001001KA1240M+03661MA1999999098401MD1999999+0151REMSYN082AAXX  28004 82986 32995 00914 10290 20190 39840 40121 333 10366 29047 55105 58015;
0184829860999992006122812004-09400-038217FM-12+0253SBUF V0201801N001512200019N0040001N1+02931+01891101581ADDAY141061AY201061GF102991021011008001001001KA1240N+02341MA1999999098701MD1999999+0111MW1051REMSYN082AAXX  28124 82986 31596 21803 10293 20189 39870 40158 70540 82100 333 20234 58011;
0137829860999992006122818004-09400-038217FM-12+0253SBUF V0201401N001012200019N0200001N1+03551+01041100981ADDGF102991021011008001001001MA1999999098181MD1999999+0011REMSYN070AAXX  28184 82986 32598 21402 10355 20104 39818 40098 82100 333 58001;
0178829860999992006122900004-09400-038217FM-12+0253SBUF V0201401N007212200019N0020001N1+02901+01901101231ADDGA1001+999999999GF100991001001999999001001KA1240M+03621MA1999999098421MD1999999+0021REMSYN082AAXX  29004 82986 32995 01414 10290 20190 39842 40123 333 10362 29046 55107 58002;
0156829860999992006122912004-09400-038217FM-12+0253SBUF V0200901N003110075019N0100001N1+02901+01901101391ADDGF105991051041008001001001KA1240N+02341MA1999999098581MD1999999-0121REMSYN076AAXX  29124 82986 32597 50906 10290 20190 39858 40139 85400 333 20234 59012;
0137829860999992006122918004-09400-038217FM-12+0253SBUF V0201401N002112200019N0200001N1+03621+01041100891ADDGF104991041021008001001001MA1999999098101MD1999999-0081REMSYN070AAXX  29184 82986 32598 41404 10362 20104 39810 40089 84200 333 59008;
0156829860999992006123012004-09400-038217FM-12+0253SBUF V0201801N002610042019N0040001N1+02741+02001101471ADDGF107991071071004501999999KA1240N+02441MA1999999098641MD1999999+0061REMSYN076AAXX  30124 82986 32496 71805 10274 20200 39864 40147 877// 333 20244 58006;
0156829860999992006123112004-09400-038217FM-12+0253SBUF V0200901N005110075019N0100001N1+02841+02191101431ADDGF106991061041008001001001KA1240N+02211MA1999999098601MD1999999-0041REMSYN076AAXX  31124 82986 32597 60910 10284 20219 39860 40143 86400 333 20221 59004;
0137829860999992006123118004-09400-038217FM-12+0253SBUF V0201801N003112200019N0200001N1+03321+01331101001ADDGF104991041041008001001001MA1999999098191MD1999999+0031REMSYN070AAXX  31184 82986 32598 41806 10332 20133 39819 40100 84400 333 58003;
