0213830960999992006010100004-10917-037050FM-12+000599999V0200901N003112200019N0020001N1+02591+02331101211ADDAA106001091AY161061AY261061GF104991041051012501001001KA1240M+03061MA1999999101141MD1999999-0181MW1211REMSYN100AAXX  01004 83096 21695 40906 10259 20233 30114 40121 72166 84500 333 10306 29080 55075 59018 60011;
0201830960999992006010112004-10917-037050FM-12+000599999V0200901N001510120019N0040001N1+02641+02391101291ADDAA124003091AY161061AY261061GF105991051051012501001001KA1240N+02391MA1999999101221MD1999999+0021MW1211REMSYN088AAXX  01124 83096 21696 50903 10264 20239 30122 40129 72166 85500 333 20239 58002 60034;
0168830960999992006010200004-10917-037050FM-12+000599999V0200901N002612200019N0020001N1+02591+02171101191ADDGF102991021051012501001001KA1240M+02981MA1999999101121MD1999999-0021REMSYN088AAXX  02004 83096 32695 20905 10259 20217 30112 40119 82500 333 10298 29077 55079 59002;
0201830960999992006010212004-10917-037050FM-12+000599999V0200901N002612200019N0020001N1+02811+02081101291ADDAA124005191AY161061AY261061GF102991021011012501001001KA1240N+02351MA1999999101221MD1999999+0001MW1211REMSYN088AAXX  02124 83096 21695 20905 10281 20208 30122 40129 72166 82100 333 20235 58000 60054;
0137830960999992006010218004-10917-037050FM-12+000599999V0200901N004112200019N0020001N1+02861+02141101121ADDGF101991011011012501001001MA1999999101051MD1999999-0111REMSYN070AAXX  02184 83096 32695 10908 10286 20214 30105 40112 81100 333 59011;
0168830960999992006010300004-10917-037050FM-12+000599999V0200901N002612200019N0020001N1+02621+02141101291ADDGF101991011051012501001001KA1240M+03011MA1999999101221MD1999999+0101REMSYN088AAXX  03004 83096 32695 10905 10262 20214 30122 40129 81500 333 10301 29070 55112 58010;
0156830960999992006010312004-10917-037050FM-12+000599999V0200901N003610120019N0020001N1+02751+02231101331ADDGF105991051011012501001001KA1240N+02361MA1999999101261MD1999999+0041REMSYN076AAXX  03124 83096 32695 50907 10275 20223 30126 40133 85100 333 20236 58004;
0137830960999992006010318004-10917-037050FM-12+000599999V0200901N004612200019N0020001N1+02891+02271101081ADDGF102991021011012501001001MA1999999101011MD1999999-0041REMSYN070AAXX  03184 83096 32695 20909 10289 20227 30101 40108 82100 333 59004;
0168830960999992006010400004-10917-037050FM-12+000599999V0200901N003112200019N0020001N1+02681+02301101151ADDGF102991021051012501001001KA1240M+03051MA1999999101081MD1999999-0141REMSYN088AAXX  04004 83096 32695 20906 10268 20230 30108 40115 82500 333 10305 29075 55084 59014;
0156830960999992006010412004-10917-037050FM-12+000599999V0200901N004112200019N0020001N1+02841+02381101241ADDGF103991031011012501001001KA1240N+02391MA1999999101171MD1999999-0091REMSYN076AAXX  04124 83096 32695 30908 10284 20238 30117 40124 83100 333 20239 59009;
0156830960999992006010418004-10917-037050FM-12+000599999V0200901N005112200019N0020001N1+02881+02321100951ADDGF103991999011012501001001MA1999999100881MD1999999-0131REMSYN070AAXX  04184 83096 32695 30910 10288 20232 30088 40095 82100 333 59013;EQDQ01+000022SCOTLC
0168830960999992006010500004-10917-037050FM-12+000599999V0200901N004112200019N0020001N1+02661+02271101041ADDGF102991021051012501001001KA1240M+03021MA1999999100971MD1999999-0111REMSYN088AAXX  05004 83096 32695 20908 10266 20227 30097 40104 82500 333 10302 29076 55099 59011;
0156830960999992006010512004-10917-037050FM-12+000599999V0200901N004112200019N0020001N1+02841+02261101161ADDGF101991011051012501001001KA1240N+02411MA1999999101091MD1999999-0081REMSYN076AAXX  05124 83096 32695 10908 10284 20226 30109 40116 81500 333 20241 59008;
0137830960999992006010518004-10917-037050FM-12+000599999V0200901N004110120019N0020001N1+02901+02341100911ADDGF105991051011012501001001MA1999999100841MD1999999-0041REMSYN070AAXX  05184 83096 32695 50908 10290 20234 30084 40091 85100 333 59004;
0156830960999992006010612004-10917-037050FM-12+000599999V0200901N004112200019N0020001N1+02861+02191101291ADDGF101991011011012501001001KA1240N+02391MA1999999101221MD1999999+0131REMSYN076AAXX  06124 83096 32695 10908 10286 20219 30122 40129 81100 333 20239 58013;
0137830960999992006010618004-10917-037050FM-12+000599999V0200901N005112200019N0020001N1+02801+02381101061ADDGF102991021011012501001001MA1999999100991MD1999999+0141REMSYN070AAXX  06184 83096 32695 20910 10280 20238 30099 40106 82100 333 58014;
0168830960999992006010700004-10917-037050FM-12+000599999V0200901N003112200019N0020001N1+02641+02271101281ADDGF102991021051012501001001KA1240M+03031MA1999999101211MD1999999+0171REMSYN088AAXX  07004 83096 32695 20906 10264 20227 30121 40128 82500 333 10303 29076 55110 58017;
0156830960999992006010712004-10917-037050FM-12+000599999V0200901N003110120019N0020001N1+02861+02141101261ADDGF105991051011012501001001KA1240N+02351MA1999999101191MD1999999-0031REMSYN076AAXX  07124 83096 32695 50906 10286 20214 30119 40126 85100 333 20235 59003;
0137830960999992006010718004-10917-037050FM-12+000599999V0200901N003112200019N0020001N1+02821+02291101081ADDGF103991031011012501001001MA1999999101011MD1999999+0021REMSYN070AAXX  07184 83096 32695 30906 10282 20229 30101 40108 83100 333 58002;
0201830960999992006010812004-10917-037050FM-12+000599999V0203601N001512200019N0020001N1+02521+02311101281ADDAA124001091AY161061AY261061GF102991021011012501001001KA1240N+02351MA1999999101211MD1999999+0011MW1011REMSYN088AAXX  08124 83096 21695 23603 10252 20231 30121 40128 70166 82100 333 20235 58001 60014;
0137830960999992006010818004-10917-037050FM-12+000599999V0200901N003612200019N0020001N1+02861+02191101131ADDGF101991011011012501001001MA1999999101061MD1999999+0051REMSYN070AAXX  08184 83096 32695 10907 10286 20219 30106 40113 81100 333 58005;
0156830960999992006010912004-10917-037050FM-12+000599999V0200901N004112200019N0020001N1+02851+02161101381ADDGF103991021011012501001011KA1240N+02511MA1999999101311MD1999999+0101REMSYN076AAXX  09124 83096 32695 30908 10285 20216 30131 40138 82101 333 20251 58010;
0137830960999992006010918004-10917-037050FM-12+000599999V0200901N003112200019N0020001N1+02901+02201101111ADDGF103991021011012501001011MA1999999101041MD1999999-0021REMSYN070AAXX  09184 83096 32695 30906 10290 20220 30104 40111 82101 333 59002;
0168830960999992006011000004-10917-037050FM-12+000599999V0200901N003112200019N0020001N1+02701+02261101311ADDGF102991021051012501001001KA1240M+02991MA1999999101241MD1999999-0011REMSYN088AAXX  10004 83096 32695 20906 10270 20226 30124 40131 82500 333 10299 29071 55079 59001;
0156830960999992006011012004-10917-037050FM-12+000599999V0200901N005112200019N0020001N1+02921+02221101471ADDGF103991031011012501001001KA1240N+02371MA1999999101401MD1999999+0091REMSYN076AAXX  10124 83096 32695 30910 10292 20222 30140 40147 83100 333 20237 58009;
0168830960999992006011100004-10917-037050FM-12+000599999V0200901N003112200019N0020001N1+02701+02221101551ADDGF103991031051012501001001KA1240M+03051MA1999999101481MD1999999+0241REMSYN088AAXX  11004 83096 32695 30906 10270 20222 30148 40155 83500 333 10305 29072 55109 58024;
0156830960999992006011112004-10917-037050FM-12+000599999V0200901N003612200019N0020001N1+02901+02201101501ADDGF102991021011012501001001KA1240N+02221MA1999999101431MD1999999+0031REMSYN076AAXX  11124 83096 32695 20907 10290 20220 30143 40150 82100 333 20222 58003;
0182830960999992006011118004-10917-037050FM-12+000599999V0200901N002112200019N0020001N1+02891+02201101271ADDAA106000391AY151061AY251061GF103991031011012501001001MA1999999101201MD1999999-0031MW1011REMSYN082AAXX  11184 83096 21695 30904 10289 20220 30120 40127 70155 83100 333 59003 69931;
0137830960999992006011218004-10917-037050FM-12+000599999V0200901N003612200019N0020001N1+02931+02191101301ADDGF103991031011012501001001MA1999999101231MD1999999+0031REMSYN070AAXX  12184 83096 32695 30907 10293 20219 30123 40130 83100 333 58003;
0168830960999992006011300004-10917-037050FM-12+000599999V0200901N004112200019N0020001N1+02661+02241101461ADDGF101991011051012501001001KA1240M+03061MA1999999101391MD1999999-0011REMSYN088AAXX  13004 83096 32695 10908 10266 20224 30139 40146 81500 333 10306 29072 55112 59001;
0156830960999992006011312004-10917-037050FM-12+000599999V0200901N004110120019N0020001N1+02831+02241101581ADDGF106991061011012501001001KA1240N+02221MA1999999101511MD1999999+0081REMSYN076AAXX  13124 83096 32695 60908 10283 20224 30151 40158 86100 333 20222 58008;
0137830960999992006011318004-10917-037050FM-12+000599999V0200901N003112200019N0020001N1+02931+02241101441ADDGF102991021011012501001001MA1999999101371MD1999999+0141REMSYN070AAXX  13184 83096 32695 20906 10293 20224 30137 40144 82100 333 58014;
0213830960999992006011400004-10917-037050FM-12+000599999V0200901N003110120019N0020001N1+02581+02331101601ADDAA106002091AY161061AY261061GF106991061051012501001001KA1240M+03051MA1999999101531MD1999999+0141MW1011REMSYN100AAXX  14004 83096 21695 60906 10258 20233 30153 40160 70166 86500 333 10305 29077 55088 58014 60021;
0173830960999992006011412004-10917-037050FM-12+000599999V0200901N003112200019N0020001N1+02901+02321101491ADDAA124002091GF104991041011012501001001KA1240N+02181MA1999999101421MD1999999-0091REMSYN082AAXX  14124 83096 22695 40906 10290 20232 30142 40149 84100 333 20218 59009 60024;
0182830960999992006011418004-10917-037050FM-12+000599999V0200901N004112200019N0020001N1+02891+02221101321ADDAA106000891AY151061AY251061GF102991021011012501001001MA1999999101251MD1999999-0121MW1011REMSYN082AAXX  14184 83096 21695 20908 10289 20222 30125 40132 70155 82100 333 59012 69971;
0201830960999992006011512004-10917-037050FM-12+000599999V0200901N002110120019N0020001N1+02761+02141101451ADDAA124006191AY161061AY261061GF105991051011012501001001KA1240N+02181MA1999999101381MD1999999-0041MW1011REMSYN088AAXX  15124 83096 21695 50904 10276 20214 30138 40145 70166 85100 333 20218 59004 60064;
0137830960999992006011518004-10917-037050FM-12+000599999V0200901N003112200019N0020001N1+02861+02011101241ADDGF101991011011012501001001MA1999999101171MD1999999-0081REMSYN070AAXX  15184 83096 32695 10906 10286 20201 30117 40124 81100 333 59008;
0201830960999992006011612004-10917-037050FM-12+000599999V0200901N003112200019N0020001N1+02831+02121101411ADDAA124000591AY151061AY251061GF103991031011012501001001KA1240N+02181MA1999999101341MD1999999-0041MW1201REMSYN088AAXX  16124 83096 21695 30906 10283 20212 30134 40141 72055 83100 333 20218 59004 69944;
0168830960999992006011700004-10917-037050FM-12+000599999V0200901N002612200019N0020001N1+02651+02201101291ADDGF103991031011012501001001KA1240M+03001MA1999999101221MD1999999-0141REMSYN088AAXX  17004 83096 32695 30905 10265 20220 30122 40129 83100 333 10300 29070 55103 59014;
0156830960999992006011712004-10917-037050FM-12+000599999V0200901N002112200019N0020001N1+02851+02141101371ADDGF103991031011012501001001KA1240N+02371MA1999999101301MD1999999-0041REMSYN076AAXX  17124 83096 32695 30904 10285 20214 30130 40137 83100 333 20237 59004;
0137830960999992006011718004-10917-037050FM-12+000599999V0200901N002612200019N0020001N1+02891+02101101241ADDGF102991021011012501001001MA1999999101171MD1999999+0001REMSYN070AAXX  17184 83096 32695 20905 10289 20210 30117 40124 82100 333 58000;
0168830960999992006011800004-10917-037050FM-12+000599999V0200901N002112200019N0020001N1+02651+02141101261ADDGF103991031011012501001001KA1240M+03021MA1999999101191MD1999999-0031REMSYN088AAXX  18004 83096 32695 30904 10265 20214 30119 40126 83100 333 10302 29069 55114 59003;
0156830960999992006011812004-10917-037050FM-12+000599999V0200901N002612200019N0020001N1+02821+02201101251ADDGF103991031011012501001001KA1240N+02391MA1999999101181MD1999999-0121REMSYN076AAXX  18124 83096 32695 30905 10282 20220 30118 40125 83100 333 20239 59012;
0168830960999992006011900004-10917-037050FM-12+000599999V0200901N002612200019N0020001N1+02671+02161101151ADDGF102991021051012501001001KA1240M+03041MA1999999101081MD1999999-0111REMSYN088AAXX  19004 83096 32695 20905 10267 20216 30108 40115 82500 333 10304 29071 55117 59011;
0201830960999992006011912004-10917-037050FM-12+000599999V0200901N003610120019N0020001N1+02731+02081101211ADDAA124000591AY151061AY251061GF105991051011012501001001KA1240N+02361MA1999999101141MD1999999-0041MW1201REMSYN088AAXX  19124 83096 21695 50907 10273 20208 30114 40121 72055 85100 333 20236 59004 69964;
0137830960999992006011918004-10917-037050FM-12+000599999V0200901N003112200019N0020001N1+02871+02211101071ADDGF104991041011012501001001MA1999999101001MD1999999-0071REMSYN070AAXX  19184 83096 32695 40906 10287 20221 30100 40107 84100 333 59007;
0168830960999992006012000004-10917-037050FM-12+000599999V0200901N002612200019N0020001N1+02651+02051101081ADDGF102991021011012501001001KA1240M+03021MA1999999101011MD1999999-0071REMSYN088AAXX  20004 83096 32695 20905 10265 20205 30101 40108 82100 333 10302 29069 55076 59007;
0156830960999992006012012004-10917-037050FM-12+000599999V0200901N002112200019N0020001N1+02831+02151101171ADDGF104991041011012501001001KA1240N+02391MA1999999101101MD1999999-0041REMSYN076AAXX  20124 83096 32695 40904 10283 20215 30110 40117 84100 333 20239 59004;
0137830960999992006012018004-10917-037050FM-12+000599999V0200901N002610120019N0020001N1+02751+02191101121ADDGF105991051011012501001001MA1999999101051MD1999999+0051REMSYN070AAXX  20184 83096 32695 50905 10275 20219 30105 40112 85100 333 58005;
0213830960999992006012100004-10917-037050FM-12+000599999V0200901N001510120019N0020001N1+02551+02381101181ADDAA106001091AY151061AY251061GF105991051051012501001001KA1240M+03011MA1999999101111MD1999999+0101MW1201REMSYN100AAXX  21004 83096 21695 50903 10255 20238 30111 40118 72055 85500 333 10301 29080 55089 58010 60011;
0201830960999992006012112004-10917-037050FM-12+000599999V0200901N004112200019N0020001N1+02791+02251101271ADDAA124007991AY161061AY261061GF104991041051012501001001KA1240N+02331MA1999999101201MD1999999+0101MW1211REMSYN088AAXX  21124 83096 21695 40908 10279 20225 30120 40127 72166 84500 333 20233 58010 60084;
0137830960999992006012118004-10917-037050FM-12+000599999V0200901N003112200019N0020001N1+02901+02341101201ADDGF104991041011012501001001MA1999999101131MD1999999+0081REMSYN070AAXX  21184 83096 32695 40906 10290 20234 30113 40120 84100 333 58008;
0168830960999992006012200004-10917-037050FM-12+000599999V0200901N002612200019N0020001N1+02671+02221101271ADDGF103991031051012501001001KA1240M+03011MA1999999101201MD1999999+0091REMSYN088AAXX  22004 83096 32695 30905 10267 20222 30120 40127 83500 333 10301 29075 55114 58009;
0201830960999992006012212004-10917-037050FM-12+000599999V0200901N002612200019N0020001N1+02831+02151101311ADDAA124000021AY151061AY251061GF103991031011012501001001KA1240N+02391MA1999999101241MD1999999+0041MW1011REMSYN088AAXX  22124 83096 21695 30905 10283 20215 30124 40131 70155 83100 333 20239 58004 69924;
0137830960999992006012218004-10917-037050FM-12+000599999V0200901N002612200019N0020001N1+02891+02211101171ADDGF103991031011012501001001MA1999999101101MD1999999-0031REMSYN070AAXX  22184 83096 32695 30905 10289 20221 30110 40117 83100 333 59003;
0156830960999992006012312004-10917-037050FM-12+000599999V0200901N002612200019N0020001N1+02831+02271101311ADDGF102991021011012501001001KA1240N+02391MA1999999101241MD1999999+0001REMSYN076AAXX  23124 83096 32695 20905 10283 20227 30124 40131 82100 333 20239 58000;
0137830960999992006012318004-10917-037050FM-12+000599999V0200901N004112200019N0020001N1+02891+02251101161ADDGF102991021011012501001001MA1999999101091MD1999999-0011REMSYN070AAXX  23184 83096 32695 20908 10289 20225 30109 40116 82100 333 59001;
0168830960999992006012400004-10917-037050FM-12+000599999V0200901N002612200019N0020001N1+02691+02221101211ADDGF103991031051012501001001KA1240M+03021MA1999999101141MD1999999-0071REMSYN088AAXX  24004 83096 32695 30905 10269 20222 30114 40121 83500 333 10302 29073 55110 59007;
0156830960999992006012412004-10917-037050FM-12+000599999V0200901N003112200019N0020001N1+02791+02251101391ADDGF104991041011012501001001KA1240N+02391MA1999999101321MD1999999+0081REMSYN076AAXX  24124 83096 32695 40906 10279 20225 30132 40139 84100 333 20239 58008;
0137830960999992006012418004-10917-037050FM-12+000599999V0200901N003612200019N0020001N1+02891+02211101191ADDGF103991031011012501001001MA1999999101121MD1999999+0031REMSYN070AAXX  24184 83096 32695 30907 10289 20221 30112 40119 83100 333 58003;
0168830960999992006012500004-10917-037050FM-12+000599999V0200901N003112200019N0020001N1+02651+02231101211ADDGF102991021051012501001001KA1240M+03021MA1999999101141MD1999999+0001REMSYN088AAXX  25004 83096 32695 20906 10265 20223 30114 40121 82500 333 10302 29074 55089 58000;
0156830960999992006012512004-10917-037050FM-12+000599999V0200901N002612200019N0020001N1+02831+02271101461ADDGF103991031011012501001001KA1240N+02391MA1999999101391MD1999999+0071REMSYN076AAXX  25124 83096 32695 30905 10283 20227 30139 40146 83100 333 20239 58007;
0137830960999992006012518004-10917-037050FM-12+000599999V0200901N003112200019N0020001N1+02911+02201101381ADDGF103991031011012501001001MA1999999101311MD1999999+0191REMSYN070AAXX  25184 83096 32695 30906 10291 20220 30131 40138 83100 333 58019;
0168830960999992006012600004-10917-037050FM-12+000599999V0200901N002612200019N0020001N1+02691+02281101271ADDGF104991041051012501001001KA1240M+03021MA1999999101201MD1999999+0161REMSYN088AAXX  26004 83096 32695 40905 10269 20228 30120 40127 84500 333 10302 29074 55042 58016;
0156830960999992006012612004-10917-037050FM-12+000599999V0200901N004112200019N0020001N1+02791+02251101421ADDGF104991041011012501001001KA1240N+02411MA1999999101351MD1999999-0041REMSYN076AAXX  26124 83096 32695 40908 10279 20225 30135 40142 84100 333 20241 59004;
0137830960999992006012618004-10917-037050FM-12+000599999V0200901N003112200019N0020001N1+02931+02191101281ADDGF103991031011012501001001MA1999999101211MD1999999-0101REMSYN070AAXX  26184 83096 32695 30906 10293 20219 30121 40128 83100 333 59010;
0168830960999992006012700004-10917-037050FM-12+000599999V0200901N003112200019N0020001N1+02691+02281101371ADDGF103991031051012501001001KA1240M+03061MA1999999101301MD1999999+0001REMSYN088AAXX  27004 83096 32695 30906 10269 20228 30130 40137 83500 333 10306 29074 55101 58000;
0156830960999992006012712004-10917-037050FM-12+000599999V0200901N003610120019N0020001N1+02731+02321101411ADDGF105991051011012501001001KA1240N+02411MA1999999101341MD1999999-0011REMSYN076AAXX  27124 83096 32695 50907 10273 20232 30134 40141 85100 333 20241 59001;
0137830960999992006012718004-10917-037050FM-12+000599999V0200901N003112200019N0020001N1+02901+02251101271ADDGF102991021011012501001001MA1999999101201MD1999999-0011REMSYN070AAXX  27184 83096 32695 20906 10290 20225 30120 40127 82100 333 59001;
0168830960999992006012800004-10917-037050FM-12+000599999V0200901N004112200019N0020001N1+02671+02291101371ADDGF103991031051012501001001KA1240M+03041MA1999999101301MD1999999+0001REMSYN088AAXX  28004 83096 32695 30908 10267 20229 30130 40137 83500 333 10304 29077 55088 58000;
0156830960999992006012812004-10917-037050FM-12+000599999V0200901N002612200019N0020001N1+02851+02271101401ADDGF103991031011012501001001KA1240N+02411MA1999999101331MD1999999-0011REMSYN076AAXX  28124 83096 32695 30905 10285 20227 30133 40140 83100 333 20241 59001;
0137830960999992006012818004-10917-037050FM-12+000599999V0200901N002112200019N0020001N1+02911+01151101221ADDGF102991021011012501001001MA1999999101151MD1999999-0051REMSYN070AAXX  28184 83096 32695 20904 10291 20115 30115 40122 82100 333 59005;
0137830960999992006012918004-10917-037050FM-12+000599999V0200901N004112200019N0020001N1+02931+02171101121ADDGF101991011011012501001001MA1999999101051MD1999999-0101REMSYN070AAXX  29184 83096 32695 10908 10293 20217 30105 40112 81100 333 59010;
0168830960999992006013000004-10917-037050FM-12+000599999V0200901N003112200019N0020001N1+02691+02281101131ADDGF103991031051012501001001KA1240M+03061MA1999999101061MD1999999-0161REMSYN088AAXX  30004 83096 32695 30906 10269 20228 30106 40113 83500 333 10306 29072 55110 59016;
0220830960999992006013012004-10917-037050FM-12+000599999V0200901N002612200019N0020001N1+02911+02341101211ADDAA124000091AY151061AY251061GF104991041011012501001001KA1240N+02491MA1999999101141MD1999999-0061MW1001REMSYN088AAXX  30124 83096 21695 40905 10291 20234 30114 40121 70055 84100 333 20249 59006 69924;EQDQ01  00002PRCP24
0137830960999992006013018004-10917-037050FM-12+000599999V0200901N004112200019N0020001N1+02911+02481101081ADDGF102991021051012501001001MA1999999101011MD1999999-0041REMSYN070AAXX  30184 83096 32695 20908 10291 20248 30101 40108 82500 333 59004;
0168830960999992006013100004-10917-037050FM-12+000599999V0200901N004112200019N0020001N1+02691+02351101111ADDGF104991041051012501001001KA1240M+03061MA1999999101041MD1999999-0021REMSYN088AAXX  31004 83096 32695 40908 10269 20235 30104 40111 84500 333 10306 29078 55113 59002;
0156830960999992006013112004-10917-037050FM-12+000599999V0200901N004112200019N0020001N1+02791+02361101211ADDGF104991041051012501001001KA1240N+02491MA1999999101141MD1999999+0001REMSYN076AAXX  31124 83096 32695 40908 10279 20236 30114 40121 84500 333 20249 58000;
0137830960999992006013118004-10917-037050FM-12+000599999V0200901N004112200019N0020001N1+02971+02281101121ADDGF101991011011012501001001MA1999999101051MD1999999+0041REMSYN070AAXX  31184 83096 32695 10908 10297 20228 30105 40112 81100 333 58004;
0168830960999992006020100004-10917-037050FM-12+000599999V0200901N005112200019N0020001N1+02711+02261101051ADDGF102991021011012501001001KA1240M+03081MA1999999100981MD1999999-0061REMSYN088AAXX  01004 83096 32695 20910 10271 20226 30098 40105 82100 333 10308 29075 55107 59006;
0156830960999992006020112004-10917-037050FM-12+000599999V0200901N005112200019N0020001N1+02901+02171101331ADDGF103991031011012501001001KA1240N+02491MA1999999101261MD1999999+0121REMSYN076AAXX  01124 83096 32695 30910 10290 20217 30126 40133 83100 333 20249 58012;
0137830960999992006020118004-10917-037050FM-12+000599999V0200901N003112200019N0020001N1+02961+02181101071ADDGF102991021011012501001001MA1999999101001MD1999999-0051REMSYN070AAXX  01184 83096 32695 20906 10296 20218 30100 40107 82100 333 59005;
0168830960999992006020200004-10917-037050FM-12+000599999V0200901N004112200019N0020001N1+02661+02241101201ADDGF102991021051012501001001KA1240M+03081MA1999999101131MD1999999+0151REMSYN088AAXX  02004 83096 32695 20908 10266 20224 30113 40120 82500 333 10308 29071 55115 58015;
0201830960999992006020212004-10917-037050FM-12+000599999V0200501N002610075019N0020001N1+02641+02391101341ADDAA124001091AY161061AY221061GF108991081021008001999999KA1240N+02411MA1999999101271MD1999999+0011MW1611REMSYN088AAXX  02124 83096 21595 80505 10264 20239 30127 40134 76162 882// 333 20241 58001 60014;
0137830960999992006020218004-10917-037050FM-12+000599999V0200901N005112200019N0020001N1+02941+01981101081ADDGF101991011011012501001001MA1999999101011MD1999999+0011REMSYN070AAXX  02184 83096 32695 10910 10294 20198 30101 40108 81100 333 58001;
0168830960999992006020300004-10917-037050FM-12+000599999V0200901N003112200019N0020001N1+02711+02281101261ADDGF103991031051012501001001KA1240M+03051MA1999999101191MD1999999+0061REMSYN088AAXX  03004 83096 32695 30906 10271 20228 30119 40126 83500 333 10305 29074 55099 58006;
0201830960999992006020312004-10917-037050FM-12+000599999V0200901N003110120019N0020001N1+02711+02341101291ADDAA124022191AY161061AY261061GF106991061021012501001001KA1240N+02331MA1999999101221MD1999999-0051MW1011REMSYN088AAXX  03124 83096 21695 60906 10271 20234 30122 40129 70166 86200 333 20233 59005 60224;
0137830960999992006020318004-10917-037050FM-12+000599999V0200901N003110120019N0020001N1+02651+02241101031ADDGF106991061021012501001001MA1999999100961MD1999999-0051REMSYN070AAXX  03184 83096 32695 60906 10265 20224 30096 40103 86200 333 59005;
0168830960999992006020400004-10917-037050FM-12+000599999V0200901N003112200019N0020001N1+02661+02161101151ADDGF101991011051012501001001KA1240M+02991MA1999999101081MD1999999-0111REMSYN088AAXX  04004 83096 32695 10906 10266 20216 30108 40115 81500 333 10299 29076 55014 59011;
0137830960999992006020418004-10917-037050FM-12+000599999V0200901N003110120019N0020001N1+02901+02201101021ADDGF105991051011012501001001MA1999999100951MD1999999-0011REMSYN070AAXX  04184 83096 32695 50906 10290 20220 30095 40102 85100 333 59001;
0168830960999992006020500004-10917-037050FM-12+000599999V0201401N001512200019N0020001N1+02671+02281101101ADDGF101991011051012501001001KA1240M+03041MA1999999101031MD1999999-0051REMSYN088AAXX  05004 83096 32695 11403 10267 20228 30103 40110 81500 333 10304 29074 55098 59005;
0156830960999992006020512004-10917-037050FM-12+000599999V0200901N003110120019N0020001N1+02871+02371101321ADDGF105991051011012501001001KA1240N+02321MA1999999101251MD1999999+0071REMSYN076AAXX  05124 83096 32695 50906 10287 20237 30125 40132 85100 333 20232 58007;
0137830960999992006020518004-10917-037050FM-12+000599999V0200901N003110120019N0020001N1+02861+02261101001ADDGF106991061011012501001001MA1999999100931MD1999999-0021REMSYN070AAXX  05184 83096 32695 60906 10286 20226 30093 40100 86100 333 59002;
0168830960999992006020600004-10917-037050FM-12+000599999V0200901N003112200019N0020001N1+02701+02261101051ADDGF101991011051012501001001KA1240M+03051MA1999999100981MD1999999-0051REMSYN088AAXX  06004 83096 32695 10906 10270 20226 30098 40105 81500 333 10305 29074 55087 59005;
0156830960999992006020612004-10917-037050FM-12+000599999V02099999999990120019N0020001N1+02861+02371101271ADDGF106991061011012501001001KA1240N+02391MA1999999101201MD1999999-0051REMSYN076AAXX  06124 83096 32695 6//// 10286 20237 30120 40127 86100 333 20239 59005;
0137830960999992006020618004-10917-037050FM-12+000599999V0200901N003610120019N0020001N1+02821+02381101001ADDGF108991081021012501999999MA1999999100931MD1999999+0001REMSYN070AAXX  06184 83096 32695 80907 10282 20238 30093 40100 882// 333 58000;
0168830960999992006020700004-10917-037050FM-12+000599999V0200901N004612200019N0020001N1+02711+02431101161ADDGF103991031051012501001001KA1240M+03011MA1999999101091MD1999999+0111REMSYN088AAXX  07004 83096 32695 30909 10271 20243 30109 40116 83500 333 10301 29080 55015 58011;
0156830960999992006020712004-10917-037050FM-12+000599999V0200901N003610120019N0020001N1+02881+02441101261ADDGF105991051011012501001001KA1240N+02411MA1999999101191MD1999999-0011REMSYN076AAXX  07124 83096 32695 50907 10288 20244 30119 40126 85100 333 20241 59001;
0137830960999992006020718004-10917-037050FM-12+000599999V0200901N006710120019N0020001N1+02871+02411100921ADDGF105991051011012501001001MA1999999100851MD1999999-0081REMSYN070AAXX  07184 83096 32695 50913 10287 20241 30085 40092 85100 333 59008;
0168830960999992006020800004-10917-037050FM-12+000599999V0200501N005112200019N0020001N1+02731+02401101181ADDGF103991031051012501001001KA1240M+03081MA1999999101111MD1999999+0021REMSYN088AAXX  08004 83096 32695 30510 10273 20240 30111 40118 83500 333 10308 29079 55078 58002;
0156830960999992006020812004-10917-037050FM-12+000599999V0200501N003612200019N0020001N1+02931+02431101311ADDGF102991021011012501001001KA1240N+02421MA1999999101241MD1999999+0051REMSYN076AAXX  08124 83096 32695 20507 10293 20243 30124 40131 82100 333 20242 58005;
0137830960999992006020818004-10917-037050FM-12+000599999V0200901N005112200019N0020001N1+02941+02471101001ADDGF103991031011012501001001MA1999999100931MD1999999+0081REMSYN070AAXX  08184 83096 32695 30910 10294 20247 30093 40100 83100 333 58008;
0168830960999992006020900004-10917-037050FM-12+000599999V0200901N005112200019N0020001N1+02711+02431101191ADDGF103991031051012501001001KA1240M+03071MA1999999101121MD1999999+0011REMSYN088AAXX  09004 83096 32695 30910 10271 20243 30112 40119 83500 333 10307 29078 55107 58001;
0156830960999992006020912004-10917-037050FM-12+000599999V0200501N003112200019N0020001N1+02941+02331101331ADDGF101991011011012501001001KA1240N+02471MA1999999101261MD1999999+0021REMSYN076AAXX  09124 83096 32695 10506 10294 20233 30126 40133 81100 333 20247 58002;
0137830960999992006020918004-10917-037050FM-12+000599999V0200901N003112200019N0020001N1+02941+02401101071ADDGF101991011011012501001001MA1999999101001MD1999999+0071REMSYN070AAXX  09184 83096 32695 10906 10294 20240 30100 40107 81100 333 58007;
0168830960999992006021000004-10917-037050FM-12+000599999V0200901N003112200019N0020001N1+02701+02371101301ADDGF101991011051012501001001KA1240M+03071MA1999999101131MD1999999+0111REMSYN088AAXX  10004 83096 32695 10906 10270 20237 30113 40130 81500 333 10307 29067 55113 58011;
0156830960999992006021012004-10917-037050FM-12+000599999V0200901N004612200019N0020001N1+02911+02431101321ADDGF103991031011012501001001KA1240N+02491MA1999999101251MD1999999-0011REMSYN076AAXX  10124 83096 32695 30909 10291 20243 30125 40132 83100 333 20249 59001;
0137830960999992006021018004-10917-037050FM-12+000599999V0200901N005712200019N0020001N1+02921+02341101121ADDGF101991011011012501001001MA1999999101051MD1999999+0051REMSYN070AAXX  10184 83096 32695 10911 10292 20234 30105 40112 81100 333 58005;
0168830960999992006021100004-10917-037050FM-12+000599999V0200901N004112200019N0020001N1+02721+02411101321ADDGF101991011051012501001001KA1240M+03061MA1999999101251MD1999999+0021REMSYN088AAXX  11004 83096 32695 10908 10272 20241 30125 40132 81500 333 10306 29078 55092 58002;
0156830960999992006021112004-10917-037050FM-12+000599999V0200901N004112200019N0020001N1+02901+02341101431ADDGF101991011011012501001001KA1240N+02531MA1999999101361MD1999999-0111REMSYN076AAXX  11124 83096 32695 10908 10290 20234 30136 40143 81100 333 20253 59011;
0137830960999992006021118004-10917-037050FM-12+000599999V0200901N005112200019N0020001N1+02911+02411101131ADDGF101991011011012501001001MA1999999101061MD1999999+0011REMSYN070AAXX  11184 83096 32695 10910 10291 20241 30106 40113 81100 333 58001;
0168830960999992006021200004-10917-037050FM-12+000599999V0200901N004112200019N0020001N1+02721+02241101291ADDGF103991031051012501001001KA1240M+03081MA1999999101221MD1999999-0031REMSYN088AAXX  12004 83096 32695 30908 10272 20224 30122 40129 83500 333 10308 29074 55112 59003;
0156830960999992006021212004-10917-037050FM-12+000599999V0200901N003612200019N0020001N1+02891+02321101391ADDGF102991021011012501001001KA1240N+02491MA1999999101321MD1999999-0041REMSYN076AAXX  12124 83096 32695 20907 10289 20232 30132 40139 82100 333 20249 59004;
0137830960999992006021218004-10917-037050FM-12+000599999V0200901N005110120019N0020001N1+02891+02391101091ADDGF105991051011012501001001MA1999999101021MD1999999-0041REMSYN070AAXX  12184 83096 32695 50910 10289 20239 30102 40109 85100 333 59004;
0168830960999992006021300004-10917-037050FM-12+000599999V0200901N004112200019N0020001N1+02711+02151101151ADDGF101991011051012501001001KA1240M+03051MA1999999101081MD1999999-0141REMSYN088AAXX  13004 83096 32695 10908 10271 20215 30108 40115 81500 333 10305 29077 55107 59014;
0156830960999992006021312004-10917-037050FM-12+000599999V0200901N004112200019N0020001N1+02941+02451101371ADDGF103991031011012501001001KA1240N+02511MA1999999101301MD1999999-0021REMSYN076AAXX  13124 83096 32695 30908 10294 20245 30130 40137 83100 333 20251 59002;
0137830960999992006021318004-10917-037050FM-12+000599999V0200901N005712200019N0020001N1+02911+02451101051ADDGF101991011011012501001001MA1999999100981MD1999999-0041REMSYN070AAXX  13184 83096 32695 10911 10291 20245 30098 40105 81100 333 59004;
0168830960999992006021400004-10917-037050FM-12+000599999V0200901N005112200019N0020001N1+02721+02391101221ADDGF102991021051012501001001KA1240M+03071MA1999999101151MD1999999+0071REMSYN088AAXX  14004 83096 32695 20910 10272 20239 30115 40122 82500 333 10307 29078 55095 58007;
0156830960999992006021412004-10917-037050FM-12+000599999V0200901N004112200019N0020001N1+02981+02301101291ADDGF103991031011012501001001KA1240N+02451MA1999999101221MD1999999-0081REMSYN076AAXX  14124 83096 32695 30908 10298 20230 30122 40129 83100 333 20245 59008;
0137830960999992006021418004-10917-037050FM-12+000599999V0200901N005112200019N0020001N1+02901+02341101011ADDGF102991021011012501001001MA1999999100941MD1999999-0041REMSYN070AAXX  14184 83096 32695 20910 10290 20234 30094 40101 82100 333 59004;
0168830960999992006021500004-10917-037050FM-12+000599999V0200901N004112200019N0020001N1+02711+02411101221ADDGF102991021051012501001001KA1240M+03081MA1999999101151MD1999999+0001REMSYN088AAXX  15004 83096 32695 20908 10271 20241 30115 40122 82500 333 10308 29076 55108 58000;
0156830960999992006021512004-10917-037050FM-12+000599999V0200901N003112200019N0020001N1+02881+02231101321ADDGF102991021011012501001001KA1240N+02371MA1999999101251MD1999999+0031REMSYN076AAXX  15124 83096 32695 20906 10288 20223 30125 40132 82100 333 20237 58003;
0137830960999992006021518004-10917-037050FM-12+000599999V0200901N003112200019N0020001N1+02951+02381101011ADDGF102991021011012501001001MA1999999100941MD1999999+0001REMSYN070AAXX  15184 83096 32695 20906 10295 20238 30094 40101 82100 333 58000;
0168830960999992006021600004-10917-037050FM-12+000599999V0200901N003112200019N0020001N1+02711+02321101281ADDGF101991011051012501001001KA1240M+03081MA1999999101211MD1999999+0061REMSYN088AAXX  16004 83096 32695 10906 10271 20232 30121 40128 81500 333 10308 29074 55082 58006;
0156830960999992006021612004-10917-037050FM-12+000599999V0202701N002110120019N0020001N1+02501+02211101331ADDGF106991061021012501001001KA1240N+02331MA1999999101261MD1999999+0011REMSYN076AAXX  16124 83096 32695 62704 10250 20221 30126 40133 86200 333 20233 58001;
0137830960999992006021618004-10917-037050FM-12+000599999V0200901N002112200019N0020001N1+02941+02261101021ADDGF102991021011012501001001MA1999999100951MD1999999+0011REMSYN070AAXX  16184 83096 32695 20904 10294 20226 30095 40102 82100 333 58001;
0168830960999992006021700004-10917-037050FM-12+000599999V0201801N001512200019N0020001N1+02731+02261101241ADDGF101991011051012501001001KA1240M+03071MA1999999101571MD1999999-0041REMSYN088AAXX  17004 83096 32695 11803 10273 20226 30157 40124 81500 333 10307 29076 55069 59004;
0156830960999992006021712004-10917-037050FM-12+000599999V0200901N003112200019N0020001N1+02891+02101101301ADDGF102991021011012501001001KA1240N+02351MA1999999101231MD1999999-0031REMSYN076AAXX  17124 83096 32695 20906 10289 20210 30123 40130 82100 333 20235 59003;
0137830960999992006021718004-10917-037050FM-12+000599999V0200901N004112200019N0020001N1+02931+02261101041ADDGF101991011011012501001001MA1999999100971MD1999999+0021REMSYN070AAXX  17184 83096 32695 10908 10293 20226 30097 40104 81100 333 58002;
0168830960999992006021800004-10917-037050FM-12+000599999V0200901N003112200019N0020001N1+02711+02301101231ADDGF102991021051012501001001KA1240M+03081MA1999999101161MD1999999-0011REMSYN088AAXX  18004 83096 32695 20906 10271 20230 30116 40123 82500 333 10308 29071 55111 59001;
0214830960999992006021812004-10917-037050FM-12+000599999V0200901N002612200019N0020001N1+02921+02471101421ADDAA124000591AY101061AY201061GF102991021011012501001001KA1240N+02391MA1999999101351MD1999999+0121REMSYN088AAXX  18124 83096 21695 20905 10292 20247 30135 40142 75500 82100 333 20239 58012 69944;EQDQ01+000552PRSWM1
0137830960999992006021818004-10917-037050FM-12+000599999V0200901N003112200019N0020001N1+02931+02471101121ADDGF101991011011012501001001MA1999999101051MD1999999+0081REMSYN070AAXX  18184 83096 32695 10906 10293 20247 30105 40112 81100 333 58008;
0168830960999992006021900004-10917-037050FM-12+000599999V0200901N003112200019N0020001N1+02741+02401101361ADDGF101991011051012501001001KA1240M+03081MA1999999101291MD1999999+0151REMSYN088AAXX  19004 83096 32695 10906 10274 20240 30129 40136 81500 333 10308 29079 55108 58015;
0201830960999992006021912004-10917-037050FM-12+000599999V0200901N001510120019N0020001N1+02841+02461101521ADDAA124002091AY161061AY261061GF105991051011012501001001KA1240N+02431MA1999999101451MD1999999+0101MW1011REMSYN088AAXX  19124 83096 21695 50903 10284 20246 30145 40152 70166 85100 333 20243 58010 60024;
0137830960999992006021918004-10917-037050FM-12+000599999V0200901N004612200019N0020001N1+02961+02351101251ADDGF101991011011012501001001MA1999999101181MD1999999+0131REMSYN070AAXX  19184 83096 32695 10909 10296 20235 30118 40125 81100 333 58013;
0168830960999992006022000004-10917-037050FM-12+000599999V0200901N003112200019N0020001N1+02751+02281101341ADDGF101991011051012501001001KA1240M+03121MA1999999101271MD1999999-0021REMSYN088AAXX  20004 83096 32695 10906 10275 20228 30127 40134 81500 333 10312 29075 55092 59002;
0156830960999992006022012004-10917-037050FM-12+000599999V0200901N003112200019N0020001N1+02911+02271101361ADDGF102991021011012501001001KA1240N+02431MA1999999101291MD1999999-0161REMSYN076AAXX  20124 83096 32695 20906 10291 20227 30129 40136 82100 333 20243 59016;
0137830960999992006022018004-10917-037050FM-12+000599999V0201401N003112200019N0020001N1+02951+02281101101ADDGF102991021011012501001001MA1999999101031MD1999999-0151REMSYN070AAXX  20184 83096 32695 21406 10295 20228 30103 40110 82100 333 59015;
0168830960999992006022100004-10917-037050FM-12+000599999V0201401N002610120019N0020001N1+02631+02441101231ADDGF106991061051012501001001KA1240M+03081MA1999999101161MD1999999-0111REMSYN088AAXX  21004 83096 32695 61405 10263 20244 30116 40123 86500 333 10308 29078 55117 59011;
0201830960999992006022112004-10917-037050FM-12+000599999V0200501N002112200019N0020001N1+02891+02021101271ADDAA124003091AY161061AY261061GF101991011011012501001001KA1240N+02391MA1999999101201MD1999999-0091MW1011REMSYN088AAXX  21124 83096 21695 10504 10289 20202 30120 40127 70166 81100 333 20239 59009 60034;
0137830960999992006022118004-10917-037050FM-12+000599999V0201401N002612200019N0020001N1+02971+02421100891ADDGF101991011011012501001001MA1999999100821MD1999999-0211REMSYN070AAXX  21184 83096 32695 11405 10297 20242 30082 40089 81100 333 59021;
0168830960999992006022200004-10917-037050FM-12+000599999V0200901N005110120019N0020001N1+02781+02241101061ADDGF105991051051012501021001KA1240M+03071MA1999999100991MD1999999-0171REMSYN088AAXX  22004 83096 32695 50910 10278 20224 30099 40106 85520 333 10307 29075 55116 59017;
0156830960999992006022212004-10917-037050FM-12+000599999V0200901N005112200019N0020001N1+02961+02491101281ADDGF102991021011012501001001KA1240N+02411MA1999999101211MD1999999+0011REMSYN076AAXX  22124 83096 32695 20910 10296 20249 30121 40128 82100 333 20241 58001;
0137830960999992006022218004-10917-037050FM-12+000599999V0200901N005112200019N0020001N1+02951+02171100901ADDGF101991011011012501001001MA1999999100831MD1999999+0011REMSYN070AAXX  22184 83096 32695 10910 10295 20217 30083 40090 81100 333 58001;
0168830960999992006022300004-10917-037050FM-12+000599999V0200501N005110120019N0020001N1+02751+02481101131ADDGF105991051051012501001001KA1240M+03081MA1999999101061MD1999999+0071REMSYN088AAXX  23004 83096 32695 50510 10275 20248 30106 40113 85500 333 10308 29080 55097 58007;
0156830960999992006022312004-10917-037050FM-12+000599999V0200901N003112200019N0020001N1+02991+02551101291ADDGF103991031011012501001001KA1240N+02451MA1999999101221MD1999999+0011REMSYN076AAXX  23124 83096 32695 30906 10299 20255 30122 40129 83100 333 20245 58001;
0137830960999992006022318004-10917-037050FM-12+000599999V0200901N005712200019N0020001N1+02951+02561100881ADDGF101991011011012501001001MA1999999100811MD1999999-0021REMSYN070AAXX  23184 83096 32695 10911 10295 20256 30081 40088 81100 333 59002;
0168830960999992006022400004-10917-037050FM-12+000599999V0200901N005110120019N0020001N1+02761+02461101241ADDGF106991061051012501001001KA1240M+03111MA1999999101171MD1999999+0111REMSYN088AAXX  24004 83096 32695 60910 10276 20246 30117 40124 86500 333 10311 29081 55113 58011;
0156830960999992006022412004-10917-037050FM-12+000599999V0200901N004112200019N0020001N1+02911+02431101281ADDGF101991011011012501001001KA1240N+02411MA1999999101211MD1999999-0011REMSYN076AAXX  24124 83096 32695 10908 10291 20243 30121 40128 81100 333 20241 59001;
0137830960999992006022418004-10917-037050FM-12+000599999V0200901N005112200019N0020001N1+02961+02351100941ADDGF101991011011012501001001MA1999999100871MD1999999+0061REMSYN070AAXX  24184 83096 32695 10910 10296 20235 30087 40094 81100 333 58006;
0168830960999992006022500004-10917-037050FM-12+000599999V0200901N003612200019N0020001N1+02711+02561101111ADDGF103991031051012501001001KA1240M+03101MA1999999101041MD1999999-0131REMSYN088AAXX  25004 83096 32695 30907 10271 20256 30104 40111 83500 333 10310 29082 55111 59013;
0156830960999992006022512004-10917-037050FM-12+000599999V0200901N005112200019N0020001N1+02931+02431101261ADDGF101991011011012501001001KA1240N+02531MA1999999101191MD1999999-0021REMSYN076AAXX  25124 83096 32695 10910 10293 20243 30119 40126 81100 333 20253 59002;
0137830960999992006022518004-10917-037050FM-12+000599999V0200901N006712200019N0020001N1+02891+02561100851ADDGF101991011011012501001001MA1999999100781MD1999999-0091REMSYN070AAXX  25184 83096 32695 10913 10289 20256 30078 40085 81100 333 59009;
0156830960999992006022612004-10917-037050FM-12+000599999V0200901N004112200019N0020001N1+02931+02431101121ADDGF101991011011012501001001KA1240N+02531MA1999999101051MD1999999-0141REMSYN076AAXX  26124 83096 32695 10908 10293 20243 30105 40112 81100 333 20253 59014;
0137830960999992006022618004-10917-037050FM-12+000599999V0200901N005712200019N0020001N1+02901+02521100851ADDGF101991011011012501001001MA1999999100781MD1999999+0001REMSYN070AAXX  26184 83096 32695 10911 10290 20252 30078 40085 81100 333 58000;
0156830960999992006022712004-10917-037050FM-12+000599999V0200901N004112200019N0020001N1+02891+02501101231ADDGF101991011011012501001001KA1240N+02531MA1999999101161MD1999999+0111REMSYN076AAXX  27124 83096 32695 10908 10289 20250 30116 40123 81100 333 20253 58011;
0137830960999992006022718004-10917-037050FM-12+000599999V0200901N005112200019N0020001N1+02921+02501101061ADDGF101991011011012501001001MA1999999100991MD1999999+0211REMSYN070AAXX  27184 83096 32695 10910 10292 20250 30099 40106 81100 333 58021;
0168830960999992006022800004-10917-037050FM-12+000599999V0200901N004112200019N0020001N1+02701+02501101131ADDGF101991011051012501001001KA1240M+03061MA1999999101061MD1999999+0111REMSYN088AAXX  28004 83096 32695 10908 10270 20250 30106 40113 81500 333 10306 29084 55113 58011;
0156830960999992006022812004-10917-037050FM-12+000599999V0200901N002612200019N0020001N1+02921+02391101401ADDGF101991011011012501001001KA1240N+02511MA1999999101331MD1999999+0171REMSYN076AAXX  28124 83096 32695 10905 10292 20239 30133 40140 81100 333 20251 58017;
0137830960999992006022818004-10917-037050FM-12+000599999V0200901N004112200019N0020001N1+02901+02431100981ADDGF101991011011012501001001MA1999999100911MD1999999-0081REMSYN070AAXX  28184 83096 32695 10908 10290 20243 30091 40098 81100 333 59008;
0156830960999992006030112004-10917-037050FM-12+000599999V0200901N003612200019N0020001N1+02991+02321101361ADDGF101991011011012501001001KA1240N+02491MA1999999101291MD1999999-0041REMSYN076AAXX  01124 83096 32695 10907 10299 20232 30129 40136 81100 333 20249 59004;
0137830960999992006030118004-10917-037050FM-12+000599999V0200901N003112200019N0020001N1+02951+02331101081ADDGF101991011011012501001001MA1999999101011MD1999999+0101REMSYN070AAXX  01184 83096 32695 10906 10295 20233 30101 40108 81100 333 58010;
0168830960999992006030200004-10917-037050FM-12+000599999V0200901N004112200019N0020001N1+02701+02331101301ADDGF101991011051012501001001KA1240M+03081MA1999999101231MD1999999+0041REMSYN088AAXX  02004 83096 32695 10908 10270 20233 30123 40130 81500 333 10308 29074 55111 58004;
0137830960999992006030218004-10917-037050FM-12+000599999V0200901N002612200019N0020001N1+02951+02381101141ADDGF101991011011012501001001MA1999999101071MD1999999+0061REMSYN070AAXX  02184 83096 32695 10905 10295 20238 30107 40114 81100 333 58006;
0168830960999992006030300004-10917-037050FM-12+000599999V0200901N004112200019N0020001N1+02711+02391101281ADDGF102991021051012501001001KA1240M+03101MA1999999101211MD1999999-0021REMSYN088AAXX  03004 83096 32695 20908 10271 20239 30121 40128 82500 333 10310 29075 55107 59002;
0156830960999992006030312004-10917-037050FM-12+000599999V0200901N003112200019N0020001N1+02901+02521101481ADDGF102991021011012501001001KA1240N+02431MA1999999101411MD1999999-0041REMSYN076AAXX  03124 83096 32695 20906 10290 20252 30141 40148 82100 333 20243 59004;
0137830960999992006030318004-10917-037050FM-12+000599999V0200901N004112200019N0020001N1+02931+02471101181ADDGF102991021011012501001001MA1999999101111MD1999999+0041REMSYN070AAXX  03184 83096 32695 20908 10293 20247 30111 40118 82100 333 58004;
0168830960999992006030400004-10917-037050FM-12+000599999V0200901N005112200019N0020001N1+02681+02451101301ADDGF102991021051012501001001KA1240M+03081MA1999999101231MD1999999+0021REMSYN088AAXX  04004 83096 32695 20910 10268 20245 30123 40130 82500 333 10308 29082 55105 58002;
0156830960999992006030412004-10917-037050FM-12+000599999V0200501N003110120019N0020001N1+02841+02521101531ADDGF105991051011012501001001KA1240N+02431MA1999999101461MD1999999+0051REMSYN076AAXX  04124 83096 32695 50506 10284 20252 30146 40153 85100 333 20243 58005;
0137830960999992006030418004-10917-037050FM-12+000599999V0200901N004612200019N0020001N1+02941+02561101131ADDGF101991011011012501001001MA1999999101061MD1999999-0051REMSYN070AAXX  04184 83096 32695 10909 10294 20256 30106 40113 81100 333 59005;
0168830960999992006030500004-10917-037050FM-12+000599999V0200901N004112200019N0020001N1+02761+02621101311ADDGF101991011051012501001001KA1240M+03091MA1999999101241MD1999999+0011REMSYN088AAXX  05004 83096 32695 10908 10276 20262 30124 40131 81500 333 10309 29087 55085 58001;
0156830960999992006030512004-10917-037050FM-12+000599999V0200901N004112200019N0020001N1+02961+02581101561ADDGF102991021011012501001001KA1240N+02431MA1999999101491MD1999999+0031REMSYN076AAXX  05124 83096 32695 20908 10296 20258 30149 40156 82100 333 20243 58003;
0137830960999992006030518004-10917-037050FM-12+000599999V0200901N006712200019N0020001N1+02921+02501101071ADDGF101991011011012501001001MA1999999101001MD1999999-0061REMSYN070AAXX  05184 83096 32695 10913 10292 20250 30100 40107 81100 333 59006;
0168830960999992006030600004-10917-037050FM-12+000599999V0200901N004112200019N0020001N1+02741+02541101271ADDGF101991011051012501001001KA1240M+03081MA1999999101201MD1999999-0041REMSYN088AAXX  06004 83096 32695 10908 10274 20254 30120 40127 81500 333 10308 29084 55103 59004;
0156830960999992006030612004-10917-037050FM-12+000599999V0200901N003112200019N0020001N1+02931+02361101291ADDGF102991021011012501001001KA1240N+02431MA1999999101221MD1999999-0271REMSYN076AAXX  06124 83096 32695 20906 10293 20236 30122 40129 82100 333 20243 59027;
0137830960999992006030618004-10917-037050FM-12+000599999V0200901N005112200019N0020001N1+02931+02411101081ADDGF102991021011012501001001MA1999999101011MD1999999+0011REMSYN070AAXX  06184 83096 32695 20910 10293 20241 30101 40108 82100 333 58001;
0168830960999992006030700004-10917-037050FM-12+000599999V0200901N004112200019N0020001N1+02731+02431101111ADDGF103991031051012501001001KA1240M+03081MA1999999101041MD1999999-0161REMSYN088AAXX  07004 83096 32695 30908 10273 20243 30104 40111 83500 333 10308 29078 55110 59016;
0156830960999992006030712004-10917-037050FM-12+000599999V0200901N004112200019N0020001N1+02891+02391101191ADDGF103991031011012501001001KA1240N+02431MA1999999101121MD1999999-0101REMSYN076AAXX  07124 83096 32695 30908 10289 20239 30112 40119 83100 333 20243 59010;
0137830960999992006030718004-10917-037050FM-12+000599999V0200901N005112200019N0020001N1+02931+02451100961ADDGF102991021011012501001001MA1999999100891MD1999999-0121REMSYN070AAXX  07184 83096 32695 20910 10293 20245 30089 40096 82100 333 59012;
0168830960999992006030800004-10917-037050FM-12+000599999V0200901N005112200019N0020001N1+02751+02451101091ADDGF102991021011012501001001KA1240M+03081MA1999999101021MD1999999-0021REMSYN088AAXX  08004 83096 32695 20910 10275 20245 30102 40109 82100 333 10308 29079 55101 59002;
0156830960999992006030812004-10917-037050FM-12+000599999V0200901N003112200019N0020001N1+02871+02371101111ADDGF104991041011012501001001KA1240N+02431MA1999999101041MD1999999-0081REMSYN076AAXX  08124 83096 32695 40906 10287 20237 30104 40111 84100 333 20243 59008;
0137830960999992006030818004-10917-037050FM-12+000599999V0200901N005112200019N0020001N1+02931+02411100961ADDGF104991041011012501001001MA1999999100891MD1999999+0001REMSYN070AAXX  08184 83096 32695 40910 10293 20241 30089 40096 84100 333 58000;
0168830960999992006030900004-10917-037050FM-12+000599999V0200901N005112200019N0020001N1+02731+02391101011ADDGF104991041051012501001001KA1240M+03081MA1999999100941MD1999999-0081REMSYN088AAXX  09004 83096 32695 40910 10273 20239 30094 40101 84500 333 10308 29078 55092 59008;
0156830960999992006030912004-10917-037050FM-12+000599999V0200901N004112200019N0020001N1+02891+02321101071ADDGF102991021011012501001001KA1240N+02431MA1999999101001MD1999999-0041REMSYN076AAXX  09124 83096 32695 20908 10289 20232 30100 40107 82100 333 20243 59004;
0137830960999992006030918004-10917-037050FM-12+000599999V0200901N004112200019N0020001N1+02931+02411100921ADDGF101991011011012501001001MA1999999100851MD1999999-0041REMSYN070AAXX  09184 83096 32695 10908 10293 20241 30085 40092 81100 333 59004;
0168830960999992006031000004-10917-037050FM-12+000599999V0200901N005112200019N0020001N1+02731+02391100991ADDGF103991031051012501001001KA1240M+03061MA1999999100921MD1999999-0021REMSYN088AAXX  10004 83096 32695 30910 10273 20239 30092 40099 83500 333 10306 29077 55109 59002;
0156830960999992006031012004-10917-037050FM-12+000599999V0200901N003112200019N0020001N1+02911+02391101091ADDGF103991031011012501001001KA1240N+02451MA1999999101021MD1999999+0021REMSYN076AAXX  10124 83096 32695 30906 10291 20239 30102 40109 83100 333 20245 58002;
0137830960999992006031018004-10917-037050FM-12+000599999V0200901N005712200019N0020001N1+02911+02391100921ADDGF102991021011012501001001MA1999999100851MD1999999+0001REMSYN070AAXX  10184 83096 32695 20911 10291 20239 30085 40092 82100 333 58000;
0168830960999992006031100004-10917-037050FM-12+000599999V0200901N005112200019N0020001N1+02731+02391100971ADDGF103991031051012501001001KA1240M+03041MA1999999100901MD1999999-0021REMSYN088AAXX  11004 83096 32695 30910 10273 20239 30090 40097 83500 333 10304 29078 55102 59002;
0156830960999992006031112004-10917-037050FM-12+000599999V0200901N004112200019N0020001N1+02891+02411101171ADDGF103991031011012501001001KA1240N+02451MA1999999101101MD1999999+0081REMSYN076AAXX  11124 83096 32695 30908 10289 20241 30110 40117 83100 333 20245 58008;
0137830960999992006031118004-10917-037050FM-12+000599999V0200901N005112200019N0020001N1+02911+02431100861ADDGF101991011011012501001001MA1999999100791MD1999999-0061REMSYN070AAXX  11184 83096 32695 10910 10291 20243 30079 40086 81100 333 59006;
0168830960999992006031200004-10917-037050FM-12+000599999V0200901N003112200019N0020001N1+02751+02451101051ADDGF103991031051012501001001KA1240M+03081MA1999999100981MD1999999+0081REMSYN088AAXX  12004 83096 32695 30906 10275 20245 30098 40105 83500 333 10308 29080 55090 58008;
0201830960999992006031212004-10917-037050FM-12+000599999V0200901N002612200019N0020001N1+02771+02461101231ADDAA124008991AY161061AY261061GF104991041051012501001001KA1240N+02301MA1999999101191MD1999999+0061MW1211REMSYN088AAXX  12124 83096 21695 40905 10277 20246 30119 40123 72166 84500 333 20230 58006 60094;
0137830960999992006031218004-10917-037050FM-12+000599999V0200901N003110120019N0020001N1+02891+02461100951ADDGF105991051051012501001001MA1999999100871MD1999999+0081REMSYN070AAXX  12184 83096 32695 50906 10289 20246 30087 40095 85500 333 58008;
0168830960999992006031300004-10917-037050FM-12+000599999V0200901N004112200019N0020001N1+02731+02481101051ADDGF104991041051012501001001KA1240M+03021MA1999999100981MD1999999+0001REMSYN088AAXX  13004 83096 32695 40908 10273 20248 30098 40105 84500 333 10302 29084 55096 58000;
0156830960999992006031312004-10917-037050FM-12+000599999V0200901N003112200019N0020001N1+02831+02361101171ADDGF102991021011012501001001KA1240N+02451MA1999999101101MD1999999-0061REMSYN076AAXX  13124 83096 32695 20906 10283 20236 30110 40117 82100 333 20245 59006;
0137830960999992006031318004-10917-037050FM-12+000599999V0200901N005112200019N0020001N1+02891+02391100961ADDGF102991021011012501001001MA1999999100891MD1999999+0021REMSYN070AAXX  13184 83096 32695 20910 10289 20239 30089 40096 82100 333 58002;
0168830960999992006031400004-10917-037050FM-12+000599999V0200901N005112200019N0020001N1+02731+02301101011ADDGF102991021051012501001001KA1240M+03021MA1999999100941MD1999999-0041REMSYN088AAXX  14004 83096 32695 20910 10273 20230 30094 40101 82500 333 10302 29077 55095 59004;
0156830960999992006031412004-10917-037050FM-12+000599999V0200901N003112200019N0020001N1+02911+02301101171ADDGF103991031011012501001001KA1240N+02451MA1999999101101MD1999999+0001REMSYN076AAXX  14124 83096 32695 30906 10291 20230 30110 40117 83100 333 20245 58000;
0137830960999992006031418004-10917-037050FM-12+000599999V0200901N004112200019N0020001N1+02951+02331101081ADDGF102991021011012501001001MA1999999101011MD1999999+0121REMSYN070AAXX  14184 83096 32695 20908 10295 20233 30101 40108 82100 333 58012;
0168830960999992006031500004-10917-037050FM-12+000599999V0200901N003112200019N0020001N1+02711+02301101071ADDGF102991021011012501001001KA1240M+03041MA1999999101001MD1999999+0061REMSYN088AAXX  15004 83096 32695 20906 10271 20230 30100 40107 82100 333 10304 29073 55106 58006;
0201830960999992006031512004-10917-037050FM-12+000599999V0200901N002112200019N0020001N1+02851+02401101271ADDAA124000591AY151061AY251061GF103991031011012501001001KA1240N+02451MA1999999101201MD1999999+0101MW1201REMSYN088AAXX  15124 83096 21695 30904 10285 20240 30120 40127 72055 83100 333 20245 58010 69944;
0137830960999992006031518004-10917-037050FM-12+000599999V0200901N002612200019N0020001N1+02951+02331101081ADDGF102991021011012501001001MA1999999101011MD1999999+0001REMSYN070AAXX  15184 83096 32695 20905 10295 20233 30101 40108 82100 333 58000;
0201830960999992006031612004-10917-037050FM-12+000599999V0200901N002112200019N0020001N1+02871+02331101271ADDAA124000891AY151061AY251061GF103991031011008001001001KA1240N+02461MA1999999101201MD1999999+0001MW1201REMSYN088AAXX  16124 83096 21595 30904 10287 20233 30120 40127 72055 83100 333 20246 58000 69984;
0137830960999992006031618004-10917-037050FM-12+000599999V0200901N003112200019N0020001N1+02951+02431101161ADDGF102991021011012501001001MA1999999101091MD1999999+0081REMSYN070AAXX  16184 83096 32695 20906 10295 20243 30109 40116 82100 333 58008;
0168830960999992006031700004-10917-037050FM-12+000599999V0200901N003112200019N0020001N1+02771+02401101151ADDGF102991021051012501001001KA1240M+03121MA1999999101081MD1999999+0061REMSYN088AAXX  17004 83096 32695 20906 10277 20240 30108 40115 82500 333 10312 29077 55104 58006;
0201830960999992006031712004-10917-037050FM-12+000599999V0200901N002612200019N0020001N1+02891+02391101171ADDAA124001091AY161061AY261061GF103991031011012501001001KA1240N+02461MA1999999101101MD1999999-0101MW1211REMSYN088AAXX  17124 83096 21695 30905 10289 20239 30110 40117 72166 83100 333 20246 59010 60014;
0137830960999992006031718004-10917-037050FM-12+000599999V0200901N003112200019N0020001N1+02931+02361101121ADDGF102991021011012501001001MA1999999101051MD1999999-0041REMSYN070AAXX  17184 83096 32695 20906 10293 20236 30105 40112 82100 333 59004;
0168830960999992006031800004-10917-037050FM-12+000599999V0200901N003112200019N0020001N1+02751+02381101071ADDGF104991041051012501001001KA1240M+03081MA1999999101001MD1999999-0081REMSYN088AAXX  18004 83096 32695 40906 10275 20238 30100 40107 84500 333 10308 29077 55073 59008;
0156830960999992006031812004-10917-037050FM-12+000599999V0200901N004112200019N0020001N1+02911+02481101151ADDGF104991041011012501001001KA1240N+02461MA1999999101081MD1999999-0021REMSYN076AAXX  18124 83096 32695 40908 10291 20248 30108 40115 84100 333 20246 59002;
0137830960999992006031818004-10917-037050FM-12+000599999V0200901N004112200019N0020001N1+02911+02431101081ADDGF103991031011012501001001MA1999999101011MD1999999-0041REMSYN070AAXX  18184 83096 32695 30908 10291 20243 30101 40108 83100 333 59004;
0168830960999992006031900004-10917-037050FM-12+000599999V0200901N003112200019N0020001N1+02751+02381101071ADDGF103991031051012501001001KA1240M+03101MA1999999101001MD1999999+0001REMSYN088AAXX  19004 83096 32695 30906 10275 20238 30100 40107 83500 333 10310 29079 55097 58000;
0201830960999992006031912004-10917-037050FM-12+000599999V0200901N001512200019N0020001N1+02611+02391101221ADDAA124000891AY151061AY251061GF104991041051012501001001KA1240N+02431MA1999999101151MD1999999+0071MW1201REMSYN088AAXX  19124 83096 21695 40903 10261 20239 30115 40122 72055 84500 333 20243 58007 69984;
0137830960999992006031918004-10917-037050FM-12+000599999V0200901N002612200019N0020001N1+02851+02381101141ADDGF103991031011012501001001MA1999999101071MD1999999+0061REMSYN070AAXX  19184 83096 32695 30905 10285 20238 30107 40114 83100 333 58006;
0213830960999992006032000004-10917-037050FM-12+000599999V0200901N001510120019N0020001N1+02471+02341101171ADDAA106004191AY161061AY261061GF106991061051012501001001KA1240M+03011MA1999999101101MD1999999+0101MW1211REMSYN100AAXX  20004 83096 21695 60903 10247 20234 30110 40117 72166 86500 333 10301 29087 55051 58010 60041;
0173830960999992006032012004-10917-037050FM-12+000599999V0200501N002610120019N0020001N1+02851+02421101251ADDAA124004191GF106991061021012501001001KA1240N+02331MA1999999101281MD1999999+0131REMSYN082AAXX  20124 83096 22695 60505 10285 20242 30128 40125 86200 333 20233 58013 60044;
0137830960999992006032018004-10917-037050FM-12+000599999V0200901N003112200019N0020001N1+03001+02341101161ADDGF103991031011012501001001MA1999999101091MD1999999+0021REMSYN070AAXX  20184 83096 32695 30906 10300 20234 30109 40116 83100 333 58002;
0168830960999992006032100004-10917-037050FM-12+000599999V0201401N002612200019N0020001N1+02771+02401101301ADDGF102991021051012501001001KA1240M+03091MA1999999101231MD1999999+0131REMSYN088AAXX  21004 83096 32695 21405 10277 20240 30123 40130 82500 333 10309 29076 55102 58013;
0156830960999992006032112004-10917-037050FM-12+000599999V0200901N003112200019N0020001N1+02991+02371101361ADDGF103991031011012501001001KA1240N+02341MA1999999101291MD1999999+0011REMSYN076AAXX  21124 83096 32695 30906 10299 20237 30129 40136 83100 333 20234 58001;
0137830960999992006032118004-10917-037050FM-12+000599999V0200901N003112200019N0020001N1+03011+02291101131ADDGF101991011011012501001001MA1999999101061MD1999999-0031REMSYN070AAXX  21184 83096 32695 10906 10301 20229 30106 40113 81100 333 59003;
0168830960999992006032200004-10917-037050FM-12+000599999V0201401N001512200019N0020001N1+02751+02341101361ADDGF101991011051012501001001KA1240M+03131MA1999999101291MD1999999+0061REMSYN088AAXX  22004 83096 32695 11403 10275 20234 30129 40136 81500 333 10313 29072 55100 58006;
0201830960999992006032212004-10917-037050FM-12+000599999V0200901N002112200019N0020001N1+02931+02311101371ADDAA124003091AY161061AY261061GF103991031011012501001001KA1240N+02391MA1999999101301MD1999999+0011MW1011REMSYN088AAXX  22124 83096 21695 30904 10293 20231 30130 40137 70166 83100 333 20239 58001 60034;
0137830960999992006032218004-10917-037050FM-12+000599999V0201401N003110120019N0020001N1+02871+02441101151ADDGF105991051011012501001001MA1999999101081MD1999999+0021REMSYN070AAXX  22184 83096 32695 51406 10287 20244 30108 40115 85100 333 58002;
0168830960999992006032300004-10917-037050FM-12+000599999V0200901N001512200019N0020001N1+02761+02381101301ADDGF101991011051012501001001KA1240M+03121MA1999999101231MD1999999-0061REMSYN088AAXX  23004 83096 32695 10903 10276 20238 30123 40130 81500 333 10312 29076 55081 59006;
0156830960999992006032312004-10917-037050FM-12+000599999V0200901N003110120019N0020001N1+02951+02531101381ADDGF106991061011012501001001KA1240N+02491MA1999999101311MD1999999+0011REMSYN076AAXX  23124 83096 32695 60906 10295 20253 30131 40138 86100 333 20249 58001;
0137830960999992006032318004-10917-037050FM-12+000599999V0200901N002610120019N0020001N1+02951+02531101081ADDGF106991061011012501001001MA1999999101011MD1999999-0071REMSYN070AAXX  23184 83096 32695 60905 10295 20253 30101 40108 86100 333 59007;
0168830960999992006032400004-10917-037050FM-12+000599999V0200901N002610120019N0020001N1+02691+02591101281ADDGF106991061051012501001001KA1240M+03081MA1999999101211MD1999999-0021REMSYN088AAXX  24004 83096 32695 60905 10269 20259 30121 40128 86500 333 10308 29083 55048 59002;
0201830960999992006032412004-10917-037050FM-12+000599999V0200501N001510120019N0020001N1+02761+02621101241ADDAA124009991AY161061AY261061GF106991061021012501001001KA1240N+02471MA1999999101271MD1999999-0041MW1031REMSYN088AAXX  24124 83096 21695 60503 10276 20262 30127 40124 70366 86200 333 20247 59004 60104;
0137830960999992006032418004-10917-037050FM-12+000599999V0201401N003112200019N0020001N1+02951+02531101061ADDGF102991021011012501001001MA1999999100991MD1999999-0021REMSYN070AAXX  24184 83096 32695 21406 10295 20253 30099 40106 82100 333 59002;
0168830960999992006032500004-10917-037050FM-12+000599999V0200901N002612200019N0020001N1+02761+02441101351ADDGF102991021051012501001001KA1240M+03041MA1999999101281MD1999999+0071REMSYN088AAXX  25004 83096 32695 20905 10276 20244 30128 40135 82500 333 10304 29084 55068 58007;
0156830960999992006032512004-10917-037050FM-12+000599999V0200501N001010120019N0020001N1+02761+02461101421ADDGF106991061021012501001001KA1240N+02511MA1999999101251MD1999999+0081REMSYN076AAXX  25124 83096 32695 60502 10276 20246 30125 40142 86200 333 20251 58008;
0137830960999992006032518004-10917-037050FM-12+000599999V02099999999990120019N0020001N1+02901+02501101111ADDGF106991061021012501001001MA1999999101041MD1999999+0051REMSYN070AAXX  25184 83096 32695 614// 10290 20250 30104 40111 86200 333 58005;
0168830960999992006032600004-10917-037050FM-12+000599999V0200901N003112200019N0020001N1+02751+02521101321ADDGF103991031051012501001001KA1240M+03011MA1999999101251MD1999999-0031REMSYN088AAXX  26004 83096 32695 30906 10275 20252 30125 40132 83500 333 10301 29084 55013 59003;
0156830960999992006032612004-10917-037050FM-12+000599999V0200901N002612200019N0020001N1+02931+02541101391ADDGF102991021011012501001001KA1240N+02531MA1999999101321MD1999999-0031REMSYN076AAXX  26124 83096 32695 20905 10293 20254 30132 40139 82100 333 20253 59003;
0137830960999992006032618004-10917-037050FM-12+000599999V0200901N005112200019N0020001N1+03001+02511100971ADDGF102991021011012501001001MA1999999100901MD1999999-0141REMSYN070AAXX  26184 83096 32695 20910 10300 20251 30090 40097 82100 333 59014;
0168830960999992006032700004-10917-037050FM-12+000599999V0200901N004112200019N0020001N1+02801+02521101161ADDGF103991031051012501001001KA1240M+03091MA1999999101091MD1999999-0161REMSYN088AAXX  27004 83096 32695 30908 10280 20252 30109 40116 83500 333 10309 29081 55099 59016;
0156830960999992006032712004-10917-037050FM-12+000599999V0200901N003112200019N0020001N1+03031+02521101461ADDGF102991021011012501001001KA1240N+02491MA1999999101391MD1999999+0071REMSYN076AAXX  27124 83096 32695 20906 10303 20252 30139 40146 82100 333 20249 58007;
0137830960999992006032718004-10917-037050FM-12+000599999V0200901N005110120019N0020001N1+03011+02611101021ADDGF105991051011012501001001MA1999999100951MD1999999+0051REMSYN070AAXX  27184 83096 32695 50910 10301 20261 30095 40102 85100 333 58005;
0168830960999992006032800004-10917-037050FM-12+000599999V0200501N002610120019N0020001N1+02831+02601101421ADDGF105991051051012501001001KA1240M+03181MA1999999101351MD1999999+0261REMSYN088AAXX  28004 83096 32695 50505 10283 20260 30135 40142 85500 333 10318 29082 55094 58026;
0156830960999992006032812004-10917-037050FM-12+000599999V0200501N003612200019N0020001N1+03031+02381101321ADDGF102991021011012501001001KA1240N+02501MA1999999101251MD1999999-0141REMSYN076AAXX  28124 83096 32695 20507 10303 20238 30125 40132 82100 333 20250 59014;
0137830960999992006032818004-10917-037050FM-12+000599999V0200901N005110120019N0020001N1+02931+02601100971ADDGF106991061011012501001001MA1999999100901MD1999999-0051REMSYN070AAXX  28184 83096 32695 60910 10293 20260 30090 40097 86100 333 59005;
0168830960999992006032900004-10917-037050FM-12+000599999V0200501N003112200019N0020001N1+02801+02581101241ADDGF101991011051012501001001KA1240M+03241MA1999999101171MD1999999+0181REMSYN088AAXX  29004 83096 32695 10506 10280 20258 30117 40124 81500 333 10324 29081 55040 58018;
0156830960999992006032912004-10917-037050FM-12+000599999V0203601N002612200019N0020001N1+03021+02441101261ADDGF101991011011012501001001KA1240N+02511MA1999999101191MD1999999-0061REMSYN076AAXX  29124 83096 32695 13605 10302 20244 30119 40126 81100 333 20251 59006;
0187830960999992006033000004-10917-037050FM-12+000599999V0200501N003119999999N0020001N1+02781+02521101221ADDGF105991999051012501001001KA1240M+03221MA1999999101151MD1999999-0021REMSYN088AAXX  30004 83096 32695 50506 10278 20252 30115 40122 81500 333 10322 29080 55088 59002;EQDQ01+000012SCOTLC
0156830960999992006033012004-10917-037050FM-12+000599999V0203601N002110120019N0020001N1+02971+02491101321ADDGF106991061011012501001001KA1240N+02531MA1999999101251MD1999999+0061REMSYN076AAXX  30124 83096 32695 63604 10297 20249 30125 40132 86100 333 20253 58006;
0137830960999992006033018004-10917-037050FM-12+000599999V0200901N005110120019N0020001N1+02921+02541100951ADDGF106991061011012501001001MA1999999100881MD1999999+0061REMSYN070AAXX  30184 83096 32695 60910 10292 20254 30088 40095 86100 333 58006;
0168830960999992006033100004-10917-037050FM-12+000599999V0200901N003612200019N0020001N1+02791+02561101301ADDGF102991021051012501001001KA1240M+03191MA1999999101231MD1999999+0081REMSYN088AAXX  31004 83096 32695 20907 10279 20256 30123 40130 82500 333 10319 29082 55051 58008;
0156830960999992006033112004-10917-037050FM-12+000599999V0200501N003110120019N0020001N1+02991+02551101361ADDGF105991051011012501001001KA1240N+02551MA1999999101291MD1999999+0041REMSYN076AAXX  31124 83096 32695 50506 10299 20255 30129 40136 85100 333 20255 58004;
0137830960999992006033118004-10917-037050FM-12+000599999V0200901N004612200019N0020001N1+02961+02451101021ADDGF101991011011012501001001MA1999999100951MD1999999+0071REMSYN070AAXX  31184 83096 32695 10909 10296 20245 30095 40102 81100 333 58007;
0168830960999992006040100004-10917-037050FM-12+000599999V0200901N004112200019N0020001N1+02751+02481101281ADDGF101991011051012501001001KA1240M+03111MA1999999101211MD1999999+0021REMSYN088AAXX  01004 83096 32695 10908 10275 20248 30121 40128 81500 333 10311 29080 55089 58002;
0201830960999992006040112004-10917-037050FM-12+000599999V0200501N004112200019N0020001N1+02811+02541101421ADDAA124005191AY161061AY261061GF103991031021012501001001KA1240N+02491MA1999999101351MD1999999+0061MW1011REMSYN088AAXX  01124 83096 21695 30508 10281 20254 30135 40142 70166 83200 333 20249 58006 60054;
0137830960999992006040118004-10917-037050FM-12+000599999V0200501N004110120019N0020001N1+02771+02421101161ADDGF106991061021012501001001MA1999999101091MD1999999+0141REMSYN070AAXX  01184 83096 32695 60508 10277 20242 30109 40116 86200 333 58014;
0168830960999992006040200004-10917-037050FM-12+000599999V0200501N001510120019N0020001N1+02621+02391101331ADDGF105991051051012501001001KA1240M+02961MA1999999101261MD1999999+0051REMSYN088AAXX  02004 83096 32695 50503 10262 20239 30126 40133 85500 333 10296 29085 55040 58005;
0156830960999992006040212004-10917-037050FM-12+000599999V0200501N001512200019N0020001N1+02881+02481101361ADDGF102991021011012501001001KA1240N+02371MA1999999101291MD1999999-0061REMSYN076AAXX  02124 83096 32695 20503 10288 20248 30129 40136 82100 333 20237 59006;
0137830960999992006040218004-10917-037050FM-12+000599999V0200901N002610120019N0020001N1+02801+02441101101ADDGF106991061011012501001001MA1999999101031MD1999999-0061REMSYN070AAXX  02184 83096 32695 60905 10280 20244 30103 40110 86100 333 59006;
0168830960999992006040300004-10917-037050FM-12+000599999V0200901N002612200019N0020001N1+02701+02461101221ADDGF102991021051012501001001KA1240M+03071MA1999999101151MD1999999-0111REMSYN088AAXX  03004 83096 32695 20905 10270 20246 30115 40122 82500 333 10307 29083 55085 59011;
0156830960999992006040312004-10917-037050FM-12+000599999V0200901N001512200019N0020001N1+02811+02311101251ADDGF103991031021012501001001KA1240N+02391MA1999999101181MD1999999-0111REMSYN076AAXX  03124 83096 32695 30903 10281 20231 30118 40125 83200 333 20239 59011;
0137830960999992006040318004-10917-037050FM-12+000599999V0201401N002112200019N0020001N1+03031+02361101171ADDGF102991021011012501001001MA1999999101101MD1999999+0071REMSYN070AAXX  03184 83096 32695 21404 10303 20236 30110 40117 82100 333 58007;
0168830960999992006040400004-10917-037050FM-12+000599999V0200901N002112200019N0020001N1+02791+02361101171ADDGF102991021051012501001001KA1240M+03101MA1999999101101MD1999999-0051REMSYN088AAXX  04004 83096 32695 20904 10279 20236 30110 40117 82500 333 10310 29075 55109 59005;
0201830960999992006040412004-10917-037050FM-12+000599999V0200901N002610120019N0020001N1+02571+02351101291ADDAA124000891AY151061AY251061GF106991061051012501001001KA1240N+02391MA1999999101221MD1999999+0041MW1201REMSYN088AAXX  04124 83096 21695 60905 10257 20235 30122 40129 72055 86500 333 20239 58004 69984;
0137830960999992006040418004-10917-037050FM-12+000599999V0200901N003612200019N0020001N1+02851+02291101101ADDGF104991041011012501001001MA1999999101031MD1999999-0031REMSYN070AAXX  04184 83096 32695 40907 10285 20229 30103 40110 84100 333 59003;
0168830960999992006040500004-10917-037050FM-12+000599999V0201801N002112200019N0020001N1+02691+02351101171ADDGF104991041051012501001001KA1240M+03041MA1999999101101MD1999999+0001REMSYN088AAXX  05004 83096 32695 41804 10269 20235 30110 40117 84500 333 10304 29081 55040 58000;
0156830960999992006040512004-10917-037050FM-12+000599999V0201801N001510120019N0020001N1+02791+02341101291ADDGF105991051011012501001001KA1240N+02371MA1999999101221MD1999999+0001REMSYN076AAXX  05124 83096 32695 51803 10279 20234 30122 40129 85100 333 20237 58000;
0137830960999992006040518004-10917-037050FM-12+000599999V0200901N002112200019N0020001N1+02971+02281101101ADDGF102991021011012501001001MA1999999101031MD1999999+0001REMSYN070AAXX  05184 83096 32695 20904 10297 20228 30103 40110 82100 333 58000;
0168830960999992006040600004-10917-037050FM-12+000599999V0201801N002112200019N0020001N1+02731+02301101211ADDGF102991021051012501001001KA1240M+03101MA1999999101141MD1999999+0041REMSYN088AAXX  06004 83096 32695 21804 10273 20230 30114 40121 82500 333 10310 29075 55068 58004;
0156830960999992006040612004-10917-037050FM-12+000599999V0200901N003612200019N0020001N1+02871+02481101211ADDGF104991041011012501001001KA1240N+02451MA1999999101141MD1999999-0081REMSYN076AAXX  06124 83096 32695 40907 10287 20248 30114 40121 84100 333 20245 59008;
0137830960999992006040618004-10917-037050FM-12+000599999V0200901N002612200019N0020001N1+02991+02351101061ADDGF102991021011012501001001MA1999999100991MD1999999-0041REMSYN070AAXX  06184 83096 32695 20905 10299 20235 30099 40106 82100 333 59004;
0168830960999992006040700004-10917-037050FM-12+000599999V0200901N002112200019N0020001N1+02791+02361101091ADDGF102991021011012501001001KA1240M+03101MA1999999101021MD1999999-0121REMSYN088AAXX  07004 83096 32695 20904 10279 20236 30102 40109 82100 333 10310 29076 55105 59012;
0201830960999992006040712004-10917-037050FM-12+000599999V0200901N003112200019N0020001N1+02871+02441101171ADDAA124007991AY161061AY261061GF104991041011012501001001KA1240N+02451MA1999999101101MD1999999-0041MW1211REMSYN088AAXX  07124 83096 21695 40906 10287 20244 30110 40117 72166 84100 333 20245 59004 60084;
0137830960999992006040718004-10917-037050FM-12+000599999V0200901N003112200019N0020001N1+02911+02481101021ADDGF102991021011012501001001MA1999999100951MD1999999-0041REMSYN070AAXX  07184 83096 32695 20906 10291 20248 30095 40102 82100 333 59004;
0168830960999992006040800004-10917-037050FM-12+000599999V0200901N003112200019N0020001N1+02771+02341101111ADDGF103991031051012501001001KA1240M+03041MA1999999101041MD1999999+0021REMSYN088AAXX  08004 83096 32695 30906 10277 20234 30104 40111 83500 333 10304 29078 55095 58002;
0156830960999992006040812004-10917-037050FM-12+000599999V0200901N002612200019N0020001N1+02971+02331101151ADDGF103991031011012501001001KA1240N+02451MA1999999101081MD1999999-0021REMSYN076AAXX  08124 83096 32695 30905 10297 20233 30108 40115 83100 333 20245 59002;
0137830960999992006040818004-10917-037050FM-12+000599999V0200901N002612200019N0020001N1+02951+02261100961ADDGF102991021011012501001001MA1999999100891MD1999999-0061REMSYN070AAXX  08184 83096 32695 20905 10295 20226 30089 40096 82100 333 59006;
0168830960999992006040900004-10917-037050FM-12+000599999V0200901N002612200019N0020001N1+02771+02321101011ADDGF102991021051012501001001KA1240M+03101MA1999999100941MD1999999-0101REMSYN088AAXX  09004 83096 32695 20905 10277 20232 30094 40101 82500 333 10310 29072 55110 59010;
0201830960999992006040912004-10917-037050FM-12+000599999V0200901N002612200019N0020001N1+02911+02411101111ADDAA124001091AY161061AY261061GF104991041011012501001001KA1240N+02511MA1999999101041MD1999999-0041MW1211REMSYN088AAXX  09124 83096 21695 40905 10291 20241 30104 40111 72166 84100 333 20251 59004 60014;
0137830960999992006040918004-10917-037050FM-12+000599999V0200901N002612200019N0020001N1+02971+02261100941ADDGF102991021011012501001001MA1999999100871MD1999999-0021REMSYN070AAXX  09184 83096 32695 20905 10297 20226 30087 40094 82100 333 59002;
0168830960999992006041000004-10917-037050FM-12+000599999V0200901N003112200019N0020001N1+02791+02341100931ADDGF103991031051012501001001KA1240M+03101MA1999999100861MD1999999-0081REMSYN088AAXX  10004 83096 32695 30906 10279 20234 30086 40093 83500 333 10310 29074 55097 59008;
0156830960999992006041012004-10917-037050FM-12+000599999V0200901N002112200019N0020001N1+02971+02231101081ADDGF102991021011012501001001KA1240N+02551MA1999999101011MD1999999-0031REMSYN076AAXX  10124 83096 32695 20904 10297 20223 30101 40108 82100 333 20255 59003;
0137830960999992006041018004-10917-037050FM-12+000599999V0200901N004112200019N0020001N1+02951+02401100721ADDGF102991021011012501001001MA1999999100651MD1999999-0221REMSYN070AAXX  10184 83096 32695 20908 10295 20240 30065 40072 82100 333 59022;
0168830960999992006041100004-10917-037050FM-12+000599999V0200501N002110120019N0020001N1+02831+02461100971ADDGF105991051051012501001001KA1240M+03141MA1999999100901MD1999999+0041REMSYN088AAXX  11004 83096 32695 50504 10283 20246 30090 40097 85500 333 10314 29075 55100 58004;
0156830960999992006041112004-10917-037050FM-12+000599999V0200901N002612200019N0020001N1+02891+02391101031ADDGF104991041011012501001001KA1240N+02491MA1999999100961MD1999999-0051REMSYN076AAXX  11124 83096 32695 40905 10289 20239 30096 40103 84100 333 20249 59005;
0137830960999992006041118004-10917-037050FM-12+000599999V0200901N003612200019N0020001N1+02891+02411100881ADDGF104991041011012501001001MA1999999100811MD1999999+0161REMSYN070AAXX  11184 83096 32695 40907 10289 20241 30081 40088 84100 333 58016;
0168830960999992006041200004-10917-037050FM-12+000599999V0200901N003112200019N0020001N1+02791+02361100991ADDGF103991031011012501001001KA1240M+03101MA1999999100921MD1999999+0021REMSYN088AAXX  12004 83096 32695 30906 10279 20236 30092 40099 83100 333 10310 29077 55074 58002;
0156830960999992006041212004-10917-037050FM-12+000599999V0200901N003112200019N0020001N1+02931+02341101111ADDGF104991041011012501001001KA1240N+02491MA1999999101041MD1999999+0081REMSYN076AAXX  12124 83096 32695 40906 10293 20234 30104 40111 84100 333 20249 58008;
0137830960999992006041218004-10917-037050FM-12+000599999V0200901N003112200019N0020001N1+02971+02351100901ADDGF104991041011012501001001MA1999999100831MD1999999+0021REMSYN070AAXX  12184 83096 32695 40906 10297 20235 30083 40090 84100 333 58002;
0168830960999992006041300004-10917-037050FM-12+000599999V0200901N004112200019N0020001N1+02791+02461101031ADDGF102991021051012501001001KA1240M+03141MA1999999100961MD1999999+0041REMSYN088AAXX  13004 83096 32695 20908 10279 20246 30096 40103 82500 333 10314 29077 55098 58004;
0156830960999992006041312004-10917-037050FM-12+000599999V0200501N002112200019N0020001N1+02891+02371101091ADDGF104991041011012501001001KA1240N+02491MA1999999101021MD1999999-0021REMSYN076AAXX  13124 83096 32695 40504 10289 20237 30102 40109 84100 333 20249 59002;
0137830960999992006041318004-10917-037050FM-12+000599999V0200901N004112200019N0020001N1+02951+02471100861ADDGF102991021011012501001001MA1999999100791MD1999999-0041REMSYN070AAXX  13184 83096 32695 20908 10295 20247 30079 40086 82100 333 59004;
0168830960999992006041400004-10917-037050FM-12+000599999V0200901N003112200019N0020001N1+02751+02401100931ADDGF102991021051012501001001KA1240M+03141MA1999999100861MD1999999-0101REMSYN088AAXX  14004 83096 32695 20906 10275 20240 30086 40093 82500 333 10314 29078 55103 59010;
0156830960999992006041412004-10917-037050FM-12+000599999V0200501N001512200019N0020001N1+02831+02441101071ADDGF104991041051012501001001KA1240N+02461MA1999999101001MD1999999-0021REMSYN076AAXX  14124 83096 32695 40503 10283 20244 30100 40107 84500 333 20246 59002;
0137830960999992006041418004-10917-037050FM-12+000599999V0200901N002612200019N0020001N1+02951+02471100841ADDGF103991031011012501001001MA1999999100771MD1999999-0021REMSYN070AAXX  14184 83096 32695 30905 10295 20247 30077 40084 83100 333 59002;
0168830960999992006041500004-10917-037050FM-12+000599999V0200901N003112200019N0020001N1+02791+02321100991ADDGF103991031011012501001001KA1240M+03121MA1999999100921MD1999999+0061REMSYN088AAXX  15004 83096 32695 30906 10279 20232 30092 40099 83100 333 10312 29077 55099 58006;
0156830960999992006041512004-10917-037050FM-12+000599999V0200901N003112200019N0020001N1+02951+02311101101ADDGF103991031011012501001001KA1240N+02491MA1999999101031MD1999999+0031REMSYN076AAXX  15124 83096 32695 30906 10295 20231 30103 40110 83100 333 20249 58003;
0137830960999992006041518004-10917-037050FM-12+000599999V0200901N003112200019N0020001N1+02971+02381100921ADDGF103991031011012501001001MA1999999100851MD1999999+0081REMSYN070AAXX  15184 83096 32695 30906 10297 20238 30085 40092 83100 333 58008;
0168830960999992006041600004-10917-037050FM-12+000599999V0200901N003612200019N0020001N1+02791+02251101171ADDGF102991021011012501001001KA1240M+03141MA1999999101101MD1999999+0181REMSYN088AAXX  16004 83096 32695 20907 10279 20225 30110 40117 82100 333 10314 29071 55099 58018;
0156830960999992006041612004-10917-037050FM-12+000599999V0200901N002612200019N0020001N1+02951+02381101341ADDGF103991031011012501001001KA1240N+02491MA1999999101271MD1999999+0241REMSYN076AAXX  16124 83096 32695 30905 10295 20238 30127 40134 83100 333 20249 58024;
0182830960999992006041618004-10917-037050FM-12+000599999V0201401N001510120019N0020001N1+02871+02441101291ADDAA106002091AY161061AY261061GF105991051051012501001001MA1999999101221MD1999999+0371MW1211REMSYN082AAXX  16184 83096 21695 51403 10287 20244 30122 40129 72166 85500 333 58037 60021;
0168830960999992006041700004-10917-037050FM-12+000599999V0200901N001512200019N0020001N1+02751+02341101331ADDGF102991021051012501001001KA1240M+03141MA1999999101261MD1999999+0161REMSYN088AAXX  17004 83096 32695 20903 10275 20234 30126 40133 82500 333 10314 29077 55068 58016;
0179830960999992006041712004-10917-037050FM-12+000599999V0200501N001512200019N0020001N1+02851+02371101371ADDAA124002091GF103991031011012501001001KA1240N+02571MA1999999101301MD1999999-0011REMSYN088AAXX  17124 83096 22695 30503 10285 20237 30130 40137 83100 333 20257 59001 60024 10016;
0168830960999992006041800004-10917-037050FM-12+000599999V0200901N002612200019N0020001N1+02751+02461101241ADDGF103991031051012501001001KA1240M+03071MA1999999101171MD1999999-0091REMSYN088AAXX  18004 83096 32695 30905 10275 20246 30117 40124 83500 333 10307 29076 55083 59009;
0156830960999992006041812004-10917-037050FM-12+000599999V0200501N001510120019N0020001N1+02881+02371101261ADDGF105991051011012501001001KA1240N+02441MA1999999101191MD1999999-0111REMSYN076AAXX  18124 83096 32695 50503 10288 20237 30119 40126 85100 333 20244 59011;
0137830960999992006041818004-10917-037050FM-12+000599999V0200901N003110120019N0020001N1+02871+02371100951ADDGF108991081011012501999999MA1999999100881MD1999999-0101REMSYN070AAXX  18184 83096 32695 80906 10287 20237 30088 40095 881// 333 59010;
0168830960999992006041900004-10917-037050FM-12+000599999V0200901N003112200019N0020001N1+02771+02361101241ADDGF101991011051012501001001KA1240M+03051MA1999999101171MD1999999+0001REMSYN088AAXX  19004 83096 32695 10906 10277 20236 30117 40124 81500 333 10305 29076 55056 58000;
0156830960999992006041912004-10917-037050FM-12+000599999V0200501N001510120019N0020001N1+02871+02321101381ADDGF106991061011012501001001KA1240N+02451MA1999999101311MD1999999+0111REMSYN076AAXX  19124 83096 32695 60503 10287 20232 30131 40138 86100 333 20245 58011;
0137830960999992006041918004-10917-037050FM-12+000599999V0200901N003110120019N0020001N1+02971+02441101121ADDGF106991061011012501001001MA1999999101051MD1999999+0171REMSYN070AAXX  19184 83096 32695 60906 10297 20244 30105 40112 86100 333 58017;
0168830960999992006042000004-10917-037050FM-12+000599999V0201401N002612200019N0020001N1+02721+02471101341ADDGF102991021051012501001001KA1240M+03061MA1999999101271MD1999999+0101REMSYN088AAXX  20004 83096 32695 21405 10272 20247 30127 40134 82500 333 10306 29079 55061 58010;
0220830960999992006042012004-10917-037050FM-12+000599999V0201401N001519999999N0020001N1+02641+02371101391ADDAA124010991AY161061AY261061GF106991999021012501001001KA1240N+02371MA1999999101321MD1999999+0011MW1021REMSYN088AAXX  20124 83096 21695 61403 10264 20237 30132 40139 70266 88200 333 20237 58001 60114;EQDQ01+000082SCOTLC
0168830960999992006042100004-10917-037050FM-12+000599999V0201401N000510120019N0020001N1+02701+02371101381ADDGF106991061051012501001001KA1240M+02921MA1999999101311MD1999999+0041REMSYN088AAXX  21004 83096 32695 61401 10270 20237 30131 40138 86500 333 10292 29082 55014 58004;
0201830960999992006042112004-10917-037050FM-12+000599999V0202701N001510075019N0020001N1+02411+02401101371ADDAA124005191AY161061AY261061GF108991081021008001999999KA1240N+02411MA1999999101301MD1999999-0021MW1611REMSYN088AAXX  21124 83096 21595 82703 10241 20240 30130 40137 76166 882// 333 20241 59002 60054;
0182830960999992006042118004-10917-037050FM-12+000599999V0201401N001010120019N0020001N1+02661+02431101251ADDAA106013091AY161061AY261061GF108991081021012501999999MA1999999101181MD1999999+0151MW1031REMSYN082AAXX  21184 83096 21695 81402 10266 20243 30118 40125 70366 882// 333 58015 60131;
0168830960999992006042200004-10917-037050FM-12+000599999V0201801N001010120019N0020001N1+02471+02391101431ADDGF105991051051012501001001KA1240M+02791MA1999999101361MD1999999+0051REMSYN088AAXX  22004 83096 32695 51802 10247 20239 30136 40143 85500 333 10279 29094 55003 58005;
0173830960999992006042212004-10917-037050FM-12+000599999V0201801N002110120019N0020001N1+02751+02461101481ADDAA124013091GF105991051011012501001001KA1240N+02351MA1999999101411MD1999999+0111REMSYN082AAXX  22124 83096 22695 51804 10275 20246 30141 40148 85100 333 20235 58011 60134;
0137830960999992006042218004-10917-037050FM-12+000599999V0201401N002612200019N0020001N1+02911+02451101011ADDGF103991031011012501001001MA1999999101071MD1999999-0111REMSYN070AAXX  22184 83096 32695 31405 10291 20245 30107 40101 83100 333 59011;
0168830960999992006042300004-10917-037050FM-12+000599999V0201401N001510120019N0020001N1+02701+02431101331ADDGF105991051051012501001001KA1240M+03011MA1999999101261MD1999999-0101REMSYN088AAXX  23004 83096 32695 51403 10270 20243 30126 40133 85500 333 10301 29082 55081 59010;
0201830960999992006042312004-10917-037050FM-12+000599999V0200501N001512200019N0020001N1+02821+02541101431ADDAA124000591AY151061AY251061GF103991031011012501001001KA1240N+02331MA1999999101361MD1999999-0051MW1021REMSYN088AAXX  23124 83096 21695 30503 10282 20254 30136 40143 70255 83100 333 20233 59005 69944;
0137830960999992006042318004-10917-037050FM-12+000599999V0200901N002612200019N0020001N1+02951+02471101111ADDGF103991031011012501001001MA1999999101041MD1999999-0031REMSYN070AAXX  23184 83096 32695 30905 10295 20247 30104 40111 83100 333 59003;
0168830960999992006042400004-10917-037050FM-12+000599999V0200901N002612200019N0020001N1+02791+02421101321ADDGF101991011051012501001001KA1240M+03131MA1999999101251MD1999999-0011REMSYN088AAXX  24004 83096 32695 10905 10279 20242 30125 40132 81500 333 10313 29080 55089 59001;
0156830960999992006042412004-10917-037050FM-12+000599999V0201401N001512200019N0020001N1+02931+02471101331ADDGF103991031011012501001001KA1240N+02391MA1999999101261MD1999999-0101REMSYN076AAXX  24124 83096 32695 31403 10293 20247 30126 40133 83100 333 20239 59010;
0137830960999992006042418004-10917-037050FM-12+000599999V0201401N003112200019N0020001N1+02941+02431101031ADDGF103991031011012501001001MA1999999100961MD1999999-0051REMSYN070AAXX  24184 83096 32695 31406 10294 20243 30096 40103 83100 333 59005;
0168830960999992006042500004-10917-037050FM-12+000599999V0201401N002110120019N0020001N1+02751+02441101281ADDGF105991051051012501001001KA1240M+03121MA1999999101151MD1999999-0101REMSYN088AAXX  25004 83096 32695 51404 10275 20244 30115 40128 85500 333 10312 29079 55090 59010;
0201830960999992006042512004-10917-037050FM-12+000599999V02099999999990120019N0020001N1+02571+02491101341ADDAA124002091AY161061AY261061GF108991081021012501999999KA1240N+02411MA1999999101271MD1999999+0011MW1021REMSYN088AAXX  25124 83096 21695 809// 10257 20249 30127 40134 70266 882// 333 20241 58001 60024;
0182830960999992006042518004-10917-037050FM-12+000599999V02099999999990075019N0020001N1+02851+02191101091ADDAA106030091AY161061AY261061GF108991081051008001999999MA1999999101021MD1999999+0061MW1631REMSYN082AAXX  25184 83096 21595 818// 10285 20219 30102 40109 76366 885// 333 58006 60301;
0213830960999992006042600004-10917-037050FM-12+000599999V0200901N002610120019N0020001N1+02461+02371101301ADDAA106000591AY151061AY251061GF106991061051012501001001KA1240M+02871MA1999999101231MD1999999+0081MW1031REMSYN100AAXX  26004 83096 21695 60905 10246 20237 30123 40130 70355 86500 333 10287 29088 55002 58008 69941;
0173830960999992006042612004-10917-037050FM-12+000599999V0201801N002110120019N0020001N1+02711+02431101311ADDAA124030091GF108991081021012501999999KA1240N+02311MA1999999101241MD1999999-0031REMSYN082AAXX  26124 83096 22695 81804 10271 20243 30124 40131 882// 333 20231 59003 60304;
0182830960999992006042618004-10917-037050FM-12+000599999V0201401N003110120019N0020001N1+02641+02391101051ADDAA106002091AY161061AY261061GF108991081021012501999999MA1999999100981MD1999999-0041MW1031REMSYN082AAXX  26184 83096 21695 81406 10264 20239 30098 40105 70366 882// 333 59004 60021;
0168830960999992006042700004-10917-037050FM-12+000599999V0201801N001510120019N0020001N1+02651+02411101211ADDGF106991061051012501001001KA1240M+02851MA1999999101141MD1999999-0091REMSYN088AAXX  27004 83096 32695 61803 10265 20241 30114 40121 86500 333 10285 29085 55010 59009;
0201830960999992006042712004-10917-037050FM-12+000599999V0201401N002110120019N0020001N1+02861+02501101291ADDAA124002091AY151061AY251061GF105991051011012501001001KA1240N+02331MA1999999101221MD1999999-0021MW1011REMSYN088AAXX  27124 83096 21695 51404 10286 20250 30122 40129 70155 85100 333 20233 59002 60024;
0137830960999992006042718004-10917-037050FM-12+000599999V0201401N002112200019N0020001N1+02891+02501100961ADDGF102991021011012501001001MA1999999100891MD1999999-0091REMSYN070AAXX  27184 83096 32695 21404 10289 20250 30089 40096 82100 333 59009;
0168830960999992006042800004-10917-037050FM-12+000599999V0201401N001012200019N0020001N1+02701+02431101271ADDGF102991021051012501001001KA1240M+03031MA1999999101201MD1999999+0061REMSYN088AAXX  28004 83096 32695 21402 10270 20243 30120 40127 82500 333 10303 29082 55095 58006;
0156830960999992006042812004-10917-037050FM-12+000599999V0202301N001010120019N0020001N1+02781+02501101311ADDGF106991061021012501001001KA1240N+02341MA1999999101241MD1999999+0021REMSYN076AAXX  28124 83096 32695 62302 10278 20250 30124 40131 86200 333 20234 58002;
0137830960999992006042818004-10917-037050FM-12+000599999V0201401N003112200019N0020001N1+02921+02471100951ADDGF102991021011012501001001MA1999999100881MD1999999-0011REMSYN070AAXX  28184 83096 32695 21406 10292 20247 30088 40095 82100 333 59001;
0168830960999992006042900004-10917-037050FM-12+000599999V0201801N001512200019N0020001N1+02751+02461101241ADDGF103991031051012501001001KA1240M+03081MA1999999101171MD1999999-0031REMSYN088AAXX  29004 83096 32695 31803 10275 20246 30117 40124 83500 333 10308 29082 55083 59003;
0201830960999992006042912004-10917-037050FM-12+000599999V0201801N003110120019N0020001N1+02531+02421101361ADDAA124039991AY161061AY261061GF108991081021012501999999KA1240N+02351MA1999999101291MD1999999+0051MW1161REMSYN088AAXX  29124 83096 21695 81806 10253 20242 30129 40136 71666 882// 333 20235 58005 60404;
0182830960999992006042918004-10917-037050FM-12+000599999V0200901N003110075019N0020001N1+02401+02391101091ADDAA106006191AY161061AY261061GF108991081021008001999999MA1999999101021MD1999999+0141MW1601REMSYN082AAXX  29184 83096 21595 80906 10240 20239 30102 40109 76066 882// 333 58014 60061;
0213830960999992006043000004-10917-037050FM-12+000599999V0201801N001010075019N0020001N1+02341+02311101351ADDAA106011991AY161061AY261061GF108991081051008001999999KA1240M+02871MA1999999101281MD1999999+0111MW1551REMSYN100AAXX  30004 83096 21595 81802 10234 20231 30128 40135 75566 885// 333 10287 29096 55000 58011 60121;
0201830960999992006043012004-10917-037050FM-12+000599999V0202301N001510075019N0020001N1+02441+02411101381ADDAA124054191AY161061AY261061GF108991081021008001999999KA1240N+02271MA1999999101311MD1999999+0021MW1601REMSYN088AAXX  30124 83096 21595 82303 10244 20241 30131 40138 76066 882// 333 20227 58002 60544;
0182830960999992006043018004-10917-037050FM-12+000599999V0202301N002610075019N0020001N1+02401+02261101181ADDAA106009991AY161061AY261061GF108991081021008001999999MA1999999101111MD1999999+0091MW1601REMSYN082AAXX  30184 83096 21595 82305 10240 20226 30111 40118 76066 882// 333 58009 60101;
0213830960999992006050100004-10917-037050FM-12+000599999V0200501N000510120019N0020001N1+02421+02251101401ADDAA106008991AY161061AY261061GF108991081051012501999999KA1240M+02691MA1999999101331MD1999999+0051MW1161REMSYN100AAXX  01004 83096 21695 80501 10242 20225 30133 40140 71666 885// 333 10269 29093 55000 58005 60091;
0201830960999992006050112004-10917-037050FM-12+000599999V0202701N001012200019N0020001N1+02551+02331101411ADDAA124029091AY161061AY261061GF104991041051012501001001KA1240N+02281MA1999999101341MD1999999+0031MW1211REMSYN088AAXX  01124 83096 21695 42702 10255 20233 30134 40141 72166 84500 333 20228 58003 60294;
0137830960999992006050118004-10917-037050FM-12+000599999V0201401N002110120019N0020001N1+02591+02331101311ADDGF106991061051012501001001MA1999999101241MD1999999+0131REMSYN070AAXX  01184 83096 32695 61404 10259 20233 30124 40131 86500 333 58013;
0213830960999992006050200004-10917-037050FM-12+000599999V0201401N003110075019N0010001N1+02491+02271101471ADDAA106017091AY161061AY261061GF108991081051008001999999KA1240M+02891MA1999999101401MD1999999+0071MW1611REMSYN100AAXX  02004 83096 21594 81406 10249 20227 30140 40147 76166 885// 333 10289 29087 55000 58007 60171;
0201830960999992006050212004-10917-037050FM-12+000599999V0201401N001510120019N0020001N1+02571+02351101501ADDAA124024991AY161061AY261061GF106991061051012501001001KA1240N+02371MA1999999101431MD1999999+0091MW1211REMSYN088AAXX  02124 83096 21695 61403 10257 20235 30143 40150 72166 86500 333 20237 58009 60254;
0137830960999992006050218004-10917-037050FM-12+000599999V0200901N001512200019N0020001N1+02871+02441101291ADDGF104991041011012501001001MA1999999101221MD1999999-0021REMSYN070AAXX  02184 83096 32695 40903 10287 20244 30122 40129 84100 333 59002;
0213830960999992006050300004-10917-037050FM-12+000599999V0200901N002612200019N0020001N1+02711+02431101381ADDAA106003091AY161061AY261061GF104991041051012501001001KA1240M+02971MA1999999101311MD1999999-0091MW1211REMSYN100AAXX  03004 83096 21695 40905 10271 20243 30131 40138 72166 84500 333 10297 29084 55059 59009 60031;
0201830960999992006050312004-10917-037050FM-12+000599999V0200901N002612200019N0020001N1+02831+02331101391ADDAA124016091AY161061AY261061GF103991031011012501001001KA1240N+02431MA1999999101321MD1999999-0111MW1211REMSYN088AAXX  03124 83096 21695 30905 10283 20233 30132 40139 72166 83100 333 20243 59011 60164;
0137830960999992006050318004-10917-037050FM-12+000599999V0200901N003112200019N0020001N1+02851+02401101171ADDGF102991021011012501001001MA1999999101101MD1999999-0121REMSYN070AAXX  03184 83096 32695 20906 10285 20240 30110 40117 82100 333 59012;
0168830960999992006050400004-10917-037050FM-12+000599999V0200901N002112200019N0020001N1+02691+02351101171ADDGF102991021051012501001001KA1240M+02951MA1999999101101MD1999999-0211REMSYN088AAXX  04004 83096 32695 20904 10269 20235 30110 40117 82500 333 10295 29079 55095 59021;
0201830960999992006050412004-10917-037050FM-12+000599999V0200901N002112200019N0020001N1+02831+02441101251ADDAA124000591AY151061AY251061GF103991031011012501001001KA1240N+02431MA1999999101181MD1999999-0141MW1201REMSYN088AAXX  04124 83096 21695 30904 10283 20244 30118 40125 72055 83100 333 20243 59014 69944;
0137830960999992006050418004-10917-037050FM-12+000599999V0200901N002612200019N0020001N1+02871+02371101091ADDGF103991031011012501001001MA1999999101021MD1999999-0081REMSYN070AAXX  04184 83096 32695 30905 10287 20237 30102 40109 83100 333 59008;
0168830960999992006050500004-10917-037050FM-12+000599999V0200901N002612200019N0020001N1+02691+02351101211ADDGF103991031051012501001001KA1240M+02971MA1999999101141MD1999999+0041REMSYN088AAXX  05004 83096 32695 30905 10269 20235 30114 40121 83500 333 10297 29080 55100 58004;
0156830960999992006050512004-10917-037050FM-12+000599999V0200901N002112200019N0020001N1+02831+02421101271ADDGF103991031011012501001001KA1240N+02351MA1999999101201MD1999999+0021REMSYN076AAXX  05124 83096 32695 30904 10283 20242 30120 40127 83100 333 20235 58002;
0137830960999992006050518004-10917-037050FM-12+000599999V0200901N003112200019N0020001N1+02871+02281101101ADDGF102991021011012501001001MA1999999101031MD1999999+0011REMSYN070AAXX  05184 83096 32695 20906 10287 20228 30103 40110 82100 333 58001;
0168830960999992006050600004-10917-037050FM-12+000599999V0200901N001512200019N0020001N1+02711+02261101271ADDGF103991031011012501001001KA1240M+02991MA1999999101201MD1999999+0061REMSYN088AAXX  06004 83096 32695 30903 10271 20226 30120 40127 83100 333 10299 29076 55099 58006;
0156830960999992006050612004-10917-037050FM-12+000599999V0200901N001512200019N0020001N1+02791+02361101371ADDGF104991041011012501001001KA1240N+02411MA1999999101301MD1999999+0101REMSYN076AAXX  06124 83096 32695 40903 10279 20236 30130 40137 84100 333 20241 58010;
0137830960999992006050618004-10917-037050FM-12+000599999V0200901N002112200019N0020001N1+02911+02341101181ADDGF104991041011012501001001MA1999999101111MD1999999+0081REMSYN070AAXX  06184 83096 32695 40904 10291 20234 30111 40118 84100 333 58008;
0168830960999992006050700004-10917-037050FM-12+000599999V0201401N002112200019N0020001N1+02671+02331101231ADDGF103991031051012501001001KA1240M+03021MA1999999101161MD1999999-0041REMSYN088AAXX  07004 83096 32695 31404 10267 20233 30116 40123 83500 333 10302 29078 55083 59004;
0201830960999992006050712004-10917-037050FM-12+000599999V0201801N002110120019N0020001N1+02611+02391101381ADDAA124002091AY161061AY261061GF105991051051012501001001KA1240N+02391MA1999999101311MD1999999+0011MW1211REMSYN088AAXX  07124 83096 21695 51804 10261 20239 30131 40138 72166 85500 333 20239 58001 60024;
0182830960999992006050718004-10917-037050FM-12+000599999V0201401N001510120019N0020001N1+02491+02361101271ADDAA106047091AY161061AY261061GF106991061051012501001001MA1999999101201MD1999999+0091MW1211REMSYN082AAXX  07184 83096 21695 61403 10249 20236 30120 40127 72166 86500 333 58009 60471;
0168830960999992006050800004-10917-037050FM-12+000599999V0201801N003112200019N0020001N1+02651+02121101311ADDGF104991041011012501001001KA1240M+02731MA1999999101241MD1999999+0081REMSYN088AAXX  08004 83096 32695 41806 10265 20212 30124 40131 84100 333 10273 29082 55012 58008;
0173830960999992006050812004-10917-037050FM-12+000599999V0201801N003110120019N0020001N1+02541+02211101401ADDAA124047091GF105991051051012501001001KA1240N+02351MA1999999101331MD1999999+0021REMSYN082AAXX  08124 83096 22695 51806 10254 20221 30133 40140 85500 333 20235 58002 60474;
0137830960999992006050818004-10917-037050FM-12+000599999V0201801N003110120019N0020001N1+02911+02271101171ADDGF105991051011012501001001MA1999999101101MD1999999-0101REMSYN070AAXX  08184 83096 32695 51806 10291 20227 30110 40117 85100 333 59010;
0213830960999992006050900004-10917-037050FM-12+000599999V0201801N002110120019N0020001N1+02511+02341101291ADDAA106009991AY161061AY261061GF106991061051012501001001KA1240M+03011MA1999999101221MD1999999-0021MW1211REMSYN100AAXX  09004 83096 21695 61804 10251 20234 30122 40129 72166 86500 333 10301 29083 55048 59002 60101;
0201830960999992006050912004-10917-037050FM-12+000599999V0201801N001512200019N0020001N1+02751+02321101391ADDAA124032091AY161061AY261061GF103991031011012501001001KA1240N+02351MA1999999101321MD1999999-0011MW1211REMSYN088AAXX  09124 83096 21695 31803 10275 20232 30132 40139 72166 83100 333 20235 59001 60324;
0137830960999992006050918004-10917-037050FM-12+000599999V0201401N002112200019N0020001N1+02851+02221101171ADDGF104991041011012501001001MA1999999101101MD1999999+0001REMSYN070AAXX  09184 83096 32695 41404 10285 20222 30110 40117 84100 333 58000;
0168830960999992006051000004-10917-037050FM-12+000599999V0201801N002112200019N0020001N1+02671+02221101291ADDGF103991031011012501001001KA1240M+02961MA1999999101221MD1999999+0001REMSYN088AAXX  10004 83096 32695 31804 10267 20222 30122 40129 83100 333 10296 29075 55085 58000;
0156830960999992006051012004-10917-037050FM-12+000599999V0201401N002112200019N0020001N1+02791+02321101411ADDGF104991041011012501001001KA1240N+02431MA1999999101341MD1999999+0021REMSYN076AAXX  10124 83096 32695 41404 10279 20232 30134 40141 84100 333 20243 58002;
0137830960999992006051018004-10917-037050FM-12+000599999V0201801N003110120019N0020001N1+02891+02251101271ADDGF105991051011012501001001MA1999999101201MD1999999+0101REMSYN070AAXX  10184 83096 32695 51806 10289 20225 30120 40127 85100 333 58010;
0168830960999992006051100004-10917-037050FM-12+000599999V0201801N002112200019N0020001N1+02671+02291101291ADDGF104991041011012501001001KA1240M+03011MA1999999101221MD1999999+0001REMSYN088AAXX  11004 83096 32695 41804 10267 20229 30122 40129 84100 333 10301 29076 55072 58000;
0201830960999992006051112004-10917-037050FM-12+000599999V0202701N001512200019N0020001N1+02711+02351101361ADDAA124005191AY161061AY261061GF104991041011012501001001KA1240N+02351MA1999999101291MD1999999-0051MW1211REMSYN088AAXX  11124 83096 21695 42703 10271 20235 30129 40136 72166 84100 333 20235 59005 60054;
0137830960999992006051118004-10917-037050FM-12+000599999V0201401N002112200019N0020001N1+02831+02291101111ADDGF103991031011012501001001MA1999999101041MD1999999-0161REMSYN070AAXX  11184 83096 32695 31404 10283 20229 30104 40111 83100 333 59016;
0187830960999992006051200004-10917-037050FM-12+000599999V0200901N002612200019N0020001N1+02671+02221101171ADDGF103991031011012501001001KA1240M+99999MA1999999101101MD1999999-0121REMSYN088AAXX  12004 83096 32695 30905 10267 20222 30110 40117 83100 333 10235 29077 55093 59012;EQDQ01 +02352ATMX  
0137830960999992006051218004-10917-037050FM-12+000599999V0200901N002612200019N0020001N1+02871+02231101111ADDGF102991021011012501001001MA1999999101041MD1999999+0001REMSYN070AAXX  12184 83096 32695 20905 10287 20223 30104 40111 82100 333 58000;
0168830960999992006051300004-10917-037050FM-12+000599999V0200901N002112200019N0020001N1+02691+02391101271ADDGF103991031051012501001001KA1240M+02951MA1999999101201MD1999999+0101REMSYN088AAXX  13004 83096 32695 30904 10269 20239 30120 40127 83500 333 10295 29079 55105 58010;
0156830960999992006051312004-10917-037050FM-12+000599999V0202701N001512200019N0020001N1+02711+02431101531ADDGF104991041011012501001001KA1240N+02351MA1999999101461MD1999999+0221REMSYN076AAXX  13124 83096 32695 42703 10271 20243 30146 40153 84100 333 20235 58022;
0137830960999992006051318004-10917-037050FM-12+000599999V0200901N002612200019N0020001N1+02931+02321101361ADDGF102991021011012501001001MA1999999101291MD1999999+0251REMSYN070AAXX  13184 83096 32695 20905 10293 20232 30129 40136 82100 333 58025;
0168830960999992006051400004-10917-037050FM-12+000599999V0201801N002612200019N0020001N1+02751+02341101571ADDGF103991031051012501001001KA1240M+02991MA1999999101501MD1999999+0301REMSYN088AAXX  14004 83096 32695 31805 10275 20234 30150 40157 83500 333 10299 29078 55089 58030;
0156830960999992006051412004-10917-037050FM-12+000599999V0200901N002612200019N0020001N1+02871+02331101671ADDGF104991041011012501001001KA1240N+02461MA1999999101601MD1999999+0141REMSYN076AAXX  14124 83096 32695 40905 10287 20233 30160 40167 84100 333 20246 58014;
0123830960999992006051418004-10917-037050FM-12+000599999V0200901N002612200019N0020001N1+02951+99999999999ADDGF103991999999012501999999MA1999999101371REMSYN070AAXX  14184 83096 32695 30905 10295 30137 30231 40144 83100 333 58008;
0187830960999992006051500004-10917-037050FM-12+000599999V0201801N002612200019N0020001N1+02751+02381101551ADDGF104991999041012501001001KA1240M+03011MA1999999101481MD1999999-0021REMSYN088AAXX  15004 83096 32695 41805 10275 20238 30148 40155 85400 333 10301 29076 55098 59002;EQDQ01+000052SCOTLC
0201830960999992006051512004-10917-037050FM-12+000599999V0201801N001510075019N0020001N1+02501+02341101701ADDAA124021191AY161061AY261061GF108991081021008001999999KA1240N+02391MA1999999101631MD1999999+0031MW1161REMSYN088AAXX  15124 83096 21595 81803 10250 20234 30163 40170 71666 882// 333 20239 58003 60214;
0182830960999992006051518004-10917-037050FM-12+000599999V0201801N003110120019N0020001N1+02561+02351101531ADDAA106031091AY161061AY261061GF108991081021012501999999MA1999999101461MD1999999+0091MW1031REMSYN082AAXX  15184 83096 21695 81806 10256 20235 30146 40153 70366 882// 333 58009 60311;
0168830960999992006051600004-10917-037050FM-12+000599999V0201801N003110120019N0020001N1+02691+02221101671ADDGF108991081051012501999999KA1240M+02841MA1999999101601MD1999999+0121REMSYN088AAXX  16004 83096 32695 81806 10269 20222 30160 40167 885// 333 10284 29082 55009 58012;
0201830960999992006051612004-10917-037050FM-12+000599999V0201401N002610120019N0020001N1+02731+02121101681ADDAA124034091AY161061AY261061GF108991081021012501999999KA1240N+02401MA1999999101611MD1999999-0021MW1031REMSYN088AAXX  16124 83096 21695 81405 10273 20212 30161 40168 70366 882// 333 20240 59002 60344;
0182830960999992006051618004-10917-037050FM-12+000599999V0201401N004110120019N0020001N1+02671+02131101281ADDAA106003091AY161061AY261061GF108991081021012501999999MA1999999101211MD1999999-0251MW1031REMSYN082AAXX  16184 83096 21695 81408 10267 20213 30121 40128 70366 882// 333 59025 60031;
0168830960999992006051700004-10917-037050FM-12+000599999V0201801N003110120019N0020001N1+02601+02141101651ADDGF108991081051012501999999KA1240M+02921MA1999999101581MD1999999-0021REMSYN088AAXX  17004 83096 32695 81806 10260 20214 30158 40165 885// 333 10292 29073 55018 59002;
0201830960999992006051712004-10917-037050FM-12+000599999V0201801N004110120019N0020001N1+02741+02071101741ADDAA124008991AY161061AY261061GF105991051021012501001001KA1240N+02331MA1999999101671MD1999999+0061MW1011REMSYN088AAXX  17124 83096 21695 51808 10274 20207 30167 40174 70166 85200 333 20233 58006 60094;
0182830960999992006051718004-10917-037050FM-12+000599999V0201401N002610120019N0020001N1+02511+02131101571ADDAA106000591AY151061AY251061GF108991081021012501999999MA1999999101501MD1999999+0291MW1161REMSYN082AAXX  17184 83096 21695 81405 10251 20213 30150 40157 71655 882// 333 58029 69961;
0213830960999992006051800004-10917-037050FM-12+000599999V0201401N003110120019N0020001N1+02601+02191101781ADDAA106002091AY161061AY261061GF106991061051012501001001KA1240M+02891MA1999999101711MD1999999+0131MW1161REMSYN100AAXX  18004 83096 21695 61406 10260 20219 30171 40178 71666 86500 333 10289 29079 55015 58013 60021;
0201830960999992006051812004-10917-037050FM-12+000599999V0201801N004110120019N0020001N1+02351+02171101841ADDAA124029091AY161061AY261061GF108991081021012501999999KA1240N+02221MA1999999101771MD1999999+0101MW1161REMSYN088AAXX  18124 83096 21695 81808 10235 20217 30177 40184 71666 882// 333 20222 58010 60294;
0182830960999992006051818004-10917-037050FM-12+000599999V0201801N005110075019N0010001N1+02331+02151101591ADDAA106005191AY161061AY261061GF108991081021008001999999MA1999999101521MD1999999+0021MW1651REMSYN082AAXX  18184 83096 21594 81810 10233 20215 30152 40159 76566 882// 333 58002 60051;
0213830960999992006051900004-10917-037050FM-12+000599999V0202701N001510120019N0020001N1+02301+02131101801ADDAA106008991AY161061AY261061GF108991081051012501999999KA1240M+02731MA1999999101731MD1999999+0021MW1531REMSYN100AAXX  19004 83096 21695 82703 10230 20213 30173 40180 75366 885// 333 10273 29090 55001 58002 60091;
0201830960999992006051912004-10917-037050FM-12+000599999V0202701N001010075019N0010001N1+02401+02171101761ADDAA124026991AY161061AY261061GF108991081021008001999999KA1240N+02221MA1999999101691MD1999999-0081MW1531REMSYN088AAXX  19124 83096 21594 82702 10240 20217 30169 40176 75366 882// 333 20222 59008 60274;
0182830960999992006051918004-10917-037050FM-12+000599999V0201401N003110120019N0020001N1+02431+02071101521ADDAA106005191AY161061AY261061GF108991081021012501999999MA1999999101451MD1999999-0071MW1161REMSYN082AAXX  19184 83096 21695 81406 10243 20207 30145 40152 71666 882// 333 59007 60051;
0213830960999992006052000004-10917-037050FM-12+000599999V0202701N000510120019N0020001N1+02261+02141101641ADDAA106002091AY161061AY261061GF108991081051012501999999KA1240M+02731MA1999999101571MD1999999-0161MW1161REMSYN100AAXX  20004 83096 21695 82701 10226 20214 30157 40164 71666 885// 333 10273 29088 55000 59016 60021;
0201830960999992006052012004-10917-037050FM-12+000599999V0202701N001510120019N0020001N1+02461+02171101611ADDAA124007991AY151061AY251061GF106991061021012501001001KA1240N+02201MA1999999101541MD1999999-0151MW1031REMSYN088AAXX  20124 83096 21695 62703 10246 20217 30154 40161 70355 86200 333 20220 59015 60084;
0137830960999992006052018004-10917-037050FM-12+000599999V0201401N001510120019N0020001N1+02721+01881101261ADDGF105991051011012501001001MA1999999101191MD1999999-0261REMSYN070AAXX  20184 83096 32695 51403 10272 20188 30119 40126 85100 333 59026;
0168830960999992006052100004-10917-037050FM-12+000599999V0201401N000512200019N0020001N1+02471+02031101541ADDGF101991011051012501001001KA1240M+02881MA1999999101471MD1999999-0101REMSYN088AAXX  21004 83096 32695 11401 10247 20203 30147 40154 81500 333 10288 29074 55060 59010;
0156830960999992006052112004-10917-037050FM-12+000599999V0201401N001512200019N0020001N1+02741+02051101631ADDGF103991031011012501001001KA1240N+02101MA1999999101561MD1999999+0021REMSYN076AAXX  21124 83096 32695 31403 10274 20205 30156 40163 83100 333 20210 58002;
0137830960999992006052118004-10917-037050FM-12+000599999V0201401N002612200019N0020001N1+02771+01981101351ADDGF102991021011012501001001MA1999999101281MD1999999+0091REMSYN070AAXX  21184 83096 32695 21405 10277 20198 30128 40135 82100 333 58009;
0168830960999992006052200004-10917-037050FM-12+000599999V0201401N001512200019N0020001N1+02551+02021101571ADDGF101991011051012501001001KA1240M+02921MA1999999101501MD1999999+0101REMSYN088AAXX  22004 83096 32695 11403 10255 20202 30150 40157 81500 333 10292 29068 55100 58010;
0156830960999992006052212004-10917-037050FM-12+000599999V0201401N002612200019N0020001N1+02761+02041101781ADDGF101991011011012501001001KA1240N+02131MA1999999101711MD1999999+0151REMSYN076AAXX  22124 83096 32695 11405 10276 20204 30171 40178 81100 333 20213 58015;
0137830960999992006052218004-10917-037050FM-12+000599999V0201401N003112200019N0020001N1+02781+02041101501ADDGF101991011011012501001001MA1999999101431MD1999999+0151REMSYN070AAXX  22184 83096 32695 11406 10278 20204 30143 40150 81100 333 58015;
0168830960999992006052300004-10917-037050FM-12+000599999V0201401N001510120019N0020001N1+02631+02141101711ADDGF106991061051012501001001KA1240M+02931MA1999999101641MD1999999+0141REMSYN088AAXX  23004 83096 32695 61403 10263 20214 30164 40171 86500 333 10293 29069 55100 58014;
0201830960999992006052312004-10917-037050FM-12+000599999V0202701N001510120019N0020001N1+02431+02371101761ADDAA124016091AY161061AY261061GF108991081021012501999999KA1240N+02161MA1999999101691MD1999999-0021MW1161REMSYN088AAXX  23124 83096 21695 82703 10243 20237 30169 40176 71666 882// 333 20216 59002 60164;
0182830960999992006052318004-10917-037050FM-12+000599999V0201401N003112200019N0020001N1+02861+02351101411ADDAA106000591AY151061AY251061GF102991021011012501001001MA1999999101341MD1999999-0091MW1031REMSYN082AAXX  23184 83096 21695 21406 10286 20235 30134 40141 70355 82100 333 59009 69961;
0213830960999992006052400004-10917-037050FM-12+000599999V0200901N000510120019N0020001N1+02471+02381101771ADDAA106006191AY161061AY261061GF105991051051012501001001KA1240M+02961MA1999999101701MD1999999+0061MW1031REMSYN100AAXX  24004 83096 21695 50901 10247 20238 30170 40177 70366 85500 333 10296 29090 55062 58006 60061;
0201830960999992006052412004-10917-037050FM-12+000599999V0200901N002110075019N0020001N1+02671+02451101701ADDAA124006191AY161061AY261061GF108991081021008001999999KA1240N+02241MA1999999101631MD1999999-0061MW1631REMSYN088AAXX  24124 83096 21595 80904 10267 20245 30163 40170 76366 882// 333 20224 59006 60064;
0137830960999992006052418004-10917-037050FM-12+000599999V0201501N002110120019N0020001N1+02781+02361101341ADDGF105991051021012501001001MA1999999101271MD1999999-0071REMSYN070AAXX  24184 83096 32695 51504 10278 20236 30127 40134 85200 333 59007;
0213830960999992006052500004-10917-037050FM-12+000599999V0201401N002610120019N0020001N1+02571+02441101571ADDAA106007991AY161061AY261061GF108991081051012501999999KA1240M+02951MA1999999101501MD1999999-0201MW1161REMSYN100AAXX  25004 83096 21695 81405 10257 20244 30150 40157 71666 885// 333 10295 29087 55064 59020 60081;
0201830960999992006052512004-10917-037050FM-12+000599999V0201801N005710120019N0020001N1+02521+02271101751ADDAA124008991AY151061AY251061GF108991081021012501999999KA1240N+02281MA1999999101681MD1999999+0051MW1161REMSYN088AAXX  25124 83096 21695 81811 10252 20227 30168 40175 71655 882// 333 20228 58005 60094;
0137830960999992006052518004-10917-037050FM-12+000599999V0201801N003610120019N0020001N1+02731+02401101391ADDGF106991061011012501001001MA1999999101321MD1999999+0051REMSYN070AAXX  25184 83096 32695 61807 10273 20240 30132 40139 86100 333 58005;
0168830960999992006052600004-10917-037050FM-12+000599999V0201801N002610120019N0020001N1+02651+02431101581ADDGF105991051051012501001001KA1240M+02841MA1999999101511MD1999999+0011REMSYN088AAXX  26004 83096 32695 51805 10265 20243 30151 40158 85500 333 10284 29085 55035 58001;
0201830960999992006052612004-10917-037050FM-12+000599999V0202701N002610120019N0020001N1+02521+02361101581ADDAA124002091AY161061AY261061GF106991061011012501001001KA1240N+02351MA1999999101511MD1999999-0171MW1031REMSYN088AAXX  26124 83096 21695 62705 10252 20236 30151 40158 70366 86100 333 20235 59017 60024;
0137830960999992006052618004-10917-037050FM-12+000599999V0201801N003112200019N0020001N1+02861+02281101351ADDGF103991031011012501001001MA1999999101281MD1999999-0041REMSYN070AAXX  26184 83096 32695 31806 10286 20228 30128 40135 83100 333 59004;
0168830960999992006052700004-10917-037050FM-12+000599999V0200901N001510120019N0020001N1+02551+02331101591ADDGF106991061051012501001001KA1240M+02971MA1999999101521MD1999999+0011REMSYN088AAXX  27004 83096 32695 60903 10255 20233 30152 40159 86500 333 10297 29084 55041 58001;
0201830960999992006052712004-10917-037050FM-12+000599999V0201801N001512200019N0020001N1+02681+02501101151ADDAA124011991AY131061AY261061GF103991031011012501001001KA1240N+02351MA1999999101521MD1999999+0011MW1031REMSYN088AAXX  27124 83096 21695 31803 10268 20250 30152 40115 70336 83100 333 20235 58001 60124;
0137830960999992006052718004-10917-037050FM-12+000599999V0201401N002112200019N0020001N1+02731+02381101351ADDGF103991031011012501001001MA1999999101281MD1999999+0001REMSYN070AAXX  27184 83096 32695 31404 10273 20238 30128 40135 83100 333 58000;
0168830960999992006052800004-10917-037050FM-12+000599999V0200901N001512200019N0020001N1+02651+02371101431ADDGF103991031051012501001001KA1240M+02911MA1999999101361MD1999999-0161REMSYN088AAXX  28004 83096 32695 30903 10265 20237 30136 40143 83500 333 10291 29085 55083 59016;
0201830960999992006052812004-10917-037050FM-12+000599999V0200501N001010120019N0020001N1+02611+02441101641ADDAA124013091AY161061AY261061GF106991061021012501001001KA1240N+02431MA1999999101571MD1999999+0051MW1161REMSYN088AAXX  28124 83096 21695 60502 10261 20244 30157 40164 71666 86200 333 20243 58005 60134;
0182830960999992006052818004-10917-037050FM-12+000599999V0200901N001512200019N0020001N1+02751+02421101351ADDAA106001091AY161061AY261061GF102991021011012501001001MA1999999101281MD1999999+0001MW1031REMSYN082AAXX  28184 83096 21695 20903 10275 20242 30128 40135 70366 82100 333 58000 60011;
0168830960999992006052900004-10917-037050FM-12+000599999V0200901N001012200019N0020001N1+02621+02421101551ADDGF102991021051012501001001KA1240M+02831MA1999999101481MD1999999+0141REMSYN088AAXX  29004 83096 32695 20902 10262 20242 30148 40155 82500 333 10283 29088 55050 58014;
0201830960999992006052912004-10917-037050FM-12+000599999V0201401N002112200019N0020001N1+02771+02361101571ADDAA124002091AY161061AY261061GF104991041011012501001001KA1240N+02391MA1999999101501MD1999999-0071MW1211REMSYN088AAXX  29124 83096 21695 41404 10277 20236 30150 40157 72166 84100 333 20239 59007 60024;
0137830960999992006052918004-10917-037050FM-12+000599999V0201401N002112200019N0020001N1+02821+02311101471ADDGF103991031011012501001001MA1999999101401MD1999999+0121REMSYN070AAXX  29184 83096 32695 31404 10282 20231 30140 40147 83100 333 58012;
0168830960999992006053000004-10917-037050FM-12+000599999V0201401N002112200019N0020001N1+02671+02271101561ADDGF103991031051012501001001KA1240M+02931MA1999999101491MD1999999+0011REMSYN088AAXX  30004 83096 32695 31404 10267 20227 30149 40156 83500 333 10293 29078 55093 58001;
0156830960999992006053012004-10917-037050FM-12+000599999V0201801N002612200019N0020001N1+02731+02081101611ADDGF102991021011012501001001KA1240N+02431MA1999999101541MD1999999+0041REMSYN076AAXX  30124 83096 32695 21805 10273 20208 30154 40161 82100 333 20243 58004;
0137830960999992006053018004-10917-037050FM-12+000599999V0201801N002612200019N0020001N1+02751+01951101511ADDGF102991021011012501001001MA1999999101441MD1999999+0041REMSYN070AAXX  30184 83096 32695 21805 10275 20195 30144 40151 82100 333 58004;
0168830960999992006053100004-10917-037050FM-12+000599999V0201801N002612200019N0020001N1+02631+02011101571ADDGF103991031011012501001001KA1240M+02871MA1999999101501MD1999999+0011REMSYN088AAXX  31004 83096 32695 31805 10263 20201 30150 40157 83100 333 10287 29067 55086 58001;
0156830960999992006053112004-10917-037050FM-12+000599999V0200901N002112200019N0020001N1+02751+02261101671ADDGF103991031011012501001001KA1240N+02431MA1999999101601MD1999999+0061REMSYN076AAXX  31124 83096 32695 30904 10275 20226 30160 40167 83100 333 20243 58006;
0182830960999992006053118004-10917-037050FM-12+000599999V0201401N002610120019N0020001N1+02691+02221101511ADDAA106008991AY161061AY261061GF106991061051012501001001MA1999999101441MD1999999+0001MW1211REMSYN082AAXX  31184 83096 21695 61405 10269 20222 30144 40151 72166 86500 333 58000 60091;
0213830960999992006060100004-10917-037050FM-12+000599999V0201401N002610075019N0010001N1+02411+02231101571ADDAA106008991AY161061AY261061GF108991081051008001999999KA1240M+02901MA1999999101501MD1999999+0001MW1601REMSYN100AAXX  01004 83096 21594 81405 10241 20223 30150 40157 76066 885// 333 10290 29083 55060 58000 60091;
0201830960999992006060112004-10917-037050FM-12+000599999V0200901N001510120019N0020001N1+02451+02171101701ADDAA124033091AY161061AY261061GF106991061051012501001001KA1240N+02301MA1999999101631MD1999999+0031MW1211REMSYN088AAXX  01124 83096 21695 60903 10245 20217 30163 40170 72166 86500 333 20230 58003 60334;
0137830960999992006060118004-10917-037050FM-12+000599999V0201801N002112200019N0020001N1+02751+02121101561ADDGF103991031011012501001001MA1999999101491MD1999999+0051REMSYN070AAXX  01184 83096 32695 31804 10275 20212 30149 40156 83100 333 58005;
0168830960999992006060200004-10917-037050FM-12+000599999V0201401N002112200019N0020001N1+02591+02151101581ADDGF103991031051012501001001KA1240M+02831MA1999999101511MD1999999+0011REMSYN088AAXX  02004 83096 32695 31404 10259 20215 30151 40158 83500 333 10283 29077 55053 58001;
0201830960999992006060212004-10917-037050FM-12+000599999V0201801N002612200019N0020001N1+02631+02161101701ADDAA124000021AY151061AY251061GF104991041011012501001001KA1240N+02431MA1999999101631MD1999999+0001MW1201REMSYN088AAXX  02124 83096 21695 41805 10263 20216 30163 40170 72055 84100 333 20243 58000 69924;
0137830960999992006060218004-10917-037050FM-12+000599999V0201801N003110120019N0020001N1+02531+02171101671ADDGF105991051051012501001001MA1999999101601MD1999999+0111REMSYN070AAXX  02184 83096 32695 51806 10253 20217 30160 40167 85500 333 58011;
0168830960999992006060300004-10917-037050FM-12+000599999V0201801N002612200019N0020001N1+02491+02211101681ADDGF104991041051012501001001KA1240M+02741MA1999999101611MD1999999+0101REMSYN088AAXX  03004 83096 32695 41805 10249 20221 30161 40168 84500 333 10274 29082 55034 58010;
0156830960999992006060312004-10917-037050FM-12+000599999V0201801N002612200019N0020001N1+02611+02011101721ADDGF104991041011012501001001KA1240N+02431MA1999999101651MD1999999+0021REMSYN076AAXX  03124 83096 32695 41805 10261 20201 30165 40172 84100 333 20243 58002;
0137830960999992006060318004-10917-037050FM-12+000599999V0201401N002612200019N0020001N1+02731+02101101531ADDGF103991031011012501001001MA1999999101461MD1999999-0141REMSYN070AAXX  03184 83096 32695 31405 10273 20210 30146 40153 83100 333 59014;
0168830960999992006060400004-10917-037050FM-12+000599999V0201401N002612200019N0020001N1+02591+02191101671ADDGF103991031051012501001001KA1240M+02831MA1999999101601MD1999999-0011REMSYN088AAXX  04004 83096 32695 31405 10259 20219 30160 40167 83500 333 10283 29074 55069 59001;
0201830960999992006060412004-10917-037050FM-12+000599999V0201401N002612200019N0020001N1+02591+02121101681ADDAA124001091AY151061AY251061GF103991031011012501001001KA1240N+02411MA1999999101611MD1999999-0041MW1201REMSYN088AAXX  04124 83096 21695 31405 10259 20212 30161 40168 72055 83100 333 20241 59004 60014;
0137830960999992006060418004-10917-037050FM-12+000599999V0201401N002612200019N0020001N1+02771+02161101491ADDGF103991031011012501001001MA1999999101421MD1999999-0041REMSYN070AAXX  04184 83096 32695 31405 10277 20216 30142 40149 83100 333 59004;
0168830960999992006060500004-10917-037050FM-12+000599999V0201401N002612200019N0020001N1+02591+02061101511ADDGF104991041051012501001001KA1240M+02791MA1999999101441MD1999999-0161REMSYN088AAXX  05004 83096 32695 41405 10259 20206 30144 40151 84500 333 10279 29073 55070 59016;
0156830960999992006060512004-10917-037050FM-12+000599999V0201401N002112200019N0020001N1+02651+02031101561ADDGF103991031011012501001001KA1240N+02441MA1999999101491MD1999999-0121REMSYN076AAXX  05124 83096 32695 31404 10265 20203 30149 40156 83100 333 20244 59012;
0137830960999992006060518004-10917-037050FM-12+000599999V0201401N002610120019N0020001N1+02751+02021101431ADDGF105991051011012501001001MA1999999101361MD1999999-0061REMSYN070AAXX  05184 83096 32695 51405 10275 20202 30136 40143 85100 333 59006;
0168830960999992006060600004-10917-037050FM-12+000599999V0201401N002612200019N0020001N1+02651+02311101471ADDGF103991031051012501001001KA1240M+02911MA1999999101401MD1999999-0041REMSYN088AAXX  06004 83096 32695 31405 10265 20231 30140 40147 83500 333 10291 29074 55072 59004;
0201830960999992006060612004-10917-037050FM-12+000599999V0201801N002610075019N0010001N1+02411+02131101601ADDAA124006191AY161061AY261061GF108991081051008001999999KA1240N+02221MA1999999101531MD1999999+0041MW1611REMSYN088AAXX  06124 83096 21594 81805 10241 20213 30153 40160 76166 885// 333 20222 58004 60064;
0182830960999992006060618004-10917-037050FM-12+000599999V0201801N002610120019N0020001N1+02431+02261101481ADDAA106007191AY161061AY261061GF108991081051012501999999MA1999999101411MD1999999+0051MW1211REMSYN082AAXX  06184 83096 21695 81805 10243 20226 30141 40148 72166 885// 333 58005 60071;
0213830960999992006060700004-10917-037050FM-12+000599999V0201801N002610120019N0020001N1+02301+02181101581ADDAA106010991AY161061AY261061GF108991081051012501999999KA1240M+02571MA1999999101511MD1999999+0111MW1211REMSYN100AAXX  07004 83096 21695 81805 10230 20218 30151 40158 72166 885// 333 10257 29090 55000 58011 60111;
0201830960999992006060712004-10917-037050FM-12+000599999V0201801N002610120019N0020001N1+02321+02051101661ADDAA124027991AY161061AY261061GF108991081051012501999999KA1240N+02201MA1999999101591MD1999999+0061MW1211REMSYN088AAXX  07124 83096 21695 81805 10232 20205 30159 40166 72166 885// 333 20220 58006 60284;
0182830960999992006060718004-10917-037050FM-12+000599999V0201801N002610120019N0020001N1+02611+02031101481ADDAA106000591AY151061AY251061GF106991061051012501001001MA1999999101411MD1999999+0001MW1201REMSYN082AAXX  07184 83096 21695 61805 10261 20203 30141 40148 72055 86500 333 58000 69961;
0168830960999992006060800004-10917-037050FM-12+000599999V0201801N002610120019N0020001N1+02451+02051101581ADDGF105991051051012501001001KA1240M+02671MA1999999101511MD1999999+0001REMSYN088AAXX  08004 83096 32695 51805 10245 20205 30151 40158 85500 333 10267 29078 55000 58000;
0201830960999992006060812004-10917-037050FM-12+000599999V0203601N001510120019N0020001N1+02281+02161101621ADDAA124005191AY161061AY261061GF106991061051012501001001KA1240N+02201MA1999999101551MD1999999-0041MW1211REMSYN088AAXX  08124 83096 21695 63603 10228 20216 30155 40162 72166 86500 333 20220 59004 60054;
0137830960999992006060818004-10917-037050FM-12+000599999V0201801N002610120019N0020001N1+02651+02121101481ADDGF105991051011012501001001MA1999999101411MD1999999+0001REMSYN070AAXX  08184 83096 32695 51805 10265 20212 30141 40148 85100 333 58000;
0168830960999992006060900004-10917-037050FM-12+000599999V0201801N002612200019N0020001N1+02531+01981101521ADDGF104991041011012501001001KA1240M+02731MA1999999101451MD1999999-0061REMSYN088AAXX  09004 83096 32695 41805 10253 20198 30145 40152 84100 333 10273 29077 55007 59006;
0201830960999992006060912004-10917-037050FM-12+000599999V0201801N001512200019N0020001N1+02591+02171101521ADDAA124005191AY161061AY261061GF104991041011012501001001KA1240N+02201MA1999999101451MD1999999-0101MW1211REMSYN088AAXX  09124 83096 21695 41803 10259 20217 30145 40152 72166 84100 333 20220 59010 60054;
0137830960999992006060918004-10917-037050FM-12+000599999V0200901N003110120019N0020001N1+02631+02031101371ADDGF105991051051012501001001MA1999999101301MD1999999-0111REMSYN070AAXX  09184 83096 32695 50906 10263 20203 30130 40137 85500 333 59011;
0213830960999992006061000004-10917-037050FM-12+000599999V0200901N001512200019N0020001N1+02531+02231101421ADDAA106001091AY161061AY261061GF104991041051012501001001KA1240M+02871MA1999999101351MD1999999-0101MW1211REMSYN100AAXX  10004 83096 21695 40903 10253 20223 30135 40142 72166 84500 333 10287 29079 55055 59010 60011;
0173830960999992006061012004-10917-037050FM-12+000599999V0201801N002112200019N0020001N1+02691+02021101501ADDAA124001091GF103991031011012501001001KA1240N+02461MA1999999101431MD1999999-0021REMSYN082AAXX  10124 83096 22695 31804 10269 20202 30143 40150 83100 333 20246 59002 60014;
0137830960999992006061018004-10917-037050FM-12+000599999V0201801N002612200019N0020001N1+02731+02051101301ADDGF103991031011012501001001MA1999999101231MD1999999-0071REMSYN070AAXX  10184 83096 32695 31805 10273 20205 30123 40130 83100 333 59007;
0168830960999992006061100004-10917-037050FM-12+000599999V0201801N002612200019N0020001N1+02591+02151101351ADDGF104991041011012501001001KA1240M+02831MA1999999101281MD1999999-0071REMSYN088AAXX  11004 83096 32695 41805 10259 20215 30128 40135 84100 333 10283 29072 55098 59007;
0175830960999992006061112004-10917-037050FM-12+000599999V0201801N002610120019N0020001N1+02431+02261101381ADDGF106991999051012501001001KA1240N+02201MA1999999101311MD1999999-0121REMSYN076AAXX  11124 83096 32695 61805 10243 20226 30131 40138 85500 333 20220 59012;EQDQ01+000052SCOTLC
0137830960999992006061118004-10917-037050FM-12+000599999V0201401N001510120019N0020001N1+02591+02381101201ADDGF105991051051012501001001MA1999999101131MD1999999-0101REMSYN070AAXX  11184 83096 32695 51403 10259 20238 30113 40120 85500 333 59010;
0173830960999992006061212004-10917-037050FM-12+000599999V0201401N003610120019N0020001N1+02631+02421101551ADDAA124003091GF106991061021012501001001KA1240N+02281MA1999999101481MD1999999+0171REMSYN082AAXX  12124 83096 22695 61407 10263 20242 30148 40155 86200 333 20228 58017 60034;
0137830960999992006061218004-10917-037050FM-12+000599999V0201401N003110120019N0020001N1+02601+02291101361ADDGF106991061021012501001001MA1999999101291MD1999999+0161REMSYN070AAXX  12184 83096 32695 61406 10260 20229 30129 40136 86200 333 58016;
0213830960999992006061300004-10917-037050FM-12+000599999V0201801N000510120019N0020001N1+02371+02221101701ADDAA106004191AY161061AY261061GF106991061051012501001001KA1240M+02791MA1999999101631MD1999999+0381MW1161REMSYN100AAXX  13004 83096 21695 61801 10237 20222 30163 40170 71666 86500 333 10279 29088 55035 58038 60041;
0201830960999992006061312004-10917-037050FM-12+000599999V0201401N003112200019N0020001N1+02721+02391101781ADDAA124004191AY151061AY251061GF102991021011012501001001KA1240N+02331MA1999999101711MD1999999+0231MW1011REMSYN088AAXX  13124 83096 21695 21406 10272 20239 30171 40178 70155 82100 333 20233 58023 60044;
0156830960999992006061318004-10917-037050FM-12+000599999V0201401N003119999999N0020001N1+02731+02101101571ADDGF106991999011012501001001MA1999999101501MD1999999+0211REMSYN070AAXX  13184 83096 32695 61406 10273 20210 30150 40157 82100 333 58021;EQDQ01+000022SCOTLC
0168830960999992006061400004-10917-037050FM-12+000599999V0201401N003110120019N0020001N1+02611+02121101741ADDGF105991051051012501001001KA1240M+02871MA1999999101671MD1999999+0041REMSYN088AAXX  14004 83096 32695 51406 10261 20212 30167 40174 85500 333 10287 29073 55082 58004;
0201830960999992006061412004-10917-037050FM-12+000599999V0201401N002610120019N0020001N1+02571+02371101781ADDAA124004191AY161061AY261061GF105991051021012501001001KA1240N+02391MA1999999101711MD1999999+0001MW1161REMSYN088AAXX  14124 83096 21695 51405 10257 20237 30171 40178 71666 85200 333 20239 58000 60044;
0182830960999992006061418004-10917-037050FM-12+000599999V0201401N003110120019N0020001N1+02421+02231101581ADDAA106007991AY161061AY261061GF108991081021012501999999MA1999999101511MD1999999+0011MW1161REMSYN082AAXX  14184 83096 21695 81406 10242 20223 30151 40158 71666 882// 333 58001 60081;
0213830960999992006061500004-10917-037050FM-12+000599999V0201401N003610120019N0020001N1+02381+02151101771ADDAA106000391AY151061AY251061GF108991081051012501999999KA1240M+02671MA1999999101701MD1999999+0031MW1161REMSYN100AAXX  15004 83096 21695 81407 10238 20215 30170 40177 71655 885// 333 10267 29088 55009 58003 69931;
0201830960999992006061512004-10917-037050FM-12+000599999V0200901N002612200019N0020001N1+02691+02241101741ADDAA124008991AY151061AY251061GF102991021011012501001001KA1240N+02351MA1999999101671MD1999999-0041MW1011REMSYN088AAXX  15124 83096 21695 20905 10269 20224 30167 40174 70155 82100 333 20235 59004 60094;
0137830960999992006061518004-10917-037050FM-12+000599999V0201401N002112200019N0020001N1+02731+02171101511ADDGF102991021011012501001001MA1999999101441MD1999999-0071REMSYN070AAXX  15184 83096 32695 21404 10273 20217 30144 40151 82100 333 59007;
0168830960999992006061600004-10917-037050FM-12+000599999V0201401N002112200019N0020001N1+02571+02151101671ADDGF102991021051012501001001KA1240M+02851MA1999999101601MD1999999-0101REMSYN088AAXX  16004 83096 32695 21404 10257 20215 30160 40167 82500 333 10285 29075 55100 59010;
0156830960999992006061612004-10917-037050FM-12+000599999V0201401N002110120019N0020001N1+02671+02201101781ADDGF106991061021012501001001KA1240N+02361MA1999999101711MD1999999+0041REMSYN076AAXX  16124 83096 32695 61404 10267 20220 30171 40178 86200 333 20236 58004;
0137830960999992006061618004-10917-037050FM-12+000599999V0201401N002110120019N0020001N1+02681+02261101631ADDGF105991051021012501001001MA1999999101561MD1999999+0121REMSYN070AAXX  16184 83096 32695 51404 10268 20226 30156 40163 85200 333 58012;
0168830960999992006061700004-10917-037050FM-12+000599999V0201401N001012200019N0020001N1+02491+02231101761ADDGF103991031051012501001001KA1240M+02771MA1999999101691MD1999999+0091REMSYN088AAXX  17004 83096 32695 31402 10249 20223 30169 40176 83500 333 10277 29081 55019 58009;
0182830960999992006061718004-10917-037050FM-12+000599999V0201401N002610075019N0020001N1+02331+02261101661ADDAA106006191AY161061AY261061GF108991081021008001999999MA1999999101591MD1999999+0031MW1601REMSYN082AAXX  17184 83096 21595 81405 10233 20226 30159 40166 76066 882// 333 58003 60061;
0213830960999992006061800004-10917-037050FM-12+000599999V0201401N001010120019N0020001N1+02361+02171101821ADDAA106008991AY161061AY261061GF108991081051012501999999KA1240M+02771MA1999999101751MD1999999+0061MW1161REMSYN100AAXX  18004 83096 21695 81402 10236 20217 30175 40182 71666 885// 333 10277 29090 55000 58006 60091;
0201830960999992006061812004-10917-037050FM-12+000599999V0201401N001512200019N0020001N1+02601+02231101841ADDAA124029091AY161061AY261061GF103991031011012501001001KA1240N+02271MA1999999101771MD1999999+0031MW1011REMSYN088AAXX  18124 83096 21695 31403 10260 20223 30177 40184 70166 83100 333 20227 58003 60294;
0201830960999992006061818004-10917-037050FM-12+000599999V0201401N003119999999N0020001N1+02431+02281101691ADDAA106001091AY161061AY261061GF106991999021012501001001MA1999999101621MD1999999+0031MW1161REMSYN082AAXX  18184 83096 21695 61406 10243 20228 30162 40169 71666 88200 333 58003 60011;EQDQ01+000082SCOTLC
0213830960999992006061900004-10917-037050FM-12+000599999V0201401N003110120019N0020001N1+02481+02171101761ADDAA106002091AY161061AY261061GF106991061051012501001001KA1240M+02771MA1999999101691MD1999999-0061MW1011REMSYN100AAXX  19004 83096 21695 61406 10248 20217 30169 40176 70166 86500 333 10277 29085 55046 59006 60021;
0201830960999992006061912004-10917-037050FM-12+000599999V0201401N001510120019N0020001N1+02431+02411101841ADDAA124007191AY161061AY261061GF106991061021012501001001KA1240N+02281MA1999999101771MD1999999+0001MW1161REMSYN088AAXX  19124 83096 21695 61403 10243 20241 30177 40184 71666 86200 333 20228 58000 60074;
0137830960999992006061918004-10917-037050FM-12+000599999V0200901N003110120019N0020001N1+02661+02181101631ADDGF106991061011012501001001MA1999999101561MD1999999-0061REMSYN070AAXX  19184 83096 32695 60906 10266 20218 30156 40163 86100 333 59006;
0213830960999992006062000004-10917-037050FM-12+000599999V0200901N003110120019N0020001N1+02281+02011101841ADDAA106002091AY161061AY261061GF108991081051012501999999KA1240M+02801MA1999999101771MD1999999+0081MW1161REMSYN100AAXX  20004 83096 21695 80906 10228 20201 30177 40184 71666 885// 333 10280 29086 55059 58008 60021;
0201830960999992006062012004-10917-037050FM-12+000599999V0201401N003112200019N0020001N1+02661+02141101921ADDAA124007191AY161061AY261061GF103991031021012501001001KA1240N+02281MA1999999101851MD1999999+0081MW1011REMSYN088AAXX  20124 83096 21695 31406 10266 20214 30185 40192 70166 83200 333 20228 58008 60074;
0137830960999992006062018004-10917-037050FM-12+000599999V0201401N003110120019N0020001N1+02571+02171101731ADDGF105991051011012501001001MA1999999101661MD1999999+0101REMSYN070AAXX  20184 83096 32695 51406 10257 20217 30166 40173 85100 333 58010;
0213830960999992006062100004-10917-037050FM-12+000599999V0200901N002610075019N0010001N1+02241+02101101861ADDAA106003091AY161061AY261061GF108991081051008001999999KA1240M+02771MA1999999101791MD1999999+0021MW1601REMSYN100AAXX  21004 83096 21594 80905 10224 20210 30179 40186 76066 885// 333 10277 29084 55072 58002 60031;
0201830960999992006062112004-10917-037050FM-12+000599999V0200901N005712200019N0020001N1+02651+02331101891ADDAA124005191AY161061AY261061GF102991021011012501001001KA1240N+02221MA1999999101821MD1999999-0031MW1011REMSYN088AAXX  21124 83096 21695 20911 10265 20233 30182 40189 70166 82100 333 20222 59003 60054;
0137830960999992006062118004-10917-037050FM-12+000599999V0200901N001512200019N0020001N1+02751+02251101671ADDGF103991031011012501001001MA1999999101601MD1999999-0061REMSYN070AAXX  21184 83096 32695 30903 10275 20225 30160 40167 83100 333 59006;
0168830960999992006062200004-10917-037050FM-12+000599999V0201401N002610120019N0020001N1+02651+02291101851ADDGF106991061051012501001001KA1240M+02841MA1999999101781MD1999999-0011REMSYN088AAXX  22004 83096 32695 61405 10265 20229 30178 40185 86500 333 10284 29079 55094 59001;
0201830960999992006062212004-10917-037050FM-12+000599999V0201401N005110075019N0020001N1+02371+02191102001ADDAA124003091AY161061AY261061GF108991081021008001999999KA1240N+02211MA1999999101931MD1999999+0111MW1641REMSYN088AAXX  22124 83096 21595 81410 10237 20219 30193 40200 76466 882// 333 20221 58011 60034;
0182830960999992006062218004-10917-037050FM-12+000599999V0201401N003110120019N0020001N1+02651+02001101681ADDAA106001091AY161061AY261061GF108991081021012501999999MA1999999101611MD1999999+0011MW1161REMSYN082AAXX  22184 83096 21695 81406 10265 20200 30161 40168 71666 882// 333 58001 60011;
0168830960999992006062300004-10917-037050FM-12+000599999V0201401N003112200019N0020001N1+02511+02131101851ADDGF102991021051012501001001KA1240M+02711MA1999999101781MD1999999+0001REMSYN088AAXX  23004 83096 32695 21406 10251 20213 30178 40185 82500 333 10271 29079 55009 58000;
0173830960999992006062312004-10917-037050FM-12+000599999V0201801N004110120019N0020001N1+02611+02051101841ADDAA124001091GF106991061021012501001001KA1240N+02231MA1999999101771MD1999999-0161REMSYN082AAXX  23124 83096 22695 61808 10261 20205 30177 40184 86200 333 20223 59016 60014;
0137830960999992006062318004-10917-037050FM-12+000599999V0201801N005110120019N0020001N1+02571+02211101531ADDGF106991061021012501001001MA1999999101461MD1999999-0151REMSYN070AAXX  23184 83096 32695 61810 10257 20221 30146 40153 86200 333 59015;
0213830960999992006062400004-10917-037050FM-12+000599999V0202301N002112200019N0020001N1+02251+02161101731ADDAA106004191AY161061AY261061GF102991021051012501001001KA1240M+02721MA1999999101661MD1999999-0121MW1011REMSYN100AAXX  24004 83096 21695 22304 10225 20216 30166 40173 70166 82500 333 10272 29085 55073 59012 60041;
0201830960999992006062412004-10917-037050FM-12+000599999V0200901N005110120019N0020001N1+02531+02211101761ADDAA124020191AY161061AY261061GF106991061021012501001001KA1240N+02221MA1999999101691MD1999999-0081MW1161REMSYN088AAXX  24124 83096 21695 60910 10253 20221 30169 40176 71666 86200 333 20222 59008 60204;
0137830960999992006062418004-10917-037050FM-12+000599999V0200901N004112200019N0020001N1+02681+02161101531ADDGF103991031011012501001001MA1999999101461MD1999999+0001REMSYN070AAXX  24184 83096 32695 30908 10268 20216 30146 40153 83100 333 58000;
0213830960999992006062500004-10917-037050FM-12+000599999V0200901N003112200019N0020001N1+02461+02211101781ADDAA106002091AY161061AY261061GF102991021051012501001001KA1240M+02781MA1999999101711MD1999999+0051MW1161REMSYN100AAXX  25004 83096 21695 20906 10246 20221 30171 40178 71666 82500 333 10278 29082 55033 58005 60021;
0173830960999992006062512004-10917-037050FM-12+000599999V0200901N002112200019N0020001N1+02661+02411101841ADDAA124002091GF102991021011012501001001KA1240N+02301MA1999999101771MD1999999+0081REMSYN082AAXX  25124 83096 22695 20904 10266 20241 30177 40184 82100 333 20230 58008 60024;
0182830960999992006062518004-10917-037050FM-12+000599999V0200901N002110120019N0020001N1+02601+02231101591ADDAA106002091AY161061AY261061GF105991051021012501001001MA1999999101521MD1999999+0061MW1161REMSYN082AAXX  25184 83096 21695 50904 10260 20223 30152 40159 71666 85200 333 58006 60021;
0168830960999992006062600004-10917-037050FM-12+000599999V0200901N002610120019N0020001N1+02521+02191101751ADDGF105991051051012501001001KA1240M+02841MA1999999101681MD1999999-0031REMSYN088AAXX  26004 83096 32695 50905 10252 20219 30168 40175 85500 333 10284 29082 55075 59003;
0201830960999992006062612004-10917-037050FM-12+000599999V0200901N002612200019N0020001N1+02571+02211101751ADDAA124004191AY161061AY261061GF103991031011012501001001KA1240N+02241MA1999999101681MD1999999-0091MW1011REMSYN088AAXX  26124 83096 21695 30905 10257 20221 30168 40175 70166 83100 333 20224 59009 60044;
0137830960999992006062618004-10917-037050FM-12+000599999V0200901N001512200019N0020001N1+02631+02201101491ADDGF102991021011012501001001MA1999999101421MD1999999-0101REMSYN070AAXX  26184 83096 32695 20903 10263 20220 30142 40149 82100 333 59010;
0168830960999992006062700004-10917-037050FM-12+000599999V0200901N000512200019N0020001N1+02461+02251101731ADDGF102991021051012501001001KA1240M+02771MA1999999101661MD1999999-0021REMSYN088AAXX  27004 83096 32695 20901 10246 20225 30166 40173 82500 333 10277 29084 55083 59002;
0201830960999992006062712004-10917-037050FM-12+000599999V0203201N001512200019N0020001N1+02571+02251101881ADDAA124004191AY161061AY261061GF103991031021012501001001KA1240N+02241MA1999999101811MD1999999+0131MW1011REMSYN088AAXX  27124 83096 21695 33203 10257 20225 30181 40188 70166 83200 333 20224 58013 60044;
0137830960999992006062718004-10917-037050FM-12+000599999V0200901N003612200019N0020001N1+02641+02331101631ADDGF102991021011012501001001MA1999999101561MD1999999+0141REMSYN070AAXX  27184 83096 32695 20907 10264 20233 30156 40163 82100 333 58014;
0168830960999992006062800004-10917-037050FM-12+000599999V0200901N002612200019N0020001N1+02531+02311101851ADDGF102991021051012501001001KA1240M+02781MA1999999101781MD1999999+0121REMSYN088AAXX  28004 83096 32695 20905 10253 20231 30178 40185 82500 333 10278 29085 55078 58012;
0156830960999992006062812004-10917-037050FM-12+000599999V0202701N001010120019N0020001N1+02541+02421101901ADDGF106991061021012501001001KA1240N+02241MA1999999101831MD1999999+0021REMSYN076AAXX  28124 83096 32695 62702 10254 20242 30183 40190 86200 333 20224 58002;
0137830960999992006062818004-10917-037050FM-12+000599999V0200901N002112200019N0020001N1+02781+02341101731ADDGF103991031011012501001001MA1999999101661MD1999999+0101REMSYN070AAXX  28184 83096 32695 30904 10278 20234 30166 40173 83100 333 58010;
0213830960999992006062900004-10917-037050FM-12+000599999V0200901N001512200019N0020001N1+02581+02421101931ADDAA106000591AY161061AY261061GF103991031051012501001001KA1240M+02851MA1999999101861MD1999999+0081MW1011REMSYN100AAXX  29004 83096 21695 30903 10258 20242 30186 40193 70166 83500 333 10285 29088 55041 58008 69961;
0201830960999992006063012004-10917-037050FM-12+000599999V0201401N001510120019N0020001N1+02331+02271102041ADDAA124038191AY161061AY261061GF106991061021012501001001KA1240N+02171MA1999999101971MD1999999+0511MW1161REMSYN088AAXX  30124 83096 21695 61403 10233 20227 30197 40204 71666 86200 333 20217 58051 60384;
0182830960999992006063018004-10917-037050FM-12+000599999V0201401N003110120019N0020001N1+02441+02251101821ADDAA106001091AY161061AY261061GF106991061021012501001001MA1999999101751MD1999999+0061MW1161REMSYN082AAXX  30184 83096 21695 61406 10244 20225 30175 40182 71666 86200 333 58006 60011;
0213830960999992006070100004-10917-037050FM-12+000599999V0201401N001512200019N0020001N1+02391+02191101981ADDAA106002091AY161061AY261061GF102991021051012501001001KA1240M+02671MA1999999101911MD1999999+0051MW1011REMSYN100AAXX  01004 83096 21695 21403 10239 20219 30191 40198 70166 82500 333 10267 29090 55027 58005 60021;
0201830960999992006070112004-10917-037050FM-12+000599999V0201401N002610120019N0020001N1+02581+02211101991ADDAA124004191AY161061AY261061GF105991051011012501001001KA1240N+02201MA1999999101921MD1999999-0051MW1011REMSYN088AAXX  01124 83096 21695 51405 10258 20221 30192 40199 70166 85100 333 20220 59005 60044;
0137830960999992006070118004-10917-037050FM-12+000599999V0201401N003110120019N0020001N1+02571+02291101791ADDGF105991051011012501001001MA1999999101721MD1999999-0031REMSYN070AAXX  01184 83096 32695 51406 10257 20229 30172 40179 85100 333 59003;
0168830960999992006070200004-10917-037050FM-12+000599999V0201401N003110120019N0020001N1+02461+02311101961ADDGF105991051051012501001001KA1240M+02781MA1999999101891MD1999999-0021REMSYN088AAXX  02004 83096 32695 51406 10246 20231 30189 40196 85500 333 10278 29087 55072 59002;
0201830960999992006070212004-10917-037050FM-12+000599999V0201401N002610120019N0020001N1+02391+02261102021ADDAA124007991AY161061AY261061GF108991081021012501999999KA1240N+02271MA1999999101951MD1999999+0031MW1161REMSYN088AAXX  02124 83096 21695 81405 10239 20226 30195 40202 71666 882// 333 20227 58003 60084;
0182830960999992006070218004-10917-037050FM-12+000599999V0200901N001510120019N0010001N1+02251+02181101821ADDAA106006191AY161061AY261061GF108991081021012501999999MA1999999101751MD1999999+0031MW1651REMSYN082AAXX  02184 83096 21694 80903 10225 20218 30175 40182 76566 882// 333 58003 60061;
0213830960999992006070300004-10917-037050FM-12+000599999V0201401N002610120019N0020001N1+02451+02111101901ADDAA106003091AY161061AY261061GF106991061051012501001001KA1240M+02561MA1999999101831MD1999999-0061MW1161REMSYN100AAXX  03004 83096 21695 61405 10245 20211 30183 40190 71666 86500 333 10256 29087 55002 59006 60031;
0201830960999992006070312004-10917-037050FM-12+000599999V0201401N003110120019N0010001N1+02351+02261101991ADDAA124014091AY161061AY261061GF108991081021012501999999KA1240N+02221MA1999999101921MD1999999-0031MW1651REMSYN088AAXX  03124 83096 21694 81406 10235 20226 30192 40199 76566 882// 333 20222 59003 60144;
0182830960999992006070318004-10917-037050FM-12+000599999V0200901N003110120019N0010001N1+02361+02201101781ADDAA106010991AY161061AY261061GF108991081021012501999999MA1999999101711MD1999999-0041MW1161REMSYN082AAXX  03184 83096 21694 80906 10236 20220 30171 40178 71666 882// 333 59004 60111;
0213830960999992006070400004-10917-037050FM-12+000599999V0201401N001510120019N0020001N1+02391+02231101971ADDAA106007191AY161061AY261061GF106991061051012501001001KA1240M+02571MA1999999101901MD1999999+0031MW1161REMSYN100AAXX  04004 83096 21695 61403 10239 20223 30190 40197 71666 86500 333 10257 29091 55000 58003 60071;
0201830960999992006070412004-10917-037050FM-12+000599999V0201401N003110120019N0020001N1+02351+02201101981ADDAA124025991AY161061AY261061GF108991081021012501999999KA1240N+02221MA1999999101911MD1999999-0011MW1161REMSYN088AAXX  04124 83096 21695 81406 10235 20220 30191 40198 71666 882// 333 20222 59001 60264;
0182830960999992006070418004-10917-037050FM-12+000599999V0201401N004110120019N0020001N1+02591+02231101801ADDAA106001091AY161061AY261061GF106991061021012501001001MA1999999101731MD1999999-0191MW1161REMSYN082AAXX  04184 83096 21695 61408 10259 20223 30173 40180 71666 86200 333 59019 60011;
0168830960999992006070500004-10917-037050FM-12+000599999V0201801N002610120019N0020001N1+02411+02211101961ADDGF106991061051012501001001KA1240M+02681MA1999999101891MD1999999-0011REMSYN088AAXX  05004 83096 32695 61805 10241 20221 30189 40196 86500 333 10268 29087 55002 59001;
0201830960999992006070512004-10917-037050FM-12+000599999V0201401N001510120019N0020001N1+02421+02211101971ADDAA124005191AY161061AY261061GF106991061021012501001001KA1240N+02251MA1999999101901MD1999999-0011MW1161REMSYN088AAXX  05124 83096 21695 61403 10242 20221 30190 40197 71666 86200 333 20225 59001 60054;
0182830960999992006070518004-10917-037050FM-12+000599999V0201401N001010120019N0020001N1+02311+02271101701ADDAA106008991AY161061AY261061GF108991081021012501999999MA1999999101631MD1999999-0101MW1161REMSYN082AAXX  05184 83096 21695 81402 10231 20227 30163 40170 71666 882// 333 59010 60091;
0213830960999992006070600004-10917-037050FM-12+000599999V0201401N001010120019N0020001N1+02321+02221101921ADDAA106000591AY151061AY251061GF108991081051012501999999KA1240M+02511MA1999999101851MD1999999-0041MW1161REMSYN100AAXX  06004 83096 21695 81402 10232 20222 30185 40192 71655 885// 333 10251 29093 55002 59004 69941;
0201830960999992006070612004-10917-037050FM-12+000599999V0201401N002610075019N0010001N1+02321+02271102061ADDAA124014091AY161061AY261061GF108991081021008001999999KA1240N+02251MA1999999101991MD1999999+0091MW1651REMSYN088AAXX  06124 83096 21594 81405 10232 20227 30199 40206 76566 882// 333 20225 58009 60144;
0182830960999992006070618004-10917-037050FM-12+000599999V0201401N002610075019N0010001N1+02361+02241101841ADDAA106001091AY151061AY251061GF108991081021008001999999MA1999999101771MD1999999+0141MW1551REMSYN082AAXX  06184 83096 21594 81405 10236 20224 30177 40184 75555 882// 333 58014 69991;
0213830960999992006070700004-10917-037050FM-12+000599999V0201401N002110120019N0020001N1+02451+02281102041ADDAA106009991AY161061AY261061GF108991081051012501999999KA1240M+02531MA1999999101971MD1999999+0121MW1161REMSYN100AAXX  07004 83096 21695 81404 10245 20228 30197 40204 71666 885// 333 10253 29092 55000 58012 60101;
0173830960999992006070712004-10917-037050FM-12+000599999V0201401N002612200019N0020001N1+02601+02191101941ADDAA124010991GF102991021011012501001001KA1240N+02261MA1999999101871MD1999999+0001REMSYN082AAXX  07124 83096 22695 21405 10260 20219 30187 40194 82100 333 20226 58000 60114;
0137830960999992006070718004-10917-037050FM-12+000599999V0201401N003112200019N0020001N1+02601+02081101851ADDGF102991021011012501001001MA1999999101781MD1999999+0011REMSYN070AAXX  07184 83096 32695 21406 10260 20208 30178 40185 82100 333 58001;
0168830960999992006070800004-10917-037050FM-12+000599999V0201801N002112200019N0020001N1+02431+01911101901ADDGF103991031051012501001001KA1240M+02711MA1999999101831MD1999999-0141REMSYN088AAXX  08004 83096 32695 31804 10243 20191 30183 40190 83500 333 10271 29074 55081 59014;
0156830960999992006070812004-10917-037050FM-12+000599999V0201801N002612200019N0020001N1+02571+01951101911ADDGF102991021011012501001001KA1240N+02001MA1999999101841MD1999999-0151REMSYN076AAXX  08124 83096 32695 21805 10257 20195 30184 40191 82100 333 20200 59015;
0137830960999992006070818004-10917-037050FM-12+000599999V0201801N003112200019N0020001N1+02651+02121101671ADDGF103991031011012501001001MA1999999101601MD1999999-0181REMSYN070AAXX  08184 83096 32695 31806 10265 20212 30160 40167 83100 333 59018;
0201830960999992006070912004-10917-037050FM-12+000599999V0200901N002112200019N0020001N1+02651+02231101821ADDAA124002091AY161061AY261061GF104991041011012501001001KA1240N+02391MA1999999101751MD1999999-0091MW1211REMSYN088AAXX  09124 83096 21695 40904 10265 20223 30175 40182 72166 84100 333 20239 59009 60024;
0137830960999992006070918004-10917-037050FM-12+000599999V0200901N003112200019N0020001N1+02731+02241101561ADDGF103991031011012501001001MA1999999101491MD1999999-0111REMSYN070AAXX  09184 83096 32695 30906 10273 20224 30149 40156 83100 333 59011;
0156830960999992006071012004-10917-037050FM-12+000599999V0201401N002112200019N0020001N1+02511+02051101721ADDGF104991041051012501001001KA1240N+02011MA1999999101651MD1999999-0101REMSYN076AAXX  10124 83096 32695 41404 10251 20205 30165 40172 84500 333 20201 59010;
0137830960999992006071018004-10917-037050FM-12+000599999V0201801N003112200019N0020001N1+02591+02171101641ADDGF104991041051012501001001MA1999999101571MD1999999-0081REMSYN070AAXX  10184 83096 32695 41806 10259 20217 30157 40164 84500 333 59008;
0213830960999992006071100004-10917-037050FM-12+000599999V0201801N001510120019N0020001N1+02301+02161101691ADDAA106004191AY161061AY261061GF106991061051012501001001KA1240M+02751MA1999999101621MD1999999+0011MW1211REMSYN100AAXX  11004 83096 21695 61803 10230 20216 30162 40169 72166 86500 333 10275 29084 55047 58001 60041;
0173830960999992006071112004-10917-037050FM-12+000599999V0201401N002112200019N0020001N1+02631+02051101881ADDAA124004191GF102991021011012501001001KA1240N+02261MA1999999101811MD1999999+0161REMSYN082AAXX  11124 83096 22695 21404 10263 20205 30181 40188 82100 333 20226 58016 60044;
0137830960999992006071118004-10917-037050FM-12+000599999V0201401N002612200019N0020001N1+02641+02071101771ADDGF102991021011012501001001MA1999999101701MD1999999-0131REMSYN070AAXX  11184 83096 32695 21405 10264 20207 30170 40177 82100 333 59013;
0168830960999992006071200004-10917-037050FM-12+000599999V0201401N002612200019N0020001N1+02511+02171101821ADDGF104991041051012501001001KA1240M+02791MA1999999101751MD1999999+0131REMSYN088AAXX  12004 83096 32695 41405 10251 20217 30175 40182 84500 333 10279 29076 55076 58013;
0201830960999992006071212004-10917-037050FM-12+000599999V0201401N003110120019N0020001N1+02551+02151101821ADDAA124000591AY151061AY251061GF105991051051012501001001KA1240N+02351MA1999999101751MD1999999-0061MW1201REMSYN088AAXX  12124 83096 21695 51406 10255 20215 30175 40182 72055 85500 333 20235 59006 69944;
0137830960999992006071218004-10917-037050FM-12+000599999V0201401N002612200019N0020001N1+02711+02171101701ADDGF103991031011012501001001MA1999999101631MD1999999-0071REMSYN070AAXX  12184 83096 32695 31405 10271 20217 30163 40170 83100 333 59007;
0168830960999992006071300004-10917-037050FM-12+000599999V0200901N002112200019N0020001N1+02511+02211101781ADDGF103991031051012501001001KA1240M+02811MA1999999101171MD1999999-0041REMSYN088AAXX  13004 83096 32695 30904 10251 20221 30117 40178 83500 333 10281 29080 55027 59004;
0201830960999992006071312004-10917-037050FM-12+000599999V0200901N003112200019N0020001N1+02491+02071101841ADDAA124005191AY161061AY261061GF104991041051012501001001KA1240N+02331MA1999999101771MD1999999+0021MW1211REMSYN088AAXX  13124 83096 21695 40906 10249 20207 30177 40184 72166 84500 333 20233 58002 60054;
0137830960999992006071318004-10917-037050FM-12+000599999V0201401N003112200019N0020001N1+02671+02001101791ADDGF104991041011012501001001MA1999999101721MD1999999+0091REMSYN070AAXX  13184 83096 32695 41406 10267 20200 30172 40179 84100 333 58009;
0168830960999992006071400004-10917-037050FM-12+000599999V0201801N003112200019N0020001N1+02451+02011101821ADDGF103991031051012501001001KA1240M+02771MA1999999101751MD1999999+0041REMSYN088AAXX  14004 83096 32695 31806 10245 20201 30175 40182 83500 333 10277 29075 55090 58004;
0201830960999992006071412004-10917-037050FM-12+000599999V0201801N002612200019N0020001N1+02411+02071101771ADDAA124008991AY161061AY261061GF104991041051012501001001KA1240N+02201MA1999999101701MD1999999-0071MW1211REMSYN088AAXX  14124 83096 21695 41805 10241 20207 30170 40177 72166 84500 333 20220 59007 60094;
0182830960999992006071418004-10917-037050FM-12+000599999V0201401N003112200019N0020001N1+02601+02121101651ADDAA106000021AY151061AY251061GF104991041011012501001001MA1999999101581MD1999999-0141MW1201REMSYN082AAXX  14184 83096 21695 41406 10260 20212 30158 40165 72055 84100 333 59014 69921;
0213830960999992006071500004-10917-037050FM-12+000599999V0201801N002610120019N0020001N1+02411+02191101721ADDAA106004191AY161061AY261061GF106991061051012501001001KA1240M+02691MA1999999101651MD1999999-0101MW1211REMSYN100AAXX  15004 83096 21695 61805 10241 20219 30165 40172 72166 86500 333 10269 29083 55082 59010 60041;
0201830960999992006071512004-10917-037050FM-12+000599999V0201801N002610120019N0020001N1+02341+02261101721ADDAA124013091AY161061AY261061GF108991081051012501999999KA1240N+02241MA1999999101651MD1999999-0051MW1211REMSYN088AAXX  15124 83096 21695 81805 10234 20226 30165 40172 72166 885// 333 20224 59005 60134;
0182830960999992006071518004-10917-037050FM-12+000599999V0200901N003110120019N0020001N1+02551+02331101561ADDAA106003091AY161061AY261061GF105991051011012501001001MA1999999101491MD1999999-0091MW1211REMSYN082AAXX  15184 83096 21695 50906 10255 20233 30149 40156 72166 85100 333 59009 60031;
0201830960999992006071612004-10917-037050FM-12+000599999V0200901N002612200019N0020001N1+02431+02251101621ADDAA124006191AY161061AY261061GF104991041051012501001001KA1240N+02331MA1999999101551MD1999999-0101MW1211REMSYN088AAXX  16124 83096 21695 40905 10243 20225 30155 40162 72166 84500 333 20233 59010 60064;
0182830960999992006071618004-10917-037050FM-12+000599999V0201801N004110075019N0010001N1+02301+02161101661ADDAA106007191AY161061AY261061GF108991081051008001999999MA1999999101591MD1999999+0101MW1611REMSYN082AAXX  16184 83096 21594 81808 10230 20216 30159 40166 76166 885// 333 58010 60071;
0201830960999992006071712004-10917-037050FM-12+000599999V0201801N002112200019N0020001N1+02531+02111101901ADDAA124014091AY161061AY261061GF104991041051012501001001KA1240N+02301MA1999999101831MD1999999+0281MW1211REMSYN088AAXX  17124 83096 21695 41804 10253 20211 30183 40190 72166 84500 333 20230 58028 60144;
0182830960999992006071718004-10917-037050FM-12+000599999V0201801N003610120019N0020001N1+02361+02171101801ADDAA106003091AY161061AY261061GF106991061051012501001001MA1999999101731MD1999999+0141MW1211REMSYN082AAXX  17184 83096 21695 61807 10236 20217 30173 40180 72166 86500 333 58014 60031;
0213830960999992006071800004-10917-037050FM-12+000599999V0201801N002612200019N0020001N1+02401+01801101861ADDAA106000591AY151061AY251061GF103991031011012501001001KA1240M+02711MA1999999101791MD1999999+0141MW1201REMSYN100AAXX  18004 83096 21695 31805 10240 20180 30179 40186 72055 83100 333 10271 29076 55038 58014 69951;
0173830960999992006071812004-10917-037050FM-12+000599999V0201801N002112200019N0020001N1+02411+01911101861ADDAA124003091GF103991031051012501001001KA1240N+02221MA1999999101791MD1999999-0041REMSYN082AAXX  18124 83096 22695 31804 10241 20191 30179 40186 83500 333 20222 59004 60034;
0182830960999992006071818004-10917-037050FM-12+000599999V0201801N002610120019N0020001N1+02361+02071101661ADDAA106002091AY161061AY261061GF106991061051012501001001MA1999999101591MD1999999-0141MW1211REMSYN082AAXX  18184 83096 21695 61805 10236 20207 30159 40166 72166 86500 333 59014 60021;
0173830960999992006071912004-10917-037050FM-12+000599999V0201801N002112200019N0020001N1+02381+02031101831ADDAA124002091GF103991031011012501001001KA1240N+02011MA1999999101761MD1999999-0031REMSYN082AAXX  19124 83096 22695 31804 10238 20203 30176 40183 83100 333 20201 59003 60024;
0137830960999992006071918004-10917-037050FM-12+000599999V0201801N002612200019N0020001N1+02591+02081101681ADDGF102991021011012501001001MA1999999101611MD1999999+0021REMSYN070AAXX  19184 83096 32695 21805 10259 20208 30161 40168 82100 333 58002;
0168830960999992006072000004-10917-037050FM-12+000599999V0201801N001512200019N0020001N1+02341+02051101721ADDGF103991031051012501001001KA1240M+02711MA1999999101651MD1999999+0001REMSYN088AAXX  20004 83096 32695 31803 10234 20205 30165 40172 83500 333 10271 29080 55105 58000;
0156830960999992006072012004-10917-037050FM-12+000599999V0202701N001512200019N0020001N1+02351+02091101881ADDGF103991031011012501001001KA1240N+02011MA1999999101811MD1999999+0051REMSYN076AAXX  20124 83096 32695 32703 10235 20209 30181 40188 83100 333 20201 58005;
0137830960999992006072018004-10917-037050FM-12+000599999V0201801N002112200019N0020001N1+02591+02061101701ADDGF103991031011012501001001MA1999999101631MD1999999+0021REMSYN070AAXX  20184 83096 32695 31804 10259 20206 30163 40170 83100 333 58002;
0168830960999992006072100004-10917-037050FM-12+000599999V0201401N001512200019N0020001N1+02411+01971101821ADDGF103991031011012501001001KA1240M+02711MA1999999101751MD1999999+0101REMSYN088AAXX  21004 83096 32695 31403 10241 20197 30175 40182 83100 333 10271 29078 55102 58010;
0156830960999992006072112004-10917-037050FM-12+000599999V0201801N002612200019N0020001N1+02551+02041101961ADDGF102991021011012501001001KA1240N+02021MA1999999101891MD1999999+0081REMSYN076AAXX  21124 83096 32695 21805 10255 20204 30189 40196 82100 333 20202 58008;
0137830960999992006072118004-10917-037050FM-12+000599999V0201801N002612200019N0020001N1+02641+01981101771ADDGF102991021011012501001001MA1999999101701MD1999999+0071REMSYN070AAXX  21184 83096 32695 21805 10264 20198 30170 40177 82100 333 58007;
0168830960999992006072200004-10917-037050FM-12+000599999V0201801N002112200019N0020001N1+02491+01921101801ADDGF102991021011012501001001KA1240M+02751MA1999999101731MD1999999-0021REMSYN088AAXX  22004 83096 32695 21804 10249 20192 30173 40180 82100 333 10275 29071 55101 59002;
0201830960999992006072212004-10917-037050FM-12+000599999V0201801N001510120019N0020001N1+02201+02061101881ADDAA124001091AY161061AY261061GF106991061051012501001001KA1240N+02011MA1999999101811MD1999999-0081MW1211REMSYN088AAXX  22124 83096 21695 61803 10220 20206 30181 40188 72166 86500 333 20201 59008 60014;
0137830960999992006072218004-10917-037050FM-12+000599999V0201801N003112200019N0020001N1+02611+02011101661ADDGF102991021011012501001001MA1999999101591MD1999999-0111REMSYN070AAXX  22184 83096 32695 21806 10261 20201 30159 40166 82100 333 59011;
0168830960999992006072300004-10917-037050FM-12+000599999V0201801N002612200019N0020001N1+02431+01931101661ADDGF104991041051012501001001KA1240M+02711MA1999999101591MD1999999-0141REMSYN088AAXX  23004 83096 32695 41805 10243 20193 30159 40166 84500 333 10271 29077 55028 59014;
0201830960999992006072312004-10917-037050FM-12+000599999V0202301N001510120019N0020001N1+02201+01971101631ADDAA124006191AY161061AY261061GF106991061051012501001001KA1240N+02041MA1999999101561MD1999999-0251MW1211REMSYN088AAXX  23124 83096 21695 62303 10220 20197 30156 40163 72166 86500 333 20204 59025 60064;
0182830960999992006072318004-10917-037050FM-12+000599999V0200901N001510120019N0020001N1+02341+02151101501ADDAA106000021AY151061AY251061GF105991051051012501001001MA1999999101431MD1999999-0161MW1201REMSYN082AAXX  23184 83096 21695 50903 10234 20215 30143 40150 72055 85500 333 59016 69921;
0213830960999992006072400004-10917-037050FM-12+000599999V0200901N002610120019N0020001N1+02471+02191101461ADDAA106000021AY151061AY251061GF105991051051012501001001KA1240M+02571MA1999999101391MD1999999-0201MW1201REMSYN100AAXX  24004 83096 21695 50905 10247 20219 30139 40146 72055 85500 333 10257 29086 55000 59020 69921;
0173830960999992006072412004-10917-037050FM-12+000599999V0201401N001512200019N0020001N1+02561+02151101731ADDAA124000591GF103991031011012501001001KA1240N+02351MA1999999101661MD1999999+0101REMSYN082AAXX  24124 83096 22695 31403 10256 20215 30166 40173 83100 333 20235 58010 69944;
0137830960999992006072418004-10917-037050FM-12+000599999V0201401N004112200019N0020001N1+02641+02201101491ADDGF103991031011012501001001MA1999999101421MD1999999-0011REMSYN070AAXX  24184 83096 32695 31408 10264 20220 30142 40149 83100 333 59001;
0213830960999992006072500004-10917-037050FM-12+000599999V0201801N002610120019N0020001N1+02351+02201101621ADDAA106002091AY161061AY261061GF105991051051012501001001KA1240M+02781MA1999999101551MD1999999+0161MW1011REMSYN100AAXX  25004 83096 21695 51805 10235 20220 30155 40162 70166 85500 333 10278 29084 55086 58016 60021;
0201830960999992006072512004-10917-037050FM-12+000599999V0201801N003110120019N0020001N1+02551+02401101681ADDAA124008991AY161061AY261061GF106991061021012501001001KA1240N+02241MA1999999101611MD1999999-0051MW1211REMSYN088AAXX  25124 83096 21695 61806 10255 20240 30161 40168 72166 86200 333 20224 59005 60094;
0137830960999992006072518004-10917-037050FM-12+000599999V0201401N003110120019N0020001N1+02371+02151101501ADDGF108991081021012501999999MA1999999101431MD1999999+0011REMSYN070AAXX  25184 83096 32695 81406 10237 20215 30143 40150 882// 333 58001;
0213830960999992006072600004-10917-037050FM-12+000599999V0201401N002110120019N0020001N1+02301+02201101631ADDAA106006191AY161061AY261061GF108991081051012501999999KA1240M+02741MA1999999101561MD1999999+0011MW1161REMSYN100AAXX  26004 83096 21695 81404 10230 20220 30156 40163 71666 885// 333 10274 29092 55028 58001 60061;
0201830960999992006072612004-10917-037050FM-12+000599999V0200901N002610120019N0020001N1+02471+02361101651ADDAA124021191AY161061AY261061GF108991081021012501999999KA1240N+02201MA1999999101581MD1999999-0031MW1161REMSYN088AAXX  26124 83096 21695 80905 10247 20236 30158 40165 71666 882// 333 20220 59003 60214;
0137830960999992006072618004-10917-037050FM-12+000599999V0200901N002112200019N0020001N1+02661+02241101481ADDGF101991011011012501001001MA1999999101411MD1999999-0021REMSYN070AAXX  26184 83096 32695 10904 10266 20224 30141 40148 81100 333 59002;
0168830960999992006072700004-10917-037050FM-12+000599999V0200901N002610120019N0020001N1+02501+02321101681ADDGF106991061051012501001001KA1240M+02741MA1999999101611MD1999999+0051REMSYN088AAXX  27004 83096 32695 60905 10250 20232 30161 40168 86500 333 10274 29088 55054 58005;
0201830960999992006072712004-10917-037050FM-12+000599999V0201401N002610120019N0020001N1+02441+02271101761ADDAA124006191AY161061AY261061GF106991061021012501001001KA1240N+02201MA1999999101691MD1999999+0111MW1161REMSYN088AAXX  27124 83096 21695 61405 10244 20227 30169 40176 71666 86200 333 20220 58011 60064;
0182830960999992006072718004-10917-037050FM-12+000599999V0201401N001512200019N0020001N1+02611+02331101561ADDAA106000891AY161061AY261061GF101991011011012501001001MA1999999101491MD1999999+0081MW1011REMSYN082AAXX  27184 83096 21695 11403 10261 20233 30149 40156 70166 81100 333 58008 69981;
0232830960999992006072800004-10917-037050FM-12+000599999V0201401N001010120019N0020001N1+02411+02191101711ADDAA106000091AY151061AY251061GF106991061051012501001001KA1240M+02771MA1999999101641MD1999999+0031MW1011REMSYN100AAXX  28004 83096 21695 61402 10241 20219 30164 40171 70155 86500 333 10277 29088 55075 58003 69921;EQDQ01  00002PRCP06
0201830960999992006072812004-10917-037050FM-12+000599999V0200901N003112200019N0020001N1+02611+02311101181ADDAA124003091AY161061AY261061GF101991011011012501001001KA1240N+02191MA1999999101731MD1999999+0041MW1011REMSYN088AAXX  28124 83096 21695 10906 10261 20231 30173 40118 70166 81100 333 20219 58004 60034;
0137830960999992006072818004-10917-037050FM-12+000599999V0200901N002612200019N0020001N1+02621+02211101541ADDGF101991011011012501001001MA1999999101471MD1999999-0021REMSYN070AAXX  28184 83096 32695 10905 10262 20221 30147 40154 81100 333 59002;
0168830960999992006072900004-10917-037050FM-12+000599999V0200901N001512200019N0020001N1+02451+02251101611ADDGF102991021051012501001001KA1240M+02761MA1999999101541MD1999999-0101REMSYN088AAXX  29004 83096 32695 20903 10245 20225 30154 40161 82500 333 10276 29084 55077 59010;
0201830960999992006072912004-10917-037050FM-12+000599999V0202701N001510075019N0020001N1+02271+02261101661ADDAA124007191AY161061AY261061GF108991081021008001999999KA1240N+02241MA1999999101591MD1999999-0141MW1611REMSYN088AAXX  29124 83096 21595 82703 10227 20226 30159 40166 76166 882// 333 20224 59014 60074;
0182830960999992006072918004-10917-037050FM-12+000599999V0201401N001512200019N0020001N1+02631+02271101371ADDAA106002091AY161061AY261061GF101991011011012501001001MA1999999101301MD1999999-0171MW1011REMSYN082AAXX  29184 83096 21695 11403 10263 20227 30130 40137 70166 81100 333 59017 60021;
0168830960999992006073000004-10917-037050FM-12+000599999V0201401N001512200019N0020001N1+02481+02271101471ADDGF102991021051012501001001KA1240M+02741MA1999999101401MD1999999-0141REMSYN088AAXX  30004 83096 32695 21403 10248 20227 30140 40147 82500 333 10274 29089 55054 59014;
0173830960999992006073012004-10917-037050FM-12+000599999V0200501N002112200019N0020001N1+02471+02451101641ADDAA124002091GF101991011011012501001001KA1240N+02171MA1999999101571MD1999999-0021REMSYN082AAXX  30124 83096 22695 10504 10247 20245 30157 40164 81100 333 20217 59002 60024;
0137830960999992006073018004-10917-037050FM-12+000599999V0200901N003112200019N0020001N1+02701+02391101461ADDGF101991011011012501001001MA1999999101391MD1999999+0091REMSYN070AAXX  30184 83096 32695 10906 10270 20239 30139 40146 81100 333 58009;
0168830960999992006073100004-10917-037050FM-12+000599999V0200901N003112200019N0020001N1+02551+02401101621ADDGF102991021051012501001001KA1240M+02791MA1999999101551MD1999999+0151REMSYN088AAXX  31004 83096 32695 20906 10255 20240 30155 40162 82500 333 10279 29091 55084 58015;
0156830960999992006073112004-10917-037050FM-12+000599999V0200901N003112200019N0020001N1+02711+02451102031ADDGF103991031011012501001001KA1240N+02191MA1999999101961MD1999999+0391REMSYN076AAXX  31124 83096 32695 30906 10271 20245 30196 40203 83100 333 20219 58039;
0137830960999992006073118004-10917-037050FM-12+000599999V0201401N002112200019N0020001N1+02711+02281101841ADDGF102991021011012501001001MA1999999101771MD1999999-0381REMSYN070AAXX  31184 83096 32695 21404 10271 20228 30177 40184 82100 333 59038;
0168830960999992006080100004-10917-037050FM-12+000599999V0201401N002112200019N0020001N1+02531+02231102041ADDGF103991031051012501001001KA1240M+02841MA1999999101971MD1999999+0421REMSYN088AAXX  01004 83096 32695 31404 10253 20223 30197 40204 83500 333 10284 29083 55010 58042;
0201830960999992006080112004-10917-037050FM-12+000599999V0201401N002112200019N0020001N1+02701+02331102101ADDAA124001091AY161061AY261061GF103991031011012501001001KA1240N+02201MA1999999102031MD1999999+0071MW1011REMSYN088AAXX  01124 83096 21695 31404 10270 20233 30203 40210 70166 83100 333 20220 58007 69994;
0137830960999992006080118004-10917-037050FM-12+000599999V0201401N002612200019N0020001N1+02701+02131101951ADDGF101991011011012501001001MA1999999101881MD1999999+0111REMSYN070AAXX  01184 83096 32695 11405 10270 20213 30188 40195 81100 333 58011;
0168830960999992006080200004-10917-037050FM-12+000599999V0201401N002110120019N0020001N1+02511+02071102041ADDGF105991051051012501001001KA1240M+02781MA1999999101971MD1999999+0001REMSYN088AAXX  02004 83096 32695 51404 10251 20207 30197 40204 85500 333 10278 29076 55079 58000;
0201830960999992006080212004-10917-037050FM-12+000599999V0201401N001010120019N0020001N1+02621+02141102051ADDAA124000591AY151061AY251061GF106991061011012501001001KA1240N+02271MA1999999101981MD1999999-0051MW1011REMSYN088AAXX  02124 83096 21695 61402 10262 20214 30198 40205 70155 86100 333 20227 59005 69954;
0137830960999992006080218004-10917-037050FM-12+000599999V0201401N002610120019N0020001N1+02631+02091101761ADDGF106991061011012501001001MA1999999101691MD1999999-0191REMSYN070AAXX  02184 83096 32695 61405 10263 20209 30169 40176 86100 333 59019;
0168830960999992006080300004-10917-037050FM-12+000599999V0201401N001510120019N0020001N1+02491+02051101941ADDGF106991061051012501001001KA1240M+02821MA1999999101871MD1999999-0101REMSYN088AAXX  03004 83096 32695 61403 10249 20205 30187 40194 86500 333 10282 29075 55038 59010;
0220830960999992006080312004-10917-037050FM-12+000599999V0201401N003110120019N0020001N1+02531+02331101991ADDAA124000091AY151061AY251061GF106991061021012501001001KA1240N+02331MA1999999101921MD1999999-0061MW1161REMSYN088AAXX  03124 83096 21695 61406 10253 20233 30192 40199 71655 86200 333 20233 59006 69924;EQDQ01  00002PRCP24
0137830960999992006080318004-10917-037050FM-12+000599999V0201401N004112200019N0020001N1+02601+02141101701ADDGF102991021011012501001001MA1999999101631MD1999999-0061REMSYN070AAXX  03184 83096 32695 21408 10260 20214 30163 40170 82100 333 59006;
0213830960999992006080400004-10917-037050FM-12+000599999V0201401N003112200019N0020001N1+02461+02071101891ADDAA106007191AY161061AY261061GF103991031051012501001001KA1240M+02741MA1999999101821MD1999999-0051MW1011REMSYN100AAXX  04004 83096 21695 31406 10246 20207 30182 40189 70166 83500 333 10274 29080 55075 59005 60071;
0173830960999992006080412004-10917-037050FM-12+000599999V0201401N002112200019N0020001N1+02651+02411101931ADDAA124007191GF102991021011012501001001KA1240N+02271MA1999999101861MD1999999-0061REMSYN082AAXX  04124 83096 22695 21404 10265 20241 30186 40193 82100 333 20227 59006 60074;
0137830960999992006080418004-10917-037050FM-12+000599999V0201401N003112200019N0020001N1+02661+02041101651ADDGF101991011011012501001001MA1999999101581MD1999999-0051REMSYN070AAXX  04184 83096 32695 11406 10266 20204 30158 40165 81100 333 59005;
0168830960999992006080500004-10917-037050FM-12+000599999V0201401N001512200019N0020001N1+02461+01991101871ADDGF103991031051012501001001KA1240M+02781MA1999999101801MD1999999-0021REMSYN088AAXX  05004 83096 32695 31403 10246 20199 30180 40187 83500 333 10278 29076 55105 59002;
0156830960999992006080512004-10917-037050FM-12+000599999V0200901N003112200019N0020001N1+02631+02161101961ADDGF103991031011012501001001KA1240N+02341MA1999999101891MD1999999+0031REMSYN076AAXX  05124 83096 32695 30906 10263 20216 30189 40196 83100 333 20234 58003;
0137830960999992006080518004-10917-037050FM-12+000599999V0201401N003112200019N0020001N1+02681+02041101711ADDGF102991021011012501001001MA1999999101641MD1999999+0061REMSYN070AAXX  05184 83096 32695 21406 10268 20204 30164 40171 82100 333 58006;
0168830960999992006080600004-10917-037050FM-12+000599999V0200901N001512200019N0020001N1+02501+02051101921ADDGF102991021051012501001001KA1240M+02801MA1999999101851MD1999999+0051REMSYN088AAXX  06004 83096 32695 20903 10250 20205 30185 40192 82500 333 10280 29074 55097 58005;
0156830960999992006080612004-10917-037050FM-12+000599999V0201401N003112200019N0020001N1+02641+01851102061ADDGF101991011011012501001001KA1240N+02271MA1999999101991MD1999999-0101REMSYN076AAXX  06124 83096 32695 11406 10264 20185 30199 40206 81100 333 20227 59010;
0137830960999992006080618004-10917-037050FM-12+000599999V0201401N004112200019N0020001N1+02611+02011101711ADDGF103991031011012501001001MA1999999101641MD1999999+0001REMSYN070AAXX  06184 83096 32695 31408 10261 20201 30164 40171 83100 333 58000;
0168830960999992006080700004-10917-037050FM-12+000599999V0201401N002612200019N0020001N1+02451+01921101871ADDGF102991021051012501001001KA1240M+02801MA1999999101801MD1999999-0051REMSYN088AAXX  07004 83096 32695 21405 10245 20192 30180 40187 82500 333 10280 29069 55088 59005;
0156830960999992006080712004-10917-037050FM-12+000599999V0201401N002610120019N0020001N1+02491+02091101721ADDGF106991061051012501001001KA1240N+02281MA1999999101651MD1999999-0341REMSYN076AAXX  07124 83096 32695 61405 10249 20209 30165 40172 86500 333 20228 59034;
0182830960999992006080718004-10917-037050FM-12+000599999V0201401N002612200019N0020001N1+02511+02271101621ADDAA106000591AY151061AY251061GF104991041051012501001001MA1999999101551MD1999999+0111MW1201REMSYN082AAXX  07184 83096 21695 41405 10251 20227 30155 40162 72055 84500 333 58011 69961;
0213830960999992006080800004-10917-037050FM-12+000599999V0200901N003612200019N0020001N1+02471+02151101681ADDAA106000021AY151061AY251061GF103991031051012501001001KA1240M+02631MA1999999101611MD1999999-0191MW1201REMSYN100AAXX  08004 83096 21695 30907 10247 20215 30161 40168 72055 83500 333 10263 29083 55019 59019 69921;
0173830960999992006080812004-10917-037050FM-12+000599999V0200901N003112200019N0020001N1+02651+02121101681ADDAA124000891GF103991031011012501001001KA1240N+02411MA1999999101611MD1999999-0041REMSYN082AAXX  08124 83096 22695 30906 10265 20212 30161 40168 83100 333 20241 59004 69984;
0137830960999992006080818004-10917-037050FM-12+000599999V0200901N003112200019N0020001N1+02671+02041101571ADDGF102991021011012501001001MA1999999101501MD1999999-0051REMSYN070AAXX  08184 83096 32695 20906 10267 20204 30150 40157 82100 333 59005;
0168830960999992006080900004-10917-037050FM-12+000599999V0200901N002612200019N0020001N1+02491+02031101631ADDGF103991031011012501001001KA1240M+02811MA1999999101561MD1999999-0051REMSYN088AAXX  09004 83096 32695 30905 10249 20203 30156 40163 83100 333 10281 29073 55105 59005;
0201830960999992006080912004-10917-037050FM-12+000599999V0200901N002610120019N0020001N1+02441+02091101721ADDAA124000891AY151061AY251061GF106991061051012501001001KA1240N+02331MA1999999101651MD1999999+0041MW1201REMSYN088AAXX  09124 83096 21695 60905 10244 20209 30165 40172 72055 86500 333 20233 58004 69984;
0182830960999992006080918004-10917-037050FM-12+000599999V0200901N002612200019N0020001N1+02411+02091101621ADDAA106002091AY161061AY261061GF104991999051012501001001MA1999999101551MD1999999+0051MW1211REMSYN082AAXX  09184 83096 21695 40905 10241 20209 30155 40162 72166 85500 333 58005 60021;
0168830960999992006081000004-10917-037050FM-12+000599999V0201801N001512200019N0020001N1+02491+02151101681ADDGF104991041051012501001001KA1240M+02751MA1999999101611MD1999999+0051REMSYN088AAXX  10004 83096 32695 41803 10249 20215 30161 40168 84500 333 10275 29082 55028 58005;
0201830960999992006081012004-10917-037050FM-12+000599999V0201801N002612200019N0020001N1+02511+02111101781ADDAA124005191AY161061AY261061GF104991041051012501001001KA1240N+02201MA1999999101711MD1999999+0061MW1211REMSYN088AAXX  10124 83096 21695 41805 10251 20211 30171 40178 72166 84500 333 20220 58006 60054;
0156830960999992006081112004-10917-037050FM-12+000599999V0201401N002612200019N0020001N1+02631+02011101741ADDGF103991031011012501001001KA1240N+02421MA1999999101671MD1999999-0041REMSYN076AAXX  11124 83096 32695 31405 10263 20201 30167 40174 83100 333 20242 59004;
0137830960999992006081118004-10917-037050FM-12+000599999V0201401N002612200019N0020001N1+02691+02021101611ADDGF102991021011012501001001MA1999999101541MD1999999-0041REMSYN070AAXX  11184 83096 32695 21405 10269 20202 30154 40161 82100 333 59004;
0201830960999992006081212004-10917-037050FM-12+000599999V0201801N002612200019N0020001N1+02631+02101101781ADDAA124000021AY151061AY251061GF104991041011012501001001KA1240N+02201MA1999999101711MD1999999+0041MW1201REMSYN088AAXX  12124 83096 21695 41805 10263 20210 30171 40178 72055 84100 333 20220 58004 69924;
0137830960999992006081218004-10917-037050FM-12+000599999V0201401N002612200019N0020001N1+02691+02091101631ADDGF104991041011012501001001MA1999999101561MD1999999+0021REMSYN070AAXX  12184 83096 32695 41405 10269 20209 30156 40163 84100 333 58002;
0213830960999992006081300004-10917-037050FM-12+000599999V0201401N002112200019N0020001N1+02451+02051101761ADDAA106002091AY161061AY221061GF104991041051012501001001KA1240M+02751MA1999999101691MD1999999+0091MW1211REMSYN100AAXX  13004 83096 21695 41404 10245 20205 30169 40176 72162 84500 333 10275 29075 55055 58009 60021;
0173830960999992006081312004-10917-037050FM-12+000599999V0201401N002612200019N0020001N1+02611+02191101771ADDAA124002091GF104991041011012501001001KA1240N+02331MA1999999101701MD1999999-0011REMSYN082AAXX  13124 83096 22695 41405 10261 20219 30170 40177 84100 333 20233 59001 60024;
0137830960999992006081318004-10917-037050FM-12+000599999V0201401N002612200019N0020001N1+02691+02111101611ADDGF104991041011012501001001MA1999999101541MD1999999-0021REMSYN070AAXX  13184 83096 32695 41405 10269 20211 30154 40161 84100 333 59002;
0168830960999992006081400004-10917-037050FM-12+000599999V0200901N002112200019N0020001N1+02451+01991101671ADDGF103991031051012501001001KA1240M+02771MA1999999101601MD1999999-0091REMSYN088AAXX  14004 83096 32695 30904 10245 20199 30160 40167 83500 333 10277 29075 55097 59009;
0166830960999992006081412004-10917-037050FM-12+000599999V0201801N002612200019N0020001N1+02381+02211101701ADDGA1001+999999999GF100991001001999999001001KA1240N+02321MA1999999101631MD1999999-0071REMSYN070AAXX  14124 83096 32695 01805 10238 20221 30163 40170 333 20232 59007;
0182830960999992006081418004-10917-037050FM-12+000599999V0200901N002110120019N0020001N1+02611+02311101571ADDAA106000021AY151061AY251061GF105991051051012501001001MA1999999101501MD1999999-0041MW1201REMSYN082AAXX  14184 83096 21695 50904 10261 20231 30150 40157 72055 85500 333 59004 69911;
0213830960999992006081500004-10917-037050FM-12+000599999V0201801N002110120019N0020001N1+02361+02221101581ADDAA106001091AY161061AY261061GF106991061051012501001001KA1240M+02711MA1999999101511MD1999999-0091MW1211REMSYN100AAXX  15004 83096 21695 61804 10236 20222 30151 40158 72166 86500 333 10271 29089 55035 59009 60011;
0201830960999992006081512004-10917-037050FM-12+000599999V0200901N003110120019N0020001N1+02361+02261101691ADDAA124004191AY161061AY261061GF106991061051012501001001KA1240N+02301MA1999999101621MD1999999-0011MW1211REMSYN088AAXX  15124 83096 21695 60906 10236 20226 30162 40169 72166 86500 333 20230 59001 60044;
0182830960999992006081518004-10917-037050FM-12+000599999V0200901N005110075019N0010001N1+02301+02251101581ADDAA106008991AY161061AY261061GF108991081051008001999999MA1999999101511MD1999999+0011MW1611REMSYN082AAXX  15184 83096 21594 80910 10230 20225 30151 40158 76166 885// 333 58001 60091;
0213830960999992006081600004-10917-037050FM-12+000599999V0200901N003110075019N0010001N1+02281+02201101641ADDAA106011991AY161061AY261061GF108991081051008001999999KA1240M+02511MA1999999101571MD1999999+0011MW1611REMSYN100AAXX  16004 83096 21594 80906 10228 20220 30157 40164 76166 885// 333 10251 29095 55001 58001 60121;
0201830960999992006081612004-10917-037050FM-12+000599999V0200901N002612200019N0020001N1+02631+02161101721ADDAA124023991AY161061AY261061GF103991031011012501001001KA1240N+02241MA1999999101651MD1999999+0031MW1211REMSYN088AAXX  16124 83096 21695 30905 10263 20216 30165 40172 72166 83100 333 20224 58003 60244;
0137830960999992006081618004-10917-037050FM-12+000599999V0200901N002112200019N0020001N1+02651+02051101571ADDGF102991021011012501001001MA1999999101501MD1999999-0011REMSYN070AAXX  16184 83096 32695 20904 10265 20205 30150 40157 82100 333 59001;
0168830960999992006081700004-10917-037050FM-12+000599999V0200901N001512200019N0020001N1+02471+02131101681ADDGF103991031051012501001001KA1240M+02771MA1999999101611MD1999999+0041REMSYN088AAXX  17004 83096 32695 30903 10247 20213 30161 40168 83500 333 10277 29077 55105 58004;
0156830960999992006081712004-10917-037050FM-12+000599999V0201401N002112200019N0020001N1+02591+02061101741ADDGF104991041051012501001001KA1240N+02201MA1999999101671MD1999999+0021REMSYN076AAXX  17124 83096 32695 41404 10259 20206 30167 40174 84500 333 20220 58002;
0182830960999992006081718004-10917-037050FM-12+000599999V0201801N002610075019N0010001N1+02591+02171101571ADDAA106001091AY161061AY261061GF106991061051008001001001MA1999999101501MD1999999+0001MW1611REMSYN082AAXX  17184 83096 21594 61805 10259 20217 30150 40157 76166 86500 333 58000 60011;
0213830960999992006081800004-10917-037050FM-12+000599999V0201401N002610120019N0020001N1+02451+02071101581ADDAA106001091AY161061AY261061GF105991051051012501001001KA1240M+02771MA1999999101511MD1999999-0101MW1211REMSYN100AAXX  18004 83096 21695 51405 10245 20207 30151 40158 72166 85500 333 10277 29078 55081 59010 60011;
0201830960999992006081812004-10917-037050FM-12+000599999V0200901N003112200019N0020001N1+02551+02151101721ADDAA124005191AY161061AY261061GF104991041051012501001001KA1240N+02221MA1999999101651MD1999999-0021MW1211REMSYN088AAXX  18124 83096 21695 40906 10255 20215 30165 40172 72166 84500 333 20222 59002 60054;
0137830960999992006081818004-10917-037050FM-12+000599999V0201401N002612200019N0020001N1+02651+01931101511ADDGF102991021011012501001001MA1999999101441MD1999999-0061REMSYN070AAXX  18184 83096 32695 21405 10265 20193 30144 40151 82100 333 59006;
0168830960999992006081900004-10917-037050FM-12+000599999V0201401N002112200019N0020001N1+02451+01951101621ADDGF103991031011012501001001KA1240M+02791MA1999999101551MD1999999+0041REMSYN088AAXX  19004 83096 32695 31404 10245 20195 30155 40162 83100 333 10279 29073 55078 58004;
0201830960999992006081912004-10917-037050FM-12+000599999V0200901N004112200019N0020001N1+02571+99999101621ADDAA124000591AY151061AY251061GF102991021011012501001001KA1240N+02201MA1999999101551MD1999999-0101MW1201REMSYN088AAXX  19124 83096 21695 20908 10257 20267 30155 40162 72055 82100 333 20220 59010 69944;
0137830960999992006081918004-10917-037050FM-12+000599999V0200901N002612200019N0020001N1+02671+02001101471ADDGF102991021011012501001001MA1999999101401MD1999999-0041REMSYN070AAXX  19184 83096 32695 20905 10267 20200 30140 40147 82100 333 59004;
0168830960999992006082000004-10917-037050FM-12+000599999V0200901N002612200019N0020001N1+02471+02091101561ADDGF103991031011012501001001KA1240M+02791MA1999999101491MD1999999-0061REMSYN088AAXX  20004 83096 32695 30905 10247 20209 30149 40156 83100 333 10279 29076 55102 59006;
0156830960999992006082012004-10917-037050FM-12+000599999V0200901N002112200019N0020001N1+02511+02091101701ADDGF103991031011012501001001KA1240N+02201MA1999999101631MD1999999+0081REMSYN076AAXX  20124 83096 32695 30904 10251 20209 30163 40170 83100 333 20220 58008;
0137830960999992006082018004-10917-037050FM-12+000599999V0200901N002612200019N0020001N1+02651+01931101511ADDGF102991021011012501001001MA1999999101441MD1999999+0041REMSYN070AAXX  20184 83096 32695 20905 10265 20193 30144 40151 82100 333 58004;
0168830960999992006082100004-10917-037050FM-12+000599999V0200901N002612200019N0020001N1+02431+02071101581ADDGF103991031051012501001001KA1240M+02751MA1999999101511MD1999999-0021REMSYN088AAXX  21004 83096 32695 30905 10243 20207 30151 40158 83500 333 10275 29076 55105 59002;
0156830960999992006082112004-10917-037050FM-12+000599999V0200901N002112200019N0020001N1+02641+02161101761ADDGF101991011011012501001001KA1240N+02001MA1999999101691MD1999999+0061REMSYN076AAXX  21124 83096 32695 10904 10264 20216 30169 40176 81100 333 20200 58006;
0137830960999992006082118004-10917-037050FM-12+000599999V0200901N003112200019N0020001N1+02681+02201101351ADDGF101991011011012501001001MA1999999101281MD1999999-0161REMSYN070AAXX  21184 83096 32695 10906 10268 20220 30128 40135 81100 333 59016;
0168830960999992006082200004-10917-037050FM-12+000599999V0200901N003112200019N0020001N1+02511+02231101651ADDGF101991011051012501001001KA1240M+02781MA1999999101581MD1999999+0071REMSYN088AAXX  22004 83096 32695 10906 10251 20223 30158 40165 81500 333 10278 29080 55104 58007;
0156830960999992006082212004-10917-037050FM-12+000599999V0200901N002612200019N0020001N1+02731+02191101921ADDGF101991011011012501001001KA1240N+02011MA1999999101851MD1999999+0161REMSYN076AAXX  22124 83096 32695 10905 10273 20219 30185 40192 81100 333 20201 58016;
0137830960999992006082218004-10917-037050FM-12+000599999V0201401N003112200019N0020001N1+02721+02101101691ADDGF101991011011012501001001MA1999999101621MD1999999-0341REMSYN070AAXX  22184 83096 32695 11406 10272 20210 30162 40169 81100 333 59034;
0168830960999992006082300004-10917-037050FM-12+000599999V0200901N002612200019N0020001N1+02531+02231101841ADDGF102991021051012501001001KA1240M+02871MA1999999101771MD1999999-0191REMSYN088AAXX  23004 83096 32695 20905 10253 20223 30177 40184 82500 333 10287 29077 55089 59019;
0201830960999992006082312004-10917-037050FM-12+000599999V0200901N004110120019N0020001N1+02581+02171102051ADDAA124002091AY161061AY261061GF106991061011012501001001KA1240N+02031MA1999999101981MD1999999+0131MW1011REMSYN088AAXX  23124 83096 21695 60908 10258 20217 30198 40205 70166 86100 333 20203 58013 60024;
0137830960999992006082318004-10917-037050FM-12+000599999V0200901N003112200019N0020001N1+02701+02131101711ADDGF102991021011012501001001MA1999999101641MD1999999+0021REMSYN070AAXX  23184 83096 32695 20906 10270 20213 30164 40171 82100 333 58002;
0168830960999992006082400004-10917-037050FM-12+000599999V0200901N003112200019N0020001N1+02501+02051101841ADDGF103991031051012501001001KA1240M+02821MA1999999101771MD1999999+0001REMSYN088AAXX  24004 83096 32695 30906 10250 20205 30177 40184 83500 333 10282 29075 55079 58000;
0156830960999992006082412004-10917-037050FM-12+000599999V0201401N003112200019N0020001N1+02671+02021101981ADDGF102991021011012501001001KA1240N+02071MA1999999101911MD1999999-0071REMSYN076AAXX  24124 83096 32695 21406 10267 20202 30191 40198 82100 333 20207 59007;
0137830960999992006082418004-10917-037050FM-12+000599999V0201401N002112200019N0020001N1+02661+02161101691ADDGF102991021011012501001001MA1999999101621MD1999999-0021REMSYN070AAXX  24184 83096 32695 21404 10266 20216 30162 40169 82100 333 59002;
0168830960999992006082500004-10917-037050FM-12+000599999V0201401N002610120019N0020001N1+02431+02131101901ADDGF106991061051012501001001KA1240M+02831MA1999999101831MD1999999+0061REMSYN088AAXX  25004 83096 32695 61405 10243 20213 30183 40190 86500 333 10283 29077 55100 58006;
0156830960999992006082512004-10917-037050FM-12+000599999V0201401N003110120019N0020001N1+02541+02211101881ADDGF106991061021012501001001KA1240N+02081MA1999999101811MD1999999-0101REMSYN076AAXX  25124 83096 32695 61406 10254 20221 30181 40188 86200 333 20208 59010;
0182830960999992006082518004-10917-037050FM-12+000599999V0200901N002110120019N0020001N1+02301+02181101601ADDAA106001091AY161061AY261061GF106991061021012501001001MA1999999101531MD1999999-0091MW1161REMSYN082AAXX  25184 83096 21695 60904 10230 20218 30153 40160 71666 86200 333 59009 60011;
0168830960999992006082600004-10917-037050FM-12+000599999V0201401N002612200019N0020001N1+02471+02031101781ADDGF103991031051012501001001KA1240M+02831MA1999999101711MD1999999-0121REMSYN088AAXX  26004 83096 32695 31405 10247 20203 30171 40178 83500 333 10283 29082 55031 59012;
0201830960999992006082612004-10917-037050FM-12+000599999V0200901N005110120019N0020001N1+02451+02091101801ADDAA124002091AY151061AY251061GF108991081021012501999999KA1240N+02081MA1999999101731MD1999999-0061MW1161REMSYN088AAXX  26124 83096 21695 80910 10245 20209 30173 40180 71655 882// 333 20208 59006 60024;
0137830960999992006082618004-10917-037050FM-12+000599999V0200901N003612200019N0020001N1+02671+02061101501ADDGF101991011011012501001001MA1999999101431MD1999999-0101REMSYN070AAXX  26184 83096 32695 10907 10267 20206 30143 40150 81100 333 59010;
0168830960999992006082700004-10917-037050FM-12+000599999V0200901N003112200019N0020001N1+02481+02051101671ADDGF103991031051012501001001KA1240M+02801MA1999999101601MD1999999-0111REMSYN088AAXX  27004 83096 32695 30906 10248 20205 30160 40167 83500 333 10280 29076 55074 59011;
0156830960999992006082712004-10917-037050FM-12+000599999V0200901N003112200019N0020001N1+02651+02241101761ADDGF103991031011012501001001KA1240N+02091MA1999999101691MD1999999-0041REMSYN076AAXX  27124 83096 32695 30906 10265 20224 30169 40176 83100 333 20209 59004;
0137830960999992006082718004-10917-037050FM-12+000599999V0201401N001512200019N0020001N1+02701+02131101461ADDGF102991021011012501001001MA1999999101391MD1999999-0041REMSYN070AAXX  27184 83096 32695 21403 10270 20213 30139 40146 82100 333 59004;
0168830960999992006082800004-10917-037050FM-12+000599999V0200901N002612200019N0020001N1+02461+02271101601ADDGF103991031051012501001001KA1240M+02811MA1999999101531MD1999999-0071REMSYN088AAXX  28004 83096 32695 30905 10246 20227 30153 40160 83500 333 10281 29082 55093 59007;
0156830960999992006082812004-10917-037050FM-12+000599999V0200901N003112200019N0020001N1+02711+02261101731ADDGF103991031011012501001001KA1240N+02121MA1999999101661MD1999999-0031REMSYN076AAXX  28124 83096 32695 30906 10271 20226 30166 40173 83100 333 20212 59003;
0137830960999992006082818004-10917-037050FM-12+000599999V0200901N002612200019N0020001N1+02691+02261101461ADDGF102991021011012501001001MA1999999101391MD1999999+0001REMSYN070AAXX  28184 83096 32695 20905 10269 20226 30139 40146 82100 333 58000;
0168830960999992006082900004-10917-037050FM-12+000599999V0200901N002612200019N0020001N1+02461+02131101641ADDGF102991021051012501001001KA1240M+02831MA1999999101571MD1999999+0041REMSYN088AAXX  29004 83096 32695 20905 10246 20213 30157 40164 82500 333 10283 29079 55103 58004;
0156830960999992006082912004-10917-037050FM-12+000599999V0200901N001512200019N0020001N1+02671+02481101691ADDGF102991021011012501001001KA1240N+02081MA1999999101621MD1999999-0041REMSYN076AAXX  29124 83096 32695 20903 10267 20248 30162 40169 82100 333 20208 59004;
0137830960999992006082918004-10917-037050FM-12+000599999V0200901N003612200019N0020001N1+02711+02281101421ADDGF101991011011012501001001MA1999999101351MD1999999-0041REMSYN070AAXX  29184 83096 32695 10907 10271 20228 30135 40142 81100 333 59004;
0168830960999992006083000004-10917-037050FM-12+000599999V0200901N003112200019N0020001N1+02501+02231101541ADDGF102991021051012501001001KA1240M+02851MA1999999101471MD1999999-0101REMSYN088AAXX  30004 83096 32695 20906 10250 20223 30147 40154 82500 333 10285 29085 55105 59010;
0156830960999992006083012004-10917-037050FM-12+000599999V0200901N003112200019N0020001N1+02731+02381101771ADDGF103991031011012501001001KA1240N+02181MA1999999101171MD1999999+0081REMSYN076AAXX  30124 83096 32695 30906 10273 20238 30117 40177 83100 333 20218 58008;
0137830960999992006083018004-10917-037050FM-12+000599999V0201401N002612200019N0020001N1+02721+02281101511ADDGF102991021011012501001001MA1999999101141MD1999999+0091REMSYN070AAXX  30184 83096 32695 21405 10272 20228 30114 40151 82100 333 58009;
0168830960999992006083100004-10917-037050FM-12+000599999V0201801N004112200019N0020001N1+02501+02191101791ADDGF102991021051012501001001KA1240M+02881MA1999999101721MD1999999+0251REMSYN088AAXX  31004 83096 32695 21808 10250 20219 30172 40179 82500 333 10288 29081 55085 58025;
0201830960999992006083112004-10917-037050FM-12+000599999V0201401N002110120019N0020001N1+02381+02211101891ADDAA124004191AY161061AY261061GF108991081021012501999999KA1240N+02241MA1999999101821MD1999999+0121MW1161REMSYN088AAXX  31124 83096 21695 81404 10238 20221 30182 40189 71666 882// 333 20224 58012 60044;
0137830960999992006083118004-10917-037050FM-12+000599999V0201401N005110120019N0020001N1+02571+02061101651ADDGF108991081021012501999999MA1999999101581MD1999999+0141REMSYN070AAXX  31184 83096 32695 81410 10257 20206 30158 40165 882// 333 58014;
0213830960999992006090100004-10917-037050FM-12+000599999V0201401N002110120019N0020001N1+02421+01991101791ADDAA106003091AY161061AY261061GF106991061051012501001001KA1240M+02751MA1999999101721MD1999999+0001MW1161REMSYN100AAXX  01004 83096 21695 61404 10242 20199 30172 40179 71666 86500 333 10275 29082 55014 58000 60031;
0173830960999992006090112004-10917-037050FM-12+000599999V0201801N004110120019N0020001N1+02451+02151101811ADDAA124003091GF108991081021012501999999KA1240N+02261MA1999999101741MD1999999-0081REMSYN082AAXX  01124 83096 22695 81808 10245 20215 30174 40181 882// 333 20226 59008 60034;
0137830960999992006090118004-10917-037050FM-12+000599999V0201401N003110120019N0020001N1+02501+02051101471ADDGF108991081021012501999999MA1999999101401MD1999999-0181REMSYN070AAXX  01184 83096 32695 81406 10250 20205 30140 40147 882// 333 59018;
0168830960999992006090200004-10917-037050FM-12+000599999V0201401N002610120019N0020001N1+02401+01861101581ADDGF108991081051012501999999KA1240M+02691MA1999999101511MD1999999-0211REMSYN088AAXX  02004 83096 32695 81405 10240 20186 30151 40158 885// 333 10269 29076 55014 59021;
0156830960999992006090212004-10917-037050FM-12+000599999V0201401N001012200019N0020001N1+02471+02171101611ADDGF103991031011012501001001KA1240N+02101MA1999999101541MD1999999-0201REMSYN076AAXX  02124 83096 32695 31402 10247 20217 30154 40161 83100 333 20210 59020;
0137830960999992006090218004-10917-037050FM-12+000599999V0200901N002612200019N0020001N1+02591+02031101151ADDGF101991011011012501001001MA1999999101081MD1999999-0321REMSYN070AAXX  02184 83096 32695 10905 10259 20203 30108 40115 81100 333 59032;
0156830960999992006090312004-10917-037050FM-12+000599999V0200901N002612200019N0020001N1+02671+02311101501ADDGF103991031011012501001001KA1240N+01991MA1999999101431MD1999999-0111REMSYN076AAXX  03124 83096 32695 30905 10267 20231 30143 40150 83100 333 20199 59011;
0137830960999992006090318004-10917-037050FM-12+000599999V0200901N003112200019N0020001N1+02711+02281101151ADDGF101991011011012501001001MA1999999101081MD1999999+0001REMSYN070AAXX  03184 83096 32695 10906 10271 20228 30108 40115 81100 333 58000;
0168830960999992006090400004-10917-037050FM-12+000599999V0200901N003110120019N0020001N1+02531+02331101331ADDGF106991061051012501001001KA1240M+02831MA1999999101261MD1999999-0041REMSYN088AAXX  04004 83096 32695 60906 10253 20233 30126 40133 86500 333 10283 29083 55104 59004;
0156830960999992006090412004-10917-037050FM-12+000599999V0200901N003112200019N0020001N1+02731+02281101511ADDGF104991041011012501001001KA1240N+02041MA1999999101441MD1999999+0011REMSYN076AAXX  04124 83096 32695 40906 10273 20228 30144 40151 84100 333 20204 58001;
0137830960999992006090418004-10917-037050FM-12+000599999V0200901N004112200019N0020001N1+02731+02301101371ADDGF102991021011012501001001MA1999999101301MD1999999+0221REMSYN070AAXX  04184 83096 32695 20908 10273 20230 30130 40137 82100 333 58022;
0168830960999992006090500004-10917-037050FM-12+000599999V0200901N003112200019N0020001N1+02551+02311101471ADDGF103991031051012501001001KA1240M+02891MA1999999101401MD1999999+0141REMSYN088AAXX  05004 83096 32695 30906 10255 20231 30140 40147 83500 333 10289 29082 55103 58014;
0156830960999992006090512004-10917-037050FM-12+000599999V0200901N003112200019N0020001N1+02691+02201101611ADDGF102991021011012501001001KA1240N+02351MA1999999101541MD1999999+0101REMSYN076AAXX  05124 83096 32695 20906 10269 20220 30154 40161 82100 333 20235 58010;
0137830960999992006090518004-10917-037050FM-12+000599999V0200901N004112200019N0020001N1+02751+02261101491ADDGF103991031011012501001001MA1999999101421MD1999999+0121REMSYN070AAXX  05184 83096 32695 30908 10275 20226 30142 40149 83100 333 58012;
0168830960999992006090600004-10917-037050FM-12+000599999V0200901N002612200019N0020001N1+02531+02191101561ADDGF102991021011012501001001KA1240M+02871MA1999999101491MD1999999+0091REMSYN088AAXX  06004 83096 32695 20905 10253 20219 30149 40156 82100 333 10287 29078 55079 58009;
0201830960999992006090612004-10917-037050FM-12+000599999V0200901N002610120019N0020001N1+02451+02231101821ADDAA124000891AY111061AY211061GF106991061051012501001001KA1240N+02351MA1999999101751MD1999999+0211MW1201REMSYN088AAXX  06124 83096 21695 60905 10245 20223 30175 40182 72011 86500 333 20235 58021 69984;
0137830960999992006090618004-10917-037050FM-12+000599999V0201401N002612200019N0020001N1+02711+02171101671ADDGF103991031011012501001001MA1999999101601MD1999999+0181REMSYN070AAXX  06184 83096 32695 31405 10271 20217 30160 40167 83100 333 58018;
0168830960999992006090700004-10917-037050FM-12+000599999V0200901N002112200019N0020001N1+02531+02111101891ADDGF103991031011012501001001KA1240M+02811MA1999999101821MD1999999+0331REMSYN088AAXX  07004 83096 32695 30904 10253 20211 30182 40189 83100 333 10281 29079 55062 58033;
0156830960999992006090712004-10917-037050FM-12+000599999V0200901N003112200019N0020001N1+02691+02101101871ADDGF103991031011012501001001KA1240N+02451MA1999999101801MD1999999+0051REMSYN076AAXX  07124 83096 32695 30906 10269 20210 30180 40187 83100 333 20245 58005;
0137830960999992006090718004-10917-037050FM-12+000599999V0201401N002612200019N0020001N1+02731+02171101731ADDGF103991031011012501001001MA1999999101661MD1999999+0061REMSYN070AAXX  07184 83096 32695 31405 10273 20217 30166 40173 83100 333 58006;
0168830960999992006090800004-10917-037050FM-12+000599999V0200901N002612200019N0020001N1+02551+02151101771ADDGF104991041051012501001001KA1240M+02831MA1999999101701MD1999999-0121REMSYN088AAXX  08004 83096 32695 40905 10255 20215 30170 40177 84500 333 10283 29076 55109 59012;
0201830960999992006090812004-10917-037050FM-12+000599999V0201401N004110075019N0010001N1+02261+02141101821ADDAA124022191AY161061AY261061GF108991081051008001999999KA1240N+02221MA1999999101751MD1999999-0051MW1601REMSYN088AAXX  08124 83096 21594 81408 10226 20214 30175 40182 76066 885// 333 20222 59005 60224;
0182830960999992006090818004-10917-037050FM-12+000599999V0201801N004110120019N0020001N1+02381+02071101721ADDAA106002091AY161061AY261061GF108991081051012501999999MA1999999101651MD1999999-0011MW1211REMSYN082AAXX  08184 83096 21695 81808 10238 20207 30165 40172 72166 885// 333 59001 60021;
0187830960999992006090900004-10917-037050FM-12+000599999V0201801N005119999999N0020001N1+02431+01971101811ADDGF105991999051012501001001KA1240M+02491MA1999999101741MD1999999+0041REMSYN088AAXX  09004 83096 32695 51810 10243 20197 30174 40181 86500 333 10249 29082 55000 58004;EQDQ01+000062SCOTLC
0201830960999992006090912004-10917-037050FM-12+000599999V0201401N003110075019N0010001N1+02281+02161101821ADDAA124008991AY161061AY261061GF108991081051008001999999KA1240N+02241MA1999999101751MD1999999+0001MW1631REMSYN088AAXX  09124 83096 21594 81406 10228 20216 30175 40182 76366 885// 333 20224 58000 60094;
0182830960999992006090918004-10917-037050FM-12+000599999V0201801N002610120019N0020001N1+02581+02251101621ADDAA106009991AY161061AY261061GF106991061051012501001001MA1999999101551MD1999999-0101MW1211REMSYN082AAXX  09184 83096 21695 61805 10258 20225 30155 40162 72166 86500 333 59010 60101;
0173830960999992006091012004-10917-037050FM-12+000599999V0200901N002612200019N0020001N1+02671+02181101921ADDAA124010991GF102991021011012501001001KA1240N+02411MA1999999101851MD1999999+0101REMSYN082AAXX  10124 83096 22695 20905 10267 20218 30185 40192 82100 333 20241 58010 60114;
0137830960999992006091018004-10917-037050FM-12+000599999V0200901N002612200019N0020001N1+02711+02151101631ADDGF103991031011012501001001MA1999999101561MD1999999+0011REMSYN070AAXX  10184 83096 32695 30905 10271 20215 30156 40163 83100 333 58001;
0168830960999992006091100004-10917-037050FM-12+000599999V0200901N004112200019N0020001N1+02411+02241101901ADDGF104991041051012501001001KA1240M+02791MA1999999101831MD1999999+0181REMSYN088AAXX  11004 83096 32695 40908 10241 20224 30183 40190 84500 333 10279 29082 55090 58018;
0201830960999992006091112004-10917-037050FM-12+000599999V0200901N002612200019N0020001N1+02651+02141101921ADDAA124004191AY161061AY261061GF103991031011012501001001KA1240N+02241MA1999999101851MD1999999+0001MW1211REMSYN088AAXX  11124 83096 21695 30905 10265 20214 30185 40192 72166 83100 333 20224 58000 60044;
0137830960999992006091118004-10917-037050FM-12+000599999V0200901N003112200019N0020001N1+02711+02131101791ADDGF102991021011012501001001MA1999999101721MD1999999+0161REMSYN070AAXX  11184 83096 32695 20906 10271 20213 30172 40179 82100 333 58016;
0168830960999992006091200004-10917-037050FM-12+000599999V0200901N002612200019N0020001N1+02511+01961101801ADDGF102991021011012501001001KA1240M+02811MA1999999101731MD1999999-0101REMSYN088AAXX  12004 83096 32695 20905 10251 20196 30173 40180 82100 333 10281 29072 55105 59010;
0201830960999992006091212004-10917-037050FM-12+000599999V0201401N002110075019N0010001N1+02201+02081101851ADDAA124006191AY161061AY261061GF108991081051008001999999KA1240N+02201MA1999999101771MD1999999-0081MW1501REMSYN088AAXX  12124 83096 21594 81404 10220 20208 30177 40185 75066 885// 333 20220 59008 60064;
0137830960999992006091218004-10917-037050FM-12+000599999V0201401N002612200019N0020001N1+02641+02161101681ADDGF103991031051012501001001MA1999999101611MD1999999-0111REMSYN070AAXX  12184 83096 32695 31405 10264 20216 30161 40168 83500 333 59011;
0168830960999992006091300004-10917-037050FM-12+000599999V0200901N002112200019N0020001N1+02471+02031101701ADDGF103991031051012501001001KA1240M+02801MA1999999101631MD1999999-0101REMSYN088AAXX  13004 83096 32695 30904 10247 20203 30163 40170 83500 333 10280 29080 55057 59010;
0201830960999992006091312004-10917-037050FM-12+000599999V0202701N001510120019N0020001N1+02311+02091101781ADDAA124007991AY161061AY261061GF105991051051012501001001KA1240N+02201MA1999999101711MD1999999-0061MW1211REMSYN088AAXX  13124 83096 21695 52703 10231 20209 30171 40178 72166 85500 333 20220 59006 60084;
0156830960999992006091318004-10917-037050FM-12+000599999V0201401N002612200019N0020001N1+02641+02161101631ADDGF104991999011012501001001MA1999999101571MD1999999-0041REMSYN070AAXX  13184 83096 32695 41405 10264 20216 30157 40163 83100 333 59004;EQDQ01+000032SCOTLC
0168830960999992006091400004-10917-037050FM-12+000599999V0201801N003112200019N0020001N1+02511+02111101621ADDGF104991041051012501001001KA1240M+02791MA1999999101551MD1999999-0081REMSYN088AAXX  14004 83096 32695 41806 10251 20211 30155 40162 84500 333 10279 29080 55060 59008;
0156830960999992006091412004-10917-037050FM-12+000599999V0200901N004112200019N0020001N1+02691+02161101781ADDGF103991031011012501001001KA1240N+02301MA1999999101711MD1999999+0001REMSYN076AAXX  14124 83096 32695 30908 10269 20216 30171 40178 83100 333 20230 58000;
0137830960999992006091418004-10917-037050FM-12+000599999V0200901N003112200019N0020001N1+02691+02161101581ADDGF104991041011012501001001MA1999999101511MD1999999-0061REMSYN070AAXX  14184 83096 32695 40906 10269 20216 30151 40158 84100 333 59006;
0168830960999992006091500004-10917-037050FM-12+000599999V0200901N002612200019N0020001N1+02511+02111101611ADDGF102991021051012501001001KA1240M+02811MA1999999101541MD1999999-0011REMSYN088AAXX  15004 83096 32695 20905 10251 20211 30154 40161 82500 333 10281 29076 55105 59001;
0201830960999992006091512004-10917-037050FM-12+000599999V0200901N002612200019N0020001N1+02651+02231101741ADDAA124002091AY161061AY261061GF103991031011012501001001KA1240N+02331MA1999999101671MD1999999-0041MW1211REMSYN088AAXX  15124 83096 21695 30905 10265 20223 30167 40174 72166 83100 333 20233 59004 60024;
0137830960999992006091518004-10917-037050FM-12+000599999V0200901N004112200019N0020001N1+02731+02151101561ADDGF103991031011012501001001MA1999999101491MD1999999-0021REMSYN070AAXX  15184 83096 32695 30908 10273 20215 30149 40156 83100 333 59002;
0168830960999992006091600004-10917-037050FM-12+000599999V0200901N004112200019N0020001N1+02471+02191101631ADDGF104991041051012501001001KA1240M+02821MA1999999101561MD1999999+0021REMSYN088AAXX  16004 83096 32695 40908 10247 20219 30156 40163 84500 333 10282 29080 55070 58002;
0201830960999992006091612004-10917-037050FM-12+000599999V0200901N002612200019N0020001N1+02571+02271101721ADDAA124006191AY161061AY261061GF104991041011012501001001KA1240N+02241MA1999999101651MD1999999-0021MW1211REMSYN088AAXX  16124 83096 21695 40905 10257 20227 30165 40172 72166 84100 333 20224 59002 60064;
0137830960999992006091618004-10917-037050FM-12+000599999V0200901N003112200019N0020001N1+02731+02151101561ADDGF103991031011012501001001MA1999999101491MD1999999+0001REMSYN070AAXX  16184 83096 32695 30906 10273 20215 30149 40156 83100 333 58000;
0168830960999992006091700004-10917-037050FM-12+000599999V0200901N003112200019N0020001N1+02491+02211101611ADDGF103991031051012501001001KA1240M+02831MA1999999101541MD1999999-0021REMSYN088AAXX  17004 83096 32695 30906 10249 20221 30154 40161 83500 333 10283 29081 55061 59002;
0156830960999992006091712004-10917-037050FM-12+000599999V0200901N003112200019N0020001N1+02691+02281101741ADDGF104991041011012501001001KA1240N+02451MA1999999101671MD1999999+0021REMSYN076AAXX  17124 83096 32695 40906 10269 20228 30167 40174 84100 333 20245 58002;
0137830960999992006091718004-10917-037050FM-12+000599999V0200901N002612200019N0020001N1+02751+02141101601ADDGF103991031011012501001001MA1999999101531MD1999999+0041REMSYN070AAXX  17184 83096 32695 30905 10275 20214 30153 40160 83100 333 58004;
0168830960999992006091800004-10917-037050FM-12+000599999V0200901N003112200019N0020001N1+02531+02311101661ADDGF103991031011012501001001KA1240M+02821MA1999999101591MD1999999+0051REMSYN088AAXX  18004 83096 32695 30906 10253 20231 30159 40166 83100 333 10282 29081 55104 58005;
0156830960999992006091812004-10917-037050FM-12+000599999V0200501N004112200019N0020001N1+02721+02301101821ADDGF103991031011012501001001KA1240N+02491MA1999999101751MD1999999+0081REMSYN076AAXX  18124 83096 32695 30508 10272 20230 30175 40182 83100 333 20249 58008;
0137830960999992006091818004-10917-037050FM-12+000599999V0200501N005112200019N0020001N1+02681+02261101421ADDGF101991011011012501001001MA1999999101351MD1999999+0181REMSYN070AAXX  18184 83096 32695 10510 10268 20226 30135 40142 81100 333 58018;
0168830960999992006091900004-10917-037050FM-12+000599999V0200501N003112200019N0020001N1+02501+02211101641ADDGF101991011051012501001001KA1240M+02831MA1999999101571MD1999999-0021REMSYN088AAXX  19004 83096 32695 10506 10250 20221 30157 40164 81500 333 10283 29081 55105 59002;
0156830960999992006091912004-10917-037050FM-12+000599999V0200501N004112200019N0020001N1+02701+02301101731ADDGF103991031011012501001001KA1240N+02281MA1999999101661MD1999999-0091REMSYN076AAXX  19124 83096 32695 30508 10270 20230 30166 40173 83100 333 20228 59009;
0137830960999992006091918004-10917-037050FM-12+000599999V0200501N005112200019N0020001N1+02701+02281101331ADDGF102991021011012501001001MA1999999101261MD1999999-0091REMSYN070AAXX  19184 83096 32695 20510 10270 20228 30126 40133 82100 333 59009;
0168830960999992006092000004-10917-037050FM-12+000599999V0200501N003112200019N0020001N1+02511+02311101671ADDGF101991011051012501001001KA1240M+02851MA1999999101601MD1999999+0031REMSYN088AAXX  20004 83096 32695 10506 10251 20231 30160 40167 81500 333 10285 29083 55101 58003;
0156830960999992006092012004-10917-037050FM-12+000599999V0200501N004112200019N0020001N1+02741+02401101751ADDGF103991031011012501001001KA1240N+02341MA1999999101681MD1999999+0021REMSYN076AAXX  20124 83096 32695 30508 10274 20240 30168 40175 83100 333 20234 58002;
0137830960999992006092018004-10917-037050FM-12+000599999V0200501N005112200019N0020001N1+02701+02261101371ADDGF103991031011012501001001MA1999999101301MD1999999+0041REMSYN070AAXX  20184 83096 32695 30510 10270 20226 30130 40137 83100 333 58004;
0168830960999992006092100004-10917-037050FM-12+000599999V0200501N004112200019N0020001N1+02511+02191101591ADDGF102991021051012501001001KA1240M+02841MA1999999101521MD1999999-0081REMSYN088AAXX  21004 83096 32695 20508 10251 20219 30152 40159 82500 333 10284 29081 55100 59008;
0156830960999992006092112004-10917-037050FM-12+000599999V0200501N002610120019N0020001N1+02601+02291101821ADDGF105991051011012501001001KA1240N+02351MA1999999101751MD1999999+0071REMSYN076AAXX  21124 83096 32695 50505 10260 20229 30175 40182 85100 333 20235 58007;
0137830960999992006092118004-10917-037050FM-12+000599999V0200501N005112200019N0020001N1+02691+02301101421ADDGF102991021011012501001001MA1999999101351MD1999999+0051REMSYN070AAXX  21184 83096 32695 20510 10269 20230 30135 40142 82100 333 58005;
0168830960999992006092200004-10917-037050FM-12+000599999V0200501N004112200019N0020001N1+02511+02211101721ADDGF102991021051012501001001KA1240M+02821MA1999999101651MD1999999+0131REMSYN088AAXX  22004 83096 32695 20508 10251 20221 30165 40172 82500 333 10282 29082 55055 58013;
0156830960999992006092212004-10917-037050FM-12+000599999V0200501N004112200019N0020001N1+02691+02301101811ADDGF102991021011012501001001KA1240N+02351MA1999999101741MD1999999-0011REMSYN076AAXX  22124 83096 32695 20508 10269 20230 30174 40181 82100 333 20235 59001;
0137830960999992006092218004-10917-037050FM-12+000599999V0200501N005112200019N0020001N1+02711+02321101481ADDGF101991011011012501001001MA1999999101411MD1999999+0061REMSYN070AAXX  22184 83096 32695 10510 10271 20232 30141 40148 81100 333 58006;
0168830960999992006092300004-10917-037050FM-12+000599999V0200501N004112200019N0020001N1+02511+02311101691ADDGF102991021051012501001001KA1240M+02861MA1999999101621MD1999999-0031REMSYN088AAXX  23004 83096 32695 20508 10251 20231 30162 40169 82500 333 10286 29083 55102 59003;
0156830960999992006092312004-10917-037050FM-12+000599999V0200501N004112200019N0020001N1+02741+02261101771ADDGF102991021011012501001001KA1240N+02371MA1999999101701MD1999999-0041REMSYN076AAXX  23124 83096 32695 20508 10274 20226 30170 40177 82100 333 20237 59004;
0137830960999992006092318004-10917-037050FM-12+000599999V0200501N004112200019N0020001N1+02711+02241101371ADDGF101991011011012501001001MA1999999101301MD1999999-0111REMSYN070AAXX  23184 83096 32695 10508 10271 20224 30130 40137 81100 333 59011;
0168830960999992006092400004-10917-037050FM-12+000599999V0200501N003112200019N0020001N1+02511+02251101571ADDGF101991011051012501001001KA1240M+02861MA1999999101501MD1999999-0121REMSYN088AAXX  24004 83096 32695 10506 10251 20225 30150 40157 81500 333 10286 29080 55103 59012;
0156830960999992006092412004-10917-037050FM-12+000599999V0200501N003112200019N0020001N1+02731+02451101571ADDGF102991021011012501001001KA1240N+02321MA1999999101501MD1999999-0201REMSYN076AAXX  24124 83096 32695 20506 10273 20245 30150 40157 82100 333 20232 59020;
0137830960999992006092418004-10917-037050FM-12+000599999V0200501N005112200019N0020001N1+02741+02191101301ADDGF101991011011012501001001MA1999999101231MD1999999-0071REMSYN070AAXX  24184 83096 32695 10510 10274 20219 30123 40130 81100 333 59007;
0168830960999992006092500004-10917-037050FM-12+000599999V0200501N003112200019N0020001N1+02531+02211101501ADDGF101991011051012501001001KA1240M+02871MA1999999101431MD1999999-0071REMSYN088AAXX  25004 83096 32695 10506 10253 20221 30143 40150 81500 333 10287 29080 55097 59007;
0156830960999992006092512004-10917-037050FM-12+000599999V0200501N004112200019N0020001N1+02741+02281101811ADDGF101991011011012501001001KA1240N+02381MA1999999101741MD1999999+0241REMSYN076AAXX  25124 83096 32695 10508 10274 20228 30174 40181 81100 333 20238 58024;
0137830960999992006092518004-10917-037050FM-12+000599999V0200501N003612200019N0020001N1+02711+02241101451ADDGF101991011011012501001001MA1999999101381MD1999999+0151REMSYN070AAXX  25184 83096 32695 10507 10271 20224 30138 40145 81100 333 58015;
0168830960999992006092600004-10917-037050FM-12+000599999V0200501N003112200019N0020001N1+02511+02191101711ADDGF102991021051012501001001KA1240M+02871MA1999999101641MD1999999+0211REMSYN088AAXX  26004 83096 32695 20506 10251 20219 30164 40171 82500 333 10287 29078 55105 58021;
0156830960999992006092612004-10917-037050FM-12+000599999V0201401N002612200019N0020001N1+02701+02081101901ADDGF102991021011012501001001KA1240N+02371MA1999999101831MD1999999+0091REMSYN076AAXX  26124 83096 32695 21405 10270 20208 30183 40190 82100 333 20237 58009;
0137830960999992006092618004-10917-037050FM-12+000599999V0201401N002612200019N0020001N1+02701+02111101621ADDGF101991011011012501001001MA1999999101551MD1999999+0171REMSYN070AAXX  26184 83096 32695 11405 10270 20211 30155 40162 81100 333 58017;
0168830960999992006092700004-10917-037050FM-12+000599999V0201401N002612200019N0020001N1+02521+02021101871ADDGF102991021051012501001001KA1240M+02881MA1999999101801MD1999999+0161REMSYN088AAXX  27004 83096 32695 21405 10252 20202 30180 40187 82500 333 10288 29072 55107 58016;
0156830960999992006092712004-10917-037050FM-12+000599999V02099999999992200019N0020001N1+02721+02151101991ADDGF101991011011012501001001KA1240N+02371MA1999999101921MD1999999+0091REMSYN076AAXX  27124 83096 32695 114// 10272 20215 30192 40199 81100 333 20237 58009;
0137830960999992006092718004-10917-037050FM-12+000599999V0201401N003112200019N0020001N1+02711+02171101711ADDGF103991031011012501001001MA1999999101641MD1999999+0091REMSYN070AAXX  27184 83096 32695 31406 10271 20217 30164 40171 83100 333 58009;
0168830960999992006092800004-10917-037050FM-12+000599999V0201401N003112200019N0020001N1+02521+02091101871ADDGF101991011051012501001001KA1240M+02871MA1999999101801MD1999999+0001REMSYN088AAXX  28004 83096 32695 11406 10252 20209 30180 40187 81500 333 10287 29074 55104 58000;
0201830960999992006092812004-10917-037050FM-12+000599999V0201401N003110120019N0020001N1+02461+02211101821ADDAA124001091AY161061AY261061GF106991061021012501001001KA1240N+02241MA1999999101751MD1999999-0171MW1161REMSYN088AAXX  28124 83096 21695 61406 10246 20221 30175 40182 71666 86200 333 20224 59017 60014;
0182830960999992006092818004-10917-037050FM-12+000599999V0201401N001510120019N0020001N1+02521+02151101541ADDAA106007991AY161061AY261061GF106991061021012501001001MA1999999101471MD1999999-0171MW1161REMSYN082AAXX  28184 83096 21695 61403 10252 20215 30147 40154 71666 86200 333 59017 60081;
0213830960999992006092900004-10917-037050FM-12+000599999V0201401N001510120019N0020001N1+02281+02231101711ADDAA106007991AY161061AY261061GF108991081051012501999999KA1240M+02821MA1999999101641MD1999999-0161MW1161REMSYN100AAXX  29004 83096 21695 81403 10228 20223 30164 40171 71666 885// 333 10282 29090 55032 59016 60081;
0201830960999992006092912004-10917-037050FM-12+000599999V0200501N002610120019N0020001N1+02461+02281101771ADDAA124035191AY161061AY261061GF108991081021012501999999KA1240N+02211MA1999999101701MD1999999-0051MW1161REMSYN088AAXX  29124 83096 21695 80505 10246 20228 30170 40177 71666 882// 333 20221 59005 60354;
0182830960999992006092918004-10917-037050FM-12+000599999V0200501N001510120019N0020001N1+02401+02351101511ADDAA106004191AY161061AY261061GF106991061021012501001001MA1999999101441MD1999999-0031MW1161REMSYN082AAXX  29184 83096 21695 60503 10240 20235 30144 40151 71666 86200 333 59003 60041;
0168830960999992006093000004-10917-037050FM-12+000599999V0200901N001512200019N0020001N1+02441+02251101701ADDGF101991011051012501001001KA1240M+02791MA1999999101631MD1999999-0011REMSYN088AAXX  30004 83096 32695 10903 10244 20225 30163 40170 81500 333 10279 29091 55018 59001;
0173830960999992006093012004-10917-037050FM-12+000599999V0200901N003110120019N0020001N1+02711+02431101831ADDAA124004191GF106991061021012501001001KA1240N+02281MA1999999101761MD1999999+0061REMSYN082AAXX  30124 83096 22695 60906 10271 20243 30176 40183 86200 333 20228 58006 60044;
0137830960999992006093018004-10917-037050FM-12+000599999V0200501N003612200019N0020001N1+02741+02211101561ADDGF102991021011012501001001MA1999999101491MD1999999+0051REMSYN070AAXX  30184 83096 32695 20507 10274 20221 30149 40156 82100 333 58005;
0168830960999992006100100004-10917-037050FM-12+000599999V0200901N002612200019N0020001N1+02561+02231101821ADDGF102991021051012501001001KA1240M+02861MA1999999101751MD1999999+0121REMSYN088AAXX  01004 83096 32695 20905 10256 20223 30175 40182 82500 333 10286 29080 55110 58012;
0156830960999992006100112004-10917-037050FM-12+000599999V0200901N003112200019N0020001N1+02771+02251101791ADDGF101991011011012501001001KA1240N+02301MA1999999101721MD1999999-0041REMSYN076AAXX  01124 83096 32695 10906 10277 20225 30172 40179 81100 333 20230 59004;
0137830960999992006100118004-10917-037050FM-12+000599999V0200901N002612200019N0020001N1+02761+02231101451ADDGF101991011011012501001001MA1999999101381MD1999999-0111REMSYN070AAXX  01184 83096 32695 10905 10276 20223 30138 40145 81100 333 59011;
0168830960999992006100200004-10917-037050FM-12+000599999V0201401N002612200019N0020001N1+02601+02191101641ADDGF102991021051012501001001KA1240M+02881MA1999999101571MD1999999-0181REMSYN088AAXX  02004 83096 32695 21405 10260 20219 30157 40164 82500 333 10288 29076 55106 59018;
0201830960999992006100212004-10917-037050FM-12+000599999V0200901N003112200019N0020001N1+02711+02241101611ADDAA124006191AY161061AY261061GF104991041011012501001001KA1240N+02301MA1999999101541MD1999999-0181MW1211REMSYN088AAXX  02124 83096 21695 40906 10271 20224 30154 40161 72166 84100 333 20230 59018 60064;
0137830960999992006100218004-10917-037050FM-12+000599999V0200901N002612200019N0020001N1+02751+02261101371ADDGF102991021011012501001001MA1999999101301MD1999999-0081REMSYN070AAXX  02184 83096 32695 20905 10275 20226 30130 40137 82100 333 59008;
0168830960999992006100300004-10917-037050FM-12+000599999V0200901N003112200019N0020001N1+02591+02251101391ADDGF103991031011012501001001KA1240M+02871MA1999999101321MD1999999-0251REMSYN088AAXX  03004 83096 32695 30906 10259 20225 30132 40139 83100 333 10287 29078 55098 59025;
0156830960999992006100312004-10917-037050FM-12+000599999V0200901N003112200019N0020001N1+02731+02261101411ADDGF103991031011012501001001KA1240N+02401MA1999999101241MD1999999-0201REMSYN076AAXX  03124 83096 32695 30906 10273 20226 30124 40141 83100 333 20240 59020;
0137830960999992006100318004-10917-037050FM-12+000599999V0200901N004112200019N0020001N1+02751+02211101271ADDGF102991021011012501001001MA1999999101201MD1999999-0101REMSYN070AAXX  03184 83096 32695 20908 10275 20221 30120 40127 82100 333 59010;
0168830960999992006100400004-10917-037050FM-12+000599999V0200901N004112200019N0020001N1+02551+02211101311ADDGF102991021011012501001001KA1240M+02871MA1999999101241MD1999999-0081REMSYN088AAXX  04004 83096 32695 20908 10255 20221 30124 40131 82100 333 10287 29078 55111 59008;
0156830960999992006100412004-10917-037050FM-12+000599999V0200901N004112200019N0020001N1+02771+02281101451ADDGF103991031011012501001001KA1240N+02411MA1999999101381MD1999999+0041REMSYN076AAXX  04124 83096 32695 30908 10277 20228 30138 40145 83100 333 20241 58004;
0137830960999992006100418004-10917-037050FM-12+000599999V0200901N003112200019N0020001N1+02751+02261101271ADDGF103991031011012501001001MA1999999101201MD1999999+0001REMSYN070AAXX  04184 83096 32695 30906 10275 20226 30120 40127 83100 333 58000;
0168830960999992006100500004-10917-037050FM-12+000599999V0200901N004112200019N0020001N1+02591+02391101311ADDGF103991031051012501001001KA1240M+02891MA1999999101241MD1999999+0001REMSYN088AAXX  05004 83096 32695 30908 10259 20239 30124 40131 83500 333 10289 29081 55106 58000;
0201830960999992006100512004-10917-037050FM-12+000599999V0200901N003112200019N0020001N1+02631+02311101511ADDAA124002091AY161061AY261061GF104991041011012501001001KA1240N+02331MA1999999101441MD1999999+0061MW1211REMSYN088AAXX  05124 83096 21695 40906 10263 20231 30144 40151 72166 84100 333 20233 58006 60024;
0137830960999992006100518004-10917-037050FM-12+000599999V0200901N004112200019N0020001N1+02691+02241101411ADDGF104991041051012501001001MA1999999101341MD1999999+0101REMSYN070AAXX  05184 83096 32695 40908 10269 20224 30134 40141 84500 333 58010;
0168830960999992006100600004-10917-037050FM-12+000599999V0200901N004112200019N0020001N1+02591+02291101491ADDGF104991041051012501001001KA1240M+02871MA1999999101421MD1999999+0181REMSYN088AAXX  06004 83096 32695 40908 10259 20229 30142 40149 84500 333 10287 29082 55041 58018;
0201830960999992006100612004-10917-037050FM-12+000599999V0200901N004112200019N0020001N1+02671+02201101591ADDAA124000021AY151061AY251061GF104991041011012501001001KA1240N+02431MA1999999101521MD1999999+0081MW1201REMSYN088AAXX  06124 83096 21695 40908 10267 20220 30152 40159 72055 84100 333 20243 58008 69924;
0137830960999992006100618004-10917-037050FM-12+000599999V0200901N004112200019N0200001N1+02741+02241101471ADDGF102991021011012501001001MA1999999101401MD1999999+0061REMSYN070AAXX  06184 83096 32698 20908 10274 20224 30140 40147 82100 333 58006;
0168830960999992006100700004-10917-037050FM-12+000599999V0200901N002612200019N0020001N1+02571+02171101511ADDGF104991041011012501001001KA1240M+02901MA1999999101441MD1999999+0021REMSYN088AAXX  07004 83096 32695 40905 10257 20217 30144 40151 84100 333 10290 29077 55102 58002;
0156830960999992006100712004-10917-037050FM-12+000599999V0200901N003112200019N0020001N1+02741+02341101571ADDGF104991041011012501001001KA1240N+02431MA1999999101501MD1999999-0021REMSYN076AAXX  07124 83096 32695 40906 10274 20234 30150 40157 84100 333 20243 59002;
0137830960999992006100718004-10917-037050FM-12+000599999V0200901N003112200019N0020001N1+02741+02241101431ADDGF103991031011012501001001MA1999999101361MD1999999-0041REMSYN070AAXX  07184 83096 32695 30906 10274 20224 30136 40143 83100 333 59004;
0168830960999992006100800004-10917-037050FM-12+000599999V0200901N003112200019N0020001N1+02571+02311101571ADDGF103991031051012501001001KA1240M+02901MA1999999101501MD1999999+0061REMSYN088AAXX  08004 83096 32695 30906 10257 20231 30150 40157 83500 333 10290 29081 55106 58006;
0156830960999992006100812004-10917-037050FM-12+000599999V0200901N003112200019N0020001N1+02731+02371101581ADDGF103991031011012501001001KA1240N+02451MA1999999101511MD1999999+0011REMSYN076AAXX  08124 83096 32695 30906 10273 20237 30151 40158 83100 333 20245 58001;
0137830960999992006100818004-10917-037050FM-12+000599999V0200901N003112200019N0020001N1+02751+02261101451ADDGF103991031011012501001001MA1999999101381MD1999999+0021REMSYN070AAXX  08184 83096 32695 30906 10275 20226 30138 40145 83100 333 58002;
0168830960999992006100900004-10917-037050FM-12+000599999V0200901N002612200019N0020001N1+02491+02091101431ADDGF103991031051012501001001KA1240M+02891MA1999999101361MD1999999-0141REMSYN088AAXX  09004 83096 32695 30905 10249 20209 30136 40143 83500 333 10289 29078 55066 59014;
0201830960999992006100912004-10917-037050FM-12+000599999V0200901N002610120019N0020001N1+02591+02371101621ADDAA124005191AY161061AY261061GF105991051051012501001001KA1240N+02331MA1999999101551MD1999999+0041MW1211REMSYN088AAXX  09124 83096 21695 50905 10259 20237 30155 40162 72166 85500 333 20233 58004 60054;
0137830960999992006100918004-10917-037050FM-12+000599999V0200901N004112200019N0020001N1+02731+02281101511ADDGF104991041011012501001001MA1999999101441MD1999999+0061REMSYN070AAXX  09184 83096 32695 40908 10273 20228 30144 40151 84100 333 58006;
0168830960999992006101000004-10917-037050FM-12+000599999V0200901N004112200019N0020001N1+02551+02151101611ADDGF103991031011012501001001KA1240M+02831MA1999999101541MD1999999+0181REMSYN088AAXX  10004 83096 32695 30908 10255 20215 30154 40161 83100 333 10283 29081 55063 58018;
0156830960999992006101012004-10917-037050FM-12+000599999V0200901N003112200019N0020001N1+02731+02301101731ADDGF104991041011012501001001KA1240N+02431MA1999999101661MD1999999+0111REMSYN076AAXX  10124 83096 32695 40906 10273 20230 30166 40173 84100 333 20243 58011;
0137830960999992006101018004-10917-037050FM-12+000599999V0200901N002612200019N0020001N1+02771+02281101601ADDGF103991031011012501001001MA1999999101531MD1999999+0091REMSYN070AAXX  10184 83096 32695 30905 10277 20228 30153 40160 83100 333 58009;
0168830960999992006101100004-10917-037050FM-12+000599999V0201401N002612200019N0020001N1+02551+02251101691ADDGF103991031051012501001001KA1240M+02891MA1999999101621MD1999999+0081REMSYN088AAXX  11004 83096 32695 31405 10255 20225 30162 40169 83500 333 10289 29080 55096 58008;
0156830960999992006101112004-10917-037050FM-12+000599999V0200901N003112200019N0020001N1+02751+02261101691ADDGF104991041011012501001001KA1240N+02431MA1999999101621MD1999999-0041REMSYN076AAXX  11124 83096 32695 40906 10275 20226 30162 40169 84100 333 20243 59004;
0137830960999992006101118004-10917-037050FM-12+000599999V0200901N002612200019N0020001N1+02771+02251101611ADDGF103991031011012501001001MA1999999101541MD1999999+0011REMSYN070AAXX  11184 83096 32695 30905 10277 20225 30154 40161 83100 333 58001;
0168830960999992006101200004-10917-037050FM-12+000599999V0200901N002612200019N0020001N1+02551+02271101471ADDGF103991031011012501001001KA1240M+02911MA1999999101401MD1999999-0221REMSYN088AAXX  12004 83096 32695 30905 10255 20227 30140 40147 83100 333 10291 29080 55080 59022;
0137830960999992006101218004-10917-037050FM-12+000599999V0200901N003112200019N0020001N1+02751+02211101311ADDGF102991021011012501001001MA1999999101241MD1999999-0301REMSYN070AAXX  12184 83096 32695 20906 10275 20221 30124 40131 82100 333 59030;
0168830960999992006101300004-10917-037050FM-12+000599999V0200901N004112200019N0020001N1+02541+02231101291ADDGF102991021051012501001001KA1240M+02891MA1999999101221MD1999999-0181REMSYN088AAXX  13004 83096 32695 20908 10254 20223 30122 40129 82500 333 10289 29081 55080 59018;
0156830960999992006101312004-10917-037050FM-12+000599999V0200901N003112200019N0020001N1+02771+02281101391ADDGF103991031011012501001001KA1240N+02431MA1999999101321MD1999999-0241REMSYN076AAXX  13124 83096 32695 30906 10277 20228 30132 40139 83100 333 20243 59024;
0137830960999992006101318004-10917-037050FM-12+000599999V0200901N004112200019N0020001N1+02751+02261101161ADDGF101991011011012501001001MA1999999101091MD1999999-0151REMSYN070AAXX  13184 83096 32695 10908 10275 20226 30109 40116 81100 333 59015;
0168830960999992006101400004-10917-037050FM-12+000599999V0200901N003112200019N0020001N1+02551+02251101181ADDGF103991031051012501001001KA1240M+02871MA1999999101111MD1999999-0111REMSYN088AAXX  14004 83096 32695 30906 10255 20225 30111 40118 83500 333 10287 29079 55112 59011;
0156830960999992006101412004-10917-037050FM-12+000599999V0200901N003612200019N0020001N1+02731+02241101291ADDGF103991031011012501001001KA1240N+02441MA1999999101221MD1999999-0101REMSYN076AAXX  14124 83096 32695 30907 10273 20224 30122 40129 83100 333 20244 59010;
0137830960999992006101418004-10917-037050FM-12+000599999V0200901N004112200019N0020001N1+02771+02231101151ADDGF103991031011012501001001MA1999999101081MD1999999-0011REMSYN070AAXX  14184 83096 32695 30908 10277 20223 30108 40115 83100 333 59001;
0187830960999992006101500004-10917-037050FM-12+000599999V0200901N003612200019N0020001N1+02591+02531101161ADDGF103991999051012501001001KA1240M+02891MA1999999101091MD1999999-0021REMSYN088AAXX  15004 83096 32695 30907 10259 20253 30109 40116 82500 333 10289 29080 55109 59002;EQDQ01+000022SCOTLC
0156830960999992006101512004-10917-037050FM-12+000599999V0200901N004110120019N0020001N1+02711+02481101411ADDGF106991061021012501001001KA1240N+02541MA1999999101341MD1999999+0121REMSYN076AAXX  15124 83096 32695 60908 10271 20248 30134 40141 86200 333 20254 58012;
0137830960999992006101518004-10917-037050FM-12+000599999V0200901N004110120019N0020001N1+02811+02401101151ADDGF106991061021012501001001MA1999999101081MD1999999+0001REMSYN070AAXX  15184 83096 32695 60908 10281 20240 30108 40115 86200 333 58000;
0168830960999992006101600004-10917-037050FM-12+000599999V0200901N004112200019N0020001N1+02551+02361101371ADDGF102991021051012501001001KA1240M+02931MA1999999101301MD1999999+0211REMSYN088AAXX  16004 83096 32695 20908 10255 20236 30130 40137 82500 333 10293 29081 55076 58021;
0156830960999992006101612004-10917-037050FM-12+000599999V0200501N005112200019N0020001N1+02771+02341101431ADDGF103991031011012501001001KA1240N+02501MA1999999101361MD1999999+0021REMSYN076AAXX  16124 83096 32695 30510 10277 20234 30136 40143 83100 333 20250 58002;
0137830960999992006101618004-10917-037050FM-12+000599999V0200501N005112200019N0020001N1+02771+02361101131ADDGF102991021011012501001001MA1999999101061MD1999999-0021REMSYN070AAXX  16184 83096 32695 20510 10277 20236 30106 40113 82100 333 59002;
0168830960999992006101700004-10917-037050FM-12+000599999V0200501N004112200019N0020001N1+02531+02271101331ADDGF102991021051012501001001KA1240M+02911MA1999999101261MD1999999-0041REMSYN088AAXX  17004 83096 32695 20508 10253 20227 30126 40133 82500 333 10291 29081 55113 59004;
0156830960999992006101712004-10917-037050FM-12+000599999V0200501N004112200019N0020001N1+02761+02281101471ADDGF102991021011012501001001KA1240N+02491MA1999999101401MD1999999+0041REMSYN076AAXX  17124 83096 32695 20508 10276 20228 30140 40147 82100 333 20249 58004;
