0168831820999992006010100004-11300-041867FM-12+074799999V0201401N003110450019N0010001N1+02231+01721101111ADDGF108991011021008001031011KA1240M+02921MA1999999092921MD1999999-0061REMSYN088AAXX  01004 83182 32594 81406 10223 20172 39292 40111 81231 333 10292 29068 55056 59006;
0156831820999992006010112004-11300-041867FM-12+074799999V0200901N004610075019N0100001N1+02481+01801101251ADDGF108991081051008001999999KA1240N+01861MA1999999093061MD1999999-0041REMSYN076AAXX  01124 83182 32597 80909 10248 20180 39306 40125 885// 333 20186 59004;
0156831820999992006010212004-11300-041867FM-12+074799999V0201401N004612200019N0100001N1+02451+01621101181ADDGF101991011011012501001001KA1240N+01781MA1999999093021MD1999999-0041REMSYN076AAXX  02124 83182 32697 11409 10245 20162 39302 40118 81100 333 20178 59004;
0137831820999992006010218004-11300-041867FM-12+074799999V0201401N003112200019N0100001N1+03151+01371100741ADDGF103991031021008001001001MA1999999092681MD1999999+0041REMSYN070AAXX  02184 83182 32597 31406 10315 20137 39268 40074 83200 333 58004;
0178831820999992006010300004-11300-041867FM-12+074799999V0201401N002612200019N0010001N1+02371+01621100941ADDGA1001+999999999GF100991001001999999001001KA1240M+03131MA1999999092801MD1999999-0121REMSYN082AAXX  03004 83182 32994 01405 10237 20162 39280 40094 333 10313 29058 55060 59012;
0156831820999992006010312004-11300-041867FM-12+074799999V0201401N005112200019N0100001N1+02451+01651101171ADDGF108991011011012501001011KA1240N+01821MA1999999093011MD1999999-0011REMSYN076AAXX  03124 83182 32697 81410 10245 20165 39301 40117 81101 333 20182 59001;
0137831820999992006010318004-11300-041867FM-12+074799999V0201401N001512200019N0100001N1+03121+01481100711ADDGF108991031021008001001011MA1999999092661MD1999999-0021REMSYN070AAXX  03184 83182 32597 81403 10312 20148 39266 40071 83201 333 59002;
0156831820999992006010412004-11300-041867FM-12+074799999V0200901N004112200019N0100001N1+02511+01731101031ADDGF108991011011012501001011KA1240N+01811MA1999999092891MD1999999-0121REMSYN076AAXX  04124 83182 32697 80908 10251 20173 39289 40103 81101 333 20181 59012;
0137831820999992006010418004-11300-041867FM-12+074799999V0201801N002110075019N0100001N1+03221+01431100501ADDGF108991051021008001001011MA1999999092471MD1999999-0191REMSYN070AAXX  04184 83182 32597 81804 10322 20143 39247 40050 85201 333 59019;
0168831820999992006010500004-11300-041867FM-12+074799999V0201401N003112200019N0010001N1+02531+01501100761ADDGF108991021051008001001011KA1240M+03261MA1999999092661MD1999999-0051REMSYN088AAXX  05004 83182 32594 81406 10253 20150 39266 40076 82501 333 10326 29050 55110 59005;
0156831820999992006010512004-11300-041867FM-12+074799999V0200901N003612200019N0100001N1+02611+01821100881ADDGF108991011011012501001011KA1240N+01921MA1999999092811MD1999999-0081REMSYN076AAXX  05124 83182 32697 80907 10261 20182 39281 40088 81101 333 20192 59008;
0182831820999992006010518004-11300-041867FM-12+074799999V0201401N002110042019N0100001N1+02461+01881100621ADDAA106000891AY161061AY221061GF108991051031004501021999MA1999999092481MD1999999+0011MW1021REMSYN082AAXX  05184 83182 21497 81404 10246 20188 39248 40062 70262 8532/ 333 58001 69971;
0173831820999992006010612004-11300-041867FM-12+074799999V0200901N002112200019N0100001N1+02471+01741101091ADDAA124000891GF108991011011012501001011KA1240N+01871MA1999999092941MD1999999+0141REMSYN082AAXX  06124 83182 22697 80904 10247 20174 39294 40109 81101 333 20187 58014 69974;
0137831820999992006010618004-11300-041867FM-12+074799999V0201401N003110450019N0100001N1+03091+01571100691ADDGF108991031051008001011999MA1999999092641MD1999999+0161REMSYN070AAXX  06184 83182 32597 81406 10309 20157 39264 40069 8351/ 333 58016;
0168831820999992006010700004-11300-041867FM-12+074799999V0201401N002112200019N0010001N1+02381+01561100971ADDGF108991021001017501031011KA1240M+03101MA1999999092831MD1999999+0191REMSYN088AAXX  07004 83182 32794 81404 10238 20156 39283 40097 82031 333 10310 29056 55073 58019;
0156831820999992006010712004-11300-041867FM-12+074799999V0200901N005112200019N0100001N1+02521+01661101181ADDGF108991011011012501001011KA1240N+01901MA1999999093041MD1999999+0091REMSYN076AAXX  07124 83182 32697 80910 10252 20166 39304 40118 81101 333 20190 58009;
0137831820999992006010718004-11300-041867FM-12+074799999V0201401N002110120019N0100001N1+03171+01621100641ADDGF108991051021012501001011MA1999999092601MD1999999-0041REMSYN070AAXX  07184 83182 32697 81404 10317 20162 39260 40064 85201 333 59004;
0156831820999992006010812004-11300-041867FM-12+074799999V0201401N004610450019N0100001N1+02501+01561101151ADDGF108991011021008001031011KA1240N+01831MA1999999093021MD1999999-0021REMSYN076AAXX  08124 83182 32597 81409 10250 20156 39302 40115 81231 333 20183 59002;
0137831820999992006010818004-11300-041867FM-12+074799999V0200901N004110075019N0100001N1+03141+01321100701ADDGF108991061021008001001011MA1999999092661MD1999999+0061REMSYN070AAXX  08184 83182 32597 80908 10314 20132 39266 40070 86201 333 58006;
0156831820999992006010912004-11300-041867FM-12+074799999V0200901N005712200019N0100001N1+02451+01751101171ADDGF108991041021008001001011KA1240N+01871MA1999999093011MD1999999-0011REMSYN076AAXX  09124 83182 32597 80911 10245 20175 39301 40117 84201 333 20187 59001;
0137831820999992006010918004-11300-041867FM-12+074799999V0201401N003610450019N0100001N1+03061+01421100701ADDGF108991031021008001011011MA1999999092651MD1999999-0011REMSYN070AAXX  09184 83182 32597 81407 10306 20142 39265 40070 83211 333 59001;
0168831820999992006011000004-11300-041867FM-12+074799999V0200901N001512200019N0010001N1+02391+01431100991ADDGF108991041001017501021011KA1240M+03181MA1999999092851MD1999999-0061REMSYN088AAXX  10004 83182 32794 80903 10239 20143 39285 40099 84021 333 10318 29053 55076 59006;
0156831820999992006011012004-11300-041867FM-12+074799999V0201401N003610075019N0100001N1+02521+01661101281ADDGF108991071021008001001011KA1240N+01901MA1999999093131MD1999999+0121REMSYN076AAXX  10124 83182 32597 81407 10252 20166 39313 40128 87201 333 20190 58012;
0168831820999992006011100004-11300-041867FM-12+074799999V0200901N003119999999N0010001N1+02531+01501101081ADDGF108991001001999999001011KA1240M+03201MA1999999092971MD1999999+0121REMSYN088AAXX  11004 83182 32994 80906 10253 20150 39297 40108 80001 333 10320 29050 55100 58012;
0156831820999992006011112004-11300-041867FM-12+074799999V0200901N007712200019N0100001N1+02551+01661101221ADDGF108991041021008001001011KA1240N+02021MA1999999093101MD1999999-0031REMSYN076AAXX  11124 83182 32597 80915 10255 20166 39310 40122 84201 333 20202 59003;
0137831820999992006011118004-11300-041867FM-12+074799999V0200901N006212200019N0100001N1+03131+01351100801ADDGF108991041021008001001011MA1999999092771MD1999999-0041REMSYN070AAXX  11184 83182 32597 80912 10313 20135 39277 40080 84201 333 59004;
0137831820999992006011218004-11300-041867FM-12+074799999V0200901N004612200019N0100001N1+03101+01241100901ADDGF108991041021008001001011MA1999999092831MD1999999+0061REMSYN070AAXX  12184 83182 32597 80909 10310 20124 39283 40090 84201 333 58006;
0168831820999992006011300004-11300-041867FM-12+074799999V0201401N005119999999N0010001N1+02421+01671101151ADDGF108991001001999999001011KA1240M+03151MA1999999093011MD1999999-0011REMSYN088AAXX  13004 83182 32994 81410 10242 20167 39301 40115 80001 333 10315 29056 55104 59001;
0156831820999992006011312004-11300-041867FM-12+074799999V0201401N004112200019N0100001N1+02461+01681101371ADDGF108991031021008001001011KA1240N+01821MA1999999093211MD1999999+0031REMSYN076AAXX  13124 83182 32597 81408 10246 20168 39321 40137 83201 333 20182 58003;
0137831820999992006011318004-11300-041867FM-12+074799999V0201401N004610075019N0100001N1+03181+01491100981ADDGF108991071021008001001011MA1999999092921MD1999999+0091REMSYN070AAXX  13184 83182 32597 81409 10318 20149 39292 40098 87201 333 58009;
0168831820999992006011400004-11300-041867FM-12+074799999V0200901N005119999999N0010001N1+02521+01551101191ADDGF108991001001999999001011KA1240M+03201MA1999999093061MD1999999+0051REMSYN088AAXX  14004 83182 32994 80910 10252 20155 39306 40119 80001 333 10320 29052 55113 58005;
0156831820999992006011412004-11300-041867FM-12+074799999V0201401N006212200019N0100001N1+02571+01651101151ADDGF108991021011012501001011KA1240N+01951MA1999999093011MD1999999-0201REMSYN076AAXX  14124 83182 32697 81412 10257 20165 39301 40115 82101 333 20195 59020;
0137831820999992006011418004-11300-041867FM-12+074799999V0200901N006212200019N0100001N1+03011+01651100961ADDGF108991041021008001001011MA1999999092881MD1999999-0041REMSYN070AAXX  14184 83182 32597 80912 10301 20165 39288 40096 84201 333 59004;
0156831820999992006011512004-11300-041867FM-12+074799999V0201401N005112200019N0100001N1+02481+01491101301ADDGF108991011011012501001011KA1240N+01721MA1999999093131MD1999999+0121REMSYN076AAXX  15124 83182 32697 81410 10248 20149 39313 40130 81101 333 20172 58012;
0137831820999992006011518004-11300-041867FM-12+074799999V0201401N004112200019N0100001N1+03121+01211100831ADDGF108991021011012501001011MA1999999092761MD1999999-0121REMSYN070AAXX  15184 83182 32697 81408 10312 20121 39276 40083 82101 333 59012;
0156831820999992006011612004-11300-041867FM-12+074799999V0201401N005712200019N0100001N1+02501+01531101241ADDGF108991021021008001001011KA1240N+01631MA1999999093091MD1999999-0041REMSYN076AAXX  16124 83182 32597 81411 10250 20153 39309 40124 82201 333 20163 59004;
0168831820999992006011700004-11300-041867FM-12+074799999V0200901N003112200019N0010001N1+02421+01511101071ADDGF108991011001017501031011KA1240M+03101MA1999999092931MD1999999-0011REMSYN088AAXX  17004 83182 32794 80906 10242 20151 39293 40107 81031 333 10310 29052 55114 59001;
0156831820999992006011712004-11300-041867FM-12+074799999V0200901N004112200019N0100001N1+02511+01621101261ADDGF108991021011012501001011KA1240N+01821MA1999999093111MD1999999+0021REMSYN076AAXX  17124 83182 32697 80908 10251 20162 39311 40126 82101 333 20182 58002;
0137831820999992006011718004-11300-041867FM-12+074799999V0200501N002610075019N0100001N1+03081+01561100791ADDGF108991051021008001001011MA1999999092731MD1999999-0021REMSYN070AAXX  17184 83182 32597 80505 10308 20156 39273 40079 85201 333 59002;
0168831820999992006011800004-11300-041867FM-12+074799999V0201401N003119999999N0010001N1+02491+01471101001ADDGF108991001001999999001011KA1240M+03181MA1999999092881MD1999999-0051REMSYN088AAXX  18004 83182 32994 81406 10249 20147 39288 40100 80001 333 10318 29051 55108 59005;
0156831820999992006011812004-11300-041867FM-12+074799999V0201401N004112200019N0100001N1+02451+01601101231ADDGF108991011011012501001011KA1240N+01701MA1999999093081MD1999999-0031REMSYN076AAXX  18124 83182 32697 81408 10245 20160 39308 40123 81101 333 20170 59003;
0168831820999992006011900004-11300-041867FM-12+074799999V0200901N003619999999N0010001N1+02591+01471100861ADDGF108991001001999999001011KA1240M+03211MA1999999092751MD1999999-0131REMSYN088AAXX  19004 83182 32994 80907 10259 20147 39275 40086 80001 333 10321 29048 55108 59013;
0156831820999992006011912004-11300-041867FM-12+074799999V0201401N005112200019N0100001N1+02571+01711101041ADDGF108991021021008001001011KA1240N+01901MA1999999092951MD1999999-0131REMSYN076AAXX  19124 83182 32597 81410 10257 20171 39295 40104 82201 333 20190 59013;
0137831820999992006011918004-11300-041867FM-12+074799999V0201401N004610075019N0100001N1+03171+01431100531ADDGF108991061021008001001011MA1999999092521MD1999999-0121REMSYN070AAXX  19184 83182 32597 81409 10317 20143 39252 40053 86201 333 59012;
0168831820999992006012000004-11300-041867FM-12+074799999V0200901N007219999999N0010001N1+02451+01651100741ADDGF108991001001999999001011KA1240M+03211MA1999999092601MD1999999-0101REMSYN088AAXX  20004 83182 32994 80914 10245 20165 39260 40074 80001 333 10321 29054 55103 59010;
0156831820999992006012012004-11300-041867FM-12+074799999V0201401N005712200019N0100001N1+02521+01521101121ADDGF108991021011012501001011KA1240N+01761MA1999999092991MD1999999+0041REMSYN076AAXX  20124 83182 32697 81411 10252 20152 39299 40112 82101 333 20176 58004;
0137831820999992006012018004-11300-041867FM-12+074799999V0201401N005710075019N0100001N1+03031+01521100761ADDGF108991051021008001001011MA1999999092681MD1999999+0161REMSYN070AAXX  20184 83182 32597 81411 10303 20152 39268 40076 85201 333 58016;
0168831820999992006012100004-11300-041867FM-12+074799999V0201401N004119999999N0010001N1+02341+01491101031ADDGF108991001001999999001011KA1240M+03151MA1999999092891MD1999999-0241REMSYN088AAXX  21004 83182 32994 81408 10234 20149 39289 40103 80001 333 10315 29053 55114 59024;
0156831820999992006012112004-11300-041867FM-12+074799999V0201401N005712200019N0100001N1+02591+01501101231ADDGF108991021011012501001011KA1240N+01681MA1999999093081MD1999999+0091REMSYN076AAXX  21124 83182 32697 81411 10259 20150 39308 40123 82101 333 20168 58009;
0137831820999992006012118004-11300-041867FM-12+074799999V0200901N005710075019N0100001N1+03201+01321100801ADDGF108991051021008001001011MA1999999092741MD1999999+0061REMSYN070AAXX  21184 83182 32597 80911 10320 20132 39274 40080 85201 333 58006;
0156831820999992006012212004-11300-041867FM-12+074799999V0201401N004612200019N0100001N1+02561+01821101291ADDGF102991011011012501001011KA1240N+01781MA1999999093171MD1999999-0011REMSYN076AAXX  22124 83182 32697 21409 10256 20182 39317 40129 81101 333 20178 59001;
0137831820999992006012218004-11300-041867FM-12+074799999V0201401N002612200019N0100001N1+03241+01211100751ADDGF102991021021008001001001MA1999999092721MD1999999-0021REMSYN070AAXX  22184 83182 32597 21405 10324 20121 39272 40075 82200 333 59002;
0156831820999992006012312004-11300-041867FM-12+074799999V0200901N004112200019N0100001N1+02561+01701101241ADDGF101991011011012501001001KA1240N+01821MA1999999093121MD1999999-0051REMSYN076AAXX  23124 83182 32697 10908 10256 20170 39312 40124 81100 333 20182 59005;
0137831820999992006012318004-11300-041867FM-12+074799999V0200501N002112200019N0100001N1+03241+01101100631ADDGF102991021021008001001001MA1999999092611MD1999999-0111REMSYN070AAXX  23184 83182 32597 20504 10324 20110 39261 40063 82200 333 59011;
0178831820999992006012400004-11300-041867FM-12+074799999V0201401N003112200019N0010001N1+02621+01471100881ADDGA1001+999999999GF100991001001999999001001KA1240M+03381MA1999999092811MD1999999-0091REMSYN082AAXX  24004 83182 32994 01406 10262 20147 39281 40088 333 10338 29046 55111 59009;
0156831820999992006012412004-11300-041867FM-12+074799999V0201401N004612200019N0100001N1+02611+01631101201ADDGF102991011001017501041011KA1240N+01981MA1999999093101MD1999999-0021REMSYN076AAXX  24124 83182 32797 21409 10261 20163 39310 40120 81041 333 20198 59002;
0137831820999992006012418004-11300-041867FM-12+074799999V0201401N003112200019N0100001N1+03331+01481100691ADDGF104991031021008001041001MA1999999092701MD1999999+0091REMSYN070AAXX  24184 83182 32597 41406 10333 20148 39270 40069 83240 333 58009;
0178831820999992006012500004-11300-041867FM-12+074799999V02099999999992200019N0010001N1+02581+01661100981ADDGA1001+999999999GF100991001001999999001001KA1240M+03381MA1999999092901MD1999999-0091REMSYN082AAXX  25004 83182 32994 014// 10258 20166 39290 40098 333 10338 29050 55113 59009;
0156831820999992006012512004-11300-041867FM-12+074799999V0201401N004112200019N0100001N1+02681+01811101271ADDGF101991011001017501041001KA1240N+02001MA1999999093181MD1999999+0081REMSYN076AAXX  25124 83182 32797 11408 10268 20181 39318 40127 81040 333 20200 58008;
0137831820999992006012518004-11300-041867FM-12+074799999V0200901N002612200019N0100001N1+03481+01191100781ADDGF102991011021008001041011MA1999999092801MD1999999+0101REMSYN070AAXX  25184 83182 32597 20905 10348 20119 39280 40078 81241 333 58010;
0168831820999992006012600004-11300-041867FM-12+074799999V0201401N002612200019N0010001N1+02671+01591101111ADDGF101991001001999999001011KA1240M+03601MA1999999093041MD1999999+0141REMSYN088AAXX  26004 83182 32994 11405 10267 20159 39304 40111 80001 333 10360 29047 55113 58014;
0156831820999992006012612004-11300-041867FM-12+074799999V0201401N002119999999N0100001N1+02881+01731101121ADDGF108991001001999999001041KA1240N+01981MA1999999093101MD1999999-0081REMSYN076AAXX  26124 83182 32997 81404 10288 20173 39310 40112 80004 333 20198 59008;
0137831820999992006012618004-11300-041867FM-12+074799999V0200901N003612200019N0100001N1+03661+01071100581ADDGF108991021021008001001011MA1999999092661MD1999999-0141REMSYN070AAXX  26184 83182 32597 80907 10366 20107 39266 40058 82201 333 59014;
0168831820999992006012700004-11300-041867FM-12+074799999V0200901N005119999999N0010001N1+02761+01531100971ADDGF108991001001999999001011KA1240M+03701MA1999999092961MD1999999-0081REMSYN088AAXX  27004 83182 32994 80910 10276 20153 39296 40097 80001 333 10370 29041 55109 59008;
0156831820999992006012712004-11300-041867FM-12+074799999V0201401N002619999999N0100001N1+02761+01721101241ADDGF108991001001999999001011KA1240N+02101MA1999999093191MD1999999+0091REMSYN076AAXX  27124 83182 32997 81405 10276 20172 39319 40124 80001 333 20210 58009;
0137831820999992006012718004-11300-041867FM-12+074799999V0200901N002612200019N0100001N1+03501+01381100641ADDGF108991021021008001001011MA1999999092721MD1999999+0061REMSYN070AAXX  27184 83182 32597 80905 10350 20138 39272 40064 82201 333 58006;
0168831820999992006012800004-11300-041867FM-12+074799999V0200901N002619999999N0100001N1+02621+01591101001ADDGF108991001001999999001011KA1240M+03541MA1999999092951MD1999999+0011REMSYN088AAXX  28004 83182 32997 80905 10262 20159 39295 40100 80001 333 10354 29047 55079 58001;
0156831820999992006012812004-11300-041867FM-12+074799999V0200901N003619999999N0100001N1+02681+01701101271ADDGF108991001001999999001011KA1240N+01981MA1999999093181MD1999999-0011REMSYN076AAXX  28124 83182 32997 80907 10268 20170 39318 40127 80001 333 20198 59001;
0137831820999992006012818004-11300-041867FM-12+074799999V0201801N003112200019N0100001N1+03431+01371100711ADDGF102991021021008001001001MA1999999092741MD1999999+0021REMSYN070AAXX  28184 83182 32597 21806 10343 20137 39274 40071 82200 333 58002;
0137831820999992006012918004-11300-041867FM-12+074799999V0201801N003112200019N0100001N1+03361+01201100551ADDGF103991031021008001001001MA1999999092571MD1999999-0171REMSYN070AAXX  29184 83182 32597 31806 10336 20120 39257 40055 83200 333 59017;
0156831820999992006013012004-11300-041867FM-12+074799999V0200901N002119999999N0100001N1+02561+01671101151ADDGF108991001001999999001011KA1240N+01921MA1999999093041MD1999999+0021REMSYN076AAXX  30124 83182 32997 80904 10256 20167 39304 40115 80001 333 20192 58002;
0137831820999992006013018004-11300-041867FM-12+074799999V0200901N002612200019N0100001N1+03381+01431100671ADDGF108991021021008001001011MA1999999092601MD1999999-0031REMSYN070AAXX  30184 83182 32597 80905 10338 20143 39260 40067 82201 333 59003;
0168831820999992006013100004-11300-041867FM-12+074799999V0200901N004119999999N0010001N1+02711+01671100801ADDGF108991001001999999001011KA1240M+03441MA1999999092751MD1999999-0021REMSYN088AAXX  31004 83182 32994 80908 10271 20167 39275 40080 80001 333 10344 29049 55110 59002;
0156831820999992006013112004-11300-041867FM-12+074799999V0200901N003610075019N0100001N1+02681+01701101081ADDGF108991051021008001001011KA1240N+01981MA1999999093031MD1999999-0011REMSYN076AAXX  31124 83182 32597 80907 10268 20170 39303 40108 85201 333 20198 59001;
0137831820999992006013118004-11300-041867FM-12+074799999V0201401N003112200019N0100001N1+03421+01471100521ADDGF103991031021008001001001MA1999999092581MD1999999-0021REMSYN070AAXX  31184 83182 32597 31406 10342 20147 39258 40052 83200 333 59002;
0178831820999992006020100004-11300-041867FM-12+074799999V0200901N003612200019N0010001N1+02611+01601100821ADDGA1001+999999999GF100991001001999999001001KA1240M+03441MA1999999092771MD1999999+0021REMSYN082AAXX  01004 83182 32994 00907 10261 20160 39277 40082 333 10344 29048 55114 58002;
0156831820999992006020112004-11300-041867FM-12+074799999V0200901N005712200019N0100001N1+02711+01671101041ADDGF108991041021008001001011KA1240N+02081MA1999999092971MD1999999-0061REMSYN076AAXX  01124 83182 32597 80911 10271 20167 39297 40104 84201 333 20208 59006;
0137831820999992006020118004-11300-041867FM-12+074799999V0201401N004112200019N0100001N1+03401+01241100521ADDGF102991021021008001001001MA1999999092561MD1999999-0021REMSYN070AAXX  01184 83182 32597 21408 10340 20124 39256 40052 82200 333 59002;
0178831820999992006020200004-11300-041867FM-12+074799999V0201401N002112200019N0010001N1+02601+01451100801ADDGA1001+999999999GF100991001001999999001001KA1240M+03461MA1999999092751MD1999999-0021REMSYN082AAXX  02004 83182 32994 01404 10260 20145 39275 40080 333 10346 29044 55115 59002;
0156831820999992006020212004-11300-041867FM-12+074799999V0200901N003612200019N0100001N1+02601+01511101111ADDGF108991011011012501001011KA1240N+01841MA1999999093021MD1999999+0051REMSYN076AAXX  02124 83182 32697 80907 10260 20151 39302 40111 81101 333 20184 58005;
0137831820999992006020218004-11300-041867FM-12+074799999V0201401N004112200019N0100001N1+03241+01101100671ADDGF108991021021008001001011MA1999999092661MD1999999+0101REMSYN070AAXX  02184 83182 32597 81408 10324 20110 39266 40067 82201 333 58010;
0168831820999992006020300004-11300-041867FM-12+074799999V0200901N003619999999N0010001N1+02581+01261100881ADDGF108991001001999999001011KA1240M+03301MA1999999092811MD1999999+0061REMSYN088AAXX  03004 83182 32994 80907 10258 20126 39281 40088 80001 333 10330 29042 55113 58006;
0156831820999992006020312004-11300-041867FM-12+074799999V0200901N004610075019N0100001N1+02621+01811101071ADDGF108991051021008001001011KA1240N+01921MA1999999092981MD1999999-0041REMSYN076AAXX  03124 83182 32597 80909 10262 20181 39298 40107 85201 333 20192 59004;
0137831820999992006020318004-11300-041867FM-12+074799999V0201401N002612200019N0100001N1+03281+01241100511ADDGF108991031021008001001011MA1999999092521MD1999999-0141REMSYN070AAXX  03184 83182 32597 81405 10328 20124 39252 40051 83201 333 59014;
0168831820999992006020400004-11300-041867FM-12+074799999V0200901N003112200019N0010001N1+02551+01271100701ADDGF108991011001017501051011KA1240M+03521MA1999999092651MD1999999-0161REMSYN088AAXX  04004 83182 32794 80906 10255 20127 39265 40070 81051 333 10352 29046 55102 59016;
0137831820999992006020418004-11300-041867FM-12+074799999V0201401N004110450019N0100001N1+03181+01531100521ADDGF108991031021008001041011MA1999999092511MD1999999-0011REMSYN070AAXX  04184 83182 32597 81408 10318 20153 39251 40052 83241 333 59001;
0168831820999992006020500004-11300-041867FM-12+074799999V0200901N002612200019N0010001N1+02511+01331100741ADDGF108991011001017501041011KA1240M+03231MA1999999092651MD1999999+0001REMSYN088AAXX  05004 83182 32794 80905 10251 20133 39265 40074 81041 333 10323 29048 55103 58000;
0156831820999992006020512004-11300-041867FM-12+074799999V0201401N005110075019N0100001N1+02481+01801101171ADDGF108991051051008001051011KA1240N+02021MA1999999093041MD1999999+0081REMSYN076AAXX  05124 83182 32597 81410 10248 20180 39304 40117 85551 333 20202 58008;
0137831820999992006020518004-11300-041867FM-12+074799999V0201401N002612200019N0100001N1+03241+01361100581ADDGF108991041021008001001011MA1999999092561MD1999999+0051REMSYN070AAXX  05184 83182 32597 81405 10324 20136 39256 40058 84201 333 58005;
0168831820999992006020600004-11300-041867FM-12+074799999V0200901N003612200019N0010001N1+02661+01371100811ADDGF108991021001017501051011KA1240M+03301MA1999999092731MD1999999+0081REMSYN088AAXX  06004 83182 32794 80907 10266 20137 39273 40081 82051 333 10330 29047 55079 58008;
0156831820999992006020612004-11300-041867FM-12+074799999V0200901N002610450019N0100001N1+02641+01661101061ADDGF108991021021008001051011KA1240N+02041MA1999999092991MD1999999-0051REMSYN076AAXX  06124 83182 32597 80905 10264 20166 39299 40106 82251 333 20204 59005;
0137831820999992006020618004-11300-041867FM-12+074799999V0200501N003111050019N0100001N1+03201+01551100711ADDGF105991021021008001041011MA1999999092561MD1999999+0001REMSYN070AAXX  06184 83182 32597 50506 10320 20155 39256 40071 82241 333 58000;
0213831820999992006020700004-11300-041867FM-12+074799999V0202301N003110042019N0010001N1+02131+02061101121ADDAA106007191AY161061AY221061GF108991051031004501021999KA1240M+03251MA1999999092971MD1999999+0241MW1611REMSYN100AAXX  07004 83182 21494 82306 10213 20206 39297 40112 76162 8532/ 333 10325 29070 55087 58024 60071;
0201831820999992006020712004-11300-041867FM-12+074799999V0200501N001510450019N0100001N1+02401+01971101181ADDAA124029091AY161061AY261061GF106991021031008001041011KA1240N+02021MA1999999092961MD1999999-0031MW1031REMSYN088AAXX  07124 83182 21597 60503 10240 20197 39296 40118 70366 82341 333 20202 59003 60294;
0165831820999992006020718004-11300-041867FM-12+074799999V0202701N002110075019N0100001N1+02881+01911100601ADDAY121061AY221061GF108991051031008001021011MA1999999092521MD1999999-0011MW1161REMSYN076AAXX  07184 83182 31597 82704 10288 20191 39252 40060 71622 85321 333 59001;
0213831820999992006020800004-11300-041867FM-12+074799999V0200901N002610450019N0010001N1+02151+02001101111ADDAA106015091AY161061AY221061GF108991021031008001021999KA1240M+03181MA1999999092921MD1999999-0051MW1131REMSYN100AAXX  08004 83182 21594 80905 10215 20200 39292 40111 71362 8232/ 333 10318 29079 55058 59005 60151;
0173831820999992006020812004-11300-041867FM-12+074799999V0200901N002110450019N0100001N1+02621+01881101191ADDAA124015091GF108991011021008001051011KA1240N+01941MA1999999093031MD1999999+0071REMSYN082AAXX  08124 83182 22597 80904 10262 20188 39303 40119 81251 333 20194 58007 60154;
0137831820999992006020818004-11300-041867FM-12+074799999V0203201N003110450019N0100001N1+02751+01901100811ADDGF108991031031008001021011MA1999999092671MD1999999+0151REMSYN070AAXX  08184 83182 32597 83206 10275 20190 39267 40081 83321 333 58015;
0213831820999992006020900004-11300-041867FM-12+074799999V0201401N002610450019N0100001N1+02151+01961101021ADDAA106024991AY191061AY221061GF108991011021008001011011KA1240M+02981MA1999999092871MD1999999-0051MW1021REMSYN100AAXX  09004 83182 21597 81405 10215 20196 39287 40102 70292 81211 333 10298 29076 55075 59005 60251;
0173831820999992006020912004-11300-041867FM-12+074799999V0200901N001510450019N0100001N1+02551+02051101411ADDAA124024991GF108991011011012501011011KA1240N+02011MA1999999093211MD1999999+0181REMSYN082AAXX  09124 83182 22697 80903 10255 20205 39321 40141 81111 333 20201 58018 60254;
0137831820999992006020918004-11300-041867FM-12+074799999V0200501N001512200019N0100001N1+03251+01871100741ADDGF108991031021008001001011MA1999999092701MD1999999+0031REMSYN070AAXX  09184 83182 32597 80503 10325 20187 39270 40074 83201 333 58003;
0168831820999992006021000004-11300-041867FM-12+074799999V0200901N003112200019N0010001N1+02671+01851100941ADDGF108991021001017501021011KA1240M+03341MA1999999092861MD1999999-0011REMSYN088AAXX  10004 83182 32794 80906 10267 20185 39286 40094 82021 333 10334 29060 55/// 59001;
0156831820999992006021012004-11300-041867FM-12+074799999V0200901N003110450019N0100001N1+02591+01861101271ADDGF108991021021008001031011KA1240N+02051MA1999999093181MD1999999-0031REMSYN076AAXX  10124 83182 32597 80906 10259 20186 39318 40127 82231 333 20205 59003;
0137831820999992006021018004-11300-041867FM-12+074799999V0200501N001012200019N0100001N1+03141+01771100771ADDGF108991031021008001001011MA1999999092751MD1999999+0051REMSYN070AAXX  10184 83182 32597 80502 10314 20177 39275 40077 83201 333 58005;
0196831820999992006021100004-11300-041867FM-12+074799999V0203201N004110450019N0010001N1+02591+01911101021ADDAY121061AY221061GF108991021031008001051011KA1240M+03271MA1999999092941MD1999999+0081MW1131REMSYN094AAXX  11004 83182 31594 83208 10259 20191 39294 40102 71322 82351 333 10327 29060 55109 58008;
0156831820999992006021112004-11300-041867FM-12+074799999V0200501N003112200019N0100001N1+02671+02081101151ADDGF108991011011012501001011KA1240N+02101MA1999999093071MD1999999-0111REMSYN076AAXX  11124 83182 32697 80506 10267 20208 39307 40115 81101 333 20210 59011;
0137831820999992006021118004-11300-041867FM-12+074799999V0202301N003610450019N0100001N1+03051+01861100731ADDGF108991031031008001021999MA1999999092701MD1999999-0051REMSYN070AAXX  11184 83182 32597 82307 10305 20186 39270 40073 8332/ 333 59005;
0213831820999992006021200004-11300-041867FM-12+074799999V0200501N001510042019N0010001N1+01991+01801101331ADDAA106018091AY161061AY221061GF108991051031004501021999KA1240M+03161MA1999999093141MD1999999+0201MW1951REMSYN100AAXX  12004 83182 21494 80503 10199 20180 39314 40133 79562 8532/ 333 10316 29074 55074 58020 60181;
0201831820999992006021212004-11300-041867FM-12+074799999V0200901N003110450019N0100001N1+02471+02041101351ADDAA124018091AY161061AY221061GF108991041021008001031011KA1240N+01781MA1999999093121MD1999999+0051MW1031REMSYN088AAXX  12124 83182 21597 80906 10247 20204 39312 40135 70362 84231 333 20178 58005 60184;
0182831820999992006021218004-11300-041867FM-12+074799999V0201401N002110450019N0100001N1+02841+01911100861ADDAA106001091AY161061AY221061GF108991031031008001021999MA1999999092711MD1999999+0011MW1021REMSYN082AAXX  12184 83182 21597 81404 10284 20191 39271 40086 70262 8332/ 333 58001 60011;
0168831820999992006021300004-11300-041867FM-12+074799999V0200501N000510450019N0010001N1+02431+02121101111ADDGF108991011051008001051011KA1240M+02961MA1999999092971MD1999999-0171REMSYN088AAXX  13004 83182 32594 80501 10243 20212 39297 40111 81551 333 10296 29075 55084 59017;
0173831820999992006021312004-11300-041867FM-12+074799999V0201401N003110450019N0100001N1+02461+01901101291ADDAA124001091GF108991041051008001021999KA1240N+02101MA1999999093141MD1999999+0021REMSYN082AAXX  13124 83182 22597 81406 10246 20190 39314 40129 8452/ 333 20210 58002 60014;
0137831820999992006021318004-11300-041867FM-12+074799999V0202301N001510450019N0100001N1+02981+01861100841ADDGF108991031021008001011011MA1999999092771MD1999999+0061REMSYN070AAXX  13184 83182 32597 82303 10298 20186 39277 40084 83211 333 58006;
0168831820999992006021400004-11300-041867FM-12+074799999V0201401N001010450019N0010001N1+02341+02001101021ADDGF108991031051008001021999KA1240M+03031MA1999999092871MD1999999-0101REMSYN088AAXX  14004 83182 32594 81402 10234 20200 39287 40102 8352/ 333 10303 29071 55042 59010;
0156831820999992006021412004-11300-041867FM-12+074799999V0200901N003112200019N0100001N1+02531+01821101231ADDGF108991021011008001001011KA1240N+01901MA1999999093081MD1999999-0061REMSYN076AAXX  14124 83182 32597 80906 10253 20182 39308 40123 82101 333 20190 59006;
0137831820999992006021418004-11300-041867FM-12+074799999V0201401N001512200019N0100001N1+03161+01471100721ADDGF108991041021008001001011MA1999999092681MD1999999-0091REMSYN070AAXX  14184 83182 32597 81403 10316 20147 39268 40072 84201 333 59009;
0168831820999992006021500004-11300-041867FM-12+074799999V0203201N003110075019N0010001N1+02521+02051100991ADDGF108991071051008001001011KA1240M+03231MA1999999092871MD1999999+0001REMSYN088AAXX  15004 83182 32594 83206 10252 20205 39287 40099 87501 333 10323 29063 55109 58000;
0201831820999992006021512004-11300-041867FM-12+074799999V0203201N001510450019N0100001N1+02301+02031101301ADDAA124000891AY161061AY221061GF108991031051008001031011KA1240N+02101MA1999999093131MD1999999+0051MW1021REMSYN088AAXX  15124 83182 21597 83203 10230 20203 39313 40130 70262 83531 333 20210 58005 69974;
0137831820999992006021518004-11300-041867FM-12+074799999V0203201N002110450019N0100001N1+02901+01811100761ADDGF108991031021008001021011MA1999999092701MD1999999+0021REMSYN070AAXX  15184 83182 32597 83204 10290 20181 39270 40076 83221 333 58002;
0196831820999992006021600004-11300-041867FM-12+074799999V0200901N001510450019N0010001N1+02481+02031100951ADDAY121061AY221061GF108991031031004501021999KA1240M+03101MA1999999092811MD1999999-0061MW1131REMSYN094AAXX  16004 83182 31494 80903 10248 20203 39281 40095 71322 8332/ 333 10310 29072 55067 59006;
0201831820999992006021612004-11300-041867FM-12+074799999V02099999999990075019N0100001N1+02481+01961101211ADDAA124027991AY161061AY221061GF108991051021008001041011KA1240N+02001MA1999999093081MD1999999-0051MW1021REMSYN088AAXX  16124 83182 21597 809// 10248 20196 39308 40121 70262 85241 333 20200 59005 60284;
0137831820999992006021618004-11300-041867FM-12+074799999V0200901N003612200019N0100001N1+02971+01881100701ADDGF108991041021008001001011MA1999999092651MD1999999-0051REMSYN070AAXX  16184 83182 32597 80907 10297 20188 39265 40070 84201 333 59005;
0168831820999992006021700004-11300-041867FM-12+074799999V0200901N003112200019N0010001N1+02371+01771100951ADDGF108991031001017501031011KA1240M+03041MA1999999092811MD1999999+0001REMSYN088AAXX  17004 83182 32794 80906 10237 20177 39281 40095 83031 333 10304 29065 55090 58000;
0175831820999992006021712004-11300-041867FM-12+074799999V0201401N003110075019N0100001N1+02461+01831101341ADDGF108991999051008001001001KA1240N+01831MA1999999093161MD1999999+0081REMSYN076AAXX  17124 83182 32597 81406 10246 20183 39316 40134 87500 333 20183 58008;EQDQ01+000072SCOTLC
0137831820999992006021718004-11300-041867FM-12+074799999V0200901N002610075019N0100001N1+03021+01551100791ADDGF106991061021008001001001MA1999999092671MD1999999+0021REMSYN070AAXX  17184 83182 32597 60905 10302 20155 39267 40079 86200 333 58002;
0168831820999992006021800004-11300-041867FM-12+074799999V0200901N003112200019N0010001N1+02441+01561100941ADDGF101991011021008001001001KA1240M+03061MA1999999092811MD1999999+0001REMSYN088AAXX  18004 83182 32594 10906 10244 20156 39281 40094 81200 333 10306 29056 55109 58000;
0156831820999992006021812004-11300-041867FM-12+074799999V0200901N003112200019N0100001N1+02551+01981101291ADDGF108991021011012501001011KA1240N+01861MA1999999093151MD1999999-0011REMSYN076AAXX  18124 83182 32697 80906 10255 20198 39315 40129 82101 333 20186 59001;
0137831820999992006021818004-11300-041867FM-12+074799999V0200901N002110450019N0100001N1+03101+01621100821ADDGF108991031021008001041011MA1999999092751MD1999999+0081REMSYN070AAXX  18184 83182 32597 80904 10310 20162 39275 40082 83241 333 58008;
0168831820999992006021900004-11300-041867FM-12+074799999V0200901N001519999999N0010001N1+02591+01731101001ADDGF108991001001999999001011KA1240M+03171MA1999999092901MD1999999+0011REMSYN088AAXX  19004 83182 32994 80903 10259 20173 39290 40100 80001 333 10317 29058 55110 58001;
0156831820999992006021912004-11300-041867FM-12+074799999V0200901N004110450019N0100001N1+02541+01881101431ADDGF108991021021008001051011KA1240N+02121MA1999999093301MD1999999+0151REMSYN076AAXX  19124 83182 32597 80908 10254 20188 39330 40143 82251 333 20212 58015;
0137831820999992006021918004-11300-041867FM-12+074799999V0200901N004110450019N0100001N1+03181+01771100831ADDGF106991021021008001041011MA1999999092811MD1999999+0061REMSYN070AAXX  19184 83182 32597 60908 10318 20177 39281 40083 82241 333 58006;
0168831820999992006022000004-11300-041867FM-12+074799999V0200901N002612200019N0010001N1+02531+01911101011ADDGF102991001001999999001011KA1240M+03221MA1999999092911MD1999999-0011REMSYN088AAXX  20004 83182 32994 20905 10253 20191 39291 40101 80001 333 10322 29047 55091 59001;
0156831820999992006022012004-11300-041867FM-12+074799999V0200901N003110450019N0100001N1+02681+01941101241ADDGF108991031021008001031011KA1240N+02061MA1999999093141MD1999999-0161REMSYN076AAXX  20124 83182 32597 80906 10268 20194 39314 40124 83231 333 20206 59016;
0137831820999992006022018004-11300-041867FM-12+074799999V0200901N004612200019N0100001N1+03121+01711100751ADDGF108991041021008001001011MA1999999092721MD1999999-0091REMSYN070AAXX  20184 83182 32597 80909 10312 20171 39272 40075 84201 333 59009;
0168831820999992006022100004-11300-041867FM-12+074799999V0200901N002119999999N0010001N1+02491+01611100861ADDGF108991001001999999001011KA1240M+03171MA1999999092791MD1999999-0121REMSYN088AAXX  21004 83182 32994 80904 10249 20161 39279 40086 80001 333 10317 29056 55106 59012;
0156831820999992006022112004-11300-041867FM-12+074799999V0200501N002112200019N0100001N1+02481+01701101151ADDGF101991001001999999001011KA1240N+01821MA1999999093021MD1999999-0121REMSYN076AAXX  21124 83182 32997 10504 10248 20170 39302 40115 80001 333 20182 59012;
0137831820999992006022118004-11300-041867FM-12+074799999V0202301N001512200019N0100001N1+03211+01471100781ADDGF102991011021008001001011MA1999999092561MD1999999-0161REMSYN070AAXX  21184 83182 32597 22303 10321 20147 39256 40078 81201 333 59016;
0178831820999992006022200004-11300-041867FM-12+074799999V0200501N001012200019N0010001N1+02581+01491100791ADDGA1001+999999999GF100991001001999999001001KA1240M+03261MA1999999092711MD1999999-0081REMSYN082AAXX  22004 83182 32994 00502 10258 20149 39271 40079 333 10326 29050 55115 59008;
0156831820999992006022212004-11300-041867FM-12+074799999V0201401N001012200019N0100001N1+02711+01841101121ADDGF104991041021008001001001KA1240N+01901MA1999999093051MD1999999+0031REMSYN076AAXX  22124 83182 32597 41402 10271 20184 39305 40112 84200 333 20190 58003;
0137831820999992006022218004-11300-041867FM-12+074799999V0203201N000512200019N0100001N1+03211+01601100491ADDGF108991031021008001001011MA1999999092481MD1999999-0081REMSYN070AAXX  22184 83182 32597 83201 10321 20160 39248 40049 83201 333 59008;
0168831820999992006022300004-11300-041867FM-12+074799999V0202701N001012200019N0010001N1+02741+01761100801ADDGF108991031051008001001011KA1240M+03271MA1999999092771MD1999999+0061REMSYN088AAXX  23004 83182 32594 82702 10274 20176 39277 40080 83501 333 10327 29052 55111 58006;
0156831820999992006022312004-11300-041867FM-12+074799999V0203201N001510450019N0100001N1+02501+02071101141ADDGF108991031031004501021999KA1240N+02221MA1999999093051MD1999999+0001REMSYN076AAXX  23124 83182 32497 83203 10250 20207 39305 40114 8332/ 333 20222 58000;
0137831820999992006022318004-11300-041867FM-12+074799999V0202701N003610450019N0100001N1+02451+01981100751ADDGF108991031031004501021999MA1999999092641MD1999999+0161REMSYN070AAXX  23184 83182 32497 82707 10245 20198 39264 40075 8332/ 333 58016;
0196831820999992006022400004-11300-041867FM-12+074799999V0200901N001510450019N0010001N1+02361+01971101011ADDAY121061AY221061GF108991031031008001011011KA1240M+03131MA1999999092871MD1999999+0101MW1131REMSYN094AAXX  24004 83182 31594 80903 10236 20197 39287 40101 71322 83311 333 10313 29078 55036 58010;
0201831820999992006022412004-11300-041867FM-12+074799999V0201801N004610042019N0100001N1+02071+01941101411ADDAA124019191AY161061AY221061GF108991051031004501021999KA1240N+01981MA1999999093161MD1999999+0111MW1951REMSYN088AAXX  24124 83182 21497 81809 10207 20194 39316 40141 79562 8532/ 333 20198 58011 60194;
0182831820999992006022418004-11300-041867FM-12+074799999V0201401N002110450019N0100001N1+02421+02051100931ADDAA106009991AY161061AY201061GF108991031071004501021999MA1999999092751MD1999999+0111MW1021REMSYN082AAXX  24184 83182 21497 81404 10242 20205 39275 40093 70260 8372/ 333 58011 60101;
0168831820999992006022500004-11300-041867FM-12+074799999V0201801N001510450019N0010001N1+02111+02011101071ADDGF108991021071008001021999KA1240M+02441MA1999999092811MD1999999-0061REMSYN088AAXX  25004 83182 32594 81803 10211 20201 39281 40107 8272/ 333 10244 29090 55002 59006;
0173831820999992006022512004-11300-041867FM-12+074799999V0200501N001510075019N0100001N1+02621+02141101361ADDAA124009991GF108991071021008001001011KA1240N+01931MA1999999093161MD1999999+0001REMSYN082AAXX  25124 83182 22597 80503 10262 20214 39316 40136 87201 333 20193 58000 60104;
0137831820999992006022518004-11300-041867FM-12+074799999V0201801N000510075019N0100001N1+03041+01931100661ADDGF108991071021008001001011MA1999999092591MD1999999-0161REMSYN070AAXX  25184 83182 32597 81801 10304 20193 39259 40066 87201 333 59016;
0156831820999992006022612004-11300-041867FM-12+074799999V0203601N001512200019N0100001N1+02701+02111100981ADDGF108991021021008001001011KA1240N+02121MA1999999092901MD1999999-0261REMSYN076AAXX  26124 83182 32597 83603 10270 20211 39290 40098 82201 333 20212 59026;
0137831820999992006022618004-11300-041867FM-12+074799999V0200901N000510450019N0100001N1+03251+01871100471ADDGF108991041051008001021011MA1999999092501MD1999999-0091REMSYN070AAXX  26184 83182 32597 80901 10325 20187 39250 40047 84521 333 59009;
0156831820999992006022712004-11300-041867FM-12+074799999V0201401N001012200019N0100001N1+02771+02051101111ADDGF106991031021008001001011KA1240N+02061MA1999999093021MD1999999+0121REMSYN076AAXX  27124 83182 32597 61402 10277 20205 39302 40111 83201 333 20206 58012;
0137831820999992006022718004-11300-041867FM-12+074799999V0200901N002111050019N0100001N1+03191+01481100471ADDGF106991021021008001001021MA1999999092481MD1999999-0021REMSYN070AAXX  27184 83182 32597 60904 10319 20148 39248 40047 82202 333 59002;
0156831820999992006022812004-11300-041867FM-12+074799999V0201401N003110075019N0100001N1+02711+02071101221ADDGF108991051021008001001011KA1240N+02011MA1999999093101MD1999999+0081REMSYN076AAXX  28124 83182 32597 81406 10271 20207 39310 40122 85201 333 20201 58008;
0137831820999992006022818004-11300-041867FM-12+074799999V0201801N002610075019N0100001N1+03221+01571100631ADDGF108991061021008001001011MA1999999092611MD1999999+0131REMSYN070AAXX  28184 83182 32597 81805 10322 20157 39261 40063 86201 333 58013;
0156831820999992006030112004-11300-041867FM-12+074799999V0201401N002112200019N0100001N1+02401+01821101381ADDGF102991011011012501001011KA1240N+01741MA1999999093221MD1999999+0121REMSYN076AAXX  01124 83182 32697 21404 10240 20182 39322 40138 81101 333 20174 58012;
0137831820999992006030118004-11300-041867FM-12+074799999V0201801N003112200019N0100001N1+03121+01251100821ADDGF108991011021008001001011MA1999999092751MD1999999+0141REMSYN070AAXX  01184 83182 32597 81806 10312 20125 39275 40082 81201 333 58014;
0168831820999992006030200004-11300-041867FM-12+074799999V0201401N002119999999N0010001N1+02351+01631101061ADDGF108991001001999999001011KA1240M+03161MA1999999092911MD1999999+0151REMSYN088AAXX  02004 83182 32994 81404 10235 20163 39291 40106 80001 333 10316 29058 55112 58015;
0137831820999992006030218004-11300-041867FM-12+074799999V0202301N002612200019N0100001N1+03191+01311100821ADDGF108991021021008001001011MA1999999092771MD1999999+0021REMSYN070AAXX  02184 83182 32597 82305 10319 20131 39277 40082 82201 333 58002;
0168831820999992006030300004-11300-041867FM-12+074799999V0200901N002619999999N0010001N1+02501+01321100941ADDGF108991001001999999001011KA1240M+03241MA1999999092831MD1999999-0091REMSYN088AAXX  03004 83182 32994 80905 10250 20132 39283 40094 80001 333 10324 29050 55109 59009;
0156831820999992006030312004-11300-041867FM-12+074799999V0200501N001512200019N0100001N1+02511+01781101351ADDGF102991021021008001001001KA1240N+01721MA1999999093211MD1999999-0041REMSYN076AAXX  03124 83182 32597 20503 10251 20178 39321 40135 82200 333 20172 59004;
0156831820999992006030318004-11300-041867FM-12+074799999V0201401N003119999999N0100001N1+03231+01241100781ADDGF106991999011008001001001MA1999999092741MD1999999-0031REMSYN070AAXX  03184 83182 32597 61406 10323 20124 39274 40078 81100 333 59003;EQDQ01+000012SCOTLC
0178831820999992006030400004-11300-041867FM-12+074799999V0201401N002112200019N0010001N1+02481+01101101001ADDGA1001+999999999GF100991001001999999001001KA1240M+03251MA1999999092881MD1999999+0051REMSYN082AAXX  04004 83182 32994 01404 10248 20110 39288 40100 333 10325 29044 55110 58005;
0156831820999992006030412004-11300-041867FM-12+074799999V0201401N002612200019N0100001N1+02581+01851101371ADDGF108991021021008001001011KA1240N+01771MA1999999093251MD1999999+0041REMSYN076AAXX  04124 83182 32597 81405 10258 20185 39325 40137 82201 333 20177 58004;
0137831820999992006030418004-11300-041867FM-12+074799999V0201401N002112200019N0100001N1+03301+01551100801ADDGF108991031021008001001011MA1999999092701MD1999999+0031REMSYN070AAXX  04184 83182 32597 81404 10330 20155 39270 40080 83201 333 58003;
0168831820999992006030500004-11300-041867FM-12+074799999V0201401N003112200019N0010001N1+02761+01121100981ADDGF108991021051008001001011KA1240M+03331MA1999999092921MD1999999+0041REMSYN088AAXX  05004 83182 32594 81406 10276 20112 39292 40098 82501 333 10333 29042 55110 58004;
0156831820999992006030512004-11300-041867FM-12+074799999V0200901N002110075019N0100001N1+02741+01871101331ADDGF106991061021008001001001KA1240N+01961MA1999999093271MD1999999+0021REMSYN076AAXX  05124 83182 32597 60904 10274 20187 39327 40133 86200 333 20196 58002;
0137831820999992006030518004-11300-041867FM-12+074799999V0201401N002110450019N0100001N1+03301+01501100731ADDGF108991021021008001041011MA1999999092751MD1999999-0021REMSYN070AAXX  05184 83182 32597 81404 10330 20150 39275 40073 82241 333 59002;
0168831820999992006030600004-11300-041867FM-12+074799999V0201801N002110450019N0010001N1+02601+01821100991ADDGF108991021021008001051011KA1240M+03381MA1999999092931MD1999999+0011REMSYN088AAXX  06004 83182 32594 81804 10260 20182 39293 40099 82251 333 10338 29054 55107 58001;
0201831820999992006030612004-11300-041867FM-12+074799999V0203201N002110450019N0100001N1+02511+02181101291ADDAA124003091AY161061AY221061GF108991031031008001021999KA1240N+02101MA1999999093171MD1999999-0101MW1021REMSYN088AAXX  06124 83182 21597 83204 10251 20218 39317 40129 70262 8332/ 333 20210 59010 60034;
0137831820999992006030618004-11300-041867FM-12+074799999V0203601N004610450019N0100001N1+02681+02021100941ADDGF108991031031008001021999MA1999999092831MD1999999+0081REMSYN070AAXX  06184 83182 32597 83609 10268 20202 39283 40094 8332/ 333 58008;
0196831820999992006030700004-11300-041867FM-12+074799999V0203201N002110450019N0010001N1+02451+02121101181ADDAY121061AY221061GF108991031031008001021999KA1240M+03041MA1999999093051MD1999999+0121MW1131REMSYN094AAXX  07004 83182 31594 83204 10245 20212 39305 40118 71322 8332/ 333 10304 29078 55060 58012;
0156831820999992006030712004-11300-041867FM-12+074799999V0203201N002110075019N0100001N1+02661+02021101201ADDGF108991061021008001041011KA1240N+02061MA1999999093081MD1999999-0091REMSYN076AAXX  07124 83182 32597 83204 10266 20202 39308 40120 86241 333 20206 59009;
0137831820999992006030718004-11300-041867FM-12+074799999V0203601N004110450019N0100001N1+03001+01941100671ADDGF108991021031008001041011MA1999999092631MD1999999-0201REMSYN070AAXX  07184 83182 32597 83608 10300 20194 39263 40067 82341 333 59020;
0168831820999992006030800004-11300-041867FM-12+074799999V0201401N003110450019N0010001N1+02311+01971100931ADDGF108991011011012501021999KA1240M+03151MA1999999092821MD1999999-0231REMSYN088AAXX  08004 83182 32694 81406 10231 20197 39282 40093 8112/ 333 10315 29070 55073 59023;
0201831820999992006030812004-11300-041867FM-12+074799999V0201801N002110042019N0100001N1+02231+02081101291ADDAA124001091AY161061AY261061GF108991081071004501999999KA1240N+02041MA1999999093081MD1999999+0001MW1611REMSYN088AAXX  08124 83182 21497 81804 10223 20208 39308 40129 76166 887// 333 20204 58000 60014;
0182831820999992006030818004-11300-041867FM-12+074799999V0200901N002110075019N0100001N1+02561+02081100781ADDAA106001091AY161061AY221061GF108991061051008001021999MA1999999092651MD1999999+0021MW1021REMSYN082AAXX  08184 83182 21597 80904 10256 20208 39265 40078 70262 8652/ 333 58002 60011;
0168831820999992006030900004-11300-041867FM-12+074799999V0201401N000510075019N0010001N1+02301+02111101021ADDGF108991071051008001021999KA1240M+03141MA1999999092821MD1999999+0001REMSYN088AAXX  09004 83182 32594 81401 10230 20211 39282 40102 8752/ 333 10314 29086 55009 58000;
0156831820999992006030912004-11300-041867FM-12+074799999V0203601N003110042019N0100001N1+02071+01971101111ADDGF108991081071004501999999KA1240N+02001MA1999999092881MD1999999-0201REMSYN076AAXX  09124 83182 32497 83606 10207 20197 39288 40111 887// 333 20200 59020;
0182831820999992006030918004-11300-041867FM-12+074799999V0203201N002110450019N0100001N1+02941+01941100581ADDAA106027991AY161061AY261061GF108991031031008001061021MA1999999092521MD1999999-0131MW1021REMSYN082AAXX  09184 83182 21597 83204 10294 20194 39252 40058 70266 83362 333 59013 60281;
0213831820999992006031000004-11300-041867FM-12+074799999V0200901N002610042019N0010001N1+02171+01921101141ADDAA106001091AY161061AY261061GF108991051031004501021999KA1240M+02971MA1999999092881MD1999999+0061MW1611REMSYN100AAXX  10004 83182 21494 80905 10217 20192 39288 40114 76166 8532/ 333 10297 29080 55039 58006 60011;
0201831820999992006031012004-11300-041867FM-12+074799999V0203201N001510450019N0100001N1+02481+02131101121ADDAA124029091AY161061AY221061GF108991031021008001031011KA1240N+02051MA1999999092931MD1999999+0051MW1031REMSYN088AAXX  10124 83182 21597 83203 10248 20213 39293 40112 70362 83231 333 20205 58005 60294;
0137831820999992006031018004-11300-041867FM-12+074799999V0203201N003110450019N0100001N1+02861+02061100751ADDGF108991031041008001041011MA1999999092561MD1999999+0041REMSYN070AAXX  10184 83182 32597 83206 10286 20206 39256 40075 83441 333 58004;
0213831820999992006031100004-11300-041867FM-12+074799999V0203201N001510042019N0010001N1+02271+02011101071ADDAA106000591AY161061AY221061GF108991061031004501021999KA1240M+02881MA1999999092921MD1999999+0041MW1131REMSYN100AAXX  11004 83182 21494 83203 10227 20201 39292 40107 71362 8632/ 333 10288 29080 55062 58004 69961;
0201831820999992006031112004-11300-041867FM-12+074799999V0200901N001510450019N0100001N1+02491+02101101191ADDAA124015091AY161061AY261061GF108991031021008001061011KA1240N+01941MA1999999093031MD1999999+0101MW1021REMSYN088AAXX  11124 83182 21597 80903 10249 20210 39303 40119 70266 83261 333 20194 58010 60154;
0165831820999992006031118004-11300-041867FM-12+074799999V0202301N004610075019N0100001N1+02621+01981101251ADDAY121061AY221061GF108991051031008001021999MA1999999092621MD1999999+0061MW1151REMSYN076AAXX  11184 83182 31597 82309 10262 20198 39262 40125 71522 8532/ 333 58006;
0232831820999992006031200004-11300-041867FM-12+074799999V0203201N002610450019N0010001N1+02081+01981101241ADDAA106000091AY161061AY221061GF108991041071004501021999KA1240M+02821MA1999999093041MD1999999+0121MW1021REMSYN100AAXX  12004 83182 21494 83205 10208 20198 39304 40124 70262 8472/ 333 10282 29084 55053 58012 69911;EQDQ01  00002PRCP06
0192831820999992006031212004-11300-041867FM-12+074799999V0201401N001510075019N0100001N1+02371+02061101321ADDAA124000091GF108991071051008001021999KA1240N+01901MA1999999093081MD1999999+0051REMSYN082AAXX  12124 83182 22597 81403 10237 20206 39308 40132 8752/ 333 20190 58005 69914;EQDQ01  00002PRCP24
0137831820999992006031218004-11300-041867FM-12+074799999V0203201N001510450019N0100001N1+02821+01971100741ADDGF108991031021008001021999MA1999999092601MD1999999-0021REMSYN070AAXX  12184 83182 32597 83203 10282 20197 39260 40074 8322/ 333 59002;
0196831820999992006031300004-11300-041867FM-12+074799999V0203601N001510042019N0010001N1+02401+01991100991ADDAY121061AY221061GF108991051031004501021999KA1240M+02921MA1999999092851MD1999999-0191MW1131REMSYN094AAXX  13004 83182 31494 83603 10240 20199 39285 40099 71322 8532/ 333 10292 29075 55026 59019;
0201831820999992006031312004-11300-041867FM-12+074799999V0201401N002610450019N0010001N1+02361+02131101181ADDAA124017091AY161061AY261061GF108991031071004501021999KA1240N+02001MA1999999093021MD1999999-0061MW1021REMSYN088AAXX  13124 83182 21494 81405 10236 20213 39302 40118 70266 8372/ 333 20200 59006 60174;
0165831820999992006031318004-11300-041867FM-12+074799999V0203201N003110450019N0100001N1+02401+02031100811ADDAY121061AY221061GF108991041031008001021999MA1999999092651MD1999999+0051MW1961REMSYN076AAXX  13184 83182 31597 83206 10240 20203 39265 40081 79622 8432/ 333 58005;
0213831820999992006031400004-11300-041867FM-12+074799999V0201801N001010450019N0100001N1+02161+02041101081ADDAA106015091AY161061AY261061GF108991041071004501021999KA1240M+02801MA1999999092871MD1999999+0021MW1211REMSYN100AAXX  14004 83182 21497 81802 10216 20204 39287 40108 72166 8472/ 333 10280 29091 55010 58002 60151;
0201831820999992006031412004-11300-041867FM-12+074799999V0200901N003110450019N0100001N1+02491+02041101201ADDAA124016091AY161061AY221061GF108991021021008001031011KA1240N+02031MA1999999093001MD1999999-0021MW1021REMSYN088AAXX  14124 83182 21597 80906 10249 20204 39300 40120 70262 82231 333 20203 59002 60164;
0137831820999992006031418004-11300-041867FM-12+074799999V0201401N002110075019N0100001N1+02901+02071100721ADDGF108991051051008001021999MA1999999092631MD1999999-0021REMSYN070AAXX  14184 83182 32597 81404 10290 20207 39263 40072 8552/ 333 59002;
0213831820999992006031500004-11300-041867FM-12+074799999V0202701N000510450019N0010001N1+02171+02091101121ADDAA106005191AY161061AY221061GF108991021021008001061001KA1240M+02941MA1999999092931MD1999999+0061MW1031REMSYN100AAXX  15004 83182 21594 82701 10217 20209 39293 40112 70362 82260 333 10294 29082 55065 58006 60051;
0173831820999992006031512004-11300-041867FM-12+074799999V0201801N001010450019N0100001N1+02541+01771101291ADDAA124005191GF108991021021008001041011KA1240N+01941MA1999999093101MD1999999+0101REMSYN082AAXX  15124 83182 22597 81802 10254 20177 39310 40129 82241 333 20194 58010 60054;
0137831820999992006031518004-11300-041867FM-12+074799999V0201401N002610075019N0100001N1+02881+02001100851ADDGF108991051021008001001011MA1999999092731MD1999999+0101REMSYN070AAXX  15184 83182 32597 81405 10288 20200 39273 40085 85201 333 58010;
0156831820999992006031612004-11300-041867FM-12+074799999V0201401N003110075019N0100001N1+02381+01911101361ADDGF108991071051008001001011KA1240N+01851MA1999999093161MD1999999+0061REMSYN076AAXX  16124 83182 32597 81406 10238 20191 39316 40136 87501 333 20185 58006;
0137831820999992006031618004-11300-041867FM-12+074799999V0201401N003110075019N0100001N1+02951+01921100911ADDGF108991051021008001001011MA1999999092801MD1999999+0071REMSYN070AAXX  16184 83182 32597 81406 10295 20192 39280 40091 85201 333 58007;
0168831820999992006031700004-11300-041867FM-12+074799999V0201401N002612200019N0010001N1+02321+01891101011ADDGF108991021001017501021011KA1240M+03001MA1999999092851MD1999999-0041REMSYN088AAXX  17004 83182 32794 81405 10232 20189 39285 40101 82021 333 10300 29071 55096 59004;
0156831820999992006031712004-11300-041867FM-12+074799999V0201401N004112200019N0100001N1+02481+01851101131ADDGF102991021021008001001001KA1240N+01861MA1999999092971MD1999999-0191REMSYN076AAXX  17124 83182 32597 21408 10248 20185 39297 40113 82200 333 20186 59019;
0137831820999992006031718004-11300-041867FM-12+074799999V0201401N001512200019N0100001N1+02931+01721100701ADDGF108991031021008001001011MA1999999092611MD1999999-0191REMSYN070AAXX  17184 83182 32597 81403 10293 20172 39261 40070 83201 333 59019;
0168831820999992006031800004-11300-041867FM-12+074799999V0201401N001519999999N0010001N1+02241+01751100981ADDGF108991001001999999001011KA1240M+02961MA1999999092821MD1999999-0031REMSYN088AAXX  18004 83182 32994 81403 10224 20175 39282 40098 80001 333 10296 29066 55097 59003;
0156831820999992006031812004-11300-041867FM-12+074799999V0200901N002110075019N0100001N1+02451+02021101181ADDGF108991081051008001999999KA1240N+02001MA1999999093001MD1999999+0031REMSYN076AAXX  18124 83182 32597 80904 10245 20202 39300 40118 885// 333 20200 58003;
0137831820999992006031818004-11300-041867FM-12+074799999V0201401N003112200019N0100001N1+03081+01821100631ADDGF108991041021008001001011MA1999999092581MD1999999-0031REMSYN070AAXX  18184 83182 32597 81406 10308 20182 39258 40063 84201 333 59003;
0168831820999992006031900004-11300-041867FM-12+074799999V0201401N004112200019N0100001N1+02301+01981101021ADDGF108991021021008001001011KA1240M+03091MA1999999092871MD1999999+0051REMSYN088AAXX  19004 83182 32597 81408 10230 20198 39287 40102 82201 333 10309 29072 55061 58005;
0156831820999992006031912004-11300-041867FM-12+074799999V0200901N004610075019N0100001N1+02351+01841101061ADDGF108991081051008001999999KA1240N+01941MA1999999092871MD1999999-0131REMSYN076AAXX  19124 83182 32597 80909 10235 20184 39287 40106 885// 333 20194 59013;
0137831820999992006031918004-11300-041867FM-12+074799999V0200901N003112200019N0100001N1+02881+01731100911ADDGF108991021021008001001011MA1999999092801MD1999999+0221REMSYN070AAXX  19184 83182 32597 80906 10288 20173 39280 40091 82201 333 58022;
0196831820999992006032000004-11300-041867FM-12+074799999V0201401N002619999999N0010001N1+02251+01701101031ADDAY121061AY221061GF108991001001999999001011KA1240M+02921MA1999999092851MD1999999-0021MW1131REMSYN094AAXX  20004 83182 31994 81405 10225 20170 39285 40103 71322 80001 333 10292 29066 55040 59002;
0137831820999992006032018004-11300-041867FM-12+074799999V0200901N003610450019N0100001N1+02871+02791100881ADDGF108991041021008001031011MA1999999092771MD1999999-0031REMSYN070AAXX  20184 83182 32597 80907 10287 20279 39277 40088 84231 333 59003;
0196831820999992006032100004-11300-041867FM-12+074799999V0201401N002612200019N0100001N1+02161+01721101031ADDAY121061AY221061GF108991021031008001001011KA1240M+02921MA1999999092851MD1999999+0001MW1131REMSYN094AAXX  21004 83182 31597 81405 10216 20172 39285 40103 71322 82301 333 10292 29070 55072 58000;
0156831820999992006032112004-11300-041867FM-12+074799999V0200901N004110075019N0100001N1+02501+01841101311ADDGF108991061021008001001011KA1240N+01901MA1999999093121MD1999999+0011REMSYN076AAXX  21124 83182 32597 80908 10250 20184 39312 40131 86201 333 20190 58001;
0137831820999992006032118004-11300-041867FM-12+074799999V0200901N002112200019N0100001N1+03041+01451100881ADDGF108991021021008001001011MA1999999092791MD1999999+0021REMSYN070AAXX  21184 83182 32597 80904 10304 20145 39279 40088 82201 333 58002;
0168831820999992006032200004-11300-041867FM-12+074799999V0201401N003619999999N0010001N1+02311+01821101091ADDGF108991001001999999001011KA1240M+03061MA1999999092941MD1999999+0001REMSYN088AAXX  22004 83182 32994 81407 10231 20182 39294 40109 80001 333 10306 29084 55085 58000;
0156831820999992006032212004-11300-041867FM-12+074799999V0201401N004110075019N0100001N1+02441+01861101331ADDGF108991071051008001001011KA1240N+01891MA1999999093151MD1999999+0031REMSYN076AAXX  22124 83182 32597 81408 10244 20186 39315 40133 87501 333 20189 58003;
0137831820999992006032218004-11300-041867FM-12+074799999V0201401N003112200019N0100001N1+02931+01611100961ADDGF108991021021008001001011MA1999999092851MD1999999+0061REMSYN070AAXX  22184 83182 32597 81406 10293 20161 39285 40096 82201 333 58006;
0168831820999992006032300004-11300-041867FM-12+074799999V0200901N003110075019N0010001N1+02251+01701101181ADDGF108991061051008001001011KA1240M+02951MA1999999093001MD1999999+0061REMSYN088AAXX  23004 83182 32594 80906 10225 20170 39300 40118 86501 333 10295 29064 55081 58006;
0156831820999992006032312004-11300-041867FM-12+074799999V0201401N004110450019N0100001N1+02401+01771101401ADDGF108991021021008001051011KA1240N+01801MA1999999093201MD1999999-0051REMSYN076AAXX  23124 83182 32597 81408 10240 20177 39320 40140 82251 333 20180 59005;
0137831820999992006032318004-11300-041867FM-12+074799999V0201401N003112200019N0100001N1+02851+01671100981ADDGF108991021021008001001011MA1999999092851MD1999999+0001REMSYN070AAXX  23184 83182 32597 81406 10285 20167 39285 40098 82201 333 58000;
0168831820999992006032400004-11300-041867FM-12+074799999V0201401N002612200019N0010001N1+02181+01801101161ADDGF108991031051008001001011KA1240M+02961MA1999999092961MD1999999-0041REMSYN088AAXX  24004 83182 32594 81405 10218 20180 39296 40116 83501 333 10296 29069 55041 59004;
0156831820999992006032412004-11300-041867FM-12+074799999V0200901N005112200019N0100001N1+02541+01861101331ADDGF108991041021008001001011KA1240N+01901MA1999999093141MD1999999-0061REMSYN076AAXX  24124 83182 32597 80910 10254 20186 39314 40133 84201 333 20190 59006;
0137831820999992006032418004-11300-041867FM-12+074799999V0200501N002112200019N0100001N1+03021+01861100861ADDGF108991031021008001001011MA1999999092771MD1999999-0081REMSYN070AAXX  24184 83182 32597 80504 10302 20186 39277 40086 83201 333 59008;
0168831820999992006032500004-11300-041867FM-12+074799999V0201401N003112200019N0100001N1+02331+01921101101ADDGF108991021051008001001011KA1240M+03041MA1999999092961MD1999999+0001REMSYN088AAXX  25004 83182 32597 81406 10233 20192 39296 40110 82501 333 10304 29068 55070 58000;
0156831820999992006032512004-11300-041867FM-12+074799999V0201401N003110075019N0100001N1+02581+01971101381ADDGF108991061021008001001011KA1240N+01861MA1999999093221MD1999999+0081REMSYN076AAXX  25124 83182 32597 81406 10258 20197 39322 40138 86201 333 20186 58008;
0137831820999992006032518004-11300-041867FM-12+074799999V0201401N003612200019N0100001N1+03121+01951100841ADDGF108991041021008001001011MA1999999092771MD1999999+0001REMSYN070AAXX  25184 83182 32597 81407 10312 20195 39277 40084 84201 333 58000;
0168831820999992006032600004-11300-041867FM-12+074799999V0201401N001519999999N0010001N1+02181+01971101241ADDGF108991001001999999001011KA1240M+03141MA1999999093071MD1999999+0111REMSYN088AAXX  26004 83182 32994 81403 10218 20197 39307 40124 80001 333 10314 29074 55083 58011;
0156831820999992006032612004-11300-041867FM-12+074799999V0201401N002612200019N0100001N1+02681+01991101311ADDGF108991031021008001001011KA1240N+01871MA1999999093151MD1999999-0071REMSYN076AAXX  26124 83182 32597 81405 10268 20199 39315 40131 83201 333 20187 59007;
0137831820999992006032618004-11300-041867FM-12+074799999V0203201N002112200019N0100001N1+03111+01841100741ADDGF108991041021008001001011MA1999999092661MD1999999-0111REMSYN070AAXX  26184 83182 32597 83204 10311 20184 39266 40074 84201 333 59011;
0213831820999992006032700004-11300-041867FM-12+074799999V0201801N001510042019N0010001N1+02181+02011101171ADDAA106005191AY161061AY221061GF108991061071004501021999KA1240M+03161MA1999999093041MD1999999-0041MW1021REMSYN100AAXX  27004 83182 21494 81803 10218 20201 39304 40117 70262 8672/ 333 10316 29073 55077 59004 60051;
0201831820999992006032712004-11300-041867FM-12+074799999V0202701N001010450019N0100001N1+02411+02071101501ADDAA124033091AY161061AY261061GF108991031021008001041011KA1240N+01941MA1999999093271MD1999999+0121MW1031REMSYN088AAXX  27124 83182 21597 82702 10241 20207 39327 40150 70366 83241 333 20194 58012 60334;
0165831820999992006032718004-11300-041867FM-12+074799999V0203601N003610075019N0100001N1+02701+02151100961ADDAY121061AY221061GF108991061031008001061011MA1999999092821MD1999999+0161MW1151REMSYN076AAXX  27184 83182 31597 83607 10270 20215 39282 40096 71522 86361 333 58016;
0168831820999992006032800004-11300-041867FM-12+074799999V0201401N001510042019N0010001N1+02231+02031101371ADDGF108991061071004501021999KA1240M+02941MA1999999093151MD1999999+0111REMSYN088AAXX  28004 83182 32494 81403 10223 20203 39315 40137 8672/ 333 10294 29083 55055 58011;
0156831820999992006032812004-11300-041867FM-12+074799999V0201801N003110450019N0100001N1+02571+02141101331ADDGF108991021011008001041011KA1240N+02071MA1999999093151MD1999999-0121REMSYN076AAXX  28124 83182 32597 81806 10257 20214 39315 40133 82141 333 20207 59012;
0137831820999992006032818004-11300-041867FM-12+074799999V0200501N001510075019N0100001N1+02751+02181100811ADDGF108991051051008001021999MA1999999092691MD1999999-0131REMSYN070AAXX  28184 83182 32597 80503 10275 20218 39269 40081 8552/ 333 59013;
0213831820999992006032900004-11300-041867FM-12+074799999V0201401N000510042019N0010001N1+02211+02091101151ADDAA106011991AY161061AY221061GF108991061031004501021999KA1240M+02961MA1999999092991MD1999999-0161MW1131REMSYN100AAXX  29004 83182 21494 81401 10221 20209 39299 40115 71362 8632/ 333 10296 29094 55061 59016 60121;
0201831820999992006032912004-11300-041867FM-12+074799999V0202301N000510042019N0100001N1+02261+02091101401ADDAA124055991AY161061AY261061GF108991061071004501021999KA1240N+01981MA1999999093161MD1999999+0011MW1021REMSYN088AAXX  29124 83182 21497 82301 10226 20209 39316 40140 70266 8672/ 333 20198 58001 60564;
0168831820999992006033000004-11300-041867FM-12+074799999V0202701N003110042019N0010001N1+02221+02051101291ADDGF108991061071004501021999KA1240M+02781MA1999999093061MD1999999+0071REMSYN088AAXX  30004 83182 32494 82706 10222 20205 39306 40129 8672/ 333 10278 29085 55048 58007;
0156831820999992006033012004-11300-041867FM-12+074799999V0201801N001010450019N0100001N1+02351+02041101341ADDGF108991031051008001021999KA1240N+02051MA1999999093131MD1999999-0031REMSYN076AAXX  30124 83182 32597 81802 10235 20204 39313 40134 8352/ 333 20205 59003;
0182831820999992006033018004-11300-041867FM-12+074799999V0203601N001510450019N0100001N1+02701+02111100831ADDAA106001091AY161061AY221061GF108991031031004501021011MA1999999092691MD1999999+0031MW1031REMSYN082AAXX  30184 83182 21497 83603 10270 20211 39269 40083 70362 83321 333 58003 69991;
0213831820999992006033100004-11300-041867FM-12+074799999V0201401N001510042019N0010001N1+02201+02101101251ADDAA106004191AY161061AY261061GF108991061071004501021999KA1240M+02851MA1999999093051MD1999999-0011MW1611REMSYN100AAXX  31004 83182 21494 81403 10220 20210 39305 40125 76166 8672/ 333 10285 29085 55033 59001 60041;
0201831820999992006033112004-11300-041867FM-12+074799999V0200901N002110075019N0100001N1+02461+01971101351ADDAA124005191AY161061AY221061GF108991081051008001999999KA1240N+02001MA1999999093161MD1999999+0031MW1021REMSYN088AAXX  31124 83182 21597 80904 10246 20197 39316 40135 70262 885// 333 20200 58003 60054;
0137831820999992006033118004-11300-041867FM-12+074799999V0201401N002610450019N0100001N1+02771+02081100841ADDGF108991031051008001021011MA1999999092721MD1999999+0031REMSYN070AAXX  31184 83182 32597 81405 10277 20208 39272 40084 83521 333 58003;
0213831820999992006040100004-11300-041867FM-12+074799999V0201401N004110042019N0010001N1+02271+02121101251ADDAA106000591AY121061AY221061GF108991051071004501021999KA1240M+02801MA1999999093061MD1999999+0011MW1621REMSYN100AAXX  01004 83182 21494 81408 10227 20212 39306 40125 76222 8572/ 333 10280 29081 55043 58001 69961;
0220831820999992006040112004-11300-041867FM-12+074799999V0201401N001510450019N0100001N1+02221+01961101471ADDAA124001091AY161061AY221061GF108991041031004501021999KA1240N+99999MA1999999093161MD1999999+0001MW1031REMSYN088AAXX  01124 83182 21497 81403 10222 20196 39316 40147 70362 8432/ 333 20297 58000 60014;EQDQ01 +02972ATMN  
0137831820999992006040118004-11300-041867FM-12+074799999V0201801N003110042019N0100001N1+02501+02151100881ADDGF108991061031004501021999MA1999999092711MD1999999-0011REMSYN070AAXX  01184 83182 32497 81806 10250 20215 39271 40088 8632/ 333 59001;
0213831820999992006040200004-11300-041867FM-12+074799999V0200901N001510042019N0010001N1+02071+02001101451ADDAA106020191AY161061AY261061GF108991071071004501021999KA1240M+02721MA1999999093181MD1999999+0121MW1611REMSYN100AAXX  02004 83182 21494 80903 10207 20200 39318 40145 76166 8772/ 333 10272 29090 55025 58012 60201;
0201831820999992006040212004-11300-041867FM-12+074799999V0200901N003110075019N0100001N1+02491+02031101401ADDAA124030091AY161061AY221061GF107991061021008001001011KA1240N+01881MA1999999093181MD1999999+0021MW1031REMSYN088AAXX  02124 83182 21597 70906 10249 20203 39318 40140 70362 86201 333 20188 58002 60304;
0137831820999992006040218004-11300-041867FM-12+074799999V0200501N002612200019N0100001N1+02831+01941100861ADDGF108991031021008001001011MA1999999092721MD1999999+0011REMSYN070AAXX  02184 83182 32597 80505 10283 20194 39272 40086 83201 333 58001;
0168831820999992006040300004-11300-041867FM-12+074799999V0201401N002110450019N0010001N1+02261+01941101161ADDGF108991021051008001041011KA1240M+02881MA1999999093001MD1999999-0181REMSYN088AAXX  03004 83182 32594 81404 10226 20194 39300 40116 82541 333 10288 29075 55079 59018;
0156831820999992006040312004-11300-041867FM-12+074799999V0201401N002110075019N0100001N1+02471+02061101361ADDGF108991051021008001001011KA1240N+01861MA1999999093161MD1999999-0021REMSYN076AAXX  03124 83182 32597 81404 10247 20206 39316 40136 85201 333 20186 59002;
0137831820999992006040318004-11300-041867FM-12+074799999V0201401N002110450019N0100001N1+02971+01881100811ADDGF106991031031008001041011MA1999999092731MD1999999+0021REMSYN070AAXX  03184 83182 32597 61404 10297 20188 39273 40081 83341 333 58002;
0168831820999992006040400004-11300-041867FM-12+074799999V0201401N003112200019N0010001N1+02251+02021101131ADDGF108991021021008001001011KA1240M+03041MA1999999092951MD1999999-0051REMSYN088AAXX  04004 83182 32594 81406 10225 20202 39295 40113 82201 333 10304 29076 55072 59005;
0156831820999992006040412004-11300-041867FM-12+074799999V0200901N003610075019N0100001N1+02421+01881101281ADDGF107991071051008001001001KA1240N+01981MA1999999093091MD1999999+0071REMSYN076AAXX  04124 83182 32597 70907 10242 20188 39309 40128 87500 333 20198 58007;
0201831820999992006040418004-11300-041867FM-12+074799999V0201801N002110450019N0100001N1+02701+02031100861ADDAA106000091AY161061AY221061GF105991031031008001041021MA1999999092731MD1999999-0011MW1031REMSYN082AAXX  04184 83182 21597 51804 10270 20203 39273 40086 70362 83342 333 59001 69911;EQDQ01  00002PRCP06
0213831820999992006040500004-11300-041867FM-12+074799999V0200901N003110042019N0010001N1+02061+01941101291ADDAA106004191AY161061AY261061GF108991061071004501021999KA1240M+02821MA1999999093061MD1999999+0111MW1611REMSYN100AAXX  05004 83182 21494 80906 10206 20194 39306 40129 76166 8672/ 333 10282 29081 55043 58011 60041;
0201831820999992006040512004-11300-041867FM-12+074799999V0201401N003112200019N0100001N1+02411+01941101341ADDAA124015091AY161061AY261061GF108991021011008001001011KA1240N+01841MA1999999093111MD1999999+0021MW1021REMSYN088AAXX  05124 83182 21597 81406 10241 20194 39311 40134 70266 82101 333 20184 58002 60154;
0137831820999992006040518004-11300-041867FM-12+074799999V0200901N001512200019N0100001N1+02791+01941100921ADDGF108991021031008001001011MA1999999092761MD1999999+0041REMSYN070AAXX  05184 83182 32597 80903 10279 20194 39276 40092 82301 333 58004;
0168831820999992006040600004-11300-041867FM-12+074799999V0201401N002612200019N0100001N1+02211+01951101181ADDGF108991021011012501001011KA1240M+02861MA1999999092981MD1999999-0081REMSYN088AAXX  06004 83182 32697 81405 10221 20195 39298 40118 82101 333 10286 29076 55072 59008;
0156831820999992006040612004-11300-041867FM-12+074799999V0201401N003110075019N0100001N1+02331+01831101321ADDGF108991081051008001999999KA1240N+01861MA1999999093091MD1999999-0021REMSYN076AAXX  06124 83182 32597 81406 10233 20183 39309 40132 885// 333 20186 59002;
0137831820999992006040618004-11300-041867FM-12+074799999V0201801N002612200019N0100001N1+02831+01841100851ADDGF108991021021008001001011MA1999999092731MD1999999-0031REMSYN070AAXX  06184 83182 32597 81805 10283 20184 39273 40085 82201 333 59003;
0168831820999992006040700004-11300-041867FM-12+074799999V0200901N002110075019N0010001N1+02311+02061101061ADDGF108991061051008001021999KA1240M+02871MA1999999092871MD1999999-0111REMSYN088AAXX  07004 83182 32594 80904 10231 20206 39287 40106 8652/ 333 10287 29075 55074 59011;
0156831820999992006040712004-11300-041867FM-12+074799999V0200901N003110075019N0100001N1+02431+01981101191ADDGF108991081051008001999999KA1240N+01951MA1999999093011MD1999999-0081REMSYN076AAXX  07124 83182 32597 80906 10243 20198 39301 40119 885// 333 20195 59008;
0137831820999992006040718004-11300-041867FM-12+074799999V0201401N002112200019N0100001N1+02901+01931100741ADDGF108991041021008001001011MA1999999092651MD1999999-0081REMSYN070AAXX  07184 83182 32597 81404 10290 20193 39265 40074 84201 333 59008;
0168831820999992006040800004-11300-041867FM-12+074799999V0201401N002610075019N0010001N1+02241+02011101111ADDGF108991051051008001051011KA1240M+02941MA1999999092941MD1999999+0071REMSYN088AAXX  08004 83182 32594 81405 10224 20201 39294 40111 85551 333 10294 29076 55090 58007;
0156831820999992006040812004-11300-041867FM-12+074799999V0201401N003610075019N0100001N1+02411+01951101281ADDGF108991081051008001999999KA1240N+01941MA1999999093091MD1999999+0081REMSYN076AAXX  08124 83182 32597 81407 10241 20195 39309 40128 885// 333 20194 58008;
0137831820999992006040818004-11300-041867FM-12+074799999V0201401N001512200019N0100001N1+02921+01741100651ADDGF108991021031008001001011MA1999999092561MD1999999-0091REMSYN070AAXX  08184 83182 32597 81403 10292 20174 39256 40065 82301 333 59009;
0168831820999992006040900004-11300-041867FM-12+074799999V0201401N002112200019N0010001N1+02341+01851101021ADDGF108991021001017501051011KA1240M+02961MA1999999092871MD1999999-0071REMSYN088AAXX  09004 83182 32794 81404 10234 20185 39287 40102 82051 333 10296 29070 55081 59007;
0156831820999992006040912004-11300-041867FM-12+074799999V0200901N002112200019N0100001N1+02591+02091101051ADDGF108991031021008001001011KA1240N+01921MA1999999092911MD1999999-0181REMSYN076AAXX  09124 83182 32597 80904 10259 20209 39291 40105 83201 333 20192 59018;
0137831820999992006040918004-11300-041867FM-12+074799999V0203201N002110450019N0100001N1+02961+01931100461ADDGF108991031021008001021011MA1999999092371MD1999999-0191REMSYN070AAXX  09184 83182 32597 83204 10296 20193 39237 40046 83221 333 59019;
0168831820999992006041000004-11300-041867FM-12+074799999V0200901N001510075019N0100001N1+02341+01951100841ADDGF108991061051008001051021KA1240M+02981MA1999999092791MD1999999-0081REMSYN088AAXX  10004 83182 32597 80903 10234 20195 39279 40084 86552 333 10298 29072 55076 59008;
0156831820999992006041012004-11300-041867FM-12+074799999V0203201N002610075019N0100001N1+02511+01971101051ADDGF108991081051008001999999KA1240N+02021MA1999999092901MD1999999-0011REMSYN076AAXX  10124 83182 32597 83205 10251 20197 39290 40105 885// 333 20202 59001;
0182831820999992006041018004-11300-041867FM-12+074799999V0202301N001510450019N0100001N1+02301+02161100761ADDAA106002091AY121061AY221061GF108991021031008001021999MA1999999092581MD1999999+0211MW1601REMSYN082AAXX  10184 83182 21597 82303 10230 20216 39258 40076 76022 8232/ 333 58021 60021;
0168831820999992006041100004-11300-041867FM-12+074799999V0201401N001010450019N0010001N1+02131+02031100951ADDGF108991031071004501021999KA1240M+02751MA1999999092771MD1999999-0061REMSYN088AAXX  11004 83182 32494 81402 10213 20203 39277 40095 8372/ 333 10275 29088 55042 59006;
0173831820999992006041112004-11300-041867FM-12+074799999V0203201N001012200019N0100001N1+02581+02041101001ADDAA124002091GF108991031001017501031011KA1240N+01981MA1999999092841MD1999999-0061REMSYN082AAXX  11124 83182 22797 83202 10258 20204 39284 40100 83031 333 20198 59006 60024;
0137831820999992006041118004-11300-041867FM-12+074799999V0203201N003110450019N0100001N1+02931+01961100541ADDGF108991041031008001021011MA1999999092461MD1999999-0121REMSYN070AAXX  11184 83182 32597 83206 10293 20196 39246 40054 84321 333 59012;
0213831820999992006041200004-11300-041867FM-12+074799999V0201801N002610042019N0010001N1+02271+02081100971ADDAA106000391AY121061AY221061GF108991061031004501021999KA1240M+02981MA1999999092831MD1999999+0061MW1951REMSYN100AAXX  12004 83182 21494 81805 10227 20208 39283 40097 79522 8632/ 333 10298 29076 55068 58006 69931;
0201831820999992006041212004-11300-041867FM-12+074799999V0202301N001510450019N0100001N1+02411+02041101151ADDAA124014091AY191061AY261061GF108991021021008001041011KA1240N+01961MA1999999092971MD1999999+0131MW1021REMSYN088AAXX  12124 83182 21597 82303 10241 20204 39297 40115 70296 82241 333 20196 58013 60144;
0137831820999992006041218004-11300-041867FM-12+074799999V0203201N001510450019N0100001N1+02831+02001100651ADDGF108991031031008001021021MA1999999092561MD1999999+0101REMSYN070AAXX  12184 83182 32597 83203 10283 20200 39256 40065 83322 333 58010;
0213831820999992006041300004-11300-041867FM-12+074799999V0203201N001510042019N0010001N1+02131+02101101121ADDAA106065091AY161061AY261061GF108991071031004501021999KA1240M+02861MA1999999092991MD1999999+0161MW1951REMSYN100AAXX  13004 83182 21494 83203 10213 20210 39299 40112 79566 8732/ 333 10286 29084 55038 58016 60651;
0201831820999992006041312004-11300-041867FM-12+074799999V0201401N002110450019N0100001N1+02431+02101101181ADDAA124070191AY161061AY221061GF108991021011012501031011KA1240N+01911MA1999999092981MD1999999+0011MW1021REMSYN088AAXX  13124 83182 21697 81404 10243 20210 39298 40118 70262 82131 333 20191 58001 60704;
0137831820999992006041318004-11300-041867FM-12+074799999V0202701N002110450019N0100001N1+02961+02101100541ADDGF108991041031008001021011MA1999999092461MD1999999-0101REMSYN070AAXX  13184 83182 32597 82704 10296 20210 39246 40054 84321 333 59010;
0213831820999992006041400004-11300-041867FM-12+074799999V0201801N001010042019N0010001N1+02181+02081100971ADDAA106005191AY161061AY261061GF108991051031004501021999KA1240M+02991MA1999999092791MD1999999-0201MW1611REMSYN100AAXX  14004 83182 21494 81802 10218 20208 39279 40097 76166 8532/ 333 10299 29082 55065 59020 60051;
0201831820999992006041412004-11300-041867FM-12+074799999V0200901N002612200019N0100001N1+02541+02111101131ADDAA124005191AY161061AY221061GF108991041021008001001011KA1240N+01941MA1999999092901MD1999999-0031MW1031REMSYN088AAXX  14124 83182 21597 80905 10254 20211 39290 40113 70362 84201 333 20194 59003 60054;
0137831820999992006041418004-11300-041867FM-12+074799999V0201401N003112200019N0100001N1+02941+01761100561ADDGF108991041031008001001011MA1999999092481MD1999999+0021REMSYN070AAXX  14184 83182 32597 81406 10294 20176 39248 40056 84301 333 58002;
0168831820999992006041500004-11300-041867FM-12+074799999V0201401N001510450019N0010001N1+02291+02091100961ADDGF108991021021008001051011KA1240M+02981MA1999999092761MD1999999-0031REMSYN088AAXX  15004 83182 32594 81403 10229 20209 39276 40096 82251 333 10298 29074 55062 59003;
0156831820999992006041512004-11300-041867FM-12+074799999V0201401N005110075019N0100001N1+02521+01981101141ADDGF108991061021008001001011KA1240N+01941MA1999999092981MD1999999+0081REMSYN076AAXX  15124 83182 32597 81410 10252 20198 39298 40114 86201 333 20194 58008;
0137831820999992006041518004-11300-041867FM-12+074799999V0200901N004112200019N0100001N1+02881+01971100771ADDGF108991041021008001001011MA1999999092671MD1999999+0191REMSYN070AAXX  15184 83182 32597 80908 10288 20197 39267 40077 84201 333 58019;
0168831820999992006041600004-11300-041867FM-12+074799999V0201401N002612200019N0010001N1+02241+01941101081ADDGF108991011001017501031011KA1240M+02921MA1999999092931MD1999999+0171REMSYN088AAXX  16004 83182 32794 81405 10224 20194 39293 40108 81031 333 10292 29074 55102 58017;
0156831820999992006041612004-11300-041867FM-12+074799999V0201401N004112200019N0100001N1+02451+01801101531ADDGF104991041021008001001001KA1240N+01841MA1999999093321MD1999999+0341REMSYN076AAXX  16124 83182 32597 41408 10245 20180 39332 40153 84200 333 20184 58034;
0137831820999992006041618004-11300-041867FM-12+074799999V0201401N001512200019N0100001N1+02931+01811101031ADDGF104991041021008001021001MA1999999092911MD1999999+0241REMSYN070AAXX  16184 83182 32597 41403 10293 20181 39291 40103 84220 333 58024;
0168831820999992006041700004-11300-041867FM-12+074799999V0200901N001512200019N0010001N1+02211+01911101381ADDGF102991021051008001001001KA1240M+03001MA1999999093181MD1999999+0251REMSYN088AAXX  17004 83182 32594 20903 10221 20191 39318 40138 82500 333 10300 29084 55096 58025;
0156831820999992006041712004-11300-041867FM-12+074799999V0201401N003112200019N0100001N1+02431+01911101381ADDGF104991041021008001001001KA1240N+01841MA1999999093161MD1999999-0161REMSYN076AAXX  17124 83182 32597 41406 10243 20191 39316 40138 84200 333 20184 59016;
0168831820999992006041800004-11300-041867FM-12+074799999V0200901N002112200019N0010001N1+02321+01941101121ADDGF108991021001017501041011KA1240M+02891MA1999999092961MD1999999-0181REMSYN088AAXX  18004 83182 32794 80904 10232 20194 39296 40112 82041 333 10289 29074 55085 59018;
0156831820999992006041812004-11300-041867FM-12+074799999V0200901N001510075019N0100001N1+02401+01951101231ADDGF108991081051008001999999KA1240N+01981MA1999999093051MD1999999-0111REMSYN076AAXX  18124 83182 32597 80903 10240 20195 39305 40123 885// 333 20198 59011;
0137831820999992006041818004-11300-041867FM-12+074799999V0201801N003110075019N0100001N1+02561+02111100711ADDGF108991051031008001021999MA1999999092701MD1999999-0061REMSYN070AAXX  18184 83182 32597 81806 10256 20211 39270 40071 8532/ 333 59006;
0168831820999992006041900004-11300-041867FM-12+074799999V0200901N001510075019N0100001N1+02211+02061101181ADDGF108991081051008001999999KA1240M+02561MA1999999092981MD1999999+0021REMSYN088AAXX  19004 83182 32597 80903 10221 20206 39298 40118 885// 333 10256 29083 55017 58002;
0201831820999992006041912004-11300-041867FM-12+074799999V0201401N002610450019N0100001N1+02211+01961101491ADDAA124001091AY161061AY221061GF108991031051008001041041KA1240N+01901MA1999999093241MD1999999+0191MW1031REMSYN088AAXX  19124 83182 21597 81405 10221 20196 39324 40149 70362 83544 333 20190 58019 60014;
0137831820999992006041918004-11300-041867FM-12+074799999V0200901N002110450019N0100001N1+02561+02021101001ADDGF108991031051008001041041MA1999999092821MD1999999+0121REMSYN070AAXX  19184 83182 32597 80904 10256 20202 39282 40100 83544 333 58012;
0168831820999992006042000004-11300-041867FM-12+074799999V0201401N001510075019N0010001N1+02181+01971101311ADDGF108991081051008001999999KA1240M+02661MA1999999093071MD1999999+0091REMSYN088AAXX  20004 83182 32594 81403 10218 20197 39307 40131 885// 333 10266 29084 55019 58009;
0156831820999992006042012004-11300-041867FM-12+074799999V0201401N003110075019N0100001N1+02241+01861101451ADDGF108991081051008001999999KA1240N+01891MA1999999093201MD1999999+0041REMSYN076AAXX  20124 83182 32597 81406 10224 20186 39320 40145 885// 333 20189 58004;
0168831820999992006042100004-11300-041867FM-12+074799999V0201401N002612200019N0100001N1+02121+01931101331ADDGF108991031051008001001011KA1240M+02771MA1999999093091MD1999999+0021REMSYN088AAXX  21004 83182 32597 81405 10212 20193 39309 40133 83501 333 10277 29078 55055 58002;
0156831820999992006042112004-11300-041867FM-12+074799999V0201401N003110075019N0100001N1+02261+01901101491ADDGF108991081051008001999999KA1240N+01841MA1999999093241MD1999999+0041REMSYN076AAXX  21124 83182 32597 81406 10226 20190 39324 40149 885// 333 20184 58004;
0137831820999992006042118004-11300-041867FM-12+074799999V0201401N002610075019N0100001N1+02701+01911101091ADDGF108991051051008001031011MA1999999092921MD1999999+0051REMSYN070AAXX  21184 83182 32597 81405 10270 20191 39292 40109 85531 333 58005;
0168831820999992006042200004-11300-041867FM-12+074799999V0201401N002119999999N0010001N1+02191+01851101451ADDGF108991001001999999001011KA1240M+02741MA1999999093201MD1999999+0111REMSYN088AAXX  22004 83182 32994 81404 10219 20185 39320 40145 80001 333 10274 29076 55072 58011;
0156831820999992006042212004-11300-041867FM-12+074799999V0201401N002610075019N0100001N1+02471+02001101441ADDGF108991081051008001999999KA1240N+01761MA1999999093241MD1999999+0001REMSYN076AAXX  22124 83182 32597 81405 10247 20200 39324 40144 885// 333 20176 58000;
0182831820999992006042218004-11300-041867FM-12+074799999V0201401N002610450019N0100001N1+02791+01991101011ADDAA106000891AY161061AY221061GF108991031031008001021011MA1999999092861MD1999999-0061MW1021REMSYN082AAXX  22184 83182 21597 81405 10279 20199 39286 40101 70262 83321 333 59006 69971;
0168831820999992006042300004-11300-041867FM-12+074799999V0201401N003119999999N0010001N1+02241+02011101181ADDGF108991001001999999001011KA1240M+02841MA1999999093001MD1999999-0201REMSYN088AAXX  23004 83182 32994 81406 10224 20201 39300 40118 80001 333 10284 29078 55078 59020;
0173831820999992006042312004-11300-041867FM-12+074799999V0201401N004110075019N0100001N1+02481+01961101381ADDAA124000891GF108991081051008001999999KA1240N+01871MA1999999093181MD1999999-0061REMSYN082AAXX  23124 83182 22597 81408 10248 20196 39318 40138 885// 333 20187 59006 69974;
0137831820999992006042318004-11300-041867FM-12+074799999V0200901N004610450019N0100001N1+02741+02021100911ADDGF108991031031008001021011MA1999999092771MD1999999-0091REMSYN070AAXX  23184 83182 32597 80909 10274 20202 39277 40091 83321 333 59009;
0168831820999992006042400004-11300-041867FM-12+074799999V0200901N002619999999N0010001N1+02301+02031101141ADDGF108991001001999999001011KA1240M+02941MA1999999092981MD1999999-0021REMSYN088AAXX  24004 83182 32994 80905 10230 20203 39298 40114 80001 333 10294 29077 55087 59002;
0156831820999992006042412004-11300-041867FM-12+074799999V0201401N005110450019N0100001N1+02381+01911101321ADDGF108991031051008001031011KA1240N+01921MA1999999093121MD1999999-0061REMSYN076AAXX  24124 83182 32597 81410 10238 20191 39312 40132 83531 333 20192 59006;
0137831820999992006042418004-11300-041867FM-12+074799999V0201401N003110450019N0100001N1+02701+01991100881ADDGF108991021021008001041011MA1999999092741MD1999999-0031REMSYN070AAXX  24184 83182 32597 81406 10270 20199 39274 40088 82241 333 59003;
0168831820999992006042500004-11300-041867FM-12+074799999V0201401N003112200019N0010001N1+02111+01861101251ADDGF108991021001017501041011KA1240M+02741MA1999999093031MD1999999+0051REMSYN088AAXX  25004 83182 32794 81406 10211 20186 39303 40125 82041 333 10274 29078 55028 58005;
0156831820999992006042512004-11300-041867FM-12+074799999V0201801N006710075019N0100001N1+02361+01931101351ADDGF108991081051008001999999KA1240N+01841MA1999999093091MD1999999-0031REMSYN076AAXX  25124 83182 32597 81813 10236 20193 39309 40135 885// 333 20184 59003;
0137831820999992006042518004-11300-041867FM-12+074799999V0200901N005110450019N0100001N1+02741+01811100891ADDGF108991031021008001031011MA1999999092741MD1999999+0001REMSYN070AAXX  25184 83182 32597 80910 10274 20181 39274 40089 83231 333 58000;
0168831820999992006042600004-11300-041867FM-12+074799999V0201401N004110450019N0010001N1+02091+01761101311ADDGF108991021021008001051011KA1240M+02781MA1999999093071MD1999999+0041REMSYN088AAXX  26004 83182 32594 81408 10209 20176 39307 40131 82251 333 10278 29074 55073 58004;
0156831820999992006042612004-11300-041867FM-12+074799999V0201401N005110075019N0100001N1+02281+01771101421ADDGF108991081051008001999999KA1240N+01801MA1999999093171MD1999999+0081REMSYN076AAXX  26124 83182 32597 81410 10228 20177 39317 40142 885// 333 20180 58008;
0137831820999992006042618004-11300-041867FM-12+074799999V0201401N003110075019N0100001N1+02501+01891101071ADDGF108991081051008001999999MA1999999092851MD1999999+0111REMSYN070AAXX  26184 83182 32597 81406 10250 20189 39285 40107 885// 333 58011;
0168831820999992006042700004-11300-041867FM-12+074799999V0201401N002610075019N0010001N1+02081+01861101291ADDGF108991061051008001001011KA1240M+02651MA1999999093051MD1999999-0021REMSYN088AAXX  27004 83182 32594 81405 10208 20186 39305 40129 86501 333 10265 29079 55042 59002;
0156831820999992006042712004-11300-041867FM-12+074799999V0201401N003112200019N0100001N1+02421+01821101331ADDGF106991011011012501001011KA1240N+01681MA1999999093101MD1999999-0071REMSYN076AAXX  27124 83182 32697 61406 10242 20182 39310 40133 81101 333 20168 59007;
0137831820999992006042718004-11300-041867FM-12+074799999V0201401N003110450019N0100001N1+02901+01591100831ADDGF108991021021008001041011MA1999999092691MD1999999-0161REMSYN070AAXX  27184 83182 32597 81406 10290 20159 39269 40083 82241 333 59016;
0168831820999992006042800004-11300-041867FM-12+074799999V0200901N003112200019N0010001N1+02121+01801101181ADDGF108991011001017501031011KA1240M+02921MA1999999092961MD1999999-0091REMSYN088AAXX  28004 83182 32794 80906 10212 20180 39296 40118 81031 333 10292 29070 55105 59009;
0156831820999992006042812004-11300-041867FM-12+074799999V0200901N002612200019N0100001N1+02441+01971101321ADDGF108991031021008001001011KA1240N+01761MA1999999093111MD1999999+0011REMSYN076AAXX  28124 83182 32597 80905 10244 20197 39311 40132 83201 333 20176 58001;
0137831820999992006042818004-11300-041867FM-12+074799999V0200901N003110450019N0100001N1+02751+01811100911ADDGF108991021031008001021011MA1999999092741MD1999999+0051REMSYN070AAXX  28184 83182 32597 80906 10275 20181 39274 40091 82321 333 58005;
0168831820999992006042900004-11300-041867FM-12+074799999V0200901N001519999999N0010001N1+02141+01761101101ADDGF108991001001999999001011KA1240M+02841MA1999999092911MD1999999-0051REMSYN088AAXX  29004 83182 32994 80903 10214 20176 39291 40110 80001 333 10284 29072 55085 59005;
0156831820999992006042912004-11300-041867FM-12+074799999V0201401N004610075019N0100001N1+02541+01811101311ADDGF105991051021008001001001KA1240N+01721MA1999999093121MD1999999+0011REMSYN076AAXX  29124 83182 32597 51409 10254 20181 39312 40131 85200 333 20172 58001;
0137831820999992006042918004-11300-041867FM-12+074799999V0201401N001512200019N0100001N1+02901+01551100881ADDGF108991031021008001001011MA1999999092741MD1999999+0001REMSYN070AAXX  29184 83182 32597 81403 10290 20155 39274 40088 83201 333 58000;
0168831820999992006043000004-11300-041867FM-12+074799999V0201401N002612200019N0010001N1+02151+01761101141ADDGF108991021001017501041011KA1240M+02961MA1999999092961MD1999999+0051REMSYN088AAXX  30004 83182 32794 81405 10215 20176 39296 40114 82041 333 10296 29066 55102 58005;
0156831820999992006043012004-11300-041867FM-12+074799999V0201401N004610450019N0100001N1+02431+01871101321ADDGF108991031021008001031011KA1240N+01841MA1999999093111MD1999999-0011REMSYN076AAXX  30124 83182 32597 81409 10243 20187 39311 40132 83231 333 20184 59001;
0137831820999992006043018004-11300-041867FM-12+074799999V0200901N004610450019N0100001N1+02671+01911101031ADDGF108991031031008001021011MA1999999092861MD1999999+0121REMSYN070AAXX  30184 83182 32597 80909 10267 20191 39286 40103 83321 333 58012;
0168831820999992006050100004-11300-041867FM-12+074799999V0200901N003110075019N0010001N1+02171+01911101301ADDGF108991081051008001999999KA1240M+02681MA1999999093091MD1999999+0131REMSYN088AAXX  01004 83182 32594 80906 10217 20191 39309 40130 885// 333 10268 29076 55041 58013;
0156831820999992006050112004-11300-041867FM-12+074799999V0201401N003110075019N0100001N1+02361+01891101481ADDGF108991081051008001999999KA1240N+01891MA1999999093241MD1999999+0131REMSYN076AAXX  01124 83182 32597 81406 10236 20189 39324 40148 885// 333 20189 58013;
0137831820999992006050118004-11300-041867FM-12+074799999V0200901N003110450019N0100001N1+02661+01871101111ADDGF108991031051008001061011MA1999999092951MD1999999+0091REMSYN070AAXX  01184 83182 32597 80906 10266 20187 39295 40111 83561 333 58009;
0168831820999992006050200004-11300-041867FM-12+074799999V0200901N002610075019N0100001N1+02201+01971101411ADDGF108991081051008001999999KA1240M+02621MA1999999093191MD1999999-0101REMSYN088AAXX  02004 83182 32597 80905 10220 20197 39319 40141 885// 333 10262 29078 55044 59010;
0156831820999992006050212004-11300-041867FM-12+074799999V0201401N003110075019N0100001N1+02341+01851101541ADDGF106991061021008001001001KA1240N+01781MA1999999093301MD1999999+0061REMSYN076AAXX  02124 83182 32597 61406 10234 20185 39330 40154 86200 333 20178 58006;
0137831820999992006050218004-11300-041867FM-12+074799999V0200901N002610075019N0100001N1+02821+01941101071ADDGF108991061021008001001011MA1999999092921MD1999999-0031REMSYN070AAXX  02184 83182 32597 80905 10282 20194 39292 40107 86201 333 59003;
0187831820999992006050300004-11300-041867FM-12+074799999V0200901N002619999999N0010001N1+02121+01861101371ADDGF108991001001999999001011KA1240M+02961MA1999999093141MD1999999-0051REMSYN088AAXX  03004 83182 32594 80905 10212 20186 39314 40137 80001 333 10296 29076 55067 59005;EQDQ01+008002SCOLCB
0156831820999992006050312004-11300-041867FM-12+074799999V0201401N003110075019N0100001N1+02401+01821101501ADDGF108991081051008001999999KA1240N+01741MA1999999093261MD1999999-0041REMSYN076AAXX  03124 83182 32597 81406 10240 20182 39326 40150 885// 333 20174 59004;
0137831820999992006050318004-11300-041867FM-12+074799999V0201401N004112200019N0100001N1+02841+01601100961ADDGF102991021021008001001001MA1999999092821MD1999999-0101REMSYN070AAXX  03184 83182 32597 21408 10284 20160 39282 40096 82200 333 59010;
0168831820999992006050400004-11300-041867FM-12+074799999V0200901N003119999999N0010001N1+02181+01921101231ADDGF108991001001999999001011KA1240M+02901MA1999999093011MD1999999-0131REMSYN088AAXX  04004 83182 32994 80906 10218 20192 39301 40123 80001 333 10290 29072 55070 59013;
0156831820999992006050412004-11300-041867FM-12+074799999V0201401N003112200019N0100001N1+02691+02001101111ADDGF108991031011012501001011KA1240N+01901MA1999999092971MD1999999-0291REMSYN076AAXX  04124 83182 32697 81406 10269 20200 39297 40111 83101 333 20190 59029;
0137831820999992006050418004-11300-041867FM-12+074799999V0200901N002112200019N0100001N1+03021+01861100821ADDGF108991041021008001001011MA1999999092741MD1999999-0081REMSYN070AAXX  04184 83182 32597 80904 10302 20186 39274 40082 84201 333 59008;
0168831820999992006050500004-11300-041867FM-12+074799999V0200901N003119999999N0010001N1+02171+01851101161ADDGF108991001001999999001011KA1240M+03051MA1999999093021MD1999999+0011REMSYN088AAXX  05004 83182 32994 80906 10217 20185 39302 40116 80001 333 10305 29070 55105 58001;
0175831820999992006050512004-11300-041867FM-12+074799999V0201401N002610120019N0100001N1+02501+02051101301ADDGF108991999011012501001011KA1240N+01701MA1999999093111MD1999999+0141REMSYN076AAXX  05124 83182 32697 81405 10250 20205 39311 40130 88101 333 20170 58014;EQDQ01+000082SCOTLC
0137831820999992006050518004-11300-041867FM-12+074799999V0201401N002112200019N0100001N1+03061+01551100961ADDGF108991011021008001001011MA1999999092781MD1999999-0041REMSYN070AAXX  05184 83182 32597 81404 10306 20155 39278 40096 81201 333 59004;
0168831820999992006050600004-11300-041867FM-12+074799999V0200901N003119999999N0010001N1+02261+01921101181ADDGF108991001001999999001011KA1240M+03121MA1999999093021MD1999999+0001REMSYN088AAXX  06004 83182 32994 80906 10226 20192 39302 40118 80001 333 10312 29069 55101 58000;
0156831820999992006050612004-11300-041867FM-12+074799999V0201401N002610075019N0100001N1+02481+01851101401ADDGF108991071051008001001011KA1240N+01741MA1999999093201MD1999999+0091REMSYN076AAXX  06124 83182 32597 81405 10248 20185 39320 40140 87501 333 20174 58009;
0137831820999992006050618004-11300-041867FM-12+074799999V0201401N003112200019N0100001N1+02901+01841100961ADDGF108991031021008001001011MA1999999092831MD1999999+0051REMSYN070AAXX  06184 83182 32597 81406 10290 20184 39283 40096 83201 333 58005;
0168831820999992006050700004-11300-041867FM-12+074799999V0201401N003112200019N0010001N1+02191+01851101271ADDGF108991021001017501041011KA1240M+02941MA1999999093081MD1999999+0061REMSYN088AAXX  07004 83182 32794 81406 10219 20185 39308 40127 82041 333 10294 29071 55086 58006;
0156831820999992006050712004-11300-041867FM-12+074799999V0201401N003110075019N0100001N1+02321+01911101471ADDGF108991081051008001999999KA1240N+01821MA1999999093231MD1999999+0031REMSYN076AAXX  07124 83182 32597 81406 10232 20191 39323 40147 885// 333 20182 58003;
0137831820999992006050718004-11300-041867FM-12+074799999V0200901N004110450019N0100001N1+02641+01831101111ADDGF108991021051008001061011MA1999999092921MD1999999+0091REMSYN070AAXX  07184 83182 32597 80908 10264 20183 39292 40111 82561 333 58009;
0168831820999992006050800004-11300-041867FM-12+074799999V0201401N002610150019N0010001N1+02061+01821101381ADDGF108991061001017501051011KA1240M+02721MA1999999093141MD1999999+0061REMSYN088AAXX  08004 83182 32794 81405 10206 20182 39314 40138 86051 333 10272 29078 55044 58006;
0156831820999992006050812004-11300-041867FM-12+074799999V0201401N003110075019N0100001N1+02251+01551101571ADDGF108991081051008001999999KA1240N+01801MA1999999093291MD1999999+0061REMSYN076AAXX  08124 83182 32597 81406 10225 20155 39329 40157 885// 333 20180 58006;
0137831820999992006050818004-11300-041867FM-12+074799999V0201401N001510450019N0100001N1+02641+01801101061ADDGF108991021021008001041011MA1999999092871MD1999999-0051REMSYN070AAXX  08184 83182 32597 81403 10264 20180 39287 40106 82241 333 59005;
0168831820999992006050900004-11300-041867FM-12+074799999V0201401N003110450019N0010001N1+02071+01791101391ADDGF108991011021008001041011KA1240M+02681MA1999999093131MD1999999-0011REMSYN088AAXX  09004 83182 32594 81406 10207 20179 39313 40139 81241 333 10268 29073 55040 59001;
0156831820999992006050912004-11300-041867FM-12+074799999V0201401N003612200019N0100001N1+02391+01761101371ADDGF108991041021008001001011KA1240N+01751MA1999999093141MD1999999-0151REMSYN076AAXX  09124 83182 32597 81407 10239 20176 39314 40137 84201 333 20175 59015;
0137831820999992006050918004-11300-041867FM-12+074799999V0201401N003110075019N0100001N1+02631+01761101051ADDGF108991081051008001999999MA1999999092851MD1999999-0021REMSYN070AAXX  09184 83182 32597 81406 10263 20176 39285 40105 885// 333 59002;
0168831820999992006051000004-11300-041867FM-12+074799999V0201401N003119999999N0010001N1+02061+01701101301ADDGF108991001001999999001011KA1240M+03021MA1999999093061MD1999999-0071REMSYN088AAXX  10004 83182 32994 81406 10206 20170 39306 40130 80001 333 10302 29072 55060 59007;
0156831820999992006051012004-11300-041867FM-12+074799999V0200901N003110075019N0100001N1+02411+01831101511ADDGF106991061021008001001001KA1240N+01521MA1999999093271MD1999999+0131REMSYN076AAXX  10124 83182 32597 60906 10241 20183 39327 40151 86200 333 20152 58013;
0137831820999992006051018004-11300-041867FM-12+074799999V0201801N003112200019N0100001N1+02741+01701101081ADDGF103991031021008001001001MA1999999092871MD1999999+0021REMSYN070AAXX  10184 83182 32597 31806 10274 20170 39287 40108 83200 333 58002;
0168831820999992006051100004-11300-041867FM-12+074799999V0201401N002612200019N0010001N1+02041+01741101351ADDGF108991011001017501041011KA1240M+02881MA1999999093111MD1999999+0051REMSYN088AAXX  11004 83182 32794 81405 10204 20174 39311 40135 81041 333 10288 29072 55098 58005;
0156831820999992006051112004-11300-041867FM-12+074799999V0200901N001512200019N0100001N1+02391+01721101401ADDGF108991011011012501001011KA1240N+01601MA1999999093151MD1999999-0121REMSYN076AAXX  11124 83182 32697 80903 10239 20172 39315 40140 81101 333 20160 59012;
0137831820999992006051118004-11300-041867FM-12+074799999V0202301N002112200019N0100001N1+02951+01801100881ADDGF108991031021008001001011MA1999999092741MD1999999-0131REMSYN070AAXX  11184 83182 32597 82304 10295 20180 39274 40088 83201 333 59013;
0168831820999992006051200004-11300-041867FM-12+074799999V0201401N003119999999N0010001N1+02161+01841101181ADDGF108991001001999999001021KA1240M+02991MA1999999092981MD1999999-0131REMSYN088AAXX  12004 83182 32994 81406 10216 20184 39298 40118 80002 333 10299 29070 55090 59013;
0137831820999992006051218004-11300-041867FM-12+074799999V0202301N00151220001CN0100001N1+03131+01651100821ADDGF108991031021008001001041MA1999999092721MD1999999-0021REMSYN070AAXX  12184 83182 32597 82303 10313 20165 39272 40082 83204 333 59002;
0168831820999992006051300004-11300-041867FM-12+074799999V0201801N003110450019N0010001N1+02281+01901101291ADDGF108991011051008001041011KA1240M+03161MA1999999093101MD1999999+0121REMSYN088AAXX  13004 83182 32594 81806 10228 20190 39310 40129 81541 333 10316 29067 55094 58012;
0156831820999992006051312004-11300-041867FM-12+074799999V0200501N002110075019N0100001N1+02361+01891101611ADDGF108991061051008001001011KA1240N+01921MA1999999093381MD1999999+0221REMSYN076AAXX  13124 83182 32597 80504 10236 20189 39338 40161 86501 333 20192 58022;
0137831820999992006051318004-11300-041867FM-12+074799999V0200901N002110450019N0100001N1+02731+01711101251ADDGF108991041051008001031011MA1999999093091MD1999999+0371REMSYN070AAXX  13184 83182 32597 80904 10273 20171 39309 40125 84531 333 58037;
0168831820999992006051400004-11300-041867FM-12+074799999V0201401N003112200019N0010001N1+02201+01881101561ADDGF108991041001017501031011KA1240M+02781MA1999999093331MD1999999+0231REMSYN088AAXX  14004 83182 32794 81406 10220 20188 39333 40156 84031 333 10278 29073 55020 58023;
0156831820999992006051412004-11300-041867FM-12+074799999V0201401N003110450019N0100001N1+02411+01731101761ADDGF108991011011012501041011KA1240N+01731MA1999999093521MD1999999+0141REMSYN076AAXX  14124 83182 32697 81406 10241 20173 39352 40176 81141 333 20173 58014;
0137831820999992006051418004-11300-041867FM-12+074799999V0201401N003110075019N0100001N1+02671+01931101421ADDGF108991061051008001001011MA1999999093201MD1999999+0111REMSYN070AAXX  14184 83182 32597 81406 10267 20193 39320 40142 86501 333 58011;
0168831820999992006051500004-11300-041867FM-12+074799999V0201401N003119999999N0010001N1+02101+01861101661ADDGF108991001001999999001021KA1240M+02741MA1999999093431MD1999999+0101REMSYN088AAXX  15004 83182 32994 81406 10210 20186 39343 40166 80002 333 10274 29076 55062 58010;
0156831820999992006051512004-11300-041867FM-12+074799999V0200901N003110075019N0100001N1+02341+01831101801ADDGF108991081051008001999999KA1240N+01821MA1999999093521MD1999999+0001REMSYN076AAXX  15124 83182 32597 80906 10234 20183 39352 40180 885// 333 20182 58000;
0137831820999992006051518004-11300-041867FM-12+074799999V0201401N003610075019N0100001N1+02541+01761101461ADDGF108991081051008001999999MA1999999093221MD1999999+0021REMSYN070AAXX  15184 83182 32597 81407 10254 20176 39322 40146 885// 333 58002;
0168831820999992006051600004-11300-041867FM-12+074799999V0201401N002610450019N0010001N1+02001+01811101641ADDGF108991011051008001041011KA1240M+02621MA1999999093351MD1999999-0081REMSYN088AAXX  16004 83182 32594 81405 10200 20181 39335 40164 81541 333 10262 29078 55033 59008;
0156831820999992006051612004-11300-041867FM-12+074799999V0201401N005110075019N0100001N1+02181+01741101741ADDGF108991081051008001999999KA1240N+01801MA1999999093431MD1999999-0091REMSYN076AAXX  16124 83182 32597 81410 10218 20174 39343 40174 885// 333 20180 59009;
0137831820999992006051618004-11300-041867FM-12+074799999V0201401N003610075019N0100001N1+02561+01801101411ADDGF108991051051008001031011MA1999999093171MD1999999-0051REMSYN070AAXX  16184 83182 32597 81407 10256 20180 39317 40141 85531 333 59005;
0168831820999992006051700004-11300-041867FM-12+074799999V0201401N003112200019N0010001N1+01931+01711101621ADDGF108991021001017501031011KA1240M+02591MA1999999093301MD1999999-0051REMSYN088AAXX  17004 83182 32794 81406 10193 20171 39330 40162 82031 333 10259 29078 55078 59005;
0156831820999992006051712004-11300-041867FM-12+074799999V0201401N004610075019N0100001N1+02181+01651101841ADDGF108991081051008001999999KA1240N+01681MA1999999093501MD1999999+0071REMSYN076AAXX  17124 83182 32597 81409 10218 20165 39350 40184 885// 333 20168 58007;
0137831820999992006051718004-11300-041867FM-12+074799999V0201401N003610450019N0100001N1+02461+01631101481ADDGF108991041051008001041011MA1999999093211MD1999999+0041REMSYN070AAXX  17184 83182 32597 81407 10246 20163 39321 40148 84541 333 58004;
0172831820999992006051800004-11300-041867FM-12+074799999V0201401N002119999999N0010001N1+01781+01491101811ADDGF108991001001999999001011KA1240M+02581MD1999999+0161REMSYN088AAXX  18004 83182 32994 81404 10178 20149 33946 40181 80001 333 10258 29074 55052 58016;EQDQ01+039461APOSP 
0156831820999992006051812004-11300-041867FM-12+074799999V0201401N005112200019N0100001N1+02131+01471101911ADDGF108991011011012501001011KA1240N+01481MA1999999093551MD1999999+0051REMSYN076AAXX  18124 83182 32697 81410 10213 20147 39355 40191 81101 333 20148 58005;
0137831820999992006051818004-11300-041867FM-12+074799999V0201401N003110075019N0100001N1+02721+01391101401ADDGF108991061021008001001011MA1999999093151MD1999999-0061REMSYN070AAXX  18184 83182 32597 81406 10272 20139 39315 40140 86201 333 59006;
0168831820999992006051900004-11300-041867FM-12+074799999V0201401N002119999999N0010001N1+01891+01521101731ADDGF108991001001999999001011KA1240M+02781MA1999999093381MD1999999-0081REMSYN088AAXX  19004 83182 32994 81404 10189 20152 39338 40173 80001 333 10278 29067 55093 59008;
0156831820999992006051912004-11300-041867FM-12+074799999V0201401N005712200019N0100001N1+02161+01571101621ADDGF102991021021008001001001KA1240N+01541MA1999999093421MD1999999-0131REMSYN076AAXX  19124 83182 32597 21411 10216 20157 39342 40162 82200 333 20154 59013;
0137831820999992006051918004-11300-041867FM-12+074799999V0201401N003112200019N0100001N1+02701+01601101381ADDGF102991021021008001001001MA1999999093141MD1999999-0011REMSYN070AAXX  19184 83182 32597 21406 10270 20160 39314 40138 82200 333 59001;
0168831820999992006052000004-11300-041867FM-12+074799999V0201401N002612200019N0010001N1+01861+01451101521ADDGF108991011001017501041011KA1240M+02761MA1999999093191MD1999999-0191REMSYN088AAXX  20004 83182 32794 81405 10186 20145 39319 40152 81041 333 10276 29068 55100 59019;
0156831820999992006052012004-11300-041867FM-12+074799999V0200901N002612200019N0100001N1+02131+01541101621ADDGF108991041021008001001011KA1240N+01351MA1999999093281MD1999999-0141REMSYN076AAXX  20124 83182 32597 80905 10213 20154 39328 40162 84201 333 20135 59014;
0137831820999992006052018004-11300-041867FM-12+074799999V0200901N001010075019N0100001N1+02701+01571101101ADDGF108991071021008001001011MA1999999092881MD1999999-0261REMSYN070AAXX  20184 83182 32597 80902 10270 20157 39288 40110 87201 333 59026;
0168831820999992006052100004-11300-041867FM-12+074799999V0200901N003110075019N0010001N1+02141+01591101391ADDGF108991081051008001999999KA1240M+02731MA1999999093131MD1999999-0061REMSYN088AAXX  21004 83182 32594 80906 10214 20159 39313 40139 885// 333 10273 29066 55087 59006;
0156831820999992006052112004-11300-041867FM-12+074799999V0201401N003112200019N0100001N1+02241+01641101521ADDGF108991021021008001001011KA1240N+01531MA1999999093261MD1999999-0021REMSYN076AAXX  21124 83182 32597 81406 10224 20164 39326 40152 82201 333 20153 59002;
0137831820999992006052118004-11300-041867FM-12+074799999V0201401N002112200019N0100001N1+02831+01301101091ADDGF108991011021008001001011MA1999999092921MD1999999+0041REMSYN070AAXX  21184 83182 32597 81404 10283 20130 39292 40109 81201 333 58004;
0168831820999992006052200004-11300-041867FM-12+074799999V0200901N003110075019N0010001N1+02161+01631101401ADDGF108991081051008001999999KA1240M+02831MA1999999093151MD1999999+0021REMSYN088AAXX  22004 83182 32594 80906 10216 20163 39315 40140 885// 333 10283 29063 55087 58002;
0156831820999992006052212004-11300-041867FM-12+074799999V0201401N004110075019N0100001N1+02201+01671101661ADDGF106991061021008001001001KA1240N+01531MA1999999093391MD1999999+0131REMSYN076AAXX  22124 83182 32597 61408 10220 20167 39339 40166 86200 333 20153 58013;
0137831820999992006052218004-11300-041867FM-12+074799999V0200901N003112200019N0100001N1+02811+01431101291ADDGF102991021011012501001001MA1999999093091MD1999999+0121REMSYN070AAXX  22184 83182 32697 20906 10281 20143 39309 40129 82100 333 58012;
0178831820999992006052300004-11300-041867FM-12+074799999V0201401N002612200019N0010001N1+01991+01551101631ADDGA1001+999999999GF100991001001999999001001KA1240M+02851MA1999999093331MD1999999+0181REMSYN082AAXX  23004 83182 32994 01405 10199 20155 39333 40163 333 10285 29067 55098 58018;
0166831820999992006052312004-11300-041867FM-12+074799999V0201401N003612200019N0100001N1+02201+01441101761ADDGA1001+999999999GF100991001001999999001001KA1240N+01491MA1999999093451MD1999999+0061REMSYN070AAXX  23124 83182 32997 01407 10220 20144 39345 40176 333 20149 58006;
0137831820999992006052318004-11300-041867FM-12+074799999V0200901N002110075019N0100001N1+03001+01451101221ADDGF106991061021008001001001MA1999999093041MD1999999-0051REMSYN070AAXX  23184 83182 32597 60904 10300 20145 39304 40122 86200 333 59005;
0178831820999992006052400004-11300-041867FM-12+074799999V0200901N003112200019N0010001N1+02161+01591101621ADDGA1001+999999999GF100991001001999999001001KA1240M+03051MA1999999093351MD1999999+0021REMSYN082AAXX  24004 83182 32994 00906 10216 20159 39335 40162 333 10305 29060 55090 58002;
0137831820999992006052418004-11300-041867FM-12+074799999V0201401N003112200019N0100001N1+02911+01551101101ADDGF108991021021008001001011MA1999999092961MD1999999-0081REMSYN070AAXX  24184 83182 32597 81406 10291 20155 39296 40110 82201 333 59008;
0168831820999992006052500004-11300-041867FM-12+074799999V0201401N003610075019N0010001N1+02191+01811101451ADDGF108991061051008001001011KA1240M+03071MA1999999093261MD1999999-0091REMSYN088AAXX  25004 83182 32594 81407 10219 20181 39326 40145 86501 333 10307 29065 55103 59009;
0137831820999992006052518004-11300-041867FM-12+074799999V0201401N003610075019N0100001N1+02581+01741101331ADDGF108991081051008001999999MA1999999093121MD1999999+0161REMSYN070AAXX  25184 83182 32597 81407 10258 20174 39312 40133 885// 333 58016;
0168831820999992006052600004-11300-041867FM-12+074799999V0200901N003110075019N0010001N1+02191+01751101511ADDGF108991051051008001001011KA1240M+02701MA1999999093281MD1999999+0021REMSYN088AAXX  26004 83182 32594 80906 10219 20175 39328 40151 85501 333 10270 29070 55063 58002;
0156831820999992006052612004-11300-041867FM-12+074799999V0201401N005112200019N0100001N1+02311+01631101641ADDGF102991011011012501001011KA1240N+01641MA1999999093391MD1999999-0171REMSYN076AAXX  26124 83182 32697 21410 10231 20163 39339 40164 81101 333 20164 59017;
0137831820999992006052618004-11300-041867FM-12+074799999V0201401N005112200019N0100001N1+02801+01561101371ADDGF103991021021008001001011MA1999999093171MD1999999+0051REMSYN070AAXX  26184 83182 32597 31410 10280 20156 39317 40137 82201 333 58005;
0168831820999992006052700004-11300-041867FM-12+074799999V0201401N003619999999N0010001N1+02031+01721101561ADDGF108991001001999999001011KA1240M+02871MA1999999093281MD1999999+0001REMSYN088AAXX  27004 83182 32994 81407 10203 20172 39328 40156 80001 333 10287 29070 55103 58000;
0156831820999992006052712004-11300-041867FM-12+074799999V0201401N004610075019N0100001N1+02271+01741101691ADDGF108991081051008001999999KA1240N+01681MA1999999093401MD1999999+0011REMSYN076AAXX  27124 83182 32597 81409 10227 20174 39340 40169 885// 333 20168 58001;
0137831820999992006052718004-11300-041867FM-12+074799999V0201401N004610075019N0100001N1+02581+01771101341ADDGF108991081051008001999999MA1999999093101MD1999999-0071REMSYN070AAXX  27184 83182 32597 81409 10258 20177 39310 40134 885// 333 59007;
0168831820999992006052800004-11300-041867FM-12+074799999V0201401N003110075019N0010001N1+02131+01731101551ADDGF108991061051008001001011KA1240M+02701MA1999999093291MD1999999+0011REMSYN088AAXX  28004 83182 32594 81406 10213 20173 39329 40155 86501 333 10270 29072 55043 58001;
0156831820999992006052812004-11300-041867FM-12+074799999V0201401N005110075019N0100001N1+02391+01811101601ADDGF108991081051008001999999KA1240N+01871MA1999999093351MD1999999-0051REMSYN076AAXX  28124 83182 32597 81410 10239 20181 39335 40160 885// 333 20187 59005;
0137831820999992006052818004-11300-041867FM-12+074799999V0200901N005110075019N0100001N1+02681+01761101271ADDGF108991071051008001001011MA1999999093081MD1999999-0021REMSYN070AAXX  28184 83182 32597 80910 10268 20176 39308 40127 87501 333 59002;
0168831820999992006052900004-11300-041867FM-12+074799999V0201401N003119999999N0010001N1+02101+01861101481ADDGF108991001001999999001011KA1240M+02771MA1999999093241MD1999999-0051REMSYN088AAXX  29004 83182 32994 81406 10210 20186 39324 40148 80001 333 10277 29075 55044 59005;
0156831820999992006052912004-11300-041867FM-12+074799999V0200901N005110075019N0100001N1+02501+01771101581ADDGF108991061021008001001011KA1240N+01801MA1999999093351MD1999999+0001REMSYN076AAXX  29124 83182 32597 80910 10250 20177 39335 40158 86201 333 20180 58000;
0137831820999992006052918004-11300-041867FM-12+074799999V0201401N004112200019N0100001N1+02831+01681101201ADDGF108991021021008001001011MA1999999093081MD1999999+0001REMSYN070AAXX  29184 83182 32597 81408 10283 20168 39308 40120 82201 333 58000;
0168831820999992006053000004-11300-041867FM-12+074799999V0201401N003119999999N0010001N1+02061+01721101561ADDGF108991001001999999001011KA1240M+02911MA1999999093331MD1999999+0091REMSYN088AAXX  30004 83182 32994 81406 10206 20172 39333 40156 80001 333 10291 29069 55086 58009;
0156831820999992006053012004-11300-041867FM-12+074799999V0201401N006712200019N0100001N1+02111+01331101741ADDGF108991031021008001001011KA1240N+01341MA1999999093431MD1999999+0081REMSYN076AAXX  30124 83182 32597 81413 10211 20133 39343 40174 83201 333 20134 58008;
0137831820999992006053018004-11300-041867FM-12+074799999V0201401N005112200019N0100001N1+02581+01361101331ADDGF108991021021008001001011MA1999999093071MD1999999-0011REMSYN070AAXX  30184 83182 32597 81410 10258 20136 39307 40133 82201 333 59001;
0168831820999992006053100004-11300-041867FM-12+074799999V0201401N001519999999N0010001N1+01791+01421101721ADDGF108991001001999999001011KA1240M+02721MA1999999093361MD1999999+0031REMSYN088AAXX  31004 83182 32994 81403 10179 20142 39336 40172 80001 333 10272 29066 55097 58003;
0156831820999992006053112004-11300-041867FM-12+074799999V0201401N003112200019N0100001N1+02201+01541101731ADDGF108991031021008001001011KA1240N+01331MA1999999093381MD1999999-0051REMSYN076AAXX  31124 83182 32597 81406 10220 20154 39338 40173 83201 333 20133 59005;
0137831820999992006053118004-11300-041867FM-12+074799999V0200901N004612200019N0100001N1+02541+01391101581ADDGF108991021021008001001011MA1999999093231MD1999999+0161REMSYN070AAXX  31184 83182 32597 80909 10254 20139 39323 40158 82201 333 58016;
0168831820999992006060100004-11300-041867FM-12+074799999V0201801N002619999999N0010001N1+01811+01441101711ADDGF108991001001999999001011KA1240M+02681MA1999999093361MD1999999+0001REMSYN088AAXX  01004 83182 32994 81805 10181 20144 39336 40171 80001 333 10268 29068 55082 58000;
0156831820999992006060112004-11300-041867FM-12+074799999V0200901N005119999999N0100001N1+02141+01311101821ADDGF108991001001999999001011KA1240N+01321MA1999999093471MD1999999+0091REMSYN076AAXX  01124 83182 32997 80910 10214 20131 39347 40182 80001 333 20132 58009;
0137831820999992006060118004-11300-041867FM-12+074799999V0200901N003619999999N0100001N1+02991+00931101311ADDGF108991001001999999001011MA1999999093101MD1999999-0131REMSYN070AAXX  01184 83182 32997 80907 10299 20093 39310 40131 80001 333 59013;
0168831820999992006060200004-11300-041867FM-12+074799999V0201401N003119999999N0010001N1+01821+01061101681ADDGF108991001001999999001011KA1240M+03021MA1999999093341MD1999999-0021REMSYN088AAXX  02004 83182 32994 81406 10182 20106 39334 40168 80001 333 10302 29052 55092 59002;
0156831820999992006060212004-11300-041867FM-12+074799999V0201801N004119999999N0100001N1+02061+01151101931ADDGF108991001001999999001011KA1240N+01231MA1999999093551MD1999999+0081REMSYN076AAXX  02124 83182 32997 81808 10206 20115 39355 40193 80001 333 20123 58008;
0137831820999992006060218004-11300-041867FM-12+074799999V0201401N004119999999N0100001N1+02661+00951101531ADDGF108991001001999999001011MA1999999093241MD1999999+0141REMSYN070AAXX  02184 83182 32997 81408 10266 20095 39324 40153 80001 333 58014;
0168831820999992006060300004-11300-041867FM-12+074799999V0201401N002119999999N0010001N1+01711+01141101781ADDGF108991001001999999001011KA1240M+02721MA1999999093411MD1999999+0071REMSYN088AAXX  03004 83182 32994 81404 10171 20114 39341 40178 80001 333 10272 29057 55100 58007;
0156831820999992006060312004-11300-041867FM-12+074799999V0201401N006710075019N0100001N1+02251+01561101821ADDGF108991071051008001001011KA1240N+01311MA1999999093471MD1999999-0111REMSYN076AAXX  03124 83182 32597 81413 10225 20156 39347 40182 87501 333 20131 59011;
0137831820999992006060318004-11300-041867FM-12+074799999V0201401N005110075019N0100001N1+02361+01691101521ADDGF108991081051008001999999MA1999999093171MD1999999-0071REMSYN070AAXX  03184 83182 32597 81410 10236 20169 39317 40152 885// 333 59007;
0213831820999992006060400004-11300-041867FM-12+074799999V0201401N004110042019N0100001N1+01841+01691101781ADDAA106000391AY161061AY221061GF108991051031004501021999KA1240M+02451MA1999999093451MD1999999+0041MW1021REMSYN100AAXX  04004 83182 21497 81408 10184 20169 39345 40178 70262 8532/ 333 10245 29078 55068 58004 69931;
0173831820999992006060412004-11300-041867FM-12+074799999V0201401N005710075019N0100001N1+01981+01441101791ADDAA124000391GF108991081051008001999999KA1240N+01611MA1999999093411MD1999999-0061REMSYN082AAXX  04124 83182 22597 81411 10198 20144 39341 40179 885// 333 20161 59006 69934;
0137831820999992006060418004-11300-041867FM-12+074799999V0201401N005710075019N0100001N1+02181+01341101501ADDGF108991081051008001999999MA1999999093151MD1999999-0021REMSYN070AAXX  04184 83182 32597 81411 10218 20134 39315 40150 885// 333 59002;
0178831820999992006060500004-11300-041867FM-12+074799999V0201401N002612200019N0010001N1+01601+01331101571ADDGA1001+999999999GF100991001001999999001001KA1240M+02361MA1999999093171MD1999999-0281REMSYN082AAXX  05004 83182 32994 01405 10160 20133 39317 40157 333 10236 29074 55013 59028;
0156831820999992006060512004-11300-041867FM-12+074799999V0201401N005710075019N0100001N1+02141+01461101791ADDGF106991061021008001001001KA1240N+01401MA1999999093391MD1999999-0021REMSYN076AAXX  05124 83182 32597 61411 10214 20146 39339 40179 86200 333 20140 59002;
0137831820999992006060518004-11300-041867FM-12+074799999V0201401N004110075019N0100001N1+02441+01331101351ADDGF107991061021008001001011MA1999999093021MD1999999-0131REMSYN070AAXX  05184 83182 32597 71408 10244 20133 39302 40135 86201 333 59013;
0168831820999992006060600004-11300-041867FM-12+074799999V0201401N004112200019N0010001N1+01881+01431101621ADDGF101991001001999999001011KA1240M+02621MA1999999093281MD1999999+0111REMSYN088AAXX  06004 83182 32994 11408 10188 20143 39328 40162 80001 333 10262 29066 55086 58011;
0156831820999992006060612004-11300-041867FM-12+074799999V0201401N003112200019N0100001N1+02241+01601101731ADDGF108991021011012501001011KA1240N+01421MA1999999093401MD1999999+0011REMSYN076AAXX  06124 83182 32697 81406 10224 20160 39340 40173 82101 333 20142 58001;
0137831820999992006060618004-11300-041867FM-12+074799999V0201401N002610075019N0100001N1+02791+01591101251ADDGF108991061021008001001011MA1999999093011MD1999999-0011REMSYN070AAXX  06184 83182 32597 81405 10279 20159 39301 40125 86201 333 59001;
0168831820999992006060700004-11300-041867FM-12+074799999V0201401N004619999999N0010001N1+01971+01621101631ADDGF108991001001999999001011KA1240M+02881MA1999999093331MD1999999+0051REMSYN088AAXX  07004 83182 32994 81409 10197 20162 39333 40163 80001 333 10288 29069 55086 58005;
0156831820999992006060712004-11300-041867FM-12+074799999V0201401N004612200019N0100001N1+02271+01291101731ADDGF104991011011012501001011KA1240N+01481MA1999999093421MD1999999+0021REMSYN076AAXX  07124 83182 32697 41409 10227 20129 39342 40173 81101 333 20148 58002;
0137831820999992006060718004-11300-041867FM-12+074799999V0201801N001012200019N0100001N1+02861+01331101231ADDGF108991021021008001001011MA1999999093031MD1999999+0021REMSYN070AAXX  07184 83182 32597 81802 10286 20133 39303 40123 82201 333 58002;
0156831820999992006060812004-11300-041867FM-12+074799999V0201401N005712200019N0100001N1+02161+01471101661ADDGF108991011011012501001011KA1240N+01421MA1999999093371MD1999999-0051REMSYN076AAXX  08124 83182 32697 81411 10216 20147 39337 40166 81101 333 20142 59005;
0137831820999992006060818004-11300-041867FM-12+074799999V0201401N004110075019N0100001N1+02651+01391101261ADDGF108991051021008001041011MA1999999093021MD1999999-0011REMSYN070AAXX  08184 83182 32597 81408 10265 20139 39302 40126 85241 333 59001;
0168831820999992006060900004-11300-041867FM-12+074799999V0201401N002612200019N0010001N1+01931+01451101621ADDGF108991031001017501031011KA1240M+02731MA1999999093301MD1999999+0051REMSYN088AAXX  09004 83182 32794 81405 10193 20145 39330 40162 83031 333 10273 29065 55104 58005;
0156831820999992006060912004-11300-041867FM-12+074799999V0201401N005112200019N0100001N1+02161+01431101681ADDGF103991031021008001001001KA1240N+01401MA1999999093351MD1999999-0021REMSYN076AAXX  09124 83182 32597 31410 10216 20143 39335 40168 83200 333 20140 59002;
0137831820999992006060918004-11300-041867FM-12+074799999V0201401N003112200019N0100001N1+02631+01331101221ADDGF102991021021008001001001MA1999999092971MD1999999-0051REMSYN070AAXX  09184 83182 32597 21406 10263 20133 39297 40122 82200 333 59005;
0178831820999992006061000004-11300-041867FM-12+074799999V0201401N002112200019N0010001N1+01741+01391101581ADDGA1001+999999999GF100991001001999999001001KA1240M+02691MA1999999093231MD1999999-0071REMSYN082AAXX  10004 83182 32994 01404 10174 20139 39323 40158 333 10269 29067 55105 59007;
0156831820999992006061012004-11300-041867FM-12+074799999V0200901N005710075019N0100001N1+02181+01561101641ADDGF108991081051008001999999KA1240N+01541MA1999999093281MD1999999-0071REMSYN076AAXX  10124 83182 32597 80911 10218 20156 39328 40164 885// 333 20154 59007;
0156831820999992006061018004-11300-041867FM-12+074799999V0200901N004110075019N0100001N1+02751+01681101101ADDGF108991999051008001001001MA1999999092871MD1999999-0101REMSYN070AAXX  10184 83182 32597 80908 10275 20168 39287 40110 86500 333 59010;EQDQ01+000062SCOTLC
0178831820999992006061100004-11300-041867FM-12+074799999V0201401N003112200019N0010001N1+01851+01571101431ADDGA1001+999999999GF100991001001999999001001KA1240M+02781MA1999999093111MD1999999-0121REMSYN082AAXX  11004 83182 32994 01406 10185 20157 39311 40143 333 10278 29072 55065 59012;
0156831820999992006061112004-11300-041867FM-12+074799999V0201401N005110075019N0100001N1+02151+01531101621ADDGF106991061021008001001001KA1240N+01261MA1999999093281MD1999999+0001REMSYN076AAXX  11124 83182 32597 61410 10215 20153 39328 40162 86200 333 20126 58000;
0137831820999992006061118004-11300-041867FM-12+074799999V0201401N004112200019N0100001N1+02771+01401101191ADDGF108991021011008001001011MA1999999092941MD1999999+0071REMSYN070AAXX  11184 83182 32597 81408 10277 20140 39294 40119 82101 333 58007;
0156831820999992006061212004-11300-041867FM-12+074799999V0201401N005110450019N0100001N1+02341+01601101581ADDGF106991041021008001041001KA1240N+01671MA1999999093301MD1999999+0021REMSYN076AAXX  12124 83182 32597 61410 10234 20160 39330 40158 84240 333 20167 58002;
0137831820999992006061218004-11300-041867FM-12+074799999V0201401N004110075019N0100001N1+02541+01651101371ADDGF108991081051008001999999MA1999999093131MD1999999+0181REMSYN070AAXX  12184 83182 32597 81408 10254 20165 39313 40137 885// 333 58018;
0168831820999992006061300004-11300-041867FM-12+074799999V0201401N004110075019N0010001N1+02081+01741101631ADDGF108991081051008001999999KA1240M+02741MA1999999093381MD1999999+0171REMSYN088AAXX  13004 83182 32594 81408 10208 20174 39338 40163 885// 333 10274 29071 55040 58017;
0156831820999992006061312004-11300-041867FM-12+074799999V0201401N005710075019N0100001N1+02231+01681101781ADDGF108991081051008001999999KA1240N+01761MA1999999093481MD1999999+0181REMSYN076AAXX  13124 83182 32597 81411 10223 20168 39348 40178 885// 333 20176 58018;
0137831820999992006061318004-11300-041867FM-12+074799999V0201401N005110075019N0100001N1+02431+01801101501ADDGF108991081051008001999999MA1999999093251MD1999999+0121REMSYN070AAXX  13184 83182 32597 81410 10243 20180 39325 40150 885// 333 58012;
0168831820999992006061400004-11300-041867FM-12+074799999V0201401N005110075019N0010001N1+01911+01411101841ADDGF108991081051008001999999KA1240M+02581MA1999999093501MD1999999+0121REMSYN088AAXX  14004 83182 32594 81410 10191 20141 39350 40184 885// 333 10258 29072 55030 58012;
0156831820999992006061412004-11300-041867FM-12+074799999V0201401N005710075019N0100001N1+02201+01441101861ADDGF107991061051008001051001KA1240N+01601MA1999999093521MD1999999+0041REMSYN076AAXX  14124 83182 32597 71411 10220 20144 39352 40186 86550 333 20160 58004;
0137831820999992006061418004-11300-041867FM-12+074799999V0201401N005710075019N0100001N1+02241+01571101601ADDGF108991081051008001999999MA1999999093261MD1999999+0011REMSYN070AAXX  14184 83182 32597 81411 10224 20157 39326 40160 885// 333 58001;
0168831820999992006061500004-11300-041867FM-12+074799999V0201401N004110075019N0010001N1+01891+01371101781ADDGF108991081051008001999999KA1240M+02361MA1999999093451MD1999999-0051REMSYN088AAXX  15004 83182 32594 81408 10189 20137 39345 40178 885// 333 10236 29068 55006 59005;
0156831820999992006061512004-11300-041867FM-12+074799999V0201401N005112200019N0100001N1+02261+01641101661ADDGF103991031021008001001001KA1240N+01491MA1999999093351MD1999999-0171REMSYN076AAXX  15124 83182 32597 31410 10226 20164 39335 40166 83200 333 20149 59017;
0137831820999992006061518004-11300-041867FM-12+074799999V0201401N005110075019N0100001N1+02361+01511101431ADDGF107991071051008001001001MA1999999093181MD1999999-0081REMSYN070AAXX  15184 83182 32597 71410 10236 20151 39318 40143 87500 333 59008;
0168831820999992006061600004-11300-041867FM-12+074799999V0200901N002110075019N0100001N1+01881+01531101731ADDGF108991081051008001999999KA1240M+02521MA1999999093401MD1999999-0051REMSYN088AAXX  16004 83182 32597 80904 10188 20153 39340 40173 885// 333 10252 29072 55067 59005;
0156831820999992006061612004-11300-041867FM-12+074799999V0200901N003110075019N0100001N1+02321+01531101831ADDGF106991061021008001001001KA1240N+01531MA1999999093511MD1999999+0161REMSYN076AAXX  16124 83182 32597 60906 10232 20153 39351 40183 86200 333 20153 58016;
0201831820999992006061618004-11300-041867FM-12+074799999V0201401N002610075019N0100001N1+02421+01681101621ADDAA106000091AY161061AY221061GF106991061051008001001001MA1999999093301MD1999999+0121MW1011REMSYN082AAXX  16184 83182 21597 61405 10242 20168 39330 40162 70162 86500 333 58012 69921;EQDQ01  00002PRCP06
0168831820999992006061700004-11300-041867FM-12+074799999V0201401N004110075019N0010001N1+02041+01821101761ADDGF108991081051008001999999KA1240M+02691MA1999999093481MD1999999+0081REMSYN088AAXX  17004 83182 32594 81408 10204 20182 39348 40176 885// 333 10269 29074 55067 58008;
0137831820999992006061718004-11300-041867FM-12+074799999V0201401N005112200019N0100001N1+02701+01301101501ADDGF102991021021008001001001MA1999999093261MD1999999-0041REMSYN070AAXX  17184 83182 32597 21410 10270 20130 39326 40150 82200 333 59004;
0168831820999992006061800004-11300-041867FM-12+074799999V0201401N004112200019N0010001N1+01901+01661101811ADDGF102991021001017501051001KA1240M+02791MA1999999093491MD1999999+0011REMSYN088AAXX  18004 83182 32794 21408 10190 20166 39349 40181 82050 333 10279 29069 55101 58001;
0156831820999992006061812004-11300-041867FM-12+074799999V0201401N005712200019N0100001N1+02161+01271101931ADDGF102991021021008001001001KA1240N+01601MA1999999093591MD1999999+0121REMSYN076AAXX  18124 83182 32597 21411 10216 20127 39359 40193 82200 333 20160 58012;
0137831820999992006061818004-11300-041867FM-12+074799999V0201401N004612200019N0100001N1+02521+01401101581ADDGF101991011011012501001001MA1999999093301MD1999999+0041REMSYN070AAXX  18184 83182 32697 11409 10252 20140 39330 40158 81100 333 58004;
0178831820999992006061900004-11300-041867FM-12+074799999V0201401N002612200019N0010001N1+01851+01711101771ADDGA1001+999999999GF100991001001999999001001KA1240M+02651MA1999999093431MD1999999-0061REMSYN082AAXX  19004 83182 32994 01405 10185 20171 39343 40177 333 10265 29073 55100 59006;
0156831820999992006061912004-11300-041867FM-12+074799999V0201401N006712200019N0100001N1+02101+01421101841ADDGF104991041021008001001001KA1240N+01251MA1999999093581MD1999999-0011REMSYN076AAXX  19124 83182 32597 41413 10210 20142 39358 40184 84200 333 20125 59001;
0137831820999992006061918004-11300-041867FM-12+074799999V0201401N006212200019N0100001N1+02621+01331101511ADDGF104991041021008001001001MA1999999093221MD1999999-0081REMSYN070AAXX  19184 83182 32597 41412 10262 20133 39322 40151 84200 333 59008;
0168831820999992006062000004-11300-041867FM-12+074799999V0201401N004110075019N0010001N1+02031+01461101761ADDGF108991081051008001999999KA1240M+02641MA1999999093431MD1999999+0001REMSYN088AAXX  20004 83182 32594 81408 10203 20146 39343 40176 885// 333 10264 29064 55094 58000;
0156831820999992006062012004-11300-041867FM-12+074799999V0201401N005710075019N0100001N1+02021+01411101961ADDGF106991061051008001001001KA1240N+01691MA1999999093601MD1999999+0021REMSYN076AAXX  20124 83182 32597 61411 10202 20141 39360 40196 86500 333 20169 58002;
0137831820999992006062018004-11300-041867FM-12+074799999V0200901N005710075019N0100001N1+02421+01421101601ADDGF106991061021008001001001MA1999999093321MD1999999+0101REMSYN070AAXX  20184 83182 32597 60911 10242 20142 39332 40160 86200 333 58010;
0178831820999992006062100004-11300-041867FM-12+074799999V0201401N003112200019N0010001N1+01821+01391101961ADDGA1001+999999999GF100991001001999999001001KA1240M+02481MA1999999093561MD1999999+0131REMSYN082AAXX  21004 83182 32994 01406 10182 20139 39356 40196 333 10248 29068 55058 58013;
0156831820999992006062112004-11300-041867FM-12+074799999V0201401N005710075019N0100001N1+02131+01401102001ADDGF106991061051008001001001KA1240N+01371MA1999999093641MD1999999+0041REMSYN076AAXX  21124 83182 32597 61411 10213 20140 39364 40200 86500 333 20137 58004;
0137831820999992006062118004-11300-041867FM-12+074799999V0200901N005110075019N0100001N1+02641+01321101641ADDGF106991051021008001001011MA1999999093341MD1999999+0021REMSYN070AAXX  21184 83182 32597 60910 10264 20132 39334 40164 85201 333 58002;
0168831820999992006062200004-11300-041867FM-12+074799999V0201401N002612200019N0010001N1+02051+01571101801ADDGF102991001001999999001011KA1240M+02691MA1999999093481MD1999999-0081REMSYN088AAXX  22004 83182 32994 21405 10205 20157 39348 40180 80001 333 10269 29064 55093 59008;
0220831820999992006062212004-11300-041867FM-12+074799999V0201401N002110042019N0100001N1+02161+01661101841ADDAA124000091AY161061AY221061GF108991081071004501999999KA1240N+01721MA1999999093521MD1999999-0121MW1021REMSYN088AAXX  22124 83182 21497 81404 10216 20166 39352 40184 70262 887// 333 20172 59012 69914;EQDQ01  00002PRCP24
0137831820999992006062218004-11300-041867FM-12+074799999V0200901N004110075019N0100001N1+02461+01611101541ADDGF108991081051008001999999MA1999999093261MD1999999-0081REMSYN070AAXX  22184 83182 32597 80908 10246 20161 39326 40154 885// 333 59008;
0213831820999992006062300004-11300-041867FM-12+074799999V0201401N002612200019N0010001N1+01781+01491101941ADDAA106000591AY161061AY221061GF103991031051008001001001KA1240M+02651MA1999999093561MD1999999+0041MW1001REMSYN100AAXX  23004 83182 21594 31405 10178 20149 39356 40194 70062 83500 333 10265 29074 55031 58004 69941;
0173831820999992006062312004-11300-041867FM-12+074799999V0201401N008212200019N0100001N1+01891+01191102091ADDAA124000591GF108991011011012501001011KA1240N+01201MA1999999093661MD1999999+0141REMSYN082AAXX  23124 83182 22697 81416 10189 20119 39366 40209 81101 333 20120 58014 69944;
0137831820999992006062318004-11300-041867FM-12+074799999V0200901N004112200019N0100001N1+02641+01321101501ADDGF108991031011012501001011MA1999999093191MD1999999-0071REMSYN070AAXX  23184 83182 32697 80908 10264 20132 39319 40150 83101 333 59007;
0168831820999992006062400004-11300-041867FM-12+074799999V0200901N002119999999N0010001N1+01851+01421101841ADDGF108991001001999999001011KA1240M+02661MA1999999093441MD1999999-0121REMSYN088AAXX  24004 83182 32994 80904 10185 20142 39344 40184 80001 333 10266 29065 55096 59012;
0156831820999992006062412004-11300-041867FM-12+074799999V0200901N004110075019N0100001N1+02111+01611101781ADDGF108991081051008001999999KA1240N+01571MA1999999093431MD1999999-0231REMSYN076AAXX  24124 83182 32597 80908 10211 20161 39343 40178 885// 333 20157 59023;
0137831820999992006062418004-11300-041867FM-12+074799999V0200901N004110075019N0100001N1+02361+01801101441ADDGF108991081051008001999999MA1999999093141MD1999999-0051REMSYN070AAXX  24184 83182 32597 80908 10236 20180 39314 40144 885// 333 59005;
0168831820999992006062500004-11300-041867FM-12+074799999V0200901N003110075019N0010001N1+02051+01771101701ADDGF108991081051008001999999KA1240M+02531MA1999999093391MD1999999-0051REMSYN088AAXX  25004 83182 32594 80906 10205 20177 39339 40170 885// 333 10253 29078 55029 59005;
0156831820999992006062512004-11300-041867FM-12+074799999V0201401N005112200019N0100001N1+02261+01421101811ADDGF108991031021008001001011KA1240N+01461MA1999999093511MD1999999+0081REMSYN076AAXX  25124 83182 32597 81410 10226 20142 39351 40181 83201 333 20146 58008;
0137831820999992006062518004-11300-041867FM-12+074799999V0200901N005710075019N0100001N1+02541+01421101461ADDGF108991051021008001001011MA1999999093191MD1999999+0051REMSYN070AAXX  25184 83182 32597 80911 10254 20142 39319 40146 85201 333 58005;
0168831820999992006062600004-11300-041867FM-12+074799999V0200901N002619999999N0010001N1+01901+01571101761ADDGF108991001001999999001011KA1240M+02721MA1999999093451MD1999999+0061REMSYN088AAXX  26004 83182 32994 80905 10190 20157 39345 40176 80001 333 10272 29068 55082 58006;
0137831820999992006062618004-11300-041867FM-12+074799999V0200901N002112200019N0100001N1+02781+01481101391ADDGF108991041021008001001011MA1999999093151MD1999999-0041REMSYN070AAXX  26184 83182 32597 80904 10278 20148 39315 40139 84201 333 59004;
0168831820999992006062700004-11300-041867FM-12+074799999V0201401N003119999999N0010001N1+02001+01561101711ADDGF108991001001999999001011KA1240M+02831MA1999999093381MD1999999-0071REMSYN088AAXX  27004 83182 32994 81406 10200 20156 39338 40171 80001 333 10283 29067 55079 59007;
0156831820999992006062712004-11300-041867FM-12+074799999V0200901N003110075019N0100001N1+02011+01611101941ADDGF108991081051008001999999KA1240N+01411MA1999999093581MD1999999+0061REMSYN076AAXX  27124 83182 32597 80906 10201 20161 39358 40194 885// 333 20141 58006;
0137831820999992006062718004-11300-041867FM-12+074799999V0201401N002112200019N0100001N1+02931+01221101351ADDGF108991031021008001001011MA1999999093141MD1999999-0011REMSYN070AAXX  27184 83182 32597 81404 10293 20122 39314 40135 83201 333 59001;
0168831820999992006062800004-11300-041867FM-12+074799999V0200901N004619999999N0010001N1+02131+01691101721ADDGF108991001001999999001011KA1240M+03011MA1999999093391MD1999999+0011REMSYN088AAXX  28004 83182 32994 80909 10213 20169 39339 40172 80001 333 10301 29066 55077 58001;
0156831820999992006062812004-11300-041867FM-12+074799999V0201401N005119999999N0100001N1+02351+01721101841ADDGF108991001001999999001011KA1240N+01451MA1999999093571MD1999999-0011REMSYN076AAXX  28124 83182 32997 81410 10235 20172 39357 40184 80001 333 20145 59001;
0137831820999992006062818004-11300-041867FM-12+074799999V0201401N003110075019N0100001N1+02801+01351101511ADDGF108991071021008001001011MA1999999093281MD1999999+0141REMSYN070AAXX  28184 83182 32597 81406 10280 20135 39328 40151 87201 333 58014;
0168831820999992006062900004-11300-041867FM-12+074799999V0201401N003119999999N0010001N1+02081+01661101791ADDGF108991001001999999001011KA1240M+02971MA1999999093511MD1999999+0121REMSYN088AAXX  29004 83182 32994 81406 10208 20166 39351 40179 80001 333 10297 29066 55077 58012;
0156831820999992006063012004-11300-041867FM-12+074799999V0201401N005110075019N0100001N1+02071+01531102071ADDGF108991081051008001999999KA1240N+01521MA1999999093701MD1999999+0031REMSYN076AAXX  30124 83182 32597 81410 10207 20153 39370 40207 885// 333 20152 58003;
0137831820999992006063018004-11300-041867FM-12+074799999V0200901N005110075019N0100001N1+02231+01611101851ADDGF108991081051008001999999MA1999999093501MD1999999+0141REMSYN070AAXX  30184 83182 32597 80910 10223 20161 39350 40185 885// 333 58014;
0168831820999992006070100004-11300-041867FM-12+074799999V0201401N003119999999N0010001N1+01791+01591102031ADDGF108991001001999999001011KA1240M+02351MA1999999093651MD1999999+0031REMSYN088AAXX  01004 83182 32994 81406 10179 20159 39365 40203 80001 333 10235 29079 55009 58003;
0156831820999992006070112004-11300-041867FM-12+074799999V0201401N005712200019N0100001N1+02011+01381102101ADDGF108991031011012501001011KA1240N+01381MA1999999093701MD1999999+0001REMSYN076AAXX  01124 83182 32697 81411 10201 20138 39370 40210 83101 333 20138 58000;
0137831820999992006070118004-11300-041867FM-12+074799999V0201401N004612200019N0100001N1+02591+01471101731ADDGF108991031021008001001011MA1999999093421MD1999999-0081REMSYN070AAXX  01184 83182 32597 81409 10259 20147 39342 40173 83201 333 59008;
0168831820999992006070200004-11300-041867FM-12+074799999V0201401N004610075019N0010001N1+01941+01591101961ADDGF108991081051008001999999KA1240M+02671MA1999999093601MD1999999-0021REMSYN088AAXX  02004 83182 32594 81409 10194 20159 39360 40196 885// 333 10267 29070 55086 59002;
0156831820999992006070212004-11300-041867FM-12+074799999V0201401N006712200019N0100001N1+02071+01321102031ADDGF108991021011012501001011KA1240N+01371MA1999999093661MD1999999-0041REMSYN076AAXX  02124 83182 32697 81413 10207 20132 39366 40203 82101 333 20137 59004;
0137831820999992006070218004-11300-041867FM-12+074799999V0201401N005112200019N0100001N1+02421+01401101721ADDGF108991031011012501001011MA1999999093391MD1999999-0031REMSYN070AAXX  02184 83182 32697 81410 10242 20140 39339 40172 83101 333 59003;
0168831820999992006070300004-11300-041867FM-12+074799999V0201401N002619999999N0010001N1+01791+01401102031ADDGF108991001001999999001011KA1240M+02581MA1999999093651MD1999999+0051REMSYN088AAXX  03004 83182 32994 81405 10179 20140 39365 40203 80001 333 10258 29068 55098 58005;
0156831820999992006070312004-11300-041867FM-12+074799999V0201401N005710075019N0100001N1+02161+01471102051ADDGF108991061051008001041011KA1240N+01491MA1999999093681MD1999999+0021REMSYN076AAXX  03124 83182 32597 81411 10216 20147 39368 40205 86541 333 20149 58002;
0137831820999992006070318004-11300-041867FM-12+074799999V0201401N004610450019N0100001N1+02631+01401101681ADDGF108991041021008001041011MA1999999093361MD1999999+0031REMSYN070AAXX  03184 83182 32597 81409 10263 20140 39336 40168 84241 333 58003;
0168831820999992006070400004-11300-041867FM-12+074799999V0201401N004110450019N0010001N1+01901+01551102131ADDGF108991021051008001051011KA1240M+02661MA1999999093751MD1999999+0101REMSYN088AAXX  04004 83182 32594 81408 10190 20155 39375 40213 82551 333 10266 29068 55045 58010;
0156831820999992006070412004-11300-041867FM-12+074799999V0201401N005112200019N0100001N1+02151+01371102101ADDGF108991021011012501001011KA1240N+01601MA1999999093711MD1999999+0051REMSYN076AAXX  04124 83182 32697 81410 10215 20137 39371 40210 82101 333 20160 58005;
0137831820999992006070418004-11300-041867FM-12+074799999V0201401N004110075019N0100001N1+02481+01491101731ADDGF108991081051008001999999MA1999999093421MD1999999+0061REMSYN070AAXX  04184 83182 32597 81408 10248 20149 39342 40173 885// 333 58006;
0168831820999992006070500004-11300-041867FM-12+074799999V0201401N003119999999N0010001N1+01841+01471101931ADDGF108991001001999999001011KA1240M+02581MA1999999093571MD1999999-0181REMSYN088AAXX  05004 83182 32994 81406 10184 20147 39357 40193 80001 333 10258 29068 55043 59018;
0156831820999992006070512004-11300-041867FM-12+074799999V0200901N004119999999N0100001N1+02131+01271102031ADDGF108991001001999999001011KA1240N+01401MA1999999093661MD1999999-0071REMSYN076AAXX  05124 83182 32997 80908 10213 20127 39366 40203 80001 333 20140 59007;
0137831820999992006070518004-11300-041867FM-12+074799999V0201401N003112200019N0100001N1+02781+01371101521ADDGF108991031021008001001011MA1999999093261MD1999999-0161REMSYN070AAXX  05184 83182 32597 81406 10278 20137 39326 40152 83201 333 59016;
0168831820999992006070600004-11300-041867FM-12+074799999V0200901N003119999999N0010001N1+01931+01451101921ADDGF108991001001999999001011KA1240M+02831MA1999999093581MD1999999+0011REMSYN088AAXX  06004 83182 32994 80906 10193 20145 39358 40192 80001 333 10283 29062 55090 58001;
0156831820999992006070612004-11300-041867FM-12+074799999V0201401N003110075019N0100001N1+02131+01541102071ADDGF108991081051008001999999KA1240N+01331MA1999999093721MD1999999+0061REMSYN076AAXX  06124 83182 32597 81406 10213 20154 39372 40207 885// 333 20133 58006;
0137831820999992006070618004-11300-041867FM-12+074799999V0200901N003610075019N0100001N1+02571+01681101711ADDGF108991061051008001001011MA1999999093401MD1999999+0141REMSYN070AAXX  06184 83182 32597 80907 10257 20168 39340 40171 86501 333 58014;
0168831820999992006070700004-11300-041867FM-12+074799999V0200901N004119999999N0010001N1+01951+01701102051ADDGF108991001001999999001011KA1240M+02651MA1999999093681MD1999999+0101REMSYN088AAXX  07004 83182 32994 80908 10195 20170 39368 40205 80001 333 10265 29075 55027 58010;
0137831820999992006070718004-11300-041867FM-12+074799999V0200901N005110075019N0100001N1+02431+01631101741ADDGF108991071051008001001011MA1999999093431MD1999999+0031REMSYN070AAXX  07184 83182 32597 80910 10243 20163 39343 40174 87501 333 58003;
0168831820999992006070800004-11300-041867FM-12+074799999V0201401N001512200019N0010001N1+01821+01371101921ADDGF102991011001017501041011KA1240M+02591MA1999999093641MD1999999-0041REMSYN088AAXX  08004 83182 32794 21403 10182 20137 39364 40192 81041 333 10259 29070 55066 59004;
0156831820999992006070812004-11300-041867FM-12+074799999V0201401N005112200019N0100001N1+02151+01281101991ADDGF101991011001017501041001KA1240N+01241MA1999999093631MD1999999-0091REMSYN076AAXX  08124 83182 32797 11410 10215 20128 39363 40199 81040 333 20124 59009;
0137831820999992006070818004-11300-041867FM-12+074799999V0201401N003112200019N0100001N1+02761+01391101391ADDGF102991021011012501001001MA1999999093131MD1999999+0301REMSYN070AAXX  08184 83182 32697 21406 10276 20139 39313 40139 82100 333 58030;
0166831820999992006070912004-11300-041867FM-12+074799999V0201401N004112200019N0100001N1+02051+01351101941ADDGA1001+999999999GF100991001001999999001001KA1240N+01241MA1999999093581MD1999999-0051REMSYN070AAXX  09124 83182 32997 01408 10205 20135 39358 40194 333 20124 59005;
0137831820999992006070918004-11300-041867FM-12+074799999V0200501N002612200019N0100001N1+02941+01151101421ADDGF101991011011012501001011MA1999999093181MD1999999+0051REMSYN070AAXX  09184 83182 32697 10505 10294 20115 39318 40142 81101 333 58005;
0156831820999992006071012004-11300-041867FM-12+074799999V0201401N004612200019N0100001N1+02201+01441101791ADDGF103991031021008001001001KA1240N+01271MA1999999093471MD1999999-0111REMSYN076AAXX  10124 83182 32597 31409 10220 20144 39347 40179 83200 333 20127 59011;
0147831820999992006071018004-11300-041867FM-12+074799999V0200901N005112200019N0100001N1+02761+01161101451ADDGA1001+999999999GF100991001001999999001001MA1999999093201MD1999999+0021REMSYN064AAXX  10184 83182 32997 00910 10276 20116 39320 40145 333 58002;
0178831820999992006071100004-11300-041867FM-12+074799999V0201401N002612200019N0010001N1+01621+01161101831ADDGA1001+999999999GF100991001001999999001001KA1240M+02801MA1999999093451MD1999999+0121REMSYN082AAXX  11004 83182 32994 01405 10162 20116 39345 40183 333 10280 29062 55098 58012;
0156831820999992006071112004-11300-041867FM-12+074799999V0201401N005710075019N0100001N1+02251+01611101961ADDGF108991081051008001999999KA1240N+01391MA1999999093581MD1999999+0111REMSYN076AAXX  11124 83182 32597 81411 10225 20161 39358 40196 885// 333 20139 58011;
0154831820999992006071118004-11300-041867FM-12+074799999V0200901N005712200019N0100001N1+02641+01321101591ADDAA109140091GF102991011021008001041001MA1999999093271MD1999999+0071REMSYN076AAXX  11184 83182 32597 20911 10264 20132 39327 40159 81240 333 58007 61408;
0168831820999992006071200004-11300-041867FM-12+074799999V0201401N003612200019N0010001N1+01791+01591101791ADDGF101991011021008001001001KA1240M+02831MA1999999093511MD1999999+0061REMSYN088AAXX  12004 83182 32594 11407 10179 20159 39351 40179 81200 333 10283 29072 55067 58006;
0156831820999992006071212004-11300-041867FM-12+074799999V0200901N005112200019N0100001N1+02181+01441102001ADDGF108991031021008001001011KA1240N+01421MA1999999093641MD1999999+0061REMSYN076AAXX  12124 83182 32597 80910 10218 20144 39364 40200 83201 333 20142 58006;
0137831820999992006071218004-11300-041867FM-12+074799999V0200901N006712200019N0100001N1+02751+01551101561ADDGF108991011011012501001011MA1999999093301MD1999999+0031REMSYN070AAXX  12184 83182 32697 80913 10275 20155 39330 40156 81101 333 58003;
0168831820999992006071300004-11300-041867FM-12+074799999V0200901N003119999999N0010001N1+01891+01351101821ADDGF108991001001999999001011KA1240M+02771MA1999999093481MD1999999-0031REMSYN088AAXX  13004 83182 32994 80906 10189 20135 39348 40182 80001 333 10277 29063 55099 59003;
0156831820999992006071312004-11300-041867FM-12+074799999V0201401N005110075019N0100001N1+02211+01541101971ADDGF108991061051008001001011KA1240N+01471MA1999999093611MD1999999-0031REMSYN076AAXX  13124 83182 32597 81410 10221 20154 39361 40197 86501 333 20147 59003;
0137831820999992006071318004-11300-041867FM-12+074799999V0200901N006712200019N0100001N1+02641+01281101601ADDGF104991041021008001001001MA1999999093321MD1999999+0021REMSYN070AAXX  13184 83182 32597 40913 10264 20128 39332 40160 84200 333 58002;
0168831820999992006071400004-11300-041867FM-12+074799999V0201401N003119999999N0010001N1+01801+01221101871ADDGF108991001001999999001011KA1240M+02681MA1999999093511MD1999999+0031REMSYN088AAXX  14004 83182 32994 81406 10180 20122 39351 40187 80001 333 10268 29062 55091 58003;
0156831820999992006071412004-11300-041867FM-12+074799999V0201401N006210075019N0100001N1+01921+01381101991ADDGF108991081051008001999999KA1240N+01351MA1999999093571MD1999999-0041REMSYN076AAXX  14124 83182 32597 81412 10192 20138 39357 40199 885// 333 20135 59004;
0137831820999992006071418004-11300-041867FM-12+074799999V0201401N005710075019N0100001N1+02481+01071101611ADDGF108991061021008001001011MA1999999093291MD1999999-0031REMSYN070AAXX  14184 83182 32597 81411 10248 20107 39329 40161 86201 333 59003;
0168831820999992006071500004-11300-041867FM-12+074799999V0201401N003619999999N0010001N1+01781+01351101911ADDGF108991001001999999001011KA1240M+02521MA1999999093501MD1999999-0011REMSYN088AAXX  15004 83182 32994 81407 10178 20135 39350 40191 80001 333 10252 29058 55076 59001;
0156831820999992006071512004-11300-041867FM-12+074799999V0201401N006212200019N0100001N1+02041+01341102071ADDGF108991041021008001001011KA1240N+01351MA1999999093661MD1999999+0091REMSYN076AAXX  15124 83182 32597 81412 10204 20134 39366 40207 84201 333 20135 58009;
0137831820999992006071518004-11300-041867FM-12+074799999V0200901N005112200019N0100001N1+02581+01521101621ADDGF108991031021008001001011MA1999999093321MD1999999+0031REMSYN070AAXX  15184 83182 32597 80910 10258 20152 39332 40162 83201 333 58003;
0156831820999992006071612004-11300-041867FM-12+074799999V0201401N006710075019N0100001N1+02071+01531101891ADDGF108991071051008001001011KA1240N+01421MA1999999093541MD1999999-0121REMSYN076AAXX  16124 83182 32597 81413 10207 20153 39354 40189 87501 333 20142 59012;
0137831820999992006071618004-11300-041867FM-12+074799999V0200901N005710075019N0100001N1+02431+01601101621ADDGF108991081051008001999999MA1999999093301MD1999999-0021REMSYN070AAXX  16184 83182 32597 80911 10243 20160 39330 40162 885// 333 59002;
0156831820999992006071712004-11300-041867FM-12+074799999V0200901N005110075019N0100001N1+02101+01321102051ADDGF108991081051008001999999KA1240N+01641MA1999999093661MD1999999+0121REMSYN076AAXX  17124 83182 32597 80910 10210 20132 39366 40205 885// 333 20164 58012;
0137831820999992006071718004-11300-041867FM-12+074799999V0201401N005110075019N0100001N1+02321+01421101741ADDGF108991081051008001999999MA1999999093391MD1999999+0091REMSYN070AAXX  17184 83182 32597 81410 10232 20142 39339 40174 885// 333 58009;
0168831820999992006071800004-11300-041867FM-12+074799999V0201401N002610075019N0010001N1+01761+01331101951ADDGF108991081051008001999999KA1240M+02451MA1999999093561MD1999999-0021REMSYN088AAXX  18004 83182 32594 81405 10176 20133 39356 40195 885// 333 10245 29068 55025 59002;
0156831820999992006071812004-11300-041867FM-12+074799999V0201401N005112200019N0010001N1+02021+01271101981ADDGF104991041051008001001001KA1240N+01221MA1999999093581MD1999999-0061REMSYN076AAXX  18124 83182 32594 41410 10202 20127 39358 40198 84500 333 20122 59006;
0137831820999992006071818004-11300-041867FM-12+074799999V0201401N003112200019N0100001N1+02651+01131101451ADDGF103991031021008001001001MA1999999093161MD1999999-0231REMSYN070AAXX  18184 83182 32597 31406 10265 20113 39316 40145 83200 333 59023;
0156831820999992006071912004-11300-041867FM-12+074799999V0201401N002619999999N0100001N1+02021+01291101901ADDGF108991001001999999001011KA1240N+01211MA1999999093511MD1999999-0071REMSYN076AAXX  19124 83182 32997 81405 10202 20129 39351 40190 80001 333 20121 59007;
0137831820999992006071918004-11300-041867FM-12+074799999V0202301N002112200019N0100001N1+02851+00811101371ADDGF102991021021008001001001MA1999999093131MD1999999-0031REMSYN070AAXX  19184 83182 32597 22304 10285 20081 39313 40137 82200 333 59003;
0168831820999992006072000004-11300-041867FM-12+074799999V0200901N005110075019N0010001N1+02121+01211101651ADDGF108991081051008001999999KA1240M+02881MA1999999093351MD1999999-0091REMSYN088AAXX  20004 83182 32594 80910 10212 20121 39335 40165 885// 333 10288 29051 55102 59009;
0156831820999992006072012004-11300-041867FM-12+074799999V0201401N003112200019N0100001N1+02201+01361101871ADDGF101991001001999999001011KA1240N+01191MA1999999093561MD1999999+0051REMSYN076AAXX  20124 83182 32997 11406 10220 20136 39356 40187 80001 333 20119 58005;
0137831820999992006072018004-11300-041867FM-12+074799999V0203201N001012200019N0100001N1+03001+00781101361ADDGF102991011011012501001011MA1999999093161MD1999999+0031REMSYN070AAXX  20184 83182 32697 23202 10300 20078 39316 40136 81101 333 58003;
0168831820999992006072100004-11300-041867FM-12+074799999V0201401N003112200019N0010001N1+02001+01351101701ADDGF101991001001999999001011KA1240M+03041MA1999999093391MD1999999+0041REMSYN088AAXX  21004 83182 32994 11406 10200 20135 39339 40170 80001 333 10304 29054 55105 58004;
0156831820999992006072112004-11300-041867FM-12+074799999V0201401N005119999999N0100001N1+02141+01361101961ADDGF108991001001999999001011KA1240N+01331MA1999999093621MD1999999+0061REMSYN076AAXX  21124 83182 32997 81410 10214 20136 39362 40196 80001 333 20133 58006;
0137831820999992006072118004-11300-041867FM-12+074799999V0200901N003119999999N0100001N1+02841+01151101471ADDGF108991001001999999001011MA1999999093231MD1999999+0071REMSYN070AAXX  21184 83182 32997 80906 10284 20115 39323 40147 80001 333 58007;
0168831820999992006072200004-11300-041867FM-12+074799999V0201401N003119999999N0010001N1+01951+01181101771ADDGF108991001001999999001011KA1240M+02881MA1999999093441MD1999999+0051REMSYN088AAXX  22004 83182 32994 81406 10195 20118 39344 40177 80001 333 10288 29054 55103 58005;
0166831820999992006072212004-11300-041867FM-12+074799999V0200901N006712200019N0100001N1+02031+00701101951ADDGA1001+999999999GF100991001001999999001001KA1240N+01171MA1999999093591MD1999999-0031REMSYN070AAXX  22124 83182 32997 00913 10203 20070 39359 40195 333 20117 59003;
0147831820999992006072218004-11300-041867FM-12+074799999V0201401N004112200019N0100001N1+02731+00871101441ADDGA1001+999999999GF100991001001999999001001MA1999999093171MD1999999-0061REMSYN064AAXX  22184 83182 32997 01408 10273 20087 39317 40144 333 59006;
0178831820999992006072300004-11300-041867FM-12+074799999V0200901N002612200019N0010001N1+01751+01111101741ADDGA1001+999999999GF100991001001999999001001KA1240M+02741MA1999999093361MD1999999-0081REMSYN082AAXX  23004 83182 32994 00905 10175 20111 39336 40174 333 10274 29051 55107 59008;
0156831820999992006072312004-11300-041867FM-12+074799999V0201401N003110075019N0100001N1+01951+01371101831ADDGF108991081051008001999999KA1240N+01121MA1999999093431MD1999999-0161REMSYN076AAXX  23124 83182 32597 81406 10195 20137 39343 40183 885// 333 20112 59016;
0137831820999992006072318004-11300-041867FM-12+074799999V0201401N005110075019N0100001N1+02581+01611101391ADDGF105991051051008001001001MA1999999093071MD1999999-0101REMSYN070AAXX  23184 83182 32597 51410 10258 20161 39307 40139 85500 333 59010;
0168831820999992006072400004-11300-041867FM-12+074799999V0201401N001010075019N0010001N1+01961+01441101651ADDGF108991081051008001999999KA1240M+02661MA1999999093291MD1999999-0071REMSYN088AAXX  24004 83182 32594 81402 10196 20144 39329 40165 885// 333 10266 29067 55057 59007;
0156831820999992006072412004-11300-041867FM-12+074799999V0200901N005110075019N0100001N1+02401+01601101621ADDGF106991061021008001001001KA1240N+01741MA1999999093351MD1999999-0081REMSYN076AAXX  24124 83182 32597 60910 10240 20160 39335 40162 86200 333 20174 59008;
0137831820999992006072418004-11300-041867FM-12+074799999V0200901N004612200019N0100001N1+02751+01191101311ADDGF103991031021008001001001MA1999999093101MD1999999+0031REMSYN070AAXX  24184 83182 32597 30909 10275 20119 39310 40131 83200 333 58003;
0178831820999992006072500004-11300-041867FM-12+074799999V0200901N002612200019N0010001N1+01811+01181101691ADDGA1001+999999999GF100991001001999999001001KA1240M+02841MA1999999093381MD1999999+0091REMSYN082AAXX  25004 83182 32994 00905 10181 20118 39338 40169 333 10284 29058 55087 58009;
0166831820999992006072512004-11300-041867FM-12+074799999V0200901N005112200019N0100001N1+02131+01271101701ADDGA1001+999999999GF100991001001999999001001KA1240N+01311MA1999999093341MD1999999-0011REMSYN070AAXX  25124 83182 32997 00910 10213 20127 39334 40170 333 20131 59001;
0137831820999992006072518004-11300-041867FM-12+074799999V0200901N003112200019N0100001N1+02941+01321101151ADDGF102991021011012501001001MA1999999092941MD1999999-0161REMSYN070AAXX  25184 83182 32697 20906 10294 20132 39294 40115 82100 333 59016;
0178831820999992006072600004-11300-041867FM-12+074799999V0200901N004612200019N0010001N1+02011+01451101531ADDGA1001+999999999GF100991001001999999001001KA1240M+02981MA1999999093221MD1999999-0161REMSYN082AAXX  26004 83182 32994 00909 10201 20145 39322 40153 333 10298 29059 55107 59016;
0166831820999992006072612004-11300-041867FM-12+074799999V0201401N004612200019N0100001N1+02151+01491101641ADDGA1001+999999999GF100991001001999999001001KA1240N+01421MA1999999093341MD1999999+0001REMSYN070AAXX  26124 83182 32997 01409 10215 20149 39334 40164 333 20142 58000;
0137831820999992006072618004-11300-041867FM-12+074799999V0200901N002610075019N0100001N1+02951+01451101151ADDGF105991051021008001001001MA1999999092971MD1999999+0031REMSYN070AAXX  26184 83182 32597 50905 10295 20145 39297 40115 85200 333 58003;
0178831820999992006072700004-11300-041867FM-12+074799999V0200901N002612200019N0010001N1+01981+01571101581ADDGA1001+999999999GF100991001001999999001001KA1240M+03061MA1999999093261MD1999999+0041REMSYN082AAXX  27004 83182 32994 00905 10198 20157 39326 40158 333 10306 29065 55088 58004;
0156831820999992006072712004-11300-041867FM-12+074799999V0201401N004110075019N0100001N1+02341+01621101651ADDGF105991051021008001001001KA1240N+01561MA1999999093361MD1999999+0021REMSYN076AAXX  27124 83182 32597 51408 10234 20162 39336 40165 85200 333 20156 58002;
0137831820999992006072718004-11300-041867FM-12+074799999V0201401N003612200019N0100001N1+02871+01411101271ADDGF103991031021008001001001MA1999999093061MD1999999+0091REMSYN070AAXX  27184 83182 32597 31407 10287 20141 39306 40127 83200 333 58009;
0178831820999992006072800004-11300-041867FM-12+074799999V0200901N004612200019N0010001N1+02091+01501101401ADDGA1001+999999999GF100991001001999999001001KA1240M+02981MA1999999093251MD1999999-0011REMSYN082AAXX  28004 83182 32994 00909 10209 20150 39325 40140 333 10298 29061 55100 59001;
0156831820999992006072812004-11300-041867FM-12+074799999V0201401N005112200019N0100001N1+02291+01571101741ADDGF108991021011012501001011KA1240N+01441MA1999999093461MD1999999+0101REMSYN076AAXX  28124 83182 32697 81410 10229 20157 39346 40174 82101 333 20144 58010;
0137831820999992006072818004-11300-041867FM-12+074799999V0201401N003112200019N0100001N1+02991+01231101121ADDGF108991021011012501001011MA1999999092961MD1999999-0101REMSYN070AAXX  28184 83182 32697 81406 10299 20123 39296 40112 82101 333 59010;
0168831820999992006072900004-11300-041867FM-12+074799999V0200901N005119999999N0010001N1+02081+01451101321ADDGF108991001001999999001011KA1240M+03081MA1999999093081MD1999999-0171REMSYN088AAXX  29004 83182 32994 80910 10208 20145 39308 40132 80001 333 10308 29058 55102 59017;
0156831820999992006072912004-11300-041867FM-12+074799999V0201401N003119999999N0100001N1+02341+01471101591ADDGF108991001001999999001011KA1240N+01381MA1999999093331MD1999999-0131REMSYN076AAXX  29124 83182 32997 81406 10234 20147 39333 40159 80001 333 20138 59013;
0137831820999992006072918004-11300-041867FM-12+074799999V0201401N003112200019N0100001N1+03211+00901101011ADDGF102991021021008001001001MA1999999092871MD1999999-0091REMSYN070AAXX  29184 83182 32597 21406 10321 20090 39287 40101 82200 333 59009;
0178831820999992006073000004-11300-041867FM-12+074799999V0200901N003112200019N0010001N1+02321+01371101341ADDGA1001+999999999GF100991001001999999001001KA1240M+03221MA1999999093031MD1999999-0051REMSYN082AAXX  30004 83182 32994 00906 10232 20137 39303 40134 333 10322 29048 55103 59005;
0166831820999992006073012004-11300-041867FM-12+074799999V0200901N001512200019N0100001N1+02571+01481101441ADDGA1001+999999999GF100991001001999999001001KA1240N+01471MA1999999093271MD1999999-0061REMSYN070AAXX  30124 83182 32997 00903 10257 20148 39327 40144 333 20147 59006;
0137831820999992006073018004-11300-041867FM-12+074799999V0200501N002110075019N0100001N1+03341+00741100981ADDGF106991061021008001001001MA1999999092901MD1999999+0031REMSYN070AAXX  30184 83182 32597 60504 10334 20074 39290 40098 86200 333 58003;
0178831820999992006073100004-11300-041867FM-12+074799999V0200901N004112200019N0010001N1+02361+01381101391ADDGA1001+999999999GF100991001001999999001001KA1240M+03401MA1999999093231MD1999999+0201REMSYN082AAXX  31004 83182 32994 00908 10236 20138 39323 40139 333 10340 29045 55093 58020;
0156831820999992006073112004-11300-041867FM-12+074799999V0200901N004612200019N0100001N1+02381+01131101901ADDGF101991011011012501001001KA1240N+01541MA1999999093661MD1999999+0391REMSYN076AAXX  31124 83182 32697 10909 10238 20113 39366 40190 81100 333 20154 58039;
0137831820999992006073118004-11300-041867FM-12+074799999V0200901N004612200019N0100001N1+02961+01291101551ADDGF101991011011008001001001MA1999999093371MD1999999+0471REMSYN070AAXX  31184 83182 32597 10909 10296 20129 39337 40155 81100 333 58047;
0178831820999992006080100004-11300-041867FM-12+074799999V0200901N002612200019N0010001N1+02161+01271101771ADDGA1001+999999999GF100991001001999999001001KA1240M+03051MA1999999093511MD1999999+0251REMSYN082AAXX  01004 83182 32994 00905 10216 20127 39351 40177 333 10305 29051 55105 58025;
0156831820999992006080112004-11300-041867FM-12+074799999V0200901N003112200019N0100001N1+02401+01201102161ADDGF101991011011008001001001KA1240N+01601MA1999999093881MD1999999+0221REMSYN076AAXX  01124 83182 32597 10906 10240 20120 39388 40216 81100 333 20160 58022;
0137831820999992006080118004-11300-041867FM-12+074799999V0200901N003112200019N0100001N1+02891+01351101641ADDGF102991021021008001001001MA1999999093441MD1999999+0071REMSYN070AAXX  01184 83182 32597 20906 10289 20135 39344 40164 82200 333 58007;
0178831820999992006080200004-11300-041867FM-12+074799999V0201401N003112200019N0010001N1+02041+01701101961ADDGA1001+999999999GF100991001001999999001001KA1240M+02941MA1999999093661MD1999999+0151REMSYN082AAXX  02004 83182 32994 01406 10204 20170 39366 40196 333 10294 29062 55103 58015;
0156831820999992006080212004-11300-041867FM-12+074799999V0201401N004610075019N0100001N1+02281+01561102051ADDGF105991051021008001001001KA1240N+01471MA1999999093731MD1999999-0151REMSYN076AAXX  02124 83182 32597 51409 10228 20156 39373 40205 85200 333 20147 59015;
0137831820999992006080218004-11300-041867FM-12+074799999V0200901N005712200019N0100001N1+02741+01411101561ADDGF103991021021008001041001MA1999999093321MD1999999-0121REMSYN070AAXX  02184 83182 32597 30911 10274 20141 39332 40156 82240 333 59012;
0168831820999992006080300004-11300-041867FM-12+074799999V0201401N003112200019N0010001N1+02061+01491101821ADDGF102991021001017501041001KA1240M+02861MA1999999093521MD1999999-0141REMSYN088AAXX  03004 83182 32794 21406 10206 20149 39352 40182 82040 333 10286 29062 55105 59014;
0156831820999992006080312004-11300-041867FM-12+074799999V0200901N005710075019N0100001N1+02211+01451101991ADDGF108991051021008001001011KA1240N+01561MA1999999093671MD1999999+0061REMSYN076AAXX  03124 83182 32597 80911 10221 20145 39367 40199 85201 333 20156 58006;
0137831820999992006080318004-11300-041867FM-12+074799999V0200901N007712200019N0100001N1+02721+01351101471ADDGF108991041021008001001011MA1999999093231MD1999999+0091REMSYN070AAXX  03184 83182 32597 80915 10272 20135 39323 40147 84201 333 58009;
0168831820999992006080400004-11300-041867FM-12+074799999V0200901N003119999999N0010001N1+02091+01361101771ADDGF108991001001999999001011KA1240M+02851MA1999999093471MD1999999-0051REMSYN088AAXX  04004 83182 32994 80906 10209 20136 39347 40177 80001 333 10285 29058 55100 59005;
0156831820999992006080412004-11300-041867FM-12+074799999V0201401N004610075019N0100001N1+02171+01401101911ADDGF108991061021008001001011KA1240N+01331MA1999999093601MD1999999-0071REMSYN076AAXX  04124 83182 32597 81409 10217 20140 39360 40191 86201 333 20133 59007;
0137831820999992006080418004-11300-041867FM-12+074799999V0201401N005710450019N0100001N1+02661+01151101421ADDGF106991041021008001041001MA1999999093171MD1999999-0061REMSYN070AAXX  04184 83182 32597 61411 10266 20115 39317 40142 84240 333 59006;
0178831820999992006080500004-11300-041867FM-12+074799999V0201401N003112200019N0010001N1+01941+01401101721ADDGA1001+999999999GF100991001001999999001001KA1240M+02741MA1999999093391MD1999999-0081REMSYN082AAXX  05004 83182 32994 01406 10194 20140 39339 40172 333 10274 29061 55086 59008;
0156831820999992006080512004-11300-041867FM-12+074799999V0200901N006710075019N0100001N1+02341+01361101861ADDGF108991061021008001001011KA1240N+01371MA1999999093551MD1999999-0051REMSYN076AAXX  05124 83182 32597 80913 10234 20136 39355 40186 86201 333 20137 59005;
0137831820999992006080518004-11300-041867FM-12+074799999V0200901N006212200019N0100001N1+02621+01261101491ADDGF108991041021008001001011MA1999999093221MD1999999+0051REMSYN070AAXX  05184 83182 32597 80912 10262 20126 39322 40149 84201 333 58005;
0168831820999992006080600004-11300-041867FM-12+074799999V0200901N004110075019N0010001N1+02051+01501101791ADDGF108991071051008001001011KA1240M+02651MA1999999093511MD1999999+0121REMSYN088AAXX  06004 83182 32594 80908 10205 20150 39351 40179 87501 333 10265 29060 55065 58012;
0156831820999992006080612004-11300-041867FM-12+074799999V0201401N005110075019N0100001N1+02241+01321101911ADDGF108991071051008001001011KA1240N+01391MA1999999093601MD1999999+0051REMSYN076AAXX  06124 83182 32597 81410 10224 20132 39360 40191 87501 333 20139 58005;
0137831820999992006080618004-11300-041867FM-12+074799999V0200901N006212200019N0100001N1+02641+01281101451ADDGF108991041021008001001011MA1999999093201MD1999999-0021REMSYN070AAXX  06184 83182 32597 80912 10264 20128 39320 40145 84201 333 59002;
0187831820999992006080700004-11300-041867FM-12+074799999V0200901N005119999999N0010001N1+01971+01361101731ADDGF108991001001999999001011KA1240M+02741MA1999999093421MD1999999-0091REMSYN088AAXX  07004 83182 32594 80910 10197 20136 39342 40173 80001 333 10274 29059 55088 59009;EQDQ01+008002SCOLCB
0156831820999992006080712004-11300-041867FM-12+074799999V0200901N005710075019N0100001N1+02021+01241101881ADDGF106991061051008001001001KA1240N+01251MA1999999093531MD1999999-0071REMSYN076AAXX  07124 83182 32597 60911 10202 20124 39353 40188 86500 333 20125 59007;
0137831820999992006080718004-11300-041867FM-12+074799999V0200901N005112200019N0100001N1+02461+01351101541ADDGF103991031021008001001001MA1999999093231MD1999999+0031REMSYN070AAXX  07184 83182 32597 30910 10246 20135 39323 40154 83200 333 58003;
0168831820999992006080800004-11300-041867FM-12+074799999V0201401N002612200019N0010001N1+01861+01681101791ADDGF103991031001017501041001KA1240M+02601MA1999999093431MD1999999+0011REMSYN088AAXX  08004 83182 32794 31405 10186 20168 39343 40179 83040 333 10260 29072 55099 58001;
0156831820999992006080812004-11300-041867FM-12+074799999V0201401N005710075019N0100001N1+02141+01481101771ADDGF108991081051008001999999KA1240N+01421MA1999999093421MD1999999-0111REMSYN076AAXX  08124 83182 32597 81411 10214 20148 39342 40177 885// 333 20142 59011;
0137831820999992006080818004-11300-041867FM-12+074799999V0200901N005110075019N0100001N1+02481+01621101431ADDGF108991071051008001001011MA1999999093131MD1999999+0101REMSYN070AAXX  08184 83182 32597 80910 10248 20162 39313 40143 87501 333 58010;
0168831820999992006080900004-11300-041867FM-12+074799999V0200901N003110075019N0010001N1+01981+01721101741ADDGF108991081051008001999999KA1240M+02601MA1999999093411MD1999999-0021REMSYN088AAXX  09004 83182 32594 80906 10198 20172 39341 40174 885// 333 10260 29074 55066 59002;
0156831820999992006080912004-11300-041867FM-12+074799999V0200901N005712200019N0100001N1+02351+01521101711ADDGF102991021021008001001001KA1240N+01451MA1999999093421MD1999999+0001REMSYN076AAXX  09124 83182 32597 20911 10235 20152 39342 40171 82200 333 20145 58000;
0137831820999992006080918004-11300-041867FM-12+074799999V0201401N005112200019N0100001N1+02901+01281101251ADDGF102991021021004501001001MA1999999093051MD1999999-0081REMSYN070AAXX  09184 83182 32497 21410 10290 20128 39305 40125 82200 333 59008;
0178831820999992006081000004-11300-041867FM-12+074799999V0200901N003612200019N0010001N1+02111+01631101611ADDGA1001+999999999GF100991001001999999001001KA1240M+02971MA1999999093361MD1999999-0051REMSYN082AAXX  10004 83182 32994 00907 10211 20163 39336 40161 333 10297 29061 55103 59005;
0156831820999992006081012004-11300-041867FM-12+074799999V0200901N005712200019N0100001N1+02211+01321101811ADDGF108991011011012501001011KA1240N+01431MA1999999093511MD1999999+0091REMSYN076AAXX  10124 83182 32697 80911 10221 20132 39351 40181 81101 333 20143 58009;
0156831820999992006081112004-11300-041867FM-12+074799999V0201401N006712200019N0100001N1+02221+01161101741ADDGF101991011011012501001001KA1240N+01331MA1999999093431MD1999999-0081REMSYN076AAXX  11124 83182 32697 11413 10222 20116 39343 40174 81100 333 20133 59008;
0137831820999992006081118004-11300-041867FM-12+074799999V0200901N005712200019N0100001N1+02721+01321101361ADDGF103991031021008001001001MA1999999093121MD1999999+0031REMSYN070AAXX  11184 83182 32597 30911 10272 20132 39312 40136 83200 333 58003;
0156831820999992006081212004-11300-041867FM-12+074799999V0200901N004110075019N0100001N1+02181+01391101871ADDGF108991081051008001999999KA1240N+01351MA1999999093531MD1999999+0181REMSYN076AAXX  12124 83182 32597 80908 10218 20139 39353 40187 885// 333 20135 58018;
0137831820999992006081218004-11300-041867FM-12+074799999V0200901N005712200019N0100001N1+02771+01501101331ADDGF102991021021008001001001MA1999999093091MD1999999-0031REMSYN070AAXX  12184 83182 32597 20911 10277 20150 39309 40133 82200 333 59003;
0197831820999992006081300004-11300-041867FM-12+074799999V0200901N003112200019N0010001N1+02011+01551101691ADDGA1001+999999999GF100991001001999999001001KA1240M+02811MA1999999999999MD1999999-0031REMSYN082AAXX  13004 83182 32994 00906 10201 20155 39636 40169 333 10281 29065 55071 59003;EQDQ01 096363APOSP 
0156831820999992006081312004-11300-041867FM-12+074799999V0200901N005710075019N0100001N1+02341+01361101721ADDGF106991061021008001001001KA1240N+01501MA1999999093481MD1999999-0051REMSYN076AAXX  13124 83182 32597 60911 10234 20136 39348 40172 86200 333 20150 59005;
0137831820999992006081318004-11300-041867FM-12+074799999V0200901N004112200019N0100001N1+02771+01281101401ADDGF101991011011012501001001MA1999999093161MD1999999+0071REMSYN070AAXX  13184 83182 32697 10908 10277 20128 39316 40140 81100 333 58007;
0178831820999992006081400004-11300-041867FM-12+074799999V0201401N002112200019N0010001N1+01901+01251101671ADDGA1001+999999999GF100991001001999999001001KA1240M+02801MA1999999093361MD1999999+0001REMSYN082AAXX  14004 83182 32994 01404 10190 20125 39336 40167 333 10280 29056 55095 58000;
0156831820999992006081412004-11300-041867FM-12+074799999V0200901N003110075019N0100001N1+02161+01271101841ADDGF105991051021008001001001KA1240N+01191MA1999999093501MD1999999+0021REMSYN076AAXX  14124 83182 32597 50906 10216 20127 39350 40184 85200 333 20119 58002;
0137831820999992006081418004-11300-041867FM-12+074799999V0200901N005112200019N0100001N1+02781+01221101381ADDGF103991031021008001001001MA1999999093101MD1999999-0081REMSYN070AAXX  14184 83182 32597 30910 10278 20122 39310 40138 83200 333 59008;
0168831820999992006081500004-11300-041867FM-12+074799999V0200901N002612200019N0010001N1+02201+01581101551ADDGF102991021021008001001001KA1240M+02861MA1999999093291MD1999999-0071REMSYN088AAXX  15004 83182 32594 20905 10220 20158 39329 40155 82200 333 10286 29058 55102 59007;
0156831820999992006081512004-11300-041867FM-12+074799999V0200901N005110075019N0100001N1+02181+01631101741ADDGF108991081051008001999999KA1240N+01611MA1999999093461MD1999999-0041REMSYN076AAXX  15124 83182 32597 80910 10218 20163 39346 40174 885// 333 20161 59004;
0137831820999992006081518004-11300-041867FM-12+074799999V0200901N003610075019N0100001N1+02531+01501101431ADDGF108991081051008001999999MA1999999093181MD1999999+0081REMSYN070AAXX  15184 83182 32597 80907 10253 20150 39318 40143 885// 333 58008;
0168831820999992006081600004-11300-041867FM-12+074799999V0200901N003119999999N0010001N1+02081+01641101601ADDGF108991001001999999001011KA1240M+02651MA1999999093321MD1999999+0031REMSYN088AAXX  16004 83182 32994 80906 10208 20164 39332 40160 80001 333 10265 29069 55048 58003;
0156831820999992006081612004-11300-041867FM-12+074799999V0200901N004610075019N0100001N1+02401+01601101661ADDGF105991051021008001001001KA1240N+01651MA1999999093411MD1999999-0051REMSYN076AAXX  16124 83182 32597 50909 10240 20160 39341 40166 85200 333 20165 59005;
0137831820999992006081618004-11300-041867FM-12+074799999V0201401N006212200019N0100001N1+02931+01301101231ADDGF103991031021008001001001MA1999999093061MD1999999-0121REMSYN070AAXX  16184 83182 32597 31412 10293 20130 39306 40123 83200 333 59012;
0178831820999992006081700004-11300-041867FM-12+074799999V0200901N002612200019N0010001N1+02081+01511101621ADDGA1001+999999999GF100991001001999999001001KA1240M+02981MA1999999093371MD1999999+0051REMSYN082AAXX  17004 83182 32994 00905 10208 20151 39337 40162 333 10298 29060 55105 58005;
0175831820999992006081712004-11300-041867FM-12+074799999V0200901N006212200019N0100001N1+02231+01421101771ADDGF104991041021008001001001KA1240N+99999MA1999999093471MD1999999+0061REMSYN076AAXX  17124 83182 32597 40912 10223 20142 39347 40177 84200 333 20243 58006;EQDQ01 +02432ATMN  
0147831820999992006081718004-11300-041867FM-12+074799999V0200901N004612200019N0100001N1+02981+01131101181ADDGA1001+999999999GF100991001001999999001001MA1999999093001MD1999999-0061REMSYN064AAXX  17184 83182 32997 00909 10298 20113 39300 40118 333 59006;
0178831820999992006081800004-11300-041867FM-12+074799999V0200901N003112200019N0010001N1+02011+01261101571ADDGA1001+999999999GF100991001001999999001001KA1240M+03011MA1999999093271MD1999999-0101REMSYN082AAXX  18004 83182 32994 00906 10201 20126 39327 40157 333 10301 29054 55108 59010;
0156831820999992006081812004-11300-041867FM-12+074799999V0201401N003112200019N0100001N1+02201+01311101811ADDGF101991011011008001001001KA1240N+01211MA1999999093491MD1999999+0021REMSYN076AAXX  18124 83182 32597 11406 10220 20131 39349 40181 81100 333 20121 58002;
0147831820999992006081818004-11300-041867FM-12+074799999V0200901N004112200019N0100001N1+02901+00921101221ADDGA1001+999999999GF100991001001999999001001MA1999999093001MD1999999+0001REMSYN064AAXX  18184 83182 32997 00908 10290 20092 39300 40122 333 58000;
0178831820999992006081900004-11300-041867FM-12+074799999V0200901N003612200019N0010001N1+02031+01121101471ADDGA1001+999999999GF100991001001999999001001KA1240M+02981MA1999999093201MD1999999-0071REMSYN082AAXX  19004 83182 32994 00907 10203 20112 39320 40147 333 10298 29050 55107 59007;
0156831820999992006081912004-11300-041867FM-12+074799999V0200901N004619999999N0100001N1+02181+01241101691ADDGF108991001001999999001011KA1240N+01301MA1999999093421MD1999999+0071REMSYN076AAXX  19124 83182 32997 80909 10218 20124 39342 40169 80001 333 20130 58007;
0137831820999992006081918004-11300-041867FM-12+074799999V0200501N002119999999N0100001N1+03001+00951101081ADDGF108991001001999999001011MA1999999092911MD1999999+0091REMSYN070AAXX  19184 83182 32997 80504 10300 20095 39291 40108 80001 333 58009;
0168831820999992006082000004-11300-041867FM-12+074799999V0200901N004119999999N0010001N1+02181+01241101381ADDGF108991001001999999001011KA1240M+03051MA1999999093141MD1999999-0061REMSYN088AAXX  20004 83182 32994 80908 10218 20124 39314 40138 80001 333 10305 29048 55106 59006;
0166831820999992006082012004-11300-041867FM-12+074799999V0200901N005112200019N0100001N1+02341+01491101651ADDGA1001+999999999GF100991001001999999001001KA1240N+01401MA1999999093401MD1999999-0021REMSYN070AAXX  20124 83182 32997 00910 10234 20149 39340 40165 333 20140 59002;
0137831820999992006082018004-11300-041867FM-12+074799999V0201401N002112200019N0100001N1+03181+01211100931ADDGF102991021011012501001001MA1999999092821MD1999999-0091REMSYN070AAXX  20184 83182 32697 21404 10318 20121 39282 40093 82100 333 59009;
0168831820999992006082100004-11300-041867FM-12+074799999V0200901N002619999999N0010001N1+02361+01381101361ADDGF108991001001999999001011KA1240M+03231MA1999999093161MD1999999+0021REMSYN088AAXX  21004 83182 32994 80905 10236 20138 39316 40136 80001 333 10323 29049 55103 58002;
0156831820999992006082112004-11300-041867FM-12+074799999V0200901N002112200019N0100001N1+02601+01141101511ADDGF101991001001999999001011KA1240N+01431MA1999999093351MD1999999-0051REMSYN076AAXX  21124 83182 32997 10904 10260 20114 39335 40151 80001 333 20143 59005;
0137831820999992006082118004-11300-041867FM-12+074799999V0203601N002112200019N0100001N1+03451+00581100771ADDGF102991011011012501001011MA1999999092741MD1999999-0081REMSYN070AAXX  21184 83182 32697 23604 10345 20058 39274 40077 81101 333 59008;
0168831820999992006082200004-11300-041867FM-12+074799999V0201401N003110450019N0010001N1+02581+01121101181ADDGF108991011021008001051011KA1240M+03511MA1999999093081MD1999999-0081REMSYN088AAXX  22004 83182 32594 81406 10258 20112 39308 40118 81251 333 10351 29034 55107 59008;
0156831820999992006082212004-11300-041867FM-12+074799999V0201401N005119999999N0010001N1+02411+01391101681ADDGF108991001001999999001011KA1240N+01791MA1999999093511MD1999999+0161REMSYN076AAXX  22124 83182 32994 81410 10241 20139 39351 40168 80001 333 20179 58016;
0137831820999992006082218004-11300-041867FM-12+074799999V0200901N004112200019N0100001N1+03001+01331101211ADDGF108991011011012501001011MA1999999093111MD1999999+0371REMSYN070AAXX  22184 83182 32697 80908 10300 20133 39311 40121 81101 333 58037;
0168831820999992006082300004-11300-041867FM-12+074799999V0200901N003119999999N0010001N1+02191+01571101651ADDGF108991001001999999001011KA1240M+03051MA1999999093421MD1999999+0341REMSYN088AAXX  23004 83182 32994 80906 10219 20157 39342 40165 80001 333 10305 29056 55101 58034;
0156831820999992006082312004-11300-041867FM-12+074799999V0200901N005110075019N0100001N1+02201+01611101921ADDGF108991081051008001999999KA1240N+01551MA1999999093631MD1999999+0121REMSYN076AAXX  23124 83182 32597 80910 10220 20161 39363 40192 885// 333 20155 58012;
0137831820999992006082318004-11300-041867FM-12+074799999V0200901N003610075019N0100001N1+02801+01561101381ADDGF108991061021008001001011MA1999999093181MD1999999+0071REMSYN070AAXX  23184 83182 32597 80907 10280 20156 39318 40138 86201 333 58007;
0168831820999992006082400004-11300-041867FM-12+074799999V0200901N003119999999N0010001N1+02061+01581101661ADDGF108991001001999999001011KA1240M+03061MA1999999093371MD1999999-0051REMSYN088AAXX  24004 83182 32994 80906 10206 20158 39337 40166 80001 333 10306 29066 55082 59005;
0156831820999992006082412004-11300-041867FM-12+074799999V0200901N005710075019N0100001N1+02401+01381101791ADDGF108991051021008001001011KA1240N+01551MA1999999093531MD1999999-0101REMSYN076AAXX  24124 83182 32597 80911 10240 20138 39353 40179 85201 333 20155 59010;
0137831820999992006082418004-11300-041867FM-12+074799999V0201401N006710075019N0100001N1+02641+01321101451ADDGF108991061021008001001011MA1999999093201MD1999999+0021REMSYN070AAXX  24184 83182 32597 81413 10264 20132 39320 40145 86201 333 58002;
0168831820999992006082500004-11300-041867FM-12+074799999V0200901N003119999999N0010001N1+02091+01211101681ADDGF108991001001999999001011KA1240M+02831MA1999999093431MD1999999+0061REMSYN088AAXX  25004 83182 32994 80906 10209 20121 39343 40168 80001 333 10283 29053 55080 58006;
0156831820999992006082512004-11300-041867FM-12+074799999V0200901N007212200019N0100001N1+02241+01291101821ADDGF108991031021008001001011KA1240N+01381MA1999999093521MD1999999-0011REMSYN076AAXX  25124 83182 32597 80914 10224 20129 39352 40182 83201 333 20138 59001;
0147831820999992006082518004-11300-041867FM-12+074799999V0200901N006712200019N0100001N1+02901+00761101231ADDGA1001+999999999GF100991001001999999001001MA1999999093031MD1999999-0171REMSYN064AAXX  25184 83182 32997 00913 10290 20076 39303 40123 333 59017;
0178831820999992006082600004-11300-041867FM-12+074799999V0200901N004612200019N0010001N1+02161+01221101581ADDGA1001+999999999GF100991001001999999001001KA1240M+02941MA1999999093321MD1999999-0111REMSYN082AAXX  26004 83182 32994 00909 10216 20122 39332 40158 333 10294 29048 55107 59011;
0156831820999992006082612004-11300-041867FM-12+074799999V0200901N005110075019N0100001N1+02191+01271101711ADDGF108991051021008001001011KA1240N+01521MA1999999093441MD1999999-0081REMSYN076AAXX  26124 83182 32597 80910 10219 20127 39344 40171 85201 333 20152 59008;
0137831820999992006082618004-11300-041867FM-12+074799999V0200901N004112200019N0100001N1+02871+01301101141ADDGF108991031021008001001011MA1999999092961MD1999999-0071REMSYN070AAXX  26184 83182 32597 80908 10287 20130 39296 40114 83201 333 59007;
0168831820999992006082700004-11300-041867FM-12+074799999V0200901N004119999999N0010001N1+02041+01581101561ADDGF108991001001999999001011KA1240M+02931MA1999999093261MD1999999-0061REMSYN088AAXX  27004 83182 32994 80908 10204 20158 39326 40156 80001 333 10293 29061 55106 59006;
0156831820999992006082712004-11300-041867FM-12+074799999V0200901N005112200019N0100001N1+02271+01291101691ADDGF108991011011012501001011KA1240N+01341MA1999999093401MD1999999-0041REMSYN076AAXX  27124 83182 32697 80910 10227 20129 39340 40169 81101 333 20134 59004;
0137831820999992006082718004-11300-041867FM-12+074799999V0201401N004110450019N0100001N1+03001+00841101111ADDGF108991011011017501041011MA1999999092941MD1999999-0021REMSYN070AAXX  27184 83182 32797 81408 10300 20084 39294 40111 81141 333 59002;
0168831820999992006082800004-11300-041867FM-12+074799999V0201401N005119999999N0010001N1+02181+00931101391ADDGF108991001001999999001011KA1240M+03051MA1999999093151MD1999999-0111REMSYN088AAXX  28004 83182 32994 81410 10218 20093 39315 40139 80001 333 10305 29042 55108 59011;
0156831820999992006082812004-11300-041867FM-12+074799999V0200901N005112200019N0100001N1+02361+01261101581ADDGF101991011021008001001001KA1240N+01361MA1999999093341MD1999999-0061REMSYN076AAXX  28124 83182 32597 10910 10236 20126 39334 40158 81200 333 20136 59006;
0147831820999992006082818004-11300-041867FM-12+074799999V0200501N004112200019N0100001N1+03141+00711101061ADDGA1001+999999999GF100991001001999999001001MA1999999092921MD1999999-0021REMSYN064AAXX  28184 83182 32997 00508 10314 20071 39292 40106 333 59002;
0178831820999992006082900004-11300-041867FM-12+074799999V0200901N003112200019N0010001N1+02151+01201101451ADDGA1001+999999999GF100991001001999999001001KA1240M+03221MA1999999093211MD1999999+0061REMSYN082AAXX  29004 83182 32994 00906 10215 20120 39321 40145 333 10322 29046 55110 58006;
0166831820999992006082912004-11300-041867FM-12+074799999V0200901N003112200019N0100001N1+02441+01171101541ADDGA1001+999999999GF100991001001999999001001KA1240N+01271MA1999999093311MD1999999+0031REMSYN070AAXX  29124 83182 32997 00906 10244 20117 39331 40154 333 20127 58003;
0147831820999992006082918004-11300-041867FM-12+074799999V0201401N003112200019N0010001N1+03251+00931100951ADDGA1001+999999999GF100991001001999999001001MA1999999092841MD1999999-0081REMSYN064AAXX  29184 83182 32994 01406 10325 20093 39284 40095 333 59008;
0178831820999992006083000004-11300-041867FM-12+074799999V0200901N003112200019N0010001N1+02321+01161101271ADDGA1001+999999999GF100991001001999999001001KA1240M+03271MA1999999093101MD1999999-0111REMSYN082AAXX  30004 83182 32994 00906 10232 20116 39310 40127 333 10327 29041 55109 59011;
0156831820999992006083012004-11300-041867FM-12+074799999V0200901N006212200019N0100001N1+02441+01531101561ADDGF108991021021008001001011KA1240N+01421MA1999999093361MD1999999+0051REMSYN076AAXX  30124 83182 32597 80912 10244 20153 39336 40156 82201 333 20142 58005;
0137831820999992006083018004-11300-041867FM-12+074799999V0201401N004112200019N0100001N1+03021+01171101181ADDGF108991021021008001001011MA1999999093041MD1999999+0201REMSYN070AAXX  30184 83182 32597 81408 10302 20117 39304 40118 82201 333 58020;
0168831820999992006083100004-11300-041867FM-12+074799999V0201401N004619999999N0010001N1+02201+01651101631ADDGF108991001001999999001011KA1240M+03071MA1999999093401MD1999999+0301REMSYN088AAXX  31004 83182 32994 81409 10220 20165 39340 40163 80001 333 10307 29058 55096 58030;
0156831820999992006083112004-11300-041867FM-12+074799999V0201401N005710075019N0100001N1+02251+01511101821ADDGF108991071021008001001011KA1240N+01741MA1999999093541MD1999999+0181REMSYN076AAXX  31124 83182 32597 81411 10225 20151 39354 40182 87201 333 20174 58018;
0137831820999992006083118004-11300-041867FM-12+074799999V0200901N005112200019N0100001N1+02681+01491101351ADDGF108991031021008001001011MA1999999093141MD1999999+0101REMSYN070AAXX  31184 83182 32597 80910 10268 20149 39314 40135 83201 333 58010;
0168831820999992006090100004-11300-041867FM-12+074799999V0201401N002119999999N0010001N1+01831+01311101721ADDGF108991001001999999001011KA1240M+02731MA1999999093391MD1999999-0011REMSYN088AAXX  01004 83182 32994 81404 10183 20131 39339 40172 80001 333 10273 29064 55101 59001;
0166831820999992006090112004-11300-041867FM-12+074799999V0200901N003112200019N0100001N1+02201+01251101741ADDGA1001+999999999GF100991001001999999001001KA1240N+01311MA1999999093391MD1999999-0151REMSYN070AAXX  01124 83182 32997 00906 10220 20125 39339 40174 333 20131 59015;
0147831820999992006090118004-11300-041867FM-12+074799999V0201401N004112200019N0100001N1+02921+01031101041ADDGA1001+999999999GF100991001001999999001001MA1999999092841MD1999999-0301REMSYN064AAXX  01184 83182 32997 01408 10292 20103 39284 40104 333 59030;
0178831820999992006090200004-11300-041867FM-12+074799999V0200901N005112200019N0010001N1+02061+00921101381ADDGA1001+999999999GF100991001001999999001001KA1240M+02991MA1999999093121MD1999999-0271REMSYN082AAXX  02004 83182 32994 00910 10206 20092 39312 40138 333 10299 29046 55106 59027;
0166831820999992006090212004-11300-041867FM-12+074799999V0200901N002612200019N0100001N1+02151+01151101501ADDGA1001+999999999GF100991001001999999001001KA1240N+01141MA1999999093211MD1999999-0181REMSYN070AAXX  02124 83182 32997 00905 10215 20115 39321 40150 333 20114 59018;
0166831820999992006090218004-11300-041867FM-12+074799999V0201401N002112200019N0100001N1+03221+01081100682ADDGA1001+999999999GF100991001001999999001001MA1999999092551MD1999999-0291REMSYN064AAXX  02184 83182 32997 01404 10322 20108 39255 40068 333 59029;EQDQ01+100683APOSLP
0166831820999992006090312004-11300-041867FM-12+074799999V0200901N001512200019N0100001N1+02591+01161101211ADDGA1001+999999999GF100991001001999999001001KA1240N+01351MA1999999093061MD1999999-0151REMSYN070AAXX  03124 83182 32997 00903 10259 20116 39306 40121 333 20135 59015;
0137831820999992006090318004-11300-041867FM-12+074799999V0202301N001512200019N0100001N1+03411+00871100641ADDGF102991021021008001001001MA1999999092591MD1999999+0041REMSYN070AAXX  03184 83182 32597 22303 10341 20087 39259 40064 82200 333 58004;
0178831820999992006090400004-11300-041867FM-12+074799999V0200901N003112200019N0010001N1+02501+01191101021ADDGA1001+999999999GF100991001001999999001001KA1240M+03451MA1999999092921MD1999999+0091REMSYN082AAXX  04004 83182 32994 00906 10250 20119 39292 40102 333 10345 29038 55109 58009;
0156831820999992006090412004-11300-041867FM-12+074799999V0201401N002619999999N0100001N1+02941+01101101191ADDGF108991001001999999001011KA1240N+01621MA1999999093131MD1999999+0071REMSYN076AAXX  04124 83182 32997 81405 10294 20110 39313 40119 80001 333 20162 58007;
0137831820999992006090418004-11300-041867FM-12+074799999V0200901N003112200019N0100001N1+03511+00801100611ADDGF108991021021008001001011MA1999999092631MD1999999+0041REMSYN070AAXX  04184 83182 32597 80906 10351 20080 39263 40061 82201 333 58004;
0168831820999992006090500004-11300-041867FM-12+074799999V0200901N004619999999N0010001N1+02561+01411101131ADDGF108991001001999999001011KA1240M+03641MA1999999093091MD1999999+0171REMSYN088AAXX  05004 83182 32994 80909 10256 20141 39309 40113 80001 333 10364 29037 55103 58017;
0156831820999992006090512004-11300-041867FM-12+074799999V0201401N003112200019N0100001N1+02631+01531101361ADDGF108991011001017501041011KA1240N+01701MA1999999093251MD1999999+0121REMSYN076AAXX  05124 83182 32797 81406 10263 20153 39325 40136 81041 333 20170 58012;
0137831820999992006090518004-11300-041867FM-12+074799999V0202301N001010450019N0100001N1+03501+00941100861ADDGF108991021021008001041011MA1999999092861MD1999999+0231REMSYN070AAXX  05184 83182 32597 82302 10350 20094 39286 40086 82241 333 58023;
0168831820999992006090600004-11300-041867FM-12+074799999V0201401N002112200019N0010001N1+02501+01421101411ADDGF108991011001017501041011KA1240M+03601MA1999999093261MD1999999+0171REMSYN088AAXX  06004 83182 32794 81404 10250 20142 39326 40141 81041 333 10360 29044 55105 58017;
0156831820999992006090612004-11300-041867FM-12+074799999V0200901N005710075019N0100001N1+02601+01381101741ADDGF108991051021008001001011KA1240N+01851MA1999999093561MD1999999+0311REMSYN076AAXX  06124 83182 32597 80911 10260 20138 39356 40174 85201 333 20185 58031;
0137831820999992006090618004-11300-041867FM-12+074799999V0201401N005110075019N0100001N1+02911+01491101211ADDGF108991051021008001001011MA1999999093091MD1999999+0231REMSYN070AAXX  06184 83182 32597 81410 10291 20149 39309 40121 85201 333 58023;
0168831820999992006090700004-11300-041867FM-12+074799999V0201401N005710075019N0010001N1+02101+01761101711ADDGF108991061051008001001011KA1240M+03161MA1999999093491MD1999999+0231REMSYN088AAXX  07004 83182 32594 81411 10210 20176 39349 40171 86501 333 10316 29047 55094 58023;
0156831820999992006090712004-11300-041867FM-12+074799999V0200901N006710075019N0100001N1+02401+01601101791ADDGF108991061051008001001011KA1240N+01821MA1999999093531MD1999999-0031REMSYN076AAXX  07124 83182 32597 80913 10240 20160 39353 40179 86501 333 20182 59003;
0137831820999992006090718004-11300-041867FM-12+074799999V0201401N005710075019N0100001N1+02711+01611101431ADDGF106991061021008001001001MA1999999093231MD1999999+0141REMSYN070AAXX  07184 83182 32597 61411 10271 20161 39323 40143 86200 333 58014;
0168831820999992006090800004-11300-041867FM-12+074799999V0201401N005110075019N0010001N1+01981+01741101801ADDGF108991081051008001999999KA1240M+02781MA1999999093521MD1999999+0031REMSYN088AAXX  08004 83182 32594 81410 10198 20174 39352 40180 885// 333 10278 29071 55086 58003;
0156831820999992006090812004-11300-041867FM-12+074799999V0201401N008210075019N0100001N1+02331+01321101811ADDGF108991051021008001041011KA1240N+01641MA1999999093511MD1999999-0021REMSYN076AAXX  08124 83182 32597 81416 10233 20132 39351 40181 85241 333 20164 59002;
0137831820999992006090818004-11300-041867FM-12+074799999V0201401N005110450019N0100001N1+02641+01281101471ADDGF105991031021008001041011MA1999999093221MD1999999-0011REMSYN070AAXX  08184 83182 32597 51410 10264 20128 39322 40147 83241 333 59001;
0168831820999992006090900004-11300-041867FM-12+074799999V0201401N004112200019N0010001N1+01901+01531101801ADDGF101991011001017501041001KA1240M+02721MA1999999093481MD1999999-0041REMSYN088AAXX  09004 83182 32794 11408 10190 20153 39348 40180 81040 333 10272 29064 55092 59004;
0166831820999992006090912004-11300-041867FM-12+074799999V0201401N005112200019N0100001N1+02151+01311101971ADDGA1001+999999999GF100991001001999999001001KA1240N+01291MA1999999093611MD1999999+0101REMSYN070AAXX  09124 83182 32997 01410 10215 20131 39361 40197 333 20129 58010;
0137831820999992006090918004-11300-041867FM-12+074799999V0200901N002112200019N0100001N1+02961+01071101281ADDGF103991031021008001001001MA1999999093071MD1999999-0151REMSYN070AAXX  09184 83182 32597 30904 10296 20107 39307 40128 83200 333 59015;
0175831820999992006091012004-11300-041867FM-12+074799999V0200901N005719999999N0100001N1+02401+01501101881ADDGF108991999021008001001001KA1240N+01461MA1999999093611MD1999999+0001REMSYN076AAXX  10124 83182 32597 80911 10240 20150 39361 40188 84200 333 20146 58000;EQDQ01+000042SCOTLC
0137831820999992006091018004-11300-041867FM-12+074799999V0200501N004610450019N0100001N1+02761+01391101581ADDGF108991021021008001041011MA1999999093351MD1999999+0281REMSYN070AAXX  10184 83182 32597 80509 10276 20139 39335 40158 82241 333 58028;
0178831820999992006091100004-11300-041867FM-12+074799999V0200501N004112200019N0010001N1+02121+01261101641ADDGA1001+999999999GF100991001001999999001001KA1240M+03021MA1999999093351MD1999999-0131REMSYN082AAXX  11004 83182 32994 00508 10212 20126 39335 40164 333 10302 29050 55109 59013;
0156831820999992006091112004-11300-041867FM-12+074799999V0200901N005712200019N0100001N1+02381+01421101821ADDGF102991021021008001001001KA1240N+01641MA1999999093581MD1999999-0031REMSYN076AAXX  11124 83182 32597 20911 10238 20142 39358 40182 82200 333 20164 59003;
0137831820999992006091118004-11300-041867FM-12+074799999V0200501N005110075019N0100001N1+02741+01261101431ADDGF105991051021008001001001MA1999999093231MD1999999-0121REMSYN070AAXX  11184 83182 32597 50510 10274 20126 39323 40143 85200 333 59012;
0178831820999992006091200004-11300-041867FM-12+074799999V0200901N005112200019N0010001N1+02111+01561101731ADDGA1001+999999999GF100991001001999999001001KA1240M+02841MA1999999093471MD1999999-0021REMSYN082AAXX  12004 83182 32994 00910 10211 20156 39347 40173 333 10284 29059 55094 59002;
0156831820999992006091212004-11300-041867FM-12+074799999V0200901N005110075019N0100001N1+02291+01391101821ADDGF108991081051008001999999KA1240N+01371MA1999999093541MD1999999-0041REMSYN076AAXX  12124 83182 32597 80910 10229 20139 39354 40182 885// 333 20137 59004;
0137831820999992006091218004-11300-041867FM-12+074799999V0200501N005112200019N0100001N1+02861+01331101271ADDGF103991031021008001001001MA1999999093061MD1999999-0171REMSYN070AAXX  12184 83182 32597 30510 10286 20133 39306 40127 83200 333 59017;
0178831820999992006091300004-11300-041867FM-12+074799999V0200901N003112200019N0010001N1+01961+01441101631ADDGA1001+999999999GF100991001001999999001001KA1240M+02911MA1999999093361MD1999999-0111REMSYN082AAXX  13004 83182 32994 00906 10196 20144 39336 40163 333 10291 29060 55081 59011;
0156831820999992006091312004-11300-041867FM-12+074799999V0200901N005112200019N0100001N1+02181+01391101801ADDGF108991021021008001001011KA1240N+01511MA1999999093461MD1999999-0081REMSYN076AAXX  13124 83182 32597 80910 10218 20139 39346 40180 82201 333 20151 59008;
0137831820999992006091318004-11300-041867FM-12+074799999V0200501N003112200019N0100001N1+03001+01051101211ADDGF108991021021008001001011MA1999999093031MD1999999-0031REMSYN070AAXX  13184 83182 32597 80506 10300 20105 39303 40121 82201 333 59003;
0168831820999992006091400004-11300-041867FM-12+074799999V0200501N003619999999N0010001N1+02151+01421101541ADDGF108991001001999999001011KA1240M+03021MA1999999093261MD1999999-0101REMSYN088AAXX  14004 83182 32994 80507 10215 20142 39326 40154 80001 333 10302 29054 55111 59010;
0156831820999992006091412004-11300-041867FM-12+074799999V0200901N004112200019N0100001N1+02491+01111101661ADDGF108991031021008001001011KA1240N+01491MA1999999093431MD1999999-0031REMSYN076AAXX  14124 83182 32597 80908 10249 20111 39343 40166 83201 333 20149 59003;
0137831820999992006091418004-11300-041867FM-12+074799999V0200501N005112200019N0100001N1+02881+01001101221ADDGF108991031021008001001011MA1999999093041MD1999999+0011REMSYN070AAXX  14184 83182 32597 80510 10288 20100 39304 40122 83201 333 58001;
0168831820999992006091500004-11300-041867FM-12+074799999V0200901N002619999999N0010001N1+02101+00961101541ADDGF108991001001999999001011KA1240M+02911MA1999999093311MD1999999+0051REMSYN088AAXX  15004 83182 32994 80905 10210 20096 39331 40154 80001 333 10291 29042 55110 58005;
0156831820999992006091512004-11300-041867FM-12+074799999V0200501N005112200019N0100001N1+02561+01211101681ADDGF108991021011012501001011KA1240N+01411MA1999999093471MD1999999+0041REMSYN076AAXX  15124 83182 32697 80510 10256 20121 39347 40168 82101 333 20141 58004;
0137831820999992006091518004-11300-041867FM-12+074799999V0203601N003612200019N0100001N1+03021+01071101161ADDGF108991021021008001001011MA1999999093001MD1999999-0041REMSYN070AAXX  15184 83182 32597 83607 10302 20107 39300 40116 82201 333 59004;
0168831820999992006091600004-11300-041867FM-12+074799999V0200901N004619999999N0010001N1+02271+01081101461ADDGF108991001001999999001011KA1240M+03091MA1999999093271MD1999999-0041REMSYN088AAXX  16004 83182 32994 80909 10227 20108 39327 40146 80001 333 10309 29042 55108 59004;
0156831820999992006091612004-11300-041867FM-12+074799999V0200901N003612200019N0100001N1+02541+01511101631ADDGF108991021011012501001011KA1240N+01531MA1999999093431MD1999999-0041REMSYN076AAXX  16124 83182 32697 80907 10254 20151 39343 40163 82101 333 20153 59004;
0137831820999992006091618004-11300-041867FM-12+074799999V0200501N002612200019N0100001N1+03181+01161100911ADDGF108991031021008001001011MA1999999092851MD1999999-0151REMSYN070AAXX  16184 83182 32597 80505 10318 20116 39285 40091 83201 333 59015;
0168831820999992006091700004-11300-041867FM-12+074799999V0200501N003619999999N0010001N1+02411+01421101311ADDGF108991001001999999001011KA1240M+03221MA1999999093171MD1999999-0101REMSYN088AAXX  17004 83182 32994 80507 10241 20142 39317 40131 80001 333 10322 29048 55095 59010;
0156831820999992006091712004-11300-041867FM-12+074799999V0200501N004110450019N0100001N1+02571+01601101591ADDGF108991041021008001031011KA1240N+01691MA1999999093431MD1999999+0001REMSYN076AAXX  17124 83182 32597 80508 10257 20160 39343 40159 84231 333 20169 58000;
0137831820999992006091718004-11300-041867FM-12+074799999V0200501N002610075019N0100001N1+03141+01221101051ADDGF108991051021008001001011MA1999999092961MD1999999+0111REMSYN070AAXX  17184 83182 32597 80505 10314 20122 39296 40105 85201 333 58011;
0168831820999992006091800004-11300-041867FM-12+074799999V0200501N003119999999N0010001N1+02421+01431101341ADDGF108991001001999999001011KA1240M+03231MA1999999093201MD1999999+0031REMSYN088AAXX  18004 83182 32994 80506 10242 20143 39320 40134 80001 333 10323 29048 55102 58003;
0166831820999992006091812004-11300-041867FM-12+074799999V0200501N003112200019N0100001N1+02621+01641101521ADDGA1001+999999999GF100991001001999999001001KA1240N+01711MA1999999093361MD1999999-0071REMSYN070AAXX  18124 83182 32997 00506 10262 20164 39336 40152 333 20171 59007;
0137831820999992006091818004-11300-041867FM-12+074799999V0200901N001510075019N0100001N1+03301+01361100811ADDGF105991051021008001001001MA1999999092781MD1999999-0181REMSYN070AAXX  18184 83182 32597 50903 10330 20136 39278 40081 85200 333 59018;
0178831820999992006091900004-11300-041867FM-12+074799999V0200901N003112200019N0010001N1+02471+01611101241ADDGA1001+999999999GF100991001001999999001001KA1240M+03341MA1999999093121MD1999999-0081REMSYN082AAXX  19004 83182 32994 00906 10247 20161 39312 40124 333 10334 29051 55106 59008;
0166831820999992006091912004-11300-041867FM-12+074799999V0200901N003112200019N0100001N1+02711+01611101321ADDGA1001+999999999GF100991001001999999001001KA1240N+01691MA1999999093211MD1999999-0151REMSYN070AAXX  19124 83182 32997 00906 10271 20161 39321 40132 333 20169 59015;
0137831820999992006091918004-11300-041867FM-12+074799999V0200901N002610075019N0100001N1+03221+01341100751ADDGF108991061021008001001011MA1999999092711MD1999999-0071REMSYN070AAXX  19184 83182 32597 80905 10322 20134 39271 40075 86201 333 59007;
0168831820999992006092000004-11300-041867FM-12+074799999V0200901N002612200019N0010001N1+02451+01511101291ADDGF108991021021008001001011KA1240M+03391MA1999999093181MD1999999+0061REMSYN088AAXX  20004 83182 32594 80905 10245 20151 39318 40129 82201 333 10339 29049 55080 58006;
0156831820999992006092012004-11300-041867FM-12+074799999V0200501N004110075019N0100001N1+02571+01711101441ADDGF108991061021008001001011KA1240N+01841MA1999999093291MD1999999+0081REMSYN076AAXX  20124 83182 32597 80508 10257 20171 39329 40144 86201 333 20184 58008;
0137831820999992006092018004-11300-041867FM-12+074799999V0203601N003110075019N0100001N1+02941+01481100961ADDGF108991051021008001031011MA1999999092861MD1999999+0151REMSYN070AAXX  20184 83182 32597 83606 10294 20148 39286 40096 85231 333 58015;
0168831820999992006092100004-11300-041867FM-12+074799999V0200501N003112200019N0010001N1+02421+01481101201ADDGF108991021021008001001011KA1240M+03031MA1999999093071MD1999999-0111REMSYN088AAXX  21004 83182 32594 80506 10242 20148 39307 40120 82201 333 10303 29053 55047 59011;
0156831820999992006092112004-11300-041867FM-12+074799999V0200501N003110075019N0100001N1+02551+01631101511ADDGF108991051051008001001011KA1240N+01911MA1999999093371MD1999999+0081REMSYN076AAXX  21124 83182 32597 80506 10255 20163 39337 40151 85501 333 20191 58008;
0137831820999992006092118004-11300-041867FM-12+074799999V0203201N001510450019N0100001N1+03121+01561100991ADDGF108991041021008001031011MA1999999092871MD1999999+0011REMSYN070AAXX  21184 83182 32597 83203 10312 20156 39287 40099 84231 333 58001;
0168831820999992006092200004-11300-041867FM-12+074799999V0200901N002619999999N0010001N1+02401+01631101331ADDGF108991001001999999001011KA1240M+03171MA1999999093191MD1999999+0121REMSYN088AAXX  22004 83182 32994 80905 10240 20163 39319 40133 80001 333 10317 29055 55049 58012;
0166831820999992006092212004-11300-041867FM-12+074799999V0200901N001512200019N0100001N1+02561+01731101521ADDGA1001+999999999GF100991001001999999001001KA1240N+01721MA1999999093361MD1999999-0011REMSYN070AAXX  22124 83182 32997 00903 10256 20173 39336 40152 333 20172 59001;
0137831820999992006092218004-11300-041867FM-12+074799999V0200901N001510075019N0100001N1+03301+01461100871ADDGF105991051021008001001001MA1999999092841MD1999999-0031REMSYN070AAXX  22184 83182 32597 50903 10330 20146 39284 40087 85200 333 59003;
0178831820999992006092300004-11300-041867FM-12+074799999V0200501N005712200019N0010001N1+02391+01641101361ADDGA1001+999999999GF100991001001999999001001KA1240M+03371MA1999999093221MD1999999+0031REMSYN082AAXX  23004 83182 32994 00511 10239 20164 39322 40136 333 10337 29055 55098 58003;
0156831820999992006092312004-11300-041867FM-12+074799999V0200501N003112200019N0100001N1+02611+01611101491ADDGF108991021011012501001011KA1240N+01741MA1999999093341MD1999999-0021REMSYN076AAXX  23124 83182 32697 80506 10261 20161 39334 40149 82101 333 20174 59002;
0137831820999992006092318004-11300-041867FM-12+074799999V0200501N003112200019N0100001N1+03311+01211100821ADDGF108991021021008001001011MA1999999092791MD1999999-0051REMSYN070AAXX  23184 83182 32597 80506 10331 20121 39279 40082 82201 333 59005;
0162831820999992006092400004-11300-041867FM-12+074799999V0200501N004619999999N0010001N1+02501+01361101141ADDGF108991001001999999001011KA1240M+03371MA1999999093031MD1999999-0191REMSYN082AAXX  24004 83182 32994 80509 10250 20136 39303 40114 80001 333 10337 29085 59019;
0156831820999992006092412004-11300-041867FM-12+074799999V0200501N003119999999N0100001N1+02731+01561101261ADDGF108991001001999999001011KA1240N+01651MA1999999093151MD1999999-0191REMSYN076AAXX  24124 83182 32997 80506 10273 20156 39315 40126 80001 333 20165 59019;
0137831820999992006092418004-11300-041867FM-12+074799999V0200501N001012200019N0100001N1+03381+01331100781ADDGF108991021011012501001011MA1999999092761MD1999999-0031REMSYN070AAXX  24184 83182 32697 80502 10338 20133 39276 40078 82101 333 59003;
0168831820999992006092500004-11300-041867FM-12+074799999V0200501N003119999999N0010001N1+02631+01341101131ADDGF108991001001999999001011KA1240M+02631MA1999999093071MD1999999-0041REMSYN088AAXX  25004 83182 32994 80506 10263 20134 39307 40113 80001 333 10263 29042 55091 59004;
0156831820999992006092512004-11300-041867FM-12+074799999V0200501N002612200019N0100001N1+02761+01591101411ADDGF108991021001017501031011KA1240N+01871MA1999999093331MD1999999+0151REMSYN076AAXX  25124 83182 32797 80505 10276 20159 39333 40141 82031 333 20187 58015;
0137831820999992006092518004-11300-041867FM-12+074799999V0200501N003112200019N0100001N1+03251+01461100931ADDGF108991031021008001001011MA1999999092911MD1999999+0151REMSYN070AAXX  25184 83182 32597 80506 10325 20146 39291 40093 83201 333 58015;
0168831820999992006092600004-11300-041867FM-12+074799999V0200501N004612200019N0010001N1+02591+01341101221ADDGF108991021001017501031011KA1240M+03381MA1999999093151MD1999999+0081REMSYN088AAXX  26004 83182 32794 80509 10259 20134 39315 40122 82031 333 10338 29046 55091 58008;
0156831820999992006092612004-11300-041867FM-12+074799999V0200901N003119999999N0100001N1+02541+01451101671ADDGF108991001001999999001011KA1240N+01891MA1999999093541MD1999999+0211REMSYN076AAXX  26124 83182 32997 80906 10254 20145 39354 40167 80001 333 20189 58021;
0137831820999992006092618004-11300-041867FM-12+074799999V0200901N003112200019N0100001N1+03221+01431101011ADDGF108991031021008001001011MA1999999092981MD1999999+0071REMSYN070AAXX  26184 83182 32597 80906 10322 20143 39298 40101 83201 333 58007;
0168831820999992006092700004-11300-041867FM-12+074799999V0200901N003619999999N0010001N1+02481+01461101471ADDGF108991001001999999001011KA1240M+03301MA1999999093321MD1999999+0171REMSYN088AAXX  27004 83182 32994 80907 10248 20146 39332 40147 80001 333 10330 29048 55088 58017;
0156831820999992006092712004-11300-041867FM-12+074799999V0200901N007210075019N0100001N1+02321+01031101741ADDGF108991081051008001999999KA1240N+01841MA1999999093531MD1999999-0011REMSYN076AAXX  27124 83182 32597 80914 10232 20103 39353 40174 885// 333 20184 59001;
0137831820999992006092718004-11300-041867FM-12+074799999V0200901N005110075019N0100001N1+02521+01551101491ADDGF108991081051008001999999MA1999999093281MD1999999+0301REMSYN070AAXX  27184 83182 32597 80910 10252 20155 39328 40149 885// 333 58030;
0168831820999992006092800004-11300-041867FM-12+074799999V0200901N005110075019N0010001N1+02051+01531101751ADDGF108991081051008001999999KA1240M+02671MA1999999093431MD1999999+0151REMSYN088AAXX  28004 83182 32594 80910 10205 20153 39343 40175 885// 333 10267 29066 55015 58015;
0156831820999992006092812004-11300-041867FM-12+074799999V0200901N007210450019N0100001N1+02231+01421101821ADDGF108991031021008001031011KA1240N+01601MA1999999093521MD1999999-0011REMSYN076AAXX  28124 83182 32597 80914 10223 20142 39352 40182 83231 333 20160 59001;
0137831820999992006092818004-11300-041867FM-12+074799999V0200501N005110450019N0100001N1+02791+01611101281ADDGF108991031021008001031011MA1999999093071MD1999999-0121REMSYN070AAXX  28184 83182 32597 80510 10279 20161 39307 40128 83231 333 59012;
0168831820999992006092900004-11300-041867FM-12+074799999V0200901N003612200019N0010001N1+02171+01551101521ADDGF108991031001017501031011KA1240M+02831MA1999999093261MD1999999-0211REMSYN088AAXX  29004 83182 32794 80907 10217 20155 39326 40152 83031 333 10283 29061 55081 59021;
0156831820999992006092912004-11300-041867FM-12+074799999V0200901N005110075019N0100001N1+02361+01591101721ADDGF108991081051008001999999KA1240N+01831MA1999999093461MD1999999-0061REMSYN076AAXX  29124 83182 32597 80910 10236 20159 39346 40172 885// 333 20183 59006;
0137831820999992006092918004-11300-041867FM-12+074799999V0200501N003610075019N0100001N1+03011+01541101101ADDGF108991061051008001031011MA1999999092971MD1999999-0101REMSYN070AAXX  29184 83182 32597 80507 10301 20154 39297 40110 86531 333 59010;
0168831820999992006093000004-11300-041867FM-12+074799999V0200501N003119999999N0010001N1+02341+01741101411ADDGF108991001001999999001011KA1240M+03101MA1999999093211MD1999999-0051REMSYN088AAXX  30004 83182 32994 80506 10234 20174 39321 40141 80001 333 10310 29060 55053 59005;
0156831820999992006093012004-11300-041867FM-12+074799999V0200501N005110450019N0100001N1+02621+01671101551ADDGF108991021021008001041011KA1240N+01861MA1999999093391MD1999999-0071REMSYN076AAXX  30124 83182 32597 80510 10262 20167 39339 40155 82241 333 20186 59007;
0137831820999992006093018004-11300-041867FM-12+074799999V0200501N005112200019N0100001N1+03031+01631101111ADDGF108991031021008001001011MA1999999093001MD1999999+0031REMSYN070AAXX  30184 83182 32597 80510 10303 20163 39300 40111 83201 333 58003;
0168831820999992006100100004-11300-041867FM-12+074799999V0200501N003119999999N0010001N1+02451+01601101441ADDGF108991001001999999001011KA1240M+03141MA1999999093311MD1999999+0101REMSYN088AAXX  01004 83182 32994 80506 10245 20160 39331 40144 80001 333 10314 29054 55087 58010;
0156831820999992006100112004-11300-041867FM-12+074799999V0200901N005110450019N0100001N1+02681+01451101811ADDGF108991011011012501041011KA1240N+01921MA1999999093401MD1999999-0011REMSYN076AAXX  01124 83182 32697 80910 10268 20145 39340 40181 81141 333 20192 59001;
0156831820999992006100118004-11300-041867FM-12+074799999V0200901N004112200019N0100001N1+03091+01491100992ADDGF108991041021008001001011MA1999999092931MD1999999-0071REMSYN070AAXX  01184 83182 32597 80908 10309 20149 39293 40099 84201 333 59007;EQDQ01+100993APOSLP
0168831820999992006100200004-11300-041867FM-12+074799999V0200501N004119999999N0010001N1+02381+01611101371ADDGF108991001001999999001011KA1240M+03151MA1999999093251MD1999999-0061REMSYN088AAXX  02004 83182 32994 80508 10238 20161 39325 40137 80001 333 10315 29052 55103 59006;
0156831820999992006100212004-11300-041867FM-12+074799999V0200501N005110075019N0100001N1+02601+01481101461ADDGF105991051021008001001001KA1240N+01901MA1999999093311MD1999999-0091REMSYN076AAXX  02124 83182 32597 50510 10260 20148 39331 40146 85200 333 20190 59009;
0137831820999992006100218004-11300-041867FM-12+074799999V0200901N003110075019N0100001N1+03141+01171100931ADDGF105991051021008001001001MA1999999092871MD1999999-0061REMSYN070AAXX  02184 83182 32597 50906 10314 20117 39287 40093 85200 333 59006;
0168831820999992006100300004-11300-041867FM-12+074799999V0200901N004119999999N0010001N1+02441+01451101101ADDGF108991001001999999001011KA1240M+03231MA1999999092971MD1999999-0281REMSYN088AAXX  03004 83182 32994 80908 10244 20145 39297 40110 80001 333 10323 29047 55101 59028;
0156831820999992006100312004-11300-041867FM-12+074799999V0200901N003112200019N0100001N1+02701+01571101221ADDGF108991011011012501001011KA1240N+01741MA1999999093121MD1999999-0191REMSYN076AAXX  03124 83182 32697 80906 10270 20157 39312 40122 81101 333 20174 59019;
0137831820999992006100318004-11300-041867FM-12+074799999V0200901N002612200019N0100001N1+03241+01241100741ADDGF108991021021008001001011MA1999999092701MD1999999-0171REMSYN070AAXX  03184 83182 32597 80905 10324 20124 39270 40074 82201 333 59017;
0168831820999992006100400004-11300-041867FM-12+074799999V0200501N004119999999N0010001N1+02581+01401100981ADDGF108991001001999999001011KA1240M+03281MA1999999092901MD1999999-0071REMSYN088AAXX  04004 83182 32994 80508 10258 20140 39290 40098 80001 333 10328 29044 55104 59007;
0156831820999992006100412004-11300-041867FM-12+074799999V0200501N004112200019N0100001N1+02651+01521101241ADDGF108991011011012501001011KA1240N+01851MA1999999093141MD1999999+0021REMSYN076AAXX  04124 83182 32697 80508 10265 20152 39314 40124 81101 333 20185 58002;
0137831820999992006100418004-11300-041867FM-12+074799999V0200501N004612200019N0100001N1+03161+01341100671ADDGF108991021021008001001011MA1999999092651MD1999999-0051REMSYN070AAXX  04184 83182 32597 80509 10316 20134 39265 40067 82201 333 59005;
0168831820999992006100500004-11300-041867FM-12+074799999V0200501N004619999999N0010001N1+02501+01621101161ADDGF108991001001999999001011KA1240M+03271MA1999999093061MD1999999+0161REMSYN088AAXX  05004 83182 32994 80509 10250 20162 39306 40116 80001 333 10327 29050 55103 58016;
0156831820999992006100512004-11300-041867FM-12+074799999V0200901N004119999999N0100001N1+02501+01531101461ADDGF108991001001999999001011KA1240N+01811MA1999999093311MD1999999+0171REMSYN076AAXX  05124 83182 32997 80908 10250 20153 39331 40146 80001 333 20181 58017;
0137831820999992006100518004-11300-041867FM-12+074799999V0200501N004110450019N0100001N1+03061+01581100951ADDGF108991021011012501031011MA1999999092871MD1999999+0021REMSYN070AAXX  05184 83182 32697 80508 10306 20158 39287 40095 82131 333 58002;
0168831820999992006100600004-11300-041867FM-12+074799999V0200501N004119999999N0010001N1+02401+01701101351ADDGF108991001001999999001011KA1240M+03101MA1999999093191MD1999999+0131REMSYN088AAXX  06004 83182 32994 80508 10240 20170 39319 40135 80001 333 10310 29056 55060 58013;
0156831820999992006100612004-11300-041867FM-12+074799999V0200501N005110075019N0100001N1+02641+01601101361ADDGF108991071051008001001011KA1240N+01911MA1999999093221MD1999999-0091REMSYN076AAXX  06124 83182 32597 80510 10264 20160 39322 40136 87501 333 20191 59009;
0137831820999992006100618004-11300-041867FM-12+074799999V0200501N005112200019N0100001N1+03091+01571101041ADDGF108991031021008001001011MA1999999092861MD1999999-0011REMSYN070AAXX  06184 83182 32597 80510 10309 20157 39286 40104 83201 333 59001;
0168831820999992006100700004-11300-041867FM-12+074799999V0200501N005719999999N0010001N1+02381+01631101301ADDGF108991001001999999001011KA1240M+03121MA1999999093161MD1999999-0031REMSYN088AAXX  07004 83182 32994 80511 10238 20163 39316 40130 80001 333 10312 29055 55089 59003;
0166831820999992006100712004-11300-041867FM-12+074799999V0200501N003112200019N0100001N1+02621+01401101471ADDGA1001+999999999GF100991001001999999001001KA1240N+01811MA1999999093321MD1999999+0101REMSYN070AAXX  07124 83182 32997 00506 10262 20140 39332 40147 333 20181 58010;
0137831820999992006100718004-11300-041867FM-12+074799999V0200501N002112200019N0100001N1+03301+01211100811ADDGF102991021011012501001001MA1999999092781MD1999999-0081REMSYN070AAXX  07184 83182 32697 20504 10330 20121 39278 40081 82100 333 59008;
0178831820999992006100800004-11300-041867FM-12+074799999V0200501N004612200019N0010001N1+02511+01331101121ADDGA1001+999999999GF100991001001999999001001KA1240M+03351MA1999999093011MD1999999-0151REMSYN082AAXX  08004 83182 32994 00509 10251 20133 39301 40112 333 10335 29043 55112 59015;
0156831820999992006100812004-11300-041867FM-12+074799999V0200501N005112200019N0100001N1+02701+01541101301ADDGF108991041011012501001011KA1240N+01771MA1999999093191MD1999999-0131REMSYN076AAXX  08124 83182 32697 80510 10270 20154 39319 40130 84101 333 20177 59013;
0137831820999992006100818004-11300-041867FM-12+074799999V0200501N003612200019N0100001N1+03211+01421100761ADDGF108991041021008001001011MA1999999092731MD1999999-0051REMSYN070AAXX  08184 83182 32597 80507 10321 20142 39273 40076 84201 333 59005;
0168831820999992006100900004-11300-041867FM-12+074799999V0200501N005119999999N0010001N1+02521+01491101161ADDGF108991001001999999001011KA1240M+03291MA1999999093061MD1999999+0051REMSYN088AAXX  09004 83182 32994 80510 10252 20149 39306 40116 80001 333 10329 29047 55106 58005;
0156831820999992006100912004-11300-041867FM-12+074799999V0200901N005110075019N0100001N1+02561+01701101421ADDGF106991061021008001001001KA1240N+01921MA1999999093291MD1999999+0101REMSYN076AAXX  09124 83182 32597 60910 10256 20170 39329 40142 86200 333 20192 58010;
0137831820999992006100918004-11300-041867FM-12+074799999V0200901N005112200019N0100001N1+03151+01461100881ADDGF102991021021008001001001MA1999999092851MD1999999+0101REMSYN070AAXX  09184 83182 32597 20910 10315 20146 39285 40088 82200 333 58010;
0168831820999992006101000004-11300-041867FM-12+074799999V0200901N005112200019N0010001N1+02411+01921101311ADDGF101991011021008001001001KA1240M+03621MA1999999093171MD1999999+0111REMSYN088AAXX  10004 83182 32594 10910 10241 20192 39317 40131 81200 333 10362 29061 55100 58011;
0156831820999992006101012004-11300-041867FM-12+074799999V0200901N005710075019N0100001N1+02601+01681101561ADDGF108991071051008001001011KA1240N+01911MA1999999093401MD1999999+0111REMSYN076AAXX  10124 83182 32597 80911 10260 20168 39340 40156 87501 333 20191 58011;
0137831820999992006101018004-11300-041867FM-12+074799999V0200901N005112200019N0100001N1+02991+01481101121ADDGF108991041021008001001011MA1999999093031MD1999999+0181REMSYN070AAXX  10184 83182 32597 80910 10299 20148 39303 40112 84201 333 58018;
0168831820999992006101100004-11300-041867FM-12+074799999V0201401N002612200019N0010001N1+02281+01731101481ADDGF108991031021008001001011KA1240M+03041MA1999999093311MD1999999+0141REMSYN088AAXX  11004 83182 32594 81405 10228 20173 39331 40148 83201 333 10304 29060 55051 58014;
0156831820999992006101112004-11300-041867FM-12+074799999V0201401N004112200019N0100001N1+02561+01561101611ADDGF101991011011012501001001KA1240N+01641MA1999999093411MD1999999+0011REMSYN076AAXX  11124 83182 32697 11408 10256 20156 39341 40161 81100 333 20164 58001;
0137831820999992006101118004-11300-041867FM-12+074799999V0200501N002612200019N0100001N1+03221+01031100981ADDGF103991011011012501041011MA1999999092881MD1999999-0151REMSYN070AAXX  11184 83182 32697 30505 10322 20103 39288 40098 81141 333 59015;
0168831820999992006101200004-11300-041867FM-12+074799999V0201401N004619999999N0010001N1+02441+01361101171ADDGF108991001001999999001011KA1240M+03281MA1999999093041MD1999999-0271REMSYN088AAXX  12004 83182 32994 81409 10244 20136 39304 40117 80001 333 10328 29047 55096 59027;
0137831820999992006101218004-11300-041867FM-12+074799999V0201401N002112200019N0100001N1+03421+01921100601ADDGF108991041021008001001011MA1999999092621MD1999999-0261REMSYN070AAXX  12184 83182 32597 81404 10342 20192 39262 40060 84201 333 59026;
0168831820999992006101300004-11300-041867FM-12+074799999V0200901N004119999999N0010001N1+02621+01331100781ADDGF108991001001999999001011KA1240M+03481MA1999999092741MD1999999-0301REMSYN088AAXX  13004 83182 32994 80908 10262 20133 39274 40078 80001 333 10348 29042 55106 59030;
0156831820999992006101312004-11300-041867FM-12+074799999V0200901N003112200019N0100001N1+02881+01571101011ADDGF108991021001017501041011KA1240N+01771MA1999999092981MD1999999-0171REMSYN076AAXX  13124 83182 32797 80906 10288 20157 39298 40101 82041 333 20177 59017;
0137831820999992006101318004-11300-041867FM-12+074799999V0200501N002110450019N0100001N1+03441+01271100461ADDGF108991031031008001041011MA1999999092441MD1999999-0181REMSYN070AAXX  13184 83182 32597 80504 10344 20127 39244 40046 83341 333 59018;
0168831820999992006101400004-11300-041867FM-12+074799999V0200901N003110075019N0010001N1+02701+01631100791ADDGF108991081051008001999999KA1240M+03491MA1999999092791MD1999999+0051REMSYN088AAXX  14004 83182 32594 80906 10270 20163 39279 40079 885// 333 10349 29044 55083 58005;
0156831820999992006101412004-11300-041867FM-12+074799999V0200901N001510450019N0100001N1+02531+01901101071ADDGF108991031021008001041011KA1240N+02091MA1999999092981MD1999999+0001REMSYN076AAXX  14124 83182 32597 80903 10253 20190 39298 40107 83241 333 20209 59000;
0137831820999992006101418004-11300-041867FM-12+074799999V0203201N001512200019N0100001N1+03321+01481100431ADDGF108991031021008001001011MA1999999092481MD1999999+0041REMSYN070AAXX  14184 83182 32597 83203 10332 20148 39248 40043 83201 333 58004;
0213831820999992006101500004-11300-041867FM-12+074799999V0200501N002610042019N0010001N1+02461+01971101071ADDAA106000021AY161061AY261061GF108991061071004501021999KA1240M+03361MA1999999092911MD1999999+0121MW1211REMSYN100AAXX  15004 83182 21494 80505 10246 20197 39291 40107 72166 8672/ 333 10336 29062 55079 58012 69921;
0173831820999992006101512004-11300-041867FM-12+074799999V0200901N005110450019N0100001N1+02671+01961101181ADDAA124000021GF108991041021008001031011KA1240N+02071MA1999999093061MD1999999+0081REMSYN082AAXX  15124 83182 22597 80910 10267 20196 39306 40118 84231 333 20207 58008 69924;
0137831820999992006101518004-11300-041867FM-12+074799999V0200901N002610075019N0100001N1+03021+01661100571ADDGF108991071051008001001011MA1999999092541MD1999999+0061REMSYN070AAXX  15184 83182 32597 80905 10302 20166 39254 40057 87501 333 58006;
0168831820999992006101600004-11300-041867FM-12+074799999V0200901N004610075019N0010001N1+02551+01791101101ADDGF108991081051008001999999KA1240M+03131MA1999999092911MD1999999+0001REMSYN088AAXX  16004 83182 32594 80909 10255 20179 39291 40110 885// 333 10313 29059 55036 58000;
0156831820999992006101612004-11300-041867FM-12+074799999V0200901N002610075019N0100001N1+02451+01801101231ADDGF108991081051008001999999KA1240N+02121MA1999999093101MD1999999+0041REMSYN076AAXX  16124 83182 32597 80905 10245 20180 39310 40123 885// 333 20212 58004;
0137831820999992006101618004-11300-041867FM-12+074799999V0201401N002110450019N0100001N1+02911+01591100691ADDGF108991041021008001051011MA1999999092651MD1999999+0111REMSYN070AAXX  16184 83182 32597 81404 10291 20159 39265 40069 84251 333 58011;
0168831820999992006101700004-11300-041867FM-12+074799999V0200901N004610450019N0010001N1+02431+01621101041ADDGF108991021021008001051011KA1240M+02971MA1999999092901MD1999999-0011REMSYN088AAXX  17004 83182 32594 80909 10243 20162 39290 40104 82251 333 10297 29058 55007 59001;
0156831820999992006101712004-11300-041867FM-12+074799999V0200501N002110450019N0100001N1+02621+01861101201ADDGF108991031021008001031011KA1240N+02011MA1999999093071MD1999999-0031REMSYN076AAXX  17124 83182 32597 80504 10262 20186 39307 40120 83231 333 20201 59003;
0201831820999992006101718004-11300-041867FM-12+074799999V0200501N002110450019N0100001N1+03071+01871100611ADDAA106000091AY161061AY221061GF108991031021008001031011MA1999999092571MD1999999-0081MW1021REMSYN082AAXX  17184 83182 21597 80504 10307 20187 39257 40061 70262 83231 333 59008 69921;EQDQ01  00002PRCP06
0168831820999992006101800004-11300-041867FM-12+074799999V0201401N005112200019N0010001N1+02481+01801100901ADDGF108991021021008001001011KA1240M+03161MA1999999092811MD1999999-0091REMSYN088AAXX  18004 83182 32594 81410 10248 20180 39281 40090 82201 333 10316 29061 55053 59009;
0192831820999992006101812004-11300-041867FM-12+074799999V0201401N003110450019N0100001N1+02721+01791101081ADDAA124000091GF108991011021008001041011KA1240N+01881MA1999999092991MD1999999-0081REMSYN082AAXX  18124 83182 22597 81406 10272 20179 39299 40108 81241 333 20188 59008 69924;EQDQ01  00002PRCP24
0137831820999992006101818004-11300-041867FM-12+074799999V0200501N002610075019N0100001N1+03111+01511100591ADDGF108991051021008001041011MA1999999092541MD1999999+0031REMSYN070AAXX  18184 83182 32597 80505 10311 20151 39254 40059 85241 333 58003;
0168831820999992006101900004-11300-041867FM-12+074799999V0201401N003610450019N0010001N1+02441+01691100961ADDGF108991021021008001041011KA1240M+03221MA1999999092881MD1999999+0071REMSYN088AAXX  19004 83182 32594 81407 10244 20169 39288 40096 82241 333 10322 29055 55064 58007;
0156831820999992006101912004-11300-041867FM-12+074799999V0200901N003110075019N0100001N1+02611+01751101161ADDGF108991051021008001001011KA1240N+01861MA1999999093031MD1999999+0041REMSYN076AAXX  19124 83182 32597 80906 10261 20175 39303 40116 85201 333 20186 58004;
0137831820999992006101918004-11300-041867FM-12+074799999V0200501N003112200019N0100001N1+03161+01671100561ADDGF108991031021008001001011MA1999999092511MD1999999-0031REMSYN070AAXX  19184 83182 32597 80506 10316 20167 39251 40056 83201 333 59003;
0168831820999992006102000004-11300-041867FM-12+074799999V0200901N003619999999N0010001N1+02521+01581100921ADDGF108991001001999999001011KA1240M+03201MA1999999092831MD1999999-0051REMSYN088AAXX  20004 83182 32994 80907 10252 20158 39283 40092 80001 333 10320 29053 55097 59005;
0156831820999992006102012004-11300-041867FM-12+074799999V0200501N001512200019N0100001N1+02801+01751101121ADDGF108991011021008001001011KA1240N+01771MA1999999093051MD1999999-0021REMSYN076AAXX  20124 83182 32597 80503 10280 20175 39305 40112 81201 333 20177 59002;
0137831820999992006102018004-11300-041867FM-12+074799999V0203601N002112200019N0100001N1+03421+01651100521ADDGF108991041021008001001011MA1999999092531MD1999999+0021REMSYN070AAXX  20184 83182 32597 83604 10342 20165 39253 40052 84201 333 58002;
0168831820999992006102100004-11300-041867FM-12+074799999V0202701N001519999999N0010001N1+02771+01781100841ADDGF108991001001999999001011KA1240M+02841MA1999999092841MD1999999+0011REMSYN088AAXX  21004 83182 32994 82703 10277 20178 39284 40084 80001 333 10284 29050 55110 58001;
0201831820999992006102112004-11300-041867FM-12+074799999V0201801N004610450019N0100001N1+02381+02071101241ADDAA124000021AY161061AY221061GF108991031021008001051011KA1240N+02151MA1999999093171MD1999999+0121MW1211REMSYN088AAXX  21124 83182 21597 81809 10238 20207 39317 40124 72162 83251 333 20215 58012 69924;
0182831820999992006102118004-11300-041867FM-12+074799999V0200901N003110450019N0100001N1+02651+02101100861ADDAA106000021AY161061AY221061GF108991031031008001051011MA1999999092771MD1999999+0241MW1211REMSYN082AAXX  21184 83182 21597 80906 10265 20210 39277 40086 72162 83351 333 58024 69911;
0196831820999992006102200004-11300-041867FM-12+074799999V0201401N003110450019N0100001N1+02311+01901101251ADDAY121061AY221061GF108991031031008001071999KA1240M+03171MA1999999093061MD1999999+0221MW1131REMSYN094AAXX  22004 83182 31597 81406 10231 20190 39306 40125 71322 8337/ 333 10317 29078 55042 58022;
0201831820999992006102212004-11300-041867FM-12+074799999V0201401N003110450019N0100001N1+01881+01761101741ADDAA124003091AY161061AY221061GF108991041031008001071999KA1240N+01731MA1999999093431MD1999999+0261MW1501REMSYN088AAXX  22124 83182 21597 81406 10188 20176 39343 40174 75062 8437/ 333 20173 58026 60034;
0182831820999992006102218004-11300-041867FM-12+074799999V0201401N004610075019N0100001N1+02221+01861101361ADDAA106001091AY161061AY221061GF108991081051008001999999MA1999999093111MD1999999+0341MW1021REMSYN082AAXX  22184 83182 21597 81409 10222 20186 39311 40136 70262 885// 333 58034 60011;
0168831820999992006102300004-11300-041867FM-12+074799999V0201401N003110075019N0010001N1+01961+01761101811ADDGF108991081051008001999999KA1240M+02291MA1999999093431MD1999999+0371REMSYN088AAXX  23004 83182 32594 81406 10196 20176 39343 40181 885// 333 10229 29087 55008 58037;
0201831820999992006102312004-11300-041867FM-12+074799999V0201401N004610075019N0100001N1+02241+02031101671ADDAA124004191AY161061AY261061GF108991081051008001999999KA1240N+01701MA1999999093361MD1999999-0071MW1021REMSYN088AAXX  23124 83182 21597 81409 10224 20203 39336 40167 70266 885// 333 20170 59007 60044;
0137831820999992006102318004-11300-041867FM-12+074799999V0200901N004110075019N0100001N1+02601+01961101271ADDGF108991081051008001999999MA1999999093031MD1999999-0081REMSYN070AAXX  23184 83182 32597 80908 10260 20196 39303 40127 885// 333 59008;
0168831820999992006102400004-11300-041867FM-12+074799999V0201401N005719999999N0010001N1+02081+01741101651ADDGF108991081051999999999999KA1240M+02701MA1999999093361MD1999999+0071REMSYN088AAXX  24004 83182 32994 81411 10208 20174 39336 40165 885// 333 10270 29080 55001 58007;
0156831820999992006102412004-11300-041867FM-12+074799999V0201401N006210075019N0100001N1+02371+01621101721ADDGF108991061021008001001011KA1240N+01781MA1999999093451MD1999999+0091REMSYN076AAXX  24124 83182 32597 81412 10237 20162 39345 40172 86201 333 20178 58009;
0137831820999992006102418004-11300-041867FM-12+074799999V0201401N005110075019N0100001N1+02781+01911101221ADDGF108991061021008001041011MA1999999093041MD1999999+0011REMSYN070AAXX  24184 83182 32597 81410 10278 20191 39304 40122 86241 333 58001;
0168831820999992006102500004-11300-041867FM-12+074799999V0201401N003110075019N0010001N1+02161+01821101501ADDGF108991081051008001999999KA1240M+02831MA1999999093261MD1999999-0061REMSYN088AAXX  25004 83182 32594 81406 10216 20182 39326 40150 885// 333 10283 29071 55059 59006;
0156831820999992006102512004-11300-041867FM-12+074799999V0200901N004610075019N0100001N1+02421+01721101581ADDGF108991081051008001999999KA1240N+01801MA1999999093351MD1999999-0101REMSYN076AAXX  25124 83182 32597 80909 10242 20172 39335 40158 885// 333 20180 59010;
0137831820999992006102518004-11300-041867FM-12+074799999V0201401N003110450019N0100001N1+02881+01731101171ADDGF108991031031008001041011MA1999999093011MD1999999-0031REMSYN070AAXX  25184 83182 32597 81406 10288 20173 39301 40117 83341 333 59003;
0168831820999992006102600004-11300-041867FM-12+074799999V0200901N005110042019N0010001N1+02131+01891101621ADDGF108991061071004501021999KA1240M+02951MA1999999093371MD1999999+0111REMSYN088AAXX  26004 83182 32494 80910 10213 20189 39337 40162 8672/ 333 10295 29073 55074 58011;
0201831820999992006102612004-11300-041867FM-12+074799999V0201401N003110075019N0100001N1+02241+01751101601ADDAA124001091AY161061AY221061GF108991081051008001999999KA1240N+01911MA1999999093341MD1999999-0011MW1021REMSYN088AAXX  26124 83182 21597 81406 10224 20175 39334 40160 70262 885// 333 20191 59001 60014;
0137831820999992006102618004-11300-041867FM-12+074799999V0203601N001510450019N0100001N1+02981+01661100961ADDGF108991041021008001041011MA1999999092851MD1999999-0161REMSYN070AAXX  26184 83182 32597 83603 10298 20166 39285 40096 84241 333 59016;
0168831820999992006102700004-11300-041867FM-12+074799999V0201401N003612200019N0100001N1+02381+01821101271ADDGF108991041051008001001011KA1240M+03031MA1999999093061MD1999999-0311REMSYN088AAXX  27004 83182 32597 81407 10238 20182 39306 40127 84501 333 10303 29076 55062 59031;
0156831820999992006102712004-11300-041867FM-12+074799999V0200901N002112200019N0100001N1+02631+01821101141ADDGF108991041001017501041011KA1240N+01811MA1999999093011MD1999999-0331REMSYN076AAXX  27124 83182 32797 80904 10263 20182 39301 40114 84041 333 20181 59033;
0137831820999992006102718004-11300-041867FM-12+074799999V0202701N002610075019N0100001N1+02901+02021100691ADDGF108991061031008001021999MA1999999092601MD1999999-0251REMSYN070AAXX  27184 83182 32597 82705 10290 20202 39260 40069 8632/ 333 59025;
0168831820999992006102800004-11300-041867FM-12+074799999V0200901N002110450019N0100001N1+02431+01961100891ADDGF108991041051008001031011KA1240M+03311MA1999999092801MD1999999-0261REMSYN088AAXX  28004 83182 32597 80904 10243 20196 39280 40089 84531 333 10331 29068 55052 59026;
0156831820999992006102812004-11300-041867FM-12+074799999V0200501N001512200019N0100001N1+02961+02021100951ADDGF108991041021008001001011KA1240N+01941MA1999999092911MD1999999-0101REMSYN076AAXX  28124 83182 32597 80503 10296 20202 39291 40095 84201 333 20194 59010;
0137831820999992006102818004-11300-041867FM-12+074799999V0201801N003110450019N0100001N1+02711+02071100571ADDGF108991041031008001021999MA1999999092441MD1999999-0161REMSYN070AAXX  28184 83182 32597 81806 10271 20207 39244 40057 8432/ 333 59016;
0196831820999992006102900004-11300-041867FM-12+074799999V0201401N003110450019N0010001N1+02431+01971100791ADDAY121061AY221061GF108991041031008001021999KA1240M+02521MA1999999092711MD1999999-0091MW1131REMSYN094AAXX  29004 83182 31594 81406 10243 20197 39271 40079 71322 8432/ 333 10252 29069 55067 59009;
0201831820999992006102912004-11300-041867FM-12+074799999V0200901N001010042019N0100001N1+02501+01941101051ADDAA124006191AY161061AY221061GF108991081051004501999999KA1240N+02011MA1999999092911MD1999999+0001MW1021REMSYN088AAXX  29124 83182 21497 80902 10250 20194 39291 40105 70262 885// 333 20201 58000 60064;
0165831820999992006102918004-11300-041867FM-12+074799999V0200501N004110042019N0100001N1+02701+01911100621ADDAY121061AY221061GF108991061071004501021999MA1999999092521MD1999999+0081MW1151REMSYN076AAXX  29184 83182 31497 80508 10270 20191 39252 40062 71522 8672/ 333 58008;
0213831820999992006103000004-11300-041867FM-12+074799999V0202701N001010042019N0010001N1+02151+02071101011ADDAA106007991AY161061AY261061GF108991061071004501021999KA1240M+02851MA1999999092831MD1999999+0121MW1611REMSYN100AAXX  30004 83182 21494 82702 10215 20207 39283 40101 76166 8672/ 333 10285 29081 55007 58012 60081;
0201831820999992006103012004-11300-041867FM-12+074799999V0203601N000510042019N0100001N1+02291+02021101101ADDAA124024991AY161061AY261061GF108991061071004501021999KA1240N+01931MA1999999092871MD1999999-0041MW1021REMSYN088AAXX  30124 83182 21497 83601 10229 20202 39287 40110 70266 8672/ 333 20193 59004 60254;
0165831820999992006103018004-11300-041867FM-12+074799999V0200501N003110450019N0100001N1+02421+02031100661ADDAY121061AY221061GF108991031031008001021999MA1999999092501MD1999999-0021MW1141REMSYN076AAXX  30184 83182 31597 80506 10242 20203 39250 40066 71422 8332/ 333 59002;
0168831820999992006103100004-11300-041867FM-12+074799999V0200901N002610450019N0010001N1+02181+02011101041ADDGF108991041071004501021999KA1240M+02751MA1999999092841MD1999999+0011REMSYN088AAXX  31004 83182 32494 80905 10218 20201 39284 40104 8472/ 333 10275 29086 55030 58001;
0156831820999992006103112004-11300-041867FM-12+074799999V0200901N005110075019N0100001N1+02341+01911101231ADDGF108991081051008001999999KA1240N+01841MA1999999093011MD1999999+0141REMSYN076AAXX  31124 83182 32597 80910 10234 20191 39301 40123 885// 333 20184 58014;
0137831820999992006103118004-11300-041867FM-12+074799999V0200501N004110450019N0100001N1+02731+01831100751ADDGF108991031021008001041011MA1999999092601MD1999999+0101REMSYN070AAXX  31184 83182 32597 80508 10273 20183 39260 40075 83241 333 58010;
0168831820999992006110100004-11300-041867FM-12+074799999V0201401N002612200019N0010001N1+02241+01961101051ADDGF108991031001017501031011KA1240M+02841MA1999999092861MD1999999+0021REMSYN088AAXX  01004 83182 32794 81405 10224 20196 39286 40105 83031 333 10284 29075 55027 58002;
0156831820999992006110112004-11300-041867FM-12+074799999V0200901N004119999999N0100001N1+02641+01321101241ADDGF108991001001999999001041KA1240N+01881MA1999999093091MD1999999+0081REMSYN076AAXX  01124 83182 32997 80908 10264 20132 39309 40124 80004 333 20188 58008;
0137831820999992006110118004-11300-041867FM-12+074799999V0200901N003112200019N0100001N1+03171+01431100661ADDGF101991011021008001001001MA1999999092611MD1999999+0011REMSYN070AAXX  01184 83182 32597 10906 10317 20143 39261 40066 81200 333 58001;
0178831820999992006110200004-11300-041867FM-12+074799999V0200901N003112200019N0010001N1+02381+01801100991ADDGA1001+999999999GF100991001001999999001001KA1240M+03241MA1999999092871MD1999999+0011REMSYN082AAXX  02004 83182 32994 00906 10238 20180 39287 40099 333 10324 29054 55112 58001;
0156831820999992006110212004-11300-041867FM-12+074799999V0200901N004612200019N0100001N1+02631+01731101211ADDGF108991041021008001001011KA1240N+01921MA1999999093081MD1999999-0011REMSYN076AAXX  02124 83182 32597 80909 10263 20173 39308 40121 84201 333 20192 59001;
0137831820999992006110218004-11300-041867FM-12+074799999V0200901N003110075019N0100001N1+02971+01751100791ADDGF108991051021008001001011MA1999999092691MD1999999+0081REMSYN070AAXX  02184 83182 32597 80906 10297 20175 39269 40079 85201 333 58008;
0178831820999992006110300004-11300-041867FM-12+074799999V0200901N003112200019N0010001N1+02401+01731101131ADDGA1001+999999999GF100991001001999999001001KA1240M+03101MA1999999093001MD1999999+0131REMSYN082AAXX  03004 83182 32994 00906 10240 20173 39300 40113 333 10310 29060 55104 58013;
0156831820999992006110312004-11300-041867FM-12+074799999V0201401N004112200019N0100001N1+02731+01721101181ADDGF108991011011012501001011KA1240N+01761MA1999999093061MD1999999-0021REMSYN076AAXX  03124 83182 32697 81408 10273 20172 39306 40118 81101 333 20176 59002;
0137831820999992006110318004-11300-041867FM-12+074799999V0201401N003612200019N0100001N1+03251+01671100591ADDGF108991041021008001001011MA1999999093541MD1999999-0151REMSYN070AAXX  03184 83182 32597 81407 10325 20167 39354 40059 84201 333 59015;
0168831820999992006110400004-11300-041867FM-12+074799999V0200901N001012200019N0010001N1+02451+01701100901ADDGF108991011021008001001011KA1240M+03291MA1999999092831MD1999999-0171REMSYN088AAXX  04004 83182 32594 80902 10245 20170 39283 40090 81201 333 10329 29055 55109 59017;
0156831820999992006110412004-11300-041867FM-12+074799999V0201401N004112200019N0100001N1+02651+01781101071ADDGF108991021001017501041011KA1240N+01941MA1999999092961MD1999999-0101REMSYN076AAXX  04124 83182 32797 81408 10265 20178 39296 40107 82041 333 20194 59010;
0137831820999992006110418004-11300-041867FM-12+074799999V0201401N003112200019N0100001N1+03401+01591100361ADDGF108991031021008001001011MA1999999092381MD1999999-0161REMSYN070AAXX  04184 83182 32597 81406 10340 20159 39238 40036 83201 333 59016;
0168831820999992006110500004-11300-041867FM-12+074799999V0201401N005119999999N0010001N1+02511+01651100781ADDGF108991001001999999001011KA1240M+03421MA1999999092721MD1999999-0111REMSYN088AAXX  05004 83182 32994 81410 10251 20165 39272 40078 80001 333 10342 29053 55113 59011;
0156831820999992006110512004-11300-041867FM-12+074799999V0201401N002112200019N0100001N1+02701+01631100951ADDGF108991031001017501041011KA1240N+01851MA1999999092871MD1999999-0091REMSYN076AAXX  05124 83182 32797 81404 10270 20163 39287 40095 83041 333 20185 59009;
0137831820999992006110518004-11300-041867FM-12+074799999V0201401N003112200019N0100001N1+03381+01571100351ADDGF108991031021008001001011MA1999999092351MD1999999-0031REMSYN070AAXX  05184 83182 32597 81406 10338 20157 39235 40035 83201 333 59003;
0168831820999992006110600004-11300-041867FM-12+074799999V0200901N004112200019N0010001N1+02501+01721100821ADDGF108991021001017501041011KA1240M+03431MA1999999092751MD1999999+0031REMSYN088AAXX  06004 83182 32794 80908 10250 20172 39275 40082 82041 333 10343 29052 55101 58003;
0156831820999992006110612004-11300-041867FM-12+074799999V0201401N003612200019N0100001N1+02581+01521101021ADDGF108991011001017501051011KA1240N+01911MA1999999092921MD1999999+0051REMSYN076AAXX  06124 83182 32797 81407 10258 20152 39292 40102 81051 333 20191 58005;
0137831820999992006110618004-11300-041867FM-12+074799999V0201801N002610450019N0100001N1+03211+01561100511ADDGF108991031051008001051011MA1999999092481MD1999999+0131REMSYN070AAXX  06184 83182 32597 81805 10321 20156 39248 40051 83551 333 58013;
0168831820999992006110700004-11300-041867FM-12+074799999V0200901N003119999999N0010001N1+02661+01531100781ADDGF108991001001999999001011KA1240M+03301MA1999999092721MD1999999-0031REMSYN088AAXX  07004 83182 32994 80906 10266 20153 39272 40078 80001 333 10330 29047 55092 59003;
0156831820999992006110712004-11300-041867FM-12+074799999V0200501N001512200019N0100001N1+02781+01821100921ADDGF108991021011012501001011KA1240N+02041MA1999999092881MD1999999-0041REMSYN076AAXX  07124 83182 32697 80503 10278 20182 39288 40092 82101 333 20204 59004;
0137831820999992006110718004-11300-041867FM-12+074799999V0203601N001510075019N0100001N1+03371+01821100391ADDGF108991061021008001001011MA1999999092411MD1999999-0071REMSYN070AAXX  07184 83182 32597 83603 10337 20182 39241 40039 86201 333 59007;
0168831820999992006110800004-11300-041867FM-12+074799999V0200901N003610450019N0010001N1+02431+02021100731ADDGF108991041031008001021041KA1240M+03401MA1999999092671MD1999999-0051REMSYN088AAXX  08004 83182 32594 80907 10243 20202 39267 40073 84324 333 10340 29063 55070 59005;
0156831820999992006110812004-11300-041867FM-12+074799999V0202701N003110450019N0100001N1+02451+02101100981ADDGF108991041031008001021999KA1240N+02221MA1999999092851MD1999999-0031REMSYN076AAXX  08124 83182 32597 82706 10245 20210 39285 40098 8432/ 333 20222 59003;
0196831820999992006110900004-11300-041867FM-12+074799999V0200901N003110450019N0010001N1+02381+02031100881ADDAY121061AY221061GF108991021031008001011999KA1240M+03001MA1999999092741MD1999999+0071MW1131REMSYN094AAXX  09004 83182 31594 80906 10238 20203 39274 40088 71322 8231/ 333 10300 29075 55009 58007;
0156831820999992006110912004-11300-041867FM-12+074799999V0201401N003610075019N0100001N1+02671+01961101021ADDGF108991071051008001001011KA1240N+02041MA1999999092901MD1999999+0051REMSYN076AAXX  09124 83182 32597 81407 10267 20196 39290 40102 87501 333 20204 58005;
0182831820999992006110918004-11300-041867FM-12+074799999V0201401N002610075019N0100001N1+02601+02231100731ADDAA106011991AY161061AY261061GF108991051031008001021999MA1999999092601MD1999999-0191MW1611REMSYN082AAXX  09184 83182 21597 81405 10260 20223 39260 40073 76166 8532/ 333 59019 60121;
0213831820999992006111000004-11300-041867FM-12+074799999V0200901N003110450019N0100001N1+02241+02101100891ADDAA106009991AY161061AY261061GF108991041031004501021999KA1240M+03101MA1999999092761MD1999999+0021MW1611REMSYN100AAXX  10004 83182 21497 80906 10224 20210 39276 40089 76166 8432/ 333 10310 29082 55044 58002 60101;
0201831820999992006111012004-11300-041867FM-12+074799999V0200501N002610450019N0100001N1+02241+02091101141ADDAA124035191AY161061AY261061GF108991041031004501021999KA1240N+01991MA1999999092911MD1999999+0011MW1611REMSYN088AAXX  10124 83182 21497 80505 10224 20209 39291 40114 76166 8432/ 333 20199 58001 60354;
0182831820999992006111018004-11300-041867FM-12+074799999V0200501N006710450019N0100001N1+02141+02091100821ADDAA106070191AY161061AY261061GF108991041031004501021999MA1999999092601MD1999999+0001MW1611REMSYN082AAXX  10184 83182 21497 80513 10214 20209 39260 40082 76166 8432/ 333 58000 60701;
0213831820999992006111100004-11300-041867FM-12+074799999V0202701N001010042019N0010001N1+02171+02121101051ADDAA106005191AY161061AY221061GF108991061071004501021999KA1240M+02711MA1999999092831MD1999999+0071MW1021REMSYN100AAXX  11004 83182 21494 82702 10217 20212 39283 40105 70262 8672/ 333 10271 29096 55011 58007 60051;
0173831820999992006111112004-11300-041867FM-12+074799999V0203601N001010075019N0100001N1+02371+02101101121ADDAA124074991GF108991081051008001999999KA1240N+02031MA1999999092911MD1999999+0001REMSYN082AAXX  11124 83182 22597 83602 10237 20210 39291 40112 885// 333 20203 58000 60754;
0182831820999992006111118004-11300-041867FM-12+074799999V0203201N004110450019N0100001N1+02831+01971100701ADDAA106001091AY161061AY221061GF108991041051008001031011MA1999999092591MD1999999-0011MW1021REMSYN082AAXX  11184 83182 21597 83208 10283 20197 39259 40070 70262 84531 333 59001 60011;
0213831820999992006111200004-11300-041867FM-12+074799999V0200501N002110042019N0010001N1+02161+02061101151ADDAA106018091AY121061AY261061GF108991051031004501021999KA1240M+02881MA1999999092941MD1999999+0111MW1131REMSYN100AAXX  12004 83182 21494 80504 10216 20206 39294 40115 71326 8532/ 333 10288 29083 55043 58011 60181;
0201831820999992006111212004-11300-041867FM-12+074799999V0202701N001510075019N0100001N1+02451+02121101281ADDAA124027991AY161061AY221061GF108991071051008001001011KA1240N+01991MA1999999093071MD1999999+0161MW1021REMSYN088AAXX  12124 83182 21597 82703 10245 20212 39307 40128 70262 87501 333 20199 58016 60284;
0182831820999992006111218004-11300-041867FM-12+074799999V0200501N003110075019N0100001N1+02221+02081101021ADDAA106004191AY161061AY221061GF108991061071008001021999MA1999999092781MD1999999+0191MW1021REMSYN082AAXX  12184 83182 21597 80506 10222 20208 39278 40102 70262 8672/ 333 58019 60041;
0168831820999992006111300004-11300-041867FM-12+074799999V0202701N001010042019N0010001N1+02181+02041101301ADDGF108991061071004501021999KA1240M+02871MA1999999093091MD1999999+0151REMSYN088AAXX  13004 83182 32494 82702 10218 20204 39309 40130 8672/ 333 10287 29090 55023 58015;
0201831820999992006111312004-11300-041867FM-12+074799999V0201401N002110042019N0100001N1+02041+01961101481ADDAA124021191AY161061AY261061GF108991061071004501021999KA1240N+01891MA1999999093191MD1999999+0121MW1611REMSYN088AAXX  13124 83182 21497 81404 10204 20196 39319 40148 76166 8672/ 333 20189 58012 60214;
0182831820999992006111318004-11300-041867FM-12+074799999V0200901N003610042019N0100001N1+02251+02111101071ADDAA106010991AY161061AY261061GF108991061031004501021999MA1999999092831MD1999999+0051MW1611REMSYN082AAXX  13184 83182 21497 80907 10225 20211 39283 40107 76166 8632/ 333 58005 60111;
0213831820999992006111400004-11300-041867FM-12+074799999V0201401N004110075019N0010001N1+02051+01921101301ADDAA106003091AY161061AY221061GF108991051051008001001011KA1240M+02871MA1999999093011MD1999999-0081MW1021REMSYN100AAXX  14004 83182 21594 81408 10205 20192 39301 40130 70262 85501 333 10287 29093 55000 59008 60031;
0173831820999992006111412004-11300-041867FM-12+074799999V0200901N006712200019N0100001N1+02431+01621101371ADDAA124015091GF108991031011012501001011KA1240N+01841MA1999999093141MD1999999-0051REMSYN082AAXX  14124 83182 22697 80913 10243 20162 39314 40137 83101 333 20184 59005 60154;
0137831820999992006111418004-11300-041867FM-12+074799999V0201401N002612200019N0100001N1+02611+01751100991ADDGF108991041021008001001011MA1999999092811MD1999999-0021REMSYN070AAXX  14184 83182 32597 81405 10261 20175 39281 40099 84201 333 59002;
0168831820999992006111500004-11300-041867FM-12+074799999V0201401N003112200019N0010001N1+02101+01701101241ADDGF108991031051008001001011KA1240M+02651MA1999999093011MD1999999+0011REMSYN088AAXX  15004 83182 32594 81406 10210 20170 39301 40124 83501 333 10265 29069 55080 58001;
0156831820999992006111512004-11300-041867FM-12+074799999V0200901N006212200019N0100001N1+02471+01831101441ADDGF108991041021008001001011KA1240N+01951MA1999999093221MD1999999+0081REMSYN076AAXX  15124 83182 32597 80912 10247 20183 39322 40144 84201 333 20195 58008;
0137831820999992006111518004-11300-041867FM-12+074799999V0200901N004110450019N0100001N1+02911+01851100981ADDGF108991041021008001031011MA1999999092851MD1999999+0041REMSYN070AAXX  15184 83182 32597 80908 10291 20185 39285 40098 84231 333 58004;
0168831820999992006111600004-11300-041867FM-12+074799999V0200901N005712200019N0010001N1+02251+01831101391ADDGF108991041051008001001011KA1240M+02951MA1999999093191MD1999999-0181REMSYN088AAXX  16004 83182 32594 80911 10225 20183 39319 40139 84501 333 10295 29069 55088 59018;
0156831820999992006111612004-11300-041867FM-12+074799999V0200901N007710075019N0100001N1+02441+01841101431ADDGF108991061051008001001011KA1240N+01881MA1999999093231MD1999999+0011REMSYN076AAXX  16124 83182 32597 80915 10244 20184 39323 40143 86501 333 20188 58001;
0137831820999992006111618004-11300-041867FM-12+074799999V0200901N005712200019N0100001N1+02941+01591100961ADDGF108991041021008001001011MA1999999092851MD1999999+0001REMSYN070AAXX  16184 83182 32597 80911 10294 20159 39285 40096 84201 333 58000;
0168831820999992006111700004-11300-041867FM-12+074799999V0201401N003119999999N0010001N1+02271+01821101331ADDGF108991001001999999001011KA1240M+02971MA1999999093141MD1999999-0051REMSYN088AAXX  17004 83182 32994 81406 10227 20182 39314 40133 80001 333 10297 29066 55086 59005;
0156831820999992006111712004-11300-041867FM-12+074799999V0201401N006210075019N0100001N1+02371+01811101471ADDGF108991081051008001999999KA1240N+01691MA1999999093251MD1999999+0021REMSYN076AAXX  17124 83182 32597 81412 10237 20181 39325 40147 885// 333 20169 58002;
0137831820999992006111718004-11300-041867FM-12+074799999V0201401N005110450019N0100001N1+02481+01901101141ADDGF108991031031008001021999MA1999999092931MD1999999+0081REMSYN070AAXX  17184 83182 32597 81410 10248 20190 39293 40114 8332/ 333 58008;
0168831820999992006111800004-11300-041867FM-12+074799999V0201401N002619999999N0010001N1+02161+01821101291ADDGF108991001001999999001011KA1240M+02811MA1999999093061MD1999999-0081REMSYN088AAXX  18004 83182 32994 81405 10216 20182 39306 40129 80001 333 10281 29076 55035 59008;
0166831820999992006111812004-11300-041867FM-12+074799999V0201401N005112200019N0100001N1+02331+01771101481ADDGA1001+999999999GF100991001001999999001001KA1240N+01451MA1999999093241MD1999999-0011REMSYN070AAXX  18124 83182 32997 01410 10233 20177 39324 40148 333 20145 59001;
0137831820999992006111818004-11300-041867FM-12+074799999V0200901N001512200019N0100001N1+03081+01681100911ADDGF108991021011012501001011MA1999999092801MD1999999-0131REMSYN070AAXX  18184 83182 32697 80903 10308 20168 39280 40091 82101 333 59013;
0168831820999992006111900004-11300-041867FM-12+074799999V0200901N004119999999N0010001N1+02321+01851101551ADDGF108991001001999999001011KA1240M+03161MA1999999093341MD1999999+0281REMSYN088AAXX  19004 83182 32994 80908 10232 20185 39334 40155 80001 333 10316 29066 55115 58028;
0156831820999992006111912004-11300-041867FM-12+074799999V0201401N003112200019N0100001N1+02561+01881101341ADDGF108991031011012501001011KA1240N+01741MA1999999093181MD1999999-0061REMSYN076AAXX  19124 83182 32697 81406 10256 20188 39318 40134 83101 333 20174 59006;
0156831820999992006111918004-11300-041867FM-12+074799999V0201401N002119999999N0100001N1+03061+01731100881ADDGF108991999021008001001001MA1999999092791MD1999999-0011REMSYN070AAXX  19184 83182 32597 81404 10306 20173 39279 40088 84200 333 59001;EQDQ01+000042SCOTLC
0162831820999992006112000004-11300-041867FM-12+074799999V0200901N004619999999N0010001N1+02371+01791101081ADDGF108991001001999999001011KA1240M+03141MA1999999092941MD1999999-0401REMSYN082AAXX  20004 83182 32994 80909 10237 20179 39294 40108 80001 333 10314 55101 59040;
0166831820999992006112012004-11300-041867FM-12+074799999V0200901N002112200019N0100001N1+02681+01861101311ADDGA1001+999999999GF100991001001999999001001KA1240N+01731MA1999999093171MD1999999-0011REMSYN070AAXX  20124 83182 32997 00904 10268 20186 39317 40131 333 20173 59001;
0137831820999992006112018004-11300-041867FM-12+074799999V0200501N003112200019N0100001N1+03151+01911100811ADDGF108991041021008001001011MA1999999092711MD1999999-0081REMSYN070AAXX  20184 83182 32597 80506 10315 20191 39271 40081 84201 333 59008;
0213831820999992006112100004-11300-041867FM-12+074799999V0201801N002110042019N0010001N1+02251+02011101161ADDAA106003091AY161061AY221061GF108991051031004501021999KA1240M+03211MA1999999093021MD1999999+0081MW1021REMSYN100AAXX  21004 83182 21494 81804 10225 20201 39302 40116 70262 8532/ 333 10321 29071 55104 58008 60031;
0137831820999992006112118004-11300-041867FM-12+074799999V0201401N001510450019N0100001N1+02511+02161100881ADDGF108991041031008001021999MA1999999092171MD1999999+0001REMSYN070AAXX  21184 83182 32597 81403 10251 20216 39217 40088 8432/ 333 58000;
0134831820999992006112200004-11300-041867FM-12+074799999V0201401N004119999999N0100001N1+02051+01771999999ADDGF108991999999004501999999REMSYN096AAXX  22004 83182 21497 81408 10205 20177 10313 29082 39297 40117 55077 59005 60221 70266 8672/;
0201831820999992006112212004-11300-041867FM-12+074799999V0200501N002110450019N0100001N1+02311+01991101341ADDAA124023191AY161061AY221061GF108991041021008001031011KA1240N+01801MA1999999093101MD1999999-0071MW1011REMSYN088AAXX  22124 83182 21597 80504 10231 20199 39310 40134 70162 84231 333 20180 59007 60234;
0137831820999992006112218004-11300-041867FM-12+074799999V0200501N004112200019N0100001N1+02911+01661100781ADDGF105991031031008001001011MA1999999092651MD1999999-0061REMSYN070AAXX  22184 83182 32597 50508 10291 20166 39265 40078 83301 333 59006;
0168831820999992006112300004-11300-041867FM-12+074799999V0200501N003112200019N0010001N1+02111+01771101201ADDGF106991021001017501041011KA1240M+02961MA1999999092961MD1999999-0011REMSYN088AAXX  23004 83182 32794 60506 10211 20177 39296 40120 82041 333 10296 29073 55053 59001;
0156831820999992006112312004-11300-041867FM-12+074799999V0201401N003110450019N0100001N1+02461+01971101251ADDGF108991031021008001031011KA1240N+01871MA1999999093051MD1999999-0051REMSYN076AAXX  23124 83182 32597 81406 10246 20197 39305 40125 83231 333 20187 59005;
0137831820999992006112318004-11300-041867FM-12+074799999V0200901N003610450019N0100001N1+02871+01961100801ADDGF108991041031008001031011MA1999999092681MD1999999+0031REMSYN070AAXX  23184 83182 32597 80907 10287 20196 39268 40080 84331 333 58003;
0168831820999992006112400004-11300-041867FM-12+074799999V0201401N003110075019N0010001N1+02331+01831101121ADDGF108991071051008001001011KA1240M+02891MA1999999092971MD1999999+0011REMSYN088AAXX  24004 83182 32594 81406 10233 20183 39297 40112 87501 333 10289 29072 55055 58001;
0156831820999992006112412004-11300-041867FM-12+074799999V0201401N005710075019N0100001N1+02471+01891101291ADDGF108991051021008001051011KA1240N+01921MA1999999093121MD1999999+0071REMSYN076AAXX  24124 83182 32597 81411 10247 20189 39312 40129 85251 333 20192 58007;
0178831820999992006112500004-11300-041867FM-12+074799999V0200901N005712200019N0010001N1+02271+02011101221ADDGA1001+999999999GF100991001001999999001001KA1240M+03011MA1999999093041MD1999999+0071REMSYN082AAXX  25004 83182 32994 00911 10227 20201 39304 40122 333 10301 29070 55092 58007;
0156831820999992006112512004-11300-041867FM-12+074799999V0200901N005110075019N0100001N1+02511+01881101341ADDGF108991051021008001001011KA1240N+01781MA1999999093161MD1999999+0041REMSYN076AAXX  25124 83182 32597 80910 10251 20188 39316 40134 85201 333 20178 58004;
0137831820999992006112518004-11300-041867FM-12+074799999V0201401N004610075019N0100001N1+02891+01861100931ADDGF108991051021008001001011MA1999999092801MD1999999-0011REMSYN070AAXX  25184 83182 32597 81409 10289 20186 39280 40093 85201 333 59001;
0168831820999992006112600004-11300-041867FM-12+074799999V0200901N003612200019N0100001N1+02221+01821101111ADDGF108991021011008001001011KA1240M+02931MA1999999092941MD1999999-0031REMSYN088AAXX  26004 83182 32597 80907 10222 20182 39294 40111 82101 333 10293 29070 55101 59003;
0156831820999992006112612004-11300-041867FM-12+074799999V0200501N003112200019N0100001N1+02391+01661101371ADDGF101991011011012501001001KA1240N+01541MA1999999093151MD1999999-0011REMSYN076AAXX  26124 83182 32697 10506 10239 20166 39315 40137 81100 333 20154 59001;
0137831820999992006112618004-11300-041867FM-12+074799999V0200501N003112200019N0100001N1+02941+01511100881ADDGF102991021021008001001001MA1999999092741MD1999999-0061REMSYN070AAXX  26184 83182 32597 20506 10294 20151 39274 40088 82200 333 59006;
0178831820999992006112700004-11300-041867FM-12+074799999V0200901N004112200019N0010001N1+02341+01781101011ADDGA1001+999999999GF100991001001999999001001KA1240M+02971MA1999999092851MD1999999-0091REMSYN082AAXX  27004 83182 32994 00908 10234 20178 39285 40101 333 10297 29062 55116 59009;
0156831820999992006112712004-11300-041867FM-12+074799999V0200901N003612200019N0100001N1+02641+01881101101ADDGF108991021021008001001011KA1240N+01801MA1999999092971MD1999999-0181REMSYN076AAXX  27124 83182 32597 80907 10264 20188 39297 40110 82201 333 20180 59018;
0137831820999992006112718004-11300-041867FM-12+074799999V0200501N002612200019N0100001N1+03071+01701101121ADDGF108991041021008001001011MA1999999093011MD1999999+0271REMSYN070AAXX  27184 83182 32597 80505 10307 20170 39301 40112 84201 333 58027;
0168831820999992006112800004-11300-041867FM-12+074799999V0200901N004119999999N0010001N1+03161+01931100861ADDGF108991001001999999001011KA1240M+03161MA1999999092751MD1999999-0101REMSYN088AAXX  28004 83182 32994 80908 10316 20193 39275 40086 80001 333 10316 29065 55108 59010;
0156831820999992006112812004-11300-041867FM-12+074799999V0200901N003110450019N0100001N1+02651+01911101091ADDGF108991021021008001031011KA1240N+01851MA1999999092961MD1999999-0011REMSYN076AAXX  28124 83182 32597 80906 10265 20191 39296 40109 82231 333 20185 59001;
0137831820999992006112818004-11300-041867FM-12+074799999V0200901N003110450019N0100001N1+03041+01881100661ADDGF108991041021008001031011MA1999999092571MD1999999-0441REMSYN070AAXX  28184 83182 32597 80906 10304 20188 39257 40066 84231 333 59044;
0126831820999992006112900004-11300-041867FM-12+074799999V0201401N003619999999N0010001N1+02281+01811999999ADDGF108991999999017501999999REMSYN088AAXX  29004 83182 32794 81407 10228 20181 20094 39281 82041 333 10311 29066 55098 58006;
0156831820999992006112912004-11300-041867FM-12+074799999V0201401N003619999999N0100001N1+02661+01951101101ADDGF108991041001008001031011KA1240N+01831MA1999999092961MD1999999+0001REMSYN076AAXX  29124 83182 32597 81407 10266 20195 39296 40110 84031 333 20183 58000;
0137831820999992006112918004-11300-041867FM-12+074799999V0200901N001510450019N0100001N1+03181+01801100771ADDGF108991041021008001031011MA1999999092521MD1999999-0051REMSYN070AAXX  29184 83182 32597 80903 10318 20180 39252 40077 84231 333 59005;
0156831820999992006113012004-11300-041867FM-12+074799999V0200901N002610150019N0100001N1+02681+01861101081ADDGF108991061001017501031011KA1240N+02001MA1999999092951MD1999999-0011REMSYN076AAXX  30124 83182 32797 80905 10268 20186 39295 40108 86031 333 20200 59001;
0137831820999992006113018004-11300-041867FM-12+074799999V0200901N003110450019N0100001N1+03131+01791100601ADDGF108991021031008001061011MA1999999092561MD1999999+0041REMSYN070AAXX  30184 83182 32597 80906 10313 20179 39256 40060 82361 333 58004;
0168831820999992006120100004-11300-041867FM-12+074799999V0201401N003110150019N0010001N1+02441+01901100891ADDGF108991061001017501051011KA1240M+03171MA1999999092801MD1999999-0021REMSYN088AAXX  01004 83182 32794 81406 10244 20190 39280 40089 86051 333 10317 29062 55065 59002;
0156831820999992006120112004-11300-041867FM-12+074799999V0200501N002110075019N0100001N1+02401+01821101121ADDGF108991081051008001999999KA1240N+02351MA1999999092961MD1999999-0011REMSYN076AAXX  01124 83182 32597 80504 10240 20182 39296 40112 885// 333 20235 59001;
0137831820999992006120118004-11300-041867FM-12+074799999V0200901N004612200019N0100001N1+02841+01761100741ADDGF108991021021008001001011MA1999999092651MD1999999+0091REMSYN070AAXX  01184 83182 32597 80909 10284 20176 39265 40074 82201 333 58009;
0126831820999992006120200004-11300-041867FM-12+074799999V0201401N003119999999N0010001N1+02201+01971999999ADDGF108991999999999999999999REMSYN088AAXX  02004 83182 32994 81406 10220 20197 00001 39289 40108 333 10291 29074 55070 58008;
0156831820999992006120212004-11300-041867FM-12+074799999V0200901N003110075019N0100001N1+02331+01721101311ADDGF108991081051008001999999KA1240N+01871MA1999999093081MD1999999+0021REMSYN076AAXX  02124 83182 32597 80906 10233 20172 39308 40131 885// 333 20187 58002;
0137831820999992006120218004-11300-041867FM-12+074799999V0201401N005112200019N0100001N1+03081+01561100761ADDGF102991021021008001001001MA1999999092681MD1999999+0031REMSYN070AAXX  02184 83182 32597 21410 10308 20156 39268 40076 82200 333 58003;
0178831820999992006120300004-11300-041867FM-12+074799999V0200901N003112200019N0010001N1+02261+01691101201ADDGA1001+999999999GF100991001001999999001001KA1240M+03101MA1999999093001MD1999999+0111REMSYN082AAXX  03004 83182 32994 00906 10226 20169 39300 40120 333 10310 29063 55084 58011;
0156831820999992006120312004-11300-041867FM-12+074799999V0200901N005112200019N0100001N1+02481+01701101271ADDGF101991011011008001001001KA1240N+01751MA1999999093081MD1999999+0001REMSYN076AAXX  03124 83182 32597 10910 10248 20170 39308 40127 81100 333 20175 58000;
0137831820999992006120318004-11300-041867FM-12+074799999V0200901N003112200019N0100001N1+03061+01301100781ADDGF101991011011012501001001MA1999999092701MD1999999+0021REMSYN070AAXX  03184 83182 32697 10906 10306 20130 39270 40078 81100 333 58002;
0156831820999992006120412004-11300-041867FM-12+074799999V0200901N006212200019N0100001N1+02481+01601101241ADDGF101991011011012501001001KA1240N+01701MA1999999093071MD1999999-0011REMSYN076AAXX  04124 83182 32697 10912 10248 20160 39307 40124 81100 333 20170 59001;
0137831820999992006120418004-11300-041867FM-12+074799999V0200901N005112200019N0100001N1+03101+01241100781ADDGF101991011011012501001001MA1999999092701MD1999999+0001REMSYN070AAXX  04184 83182 32697 10910 10310 20124 39270 40078 81100 333 58000;
0178831820999992006120500004-11300-041867FM-12+074799999V0201401N002612200019N0010001N1+02301+01561100851ADDGA1001+999999999GF100991001001999999001001KA1240M+03131MA1999999092711MD1999999-0261REMSYN082AAXX  05004 83182 32994 01405 10230 20156 39271 40085 333 10313 29054 55118 59026;
0156831820999992006120512004-11300-041867FM-12+074799999V0201401N003112200019N0100001N1+02571+01851101331ADDGF108991011011012501001011KA1240N+01701MA1999999093171MD1999999+0101REMSYN076AAXX  05124 83182 32697 81406 10257 20185 39317 40133 81101 333 20170 58010;
0137831820999992006120518004-11300-041867FM-12+074799999V0200501N002612200019N0100001N1+03061+01551100931ADDGF108991021021008001001011MA1999999092841MD1999999+0141REMSYN070AAXX  05184 83182 32597 80505 10306 20155 39284 40093 82201 333 58014;
0168831820999992006120600004-11300-041867FM-12+074799999V0201401N002612200019N0010001N1+02501+01641101191ADDGF108991011001017501041011KA1240M+03131MA1999999093071MD1999999+0361REMSYN088AAXX  06004 83182 32794 81405 10250 20164 39307 40119 81041 333 10313 29053 55112 58036;
0178831820999992006120700004-11300-041867FM-12+074799999V0200901N003112200019N0010001N1+02461+01881101011ADDGA1001+999999999GF100991001001999999001001KA1240M+03271MA1999999092911MD1999999-0161REMSYN082AAXX  07004 83182 32994 00906 10246 20188 39291 40101 333 10327 29058 55117 59016;
0156831820999992006120712004-11300-041867FM-12+074799999V0200901N003119999999N0010001N1+02721+01791101021ADDGF108991001001999999001011KA1240N+01741MA1999999092941MD1999999-0171REMSYN076AAXX  07124 83182 32994 80906 10272 20179 39294 40102 80001 333 20174 59017;
0137831820999992006120718004-11300-041867FM-12+074799999V0203601N000512200019N0100001N1+03301+01721100471ADDGF108991021021008001001011MA1999999092461MD1999999-0221REMSYN070AAXX  07184 83182 32597 83601 10330 20172 39246 40047 82201 333 59022;
0168831820999992006120800004-11300-041867FM-12+074799999V0203601N002110450019N0010001N1+02851+01571100851ADDGF108991021051008001051011KA1240M+03351MA1999999092771MD1999999-0141REMSYN088AAXX  08004 83182 32594 83604 10285 20157 39277 40085 82551 333 10335 29047 55115 59014;
0156831820999992006120812004-11300-041867FM-12+074799999V0200901N002112200019N0100001N1+02931+01901100891ADDGF108991011011012501001011KA1240N+01851MA1999999092921MD1999999-0021REMSYN076AAXX  08124 83182 32697 80904 10293 20190 39292 40089 81101 333 20185 59002;
0168831820999992006120900004-11300-041867FM-12+074799999V0200901N001510075019N0010001N1+02741+01731100771ADDGF108991081051008001999999KA1240M+03371MA1999999092791MD1999999+0021REMSYN088AAXX  09004 83182 32594 80903 10274 20173 39279 40077 885// 333 10337 29049 55094 58002;
0201831820999992006120912004-11300-041867FM-12+074799999V0200501N000510075019N0100001N1+02571+02031101171ADDAA124001091AY161061AY221061GF108991051031008001041011KA1240N+02001MA1999999093091MD1999999+0171MW1021REMSYN088AAXX  09124 83182 21597 80501 10257 20203 39309 40117 70262 85341 333 20200 58017 60014;
0137831820999992006120918004-11300-041867FM-12+074799999V0201801N001510450019N0100001N1+03081+01921100631ADDGF108991021031008001061021MA1999999092611MD1999999+0151REMSYN070AAXX  09184 83182 32597 81803 10308 20192 39261 40063 82362 333 58015;
0168831820999992006121000004-11300-041867FM-12+074799999V0200901N002110075019N0010001N1+02351+01871101051ADDGF108991081051008001999999KA1240M+03091MA1999999092911MD1999999+0121REMSYN088AAXX  10004 83182 32594 80904 10235 20187 39291 40105 885// 333 10309 29070 55033 58012;
0156831820999992006121012004-11300-041867FM-12+074799999V0200501N003110450019N0100001N1+02711+02061101071ADDGF108991011021008001041999KA1240N+02031MA1999999092961MD1999999+0131REMSYN076AAXX  10124 83182 32597 80506 10271 20206 39296 40107 8124/ 333 20203 58013;
0137831820999992006121018004-11300-041867FM-12+074799999V0203601N003110450019N0100001N1+03051+01921100651ADDGF108991031031008001041011MA1999999092601MD1999999-0011REMSYN070AAXX  10184 83182 32597 83606 10305 20192 39260 40065 83341 333 59001;
0213831820999992006121100004-11300-041867FM-12+074799999V0202701N001010450019N0010001N1+02271+02121101061ADDAA106018091AY161061AY261061GF108991031031004501021999KA1240M+03101MA1999999092941MD1999999+0031MW1131REMSYN100AAXX  11004 83182 21494 82702 10227 20212 39294 40106 71366 8332/ 333 10310 29075 55042 58003 60181;
0201831820999992006121112004-11300-041867FM-12+074799999V0202301N001010042019N0100001N1+02181+02061101311ADDAA124055191AY161061AY261061GF108991061071004501021999KA1240N+01901MA1999999093071MD1999999+0111MW1611REMSYN088AAXX  11124 83182 21497 82302 10218 20206 39307 40131 76166 8672/ 333 20190 58011 60554;
0137831820999992006121118004-11300-041867FM-12+074799999V0203201N004610450019N0100001N1+02881+02081100821ADDGF108991031031008001061011MA1999999092721MD1999999+0121REMSYN070AAXX  11184 83182 32597 83209 10288 20208 39272 40082 83361 333 58012;
0134831820999992006121200004-11300-041867FM-12+074799999V0201401N001519999999N0010001N1+02241+02031999999ADDGF108991999999004501999999REMSYN096AAXX  12004 83182 21494 81403 10224 20203 10291 29083 39306 40130 55034 58012 60051 71362 8532/;
0201831820999992006121212004-11300-041867FM-12+074799999V0200501N001510075019N0100001N1+02561+02211101261ADDAA124043991AY161061AY261061GF108991071031008001001011KA1240N+01841MA1999999093091MD1999999+0021MW1021REMSYN088AAXX  12124 83182 21597 80503 10256 20221 39309 40126 70266 87301 333 20184 58002 60444;
0137831820999992006121218004-11300-041867FM-12+074799999V0200901N001010450019N0100001N1+02801+02061100861ADDGF108991021031008001041011MA1999999092721MD1999999+0001REMSYN070AAXX  12184 83182 32597 80902 10280 20206 39272 40086 82341 333 58000;
0168831820999992006121300004-11300-041867FM-12+074799999V0200501N000512200019N0010001N1+02361+02191101101ADDGF108991021051008001001011KA1240M+02861MA1999999092961MD1999999-0101REMSYN088AAXX  13004 83182 32594 80501 10236 20219 39296 40110 82501 333 10286 29081 55045 59010;
0156831820999992006121312004-11300-041867FM-12+074799999V0200901N002610075019N0100001N1+02341+01891101421ADDGF108991081051008001999999KA1240N+01931MA1999999093211MD1999999-0131REMSYN076AAXX  13124 83182 32597 80905 10234 20189 39321 40142 885// 333 20193 59013;
0156831820999992006121318004-11300-041867FM-12+074799999V0200901N002619999999N0100001N1+02941+01971100821ADDGF108991999021008001001001MA1999999092741MD1999999+0021REMSYN070AAXX  13184 83182 32597 80905 10294 20197 39274 40082 82200 333 58002;EQDQ01+000022SCOTLC
0168831820999992006121400004-11300-041867FM-12+074799999V0201401N003119999999N0010001N1+02331+01971101161ADDGF108991001001999999001011KA1240M+02991MA1999999092981MD1999999+0021REMSYN088AAXX  14004 83182 32994 81406 10233 20197 39298 40116 80001 333 10299 29073 55062 58002;
0141831820999992006121412004-11300-041867FM-12+074799999V0200901N003110075019N0100001N1+02351+01861101401ADDGF107991071051008001001001KA1240N+01841MA1999999093261REMSYN075AAXX  14124 83182 32597 70906 10235 20186 39326 40140 87500 333 20184 5902;
0137831820999992006121418004-11300-041867FM-12+074799999V0200901N003112200019N0100001N1+03051+01691100821ADDGF108991011021008001001011MA1999999092741MD1999999+0001REMSYN070AAXX  14184 83182 32597 80906 10305 20169 39274 40082 81201 333 58000;
0168831820999992006121500004-11300-041867FM-12+074799999V0201401N003119999999N0010001N1+02211+01701101271ADDGF108991001001999999001011KA1240M+03111MA1999999093061MD1999999+0081REMSYN088AAXX  15004 83182 32994 81406 10221 20170 39306 40127 80001 333 10311 29066 55099 58008;
0156831820999992006121512004-11300-041867FM-12+074799999V0201401N004110075019N0100001N1+02431+01631101391ADDGF108991081051008001999999KA1240N+01831MA1999999093171MD1999999-0031REMSYN076AAXX  15124 83182 32597 81408 10243 20163 39317 40139 885// 333 20183 59003;
0137831820999992006121518004-11300-041867FM-12+074799999V0201401N003612200019N0100001N1+02971+01721100711ADDGF101991011021008001001001MA1999999092631MD1999999-0111REMSYN070AAXX  15184 83182 32597 11407 10297 20172 39263 40071 81200 333 59011;
0178831820999992006121600004-11300-041867FM-12+074799999V0200901N004612200019N0010001N1+02251+01781101201ADDGA1001+999999999GF100991001001999999001001KA1240M+03011MA1999999093021MD1999999-0041REMSYN082AAXX  16004 83182 32994 00909 10225 20178 39302 40120 333 10301 29064 55098 59004;
0156831820999992006121612004-11300-041867FM-12+074799999V0201401N003612200019N0100001N1+02601+01571101331ADDGF108991011021008001001011KA1240N+01741MA1999999093151MD1999999-0021REMSYN076AAXX  16124 83182 32597 81407 10260 20157 39315 40133 81201 333 20174 59002;
0137831820999992006121618004-11300-041867FM-12+074799999V0201401N001512200019N0100001N1+03151+01621100831ADDGF108991011021008001001011MA1999999092761MD1999999+0131REMSYN070AAXX  16184 83182 32597 81403 10315 20162 39276 40083 81201 333 58013;
0168831820999992006121700004-11300-041867FM-12+074799999V0200901N003119999999N0010001N1+02411+01711101161ADDGF108991001001999999001011KA1240M+03211MA1999999093031MD1999999+0011REMSYN088AAXX  17004 83182 32994 80906 10241 20171 39303 40116 80001 333 10321 29056 55106 58001;
0156831820999992006121812004-11300-041867FM-12+074799999V0201401N003610075019N0100001N1+02371+01781101371ADDGF108991081051008001999999KA1240N+01891MA1999999093211MD1999999+0001REMSYN076AAXX  18124 83182 32597 81407 10237 20178 39321 40137 885// 333 20189 58000;
0137831820999992006121818004-11300-041867FM-12+074799999V0200901N003610450019N0100001N1+02831+01781100901ADDGF108991021021008001011021MA1999999092791MD1999999-0031REMSYN070AAXX  18184 83182 32597 80907 10283 20178 39279 40090 82212 333 59003;
0168831820999992006121900004-11300-041867FM-12+074799999V0201401N002619999999N0010001N1+02321+01701101151ADDGF108991001001999999001021KA1240M+02931MA1999999092951MD1999999+0001REMSYN088AAXX  19004 83182 32994 81405 10232 20170 39295 40115 80002 333 10293 29065 55051 58000;
0156831820999992006121912004-11300-041867FM-12+074799999V0200901N005110450019N0100001N1+02331+01701101441ADDGF108991011021008001061021KA1240N+01831MA1999999093221MD1999999+0011REMSYN076AAXX  19124 83182 32597 80910 10233 20170 39322 40144 81262 333 20183 58001;
0137831820999992006121918004-11300-041867FM-12+074799999V0200901N002610450019N0100001N1+02811+01671100951ADDGF108991011021008001041021MA1999999092821MD1999999+0031REMSYN070AAXX  19184 83182 32597 80905 10281 20167 39282 40095 81242 333 58003;
0168831820999992006122000004-11300-041867FM-12+074799999V0201401N001519999999N0010001N1+02241+01811101251ADDGF108991001001999999001021KA1240M+02881MA1999999093051MD1999999+0101REMSYN088AAXX  20004 83182 32994 81403 10224 20181 39305 40125 80002 333 10288 29066 55042 58010;
0156831820999992006122012004-11300-041867FM-12+074799999V0200901N005110075019N0100001N1+02551+01951101511ADDGF107991061021008001001011KA1240N+01691MA1999999093321MD1999999+0101REMSYN076AAXX  20124 83182 32597 70910 10255 20195 39332 40151 86201 333 20169 58010;
0137831820999992006122018004-11300-041867FM-12+074799999V0200901N005110450019N0100001N1+03101+01621101011ADDGF108991021021008001041011MA1999999092911MD1999999-0091REMSYN070AAXX  20184 83182 32597 80910 10310 20162 39291 40101 82241 333 59009;
0187831820999992006122100004-11300-041867FM-12+074799999V0200901N030829999999N0010001N1+02431+01781101341ADDGF108991001001999999001011KA1240M+03151MA1999999093031MD1999999-0021REMSYN088AAXX  21004 83182 32994 80960 10243 20178 39303 40134 80001 333 10315 29061 55114 59002;EQDQ01+003083WOSPD 
0156831820999992006122112004-11300-041867FM-12+074799999V0200901N004119999999N0100001N1+02571+01671101481ADDGF108991001001999999001011KA1240N+01781MA1999999093331MD1999999+0011REMSYN076AAXX  21124 83182 32997 80908 10257 20167 39333 40148 80001 333 20178 58001;
0137831820999992006122118004-11300-041867FM-12+074799999V0201401N003112200019N0100001N1+03161+01631101061ADDGF102991011021008001001011MA1999999092991MD1999999+0081REMSYN070AAXX  21184 83182 32597 21406 10316 20163 39299 40106 81201 333 58008;
0178831820999992006122200004-11300-041867FM-12+074799999V0201401N003612200019N0010001N1+02441+01451101251ADDGA1001+999999999GF100991001001999999001001KA1240M+03231MA1999999093121MD1999999-0081REMSYN082AAXX  22004 83182 32994 01407 10244 20145 39312 40125 333 10323 29052 55116 59008;
0156831820999992006122212004-11300-041867FM-12+074799999V0200901N003112200019N0100001N1+02621+01861101411ADDGF101991001001999999001011KA1240N+01751MA1999999093281MD1999999-0051REMSYN076AAXX  22124 83182 32997 10906 10262 20186 39328 40141 80001 333 20175 59005;
0137831820999992006122218004-11300-041867FM-12+074799999V0201801N002612200019N0100001N1+03151+01551101171ADDGF101991011021008001001001MA1999999092911MD1999999-0081REMSYN070AAXX  22184 83182 32597 11805 10315 20155 39291 40117 81200 333 59008;
0178831820999992006122300004-11300-041867FM-12+074799999V0200901N004612200019N0010001N1+02431+01521101141ADDGA1001+999999999GF100991001001999999001001KA1240M+03231MA1999999093011MD1999999-0111REMSYN082AAXX  23004 83182 32994 00909 10243 20152 39301 40114 333 10323 29054 55116 59011;
0156831820999992006122312004-11300-041867FM-12+074799999V0201401N004110450019N0100001N1+02651+01781101311ADDGF108991011011012501041011KA1240N+01701MA1999999093191MD1999999-0091REMSYN076AAXX  23124 83182 32697 81408 10265 20178 39319 40131 81141 333 20170 59009;
0137831820999992006122318004-11300-041867FM-12+074799999V0200501N001512200019N0100001N1+03281+01341100851ADDGF108991021021008001001011MA1999999092801MD1999999+0111REMSYN070AAXX  23184 83182 32597 80503 10328 20134 39280 40085 82201 333 58011;
0168831820999992006122400004-11300-041867FM-12+074799999V0200901N003619999999N0010001N1+02471+01561100971ADDGF108991001001999999001011KA1240M+03351MA1999999092871MD1999999-0141REMSYN088AAXX  24004 83182 32994 80907 10247 20156 39287 40097 80001 333 10335 29051 55117 59014;
0156831820999992006122412004-11300-041867FM-12+074799999V0201401N003612200019N0100001N1+02581+01851101351ADDGF101991011001017501051001KA1240N+01711MA1999999093211MD1999999+0021REMSYN076AAXX  24124 83182 32797 11407 10258 20185 39321 40135 81050 333 20171 58002;
0137831820999992006122418004-11300-041867FM-12+074799999V0201401N001512200019N0100001N1+03261+00821101561ADDGF108991021021008001001011MA1999999092791MD1999999-0011REMSYN070AAXX  24184 83182 32597 81403 10326 20082 39279 40156 82201 333 59001;
0168831820999992006122500004-11300-041867FM-12+074799999V0201401N003619999999N0100001N1+02501+01421101071ADDGF108991001001999999001011KA1240M+03331MA1999999092961MD1999999+0091REMSYN088AAXX  25004 83182 32997 81407 10250 20142 39296 40107 80001 333 10333 29050 55117 58009;
0166831820999992006122512004-11300-041867FM-12+074799999V0200901N002612200019N0100001N1+02681+01861101291ADDGA1001+999999999GF100991001001999999001001KA1240N+01681MA1999999093181MD1999999-0031REMSYN070AAXX  25124 83182 32997 00905 10268 20186 39318 40129 333 20168 59003;
0137831820999992006122518004-11300-041867FM-12+074799999V0201401N002112200019N0100001N1+03351+01491100721ADDGF102991021021008001001001MA1999999092691MD1999999-0101REMSYN070AAXX  25184 83182 32597 21404 10335 20149 39269 40072 82200 333 59010;
0178831820999992006122600004-11300-041867FM-12+074799999V0200901N003612200019N0010001N1+02451+01651101011ADDGA1001+999999999GF100991001001999999001001KA1240M+03391MA1999999092911MD1999999-0051REMSYN082AAXX  26004 83182 32994 00907 10245 20165 39291 40101 333 10339 29052 55116 59005;
0156831820999992006122612004-11300-041867FM-12+074799999V0201401N002111050019N0100001N1+02661+01771101241ADDGF108991021001017501041041KA1240N+01731MA1999999093121MD1999999-0061REMSYN076AAXX  26124 83182 32797 81404 10266 20177 39312 40124 82044 333 20173 59006;
0137831820999992006122618004-11300-041867FM-12+074799999V0200901N002612200019N0100001N1+03241+01561100961ADDGF102991021021008001001001MA1999999092711MD1999999+0021REMSYN070AAXX  26184 83182 32597 20905 10324 20156 39271 40096 82200 333 58002;
0168831820999992006122700004-11300-041867FM-12+074799999V0200901N002612200019N0010001N1+02531+01481101001ADDGF102991021001017501041001KA1240M+03311MA1999999092921MD1999999+0011REMSYN088AAXX  27004 83182 32794 20905 10253 20148 39292 40100 82040 333 10331 29050 55108 58001;
0156831820999992006122712004-11300-041867FM-12+074799999V0200501N003112200019N0100001N1+02681+01761101351ADDGF108991011001017501041011KA1240N+01841MA1999999093241MD1999999+0121REMSYN076AAXX  27124 83182 32797 80506 10268 20176 39324 40135 81041 333 20184 58012;
0137831820999992006122718004-11300-041867FM-12+074799999V0201801N001012200019N0100001N1+03301+01501100831ADDGF108991031021008001001011MA1999999092811MD1999999+0101REMSYN070AAXX  27184 83182 32597 81802 10330 20150 39281 40083 83201 333 58010;
0168831820999992006122800004-11300-041867FM-12+074799999V0201401N004112200019N0010001N1+02601+01891101181ADDGF108991031001017501051011KA1240M+03401MA1999999093101MD1999999+0181REMSYN088AAXX  28004 83182 32794 81408 10260 20189 39310 40118 83051 333 10340 29055 55101 58018;
0156831820999992006122812004-11300-041867FM-12+074799999V0200901N004112200019N0100001N1+02631+01871101481ADDGF108991031021008001001011KA1240N+02001MA1999999093361MD1999999+0121REMSYN076AAXX  28124 83182 32597 80908 10263 20187 39336 40148 83201 333 20200 58012;
0137831820999992006122818004-11300-041867FM-12+074799999V0201401N004112200019N0100001N1+03141+01661100931ADDGF102991021021008001001001MA1999999092891MD1999999+0081REMSYN070AAXX  28184 83182 32597 21408 10314 20166 39289 40093 82200 333 58008;
0178831820999992006122900004-11300-041867FM-12+074799999V0200901N004112200019N0010001N1+02541+01811101161ADDGA1001+999999999GF100991001001999999001001KA1240M+03161MA1999999093061MD1999999-0041REMSYN082AAXX  29004 83182 32994 00908 10254 20181 39306 40116 333 10316 29058 55115 59004;
0156831820999992006122912004-11300-041867FM-12+074799999V0201401N001510450019N0100001N1+02621+01811101381ADDGF108991011021008001041011KA1240N+01871MA1999999093271MD1999999-0091REMSYN076AAXX  29124 83182 32597 81403 10262 20181 39327 40138 81241 333 20187 59009;
0137831820999992006122918004-11300-041867FM-12+074799999V0201801N001512200019N0100001N1+03281+01621100811ADDGF104991041031008001001001MA1999999092791MD1999999-0101REMSYN070AAXX  29184 83182 32597 41803 10328 20162 39279 40081 84300 333 59010;
0178831820999992006123000004-11300-041867FM-12+074799999V0200901N003112200019N0010001N1+02561+01731101181ADDGA1001+999999999GF100991001001999999001001KA1240M+03311MA1999999093081MD1999999+0021REMSYN082AAXX  30004 83182 32994 00906 10256 20173 39308 40118 333 10331 29054 55108 58002;
0156831820999992006123012004-11300-041867FM-12+074799999V0200901N001010450019N0100001N1+02571+01911101431ADDGF108991041021008001051011KA1240N+01931MA1999999093301MD1999999+0031REMSYN076AAXX  30124 83182 32597 80902 10257 20191 39330 40143 84251 333 20193 58003;
0168831820999992006123100004-11300-041867FM-12+074799999V0201401N005710150019N0010001N1+02311+01751101321ADDGF108991061001017501051011KA1240M+03111MA1999999093161MD1999999+0081REMSYN088AAXX  31004 83182 32794 81411 10231 20175 39316 40132 86051 333 10311 29065 55091 58008;
0156831820999992006123112004-11300-041867FM-12+074799999V0201401N004112200019N0100001N1+02571+01671101401ADDGF108991021021008001001011KA1240N+01761MA1999999093241MD1999999+0061REMSYN076AAXX  31124 83182 32597 81408 10257 20167 39324 40140 82201 333 20176 58006;
0137831820999992006123118004-11300-041867FM-12+074799999V0200901N003610075019N0100001N1+02901+01691101071ADDGF108991061051008001051011MA1999999092931MD1999999+0061REMSYN070AAXX  31184 83182 32597 80907 10290 20169 39293 40107 86551 333 58006;
