0196833390999992006010100004-14050-042617FM-12+088299999V0201401N004612200019N0020001N1+02131+01761101281ADDAY101061AY201061GF102991021021004501001001KA1240M+02441MA1999999091641MD1999999+0011MW1101REMSYN094AAXX  01004 83339 31495 21409 10213 20176 39164 40128 71000 82200 333 10244 29077 55015 58001;
0156833390999992006010112004-14050-042617FM-12+088299999V0200901N004110042019N0100001N1+01981+01791101231ADDGF107991071021004501001001KA1240N+01851MA1999999091571MD1999999-0161REMSYN076AAXX  01124 83339 32497 70908 10198 20179 39157 40123 87200 333 20185 59016;
0178833390999992006010200004-14050-042617FM-12+088299999V0201401N003612200019N0020001N1+02341+01641101021ADDGA1001+999999999GF100991001001999999001001KA1240M+02741MA1999999091421MD1999999-0221REMSYN082AAXX  02004 83339 32995 01407 10234 20164 39142 40102 333 10274 29065 55051 59022;
0156833390999992006010212004-14050-042617FM-12+088299999V0201401N004610042019N0100001N1+02191+01631101271ADDGF106991061021004501001001KA1240N+01781MA1999999091681MD1999999+0111REMSYN076AAXX  02124 83339 32497 61409 10219 20163 39168 40127 86200 333 20178 58011;
0137833390999992006010218004-14050-042617FM-12+088299999V0203201N004112200019N0100001N1+02791+01181100901ADDGF102991011021004501001041MA1999999091391MD1999999+0081REMSYN070AAXX  02184 83339 32497 23208 10279 20118 39139 40090 81204 333 58008;
0178833390999992006010300004-14050-042617FM-12+088299999V0200901N001512200019N0020001N1+02291+00971101011ADDGA1001+999999999GF100991001001999999001001KA1240M+03201MA1999999091451MD1999999+0031REMSYN082AAXX  03004 83339 32995 00903 10229 20097 39145 40101 333 10320 29052 55102 58003;
0156833390999992006010312004-14050-042617FM-12+088299999V0201401N005110042019N0100001N1+02271+01751101171ADDGF106991061021004501001001KA1240N+01901MA1999999091621MD1999999-0061REMSYN076AAXX  03124 83339 32497 61410 10227 20175 39162 40117 86200 333 20190 59006;
0137833390999992006010318004-14050-042617FM-12+088299999V0200901N003110042019N0100001N1+02791+01181100841ADDGF106991051021004501021001MA1999999091341MD1999999-0051REMSYN070AAXX  03184 83339 32497 60906 10279 20118 39134 40084 85220 333 59005;
0168833390999992006010400004-14050-042617FM-12+088299999V0201801N003110042019N0020001N1+02291+01151100881ADDGF105991051021004501001001KA1240M+02851MA1999999091351MD1999999-0101REMSYN088AAXX  04004 83339 32495 51806 10229 20115 39135 40088 85200 333 10285 29052 55084 59010;
0156833390999992006010412004-14050-042617FM-12+088299999V0201401N004110042019N0100001N1+02121+01821101011ADDGF105991051021004501001001KA1240N+01841MA1999999091431MD1999999-0191REMSYN076AAXX  04124 83339 32497 51408 10212 20182 39143 40101 85200 333 20184 59019;
0137833390999992006010418004-14050-042617FM-12+088299999V0200901N003112200019N0100001N1+02891+01621100461ADDGF102991021021004501001001MA1999999091011MD1999999-0331REMSYN070AAXX  04184 83339 32497 20906 10289 20162 39101 40046 82200 333 59033;
0187833390999992006010500004-14050-042617FM-12+088299999V0200501N000512200019N0020001N1+02351+01561100651ADDGF102991999031008001001001KA1240M+02961MA1999999091131MD1999999-0221REMSYN088AAXX  05004 83339 32595 20501 10235 20156 39113 40065 80300 333 10296 29063 55095 59022;EQDQ01+000002SCOTLC
0156833390999992006010512004-14050-042617FM-12+088299999V0200901N002612200019N0100001N1+02271+01881100861ADDGF105991041021004501001011KA1240N+01921MA1999999091341MD1999999-0091REMSYN076AAXX  05124 83339 32497 50905 10227 20188 39134 40086 84201 333 20192 59009;
0137833390999992006010518004-14050-042617FM-12+088299999V0203201N001512200019N0100001N1+02831+01571100431ADDGF106991041021004501001011MA1999999090981MD1999999-0031REMSYN070AAXX  05184 83339 32497 63203 10283 20157 39098 40043 84201 333 59003;
0156833390999992006010612004-14050-042617FM-12+088299999V0200901N001510450019N0100001N1+02151+01841101081ADDGF106991031021004501031011KA1240N+01991MA1999999091521MD1999999+0181REMSYN076AAXX  06124 83339 32497 60903 10215 20184 39152 40108 83231 333 20199 58018;
0137833390999992006010618004-14050-042617FM-12+088299999V0201401N002610450019N0100001N1+02771+01701100671ADDGF106991041021004501031041MA1999999091201MD1999999+0221REMSYN070AAXX  06184 83339 32497 61405 10277 20170 39120 40067 84234 333 58022;
0168833390999992006010700004-14050-042617FM-12+088299999V0201401N003610450019N0020001N1+02471+01701100941ADDGF106991031021004501031001KA1240M+02841MA1999999091411MD1999999+0211REMSYN088AAXX  07004 83339 32495 61407 10247 20170 39141 40094 83230 333 10284 29065 55031 58021;
0156833390999992006010712004-14050-042617FM-12+088299999V0200901N004610042019N0100001N1+02291+01791101081ADDGF105991051021004501001001KA1240N+01921MA1999999091571MD1999999+0051REMSYN076AAXX  07124 83339 32497 50909 10229 20179 39157 40108 85200 333 20192 58005;
0137833390999992006010718004-14050-042617FM-12+088299999V0200901N002110042019N0100001N1+02831+01631100731ADDGF106991061021004501001001MA1999999091271MD1999999+0071REMSYN070AAXX  07184 83339 32497 60904 10283 20163 39127 40073 86200 333 58007;
0156833390999992006010812004-14050-042617FM-12+088299999V0200901N006212200019N0100001N1+02281+01701101111ADDGF102991021011004501001001KA1240N+01841MA1999999091581MD1999999+0011REMSYN076AAXX  08124 83339 32497 20912 10228 20170 39158 40111 82100 333 20184 58001;
0137833390999992006010818004-14050-042617FM-12+088299999V0200901N003112200019N0100001N1+02851+01291100791ADDGF104991041021004501001001MA1999999091311MD1999999+0041REMSYN070AAXX  08184 83339 32497 40906 10285 20129 39131 40079 84200 333 58004;
0184833390999992006010912004-14050-042617FM-12+088299999V0200901N008210042019N0040001N1+02071+01701101281ADDAY101061AY201061GF108991081051004501999999KA1240N+01831MA1999999091651MD1999999+0071MW1101REMSYN082AAXX  09124 83339 31496 80916 10207 20170 39165 40128 71000 885// 333 20183 58007;
0137833390999992006010918004-14050-042617FM-12+088299999V0201401N005710042019N0100001N1+02571+01561101011ADDGF106991051021004501021001MA1999999091451MD1999999+0141REMSYN070AAXX  09184 83339 32497 61411 10257 20156 39145 40101 85220 333 58014;
0168833390999992006011000004-14050-042617FM-12+088299999V0203601N005112200019N0020001N1+02211+01691101091ADDGF103991031021004501001001KA1240M+02621MA1999999091481MD1999999-0041REMSYN088AAXX  10004 83339 32495 33610 10221 20169 39148 40109 83200 333 10262 29070 55025 59004;
0156833390999992006011012004-14050-042617FM-12+088299999V0203201N005110042019N0100001N1+02231+01651101301ADDGF106991051021004501031001KA1240N+01821MA1999999091691MD1999999+0041REMSYN076AAXX  10124 83339 32497 63210 10223 20165 39169 40130 85230 333 20182 58004;
0168833390999992006011100004-14050-042617FM-12+088299999V0203601N006210042019N0020001N1+02151+01701101351ADDGF106991061021004501001001KA1240M+02581MA1999999091741MD1999999+0261REMSYN088AAXX  11004 83339 32495 63612 10215 20170 39174 40135 86200 333 10258 29069 55010 58026;
0201833390999992006011112004-14050-042617FM-12+088299999V0201401N003110042019N0040001N1+01911+01851101471ADDAA124000891AY161061AY261061GF108991081051004501999999KA1240N+01801MA1999999091791MD1999999+0101MW1101REMSYN088AAXX  11124 83339 21496 81406 10191 20185 39179 40147 71066 885// 333 20180 58010 69984;
0137833390999992006011118004-14050-042617FM-12+088299999V0200501N006210042019N0100001N1+02671+01301101061ADDGF106991051021004501021001MA1999999091521MD1999999-0081REMSYN070AAXX  11184 83339 32497 60512 10267 20130 39152 40106 85220 333 59008;
0137833390999992006011218004-14050-042617FM-12+088299999V0200901N005712200019N0100001N1+02791+01371101081ADDGF103991031021004501001001MA1999999091551MD1999999+0031REMSYN070AAXX  12184 83339 32497 30911 10279 20137 39155 40108 83200 333 58003;
0196833390999992006011300004-14050-042617FM-12+088299999V0200501N003612200019N0020001N1+02051+01681101411ADDAY101061AY201061GF102991021021004501001001KA1240M+02841MA1999999091741MD1999999+0101MW1101REMSYN094AAXX  13004 83339 31495 20507 10205 20168 39174 40141 71000 82200 333 10284 29070 55064 58010;
0184833390999992006011312004-14050-042617FM-12+088299999V0200501N006210042019N0040001N1+01991+01721101571ADDAY101061AY201061GF108991081051004501999999KA1240N+01761MA1999999091851MD1999999+0001MW1101REMSYN082AAXX  13124 83339 31496 80512 10199 20172 39185 40157 71000 885// 333 20176 58000;
0137833390999992006011318004-14050-042617FM-12+088299999V0201401N005112200019N0100001N1+02731+01281101261ADDGF103991031021004501001001MA1999999091701MD1999999+0151REMSYN070AAXX  13184 83339 32497 31410 10273 20128 39170 40126 83200 333 58015;
0168833390999992006011400004-14050-042617FM-12+088299999V0200901N006212200019N0020001N1+02331+01501101411ADDGF102991021021004501001001KA1240M+02761MA1999999091771MD1999999+0031REMSYN088AAXX  14004 83339 32495 20912 10233 20150 39177 40141 82200 333 10276 29061 55063 58003;
0156833390999992006011412004-14050-042617FM-12+088299999V0203201N008212200019N0100001N1+02251+01801101361ADDGF104991041021004501001001KA1240N+01721MA1999999091791MD1999999-0061REMSYN076AAXX  14124 83339 32497 43216 10225 20180 39179 40136 84200 333 20172 59006;
0137833390999992006011418004-14050-042617FM-12+088299999V0201401N005112200019N0100001N1+02671+01331101111ADDGF102991021021004501001001MA1999999091561MD1999999-0141REMSYN070AAXX  14184 83339 32497 21410 10267 20133 39156 40111 82200 333 59014;
0156833390999992006011512004-14050-042617FM-12+088299999V0200501N007712200019N0100001N1+02111+01511101421ADDGF104991041021004501001001KA1240N+01741MA1999999091801MD1999999+0011REMSYN076AAXX  15124 83339 32497 40515 10211 20151 39180 40142 84200 333 20174 58001;
0137833390999992006011518004-14050-042617FM-12+088299999V0200901N004112200019N0100001N1+02731+01081101041ADDGF102991021021004501001001MA1999999091501MD1999999-0061REMSYN070AAXX  15184 83339 32497 20908 10273 20108 39150 40104 82200 333 59006;
0156833390999992006011612004-14050-042617FM-12+088299999V0200901N004610042019N0100001N1+02151+01541101331ADDGF105991051021004501001001KA1240N+01641MA1999999091731MD1999999-0081REMSYN076AAXX  16124 83339 32497 50909 10215 20154 39173 40133 85200 333 20164 59008;
0168833390999992006011700004-14050-042617FM-12+088299999V0200901N002612200019N0020001N1+02341+01301101091ADDGF102991021011004501001001KA1240M+02921MA1999999091531MD1999999-0121REMSYN088AAXX  17004 83339 32495 20905 10234 20130 39153 40109 82100 333 10292 29052 55105 59012;
0156833390999992006011712004-14050-042617FM-12+088299999V0200501N005112200019N0100001N1+02331+01621101241ADDGF103991021011004501001011KA1240N+01801MA1999999091701MD1999999-0021REMSYN076AAXX  17124 83339 32497 30510 10233 20162 39170 40124 82101 333 20180 59002;
0137833390999992006011718004-14050-042617FM-12+088299999V0201401N003110042019N0100001N1+02831+01351100871ADDGF106991051021004501001011MA1999999091361MD1999999+0011REMSYN070AAXX  17184 83339 32497 61406 10283 20135 39136 40087 85201 333 58001;
0178833390999992006011800004-14050-042617FM-12+088299999V0200901N003112200019N0020001N1+02371+01451101021ADDGA1001+999999999GF100991001001999999001001KA1240M+02951MA1999999091501MD1999999-0031REMSYN082AAXX  18004 83339 32995 00906 10237 20145 39150 40102 333 10295 29054 55098 59003;
0156833390999992006011812004-14050-042617FM-12+088299999V0200901N004110450019N0100001N1+02201+01671101221ADDGF106991041021004501031001KA1240N+01881MA1999999091661MD1999999-0041REMSYN076AAXX  18124 83339 32497 60908 10220 20167 39166 40122 84230 333 20188 59004;
0178833390999992006011900004-14050-042617FM-12+088299999V0201401N003612200019N0020001N1+02441+01201100851ADDGA1001+999999999GF100991001001999999001001KA1240M+03051MA1999999091331MD1999999-0171REMSYN082AAXX  19004 83339 32995 01407 10244 20120 39133 40085 333 10305 29050 55082 59017;
0156833390999992006011912004-14050-042617FM-12+088299999V0200901N005110042019N0100001N1+02161+01701101121ADDGF106991061021004501001001KA1240N+01841MA1999999091571MD1999999-0091REMSYN076AAXX  19124 83339 32497 60910 10216 20170 39157 40112 86200 333 20184 59009;
0137833390999992006011918004-14050-042617FM-12+088299999V0201401N005112200019N0100001N1+02901+01361100641ADDGF105991031011004501001011MA1999999091171MD1999999-0111REMSYN070AAXX  19184 83339 32497 51410 10290 20136 39117 40064 83101 333 59011;
0168833390999992006012000004-14050-042617FM-12+088299999V0201401N005112200019N0020001N1+02411+01651100811ADDGF102991021021004501001001KA1240M+03001MA1999999091291MD1999999-0041REMSYN088AAXX  20004 83339 32495 21410 10241 20165 39129 40081 82200 333 10300 29060 55075 59004;
0156833390999992006012012004-14050-042617FM-12+088299999V0201401N008212200019N0100001N1+02161+01541101141ADDGF102991011021004501001011KA1240N+01811MA1999999091591MD1999999+0021REMSYN076AAXX  20124 83339 32497 21416 10216 20154 39159 40114 81201 333 20181 58002;
0137833390999992006012018004-14050-042617FM-12+088299999V0201401N005112200019N0100001N1+02901+01401100771ADDGF103991021011004501001011MA1999999091291MD1999999+0121REMSYN070AAXX  20184 83339 32497 31410 10290 20140 39129 40077 82101 333 58012;
0223833390999992006012100004-14050-042617FM-12+088299999V0201401N005112200019N0020001N1+01891+01711101241ADDAA106000591AY161061AY221061GA1001+999999999GF100991001001999999001001KA1240M+02941MA1999999091561MD1999999+0271MW1021REMSYN094AAXX  21004 83339 21995 01410 10189 20171 39156 40124 70262 333 10294 29072 55095 58027 69961;
0201833390999992006012112004-14050-042617FM-12+088299999V0200901N004110042019N0100001N1+01901+01751101521ADDAA124000591AY161061AY221061GF108991051021004501021999KA1240N+01731MA1999999091771MD1999999+0181MW1021REMSYN088AAXX  21124 83339 21497 80908 10190 20175 39177 40152 70262 8522/ 333 20173 58018 69964;
0137833390999992006012118004-14050-042617FM-12+088299999V0200901N006212200019N0100001N1+02751+01321100961ADDGF103991031021004501001001MA1999999091411MD1999999+0121REMSYN070AAXX  21184 83339 32497 30912 10275 20132 39141 40096 83200 333 58012;
0178833390999992006012200004-14050-042617FM-12+088299999V0201401N006712200019N0020001N1+02261+01711101161ADDGA1001+999999999GF100991001001999999001001KA1240M+02871MA1999999091531MD1999999-0031REMSYN082AAXX  22004 83339 32995 01413 10226 20171 39153 40116 333 10287 29068 55062 59003;
0156833390999992006012212004-14050-042617FM-12+088299999V0200901N005110042019N0100001N1+02131+01741101331ADDGF106991061021004501001001KA1240N+01791MA1999999091721MD1999999-0051REMSYN076AAXX  22124 83339 32497 60910 10213 20174 39172 40133 86200 333 20179 59005;
0137833390999992006012218004-14050-042617FM-12+088299999V0201401N002612200019N0100001N1+02981+01441100821ADDGF103991031021004501001001MA1999999091351MD1999999-0061REMSYN070AAXX  22184 83339 32497 31405 10298 20144 39135 40082 83200 333 59006;
0156833390999992006012312004-14050-042617FM-12+088299999V0200901N004110042019N0100001N1+02251+01711101241ADDGF105991051021004501001001KA1240N+01801MA1999999091701MD1999999-0021REMSYN076AAXX  23124 83339 32497 50908 10225 20171 39170 40124 85200 333 20180 59002;
0137833390999992006012318004-14050-042617FM-12+088299999V0203601N004612200019N0100001N1+03171+01091100621ADDGF104991041021004501001001MA1999999091241MD1999999-0111REMSYN070AAXX  23184 83339 32497 43609 10317 20109 39124 40062 84200 333 59011;
0178833390999992006012400004-14050-042617FM-12+088299999V0201401N002612200019N0020001N1+02551+01081100841ADDGA1001+999999999GF100991001001999999001001KA1240M+03221MA1999999091351MD1999999-0111REMSYN082AAXX  24004 83339 32995 01405 10255 20108 39135 40084 333 10322 29045 55100 59011;
0156833390999992006012412004-14050-042617FM-12+088299999V0200501N004612200019N0100001N1+02411+01841101131ADDGF103991021021004501031001KA1240N+01961MA1999999091651MD1999999-0051REMSYN076AAXX  24124 83339 32497 30509 10241 20184 39165 40113 82230 333 20196 59005;
0137833390999992006012418004-14050-042617FM-12+088299999V0201401N003112200019N0100001N1+03211+01231100621ADDGF102991021021004501001001MA1999999091251MD1999999+0011REMSYN070AAXX  24184 83339 32497 21406 10321 20123 39125 40062 82200 333 58001;
0196833390999992006012500004-14050-042617FM-12+088299999V0201801N000510042019N0020001N1+02751+01701100871ADDAY101061AY201061GF106991061021004501001001KA1240M+03331MA1999999091461MD1999999+0111MW1131REMSYN094AAXX  25004 83339 31495 61801 10275 20170 39146 40087 71300 86200 333 10333 29046 55099 58011;
0184833390999992006012512004-14050-042617FM-12+088299999V0200901N002110042019N0100001N1+02291+02011101221ADDAY101061AY201061GF106991051021004501021001KA1240N+02121MA1999999091741MD1999999+0091MW1101REMSYN082AAXX  25124 83339 31497 60904 10229 20201 39174 40122 71000 85220 333 20212 58009;
0137833390999992006012518004-14050-042617FM-12+088299999V0201401N003110042019N0100001N1+03151+01501100791ADDGF106991051021004501001021MA1999999091431MD1999999+0181REMSYN070AAXX  25184 83339 32497 61406 10315 20150 39143 40079 85202 333 58018;
0168833390999992006012600004-14050-042617FM-12+088299999V0200501N000512200019N0020001N1+02551+01881101111ADDGF102991021021004501001001KA1240M+03351MA1999999091601MD1999999+0141REMSYN088AAXX  26004 83339 32495 20501 10255 20188 39160 40111 82200 333 10335 29063 55060 58014;
0156833390999992006012612004-14050-042617FM-12+088299999V0200901N002112200019N0100001N1+02711+01941101071ADDGF104991031021004501001041KA1240N+01981MA1999999091661MD1999999-0081REMSYN076AAXX  26124 83339 32497 40904 10271 20194 39166 40107 83204 333 20198 59008;
0137833390999992006012618004-14050-042617FM-12+088299999V0200501N003110450019N0100001N1+03531+01031100581ADDGF105991041021004501021001MA1999999091301MD1999999-0131REMSYN070AAXX  26184 83339 32497 50506 10353 20103 39130 40058 84220 333 59013;
0168833390999992006012700004-14050-042617FM-12+088299999V0201401N000512200019N0020001N1+02571+01671100951ADDGF102991021021004501001001KA1240M+03611MA1999999091551MD1999999-0051REMSYN088AAXX  27004 83339 32495 21401 10257 20167 39155 40095 82200 333 10361 29049 55104 59005;
0156833390999992006012712004-14050-042617FM-12+088299999V0203201N000512200019N0100001N1+02491+02011101151ADDGF103991031021004501001001KA1240N+02001MA1999999091701MD1999999+0041REMSYN076AAXX  27124 83339 32497 33201 10249 20201 39170 40115 83200 333 20200 58004;
0137833390999992006012718004-14050-042617FM-12+088299999V0201401N005112200019N0100001N1+03271+01231100671ADDGF104991031021004501021001MA1999999091361MD1999999+0061REMSYN070AAXX  27184 83339 32497 41410 10327 20123 39136 40067 83220 333 58006;
0178833390999992006012800004-14050-042617FM-12+088299999V0200901N005112200019N0020001N1+02691+01211100921ADDGA1001+999999999GF100991001001999999001001KA1240M+03411MA1999999091511MD1999999-0041REMSYN082AAXX  28004 83339 32995 00910 10269 20121 39151 40092 333 10341 29046 55110 59004;
0184833390999992006012812004-14050-042617FM-12+088299999V0200901N003110042019N0040001N1+02211+01841101271ADDAY101061AY201061GF107991061021004501021999KA1240N+01981MA1999999091761MD1999999+0061MW1101REMSYN082AAXX  28124 83339 31496 70906 10221 20184 39176 40127 71000 8622/ 333 20198 58006;
0137833390999992006012818004-14050-042617FM-12+088299999V0201801N004612200019N0100001N1+03111+01281100811ADDGF102991011021004501021001MA1999999091431MD1999999+0071REMSYN070AAXX  28184 83339 32497 21809 10311 20128 39143 40081 81220 333 58007;
0137833390999992006012918004-14050-042617FM-12+088299999V0200901N004112200019N0100001N1+03191+00991100561ADDGF102991011021004501021001MA1999999091221MD1999999-0211REMSYN070AAXX  29184 83339 32497 20908 10319 20099 39122 40056 81220 333 59021;
0178833390999992006013000004-14050-042617FM-12+088299999V0202301N000512200019N0020001N1+02611+00891100801ADDGA1001+999999999GF100991001001999999001001KA1240M+03321MA1999999091361MD1999999-0081REMSYN082AAXX  30004 83339 32995 02301 10261 20089 39136 40080 333 10332 29040 55117 59008;
0156833390999992006013012004-14050-042617FM-12+088299999V0201401N001512200019N0100001N1+02371+01661101151ADDGF102991001001999999001011KA1240N+01871MA1999999091671MD1999999+0091REMSYN076AAXX  30124 83339 32897 21403 10237 20166 39167 40115 80001 333 20187 58009;
0137833390999992006013018004-14050-042617FM-12+088299999V0202701N003112200019N0100001N1+03331+01401100531ADDGF105991041021004501001011MA1999999091171MD1999999-0051REMSYN070AAXX  30184 83339 32497 52706 10333 20140 39117 40053 84201 333 59005;
0178833390999992006013100004-14050-042617FM-12+088299999V0201401N003612200019N0020001N1+02611+01371100741ADDGA1001+999999999GF100991001001999999001001KA1240M+03431MA1999999091311MD1999999-0051REMSYN082AAXX  31004 83339 32995 01407 10261 20137 39131 40074 333 10343 29047 55095 59005;
0156833390999992006013112004-14050-042617FM-12+088299999V0200501N004112200019N0100001N1+02471+01851100961ADDGF102991021011004501001001KA1240N+01971MA1999999091531MD1999999-0141REMSYN076AAXX  31124 83339 32497 20508 10247 20185 39153 40096 82100 333 20197 59014;
0137833390999992006013118004-14050-042617FM-12+088299999V0200901N004112200019N0100001N1+03171+01491100551ADDGF102991021021004501001001MA1999999091171MD1999999+0001REMSYN070AAXX  31184 83339 32497 20908 10317 20149 39117 40055 82200 333 58000;
0178833390999992006020100004-14050-042617FM-12+088299999V0200901N001012200019N0020001N1+02621+01301100611ADDGA1001+999999999GF100991001001999999001001KA1240M+03261MA1999999091211MD1999999-0101REMSYN082AAXX  01004 83339 32995 00902 10262 20130 39121 40061 333 10326 29048 55112 59010;
0156833390999992006020112004-14050-042617FM-12+088299999V0200901N004112200019N0100001N1+02371+01871100981ADDGF103991031021004501001001KA1240N+01991MA1999999091521MD1999999-0011REMSYN076AAXX  01124 83339 32497 30908 10237 20187 39152 40098 83200 333 20199 59001;
0137833390999992006020118004-14050-042617FM-12+088299999V0200501N002612200019N0100001N1+03211+01481100511ADDGF104991031021004501001011MA1999999091171MD1999999+0001REMSYN070AAXX  01184 83339 32497 40505 10321 20148 39117 40051 83201 333 58000;
0178833390999992006020200004-14050-042617FM-12+088299999V0200901N006712200019N0020001N1+02301+01871100811ADDGA1001+999999999GF100991001001999999001001KA1240M+03311MA1999999091311MD1999999+0101REMSYN082AAXX  02004 83339 32995 00913 10230 20187 39131 40081 333 10331 29066 55096 58010;
0156833390999992006020212004-14050-042617FM-12+088299999V0200901N005112200019N0100001N1+02351+01561101141ADDGF102991011011004501001011KA1240N+01921MA1999999091591MD1999999+0071REMSYN076AAXX  02124 83339 32497 20910 10235 20156 39159 40114 81101 333 20192 58007;
0137833390999992006020218004-14050-042617FM-12+088299999V0201401N001012200019N0100001N1+02981+01511100661ADDGF106991031021004501001041MA1999999091241MD1999999+0071REMSYN070AAXX  02184 83339 32497 61402 10298 20151 39124 40066 83204 333 58007;
0168833390999992006020300004-14050-042617FM-12+088299999V0200901N002612200019N0020001N1+02611+01041100791ADDGF102991021021004501001001KA1240M+03151MA1999999091351MD1999999+0041REMSYN088AAXX  03004 83339 32495 20905 10261 20104 39135 40079 82200 333 10315 29044 55093 58004;
0156833390999992006020312004-14050-042617FM-12+088299999V0200901N005710450019N0100001N1+02361+01611101021ADDGF106991021011004501031001KA1240N+01951MA1999999091551MD1999999-0041REMSYN076AAXX  03124 83339 32497 60911 10236 20161 39155 40102 82130 333 20195 59004;
0137833390999992006020318004-14050-042617FM-12+088299999V0200901N005110450019N0100001N1+02961+01461100631ADDGF106991041021004501031011MA1999999091211MD1999999-0031REMSYN070AAXX  03184 83339 32497 60910 10296 20146 39121 40063 84231 333 59003;
0168833390999992006020400004-14050-042617FM-12+088299999V0201401N004112200019N0020001N1+02511+01211100751ADDGF104991041021004501001001KA1240M+03091MA1999999091291MD1999999-0061REMSYN088AAXX  04004 83339 32495 41408 10251 20121 39129 40075 84200 333 10309 29048 55094 59006;
0137833390999992006020418004-14050-042617FM-12+088299999V0200901N005110042019N0100001N1+03071+01481100531ADDGF105991051021004501001001MA1999999091121MD1999999-0091REMSYN070AAXX  04184 83339 32497 50910 10307 20148 39112 40053 85200 333 59009;
0187833390999992006020500004-14050-042617FM-12+088299999V0201401N003112200019N0020001N1+02511+01401100601ADDGF102991001001999999001041KA1240M+03151MA1999999091181MD1999999-0111REMSYN088AAXX  05004 83339 32895 21406 10251 20140 39118 40060 80004 333 10315 29049 55116 59011;EQDQ01+022502SCOLCB
0156833390999992006020512004-14050-042617FM-12+088299999V0200901N006712200019N0100001N1+02331+01621101121ADDGF102991021011004501001001KA1240N+01861MA1999999091611MD1999999+0161REMSYN076AAXX  05124 83339 32497 20913 10233 20162 39161 40112 82100 333 20186 58016;
0137833390999992006020518004-14050-042617FM-12+088299999V0200901N004110042019N0100001N1+03091+01241100581ADDGF106991061021004501001001MA1999999091181MD1999999+0061REMSYN070AAXX  05184 83339 32497 60908 10309 20124 39118 40058 86200 333 58006;
0168833390999992006020600004-14050-042617FM-12+088299999V0200901N006212200019N0020001N1+02541+01421100741ADDGF102991021011004501001001KA1240M+03221MA1999999091281MD1999999+0101REMSYN088AAXX  06004 83339 32495 20912 10254 20142 39128 40074 82100 333 10322 29049 55087 58010;
0156833390999992006020612004-14050-042617FM-12+088299999V0201401N005712200019N0100001N1+02331+01631101001ADDGF102991021021004501001001KA1240N+01901MA1999999091521MD1999999-0091REMSYN076AAXX  06124 83339 32497 21411 10233 20163 39152 40100 82200 333 20190 59009;
0137833390999992006020618004-14050-042617FM-12+088299999V0200901N003110042019N0100001N1+03131+01301100511ADDGF105991051021004501001001MA1999999091151MD1999999-0031REMSYN070AAXX  06184 83339 32497 50906 10313 20130 39115 40051 85200 333 59003;
0178833390999992006020700004-14050-042617FM-12+088299999V0209999C000012200019N0020001N1+02571+01281100681ADDGA1001+999999999GF100991001001999999001001KA1240M+03201MA1999999091231MD1999999-0051REMSYN082AAXX  07004 83339 32995 01800 10257 20128 39123 40068 333 10320 29046 55107 59005;
0184833390999992006020712004-14050-042617FM-12+088299999V0203601N004610042019N0100001N1+02291+01961100971ADDAY101061AY201061GF106991061021004501001001KA1240N+02041MA1999999091491MD1999999-0031MW1101REMSYN082AAXX  07124 83339 31497 63609 10229 20196 39149 40097 71000 86200 333 20204 59003;
0182833390999992006020718004-14050-042617FM-12+088299999V0200501N001512200019N0100001N1+03151+01661100431ADDAA106000391AY161061AY261061GF104991041021004501001001MA1999999091101MD1999999-0051MW1021REMSYN082AAXX  07184 83339 21497 40503 10315 20166 39110 40043 70266 84200 333 59005 69931;
0168833390999992006020800004-14050-042617FM-12+088299999V0203201N001512200019N0020001N1+02411+01821100811ADDGF102991021021004501001001KA1240M+03271MA1999999091311MD1999999+0081REMSYN088AAXX  08004 83339 32495 23203 10241 20182 39131 40081 82200 333 10327 29065 55058 58008;
0201833390999992006020812004-14050-042617FM-12+088299999V0203601N002112200019N0100001N1+02591+01901101001ADDAA124000391AY161061AY261061GF103991031021004501001001KA1240N+02151MA1999999091541MD1999999+0051MW1021REMSYN088AAXX  08124 83339 21497 33604 10259 20190 39154 40100 70266 83200 333 20215 58005 69934;
0182833390999992006020818004-14050-042617FM-12+088299999V0200501N003612200019N0100001N1+02911+02041100641ADDAA106002091AY161061AY261061GF102991021021004501001001MA1999999091241MD1999999+0141MW1021REMSYN082AAXX  08184 83339 21497 20507 10291 20204 39124 40064 70266 82200 333 58014 60021;
0196833390999992006020900004-14050-042617FM-12+088299999V0203601N001512200019N0020001N1+02351+02071100831ADDAY191061AY201061GF104991041021004501001001KA1240M+03061MA1999999091361MD1999999+0051MW1101REMSYN094AAXX  09004 83339 31495 43603 10235 20207 39136 40083 71090 84200 333 10306 29072 55072 58005;
0201833390999992006020912004-14050-042617FM-12+088299999V0201401N001512200019N0100001N1+02631+02121100861ADDAA124002091AY161061AY261061GF102991021021004501001001KA1240N+02201MA1999999091681MD1999999+0141MW1021REMSYN088AAXX  09124 83339 21497 21403 10263 20212 39168 40086 70266 82200 333 20220 58014 60024;
0182833390999992006020918004-14050-042617FM-12+088299999V0200901N001510042019N0100001N1+03071+01871100701ADDAA106001091AY191061AY261061GF105991051021004501001001MA1999999091311MD1999999+0071MW1021REMSYN082AAXX  09184 83339 21497 50903 10307 20187 39131 40070 70296 85200 333 58007 60011;
0168833390999992006021000004-14050-042617FM-12+088299999V0201801N001510042019N0020001N1+02591+02081100791ADDGF106991061021004501001001KA1240M+03251MA1999999091391MD1999999+0031REMSYN088AAXX  10004 83339 32495 61803 10259 20208 39139 40079 86200 333 10325 29066 55063 58003;
0201833390999992006021012004-14050-042617FM-12+088299999V0201401N002610042019N0100001N1+02391+02031101101ADDAA124013091AY191061AY261061GF106991051021004501021001KA1240N+01981MA1999999091631MD1999999-0051MW1101REMSYN088AAXX  10124 83339 21497 61405 10239 20203 39163 40110 71096 85220 333 20198 59005 60134;
0137833390999992006021018004-14050-042617FM-12+088299999V0203201N003112200019N0100001N1+03191+01571100661ADDGF103991031021004501001001MA1999999091291MD1999999-0021REMSYN070AAXX  10184 83339 32497 33206 10319 20157 39129 40066 83200 333 59002;
0178833390999992006021100004-14050-042617FM-12+088299999V0201401N001512200019N0020001N1+02451+01031100961ADDGA1001+999999999GF100991001001999999001001KA1240M+03271MA1999999091461MD1999999+0071REMSYN082AAXX  11004 83339 32995 01403 10245 20103 39146 40096 333 10327 29067 55102 58007;
0156833390999992006021112004-14050-042617FM-12+088299999V0209999C000012200019N0100001N1+02471+02011101121ADDGF102991011021004501031001KA1240N+02041MA1999999091631MD1999999+0001REMSYN076AAXX  11124 83339 32497 20000 10247 20201 39163 40112 81230 333 20204 58000;
0137833390999992006021118004-14050-042617FM-12+088299999V0203601N003112200019N0100001N1+03151+01801100551ADDGF104991041021004501001001MA1999999091251MD1999999-0041REMSYN070AAXX  11184 83339 32497 43606 10315 20180 39125 40055 84200 333 59004;
0213833390999992006021200004-14050-042617FM-12+088299999V0203601N003112200019N0020001N1+02251+01731100921ADDAA106001091AY191061AY261061GF103991031021004501001001KA1240M+03201MA1999999091411MD1999999-0051MW1021REMSYN100AAXX  12004 83339 21495 33606 10225 20173 39141 40092 70296 83200 333 10320 29068 55072 59005 60011;
0201833390999992006021212004-14050-042617FM-12+088299999V0201401N002110042019N0100001N1+02331+02151101191ADDAA124001091AY161061AY261061GF106991051021004501021001KA1240N+01961MA1999999091641MD1999999+0011MW1101REMSYN088AAXX  12124 83339 21497 61404 10233 20215 39164 40119 71066 85220 333 20196 58001 60014;
0182833390999992006021218004-14050-042617FM-12+088299999V0200501N001512200019N0100001N1+02911+01901100691ADDAA106000391AY191061AY261061GF104991031021004501001041MA1999999091261MD1999999+0011MW1021REMSYN082AAXX  12184 83339 21497 40503 10291 20190 39126 40069 70296 83204 333 58001 69931;
0213833390999992006021300004-14050-042617FM-12+088299999V0200901N001010042019N0020001N1+02271+02161101011ADDAA106020191AY191061AY261061GF108991051051004501999999KA1240M+03081MA1999999091471MD1999999+0061MW1101REMSYN100AAXX  13004 83339 21495 80902 10227 20216 39147 40101 71096 855// 333 10308 29082 55061 58006 60201;
0201833390999992006021312004-14050-042617FM-12+088299999V0200501N002610042019N0100001N1+02341+01951101231ADDAA124020191AY161061AY221061GF106991061021004501001001KA1240N+01981MA1999999091671MD1999999+0031MW1021REMSYN088AAXX  13124 83339 21497 60505 10234 20195 39167 40123 70262 86200 333 20198 58003 60204;
0137833390999992006021318004-14050-042617FM-12+088299999V0201801N001510042019N0100001N1+03051+01931100641ADDGF105991051021004501001001MA1999999091251MD1999999-0011REMSYN070AAXX  13184 83339 32497 51803 10305 20193 39125 40064 85200 333 59001;
0168833390999992006021400004-14050-042617FM-12+088299999V0201401N001012200019N0020001N1+02421+01911100881ADDGF103991031021004501001001KA1240M+03121MA1999999091391MD1999999-0081REMSYN088AAXX  14004 83339 32495 31402 10242 20191 39139 40088 83200 333 10312 29069 55079 59008;
0156833390999992006021412004-14050-042617FM-12+088299999V0200901N003110042019N0100001N1+02371+01911101151ADDGF105991051021004501001001KA1240N+02041MA1999999091641MD1999999-0031REMSYN076AAXX  14124 83339 32497 50906 10237 20191 39164 40115 85200 333 20204 59003;
0137833390999992006021418004-14050-042617FM-12+088299999V0201401N004112200019N0100001N1+03131+01621100601ADDGF102991021021004501001001MA1999999091221MD1999999-0031REMSYN070AAXX  14184 83339 32497 21408 10313 20162 39122 40060 82200 333 59003;
0168833390999992006021500004-14050-042617FM-12+088299999V0201801N001010042019N0020001N1+02651+01951100791ADDGF106991061021004501001001KA1240M+03251MA1999999091351MD1999999-0041REMSYN088AAXX  15004 83339 32495 61802 10265 20195 39135 40079 86200 333 10325 29061 55108 59004;
0156833390999992006021512004-14050-042617FM-12+088299999V0200501N002110042019N0100001N1+02511+02071101011ADDGF106991061021004501001001KA1240N+02161MA1999999091571MD1999999-0051REMSYN076AAXX  15124 83339 32497 60504 10251 20207 39157 40101 86200 333 20216 59005;
0137833390999992006021518004-14050-042617FM-12+088299999V0202701N005110042019N0100001N1+03031+02001100641ADDGF105991051021004501001001MA1999999091271MD1999999+0051REMSYN070AAXX  15184 83339 32497 52710 10303 20200 39127 40064 85200 333 58005;
0213833390999992006021600004-14050-042617FM-12+088299999V0202301N001012200019N0020001N1+02421+02051100831ADDAA106007191AY191061AY261061GF104991041021004501001001KA1240M+03091MA1999999091361MD1999999+0011MW1131REMSYN100AAXX  16004 83339 21495 42302 10242 20205 39136 40083 71396 84200 333 10309 29073 55061 58001 60071;
0201833390999992006021612004-14050-042617FM-12+088299999V0200501N003110042019N0100001N1+02271+01881101211ADDAA124022191AY161061AY221061GF106991061021004501001001KA1240N+01981MA1999999091671MD1999999+0081MW1021REMSYN088AAXX  16124 83339 21497 60506 10227 20188 39167 40121 70262 86200 333 20198 58008 60224;
0137833390999992006021618004-14050-042617FM-12+088299999V0200501N001012200019N0100001N1+02931+01591100731ADDGF102991021021004501001001MA1999999091271MD1999999+0001REMSYN070AAXX  16184 83339 32497 20502 10293 20159 39127 40073 82200 333 58000;
0168833390999992006021700004-14050-042617FM-12+088299999V0200901N003612200019N0020001N1+02571+01161100901ADDGF102991011011004501031001KA1240M+03001MA1999999091411MD1999999+0051REMSYN088AAXX  17004 83339 32495 20907 10257 20116 39141 40090 81130 333 10300 29051 55103 58005;
0166833390999992006021712004-14050-042617FM-12+088299999V0200901N004112200019N0100001N1+02341+01671101071ADDGA1001+999999999GF100991001001999999001001KA1240N+01921MA1999999091581MD1999999-0091REMSYN070AAXX  17124 83339 32997 00908 10234 20167 39158 40107 333 20192 59009;
0156833390999992006021718004-14050-042617FM-12+088299999V0200901N006219999999N0100001N1+02991+01451100681ADDGF105991999021004501001001MA1999999091251MD1999999-0021REMSYN070AAXX  17184 83339 32497 50912 10299 20145 39125 40068 86200 333 59002;EQDQ01+000062SCOTLC
0168833390999992006021800004-14050-042617FM-12+088299999V0209999C000012200019N0020001N1+02501+01561100791ADDGF103991011021004501031001KA1240M+03021MA1999999091311MD1999999-0101REMSYN088AAXX  18004 83339 32495 30000 10250 20156 39131 40079 81230 333 10302 29054 55114 59010;
0156833390999992006021812004-14050-042617FM-12+088299999V0200501N003112200019N0100001N1+02431+01861101201ADDGF102991021011004501001001KA1240N+01941MA1999999091701MD1999999+0121REMSYN076AAXX  18124 83339 32497 20506 10243 20186 39170 40120 82100 333 20194 58012;
0137833390999992006021818004-14050-042617FM-12+088299999V0201401N003110042019N0100001N1+03091+01501100691ADDGF105991051021004501001001MA1999999091281MD1999999+0031REMSYN070AAXX  18184 83339 32497 51406 10309 20150 39128 40069 85200 333 58003;
0168833390999992006021900004-14050-042617FM-12+088299999V0203201N001010042019N0020001N1+02641+01631100841ADDGF106991061021004501001001KA1240M+03161MA1999999091421MD1999999+0111REMSYN088AAXX  19004 83339 32495 63202 10264 20163 39142 40084 86200 333 10316 29054 55113 58011;
0156833390999992006021912004-14050-042617FM-12+088299999V0200901N003112200019N0100001N1+02331+01931101271ADDGF103991031021004501001001KA1240N+02091MA1999999091781MD1999999+0081REMSYN076AAXX  19124 83339 32497 30906 10233 20193 39178 40127 83200 333 20209 58008;
0137833390999992006021918004-14050-042617FM-12+088299999V0201401N004112200019N0100001N1+03101+01661100841ADDGF104991041021004501001001MA1999999091451MD1999999+0171REMSYN070AAXX  19184 83339 32497 41408 10310 20166 39145 40084 84200 333 58017;
0168833390999992006022000004-14050-042617FM-12+088299999V0200501N001012200019N0020001N1+02531+01781101041ADDGF102991021011004501001001KA1240M+03241MA1999999091501MD1999999+0081REMSYN088AAXX  20004 83339 32495 20502 10253 20178 39150 40104 82100 333 10324 29062 55091 58008;
0156833390999992006022012004-14050-042617FM-12+088299999V0201401N004110042019N0100001N1+02391+01991101151ADDGF105991051021004501001001KA1240N+02061MA1999999091651MD1999999-0131REMSYN076AAXX  20124 83339 32497 51408 10239 20199 39165 40115 85200 333 20206 59013;
0137833390999992006022018004-14050-042617FM-12+088299999V0200501N001012200019N0100001N1+03091+01561100701ADDGF103991031021004501001001MA1999999091331MD1999999-0121REMSYN070AAXX  20184 83339 32497 30502 10309 20156 39133 40070 83200 333 59012;
0168833390999992006022100004-14050-042617FM-12+088299999V0200901N002112200019N0020001N1+02631+01301100751ADDGF102991021021004501001001KA1240M+03161MA1999999091321MD1999999-0181REMSYN088AAXX  21004 83339 32495 20904 10263 20130 39132 40075 82200 333 10316 29052 55102 59018;
0166833390999992006022112004-14050-042617FM-12+088299999V0200901N004612200019N0100001N1+02411+01821100941ADDGA1001+999999999GF100991001001999999001001KA1240N+02001MA1999999091481MD1999999-0171REMSYN070AAXX  21124 83339 32997 00909 10241 20182 39148 40094 333 20200 59017;
0156833390999992006022118004-14050-042617FM-12+088299999V0201801N001512200019N0100001N1+03231+01391100451ADDGF102991999021004501001001MA1999999091121MD1999999-0211REMSYN070AAXX  21184 83339 32497 21803 10323 20139 39112 40045 83200 333 59021;EQDQ01+000032SCOTLC
0168833390999992006022200004-14050-042617FM-12+088299999V0203601N005110042019N0020001N1+02631+01671100741ADDGF106991061021004501001001KA1240M+03371MA1999999091261MD1999999-0061REMSYN088AAXX  22004 83339 32495 63610 10263 20167 39126 40074 86200 333 10337 29053 55110 59006;
0156833390999992006022212004-14050-042617FM-12+088299999V0203601N002110042019N0100001N1+02571+01971100891ADDGF106991061021004501001001KA1240N+02141MA1999999091481MD1999999+0001REMSYN076AAXX  22124 83339 32497 63604 10257 20197 39148 40089 86200 333 20214 58000;
0137833390999992006022218004-14050-042617FM-12+088299999V0203601N001512200019N0100001N1+03091+01781100451ADDGF104991041021004501001001MA1999999091091MD1999999-0031REMSYN070AAXX  22184 83339 32497 43603 10309 20178 39109 40045 84200 333 59003;
0168833390999992006022300004-14050-042617FM-12+088299999V0201401N005112200019N0020001N1+02551+01911100641ADDGF102991021021004501001001KA1240M+03251MA1999999091241MD1999999-0021REMSYN088AAXX  23004 83339 32495 21410 10255 20191 39124 40064 82200 333 10325 29061 55103 59002;
0156833390999992006022312004-14050-042617FM-12+088299999V0200501N002110042019N0100001N1+02551+02001100951ADDGF106991051021004501021001KA1240N+02121MA1999999091521MD1999999+0041REMSYN076AAXX  23124 83339 32497 60504 10255 20200 39152 40095 85220 333 20212 58004;
0182833390999992006022318004-14050-042617FM-12+088299999V0200901N001510450019N0100001N1+02771+02041100521ADDAA106015091AY191061AY261061GF105991041021004501021001MA1999999091111MD1999999+0021MW1171REMSYN082AAXX  23184 83339 21497 50903 10277 20204 39111 40052 71796 84220 333 58002 60151;
0196833390999992006022400004-14050-042617FM-12+088299999V0203601N007210042019N0020001N1+02471+01901100811ADDAY191061AY201061GF106991061021004501001001KA1240M+02951MA1999999091371MD1999999+0131MW1131REMSYN094AAXX  24004 83339 31495 63614 10247 20190 39137 40081 71390 86200 333 10295 29069 55067 58013;
0201833390999992006022412004-14050-042617FM-12+088299999V0201401N002610042019N0020001N1+01991+01981101241ADDAA124016091AY161061AY261061GF108991081051004501999999KA1240N+01941MA1999999091651MD1999999+0131MW1101REMSYN088AAXX  24124 83339 21495 81405 10199 20198 39165 40124 71066 885// 333 20194 58013 60164;
0182833390999992006022418004-14050-042617FM-12+088299999V0203201N009310042019N0000001N1+02191+01941100821ADDAA106024991AY191061AY201061GF107991061021004501021999MA1999999091201MD1999999+0091MW1611REMSYN082AAXX  24184 83339 21490 73218 10219 20194 39120 40082 76190 8622/ 333 58009 60251;
0213833390999992006022500004-14050-042617FM-12+088299999V0203601N002112200019N0020001N1+02351+02001100931ADDAA106000591AY161061AY261061GF102991021021004501001001KA1240M+02981MA1999999091341MD1999999-0031MW1171REMSYN100AAXX  25004 83339 21495 23604 10235 20200 39134 40093 71766 82200 333 10298 29085 55045 59003 69961;
0201833390999992006022512004-14050-042617FM-12+088299999V0203601N001512200019N0100001N1+02571+02111101021ADDAA124025991AY161061AY261061GF102991021021004501001001KA1240N+01961MA1999999091541MD1999999-0111MW1021REMSYN088AAXX  25124 83339 21497 23603 10257 20211 39154 40102 70266 82200 333 20196 59011 60264;
0137833390999992006022518004-14050-042617FM-12+088299999V0200901N001512200019N0100001N1+02711+01911100661ADDGF104991041021004501001001MA1999999091211MD1999999+0011REMSYN070AAXX  25184 83339 32497 40903 10271 20191 39121 40066 84200 333 58001;
0156833390999992006022612004-14050-042617FM-12+088299999V0200901N001510450019N0100001N1+02751+02191100791ADDGF105991041021004501031001KA1240N+02221MA1999999091411MD1999999-0131REMSYN076AAXX  26124 83339 32497 50903 10275 20219 39141 40079 84230 333 20222 59013;
0182833390999992006022618004-14050-042617FM-12+088299999V0203601N002110042019N0100001N1+02891+02001100521ADDAA106000891AY161061AY261061GF106991051021004501021001MA1999999091161MD1999999-0051MW1021REMSYN082AAXX  26184 83339 21497 63604 10289 20200 39116 40052 70266 85220 333 59005 69981;
0201833390999992006022712004-14050-042617FM-12+088299999V0200901N001012200019N0100001N1+02561+02191100951ADDAA124019191AY161061AY221061GF104991041021004501001001KA1240N+02141MA1999999091521MD1999999+0111MW1021REMSYN088AAXX  27124 83339 21497 40902 10256 20219 39152 40095 70262 84200 333 20214 58011 60194;
0137833390999992006022718004-14050-042617FM-12+088299999V0203601N001510042019N0100001N1+03011+02021100501ADDGF106991061021004501001001MA1999999091131MD1999999-0031REMSYN070AAXX  27184 83339 32497 63603 10301 20202 39113 40050 86200 333 59003;
0178833390999992006022800004-14050-042617FM-12+088299999V0209999C000012200019N0020001N1+02531+01951100751ADDGA1001+999999999GF100991001001999999001001KA1240M+03121MA1999999091341MD1999999+0091REMSYN082AAXX  28004 83339 32995 00000 10253 20195 39134 40075 333 10312 29073 55081 58009;
0156833390999992006022812004-14050-042617FM-12+088299999V0200901N001512200019N0100001N1+02431+01971101031ADDGF105991031021004501001011KA1240N+02141MA1999999091561MD1999999+0041REMSYN076AAXX  28124 83339 32497 50903 10243 20197 39156 40103 83201 333 20214 58004;
0137833390999992006022818004-14050-042617FM-12+088299999V0200501N002112200019N0100001N1+03031+01941100581ADDGF105991031021004501001041MA1999999091221MD1999999+0091REMSYN070AAXX  28184 83339 32497 50504 10303 20194 39122 40058 83204 333 58009;
0166833390999992006030112004-14050-042617FM-12+088299999V0201401N003112200019N0100001N1+02431+01761101181ADDGA1001+999999999GF100991001001999999001001KA1240N+01921MA1999999091681MD1999999+0121REMSYN070AAXX  01124 83339 32997 01406 10243 20176 39168 40118 333 20192 58012;
0147833390999992006030118004-14050-042617FM-12+088299999V0200501N002612200019N0100001N1+03051+01301100661ADDGA1001+999999999GF100991001001999999001001MA1999999091251MD1999999+0031REMSYN064AAXX  01184 83339 32997 00505 10305 20130 39125 40066 333 58003;
0178833390999992006030200004-14050-042617FM-12+088299999V0201801N001012200019N0020001N1+02471+01141100901ADDGA1001+999999999GF100991001001999999001001KA1240M+03121MA1999999091441MD1999999+0071REMSYN082AAXX  02004 83339 32995 01802 10247 20114 39144 40090 333 10312 29047 55113 58007;
0137833390999992006030218004-14050-042617FM-12+088299999V0209999C000012200019N0100001N1+03141+01471100701ADDGF102991021021004501001001MA1999999091311MD1999999+0061REMSYN070AAXX  02184 83339 32497 20000 10314 20147 39131 40070 82200 333 58006;
0178833390999992006030300004-14050-042617FM-12+088299999V0201401N002612200019N0020001N1+02661+01651100821ADDGA1001+999999999GF100991001001999999001001KA1240M+03241MA1999999091401MD1999999-0031REMSYN082AAXX  03004 83339 32995 01405 10266 20165 39140 40082 333 10324 29054 55114 59003;
0166833390999992006030312004-14050-042617FM-12+088299999V0200901N002112200019N0100001N1+02501+01701101121ADDGA1001+999999999GF100991001001999999001001KA1240N+02001MA1999999091691MD1999999-0051REMSYN070AAXX  03124 83339 32997 00904 10250 20170 39169 40112 333 20200 59005;
0137833390999992006030318004-14050-042617FM-12+088299999V0201401N001012200019N0100001N1+03111+01481100651ADDGF103991031021004501001001MA1999999091281MD1999999-0031REMSYN070AAXX  03184 83339 32497 31402 10311 20148 39128 40065 83200 333 59003;
0178833390999992006030400004-14050-042617FM-12+088299999V0201401N002612200019N0020001N1+02661+01471100791ADDGA1001+999999999GF100991001001999999001001KA1240M+03271MA1999999091391MD1999999-0011REMSYN082AAXX  04004 83339 32995 01405 10266 20147 39139 40079 333 10327 29049 55113 59001;
0156833390999992006030412004-14050-042617FM-12+088299999V0200901N001512200019N0100001N1+02411+01791101211ADDGF102991021011004501001001KA1240N+02051MA1999999091751MD1999999+0061REMSYN076AAXX  04124 83339 32497 20903 10241 20179 39175 40121 82100 333 20205 58006;
0137833390999992006030418004-14050-042617FM-12+088299999V0202701N001012200019N0100001N1+03311+01701100551ADDGF102991021021004501001001MA1999999091251MD1999999-0031REMSYN070AAXX  04184 83339 32497 22702 10331 20170 39125 40055 82200 333 59003;
0178833390999992006030500004-14050-042617FM-12+088299999V0200901N003112200019N0020001N1+02731+01511100821ADDGA1001+999999999GF100991001001999999001001KA1240M+03371MA1999999091401MD1999999+0011REMSYN082AAXX  05004 83339 32995 00906 10273 20151 39140 40082 333 10337 29050 55111 58001;
0156833390999992006030512004-14050-042617FM-12+088299999V0209999C000012200019N0100001N1+02661+01741101131ADDGF103991011011004501001011KA1240N+02081MA1999999091741MD1999999-0011REMSYN076AAXX  05124 83339 32497 30000 10266 20174 39174 40113 81101 333 20208 59001;
0137833390999992006030518004-14050-042617FM-12+088299999V0202701N002612200019N0100001N1+03281+01701100591ADDGF104991031021004501001011MA1999999091291MD1999999+0041REMSYN070AAXX  05184 83339 32497 42705 10328 20170 39129 40059 83201 333 58004;
0213833390999992006030600004-14050-042617FM-12+088299999V0202701N001012200019N0020001N1+02591+01841100791ADDAA106001091AY161061AY221061GF102991021021004501001001KA1240M+03381MA1999999091391MD1999999-0011MW1021REMSYN100AAXX  06004 83339 21495 22702 10259 20184 39139 40079 70262 82200 333 10338 29056 55093 59001 60011;
0201833390999992006030612004-14050-042617FM-12+088299999V0200501N000510042019N0100001N1+02331+02051101151ADDAA124002091AY161061AY261061GF106991061021004501001001KA1240N+02001MA1999999091651MD1999999-0091MW1101REMSYN088AAXX  06124 83339 21497 60501 10233 20205 39165 40115 71066 86200 333 20200 59009 60024;
0182833390999992006030618004-14050-042617FM-12+088299999V0203601N002110042019N0040001N1+02431+02151100801ADDAA106005191AY161061AY261061GF107991061021004501021999MA1999999091301MD1999999+0011MW1171REMSYN082AAXX  06184 83339 21496 73604 10243 20215 39130 40080 71766 8622/ 333 58001 60051;
0213833390999992006030700004-14050-042617FM-12+088299999V0203601N001510042019N0020001N1+02331+01981100991ADDAA106000591AY161061AY261061GF106991051021004501031001KA1240M+03041MA1999999091471MD1999999+0081MW1101REMSYN100AAXX  07004 83339 21495 63603 10233 20198 39147 40099 71066 85230 333 10304 29082 55033 58008 69961;
0201833390999992006030712004-14050-042617FM-12+088299999V0203601N003110042019N0100001N1+02451+02011101091ADDAA124005191AY161061AY261061GF106991061021004501001001KA1240N+02121MA1999999091581MD1999999-0071MW1021REMSYN088AAXX  07124 83339 21497 63606 10245 20201 39158 40109 70266 86200 333 20212 59007 60054;
0137833390999992006030718004-14050-042617FM-12+088299999V0203601N003110042019N0100001N1+02851+01851100581ADDGF107991061021004501021999MA1999999091961MD1999999-0141REMSYN070AAXX  07184 83339 32497 73606 10285 20185 39196 40058 8622/ 333 59014;
0232833390999992006030800004-14050-042617FM-12+088299999V0203201N003110042019N0020001N1+02111+02101100971ADDAA106008991AY191061AY261061GF108991999051004501021999KA1240M+02981MA1999999091451MD1999999-0021MW1601REMSYN100AAXX  08004 83339 21495 83206 10211 20210 39145 40097 76096 8852/ 333 10298 29082 55041 59002 60091;EQDQ01+000082SCOTLC
0201833390999992006030812004-14050-042617FM-12+088299999V0203201N000510042019N0040001N1+02091+02081101241ADDAA124022191AY191061AY261061GF108991081051004501999999KA1240N+02001MA1999999091601MD1999999+0021MW1101REMSYN088AAXX  08124 83339 21496 83201 10209 20208 39160 40124 71096 885// 333 20200 58002 60224;
0137833390999992006030818004-14050-042617FM-12+088299999V0203601N001510450019N0100001N1+02771+01831100601ADDGF105991041021004501021001MA1999999091141MD1999999-0021REMSYN070AAXX  08184 83339 32497 53603 10277 20183 39114 40060 84220 333 59002;
0213833390999992006030900004-14050-042617FM-12+088299999V0200901N000510042019N0020001N1+02171+02141100871ADDAA106002091AY161061AY261061GF106991061021004501001001KA1240M+02881MA1999999091381MD1999999-0071MW1101REMSYN100AAXX  09004 83339 21495 60901 10217 20214 39138 40087 71066 86200 333 10288 29087 55032 59007 60021;
0201833390999992006030912004-14050-042617FM-12+088299999V0203201N000510042019N0040001N1+01951+01941101101ADDAA124020191AY161061AY221061GF108991081051004501999999KA1240N+01931MA1999999091451MD1999999-0151MW1601REMSYN088AAXX  09124 83339 21496 83201 10195 20194 39145 40110 76062 885// 333 20193 59015 60204;
0182833390999992006030918004-14050-042617FM-12+088299999V0203601N001510042019N0040001N1+02191+02111100781ADDAA106004191AY161061AY261061GF108991081051004501999999MA1999999091181MD1999999+0041MW1611REMSYN082AAXX  09184 83339 21496 83603 10219 20211 39118 40078 76166 885// 333 58004 60041;
0213833390999992006031000004-14050-042617FM-12+088299999V0202301N001010042019N0020001N1+02151+02091101041ADDAA106001091AY161061AY261061GF106991061021004501001001KA1240M+02481MA1999999091401MD1999999+0021MW1131REMSYN100AAXX  10004 83339 21495 62302 10215 20209 39140 40104 71366 86200 333 10248 29096 55003 58002 60011;
0201833390999992006031012004-14050-042617FM-12+088299999V0203601N002110042019N0100001N1+02171+02161101061ADDAA124021191AY161061AY261061GF106991051021004501021001KA1240N+01901MA1999999091451MD1999999+0001MW1101REMSYN088AAXX  10124 83339 21497 63604 10217 20216 39145 40106 71066 85220 333 20190 58000 60214;
0182833390999992006031018004-14050-042617FM-12+088299999V0203201N004110042019N0040001N1+02151+02111100811ADDAA106011991AY161061AY261061GF107991061021004501031999MA1999999091211MD1999999+0031MW1101REMSYN082AAXX  10184 83339 21496 73208 10215 20211 39121 40081 71066 8623/ 333 58003 60121;
0213833390999992006031100004-14050-042617FM-12+088299999V0203601N001510042019N0020001N1+02271+02211100941ADDAA106000391AY161061AY261061GF106991051021004501021001KA1240M+02681MA1999999091361MD1999999-0041MW1131REMSYN100AAXX  11004 83339 21495 63603 10227 20221 39136 40094 71366 85220 333 10268 29096 55023 59004 69931;
0201833390999992006031112004-14050-042617FM-12+088299999V0203601N001510042019N0040001N1+02091+02001101081ADDAA124014091AY161061AY261061GF107991061021004501021999KA1240N+01921MA1999999091491MD1999999+0041MW1101REMSYN088AAXX  11124 83339 21496 73603 10209 20200 39149 40108 71066 8622/ 333 20192 58004 60144;
0137833390999992006031118004-14050-042617FM-12+088299999V0203601N004612200019N0100001N1+02691+02021100701ADDGF105991041021004501001041MA1999999091191MD1999999-0021REMSYN070AAXX  11184 83339 32497 53609 10269 20202 39119 40070 84204 333 59002;
0196833390999992006031200004-14050-042617FM-12+088299999V0202301N003110042019N0020001N1+02251+02211101061ADDAY101061AY201061GF106991051021004501031001KA1240M+02721MA1999999091451MD1999999+0091MW1101REMSYN094AAXX  12004 83339 31495 62306 10225 20221 39145 40106 71000 85230 333 10272 29088 55047 58009;
0201833390999992006031212004-14050-042617FM-12+088299999V0203601N001510042019N0040001N1+02071+02061101241ADDAA124011991AY161061AY211061GF108991081051004501999999KA1240N+02001MA1999999091631MD1999999+0131MW1101REMSYN088AAXX  12124 83339 21496 83603 10207 20206 39163 40124 71061 885// 333 20200 58013 60124;
0165833390999992006031218004-14050-042617FM-12+088299999V0200501N002610042019N0040001N1+02471+02111100791ADDAY101061AY201061GF106991051021004501021001MA1999999091251MD1999999+0061MW1101REMSYN076AAXX  12184 83339 31496 60505 10247 20211 39125 40079 71000 85220 333 58006;
0196833390999992006031300004-14050-042617FM-12+088299999V0201801N000510450019N0020001N1+02191+02171101021ADDAY101061AY201061GF105991041021004501031001KA1240M+02821MA1999999091421MD1999999-0031MW1101REMSYN094AAXX  13004 83339 31495 51801 10219 20217 39142 40102 71000 84230 333 10282 29092 55026 59003;
0201833390999992006031312004-14050-042617FM-12+088299999V0209999C000010042019N0040001N1+02011+01931101161ADDAA124004191AY191061AY261061GF108991081051004501999999KA1240N+01931MA1999999091531MD1999999-0091MW1171REMSYN088AAXX  13124 83339 21496 80000 10201 20193 39153 40116 71796 885// 333 20193 59009 60044;
0182833390999992006031318004-14050-042617FM-12+088299999V0200501N000510042019N0100001N1+02271+02031100821ADDAA106003091AY161061AY261061GF106991051021004501021001MA1999999091251MD1999999+0001MW1101REMSYN082AAXX  13184 83339 21497 60501 10227 20203 39125 40082 71066 85220 333 58000 60031;
0196833390999992006031400004-14050-042617FM-12+088299999V0200901N002110042019N0020001N1+02031+01991101171ADDAY101061AY201061GF107991061021004501021999KA1240M+02461MA1999999091451MD1999999+0031MW1101REMSYN094AAXX  14004 83339 31495 70904 10203 20199 39145 40117 71000 8622/ 333 10246 29093 55004 58003;
0201833390999992006031412004-14050-042617FM-12+088299999V0201401N001510042019N0040001N1+02091+02001101251ADDAA124003091AY161061AY261061GF108991081051004501999999KA1240N+01921MA1999999091591MD1999999+0061MW1101REMSYN088AAXX  14124 83339 21496 81403 10209 20200 39159 40125 71066 885// 333 20192 58006 60034;
0182833390999992006031418004-14050-042617FM-12+088299999V0203201N001510042019N0100001N1+02411+02231100801ADDAA106008991AY161061AY261061GF106991061021004501001001MA1999999091241MD1999999-0011MW1101REMSYN082AAXX  14184 83339 21497 63203 10241 20223 39124 40080 71066 86200 333 59001 60091;
0213833390999992006031500004-14050-042617FM-12+088299999V0202301N002110042019N0020001N1+01971+01961101101ADDAA106046091AY191061AY261061GF108991081051004501999999KA1240M+02681MA1999999091451MD1999999+0001MW1131REMSYN100AAXX  15004 83339 21495 82304 10197 20196 39145 40110 71396 885// 333 10268 29095 55049 58000 60461;
0201833390999992006031512004-14050-042617FM-12+088299999V0209999C000010042019N0100001N1+02131+02091101291ADDAA124055991AY161061AY261061GF106991051021004501031001KA1240N+01921MA1999999091631MD1999999+0041MW1101REMSYN088AAXX  15124 83339 21497 60000 10213 20209 39163 40129 71066 85230 333 20192 58004 60564;
0182833390999992006031518004-14050-042617FM-12+088299999V0202301N001010042019N0100001N1+02451+01991100921ADDAA106001091AY161061AY261061GF106991061021004501001001MA1999999091331MD1999999+0091MW1021REMSYN082AAXX  15184 83339 21497 62302 10245 20199 39133 40092 70266 86200 333 58009 60011;
0201833390999992006031612004-14050-042617FM-12+088299999V0201401N003110042019N0040001N1+02111+01931101341ADDAA124001091AY161061AY261061GF107991061021004501021999KA1240N+01961MA1999999091731MD1999999+0101MW1101REMSYN088AAXX  16124 83339 21496 71406 10211 20193 39173 40134 71066 8622/ 333 20196 58010 60014;
0137833390999992006031618004-14050-042617FM-12+088299999V0200901N004610042019N0100001N1+02511+01821100931ADDGF106991061021004501001001MA1999999091401MD1999999+0071REMSYN070AAXX  16184 83339 32497 60909 10251 20182 39140 40093 86200 333 58007;
0196833390999992006031700004-14050-042617FM-12+088299999V0201401N000510042019N0020001N1+02191+02031101111ADDAY101061AY201061GF106991061021004501001001KA1240M+02621MA1999999091501MD1999999+0041MW1101REMSYN094AAXX  17004 83339 31495 61401 10219 20203 39150 40111 71000 86200 333 10262 29084 55040 58004;
0201833390999992006031712004-14050-042617FM-12+088299999V0200901N005110042019N0100001N1+02231+01901101161ADDAA124000591AY161061AY261061GF105991051021004501001001KA1240N+02001MA1999999091561MD1999999-0171MW1101REMSYN088AAXX  17124 83339 21497 50910 10223 20190 39156 40116 71066 85200 333 20200 59017 69944;
0137833390999992006031718004-14050-042617FM-12+088299999V0201401N003612200019N0100001N1+02651+01691100731ADDGF104991031021004501001021MA1999999091251MD1999999-0151REMSYN070AAXX  17184 83339 32497 41407 10265 20169 39125 40073 83202 333 59015;
0215833390999992006031800004-14050-042617FM-12+088299999V0200901N007719999999N0020001N1+02131+02021101151ADDAY101061AY201061GF106991999021004501001001KA1240M+02741MA1999999091551MD1999999+0051MW1131REMSYN094AAXX  18004 83339 31495 60915 10213 20202 39155 40115 71300 81200 333 10274 29080 55094 58005;EQDQ01+000012SCOTLC
0201833390999992006031812004-14050-042617FM-12+088299999V0200501N004610042019N0100001N1+02181+01951101151ADDAA124000591AY161061AY261061GF106991051021004501021001KA1240N+01981MA1999999091541MD1999999-0021MW1101REMSYN088AAXX  18124 83339 21497 60509 10218 20195 39154 40115 71066 85220 333 20198 59002 69944;
0137833390999992006031818004-14050-042617FM-12+088299999V0201401N004611050019N0100001N1+02751+01781100771ADDGF105991041021004501001021MA1999999091271MD1999999+0021REMSYN070AAXX  18184 83339 32497 51409 10275 20178 39127 40077 84202 333 58002;
0196833390999992006031900004-14050-042617FM-12+088299999V0200901N003610042019N0020001N1+02091+02011101171ADDAY101061AY201061GF108991081051004501999999KA1240M+02601MA1999999091551MD1999999+0001MW1131REMSYN094AAXX  19004 83339 31495 80907 10209 20201 39155 40117 71300 885// 333 10260 29082 55051 58000;
0184833390999992006031912004-14050-042617FM-12+088299999V0201401N005110042019N0040001N1+02071+01841101251ADDAY101061AY201061GF106991051021004501031001KA1240N+01901MA1999999091611MD1999999+0071MW1101REMSYN082AAXX  19124 83339 31496 61410 10207 20184 39161 40125 71000 85230 333 20190 58007;
0137833390999992006031918004-14050-042617FM-12+088299999V0200901N004612200019N0100001N1+02691+01701100901ADDGF103991031021004501001001MA1999999091371MD1999999+0101REMSYN070AAXX  19184 83339 32497 30909 10269 20170 39137 40090 83200 333 58010;
0196833390999992006032000004-14050-042617FM-12+088299999V0202301N004112200019N0020001N1+02231+01861101141ADDAY101061AY201061GF102991021021004501001001KA1240M+02761MA1999999091531MD1999999-0021MW1101REMSYN094AAXX  20004 83339 31495 22308 10223 20186 39153 40114 71000 82200 333 10276 29074 55068 59002;
0137833390999992006032018004-14050-042617FM-12+088299999V0201801N004612200019N0100001N1+02551+01711101031ADDGF104991041021004501001001MA1999999091491MD1999999+0121REMSYN070AAXX  20184 83339 32497 41809 10255 20171 39149 40103 84200 333 58012;
0178833390999992006032100004-14050-042617FM-12+088299999V0200901N003112200019N0020001N1+02191+01671101151ADDGA1001+999999999GF100991001001999999001001KA1240M+02681MA1999999091541MD1999999+0011REMSYN082AAXX  21004 83339 32995 00906 10219 20167 39154 40115 333 10268 29072 55049 58001;
0184833390999992006032112004-14050-042617FM-12+088299999V0200501N003610042019N0040001N1+02051+01681101341ADDAY101061AY201061GF106991061021004501001001KA1240N+01921MA1999999091691MD1999999+0001MW1101REMSYN082AAXX  21124 83339 31496 60507 10205 20168 39169 40134 71000 86200 333 20192 58000;
0137833390999992006032118004-14050-042617FM-12+088299999V0200901N005710450019N0100001N1+02551+01571101051ADDGF105991041021004501021001MA1999999091491MD1999999+0001REMSYN070AAXX  21184 83339 32497 50911 10255 20157 39149 40105 84220 333 58000;
0168833390999992006032200004-14050-042617FM-12+088299999V0203201N004612200019N0020001N1+02191+01801101171ADDGF102991021021004501001001KA1240M+02641MA1999999091541MD1999999+0001REMSYN088AAXX  22004 83339 32495 23209 10219 20180 39154 40117 82200 333 10264 29072 55050 58000;
0201833390999992006032212004-14050-042617FM-12+088299999V0200901N004610042019N0100001N1+02111+02051101371ADDAA124005191AY161061AY261061GF106991061021004501001001KA1240N+01921MA1999999091741MD1999999+0051MW1101REMSYN088AAXX  22124 83339 21497 60909 10211 20205 39174 40137 71066 86200 333 20192 58005 60054;
0137833390999992006032218004-14050-042617FM-12+088299999V0201401N002612200019N0100001N1+02671+01591101071ADDGF102991011021004501001041MA1999999091531MD1999999+0041REMSYN070AAXX  22184 83339 32497 21405 10267 20159 39153 40107 81204 333 58004;
0178833390999992006032300004-14050-042617FM-12+088299999V0201801N003112200019N0020001N1+02171+01611101141ADDGA1001+999999999GF100991001001999999001001KA1240M+02741MA1999999091531MD1999999-0011REMSYN082AAXX  23004 83339 32995 01806 10217 20161 39153 40114 333 10274 29072 55072 59001;
0201833390999992006032312004-14050-042617FM-12+088299999V0201401N004110042019N0040001N1+01991+01951101431ADDAA124004191AY161061AY261061GF108991081051004501999999KA1240N+01901MA1999999091771MD1999999-0031MW1101REMSYN088AAXX  23124 83339 21496 81408 10199 20195 39177 40143 71066 885// 333 20190 59003 60044;
0137833390999992006032318004-14050-042617FM-12+088299999V0200501N003610042019N0100001N1+02511+01801101051ADDGF106991061021004501001001MA1999999091491MD1999999-0041REMSYN070AAXX  23184 83339 32497 60507 10251 20180 39149 40105 86200 333 59004;
0196833390999992006032400004-14050-042617FM-12+088299999V0202301N002112200019N0020001N1+02171+01801101121ADDAY101061AY201061GF102991021021004501001001KA1240M+02661MA1999999091491MD1999999-0041MW1101REMSYN094AAXX  24004 83339 31495 22304 10217 20180 39149 40112 71000 82200 333 10266 29079 55053 59004;
0184833390999992006032412004-14050-042617FM-12+088299999V0200501N003110042019N0100001N1+02151+01901101221ADDAY101061AY201061GF106991061021004501001001KA1240N+01881MA1999999091601MD1999999-0171MW1101REMSYN082AAXX  24124 83339 31497 60506 10215 20190 39160 40122 71000 86200 333 20188 59017;
0137833390999992006032418004-14050-042617FM-12+088299999V0200901N004612200019N0100001N1+02591+01901100991ADDGF104991041021004501001001MA1999999091451MD1999999-0041REMSYN070AAXX  24184 83339 32497 40909 10259 20190 39145 40099 84200 333 59004;
0213833390999992006032500004-14050-042617FM-12+088299999V0201401N004112200019N0020001N1+02151+02121101131ADDAA106004191AY161061AY261061GF103991031021004501001001KA1240M+02701MA1999999091521MD1999999+0031MW1101REMSYN100AAXX  25004 83339 21495 31408 10215 20212 39152 40113 71066 83200 333 10270 29086 55052 58003 60041;
0201833390999992006032512004-14050-042617FM-12+088299999V0200501N006210042019N0100001N1+02131+01931101431ADDAA124004191AY161061AY261061GF105991051021004501001001KA1240N+01921MA1999999091791MD1999999+0191MW1101REMSYN088AAXX  25124 83339 21497 50512 10213 20193 39179 40143 71066 85200 333 20192 58019 60044;
0137833390999992006032518004-14050-042617FM-12+088299999V0203201N004112200019N0100001N1+02671+01651100921ADDGF104991041021004501001001MA1999999091411MD1999999-0041REMSYN070AAXX  25184 83339 32497 43208 10267 20165 39141 40092 84200 333 59004;
0197833390999992006032600004-14050-042617FM-12+088299999V0201401N001512200019N0020001N1+02251+01691101161ADDGA1001+999999999GF100991001001999999001001KA1240M+02841MA1999999999999MD1999999+0041REMSYN082AAXX  26004 83339 32995 01403 10225 20169 39615 40116 333 10284 29070 55063 58004;EQDQ01 096153APOSP 
0156833390999992006032612004-14050-042617FM-12+088299999V0200501N000512200019N0100001N1+02391+01991101181ADDGF102991021021004501001001KA1240N+01821MA1999999091631MD1999999-0161REMSYN076AAXX  26124 83339 32497 20501 10239 20199 39163 40118 82200 333 20182 59016;
0137833390999992006032618004-14050-042617FM-12+088299999V0202301N002112200019N0100001N1+02891+01701100751ADDGF102991021021004501001001MA1999999091291MD1999999-0121REMSYN070AAXX  26184 83339 32497 22304 10289 20170 39129 40075 82200 333 59012;
0168833390999992006032700004-14050-042617FM-12+088299999V0200901N000512200019N0020001N1+02391+01611100991ADDGF102991021021004501001001KA1240M+03001MA1999999091491MD1999999-0071REMSYN088AAXX  27004 83339 32495 20901 10239 20161 39149 40099 82200 333 10300 29062 55096 59007;
0156833390999992006032712004-14050-042617FM-12+088299999V0203201N003112200019N0100001N1+02481+02131101261ADDGF103991031021004501001001KA1240N+02041MA1999999091761MD1999999+0131REMSYN076AAXX  27124 83339 32497 33206 10248 20213 39176 40126 83200 333 20204 58013;
0182833390999992006032718004-14050-042617FM-12+088299999V0201801N001510042019N0100001N1+02331+02091100941ADDAA106003091AY161061AY221061GF108991051021004501021999MA1999999091391MD1999999+0101MW1021REMSYN082AAXX  27184 83339 21497 81803 10233 20209 39139 40094 70262 8522/ 333 58010 60031;
0168833390999992006032800004-14050-042617FM-12+088299999V0202301N001010042019N0020001N1+02311+02161101191ADDGF105991051021004501001001KA1240M+02961MA1999999091671MD1999999+0181REMSYN088AAXX  28004 83339 32495 52302 10231 20216 39167 40119 85200 333 10296 29087 55039 58018;
0201833390999992006032812004-14050-042617FM-12+088299999V0201401N001010450019N0100001N1+02201+02061101321ADDAA124003091AY161061AY221061GF108991041021004501021999KA1240N+02031MA1999999091731MD1999999-0031MW1021REMSYN088AAXX  28124 83339 21497 81402 10220 20206 39173 40132 70262 8422/ 333 20203 59003 60034;
0137833390999992006032818004-14050-042617FM-12+088299999V0201401N001510042019N0100001N1+02531+02021100831ADDGF106991061021004501021001MA1999999091311MD1999999-0081REMSYN070AAXX  28184 83339 32497 61403 10253 20202 39131 40083 86220 333 59008;
0168833390999992006032900004-14050-042617FM-12+088299999V0209999C000012200019N0020001N1+02211+02011101081ADDGF104991041021004501001001KA1240M+02621MA1999999091491MD1999999-0181REMSYN088AAXX  29004 83339 32495 40000 10221 20201 39149 40108 84200 333 10262 29085 55009 59018;
0156833390999992006032912004-14050-042617FM-12+088299999V0202701N001510042019N0100001N1+02351+02051101101ADDGF106991061021004501001001KA1240N+01991MA1999999091551MD1999999-0181REMSYN076AAXX  29124 83339 32497 62703 10235 20205 39155 40110 86200 333 20199 59018;
0213833390999992006033000004-14050-042617FM-12+088299999V0209999C000010042019N0020001N1+02171+02111101041ADDAA106015091AY161061AY261061GF108991051021004501021999KA1240M+02621MA1999999091481MD1999999-0011MW1401REMSYN100AAXX  30004 83339 21495 80000 10217 20211 39148 40104 74066 8522/ 333 10262 29092 55008 59001 60151;
0201833390999992006033012004-14050-042617FM-12+088299999V0202701N002110042019N0100001N1+02131+02001101221ADDAA124041991AY161061AY241061GF108991061021004501021999KA1240N+02001MA1999999091601MD1999999+0051MW1021REMSYN088AAXX  30124 83339 21497 82704 10213 20200 39160 40122 70264 8622/ 333 20200 58005 60424;
0137833390999992006033018004-14050-042617FM-12+088299999V0202701N002612200019N0100001N1+02571+01921100781ADDGF104991041021004501001001MA1999999091261MD1999999+0111REMSYN070AAXX  30184 83339 32497 42705 10257 20192 39126 40078 84200 333 58011;
0168833390999992006033100004-14050-042617FM-12+088299999V0201401N001012200019N0020001N1+02191+01921101171ADDGF103991031021004501001001KA1240M+02691MA1999999091551MD1999999+0071REMSYN088AAXX  31004 83339 32495 31402 10219 20192 39155 40117 83200 333 10269 29082 55046 58007;
0184833390999992006033112004-14050-042617FM-12+088299999V0200501N001510042019N0020001N1+02101+02021101331ADDAY121061AY221061GF108991051021004501021999KA1240N+01961MA1999999091701MD1999999+0041MW1401REMSYN082AAXX  31124 83339 31495 80503 10210 20202 39170 40133 74022 8522/ 333 20196 58004;
0182833390999992006033118004-14050-042617FM-12+088299999V0200501N001010042019N0020001N1+02161+02081100951ADDAA106018091AY161061AY241061GF108991061021004501021999MA1999999091321MD1999999+0061MW1601REMSYN082AAXX  31184 83339 21495 80502 10216 20208 39132 40095 76064 8622/ 333 58006 60181;
0213833390999992006040100004-14050-042617FM-12+088299999V0209999C000010450019N0020001N1+01931+01861101311ADDAA106021191AY161061AY261061GF108991041021004501021999KA1240M+02701MA1999999091631MD1999999+0081MW1601REMSYN100AAXX  01004 83339 21495 80000 10193 20186 39163 40131 76066 8422/ 333 10270 29095 55031 58008 60211;
0201833390999992006040112004-14050-042617FM-12+088299999V0201401N005110042019N0020001N1+02091+02001101421ADDAA124039991AY161061AY241061GF108991051021004501021999KA1240N+01941MA1999999091721MD1999999+0021MW1401REMSYN088AAXX  01124 83339 21495 81410 10209 20200 39172 40142 74064 8522/ 333 20194 58002 60404;
0165833390999992006040118004-14050-042617FM-12+088299999V0201401N006712200019N0100001N1+02591+01941100901ADDAY141061AY221061GF104991031021004501001011MA1999999091371MD1999999+0051MW1021REMSYN076AAXX  01184 83339 31497 41413 10259 20194 39137 40090 70242 83201 333 58005;
0213833390999992006040200004-14050-042617FM-12+088299999V0201401N003110042019N0020001N1+02061+02011101271ADDAA106004191AY161061AY241061GF108991051021004501021999KA1240M+02621MA1999999091631MD1999999+0001MW1401REMSYN100AAXX  02004 83339 21495 81406 10206 20201 39163 40127 74064 8522/ 333 10262 29089 55058 58000 60041;
0201833390999992006040212004-14050-042617FM-12+088299999V0200901N003110450019N0020001N1+02071+02031101371ADDAA124005191AY161061AY241061GF108991041021004501021999KA1240N+01971MA1999999091721MD1999999+0001MW1401REMSYN088AAXX  02124 83339 21495 80906 10207 20203 39172 40137 74064 8422/ 333 20197 58000 60054;
0165833390999992006040218004-14050-042617FM-12+088299999V0201401N003112200019N0100001N1+02661+01851100861ADDAY141061AY221061GF103991031021004501001001MA1999999091351MD1999999-0021MW1021REMSYN076AAXX  02184 83339 31497 31406 10266 20185 39135 40086 70242 83200 333 59002;
0168833390999992006040300004-14050-042617FM-12+088299999V0200901N001010042019N0020001N1+02191+02031101241ADDGF106991061021004501001001KA1240M+02761MA1999999091621MD1999999-0011REMSYN088AAXX  03004 83339 32495 60902 10219 20203 39162 40124 86200 333 10276 29084 55064 59001;
0184833390999992006040312004-14050-042617FM-12+088299999V0201401N003112200019N0100001N1+02331+02001101291ADDAY101061AY201061GF104991041021004501001001KA1240N+02201MA1999999091701MD1999999-0021MW1101REMSYN082AAXX  03124 83339 31497 41406 10233 20200 39170 40129 71000 84200 333 20220 59002;
0137833390999992006040318004-14050-042617FM-12+088299999V0200501N003110042019N0100001N1+02711+01751100901ADDGF106991051021004501021001MA1999999091391MD1999999+0041REMSYN070AAXX  03184 83339 32497 60506 10271 20175 39139 40090 85220 333 58004;
0196833390999992006040400004-14050-042617FM-12+088299999V0200901N004612200019N0020001N1+02091+01961101091ADDAY101061AY201061GF102991021021004501001001KA1240M+02801MA1999999091501MD1999999-0121MW1101REMSYN094AAXX  04004 83339 31495 20909 10209 20196 39150 40109 71000 82200 333 10280 29080 55067 59012;
0184833390999992006040412004-14050-042617FM-12+088299999V0203201N005110042019N0040001N1+02091+01891101231ADDAY101061AY201061GF107991061021004501021999KA1240N+01621MA1999999091591MD1999999-0111MW1101REMSYN082AAXX  04124 83339 31496 73210 10209 20189 39159 40123 71000 8622/ 333 20162 59011;
0137833390999992006040418004-14050-042617FM-12+088299999V0200901N004612200019N0100001N1+02351+01851100991ADDGF102991021021004501001001MA1999999091391MD1999999+0001REMSYN070AAXX  04184 83339 32497 20909 10235 20185 39139 40099 82200 333 58000;
0196833390999992006040500004-14050-042617FM-12+088299999V0201801N007212200019N0020001N1+02131+01951101141ADDAY101061AY201061GF104991041021004501001001KA1240M+02531MA1999999091511MD1999999+0011MW1101REMSYN094AAXX  05004 83339 31495 41814 10213 20195 39151 40114 71000 84200 333 10253 29085 55074 58001;
0201833390999992006040512004-14050-042617FM-12+088299999V0201401N001510042019N0040001N1+01991+01811101381ADDAA124000591AY161061AY261061GF107991061021004501031999KA1240N+01801MA1999999091711MD1999999+0121MW1101REMSYN088AAXX  05124 83339 21496 71403 10199 20181 39171 40138 71066 8623/ 333 20180 58012 69964;
0137833390999992006040518004-14050-042617FM-12+088299999V0200901N004110042019N0100001N1+02411+01801101021ADDGF105991051021004501001001MA1999999091441MD1999999+0051REMSYN070AAXX  05184 83339 32497 50908 10241 20180 39144 40102 85200 333 58005;
0196833390999992006040600004-14050-042617FM-12+088299999V0201401N004110042019N0020001N1+02151+01971101171ADDAY101061AY201061GF106991061021004501001001KA1240M+02501MA1999999091521MD1999999+0011MW1101REMSYN094AAXX  06004 83339 31495 61408 10215 20197 39152 40117 71000 86200 333 10250 29083 55038 58001;
0184833390999992006040612004-14050-042617FM-12+088299999V0200501N004610042019N0040001N1+01991+01931101321ADDAY101061AY201061GF108991081051004501999999KA1240N+01901MA1999999091651MD1999999-0061MW1101REMSYN082AAXX  06124 83339 31496 80509 10199 20193 39165 40132 71000 885// 333 20190 59006;
0137833390999992006040618004-14050-042617FM-12+088299999V0202301N003112200019N0100001N1+02531+01741100921ADDGF104991031021004501031001MA1999999091371MD1999999-0071REMSYN070AAXX  06184 83339 32497 42306 10253 20174 39137 40092 83230 333 59007;
0196833390999992006040700004-14050-042617FM-12+088299999V0200901N000512200019N0020001N1+02071+01821101071ADDAY101061AY201061GF102991021021004501001001KA1240M+02631MA1999999091431MD1999999-0091MW1101REMSYN094AAXX  07004 83339 31495 20901 10207 20182 39143 40107 71000 82200 333 10263 29083 55074 59009;
0203833390999992006040712004-14050-042617FM-12+088299999V0200501N004610042019N0040001N1+02011+01901101251ADDAY101061AY201061GF107991061021004501021999KA1240N+99999MA1999999091591MD1999999-0061MW1101REMSYN082AAXX  07124 83339 31496 70509 10201 20190 39159 40125 71000 8622/ 333 20207 59006;EQDQ01 +02072ATMN  
0137833390999992006040718004-14050-042617FM-12+088299999V0200901N003112200019N0100001N1+02591+01851100861ADDGF102991021021004501001001MA1999999091321MD1999999-0051REMSYN070AAXX  07184 83339 32497 20906 10259 20185 39132 40086 82200 333 59005;
0196833390999992006040800004-14050-042617FM-12+088299999V0203201N000512200019N0020001N1+02131+01881101151ADDAY101061AY201061GF102991021021004501001001KA1240M+02641MA1999999091501MD1999999+0071MW1101REMSYN094AAXX  08004 83339 31495 23201 10213 20188 39150 40115 71000 82200 333 10264 29083 55076 58007;
0203833390999992006040812004-14050-042617FM-12+088299999V0201401N001510042019N0040001N1+02231+01921101191ADDAY101061AY201061GF108991999021004501001001KA1240N+02141MA1999999091591MD1999999+0001MW1101REMSYN082AAXX  08124 83339 31496 81403 10223 20192 39159 40119 71000 86200 333 20214 58000;EQDQ01+000062SCOTLC
0137833390999992006040818004-14050-042617FM-12+088299999V0201801N004612200019N0100001N1+02671+01771100691ADDGF103991031021004501001001MA1999999091201MD1999999-0121REMSYN070AAXX  08184 83339 32497 31809 10267 20177 39120 40069 83200 333 59012;
0196833390999992006040900004-14050-042617FM-12+088299999V0202301N002610042019N0020001N1+02251+01901100951ADDAY101061AY201061GF106991061021004501001001KA1240M+02761MA1999999091401MD1999999-0101MW1101REMSYN094AAXX  09004 83339 31495 62305 10225 20190 39140 40095 71000 86200 333 10276 29076 55075 59010;
0201833390999992006040912004-14050-042617FM-12+088299999V0203601N001010042019N0040001N1+02171+01991101011ADDAA124007191AY161061AY261061GF107991061021004501021999KA1240N+01901MA1999999091431MD1999999-0161MW1101REMSYN088AAXX  09124 83339 21496 73602 10217 20199 39143 40101 71066 8622/ 333 20190 59016 60074;
0182833390999992006040918004-14050-042617FM-12+088299999V0203601N004610042019N0040001N1+02151+02001100641ADDAA106003091AY161061AY261061GF108991081051004501999999MA1999999091051MD1999999-0151MW1171REMSYN082AAXX  09184 83339 21496 83609 10215 20200 39105 40064 71766 885// 333 59015 60031;
0213833390999992006041000004-14050-042617FM-12+088299999V0201401N000510042019N0020001N1+02111+02051100811ADDAA106000591AY161061AY261061GF106991061021004501001001KA1240M+02761MA1999999091231MD1999999-0171MW1101REMSYN100AAXX  10004 83339 21495 61401 10211 20205 39123 40081 71066 86200 333 10276 29094 55031 59017 69961;
0201833390999992006041012004-14050-042617FM-12+088299999V0209999C000010042019N0020001N1+01971+01931101091ADDAA124026991AY161061AY241061GF108991051021004501021999KA1240N+01841MA1999999091431MD1999999+0001MW1601REMSYN088AAXX  10124 83339 21495 80000 10197 20193 39143 40109 76064 8522/ 333 20184 58000 60274;
0182833390999992006041018004-14050-042617FM-12+088299999V0202701N002110450019N0100001N1+02321+01911100651ADDAA106002091AY161061AY241061GF107991041021004501021001MA1999999091081MD1999999+0031MW1021REMSYN082AAXX  10184 83339 21497 72704 10232 20191 39108 40065 70264 84220 333 58003 60021;
0168833390999992006041100004-14050-042617FM-12+088299999V0202701N002110042019N0020001N1+02131+01931100901ADDGF108991051051004501021999KA1240M+02451MA1999999091271MD1999999+0041REMSYN088AAXX  11004 83339 32495 82704 10213 20193 39127 40090 8552/ 333 10245 29087 55006 58004;
0201833390999992006041112004-14050-042617FM-12+088299999V0203201N002112200019N0100001N1+02371+02011100941ADDAA124002091AY161061AY221061GF102991021011004501001001KA1240N+01961MA1999999091391MD1999999-0041MW1021REMSYN088AAXX  11124 83339 21497 23204 10237 20201 39139 40094 70262 82100 333 20196 59004 60024;
0172833390999992006041118004-14050-042617FM-12+088299999V0201201N999992200019N0100001N1+02771+01911100511ADDGF103991031021004501001001MA1999999091051MD1999999-0031REMSYN070AAXX  11184 83339 32497 31270 10277 20191 39105 40051 83200 333 59003;EQDQ01+003603WOSPD Q020003603WOSPD 
0168833390999992006041200004-14050-042617FM-12+088299999V0209999C000012200019N0020001N1+02251+02071100821ADDGF102991021021004501001001KA1240M+02861MA1999999091301MD1999999+0031REMSYN088AAXX  12004 83339 32495 20000 10225 20207 39130 40082 82200 333 10286 29079 55095 58003;
0201833390999992006041212004-14050-042617FM-12+088299999V0203601N003110042019N0040001N1+02231+01991101121ADDAA124011991AY161061AY261061GF106991051021004501021001KA1240N+02041MA1999999091551MD1999999-0161MW1101REMSYN088AAXX  12124 83339 21496 63606 10223 20199 39155 40112 71066 85220 333 20204 59016 60124;
0182833390999992006041218004-14050-042617FM-12+088299999V0203201N002610042019N0040001N1+02291+02091100781ADDAA106000591AY161061AY261061GF108991081051004501999999MA1999999091221MD1999999+0171MW1101REMSYN082AAXX  12184 83339 21496 83205 10229 20209 39122 40078 71066 885// 333 58017 69951;
0213833390999992006041300004-14050-042617FM-12+088299999V0201401N000510042019N0040001N1+02171+02021100901ADDAA106000591AY191061AY261061GF106991051021004501031001KA1240M+02781MA1999999091331MD1999999+0031MW1101REMSYN100AAXX  13004 83339 21496 61401 10217 20202 39133 40090 71096 85230 333 10278 29090 55039 58003 69961;
0201833390999992006041312004-14050-042617FM-12+088299999V0200901N001510450019N0100001N1+02431+01971101051ADDAA124001091AY161061AY221061GF106991041021004501031001KA1240N+02001MA1999999091511MD1999999-0041MW1021REMSYN088AAXX  13124 83339 21497 60903 10243 20197 39151 40105 70262 84230 333 20200 59004 60014;
0182833390999992006041318004-14050-042617FM-12+088299999V0203201N003610042019N0100001N1+02401+01991100711ADDAA106000891AY161061AY221061GF106991061021004501001001MA1999999091151MD1999999-0071MW1021REMSYN082AAXX  13184 83339 21497 63207 10240 20199 39115 40071 70262 86200 333 59007 69981;
0168833390999992006041400004-14050-042617FM-12+088299999V0209999C000010042019N0020001N1+02151+01881100971ADDGF106991051021004501031001KA1240M+02681MA1999999091321MD1999999-0011REMSYN088AAXX  14004 83339 32495 60000 10215 20188 39132 40097 85230 333 10268 29080 55029 59001;
0201833390999992006041412004-14050-042617FM-12+088299999V0200901N002110042019N0100001N1+02261+02071101061ADDAA124000891AY161061AY221061GF106991061021004501001001KA1240N+01941MA1999999091471MD1999999-0041MW1021REMSYN088AAXX  14124 83339 21497 60904 10226 20207 39147 40106 70262 86200 333 20194 59004 69984;
0137833390999992006041418004-14050-042617FM-12+088299999V0201401N003112200019N0100001N1+02751+01861100561ADDGF102991021021004501001001MA1999999091081MD1999999-0071REMSYN070AAXX  14184 83339 32497 21406 10275 20186 39108 40056 82200 333 59007;
0178833390999992006041500004-14050-042617FM-12+088299999V0201401N002112200019N0020001N1+02251+02011100881ADDGA1001+999999999GF100991001001999999001001KA1240M+02841MA1999999091341MD1999999+0021REMSYN082AAXX  15004 83339 32995 01404 10225 20201 39134 40088 333 10284 29080 55086 58002;
0156833390999992006041512004-14050-042617FM-12+088299999V0200901N004110042019N0100001N1+02211+01991101151ADDGF106991061021004501001001KA1240N+01991MA1999999091581MD1999999+0111REMSYN076AAXX  15124 83339 32497 60908 10221 20199 39158 40115 86200 333 20199 58011;
0137833390999992006041518004-14050-042617FM-12+088299999V0200901N003612200019N0100001N1+02591+01871100821ADDGF103991031021004501001001MA1999999091301MD1999999+0221REMSYN070AAXX  15184 83339 32497 30907 10259 20187 39130 40082 83200 333 58022;
0178833390999992006041600004-14050-042617FM-12+088299999V0201401N003112200019N0020001N1+02231+01901101131ADDGA1001+999999999GF100991001001999999001001KA1240M+02701MA1999999091541MD1999999+0201REMSYN082AAXX  16004 83339 32995 01406 10223 20190 39154 40113 333 10270 29078 55093 58020;
0156833390999992006041612004-14050-042617FM-12+088299999V0200901N004610042019N0100001N1+02171+01971101461ADDGF106991061021004501001001KA1240N+01961MA1999999091841MD1999999+0261REMSYN076AAXX  16124 83339 32497 60909 10217 20197 39184 40146 86200 333 20196 58026;
0137833390999992006041618004-14050-042617FM-12+088299999V0201401N003112200019N0100001N1+02671+01941101031ADDGF102991021021004501001001MA1999999091511MD1999999+0211REMSYN070AAXX  16184 83339 32497 21406 10267 20194 39151 40103 82200 333 58021;
0168833390999992006041700004-14050-042617FM-12+088299999V0200901N001510042019N0020001N1+02231+01981101301ADDGF106991061021004501001001KA1240M+02741MA1999999091691MD1999999+0151REMSYN088AAXX  17004 83339 32495 60903 10223 20198 39169 40130 86200 333 10274 29080 55077 58015;
0184833390999992006041712004-14050-042617FM-12+088299999V0200501N002110042019N0040001N1+02131+01951101301ADDAY101061AY201061GF107991061021004501021999KA1240N+01981MA1999999091691MD1999999-0151MW1011REMSYN082AAXX  17124 83339 31496 70504 10213 20195 39169 40130 70100 8622/ 333 20198 59015;
0196833390999992006041800004-14050-042617FM-12+088299999V0209999C000012200019N0020001N1+02231+01941101081ADDAY101061AY201061GF102991021021004501001001KA1240M+02601MA1999999091491MD1999999-0201MW1101REMSYN094AAXX  18004 83339 31495 20000 10223 20194 39149 40108 71000 82200 333 10260 29079 55077 59020;
0184833390999992006041812004-14050-042617FM-12+088299999V0200901N002610042019N0100001N1+02191+01921101131ADDAY101061AY201061GF106991061021004501001001KA1240N+01841MA1999999091541MD1999999-0151MW1101REMSYN082AAXX  18124 83339 31497 60905 10219 20192 39154 40113 71000 86200 333 20184 59015;
0137833390999992006041818004-14050-042617FM-12+088299999V0201401N003112200019N0100001N1+02711+01601100701ADDGF104991031021004501021001MA1999999091211MD1999999-0121REMSYN070AAXX  18184 83339 32497 41406 10271 20160 39121 40070 83220 333 59012;
0213833390999992006041900004-14050-042617FM-12+088299999V0200501N006710042019N0020001N1+02071+01871101111ADDAA106003091AY161061AY261061GF108991081051004501999999KA1240M+02761MA1999999091501MD1999999+0011MW1101REMSYN100AAXX  19004 83339 21495 80513 10207 20187 39150 40111 71066 885// 333 10276 29078 55091 58001 60031;
0201833390999992006041912004-14050-042617FM-12+088299999V0201401N004610042019N0040001N1+01871+01691101461ADDAA124004191AY161061AY261061GF108991081051004501999999KA1240N+01731MA1999999091741MD1999999+0201MW1101REMSYN088AAXX  19124 83339 21496 81409 10187 20169 39174 40146 71066 885// 333 20173 58020 60044;
0165833390999992006041918004-14050-042617FM-12+088299999V0201801N003110042019N0040001N1+02171+01801101181ADDAY101061AY201061GF107991061021004501021999MA1999999091511MD1999999+0301MW1101REMSYN076AAXX  19184 83339 31496 71806 10217 20180 39151 40118 71000 8622/ 333 58030;
0196833390999992006042000004-14050-042617FM-12+088299999V0202301N004110042019N0020001N1+01931+01841101351ADDAY101061AY201061GF106991061021004501001001KA1240M+02241MA1999999091621MD1999999+0121MW1101REMSYN094AAXX  20004 83339 31495 62308 10193 20184 39162 40135 71000 86200 333 10224 29089 55010 58012;
0201833390999992006042012004-14050-042617FM-12+088299999V0200501N005710042019N0040001N1+01831+01741101521ADDAA124000591AY161061AY261061GF108991061051004501999999KA1240N+01731MA1999999091771MD1999999+0031MW1401REMSYN088AAXX  20124 83339 21496 80511 10183 20174 39177 40152 74066 865// 333 20173 58003 69954;
0196833390999992006042100004-14050-042617FM-12+088299999V0200901N005710042019N0020001N1+01941+01801101431ADDAY101061AY201061GF106991061021004501001001KA1240M+02261MA1999999091691MD1999999+0071MW1101REMSYN094AAXX  21004 83339 31495 60911 10194 20180 39169 40143 71000 86200 333 10226 29089 55024 58007;
0184833390999992006042112004-14050-042617FM-12+088299999V0203201N004610042019N0040001N1+01831+01701101551ADDAY101061AY201061GF108991081051004501999999KA1240N+01701MA1999999091801MD1999999+0031MW1101REMSYN082AAXX  21124 83339 31496 83209 10183 20170 39180 40155 71000 885// 333 20170 58003;
0137833390999992006042118004-14050-042617FM-12+088299999V0200901N002612200019N0100001N1+02271+01621101191ADDGF104991041021004501001001MA1999999091541MD1999999+0001REMSYN070AAXX  21184 83339 32497 40905 10227 20162 39154 40119 84200 333 58000;
0196833390999992006042200004-14050-042617FM-12+088299999V0201401N003612200019N0020001N1+01971+01811101431ADDAY101061AY201061GF102991021021004501001001KA1240M+02361MA1999999091691MD1999999+0001MW1101REMSYN094AAXX  22004 83339 31495 21407 10197 20181 39169 40143 71000 82200 333 10236 29084 55039 58000;
0184833390999992006042212004-14050-042617FM-12+088299999V0200901N002110042019N0040001N1+01931+01821101461ADDAY101061AY201061GF108991081051004501999999KA1240N+01801MA1999999091741MD1999999-0061MW1101REMSYN082AAXX  22124 83339 31496 80904 10193 20182 39174 40146 71000 885// 333 20180 59006;
0137833390999992006042218004-14050-042617FM-12+088299999V0202301N003112200019N0100001N1+02571+01621101011ADDGF103991021021004501021001MA1999999091431MD1999999-0111REMSYN070AAXX  22184 83339 32497 32306 10257 20162 39143 40101 82220 333 59011;
0196833390999992006042300004-14050-042617FM-12+088299999V0209999C000012200019N0020001N1+02191+01861101191ADDAY101061AY201061GF102991021021004501001001KA1240M+02681MA1999999091541MD1999999+0151MW1101REMSYN094AAXX  23004 83339 31495 20000 10219 20186 39154 40119 71000 82200 333 10268 29078 55069 58015;
0184833390999992006042312004-14050-042617FM-12+088299999V0201401N008210042019N0100001N1+02231+01921101301ADDAY101061AY201061GF106991061021004501001001KA1240N+01881MA1999999091691MD1999999-0051MW1101REMSYN082AAXX  23124 83339 31497 61416 10223 20192 39169 40130 71000 86200 333 20188 59005;
0137833390999992006042318004-14050-042617FM-12+088299999V0201801N004612200019N0100001N1+02591+01821100951ADDGF104991031021004501021001MA1999999091401MD1999999-0031REMSYN070AAXX  23184 83339 32497 41809 10259 20182 39140 40095 83220 333 59003;
0196833390999992006042400004-14050-042617FM-12+088299999V0201401N000512200019N0020001N1+02171+01931101111ADDAY101061AY201061GF102991021021004501001001KA1240M+02701MA1999999091521MD1999999-0021MW1101REMSYN094AAXX  24004 83339 31495 21401 10217 20193 39152 40111 71000 82200 333 10270 29079 55086 59002;
0220833390999992006042412004-14050-042617FM-12+088299999V0200901N006210042019N0020001N1+02001+01931101381ADDAA124000091AY161061AY221061GF108991051021004501021999KA1240N+01941MA1999999091731MD1999999+0041MW1401REMSYN088AAXX  24124 83339 21495 80912 10200 20193 39173 40138 74062 8522/ 333 20194 58004 69924;EQDQ01  00002PRCP24
0165833390999992006042418004-14050-042617FM-12+088299999V0201401N003612200019N0100001N1+02591+01921100941ADDAY141061AY221061GF103991031021004501001001MA1999999091391MD1999999-0011MW1021REMSYN076AAXX  24184 83339 31497 31407 10259 20192 39139 40094 70242 83200 333 59001;
0168833390999992006042500004-14050-042617FM-12+088299999V0201401N005110042019N0020001N1+02051+01931101261ADDGF106991061021004501001001KA1240M+02661MA1999999091581MD1999999+0061REMSYN088AAXX  25004 83339 32495 61410 10205 20193 39158 40126 86200 333 10266 29086 55076 58006;
0182833390999992006042518004-14050-042617FM-12+088299999V0200901N005710042019N0020001N1+02241+02031101101ADDAA106000021AY141061AY221061GF108991051021004501021999MA1999999091451MD1999999+0061MW1601REMSYN082AAXX  25184 83339 21495 80911 10224 20203 39145 40110 76042 8522/ 333 58006 69921;
0213833390999992006042600004-14050-042617FM-12+088299999V0201401N006210450019N0020001N1+01931+01891101381ADDAA106015091AY161061AY241061GF108991041021004501021999KA1240M+02501MA1999999091661MD1999999+0081MW1601REMSYN100AAXX  26004 83339 21495 81412 10193 20189 39166 40138 76064 8422/ 333 10250 29094 55044 58008 60151;
0201833390999992006042612004-14050-042617FM-12+088299999V0200901N006210042019N0100001N1+02011+01781101511ADDAA124015091AY161061AY241061GF106991061021004501001001KA1240N+01781MA1999999091781MD1999999+0081MW1021REMSYN088AAXX  26124 83339 21497 60912 10201 20178 39178 40151 70264 86200 333 20178 58008 60154;
0137833390999992006042618004-14050-042617FM-12+088299999V0200901N001010042019N0100001N1+02421+01651101041ADDGF105991051021004501001001MA1999999091421MD1999999-0021REMSYN070AAXX  26184 83339 32497 50902 10242 20165 39142 40104 85200 333 59002;
0178833390999992006042700004-14050-042617FM-12+088299999V0201801N001512200019N0020001N1+02021+01641101261ADDGA1001+999999999GF100991001001999999001001KA1240M+02471MA1999999091581MD1999999-0081REMSYN082AAXX  27004 83339 32995 01803 10202 20164 39158 40126 333 10247 29077 55086 59008;
0156833390999992006042712004-14050-042617FM-12+088299999V0200501N000512200019N0100001N1+02151+01821101301ADDGF104991021021004501001011KA1240N+01681MA1999999091691MD1999999-0091REMSYN076AAXX  27124 83339 32497 40501 10215 20182 39169 40130 82201 333 20168 59009;
0137833390999992006042718004-14050-042617FM-12+088299999V0200901N002112200019N0100001N1+02531+01651100951ADDGF106991041021004501001011MA1999999091351MD1999999-0071REMSYN070AAXX  27184 83339 32497 60904 10253 20165 39135 40095 84201 333 59007;
0178833390999992006042800004-14050-042617FM-12+088299999V0201801N001512200019N0020001N1+02061+01681101161ADDGA1001+999999999GF100991001001999999001001KA1240M+02641MA1999999091531MD1999999-0051REMSYN082AAXX  28004 83339 32995 01803 10206 20168 39153 40116 333 10264 29074 55106 59005;
0156833390999992006042812004-14050-042617FM-12+088299999V0200901N003110042019N0100001N1+02001+01811101371ADDGF108991051021004501021999KA1240N+01751MA1999999091701MD1999999+0011REMSYN076AAXX  28124 83339 32497 80906 10200 20181 39170 40137 8522/ 333 20175 58001;
0137833390999992006042818004-14050-042617FM-12+088299999V0200901N003112200019N0100001N1+02581+01731100911ADDGF102991021021004501001001MA1999999091341MD1999999-0011REMSYN070AAXX  28184 83339 32497 20906 10258 20173 39134 40091 82200 333 59001;
0178833390999992006042900004-14050-042617FM-12+088299999V0201401N002612200019N0020001N1+02071+01681101181ADDGA1001+999999999GF100991001001999999001001KA1240M+02621MA1999999091531MD1999999+0001REMSYN082AAXX  29004 83339 32995 01405 10207 20168 39153 40118 333 10262 29076 55082 58000;
0184833390999992006042912004-14050-042617FM-12+088299999V0200901N003110042019N0020001N1+01931+01811101431ADDAY121061AY221061GF108991051021004501021999KA1240N+01831MA1999999091731MD1999999+0031MW1401REMSYN082AAXX  29124 83339 31495 80906 10193 20181 39173 40143 74022 8522/ 333 20183 58003;
0165833390999992006042918004-14050-042617FM-12+088299999V0201801N004112200019N0100001N1+02331+01671101031ADDAY141061AY221061GF105991031021004501001011MA1999999091411MD1999999+0071MW1021REMSYN076AAXX  29184 83339 31497 51808 10233 20167 39141 40103 70242 83201 333 58007;
0178833390999992006043000004-14050-042617FM-12+088299999V0200901N004112200019N0020001N1+02031+01881101361ADDGA1001+999999999GF100991001001999999001001KA1240M+02381MA1999999091661MD1999999+0131REMSYN082AAXX  30004 83339 32995 00908 10203 20188 39166 40136 333 10238 29079 55018 58013;
0156833390999992006043012004-14050-042617FM-12+088299999V0200901N004112200019N0100001N1+01871+01711101481ADDGF105991041021004501001011KA1240N+01781MA1999999091751MD1999999+0021REMSYN076AAXX  30124 83339 32497 50908 10187 20171 39175 40148 84201 333 20178 58002;
0137833390999992006043018004-14050-042617FM-12+088299999V0200901N004112200019N0100001N1+02401+01521101141ADDGF104991031021004501001011MA1999999091511MD1999999+0101REMSYN070AAXX  30184 83339 32497 40908 10240 20152 39151 40114 83201 333 58010;
0178833390999992006050100004-14050-042617FM-12+088299999V0200901N003112200019N0020001N1+01971+01701101371ADDGA1001+999999999GF100991001001999999001001KA1240M+02481MA1999999091641MD1999999-0021REMSYN082AAXX  01004 83339 32995 00906 10197 20170 39164 40137 333 10248 29079 55074 59002;
0184833390999992006050112004-14050-042617FM-12+088299999V0200901N003110042019N0100001N1+02031+01701101481ADDAY101061AY201061GF106991051021004501021001KA1240N+01631MA1999999091771MD1999999+0021MW1101REMSYN082AAXX  01124 83339 31497 60906 10203 20170 39177 40148 71000 85220 333 20163 58002;
0137833390999992006050118004-14050-042617FM-12+088299999V0201401N002612200019N0100001N1+02531+01521101101ADDGF104991031021004501021001MA1999999091491MD1999999-0021REMSYN070AAXX  01184 83339 32497 41405 10253 20152 39149 40110 83220 333 59002;
0196833390999992006050200004-14050-042617FM-12+088299999V0200501N002112200019N0020001N1+02051+01801101391ADDAY101061AY201061GF102991021021004501001001KA1240M+02661MA1999999091721MD1999999+0081MW1101REMSYN094AAXX  02004 83339 31495 20504 10205 20180 39172 40139 71000 82200 333 10266 29076 55074 58008;
0156833390999992006050212004-14050-042617FM-12+088299999V0201401N003112200019N0100001N1+02251+01801101461ADDGF102991021021004501001001KA1240N+01901MA1999999091821MD1999999+0051REMSYN076AAXX  02124 83339 32497 21406 10225 20180 39182 40146 82200 333 20190 58005;
0137833390999992006050218004-14050-042617FM-12+088299999V0200901N002612200019N0100001N1+02771+01591100971ADDGF102991021021004501001001MA1999999091451MD1999999-0041REMSYN070AAXX  02184 83339 32497 20905 10277 20159 39145 40097 82200 333 59004;
0178833390999992006050300004-14050-042617FM-12+088299999V0201801N003112200019N0020001N1+02211+01721101191ADDGA1001+999999999GF100991001001999999001001KA1240M+02841MA1999999091621MD1999999-0101REMSYN082AAXX  03004 83339 32995 01806 10221 20172 39162 40119 333 10284 29068 55098 59010;
0184833390999992006050312004-14050-042617FM-12+088299999V0200501N002110042019N0040001N1+02191+01941101291ADDAY101061AY201061GF108991081051004501999999KA1240N+01961MA1999999091681MD1999999-0141MW1101REMSYN082AAXX  03124 83339 31496 80504 10219 20194 39168 40129 71000 885// 333 20196 59014;
0137833390999992006050318004-14050-042617FM-12+088299999V0203201N003112200019N0100001N1+02771+01621100821ADDGF102991011021004501001021MA1999999091341MD1999999-0111REMSYN070AAXX  03184 83339 32497 23206 10277 20162 39134 40082 81202 333 59011;
0178833390999992006050400004-14050-042617FM-12+088299999V0201801N001012200019N0020001N1+02211+01721101021ADDGA1001+999999999GF100991001001999999001001KA1240M+02831MA1999999091441MD1999999-0181REMSYN082AAXX  04004 83339 32995 01802 10221 20172 39144 40102 333 10283 29070 55076 59018;
0184833390999992006050412004-14050-042617FM-12+088299999V0200501N003112200019N0100001N1+02151+01901101151ADDAY101061AY201061GF104991031021004501021001KA1240N+01841MA1999999091551MD1999999-0131MW1101REMSYN082AAXX  04124 83339 31497 40506 10215 20190 39155 40115 71000 83220 333 20184 59013;
0182833390999992006050418004-14050-042617FM-12+088299999V0203601N000510042019N0100001N1+02651+02051100881ADDAA106000591AY161061AY261061GF105991051021004501001001MA1999999091371MD1999999+0031MW1021REMSYN082AAXX  04184 83339 21497 53601 10265 20205 39137 40088 70266 85200 333 58003 69961;
0213833390999992006050500004-14050-042617FM-12+088299999V0203601N001010042019N0020001N1+02051+01961101121ADDAA106036191AY191061AY261061GF108991081051004501999999KA1240M+02841MA1999999091491MD1999999+0051MW1101REMSYN100AAXX  05004 83339 21495 83602 10205 20196 39149 40112 71096 885// 333 10284 29086 55057 58005 60361;
0201833390999992006050512004-14050-042617FM-12+088299999V0200501N000510042019N0100001N1+02231+02071101221ADDAA124036191AY161061AY261061GF106991061021004501001001KA1240N+01971MA1999999091601MD1999999+0051MW1101REMSYN088AAXX  05124 83339 21497 60501 10223 20207 39160 40122 71066 86200 333 20197 58005 60364;
0137833390999992006050518004-14050-042617FM-12+088299999V0203601N004610042019N0100001N1+02531+01911100891ADDGF106991051021004501021001MA1999999091341MD1999999-0031REMSYN070AAXX  05184 83339 32497 63609 10253 20191 39134 40089 85220 333 59003;
0196833390999992006050600004-14050-042617FM-12+088299999V0202301N001512200019N0020001N1+02191+02011101151ADDAY101061AY201061GF103991031021004501001001KA1240M+02641MA1999999091551MD1999999+0061MW1101REMSYN094AAXX  06004 83339 31495 32303 10219 20201 39155 40115 71000 83200 333 10264 29084 55049 58006;
0184833390999992006050612004-14050-042617FM-12+088299999V0200901N006210042019N0040001N1+02071+01931101261ADDAY101061AY201061GF108991081051004501999999KA1240N+02001MA1999999091641MD1999999+0041MW1101REMSYN082AAXX  06124 83339 31496 80912 10207 20193 39164 40126 71000 885// 333 20200 58004;
0137833390999992006050618004-14050-042617FM-12+088299999V0201401N003110042019N0100001N1+02411+01821101001ADDGF106991051021004501021001MA1999999091421MD1999999+0081REMSYN070AAXX  06184 83339 32497 61406 10241 20182 39142 40100 85220 333 58008;
0196833390999992006050700004-14050-042617FM-12+088299999V0203201N003612200019N0020001N1+01991+01831101191ADDAY101061AY201061GF103991031021004501001001KA1240M+02441MA1999999091541MD1999999-0011MW1101REMSYN094AAXX  07004 83339 31495 33207 10199 20183 39154 40119 71000 83200 333 10244 29086 55035 59001;
0201833390999992006050712004-14050-042617FM-12+088299999V0201401N004110042019N0040001N1+01871+01781101461ADDAA124000591AY161061AY261061GF108991081051004501999999KA1240N+01831MA1999999091741MD1999999+0101MW1501REMSYN088AAXX  07124 83339 21496 81408 10187 20178 39174 40146 75066 885// 333 20183 58010 69944;
0182833390999992006050718004-14050-042617FM-12+088299999V0201801N002110042019N0100001N1+02091+01741101171ADDAA106000591AY161061AY261061GF107991061021004501021999MA1999999091501MD1999999+0081MW1101REMSYN082AAXX  07184 83339 21497 71804 10209 20174 39150 40117 71066 8622/ 333 58008 69941;
0196833390999992006050800004-14050-042617FM-12+088299999V0200901N004610042019N0020001N1+01911+01701101361ADDAY101061AY201061GF106991061021004501001001KA1240M+02221MA1999999091631MD1999999+0091MW1101REMSYN094AAXX  08004 83339 31495 60909 10191 20170 39163 40136 71000 86200 333 10222 29088 55013 58009;
0201833390999992006050812004-14050-042617FM-12+088299999V0200901N002110042019N0100001N1+01981+01701101561ADDAA124000591AY161061AY221061GF106991061021004501001001KA1240N+01731MA1999999091831MD1999999+0091MW1021REMSYN088AAXX  08124 83339 21497 60904 10198 20170 39183 40156 70262 86200 333 20173 58009 69944;
0137833390999992006050818004-14050-042617FM-12+088299999V0200901N003112200019N0100001N1+02331+01491101121ADDGF102991021011004501001001MA1999999091471MD1999999-0031REMSYN070AAXX  08184 83339 32497 20906 10233 20149 39147 40112 82100 333 59003;
0178833390999992006050900004-14050-042617FM-12+088299999V0201801N002612200019N0020001N1+01841+01311101401ADDGA1001+999999999GF100991001001999999001001KA1240M+02381MA1999999091661MD1999999+0031REMSYN082AAXX  09004 83339 32995 01805 10184 20131 39166 40140 333 10238 29071 55071 58003;
0156833390999992006050912004-14050-042617FM-12+088299999V0200901N008210042019N0100001N1+01931+01721101501ADDGF105991051021004501001001KA1240N+01541MA1999999091751MD1999999-0081REMSYN076AAXX  09124 83339 32497 50916 10193 20172 39175 40150 85200 333 20154 59008;
0137833390999992006050918004-14050-042617FM-12+088299999V0200901N005112200019N0100001N1+02411+01571101091ADDGF103991031021004501001001MA1999999091431MD1999999-0041REMSYN070AAXX  09184 83339 32497 30910 10241 20157 39143 40109 83200 333 59004;
0178833390999992006051000004-14050-042617FM-12+088299999V0200901N002612200019N0020001N1+01931+01661101371ADDGA1001+999999999GF100991001001999999001001KA1240M+02461MA1999999091651MD1999999-0011REMSYN082AAXX  10004 83339 32995 00905 10193 20166 39165 40137 333 10246 29078 55079 59001;
0184833390999992006051012004-14050-042617FM-12+088299999V0200901N004110042019N0100001N1+01931+01721101501ADDAY101061AY201061GF106991061021004501001001KA1240N+01801MA1999999091771MD1999999+0021MW1101REMSYN082AAXX  10124 83339 31497 60908 10193 20172 39177 40150 71000 86200 333 20180 58002;
0137833390999992006051018004-14050-042617FM-12+088299999V0201801N004112200019N0100001N1+02451+01481101191ADDGF102991021021004501001001MA1999999091551MD1999999+0121REMSYN070AAXX  10184 83339 32497 21808 10245 20148 39155 40119 82200 333 58012;
0196833390999992006051100004-14050-042617FM-12+088299999V0201401N002112200019N0020001N1+01991+01661101391ADDAY101061AY201061GF102991021021004501001001KA1240M+02601MA1999999091571MD1999999+0021MW1101REMSYN094AAXX  11004 83339 31495 21404 10199 20166 39157 40139 71000 82200 333 10260 29076 55077 58002;
0184833390999992006051112004-14050-042617FM-12+088299999V0200501N002610042019N0020001N1+01911+01721101421ADDAY121061AY221061GF108991051021004501021999KA1240N+01671MA1999999091701MD1999999-0071MW1401REMSYN082AAXX  11124 83339 31495 80505 10191 20172 39170 40142 74022 8522/ 333 20167 59007;
0137833390999992006051118004-14050-042617FM-12+088299999V0209999C000012200019N0100001N1+02671+01551100871ADDGF104991021021004501031001MA1999999091301MD1999999-0251REMSYN070AAXX  11184 83339 32497 40000 10267 20155 39130 40087 82230 333 59025;
0168833390999992006051200004-14050-042617FM-12+088299999V0209999C000012200019N0020001N1+02151+01721101171ADDGF102991011011999999001011KA1240M+02741MA1999999091521MD1999999-0151REMSYN088AAXX  12004 83339 32995 20000 10215 20172 39152 40117 81101 333 10274 29073 55071 59015;
0137833390999992006051218004-14050-042617FM-12+088299999V0200901N001510042019N0100001N1+02591+01821100901ADDGF106991051021004501001011MA1999999091371MD1999999+0071REMSYN070AAXX  12184 83339 32497 60903 10259 20182 39137 40090 85201 333 58007;
0168833390999992006051300004-14050-042617FM-12+088299999V0209999C000012200019N0020001N1+02171+01801101231ADDGF103991011011004501031001KA1240M+02721MA1999999091631MD1999999+0111REMSYN088AAXX  13004 83339 32495 30000 10217 20180 39163 40123 81130 333 10272 29073 55012 58011;
0128833390999992006051312004-14050-042617FM-12+088299999V0200901N001519999999N0040001N1+02021+01921999999ADDGF108991999999004501999999REMSYN090AAXX  13124 83339 21496 80903 10202 20192 10009 20187 39189 40156 58026 69994 74062 8422/;
0137833390999992006051318004-14050-042617FM-12+088299999V0200101N001510042019N0100001N1+02591+01821100901ADDGF106991051021004501001011MA1999999091371MD1999999+0071REMSYN070AAXX  13184 83339 32497 60103 10259 20182 39137 40090 85201 333 58007;
0232833390999992006051400004-14050-042617FM-12+088299999V0202701N001510042019N0020001N1+02051+01991101571ADDAA106000091AY161061AY221061GF105991051021004501001001KA1240M+02321MA1999999091881MD1999999+0251MW1401REMSYN100AAXX  14004 83339 21495 52703 10205 20199 39188 40157 74062 85200 333 10232 29092 55000 58025 69911;EQDQ01  00002PRCP06
0207833390999992006051412004-14050-042617FM-12+088299999V0201401N005110042019N0020001N1+01831+01761101851ADDAA124000591AY161061AY241061GF108991051051004501021999KA1240N+01811MA1999999092091MD1999999+0201MW1401REMSYN094AAXX  14124 83339 21495 81410 10183 20176 39209 40185 74064 8552/ 333 20181 58020 69954 10005;
0165833390999992006051418004-14050-042617FM-12+088299999V0201401N005110042019N0100001N1+02061+01841101571ADDAY141061AY221061GF108991061021004501021999MA1999999091841MD1999999+0161MW1021REMSYN076AAXX  14184 83339 31497 81410 10206 20184 39184 40157 70242 8622/ 333 58016;
0168833390999992006051500004-14050-042617FM-12+088299999V0201401N004110042019N0020001N1+01931+01811101781ADDGF108991051051004501021999KA1240M+02101MA1999999092011MD1999999+0131REMSYN088AAXX  15004 83339 32495 81408 10193 20181 39201 40178 8552/ 333 10210 29092 55000 58013;
0203833390999992006051512004-14050-042617FM-12+088299999V0201401N003610042019N0040001N1+01771+01661101901ADDAY101061AY201061GF108991081051004501999999KA1240N+99999MA1999999092101MD1999999+0011MW1101REMSYN082AAXX  15124 83339 31496 81407 10177 20166 39210 40190 71000 885// 333 20190 58001;EQDQ01 +01902ATMN  
0165833390999992006051518004-14050-042617FM-12+088299999V0200901N002610042019N0040001N1+01931+01621101671ADDAY101061AY201061GF108991081051004501999999MA1999999091891MD1999999+0051MW1101REMSYN076AAXX  15184 83339 31496 80905 10193 20162 39189 40167 71000 885// 333 58005;
0196833390999992006051600004-14050-042617FM-12+088299999V0201401N003610042019N0020001N1+01791+01671101771ADDAY101061AY201061GF107991061021004501021999KA1240M+01981MA1999999091951MD1999999-0061MW1101REMSYN094AAXX  16004 83339 31495 71407 10179 20167 39195 40177 71000 8622/ 333 10198 29091 55000 59006;
0184833390999992006051612004-14050-042617FM-12+088299999V0200901N002110042019N0040001N1+01671+01581101871ADDAY101061AY201061GF108991081051004501999999KA1240N+01631MA1999999092031MD1999999-0071MW1501REMSYN082AAXX  16124 83339 31496 80904 10167 20158 39203 40187 75000 885// 333 20163 59007;
0165833390999992006051618004-14050-042617FM-12+088299999V0201401N004610042019N0100001N1+02271+01391101511ADDAY101061AY251061GF105991051021004501001001MA1999999091801MD1999999-0091MW1021REMSYN076AAXX  16184 83339 31497 51409 10227 20139 39180 40151 70205 85200 333 59009;
0196833390999992006051700004-14050-042617FM-12+088299999V0200501N003112200019N0020001N1+01851+01531101721ADDAY101061AY201061GF102991021021004501001001KA1240M+02361MA1999999091891MD1999999-0061MW1101REMSYN094AAXX  17004 83339 31495 20506 10185 20153 39189 40172 71000 82200 333 10236 29079 55050 59006;
0184833390999992006051712004-14050-042617FM-12+088299999V0200901N003612200019N0100001N1+01671+01391101951ADDAY101061AY201061GF104991041021004501001001KA1240N+01501MA1999999092101MD1999999+0071MW1101REMSYN082AAXX  17124 83339 31497 40907 10167 20139 39210 40195 71000 84200 333 20150 58007;
0137833390999992006051718004-14050-042617FM-12+088299999V0201401N002112200019N0100001N1+02231+00901101551ADDGF102991021021004501001001MA1999999091841MD1999999+0041REMSYN070AAXX  17184 83339 32497 21404 10223 20090 39184 40155 82200 333 58004;
0178833390999992006051800004-14050-042617FM-12+088299999V0201801N004612200019N0020001N1+01751+00851101821ADDGA1001+999999999GF100991001001999999001001KA1240M+02301MA1999999091961MD1999999+0071REMSYN082AAXX  18004 83339 32995 01809 10175 20085 39196 40182 333 10230 29060 55088 58007;
0156833390999992006051812004-14050-042617FM-12+088299999V0200901N005112200019N0100001N1+01691+01211102011ADDGF103991031021004501001001KA1240N+01381MA1999999092141MD1999999+0041REMSYN076AAXX  18124 83339 32497 30910 10169 20121 39214 40201 83200 333 20138 58004;
0137833390999992006051818004-14050-042617FM-12+088299999V0203201N002612200019N0100001N1+02251+00991101581ADDGF102991021021004501001001MA1999999091811MD1999999-0031REMSYN070AAXX  18184 83339 32497 23205 10225 20099 39181 40158 82200 333 59003;
0178833390999992006051900004-14050-042617FM-12+088299999V0200901N000512200019N0020001N1+01671+00951101791ADDGA1001+999999999GF100991001001999999001001KA1240M+02281MA1999999091941MD1999999-0021REMSYN082AAXX  19004 83339 32995 00901 10167 20095 39194 40179 333 10228 29061 55104 59002;
0184833390999992006051912004-14050-042617FM-12+088299999V0201401N003110042019N0100001N1+01591+01251101911ADDAY101061AY201061GF106991061021004501001001KA1240N+01361MA1999999092031MD1999999-0111MW1101REMSYN082AAXX  19124 83339 31497 61406 10159 20125 39203 40191 71000 86200 333 20136 59011;
0137833390999992006051918004-14050-042617FM-12+088299999V0200501N002612200019N0100001N1+02231+01131101411ADDGF102991011021004501001021MA1999999091651MD1999999-0161REMSYN070AAXX  19184 83339 32497 20505 10223 20113 39165 40141 81202 333 59016;
0156833390999992006052012004-14050-042617FM-12+088299999V0200901N000512200019N0100001N1+01731+01251101641ADDGF102991021021004501001001KA1240N+01201MA1999999091801MD1999999-0231REMSYN076AAXX  20124 83339 32497 20901 10173 20125 39180 40164 82200 333 20120 59023;
0137833390999992006052018004-14050-042617FM-12+088299999V0201401N002110042019N0100001N1+02271+01231101271ADDGF106991061021004501001001MA1999999091511MD1999999-0141REMSYN070AAXX  20184 83339 32497 61404 10227 20123 39151 40127 86200 333 59014;
0168833390999992006052100004-14050-042617FM-12+088299999V0203201N001512200019N0020001N1+01871+01301101401ADDGF102991021021004501001001KA1240M+02441MA1999999091631MD1999999-0151REMSYN088AAXX  21004 83339 32495 23203 10187 20130 39163 40140 82200 333 10244 29066 55082 59015;
0184833390999992006052112004-14050-042617FM-12+088299999V0202301N000510042019N0100001N1+01671+01391101621ADDAY101061AY201061GF106991051021004501021001KA1240N+01401MA1999999091801MD1999999+0001MW1101REMSYN082AAXX  21124 83339 31497 62301 10167 20139 39180 40162 71000 85220 333 20140 58000;
0137833390999992006052118004-14050-042617FM-12+088299999V0200501N002610450019N0100001N1+02431+01191101201ADDGF105991041021004501021001MA1999999091531MD1999999+0021REMSYN070AAXX  21184 83339 32497 50505 10243 20119 39153 40120 84220 333 58002;
0178833390999992006052200004-14050-042617FM-12+088299999V0203601N000512200019N0020001N1+01931+01451101511ADDGA1001+999999999GF100991001001999999001001KA1240M+02561MA1999999091731MD1999999+0101REMSYN082AAXX  22004 83339 32995 03601 10193 20145 39173 40151 333 10256 29069 55071 58010;
0156833390999992006052212004-14050-042617FM-12+088299999V0201401N002612200019N0100001N1+02041+01581101641ADDGF102991021011004501001001KA1240N+01531MA1999999091921MD1999999+0121REMSYN076AAXX  22124 83339 32497 21405 10204 20158 39192 40164 82100 333 20153 58012;
0147833390999992006052218004-14050-042617FM-12+088299999V0200901N005112200019N0100001N1+02461+01381101371ADDGA1001+999999999GF100991001001999999001001MA1999999091671MD1999999+0141REMSYN064AAXX  22184 83339 32997 00910 10246 20138 39167 40137 333 58014;
0178833390999992006052300004-14050-042617FM-12+088299999V0201401N001512200019N0020001N1+01981+01421101591ADDGA1001+999999999GF100991001001999999001001KA1240M+02521MA1999999091871MD1999999+0141REMSYN082AAXX  23004 83339 32995 01403 10198 20142 39187 40159 333 10252 29067 55105 58014;
0166833390999992006052312004-14050-042617FM-12+088299999V0200901N003112200019N0100001N1+01951+01551101831ADDGA1001+999999999GF100991001001999999001001KA1240N+01401MA1999999092071MD1999999+0151REMSYN070AAXX  23124 83339 32997 00906 10195 20155 39207 40183 333 20140 58015;
0147833390999992006052318004-14050-042617FM-12+088299999V0200901N003112200019N0100001N1+02611+01191101331ADDGA1001+999999999GF100991001001999999001001MA1999999091681MD1999999+0011REMSYN064AAXX  23184 83339 32997 00906 10261 20119 39168 40133 333 58001;
0178833390999992006052400004-14050-042617FM-12+088299999V0200901N002112200019N0020001N1+02051+01281101661ADDGA1001+999999999GF100991001001999999001001KA1240M+02641MA1999999091941MD1999999+0071REMSYN082AAXX  24004 83339 32995 00904 10205 20128 39194 40166 333 10264 29060 55106 58007;
0137833390999992006052418004-14050-042617FM-12+088299999V0201401N004612200019N0100001N1+02631+01661101311ADDGF103991031021004501001001MA1999999091681MD1999999+0001REMSYN070AAXX  24184 83339 32497 31409 10263 20166 39168 40131 83200 333 58000;
0178833390999992006052500004-14050-042617FM-12+088299999V0201401N005712200019N0020001N1+02171+01671101531ADDGA1001+999999999GF100991001001999999001001KA1240M+02651MA1999999091881MD1999999-0061REMSYN082AAXX  25004 83339 32995 01411 10217 20167 39188 40153 333 10265 29071 55100 59006;
0137833390999992006052518004-14050-042617FM-12+088299999V0200901N006212200019N0100001N1+02311+01651101351ADDGF104991041021004501001001MA1999999091681MD1999999+0001REMSYN070AAXX  25184 83339 32497 40912 10231 20165 39168 40135 84200 333 58000;
0168833390999992006052600004-14050-042617FM-12+088299999V0201401N006712200019N0020001N1+01941+01591101651ADDGF102991021021004501001001KA1240M+02401MA1999999091911MD1999999+0031REMSYN088AAXX  26004 83339 32495 21413 10194 20159 39191 40165 82200 333 10240 29077 55078 58003;
0184833390999992006052612004-14050-042617FM-12+088299999V0201401N005710450019N0020001N1+01671+01601101851ADDAY121061AY221061GF108991041051004501021999KA1240N+01661MA1999999092031MD1999999-0011MW1401REMSYN082AAXX  26124 83339 31495 81411 10167 20160 39203 40185 74022 8452/ 333 20166 59001;
0137833390999992006052618004-14050-042617FM-12+088299999V0201401N003610042019N0100001N1+02051+01621101581ADDGF108991051021004501021999MA1999999091811MD1999999+0131REMSYN070AAXX  26184 83339 32497 81407 10205 20162 39181 40158 8522/ 333 58013;
0168833390999992006052700004-14050-042617FM-12+088299999V0201401N004110450019N0020001N1+01891+01661101721ADDGF106991041021004501021001KA1240M+02081MA1999999091891MD1999999-0021REMSYN088AAXX  27004 83339 32495 61408 10189 20166 39189 40172 84220 333 10208 29086 55000 59002;
0156833390999992006052712004-14050-042617FM-12+088299999V0200901N006710042019N0100001N1+01791+01601101801ADDGF106991061021004501001001KA1240N+01641MA1999999091191MD1999999-0051REMSYN076AAXX  27124 83339 32497 60913 10179 20160 39119 40180 86200 333 20164 59005;
0137833390999992006052718004-14050-042617FM-12+088299999V0200901N004112200019N0100001N1+02361+01591101411ADDGF104991021011004501001011MA1999999091741MD1999999-0071REMSYN070AAXX  27184 83339 32497 40908 10236 20159 39174 40141 82101 333 59007;
0178833390999992006052800004-14050-042617FM-12+088299999V0200901N005112200019N0020001N1+01951+01571101681ADDGA1001+999999999GF100991001001999999001001KA1240M+02441MA1999999091901MD1999999+0011REMSYN082AAXX  28004 83339 32995 00910 10195 20157 39190 40168 333 10244 29077 55070 58001;
0156833390999992006052812004-14050-042617FM-12+088299999V0201401N003110042019N0100001N1+01841+01661101771ADDGF108991051021004501021999KA1240N+01521MA1999999092001MD1999999+0021REMSYN076AAXX  28124 83339 32497 81406 10184 20166 39200 40177 8522/ 333 20152 58002;
0137833390999992006052818004-14050-042617FM-12+088299999V0201401N001512200019N0100001N1+02141+01701101461ADDGF103991031021004501001001MA1999999091721MD1999999-0021REMSYN070AAXX  28184 83339 32497 31403 10214 20170 39172 40146 83200 333 59002;
0178833390999992006052900004-14050-042617FM-12+088299999V0209999C000012200019N0020001N1+01761+01591101711ADDGA1001+999999999GF100991001001999999001001KA1240M+02241MA1999999091911MD1999999+0011REMSYN082AAXX  29004 83339 32995 00000 10176 20159 39191 40171 333 10224 29086 55030 58001;
0184833390999992006052912004-14050-042617FM-12+088299999V0201401N001510450019N0100001N1+01911+01591101741ADDAY101061AY201061GF105991041021004501021001KA1240N+01441MA1999999091951MD1999999-0051MW1101REMSYN082AAXX  29124 83339 31497 51403 10191 20159 39195 40174 71000 84220 333 20144 59005;
0137833390999992006052918004-14050-042617FM-12+088299999V0200901N005112200019N0100001N1+02591+01121101351ADDGF102991011021004501021001MA1999999091701MD1999999-0021REMSYN070AAXX  29184 83339 32497 20910 10259 20112 39170 40135 81220 333 59002;
0178833390999992006053000004-14050-042617FM-12+088299999V0201401N003612200019N0020001N1+02071+01261101581ADDGA1001+999999999GF100991001001999999001001KA1240M+02661MA1999999091861MD1999999-0051REMSYN082AAXX  30004 83339 32995 01407 10207 20126 39186 40158 333 10266 29061 55096 59005;
0184833390999992006053012004-14050-042617FM-12+088299999V0200901N006210042019N0100001N1+01691+01371101811ADDAY101061AY201061GF105991051021004501001001KA1240N+01541MA1999999092041MD1999999+0091MW1101REMSYN082AAXX  30124 83339 31497 50912 10169 20137 39204 40181 71000 85200 333 20154 58009;
0147833390999992006053018004-14050-042617FM-12+088299999V0201401N006212200019N0100001N1+02291+01121101421ADDGA1001+999999999GF100991001001999999001001MA1999999091721MD1999999+0021REMSYN064AAXX  30184 83339 32997 01412 10229 20112 39172 40142 333 58002;
0178833390999992006053100004-14050-042617FM-12+088299999V0201801N001512200019N0020001N1+01851+01241101681ADDGA1001+999999999GF100991001001999999001001KA1240M+02341MA1999999091851MD1999999-0011REMSYN082AAXX  31004 83339 32995 01803 10185 20124 39185 40168 333 10234 29066 55106 59001;
0184833390999992006053112004-14050-042617FM-12+088299999V0200501N004610042019N0040001N1+01731+01541101891ADDAY101061AY201061GF106991061021004501001001KA1240N+01481MA1999999092061MD1999999+0021MW1101REMSYN082AAXX  31124 83339 31496 60509 10173 20154 39206 40189 71000 86200 333 20148 58002;
0147833390999992006053118004-14050-042617FM-12+088299999V0200901N003612200019N0100001N1+02391+00941101451ADDGA1001+999999999GF100991001001999999001001MA1999999091731MD1999999+0011REMSYN064AAXX  31184 83339 32997 00907 10239 20094 39173 40145 333 58001;
0178833390999992006060100004-14050-042617FM-12+088299999V0201801N001512200019N0020001N1+01851+01051101701ADDGA1001+999999999GF100991001001999999001001KA1240M+02481MA1999999091901MD1999999+0051REMSYN082AAXX  01004 83339 32995 01803 10185 20105 39190 40170 333 10248 29062 55087 58005;
0156833390999992006060112004-14050-042617FM-12+088299999V0203201N000510042019N0100001N1+01811+01271101761ADDGF106991051021004501021001KA1240N+01461MA1999999091981MD1999999-0081REMSYN076AAXX  01124 83339 32497 63201 10181 20127 39198 40176 85220 333 20146 59008;
0137833390999992006060118004-14050-042617FM-12+088299999V0200901N003612200019N0100001N1+02531+00591101391ADDGF103991021021004501021001MA1999999091721MD1999999-0011REMSYN070AAXX  01184 83339 32497 30907 10253 20059 39172 40139 82220 333 59001;
0178833390999992006060200004-14050-042617FM-12+088299999V0201401N002612200019N0020001N1+01891+00691101631ADDGA1001+999999999GF100991001001999999001001KA1240M+02561MA1999999093852MD1999999-0051REMSYN082AAXX  02004 83339 32995 01405 10189 20069 39385 40163 333 10256 29050 55093 59005;
0184833390999992006060212004-14050-042617FM-12+088299999V0201401N006710042019N0040001N1+01631+01441101911ADDAY101061AY201061GF107991061021004501021999KA1240N+01601MA1999999092061MD1999999+0081MW1101REMSYN082AAXX  02124 83339 31496 71413 10163 20144 39206 40191 71000 8622/ 333 20160 58008;
0137833390999992006060218004-14050-042617FM-12+088299999V0201801N005112200019N0100001N1+02331+01061101541ADDGF102991021021004501001001MA1999999091831MD1999999+0111REMSYN070AAXX  02184 83339 32497 21810 10233 20106 39183 40154 82200 333 58011;
0178833390999992006060300004-14050-042617FM-12+088299999V0203601N003112200019N0020001N1+01851+01191101771ADDGA1001+999999999GF100991001001999999001001KA1240M+02381MA1999999091941MD1999999+0091REMSYN082AAXX  03004 83339 32995 03606 10185 20119 39194 40177 333 10238 29065 55094 58009;
0184833390999992006060312004-14050-042617FM-12+088299999V0201401N007710042019N0100001N1+01611+01371101851ADDAY101061AY201061GF106991051021004501031001KA1240N+01501MA1999999092011MD1999999-0091MW1101REMSYN082AAXX  03124 83339 31497 61415 10161 20137 39201 40185 71000 85230 333 20150 59009;
0137833390999992006060318004-14050-042617FM-12+088299999V0200501N007210042019N0100001N1+02031+01341101681ADDGF105991051021004501001001MA1999999091851MD1999999+0021REMSYN070AAXX  03184 83339 32497 50514 10203 20134 39185 40168 85200 333 58002;
0196833390999992006060400004-14050-042617FM-12+088299999V0200901N004112200019N0020001N1+01671+01411101871ADDAY101061AY201061GF103991031021004501001001KA1240M+02131MA1999999091991MD1999999+0051MW1101REMSYN094AAXX  04004 83339 31495 30908 10167 20141 39199 40187 71000 83200 333 10213 29080 55035 58005;
0184833390999992006060412004-14050-042617FM-12+088299999V0200901N007710042019N0100001N1+01551+01231101971ADDAY101061AY201061GF106991061021004501001001KA1240N+01501MA1999999092061MD1999999+0051MW1101REMSYN082AAXX  04124 83339 31497 60915 10155 20123 39206 40197 71000 86200 333 20150 58005;
0137833390999992006060418004-14050-042617FM-12+088299999V0200501N004612200019N0100001N1+02131+01041101511ADDGF102991021021004501001001MA1999999091731MD1999999-0121REMSYN070AAXX  04184 83339 32497 20509 10213 20104 39173 40151 82200 333 59012;
0178833390999992006060500004-14050-042617FM-12+088299999V0202301N001512200019N0020001N1+01631+01161101661ADDGA1001+999999999GF100991001001999999001001KA1240M+02161MA1999999091781MD1999999-0211REMSYN082AAXX  05004 83339 32995 02303 10163 20116 39178 40166 333 10216 29070 55080 59021;
0166833390999992006060512004-14050-042617FM-12+088299999V0200901N003612200019N0100001N1+01821+01311101881ADDGA1001+999999999GF100991001001999999001001KA1240N+01291MA1999999092021MD1999999-0041REMSYN070AAXX  05124 83339 32997 00907 10182 20131 39202 40188 333 20129 59004;
0137833390999992006060518004-14050-042617FM-12+088299999V0203601N003112200019N0100001N1+02391+01071101321ADDGF102991021011004501001001MA1999999091591MD1999999-0141REMSYN070AAXX  05184 83339 32497 23606 10239 20107 39159 40132 82100 333 59014;
0178833390999992006060600004-14050-042617FM-12+088299999V0209999C000012200019N0020001N1+01801+01271101611ADDGA1001+999999999GF100991001001999999001001KA1240M+02441MA1999999091821MD1999999+0041REMSYN082AAXX  06004 83339 32995 00000 10180 20127 39182 40161 333 10244 29064 55102 58004;
0156833390999992006060612004-14050-042617FM-12+088299999V0200901N002612200019N0100001N1+01741+01471101841ADDGF102991021021004501001001KA1240N+01271MA1999999092001MD1999999-0021REMSYN076AAXX  06124 83339 32497 20905 10174 20147 39200 40184 82200 333 20127 59002;
0137833390999992006060618004-14050-042617FM-12+088299999V0200901N002112200019N0100001N1+02501+01191101321ADDGF104991041021004501001001MA1999999091611MD1999999+0021REMSYN070AAXX  06184 83339 32497 40904 10250 20119 39161 40132 84200 333 58002;
0178833390999992006060700004-14050-042617FM-12+088299999V0209999C000012200019N0020001N1+01921+01381101671ADDGA1001+999999999GF100991001001999999001001KA1240M+02581MA1999999091891MD1999999+0071REMSYN082AAXX  07004 83339 32995 00000 10192 20138 39189 40167 333 10258 29068 55098 58007;
0156833390999992006060712004-14050-042617FM-12+088299999V0201401N004610042019N0100001N1+01711+01521101841ADDGF108991051021004501021999KA1240N+01481MA1999999092021MD1999999+0021REMSYN076AAXX  07124 83339 32497 81409 10171 20152 39202 40184 8522/ 333 20148 58002;
0137833390999992006060718004-14050-042617FM-12+088299999V0201401N002612200019N0100001N1+02281+01381101451ADDGF104991041021004501001001MA1999999091711MD1999999+0101REMSYN070AAXX  07184 83339 32497 41405 10228 20138 39171 40145 84200 333 58010;
0156833390999992006060812004-14050-042617FM-12+088299999V0200901N005110450019N0100001N1+01631+01411101841ADDGF106991041021004501021001KA1240N+01401MA1999999092001MD1999999-0021REMSYN076AAXX  08124 83339 32497 60910 10163 20141 39200 40184 84220 333 20140 59002;
0137833390999992006060818004-14050-042617FM-12+088299999V0200901N003612200019N0100001N1+02281+01181101361ADDGF102991021021004501001001MA1999999091631MD1999999-0081REMSYN070AAXX  08184 83339 32497 20907 10228 20118 39163 40136 82200 333 59008;
0168833390999992006060900004-14050-042617FM-12+088299999V0200901N005112200019N0020001N1+01881+01301101691ADDGF102991021021004501001001KA1240M+02321MA1999999091861MD1999999-0031REMSYN088AAXX  09004 83339 32495 20910 10188 20130 39186 40169 82200 333 10232 29068 55069 59003;
0156833390999992006060912004-14050-042617FM-12+088299999V0200901N005110042019N0100001N1+01711+01541101721ADDGF108991051021004501021999KA1240N+01581MA1999999091921MD1999999-0081REMSYN076AAXX  09124 83339 32497 80910 10171 20154 39192 40172 8522/ 333 20158 59008;
0137833390999992006060918004-14050-042617FM-12+088299999V0200901N005712200019N0100001N1+02311+01221101301ADDGF103991031021004501001001MA1999999091561MD1999999-0071REMSYN070AAXX  09184 83339 32497 30911 10231 20122 39156 40130 83200 333 59007;
0178833390999992006061000004-14050-042617FM-12+088299999V0201401N003112200019N0020001N1+01931+01361101541ADDGA1001+999999999GF100991001001999999001001KA1240M+02361MA1999999091751MD1999999-0111REMSYN082AAXX  10004 83339 32995 01406 10193 20136 39175 40154 333 10236 29069 55067 59011;
0156833390999992006061012004-14050-042617FM-12+088299999V0200901N007210450019N0100001N1+01761+01511101651ADDGF108991041021004501021999KA1240N+01641MA1999999091871MD1999999+0051REMSYN076AAXX  10124 83339 32497 80914 10176 20151 39187 40165 8422/ 333 20164 58005;
0137833390999992006061018004-14050-042617FM-12+088299999V0200501N003612200019N0100001N1+02291+01401101181ADDGF102991021021004501001001MA1999999091481MD1999999-0081REMSYN070AAXX  10184 83339 32497 20507 10229 20140 39148 40118 82200 333 59008;
0178833390999992006061100004-14050-042617FM-12+088299999V0201401N004112200019N0020001N1+01881+01491101471ADDGA1001+999999999GF100991001001999999001001KA1240M+02381MA1999999091691MD1999999-0061REMSYN082AAXX  11004 83339 32995 01408 10188 20149 39169 40147 333 10238 29076 55044 59006;
0175833390999992006061112004-14050-042617FM-12+088299999V0201401N004610042019N0100001N1+01771+01521101721ADDGF108991999021004501001001KA1240N+01651MA1999999091921MD1999999+0051REMSYN076AAXX  11124 83339 32497 81409 10177 20152 39192 40172 86200 333 20165 58005;EQDQ01+000062SCOTLC
0137833390999992006061118004-14050-042617FM-12+088299999V0201401N003112200019N0100001N1+02401+01411101241ADDGF102991021011004501001001MA1999999091581MD1999999+0101REMSYN070AAXX  11184 83339 32497 21406 10240 20141 39158 40124 82100 333 58010;
0156833390999992006061212004-14050-042617FM-12+088299999V0200501N005110042019N0100001N1+01771+01561101821ADDGF106991061021004501001001KA1240N+01381MA1999999092031MD1999999+0111REMSYN076AAXX  12124 83339 32497 60510 10177 20156 39203 40182 86200 333 20138 58011;
0137833390999992006061218004-14050-042617FM-12+088299999V0201401N005710450019N0100001N1+02441+01301101431ADDGF106991041021004501031001MA1999999091731MD1999999+0151REMSYN070AAXX  12184 83339 32497 61411 10244 20130 39173 40143 84230 333 58015;
0168833390999992006061300004-14050-042617FM-12+088299999V0201401N008212200019N0020001N1+02031+01431101731ADDGF102991021021004501001001KA1240M+02501MA1999999091961MD1999999+0161REMSYN088AAXX  13004 83339 32495 21416 10203 20143 39196 40173 82200 333 10250 29068 55051 58016;
0201833390999992006061312004-14050-042617FM-12+088299999V0201401N006210450019N0020001N1+01721+01621101961ADDAA124000591AY161061AY241061GF108991041021004501021999KA1240N+01701MA1999999092151MD1999999+0121MW1401REMSYN088AAXX  13124 83339 21495 81412 10172 20162 39215 40196 74064 8422/ 333 20170 58012 69944;
0165833390999992006061318004-14050-042617FM-12+088299999V0200901N006710042019N0100001N1+01981+01571101761ADDAY141061AY221061GF106991061021004501001001MA1999999091961MD1999999-0071MW1021REMSYN076AAXX  13184 83339 31497 60913 10198 20157 39196 40176 70242 86200 333 59007;
0168833390999992006061400004-14050-042617FM-12+088299999V0200901N006210042019N0020001N1+01851+01581101911ADDGF106991061021004501001001KA1240M+02101MA1999999092081MD1999999+0121REMSYN088AAXX  14004 83339 32495 60912 10185 20158 39208 40191 86200 333 10210 29085 55004 58012;
0156833390999992006061412004-14050-042617FM-12+088299999V0201401N008710042019N0100001N1+01641+01411102011ADDGF105991051021004501001001KA1240N+01531MA1999999092151MD1999999+0001REMSYN076AAXX  14124 83339 32497 51417 10164 20141 39215 40201 85200 333 20153 58000;
0137833390999992006061418004-14050-042617FM-12+088299999V0201401N006210042019N0100001N1+01971+01401101741ADDGF108991051021004501021999MA1999999091941MD1999999-0021REMSYN070AAXX  14184 83339 32497 81412 10197 20140 39194 40174 8522/ 333 59002;
0168833390999992006061500004-14050-042617FM-12+088299999V0200901N003110042019N0020001N1+01771+01431101931ADDGF108991051021004501021999KA1240M+02031MA1999999092061MD1999999-0021REMSYN088AAXX  15004 83339 32495 80906 10177 20143 39206 40193 8522/ 333 10203 29079 55014 59002;
0156833390999992006061512004-14050-042617FM-12+088299999V0201401N004112200019N0100001N1+01721+01211101831ADDGF102991021011004501001001KA1240N+01421MA1999999092031MD1999999-0121REMSYN076AAXX  15124 83339 32497 21408 10172 20121 39203 40183 82100 333 20142 59012;
0147833390999992006061518004-14050-042617FM-12+088299999V0200901N002612200019N0100001N1+02401+01071101451ADDGA1001+999999999GF100991001001999999001001MA1999999091731MD1999999-0211REMSYN064AAXX  15184 83339 32497 00905 10240 20107 39173 40145 333 59021;
0178833390999992006061600004-14050-042617FM-12+088299999V0201801N002612200019N0020001N1+01891+01271101721ADDGA1001+999999999GF100991001001999999001001KA1240M+02461MA1999999091921MD1999999-0241REMSYN082AAXX  16004 83339 32995 01805 10189 20127 39192 40172 333 10246 29062 55095 59024;
0166833390999992006061612004-14050-042617FM-12+088299999V0200901N003112200019N0100001N1+01951+01531101951ADDGA1001+999999999GF100991001001999999001001KA1240N+01361MA1999999092161MD1999999+0131REMSYN070AAXX  16124 83339 32997 00906 10195 20153 39216 40195 333 20136 58013;
0137833390999992006061618004-14050-042617FM-12+088299999V0200901N003612200019N0100001N1+02431+01511101551ADDGF102991021021004501001001MA1999999091821MD1999999+0091REMSYN070AAXX  16184 83339 32497 20907 10243 20151 39182 40155 82200 333 58009;
0178833390999992006061700004-14050-042617FM-12+088299999V0201401N001512200019N0020001N1+01951+01441101761ADDGA1001+999999999GF100991001001999999001001KA1240M+02501MA1999999092011MD1999999+0091REMSYN082AAXX  17004 83339 32995 01403 10195 20144 39201 40176 333 10250 29069 55105 58009;
0175833390999992006061718004-14050-042617FM-12+088299999V0200901N005112200019N0100001N1+02371+01211101601ADDAY141061AY221061GA1001+999999999GF100991001001999999001001MA1999999091881MD1999999+0061MW1021REMSYN070AAXX  17184 83339 31497 00910 10237 20121 39188 40160 70242 333 58006;
0178833390999992006061800004-14050-042617FM-12+088299999V0201401N006212200019N0020001N1+02011+01221101851ADDGA1001+999999999GF100991001001999999001001KA1240M+02421MA1999999092071MD1999999+0061REMSYN082AAXX  18004 83339 32995 01412 10201 20122 39207 40185 333 10242 29066 55067 58006;
0156833390999992006061812004-14050-042617FM-12+088299999V0201401N006712200019N0100001N1+01631+01281102111ADDGF102991021021004501001001KA1240N+01441MA1999999092261MD1999999+0131REMSYN076AAXX  18124 83339 32497 21413 10163 20128 39226 40211 82200 333 20144 58013;
0137833390999992006061818004-14050-042617FM-12+088299999V0201401N009312200019N0100001N1+02171+01151101741ADDGF102991021011004501001001MA1999999091981MD1999999+0101REMSYN070AAXX  18184 83339 32497 21418 10217 20115 39198 40174 82100 333 58010;
0178833390999992006061900004-14050-042617FM-12+088299999V0201401N006712200019N0020001N1+01861+01211101881ADDGA1001+999999999GF100991001001999999001001KA1240M+02221MA1999999092041MD1999999-0031REMSYN082AAXX  19004 83339 32995 01413 10186 20121 39204 40188 333 10222 29066 55106 59003;
0156833390999992006061912004-14050-042617FM-12+088299999V0200901N006210042019N0100001N1+01591+01381102111ADDGF106991061021004501001001KA1240N+01421MA1999999092231MD1999999-0031REMSYN076AAXX  19124 83339 32497 60912 10159 20138 39223 40211 86200 333 20142 59003;
0137833390999992006061918004-14050-042617FM-12+088299999V0201401N006712200019N0100001N1+02241+01151101651ADDGF102991021011004501001001MA1999999091871MD1999999-0111REMSYN070AAXX  19184 83339 32497 21413 10224 20115 39187 40165 82100 333 59011;
0178833390999992006062000004-14050-042617FM-12+088299999V0200901N005712200019N0020001N1+01791+01411101881ADDGA1001+999999999GF100991001001999999001001KA1240M+02261MA1999999092021MD1999999-0021REMSYN082AAXX  20004 83339 32995 00911 10179 20141 39202 40188 333 10226 29073 55082 59002;
0156833390999992006062012004-14050-042617FM-12+088299999V0200901N005710042019N0100001N1+01661+01351102111ADDGF105991051021004501001001KA1240N+01481MA1999999092231MD1999999+0001REMSYN076AAXX  20124 83339 32497 50911 10166 20135 39223 40211 85200 333 20148 58000;
0137833390999992006062018004-14050-042617FM-12+088299999V0200901N005112200019N0100001N1+02191+01111101701ADDGF102991021011004501001001MA1999999091921MD1999999+0051REMSYN070AAXX  20184 83339 32497 20910 10219 20111 39192 40170 82100 333 58005;
0178833390999992006062100004-14050-042617FM-12+088299999V0201401N005712200019N0020001N1+01811+01181101981ADDGA1001+999999999GF100991001001999999001001KA1240M+02261MA1999999092131MD1999999+0101REMSYN082AAXX  21004 83339 32995 01411 10181 20118 39213 40198 333 10226 29067 55071 58010;
0156833390999992006062112004-14050-042617FM-12+088299999V0201401N004110042019N0100001N1+01541+01381102191ADDGF106991061021004501001001KA1240N+01361MA1999999092281MD1999999+0051REMSYN076AAXX  21124 83339 32497 61408 10154 20138 39228 40219 86200 333 20136 58005;
0137833390999992006062118004-14050-042617FM-12+088299999V0200901N005710042019N0100001N1+02251+01471101761ADDGF106991061021004501001001MA1999999091971MD1999999+0051REMSYN070AAXX  21184 83339 32497 60911 10225 20147 39197 40176 86200 333 58005;
0168833390999992006062200004-14050-042617FM-12+088299999V0201401N004110042019N0020001N1+01871+01661102031ADDGF106991061021004501001001KA1240M+02301MA1999999092151MD1999999+0021REMSYN088AAXX  22004 83339 32495 61408 10187 20166 39215 40203 86200 333 10230 29081 55040 58002;
0201833390999992006062212004-14050-042617FM-12+088299999V0201401N004110042019N0020001N1+01731+01641102071ADDAA124005191AY161061AY241061GF108991051021004501021999KA1240N+01521MA1999999092231MD1999999-0051MW1401REMSYN088AAXX  22124 83339 21495 81408 10173 20164 39223 40207 74064 8522/ 333 20152 59005 60054;
0182833390999992006062218004-14050-042617FM-12+088299999V0200901N004610042019N0100001N1+02231+01571101621ADDAA106000591AY161061AY241061GF106991061021004501001001MA1999999091901MD1999999-0071MW1021REMSYN082AAXX  22184 83339 21497 60909 10223 20157 39190 40162 70264 86200 333 59007 69941;
0168833390999992006062300004-14050-042617FM-12+088299999V0200901N004610042019N0020001N1+01801+01561101951ADDGF106991061021004501001001KA1240M+02281MA1999999092101MD1999999-0051REMSYN088AAXX  23004 83339 32495 60909 10180 20156 39210 40195 86200 333 10228 29083 55026 59005;
0201833390999992006062312004-14050-042617FM-12+088299999V0201401N004612200019N0100001N1+01461+01381102091ADDAA124000591AY161061AY241061GF104991031021004501001011KA1240N+01281MA1999999092191MD1999999-0041MW1021REMSYN088AAXX  23124 83339 21497 41409 10146 20138 39219 40209 70264 83201 333 20128 59004 69944;
0182833390999992006062318004-14050-042617FM-12+088299999V0200901N004612200019N0100001N1+01971+01331101731ADDAA106000591AY161061AY221061GF104991031021004501001011MA1999999091881MD1999999-0021MW1021REMSYN082AAXX  23184 83339 21497 40909 10197 20133 39188 40173 70262 83201 333 59002 69941;
0178833390999992006062400004-14050-042617FM-12+088299999V0201401N004112200019N0020001N1+01811+01221101941ADDGA1001+999999999GF100991001001999999001001KA1240M+02121MA1999999092051MD1999999-0051REMSYN082AAXX  24004 83339 32995 01408 10181 20122 39205 40194 333 10212 29074 55042 59005;
0201833390999992006062412004-14050-042617FM-12+088299999V0200901N005110042019N0020001N1+01591+01541101901ADDAA124002091AY161061AY241061GF108991051051004501021999KA1240N+01441MA1999999092041MD1999999-0151MW1601REMSYN088AAXX  24124 83339 21495 80910 10159 20154 39204 40190 76064 8552/ 333 20144 59015 60024;
0182833390999992006062418004-14050-042617FM-12+088299999V0200901N004610042019N0020001N1+01781+01731101671ADDAA106004191AY161061AY261061GF108991061051004501021999MA1999999091831MD1999999-0051MW1401REMSYN082AAXX  24184 83339 21495 80909 10178 20173 39183 40167 74066 8652/ 333 59005 60041;
0213833390999992006062500004-14050-042617FM-12+088299999V0201401N006210042019N0020001N1+01691+01651101871ADDAA106006191AY161061AY241061GF108991051051004501021999KA1240M+01821MA1999999091991MD1999999-0061MW1601REMSYN100AAXX  25004 83339 21495 81412 10169 20165 39199 40187 76064 8552/ 333 10182 29097 55000 59006 60061;
0201833390999992006062512004-14050-042617FM-12+088299999V0200901N003610042019N0020001N1+01601+01551102111ADDAA124017091AY161061AY241061GF108991051021004501021999KA1240N+01521MA1999999092211MD1999999+0171MW1401REMSYN088AAXX  25124 83339 21495 80907 10160 20155 39221 40211 74064 8522/ 333 20152 58017 60174;
0165833390999992006062518004-14050-042617FM-12+088299999V0200901N005112200019N0100001N1+02211+01271101551ADDAY141061AY221061GF102991021011004501001001MA1999999091801MD1999999-0031MW1021REMSYN076AAXX  25184 83339 31497 20910 10221 20127 39180 40155 70242 82100 333 59003;
0168833390999992006062600004-14050-042617FM-12+088299999V0201401N003112200019N0020001N1+01891+01381101851ADDGF103991031021004501001001KA1240M+02271MA1999999092011MD1999999+0021REMSYN088AAXX  26004 83339 32495 31406 10189 20138 39201 40185 83200 333 10227 29074 55075 58002;
0178833390999992006062700004-14050-042617FM-12+088299999V0201801N001012200019N0020001N1+01941+01591101671ADDGA1001+999999999GF100991001001999999001001KA1240M+02511MA1999999091931MD1999999-0081REMSYN082AAXX  27004 83339 32995 01802 10194 20159 39193 40167 333 10251 29074 55080 59008;
0184833390999992006062712004-14050-042617FM-12+088299999V0209999C000010042019N0020001N1+01681+01631101931ADDAY121061AY221061GF108991051021004501021999KA1240N+01511MA1999999092101MD1999999+0051MW1401REMSYN082AAXX  27124 83339 31495 80000 10168 20163 39210 40193 74022 8522/ 333 20151 58005;
0137833390999992006062718004-14050-042617FM-12+088299999V0200501N001512200019N0100001N1+02581+01431101381ADDGF103991021011004501001011MA1999999091731MD1999999+0021REMSYN070AAXX  27184 83339 32497 30503 10258 20143 39173 40138 82101 333 58002;
0178833390999992006062800004-14050-042617FM-12+088299999V0201801N001012200019N0020001N1+02131+01111101691ADDGA1001+999999999GF100991001001999999001001KA1240M+02651MA1999999091931MD1999999+0001REMSYN082AAXX  28004 83339 32995 01802 10213 20111 39193 40169 333 10265 29062 55077 58000;
0175833390999992006062812004-14050-042617FM-12+088299999V0200501N001012200019N0100001N1+02071+01681101811ADDGF102991001001999999001011KA1240N+01571MA1999999092121MD1999999+0021REMSYN076AAXX  28124 83339 32897 20502 10207 20168 39212 40181 80001 333 20157 58002;EQDQ01+022502SCOLCB
0137833390999992006062818004-14050-042617FM-12+088299999V0201401N005712200019N0100001N1+02511+01491101601ADDGF104991041021004501001001MA1999999091931MD1999999+0201REMSYN070AAXX  28184 83339 32497 41411 10251 20149 39193 40160 84200 333 58020;
0178833390999992006062900004-14050-042617FM-12+088299999V0201401N007712200019N0020001N1+01941+01511101911ADDGA1001+999999999GF100991001001999999001001KA1240M+02611MA1999999092161MD1999999+0231REMSYN082AAXX  29004 83339 32995 01415 10194 20151 39216 40191 333 10261 29071 55100 58023;
0156833390999992006063012004-14050-042617FM-12+088299999V0200901N007710042019N0100001N1+01581+01361102291ADDGF108991051021004501021999KA1240N+01461MA1999999092371MD1999999+0051REMSYN076AAXX  30124 83339 32497 80915 10158 20136 39237 40229 8522/ 333 20146 58005;
0137833390999992006063018004-14050-042617FM-12+088299999V0200901N005710042019N0100001N1+01991+01411101981ADDGF106991061021004501001001MA1999999092131MD1999999+0131REMSYN070AAXX  30184 83339 32497 60911 10199 20141 39213 40198 86200 333 58013;
0168833390999992006070100004-14050-042617FM-12+088299999V0201401N008210042019N0020001N1+01731+01371102161ADDGF105991051021004501001001KA1240M+02021MA1999999092251MD1999999+0011REMSYN088AAXX  01004 83339 32495 51416 10173 20137 39225 40216 85200 333 10202 29078 55003 58001;
0156833390999992006070112004-14050-042617FM-12+088299999V0201401N005112200019N0100001N1+01631+01241102271ADDGF104991031021004501001011KA1240N+01441MA1999999092371MD1999999+0001REMSYN076AAXX  01124 83339 32497 41410 10163 20124 39237 40227 83201 333 20144 58000;
0137833390999992006070118004-14050-042617FM-12+088299999V0201401N005112200019N0100001N1+02151+01251101871ADDGF102991021011004501001001MA1999999092071MD1999999-0061REMSYN070AAXX  01184 83339 32497 21410 10215 20125 39207 40187 82100 333 59006;
0168833390999992006070200004-14050-042617FM-12+088299999V0200901N005710042019N0020001N1+01751+01311102061ADDGF105991051021004501001001KA1240M+02221MA1999999092181MD1999999-0071REMSYN088AAXX  02004 83339 32495 50911 10175 20131 39218 40206 85200 333 10222 29071 55081 59007;
0156833390999992006070212004-14050-042617FM-12+088299999V0201401N008212200019N0100001N1+01601+01271102241ADDGF105991041021004501001011KA1240N+01401MA1999999092331MD1999999-0041REMSYN076AAXX  02124 83339 32497 51416 10160 20127 39233 40224 84201 333 20140 59004;
0137833390999992006070218004-14050-042617FM-12+088299999V0200901N004612200019N0100001N1+02211+01071101741ADDGF103991011011004501001011MA1999999091991MD1999999-0081REMSYN070AAXX  02184 83339 32497 30909 10221 20107 39199 40174 81101 333 59008;
0178833390999992006070300004-14050-042617FM-12+088299999V0200901N001012200019N0020001N1+01771+01231102051ADDGA1001+999999999GF100991001001999999001001KA1240M+02161MA1999999092171MD1999999-0011REMSYN082AAXX  03004 83339 32995 00902 10177 20123 39217 40205 333 10216 29067 55081 59001;
0184833390999992006070312004-14050-042617FM-12+088299999V0201401N004610042019N0020001N1+01631+01511102181ADDAY121061AY221061GF108991051021004501021999KA1240N+01551MA1999999092291MD1999999-0041MW1401REMSYN082AAXX  03124 83339 31495 81409 10163 20151 39229 40218 74022 8522/ 333 20155 59004;
0165833390999992006070318004-14050-042617FM-12+088299999V0200901N003110450019N0100001N1+01991+01461101861ADDAY141061AY221061GF106991041021004501021001MA1999999092041MD1999999+0051MW1021REMSYN076AAXX  03184 83339 31497 60906 10199 20146 39204 40186 70242 84220 333 58005;
0168833390999992006070400004-14050-042617FM-12+088299999V0200901N005110042019N0020001N1+01741+01431102071ADDGF105991051021004501001001KA1240M+02041MA1999999092191MD1999999+0021REMSYN088AAXX  04004 83339 32495 50910 10174 20143 39219 40207 85200 333 10204 29082 55003 58002;
0184833390999992006070412004-14050-042617FM-12+088299999V0200901N004110042019N0020001N1+01541+01441102241ADDAY121061AY221061GF108991051051004501021999KA1240N+01491MA1999999092331MD1999999+0041MW1401REMSYN082AAXX  04124 83339 31495 80908 10154 20144 39233 40224 74022 8552/ 333 20149 58004;
0165833390999992006070418004-14050-042617FM-12+088299999V0200901N005710042019N0100001N1+01931+01311101941ADDAY141061AY221061GF106991061021004501001001MA1999999092071MD1999999+0031MW1021REMSYN076AAXX  04184 83339 31497 60911 10193 20131 39207 40194 70242 86200 333 58003;
0168833390999992006070500004-14050-042617FM-12+088299999V0200901N004111050019N0020001N1+01691+01331102141ADDGF105991021011004501031011KA1240M+01981MA1999999092211MD1999999+0021REMSYN088AAXX  05004 83339 32495 50908 10169 20133 39221 40214 82131 333 10198 29080 55002 58002;
0156833390999992006070512004-14050-042617FM-12+088299999V0200901N002610042019N0100001N1+01551+01341102141ADDGF106991051021004501001011KA1240N+01481MA1999999092211MD1999999-0121REMSYN076AAXX  05124 83339 32497 60905 10155 20134 39221 40214 85201 333 20148 59012;
0137833390999992006070518004-14050-042617FM-12+088299999V0200901N003110450019N0100001N1+02171+01181101691ADDGF108991031011004501021999MA1999999091911MD1999999-0161REMSYN070AAXX  05184 83339 32497 80906 10217 20118 39191 40169 8312/ 333 59016;
0168833390999992006070600004-14050-042617FM-12+088299999V0200901N001012200019N0020001N1+01761+01271101951ADDGF104991011011004501001011KA1240M+02261MA1999999092101MD1999999-0111REMSYN088AAXX  06004 83339 32495 40902 10176 20127 39210 40195 81101 333 10226 29072 55026 59011;
0156833390999992006070612004-14050-042617FM-12+088299999V0201401N003112200019N0100001N1+01661+01311102211ADDGF106991031021004501001011KA1240N+01241MA1999999092321MD1999999+0111REMSYN076AAXX  06124 83339 32497 61406 10166 20131 39232 40221 83201 333 20124 58011;
0137833390999992006070618004-14050-042617FM-12+088299999V0201401N004612200019N0100001N1+02351+01231101731ADDGF105991031011004501001011MA1999999091961MD1999999+0051REMSYN070AAXX  06184 83339 32497 51409 10235 20123 39196 40173 83101 333 58005;
0168833390999992006070700004-14050-042617FM-12+088299999V0201401N003612200019N0020001N1+01951+01421102071ADDGF102991021011004501001001KA1240M+02501MA1999999092211MD1999999+0111REMSYN088AAXX  07004 83339 32495 21407 10195 20142 39221 40207 82100 333 10250 29068 55081 58011;
0137833390999992006070718004-14050-042617FM-12+088299999V0200901N005112200019N0100001N1+02341+01381101661ADDGF102991021011004501001001MA1999999091941MD1999999-0021REMSYN070AAXX  07184 83339 32497 20910 10234 20138 39194 40166 82100 333 59002;
0178833390999992006070800004-14050-042617FM-12+088299999V0200901N002612200019N0020001N1+01901+01301101891ADDGA1001+999999999GF100991001001999999001001KA1240M+02391MA1999999092111MD1999999-0101REMSYN082AAXX  08004 83339 32995 00905 10190 20130 39211 40189 333 10239 29068 55101 59010;
0156833390999992006070812004-14050-042617FM-12+088299999V0200901N003112200019N0100001N1+01801+01411102161ADDGF102991021011004501001001KA1240N+01371MA1999999092231MD1999999-0051REMSYN076AAXX  08124 83339 32497 20906 10180 20141 39223 40216 82100 333 20137 59005;
0137833390999992006070818004-14050-042617FM-12+088299999V0201401N003112200019N0100001N1+02411+01341101511ADDGF102991021011004501001001MA1999999091781MD1999999-0161REMSYN070AAXX  08184 83339 32497 21406 10241 20134 39178 40151 82100 333 59016;
0166833390999992006070912004-14050-042617FM-12+088299999V0200501N001012200019N0100001N1+01801+01271101881ADDGA1001+999999999GF100991001001999999001001KA1240N+01241MA1999999092091MD1999999-0141REMSYN070AAXX  09124 83339 32997 00502 10180 20127 39209 40188 333 20124 59014;
0147833390999992006070918004-14050-042617FM-12+088299999V0200501N002112200019N0100001N1+02621+00951101321ADDGA1001+999999999GF100991001001999999001001MA1999999091641MD1999999-0141REMSYN064AAXX  09184 83339 32997 00504 10262 20095 39164 40132 333 59014;
0194833390999992006071012004-14050-042617FM-12+088299999V0200901N003112200019N0100001N1+01821+01451101701ADDAY101061AY201061GA1001+999999999GF100991001001999999001001KA1240N+01281MA1999999091941MD1999999-0151MW1101REMSYN076AAXX  10124 83339 31997 00906 10182 20145 39194 40170 71000 333 20128 59015;
0147833390999992006071018004-14050-042617FM-12+088299999V0201401N003612200019N0100001N1+02491+01301101361ADDGA1001+999999999GF100991001001999999001001MA1999999091661MD1999999+0021REMSYN064AAXX  10184 83339 32997 01407 10249 20130 39166 40136 333 58002;
0178833390999992006071100004-14050-042617FM-12+088299999V0201801N002612200019N0020001N1+01911+01231101671ADDGA1001+999999999GF100991001001999999001001KA1240M+02641MA1999999091891MD1999999+0031REMSYN082AAXX  11004 83339 32995 01805 10191 20123 39189 40167 333 10264 29063 55106 58003;
0184833390999992006071112004-14050-042617FM-12+088299999V0200501N004610042019N0040001N1+01751+01491101881ADDAY101061AY201061GF106991061021004501001001KA1240N+01481MA1999999092081MD1999999+0141MW1101REMSYN082AAXX  11124 83339 31496 60509 10175 20149 39208 40188 71000 86200 333 20148 58014;
0137833390999992006071118004-14050-042617FM-12+088299999V0201401N006210042019N0100001N1+02171+01591101681ADDGF106991061021004501001001MA1999999091901MD1999999+0241REMSYN070AAXX  11184 83339 32497 61412 10217 20159 39190 40168 86200 333 58024;
0168833390999992006071200004-14050-042617FM-12+088299999V0200901N003612200019N0020001N1+01871+01391101861ADDGF102991021021004501001001KA1240M+02261MA1999999092041MD1999999+0151REMSYN088AAXX  12004 83339 32495 20907 10187 20139 39204 40186 82200 333 10226 29074 55043 58015;
0201833390999992006071212004-14050-042617FM-12+088299999V0200501N006710042019N0040001N1+01691+01681101921ADDAA124000891AY161061AY261061GF108991081051004501999999KA1240N+01541MA1999999092091MD1999999+0011MW1101REMSYN088AAXX  12124 83339 21496 80513 10169 20168 39209 40192 71066 885// 333 20154 58001 69984;
0137833390999992006071218004-14050-042617FM-12+088299999V0201401N005112200019N0100001N1+02191+01371101671ADDGF103991031021004501001001MA1999999091891MD1999999-0011REMSYN070AAXX  12184 83339 32497 31410 10219 20137 39189 40167 83200 333 59001;
0168833390999992006071300004-14050-042617FM-12+088299999V0200901N007710042019N0020001N1+01911+01451101891ADDGF106991061021004501001001KA1240M+02321MA1999999092061MD1999999+0021REMSYN088AAXX  13004 83339 32495 60915 10191 20145 39206 40189 86200 333 10232 29076 55057 58002;
0201833390999992006071312004-14050-042617FM-12+088299999V0201401N010810042019N0040001N1+01531+01501101951ADDAA124002091AY161061AY261061GF108991081051004501999999KA1240N+01501MA1999999092081MD1999999-0011MW1501REMSYN088AAXX  13124 83339 21496 81421 10153 20150 39208 40195 75066 885// 333 20150 59001 60024;
0165833390999992006071318004-14050-042617FM-12+088299999V0200501N005710042019N0040001N1+01811+01751101931ADDAY101061AY251061GF108991081051004501999999MA1999999092031MD1999999+0141MW1501REMSYN076AAXX  13184 83339 31496 80511 10181 20175 39203 40193 75005 885// 333 58014;
0196833390999992006071400004-14050-042617FM-12+088299999V0200901N003612200019N0020001N1+01651+01371102011ADDAY101061AY201061GF102991021021004501001001KA1240M+02081MA1999999092101MD1999999+0041MW1101REMSYN094AAXX  14004 83339 31495 20907 10165 20137 39210 40201 71000 82200 333 10208 29090 55022 58004;
0184833390999992006071412004-14050-042617FM-12+088299999V0200501N011310042019N0040001N1+01431+01341102021ADDAY101061AY201061GF107991061021004501021999KA1240N+01321MA1999999092081MD1999999+0001MW1101REMSYN082AAXX  14124 83339 31496 70522 10143 20134 39208 40202 71000 8622/ 333 20132 58000;
0137833390999992006071418004-14050-042617FM-12+088299999V0201401N008212200019N0100001N1+02171+00811101721ADDGF103991031021004501001001MA1999999091871MD1999999-0161REMSYN070AAXX  14184 83339 32497 31416 10217 20081 39187 40172 83200 333 59016;
0178833390999992006071500004-14050-042617FM-12+088299999V0200901N003612200019N0020001N1+01681+01041101931ADDGA1001+999999999GF100991001001999999001001KA1240M+02571MA1999999092031MD1999999-0071REMSYN082AAXX  15004 83339 32995 00907 10168 20104 39203 40193 333 10257 29068 55083 59007;
0184833390999992006071512004-14050-042617FM-12+088299999V0203601N005110042019N0040001N1+01521+01421102151ADDAY101061AY201061GF108991081051004501999999KA1240N+01421MA1999999092221MD1999999+0141MW1101REMSYN082AAXX  15124 83339 31496 83610 10152 20142 39222 40215 71000 885// 333 20142 58014;
0137833390999992006071518004-14050-042617FM-12+088299999V0201401N003612200019N0100001N1+02111+01291101761ADDGF104991031021004501001021MA1999999091931MD1999999+0061REMSYN070AAXX  15184 83339 32497 41407 10211 20129 39193 40176 83202 333 58006;
0184833390999992006071612004-14050-042617FM-12+088299999V0200501N008710042019N0040001N1+01621+01541102001ADDAY101061AY201061GF108991081051004501999999KA1240N+01521MA1999999092131MD1999999-0091MW1101REMSYN082AAXX  16124 83339 31496 80517 10162 20154 39213 40200 71000 885// 333 20152 59009;
0137833390999992006071618004-14050-042617FM-12+088299999V0201401N008210042019N0100001N1+02171+01541101651ADDGF105991051021004501001001MA1999999091871MD1999999-0061REMSYN070AAXX  16184 83339 32497 51416 10217 20154 39187 40165 85200 333 59006;
0156833390999992006071712004-14050-042617FM-12+088299999V0200901N009812200019N0100001N1+01631+01281102201ADDGF102991021021004501001001KA1240N+01391MA1999999092311MD1999999+0181REMSYN076AAXX  17124 83339 32497 20919 10163 20128 39231 40220 82200 333 20139 58018;
0137833390999992006071718004-14050-042617FM-12+088299999V0201401N005712200019N0100001N1+02251+01011101741ADDGF102991021011004501001001MA1999999091951MD1999999+0081REMSYN070AAXX  17184 83339 32497 21411 10225 20101 39195 40174 82100 333 58008;
0178833390999992006071800004-14050-042617FM-12+088299999V0201401N006212200019N0020001N1+01771+01141102011ADDGA1001+999999999GF100991001001999999001001KA1240M+02281MA1999999092141MD1999999+0081REMSYN082AAXX  18004 83339 32995 01412 10177 20114 39214 40201 333 10228 29064 55091 58008;
0156833390999992006071812004-14050-042617FM-12+088299999V0200901N006212200019N0100001N1+01651+01171102001ADDGF102991021011004501001001KA1240N+01311MA1999999092131MD1999999-0181REMSYN076AAXX  18124 83339 32497 20912 10165 20117 39213 40200 82100 333 20131 59018;
0147833390999992006071818004-14050-042617FM-12+088299999V0201401N006212200019N0100001N1+02271+00781101481ADDGA1001+999999999GF100991001001999999001001MA1999999091721MD1999999-0231REMSYN064AAXX  18184 83339 32997 01412 10227 20078 39172 40148 333 59023;
0175833390999992006071912004-14050-042617FM-12+088299999V0200901N002112200019N0100001N1+01711+01311101901ADDGF102991001001999999001011KA1240N+01121MA1999999092041MD1999999-0091REMSYN076AAXX  19124 83339 32897 20904 10171 20131 39204 40190 80001 333 20112 59009;EQDQ01+022502SCOLCB
0137833390999992006071918004-14050-042617FM-12+088299999V0202301N001010042019N0100001N1+02391+01101101491ADDGF106991061021004501001001MA1999999091711MD1999999-0011REMSYN070AAXX  19184 83339 32497 62302 10239 20110 39171 40149 86200 333 59001;
0178833390999992006072000004-14050-042617FM-12+088299999V0202301N001512200019N0020001N1+01941+01071101671ADDGA1001+999999999GF100991001001999999001001KA1240M+02451MA1999999091871MD1999999-0101REMSYN082AAXX  20004 83339 32995 02303 10194 20107 39187 40167 333 10245 29059 55075 59010;
0166833390999992006072012004-14050-042617FM-12+088299999V0200501N002112200019N0100001N1+01851+01261101921ADDGA1001+999999999GF100991001001999999001001KA1240N+01301MA1999999092141MD1999999+0101REMSYN070AAXX  20124 83339 32997 00504 10185 20126 39214 40192 333 20130 58010;
0137833390999992006072018004-14050-042617FM-12+088299999V0201401N003112200019N0100001N1+02551+00861101481ADDGF102991021011004501001001MA1999999091771MD1999999+0061REMSYN070AAXX  20184 83339 32497 21406 10255 20086 39177 40148 82100 333 58006;
0178833390999992006072100004-14050-042617FM-12+088299999V0201401N003112200019N0020001N1+01991+00531101781ADDGA1001+999999999GF100991001001999999001001KA1240M+02611MA1999999092011MD1999999+0141REMSYN082AAXX  21004 83339 32995 01406 10199 20053 39201 40178 333 10261 29044 55102 58014;
0166833390999992006072112004-14050-042617FM-12+088299999V0200901N003112200019N0100001N1+02001+00741101991ADDGA1001+999999999GF100991001001999999001001KA1240N+01331MA1999999092241MD1999999+0101REMSYN070AAXX  21124 83339 32997 00906 10200 20074 39224 40199 333 20133 58010;
0147833390999992006072118004-14050-042617FM-12+088299999V0200901N003112200019N0100001N1+02451+00591101601ADDGA1001+999999999GF100991001001999999001001MA1999999091861MD1999999+0091REMSYN064AAXX  21184 83339 32997 00906 10245 20059 39186 40160 333 58009;
0178833390999992006072200004-14050-042617FM-12+088299999V0200901N001012200019N0020001N1+01931+00581101741ADDGA1001+999999999GF100991001001999999001001KA1240M+02601MA1999999091991MD1999999-0021REMSYN082AAXX  22004 83339 32995 00902 10193 20058 39199 40174 333 10260 29039 55107 59002;
0166833390999992006072212004-14050-042617FM-12+088299999V0200901N004612200019N0100001N1+01781+00941101981ADDGA1001+999999999GF100991001001999999001001KA1240N+01321MA1999999092171MD1999999-0071REMSYN070AAXX  22124 83339 32997 00909 10178 20094 39217 40198 333 20132 59007;
0147833390999992006072218004-14050-042617FM-12+088299999V0200901N004112200019N0100001N1+02361+00501101501ADDGA1001+999999999GF100991001001999999001001MA1999999091771MD1999999-0091REMSYN064AAXX  22184 83339 32997 00908 10236 20050 39177 40150 333 59009;
0178833390999992006072300004-14050-042617FM-12+088299999V0201401N001012200019N0020001N1+01831+00841101741ADDGA1001+999999999GF100991001001999999001001KA1240M+02431MA1999999091941MD1999999-0051REMSYN082AAXX  23004 83339 32995 01402 10183 20084 39194 40174 333 10243 29048 55107 59005;
0156833390999992006072312004-14050-042617FM-12+088299999V0200901N004110042019N0100001N1+01631+01161101881ADDGF105991051021004501001001KA1240N+01121MA1999999092041MD1999999-0131REMSYN076AAXX  23124 83339 32497 50908 10163 20116 39204 40188 85200 333 20112 59013;
0147833390999992006072318004-14050-042617FM-12+088299999V0200901N003112200019N0100001N1+02471+01301101471ADDGA1001+999999999GF100991001001999999001001MA1999999091681MD1999999-0091REMSYN064AAXX  23184 83339 32997 00906 10247 20130 39168 40147 333 59009;
0178833390999992006072400004-14050-042617FM-12+088299999V0209999C000012200019N0020001N1+01941+01311101611ADDGA1001+999999999GF100991001001999999001001KA1240M+02501MA1999999091821MD1999999-0121REMSYN082AAXX  24004 83339 32995 00000 10194 20131 39182 40161 333 10250 29064 55095 59012;
0201833390999992006072412004-14050-042617FM-12+088299999V0201401N004110042019N0040001N1+01751+01711101741ADDAA124000591AY161061AY261061GF108991081051004501999999KA1240N+01581MA1999999091951MD1999999-0091MW1501REMSYN088AAXX  24124 83339 21496 81408 10175 20171 39195 40174 75066 885// 333 20158 59009 69954;
0182833390999992006072418004-14050-042617FM-12+088299999V0203201N002112200019N0100001N1+02371+01491101341ADDAA106000021AY161061AY261061GF103991031021004501001001MA1999999091691MD1999999+0011MW1021REMSYN082AAXX  24184 83339 21497 33204 10237 20149 39169 40134 70266 83200 333 58001 69921;
0178833390999992006072500004-14050-042617FM-12+088299999V0200901N003112200019N0020001N1+01971+01261101521ADDGA1001+999999999GF100991001001999999001001KA1240M+02481MA1999999091751MD1999999-0071REMSYN082AAXX  25004 83339 32995 00906 10197 20126 39175 40152 333 10248 29070 55052 59007;
0201833390999992006072512004-14050-042617FM-12+088299999V0200501N005112200019N0100001N1+01791+01231101641ADDAA124000021AY161061AY261061GF102991021021004501001001KA1240N+01401MA1999999091881MD1999999-0071MW1021REMSYN088AAXX  25124 83339 21497 20510 10179 20123 39188 40164 70266 82200 333 20140 59007 69924;
0147833390999992006072518004-14050-042617FM-12+088299999V0200901N005112200019N0100001N1+02491+00271101241ADDGA1001+999999999GF100991001001999999001001MA1999999091581MD1999999-0111REMSYN064AAXX  25184 83339 32997 00910 10249 20027 39158 40124 333 59011;
0178833390999992006072600004-14050-042617FM-12+088299999V0201801N004112200019N0020001N1+01941+00401101521ADDGA1001+999999999GF100991001001999999001001KA1240M+02571MA1999999091751MD1999999+0001REMSYN082AAXX  26004 83339 32995 01808 10194 20040 39175 40152 333 10257 29038 55108 58000;
0203833390999992006072612004-14050-042617FM-12+088299999V0201401N003110042019N0040001N1+01591+01421101771ADDAY101061AY201061GF108991081051004501999999KA1240N+99999MA1999999091941MD1999999+0061MW1101REMSYN082AAXX  26124 83339 31496 81406 10159 20142 39194 40177 71000 885// 333 20193 58006;EQDQ01 +01932ATMN  
0147833390999992006072618004-14050-042617FM-12+088299999V0203201N001012200019N0100001N1+02651+00641101261ADDGA1001+999999999GF100991001001999999001001MA1999999091621MD1999999+0041REMSYN064AAXX  26184 83339 32997 03202 10265 20064 39162 40126 333 58004;
0178833390999992006072700004-14050-042617FM-12+088299999V0202301N002612200019N0020001N1+01991+00751101541ADDGA1001+999999999GF100991001001999999001001KA1240M+02701MA1999999091751MD1999999+0001REMSYN082AAXX  27004 83339 32995 02305 10199 20075 39175 40154 333 10270 29052 55078 58000;
0184833390999992006072712004-14050-042617FM-12+088299999V0201401N002110042019N0040001N1+01791+01561101701ADDAY101061AY201061GF107991061021004501021999KA1240N+01531MA1999999091941MD1999999+0001MW1101REMSYN082AAXX  27124 83339 31496 71404 10179 20156 39194 40170 71000 8622/ 333 20153 58000;
0137833390999992006072718004-14050-042617FM-12+088299999V0201801N003112200019N0100001N1+02671+01081101221ADDGF102991021021004501001001MA1999999091601MD1999999-0021REMSYN070AAXX  27184 83339 32497 21806 10267 20108 39160 40122 82200 333 59002;
0178833390999992006072800004-14050-042617FM-12+088299999V0200901N004112200019N0020001N1+02111+01161101481ADDGA1001+999999999GF100991001001999999001001KA1240M+02741MA1999999091751MD1999999+0001REMSYN082AAXX  28004 83339 32995 00908 10211 20116 39175 40148 333 10274 29058 55071 58000;
0184833390999992006072812004-14050-042617FM-12+088299999V0200901N002110042019N0040001N1+01671+01561101171ADDAY101061AY201061GF108991081051004501999999KA1240N+01151MA1999999091941MD1999999+0001MW1101REMSYN082AAXX  28124 83339 31496 80904 10167 20156 39194 40117 71000 885// 333 20115 58000;
0137833390999992006072818004-14050-042617FM-12+088299999V0201401N001512200019N0100001N1+02751+00731101171ADDGF102991011021004501021001MA1999999091571MD1999999-0031REMSYN070AAXX  28184 83339 32497 21403 10275 20073 39157 40117 81220 333 59003;
0178833390999992006072900004-14050-042617FM-12+088299999V0201801N003112200019N0020001N1+02191+01031101371ADDGA1001+999999999GF100991001001999999001001KA1240M+02741MA1999999091651MD1999999-0101REMSYN082AAXX  29004 83339 32995 01806 10219 20103 39165 40137 333 10274 29054 55078 59010;
0166833390999992006072912004-14050-042617FM-12+088299999V0200501N001512200019N0100001N1+02091+01491101431ADDGA1001+999999999GF100991001001999999001001KA1240N+01461MA1999999091791MD1999999-0151REMSYN070AAXX  29124 83339 32997 00503 10209 20149 39179 40143 333 20146 59015;
0137833390999992006072918004-14050-042617FM-12+088299999V0201401N003112200019N0100001N1+02911+00761100941ADDGF102991021021004501001001MA1999999091411MD1999999-0161REMSYN070AAXX  29184 83339 32497 21406 10291 20076 39141 40094 82200 333 59016;
0168833390999992006073000004-14050-042617FM-12+088299999V0201801N001512200019N0020001N1+02431+00781101131ADDGF102991021021004501001001KA1240M+03081MA1999999091561MD1999999-0091REMSYN088AAXX  30004 83339 32495 21803 10243 20078 39156 40113 82200 333 10308 29045 55105 59009;
0166833390999992006073012004-14050-042617FM-12+088299999V0203601N001012200019N0100001N1+02151+01431101361ADDGA1001+999999999GF100991001001999999001001KA1240N+01701MA1999999091791MD1999999+0001REMSYN070AAXX  30124 83339 32997 03602 10215 20143 39179 40136 333 20170 58000;
0137833390999992006073018004-14050-042617FM-12+088299999V0201401N004112200019N0100001N1+02991+00881100991ADDGF102991021021004501001001MA1999999091491MD1999999+0081REMSYN070AAXX  30184 83339 32497 21408 10299 20088 39149 40099 82200 333 58008;
0178833390999992006073100004-14050-042617FM-12+088299999V0200901N004612200019N0020001N1+02531+00691101341ADDGA1001+999999999GF100991001001999999001001KA1240M+03141MA1999999091791MD1999999+0231REMSYN082AAXX  31004 83339 32995 00909 10253 20069 39179 40134 333 10314 29038 55104 58023;
0156833390999992006073112004-14050-042617FM-12+088299999V0200901N007712200019N0100001N1+01941+01511101851ADDGF104991041021004501001001KA1240N+01741MA1999999092211MD1999999+0421REMSYN076AAXX  31124 83339 32497 40915 10194 20151 39221 40185 84200 333 20174 58042;
0147833390999992006073118004-14050-042617FM-12+088299999V0200901N006712200019N0100001N1+02631+01391101491ADDGA1001+999999999GF100991001001999999001001MA1999999091911MD1999999+0421REMSYN064AAXX  31184 83339 32997 00913 10263 20139 39191 40149 333 58042;
0178833390999992006080100004-14050-042617FM-12+088299999V0200901N005712200019N0020001N1+02201+01411101851ADDGA1001+999999999GF100991001001999999001001KA1240M+02701MA1999999092131MD1999999+0341REMSYN082AAXX  01004 83339 32995 00911 10220 20141 39213 40185 333 10270 29061 55089 58034;
0175833390999992006080112004-14050-042617FM-12+088299999V0200901N007219999999N0100001N1+01991+01481102111ADDGF105991999021004501001001KA1240N+01721MA1999999092391MD1999999+0181REMSYN076AAXX  01124 83339 32497 50914 10199 20148 39239 40211 86200 333 20172 58018;EQDQ01+000062SCOTLC
0147833390999992006080118004-14050-042617FM-12+088299999V0200901N005112200019N0100001N1+02681+01121101601ADDGA1001+999999999GF100991001001999999001001MA1999999092031MD1999999+0121REMSYN064AAXX  01184 83339 32997 00910 10268 20112 39203 40160 333 58012;
0178833390999992006080200004-14050-042617FM-12+088299999V0200901N006712200019N0020001N1+02161+01381101831ADDGA1001+999999999GF100991001001999999001001KA1240M+02721MA1999999092111MD1999999-0021REMSYN082AAXX  02004 83339 32995 00913 10216 20138 39211 40183 333 10272 29058 55099 59002;
0156833390999992006080212004-14050-042617FM-12+088299999V0201401N002610042019N0100001N1+01821+01581102051ADDGF106991061021004501001001KA1240N+01621MA1999999092291MD1999999-0101REMSYN076AAXX  02124 83339 32497 61405 10182 20158 39229 40205 86200 333 20162 59010;
0147833390999992006080218004-14050-042617FM-12+088299999V0201401N005112200019N0100001N1+02661+01231101441ADDGA1001+999999999GF100991001001999999001001MA1999999091821MD1999999-0211REMSYN064AAXX  02184 83339 32997 01410 10266 20123 39182 40144 333 59021;
0178833390999992006080300004-14050-042617FM-12+088299999V0200901N002112200019N0020001N1+02131+01251101771ADDGA1001+999999999GF100991001001999999001001KA1240M+02721MA1999999092021MD1999999-0091REMSYN082AAXX  03004 83339 32995 00904 10213 20125 39202 40177 333 10272 29060 55082 59009;
0156833390999992006080312004-14050-042617FM-12+088299999V0201401N005710042019N0100001N1+01891+01531101941ADDGF106991061021004501001001KA1240N+01681MA1999999092191MD1999999-0101REMSYN076AAXX  03124 83339 32497 61411 10189 20153 39219 40194 86200 333 20168 59010;
0137833390999992006080318004-14050-042617FM-12+088299999V0200901N006712200019N0100001N1+02541+01231101471ADDGF102991021011004501001001MA1999999091831MD1999999+0011REMSYN070AAXX  03184 83339 32497 20913 10254 20123 39183 40147 82100 333 58001;
0178833390999992006080400004-14050-042617FM-12+088299999V0201801N001512200019N0020001N1+02121+01181101741ADDGA1001+999999999GF100991001001999999001001KA1240M+02601MA1999999092011MD1999999-0011REMSYN082AAXX  04004 83339 32995 01803 10212 20118 39201 40174 333 10260 29058 55089 59001;
0156833390999992006080412004-14050-042617FM-12+088299999V0201801N005712200019N0100001N1+01911+01451101881ADDGF104991041021004501001001KA1240N+01621MA1999999092141MD1999999-0051REMSYN076AAXX  04124 83339 32497 41811 10191 20145 39214 40188 84200 333 20162 59005;
0137833390999992006080418004-14050-042617FM-12+088299999V0200901N004112200019N0100001N1+02431+01241101431ADDGF103991031021004501001001MA1999999091751MD1999999-0081REMSYN070AAXX  04184 83339 32497 30908 10243 20124 39175 40143 83200 333 59008;
0178833390999992006080500004-14050-042617FM-12+088299999V0201801N003112200019N0020001N1+02011+01291101671ADDGA1001+999999999GF100991001001999999001001KA1240M+02531MA1999999091931MD1999999-0081REMSYN082AAXX  05004 83339 32995 01806 10201 20129 39193 40167 333 10253 29062 55103 59008;
0156833390999992006080512004-14050-042617FM-12+088299999V0200901N005710042019N0100001N1+01921+01381101881ADDGF105991051021004501001001KA1240N+01601MA1999999092121MD1999999-0021REMSYN076AAXX  05124 83339 32497 50911 10192 20138 39212 40188 85200 333 20160 59002;
0137833390999992006080518004-14050-042617FM-12+088299999V0200901N006212200019N0100001N1+02431+01241101521ADDGF104991041021004501001001MA1999999091841MD1999999+0091REMSYN070AAXX  05184 83339 32497 40912 10243 20124 39184 40152 84200 333 58009;
0168833390999992006080600004-14050-042617FM-12+088299999V0200901N003610450019N0020001N1+01991+01481101781ADDGF105991041021004501031001KA1240M+02491MA1999999092031MD1999999+0101REMSYN088AAXX  06004 83339 32495 50907 10199 20148 39203 40178 84230 333 10249 29066 55105 58010;
0156833390999992006080612004-14050-042617FM-12+088299999V0200901N006210042019N0100001N1+01781+01411102001ADDGF106991061021004501001001KA1240N+01541MA1999999092211MD1999999+0091REMSYN076AAXX  06124 83339 32497 60912 10178 20141 39221 40200 86200 333 20154 58009;
0156833390999992006080618004-14050-042617FM-12+088299999V0200901N006712200019N0100001N1+02361+01201101591ADDGF103991031021004501001001MA1999999091182MD1999999+0011REMSYN070AAXX  06184 83339 32497 30913 10236 20120 39118 40159 83200 333 58001;EQDQ01+091183APOSP 
0168833390999992006080700004-14050-042617FM-12+088299999V0200901N005112200019N0020001N1+01931+01271101771ADDGF102991021021004501001001KA1240M+02461MA1999999091981MD1999999-0051REMSYN088AAXX  07004 83339 32495 20910 10193 20127 39198 40177 82200 333 10246 29064 55081 59005;
0156833390999992006080712004-14050-042617FM-12+088299999V0201401N006212200019N0100001N1+01731+01211101791ADDGF104991041021004501001001KA1240N+01401MA1999999092001MD1999999-0211REMSYN076AAXX  07124 83339 32497 41412 10173 20121 39200 40179 84200 333 20140 59021;
0147833390999992006080718004-14050-042617FM-12+088299999V0200901N007712200019N0100001N1+02331+00511101491ADDGA1001+999999999GF100991001001999999001001MA1999999091761MD1999999-0091REMSYN064AAXX  07184 83339 32997 00915 10233 20051 39176 40149 333 59009;
0168833390999992006080800004-14050-042617FM-12+088299999V0200501N002112200019N0020001N1+01791+00631101791ADDGF103991021021004501021001KA1240M+02381MA1999999091951MD1999999-0031REMSYN088AAXX  08004 83339 32495 30504 10179 20063 39195 40179 82220 333 10238 29050 55092 59003;
0156833390999992006080812004-14050-042617FM-12+088299999V0201401N004112200019N0100001N1+01751+01231101641ADDGF102991021021004501001001KA1240N+01331MA1999999092001MD1999999+0001REMSYN076AAXX  08124 83339 32497 21408 10175 20123 39200 40164 82200 333 20133 58000;
0137833390999992006080818004-14050-042617FM-12+088299999V0200901N004610042019N0100001N1+02371+01101101441ADDGF106991061021004501001001MA1999999091741MD1999999-0021REMSYN070AAXX  08184 83339 32497 60909 10237 20110 39174 40144 86200 333 59002;
0168833390999992006080900004-14050-042617FM-12+088299999V0203201N001512200019N0020001N1+01891+01211101691ADDGF104991031021004501031001KA1240M+02481MA1999999091891MD1999999-0061REMSYN088AAXX  09004 83339 32495 43203 10189 20121 39189 40169 83230 333 10248 29062 55101 59006;
0201833390999992006080912004-14050-042617FM-12+088299999V0200501N008210042019N0040001N1+01571+01531101801ADDAA124000391AY161061AY261061GF108991081051004501999999KA1240N+01541MA1999999091961MD1999999-0041MW1101REMSYN088AAXX  09124 83339 21496 80516 10157 20153 39196 40180 71066 885// 333 20154 59004 69934;
0137833390999992006080918004-14050-042617FM-12+088299999V0200901N005112200019N0100001N1+02331+01451101401ADDGF103991031021004501001001MA1999999091731MD1999999-0011REMSYN070AAXX  09184 83339 32497 30910 10233 20145 39173 40140 83200 333 59001;
0168833390999992006081000004-14050-042617FM-12+088299999V0201401N004112200019N0020001N1+01991+01591101691ADDGF102991021021004501001001KA1240M+02441MA1999999091891MD1999999+0001REMSYN088AAXX  10004 83339 32495 21408 10199 20159 39189 40169 82200 333 10244 29078 55062 58000;
0184833390999992006081012004-14050-042617FM-12+088299999V0203201N004110042019N0100001N1+01791+01451101811ADDAY101061AY201061GF106991051021004501021001KA1240N+01541MA1999999092041MD1999999+0081MW1101REMSYN082AAXX  10124 83339 31497 63208 10179 20145 39204 40181 71000 85220 333 20154 58008;
0156833390999992006081112004-14050-042617FM-12+088299999V0203601N005710042019N0100001N1+01911+01271101681ADDGF106991061021004501001001KA1240N+01601MA1999999091941MD1999999-0101REMSYN076AAXX  11124 83339 32497 63611 10191 20127 39194 40168 86200 333 20160 59010;
0147833390999992006081118004-14050-042617FM-12+088299999V0200501N006712200019N0100001N1+02411+00761101381ADDGA1001+999999999GF100991001001999999001001MA1999999091681MD1999999-0051REMSYN064AAXX  11184 83339 32997 00513 10241 20076 39168 40138 333 59005;
0184833390999992006081212004-14050-042617FM-12+088299999V0200501N008210042019N0040001N1+01731+01521101731ADDAY101061AY201061GF108991081051004501999999KA1240N+01561MA1999999091961MD1999999+0021MW1101REMSYN082AAXX  12124 83339 31496 80516 10173 20152 39196 40173 71000 885// 333 20156 58002;
0137833390999992006081218004-14050-042617FM-12+088299999V0201801N007212200019N0100001N1+02471+01191101351ADDGF103991031021004501001001MA1999999091701MD1999999+0021REMSYN070AAXX  12184 83339 32497 31814 10247 20119 39170 40135 83200 333 58002;
0178833390999992006081300004-14050-042617FM-12+088299999V0201401N006212200019N0020001N1+02031+01391101671ADDGA1001+999999999GF100991001001999999001001KA1240M+02541MA1999999091911MD1999999+0021REMSYN082AAXX  13004 83339 32995 01412 10203 20139 39191 40167 333 10254 29066 55075 58002;
0156833390999992006081312004-14050-042617FM-12+088299999V0200901N006212200019N0100001N1+01991+01421101701ADDGF104991041021004501001001KA1240N+01701MA1999999091971MD1999999+0011REMSYN076AAXX  13124 83339 32497 40912 10199 20142 39197 40170 84200 333 20170 58001;
0137833390999992006081318004-14050-042617FM-12+088299999V0202301N004612200019N0100001N1+02451+01171101361ADDGF102991021021004501001001MA1999999091691MD1999999-0011REMSYN070AAXX  13184 83339 32497 22309 10245 20117 39169 40136 82200 333 59001;
0178833390999992006081400004-14050-042617FM-12+088299999V0201401N006212200019N0020001N1+02071+00951101491ADDGA1001+999999999GF100991001001999999001001KA1240M+02601MA1999999091811MD1999999-0101REMSYN082AAXX  14004 83339 32995 01412 10207 20095 39181 40149 333 10260 29054 55094 59010;
0166833390999992006081412004-14050-042617FM-12+088299999V0200901N005112200019N0100001N1+02001+01171101671ADDGA1001+999999999GF100991001001999999001001KA1240N+01501MA1999999091971MD1999999+0001REMSYN070AAXX  14124 83339 32997 00910 10200 20117 39197 40167 333 20150 58000;
0137833390999992006081418004-14050-042617FM-12+088299999V0200501N006712200019N0100001N1+02611+01191101261ADDGF104991041011004501001001MA1999999091621MD1999999-0071REMSYN070AAXX  14184 83339 32497 40513 10261 20119 39162 40126 84100 333 59007;
0178833390999992006081500004-14050-042617FM-12+088299999V0200901N003612200019N0020001N1+02111+01391101451ADDGA1001+999999999GF100991001001999999001001KA1240M+02671MA1999999091771MD1999999-0041REMSYN082AAXX  15004 83339 32995 00907 10211 20139 39177 40145 333 10267 29057 55098 59004;
0156833390999992006081512004-14050-042617FM-12+088299999V0200901N003110042019N0100001N1+01851+01531101821ADDGF106991061021004501001001KA1240N+01611MA1999999092081MD1999999+0111REMSYN076AAXX  15124 83339 32497 60906 10185 20153 39208 40182 86200 333 20161 58011;
0137833390999992006081518004-14050-042617FM-12+088299999V0200501N001512200019N0100001N1+02661+01231101281ADDGF102991021011004501001001MA1999999091651MD1999999+0031REMSYN070AAXX  15184 83339 32497 20503 10266 20123 39165 40128 82100 333 58003;
0178833390999992006081600004-14050-042617FM-12+088299999V0201401N004112200019N0020001N1+02191+01391101521ADDGA1001+999999999GF100991001001999999001001KA1240M+02721MA1999999091811MD1999999+0041REMSYN082AAXX  16004 83339 32995 01408 10219 20139 39181 40152 333 10272 29061 55081 58004;
0156833390999992006081612004-14050-042617FM-12+088299999V0200901N004112200019N0100001N1+02111+01571101641ADDGF102991021011004501001001KA1240N+01661MA1999999091981MD1999999-0101REMSYN076AAXX  16124 83339 32497 20908 10211 20157 39198 40164 82100 333 20166 59010;
0137833390999992006081618004-14050-042617FM-12+088299999V0200501N002612200019N0100001N1+02781+01281101151ADDGF103991031021004501001001MA1999999091601MD1999999-0051REMSYN070AAXX  16184 83339 32497 30505 10278 20128 39160 40115 83200 333 59005;
0178833390999992006081700004-14050-042617FM-12+088299999V0201401N003112200019N0020001N1+02231+01451101471ADDGA1001+999999999GF100991001001999999001001KA1240M+02871MA1999999091831MD1999999+0021REMSYN082AAXX  17004 83339 32995 01406 10223 20145 39183 40147 333 10287 29058 55106 58002;
0156833390999992006081712004-14050-042617FM-12+088299999V0200901N005710042019N0100001N1+01831+01561101781ADDGF106991061021004501001001KA1240N+01671MA1999999091981MD1999999+0001REMSYN076AAXX  17124 83339 32497 60911 10183 20156 39198 40178 86200 333 20167 58000;
0147833390999992006081718004-14050-042617FM-12+088299999V0201401N002612200019N0100001N1+02771+00961101151ADDGA1001+999999999GF100991001001999999001001MA1999999091581MD1999999-0021REMSYN064AAXX  17184 83339 32997 01405 10277 20096 39158 40115 333 59002;
0178833390999992006081800004-14050-042617FM-12+088299999V0201401N002112200019N0020001N1+02241+00851101411ADDGA1001+999999999GF100991001001999999001001KA1240M+02801MA1999999091741MD1999999-0091REMSYN082AAXX  18004 83339 32995 01404 10224 20085 39174 40141 333 10280 29050 55083 59009;
0156833390999992006081812004-14050-042617FM-12+088299999V0201401N006210042019N0100001N1+01831+01391101611ADDGF105991051021004501001001KA1240N+01541MA1999999091921MD1999999-0061REMSYN076AAXX  18124 83339 32497 51412 10183 20139 39192 40161 85200 333 20154 59006;
0147833390999992006081818004-14050-042617FM-12+088299999V0200901N004112200019N0100001N1+02541+00881101211ADDGA1001+999999999GF100991001001999999001001MA1999999091571MD1999999-0011REMSYN064AAXX  18184 83339 32997 00908 10254 20088 39157 40121 333 59001;
0178833390999992006081900004-14050-042617FM-12+088299999V0209999C000012200019N0020001N1+02001+00901101451ADDGA1001+999999999GF100991001001999999001001KA1240M+02601MA1999999090711MD1999999-0031REMSYN082AAXX  19004 83339 32995 00000 10200 20090 39071 40145 333 10260 29052 55094 59003;
0166833390999992006081912004-14050-042617FM-12+088299999V0201401N002612200019N0100001N1+01971+01261101621ADDGA1001+999999999GF100991001001999999001001KA1240N+01521MA1999999091901MD1999999-0021REMSYN070AAXX  19124 83339 32997 01405 10197 20126 39190 40162 333 20152 59002;
0147833390999992006081918004-14050-042617FM-12+088299999V0201401N002112200019N0100001N1+02721+00711101071ADDGA1001+999999999GF100991001001999999001001MA1999999091481MD1999999-0091REMSYN064AAXX  19184 83339 32997 01404 10272 20071 39148 40107 333 59009;
0178833390999992006082000004-14050-042617FM-12+088299999V0201401N002612200019N0020001N1+02161+00741101361ADDGA1001+999999999GF100991001001999999001001KA1240M+02801MA1999999091691MD1999999-0021REMSYN082AAXX  20004 83339 32995 01405 10216 20074 39169 40136 333 10280 29043 55110 59002;
0166833390999992006082012004-14050-042617FM-12+088299999V0200901N002612200019N0100001N1+02151+01521101561ADDGA1001+999999999GF100991001001999999001001KA1240N+01441MA1999999091911MD1999999+0011REMSYN070AAXX  20124 83339 32997 00905 10215 20152 39191 40156 333 20144 58001;
0156833390999992006082018004-14050-042617FM-12+088299999V0201801N002112200019N0100001N1+03031+00091100961ADDGF102991001001999999001041MA1999999091431MD1999999-0051REMSYN070AAXX  20184 83339 32897 21804 10303 20009 39143 40096 80004 333 59005;EQDQ01+022502SCOLCB
0178833390999992006082100004-14050-042617FM-12+088299999V0201801N001012200019N0020001N1+02431+00371101231ADDGA1001+999999999GF100991001001999999001001KA1240M+03141MA1999999091671MD1999999-0021REMSYN082AAXX  21004 83339 32995 01802 10243 20037 39167 40123 333 10314 29034 55102 59002;
0166833390999992006082112004-14050-042617FM-12+088299999V0200501N001512200019N0100001N1+02431+00781101231ADDGA1001+999999999GF100991001001999999001001KA1240N+01801MA1999999091731MD1999999-0181REMSYN070AAXX  21124 83339 32997 00503 10243 20078 39173 40123 333 20180 59018;
0137833390999992006082118004-14050-042617FM-12+088299999V0203601N001512200019N0100001N1+03251+00421100751ADDGF102991021021004501001001MA1999999091391MD1999999-0041REMSYN070AAXX  21184 83339 32497 23603 10325 20042 39139 40075 82200 333 59004;
0178833390999992006082200004-14050-042617FM-12+088299999V0209999C000012200019N0020001N1+02551+00341100991ADDGA1001+999999999GF100991001001999999001001KA1240M+03311MA1999999091531MD1999999-0141REMSYN082AAXX  22004 83339 32995 00000 10255 20034 39153 40099 333 10331 29026 55107 59014;
0156833390999992006082212004-14050-042617FM-12+088299999V0201401N007712200019N0100001N1+02051+01361101581ADDGF103991031021004501001001KA1240N+01801MA1999999091991MD1999999+0261REMSYN076AAXX  22124 83339 32497 31415 10205 20136 39199 40158 83200 333 20180 58026;
0147833390999992006082218004-14050-042617FM-12+088299999V0200501N006212200019N0100001N1+02611+00851101191ADDGA1001+999999999GF100991001001999999001001MA1999999091651MD1999999+0261REMSYN064AAXX  22184 83339 32997 00512 10261 20085 39165 40119 333 58026;
0178833390999992006082300004-14050-042617FM-12+088299999V0200901N006212200019N0020001N1+02011+00801101571ADDGA1001+999999999GF100991001001999999001001KA1240M+02681MA1999999091861MD1999999+0331REMSYN082AAXX  23004 83339 32995 00912 10201 20080 39186 40157 333 10268 29048 55100 58033;
0156833390999992006082312004-14050-042617FM-12+088299999V0201401N007710042019N0100001N1+01931+01421101841ADDGF106991051021004501031001KA1240N+01661MA1999999092081MD1999999+0091REMSYN076AAXX  23124 83339 32497 61415 10193 20142 39208 40184 85230 333 20166 58009;
0137833390999992006082318004-14050-042617FM-12+088299999V0200901N005710042019N0100001N1+02631+00951101351ADDGF106991061021004501001001MA1999999091701MD1999999+0051REMSYN070AAXX  23184 83339 32497 60911 10263 20095 39170 40135 86200 333 58005;
0168833390999992006082400004-14050-042617FM-12+088299999V0201801N004112200019N0020001N1+02151+01411101591ADDGF104991041021004501001001KA1240M+02741MA1999999091901MD1999999+0041REMSYN088AAXX  24004 83339 32495 41808 10215 20141 39190 40159 84200 333 10274 29059 55061 58004;
0156833390999992006082412004-14050-042617FM-12+088299999V0200901N005110042019N0100001N1+01951+01381101711ADDGF106991051021004501001021KA1240N+01561MA1999999092011MD1999999-0071REMSYN076AAXX  24124 83339 32497 60910 10195 20138 39201 40171 85202 333 20156 59007;
0137833390999992006082418004-14050-042617FM-12+088299999V0201401N006212200019N0100001N1+02471+01191101431ADDGF104991031021004501001041MA1999999091751MD1999999+0051REMSYN070AAXX  24184 83339 32497 41412 10247 20119 39175 40143 83204 333 58005;
0168833390999992006082500004-14050-042617FM-12+088299999V0203201N002112200019N0020001N1+02031+01091101661ADDGF102991021021004501001001KA1240M+02561MA1999999091941MD1999999+0041REMSYN088AAXX  25004 83339 32495 23204 10203 20109 39194 40166 82200 333 10256 29056 55102 58004;
0156833390999992006082512004-14050-042617FM-12+088299999V0200501N009810042019N0100001N1+01851+01391101801ADDGF106991061021004501001001KA1240N+01521MA1999999092041MD1999999+0031REMSYN076AAXX  25124 83339 32497 60519 10185 20139 39204 40180 86200 333 20152 58003;
0137833390999992006082518004-14050-042617FM-12+088299999V0201401N008212200019N0100001N1+02291+01181101431ADDGF103991031021004501001001MA1999999091711MD1999999-0041REMSYN070AAXX  25184 83339 32497 31416 10229 20118 39171 40143 83200 333 59004;
0168833390999992006082600004-14050-042617FM-12+088299999V0201801N005112200019N0020001N1+01931+01131101651ADDGF102991021021004501001001KA1240M+02301MA1999999091891MD1999999-0051REMSYN088AAXX  26004 83339 32495 21810 10193 20113 39189 40165 82200 333 10230 29061 55075 59005;
0156833390999992006082612004-14050-042617FM-12+088299999V0200901N003610042019N0100001N1+01791+01311101751ADDGF106991061021004501001001KA1240N+01421MA1999999091961MD1999999-0081REMSYN076AAXX  26124 83339 32497 60907 10179 20131 39196 40175 86200 333 20142 59008;
0137833390999992006082618004-14050-042617FM-12+088299999V0201801N005712200019N0100001N1+02511+01051101251ADDGF102991021021004501001001MA1999999091571MD1999999-0141REMSYN070AAXX  26184 83339 32497 21811 10251 20105 39157 40125 82200 333 59014;
0178833390999992006082700004-14050-042617FM-12+088299999V0201401N005712200019N0020001N1+02091+01061101391ADDGA1001+999999999GF100991001001999999001001KA1240M+02561MA1999999091671MD1999999-0221REMSYN082AAXX  27004 83339 32995 01411 10209 20106 39167 40139 333 10256 29055 55102 59022;
0184833390999992006082712004-14050-042617FM-12+088299999V0200901N003610042019N0040001N1+01691+01371101671ADDAY101061AY201061GF107991061021004501021999KA1240N+01501MA1999999091881MD1999999-0081MW1101REMSYN082AAXX  27124 83339 31496 70907 10169 20137 39188 40167 71000 8622/ 333 20150 59008;
0147833390999992006082718004-14050-042617FM-12+088299999V0200501N004612200019N0020001N1+02811+00431101011ADDGA1001+999999999GF100991001001999999001001MA1999999091431MD1999999-0141REMSYN064AAXX  27184 83339 32995 00509 10281 20043 39143 40101 333 59014;
0178833390999992006082800004-14050-042617FM-12+088299999V0201401N003112200019N0020001N1+02231+00471101291ADDGA1001+999999999GF100991001001999999001001KA1240M+02901MA1999999091581MD1999999-0091REMSYN082AAXX  28004 83339 32995 01406 10223 20047 39158 40129 333 10290 29042 55084 59009;
0166833390999992006082812004-14050-042617FM-12+088299999V0200901N002612200019N0100001N1+02081+01421101431ADDGA1001+999999999GF100991001001999999001001KA1240N+01491MA1999999091781MD1999999-0091REMSYN070AAXX  28124 83339 32997 00905 10208 20142 39178 40143 333 20149 59009;
0147833390999992006082818004-14050-042617FM-12+088299999V0200901N005112200019N0100001N1+02981+00511100941ADDGA1001+999999999GF100991001001999999001001MA1999999091411MD1999999-0021REMSYN064AAXX  28184 83339 32997 00910 10298 20051 39141 40094 333 59002;
0178833390999992006082900004-14050-042617FM-12+088299999V0201401N003112200019N0020001N1+02341+00441101231ADDGA1001+999999999GF100991001001999999001001KA1240M+03021MA1999999091631MD1999999+0051REMSYN082AAXX  29004 83339 32995 01406 10234 20044 39163 40123 333 10302 29036 55108 58005;
0166833390999992006082912004-14050-042617FM-12+088299999V0201401N003112200019N0100001N1+02141+01331101381ADDGA1001+999999999GF100991001001999999001001KA1240N+01521MA1999999091761MD1999999-0031REMSYN070AAXX  29124 83339 32997 01406 10214 20133 39176 40138 333 20152 59003;
0147833390999992006082918004-14050-042617FM-12+088299999V0203601N002612200019N0100001N1+03011+00861100901ADDGA1001+999999999GF100991001001999999001001MA1999999091391MD1999999-0021REMSYN064AAXX  29184 83339 32997 03605 10301 20086 39139 40090 333 59002;
0178833390999992006083000004-14050-042617FM-12+088299999V0200901N001012200019N0020001N1+02451+00931101121ADDGA1001+999999999GF100991001001999999001001KA1240M+03101MA1999999091571MD1999999-0061REMSYN082AAXX  30004 83339 32995 00902 10245 20093 39157 40112 333 10310 29041 55106 59006;
0156833390999992006083012004-14050-042617FM-12+088299999V0200901N007710042019N0100001N1+02091+01621101501ADDGF106991061021004501001001KA1240N+01891MA1999999091891MD1999999+0131REMSYN076AAXX  30124 83339 32497 60915 10209 20162 39189 40150 86200 333 20189 58013;
0137833390999992006083018004-14050-042617FM-12+088299999V0200901N009812200019N0100001N1+02391+01521101271ADDGF103991031021004501001001MA1999999091661MD1999999+0271REMSYN070AAXX  30184 83339 32497 30919 10239 20152 39166 40127 83200 333 58027;
0168833390999992006083100004-14050-042617FM-12+088299999V0201401N007710042019N0020001N1+01891+01471101751ADDGF108991051021004501021999KA1240M+02521MA1999999092021MD1999999+0421REMSYN088AAXX  31004 83339 32495 81415 10189 20147 39202 40175 8522/ 333 10252 29071 55082 58042;
0156833390999992006083112004-14050-042617FM-12+088299999V0201401N005112200019N0100001N1+01721+01291101961ADDGF104991041021004501001001KA1240N+01441MA1999999092131MD1999999+0241REMSYN076AAXX  31124 83339 32497 41410 10172 20129 39213 40196 84200 333 20144 58024;
0147833390999992006083118004-14050-042617FM-12+088299999V0200901N003112200019N0100001N1+02501+01221101361ADDGA1001+999999999GF100991001001999999001001MA1999999091661MD1999999+0001REMSYN064AAXX  31184 83339 32997 00906 10250 20122 39166 40136 333 58000;
0178833390999992006090100004-14050-042617FM-12+088299999V0201401N006712200019N0020001N1+01951+01241101591ADDGA1001+999999999GF100991001001999999001001KA1240M+02561MA1999999091821MD1999999-0201REMSYN082AAXX  01004 83339 32995 01413 10195 20124 39182 40159 333 10256 29062 55082 59020;
0156833390999992006090112004-14050-042617FM-12+088299999V0200901N004110042019N0100001N1+01581+01291101801ADDGF108991051021004501021999KA1240N+01421MA1999999091961MD1999999-0171REMSYN076AAXX  01124 83339 32497 80908 10158 20129 39196 40180 8522/ 333 20142 59017;
0147833390999992006090118004-14050-042617FM-12+088299999V0200901N001512200019N0100001N1+02611+01001101061ADDGA1001+999999999GF100991001001999999001001MA1999999091441MD1999999-0221REMSYN064AAXX  01184 83339 32497 00903 10261 20100 39144 40106 333 59022;
0178833390999992006090200004-14050-042617FM-12+088299999V0201401N001512200019N0020001N1+02101+00461101321ADDGA1001+999999999GF100991001001999999001001KA1240M+02721MA1999999091571MD1999999-0251REMSYN082AAXX  02004 83339 32995 01403 10210 20046 39157 40132 333 10272 29047 55078 59025;
0166833390999992006090212004-14050-042617FM-12+088299999V0200901N002112200019N0100001N1+01931+01071101391ADDGA1001+999999999GF100991001001999999001001KA1240N+01261MA1999999091691MD1999999-0271REMSYN070AAXX  02124 83339 32997 00904 10193 20107 39169 40139 333 20126 59027;
0147833390999992006090218004-14050-042617FM-12+088299999V0200901N002612200019N0100001N1+02991+00721100641ADDGA1001+999999999GF100991001001999999001001MA1999999091121MD1999999-0321REMSYN064AAXX  02184 83339 32997 00905 10299 20072 39112 40064 333 59032;
0166833390999992006090312004-14050-042617FM-12+088299999V0200901N002612200019N0100001N1+02281+00991101111ADDGA1001+999999999GF100991001001999999001001KA1240N+01621MA1999999091561MD1999999-0131REMSYN070AAXX  03124 83339 32997 00905 10228 20099 39156 40111 333 20162 59013;
0137833390999992006090318004-14050-042617FM-12+088299999V0200901N003112200019N0100001N1+03201+00621100581ADDGF102991021011004501001001MA1999999091141MD1999999+0021REMSYN070AAXX  03184 83339 32497 20906 10320 20062 39114 40058 82100 333 58002;
0178833390999992006090400004-14050-042617FM-12+088299999V0209999C000012200019N0020001N1+02531+01011100891ADDGA1001+999999999GF100991001001999999001001KA1240M+03341MA1999999091401MD1999999+0041REMSYN082AAXX  04004 83339 32995 00000 10253 20101 39140 40089 333 10334 29035 55107 58004;
0156833390999992006090412004-14050-042617FM-12+088299999V0200901N002112200019N0100001N1+02571+01591101081ADDGF102991011021004501021001KA1240N+01821MA1999999091641MD1999999+0081REMSYN076AAXX  04124 83339 32497 20904 10257 20159 39164 40108 81220 333 20182 58008;
0137833390999992006090418004-14050-042617FM-12+088299999V0203601N003112200019N0100001N1+03291+01291100601ADDGF104991041021004501001001MA1999999091251MD1999999+0111REMSYN070AAXX  04184 83339 32497 43606 10329 20129 39125 40060 84200 333 58011;
0168833390999992006090500004-14050-042617FM-12+088299999V0201401N004612200019N0020001N1+02691+01391100881ADDGF103991031021004501001001KA1240M+03431MA1999999091491MD1999999+0091REMSYN088AAXX  05004 83339 32495 31409 10269 20139 39149 40088 83200 333 10343 29042 55088 58009;
0156833390999992006090512004-14050-042617FM-12+088299999V0200501N004612200019N0100001N1+02491+01871101251ADDGF102991011021004501021001KA1240N+01881MA1999999091811MD1999999+0171REMSYN076AAXX  05124 83339 32497 20509 10249 20187 39181 40125 81220 333 20188 58017;
0137833390999992006090518004-14050-042617FM-12+088299999V0201401N003610042019N0100001N1+03091+01601100861ADDGF105991051021004501001001MA1999999091441MD1999999+0191REMSYN070AAXX  05184 83339 32497 51407 10309 20160 39144 40086 85200 333 58019;
0187833390999992006090600004-14050-042617FM-12+088299999V0200901N005710042019N0020001N1+02371+01761101281ADDGF106991999021004501001001KA1240M+03251MA1999999091771MD1999999+0281REMSYN088AAXX  06004 83339 32495 60911 10237 20176 39177 40128 85200 333 10325 29060 55086 58028;EQDQ01+000052SCOTLC
0184833390999992006090612004-14050-042617FM-12+088299999V0200501N005710042019N0040001N1+01891+01801101721ADDAY101061AY201061GF107991061021004501021999KA1240N+01781MA1999999092051MD1999999+0241MW1101REMSYN082AAXX  06124 83339 31496 70511 10189 20180 39205 40172 71000 8622/ 333 20178 58024;
0137833390999992006090618004-14050-042617FM-12+088299999V0201801N007212200019N0100001N1+02511+01561101281ADDGF102991021021004501001001MA1999999091691MD1999999+0251REMSYN070AAXX  06184 83339 32497 21814 10251 20156 39169 40128 82200 333 58025;
0196833390999992006090700004-14050-042617FM-12+088299999V0203201N010310042019N0020001N1+01911+01601101751ADDAY101061AY201061GF106991061021004501001001KA1240M+02601MA1999999091981MD1999999+0211MW1101REMSYN094AAXX  07004 83339 31495 63220 10191 20160 39198 40175 71000 86200 333 10260 29078 55068 58021;
0184833390999992006090712004-14050-042617FM-12+088299999V0201401N008210042019N0040001N1+01611+01601101931ADDAY101061AY201061GF108991081051004501999999KA1240N+01531MA1999999092081MD1999999+0031MW1101REMSYN082AAXX  07124 83339 31496 81416 10161 20160 39208 40193 71000 885// 333 20153 58003;
0137833390999992006090718004-14050-042617FM-12+088299999V0200901N006210042019N0100001N1+02111+01441101591ADDGF106991061021004501001001MA1999999091841MD1999999+0151REMSYN070AAXX  07184 83339 32497 60912 10211 20144 39184 40159 86200 333 58015;
0168833390999992006090800004-14050-042617FM-12+088299999V0202301N009312200019N0020001N1+01871+01491101821ADDGF103991031021004501001001KA1240M+02201MA1999999091981MD1999999+0001REMSYN088AAXX  08004 83339 32495 32318 10187 20149 39198 40182 83200 333 10220 29079 55014 58000;
0184833390999992006090812004-14050-042617FM-12+088299999V0203601N011310042019N0100001N1+01671+01441101981ADDAY101061AY201061GF106991061021004501001001KA1240N+01421MA1999999092121MD1999999+0041MW1101REMSYN082AAXX  08124 83339 31497 63622 10167 20144 39212 40198 71000 86200 333 20142 58004;
0137833390999992006090818004-14050-042617FM-12+088299999V0200901N008212200019N0100001N1+02311+01171101491ADDGF102991021021004501001001MA1999999091781MD1999999-0061REMSYN070AAXX  08184 83339 32497 20916 10231 20117 39178 40149 82200 333 59006;
0178833390999992006090900004-14050-042617FM-12+088299999V0201401N004612200019N0020001N1+01811+01091101871ADDGA1001+999999999GF100991001001999999001001KA1240M+02761MA1999999092031MD1999999+0051REMSYN082AAXX  09004 83339 32995 01409 10181 20109 39203 40187 333 10276 29065 55070 58005;
0156833390999992006090912004-14050-042617FM-12+088299999V0200501N004612200019N0100001N1+01691+01131101061ADDGF102991021021004501001001KA1240N+01201MA1999999092121MD1999999+0001REMSYN076AAXX  09124 83339 32497 20509 10169 20113 39212 40106 82200 333 20120 58000;
0147833390999992006090918004-14050-042617FM-12+088299999V0201401N003612200019N0100001N1+02391+00701101391ADDGA1001+999999999GF100991001001999999001001MA1999999091691MD1999999-0091REMSYN064AAXX  09184 83339 32997 01407 10239 20070 39169 40139 333 59009;
0184833390999992006091012004-14050-042617FM-12+088299999V0201401N004610042019N0100001N1+01831+01561101921ADDAY101061AY201061GF106991061021004501001001KA1240N+01521MA1999999092141MD1999999+0021MW1101REMSYN082AAXX  10124 83339 31497 61409 10183 20156 39214 40192 71000 86200 333 20152 58002;
0137833390999992006091018004-14050-042617FM-12+088299999V0200901N006712200019N0100001N1+02591+01231101451ADDGF104991031021004501001041MA1999999091791MD1999999+0101REMSYN070AAXX  10184 83339 32497 40913 10259 20123 39179 40145 83204 333 58010;
0178833390999992006091100004-14050-042617FM-12+088299999V0202301N004612200019N0020001N1+02131+01601101661ADDGA1001+999999999GF100991001001999999001001KA1240M+02661MA1999999091941MD1999999+0091REMSYN082AAXX  11004 83339 32995 02309 10213 20160 39194 40166 333 10266 29067 55075 58009;
0156833390999992006091112004-14050-042617FM-12+088299999V0200901N004110042019N0100001N1+01891+01511101941ADDGF106991061021004501001001KA1240N+01671MA1999999092161MD1999999+0051REMSYN076AAXX  11124 83339 32497 60908 10189 20151 39216 40194 86200 333 20167 58005;
0137833390999992006091118004-14050-042617FM-12+088299999V0200901N007712200019N0100001N1+02541+01231101461ADDGF104991021011004501001011MA1999999091821MD1999999+0031REMSYN070AAXX  11184 83339 32497 40915 10254 20123 39182 40146 82101 333 58003;
0168833390999992006091200004-14050-042617FM-12+088299999V0200901N006712200019N0020001N1+02051+01541101831ADDGF103991031021004501001001KA1240M+02621MA1999999092071MD1999999+0131REMSYN088AAXX  12004 83339 32495 30913 10205 20154 39207 40183 83200 333 10262 29066 55080 58013;
0201833390999992006091212004-14050-042617FM-12+088299999V0201401N007710042019N0100001N1+01871+01451101821ADDAA124000891AY161061AY221061GF105991051021004501001001KA1240N+01571MA1999999092061MD1999999-0131MW1021REMSYN088AAXX  12124 83339 21497 51415 10187 20145 39206 40182 70262 85200 333 20157 59013 69974;
0137833390999992006091218004-14050-042617FM-12+088299999V0200501N005712200019N0100001N1+02591+01021101301ADDGF102991021011004501001001MA1999999091651MD1999999-0171REMSYN070AAXX  12184 83339 32497 20511 10259 20102 39165 40130 82100 333 59017;
0178833390999992006091300004-14050-042617FM-12+088299999V0200901N005112200019N0020001N1+02131+01251101551ADDGA1001+999999999GF100991001001999999001001KA1240M+02681MA1999999091841MD1999999-0231REMSYN082AAXX  13004 83339 32995 00910 10213 20125 39184 40155 333 10268 29057 55087 59023;
0156833390999992006091312004-14050-042617FM-12+088299999V0200901N005712200019N0100001N1+01941+01361101751ADDGF102991021011004501001001KA1240N+01511MA1999999092021MD1999999-0041REMSYN076AAXX  13124 83339 32497 20911 10194 20136 39202 40175 82100 333 20151 59004;
0147833390999992006091318004-14050-042617FM-12+088299999V0200501N005112200019N0100001N1+02681+00871101221ADDGA1001+999999999GF100991001001999999001001MA1999999091601MD1999999-0051REMSYN064AAXX  13184 83339 32497 00510 10268 20087 39160 40122 333 59005;
0178833390999992006091400004-14050-042617FM-12+088299999V0200501N002612200019N0020001N1+02161+00951101451ADDGA1001+999999999GF100991001001999999001001KA1240M+02761MA1999999091771MD1999999-0071REMSYN082AAXX  14004 83339 32995 00505 10216 20095 39177 40145 333 10276 29048 55109 59007;
0156833390999992006091412004-14050-042617FM-12+088299999V0200901N002612200019N0100001N1+02031+01381101661ADDGF102991021021004501001001KA1240N+01531MA1999999091981MD1999999-0041REMSYN076AAXX  14124 83339 32497 20905 10203 20138 39198 40166 82200 333 20153 59004;
0147833390999992006091418004-14050-042617FM-12+088299999V0200501N005112200019N0100001N1+02701+00981101221ADDGA1001+999999999GF100991001001999999001001MA1999999091601MD1999999+0001REMSYN064AAXX  14184 83339 32997 00510 10270 20098 39160 40122 333 58000;
0168833390999992006091500004-14050-042617FM-12+088299999V0200901N001512200019N0020001N1+02191+01171101521ADDGF103991031021004501001001KA1240M+02751MA1999999091851MD1999999+0081REMSYN088AAXX  15004 83339 32495 30903 10219 20117 39185 40152 83200 333 10275 29051 55110 58008;
0156833390999992006091512004-14050-042617FM-12+088299999V0200501N004612200019N0100001N1+02201+01391101671ADDGF102991021011004501001001KA1240N+01641MA1999999092031MD1999999+0051REMSYN076AAXX  15124 83339 32497 20509 10220 20139 39203 40167 82100 333 20164 58005;
0137833390999992006091518004-14050-042617FM-12+088299999V0200901N005112200019N0100001N1+02691+01151101201ADDGF102991021011004501001001MA1999999091601MD1999999+0001REMSYN070AAXX  15184 83339 32497 20910 10269 20115 39160 40120 82100 333 58000;
0178833390999992006091600004-14050-042617FM-12+088299999V0200901N002612200019N0020001N1+02251+01201101431ADDGA1001+999999999GF100991001001999999001001KA1240M+02741MA1999999091811MD1999999-0041REMSYN082AAXX  16004 83339 32995 00905 10225 20120 39181 40143 333 10274 29050 55107 59004;
0156833390999992006091612004-14050-042617FM-12+088299999V0201401N003112200019N0100001N1+02161+01471101591ADDGF102991021011004501001001KA1240N+01671MA1999999091951MD1999999-0081REMSYN076AAXX  16124 83339 32497 21406 10216 20147 39195 40159 82100 333 20167 59008;
0137833390999992006091618004-14050-042617FM-12+088299999V0201401N003112200019N0100001N1+02871+01091100961ADDGF102991021011004501001001MA1999999091451MD1999999-0151REMSYN070AAXX  16184 83339 32497 21406 10287 20109 39145 40096 82100 333 59015;
0178833390999992006091700004-14050-042617FM-12+088299999V0201401N004112200019N0020001N1+02291+01381101311ADDGA1001+999999999GF100991001001999999001001KA1240M+02861MA1999999091701MD1999999-0111REMSYN082AAXX  17004 83339 32995 01408 10229 20138 39170 40131 333 10286 29053 55097 59011;
0166833390999992006091712004-14050-042617FM-12+088299999V0201401N003612200019N0100001N1+02161+01501101561ADDGA1001+999999999GF100991001001999999001001KA1240N+01601MA1999999091931MD1999999-0021REMSYN070AAXX  17124 83339 32997 01407 10216 20150 39193 40156 333 20160 59002;
0137833390999992006091718004-14050-042617FM-12+088299999V0200501N000510042019N0100001N1+02951+01121101001ADDGF105991051021004501001001MA1999999091531MD1999999+0031REMSYN070AAXX  17184 83339 32497 50501 10295 20112 39153 40100 85200 333 58003;
0178833390999992006091800004-14050-042617FM-12+088299999V0201401N003112200019N0020001N1+02431+01171101291ADDGA1001+999999999GF100991001001999999001001KA1240M+03101MA1999999091731MD1999999+0031REMSYN082AAXX  18004 83339 32995 01406 10243 20117 39173 40129 333 10310 29047 55099 58003;
0166833390999992006091812004-14050-042617FM-12+088299999V0201401N003112200019N0100001N1+02271+01731101421ADDGA1001+999999999GF100991001001999999001001KA1240N+01721MA1999999091861MD1999999-0071REMSYN070AAXX  18124 83339 32997 01406 10227 20173 39186 40142 333 20172 59007;
0137833390999992006091818004-14050-042617FM-12+088299999V0200901N003112200019N0100001N1+03091+00851100821ADDGF102991021021004501001001MA1999999091401MD1999999-0081REMSYN070AAXX  18184 83339 32497 20906 10309 20085 39140 40082 82200 333 59008;
0178833390999992006091900004-14050-042617FM-12+088299999V0201401N002112200019N0020001N1+02551+00881101101ADDGA1001+999999999GF100991001001999999001001KA1240M+03201MA1999999091591MD1999999-0141REMSYN082AAXX  19004 83339 32995 01404 10255 20088 39159 40110 333 10320 29042 55105 59014;
0184833390999992006091912004-14050-042617FM-12+088299999V0200501N004610042019N0100001N1+02031+01851101341ADDAY101061AY201061GF106991061021004501001001KA1240N+01821MA1999999091771MD1999999-0091MW1101REMSYN082AAXX  19124 83339 31497 60509 10203 20185 39177 40134 71000 86200 333 20182 59009;
0137833390999992006091918004-14050-042617FM-12+088299999V0201801N003610042019N0100001N1+02871+01521100931ADDGF105991051021004501021001MA1999999091401MD1999999+0001REMSYN070AAXX  19184 83339 32497 51807 10287 20152 39140 40093 85220 333 58000;
0168833390999992006092000004-14050-042617FM-12+088299999V0202301N004112200019N0020001N1+02471+01381101191ADDGF102991021021004501001001KA1240M+03001MA1999999091621MD1999999+0031REMSYN088AAXX  20004 83339 32495 22308 10247 20138 39162 40119 82200 333 10300 29058 55045 58003;
0184833390999992006092012004-14050-042617FM-12+088299999V0200901N004110042019N0100001N1+02191+01841101351ADDAY101061AY201061GF106991051021004501031001KA1240N+01881MA1999999091801MD1999999+0031MW1101REMSYN082AAXX  20124 83339 31497 60908 10219 20184 39180 40135 71000 85230 333 20188 58003;
0137833390999992006092018004-14050-042617FM-12+088299999V0203201N002110042019N0200001N1+03011+01641100811ADDGF105991051021004501001001MA1999999091331MD1999999-0071REMSYN070AAXX  20184 83339 32498 53204 10301 20164 39133 40081 85200 333 59007;
0168833390999992006092100004-14050-042617FM-12+088299999V0201401N003112200019N0020001N1+02291+01511101121ADDGF102991021021004501001001KA1240M+03081MA1999999091551MD1999999-0071REMSYN088AAXX  21004 83339 32495 21406 10229 20151 39155 40112 82200 333 10308 29061 55076 59007;
0184833390999992006092112004-14050-042617FM-12+088299999V0209999C000010042019N0040001N1+02131+01801101441ADDAY101061AY201061GF107991061021004501021999KA1240N+01941MA1999999091821MD1999999+0021MW1101REMSYN082AAXX  21124 83339 31496 70000 10213 20180 39182 40144 71000 8622/ 333 20194 58002;
0137833390999992006092118004-14050-042617FM-12+088299999V0203601N003110042019N0100001N1+02711+01721101031ADDGF106991051021004501021001MA1999999091491MD1999999+0161REMSYN070AAXX  21184 83339 32497 63606 10271 20172 39149 40103 85220 333 58016;
0168833390999992006092200004-14050-042617FM-12+088299999V0209999C000010450019N0020001N1+02451+01741101221ADDGF105991041021004501021001KA1240M+02761MA1999999091661MD1999999+0111REMSYN088AAXX  22004 83339 32495 50000 10245 20174 39166 40122 84220 333 10276 29064 55006 58011;
0156833390999992006092212004-14050-042617FM-12+088299999V0203601N002110042019N0100001N1+02451+01961101371ADDGF106991051021004501031001KA1240N+02151MA1999999091851MD1999999+0031REMSYN076AAXX  22124 83339 32497 63604 10245 20196 39185 40137 85230 333 20215 58003;
0182833390999992006092218004-14050-042617FM-12+088299999V0202301N001010042019N0100001N1+02291+02251101111ADDAA106006191AY191061AY261061GF105991051021004501001001MA1999999091501MD1999999+0011MW1101REMSYN082AAXX  22184 83339 21497 52302 10229 20225 39150 40111 71096 85200 333 58001 60061;
0196833390999992006092300004-14050-042617FM-12+088299999V0201401N007210042019N0020001N1+02051+02041101401ADDAY101061AY201061GF106991061021004501001001KA1240M+02901MA1999999091801MD1999999+0141MW1101REMSYN094AAXX  23004 83339 31495 61414 10205 20204 39180 40140 71000 86200 333 10290 29090 55019 58014;
0201833390999992006092312004-14050-042617FM-12+088299999V0200501N002610042019N0100001N1+02111+01931101501ADDAA124006191AY161061AY261061GF106991061021004501001001KA1240N+01921MA1999999091841MD1999999-0011MW1101REMSYN088AAXX  23124 83339 21497 60505 10211 20193 39184 40150 71066 86200 333 20192 59001 60064;
0137833390999992006092318004-14050-042617FM-12+088299999V0203601N001512200019N0100001N1+03051+01451100851ADDGF102991021021004501001001MA1999999091381MD1999999-0121REMSYN070AAXX  23184 83339 32497 23603 10305 20145 39138 40085 82200 333 59012;
0178833390999992006092400004-14050-042617FM-12+088299999V0201801N005112200019N0020001N1+02591+01161101011ADDGA1001+999999999GF100991001001999999001001KA1240M+03081MA1999999091491MD1999999-0311REMSYN082AAXX  24004 83339 32995 01810 10259 20116 39149 40101 333 10308 29053 55081 59031;
0166833390999992006092412004-14050-042617FM-12+088299999V0203201N001512200019N0100001N1+02451+01641101111ADDGA1001+999999999GF100991001001999999001001KA1240N+01821MA1999999091641MD1999999-0201REMSYN070AAXX  24124 83339 32997 03203 10245 20164 39164 40111 333 20182 59020;
0137833390999992006092418004-14050-042617FM-12+088299999V0200901N001510042019N0100001N1+02891+01461100791ADDGF106991051021004501021001MA1999999091291MD1999999-0091REMSYN070AAXX  24184 83339 32497 60903 10289 20146 39129 40079 85220 333 59009;
0168833390999992006092500004-14050-042617FM-12+088299999V0202301N002612200019N0020001N1+02431+01821101081ADDGF104991041021004501001001KA1240M+03121MA1999999091591MD1999999+0101REMSYN088AAXX  25004 83339 32495 42305 10243 20182 39159 40108 84200 333 10312 29058 55050 58010;
0156833390999992006092512004-14050-042617FM-12+088299999V0202701N002612200019N0100001N1+02591+01871101331ADDGF102991021021004501001001KA1240N+02061MA1999999091841MD1999999+0201REMSYN076AAXX  25124 83339 32497 22705 10259 20187 39184 40133 82200 333 20206 58020;
0137833390999992006092518004-14050-042617FM-12+088299999V0203601N000510042019N0100001N1+02891+01571100711ADDGF106991061021004501001001MA1999999091301MD1999999+0011REMSYN070AAXX  25184 83339 32497 63601 10289 20157 39130 40071 86200 333 58001;
0213833390999992006092600004-14050-042617FM-12+088299999V0201401N008210042019N0020001N1+02171+01881101081ADDAA106000591AY161061AY261061GF107991061021004501021999KA1240M+03221MA1999999091571MD1999999-0021MW1131REMSYN100AAXX  26004 83339 21495 71416 10217 20188 39157 40108 71366 8622/ 333 10322 29070 55071 59002 69941;
0201833390999992006092612004-14050-042617FM-12+088299999V0200901N007210042019N0040001N1+01971+01961101401ADDAA124000591AY161061AY261061GF108991081051004501999999KA1240N+01961MA1999999091731MD1999999-0111MW1101REMSYN088AAXX  26124 83339 21496 80914 10197 20196 39173 40140 71066 885// 333 20196 59011 69944;
0137833390999992006092618004-14050-042617FM-12+088299999V0201401N006210042019N0100001N1+02411+01731101151ADDGF106991061021004501001001MA1999999091551MD1999999+0251REMSYN070AAXX  26184 83339 32497 61412 10241 20173 39155 40115 86200 333 58025;
0196833390999992006092700004-14050-042617FM-12+088299999V0200501N007210042019N0020001N1+01911+01731101531ADDAY101061AY201061GF108991081051004501999999KA1240M+02461MA1999999091801MD1999999+0231MW1101REMSYN094AAXX  27004 83339 31495 80514 10191 20173 39180 40153 71000 885// 333 10246 29084 55012 58023;
0201833390999992006092712004-14050-042617FM-12+088299999V0200901N008210042019N0100001N1+01761+01451101991ADDAA124001091AY161061AY221061GF106991061021004501001001KA1240N+01581MA1999999092181MD1999999+0451MW1021REMSYN088AAXX  27124 83339 21497 60916 10176 20145 39218 40199 70262 86200 333 20158 58045 60014;
0137833390999992006092718004-14050-042617FM-12+088299999V0200901N006210042019N0100001N1+02171+01391101681ADDGF106991061021004501001001MA1999999091921MD1999999+0371REMSYN070AAXX  27184 83339 32497 60912 10217 20139 39192 40168 86200 333 58037;
0168833390999992006092800004-14050-042617FM-12+088299999V0201401N005710042019N0020001N1+01871+01451101831ADDGF106991061021004501001001KA1240M+02241MA1999999092011MD1999999+0211REMSYN088AAXX  28004 83339 32495 61411 10187 20145 39201 40183 86200 333 10224 29073 55019 58021;
0156833390999992006092812004-14050-042617FM-12+088299999V0200901N006712200019N0100001N1+01711+01211101931ADDGF104991041021004501001001KA1240N+01461MA1999999092101MD1999999-0081REMSYN076AAXX  28124 83339 32497 40913 10171 20121 39210 40193 84200 333 20146 59008;
0137833390999992006092818004-14050-042617FM-12+088299999V0201401N004112200019N0100001N1+02431+01271101451ADDGF105991021021004501001041MA1999999091731MD1999999-0191REMSYN070AAXX  28184 83339 32497 51408 10243 20127 39173 40145 82204 333 59019;
0156833390999992006092912004-14050-042617FM-12+088299999V0201401N003612200019N0100001N1+02041+01521101711ADDGF102991021011004501001001KA1240N+01621MA1999999091981MD1999999-0121REMSYN076AAXX  29124 83339 32497 21407 10204 20152 39198 40171 82100 333 20162 59012;
0137833390999992006092918004-14050-042617FM-12+088299999V0200901N001512200019N0100001N1+02991+01291100991ADDGF103991031021004501001001MA1999999091461MD1999999-0271REMSYN070AAXX  29184 83339 32497 30903 10299 20129 39146 40099 83200 333 59027;
0178833390999992006093000004-14050-042617FM-12+088299999V0200901N003612200019N0020001N1+02531+01331101221ADDGA1001+999999999GF100991001001999999001001KA1240M+03051MA1999999091661MD1999999-0171REMSYN082AAXX  30004 83339 32995 00907 10253 20133 39166 40122 333 10305 29050 55086 59017;
0156833390999992006093012004-14050-042617FM-12+088299999V0200901N005112200019N0100001N1+02301+01701100951ADDGF103991031021004501001001KA1240N+01841MA1999999091911MD1999999-0071REMSYN076AAXX  30124 83339 32497 30910 10230 20170 39191 40095 83200 333 20184 59007;
0137833390999992006093018004-14050-042617FM-12+088299999V0200901N005712200019N0100001N1+02931+01511101231ADDGF102991021021004501001001MA1999999091531MD1999999+0071REMSYN070AAXX  30184 83339 32497 20911 10293 20151 39153 40123 82200 333 58007;
0178833390999992006100100004-14050-042617FM-12+088299999V0201401N005112200019N0020001N1+02371+01711101331ADDGA1001+999999999GF100991001001999999001001KA1240M+03051MA1999999091781MD1999999+0121REMSYN082AAXX  01004 83339 32995 01410 10237 20171 39178 40133 333 10305 29061 55106 58012;
0156833390999992006100112004-14050-042617FM-12+088299999V0201401N005110042019N0100001N1+02121+01681101571ADDGF106991061021004501001001KA1240N+01901MA1999999091951MD1999999+0041REMSYN076AAXX  01124 83339 32497 61410 10212 20168 39195 40157 86200 333 20190 58004;
0137833390999992006100118004-14050-042617FM-12+088299999V0201401N004112200019N0100001N1+02731+01441101091ADDGF102991021011004501001001MA1999999091561MD1999999+0031REMSYN070AAXX  01184 83339 32497 21408 10273 20144 39156 40109 82100 333 58003;
0178833390999992006100200004-14050-042617FM-12+088299999V0200901N006212200019N0020001N1+02331+01361101371ADDGA1001+999999999GF100991001001999999001001KA1240M+02741MA1999999091751MD1999999-0031REMSYN082AAXX  02004 83339 32995 00912 10233 20136 39175 40137 333 10274 29057 55078 59003;
0156833390999992006100212004-14050-042617FM-12+088299999V0200501N004610042019N0040001N1+01971+01591101361ADDGF107991061021004501021999KA1240N+01721MA1999999091731MD1999999-0221REMSYN076AAXX  02124 83339 32496 70509 10197 20159 39173 40136 8622/ 333 20172 59022;
0137833390999992006100218004-14050-042617FM-12+088299999V0203201N001512200019N0100001N1+02791+01301100731ADDGF103991021021004501001021MA1999999091241MD1999999-0321REMSYN070AAXX  02184 83339 32497 33203 10279 20130 39124 40073 82202 333 59032;
0178833390999992006100300004-14050-042617FM-12+088299999V0202301N003112200019N0020001N1+02351+01241101001ADDGA1001+999999999GF100991001001999999001001KA1240M+02861MA1999999091401MD1999999-0351REMSYN082AAXX  03004 83339 32995 02306 10235 20124 39140 40100 333 10286 29055 55080 59035;
0156833390999992006100312004-14050-042617FM-12+088299999V0200901N003612200019N0100001N1+02271+01731101051ADDGF102991021021004501001001KA1240N+01781MA1999999091511MD1999999-0221REMSYN076AAXX  03124 83339 32497 20907 10227 20173 39151 40105 82200 333 20178 59022;
0137833390999992006100318004-14050-042617FM-12+088299999V0203601N004612200019N0100001N1+02991+01271100621ADDGF103991021021004501001021MA1999999091171MD1999999-0071REMSYN070AAXX  03184 83339 32497 33609 10299 20127 39117 40062 82202 333 59007;
0168833390999992006100400004-14050-042617FM-12+088299999V0201401N003112200019N0020001N1+02551+01231100781ADDGF102991021021004501001001KA1240M+03141MA1999999091301MD1999999-0101REMSYN088AAXX  04004 83339 32495 21406 10255 20123 39130 40078 82200 333 10314 29048 55100 59010;
0156833390999992006100412004-14050-042617FM-12+088299999V0200901N006212200019N0100001N1+02331+01721100981ADDGF103991021021004501001041KA1240N+01881MA1999999091501MD1999999-0011REMSYN076AAXX  04124 83339 32497 30912 10233 20172 39150 40098 82204 333 20188 59001;
0137833390999992006100418004-14050-042617FM-12+088299999V0203601N004610042019N0100001N1+03031+01251100521ADDGF106991061021004501001001MA1999999091111MD1999999-0061REMSYN070AAXX  04184 83339 32497 63609 10303 20125 39111 40052 86200 333 59006;
0168833390999992006100500004-14050-042617FM-12+088299999V0201401N003612200019N0020001N1+02491+01651100861ADDGF104991041021004501001001KA1240M+03141MA1999999091371MD1999999+0071REMSYN088AAXX  05004 83339 32495 41407 10249 20165 39137 40086 84200 333 10314 29055 55096 58007;
0156833390999992006100512004-14050-042617FM-12+088299999V0200501N004110450019N0100001N1+02231+01671101171ADDGF105991041021004501021001KA1240N+01801MA1999999091641MD1999999+0141REMSYN076AAXX  05124 83339 32497 50508 10223 20167 39164 40117 84220 333 20180 58014;
0137833390999992006100518004-14050-042617FM-12+088299999V0201401N004612200019N0100001N1+02911+01321100781ADDGF102991021021004501001001MA1999999091301MD1999999+0191REMSYN070AAXX  05184 83339 32497 21409 10291 20132 39130 40078 82200 333 58019;
0178833390999992006100600004-14050-042617FM-12+088299999V0203201N006212200019N0020001N1+02451+01531101031ADDGA1001+999999999GF100991001001999999001001KA1240M+03001MA1999999091511MD1999999+0141REMSYN082AAXX  06004 83339 32995 03212 10245 20153 39151 40103 333 10300 29055 55098 58014;
0156833390999992006100612004-14050-042617FM-12+088299999V0200501N004610042019N0100001N1+02271+01791101201ADDGF106991061021004501001001KA1240N+01941MA1999999091661MD1999999+0021REMSYN076AAXX  06124 83339 32497 60509 10227 20179 39166 40120 86200 333 20194 58002;
0137833390999992006100618004-14050-042617FM-12+088299999V0200901N006712200019N0100001N1+02951+01591100791ADDGF103991031021004501001001MA1999999091311MD1999999+0011REMSYN070AAXX  06184 83339 32497 30913 10295 20159 39131 40079 83200 333 58001;
0178833390999992006100700004-14050-042617FM-12+088299999V0201401N007212200019N0020001N1+02291+01751101011ADDGA1001+999999999GF100991001001999999001001KA1240M+03061MA1999999091471MD1999999-0041REMSYN082AAXX  07004 83339 32995 01414 10229 20175 39147 40101 333 10306 29064 55058 59004;
0156833390999992006100712004-14050-042617FM-12+088299999V0203201N007212200019N0100001N1+02311+01511101281ADDGF102991021021004501001001KA1240N+01721MA1999999091701MD1999999+0041REMSYN076AAXX  07124 83339 32497 23214 10231 20151 39170 40128 82200 333 20172 58004;
0137833390999992006100718004-14050-042617FM-12+088299999V0202301N006712200019N0100001N1+02891+01351100741ADDGF103991031021004501001001MA1999999091261MD1999999-0051REMSYN070AAXX  07184 83339 32497 32313 10289 20135 39126 40074 83200 333 59005;
0178833390999992006100800004-14050-042617FM-12+088299999V0201801N003612200019N0020001N1+02391+01421100971ADDGA1001+999999999GF100991001001999999001001KA1240M+03001MA1999999091451MD1999999-0021REMSYN082AAXX  08004 83339 32995 01807 10239 20142 39145 40097 333 10300 29052 55110 59002;
0156833390999992006100812004-14050-042617FM-12+088299999V0200901N005112200019N0100001N1+02291+01661101061ADDGF104991031021004501001041KA1240N+01681MA1999999091541MD1999999-0161REMSYN076AAXX  08124 83339 32497 40910 10229 20166 39154 40106 83204 333 20168 59016;
0137833390999992006100818004-14050-042617FM-12+088299999V0203601N004610042019N0100001N1+02831+01411100731ADDGF106991051021004501031001MA1999999091241MD1999999-0021REMSYN070AAXX  08184 83339 32497 63609 10283 20141 39124 40073 85230 333 59002;
0168833390999992006100900004-14050-042617FM-12+088299999V0201401N004112200019N0020001N1+02491+01341100951ADDGF102991021021004501001001KA1240M+03001MA1999999091451MD1999999+0001REMSYN088AAXX  09004 83339 32495 21408 10249 20134 39145 40095 82200 333 10300 29052 55088 58000;
0156833390999992006100912004-14050-042617FM-12+088299999V0200901N007712200019N0100001N1+02411+01741101351ADDGF103991031021004501001001KA1240N+01891MA1999999091841MD1999999+0301REMSYN076AAXX  09124 83339 32497 30915 10241 20174 39184 40135 83200 333 20189 58030;
0137833390999992006100918004-14050-042617FM-12+088299999V0200901N004110042019N0100001N1+02881+01531101011ADDGF106991061021004501001001MA1999999091511MD1999999+0271REMSYN070AAXX  09184 83339 32497 60908 10288 20153 39151 40101 86200 333 58027;
0168833390999992006101000004-14050-042617FM-12+088299999V0201401N005712200019N0020001N1+02331+01721101241ADDGF102991021011004501001001KA1240M+02981MA1999999091701MD1999999+0251REMSYN088AAXX  10004 83339 32495 21411 10233 20172 39170 40124 82100 333 10298 29062 55081 58025;
0156833390999992006101012004-14050-042617FM-12+088299999V0201401N005110042019N0100001N1+02011+01721101581ADDGF108991051051004501021999KA1240N+01881MA1999999091931MD1999999+0091REMSYN076AAXX  10124 83339 32497 81410 10201 20172 39193 40158 8552/ 333 20188 58009;
0137833390999992006101018004-14050-042617FM-12+088299999V0200901N005712200019N0100001N1+02741+01611101151ADDGF104991041021004501001001MA1999999091621MD1999999+0111REMSYN070AAXX  10184 83339 32497 40911 10274 20161 39162 40115 84200 333 58011;
0168833390999992006101100004-14050-042617FM-12+088299999V0201401N008210042019N0020001N1+02201+01581101541ADDGF105991051021004501001001KA1240M+02781MA1999999091871MD1999999+0171REMSYN088AAXX  11004 83339 32495 51416 10220 20158 39187 40154 85200 333 10278 29067 55059 58017;
0156833390999992006101112004-14050-042617FM-12+088299999V0200901N004110042019N0100001N1+02081+01561101611ADDGF108991051021004501021999KA1240N+01821MA1999999091951MD1999999+0021REMSYN076AAXX  11124 83339 32497 80908 10208 20156 39195 40161 8522/ 333 20182 58002;
0137833390999992006101118004-14050-042617FM-12+088299999V0200501N004112200019N0100001N1+02731+01371101061ADDGF104991021011004501001011MA1999999091521MD1999999-0101REMSYN070AAXX  11184 83339 32497 40508 10273 20137 39152 40106 82101 333 59010;
0178833390999992006101200004-14050-042617FM-12+088299999V0200901N004612200019N0020001N1+02351+01411101221ADDGA1001+999999999GF100991001001999999001001KA1240M+02801MA1999999091621MD1999999-0251REMSYN082AAXX  12004 83339 32995 00909 10235 20141 39162 40122 333 10280 29057 55064 59025;
0137833390999992006101218004-14050-042617FM-12+088299999V0200501N004612200019N0100001N1+03121+01441100531ADDGF103991031021004501001001MA1999999091161MD1999999-0361REMSYN070AAXX  12184 83339 32497 30509 10312 20144 39116 40053 83200 333 59036;
0178833390999992006101300004-14050-042617FM-12+088299999V0201401N003112200019N0020001N1+02651+01331100661ADDGA1001+999999999GF100991001001999999001001KA1240M+03281MA1999999091241MD1999999-0381REMSYN082AAXX  13004 83339 32995 01406 10265 20133 39124 40066 333 10328 29047 55092 59038;
0156833390999992006101312004-14050-042617FM-12+088299999V0200501N001511050019N0100001N1+02611+01671100841ADDGF105991011011004501031011KA1240N+01921MA1999999091451MD1999999-0251REMSYN076AAXX  13124 83339 32497 50503 10261 20167 39145 40084 81131 333 20192 59025;
0137833390999992006101318004-14050-042617FM-12+088299999V0200901N003610042019N0100001N1+02931+01551100411ADDGF106991061021004501001001MA1999999091031MD1999999-0131REMSYN070AAXX  13184 83339 32497 60907 10293 20155 39103 40041 86200 333 59013;
0168833390999992006101400004-14050-042617FM-12+088299999V0201401N007712200019N0020001N1+02301+01681100771ADDGF102991021021004501001001KA1240M+03121MA1999999091291MD1999999+0051REMSYN088AAXX  14004 83339 32495 21415 10230 20168 39129 40077 82200 333 10312 29059 55050 58005;
0156833390999992006101412004-14050-042617FM-12+088299999V0200901N003610450019N0100001N1+02321+01891101021ADDGF106991041021004501031001KA1240N+02061MA1999999091481MD1999999+0031REMSYN076AAXX  14124 83339 32497 60907 10232 20189 39148 40102 84230 333 20206 58003;
0165833390999992006101418004-14050-042617FM-12+088299999V0203201N004610042019N0100001N1+02391+01681100701ADDAY121061AY221061GF108991061021004501021999MA1999999091171MD1999999+0141MW1171REMSYN076AAXX  14184 83339 31497 83209 10239 20168 39117 40070 71722 8622/ 333 58014;
0213833390999992006101500004-14050-042617FM-12+088299999V0202701N001010042019N0020001N1+02031+01871101121ADDAA106007191AY191061AY261061GF108991051021004501021999KA1240M+02881MA1999999091511MD1999999+0221MW1601REMSYN100AAXX  15004 83339 21495 82702 10203 20187 39151 40112 76096 8522/ 333 10288 29080 55018 58022 60071;
0201833390999992006101512004-14050-042617FM-12+088299999V0209999C000010042019N0100001N1+02031+01941101271ADDAA124014091AY161061AY261061GF108991061021004501021999KA1240N+01901MA1999999091611MD1999999+0131MW1021REMSYN088AAXX  15124 83339 21497 80000 10203 20194 39161 40127 70266 8622/ 333 20190 58013 60144;
0201833390999992006101518004-14050-042617FM-12+088299999V0200501N001510450019N0100001N1+02161+01821100801ADDAA106000091AY161061AY221061GF108991031021004501021999MA1999999091271MD1999999+0101MW1021REMSYN082AAXX  15184 83339 21497 80503 10216 20182 39127 40080 70262 8322/ 333 58010 69921;EQDQ01  00002PRCP06
0168833390999992006101600004-14050-042617FM-12+088299999V0200501N002110042019N0020001N1+02101+01891101131ADDGF108991051021004501021999KA1240M+02241MA1999999091481MD1999999-0031REMSYN088AAXX  16004 83339 32495 80504 10210 20189 39148 40113 8522/ 333 10224 29088 55000 59003;
0201833390999992006101612004-14050-042617FM-12+088299999V0209999C000010042019N0040001N1+02131+02051101201ADDAA124002091AY161061AY261061GF108991081051004501999999KA1240N+01971MA1999999091561MD1999999-0051MW1101REMSYN088AAXX  16124 83339 21496 80000 10213 20205 39156 40120 71066 885// 333 20197 59005 60024;
0182833390999992006101618004-14050-042617FM-12+088299999V0209999C000010042019N0100001N1+02131+01841100841ADDAA106002091AY191061AY261061GF106991051021004501021001MA1999999091241MD1999999-0031MW1101REMSYN082AAXX  16184 83339 21497 60000 10213 20184 39124 40084 71096 85220 333 59003 60021;
0213833390999992006101700004-14050-042617FM-12+088299999V0209999C000010042019N0020001N1+01991+01951101081ADDAA106002091AY161061AY211061GF108991081051004501999999KA1240M+02601MA1999999091441MD1999999-0041MW1101REMSYN100AAXX  17004 83339 21495 80000 10199 20195 39144 40108 71061 885// 333 10260 29093 55018 59004 60021;
0201833390999992006101712004-14050-042617FM-12+088299999V0201401N001510042019N0100001N1+02191+01971101221ADDAA124004191AY161061AY261061GF106991051021004501021001KA1240N+01931MA1999999091581MD1999999+0021MW1101REMSYN088AAXX  17124 83339 21497 61403 10219 20197 39158 40122 71066 85220 333 20193 58002 60044;
0182833390999992006101718004-14050-042617FM-12+088299999V0209999C000010042019N0040001N1+02271+02031100861ADDAA106006191AY161061AY261061GF107991061021004501031001MA1999999091271MD1999999+0011MW1611REMSYN082AAXX  17184 83339 21496 70000 10227 20203 39127 40086 76166 86230 333 58001 60061;
0196833390999992006101800004-14050-042617FM-12+088299999V0200901N002112200019N0020001N1+02251+01881100981ADDAY101061AY201061GF103991031021004501001001KA1240M+02641MA1999999091401MD1999999-0041MW1101REMSYN094AAXX  18004 83339 31495 30904 10225 20188 39140 40098 71000 83200 333 10264 29083 55028 59004;
0201833390999992006101812004-14050-042617FM-12+088299999V0200501N001510042019N0040001N1+02191+01901101131ADDAA124006191AY161061AY261061GF107991061021004501021999KA1240N+02001MA1999999091541MD1999999-0041MW1101REMSYN088AAXX  18124 83339 21496 70503 10219 20190 39154 40113 71066 8622/ 333 20200 59004 60064;
0137833390999992006101818004-14050-042617FM-12+088299999V0201401N002610042019N0100001N1+02811+01531100571ADDGF106991061021004501001001MA1999999091111MD1999999-0161REMSYN070AAXX  18184 83339 32497 61405 10281 20153 39111 40057 86200 333 59016;
0168833390999992006101900004-14050-042617FM-12+088299999V0200901N002612200019N0020001N1+02371+01661100841ADDGF104991041021004501001001KA1240M+02901MA1999999091321MD1999999-0081REMSYN088AAXX  19004 83339 32495 40905 10237 20166 39132 40084 84200 333 10290 29065 55028 59008;
0184833390999992006101912004-14050-042617FM-12+088299999V0200501N002110042019N0100001N1+02151+01921101061ADDAY101061AY201061GF106991061021004501001001KA1240N+01931MA1999999092501MD1999999-0041MW1101REMSYN082AAXX  19124 83339 31497 60504 10215 20192 39250 40106 71000 86200 333 20193 59004;
0201833390999992006101918004-14050-042617FM-12+088299999V0203201N004610042019N0100001N1+02631+01911100631ADDAA106003091AY161061AY261061GF106991051021004501031001MA1999999091132MD1999999+0021MW1021REMSYN082AAXX  19184 83339 21497 63209 10263 20191 39113 40063 70266 85230 333 58002 60031;EQDQ01+091133APOSP 
0168833390999992006102000004-14050-042617FM-12+088299999V0203601N002612200019N0020001N1+02311+01921100861ADDGF104991041021004501001001KA1240M+02801MA1999999091321MD1999999+0001REMSYN088AAXX  20004 83339 32495 43605 10231 20192 39132 40086 84200 333 10280 29075 55052 58000;
0201833390999992006102012004-14050-042617FM-12+088299999V0203601N001510042019N0040001N1+02291+01921101111ADDAA124003091AY161061AY261061GF108991081051004501999999KA1240N+01981MA1999999091551MD1999999+0051MW1101REMSYN088AAXX  20124 83339 21496 83603 10229 20192 39155 40111 71066 885// 333 20198 58005 60034;
0137833390999992006102018004-14050-042617FM-12+088299999V0202301N004610042019N0100001N1+02811+01631100651ADDGF106991051021004501021001MA1999999091201MD1999999+0071REMSYN070AAXX  20184 83339 32497 62309 10281 20163 39120 40065 85220 333 58007;
0196833390999992006102100004-14050-042617FM-12+088299999V0209999C000010042019N0020001N1+02371+01981100921ADDAY101061AY201061GF105991051021004501001001KA1240M+02921MA1999999091411MD1999999+0091MW1131REMSYN094AAXX  21004 83339 31495 50000 10237 20198 39141 40092 71300 85200 333 10292 29071 55020 58009;
0184833390999992006102112004-14050-042617FM-12+088299999V0201401N003610042019N0040001N1+02011+01981101291ADDAY101061AY201061GF108991081051004501999999KA1240N+01971MA1999999091681MD1999999+0131MW1101REMSYN082AAXX  21124 83339 31496 81407 10201 20198 39168 40129 71000 885// 333 20197 58013;
0137833390999992006102118004-14050-042617FM-12+088299999V0200901N007210042019N0100001N1+02311+01871100971ADDGF106991051021004501031001MA1999999091391MD1999999+0191REMSYN070AAXX  21184 83339 32497 60914 10231 20187 39139 40097 85230 333 58019;
0196833390999992006102200004-14050-042617FM-12+088299999V0200501N003610042019N0020001N1+01911+01661101341ADDAY101061AY201061GF105991051021004501001001KA1240M+02441MA1999999091631MD1999999+0221MW1101REMSYN094AAXX  22004 83339 31495 50507 10191 20166 39163 40134 71000 85200 333 10244 29076 55024 58022;
0201833390999992006102212004-14050-042617FM-12+088299999V0201401N007210042019N0040001N1+01731+01691101611ADDAA124017091AY161061AY261061GF108991081051004501999999KA1240N+01601MA1999999091821MD1999999+0141MW1401REMSYN088AAXX  22124 83339 21496 81414 10173 20169 39182 40161 74066 885// 333 20160 58014 60174;
0165833390999992006102218004-14050-042617FM-12+088299999V0200901N004610042019N0100001N1+02191+01541101281ADDAY101061AY241061GF106991051021004501001021MA1999999091571MD1999999+0181MW1021REMSYN076AAXX  22184 83339 31497 60909 10219 20154 39157 40128 70204 85202 333 58018;
0196833390999992006102300004-14050-042617FM-12+088299999V0200501N004110042019N0020001N1+01931+01571101531ADDAY101061AY201061GF108991081051004501999999KA1240M+02661MA1999999091761MD1999999+0131MW1101REMSYN094AAXX  23004 83339 31495 80508 10193 20157 39176 40153 71000 885// 333 10266 29082 55004 58013;
0156833390999992006102312004-14050-042617FM-12+088299999V0201401N003110042019N0100001N1+01811+01691101751ADDGF108991051051004501021999KA1240N+01721MA1999999091961MD1999999+0061REMSYN076AAXX  23124 83339 32497 81406 10181 20169 39196 40175 8552/ 333 20172 58006;
0137833390999992006102318004-14050-042617FM-12+088299999V0201401N006210042019N0100001N1+02091+01761101371ADDGF108991061051004501021999MA1999999091641MD1999999+0071REMSYN070AAXX  23184 83339 32497 81412 10209 20176 39164 40137 8652/ 333 58007;
0213833390999992006102400004-14050-042617FM-12+088299999V0201401N004610042019N0020001N1+01841+01811101741ADDAA106000891AY161061AY221061GF108991051021004501021999KA1240M+02231MA1999999091941MD1999999+0181MW1601REMSYN100AAXX  24004 83339 21495 81409 10184 20181 39194 40174 76062 8522/ 333 10223 29092 55000 58018 69981;
0201833390999992006102412004-14050-042617FM-12+088299999V0201401N005710042019N0020001N1+01641+01611101901ADDAA124005191AY161061AY261061GF108991061051004501021999KA1240N+01541MA1999999092051MD1999999+0091MW1501REMSYN088AAXX  24124 83339 21495 81411 10164 20161 39205 40190 75066 8652/ 333 20154 58009 60054;
0182833390999992006102418004-14050-042617FM-12+088299999V0200901N004110042019N0100001N1+02041+01681101471ADDAA106000021AY151061AY221061GF108991051021004501021999MA1999999091711MD1999999+0071MW1051REMSYN082AAXX  24184 83339 21497 80908 10204 20168 39171 40147 70552 8522/ 333 58007 69901;
0168833390999992006102500004-14050-042617FM-12+088299999V0201401N005710042019N0020001N1+01871+01751101681ADDGF108991051021004501021999KA1240M+02161MA1999999091851MD1999999-0091REMSYN088AAXX  25004 83339 32495 81411 10187 20175 39185 40168 8522/ 333 10216 29091 55001 59009;
0201833390999992006102512004-14050-042617FM-12+088299999V0200901N005710042019N0100001N1+01771+01611101841ADDAA124000591AY161061AY221061GF108991051051004501021999KA1240N+01621MA1999999092021MD1999999-0031MW1021REMSYN088AAXX  25124 83339 21497 80911 10177 20161 39202 40184 70262 8552/ 333 20162 59003 69954;
0137833390999992006102518004-14050-042617FM-12+088299999V0200501N005110042019N0100001N1+02251+01551101491ADDGF106991051021004501021001MA1999999091761MD1999999+0051REMSYN070AAXX  25184 83339 32497 60510 10225 20155 39176 40149 85220 333 58005;
0168833390999992006102600004-14050-042617FM-12+088299999V0201801N004110042019N0020001N1+02061+01661101701ADDGF108991051021004501021999KA1240M+02331MA1999999091941MD1999999+0091REMSYN088AAXX  26004 83339 32495 81808 10206 20166 39194 40170 8522/ 333 10233 29078 55008 58009;
0156833390999992006102612004-14050-042617FM-12+088299999V0200901N002110450019N0100001N1+02051+01701101521ADDGF106991041021004501031001KA1240N+01701MA1999999091841MD1999999-0181REMSYN076AAXX  26124 83339 32497 60904 10205 20170 39184 40152 84230 333 20170 59018;
0137833390999992006102618004-14050-042617FM-12+088299999V0201401N002610042019N0100001N1+02581+01661101071ADDGF106991061021004501001001MA1999999091481MD1999999-0281REMSYN070AAXX  26184 83339 32497 61405 10258 20166 39148 40107 86200 333 59028;
0178833390999992006102700004-14050-042617FM-12+088299999V0201801N001012200019N0020001N1+02181+01591101221ADDGA1001+999999999GF100991001001999999001001KA1240M+02631MA1999999091581MD1999999-0361REMSYN082AAXX  27004 83339 32995 01802 10218 20159 39158 40122 333 10263 29069 55017 59036;
0166833390999992006102712004-14050-042617FM-12+088299999V0200501N001512200019N0100001N1+02441+01811101041ADDGA1001+999999999GF100991001001999999001001KA1240N+01761MA1999999091501MD1999999-0341REMSYN070AAXX  27124 83339 32997 00503 10244 20181 39150 40104 333 20176 59034;
0137833390999992006102718004-14050-042617FM-12+088299999V0202701N003112200019N0100001N1+03181+01441100511ADDGF103991031021004501001001MA1999999091101MD1999999-0381REMSYN070AAXX  27184 83339 32497 32706 10318 20144 39110 40051 83200 333 59038;
0168833390999992006102800004-14050-042617FM-12+088299999V0209999C000012200019N0020001N1+02491+01641100771ADDGF102991021011004501001001KA1240M+03241MA1999999091311MD1999999-0271REMSYN088AAXX  28004 83339 32495 20000 10249 20164 39131 40077 82100 333 10324 29055 55112 59027;
0156833390999992006102812004-14050-042617FM-12+088299999V0202701N003112200019N0100001N1+02861+01811100811ADDGF102991021021004501001001KA1240N+02221MA1999999091431MD1999999-0071REMSYN076AAXX  28124 83339 32497 22706 10286 20181 39143 40081 82200 333 20222 59007;
0137833390999992006102818004-14050-042617FM-12+088299999V0202301N003110042019N0100001N1+03231+01631100211ADDGF106991051021004501031001MA1999999090991MD1999999-0111REMSYN070AAXX  28184 83339 32497 62306 10323 20163 39099 40021 85230 333 59011;
0178833390999992006102900004-14050-042617FM-12+088299999V0201801N001512200019N0020001N1+02461+01811100561ADDGA1001+999999999GF100991001001999999001001KA1240M+03241MA1999999091201MD1999999-0111REMSYN082AAXX  29004 83339 32995 01803 10246 20181 39120 40056 333 10324 29056 55089 59011;
0201833390999992006102912004-14050-042617FM-12+088299999V0209999C000010042019N0020001N1+02151+02061100961ADDAA124008991AY161061AY221061GF108991051021004501021999KA1240N+02041MA1999999091431MD1999999+0001MW1401REMSYN088AAXX  29124 83339 21495 80000 10215 20206 39143 40096 74062 8522/ 333 20204 58000 60094;
0165833390999992006102918004-14050-042617FM-12+088299999V0201801N002610042019N0100001N1+02621+01811100431ADDAY141061AY221061GF106991061021004501001001MA1999999090961MD1999999-0031MW1021REMSYN076AAXX  29184 83339 31497 61805 10262 20181 39096 40043 70242 86200 333 59003;
0168833390999992006103000004-14050-042617FM-12+088299999V0201401N001010042019N0020001N1+02251+01921100781ADDGF106991061021004501001001KA1240M+02801MA1999999091221MD1999999+0021REMSYN088AAXX  30004 83339 32495 61402 10225 20192 39122 40078 86200 333 10280 29079 55030 58002;
0201833390999992006103012004-14050-042617FM-12+088299999V0209999C000010042019N0040001N1+01911+01871101011ADDAA124018091AY191061AY261061GF108991081051004501999999KA1240N+01841MA1999999091391MD1999999-0041MW1101REMSYN088AAXX  30124 83339 21496 80000 10191 20187 39139 40101 71096 885// 333 20184 59004 60184;
0182833390999992006103018004-14050-042617FM-12+088299999V0201401N000510042019N0100001N1+02211+01991100601ADDAA106006191AY161061AY261061GF106991051021004501021001MA1999999091041MD1999999+0081MW1101REMSYN082AAXX  30184 83339 21497 61401 10221 20199 39104 40060 71066 85220 333 58008 60061;
0196833390999992006103100004-14050-042617FM-12+088299999V0201801N002110042019N0020001N1+01991+01901100901ADDAY101061AY201061GF107991061021004501031001KA1240M+02401MA1999999091241MD1999999+0021MW1101REMSYN094AAXX  31004 83339 31495 71804 10199 20190 39124 40090 71000 86230 333 10240 29094 55012 58002;
0201833390999992006103112004-14050-042617FM-12+088299999V0200901N001010042019N0040001N1+01931+01891101211ADDAA124007991AY161061AY261061GF108991081051004501999999KA1240N+01901MA1999999091511MD1999999+0121MW1601REMSYN088AAXX  31124 83339 21496 80902 10193 20189 39151 40121 76066 885// 333 20190 58012 60084;
0137833390999992006103118004-14050-042617FM-12+088299999V0203601N003110042019N0100001N1+02611+01651100661ADDGF105991051021004501001001MA1999999091141MD1999999+0101REMSYN070AAXX  31184 83339 32497 53606 10261 20165 39114 40066 85200 333 58010;
0213833390999992006110100004-14050-042617FM-12+088299999V0201401N003110042019N0020001N1+02211+01821100971ADDAA106008991AY161061AY261061GF106991061021004501001001KA1240M+02251MA1999999091341MD1999999+0101MW1021REMSYN100AAXX  01004 83339 21495 61406 10221 20182 39134 40097 70266 86200 333 10225 29078 55025 58010 60091;
0201833390999992006110112004-14050-042617FM-12+088299999V0201401N004610042019N0100001N1+02191+01821101201ADDAA124008991AY161061AY261061GF106991061021004501001001KA1240N+01881MA1999999091601MD1999999+0091MW1101REMSYN088AAXX  01124 83339 21497 61409 10219 20182 39160 40120 71066 86200 333 20188 58009 60094;
0137833390999992006110118004-14050-042617FM-12+088299999V0200901N005112200019N0100001N1+02791+01481100671ADDGF102991021021004501001001MA1999999091201MD1999999+0061REMSYN070AAXX  01184 83339 32497 20910 10279 20148 39120 40067 82200 333 58006;
0178833390999992006110200004-14050-042617FM-12+088299999V0200501N006212200019N0020001N1+02291+01541100971ADDGA1001+999999999GF100991001001999999001001KA1240M+02841MA1999999091421MD1999999+0081REMSYN082AAXX  02004 83339 32995 00512 10229 20154 39142 40097 333 10284 29064 55087 58008;
0184833390999992006110212004-14050-042617FM-12+088299999V0200901N003610042019N0100001N1+02151+01861101201ADDAY101061AY201061GF106991061021004501001001KA1240N+01901MA1999999091601MD1999999+0001MW1101REMSYN082AAXX  02124 83339 31497 60907 10215 20186 39160 40120 71000 86200 333 20190 58000;
0137833390999992006110218004-14050-042617FM-12+088299999V0200501N004612200019N0100001N1+02851+01501100711ADDGF103991031021004501001001MA1999999091241MD1999999+0041REMSYN070AAXX  02184 83339 32497 30509 10285 20150 39124 40071 83200 333 58004;
0178833390999992006110300004-14050-042617FM-12+088299999V0201801N002612200019N0020001N1+02331+01551101041ADDGA1001+999999999GF100991001001999999001001KA1240M+02901MA1999999091481MD1999999+0061REMSYN082AAXX  03004 83339 32995 01805 10233 20155 39148 40104 333 10290 29063 55084 58006;
0156833390999992006110312004-14050-042617FM-12+088299999V0200901N002112200019N0100001N1+02231+01781101371ADDGF104991031021004501001021KA1240N+01761MA1999999091621MD1999999+0021REMSYN076AAXX  03124 83339 32497 40904 10223 20178 39162 40137 83202 333 20176 58002;
0137833390999992006110318004-14050-042617FM-12+088299999V0201801N002110042019N0100001N1+02791+01551100711ADDGF106991051021004501021001MA1999999091221MD1999999-0021REMSYN070AAXX  03184 83339 32497 61804 10279 20155 39122 40071 85220 333 59002;
0168833390999992006110400004-14050-042617FM-12+088299999V0201401N001512200019N0020001N1+02311+01581100901ADDGF102991021021004501001001KA1240M+02921MA1999999091351MD1999999-0131REMSYN088AAXX  04004 83339 32495 21403 10231 20158 39135 40090 82200 333 10292 29064 55075 59013;
0156833390999992006110412004-14050-042617FM-12+088299999V0203201N002112200019N0100001N1+02451+01791100971ADDGF104991031021004501021001KA1240N+01841MA1999999091471MD1999999-0151REMSYN076AAXX  04124 83339 32497 43204 10245 20179 39147 40097 83220 333 20184 59015;
0137833390999992006110418004-14050-042617FM-12+088299999V0200901N002610042019N0100001N1+02931+01671100501ADDGF106991051021004501001021MA1999999091061MD1999999-0161REMSYN070AAXX  04184 83339 32497 60905 10293 20167 39106 40050 85202 333 59016;
0168833390999992006110500004-14050-042617FM-12+088299999V0201801N004112200019N0020001N1+02451+01591100651ADDGF102991011021004501031001KA1240M+02961MA1999999091201MD1999999-0151REMSYN088AAXX  05004 83339 32495 21808 10245 20159 39120 40065 81230 333 10296 29057 55082 59015;
0156833390999992006110512004-14050-042617FM-12+088299999V0201401N003110450019N0100001N1+02291+01771100911ADDGF105991041021004501031001KA1240N+01861MA1999999091401MD1999999-0071REMSYN076AAXX  05124 83339 32497 51406 10229 20177 39140 40091 84230 333 20186 59007;
0137833390999992006110518004-14050-042617FM-12+088299999V0200901N004610042019N0100001N1+02931+01571100411ADDGF106991051021004501021001MA1999999091011MD1999999-0051REMSYN070AAXX  05184 83339 32497 60909 10293 20157 39101 40041 85220 333 59005;
0168833390999992006110600004-14050-042617FM-12+088299999V0200501N004112200019N0020001N1+02431+01221100751ADDGF102991021021004501001001KA1240M+03081MA1999999091251MD1999999+0051REMSYN088AAXX  06004 83339 32495 20508 10243 20122 39125 40075 82200 333 10308 29054 55093 58005;
0156833390999992006110612004-14050-042617FM-12+088299999V0200901N004112200019N0100001N1+02271+01751100931ADDGF102991011011004501001011KA1240N+01941MA1999999091441MD1999999+0041REMSYN076AAXX  06124 83339 32497 20908 10227 20175 39144 40093 81101 333 20194 58004;
0137833390999992006110618004-14050-042617FM-12+088299999V0200901N003112200019N0100001N1+03071+01641100431ADDGF105991031021004501001041MA1999999091031MD1999999+0021REMSYN070AAXX  06184 83339 32497 50906 10307 20164 39103 40043 83204 333 58002;
0178833390999992006110700004-14050-042617FM-12+088299999V0200901N001512200019N0020001N1+02481+01491100721ADDGA1001+999999999GF100991001001999999001001KA1240M+03101MA1999999091231MD1999999-0021REMSYN082AAXX  07004 83339 32995 00903 10248 20149 39123 40072 333 10310 29056 55103 59002;
0156833390999992006110712004-14050-042617FM-12+088299999V0200901N000510450019N0100001N1+02561+01831100801ADDGF106991021011004501031001KA1240N+02101MA1999999091361MD1999999-0081REMSYN076AAXX  07124 83339 32497 60901 10256 20183 39136 40080 82130 333 20210 59008;
0137833390999992006110718004-14050-042617FM-12+088299999V0200501N001510042019N0100001N1+02721+01901100471ADDGF106991061021004501001001MA1999999091061MD1999999+0031REMSYN070AAXX  07184 83339 32497 60503 10272 20190 39106 40047 86200 333 58003;
0213833390999992006110800004-14050-042617FM-12+088299999V0209999C000010042019N0020001N1+02191+01921100701ADDAA106008991AY161061AY221061GF106991061021004501001001KA1240M+03041MA1999999091211MD1999999-0731MW1021REMSYN100AAXX  08004 83339 21495 60000 10219 20192 39121 40070 70262 86200 333 10304 29073 55018 59073 60091;
0201833390999992006110812004-14050-042617FM-12+088299999V0202701N001510042019N0100001N1+02231+01991100951ADDAA124009991AY161061AY221061GF108991051021004501021999KA1240N+02081MA1999999091371MD1999999+0011MW1021REMSYN088AAXX  08124 83339 21497 82703 10223 20199 39137 40095 70262 8522/ 333 20208 58001 60104;
0168833390999992006110900004-14050-042617FM-12+088299999V0209999C000010450019N0020001N1+02091+01981100951ADDGF108991041021004501021999KA1240M+02581MA1999999091351MD1999999+0141REMSYN088AAXX  09004 83339 32495 80000 10209 20198 39135 40095 8422/ 333 10258 29084 55000 58014;
0156833390999992006110912004-14050-042617FM-12+088299999V0201801N002610450019N0100001N1+02341+01911101011ADDGF106991031021004501031001KA1240N+01921MA1999999091431MD1999999+0061REMSYN076AAXX  09124 83339 32497 61805 10234 20191 39143 40101 83230 333 20192 58006;
0137833390999992006110918004-14050-042617FM-12+088299999V0200901N000510042019N0100001N1+02781+01931100541ADDGF106991061021004501001001MA1999999091081MD1999999+0021REMSYN070AAXX  09184 83339 32497 60901 10278 20193 39108 40054 86200 333 58002;
0168833390999992006111000004-14050-042617FM-12+088299999V0200901N001010042019N0020001N1+02351+02011100871ADDGF106991061021004501001001KA1240M+02821MA1999999091361MD1999999+0011REMSYN088AAXX  10004 83339 32495 60902 10235 20201 39136 40087 86200 333 10282 29075 55044 58001;
0201833390999992006111012004-14050-042617FM-12+088299999V0200901N001010042019N0100001N1+02241+02071100921ADDAA124011991AY161061AY221061GF108991051021004501021999KA1240N+02041MA1999999091391MD1999999-0041MW1021REMSYN088AAXX  10124 83339 21497 80902 10224 20207 39139 40092 70262 8522/ 333 20204 59004 60124;
0137833390999992006111018004-14050-042617FM-12+088299999V0202301N003112200019N0100001N1+02821+01911100321ADDGF104991041021004501001001MA1999999090971MD1999999-0151REMSYN070AAXX  10184 83339 32497 42306 10282 20191 39097 40032 84200 333 59015;
0213833390999992006111100004-14050-042617FM-12+088299999V0203201N001010042019N0020001N1+02131+02001100821ADDAA106002091AY161061AY221061GF108991051021004501021999KA1240M+02901MA1999999091251MD1999999-0111MW1601REMSYN100AAXX  11004 83339 21495 83202 10213 20200 39125 40082 76062 8522/ 333 10290 29083 55050 59011 60021;
0201833390999992006111112004-14050-042617FM-12+088299999V0203201N001510450019N0100001N1+02281+02031100911ADDAA124003091AY161061AY221061GF108991041021004501021999KA1240N+02061MA1999999091341MD1999999-0051MW1021REMSYN088AAXX  11124 83339 21497 83203 10228 20203 39134 40091 70262 8422/ 333 20206 59005 60034;
0182833390999992006111118004-14050-042617FM-12+088299999V0202701N002110042019N0020001N1+02521+02111100651ADDAA106001091AY161061AY221061GF108991061021004501021999MA1999999091111MD1999999+0181MW1601REMSYN082AAXX  11184 83339 21495 82704 10252 20211 39111 40065 76062 8622/ 333 58018 60011;
0213833390999992006111200004-14050-042617FM-12+088299999V0209999C000010042019N0020001N1+02031+01971101001ADDAA106020191AY161061AY261061GF108991051021004501021999KA1240M+02601MA1999999091401MD1999999+0151MW1601REMSYN100AAXX  12004 83339 21495 80000 10203 20197 39140 40100 76066 8522/ 333 10260 29089 55005 58015 60201;
0201833390999992006111212004-14050-042617FM-12+088299999V0209999C000010042019N0020001N1+01741+01711101361ADDAA124079091AY161061AY261061GF108991061021004501021999KA1240N+01721MA1999999091631MD1999999+0291MW1601REMSYN088AAXX  12124 83339 21495 80000 10174 20171 39163 40136 76066 8622/ 333 20172 58029 60794;
0182833390999992006111218004-14050-042617FM-12+088299999V0201401N004610042019N0020001N1+01921+01841101151ADDAA106009991AY161061AY261061GF108991051021004501021999MA1999999091441MD1999999+0331MW1601REMSYN082AAXX  12184 83339 21495 81409 10192 20184 39144 40115 76066 8522/ 333 58033 60101;
0213833390999992006111300004-14050-042617FM-12+088299999V0201401N008210042019N0020001N1+01751+01731101481ADDAA106001091AY161061AY261061GF108991051021004501021999KA1240M+02041MA1999999091671MD1999999+0211MW1601REMSYN100AAXX  13004 83339 21495 81416 10175 20173 39167 40148 76066 8522/ 333 10204 29097 55000 58021 60011;
0201833390999992006111312004-14050-042617FM-12+088299999V0201401N003610042019N0040001N1+01811+01751101551ADDAA124015091AY161061AY261061GF108991081051004501999999KA1240N+01601MA1999999091761MD1999999+0131MW1501REMSYN088AAXX  13124 83339 21496 81407 10181 20175 39176 40155 75066 885// 333 20160 58013 60154;
0182833390999992006111318004-14050-042617FM-12+088299999V0200901N006710042019N0040001N1+01851+01711101221ADDAA106000591AY161061AY261061GF108991081051004501999999MA1999999091461MD1999999+0021MW1501REMSYN082AAXX  13184 83339 21496 80913 10185 20171 39146 40122 75066 885// 333 58002 69941;
0213833390999992006111400004-14050-042617FM-12+088299999V0201401N009810042019N0020001N1+01751+01691101301ADDAA106000591AY161061AY261061GF108991081051004501999999KA1240M+01901MA1999999091571MD1999999-0101MW1501REMSYN100AAXX  14004 83339 21495 81419 10175 20169 39157 40130 75066 885// 333 10190 29096 55000 59010 69941;
0201833390999992006111412004-14050-042617FM-12+088299999V0200901N005710042019N0040001N1+01851+01821101411ADDAA124002091AY161061AY261061GF108991081051004501999999KA1240N+01681MA1999999091641MD1999999-0121MW1501REMSYN088AAXX  14124 83339 21496 80911 10185 20182 39164 40141 75066 885// 333 20168 59012 60024;
0165833390999992006111418004-14050-042617FM-12+088299999V0200501N004610042019N0100001N1+02531+01581101201ADDAY101061AY251061GF105991051021004501001001MA1999999091401MD1999999-0061MW1021REMSYN076AAXX  14184 83339 31497 50509 10253 20158 39140 40120 70205 85200 333 59006;
0168833390999992006111500004-14050-042617FM-12+088299999V0201401N004612200019N0020001N1+02131+01571101231ADDGF104991041021004501001001KA1240M+02301MA1999999091551MD1999999-0021REMSYN088AAXX  15004 83339 32495 41409 10213 20157 39155 40123 84200 333 10230 29075 55064 59002;
0184833390999992006111512004-14050-042617FM-12+088299999V0200901N004610042019N0100001N1+02091+01741101341ADDAY101061AY201061GF106991061021004501001001KA1240N+01801MA1999999091691MD1999999+0051MW1101REMSYN082AAXX  15124 83339 31497 60909 10209 20174 39169 40134 71000 86200 333 20180 58005;
0137833390999992006111518004-14050-042617FM-12+088299999V0200501N005110042019N0100001N1+02231+01781101151ADDGF106991061021004501001001MA1999999091531MD1999999+0131REMSYN070AAXX  15184 83339 32497 60510 10223 20178 39153 40115 86200 333 58013;
0168833390999992006111600004-14050-042617FM-12+088299999V0201801N007212200019N0020001N1+01991+01541101411ADDGF104991041021004501001001KA1240M+02501MA1999999091741MD1999999+0191REMSYN088AAXX  16004 83339 32495 41814 10199 20154 39174 40141 84200 333 10250 29078 55043 58019;
0156833390999992006111612004-14050-042617FM-12+088299999V0201401N008210042019N0100001N1+02071+01601101411ADDGF105991051021004501001001KA1240N+01721MA1999999091741MD1999999+0051REMSYN076AAXX  16124 83339 32497 51416 10207 20160 39174 40141 85200 333 20172 58005;
0137833390999992006111618004-14050-042617FM-12+088299999V0203601N006712200019N0100001N1+02491+01541101031ADDGF103991031021004501001001MA1999999091491MD1999999-0041REMSYN070AAXX  16184 83339 32497 33613 10249 20154 39149 40103 83200 333 59004;
0168833390999992006111700004-14050-042617FM-12+088299999V0201801N001512200019N0020001N1+02131+01511101371ADDGF102991021021004501001001KA1240M+02581MA1999999091721MD1999999-0021REMSYN088AAXX  17004 83339 32495 21803 10213 20151 39172 40137 82200 333 10258 29067 55097 59002;
0156833390999992006111712004-14050-042617FM-12+088299999V0203201N006210042019N0100001N1+02151+01701101431ADDGF105991051021004501001001KA1240N+01761MA1999999091791MD1999999+0051REMSYN076AAXX  17124 83339 32497 53212 10215 20170 39179 40143 85200 333 20176 58005;
0137833390999992006111718004-14050-042617FM-12+088299999V0201401N006212200019N0100001N1+02571+01591101101ADDGF102991021021004501001001MA1999999091471MD1999999-0021REMSYN070AAXX  17184 83339 32497 21412 10257 20159 39147 40110 82200 333 59002;
0178833390999992006111800004-14050-042617FM-12+088299999V0201401N004112200019N0020001N1+02091+01561101201ADDGA1001+999999999GF100991001001999999001001KA1240M+02641MA1999999091561MD1999999-0161REMSYN082AAXX  18004 83339 32995 01408 10209 20156 39156 40120 333 10264 29069 55096 59016;
0156833390999992006111812004-14050-042617FM-12+088299999V0200901N005112200019N0100001N1+02191+01701101361ADDGF103991031021004501001001KA1240N+01601MA1999999091731MD1999999-0061REMSYN076AAXX  18124 83339 32497 30910 10219 20170 39173 40136 83200 333 20160 59006;
0137833390999992006111818004-14050-042617FM-12+088299999V0200501N002612200019N0100001N1+02751+01611101081ADDGF102991021021004501001001MA1999999091351MD1999999-0121REMSYN070AAXX  18184 83339 32497 20505 10275 20161 39135 40108 82200 333 59012;
0178833390999992006111900004-14050-042617FM-12+088299999V0201801N000512200019N0020001N1+02131+01601101031ADDGA1001+999999999GF100991001001999999001001KA1240M+02801MA1999999091431MD1999999-0131REMSYN082AAXX  19004 83339 32995 01801 10213 20160 39143 40103 333 10280 29067 55118 59013;
0156833390999992006111912004-14050-042617FM-12+088299999V0201401N003612200019N0100001N1+02331+01851101191ADDGF102991021021004501001001KA1240N+01741MA1999999091621MD1999999-0111REMSYN076AAXX  19124 83339 32497 21407 10233 20185 39162 40119 82200 333 20174 59011;
0137833390999992006111918004-14050-042617FM-12+088299999V0201801N002112200019N0100001N1+02871+01441100961ADDGF102991021021004501001001MA1999999091291MD1999999-0061REMSYN070AAXX  19184 83339 32497 21804 10287 20144 39129 40096 82200 333 59006;
0178833390999992006112000004-14050-042617FM-12+088299999V0201401N002112200019N0020001N1+02291+01441100931ADDGA1001+999999999GF100991001001999999001001KA1240M+02981MA1999999091401MD1999999-0031REMSYN082AAXX  20004 83339 32995 01404 10229 20144 39140 40093 333 10298 29059 55117 59003;
0156833390999992006112012004-14050-042617FM-12+088299999V0201401N002112200019N0100001N1+02411+01911101221ADDGF102991021011004501001001KA1240N+01761MA1999999091681MD1999999+0061REMSYN076AAXX  20124 83339 32497 21404 10241 20191 39168 40122 82100 333 20176 58006;
0201833390999992006112018004-14050-042617FM-12+088299999V0203601N002612200019N0100001N1+02751+01751100801ADDAA106000091AY161061AY221061GF104991041021004501001001MA1999999091321MD1999999+0031MW1021REMSYN082AAXX  20184 83339 21497 43605 10275 20175 39132 40080 70262 84200 333 58003 69921;EQDQ01  00002PRCP06
0232833390999992006112100004-14050-042617FM-12+088299999V0201401N000512200019N0020001N1+02111+01801101041ADDAA106000091AY161061AY221061GF102991021021004501001001KA1240M+02881MA1999999091481MD1999999+0081MW1021REMSYN100AAXX  21004 83339 21495 21401 10211 20180 39148 40104 70262 82200 333 10288 29073 55085 58008 69921;EQDQ01  00002PRCP06
0201833390999992006112118004-14050-042617FM-12+088299999V0202701N003112200019N0100001N1+02811+01771100851ADDAA106000091AY161061AY221061GF104991041021004501001001MA1999999091361MD1999999+0041MW1021REMSYN082AAXX  21184 83339 21497 42706 10281 20177 39136 40085 70262 84200 333 58004 69921;EQDQ01  00002PRCP06
0168833390999992006112200004-14050-042617FM-12+088299999V0203201N001512200019N0020001N1+02231+01751101121ADDGF104991041021004501001001KA1240M+02861MA1999999091531MD1999999+0051REMSYN088AAXX  22004 83339 32495 43203 10223 20175 39153 40112 84200 333 10286 29073 55046 58005;
0201833390999992006112212004-14050-042617FM-12+088299999V0209999C000010042019N0020001N1+02081+01871101311ADDAA124003091AY161061AY221061GF108991051021004501021999KA1240N+01971MA1999999091681MD1999999-0071MW1401REMSYN088AAXX  22124 83339 21495 80000 10208 20187 39168 40131 74062 8522/ 333 20197 59007 60034;
0165833390999992006112218004-14050-042617FM-12+088299999V0203601N005710042019N0020001N1+02311+01911100941ADDAY191061AY221061GF108991061021004501021999MA1999999091361MD1999999+0001MW1161REMSYN076AAXX  22184 83339 31495 83611 10231 20191 39136 40094 71692 8622/ 333 58000;
0213833390999992006112300004-14050-042617FM-12+088299999V0209999C000010042019N0020001N1+01961+01741101161ADDAA106018091AY161061AY261061GF108991051021004501021999KA1240M+02661MA1999999091491MD1999999-0041MW1021REMSYN100AAXX  23004 83339 21495 80000 10196 20174 39149 40116 70266 8522/ 333 10266 29052 55002 59004 60181;
0201833390999992006112312004-14050-042617FM-12+088299999V0200901N001510042019N0100001N1+02101+01931101231ADDAA124018091AY161061AY221061GF106991061021004501001001KA1240N+01881MA1999999091571MD1999999-0111MW1021REMSYN088AAXX  23124 83339 21497 60903 10210 20193 39157 40123 70262 86200 333 20188 59011 60184;
0165833390999992006112318004-14050-042617FM-12+088299999V0201401N002610042019N0100001N1+02311+02001100881ADDAY121061AY221061GF106991061021004501001001MA1999999091271MD1999999-0091MW1171REMSYN076AAXX  23184 83339 31497 61405 10231 20200 39127 40088 71722 86200 333 59009;
0213833390999992006112400004-14050-042617FM-12+088299999V0209999C000010042019N0020001N1+01911+01841101351ADDAA106025991AY191061AY261061GF108991061021004501021999KA1240M+02581MA1999999091651MD1999999+0161MW1601REMSYN100AAXX  24004 83339 21495 80000 10191 20184 39165 40135 76096 8622/ 333 10258 29090 55018 58016 60261;
0201833390999992006112412004-14050-042617FM-12+088299999V0200901N001510042019N0020001N1+01981+01911101431ADDAA124035191AY161061AY241061GF108991051021004501021999KA1240N+01821MA1999999091711MD1999999+0141MW1401REMSYN088AAXX  24124 83339 21495 80903 10198 20191 39171 40143 74064 8522/ 333 20182 58014 60354;
0213833390999992006112500004-14050-042617FM-12+088299999V0200901N005110042019N0020001N1+02131+01931101241ADDAA106003091AY161061AY221061GF108991051021004501021999KA1240M+02681MA1999999091581MD1999999-0071MW1021REMSYN100AAXX  25004 83339 21495 80910 10213 20193 39158 40124 70262 8522/ 333 10268 29084 55048 59007 60031;
0201833390999992006112512004-14050-042617FM-12+088299999V0201401N004110042019N0100001N1+02181+01861101321ADDAA124003091AY161061AY221061GF106991061021004501001001KA1240N+01831MA1999999091691MD1999999-0021MW1021REMSYN088AAXX  25124 83339 21497 61408 10218 20186 39169 40132 70262 86200 333 20183 59002 60034;
0137833390999992006112518004-14050-042617FM-12+088299999V0201401N005112200019N0100001N1+02631+01571100911ADDGF102991021021004501001001MA1999999091381MD1999999+0021REMSYN070AAXX  25184 83339 32497 21410 10263 20157 39138 40091 82200 333 58002;
0178833390999992006112600004-14050-042617FM-12+088299999V0201401N005112200019N0020001N1+02131+01911101131ADDGA1001+999999999GF100991001001999999001001KA1240M+02661MA1999999091521MD1999999-0061REMSYN082AAXX  26004 83339 32995 01410 10213 20191 39152 40113 333 10266 29078 55095 59006;
0175833390999992006112612004-14050-042617FM-12+088299999V0201401N003612200019N0100001N1+02191+01631101251ADDGF102991001001999999001011KA1240N+01721MA1999999091631MD1999999-0061REMSYN076AAXX  26124 83339 32897 21407 10219 20163 39163 40125 80001 333 20172 59006;EQDQ01+022502SCOLCB
0137833390999992006112618004-14050-042617FM-12+088299999V0201401N002612200019N0100001N1+02681+01351100771ADDGF105991011021004501001041MA1999999091251MD1999999-0131REMSYN070AAXX  26184 83339 32497 51405 10268 20135 39125 40077 81204 333 59013;
0178833390999992006112700004-14050-042617FM-12+088299999V0201401N003112200019N0020001N1+02211+01621101001ADDGA1001+999999999GF100991001001999999001001KA1240M+02761MA1999999091431MD1999999-0101REMSYN082AAXX  27004 83339 32995 01406 10221 20162 39143 40100 333 10276 29063 55108 59010;
0156833390999992006112712004-14050-042617FM-12+088299999V0200501N003612200019N0100001N1+02431+01791101221ADDGF102991011021004501001041KA1240N+01731MA1999999091461MD1999999-0171REMSYN076AAXX  27124 83339 32497 20507 10243 20179 39146 40122 81204 333 20173 59017;
0172833390999992006112718004-14050-042617FM-12+088299999V0201801N000510042019N0100001N1+02391+01871100771ADDGF106991051021004501021001MA1999999999999MD1999999+0001REMSYN070AAXX  27184 83339 32497 61801 10239 20187 30125 40077 85220 333 58000;EQDQ01+101253APOSP Q02 101253APOSP 
0168833390999992006112800004-14050-042617FM-12+088299999V0201401N003610042019N0020001N1+02291+01771100911ADDGF106991061021004501001001KA1240M+02961MA1999999091401MD1999999-0021REMSYN088AAXX  28004 83339 32495 61407 10229 20177 39140 40091 86200 333 10296 29072 55071 59002;
0156833390999992006112812004-14050-042617FM-12+088299999V0200901N004610042019N0100001N1+02431+01791101081ADDGF106991051021004501031001KA1240N+02001MA1999999091551MD1999999+0091REMSYN076AAXX  28124 83339 32497 60909 10243 20179 39155 40108 85230 333 20200 58009;
0182833390999992006112818004-14050-042617FM-12+088299999V0209999C000010042019N0040001N1+02071+01801100921ADDAA106018091AY191061AY261061GF107991061021004501021999MA1999999091311MD1999999+0061MW1101REMSYN082AAXX  28184 83339 21496 70000 10207 20180 39131 40092 71096 8622/ 333 58006 60181;
0213833390999992006112900004-14050-042617FM-12+088299999V0209999C000010042019N0020001N1+01971+01771101081ADDAA106002091AY191061AY261061GF108991081051004501999999KA1240M+02741MA1999999091491MD1999999+0091MW1101REMSYN100AAXX  29004 83339 21495 80000 10197 20177 39149 40108 71096 885// 333 10274 29083 55020 58009 60021;
0201833390999992006112912004-14050-042617FM-12+088299999V0209999C000010042019N0100001N1+02131+01911101321ADDAA124020191AY161061AY261061GF106991051021004501031001KA1240N+01801MA1999999091591MD1999999+0041MW1101REMSYN088AAXX  29124 83339 21497 60000 10213 20191 39159 40132 71066 85230 333 20180 58004 60204;
0165833390999992006112918004-14050-042617FM-12+088299999V0203601N001510042019N0100001N1+02551+01911100891ADDAY101061AY201061GF106991051021004501021001MA1999999091321MD1999999+0011MW1171REMSYN076AAXX  29184 83339 31497 63603 10255 20191 39132 40089 71700 85220 333 58001;
0201833390999992006113012004-14050-042617FM-12+088299999V0203201N002110042019N0100001N1+02391+01971101101ADDAA124002091AY161061AY261061GF106991051021004501031001KA1240N+02001MA1999999091541MD1999999-0051MW1021REMSYN088AAXX  30124 83339 21497 63204 10239 20197 39154 40110 70266 85230 333 20200 59005 60024;
0182833390999992006113018004-14050-042617FM-12+088299999V0203601N000510042019N0040001N1+02171+01931101011ADDAA106007191AY191061AY261061GF108991081051004501999999MA1999999091391MD1999999+0071MW1611REMSYN082AAXX  30184 83339 21496 83601 10217 20193 39139 40101 76196 885// 333 58007 60071;
0213833390999992006120100004-14050-042617FM-12+088299999V0209999C000010042019N0020001N1+01991+01851101151ADDAA106003091AY161061AY261061GF108991081051004501999999KA1240M+02801MA1999999091551MD1999999+0101MW1611REMSYN100AAXX  01004 83339 21495 80000 10199 20185 39155 40115 76166 885// 333 10280 29087 55017 58010 60031;
0201833390999992006120112004-14050-042617FM-12+088299999V0209999C000010042019N0040001N1+02151+01801101331ADDAA124009991AY161061AY261061GF107991061021004501021999KA1240N+01801MA1999999091601MD1999999+0061MW1101REMSYN088AAXX  01124 83339 21496 70000 10215 20180 39160 40133 71066 8622/ 333 20180 58006 60104;
0182833390999992006120118004-14050-042617FM-12+088299999V0201801N002110042019N0040001N1+02431+01991100951ADDAA106002091AY161061AY261061GF107991061031004501021999MA1999999091351MD1999999-0041MW1171REMSYN082AAXX  01184 83339 21496 71804 10243 20199 39135 40095 71766 8632/ 333 59004 60021;
0213833390999992006120200004-14050-042617FM-12+088299999V0209999C000010042019N0020001N1+01911+01821101211ADDAA106033091AY191061AY261061GF106991061021004501001001KA1240M+02701MA1999999091551MD1999999+0001MW1101REMSYN100AAXX  02004 83339 21495 60000 10191 20182 39155 40121 71096 86200 333 10270 29087 55023 58000 60331;
0201833390999992006120212004-14050-042617FM-12+088299999V0203201N003110042019N0040001N1+02091+01951101411ADDAA124035191AY161061AY261061GF108991081051004501999999KA1240N+01841MA1999999091711MD1999999+0111MW1101REMSYN088AAXX  02124 83339 21496 83206 10209 20195 39171 40141 71066 885// 333 20184 58011 60354;
0137833390999992006120218004-14050-042617FM-12+088299999V0201401N005712200019N0100001N1+02581+01601101081ADDGF102991021021004501001001MA1999999091491MD1999999+0141REMSYN070AAXX  02184 83339 32497 21411 10258 20160 39149 40108 82200 333 58014;
0178833390999992006120300004-14050-042617FM-12+088299999V0200901N001512200019N0020001N1+02551+01101101221ADDGA1001+999999999GF100991001001999999001001KA1240M+02601MA1999999091601MD1999999+0051REMSYN082AAXX  03004 83339 32495 00903 10255 20110 39160 40122 333 10260 29062 55085 58005;
0156833390999992006120312004-14050-042617FM-12+088299999V0200901N003612200019N0100001N1+02171+01741101341ADDGF104991031021004501051001KA1240N+01841MA1999999091731MD1999999+0021REMSYN076AAXX  03124 83339 32497 40907 10217 20174 39173 40134 83250 333 20184 58002;
0137833390999992006120318004-14050-042617FM-12+088299999V0201401N004612200019N0100001N1+02651+01391101031ADDGF102991021021004501001001MA1999999091511MD1999999+0021REMSYN070AAXX  03184 83339 32497 21409 10265 20139 39151 40103 82200 333 58002;
0156833390999992006120412004-14050-042617FM-12+088299999V0200901N004612200019N0100001N1+02321+01671101251ADDGF102991021011004501001001KA1240N+01841MA1999999091671MD1999999-0061REMSYN076AAXX  04124 83339 32497 20909 10232 20167 39167 40125 82100 333 20184 59006;
0137833390999992006120418004-14050-042617FM-12+088299999V0200901N005112200019N0100001N1+02641+01721100831ADDGF102991021021004501001001MA1999999091331MD1999999-0181REMSYN070AAXX  04184 83339 32497 20910 10264 20172 39133 40083 82200 333 59018;
0178833390999992006120500004-14050-042617FM-12+088299999V0200901N002112200019N0020001N1+02291+01651101011ADDGA1001+999999999GF100991001001999999001001KA1240M+02721MA1999999091471MD1999999-0131REMSYN082AAXX  05004 83339 32995 00904 10229 20165 39147 40101 333 10272 29064 55120 59013;
0166833390999992006120512004-14050-042617FM-12+088299999V0201401N003112200019N0100001N1+02281+01731101271ADDGA1001+999999999GF100991001001999999001001KA1240N+01781MA1999999091711MD1999999+0041REMSYN070AAXX  05124 83339 32997 01406 10228 20173 39171 40127 333 20178 58004;
0137833390999992006120518004-14050-042617FM-12+088299999V0201401N003612200019N0100001N1+02761+01751100911ADDGF103991021011004501001011MA1999999091421MD1999999+0091REMSYN070AAXX  05184 83339 32497 31407 10276 20175 39142 40091 82101 333 58009;
0168833390999992006120600004-14050-042617FM-12+088299999V0201401N004112200019N0020001N1+02331+01691101141ADDGF103991031021004501001001KA1240M+02871MA1999999091591MD1999999+0121REMSYN088AAXX  06004 83339 32495 31408 10233 20169 39159 40114 83200 333 10287 29065 55114 58012;
0187833390999992006120700004-14050-042617FM-12+088299999V0201401N004112200019N0020001N1+02391+01821100871ADDGF102991001001999999001011KA1240M+02961MA1999999091361MD1999999-0231REMSYN088AAXX  07004 83339 32895 21408 10239 20182 39136 40087 80001 333 10296 29068 55094 59023;EQDQ01+022502SCOLCB
0166833390999992006120712004-14050-042617FM-12+088299999V0200901N002612200019N0100001N1+02551+01931100881ADDGA1001+999999999GF100991001001999999001001KA1240N+01871MA1999999091411MD1999999-0241REMSYN070AAXX  07124 83339 32997 00905 10255 20193 39141 40088 333 20187 59024;
0182833390999992006120718004-14050-042617FM-12+088299999V0209999C000010042019N0100001N1+02631+02051100451ADDAA106003091AY191061AY261061GF106991061021004501001001MA1999999091001MD1999999-0261MW1021REMSYN082AAXX  07184 83339 21497 60000 10263 20205 39100 40045 70296 86200 333 59026 60031;
0213833390999992006120800004-14050-042617FM-12+088299999V0209999C000010042019N0020001N1+02041+01831100851ADDAA106000591AY191061AY261061GF108991051021004501021999KA1240M+03041MA1999999091331MD1999999-0031MW1021REMSYN100AAXX  08004 83339 21495 80000 10204 20183 39133 40085 70296 8522/ 333 10304 29078 55071 59003 69961;
0220833390999992006120812004-14050-042617FM-12+088299999V0209999C000019999999N0100001N1+02261+02071101041ADDAA124015091AY161061AY221061GF105991999001008001031001KA1240N+01981MA1999999091441MD1999999+0031MW1021REMSYN088AAXX  08124 83339 21597 50000 10226 20207 39144 40104 70262 80030 333 20198 58003 60154;EQDQ01+000002SCOTLC
0168833390999992006120900004-14050-042617FM-12+088299999V0209999C000010042019N0020001N1+02091+01891100981ADDGF105991051021004501001001KA1240M+02841MA1999999091381MD1999999+0051REMSYN088AAXX  09004 83339 32495 50000 10209 20189 39138 40098 85200 333 10284 29089 55030 58005;
0201833390999992006120912004-14050-042617FM-12+088299999V0200901N001510450019N0100001N1+02101+01911101231ADDAA124023191AY161061AY221061GF108991031011004501021999KA1240N+01941MA1999999091591MD1999999+0151MW1021REMSYN088AAXX  09124 83339 21497 80903 10210 20191 39159 40123 70262 8312/ 333 20194 58015 60234;
0137833390999992006120918004-14050-042617FM-12+088299999V0200501N001012200019N0100001N1+02431+02031100941ADDGF104991011011004501031011MA1999999091311MD1999999+0161REMSYN070AAXX  09184 83339 32497 40502 10243 20203 39131 40094 81131 333 58016;
0168833390999992006121000004-14050-042617FM-12+088299999V0209999C000012200019N0020001N1+02111+01981101011ADDGF102991021011004501001001KA1240M+02561MA1999999091391MD1999999+0011REMSYN088AAXX  10004 83339 32495 20000 10211 20198 39139 40101 82100 333 10256 29088 55032 58001;
0156833390999992006121012004-14050-042617FM-12+088299999V0202701N002110450019N0100001N1+02471+02031101021ADDGF106991031021004501031001KA1240N+02041MA1999999091461MD1999999-0131REMSYN076AAXX  10124 83339 32497 62704 10247 20203 39146 40102 83230 333 20204 59013;
0182833390999992006121018004-14050-042617FM-12+088299999V0209999C000010042019N0020001N1+02251+02141100791ADDAA106002091AY161061AY221061GF108991051021004501021999MA1999999091251MD1999999-0101MW1171REMSYN082AAXX  10184 83339 21495 80000 10225 20214 39125 40079 71762 8522/ 333 59010 60021;
0213833390999992006121100004-14050-042617FM-12+088299999V0209999C000010042019N0020001N1+02131+02001100941ADDAA106017091AY191061AY261061GF108991051021004501021999KA1240M+02921MA1999999091411MD1999999+0021MW1101REMSYN100AAXX  11004 83339 21495 80000 10213 20200 39141 40094 71096 8522/ 333 10292 29088 55028 58002 60171;
0201833390999992006121112004-14050-042617FM-12+088299999V0203601N002610042019N0040001N1+02151+01971101141ADDAA124020191AY161061AY261061GF108991081051004501999999KA1240N+01981MA1999999091531MD1999999+0071MW1101REMSYN088AAXX  11124 83339 21496 83605 10215 20197 39153 40114 71066 885// 333 20198 58007 60204;
0137833390999992006121118004-14050-042617FM-12+088299999V0203201N004110042019N0100001N1+02431+01951100861ADDGF106991051021004501021001MA1999999091321MD1999999+0111REMSYN070AAXX  11184 83339 32497 63208 10243 20195 39132 40086 85220 333 58011;
0196833390999992006121200004-14050-042617FM-12+088299999V0201401N000510042019N0020001N1+02091+01871101141ADDAY101061AY201061GF106991061021004501001001KA1240M+02581MA1999999091511MD1999999+0101MW1101REMSYN094AAXX  12004 83339 31495 61401 10209 20187 39151 40114 71000 86200 333 10258 29085 55004 58010;
0184833390999992006121212004-14050-042617FM-12+088299999V0200901N000510042019N0040001N1+02071+01931101241ADDAY101061AY201061GF108991081051004501999999KA1240N+01931MA1999999091601MD1999999+0081MW1101REMSYN082AAXX  12124 83339 31496 80901 10207 20193 39160 40124 71000 885// 333 20193 58008;
0137833390999992006121218004-14050-042617FM-12+088299999V0201401N003110042019N0100001N1+02571+01931100741ADDGF106991051021004501031001MA1999999091231MD1999999-0091REMSYN070AAXX  12184 83339 32497 61406 10257 20193 39123 40074 85230 333 59009;
0213833390999992006121300004-14050-042617FM-12+088299999V0209999C000010042019N0020001N1+02151+01971101061ADDAA106011991AY161061AY261061GF106991051021004501021001KA1240M+02631MA1999999091441MD1999999-0071MW1131REMSYN100AAXX  13004 83339 21495 60000 10215 20197 39144 40106 71366 85220 333 10263 29085 55018 59007 60121;
0201833390999992006121312004-14050-042617FM-12+088299999V0201401N001010042019N0040001N1+02091+02011101241ADDAA124013091AY161061AY261061GF108991081051004501999999KA1240N+01981MA1999999091601MD1999999+0001MW1101REMSYN088AAXX  13124 83339 21496 81402 10209 20201 39160 40124 71066 885// 333 20198 58000 60134;
0165833390999992006121318004-14050-042617FM-12+088299999V0200901N002110042019N0040001N1+02371+01991100911ADDAY101061AY201061GF107991061021004501021999MA1999999091351MD1999999+0121MW1171REMSYN076AAXX  13184 83339 31496 70904 10237 20199 39135 40091 71700 8622/ 333 58012;
0196833390999992006121400004-14050-042617FM-12+088299999V0201401N001512200019N0020001N1+02221+01821101121ADDAY191061AY201061GF102991021021004501001001KA1240M+02401MA1999999091511MD1999999+0071MW1021REMSYN094AAXX  14004 83339 31495 21403 10222 20182 39151 40112 70290 82200 333 10240 29083 55001 58007;
0156833390999992006121412004-14050-042617FM-12+088299999V0200501N004610042019N0100001N1+02331+01911101191ADDGF106991061021004501001001KA1240N+02001MA1999999091621MD1999999+0021REMSYN076AAXX  14124 83339 32497 60509 10233 20191 39162 40119 86200 333 20200 58002;
0137833390999992006121418004-14050-042617FM-12+088299999V0203201N003611050019N0100001N1+02671+01791100841ADDGF105991041021004501001021MA1999999091351MD1999999+0001REMSYN070AAXX  14184 83339 32497 53207 10267 20179 39135 40084 84202 333 58000;
0168833390999992006121500004-14050-042617FM-12+088299999V0201801N003112200019N0020001N1+02251+01731101041ADDGF102991021021004501001001KA1240M+02981MA1999999091501MD1999999-0011REMSYN088AAXX  15004 83339 32495 21806 10225 20173 39150 40104 82200 333 10298 29071 55076 59001;
0156833390999992006121512004-14050-042617FM-12+088299999V0202301N004610042019N0100001N1+02211+01781101211ADDGF106991061021004501001001KA1240N+01941MA1999999091641MD1999999+0021REMSYN076AAXX  15124 83339 32497 62309 10221 20178 39164 40121 86200 333 20194 58002;
0137833390999992006121518004-14050-042617FM-12+088299999V0200501N005112200019N0100001N1+02571+01591100791ADDGF102991011021004501001041MA1999999091291MD1999999-0061REMSYN070AAXX  15184 83339 32497 20510 10257 20159 39129 40079 81204 333 59006;
0168833390999992006121600004-14050-042617FM-12+088299999V0201401N001512200019N0020001N1+02191+01701101081ADDGF102991021021004501001001KA1240M+02701MA1999999091491MD1999999-0011REMSYN088AAXX  16004 83339 32495 21403 10219 20170 39149 40108 82200 333 10270 29070 55075 59001;
0156833390999992006121612004-14050-042617FM-12+088299999V0201801N003110450019N0100001N1+02251+01731101211ADDGF105991041021004501021001KA1240N+01861MA1999999091611MD1999999-0031REMSYN076AAXX  16124 83339 32497 51806 10225 20173 39161 40121 84220 333 20186 59003;
0137833390999992006121618004-14050-042617FM-12+088299999V0200901N002610042019N0100001N1+02671+01711100841ADDGF106991051021004501031001MA1999999091341MD1999999+0051REMSYN070AAXX  16184 83339 32497 60905 10267 20171 39134 40084 85230 333 58005;
0168833390999992006121700004-14050-042617FM-12+088299999V0201401N003112200019N0020001N1+02271+01791101061ADDGF104991041021004501001001KA1240M+02801MA1999999091501MD1999999+0011REMSYN088AAXX  17004 83339 32495 41406 10227 20179 39150 40106 84200 333 10280 29070 55068 58001;
0201833390999992006121812004-14050-042617FM-12+088299999V0200501N005110042019N0100001N1+02211+01991101321ADDAA124000391AY161061AY221061GF106991061021004501001001KA1240N+02041MA1999999091731MD1999999+0111MW1021REMSYN088AAXX  18124 83339 21497 60510 10221 20199 39173 40132 70262 86200 333 20204 58011 69934;
0137833390999992006121818004-14050-042617FM-12+088299999V0200501N004612200019N0100001N1+02591+01841100821ADDGF105991041021004501001011MA1999999091321MD1999999+0051REMSYN070AAXX  18184 83339 32497 50509 10259 20184 39132 40082 84201 333 58005;
0168833390999992006121900004-14050-042617FM-12+088299999V0200901N002112200019N0020001N1+02261+01821101161ADDGF102991021021004501001001KA1240M+02641MA1999999091591MD1999999-0011REMSYN088AAXX  19004 83339 32495 20904 10226 20182 39159 40116 82200 333 10264 29076 55060 59001;
0156833390999992006121912004-14050-042617FM-12+088299999V0201401N003110042019N0100001N1+02101+01891101331ADDGF108991051021004501021999KA1240N+01961MA1999999091721MD1999999-0011REMSYN076AAXX  19124 83339 32497 81406 10210 20189 39172 40133 8522/ 333 20196 59001;
0137833390999992006121918004-14050-042617FM-12+088299999V0200901N005712200019N0100001N1+02571+01901100981ADDGF104991031021004501031001MA1999999091431MD1999999+0091REMSYN070AAXX  19184 83339 32497 40911 10257 20190 39143 40098 83230 333 58009;
0178833390999992006122000004-14050-042617FM-12+088299999V0200901N003612200019N0020001N1+02181+01651101191ADDGA1001+999999999GF100991001001999999001001KA1240M+02611MA1999999091571MD1999999-0021REMSYN082AAXX  20004 83339 32995 00907 10218 20165 39157 40119 333 10261 29074 55039 59002;
0156833390999992006122012004-14050-042617FM-12+088299999V0200501N002612200019N0100001N1+02271+01901101461ADDGF104991031021004501001011KA1240N+01761MA1999999091841MD1999999+0221REMSYN076AAXX  20124 83339 32497 40505 10227 20190 39184 40146 83201 333 20176 58022;
0137833390999992006122018004-14050-042617FM-12+088299999V0201401N003112200019N0100001N1+02711+01851101051ADDGF106991021021004501001041MA1999999091531MD1999999+0101REMSYN070AAXX  20184 83339 32497 61406 10271 20185 39153 40105 82204 333 58010;
0178833390999992006122100004-14050-042617FM-12+088299999V0209999C000012200019N0020001N1+02251+01821101201ADDGA1001+999999999GF100991001001999999001001KA1240M+02821MA1999999091631MD1999999+0061REMSYN082AAXX  21004 83339 32995 00000 10225 20182 39163 40120 333 10282 29072 55027 58006;
0156833390999992006122112004-14050-042617FM-12+088299999V0200901N003112200019N0100001N1+02271+01811101491ADDGF102991021021004501001001KA1240N+01861MA1999999091881MD1999999+0041REMSYN076AAXX  21124 83339 32497 20906 10227 20181 39188 40149 82200 333 20186 58004;
0137833390999992006122118004-14050-042617FM-12+088299999V0201401N002612200019N0100001N1+02831+01791101131ADDGF102991011011004501001011MA1999999091641MD1999999+0111REMSYN070AAXX  21184 83339 32497 21405 10283 20179 39164 40113 81101 333 58011;
0178833390999992006122200004-14050-042617FM-12+088299999V0201801N003112200019N0020001N1+02341+01301101251ADDGA1001+999999999GF100991001001999999001001KA1240M+02921MA1999999091691MD1999999+0061REMSYN082AAXX  22004 83339 32995 01806 10234 20130 39169 40125 333 10292 29058 55099 58006;
0156833390999992006122212004-14050-042617FM-12+088299999V0201401N003112200019N0100001N1+02331+01831101331ADDGF102991021011004501001001KA1240N+01721MA1999999091781MD1999999-0101REMSYN076AAXX  22124 83339 32497 21406 10233 20183 39178 40133 82100 333 20172 59010;
0137833390999992006122218004-14050-042617FM-12+088299999V0201401N002112200019N0100001N1+02781+01481101031ADDGF102991021011004501001001MA1999999091531MD1999999-0111REMSYN070AAXX  22184 83339 32497 21404 10278 20148 39153 40103 82100 333 59011;
0178833390999992006122300004-14050-042617FM-12+088299999V0201801N002612200019N0020001N1+02311+01281101081ADDGA1001+999999999GF100991001001999999001001KA1240M+02861MA1999999091541MD1999999-0151REMSYN082AAXX  23004 83339 32995 01805 10231 20128 39154 40108 333 10286 29056 55119 59015;
0156833390999992006122312004-14050-042617FM-12+088299999V0200901N003112200019N0100001N1+02351+01851101271ADDGF102991021011004501001001KA1240N+01801MA1999999091731MD1999999-0051REMSYN076AAXX  23124 83339 32497 20906 10235 20185 39173 40127 82100 333 20180 59005;
0137833390999992006122318004-14050-042617FM-12+088299999V0200901N003112200019N0100001N1+02861+01781100941ADDGF102991021011004501001001MA1999999091461MD1999999-0071REMSYN070AAXX  23184 83339 32497 20906 10286 20178 39146 40094 82100 333 59007;
0178833390999992006122400004-14050-042617FM-12+088299999V0201801N001512200019N0020001N1+02331+01571100941ADDGA1001+999999999GF100991001001999999001001KA1240M+03001MA1999999091431MD1999999-0111REMSYN082AAXX  24004 83339 32995 01803 10233 20157 39143 40094 333 10300 29062 55120 59011;
0156833390999992006122412004-14050-042617FM-12+088299999V0201401N003610042019N0100001N1+02051+01851101341ADDGF106991061021004501001001KA1240N+01761MA1999999091731MD1999999+0001REMSYN076AAXX  24124 83339 32497 61407 10205 20185 39173 40134 86200 333 20176 58000;
0137833390999992006122418004-14050-042617FM-12+088299999V0201401N003612200019N0100001N1+02941+01881100831ADDGF102991021021004501001001MA1999999091391MD1999999-0071REMSYN070AAXX  24184 83339 32497 21407 10294 20188 39139 40083 82200 333 59007;
0178833390999992006122500004-14050-042617FM-12+088299999V0209999C000012200019N0020001N1+02371+01781101111ADDGA1001+999999999GF100991001001999999001001KA1240M+03001MA1999999091521MD1999999+0091REMSYN082AAXX  25004 83339 32995 00000 10237 20178 39152 40111 333 10300 29070 55013 58009;
0166833390999992006122512004-14050-042617FM-12+088299999V0200501N003612200019N0100001N1+02451+01811101141ADDGA1001+999999999GF100991001001999999001001KA1240N+01831MA1999999091631MD1999999-0101REMSYN070AAXX  25124 83339 32997 00507 10245 20181 39163 40114 333 20183 59010;
0137833390999992006122518004-14050-042617FM-12+088299999V0200901N004112200019N0100001N1+03071+01421100571ADDGF102991011021004501021001MA1999999091191MD1999999-0201REMSYN070AAXX  25184 83339 32497 20908 10307 20142 39119 40057 81220 333 59020;
0178833390999992006122600004-14050-042617FM-12+088299999V0201801N000512200019N0020001N1+02391+01421100771ADDGA1001+999999999GF100991001001999999001001KA1240M+03141MA1999999091291MD1999999-0231REMSYN082AAXX  26004 83339 32995 01801 10239 20142 39129 40077 333 10314 29054 55113 59023;
0156833390999992006122612004-14050-042617FM-12+088299999V0203201N003112200019N0100001N1+02411+01821100931ADDGF102991021021004501001001KA1240N+01921MA1999999091441MD1999999-0191REMSYN076AAXX  26124 83339 32497 23206 10241 20182 39144 40093 82200 333 20192 59019;
0137833390999992006122618004-14050-042617FM-12+088299999V0201401N003612200019N0100001N1+02991+01471100611ADDGF103991021021004501021001MA1999999091211MD1999999+0021REMSYN070AAXX  26184 83339 32497 31407 10299 20147 39121 40061 82220 333 58002;
0168833390999992006122700004-14050-042617FM-12+088299999V0209999C000012200019N0020001N1+02391+01561100771ADDGF102991021021004501001001KA1240M+03081MA1999999091291MD1999999+0001REMSYN088AAXX  27004 83339 32495 20000 10239 20156 39129 40077 82200 333 10308 29058 55115 58000;
0156833390999992006122712004-14050-042617FM-12+088299999V0201401N001510042019N0100001N1+02231+01731101101ADDGF106991061021004501001001KA1240N+01861MA1999999091551MD1999999+0111REMSYN076AAXX  27124 83339 32497 61403 10223 20173 39155 40110 86200 333 20186 58011;
0137833390999992006122718004-14050-042617FM-12+088299999V0200901N002110450019N0100001N1+02891+01531100761ADDGF105991041021004501021001MA1999999091331MD1999999+0121REMSYN070AAXX  27184 83339 32497 50904 10289 20153 39133 40076 84220 333 58012;
0196833390999992006122800004-14050-042617FM-12+088299999V0200501N000510042019N0020001N1+02391+01661101061ADDAY101061AY201061GF106991051021004501031001KA1240M+02961MA1999999091551MD1999999+0261MW1131REMSYN094AAXX  28004 83339 31495 60501 10239 20166 39155 40106 71300 85230 333 10296 29062 55052 58026;
0156833390999992006122812004-14050-042617FM-12+088299999V0201401N001512200019N0100001N1+02411+01911101171ADDGF104991031021004501021001KA1240N+01901MA1999999091651MD1999999+0101REMSYN076AAXX  28124 83339 32497 41403 10241 20191 39165 40117 83220 333 20190 58010;
0137833390999992006122818004-14050-042617FM-12+088299999V0200901N002110042019N0100001N1+02991+01621100701ADDGF105991051021004501001001MA1999999091311MD1999999-0021REMSYN070AAXX  28184 83339 32497 50904 10299 20162 39131 40070 85200 333 59002;
0168833390999992006122900004-14050-042617FM-12+088299999V0200501N004612200019N0020001N1+02421+01651100931ADDGF102991021021004501001001KA1240M+03061MA1999999091441MD1999999-0111REMSYN088AAXX  29004 83339 32495 20509 10242 20165 39144 40093 82200 333 10306 29060 55104 59011;
0156833390999992006122912004-14050-042617FM-12+088299999V0200901N001510042019N0100001N1+02271+01881101131ADDGF106991061021004501001001KA1240N+01941MA1999999091601MD1999999-0051REMSYN076AAXX  29124 83339 32497 60903 10227 20188 39160 40113 86200 333 20194 59005;
0137833390999992006122918004-14050-042617FM-12+088299999V0203601N003110042019N0100001N1+02811+01691100761ADDGF106991051021004501021001MA1999999091331MD1999999+0021REMSYN070AAXX  29184 83339 32497 63606 10281 20169 39133 40076 85220 333 58002;
0213833390999992006123000004-14050-042617FM-12+088299999V0209999C000012200019N0020001N1+02251+01841101011ADDAA106002091AY191061AY261061GF103991031021004501001001KA1240M+02881MA1999999091451MD1999999+0011MW1021REMSYN100AAXX  30004 83339 21495 30000 10225 20184 39145 40101 70296 83200 333 10288 29072 55058 58001 60021;
0201833390999992006123012004-14050-042617FM-12+088299999V0203201N004610042019N0100001N1+02251+01901101181ADDAA124002091AY161061AY261061GF106991061021004501001001KA1240N+02061MA1999999091611MD1999999+0011MW1101REMSYN088AAXX  30124 83339 21497 63209 10225 20190 39161 40118 71066 86200 333 20206 58001 60024;
0168833390999992006123100004-14050-042617FM-12+088299999V0200501N006210042019N0020001N1+02191+01701101121ADDGF106991061021004501001001KA1240M+02851MA1999999091531MD1999999+0081REMSYN088AAXX  31004 83339 32495 60512 10219 20170 39153 40112 86200 333 10285 29071 55090 58008;
0156833390999992006123112004-14050-042617FM-12+088299999V0201401N006210042019N0100001N1+02091+01681101251ADDGF106991061021004501001001KA1240N+01781MA1999999091631MD1999999+0021REMSYN076AAXX  31124 83339 32497 61412 10209 20168 39163 40125 86200 333 20178 58002;
0137833390999992006123118004-14050-042617FM-12+088299999V0200901N003612200019N0100001N1+02691+01351100871ADDGF102991011021004501001041MA1999999091361MD1999999+0071REMSYN070AAXX  31184 83339 32497 20907 10269 20135 39136 40087 81204 333 58007;
