0168833980999992006010100004-15667-038950FM-12+000599999V0209999C000010075019N0010001N1+02381+02291101481ADDGF108991051051008001021999KA1240M+02971MA1999999101431MD1999999-0011REMSYN088AAXX  01004 83398 32594 80000 10238 20229 30143 40148 8552/ 333 10297 29088 55020 59001;
0201833980999992006010112004-15667-038950FM-12+000599999V0200501N005110450019N0040001N1+02841+02261101491ADDAA124007191AY191061AY261061GF106991041051008001021001KA1240N+02241MA1999999101441MD1999999+0011MW1021REMSYN088AAXX  01124 83398 21596 60510 10284 20226 30144 40149 70296 84520 333 20224 58001 60074;
0168833980999992006010200004-15667-038950FM-12+000599999V0200501N001012200019N0010001N1+02601+02271101411ADDGF103991021021008001041001KA1240M+02961MA1999999101361MD1999999-0071REMSYN088AAXX  02004 83398 32594 30502 10260 20227 30136 40141 82240 333 10296 29077 55098 59007;
0201833980999992006010212004-15667-038950FM-12+000599999V0200501N002110450019N0040001N1+02711+02441101531ADDAA124003091AY161061AY221061GF106991041051008001021001KA1240N+02211MA1999999101481MD1999999+0081MW1021REMSYN088AAXX  02124 83398 21596 60504 10271 20244 30148 40153 70262 84520 333 20221 58008 60034;
0137833980999992006010218004-15667-038950FM-12+000599999V0200501N006210450019N0040001N1+02821+02521101321ADDGF106991031021008001041011MA1999999101271MD1999999-0051REMSYN070AAXX  02184 83398 32596 60512 10282 20252 30127 40132 83241 333 59005;
0168833980999992006010300004-15667-038950FM-12+000599999V0200501N001010450019N0010001N1+02541+02291101441ADDGF105991031021008001041001KA1240M+02931MA1999999101391MD1999999+0031REMSYN088AAXX  03004 83398 32594 50502 10254 20229 30139 40144 83240 333 10293 29083 55095 58003;
0236833980999992006010312004-15667-038950FM-12+000599999V0200901N003112200019N0040001N1+02811+02301101461ADDAA124000091AY151061AY221061GF104991999051008001041011KA1240N+02161MA1999999101411MD1999999-0071MW1011REMSYN088AAXX  03124 83398 21596 40906 10281 20230 30141 40146 70152 85541 333 20216 59007 69924;EQDQ01+000052SCOTLCQ02  00002PRCP24
0137833980999992006010318004-15667-038950FM-12+000599999V0203601N002612200019N0040001N1+02881+02281101201ADDGF104991021051008001021001MA1999999101151MD1999999-0121REMSYN070AAXX  03184 83398 32596 43605 10288 20228 30115 40120 82520 333 59012;
0168833980999992006010400004-15667-038950FM-12+000599999V0200501N001012200019N0010001N1+02601+02171101271ADDGF104991021051008001021001KA1240M+02971MA1999999101221MD1999999-0171REMSYN088AAXX  04004 83398 32594 40502 10260 20217 30122 40127 82520 333 10297 29075 55096 59017;
0201833980999992006010412004-15667-038950FM-12+000599999V0200501N002111050019N0040001N1+02791+02311101281ADDAA124000891AY151061AY221061GF105991021021008001041011KA1240N+02171MA1999999101231MD1999999-0181MW1021REMSYN088AAXX  04124 83398 21596 50504 10279 20231 30123 40128 70252 82241 333 20217 59018 69984;
0137833980999992006010418004-15667-038950FM-12+000599999V0200501N004110450019N0040001N1+02841+02331101011ADDGF107991041051008001021001MA1999999100961MD1999999-0191REMSYN070AAXX  04184 83398 32596 70508 10284 20233 30096 40101 84520 333 59019;
0168833980999992006010500004-15667-038950FM-12+000599999V0203601N001012200019N0010001N1+02501+02221101041ADDGF104991021021008001041001KA1240M+02961MA1999999100991MD1999999-0231REMSYN088AAXX  05004 83398 32594 43602 10250 20222 30099 40104 82240 333 10296 29082 55090 59023;
0201833980999992006010512004-15667-038950FM-12+000599999V0203601N001010075019N0040001N1+02611+02431101171ADDAA124003091AY161061AY221061GF108991051051008001021999KA1240N+02171MA1999999101121MD1999999-0111MW1021REMSYN088AAXX  05124 83398 21596 83602 10261 20243 30112 40117 70262 8552/ 333 20217 59011 60034;
0137833980999992006010518004-15667-038950FM-12+000599999V0200501N004110450019N0040001N1+02891+02331100961ADDGF106991041021008001041001MA1999999100911MD1999999-0051REMSYN070AAXX  05184 83398 32596 60508 10289 20233 30091 40096 84240 333 59005;
0156833980999992006010612004-15667-038950FM-12+000599999V0203601N002110450019N0040001N1+02901+02431101341ADDGF106991031021008001041001KA1240N+02251MA1999999101291MD1999999+0121REMSYN076AAXX  06124 83398 32596 63604 10290 20243 30129 40134 83240 333 20225 58012;
0137833980999992006010618004-15667-038950FM-12+000599999V0200501N005112200019N0040001N1+02911+02311101141ADDGF102991011011008001041001MA1999999101091MD1999999+0181REMSYN070AAXX  06184 83398 32596 20510 10291 20231 30109 40114 81140 333 58018;
0168833980999992006010700004-15667-038950FM-12+000599999V0200501N002112200019N0010001N1+02651+02281101281ADDGF102991011011008001041001KA1240M+03031MA1999999101331MD1999999+0221REMSYN088AAXX  07004 83398 32594 20504 10265 20228 30133 40128 81140 333 10303 29077 55113 58022;
0156833980999992006010712004-15667-038950FM-12+000599999V0200501N002112200019N0040001N1+02861+02311101431ADDGF104991021021008001041001KA1240N+02181MA1999999101381MD1999999+0091REMSYN076AAXX  07124 83398 32596 40504 10286 20231 30138 40143 82240 333 20218 58009;
0137833980999992006010718004-15667-038950FM-12+000599999V0200901N004110450019N0040001N1+02921+02291101201ADDGF105991031021008001041001MA1999999101151MD1999999+0061REMSYN070AAXX  07184 83398 32596 50908 10292 20229 30115 40120 83240 333 58006;
0201833980999992006010812004-15667-038950FM-12+000599999V0200901N001010450019N0040001N1+02741+02361101471ADDAA124006191AY161061AY221061GF107991041051008001021001KA1240N+02201MA1999999101421MD1999999+0041MW1021REMSYN088AAXX  08124 83398 21596 70902 10274 20236 30142 40147 70262 84520 333 20220 58004 60064;
0201833980999992006010912004-15667-038950FM-12+000599999V0209999C000010450019N0040001N1+02601+02421101521ADDAA124003091AY161061AY221061GF107991041051008001021001KA1240N+02241MA1999999101471MD1999999+0051MW1021REMSYN088AAXX  09124 83398 21596 70000 10260 20242 30147 40152 70262 84520 333 20224 58005 60034;
0182833980999992006010918004-15667-038950FM-12+000599999V0200901N006210075019N0040001N1+02661+02371101351ADDAA106002091AY161061AY221061GF108991051051008001021999MA1999999101301MD1999999+0031MW1021REMSYN082AAXX  09184 83398 21596 80912 10266 20237 30130 40135 70262 8552/ 333 58003 60021;
0213833980999992006011000004-15667-038950FM-12+000599999V0200901N001010075019N0010001N1+02441+02301101461ADDAA106001091AY151061AY221061GF108991051051008001021999KA1240M+02921MA1999999101411MD1999999+0021MW1021REMSYN100AAXX  10004 83398 21594 80902 10244 20230 30141 40146 70252 8552/ 333 10292 29090 55037 58002 60011;
0201833980999992006011012004-15667-038950FM-12+000599999V0201801N004110450019N0040001N1+02661+02351101611ADDAA124007991AY161061AY221061GF107991041051008001021001KA1240N+02251MA1999999101551MD1999999+0081MW1021REMSYN088AAXX  10124 83398 21596 71808 10266 20235 30155 40161 70262 84520 333 20225 58008 60084;
0168833980999992006011100004-15667-038950FM-12+000599999V0200501N001010450019N0010001N1+02581+02271101731ADDGF105991031051008001021001KA1240M+02981MA1999999101671MD1999999+0261REMSYN088AAXX  11004 83398 32594 50502 10258 20227 30167 40173 83520 333 10298 29082 55040 58026;
0201833980999992006011112004-15667-038950FM-12+000599999V0200901N004110450019N0040001N1+02581+02211101731ADDAA124002091AY151061AY221061GF107991041051008001021001KA1240N+02171MA1999999101671MD1999999+0121MW1021REMSYN088AAXX  11124 83398 21596 70908 10258 20221 30167 40173 70252 84520 333 20217 58012 60024;
0137833980999992006011118004-15667-038950FM-12+000599999V0201401N002610450019N0040001N1+02751+02271101521ADDGF107991041051008001021001MA1999999101471MD1999999+0001REMSYN070AAXX  11184 83398 32596 71405 10275 20227 30147 40152 84520 333 58000;
0137833980999992006011218004-15667-038950FM-12+000599999V0200901N006210075019N0040001N1+02721+02221101611ADDGF108991051051008001021999MA1999999101551MD1999999+0081REMSYN070AAXX  12184 83398 32596 80912 10272 20222 30155 40161 8552/ 333 58008;
0213833980999992006011300004-15667-038950FM-12+000599999V0201801N001010450019N0010001N1+02321+02251101731ADDAA106002091AY161061AY221061GF107991041051008001021001KA1240M+02991MA1999999101671MD1999999+0031MW1021REMSYN100AAXX  13004 83398 21594 71802 10232 20225 30167 40173 70262 84520 333 10299 29090 55056 58003 60021;
0201833980999992006011312004-15667-038950FM-12+000599999V0209999C000010450019N0040001N1+02541+02401101771ADDAA124006191AY161061AY221061GF105991031021008001041001KA1240N+02151MA1999999101711MD1999999+0061MW1021REMSYN088AAXX  13124 83398 21596 50000 10254 20240 30171 40177 70262 83240 333 20215 58006 60064;
0201833980999992006011318004-15667-038950FM-12+000599999V0200901N003112200019N0040001N1+02921+02241101671ADDAA106000091AY151061AY221061GF104991021011008001041001MA1999999101611MD1999999+0061MW1021REMSYN082AAXX  13184 83398 21596 40906 10292 20224 30161 40167 70252 82140 333 58006 69911;EQDQ01  00002PRCP06
0232833980999992006011400004-15667-038950FM-12+000599999V0201401N001010450019N0010001N1+02571+02281101771ADDAA106000091AY151061AY221061GF107991041051008001021001KA1240M+03011MA1999999101711MD1999999+0041MW1021REMSYN100AAXX  14004 83398 21594 71402 10257 20228 30171 40177 70252 84520 333 10301 29082 55089 58004 69921;EQDQ01  00002PRCP06
0201833980999992006011412004-15667-038950FM-12+000599999V0200901N004110450019N0040001N1+02801+02251101681ADDAA124002091AY161061AY221061GF107991041051008001021001KA1240N+02141MA1999999101621MD1999999-0091MW1021REMSYN088AAXX  14124 83398 21596 70908 10280 20225 30162 40168 70262 84520 333 20214 59009 60024;
0137833980999992006011418004-15667-038950FM-12+000599999V0200901N002110450019N0040001N1+02841+02141101541ADDGF106991031051008001021001MA1999999101491MD1999999-0121REMSYN070AAXX  14184 83398 32596 60904 10284 20214 30149 40154 83520 333 59012;
0201833980999992006011512004-15667-038950FM-12+000599999V0201401N001010450019N0040001N1+02721+02301101681ADDAA124001091AY161061AY221061GF106991031021008001041001KA1240N+02011MA1999999101621MD1999999+0001MW1021REMSYN088AAXX  15124 83398 21596 61402 10272 20230 30162 40168 70262 83240 333 20201 58000 60014;
0137833980999992006011518004-15667-038950FM-12+000599999V0201401N000512200019N0040001N1+02911+02161101441ADDGF104991021011008001041001MA1999999101391MD1999999-0101REMSYN070AAXX  15184 83398 32596 41401 10291 20216 30139 40144 82140 333 59010;
0220833980999992006011612004-15667-038950FM-12+000599999V0200501N008210075019N0040001N1+02741+02301101571ADDAA124000091AY151061AY221061GF108991051051008001021001KA1240N+02011MA1999999101521MD1999999-0101MW1021REMSYN088AAXX  16124 83398 21596 80516 10274 20230 30152 40157 70252 85520 333 20201 59010 69924;EQDQ01  00002PRCP24
0168833980999992006011700004-15667-038950FM-12+000599999V0200901N000510075019N0010001N1+02631+02301101571ADDGF108991051051008001021999KA1240M+03061MA1999999101521MD1999999+0021REMSYN088AAXX  17004 83398 32594 80901 10263 20230 30152 40157 8552/ 333 10306 29077 55102 58002;
0201833980999992006011712004-15667-038950FM-12+000599999V0200501N002610450019N0040001N1+02831+02161101551ADDAA124000591AY151061AY221061GF105991031021008001041001KA1240N+02251MA1999999101501MD1999999-0021MW1021REMSYN088AAXX  17124 83398 21596 50505 10283 20216 30150 40155 70252 83240 333 20225 59002 69964;
0137833980999992006011718004-15667-038950FM-12+000599999V0200501N002110450019N0040001N1+02901+02171101351ADDGF105991031021008001041001MA1999999101301MD1999999-0031REMSYN070AAXX  17184 83398 32596 50504 10290 20217 30130 40135 83240 333 59003;
0168833980999992006011800004-15667-038950FM-12+000599999V0200901N002110450019N0010001N1+02621+02211101531ADDGF106991031021008001041001KA1240M+03051MA1999999101481MD1999999-0041REMSYN088AAXX  18004 83398 32594 60904 10262 20221 30148 40153 83240 333 10305 29072 55096 59004;
0201833980999992006011812004-15667-038950FM-12+000599999V0200501N007210075019N0040001N1+02621+02331101551ADDAA124002091AY161061AY221061GF108991051051008001021999KA1240N+02181MA1999999101501MD1999999+0001MW1021REMSYN088AAXX  18124 83398 21596 80514 10262 20233 30150 40155 70262 8552/ 333 20218 58000 60024;
0232833980999992006011900004-15667-038950FM-12+000599999V0200901N001510450019N0010001N1+02581+02211101391ADDAA106000091AY151061AY221061GF107991041051008001021001KA1240M+02981MA1999999101341MD1999999-0141MW1021REMSYN100AAXX  19004 83398 21594 70903 10258 20221 30134 40139 70252 84520 333 10298 29079 55044 59014 69921;EQDQ01  00002PRCP06
0201833980999992006011912004-15667-038950FM-12+000599999V0202301N002110450019N0040001N1+02611+02341101481ADDAA124003091AY161061AY221061GF107991041051008001021001KA1240N+02181MA1999999101431MD1999999-0071MW1021REMSYN088AAXX  19124 83398 21596 72304 10261 20234 30143 40148 70262 84520 333 20218 59007 60034;
0137833980999992006011918004-15667-038950FM-12+000599999V0200501N006212200019N0040001N1+02841+02171101211ADDGF104991021011008001041001MA1999999101161MD1999999-0091REMSYN070AAXX  19184 83398 32596 40512 10284 20217 30116 40121 82140 333 59009;
0168833980999992006012000004-15667-038950FM-12+000599999V0200901N001012200019N0010001N1+02641+02091101331ADDGF103991021011008001041001KA1240M+03001MA1999999101281MD1999999-0061REMSYN088AAXX  20004 83398 32594 30902 10264 20209 30128 40133 82140 333 10300 29074 55097 59006;
0201833980999992006012012004-15667-038950FM-12+000599999V0200901N005110075019N0040001N1+02701+02301101501ADDAA124014091AY161061AY221061GF107991051051008001021001KA1240N+02201MA1999999101451MD1999999+0021MW1021REMSYN088AAXX  20124 83398 21596 70910 10270 20230 30145 40150 70262 85520 333 20220 58002 60144;
0137833980999992006012018004-15667-038950FM-12+000599999V0200901N004112200019N0040001N1+02921+02291101381ADDGF104991021021008001041001MA1999999101331MD1999999+0171REMSYN070AAXX  20184 83398 32596 40908 10292 20229 30133 40138 82240 333 58017;
0213833980999992006012100004-15667-038950FM-12+000599999V0200501N009310450019N0010001N1+02481+02211101561ADDAA106009991AY161061AY221061GF107991041051008001021001KA1240M+03011MA1999999101511MD1999999+0231MW1021REMSYN100AAXX  21004 83398 21594 70518 10248 20221 30151 40156 70262 84520 333 10301 29080 55072 58023 60101;
0201833980999992006012112004-15667-038950FM-12+000599999V0200901N002610075019N0040001N1+02741+02471101661ADDAA124010991AY161061AY221061GF108991051051008001021999KA1240N+02261MA1999999101611MD1999999+0161MW1021REMSYN088AAXX  21124 83398 21596 80905 10274 20247 30161 40166 70262 8552/ 333 20226 58016 60114;
0182833980999992006012118004-15667-038950FM-12+000599999V0200901N002110075019N0040001N1+02511+02321101501ADDAA106002091AY161061AY221061GF108991051051008001021999MA1999999101451MD1999999+0121MW1021REMSYN082AAXX  21184 83398 21596 80904 10251 20232 30145 40150 70262 8552/ 333 58012 60021;
0168833980999992006012200004-15667-038950FM-12+000599999V0209999C000010450019N0010001N1+02501+02401101521ADDGF106991031051008001021001KA1240M+02951MA1999999101481MD1999999-0031REMSYN088AAXX  22004 83398 32594 60000 10250 20240 30148 40152 83520 333 10295 29089 55031 59003;
0201833980999992006012212004-15667-038950FM-12+000599999V0200901N001010450019N0040001N1+02841+02401101611ADDAA124007191AY161061AY221061GF106991031051008001041001KA1240N+02201MA1999999101151MD1999999-0061MW1021REMSYN088AAXX  22124 83398 21596 60902 10284 20240 30115 40161 70262 83540 333 20220 59006 60074;
0137833980999992006012218004-15667-038950FM-12+000599999V0200901N001012200019N0040001N1+02891+02291101321ADDGF104991021011008001041001MA1999999101271MD1999999-0181REMSYN070AAXX  22184 83398 32596 40902 10289 20229 30127 40132 82140 333 59018;
0156833980999992006012312004-15667-038950FM-12+000599999V0203601N002612200019N0040001N1+02821+02421101501ADDGF104991021051008001041001KA1240N+02081MA1999999101451MD1999999-0101REMSYN076AAXX  23124 83398 32596 43605 10282 20242 30145 40150 82540 333 20208 59010;
0137833980999992006012318004-15667-038950FM-12+000599999V0200501N003612200019N0040001N1+02941+02261101131ADDGF103991021011008001041001MA1999999101081MD1999999-0191REMSYN070AAXX  23184 83398 32596 30507 10294 20226 30108 40113 82140 333 59019;
0168833980999992006012400004-15667-038950FM-12+000599999V0200501N001012200019N0010001N1+02641+02231101291ADDGF102991011011008001041001KA1240M+03001MA1999999101241MD1999999-0171REMSYN088AAXX  24004 83398 32594 20502 10264 20223 30124 40129 81140 333 10300 29076 55116 59017;
0156833980999992006012412004-15667-038950FM-12+000599999V0200501N001012200019N0040001N1+02931+02421101521ADDGF104991021021012501041001KA1240N+02181MA1999999101471MD1999999+0021REMSYN076AAXX  24124 83398 32696 40502 10293 20242 30147 40152 82240 333 20218 58002;
0137833980999992006012418004-15667-038950FM-12+000599999V0200501N006212200019N0040001N1+02941+02451101181ADDGF103991021011008001041001MA1999999101111MD1999999+0051REMSYN070AAXX  24184 83398 32596 30512 10294 20245 30111 40118 82140 333 58005;
0168833980999992006012500004-15667-038950FM-12+000599999V0203601N003610450019N0010001N1+02681+02431101341ADDGF105991031021008001041001KA1240M+03051MA1999999101291MD1999999+0051REMSYN088AAXX  25004 83398 32594 53607 10268 20243 30129 40134 83240 333 10305 29080 55113 58005;
0156833980999992006012512004-15667-038950FM-12+000599999V0200501N002610075019N0040001N1+02801+02401101581ADDGF108991051051008001021999KA1240N+02471MA1999999101531MD1999999+0061REMSYN076AAXX  25124 83398 32596 80505 10280 20240 30153 40158 8552/ 333 20247 58006;
0137833980999992006012518004-15667-038950FM-12+000599999V0203601N006210450019N0040001N1+02921+02391101331ADDGF106991041051008001021001MA1999999101281MD1999999+0151REMSYN070AAXX  25184 83398 32596 63612 10292 20239 30128 40133 84520 333 58015;
0168833980999992006012600004-15667-038950FM-12+000599999V0203601N002112200019N0010001N1+02631+02381101441ADDGF104991021021008001041001KA1240M+03051MA1999999101391MD1999999+0101REMSYN088AAXX  26004 83398 32594 43604 10263 20238 30139 40144 82240 333 10305 29081 55072 58010;
0156833980999992006012612004-15667-038950FM-12+000599999V0203601N003110450019N0040001N1+02841+02461101491ADDGF107991031051008001021011KA1240N+02371MA1999999101441MD1999999-0091REMSYN076AAXX  26124 83398 32596 73606 10284 20246 30144 40149 83521 333 20237 59009;
0137833980999992006012618004-15667-038950FM-12+000599999V0203601N004612200019N0040001N1+02941+02471101241ADDGF103991011011008001041011MA1999999101191MD1999999-0091REMSYN070AAXX  26184 83398 32596 33609 10294 20247 30119 40124 81141 333 59009;
0168833980999992006012700004-15667-038950FM-12+000599999V0203601N002612200019N0010001N1+02661+02391101401ADDGF102991011011008001041001KA1240M+03061MA1999999101351MD1999999-0041REMSYN088AAXX  27004 83398 32594 23605 10266 20239 30135 40140 81140 333 10306 29082 55089 59004;
0156833980999992006012712004-15667-038950FM-12+000599999V0203601N004610450019N0040001N1+02901+02431101561ADDGF106991031021008001041011KA1240N+02331MA1999999101511MD1999999+0071REMSYN076AAXX  27124 83398 32596 63609 10290 20243 30151 40156 83241 333 20233 58007;
0137833980999992006012718004-15667-038950FM-12+000599999V0200501N004112200019N0040001N1+02941+02401101301ADDGF104991021011008001041011MA1999999101251MD1999999+0061REMSYN070AAXX  27184 83398 32596 40508 10294 20240 30125 40130 82141 333 58006;
0168833980999992006012800004-15667-038950FM-12+000599999V0200501N002110450019N0010001N1+02661+02331101491ADDGF105991031021008001041001KA1240M+03061MA1999999101441MD1999999+0091REMSYN088AAXX  28004 83398 32594 50504 10266 20233 30144 40149 83240 333 10306 29078 55108 58009;
0201833980999992006012812004-15667-038950FM-12+000599999V0200501N003610450019N0040001N1+02841+02331101611ADDAA124000591AY151061AY221061GF107991041051008001021001KA1240N+02321MA1999999101551MD1999999+0201MW1021REMSYN088AAXX  28124 83398 21596 70507 10284 20233 30155 40161 70252 84520 333 20232 58020 69954;
0137833980999992006012818004-15667-038950FM-12+000599999V0200501N002612200019N0040001N1+02931+02281101331ADDGF102991011011008001041001MA1999999101281MD1999999+0031REMSYN070AAXX  28184 83398 32596 20505 10293 20228 30128 40133 81140 333 58003;
0137833980999992006012918004-15667-038950FM-12+000599999V0200501N003112200019N0040001N1+02941+02311101211ADDGF102991011011008001041001MA1999999101161MD1999999-0121REMSYN070AAXX  29184 83398 32596 20506 10294 20231 30116 40121 81140 333 59012;
0168833980999992006013000004-15667-038950FM-12+000599999V0200501N001010450019N0010001N1+02671+02281101241ADDGF106991041051008001041001KA1240M+03041MA1999999101191MD1999999-0181REMSYN088AAXX  30004 83398 32594 60502 10267 20228 30119 40124 84540 333 10304 29079 55096 59018;
0201833980999992006013012004-15667-038950FM-12+000599999V0201801N002110075019N0040001N1+02441+02391101421ADDAA124007991AY161061AY221061GF108991051051008001021999KA1240N+02251MA1999999101371MD1999999+0051MW1511REMSYN088AAXX  30124 83398 21596 81804 10244 20239 30137 40142 75162 8552/ 333 20225 58005 60084;
0182833980999992006013018004-15667-038950FM-12+000599999V0203601N003110450019N0040001N1+02861+02461101171ADDAA106000391AY151061AY221061GF106991031051008001021001MA1999999101121MD1999999-0041MW1021REMSYN082AAXX  30184 83398 21596 63606 10286 20246 30112 40117 70252 83520 333 59004 69931;
0168833980999992006013100004-15667-038950FM-12+000599999V0200501N001012200019N0010001N1+02621+02371101261ADDGF102991011011008001041001KA1240M+02941MA1999999101211MD1999999+0021REMSYN088AAXX  31004 83398 32594 20502 10262 20237 30121 40126 81140 333 10294 29087 55064 58002;
0201833980999992006013112004-15667-038950FM-12+000599999V0209999C000010450019N0040001N1+02761+02541101341ADDAA124004191AY161061AY221061GF106991041051008001041001KA1240N+02231MA1999999101291MD1999999-0081MW1021REMSYN088AAXX  31124 83398 21596 60000 10276 20254 30129 40134 70262 84540 333 20223 59008 60044;
0201833980999992006013118004-15667-038950FM-12+000599999V0200501N004112200019N0040001N1+02911+02351101181ADDAA106000091AY151061AY221061GF104991021011008001041001MA1999999101131MD1999999+0061MW1021REMSYN082AAXX  31184 83398 21596 40508 10291 20235 30113 40118 70252 82140 333 58006 69921;EQDQ01  00002PRCP06
0168833980999992006020100004-15667-038950FM-12+000599999V0203601N002610075019N0010001N1+02601+02421101231ADDGF108991051051008001021999KA1240M+03001MA1999999101181MD1999999-0031REMSYN088AAXX  01004 83398 32594 83605 10260 20242 30118 40123 8552/ 333 10300 29085 55103 59003;
0201833980999992006020112004-15667-038950FM-12+000599999V0200501N006210450019N0040001N1+02821+02241101381ADDAA124005191AY161061AY221061GF106991031051008001021001KA1240N+02231MA1999999101331MD1999999+0041MW1021REMSYN088AAXX  01124 83398 21596 60512 10282 20224 30133 40138 70262 83520 333 20223 58004 60054;
0137833980999992006020118004-15667-038950FM-12+000599999V0200501N004112200019N0040001N1+02941+02161101221ADDGF104991021021008001041001MA1999999101171MD1999999+0041REMSYN070AAXX  01184 83398 32596 40508 10294 20216 30117 40122 82240 333 58004;
0168833980999992006020200004-15667-038950FM-12+000599999V0200501N001012200019N0010001N1+02621+02181101321ADDGF103991021011008001041001KA1240M+03031MA1999999101201MD1999999+0091REMSYN088AAXX  02004 83398 32594 30502 10262 20218 30120 40132 82140 333 10303 29072 55084 58009;
0201833980999992006020212004-15667-038950FM-12+000599999V0209999C000010075019N0040001N1+02501+02271101461ADDAA124007191AY161061AY221061GF108991051051008001021999KA1240N+02181MA1999999101411MD1999999+0081MW1021REMSYN088AAXX  02124 83398 21596 80000 10250 20227 30141 40146 70262 8552/ 333 20218 58008 60074;
0137833980999992006020218004-15667-038950FM-12+000599999V0200501N002110450019N0040001N1+02861+02331101281ADDGF106991031021008001041011MA1999999101231MD1999999+0061REMSYN070AAXX  02184 83398 32596 60504 10286 20233 30123 40128 83241 333 58006;
0168833980999992006020300004-15667-038950FM-12+000599999V0200501N002610450019N0010001N1+02681+02261101421ADDGF107991041051008001021001KA1240M+02941MA1999999101371MD1999999+0101REMSYN088AAXX  03004 83398 32594 70505 10268 20226 30137 40142 84520 333 10294 29079 55066 58010;
0201833980999992006020312004-15667-038950FM-12+000599999V0202301N002610075019N0040001N1+02521+02401101411ADDAA124007191AY161061AY221061GF108991051051008001021999KA1240N+02301MA1999999101361MD1999999-0051MW1021REMSYN088AAXX  03124 83398 21596 82305 10252 20240 30136 40141 70262 8552/ 333 20230 59005 60074;
0182833980999992006020318004-15667-038950FM-12+000599999V0200501N002610450019N0040001N1+02891+02241101171ADDAA106002091AY161061AY221061GF106991031051008001021001MA1999999101121MD1999999-0111MW1021REMSYN082AAXX  03184 83398 21596 60505 10289 20224 30112 40117 70262 83520 333 59011 60021;
0168833980999992006020400004-15667-038950FM-12+000599999V0202701N001010075019N0010001N1+02451+02261101291ADDGF108991051051008001021999KA1240M+02951MA1999999101241MD1999999-0131REMSYN088AAXX  04004 83398 32594 82702 10245 20226 30124 40129 8552/ 333 10295 29085 55043 59013;
0137833980999992006020418004-15667-038950FM-12+000599999V0200901N003112200019N0040001N1+02891+02401101131ADDGF104991021011008001041011MA1999999101081MD1999999-0041REMSYN070AAXX  04184 83398 32596 40906 10289 20240 30108 40113 82141 333 59004;
0168833980999992006020500004-15667-038950FM-12+000599999V0200901N002112200019N0010001N1+02681+02221101181ADDGF104991021021008001041001KA1240M+02981MA1999999101131MD1999999-0111REMSYN088AAXX  05004 83398 32594 40904 10268 20222 30113 40118 82240 333 10298 29077 55112 59011;
0201833980999992006020512004-15667-038950FM-12+000599999V0209999C000010450019N0040001N1+02541+02441101431ADDAA124005191AY161061AY221061GF106991031051008001041001KA1240N+02281MA1999999101381MD1999999+0071MW1021REMSYN088AAXX  05124 83398 21596 60000 10254 20244 30138 40143 70262 83540 333 20228 58007 60054;
0137833980999992006020518004-15667-038950FM-12+000599999V0201401N002610450019N0040001N1+02921+02271101171ADDGF106991031051008001041011MA1999999101121MD1999999+0041REMSYN070AAXX  05184 83398 32596 61405 10292 20227 30112 40117 83541 333 58004;
0168833980999992006020600004-15667-038950FM-12+000599999V0209999C000012200019N0010001N1+02661+02201101221ADDGF104991021011008001041001KA1240M+03011MA1999999101171MD1999999+0041REMSYN088AAXX  06004 83398 32594 40000 10266 20220 30117 40122 82140 333 10301 29079 55098 58004;
0201833980999992006020612004-15667-038950FM-12+000599999V0209999C000010450019N0040001N1+02741+02381101331ADDAA124000891AY161061AY221061GF106991031051008001041001KA1240N+02221MA1999999101281MD1999999-0101MW1021REMSYN088AAXX  06124 83398 21596 60000 10274 20238 30128 40133 70262 83540 333 20222 59010 69984;
0137833980999992006020618004-15667-038950FM-12+000599999V0200501N003111050019N0040001N1+02881+02231101071ADDGF105991021021008001041011MA1999999101021MD1999999-0101REMSYN070AAXX  06184 83398 32596 50506 10288 20223 30102 40107 82241 333 59010;
0168833980999992006020700004-15667-038950FM-12+000599999V0200501N002112200019N0010001N1+02681+02311101171ADDGF103991021011008001041001KA1240M+02991MA1999999101121MD1999999-0071REMSYN088AAXX  07004 83398 32594 30504 10268 20231 30112 40117 82140 333 10299 29077 55108 59007;
0156833980999992006020712004-15667-038950FM-12+000599999V0203601N004110450019N0040001N1+02921+02361101231ADDGF106991041051008001021001KA1240N+02161MA1999999101181MD1999999-0101REMSYN076AAXX  07124 83398 32596 63608 10292 20236 30118 40123 84520 333 20216 59010;
0137833980999992006020718004-15667-038950FM-12+000599999V0203601N006210450019N0040001N1+02981+02301100931ADDGF105991031021008001041001MA1999999100881MD1999999-0141REMSYN070AAXX  07184 83398 32596 53612 10298 20230 30088 40093 83240 333 59014;
0168833980999992006020800004-15667-038950FM-12+000599999V0200501N002110450019N0010001N1+02741+02361101121ADDGF106991041051008001021001KA1240M+03051MA1999999101071MD1999999-0051REMSYN088AAXX  08004 83398 32594 60504 10274 20236 30107 40112 84520 333 10305 29075 55112 59005;
0156833980999992006020812004-15667-038950FM-12+000599999V0203601N004110450019N0040001N1+03021+02481101321ADDGF106991041051008001021001KA1240N+02401MA1999999101271MD1999999+0091REMSYN076AAXX  08124 83398 32596 63608 10302 20248 30127 40132 84520 333 20240 58009;
0137833980999992006020818004-15667-038950FM-12+000599999V0200501N006212200019N0040001N1+03001+02461101031ADDGF104991031021008001041001MA1999999100981MD1999999+0101REMSYN070AAXX  08184 83398 32596 40512 10300 20246 30098 40103 83240 333 58010;
0168833980999992006020900004-15667-038950FM-12+000599999V0203601N002110075019N0010001N1+02721+02501101231ADDGF105991051051008001001001KA1240M+03121MA1999999101181MD1999999+0111REMSYN088AAXX  09004 83398 32594 53604 10272 20250 30118 40123 85500 333 10312 29081 55106 58011;
0156833980999992006020912004-15667-038950FM-12+000599999V0203601N002610450019N0040001N1+02941+02451101451ADDGF106991031051008001041001KA1240N+02331MA1999999101401MD1999999+0131REMSYN076AAXX  09124 83398 32596 63605 10294 20245 30140 40145 83540 333 20233 58013;
0137833980999992006020918004-15667-038950FM-12+000599999V0200501N004612200019N0040001N1+02981+02421101171ADDGF102991011011008001041001MA1999999101121MD1999999+0141REMSYN070AAXX  09184 83398 32596 20509 10298 20242 30112 40117 81140 333 58014;
0168833980999992006021000004-15667-038950FM-12+000599999V0203601N001012200019N0010001N1+02661+02431101311ADDGF102991011011008001041001KA1240M+03141MA1999999101261MD1999999+0081REMSYN088AAXX  10004 83398 32594 23602 10266 20243 30126 40131 81140 333 10314 29080 55109 58008;
0201833980999992006021012004-15667-038950FM-12+000599999V0203601N003110450019N0040001N1+02861+02391101461ADDAA124003091AY161061AY221061GF106991041051008001021001KA1240N+02311MA1999999101411MD1999999+0011MW1211REMSYN088AAXX  10124 83398 21596 63606 10286 20239 30141 40146 72162 84520 333 20231 58001 60034;
0137833980999992006021018004-15667-038950FM-12+000599999V0200501N005110450019N0040001N1+02981+02371101201ADDGF105991031021008001041001MA1999999101151MD1999999+0031REMSYN070AAXX  10184 83398 32596 50510 10298 20237 30115 40120 83240 333 58003;
0168833980999992006021100004-15667-038950FM-12+000599999V0203601N002112200019N0010001N1+02621+02371101311ADDGF102991021011008001001001KA1240M+03051MA1999999101261MD1999999+0001REMSYN088AAXX  11004 83398 32594 23604 10262 20237 30126 40131 82100 333 10305 29080 55102 58000;
0156833980999992006021112004-15667-038950FM-12+000599999V0203601N005110075019N0040001N1+02941+02471101441ADDGF105991051051008001001001KA1240N+02161MA1999999101391MD1999999+0131REMSYN076AAXX  11124 83398 32596 53610 10294 20247 30139 40144 85500 333 20216 58013;
0137833980999992006021118004-15667-038950FM-12+000599999V0203601N006210450019N0040001N1+03021+02531101171ADDGF105991031021008001041001MA1999999101121MD1999999-0031REMSYN070AAXX  11184 83398 32596 53612 10302 20253 30112 40117 83240 333 59003;
0168833980999992006021200004-15667-038950FM-12+000599999V0200501N002112200019N0010001N1+02661+02391101281ADDGF103991031011008001001001KA1240M+03111MA1999999101231MD1999999-0031REMSYN088AAXX  12004 83398 32594 30504 10266 20239 30123 40128 83100 333 10311 29080 55114 59003;
0156833980999992006021212004-15667-038950FM-12+000599999V0200501N004110450019N0040001N1+02941+02431101431ADDGF105991031021008001041001KA1240N+02241MA1999999101381MD1999999-0011REMSYN076AAXX  12124 83398 32596 50508 10294 20243 30138 40143 83240 333 20224 59001;
0137833980999992006021218004-15667-038950FM-12+000599999V0200501N003110450019N0040001N1+03001+02391101191ADDGF105991031021008001041001MA1999999101141MD1999999+0021REMSYN070AAXX  12184 83398 32596 50506 10300 20239 30114 40119 83240 333 58002;
0168833980999992006021300004-15667-038950FM-12+000599999V0200501N002110450019N0010001N1+02681+02331101331ADDGF106991031011008001041011KA1240M+03101MA1999999101281MD1999999+0051REMSYN088AAXX  13004 83398 32594 60504 10268 20233 30128 40133 83141 333 10310 29077 55113 58005;
0156833980999992006021312004-15667-038950FM-12+000599999V0200901N001010450019N0040001N1+02841+02461101471ADDGF107991041051008001021001KA1240N+02151MA1999999101421MD1999999+0041REMSYN076AAXX  13124 83398 32596 70902 10284 20246 30142 40147 84520 333 20215 58004;
0137833980999992006021318004-15667-038950FM-12+000599999V0200501N004610450019N0040001N1+02851+02471101231ADDGF107991041051008001021001MA1999999101181MD1999999+0041REMSYN070AAXX  13184 83398 32596 70509 10285 20247 30118 40123 84520 333 58004;
0168833980999992006021400004-15667-038950FM-12+000599999V0200901N001010450019N0010001N1+02661+02411101331ADDGF105991031021008001041001KA1240M+03051MA1999999101281MD1999999+0001REMSYN088AAXX  14004 83398 32594 50902 10266 20241 30128 40133 83240 333 10305 29083 55072 58000;
0220833980999992006021412004-15667-038950FM-12+000599999V0200901N001010450019N0040001N1+02921+02501101381ADDAA124000091AY151061AY221061GF106991031031008001041001KA1240N+02271MA1999999101331MD1999999-0091MW1021REMSYN088AAXX  14124 83398 21596 60902 10292 20250 30133 40138 70252 83340 333 20227 59009 69914;EQDQ01  00002PRCP24
0137833980999992006021418004-15667-038950FM-12+000599999V0200501N004110450019N0040001N1+02901+02371101151ADDGF105991031021008001041001MA1999999101101MD1999999-0081REMSYN070AAXX  14184 83398 32596 50508 10290 20237 30110 40115 83240 333 59008;
0168833980999992006021500004-15667-038950FM-12+000599999V0203601N002110450019N0010001N1+02641+02421101291ADDGF105991031021008001041001KA1240M+03081MA1999999101241MD1999999-0041REMSYN088AAXX  15004 83398 32594 53604 10264 20242 30124 40129 83240 333 10308 29082 55093 59004;
0156833980999992006021512004-15667-038950FM-12+000599999V0200501N002110450019N0040001N1+02941+02401101391ADDGF105991031021008001041001KA1240N+02341MA1999999101341MD1999999-0011REMSYN076AAXX  15124 83398 32596 50504 10294 20240 30134 40139 83240 333 20234 59001;
0137833980999992006021518004-15667-038950FM-12+000599999V0200501N003612200019N0040001N1+02981+02301101121ADDGF104991021021008001041001MA1999999101071MD1999999-0031REMSYN070AAXX  15184 83398 32596 40507 10298 20230 30107 40112 82240 333 59003;
0168833980999992006021600004-15667-038950FM-12+000599999V0200501N003610450019N0010001N1+02741+02211101301ADDGF106991031031008001041001KA1240M+03101MA1999999101251MD1999999+0011REMSYN088AAXX  16004 83398 32594 60507 10274 20221 30125 40130 83340 333 10310 29072 55112 58001;
0201833980999992006021612004-15667-038950FM-12+000599999V0201801N002110075019N0040001N1+02681+02431101421ADDAA124004191AY161061AY221061GF108991051051008001021999KA1240N+02251MA1999999101371MD1999999+0031MW1021REMSYN088AAXX  16124 83398 21596 81804 10268 20243 30137 40142 70262 8552/ 333 20225 58003 60044;
0182833980999992006021618004-15667-038950FM-12+000599999V0200501N004112200019N0040001N1+02951+02271101261ADDAA106001091AY161061AY221061GF104991021051008001041001MA1999999101211MD1999999+0141MW1021REMSYN082AAXX  16184 83398 21596 40508 10295 20227 30121 40126 70262 82540 333 58014 60011;
0168833980999992006021700004-15667-038950FM-12+000599999V0200901N001010450019N0010001N1+02621+02371101371ADDGF105991031051008001041001KA1240M+03021MA1999999101321MD1999999+0071REMSYN088AAXX  17004 83398 32594 50902 10262 20237 30132 40137 83540 333 10302 29081 55063 58007;
0201833980999992006021712004-15667-038950FM-12+000599999V0203601N001010075019N0040001N1+02601+02481101441ADDAA124004191AY161061AY221061GF108991051051008001021999KA1240N+02161MA1999999101391MD1999999+0021MW1021REMSYN088AAXX  17124 83398 21596 83602 10260 20248 30139 40144 70262 8552/ 333 20216 58002 60044;
0201833980999992006021718004-15667-038950FM-12+000599999V0203601N003110450019N0040001N1+02941+02401101171ADDAA106000091AY151061AY221061GF105991031021008001041001MA1999999101121MD1999999-0091MW1021REMSYN082AAXX  17184 83398 21596 53606 10294 20240 30112 40117 70252 83240 333 59009 69911;EQDQ01  00002PRCP06
0168833980999992006021800004-15667-038950FM-12+000599999V0209999C000012200019N0010001N1+02521+02381101301ADDGF104991021021008001041001KA1240M+03021MA1999999101251MD1999999-0071REMSYN088AAXX  18004 83398 32594 40000 10252 20238 30125 40130 82240 333 10302 29088 55101 59007;
0201833980999992006021812004-15667-038950FM-12+000599999V0209999C000010450019N0040001N1+02741+02361101491ADDAA124005191AY161061AY221061GF106991041051008001021001KA1240N+02201MA1999999101441MD1999999+0051MW1021REMSYN088AAXX  18124 83398 21596 60000 10274 20236 30144 40149 70262 84520 333 20220 58005 60054;
0137833980999992006021818004-15667-038950FM-12+000599999V0200501N002110450019N0040001N1+02961+02471101251ADDGF105991031051008001041001MA1999999101201MD1999999+0081REMSYN070AAXX  18184 83398 32596 50504 10296 20247 30120 40125 83540 333 58008;
0168833980999992006021900004-15667-038950FM-12+000599999V0200501N003112200019N0010001N1+02701+02521101371ADDGF103991031011008001001001KA1240M+03041MA1999999101321MD1999999+0071REMSYN088AAXX  19004 83398 32594 30506 10270 20252 30132 40137 83100 333 10304 29084 55078 58007;
0201833980999992006021912004-15667-038950FM-12+000599999V0209999C000010075019N0040001N1+02631+02601101581ADDAA124007191AY161061AY221061GF108991051051008001021999KA1240N+02411MA1999999101151MD1999999+0091MW1511REMSYN088AAXX  19124 83398 21596 80000 10263 20260 30115 40158 75162 8552/ 333 20241 58009 60074;
0137833980999992006021918004-15667-038950FM-12+000599999V0203601N001512200019N0040001N1+02971+02431101381ADDGF102991011011008001041001MA1999999101331MD1999999+0131REMSYN070AAXX  19184 83398 32596 23603 10297 20243 30133 40138 81140 333 58013;
0168833980999992006022000004-15667-038950FM-12+000599999V0200501N003112200019N0010001N1+02721+02411101481ADDGF103991021011008001041001KA1240M+03081MA1999999101431MD1999999+0111REMSYN088AAXX  20004 83398 32594 30506 10272 20241 30143 40148 82140 333 10308 29084 55080 58011;
0156833980999992006022012004-15667-038950FM-12+000599999V0200901N002110450019N0040001N1+02921+02361101491ADDGF106991041051008001021001KA1240N+02341MA1999999101441MD1999999-0091REMSYN076AAXX  20124 83398 32596 60904 10292 20236 30144 40149 84520 333 20234 59009;
0137833980999992006022018004-15667-038950FM-12+000599999V0200901N003110075019N0040001N1+02981+02301101251ADDGF105991051021008001001001MA1999999101201MD1999999-0131REMSYN070AAXX  20184 83398 32596 50906 10298 20230 30120 40125 85200 333 59013;
0168833980999992006022100004-15667-038950FM-12+000599999V0200901N003112200019N0010001N1+02681+02331101331ADDGF102991021011008001001001KA1240M+03081MA1999999101281MD1999999-0151REMSYN088AAXX  21004 83398 32594 20906 10268 20233 30128 40133 82100 333 10308 29075 55108 59015;
0156833980999992006022112004-15667-038950FM-12+000599999V0209999C000012200019N0040001N1+02801+02361101261ADDGF104991021011008001041001KA1240N+02071MA1999999101211MD1999999-0231REMSYN076AAXX  21124 83398 32596 40000 10280 20236 30121 40126 82140 333 20207 59023;
0137833980999992006022118004-15667-038950FM-12+000599999V0200501N003112200019N0040001N1+03001+02371100961ADDGF103991021011008001041001MA1999999100911MD1999999-0291REMSYN070AAXX  21184 83398 32596 30506 10300 20237 30091 40096 82140 333 59029;
0168833980999992006022200004-15667-038950FM-12+000599999V0203601N002612200019N0010001N1+02691+02381101021ADDGF102991011011008001041001KA1240M+03091MA1999999100971MD1999999-0311REMSYN088AAXX  22004 83398 32594 23605 10269 20238 30097 40102 81140 333 10309 29077 55111 59031;
0156833980999992006022212004-15667-038950FM-12+000599999V0203601N004110450019N0040001N1+02981+02441101221ADDGF106991041051008001021001KA1240N+02981MA1999999101171MD1999999-0041REMSYN076AAXX  22124 83398 32596 63608 10298 20244 30117 40122 84520 333 20298 59004;
0137833980999992006022218004-15667-038950FM-12+000599999V0203601N008210450019N0040001N1+03001+02491100831ADDGF105991031021008001041001MA1999999100781MD1999999-0131REMSYN070AAXX  22184 83398 32596 53616 10300 20249 30078 40083 83240 333 59013;
0168833980999992006022300004-15667-038950FM-12+000599999V0203601N003110450019N0010001N1+02741+02501101061ADDGF105991041051008001021001KA1240M+03181MA1999999101011MD1999999+0041REMSYN088AAXX  23004 83398 32594 53606 10274 20250 30101 40106 84520 333 10318 29080 55104 58004;
0156833980999992006022312004-15667-038950FM-12+000599999V0203601N003110450019N0040001N1+02921+02411101171ADDGF106991041051008001021001KA1240N+02501MA1999999101121MD1999999-0051REMSYN076AAXX  23124 83398 32596 63606 10292 20241 30112 40117 84520 333 20250 59005;
0137833980999992006022318004-15667-038950FM-12+000599999V0200501N003110450019N0040001N1+03021+02531100811ADDGF106991031021008001041011MA1999999100761MD1999999-0021REMSYN070AAXX  23184 83398 32596 60506 10302 20253 30076 40081 83241 333 59002;
0168833980999992006022400004-15667-038950FM-12+000599999V0203601N002110450019N0010001N1+02721+02521101141ADDGF105991031051008001021001KA1240M+03211MA1999999101091MD1999999+0081REMSYN088AAXX  24004 83398 32594 53604 10272 20252 30109 40114 83520 333 10321 29082 55056 58008;
0156833980999992006022412004-15667-038950FM-12+000599999V0203601N004110450019N0040001N1+03001+02321101191ADDGF107991031021008001041011KA1240N+02501MA1999999101141MD1999999+0021REMSYN076AAXX  24124 83398 32596 73608 10300 20232 30114 40119 83241 333 20250 58002;
0137833980999992006022418004-15667-038950FM-12+000599999V0203601N003110450019N0040001N1+03081+02441100781ADDGF106991021021008001041011MA1999999100731MD1999999-0031REMSYN070AAXX  24184 83398 32596 63606 10308 20244 30073 40078 82241 333 59003;
0168833980999992006022500004-15667-038950FM-12+000599999V0203601N002110450019N0010001N1+02741+02481100951ADDGF105991031051008001021001KA1240M+03301MA1999999100901MD1999999-0191REMSYN088AAXX  25004 83398 32594 53604 10274 20248 30090 40095 83520 333 10330 29077 55096 59019;
0156833980999992006022512004-15667-038950FM-12+000599999V0203601N005110450019N0040001N1+03061+02451101201ADDGF106991041051008001021001KA1240N+02501MA1999999101151MD1999999+0011REMSYN076AAXX  25124 83398 32596 63610 10306 20245 30115 40120 84520 333 20250 58001;
0137833980999992006022518004-15667-038950FM-12+000599999V0200501N002110450019N0040001N1+03021+02441100811ADDGF107991031021008001041011MA1999999100761MD1999999+0031REMSYN070AAXX  25184 83398 32596 70504 10302 20244 30076 40081 83241 333 58003;
0156833980999992006022612004-15667-038950FM-12+000599999V0203601N005110450019N0040001N1+02941+02361101111ADDGF106991041051008001021001KA1240N+02461MA1999999101061MD1999999-0091REMSYN076AAXX  26124 83398 32596 63610 10294 20236 30106 40111 84520 333 20246 59009;
0137833980999992006022618004-15667-038950FM-12+000599999V0203601N006210450019N0040001N1+03041+02481100801ADDGF105991031021008001041001MA1999999100751MD1999999-0011REMSYN070AAXX  26184 83398 32596 53612 10304 20248 30075 40080 83240 333 59001;
0156833980999992006022712004-15667-038950FM-12+000599999V0203601N002110450019N0040001N1+03001+02461101291ADDGF106991041051008001041001KA1240N+02521MA1999999101241MD1999999+0181REMSYN076AAXX  27124 83398 32596 63604 10300 20246 30124 40129 84540 333 20252 58018;
0137833980999992006022718004-15667-038950FM-12+000599999V0203601N004612200019N0040001N1+03021+02391100911ADDGF101991011011008001001001MA1999999100861MD1999999+0111REMSYN070AAXX  27184 83398 32596 13609 10302 20239 30086 40091 81100 333 58011;
0168833980999992006022800004-15667-038950FM-12+000599999V0200501N001512200019N0010001N1+02641+02441101181ADDGF102991011011008001041001KA1240M+03181MA1999999101161MD1999999+0151REMSYN088AAXX  28004 83398 32594 20503 10264 20244 30116 40118 81140 333 10318 29080 55107 58015;
0156833980999992006022812004-15667-038950FM-12+000599999V0200501N003612200019N0040001N1+02901+02431101391ADDGF104991021021008001041001KA1240N+02221MA1999999101341MD1999999+0101REMSYN076AAXX  28124 83398 32596 40507 10290 20243 30134 40139 82240 333 20222 58010;
0137833980999992006022818004-15667-038950FM-12+000599999V0203601N005712200019N0040001N1+03001+02241101101ADDGF102991011011008001041001MA1999999101051MD1999999+0191REMSYN070AAXX  28184 83398 32596 23611 10300 20224 30105 40110 81140 333 58019;
0156833980999992006030112004-15667-038950FM-12+000599999V0209999C000010450019N0040001N1+02761+02401101441ADDGF106991041051008001021001KA1240N+02131MA1999999101391MD1999999+0051REMSYN076AAXX  01124 83398 32596 60000 10276 20240 30139 40144 84520 333 20213 58005;
0137833980999992006030118004-15667-038950FM-12+000599999V0200501N004112200019N0040001N1+02981+02281101151ADDGF102991021001008001041001MA1999999101101MD1999999+0051REMSYN070AAXX  01184 83398 32596 20508 10298 20228 30110 40115 82040 333 58005;
0168833980999992006030200004-15667-038950FM-12+000599999V0203601N001012200019N0010001N1+02651+02321101261ADDGF102991011011008001041001KA1240M+03121MA1999999101211MD1999999+0021REMSYN088AAXX  02004 83398 32594 23602 10265 20232 30121 40126 81140 333 10312 29078 55100 58002;
0137833980999992006030218004-15667-038950FM-12+000599999V0203601N004612200019N0040001N1+02921+02241101191ADDGF102991021001008001041001MA1999999101141MD1999999+0041REMSYN070AAXX  02184 83398 32596 23609 10292 20224 30114 40119 82040 333 58004;
0168833980999992006030300004-15667-038950FM-12+000599999V0209999C000012200019N0010001N1+02661+02391101261ADDGF102991021001008001041001KA1240M+03161MA1999999101311MD1999999+0101REMSYN088AAXX  03004 83398 32594 20000 10266 20239 30131 40126 82040 333 10316 29076 55105 58010;
0156833980999992006030312004-15667-038950FM-12+000599999V0200501N003110450019N0040001N1+02961+02381101491ADDGF105991031021008001041001KA1240N+02241MA1999999101441MD1999999-0031REMSYN076AAXX  03124 83398 32596 50506 10296 20238 30144 40149 83240 333 20224 59003;
0137833980999992006030318004-15667-038950FM-12+000599999V0203601N003112200019N0040001N1+02941+02361101201ADDGF102991011011008001041001MA1999999101151MD1999999+0011REMSYN070AAXX  03184 83398 32596 23606 10294 20236 30115 40120 81140 333 58001;
0168833980999992006030400004-15667-038950FM-12+000599999V0200501N001012200019N0010001N1+02651+02361101361ADDGF102991011011008001041001KA1240M+03161MA1999999101311MD1999999+0001REMSYN088AAXX  04004 83398 32594 20502 10265 20236 30131 40136 81140 333 10316 29078 55106 58000;
0156833980999992006030412004-15667-038950FM-12+000599999V0203601N003112200019N0040001N1+02961+02331101531ADDGF104991021021008001041001KA1240N+02201MA1999999101481MD1999999+0041REMSYN076AAXX  04124 83398 32596 43606 10296 20233 30148 40153 82240 333 20220 58004;
0137833980999992006030418004-15667-038950FM-12+000599999V0200501N003112200019N0040001N1+02981+02371101181ADDGF102991011011008001041001MA1999999101131MD1999999-0021REMSYN070AAXX  04184 83398 32596 20506 10298 20237 30113 40118 81140 333 59002;
0168833980999992006030500004-15667-038950FM-12+000599999V0203601N003112200019N0010001N1+02701+02461101291ADDGF103991031011008001001001KA1240M+03161MA1999999101241MD1999999-0071REMSYN088AAXX  05004 83398 32594 33606 10270 20246 30124 40129 83100 333 10316 29078 55105 59007;
0156833980999992006030512004-15667-038950FM-12+000599999V0203601N004110450019N0040001N1+02881+02351101501ADDGF106991031051008001041001KA1240N+02301MA1999999101451MD1999999-0031REMSYN076AAXX  05124 83398 32596 63608 10288 20235 30145 40150 83540 333 20230 59003;
0137833980999992006030518004-15667-038950FM-12+000599999V0203601N006212200019N0040001N1+03021+02461101171ADDGF102991021001008001041001MA1999999101121MD1999999-0011REMSYN070AAXX  05184 83398 32596 23612 10302 20246 30112 40117 82040 333 59001;
0168833980999992006030600004-15667-038950FM-12+000599999V0203601N002112200019N0010001N1+02721+02581101161ADDGF104991021021008001041001KA1240M+03201MA1999999101111MD1999999-0011REMSYN088AAXX  06004 83398 32594 43604 10272 20258 30111 40116 82240 333 10320 29082 55104 59001;
0156833980999992006030612004-15667-038950FM-12+000599999V0203601N002110450019N0040001N1+02961+02491101351ADDGF106991041051008001021001KA1240N+02541MA1999999101301MD1999999-0151REMSYN076AAXX  06124 83398 32596 63604 10296 20249 30130 40135 84520 333 20254 59015;
0137833980999992006030618004-15667-038950FM-12+000599999V0203601N005110450019N0040001N1+02941+02561100951ADDGF106991041051008001021001MA1999999100901MD1999999-0221REMSYN070AAXX  06184 83398 32596 63610 10294 20256 30090 40095 84520 333 59022;
0168833980999992006030700004-15667-038950FM-12+000599999V0203601N003110450019N0010001N1+02731+02491101141ADDGF105991031021008001051001KA1240M+03211MA1999999101091MD1999999-0021REMSYN088AAXX  07004 83398 32594 53606 10273 20249 30109 40114 83250 333 10321 29083 55082 59002;
0156833980999992006030712004-15667-038950FM-12+000599999V0203601N003110450019N0040001N1+02961+02531101321ADDGF106991041051008001021001KA1240N+02501MA1999999101271MD1999999-0031REMSYN076AAXX  07124 83398 32596 63606 10296 20253 30127 40132 84520 333 20250 59003;
0182833980999992006030718004-15667-038950FM-12+000599999V0202701N002110075019N0040001N1+02381+02291101121ADDAA106006191AY191061AY261061GF108991051071008001021999MA1999999101071MD1999999+0171MW1601REMSYN082AAXX  07184 83398 21596 82704 10238 20229 30107 40112 76096 8572/ 333 58017 60061;
0213833980999992006030800004-15667-038950FM-12+000599999V0209999C000010042019N0010001N1+02321+02321101141ADDAA106005191AY191061AY261061GF108991051051004501021999KA1240M+03141MA1999999101091MD1999999+0001MW1021REMSYN100AAXX  08004 83398 21494 80000 10232 20232 30109 40114 70296 8552/ 333 10314 29093 55010 58000 60051;
0173833980999992006030812004-15667-038950FM-12+000599999V0202301N001010075019N0040001N1+02741+02601101251ADDAA124010991GF108991051051008001021999KA1240N+02221MA1999999101201MD1999999-0071REMSYN082AAXX  08124 83398 22596 82302 10274 20260 30120 40125 8552/ 333 20222 59007 60114;
0137833980999992006030818004-15667-038950FM-12+000599999V0202301N003110075019N0040001N1+02521+02251101011ADDGF108991061051008001021999MA1999999100961MD1999999-0111REMSYN070AAXX  08184 83398 32596 82306 10252 20225 30096 40101 8652/ 333 59011;
0232833980999992006030900004-15667-038950FM-12+000599999V0209999C000010450019N0010001N1+02351+02281101101ADDAA106000091AY151061AY221061GF106991041051004501041001KA1240M+03171MA1999999101051MD1999999-0041MW1011REMSYN100AAXX  09004 83398 21494 60000 10235 20228 30105 40110 70152 84540 333 10317 29092 55035 59004 69911;EQDQ01  00002PRCP06
0201833980999992006030912004-15667-038950FM-12+000599999V0203601N002110075019N0040001N1+02741+02581101191ADDAA124000591AY191061AY261061GF108991051051008001021999KA1240N+02301MA1999999101141MD1999999-0061MW1021REMSYN088AAXX  09124 83398 21596 83604 10274 20258 30114 40119 70296 8552/ 333 20230 59006 69964;
0182833980999992006030918004-15667-038950FM-12+000599999V0203601N003110450019N0040001N1+02941+02561100861ADDAA106000591AY161061AY221061GF106991041051008001021001MA1999999100811MD1999999-0151MW1021REMSYN082AAXX  09184 83398 21596 63606 10294 20256 30081 40086 70262 84520 333 59015 69951;
0168833980999992006031000004-15667-038950FM-12+000599999V0203601N000512200019N0010001N1+02641+02481101091ADDGF104991021011008001041001KA1240M+03081MA1999999101041MD1999999-0011REMSYN088AAXX  10004 83398 32594 43601 10264 20248 30104 40109 82140 333 10308 29088 55064 59001;
0173833980999992006031012004-15667-038950FM-12+000599999V0203601N004110450019N0040001N1+02921+02521101131ADDAA124000591GF106991041051008001021001KA1240N+02341MA1999999101081MD1999999-0061REMSYN082AAXX  10124 83398 22596 63608 10292 20252 30108 40113 84520 333 20234 59006 69954;
0137833980999992006031018004-15667-038950FM-12+000599999V0203601N006210450019N0040001N1+02921+02501100861ADDGF106991041051008001041001MA1999999100811MD1999999+0001REMSYN070AAXX  10184 83398 32596 63612 10292 20250 30081 40086 84540 333 58000;
0168833980999992006031100004-15667-038950FM-12+000599999V0209999C000010450019N0010001N1+02601+02501101031ADDGF106991041051008001021001KA1240M+03121MA1999999100981MD1999999-0061REMSYN088AAXX  11004 83398 32594 60000 10260 20250 30098 40103 84520 333 10312 29086 55072 59006;
0156833980999992006031112004-15667-038950FM-12+000599999V0203601N002110075019N0040001N1+02641+02481101201ADDGF108991051051008001021999KA1240N+02401MA1999999101151MD1999999+0071REMSYN076AAXX  11124 83398 32596 83604 10264 20248 30115 40120 8552/ 333 20240 58007;
0137833980999992006031118004-15667-038950FM-12+000599999V0203601N006210450019N0040001N1+02921+02561100851ADDGF107991041051008001041011MA1999999100801MD1999999-0011REMSYN070AAXX  11184 83398 32596 73612 10292 20256 30080 40085 84541 333 59001;
0168833980999992006031200004-15667-038950FM-12+000599999V0203601N001010450019N0010001N1+02681+02541101121ADDGF106991041051008001021001KA1240M+03091MA1999999101071MD1999999+0091REMSYN088AAXX  12004 83398 32594 63602 10268 20254 30107 40112 84520 333 10309 29085 55071 58009;
0201833980999992006031212004-15667-038950FM-12+000599999V0209999C000010450019N0040001N1+02301+02271101351ADDAA124041991AY191061AY261061GF108991041071008001021999KA1240N+02221MA1999999101301MD1999999+0151MW1601REMSYN088AAXX  12124 83398 21596 80000 10230 20227 30130 40135 76096 8472/ 333 20222 58015 60424;
0182833980999992006031218004-15667-038950FM-12+000599999V0209999C000010450019N0040001N1+02481+02461100961ADDAA106000891AY161061AY221061GF108991041071008001021999MA1999999100911MD1999999+0111MW1511REMSYN082AAXX  12184 83398 21596 80000 10248 20246 30091 40096 75162 8472/ 333 58011 69981;
0168833980999992006031300004-15667-038950FM-12+000599999V0209999C000010075019N0010001N1+02381+02381101171ADDGF108991051051008001021999KA1240M+02541MA1999999101121MD1999999+0051REMSYN088AAXX  13004 83398 32594 80000 10238 20238 30112 40117 8552/ 333 10254 29099 55000 58005;
0173833980999992006031312004-15667-038950FM-12+000599999V0202301N002110450019N0040001N1+02691+02471101251ADDAA124000891GF107991041051008001021001KA1240N+02291MA1999999101121MD1999999-0101REMSYN082AAXX  13124 83398 22596 72304 10269 20247 30112 40125 84520 333 20229 59010 69984;
0137833980999992006031318004-15667-038950FM-12+000599999V0200501N002610450019N0040001N1+02751+02271100961ADDGF106991041051008001021001MA1999999100911MD1999999+0001REMSYN070AAXX  13184 83398 32596 60505 10275 20227 30091 40096 84520 333 58000;
0168833980999992006031400004-15667-038950FM-12+000599999V0209999C000010075019N0010001N1+02501+02411101261ADDGF108991051051008001021999KA1240M+02931MA1999999101211MD1999999+0091REMSYN088AAXX  14004 83398 32594 80000 10250 20241 30121 40126 8552/ 333 10293 29088 55017 58009;
0201833980999992006031412004-15667-038950FM-12+000599999V0209999C000010075019N0040001N1+02621+02421101371ADDAA124001091AY161061AY221061GF108991051051008001021999KA1240N+02351MA1999999101321MD1999999+0121MW1021REMSYN088AAXX  14124 83398 21596 80000 10262 20242 30132 40137 70262 8552/ 333 20235 58012 60014;
0182833980999992006031418004-15667-038950FM-12+000599999V0200501N001010450019N0040001N1+02751+02351101081ADDAA106005191AY161061AY221061GF106991041051008001021001MA1999999101031MD1999999+0121MW1021REMSYN082AAXX  14184 83398 21596 60502 10275 20235 30103 40108 70262 84520 333 58012 60051;
0168833980999992006031500004-15667-038950FM-12+000599999V0209999C000010450019N0010001N1+02471+02311101321ADDGF105991031021008001041001KA1240M+02911MA1999999101271MD1999999+0061REMSYN088AAXX  15004 83398 32594 50000 10247 20231 30127 40132 83240 333 10291 29088 55035 58006;
0201833980999992006031512004-15667-038950FM-12+000599999V0209999C000010450019N0040001N1+02771+02411101431ADDAA124005191AY151061AY221061GF106991041051008001021001KA1240N+02271MA1999999101381MD1999999+0061MW1021REMSYN088AAXX  15124 83398 21596 60000 10277 20241 30138 40143 70252 84520 333 20227 58006 60054;
0137833980999992006031518004-15667-038950FM-12+000599999V0200501N004112200019N0040001N1+02891+02361101141ADDGF104991021011008001041011MA1999999101091MD1999999+0061REMSYN070AAXX  15184 83398 32596 40508 10289 20236 30109 40114 82141 333 58006;
0201833980999992006031612004-15667-038950FM-12+000599999V0200501N002610450019N0040001N1+02821+02541101491ADDAA124004191AY161061AY221061GF107991041051008001021001KA1240N+02331MA1999999101441MD1999999+0061MW1021REMSYN088AAXX  16124 83398 21596 70505 10282 20254 30144 40149 70262 84520 333 20233 58006 60044;
0137833980999992006031618004-15667-038950FM-12+000599999V0200901N003110450019N0040001N1+02921+02411101251ADDGF105991031051008001021001MA1999999101201MD1999999+0111REMSYN070AAXX  16184 83398 32596 50906 10292 20241 30120 40125 83520 333 58011;
0213833980999992006031700004-15667-038950FM-12+000599999V0201801N001010075019N0010001N1+02531+02391101391ADDAA106000891AY161061AY221061GF108991051051008001021999KA1240M+03051MA1999999101341MD1999999+0051MW1021REMSYN100AAXX  17004 83398 21594 81802 10253 20239 30134 40139 70262 8552/ 333 10305 29086 55092 58005 69971;
0201833980999992006031712004-15667-038950FM-12+000599999V0201401N001010450019N0040001N1+02701+02451101351ADDAA124015091AY161061AY221061GF107991041051008001021001KA1240N+02391MA1999999101301MD1999999-0091MW1021REMSYN088AAXX  17124 83398 21596 71402 10270 20245 30130 40135 70262 84520 333 20239 59009 60154;
0182833980999992006031718004-15667-038950FM-12+000599999V0200501N001010075019N0040001N1+02601+02351101131ADDAA106006191AY161061AY221061GF108991051051008001021999MA1999999101081MD1999999-0121MW1021REMSYN082AAXX  17184 83398 21596 80502 10260 20235 30108 40113 70262 8552/ 333 59012 60061;
0232833980999992006031800004-15667-038950FM-12+000599999V0209999C000010075019N0010001N1+02501+02471101311ADDAA106000091AY151061AY221061GF108991051051008001021999KA1240M+02901MA1999999101261MD1999999-0081MW1021REMSYN100AAXX  18004 83398 21594 80000 10250 20247 30126 40131 70252 8552/ 333 10290 29092 55023 59008 69921;EQDQ01  00002PRCP06
0201833980999992006031812004-15667-038950FM-12+000599999V0201401N001010075019N0040001N1+02571+02371101411ADDAA124008991AY161061AY221061GF108991051051008001021999KA1240N+02341MA1999999101361MD1999999+0061MW1021REMSYN088AAXX  18124 83398 21596 81402 10257 20237 30136 40141 70262 8552/ 333 20234 58006 60094;
0137833980999992006031818004-15667-038950FM-12+000599999V0200901N002110075019N0040001N1+02821+02441101161ADDGF108991051051008001021999MA1999999101111MD1999999+0031REMSYN070AAXX  18184 83398 32596 80904 10282 20244 30111 40116 8552/ 333 58003;
0168833980999992006031900004-15667-038950FM-12+000599999V0209999C000010450019N0010001N1+02531+02441101361ADDGF106991041051008001021001KA1240M+03001MA1999999101311MD1999999+0051REMSYN088AAXX  19004 83398 32594 60000 10253 20244 30131 40136 84520 333 10300 29090 55036 58005;
0201833980999992006031912004-15667-038950FM-12+000599999V0200501N001510450019N0040001N1+02671+02451101391ADDAA124005191AY161061AY221061GF106991041051008001021001KA1240N+02311MA1999999101341MD1999999-0021MW1021REMSYN088AAXX  19124 83398 21596 60503 10267 20245 30134 40139 70262 84520 333 20231 59002 60054;
0182833980999992006031918004-15667-038950FM-12+000599999V0200501N004112200019N0040001N1+02901+02411101211ADDAA106003091AY161061AY221061GF104991021021008001041001MA1999999101161MD1999999+0051MW1021REMSYN082AAXX  19184 83398 21596 40508 10290 20241 30116 40121 70262 82240 333 58005 60031;
0168833980999992006032000004-15667-038950FM-12+000599999V0200901N002612200019N0010001N1+02671+02321101411ADDGF104991021021008001041001KA1240M+02981MA1999999101361MD1999999+0051REMSYN088AAXX  20004 83398 32594 40905 10267 20232 30136 40141 82240 333 10298 29081 55081 58005;
0182833980999992006032018004-15667-038950FM-12+000599999V0200901N004110450019N0040001N1+02901+02481101341ADDAA106008991AY161061AY221061GF106991041051008001021001MA1999999101291MD1999999+0131MW1021REMSYN082AAXX  20184 83398 21596 60908 10290 20248 30129 40134 70262 84520 333 58013 60091;
0168833980999992006032100004-15667-038950FM-12+000599999V0209999C000010450019N0010001N1+02701+02451101471ADDGF106991041051008001021001KA1240M+03001MA1999999101421MD1999999+0061REMSYN088AAXX  21004 83398 32594 60000 10270 20245 30142 40147 84520 333 10300 29086 55059 58006;
0201833980999992006032112004-15667-038950FM-12+000599999V0202301N001010075019N0040001N1+02601+02501101551ADDAA124024991AY161061AY221061GF107991051051008001021001KA1240N+02341MA1999999101501MD1999999+0041MW1021REMSYN088AAXX  21124 83398 21596 72302 10260 20250 30150 40155 70262 85520 333 20234 58004 60254;
0182833980999992006032118004-15667-038950FM-12+000599999V0200501N003110075019N0040001N1+02861+02391101341ADDAA106000591AY161061AY221061GF107991051051008001021001MA1999999101291MD1999999+0001MW1021REMSYN082AAXX  21184 83398 21596 70506 10286 20239 30129 40134 70262 85520 333 58000 69951;
0213833980999992006032200004-15667-038950FM-12+000599999V0209999C000010075019N0010001N1+02501+02411101511ADDAA106000591AY191061AY261061GF108991051051008001021999KA1240M+02961MA1999999101461MD1999999+0041MW1021REMSYN100AAXX  22004 83398 21594 80000 10250 20241 30146 40151 70296 8552/ 333 10296 29090 55030 58004 69941;
0201833980999992006032212004-15667-038950FM-12+000599999V0201801N002110450019N0040001N1+02741+02451101551ADDAA124003091AY191061AY261061GF106991041051008001021001KA1240N+02261MA1999999101501MD1999999+0001MW1021REMSYN088AAXX  22124 83398 21596 61804 10274 20245 30150 40155 70296 84520 333 20226 58000 60034;
0137833980999992006032218004-15667-038950FM-12+000599999V0200901N003110450019N0040001N1+02921+02471101321ADDGF106991041051008001021001MA1999999101271MD1999999-0021REMSYN070AAXX  22184 83398 32596 60906 10292 20247 30127 40132 84520 333 59002;
0168833980999992006032300004-15667-038950FM-12+000599999V0201801N001012200019N0010001N1+02521+02401101491ADDGF103991031011008001001001KA1240M+03041MA1999999101441MD1999999-0021REMSYN088AAXX  23004 83398 32594 31802 10252 20240 30144 40149 83100 333 10304 29087 55093 59002;
0201833980999992006032312004-15667-038950FM-12+000599999V0209999C000010075019N0040001N1+02581+02511101601ADDAA124002091AY161061AY221061GF108991051051008001021999KA1240N+02301MA1999999101551MD1999999+0051MW1021REMSYN088AAXX  23124 83398 21596 80000 10258 20251 30155 40160 70262 8552/ 333 20230 58005 60024;
0137833980999992006032318004-15667-038950FM-12+000599999V0200901N004110450019N0040001N1+02881+02481101281ADDGF106991031051008001041001MA1999999101231MD1999999-0041REMSYN070AAXX  23184 83398 32596 60908 10288 20248 30123 40128 83540 333 59004;
0213833980999992006032400004-15667-038950FM-12+000599999V0209999C000010075019N0010001N1+02401+02371101421ADDAA106004191AY161061AY221061GF108991051051008001021999KA1240M+02981MA1999999101371MD1999999-0071MW1021REMSYN100AAXX  24004 83398 21594 80000 10240 20237 30137 40142 70262 8552/ 333 10298 29093 55046 59007 60041;
0201833980999992006032412004-15667-038950FM-12+000599999V0202301N001010075019N0040001N1+02621+02481101581ADDAA124007191AY161061AY221061GF107991051051008001021001KA1240N+02281MA1999999101531MD1999999-0021MW1021REMSYN088AAXX  24124 83398 21596 72302 10262 20248 30153 40158 70262 85520 333 20228 59002 60074;
0201833980999992006032418004-15667-038950FM-12+000599999V0200901N003110450019N0040001N1+02941+02331101261ADDAA106000091AY151061AY221061GF106991031051008001041011MA1999999101211MD1999999-0021MW1021REMSYN082AAXX  24184 83398 21596 60906 10294 20233 30121 40126 70252 83541 333 59002 69921;EQDQ01  00002PRCP06
0168833980999992006032500004-15667-038950FM-12+000599999V0200501N003112200019N0010001N1+02701+02371101431ADDGF104991041011008001001001KA1240M+03041MA1999999101381MD1999999+0011REMSYN088AAXX  25004 83398 32594 40506 10270 20237 30138 40143 84100 333 10304 29082 55079 58001;
0201833980999992006032512004-15667-038950FM-12+000599999V0209999C000010450019N0040001N1+02741+02451101561ADDAA124001091AY161061AY221061GF106991041051008001021001KA1240N+02241MA1999999101511MD1999999-0021MW1021REMSYN088AAXX  25124 83398 21596 60000 10274 20245 30151 40156 70262 84520 333 20224 59002 60014;
0137833980999992006032518004-15667-038950FM-12+000599999V0200501N004110450019N0040001N1+02901+02371101241ADDGF105991031051008001021001MA1999999101191MD1999999-0021REMSYN070AAXX  25184 83398 32596 50508 10290 20237 30119 40124 83520 333 59002;
0168833980999992006032600004-15667-038950FM-12+000599999V0209999C000012200019N0010001N1+02541+02451101411ADDGF104991031051008001041001KA1240M+03011MA1999999101361MD1999999-0021REMSYN088AAXX  26004 83398 32594 40000 10254 20245 30136 40141 83540 333 10301 29087 55089 59002;
0156833980999992006032612004-15667-038950FM-12+000599999V0209999C000010450019N0040001N1+02791+02491101361ADDGF106991041021008001041001KA1240N+02221MA1999999101311MD1999999-0201REMSYN076AAXX  26124 83398 32596 60000 10279 20249 30131 40136 84240 333 20222 59020;
0137833980999992006032618004-15667-038950FM-12+000599999V0203601N006210450019N0040001N1+03021+02311101021ADDGF106991031021008001041011MA1999999100971MD1999999-0221REMSYN070AAXX  26184 83398 32596 63612 10302 20231 30097 40102 83241 333 59022;
0168833980999992006032700004-15667-038950FM-12+000599999V0203601N001012200019N0010001N1+02681+02391101191ADDGF104991021021008001041001KA1240M+03081MA1999999101141MD1999999-0221REMSYN088AAXX  27004 83398 32594 43602 10268 20239 30114 40119 82240 333 10308 29080 55092 59022;
0220833980999992006032712004-15667-038950FM-12+000599999V0209999C000010450019N0040001N1+02791+02551101461ADDAA124000091AY151061AY221061GF107991041051008001021001KA1240N+02301MA1999999101411MD1999999+0101MW1021REMSYN088AAXX  27124 83398 21596 70000 10279 20255 30141 40146 70252 84520 333 20230 58010 69914;EQDQ01  00002PRCP24
0137833980999992006032718004-15667-038950FM-12+000599999V0203601N002610075019N0040001N1+02981+02401101101ADDGF108991051051008001021999MA1999999101051MD1999999+0081REMSYN070AAXX  27184 83398 32596 83605 10298 20240 30105 40110 8552/ 333 58008;
0213833980999992006032800004-15667-038950FM-12+000599999V0209999C000010075019N0010001N1+02561+02471101471ADDAA106002091AY161061AY221061GF108991051051008001021999KA1240M+03101MA1999999101421MD1999999+0281MW1021REMSYN100AAXX  28004 83398 21594 80000 10256 20247 30142 40147 70262 8552/ 333 10310 29087 55057 58028 60021;
0173833980999992006032812004-15667-038950FM-12+000599999V0201801N004610450019N0040001N1+02721+02221101481ADDAA124002091GF106991041051008001021001KA1240N+02441MA1999999101431MD1999999-0021REMSYN082AAXX  28124 83398 22596 61809 10272 20222 30143 40148 84520 333 20244 59002 60024;
0137833980999992006032818004-15667-038950FM-12+000599999V0200901N004610450019N0040001N1+02861+02281101041ADDGF105991031051008001021001MA1999999100991MD1999999-0061REMSYN070AAXX  28184 83398 32596 50909 10286 20228 30099 40104 83520 333 59006;
0168833980999992006032900004-15667-038950FM-12+000599999V0209999C000012200019N0010001N1+02531+02431101301ADDGF104991021021008001041001KA1240M+03011MA1999999101251MD1999999-0171REMSYN088AAXX  29004 83398 32594 40000 10253 20243 30125 40130 82240 333 10301 29083 55064 59017;
0156833980999992006032912004-15667-038950FM-12+000599999V0209999C000010075019N0040001N1+02801+02481101271ADDGF107991051051008001021001KA1240N+02341MA1999999101221MD1999999-0211REMSYN076AAXX  29124 83398 32596 70000 10280 20248 30122 40127 85520 333 20234 59021;
0168833980999992006033000004-15667-038950FM-12+000599999V0203601N001012200019N0010001N1+02711+02531101231ADDGF104991021021008001041001KA1240M+03061MA1999999101181MD1999999-0071REMSYN088AAXX  30004 83398 32594 43602 10271 20253 30118 40123 82240 333 10306 29084 55080 59007;
0156833980999992006033012004-15667-038950FM-12+000599999V0203601N004110450019N0040001N1+02861+02421101301ADDGF105991031051008001021001KA1240N+02421MA1999999101251MD1999999+0031REMSYN076AAXX  30124 83398 32596 53608 10286 20242 30125 40130 83520 333 20242 58003;
0137833980999992006033018004-15667-038950FM-12+000599999V0203601N002110075019N0040001N1+02741+02501100951ADDGF108991051051008001021999MA1999999100901MD1999999+0071REMSYN070AAXX  30184 83398 32596 83604 10274 20250 30090 40095 8552/ 333 58007;
0168833980999992006033100004-15667-038950FM-12+000599999V0209999C000010450019N0010001N1+02501+02411101261ADDGF105991031051008001021001KA1240M+03101MA1999999101211MD1999999+0031REMSYN088AAXX  31004 83398 32594 50000 10250 20241 30121 40126 83520 333 10310 29089 55050 58003;
0201833980999992006033112004-15667-038950FM-12+000599999V0209999C000010075019N0040001N1+02861+02641101421ADDAA124011991AY161061AY221061GF108991051051008001021999KA1240N+02391MA1999999101371MD1999999+0121MW1021REMSYN088AAXX  31124 83398 21596 80000 10286 20264 30137 40142 70262 8552/ 333 20239 58012 60124;
0201833980999992006033118004-15667-038950FM-12+000599999V0200501N002610075019N0040001N1+02821+02461101191ADDAA106000091AY151061AY221061GF108991051051008001021999MA1999999101141MD1999999+0241MW1021REMSYN082AAXX  31184 83398 21596 80505 10282 20246 30114 40119 70252 8552/ 333 58024 69911;EQDQ01  00002PRCP06
0168833980999992006040100004-15667-038950FM-12+000599999V0201401N003110075019N0010001N1+02581+02481101391ADDGF108991051051008001021999KA1240M+03001MA1999999101341MD1999999+0131REMSYN088AAXX  01004 83398 32594 81406 10258 20248 30134 40139 8552/ 333 10300 29089 55030 58013;
0201833980999992006040112004-15667-038950FM-12+000599999V0201801N004110075019N0040001N1+02571+02411101521ADDAA124007991AY161061AY221061GF108991051051008001021999KA1240N+02391MA1999999101471MD1999999+0101MW1021REMSYN088AAXX  01124 83398 21596 81808 10257 20241 30147 40152 70262 8552/ 333 20239 58010 60084;
0137833980999992006040118004-15667-038950FM-12+000599999V0201401N001010075019N0040001N1+02781+02401101231ADDGF108991051051008001021999MA1999999101181MD1999999+0041REMSYN070AAXX  01184 83398 32596 81402 10278 20240 30118 40123 8552/ 333 58004;
0168833980999992006040200004-15667-038950FM-12+000599999V0201801N002110450019N0010001N1+02431+02401101461ADDGF106991041051008001021001KA1240M+02841MA1999999101411MD1999999+0071REMSYN088AAXX  02004 83398 32594 61804 10243 20240 30141 40146 84520 333 10284 29092 55006 58007;
0201833980999992006040212004-15667-038950FM-12+000599999V0209999C000010075019N0040001N1+02381+02361101521ADDAA124027991AY161061AY221061GF108991051051008001021999KA1240N+02331MA1999999101471MD1999999+0001MW1021REMSYN088AAXX  02124 83398 21596 80000 10238 20236 30147 40152 70262 8552/ 333 20233 58000 60284;
0201833980999992006040218004-15667-038950FM-12+000599999V0200901N001010450019N0040001N1+02771+02221101221ADDAA106000091AY151061AY221061GF106991041051008001021001MA1999999101171MD1999999-0011MW1021REMSYN082AAXX  02184 83398 21596 60902 10277 20222 30117 40122 70252 84520 333 59001 69911;EQDQ01  00002PRCP06
0168833980999992006040300004-15667-038950FM-12+000599999V0209999C000010075019N0010001N1+02481+02431101461ADDGF105991051051008001001001KA1240M+02961MA1999999101411MD1999999+0001REMSYN088AAXX  03004 83398 32594 50000 10248 20243 30141 40146 85500 333 10296 29091 55014 58000;
0201833980999992006040312004-15667-038950FM-12+000599999V0201801N002110075019N0040001N1+02561+02421101511ADDAA124002091AY161061AY221061GF107991051051008001021001KA1240N+02301MA1999999101461MD1999999-0011MW1021REMSYN088AAXX  03124 83398 21596 71804 10256 20242 30146 40151 70262 85520 333 20230 59001 60024;
0182833980999992006040318004-15667-038950FM-12+000599999V0200901N003110450019N0040001N1+02841+02401101251ADDAA106003091AY161061AY221061GF106991041051008001021001MA1999999101201MD1999999+0031MW1021REMSYN082AAXX  03184 83398 21596 60906 10284 20240 30120 40125 70262 84520 333 58003 60031;
0168833980999992006040400004-15667-038950FM-12+000599999V0209999C000012200019N0010001N1+02421+02391101451ADDGF104991041051008001001001KA1240M+02951MA1999999101401MD1999999-0011REMSYN088AAXX  04004 83398 32594 40000 10242 20239 30140 40145 84500 333 10295 29091 55037 59001;
0173833980999992006040412004-15667-038950FM-12+000599999V0201801N003110075019N0040001N1+02541+02351101461ADDAA124003091GF108991051051008001021999KA1240N+02281MA1999999101411MD1999999+0011REMSYN082AAXX  04124 83398 22596 81806 10254 20235 30141 40146 8552/ 333 20228 58001 60034;
0182833980999992006040418004-15667-038950FM-12+000599999V0201801N002110075019N0040001N1+02501+02401101251ADDAA106009991AY161061AY221061GF108991051051008001021999MA1999999101201MD1999999+0001MW1021REMSYN082AAXX  04184 83398 21596 81804 10250 20240 30120 40125 70262 8552/ 333 58000 60101;
0213833980999992006040500004-15667-038950FM-12+000599999V0209999C000010075019N0010001N1+02381+02331101461ADDAA106001091AY161061AY221061GF108991051051008001021999KA1240M+02701MA1999999101411MD1999999+0011MW1021REMSYN100AAXX  05004 83398 21594 80000 10238 20233 30141 40146 70262 8552/ 333 10270 29094 55004 58001 69991;
0201833980999992006040512004-15667-038950FM-12+000599999V0201801N002110450019N0040001N1+02661+02391101501ADDAA124010991AY161061AY221061GF106991041051008001021001KA1240N+02261MA1999999101451MD1999999+0041MW1021REMSYN088AAXX  05124 83398 21596 61804 10266 20239 30145 40150 70262 84520 333 20226 58004 60114;
0182833980999992006040518004-15667-038950FM-12+000599999V0201401N005110450019N0040001N1+02901+02301101201ADDAA106001091AY161061AY221061GF107991041051008001041001MA1999999101151MD1999999-0051MW1021REMSYN082AAXX  05184 83398 21596 71410 10290 20230 30115 40120 70262 84540 333 59005 60011;
0168833980999992006040600004-15667-038950FM-12+000599999V0209999C000010450019N0010001N1+02441+02391101411ADDGF106991041051008001021001KA1240M+02981MA1999999101361MD1999999-0051REMSYN088AAXX  06004 83398 32594 60000 10244 20239 30136 40141 84520 333 10298 29087 55057 59005;
0173833980999992006040612004-15667-038950FM-12+000599999V0202301N002110450019N0040001N1+02681+02391101411ADDAA124001091GF106991041051008001021001KA1240N+02241MA1999999101361MD1999999-0091REMSYN082AAXX  06124 83398 22596 62304 10268 20239 30136 40141 84520 333 20224 59009 60014;
0182833980999992006040618004-15667-038950FM-12+000599999V0201401N002110450019N0040001N1+02741+02481101181ADDAA106001091AY161061AY221061GF107991041051008001021001MA1999999101131MD1999999-0021MW1021REMSYN082AAXX  06184 83398 21596 71404 10274 20248 30113 40118 70262 84520 333 59002 69991;
0168833980999992006040700004-15667-038950FM-12+000599999V0209999C000010450019N0010001N1+02561+02381101321ADDGF106991041051008001021001KA1240M+02971MA1999999101271MD1999999-0091REMSYN088AAXX  07004 83398 32594 60000 10256 20238 30127 40132 84520 333 10297 29088 55044 59009;
0201833980999992006040712004-15667-038950FM-12+000599999V0201801N002110075019N0040001N1+02461+02321101401ADDAA124004191AY161061AY221061GF108991051051008001021999KA1240N+02261MA1999999101351MD1999999-0011MW1021REMSYN088AAXX  07124 83398 21596 81804 10246 20232 30135 40140 70262 8552/ 333 20226 59001 60044;
0137833980999992006040718004-15667-038950FM-12+000599999V0200901N005110450019N0040001N1+02881+02371101151ADDGF106991041051008001021011MA1999999101101MD1999999-0031REMSYN070AAXX  07184 83398 32596 60910 10288 20237 30110 40115 84521 333 59003;
0168833980999992006040800004-15667-038950FM-12+000599999V0201801N003110075019N0010001N1+02541+02441101341ADDGF107991051051008001021001KA1240M+03011MA1999999101291MD1999999+0021REMSYN088AAXX  08004 83398 32594 71806 10254 20244 30129 40134 85520 333 10301 29089 55035 58002;
0201833980999992006040812004-15667-038950FM-12+000599999V0209999C000010075019N0040001N1+02381+02351101431ADDAA124051191AY161061AY221061GF108991051071008001021999KA1240N+02301MA1999999101381MD1999999+0031MW1631REMSYN088AAXX  08124 83398 21596 80000 10238 20235 30138 40143 76362 8572/ 333 20230 58003 60514;
0182833980999992006040818004-15667-038950FM-12+000599999V0200901N001010075019N0040001N1+02641+02351101041ADDAA106006191AY191061AY261061GF107991051051008001021001MA1999999100991MD1999999-0111MW1021REMSYN082AAXX  08184 83398 21596 70902 10264 20235 30099 40104 70296 85520 333 59011 60061;
0168833980999992006040900004-15667-038950FM-12+000599999V0209999C000010075019N0010001N1+02481+02411101181ADDGF107991051051008001021001KA1240M+02721MA1999999101131MD1999999-0161REMSYN088AAXX  09004 83398 32594 70000 10248 20241 30113 40118 85520 333 10272 29094 55001 59016;
0201833980999992006040912004-15667-038950FM-12+000599999V0201801N002110075019N0040001N1+02601+02501101201ADDAA124010991AY161061AY221061GF108991051051008001021999KA1240N+02261MA1999999101151MD1999999-0231MW1021REMSYN088AAXX  09124 83398 21596 81804 10260 20250 30115 40120 70262 8552/ 333 20226 59023 60114;
0137833980999992006040918004-15667-038950FM-12+000599999V0200501N003110450019N0040001N1+02701+02411100771ADDGF107991041051008001021001MA1999999100721MD1999999-0221REMSYN070AAXX  09184 83398 32596 70506 10270 20241 30072 40077 84520 333 59022;
0213833980999992006041000004-15667-038950FM-12+000599999V0209999C000010075019N0010001N1+02521+02431100931ADDAA106000591AY151061AY221061GF108991051051008001021999KA1240M+02881MA1999999100881MD1999999-0251MW1021REMSYN100AAXX  10004 83398 21594 80000 10252 20243 30088 40093 70252 8552/ 333 10288 29093 55026 59025 69951;
0201833980999992006041012004-15667-038950FM-12+000599999V0200501N004110075019N0040001N1+02561+02441101081ADDAA124006191AY161061AY221061GF108991051051008001021999KA1240N+02411MA1999999101031MD1999999-0121MW1021REMSYN088AAXX  10124 83398 21596 80508 10256 20244 30103 40108 70262 8552/ 333 20241 59012 60064;
0182833980999992006041018004-15667-038950FM-12+000599999V0203601N001010075019N0040001N1+02461+02411100821ADDAA106007991AY161061AY221061GF108991051051008001021999MA1999999100771MD1999999+0051MW1611REMSYN082AAXX  10184 83398 21596 83602 10246 20241 30077 40082 76162 8552/ 333 58005 60081;
0213833980999992006041100004-15667-038950FM-12+000599999V0209999C000010450019N0010001N1+02281+02201100901ADDAA106000591AY161061AY221061GF107991041051008001021001KA1240M+02711MA1999999100851MD1999999-0031MW1021REMSYN100AAXX  11004 83398 21594 70000 10228 20220 30085 40090 70262 84520 333 10271 29095 55006 59003 69941;
0173833980999992006041112004-15667-038950FM-12+000599999V0209999C000010450019N0040001N1+02721+02391101031ADDAA124007991GF107991041051008001021001KA1240N+02231MA1999999100981MD1999999-0051REMSYN082AAXX  11124 83398 22596 70000 10272 20239 30098 40103 84520 333 20223 59005 60084;
0137833980999992006041118004-15667-038950FM-12+000599999V0203601N008212200019N0040001N1+02881+02441100661ADDGF103991021021008001041001MA1999999100611MD1999999-0161REMSYN070AAXX  11184 83398 32596 33616 10288 20244 30061 40066 82240 333 59016;
0168833980999992006041200004-15667-038950FM-12+000599999V0209999C000012200019N0010001N1+02621+02421100941ADDGF104991021021008001041001KA1240M+03061MA1999999100891MD1999999+0041REMSYN088AAXX  12004 83398 32594 40000 10262 20242 30089 40094 82240 333 10306 29084 55060 58004;
0156833980999992006041212004-15667-038950FM-12+000599999V0203601N005112200019N0040001N1+02931+02481101141ADDGF103991021011008001041001KA1240N+02411MA1999999101091MD1999999+0111REMSYN076AAXX  12124 83398 32596 33610 10293 20248 30109 40114 82140 333 20241 58011;
0137833980999992006041218004-15667-038950FM-12+000599999V0203601N003110450019N0040001N1+02801+02501100821ADDGF107991041051008001021001MA1999999100771MD1999999+0161REMSYN070AAXX  12184 83398 32596 73606 10280 20250 30077 40082 84520 333 58016;
0168833980999992006041300004-15667-038950FM-12+000599999V0203601N001010075019N0010001N1+02701+02561101111ADDGF108991051051008001021999KA1240M+03161MA1999999101061MD1999999+0171REMSYN088AAXX  13004 83398 32594 83602 10270 20256 30106 40111 8552/ 333 10316 29086 55066 58017;
0156833980999992006041312004-15667-038950FM-12+000599999V0203601N004612200019N0040001N1+02961+02601101091ADDGF104991021011008001041001KA1240N+02431MA1999999101041MD1999999-0051REMSYN076AAXX  13124 83398 32596 43609 10296 20260 30104 40109 82140 333 20243 59005;
0137833980999992006041318004-15667-038950FM-12+000599999V0203601N004610450019N0040001N1+02871+02591100751ADDGF107991041051008001021001MA1999999100701MD1999999-0071REMSYN070AAXX  13184 83398 32596 73609 10287 20259 30070 40075 84520 333 59007;
0168833980999992006041400004-15667-038950FM-12+000599999V0209999C000010450019N0010001N1+02681+02611101081ADDGF107991041051008001021001KA1240M+03131MA1999999101031MD1999999-0031REMSYN088AAXX  14004 83398 32594 70000 10268 20261 30103 40108 84520 333 10313 29090 55068 59003;
0156833980999992006041412004-15667-038950FM-12+000599999V0209999C000010450019N0040001N1+02861+02581101201ADDGF105991031021008001041001KA1240N+02391MA1999999101151MD1999999+0111REMSYN076AAXX  14124 83398 32596 50000 10286 20258 30115 40120 83240 333 20239 58011;
0137833980999992006041418004-15667-038950FM-12+000599999V0200501N004112200019N0040001N1+02901+02431100831ADDGF104991021021008001041001MA1999999100781MD1999999+0081REMSYN070AAXX  14184 83398 32596 40508 10290 20243 30078 40083 82240 333 58008;
0168833980999992006041500004-15667-038950FM-12+000599999V0209999C000010450019N0010001N1+02541+02451101191ADDGF106991041051008001041001KA1240M+03041MA1999999101141MD1999999+0111REMSYN088AAXX  15004 83398 32594 60000 10254 20245 30114 40119 84540 333 10304 29088 55077 58011;
0201833980999992006041512004-15667-038950FM-12+000599999V0209999C000010450019N0040001N1+02761+02451101381ADDAA124001091AY161061AY221061GF106991041051008001021001KA1240N+02331MA1999999101331MD1999999+0181MW1021REMSYN088AAXX  15124 83398 21596 60000 10276 20245 30133 40138 70262 84520 333 20233 58018 60014;
0201833980999992006041518004-15667-038950FM-12+000599999V0209999C000010450019N0040001N1+02761+02301101161ADDAA106000091AY151061AY221061GF107991041051008001021001MA1999999101111MD1999999+0331MW1021REMSYN082AAXX  15184 83398 21596 70000 10276 20230 30111 40116 70252 84520 333 58033 69911;EQDQ01  00002PRCP06
0168833980999992006041600004-15667-038950FM-12+000599999V02099999999990450019N0010001N1+02461+02371101431ADDGF105991031051008001041001KA1240M+03021MA1999999101381MD1999999+0241REMSYN088AAXX  16004 83398 32594 5//// 10246 20237 30138 40143 83540 333 10302 29088 55043 58024;
0201833980999992006041612004-15667-038950FM-12+000599999V02099999999990075019N0040001N1+02541+02311101711ADDAA124038191AY161061AY221061GF108991051051008001021999KA1240N+02211MA1999999101651MD1999999+0321MW1021REMSYN088AAXX  16124 83398 21596 8//// 10254 20231 30165 40171 70262 8552/ 333 20221 58032 60384;
0137833980999992006041618004-15667-038950FM-12+000599999V02099999999990450019N0040001N1+02921+02121101351ADDGF107991041051008001021001MA1999999101301MD1999999+0191REMSYN070AAXX  16184 83398 32596 7//// 10292 20212 30130 40135 84520 333 58019;
0168833980999992006041700004-15667-038950FM-12+000599999V02099999999992200019N0010001N1+02461+02411101551ADDGF103991021011008001041001KA1240M+03031MA1999999101501MD1999999+0121REMSYN088AAXX  17004 83398 32594 3//// 10246 20241 30150 40155 82140 333 10303 29086 55034 58012;
0207833980999992006041712004-15667-038950FM-12+000599999V0200901N003110075019N0040001N1+02541+02291101521ADDAA124002091AY161061AY221061GF108991051051008001021999KA1240N+02221MA1999999101471MD1999999-0181MW1021REMSYN094AAXX  17124 83398 21596 80906 10254 20229 30147 40152 70262 8552/ 333 20222 59018 60024 10018;
0168833980999992006041800004-15667-038950FM-12+000599999V0209999C000010075019N0010001N1+02641+02351101271ADDGF105991051051008001001001KA1240M+03041MA1999999101221MD1999999-0281REMSYN088AAXX  18004 83398 32594 50000 10264 20235 30122 40127 85500 333 10304 29079 55052 59028;
0156833980999992006041812004-15667-038950FM-12+000599999V0200501N002110450019N0040001N1+02801+02341101351ADDGF106991041051008001021001KA1240N+02201MA1999999101301MD1999999-0171REMSYN076AAXX  18124 83398 32596 60504 10280 20234 30130 40135 84520 333 20220 59017;
0137833980999992006041818004-15667-038950FM-12+000599999V0200901N003110450019N0040001N1+02841+02261101061ADDGF106991041051008001021001MA1999999101011MD1999999-0081REMSYN070AAXX  18184 83398 32596 60906 10284 20226 30101 40106 84520 333 59008;
0213833980999992006041900004-15667-038950FM-12+000599999V0209999C000010075019N0010001N1+02381+02331101381ADDAA106002091AY161061AY221061GF105991051051008001001001KA1240M+02951MA1999999101331MD1999999+0111MW1021REMSYN100AAXX  19004 83398 21594 50000 10238 20233 30133 40138 70262 85500 333 10295 29086 55051 58011 60021;
0173833980999992006041912004-15667-038950FM-12+000599999V0201801N004110075019N0040001N1+02441+02271101661ADDAA124002091GF108991051051008001021999KA1240N+02201MA1999999101601MD1999999+0301REMSYN082AAXX  19124 83398 22596 81808 10244 20227 30160 40166 8552/ 333 20220 58030 60024;
0137833980999992006041918004-15667-038950FM-12+000599999V0202301N002110450019N0040001N1+02781+02251101381ADDGF106991041051008001021001MA1999999101331MD1999999+0321REMSYN070AAXX  19184 83398 32596 62304 10278 20225 30133 40138 84520 333 58032;
0213833980999992006042000004-15667-038950FM-12+000599999V0201801N003110450019N0010001N1+02281+02261101561ADDAA106001091AY161061AY221061GF108991041071008001021999KA1240M+02801MA1999999101511MD1999999+0181MW1601REMSYN100AAXX  20004 83398 21594 81806 10228 20226 30151 40156 76062 8472/ 333 10280 29090 55045 58018 60011;
0201833980999992006042012004-15667-038950FM-12+000599999V0201801N003110450019N0040001N1+02281+02231101671ADDAA124011991AY161061AY221061GF108991041071008001021999KA1240N+02161MA1999999101611MD1999999+0011MW1521REMSYN088AAXX  20124 83398 21596 81806 10228 20223 30161 40167 75262 8472/ 333 20216 58001 60124;
0232833980999992006042100004-15667-038950FM-12+000599999V0201801N003110075019N0010001N1+02281+02261101661ADDAA106000091AY151061AY221061GF108991051051008001021999KA1240M+02541MA1999999101601MD1999999+0091MW1021REMSYN100AAXX  21004 83398 21594 81806 10228 20226 30160 40166 70252 8552/ 333 10254 29095 55000 58009 69921;EQDQ01  00002PRCP06
0201833980999992006042112004-15667-038950FM-12+000599999V0201801N004110075019N0040001N1+02401+02191101641ADDAA124002091AY151061AY221061GF108991051051008001021999KA1240N+02121MA1999999101581MD1999999-0031MW1021REMSYN088AAXX  21124 83398 21596 81808 10240 20219 30158 40164 70252 8552/ 333 20212 59003 60024;
0137833980999992006042118004-15667-038950FM-12+000599999V0201801N003110075019N0040001N1+02661+02181101371ADDGF108991051051008001021999MA1999999101321MD1999999-0041REMSYN070AAXX  21184 83398 32596 81806 10266 20218 30132 40137 8552/ 333 59004;
0168833980999992006042200004-15667-038950FM-12+000599999V0201801N002110075019N0040001N1+02401+02191101581ADDGF108991051051008001021999KA1240M+02761MA1999999101531MD1999999-0071REMSYN088AAXX  22004 83398 32596 81804 10240 20219 30153 40158 8552/ 333 10276 29085 55015 59007;
0156833980999992006042212004-15667-038950FM-12+000599999V0201401N002110450019N0040001N1+02701+02391101581ADDGF106991041051008001021001KA1240N+02201MA1999999101531MD1999999-0051REMSYN076AAXX  22124 83398 32596 61404 10270 20239 30153 40158 84520 333 20220 59005;
0182833980999992006042218004-15667-038950FM-12+000599999V0200901N003110075019N0040001N1+02641+02541101281ADDAA106000591AY151061AY221061GF107991051051008001021999MA1999999101231MD1999999-0091MW1021REMSYN082AAXX  22184 83398 21596 70906 10264 20254 30123 40128 70252 8552/ 333 59009 69941;
0168833980999992006042300004-15667-038950FM-12+000599999V0209999C000010075019N0010001N1+02441+02391101481ADDGF105991051051008001001001KA1240M+02881MA1999999101431MD1999999-0101REMSYN088AAXX  23004 83398 32594 50000 10244 20239 30143 40148 85500 333 10288 29093 55042 59010;
0201833980999992006042312004-15667-038950FM-12+000599999V0209999C000010450019N0040001N1+02721+02471101541ADDAA124008991AY161061AY221061GF106991041051008001021001KA1240N+02241MA1999999101491MD1999999-0041MW1021REMSYN088AAXX  23124 83398 21596 60000 10272 20247 30149 40154 70262 84520 333 20224 59004 60094;
0137833980999992006042318004-15667-038950FM-12+000599999V0200501N003110450019N0040001N1+02821+02271101241ADDGF106991041051008001021001MA1999999101191MD1999999-0041REMSYN070AAXX  23184 83398 32596 60506 10282 20227 30119 40124 84520 333 59004;
0168833980999992006042400004-15667-038950FM-12+000599999V0209999C000012200019N0010001N1+02461+02431101501ADDGF104991041051008001001001KA1240M+02961MA1999999101451MD1999999+0021REMSYN088AAXX  24004 83398 32594 40000 10246 20243 30145 40150 84500 333 10296 29091 55070 58002;
0201833980999992006042412004-15667-038950FM-12+000599999V0201801N001010450019N0040001N1+02591+02431101551ADDAA124000391AY151061AY221061GF107991041051008001021001KA1240N+02301MA1999999101501MD1999999+0071MW1021REMSYN088AAXX  24124 83398 21596 71802 10259 20243 30150 40155 70252 84520 333 20230 58007 69934;
0201833980999992006042418004-15667-038950FM-12+000599999V0200901N002110450019N0040001N1+02861+02461101241ADDAA106000091AY151061AY221061GF105991031051008001041001MA1999999101191MD1999999+0001MW1021REMSYN082AAXX  24184 83398 21596 50904 10286 20246 30119 40124 70252 83540 333 58000 69911;EQDQ01  00002PRCP06
0213833980999992006042500004-15667-038950FM-12+000599999V0209999C000010450019N0010001N1+02461+02411101521ADDAA106006191AY161061AY221061GF105991031051008001041001KA1240M+03021MA1999999101471MD1999999+0021MW1021REMSYN100AAXX  25004 83398 21594 50000 10246 20241 30147 40152 70262 83540 333 10302 29091 55064 58002 60061;
0137833980999992006042518004-15667-038950FM-12+000599999V0201401N001010075019N0040001N1+02551+02301101321ADDGF108991051051008001021999MA1999999101271MD1999999+0081REMSYN070AAXX  25184 83398 32596 81402 10255 20230 30127 40132 8552/ 333 58008;
0232833980999992006042600004-15667-038950FM-12+000599999V0201801N002112200019N0010001N1+02281+02261101541ADDAA106000091AY151061AY221061GF103991021021008001041001KA1240M+02981MA1999999101491MD1999999+0021MW1021REMSYN100AAXX  26004 83398 21594 31804 10228 20226 30149 40154 70252 82240 333 10298 29094 55027 58002 69911;EQDQ01  00002PRCP06
0192833980999992006042612004-15667-038950FM-12+000599999V0201801N002112200019N0040001N1+02621+02351101551ADDAA124000091GF103991021021008001041001KA1240N+02181MA1999999101501MD1999999+0121REMSYN082AAXX  26124 83398 22596 31804 10262 20235 30150 40155 82240 333 20218 58012 69914;EQDQ01  00002PRCP24
0137833980999992006042618004-15667-038950FM-12+000599999V0201401N002110450019N0040001N1+02811+02301101241ADDGF106991041051008001041001MA1999999101191MD1999999-0081REMSYN070AAXX  26184 83398 32596 61404 10281 20230 30119 40124 84540 333 59008;
0168833980999992006042700004-15667-038950FM-12+000599999V0209999C000012200019N0010001N1+02321+02241101401ADDGF102991011011008001041001KA1240M+02961MA1999999101351MD1999999-0141REMSYN088AAXX  27004 83398 32594 20000 10232 20224 30135 40140 81140 333 10296 29087 55079 59014;
0156833980999992006042712004-15667-038950FM-12+000599999V0202701N001012200019N0040001N1+02591+02361101421ADDGF104991021021008001041001KA1240N+02061MA1999999101371MD1999999-0131REMSYN076AAXX  27124 83398 32596 42702 10259 20236 30137 40142 82240 333 20206 59013;
0137833980999992006042718004-15667-038950FM-12+000599999V0201401N002110450019N0040001N1+02881+02351101121ADDGF105991031021008001041001MA1999999101071MD1999999-0121REMSYN070AAXX  27184 83398 32596 51404 10288 20235 30107 40112 83240 333 59012;
0168833980999992006042800004-15667-038950FM-12+000599999V0209999C000012200019N0010001N1+02411+02391101371ADDGF102991011021008001041001KA1240M+02971MA1999999101321MD1999999-0031REMSYN088AAXX  28004 83398 32594 20000 10241 20239 30132 40137 81240 333 10297 29090 55079 59003;
0156833980999992006042812004-15667-038950FM-12+000599999V0201801N002110450019N0040001N1+02601+02331101471ADDGF107991041051008001021001KA1240N+02241MA1999999101421MD1999999+0051REMSYN076AAXX  28124 83398 32596 71804 10260 20233 30142 40147 84520 333 20224 58005;
0137833980999992006042818004-15667-038950FM-12+000599999V0200901N002112200019N0040001N1+02871+02241101141ADDGF103991021021008001041001MA1999999101091MD1999999+0021REMSYN070AAXX  28184 83398 32596 30904 10287 20224 30109 40114 82240 333 58002;
0168833980999992006042900004-15667-038950FM-12+000599999V0209999C000012200019N0010001N1+02351+02271101451ADDGF103991021021008001041001KA1240M+03011MA1999999101401MD1999999+0081REMSYN088AAXX  29004 83398 32594 30000 10235 20227 30140 40145 82240 333 10301 29086 55077 58008;
0156833980999992006042912004-15667-038950FM-12+000599999V0201801N004110075019N0040001N1+02451+02291101591ADDGF108991051051008001021999KA1240N+02131MA1999999101541MD1999999+0121REMSYN076AAXX  29124 83398 32596 81808 10245 20229 30154 40159 8552/ 333 20213 58012;
0201833980999992006042918004-15667-038950FM-12+000599999V0201801N001010075019N0040001N1+02521+02231101281ADDAA106000091AY151061AY221061GF108991051051008001021999MA1999999101231MD1999999+0141MW1021REMSYN082AAXX  29184 83398 21596 81802 10252 20223 30123 40128 70252 8552/ 333 58014 69921;EQDQ01  00002PRCP06
0168833980999992006043000004-15667-038950FM-12+000599999V0209999C000010450019N0010001N1+02341+02241101501ADDGF106991041051008001021001KA1240M+02591MA1999999101451MD1999999+0051REMSYN088AAXX  30004 83398 32594 60000 10234 20224 30145 40150 84520 333 10259 29091 55013 58005;
0201833980999992006043012004-15667-038950FM-12+000599999V0201801N001010075019N0040001N1+02431+02241101551ADDAA124002091AY161061AY221061GF108991051051008001021999KA1240N+02241MA1999999101501MD1999999-0041MW1021REMSYN088AAXX  30124 83398 21596 81802 10243 20224 30150 40155 70262 8552/ 333 20224 59004 60024;
0182833980999992006043018004-15667-038950FM-12+000599999V0209999C000010075019N0040001N1+02711+02271101321ADDAA106005191AY161061AY221061GF108991051051008001021999MA1999999101271MD1999999+0041MW1021REMSYN082AAXX  30184 83398 21596 80000 10271 20227 30127 40132 70262 8552/ 333 58004 60051;
0168833980999992006050100004-15667-038950FM-12+000599999V0209999C000012200019N0010001N1+02271+02221101511ADDGF103991021021008001041001KA1240M+02801MA1999999101461MD1999999+0011REMSYN088AAXX  01004 83398 32594 30000 10227 20222 30146 40151 82240 333 10280 29090 55017 58001;
0173833980999992006050112004-15667-038950FM-12+000599999V0202301N002110450019N0040001N1+02541+02251101731ADDAA124005191GF106991041051008001041001KA1240N+02001MA1999999101671MD1999999+0161REMSYN082AAXX  01124 83398 22596 62304 10254 20225 30167 40173 84540 333 20200 58016 60054;
0137833980999992006050118004-15667-038950FM-12+000599999V0200901N003110075019N0040001N1+02721+02261101421ADDGF108991051051008001021999MA1999999101371MD1999999+0101REMSYN070AAXX  01184 83398 32596 80906 10272 20226 30137 40142 8552/ 333 58010;
0168833980999992006050200004-15667-038950FM-12+000599999V0200901N002110075019N0010001N1+02461+02371101661ADDGF108991051051008001021999KA1240M+02901MA1999999101601MD1999999+0141REMSYN088AAXX  02004 83398 32594 80904 10246 20237 30160 40166 8552/ 333 10290 29088 55041 58014;
0156833980999992006050212004-15667-038950FM-12+000599999V0202301N001010450019N0040001N1+02741+02451101711ADDGF106991041051008001021001KA1240N+02341MA1999999101651MD1999999+0081REMSYN076AAXX  02124 83398 32596 62302 10274 20245 30165 40171 84520 333 20234 58008;
0137833980999992006050218004-15667-038950FM-12+000599999V0200901N003110450019N0040001N1+02841+02401101371ADDGF105991031051008001041001MA1999999101321MD1999999-0051REMSYN070AAXX  02184 83398 32596 50906 10284 20240 30132 40137 83540 333 59005;
0168833980999992006050300004-15667-038950FM-12+000599999V0200901N002112200019N0010001N1+02701+02411101591ADDGF104991041051008001001001KA1240M+03021MA1999999101541MD1999999-0061REMSYN088AAXX  03004 83398 32594 40904 10270 20241 30154 40159 84500 333 10302 29082 55080 59006;
0156833980999992006050312004-15667-038950FM-12+000599999V0209999C000010450019N0040001N1+02801+02521101531ADDGF106991041051008001021001KA1240N+02341MA1999999101481MD1999999-0171REMSYN076AAXX  03124 83398 32596 60000 10280 20252 30148 40153 84520 333 20234 59017;
0137833980999992006050318004-15667-038950FM-12+000599999V0200501N003110450019N0040001N1+02941+02331101151ADDGF105991021051008001041001MA1999999101101MD1999999-0221REMSYN070AAXX  03184 83398 32596 50506 10294 20233 30110 40115 82540 333 59022;
0168833980999992006050400004-15667-038950FM-12+000599999V0209999C000010450019N0010001N1+02601+02421101391ADDGF106991041051008001021001KA1240M+03081MA1999999101341MD1999999-0201REMSYN088AAXX  04004 83398 32594 60000 10260 20242 30134 40139 84520 333 10308 29084 55070 59020;
0220833980999992006050412004-15667-038950FM-12+000599999V0209999C000010450019N0040001N1+02821+02561101371ADDAA124000091AY151061AY221061GF106991041051008001021001KA1240N+02301MA1999999101321MD1999999-0161MW1021REMSYN088AAXX  04124 83398 21596 60000 10282 20256 30132 40137 70252 84520 333 20230 59016 69914;EQDQ01  00002PRCP24
0137833980999992006050418004-15667-038950FM-12+000599999V0203601N003110450019N0040001N1+02881+02601101101ADDGF106991041051008001021001MA1999999101051MD1999999-0051REMSYN070AAXX  04184 83398 32596 63606 10288 20260 30105 40110 84520 333 59005;
0168833980999992006050500004-15667-038950FM-12+000599999V0200501N002112200019N0010001N1+02661+02481101331ADDGF103991031011008001001001KA1240M+03041MA1999999101271MD1999999-0071REMSYN088AAXX  05004 83398 32594 30504 10266 20248 30127 40133 83100 333 10304 29088 55074 59007;
0156833980999992006050512004-15667-038950FM-12+000599999V0202301N001010450019N0040001N1+02761+02481101481ADDGF106991041051008001021001KA1240N+02241MA1999999101431MD1999999+0111REMSYN076AAXX  05124 83398 32596 62302 10276 20248 30143 40148 84520 333 20224 58011;
0201833980999992006050518004-15667-038950FM-12+000599999V0203601N003110075019N0040001N1+02801+02421101151ADDAA106000091AY151061AY221061GF107991051051008001021001MA1999999101101MD1999999+0051MW1021REMSYN082AAXX  05184 83398 21596 73606 10280 20242 30110 40115 70252 85520 333 58005 69921;EQDQ01  00002PRCP06
0213833980999992006050600004-15667-038950FM-12+000599999V0209999C000010075019N0010001N1+02461+02431101461ADDAA106063091AY191061AY261061GF108991051051008001021999KA1240M+03121MA1999999101411MD1999999+0141MW1021REMSYN100AAXX  06004 83398 21594 80000 10246 20243 30141 40146 70296 8552/ 333 10312 29091 55062 58014 60631;
0201833980999992006050612004-15667-038950FM-12+000599999V0209999C000010450019N0040001N1+02321+02251101681ADDAA124074991AY191061AY261061GF108991041071008001021999KA1240N+02241MA1999999101631MD1999999+0201MW1501REMSYN088AAXX  06124 83398 21596 80000 10232 20225 30163 40168 75096 8472/ 333 20224 58020 60754;
0137833980999992006050618004-15667-038950FM-12+000599999V0201401N003110075019N0040001N1+02641+02141101391ADDGF107991051051008001021001MA1999999101341MD1999999+0241REMSYN070AAXX  06184 83398 32596 71406 10264 20214 30134 40139 85520 333 58024;
0168833980999992006050700004-15667-038950FM-12+000599999V0209999C000010075019N0010001N1+02301+02271101581ADDGF107991051051008001021001KA1240M+02841MA1999999101531MD1999999+0121REMSYN088AAXX  07004 83398 32594 70000 10230 20227 30153 40158 85520 333 10284 29092 55018 58012;
0156833980999992006050712004-15667-038950FM-12+000599999V0201801N003110450019N0040001N1+02501+02151101731ADDGF107991031051008001041011KA1240N+02021MA1999999101671MD1999999+0041REMSYN076AAXX  07124 83398 32596 71806 10250 20215 30167 40173 83541 333 20202 58004;
0137833980999992006050718004-15667-038950FM-12+000599999V0201401N004110075019N0040001N1+02701+02151101391ADDGF107991051051008001021001MA1999999101341MD1999999+0001REMSYN070AAXX  07184 83398 32596 71408 10270 20215 30134 40139 85520 333 58000;
0168833980999992006050800004-15667-038950FM-12+000599999V0209999C000010450019N0010001N1+02201+02101101651ADDGF105991031051008001041001KA1240M+02821MA1999999101591MD1999999+0061REMSYN088AAXX  08004 83398 32594 50000 10220 20210 30159 40165 83540 333 10282 29085 55070 58006;
0156833980999992006050812004-15667-038950FM-12+000599999V0201801N002112200019N0040001N1+02421+02051101651ADDGF103991021011008001041001KA1240N+01901MA1999999101591MD1999999-0081REMSYN076AAXX  08124 83398 32596 31804 10242 20205 30159 40165 82140 333 20190 59008;
0137833980999992006050818004-15667-038950FM-12+000599999V0201801N003110450019N0040001N1+02601+02191101271ADDGF105991031051008001041001MA1999999101221MD1999999-0121REMSYN070AAXX  08184 83398 32596 51806 10260 20219 30122 40127 83540 333 59012;
0168833980999992006050900004-15667-038950FM-12+000599999V0201801N003110075019N0010001N1+02241+02171101561ADDGF108991051051008001021999KA1240M+02851MA1999999101511MD1999999-0081REMSYN088AAXX  09004 83398 32594 81806 10224 20217 30151 40156 8552/ 333 10285 29088 55068 59008;
0201833980999992006050912004-15667-038950FM-12+000599999V0202301N001010450019N0040001N1+02471+02261101641ADDAA124006191AY161061AY221061GF106991041051008001021001KA1240N+02131MA1999999101581MD1999999-0011MW1021REMSYN088AAXX  09124 83398 21596 62302 10247 20226 30158 40164 70262 84520 333 20213 59001 60064;
0182833980999992006050918004-15667-038950FM-12+000599999V0209999C000010450019N0040001N1+02621+02181101341ADDAA106017091AY161061AY221061GF105991031051008001021001MA1999999101121MD1999999+0071MW1021REMSYN082AAXX  09184 83398 21596 50000 10262 20218 30112 40134 70262 83520 333 58007 60171;
0168833980999992006051000004-15667-038950FM-12+000599999V0209999C000010450019N0010001N1+02341+02181101631ADDGF107991041051008001021001KA1240M+02771MA1999999101571MD1999999+0061REMSYN088AAXX  10004 83398 32594 70000 10234 20218 30157 40163 84520 333 10277 29087 55036 58006;
0201833980999992006051012004-15667-038950FM-12+000599999V0201801N000512200019N0040001N1+02561+02231101661ADDAA124018091AY161061AY221061GF103991021011008001041001KA1240N+02181MA1999999101601MD1999999+0021MW1021REMSYN088AAXX  10124 83398 21596 31801 10256 20223 30160 40166 70262 82140 333 20218 58002 60184;
0137833980999992006051018004-15667-038950FM-12+000599999V0200901N002112200019N0040001N1+02761+02161101371ADDGF103991021021008001041001MA1999999101321MD1999999+0031REMSYN070AAXX  10184 83398 32596 30904 10276 20216 30132 40137 82240 333 58003;
0168833980999992006051100004-15667-038950FM-12+000599999V0209999C000012200019N0010001N1+02201+02101101531ADDGF102991011011008001041001KA1240M+02891MA1999999101481MD1999999-0091REMSYN088AAXX  11004 83398 32594 20000 10220 20210 30148 40153 81140 333 10289 29085 55084 59009;
0156833980999992006051112004-15667-038950FM-12+000599999V0209999C000012200019N0040001N1+02541+02251101511ADDGF102991011011008001041001KA1240N+01951MA1999999101461MD1999999+0141REMSYN076AAXX  11124 83398 32596 20000 10254 20225 30146 40151 81140 333 20195 58014;
0137833980999992006051118004-15667-038950FM-12+000599999V0200501N002112200019N0040001N1+02701+02131101081ADDGF103991021011008001041001MA1999999101031MD1999999-0291REMSYN070AAXX  11184 83398 32596 30504 10270 20213 30103 40108 82140 333 59029;
0168833980999992006051200004-15667-038950FM-12+000599999V0209999C000012200019N0010001N1+02321+02201101261ADDGF104991021011008001041001KA1240M+02851MA1999999101211MD1999999-0271REMSYN088AAXX  12004 83398 32594 40000 10232 20220 30121 40126 82140 333 10285 29085 55084 59027;
0137833980999992006051218004-15667-038950FM-12+000599999V0203601N003110075019N0040001N1+02761+02381101151ADDGF108991051051008001021999MA1999999101101MD1999999+0071REMSYN070AAXX  12184 83398 32596 83606 10276 20238 30110 40115 8552/ 333 58007;
0213833980999992006051300004-15667-038950FM-12+000599999V0201401N001010075019N0010001N1+02361+02331101501ADDAA106036191AY161061AY221061GF108991051051008001021999KA1240M+02971MA1999999101451MD1999999+0241MW1021REMSYN100AAXX  13004 83398 21594 81402 10236 20233 30145 40150 70262 8552/ 333 10297 29090 55052 58024 60361;
0207833980999992006051312004-15667-038950FM-12+000599999V0201401N001010075019N0040001N1+02291+02191101861ADDAA124048091AY161061AY221061GF108991051051008001021999KA1240N+02241MA1999999101811MD1999999+0471MW1021REMSYN094AAXX  13124 83398 21596 81402 10229 20219 30181 40186 70262 8552/ 333 20224 58047 60484 10478;
0182833980999992006051318004-15667-038950FM-12+000599999V0209999C000010075019N0040001N1+02411+02271101681ADDAA106001091AY161061AY221061GF108991051051008001021011MA1999999101621MD1999999+0921MW1021REMSYN082AAXX  13184 83398 21596 80000 10241 20227 30162 40168 70262 85521 333 58092 60011;
0168833980999992006051400004-15667-038950FM-12+000599999V0209999C000010075019N0010001N1+02321+02251101891ADDGF108991051051008001021999KA1240M+02991MA1999999101831MD1999999+0381REMSYN088AAXX  14004 83398 32594 80000 10232 20225 30183 40189 8552/ 333 10299 29095 55000 58038;
0201833980999992006051412004-15667-038950FM-12+000599999V0209999C000010075019N0040001N1+02241+02161102081ADDAA124002091AY151061AY221061GF108991051051008001021999KA1240N+02201MA1999999102021MD1999999+0211MW1021REMSYN088AAXX  14124 83398 21596 80000 10224 20216 30202 40208 70252 8552/ 333 20220 58021 60024;
0201833980999992006051418004-15667-038950FM-12+000599999V0209999C000010075019N0040001N1+02581+02081101801ADDAA106000091AY151061AY221061GF108991051051008001021999MA1999999101741MD1999999+0121MW1021REMSYN082AAXX  14184 83398 21596 80000 10258 20208 30174 40180 70252 8552/ 333 58012 69911;EQDQ01  00002PRCP06
0213833980999992006051500004-15667-038950FM-12+000599999V0201801N002110075019N0010001N1+02241+02141101981ADDAA106002091AY161061AY221061GF108991051051008001021999KA1240M+02681MA1999999101921MD1999999+0091MW1021REMSYN100AAXX  15004 83398 21594 81804 10224 20214 30192 40198 70262 8552/ 333 10268 29089 55000 58009 60021;
0173833980999992006051512004-15667-038950FM-12+000599999V0201801N003110075019N0040001N1+02301+02111102151ADDAA124002091GF108991051051008001021999KA1240N+02101MA1999999102091MD1999999+0071REMSYN082AAXX  15124 83398 22596 81806 10230 20211 30209 40215 8552/ 333 20210 58007 60024;
0182833980999992006051518004-15667-038950FM-12+000599999V0201401N002110450019N0040001N1+02521+02111101841ADDAA106000391AY151061AY221061GF107991041051008001021001MA1999999101781MD1999999+0041MW1021REMSYN082AAXX  15184 83398 21596 71404 10252 20211 30178 40184 70252 84520 333 58004 69931;
0168833980999992006051600004-15667-038950FM-12+000599999V0209999C000010450019N0010001N1+02201+02101101931ADDGF107991041051008001021001KA1240M+02521MA1999999101871MD1999999-0051REMSYN088AAXX  16004 83398 32594 70000 10220 20210 30187 40193 84520 333 10252 29089 55002 59005;
0173833980999992006051612004-15667-038950FM-12+000599999V0201801N003110450019N0040001N1+02321+02021101981ADDAA124000391GF106991041051008001021001KA1240N+02001MA1999999101921MD1999999-0171REMSYN082AAXX  16124 83398 22596 61806 10232 20202 30192 40198 84520 333 20200 59017 69934;
0137833980999992006051618004-15667-038950FM-12+000599999V0201401N004110450019N0040001N1+02661+02291101731ADDGF106991031051008001041001MA1999999101671MD1999999-0111REMSYN070AAXX  16184 83398 32596 61408 10266 20229 30167 40173 83540 333 59011;
0168833980999992006051700004-15667-038950FM-12+000599999V0209999C000010450019N0010001N1+02121+02021101961ADDGF106991041051008001021001KA1240M+02781MA1999999101901MD1999999+0031REMSYN088AAXX  17004 83398 32594 60000 10212 20202 30190 40196 84520 333 10278 29083 55062 58003;
0156833980999992006051712004-15667-038950FM-12+000599999V0201801N003110450019N0040001N1+02301+01901102081ADDGF106991031051008001041001KA1240N+01801MA1999999102021MD1999999+0101REMSYN076AAXX  17124 83398 32596 61806 10230 20190 30202 40208 83540 333 20180 58010;
0137833980999992006051718004-15667-038950FM-12+000599999V0201401N003110450019N0040001N1+02601+01681101851ADDGF105991031021008001041001MA1999999101791MD1999999+0121REMSYN070AAXX  17184 83398 32596 51406 10260 20168 30179 40185 83240 333 58012;
0220833980999992006051812004-15667-038950FM-12+000599999V0201801N005110075019N0040001N1+02241+01801102171ADDAA124000091AY151061AY221061GF107991051051008001021001KA1240N+01801MA1999999102111MD1999999+0091MW1021REMSYN088AAXX  18124 83398 21596 71810 10224 20180 30211 40217 70252 85520 333 20180 58009 69914;EQDQ01  00002PRCP24
0137833980999992006051818004-15667-038950FM-12+000599999V0201801N005110450019N0040001N1+02601+01761101881ADDGF106991041051008001041001MA1999999101821MD1999999+0031REMSYN070AAXX  18184 83398 32596 61810 10260 20176 30182 40188 84540 333 58003;
0168833980999992006051900004-15667-038950FM-12+000599999V0209999C000012200019N0010001N1+01901+01801102051ADDGF104991041051008001001001KA1240M+02691MA1999999101991MD1999999-0021REMSYN088AAXX  19004 83398 32594 40000 10190 20180 30199 40205 84500 333 10269 29081 55063 59002;
0156833980999992006051912004-15667-038950FM-12+000599999V0202301N001010450019N0040001N1+02321+01761102021ADDGF105991031021008001041001KA1240N+01641MA1999999101961MD1999999-0151REMSYN076AAXX  19124 83398 32596 52302 10232 20176 30196 40202 83240 333 20164 59015;
0137833980999992006051918004-15667-038950FM-12+000599999V0200501N003110450019N0040001N1+02601+01571101621ADDGF105991041021008001041001MA1999999101561MD1999999-0261REMSYN070AAXX  19184 83398 32596 50506 10260 20157 30156 40162 84240 333 59026;
0156833980999992006052012004-15667-038950FM-12+000599999V0202301N001012200019N0040001N1+02301+01941101771ADDGF104991031001008001041011KA1240N+01621MA1999999101711MD1999999-0251REMSYN076AAXX  20124 83398 32596 42302 10230 20194 30171 40177 83041 333 20162 59025;
0137833980999992006052018004-15667-038950FM-12+000599999V0200501N003110450019N0040001N1+02601+02101101381ADDGF106991031051008001041011MA1999999101331MD1999999-0231REMSYN070AAXX  20184 83398 32596 60506 10260 20210 30133 40138 83541 333 59023;
0168833980999992006052100004-15667-038950FM-12+000599999V0200901N002112200019N0010001N1+01921+01851101621ADDGF104991041051008001001001KA1240M+02781MA1999999101561MD1999999-0211REMSYN088AAXX  21004 83398 32594 40904 10192 20185 30156 40162 84500 333 10278 29087 55082 59021;
0156833980999992006052112004-15667-038950FM-12+000599999V0202301N002110450019N0040001N1+02321+01911101731ADDGF105991021021008001041001KA1240N+01641MA1999999101671MD1999999-0041REMSYN076AAXX  21124 83398 32596 52304 10232 20191 30167 40173 82240 333 20164 59004;
0137833980999992006052118004-15667-038950FM-12+000599999V0200501N003110450019N0040001N1+02621+01771101381ADDGF107991031051008001041011MA1999999101331MD1999999+0001REMSYN070AAXX  21184 83398 32596 70506 10262 20177 30133 40138 83541 333 58000;
0168833980999992006052200004-15667-038950FM-12+000599999V0200501N002112200019N0010001N1+02001+01901101641ADDGF103991031011008001001001KA1240M+02761MA1999999101581MD1999999+0021REMSYN088AAXX  22004 83398 32594 30504 10200 20190 30158 40164 83100 333 10276 29082 55064 58002;
0156833980999992006052212004-15667-038950FM-12+000599999V0209999C000012200019N0040001N1+02371+02001101871ADDGF101991011011008001001001KA1240N+01621MA1999999101811MD1999999+0141REMSYN076AAXX  22124 83398 32596 10000 10237 20200 30181 40187 81100 333 20162 58014;
0137833980999992006052218004-15667-038950FM-12+000599999V0200901N002112200019N0040001N1+02661+01951101671ADDGF102991011011008001041001MA1999999101611MD1999999+0281REMSYN070AAXX  22184 83398 32596 20904 10266 20195 30161 40167 81140 333 58028;
0168833980999992006052300004-15667-038950FM-12+000599999V0209999C000012200019N0010001N1+01981+01911101881ADDGF102991011011008001041001KA1240M+02791MA1999999101821MD1999999+0241REMSYN088AAXX  23004 83398 32594 20000 10198 20191 30182 40188 81140 333 10279 29084 55082 58024;
0156833980999992006052312004-15667-038950FM-12+000599999V0202301N001012200019N0040001N1+02361+02051101941ADDGF102991011011008001041001KA1240N+01701MA1999999101881MD1999999+0071REMSYN076AAXX  23124 83398 32596 22302 10236 20205 30188 40194 81140 333 20170 58007;
0137833980999992006052318004-15667-038950FM-12+000599999V0200901N002112200019N0040001N1+02701+01991101621ADDGF104991021021008001041001MA1999999101561MD1999999-0051REMSYN070AAXX  23184 83398 32596 40904 10270 20199 30156 40162 82240 333 59005;
0168833980999992006052400004-15667-038950FM-12+000599999V0209999C000010450019N0010001N1+02201+02131101951ADDGF105991031021008001041001KA1240M+02821MA1999999101891MD1999999+0071REMSYN088AAXX  24004 83398 32594 50000 10220 20213 30189 40195 83240 333 10282 29085 55081 58007;
0182833980999992006052418004-15667-038950FM-12+000599999V0201801N001010075019N0040001N1+02301+02181101701ADDAA106002091AY161061AY221061GF108991051051008001021999MA1999999101641MD1999999+0081MW1021REMSYN082AAXX  24184 83398 21596 81802 10230 20218 30164 40170 70262 8552/ 333 58008 60021;
0168833980999992006052500004-15667-038950FM-12+000599999V0201801N002110075019N0010001N1+02341+02171101861ADDGF108991051051008001021999KA1240M+02581MA1999999101801MD1999999-0091REMSYN088AAXX  25004 83398 32594 81804 10234 20217 30180 40186 8552/ 333 10258 29091 55001 59009;
0137833980999992006052518004-15667-038950FM-12+000599999V0201801N005110075019N0040001N1+02441+02071101661ADDGF108991051051008001021999MA1999999101601MD1999999-0041REMSYN070AAXX  25184 83398 32596 81810 10244 20207 30160 40166 8552/ 333 59004;
0213833980999992006052600004-15667-038950FM-12+000599999V0201801N003110075019N0010001N1+02141+02071101841ADDAA106000891AY151061AY221061GF108991051051008001021999KA1240M+02521MA1999999101781MD1999999+0021MW1021REMSYN100AAXX  26004 83398 21594 81806 10214 20207 30178 40184 70252 8552/ 333 10252 29088 55010 58002 69981;
0201833980999992006052612004-15667-038950FM-12+000599999V0201801N002110450019N0040001N1+02301+02111101881ADDAA124004191AY161061AY221061GF107991041051008001021001KA1240N+02041MA1999999101821MD1999999-0111MW1021REMSYN088AAXX  26124 83398 21596 71804 10230 20211 30182 40188 70262 84520 333 20204 59011 60044;
0137833980999992006052618004-15667-038950FM-12+000599999V0201401N002110450019N0040001N1+02671+01981101671ADDGF105991031021008001041001MA1999999101611MD1999999+0011REMSYN070AAXX  26184 83398 32596 51404 10267 20198 30161 40167 83240 333 58001;
0168833980999992006052700004-15667-038950FM-12+000599999V0201801N002112200019N0010001N1+02141+02021101891ADDGF104991021021008001041001KA1240M+02751MA1999999101831MD1999999+0051REMSYN088AAXX  27004 83398 32594 41804 10214 20202 30183 40189 82240 333 10275 29085 55047 58005;
0201833980999992006052712004-15667-038950FM-12+000599999V0201801N003110075019N0040001N1+02241+02141101901ADDAA124002091AY161061AY221061GF108991051051008001021999KA1240N+02001MA1999999101841MD1999999+0021MW1021REMSYN088AAXX  27124 83398 21596 81806 10224 20214 30184 40190 70262 8552/ 333 20200 58002 60024;
0201833980999992006052718004-15667-038950FM-12+000599999V0200901N002110450019N0040001N1+02561+02061101731ADDAA106000091AY151061AY221061GF107991041051008001021001MA1999999101671MD1999999+0061MW1021REMSYN082AAXX  27184 83398 21596 70904 10256 20206 30167 40173 70252 84520 333 58006 69921;EQDQ01  00002PRCP06
0168833980999992006052800004-15667-038950FM-12+000599999V0209999C000012200019N0010001N1+02111+02031101871ADDGF104991021021008001041001KA1240M+02721MA1999999101811MD1999999-0021REMSYN088AAXX  28004 83398 32594 40000 10211 20203 30181 40187 82240 333 10272 29090 55031 59002;
0192833980999992006052812004-15667-038950FM-12+000599999V0209999C000010075019N0040001N1+02341+02131101891ADDAA124000091GF108991051051008001021999KA1240N+01901MA1999999101831MD1999999-0011REMSYN082AAXX  28124 83398 22596 80000 10234 20213 30183 40189 8552/ 333 20190 59001 69924;EQDQ01  00002PRCP24
0137833980999992006052818004-15667-038950FM-12+000599999V0200901N001012200019N0040001N1+02641+01931101551ADDGF103991021011008001041001MA1999999101501MD1999999-0171REMSYN070AAXX  28184 83398 32596 30902 10264 20193 30150 40155 82140 333 59017;
0168833980999992006052900004-15667-038950FM-12+000599999V0209999C000012200019N0010001N1+01981+01911101731ADDGF102991011011008001041001KA1240M+02751MA1999999101671MD1999999-0141REMSYN088AAXX  29004 83398 32594 20000 10198 20191 30167 40173 81140 333 10275 29086 55032 59014;
0156833980999992006052912004-15667-038950FM-12+000599999V0209999C000010450019N0040001N1+02401+02131101901ADDGF105991031021008001041001KA1240N+01701MA1999999101841MD1999999+0011REMSYN076AAXX  29124 83398 32596 50000 10240 20213 30184 40190 83240 333 20170 58001;
0137833980999992006052918004-15667-038950FM-12+000599999V0201401N003110450019N0040001N1+02761+01991101671ADDGF105991031031008001041001MA1999999101611MD1999999+0111REMSYN070AAXX  29184 83398 32596 51406 10276 20199 30161 40167 83340 333 58011;
0187833980999992006053000004-15667-038950FM-12+000599999V0209999C000019999999N0010001N1+02081+02011101931ADDGF105991999011008001001001KA1240M+02861MA1999999101871MD1999999+0201REMSYN088AAXX  30004 83398 32594 50000 10208 20201 30187 40193 84100 333 10286 29085 55079 58020;EQDQ01+000042SCOTLC
0156833980999992006053012004-15667-038950FM-12+000599999V0202301N001010075019N0040001N1+02301+02141102011ADDGF106991051051008001021001KA1240N+01741MA1999999101951MD1999999+0111REMSYN076AAXX  30124 83398 32596 62302 10230 20214 30195 40201 85520 333 20174 58011;
0137833980999992006053018004-15667-038950FM-12+000599999V0200901N003110450019N0040001N1+02701+01991101691ADDGF105991031021008001041001MA1999999101631MD1999999+0021REMSYN070AAXX  30184 83398 32596 50906 10270 20199 30163 40169 83240 333 58002;
0168833980999992006053100004-15667-038950FM-12+000599999V0209999C000010075019N0010001N1+02121+02021101901ADDGF105991051051008001001001KA1240M+02871MA1999999101841MD1999999-0031REMSYN088AAXX  31004 83398 32594 50000 10212 20202 30184 40190 85500 333 10287 29086 55071 59003;
0156833980999992006053112004-15667-038950FM-12+000599999V0209999C000012200019N0040001N1+02331+02031102021ADDGF103991021011008001041001KA1240N+01751MA1999999101961MD1999999+0011REMSYN076AAXX  31124 83398 32596 30000 10233 20203 30196 40202 82140 333 20175 58001;
0137833980999992006053118004-15667-038950FM-12+000599999V0209999C000012200019N0040001N1+02621+01781101671ADDGF102991011011008001041001MA1999999101611MD1999999-0021REMSYN070AAXX  31184 83398 32596 20000 10262 20178 30161 40167 81140 333 59002;
0168833980999992006060100004-15667-038950FM-12+000599999V0209999C000012200019N0010001N1+01881+01711101861ADDGF102991011011008001041001KA1240M+02771MA1999999101801MD1999999-0041REMSYN088AAXX  01004 83398 32594 20000 10188 20171 30180 40186 81140 333 10277 29081 55077 59004;
0156833980999992006060112004-15667-038950FM-12+000599999V0209999C000012200019N0040001N1+02201+01921101911ADDGF104991021011008001041001KA1240N+01501MA1999999101851MD1999999-0111REMSYN076AAXX  01124 83398 32596 40000 10220 20192 30185 40191 82140 333 20150 59011;
0137833980999992006060118004-15667-038950FM-12+000599999V0200501N003110450019N0040001N1+02581+01801101731ADDGF105991021021008001041001MA1999999101671MD1999999+0061REMSYN070AAXX  01184 83398 32596 50506 10258 20180 30167 40173 82240 333 58006;
0168833980999992006060200004-15667-038950FM-12+000599999V0209999C000012200019N0010001N1+01901+01871101901ADDGF103991031011008001001001KA1240M+02741MA1999999101841MD1999999+0041REMSYN088AAXX  02004 83398 32594 30000 10190 20187 30184 40190 83100 333 10274 29086 55081 58004;
0156833980999992006060212004-15667-038950FM-12+000599999V0202301N002110075019N0040001N1+02241+02091102011ADDGF108991051051008001021001KA1240N+01621MA1999999101951MD1999999+0101REMSYN076AAXX  02124 83398 32596 82304 10224 20209 30195 40201 85520 333 20162 58010;
0182833980999992006060218004-15667-038950FM-12+000599999V0201401N003110450019N0040001N1+02281+02131101931ADDAA106010991AY161061AY221061GF108991041071008001021999MA1999999101871MD1999999+0031MW1601REMSYN082AAXX  02184 83398 21596 81406 10228 20213 30187 40193 76062 8472/ 333 58003 60111;
0213833980999992006060300004-15667-038950FM-12+000599999V0209999C000010075019N0010001N1+02101+02031102071ADDAA106004191AY161061AY221061GF108991051051008001021999KA1240M+02361MA1999999102011MD1999999+0171MW1021REMSYN100AAXX  03004 83398 21594 80000 10210 20203 30201 40207 70262 8552/ 333 10236 29094 55012 58017 60041;
0201833980999992006060312004-15667-038950FM-12+000599999V0209999C000010075019N0040001N1+02281+02011102121ADDAA124015091AY161061AY221061GF108991051051008001021999KA1240N+01901MA1999999102061MD1999999+0111MW1021REMSYN088AAXX  03124 83398 21596 80000 10228 20201 30206 40212 70262 8552/ 333 20190 58011 60154;
0137833980999992006060318004-15667-038950FM-12+000599999V0201401N004110075019N0040001N1+02541+01861101891ADDGF108991051051008001021999MA1999999101831MD1999999-0041REMSYN070AAXX  03184 83398 32596 81408 10254 20186 30183 40189 8552/ 333 59004;
0187833980999992006060400004-15667-038950FM-12+000599999V0201401N002119999999N0010001N1+02121+01931102181ADDGF107991999041008001021001KA1240M+02621MA1999999102121MD1999999+0111REMSYN088AAXX  04004 83398 32594 71404 10212 20193 30212 40218 89420 333 10262 29082 55025 58011;EQDQ01+000092SCOTLC
0220833980999992006060412004-15667-038950FM-12+000599999V0201801N002110075019N0040001N1+02081+01841102141ADDAA124000091AY151061AY221061GF108991051051008001021999KA1240N+01821MA1999999102081MD1999999+0021MW1021REMSYN088AAXX  04124 83398 21596 81804 10208 20184 30208 40214 70252 8552/ 333 20182 58002 69924;EQDQ01  00002PRCP24
0137833980999992006060418004-15667-038950FM-12+000599999V0201401N003110450019N0040001N1+02521+01771101781ADDGF106991041051008001021001MA1999999101721MD1999999-0111REMSYN070AAXX  04184 83398 32596 61406 10252 20177 30172 40178 84520 333 59011;
0213833980999992006060500004-15667-038950FM-12+000599999V0209999C000010450019N0010001N1+02001+01881101931ADDAA106001091AY161061AY221061GF106991041051008001021001KA1240M+02561MA1999999101871MD1999999-0251MW1021REMSYN100AAXX  05004 83398 21594 60000 10200 20188 30187 40193 70262 84520 333 10256 29084 55021 59025 60011;
0201833980999992006060512004-15667-038950FM-12+000599999V0202301N003110450019N0040001N1+02161+01921102001ADDAA124005191AY161061AY221061GF106991041051008001021001KA1240N+01761MA1999999101941MD1999999-0141MW1021REMSYN088AAXX  05124 83398 21596 62306 10216 20192 30194 40200 70262 84520 333 20176 59014 60054;
0201833980999992006060518004-15667-038950FM-12+000599999V0201401N003110450019N0040001N1+02381+01911101671ADDAA106000091AY151061AY221061GF106991041051008001021001MA1999999101611MD1999999-0111MW1021REMSYN082AAXX  05184 83398 21596 61406 10238 20191 30161 40167 70252 84520 333 59011 69921;EQDQ01  00002PRCP06
0168833980999992006060600004-15667-038950FM-12+000599999V0209999C000010450019N0010001N1+02041+01941101851ADDGF106991041051008001021001KA1240M+02461MA1999999101791MD1999999-0081REMSYN088AAXX  06004 83398 32594 60000 10204 20194 30179 40185 84520 333 10246 29087 55024 59008;
0192833980999992006060612004-15667-038950FM-12+000599999V0202301N002110450019N0040001N1+02241+01981101911ADDAA124000091GF105991031021008001041001KA1240N+01861MA1999999101851MD1999999-0091REMSYN082AAXX  06124 83398 22596 52304 10224 20198 30185 40191 83240 333 20186 59009 69924;EQDQ01  00002PRCP24
0137833980999992006060618004-15667-038950FM-12+000599999V0200901N002112200019N0040001N1+02571+02001101641ADDGF104991021021008001041001MA1999999101581MD1999999-0031REMSYN070AAXX  06184 83398 32596 40904 10257 20200 30158 40164 82240 333 59003;
0168833980999992006060700004-15667-038950FM-12+000599999V0209999C000012200019N0010001N1+02001+01931101911ADDGF104991021021008001041001KA1240M+02691MA1999999101851MD1999999+0061REMSYN088AAXX  07004 83398 32594 40000 10200 20193 30185 40191 82240 333 10269 29087 55080 58006;
0156833980999992006060712004-15667-038950FM-12+000599999V0201401N001011050019N0040001N1+02301+02031101951ADDGF105991021021008001041011KA1240N+01771MA1999999101891MD1999999+0041REMSYN076AAXX  07124 83398 32596 51402 10230 20203 30189 40195 82241 333 20177 58004;
0137833980999992006060718004-15667-038950FM-12+000599999V0201401N003110450019N0040001N1+02591+01951101681ADDGF105991031021008001041001MA1999999101621MD1999999+0041REMSYN070AAXX  07184 83398 32596 51406 10259 20195 30162 40168 83240 333 58004;
0201833980999992006060812004-15667-038950FM-12+000599999V0202301N001010450019N0040001N1+02381+02071101921ADDAA124004191AY161061AY221061GF106991041051008001041001KA1240N+01971MA1999999101861MD1999999-0031MW1021REMSYN088AAXX  08124 83398 21596 62302 10238 20207 30186 40192 70262 84540 333 20197 59003 60044;
0137833980999992006060818004-15667-038950FM-12+000599999V0201401N003110450019N0040001N1+02521+02021101651ADDGF106991041051008001021001MA1999999101591MD1999999-0031REMSYN070AAXX  08184 83398 32596 61406 10252 20202 30159 40165 84520 333 59003;
0168833980999992006060900004-15667-038950FM-12+000599999V0209999C000010450019N0010001N1+02071+02001101861ADDGF105991031051008001041001KA1240M+02731MA1999999101801MD1999999-0021REMSYN088AAXX  09004 83398 32594 50000 10207 20200 30180 40186 83540 333 10273 29087 55071 59002;
0201833980999992006060912004-15667-038950FM-12+000599999V0202301N001010450019N0040001N1+02321+02131101851ADDAA124001091AY161061AY221061GF105991031051008001041001KA1240N+01951MA1999999101791MD1999999-0071MW1021REMSYN088AAXX  09124 83398 21596 52302 10232 20213 30179 40185 70262 83540 333 20195 59007 60014;
0182833980999992006060918004-15667-038950FM-12+000599999V0200501N002110450019N0040001N1+02601+02141101551ADDAA106001091AY161061AY221061GF107991041051008001021001MA1999999101491MD1999999-0101MW1021REMSYN082AAXX  09184 83398 21596 70504 10260 20214 30149 40155 70262 84520 333 59010 60011;
0168833980999992006061000004-15667-038950FM-12+000599999V0200501N002110075019N0010001N1+02441+02151101741ADDGF108991051051008001021999KA1240M+02721MA1999999101681MD1999999-0121REMSYN088AAXX  10004 83398 32594 80504 10244 20215 30168 40174 8552/ 333 10272 29083 55064 59012;
0201833980999992006061012004-15667-038950FM-12+000599999V0202301N001010450019N0040001N1+02421+02211101831ADDAA124003091AY161061AY221061GF105991031051008001041001KA1240N+02071MA1999999101771MD1999999-0031MW1021REMSYN088AAXX  10124 83398 21596 52302 10242 20221 30177 40183 70262 83540 333 20207 59003 60034;
0201833980999992006061018004-15667-038950FM-12+000599999V0200901N003110450019N0040001N1+02631+02081101481ADDAA106000091AY151061AY221061GF107991041051008001021001MA1999999101431MD1999999-0061MW1021REMSYN082AAXX  10184 83398 21596 70906 10263 20208 30143 40148 70252 84520 333 59006 69921;EQDQ01  00002PRCP06
0168833980999992006061100004-15667-038950FM-12+000599999V0209999C000012200019N0010001N1+02111+02061101681ADDGF103991021021008001041001KA1240M+02771MA1999999101621MD1999999-0061REMSYN088AAXX  11004 83398 32594 30000 10211 20206 30162 40168 82240 333 10277 29089 55065 59006;
0173833980999992006061112004-15667-038950FM-12+000599999V0201801N003110450019N0040001N1+02381+02151101791ADDAA124000591GF106991041051008001021001KA1240N+01981MA1999999101731MD1999999-0041REMSYN082AAXX  11124 83398 22596 61806 10238 20215 30173 40179 84520 333 20198 59004 69964;
0137833980999992006061118004-15667-038950FM-12+000599999V0201401N001010450019N0040001N1+02621+02121101491ADDGF105991031051008001021001MA1999999101441MD1999999+0011REMSYN070AAXX  11184 83398 32596 51402 10262 20212 30144 40149 83520 333 58001;
0201833980999992006061212004-15667-038950FM-12+000599999V0209999C000010075019N0040001N1+02281+02231101901ADDAA124003091AY161061AY221061GF108991051051008001021999KA1240N+02091MA1999999101841MD1999999+0111MW1021REMSYN088AAXX  12124 83398 21596 80000 10228 20223 30184 40190 70262 8552/ 333 20209 58011 60034;
0137833980999992006061218004-15667-038950FM-12+000599999V0201401N003110075019N0040001N1+02561+02211101691ADDGF108991051051008001021999MA1999999101631MD1999999+0191REMSYN070AAXX  12184 83398 32596 81406 10256 20221 30163 40169 8552/ 333 58019;
0213833980999992006061300004-15667-038950FM-12+000599999V0201801N002110075019N0010001N1+02281+02261102001ADDAA106000591AY161061AY221061GF108991051051008001021999KA1240M+02661MA1999999101941MD1999999+0281MW1021REMSYN100AAXX  13004 83398 21594 81804 10228 20226 30194 40200 70262 8552/ 333 10266 29094 55000 58028 69961;
0201833980999992006061312004-15667-038950FM-12+000599999V0201401N003110450019N0040001N1+02541+02311102081ADDAA124002091AY161061AY221061GF106991041051008001021001KA1240N+02121MA1999999102021MD1999999+0181MW1021REMSYN088AAXX  13124 83398 21596 61406 10254 20231 30202 40208 70262 84520 333 20212 58018 60024;
0182833980999992006061318004-15667-038950FM-12+000599999V0201801N004110075019N0040001N1+02381+02211101961ADDAA106000591AY161061AY221061GF108991051051008001021999MA1999999101901MD1999999+0271MW1021REMSYN082AAXX  13184 83398 21596 81808 10238 20221 30190 40196 70262 8552/ 333 58027 69951;
0213833980999992006061400004-15667-038950FM-12+000599999V0201801N002110450019N0010001N1+02121+02051102211ADDAA106051191AY161061AY221061GF108991041071008001021999KA1240M+02751MA1999999102151MD1999999+0211MW1601REMSYN100AAXX  14004 83398 21594 81804 10212 20205 30215 40221 76062 8472/ 333 10275 29092 55046 58021 60511;
0201833980999992006061412004-15667-038950FM-12+000599999V0202301N002110075019N0040001N1+02101+01981102231ADDAA124057991AY161061AY221061GF108991051051008001021999KA1240N+01981MA1999999102171MD1999999+0151MW1021REMSYN088AAXX  14124 83398 21596 82304 10210 20198 30217 40223 70262 8552/ 333 20198 58015 60584;
0156833980999992006061418004-15667-038950FM-12+000599999V0201801N003110450019N0040001N1+02541+01731101991ADDGF106991041051008001021001MA1999999101192MD1999999+0031REMSYN070AAXX  14184 83398 32596 61806 10254 20173 30119 40199 84520 333 58003;EQDQ01+101193APOSP 
0168833980999992006061500004-15667-038950FM-12+000599999V0202301N002110450019N0010001N1+01941+01811102111ADDGF106991041051008001021001KA1240M+02671MA1999999102051MD1999999-0101REMSYN088AAXX  15004 83398 32594 62304 10194 20181 30205 40211 84520 333 10267 29085 55025 59010;
0201833980999992006061512004-15667-038950FM-12+000599999V0202301N002110450019N0040001N1+02221+02031102041ADDAA124000591AY161061AY221061GF106991041051008001021001KA1240N+01701MA1999999101981MD1999999-0191MW1021REMSYN088AAXX  15124 83398 21596 62304 10222 20203 30198 40204 70262 84520 333 20170 59019 69954;
0137833980999992006061518004-15667-038950FM-12+000599999V0201801N003110075019N0040001N1+02421+02051101791ADDGF108991051051008001021999MA1999999101731MD1999999-0201REMSYN070AAXX  15184 83398 32596 81806 10242 20205 30173 40179 8552/ 333 59020;
0168833980999992006061600004-15667-038950FM-12+000599999V0203601N002110075019N0010001N1+02161+02131101441ADDGF108991051051008001021999KA1240M+02541MA1999999101881MD1999999-0171REMSYN088AAXX  16004 83398 32594 83604 10216 20213 30188 40144 8552/ 333 10254 29092 55034 59017;
0201833980999992006061612004-15667-038950FM-12+000599999V0202301N002110450019N0040001N1+02381+02171102031ADDAA124008991AY161061AY221061GF106991041051008001021001KA1240N+01981MA1999999101971MD1999999-0011MW1021REMSYN088AAXX  16124 83398 21596 62304 10238 20217 30197 40203 70262 84520 333 20198 59001 60094;
0137833980999992006061618004-15667-038950FM-12+000599999V0200901N003110450019N0040001N1+02601+02061101831ADDGF105991031051008001021001MA1999999101771MD1999999+0041REMSYN070AAXX  16184 83398 32596 50906 10260 20206 30177 40183 83520 333 58004;
0168833980999992006061700004-15667-038950FM-12+000599999V0200901N002110450019N0010001N1+02101+02031102011ADDGF106991041051008001021001KA1240M+02731MA1999999101951MD1999999+0071REMSYN088AAXX  17004 83398 32594 60904 10210 20203 30195 40201 84520 333 10273 29088 55069 58007;
0137833980999992006061718004-15667-038950FM-12+000599999V0201801N003110450019N0040001N1+02561+01881101951ADDGF105991031011008001041001MA1999999101891MD1999999+0121REMSYN070AAXX  17184 83398 32596 51806 10256 20188 30189 40195 83140 333 58012;
0168833980999992006061800004-15667-038950FM-12+000599999V0202301N001012200019N0010001N1+01941+01811102171ADDGF103991031051008001001001KA1240M+02751MA1999999102111MD1999999+0161REMSYN088AAXX  18004 83398 32594 32302 10194 20181 30211 40217 83500 333 10275 29085 55075 58016;
0156833980999992006061812004-15667-038950FM-12+000599999V0202301N002110450019N0040001N1+02241+01981102301ADDGF105991031051008001041001KA1240N+01801MA1999999102241MD1999999+0171REMSYN076AAXX  18124 83398 32596 52304 10224 20198 30224 40230 83540 333 20180 58017;
0137833980999992006061818004-15667-038950FM-12+000599999V0201801N002110450019N0040001N1+02501+02001102101ADDGF106991041051008001021001MA1999999102041MD1999999+0151REMSYN070AAXX  18184 83398 32596 61804 10250 20200 30204 40210 84520 333 58015;
0168833980999992006061900004-15667-038950FM-12+000599999V0201801N002110450019N0010001N1+02021+01921102191ADDGF106991041051008001021001KA1240M+02731MA1999999102131MD1999999+0021REMSYN088AAXX  19004 83398 32594 61804 10202 20192 30213 40219 84520 333 10273 29087 55067 58002;
0201833980999992006061912004-15667-038950FM-12+000599999V0202301N001010450019N0040001N1+02181+02031102221ADDAA124002091AY161061AY221061GF107991041051008001021001KA1240N+01881MA1999999102161MD1999999-0081MW1021REMSYN088AAXX  19124 83398 21596 72302 10218 20203 30216 40222 70262 84520 333 20188 59008 60024;
0201833980999992006061918004-15667-038950FM-12+000599999V0200901N002110450019N0040001N1+02441+01901102001ADDAA106000091AY151061AY221061GF106991041051008001021001MA1999999101941MD1999999-0101MW1021REMSYN082AAXX  19184 83398 21596 60904 10244 20190 30194 40200 70252 84520 333 59010 69921;EQDQ01  00002PRCP06
0232833980999992006062000004-15667-038950FM-12+000599999V0200901N003112200019N0010001N1+02381+01841102181ADDAA106000091AY151061AY221061GF104991021021008001041001KA1240M+02701MA1999999102121MD1999999-0011MW1021REMSYN100AAXX  20004 83398 21594 40906 10238 20184 30212 40218 70252 82240 333 10270 29077 55046 59001 69911;EQDQ01  00002PRCP06
0201833980999992006062012004-15667-038950FM-12+000599999V0200901N002112200019N0040001N1+02561+01641102261ADDAA124000591AY151061AY221061GF103991021011008001041001KA1240N+01801MA1999999102201MD1999999+0041MW1021REMSYN088AAXX  20124 83398 21596 30904 10256 20164 30220 40226 70252 82140 333 20180 58004 69964;
0201833980999992006062018004-15667-038950FM-12+000599999V0201401N003110075019N0040001N1+02541+01831102051ADDAA106000091AY151061AY221061GF108991051051008001021999MA1999999101991MD1999999+0051MW1021REMSYN082AAXX  20184 83398 21596 81406 10254 20183 30199 40205 70252 8552/ 333 58005 69911;EQDQ01  00002PRCP06
0213833980999992006062100004-15667-038950FM-12+000599999V0209999C000010075019N0010001N1+02121+01981102211ADDAA106004191AY161061AY221061GF108991051051008001021999KA1240M+02681MA1999999102151MD1999999+0031MW1021REMSYN100AAXX  21004 83398 21594 80000 10212 20198 30215 40221 70262 8552/ 333 10268 29077 55051 58003 60041;
0201833980999992006062112004-15667-038950FM-12+000599999V0209999C000010075019N0040001N1+02301+02181102271ADDAA124020191AY161061AY221061GF108991051051008001021999KA1240N+01951MA1999999102211MD1999999+0071MW1021REMSYN088AAXX  21124 83398 21596 80000 10230 20218 30221 40227 70262 8552/ 333 20195 58007 60204;
0182833980999992006062118004-15667-038950FM-12+000599999V0200501N004110075019N0040001N1+02531+02121102091ADDAA106001091AY161061AY221061GF108991051051008001021999MA1999999102031MD1999999+0041MW1021REMSYN082AAXX  21184 83398 21596 80508 10253 20212 30203 40209 70262 8552/ 333 58004 60011;
0213833980999992006062200004-15667-038950FM-12+000599999V0200501N005110450019N0010001N1+02441+02011102151ADDAA106001091AY161061AY221061GF105991031051008001041001KA1240M+02681MA1999999102091MD1999999-0061MW1021REMSYN100AAXX  22004 83398 21594 50510 10244 20201 30209 40215 70262 83540 333 10268 29080 55000 59006 60011;
0201833980999992006062212004-15667-038950FM-12+000599999V0200501N003110450019N0040001N1+02531+01851102281ADDAA124011991AY161061AY221061GF107991041051008001021001KA1240N+02161MA1999999102221MD1999999+0011MW1021REMSYN088AAXX  22124 83398 21596 70506 10253 20185 30222 40228 70262 84520 333 20216 58001 60124;
0137833980999992006062218004-15667-038950FM-12+000599999V0201401N002112200019N0040001N1+02601+01601101991ADDGF103991021011008001041001MA1999999101931MD1999999-0101REMSYN070AAXX  22184 83398 32596 31404 10260 20160 30193 40199 82140 333 59010;
0168833980999992006062300004-15667-038950FM-12+000599999V0209999C000012200019N0010001N1+02041+01891102161ADDGF103991021011008001041001KA1240M+02741MA1999999102101MD1999999+0011REMSYN088AAXX  23004 83398 32594 30000 10204 20189 30210 40216 82140 333 10274 29076 55055 58001;
0201833980999992006062312004-15667-038950FM-12+000599999V0202301N001010075019N0040001N1+02081+01931102221ADDAA124004191AY161061AY221061GF108991051051008001021999KA1240N+01831MA1999999102161MD1999999-0061MW1021REMSYN088AAXX  23124 83398 21596 82302 10208 20193 30216 40222 70262 8552/ 333 20183 59006 60044;
0182833980999992006062318004-15667-038950FM-12+000599999V0201801N003110450019N0040001N1+02141+02021101951ADDAA106000891AY161061AY221061GF108991041071008001021999MA1999999101891MD1999999-0041MW1521REMSYN082AAXX  23184 83398 21596 81806 10214 20202 30189 40195 75262 8472/ 333 59004 69981;
0213833980999992006062400004-15667-038950FM-12+000599999V0201801N002110450019N0010001N1+02061+02031102121ADDAA106002091AY161061AY221061GF108991041071008001021999KA1240M+02541MA1999999102061MD1999999-0041MW1521REMSYN100AAXX  24004 83398 21594 81804 10206 20203 30206 40212 75262 8472/ 333 10254 29095 55013 59004 60021;
0201833980999992006062412004-15667-038950FM-12+000599999V0201801N003110450019N0040001N1+02381+02151102091ADDAA124020191AY161061AY221061GF108991041071008001021999KA1240N+01961MA1999999102031MD1999999-0031MW1501REMSYN088AAXX  24124 83398 21596 81806 10238 20215 30203 40209 75062 8472/ 333 20196 59003 60204;
0182833980999992006062418004-15667-038950FM-12+000599999V0201401N002110450019N0040001N1+02541+02191101891ADDAA106000591AY151061AY221061GF106991041051008001021001MA1999999101831MD1999999-0061MW1021REMSYN082AAXX  24184 83398 21596 61404 10254 20219 30183 40189 70252 84520 333 59006 69951;
0168833980999992006062500004-15667-038950FM-12+000599999V0202301N002110450019N0010001N1+02081+02001102091ADDGF106991041051008001021001KA1240M+02741MA1999999102031MD1999999-0031REMSYN088AAXX  25004 83398 32594 62304 10208 20200 30203 40209 84520 333 10274 29090 55017 59003;
0201833980999992006062512004-15667-038950FM-12+000599999V0202301N001010075019N0040001N1+02181+02111102101ADDAA124011991AY161061AY221061GF108991051051008001021999KA1240N+01991MA1999999102041MD1999999+0011MW1021REMSYN088AAXX  25124 83398 21596 82302 10218 20211 30204 40210 70262 8552/ 333 20199 58001 60124;
0182833980999992006062518004-15667-038950FM-12+000599999V0200901N004110075019N0040001N1+02231+02131101841ADDAA106004191AY161061AY221061GF108991051051008001021999MA1999999101781MD1999999-0051MW1511REMSYN082AAXX  25184 83398 21596 80908 10223 20213 30178 40184 75162 8552/ 333 59005 60041;
0213833980999992006062600004-15667-038950FM-12+000599999V0200501N004110075019N0010001N1+02341+02151101991ADDAA106004191AY161061AY221061GF108991051051008001021999KA1240M+02491MA1999999101931MD1999999-0101MW1021REMSYN100AAXX  26004 83398 21594 80508 10234 20215 30193 40199 70262 8552/ 333 10249 29092 55001 59010 60041;
0168833980999992006062700004-15667-038950FM-12+000599999V0203601N002110450019N0010001N1+02381+02211101881ADDGF106991041051008001021001KA1240M+02711MA1999999101821MD1999999-0111REMSYN088AAXX  27004 83398 32594 63604 10238 20221 30182 40188 84520 333 10271 29082 55023 59011;
0201833980999992006062712004-15667-038950FM-12+000599999V0203601N002110075019N0040001N1+02421+02231102011ADDAA124004191AY161061AY221061GF108991051051008001021999KA1240N+02041MA1999999101951MD1999999+0031MW1021REMSYN088AAXX  27124 83398 21596 83604 10242 20223 30195 40201 70262 8552/ 333 20204 58003 60044;
0137833980999992006062718004-15667-038950FM-12+000599999V0203601N003110450019N0040001N1+02541+02311101681ADDGF106991041051008001021001MA1999999101621MD1999999-0011REMSYN070AAXX  27184 83398 32596 63606 10254 20231 30162 40168 84520 333 59001;
0168833980999992006062800004-15667-038950FM-12+000599999V0203601N002112200019N0010001N1+02321+02241101851ADDGF104991041011008001001001KA1240M+02661MA1999999101791MD1999999-0031REMSYN088AAXX  28004 83398 32594 43604 10232 20224 30179 40185 84100 333 10266 29089 55042 59003;
0156833980999992006062812004-15667-038950FM-12+000599999V0202301N001010450019N0040001N1+02401+02241102161ADDGF105991031021008001041001KA1240N+01991MA1999999102101MD1999999+0151REMSYN076AAXX  28124 83398 32596 52302 10240 20224 30210 40216 83240 333 20199 58015;
0182833980999992006062818004-15667-038950FM-12+000599999V0201401N002110075019N0040001N1+02201+02131102051ADDAA106047091AY161061AY221061GF108991051051008001021999MA1999999101991MD1999999+0371MW1511REMSYN082AAXX  28184 83398 21596 81404 10220 20213 30199 40205 75162 8552/ 333 58037 60471;
0213833980999992006062900004-15667-038950FM-12+000599999V0201801N002110075019N0010001N1+02081+02051102291ADDAA106000591AY161061AY221061GF108991051051008001021999KA1240M+02631MA1999999102231MD1999999+0441MW1511REMSYN100AAXX  29004 83398 21594 81804 10208 20205 30223 40229 75162 8552/ 333 10263 29096 55024 58044 69951;
0201833980999992006063012004-15667-038950FM-12+000599999V0203601N002110075019N0040001N1+02181+01971102431ADDAA124000591AY151061AY221061GF108991051051008001021999KA1240N+01881MA1999999102371MD1999999+0021MW1021REMSYN088AAXX  30124 83398 21596 83604 10218 20197 30237 40243 70252 8552/ 333 20188 58002 69964;
0137833980999992006063018004-15667-038950FM-12+000599999V0201801N002110450019N0040001N1+02441+01791102211ADDGF106991041051008001021001MA1999999102151MD1999999+0011REMSYN070AAXX  30184 83398 32596 61804 10244 20179 30215 40221 84520 333 58001;
0168833980999992006070100004-15667-038950FM-12+000599999V0202301N002110450019N0010001N1+01941+01841102361ADDGF106991041051008001021001KA1240M+02641MA1999999102301MD1999999+0011REMSYN088AAXX  01004 83398 32594 62304 10194 20184 30230 40236 84520 333 10264 29086 55034 58001;
0220833980999992006070112004-15667-038950FM-12+000599999V0202301N002110450019N0040001N1+02281+02011102421ADDAA124000091AY151061AY221061GF106991041051008001021001KA1240N+01841MA1999999102361MD1999999-0011MW1021REMSYN088AAXX  01124 83398 21596 62304 10228 20201 30236 40242 70252 84520 333 20184 59001 69924;EQDQ01  00002PRCP24
0137833980999992006070118004-15667-038950FM-12+000599999V0201801N002110450019N0040001N1+02461+01781102231ADDGF106991041051008001021001MA1999999102171MD1999999+0021REMSYN070AAXX  01184 83398 32596 61804 10246 20178 30217 40223 84520 333 58002;
0168833980999992006070200004-15667-038950FM-12+000599999V0202301N002110450019N0010001N1+01941+01871102321ADDGF106991041051008001021001KA1240M+02601MA1999999102261MD1999999-0041REMSYN088AAXX  02004 83398 32594 62304 10194 20187 30226 40232 84520 333 10260 29086 55064 59004;
0201833980999992006070212004-15667-038950FM-12+000599999V0203601N002110075019N0040001N1+02141+02021102331ADDAA124001091AY161061AY221061GF108991051051008001021999KA1240N+01701MA1999999102271MD1999999-0061MW1021REMSYN088AAXX  02124 83398 21596 83604 10214 20202 30227 40233 70262 8552/ 333 20170 59006 60014;
0137833980999992006070218004-15667-038950FM-12+000599999V0201401N003110450019N0040001N1+02421+01971102141ADDGF107991041051008001021001MA1999999102081MD1999999-0091REMSYN070AAXX  02184 83398 32596 71406 10242 20197 30208 40214 84520 333 59009;
0168833980999992006070300004-15667-038950FM-12+000599999V0201801N003110075019N0010001N1+02341+01871102301ADDGF107991051051008001021001KA1240M+02611MA1999999102241MD1999999-0021REMSYN088AAXX  03004 83398 32594 71806 10234 20187 30224 40230 85520 333 10261 29080 55033 59002;
0156833980999992006070312004-15667-038950FM-12+000599999V0209999C000010075019N0040001N1+02091+01831102321ADDGF108991051051008001021999KA1240N+01791MA1999999102261MD1999999-0011REMSYN076AAXX  03124 83398 32596 80000 10209 20183 30226 40232 8552/ 333 20179 59001;
0182833980999992006070318004-15667-038950FM-12+000599999V0209999C000010075019N0040001N1+02361+01931102141ADDAA106000591AY161061AY221061GF108991051051008001021999MA1999999102081MD1999999+0001MW1021REMSYN082AAXX  03184 83398 21596 80000 10236 20193 30208 40214 70262 8552/ 333 58000 69951;
0168833980999992006070400004-15667-038950FM-12+000599999V0209999C000010075019N0010001N1+02041+01871102281ADDGF108991051051008001021999KA1240M+02621MA1999999102221MD1999999-0021REMSYN088AAXX  04004 83398 32594 80000 10204 20187 30222 40228 8552/ 333 10262 29086 55009 59002;
0173833980999992006070412004-15667-038950FM-12+000599999V0209999C000010450019N0040001N1+02101+01841102381ADDAA124000591GF107991041051008001021001KA1240N+01701MA1999999102321MD1999999+0061REMSYN082AAXX  04124 83398 22596 70000 10210 20184 30232 40238 84520 333 20170 58006 69954;
0137833980999992006070418004-15667-038950FM-12+000599999V0200901N001010450019N0040001N1+02471+01841102131ADDGF106991031051008001041001MA1999999102071MD1999999-0011REMSYN070AAXX  04184 83398 32596 60902 10247 20184 30207 40213 83540 333 59001;
0213833980999992006070500004-15667-038950FM-12+000599999V0209999C000010075019N0010001N1+02021+01921102291ADDAA106002091AY161061AY221061GF108991051051008001021999KA1240M+02581MA1999999102231MD1999999+0011MW1021REMSYN100AAXX  05004 83398 21594 80000 10202 20192 30223 40229 70262 8552/ 333 10258 29085 55045 58001 60021;
0173833980999992006070512004-15667-038950FM-12+000599999V0209999C000010075019N0040001N1+02051+01841102231ADDAA124002091GF108991051051008001021999KA1240N+01661MA1999999102171MD1999999-0151REMSYN082AAXX  05124 83398 22596 80000 10205 20184 30217 40223 8552/ 333 20166 59015 60024;
0137833980999992006070518004-15667-038950FM-12+000599999V0209999C000010075019N0040001N1+02381+01891102001ADDGF108991051051008001021999MA1999999101941MD1999999-0131REMSYN070AAXX  05184 83398 32596 80000 10238 20189 30194 40200 8552/ 333 59013;
0232833980999992006070600004-15667-038950FM-12+000599999V0209999C000010450019N0010001N1+01961+01931102151ADDAA106000091AY151061AY221061GF106991041051008001041001KA1240M+02481MA1999999102091MD1999999-0161MW1021REMSYN100AAXX  06004 83398 21594 60000 10196 20193 30209 40215 70252 84540 333 10248 29090 55025 59016 69911;EQDQ01  00002PRCP06
0192833980999992006070612004-15667-038950FM-12+000599999V0201801N001010450019N0040001N1+02221+01971102301ADDAA124000091GF106991041051008001021001KA1240N+01701MA1999999102241MD1999999+0171REMSYN082AAXX  06124 83398 22596 61802 10222 20197 30224 40230 84520 333 20170 58017 69914;EQDQ01  00002PRCP24
0137833980999992006070618004-15667-038950FM-12+000599999V0200901N001010450019N0040001N1+02501+01871102101ADDGF106991031051008001041011MA1999999102041MD1999999+0101REMSYN070AAXX  06184 83398 32596 60902 10250 20187 30204 40210 83541 333 58010;
0168833980999992006070700004-15667-038950FM-12+000599999V0209999C000010450019N0010001N1+01901+01831102391ADDGF105991031021008001041001KA1240M+02621MA1999999102331MD1999999+0241REMSYN088AAXX  07004 83398 32594 50000 10190 20183 30233 40239 83240 333 10262 29087 55060 58024;
0137833980999992006070718004-15667-038950FM-12+000599999V0200901N002112200019N0040001N1+02461+01761102061ADDGF104991021021008001041001MA1999999102001MD1999999-0041REMSYN070AAXX  07184 83398 32596 40904 10246 20176 30200 40206 82240 333 59004;
0168833980999992006070800004-15667-038950FM-12+000599999V0209999C000012200019N0010001N1+01861+01791102231ADDGF104991021011008001041001KA1240M+02631MA1999999102171MD1999999+0161REMSYN088AAXX  08004 83398 32594 40000 10186 20179 30217 40223 82140 333 10263 29088 55066 58016;
0156833980999992006070812004-15667-038950FM-12+000599999V0202301N001012200019N0040001N1+02141+01861102221ADDGF103991011011008001041001KA1240N+01501MA1999999102161MD1999999+0111REMSYN076AAXX  08124 83398 32596 32302 10214 20186 30216 40222 81140 333 20150 58011;
0137833980999992006070818004-15667-038950FM-12+000599999V0200501N003112200019N0040001N1+02501+01561101831ADDGF103991021011008001041001MA1999999101771MD1999999+0231REMSYN070AAXX  08184 83398 32596 30506 10250 20156 30177 40183 82140 333 58023;
0156833980999992006070912004-15667-038950FM-12+000599999V0209999C000012200019N0040001N1+02121+01821102101ADDGF102991021011008001001001KA1240N+01421MA1999999101041MD1999999-0121REMSYN076AAXX  09124 83398 32596 20000 10212 20182 30104 40210 82100 333 20142 59012;
0137833980999992006070918004-15667-038950FM-12+000599999V0209999C000012200019N0040001N1+02541+01731101721ADDGF102991021011008001001001MA1999999101661MD1999999-0111REMSYN070AAXX  09184 83398 32596 20000 10254 20173 30166 40172 82100 333 59011;
0156833980999992006071012004-15667-038950FM-12+000599999V0203601N002110075019N0040001N1+02121+01971102071ADDGF108991051051008001021999KA1240N+01761MA1999999102011MD1999999-0031REMSYN076AAXX  10124 83398 32596 83604 10212 20197 30201 40207 8552/ 333 20176 59003;
0137833980999992006071018004-15667-038950FM-12+000599999V0203601N003110450019N0040001N1+02481+01681101871ADDGF106991041051008001021001MA1999999101811MD1999999+0151REMSYN070AAXX  10184 83398 32596 63606 10248 20168 30181 40187 84520 333 58015;
0168833980999992006071100004-15667-038950FM-12+000599999V0203601N002110450019N0010001N1+01881+01811102101ADDGF105991021011008001041001KA1240M+02711MA1999999102041MD1999999+0191REMSYN088AAXX  11004 83398 32594 53604 10188 20181 30204 40210 82140 333 10271 29086 55044 58019;
0201833980999992006071112004-15667-038950FM-12+000599999V0201401N002110450019N0040001N1+02441+02071102261ADDAA124001091AY161061AY221061GF105991031051008001021001KA1240N+01761MA1999999102201MD1999999+0191MW1021REMSYN088AAXX  11124 83398 21596 51404 10244 20207 30220 40226 70262 83520 333 20176 58019 60014;
0137833980999992006071118004-15667-038950FM-12+000599999V0201801N003110075019N0040001N1+02521+01981102081ADDGF108991051051008001021999MA1999999102021MD1999999+0121REMSYN070AAXX  11184 83398 32596 81806 10252 20198 30202 40208 8552/ 333 58012;
0213833980999992006071200004-15667-038950FM-12+000599999V0201801N004110450019N0010001N1+02101+02031102251ADDAA106007191AY161061AY221061GF108991031071008001021999KA1240M+02721MA1999999102191MD1999999+0151MW1601REMSYN100AAXX  12004 83398 21594 81808 10210 20203 30219 40225 76062 8372/ 333 10272 29084 55043 58015 60071;
0201833980999992006071212004-15667-038950FM-12+000599999V0201801N003110075019N0040001N1+02421+02151102311ADDAA124009991AY161061AY221061GF108991051051008001021999KA1240N+02041MA1999999102251MD1999999+0051MW1021REMSYN088AAXX  12124 83398 21596 81806 10242 20215 30225 40231 70262 8552/ 333 20204 58005 60104;
0137833980999992006071218004-15667-038950FM-12+000599999V0201401N003110075019N0040001N1+02521+01981102111ADDGF108991051051008001021999MA1999999102051MD1999999+0031REMSYN070AAXX  12184 83398 32596 81406 10252 20198 30205 40211 8552/ 333 58003;
0168833980999992006071300004-15667-038950FM-12+000599999V0201401N003110450019N0010001N1+02381+02051102341ADDGF105991031011008001021001KA1240M+02681MA1999999102251MD1999999+0061REMSYN088AAXX  13004 83398 32594 51406 10238 20205 30225 40234 83120 333 10268 29080 55012 58006;
0201833980999992006071312004-15667-038950FM-12+000599999V0201801N003110450019N0040001N1+02521+01911102341ADDAA124002091AY161061AY221061GF105991021011008001021001KA1240N+02021MA1999999102281MD1999999+0031MW1021REMSYN088AAXX  13124 83398 21596 51806 10252 20191 30228 40234 70262 82120 333 20202 58003 60024;
0137833980999992006071318004-15667-038950FM-12+000599999V0201801N004110450019N0040001N1+02541+01881102181ADDGF105991031021008001041001MA1999999102121MD1999999+0071REMSYN070AAXX  13184 83398 32596 51808 10254 20188 30212 40218 83240 333 58007;
0168833980999992006071400004-15667-038950FM-12+000599999V0202301N002110450019N0010001N1+02001+01871102291ADDGF105991021011008001021001KA1240M+02691MA1999999102231MD1999999-0021REMSYN088AAXX  14004 83398 32594 52304 10200 20187 30223 40229 82120 333 10269 29080 55080 59002;
0201833980999992006071412004-15667-038950FM-12+000599999V0201801N003110450019N0040001N1+02421+01821102231ADDAA124001091AY161061AY221061GF106991041051008001021001KA1240N+01841MA1999999102171MD1999999-0111MW1021REMSYN088AAXX  14124 83398 21596 61806 10242 20182 30217 40223 70262 84520 333 20184 59011 69994;
0137833980999992006071418004-15667-038950FM-12+000599999V0201801N005110450019N0040001N1+02541+01911102041ADDGF106991041051008001021001MA1999999101981MD1999999-0141REMSYN070AAXX  14184 83398 32596 61810 10254 20191 30198 40204 84520 333 59014;
0232833980999992006071500004-15667-038950FM-12+000599999V0203601N002110450019N0010001N1+02021+01921102201ADDAA106000091AY151061AY221061GF106991041051008001021001KA1240M+02661MA1999999102141MD1999999-0091MW1021REMSYN100AAXX  15004 83398 21594 63604 10202 20192 30214 40220 70252 84520 333 10266 29081 55072 59009 69911;EQDQ01  00002PRCP06
0201833980999992006071512004-15667-038950FM-12+000599999V0203601N002110450019N0040001N1+02141+02021102281ADDAA124009991AY161061AY221061GF108991041071008001021999KA1240N+01901MA1999999102221MD1999999+0051MW1631REMSYN088AAXX  15124 83398 21596 83604 10214 20202 30222 40228 76362 8472/ 333 20190 58005 60104;
0137833980999992006071518004-15667-038950FM-12+000599999V0201801N003110450019N0040001N1+02541+02021102021ADDGF106991041051008001021001MA1999999101961MD1999999-0021REMSYN070AAXX  15184 83398 32596 61806 10254 20202 30196 40202 84520 333 59002;
0220833980999992006071612004-15667-038950FM-12+000599999V0201101N041120075019N0040001N1+02201+02081102301ADDAA124023991AY161061AY221061GF108991051051008001021999KA1240N+01961MA1999999102241MD1999999+0021MW1021REMSYN088AAXX  16124 83398 21596 81180 10220 20208 30224 40230 70262 8552/ 333 20196 58002 60244;EQDQ01+004113WOSPD 
0137833980999992006071618004-15667-038950FM-12+000599999V0201801N003110450019N0040001N1+02521+01821102101ADDGF106991041051008001021001MA1999999102041MD1999999+0081REMSYN070AAXX  16184 83398 32596 61806 10252 20182 30204 40210 84520 333 58008;
0156833980999992006071712004-15667-038950FM-12+000599999V0209999C000010450019N0040001N1+02251+01811102371ADDGF105991031051008001041001KA1240N+01771MA1999999102311MD1999999+0071REMSYN076AAXX  17124 83398 32596 50000 10225 20181 30231 40237 83540 333 20177 58007;
0201833980999992006071718004-15667-038950FM-12+000599999V0201801N002110450019N0040001N1+02381+01821102121ADDAA106000091AY151061AY221061GF107991041051008001021001MA1999999102061MD1999999+0021MW1021REMSYN082AAXX  17184 83398 21596 71804 10238 20182 30206 40212 70252 84520 333 58002 69921;EQDQ01  00002PRCP06
0213833980999992006071800004-15667-038950FM-12+000599999V0209999C000010450019N0010001N1+02001+01851102221ADDAA106000391AY151061AY221061GF105991031051008001041001KA1240M+02571MA1999999102161MD1999999-0071MW1021REMSYN100AAXX  18004 83398 21594 50000 10200 20185 30216 40222 70252 83540 333 10257 29082 55063 59007 69931;
0173833980999992006071812004-15667-038950FM-12+000599999V0202301N001012200019N0040001N1+02131+01671102191ADDAA124000591GF102991011011008001041001KA1240N+01481MA1999999102131MD1999999-0181REMSYN082AAXX  18124 83398 22596 22302 10213 20167 30213 40219 81140 333 20148 59018 69954;
0137833980999992006071818004-15667-038950FM-12+000599999V0200901N002112200019N0040001N1+02441+01511101841ADDGF104991021011008001041001MA1999999101781MD1999999-0281REMSYN070AAXX  18184 83398 32596 40904 10244 20151 30178 40184 82140 333 59028;
0156833980999992006071912004-15667-038950FM-12+000599999V0202301N001012200019N0040001N1+01981+01571102061ADDGF104991021011008001041011KA1240N+01271MA1999999102001MD1999999-0131REMSYN076AAXX  19124 83398 32596 42302 10198 20157 30200 40206 82141 333 20127 59013;
0137833980999992006071918004-15667-038950FM-12+000599999V0209999C000010450019N0040001N1+02461+01711101761ADDGF105991031021008001041001MA1999999101701MD1999999-0081REMSYN070AAXX  19184 83398 32596 50000 10246 20171 30170 40176 83240 333 59008;
0168833980999992006072000004-15667-038950FM-12+000599999V0209999C000010450019N0010001N1+01841+01791101921ADDGF105991031021008001041001KA1240M+02551MA1999999101861MD1999999-0141REMSYN088AAXX  20004 83398 32594 50000 10184 20179 30186 40192 83240 333 10255 29084 55082 59014;
0156833980999992006072012004-15667-038950FM-12+000599999V0209999C000010450019N0040001N1+01941+01771102081ADDGF107991041051008001021001KA1240N+01601MA1999999102021MD1999999+0021REMSYN076AAXX  20124 83398 32596 70000 10194 20177 30202 40208 84520 333 20160 58002;
0137833980999992006072018004-15667-038950FM-12+000599999V0200501N003112200019N0040001N1+02481+01921101781ADDGF103991021011008001041001MA1999999101721MD1999999+0021REMSYN070AAXX  20184 83398 32596 30506 10248 20192 30172 40178 82140 333 58002;
0168833980999992006072100004-15667-038950FM-12+000599999V0209999C000012200019N0010001N1+01841+01781101971ADDGF102991011011008001041001KA1240M+02661MA1999999101911MD1999999+0051REMSYN088AAXX  21004 83398 32594 20000 10184 20178 30191 40197 81140 333 10266 29088 55068 58005;
0156833980999992006072112004-15667-038950FM-12+000599999V0209999C000012200019N0040001N1+02101+01931102211ADDGF102991011011008001041001KA1240N+01441MA1999999102151MD1999999+0131REMSYN076AAXX  21124 83398 32596 20000 10210 20193 30215 40221 81140 333 20144 58013;
0137833980999992006072118004-15667-038950FM-12+000599999V0200501N003112200019N0040001N1+02471+01771101951ADDGF102991011011008001041001MA1999999101891MD1999999+0171REMSYN070AAXX  21184 83398 32596 20506 10247 20177 30189 40195 81140 333 58017;
0168833980999992006072200004-15667-038950FM-12+000599999V0209999C000012200019N0010001N1+01821+01761102131ADDGF102991011011008001041001KA1240M+02591MA1999999102071MD1999999+0161REMSYN088AAXX  22004 83398 32594 20000 10182 20176 30207 40213 81140 333 10259 29087 55081 58016;
0156833980999992006072212004-15667-038950FM-12+000599999V0202301N001012200019N0040001N1+02061+01181102201ADDGF103991021011008001041001KA1240N+01421MA1999999102141MD1999999-0011REMSYN076AAXX  22124 83398 32596 32302 10206 20118 30214 40220 82140 333 20142 59001;
0156833980999992006072218004-15667-038950FM-12+000599999V0209999C000012200019N0040001N1+02521+01741101891ADDGF104991021021008001041001MA1999999101182MD1999999-0061REMSYN070AAXX  22184 83398 32596 40000 10252 20174 30118 40189 82240 333 59006;EQDQ01+101183APOSP 
0168833980999992006072300004-15667-038950FM-12+000599999V0209999C000012200019N0010001N1+01841+01741102041ADDGF103991021021008001041001KA1240M+02631MA1999999101981MD1999999-0091REMSYN088AAXX  23004 83398 32594 30000 10184 20174 30198 40204 82240 333 10263 29085 55076 59009;
0156833980999992006072312004-15667-038950FM-12+000599999V0201801N002110075019N0040001N1+02041+01911102001ADDGF108991051051008001021999KA1240N+01681MA1999999101941MD1999999-0201REMSYN076AAXX  23124 83398 32596 81804 10204 20191 30194 40200 8552/ 333 20168 59020;
0182833980999992006072318004-15667-038950FM-12+000599999V0201401N001010075019N0040001N1+02251+01991101711ADDAA106001091AY161061AY221061GF108991051051008001021999MA1999999101651MD1999999-0181MW1021REMSYN082AAXX  23184 83398 21596 81402 10225 20199 30165 40171 70262 8552/ 333 59018 69991;
0213833980999992006072400004-15667-038950FM-12+000599999V0209999C000010075019N0010001N1+02141+02121101861ADDAA106005191AY161061AY221061GF108991051051008001021999KA1240M+02401MA1999999101801MD1999999-0181MW1511REMSYN100AAXX  24004 83398 21594 80000 10214 20212 30180 40186 75162 8552/ 333 10240 29094 55000 59018 60051;
0201833980999992006072412004-15667-038950FM-12+000599999V0203601N002110075019N0040001N1+02521+01981101981ADDAA124009991AY161061AY221061GF107991051051008001021001KA1240N+02001MA1999999101921MD1999999-0021MW1021REMSYN088AAXX  24124 83398 21596 73604 10252 20198 30192 40198 70262 85520 333 20200 59002 60104;
0137833980999992006072418004-15667-038950FM-12+000599999V0203601N002110450019N0040001N1+02601+01761101821ADDGF106991041051008001021001MA1999999101761MD1999999+0111REMSYN070AAXX  24184 83398 32596 63604 10260 20176 30176 40182 84520 333 58011;
0168833980999992006072500004-15667-038950FM-12+000599999V0201801N002110450019N0010001N1+01821+01791101821ADDGF106991041051008001021001KA1240M+02681MA1999999101761MD1999999-0041REMSYN088AAXX  25004 83398 32594 61804 10182 20179 30176 40182 84520 333 10268 29082 55081 59004;
0156833980999992006072512004-15667-038950FM-12+000599999V0203601N002110450019N0040001N1+02121+01931101941ADDGF107991041051008001021001KA1240N+01501MA1999999101881MD1999999-0041REMSYN076AAXX  25124 83398 32596 73604 10212 20193 30188 40194 84520 333 20150 59004;
0182833980999992006072518004-15667-038950FM-12+000599999V0201801N002110450019N0040001N1+02461+01941101681ADDAA106002091AY161061AY221061GF107991041051008001021001MA1999999101621MD1999999-0141MW1021REMSYN082AAXX  25184 83398 21596 71804 10246 20194 30162 40168 70262 84520 333 59014 60021;
0168833980999992006072600004-15667-038950FM-12+000599999V0203601N002110075019N0010001N1+02361+01991101811ADDGF107991051051008001021001KA1240M+02501MA1999999101751MD1999999-0011REMSYN088AAXX  26004 83398 32594 73604 10236 20199 30175 40181 85520 333 10250 29081 55017 59001;
0173833980999992006072612004-15667-038950FM-12+000599999V0203601N002110450019N0040001N1+02321+02071101901ADDAA124002091GF105991031021008001041001KA1240N+01701MA1999999101841MD1999999-0041REMSYN082AAXX  26124 83398 22596 53604 10232 20207 30184 40190 83240 333 20170 59004 60024;
0137833980999992006072618004-15667-038950FM-12+000599999V0201801N002110450019N0040001N1+02521+01981101681ADDGF105991031051008001041001MA1999999101621MD1999999+0001REMSYN070AAXX  26184 83398 32596 51804 10252 20198 30162 40168 83540 333 58000;
0168833980999992006072700004-15667-038950FM-12+000599999V0203601N002112200019N0010001N1+02341+02091101861ADDGF103991031011008001001001KA1240M+02681MA1999999101801MD1999999+0051REMSYN088AAXX  27004 83398 32594 33604 10234 20209 30180 40186 83100 333 10268 29083 55054 58005;
0156833980999992006072712004-15667-038950FM-12+000599999V0203601N002110450019N0040001N1+02441+02131101891ADDGF105991021051008001041001KA1240N+01781MA1999999101831MD1999999-0011REMSYN076AAXX  27124 83398 32596 53604 10244 20213 30183 40189 82540 333 20178 59001;
0137833980999992006072718004-15667-038950FM-12+000599999V0200501N002110450019N0040001N1+02581+02171101661ADDGF106991031021008001041001MA1999999101601MD1999999-0021REMSYN070AAXX  27184 83398 32596 60504 10258 20217 30160 40166 83240 333 59002;
0168833980999992006072800004-15667-038950FM-12+000599999V0200501N002112200019N0010001N1+02381+02171101751ADDGF103991031011008001001001KA1240M+02721MA1999999101691MD1999999-0111REMSYN088AAXX  28004 83398 32594 30504 10238 20217 30169 40175 83100 333 10272 29084 55075 59011;
0201833980999992006072812004-15667-038950FM-12+000599999V0201801N002110075019N0040001N1+02341+02221101901ADDAA124002091AY161061AY221061GF107991051051008001021001KA1240N+01881MA1999999101841MD1999999+0011MW1021REMSYN088AAXX  28124 83398 21596 71804 10234 20222 30184 40190 70262 85520 333 20188 58001 60024;
0137833980999992006072818004-15667-038950FM-12+000599999V0203601N003110450019N0040001N1+02581+02211101581ADDGF106991041051008001021001MA1999999101521MD1999999-0081REMSYN070AAXX  28184 83398 32596 63606 10258 20221 30152 40158 84520 333 59008;
0168833980999992006072900004-15667-038950FM-12+000599999V0200501N002112200019N0010001N1+02281+02131101701ADDGF103991031011008001001001KA1240M+02701MA1999999101641MD1999999-0051REMSYN088AAXX  29004 83398 32594 30504 10228 20213 30164 40170 83100 333 10270 29089 55060 59005;
0156833980999992006072912004-15667-038950FM-12+000599999V0200901N003110450019N0040001N1+02561+02211101691ADDGF106991031051008001021001KA1240N+01801MA1999999101631MD1999999-0211REMSYN076AAXX  29124 83398 32596 60906 10256 20221 30163 40169 83520 333 20180 59021;
0137833980999992006072918004-15667-038950FM-12+000599999V0203601N003110450019N0040001N1+02601+02141101291ADDGF105991031021008001041001MA1999999101241MD1999999-0281REMSYN070AAXX  29184 83398 32596 53606 10260 20214 30124 40129 83240 333 59028;
0168833980999992006073000004-15667-038950FM-12+000599999V0203601N003112200019N0010001N1+02301+02131101461ADDGF104991021021008001041001KA1240M+02781MA1999999101411MD1999999-0231REMSYN088AAXX  30004 83398 32594 43606 10230 20213 30141 40146 82240 333 10278 29084 55078 59023;
0156833980999992006073012004-15667-038950FM-12+000599999V0203201N001012200019N0040001N1+02511+02301101711ADDGF104991021021008001041001KA1240N+01891MA1999999101651MD1999999+0021REMSYN076AAXX  30124 83398 32596 43202 10251 20230 30165 40171 82240 333 20189 58002;
0137833980999992006073018004-15667-038950FM-12+000599999V0203601N002112200019N0040001N1+02601+02191101561ADDGF103991021011008001041001MA1999999101501MD1999999+0261REMSYN070AAXX  30184 83398 32596 33604 10260 20219 30150 40156 82140 333 58026;
0168833980999992006073100004-15667-038950FM-12+000599999V0209999C000010450019N0010001N1+02241+02211101951ADDGF105991031021008001041001KA1240M+02781MA1999999101891MD1999999+0481REMSYN088AAXX  31004 83398 32594 50000 10224 20221 30189 40195 83240 333 10278 29089 55082 58048;
0156833980999992006073112004-15667-038950FM-12+000599999V0209999C000010075019N0040001N1+02351+02181102211ADDGF108991051051008001021999KA1240N+02121MA1999999102211MD1999999+0501REMSYN076AAXX  31124 83398 32596 80000 10235 20218 30221 40221 8552/ 333 20212 58050;
0137833980999992006073118004-15667-038950FM-12+000599999V0200901N003110450019N0040001N1+02581+02231102051ADDGF106991041051008001021001MA1999999101991MD1999999+0491REMSYN070AAXX  31184 83398 32596 60906 10258 20223 30199 40205 84520 333 58049;
0168833980999992006080100004-15667-038950FM-12+000599999V0209999C000010450019N0010001N1+02261+02211102231ADDGF106991041051008001021001KA1240M+02761MA1999999102171MD1999999+0281REMSYN088AAXX  01004 83398 32594 60000 10226 20221 30217 40223 84520 333 10276 29089 55043 58028;
0156833980999992006080112004-15667-038950FM-12+000599999V0209999C000010075019N0040001N1+02371+02271102371ADDGF108991051051008001021999KA1240N+01981MA1999999102311MD1999999+0161REMSYN076AAXX  01124 83398 32596 80000 10237 20227 30231 40237 8552/ 333 20198 58016;
0137833980999992006080118004-15667-038950FM-12+000599999V0200501N003112200019N0040001N1+02601+02191102091ADDGF104991021021008001041001MA1999999102031MD1999999+0041REMSYN070AAXX  01184 83398 32596 40506 10260 20219 30203 40209 82240 333 58004;
0168833980999992006080200004-15667-038950FM-12+000599999V0209999C000010450019N0010001N1+02201+02101102171ADDGF105991031021008001041001KA1240M+02741MA1999999102111MD1999999-0061REMSYN088AAXX  02004 83398 32594 50000 10220 20210 30211 40217 83240 333 10274 29090 55069 59006;
0156833980999992006080212004-15667-038950FM-12+000599999V0201801N001010450019N0040001N1+02381+02171102251ADDGF106991041051008001021001KA1240N+01931MA1999999102191MD1999999-0121REMSYN076AAXX  02124 83398 32596 61802 10238 20217 30219 40225 84520 333 20193 59012;
0137833980999992006080218004-15667-038950FM-12+000599999V0200501N003110075019N0040001N1+02581+02041101921ADDGF108991051051008001021999MA1999999101861MD1999999-0171REMSYN070AAXX  02184 83398 32596 80506 10258 20204 30186 40192 8552/ 333 59017;
0168833980999992006080300004-15667-038950FM-12+000599999V0209999C000010450019N0010001N1+02231+01981102111ADDGF107991041051008001021001KA1240M+02741MA1999999102051MD1999999-0061REMSYN088AAXX  03004 83398 32594 70000 10223 20198 30205 40211 84520 333 10274 29086 55051 59006;
0156833980999992006080312004-15667-038950FM-12+000599999V0209999C000010450019N0040001N1+02361+02191102191ADDGF106991031051008001021001KA1240N+01841MA1999999102131MD1999999-0061REMSYN076AAXX  03124 83398 32596 60000 10236 20219 30213 40219 83520 333 20184 59006;
0137833980999992006080318004-15667-038950FM-12+000599999V0200901N001012200019N0040001N1+02571+02121101891ADDGF104991021021008001041001MA1999999101831MD1999999-0031REMSYN070AAXX  03184 83398 32596 40902 10257 20212 30183 40189 82240 333 59003;
0168833980999992006080400004-15667-038950FM-12+000599999V0209999C000010450019N0010001N1+02241+02121102101ADDGF106991041051008001021001KA1240M+02701MA1999999102041MD1999999-0011REMSYN088AAXX  04004 83398 32594 60000 10224 20212 30204 40210 84520 333 10270 29088 55072 59001;
0220833980999992006080412004-15667-038950FM-12+000599999V0209999C000010450019N0040001N1+02441+02171102101ADDAA124000091AY151061AY221061GF106991041051008001021001KA1240N+01991MA1999999102041MD1999999-0091MW1021REMSYN088AAXX  04124 83398 21596 60000 10244 20217 30204 40210 70252 84520 333 20199 59009 69914;EQDQ01  00002PRCP24
0137833980999992006080418004-15667-038950FM-12+000599999V0203601N002110450019N0040001N1+02551+02051101811ADDGF106991041051008001021001MA1999999101751MD1999999-0081REMSYN070AAXX  04184 83398 32596 63604 10255 20205 30175 40181 84520 333 59008;
0213833980999992006080500004-15667-038950FM-12+000599999V0209999C000010075019N0010001N1+02181+01951102051ADDAA106006191AY161061AY221061GF108991051051008001021999KA1240M+02681MA1999999101991MD1999999-0051MW1021REMSYN100AAXX  05004 83398 21594 80000 10218 20195 30199 40205 70262 8552/ 333 10268 29083 55078 59005 60061;
0201833980999992006080512004-15667-038950FM-12+000599999V0203601N001010075019N0040001N1+02481+02031102151ADDAA124006191AY161061AY221061GF108991051051008001021999KA1240N+01971MA1999999102091MD1999999+0051MW1021REMSYN088AAXX  05124 83398 21596 83602 10248 20203 30209 40215 70262 8552/ 333 20197 58005 60064;
0137833980999992006080518004-15667-038950FM-12+000599999V0200501N003110450019N0040001N1+02581+01941101951ADDGF106991031021008001041001MA1999999101891MD1999999+0141REMSYN070AAXX  05184 83398 32596 60506 10258 20194 30189 40195 83240 333 58014;
0168833980999992006080600004-15667-038950FM-12+000599999V0200501N003110450019N0010001N1+02381+01971102141ADDGF106991031051008001021001KA1240M+02681MA1999999102081MD1999999+0091REMSYN088AAXX  06004 83398 32594 60506 10238 20197 30208 40214 83520 333 10268 29075 55059 58009;
0201833980999992006080612004-15667-038950FM-12+000599999V0200501N003110450019N0040001N1+02521+01911102231ADDAA124000391AY151061AY221061GF105991031021008001041001KA1240N+01861MA1999999102171MD1999999+0081MW1021REMSYN088AAXX  06124 83398 21596 50506 10252 20191 30217 40223 70252 83240 333 20186 58008 69934;
0201833980999992006080618004-15667-038950FM-12+000599999V0200901N002110450019N0040001N1+02541+01811102001ADDAA106000091AY151061AY221061GF105991031021008001041001MA1999999101941MD1999999+0051MW1021REMSYN082AAXX  06184 83398 21596 50904 10254 20181 30194 40200 70252 83240 333 58005 69911;EQDQ01  00002PRCP06
0168833980999992006080700004-15667-038950FM-12+000599999V0200901N002110450019N0010001N1+02291+01841102151ADDGF105991031021008001041001KA1240M+02681MA1999999102091MD1999999+0011REMSYN088AAXX  07004 83398 32594 50904 10229 20184 30209 40215 83240 333 10268 29071 55079 58001;
0192833980999992006080712004-15667-038950FM-12+000599999V0209999C000010450019N0040001N1+02161+01881102151ADDAA124000091GF107991041051008001021001KA1240N+01601MA1999999102091MD1999999-0081REMSYN082AAXX  07124 83398 22596 70000 10216 20188 30209 40215 84520 333 20160 59008 69914;EQDQ01  00002PRCP24
0137833980999992006080718004-15667-038950FM-12+000599999V0200901N002110450019N0040001N1+02541+01881101921ADDGF105991031021008001041001MA1999999101861MD1999999-0081REMSYN070AAXX  07184 83398 32596 50904 10254 20188 30186 40192 83240 333 59008;
0168833980999992006080800004-15667-038950FM-12+000599999V0200901N002110450019N0010001N1+02321+01831102131ADDGF105991031021008001041001KA1240M+02671MA1999999102071MD1999999-0021REMSYN088AAXX  08004 83398 32594 50904 10232 20183 30207 40213 83240 333 10267 29075 55080 59002;
0156833980999992006080812004-15667-038950FM-12+000599999V0209999C000010450019N0040001N1+02261+01901102121ADDGF107991041051008001021001KA1240N+01581MA1999999102061MD1999999-0031REMSYN076AAXX  08124 83398 32596 70000 10226 20190 30206 40212 84520 333 20158 59003;
0137833980999992006080818004-15667-038950FM-12+000599999V0200901N004110450019N0040001N1+02541+01861101851ADDGF107991041051008001021001MA1999999101791MD1999999-0071REMSYN070AAXX  08184 83398 32596 70908 10254 20186 30179 40185 84520 333 59007;
0168833980999992006080900004-15667-038950FM-12+000599999V0209999C000010450019N0010001N1+02141+01991102051ADDGF107991041051008001021001KA1240M+02681MA1999999101991MD1999999-0081REMSYN088AAXX  09004 83398 32594 70000 10214 20199 30199 40205 84520 333 10268 29082 55074 59008;
0201833980999992006080912004-15667-038950FM-12+000599999V0200901N003110075019N0040001N1+02411+02021102071ADDAA124000891AY161061AY221061GF108991051051008001021999KA1240N+02081MA1999999102011MD1999999-0051MW1021REMSYN088AAXX  09124 83398 21596 80906 10241 20202 30201 40207 70262 8552/ 333 20208 59005 69984;
0182833980999992006080918004-15667-038950FM-12+000599999V0200501N002110075019N0040001N1+02381+02071101851ADDAA106008991AY161061AY221061GF108991051051008001021999MA1999999101791MD1999999+0001MW1021REMSYN082AAXX  09184 83398 21596 80504 10238 20207 30179 40185 70262 8552/ 333 58000 60091;
0213833980999992006081000004-15667-038950FM-12+000599999V0200501N002110450019N0010001N1+02361+01991102071ADDAA106002091AY161061AY221061GF107991041051008001021001KA1240M+02461MA1999999102011MD1999999+0021MW1021REMSYN100AAXX  10004 83398 21594 70504 10236 20199 30201 40207 70262 84520 333 10246 29081 55001 58002 60021;
0201833980999992006081012004-15667-038950FM-12+000599999V0200501N003110075019N0040001N1+02311+02151102211ADDAA124011991AY151061AY221061GF108991051051008001021041KA1240N+01981MA1999999102151MD1999999+0141MW1501REMSYN088AAXX  10124 83398 21596 80506 10231 20215 30215 40221 75052 85524 333 20198 58014 60124;
0173833980999992006081112004-15667-038950FM-12+000599999V0200501N003110450019N0040001N1+02501+02051102061ADDAA124000591GF107991041051008001021001KA1240N+01901MA1999999102001MD1999999-0151REMSYN082AAXX  11124 83398 22596 70506 10250 20205 30200 40206 84520 333 20190 59015 69964;
0201833980999992006081118004-15667-038950FM-12+000599999V0200501N002110450019N0040001N1+02481+01981101971ADDAA106000091AY151061AY201061GF107991041051008001021001MA1999999101911MD1999999+0061MW1021REMSYN082AAXX  11184 83398 21596 70504 10248 20198 30191 40197 70250 84520 333 58006 69921;EQDQ01  00002PRCP06
0201833980999992006081212004-15667-038950FM-12+000599999V0200501N003110075019N0040001N1+02401+02051102131ADDAA124006191AY161061AY221061GF108991051051008001021999KA1240N+02051MA1999999102071MD1999999+0071MW1021REMSYN088AAXX  12124 83398 21596 80506 10240 20205 30207 40213 70262 8552/ 333 20205 58007 60064;
0182833980999992006081218004-15667-038950FM-12+000599999V0200501N002110450019N0040001N1+02461+02031101901ADDAA106002091AY161061AY221061GF107991041051008001021001MA1999999101841MD1999999-0071MW1021REMSYN082AAXX  12184 83398 21596 70504 10246 20203 30184 40190 70262 84520 333 59007 60021;
0213833980999992006081300004-15667-038950FM-12+000599999V0209999C000010075019N0010001N1+02321+02091102041ADDAA106004191AY161061AY221061GF108991051051008001021999KA1240M+02521MA1999999101981MD1999999+0031MW1021REMSYN100AAXX  13004 83398 21594 80000 10232 20209 30198 40204 70262 8552/ 333 10252 29083 55022 58003 60041;
0207833980999992006081312004-15667-038950FM-12+000599999V0200501N002110075019N0040001N1+02481+02011102111ADDAA124009091AY161061AY221061GF108991051051008001021999KA1240N+02101MA1999999102051MD1999999-0021MW1021REMSYN094AAXX  13124 83398 21596 80504 10248 20201 30205 40211 70262 8552/ 333 20210 59002 60094 10088;
0137833980999992006081318004-15667-038950FM-12+000599999V0200501N002110075019N0040001N1+02541+02041101861ADDGF108991051051008001021999MA1999999101801MD1999999-0041REMSYN070AAXX  13184 83398 32596 80504 10254 20204 30180 40186 8552/ 333 59004;
0168833980999992006081400004-15667-038950FM-12+000599999V0209999C000010450019N0010001N1+02221+02071101961ADDGF107991041051008001021001KA1240M+02681MA1999999101901MD1999999-0081REMSYN088AAXX  14004 83398 32594 70000 10222 20207 30190 40196 84520 333 10268 29083 55061 59008;
0201833980999992006081412004-15667-038950FM-12+000599999V0209999C000010075019N0040001N1+02251+02131102001ADDAA124022191AY161061AY221061GF108991051051008001021999KA1240N+02041MA1999999101941MD1999999-0111MW1021REMSYN088AAXX  14124 83398 21596 80000 10225 20213 30194 40200 70262 8552/ 333 20204 59011 60224;
0182833980999992006081418004-15667-038950FM-12+000599999V0200501N003110075019N0040001N1+02551+02001101781ADDAA106002091AY161061AY221061GF108991051051008001021999MA1999999101721MD1999999-0081MW1021REMSYN082AAXX  14184 83398 21596 80506 10255 20200 30172 40178 70262 8552/ 333 59008 60021;
0168833980999992006081500004-15667-038950FM-12+000599999V0209999C000012200019N0010001N1+02011+01961101881ADDGF104991021021008001041001KA1240M+02611MA1999999101821MD1999999-0081REMSYN088AAXX  15004 83398 32594 40000 10201 20196 30182 40188 82240 333 10261 29089 55000 59008;
0173833980999992006081512004-15667-038950FM-12+000599999V0209999C000012200019N0040001N1+02361+02071102071ADDAA124002091GF102991011021008001041001KA1240N+01711MA1999999102011MD1999999+0071REMSYN082AAXX  15124 83398 22596 20000 10236 20207 30201 40207 81240 333 20171 58007 60024;
0201833980999992006081518004-15667-038950FM-12+000599999V0201401N001012200019N0040001N1+02591+01951101771ADDAA106000091AY151061AY221061GF103991021021008001041001MA1999999101711MD1999999-0011MW1011REMSYN082AAXX  15184 83398 21596 31402 10259 20195 30171 40177 70152 82240 333 59001 69911;EQDQ01  00002PRCP06
0168833980999992006081600004-15667-038950FM-12+000599999V0209999C000012200019N0010001N1+02041+01941101931ADDGF102991011011008001041001KA1240M+02681MA1999999101871MD1999999+0051REMSYN088AAXX  16004 83398 32594 20000 10204 20194 30187 40193 81140 333 10268 29085 55083 58005;
0192833980999992006081612004-15667-038950FM-12+000599999V0209999C000010450019N0040001N1+02301+02091102001ADDAA124000091GF107991041051008001021001KA1240N+01791MA1999999101941MD1999999-0071REMSYN082AAXX  16124 83398 22596 70000 10230 20209 30194 40200 84520 333 20179 59007 69914;EQDQ01  00002PRCP24
0201833980999992006081618004-15667-038950FM-12+000599999V0200501N002110450019N0040001N1+02561+02021101691ADDAA106000091AY151061AY221061GF107991041051008001021001MA1999999101631MD1999999-0081MW1021REMSYN082AAXX  16184 83398 21596 70504 10256 20202 30163 40169 70252 84520 333 59008 69911;EQDQ01  00002PRCP06
0168833980999992006081700004-15667-038950FM-12+000599999V0209999C000010450019N0010001N1+02071+01901101971ADDGF105991031021008001041001KA1240M+02681MA1999999101911MD1999999+0041REMSYN088AAXX  17004 83398 32594 50000 10207 20190 30191 40197 83240 333 10268 29085 55030 58004;
0192833980999992006081712004-15667-038950FM-12+000599999V0209999C000010450019N0040001N1+02481+02171101991ADDAA124000091GF106991041051008001041001KA1240N+01821MA1999999101931MD1999999-0011REMSYN082AAXX  17124 83398 22596 60000 10248 20217 30193 40199 84540 333 20182 59001 69914;EQDQ01  00002PRCP24
0137833980999992006081718004-15667-038950FM-12+000599999V0200501N002112200019N0040001N1+02621+01911101661ADDGF103991021011008001041001MA1999999101601MD1999999-0031REMSYN070AAXX  17184 83398 32596 30504 10262 20191 30160 40166 82140 333 59003;
0168833980999992006081800004-15667-038950FM-12+000599999V0200501N003112200019N0010001N1+02341+01911101851ADDGF103991021011008001041001KA1240M+02711MA1999999101791MD1999999-0121REMSYN088AAXX  18004 83398 32594 30506 10234 20191 30179 40185 82140 333 10271 29076 55079 59012;
0156833980999992006081812004-15667-038950FM-12+000599999V0209999C000010450019N0040001N1+02231+02001101991ADDGF107991041051008001021001KA1240N+01681MA1999999101931MD1999999+0001REMSYN076AAXX  18124 83398 32596 70000 10223 20200 30193 40199 84520 333 20168 58000;
0137833980999992006081818004-15667-038950FM-12+000599999V0200501N002112200019N0040001N1+02601+01821101681ADDGF104991021021008001041001MA1999999101621MD1999999+0021REMSYN070AAXX  18184 83398 32596 40504 10260 20182 30162 40168 82240 333 58002;
0168833980999992006081900004-15667-038950FM-12+000599999V0209999C000012200019N0010001N1+01941+01871101841ADDGF103991021011008001041001KA1240M+02711MA1999999101781MD1999999-0011REMSYN088AAXX  19004 83398 32594 30000 10194 20187 30178 40184 82140 333 10271 29085 55068 59001;
0207833980999992006081912004-15667-038950FM-12+000599999V0202301N001010075019N0040001N1+02141+02041101871ADDAA124001091AY161061AY221061GF108991051051008001021999KA1240N+01721MA1999999101811MD1999999-0121MW1021REMSYN094AAXX  19124 83398 21596 82302 10214 20204 30181 40187 70262 8552/ 333 20172 59012 60014 10011;
0182833980999992006081918004-15667-038950FM-12+000599999V0200501N002110450019N0040001N1+02461+02071101491ADDAA106000891AY161061AY221061GF107991041051008001021001MA1999999101441MD1999999-0181MW1021REMSYN082AAXX  19184 83398 21596 70504 10246 20207 30144 40149 70262 84520 333 59018 69971;
0168833980999992006082000004-15667-038950FM-12+000599999V0203601N004110450019N0010001N1+02211+02001101721ADDGF105991031051008001041001KA1240M+02661MA1999999101661MD1999999-0121REMSYN088AAXX  20004 83398 32594 53608 10221 20200 30166 40172 83540 333 10266 29087 55045 59012;
0173833980999992006082012004-15667-038950FM-12+000599999V0203201N002110450019N0010001N1+02591+02071101791ADDAA124000891GF105991031021008001041001KA1240N+01921MA1999999101731MD1999999-0081REMSYN082AAXX  20124 83398 22594 53204 10259 20207 30173 40179 83240 333 20192 59008 69974;
0137833980999992006082018004-15667-038950FM-12+000599999V0203601N004110450019N0040001N1+02561+02131101341ADDGF105991031051008001041001MA1999999101281MD1999999-0161REMSYN070AAXX  20184 83398 32596 53608 10256 20213 30128 40134 83540 333 59016;
0168833980999992006082100004-15667-038950FM-12+000599999V0203201N002112200019N0010001N1+02341+02091101561ADDGF104991021021008001041001KA1240M+02731MA1999999101501MD1999999-0161REMSYN088AAXX  21004 83398 32594 43204 10234 20209 30150 40156 82240 333 10273 29081 55076 59016;
0156833980999992006082112004-15667-038950FM-12+000599999V0203201N001010450019N0040001N1+02541+02151101721ADDGF106991041051008001021001KA1240N+01901MA1999999101661MD1999999-0071REMSYN076AAXX  21124 83398 32596 63202 10254 20215 30166 40172 84520 333 20190 59007;
0137833980999992006082118004-15667-038950FM-12+000599999V0203601N001012200019N0040001N1+02601+02191101421ADDGF103991021011008001041001MA1999999101371MD1999999+0091REMSYN070AAXX  21184 83398 32596 33602 10260 20219 30137 40142 82140 333 58009;
0168833980999992006082200004-15667-038950FM-12+000599999V0200501N001012200019N0010001N1+02421+02071101791ADDGF104991021021008001041001KA1240M+02791MA1999999101731MD1999999+0231REMSYN088AAXX  22004 83398 32594 40502 10242 20207 30173 40179 82240 333 10279 29080 55081 58023;
0156833980999992006082212004-15667-038950FM-12+000599999V0209999C000010450019N0040001N1+02421+02211102141ADDGF107991041051008001021001KA1240N+01951MA1999999102041MD1999999+0421REMSYN076AAXX  22124 83398 32596 70000 10242 20221 30204 40214 84520 333 20195 58042;
0137833980999992006082218004-15667-038950FM-12+000599999V0200901N003110450019N0040001N1+02601+01991101901ADDGF105991031021008001041001MA1999999101841MD1999999+0471REMSYN070AAXX  22184 83398 32596 50906 10260 20199 30184 40190 83240 333 58047;
0168833980999992006082300004-15667-038950FM-12+000599999V0200901N003110450019N0010001N1+02361+02071102101ADDGF105991031021008001041001KA1240M+02751MA1999999102041MD1999999+0311REMSYN088AAXX  23004 83398 32594 50906 10236 20207 30204 40210 83240 333 10275 29081 55064 58031;
0156833980999992006082312004-15667-038950FM-12+000599999V0203601N001010450019N0040001N1+02541+02131102191ADDGF106991041051008001021001KA1240N+01981MA1999999102131MD1999999+0051REMSYN076AAXX  23124 83398 32596 63602 10254 20213 30213 40219 84520 333 20198 58005;
0137833980999992006082318004-15667-038950FM-12+000599999V0203601N002110450019N0040001N1+02591+02051101911ADDGF105991031021008001041001MA1999999101851MD1999999+0011REMSYN070AAXX  23184 83398 32596 53604 10259 20205 30185 40191 83240 333 58001;
0168833980999992006082400004-15667-038950FM-12+000599999V0209999C000012200019N0010001N1+02341+02091102031ADDGF104991021021008001041001KA1240M+02751MA1999999101971MD1999999-0071REMSYN088AAXX  24004 83398 32594 40000 10234 20209 30197 40203 82240 333 10275 29081 55068 59007;
0156833980999992006082412004-15667-038950FM-12+000599999V0209999C000010450019N0040001N1+02451+02181102141ADDGF107991041051008001021001KA1240N+01881MA1999999102081MD1999999-0051REMSYN076AAXX  24124 83398 32596 70000 10245 20218 30208 40214 84520 333 20188 59005;
0137833980999992006082418004-15667-038950FM-12+000599999V0200901N002110450019N0040001N1+02611+02021101961ADDGF105991031021008001041001MA1999999101901MD1999999+0051REMSYN070AAXX  24184 83398 32596 50904 10261 20202 30190 40196 83240 333 58005;
0168833980999992006082500004-15667-038950FM-12+000599999V0209999C000010450019N0010001N1+02361+02031102161ADDGF105991031021008001041001KA1240M+02701MA1999999102101MD1999999+0131REMSYN088AAXX  25004 83398 32594 50000 10236 20203 30210 40216 83240 333 10270 29080 55045 58013;
0156833980999992006082512004-15667-038950FM-12+000599999V0200901N004110450019N0040001N1+02581+01991102161ADDGF106991031021008001041001KA1240N+01851MA1999999102101MD1999999+0021REMSYN076AAXX  25124 83398 32596 60908 10258 20199 30210 40216 83240 333 20185 58002;
0137833980999992006082518004-15667-038950FM-12+000599999V0200901N002110450019N0040001N1+02581+01921101871ADDGF105991031021008001041001MA1999999101811MD1999999-0091REMSYN070AAXX  25184 83398 32596 50904 10258 20192 30181 40187 83240 333 59009;
0168833980999992006082600004-15667-038950FM-12+000599999V0200901N002110450019N0010001N1+02361+01891102051ADDGF105991031021008001041001KA1240M+02741MA1999999101991MD1999999-0111REMSYN088AAXX  26004 83398 32594 50904 10236 20189 30199 40205 83240 333 10274 29072 55077 59011;
0156833980999992006082612004-15667-038950FM-12+000599999V0200501N004110075019N0040001N1+02441+01971102021ADDGF108991051051008001021999KA1240N+02161MA1999999101961MD1999999-0141REMSYN076AAXX  26124 83398 32596 80508 10244 20197 30196 40202 8552/ 333 20216 59014;
0137833980999992006082618004-15667-038950FM-12+000599999V0209999C000010075019N0040001N1+02501+02001101711ADDGF108991051051008001021999MA1999999101651MD1999999-0161REMSYN070AAXX  26184 83398 32596 80000 10250 20200 30165 40171 8552/ 333 59016;
0232833980999992006082700004-15667-038950FM-12+000599999V0200501N003112200019N0010001N1+02361+01931101841ADDAA106000091AY151061AY221061GF104991021021008001041001KA1240M+02621MA1999999101781MD1999999-0211MW1021REMSYN100AAXX  27004 83398 21594 40506 10236 20193 30178 40184 70252 82240 333 10262 29076 55020 59021 69921;EQDQ01  00002PRCP06
0201833980999992006082712004-15667-038950FM-12+000599999V0209999C000010450019N0040001N1+02341+02091101861ADDAA124002091AY161061AY221061GF106991041021008001041001KA1240N+01911MA1999999101801MD1999999-0161MW1021REMSYN088AAXX  27124 83398 21596 60000 10234 20209 30180 40186 70262 84240 333 20191 59016 60024;
0137833980999992006082718004-15667-038950FM-12+000599999V0203601N004112200019N0040001N1+02611+02021101481ADDGF104991021011008001041001MA1999999101431MD1999999-0221REMSYN070AAXX  27184 83398 32596 43608 10261 20202 30143 40148 82140 333 59022;
0168833980999992006082800004-15667-038950FM-12+000599999V0209999C000012200019N0010001N1+02101+02001101661ADDGF103991021011008001041001KA1240M+02741MA1999999101601MD1999999-0181REMSYN088AAXX  28004 83398 32594 30000 10210 20200 30160 40166 82140 333 10274 29086 55070 59018;
0156833980999992006082812004-15667-038950FM-12+000599999V0203201N002110450019N0040001N1+02631+02131101801ADDGF105991031021008001041001KA1240N+01731MA1999999101741MD1999999-0061REMSYN076AAXX  28124 83398 32596 53204 10263 20213 30174 40180 83240 333 20173 59006;
0137833980999992006082818004-15667-038950FM-12+000599999V0203601N004112200019N0040001N1+02641+02091101511ADDGF102991011011008001041001MA1999999101461MD1999999+0031REMSYN070AAXX  28184 83398 32596 23608 10264 20209 30146 40151 81140 333 58003;
0168833980999992006082900004-15667-038950FM-12+000599999V0203601N002112200019N0010001N1+02361+02051101661ADDGF104991021021008001041001KA1240M+02781MA1999999101601MD1999999+0001REMSYN088AAXX  29004 83398 32594 43604 10236 20205 30160 40166 82240 333 10278 29078 55088 58000;
0156833980999992006082912004-15667-038950FM-12+000599999V0203601N003110450019N0040001N1+02641+02161101761ADDGF105991031051008001041001KA1240N+01871MA1999999101701MD1999999-0041REMSYN076AAXX  29124 83398 32596 53606 10264 20216 30170 40176 83540 333 20187 59004;
0137833980999992006082918004-15667-038950FM-12+000599999V0203601N002112200019N0040001N1+02641+02161101371ADDGF102991011011008001041001MA1999999101321MD1999999-0141REMSYN070AAXX  29184 83398 32596 23604 10264 20216 30132 40137 81140 333 59014;
0168833980999992006083000004-15667-038950FM-12+000599999V0209999C000010450019N0010001N1+02391+02001101551ADDGF105991031021008001041001KA1240M+02791MA1999999101491MD1999999-0111REMSYN088AAXX  30004 83398 32594 50000 10239 20200 30149 40155 83240 333 10279 29077 55088 59011;
0201833980999992006083012004-15667-038950FM-12+000599999V0201401N003110075019N0040001N1+02201+02101101991ADDAA124006191AY111061AY261061GF108991051051008001021999KA1240N+02081MA1999999101931MD1999999+0231MW1511REMSYN088AAXX  30124 83398 21596 81406 10220 20210 30193 40199 75116 8552/ 333 20208 58023 60064;
0182833980999992006083018004-15667-038950FM-12+000599999V0201401N005110075019N0040001N1+02201+01921101871ADDAA106008991AY161061AY221061GF108991051051008001021021MA1999999101811MD1999999+0491MW1021REMSYN082AAXX  30184 83398 21596 81410 10220 20192 30181 40187 70262 85522 333 58049 60091;
0213833980999992006083100004-15667-038950FM-12+000599999V0201401N001010075019N0010001N1+01931+01861102221ADDAA106002091AY161061AY221061GF108991051051008001021999KA1240M+02421MA1999999102161MD1999999+0671MW1021REMSYN100AAXX  31004 83398 21594 81402 10193 20186 30216 40222 70262 8552/ 333 10242 29093 55000 58067 60021;
0173833980999992006083112004-15667-038950FM-12+000599999V0201801N002110075019N0040001N1+02061+01741102281ADDAA124009991GF108991051051008001021999KA1240N+01831MA1999999102221MD1999999+0291REMSYN082AAXX  31124 83398 22596 81804 10206 20174 30222 40228 8552/ 333 20183 58029 60104;
0137833980999992006083118004-15667-038950FM-12+000599999V0201401N005110450019N0040001N1+02421+01621101861ADDGF105991031021008001041001MA1999999101801MD1999999-0011REMSYN070AAXX  31184 83398 32596 51410 10242 20162 30180 40186 83240 333 59001;
0168833980999992006090100004-15667-038950FM-12+000599999V0201401N001010450019N0010001N1+01761+01561102031ADDGF105991031021008001041001KA1240M+02551MA1999999101971MD1999999-0191REMSYN088AAXX  01004 83398 32594 51402 10176 20156 30197 40203 83240 333 10255 29080 55040 59019;
0156833980999992006090112004-15667-038950FM-12+000599999V0201401N001010450019N0040001N1+02181+01671102001ADDGF107991041051008001021001KA1240N+01641MA1999999101941MD1999999-0281REMSYN076AAXX  01124 83398 32596 71402 10218 20167 30194 40200 84520 333 20164 59028;
0137833980999992006090118004-15667-038950FM-12+000599999V0200901N002112200019N0040001N1+02481+01371101611ADDGF102991011011008001041001MA1999999101551MD1999999-0251REMSYN070AAXX  01184 83398 32596 20904 10248 20137 30155 40161 81140 333 59025;
0168833980999992006090200004-15667-038950FM-12+000599999V0209999C000012200019N0010001N1+02161+01521101731ADDGF102991011011008001041001KA1240M+02581MA1999999101671MD1999999-0301REMSYN088AAXX  02004 83398 32594 20000 10216 20152 30167 40173 81140 333 10258 29064 55065 59030;
0156833980999992006090212004-15667-038950FM-12+000599999V0209999C000012200019N0040001N1+02321+01791101651ADDGF102991011011008001041001KA1240N+01291MA1999999101591MD1999999-0231REMSYN076AAXX  02124 83398 32596 20000 10232 20179 30159 40165 81140 333 20129 59023;
0137833980999992006090218004-15667-038950FM-12+000599999V0203601N003112200019N0040001N1+02491+01841101171ADDGF101991011011008001001001MA1999999101121MD1999999-0251REMSYN070AAXX  02184 83398 32596 13606 10249 20184 30112 40117 81100 333 59025;
0156833980999992006090312004-15667-038950FM-12+000599999V0203201N002110450019N0040001N1+02471+01891101461ADDGF105991031021008001041001KA1240N+01721MA1999999101411MD1999999-0181REMSYN076AAXX  03124 83398 32596 53204 10247 20189 30141 40146 83240 333 20172 59018;
0137833980999992006090318004-15667-038950FM-12+000599999V0203601N007212200019N0040001N1+02571+01981101081ADDGF101991011011008001001001MA1999999101031MD1999999-0091REMSYN070AAXX  03184 83398 32596 13614 10257 20198 30103 40108 81100 333 59009;
0168833980999992006090400004-15667-038950FM-12+000599999V0200901N002112200019N0010001N1+02381+02111101281ADDGF102991021011008001001001KA1240M+02721MA1999999101231MD1999999-0121REMSYN088AAXX  04004 83398 32594 20904 10238 20211 30123 40128 82100 333 10272 29078 55085 59012;
0156833980999992006090412004-15667-038950FM-12+000599999V0201401N003110450019N0040001N1+02701+02201101691ADDGF105991031021008001041001KA1240N+01961MA1999999101631MD1999999+0221REMSYN076AAXX  04124 83398 32596 51406 10270 20220 30163 40169 83240 333 20196 58022;
0137833980999992006090418004-15667-038950FM-12+000599999V0200901N003110450019N0040001N1+02661+02221101341ADDGF106991031021008001041011MA1999999101291MD1999999+0261REMSYN070AAXX  04184 83398 32596 60906 10266 20222 30129 40134 83241 333 58026;
0168833980999992006090500004-15667-038950FM-12+000599999V0200901N003110450019N0010001N1+02441+02271101571ADDGF106991041051008001021001KA1240M+02831MA1999999101521MD1999999+0291REMSYN088AAXX  05004 83398 32594 60906 10244 20227 30152 40157 84520 333 10283 29083 55075 58029;
0220833980999992006090512004-15667-038950FM-12+000599999V0209999C000010075019N0040001N1+02381+02261101901ADDAA124000091AY151061AY221061GF108991051051008001021999KA1240N+02101MA1999999101841MD1999999+0211MW1021REMSYN088AAXX  05124 83398 21596 80000 10238 20226 30184 40190 70252 8552/ 333 20210 58021 69924;EQDQ01  00002PRCP24
0137833980999992006090518004-15667-038950FM-12+000599999V0201801N003110450019N0040001N1+02661+02221101671ADDGF106991041051008001021001MA1999999101611MD1999999+0321REMSYN070AAXX  05184 83398 32596 61806 10266 20222 30161 40167 84520 333 58032;
0232833980999992006090600004-15667-038950FM-12+000599999V0203601N003110075019N0010001N1+02201+02131101591ADDAA106000091AY151061AY221061GF108991051051008001021999KA1240M+02721MA1999999101541MD1999999+0021MW1021REMSYN100AAXX  06004 83398 21594 83606 10220 20213 30154 40159 70252 8552/ 333 10272 29091 55006 58002 69921;EQDQ01  00002PRCP06
0201833980999992006090612004-15667-038950FM-12+000599999V0201801N003110450019N0040001N1+02121+02051102301ADDAA124005191AY161061AY221061GF108991041071008001021999KA1240N+01981MA1999999102241MD1999999+0401MW1601REMSYN088AAXX  06124 83398 21596 81806 10212 20205 30224 40230 76062 8472/ 333 20198 58040 60054;
0182833980999992006090618004-15667-038950FM-12+000599999V0201801N004110075019N0040001N1+02181+02151102011ADDAA106003091AY161061AY221061GF108991051071008001021999MA1999999101951MD1999999+0341MW1501REMSYN082AAXX  06184 83398 21596 81808 10218 20215 30195 40201 75062 8572/ 333 58034 60031;
0213833980999992006090700004-15667-038950FM-12+000599999V0202701N003110075019N0010001N1+02021+01981102311ADDAA106004191AY161061AY221061GF108991051071008001021999KA1240M+02391MA1999999102251MD1999999+0711MW1521REMSYN100AAXX  07004 83398 21594 82706 10202 20198 30225 40231 75262 8572/ 333 10239 29098 55001 58071 60041;
0201833980999992006090712004-15667-038950FM-12+000599999V0201801N002110075019N0040001N1+01921+01891101381ADDAA124013091AY161061AY221061GF108991051051008001021999KA1240N+01781MA1999999101321MD1999999+0081MW1021REMSYN088AAXX  07124 83398 21596 81804 10192 20189 30132 40138 70262 8552/ 333 20178 58008 60134;
0201833980999992006090718004-15667-038950FM-12+000599999V0201401N004110075019N0040001N1+02321+01911102091ADDAA106000091AY151061AY221061GF108991051051008001021999MA1999999102031MD1999999+0081MW1021REMSYN082AAXX  07184 83398 21596 81408 10232 20191 30203 40209 70252 8552/ 333 58008 69911;EQDQ01  00002PRCP06
0213833980999992006090800004-15667-038950FM-12+000599999V0201401N003110075019N0010001N1+02261+01901102301ADDAA106000591AY151061AY221061GF108991051051008001021999KA1240M+02541MA1999999102241MD1999999-0011MW1021REMSYN100AAXX  08004 83398 21594 81406 10226 20190 30224 40230 70252 8552/ 333 10254 29084 55007 59001 69941;
0201833980999992006090812004-15667-038950FM-12+000599999V0201401N003110075019N0040001N1+02261+01821102361ADDAA124002091AY151061AY221061GF108991051051008001021999KA1240N+01901MA1999999102301MD1999999-0021MW1021REMSYN088AAXX  08124 83398 21596 81406 10226 20182 30230 40236 70252 8552/ 333 20190 59002 60024;
0137833980999992006090818004-15667-038950FM-12+000599999V0201801N003110075019N0040001N1+02361+01541102131ADDGF108991051051008001021999MA1999999102071MD1999999+0041REMSYN070AAXX  08184 83398 32596 81806 10236 20154 30207 40213 8552/ 333 58004;
0168833980999992006090900004-15667-038950FM-12+000599999V0202701N002110450019N0010001N1+01841+01811102331ADDGF105991031051008001041001KA1240M+02541MA1999999102281MD1999999+0041REMSYN088AAXX  09004 83398 32594 52704 10184 20181 30228 40233 83540 333 10254 29083 55024 58004;
0201833980999992006090912004-15667-038950FM-12+000599999V0203601N003110450019N0040001N1+02101+01981102251ADDAA124002091AY161061AY221061GF106991041051008001041001KA1240N+01621MA1999999102191MD1999999-0111MW1021REMSYN088AAXX  09124 83398 21596 63606 10210 20198 30219 40225 70262 84540 333 20162 59011 60024;
0137833980999992006090918004-15667-038950FM-12+000599999V0200901N003110450019N0040001N1+02401+01771101901ADDGF106991041051008001021001MA1999999101841MD1999999-0231REMSYN070AAXX  09184 83398 32596 60906 10240 20177 30184 40190 84520 333 59023;
0173833980999992006091012004-15667-038950FM-12+000599999V0201801N002110075019N0040001N1+02361+02111102241ADDAA124000591GF108991051051008001021999KA1240N+01881MA1999999102181MD1999999-0011REMSYN082AAXX  10124 83398 22596 81804 10236 20211 30218 40224 8552/ 333 20188 59001 69944;
0182833980999992006091018004-15667-038950FM-12+000599999V0201801N003110450019N0040001N1+02561+02151102001ADDAA106003091AY161061AY221061GF106991041051008001021001MA1999999101941MD1999999+0101MW1021REMSYN082AAXX  10184 83398 21596 61806 10256 20215 30194 40200 70262 84520 333 58010 60031;
0213833980999992006091100004-15667-038950FM-12+000599999V0201401N003110075019N0010001N1+02341+02131102201ADDAA106001091AY161061AY221061GF108991051051008001021999KA1240M+02611MA1999999102141MD1999999+0071MW1021REMSYN100AAXX  11004 83398 21594 81406 10234 20213 30214 40220 70262 8552/ 333 10261 29085 55024 58007 60011;
0173833980999992006091112004-15667-038950FM-12+000599999V0201401N003110450019N0040001N1+02541+02091102311ADDAA124004191GF106991041051008001041001KA1240N+01941MA1999999102251MD1999999+0071REMSYN082AAXX  11124 83398 22596 61406 10254 20209 30225 40231 84540 333 20194 58007 60044;
0182833980999992006091118004-15667-038950FM-12+000599999V0201801N003110075019N0040001N1+02601+02251102081ADDAA106001091AY161061AY221061GF108991051051008001021999MA1999999102021MD1999999+0081MW1021REMSYN082AAXX  11184 83398 21596 81806 10260 20225 30202 40208 70262 8552/ 333 58008 60011;
0173833980999992006091212004-15667-038950FM-12+000599999V0201801N001010450019N0040001N1+02541+02061102191ADDAA124001091GF105991031051008001041001KA1240N+01941MA1999999102131MD1999999-0121REMSYN082AAXX  12124 83398 22596 51802 10254 20206 30213 40219 83540 333 20194 59012 60014;
0137833980999992006091218004-15667-038950FM-12+000599999V0200501N003110450019N0040001N1+02581+01871101891ADDGF105991021051008001041001MA1999999101831MD1999999-0191REMSYN070AAXX  12184 83398 32596 50506 10258 20187 30183 40189 82540 333 59019;
0168833980999992006091300004-15667-038950FM-12+000599999V0200901N001012200019N0010001N1+02311+01951102041ADDGF104991031011008001041001KA1240M+02721MA1999999101981MD1999999-0151REMSYN088AAXX  13004 83398 32594 40902 10231 20195 30198 40204 83140 333 10272 29075 55073 59015;
0156833980999992006091312004-15667-038950FM-12+000599999V0200501N001010450019N0040001N1+02521+02051102061ADDGF105991031021008001041001KA1240N+01711MA1999999102001MD1999999-0131REMSYN076AAXX  13124 83398 32596 50502 10252 20205 30200 40206 83240 333 20171 59013;
0137833980999992006091318004-15667-038950FM-12+000599999V0200501N002112200019N0040001N1+02591+02051101771ADDGF104991031011008001041001MA1999999101711MD1999999-0121REMSYN070AAXX  13184 83398 32596 40504 10259 20205 30171 40177 83140 333 59012;
0168833980999992006091400004-15667-038950FM-12+000599999V0200501N002110450019N0010001N1+02361+01991101981ADDGF105991031021008001041001KA1240M+02701MA1999999101921MD1999999-0061REMSYN088AAXX  14004 83398 32594 50504 10236 20199 30192 40198 83240 333 10270 29077 55085 59006;
0220833980999992006091412004-15667-038950FM-12+000599999V0200901N003110450019N0040001N1+02581+02101102041ADDAA124000091AY121061AY251061GF106991041051008001021001KA1240N+02001MA1999999101981MD1999999-0021MW1021REMSYN088AAXX  14124 83398 21596 60906 10258 20210 30198 40204 70225 84520 333 20200 59002 69924;EQDQ01  00002PRCP24
0182833980999992006091418004-15667-038950FM-12+000599999V0200501N003110450019N0040001N1+02541+02131101761ADDAA106000591AY151061AY221061GF106991041051008001021001MA1999999101701MD1999999-0011MW1021REMSYN082AAXX  14184 83398 21596 60506 10254 20213 30170 40176 70252 84520 333 59001 69951;
0168833980999992006091500004-15667-038950FM-12+000599999V0201801N002110450019N0010001N1+02361+02191101991ADDGF106991041051008001021001KA1240M+02691MA1999999101931MD1999999+0011REMSYN088AAXX  15004 83398 32594 61804 10236 20219 30193 40199 84520 333 10269 29083 55054 58001;
0201833980999992006091512004-15667-038950FM-12+000599999V0200901N003110075019N0040001N1+02421+02171102061ADDAA124003091AY161061AY221061GF108991051051008001021999KA1240N+02081MA1999999102001MD1999999+0021MW1021REMSYN088AAXX  15124 83398 21596 80906 10242 20217 30200 40206 70262 8552/ 333 20208 58002 60034;
0137833980999992006091518004-15667-038950FM-12+000599999V0200501N003110450019N0040001N1+02581+02061101751ADDGF106991041051008001021001MA1999999101691MD1999999-0011REMSYN070AAXX  15184 83398 32596 60506 10258 20206 30169 40175 84520 333 59001;
0168833980999992006091600004-15667-038950FM-12+000599999V0200901N002110450019N0010001N1+02421+02131101941ADDGF106991041051008001021001KA1240M+02761MA1999999101881MD1999999-0051REMSYN088AAXX  16004 83398 32594 60904 10242 20213 30188 40194 84520 333 10276 29082 55047 59005;
0156833980999992006091612004-15667-038950FM-12+000599999V0200501N002110450019N0040001N1+02641+02091101931ADDGF106991041051008001041001KA1240N+02041MA1999999101871MD1999999-0131REMSYN076AAXX  16124 83398 32596 60504 10264 20209 30187 40193 84540 333 20204 59013;
0137833980999992006091618004-15667-038950FM-12+000599999V0200901N003110450019N0040001N1+02661+02111101621ADDGF106991041051008001041001MA1999999101561MD1999999-0131REMSYN070AAXX  16184 83398 32596 60906 10266 20211 30156 40162 84540 333 59013;
0168833980999992006091700004-15667-038950FM-12+000599999V0201401N003112200019N0010001N1+02441+02111101851ADDGF103991031011008001001001KA1240M+02761MA1999999101791MD1999999-0091REMSYN088AAXX  17004 83398 32594 31406 10244 20211 30179 40185 83100 333 10276 29077 55062 59009;
0201833980999992006091712004-15667-038950FM-12+000599999V0200901N004110075019N0040001N1+02521+02171101961ADDAA124001091AY161061AY221061GF108991051051008001021999KA1240N+01981MA1999999101901MD1999999+0031MW1021REMSYN088AAXX  17124 83398 21596 80908 10252 20217 30190 40196 70262 8552/ 333 20198 58003 69994;
0182833980999992006091718004-15667-038950FM-12+000599999V0200501N003110450019N0040001N1+02521+02231101661ADDAA106000591AY151061AY221061GF106991041051008001021001MA1999999101601MD1999999+0041MW1021REMSYN082AAXX  17184 83398 21596 60506 10252 20223 30160 40166 70252 84520 333 58004 69951;
0168833980999992006091800004-15667-038950FM-12+000599999V0200901N003110450019N0010001N1+02401+02151101881ADDGF106991041051008001021001KA1240M+02751MA1999999101821MD1999999+0031REMSYN088AAXX  18004 83398 32594 60906 10240 20215 30182 40188 84520 333 10275 29084 55040 58003;
0201833980999992006091812004-15667-038950FM-12+000599999V0209999C000010075019N0040001N1+02281+02261101851ADDAA124042991AY161061AY221061GF108991051051008001021999KA1240N+02021MA1999999101791MD1999999-0111MW1611REMSYN088AAXX  18124 83398 21596 80000 10228 20226 30179 40185 76162 8552/ 333 20202 59011 60434;
0182833980999992006091818004-15667-038950FM-12+000599999V0203601N006212200019N0040001N1+02641+02271101351ADDAA106021191AY161061AY221061GF103991021011008001041001MA1999999101301MD1999999-0301MW1021REMSYN082AAXX  18184 83398 21596 33612 10264 20227 30130 40135 70262 82140 333 59030 60211;
0168833980999992006091900004-15667-038950FM-12+000599999V0203601N004112200019N0010001N1+02441+02301101591ADDGF104991021011008001041001KA1240M+02711MA1999999101541MD1999999-0281REMSYN088AAXX  19004 83398 32594 43608 10244 20230 30154 40159 82140 333 10271 29091 55030 59028;
0201833980999992006091912004-15667-038950FM-12+000599999V0209999C000010075019N0040001N1+02471+02351101701ADDAA124021191AY161061AY221061GF108991051051008001021999KA1240N+02211MA1999999101641MD1999999-0151MW1021REMSYN088AAXX  19124 83398 21596 80000 10247 20235 30164 40170 70262 8552/ 333 20221 59015 60214;
0137833980999992006091918004-15667-038950FM-12+000599999V0203601N002110075019N0040001N1+02631+02431101421ADDGF108991051051008001021999MA1999999101371MD1999999+0071REMSYN070AAXX  19184 83398 32596 83604 10263 20243 30137 40142 8552/ 333 58007;
0168833980999992006092000004-15667-038950FM-12+000599999V0203601N002110075019N0010001N1+02461+02271101741ADDGF108991051051008001021999KA1240M+02811MA1999999101681MD1999999+0141REMSYN088AAXX  20004 83398 32594 83604 10246 20227 30168 40174 8552/ 333 10281 29089 55023 58014;
0156833980999992006092012004-15667-038950FM-12+000599999V0200501N003110450019N0040001N1+02641+02231101771ADDGF106991041051008001021001KA1240N+02371MA1999999101711MD1999999+0071REMSYN076AAXX  20124 83398 32596 60506 10264 20223 30171 40177 84520 333 20237 58007;
0137833980999992006092018004-15667-038950FM-12+000599999V0203601N005110450019N0040001N1+02641+02181101421ADDGF105991031021008001041001MA1999999101371MD1999999+0001REMSYN070AAXX  20184 83398 32596 53610 10264 20218 30137 40142 83240 333 58000;
0168833980999992006092100004-15667-038950FM-12+000599999V0203601N006210450019N0010001N1+02441+02171101571ADDGF105991031021008001041001KA1240M+02781MA1999999101521MD1999999-0161REMSYN088AAXX  21004 83398 32594 53612 10244 20217 30152 40157 83240 333 10278 29081 55082 59016;
0156833980999992006092112004-15667-038950FM-12+000599999V0203601N003110450019N0040001N1+02681+02241101761ADDGF107991041051008001021001KA1240N+02081MA1999999101701MD1999999-0011REMSYN076AAXX  21124 83398 32596 73606 10268 20224 30170 40176 84520 333 20208 59001;
0137833980999992006092118004-15667-038950FM-12+000599999V0203601N007210450019N0040001N1+02641+02181101421ADDGF105991031021008001041001MA1999999101371MD1999999+0001REMSYN070AAXX  21184 83398 32596 53614 10264 20218 30137 40142 83240 333 58000;
0168833980999992006092200004-15667-038950FM-12+000599999V0203601N008210450019N0010001N1+02501+02211101611ADDGF106991031021008001041001KA1240M+02821MA1999999101551MD1999999+0031REMSYN088AAXX  22004 83398 32594 63616 10250 20221 30155 40161 83240 333 10282 29080 55042 58003;
0156833980999992006092212004-15667-038950FM-12+000599999V0203601N006210450019N0040001N1+02711+02291101771ADDGF107991041051008001021001KA1240N+02361MA1999999101711MD1999999+0011REMSYN076AAXX  22124 83398 32596 73612 10271 20229 30171 40177 84520 333 20236 58001;
0137833980999992006092218004-15667-038950FM-12+000599999V0203601N004112200019N0040001N1+02701+02331101501ADDGF104991021021008001041001MA1999999101451MD1999999+0081REMSYN070AAXX  22184 83398 32596 43608 10270 20233 30145 40150 82240 333 58008;
0168833980999992006092300004-15667-038950FM-12+000599999V0203601N003110450019N0010001N1+02461+02281101781ADDGF105991031021008001041001KA1240M+02881MA1999999101721MD1999999+0171REMSYN088AAXX  23004 83398 32594 53606 10246 20228 30172 40178 83240 333 10288 29085 55055 58017;
0156833980999992006092312004-15667-038950FM-12+000599999V0203601N004110450019N0040001N1+02681+02201101781ADDGF105991031021008001041001KA1240N+02171MA1999999101721MD1999999+0011REMSYN076AAXX  23124 83398 32596 53608 10268 20220 30172 40178 83240 333 20217 58001;
0137833980999992006092318004-15667-038950FM-12+000599999V0203601N004110450019N0040001N1+02681+02261101361ADDGF105991031021008001041001MA1999999101311MD1999999-0141REMSYN070AAXX  23184 83398 32596 53608 10268 20226 30131 40136 83240 333 59014;
0162833980999992006092400004-15667-038950FM-12+000599999V0203601N002112200019N0010001N1+02461+02271101551ADDGF104991021011008001041001KA1240M+02821MA1999999101501MD1999999-0221REMSYN082AAXX  24004 83398 32594 43604 10246 20227 30150 40155 82140 333 10282 29083 59022;
0156833980999992006092412004-15667-038950FM-12+000599999V0203201N004110450019N0040001N1+02751+02221101521ADDGF106991041021008001041001KA1240N+02171MA1999999101471MD1999999+0161REMSYN076AAXX  24124 83398 32596 63208 10275 20222 30147 40152 84240 333 20217 58016;
0137833980999992006092418004-15667-038950FM-12+000599999V0203601N008212200019N0040001N1+02681+02221101211ADDGF104991021011008001041001MA1999999101161MD1999999-0161REMSYN070AAXX  24184 83398 32596 43616 10268 20222 30116 40121 82140 333 59016;
0168833980999992006092500004-15667-038950FM-12+000599999V0203601N003112200019N0010001N1+02481+02251101571ADDGF103991021011008001041001KA1240M+02831MA1999999101521MD1999999+0021REMSYN088AAXX  25004 83398 32594 33606 10248 20225 30152 40157 82140 333 10283 29081 55083 58002;
0156833980999992006092512004-15667-038950FM-12+000599999V0203601N003110075019N0040001N1+02641+02291101861ADDGF108991051051008001021999KA1240N+02241MA1999999101801MD1999999+0331REMSYN076AAXX  25124 83398 32596 83606 10264 20229 30180 40186 8552/ 333 20224 58033;
0137833980999992006092518004-15667-038950FM-12+000599999V0203601N003110075019N0040001N1+02621+02231101621ADDGF108991051051008001021999MA1999999101561MD1999999+0401REMSYN070AAXX  25184 83398 32596 83606 10262 20223 30156 40162 8552/ 333 58040;
0168833980999992006092600004-15667-038950FM-12+000599999V0209999C000010075019N0010001N1+02491+02311101831ADDGF108991051051008001021999KA1240M+02741MA1999999101771MD1999999+0251REMSYN088AAXX  26004 83398 32594 80000 10249 20231 30177 40183 8552/ 333 10274 29085 55005 58025;
0201833980999992006092612004-15667-038950FM-12+000599999V0201401N002110075019N0040001N1+02181+02131102081ADDAA124007191AY161061AY221061GF108991051051008001021999KA1240N+02131MA1999999102021MD1999999+0221MW1611REMSYN088AAXX  26124 83398 21596 81404 10218 20213 30202 40208 76162 8552/ 333 20213 58022 60074;
0182833980999992006092618004-15667-038950FM-12+000599999V0201401N003110075019N0040001N1+02081+02051102011ADDAA106008991AY161061AY221061GF108991051051008001021999MA1999999101951MD1999999+0391MW1611REMSYN082AAXX  26184 83398 21596 81406 10208 20205 30195 40201 76162 8552/ 333 58039 60091;
0213833980999992006092700004-15667-038950FM-12+000599999V0201401N001010075019N0010001N1+02071+02001102191ADDAA106003091AY161061AY221061GF108991051051008001021999KA1240M+02531MA1999999102131MD1999999+0361MW1021REMSYN100AAXX  27004 83398 21594 81402 10207 20200 30213 40219 70262 8552/ 333 10253 29097 55000 58036 60031;
0201833980999992006092712004-15667-038950FM-12+000599999V0201401N005110075019N0040001N1+02401+01821102341ADDAA124014091AY161061AY221061GF108991051051008001021999KA1240N+01981MA1999999102281MD1999999+0261MW1021REMSYN088AAXX  27124 83398 21596 81410 10240 20182 30228 40234 70262 8552/ 333 20198 58026 60144;
0137833980999992006092718004-15667-038950FM-12+000599999V0201401N006210075019N0040001N1+02401+01701102111ADDGF108991051051008001021999MA1999999102051MD1999999+0101REMSYN070AAXX  27184 83398 32596 81412 10240 20170 30205 40211 8552/ 333 58010;
0168833980999992006092800004-15667-038950FM-12+000599999V0209999C000010450019N0010001N1+01901+01701102241ADDGF106991041051008001021001KA1240M+02521MA1999999102181MD1999999+0051REMSYN088AAXX  28004 83398 32594 60000 10190 20170 30218 40224 84520 333 10252 29078 55002 58005;
0220833980999992006092812004-15667-038950FM-12+000599999V0202301N002110450019N0010001N1+02141+01911102181ADDAA124000091AY151061AY221061GF107991041051008001021001KA1240N+01781MA1999999102121MD1999999-0161MW1021REMSYN088AAXX  28124 83398 21594 72304 10214 20191 30212 40218 70252 84520 333 20178 59016 69924;EQDQ01  00002PRCP24
0137833980999992006092818004-15667-038950FM-12+000599999V0201401N002110075019N0040001N1+02371+01741101871ADDGF108991051051008001021999MA1999999101811MD1999999-0241REMSYN070AAXX  28184 83398 32596 81404 10237 20174 30181 40187 8552/ 333 59024;
0156833980999992006092912004-15667-038950FM-12+000599999V0200901N001010450019N0040001N1+02561+02021101971ADDGF106991041021008001041001KA1240N+01611MA1999999101911MD1999999-0211REMSYN076AAXX  29124 83398 32596 60902 10256 20202 30191 40197 84240 333 20161 59021;
0137833980999992006092918004-15667-038950FM-12+000599999V0203601N003112200019N0040001N1+02581+01991101611ADDGF103991021011008001041001MA1999999101551MD1999999-0261REMSYN070AAXX  29184 83398 32596 33606 10258 20199 30155 40161 82140 333 59026;
0168833980999992006093000004-15667-038950FM-12+000599999V0201401N001012200019N0010001N1+02401+02151101851ADDGF103991021011008001041001KA1240M+02701MA1999999101791MD1999999-0191REMSYN088AAXX  30004 83398 32594 31402 10240 20215 30179 40185 82140 333 10270 29079 55096 59019;
0156833980999992006093012004-15667-038950FM-12+000599999V0203601N001010450019N0040001N1+02651+02281101931ADDGF107991041051008001021001KA1240N+02031MA1999999101871MD1999999-0111REMSYN076AAXX  30124 83398 32596 73602 10265 20228 30187 40193 84520 333 20203 59011;
0137833980999992006093018004-15667-038950FM-12+000599999V0200501N003110450019N0040001N1+02641+02251101721ADDGF105991031011008001041001MA1999999101661MD1999999+0111REMSYN070AAXX  30184 83398 32596 50506 10264 20225 30166 40172 83140 333 58011;
0168833980999992006100100004-15667-038950FM-12+000599999V0200501N002110450019N0010001N1+02461+02251101981ADDGF107991041051008001021001KA1240M+02761MA1999999101921MD1999999+0131REMSYN088AAXX  01004 83398 32594 70504 10246 20225 30192 40198 84520 333 10276 29084 55080 58013;
0156833980999992006100112004-15667-038950FM-12+000599999V0201401N002110450019N0040001N1+02561+02211101991ADDGF107991041051008001021001KA1240N+02011MA1999999101931MD1999999+0061REMSYN076AAXX  01124 83398 32596 71404 10256 20221 30193 40199 84520 333 20201 58006;
0137833980999992006100118004-15667-038950FM-12+000599999V0200901N001012200019N0040001N1+02661+02091101661ADDGF103991021011008001041001MA1999999101601MD1999999+0061REMSYN070AAXX  01184 83398 32596 30902 10266 20209 30160 40166 82140 333 58006;
0168833980999992006100200004-15667-038950FM-12+000599999V0209999C000012200019N0010001N1+02101+02001101941ADDGF103991021011008001041001KA1240M+02801MA1999999101881MD1999999-0041REMSYN088AAXX  02004 83398 32594 30000 10210 20200 30188 40194 82140 333 10280 29085 55096 59004;
0201833980999992006100212004-15667-038950FM-12+000599999V0201801N002110450019N0040001N1+02441+02131101811ADDAA124000591AY161061AY221061GF106991041051008001021001KA1240N+01801MA1999999101751MD1999999-0181MW1021REMSYN088AAXX  02124 83398 21596 61804 10244 20213 30175 40181 70262 84520 333 20180 59018 69954;
0137833980999992006100218004-15667-038950FM-12+000599999V0201401N003110450019N0040001N1+02641+02181101411ADDGF106991031051008001041001MA1999999101361MD1999999-0241REMSYN070AAXX  02184 83398 32596 61406 10264 20218 30136 40141 83540 333 59024;
0168833980999992006100300004-15667-038950FM-12+000599999V0203601N002112200019N0010001N1+02401+02211101621ADDGF104991031051008001041001KA1240M+02781MA1999999101561MD1999999-0321REMSYN088AAXX  03004 83398 32594 43604 10240 20221 30156 40162 83540 333 10278 29084 55093 59032;
0201833980999992006100312004-15667-038950FM-12+000599999V0203601N002110450019N0040001N1+02441+02201101611ADDAA124005191AY161061AY221061GF106991041051008001021001KA1240N+01961MA1999999101551MD1999999-0201MW1021REMSYN088AAXX  03124 83398 21596 63604 10244 20220 30155 40161 70262 84520 333 20196 59020 60054;
0137833980999992006100318004-15667-038950FM-12+000599999V0203601N003110075019N0040001N1+02641+02291101351ADDGF108991051051008001021999MA1999999101301MD1999999-0061REMSYN070AAXX  03184 83398 32596 83606 10264 20229 30130 40135 8552/ 333 59006;
0168833980999992006100400004-15667-038950FM-12+000599999V0201401N003110450019N0010001N1+02501+02271101611ADDGF107991041051008001021001KA1240M+02761MA1999999101551MD1999999-0011REMSYN088AAXX  04004 83398 32594 71406 10250 20227 30155 40161 84520 333 10276 29087 55040 59001;
0156833980999992006100412004-15667-038950FM-12+000599999V0203601N003110450019N0040001N1+02601+02251101641ADDGF106991041051008001021001KA1240N+02361MA1999999101581MD1999999+0031REMSYN076AAXX  04124 83398 32596 63606 10260 20225 30158 40164 84520 333 20236 58003;
0137833980999992006100418004-15667-038950FM-12+000599999V0203601N003110075019N0040001N1+02641+02181101381ADDGF107991051051008001021001MA1999999101331MD1999999+0031REMSYN070AAXX  04184 83398 32596 73606 10264 20218 30133 40138 85520 333 58003;
0168833980999992006100500004-15667-038950FM-12+000599999V0200501N003110450019N0010001N1+02441+02171101701ADDGF105991031011008001041001KA1240M+02821MA1999999101641MD1999999+0091REMSYN088AAXX  05004 83398 32594 50506 10244 20217 30164 40170 83140 333 10282 29082 55045 58009;
0201833980999992006100512004-15667-038950FM-12+000599999V0201401N002110450019N0040001N1+02541+02351101841ADDAA124000591AY161061AY221061GF106991041051008001021001KA1240N+02101MA1999999101781MD1999999+0201MW1021REMSYN088AAXX  05124 83398 21596 61404 10254 20235 30178 40184 70262 84520 333 20210 58020 69964;
0182833980999992006100518004-15667-038950FM-12+000599999V0200901N004110075019N0040001N1+02601+02251101551ADDAA106000591AY161061AY221061GF107991051051008001021001MA1999999101501MD1999999+0171MW1021REMSYN082AAXX  05184 83398 21596 70908 10260 20225 30150 40155 70262 85520 333 58017 69961;
0168833980999992006100600004-15667-038950FM-12+000599999V0200901N003110075019N0010001N1+02481+02211101821ADDGF108991051051008001021999KA1240M+02721MA1999999101761MD1999999+0121REMSYN088AAXX  06004 83398 32594 80906 10248 20221 30176 40182 8552/ 333 10272 29085 55047 58012;
0201833980999992006100612004-15667-038950FM-12+000599999V0200501N003110075019N0040001N1+02681+02111101871ADDAA124003091AY161061AY221061GF107991051051008001021001KA1240N+02221MA1999999101811MD1999999+0031MW1021REMSYN088AAXX  06124 83398 21596 70506 10268 20211 30181 40187 70262 85520 333 20222 58003 60034;
0137833980999992006100618004-15667-038950FM-12+000599999V0200501N003110450019N0040001N1+02701+02111101581ADDGF106991041051008001021001MA1999999101531MD1999999+0031REMSYN070AAXX  06184 83398 32596 60506 10270 20211 30153 40158 84520 333 58003;
0168833980999992006100700004-15667-038950FM-12+000599999V0200901N002110450019N0010001N1+02461+02191101861ADDGF106991041051008001021001KA1240M+02791MA1999999101801MD1999999+0041REMSYN088AAXX  07004 83398 32594 60904 10246 20219 30180 40186 84520 333 10279 29078 55058 58004;
0201833980999992006100712004-15667-038950FM-12+000599999V0203601N003110450019N0040001N1+02661+02161101911ADDAA124002091AY161061AY221061GF106991041051008001021001KA1240N+02101MA1999999101851MD1999999+0041MW1021REMSYN088AAXX  07124 83398 21596 63606 10266 20216 30185 40191 70262 84520 333 20210 58004 60024;
0137833980999992006100718004-15667-038950FM-12+000599999V0203601N004110450019N0040001N1+02601+02101101581ADDGF105991031051008001041001MA1999999101531MD1999999+0001REMSYN070AAXX  07184 83398 32596 53608 10260 20210 30153 40158 83540 333 58000;
0168833980999992006100800004-15667-038950FM-12+000599999V0200501N002112200019N0010001N1+02461+02281101761ADDGF104991021011008001041001KA1240M+02801MA1999999101701MD1999999-0101REMSYN088AAXX  08004 83398 32594 40504 10246 20228 30170 40176 82140 333 10280 29082 55099 59010;
0156833980999992006100812004-15667-038950FM-12+000599999V0200501N005110450019N0040001N1+02661+02181101781ADDGF105991031051008001041001KA1240N+02401MA1999999101721MD1999999-0131REMSYN076AAXX  08124 83398 32596 50510 10266 20218 30172 40178 83540 333 20240 59013;
0137833980999992006100818004-15667-038950FM-12+000599999V0200501N003110450019N0040001N1+02681+02131101511ADDGF106991041051008001021001MA1999999101461MD1999999-0071REMSYN070AAXX  08184 83398 32596 60506 10268 20213 30146 40151 84520 333 59007;
0168833980999992006100900004-15667-038950FM-12+000599999V0200501N001012200019N0010001N1+02461+02171101771ADDGF103991031051008001001001KA1240M+02841MA1999999101711MD1999999+0011REMSYN088AAXX  09004 83398 32594 30502 10246 20217 30171 40177 83500 333 10284 29079 55082 58001;
0156833980999992006100912004-15667-038950FM-12+000599999V0200501N002110450019N0040001N1+02701+02131101891ADDGF106991041051008001021001KA1240N+02401MA1999999101831MD1999999+0111REMSYN076AAXX  09124 83398 32596 60504 10270 20213 30183 40189 84520 333 20240 58011;
0137833980999992006100918004-15667-038950FM-12+000599999V0200501N003110450019N0040001N1+02661+02091101721ADDGF106991041051008001021001MA1999999101661MD1999999+0201REMSYN070AAXX  09184 83398 32596 60506 10266 20209 30166 40172 84520 333 58020;
0168833980999992006101000004-15667-038950FM-12+000599999V0200501N001510450019N0010001N1+02541+02131101951ADDGF105991031051008001021001KA1240M+02861MA1999999101891MD1999999+0181REMSYN088AAXX  10004 83398 32594 50503 10254 20213 30189 40195 83520 333 10286 29075 55058 58018;
0156833980999992006101012004-15667-038950FM-12+000599999V0200501N004110450019N0040001N1+02681+02041102061ADDGF106991041051008001021001KA1240N+02381MA1999999102001MD1999999-0171REMSYN076AAXX  10124 83398 32596 60508 10268 20204 30200 40206 84520 333 20238 59017;
0137833980999992006101018004-15667-038950FM-12+000599999V0200501N003110450019N0040001N1+02641+02071101831ADDGF106991041051008001021001MA1999999101771MD1999999+0111REMSYN070AAXX  10184 83398 32596 60506 10264 20207 30177 40183 84520 333 58011;
0168833980999992006101100004-15667-038950FM-12+000599999V0200901N003110450019N0010001N1+02341+02181102081ADDGF105991041051008001021001KA1240M+02841MA1999999102021MD1999999+0131REMSYN088AAXX  11004 83398 32594 50906 10234 20218 30202 40208 84520 333 10284 29080 55057 58013;
0201833980999992006101112004-15667-038950FM-12+000599999V0200901N003110075019N0040001N1+02541+02191101961ADDAA124002091AY161061AY221061GF108991051051008001021999KA1240N+02161MA1999999101901MD1999999-0101MW1021REMSYN088AAXX  11124 83398 21596 80906 10254 20219 30190 40196 70262 8552/ 333 20216 59010 60024;
0137833980999992006101118004-15667-038950FM-12+000599999V0200901N002110450019N0040001N1+02501+02151101611ADDGF107991041051008001021001MA1999999101551MD1999999-0221REMSYN070AAXX  11184 83398 32596 70904 10250 20215 30155 40161 84520 333 59022;
0168833980999992006101200004-15667-038950FM-12+000599999V0200901N002110450019N0010001N1+02441+02171101661ADDGF105991031051008001021001KA1240M+02761MA1999999101601MD1999999-0421REMSYN088AAXX  12004 83398 32594 50904 10244 20217 30160 40166 83520 333 10276 29083 55005 59042;
0137833980999992006101218004-15667-038950FM-12+000599999V0203601N002112200019N0040001N1+02851+02131101321ADDGF104991021021008001041001MA1999999101271MD1999999-0281REMSYN070AAXX  12184 83398 32596 43604 10285 20213 30127 40132 82240 333 59028;
0168833980999992006101300004-15667-038950FM-12+000599999V0201401N003112200019N0010001N1+02501+02211101271ADDGF104991021021008001041001KA1240M+02861MA1999999101221MD1999999+0381REMSYN088AAXX  13004 83398 32594 41406 10250 20221 30122 40127 82240 333 10286 29077 55097 58038;
0156833980999992006101312004-15667-038950FM-12+000599999V0203201N003110075019N0040001N1+02681+02331101441ADDGF108991051051008001021999KA1240N+02301MA1999999101381MD1999999-0221REMSYN076AAXX  13124 83398 32596 83206 10268 20233 30138 40144 8552/ 333 20230 59022;
0182833980999992006101318004-15667-038950FM-12+000599999V0203601N003110450019N0040001N1+02501+02311101141ADDAA106000021AY151061AY221061GF108991041071008001021999MA1999999101091MD1999999-0181MW1501REMSYN082AAXX  13184 83398 21596 83606 10250 20231 30109 40114 75052 8472/ 333 59018 69911;
0168833980999992006101400004-15667-038950FM-12+000599999V0203601N002110450019N0010001N1+02531+02321101251ADDGF106991041051008001021001KA1240M+02871MA1999999101201MD1999999-0021REMSYN088AAXX  14004 83398 32594 63604 10253 20232 30120 40125 84520 333 10287 29087 55015 59002;
0173833980999992006101412004-15667-038950FM-12+000599999V0203201N003110075019N0040001N1+02641+02291101361ADDAA124000021GF108991051051008001021999KA1240N+02401MA1999999101311MD1999999-0071REMSYN082AAXX  14124 83398 22596 83206 10264 20229 30131 40136 8552/ 333 20240 59007 69914;
0201833980999992006101418004-15667-038950FM-12+000599999V0203601N005110075019N0040001N1+02701+02331101061ADDAA106000091AY151061AY221061GF108991051051008001021999MA1999999101011MD1999999-0081MW1021REMSYN082AAXX  14184 83398 21596 83610 10270 20233 30101 40106 70252 8552/ 333 59008 69911;EQDQ01  00002PRCP06
0168833980999992006101500004-15667-038950FM-12+000599999V0203601N002110450019N0010001N1+02561+02271101391ADDGF106991041051008001021001KA1240M+02821MA1999999101341MD1999999+0141REMSYN088AAXX  15004 83398 32594 63604 10256 20227 30134 40139 84520 333 10282 29082 55006 58014;
0201833980999992006101512004-15667-038950FM-12+000599999V0203201N003110075019N0040001N1+02381+02291101521ADDAA124021191AY161061AY221061GF108991051071008001021999KA1240N+02181MA1999999101471MD1999999+0161MW1531REMSYN088AAXX  15124 83398 21596 83206 10238 20229 30147 40152 75362 8572/ 333 20218 58016 60214;
0182833980999992006101518004-15667-038950FM-12+000599999V0203601N003110075019N0040001N1+02521+02251101201ADDAA106001091AY161061AY221061GF108991051051008001021999MA1999999101151MD1999999+0141MW1021REMSYN082AAXX  15184 83398 21596 83606 10252 20225 30115 40120 70262 8552/ 333 58014 60011;
0168833980999992006101600004-15667-038950FM-12+000599999V0203601N001010075019N0010001N1+02511+02321101451ADDGF107991051051008001021001KA1240M+02761MA1999999101401MD1999999+0061REMSYN088AAXX  16004 83398 32594 73602 10251 20232 30140 40145 85520 333 10276 29090 55000 58006;
0201833980999992006101612004-15667-038950FM-12+000599999V0203601N002110075019N0040001N1+02221+02151101571ADDAA124014091AY191061AY261061GF108991051071008001021999KA1240N+02141MA1999999101521MD1999999+0051MW1601REMSYN088AAXX  16124 83398 21596 83604 10222 20215 30152 40157 76096 8572/ 333 20214 58005 60144;
0182833980999992006101618004-15667-038950FM-12+000599999V0202701N001010075019N0040001N1+02581+02291101271ADDAA106003091AY161061AY221061GF108991051051008001021999MA1999999101221MD1999999+0071MW1021REMSYN082AAXX  16184 83398 21596 82702 10258 20229 30122 40127 70262 8552/ 333 58007 60031;
0213833980999992006101700004-15667-038950FM-12+000599999V0209999C000010075019N0010001N1+02301+02251101461ADDAA106003091AY161061AY221061GF108991051051008001021999KA1240M+02641MA1999999101411MD1999999+0011MW1021REMSYN100AAXX  17004 83398 21594 80000 10230 20225 30141 40146 70262 8552/ 333 10264 29094 55000 58001 60031;
0201833980999992006101712004-15667-038950FM-12+000599999V0202701N001010075019N0040001N1+02441+02391101541ADDAA124006191AY161061AY221061GF108991051071008001021999KA1240N+02141MA1999999101491MD1999999-0031MW1501REMSYN088AAXX  17124 83398 21596 82702 10244 20239 30149 40154 75062 8572/ 333 20214 59003 60064;
0182833980999992006101718004-15667-038950FM-12+000599999V0209999C000010075019N0040001N1+02541+02251101251ADDAA106007991AY161061AY221061GF108991051051008001021999MA1999999101201MD1999999-0021MW1021REMSYN082AAXX  17184 83398 21596 80000 10254 20225 30120 40125 70262 8552/ 333 59002 60081;
0168833980999992006101800004-15667-038950FM-12+000599999V0209999C000010075019N0010001N1+02321+02241101391ADDGF108991051051008001021999KA1240M+02501MA1999999101241MD1999999-0071REMSYN088AAXX  18004 83398 32594 80000 10232 20224 30124 40139 8552/ 333 10250 29093 55000 59007;
0173833980999992006101812004-15667-038950FM-12+000599999V0203601N002110450019N0040001N1+02561+02291101491ADDAA124007991GF107991041051008001021001KA1240N+01981MA1999999101441MD1999999-0051REMSYN082AAXX  18124 83398 22596 73604 10256 20229 30144 40149 84520 333 20198 59005 60084;
0137833980999992006101818004-15667-038950FM-12+000599999V0200501N003110450019N0040001N1+02661+02241101161ADDGF107991041051008001021001MA1999999101111MD1999999-0091REMSYN070AAXX  18184 83398 32596 70506 10266 20224 30111 40116 84520 333 59009;
0168833980999992006101900004-15667-038950FM-12+000599999V0209999C000010450019N0010001N1+02481+02251101361ADDGF105991031051008001021001KA1240M+02801MA1999999101311MD1999999-0031REMSYN088AAXX  19004 83398 32594 50000 10248 20225 30131 40136 83520 333 10280 29084 55012 59003;
0201833980999992006101912004-15667-038950FM-12+000599999V0203601N003110075019N0040001N1+02481+02321101411ADDAA124002091AY161061AY221061GF108991051051008001021999KA1240N+02141MA1999999101361MD1999999-0081MW1021REMSYN088AAXX  19124 83398 21596 83606 10248 20232 30136 40141 70262 8552/ 333 20214 59008 60024;
0137833980999992006101918004-15667-038950FM-12+000599999V0203601N005110450019N0040001N1+02721+02301101051ADDGF106991031051008001041001MA1999999101001MD1999999-0111REMSYN070AAXX  19184 83398 32596 63610 10272 20230 30100 40105 83540 333 59011;
0168833980999992006102000004-15667-038950FM-12+000599999V0209999C000010450019N0010001N1+02461+02341101241ADDGF106991041051008001021001KA1240M+02841MA1999999101191MD1999999-0121REMSYN088AAXX  20004 83398 32594 60000 10246 20234 30119 40124 84520 333 10284 29089 55058 59012;
0156833980999992006102012004-15667-038950FM-12+000599999V0203601N003110450019N0040001N1+02761+02281101271ADDGF106991041051008001021001KA1240N+02221MA1999999101221MD1999999-0141REMSYN076AAXX  20124 83398 32596 63606 10276 20228 30122 40127 84520 333 20222 59014;
0137833980999992006102018004-15667-038950FM-12+000599999V0203601N005110450019N0040001N1+02781+02271100941ADDGF106991041051008001021001MA1999999100891MD1999999-0111REMSYN070AAXX  20184 83398 32596 63610 10278 20227 30089 40094 84520 333 59011;
0213833980999992006102100004-15667-038950FM-12+000599999V0203601N001010075019N0010001N1+02341+02271101451ADDAA106001091AY191061AY261061GF108991051071008001021999KA1240M+02961MA1999999101401MD1999999+0211MW1501REMSYN100AAXX  21004 83398 21594 83602 10234 20227 30140 40145 75096 8572/ 333 10296 29082 55066 58021 60011;
0201833980999992006102112004-15667-038950FM-12+000599999V0201801N002110075019N0040001N1+02281+02051101801ADDAA124011991AY191061AY261061GF108991051051008001021999KA1240N+02101MA1999999101741MD1999999+0521MW1021REMSYN088AAXX  21124 83398 21596 81804 10228 20205 30174 40180 70296 8552/ 333 20210 58052 60124;
0201833980999992006102118004-15667-038950FM-12+000599999V0201401N003110075019N0040001N1+02521+01861101531ADDAA106000091AY151061AY221061GF108991051051008001021999MA1999999101481MD1999999+0591MW1021REMSYN082AAXX  21184 83398 21596 81406 10252 20186 30148 40153 70252 8552/ 333 58059 69911;EQDQ01  00002PRCP06
0168833980999992006102200004-15667-038950FM-12+000599999V0209999C000010075019N0010001N1+02161+01971101851ADDGF108991051051008001021999KA1240M+02681MA1999999101791MD1999999+0391REMSYN088AAXX  22004 83398 32594 80000 10216 20197 30179 40185 8552/ 333 10268 29083 55007 58039;
0201833980999992006102212004-15667-038950FM-12+000599999V0202301N001010075019N0040001N1+02141+01991101961ADDAA124002091AY161061AY221061GF108991051051008001021999KA1240N+01981MA1999999101901MD1999999+0161MW1021REMSYN088AAXX  22124 83398 21596 82302 10214 20199 30190 40196 70262 8552/ 333 20198 58016 60024;
0137833980999992006102218004-15667-038950FM-12+000599999V0201401N002110075019N0040001N1+02441+02151101701ADDGF108991051051008001021999MA1999999101641MD1999999+0161REMSYN070AAXX  22184 83398 32596 81404 10244 20215 30164 40170 8552/ 333 58016;
0168833980999992006102300004-15667-038950FM-12+000599999V0209999C000010075019N0010001N1+02121+01931102011ADDGF108991051051008001021999KA1240M+02681MA1999999101951MD1999999+0161REMSYN088AAXX  23004 83398 32594 80000 10212 20193 30195 40201 8552/ 333 10268 29088 55012 58016;
0173833980999992006102312004-15667-038950FM-12+000599999V0201401N002110075019N0040001N1+02461+01851102001ADDAA124001091GF108991051051008001021999KA1240N+02001MA1999999101941MD1999999+0041REMSYN082AAXX  23124 83398 22596 81404 10246 20185 30194 40200 8552/ 333 20200 58004 60014;
0137833980999992006102318004-15667-038950FM-12+000599999V0200901N003110450019N0040001N1+02521+01861101771ADDGF106991041051008001021001MA1999999101711MD1999999+0071REMSYN070AAXX  23184 83398 32596 60906 10252 20186 30171 40177 84520 333 58007;
0168833980999992006102400004-15667-038950FM-12+000599999V0200901N004110075019N0010001N1+02301+02141102121ADDGF108991051051008001021999KA1240M+02661MA1999999102061MD1999999+0111REMSYN088AAXX  24004 83398 32594 80908 10230 20214 30206 40212 8552/ 333 10266 29081 55000 58011;
0201833980999992006102412004-15667-038950FM-12+000599999V0201401N002110075019N0040001N1+02321+02131102111ADDAA124000591AY161061AY221061GF108991051051008001021999KA1240N+02001MA1999999102051MD1999999+0111MW1021REMSYN088AAXX  24124 83398 21596 81404 10232 20213 30205 40211 70262 8552/ 333 20200 58011 69954;
0137833980999992006102418004-15667-038950FM-12+000599999V0201401N003110075019N0040001N1+02581+01991101841ADDGF108991051051008001021999MA1999999101781MD1999999+0071REMSYN070AAXX  24184 83398 32596 81406 10258 20199 30178 40184 8552/ 333 58007;
0232833980999992006102500004-15667-038950FM-12+000599999V0209999C000010075019N0010001N1+02221+02121101961ADDAA106000091AY151061AY221061GF108991051051008001021999KA1240M+02741MA1999999101901MD1999999-0161MW1021REMSYN100AAXX  25004 83398 21594 80000 10222 20212 30190 40196 70252 8552/ 333 10274 29087 55017 59016 69911;EQDQ01  00002PRCP06
0192833980999992006102512004-15667-038950FM-12+000599999V0200901N003110450019N0040001N1+02661+01951102011ADDAA124000091GF106991041051008001021001KA1240N+02081MA1999999101951MD1999999-0101REMSYN082AAXX  25124 83398 22596 60906 10266 20195 30195 40201 84520 333 20208 59010 69914;EQDQ01  00002PRCP24
0137833980999992006102518004-15667-038950FM-12+000599999V0200901N004110450019N0040001N1+02601+02061101811ADDGF107991041051008001021001MA1999999101751MD1999999-0031REMSYN070AAXX  25184 83398 32596 70908 10260 20206 30175 40181 84520 333 59003;
0168833980999992006102600004-15667-038950FM-12+000599999V0209999C000010075019N0010001N1+02161+02011102011ADDGF105991051051008001001001KA1240M+02761MA1999999101951MD1999999+0051REMSYN088AAXX  26004 83398 32594 50000 10216 20201 30195 40201 85500 333 10276 29080 55037 58005;
0156833980999992006102612004-15667-038950FM-12+000599999V0201401N002110450019N0040001N1+02581+02101101771ADDGF107991041051008001021001KA1240N+02001MA1999999101711MD1999999-0241REMSYN076AAXX  26124 83398 32596 71404 10258 20210 30171 40177 84520 333 20200 59024;
0137833980999992006102618004-15667-038950FM-12+000599999V0200901N003110450019N0040001N1+02641+02141101441ADDGF106991041051008001021001MA1999999101391MD1999999-0361REMSYN070AAXX  26184 83398 32596 60906 10264 20214 30139 40144 84520 333 59036;
0168833980999992006102700004-15667-038950FM-12+000599999V0200901N001010450019N0010001N1+02441+02271101481ADDGF106991041051008001021001KA1240M+02861MA1999999101431MD1999999-0521REMSYN088AAXX  27004 83398 32594 60902 10244 20227 30143 40148 84520 333 10286 29082 55048 59052;
0156833980999992006102712004-15667-038950FM-12+000599999V0203601N002110450019N0040001N1+02781+02211101301ADDGF106991031051008001021011KA1240N+02121MA1999999101251MD1999999-0461REMSYN076AAXX  27124 83398 32596 63604 10278 20221 30125 40130 83521 333 20212 59046;
0137833980999992006102718004-15667-038950FM-12+000599999V0203601N005110450019N0040001N1+02781+02271100991ADDGF106991021051008001041011MA1999999100941MD1999999-0451REMSYN070AAXX  27184 83398 32596 63610 10278 20227 30094 40099 82541 333 59045;
0168833980999992006102800004-15667-038950FM-12+000599999V0203601N002110450019N0010001N1+02541+02301101101ADDGF105991031051008001021001KA1240M+02921MA1999999101051MD1999999-0381REMSYN088AAXX  28004 83398 32594 53604 10254 20230 30105 40110 83520 333 10292 29082 55107 59038;
0156833980999992006102812004-15667-038950FM-12+000599999V0203201N002110450019N0040001N1+02901+02301101091ADDGF108991041051008001021001KA1240N+02301MA1999999101041MD1999999-0211REMSYN076AAXX  28124 83398 32596 83204 10290 20230 30104 40109 84520 333 20230 59021;
0137833980999992006102818004-15667-038950FM-12+000599999V0203601N006210075019N0040001N1+02661+02351101631ADDGF108991051051008001021001MA1999999100581MD1999999-0361REMSYN070AAXX  28184 83398 32596 83612 10266 20235 30058 40163 85520 333 59036;
0213833980999992006102900004-15667-038950FM-12+000599999V0203601N002110075019N0010001N1+02541+02401101051ADDAA106004191AY191061AY261061GF108991051051008001021999KA1240M+02991MA1999999101001MD1999999-0051MW1021REMSYN100AAXX  29004 83398 21594 83604 10254 20240 30100 40105 70296 8552/ 333 10299 29084 55081 59005 60041;
0201833980999992006102912004-15667-038950FM-12+000599999V0201801N003110075019N0040001N1+02441+02271101251ADDAA124004191AY191061AY261061GF108991051051008001021999KA1240N+02301MA1999999101201MD1999999+0161MW1021REMSYN088AAXX  29124 83398 21596 81806 10244 20227 30120 40125 70296 8552/ 333 20230 58016 60044;
0137833980999992006102918004-15667-038950FM-12+000599999V0201401N003110075019N0040001N1+02421+02251101001ADDGF108991051051008001021999MA1999999100951MD1999999+0371REMSYN070AAXX  29184 83398 32596 81406 10242 20225 30095 40100 8552/ 333 58037;
0213833980999992006103000004-15667-038950FM-12+000599999V0209999C000010075019N0010001N1+02321+02291101271ADDAA106000891AY161061AY221061GF108991051051008001021999KA1240M+02591MA1999999101221MD1999999+0221MW1021REMSYN100AAXX  30004 83398 21594 80000 10232 20229 30122 40127 70262 8552/ 333 10259 29094 55000 58022 69971;
0201833980999992006103012004-15667-038950FM-12+000599999V0203601N005110075019N0040001N1+02261+02231101321ADDAA124059991AY191061AY261061GF108991051071008001021999KA1240N+02161MA1999999101271MD1999999+0071MW1621REMSYN088AAXX  30124 83398 21596 83610 10226 20223 30127 40132 76296 8572/ 333 20216 58007 60604;
0182833980999992006103018004-15667-038950FM-12+000599999V0203601N002110075019N0040001N1+02441+02131100991ADDAA106010991AY161061AY221061GF107991051051008001021001MA1999999100941MD1999999-0011MW1021REMSYN082AAXX  30184 83398 21596 73604 10244 20213 30094 40099 70262 85520 333 59001 60111;
0168833980999992006103100004-15667-038950FM-12+000599999V0203601N004110075019N0010001N1+02381+02291101251ADDGF108991051051008001021999KA1240M+02541MA1999999101201MD1999999-0021REMSYN088AAXX  31004 83398 32594 83608 10238 20229 30120 40125 8552/ 333 10254 29093 55000 59002;
0173833980999992006103112004-15667-038950FM-12+000599999V0203601N002110075019N0040001N1+02681+02331101451ADDAA124010991GF107991051051008001021001KA1240N+02201MA1999999101401MD1999999+0131REMSYN082AAXX  31124 83398 22596 73604 10268 20233 30140 40145 85520 333 20220 58013 60114;
0154833980999992006103118004-15667-038950FM-12+000599999V0203601N002110450019N0040001N1+02721+02321101151ADDAA106006191GF106991041051008001021001MA1999999101101MD1999999+0161REMSYN076AAXX  31184 83398 21596 63604 10272 20232 30110 40115 84520 333 58016 60061;
0168833980999992006110100004-15667-038950FM-12+000599999V0209999C000010075019N0010001N1+02541+02291101421ADDGF108991051051008001021001KA1240M+02821MA1999999101371MD1999999+0171REMSYN088AAXX  01004 83398 32594 80000 10254 20229 30137 40142 85520 333 10282 29083 55060 58017;
0173833980999992006110112004-15667-038950FM-12+000599999V0203601N003110075019N0040001N1+02721+02261101631ADDAA124006191GF107991051051008001021001KA1240N+02261MA1999999101571MD1999999+0171REMSYN082AAXX  01124 83398 22596 73606 10272 20226 30157 40163 85520 333 20226 58017 60064;
0137833980999992006110118004-15667-038950FM-12+000599999V0203601N002110075019N0040001N1+02641+02251101331ADDGF107991051051008001021001MA1999999101281MD1999999+0181REMSYN070AAXX  01184 83398 32596 73604 10264 20225 30128 40133 85520 333 58018;
0168833980999992006110200004-15667-038950FM-12+000599999V0203601N003110075019N0010001N1+02541+02331101501ADDGF108991051051008001021999KA1240M+02821MA1999999101451MD1999999+0081REMSYN088AAXX  02004 83398 32594 83606 10254 20233 30145 40150 8552/ 333 10282 29083 55075 58008;
0201833980999992006110212004-15667-038950FM-12+000599999V0203601N002110450019N0040001N1+02761+02361101561ADDAA124000591AY161061AY221061GF106991031051008001021001KA1240N+02221MA1999999101511MD1999999-0061MW1021REMSYN088AAXX  02124 83398 21596 63604 10276 20236 30151 40156 70262 83520 333 20222 59006 69964;
0137833980999992006110218004-15667-038950FM-12+000599999V0203601N002110450019N0040001N1+02721+02301101251ADDGF105991031051008001041001MA1999999101201MD1999999-0081REMSYN070AAXX  02184 83398 32596 53604 10272 20230 30120 40125 83540 333 59008;
0168833980999992006110300004-15667-038950FM-12+000599999V0200501N002112200019N0010001N1+02541+02251101491ADDGF104991041051008001001001KA1240M+02881MA1999999101441MD1999999-0011REMSYN088AAXX  03004 83398 32594 40504 10254 20225 30144 40149 84500 333 10288 29081 55107 59001;
0156833980999992006110312004-15667-038950FM-12+000599999V0203601N002110450019N0040001N1+02751+02271101491ADDGF106991041051008001021001KA1240N+02181MA1999999101441MD1999999-0071REMSYN076AAXX  03124 83398 32596 63604 10275 20227 30144 40149 84520 333 20218 59007;
0137833980999992006110318004-15667-038950FM-12+000599999V0200501N002112200019N0040001N1+02741+02281101101ADDGF102991011011008001041001MA1999999101051MD1999999-0151REMSYN070AAXX  03184 83398 32596 20504 10274 20228 30105 40110 81140 333 59015;
0168833980999992006110400004-15667-038950FM-12+000599999V0203601N003112200019N0010001N1+02491+02261101311ADDGF103991021021008001041001KA1240M+02951MA1999999101261MD1999999-0161REMSYN088AAXX  04004 83398 32594 33606 10249 20226 30126 40131 82240 333 10295 29081 55104 59016;
0201833980999992006110412004-15667-038950FM-12+000599999V0203601N003110450019N0040001N1+02741+02241101291ADDAA124000891AY161061AY221061GF105991031021008001041001KA1240N+02271MA1999999101241MD1999999-0201MW1021REMSYN088AAXX  04124 83398 21596 53606 10274 20224 30124 40129 70262 83240 333 20227 59020 69974;
0137833980999992006110418004-15667-038950FM-12+000599999V0203601N003112200019N0040001N1+02751+02131100921ADDGF102991011011008001041001MA1999999100871MD1999999-0181REMSYN070AAXX  04184 83398 32596 23606 10275 20213 30087 40092 81140 333 59018;
0168833980999992006110500004-15667-038950FM-12+000599999V0203601N003112200019N0010001N1+02501+02251101231ADDGF102991011011008001041001KA1240M+02871MA1999999101181MD1999999-0081REMSYN088AAXX  05004 83398 32594 23606 10250 20225 30118 40123 81140 333 10287 29079 55111 59008;
0156833980999992006110512004-15667-038950FM-12+000599999V0203601N001010450019N0040001N1+02781+02211101331ADDGF107991041051008001021001KA1240N+02241MA1999999101281MD1999999+0041REMSYN076AAXX  05124 83398 32596 73602 10278 20221 30128 40133 84520 333 20224 58004;
0137833980999992006110518004-15667-038950FM-12+000599999V0203601N003112200019N0040001N1+02791+02191101021ADDGF104991021021008001041001MA1999999100971MD1999999+0101REMSYN070AAXX  05184 83398 32596 43606 10279 20219 30097 40102 82240 333 58010;
0168833980999992006110600004-15667-038950FM-12+000599999V0203601N001012200019N0010001N1+02491+02221101311ADDGF102991011011008001041001KA1240M+02951MA1999999101261MD1999999+0081REMSYN088AAXX  06004 83398 32594 23602 10249 20222 30126 40131 81140 333 10295 29078 55084 58008;
0156833980999992006110612004-15667-038950FM-12+000599999V0203201N002110450019N0040001N1+02811+02161101331ADDGF106991041051008001041001KA1240N+02231MA1999999101281MD1999999+0001REMSYN076AAXX  06124 83398 32596 63204 10281 20216 30128 40133 84540 333 20223 58000;
0137833980999992006110618004-15667-038950FM-12+000599999V0203601N003112200019N0040001N1+02811+02161100961ADDGF102991011011008001041001MA1999999100911MD1999999-0061REMSYN070AAXX  06184 83398 32596 23606 10281 20216 30091 40096 81140 333 59006;
0168833980999992006110700004-15667-038950FM-12+000599999V0203601N001012200019N0010001N1+02521+02251101101ADDGF102991011011008001041001KA1240M+02951MA1999999101051MD1999999-0211REMSYN088AAXX  07004 83398 32594 23602 10252 20225 30105 40110 81140 333 10295 29077 55100 59021;
0156833980999992006110712004-15667-038950FM-12+000599999V0203601N009310450019N0040001N1+02871+02221101091ADDGF106991031021008001041001KA1240N+02121MA1999999101041MD1999999-0241REMSYN076AAXX  07124 83398 32596 63618 10287 20222 30104 40109 83240 333 20212 59024;
0137833980999992006110718004-15667-038950FM-12+000599999V0203601N005112200019N0040001N1+02791+02331100681ADDGF102991011011008001041001MA1999999100631MD1999999-0281REMSYN070AAXX  07184 83398 32596 23610 10279 20233 30063 40068 81140 333 59028;
0201833980999992006110812004-15667-038950FM-12+000599999V0201801N001010075019N0040001N1+02401+02311101121ADDAA124020191AY161061AY221061GF108991051051008001021999KA1240N+02291MA1999999101071MD1999999+0031MW1021REMSYN088AAXX  08124 83398 21596 81802 10240 20231 30107 40112 70262 8552/ 333 20229 58003 60204;
0213833980999992006110900004-15667-038950FM-12+000599999V0209999C000010075019N0010001N1+02361+02331101201ADDAA106003091AY161061AY221061GF108991051051008001021999KA1240M+02601MA1999999101151MD1999999+0341MW1021REMSYN100AAXX  09004 83398 21594 80000 10236 20233 30115 40120 70262 8552/ 333 10260 29096 55000 58034 60031;
0201833980999992006110912004-15667-038950FM-12+000599999V0201401N002110075019N0040001N1+02441+02231101331ADDAA124010991AY161061AY221061GF108991051051008001021999KA1240N+02141MA1999999101281MD1999999+0211MW1021REMSYN088AAXX  09124 83398 21596 81404 10244 20223 30128 40133 70262 8552/ 333 20214 58021 60114;
0137833980999992006110918004-15667-038950FM-12+000599999V0201401N002110075019N0040001N1+02511+02101101091ADDGF108991051051008001021999MA1999999101041MD1999999+0231REMSYN070AAXX  09184 83398 32596 81404 10251 20210 30104 40109 8552/ 333 58023;
0213833980999992006111000004-15667-038950FM-12+000599999V0200901N001010075019N0010001N1+02331+02191101311ADDAA106000021AY151061AY221061GF108991051051008001021999KA1240M+02661MA1999999101261MD1999999+0111MW1511REMSYN100AAXX  10004 83398 21594 80902 10233 20219 30126 40131 75152 8552/ 333 10266 29088 55002 58011 69921;
0201833980999992006111012004-15667-038950FM-12+000599999V0201401N001010075019N0040001N1+02281+02251101241ADDAA124001091AY161061AY221061GF108991051051008001021999KA1240N+02201MA1999999101191MD1999999-0091MW1021REMSYN088AAXX  10124 83398 21596 81402 10228 20225 30119 40124 70262 8552/ 333 20220 59009 60014;
0182833980999992006111018004-15667-038950FM-12+000599999V0200501N001010075019N0040001N1+02531+02281100881ADDAA106007991AY161061AY221061GF108991051051008001021999MA1999999100831MD1999999-0211MW1021REMSYN082AAXX  10184 83398 21596 80502 10253 20228 30083 40088 70262 8552/ 333 59021 60081;
0168833980999992006111100004-15667-038950FM-12+000599999V0209999C000010450019N0010001N1+02441+02341101071ADDGF107991041051008001021001KA1240M+02621MA1999999101021MD1999999-0241REMSYN088AAXX  11004 83398 32594 70000 10244 20234 30102 40107 84520 333 10262 29093 55022 59024;
0201833980999992006111112004-15667-038950FM-12+000599999V0201801N001010075019N0040001N1+02161+02061101261ADDAA124015091AY161061AY221061GF108991051051008001021999KA1240N+02071MA1999999101211MD1999999+0021MW1511REMSYN088AAXX  11124 83398 21596 81802 10216 20206 30121 40126 75162 8552/ 333 20207 58002 60154;
0182833980999992006111118004-15667-038950FM-12+000599999V0201401N001010075019N0040001N1+02291+02221101061ADDAA106008991AY161061AY221061GF108991051051008001021999MA1999999101011MD1999999-0181MW1021REMSYN082AAXX  11184 83398 21596 81402 10229 20222 30101 40106 70262 8552/ 333 59018 60091;
0213833980999992006111200004-15667-038950FM-12+000599999V0201401N002110075019N0010001N1+02141+02111101351ADDAA106001091AY161061AY221061GF108991051051008001021081KA1240M+02471MA1999999101301MD1999999+0281MW1511REMSYN100AAXX  12004 83398 21594 81404 10214 20211 30130 40135 75162 85528 333 10247 29096 55000 58028 60011;
0201833980999992006111212004-15667-038950FM-12+000599999V0202301N003110075019N0040001N1+02071+02021101511ADDAA124016091AY161061AY221061GF108991051051008001021999KA1240N+01941MA1999999101461MD1999999+0251MW1021REMSYN088AAXX  12124 83398 21596 82306 10207 20202 30146 40151 70262 8552/ 333 20194 58025 60164;
0182833980999992006111218004-15667-038950FM-12+000599999V0201401N003110075019N0040001N1+02301+02051101331ADDAA106000891AY161061AY221061GF108991051051008001021999MA1999999101281MD1999999+0271MW1021REMSYN082AAXX  12184 83398 21596 81406 10230 20205 30128 40133 70262 8552/ 333 58027 69971;
0213833980999992006111300004-15667-038950FM-12+000599999V0201801N002110075019N0010001N1+02061+02031101661ADDAA106000591AY161061AY221061GF108991051051008001021999KA1240M+02491MA1999999101601MD1999999+0301MW1511REMSYN100AAXX  13004 83398 21594 81804 10206 20203 30160 40166 75162 8552/ 333 10249 29095 55000 58030 69951;
0201833980999992006111312004-15667-038950FM-12+000599999V0201801N001010075019N0040001N1+02171+02121101661ADDAA124002091AY161061AY221061GF108991051051008001021999KA1240N+01991MA1999999101601MD1999999+0141MW1021REMSYN088AAXX  13124 83398 21596 81802 10217 20212 30160 40166 70262 8552/ 333 20199 58014 60024;
0137833980999992006111318004-15667-038950FM-12+000599999V0201401N001010075019N0040001N1+02531+02341101371ADDGF108991051051008001021999MA1999999101321MD1999999+0041REMSYN070AAXX  13184 83398 32596 81402 10253 20234 30132 40137 8552/ 333 58004;
0213833980999992006111400004-15667-038950FM-12+000599999V0202301N001010075019N0010001N1+02261+02231101541ADDAA106011991AY161061AY221061GF108991051051008001021999KA1240M+02601MA1999999101491MD1999999-0111MW1621REMSYN100AAXX  14004 83398 21594 82302 10226 20223 30149 40154 76262 8552/ 333 10260 29095 55000 59011 60121;
0201833980999992006111412004-15667-038950FM-12+000599999V0200501N004112200019N0040001N1+02721+02391101651ADDAA124016091AY161061AY221061GF104991021021008001041001KA1240N+02151MA1999999101591MD1999999-0011MW1011REMSYN088AAXX  14124 83398 21596 40508 10272 20239 30159 40165 70162 82240 333 20215 59001 60164;
0137833980999992006111418004-15667-038950FM-12+000599999V0200501N001010450019N0040001N1+02741+02211101401ADDGF106991041021008001041001MA1999999101351MD1999999+0031REMSYN070AAXX  14184 83398 32596 60502 10274 20221 30135 40140 84240 333 58003;
0168833980999992006111500004-15667-038950FM-12+000599999V0200901N003110450019N0010001N1+02511+02321101591ADDGF106991041051008001041001KA1240M+02821MA1999999101541MD1999999+0051REMSYN088AAXX  15004 83398 32594 60906 10251 20232 30154 40159 84540 333 10282 29083 55088 58005;
0156833980999992006111512004-15667-038950FM-12+000599999V0200501N005112200019N0040001N1+02761+02321101771ADDGF104991021021008001041001KA1240N+02471MA1999999101711MD1999999+0121REMSYN076AAXX  15124 83398 32596 40510 10276 20232 30171 40177 82240 333 20247 58012;
0137833980999992006111518004-15667-038950FM-12+000599999V0200501N003112200019N0040001N1+02811+02301101541ADDGF104991021021008001041001MA1999999101491MD1999999+0141REMSYN070AAXX  15184 83398 32596 40506 10281 20230 30149 40154 82240 333 58014;
0168833980999992006111600004-15667-038950FM-12+000599999V0200501N003112200019N0010001N1+02561+02231101851ADDGF103991021021008001041001KA1240M+02891MA1999999101791MD1999999+0251REMSYN088AAXX  16004 83398 32594 30506 10256 20223 30179 40185 82240 333 10289 29079 55108 58025;
0156833980999992006111612004-15667-038950FM-12+000599999V0200901N001010450019N0040001N1+02801+02201101831ADDGF106991041051008001041001KA1240N+02171MA1999999101771MD1999999+0061REMSYN076AAXX  16124 83398 32596 60902 10280 20220 30177 40183 84540 333 20217 58006;
0182833980999992006111618004-15667-038950FM-12+000599999V0200901N002110075019N0040001N1+02751+02151101611ADDAA106001091AY161061AY221061GF108991051051008001021999MA1999999101551MD1999999+0061MW1021REMSYN082AAXX  16184 83398 21596 80904 10275 20215 30155 40161 70262 8552/ 333 58006 60011;
0213833980999992006111700004-15667-038950FM-12+000599999V0200901N001010450019N0010001N1+02501+02211101811ADDAA106006191AY161061AY221061GF105991031051008001021001KA1240M+02901MA1999999101751MD1999999-0041MW1021REMSYN100AAXX  17004 83398 21594 50902 10250 20221 30175 40181 70262 83520 333 10290 29077 55073 59004 60061;
0173833980999992006111712004-15667-038950FM-12+000599999V0200501N002112200019N0040001N1+02741+02191101781ADDAA124007991GF104991021021008001041001KA1240N+02251MA1999999101171MD1999999-0051REMSYN082AAXX  17124 83398 22596 40504 10274 20219 30117 40178 82240 333 20225 59005 60084;
0137833980999992006111718004-15667-038950FM-12+000599999V0200901N003112200019N0040001N1+02761+02091101431ADDGF102991011011008001041001MA1999999101381MD1999999-0171REMSYN070AAXX  17184 83398 32596 20906 10276 20209 30138 40143 81140 333 59017;
0168833980999992006111800004-15667-038950FM-12+000599999V0200501N003110450019N0010001N1+02481+02151101651ADDGF107991041051008001021001KA1240M+02861MA1999999101591MD1999999-0161REMSYN088AAXX  18004 83398 32594 70506 10248 20215 30159 40165 84520 333 10286 29076 55113 59016;
0201833980999992006111812004-15667-038950FM-12+000599999V0209999C000010450019N0040001N1+02581+02371101651ADDAA124010991AY161061AY221061GF107991041051008001021001KA1240N+02201MA1999999101591MD1999999-0131MW1021REMSYN088AAXX  18124 83398 21596 70000 10258 20237 30159 40165 70262 84520 333 20220 59013 60114;
0137833980999992006111818004-15667-038950FM-12+000599999V0200501N002112200019N0040001N1+02721+02221101281ADDGF103991021011008001041001MA1999999101231MD1999999-0151REMSYN070AAXX  18184 83398 32596 30504 10272 20222 30123 40128 82140 333 59015;
0168833980999992006111900004-15667-038950FM-12+000599999V0200901N001010450019N0010001N1+02521+02251101441ADDGF105991031021008001041001KA1240M+02781MA1999999101391MD1999999-0201REMSYN088AAXX  19004 83398 32594 50902 10252 20225 30139 40144 83240 333 10278 29083 55092 59020;
0156833980999992006111912004-15667-038950FM-12+000599999V0209999C000010450019N0040001N1+02741+02341101551ADDGF105991031021008001041001KA1240N+02221MA1999999101501MD1999999-0091REMSYN076AAXX  19124 83398 32596 50000 10274 20234 30150 40155 83240 333 20222 59009;
0137833980999992006111918004-15667-038950FM-12+000599999V0203601N003112200019N0040001N1+02801+02311101191ADDGF102991011011008001041001MA1999999101141MD1999999-0091REMSYN070AAXX  19184 83398 32596 23606 10280 20231 30114 40119 81140 333 59009;
0168833980999992006112000004-15667-038950FM-12+000599999V0203601N005110450019N0010001N1+02591+02261101401ADDGF106991041021008001041001KA1240M+02901MA1999999101351MD1999999-0041REMSYN088AAXX  20004 83398 32594 63610 10259 20226 30135 40140 84240 333 10290 29080 55107 59004;
0156833980999992006112012004-15667-038950FM-12+000599999V0203601N003110450019N0040001N1+02881+02301101551ADDGF106991041021008001041001KA1240N+02241MA1999999101501MD1999999+0001REMSYN076AAXX  20124 83398 32596 63606 10288 20230 30150 40155 84240 333 20224 58000;
0137833980999992006112018004-15667-038950FM-12+000599999V0203601N005112200019N0040001N1+02841+02331101231ADDGF102991011011008001041001MA1999999101181MD1999999+0041REMSYN070AAXX  20184 83398 32596 23610 10284 20233 30118 40123 81140 333 58004;
0168833980999992006112100004-15667-038950FM-12+000599999V0203601N002112200019N0010001N1+02581+02331101371ADDGF102991011011008001041001KA1240M+02981MA1999999101321MD1999999-0031REMSYN088AAXX  21004 83398 32594 23604 10258 20233 30132 40137 81140 333 10298 29079 55111 59003;
0137833980999992006112118004-15667-038950FM-12+000599999V0203601N006212200019N0040001N1+02841+02351101261ADDGF103991021011008001041001MA1999999101211MD1999999+0031REMSYN070AAXX  21184 83398 32596 33612 10284 20235 30121 40126 82140 333 58003;
0168833980999992006112200004-15667-038950FM-12+000599999V0203601N002112200019N0010001N1+02541+02351101401ADDGF102991011011008001041001KA1240M+02981MA1999999101351MD1999999+0031REMSYN088AAXX  22004 83398 32594 23604 10254 20235 30135 40140 81140 333 10298 29081 55114 58003;
0156833980999992006112212004-15667-038950FM-12+000599999V0203601N006210450019N0040001N1+02901+02301101451ADDGF105991031051008001041011KA1240N+02231MA1999999101401MD1999999-0081REMSYN076AAXX  22124 83398 32596 53612 10290 20230 30140 40145 83541 333 20223 59008;
0137833980999992006112218004-15667-038950FM-12+000599999V0203601N004112200019N0040001N1+02841+02331101141ADDGF104991021011008001041001MA1999999101091MD1999999-0121REMSYN070AAXX  22184 83398 32596 43608 10284 20233 30109 40114 82140 333 59012;
0168833980999992006112300004-15667-038950FM-12+000599999V0203601N002112200019N0010001N1+02361+02291101381ADDGF102991011011008001041001KA1240M+02981MA1999999101331MD1999999-0021REMSYN088AAXX  23004 83398 32594 23604 10236 20229 30133 40138 81140 333 10298 29078 55113 59002;
0156833980999992006112312004-15667-038950FM-12+000599999V0203601N003112200019N0040001N1+02781+02271101451ADDGF104991021011008001041001KA1240N+02241MA1999999101401MD1999999+0001REMSYN076AAXX  23124 83398 32596 43606 10278 20227 30140 40145 82140 333 20224 58000;
0137833980999992006112318004-15667-038950FM-12+000599999V0200501N004112200019N0040001N1+02801+02271101191ADDGF104991021011008001041001MA1999999101141MD1999999+0021REMSYN070AAXX  23184 83398 32596 40508 10280 20227 30114 40119 82140 333 58002;
0168833980999992006112400004-15667-038950FM-12+000599999V0203601N002110450019N0010001N1+02581+02381101481ADDGF105991031021008001041001KA1240M+02951MA1999999101431MD1999999+0101REMSYN088AAXX  24004 83398 32594 53604 10258 20238 30143 40148 83240 333 10295 29081 55112 58010;
0201833980999992006112412004-15667-038950FM-12+000599999V0200501N001010450019N0040001N1+02791+02351101621ADDAA124001091AY161061AY221061GF105991031051008001041011KA1240N+02351MA1999999101561MD1999999+0161MW1021REMSYN088AAXX  24124 83398 21596 50502 10279 20235 30156 40162 70262 83541 333 20235 58016 60014;
0168833980999992006112500004-15667-038950FM-12+000599999V0200501N003110450019N0010001N1+02581+02211101611ADDGF106991041051008001021001KA1240M+02951MA1999999101551MD1999999+0121REMSYN088AAXX  25004 83398 32594 60506 10258 20221 30155 40161 84520 333 10295 29077 55090 58012;
0201833980999992006112512004-15667-038950FM-12+000599999V0200501N004110450019N0040001N1+02751+02131101691ADDAA124000591AY151061AY221061GF106991041021008001041001KA1240N+02481MA1999999101631MD1999999+0071MW1021REMSYN088AAXX  25124 83398 21596 60508 10275 20213 30163 40169 70252 84240 333 20248 58007 69964;
0137833980999992006112518004-15667-038950FM-12+000599999V0200901N001012200019N0040001N1+02771+02241101421ADDGF102991011011008001041001MA1999999101371MD1999999+0021REMSYN070AAXX  25184 83398 32596 20902 10277 20224 30137 40142 81140 333 58002;
0168833980999992006112600004-15667-038950FM-12+000599999V0200901N001012200019N0010001N1+02541+02311101511ADDGF102991011011008001041001KA1240M+02941MA1999999101461MD1999999+0091REMSYN088AAXX  26004 83398 32594 20902 10254 20231 30146 40151 81140 333 10294 29079 55112 58009;
0201833980999992006112612004-15667-038950FM-12+000599999V0200901N002110075019N0040001N1+02521+02491101481ADDAA124010991AY161061AY221061GF108991051051008001021999KA1240N+02151MA1999999101431MD1999999-0201MW1611REMSYN088AAXX  26124 83398 21596 80904 10252 20249 30143 40148 76162 8552/ 333 20215 59020 60114;
0182833980999992006112618004-15667-038950FM-12+000599999V0200501N004110075019N0040001N1+02701+02521101091ADDAA106008991AY161061AY221061GF107991051051008001021001MA1999999101041MD1999999-0331MW1021REMSYN082AAXX  26184 83398 21596 70508 10270 20252 30104 40109 70262 85520 333 59033 60091;
0213833980999992006112700004-15667-038950FM-12+000599999V0203601N005110450019N0010001N1+02561+02441101261ADDAA106000591AY151061AY221061GF106991041051008001021001KA1240M+02791MA1999999101211MD1999999-0251MW1021REMSYN100AAXX  27004 83398 21594 63610 10256 20244 30121 40126 70252 84520 333 10279 29093 55030 59025 69941;
0201833980999992006112712004-15667-038950FM-12+000599999V0203201N007210450019N0500001N1+02801+02361101331ADDAA124017091AY161061AY221061GF106991041051008001021001KA1240N+02431MA1999999101281MD1999999-0151MW1021REMSYN088AAXX  27124 83398 21599 63214 10280 20236 30128 40133 70262 84520 333 20243 59015 60174;
0137833980999992006112718004-15667-038950FM-12+000599999V0200501N006210450019N0040001N1+02821+02381100971ADDGF106991041021008001041001MA1999999100921MD1999999-0121REMSYN070AAXX  27184 83398 32596 60512 10282 20238 30092 40097 84240 333 59012;
0168833980999992006112800004-15667-038950FM-12+000599999V0203601N005110450019N0010001N1+02621+02351101211ADDGF106991041051008001021001KA1240M+02941MA1999999101161MD1999999-0051REMSYN088AAXX  28004 83398 32594 63610 10262 20235 30116 40121 84520 333 10294 29081 55072 59005;
0156833980999992006112812004-15667-038950FM-12+000599999V0203601N006210075019N0040001N1+02861+02311101331ADDGF108991051051008001021999KA1240N+02461MA1999999101281MD1999999+0001REMSYN076AAXX  28124 83398 32596 83612 10286 20231 30128 40133 8552/ 333 20246 58000;
0137833980999992006112818004-15667-038950FM-12+000599999V0203601N004112200019N0040001N1+02851+02301101041ADDGF104991021011008001041001MA1999999100991MD1999999+0071REMSYN070AAXX  28184 83398 32596 43608 10285 20230 30099 40104 82140 333 58007;
0168833980999992006112900004-15667-038950FM-12+000599999V0203601N002112200019N0010001N1+02571+02341101231ADDGF103991021011008001041001KA1240M+02981MA1999999101181MD1999999+0021REMSYN088AAXX  29004 83398 32594 33604 10257 20234 30118 40123 82140 333 10298 29079 55104 58002;
0156833980999992006112912004-15667-038950FM-12+000599999V0203201N005110450019N0040001N1+02921+02321101151ADDGF106991041021008001041001KA1240N+02331MA1999999101101MD1999999-0181REMSYN076AAXX  29124 83398 32596 63210 10292 20232 30110 40115 84240 333 20233 59018;
0137833980999992006112918004-15667-038950FM-12+000599999V0203601N009310450019N0040001N1+02841+02381100991ADDGF105991031021008001041001MA1999999100941MD1999999-0051REMSYN070AAXX  29184 83398 32596 53618 10284 20238 30094 40099 83240 333 59005;
0156833980999992006113012004-15667-038950FM-12+000599999V0203201N007210450019N0040001N1+02801+02251101281ADDGF106991041051008001041001KA1240N+02311MA1999999101231MD1999999+0131REMSYN076AAXX  30124 83398 32596 63214 10280 20225 30123 40128 84540 333 20231 58013;
0137833980999992006113018004-15667-038950FM-12+000599999V0203601N004110450019N0040001N1+02801+02311999999ADDGF106991041051008001021001MA1999999100911MD1999999-0031REMSYN070AAXX  30184 83398 32596 63608 10280 20231 30091 44520 84520 333 59003;
0168833980999992006120100004-15667-038950FM-12+000599999V0203601N002110450019N0010001N1+02531+02321101201ADDGF105991031021008001041001KA1240M+03001MA1999999101151MD1999999+0021REMSYN088AAXX  01004 83398 32594 53604 10253 20232 30115 40120 83240 333 10300 29081 55100 58002;
0156833980999992006120112004-15667-038950FM-12+000599999V0203201N003110450019N0040001N1+02881+02251101271ADDGF106991041021008001041001KA1240N+02221MA1999999101221MD1999999-0011REMSYN076AAXX  01124 83398 32596 63206 10288 20225 30122 40127 84240 333 20222 59001;
0137833980999992006120118004-15667-038950FM-12+000599999V0200501N003112200019N0040001N1+02881+02481101071ADDGF104991021011008001041001MA1999999101021MD1999999+0111REMSYN070AAXX  01184 83398 32596 40506 10288 20248 30102 40107 82140 333 58011;
0168833980999992006120200004-15667-038950FM-12+000599999V0203601N002110450019N0010001N1+02561+02361101341ADDGF108991031021008001041001KA1240M+03001MA1999999101291MD1999999+0141REMSYN088AAXX  02004 83398 32594 83604 10256 20236 30129 40134 83240 333 10300 29080 55115 58014;
0156833980999992006120212004-15667-038950FM-12+000599999V0209999C000010450019N0040001N1+02721+02321101471ADDGF106991041051008001021001KA1240N+02211MA1999999101421MD1999999+0201REMSYN076AAXX  02124 83398 32596 60000 10272 20232 30142 40147 84520 333 20221 58020;
0137833980999992006120218004-15667-038950FM-12+000599999V0200901N002110450019N0040001N1+02841+02241101201ADDGF105991031021008001041001MA1999999101151MD1999999+0131REMSYN070AAXX  02184 83398 32596 50904 10284 20224 30115 40120 83240 333 58013;
0168833980999992006120300004-15667-038950FM-12+000599999V0209999C000010450019N0010001N1+02441+02341101501ADDGF105991031051008001041001KA1240M+02931MA1999999101451MD1999999+0161REMSYN088AAXX  03004 83398 32594 50000 10244 20234 30145 40150 83540 333 10293 29084 55093 58016;
0156833980999992006120312004-15667-038950FM-12+000599999V0209999C000010450019N0040001N1+02681+02161101541ADDGF106991031051008001021001KA1240N+02151MA1999999101461MD1999999+0071REMSYN076AAXX  03124 83398 32596 60000 10268 20216 30146 40154 83520 333 20215 58007;
0137833980999992006120318004-15667-038950FM-12+000599999V0200501N002112200019N0040001N1+02801+02251101221ADDGF104991021021008001041001MA1999999101231MD1999999+0081REMSYN070AAXX  03184 83398 32596 40504 10280 20225 30123 40122 82240 333 58008;
0201833980999992006120412004-15667-038950FM-12+000599999V0203601N002110450019N0040001N1+02861+02311101581ADDAA124001091AY161061AY221061GF106991041051008001021001KA1240N+02221MA1999999101531MD1999999+0041MW1021REMSYN088AAXX  04124 83398 21596 63604 10286 20231 30153 40158 70262 84520 333 20222 58004 60014;
0182833980999992006120418004-15667-038950FM-12+000599999V0203601N002110450019N0040001N1+02841+02311101331ADDAA106002091AY161061AY221061GF106991041051008001021001MA1999999101281MD1999999+0031MW1021REMSYN082AAXX  04184 83398 21596 63604 10284 20231 30128 40133 70262 84520 333 58003 60021;
0168833980999992006120500004-15667-038950FM-12+000599999V0209999C000012200019N0010001N1+02641+02251101511ADDGF103991031011008001001001KA1240M+02941MA1999999101461MD1999999-0071REMSYN088AAXX  05004 83398 32594 30000 10264 20225 30146 40151 83100 333 10294 29076 55109 59007;
0173833980999992006120512004-15667-038950FM-12+000599999V0200501N002110450019N0040001N1+02841+02171101651ADDAA124002091GF105991031051008001041001KA1240N+02141MA1999999101591MD1999999+0061REMSYN082AAXX  05124 83398 22596 50504 10284 20217 30159 40165 83540 333 20214 58006 60024;
0137833980999992006120518004-15667-038950FM-12+000599999V0200501N003110450019N0040001N1+02821+02201101401ADDGF106991041051008001021001MA1999999101351MD1999999+0071REMSYN070AAXX  05184 83398 32596 60506 10282 20220 30135 40140 84520 333 58007;
0168833980999992006120600004-15667-038950FM-12+000599999V0200501N002110450019N0010001N1+02601+99999101581ADDGF106991041051008001021001KA1240M+02981MA1999999101531MD1999999+0071REMSYN088AAXX  06004 83398 32594 60504 10260 20292 30153 40158 84520 333 10298 29079 55080 58007;
0168833980999992006120700004-15667-038950FM-12+000599999V0200501N002110450019N0010001N1+02641+02391101231ADDGF105991031051008001041001KA1240M+03021MA1999999101181MD1999999-0351REMSYN088AAXX  07004 83398 32594 50504 10264 20239 30118 40123 83540 333 10302 29078 55099 59035;
0156833980999992006120712004-15667-038950FM-12+000599999V0203601N003110450019N0040001N1+02981+02301101241ADDGF106991031051008001041011KA1240N+02301MA1999999101191MD1999999-0281REMSYN076AAXX  07124 83398 32596 63606 10298 20230 30119 40124 83541 333 20230 59028;
0137833980999992006120718004-15667-038950FM-12+000599999V0203601N004110450019N0040001N1+02841+02381100811ADDGF106991021051008001041011MA1999999100761MD1999999-0391REMSYN070AAXX  07184 83398 32596 63608 10284 20238 30076 40081 82541 333 59039;
0175833980999992006120812004-15667-038950FM-12+000599999V0203201N001019999999N0040001N1+02861+02311101201ADDGF106991999051008001021001KA1240N+02391MA1999999101151MD1999999-0041REMSYN076AAXX  08124 83398 32596 63202 10286 20231 30115 40120 89520 333 20239 59004;EQDQ01+000092SCOTLC
0168833980999992006120900004-15667-038950FM-12+000599999V0203201N001010075019N0010001N1+02661+02461101131ADDGF108991051051008001021999KA1240M+03081MA1999999101081MD1999999+0031REMSYN088AAXX  09004 83398 32594 83202 10266 20246 30108 40113 8552/ 333 10308 29080 55046 58003;
0156833980999992006120912004-15667-038950FM-12+000599999V0203201N003110075019N0040001N1+02921+02431101311ADDGF107991051051008001021001KA1240N+02401MA1999999101261MD1999999+0111REMSYN076AAXX  09124 83398 32596 73206 10292 20243 30126 40131 85520 333 20240 58011;
0182833980999992006120918004-15667-038950FM-12+000599999V0203601N001010075019N0040001N1+02621+02371101071ADDAA106006191AY191061AY261061GF108991051051008001021999MA1999999101021MD1999999+0171MW1021REMSYN082AAXX  09184 83398 21596 83602 10262 20237 30102 40107 70296 8552/ 333 58017 60061;
0187833980999992006121000004-15667-038950FM-12+000599999V0209999C000010075019N0010001N1+02361+02221101181ADDGF108991999051008001021999KA1240M+03001MA1999999101131MD1999999+0051REMSYN088AAXX  10004 83398 32594 80000 10236 20222 30113 40118 8852/ 333 10300 29087 55010 58005;EQDQ01+000082SCOTLC
0173833980999992006121012004-15667-038950FM-12+000599999V0203601N002110075019N0040001N1+02901+02271100241ADDAA124006191GF107991061051008001021001KA1240N+02301MA1999999101191MD1999999-0071REMSYN082AAXX  10124 83398 22596 73604 10290 20227 30119 40024 86520 333 20230 59007 60064;
0137833980999992006121018004-15667-038950FM-12+000599999V0203601N005110450019N0040001N1+02901+02201101001ADDGF107991021051008001041011MA1999999100951MD1999999-0071REMSYN070AAXX  10184 83398 32596 73610 10290 20220 30095 40100 82541 333 59007;
0168833980999992006121100004-15667-038950FM-12+000599999V0209999C000010075019N0010001N1+02621+02441101261ADDGF108991051051008001021999KA1240M+03041MA1999999101211MD1999999+0081REMSYN088AAXX  11004 83398 32594 80000 10262 20244 30121 40126 8552/ 333 10304 29079 55069 58008;
0156833980999992006121112004-15667-038950FM-12+000599999V0203601N003110075019N0040001N1+02781+02401101311ADDGF108991051051008001021999KA1240N+02501MA1999999101261MD1999999+0071REMSYN076AAXX  11124 83398 32596 83606 10278 20240 30126 40131 8552/ 333 20250 58007;
0137833980999992006121118004-15667-038950FM-12+000599999V0203601N005110450019N0040001N1+02801+02311101141ADDGF107991041051008001021001MA1999999101091MD1999999+0141REMSYN070AAXX  11184 83398 32596 73610 10280 20231 30109 40114 84520 333 58014;
0168833980999992006121200004-15667-038950FM-12+000599999V0203601N001010075019N0010001N1+02561+02441101441ADDGF108991051051008001021999KA1240M+02521MA1999999101391MD1999999+0181REMSYN088AAXX  12004 83398 32594 83602 10256 20244 30139 40144 8552/ 333 10252 29088 55016 58018;
0201833980999992006121212004-15667-038950FM-12+000599999V0203601N003110450019N0040001N1+02841+02401101481ADDAA124002091AY161061AY221061GF107991041051008001021001KA1240N+02221MA1999999101431MD1999999+0171MW1021REMSYN088AAXX  12124 83398 21596 73606 10284 20240 30143 40148 70262 84520 333 20222 58017 60024;
0137833980999992006121218004-15667-038950FM-12+000599999V0203601N002110450019N0040001N1+02801+02401101221ADDGF107991041051008001021001MA1999999101171MD1999999+0081REMSYN070AAXX  12184 83398 32596 73604 10280 20240 30117 40122 84520 333 58008;
0168833980999992006121300004-15667-038950FM-12+000599999V0209999C000010450019N0010001N1+02541+02441101421ADDGF105991031051008001021001KA1240M+02991MA1999999101371MD1999999-0021REMSYN088AAXX  13004 83398 32594 50000 10254 20244 30137 40142 83520 333 10299 29091 55026 59002;
0173833980999992006121312004-15667-038950FM-12+000599999V0203601N003110450019N0040001N1+02881+02371101541ADDAA124043991GF106991041051008001041001KA1240N+02241MA1999999101491MD1999999+0061REMSYN082AAXX  13124 83398 22596 63606 10288 20237 30149 40154 84540 333 20224 58006 60444;
0137833980999992006121318004-15667-038950FM-12+000599999V0203601N004110450019N0040001N1+02841+02401101311ADDGF107991031051008001041011MA1999999101261MD1999999+0051REMSYN070AAXX  13184 83398 32596 73608 10284 20240 30126 40131 83541 333 58005;
0168833980999992006121400004-15667-038950FM-12+000599999V0203601N002110075019N0010001N1+02641+02391101471ADDGF105991051051008001001001KA1240M+03041MA1999999101421MD1999999+0051REMSYN088AAXX  14004 83398 32594 53604 10264 20239 30142 40147 85500 333 10304 29081 55080 58005;
0156833980999992006121412004-15667-038950FM-12+000599999V0203601N002110450019N0040001N1+02841+02351101611ADDGF105991031021008001041001KA1240N+02271MA1999999101551MD1999999+0061REMSYN076AAXX  14124 83398 32596 53604 10284 20235 30155 40161 83240 333 20227 58006;
0137833980999992006121418004-15667-038950FM-12+000599999V0200501N002110450019N0040001N1+02821+02361101411ADDGF106991041021008001041001MA1999999101361MD1999999+0101REMSYN070AAXX  14184 83398 32596 60504 10282 20236 30136 40141 84240 333 58010;
0168833980999992006121500004-15667-038950FM-12+000599999V0200501N002112200019N0010001N1+02641+02331101611ADDGF104991021021008001041001KA1240M+02981MA1999999101551MD1999999+0131REMSYN088AAXX  15004 83398 32594 40504 10264 20233 30155 40161 82240 333 10298 29079 55088 58013;
0156833980999992006121512004-15667-038950FM-12+000599999V0200501N002110450019N0040001N1+02801+02361101641ADDGF105991031051008001041001KA1240N+02241MA1999999101581MD1999999+0031REMSYN076AAXX  15124 83398 32596 50504 10280 20236 30158 40164 83540 333 20224 58003;
0137833980999992006121518004-15667-038950FM-12+000599999V0200501N003110450019N0040001N1+02861+02331101291ADDGF106991031021008001041011MA1999999102141MD1999999-0121REMSYN070AAXX  15184 83398 32596 60506 10286 20233 30214 40129 83241 333 59012;
0168833980999992006121600004-15667-038950FM-12+000599999V0209999C000010450019N0010001N1+02681+02371101531ADDGF105991031021008001041001KA1240M+02981MA1999999101481MD1999999-0071REMSYN088AAXX  16004 83398 32594 50000 10268 20237 30148 40153 83240 333 10298 29079 55099 59007;
0201833980999992006121612004-15667-038950FM-12+000599999V0203601N002110075019N0040001N1+02601+02461101591ADDAA124001091AY161061AY221061GF108991051071008001021999KA1240N+02301MA1999999101541MD1999999-0041MW1511REMSYN088AAXX  16124 83398 21596 83604 10260 20246 30154 40159 75162 8572/ 333 20230 59004 60014;
0182833980999992006121618004-15667-038950FM-12+000599999V0200501N002110075019N0040001N1+02741+02501101311ADDAA106002091AY161061AY221061GF108991051051008001021999MA1999999101261MD1999999+0021MW1021REMSYN082AAXX  16184 83398 21596 80504 10274 20250 30126 40131 70262 8552/ 333 58002 60021;
0168833980999992006121700004-15667-038950FM-12+000599999V0209999C000010075019N0010001N1+02621+02481101561ADDGF105991051051008001001001KA1240M+02941MA1999999101511MD1999999+0031REMSYN088AAXX  17004 83398 32594 50000 10262 20248 30151 40156 85500 333 10294 29092 55029 58003;
0201833980999992006121812004-15667-038950FM-12+000599999V0203601N003110075019N0040001N1+02801+02521101551ADDAA124007191AY161061AY221061GF107991051051008001021001KA1240N+02201MA1999999101501MD1999999-0191MW1021REMSYN088AAXX  18124 83398 21596 73606 10280 20252 30150 40155 70262 85520 333 20220 59019 60074;
0137833980999992006121818004-15667-038950FM-12+000599999V0200901N002110075019N0040001N1+02561+02361101491ADDGF108991051051008001021999MA1999999101341MD1999999-0051REMSYN070AAXX  18184 83398 32596 80904 10256 20236 30134 40149 8552/ 333 59005;
0168833980999992006121900004-15667-038950FM-12+000599999V0209999C000010450019N0010001N1+02341+02311101511ADDGF106991041051008001021001KA1240M+02861MA1999999101461MD1999999-0061REMSYN088AAXX  19004 83398 32594 60000 10234 20231 30146 40151 84520 333 10286 29093 55010 59006;
0156833980999992006121912004-15667-038950FM-12+000599999V0203601N004110450019N0040001N1+02861+02331101651ADDGF106991041051008001021001KA1240N+02181MA1999999101591MD1999999+0091REMSYN076AAXX  19124 83398 32596 63608 10286 20233 30159 40165 84520 333 20218 58009;
0137833980999992006121918004-15667-038950FM-12+000599999V0203601N003110450019N0040001N1+02921+02321101331ADDGF106991041051008001021001MA1999999101281MD1999999-0061REMSYN070AAXX  19184 83398 32596 63606 10292 20232 30128 40133 84520 333 59006;
0168833980999992006122000004-15667-038950FM-12+000599999V0203601N003112200019N0010001N1+02611+02541101491ADDGF103991021021008001041001KA1240M+03011MA1999999101441MD1999999-0021REMSYN088AAXX  20004 83398 32594 33606 10261 20254 30144 40149 82240 333 10301 29084 55079 59002;
0156833980999992006122012004-15667-038950FM-12+000599999V0203601N002110450019N0040001N1+02841+02351101761ADDGF106991041051008001021001KA1240N+02141MA1999999101171MD1999999+0121REMSYN076AAXX  20124 83398 32596 63604 10284 20235 30117 40176 84520 333 20214 58012;
0137833980999992006122018004-15667-038950FM-12+000599999V0203601N003110450019N0040001N1+02901+02411101501ADDGF106991031051008001041011MA1999999101451MD1999999+0171REMSYN070AAXX  20184 83398 32596 63606 10290 20241 30145 40150 83541 333 58017;
0168833980999992006122100004-15667-038950FM-12+000599999V0209999C000012200019N0010001N1+02621+02481101681ADDGF103991031051008001001001KA1240M+03021MA1999999101621MD1999999+0181REMSYN088AAXX  21004 83398 32594 30000 10262 20248 30162 40168 83500 333 10302 29084 55109 58018;
0156833980999992006122112004-15667-038950FM-12+000599999V0203601N003110450019N0040001N1+02841+02381101781ADDGF105991031051008001041001KA1240N+02241MA1999999101721MD1999999+0011REMSYN076AAXX  21124 83398 32596 53606 10284 20238 30172 40178 83540 333 20224 58001;
0137833980999992006122118004-15667-038950FM-12+000599999V0203601N003110450019N0040001N1+02941+02471101581ADDGF106991021051008001041011MA1999999101531MD1999999+0081REMSYN070AAXX  21184 83398 32596 63606 10294 20247 30153 40158 82541 333 58008;
0168833980999992006122200004-15667-038950FM-12+000599999V0203601N001010450019N0010001N1+02601+02401101651ADDGF105991031051008001021001KA1240M+03001MA1999999101591MD1999999-0031REMSYN088AAXX  22004 83398 32594 53602 10260 20240 30159 40165 83520 333 10300 29083 55116 59003;
0156833980999992006122212004-15667-038950FM-12+000599999V0200501N003110075019N0040001N1+02861+02231101741ADDGF105991051021008001001001KA1240N+02181MA1999999101681MD1999999-0041REMSYN076AAXX  22124 83398 32596 50506 10286 20223 30168 40174 85200 333 20218 59004;
0137833980999992006122218004-15667-038950FM-12+000599999V0200501N003112200019N0040001N1+02921+02321101491ADDGF104991031021008001001011MA1999999101441MD1999999-0091REMSYN070AAXX  22184 83398 32596 40506 10292 20232 30144 40149 83201 333 59009;
0168833980999992006122300004-15667-038950FM-12+000599999V0200501N003112200019N0010001N1+02601+02351101521ADDGF103991031011008001001001KA1240M+03021MA1999999101471MD1999999-0121REMSYN088AAXX  23004 83398 32594 30506 10260 20235 30147 40152 83100 333 10302 29078 55114 59012;
0156833980999992006122312004-15667-038950FM-12+000599999V0200501N002110450019N0040001N1+02881+02281101671ADDGF105991031051008001041001KA1240N+02101MA1999999101611MD1999999-0071REMSYN076AAXX  23124 83398 32596 50504 10288 20228 30161 40167 83540 333 20210 59007;
0137833980999992006122318004-15667-038950FM-12+000599999V0200501N003110450019N0040001N1+02881+02231101361ADDGF106991021021008001041011MA1999999101311MD1999999-0131REMSYN070AAXX  23184 83398 32596 60506 10288 20223 30131 40136 82241 333 59013;
0168833980999992006122400004-15667-038950FM-12+000599999V0200501N001012200019N0010001N1+02631+02401101411ADDGF103991021021008001041001KA1240M+02991MA1999999101361MD1999999-0111REMSYN088AAXX  24004 83398 32594 30502 10263 20240 30136 40141 82240 333 10299 29078 55118 59011;
0156833980999992006122412004-15667-038950FM-12+000599999V0203601N003110450019N0040001N1+02841+02241101571ADDGF105991031021008001041001KA1240N+02201MA1999999101521MD1999999-0091REMSYN076AAXX  24124 83398 32596 53606 10284 20224 30152 40157 83240 333 20220 59009;
0137833980999992006122418004-15667-038950FM-12+000599999V0203601N003112200019N0040001N1+02921+02141101321ADDGF104991021021008001041001MA1999999101271MD1999999-0041REMSYN070AAXX  24184 83398 32596 43606 10292 20214 30127 40132 82240 333 59004;
0168833980999992006122500004-15667-038950FM-12+000599999V0200501N002112200019N0010001N1+02601+02311101461ADDGF103991031011008001001001KA1240M+03011MA1999999101411MD1999999+0051REMSYN088AAXX  25004 83398 32594 30504 10260 20231 30141 40146 83100 333 10301 29076 55117 58005;
0156833980999992006122512004-15667-038950FM-12+000599999V0200501N003110450019N0040001N1+02881+02051101541ADDGF105991031021008001041001KA1240N+02001MA1999999101491MD1999999+0031REMSYN076AAXX  25124 83398 32596 50506 10288 20205 30149 40154 83240 333 20200 58003;
0137833980999992006122518004-15667-038950FM-12+000599999V0200501N004110450019N0040001N1+02901+02251101231ADDGF106991021021008001041011MA1999999101181MD1999999-0091REMSYN070AAXX  25184 83398 32596 60508 10290 20225 30118 40123 82241 333 59009;
0187833980999992006122600004-15667-038950FM-12+000599999V0200501N002112200019N0010001N1+02581+02381101341ADDGF102991021001008001041001KA1240M+99999MA1999999101291MD1999999-0121REMSYN088AAXX  26004 83398 32594 20504 10258 20238 30129 40134 82040 333 10204 29077 55116 59012;EQDQ01 +02042ATMX  
0156833980999992006122612004-15667-038950FM-12+000599999V0203601N003110450019N0040001N1+02941+02241101451ADDGF106991031051008001041001KA1240N+02101MA1999999101401MD1999999-0091REMSYN076AAXX  26124 83398 32596 63606 10294 20224 30140 40145 83540 333 20210 59009;
0137833980999992006122618004-15667-038950FM-12+000599999V0203601N005110450019N0040001N1+02901+02341101211ADDGF105991031021008001041001MA1999999101161MD1999999-0021REMSYN070AAXX  26184 83398 32596 53610 10290 20234 30116 40121 83240 333 59002;
0168833980999992006122700004-15667-038950FM-12+000599999V0200501N003111050019N0010001N1+02641+02441101371ADDGF105991021031008001041011KA1240M+03081MA1999999101321MD1999999+0031REMSYN088AAXX  27004 83398 32594 50506 10264 20244 30132 40137 82341 333 10308 29079 55116 58003;
0201833980999992006122712004-15667-038950FM-12+000599999V0203201N001010075019N0040001N1+02501+02381101661ADDAA124001091AY161061AY221061GF108991051051008001021999KA1240N+02311MA1999999101601MD1999999+0201MW1021REMSYN088AAXX  27124 83398 21596 83202 10250 20238 30160 40166 70262 8552/ 333 20231 58020 60014;
0137833980999992006122718004-15667-038950FM-12+000599999V0203601N004112200019N0040001N1+02971+02431101381ADDGF103991021021008001041001MA1999999101331MD1999999+0171REMSYN070AAXX  27184 83398 32596 33608 10297 20243 30133 40138 82240 333 58017;
0168833980999992006122800004-15667-038950FM-12+000599999V0203601N003112200019N0010001N1+02641+02391101591ADDGF103991021021008001041001KA1240M+03061MA1999999101541MD1999999+0221REMSYN088AAXX  28004 83398 32594 33606 10264 20239 30154 40159 82240 333 10306 29085 55071 58022;
0156833980999992006122812004-15667-038950FM-12+000599999V0203601N003110450019N0040001N1+02941+02401101741ADDGF106991041051008001021001KA1240N+02301MA1999999101681MD1999999+0081REMSYN076AAXX  28124 83398 32596 63606 10294 20240 30168 40174 84520 333 20230 58008;
0137833980999992006122818004-15667-038950FM-12+000599999V0203601N004110450019N0040001N1+02941+02361101431ADDGF106991031051008001041001MA1999999101381MD1999999+0051REMSYN070AAXX  28184 83398 32596 63608 10294 20236 30138 40143 83540 333 58005;
0168833980999992006122900004-15667-038950FM-12+000599999V0200501N002110450019N0010001N1+02661+02411101641ADDGF105991031011008001041001KA1240M+03071MA1999999101581MD1999999+0041REMSYN088AAXX  29004 83398 32594 50504 10266 20241 30158 40164 83140 333 10307 29079 55095 58004;
0201833980999992006122912004-15667-038950FM-12+000599999V0200501N002110075019N0040001N1+02481+02381101711ADDAA124002091AY161061AY221061GF108991051071008001021999KA1240N+02221MA1999999101651MD1999999-0031MW1601REMSYN088AAXX  29124 83398 21596 80504 10248 20238 30165 40171 76062 8572/ 333 20222 59003 60024;
0182833980999992006122918004-15667-038950FM-12+000599999V0200501N002110450019N0040001N1+02671+02231101481ADDAA106007991AY161061AY221061GF106991041051004501041001MA1999999101431MD1999999+0051MW1011REMSYN082AAXX  29184 83398 21496 60504 10267 20223 30143 40148 70162 84540 333 58005 60081;
0213833980999992006123000004-15667-038950FM-12+000599999V0209999C000010075019N0010001N1+02441+02271101731ADDAA106002091AY161061AY221061GF108991051051008001021999KA1240M+02761MA1999999101671MD1999999+0091MW1021REMSYN100AAXX  30004 83398 21594 80000 10244 20227 30167 40173 70262 8552/ 333 10276 29088 55000 58009 60021;
0201833980999992006123012004-15667-038950FM-12+000599999V0200501N002112200019N0040001N1+02781+02161101771ADDAA124015091AY161061AY221061GF106991031051008001001011KA1240N+02301MA1999999101711MD1999999+0061MW1021REMSYN088AAXX  30124 83398 21596 60504 10278 20216 30171 40177 70262 83501 333 20230 58006 60154;
0168833980999992006123100004-15667-038950FM-12+000599999V0200501N002110450019N0010001N1+02521+02251101721ADDGF105991031051008001041001KA1240M+02961MA1999999101661MD1999999-0011REMSYN088AAXX  31004 83398 32594 50504 10252 20225 30166 40172 83540 333 10296 29076 55117 59001;
0201833980999992006123112004-15667-038950FM-12+000599999V0200501N001010450019N0040001N1+02741+02241101721ADDAA124002091AY161061AY221061GF106991041051008001021001KA1240N+02101MA1999999101661MD1999999-0051MW1021REMSYN088AAXX  31124 83398 21596 60502 10274 20224 30166 40172 70262 84520 333 20210 59005 60024;
0137833980999992006123118004-15667-038950FM-12+000599999V0200901N003110450019N0040001N1+02721+02301101551ADDGF106991031051008001041001MA1999999101501MD1999999-0051REMSYN070AAXX  31184 83398 32596 60906 10272 20230 30150 40155 83540 333 59005;
