0167822800999992005011618004-02533-044283FM-12+005199999V0200201N003110042019N0100001N1+03101+02491100651ADDAA106000091GF108991051061004501021999MA1999999100071MD1999999-0161REMSYN070AAXX  16184 82280 32497 80206 10310 20249 30007 40065 8562/ 333 59016;EQDQ01  00002PRCP06
0167822800999992005051318004-02533-044283FM-12+005199999V0200901N001510042019N0100001N1+03171+02561100791ADDAA106000091GF106991051021004501001021MA1999999100211MD1999999-0111REMSYN070AAXX  13184 82280 32497 60903 10317 20256 30021 40079 85202 333 59011;EQDQ01  00002PRCP06
0137822800999992005111618004-02533-044300FM-12+005199999V0200701N003112200019N0100001N1+03271+02371100761ADDGF104991021011008001031001MA1999999100191MD1999999-0031REMSYN070AAXX  16184 82280 32597 40706 10327 20237 30019 40076 82130 333 59003;
