0198823920999992005010100004-03700-040350FM-12+008399999V0200501N004112200019N0040001N1+02721+02121101071ADDAA106000091GF103991031001008001031001KA1240M+03641MA1999999100051MD1999999-0091REMSYN088AAXX  01004 82392 32596 30508 10272 20212 30005 40107 83030 333 10364 29057 55099 59009;EQDQ01  00002PRCP06
0186823920999992005010112004-03700-040350FM-12+008399999V0200901N001512200019N0500001N1+02961+01901101261ADDAA106000091GF104991041021004501001001KA1240N+02201MA1999999100241MD1999999-0021REMSYN076AAXX  01124 82392 32499 40903 10296 20190 30024 40126 84200 333 20220 59002;EQDQ01  00002PRCP06
0167823920999992005010118004-03700-040350FM-12+008399999V0200901N000512200019N0500001N1+03561+01821100731ADDAA106000091GF104991041021004501001001MA1999999099721MD1999999-0121REMSYN070AAXX  01184 82392 32499 40901 10356 20182 39972 40073 84200 333 59012;EQDQ01  00002PRCP06
0208823920999992005010200004-03700-040350FM-12+008399999V0203601N003612200019N0040001N1+02661+02071101141ADDAA106000091GA1001+999999999GF100991001001999999001001KA1240M+03661MA1999999100121MD1999999+0071REMSYN082AAXX  02004 82392 32996 03607 10266 20207 30012 40114 333 10366 29057 55103 58007;EQDQ01  00002PRCP06
0186823920999992005010212004-03700-040350FM-12+008399999V0200901N003112200019N0500001N1+02901+02041101341ADDAA106000091GF104991031011004501031001KA1240N+02101MA1999999100321MD1999999+0081REMSYN076AAXX  02124 82392 32499 40906 10290 20204 30032 40134 83130 333 20210 58008;EQDQ01  00002PRCP06
0167823920999992005010218004-03700-040350FM-12+008399999V0200901N004112200019N0500001N1+03581+01441100861ADDAA106000091GF102991021011004501001001MA1999999099851MD1999999+0131REMSYN070AAXX  02184 82392 32499 20908 10358 20144 39985 40086 82100 333 58013;EQDQ01  00002PRCP06
0208823920999992005010300004-03700-040350FM-12+008399999V0203601N002612200019N0040001N1+02721+02121101201ADDAA106000091GA1001+999999999GF100991001001999999001001KA1240M+03661MA1999999100181MD1999999+0061REMSYN082AAXX  03004 82392 32996 03605 10272 20212 30018 40120 333 10366 29057 55100 58006;EQDQ01  00002PRCP06
0186823920999992005010312004-03700-040350FM-12+008399999V0200901N002612200019N0500001N1+02841+02121101361ADDAA106000091GF104991041021004501001001KA1240N+02161MA1999999100341MD1999999+0021REMSYN076AAXX  03124 82392 32499 40905 10284 20212 30034 40136 84200 333 20216 58002;EQDQ01  00002PRCP06
0167823920999992005010318004-03700-040350FM-12+008399999V0200901N003112200019N0500001N1+03661+01371100851ADDAA106000091GF103991031011004501001001MA1999999099841MD1999999-0011REMSYN070AAXX  03184 82392 32499 30906 10366 20137 39984 40085 83100 333 59001;EQDQ01  00002PRCP06
0186823920999992005010412004-03700-040350FM-12+008399999V0201401N004112200019N0500001N1+03001+02001101231ADDAA106000091GF102991021011004501001001KA1240N+02381MA1999999100221MD1999999-0121REMSYN076AAXX  04124 82392 32499 21408 10300 20200 30022 40123 82100 333 20238 59012;EQDQ01  00002PRCP06
0167823920999992005010418004-03700-040350FM-12+008399999V0200501N003112200019N0500001N1+03571+01651100671ADDAA106000091GF103991031021004501001001MA1999999099661MD1999999-0181REMSYN070AAXX  04184 82392 32499 30506 10357 20165 39966 40067 83200 333 59018;EQDQ01  00002PRCP06
0176823920999992005010500004-03700-040350FM-12+008399999V0203601N003112200019N0040001N1+02741+01921101041ADDAA106000091GA1001+999999999GF100991001001999999001001KA1999M+03711MA1999999100031REMSYN064AAXX  05004 82392 32996 03606 10274 20192 30003 40104 333 10371;EQDQ01  00002PRCP06
0186823920999992005010512004-03700-040350FM-12+008399999V0201401N002112200019N0500001N1+02941+02081101261ADDAA106000091GF103991031011004501001001KA1240N+02121MA1999999100241MD1999999+0021REMSYN076AAXX  05124 82392 32499 31404 10294 20208 30024 40126 83100 333 20212 58002;EQDQ01  00002PRCP06
0208823920999992005010600004-03700-040350FM-12+008399999V0203601N001512200019N0040001N1+02861+01871100941ADDAA106000091GA1001+999999999GF100991001001999999001001KA1240M+03671MA1999999099931MD1999999-0101REMSYN082AAXX  06004 82392 32996 03603 10286 20187 39993 40094 333 10367 29050 55111 59010;EQDQ01  00002PRCP06
0186823920999992005010612004-03700-040350FM-12+008399999V0200901N001510042019N0500001N1+02921+02011101131ADDAA106000091GF106991061021004501001001KA1240N+02221MA1999999100121MD1999999-0121REMSYN076AAXX  06124 82392 32499 60903 10292 20201 30012 40113 86200 333 20222 59012;EQDQ01  00002PRCP06
0208823920999992005010700004-03700-040350FM-12+008399999V0200501N004112200019N0040001N1+02741+02141101021ADDAA106000091GA1001+999999999GF100991001001999999001001KA1240M+03741MA1999999100001MD1999999+0071REMSYN082AAXX  07004 82392 32996 00508 10274 20214 30000 40102 333 10374 29056 55087 58007;EQDQ01  00002PRCP06
0186823920999992005010712004-03700-040350FM-12+008399999V0200901N002612200019N0500001N1+02941+02081101221ADDAA106000091GF104991041021004501001001KA1240N+02121MA1999999100201MD1999999+0081REMSYN076AAXX  07124 82392 32499 40905 10294 20208 30020 40122 84200 333 20212 58008;EQDQ01  00002PRCP06
0186823920999992005010812004-03700-040350FM-12+008399999V0200501N001012200019N0500001N1+02901+02041101191ADDAA106000091GF104991041021004501001001KA1240N+02241MA1999999100171MD1999999-0031REMSYN076AAXX  08124 82392 32499 40502 10290 20204 30017 40119 84200 333 20224 59003;EQDQ01  00002PRCP06
0167823920999992005010818004-03700-040350FM-12+008399999V0200901N002612200019N0500001N1+03721+01391100671ADDAA106000091GF103991031011004501001001MA1999999099661MD1999999+0041REMSYN070AAXX  08184 82392 32499 30905 10372 20139 39966 40067 83100 333 58004;EQDQ01  00002PRCP06
0208823920999992005010900004-03700-040350FM-12+008399999V0200501N005112200019N0040001N1+02761+02161101021ADDAA106000091GA1001+999999999GF100991001001999999001001KA1240M+03821MA1999999100001MD1999999+0001REMSYN082AAXX  09004 82392 32996 00510 10276 20216 30000 40102 333 10382 29056 55095 58000;EQDQ01  00002PRCP06
0186823920999992005010912004-03700-040350FM-12+008399999V0200901N000510450019N0500001N1+02941+02111101151ADDAA106000091GF105991031021004501031001KA1240N+02361MA1999999100141MD1999999-0031REMSYN076AAXX  09124 82392 32499 50901 10294 20211 30014 40115 83230 333 20236 59003;EQDQ01  00002PRCP06
0167823920999992005010918004-03700-040350FM-12+008399999V0203601N000510450019N0500001N1+03631+01751100601ADDAA106000091GF105991031021004501031001MA1999999099601MD1999999-0061REMSYN070AAXX  09184 82392 32499 53601 10363 20175 39960 40060 83230 333 59006;EQDQ01  00002PRCP06
0214823920999992005011000004-03700-040350FM-12+008399999V0203601N002612200019N0040001N1+02741+02171100941ADDAA106000091GF102991999021008001001001KA1240M+03761MA1999999099921MD1999999-0081REMSYN088AAXX  10004 82392 32596 23605 10274 20217 39992 40094 83200 333 10376 29059 55080 59008;EQDQ01+000032SCOTLCQ02  00002PRCP06
0186823920999992005011012004-03700-040350FM-12+008399999V0200501N001010042019N0500001N1+02901+02041101161ADDAA106000091GF106991051051004501031001KA1240N+02441MA1999999100141MD1999999+0001REMSYN076AAXX  10124 82392 32499 60502 10290 20204 30014 40116 85530 333 20244 58000;EQDQ01  00002PRCP06
0167823920999992005011018004-03700-040350FM-12+008399999V0200901N003112200019N0500001N1+03661+01071100711ADDAA106000091GF104991031011004501031001MA1999999099701MD1999999+0101REMSYN070AAXX  10184 82392 32499 40906 10366 20107 39970 40071 83130 333 58010;EQDQ01  00002PRCP06
0186823920999992005011112004-03700-040350FM-12+008399999V0200501N000510042019N0500001N1+02821+02171101181ADDAA106000091GF107991051051004501031001KA1240N+02221MA1999999100161MD1999999+0021REMSYN076AAXX  11124 82392 32499 70501 10282 20217 30016 40118 85530 333 20222 58002;EQDQ01  00002PRCP06
0167823920999992005011118004-03700-040350FM-12+008399999V0200901N001010450019N0500001N1+03641+01801100701ADDAA106000091GF106991021051004501021021MA1999999099691MD1999999-0011REMSYN070AAXX  11184 82392 32499 60902 10364 20180 39969 40070 82522 333 59001;EQDQ01  00002PRCP06
0208823920999992005011200004-03700-040350FM-12+008399999V0200501N002612200019N0040001N1+02721+02101101041ADDAA106000091GA1001+999999999GF100991001001999999001001KA1240M+02691MA1999999100021MD1999999+0051REMSYN082AAXX  12004 82392 32996 00505 10272 20210 30002 40104 333 10269 29060 55059 58005;EQDQ01  00002PRCP06
0186823920999992005011212004-03700-040350FM-12+008399999V0203601N000512200019N0500001N1+02901+02041101181ADDAA106000091GF103991031041004501001001KA1240N+02241MA1999999100161MD1999999+0001REMSYN076AAXX  12124 82392 32499 33601 10290 20204 30016 40118 83400 333 20224 58000;EQDQ01  00002PRCP06
0167823920999992005011218004-03700-040350FM-12+008399999V0200501N004612200019N0500001N1+03561+01531100761ADDAA106000091GF103991031021004501001001MA1999999099751MD1999999+0061REMSYN070AAXX  12184 82392 32499 30509 10356 20153 39975 40076 83200 333 58006;EQDQ01  00002PRCP06
0186823920999992005011312004-03700-040350FM-12+008399999V0201401N000510450019N0500001N1+02921+02221101131ADDAA106000091GF106991041041004501011001KA1240N+02361MA1999999100111MD1999999-0051REMSYN076AAXX  13124 82392 32499 61401 10292 20222 30011 40113 84410 333 20236 59005;EQDQ01  00002PRCP06
0208823920999992005011400004-03700-040350FM-12+008399999V0200501N004112200019N0040001N1+02761+02161100981ADDAA106000091GA1001+999999999GF100991001001999999001001KA1240M+03641MA1999999099961MD1999999-0041REMSYN082AAXX  14004 82392 32996 00508 10276 20216 39996 40098 333 10364 29062 55044 59004;EQDQ01  00002PRCP06
0186823920999992005011412004-03700-040350FM-12+008399999V0200901N001512200019N0500001N1+03001+02001101061ADDAA106000091GF103991031021004501001001KA1240N+02461MA1999999100051MD1999999-0061REMSYN076AAXX  14124 82392 32499 30903 10300 20200 30005 40106 83200 333 20246 59006;EQDQ01  00002PRCP06
0167823920999992005011418004-03700-040350FM-12+008399999V0203201N001010450019N0500001N1+03741+01891100501ADDAA106000091GF106991041021004501031001MA1999999099501MD1999999-0201REMSYN070AAXX  14184 82392 32499 63202 10374 20189 39950 40050 84230 333 59020;EQDQ01  00002PRCP06
0186823920999992005011512004-03700-040350FM-12+008399999V0200901N001510042019N0500001N1+02901+02171101041ADDAA106000091GF108991051051004501011999KA1240N+02541MA1999999100031MD1999999-0021REMSYN076AAXX  15124 82392 32499 80903 10290 20217 30003 40104 8551/ 333 20254 59002;EQDQ01  00002PRCP06
0167823920999992005011518004-03700-040350FM-12+008399999V0201401N000510450019N0500001N1+03311+01821100621ADDAA106000091GF108991021021004501021999MA1999999099621MD1999999+0121REMSYN070AAXX  15184 82392 32499 81401 10331 20182 39962 40062 8222/ 333 58012;EQDQ01  00002PRCP06
0214823920999992005011600004-03700-040350FM-12+008399999V0203601N002619999999N0040001N1+02841+02091100931ADDAA106000091GF106991999021008001001001KA1240M+03461MA1999999099921MD1999999-0021REMSYN088AAXX  16004 82392 32596 63605 10284 20209 39992 40093 83200 333 10346 29059 55004 59002;EQDQ01+000032SCOTLCQ02  00002PRCP06
0186823920999992005011612004-03700-040350FM-12+008399999V0200501N001010450019N0500001N1+02921+02061101031ADDAA106000091GF106991041021004501031001KA1240N+02501MA1999999100021MD1999999-0011REMSYN076AAXX  16124 82392 32499 60502 10292 20206 30002 40103 84230 333 20250 59001;EQDQ01  00002PRCP06
0171823920999992005011618004-03700-040350FM-12+008399999V0203601N001010450019N0500001N1+03181+02411100501ADDAY121061AY261061GF107991041051004501011001MA1999999099501MD1999999-0121MW1031REMSYN082AAXX  16184 82392 21499 73602 10318 20241 39950 40050 70326 84510 333 59012 69981;
0202823920999992005011700004-03700-040350FM-12+008399999V0203601N000510450019N0040001N1+02441+02371100941ADDAY161061AY261061GF108991041071004501021999KA1240M+03481MA1999999099921MD1999999+0001MW1611REMSYN100AAXX  17004 82392 21496 83601 10244 20237 39992 40094 76166 8472/ 333 10348 29079 55035 58000 60091;
0190823920999992005011712004-03700-040350FM-12+008399999V0209999C000010450019N0500001N1+02561+02531101031ADDAY161061AY261061GF108991031071004501021999KA1240N+02211MA1999999100001MD1999999-0021MW1021REMSYN088AAXX  17124 82392 21499 80000 10256 20253 30000 40103 70266 8372/ 333 20221 59002 60124;
0202823920999992005011800004-03700-040350FM-12+008399999V0202301N000510042019N0040001N1+02331+02291101031ADDAY161061AY261061GF108991081061004501999999KA1240M+03261MA1999999100001MD1999999+0081MW1511REMSYN100AAXX  18004 82392 21496 82301 10233 20229 30000 40103 75166 886// 333 10326 29097 55009 58008 60111;
0190823920999992005011812004-03700-040350FM-12+008399999V0200901N000510450019N0500001N1+02541+02361100951ADDAY161061AY251061GF107991031051004501031001KA1240N+02221MA1999999099921MD1999999-0081MW1021REMSYN088AAXX  18124 82392 21499 70901 10254 20236 39992 40095 70265 83530 333 20222 59008 60184;
0167823920999992005011818004-03700-040350FM-12+008399999V0200501N000510450019N0500001N1+03201+02061100561ADDAA106000091GF108991031021004501011999MA1999999099551MD1999999-0181REMSYN070AAXX  18184 82392 32499 80501 10320 20206 39955 40056 8321/ 333 59018;EQDQ01  00002PRCP06
0198823920999992005011900004-03700-040350FM-12+008399999V0200501N000510450019N0040001N1+02721+02261100871ADDAA106000091GF105991011021004501011001KA1240M+03221MA1999999099851MD1999999-0151REMSYN088AAXX  19004 82392 32496 50501 10272 20226 39985 40087 81210 333 10322 29073 55014 59015;EQDQ01  00002PRCP06
0186823920999992005011912004-03700-040350FM-12+008399999V0200901N002610450019N0500001N1+02841+02121101121ADDAA106000091GF106991041041004501031001KA1240N+02321MA1999999100101MD1999999+0181REMSYN076AAXX  19124 82392 32499 60905 10284 20212 30010 40112 84430 333 20232 58018;EQDQ01  00002PRCP06
0167823920999992005011918004-03700-040350FM-12+008399999V0200901N003112200019N0500001N1+03441+01881100601ADDAA106000091GF104991031011004501031001MA1999999099601MD1999999+0051REMSYN070AAXX  19184 82392 32499 40906 10344 20188 39960 40060 83130 333 58005;EQDQ01  00002PRCP06
0202823920999992005012000004-03700-040350FM-12+008399999V0203601N000510450019N0040001N1+02491+02271101051ADDAY161061AY261061GF108991041051004501021999KA1240M+03461MA1999999100031MD1999999+0181MW1021REMSYN100AAXX  20004 82392 21496 83601 10249 20227 30003 40105 70266 8452/ 333 10346 29071 55054 58018 60041;
0190823920999992005012012004-03700-040350FM-12+008399999V0200901N000510450019N0500001N1+02841+02261101231ADDAY151061AY251061GF106991031021004501031001KA1240N+02321MA1999999100211MD1999999+0111MW1021REMSYN088AAXX  20124 82392 21499 60901 10284 20226 30021 40123 70255 83230 333 20232 58011 60054;
0167823920999992005012018004-03700-040350FM-12+008399999V0200501N001010450019N0500001N1+03281+01891100881ADDAA106000091GF107991021021004501011001MA1999999099861MD1999999+0261REMSYN070AAXX  20184 82392 32499 70502 10328 20189 39986 40088 82210 333 58026;EQDQ01  00002PRCP06
0198823920999992005012100004-03700-040350FM-12+008399999V0200501N002610450019N0040001N1+02681+02091101071ADDAA106000091GF106991041021004501031001KA1240M+03411MA1999999100051MD1999999+0021REMSYN088AAXX  21004 82392 32496 60505 10268 20209 30005 40107 84230 333 10341 29064 55043 58002;EQDQ01  00002PRCP06
0186823920999992005012112004-03700-040350FM-12+008399999V0200901N000510450019N0500001N1+02801+02311101221ADDAA106000091GF108991031051004501021999KA1240N+02441MA1999999100201MD1999999-0011REMSYN076AAXX  21124 82392 32499 80901 10280 20231 30020 40122 8352/ 333 20244 59001;EQDQ01  00002PRCP06
0215823920999992005012118004-03700-040350FM-12+008399999V0209999C000019999999N0040001N1+03341+02021100821ADDAA106000091GF107991999021008001001001MA1999999999999MD1999999-0051REMSYN070AAXX  21184 82392 32596 70000 10334 20202 39881 40082 83200 333 59005;EQDQ01+000032SCOTLCQ02+098813APOSP Q03  00002PRCP06Q04 098813APOSP 
0208823920999992005012200004-03700-040350FM-12+008399999V0200501N004112200019N0040001N1+02841+02191101071ADDAA106000091GA1001+999999999GF100991001001999999001001KA1240M+03441MA1999999100051MD1999999+0001REMSYN082AAXX  22004 82392 32996 00508 10284 20219 30005 40107 333 10344 29064 55005 58000;EQDQ01  00002PRCP06
0186823920999992005012212004-03700-040350FM-12+008399999V0200901N001012200019N0500001N1+02841+02191101221ADDAA106000091GF103991031021004501001001KA1240N+02401MA1999999100201MD1999999+0001REMSYN076AAXX  22124 82392 32499 30902 10284 20219 30020 40122 83200 333 20240 58000;EQDQ01  00002PRCP06
0167823920999992005012218004-03700-040350FM-12+008399999V0203201N002112200019N0500001N1+03421+01941101811ADDAA106000091GF104991031021004501031001MA1999999099801MD1999999-0011REMSYN070AAXX  22184 82392 32499 43204 10342 20194 39980 40181 83230 333 59001;EQDQ01  00002PRCP06
0198823920999992005012300004-03700-040350FM-12+008399999V0200501N004610450019N0040001N1+02741+02261101121ADDAA106000091GF106991041041004501031001KA1240M+03451MA1999999100101MD1999999+0051REMSYN088AAXX  23004 82392 32496 60509 10274 20226 30010 40112 84430 333 10345 29065 55042 58005;EQDQ01  00002PRCP06
0186823920999992005012312004-03700-040350FM-12+008399999V0209999C000010042019N0500001N1+02701+02431101371ADDAA106000091GF107991061061004501031001KA1240N+02461MA1999999100351MD1999999+0151REMSYN076AAXX  23124 82392 32499 70000 10270 20243 30035 40137 86630 333 20246 58015;EQDQ01  00002PRCP06
0171823920999992005012318004-03700-040350FM-12+008399999V0201801N000510042019N0500001N1+03441+02071100741ADDAY161061AY261061GF106991051061004501031001MA1999999099731MD1999999-0071MW1021REMSYN082AAXX  23184 82392 21499 61801 10344 20207 39973 40074 70266 85630 333 59007 60111;
0198823920999992005012400004-03700-040350FM-12+008399999V0200501N000510450019N0040001N1+02641+02331101071ADDAA106000091GF105991021011004501011001KA1240M+03481MA1999999100051MD1999999-0051REMSYN088AAXX  24004 82392 32496 50501 10264 20233 30005 40107 82110 333 10348 29074 55051 59005;EQDQ01  00002PRCP06
0162823920999992005012412004-03700-040350FM-12+008399999V0203601N000512200019N0500001N1+02841+02351101221ADDGF102991021011004501001001KA1240N+02401MA1999999100201MD1999999-0151REMSYN082AAXX  24124 82392 22499 23601 10284 20235 30020 40122 82100 333 20240 59015 60114;
0167823920999992005012418004-03700-040350FM-12+008399999V0203601N000512200019N0500001N1+03461+01821100671ADDAA106000091GF104991041021004501001001MA1999999099661MD1999999-0071REMSYN070AAXX  24184 82392 32499 43601 10346 20182 39966 40067 84200 333 59007;EQDQ01  00002PRCP06
0202823920999992005012500004-03700-040350FM-12+008399999V0209999C000010450019N0040001N1+02321+02271101201ADDAY161061AY261061GF108991041061004501011999KA1240M+03541MA1999999100181MD1999999+0131MW1511REMSYN100AAXX  25004 82392 21496 80000 10232 20227 30018 40120 75166 8461/ 333 10354 29077 55073 58013 60111;
0162823920999992005012512004-03700-040350FM-12+008399999V0200901N000512200019N0500001N1+02721+02451101231ADDGF104991011011004501031001KA1240N+02201MA1999999100201MD1999999+0001REMSYN082AAXX  25124 82392 22499 40901 10272 20245 30020 40123 81130 333 20220 58000 60114;
0167823920999992005012518004-03700-040350FM-12+008399999V0200501N001010450019N0500001N1+03061+02331100831ADDAA106000091GF106991031021004501031001MA1999999099821MD1999999+0161REMSYN070AAXX  25184 82392 32499 60502 10306 20233 39982 40083 83230 333 58016;EQDQ01  00002PRCP06
0198823920999992005012600004-03700-040350FM-12+008399999V0203601N002610450019N0500001N1+02721+02371101161ADDAA106000091GF107991031021004501031001KA1240M+03341MA1999999100141MD1999999-0041REMSYN088AAXX  26004 82392 32499 73605 10272 20237 30014 40116 83230 333 10334 29078 55090 59004;EQDQ01  00002PRCP06
0190823920999992005012612004-03700-040350FM-12+008399999V0209999C000010450019N0500001N1+02761+02341101421ADDAY161061AY261061GF107991041021004501031001KA1240N+02381MA1999999100401MD1999999+0201MW1021REMSYN088AAXX  26124 82392 21499 70000 10276 20234 30040 40142 70266 84230 333 20238 58020 60054;
0171823920999992005012618004-03700-040350FM-12+008399999V0200501N000510450019N0500001N1+02961+02401101001ADDAY161061AY261061GF106991041021004501031001MA1999999099981MD1999999+0161MW1021REMSYN082AAXX  26184 82392 21499 60501 10296 20240 39998 40100 70266 84230 333 58016 60191;
0198823920999992005012700004-03700-040350FM-12+008399999V0203601N001010450019N0040001N1+02641+02351101121ADDAA106000091GF108991041021004501011999KA1240M+03221MA1999999100101MD1999999-0041REMSYN088AAXX  27004 82392 32496 83602 10264 20235 30010 40112 8421/ 333 10322 29080 55052 59004;EQDQ01  00002PRCP06
0162823920999992005012712004-03700-040350FM-12+008399999V0201801N000510450019N0500001N1+02761+02401101341ADDGF106991041021004501031001KA1240N+02261MA1999999100321MD1999999-0081REMSYN082AAXX  27124 82392 22499 61801 10276 20240 30032 40134 84230 333 20226 59008 60194;
0167823920999992005012718004-03700-040350FM-12+008399999V0201401N000510450019N0500001N1+03421+01981100821ADDAA106000091GF106991031021004501031001MA1999999099811MD1999999-0171REMSYN070AAXX  27184 82392 32499 61401 10342 20198 39981 40082 83230 333 59017;EQDQ01  00002PRCP06
0208823920999992005012800004-03700-040350FM-12+008399999V0203601N000512200019N0040001N1+02701+02371101021ADDAA106000091GA1001+999999999GF100991001001999999001001KA1240M+03431MA1999999100001MD1999999-0101REMSYN082AAXX  28004 82392 32996 03601 10270 20237 30000 40102 333 10343 29072 55079 59010;EQDQ01  00002PRCP06
0186823920999992005012812004-03700-040350FM-12+008399999V0200901N001010450019N0500001N1+02721+02391101261ADDAA106000091GF105991031051004501031001KA1240N+02301MA1999999100241MD1999999-0081REMSYN076AAXX  28124 82392 32499 50902 10272 20239 30024 40126 83530 333 20230 59008;EQDQ01  00002PRCP06
0208823920999992005012900004-03700-040350FM-12+008399999V0203601N001012200019N0040001N1+02661+02141100981ADDAA106000091GA1001+999999999GF100991001001999999001001KA1240M+03441MA1999999099961MD1999999-0041REMSYN082AAXX  29004 82392 32996 03602 10266 20214 39996 40098 333 10344 29067 55085 59004;EQDQ01  00002PRCP06
0202823920999992005012912004-03700-040350FM-12+008399999V0203601N000519999999N0500001N1+02791+02111100971ADDAA106000091GF106991999021004501001001KA1240N+02301MA1999999099951MD1999999-0291REMSYN076AAXX  29124 82392 32499 63601 10279 20211 39995 40097 84200 333 20230 59029;EQDQ01+000042SCOTLCQ02  00002PRCP06
0198823920999992005013000004-03700-040350FM-12+008399999V0203601N001510450019N0040001N1+02731+02121100861ADDAA106000091GF105991021021004501031001KA1240M+03381MA1999999099841MD1999999-0121REMSYN088AAXX  30004 82392 32496 53603 10273 20212 39984 40086 82230 333 10338 29063 55083 59012;EQDQ01  00002PRCP06
0186823920999992005013012004-03700-040350FM-12+008399999V0200501N001012200019N0500001N1+02761+02281100971ADDAA106000091GF104991031021004501031001KA1240N+02301MA1999999099951MD1999999+0001REMSYN076AAXX  30124 82392 32499 40502 10276 20228 39995 40097 83230 333 20230 58000;EQDQ01  00002PRCP06
0167823920999992005013018004-03700-040350FM-12+008399999V0200901N002110450019N0500001N1+03321+01781100521ADDAA106000091GF106991041041004501031001MA1999999099521MD1999999-0081REMSYN070AAXX  30184 82392 32499 60904 10332 20178 39952 40052 84430 333 59008;EQDQ01  00002PRCP06
0208823920999992005013100004-03700-040350FM-12+008399999V0200501N001512200019N0040001N1+02701+02061100821ADDAA106000091GA1001+999999999GF100991001001999999001001KA1240M+03371MA1999999099801MD1999999-0041REMSYN082AAXX  31004 82392 32996 00503 10270 20206 39980 40082 333 10337 29063 55093 59004;EQDQ01  00002PRCP06
0186823920999992005013112004-03700-040350FM-12+008399999V0200501N000512200019N0500001N1+02661+02241101021ADDAA106000091GF104991041021004501001001KA1240N+02201MA1999999100001MD1999999+0051REMSYN076AAXX  31124 82392 32499 40501 10266 20224 30000 40102 84200 333 20220 58005;EQDQ01  00002PRCP06
0167823920999992005013118004-03700-040350FM-12+008399999V0209999C000010450019N0500001N1+03331+01951100591ADDAA106000091GF106991031021004501031001MA1999999099581MD1999999+0061REMSYN070AAXX  31184 82392 32499 60000 10333 20195 39958 40059 83230 333 58006;EQDQ01  00002PRCP06
0198823920999992005020100004-03700-040350FM-12+008399999V0203601N001012200019N0500001N1+02721+02031100841ADDAA106000091GF102991021001004501031001KA1240M+03421MA1999999099821MD1999999+0021REMSYN088AAXX  01004 82392 32499 23602 10272 20203 39982 40084 82030 333 10342 29064 55068 58002;EQDQ01  00002PRCP06
0186823920999992005020112004-03700-040350FM-12+008399999V0200901N001012200019N0500001N1+02701+02331101021ADDAA106000091GF104991041021004501001001KA1240N+02221MA1999999100001MD1999999+0001REMSYN076AAXX  01124 82392 32499 40902 10270 20233 30000 40102 84200 333 20222 58000;EQDQ01  00002PRCP06
0167823920999992005020118004-03700-040350FM-12+008399999V0203601N001010450019N0500001N1+02641+02251100691ADDAA106000091GF107991041061004501031001MA1999999099661MD1999999+0081REMSYN070AAXX  01184 82392 32499 73602 10264 20225 39966 40069 84630 333 58008;EQDQ01  00002PRCP06
0198823920999992005020200004-03700-040350FM-12+008399999V0203601N000512200019N0040001N1+02521+02231100841ADDAA106000091GF102991021001008001031001KA1240M+03421MA1999999099821MD1999999+0001REMSYN088AAXX  02004 82392 32596 23601 10252 20223 39982 40084 82030 333 10342 29082 55045 58000;EQDQ01  00002PRCP06
0186823920999992005020212004-03700-040350FM-12+008399999V0201401N001512200019N0500001N1+02881+02181100921ADDAA106000091GF103991031021004501001001KA1240N+02201MA1999999099901MD1999999-0101REMSYN076AAXX  02124 82392 32499 31403 10288 20218 39990 40092 83200 333 20220 59010;EQDQ01  00002PRCP06
0167823920999992005020218004-03700-040350FM-12+008399999V0201401N002110450019N0500001N1+03521+01741100461ADDAA106000091GF106991041041004501031001MA1999999099461MD1999999-0201REMSYN070AAXX  02184 82392 32499 61404 10352 20174 39946 40046 84430 333 59020;EQDQ01  00002PRCP06
0212823920999992005020300004-03700-040350FM-12+008399999V0203601N001012200019N0040001N1+02741+02171100841ADDAY151061AY251061GA1001+999999999GF100991001001999999001001KA1240M+03611MA1999999099821MD1999999+0001MW1021REMSYN094AAXX  03004 82392 21496 03602 10274 20217 39982 40084 70255 333 10361 29061 55087 58000 69921;
0162823920999992005020312004-03700-040350FM-12+008399999V0201401N000510450019N0500001N1+02831+02361101071ADDGF106991041051004501011001KA1240N+02251MA1999999100051MD1999999+0151REMSYN082AAXX  03124 82392 22499 61401 10283 20236 30005 40107 84510 333 20225 58015 69924;
0167823920999992005020318004-03700-040350FM-12+008399999V0201401N000510450019N0500001N1+03511+01961100601ADDAA106000091GF106991031021004501011011MA1999999099601MD1999999+0141REMSYN070AAXX  03184 82392 32499 61401 10351 20196 39960 40060 83211 333 58014;EQDQ01  00002PRCP06
0208823920999992005020400004-03700-040350FM-12+008399999V0200501N002112200019N0200001N1+02661+02201100841ADDAA106000091GA1001+999999999GF100991001001999999001001KA1240M+03561MA1999999099931MD1999999+0111REMSYN082AAXX  04004 82392 32998 00504 10266 20220 39993 40084 333 10356 29062 55084 58011;EQDQ01  00002PRCP06
0186823920999992005020412004-03700-040350FM-12+008399999V0200901N001512200019N0500001N1+02881+02181101171ADDAA106000091GF103991031011004501001001KA1240N+02181MA1999999100161MD1999999+0111REMSYN076AAXX  04124 82392 32499 30903 10288 20218 30016 40117 83100 333 20218 58011;EQDQ01  00002PRCP06
0167823920999992005020418004-03700-040350FM-12+008399999V0200501N000512200019N0500001N1+03611+01691100761ADDAA106000091GF104991031021004501011001MA1999999099751MD1999999+0151REMSYN070AAXX  04184 82392 32499 40501 10361 20169 39975 40076 83210 333 58015;EQDQ01  00002PRCP06
0186823920999992005020512004-03700-040350FM-12+008399999V0201401N002112200019N0500001N1+02901+02301101321ADDAA106000091GF103991031021004501001001KA1240N+02301MA1999999100301MD1999999+0141REMSYN076AAXX  05124 82392 32499 31404 10290 20230 30030 40132 83200 333 20230 58014;EQDQ01  00002PRCP06
0167823920999992005020518004-03700-040350FM-12+008399999V0200501N001010450019N0500001N1+03601+01721100841ADDAA106000091GF106991041041004501031001MA1999999099831MD1999999+0081REMSYN070AAXX  05184 82392 32499 60502 10360 20172 39983 40084 84430 333 58008;EQDQ01  00002PRCP06
0198823920999992005020600004-03700-040350FM-12+008399999V0200501N004612200019N0040001N1+02841+02141101111ADDAA106000091GF102991021001008001031001KA1240M+03681MA1999999100101MD1999999-0101REMSYN088AAXX  06004 82392 32596 20509 10284 20214 30010 40111 82030 333 10368 29059 55077 59010;EQDQ01  00002PRCP06
0162823920999992005020612004-03700-040350FM-12+008399999V0200901N000510450019N0500001N1+02921+02321101221ADDGF106991041041004501031001KA1240N+02461MA1999999100211MD1999999-0091REMSYN082AAXX  06124 82392 22499 60901 10292 20232 30021 40122 84430 333 20246 59009 69974;
0171823920999992005020618004-03700-040350FM-12+008399999V0203601N002610450019N0500001N1+02701+02591100821ADDAY121061AY221061GF108991041061004501021999MA1999999099801MD1999999-0031MW1201REMSYN082AAXX  06184 82392 21499 83605 10270 20259 39980 40082 72022 8462/ 333 59003 69931;
0202823920999992005020700004-03700-040350FM-12+008399999V0203601N001012200019N0040001N1+02661+02371100961ADDAY151061AY251061GF102991021011008001001001KA1240M+03421MA1999999099941MD1999999-0161MW1021REMSYN100AAXX  07004 82392 21596 23602 10266 20237 39994 40096 70255 82100 333 10342 29083 55060 59016 69911;
0162823920999992005020712004-03700-040350FM-12+008399999V0200501N000510042019N0500001N1+02761+02301101081ADDGF107991051051004501031001KA1240N+02481MA1999999100061MD1999999-0151REMSYN082AAXX  07124 82392 22499 70501 10276 20230 30006 40108 85530 333 20248 59015 69944;
0167823920999992005020718004-03700-040350FM-12+008399999V0200901N000510450019N0500001N1+03371+02191100711ADDAA106000091GF106991041051004501031001MA1999999099701MD1999999-0101REMSYN070AAXX  07184 82392 32499 60901 10337 20219 39970 40071 84530 333 59010;EQDQ01  00002PRCP06
0198823920999992005020800004-03700-040350FM-12+008399999V0200501N001012200019N0040001N1+02691+02171100901ADDAA106000091GF102991021001008001011001KA1240M+03391MA1999999099881MD1999999-0061REMSYN088AAXX  08004 82392 32596 20502 10269 20217 39988 40090 82010 333 10339 29068 55066 59006;EQDQ01  00002PRCP06
0186823920999992005020812004-03700-040350FM-12+008399999V0200901N002612200019N0500001N1+02741+02261101021ADDAA106000091GF104991041021004501001001KA1240N+02181MA1999999100001MD1999999-0061REMSYN076AAXX  08124 82392 32499 40905 10274 20226 30000 40102 84200 333 20218 59006;EQDQ01  00002PRCP06
0167823920999992005020818004-03700-040350FM-12+008399999V0200901N001010042019N0500001N1+03531+01851100701ADDAA106000091GF106991051051004501031001MA1999999099691MD1999999-0011REMSYN070AAXX  08184 82392 32499 60902 10353 20185 39969 40070 85530 333 59001;EQDQ01  00002PRCP06
0198823920999992005020900004-03700-040350FM-12+008399999V0200501N001512200019N0040001N1+02671+02161101041ADDAA106000091GF101991011001008001031001KA1240M+03631MA1999999100021MD1999999+0041REMSYN088AAXX  09004 82392 32596 10503 10267 20216 30002 40104 81030 333 10363 29065 55056 58004;EQDQ01  00002PRCP06
0186823920999992005020912004-03700-040350FM-12+008399999V0200901N000512200019N0500001N1+02801+02201101021ADDAA106000091GF104991031011004501031001KA1240N+02201MA1999999100001MD1999999+0001REMSYN076AAXX  09124 82392 32499 40901 10280 20220 30000 40102 83130 333 20220 58000;EQDQ01  00002PRCP06
0167823920999992005020918004-03700-040350FM-12+008399999V0203601N002110450019N0500001N1+03441+01761100601ADDAA106000091GF105991031021004501031001MA1999999099601MD1999999-0091REMSYN070AAXX  09184 82392 32499 53604 10344 20176 39960 40060 83230 333 59009;EQDQ01  00002PRCP06
0208823920999992005021000004-03700-040350FM-12+008399999V0200501N001012200019N0040001N1+02761+01991100911ADDAA106000091GA1001+999999999GF100991001001999999001001KA1240M+03531MA1999999099891MD1999999-0131REMSYN082AAXX  10004 82392 32996 00502 10276 20199 39989 40091 333 10353 29058 55077 59013;EQDQ01  00002PRCP06
0186823920999992005021012004-03700-040350FM-12+008399999V0209999C000010450019N0500001N1+02741+02281101061ADDAA106000091GF107991041051004501031001KA1240N+02291MA1999999100041MD1999999+0041REMSYN076AAXX  10124 82392 32499 70000 10274 20228 30004 40106 84530 333 20229 58004;EQDQ01  00002PRCP06
0167823920999992005021018004-03700-040350FM-12+008399999V0200501N000510450019N0500001N1+03511+01911100581ADDAA106000091GF105991041021004501031001MA1999999099581MD1999999-0021REMSYN070AAXX  10184 82392 32499 50501 10351 20191 39958 40058 84230 333 59002;EQDQ01  00002PRCP06
0208823920999992005021100004-03700-040350FM-12+008399999V0200501N003112200019N0040001N1+02741+02281100821ADDAA106000091GA1001+999999999GF100991001001999999001001KA1240M+03601MA1999999099801MD1999999-0091REMSYN082AAXX  11004 82392 32996 00506 10274 20228 39980 40082 333 10360 29067 55091 59009;EQDQ01  00002PRCP06
0167823920999992005021118004-03700-040350FM-12+008399999V0200501N000510450019N0500001N1+03421+01911100661ADDAA106000091GF105991031021004501011011MA1999999099651MD1999999+0071REMSYN070AAXX  11184 82392 32499 50501 10342 20191 39965 40066 83211 333 58007;EQDQ01  00002PRCP06
0198823920999992005021200004-03700-040350FM-12+008399999V0200501N004612200019N0040001N1+02721+02391100941ADDAA106000091GF104991041001008001031001KA1240M+03581MA1999999099921MD1999999+0121REMSYN088AAXX  12004 82392 32596 40509 10272 20239 39992 40094 84030 333 10358 29070 55059 58012;EQDQ01  00002PRCP06
0186823920999992005021212004-03700-040350FM-12+008399999V0209999C000010042019N0500001N1+02741+02321101071ADDAA106000091GF107991051051004501031001KA1240N+02461MA1999999100051MD1999999+0001REMSYN076AAXX  12124 82392 32499 70000 10274 20232 30005 40107 85530 333 20246 58000;EQDQ01  00002PRCP06
0167823920999992005021218004-03700-040350FM-12+008399999V0203601N001010042019N0500001N1+03211+02231100741ADDAA106000091GF107991051051004501011001MA1999999099731MD1999999+0081REMSYN070AAXX  12184 82392 32499 73602 10321 20223 39973 40074 85510 333 58008;EQDQ01  00002PRCP06
0202823920999992005021300004-03700-040350FM-12+008399999V0201801N000510042019N0040001N1+02381+02351101081ADDAY191061AY291061GF108991081051004501999999KA1240M+03491MA1999999100061MD1999999+0141MW1201REMSYN100AAXX  13004 82392 21496 81801 10238 20235 30006 40108 72099 885// 333 10349 29083 55052 58014 60241;
0190823920999992005021312004-03700-040350FM-12+008399999V0201801N000510042019N0500001N1+02701+02521101211ADDAY161061AY251061GF106991051051004501031001KA1240N+02121MA1999999100181MD1999999+0131MW1021REMSYN088AAXX  13124 82392 21499 61801 10270 20252 30018 40121 70265 85530 333 20212 58013 60244;
0167823920999992005021318004-03700-040350FM-12+008399999V0200901N001510450019N0500001N1+03341+02221100721ADDAA106000091GF106991041041004501031001MA1999999099701MD1999999-0031REMSYN070AAXX  13184 82392 32499 60903 10334 20222 39970 40072 84430 333 59003;EQDQ01  00002PRCP06
0198823920999992005021400004-03700-040350FM-12+008399999V0203601N003112200019N0040001N1+02741+02471101021ADDAA106000091GF104991031011004501031001KA1240M+03391MA1999999100001MD1999999-0061REMSYN088AAXX  14004 82392 32496 43606 10274 20247 30000 40102 83130 333 10339 29078 55075 59006;EQDQ01  00002PRCP06
0186823920999992005021412004-03700-040350FM-12+008399999V0201801N000510450019N0500001N1+02801+02381101071ADDAA106000091GF106991041041004501031001KA1240N+02301MA1999999100051MD1999999-0131REMSYN076AAXX  14124 82392 32499 61801 10280 20238 30005 40107 84430 333 20230 59013;EQDQ01  00002PRCP06
0167823920999992005021418004-03700-040350FM-12+008399999V0200901N001510450019N0500001N1+03001+02271100701ADDAA106000091GF108991041071004501021999MA1999999099681MD1999999-0021REMSYN070AAXX  14184 82392 32499 80903 10300 20227 39968 40070 8472/ 333 59002;EQDQ01  00002PRCP06
0198823920999992005021500004-03700-040350FM-12+008399999V0200501N000510450019N0040001N1+02681+02501100961ADDAA106000091GF108991041071004501021999KA1240M+03411MA1999999099941MD1999999-0061REMSYN088AAXX  15004 82392 32496 80501 10268 20250 39994 40096 8472/ 333 10341 29081 55063 59006;EQDQ01  00002PRCP06
0190823920999992005021512004-03700-040350FM-12+008399999V0202701N000510450019N0500001N1+02681+02591100921ADDAY121061AY221061GF108991041051008001021999KA1240N+02401MA1999999099901MD1999999-0151MW1211REMSYN088AAXX  15124 82392 21599 82701 10268 20259 39990 40092 72122 8452/ 333 20240 59015 69924;
0171823920999992005021518004-03700-040350FM-12+008399999V0200501N000510042019N0500001N1+02581+02481100641ADDAY161061AY261061GF108991051051004501021999MA1999999099621MD1999999-0061MW1021REMSYN082AAXX  15184 82392 21499 80501 10258 20248 39962 40064 70266 8552/ 333 59006 60221;
0202823920999992005021600004-03700-040350FM-12+008399999V0209999C000010042019N0040001N1+02391+02371101041ADDAY161061AY261061GF108991061051004501021999KA1240M+02881MA1999999100011MD1999999+0071MW1511REMSYN100AAXX  16004 82392 21496 80000 10239 20237 30001 40104 75166 8652/ 333 10288 29096 55004 58007 60341;
0190823920999992005021612004-03700-040350FM-12+008399999V0200501N001512200019N0500001N1+02641+02501100951ADDAY161061AY261061GF104991031021004501031001KA1240N+02201MA1999999099921MD1999999+0021MW1021REMSYN088AAXX  16124 82392 21499 40503 10264 20250 39992 40095 70266 83230 333 20220 58002 60364;
0171823920999992005021618004-03700-040350FM-12+008399999V0203601N001010450019N0500001N1+02641+02611100611ADDAY121061AY221061GF108991041061004501021999MA1999999099581MD1999999-0041MW1611REMSYN082AAXX  16184 82392 21499 83602 10264 20261 39958 40061 76122 8462/ 333 59004 60031;
0208823920999992005021700004-03700-040350FM-12+008399999V0203601N000510042019N0200001N1+02501+02431100961ADDAY161061AY261061GF108991061061004501021999KA1240M+03161MA1999999099941MD1999999-0621MW1021REMSYN106AAXX  17004 82392 21498 83601 10250 20243 39994 40096 70266 8662/ 333 10316 29096 55062 59062 59007 60021;
0162823920999992005021712004-03700-040350FM-12+008399999V0209999C000010450019N0500001N1+02451+02371101101ADDGF106991031051004501031011KA1240N+02361MA1999999100081MD1999999+0161REMSYN082AAXX  17124 82392 22499 60000 10245 20237 30008 40110 83531 333 20236 58016 60054;
0167823920999992005021718004-03700-040350FM-12+008399999V0201801N000510450019N0500001N1+03201+02331100671ADDAA106000091GF106991031051004501031021MA1999999099651MD1999999+0071REMSYN070AAXX  17184 82392 32499 61801 10320 20233 39965 40067 83532 333 58007;EQDQ01  00002PRCP06
0202823920999992005021800004-03700-040350FM-12+008399999V0200501N001010450019N0040001N1+02581+02511100981ADDAY161061AY261061GF108991031071004501021999KA1240M+03261MA1999999099951MD1999999+0011MW1021REMSYN100AAXX  18004 82392 21496 80502 10258 20251 39995 40098 70266 8372/ 333 10326 29084 55045 58001 60031;
0162823920999992005021812004-03700-040350FM-12+008399999V0201401N002612200019N0500001N1+02801+02081101171ADDGF104991021011004501031001KA1240N+02301MA1999999100151MD1999999+0201REMSYN082AAXX  18124 82392 22499 41405 10280 20208 30015 40117 82130 333 20230 58020 60034;
0167823920999992005021818004-03700-040350FM-12+008399999V0201801N000510450019N0500001N1+03261+02351100761ADDAA106000091GF106991031021004501031001MA1999999099741MD1999999+0091REMSYN070AAXX  18184 82392 32499 61801 10326 20235 39974 40076 83230 333 58009;EQDQ01  00002PRCP06
0198823920999992005021900004-03700-040350FM-12+008399999V0200501N001010450019N0040001N1+02881+02031101061ADDAA106000091GF108991041051004501021999KA1240M+03341MA1999999100041MD1999999+0091REMSYN088AAXX  19004 82392 32496 80502 10288 20203 30004 40106 8452/ 333 10334 29061 55082 58009;EQDQ01  00002PRCP06
0186823920999992005021912004-03700-040350FM-12+008399999V0201401N000510450019N0500001N1+02701+02331101141ADDAA106000091GF107991031051004501011001KA1240N+02301MA1999999100121MD1999999-0031REMSYN076AAXX  19124 82392 32499 71401 10270 20233 30012 40114 83510 333 20230 59003;EQDQ01  00002PRCP06
0167823920999992005021918004-03700-040350FM-12+008399999V0201401N000510450019N0500001N1+03281+02101100731ADDAA106000091GF106991041041004501031001MA1999999099721MD1999999-0021REMSYN070AAXX  19184 82392 32499 61401 10328 20210 39972 40073 84430 333 59002;EQDQ01  00002PRCP06
0198823920999992005022000004-03700-040350FM-12+008399999V0200501N001510450019N0040001N1+02701+02111100971ADDAA106000091GF107991041051004501031001KA1240M+03321MA1999999099951MD1999999-0091REMSYN088AAXX  20004 82392 32496 70503 10270 20211 39995 40097 84530 333 10332 29067 55019 59009;EQDQ01  00002PRCP06
0186823920999992005022012004-03700-040350FM-12+008399999V0200501N000510450019N0500001N1+02861+02441101131ADDAA106000091GF106991041051004501031001KA1240N+02441MA1999999100111MD1999999-0011REMSYN076AAXX  20124 82392 32499 60501 10286 20244 30011 40113 84530 333 20244 59001;EQDQ01  00002PRCP06
0167823920999992005022018004-03700-040350FM-12+008399999V0200501N000512200019N0500001N1+03361+02241100601ADDAA106000091GF104991031021004501001011MA1999999099601MD1999999-0121REMSYN070AAXX  20184 82392 32499 40501 10336 20224 39960 40060 83201 333 59012;EQDQ01  00002PRCP06
0198823920999992005022100004-03700-040350FM-12+008399999V0203601N000512200019N0040001N1+02701+02261100811ADDAA106000091GF103991031021008001001001KA1240M+03481MA1999999099781MD1999999-0171REMSYN088AAXX  21004 82392 32596 33601 10270 20226 39978 40081 83200 333 10348 29071 55090 59017;EQDQ01  00002PRCP06
0186823920999992005022112004-03700-040350FM-12+008399999V0203601N000510450019N0500001N1+02781+02361101021ADDAA106000091GF106991041021004501031001KA1240N+02341MA1999999100001MD1999999-0111REMSYN076AAXX  21124 82392 32499 63601 10278 20236 30000 40102 84230 333 20234 59011;EQDQ01  00002PRCP06
0198823920999992005022200004-03700-040350FM-12+008399999V0203601N000512200019N0040001N1+02701+02221100891ADDAA106000091GF104991011011004501011001KA1240M+03441MA1999999099871MD1999999+0091REMSYN088AAXX  22004 82392 32496 43601 10270 20222 39987 40089 81110 333 10344 29069 55093 58009;EQDQ01  00002PRCP06
0186823920999992005022212004-03700-040350FM-12+008399999V0202301N001012200019N0500001N1+02781+02181101121ADDAA106000091GF103991031021004501001001KA1240N+02281MA1999999100101MD1999999+0101REMSYN076AAXX  22124 82392 32499 32302 10278 20218 30010 40112 83200 333 20228 58010;EQDQ01  00002PRCP06
0167823920999992005022218004-03700-040350FM-12+008399999V0209999C000010450019N0500001N1+03361+02241100681ADDAA106000091GF106991021021004501031021MA1999999099661MD1999999+0061REMSYN070AAXX  22184 82392 32499 60000 10336 20224 39966 40068 82232 333 58006;EQDQ01  00002PRCP06
0198823920999992005022300004-03700-040350FM-12+008399999V0203601N000510450019N0040001N1+02611+02391101141ADDAA106000091GF108991031051004501031999KA1240M+03431MA1999999100121MD1999999+0251REMSYN088AAXX  23004 82392 32496 83601 10261 20239 30012 40114 8353/ 333 10343 29074 55087 58025;EQDQ01  00002PRCP06
0186823920999992005022312004-03700-040350FM-12+008399999V0200501N002610450019N0500001N1+02801+02421101221ADDAA106000091GF106991041021004501031001KA1240N+02361MA1999999100201MD1999999+0101REMSYN076AAXX  23124 82392 32499 60505 10280 20242 30020 40122 84230 333 20236 58010;EQDQ01  00002PRCP06
0167823920999992005022318004-03700-040350FM-12+008399999V0200501N002612200019N0500001N1+03421+02231100761ADDAA106000091GF104991031041004501031001MA1999999099751MD1999999+0091REMSYN070AAXX  23184 82392 32499 40505 10342 20223 39975 40076 83430 333 58009;EQDQ01  00002PRCP06
0202823920999992005022400004-03700-040350FM-12+008399999V0203601N001010042019N0040001N1+02561+02471101211ADDAY151061AY251061GF108991081051004501999999KA1240M+03481MA1999999100191MD1999999+0071MW1511REMSYN100AAXX  24004 82392 21496 83602 10256 20247 30019 40121 75155 885// 333 10348 29080 55056 58007 69951;
0190823920999992005022412004-03700-040350FM-12+008399999V0200901N001012200019N0500001N1+02911+02361101301ADDAY151061AY251061GF104991021021004501031001KA1240N+02471MA1999999100281MD1999999+0081MW1031REMSYN088AAXX  24124 82392 21499 40902 10291 20236 30028 40130 70355 82230 333 20247 58008 69984;
0186823920999992005022512004-03700-040350FM-12+008399999V0200901N001010450019N0500001N1+02881+02311101171ADDAA106000091GF106991041041004501031001KA1240N+02281MA1999999100151MD1999999-0131REMSYN076AAXX  25124 82392 32499 60902 10288 20231 30015 40117 84430 333 20228 59013;EQDQ01  00002PRCP06
0167823920999992005022518004-03700-040350FM-12+008399999V0203601N005110042019N0040001N1+02861+02441100871ADDAA106000091GF108991081071004501999999MA1999999099851MD1999999+0031REMSYN070AAXX  25184 82392 32496 83610 10286 20244 39985 40087 887// 333 58003;EQDQ01  00002PRCP06
0215823920999992005022600004-03700-040350FM-12+008399999V0209999C000010450019N0040001N1+02521+02491101151ADDAY121061AY261061GF108991031061004501021999KA1240M+03341MA1999999100131MD1999999+0031REMSYN100AAXX  26004 82392 21496 80000 10252 20249 30013 40115 77026 8362/ 333 10334 29087 55059 58003 60061;EQDQ01+000702PRSWM1
0162823920999992005022612004-03700-040350FM-12+008399999V0201401N000510450019N0500001N1+02801+02481101181ADDGF106991031021004501031001KA1240N+02301MA1999999100161MD1999999+0011REMSYN082AAXX  26124 82392 22499 61401 10280 20248 30016 40118 83230 333 20230 58001 60094;
0167823920999992005022618004-03700-040350FM-12+008399999V0203201N000510450019N0500001N1+03341+02311100751ADDAA106000091GF105991031021004501011001MA1999999099731MD1999999-0121REMSYN070AAXX  26184 82392 32499 53201 10334 20231 39973 40075 83210 333 59012;EQDQ01  00002PRCP06
0202823920999992005022700004-03700-040350FM-12+008399999V0203601N000510450019N0040001N1+02641+02181101071ADDAY161061AY261061GF108991021021004501021999KA1240M+03391MA1999999100051MD1999999-0081MW1021REMSYN100AAXX  27004 82392 21496 83601 10264 20218 30005 40107 70266 8222/ 333 10339 29073 55064 59008 60081;
0162823920999992005022712004-03700-040350FM-12+008399999V0200501N002610042019N0500001N1+02861+02441101121ADDGF105991051021004501001001KA1240N+02401MA1999999100101MD1999999-0061REMSYN082AAXX  27124 82392 22499 50505 10286 20244 30010 40112 85200 333 20240 59006 60084;
0162823920999992005022812004-03700-040350FM-12+008399999V0201401N002112200019N0500001N1+02901+02481101221ADDGF104991041021004501001001KA1240N+02361MA1999999100201MD1999999+0101REMSYN082AAXX  28124 82392 22499 41404 10290 20248 30020 40122 84200 333 20236 58010 60344;
0167823920999992005022818004-03700-040350FM-12+008399999V0200501N001512200019N0500001N1+03401+01851100791ADDAA106000091GF103991021011004501001011MA1999999099781MD1999999+0061REMSYN070AAXX  28184 82392 32499 30503 10340 20185 39978 40079 82101 333 58006;EQDQ01  00002PRCP06
0186823920999992005030112004-03700-040350FM-12+008399999V0200501N000512200019N0500001N1+02821+02331101171ADDAA106000091GF104991041021004501001001KA1240N+02201MA1999999100151MD1999999-0051REMSYN076AAXX  01124 82392 32499 40501 10282 20233 30015 40117 84200 333 20220 59005;EQDQ01  00002PRCP06
0167823920999992005030118004-03700-040350FM-12+008399999V0200901N000512200019N0500001N1+03391+02181100741ADDAA106000091GF102991011011004501011001MA1999999099721MD1999999-0061REMSYN070AAXX  01184 82392 32499 20901 10339 20218 39972 40074 81110 333 59006;EQDQ01  00002PRCP06
0208823920999992005030200004-03700-040350FM-12+008399999V0203601N000512200019N0040001N1+02701+02171100971ADDAA106000091GA1001+999999999GF100991001001999999001001KA1240M+03461MA1999999099951MD1999999-0151REMSYN082AAXX  02004 82392 32996 03601 10270 20217 39995 40097 333 10346 29068 55105 59015;EQDQ01  00002PRCP06
0186823920999992005030212004-03700-040350FM-12+008399999V0201801N001010450019N0500001N1+02781+02381101191ADDAA106000091GF107991041041004501031001KA1240N+02221MA1999999100171MD1999999+0021REMSYN076AAXX  02124 82392 32499 71802 10278 20238 30017 40119 84430 333 20222 58002;EQDQ01  00002PRCP06
0198823920999992005030300004-03700-040350FM-12+008399999V0203601N001012200019N0040001N1+02741+02381101071ADDAA106000091GF102991021001008001011001KA1240M+03471MA1999999100051MD1999999+0101REMSYN088AAXX  03004 82392 32596 23602 10274 20238 30005 40107 82010 333 10347 29072 55081 58010;EQDQ01  00002PRCP06
0186823920999992005030312004-03700-040350FM-12+008399999V0209999C000010450019N0500001N1+02801+02481101231ADDAA106000091GF107991041051004501031001KA1240N+02461MA1999999100211MD1999999+0041REMSYN076AAXX  03124 82392 32499 70000 10280 20248 30021 40123 84530 333 20246 58004;EQDQ01  00002PRCP06
0208823920999992005030400004-03700-040350FM-12+008399999V0200501N002612200019N0040001N1+02721+02341101101ADDAA106000091GA1001+999999999GF100991001001999999001001KA1240M+03441MA1999999100081MD1999999+0031REMSYN082AAXX  04004 82392 32996 00505 10272 20234 30008 40110 333 10344 29081 55071 58003;EQDQ01  00002PRCP06
0186823920999992005030412004-03700-040350FM-12+008399999V0200901N003112200019N0500001N1+02861+02311101321ADDAA106000091GF104991021011004501031001KA1240N+02401MA1999999100301MD1999999+0091REMSYN076AAXX  04124 82392 32499 40906 10286 20231 30030 40132 82130 333 20240 58009;EQDQ01  00002PRCP06
0167823920999992005030418004-03700-040350FM-12+008399999V0203601N001510450019N0500001N1+03341+02151100861ADDAA106000091GF106991031021004501011001MA1999999099851MD1999999+0061REMSYN070AAXX  04184 82392 32499 63603 10334 20215 39985 40086 83210 333 58006;EQDQ01  00002PRCP06
0208823920999992005030500004-03700-040350FM-12+008399999V0200501N003112200019N0040001N1+02701+02011101121ADDAA106000091GA1001+999999999GF100991001001999999001001KA1240M+03401MA1999999100101MD1999999+0021REMSYN082AAXX  05004 82392 32996 00506 10270 20201 30010 40112 333 10340 29064 55079 58002;EQDQ01  00002PRCP06
0186823920999992005030512004-03700-040350FM-12+008399999V0200501N003110450019N0500001N1+02901+02041101341ADDAA106000091GF105991041021004501031001KA1240N+02101MA1999999100321MD1999999+0021REMSYN076AAXX  05124 82392 32499 50506 10290 20204 30032 40134 84230 333 20210 58002;EQDQ01  00002PRCP06
0183823920999992005030518004-03700-040350FM-12+008399999V0200501N004112200019N0500001N1+03381+01621100861ADDAA106000091GF104991999041004501021001MA1999999099851MD1999999+0001REMSYN070AAXX  05184 82392 32499 40508 10338 20162 39985 40086 88420 333 58000;EQDQ01+000082SCOTLCQ02  00002PRCP06
0208823920999992005030600004-03700-040350FM-12+008399999V0200501N004612200019N0040001N1+02701+02061101101ADDAA106000091GA1001+999999999GF100991001001999999001001KA1240M+03461MA1999999100081MD1999999-0021REMSYN082AAXX  06004 82392 32996 00509 10270 20206 30008 40110 333 10346 29058 55095 59002;EQDQ01  00002PRCP06
0186823920999992005030612004-03700-040350FM-12+008399999V0200501N000510450019N0500001N1+02891+02301101191ADDAA106000091GF105991041021004501011001KA1240N+02221MA1999999100171MD1999999-0151REMSYN076AAXX  06124 82392 32499 50501 10289 20230 30017 40119 84210 333 20222 59015;EQDQ01  00002PRCP06
0167823920999992005030618004-03700-040350FM-12+008399999V0203601N000510042019N0500001N1+03501+01981100701ADDAA106000091GF105991051021004501001001MA1999999099691MD1999999-0161REMSYN070AAXX  06184 82392 32499 53601 10350 20198 39969 40070 85200 333 59016;EQDQ01  00002PRCP06
0208823920999992005030700004-03700-040350FM-12+008399999V0203601N001012200019N0040001N1+02731+02121101081ADDAA106000091GA1001+999999999GF100991001001999999001001KA1240M+03561MA1999999100061MD1999999-0021REMSYN082AAXX  07004 82392 32996 03602 10273 20212 30006 40108 333 10356 29062 55105 59002;EQDQ01  00002PRCP06
0186823920999992005030712004-03700-040350FM-12+008399999V0200901N002612200019N0500001N1+02841+02291101121ADDAA106000091GF104991041041004501001001KA1240N+02221MA1999999100101MD1999999-0071REMSYN076AAXX  07124 82392 32499 40905 10284 20229 30010 40112 84400 333 20222 59007;EQDQ01  00002PRCP06
0198823920999992005030800004-03700-040350FM-12+008399999V0203601N002610450019N0040001N1+02781+02251101141ADDAA106000091GF105991031051004501011001KA1240M+03531MA1999999100121MD1999999+0061REMSYN088AAXX  08004 82392 32496 53605 10278 20225 30012 40114 83510 333 10353 29063 55073 58006;EQDQ01  00002PRCP06
0167823920999992005030818004-03700-040350FM-12+008399999V0200501N000510450019N0500001N1+03481+02071100631ADDAA106000091GF106991021021004501031011MA1999999099631MD1999999-0081REMSYN070AAXX  08184 82392 32499 60501 10348 20207 39963 40063 82231 333 59008;EQDQ01  00002PRCP06
0198823920999992005030900004-03700-040350FM-12+008399999V0203201N000510450019N0040001N1+02731+02321101101ADDAA106000091GF105991021021004501031001KA1240M+03561MA1999999100081MD1999999-0041REMSYN088AAXX  09004 82392 32496 53201 10273 20232 30008 40110 82230 333 10356 29069 55080 59004;EQDQ01  00002PRCP06
0186823920999992005030912004-03700-040350FM-12+008399999V0200901N001012200019N0500001N1+02821+02221101241ADDAA106000091GF104991041021004501001001KA1240N+02301MA1999999100221MD1999999+0071REMSYN076AAXX  09124 82392 32499 40902 10282 20222 30022 40124 84200 333 20230 58007;EQDQ01  00002PRCP06
0198823920999992005031000004-03700-040350FM-12+008399999V0203601N001012200019N0040001N1+02661+02351101031ADDAA106000091GF101991011001008001031001KA1240M+03481MA1999999100041MD1999999-0041REMSYN088AAXX  10004 82392 32596 13602 10266 20235 30004 40103 81030 333 10348 29074 55077 59004;EQDQ01  00002PRCP06
0190823920999992005031012004-03700-040350FM-12+008399999V0203601N000510042019N0500001N1+02561+02441101291ADDAY101061AY221061GF107991061061004501031001KA1240N+02391MA1999999100271MD1999999+0051MW1201REMSYN088AAXX  10124 82392 21499 73601 10256 20244 30027 40129 72002 86630 333 20239 58005 69924;
0171823920999992005031018004-03700-040350FM-12+008399999V0203601N001010450019N0500001N1+03231+02311100811ADDAY151061AY251061GF106991041061004501031001MA1999999099791MD1999999+0051MW1021REMSYN082AAXX  10184 82392 21499 63602 10323 20231 39979 40081 70255 84630 333 58005 69931;
0192823920999992005031100004-03700-040350FM-12+008399999V0200501N001510450019N0040001N1+02681+02351101141ADDAA106000091GF107991031071004501011001KA1240M+03421MA1999999100121MD1999999+0081REMSYN082AAXX  11004 82392 32496 70503 10268 20235 30012 40114 83710 333 10342 29079 58008;EQDQ01  00002PRCP06
0162823920999992005031112004-03700-040350FM-12+008399999V0203601N002110450019N0500001N1+02881+02251101241ADDGF106991041041004501031001KA1240N+02331MA1999999100221MD1999999-0051REMSYN082AAXX  11124 82392 22499 63604 10288 20225 30022 40124 84430 333 20233 59005 69934;
0202823920999992005031200004-03700-040350FM-12+008399999V0209999C000010450019N0040001N1+02561+02531101201ADDAY161061AY261061GF108991041071004501021999KA1240M+03481MA1999999100181MD1999999+0061MW1031REMSYN100AAXX  12004 82392 21496 80000 10256 20253 30018 40120 70366 8472/ 333 10348 29088 55055 58006 69981;
0162823920999992005031212004-03700-040350FM-12+008399999V0202301N000510450019N0040001N1+02721+02451101241ADDGF106991041051004501031001KA1240N+02361MA1999999100221MD1999999+0001REMSYN082AAXX  12124 82392 22496 62301 10272 20245 30022 40124 84530 333 20236 58000 60164;
0171823920999992005031218004-03700-040350FM-12+008399999V0203601N001010450019N0500001N1+02801+02461100861ADDAY161061AY261061GF106991041061004501031001MA1999999099841MD1999999-0071MW1021REMSYN082AAXX  12184 82392 21499 63602 10280 20246 39984 40086 70266 84630 333 59007 60181;
0198823920999992005031300004-03700-040350FM-12+008399999V0203601N002612200019N0040001N1+02591+02441101051ADDAA106000091GF102991011021004501031001KA1240M+03041MA1999999100031MD1999999-0151REMSYN088AAXX  13004 82392 32496 23605 10259 20244 30003 40105 81230 333 10304 29087 55025 59015;EQDQ01  00002PRCP06
0162823920999992005031312004-03700-040350FM-12+008399999V0201801N001010450019N0500001N1+02841+02291101181ADDGF106991041021004501031001KA1240N+02321MA1999999100161MD1999999-0061REMSYN082AAXX  13124 82392 22499 61802 10284 20229 30016 40118 84230 333 20232 59006 60184;
0171823920999992005031318004-03700-040350FM-12+008399999V0202701N001010450019N0500001N1+02361+02331100781ADDAY121061AY221061GF108991031061004501021999MA1999999099751MD1999999-0091MW1511REMSYN082AAXX  13184 82392 21499 82702 10236 20233 39975 40078 75122 8362/ 333 59009 60081;
0189823920999992005031400004-03700-040350FM-12+008399999V0203601N002612200019N0040001N1+02581+02551100921ADDAA106000021GA1001+999999999GF100991001001999999001001KA1240M+03341MA1999999099901MD1999999-0131REMSYN082AAXX  14004 82392 32996 03605 10258 20255 39990 40092 333 10334 29092 55055 59013;
0162823920999992005031412004-03700-040350FM-12+008399999V0200901N001512200019N0500001N1+02761+02381101121ADDGF104991041021004501001001KA1240N+02261MA1999999100101MD1999999-0061REMSYN082AAXX  14124 82392 22499 40903 10276 20238 30010 40112 84200 333 20226 59006 60084;
0167823920999992005031418004-03700-040350FM-12+008399999V0203601N000512200019N0500001N1+03381+02021100551ADDAA106000091GF104991041021004501001001MA1999999099551MD1999999-0201REMSYN070AAXX  14184 82392 32499 43601 10338 20202 39955 40055 84200 333 59020;EQDQ01  00002PRCP06
0198823920999992005031500004-03700-040350FM-12+008399999V0203601N001010042019N0040001N1+02701+02301100761ADDAA106000091GF106991061061004501001001KA1240M+03401MA1999999099741MD1999999-0161REMSYN088AAXX  15004 82392 32496 63602 10270 20230 39974 40076 86600 333 10340 29071 55086 59016;EQDQ01  00002PRCP06
0186823920999992005031512004-03700-040350FM-12+008399999V0201401N001510450019N0500001N1+02761+02341101001ADDAA106000091GF107991041051004501031001KA1240N+02341MA1999999099981MD1999999-0121REMSYN076AAXX  15124 82392 32499 71403 10276 20234 39998 40100 84530 333 20234 59012;EQDQ01  00002PRCP06
0167823920999992005031518004-03700-040350FM-12+008399999V0202701N000510450019N0500001N1+03171+02411100631ADDAA106000091GF107991031061004501011011MA1999999099621MD1999999+0071REMSYN070AAXX  15184 82392 32499 72701 10317 20241 39962 40063 83611 333 58007;EQDQ01  00002PRCP06
0198823920999992005031600004-03700-040350FM-12+008399999V0203601N001012200019N0040001N1+02681+02281100981ADDAA106000091GF103991031001008001011001KA1240M+03281MA1999999099961MD1999999+0221REMSYN088AAXX  16004 82392 32596 33602 10268 20228 39996 40098 83010 333 10328 29075 55042 58022;EQDQ01  00002PRCP06
0186823920999992005031612004-03700-040350FM-12+008399999V0201401N000512200019N0500001N1+02821+02121101121ADDAA106000091GF103991031021004501001001KA1240N+02201MA1999999100101MD1999999+0121REMSYN076AAXX  16124 82392 32499 31401 10282 20212 30010 40112 83200 333 20220 58012;EQDQ01  00002PRCP06
0167823920999992005031618004-03700-040350FM-12+008399999V0201401N001012200019N0500001N1+03421+01781100711ADDAA106000091GF104991041021004501001001MA1999999099701MD1999999+0081REMSYN070AAXX  16184 82392 32499 41402 10342 20178 39970 40071 84200 333 58008;EQDQ01  00002PRCP06
0198823920999992005031700004-03700-040350FM-12+008399999V0203601N001010450019N0040001N1+02601+02231101071ADDAA106000091GF105991021021004501021001KA1240M+03441MA1999999100051MD1999999+0091REMSYN088AAXX  17004 82392 32496 53602 10260 20223 30005 40107 82220 333 10344 29066 55091 58009;EQDQ01  00002PRCP06
0186823920999992005031712004-03700-040350FM-12+008399999V0200501N000510450019N0500001N1+02861+02441101231ADDAA106000091GF106991021011004501011011KA1240N+02321MA1999999100211MD1999999+0111REMSYN076AAXX  17124 82392 32499 60501 10286 20244 30021 40123 82111 333 20232 58011;EQDQ01  00002PRCP06
0167823920999992005031718004-03700-040350FM-12+008399999V0203601N000510450019N0500001N1+03371+02261100711ADDAA106000091GF106991021021004501011011MA1999999099701MD1999999+0001REMSYN070AAXX  17184 82392 32499 63601 10337 20226 39970 40071 82211 333 58000;EQDQ01  00002PRCP06
0208823920999992005031800004-03700-040350FM-12+008399999V0203601N001012200019N0040001N1+02721+02391101041ADDAA106000091GA1001+999999999GF100991001001999999001001KA1240M+03401MA1999999100021MD1999999-0031REMSYN082AAXX  18004 82392 32996 03602 10272 20239 30002 40104 333 10340 29074 55077 59003;EQDQ01  00002PRCP06
0186823920999992005031812004-03700-040350FM-12+008399999V0201401N000512200019N0500001N1+02821+02361101221ADDAA106000091GF104991021011004501031001KA1240N+02301MA1999999100201MD1999999-0011REMSYN076AAXX  18124 82392 32499 41401 10282 20236 30020 40122 82130 333 20230 59001;EQDQ01  00002PRCP06
0202823920999992005031900004-03700-040350FM-12+008399999V0200501N002610450019N0040001N1+02441+02371101171ADDAY161061AY221061GF108991041071004501021999KA1240M+03161MA1999999100151MD1999999+0131MW1021REMSYN100AAXX  19004 82392 21496 80505 10244 20237 30015 40117 70262 8472/ 333 10316 29085 55036 58013 60051;
0171823920999992005031918004-03700-040350FM-12+008399999V0200501N005710450019N0500001N1+02541+02331101131ADDAY151061AY221061GF108991041071004501021999MA1999999100101MD1999999+0101MW1021REMSYN082AAXX  19184 82392 21499 80511 10254 20233 30010 40113 70252 8472/ 333 58010 69941;
0202823920999992005032000004-03700-040350FM-12+008399999V0209999C000010042019N0040001N1+02361+02331101331ADDAY151061AY261061GF108991051061004501021999KA1240M+03081MA1999999100301MD1999999+0151MW1021REMSYN100AAXX  20004 82392 21496 80000 10236 20233 30030 40133 70256 8562/ 333 10308 29092 55017 58015 60071;
0162823920999992005032012004-03700-040350FM-12+008399999V0209999C000010450019N0500001N1+02641+02371101361ADDGF106991041041004501031001KA1240N+02301MA1999999100331MD1999999+0101REMSYN082AAXX  20124 82392 22499 60000 10264 20237 30033 40136 84430 333 20230 58010 60074;
0167823920999992005032018004-03700-040350FM-12+008399999V0203601N001010042019N0500001N1+02901+02391100941ADDAA106000091GF107991051061004501011001MA1999999099921MD1999999-0081REMSYN070AAXX  20184 82392 32499 73602 10290 20239 39992 40094 85610 333 59008;EQDQ01  00002PRCP06
0198823920999992005032100004-03700-040350FM-12+008399999V0203601N000510450019N0040001N1+02501+02311101171ADDAA106000091GF106991021021004501031001KA1240M+03201MA1999999100151MD1999999-0151REMSYN088AAXX  21004 82392 32496 63601 10250 20231 30015 40117 82230 333 10320 29084 55058 59015;EQDQ01  00002PRCP06
0186823920999992005032112004-03700-040350FM-12+008399999V0200501N000510450019N0500001N1+02681+02351101271ADDAA106000091GF106991041021004501031001KA1240N+02201MA1999999100251MD1999999-0081REMSYN076AAXX  21124 82392 32499 60501 10268 20235 30025 40127 84230 333 20220 59008;EQDQ01  00002PRCP06
0171823920999992005032118004-03700-040350FM-12+008399999V0200501N004610450019N0500001N1+02601+02531100931ADDAY121061AY261061GF108991041061004501021999MA1999999099901MD1999999-0021MW1031REMSYN082AAXX  21184 82392 21499 80509 10260 20253 39990 40093 70326 8462/ 333 59002 69931;
0162823920999992005032212004-03700-040350FM-12+008399999V0201401N001012200019N0500001N1+02641+02291101331ADDGF103991021011004501031001KA1240N+02101MA1999999100301MD1999999+0051REMSYN082AAXX  22124 82392 22499 31402 10264 20229 30030 40133 82130 333 20210 58005 69934;
0167823920999992005032218004-03700-040350FM-12+008399999V0203201N001010450019N0500001N1+02371+02321100861ADDAA106000091GF105991041021004501031001MA1999999099841MD1999999-0061REMSYN070AAXX  22184 82392 32499 53202 10237 20232 39984 40086 84230 333 59006;EQDQ01  00002PRCP06
0202823920999992005032300004-03700-040350FM-12+008399999V0200501N001010450019N0040001N1+02531+02421101271ADDAY161061AY261061GF106991021011004501011071KA1240M+03361MA1999999100251MD1999999+0061MW1021REMSYN100AAXX  23004 82392 21496 60502 10253 20242 30025 40127 70266 82117 333 10336 29081 55071 58006 69981;
0162823920999992005032312004-03700-040350FM-12+008399999V0200901N001510450019N0500001N1+02661+02431101381ADDGF108991041061004501021999KA1240N+02281MA1999999100361MD1999999+0061REMSYN082AAXX  23124 82392 22499 80903 10266 20243 30036 40138 8462/ 333 20228 58006 69984;
0198823920999992005032400004-03700-040350FM-12+008399999V0209999C000010450019N0040001N1+02381+02351101381ADDAA106000091GF106991021021004501031001KA1240M+02781MA1999999100351MD1999999+0101REMSYN088AAXX  24004 82392 32496 60000 10238 20235 30035 40138 82230 333 10278 29095 55013 58010;EQDQ01  00002PRCP06
0162823920999992005032412004-03700-040350FM-12+008399999V0203601N000510450019N0500001N1+03801+02381101401ADDGF105991031021004501031001KA1240N+02261MA1999999100381MD1999999+0021REMSYN082AAXX  24124 82392 22499 53601 10380 20238 30038 40140 83230 333 20226 58002 60054;
0171823920999992005032418004-03700-040350FM-12+008399999V0203601N001010042019N0500001N1+02601+02401101101ADDAY151061AY251061GF108991061061004501021999MA1999999100071MD1999999-0101MW1021REMSYN082AAXX  24184 82392 21499 83602 10260 20240 30007 40110 70255 8662/ 333 59010 69911;
0167823920999992005032518004-03700-040350FM-12+008399999V0203601N000510450019N0500001N1+03241+02281100961ADDAA106000091GF106991031021004501021001MA1999999099941MD1999999-0131REMSYN070AAXX  25184 82392 32499 63601 10324 20228 39994 40096 83220 333 59013;EQDQ01  00002PRCP06
0202823920999992005032600004-03700-040350FM-12+008399999V0200501N000510450019N0040001N1+02541+02471101171ADDAY151061AY251061GF106991041041004501031001KA1240M+03261MA1999999100151MD1999999-0151MW1211REMSYN100AAXX  26004 82392 21496 60501 10254 20247 30015 40117 72155 84430 333 10326 29085 55059 59015 69981;
0162823920999992005032612004-03700-040350FM-12+008399999V0200501N000510450019N0500001N1+02691+02331101211ADDGF106991031021004501031001KA1240N+02231MA1999999100191MD1999999-0121REMSYN082AAXX  26124 82392 22499 60501 10269 20233 30019 40121 83230 333 20223 59012 69984;
0171823920999992005032618004-03700-040350FM-12+008399999V0203601N002610042019N0040001N1+02541+02351100861ADDAY101061AY221061GF108991081051004501999999MA1999999099831MD1999999-0111MW1511REMSYN082AAXX  26184 82392 21496 83605 10254 20235 39983 40086 75102 885// 333 59011 69941;
0202823920999992005032700004-03700-040350FM-12+008399999V0209999C000010450019N0040001N1+02481+02431101141ADDAY161061AY261061GF107991041051004501011001KA1240M+03241MA1999999100121MD1999999-0031MW1021REMSYN100AAXX  27004 82392 21496 70000 10248 20243 30012 40114 70266 84510 333 10324 29091 55043 59003 69981;
0162823920999992005032712004-03700-040350FM-12+008399999V0201401N001012200019N0500001N1+02741+02361101201ADDGF104991041021004501001001KA1240N+02281MA1999999100181MD1999999-0011REMSYN082AAXX  27124 82392 22499 41402 10274 20236 30018 40120 84200 333 20228 59001 60014;
0171823920999992005032718004-03700-040350FM-12+008399999V0203601N001010450019N0100001N1+02341+02321100931ADDAY121061AY221061GF108991041061004501021999MA1999999099901MD1999999+0071MW1611REMSYN082AAXX  27184 82392 21497 83602 10234 20232 39990 40093 76122 8462/ 333 58007 62111;
0202823920999992005032800004-03700-040350FM-12+008399999V0201401N000510450019N0040001N1+02401+02381101161ADDAY161061AY261061GF108991041071004501021999KA1240M+03201MA1999999100141MD1999999+0021MW1021REMSYN100AAXX  28004 82392 21496 81401 10240 20238 30014 40116 70266 8472/ 333 10320 29094 55054 58002 60011;
0190823920999992005032812004-03700-040350FM-12+008399999V0200501N001010450019N0500001N1+02541+02381101231ADDAY151061AY261061GF107991041051004501031001KA1240N+02181MA1999999100201MD1999999+0021MW1021REMSYN088AAXX  28124 82392 21499 70502 10254 20238 30020 40123 70256 84530 333 20218 58002 60234;
0167823920999992005032818004-03700-040350FM-12+008399999V0203601N001012200019N0500001N1+02961+02401100821ADDAA106000091GF104991031031004501031001MA1999999099801MD1999999-0101REMSYN070AAXX  28184 82392 32499 43602 10296 20240 39980 40082 83330 333 59010;EQDQ01  00002PRCP06
0202823920999992005032900004-03700-040350FM-12+008399999V0209999C000010042019N0040001N1+02421+02371101171ADDAY101061AY221061GF108991051051004501021999KA1240M+03001MA1999999100141MD1999999+0001MW1211REMSYN100AAXX  29004 82392 21496 80000 10242 20237 30014 40117 72102 8552/ 333 10300 29089 55018 58000 60021;
0190823920999992005032912004-03700-040350FM-12+008399999V0202601N000510450019N0500001N1+02541+02511101191ADDAY151061AY261061GF108991041071004501021999KA1240N+02261MA1999999100161MD1999999-0041MW1021REMSYN088AAXX  29124 82392 21499 82601 10254 20251 30016 40119 70256 8472/ 333 20226 59004 60024;
0171823920999992005032918004-03700-040350FM-12+008399999V0200501N000510042019N0500001N1+02471+02391100871ADDAY161061AY261061GF108991081061004501999999MA1999999099841MD1999999+0041MW1211REMSYN082AAXX  29184 82392 21499 80501 10247 20239 39984 40087 72166 886// 333 58004 60021;
0190823920999992005033012004-03700-040350FM-12+008399999V0200901N001012200019N0500001N1+02781+02361101221ADDAY161061AY251061GF103991031021004501001001KA1240N+02221MA1999999100201MD1999999+0041MW1021REMSYN088AAXX  30124 82392 21499 30902 10278 20236 30020 40122 70265 83200 333 20222 58004 60024;
0202823920999992005033100004-03700-040350FM-12+008399999V0201801N000510042019N0040001N1+02421+02391101211ADDAY161061AY261061GF108991081051004501999999KA1240M+03341MA1999999100191MD1999999+0021MW1511REMSYN100AAXX  31004 82392 21496 81801 10242 20239 30019 40121 75166 885// 333 10334 29084 55080 58002 60171;
0190823920999992005033112004-03700-040350FM-12+008399999V0209999C000010450019N0500001N1+02531+02441101241ADDAY151061AY251061GF106991041041004501031001KA1240N+02271MA1999999100211MD1999999+0011MW1021REMSYN088AAXX  31124 82392 21499 60000 10253 20244 30021 40124 70255 84430 333 20227 58001 60184;
0171823920999992005033118004-03700-040350FM-12+008399999V0209999C000010042019N0500001N1+02641+02481100871ADDAY101061AY221061GF108991081051004501999999MA1999999099841MD1999999+0181MW1951REMSYN082AAXX  31184 82392 21499 80000 10264 20248 39984 40087 79502 885// 333 58018 60021;
0202823920999992005040100004-03700-040350FM-12+008399999V0209999C000010450019N0040001N1+02441+02391101131ADDAY161061AY261061GF108991031071004501021999KA1240M+03041MA1999999100101MD1999999-0091MW1021REMSYN100AAXX  01004 82392 21496 80000 10244 20239 30010 40113 70266 8372/ 333 10304 29095 55040 59009 60021;
0162823920999992005040112004-03700-040350FM-12+008399999V0201801N000512200019N0500001N1+02681+02481101221ADDGF103991021011004501031001KA1240N+02201MA1999999100201MD1999999-0011REMSYN082AAXX  01124 82392 22499 31801 10268 20248 30020 40122 82130 333 20220 59001 60044;
0171823920999992005040118004-03700-040350FM-12+008399999V0203601N000510042019N0500001N1+02381+02351101071ADDAY161061AY261061GF107991051051004501031001MA1999999100041MD1999999+0201MW1511REMSYN082AAXX  01184 82392 21499 73601 10238 20235 30004 40107 75166 85530 333 58020 60291;
0202823920999992005040200004-03700-040350FM-12+008399999V0209999C000010450019N0040001N1+02361+02331101231ADDAY161061AY251061GF106991041041004501031001KA1240M+02941MA1999999100201MD1999999+0101MW1021REMSYN100AAXX  02004 82392 21496 60000 10236 20233 30020 40123 70265 84430 333 10294 29096 55044 58010 69951;
0162823920999992005040212004-03700-040350FM-12+008399999V0201801N001012200019N0500001N1+02701+02431101231ADDGF103991031021004501001001KA1240N+02201MA1999999100201MD1999999+0001REMSYN082AAXX  02124 82392 22499 31802 10270 20243 30020 40123 83200 333 20220 58000 60294;
0171823920999992005040218004-03700-040350FM-12+008399999V0203601N003110450019N0500001N1+02921+02501100941ADDAY161061AY221061GF106991041051004501031001MA1999999099921MD1999999-0121MW1031REMSYN082AAXX  02184 82392 21499 63606 10292 20250 39992 40094 70362 84530 333 59012 60011;
0202823920999992005040300004-03700-040350FM-12+008399999V0200501N002612200019N0040001N1+02521+02491101201ADDAY161061AY261061GF102991021001008001031001KA1240M+03201MA1999999100181MD1999999-0021MW1021REMSYN100AAXX  03004 82392 21596 20505 10252 20249 30018 40120 70266 82030 333 10320 29090 55083 59002 60061;
0167823920999992005040318004-03700-040350FM-12+008399999V0203601N000511050019N0500001N1+03161+02371100971ADDAA106000091GF106991031021004501001021MA1999999099951MD1999999+0031REMSYN070AAXX  03184 82392 32499 63601 10316 20237 39995 40097 83202 333 58003;EQDQ01  00002PRCP06
0198823920999992005040400004-03700-040350FM-12+008399999V0200501N000512200019N0040001N1+02581+02331101341ADDAA106000091GF103991031001008001011001KA1240M+03321MA1999999100221MD1999999+0041REMSYN088AAXX  04004 82392 32596 30501 10258 20233 30022 40134 83010 333 10332 29079 55074 58004;EQDQ01  00002PRCP06
0167823920999992005040418004-03700-040350FM-12+008399999V0200501N001010450019N0500001N1+02581+02441101031ADDAA106000091GF108991041081004501021999MA1999999100001MD1999999+0051REMSYN070AAXX  04184 82392 32499 80502 10258 20244 30000 40103 8482/ 333 58005;EQDQ01  00002PRCP06
0212823920999992005040500004-03700-040350FM-12+008399999V0209999C000012200019N0040001N1+02461+02431101171ADDAY161061AY261061GA1001+999999999GF100991001001999999001001KA1240M+03201MA1999999100141MD1999999-0081MW1021REMSYN094AAXX  05004 82392 21996 00000 10246 20243 30014 40117 70266 333 10320 29093 55060 59008 60021;
0190823920999992005040512004-03700-040350FM-12+008399999V0200901N001012200019N0500001N1+02801+02311101321ADDAY151061AY261061GF103991031021004501001001KA1240N+02281MA1999999100301MD1999999+0001MW1021REMSYN088AAXX  05124 82392 21499 30902 10280 20231 30030 40132 70256 83200 333 20228 58000 60024;
0167823920999992005040518004-03700-040350FM-12+008399999V0201401N001010450019N0500001N1+03131+02181100911ADDAA106000091GF106991011011004501011021MA1999999099891MD1999999-0111REMSYN070AAXX  05184 82392 32499 61402 10313 20218 39989 40091 81112 333 59011;EQDQ01  00002PRCP06
0186823920999992005040612004-03700-040350FM-12+008399999V0201401N002112200019N0500001N1+02841+02241101241ADDAA106000091GF103991031011004501001001KA1240N+02261MA1999999100221MD1999999-0081REMSYN076AAXX  06124 82392 32499 31404 10284 20224 30022 40124 83100 333 20226 59008;EQDQ01  00002PRCP06
0167823920999992005040618004-03700-040350FM-12+008399999V0201801N000510450019N0500001N1+02841+02461100901ADDAA106000091GF108991041071004501021999MA1999999099881MD1999999-0011REMSYN070AAXX  06184 82392 32499 81801 10284 20246 39988 40090 8472/ 333 59001;EQDQ01  00002PRCP06
0202823920999992005040700004-03700-040350FM-12+008399999V0209999C000012200019N0040001N1+02501+02401101111ADDAY161061AY261061GF101991011001999999011001KA1240M+03181MA1999999100091MD1999999-0051MW1021REMSYN100AAXX  07004 82392 21996 10000 10250 20240 30009 40111 70266 81010 333 10318 29085 55043 59005 60011;
0162823920999992005040712004-03700-040350FM-12+008399999V0201401N000510042019N0500001N1+02921+02451101121ADDGF105991051021004501001001KA1240N+02281MA1999999100101MD1999999-0121REMSYN082AAXX  07124 82392 22499 51401 10292 20245 30010 40112 85200 333 20228 59012 69984;
0167823920999992005040718004-03700-040350FM-12+008399999V0200901N000510450019N0500001N1+03161+02321100741ADDAA106000091GF106991041061004501031001MA1999999099721MD1999999-0161REMSYN070AAXX  07184 82392 32499 60901 10316 20232 39972 40074 84630 333 59016;EQDQ01  00002PRCP06
0212823920999992005040800004-03700-040350FM-12+008399999V0200501N000512200019N0500001N1+02421+02391101021ADDAY121061AY251061GA1001+999999999GF100991001001999999001001KA1240M+03321MA1999999100001MD1999999-0091MW1021REMSYN094AAXX  08004 82392 21499 00501 10242 20239 30000 40102 70225 333 10332 29083 55067 59009 69941;
0162823920999992005040812004-03700-040350FM-12+008399999V0201401N000512200019N0500001N1+02881+02411101021ADDGF102991021011004501001001KA1240N+02211MA1999999100001MD1999999-0101REMSYN082AAXX  08124 82392 22499 21401 10288 20241 30000 40102 82100 333 20221 59010 69944;
0167823920999992005040818004-03700-040350FM-12+008399999V0201401N000512200019N0500001N1+03361+02171100691ADDAA106000091GF103991021011004501001011MA1999999099671MD1999999-0051REMSYN070AAXX  08184 82392 32499 31401 10336 20217 39967 40069 82101 333 59005;EQDQ01  00002PRCP06
0198823920999992005040900004-03700-040350FM-12+008399999V0200501N000510450019N0040001N1+02501+02431101021ADDAA106000091GF106991041041004501031001KA1240M+03541MA1999999100001MD1999999+0001REMSYN088AAXX  09004 82392 32496 60501 10250 20243 30000 40102 84430 333 10354 29079 55079 58000;EQDQ01  00002PRCP06
0190823920999992005040912004-03700-040350FM-12+008399999V0200901N000510042019N0500001N1+02781+02421101141ADDAY161061AY261061GF107991061061004501031001KA1240N+02381MA1999999100121MD1999999+0121MW1021REMSYN088AAXX  09124 82392 21499 70901 10278 20242 30012 40114 70266 86630 333 20238 58012 69984;
0171823920999992005040918004-03700-040350FM-12+008399999V0202701N000510450019N0500001N1+02921+02501100831ADDAY161061AY261061GF107991041061004501011001MA1999999099811MD1999999+0141MW1021REMSYN082AAXX  09184 82392 21499 72701 10292 20250 39981 40083 70266 84610 333 58014 60051;
0214823920999992005041000004-03700-040350FM-12+008399999V0209999C000012200019N0040001N1+02431+02351101001ADDAA106000091GF104991999011999999001001KA1240M+02981MA1999999099981MD1999999-0021REMSYN088AAXX  10004 82392 32996 40000 10243 20235 39998 40100 81100 333 10298 29087 55029 59002;EQDQ01+000012SCOTLCQ02  00002PRCP06
0190823920999992005041012004-03700-040350FM-12+008399999V0200501N000512200019N0500001N1+02841+02351101071ADDAY161061AY261061GF103991031021004501001001KA1240N+02271MA1999999100051MD1999999-0071MW1021REMSYN088AAXX  10124 82392 21499 30501 10284 20235 30005 40107 70266 83200 333 20227 59007 60094;
0167823920999992005041018004-03700-040350FM-12+008399999V0203201N001012200019N0500001N1+03061+02451100681ADDAA106000091GF104991041021004501001001MA1999999099661MD1999999-0151REMSYN070AAXX  10184 82392 32499 43202 10306 20245 39966 40068 84200 333 59015;EQDQ01  00002PRCP06
0202823920999992005041100004-03700-040350FM-12+008399999V0200501N001010450019N0040001N1+02521+02451100981ADDAY161061AY261061GF106991041041004501031001KA1240M+03201MA1999999099961MD1999999-0021MW1021REMSYN100AAXX  11004 82392 21496 60502 10252 20245 39996 40098 70266 84430 333 10320 29084 55057 59002 60091;
0167823920999992005041118004-03700-040350FM-12+008399999V0200901N000510042019N0500001N1+03221+02231100681ADDAA106000091GF105991051021004501001001MA1999999099661MD1999999+0001REMSYN070AAXX  11184 82392 32499 50901 10322 20223 39966 40068 85200 333 58000;EQDQ01  00002PRCP06
0198823920999992005041200004-03700-040350FM-12+008399999V0200501N000510450019N0040001N1+02641+02391100951ADDAA106000091GF106991031041004501021001KA1240M+03461MA1999999099931MD1999999-0031REMSYN088AAXX  12004 82392 32496 60501 10264 20239 39993 40095 83420 333 10346 29078 55081 59003;EQDQ01  00002PRCP06
0186823920999992005041212004-03700-040350FM-12+008399999V0201401N000512200019N0500001N1+02761+02161101071ADDAA106000091GF101991011011004501001001KA1240N+02281MA1999999100051MD1999999+0051REMSYN076AAXX  12124 82392 32499 11401 10276 20216 30005 40107 81100 333 20228 58005;EQDQ01  00002PRCP06
0171823920999992005041218004-03700-040350FM-12+008399999V0209999C000010450019N0500001N1+03211+02371100471ADDAY161061AY261061GF106991031061004501031001MA1999999099721MD1999999+0061MW1021REMSYN082AAXX  12184 82392 21499 60000 10321 20237 39972 40047 70266 83630 333 58006 69981;
0202823920999992005041300004-03700-040350FM-12+008399999V0203601N000510450019N0040001N1+02621+02371101111ADDAY151061AY251061GF108991041041004501021999KA1240M+03341MA1999999100091MD1999999+0161MW1021REMSYN100AAXX  13004 82392 21496 83601 10262 20237 30009 40111 70255 8442/ 333 10334 29076 55073 58016 69951;
0162823920999992005041312004-03700-040350FM-12+008399999V0200901N000512200019N0500001N1+02861+02391101151ADDGF104991041021004501001001KA1240N+02321MA1999999100131MD1999999+0081REMSYN082AAXX  13124 82392 22499 40901 10286 20239 30013 40115 84200 333 20232 58008 60014;
0162823920999992005041412004-03700-040350FM-12+008399999V0209999C000010042019N0500001N1+02641+02371101141ADDGF107991071061004501001001KA1240N+02241MA1999999100181MD1999999-0021REMSYN082AAXX  14124 82392 22499 70000 10264 20237 30018 40114 87600 333 20224 59002 60254;
0198823920999992005041500004-03700-040350FM-12+008399999V0200501N000510450019N0040001N1+02561+02511100981ADDAA106000091GF108991041071004501021999KA1240M+03181MA1999999099961MD1999999-0171REMSYN088AAXX  15004 82392 32496 80501 10256 20251 39996 40098 8472/ 333 10318 29093 55043 59017;EQDQ01  00002PRCP06
0162823920999992005041512004-03700-040350FM-12+008399999V0201401N000512200019N0500001N1+02781+02361101191ADDGF104991041041004501001001KA1240N+02281MA1999999100171MD1999999+0061REMSYN082AAXX  15124 82392 22499 41401 10278 20236 30017 40119 84400 333 20228 58006 60044;
0167823920999992005041518004-03700-040350FM-12+008399999V0200901N000512200019N0500001N1+03201+02271100821ADDAA106000091GF104991021041004501031001MA1999999099801MD1999999+0041REMSYN070AAXX  15184 82392 32499 40901 10320 20227 39980 40082 82430 333 58004;EQDQ01  00002PRCP06
0202823920999992005041600004-03700-040350FM-12+008399999V0203201N000510450019N0040001N1+02581+02551101161ADDAY121061AY251061GF108991041071004501021999KA1240M+03281MA1999999100141MD1999999+0181MW1031REMSYN100AAXX  16004 82392 21496 83201 10258 20255 30014 40116 70325 8472/ 333 10328 29083 55087 58018 69941;
0179823920999992005041712004-03700-040350FM-12+008399999V0200501N000512200019N0500001N1+02811+02241101241ADDAA124001091GF102991011011004501001011KA1240N+02221MA1999999100221MD1999999-0051REMSYN088AAXX  17124 82392 22499 20501 10281 20224 30022 40124 81101 333 20222 59005 60014 10012;
0167823920999992005041718004-03700-040350FM-12+008399999V0200901N000512200019N0500001N1+03311+02231100831ADDAA106000091GF103991021021004501001011MA1999999099811MD1999999-0091REMSYN070AAXX  17184 82392 32499 30901 10331 20223 39981 40083 82201 333 59009;EQDQ01  00002PRCP06
0198823920999992005041800004-03700-040350FM-12+008399999V0203601N000512200019N0040001N1+02561+02381101061ADDAA106000091GF101991011001008001011001KA1240M+03321MA1999999100041MD1999999-0081REMSYN088AAXX  18004 82392 32596 13601 10256 20238 30004 40106 81010 333 10332 29076 55103 59008;EQDQ01  00002PRCP06
0167823920999992005041818004-03700-040350FM-12+008399999V0200901N000512200019N0500001N1+03421+02021100831ADDAA106000091GF103991031011004501001001MA1999999099821MD1999999-0191REMSYN070AAXX  18184 82392 32499 30901 10342 20202 39982 40083 83100 333 59019;EQDQ01  00002PRCP06
0198823920999992005041900004-03700-040350FM-12+008399999V0203601N001012200019N0040001N1+02631+02371100961ADDAA106000091GF104991041001008001031001KA1240M+03591MA1999999099941MD1999999-0101REMSYN088AAXX  19004 82392 32596 43602 10263 20237 39994 40096 84030 333 10359 29071 55106 59010;EQDQ01  00002PRCP06
0190823920999992005041912004-03700-040350FM-12+008399999V0200901N001012200019N0500001N1+02841+02421101101ADDAY151061AY221061GF103991031011004501001001KA1240N+02301MA1999999100081MD1999999+0031MW1021REMSYN088AAXX  19124 82392 21499 30902 10284 20242 30008 40110 70252 83100 333 20230 58003 69974;
0153823920999992005041918004-03700-040350FM-12+008399999V0200501N000510450019N0500001N1+03261+02441100691ADDAA106000091GF105991031021004501031001MA1999999099681REMSYN070AAXX  19184 82392 32499 50501 10326 20244 39968 40069 83230 333 50806;EQDQ01  00002PRCP06
0162823920999992005042012004-03700-040350FM-12+008399999V0200901N001012200019N0500001N1+02681+02411101181ADDGF103991031021004501001001KA1240N+02161MA1999999100151MD1999999+0071REMSYN082AAXX  20124 82392 22499 30902 10268 20241 30015 40118 83200 333 20216 58007 69924;
0198823920999992005042100004-03700-040350FM-12+008399999V0209999C000012200019N0040001N1+02581+02381101141ADDAA106000091GF102991021001008001031001KA1240M+03291MA1999999100121MD1999999-0011REMSYN088AAXX  21004 82392 32596 20000 10258 20238 30012 40114 82030 333 10329 29077 55084 59001;EQDQ01  00002PRCP06
0186823920999992005042112004-03700-040350FM-12+008399999V0201401N000510450019N0500001N1+02881+02281101211ADDAA106000091GF106991021021004501031001KA1240N+02401MA1999999100191MD1999999+0041REMSYN076AAXX  21124 82392 32499 61401 10288 20228 30019 40121 82230 333 20240 58004;EQDQ01  00002PRCP06
0198823920999992005042200004-03700-040350FM-12+008399999V0200501N001512200019N0040001N1+02501+02451101021ADDAA106000091GF102991021001008001031001KA1240M+03241MA1999999100001MD1999999-0121REMSYN088AAXX  22004 82392 32596 20503 10250 20245 30000 40102 82030 333 10324 29044 55078 59012;EQDQ01  00002PRCP06
0186823920999992005042212004-03700-040350FM-12+008399999V0203201N001010042019N0500001N1+02701+02371101101ADDAA106000091GF106991051041004501031001KA1240N+02301MA1999999100081MD1999999-0111REMSYN076AAXX  22124 82392 32499 63202 10270 20237 30008 40110 85430 333 20230 59011;EQDQ01  00002PRCP06
0167823920999992005042218004-03700-040350FM-12+008399999V0203601N000510450019N0500001N1+03231+02361100981ADDAA106000091GF107991041061004501031001MA1999999099961MD1999999-0121REMSYN070AAXX  22184 82392 32499 73601 10323 20236 39996 40098 84630 333 59012;EQDQ01  00002PRCP06
0186823920999992005042312004-03700-040350FM-12+008399999V0200901N002612200019N0500001N1+02941+02241101081ADDAA106000091GF101991011011004501001001KA1240N+02281MA1999999100061MD1999999-0021REMSYN076AAXX  23124 82392 32499 10905 10294 20224 30006 40108 81100 333 20228 59002;EQDQ01  00002PRCP06
0167823920999992005042318004-03700-040350FM-12+008399999V0203601N000512200019N0500001N1+03291+02271100631ADDAA106000091GF104991021021004501031001MA1999999099631MD1999999-0031REMSYN070AAXX  23184 82392 32499 43601 10329 20227 39963 40063 82230 333 59003;EQDQ01  00002PRCP06
0186823920999992005042412004-03700-040350FM-12+008399999V0200501N002612200019N0500001N1+02841+02351101211ADDAA106000091GF104991021011004501031001KA1240N+02201MA1999999100191MD1999999+0131REMSYN076AAXX  24124 82392 32499 40505 10284 20235 30019 40121 82130 333 20220 58013;EQDQ01  00002PRCP06
0198823920999992005042500004-03700-040350FM-12+008399999V0200501N003112200019N0040001N1+02601+02331101021ADDAA106000091GF101991011001008001031001KA1240M+03381MA1999999100001MD1999999+0031REMSYN088AAXX  25004 82392 32596 10506 10260 20233 30000 40102 81030 333 10338 29072 55093 58003;EQDQ01  00002PRCP06
0186823920999992005042512004-03700-040350FM-12+008399999V0203601N000512200019N0500001N1+02841+02241101221ADDAA106000091GF102991021011004501001001KA1240N+02201MA1999999100201MD1999999+0011REMSYN076AAXX  25124 82392 32499 23601 10284 20224 30020 40122 82100 333 20220 58001;EQDQ01  00002PRCP06
0167823920999992005042518004-03700-040350FM-12+008399999V0203601N001010450019N0500001N1+03101+02231100821ADDAA106000091GF106991041021004501031001MA1999999099801MD1999999+0001REMSYN070AAXX  25184 82392 32499 63602 10310 20223 39980 40082 84230 333 58000;EQDQ01  00002PRCP06
0186823920999992005042612004-03700-040350FM-12+008399999V0202301N000510042019N0500001N1+02801+02311101221ADDAA106000091GF105991051021004501001001KA1240N+02241MA1999999100261MD1999999+0061REMSYN076AAXX  26124 82392 32499 52301 10280 20231 30026 40122 85200 333 20224 58006;EQDQ01  00002PRCP06
0198823920999992005042700004-03700-040350FM-12+008399999V0203601N001010042019N0040001N1+02661+02271101251ADDAA106000091GF108991051061004501011999KA1240M+03361MA1999999100231MD1999999+0061REMSYN088AAXX  27004 82392 32496 83602 10266 20227 30023 40125 8561/ 333 10336 29072 55091 58006;EQDQ01  00002PRCP06
0186823920999992005042712004-03700-040350FM-12+008399999V0200501N000512200019N0500001N1+02801+02141101301ADDAA106000091GF102991021011004501001001KA1240N+02201MA1999999100281MD1999999+0021REMSYN076AAXX  27124 82392 32499 20501 10280 20214 30028 40130 82100 333 20220 58002;EQDQ01  00002PRCP06
0167823920999992005042718004-03700-040350FM-12+008399999V0203601N001012200019N0500001N1+03361+02111100871ADDAA106000091GF104991041021004501001001MA1999999099861MD1999999+0061REMSYN070AAXX  27184 82392 32499 43602 10336 20211 39986 40087 84200 333 58006;EQDQ01  00002PRCP06
0186823920999992005042812004-03700-040350FM-12+008399999V0200501N000510450019N0500001N1+02901+02411101261ADDAA106000091GF106991041021004501031001KA1240N+02361MA1999999100241MD1999999-0041REMSYN076AAXX  28124 82392 32499 60501 10290 20241 30024 40126 84230 333 20236 59004;EQDQ01  00002PRCP06
0199823920999992005042818004-03700-040350FM-12+008399999V0203601N000510450019N0500001N1+03321+02351100851ADDAA106000091GF106991021091004501011011MA1999999999999MD1999999-0021REMSYN070AAXX  28184 82392 32499 63601 10332 20235 30335 40085 82911 333 59002;EQDQ01+103353APOSP Q02  00002PRCP06Q03 103353APOSP 
0198823920999992005042900004-03700-040350FM-12+008399999V0203601N002112200019N0040001N1+02581+02481101201ADDAA106000091GF103991031001008001031001KA1240M+03421MA1999999100181MD1999999+0041REMSYN088AAXX  29004 82392 32596 33604 10258 20248 30018 40120 83030 333 10342 29080 55067 58004;EQDQ01  00002PRCP06
0186823920999992005042912004-03700-040350FM-12+008399999V0201801N002610042019N0500001N1+02761+02421101371ADDAA106000091GF107991051051004501031001KA1240N+02201MA1999999100351MD1999999+0111REMSYN076AAXX  29124 82392 32499 71805 10276 20242 30035 40137 85530 333 20220 58011;EQDQ01  00002PRCP06
0171823920999992005042918004-03700-040350FM-12+008399999V0202301N000510042019N0500001N1+02481+02391101111ADDAY161061AY261061GF107991051061004501011001MA1999999100081MD1999999+0241MW1021REMSYN082AAXX  29184 82392 21499 72301 10248 20239 30008 40111 70266 85610 333 58024 60121;
0198823920999992005043000004-03700-040350FM-12+008399999V0202301N000510042019N0040001N1+02401+02371101201ADDAA106000091GF106991061051004501001001KA1240M+03041MA1999999100181MD1999999+0181REMSYN088AAXX  30004 82392 32496 62301 10240 20237 30018 40120 86500 333 10304 29093 55031 58018;EQDQ01  00002PRCP06
0190823920999992005043012004-03700-040350FM-12+008399999V0201401N001012200019N0500001N1+02741+02401101431ADDAY161061AY261061GF104991031011004501031001KA1240N+02241MA1999999100411MD1999999+0061MW1021REMSYN088AAXX  30124 82392 21499 41402 10274 20240 30041 40143 70266 83130 333 20224 58006 60154;
0171823920999992005043018004-03700-040350FM-12+008399999V0203201N001010450019N0500001N1+02561+02511101111ADDAY121061AY261061GF106991041041004501031001MA1999999100081MD1999999+0001MW1211REMSYN082AAXX  30184 82392 21499 63202 10256 20251 30008 40111 72126 84430 333 58000 60061;
0162823920999992005050112004-03700-040350FM-12+008399999V0209999C000010042019N0500001N1+02841+02401101351ADDGF106991061021004501001001KA1240N+02281MA1999999100331MD1999999-0081REMSYN082AAXX  01124 82392 22499 60000 10284 20240 30033 40135 86200 333 20228 59008 60064;
0190823920999992005050118004-03700-040350FM-12+008399999V0203601N000519999999N0500001N1+02941+02431101011ADDAY161061AY261061GF106991999091004501051001MA1999999099991MD1999999-0091MW1021REMSYN082AAXX  01184 82392 21499 63601 10294 20243 39999 40101 70266 88950 333 59009 60081;EQDQ01+000082SCOTLC
0198823920999992005050300004-03700-040350FM-12+008399999V0203601N000512200019N0040001N1+02491+02381101331ADDAA106000091GF102991021021004501001001KA1240M+03221MA1999999100311MD1999999+0021REMSYN088AAXX  03004 82392 32496 23601 10249 20238 30031 40133 82200 333 10322 29082 55074 58002;EQDQ01  00002PRCP06
0190823920999992005050312004-03700-040350FM-12+008399999V0202301N001510450019N0500001N1+02541+02361101541ADDAY161061AY221061GF106991041021004501031001KA1240N+02121MA1999999100501MD1999999+0101MW1021REMSYN088AAXX  03124 82392 21499 62303 10254 20236 30050 40154 70262 84230 333 20212 58010 60224;
0171823920999992005050318004-03700-040350FM-12+008399999V0209999C000010042019N0500001N1+02561+02421101121ADDAY101061AY221061GF107991051061004501031001MA1999999100091MD1999999+0091MW1211REMSYN082AAXX  03184 82392 21499 70000 10256 20242 30009 40112 72102 85630 333 58009 60041;
0212823920999992005050400004-03700-040350FM-12+008399999V0209999C000012200019N0040001N1+02461+02411101351ADDAY151061AY251061GA1001+999999999GF100991001001999999001001KA1240M+03141MA1999999100321MD1999999+0011MW1021REMSYN094AAXX  04004 82392 21996 00000 10246 20241 30032 40135 70255 333 10314 29094 55067 58001 69911;
0162823920999992005050412004-03700-040350FM-12+008399999V0200501N001012200019N0500001N1+02741+02401101441ADDGF103991031021004501001001KA1240N+02121MA1999999100421MD1999999-0081REMSYN082AAXX  04124 82392 22499 30502 10274 20240 30042 40144 83200 333 20212 59008 60044;
0167823920999992005050418004-03700-040350FM-12+008399999V0202301N001012200019N0500001N1+02981+02151101081ADDAA106000091GF104991031041004501031001MA1999999100061MD1999999-0031REMSYN070AAXX  04184 82392 32499 42302 10298 20215 30006 40108 83430 333 59003;EQDQ01  00002PRCP06
0212823920999992005050500004-03700-040350FM-12+008399999V0201401N000512200019N0040001N1+02461+02341101381ADDAY161061AY261061GA1001+999999999GF100991001001999999001001KA1240M+03241MA1999999100361MD1999999+0041MW1021REMSYN094AAXX  05004 82392 21996 01401 10246 20234 30036 40138 70266 333 10324 29082 55081 58004 60041;
0190823920999992005050512004-03700-040350FM-12+008399999V0200901N000510042019N0500001N1+02561+02311101521ADDAY101061AY221061GF108991081061004501999999KA1240N+02261MA1999999100481MD1999999+0061MW1611REMSYN088AAXX  05124 82392 21499 80901 10256 20231 30048 40152 76102 886// 333 20226 58006 60054;
0171823920999992005050518004-03700-040350FM-12+008399999V0201801N001010450019N0500001N1+02921+02321101031ADDAY161061AY261061GF106991041061004501031001MA1999999100011MD1999999-0051MW1021REMSYN082AAXX  05184 82392 21499 61802 10292 20232 30001 40103 70266 84630 333 59005 60011;
0198823920999992005050600004-03700-040350FM-12+008399999V0209999C000012200019N0040001N1+02501+02471101331ADDAA106000091GF103991031001008001031001KA1240M+03041MA1999999100301MD1999999-0061REMSYN088AAXX  06004 82392 32596 30000 10250 20247 30030 40133 83030 333 10304 29088 55053 59006;EQDQ01  00002PRCP06
0162823920999992005050612004-03700-040350FM-12+008399999V0201401N001512200019N0500001N1+02681+02311101401ADDGF102991021011004501001001KA1240N+02101MA1999999100381MD1999999-0101REMSYN082AAXX  06124 82392 22499 21403 10268 20231 30038 40140 82100 333 20210 59010 60014;
0167823920999992005050618004-03700-040350FM-12+008399999V0209999C000010042019N0500001N1+03141+02181100921ADDAA106000091GF106991051021004501031001MA1999999099901MD1999999-0111REMSYN070AAXX  06184 82392 32499 60000 10314 20218 39990 40092 85230 333 59011;EQDQ01  00002PRCP06
0198823920999992005050700004-03700-040350FM-12+008399999V0200501N002612200019N0040001N1+02641+02501101181ADDAA106000091GF102991021011008001001001KA1240M+03341MA1999999100161MD1999999-0141REMSYN088AAXX  07004 82392 32596 20505 10264 20250 30016 40118 82100 333 10334 29080 55102 59014;EQDQ01  00002PRCP06
0186823920999992005050712004-03700-040350FM-12+008399999V0201801N000510450019N0500001N1+02701+02281101301ADDAA106000091GF106991021021004501031001KA1240N+02281MA1999999100281MD1999999-0101REMSYN076AAXX  07124 82392 32499 61801 10270 20228 30028 40130 82230 333 20228 59010;EQDQ01  00002PRCP06
0171823920999992005050718004-03700-040350FM-12+008399999V0202301N000510042019N0500001N1+02511+02471100931ADDAY161061AY261061GF106991051061004501031001MA1999999099901MD1999999+0001MW1211REMSYN082AAXX  07184 82392 21499 62301 10251 20247 39990 40093 72166 85630 333 58000 60011;
0179823920999992005050800004-03700-040350FM-12+008399999V0200501N000512200019N0040001N1+02481+02341101211ADDAA106000021GF102991021001008001011001KA1240M+03221MA1999999100191MD1999999+0031REMSYN088AAXX  08004 82392 32596 20501 10248 20234 30019 40121 82010 333 10322 29090 55054 58003;
0162823920999992005050812004-03700-040350FM-12+008399999V0200501N001512200019N0500001N1+02821+02071101271ADDGF103991031021004501001001KA1240N+02301MA1999999100251MD1999999-0031REMSYN082AAXX  08124 82392 22499 30503 10282 20207 30025 40127 83200 333 20230 59003 60014;
0167823920999992005050818004-03700-040350FM-12+008399999V0203601N000512200019N0500001N1+03281+01741100921ADDAA106000091GF103991031021004501001001MA1999999099901MD1999999+0001REMSYN070AAXX  08184 82392 32499 33601 10328 20174 39990 40092 83200 333 58000;EQDQ01  00002PRCP06
0198823920999992005050900004-03700-040350FM-12+008399999V0203601N001012200019N0040001N1+02541+02361101221ADDAA106000091GF102991021001008001031001KA1240M+03321MA1999999100201MD1999999+0011REMSYN088AAXX  09004 82392 32596 23602 10254 20236 30020 40122 82030 333 10332 29071 55106 58001;EQDQ01  00002PRCP06
0186823920999992005050912004-03700-040350FM-12+008399999V0202301N001010450019N0500001N1+02661+02291101321ADDAA106000091GF105991031021004501031001KA1240N+02261MA1999999100301MD1999999+0051REMSYN076AAXX  09124 82392 32499 52302 10266 20229 30030 40132 83230 333 20226 58005;EQDQ01  00002PRCP06
0167823920999992005050918004-03700-040350FM-12+008399999V0201401N001010450019N0500001N1+03081+01981101001ADDAA106000091GF107991041051004501031001MA1999999099981MD1999999+0081REMSYN070AAXX  09184 82392 32499 71402 10308 20198 39998 40100 84530 333 58008;EQDQ01  00002PRCP06
0202823920999992005051000004-03700-040350FM-12+008399999V0203601N000512200019N0040001N1+02541+02341101261ADDAY151061AY251061GF101991011011004501001001KA1240M+03221MA1999999100241MD1999999+0041MW1021REMSYN100AAXX  10004 82392 21496 13601 10254 20234 30024 40126 70255 81100 333 10322 29078 55062 58004 69911;
0167823920999992005051018004-03700-040350FM-12+008399999V0201801N000510042019N0500001N1+03341+01951100851ADDAA106000091GF105991051061004501001001MA1999999099831MD1999999-0151REMSYN070AAXX  10184 82392 32499 51801 10334 20195 39983 40085 85600 333 59015;EQDQ01  00002PRCP06
0208823920999992005051100004-03700-040350FM-12+008399999V0203601N000512200019N0040001N1+02561+02211101101ADDAA106000091GA1001+999999999GF100991001001999999001001KA1240M+03341MA1999999100081MD1999999-0161REMSYN082AAXX  11004 82392 32996 03601 10256 20221 30008 40110 333 10334 29075 55101 59016;EQDQ01  00002PRCP06
0186823920999992005051112004-03700-040350FM-12+008399999V0200501N002612200019N0500001N1+02881+02231101241ADDAA106000091GF102991021011004501001001KA1240N+02201MA1999999100221MD1999999-0041REMSYN076AAXX  11124 82392 32499 20505 10288 20223 30022 40124 82100 333 20220 59004;EQDQ01  00002PRCP06
0167823920999992005051118004-03700-040350FM-12+008399999V0201401N003112200019N0500001N1+03401+01641100841ADDAA106000091GF103991031011004501001001MA1999999099831MD1999999+0001REMSYN070AAXX  11184 82392 32499 31406 10340 20164 39983 40084 83100 333 58000;EQDQ01  00002PRCP06
0198823920999992005051200004-03700-040350FM-12+008399999V0203601N000512200019N0040001N1+02581+02311101131ADDAA106000091GF103991031021004501001001KA1240M+03381MA1999999100111MD1999999+0031REMSYN088AAXX  12004 82392 32496 33601 10258 20231 30011 40113 83200 333 10338 29069 55102 58003;EQDQ01  00002PRCP06
0190823920999992005051212004-03700-040350FM-12+008399999V0202301N000510042019N0500001N1+02481+02291101281ADDAY161061AY261061GF108991081051004501999999KA1240N+02261MA1999999100251MD1999999+0031MW1021REMSYN088AAXX  12124 82392 21499 82301 10248 20229 30025 40128 70266 885// 333 20226 58003 60054;
0198823920999992005051300004-03700-040350FM-12+008399999V0209999C000012200019N0040001N1+02441+02431101161ADDAA106000091GF104991021011004501031001KA1240M+02801MA1999999100131MD1999999+0021REMSYN088AAXX  13004 82392 32496 40000 10244 20243 30013 40116 82130 333 10280 29091 55007 58002;EQDQ01  00002PRCP06
0190823920999992005051312004-03700-040350FM-12+008399999V0201401N001012200019N0500001N1+02761+02281101221ADDAY151061AY261061GF102991021011004501001001KA1240N+02101MA1999999100201MD1999999-0051MW1021REMSYN088AAXX  13124 82392 21499 21402 10276 20228 30020 40122 70256 82100 333 20210 59005 60034;
0202823920999992005051400004-03700-040350FM-12+008399999V0203201N000510450019N0040001N1+02481+02451101101ADDAY161061AY251061GF107991041051004501031001KA1240M+03041MA1999999100081MD1999999-0051MW1021REMSYN100AAXX  14004 82392 21496 73201 10248 20245 30008 40110 70265 84530 333 10304 29090 55056 59005 69921;
0162823920999992005051412004-03700-040350FM-12+008399999V0200901N001012200019N0500001N1+02761+02341101101ADDGF104991041021004501001001KA1240N+02181MA1999999100081MD1999999-0121REMSYN082AAXX  14124 82392 22499 40902 10276 20234 30008 40110 84200 333 20218 59012 60124;
0208823920999992005051500004-03700-040350FM-12+008399999V0200501N001012200019N0040001N1+02501+02431100971ADDAA106000091GA1001+999999999GF100991001001999999001001KA1240M+03221MA1999999099951MD1999999-0131REMSYN082AAXX  15004 82392 32996 00502 10250 20243 39995 40097 333 10322 29080 55105 59013;EQDQ01  00002PRCP06
0186823920999992005051512004-03700-040350FM-12+008399999V0200901N000510042019N0500001N1+02761+02231101011ADDAA106000091GF106991061021004501001001KA1240N+02201MA1999999099991MD1999999-0091REMSYN076AAXX  15124 82392 32499 60901 10276 20223 39999 40101 86200 333 20220 59009;EQDQ01  00002PRCP06
0183823920999992005051518004-03700-040350FM-12+008399999V0200901N000519999999N0500001N1+03041+02161100691ADDAA106000091GF105991999021004501001001MA1999999099671MD1999999-0071REMSYN070AAXX  15184 82392 32499 50901 10304 20216 39967 40069 83200 333 59007;EQDQ01+000032SCOTLCQ02  00002PRCP06
0184823920999992005051600004-03700-040350FM-12+008399999V0200901N000512200019N0040001N1+02521+02211100951ADDAA106000091GF101991011021008001001001KA1240M+03221MA1999999099931REMSYN088AAXX  16004 82392 32596 10901 10252 20221 39993 40095 81200 333 10322 29074 55104 59902;EQDQ01  00002PRCP06
0186823920999992005051612004-03700-040350FM-12+008399999V0201401N002110450019N0500001N1+02761+02481101101ADDAA106000091GF106991041051004501031001KA1240N+02201MA1999999100081MD1999999+0091REMSYN076AAXX  16124 82392 32499 61404 10276 20248 30008 40110 84530 333 20220 58009;EQDQ01  00002PRCP06
0167823920999992005051618004-03700-040350FM-12+008399999V0200501N002610450019N0500001N1+02781+02381100741ADDAA106000091GF107991041041004501031001MA1999999099721MD1999999+0051REMSYN070AAXX  16184 82392 32499 70505 10278 20238 39972 40074 84430 333 58005;EQDQ01  00002PRCP06
0202823920999992005051700004-03700-040350FM-12+008399999V0201801N000512200019N0040001N1+02461+02411100971ADDAY161061AY261061GF102991011011004501031001KA1240M+03181MA1999999099951MD1999999+0021MW1021REMSYN100AAXX  17004 82392 21496 21801 10246 20241 39995 40097 70266 81130 333 10318 29087 55051 58002 60041;
0162823920999992005051712004-03700-040350FM-12+008399999V0201801N001510450019N0500001N1+02681+02351101021ADDGF106991041041004501031001KA1240N+02261MA1999999100001MD1999999-0081REMSYN082AAXX  17124 82392 22499 61803 10268 20235 30000 40102 84430 333 20226 59008 60044;
0167823920999992005051718004-03700-040350FM-12+008399999V0209999C000010450019N0500001N1+03191+02381100621ADDAA106000091GF106991041061004501031001MA1999999099611MD1999999-0111REMSYN070AAXX  17184 82392 32499 60000 10319 20238 39961 40062 84630 333 59011;EQDQ01  00002PRCP06
0198823920999992005051800004-03700-040350FM-12+008399999V0209999C000012200019N0040001N1+02561+02361100881ADDAA106000091GF102991021001008001031001KA1240M+03261MA1999999099861MD1999999-0091REMSYN088AAXX  18004 82392 32596 20000 10256 20236 39986 40088 82030 333 10326 29081 55066 59009;EQDQ01  00002PRCP06
0190823920999992005051812004-03700-040350FM-12+008399999V0201801N001010450019N0500001N1+02561+02421101061ADDAY161061AY221061GF108991041071004501021999KA1240N+02301MA1999999100041MD1999999+0041MW1021REMSYN088AAXX  18124 82392 21499 81802 10256 20242 30004 40106 70262 8472/ 333 20230 58004 60024;
0171823920999992005051818004-03700-040350FM-12+008399999V0202301N000510450019N0500001N1+02861+02481100611ADDAY161061AY221061GF108991041061004501021999MA1999999099601MD1999999-0011MW1021REMSYN082AAXX  18184 82392 21499 82301 10286 20248 39960 40061 70262 8462/ 333 59001 60021;
0202823920999992005051900004-03700-040350FM-12+008399999V0209999C000012200019N0040001N1+02381+02351100941ADDAY161061AY261061GF103991031001004501031001KA1240M+03081MA1999999099911MD1999999+0051MW1021REMSYN100AAXX  19004 82392 21496 30000 10238 20235 39991 40094 70266 83030 333 10308 29092 55021 58005 60061;
0162823920999992005051912004-03700-040350FM-12+008399999V0201801N000510450019N0500001N1+02711+02371100971ADDGF105991041021004501031001KA1240N+02241MA1999999099951MD1999999-0091REMSYN082AAXX  19124 82392 22499 51801 10271 20237 39995 40097 84230 333 20224 59009 60084;
0167823920999992005051918004-03700-040350FM-12+008399999V0201801N000510450019N0500001N1+03261+02301100611ADDAA106000091GF106991031061004501031001MA1999999099601MD1999999+0001REMSYN070AAXX  19184 82392 32499 61801 10326 20230 39960 40061 83630 333 58000;EQDQ01  00002PRCP06
0186823920999992005052012004-03700-040350FM-12+008399999V0209999C000010450019N0500001N1+02661+02461101201ADDAA106000091GF106991041021004501031001KA1240N+02201MA1999999100181MD1999999+0231REMSYN076AAXX  20124 82392 32499 60000 10266 20246 30018 40120 84230 333 20220 58023;EQDQ01  00002PRCP06
0167823920999992005052018004-03700-040350FM-12+008399999V0200501N000510450019N0500001N1+03041+02261100761ADDAA106000091GF108991031051004501011999MA1999999099741MD1999999+0141REMSYN070AAXX  20184 82392 32499 80501 10304 20226 39974 40076 8351/ 333 58014;EQDQ01  00002PRCP06
0198823920999992005052100004-03700-040350FM-12+008399999V0200501N000510450019N0040001N1+02461+02281101141ADDAA106000091GF105991031041004501031001KA1240M+03141MA1999999100121MD1999999+0081REMSYN088AAXX  21004 82392 32496 50501 10246 20228 30012 40114 83430 333 10314 29083 55022 58008;EQDQ01  00002PRCP06
0186823920999992005052112004-03700-040350FM-12+008399999V0201801N000510450019N0500001N1+02761+02321101261ADDAA106000091GF106991021011004501011011KA1240N+02201MA1999999100241MD1999999+0061REMSYN076AAXX  21124 82392 32499 61801 10276 20232 30024 40126 82111 333 20220 58006;EQDQ01  00002PRCP06
0171823920999992005052118004-03700-040350FM-12+008399999V0200901N001010450019N0500001N1+03131+02181100791ADDAY161061AY261061GF106991031051004501011011MA1999999099771MD1999999+0031MW1021REMSYN082AAXX  21184 82392 21499 60902 10313 20218 39977 40079 70266 83511 333 58003 69921;
0214823920999992005052200004-03700-040350FM-12+008399999V0209999C000010450019N0040001N1+02461+02351101161ADDAA106000091GF108991041051004501011999KA1240M+99999MA1999999100141MD1999999+0021REMSYN088AAXX  22004 82392 32496 80000 10246 20235 30014 40116 8451/ 333 10226 29081 55067 58002;EQDQ01  00002PRCP06Q02 +02262ATMX  
0162823920999992005052212004-03700-040350FM-12+008399999V0200901N001012200019N0500001N1+02781+02231101251ADDGF103991031011004501001001KA1240N+02201MA1999999100231MD1999999-0011REMSYN082AAXX  22124 82392 22499 30902 10278 20223 30023 40125 83100 333 20220 59001 69924;
0171823920999992005052218004-03700-040350FM-12+008399999V0203201N000510450019N0500001N1+02521+02491100951ADDAY121061AY261061GF108991031061004501021999MA1999999099921MD1999999+0151MW1021REMSYN082AAXX  22184 82392 21499 83201 10252 20249 39992 40095 70226 8362/ 333 58015 60051;
0198823920999992005052300004-03700-040350FM-12+008399999V0203601N001012200019N0040001N1+02481+02431101221ADDAA106000091GF104991021011004501031001KA1240M+03281MA1999999100201MD1999999+0061REMSYN088AAXX  23004 82392 32496 43602 10248 20243 30020 40122 82130 333 10328 29091 55056 58006;EQDQ01  00002PRCP06
0162823920999992005052312004-03700-040350FM-12+008399999V0200901N001510450019N0500001N1+02761+02381101301ADDGF106991041041004501031001KA1240N+02101MA1999999100281MD1999999+0051REMSYN082AAXX  23124 82392 22499 60903 10276 20238 30028 40130 84430 333 20210 58005 60054;
0171823920999992005052318004-03700-040350FM-12+008399999V0203601N001010450019N0500001N1+02361+02331101131ADDAY161061AY261061GF108991041071004501021999MA1999999100101MD1999999+0181MW1021REMSYN082AAXX  23184 82392 21499 83602 10236 20233 30010 40113 70266 8472/ 333 58018 60021;
0198823920999992005052400004-03700-040350FM-12+008399999V0209999C000010450019N0040001N1+02341+02151101151ADDAA106000091GF108991031061004501011001KA1240M+03881MA1999999100131MD1999999-0071REMSYN088AAXX  24004 82392 32496 80000 10234 20215 30013 40115 83610 333 10388 29089 55027 59007;EQDQ01  00002PRCP06
0162823920999992005052412004-03700-040350FM-12+008399999V0201401N001010450019N0500001N1+02541+02361101281ADDGF105991031011004501031001KA1240N+02181MA1999999100251MD1999999-0031REMSYN082AAXX  24124 82392 22499 51402 10254 20236 30025 40128 83130 333 20218 59003 60024;
0171823920999992005052418004-03700-040350FM-12+008399999V0203601N000510450019N0500001N1+02761+02441100891ADDAY161061AY261061GF106991041061004501031001MA1999999099861MD1999999-0241MW1211REMSYN082AAXX  24184 82392 21499 63601 10276 20244 39986 40089 72166 84630 333 59024 69991;
0179823920999992005052500004-03700-040350FM-12+008399999V0209999C000012200019N0040001N1+02381+02291101221ADDAA106000021GF103991031001008001011001KA1240M+02901MA1999999100191MD1999999+0061REMSYN088AAXX  25004 82392 32596 30000 10238 20229 30019 40122 83010 333 10290 29091 55044 58006;
0162823920999992005052512004-03700-040350FM-12+008399999V0201401N001010450019N0500001N1+02761+02281101371ADDGF106991041041004501031001KA1240N+02141MA1999999100351MD1999999+0101REMSYN082AAXX  25124 82392 22499 61402 10276 20228 30035 40137 84430 333 20214 58010 69994;
0199823920999992005052518004-03700-040350FM-12+008399999V0203201N002610450019N0500001N1+03101+02121101021ADDAA106000091GF106991041051004501031001MA1999999100011MD1999999+0141REMSYN070AAXX  25184 82392 32499 63205 10310 20212 33000 40102 84530 333 58014;EQDQ01+030001APOSP Q02+999990APOSP Q03  00002PRCP06
0202823920999992005052600004-03700-040350FM-12+008399999V0200901N000512200019N0040001N1+02391+02281101291ADDAY161061AY261061GF102991021001008001011001KA1240M+03231MA1999999100271MD1999999+0081MW1021REMSYN100AAXX  26004 82392 21596 20901 10239 20228 30027 40129 70266 82010 333 10323 29079 55080 58008 60051;
0162823920999992005052612004-03700-040350FM-12+008399999V0209999C000012200019N0500001N1+02701+02411101501ADDGF104991021021004501031001KA1240N+02191MA1999999100471MD1999999+0121REMSYN082AAXX  26124 82392 22499 40000 10270 20241 30047 40150 82230 333 20219 58012 60054;
0167823920999992005052618004-03700-040350FM-12+008399999V0201401N000510450019N0500001N1+03181+02071101161ADDAA106000091GF105991031021004501031001MA1999999100141MD1999999+0141REMSYN070AAXX  26184 82392 32499 51401 10318 20207 30014 40116 83230 333 58014;EQDQ01  00002PRCP06
0208823920999992005052700004-03700-040350FM-12+008399999V0203601N001012200019N0040001N1+02501+02411101441ADDAA106000091GA1001+999999999GF100991001001999999001001KA1240M+03301MA1999999100421MD1999999+0151REMSYN082AAXX  27004 82392 32996 03602 10250 20241 30042 40144 333 10330 29082 55080 58015;EQDQ01  00002PRCP06
0186823920999992005052712004-03700-040350FM-12+008399999V0201401N002112200019N0500001N1+02761+02281101421ADDAA106000091GF103991031011004501001001KA1240N+02121MA1999999100401MD1999999-0071REMSYN076AAXX  27124 82392 32499 31404 10276 20228 30040 40142 83100 333 20212 59007;EQDQ01  00002PRCP06
0167823920999992005052718004-03700-040350FM-12+008399999V0201401N000512200019N0500001N1+03341+02151100971ADDAA106000091GF104991021021004501031001MA1999999099951MD1999999-0191REMSYN070AAXX  27184 82392 32499 41401 10334 20215 39995 40097 82230 333 59019;EQDQ01  00002PRCP06
0208823920999992005052800004-03700-040350FM-12+008399999V0203601N002612200019N0040001N1+02501+02431101321ADDAA106000091GA1001+999999999GF100991001001999999001001KA1240M+03361MA1999999100301MD1999999-0121REMSYN082AAXX  28004 82392 32996 03605 10250 20243 30030 40132 333 10336 29079 55095 59012;EQDQ01  00002PRCP06
0186823920999992005052812004-03700-040350FM-12+008399999V0200901N001012200019N0500001N1+02821+02101101371ADDAA106000091GF104991041021004501001001KA1240N+02201MA1999999100351MD1999999-0051REMSYN076AAXX  28124 82392 32499 40902 10282 20210 30035 40137 84200 333 20220 59005;EQDQ01  00002PRCP06
0167823920999992005052818004-03700-040350FM-12+008399999V0200501N003612200019N0500001N1+03281+01741100981ADDAA106000091GF104991041021004501001001MA1999999099961MD1999999+0011REMSYN070AAXX  28184 82392 32499 40507 10328 20174 39996 40098 84200 333 58001;EQDQ01  00002PRCP06
0208823920999992005052900004-03700-040350FM-12+008399999V0200501N002612200019N0040001N1+02441+02231101161ADDAA106000091GA1001+999999999GF100991001001999999001001KA1240M+03341MA1999999100141MD1999999-0161REMSYN082AAXX  29004 82392 32996 00505 10244 20223 30014 40116 333 10334 29070 55084 59016;EQDQ01  00002PRCP06
0186823920999992005052912004-03700-040350FM-12+008399999V0200901N000512200019N0500001N1+02861+02191101311ADDAA106000091GF104991021021004501031001KA1240N+02291MA1999999100291MD1999999-0061REMSYN076AAXX  29124 82392 32499 40901 10286 20219 30029 40131 82230 333 20229 59006;EQDQ01  00002PRCP06
0167823920999992005052918004-03700-040350FM-12+008399999V0200901N001012200019N0500001N1+03231+01821100921ADDAA106000091GF103991011011004501011001MA1999999099901MD1999999-0061REMSYN070AAXX  29184 82392 32499 30902 10323 20182 39990 40092 81110 333 59006;EQDQ01  00002PRCP06
0198823920999992005053000004-03700-040350FM-12+008399999V0203601N000510450019N0040001N1+02581+02171101281ADDAA106000091GF106991031021004501031001KA1240M+03261MA1999999100261MD1999999+0121REMSYN088AAXX  30004 82392 32496 63601 10258 20217 30026 40128 83230 333 10326 29067 55066 58012;EQDQ01  00002PRCP06
0186823920999992005053012004-03700-040350FM-12+008399999V0200501N004112200019N0500001N1+02701+02131101381ADDAA106000091GF102991021011004501001001KA1240N+02101MA1999999100361MD1999999+0071REMSYN076AAXX  30124 82392 32499 20508 10270 20213 30036 40138 82100 333 20210 58007;EQDQ01  00002PRCP06
0171823920999992005053018004-03700-040350FM-12+008399999V0200901N001010450019N0500001N1+02881+02161101101ADDAY161061AY261061GF108991031071004501021999MA1999999100081MD1999999+0181MW1021REMSYN082AAXX  30184 82392 21499 80902 10288 20216 30008 40110 70266 8372/ 333 58018 60041;
0198823920999992005053100004-03700-040350FM-12+008399999V0203601N000510450019N0040001N1+02491+02281101281ADDAA106000091GF106991031021004501031001KA1240M+02941MA1999999100261MD1999999+0001REMSYN088AAXX  31004 82392 32496 63601 10249 20228 30026 40128 83230 333 10294 29080 55053 58000;EQDQ01  00002PRCP06
0190823920999992005053112004-03700-040350FM-12+008399999V0201401N002610450019N0500001N1+02861+02311101331ADDAY161061AY261061GF107991041041004501031001KA1240N+02101MA1999999100311MD1999999-0051MW1021REMSYN088AAXX  31124 82392 21499 71405 10286 20231 30031 40133 70266 84430 333 20210 59005 60074;
0167823920999992005053118004-03700-040350FM-12+008399999V0201801N000510450019N0500001N1+02901+02271101011ADDAA106000091GF107991041061004501031001MA1999999099981MD1999999-0101REMSYN070AAXX  31184 82392 32499 71801 10290 20227 39998 40101 84630 333 59010;EQDQ01  00002PRCP06
0208823920999992005060100004-03700-040350FM-12+008399999V0209999C000012200019N0040001N1+02421+02281101281ADDAA106000091GA1001+999999999GF100991001001999999001001KA1240M+03081MA1999999100261MD1999999+0001REMSYN082AAXX  01004 82392 32996 00000 10242 20228 30026 40128 333 10308 29081 55053 58000;EQDQ01  00002PRCP06
0190823920999992005060112004-03700-040350FM-12+008399999V0201401N002112200019N0500001N1+02721+02281101351ADDAY121061AY251061GF104991041021004501001001KA1240N+02161MA1999999100331MD1999999+0021MW1021REMSYN088AAXX  01124 82392 21499 41404 10272 20228 30033 40135 70225 84200 333 20216 58002 69964;
0202823920999992005060200004-03700-040350FM-12+008399999V0200901N000510450019N0040001N1+02601+02291101231ADDAY161061AY261061GF108991041061004501031999KA1240M+03201MA1999999100211MD1999999-0051MW1021REMSYN100AAXX  02004 82392 21496 80901 10260 20229 30021 40123 70266 8463/ 333 10320 29081 55063 59005 60011;
0190823920999992005060212004-03700-040350FM-12+008399999V0201801N000510450019N0500001N1+02701+02281101331ADDAY161061AY261061GF105991031041004501031001KA1240N+02301MA1999999100311MD1999999-0021MW1021REMSYN088AAXX  02124 82392 21499 51801 10270 20228 30031 40133 70266 83430 333 20230 59002 60024;
0202823920999992005060300004-03700-040350FM-12+008399999V0209999C000012200019N0040001N1+02401+02371101221ADDAY161061AY221061GF102991021001008001031001KA1240M+03261MA1999999100201MD1999999-0011MW1031REMSYN100AAXX  03004 82392 21596 20000 10240 20237 30020 40122 70362 82030 333 10326 29091 55066 59001 60011;
0162823920999992005060312004-03700-040350FM-12+008399999V0203201N000510450019N0500001N1+02561+02291101291ADDGF106991041041004501031001KA1240N+02201MA1999999100261MD1999999-0051REMSYN082AAXX  03124 82392 22499 63201 10256 20229 30026 40129 84430 333 20220 59005 60014;
0208823920999992005060400004-03700-040350FM-12+008399999V0201401N001512200019N0040001N1+02481+02271101291ADDAA106000091GA1001+999999999GF100991001001999999001001KA1240M+03141MA1999999100261MD1999999+0061REMSYN082AAXX  04004 82392 32996 01403 10248 20227 30026 40129 333 10314 29087 55052 58006;EQDQ01  00002PRCP06
0190823920999992005060412004-03700-040350FM-12+008399999V0201401N000512200019N0100001N1+02821+02171101291ADDAY151061AY221061GF104991041021008001001001KA1240N+02141MA1999999100271MD1999999+0011MW1021REMSYN088AAXX  04124 82392 21597 41401 10282 20217 30027 40129 70252 84200 333 20214 58001 69944;
0198823920999992005060500004-03700-040350FM-12+008399999V0209999C000010450019N0040001N1+02641+02071101251ADDAA106000091GF105991021021004501031001KA1240M+03301MA1999999100231MD1999999-0031REMSYN088AAXX  05004 82392 32496 50000 10264 20207 30023 40125 82230 333 10330 29070 55072 59003;EQDQ01  00002PRCP06
0207823920999992005060512004-03700-040350FM-12+008399999V0200901N001010450019N0500001N1+02621+02251101381ADDAA124000591AY161061AY221061GF106991041051004501031001KA1240N+02301MA1999999100351MD1999999+0081MW1021REMSYN094AAXX  05124 82392 21499 60902 10262 20225 30035 40138 70262 84530 333 20230 58008 69954 10005;
0184823920999992005060612004-03700-040350FM-12+008399999V0202301N001012200019N0500001N1+02621+02251101241ADDAY121061AY261061GF103991031021004501001001KA1240N+02221MA1999999100221MD1999999-0131MW1021REMSYN082AAXX  06124 82392 21499 32302 10262 20225 30022 40124 70226 83200 333 20222 59013;
0198823920999992005060700004-03700-040350FM-12+008399999V0200501N001012200019N0040001N1+02461+02371101201ADDAA106000091GF102991021011008001001001KA1240M+03141MA1999999100171MD1999999-0051REMSYN088AAXX  07004 82392 32596 20502 10246 20237 30017 40120 82100 333 10314 29090 55044 59005;EQDQ01  00002PRCP06
0186823920999992005060712004-03700-040350FM-12+008399999V0200901N000510450019N0500001N1+02701+02111101221ADDAA106000091GF106991041051004501031001KA1240N+02201MA1999999100201MD1999999-0021REMSYN076AAXX  07124 82392 32499 60901 10270 20211 30020 40122 84530 333 20220 59002;EQDQ01  00002PRCP06
0198823920999992005060800004-03700-040350FM-12+008399999V0209999C000012200019N0040001N1+02501+02211101161ADDAA106000091GF103991031001008001031001KA1240M+03121MA1999999100141MD1999999-0051REMSYN088AAXX  08004 82392 32596 30000 10250 20221 30014 40116 83030 333 10312 29079 55044 59005;EQDQ01  00002PRCP06
0198823920999992005061000004-03700-040350FM-12+008399999V0209999C000010450019N0040001N1+02521+02231101391ADDAA106000091GF106991021021004501031001KA1240M+03241MA1999999100371MD1999999+0101REMSYN088AAXX  10004 82392 32496 60000 10252 20223 30037 40139 82230 333 10324 29083 55061 58010;EQDQ01  00002PRCP06
0186823920999992005061012004-03700-040350FM-12+008399999V0201401N000510042019N0500001N1+02741+02261101381ADDAA106000091GF106991061021004501001001KA1240N+02221MA1999999100361MD1999999-0061REMSYN076AAXX  10124 82392 32499 61401 10274 20226 30036 40138 86200 333 20222 59006;EQDQ01  00002PRCP06
0208823920999992005061100004-03700-040350FM-12+008399999V0200901N000512200019N0040001N1+02441+02071101281ADDAA106000091GA1001+999999999GF100991001001999999001001KA1240M+03331MA1999999100261MD1999999-0111REMSYN082AAXX  11004 82392 32996 00901 10244 20207 30026 40128 333 10333 29078 55091 59011;EQDQ01  00002PRCP06
0186823920999992005061112004-03700-040350FM-12+008399999V0200901N001010450019N0500001N1+02701+02221101301ADDAA106000091GF106991041021004501031001KA1240N+02081MA1999999100281MD1999999-0081REMSYN076AAXX  11124 82392 32499 60902 10270 20222 30028 40130 84230 333 20208 59008;EQDQ01  00002PRCP06
0198823920999992005061200004-03700-040350FM-12+008399999V0209999C000012200019N0040001N1+02541+02111101261ADDAA106000091GF103991021021004501031001KA1240M+03341MA1999999100341MD1999999-0021REMSYN088AAXX  12004 82392 32496 30000 10254 20211 30034 40126 82230 333 10334 29076 55082 59002;EQDQ01  00002PRCP06
0186823920999992005061212004-03700-040350FM-12+008399999V0200901N001010450019N0500001N1+02861+02111101341ADDAA106000091GF105991031021004501031001KA1240N+02181MA1999999100321MD1999999+0041REMSYN076AAXX  12124 82392 32499 50902 10286 20211 30032 40134 83230 333 20218 58004;EQDQ01  00002PRCP06
0202823920999992005061300004-03700-040350FM-12+008399999V0200501N000510450019N0040001N1+02461+02171101251ADDAY161061AY261061GF107991041041004501031001KA1240M+03161MA1999999100231MD1999999-0011MW1021REMSYN100AAXX  13004 82392 21496 70501 10246 20217 30023 40125 70266 84430 333 10316 29077 55037 59001 69961;
0190823920999992005061312004-03700-040350FM-12+008399999V0200901N000510450019N0500001N1+02741+02211101341ADDAY151061AY251061GF106991031021004501031001KA1240N+02261MA1999999100321MD1999999+0001MW1021REMSYN088AAXX  13124 82392 21499 60901 10274 20221 30032 40134 70255 83230 333 20226 58000 69974;
0198823920999992005061400004-03700-040350FM-12+008399999V0209999C000012200019N0040001N1+02461+01971101181ADDAA106000091GF101991011001008001031001KA1240M+03401MA1999999100161MD1999999-0071REMSYN088AAXX  14004 82392 32596 10000 10246 20197 30016 40118 81030 333 10340 29074 55076 59007;EQDQ01  00002PRCP06
0190823920999992005061412004-03700-040350FM-12+008399999V0209999C000010450019N0500001N1+02571+02371101461ADDAY161061AY261061GF106991031021004501031001KA1240N+02141MA1999999100431MD1999999+0111MW1021REMSYN088AAXX  14124 82392 21499 60000 10257 20237 30043 40146 70266 83230 333 20214 58011 60034;
0208823920999992005061600004-03700-040350FM-12+008399999V0200501N000512200019N0040001N1+02461+02011101261ADDAA106000091GA1001+999999999GF100991001001999999001001KA1240M+03461MA1999999100241MD1999999-0241REMSYN082AAXX  16004 82392 32996 00501 10246 20201 30024 40126 333 10346 29076 55096 59024;EQDQ01  00002PRCP06
0198823920999992005061700004-03700-040350FM-12+008399999V0203601N001012200019N0040001N1+02561+02111101281ADDAA106000091GF102991021001008001031001KA1240M+03481MA1999999100261MD1999999+0021REMSYN088AAXX  17004 82392 32596 23602 10256 20211 30026 40128 82030 333 10348 29078 55097 58002;EQDQ01  00002PRCP06
0186823920999992005061712004-03700-040350FM-12+008399999V0201801N000510450019N0500001N1+02791+02311101441ADDAA106000091GF106991041021004501031001KA1240N+02121MA1999999100421MD1999999+0001REMSYN076AAXX  17124 82392 32499 61801 10279 20231 30042 40144 84230 333 20212 58000;EQDQ01  00002PRCP06
0198823920999992005061800004-03700-040350FM-12+008399999V0203601N000512200019N0040001N1+02631+02331101301ADDAA106000091GF102991021001008001031001KA1240M+03491MA1999999100281MD1999999+0021REMSYN088AAXX  18004 82392 32596 23601 10263 20233 30028 40130 82030 333 10349 29080 55079 58002;EQDQ01  00002PRCP06
0186823920999992005061812004-03700-040350FM-12+008399999V0203601N000510042019N0500001N1+02811+02121101481ADDAA106000091GF107991051021004501031001KA1240N+02261MA1999999100451MD1999999+0031REMSYN076AAXX  18124 82392 32499 73601 10281 20212 30045 40148 85230 333 20226 58003;EQDQ01  00002PRCP06
0198823920999992005061900004-03700-040350FM-12+008399999V0203601N000510450019N0040001N1+02511+02131101381ADDAA106000091GF106991021021004501031001KA1240M+03191MA1999999100361MD1999999+0081REMSYN088AAXX  19004 82392 32496 63601 10251 20213 30036 40138 82230 333 10319 29075 55052 58008;EQDQ01  00002PRCP06
0186823920999992005061912004-03700-040350FM-12+008399999V0200501N001010450019N0500001N1+02881+02231101401ADDAA106000091GF106991041021004501031001KA1240N+02121MA1999999100381MD1999999-0071REMSYN076AAXX  19124 82392 32499 60502 10288 20223 30038 40140 84230 333 20212 59007;EQDQ01  00002PRCP06
0198823920999992005062000004-03700-040350FM-12+008399999V0200301N000512200019N0040001N1+02521+02151101341ADDAA106000091GF101991011001008001031001KA1240M+03491MA1999999100321MD1999999-0041REMSYN088AAXX  20004 82392 32596 10301 10252 20215 30032 40134 81030 333 10349 29076 55090 59004;EQDQ01  00002PRCP06
0186823920999992005062012004-03700-040350FM-12+008399999V0201401N000512200019N0500001N1+02761+02191101421ADDAA106000091GF104991031021004501031001KA1240N+02011MA1999999100401MD1999999+0021REMSYN076AAXX  20124 82392 32499 41401 10276 20219 30040 40142 83230 333 20201 58002;EQDQ01  00002PRCP06
0208823920999992005062100004-03700-040350FM-12+008399999V0203601N000512200019N0040001N1+02531+02211101361ADDAA106000091GA1001+999999999GF100991001001999999001001KA1240M+03491MA1999999100341MD1999999+0021REMSYN082AAXX  21004 82392 32996 03601 10253 20221 30034 40136 333 10349 29078 55088 58002;EQDQ01  00002PRCP06
0186823920999992005062112004-03700-040350FM-12+008399999V0200901N001010450019N0500001N1+02801+02181101291ADDAA106000091GF105991031021004501031001KA1240N+02141MA1999999100371MD1999999-0031REMSYN076AAXX  21124 82392 32499 50902 10280 20218 30037 40129 83230 333 20214 59003;EQDQ01  00002PRCP06
0186823920999992005062212004-03700-040350FM-12+008399999V0200901N000512200019N0500001N1+02921+02011101481ADDAA106000091GF102991011011004501011001KA1240N+01981MA1999999100451MD1999999+0081REMSYN076AAXX  22124 82392 32499 20901 10292 20201 30045 40148 81110 333 20198 58008;EQDQ01  00002PRCP06
0198823920999992005062300004-03700-040350FM-12+008399999V0203601N000512200019N0040001N1+02441+01741101301ADDAA106000091GF102991021001004501031001KA1240M+03491MA1999999100281MD1999999+0031REMSYN088AAXX  23004 82392 32496 23601 10244 20174 30028 40130 82030 333 10349 29063 55098 58003;EQDQ01  00002PRCP06
0186823920999992005062312004-03700-040350FM-12+008399999V0201801N000510450019N0500001N1+02771+02161101491ADDAA106000091GF105991031021004501031001KA1240N+02061MA1999999100461MD1999999+0011REMSYN076AAXX  23124 82392 32499 51801 10277 20216 30046 40149 83230 333 20206 58001;EQDQ01  00002PRCP06
0184823920999992005062412004-03700-040350FM-12+008399999V0200501N000510042019N0500001N1+02441+02251101611ADDAY151061AY251061GF108991051051004501011999KA1240N+02261MA1999999100571MD1999999+0111MW1021REMSYN082AAXX  24124 82392 21499 80501 10244 20225 30057 40161 70255 8551/ 333 20226 58011;
0208823920999992005062500004-03700-040350FM-12+008399999V0209999C000012200019N0040001N1+02521+02151101311ADDAA106000091GA1001+999999999GF100991001001999999001001KA1240M+03381MA1999999100281MD1999999-0031REMSYN082AAXX  25004 82392 32996 00000 10252 20215 30028 40131 333 10338 29083 55057 59003;EQDQ01  00002PRCP06
0186823920999992005062512004-03700-040350FM-12+008399999V0201801N000510450019N0500001N1+02701+02081101401ADDAA106000091GF106991041021004501031001KA1240N+02141MA1999999100381MD1999999-0191REMSYN076AAXX  25124 82392 32499 61801 10270 20208 30038 40140 84230 333 20214 59019;EQDQ01  00002PRCP06
0198823920999992005062600004-03700-040350FM-12+008399999V0203601N001012200019N0040001N1+02441+02151101321ADDAA106000091GF101991011001008001011001KA1240M+03381MA1999999100301MD1999999+0021REMSYN088AAXX  26004 82392 32596 13602 10244 20215 30030 40132 81010 333 10338 29079 55048 58002;EQDQ01  00002PRCP06
0186823920999992005062612004-03700-040350FM-12+008399999V0200501N002612200019N0500001N1+02861+01971101431ADDAA106000091GF103991021011004501001011KA1240N+02041MA1999999100411MD1999999+0031REMSYN076AAXX  26124 82392 32499 30505 10286 20197 30041 40143 82101 333 20204 58003;EQDQ01  00002PRCP06
0198823920999992005062700004-03700-040350FM-12+008399999V0203601N000512200019N0040001N1+02541+02151101281ADDAA106000091GF101991011001008001031001KA1240M+03441MA1999999100261MD1999999-0041REMSYN088AAXX  27004 82392 32596 13601 10254 20215 30026 40128 81030 333 10344 29072 55106 59004;EQDQ01  00002PRCP06
0190823920999992005062712004-03700-040350FM-12+008399999V0201401N000510042019N0500001N1+02441+02301101491ADDAY161061AY261061GF108991081061004501999999KA1240N+02241MA1999999100451MD1999999+0041MW1611REMSYN088AAXX  27124 82392 21499 81401 10244 20230 30045 40149 76166 886// 333 20224 58004 60024;
0212823920999992005062800004-03700-040350FM-12+008399999V0209999C000012200019N0040001N1+02341+02011101341ADDAY151061AY251061GA1001+999999999GF100991001001999999001001KA1240M+02941MA1999999100311MD1999999+0051MW1021REMSYN094AAXX  28004 82392 21996 00000 10234 20201 30031 40134 70255 333 10294 29085 55001 58005 69921;
0162823920999992005062812004-03700-040350FM-12+008399999V0200901N001012200019N0500001N1+02841+02041101401ADDGF104991041011004501001001KA1240N+02041MA1999999100381MD1999999-0071REMSYN082AAXX  28124 82392 22499 40902 10284 20204 30038 40140 84100 333 20204 59007 69924;
0198823920999992005062900004-03700-040350FM-12+008399999V0209999C000012200019N0040001N1+02561+01901101331ADDAA106000091GF101991011001008001031001KA1240M+03461MA1999999100311MD1999999+0001REMSYN088AAXX  29004 82392 32596 10000 10256 20190 30031 40133 81030 333 10346 29065 55079 58000;EQDQ01  00002PRCP06
0186823920999992005062912004-03700-040350FM-12+008399999V0200901N000512200019N0500001N1+02861+01981101371ADDAA106000091GF101991011011004501001001KA1240N+02141MA1999999100351MD1999999-0031REMSYN076AAXX  29124 82392 32499 10901 10286 20198 30035 40137 81100 333 20214 59003;EQDQ01  00002PRCP06
0198823920999992005063000004-03700-040350FM-12+008399999V0209999C000012200019N0040001N1+02481+01941101261ADDAA106000091GF101991011001008001031001KA1240M+03301MA1999999100241MD1999999-0071REMSYN088AAXX  30004 82392 32596 10000 10248 20194 30024 40126 81030 333 10330 29068 55067 59007;EQDQ01  00002PRCP06
0186823920999992005063012004-03700-040350FM-12+008399999V0200901N001011050019N0500001N1+02901+01721101301ADDAA106000091GF105991021011004501031011KA1240N+02101MA1999999100281MD1999999-0071REMSYN076AAXX  30124 82392 32499 50902 10290 20172 30028 40130 82131 333 20210 59007;EQDQ01  00002PRCP06
0167823920999992005070118004-03700-040350FM-12+008399999V0200901N001010042019N0500001N1+03431+01761101021ADDAA106000091GF106991061021004501001001MA1999999100001MD1999999+0001REMSYN070AAXX  01184 82392 32499 60902 10343 20176 30000 40102 86200 333 58000;EQDQ01  00002PRCP06
0192823920999992005070200004-03700-040350FM-12+008399999V0203601N001012200019N0040001N1+02581+02171101381ADDAA106000091GF100991001001999999001001KA1240M+03461MA1999999100361MD1999999+0061REMSYN082AAXX  02004 82392 32996 03602 10258 20217 30036 40138 333 10346 29064 55094 58006;EQDQ01  00002PRCP06
0186823920999992005070212004-03700-040350FM-12+008399999V0201801N000512200019N0500001N1+02791+02131101491ADDAA106000091GF104991041021004501001001KA1240N+02121MA1999999100461MD1999999+0131REMSYN076AAXX  02124 82392 32499 41801 10279 20213 30046 40149 84200 333 20212 58013;EQDQ01  00002PRCP06
0167823920999992005070218004-03700-040350FM-12+008399999V0201801N000510450019N0500001N1+03341+01831101021ADDAA106000091GF105991041021004501031001MA1999999100001MD1999999+0001REMSYN070AAXX  02184 82392 32499 51801 10334 20183 30000 40102 84230 333 58000;EQDQ01  00002PRCP06
0198823920999992005070300004-03700-040350FM-12+008399999V0203601N000512200019N0040001N1+02571+02271101421ADDAA106000091GF101991011001008001031001KA1240M+03521MA1999999100401MD1999999+0041REMSYN088AAXX  03004 82392 32596 13601 10257 20227 30040 40142 81030 333 10352 29069 55071 58004;EQDQ01  00002PRCP06
0162823920999992005070312004-03700-040350FM-12+008399999V0201801N000512200019N0500001N1+02631+02121101511ADDGF103991011021004501021001KA1240N+02111MA1999999100481MD1999999+0021REMSYN082AAXX  03124 82392 22499 31801 10263 20212 30048 40151 81220 333 20211 58002 69984;
0167823920999992005070318004-03700-040350FM-12+008399999V0200901N001010042019N0500001N1+03321+01931101071ADDAA106000091GF106991051021004501031001MA1999999100051MD1999999+0051REMSYN070AAXX  03184 82392 32499 60902 10332 20193 30005 40107 85230 333 58005;EQDQ01  00002PRCP06
0198823920999992005070400004-03700-040350FM-12+008399999V0201801N000510450019N0040001N1+02641+01981101381ADDAA106000091GF106991031021004501031001KA1240M+03361MA1999999100361MD1999999-0041REMSYN088AAXX  04004 82392 32496 61801 10264 20198 30036 40138 83230 333 10336 29063 55080 59004;EQDQ01  00002PRCP06
0167823920999992005070418004-03700-040350FM-12+008399999V0201401N004610450019N0500001N1+03401+01401101071ADDAA106000091GF105991031021004501031001MA1999999100061MD1999999+0011REMSYN070AAXX  04184 82392 32499 51409 10340 20140 30006 40107 83230 333 58001;EQDQ01  00002PRCP06
0192823920999992005070500004-03700-040350FM-12+008399999V0200501N000512200019N0040001N1+02541+01931101381ADDAA106000091GF100991001001999999001001KA1240M+03471MA1999999100361MD1999999+0001REMSYN082AAXX  05004 82392 32996 00501 10254 20193 30036 40138 333 10347 29056 55105 58000;EQDQ01  00002PRCP06
0186823920999992005070512004-03700-040350FM-12+008399999V0202301N000512200019N0500001N1+02801+01841101581ADDAA106000091GF102991021011004501001001KA1240N+01901MA1999999100551MD1999999+0171REMSYN076AAXX  05124 82392 32499 22301 10280 20184 30055 40158 82100 333 20190 58017;EQDQ01  00002PRCP06
0198823920999992005070600004-03700-040350FM-12+008399999V0203601N000510450019N0040001N1+02611+02251101551ADDAA106000091GF106991031021004501031001KA1240M+03531MA1999999100521MD1999999+0161REMSYN088AAXX  06004 82392 32496 63601 10261 20225 30052 40155 83230 333 10353 29062 55077 58016;EQDQ01  00002PRCP06
0186823920999992005070612004-03700-040350FM-12+008399999V0201401N001012200019N0500001N1+02881+01731101631ADDAA106000091GF103991031021004501001001KA1240N+02141MA1999999100601MD1999999+0051REMSYN076AAXX  06124 82392 32499 31402 10288 20173 30060 40163 83200 333 20214 58005;EQDQ01  00002PRCP06
0167823920999992005070618004-03700-040350FM-12+008399999V0201401N002610450019N0500001N1+03541+01521101131ADDAA106000091GF105991031021004501031001MA1999999100121MD1999999+0031REMSYN070AAXX  06184 82392 32499 51405 10354 20152 30012 40113 83230 333 58003;EQDQ01  00002PRCP06
0186823920999992005070712004-03700-040350FM-12+008399999V0201801N000510042019N0500001N1+02781+02111101631ADDAA106000091GF106991051021004501031001KA1240N+02201MA1999999100601MD1999999+0001REMSYN076AAXX  07124 82392 32499 61801 10278 20211 30060 40163 85230 333 20220 58000;EQDQ01  00002PRCP06
0192823920999992005070800004-03700-040350FM-12+008399999V0200501N003112200019N0040001N1+02621+02211101481ADDAA106000091GF100991001001999999001001KA1240M+03581MA1999999100451MD1999999+0031REMSYN082AAXX  08004 82392 32996 00506 10262 20221 30045 40148 333 10358 29066 55080 58003;EQDQ01  00002PRCP06
0186823920999992005070812004-03700-040350FM-12+008399999V0201801N001010042019N0500001N1+02741+02241101631ADDAA106000091GF106991051041004501031001KA1240N+02181MA1999999100601MD1999999+0001REMSYN076AAXX  08124 82392 32499 61802 10274 20224 30060 40163 85430 333 20218 58000;EQDQ01  00002PRCP06
0202823920999992005070900004-03700-040350FM-12+008399999V0200501N001012200019N0040001N1+02421+02351101531ADDAY161061AY251061GF104991041021004501001001KA1240M+03221MA1999999100501MD1999999+0051MW1021REMSYN100AAXX  09004 82392 21496 40502 10242 20235 30050 40153 70265 84200 333 10322 29081 55019 58005 69931;
0162823920999992005070912004-03700-040350FM-12+008399999V0201801N000510042019N0500001N1+02441+02271101661ADDGF108991061061004501021999KA1240N+02311MA1999999100621MD1999999+0021REMSYN082AAXX  09124 82392 22499 81801 10244 20227 30062 40166 8662/ 333 20231 58002 60034;
0171823920999992005070918004-03700-040350FM-12+008399999V0201401N001010450019N0500001N1+03181+01871101251ADDAY151061AY251061GF107991041061004501031001MA1999999100231MD1999999+0021MW1021REMSYN082AAXX  09184 82392 21499 71402 10318 20187 30023 40125 70255 84630 333 58002 69921;
0198823920999992005071000004-03700-040350FM-12+008399999V0201401N000512200019N0040001N1+02641+01881101471ADDAA106000091GF102991021001008001031001KA1240M+03301MA1999999100441MD1999999-0061REMSYN088AAXX  10004 82392 32596 21401 10264 20188 30044 40147 82030 333 10330 29066 55019 59006;EQDQ01  00002PRCP06
0162823920999992005071012004-03700-040350FM-12+008399999V0201401N002612200019N0500001N1+02701+02111101531ADDGF103991031021004501001001KA1240N+02021MA1999999100501MD1999999-0121REMSYN082AAXX  10124 82392 22499 31405 10270 20211 30050 40153 83200 333 20202 59012 69924;
0167823920999992005071018004-03700-040350FM-12+008399999V0202301N001012200019N0500001N1+03301+01551101201ADDAA106000091GF104991041021004501001001MA1999999100181MD1999999-0051REMSYN070AAXX  10184 82392 32499 42302 10330 20155 30018 40120 84200 333 59005;EQDQ01  00002PRCP06
0198823920999992005071100004-03700-040350FM-12+008399999V0200901N003110450019N0040001N1+02781+01931101421ADDAA106000091GF106991041041004501031001KA1240M+03341MA1999999100401MD1999999-0041REMSYN088AAXX  11004 82392 32496 60906 10278 20193 30040 40142 84430 333 10334 29056 55059 59004;EQDQ01  00002PRCP06
0202823920999992005071112004-03700-040350FM-12+008399999V0201401N003112200019N0500001N1+02861+01921101531ADDAA106000091GF102991999011004501001001KA1240N+02081MA1999999100501MD1999999+0001REMSYN076AAXX  11124 82392 32499 21406 10286 20192 30050 40153 81100 333 20208 58000;EQDQ01+000012SCOTLCQ02  00002PRCP06
0198823920999992005071200004-03700-040350FM-12+008399999V0209999C000010450019N0040001N1+02841+01881101471ADDAA106000091GF106991021021004501031001KA1240M+03461MA1999999100451MD1999999+0051REMSYN088AAXX  12004 82392 32496 60000 10284 20188 30045 40147 82230 333 10346 29051 55080 58005;EQDQ01  00002PRCP06
0167823920999992005071218004-03700-040350FM-12+008399999V0200901N000510450019N0500001N1+03291+01801101101ADDAA106000091GF106991021021004501031001MA1999999100091MD1999999+0001REMSYN070AAXX  12184 82392 32499 60901 10329 20180 30009 40110 82230 333 58000;EQDQ01  00002PRCP06
0198823920999992005071300004-03700-040350FM-12+008399999V0203601N001512200019N0040001N1+02601+02061101361ADDAA106000091GF102991021001008001031001KA1240M+03461MA1999999100341MD1999999-0111REMSYN088AAXX  13004 82392 32596 23603 10260 20206 30034 40136 82030 333 10346 29060 55061 59011;EQDQ01  00002PRCP06
0167823920999992005071318004-03700-040350FM-12+008399999V0201801N000512200019N0500001N1+03521+01341101021ADDAA106000091GF102991021011004501001001MA1999999100011MD1999999-0081REMSYN070AAXX  13184 82392 32499 21801 10352 20134 30001 40102 82100 333 59008;EQDQ01  00002PRCP06
0198823920999992005071400004-03700-040350FM-12+008399999V0203601N000510450019N0040001N1+02641+01631101251ADDAA106000091GF106991011011004501031001KA1240M+03541MA1999999100231MD1999999-0111REMSYN088AAXX  14004 82392 32496 63601 10264 20163 30023 40125 81130 333 10354 29048 55110 59011;EQDQ01  00002PRCP06
0167823920999992005071418004-03700-040350FM-12+008399999V0201801N001012200019N0500001N1+03441+01481100981ADDAA106000091GF104991041021004501001001MA1999999099971MD1999999-0041REMSYN070AAXX  14184 82392 32499 41802 10344 20148 39997 40098 84200 333 59004;EQDQ01  00002PRCP06
0192823920999992005071500004-03700-040350FM-12+008399999V0201401N002112200019N0040001N1+02761+02301101271ADDAA106000091GF100991001001999999001001KA1240M+03481MA1999999100251MD1999999+0021REMSYN082AAXX  15004 82392 32996 01404 10276 20230 30025 40127 333 10348 29060 55104 58002;EQDQ01  00002PRCP06
0186823920999992005071512004-03700-040350FM-12+008399999V0201401N001010042019N0500001N1+02861+01951101461ADDAA106000091GF105991051021004501001001KA1240N+02041MA1999999100441MD1999999+0001REMSYN076AAXX  15124 82392 32499 51402 10286 20195 30044 40146 85200 333 20204 58000;EQDQ01  00002PRCP06
0167823920999992005071518004-03700-040350FM-12+008399999V0200501N001012200019N0500001N1+03361+01811100981ADDAA106000091GF103991031011004501001001MA1999999099971MD1999999+0001REMSYN070AAXX  15184 82392 32499 30502 10336 20181 39997 40098 83100 333 58000;EQDQ01  00002PRCP06
0192823920999992005071600004-03700-040350FM-12+008399999V0203601N000512200019N0040001N1+02621+02051101341ADDAA106000091GF100991001001999999001001KA1240M+03471MA1999999100321MD1999999+0071REMSYN082AAXX  16004 82392 32996 03601 10262 20205 30032 40134 333 10347 29060 55108 58007;EQDQ01  00002PRCP06
0186823920999992005071612004-03700-040350FM-12+008399999V0200901N001012200019N0500001N1+02901+01721101451ADDAA106000091GF101991011011004501001001KA1240N+02141MA1999999100431MD1999999-0011REMSYN076AAXX  16124 82392 32499 10902 10290 20172 30043 40145 81100 333 20214 59001;EQDQ01  00002PRCP06
0198823920999992005071700004-03700-040350FM-12+008399999V0203601N000512200019N0040001N1+02701+01961101341ADDAA106000091GF102991021001008001031001KA1240M+03471MA1999999100321MD1999999+0001REMSYN088AAXX  17004 82392 32596 23601 10270 20196 30032 40134 82030 333 10347 29053 55103 58000;EQDQ01  00002PRCP06
0186823920999992005071712004-03700-040350FM-12+008399999V0200901N001512200019N0500001N1+02821+01711101481ADDAA106000091GF104991011011004501031001KA1240N+02141MA1999999100451MD1999999+0031REMSYN076AAXX  17124 82392 32499 40903 10282 20171 30045 40148 81130 333 20214 58003;EQDQ01  00002PRCP06
0167823920999992005071718004-03700-040350FM-12+008399999V0200901N001512200019N0500001N1+03411+01511101041ADDAA106000091GF104991041021004501001001MA1999999100031MD1999999+0031REMSYN070AAXX  17184 82392 32499 40903 10341 20151 30003 40104 84200 333 58003;EQDQ01  00002PRCP06
0192823920999992005071800004-03700-040350FM-12+008399999V0203601N000512200019N0040001N1+02631+01931101341ADDAA106000091GF100991001001999999001001KA1240M+03481MA1999999100321MD1999999+0001REMSYN082AAXX  18004 82392 32996 03601 10263 20193 30032 40134 333 10348 29053 55096 58000;EQDQ01  00002PRCP06
0186823920999992005071812004-03700-040350FM-12+008399999V0200901N004612200019N0500001N1+02901+01901101531ADDAA106000091GF101991011011004501001001KA1240N+02101MA1999999100501MD1999999+0051REMSYN076AAXX  18124 82392 32499 10909 10290 20190 30050 40153 81100 333 20210 58005;EQDQ01  00002PRCP06
0167823920999992005071818004-03700-040350FM-12+008399999V0200501N005112200019N0500001N1+03481+01471101021ADDAA106000091GF101991011011004501001001MA1999999100011MD1999999-0021REMSYN070AAXX  18184 82392 32499 10510 10348 20147 30001 40102 81100 333 59002;EQDQ01  00002PRCP06
0192823920999992005071900004-03700-040350FM-12+008399999V0203601N000512200019N0040001N1+02601+02031101321ADDAA106000091GF100991001001999999001001KA1240M+03581MA1999999100301MD1999999-0021REMSYN082AAXX  19004 82392 32996 03601 10260 20203 30030 40132 333 10358 29057 55107 59002;EQDQ01  00002PRCP06
0186823920999992005071912004-03700-040350FM-12+008399999V0200501N005712200019N0500001N1+02881+02041101531ADDAA106000091GF102991021011004501001001KA1240N+01921MA1999999100501MD1999999+0001REMSYN076AAXX  19124 82392 32499 20511 10288 20204 30050 40153 82100 333 20192 58000;EQDQ01  00002PRCP06
0137823920999992005071918004-03700-040350FM-12+008399999V0200901N000512200019N0500001N1+03361+01601101041ADDGF104991041021004501001001MA1999999100021MD1999999+0011REMSYN070AAXX  19184 82392 32499 40901 10336 20160 30002 40104 84200 333 58001;
0162823920999992005072000004-03700-040350FM-12+008399999V0203601N000512200019N0040001N1+02621+02031101341ADDGF100991001001999999001001KA1240M+03571MA1999999100321MD1999999+0021REMSYN082AAXX  20004 82392 32996 03601 10262 20203 30032 40134 333 10357 29059 55097 58002;
0156823920999992005072012004-03700-040350FM-12+008399999V0200901N001510042019N0500001N1+02801+01951101531ADDGF105991051021004501001001KA1240N+01901MA1999999100501MD1999999+0001REMSYN076AAXX  20124 82392 32499 50903 10280 20195 30050 40153 85200 333 20190 58000;
0137823920999992005072018004-03700-040350FM-12+008399999V0200501N001010042019N0500001N1+03361+01811101071ADDGF107991051051004501031001MA1999999100051MD1999999+0031REMSYN070AAXX  20184 82392 32499 70502 10336 20181 30005 40107 85530 333 58003;
0162823920999992005072100004-03700-040350FM-12+008399999V0203601N001012200019N0040001N1+02621+01961101321ADDGF100991001001999999001001KA1240M+03531MA1999999100301MD1999999-0021REMSYN082AAXX  21004 82392 32996 03602 10262 20196 30030 40132 333 10353 29059 55070 59002;
0156823920999992005072112004-03700-040350FM-12+008399999V0200901N001512200019N0500001N1+02921+01801101501ADDGF103991031011004501001001KA1240N+02211MA1999999100471MD1999999-0031REMSYN076AAXX  21124 82392 32499 30903 10292 20180 30047 40150 83100 333 20221 59003;
0137823920999992005072118004-03700-040350FM-12+008399999V0200901N001012200019N0500001N1+03501+01581100991ADDGF103991031011004501001001MA1999999099981MD1999999-0071REMSYN070AAXX  21184 82392 32499 30902 10350 20158 39998 40099 83100 333 59007;
0162823920999992005072200004-03700-040350FM-12+008399999V0200901N002112200019N0040001N1+02801+02001101311ADDGF100991001001999999001001KA1240M+03541MA1999999100301MD1999999+0001REMSYN082AAXX  22004 82392 32996 00904 10280 20200 30030 40131 333 10354 29052 55113 58000;
0156823920999992005072212004-03700-040350FM-12+008399999V0201401N003112200019N0500001N1+02881+01731101611ADDGF101991011011008001001001KA1240N+02021MA1999999100581MD1999999+0111REMSYN076AAXX  22124 82392 32599 11406 10288 20173 30058 40161 81100 333 20202 58011;
0137823920999992005072218004-03700-040350FM-12+008399999V0201401N000512200019N0500001N1+03541+01411101081ADDGF102991021011004501001001MA1999999100071MD1999999+0091REMSYN070AAXX  22184 82392 32499 21401 10354 20141 30007 40108 82100 333 58009;
0162823920999992005072300004-03700-040350FM-12+008399999V0200501N002612200019N0040001N1+02641+02051101381ADDGF100991001001999999001001KA1240M+03621MA1999999100361MD1999999+0061REMSYN082AAXX  23004 82392 32996 00505 10264 20205 30036 40138 333 10362 29054 55106 58006;
0156823920999992005072312004-03700-040350FM-12+008399999V0201801N001010042019N0500001N1+02861+01951101561ADDGF106991061021004501001001KA1240N+02041MA1999999100531MD1999999-0051REMSYN076AAXX  23124 82392 32499 61802 10286 20195 30053 40156 86200 333 20204 59005;
0137823920999992005072318004-03700-040350FM-12+008399999V0201801N000510450019N0500001N1+03471+01711101141ADDGF105991041011004501031001MA1999999100131MD1999999+0061REMSYN070AAXX  23184 82392 32499 51801 10347 20171 30013 40114 84130 333 58006;
0168823920999992005072400004-03700-040350FM-12+008399999V0201801N000512200019N0040001N1+02681+01581101321ADDGF101991011001008001011001KA1240M+03481MA1999999100301MD1999999-0061REMSYN088AAXX  24004 82392 32596 11801 10268 20158 30030 40132 81010 333 10348 29049 55074 59006;
0156823920999992005072412004-03700-040350FM-12+008399999V0201401N000512200019N0500001N1+02761+02071101661ADDGF101991011011004501001001KA1240N+01801MA1999999100631MD1999999+0101REMSYN076AAXX  24124 82392 32499 11401 10276 20207 30063 40166 81100 333 20180 58010;
0137823920999992005072418004-03700-040350FM-12+008399999V0203601N001012200019N0500001N1+03641+01381101171ADDGF102991021011004501001001MA1999999100161MD1999999+0031REMSYN070AAXX  24184 82392 32499 23602 10364 20138 30016 40117 82100 333 58003;
0162823920999992005072500004-03700-040350FM-12+008399999V0200501N002612200019N0040001N1+02701+02111101431ADDGF100991001001999999001001KA1240M+03681MA1999999100411MD1999999+0111REMSYN082AAXX  25004 82392 32996 00505 10270 20211 30041 40143 333 10368 29058 55111 58011;
0156823920999992005072512004-03700-040350FM-12+008399999V0200901N003112200019N0500001N1+02841+01991101671ADDGF101991011011004501001001KA1240N+02001MA1999999100641MD1999999+0011REMSYN076AAXX  25124 82392 32499 10906 10284 20199 30064 40167 81100 333 20200 58001;
0137823920999992005072518004-03700-040350FM-12+008399999V0201401N001010042019N0500001N1+03341+01871101321ADDGF107991051051004501031001MA1999999100301MD1999999+0141REMSYN070AAXX  25184 82392 32499 71402 10334 20187 30030 40132 85530 333 58014;
0168823920999992005072600004-03700-040350FM-12+008399999V0203601N001012200019N0040001N1+02691+01941101641ADDGF103991031001008001031001KA1240M+03381MA1999999100611MD1999999+0201REMSYN088AAXX  26004 82392 32596 33602 10269 20194 30061 40164 83030 333 10338 29057 55059 58020;
0156823920999992005072612004-03700-040350FM-12+008399999V0201401N001012200019N0500001N1+02861+02011101701ADDGF102991021011004501001001KA1240N+02001MA1999999100671MD1999999+0031REMSYN076AAXX  26124 82392 32499 21402 10286 20201 30067 40170 82100 333 20200 58003;
0137823920999992005072618004-03700-040350FM-12+008399999V0200901N000510450019N0500001N1+03491+01631101141ADDGF105991031021004501031001MA1999999100131MD1999999-0171REMSYN070AAXX  26184 82392 32499 50901 10349 20163 30013 40114 83230 333 59017;
0162823920999992005072700004-03700-040350FM-12+008399999V0203601N001012200019N0040001N1+02701+02081101481ADDGF100991001001999999001001KA1240M+03641MA1999999100451MD1999999-0161REMSYN082AAXX  27004 82392 32996 03602 10270 20208 30045 40148 333 10364 29058 55103 59016;
0156823920999992005072712004-03700-040350FM-12+008399999V0200901N002112200019N0500001N1+02941+01911101711ADDGF103991021011004501031001KA1240N+02201MA1999999100681MD1999999+0011REMSYN076AAXX  27124 82392 32499 30904 10294 20191 30068 40171 82130 333 20220 58001;
0137823920999992005072718004-03700-040350FM-12+008399999V0200901N002612200019N0500001N1+03521+01741101251ADDGF101991011011004501001001MA1999999100241MD1999999+0111REMSYN070AAXX  27184 82392 32499 10905 10352 20174 30024 40125 81100 333 58011;
0162823920999992005072800004-03700-040350FM-12+008399999V0203601N001012200019N0040001N1+02661+01851101491ADDGF100991001001999999001001KA1240M+03571MA1999999100461MD1999999+0011REMSYN082AAXX  28004 82392 32996 03602 10266 20185 30046 40149 333 10357 29053 55102 58001;
0156823920999992005072812004-03700-040350FM-12+008399999V0200901N000512200019N0500001N1+02911+01891101741ADDGF104991041021004501001001KA1240N+02031MA1999999100711MD1999999+0031REMSYN076AAXX  28124 82392 32499 40901 10291 20189 30071 40174 84200 333 20203 58003;
0137823920999992005072818004-03700-040350FM-12+008399999V0201401N000512200019N0500001N1+03441+01581101241ADDGF104991041011004501001001MA1999999100231MD1999999-0011REMSYN070AAXX  28184 82392 32499 41401 10344 20158 30023 40124 84100 333 59001;
0162823920999992005072900004-03700-040350FM-12+008399999V0203601N004612200019N0040001N1+02661+02071101631ADDGF100991001001999999001001KA1240M+03541MA1999999100601MD1999999+0141REMSYN082AAXX  29004 82392 32996 03609 10266 20207 30060 40163 333 10354 29057 55107 58014;
0156823920999992005072912004-03700-040350FM-12+008399999V0200901N003112200019N0500001N1+02881+02081101771ADDGF101991011011004501001001KA1240N+02081MA1999999100741MD1999999+0031REMSYN076AAXX  29124 82392 32499 10906 10288 20208 30074 40177 81100 333 20208 58003;
0137823920999992005072918004-03700-040350FM-12+008399999V0200901N001012200019N0500001N1+03531+01521101131ADDGF103991031011004501001001MA1999999100121MD1999999-0111REMSYN070AAXX  29184 82392 32499 30902 10353 20152 30012 40113 83100 333 59011;
0162823920999992005073000004-03700-040350FM-12+008399999V0200501N003112200019N0040001N1+02681+02201101461ADDGF100991001001999999001001KA1240M+03621MA1999999100441MD1999999-0161REMSYN082AAXX  30004 82392 32996 00506 10268 20220 30044 40146 333 10362 29060 55099 59016;
0156823920999992005073012004-03700-040350FM-12+008399999V0201401N004612200019N0500001N1+02841+01961101651ADDGF103991031011004501001001KA1240N+02041MA1999999100621MD1999999-0121REMSYN076AAXX  30124 82392 32499 31409 10284 20196 30062 40165 83100 333 20204 59012;
0137823920999992005073018004-03700-040350FM-12+008399999V0200901N002612200019N0500001N1+03501+01481101091ADDGF103991021011004501031001MA1999999100081MD1999999-0041REMSYN070AAXX  30184 82392 32499 30905 10350 20148 30008 40109 82130 333 59004;
0162823920999992005073100004-03700-040350FM-12+008399999V0200501N003112200019N0040001N1+02621+02141101421ADDGF100991001001999999001001KA1240M+03521MA1999999100401MD1999999-0041REMSYN082AAXX  31004 82392 32996 00506 10262 20214 30040 40142 333 10352 29060 55104 59004;
0156823920999992005073112004-03700-040350FM-12+008399999V0201401N001012200019N0500001N1+02841+01731101591ADDGF101991011011004501001001KA1240N+02141MA1999999100561MD1999999-0061REMSYN076AAXX  31124 82392 32499 11402 10284 20173 30056 40159 81100 333 20214 59006;
0137823920999992005073118004-03700-040350FM-12+008399999V0201401N001012200019N0500001N1+03441+01381101011ADDGF101991011011004501001001MA1999999099991MD1999999-0091REMSYN070AAXX  31184 82392 32499 11402 10344 20138 39999 40101 81100 333 59009;
0178823920999992005080100004-03700-040350FM-12+008399999V0203601N001012200019N0040001N1+02621+01911101341ADDGA1001+999999999GF100991001001999999001001KA1240M+03491MA1999999100321MD1999999-0081REMSYN082AAXX  01004 82392 32996 03602 10262 20191 30032 40134 333 10349 29053 55107 59008;
0156823920999992005080112004-03700-040350FM-12+008399999V0201401N002110450019N0500001N1+02721+02241101571ADDGF105991041041004501031001KA1240N+01981MA1999999100541MD1999999+0081REMSYN076AAXX  01124 82392 32499 51404 10272 20224 30054 40157 84430 333 20198 58008;
0137823920999992005080118004-03700-040350FM-12+008399999V0200901N001512200019N0500001N1+03301+01761101101ADDGF104991041021004501001001MA1999999100081MD1999999+0091REMSYN070AAXX  01184 82392 32499 40903 10330 20176 30008 40110 84200 333 58009;
0178823920999992005080200004-03700-040350FM-12+008399999V0203601N002612200019N0040001N1+02621+01911101301ADDGA1001+999999999GF100991001001999999001001KA1240M+03441MA1999999100281MD1999999-0041REMSYN082AAXX  02004 82392 32996 03605 10262 20191 30028 40130 333 10344 29061 55085 59004;
0156823920999992005080212004-03700-040350FM-12+008399999V0201401N002110450019N0500001N1+02821+02101101461ADDGF105991041021004501031001KA1240N+01901MA1999999100441MD1999999-0101REMSYN076AAXX  02124 82392 32499 51404 10282 20210 30044 40146 84230 333 20190 59010;
0137823920999992005080218004-03700-040350FM-12+008399999V0202301N001512200019N0500001N1+03561+01681100981ADDGF103991031021004501001001MA1999999099971MD1999999-0171REMSYN070AAXX  02184 82392 32499 32303 10356 20168 39997 40098 83200 333 59017;
0168823920999992005080300004-03700-040350FM-12+008399999V0203601N000512200019N0040001N1+02621+01961101291ADDGF101991011011004501001001KA1240M+03611MA1999999100271MD1999999-0011REMSYN088AAXX  03004 82392 32496 13601 10262 20196 30027 40129 81100 333 10361 29058 55098 59001;
0156823920999992005080312004-03700-040350FM-12+008399999V0202301N001012200019N0500001N1+02801+02131101461ADDGF103991031011004501001001KA1240N+02081MA1999999100441MD1999999+0001REMSYN076AAXX  03124 82392 32499 32302 10280 20213 30044 40146 83100 333 20208 58000;
0137823920999992005080318004-03700-040350FM-12+008399999V0200501N000510450019N0500001N1+03541+01711100941ADDGF105991031021004501011001MA1999999099931MD1999999-0041REMSYN070AAXX  03184 82392 32499 50501 10354 20171 39993 40094 83210 333 59004;
0168823920999992005080400004-03700-040350FM-12+008399999V0203601N002612200019N0040001N1+02641+02001101291ADDGF103991031001008001031001KA1240M+03541MA1999999100271MD1999999+0001REMSYN088AAXX  04004 82392 32596 33605 10264 20200 30027 40129 83030 333 10354 29059 55087 58000;
0156823920999992005080412004-03700-040350FM-12+008399999V0201401N001010042019N0500001N1+02921+01771101531ADDGF105991051021004501001001KA1240N+02101MA1999999100501MD1999999+0061REMSYN076AAXX  04124 82392 32499 51402 10292 20177 30050 40153 85200 333 20210 58006;
0178823920999992005080500004-03700-040350FM-12+008399999V0200501N002612200019N0040001N1+02701+02221101341ADDGA1001+999999999GF100991001001999999001001KA1240M+03681MA1999999100321MD1999999+0051REMSYN082AAXX  05004 82392 32996 00505 10270 20222 30032 40134 333 10368 29058 55095 58005;
0156823920999992005080512004-03700-040350FM-12+008399999V0200901N002112200019N0500001N1+02861+01721101571ADDGF101991011011004501001001KA1240N+02161MA1999999100541MD1999999+0041REMSYN076AAXX  05124 82392 32499 10904 10286 20172 30054 40157 81100 333 20216 58004;
0137823920999992005080518004-03700-040350FM-12+008399999V0200901N002612200019N0500001N1+03441+01671101071ADDGF103991031011004501001001MA1999999100061MD1999999+0081REMSYN070AAXX  05184 82392 32499 30905 10344 20167 30006 40107 83100 333 58008;
0178823920999992005080600004-03700-040350FM-12+008399999V0200901N003112200019N0040001N1+02881+01911101381ADDGA1001+999999999GF100991001001999999001001KA1240M+03481MA1999999100371MD1999999+0051REMSYN082AAXX  06004 82392 32996 00906 10288 20191 30037 40138 333 10348 29049 55098 58005;
0201823920999992005080612004-03700-040350FM-12+008399999V0200901N002610042019N0500001N1+02721+01901101561ADDAA124000891AY161061AY261061GF106991061041004501001001KA1240N+02261MA1999999100531MD1999999-0011MW1021REMSYN088AAXX  06124 82392 21499 60905 10272 20190 30053 40156 70266 86400 333 20226 59001 69974;
0137823920999992005080618004-03700-040350FM-12+008399999V0201401N001510042019N0500001N1+03291+01681101121ADDGF106991061041004501001001MA1999999100111MD1999999+0051REMSYN070AAXX  06184 82392 32499 61403 10329 20168 30011 40112 86400 333 58005;
0168823920999992005080700004-03700-040350FM-12+008399999V0200901N000512200019N0040001N1+02841+01731101341ADDGF102991021001008001021001KA1240M+03391MA1999999100321MD1999999-0051REMSYN088AAXX  07004 82392 32596 20901 10284 20173 30032 40134 82020 333 10339 29050 55077 59005;
0156823920999992005080712004-03700-040350FM-12+008399999V0201401N001012200019N0500001N1+02941+02081101521ADDGF103991031021004501001001KA1240N+02201MA1999999100501MD1999999-0031REMSYN076AAXX  07124 82392 32499 31402 10294 20208 30050 40152 83200 333 20220 59003;
0137823920999992005080718004-03700-040350FM-12+008399999V0202301N001512200019N0500001N1+03501+01581101051ADDGF103991031021004501001001MA1999999100041MD1999999-0071REMSYN070AAXX  07184 82392 32499 32303 10350 20158 30004 40105 83200 333 59007;
0178823920999992005080800004-03700-040350FM-12+008399999V0203601N001012200019N0040001N1+02601+01941101321ADDGA1001+999999999GF100991001001999999001001KA1240M+03591MA1999999100301MD1999999-0021REMSYN082AAXX  08004 82392 32996 03602 10260 20194 30030 40132 333 10359 29057 55097 59002;
0156823920999992005080812004-03700-040350FM-12+008399999V0201401N002612200019N0500001N1+02801+01951101531ADDGF103991021011004501031001KA1240N+01981MA1999999100501MD1999999+0001REMSYN076AAXX  08124 82392 32499 31405 10280 20195 30050 40153 82130 333 20198 58000;
0137823920999992005080818004-03700-040350FM-12+008399999V0202301N000510450019N0500001N1+03461+01731101071ADDGF105991031021004501031001MA1999999100061MD1999999+0021REMSYN070AAXX  08184 82392 32499 52301 10346 20173 30006 40107 83230 333 58002;
0168823920999992005080900004-03700-040350FM-12+008399999V0203601N002619999999N0040001N1+02691+01961101351ADDGF106991061001008001031001KA1240M+03531MA1999999100331MD1999999+0331REMSYN088AAXX  09004 82392 32596 63605 10269 20196 30033 40135 86030 333 10353 29056 55091 58033;
0156823920999992005080912004-03700-040350FM-12+008399999V0202301N000512200019N0500001N1+02821+02121101571ADDGF103991031011004501001001KA1240N+02121MA1999999100541MD1999999+0041REMSYN076AAXX  09124 82392 32499 32301 10282 20212 30054 40157 83100 333 20212 58004;
0137823920999992005080918004-03700-040350FM-12+008399999V0201801N000512200019N0500001N1+03511+01501101021ADDGF103991031021004501001001MA1999999100011MD1999999-0051REMSYN070AAXX  09184 82392 32499 31801 10351 20150 30001 40102 83200 333 59005;
0178823920999992005081000004-03700-040350FM-12+008399999V0203601N002612200019N0040001N1+02701+01961101341ADDGA1001+999999999GF100991001001999999001001KA1240M+03591MA1999999100321MD1999999-0011REMSYN082AAXX  10004 82392 32996 03605 10270 20196 30032 40134 333 10359 29056 55097 59001;
0156823920999992005081012004-03700-040350FM-12+008399999V0201401N003110450019N0500001N1+02741+02241101631ADDGF105991031021004501031001KA1240N+02081MA1999999100601MD1999999+0061REMSYN076AAXX  10124 82392 32499 51406 10274 20224 30060 40163 83230 333 20208 58006;
0137823920999992005081018004-03700-040350FM-12+008399999V0200901N002610450019N0500001N1+03521+01791101111ADDGF105991041021004501031001MA1999999100101MD1999999+0091REMSYN070AAXX  10184 82392 32499 50905 10352 20179 30010 40111 84230 333 58009;
0168823920999992005081100004-03700-040350FM-12+008399999V0203601N002610450019N0040001N1+02641+02071101441ADDGF106991021021004501031001KA1240M+03641MA1999999100421MD1999999+0101REMSYN088AAXX  11004 82392 32496 63605 10264 20207 30042 40144 82230 333 10364 29063 55085 58010;
0156823920999992005081112004-03700-040350FM-12+008399999V0200901N000510450019N0500001N1+02921+02061101691ADDGF106991021021004501031001KA1240N+02481MA1999999100661MD1999999+0061REMSYN076AAXX  11124 82392 32499 60901 10292 20206 30066 40169 82230 333 20248 58006;
0156823920999992005081118004-03700-040350FM-12+008399999V0203601N000512200019N0500001N1+03541+01621101061ADDGF104991999021004501001001MA1999999100051MD1999999-0051REMSYN070AAXX  11184 82392 32499 43601 10354 20162 30005 40106 83200 333 59005;EQDQ01+000032SCOTLC
0168823920999992005081200004-03700-040350FM-12+008399999V0200501N003112200019N0040001N1+02621+02441101361ADDGF103991031001008001031001KA1240M+03661MA1999999100341MD1999999-0081REMSYN088AAXX  12004 82392 32596 30506 10262 20244 30034 40136 83030 333 10366 29068 55083 59008;
0156823920999992005081212004-03700-040350FM-12+008399999V0200901N002612200019N0500001N1+02861+02141101571ADDGF102991021011004501001001KA1240N+02141MA1999999100541MD1999999-0121REMSYN076AAXX  12124 82392 32499 20905 10286 20214 30054 40157 82100 333 20214 59012;
0137823920999992005081218004-03700-040350FM-12+008399999V0201401N000510450019N0500001N1+03671+01531100901ADDGF105991041021004501011001MA1999999099891MD1999999-0161REMSYN070AAXX  12184 82392 32499 51401 10367 20153 39989 40090 84210 333 59016;
0178823920999992005081300004-03700-040350FM-12+008399999V0200501N004112200019N0040001N1+02881+02391101241ADDGA1001+999999999GF100991001001999999001001KA1240M+03701MA1999999100221MD1999999-0121REMSYN082AAXX  13004 82392 32996 00508 10288 20239 30022 40124 333 10370 29067 55093 59012;
0175823920999992005081312004-03700-040350FM-12+008399999V0200901N001019999999N0500001N1+02801+02201101511ADDGF107991999021004501001001KA1240N+02281MA1999999100481MD1999999-0061REMSYN076AAXX  13124 82392 32499 70902 10280 20220 30048 40151 84200 333 20228 59006;EQDQ01+000042SCOTLC
0137823920999992005081318004-03700-040350FM-12+008399999V0201401N001010450019N0500001N1+03481+01921100951ADDGF106991041021004501031001MA1999999099941MD1999999+0051REMSYN070AAXX  13184 82392 32499 61402 10348 20192 39994 40095 84230 333 58005;
0168823920999992005081400004-03700-040350FM-12+008399999V0203601N003110042019N0040001N1+02681+02391101201ADDGF107991051041004501031001KA1240M+03581MA1999999100181MD1999999-0041REMSYN088AAXX  14004 82392 32496 73606 10268 20239 30018 40120 85430 333 10358 29069 55074 59004;
0156823920999992005081412004-03700-040350FM-12+008399999V0200501N000510450019N0500001N1+02691+01991101551ADDGF107991041041004501031001KA1240N+02341MA1999999100521MD1999999+0041REMSYN076AAXX  14124 82392 32499 70501 10269 20199 30052 40155 84430 333 20234 58004;
0187823920999992005081500004-03700-040350FM-12+008399999V0200501N002619999999N0040001N1+02581+01971101361ADDGF105991999001008001011001KA1240M+03581MA1999999100341MD1999999+0161REMSYN088AAXX  15004 82392 32596 50505 10258 20197 30034 40136 81010 333 10358 29059 55070 58016;EQDQ01+000012SCOTLC
0156823920999992005081512004-03700-040350FM-12+008399999V0201401N001510042019N0500001N1+02861+02161101611ADDGF105991051021004501001001KA1240N+02101MA1999999100581MD1999999+0061REMSYN076AAXX  15124 82392 32499 51403 10286 20216 30058 40161 85200 333 20210 58006;
0137823920999992005081518004-03700-040350FM-12+008399999V0200501N003112200019N0500001N1+03501+01811101071ADDGF102991021011004501001001MA1999999100061MD1999999+0041REMSYN070AAXX  15184 82392 32499 20506 10350 20181 30006 40107 82100 333 58004;
0178823920999992005081600004-03700-040350FM-12+008399999V0203601N002612200019N0040001N1+02631+02031101441ADDGA1001+999999999GF100991001001999999001001KA1240M+03611MA1999999100421MD1999999+0081REMSYN082AAXX  16004 82392 32996 03605 10263 20203 30042 40144 333 10361 29060 55089 58008;
0156823920999992005081612004-03700-040350FM-12+008399999V0200901N002112200019N0500001N1+02941+02141101551ADDGF104991041021004501001001KA1240N+02201MA1999999100521MD1999999-0061REMSYN076AAXX  16124 82392 32499 40904 10294 20214 30052 40155 84200 333 20220 59006;
0137823920999992005081618004-03700-040350FM-12+008399999V0200901N001512200019N0500001N1+03571+01751100991ADDGF102991021021004501001001MA1999999099981MD1999999-0081REMSYN070AAXX  16184 82392 32499 20903 10357 20175 39998 40099 82200 333 59008;
0178823920999992005081700004-03700-040350FM-12+008399999V0203601N002612200019N0040001N1+02641+02141101301ADDGA1001+999999999GF100991001001999999001001KA1240M+03641MA1999999100281MD1999999-0141REMSYN082AAXX  17004 82392 32996 03605 10264 20214 30028 40130 333 10364 29061 55105 59014;
0156823920999992005081712004-03700-040350FM-12+008399999V0201401N002610450019N0500001N1+02881+02081101421ADDGF106991041021004501031001KA1240N+02281MA1999999100401MD1999999-0121REMSYN076AAXX  17124 82392 32499 61405 10288 20208 30040 40142 84230 333 20228 59012;
0137823920999992005081718004-03700-040350FM-12+008399999V0201401N001012200019N0500001N1+03541+01621100911ADDGF102991021011004501001001MA1999999099901MD1999999-0081REMSYN070AAXX  17184 82392 32499 21402 10354 20162 39990 40091 82100 333 59008;
0178823920999992005081800004-03700-040350FM-12+008399999V0203601N000512200019N0040001N1+02561+01781101321ADDGA1001+999999999GF100991001001999999001001KA1240M+03611MA1999999100301MD1999999+0021REMSYN082AAXX  18004 82392 32996 03601 10256 20178 30030 40132 333 10361 29055 55106 58002;
0156823920999992005081812004-03700-040350FM-12+008399999V0200901N002612200019N0500001N1+03001+01641101501ADDGF102991021011004501001001KA1240N+02061MA1999999100471MD1999999+0071REMSYN076AAXX  18124 82392 32499 20905 10300 20164 30047 40150 82100 333 20206 58007;
0137823920999992005081818004-03700-040350FM-12+008399999V0200501N000512200019N0500001N1+03561+01481100971ADDGF101991011011004501001001MA1999999099961MD1999999+0061REMSYN070AAXX  18184 82392 32499 10501 10356 20148 39996 40097 81100 333 58006;
0178823920999992005081900004-03700-040350FM-12+008399999V0200501N004112200019N0040001N1+02621+02121101261ADDGA1001+999999999GF100991001001999999001001KA1240M+03641MA1999999100241MD1999999-0061REMSYN082AAXX  19004 82392 32996 00508 10262 20212 30024 40126 333 10364 29055 55110 59006;
0156823920999992005081912004-03700-040350FM-12+008399999V0200901N003112200019N0500001N1+02921+02191101531ADDGF103991031011004501001001KA1240N+01981MA1999999100501MD1999999+0031REMSYN076AAXX  19124 82392 32499 30906 10292 20219 30050 40153 83100 333 20198 58003;
0137823920999992005081918004-03700-040350FM-12+008399999V0200901N001012200019N0010001N1+03511+01391101021ADDGF104991031021004501001011MA1999999100011MD1999999+0051REMSYN070AAXX  19184 82392 32494 40902 10351 20139 30001 40102 83201 333 58005;
0178823920999992005082000004-03700-040350FM-12+008399999V0201801N001012200019N0040001N1+02881+02031101361ADDGA1001+999999999GF100991001001999999001001KA1240M+03601MA1999999100351MD1999999+0111REMSYN082AAXX  20004 82392 32996 01802 10288 20203 30035 40136 333 10360 29053 55103 58011;
0156823920999992005082012004-03700-040350FM-12+008399999V0201801N000512200019N0500001N1+02841+01701101501ADDGF101991011011004501001001KA1240N+02061MA1999999100481MD1999999-0021REMSYN076AAXX  20124 82392 32499 11801 10284 20170 30048 40150 81100 333 20206 59002;
0137823920999992005082018004-03700-040350FM-12+008399999V0201801N001012200019N0500001N1+03691+01181100931ADDGF102991011011004501011001MA1999999099921MD1999999-0091REMSYN070AAXX  20184 82392 32499 21802 10369 20118 39992 40093 81110 333 59009;
0168823920999992005082100004-03700-040350FM-12+008399999V0203601N000512200019N0040001N1+02641+01981101301ADDGF101991011001008001031001KA1240M+03701MA1999999100281MD1999999-0071REMSYN088AAXX  21004 82392 32596 13601 10264 20198 30028 40130 81030 333 10370 29052 55109 59007;
0156823920999992005082112004-03700-040350FM-12+008399999V0200901N002612200019N0500001N1+02841+02221101451ADDGF104991041021004501001001KA1240N+02231MA1999999100431MD1999999-0051REMSYN076AAXX  21124 82392 32499 40905 10284 20222 30043 40145 84200 333 20223 59005;
0156823920999992005082118004-03700-040350FM-12+008399999V0201401N001519999999N0500001N1+03601+01721100871ADDGF105991999021004501001001MA1999999099861MD1999999-0061REMSYN070AAXX  21184 82392 32499 51403 10360 20172 39986 40087 83200 333 59006;EQDQ01+000032SCOTLC
0178823920999992005082200004-03700-040350FM-12+008399999V0200501N004112200019N0040001N1+02641+02141101241ADDGA1001+999999999GF100991001001999999001001KA1240M+03681MA1999999100221MD1999999-0061REMSYN082AAXX  22004 82392 32996 00508 10264 20214 30022 40124 333 10368 29062 55105 59006;
0156823920999992005082212004-03700-040350FM-12+008399999V0200901N004612200019N0500001N1+02901+02041101421ADDGF104991041021004501001001KA1240N+02121MA1999999100401MD1999999-0031REMSYN076AAXX  22124 82392 32499 40909 10290 20204 30040 40142 84200 333 20212 59003;
0156823920999992005082218004-03700-040350FM-12+008399999V0200501N004119999999N0500001N1+03401+01851100951ADDGF106991999021004501001001MA1999999099941MD1999999+0081REMSYN070AAXX  22184 82392 32499 60508 10340 20185 39994 40095 84200 333 58008;EQDQ01+000042SCOTLC
0178823920999992005082300004-03700-040350FM-12+008399999V0203601N001512200019N0040001N1+02621+02031101291ADDGA1001+999999999GF100991001001999999001001KA1240M+03531MA1999999100271MD1999999+0051REMSYN082AAXX  23004 82392 32996 03603 10262 20203 30027 40129 333 10353 29060 55093 58005;
0175823920999992005082312004-03700-040350FM-12+008399999V0200901N003119999999N0500001N1+02741+02261101461ADDGF106991999021004501001001KA1240N+02181MA1999999100441MD1999999+0041REMSYN076AAXX  23124 82392 32499 60906 10274 20226 30044 40146 84200 333 20218 58004;EQDQ01+000042SCOTLC
0137823920999992005082318004-03700-040350FM-12+008399999V0200901N000510042019N0500001N1+03431+01431101001ADDGF105991051021004501001001MA1999999099991MD1999999-0041REMSYN070AAXX  23184 82392 32499 50901 10343 20143 39999 40100 85200 333 59004;
0178823920999992005082400004-03700-040350FM-12+008399999V0203601N002612200019N0040001N1+02661+01971101271ADDGA1001+999999999GF100991001001999999001001KA1240M+03581MA1999999100251MD1999999-0021REMSYN082AAXX  24004 82392 32996 03605 10266 20197 30025 40127 333 10358 29059 55102 59002;
0156823920999992005082412004-03700-040350FM-12+008399999V0200901N004619999999N0500001N1+02861+02231101481ADDGF105991041021999999031001KA1240N+02261MA1999999100451MD1999999+0011REMSYN076AAXX  24124 82392 32999 50909 10286 20223 30045 40148 84230 333 20226 58001;
0156823920999992005082418004-03700-040350FM-12+008399999V0200901N002619999999N0500001N1+03441+01581101051ADDGF105991999021004501001001MA1999999100041MD1999999+0041REMSYN070AAXX  24184 82392 32499 50905 10344 20158 30004 40105 83200 333 58004;EQDQ01+000032SCOTLC
0197823920999992005082500004-03700-040350FM-12+008399999V0203601N001012200019N0040001N1+02661+01971101341ADDGA1001+999999999GF100991001001999999001001KA1240M+99999MA1999999100321MD1999999+0071REMSYN082AAXX  25004 82392 32996 03602 10266 20197 30032 40134 333 10137 29059 55104 58007;EQDQ01 +01372ATMX  
0156823920999992005082512004-03700-040350FM-12+008399999V0200901N001010042019N0500001N1+02861+01981101521ADDGF106991061021004501001001KA1240N+02201MA1999999100491MD1999999+0041REMSYN076AAXX  25124 82392 32499 60902 10286 20198 30049 40152 86200 333 20220 58004;
0137823920999992005082518004-03700-040350FM-12+008399999V0200901N000512200019N0500001N1+03591+01571100901ADDGF103991031011008001001001MA1999999099891MD1999999-0151REMSYN070AAXX  25184 82392 32599 30901 10359 20157 39989 40090 83100 333 59015;
0178823920999992005082600004-03700-040350FM-12+008399999V0203601N004612200019N0040001N1+02701+02331101161ADDGA1001+999999999GF100991001001999999001001KA1240M+03641MA1999999100141MD1999999-0181REMSYN082AAXX  26004 82392 32996 03609 10270 20233 30014 40116 333 10364 29062 55108 59018;
0156823920999992005082612004-03700-040350FM-12+008399999V0201401N001012200019N0500001N1+02801+02201101371ADDGF101991011011004501001001KA1240N+02241MA1999999100141MD1999999-0141REMSYN076AAXX  26124 82392 32499 11402 10280 20220 30014 40137 81100 333 20224 59014;
0137823920999992005082618004-03700-040350FM-12+008399999V0201401N001012200019N0500001N1+03641+01651100871ADDGF104991041011004501001001MA1999999099861MD1999999-0031REMSYN070AAXX  26184 82392 32499 41402 10364 20165 39986 40087 84100 333 59003;
0178823920999992005082700004-03700-040350FM-12+008399999V0203601N005712200019N0040001N1+02621+02351101231ADDGA1001+999999999GF100991001001999999001001KA1240M+03681MA1999999100211MD1999999+0071REMSYN082AAXX  27004 82392 32996 03611 10262 20235 30021 40123 333 10368 29068 55081 58007;
0156823920999992005082712004-03700-040350FM-12+008399999V0200901N002612200019N0500001N1+02941+01941101491ADDGF103991031021004501001001KA1240N+02201MA1999999100461MD1999999+0111REMSYN076AAXX  27124 82392 32499 30905 10294 20194 30046 40149 83200 333 20220 58011;
0137823920999992005082718004-03700-040350FM-12+008399999V0200901N001012200019N0500001N1+03601+01671100931ADDGF102991021011008001001001MA1999999099921MD1999999+0061REMSYN070AAXX  27184 82392 32599 20902 10360 20167 39992 40093 82100 333 58006;
0178823920999992005082800004-03700-040350FM-12+008399999V0203601N004612200019N0040001N1+02601+02011101281ADDGA1001+999999999GF100991001001999999001001KA1240M+03641MA1999999100261MD1999999+0051REMSYN082AAXX  28004 82392 32996 03609 10260 20201 30026 40128 333 10364 29057 55106 58005;
0156823920999992005082812004-03700-040350FM-12+008399999V0201401N000512200019N0500001N1+02871+01831101461ADDGF102991021011004501001001KA1240N+01981MA1999999100441MD1999999-0021REMSYN076AAXX  28124 82392 32499 21401 10287 20183 30044 40146 82100 333 20198 59002;
0137823920999992005082818004-03700-040350FM-12+008399999V0201401N000512200019N0500001N1+03511+01551100831ADDGF104991041011004501001001MA1999999099821MD1999999-0101REMSYN070AAXX  28184 82392 32499 41401 10351 20155 39982 40083 84100 333 59010;
0178823920999992005082900004-03700-040350FM-12+008399999V0203601N001012200019N0040001N1+02701+01991101141ADDGA1001+999999999GF100991001001999999001001KA1240M+03541MA1999999100121MD1999999-0141REMSYN082AAXX  29004 82392 32996 03602 10270 20199 30012 40114 333 10354 29054 55104 59014;
0156823920999992005082912004-03700-040350FM-12+008399999V0201401N001012200019N0500001N1+02901+02041101321ADDGF101991011011004501001001KA1240N+02301MA1999999100301MD1999999-0141REMSYN076AAXX  29124 82392 32499 11402 10290 20204 30030 40132 81100 333 20230 59014;
0137823920999992005082918004-03700-040350FM-12+008399999V0200501N004612200019N0500001N1+03561+01641100861ADDGF102991021011004501001001MA1999999099851MD1999999+0031REMSYN070AAXX  29184 82392 32499 20509 10356 20164 39985 40086 82100 333 58003;
0178823920999992005083000004-03700-040350FM-12+008399999V0203601N000512200019N0040001N1+02721+01881101221ADDGA1001+999999999GF100991001001999999001001KA1240M+03611MA1999999100201MD1999999+0081REMSYN082AAXX  30004 82392 32996 03601 10272 20188 30020 40122 333 10361 29053 55099 58008;
0156823920999992005083012004-03700-040350FM-12+008399999V0201401N001512200019N0500001N1+02861+02141101361ADDGF103991031021004501001001KA1240N+02001MA1999999100341MD1999999+0041REMSYN076AAXX  30124 82392 32499 31403 10286 20214 30034 40136 83200 333 20200 58004;
0137823920999992005083018004-03700-040350FM-12+008399999V0200901N001512200019N0500001N1+03591+01411100821ADDGF101991011011004501001001MA1999999099811MD1999999-0041REMSYN070AAXX  30184 82392 32499 10903 10359 20141 39981 40082 81100 333 59004;
0178823920999992005083100004-03700-040350FM-12+008399999V0203601N001012200019N0040001N1+02781+01671101181ADDGA1001+999999999GF100991001001999999001001KA1240M+03631MA1999999100161MD1999999-0041REMSYN082AAXX  31004 82392 32996 03602 10278 20167 30016 40118 333 10363 29049 55104 59004;
0156823920999992005083112004-03700-040350FM-12+008399999V0200901N002112200019N0500001N1+02941+01911101341ADDGF101991011011004501001001KA1240N+02181MA1999999100331MD1999999-0011REMSYN076AAXX  31124 82392 32499 10904 10294 20191 30033 40134 81100 333 20218 59001;
0137823920999992005083118004-03700-040350FM-12+008399999V0200901N001512200019N0500001N1+03641+01501100731ADDGF101991011011004501001001MA1999999099721MD1999999-0091REMSYN070AAXX  31184 82392 32499 10903 10364 20150 39972 40073 81100 333 59009;
0178823920999992005090100004-03700-040350FM-12+008399999V0203601N001012200019N0040001N1+02641+01981101071ADDGA1001+999999999GF100991001001999999001001KA1240M+03641MA1999999100051MD1999999-0111REMSYN082AAXX  01004 82392 32996 03602 10264 20198 30005 40107 333 10364 29054 55107 59011;
0156823920999992005090112004-03700-040350FM-12+008399999V0201401N000512200019N0500001N1+02911+01671101391ADDGF101991011011004501001001KA1240N+02261MA1999999100371MD1999999+0041REMSYN076AAXX  01124 82392 32499 11401 10291 20167 30037 40139 81100 333 20226 58004;
0137823920999992005090118004-03700-040350FM-12+008399999V0200901N000512200019N0500001N1+03531+01521100871ADDGF101991011011004501001001MA1999999099861MD1999999+0141REMSYN070AAXX  01184 82392 32499 10901 10353 20152 39986 40087 81100 333 58014;
0178823920999992005090200004-03700-040350FM-12+008399999V0203601N004612200019N0040001N1+02661+02091101221ADDGA1001+999999999GF100991001001999999001001KA1240M+03561MA1999999100201MD1999999+0151REMSYN082AAXX  02004 82392 32996 03609 10266 20209 30020 40122 333 10356 29055 55106 58015;
0156823920999992005090212004-03700-040350FM-12+008399999V0200501N002112200019N0500001N1+02901+02101101371ADDGF101991011011004501001001KA1240N+02021MA1999999100351MD1999999-0021REMSYN076AAXX  02124 82392 32499 10504 10290 20210 30035 40137 81100 333 20202 59002;
0137823920999992005090218004-03700-040350FM-12+008399999V0200901N001012200019N0500001N1+03631+01321100851ADDGF101991011011004501001001MA1999999099841MD1999999-0021REMSYN070AAXX  02184 82392 32499 10902 10363 20132 39984 40085 81100 333 59002;
0178823920999992005090300004-03700-040350FM-12+008399999V0203601N004612200019N0040001N1+02681+02221101221ADDGA1001+999999999GF100991001001999999001001KA1240M+03721MA1999999100201MD1999999+0001REMSYN082AAXX  03004 82392 32996 03609 10268 20222 30020 40122 333 10372 29060 55101 58000;
0156823920999992005090312004-03700-040350FM-12+008399999V0200901N001010042019N0500001N1+02901+01841101481ADDGF105991051021004501001001KA1240N+02171MA1999999100451MD1999999+0101REMSYN076AAXX  03124 82392 32499 50902 10290 20184 30045 40148 85200 333 20217 58010;
0137823920999992005090318004-03700-040350FM-12+008399999V0201401N001012200019N0500001N1+03591+01621100871ADDGF104991041021008001001001MA1999999099861MD1999999+0021REMSYN070AAXX  03184 82392 32599 41402 10359 20162 39986 40087 84200 333 58002;
0178823920999992005090400004-03700-040350FM-12+008399999V0203601N003112200019N0040001N1+02621+02051101261ADDGA1001+999999999GF100991001001999999001001KA1240M+03591MA1999999100241MD1999999+0041REMSYN082AAXX  04004 82392 32996 03606 10262 20205 30024 40126 333 10359 29057 55105 58004;
0175823920999992005090412004-03700-040350FM-12+008399999V0200901N004612200019N0500001N1+02881+02181101481ADDGF102991999011004501001001KA1240N+02281MA1999999100451MD1999999+0001REMSYN076AAXX  04124 82392 32499 20909 10288 20218 30045 40148 81100 333 20228 58000;EQDQ01+000012SCOTLC
0137823920999992005090418004-03700-040350FM-12+008399999V0200901N002612200019N0500001N1+03621+01481100891ADDGF103991031021004501001001MA1999999099881MD1999999+0021REMSYN070AAXX  04184 82392 32499 30905 10362 20148 39988 40089 83200 333 58002;
0178823920999992005090500004-03700-040350FM-12+008399999V0203601N003112200019N0040001N1+02641+02051101261ADDGA1001+999999999GF100991001001999999001001KA1240M+03681MA1999999100241MD1999999+0001REMSYN082AAXX  05004 82392 32996 03606 10264 20205 30024 40126 333 10368 29058 55104 58000;
0156823920999992005090512004-03700-040350FM-12+008399999V0201401N000512200019N0500001N1+02841+02041101481ADDGF101991011011004501001001KA1240N+02061MA1999999100451MD1999999+0001REMSYN076AAXX  05124 82392 32499 11401 10284 20204 30045 40148 81100 333 20206 58000;
0137823920999992005090518004-03700-040350FM-12+008399999V0201401N001012200019N0500001N1+03681+01411100891ADDGF102991021011004501001001MA1999999099881MD1999999+0001REMSYN070AAXX  05184 82392 32499 21402 10368 20141 39988 40089 82100 333 58000;
0178823920999992005090600004-03700-040350FM-12+008399999V0203601N001012200019N0040001N1+02661+01171101241ADDGA1001+999999999GF100991001001999999001001KA1240M+03741MA1999999100221MD1999999-0021REMSYN082AAXX  06004 82392 32996 03602 10266 20117 30022 40124 333 10374 29055 55104 59002;
0156823920999992005090612004-03700-040350FM-12+008399999V0200901N001512200019N0500001N1+02941+02001101421ADDGF101991011011004501001001KA1240N+02201MA1999999100401MD1999999-0051REMSYN076AAXX  06124 82392 32499 10903 10294 20200 30040 40142 81100 333 20220 59005;
0137823920999992005090618004-03700-040350FM-12+008399999V0200901N001012200019N0500001N1+03641+01441100861ADDGF103991031011004501001001MA1999999099851MD1999999-0031REMSYN070AAXX  06184 82392 32499 30902 10364 20144 39985 40086 83100 333 59003;
0178823920999992005090700004-03700-040350FM-12+008399999V0203601N001012200019N0040001N1+02661+02071101231ADDGA1001+999999999GF100991001001999999001001KA1240M+03691MA1999999100211MD1999999-0011REMSYN082AAXX  07004 82392 32996 03602 10266 20207 30021 40123 333 10369 29056 55101 59001;
0156823920999992005090712004-03700-040350FM-12+008399999V0200501N002610450019N0500001N1+02901+02171101531ADDGF105991031021004501031001KA1240N+02301MA1999999100501MD1999999+0101REMSYN076AAXX  07124 82392 32499 50505 10290 20217 30050 40153 83230 333 20230 58010;
0137823920999992005090718004-03700-040350FM-12+008399999V0201401N003112200019N0500001N1+03601+01721101071ADDGF102991021011004501001001MA1999999100061MD1999999+0211REMSYN070AAXX  07184 82392 32499 21406 10360 20172 30006 40107 82100 333 58021;
0178823920999992005090800004-03700-040350FM-12+008399999V0203601N001012200019N0040001N1+02721+01771101331ADDGA1001+999999999GF100991001001999999001001KA1240M+03621MA1999999100311MD1999999+0101REMSYN082AAXX  08004 82392 32996 03602 10272 20177 30031 40133 333 10362 29053 55100 58010;
0156823920999992005090812004-03700-040350FM-12+008399999V0200901N001012200019N0500001N1+02991+01811101591ADDGF104991041021004501001001KA1240N+02041MA1999999100561MD1999999+0061REMSYN076AAXX  08124 82392 32499 40902 10299 20181 30056 40159 84200 333 20204 58006;
0137823920999992005090818004-03700-040350FM-12+008399999V0201401N001012200019N0500001N1+03571+01551101011ADDGF102991021011004501001001MA1999999100001MD1999999-0061REMSYN070AAXX  08184 82392 32499 21402 10357 20155 30000 40101 82100 333 59006;
0178823920999992005090900004-03700-040350FM-12+008399999V0203601N004112200019N0040001N1+02641+02291101361ADDGA1001+999999999GF100991001001999999001001KA1240M+03681MA1999999100341MD1999999+0031REMSYN082AAXX  09004 82392 32996 03608 10264 20229 30034 40136 333 10368 29060 55102 58003;
0156823920999992005090912004-03700-040350FM-12+008399999V0201401N002612200019N0500001N1+02921+01951101531ADDGF101991011011004501001001KA1240N+02281MA1999999100501MD1999999-0061REMSYN076AAXX  09124 82392 32499 11405 10292 20195 30050 40153 81100 333 20228 59006;
0137823920999992005090918004-03700-040350FM-12+008399999V0200901N001012200019N0500001N1+03591+01351101031ADDGF101991011011004501001001MA1999999100021MD1999999+0021REMSYN070AAXX  09184 82392 32499 10902 10359 20135 30002 40103 81100 333 58002;
0178823920999992005091000004-03700-040350FM-12+008399999V0203601N004612200019N0040001N1+02601+02331101321ADDGA1001+999999999GF100991001001999999001001KA1240M+03621MA1999999100301MD1999999-0041REMSYN082AAXX  10004 82392 32496 03609 10260 20233 30030 40132 333 10362 29063 55108 59004;
0156823920999992005091012004-03700-040350FM-12+008399999V0201401N001512200019N0500001N1+02901+02041101641ADDGF101991011011004501001001KA1240N+02181MA1999999100611MD1999999+0111REMSYN076AAXX  10124 82392 32499 11403 10290 20204 30061 40164 81100 333 20218 58011;
0137823920999992005091018004-03700-040350FM-12+008399999V0200901N003112200019N0500001N1+03601+01461101041ADDGF101991011011004501001001MA1999999100031MD1999999+0011REMSYN070AAXX  10184 82392 32499 10906 10360 20146 30003 40104 81100 333 58001;
0178823920999992005091100004-03700-040350FM-12+008399999V0203601N004612200019N0040001N1+02601+02231101331ADDGA1001+999999999GF100991001001999999001001KA1240M+03621MA1999999100301MD1999999+0001REMSYN082AAXX  11004 82392 32996 03609 10260 20223 30030 40133 333 10362 29062 55109 58000;
0156823920999992005091112004-03700-040350FM-12+008399999V0200501N001012200019N0500001N1+02901+02161101581ADDGF101991011011004501001001KA1240N+02161MA1999999100551MD1999999-0061REMSYN076AAXX  11124 82392 32499 10502 10290 20216 30055 40158 81100 333 20216 59006;
0178823920999992005091200004-03700-040350FM-12+008399999V0203601N001012200019N0040001N1+02631+01691101371ADDGA1001+999999999GF100991001001999999001001KA1240M+03571MA1999999100351MD1999999+0051REMSYN082AAXX  12004 82392 32496 03602 10263 20169 30035 40137 333 10357 29046 55108 58005;
0156823920999992005091212004-03700-040350FM-12+008399999V0200501N001012200019N0500001N1+02841+02141101631ADDGF102991021011004501001001KA1240N+02041MA1999999100601MD1999999+0051REMSYN076AAXX  12124 82392 32499 20502 10284 20214 30060 40163 82100 333 20204 58005;
0137823920999992005091218004-03700-040350FM-12+008399999V0200901N001512200019N0500001N1+03521+01501101041ADDGF103991031021004501001001MA1999999100031MD1999999+0031REMSYN070AAXX  12184 82392 32499 30903 10352 20150 30003 40104 83200 333 58003;
0178823920999992005091300004-03700-040350FM-12+008399999V0203601N001012200019N0040001N1+02641+01721101401ADDGA1001+999999999GF100991001001999999001001KA1240M+03561MA1999999100381MD1999999+0031REMSYN082AAXX  13004 82392 32996 03602 10264 20172 30038 40140 333 10356 29053 55106 58003;
0156823920999992005091312004-03700-040350FM-12+008399999V0201801N001012200019N0500001N1+02901+02041101441ADDGF103991021011004501031001KA1240N+02041MA1999999100421MD1999999-0181REMSYN076AAXX  13124 82392 32499 31802 10290 20204 30042 40144 82130 333 20204 59018;
0137823920999992005091318004-03700-040350FM-12+008399999V0200901N001512200019N0500001N1+03611+01481100871ADDGF101991011011004501001001MA1999999099861MD1999999-0171REMSYN070AAXX  13184 82392 32499 10903 10361 20148 39986 40087 81100 333 59017;
0156823920999992005091412004-03700-040350FM-12+008399999V0201401N001012200019N0500001N1+02941+02031101531ADDGF104991031021004501031001KA1240N+02181MA1999999100501MD1999999+0081REMSYN076AAXX  14124 82392 32499 41402 10294 20203 30050 40153 83230 333 20218 58008;
0137823920999992005091418004-03700-040350FM-12+008399999V0200901N001012200019N0500001N1+03621+01531100891ADDGF103991021011004501001011MA1999999099881MD1999999+0021REMSYN070AAXX  14184 82392 32499 30902 10362 20153 39988 40089 82101 333 58002;
0168823920999992005091500004-03700-040350FM-12+008399999V0200501N002612200019N0040001N1+02761+01861101221ADDGF102991021001017501001011KA1240M+03661MA1999999100211MD1999999+0001REMSYN088AAXX  15004 82392 32796 20505 10276 20186 30021 40122 82001 333 10366 29051 55100 58000;
0156823920999992005091512004-03700-040350FM-12+008399999V0200901N001010042019N0500001N1+02861+01951101621ADDGF106991051041004501001011KA1240N+02161MA1999999100591MD1999999+0091REMSYN076AAXX  15124 82392 32499 60902 10286 20195 30059 40162 85401 333 20216 58009;
0137823920999992005091518004-03700-040350FM-12+008399999V0201801N001012200019N0500001N1+03641+01501100981ADDGF103991021021004501031001MA1999999099971MD1999999+0091REMSYN070AAXX  15184 82392 32499 31802 10364 20150 39997 40098 82230 333 58009;
0178823920999992005091600004-03700-040350FM-12+008399999V0200501N003112200019N0040001N1+02701+02331101361ADDGA1001+999999999GF100991001001999999001001KA1240M+03681MA1999999100341MD1999999+0131REMSYN082AAXX  16004 82392 32996 00506 10270 20233 30034 40136 333 10368 29062 55097 58013;
0156823920999992005091612004-03700-040350FM-12+008399999V0200501N003112200019N0500001N1+02961+01961101631ADDGF103991031021004501001001KA1240N+02281MA1999999100601MD1999999+0011REMSYN076AAXX  16124 82392 32499 30506 10296 20196 30060 40163 83200 333 20228 58001;
0137823920999992005091618004-03700-040350FM-12+008399999V0201801N000512200019N0500001N1+03571+01601100931ADDGF102991021011004501001001MA1999999099921MD1999999-0051REMSYN070AAXX  16184 82392 32499 21801 10357 20160 39992 40093 82100 333 59005;
0178823920999992005091700004-03700-040350FM-12+008399999V0203601N004612200019N0040001N1+02581+02311101351ADDGA1001+999999999GF100991001001999999001001KA1240M+03641MA1999999100331MD1999999-0011REMSYN082AAXX  17004 82392 32996 03609 10258 20231 30033 40135 333 10364 29064 55098 59001;
0156823920999992005091712004-03700-040350FM-12+008399999V0200901N000512200019N0500001N1+02831+01881101491ADDGF104991041021004501001001KA1240N+02301MA1999999100461MD1999999-0141REMSYN076AAXX  17124 82392 32499 40901 10283 20188 30046 40149 84200 333 20230 59014;
0137823920999992005091718004-03700-040350FM-12+008399999V0200901N000512200019N0500001N1+03621+01531100781ADDGF102991021011004501001001MA1999999099771MD1999999-0151REMSYN070AAXX  17184 82392 32499 20901 10362 20153 39977 40078 82100 333 59015;
0168823920999992005091800004-03700-040350FM-12+008399999V0203601N002612200019N0040001N1+02601+01871101201ADDGF101991011021008001001001KA1240M+03671MA1999999100181MD1999999-0151REMSYN088AAXX  18004 82392 32596 13605 10260 20187 30018 40120 81200 333 10367 29053 55099 59015;
0175823920999992005091812004-03700-040350FM-12+008399999V0201401N001019999999N0500001N1+02761+02161101511ADDGF106991999021004501001001KA1240N+02201MA1999999100481MD1999999+0021REMSYN076AAXX  18124 82392 32499 61402 10276 20216 30048 40151 84200 333 20220 58002;EQDQ01+000042SCOTLC
0137823920999992005091818004-03700-040350FM-12+008399999V0200901N001012200019N0500001N1+03521+01741100981ADDGF102991021011008001001001MA1999999099891MD1999999+0121REMSYN070AAXX  18184 82392 32599 20902 10352 20174 39989 40098 82100 333 58012;
0168823920999992005091900004-03700-040350FM-12+008399999V0203601N004612200019N0040001N1+02601+02391101321ADDGF104991021011008001031001KA1240M+03641MA1999999100301MD1999999+0121REMSYN088AAXX  19004 82392 32596 43609 10260 20239 30030 40132 82130 333 10364 29070 55079 58012;
0156823920999992005091912004-03700-040350FM-12+008399999V0201401N001012200019N0040001N1+02921+02221101551ADDGF103991031011004501001001KA1240N+02401MA1999999100521MD1999999+0041REMSYN076AAXX  19124 82392 32496 31402 10292 20222 30052 40155 83100 333 20240 58004;
0137823920999992005091918004-03700-040350FM-12+008399999V0200901N003112200019N0500001N1+03541+01521100981ADDGF104991021011004501031001MA1999999099971MD1999999+0081REMSYN070AAXX  19184 82392 32499 40906 10354 20152 39997 40098 82130 333 58008;
0168823920999992005092000004-03700-040350FM-12+008399999V0203601N002612200019N0040001N1+02601+01941101441ADDGF102991021001008001031001KA1240M+03691MA1999999100421MD1999999+0121REMSYN088AAXX  20004 82392 32596 23605 10260 20194 30042 40144 82030 333 10369 29058 55094 58012;
0156823920999992005092012004-03700-040350FM-12+008399999V0200901N004612200019N0500001N1+02861+01921101511ADDGF104991021011004501031001KA1240N+02121MA1999999100481MD1999999-0041REMSYN076AAXX  20124 82392 32499 40909 10286 20192 30048 40151 82130 333 20212 59004;
0137823920999992005092018004-03700-040350FM-12+008399999V0200901N002612200019N0500001N1+03571+01441100881ADDGF101991011011004501001001MA1999999099871MD1999999-0101REMSYN070AAXX  20184 82392 32499 10905 10357 20144 39987 40088 81100 333 59010;
0178823920999992005092100004-03700-040350FM-12+008399999V0203601N002612200019N0040001N1+02661+01681101251ADDGA1001+999999999GF100991001001999999001001KA1240M+03661MA1999999100231MD1999999-0191REMSYN082AAXX  21004 82392 32996 03605 10266 20168 30023 40125 333 10366 29049 55107 59019;
0156823920999992005092112004-03700-040350FM-12+008399999V0200901N002612200019N0500001N1+02801+02201101321ADDGF103991031021004501001001KA1240N+02041MA1999999100301MD1999999-0181REMSYN076AAXX  21124 82392 32499 30905 10280 20220 30030 40132 83200 333 20204 59018;
0137823920999992005092118004-03700-040350FM-12+008399999V0200901N004612200019N0500001N1+03521+01501100761ADDGF102991021011004501001001MA1999999099751MD1999999-0121REMSYN070AAXX  21184 82392 32499 20909 10352 20150 39975 40076 82100 333 59012;
0178823920999992005092200004-03700-040350FM-12+008399999V0203601N003112200019N0040001N1+02581+02011101091ADDGA1001+999999999GF100991001001999999001001KA1240M+03641MA1999999100071MD1999999-0161REMSYN082AAXX  22004 82392 32996 03606 10258 20201 30007 40109 333 10364 29061 55101 59016;
0156823920999992005092212004-03700-040350FM-12+008399999V0200501N001010042019N0500001N1+02781+02011101231ADDGF105991051021004501001001KA1240N+02261MA1999999100211MD1999999-0091REMSYN076AAXX  22124 82392 32499 50502 10278 20201 30021 40123 85200 333 20226 59009;
0137823920999992005092218004-03700-040350FM-12+008399999V0201801N000512200019N0500001N1+03661+01671100631ADDGF101991011011004501001001MA1999999099631MD1999999-0121REMSYN070AAXX  22184 82392 32499 11801 10366 20167 39963 40063 81100 333 59012;
0178823920999992005092300004-03700-040350FM-12+008399999V0200501N004612200019N0040001N1+02581+02401101141ADDGA1001+999999999GF100991001001999999001001KA1240M+03681MA1999999100121MD1999999+0051REMSYN082AAXX  23004 82392 32996 00509 10258 20240 30012 40114 333 10368 29068 55105 58005;
0156823920999992005092312004-03700-040350FM-12+008399999V0200901N002610450019N0500001N1+02721+01901101381ADDGF107991041041004501031001KA1240N+02181MA1999999100361MD1999999+0151REMSYN076AAXX  23124 82392 32499 70905 10272 20190 30036 40138 84430 333 20218 58015;
0137823920999992005092318004-03700-040350FM-12+008399999V0201401N001010042019N0500001N1+03191+01821100941ADDGF107991051021004501011001MA1999999099921MD1999999+0291REMSYN070AAXX  23184 82392 32499 71402 10319 20182 39992 40094 85210 333 58029;
0178823920999992005092400004-03700-040350FM-12+008399999V0200501N005712200019N0040001N1+02601+01821101251ADDGA1001+999999999GF100991001001999999001001KA1240M+03241MA1999999100231MD1999999+0111REMSYN082AAXX  24004 82392 32996 00511 10260 20182 30023 40125 333 10324 29057 55030 58011;
0156823920999992005092412004-03700-040350FM-12+008399999V0200501N005112200019N0500001N1+02901+01901101361ADDGF102991021011004501001001KA1240N+02041MA1999999100341MD1999999-0021REMSYN076AAXX  24124 82392 32499 20510 10290 20190 30034 40136 82100 333 20204 59002;
0137823920999992005092418004-03700-040350FM-12+008399999V0200901N001012200019N0500001N1+03461+01451100861ADDGF102991021011004501001001MA1999999099851MD1999999-0071REMSYN070AAXX  24184 82392 32499 20902 10346 20145 39985 40086 82100 333 59007;
0178823920999992005092500004-03700-040350FM-12+008399999V0200501N004112200019N0040001N1+02581+01941101221ADDGA1001+999999999GF100991001001999999001001KA1240M+03541MA1999999100201MD1999999-0031REMSYN082AAXX  25004 82392 32996 00508 10258 20194 30020 40122 333 10354 29055 55101 59003;
0156823920999992005092512004-03700-040350FM-12+008399999V0200901N003612200019N0500001N1+02961+01711101411ADDGF101991011011004501001001KA1240N+02121MA1999999100401MD1999999+0061REMSYN076AAXX  25124 82392 32499 10907 10296 20171 30040 40141 81100 333 20212 58006;
0137823920999992005092518004-03700-040350FM-12+008399999V0200901N001012200019N0500001N1+03611+01301100841ADDGF101991011011004501001001MA1999999099831MD1999999-0021REMSYN070AAXX  25184 82392 32499 10902 10361 20130 39983 40084 81100 333 59002;
0178823920999992005092600004-03700-040350FM-12+008399999V0203601N001012200019N0040001N1+02641+01601101221ADDGA1001+999999999GF100991001001999999001001KA1240M+03631MA1999999100201MD1999999+0001REMSYN082AAXX  26004 82392 32996 03602 10264 20160 30020 40122 333 10363 29045 55109 58000;
0156823920999992005092612004-03700-040350FM-12+008399999V0200901N003112200019N0500001N1+02961+01901101421ADDGF101991011011004501001001KA1240N+02021MA1999999100401MD1999999+0001REMSYN076AAXX  26124 82392 32499 10906 10296 20190 30040 40142 81100 333 20202 58000;
0137823920999992005092618004-03700-040350FM-12+008399999V0200901N002612200019N0500001N1+03681+01161100891ADDGF102991021011004501001001MA1999999099881MD1999999+0051REMSYN070AAXX  26184 82392 32499 20905 10368 20116 39988 40089 82100 333 58005;
0178823920999992005092700004-03700-040350FM-12+008399999V0203601N001012200019N0040001N1+02761+01771101231ADDGA1001+999999999GF100991001001999999001001KA1240M+03701MA1999999100221MD1999999+0021REMSYN082AAXX  27004 82392 32996 03602 10276 20177 30022 40123 333 10370 29046 55107 58002;
0156823920999992005092712004-03700-040350FM-12+008399999V0201801N002110042019N0500001N1+02881+02051101561ADDGF106991051041004501031001KA1240N+02141MA1999999100531MD1999999+0131REMSYN076AAXX  27124 82392 32499 61804 10288 20205 30053 40156 85430 333 20214 58013;
0137823920999992005092718004-03700-040350FM-12+008399999V0200901N002112200019N0500001N1+03541+01621100961ADDGF104991041021004501001001MA1999999099951MD1999999+0071REMSYN070AAXX  27184 82392 32499 40904 10354 20162 39995 40096 84200 333 58007;
0178823920999992005092800004-03700-040350FM-12+008399999V0203601N001012200019N0040001N1+02711+01881101331ADDGA1001+999999999GF100991001001999999001001KA1240M+03641MA1999999100311MD1999999+0091REMSYN082AAXX  28004 82392 32996 03602 10271 20188 30031 40133 333 10364 29053 55074 58009;
0156823920999992005092812004-03700-040350FM-12+008399999V0201401N002610450019N0500001N1+02881+01731101531ADDGF105991041021004501031001KA1240N+02201MA1999999100501MD1999999-0031REMSYN076AAXX  28124 82392 32499 51405 10288 20173 30050 40153 84230 333 20220 59003;
0137823920999992005092818004-03700-040350FM-12+008399999V0201401N001012200019N0500001N1+03521+01161100821ADDGF104991041021004501001001MA1999999099811MD1999999-0141REMSYN070AAXX  28184 82392 32499 41402 10352 20116 39981 40082 84200 333 59014;
0178823920999992005092900004-03700-040350FM-12+008399999V0203601N001512200019N0040001N1+02631+01881101211ADDGA1001+999999999GF100991001001999999001001KA1240M+03561MA1999999100191MD1999999-0121REMSYN082AAXX  29004 82392 32996 03603 10263 20188 30019 40121 333 10356 29050 55092 59012;
0156823920999992005092912004-03700-040350FM-12+008399999V0201401N002612200019N0500001N1+02991+01741101431ADDGF103991031021004501001001KA1240N+02241MA1999999100411MD1999999-0091REMSYN076AAXX  29124 82392 32499 31405 10299 20174 30041 40143 83200 333 20224 59009;
0137823920999992005092918004-03700-040350FM-12+008399999V0201401N001512200019N0500001N1+03541+01171100791ADDGF101991011001008001031001MA1999999099781MD1999999-0031REMSYN070AAXX  29184 82392 32599 11403 10354 20117 39978 40079 81030 333 59003;
0178823920999992005093000004-03700-040350FM-12+008399999V0200501N003112200019N0040001N1+02701+01911101141ADDGA1001+999999999GF100991001001999999001001KA1240M+03621MA1999999100121MD1999999-0071REMSYN082AAXX  30004 82392 32996 00506 10270 20191 30012 40114 333 10362 29049 55106 59007;
0156823920999992005093012004-03700-040350FM-12+008399999V0200901N002112200019N0500001N1+02981+01951101461ADDGF102991021011004501001001KA1240N+02121MA1999999100441MD1999999+0031REMSYN076AAXX  30124 82392 32499 20904 10298 20195 30044 40146 82100 333 20212 58003;
0137823920999992005093018004-03700-040350FM-12+008399999V0201401N001512200019N0500001N1+03661+01621100811ADDGF104991041021004501001001MA1999999099801MD1999999+0021REMSYN070AAXX  30184 82392 32499 41403 10366 20162 39980 40081 84200 333 58002;
0178823920999992005100100004-03700-040350FM-12+008399999V0203601N004112200019N0040001N1+02761+01861101161ADDGA1001+999999999GF100991001001999999001001KA1240M+03701MA1999999100151MD1999999+0031REMSYN082AAXX  01004 82392 32996 03608 10276 20186 30015 40116 333 10370 29050 55106 58003;
0156823920999992005100118004-03700-040350FM-12+008399999V0200901N000512200019N0500001N1+03731+01581100771ADDGF103991999011004501001001MA1999999099761MD1999999-0041REMSYN070AAXX  01184 82392 32499 30901 10373 20158 39976 40077 82100 333 59004;EQDQ01+000022SCOTLC
0178823920999992005100200004-03700-040350FM-12+008399999V0203601N001012200019N0040001N1+02631+02121101221ADDGA1001+999999999GF100991001001999999001001KA1240M+03841MA1999999100201MD1999999+0051REMSYN082AAXX  02004 82392 32996 03602 10263 20212 30020 40122 333 10384 29058 55099 58005;
0156823920999992005100212004-03700-040350FM-12+008399999V0200901N002612200019N0500001N1+03021+01861101321ADDGF101991011011004501001001KA1240N+02221MA1999999100301MD1999999-0011REMSYN076AAXX  02124 82392 32499 10905 10302 20186 30030 40132 81100 333 20222 59001;
0137823920999992005100218004-03700-040350FM-12+008399999V0200901N002112200019N0500001N1+03821+01111101601ADDGF101991011011004501001001MA1999999099601MD1999999-0161REMSYN070AAXX  02184 82392 32499 10904 10382 20111 39960 40160 81100 333 59016;
0178823920999992005100300004-03700-040350FM-12+008399999V0200501N005712200019N0040001N1+02601+01891101081ADDGA1001+999999999GF100991001001999999001001KA1240M+03841MA1999999100061MD1999999-0141REMSYN082AAXX  03004 82392 32996 00511 10260 20189 30006 40108 333 10384 29050 55099 59014;
0156823920999992005100312004-03700-040350FM-12+008399999V0200901N005112200019N0040001N1+02941+01791101321ADDGF103991021011004501001011KA1240N+02311MA1999999100301MD1999999+0001REMSYN076AAXX  03124 82392 32496 30910 10294 20179 30030 40132 82101 333 20231 58000;
0137823920999992005100318004-03700-040350FM-12+008399999V0200501N005712200019N0500001N1+03681+01161100621ADDGF102991021011004501001001MA1999999099621MD1999999+0021REMSYN070AAXX  03184 82392 32499 20511 10368 20116 39962 40062 82100 333 58002;
0178823920999992005100400004-03700-040350FM-12+008399999V0203601N002612200019N0040001N1+02621+01931101091ADDGA1001+999999999GF100991001001999999001001KA1240M+03721MA1999999100071MD1999999+0011REMSYN082AAXX  04004 82392 32996 03605 10262 20193 30007 40109 333 10372 29051 55107 58001;
0156823920999992005100412004-03700-040350FM-12+008399999V0200501N002612200019N0500001N1+02981+01761101311ADDGF104991031011004501031001KA1240N+02281MA1999999100291MD1999999-0011REMSYN076AAXX  04124 82392 32499 40505 10298 20176 30029 40131 83130 333 20228 59001;
0137823920999992005100418004-03700-040350FM-12+008399999V0200901N001012200019N0500001N1+03441+01581100801ADDGF103991021011004501011001MA1999999099791MD1999999+0171REMSYN070AAXX  04184 82392 32499 30902 10344 20158 39979 40080 82110 333 58017;
0178823920999992005100500004-03700-040350FM-12+008399999V0203601N001512200019N0040001N1+02721+01881101151ADDGA1001+999999999GF100991001001999999001001KA1240M+03631MA1999999100141MD1999999+0071REMSYN082AAXX  05004 82392 32996 03603 10272 20188 30014 40115 333 10363 29050 55103 58007;
0156823920999992005100512004-03700-040350FM-12+008399999V0200901N003112200019N0500001N1+02941+02081101351ADDGF104991031021004501031001KA1240N+02141MA1999999100331MD1999999+0041REMSYN076AAXX  05124 82392 32499 40906 10294 20208 30033 40135 83230 333 20214 58004;
0137823920999992005100518004-03700-040350FM-12+008399999V0201401N002112200019N0500001N1+03601+01291100811ADDGF102991021011004501001001MA1999999099801MD1999999+0011REMSYN070AAXX  05184 82392 32499 21404 10360 20129 39980 40081 82100 333 58001;
0178823920999992005100600004-03700-040350FM-12+008399999V0203601N001012200019N0040001N1+02701+02031101121ADDGA1001+999999999GF100991001001999999001001KA1240M+03671MA1999999100101MD1999999-0041REMSYN082AAXX  06004 82392 32996 03602 10270 20203 30010 40112 333 10367 29055 55103 59004;
0156823920999992005100612004-03700-040350FM-12+008399999V0201401N001512200019N0500001N1+03061+01831101371ADDGF103991021011004501001011KA1240N+02341MA1999999100361MD1999999+0031REMSYN076AAXX  06124 82392 32499 31403 10306 20183 30036 40137 82101 333 20234 58003;
0137823920999992005100618004-03700-040350FM-12+008399999V0200901N001012200019N0500001N1+03591+01521100921ADDGF104991041021004501001001MA1999999099911MD1999999+0011REMSYN070AAXX  06184 82392 32499 40902 10359 20152 39991 40092 84200 333 58001;
0178823920999992005100700004-03700-040350FM-12+008399999V0200501N003112200019N0040001N1+02701+02111101291ADDGA1001+999999999GF100991001001999999001001KA1240M+03641MA1999999100281MD1999999+0181REMSYN082AAXX  07004 82392 32996 00506 10270 20211 30028 40129 333 10364 29054 55101 58018;
0156823920999992005100712004-03700-040350FM-12+008399999V0200901N005110450019N0500001N1+02901+01751101521ADDGF105991031021004501031001KA1240N+02281MA1999999100491MD1999999+0131REMSYN076AAXX  07124 82392 32499 50910 10290 20175 30049 40152 83230 333 20228 58013;
0137823920999992005100718004-03700-040350FM-12+008399999V0200901N002612200019N0500001N1+02561+01431100951ADDGF104991021011004501001011MA1999999099941MD1999999+0031REMSYN070AAXX  07184 82392 32499 40905 10256 20143 39994 40095 82101 333 58003;
0178823920999992005100800004-03700-040350FM-12+008399999V0200501N004612200019N0040001N1+02701+01861101381ADDGA1001+999999999GF100991001001999999001001KA1240M+03601MA1999999100361MD1999999+0081REMSYN082AAXX  08004 82392 32996 00509 10270 20186 30036 40138 333 10360 29050 55105 58008;
0156823920999992005100812004-03700-040350FM-12+008399999V0200901N002612200019N0500001N1+02961+01871101531ADDGF104991031011004501031001KA1240N+02211MA1999999100501MD1999999+0011REMSYN076AAXX  08124 82392 32499 40905 10296 20187 30050 40153 83130 333 20221 58001;
0137823920999992005100818004-03700-040350FM-12+008399999V0201401N001012200019N0500001N1+03401+01851101011ADDGF102991021011004501001001MA1999999100001MD1999999+0061REMSYN070AAXX  08184 82392 32499 21402 10340 20185 30000 40101 82100 333 58006;
0178823920999992005100900004-03700-040350FM-12+008399999V0200501N005712200019N0040001N1+02701+02061101271ADDGA1001+999999999GF100991001001999999001001KA1240M+03461MA1999999100251MD1999999-0111REMSYN082AAXX  09004 82392 32996 00511 10270 20206 30025 40127 333 10346 29057 55108 59011;
0156823920999992005100912004-03700-040350FM-12+008399999V0200901N001012200019N0500001N1+03041+01351101381ADDGF102991011011004501031001KA1240N+02201MA1999999100371MD1999999-0131REMSYN076AAXX  09124 82392 32499 20902 10304 20135 30037 40138 81130 333 20220 59013;
0137823920999992005100918004-03700-040350FM-12+008399999V0201801N000510450019N0500001N1+03631+01551100811ADDGF106991021011004501031001MA1999999099801MD1999999-0201REMSYN070AAXX  09184 82392 32499 61801 10363 20155 39980 40081 82130 333 59020;
0168823920999992005101000004-03700-040350FM-12+008399999V0203601N001512200019N0040001N1+02691+01961101141ADDGF102991021001008001031001KA1240M+03741MA1999999100131MD1999999-0121REMSYN088AAXX  10004 82392 32596 23603 10269 20196 30013 40114 82030 333 10374 29052 55093 59012;
0156823920999992005101012004-03700-040350FM-12+008399999V0200901N001012200019N0500001N1+02941+02031101321ADDGF104991041021004501001001KA1240N+02221MA1999999100301MD1999999-0071REMSYN076AAXX  10124 82392 32499 40902 10294 20203 30030 40132 84200 333 20222 59007;
0137823920999992005101018004-03700-040350FM-12+008399999V0200901N001012200019N0500001N1+03721+01321100701ADDGF102991021011004501001001MA1999999099691MD1999999-0111REMSYN070AAXX  10184 82392 32499 20902 10372 20132 39969 40070 82100 333 59011;
0168823920999992005101100004-03700-040350FM-12+008399999V0203601N002612200019N0040001N1+02581+02121101151ADDGF101991011001008001031001KA1240M+03731MA1999999100131MD1999999+0001REMSYN088AAXX  11004 82392 32596 13605 10258 20212 30013 40115 81030 333 10373 29059 55105 58000;
0156823920999992005101112004-03700-040350FM-12+008399999V0200901N003110450019N0500001N1+02841+02121101301ADDGF107991041041004501031001KA1240N+02301MA1999999100281MD1999999-0021REMSYN076AAXX  11124 82392 32499 70906 10284 20212 30028 40130 84430 333 20230 59002;
0137823920999992005101118004-03700-040350FM-12+008399999V0201401N001012200019N0500001N1+03491+01681100861ADDGF103991021021004501031001MA1999999099851MD1999999+0161REMSYN070AAXX  11184 82392 32499 31402 10349 20168 39985 40086 82230 333 58016;
0178823920999992005101200004-03700-040350FM-12+008399999V0203601N002612200019N0040001N1+02641+01801101181ADDGA1001+999999999GF100991001001999999001001KA1240M+03611MA1999999100161MD1999999+0031REMSYN082AAXX  12004 82392 32996 03605 10264 20180 30016 40118 333 10361 29055 55069 58003;
0156823920999992005101212004-03700-040350FM-12+008399999V0200501N003110450019N0500001N1+02861+02011101371ADDGF106991041051004501031001KA1240N+02261MA1999999100351MD1999999+0071REMSYN076AAXX  12124 82392 32499 60506 10286 20201 30035 40137 84530 333 20226 58007;
0137823920999992005101218004-03700-040350FM-12+008399999V0200501N004110450019N0500001N1+03481+01711100751ADDGF106991041041004501031001MA1999999099741MD1999999-0111REMSYN070AAXX  12184 82392 32499 60508 10348 20171 39974 40075 84430 333 59011;
0178823920999992005101300004-03700-040350FM-12+008399999V0203601N002612200019N0040001N1+02631+01931101151ADDGA1001+999999999GF100991001001999999001001KA1240M+03561MA1999999100131MD1999999-0031REMSYN082AAXX  13004 82392 32996 03605 10263 20193 30013 40115 333 10356 29056 55065 59003;
0175823920999992005101312004-03700-040350FM-12+008399999V0200901N000510042019N0500001N1+02041+01941101331ADDGF105991051021004501001001KA1240N+99999MA1999999100351MD1999999+0001REMSYN076AAXX  13124 82392 32499 50901 10204 20194 30035 40133 85200 333 20228 58000;EQDQ01 +02282ATMN  
0137823920999992005101318004-03700-040350FM-12+008399999V0200501N001010450019N0500001N1+03561+01531100701ADDGF106991031021004501011011MA1999999099691MD1999999-0051REMSYN070AAXX  13184 82392 32499 60502 10356 20153 39969 40070 83211 333 59005;
0178823920999992005101400004-03700-040350FM-12+008399999V0203601N004612200019N0040001N1+02601+02191101121ADDGA1001+999999999GF100991001001999999001001KA1240M+03641MA1999999100101MD1999999-0031REMSYN082AAXX  14004 82392 32996 03609 10260 20219 30010 40112 333 10364 29060 55092 59003;
0156823920999992005101412004-03700-040350FM-12+008399999V0200901N004612200019N0500001N1+03021+01861101321ADDGF103991031021004501001001KA1240N+02201MA1999999100301MD1999999-0051REMSYN076AAXX  14124 82392 32499 30909 10302 20186 30030 40132 83200 333 20220 59005;
0137823920999992005101418004-03700-040350FM-12+008399999V0200901N002612200019N0500001N1+03631+01321100761ADDGF102991021011004501001001MA1999999099751MD1999999+0061REMSYN070AAXX  14184 82392 32499 20905 10363 20132 39975 40076 82100 333 58006;
0178823920999992005101500004-03700-040350FM-12+008399999V0203601N005112200019N0040001N1+02701+02061101151ADDGA1001+999999999GF100991001001999999001001KA1240M+03701MA1999999100141MD1999999-0041REMSYN082AAXX  15004 82392 32996 03610 10270 20206 30014 40115 333 10370 29053 55103 59004;
0156823920999992005101512004-03700-040350FM-12+008399999V0200901N002610450019N0500001N1+02931+01821101321ADDGF106991041021004501031001KA1240N+02111MA1999999100301MD1999999+0001REMSYN076AAXX  15124 82392 32499 60905 10293 20182 30030 40132 84230 333 20211 58000;
0137823920999992005101518004-03700-040350FM-12+008399999V0200901N002610450019N0500001N1+03561+01481100791ADDGF105991031021004501031001MA1999999099781MD1999999+0031REMSYN070AAXX  15184 82392 32499 50905 10356 20148 39978 40079 83230 333 58003;
0168823920999992005101600004-03700-040350FM-12+008399999V0203601N002612200019N0040001N1+02681+01761101131ADDGF101991011011004501001001KA1240M+03591MA1999999100111MD1999999-0031REMSYN088AAXX  16004 82392 32496 13605 10268 20176 30011 40113 81100 333 10359 29049 55108 59003;
0156823920999992005101612004-03700-040350FM-12+008399999V0200901N001510450019N0500001N1+02941+02001101221ADDGF106991041041004501031001KA1240N+02161MA1999999100201MD1999999-0101REMSYN076AAXX  16124 82392 32499 60903 10294 20200 30020 40122 84430 333 20216 59010;
0137823920999992005101618004-03700-040350FM-12+008399999V0200501N003110042019N0500001N1+03441+01671100751ADDGF106991061021004501001001MA1999999099741MD1999999-0041REMSYN070AAXX  16184 82392 32499 60506 10344 20167 39974 40075 86200 333 59004;
0178823920999992005101700004-03700-040350FM-12+008399999V0203601N002112200019N0040001N1+02701+02011101071ADDGA1001+999999999GF100991001001999999001001KA1240M+03621MA1999999100051MD1999999-0061REMSYN082AAXX  17004 82392 32996 03604 10270 20201 30005 40107 333 10362 29056 55078 59006;
0156823920999992005101712004-03700-040350FM-12+008399999V0201801N001512200019N0500001N1+02921+02061101221ADDGF102991021011004501001001KA1240N+02121MA1999999100201MD1999999+0001REMSYN076AAXX  17124 82392 32499 21803 10292 20206 30020 40122 82100 333 20212 58000;
0137823920999992005101718004-03700-040350FM-12+008399999V0201401N001012200019N0500001N1+03721+01191100671ADDGF102991021011004501001001MA1999999099661MD1999999-0081REMSYN070AAXX  17184 82392 32499 21402 10372 20119 39966 40067 82100 333 59008;
0168823920999992005101800004-03700-040350FM-12+008399999V0203601N002612200019N0040001N1+02661+02141101141ADDGF101991011001008001021001KA1240M+03771MA1999999100121MD1999999+0071REMSYN088AAXX  18004 82392 32596 13605 10266 20214 30012 40114 81020 333 10377 29057 55107 58007;
0156823920999992005101812004-03700-040350FM-12+008399999V0201401N002612200019N0500001N1+03001+01841101321ADDGF102991011011004501001011KA1240N+02201MA1999999100301MD1999999+0101REMSYN076AAXX  18124 82392 32499 21405 10300 20184 30030 40132 81101 333 20220 58010;
0156823920999992005101818004-03700-040350FM-12+008399999V0200901N001012200019N0500001N1+03661+01511100811ADDGF103991999011004501001001MA1999999099801MD1999999+0041REMSYN070AAXX  18184 82392 32499 30902 10366 20151 39980 40081 81100 333 58004;EQDQ01+000012SCOTLC
0168823920999992005101900004-03700-040350FM-12+008399999V0203601N002612200019N0040001N1+02721+01681101221ADDGF101991011001008001011001KA1240M+03701MA1999999100211MD1999999+0091REMSYN088AAXX  19004 82392 32596 13605 10272 20168 30021 40122 81010 333 10370 29046 55108 58009;
0156823920999992005101912004-03700-040350FM-12+008399999V0201401N001510450019N0500001N1+02901+02131101441ADDGF105991041021004501031001KA1240N+02101MA1999999100421MD1999999+0121REMSYN076AAXX  19124 82392 32499 51403 10290 20213 30042 40144 84230 333 20210 58012;
0137823920999992005101918004-03700-040350FM-12+008399999V0200901N005112200019N0500001N1+03681+01351100771ADDGF102991021011004501001001MA1999999099761MD1999999-0041REMSYN070AAXX  19184 82392 32499 20910 10368 20135 39976 40077 82100 333 59004;
0178823920999992005102000004-03700-040350FM-12+008399999V0203601N001512200019N0040001N1+02661+01921101201ADDGA1001+999999999GF100991001001999999001001KA1240M+03741MA1999999100181MD1999999-0211REMSYN082AAXX  20004 82392 32996 03603 10266 20192 30018 40120 333 10374 29054 55102 59021;
0156823920999992005102012004-03700-040350FM-12+008399999V0201401N001012200019N0500001N1+03021+01691101341ADDGF101991011011004501001001KA1240N+02311MA1999999100321MD1999999-0101REMSYN076AAXX  20124 82392 32499 11402 10302 20169 30032 40134 81100 333 20231 59010;
0137823920999992005102018004-03700-040350FM-12+008399999V0200901N001012200019N0500001N1+03641+01381100681ADDGF104991011011004501001011MA1999999099681MD1999999-0081REMSYN070AAXX  20184 82392 32499 40902 10364 20138 39968 40068 81101 333 59008;
0178823920999992005102100004-03700-040350FM-12+008399999V0200501N005112200019N0040001N1+02661+01971101101ADDGA1001+999999999GF100991001001999999001001KA1240M+03721MA1999999100081MD1999999-0101REMSYN082AAXX  21004 82392 32996 00510 10266 20197 30008 40110 333 10372 29051 55110 59010;
0156823920999992005102112004-03700-040350FM-12+008399999V0200901N003112200019N0500001N1+02901+01961101281ADDGF103991031021004501001001KA1240N+02301MA1999999100261MD1999999-0061REMSYN076AAXX  21124 82392 32499 30906 10290 20196 30026 40128 83200 333 20230 59006;
0137823920999992005102118004-03700-040350FM-12+008399999V0200901N002612200019N0500001N1+03571+01501100721ADDGF102991021011004501001001MA1999999099711MD1999999+0031REMSYN070AAXX  21184 82392 32499 20905 10357 20150 39971 40072 82100 333 58003;
0178823920999992005102200004-03700-040350FM-12+008399999V0200501N005712200019N0040001N1+02701+02061101121ADDGA1001+999999999GF100991001001999999001001KA1240M+03621MA1999999100101MD1999999+0021REMSYN082AAXX  22004 82392 32996 00511 10270 20206 30010 40112 333 10362 29056 55110 58002;
0156823920999992005102212004-03700-040350FM-12+008399999V0201801N002112200019N0500001N1+02921+01921101331ADDGF103991021011004501001011KA1240N+02261MA1999999100311MD1999999+0051REMSYN076AAXX  22124 82392 32499 31804 10292 20192 30031 40133 82101 333 20226 58005;
0137823920999992005102218004-03700-040350FM-12+008399999V0200501N006212200019N0500001N1+03581+01211100771ADDGF102991021011004501001001MA1999999099761MD1999999+0051REMSYN070AAXX  22184 82392 32499 20512 10358 20121 39976 40077 82100 333 58005;
0178823920999992005102300004-03700-040350FM-12+008399999V0203601N005712200019N0040001N1+02721+02031101141ADDGA1001+999999999GF100991001001999999001001KA1240M+03641MA1999999100121MD1999999+0021REMSYN082AAXX  23004 82392 32996 03611 10272 20203 30012 40114 333 10364 29053 55108 58002;
0156823920999992005102312004-03700-040350FM-12+008399999V0200901N001012200019N0500001N1+02961+01961101311ADDGF102991011011004501001011KA1240N+02181MA1999999100291MD1999999-0021REMSYN076AAXX  23124 82392 32499 20902 10296 20196 30029 40131 81101 333 20218 59002;
0137823920999992005102318004-03700-040350FM-12+008399999V0200901N001012200019N0500001N1+03741+01821100701ADDGF102991021011004501001001MA1999999099691MD1999999-0071REMSYN070AAXX  23184 82392 32499 20902 10374 20182 39969 40070 82100 333 59007;
0178823920999992005102400004-03700-040350FM-12+008399999V0203601N001512200019N0040001N1+02641+01881101091ADDGA1001+999999999GF100991001001999999001001KA1240M+03771MA1999999100071MD1999999-0051REMSYN082AAXX  24004 82392 32996 03603 10264 20188 30007 40109 333 10377 29051 55108 59005;
0156823920999992005102412004-03700-040350FM-12+008399999V0200901N003112200019N0500001N1+02961+01811101341ADDGF101991011011004501001001KA1240N+02141MA1999999100321MD1999999+0031REMSYN076AAXX  24124 82392 32499 10906 10296 20181 30032 40134 81100 333 20214 58003;
0137823920999992005102418004-03700-040350FM-12+008399999V0200901N002112200019N0500001N1+03761+01081100661ADDGF101991011011004501001001MA1999999099651MD1999999-0041REMSYN070AAXX  24184 82392 32499 10904 10376 20108 39965 40066 81100 333 59004;
0168823920999992005102500004-03700-040350FM-12+008399999V0203601N002612200019N0040001N1+02601+02061101071ADDGF102991021001008001031001KA1240M+03771MA1999999100051MD1999999-0021REMSYN088AAXX  25004 82392 32596 23605 10260 20206 30005 40107 82030 333 10377 29054 55109 59002;
0156823920999992005102512004-03700-040350FM-12+008399999V0200901N002612200019N0500001N1+03021+01761101221ADDGF102991021011004501001001KA1240N+02341MA1999999100201MD1999999-0121REMSYN076AAXX  25124 82392 32499 20905 10302 20176 30020 40122 82100 333 20234 59012;
0137823920999992005102518004-03700-040350FM-12+008399999V0201401N001012200019N0500001N1+03731+01521100661ADDGF103991031011004501001001MA1999999099651MD1999999+0001REMSYN070AAXX  25184 82392 32499 31402 10373 20152 39965 40066 83100 333 58000;
0178823920999992005102600004-03700-040350FM-12+008399999V0200501N002612200019N0040001N1+02601+02101101071ADDGA1001+999999999GF100991001001999999001001KA1240M+03771MA1999999100051MD1999999+0001REMSYN082AAXX  26004 82392 32996 00505 10260 20210 30005 40107 333 10377 29056 55106 58000;
0156823920999992005102612004-03700-040350FM-12+008399999V0200501N004612200019N0500001N1+02941+01851101241ADDGF101991011011004501001001KA1240N+02021MA1999999100221MD1999999+0021REMSYN076AAXX  26124 82392 32499 10509 10294 20185 30022 40124 81100 333 20202 58002;
0137823920999992005102618004-03700-040350FM-12+008399999V0200501N003612200019N0500001N1+03681+01161100721ADDGF103991021011004501001011MA1999999099711MD1999999+0061REMSYN070AAXX  26184 82392 32499 30507 10368 20116 39971 40072 82101 333 58006;
0178823920999992005102700004-03700-040350FM-12+008399999V0203601N002612200019N0040001N1+02761+01861101111ADDGA1001+999999999GF100991001001999999001001KA1240M+03771MA1999999100101MD1999999+0051REMSYN082AAXX  27004 82392 32996 03605 10276 20186 30010 40111 333 10377 29048 55110 58005;
0156823920999992005102712004-03700-040350FM-12+008399999V0200501N001010450019N0500001N1+02901+01961101331ADDGF105991041021004501011001KA1240N+02321MA1999999100311MD1999999+0091REMSYN076AAXX  27124 82392 32499 50502 10290 20196 30031 40133 84210 333 20232 58009;
0137823920999992005102718004-03700-040350FM-12+008399999V0200501N001510042019N0500001N1+03591+01621100791ADDGF105991051021004501001001MA1999999099781MD1999999+0071REMSYN070AAXX  27184 82392 32499 50503 10359 20162 39978 40079 85200 333 58007;
0156823920999992005102812004-03700-040350FM-12+008399999V0200501N001510042019N0500001N1+02821+01971101261ADDGF105991051021004501001001KA1240N+02201MA1999999100241MD1999999-0071REMSYN076AAXX  28124 82392 32499 50503 10282 20197 30024 40126 85200 333 20220 59007;
0137823920999992005102818004-03700-040350FM-12+008399999V0203601N000512200019N0500001N1+03501+01721100731ADDGF104991041021004501011001MA1999999099721MD1999999-0061REMSYN070AAXX  28184 82392 32499 43601 10350 20172 39972 40073 84210 333 59006;
0178823920999992005102900004-03700-040350FM-12+008399999V0203601N004612200019N0040001N1+02601+02011101161ADDGA1001+999999999GF100991001001999999001001KA1240M+03641MA1999999100141MD1999999-0081REMSYN082AAXX  29004 82392 32996 03609 10260 20201 30014 40116 333 10364 29059 55099 59008;
0156823920999992005102912004-03700-040350FM-12+008399999V0200901N000510042019N0500001N1+02801+01981101381ADDGF106991051041004501031001KA1240N+02141MA1999999100361MD1999999+0121REMSYN076AAXX  29124 82392 32499 60901 10280 20198 30036 40138 85430 333 20214 58012;
0137823920999992005102918004-03700-040350FM-12+008399999V0200901N000512200019N0500001N1+03581+01601100761ADDGF103991031021004501001001MA1999999099751MD1999999+0031REMSYN070AAXX  29184 82392 32499 30901 10358 20160 39975 40076 83200 333 58003;
0178823920999992005103000004-03700-040350FM-12+008399999V0203601N003612200019N0040001N1+02601+02101101141ADDGA1001+999999999GF100991001001999999001001KA1240M+03691MA1999999100121MD1999999-0021REMSYN082AAXX  30004 82392 32996 03607 10260 20210 30012 40114 333 10369 29060 55099 59002;
0156823920999992005103012004-03700-040350FM-12+008399999V0200901N002612200019N0500001N1+02881+01891101281ADDGF102991021011004501001001KA1240N+02381MA1999999100261MD1999999-0101REMSYN076AAXX  30124 82392 32499 20905 10288 20189 30026 40128 82100 333 20238 59010;
0137823920999992005103018004-03700-040350FM-12+008399999V0200501N004612200019N0500001N1+03741+01071100771ADDGF103991021011004501001011MA1999999099761MD1999999+0011REMSYN070AAXX  30184 82392 32499 30509 10374 20107 39976 40077 82101 333 58001;
0178823920999992005103100004-03700-040350FM-12+008399999V0203601N005112200019N0040001N1+02621+02031101181ADDGA1001+999999999GF100991001001999999001001KA1240M+03781MA1999999100161MD1999999+0041REMSYN082AAXX  31004 82392 32996 03610 10262 20203 30016 40118 333 10378 29054 55110 58004;
0156823920999992005103112004-03700-040350FM-12+008399999V0200501N001510450019N0500001N1+02861+01951101381ADDGF105991031021004501031001KA1240N+02101MA1999999100361MD1999999+0101REMSYN076AAXX  31124 82392 32499 50503 10286 20195 30036 40138 83230 333 20210 58010;
0156823920999992005103118004-03700-040350FM-12+008399999V0200501N005719999999N0500001N1+03561+01311100861ADDGF105991999021004501001001MA1999999099851MD1999999+0091REMSYN070AAXX  31184 82392 32499 50511 10356 20131 39985 40086 84200 333 58009;EQDQ01+000042SCOTLC
0178823920999992005110100004-03700-040350FM-12+008399999V0203601N003112200019N0040001N1+02681+01991101351ADDGA1001+999999999GF100991001001999999001001KA1240M+03711MA1999999100341MD1999999+0171REMSYN082AAXX  01004 82392 32996 03606 10268 20199 30034 40135 333 10371 29054 55107 58017;
0156823920999992005110112004-03700-040350FM-12+008399999V0200501N003112200019N0500001N1+02921+02011101481ADDGF104991041021004501001001KA1240N+02281MA1999999100451MD1999999+0091REMSYN076AAXX  01124 82392 32499 40506 10292 20201 30045 40148 84200 333 20228 58009;
0137823920999992005110118004-03700-040350FM-12+008399999V0203601N001012200019N0500001N1+03721+01511100881ADDGF104991041021004501001001MA1999999099871MD1999999+0021REMSYN070AAXX  01184 82392 32499 43602 10372 20151 39987 40088 84200 333 58002;
0178823920999992005110200004-03700-040350FM-12+008399999V0203601N002612200019N0040001N1+02641+01981101361ADDGA1001+999999999GF100991001001999999001001KA1240M+03721MA1999999100341MD1999999+0011REMSYN082AAXX  02004 82392 32996 03605 10264 20198 30034 40136 333 10372 29055 55090 58001;
0110823920999992005110212004-03700-040350FM-12+008399999V0201401N001019999999N0500001N1+02961+01991999999ADDGF106991999999004501999999REMSYN072AAXX  02124 82392 32499 61402 10296 20199 20218 30048 40151 58003 85230;
0178823920999992005110300004-03700-040350FM-12+008399999V0203601N001012200019N0040001N1+02681+01991101401ADDGA1001+999999999GF100991001001999999001001KA1240M+03691MA1999999100381MD1999999+0041REMSYN082AAXX  03004 82392 32996 03602 10268 20199 30038 40140 333 10369 29053 55104 58004;
0156823920999992005110312004-03700-040350FM-12+008399999V0200901N001010450019N0500001N1+02921+02011101401ADDGF106991041041004501031001KA1240N+02161MA1999999100381MD1999999-0101REMSYN076AAXX  03124 82392 32499 60902 10292 20201 30038 40140 84430 333 20216 59010;
0137823920999992005110318004-03700-040350FM-12+008399999V0200901N001012200019N0500001N1+03781+01441100781ADDGF104991011011004501001011MA1999999099771MD1999999-0131REMSYN070AAXX  03184 82392 32499 40902 10378 20144 39977 40078 81101 333 59013;
0178823920999992005110400004-03700-040350FM-12+008399999V0200501N005712200019N0040001N1+02721+02121101121ADDGA1001+999999999GF100991001001999999001001KA1240M+03821MA1999999100101MD1999999-0281REMSYN082AAXX  04004 82392 32996 00511 10272 20212 30010 40112 333 10382 29056 55080 59028;
0156823920999992005110412004-03700-040350FM-12+008399999V0200501N001512200019N0040001N1+03021+01801101341ADDGF101991011011999999001001KA1240N+02361MA1999999100321MD1999999-0061REMSYN076AAXX  04124 82392 32996 10503 10302 20180 30032 40134 81100 333 20236 59006;
0137823920999992005110418004-03700-040350FM-12+008399999V0200901N001012200019N0500001N1+03641+01441100711ADDGF104991041021004501001001MA1999999099701MD1999999-0071REMSYN070AAXX  04184 82392 32499 40902 10364 20144 39970 40071 84200 333 59007;
0178823920999992005110500004-03700-040350FM-12+008399999V0200501N002612200019N0040001N1+02641+01801101081ADDGA1001+999999999GF100991001001999999001001KA1240M+03641MA1999999100061MD1999999-0041REMSYN082AAXX  05004 82392 32996 00505 10264 20180 30006 40108 333 10364 29049 55101 59004;
0156823920999992005110512004-03700-040350FM-12+008399999V0200901N003112200019N0500001N1+02901+01901101311ADDGF103991031021004501001001KA1240N+02101MA1999999100291MD1999999-0031REMSYN076AAXX  05124 82392 32499 30906 10290 20190 30029 40131 83200 333 20210 59003;
0137823920999992005110518004-03700-040350FM-12+008399999V0200501N004112200019N0500001N1+03441+01431100741ADDGF103991031021004501001001MA1999999099731MD1999999+0031REMSYN070AAXX  05184 82392 32499 30508 10344 20143 39973 40074 83200 333 58003;
0178823920999992005110600004-03700-040350FM-12+008399999V0200501N005712200019N0040001N1+02621+01971101121ADDGA1001+999999999GF100991001001999999001001KA1240M+03561MA1999999100101MD1999999+0041REMSYN082AAXX  06004 82392 32996 00511 10262 20197 30010 40112 333 10356 29054 55098 58004;
0156823920999992005110612004-03700-040350FM-12+008399999V0200901N001510450019N0500001N1+02921+01921101251ADDGF106991041041004501031001KA1240N+02101MA1999999100231MD1999999-0061REMSYN076AAXX  06124 82392 32499 60903 10292 20192 30023 40125 84430 333 20210 59006;
0137823920999992005110618004-03700-040350FM-12+008399999V0201801N001012200019N0500001N1+03711+01511100671ADDGF104991041011004501001001MA1999999099661MD1999999-0071REMSYN070AAXX  06184 82392 32499 41802 10371 20151 39966 40067 84100 333 59007;
0178823920999992005110700004-03700-040350FM-12+008399999V0203601N001012200019N0040001N1+02701+01781101011ADDGA1001+999999999GF100991001001999999001001KA1240M+03721MA1999999099991MD1999999-0111REMSYN082AAXX  07004 82392 32996 03602 10270 20178 39999 40101 333 10372 29049 55108 59011;
0137823920999992005110718004-03700-040350FM-12+008399999V0200901N002112200019N0500001N1+03601+01291100691ADDGF103991031021004501001001MA1999999099681MD1999999+0021REMSYN070AAXX  07184 82392 32499 30904 10360 20129 39968 40069 83200 333 58002;
0156823920999992005110812004-03700-040350FM-12+008399999V0201401N001012200019N0500001N1+02921+01951101251ADDGF102991021011004501001001KA1240N+02091MA1999999100231MD1999999+0071REMSYN076AAXX  08124 82392 32499 21402 10292 20195 30023 40125 82100 333 20209 58007;
0137823920999992005110818004-03700-040350FM-12+008399999V0200501N001512200019N0500001N1+03641+01381100681ADDGF104991041021004501001001MA1999999099671MD1999999-0011REMSYN070AAXX  08184 82392 32499 40503 10364 20138 39967 40068 84200 333 59001;
0178823920999992005110900004-03700-040350FM-12+008399999V0203601N003112200019N0040001N1+02731+01811101051ADDGA1001+999999999GF100991001001999999001001KA1240M+03701MA1999999100031MD1999999+0041REMSYN082AAXX  09004 82392 32996 03606 10273 20181 30003 40105 333 10370 29049 55101 58004;
0156823920999992005110912004-03700-040350FM-12+008399999V0200901N003112200019N0500001N1+02941+02081101231ADDGF103991031021004501001001KA1240N+02201MA1999999100201MD1999999-0031REMSYN076AAXX  09124 82392 32499 30906 10294 20208 30020 40123 83200 333 20220 59003;
0137823920999992005110918004-03700-040350FM-12+008399999V0200901N002112200019N0500001N1+03521+01451100711ADDGF103991031021004501001001MA1999999099701MD1999999+0031REMSYN070AAXX  09184 82392 32499 30904 10352 20145 39970 40071 83200 333 58003;
0178823920999992005111000004-03700-040350FM-12+008399999V0203601N002612200019N0040001N1+02761+01991101051ADDGA1001+999999999GF100991001001999999001001KA1240M+03691MA1999999100031MD1999999+0001REMSYN082AAXX  10004 82392 32996 03605 10276 20199 30003 40105 333 10369 29054 55090 58000;
0156823920999992005111012004-03700-040350FM-12+008399999V0200901N002610042019N0500001N1+02961+02021101161ADDGF106991061041004501001001KA1240N+02501MA1999999100141MD1999999-0061REMSYN076AAXX  10124 82392 32499 60905 10296 20202 30014 40116 86400 333 20250 59006;
0137823920999992005111018004-03700-040350FM-12+008399999V0201401N001010042019N0500001N1+03541+01761100631ADDGF106991051021004501011001MA1999999099631MD1999999-0071REMSYN070AAXX  10184 82392 32499 61402 10354 20176 39963 40063 85210 333 59007;
0178823920999992005111100004-03700-040350FM-12+008399999V0203601N005712200019N0040001N1+02741+02121100971ADDGA1001+999999999GF100991001001999999001001KA1240M+03601MA1999999099961MD1999999-0071REMSYN082AAXX  11004 82392 32996 03611 10274 20212 39996 40097 333 10360 29058 55059 59007;
0156823920999992005111112004-03700-040350FM-12+008399999V0201401N002612200019N0500001N1+02861+01921101161ADDGF103991031021004501001001KA1240N+02201MA1999999100141MD1999999+0001REMSYN076AAXX  11124 82392 32499 31405 10286 20192 30014 40116 83200 333 20220 58000;
0137823920999992005111118004-03700-040350FM-12+008399999V0201401N001012200019N0500001N1+03601+01671100551ADDGF103991021011004501011001MA1999999099551MD1999999-0081REMSYN070AAXX  11184 82392 32499 31402 10360 20167 39955 40055 82110 333 59008;
0178823920999992005111200004-03700-040350FM-12+008399999V0200501N004612200019N0040001N1+02741+01891101021ADDGA1001+999999999GF100991001001999999001001KA1240M+03641MA1999999100001MD1999999+0041REMSYN082AAXX  12004 82392 32996 00509 10274 20189 30000 40102 333 10364 29052 55091 58004;
0156823920999992005111212004-03700-040350FM-12+008399999V0203601N000510042019N0500001N1+02941+02051101081ADDGF106991061021004501001001KA1240N+02941MA1999999100061MD1999999-0081REMSYN076AAXX  12124 82392 32499 63601 10294 20205 30006 40108 86200 333 20294 59008;
0137823920999992005111218004-03700-040350FM-12+008399999V0203601N000512200019N0500001N1+03631+01571100521ADDGF103991031021004501001001MA1999999099521MD1999999-0031REMSYN070AAXX  12184 82392 32499 33601 10363 20157 39952 40052 83200 333 59003;
0178823920999992005111300004-03700-040350FM-12+008399999V0203601N003112200019N0040001N1+02671+02041100921ADDGA1001+999999999GF100991001001999999001001KA1240M+03691MA1999999099901MD1999999-0101REMSYN082AAXX  13004 82392 32996 03606 10267 20204 39990 40092 333 10369 29056 55083 59010;
0156823920999992005111312004-03700-040350FM-12+008399999V0200901N003110450019N0500001N1+02821+02121101121ADDGF105991031021004501031001KA1240N+02201MA1999999100101MD1999999+0041REMSYN076AAXX  13124 82392 32499 50906 10282 20212 30010 40112 83230 333 20220 58004;
0137823920999992005111318004-03700-040350FM-12+008399999V0200501N002612200019N0500001N1+03601+01291100561ADDGF103991031021004501001001MA1999999099561MD1999999+0041REMSYN070AAXX  13184 82392 32499 30505 10360 20129 39956 40056 83200 333 58004;
0178823920999992005111400004-03700-040350FM-12+008399999V0200501N005112200019N0040001N1+02681+02091101021ADDGA1001+999999999GF100991001001999999001001KA1240M+03701MA1999999100001MD1999999+0101REMSYN082AAXX  14004 82392 32996 00510 10268 20209 30000 40102 333 10370 29058 55090 58010;
0156823920999992005111412004-03700-040350FM-12+008399999V0200501N005710450019N0500001N1+02981+02061101101ADDGF106991041021004501031001KA1240N+02181MA1999999100081MD1999999-0021REMSYN076AAXX  14124 82392 32499 60511 10298 20206 30008 40110 84230 333 20218 59002;
0137823920999992005111418004-03700-040350FM-12+008399999V0200501N003110450019N0500001N1+03521+01391100561ADDGF105991031021004501031001MA1999999099561MD1999999+0001REMSYN070AAXX  14184 82392 32499 50506 10352 20139 39956 40056 83230 333 58000;
0168823920999992005111500004-03700-040350FM-12+008399999V0203601N000512200019N0040001N1+02661+02001101021ADDGF102991021001008001011001KA1240M+03531MA1999999100001MD1999999+0001REMSYN088AAXX  15004 82392 32596 23601 10266 20200 30000 40102 82010 333 10353 29055 55065 58000;
0156823920999992005111512004-03700-040350FM-12+008399999V0200501N006212200019N0500001N1+02941+01851101141ADDGF102991021011004501001001KA1240N+02201MA1999999100121MD1999999+0041REMSYN076AAXX  15124 82392 32499 20512 10294 20185 30012 40114 82100 333 20220 58004;
0137823920999992005111518004-03700-040350FM-12+008399999V0200901N000510450019N0500001N1+03641+01501100611ADDGF105991041021004501011001MA1999999099611MD1999999+0051REMSYN070AAXX  15184 82392 32499 50901 10364 20150 39961 40061 84210 333 58005;
0178823920999992005111600004-03700-040350FM-12+008399999V0203601N001012200019N0040001N1+02741+01951101081ADDGA1001+999999999GF100991001001999999001001KA1240M+03661MA1999999100061MD1999999+0061REMSYN082AAXX  16004 82392 32996 03602 10274 20195 30006 40108 333 10366 29051 55104 58006;
0156823920999992005111612004-03700-040350FM-12+008399999V0200901N005712200019N0500001N1+03041+01941101121ADDGF103991031021004501001001KA1240N+02181MA1999999100111MD1999999-0011REMSYN076AAXX  16124 82392 32499 30911 10304 20194 30011 40112 83200 333 20218 59001;
0137823920999992005111618004-03700-040350FM-12+008399999V0200901N002612200019N0500001N1+03581+01271100601ADDGF104991031021004501031001MA1999999099601MD1999999-0011REMSYN070AAXX  16184 82392 32499 40905 10358 20127 39960 40060 83230 333 59001;
0178823920999992005111700004-03700-040350FM-12+008399999V0203601N001512200019N0040001N1+02741+01811100901ADDGA1001+999999999GF100991001001999999001001KA1240M+03701MA1999999099891MD1999999-0171REMSYN082AAXX  17004 82392 32996 03603 10274 20181 39989 40090 333 10370 29048 55099 59017;
0156823920999992005111712004-03700-040350FM-12+008399999V0200901N003112200019N0500001N1+03061+01831101031ADDGF102991021011004501001001KA1240N+02541MA1999999100021MD1999999-0091REMSYN076AAXX  17124 82392 32499 20906 10306 20183 30002 40103 82100 333 20254 59009;
0137823920999992005111718004-03700-040350FM-12+008399999V0200501N003112200019N0500001N1+03641+01551100461ADDGF103991021011004501031001MA1999999099461MD1999999-0141REMSYN070AAXX  17184 82392 32499 30506 10364 20155 39946 40046 82130 333 59014;
0178823920999992005111800004-03700-040350FM-12+008399999V0200501N005112200019N0040001N1+02741+01911100841ADDGA1001+999999999GF100991001001999999001001KA1240M+03701MA1999999099831MD1999999-0061REMSYN082AAXX  18004 82392 32996 00510 10274 20191 39983 40084 333 10370 29049 55111 59006;
0156823920999992005111812004-03700-040350FM-12+008399999V0200901N003112200019N0500001N1+03041+01881101011ADDGF101991011011004501001001KA1240N+02101MA1999999100001MD1999999-0021REMSYN076AAXX  18124 82392 32499 10906 10304 20188 30000 40101 81100 333 20210 59002;
0137823920999992005111818004-03700-040350FM-12+008399999V0200501N001512200019N0500001N1+03601+01571100541ADDGF103991031011004501001001MA1999999099541MD1999999+0081REMSYN070AAXX  18184 82392 32499 30503 10360 20157 39954 40054 83100 333 58008;
0178823920999992005111900004-03700-040350FM-12+008399999V0203601N003112200019N0040001N1+02741+01841100851ADDGA1001+999999999GF100991001001999999001001KA1240M+03671MA1999999099841MD1999999+0011REMSYN082AAXX  19004 82392 32996 03606 10274 20184 39984 40085 333 10367 29049 55113 58001;
0156823920999992005111912004-03700-040350FM-12+008399999V0200901N001512200019N0500001N1+03021+01921101041ADDGF102991021011004501001001KA1240N+02241MA1999999100031MD1999999+0031REMSYN076AAXX  19124 82392 32499 20903 10302 20192 30003 40104 82100 333 20224 58003;
0137823920999992005111918004-03700-040350FM-12+008399999V0200901N001510450019N0500001N1+03581+01701100601ADDGF105991031011004501011001MA1999999099601MD1999999+0061REMSYN070AAXX  19184 82392 32499 50903 10358 20170 39960 40060 83110 333 58006;
0178823920999992005112000004-03700-040350FM-12+008399999V0203601N000512200019N0040001N1+02841+01851100991ADDGA1001+999999999GF100991001001999999001001KA1240M+03721MA1999999099981MD1999999+0141REMSYN082AAXX  20004 82392 32996 03601 10284 20185 39998 40099 333 10372 29048 55108 58014;
0156823920999992005112012004-03700-040350FM-12+008399999V0200901N003112200019N0500001N1+03121+01921101051ADDGF101991011011004501001001KA1240N+02371MA1999999100041MD1999999+0011REMSYN076AAXX  20124 82392 32499 10906 10312 20192 30004 40105 81100 333 20237 58001;
0137823920999992005112018004-03700-040350FM-12+008399999V0200501N005712200019N0500001N1+03821+01411100441ADDGF101991011011004501001001MA1999999099441MD1999999-0161REMSYN070AAXX  20184 82392 32499 10511 10382 20141 39944 40044 81100 333 59016;
0178823920999992005112100004-03700-040350FM-12+008399999V0203601N006212200019N0040001N1+02771+02061100851ADDGA1001+999999999GF100991001001999999001001KA1240M+03891MA1999999099841MD1999999-0141REMSYN082AAXX  21004 82392 32996 03612 10277 20206 39984 40085 333 10389 29051 55109 59014;
0156823920999992005112112004-03700-040350FM-12+008399999V0200901N002612200019N0500001N1+03001+02051100981ADDGF102991021011004501001001KA1240N+02311MA1999999099971MD1999999-0071REMSYN076AAXX  21124 82392 32499 20905 10300 20205 39997 40098 82100 333 20231 59007;
0137823920999992005112118004-03700-040350FM-12+008399999V0201401N004112200019N0500001N1+03641+01501100401ADDGF102991021011004501001001MA1999999099401MD1999999-0041REMSYN070AAXX  21184 82392 32499 21408 10364 20150 39940 40040 82100 333 59004;
0178823920999992005112200004-03700-040350FM-12+008399999V0200501N002612200019N0040001N1+02831+01881100801ADDGA1001+999999999GF100991001001999999001001KA1240M+03781MA1999999099791MD1999999-0051REMSYN082AAXX  22004 82392 32996 00505 10283 20188 39979 40080 333 10378 29049 55111 59005;
0175823920999992005112212004-03700-040350FM-12+008399999V0200501N004610450019N0500001N1+02961+01961999999ADDGF106991041021004501031001KA1240N+02291MA1999999099951MD1999999-0021REMSYN076AAXX  22124 82392 32499 60509 10296 20196 39995 40296 84230 333 20229 59002;EQDQ01 102963APOSLP
0156823920999992005112218004-03700-040350FM-12+008399999V0200901N001012200019N0500001N1+03611+01641100362ADDGF102991021011004501001001MA1999999099361MD1999999-0041REMSYN070AAXX  22184 82392 32499 20902 10361 20164 39936 40036 82100 333 59004;EQDQ01+100363APOSLP
0178823920999992005112300004-03700-040350FM-12+008399999V0203601N002612200019N0040001N1+02811+01911100791ADDGA1001+999999999GF100991001001999999001001KA1240M+03701MA1999999099781MD1999999-0011REMSYN082AAXX  23004 82392 32996 03605 10281 20191 39978 40079 333 10370 29051 55088 59001;
0156823920999992005112312004-03700-040350FM-12+008399999V0200901N002112200019N0500001N1+02941+02081101011ADDGF104991041021004501001001KA1240N+02291MA1999999100001MD1999999+0051REMSYN076AAXX  23124 82392 32499 40904 10294 20208 30000 40101 84200 333 20229 58005;
0137823920999992005112318004-03700-040350FM-12+008399999V0200501N005112200019N0500001N1+03681+01291100461ADDGF103991031021004501001001MA1999999099461MD1999999+0101REMSYN070AAXX  23184 82392 32499 30510 10368 20129 39946 40046 83200 333 58010;
0178823920999992005112400004-03700-040350FM-12+008399999V0203601N002612200019N0040001N1+02811+02051100831ADDGA1001+999999999GF100991001001999999001001KA1240M+03701MA1999999099821MD1999999+0041REMSYN082AAXX  24004 82392 32996 03605 10281 20205 39982 40083 333 10370 29053 55092 58004;
0156823920999992005112412004-03700-040350FM-12+008399999V0200901N003110042019N0500001N1+02991+02051101061ADDGF106991061021004501001001KA1240N+02291MA1999999100051MD1999999+0051REMSYN076AAXX  24124 82392 32499 60906 10299 20205 30005 40106 86200 333 20229 58005;
0137823920999992005112418004-03700-040350FM-12+008399999V0200501N002610450019N0500001N1+03721+01621100621ADDGF105991041021004501011001MA1999999099621MD1999999+0161REMSYN070AAXX  24184 82392 32499 50505 10372 20162 39962 40062 84210 333 58016;
0178823920999992005112500004-03700-040350FM-12+008399999V0200501N004612200019N0040001N1+02791+02131100891ADDGA1001+999999999GF100991001001999999001001KA1240M+03801MA1999999099881MD1999999+0061REMSYN082AAXX  25004 82392 32996 00509 10279 20213 39988 40089 333 10380 29055 55097 58006;
0156823920999992005112512004-03700-040350FM-12+008399999V0200501N005112200019N0500001N1+03101+02121101031ADDGF103991031011004501001001KA1240N+02361MA1999999100021MD1999999-0031REMSYN076AAXX  25124 82392 32499 30510 10310 20212 30002 40103 83100 333 20236 59003;
0137823920999992005112518004-03700-040350FM-12+008399999V0200501N002610450019N0500001N1+03661+01671100541ADDGF105991031041004501011001MA1999999099541MD1999999-0081REMSYN070AAXX  25184 82392 32499 50505 10366 20167 39954 40054 83410 333 59008;
0178823920999992005112600004-03700-040350FM-12+008399999V0200501N005712200019N0040001N1+02781+02181100911ADDGA1001+999999999GF100991001001999999001001KA1240M+03681MA1999999099901MD1999999+0021REMSYN082AAXX  26004 82392 32996 00511 10278 20218 39990 40091 333 10368 29057 55071 58002;
0156823920999992005112612004-03700-040350FM-12+008399999V0200501N000510450019N0500001N1+02871+02181100951ADDGF106991041041004501031001KA1240N+02241MA1999999099931MD1999999-0091REMSYN076AAXX  26124 82392 32499 60501 10287 20218 39993 40095 84430 333 20224 59009;
0172823920999992005112618004-03700-040350FM-12+008399999V0203601N000510042019N0500001N1+03541+01761100341ADDGF106991051041004501031001MA1999999099351MD1999999-0201REMSYN070AAXX  26184 82392 32499 63601 10354 20176 39842 40034 85430 333 59020;EQDQ01+098423APOSP Q02+999990APOSP 
0168823920999992005112700004-03700-040350FM-12+008399999V0203601N001012200019N0040001N1+02721+02081100791ADDGF102991021011008001001001KA1240M+03631MA1999999099771MD1999999-0131REMSYN088AAXX  27004 82392 32596 23602 10272 20208 39977 40079 82100 333 10363 29059 55076 59013;
0156823920999992005112712004-03700-040350FM-12+008399999V0200501N001510450019N0500001N1+02901+02071100921ADDGF106991041021004501031001KA1240N+02301MA1999999099901MD1999999-0031REMSYN076AAXX  27124 82392 32499 60503 10290 20207 39990 40092 84230 333 20230 59003;
0137823920999992005112718004-03700-040350FM-12+008399999V0200501N004612200019N0500001N1+03501+01771100371ADDGF104991041021004501001001MA1999999099371MD1999999+0031REMSYN070AAXX  27184 82392 32499 40509 10350 20177 39937 40037 84200 333 58003;
0178823920999992005112800004-03700-040350FM-12+008399999V0200501N005112200019N0040001N1+02701+02151100721ADDGA1001+999999999GF100991001001999999001001KA1240M+03601MA1999999099731MD1999999-0071REMSYN082AAXX  28004 82392 32996 00510 10270 20215 39973 40072 333 10360 29060 55071 59007;
0156823920999992005112812004-03700-040350FM-12+008399999V0200501N003112200019N0500001N1+02961+02021100961ADDGF102991021011004501001001KA1240N+02321MA1999999099941MD1999999+0041REMSYN076AAXX  28124 82392 32499 20506 10296 20202 39994 40096 82100 333 20232 58004;
0168823920999992005112900004-03700-040350FM-12+008399999V0200501N003112200019N0040001N1+02761+02021100851ADDGF101991011001008001011001KA1240M+03541MA1999999099841MD1999999+0141REMSYN088AAXX  29004 82392 32596 10506 10276 20202 39984 40085 81010 333 10354 29056 55049 58014;
0156823920999992005112912004-03700-040350FM-12+008399999V0200901N002612200019N0500001N1+02981+01981100951ADDGF102991021011004501001001KA1240N+02271MA1999999099941MD1999999+0001REMSYN076AAXX  29124 82392 32499 20905 10298 20198 39994 40095 82100 333 20227 58000;
0137823920999992005112918004-03700-040350FM-12+008399999V0200901N001512200019N0500001N1+03611+01641100511ADDGF104991041021004501001001MA1999999099511MD1999999+0011REMSYN070AAXX  29184 82392 32499 40903 10361 20164 39951 40051 84200 333 58001;
0178823920999992005113000004-03700-040350FM-12+008399999V0200501N002612200019N0040001N1+02831+01961100901ADDGA1001+999999999GF100991001001999999001001KA1240M+03721MA1999999100892MD1999999+0051REMSYN082AAXX  30004 82392 32996 00505 10283 20196 30089 40090 333 10372 29051 55109 58005;
0156823920999992005113012004-03700-040350FM-12+008399999V0200901N005712200019N0500001N1+03121+01951100911ADDGF101991011011004501001001KA1240N+02471MA1999999099901MD1999999-0041REMSYN076AAXX  30124 82392 32499 10911 10312 20195 39990 40091 81100 333 20247 59004;
0137823920999992005113018004-03700-040350FM-12+008399999V0200901N003112200019N0500001N1+03661+01511100411ADDGF102991021011004501001001MA1999999099411MD1999999-0101REMSYN070AAXX  30184 82392 32499 20906 10366 20151 39941 40041 82100 333 59010;
0156823920999992005120112004-03700-040350FM-12+008399999V0200901N001012200019N0500001N1+03031+01881100941ADDGF103991021011004501001011KA1240N+02511MA1999999099931MD1999999+0031REMSYN076AAXX  01124 82392 32499 30902 10303 20188 39993 40094 82101 333 20251 58003;
0178823920999992005120200004-03700-040350FM-12+008399999V0200501N004612200019N0040001N1+02901+01901100711ADDGA1001+999999999GF100991001001999999001001KA1240M+03671MA1999999099701MD1999999-0021REMSYN082AAXX  02004 82392 32996 00509 10290 20190 39970 40071 333 10367 29053 55109 59002;
0156823920999992005120212004-03700-040350FM-12+008399999V0200501N003110450019N0500001N1+03001+02141100891ADDGF105991041021004501031001KA1240N+02411MA1999999099881MD1999999-0051REMSYN076AAXX  02124 82392 32499 50506 10300 20214 39988 40089 84230 333 20241 59005;
0178823920999992005120300004-03700-040350FM-12+008399999V0200501N004612200019N0040001N1+02721+02121100771ADDGA1001+999999999GF100991001001999999001001KA1240M+03701MA1999999099761MD1999999+0061REMSYN082AAXX  03004 82392 32996 00509 10272 20212 39976 40077 333 10370 29067 55082 58006;
0156823920999992005120312004-03700-040350FM-12+008399999V0200501N000510042019N0500001N1+03001+02171100941ADDGF105991051021004501001001KA1240N+02391MA1999999099931MD1999999+0051REMSYN076AAXX  03124 82392 32499 50501 10300 20217 39993 40094 85200 333 20239 58005;
0178823920999992005120400004-03700-040350FM-12+008399999V0203601N005112200019N0040001N1+02701+02331100871ADDGA1001+999999999GF100991001001999999001001KA1240M+03701MA1999999099861MD1999999+0101REMSYN082AAXX  04004 82392 32996 03610 10270 20233 39986 40087 333 10370 29074 55094 58010;
0156823920999992005120412004-03700-040350FM-12+008399999V0200901N001010450019N0500001N1+03011+02141101031ADDGF106991041041004501031001KA1240N+02461MA1999999100021MD1999999-0091REMSYN076AAXX  04124 82392 32499 60902 10301 20214 30002 40103 84430 333 20246 59009;
0178823920999992005120500004-03700-040350FM-12+008399999V0200501N003112200019N0040001N1+02741+02241100771ADDGA1001+999999999GF100991001001999999001001KA1240M+03601MA1999999099761MD1999999-0101REMSYN082AAXX  05004 82392 32996 00506 10274 20224 39976 40077 333 10360 29069 55076 59010;
0156823920999992005120512004-03700-040350FM-12+008399999V0200501N004610450019N0500001N1+02901+02171100881ADDGF107991041051004501031001KA1240N+02451MA1999999099861MD1999999-0161REMSYN076AAXX  05124 82392 32499 70509 10290 20217 39986 40088 84530 333 20245 59016;
0178823920999992005120600004-03700-040350FM-12+008399999V0203601N005712200019N0040001N1+02741+02171100721ADDGA1001+999999999GF100991001001999999001001KA1240M+03621MA1999999099701MD1999999-0061REMSYN082AAXX  06004 82392 32996 03611 10274 20217 39970 40072 333 10362 29069 55064 59006;
0156823920999992005120612004-03700-040350FM-12+008399999V0200501N001012200019N0500001N1+02981+01981100761ADDGF103991031021004501001001KA1240N+02381MA1999999099751MD1999999-0111REMSYN076AAXX  06124 82392 32499 30502 10298 20198 39975 40076 83200 333 20238 59011;
0213823920999992005120800004-03700-040350FM-12+008399999V0202301N000510042019N0040001N1+02501+02471100821ADDAA106000891AY121061AY261061GF108991051071004501021999KA1240M+03561MA1999999099801MD1999999+0101MW1021REMSYN100AAXX  08004 82392 21496 82301 10250 20247 39980 40082 70226 8572/ 333 10356 29087 55055 58010 69981;
0173823920999992005120812004-03700-040350FM-12+008399999V0200501N003112200019N0500001N1+02881+02031100921ADDAA124000891GF104991031021004501031001KA1240N+02321MA1999999099901MD1999999+0151REMSYN082AAXX  08124 82392 22499 40506 10288 20203 39990 40092 83230 333 20232 58015 69984;
0178823920999992005120900004-03700-040350FM-12+008399999V0200501N005112200019N0040001N1+02721+01881100961ADDGA1001+999999999GF100991001001999999001001KA1240M+03481MA1999999099941MD1999999+0141REMSYN082AAXX  09004 82392 32996 00510 10272 20188 39994 40096 333 10348 29060 55058 58014;
0156823920999992005120912004-03700-040350FM-12+008399999V0200901N002610042019N0500001N1+02921+02061101061ADDGF105991051021004501001001KA1240N+02331MA1999999100041MD1999999+0141REMSYN076AAXX  09124 82392 32499 50905 10292 20206 30004 40106 85200 333 20233 58014;
0168823920999992005121000004-03700-040350FM-12+008399999V0200501N004610450019N0040001N1+02761+01771100941ADDGF106991041011004501031001KA1240M+03621MA1999999099921MD1999999-0021REMSYN088AAXX  10004 82392 32496 60509 10276 20177 39992 40094 84130 333 10362 29057 55068 59002;
0156823920999992005121012004-03700-040350FM-12+008399999V0200901N004612200019N0500001N1+03041+01821101051ADDGF102991021011004501001001KA1240N+02221MA1999999100041MD1999999+0001REMSYN076AAXX  10124 82392 32499 20909 10304 20182 30004 40105 82100 333 20222 58000;
0178823920999992005121100004-03700-040350FM-12+008399999V0200501N005112200019N0040001N1+02721+02001100871ADDGA1001+999999999GF100991001001999999001001KA1240M+03721MA1999999099861MD1999999-0061REMSYN082AAXX  11004 82392 32996 00510 10272 20200 39986 40087 333 10372 29059 55100 59006;
0156823920999992005121112004-03700-040350FM-12+008399999V0200501N004112200019N0500001N1+02871+01971100871ADDGF104991021011004501031001KA1240N+02321MA1999999099851MD1999999-0191REMSYN076AAXX  11124 82392 32499 40508 10287 20197 39985 40087 82130 333 20232 59019;
0178823920999992005121200004-03700-040350FM-12+008399999V0200501N003112200019N0040001N1+02701+01991100821ADDGA1001+999999999GF100991001001999999001001KA1240M+03561MA1999999099801MD1999999-0061REMSYN082AAXX  12004 82392 32996 00506 10270 20199 39980 40082 333 10356 29063 55080 59006;
0156823920999992005121212004-03700-040350FM-12+008399999V0200501N004612200019N0500001N1+02881+01861100961ADDGF103991031021004501001001KA1240N+02081MA1999999099941MD1999999+0091REMSYN076AAXX  12124 82392 32499 30509 10288 20186 39994 40096 83200 333 20208 58009;
0168823920999992005121300004-03700-040350FM-12+008399999V0203601N005712200019N0040001N1+02761+01861100801ADDGF102991021001008001031001KA1240M+03761MA1999999099781MD1999999+0001REMSYN088AAXX  13004 82392 32596 23611 10276 20186 39978 40080 82030 333 10376 29057 55097 58000;
0156823920999992005121312004-03700-040350FM-12+008399999V0200901N002112200019N0500001N1+02901+01811100921ADDGF104991041021004501001001KA1240N+02241MA1999999099901MD1999999-0041REMSYN076AAXX  13124 82392 32499 40904 10290 20181 39990 40092 84200 333 20224 59004;
0178823920999992005121400004-03700-040350FM-12+008399999V0203601N003112200019N0040001N1+02721+01791100781ADDGA1001+999999999GF100991001001999999001001KA1240M+03661MA1999999099761MD1999999-0021REMSYN082AAXX  14004 82392 32996 03606 10272 20179 39976 40078 333 10366 29055 55097 59002;
0156823920999992005121412004-03700-040350FM-12+008399999V0200901N003612200019N0500001N1+03001+02001100911ADDGF101991011011004501001001KA1240N+02221MA1999999099901MD1999999+0001REMSYN076AAXX  14124 82392 32499 10907 10300 20200 39990 40091 81100 333 20222 58000;
0178823920999992005121500004-03700-040350FM-12+008399999V0203601N004612200019N0040001N1+02821+01861100811ADDGA1001+999999999GF100991001001999999001001KA1240M+03701MA1999999099801MD1999999+0041REMSYN082AAXX  15004 82392 32996 03609 10282 20186 39980 40081 333 10370 29057 55109 58004;
0168823920999992005121600004-03700-040350FM-12+008399999V0200501N003112200019N0040001N1+02861+01921100791ADDGF104991011021004501031001KA1240M+03661MA1999999099781MD1999999-0021REMSYN088AAXX  16004 82392 32496 40506 10286 20192 39978 40079 81230 333 10366 29056 55086 59002;
0156823920999992005121612004-03700-040350FM-12+008399999V0200901N004112200019N0500001N1+03001+02081101011ADDGF103991031021004501001001KA1240N+02311MA1999999100001MD1999999+0081REMSYN076AAXX  16124 82392 32499 30908 10300 20208 30000 40101 83200 333 20231 58008;
0178823920999992005121700004-03700-040350FM-12+008399999V0203601N004612200019N0040001N1+02801+01811100811ADDGA1001+999999999GF100991001001999999001001KA1240M+03701MA1999999099801MD1999999+0021REMSYN082AAXX  17004 82392 32996 03609 10280 20181 39980 40081 333 10370 29056 55108 58002;
0178823920999992005121800004-03700-040350FM-12+008399999V0203601N002612200019N0040001N1+02921+01951100911ADDGA1001+999999999GF100991001001999999001001KA1240M+03701MA1999999099901MD1999999+0101REMSYN082AAXX  18004 82392 32996 03605 10292 20195 39990 40091 333 10370 29056 55101 58010;
0156823920999992005121812004-03700-040350FM-12+008399999V0200901N002112200019N0500001N1+03061+02081101091ADDGF102991021011004501001001KA1240N+02311MA1999999100081MD1999999-0021REMSYN076AAXX  18124 82392 32499 20904 10306 20208 30008 40109 82100 333 20231 59002;
0178823920999992005121900004-03700-040350FM-12+008399999V0203601N003112200019N0040001N1+02901+01961100911ADDGA1001+999999999GF100991001001999999001001KA1240M+03691MA1999999099901MD1999999+0001REMSYN082AAXX  19004 82392 32996 03606 10290 20196 39990 40091 333 10369 29057 55108 58000;
0156823920999992005121912004-03700-040350FM-12+008399999V0200901N001512200019N0500001N1+03061+02141101051ADDGF104991021011004501031001KA1240N+02401MA1999999100041MD1999999-0041REMSYN076AAXX  19124 82392 32499 40903 10306 20214 30004 40105 82130 333 20240 59004;
0178823920999992005122000004-03700-040350FM-12+008399999V0200501N004112200019N0040001N1+02901+02171100851ADDGA1001+999999999GF100991001001999999001001KA1240M+03801MA1999999099841MD1999999-0061REMSYN082AAXX  20004 82392 32996 00508 10290 20217 39984 40085 333 10380 29063 55100 59006;
0178823920999992005122100004-03700-040350FM-12+008399999V0200501N002612200019N0040001N1+02881+02131100951ADDGA1001+999999999GF100991001001999999001001KA1240M+03741MA1999999099941MD1999999+0101REMSYN082AAXX  21004 82392 32996 00505 10288 20213 39994 40095 333 10374 29061 55100 58010;
0156823920999992005122112004-03700-040350FM-12+008399999V0200901N004612200019N0500001N1+03021+01991101111ADDGF104991031021004501031001KA1240N+02411MA1999999100101MD1999999+0101REMSYN076AAXX  21124 82392 32499 40909 10302 20199 30010 40111 83230 333 20241 58010;
0178823920999992005122200004-03700-040350FM-12+008399999V0203601N005112200019N0040001N1+02801+02001100951ADDGA1001+999999999GF100991001001999999001001KA1240M+03701MA1999999099941MD1999999+0001REMSYN082AAXX  22004 82392 32996 03610 10280 20200 39994 40095 333 10370 29059 55087 58000;
0156823920999992005122212004-03700-040350FM-12+008399999V0200901N003112200019N0500001N1+02951+02081101151ADDGF103991031021004501031001KA1240N+02341MA1999999100141MD1999999+0041REMSYN076AAXX  22124 82392 32499 30906 10295 20208 30014 40115 83230 333 20234 58004;
0178823920999992005122300004-03700-040350FM-12+008399999V0200501N004612200019N0040001N1+02801+01951100951ADDGA1001+999999999GF100991001001999999001001KA1240M+03641MA1999999099941MD1999999+0001REMSYN082AAXX  23004 82392 32996 00509 10280 20195 39994 40095 333 10364 29060 55081 58000;
0156823920999992005122312004-03700-040350FM-12+008399999V0200501N002112200019N0500001N1+02921+01981101151ADDGF103991031011004501001001KA1240N+02221MA1999999100141MD1999999+0001REMSYN076AAXX  23124 82392 32499 30504 10292 20198 30014 40115 83100 333 20222 58000;
0178823920999992005122400004-03700-040350FM-12+008399999V0203601N005712200019N0040001N1+02701+02221100891ADDGA1001+999999999GF100991001001999999001001KA1240M+03681MA1999999099871MD1999999-0071REMSYN082AAXX  24004 82392 32996 03611 10270 20222 39987 40089 333 10368 29069 55094 59007;
0156823920999992005122412004-03700-040350FM-12+008399999V0200901N002612200019N0040001N1+02991+01891101121ADDGF104991041021999999031001KA1240N+02321MA1999999100101MD1999999-0041REMSYN076AAXX  24124 82392 32996 40905 10299 20189 30010 40112 84230 333 20232 59004;
0178823920999992005122500004-03700-040350FM-12+008399999V0203601N002612200019N0040001N1+02761+01891100911ADDGA1001+999999999GF100991001001999999001001KA1240M+03581MA1999999099901MD1999999+0031REMSYN082AAXX  25004 82392 32996 03605 10276 20189 39990 40091 333 10358 29057 55074 58003;
0156823920999992005122512004-03700-040350FM-12+008399999V0200901N002112200019N0500001N1+03001+02171101111ADDGF103991031021004501001001KA1240N+02501MA1999999100101MD1999999+0001REMSYN076AAXX  25124 82392 32499 30904 10300 20217 30010 40111 83200 333 20250 58000;
0168823920999992005122600004-03700-040350FM-12+008399999V0200501N004110450019N0040001N1+02761+02141101011ADDGF107991041051004501031001KA1240M+03541MA1999999100001MD1999999+0101REMSYN088AAXX  26004 82392 32496 70508 10276 20214 30000 40101 84530 333 10354 29066 55055 58010;
0175823920999992005122612004-03700-040350FM-12+008399999V0200501N001010042019N0500001N1+02871+02251101081ADDGF107991999021004501001001KA1240N+02471MA1999999100061MD1999999-0041REMSYN076AAXX  26124 82392 32499 70502 10287 20225 30006 40108 85200 333 20247 59004;EQDQ01+000052SCOTLC
0178823920999992005122700004-03700-040350FM-12+008399999V0200501N003112200019N0040001N1+02741+02141100861ADDGA1001+999999999GF100991001001999999001001KA1240M+03581MA1999999099841MD1999999-0161REMSYN082AAXX  27004 82392 32996 00506 10274 20214 39984 40086 333 10358 29070 55046 59016;
0156823920999992005122712004-03700-040350FM-12+008399999V0201401N002110450019N0500001N1+02901+02021101041ADDGF106991041021004501031001KA1240N+02451MA1999999100021MD1999999-0041REMSYN076AAXX  27124 82392 32499 61404 10290 20202 30002 40104 84230 333 20245 59004;
0168823920999992005122800004-03700-040350FM-12+008399999V0200501N004610042019N0040001N1+02761+02231100771ADDGF106991061041004501001001KA1240M+03521MA1999999099751MD1999999-0091REMSYN088AAXX  28004 82392 32496 60509 10276 20223 39975 40077 86400 333 10352 29068 55043 59009;
0156823920999992005122812004-03700-040350FM-12+008399999V0201401N001510450019N0500001N1+02561+02531101021ADDGF108991041051004501021001KA1240N+02531MA1999999100001MD1999999-0021REMSYN076AAXX  28124 82392 32499 81403 10256 20253 30000 40102 84520 333 20253 59002;
0213823920999992005122900004-03700-040350FM-12+008399999V0201801N000510450019N0040001N1+02401+02371101031ADDAA106018091AY161061AY261061GF108991041071004501021999KA1240M+03161MA1999999100001MD1999999+0251MW1021REMSYN100AAXX  29004 82392 21496 81801 10240 20237 30000 40103 70266 8472/ 333 10316 29098 55000 58025 60181;
0173823920999992005122912004-03700-040350FM-12+008399999V0200501N002610450019N0500001N1+02881+01941100971ADDAA124018091GF106991041041004501031001KA1240N+02281MA1999999099951MD1999999-0051REMSYN082AAXX  29124 82392 22499 60505 10288 20194 39995 40097 84430 333 20228 59005 60184;
0178823920999992005123000004-03700-040350FM-12+008399999V0200501N003112200019N0040001N1+02721+01821100871ADDGA1001+999999999GF100991001001999999001001KA1240M+03521MA1999999099851MD1999999-0151REMSYN082AAXX  30004 82392 32996 00506 10272 20182 39985 40087 333 10352 29058 55097 59015;
0156823920999992005123012004-03700-040350FM-12+008399999V0201401N003112200019N0500001N1+02901+01811100971ADDGF103991031011004501001001KA1240N+02241MA1999999099951MD1999999+0001REMSYN076AAXX  30124 82392 32499 31406 10290 20181 39995 40097 83100 333 20224 58000;
0175823920999992005123112004-03700-040350FM-12+008399999V0200901N003112200019N0500001N1+02901+01921100961ADDGF103991999031004501001001KA1240N+02291MA1999999099951MD1999999+0001REMSYN076AAXX  31124 82392 32499 30906 10290 20192 39995 40096 85300 333 20229 58000;EQDQ01+000052SCOTLC
0137823920999992005123118004-03700-040350FM-12+008399999V0209999C000010450019N0500001N1+03461+01231100551ADDGF108991041051004501021999MA1999999099551MD1999999-0051REMSYN070AAXX  31184 82392 32499 80000 10346 20123 39955 40055 8452/ 333 59005;
