0211823970999992005032212004-03767-038550FM-12+001999999V0201401N002110450019N0200001N1+02801+02441101341ADDAA124007091AY161061AY251061GF107991041051008001071011KA1240N+02481MA1100711101031MD1999999-0041MW1031REMSYN098AAXX  22124 82397 21598 71404 10280 20244 30103 40134 70365 84571 333 20248 59004 60074 555 10073;
0186823970999992005032612004-03767-038550FM-12+001999999V0200901N001010450019N0200001N1+02711+02371101341ADDAA106000091GF107991041081008001071031KA1240N+02441MA1999999101031MD1999999+0031REMSYN076AAXX  26124 82397 32598 70902 10271 20237 30103 40134 84873 333 20244 58003;EQDQ01  00002PRCP06
0167823970999992005052518004-03767-038550FM-12+001999999V0200901N003112200019N0200001N1+02971+02471101151ADDAA106000091GF103991021011008001001011MA1999999100841MD1999999+0131REMSYN070AAXX  25184 82397 32598 30906 10297 20247 30084 40115 82101 333 58013;EQDQ01  00002PRCP06
0186823970999992005062912004-03767-038550FM-12+001999999V0201401N003110075019N0200001N1+02421+02251101501ADDAA106000091GF108991081051008001999999KA1240N+02211MA1999999101191MD1999999+0091REMSYN076AAXX  29124 82397 32598 81406 10242 20225 30119 40150 885// 333 20221 58009;EQDQ01  00002PRCP06
0115823970999992005091418004-03767-038600FM-12+002699999V0200901N005112200019N0040001N1+03051+02211999999ADDGF103991999999008001999999REMSYN077AAXX  14184 82397 31596 30910 10305 202218 30087 40118 70500 82101 333 58001;
0156823970999992005091612004-03767-038600FM-12+002699999V0201401N004612200019N0200001N1+02901+01691101701ADDGF102991021041008001001001KA1240N+02361MA1999999101391MD1999999-0011REMSYN076AAXX  16124 82397 32598 21409 10290 20169 30139 40170 82400 333 20236 59001;
