0167825640999992005011618004-05533-047450FM-12+0131SBIZ V0209999C000010450019N0020001N1+03041+02501100631ADDAA106000091GF106991041041008001091001MA1999999099231MD1999999-0131REMSYN070AAXX  16184 82564 32595 60000 10304 20250 39923 40063 84490 333 59013;EQDQ01  00002PRCP06
0162825640999992005020213004-05533-047450FM-15+0131SBIZ V0209999C00001006001CN0112651N1+02901+02401999999ADDGA1045+004501999GA2075+006001999GF107991999999999999999999MA1101021999999MW1001REMMET052SBIZ 021300Z 00000KT 9999 SCT015 BKN020 29/24 Q1010;EQDQ01+000000PRSWM2
0162825640999992005050212004-05533-047450FM-15+0131SBIZ V0209999C00001004501CN0112651N1+02601+02301999999ADDGA1075+004501999GA2075+027001999GF107991999999999999999999MA1101491999999MW1001REMMET052SBIZ 021200Z 00000KT 9999 BKN015 BKN090 26/23 Q1015;EQDQ01+000000PRSWM2
0185825640999992005050213004-05533-047450FM-15+0131SBIZ V0209999C00001027001CN0112651N1+02901+02501999999ADDGA1045+006001999GA2045+027001999GA3071+120001999GF107991999999999999999999MA1101491999999MW1001REMMET059SBIZ 021300Z 00000KT 9999 SCT020 SCT090 BKN400 29/25 Q1015;EQDQ01+000000PRSWM2
0139825640999992005050214004-05533-047450FM-15+0131SBIZ V0209999C00001006001CN0112651N1+03001+02401999999ADDGA1075+006001999GF107991999999999999999999MA1101491999999MW1001REMMET045SBIZ 021400Z 00000KT 9999 BKN020 30/24 Q1015;EQDQ01+000000PRSWM2
0139825640999992005050215004-05533-047450FM-15+0131SBIZ V0202701N00151006001CN0112651N1+03201+02301999999ADDGA1075+006001999GF107991999999999999999999MA1101391999999MW1001REMMET045SBIZ 021500Z 27003KT 9999 BKN020 32/23 Q1014;EQDQ01+000000PRSWM2
0139825640999992005050216004-05533-047450FM-15+0131SBIZ V0202701N005112200019N0112651N1+03001+02401999999ADDGA1045+006001999GF104991999999999999999999MA1101191999999MW1001REMMET045SBIZ 021600Z 27010KT 9999 SCT020 30/24 Q1012;EQDQ01+000000PRSWM2
0139825640999992005050217004-05533-047450FM-15+0131SBIZ V0202901N005112200019N0112651N1+03201+02301999999ADDGA1045+006001999GF104991999999999999999999MA1101081999999MW1001REMMET045SBIZ 021700Z 29010KT 9999 SCT020 32/23 Q1011;EQDQ01+000000PRSWM2
0139825640999992005050219004-05533-047450FM-15+0131SBIZ V0202101N002612200019N0112651N1+03301+02301999999ADDGA1045+006001999GF104991999999999999999999MA1101021999999MW1001REMMET045SBIZ 021900Z 21005KT 9999 SCT020 33/23 Q1010;EQDQ01+000000PRSWM2
0139825640999992005050220004-05533-047450FM-15+0131SBIZ V0202001N002612200019N0112651N1+03001+02401999999ADDGA1045+006001999GF104991999999999999999999MA1101081999999MW1001REMMET045SBIZ 022000Z 20005KT 9999 SCT020 30/24 Q1011;EQDQ01+000000PRSWM2
0175825640999992005050220404-05533-047450FM-16+0131SBIZ V0201801N00211006001CN0090001N1+02901+02401999999ADDGA1045+004501999GA2075+006001999GA3025+007501095MA1101191999999MW1161MW2171REMMET069SBIZ 022040Z 18004KT 9000 TS VCSH SCT015 BKN020 FEW025CB 29/24 Q1012;EQDQ01    003PRSWM1
0207825640999992005050220454-05533-047450FM-15+0131SBIZ V0201801N00211006001CN0090001N1+02901+02401999999ADDGA1045+004501999GA2075+006001999GA3025+007501095MA1101081999999MW1161MW2171REMMET069SBIZ 022045Z 18004KT 9000 TS VCSH SCT015 BKN020 FEW025CB 29/24 Q1011;EQDQ01+000022SCOTCVQ02+000003PRSWM1Q03    003PRSWM1
0167825640999992005051318004-05533-047450FM-12+0131SBIZ V0200901N001510450019N0100001N1+03211+02211100811ADDAA106000091GF107991031041008001091001MA1999999099421MD1999999-0021REMSYN070AAXX  13184 82564 32597 70903 10321 20221 39942 40081 83490 333 59002;EQDQ01  00002PRCP06
0181825640999992005052915004-05530-047500FM-15+0123SBIZ V0201001N011312200019N0112651N1+03101+02001999999ADDGA1025+006001999GF102991999999999999999999MA1101291999999REMMET045SBIZ 291500Z 10022KT 9999 FEW020 31/20 Q1013;EQDQ01+000000PRSWM1Q02+000000PRSWM2Q03+000000PRSWM3Q04+000000PRSWM4
0181825640999992005090315004-05533-047450FM-15+0131SBIZ V0201201N00771006001CN0112651N1+03401+02101999999ADDGA1075+006001999GF107991999999999999999999MA1101191999999REMMET045SBIZ 031500Z 12015KT 9999 BKN020 34/21 Q1012;EQDQ01+000000PRSWM1Q02+000000PRSWM2Q03+000000PRSWM3Q04+000000PRSWM4
0181825640999992005090316004-05533-047450FM-15+0131SBIZ V0200601N00311006001CN0112651N1+03401+02001999999ADDGA1075+006001999GF107991999999999999999999MA1101081999999REMMET045SBIZ 031600Z 06006KT 9999 BKN020 34/20 Q1011;EQDQ01+000000PRSWM1Q02+000000PRSWM2Q03+000000PRSWM3Q04+000000PRSWM4
0137825640999992005111618004-05533-047500FM-12+0123SBIZ V0200501N001510450019N0020001N1+02901+02341100801ADDGF108991021051004501091091MA1999999099391MD1999999+0131REMSYN070AAXX  16184 82564 32495 80503 10290 20234 39939 40080 82599 333 58013;
