0220825710999992005010100004-05500-045267FM-12+017499999V0201801N001012200019N0100001N1+02721+02611101031ADDAA106000091GA1001+999999999GF100991001001999999001001KA1240M+03071MA1999999099291MD1999999+0001MW1131REMSYN088AAXX  01004 82571 31997 01802 10272 20261 39929 40103 713// 333 10307 29090 55024 58000;EQDQ01  00002PRCP06
0162825710999992005010112004-05500-045267FM-12+017499999V0200501N003110042019N0100001N1+02641+02271101241ADDGF106991061051004501001001KA1240N+02391MA1999999099501MD1999999-0101REMSYN082AAXX  01124 82571 22497 60506 10264 20227 39950 40124 86500 333 20239 59010 60064;
0167825710999992005010118004-05500-045267FM-12+017499999V0203201N001012200019N0100001N1+03151+02451100891ADDAA106000091GF104991041021004501001001MA1999999099171MD1999999-0081REMSYN070AAXX  01184 82571 32497 43202 10315 20245 39917 40089 84200 333 59008;EQDQ01  00002PRCP06
0208825710999992005010200004-05500-045267FM-12+017499999V0209999C000012200019N0100001N1+02821+02701100991ADDAA106000091GA1001+999999999GF100991001001999999001001KA1240M+03251MA1999999099261MD1999999-0031REMSYN082AAXX  02004 82571 32997 00000 10282 20270 39926 40099 333 10325 29083 55075 59003;EQDQ01  00002PRCP06
0186825710999992005010212004-05500-045267FM-12+017499999V0200501N001010042019N0100001N1+02611+02291101311ADDAA106000091GF106991051051004501031001KA1240N+02391MA1999999099571MD1999999+0071REMSYN076AAXX  02124 82571 32497 60502 10261 20229 39957 40131 85530 333 20239 58007;EQDQ01  00002PRCP06
0167825710999992005010218004-05500-045267FM-12+017499999V0201801N001010042019N0100001N1+03051+02301101071ADDAA106000091GF106991051021004501001011MA1999999099341MD1999999+0171REMSYN070AAXX  02184 82571 32497 61802 10305 20230 39934 40107 85201 333 58017;EQDQ01  00002PRCP06
0188825710999992005010300004-05500-045267FM-12+017499999V0202301N001012200019N0100001N1+02721+02431101171ADDAA106000091GA1001+999999999GF100991001001999999001001KA1240M+03151MA1999999099431REMSYN076AAXX  03004 82571 32997 02302 10272 20243 39943 40117 333 10315 29031 58807;EQDQ01  00002PRCP06
0186825710999992005010312004-05500-045267FM-12+017499999V0203601N001012200019N0100001N1+02671+02371101321ADDAA106000091GF103991031021004501001001KA1240N+02341MA1999999099581MD1999999+0011REMSYN076AAXX  03124 82571 32497 33602 10267 20237 39958 40132 83200 333 20234 58001;EQDQ01  00002PRCP06
0167825710999992005010318004-05500-045267FM-12+017499999V0203601N001012200019N0100001N1+03331+02311100901ADDAA106000091GF102991021021004501001001MA1999999099191MD1999999-0151REMSYN070AAXX  03184 82571 32497 23602 10333 20231 39919 40090 82200 333 59015;EQDQ01  00002PRCP06
0208825710999992005010400004-05500-045267FM-12+017499999V0201401N001012200019N0100001N1+02851+02331101071ADDAA106000091GA1001+999999999GF100991001001999999001001KA1240M+03431MA1999999099341MD1999999-0091REMSYN082AAXX  04004 82571 32997 01402 10285 20233 39934 40107 333 10343 29071 55100 59009;EQDQ01  00002PRCP06
0186825710999992005010412004-05500-045267FM-12+017499999V0200201N001010450019N0100001N1+02591+02351101151ADDAA106000091GF106991011021004501051001KA1240N+02361MA1999999099411MD1999999-0171REMSYN076AAXX  04124 82571 32497 60202 10259 20235 39941 40115 81250 333 20236 59017;EQDQ01  00002PRCP06
0167825710999992005010418004-05500-045267FM-12+017499999V0200901N003112200019N0100001N1+03411+02231100681ADDAA106000091GF103991031021004501001001MA1999999098971MD1999999-0221REMSYN070AAXX  04184 82571 32497 30906 10341 20223 39897 40068 83200 333 59022;EQDQ01  00002PRCP06
0208825710999992005010500004-05500-045267FM-12+017499999V0209999C000012200019N0100001N1+02911+02361100861ADDAA106000091GA1001+999999999GF100991001001999999001001KA1240M+03501MA1999999099131MD1999999-0211REMSYN082AAXX  05004 82571 32997 00000 10291 20236 39913 40086 333 10350 29070 55083 59021;EQDQ01  00002PRCP06
0186825710999992005010512004-05500-045267FM-12+017499999V0200901N003112200019N0100001N1+02791+02251101121ADDAA106000091GF102991011021004501051001KA1240N+02391MA1999999099391MD1999999-0021REMSYN076AAXX  05124 82571 32497 20906 10279 20225 39939 40112 81250 333 20239 59002;EQDQ01  00002PRCP06
0167825710999992005010518004-05500-045267FM-12+017499999V0201401N003112200019N0100001N1+03441+02141100611ADDAA106000091GF103991031021004501001001MA1999999098911MD1999999-0061REMSYN070AAXX  05184 82571 32497 31406 10344 20214 39891 40061 83200 333 59006;EQDQ01  00002PRCP06
0208825710999992005010600004-05500-045267FM-12+017499999V0209999C000012200019N0100001N1+02971+02351100751ADDAA106000091GA1001+999999999GF100991001001999999001001KA1240M+03541MA1999999099041MD1999999-0091REMSYN082AAXX  06004 82571 32997 00000 10297 20235 39904 40075 333 10354 29064 55113 59009;EQDQ01  00002PRCP06
0186825710999992005010612004-05500-045267FM-12+017499999V0200901N002112200019N0100001N1+02821+02291101061ADDAA106000091GF102991001001999999001011KA1240N+02421MA1999999099341MD1999999-0051REMSYN076AAXX  06124 82571 32997 20904 10282 20229 39934 40106 80001 333 20242 59005;EQDQ01  00002PRCP06
0167825710999992005010618004-05500-045267FM-12+017499999V0201401N003112200019N0100001N1+03491+02021100561ADDAA106000091GF102991021021004501001001MA1999999098861MD1999999-0051REMSYN070AAXX  06184 82571 32497 21406 10349 20202 39886 40056 82200 333 59005;EQDQ01  00002PRCP06
0208825710999992005010700004-05500-045267FM-12+017499999V0209999C000012200019N0100001N1+02971+02231100751ADDAA106000091GA1001+999999999GF100991001001999999001001KA1240M+03551MA1999999099041MD1999999+0001REMSYN082AAXX  07004 82571 32997 00000 10297 20223 39904 40075 333 10355 29061 55114 58000;EQDQ01  00002PRCP06
0186825710999992005010712004-05500-045267FM-12+017499999V0200201N002112200019N0100001N1+02801+02341101071ADDAA106000091GF102991021011004501001001KA1240N+02301MA1999999099351MD1999999+0011REMSYN076AAXX  07124 82571 32497 20204 10280 20234 39935 40107 82100 333 20230 58001;EQDQ01  00002PRCP06
0167825710999992005010718004-05500-045267FM-12+017499999V0201601N002112200019N0100001N1+03511+02221100651ADDAA106000091GF103991031021004501001001MA1999999098951MD1999999+0091REMSYN070AAXX  07184 82571 32497 31604 10351 20222 39895 40065 83200 333 58009;EQDQ01  00002PRCP06
0208825710999992005010800004-05500-045267FM-12+017499999V0209999C000012200019N0100001N1+03031+02381100801ADDAA106000091GA1001+999999999GF100991001001999999001001KA1240M+03631MA1999999099081MD1999999+0041REMSYN082AAXX  08004 82571 32997 00000 10303 20238 39908 40080 333 10363 29065 55108 58004;EQDQ01  00002PRCP06
0186825710999992005010812004-05500-045267FM-12+017499999V0203601N001012200019N0100001N1+02771+02271101061ADDAA106000091GF101991011011004501001001KA1240N+02351MA1999999099341MD1999999-0011REMSYN076AAXX  08124 82571 32497 13602 10277 20227 39934 40106 81100 333 20235 59001;EQDQ01  00002PRCP06
0167825710999992005010818004-05500-045267FM-12+017499999V0200501N001012200019N0100001N1+03471+02041100731ADDAA106000091GF102991021021004501001001MA1999999099031MD1999999+0081REMSYN070AAXX  08184 82571 32497 20502 10347 20204 39903 40073 82200 333 58008;EQDQ01  00002PRCP06
0179825710999992005010900004-05500-045270FM-12+015399999V0203601N001012200019N0100001N1+02991+02221100751ADDAA106000091GF100991001001999999001001MA1999999099041MD1999999-0041REMSYN082AAXX  09004 82571 32997 03602 10299 20222 39904 40075 333 10362 29061 55109 59004;EQDQ01  00002PRCP06
0173825710999992005010912004-05500-045270FM-12+015399999V0200501N001010450019N0100001N1+02691+02371101241ADDAA106000091GF106991041051004501031001MA1999999099511MD1999999+0171REMSYN076AAXX  09124 82571 32497 60502 10269 20237 39951 40124 84530 333 20251 58017;EQDQ01  00002PRCP06
0155825710999992005010918004-05500-045270FM-12+015399999V0201801N001012200019N0100001N1+03281+02321100741ADDGF104991031021004501001011MA1999999099031MD1999999+0001MW1801REMSYN082AAXX  09184 82571 21497 41802 10328 20232 39903 40074 780// 83201 333 58000 69921;
0217825710999992005011000004-05500-045267FM-12+017499999V0202301N001012200019N0100001N1+02511+02291100921ADDAA106000021AY191061AY221061GA1001+999999999GF100991001001999999001001KA1240M+03431MA1999999099181MD1999999+0141MW1131REMSYN088AAXX  10004 82571 31497 02302 10251 20229 39918 40092 71392 333 10343 29078 55015 58014;
0162825710999992005011012004-05500-045267FM-12+017499999V0200501N003110450019N0100001N1+02741+02321101141ADDGF106991041021004501031001KA1240N+02301MA1999999099401MD1999999-0111REMSYN082AAXX  10124 82571 22497 60506 10274 20232 39940 40114 84230 333 20230 59011 69924;
0167825710999992005011018004-05500-045267FM-12+017499999V0200501N001010450019N0100001N1+03241+02281100811ADDAA106000091GF106991031021004501041011MA1999999099091MD1999999+0061REMSYN070AAXX  10184 82571 32497 60502 10324 20228 39909 40081 83241 333 58006;EQDQ01  00002PRCP06
0198825710999992005011100004-05500-045267FM-12+017499999V0201401N001010042019N0100001N1+02761+02281100951ADDAA106000091GF108991051041004501999999KA1240M+03371MA1999999099221MD1999999+0041REMSYN088AAXX  11004 82571 32497 81402 10276 20228 39922 40095 854// 333 10337 29071 55047 58004;EQDQ01  00002PRCP06
0186825710999992005011112004-05500-045267FM-12+017499999V0200501N001010090019N0100001N1+02741+02341101141ADDAA106000091GF106991061081004501001001KA1240N+02381MA1999999099411MD1999999+0011REMSYN076AAXX  11124 82571 32497 60502 10274 20234 39941 40114 86800 333 20238 58001;EQDQ01  00002PRCP06
0167825710999992005011118004-05500-045267FM-12+017499999V0200501N003112200019N0100001N1+03421+02261100721ADDAA106000091GF104991041021004501001001MA1999999099011MD1999999-0081REMSYN070AAXX  11184 82571 32497 40506 10342 20226 39901 40072 84200 333 59008;EQDQ01  00002PRCP06
0162825710999992005011212004-05500-045267FM-12+017499999V0200501N004119999999N0100001N1+02851+02331101131ADDGF106991041021004501999999KA1240N+02521MA1999999099401MD1999999-0011REMSYN082AAXX  12124 82571 22497 60508 10285 20233 39940 40113 842// 333 20252 59001 69914;
0167825710999992005011218004-05500-045267FM-12+017499999V0200501N002110450019N0100001N1+03251+02331100741ADDAA106000091GF107991041021004501071001MA1999999099031MD1999999+0021REMSYN070AAXX  12184 82571 32497 70504 10325 20233 39903 40074 84270 333 58002;EQDQ01  00002PRCP06
0208825710999992005011300004-05500-045267FM-12+017499999V0202301N001012200019N0100001N1+02941+02471100821ADDAA106000091GA1001+999999999GF100991001001999999001001KA1240M+03371MA1999999099101MD1999999-0081REMSYN082AAXX  13004 82571 32997 02302 10294 20247 39910 40082 333 10337 29071 55032 59008;EQDQ01  00002PRCP06
0186825710999992005011312004-05500-045267FM-12+017499999V0200501N002110042019N0100001N1+02771+02341101161ADDAA106000091GF107991061021004501031001KA1240N+02581MA1999999099431MD1999999+0031REMSYN076AAXX  13124 82571 32497 70504 10277 20234 39943 40116 86230 333 20258 58003;EQDQ01  00002PRCP06
0167825710999992005011318004-05500-045267FM-12+017499999V0201401N001010450019N0100001N1+03071+02321100791ADDAA106000091GF107991011011004501071001MA1999999099071MD1999999+0041REMSYN070AAXX  13184 82571 32497 71402 10307 20232 39907 40079 81170 333 58004;EQDQ01  00002PRCP06
0210825710999992005011400004-05500-045267FM-12+017499999V0201401N001010042019N0100001N1+02821+02441100951ADDAA106000091GF106991061021004501001001KA1240M+03151MA1999999099221MD1999999+0121MW1131REMSYN094AAXX  14004 82571 31497 61402 10282 20244 39922 40095 713// 86200 333 10315 29075 55012 58012;EQDQ01  00002PRCP06
0201825710999992005011412004-05500-045267FM-12+017499999V0200501N002119999999N0100001N1+02631+02391101101ADDAY161061GF106991999041004501031001KA1240N+02481MA1999999099361MD1999999-0071MW1011REMSYN088AAXX  14124 82571 21497 60504 10263 20239 39936 40110 7016/ 88430 333 20248 59007 69924;EQDQ01+000082SCOTLC
0167825710999992005011418004-05500-045267FM-12+017499999V0203201N001010450019N0100001N1+03261+02301100591ADDAA106000091GF106991031021004501011011MA1999999098881MD1999999-0191REMSYN070AAXX  14184 82571 32497 63202 10326 20230 39888 40059 83211 333 59019;EQDQ01  00002PRCP06
0190825710999992005011512004-05500-045267FM-12+017499999V0202301N001010042019N0100001N1+02451+02411101091ADDAY161061AY211061GF108991081051004501999999KA1240N+02401MA1999999099341MD1999999-0021MW1021REMSYN088AAXX  15124 82571 21497 82302 10245 20241 39934 40109 70261 885// 333 20240 59002 60064;
0171825710999992005011518004-05500-045267FM-12+017499999V0202701N001010042019N0100001N1+02351+02291100971ADDAY191061AY261061GF108991081051004501999999MA1999999099221MD1999999+0341MW1611REMSYN082AAXX  15184 82571 21497 82702 10235 20229 39922 40097 76196 885// 333 58034 60041;
0202825710999992005011600004-05500-045267FM-12+017499999V0202301N001010042019N0100001N1+02351+02291101071ADDAY161061AY261061GF108991081051004501999999KA1240M+02671MA1999999099311MD1999999+0131MW1511REMSYN100AAXX  16004 82571 21497 82302 10235 20229 39931 40107 75166 885// 333 10267 29096 55002 58013 60091;
0182825710999992005011612004-05500-045267FM-12+017499999V0201401N001010042019N0100001N1+02381+02311101111ADDAY161061GF107991051051004501031001KA1240N+02361MA1999999099351MD1999999+0011MW1021REMSYN088AAXX  16124 82571 21497 71402 10238 20231 39935 40111 7026/ 85530 333 20236 58001 60134;
0167825710999992005011618004-05500-045267FM-12+017499999V0200501N001010450019N0100001N1+02971+02371100621ADDAA106000091GF106991031031004501041011MA1999999098891MD1999999-0331REMSYN070AAXX  16184 82571 32497 60502 10297 20237 39889 40062 83341 333 59033;EQDQ01  00002PRCP06
0189825710999992005011700004-05500-045270FM-12+015399999V0201401N001010150019N0100001N1+02441+02321100831ADDAY161061AY221061GF105991051001017501071001MA1999999099081MD1999999-0231MW1021REMSYN100AAXX  17004 82571 21797 51402 10244 20232 39908 40083 70262 85070 333 10307 29088 55017 59023 60011;
0169825710999992005011712004-05500-045270FM-12+015399999V0200501N001010042019N0100001N1+02411+02331101081ADDAY161061GF108991081051004501999999MA1999999099321MD1999999-0031MW1021REMSYN088AAXX  17124 82571 21497 80502 10241 20233 39932 40108 7026/ 885// 333 20232 59003 60034;
0171825710999992005011718004-05500-045270FM-12+015399999V0201401N001010042019N0100001N1+02531+02401100751ADDAY161061AY221061GF106991061051004501001001MA1999999099001MD1999999+0111MW1611REMSYN082AAXX  17184 82571 21497 61402 10253 20240 39900 40075 76162 86500 333 58011 60021;
0179825710999992005011800004-05500-045267FM-12+017499999V0200901N001010150019N0100001N1+02481+02341100951ADDAA106000021GF105991051001017501071001KA1240M+03051MA1999999099201MD1999999+0121REMSYN088AAXX  18004 82571 32797 50902 10248 20234 39920 40095 85070 333 10305 29093 55014 58012;
0162825710999992005011812004-05500-045267FM-12+017499999V0203201N001010450019N0100001N1+02521+02341100891ADDGF106991021021004501041001KA1240N+02321MA1999999099141MD1999999-0181REMSYN082AAXX  18124 82571 22497 63202 10252 20234 39914 40089 82240 333 20232 59018 60024;
0167825710999992005011818004-05500-045267FM-12+017499999V0200901N001012200019N0100001N1+03141+02271100621ADDAA106000091GF103991021021004501001011MA1999999098901MD1999999-0101REMSYN070AAXX  18184 82571 32497 30902 10314 20227 39890 40062 82201 333 59010;EQDQ01  00002PRCP06
0210825710999992005011900004-05500-045267FM-12+017499999V0202701N001010042019N0100001N1+02631+02461100951ADDAA106000091GF105991051071004501001001KA1240M+03271MA1999999099211MD1999999+0071MW1131REMSYN094AAXX  19004 82571 31497 52702 10263 20246 39921 40095 713// 85700 333 10327 29082 55040 58007;EQDQ01  00002PRCP06
0186825710999992005011912004-05500-045267FM-12+017499999V0200501N001010042019N0100001N1+02431+02231101151ADDAA106000091GF107991061021004501031001KA1240N+02281MA1999999099401MD1999999+0261REMSYN076AAXX  19124 82571 32497 70502 10243 20223 39940 40115 86230 333 20228 58026;EQDQ01  00002PRCP06
0167825710999992005011918004-05500-045267FM-12+017499999V0203201N001010450019N0100001N1+03041+02381100721ADDAA106000091GF107991021011004501071011MA1999999098991MD1999999-0091REMSYN070AAXX  19184 82571 32497 73202 10304 20238 39899 40072 82171 333 59009;EQDQ01  00002PRCP06
0198825710999992005012000004-05500-045267FM-12+017499999V0209999C000012200019N0100001N1+02731+02541100951ADDAA106000091GF102991021001017501031001KA1240M+03101MA1999999099211MD1999999+0001REMSYN088AAXX  20004 82571 32797 20000 10273 20254 39921 40095 82030 333 10310 29084 55001 58000;EQDQ01  00002PRCP06
0186825710999992005012012004-05500-045267FM-12+017499999V0201101N001010450019N0100001N1+02691+02411101191ADDAA106000091GF106991031021004501041001KA1240N+02361MA1999999099451MD1999999+0051REMSYN076AAXX  20124 82571 32497 61102 10269 20241 39945 40119 83240 333 20236 58005;EQDQ01  00002PRCP06
0167825710999992005012018004-05500-045267FM-12+017499999V0200201N002110450019N0100001N1+03151+02391100751ADDAA106000091GF106991041021004501031001MA1999999099031MD1999999+0041REMSYN070AAXX  20184 82571 32497 60204 10315 20239 39903 40075 84230 333 58004;EQDQ01  00002PRCP06
0198825710999992005012100004-05500-045267FM-12+017499999V0209999C000012200019N0100001N1+02421+02261101011ADDAA106000091GF102991021001017501041001KA1240M+03201MA1999999099261MD1999999+0051REMSYN088AAXX  21004 82571 32797 20000 10242 20226 39926 40101 82040 333 10320 29082 55043 58005;EQDQ01  00002PRCP06
0186825710999992005012112004-05500-045267FM-12+017499999V0200501N002110450019N0100001N1+02671+02331101241ADDAA106000091GF106991011021004501051001KA1240N+02241MA1999999099491MD1999999+0041REMSYN076AAXX  21124 82571 32497 60504 10267 20233 39949 40124 81250 333 20224 58004;EQDQ01  00002PRCP06
0167825710999992005012118004-05500-045267FM-12+017499999V0200501N003110450019N0100001N1+03361+02171100891ADDAA106000091GF105991031021004501031001MA1999999099171MD1999999+0141REMSYN070AAXX  21184 82571 32497 50506 10336 20217 39917 40089 83230 333 58014;EQDQ01  00002PRCP06
0198825710999992005012200004-05500-045267FM-12+017499999V0200501N001012200019N0100001N1+02931+02361101021ADDAA106000091GF102991021001017501031001KA1240M+03451MA1999999099291MD1999999+0031REMSYN088AAXX  22004 82571 32797 20502 10293 20236 39929 40102 82030 333 10345 29068 55085 58003;EQDQ01  00002PRCP06
0186825710999992005012212004-05500-045267FM-12+017499999V0202701N001012200019N0100001N1+02751+02361101261ADDAA106000091GF102991021001017501031001KA1240N+02421MA1999999099531MD1999999+0041REMSYN076AAXX  22124 82571 32797 22702 10275 20236 39953 40126 82030 333 20242 58004;EQDQ01  00002PRCP06
0167825710999992005012218004-05500-045267FM-12+017499999V0203601N001012200019N0100001N1+03421+02361100691ADDAA106000091GF103991031041004501001001MA1999999098991MD1999999-0181REMSYN070AAXX  22184 82571 32497 33602 10342 20236 39899 40069 83400 333 59018;EQDQ01  00002PRCP06
0189825710999992005012300004-05500-045270FM-12+015399999V0201401N001010042019N0100001N1+02331+02261101341ADDAY191061AY261061GF108991081051004501999999MA1999999099591MD1999999+0301MW1911REMSYN100AAXX  23004 82571 21497 81402 10233 20226 39959 40134 79196 885// 333 10299 29081 55071 58030 60311;
0169825710999992005012312004-05500-045270FM-12+015399999V0202301N001010042019N0100001N1+02351+02291101461ADDAY161061GF108991081051004501999999MA1999999099691MD1999999+0161MW1621REMSYN088AAXX  23124 82571 21497 82302 10235 20229 39969 40146 7626/ 885// 333 20227 58016 60324;
0148825710999992005012318004-05500-045270FM-12+015399999V0202301N001010042019N0100001N1+02821+02401101071ADDAA106000021GF107991071051004501001001MA1999999099321MD1999999+0331REMSYN070AAXX  23184 82571 32497 72302 10282 20240 39932 40107 87500 333 58033;
0173825710999992005012412004-05500-045270FM-12+015399999V0203201N001012200019N0100001N1+02671+02371101241ADDAA106000091GF103991011011004501031011MA1999999099491MD1999999-0201REMSYN076AAXX  24124 82571 32497 33202 10267 20237 39949 40124 81131 333 20232 59020;EQDQ01  00002PRCP06
0167825710999992005012418004-05500-045270FM-12+015399999V0203601N001012200019N0100001N1+03331+02281101811ADDAA106000091GF103991031021004501001001MA1999999099091MD1999999-0231REMSYN070AAXX  24184 82571 32497 33602 10333 20228 39909 40181 83200 333 59023;EQDQ01  00002PRCP06
0210825710999992005012500004-05500-045267FM-12+017499999V0202701N001010150019N0100001N1+02791+02361101001ADDAA106000091GF106991061001017501041001KA1240M+03501MA1999999099271MD1999999-0141MW1131REMSYN094AAXX  25004 82571 31797 62702 10279 20236 39927 40100 713// 86040 333 10350 29073 55106 59014;EQDQ01  00002PRCP06
0190825710999992005012512004-05500-045267FM-12+017499999V0202501N001010042019N0100001N1+02471+02411101221ADDAY191061AY261061GF108991081051004501999999KA1240N+02421MA1999999099481MD1999999-0011MW1621REMSYN088AAXX  25124 82571 21497 82502 10247 20241 39948 40122 76296 885// 333 20242 59001 60124;
0171825710999992005012518004-05500-045267FM-12+017499999V0201601N001010042019N0100001N1+02541+02451100981ADDAY191061AY261061GF108991081051004501999999MA1999999099241MD1999999+0151MW1021REMSYN082AAXX  25184 82571 21497 81602 10254 20245 39924 40098 70296 885// 333 58015 69911;
0202825710999992005012600004-05500-045267FM-12+017499999V0200701N001010042019N0100001N1+02521+02451101261ADDAY161061AY221061GF108991081051004501999999KA1240M+02811MA1999999099511MD1999999+0241MW1021REMSYN100AAXX  26004 82571 21497 80702 10252 20245 39951 40126 70262 885// 333 10281 29096 55000 58024 69911;
0162825710999992005012612004-05500-045267FM-12+017499999V0200901N001010450019N0100001N1+02531+02361101321ADDGF107991041021004501041001KA1240N+02371MA1999999099571MD1999999+0091REMSYN082AAXX  26124 82571 22497 70902 10253 20236 39957 40132 84240 333 20237 58009 69924;
0167825710999992005012618004-05500-045267FM-12+017499999V0200201N001010450019N0100001N1+03081+02291100881ADDAA106000091GF105991031021004501041011MA1999999099151MD1999999-0091REMSYN070AAXX  26184 82571 32497 50202 10308 20229 39915 40088 83241 333 59009;EQDQ01  00002PRCP06
0198825710999992005012700004-05500-045267FM-12+017499999V0201401N001012200019N0100001N1+02721+02391101121ADDAA106000091GF103991031001017501031001KA1240M+03181MA1999999099381MD1999999-0131REMSYN088AAXX  27004 82571 32797 31402 10272 20239 39938 40112 83030 333 10318 29079 55067 59013;EQDQ01  00002PRCP06
0186825710999992005012712004-05500-045267FM-12+017499999V0200501N001010450019N0100001N1+02601+02351101291ADDAA106000091GF106991011011004501031001KA1240N+02371MA1999999099551MD1999999-0021REMSYN076AAXX  27124 82571 32497 60502 10260 20235 39955 40129 81130 333 20237 59002;EQDQ01  00002PRCP06
0167825710999992005012718004-05500-045267FM-12+017499999V0203201N001010450019N0100001N1+03231+02391100811ADDAA106000091GF105991031021004501041011MA1999999099091MD1999999-0061REMSYN070AAXX  27184 82571 32497 53202 10323 20239 39909 40081 83241 333 59006;EQDQ01  00002PRCP06
0198825710999992005012800004-05500-045267FM-12+017499999V0202701N001012200019N0100001N1+02801+02441100991ADDAA106000091GF103991031001017501041001KA1240M+03371MA1999999099261MD1999999-0121REMSYN088AAXX  28004 82571 32797 32702 10280 20244 39926 40099 83040 333 10337 29077 55074 59012;EQDQ01  00002PRCP06
0186825710999992005012812004-05500-045267FM-12+017499999V0200201N002110450019N0100001N1+02661+02411101211ADDAA106000091GF107991041051004501011001KA1240N+02501MA1999999099481MD1999999-0071REMSYN076AAXX  28124 82571 32497 70204 10266 20241 39948 40121 84510 333 20250 59007;EQDQ01  00002PRCP06
0167825710999992005012818004-05500-045267FM-12+017499999V0201101N002110450019N0100001N1+03161+02391100721ADDAA106000091GF105991031021004501011011MA1999999099011MD1999999-0081REMSYN070AAXX  28184 82571 32497 51104 10316 20239 39901 40072 83211 333 59008;EQDQ01  00002PRCP06
0208825710999992005012900004-05500-045267FM-12+017499999V0209999C000012200019N0100001N1+02771+02501100771ADDAA106000091GA1001+999999999GF100991001001999999001001KA1240M+03251MA1999999099041MD1999999-0221REMSYN082AAXX  29004 82571 32997 00000 10277 20250 39904 40077 333 10325 29080 55049 59022;EQDQ01  00002PRCP06
0182825710999992005012912004-05500-045267FM-12+017499999V0201601N001010042019N0100001N1+02451+02411101041ADDAY161061GF108991081051004501999999KA1240N+02441MA1999999099301MD1999999-0181MW1021REMSYN088AAXX  29124 82571 21497 81602 10245 20241 39930 40104 7026/ 885// 333 20244 59018 60034;
0171825710999992005012918004-05500-045267FM-12+017499999V0200501N001010450019N0100001N1+02871+02501100721ADDAY161061AY211061GF106991031021004501031011MA1999999098991MD1999999-0021MW1021REMSYN082AAXX  29184 82571 21497 60502 10287 20250 39899 40072 70261 83231 333 59002 60221;
0189825710999992005013000004-05500-045270FM-12+015399999V0209999C000010042019N0100001N1+02571+02401100771ADDAY161061AY211061GF108991081071004501999999MA1999999099031MD1999999-0011MW1021REMSYN100AAXX  30004 82571 21497 80000 10257 20240 39903 40077 70261 887// 333 10307 29089 55022 59001 60041;
0149825710999992005013012004-05500-045270FM-12+015399999V0201801N001010042019N0100001N1+02541+02451100971ADDGF107991071051004501001001MA1999999099231MD1999999-0071REMSYN082AAXX  30124 82571 22497 71802 10254 20245 39923 40097 87500 333 20239 59007 60264;
0167825710999992005013018004-05500-045270FM-12+015399999V0200501N003110042019N0100001N1+03031+02481100591ADDAA106000091GF108991081051004501999999MA1999999098871MD1999999-0121REMSYN070AAXX  30184 82571 32497 80506 10303 20248 39887 40059 885// 333 59012;EQDQ01  00002PRCP06
0208825710999992005013100004-05500-045267FM-12+017499999V0200501N003112200019N0100001N1+02731+02451100741ADDAA106000091GA1001+999999999GF100991001001999999001001KA1240M+03131MA1999999099011MD1999999-0021REMSYN082AAXX  31004 82571 32997 00506 10273 20245 39901 40074 333 10313 29084 55041 59002;EQDQ01  00002PRCP06
0201825710999992005013112004-05500-045267FM-12+017499999V0200501N001010042019N0100001N1+02591+02371101021ADDAY161061GF107991051051004501031001KA1240N+02401MA1999999999999MD1999999+0051MW1011REMSYN088AAXX  31124 82571 21497 70502 10259 20237 39092 40102 7016/ 85530 333 20240 58005 69914;EQDQ01 090923APOSP 
0183825710999992005013118004-05500-045267FM-12+017499999V0200901N001010450019N0100001N1+03031+02431100741ADDAA106000091GF106991041051004501031001MA1999999099022MD1999999+0151REMSYN070AAXX  31184 82571 32497 60902 10303 20243 39902 40074 84530 333 58015;EQDQ01+099023APOSP Q02  00002PRCP06
0208825710999992005020100004-05500-045267FM-12+017499999V0202301N001012200019N0100001N1+02691+02461100811ADDAA106000091GA1001+999999999GF100991001001999999001001KA1240M+03111MA1999999099081MD1999999-0071REMSYN082AAXX  01004 82571 32997 02302 10269 20246 39908 40081 333 10311 29083 55022 59007;EQDQ01  00002PRCP06
0186825710999992005020112004-05500-045267FM-12+017499999V0200701N002112200019N0100001N1+02641+02411100941ADDAA106000091GF104991031021004501031001KA1240N+02371MA1999999099201MD1999999-0081REMSYN076AAXX  01124 82571 32497 40704 10264 20241 39920 40094 83230 333 20237 59008;EQDQ01  00002PRCP06
0167825710999992005020118004-05500-045267FM-12+017499999V0203201N001010450019N0100001N1+03061+02501100591ADDAA106000091GF106991031021004501071001MA1999999098871MD1999999-0151REMSYN070AAXX  01184 82571 32497 63202 10306 20250 39887 40059 83270 333 59015;EQDQ01  00002PRCP06
0186825710999992005020212004-05500-045267FM-12+017499999V0203601N001012200019N0100001N1+02781+02321100921ADDAA106000091GF103991011011004501031001KA1240N+02481MA1999999099191MD1999999-0011REMSYN076AAXX  02124 82571 32497 33602 10278 20232 39919 40092 81130 333 20248 59001;EQDQ01  00002PRCP06
0167825710999992005020218004-05500-045267FM-12+017499999V0200501N001010090019N0100001N1+03171+02391100531ADDAA106000091GF105991051081004501001001MA1999999098821MD1999999-0051REMSYN070AAXX  02184 82571 32497 50502 10317 20239 39882 40053 85800 333 59005;EQDQ01  00002PRCP06
0198825710999992005020300004-05500-045267FM-12+017499999V0201401N001012200019N0100001N1+02901+02391100721ADDAA106000091GF103991031001017501031001KA1240M+03301MA1999999099001MD1999999+0001REMSYN088AAXX  03004 82571 32797 31402 10290 20239 39900 40072 83030 333 10330 29072 55081 58000;EQDQ01  00002PRCP06
0190825710999992005020312004-05500-045267FM-12+017499999V0200501N001010450019N0040001N1+02291+02251101061ADDAY191061AY261061GF108991041071004501021999KA1240N+02291MA1999999099321MD1999999+0131MW1911REMSYN088AAXX  03124 82571 21496 80502 10229 20225 39932 40106 79196 8472/ 333 20229 58013 60044;
0171825710999992005020318004-05500-045267FM-12+017499999V0202301N001010450019N0100001N1+02941+02561100751ADDAY161061AY221061GF106991031021004501041011MA1999999099021MD1999999+0201MW1011REMSYN082AAXX  03184 82571 21497 62302 10294 20256 39902 40075 70162 83241 333 58020 69961;
0210825710999992005020400004-05500-045267FM-12+017499999V0202701N001012200019N0100001N1+02731+02561100991ADDAA106000091GF104991021041004501011001KA1240M+03121MA1999999099241MD1999999+0241MW1131REMSYN094AAXX  04004 82571 31497 42702 10273 20256 39924 40099 713// 82410 333 10312 29089 55020 58024;EQDQ01  00002PRCP06
0174825710999992005020412004-05500-045267FM-12+017499999V0200501N001010450019N0020001N1+02271+02251101311ADDGF108991031071004501021999KA1240N+02261MA1999999099561MD1999999+0241MW1951REMSYN088AAXX  04124 82571 21495 80502 10227 20225 39956 40131 795// 8372/ 333 20226 58024 60274;
0171825710999992005020418004-05500-045267FM-12+017499999V0203201N001010042019N0100001N1+02461+02361100981ADDAY161061AY221061GF107991061051004501041001MA1999999099231MD1999999+0211MW1021REMSYN082AAXX  04184 82571 21497 73202 10246 20236 39923 40098 70262 86540 333 58021 60081;
0194825710999992005020500004-05500-045267FM-12+017499999V0202301N001010042019N0100001N1+02431+02371101271ADDAY161061GF108991081051004501999999KA1240M+02741MA1999999099511MD1999999+0271MW1021REMSYN100AAXX  05004 82571 21497 82302 10243 20237 39951 40127 7026/ 885// 333 10274 29096 55000 58027 69921;
0182825710999992005020512004-05500-045267FM-12+017499999V0202301N001010450019N0100001N1+02541+02361101391ADDAY161061GF106991041051004501031001KA1240N+02241MA1999999099641MD1999999+0081MW1021REMSYN088AAXX  05124 82571 21497 62302 10254 20236 39964 40139 7026/ 84530 333 20224 58008 60094;
0167825710999992005020518004-05500-045267FM-12+017499999V0201801N001012200019N0100001N1+03221+02341101021ADDAA106000091GF103991021021004501031001MA1999999099291MD1999999+0061REMSYN070AAXX  05184 82571 32497 31802 10322 20234 39929 40102 82230 333 58006;EQDQ01  00002PRCP06
0183825710999992005020600004-05500-045270FM-12+015399999V0202301N001012200019N0100001N1+02411+02301101181ADDAY191061AY261061GF100991001001999999001001MA1999999099431MD1999999-0081MW1001REMSYN094AAXX  06004 82571 21997 02302 10241 20230 39943 40118 70096 333 10330 29084 55077 59008 60101;
0149825710999992005020612004-05500-045270FM-12+015399999V0200501N001012200019N0100001N1+02571+02371101261ADDGF102991011021004501031001MA1999999099511MD1999999-0131REMSYN082AAXX  06124 82571 22497 20502 10257 20237 39951 40126 81230 333 20223 59013 60104;
0167825710999992005020618004-05500-045270FM-12+015399999V0201801N001012200019N0100001N1+03191+02461100831ADDAA106000091GF103991031021004501001001MA1999999099101MD1999999-0191REMSYN070AAXX  06184 82571 32497 31802 10319 20246 39910 40083 83200 333 59019;EQDQ01  00002PRCP06
0212825710999992005020700004-05500-045267FM-12+017499999V0209999C000012200019N0100001N1+02631+02371100951ADDAY191061AY261061GA1001+999999999GF100991001001999999001001KA1240M+03271MA1999999099211MD1999999-0221MW1001REMSYN094AAXX  07004 82571 21997 00000 10263 20237 39921 40095 70096 333 10327 29081 55084 59022 69951;
0162825710999992005020712004-05500-045267FM-12+017499999V0200501N001010042019N0100001N1+02571+02401101091ADDGF108991081051004501999999KA1240N+02341MA1999999099351MD1999999-0161REMSYN082AAXX  07124 82571 22497 80502 10257 20240 39935 40109 885// 333 20234 59016 60054;
0163825710999992005020718004-05500-045267FM-12+017499999V0201401N001012200019N0100001N1+03081+02441100751ADDAY161061GF102991021021004501001001MA1999999099031MD1999999-0071MW1021REMSYN082AAXX  07184 82571 21497 21402 10308 20244 39903 40075 7026/ 82200 333 59007 60011;
0208825710999992005020800004-05500-045267FM-12+017499999V0209999C000012200019N0100001N1+02791+02421100851ADDAA106000091GA1001+999999999GF100991001001999999001001KA1240M+03231MA1999999099121MD1999999-0091REMSYN082AAXX  08004 82571 32997 00000 10279 20242 39912 40085 333 10323 29080 55063 59009;EQDQ01  00002PRCP06
0162825710999992005020812004-05500-045267FM-12+017499999V0200501N001010450019N0100001N1+02651+02391101051ADDGF106991031021004501031001KA1240N+02341MA1999999099321MD1999999-0031REMSYN082AAXX  08124 82571 22497 60502 10265 20239 39932 40105 83230 333 20234 59003 60014;
0171825710999992005020818004-05500-045267FM-12+017499999V0203601N003110450019N0100001N1+02691+02501100881ADDAY161061AY211061GF106991041051004501031001MA1999999099141MD1999999+0111MW1021REMSYN082AAXX  08184 82571 21497 63606 10269 20250 39914 40088 70261 84530 333 58011 69971;
0220825710999992005020900004-05500-045267FM-12+017499999V0200901N001012200019N0100001N1+02541+02451100961ADDAA106000091GA1001+999999999GF100991001001999999001001KA1240M+02961MA1999999099221MD1999999+0101MW1131REMSYN088AAXX  09004 82571 31997 00902 10254 20245 39922 40096 713// 333 10296 29091 55027 58010;EQDQ01  00002PRCP06
0162825710999992005020912004-05500-045267FM-12+017499999V0203601N001010042019N0100001N1+02521+02381101131ADDGF108991081051004501999999KA1240N+02351MA1999999099381MD1999999+0061REMSYN082AAXX  09124 82571 22497 83602 10252 20238 39938 40113 885// 333 20235 58006 69974;
0167825710999992005020918004-05500-045267FM-12+017499999V0201401N001010450019N0100001N1+02871+02601100821ADDAA106000091GF106991031021004501031011MA1999999099091MD1999999-0051REMSYN070AAXX  09184 82571 32497 61402 10287 20260 39909 40082 83231 333 59005;EQDQ01  00002PRCP06
0208825710999992005021000004-05500-045267FM-12+017499999V0202301N001012200019N0100001N1+02551+02381100901ADDAA106000091GA1001+999999999GF100991001001999999001001KA1240M+03011MA1999999099161MD1999999-0061REMSYN082AAXX  10004 82571 32997 02302 10255 20238 39916 40090 333 10301 29089 55033 59006;EQDQ01  00002PRCP06
0186825710999992005021012004-05500-045267FM-12+017499999V0203201N001012200019N0100001N1+02661+02461100991ADDAA106000091GF103991021021004501001011KA1240N+02301MA1999999099251MD1999999-0131REMSYN076AAXX  10124 82571 32497 33202 10266 20246 39925 40099 82201 333 20230 59013;EQDQ01  00002PRCP06
0167825710999992005021018004-05500-045267FM-12+017499999V0200501N002110450019N0100001N1+03191+02301100621ADDAA106000091GF106991031021004501011011MA1999999098901MD1999999-0191REMSYN070AAXX  10184 82571 32497 60504 10319 20230 39890 40062 83211 333 59019;EQDQ01  00002PRCP06
0198825710999992005021100004-05500-045267FM-12+017499999V0201401N001012200019N0100001N1+02741+02401100851ADDAA106000091GF102991021011004501001001KA1240M+03261MA1999999099121MD1999999-0041REMSYN088AAXX  11004 82571 32497 21402 10274 20240 39912 40085 82100 333 10326 29078 55095 59004;EQDQ01  00002PRCP06
0186825710999992005021112004-05500-045267FM-12+017499999V0200201N002112200019N0100001N1+02721+02371101051ADDAA106000091GF103991021021004501031001KA1240N+02481MA1999999099321MD1999999+0071REMSYN076AAXX  11124 82571 32497 30204 10272 20237 39932 40105 82230 333 20248 58007;EQDQ01  00002PRCP06
0167825710999992005021118004-05500-045267FM-12+017499999V0200501N003112200019N0100001N1+03221+02371100651ADDAA106000091GF103991021021004501001011MA1999999098941MD1999999-0041REMSYN070AAXX  11184 82571 32497 30506 10322 20237 39894 40065 82201 333 59004;EQDQ01  00002PRCP06
0198825710999992005021200004-05500-045267FM-12+017499999V0209999C000012200019N0100001N1+02871+02561100921ADDAA106000091GF102991021001017501041001KA1240M+03301MA1999999099191MD1999999+0071REMSYN088AAXX  12004 82571 32797 20000 10287 20256 39919 40092 82040 333 10330 29077 55083 58007;EQDQ01  00002PRCP06
0190825710999992005021212004-05500-045267FM-12+017499999V0201801N001010042019N0040001N1+02481+02451101171ADDAY191061AY261061GF108991081051004501999999KA1240N+02321MA1999999099431MD1999999+0111MW1611REMSYN088AAXX  12124 82571 21496 81802 10248 20245 39943 40117 76196 885// 333 20232 58011 60714;
0148825710999992005021218004-05500-045267FM-12+017499999V0200501N003110450019N0100001N1+02891+02411100821ADDAA106000021GF106991031021004501031001MA1999999099091MD1999999+0151REMSYN070AAXX  12184 82571 32497 60506 10289 20241 39909 40082 83230 333 58015;
0185825710999992005021300004-05500-045270FM-12+015399999V0202301N001012200019N0100001N1+02501+02401101101ADDAA106000091GF101991011011004501001001MA1999999099351MD1999999+0161REMSYN088AAXX  13004 82571 32497 12302 10250 20240 39935 40110 81100 333 10298 29090 55016 58016;EQDQ01  00002PRCP06
0169825710999992005021312004-05500-045270FM-12+015399999V0203201N001010042019N0100001N1+02451+02321101291ADDAY161061GF108991081051004501999999MA1999999099541MD1999999+0111MW1021REMSYN088AAXX  13124 82571 21497 83202 10245 20232 39954 40129 7026/ 885// 333 20234 58011 69944;
0171825710999992005021318004-05500-045270FM-12+015399999V0200501N001012200019N0100001N1+02971+02371100851ADDAY161061AY201061GF103991021021004501031001MA1999999099121MD1999999+0031MW1011REMSYN082AAXX  13184 82571 21497 30502 10297 20237 39912 40085 70160 82230 333 58003 69911;
0208825710999992005021400004-05500-045267FM-12+017499999V0209999C000012200019N0100001N1+02751+02501101031ADDAA106000091GA1001+999999999GF100991001001999999001001KA1240M+03101MA1999999099291MD1999999-0061REMSYN082AAXX  14004 82571 32997 00000 10275 20250 39929 40103 333 10310 29084 55058 59006;EQDQ01  00002PRCP06
0162825710999992005021412004-05500-045267FM-12+017499999V0202701N001010042019N0100001N1+02541+02381101201ADDGF107991051051004501041001KA1240N+02371MA1999999099461MD1999999-0081REMSYN082AAXX  14124 82571 22497 72702 10254 20238 39946 40120 85540 333 20237 59008 69914;
0171825710999992005021418004-05500-045267FM-12+017499999V0203201N001010090019N0100001N1+02591+02441100811ADDAY161061AY221061GF107991051081004501041001MA1999999099071MD1999999-0051MW1021REMSYN082AAXX  14184 82571 21497 73202 10259 20244 39907 40081 70262 85840 333 59005 60041;
0198825710999992005021500004-05500-045267FM-12+017499999V0202301N001012200019N0100001N1+02431+02371101011ADDAA106000091GF104991011021004501041001KA1240M+02911MA1999999099261MD1999999-0031REMSYN088AAXX  15004 82571 32497 42302 10243 20237 39926 40101 81240 333 10291 29094 55008 59003;EQDQ01  00002PRCP06
0162825710999992005021512004-05500-045267FM-12+017499999V0200501N001010042019N0100001N1+02531+02441101081ADDGF107991071051004501001001KA1240N+02391MA1999999099331MD1999999-0131REMSYN082AAXX  15124 82571 22497 70502 10253 20244 39933 40108 87500 333 20239 59013 60044;
0167825710999992005021518004-05500-045267FM-12+017499999V0200501N001010450019N0100001N1+03081+02351100541ADDAA106000091GF105991031051004501041011MA1999999098821MD1999999-0251REMSYN070AAXX  15184 82571 32497 50502 10308 20235 39882 40054 83541 333 59025;EQDQ01  00002PRCP06
0202825710999992005021600004-05500-045267FM-12+017499999V0200501N001010450019N0020001N1+02441+02351100971ADDAY191061AY261061GF108991031071004501021999KA1240M+03121MA1999999099221MD1999999-0041MW1631REMSYN100AAXX  16004 82571 21495 80502 10244 20235 39922 40097 76396 8372/ 333 10312 29087 55033 59004 60081;
0182825710999992005021612004-05500-045267FM-12+017499999V0203601N001010042019N0100001N1+02481+02391101021ADDAY161061GF107991061051004501051001KA1240N+02351MA1999999099271MD1999999-0061MW1021REMSYN088AAXX  16124 82571 21497 73602 10248 20239 39927 40102 7026/ 86550 333 20235 59006 60114;
0167825710999992005021618004-05500-045267FM-12+017499999V0200501N001010450019N0100001N1+03041+02381100571ADDAA106000091GF105991031021004501041011MA1999999098841MD1999999+0021REMSYN070AAXX  16184 82571 32497 50502 10304 20238 39884 40057 83241 333 58002;EQDQ01  00002PRCP06
0202825710999992005021700004-05500-045267FM-12+017499999V0209999C000010042019N0100001N1+02501+02431100931ADDAY191061AY261061GF108991081051004501999999KA1240M+03101MA1999999099181MD1999999-0041MW1131REMSYN100AAXX  17004 82571 21497 80000 10250 20243 39918 40093 71396 885// 333 10310 29089 55041 59004 60281;
0182825710999992005021712004-05500-045267FM-12+017499999V0202301N001010450019N0100001N1+02461+02321101191ADDAY161061GF106991041051004501031001KA1240N+02281MA1999999099441MD1999999+0171MW1031REMSYN088AAXX  17124 82571 21497 62302 10246 20232 39944 40119 7036/ 84530 333 20228 58017 60414;
0171825710999992005021718004-05500-045267FM-12+017499999V0202301N001010450019N0100001N1+02921+02541100771ADDAY161061AY221061GF105991031021004501041011MA1999999099041MD1999999+0201MW1011REMSYN082AAXX  17184 82571 21497 52302 10292 20254 39904 40077 70162 83241 333 58020 60061;
0210825710999992005021800004-05500-045267FM-12+017499999V0202501N001010150019N0100001N1+02601+02441101091ADDAA106000091GF106991061001017501071001KA1240M+03051MA1999999099341MD1999999+0161MW1131REMSYN094AAXX  18004 82571 31797 62502 10260 20244 39934 40109 713// 86070 333 10305 29088 55023 58016;EQDQ01  00002PRCP06
0182825710999992005021812004-05500-045267FM-12+017499999V0202701N001010042019N0100001N1+02251+02231101361ADDAY161061GF108991081051004501999999KA1240N+02221MA1999999099601MD1999999+0161MW1021REMSYN088AAXX  18124 82571 21497 82702 10225 20223 39960 40136 7026/ 885// 333 20222 58016 60094;
0167825710999992005021818004-05500-045267FM-12+017499999V0203201N001010042019N0100001N1+02941+02521100951ADDAA106000091GF106991051021004501041001MA1999999099221MD1999999+0181REMSYN070AAXX  18184 82571 32497 63202 10294 20252 39922 40095 85240 333 58018;EQDQ01  00002PRCP06
0198825710999992005021900004-05500-045267FM-12+017499999V0201801N001010150019N0100001N1+02651+02541101131ADDAA106000091GF106991061001017501031001KA1240M+02981MA1999999099381MD1999999+0041REMSYN088AAXX  19004 82571 32797 61802 10265 20254 39938 40113 86030 333 10298 29090 55022 58004;EQDQ01  00002PRCP06
0186825710999992005021912004-05500-045267FM-12+017499999V0202301N001010450019N0100001N1+02791+02521101061ADDAA106000091GF105991041021004501031001KA1240N+02271MA1999999099331MD1999999-0271REMSYN076AAXX  19124 82571 32497 52302 10279 20252 39933 40106 84230 333 20227 59027;EQDQ01  00002PRCP06
0167825710999992005021918004-05500-045267FM-12+017499999V0200501N001010450019N0100001N1+03271+02151100791ADDAA106000091GF106991041021004501031001MA1999999099071MD1999999-0151REMSYN070AAXX  19184 82571 32497 60502 10327 20215 39907 40079 84230 333 59015;EQDQ01  00002PRCP06
0149825710999992005022012004-05500-045270FM-12+015399999V0202701N001010450019N0100001N1+02551+02461101201ADDGF106991041091004501031001MA1999999099451MD1999999+0121REMSYN082AAXX  20124 82571 22497 62702 10255 20246 39945 40120 84930 333 20237 58012 60284;
0167825710999992005022018004-05500-045270FM-12+015399999V0202301N001010450019N0100001N1+03091+02581100761ADDAA106000091GF105991021021004501031001MA1999999099031MD1999999-0041REMSYN070AAXX  20184 82571 32497 52302 10309 20258 39903 40076 82230 333 59004;EQDQ01  00002PRCP06
0208825710999992005022100004-05500-045267FM-12+017499999V0209999C000012200019N0100001N1+02811+02621100811ADDAA106000091GA1001+999999999GF100991001001999999001001KA1240M+03271MA1999999099081MD1999999-0201REMSYN082AAXX  21004 82571 32997 00000 10281 20262 39908 40081 333 10327 29086 55040 59020;EQDQ01  00002PRCP06
0186825710999992005022112004-05500-045267FM-12+017499999V0200201N001010042019N0100001N1+02651+02541101111ADDAA106000091GF107991061051004501011001KA1240N+02491MA1999999099381MD1999999-0071REMSYN076AAXX  21124 82571 32497 70202 10265 20254 39938 40111 86510 333 20249 59007;EQDQ01  00002PRCP06
0167825710999992005022118004-05500-045267FM-12+017499999V0203601N002110450019N0100001N1+03241+02551100501ADDAA106000091GF106991031021004501011011MA1999999098791MD1999999-0241REMSYN070AAXX  21184 82571 32497 63604 10324 20255 39879 40050 83211 333 59024;EQDQ01  00002PRCP06
0210825710999992005022200004-05500-045267FM-12+017499999V0200501N004110042019N0100001N1+02711+02371100911ADDAA106000091GF107991071051004501001001KA1240M+03301MA1999999099181MD1999999+0101MW1131REMSYN094AAXX  22004 82571 31497 70508 10271 20237 39918 40091 713// 87500 333 10330 29080 55052 58010;EQDQ01  00002PRCP06
0190825710999992005022212004-05500-045267FM-12+017499999V0202301N001010042019N0100001N1+02411+02391101141ADDAY191061AY261061GF107991071051004501001001KA1240N+02321MA1999999099391MD1999999+0011MW1021REMSYN088AAXX  22124 82571 21497 72302 10241 20239 39939 40114 70296 87500 333 20232 58001 60064;
0171825710999992005022218004-05500-045267FM-12+017499999V0201401N003110042019N0100001N1+02391+02231100951ADDAY161061AY221061GF108991081051004501999999MA1999999099201MD1999999+0411MW1911REMSYN082AAXX  22184 82571 21497 81406 10239 20223 39920 40095 79162 885// 333 58041 60031;
0202825710999992005022300004-05500-045267FM-12+017499999V0209999C000010450019N0100001N1+02271+02251101231ADDAY161061AY221061GF107991021021004501071001KA1240M+02941MA1999999099471MD1999999+0291MW1501REMSYN100AAXX  23004 82571 21497 70000 10227 20225 39947 40123 75062 82270 333 10294 29096 55010 58029 60091;
0182825710999992005022312004-05500-045267FM-12+017499999V0202701N001010042019N0100001N1+02291+02281101321ADDAY141061GF108991081051004501999999KA1240N+02211MA1999999099551MD1999999+0161MW1021REMSYN088AAXX  23124 82571 21497 82702 10229 20228 39955 40132 7024/ 885// 333 20221 58016 60134;
0167825710999992005022318004-05500-045267FM-12+017499999V0200901N001010450019N0100001N1+02871+02351100981ADDAA106000091GF106991021021004501041011MA1999999099241MD1999999+0041REMSYN070AAXX  23184 82571 32497 60902 10287 20235 39924 40098 82241 333 58004;EQDQ01  00002PRCP06
0198825710999992005022400004-05500-045267FM-12+017499999V0209999C000010150019N0100001N1+02631+02501101171ADDAA106000091GF106991061001017501041001KA1240M+02981MA1999999099421MD1999999-0051REMSYN088AAXX  24004 82571 32797 60000 10263 20250 39942 40117 86040 333 10298 29089 55034 59005;EQDQ01  00002PRCP06
0186825710999992005022412004-05500-045267FM-12+017499999V0200901N003110042019N0100001N1+02551+02381101421ADDAA106000091GF107991061051004501031001KA1240N+02311MA1999999099671MD1999999+0121REMSYN076AAXX  24124 82571 32497 70906 10255 20238 39967 40142 86530 333 20231 58012;EQDQ01  00002PRCP06
0171825710999992005022418004-05500-045267FM-12+017499999V0200901N001012200019N0100001N1+02871+02481100931ADDAY161061AY221061GF104991031021004501041001MA1999999099191MD1999999-0051MW1611REMSYN082AAXX  24184 82571 21497 40902 10287 20248 39919 40093 76162 83240 333 59005 69991;
0179825710999992005022500004-05500-045267FM-12+017499999V0202301N001012200019N0100001N1+02591+02391101201ADDAA106000021GF103991031001017501011001KA1240M+03101MA1999999099451MD1999999+0031REMSYN088AAXX  25004 82571 32797 32302 10259 20239 39945 40120 83010 333 10310 29086 55053 58003;
0162825710999992005022512004-05500-045267FM-12+017499999V0202301N001010042019N0100001N1+02531+02471101321ADDGF108991081051004501999999KA1240N+02311MA1999999099571MD1999999-0101REMSYN082AAXX  25124 82571 22497 82302 10253 20247 39957 40132 885// 333 20231 59010 69994;
0167825710999992005022518004-05500-045267FM-12+017499999V0201401N002110450019N0100001N1+03231+02441100831ADDAA106000091GF105991031021004501011001MA1999999099111MD1999999-0081REMSYN070AAXX  25184 82571 32497 51404 10323 20244 39911 40083 83210 333 59008;EQDQ01  00002PRCP06
0198825710999992005022600004-05500-045267FM-12+017499999V0202301N001012200019N0100001N1+02631+02461101011ADDAA106000091GF102991021001017501031001KA1240M+03301MA1999999099271MD1999999-0181REMSYN088AAXX  26004 82571 32797 22302 10263 20246 39927 40101 82030 333 10330 29085 55043 59018;EQDQ01  00002PRCP06
0182825710999992005022612004-05500-045267FM-12+017499999V0201401N001012200019N0100001N1+02771+02421101131ADDAY161061GF102991021021004501001001KA1240N+02421MA1999999099391MD1999999-0181MW1011REMSYN088AAXX  26124 82571 21497 21402 10277 20242 39939 40113 7016/ 82200 333 20242 59018 69934;
0167825710999992005022618004-05500-045267FM-12+017499999V0200501N003110042019N0100001N1+03231+02521100821ADDAA106000091GF105991051021004501001001MA1999999099101MD1999999-0011REMSYN070AAXX  26184 82571 32497 50506 10323 20252 39910 40082 85200 333 59001;EQDQ01  00002PRCP06
0185825710999992005022700004-05500-045270FM-12+015399999V0209999C000010150019N0100001N1+02651+02521101041ADDAA106000091GF106991061001017501071001MA1999999099311MD1999999+0041REMSYN088AAXX  27004 82571 32797 60000 10265 20252 39931 40104 86070 333 10333 29083 55076 58004;EQDQ01  00002PRCP06
0173825710999992005022712004-05500-045270FM-12+015399999V0200501N003110042019N0100001N1+02731+02521101151ADDAA106000091GF106991061051004501001001MA1999999099411MD1999999+0021REMSYN076AAXX  27124 82571 32497 60506 10273 20252 39941 40115 86500 333 20249 58002;EQDQ01  00002PRCP06
0186825710999992005022812004-05500-045267FM-12+017499999V0201801N001010450019N0100001N1+02571+02381101281ADDAA106000091GF107991021021004501071001KA1240N+02401MA1999999099541MD1999999+0131REMSYN076AAXX  28124 82571 32497 71802 10257 20238 39954 40128 82270 333 20240 58013;EQDQ01  00002PRCP06
0167825710999992005022818004-05500-045267FM-12+017499999V0201401N001010042019N0100001N1+03201+02481100891ADDAA106000091GF105991051021004501001001MA1999999099171MD1999999+0091REMSYN070AAXX  28184 82571 32497 51402 10320 20248 39917 40089 85200 333 58009;EQDQ01  00002PRCP06
0210825710999992005030100004-05500-045267FM-12+017499999V0209999C000012200019N0100001N1+02811+02541101071ADDAA106000091GF101991011011004501001001KA1240M+03261MA1999999099341MD1999999-0081MW1131REMSYN094AAXX  01004 82571 31497 10000 10281 20254 39934 40107 713// 81100 333 10326 29081 55072 59008;EQDQ01  00002PRCP06
0186825710999992005030112004-05500-045267FM-12+017499999V0200901N001010042019N0100001N1+02631+02461101251ADDAA106000091GF106991051051004501031001KA1240N+02511MA1999999099521MD1999999-0021REMSYN076AAXX  01124 82571 32497 60902 10263 20246 39952 40125 85530 333 20251 59002;EQDQ01  00002PRCP06
0167825710999992005030118004-05500-045267FM-12+017499999V0200501N001010450019N0100001N1+03171+02441100931ADDAA106000091GF106991031021004501031011MA1999999099211MD1999999+0041REMSYN070AAXX  01184 82571 32497 60502 10317 20244 39921 40093 83231 333 58004;EQDQ01  00002PRCP06
0208825710999992005030200004-05500-045267FM-12+017499999V0209999C000012200019N0100001N1+02851+02561101001ADDAA106000091GA1001+999999999GF100991001001999999001001KA1240M+03281MA1999999099271MD1999999-0071REMSYN082AAXX  02004 82571 32997 00000 10285 20256 39927 40100 333 10328 29080 55061 59007;EQDQ01  00002PRCP06
0186825710999992005030212004-05500-045267FM-12+017499999V0200501N002110450019N0100001N1+02721+02471101141ADDAA106000091GF106991021011004501011001KA1240N+02451MA1999999099411MD1999999-0111REMSYN076AAXX  02124 82571 32497 60504 10272 20247 39941 40114 82110 333 20245 59011;EQDQ01  00002PRCP06
0167825710999992005030218004-05500-045267FM-12+017499999V0200201N001010450019N0100001N1+03211+02531100831ADDAA106000091GF106991021021004501011011MA1999999099121MD1999999-0091REMSYN070AAXX  02184 82571 32497 60202 10321 20253 39912 40083 82211 333 59009;EQDQ01  00002PRCP06
0220825710999992005030300004-05500-045267FM-12+017499999V0200901N001012200019N0100001N1+02731+02401101091ADDAA106000091GA1001+999999999GF100991001001999999001001KA1240M+03301MA1999999099351MD1999999+0081MW1131REMSYN088AAXX  03004 82571 31997 00902 10273 20240 39935 40109 713// 333 10330 29079 55075 58008;EQDQ01  00002PRCP06
0186825710999992005030312004-05500-045267FM-12+017499999V0200501N001010042019N0100001N1+02681+02461101181ADDAA106000091GF107991071051004501001001KA1240N+02461MA1999999099441MD1999999+0031REMSYN076AAXX  03124 82571 32497 70502 10268 20246 39944 40118 87500 333 20246 58003;EQDQ01  00002PRCP06
0202825710999992005030400004-05500-045267FM-12+017499999V0201401N001010042019N0100001N1+02551+02471101181ADDAY191061AY261061GF105991051061004501001001KA1240M+03371MA1999999099441MD1999999+0091MW1021REMSYN100AAXX  04004 82571 21497 51402 10255 20247 39944 40118 70296 85600 333 10337 29086 55054 58009 69981;
0182825710999992005030412004-05500-045267FM-12+017499999V0201401N001010042019N0100001N1+02321+02251101421ADDAY161061GF108991081051004501999999KA1240N+02311MA1999999099661MD1999999+0221MW1211REMSYN088AAXX  04124 82571 21497 81402 10232 20225 39966 40142 7216/ 885// 333 20231 58022 60154;
0171825710999992005030418004-05500-045267FM-12+017499999V0201401N001010450019N0100001N1+02721+02371101081ADDAY161061AY221061GF108991031031004501011011MA1999999099341MD1999999+0281MW1021REMSYN082AAXX  04184 82571 21497 81402 10272 20237 39934 40108 70262 83311 333 58028 60101;
0162825710999992005030512004-05500-045267FM-12+017499999V0202301N001010042019N0100001N1+02551+02441101391ADDGF105991051021004501001001KA1240N+02281MA1999999099641MD1999999-0021REMSYN082AAXX  05124 82571 22497 52302 10255 20244 39964 40139 85200 333 20228 59002 60104;
0167825710999992005030518004-05500-045267FM-12+017499999V0200501N003112200019N0100001N1+03191+02381101051ADDAA106000091GF106991041021004501001011MA1999999099321MD1999999-0021REMSYN070AAXX  05184 82571 32497 60506 10319 20238 39932 40105 84201 333 59002;EQDQ01  00002PRCP06
0179825710999992005030600004-05500-045270FM-12+015399999V0209999C000012200019N0100001N1+02781+02561101151ADDAA106000091GF100991001001999999001001MA1999999099411MD1999999+0021REMSYN082AAXX  06004 82571 32997 00000 10278 20256 39941 40115 333 10325 29083 55095 58002;EQDQ01  00002PRCP06
0193825710999992005030612004-05500-045270FM-12+015399999V0200901N001012200019N0100001N1+02681+02451101201ADDAA106000091AY141061GF106991021021004501001011MA1999999099471MD1999999-0171MW1011REMSYN082AAXX  06124 82571 31497 60902 10268 20245 39947 40120 7014/ 82201 333 20237 59017;EQDQ01  00002PRCP06
0167825710999992005030618004-05500-045270FM-12+015399999V0200501N001010450019N0100001N1+03251+02461100851ADDAA106000091GF106991031021004501011011MA1999999099131MD1999999-0191REMSYN070AAXX  06184 82571 32497 60502 10325 20246 39913 40085 83211 333 59019;EQDQ01  00002PRCP06
0186825710999992005030712004-05500-045267FM-12+017499999V0200501N002110042019N0100001N1+02691+02461101231ADDAA106000091GF107991071051004501001001KA1240N+02501MA1999999099501MD1999999+0031REMSYN076AAXX  07124 82571 32497 70504 10269 20246 39950 40123 87500 333 20250 58003;EQDQ01  00002PRCP06
0167825710999992005030718004-05500-045267FM-12+017499999V0200501N001010450019N0100001N1+03201+02461100831ADDAA106000091GF106991031021004501011011MA1999999099121MD1999999-0011REMSYN070AAXX  07184 82571 32497 60502 10320 20246 39912 40083 83211 333 59001;EQDQ01  00002PRCP06
0190825710999992005030812004-05500-045267FM-12+017499999V0202301N001010450019N0100001N1+02571+02511101261ADDAY191061AY261061GF106991021021004501031011KA1240N+02321MA1999999099521MD1999999+0021MW1011REMSYN088AAXX  08124 82571 21497 62302 10257 20251 39952 40126 70196 82231 333 20232 58002 60664;
0167825710999992005030818004-05500-045267FM-12+017499999V0200501N001010450019N0100001N1+02911+02541100841ADDAA106000091GF107991041081004501041001MA1999999099111MD1999999-0011REMSYN070AAXX  08184 82571 32497 70502 10291 20254 39911 40084 84840 333 59001;EQDQ01  00002PRCP06
0210825710999992005030900004-05500-045267FM-12+017499999V0202301N001012200019N0100001N1+02711+02601101061ADDAA106000091GF104991021021004501011001KA1240M+03031MA1999999099321MD1999999-0121MW1131REMSYN094AAXX  09004 82571 31497 42302 10271 20260 39932 40106 713// 82210 333 10303 29090 55015 59012;EQDQ01  00002PRCP06
0186825710999992005030912004-05500-045267FM-12+017499999V0203601N003112200019N0100001N1+02721+02471101171ADDAA106000091GF104991031021004501031001KA1240N+02511MA1999999099431MD1999999-0091REMSYN076AAXX  09124 82571 32497 43606 10272 20247 39943 40117 83230 333 20251 59009;EQDQ01  00002PRCP06
0167825710999992005030918004-05500-045267FM-12+017499999V0200901N001010450019N0100001N1+03101+02511100731ADDAA106000091GF106991041081004501011001MA1999999099011MD1999999-0101REMSYN070AAXX  09184 82571 32497 60902 10310 20251 39901 40073 84810 333 59010;EQDQ01  00002PRCP06
0202825710999992005031000004-05500-045267FM-12+017499999V0200701N001010042019N0100001N1+02351+02311101151ADDAY191061AY261061GF108991081051004501999999KA1240M+03161MA1999999099401MD1999999+0081MW1611REMSYN100AAXX  10004 82571 21497 80702 10235 20231 39940 40115 76196 885// 333 10316 29088 55046 58008 60491;
0182825710999992005031012004-05500-045267FM-12+017499999V0202701N001010042019N0100001N1+02461+02391101281ADDAY161061GF107991061021004501031001KA1240N+02271MA1999999099521MD1999999+0091MW1021REMSYN088AAXX  10124 82571 21497 72702 10246 20239 39952 40128 7026/ 86230 333 20227 58009 60504;
0167825710999992005031018004-05500-045267FM-12+017499999V0203601N002112200019N0100001N1+03151+02551100841ADDAA106000091GF104991031021004501001011MA1999999099111MD1999999+0101REMSYN070AAXX  10184 82571 32497 43604 10315 20255 39911 40084 83201 333 58010;EQDQ01  00002PRCP06
0198825710999992005031100004-05500-045267FM-12+017499999V0209999C000012200019N0100001N1+02811+02561101051ADDAA106000091GF104991041001017501011001KA1240M+03211MA1999999099311MD1999999-0091REMSYN088AAXX  11004 82571 32797 40000 10281 20256 39931 40105 84010 333 10321 29084 55083 59009;EQDQ01  00002PRCP06
0182825710999992005031112004-05500-045267FM-12+017499999V0201801N001010042019N0100001N1+02661+02431101301ADDAY161061GF106991051051004501031001KA1240N+02461MA1999999099561MD1999999+0041MW1031REMSYN088AAXX  11124 82571 21497 61802 10266 20243 39956 40130 7036/ 85530 333 20246 58004 60044;
0171825710999992005031118004-05500-045267FM-12+017499999V0200501N002111050019N0100001N1+03101+02461100891ADDAY161061AY221061GF105991021021004501031011MA1999999099171MD1999999+0061MW1011REMSYN082AAXX  11184 82571 21497 50504 10310 20246 39917 40089 70162 82231 333 58006 69971;
0202825710999992005031200004-05500-045267FM-12+017499999V0202301N001012200019N0100001N1+02651+02521101131ADDAY161061AY211061GF102991021041004501001001KA1240M+03231MA1999999099391MD1999999+0081MW1131REMSYN100AAXX  12004 82571 21497 22302 10265 20252 39939 40113 71361 82400 333 10323 29085 55053 58008 60011;
0162825710999992005031212004-05500-045267FM-12+017499999V0200901N001010450019N0100001N1+02631+02421101321ADDGF106991021021004501011001KA1240N+02451MA1999999099581MD1999999+0021REMSYN082AAXX  12124 82571 22497 60902 10263 20242 39958 40132 82210 333 20245 58002 60024;
0167825710999992005031218004-05500-045267FM-12+017499999V0200501N001010042019N0100001N1+03021+02341100901ADDAA106000091GF106991061021004501001001MA1999999099161MD1999999-0011REMSYN070AAXX  12184 82571 32497 60502 10302 20234 39916 40090 86200 333 59001;EQDQ01  00002PRCP06
0185825710999992005031300004-05500-045270FM-12+015399999V0200501N003110042019N0100001N1+02681+02461101151ADDAA106000091GF105991051061004501001001MA1999999099411MD1999999+0021REMSYN088AAXX  13004 82571 32497 50506 10268 20246 39941 40115 85600 333 10307 29083 55055 58002;EQDQ01  00002PRCP06
0169825710999992005031312004-05500-045270FM-12+015399999V0203601N001010042019N0100001N1+02631+02481101261ADDAY161061GF108991081051004501999999MA1999999099521MD1999999-0061MW1021REMSYN088AAXX  13124 82571 21497 83602 10263 20248 39952 40126 7026/ 885// 333 20246 59006 60014;
0171825710999992005031318004-05500-045270FM-12+015399999V0201801N001010042019N0100001N1+02351+02221100951ADDAY191061AY261061GF108991081051004501999999MA1999999099201MD1999999+0041MW1951REMSYN082AAXX  13184 82571 21497 81802 10235 20222 39920 40095 79596 885// 333 58004 60291;
0181825710999992005031400004-05500-045270FM-12+015399999V0202301N001010042019N0100001N1+02291+02271101181ADDAY161061GF108991081051004501999999MA1999999099431MD1999999+0021MW1131REMSYN100AAXX  14004 82571 21497 82302 10229 20227 39943 40118 7136/ 885// 333 10288 29095 55006 58002 69971;
0169825710999992005031412004-05500-045270FM-12+015399999V0202301N001010042019N0100001N1+02461+02341101241ADDAY161061GF107991061051004501031001MA1999999099481MD1999999-0041MW1011REMSYN088AAXX  14124 82571 21497 72302 10246 20234 39948 40124 7016/ 86530 333 20228 59004 60304;
0167825710999992005031418004-05500-045267FM-12+017499999V0200501N003110042019N0100001N1+02881+02371100851ADDAA106000091GF106991061021004501001001MA1999999099111MD1999999-0091REMSYN070AAXX  14184 82571 32497 60506 10288 20237 39911 40085 86200 333 59009;EQDQ01  00002PRCP06
0186825710999992005031500004-05500-045267FM-12+017499999V0200501N001010042019N0100001N1+02481+02381101061ADDGF108991081051004501999999KA1240M+03111MA1999999099311MD1999999-0121MW1511REMSYN100AAXX  15004 82571 21497 80502 10248 20238 39931 40106 751// 885// 333 10311 29089 55038 59012 69921;
0162825710999992005031512004-05500-045267FM-12+017499999V0203201N001010450019N0100001N1+02531+02401101231ADDGF106991041021004501031001KA1240N+02351MA1999999099481MD1999999+0001REMSYN082AAXX  15124 82571 22497 63202 10253 20240 39948 40123 84230 333 20235 58000 69924;
0167825710999992005031518004-05500-045267FM-12+017499999V0200501N001012200019N0100001N1+03071+02421100841ADDAA106000091GF104991041021004501001001MA1999999099111MD1999999+0001REMSYN070AAXX  15184 82571 32497 40502 10307 20242 39911 40084 84200 333 58000;EQDQ01  00002PRCP06
0198825710999992005031600004-05500-045267FM-12+017499999V0209999C000012200019N0100001N1+02711+02521101031ADDAA106000091GF104991041001017501011001KA1240M+03131MA1999999099291MD1999999-0021REMSYN088AAXX  16004 82571 32797 40000 10271 20252 39929 40103 84010 333 10313 29084 55067 59002;EQDQ01  00002PRCP06
0186825710999992005031612004-05500-045267FM-12+017499999V0201801N001010450019N0100001N1+02641+02421101211ADDAA106000091GF106991041021004501011001KA1240N+02421MA1999999099471MD1999999-0011REMSYN076AAXX  16124 82571 32497 61802 10264 20242 39947 40121 84210 333 20242 59001;EQDQ01  00002PRCP06
0171825710999992005031618004-05500-045267FM-12+017499999V0202701N001010042019N0100001N1+02331+02271100941ADDAY191061AY261061GF107991051071004501021001MA1999999099191MD1999999+0081MW1501REMSYN082AAXX  16184 82571 21497 72702 10233 20227 39919 40094 75096 85720 333 58008 60281;
0202825710999992005031700004-05500-045267FM-12+017499999V0200701N001012200019N0020001N1+02341+02291101111ADDAY161061AY241061GF103991031001017501041001KA1240M+02881MA1999999099361MD1999999+0071MW1131REMSYN100AAXX  17004 82571 21795 30702 10234 20229 39936 40111 71364 83040 333 10288 29094 55008 58007 69921;
0182825710999992005031712004-05500-045267FM-12+017499999V0202301N001010450019N0100001N1+02451+02391101301ADDAY141061GF106991041051004501051011KA1240N+02251MA1999999099541MD1999999+0071MW1011REMSYN088AAXX  17124 82571 21497 62302 10245 20239 39954 40130 7014/ 84551 333 20225 58007 60284;
0167825710999992005031718004-05500-045267FM-12+017499999V0201601N001010450019N0100001N1+03181+02491100811ADDAA106000091GF106991031021004501041011MA1999999099081MD1999999-0111REMSYN070AAXX  17184 82571 32497 61602 10318 20249 39908 40081 83241 333 59011;EQDQ01  00002PRCP06
0210825710999992005031800004-05500-045267FM-12+017499999V0209999C000012200019N0100001N1+02661+02561101021ADDAA106000091GF102991011031004501031001KA1240M+03231MA1999999099271MD1999999-0091MW1131REMSYN094AAXX  18004 82571 31497 20000 10266 20256 39927 40102 713// 81330 333 10323 29088 55067 59009;EQDQ01  00002PRCP06
0186825710999992005031812004-05500-045267FM-12+017499999V0200501N001010042019N0100001N1+02621+02441101291ADDAA106000091GF107991071051004501001001KA1240N+02371MA1999999099551MD1999999+0011REMSYN076AAXX  18124 82571 32497 70502 10262 20244 39955 40129 87500 333 20237 58001;EQDQ01  00002PRCP06
0167825710999992005031818004-05500-045267FM-12+017499999V0201801N002110450019N0100001N1+03291+02451100721ADDAA106000091GF105991031021004501011011MA1999999099011MD1999999-0071REMSYN070AAXX  18184 82571 32497 51804 10329 20245 39901 40072 83211 333 59007;EQDQ01  00002PRCP06
0202825710999992005031900004-05500-045267FM-12+017499999V0203601N005110042019N0100001N1+02391+02261101131ADDAY191061AY261061GF106991061071004501001001KA1240M+03401MA1999999099381MD1999999+0111MW1171REMSYN100AAXX  19004 82571 21497 63610 10239 20226 39938 40113 71796 86700 333 10340 29084 55085 58011 60041;
0190825710999992005031912004-05500-045267FM-12+017499999V0200501N001010450019N0100001N1+02411+02331101421ADDAY161061AY241061GF106991041051004501031001KA1240N+02301MA1999999099661MD1999999+0111MW1011REMSYN088AAXX  19124 82571 21497 60502 10241 20233 39966 40142 70164 84530 333 20230 58011 60104;
0213825710999992005032000004-05500-045270FM-12+015399999V0203601N001012200019N0100001N1+02481+02391101341ADDAA106000091AY191061AY201061GF102991021001017501031001MA1999999099591MD1999999+0211MW1011REMSYN094AAXX  20004 82571 31797 23602 10248 20239 39959 40134 70190 82030 333 10310 29090 55058 58021;EQDQ01  00002PRCP06
0169825710999992005032012004-05500-045270FM-12+015399999V0202701N001010042019N0100001N1+02291+02221101341ADDAY161061GF108991081051004501999999MA1999999099581MD1999999-0081MW1021REMSYN088AAXX  20124 82571 21497 82702 10229 20222 39958 40134 7026/ 885// 333 20220 59008 69964;
0161825710999992005032018004-05500-045270FM-12+015399999V0202501N001012200019N0100001N1+03011+02391101021ADDAA106000091GF100991001001999999001001MA1999999099291MD1999999+0021REMSYN064AAXX  20184 82571 32497 02502 10301 20239 39929 40102 333 58002;EQDQ01  00002PRCP06
0186825710999992005032100004-05500-045267FM-12+017499999V0201401N001010042019N0100001N1+02691+02501101231ADDGF108991081051004501999999KA1240M+03081MA1999999099481MD1999999-0111MW1611REMSYN100AAXX  21004 82571 21497 81402 10269 20250 39948 40123 761// 885// 333 10308 29086 55066 59011 69931;
0182825710999992005032112004-05500-045267FM-12+017499999V0202301N001010042019N0100001N1+02391+02351101401ADDAY161061GF107991071051004501001001KA1240N+02241MA1999999099651MD1999999+0071MW1031REMSYN088AAXX  21124 82571 21497 72302 10239 20235 39965 40140 7036/ 87500 333 20224 58007 60174;
0167825710999992005032118004-05500-045267FM-12+017499999V0202701N001010450019N0100001N1+03121+02481100831ADDAA106000091GF106991031051004501041011MA1999999099111MD1999999-0181REMSYN070AAXX  21184 82571 32497 62702 10312 20248 39911 40083 83541 333 59018;EQDQ01  00002PRCP06
0202825710999992005032200004-05500-045267FM-12+017499999V0200501N001011050019N0100001N1+02511+02451101251ADDAY191061AY261061GF105991011021004501041011KA1240M+03171MA1999999099491MD1999999+0011MW1131REMSYN100AAXX  22004 82571 21497 50502 10251 20245 39949 40125 71396 81241 333 10317 29090 55035 58001 60051;
0190825710999992005032212004-05500-045267FM-12+017499999V0202301N001010450019N0100001N1+02401+02301101411ADDAY191061AY261061GF106991031021004501041011KA1240N+02241MA1999999099651MD1999999+0001MW1011REMSYN088AAXX  22124 82571 21497 62302 10240 20230 39965 40141 70196 83241 333 20224 58000 60144;
0167825710999992005032218004-05500-045267FM-12+017499999V0202701N001010450019N0100001N1+03041+02451100941ADDAA106000091GF106991031051004501011011MA1999999099211MD1999999+0101REMSYN070AAXX  22184 82571 32497 62702 10304 20245 39921 40094 83511 333 58010;EQDQ01  00002PRCP06
0202825710999992005032300004-05500-045267FM-12+017499999V0209999C000012200019N0100001N1+02531+02471101311ADDAY191061AY261061GF103991031001017501031001KA1240M+03091MA1999999099551MD1999999+0061MW1021REMSYN100AAXX  23004 82571 21797 30000 10253 20247 39955 40131 70296 83030 333 10309 29089 55052 58006 60041;
0207825710999992005032312004-05500-045267FM-12+017499999V0201401N001012200019N0100001N1+02541+02351101461ADDAA124004091AY161061AY211061GF104991031021004501031001KA1240N+02291MA1999999099711MD1999999+0061MW1011REMSYN094AAXX  23124 82571 21497 41402 10254 20235 39971 40146 70161 83230 333 20229 58006 60044 10040;
0167825710999992005032318004-05500-045267FM-12+017499999V0201401N001010090019N0100001N1+02981+02441101031ADDAA106000091GF106991061081004501001001MA1999999099301MD1999999+0091REMSYN070AAXX  23184 82571 32497 61402 10298 20244 39930 40103 86800 333 58009;EQDQ01  00002PRCP06
0226825710999992005032400004-05500-045267FM-12+017499999V0209999C000012200019N0100001N1+02551+02381101381ADDAA106000091AY111061AY201061GF103991031001017501041001KA1240M+03101MA1999999099631MD1999999+0081MW1131REMSYN094AAXX  24004 82571 31797 30000 10255 20238 39963 40138 71310 83040 333 10310 29086 55064 58008;EQDQ01  00002PRCP06
0186825710999992005032412004-05500-045267FM-12+017499999V0200501N001010042019N0100001N1+02551+02381101471ADDAA106000091GF105991051021004501001001KA1240N+02341MA1999999099721MD1999999+0011REMSYN076AAXX  24124 82571 32497 50502 10255 20238 39972 40147 85200 333 20234 58001;EQDQ01  00002PRCP06
0167825710999992005032418004-05500-045267FM-12+017499999V0203201N001012200019N0100001N1+03171+02411101401ADDAA106000091GF103991021021004501031001MA1999999099311MD1999999+0011REMSYN070AAXX  24184 82571 32497 33202 10317 20241 39931 40140 82230 333 58001;EQDQ01  00002PRCP06
0226825710999992005032500004-05500-045267FM-12+017499999V0200501N003110042019N0100001N1+02571+02401101281ADDAA106000091AY121061AY211061GF106991061051004501001001KA1240M+03221MA1999999099531MD1999999-0101MW1131REMSYN094AAXX  25004 82571 31497 60506 10257 20240 39953 40128 71321 86500 333 10322 29084 55073 59010;EQDQ01  00002PRCP06
0186825710999992005032512004-05500-045267FM-12+017499999V0200501N001012200019N0100001N1+02691+02391101341ADDAA106000091GF104991031021004501001011KA1240N+02371MA1999999099601MD1999999-0121REMSYN076AAXX  25124 82571 32497 40502 10269 20239 39960 40134 83201 333 20237 59012;EQDQ01  00002PRCP06
0171825710999992005032518004-05500-045267FM-12+017499999V0201801N003110042019N0100001N1+02881+02371100971ADDAY161061AY211061GF106991061021004501001001MA1999999099241MD1999999-0071MW1171REMSYN082AAXX  25184 82571 21497 61806 10288 20237 39924 40097 71761 86200 333 59007 60041;
0226825710999992005032600004-05500-045267FM-12+017499999V0203201N005110042019N0100001N1+02541+02381101301ADDAA106000091AY121061AY221061GF108991081051004501999999KA1240M+03081MA1999999099551MD1999999+0021MW1131REMSYN094AAXX  26004 82571 31497 83210 10254 20238 39955 40130 71322 885// 333 10308 29085 55029 58002;EQDQ01  00002PRCP06
0190825710999992005032612004-05500-045267FM-12+017499999V0201801N001010042019N0100001N1+02541+02381101341ADDAY161061AY211061GF108991081051004501999999KA1240N+02351MA1999999099591MD1999999-0011MW1021REMSYN088AAXX  26124 82571 21497 81802 10254 20238 39959 40134 70261 885// 333 20235 59001 60054;
0171825710999992005032618004-05500-045267FM-12+017499999V0203201N001010042019N0100001N1+02891+02501100931ADDAY161061AY211061GF106991061051004501001001MA1999999099191MD1999999-0051MW1021REMSYN082AAXX  26184 82571 21497 63202 10289 20250 39919 40093 70261 86500 333 59005 60021;
0213825710999992005032700004-05500-045270FM-12+015399999V0201801N001012200019N0100001N1+02591+02481101201ADDAA106000091AY121061AY211061GF102991021001017501031001MA1999999099451MD1999999-0101MW1131REMSYN094AAXX  27004 82571 31797 21802 10259 20248 39945 40120 71321 82030 333 10306 29089 55007 59010;EQDQ01  00002PRCP06
0149825710999992005032712004-05500-045270FM-12+015399999V0203601N001010042019N0100001N1+02491+02381101311ADDGF106991061051004501001001MA1999999099561MD1999999-0031REMSYN082AAXX  27124 82571 22497 63602 10249 20238 39956 40131 86500 333 20232 59003 60024;
0171825710999992005032718004-05500-045270FM-12+015399999V0203601N001012200019N0100001N1+03071+02471100871ADDAY161061AY211061GF103991021021004501001011MA1999999099141MD1999999-0051MW1011REMSYN082AAXX  27184 82571 21497 33602 10307 20247 39914 40087 70161 82201 333 59005 60021;
0189825710999992005032800004-05500-045270FM-12+015399999V0200501N003110042019N0100001N1+02511+02401101241ADDAY121061AY211061GF108991081001004501021999MA1999999099491MD1999999+0041MW1631REMSYN100AAXX  28004 82571 21497 80506 10251 20240 39949 40124 76321 8802/ 333 10315 29087 55065 58004 60051;
0194825710999992005032812004-05500-045270FM-12+015399999V0200501N001010450019N0100001N1+02481+02411101341ADDAA124030091AY161061AY221061GF106991041051004501031011MA1999999099591MD1999999+0031MW1211REMSYN094AAXX  28124 82571 21497 60502 10248 20241 39959 40134 72162 84531 333 20234 58003 60304 10302;
0148825710999992005032818004-05500-045270FM-12+015399999V0201801N001012200019N0100001N1+02991+02461100881ADDAA106000021GF103991021021004501001011MA1999999099151MD1999999+0011REMSYN070AAXX  28184 82571 32497 31802 10299 20246 39915 40088 82201 333 58001;
0202825710999992005032900004-05500-045267FM-12+017499999V0201401N001012200019N0100001N1+02451+02371101161ADDAY191061AY261061GF104991041061004501001001KA1240M+03151MA1999999099411MD1999999-0081MW1011REMSYN100AAXX  29004 82571 21497 41402 10245 20237 39941 40116 70196 84600 333 10315 29090 55067 59008 60081;
0162825710999992005032912004-05500-045267FM-12+017499999V0203601N001010450019N0100001N1+02621+02411101301ADDGF106991031021004501031001KA1240N+02351MA1999999099551MD1999999-0041REMSYN082AAXX  29124 82571 22497 63602 10262 20241 39955 40130 83230 333 20235 59004 60084;
0171825710999992005032918004-05500-045267FM-12+017499999V0203201N001012200019N0100001N1+02931+02401100851ADDAY161061AY211061GF105991031021004501001011MA1999999099121MD1999999-0031MW1021REMSYN082AAXX  29184 82571 21497 53202 10293 20240 39912 40085 70261 83201 333 59003 60031;
0226825710999992005033000004-05500-045267FM-12+017499999V0203601N001010042019N0100001N1+02631+02501101191ADDAA106000091AY121061AY211061GF106991061061004501001001KA1240M+03041MA1999999099451MD1999999+0041MW1131REMSYN094AAXX  30004 82571 31497 63602 10263 20250 39945 40119 71321 86600 333 10304 29086 55033 58004;EQDQ01  00002PRCP06
0190825710999992005033012004-05500-045267FM-12+017499999V0202701N001010042019N0100001N1+02411+02371101341ADDAY161061AY211061GF107991061051004501031001KA1240N+02381MA1999999099591MD1999999+0041MW1021REMSYN088AAXX  30124 82571 21497 72702 10241 20237 39959 40134 70261 86530 333 20238 58004 60284;
0167825710999992005033018004-05500-045267FM-12+017499999V0201801N001010042019N0100001N1+02861+02441100921ADDAA106000091GF107991051051004501011001MA1999999099191MD1999999+0071REMSYN070AAXX  30184 82571 32497 71802 10286 20244 39919 40092 85510 333 58007;EQDQ01  00002PRCP06
0202825710999992005033100004-05500-045267FM-12+017499999V0202701N001012200019N0100001N1+02371+02331101181ADDAY161061AY211061GF103991031021004501001001KA1240M+02921MA1999999099421MD1999999-0031MW1031REMSYN100AAXX  31004 82571 21497 32702 10237 20233 39942 40118 70361 83200 333 10292 29092 55000 59003 60061;
0190825710999992005033112004-05500-045267FM-12+017499999V0202501N001010450019N0100001N1+02331+02271101371ADDAY161061AY211061GF107991041051004501031001KA1240N+02201MA1999999099611MD1999999+0021MW1011REMSYN088AAXX  31124 82571 21497 72502 10233 20227 39961 40137 70161 84530 333 20220 58002 60184;
0167825710999992005033118004-05500-045267FM-12+017499999V0202301N001011050019N0100001N1+02981+02491100841ADDAA106000091GF105991021021004501051011MA1999999099111MD1999999-0081REMSYN070AAXX  31184 82571 32497 52302 10298 20249 39911 40084 82251 333 59008;EQDQ01  00002PRCP06
0202825710999992005040100004-05500-045267FM-12+017499999V0201801N002110042019N0020001N1+02441+02371101221ADDAY121061AY221061GF108991081091004501999999KA1240M+03101MA1999999099461MD1999999+0041MW1951REMSYN100AAXX  01004 82571 21495 81804 10244 20237 39946 40122 79522 889// 333 10310 29091 55031 58004 60181;
0190825710999992005040112004-05500-045267FM-12+017499999V0203601N001010042019N0100001N1+02481+02381101431ADDAY191061AY261061GF107991061051004501031001KA1240N+02291MA1999999099671MD1999999+0061MW1021REMSYN088AAXX  01124 82571 21497 73602 10248 20238 39967 40143 70296 86530 333 20229 58006 60234;
0167825710999992005040118004-05500-045267FM-12+017499999V0203201N001012200019N0100001N1+03061+02431100951ADDAA106000091GF104991031021004501001011MA1999999099221MD1999999+0111REMSYN070AAXX  01184 82571 32497 43202 10306 20243 39922 40095 83201 333 58011;EQDQ01  00002PRCP06
0208825710999992005040200004-05500-045267FM-12+017499999V0200501N001012200019N0100001N1+02671+02461101241ADDAA106000091GA1001+999999999GF100991001001999999001001KA1240M+03261MA1999999099491MD1999999+0031REMSYN082AAXX  02004 82571 32497 00502 10267 20246 39949 40124 333 10326 29085 55070 58003;EQDQ01  00002PRCP06
0186825710999992005040212004-05500-045267FM-12+017499999V0201401N001010042019N0100001N1+02571+02401101371ADDAA106000091GF105991051021004501001001KA1240N+02351MA1999999099621MD1999999-0051REMSYN076AAXX  02124 82571 32497 51402 10257 20240 39962 40137 85200 333 20235 59005;EQDQ01  00002PRCP06
0167825710999992005040218004-05500-045267FM-12+017499999V0200501N001012200019N0100001N1+03181+02391100921ADDAA106000091GF102991021021004501001001MA1999999099201MD1999999-0021REMSYN070AAXX  02184 82571 32497 20502 10318 20239 39920 40092 82200 333 59002;EQDQ01  00002PRCP06
0207825710999992005040300004-05500-045270FM-12+015399999V0203201N001012200019N0100001N1+02651+02521101231ADDAA106000091AY121061AY211061GF100991001001999999001001MA1999999099481MD1999999-0011MW1131REMSYN088AAXX  03004 82571 31997 03202 10265 20252 39948 40123 71321 333 10328 29084 55083 59001;EQDQ01  00002PRCP06
0173825710999992005040312004-05500-045270FM-12+015399999V0201801N001010042019N0100001N1+02501+02381101481ADDAA106000091GF108991081051004501999999MA1999999099731MD1999999+0111REMSYN076AAXX  03124 82571 32497 81802 10250 20238 39973 40148 885// 333 20227 58011;EQDQ01  00002PRCP06
0167825710999992005040318004-05500-045270FM-12+015399999V0201401N001012200019N0100001N1+03151+02451100921ADDAA106000091GF104991031021004501001011MA1999999099191MD1999999-0011REMSYN070AAXX  03184 82571 32497 41402 10315 20245 39919 40092 83201 333 59001;EQDQ01  00002PRCP06
0236825710999992005040400004-05500-045267FM-12+017499999V0209999C000012200019N0100001N1+02671+02451101251ADDAA106000091AY101061AY201061GA1001+999999999GF100991001001999999001001KA1240M+03221MA1999999099501MD1999999+0021MW1131REMSYN088AAXX  04004 82571 31997 00000 10267 20245 39950 40125 71300 333 10322 29083 55063 58002;EQDQ01  00002PRCP06
0186825710999992005040412004-05500-045267FM-12+017499999V0202701N001010042019N0100001N1+02591+02481101421ADDAA106000091GF107991071051004501001001KA1240N+02381MA1999999099671MD1999999-0061REMSYN076AAXX  04124 82571 32497 72702 10259 20248 39967 40142 87500 333 20238 59006;EQDQ01  00002PRCP06
0167825710999992005040418004-05500-045267FM-12+017499999V0200501N001012200019N0100001N1+03161+02371100921ADDAA106000091GF102991021021004501001001MA1999999099201MD1999999+0011REMSYN070AAXX  04184 82571 32497 20502 10316 20237 39920 40092 82200 333 58001;EQDQ01  00002PRCP06
0208825710999992005040500004-05500-045267FM-12+017499999V0201401N001012200019N0100001N1+02751+02541101171ADDAA106000091GA1001+999999999GF100991001001999999001001KA1240M+03251MA1999999099431MD1999999-0071REMSYN082AAXX  05004 82571 32997 01402 10275 20254 39943 40117 333 10325 29083 55079 59007;EQDQ01  00002PRCP06
0186825710999992005040512004-05500-045267FM-12+017499999V0203601N001012200019N0100001N1+02621+02421101281ADDAA106000091GF105991041021004501001011KA1240N+02401MA1999999099541MD1999999-0131REMSYN076AAXX  05124 82571 32497 53602 10262 20242 39954 40128 84201 333 20240 59013;EQDQ01  00002PRCP06
0167825710999992005040518004-05500-045267FM-12+017499999V0200901N003112200019N0100001N1+03221+02291100891ADDAA106000091GF103991011021004501011011MA1999999099171MD1999999-0031REMSYN070AAXX  05184 82571 32497 30906 10322 20229 39917 40089 81211 333 59003;EQDQ01  00002PRCP06
0208825710999992005040600004-05500-045267FM-12+017499999V0202301N001012200019N0100001N1+02751+02501101241ADDAA106000091GA1001+999999999GF100991001001999999001001KA1240M+03271MA1999999099501MD1999999+0071REMSYN082AAXX  06004 82571 32997 02302 10275 20250 39950 40124 333 10327 29080 55095 58007;EQDQ01  00002PRCP06
0186825710999992005040612004-05500-045267FM-12+017499999V0201801N001011050019N0100001N1+02601+02421101261ADDAA106000091GF105991011021004501041011KA1240N+02421MA1999999099521MD1999999-0021REMSYN076AAXX  06124 82571 32497 51802 10260 20242 39952 40126 81241 333 20242 59002;EQDQ01  00002PRCP06
0167825710999992005040618004-05500-045267FM-12+017499999V0201101N002110450019N0100001N1+03191+02381100911ADDAA106000091GF106991021021004501011011MA1999999099191MD1999999+0021REMSYN070AAXX  06184 82571 32497 61104 10319 20238 39919 40091 82211 333 58002;EQDQ01  00002PRCP06
0226825710999992005040700004-05500-045267FM-12+017499999V0209999C000012200019N0100001N1+02751+02581101071ADDAA106000091AY111061AY201061GF101991011031004501001001KA1240M+03281MA1999999099341MD1999999-0161MW1131REMSYN094AAXX  07004 82571 31497 10000 10275 20258 39934 40107 71310 81300 333 10328 29083 55054 59016;EQDQ01  00002PRCP06
0186825710999992005040712004-05500-045267FM-12+017499999V0200201N002110450019N0100001N1+02751+02441101191ADDAA106000091GF106991011011004501011011KA1240N+02371MA1999999099461MD1999999-0061REMSYN076AAXX  07124 82571 32497 60204 10275 20244 39946 40119 81111 333 20237 59006;EQDQ01  00002PRCP06
0171825710999992005040718004-05500-045267FM-12+017499999V0201401N003111050019N0100001N1+03171+02471100841ADDAY111061AY211061GF105991021021004501011011MA1999999099121MD1999999-0071MW1211REMSYN082AAXX  07184 82571 21497 51406 10317 20247 39912 40084 72111 82211 333 59007 69931;
0189825710999992005040800004-05500-045267FM-12+017499999V0201401N001012200019N0100001N1+02761+02501101071ADDAA106000021GA1001+999999999GF100991001001999999001001KA1240M+03301MA1999999099341MD1999999+0001REMSYN082AAXX  08004 82571 32997 01402 10276 20250 39934 40107 333 10330 29080 55096 58000;
0190825710999992005040812004-05500-045267FM-12+017499999V0200501N005112200019N0100001N1+02871+02321101151ADDAY141061AY201061GF103991011011004501001011KA1240N+02301MA1999999099421MD1999999+0041MW1011REMSYN088AAXX  08124 82571 21497 30510 10287 20232 39942 40115 70140 81101 333 20230 58004 69934;
0167825710999992005040818004-05500-045267FM-12+017499999V0201401N001012200019N0100001N1+03221+02261100821ADDAA106000091GF102991021021004501001001MA1999999099101MD1999999+0021REMSYN070AAXX  08184 82571 32497 21402 10322 20226 39910 40082 82200 333 58002;EQDQ01  00002PRCP06
0208825710999992005040900004-05500-045267FM-12+017499999V0201401N001012200019N0100001N1+02671+02201101091ADDAA106000091GA1001+999999999GF100991001001999999001001KA1240M+03281MA1999999099361MD1999999+0021REMSYN082AAXX  09004 82571 32997 01402 10267 20220 39936 40109 333 10328 29070 55106 58002;EQDQ01  00002PRCP06
0172825710999992005040912004-05500-045267FM-12+017499999V0202301N001019999999N0100001N1+02611+99999999999ADDAA106000091GF107991999999004501999999KA1240M+99999REMSYN075AAXX  09124 82571 32497 72302 10261 2018 39953 40127 87500 333 10227 58011;EQDQ01  00002PRCP06Q02 +02272ATMX  
0167825710999992005040918004-05500-045267FM-12+017499999V0201401N003110450019N0100001N1+03031+02311100931ADDAA106000091GF108991021021004501011011MA1999999099201MD1999999+0101REMSYN070AAXX  09184 82571 32497 81406 10303 20231 39920 40093 82211 333 58010;EQDQ01  00002PRCP06
0207825710999992005041012004-05500-045267FM-12+017499999V0200501N001010090019N0100001N1+02431+02341101161ADDAA124000191AY161061AY241061GF106991061081004501001001KA1240N+02171MA1999999099411MD1999999-0121MW1011REMSYN094AAXX  10124 82571 21497 60502 10243 20234 39941 40116 70164 86800 333 20217 59012 69914 10001;
0186825710999992005041112004-05500-045267FM-12+017499999V0201101N001012200019N0100001N1+02791+02311101021ADDAA106000091GF104991031021004501001011KA1240N+02421MA1999999099291MD1999999-0121REMSYN076AAXX  11124 82571 32497 41102 10279 20231 39929 40102 83201 333 20242 59012;EQDQ01  00002PRCP06
0167825710999992005041118004-05500-045267FM-12+017499999V0200901N001012200019N0100001N1+03151+02391100731ADDAA106000091GF104991031021004501001011MA1999999099011MD1999999-0091REMSYN070AAXX  11184 82571 32497 40902 10315 20239 39901 40073 83201 333 59009;EQDQ01  00002PRCP06
0236825710999992005041200004-05500-045267FM-12+017499999V0209999C000012200019N0100001N1+02731+02431100991ADDAA106000091AY101061AY201061GA1001+999999999GF100991001001999999001001KA1240M+03261MA1999999099261MD1999999+0031MW1131REMSYN088AAXX  12004 82571 31997 00000 10273 20243 39926 40099 71300 333 10326 29076 55099 58003;EQDQ01  00002PRCP06
0186825710999992005041212004-05500-045267FM-12+017499999V0200501N001010450019N0100001N1+02601+02401101181ADDAA106000091GF106991041021004501031011KA1240N+02351MA1999999099441MD1999999+0151REMSYN076AAXX  12124 82571 32497 60502 10260 20240 39944 40118 84231 333 20235 58015;EQDQ01  00002PRCP06
0167825710999992005041218004-05500-045267FM-12+017499999V0202001N001010450019N0100001N1+02991+02491100901ADDAA106000091GF106991011021004501071011MA1999999099171MD1999999+0161REMSYN070AAXX  12184 82571 32497 62002 10299 20249 39917 40090 81271 333 58016;EQDQ01  00002PRCP06
0198825710999992005041300004-05500-045267FM-12+017499999V0201101N001012200019N0100001N1+02671+02481101091ADDAA106000091GF102991011021004501011001KA1240M+03021MA1999999099351MD1999999+0091REMSYN088AAXX  13004 82571 32497 21102 10267 20248 39935 40109 81210 333 10302 29085 55014 58009;EQDQ01  00002PRCP06
0186825710999992005041312004-05500-045267FM-12+017499999V0200201N002112200019N0100001N1+02811+02501101201ADDAA106000091GF104991031021004501031001KA1240N+02501MA1999999099471MD1999999+0031REMSYN076AAXX  13124 82571 32497 40204 10281 20250 39947 40120 83230 333 20250 58003;EQDQ01  00002PRCP06
0167825710999992005041318004-05500-045267FM-12+017499999V0200701N002112200019N0100001N1+03201+02431100761ADDAA106000091GF104991021021004501041011MA1999999099051MD1999999-0121REMSYN070AAXX  13184 82571 32497 40704 10320 20243 39905 40076 82241 333 59012;EQDQ01  00002PRCP06
0226825710999992005041400004-05500-045267FM-12+017499999V0201401N001012200019N0100001N1+02631+02421101031ADDAA106000091AY191061AY201061GF103991031001017501041001KA1240M+03301MA1999999099301MD1999999-0051MW1131REMSYN094AAXX  14004 82571 31797 31402 10263 20242 39930 40103 71390 83040 333 10330 29081 55091 59005;EQDQ01  00002PRCP06
0186825710999992005041412004-05500-045267FM-12+017499999V0200901N001012200019N0100001N1+02671+02391101181ADDAA106000091GF103991011021004501031011KA1240N+02341MA1999999099441MD1999999-0031REMSYN076AAXX  14124 82571 32497 30902 10267 20239 39944 40118 81231 333 20234 59003;EQDQ01  00002PRCP06
0167825710999992005041418004-05500-045267FM-12+017499999V0200901N002112200019N0100001N1+03191+02411100741ADDAA106000091GF104991031021004501031001MA1999999099021MD1999999-0031REMSYN070AAXX  14184 82571 32497 40904 10319 20241 39902 40074 83230 333 59003;EQDQ01  00002PRCP06
0226825710999992005041500004-05500-045267FM-12+017499999V0200501N001012200019N0100001N1+02781+02481101011ADDAA106000091AY101061AY201061GF104991041001017501041001KA1240M+03291MA1999999099281MD1999999-0021MW1131REMSYN094AAXX  15004 82571 31797 40502 10278 20248 39928 40101 71300 84040 333 10329 29079 55092 59002;EQDQ01  00002PRCP06
0186825710999992005041512004-05500-045267FM-12+017499999V0201101N001010042019N0100001N1+02581+02441101211ADDAA106000091GF108991081051004501999999KA1240N+02401MA1999999099471MD1999999+0031REMSYN076AAXX  15124 82571 32497 81102 10258 20244 39947 40121 885// 333 20240 58003;EQDQ01  00002PRCP06
0171825710999992005041518004-05500-045267FM-12+017499999V0202301N001010450019N0100001N1+02901+02521100871ADDAY161061AY211061GF106991021021004501041011MA1999999099141MD1999999+0121MW1011REMSYN082AAXX  15184 82571 21497 62302 10290 20252 39914 40087 70161 82241 333 58012 60061;
0198825710999992005041600004-05500-045267FM-12+017499999V0201401N001012200019N0100001N1+02691+02541101091ADDAA106000091GF102991021001017501041001KA1240M+03181MA1999999099351MD1999999+0071REMSYN088AAXX  16004 82571 32797 21402 10269 20254 39935 40109 82040 333 10318 29088 55030 58007;EQDQ01  00002PRCP06
0162825710999992005041612004-05500-045267FM-12+017499999V0200501N001010042019N0100001N1+02651+02481101321ADDGF106991051051004501031001KA1240N+02421MA1999999099581MD1999999+0111REMSYN082AAXX  16124 82571 22497 60502 10265 20248 39958 40132 85530 333 20242 58011 60064;
0167825710999992005041618004-05500-045267FM-12+017499999V0200501N001011050019N0100001N1+03101+02441100901ADDAA106000091GF105991021021004501031011MA1999999099181MD1999999+0041REMSYN070AAXX  16184 82571 32497 50502 10310 20244 39918 40090 82231 333 58004;EQDQ01  00002PRCP06
0189825710999992005041700004-05500-045270FM-12+015399999V0209999C000012200019N0100001N1+02591+02461101181ADDAY161061AY211061GF104991041041004501001001MA1999999099441MD1999999+0091MW1021REMSYN100AAXX  17004 82571 21497 40000 10259 20246 39944 40118 70261 84400 333 10316 29086 55046 58009 60041;
0177825710999992005041712004-05500-045270FM-12+015399999V0203601N001012200019N0100001N1+02711+02431101291ADDAY151061AY241061GF105991031021004501001011MA1999999099551MD1999999-0031MW1021REMSYN088AAXX  17124 82571 21497 53602 10271 20243 39955 40129 70254 83201 333 20235 59003 60044;
0171825710999992005041718004-05500-045270FM-12+015399999V0200501N001012200019N0100001N1+03151+02551100941ADDAY121061AY211061GF105991041021004501001011MA1999999099211MD1999999+0031MW1511REMSYN082AAXX  17184 82571 21497 50502 10315 20255 39921 40094 75121 84201 333 58003 69911;
0202825710999992005041800004-05500-045267FM-12+017499999V0201401N001010042019N0100001N1+02551+02471101071ADDAY191061AY261061GF106991061071004501001001KA1240M+03271MA1999999099331MD1999999-0111MW1031REMSYN100AAXX  18004 82571 21497 61402 10255 20247 39933 40107 70396 86700 333 10327 29086 55076 59011 60161;
0190825710999992005041812004-05500-045267FM-12+017499999V0203601N001012200019N0100001N1+02531+02511101111ADDAY151061AY241061GF104991031021004501001011KA1240N+02321MA1999999099361MD1999999-0191MW1281REMSYN088AAXX  18124 82571 21497 43602 10253 20251 39936 40111 72854 83201 333 20232 59019 60164;
0167825710999992005041818004-05500-045267FM-12+017499999V0200501N001012200019N0100001N1+03191+02461100691ADDAA106000091GF105991031021004501001011MA1999999098971MD1999999-0241REMSYN070AAXX  18184 82571 32497 50502 10319 20246 39897 40069 83201 333 59024;EQDQ01  00002PRCP06
0202825710999992005041900004-05500-045267FM-12+017499999V0202301N001010450019N0100001N1+02551+02461100991ADDAY161061AY201061GF106991041051004501031001KA1240M+03261MA1999999099251MD1999999-0081MW1021REMSYN100AAXX  19004 82571 21497 62302 10255 20246 39925 40099 70260 84530 333 10326 29088 55062 59008 60031;
0209825710999992005041912004-05500-045267FM-12+017499999V0200201N001010042019N0100001N1+02421+02351101151ADDAY161061AY221061GF107991051051004501031001KA1240N+02351MA1999999099401MD1999999+0041MW1242REMSYN088AAXX  19124 82571 21497 70202 10242 20235 39940 40115 72462 85530 333 20235 58004 60034;EQDQ01+000002PRSWM1
0148825710999992005041918004-05500-045267FM-12+017499999V0200201N002110450019N0100001N1+03051+02541100731ADDAA106000021GF106991031021004501041001MA1999999099001MD1999999+0031REMSYN070AAXX  19184 82571 32497 60204 10305 20254 39900 40073 83240 333 58003;
0186825710999992005042012004-05500-045267FM-12+017499999V0200501N001010450019N0100001N1+02611+02421101231ADDAA106000091GF106991031021004501031011KA1240N+02391MA1999999099491MD1999999+0091REMSYN076AAXX  20124 82571 32497 60502 10261 20242 39949 40123 83231 333 20239 58009;EQDQ01  00002PRCP06
0171825710999992005042018004-05500-045267FM-12+017499999V0200501N001010450019N0100001N1+02911+02521100871ADDAY191061AY251061GF106991031021004501041001MA1999999099141MD1999999+0141MW1021REMSYN082AAXX  20184 82571 21497 60502 10291 20252 39914 40087 70295 83240 333 58014 69911;
0198825710999992005042100004-05500-045267FM-12+017499999V0209999C000012200019N0100001N1+02671+02541101151ADDAA106000091GF104991041001017501041001KA1240M+03081MA1999999099411MD1999999+0091REMSYN088AAXX  21004 82571 32797 40000 10267 20254 39941 40115 84040 333 10308 29088 55033 58009;EQDQ01  00002PRCP06
0190825710999992005042112004-05500-045267FM-12+017499999V0202301N001010450019N0100001N1+02591+02441101171ADDAY141061AY221061GF106991021021004501041011KA1240N+02381MA1999999099431MD1999999-0061MW1011REMSYN088AAXX  21124 82571 21497 62302 10259 20244 39943 40117 70142 82241 333 20238 59006 69914;
0167825710999992005042118004-05500-045267FM-12+017499999V0200901N001010450019N0100001N1+02981+02441100851ADDAA106000091GF107991011011004501071001MA1999999099121MD1999999-0021REMSYN070AAXX  21184 82571 32497 70902 10298 20244 39912 40085 81170 333 59002;EQDQ01  00002PRCP06
0198825710999992005042200004-05500-045267FM-12+017499999V0209999C000010150019N0100001N1+02711+02561101071ADDAA106000091GF106991061001017501051001KA1240M+03121MA1999999099331MD1999999-0081REMSYN088AAXX  22004 82571 32797 60000 10271 20256 39933 40107 86050 333 10312 29086 55024 59008;EQDQ01  00002PRCP06
0186825710999992005042212004-05500-045267FM-12+017499999V0200901N001010450019N0100001N1+02761+02481101161ADDAA106000091GF105991041021004501031001KA1240N+02371MA1999999099431MD1999999+0001REMSYN076AAXX  22124 82571 32497 50902 10276 20248 39943 40116 84230 333 20237 58000;EQDQ01  00002PRCP06
0167825710999992005042218004-05500-045267FM-12+017499999V0200901N002112200019N0100001N1+03251+02351100691ADDAA106000091GF104991021021004501011011MA1999999098981MD1999999-0141REMSYN070AAXX  22184 82571 32497 40904 10325 20235 39898 40069 82211 333 59014;EQDQ01  00002PRCP06
0198825710999992005042300004-05500-045267FM-12+017499999V0201401N001012200019N0100001N1+02791+02501101011ADDAA106000091GF102991021001017501031001KA1240M+03311MA1999999099281MD1999999-0051REMSYN088AAXX  23004 82571 32797 21402 10279 20250 39928 40101 82030 333 10331 29078 55093 59005;EQDQ01  00002PRCP06
0202825710999992005042312004-05500-045267FM-12+017499999V0201801N001010042019N0100001N1+02631+02461101201ADDAA106000091GF107991999051004501001001KA1240N+02421MA1999999099461MD1999999+0031REMSYN076AAXX  23124 82571 32497 71802 10263 20246 39946 40120 86500 333 20242 58003;EQDQ01+000062SCOTLCQ02  00002PRCP06
0167825710999992005042318004-05500-045267FM-12+017499999V0202301N001010450019N0100001N1+03131+02551100741ADDAA106000091GF106991041051004501041001MA1999999099021MD1999999+0041REMSYN070AAXX  23184 82571 32497 62302 10313 20255 39902 40074 84540 333 58004;EQDQ01  00002PRCP06
0189825710999992005042400004-05500-045270FM-12+015399999V0202701N001010450019N0100001N1+02711+02601100991ADDAY161061AY221061GF106991031051004501031001MA1999999099251MD1999999-0031MW1021REMSYN100AAXX  24004 82571 21497 62702 10271 20260 39925 40099 70262 83530 333 10338 29087 55045 59003 60031;
0177825710999992005042412004-05500-045270FM-12+015399999V0200501N001010042019N0100001N1+02731+02521101231ADDAY141061AY211061GF107991071051004501001001MA1999999099491MD1999999+0031MW1021REMSYN088AAXX  24124 82571 21497 70502 10273 20252 39949 40123 70241 87500 333 20238 58003 60034;
0171825710999992005042418004-05500-045270FM-12+015399999V0203601N001010450019N0100001N1+02871+02521100801ADDAY161061AY221061GF108991041031004501011999MA1999999099071MD1999999+0051MW1021REMSYN082AAXX  24184 82571 21497 83602 10287 20252 39907 40080 70262 8431/ 333 58005 69911;
0198825710999992005042500004-05500-045267FM-12+017499999V0203201N001010042019N0100001N1+02671+02501101141ADDAA106000091GF108991081051004501999999KA1240M+03151MA1999999099401MD1999999+0151REMSYN088AAXX  25004 82571 32497 83202 10267 20250 39940 40114 885// 333 10315 29087 55037 58015;EQDQ01  00002PRCP06
0162825710999992005042512004-05500-045267FM-12+017499999V0202301N001010042019N0100001N1+02591+02441101311ADDGF108991081051004501999999KA1240N+02421MA1999999099571MD1999999+0081REMSYN082AAXX  25124 82571 22497 82302 10259 20244 39957 40131 885// 333 20242 58008 69914;
0171825710999992005042518004-05500-045267FM-12+017499999V0203201N001010042019N0100001N1+02491+02451101021ADDAY191061AY261061GF106991051051004501041001MA1999999099271MD1999999+0201MW1021REMSYN082AAXX  25184 82571 21497 63202 10249 20245 39927 40102 70296 85540 333 58020 60211;
0198825710999992005042600004-05500-045267FM-12+017499999V0201801N001010090019N0100001N1+02481+02431101281ADDAA106000091GF106991061081004501001001KA1240M+03121MA1999999099531MD1999999+0131REMSYN088AAXX  26004 82571 32497 61802 10248 20243 39953 40128 86800 333 10312 29096 55007 58013;EQDQ01  00002PRCP06
0190825710999992005042612004-05500-045267FM-12+017499999V0203201N001010042019N0100001N1+02641+02481101291ADDAY141061AY211061GF106991061051004501001001KA1240N+02401MA1999999099541MD1999999-0031MW1031REMSYN088AAXX  26124 82571 21497 63202 10264 20248 39954 40129 70341 86500 333 20240 59003 60214;
0167825710999992005042618004-05500-045267FM-12+017499999V0200501N001012200019N0100001N1+03201+02411100841ADDAA106000091GF104991021021004501041011MA1999999099121MD1999999-0151REMSYN070AAXX  26184 82571 32497 40502 10320 20241 39912 40084 82241 333 59015;EQDQ01  00002PRCP06
0226825710999992005042700004-05500-045267FM-12+017499999V0200501N001012200019N0100001N1+02761+02521101161ADDAA106000091AY101061AY201061GF102991011031004501041001KA1240M+03301MA1999999099421MD1999999-0111MW1131REMSYN094AAXX  27004 82571 31497 20502 10276 20252 39942 40116 71300 81340 333 10330 29082 55079 59011;EQDQ01  00002PRCP06
0186825710999992005042712004-05500-045267FM-12+017499999V0200201N001010042019N0100001N1+02581+02441101271ADDAA106000091GF107991061051004501031001KA1240N+02371MA1999999099531MD1999999-0011REMSYN076AAXX  27124 82571 32497 70202 10258 20244 39953 40127 86530 333 20237 59001;EQDQ01  00002PRCP06
0167825710999992005042718004-05500-045267FM-12+017499999V0200901N001011050019N0100001N1+03111+02481100841ADDAA106000091GF105991021021004501011011MA1999999099121MD1999999+0001REMSYN070AAXX  27184 82571 32497 50902 10311 20248 39912 40084 82211 333 58000;EQDQ01  00002PRCP06
0226825710999992005042800004-05500-045267FM-12+017499999V0209999C000012200019N0100001N1+02651+02561101131ADDAA106000091AY111061AY201061GF101991011031004501001001KA1240M+03271MA1999999099391MD1999999-0031MW1131REMSYN094AAXX  28004 82571 31497 10000 10265 20256 39939 40113 71310 81300 333 10327 29087 55052 59003;EQDQ01  00002PRCP06
0190825710999992005042812004-05500-045267FM-12+017499999V0200501N002110042019N0100001N1+02621+02481101391ADDAY191061AY261061GF107991071051004501001001KA1240N+02471MA1999999099651MD1999999+0121MW1011REMSYN088AAXX  28124 82571 21497 70504 10262 20248 39965 40139 70196 87500 333 20247 58012 60054;
0171825710999992005042818004-05500-045267FM-12+017499999V0201801N001010450019N0040001N1+02291+02251101081ADDAY161061AY221061GF108991041071004501021999MA1999999099321MD1999999+0201MW1611REMSYN082AAXX  28184 82571 21496 81802 10229 20225 39932 40108 76162 8472/ 333 58020 60131;
0202825710999992005042900004-05500-045267FM-12+017499999V0209999C000010090019N0100001N1+02351+02291101321ADDAY161061AY221061GF106991061081004501001001KA1240M+02921MA1999999099571MD1999999+0181MW1021REMSYN100AAXX  29004 82571 21497 60000 10235 20229 39957 40132 70262 86800 333 10292 29095 55010 58018 69911;
0162825710999992005042912004-05500-045267FM-12+017499999V0202701N001010042019N0100001N1+02431+02271101501ADDGF108991081051004501999999KA1240N+02251MA1999999099741MD1999999+0091REMSYN082AAXX  29124 82571 22497 82702 10243 20227 39974 40150 885// 333 20225 58009 60134;
0167825710999992005042918004-05500-045267FM-12+017499999V0203201N001010450019N0100001N1+02911+02361101191ADDAA106000091GF106991031021004501031001MA1999999099451MD1999999+0131REMSYN070AAXX  29184 82571 32497 63202 10291 20236 39945 40119 83230 333 58013;EQDQ01  00002PRCP06
0208825710999992005043000004-05500-045267FM-12+017499999V0209999C000012200019N0100001N1+02591+02461101481ADDAA106000091GA1001+999999999GF100991001001999999001001KA1240M+03111MA1999999099721MD1999999-0151REMSYN082AAXX  30004 82571 32997 00000 10259 20246 39972 40148 333 10311 29086 55044 59015;EQDQ01  00002PRCP06
0190825710999992005043012004-05500-045267FM-12+017499999V0203201N001010450019N0100001N1+02471+02381101531ADDAY191061AY261061GF106991041051004501031001KA1240N+02241MA1999999099781MD1999999+0041MW1021REMSYN088AAXX  30124 82571 21497 63202 10247 20238 39978 40153 70296 84530 333 20224 58004 60054;
0167825710999992005043018004-05500-045267FM-12+017499999V0200501N001011050019N0100001N1+03031+02411101171ADDAA106000091GF105991021031004501031011MA1999999099431MD1999999-0021REMSYN070AAXX  30184 82571 32497 50502 10303 20241 39943 40117 82331 333 59002;EQDQ01  00002PRCP06
0189825710999992005050100004-05500-045270FM-12+015399999V0209999C000010042019N0100001N1+02351+02291101431ADDAY161061AY221061GF108991081071004501999999MA1999999099671MD1999999-0051MW1021REMSYN100AAXX  01004 82571 21497 80000 10235 20229 39967 40143 70262 887// 333 10310 29089 55037 59005 60021;
0149825710999992005050112004-05500-045270FM-12+015399999V0203201N001010042019N0100001N1+02471+02341101601ADDGF107991051051004501031001MA1999999099841MD1999999+0061REMSYN082AAXX  01124 82571 22497 73202 10247 20234 39984 40160 85530 333 20232 58006 60024;
0167825710999992005050118004-05500-045270FM-12+015399999V0201801N001011050019N0100001N1+03151+02341101071ADDAA106000091GF105991021021004501061011MA1999999099341MD1999999-0091REMSYN070AAXX  01184 82571 32497 51802 10315 20234 39934 40107 82261 333 59009;EQDQ01  00002PRCP06
0179825710999992005050200004-05500-045270FM-12+015399999V0202301N001012200019N0100001N1+02691+02461101321ADDAA106000091GF100991001001999999001001MA1999999099571MD1999999-0101REMSYN082AAXX  02004 82571 32997 02302 10269 20246 39957 40132 333 10326 29082 55067 59010;EQDQ01  00002PRCP06
0167825710999992005050218004-05500-045267FM-12+017499999V0201801N001012200019N0100001N1+03351+02301100901ADDAA106000091GF103991021021004501041001MA1999999099181MD1999999-0161REMSYN070AAXX  02184 82571 32497 31802 10335 20230 39918 40090 82240 333 59016;EQDQ01  00002PRCP06
0226825710999992005050300004-05500-045267FM-12+017499999V0201801N002110090019N0100001N1+02511+02271101421ADDAA106000091AY101061AY201061GF106991061081004501001001KA1240M+03451MA1999999099671MD1999999+0101MW1131REMSYN094AAXX  03004 82571 31497 61804 10251 20227 39967 40142 71300 86800 333 10345 29079 55088 58010;EQDQ01  00002PRCP06
0190825710999992005050312004-05500-045267FM-12+017499999V0203601N001010042019N0100001N1+02291+02251101501ADDAY161061AY221061GF107991061051004501041001KA1240N+02231MA1999999099741MD1999999+0051MW1011REMSYN088AAXX  03124 82571 21497 73602 10229 20225 39974 40150 70162 86540 333 20223 58005 60214;
0167825710999992005050318004-05500-045267FM-12+017499999V0201401N001012200019N0100001N1+02991+02241101121ADDAA106000091GF104991021021004501011011MA1999999099381MD1999999+0201REMSYN070AAXX  03184 82571 32497 41402 10299 20224 39938 40112 82211 333 58020;EQDQ01  00002PRCP06
0198825710999992005050400004-05500-045267FM-12+017499999V0201601N001012200019N0100001N1+02541+02381101361ADDAA106000091GF102991021021004501001001KA1240M+03141MA1999999099601MD1999999-0071REMSYN088AAXX  04004 82571 32497 21602 10254 20238 39960 40136 82200 333 10314 29086 55066 59007;EQDQ01  00002PRCP06
0190825710999992005050412004-05500-045267FM-12+017499999V0201401N001010042019N0100001N1+02581+02401101521ADDAY161061AY221061GF108991081051004501999999KA1240N+02321MA1999999099771MD1999999+0031MW1021REMSYN088AAXX  04124 82571 21497 81402 10258 20240 39977 40152 70262 885// 333 20232 58003 60144;
0171825710999992005050418004-05500-045267FM-12+017499999V0201101N002111050019N0100001N1+02821+02361101121ADDAY161061AY221061GF105991011021004501041011MA1999999099381MD1999999+0001MW1011REMSYN082AAXX  04184 82571 21497 51104 10282 20236 39938 40112 70162 81241 333 58000 69911;
0198825710999992005050500004-05500-045267FM-12+017499999V0201401N001012200019N0100001N1+02521+02451101421ADDAA106000091GF102991021001017501031001KA1240M+02911MA1999999099671MD1999999+0071REMSYN088AAXX  05004 82571 32797 21402 10252 20245 39967 40142 82030 333 10291 29090 55025 58007;EQDQ01  00002PRCP06
0190825710999992005050512004-05500-045267FM-12+017499999V0201401N003112200019N0100001N1+02721+02301101481ADDAY161061AY241061GF104991041021004501001001KA1240N+02421MA1999999099731MD1999999-0041MW1031REMSYN088AAXX  05124 82571 21497 41406 10272 20230 39973 40148 70364 84200 333 20242 59004 69934;
0167825710999992005050518004-05500-045267FM-12+017499999V0201401N002110090019N0100001N1+02951+02451101061ADDAA106000091GF106991061081004501001001MA1999999099331MD1999999-0051REMSYN070AAXX  05184 82571 32497 61404 10295 20245 39933 40106 86800 333 59005;EQDQ01  00002PRCP06
0198825710999992005050600004-05500-045267FM-12+017499999V0201401N001010042019N0100001N1+02691+02391101291ADDAA106000091GF105991051021004501001001KA1240M+03061MA1999999099551MD1999999-0121REMSYN088AAXX  06004 82571 32497 51402 10269 20239 39955 40129 85200 333 10306 29080 55069 59012;EQDQ01  00002PRCP06
0186825710999992005050612004-05500-045267FM-12+017499999V0201101N003112200019N0100001N1+02831+02331101381ADDAA106000091GF103991011021004501031001KA1240N+02411MA1999999099641MD1999999-0091REMSYN076AAXX  06124 82571 32497 31106 10283 20233 39964 40138 81230 333 20241 59009;EQDQ01  00002PRCP06
0167825710999992005050618004-05500-045267FM-12+017499999V0201401N003112200019N0100001N1+03071+02371100941ADDAA106000091GF104991031021004501041001MA1999999099211MD1999999-0121REMSYN070AAXX  06184 82571 32497 41406 10307 20237 39921 40094 83240 333 59012;EQDQ01  00002PRCP06
0208825710999992005050700004-05500-045267FM-12+017499999V0209999C000012200019N0100001N1+02631+02461101221ADDAA106000091GA1001+999999999GF100991001001999999001001KA1240M+03161MA1999999099491MD1999999-0061REMSYN082AAXX  07004 82571 32997 00000 10263 20246 39949 40122 333 10316 29080 55083 59006;EQDQ01  00002PRCP06
0196825710999992005050712004-05500-045267FM-12+017499999V0201401N002112200019N0100001N1+02731+02211101331ADDAA106000091GA1001+999999999GF100991001001999999001001KA1240N+02341MA1999999099591MD1999999-0051REMSYN070AAXX  07124 82571 32997 01404 10273 20221 39959 40133 333 20234 59005;EQDQ01  00002PRCP06
0185825710999992005050800004-05500-045270FM-12+015399999V0209999C000012200019N0100001N1+02751+02461101191ADDAA106000091GF101991011021004501001001MA1999999099461MD1999999-0031REMSYN088AAXX  08004 82571 32497 10000 10275 20246 39946 40119 81200 333 10325 29074 55102 59003;EQDQ01  00002PRCP06
0201825710999992005050812004-05500-045270FM-12+015399999V0201401N003112200019N0100001N1+02711+02151101301ADDAA106000091AY141061AY201061GF102991999999004501999999MA1999999099561MD1999999-0031MW1011REMSYN082AAXX  08124 82571 31497 21406 10271 20215 39956 40130 70140 8//// 333 20225 59003;EQDQ01  00002PRCP06
0167825710999992005050818004-05500-045270FM-12+015399999V0201601N002110042019N0100001N1+02971+02371101001ADDAA106000091GF105991051021004501001001MA1999999099271MD1999999+0091REMSYN070AAXX  08184 82571 32497 51604 10297 20237 39927 40100 85200 333 58009;EQDQ01  00002PRCP06
0202825710999992005050900004-05500-045267FM-12+017499999V0209999C000012200019N0100001N1+02581+02441101221ADDAY161061AY211061GF101991011001017501031001KA1240M+03071MA1999999099481MD1999999+0021MW1021REMSYN100AAXX  09004 82571 21797 10000 10258 20244 39948 40122 70261 81030 333 10307 29081 55078 58002 60081;
0162825710999992005050912004-05500-045267FM-12+017499999V0201401N003112200019N0100001N1+02701+02261101361ADDGF104991021021004501031011KA1240N+02351MA1999999099621MD1999999+0061REMSYN082AAXX  09124 82571 22497 41406 10270 20226 39962 40136 82231 333 20235 58006 60084;
0167825710999992005050918004-05500-045267FM-12+017499999V0201401N003111050019N0100001N1+03021+02161101071ADDAA106000091GF105991021021004501011011MA1999999099341MD1999999+0071REMSYN070AAXX  09184 82571 32497 51406 10302 20216 39934 40107 82211 333 58007;EQDQ01  00002PRCP06
0208825710999992005051000004-05500-045267FM-12+017499999V0209999C000012200019N0100001N1+02631+02441101231ADDAA106000091GA1001+999999999GF100991001001999999001001KA1240M+03131MA1999999099491MD1999999+0011REMSYN082AAXX  10004 82571 32997 00000 10263 20244 39949 40123 333 10313 29079 55075 58001;EQDQ01  00002PRCP06
0214825710999992005051012004-05500-045267FM-12+017499999V0201601N004112200019N0100001N1+02701+02221101271ADDAA106000091AY141061AY201061GF102991011011004501001011KA1240N+02241MA1999999099531MD1999999-0091MW1031REMSYN082AAXX  10124 82571 31497 21608 10270 20222 39953 40127 70340 81101 333 20224 59009;EQDQ01  00002PRCP06
0167825710999992005051018004-05500-045267FM-12+017499999V0201401N002112200019N0100001N1+03061+02271101001ADDAA106000091GF103991031021004501001001MA1999999099271MD1999999-0071REMSYN070AAXX  10184 82571 32497 31404 10306 20227 39927 40100 83200 333 59007;EQDQ01  00002PRCP06
0208825710999992005051100004-05500-045267FM-12+017499999V0209999C000012200019N0100001N1+02701+02501101141ADDAA106000091GA1001+999999999GF100991001001999999001001KA1240M+03181MA1999999099401MD1999999-0091REMSYN082AAXX  11004 82571 32997 00000 10270 20250 39940 40114 333 10318 29079 55100 59009;EQDQ01  00002PRCP06
0186825710999992005051112004-05500-045267FM-12+017499999V0201401N004112200019N0100001N1+02741+02261101271ADDAA106000091GF103991031021004501001001KA1240N+02271MA1999999099531MD1999999+0001REMSYN076AAXX  11124 82571 32497 31408 10274 20226 39953 40127 83200 333 20227 58000;EQDQ01  00002PRCP06
0167825710999992005051118004-05500-045267FM-12+017499999V0200901N003112200019N0100001N1+03071+02241100941ADDAA106000091GF104991031021004501001011MA1999999099211MD1999999-0061REMSYN070AAXX  11184 82571 32497 40906 10307 20224 39921 40094 83201 333 59006;EQDQ01  00002PRCP06
0208825710999992005051200004-05500-045267FM-12+017499999V0209999C000012200019N0100001N1+02731+02471101131ADDAA106000091GA1001+999999999GF100991001001999999001001KA1240M+03251MA1999999099401MD1999999+0001REMSYN082AAXX  12004 82571 32997 00000 10273 20247 39940 40113 333 10325 29076 55097 58000;EQDQ01  00002PRCP06
0186825710999992005051212004-05500-045267FM-12+017499999V0201401N004612200019N0100001N1+02761+02091101191ADDAA106000091GF103991011001017501031011KA1240N+02321MA1999999099461MD1999999-0071REMSYN076AAXX  12124 82571 32797 31409 10276 20209 39946 40119 81031 333 20232 59007;EQDQ01  00002PRCP06
0167825710999992005051218004-05500-045267FM-12+017499999V0201401N002612200019N0100001N1+03121+02191100881ADDAA106000091GF104991031021004501001011MA1999999099151MD1999999-0061REMSYN070AAXX  12184 82571 32497 41405 10312 20219 39915 40088 83201 333 59006;EQDQ01  00002PRCP06
0226825710999992005051300004-05500-045267FM-12+017499999V0201101N001512200019N0100001N1+02681+02371101071ADDAA106000091AY101061AY201061GF102991011031004501031001KA1240M+03351MA1999999099341MD1999999-0061MW1131REMSYN094AAXX  13004 82571 31497 21103 10268 20237 39934 40107 71300 81330 333 10335 29073 55104 59006;EQDQ01  00002PRCP06
0186825710999992005051312004-05500-045267FM-12+017499999V0201401N001510042019N0100001N1+02521+02311101241ADDAA106000091GF107991061051004501041001KA1240N+02471MA1999999099491MD1999999+0031REMSYN076AAXX  13124 82571 32497 71403 10252 20231 39949 40124 86540 333 20247 58003;EQDQ01  00002PRCP06
0167825710999992005051318004-05500-045267FM-12+017499999V0200901N002110450019N0100001N1+03151+02321100811ADDAA106000091GF106991031021004501011011MA1999999099091MD1999999-0061REMSYN070AAXX  13184 82571 32497 60904 10315 20232 39909 40081 83211 333 59006;EQDQ01  00002PRCP06
0198825710999992005051400004-05500-045267FM-12+017499999V0201401N001510150019N0100001N1+02631+02411100981ADDAA106000091GF105991051001017501071001KA1240M+03191MA1999999099241MD1999999-0101REMSYN088AAXX  14004 82571 32797 51403 10263 20241 39924 40098 85070 333 10319 29081 55065 59010;EQDQ01  00002PRCP06
0186825710999992005051412004-05500-045267FM-12+017499999V0200901N004112200019N0100001N1+02731+02241101161ADDAA106000091GF102991011011004501041001KA1240N+02321MA1999999099421MD1999999-0071REMSYN076AAXX  14124 82571 32497 20908 10273 20224 39942 40116 81140 333 20232 59007;EQDQ01  00002PRCP06
0167825710999992005051418004-05500-045267FM-12+017499999V0201401N003110450019N0100001N1+03091+02291100781ADDAA106000091GF105991031021004501041011MA1999999099061MD1999999+0031REMSYN070AAXX  14184 82571 32497 51406 10309 20229 39906 40078 83241 333 58003;EQDQ01  00002PRCP06
0185825710999992005051500004-05500-045270FM-12+015399999V0209999C000012200019N0100001N1+02561+02381100971ADDAA106000091GF103991031001017501031001MA1999999099231MD1999999-0011REMSYN088AAXX  15004 82571 32797 30900 10256 20238 39923 40097 83030 333 10315 29079 55084 59001;EQDQ01  00002PRCP06
0173825710999992005051512004-05500-045270FM-12+015399999V0201401N002110090019N0100001N1+02471+02231101101ADDAA106000091GF107991071081004501001001MA1999999099351MD1999999-0071REMSYN076AAXX  15124 82571 32497 71404 10247 20223 39935 40110 87800 333 20220 59007;EQDQ01  00002PRCP06
0167825710999992005051518004-05500-045270FM-12+015399999V0200901N004112200019N0100001N1+03031+02201100741ADDAA106000091GF105991041021004501001011MA1999999099011MD1999999-0051REMSYN070AAXX  15184 82571 32497 50908 10303 20220 39901 40074 84201 333 59005;EQDQ01  00002PRCP06
0202825710999992005051600004-05500-045267FM-12+017499999V0201401N001512200019N0100001N1+02621+02311101041ADDAY161061AY201061GF101991011001017501011001KA1240M+03081MA1999999099291MD1999999+0061MW1001REMSYN100AAXX  16004 82571 21797 11403 10262 20231 39929 40104 70060 81010 333 10308 29078 55057 58006 69911;
0190825710999992005051612004-05500-045267FM-12+017499999V0201401N003612200019N0100001N1+02631+02161101091ADDAY141061AY201061GF104991021001017501011011KA1240N+02191MA1999999099351MD1999999+0001MW1001REMSYN088AAXX  16124 82571 21797 41407 10263 20216 39935 40109 70040 82011 333 20219 58000 69914;
0167825710999992005051618004-05500-045267FM-12+017499999V0200901N002610450019N0100001N1+03101+02291100751ADDAA106000091GF106991031021004501011011MA1999999099021MD1999999+0011REMSYN070AAXX  16184 82571 32497 60905 10310 20229 39902 40075 83211 333 58001;EQDQ01  00002PRCP06
0198825710999992005051700004-05500-045267FM-12+017499999V0201401N001512200019N0100001N1+02691+02331100921ADDAA106000091GF102991021001017501031001KA1240M+03231MA1999999099181MD1999999-0011REMSYN088AAXX  17004 82571 32797 21403 10269 20233 39918 40092 82030 333 10323 29074 55085 59001;EQDQ01  00002PRCP06
0186825710999992005051712004-05500-045267FM-12+017499999V0201401N003611050019N0100001N1+02771+02251101081ADDAA106000091GF105991011011004501011011KA1240N+02291MA1999999099351MD1999999+0001REMSYN076AAXX  17124 82571 32497 51407 10277 20225 39935 40108 81111 333 20229 58000;EQDQ01  00002PRCP06
0167825710999992005051718004-05500-045267FM-12+017499999V0201801N002112200019N0100001N1+03221+02371100661ADDAA106000091GF104991021021004501001011MA1999999098941MD1999999-0081REMSYN070AAXX  17184 82571 32497 41804 10322 20237 39894 40066 82201 333 59008;EQDQ01  00002PRCP06
0186825710999992005051812004-05500-045267FM-12+017499999V0201401N005112200019N0100001N1+02861+02261100991ADDAA106000091GF105991031001017501051011KA1240N+02471MA1999999099261MD1999999-0091REMSYN076AAXX  18124 82571 32797 51410 10286 20226 39926 40099 83051 333 20247 59009;EQDQ01  00002PRCP06
0198825710999992005051900004-05500-045267FM-12+017499999V0209999C000012200019N0100001N1+02741+02501100881ADDAA106000091GF101991011001017501041001KA1240M+03251MA1999999099151MD1999999+0001REMSYN088AAXX  19004 82571 32797 10000 10274 20250 39915 40088 81040 333 10325 29075 55090 58000;EQDQ01  00002PRCP06
0186825710999992005051912004-05500-045267FM-12+017499999V0209999C000010450019N0100001N1+02471+02341101081ADDAA106000091GF106991011011004501011011KA1240N+02221MA1999999099341MD1999999+0081REMSYN076AAXX  19124 82571 32497 60000 10247 20234 39934 40108 81111 333 20222 58008;EQDQ01  00002PRCP06
0167825710999992005051918004-05500-045267FM-12+017499999V0200501N001510450019N0100001N1+03081+02321100681ADDAA106000091GF107991021021004501071011MA1999999098961MD1999999+0081REMSYN070AAXX  19184 82571 32497 70503 10308 20232 39896 40068 82271 333 58008;EQDQ01  00002PRCP06
0198825710999992005052000004-05500-045267FM-12+017499999V0209999C000012200019N0100001N1+02701+02461100971ADDAA106000091GF103991031001017501031001KA1240M+03151MA1999999099231MD1999999+0081REMSYN088AAXX  20004 82571 32797 30000 10270 20246 39923 40097 83030 333 10315 29082 55046 58008;EQDQ01  00002PRCP06
0214825710999992005052012004-05500-045267FM-12+017499999V0209999C000010450019N0100001N1+02391+02351101211ADDAA106000091AY141061AY221061GF107991021021004501071001KA1240N+02221MA1999999099461MD1999999+0121MW1281REMSYN082AAXX  20124 82571 31497 70900 10239 20235 39946 40121 72842 82270 333 20222 58012;EQDQ01  00002PRCP06
0167825710999992005052018004-05500-045267FM-12+017499999V0201401N002610450019N0100001N1+03021+02361100801ADDAA106000091GF107991021021004501011001MA1999999099071MD1999999+0111REMSYN070AAXX  20184 82571 32497 71405 10302 20236 39907 40080 82210 333 58011;EQDQ01  00002PRCP06
0198825710999992005052100004-05500-045267FM-12+017499999V0203601N000510150019N0100001N1+02601+02421101151ADDAA106000091GF106991061001017501041001KA1240M+03071MA1999999099401MD1999999+0171REMSYN088AAXX  21004 82571 32797 63601 10260 20242 39940 40115 86040 333 10307 29086 55003 58017;EQDQ01  00002PRCP06
0186825710999992005052112004-05500-045267FM-12+017499999V0200901N002110042019N0100001N1+02591+02391101371ADDAA106000091GF108991081051004501999999KA1240N+02311MA1999999099621MD1999999+0161REMSYN076AAXX  21124 82571 32497 80904 10259 20239 39962 40137 885// 333 20231 58016;EQDQ01  00002PRCP06
0171825710999992005052118004-05500-045267FM-12+017499999V0200901N001010090019N0100001N1+02931+02361100921ADDAY161061AY221061GF107991071081004501001001MA1999999099191MD1999999+0121MW1021REMSYN082AAXX  21184 82571 21497 70902 10293 20236 39919 40092 70262 87800 333 58012 60021;
0189825710999992005052200004-05500-045270FM-12+015399999V0203601N000510042019N0100001N1+02401+02351101191ADDAY191061AY261061GF108991081051004501999999MA1999999099441MD1999999+0041MW1021REMSYN100AAXX  22004 82571 21497 83601 10240 20235 39944 40119 70296 885// 333 10303 29088 55001 58004 60091;
0149825710999992005052212004-05500-045270FM-12+015399999V0203201N001010450019N0100001N1+02601+02421101291ADDGF106991031021004501011011MA1999999099541MD1999999-0081REMSYN082AAXX  22124 82571 22497 63202 10260 20242 39954 40129 83211 333 20234 59008 60104;
0167825710999992005052218004-05500-045270FM-12+015399999V0201401N002110450019N0100001N1+03171+02471100781ADDAA106000091GF106991031021004501011011MA1999999099051MD1999999-0141REMSYN070AAXX  22184 82571 32497 61404 10317 20247 39905 40078 83211 333 59014;EQDQ01  00002PRCP06
0189825710999992005052300004-05500-045270FM-12+015399999V0202301N000510090019N0100001N1+02461+02371101231ADDAY191061AY261061GF107991071081004501001001MA1999999099481MD1999999+0041MW1131REMSYN100AAXX  23004 82571 21497 72301 10246 20237 39948 40123 71396 87800 333 10322 29086 55071 58004 69931;
0177825710999992005052312004-05500-045270FM-12+015399999V0200501N000510450019N0100001N1+02601+02391101291ADDAY161061AY251061GF105991031021004501031011MA1999999099541MD1999999+0001MW1031REMSYN088AAXX  23124 82571 21497 50501 10260 20239 39954 40129 70365 83231 333 20238 58000 60094;
0167825710999992005052318004-05500-045270FM-12+015399999V0203601N002110450019N0100001N1+03081+02351100791ADDAA106000091GF106991021021004501011011MA1999999099061MD1999999+0011REMSYN070AAXX  23184 82571 32497 63604 10308 20235 39906 40079 82211 333 58001;EQDQ01  00002PRCP06
0202825710999992005052400004-05500-045267FM-12+017499999V0200501N000510450019N0100001N1+02541+02401101151ADDAY191061AY251061GF105991011021004501071001KA1240M+03131MA1999999099401MD1999999-0081MW1131REMSYN100AAXX  24004 82571 21497 50501 10254 20240 39940 40115 71395 81270 333 10313 29084 55081 59008 69911;
0190825710999992005052412004-05500-045267FM-12+017499999V0201401N001510450019N0100001N1+02541+02331101261ADDAY161061AY251061GF106991041021004501011011KA1240N+02271MA1999999099511MD1999999-0031MW1011REMSYN088AAXX  24124 82571 21497 61403 10254 20233 39951 40126 70165 84211 333 20227 59003 60024;
0167825710999992005052418004-05500-045267FM-12+017499999V0200901N002110450019N0100001N1+03051+02271100901ADDAA106000091GF106991031021004501011011MA1999999099171MD1999999-0111REMSYN070AAXX  24184 82571 32497 60904 10305 20227 39917 40090 83211 333 59011;EQDQ01  00002PRCP06
0198825710999992005052500004-05500-045267FM-12+017499999V0209999C000012200019N0100001N1+02651+02481101161ADDAA106000091GF102991011001017501041011KA1240M+03101MA1999999099421MD1999999+0021REMSYN088AAXX  25004 82571 32797 20000 10265 20248 39942 40116 81041 333 10310 29083 55082 58002;EQDQ01  00002PRCP06
0186825710999992005052512004-05500-045267FM-12+017499999V0203601N001510042019N0100001N1+02531+02401101401ADDAA106000091GF105991051051004501001001KA1240N+02281MA1999999099651MD1999999+0141REMSYN076AAXX  25124 82571 32497 53603 10253 20240 39965 40140 85500 333 20228 58014;EQDQ01  00002PRCP06
0167825710999992005052518004-05500-045267FM-12+017499999V0200901N002112200019N0100001N1+03121+02381101001ADDAA106000091GF103991021021004501001011MA1999999099271MD1999999+0101REMSYN070AAXX  25184 82571 32497 30904 10312 20238 39927 40100 82201 333 58010;EQDQ01  00002PRCP06
0208825710999992005052600004-05500-045267FM-12+017499999V0209999C000012200019N0100001N1+02691+02481101211ADDAA106000091GA1001+999999999GF100991001001999999001001KA1240M+03181MA1999999099461MD1999999+0041REMSYN082AAXX  26004 82571 32997 00000 10269 20248 39946 40121 333 10318 29083 55088 58004;EQDQ01  00002PRCP06
0186825710999992005052612004-05500-045267FM-12+017499999V0209999C000010150019N0100001N1+02511+02401101531ADDAA106000091GF106991051001017501031011KA1240N+02291MA1999999099781MD1999999+0131REMSYN076AAXX  26124 82571 32797 60000 10251 20240 39978 40153 85031 333 20229 58013;EQDQ01  00002PRCP06
0167825710999992005052618004-05500-045267FM-12+017499999V0200501N002110450019N0100001N1+03191+02381101111ADDAA106000091GF105991031021004501011011MA1999999099381MD1999999+0111REMSYN070AAXX  26184 82571 32497 50504 10319 20238 39938 40111 83211 333 58011;EQDQ01  00002PRCP06
0226825710999992005052700004-05500-045267FM-12+017499999V0209999C000012200019N0100001N1+02751+02501101361ADDAA106000091AY121061AY201061GF102991011031004501031001KA1240M+03251MA1999999099621MD1999999-0161MW1131REMSYN094AAXX  27004 82571 31497 20000 10275 20250 39962 40136 71320 81330 333 10325 29082 55070 59016;EQDQ01  00002PRCP06
0186825710999992005052712004-05500-045267FM-12+017499999V0202301N001010042019N0100001N1+02551+02381101461ADDAA106000091GF107991061051004501051001KA1240N+02271MA1999999099711MD1999999-0071REMSYN076AAXX  27124 82571 32497 72302 10255 20238 39971 40146 86550 333 20227 59007;EQDQ01  00002PRCP06
0167825710999992005052718004-05500-045267FM-12+017499999V0201401N002112200019N0100001N1+03151+02321101131ADDAA106000091GF102991021021004501001001MA1999999099401MD1999999+0021REMSYN070AAXX  27184 82571 32497 21404 10315 20232 39940 40113 82200 333 58002;EQDQ01  00002PRCP06
0212825710999992005052800004-05500-045267FM-12+017499999V0202301N000512200019N0100001N1+02541+02401101341ADDAY161061AY201061GA1001+999999999GF100991001001999999001001KA1240M+03201MA1999999099591MD1999999-0031MW1001REMSYN094AAXX  28004 82571 21997 02301 10254 20240 39959 40134 70060 333 10320 29084 55063 59003 69931;
0162825710999992005052812004-05500-045267FM-12+017499999V0201801N002112200019N0100001N1+02611+02331101381ADDGF102991021021004501001001KA1240N+02241MA1999999099631MD1999999-0081REMSYN082AAXX  28124 82571 22497 21804 10261 20233 39963 40138 82200 333 20224 59008 69934;
0167825710999992005052818004-05500-045267FM-12+017499999V0201801N002112200019N0100001N1+03091+02201101051ADDAA106000091GF103991031021004501001001MA1999999099321MD1999999-0081REMSYN070AAXX  28184 82571 32497 31804 10309 20220 39932 40105 83200 333 59008;EQDQ01  00002PRCP06
0179825710999992005052900004-05500-045270FM-12+015399999V0201801N001512200019N0100001N1+02571+02231101261ADDAA106000091GF100991001001999999001001MA1999999099511MD1999999-0081REMSYN082AAXX  29004 82571 32997 01803 10257 20223 39951 40126 333 10317 29076 55097 59008;EQDQ01  00002PRCP06
0173825710999992005052912004-05500-045270FM-12+015399999V0201401N003612200019N0100001N1+02531+02131101381ADDAA106000091GF102991021001017501031001MA1999999099631MD1999999+0001REMSYN076AAXX  29124 82571 32797 21407 10253 20213 39963 40138 82030 333 20216 58000;EQDQ01  00002PRCP06
0167825710999992005052918004-05500-045270FM-12+015399999V0201401N003612200019N0100001N1+02971+02151101081ADDAA106000091GF103991031021004501001001MA1999999099341MD1999999+0021REMSYN070AAXX  29184 82571 32497 31407 10297 20215 39934 40108 83200 333 58002;EQDQ01  00002PRCP06
0198825710999992005053000004-05500-045267FM-12+017499999V0201401N001012200019N0100001N1+02591+02141101271ADDAA106000091GF102991021001017501051001KA1240M+03081MA1999999099521MD1999999+0011REMSYN088AAXX  30004 82571 32797 21402 10259 20214 39952 40127 82050 333 10308 29073 55096 58001;EQDQ01  00002PRCP06
0186825710999992005053012004-05500-045267FM-12+017499999V0200901N003612200019N0100001N1+02631+02031101451ADDAA106000091GF104991011001017501041011KA1240N+02091MA1999999099701MD1999999+0071REMSYN076AAXX  30124 82571 32797 40907 10263 20203 39970 40145 81041 333 20209 58007;EQDQ01  00002PRCP06
0167825710999992005053018004-05500-045267FM-12+017499999V0201401N002611050019N0100001N1+03011+02071101101ADDAA106000091GF105991011011004501011011MA1999999099361MD1999999+0021REMSYN070AAXX  30184 82571 32497 51405 10301 20207 39936 40110 81111 333 58002;EQDQ01  00002PRCP06
0198825710999992005053100004-05500-045267FM-12+017499999V0209999C000010150019N0100001N1+02741+02361101251ADDAA106000091GF105991051001017501051001KA1240M+03111MA1999999099511MD1999999-0011REMSYN088AAXX  31004 82571 32797 50000 10274 20236 39951 40125 85050 333 10311 29072 55101 59001;EQDQ01  00002PRCP06
0186825710999992005053112004-05500-045267FM-12+017499999V0201401N003610150019N0100001N1+02721+02121101361ADDAA106000091GF106991061001017501051001KA1240N+02491MA1999999099621MD1999999+0081REMSYN076AAXX  31124 82571 32797 61407 10272 20212 39962 40136 86050 333 20249 58008;EQDQ01  00002PRCP06
0167825710999992005053118004-05500-045267FM-12+017499999V0201401N002612200019N0100001N1+03011+02161101061ADDAA106000091GF103991011021004501051001MA1999999099331MD1999999-0031REMSYN070AAXX  31184 82571 32497 31405 10301 20216 39933 40106 81250 333 59003;EQDQ01  00002PRCP06
0208825710999992005060100004-05500-045267FM-12+017499999V0209999C000012200019N0100001N1+02591+02351101241ADDAA106000091GA1001+999999999GF100991001001999999001001KA1240M+03131MA1999999099501MD1999999-0011REMSYN082AAXX  01004 82571 32997 00000 10259 20235 39950 40124 333 10313 29076 55073 59001;EQDQ01  00002PRCP06
0186825710999992005060112004-05500-045267FM-12+017499999V0201401N004112200019N0100001N1+02641+02121101401ADDAA106000091GF102991011011004501001011KA1240N+02051MA1999999099651MD1999999+0031REMSYN076AAXX  01124 82571 32497 21408 10264 20212 39965 40140 81101 333 20205 58003;EQDQ01  00002PRCP06
0167825710999992005060118004-05500-045267FM-12+017499999V0200901N002110450019N0100001N1+03021+02311101031ADDAA106000091GF106991021021004501051011MA1999999099291MD1999999-0041REMSYN070AAXX  01184 82571 32497 60904 10302 20231 39929 40103 82251 333 59004;EQDQ01  00002PRCP06
0208825710999992005060200004-05500-045267FM-12+017499999V0209999C000012200019N0100001N1+02631+02441101211ADDAA106000091GA1001+999999999GF100991001001999999001001KA1240M+03141MA1999999099471MD1999999-0031REMSYN082AAXX  02004 82571 32997 00000 10263 20244 39947 40121 333 10314 29079 55096 59003;EQDQ01  00002PRCP06
0186825710999992005060212004-05500-045267FM-12+017499999V0201401N004112200019N0100001N1+02711+02151101311ADDAA106000091GF101991011011004501001001KA1240N+02201MA1999999099571MD1999999-0081REMSYN076AAXX  02124 82571 32497 11408 10271 20215 39957 40131 81100 333 20220 59008;EQDQ01  00002PRCP06
0167825710999992005060218004-05500-045267FM-12+017499999V0201401N003612200019N0100001N1+03101+02091101001ADDAA106000091GF104991021021004501031011MA1999999099271MD1999999-0021REMSYN070AAXX  02184 82571 32497 41407 10310 20209 39927 40100 82231 333 59002;EQDQ01  00002PRCP06
0208825710999992005060300004-05500-045267FM-12+017499999V0209999C000012200019N0100001N1+02631+02271101201ADDAA106000091GA1001+999999999GF100991001001999999001001KA1240M+03171MA1999999099461MD1999999-0011REMSYN082AAXX  03004 82571 32997 00000 10263 20227 39946 40120 333 10317 29072 55101 59001;EQDQ01  00002PRCP06
0186825710999992005060312004-05500-045267FM-12+017499999V0201401N003112200019N0100001N1+02621+01961101301ADDAA106000091GF104991021001017501011011KA1240N+02211MA1999999099551MD1999999-0021REMSYN076AAXX  03124 82571 32797 41406 10262 20196 39955 40130 82011 333 20221 59002;EQDQ01  00002PRCP06
0167825710999992005060318004-05500-045267FM-12+017499999V0201401N002612200019N0100001N1+03091+02061101061ADDAA106000091GF102991021021004501001001MA1999999099331MD1999999+0061REMSYN070AAXX  03184 82571 32497 21405 10309 20206 39933 40106 82200 333 58006;EQDQ01  00002PRCP06
0208825710999992005060400004-05500-045267FM-12+017499999V0209999C000012200019N0100001N1+02621+02331101271ADDAA106000091GA1001+999999999GF100991001001999999001001KA1240M+03161MA1999999099521MD1999999+0061REMSYN082AAXX  04004 82571 32997 00000 10262 20233 39952 40127 333 10316 29072 55102 58006;EQDQ01  00002PRCP06
0173825710999992005060412004-05500-045270FM-12+015399999V0201401N004612200019N0100001N1+02661+01901101361ADDAA106000091GF102991001001999999001011MA1999999099621MD1999999+0071REMSYN076AAXX  04124 82571 32997 21409 10266 20190 39962 40136 80001 333 20225 58007;EQDQ01  00002PRCP06
0167825710999992005060418004-05500-045270FM-12+015399999V0201401N003112200019N0100001N1+03111+02021101041ADDAA106000091GF102991021021004501001001MA1999999099311MD1999999-0021REMSYN070AAXX  04184 82571 32497 21406 10311 20202 39931 40104 82200 333 59002;EQDQ01  00002PRCP06
0179825710999992005060500004-05500-045270FM-12+015399999V0200901N001512200019N0100001N1+02641+02201101271ADDAA106000091GF100991001001999999001001MA1999999099531MD1999999+0011REMSYN082AAXX  05004 82571 32997 00903 10264 20220 39953 40127 333 10316 29067 55094 58001;EQDQ01  00002PRCP06
0186825710999992005060512004-05500-045267FM-12+017499999V0201401N002612200019N0100001N1+02671+02131101381ADDAA106000091GF101991011011999999001001KA1240N+02131MA1999999099641MD1999999+0021REMSYN076AAXX  05124 82571 32997 11405 10267 20213 39964 40138 81100 333 20213 58002;EQDQ01  00002PRCP06
0167825710999992005060518004-05500-045267FM-12+017499999V0201401N003112200019N0100001N1+03111+02081101131ADDAA106000091GF102991021021004501001001MA1999999099391MD1999999+0081REMSYN070AAXX  05184 82571 32497 21406 10311 20208 39939 40113 82200 333 58008;EQDQ01  00002PRCP06
0186825710999992005060612004-05500-045267FM-12+017499999V0201401N003612200019N0100001N1+02681+02021101281ADDAA106000091GF101991011011004501001001KA1240N+02241MA1999999099541MD1999999+0101REMSYN076AAXX  06124 82571 32497 11407 10268 20202 39954 40128 81100 333 20224 58010;EQDQ01  00002PRCP06
0167825710999992005060618004-05500-045267FM-12+017499999V0201401N003112200019N0100001N1+03131+02071100961ADDAA106000091GF102991011011004501001011MA1999999099231MD1999999-0161REMSYN070AAXX  06184 82571 32497 21406 10313 20207 39923 40096 81101 333 59016;EQDQ01  00002PRCP06
0208825710999992005060700004-05500-045267FM-12+017499999V0201401N001512200019N0100001N1+02431+02031101181ADDAA106000091GA1001+999999999GF100991001001999999001001KA1240M+03181MA1999999099431MD1999999-0051REMSYN082AAXX  07004 82571 32997 01403 10243 20203 39943 40118 333 10318 29069 55103 59005;EQDQ01  00002PRCP06
0186825710999992005060712004-05500-045267FM-12+017499999V0201401N002610150019N0100001N1+02351+01971101281ADDAA106000091GF106991051001017501031011KA1240N+01961MA1999999099521MD1999999-0021REMSYN076AAXX  07124 82571 32797 61405 10235 20197 39952 40128 85031 333 20196 59002;EQDQ01  00002PRCP06
0167825710999992005060718004-05500-045267FM-12+017499999V0200901N003610450019N0100001N1+03061+02141100941ADDAA106000091GF106991031021004501011011MA1999999099201MD1999999-0031REMSYN070AAXX  07184 82571 32497 60907 10306 20214 39920 40094 83211 333 59003;EQDQ01  00002PRCP06
0198825710999992005060800004-05500-045267FM-12+017499999V0209999C000010042019N0100001N1+02731+02381101121ADDAA106000091GF106991061021004501001001KA1240M+03131MA1999999099371MD1999999-0061REMSYN088AAXX  08004 82571 32497 60000 10273 20238 39937 40112 86200 333 10313 29075 55053 59006;EQDQ01  00002PRCP06
0186825710999992005060812004-05500-045267FM-12+017499999V0201401N004612200019N0100001N1+02791+02181101321ADDAA106000091GF103991011011004501001011KA1240N+02411MA1999999099581MD1999999+0061REMSYN076AAXX  08124 82571 32497 31409 10279 20218 39958 40132 81101 333 20241 58006;EQDQ01  00002PRCP06
0167825710999992005060818004-05500-045267FM-12+017499999V0201401N003112200019N0100001N1+03131+02211101041ADDAA106000091GF105991031021004501001011MA1999999099321MD1999999+0121REMSYN070AAXX  08184 82571 32497 51406 10313 20221 39932 40104 83201 333 58012;EQDQ01  00002PRCP06
0208825710999992005060900004-05500-045267FM-12+017499999V0201401N001512200019N0100001N1+02661+02201101281ADDAA106000091GA1001+999999999GF100991001001999999001001KA1240M+03171MA1999999099541MD1999999+0171REMSYN082AAXX  09004 82571 32997 01403 10266 20220 39954 40128 333 10317 29070 55101 58017;EQDQ01  00002PRCP06
0214825710999992005060912004-05500-045267FM-12+017499999V0201401N004612200019N0100001N1+02651+01971101441ADDAA106000091AY141061AY201061GF102991011001004501031011KA1240N+02101MA1999999099691MD1999999+0111MW1021REMSYN082AAXX  09124 82571 31497 21409 10265 20197 39969 40144 70240 81031 333 20210 58011;EQDQ01  00002PRCP06
0167825710999992005060918004-05500-045267FM-12+017499999V0200901N004112200019N0100001N1+03131+02071101151ADDAA106000091GF103991031021004501001001MA1999999099421MD1999999+0101REMSYN070AAXX  09184 82571 32497 30908 10313 20207 39942 40115 83200 333 58010;EQDQ01  00002PRCP06
0208825710999992005061000004-05500-045267FM-12+017499999V0201401N001512200019N0100001N1+02591+02191101351ADDAA106000091GA1001+999999999GF100991001001999999001001KA1240M+03191MA1999999099601MD1999999+0061REMSYN082AAXX  10004 82571 32997 01403 10259 20219 39960 40135 333 10319 29069 55103 58006;EQDQ01  00002PRCP06
0186825710999992005061012004-05500-045267FM-12+017499999V0201401N003112200019N0100001N1+02601+01841101451ADDAA106000091GF101991011001017501011001KA1240N+02141MA1999999099701MD1999999+0011REMSYN076AAXX  10124 82571 32797 11406 10260 20184 39970 40145 81010 333 20214 58001;EQDQ01  00002PRCP06
0167825710999992005061018004-05500-045267FM-12+017499999V0201401N003612200019N0100001N1+03111+01891101051ADDAA106000091GF102991021021004501001001MA1999999099321MD1999999-0101REMSYN070AAXX  10184 82571 32497 21407 10311 20189 39932 40105 82200 333 59010;EQDQ01  00002PRCP06
0208825710999992005061100004-05500-045267FM-12+017499999V0200901N001012200019N0100001N1+02531+02091101281ADDAA106000091GA1001+999999999GF100991001001999999001001KA1240M+03181MA1999999099531MD1999999-0071REMSYN082AAXX  11004 82571 32997 00902 10253 20209 39953 40128 333 10318 29066 55103 59007;EQDQ01  00002PRCP06
0186825710999992005061112004-05500-045267FM-12+017499999V0201401N004612200019N0100001N1+02591+01891101351ADDAA106000091GF101991011001017501011001KA1240N+01981MA1999999099601MD1999999-0101REMSYN076AAXX  11124 82571 32797 11409 10259 20189 39960 40135 81010 333 20198 59010;EQDQ01  00002PRCP06
0167825710999992005061118004-05500-045267FM-12+017499999V0200901N002612200019N0100001N1+03141+02071101101ADDAA106000091GF102991021011004501001001MA1999999099361MD1999999+0041REMSYN070AAXX  11184 82571 32497 20905 10314 20207 39936 40110 82100 333 58004;EQDQ01  00002PRCP06
0179825710999992005061200004-05500-045270FM-12+015399999V0209999C000012200019N0100001N1+02651+02291101281ADDAA106000091GF100991001001999999001001MA1999999099531MD1999999+0001REMSYN082AAXX  12004 82571 32997 00000 10265 20229 39953 40128 333 10324 29070 55106 58000;EQDQ01  00002PRCP06
0173825710999992005061212004-05500-045270FM-12+015399999V0201401N003110090019N0100001N1+02451+02031101411ADDAA106000091GF106991061081004501001001MA1999999099661MD1999999+0061REMSYN076AAXX  12124 82571 32497 61406 10245 20203 39966 40141 86800 333 20204 58006;EQDQ01  00002PRCP06
0167825710999992005061218004-05500-045270FM-12+015399999V0201401N003112200019N0100001N1+03171+02131101051ADDAA106000091GF102991021021004501001001MA1999999099321MD1999999-0041REMSYN070AAXX  12184 82571 32497 21406 10317 20213 39932 40105 82200 333 59004;EQDQ01  00002PRCP06
0198825710999992005061300004-05500-045267FM-12+017499999V0209999C000012200019N0100001N1+02791+02361101181ADDAA106000091GF103991031061004501001001KA1240M+03261MA1999999099441MD1999999-0091REMSYN088AAXX  13004 82571 32497 30000 10279 20236 39944 40118 83600 333 10326 29071 55061 59009;EQDQ01  00002PRCP06
0190825710999992005061312004-05500-045267FM-12+017499999V0200501N001510042019N0100001N1+02501+02381101371ADDAY161061AY221061GF108991081051004501999999KA1240N+02481MA1999999099631MD1999999-0031MW1211REMSYN088AAXX  13124 82571 21497 80503 10250 20238 39963 40137 72162 885// 333 20248 59003 69924;
0148825710999992005061318004-05500-045267FM-12+017499999V0200901N002610450019N0100001N1+02991+02321101111ADDAA106000021GF106991041051004501031001MA1999999099381MD1999999+0061REMSYN070AAXX  13184 82571 32497 60905 10299 20232 39938 40111 84530 333 58006;
0208825710999992005061400004-05500-045267FM-12+017499999V0200501N001012200019N0100001N1+02531+02381101261ADDAA106000091GA1001+999999999GF100991001001999999001001KA1240M+03071MA1999999099511MD1999999+0071REMSYN082AAXX  14004 82571 32997 00502 10253 20238 39951 40126 333 10307 29086 55044 58007;EQDQ01  00002PRCP06
0214825710999992005061412004-05500-045267FM-12+017499999V0200901N004112200019N0100001N1+02651+02141101451ADDAA106000091AY141061AY201061GF102991021001017501041001KA1240N+02121MA1999999099701MD1999999+0071MW1011REMSYN082AAXX  14124 82571 31797 20908 10265 20214 39970 40145 70140 82040 333 20212 58007;EQDQ01  00002PRCP06
0167825710999992005061418004-05500-045267FM-12+017499999V0200901N002612200019N0100001N1+03221+02171101121ADDAA106000091GF103991021021004501031001MA1999999099391MD1999999+0011REMSYN070AAXX  14184 82571 32497 30905 10322 20217 39939 40112 82230 333 58001;EQDQ01  00002PRCP06
0195825710999992005061500004-05500-045267FM-12+017499999V0200201N033922200019N0100001N1+02371+99999103282ADDAA106000091GF101991999001999999011011MA1999999101362MD1999999+0111REMSYN082AAXX  15004 82571 32997 10266 10237 29962 30136 40328 88011 333 29074 55079 58011;EQDQ01+000082SCOTLCQ02  00002PRCP06
0190825710999992005061512004-05500-045267FM-12+017499999V0200901N002610042019N0100001N1+02531+02401101541ADDAY161061AY251061GF107991071051004501001001KA1240N+02371MA1999999099791MD1999999+0091MW1011REMSYN088AAXX  15124 82571 21497 70905 10253 20240 39979 40154 70165 87500 333 20237 58009 60044;
0171825710999992005061518004-05500-045267FM-12+017499999V0200901N002112200019N0100001N1+03011+02261101131ADDAY151061AY211061GF103991021021004501041001MA1999999099401MD1999999+0011MW1011REMSYN082AAXX  15184 82571 21497 30904 10301 20226 39940 40113 70151 82240 333 58001 69911;
0208825710999992005061600004-05500-045267FM-12+017499999V0200901N001512200019N0100001N1+02601+02311101291ADDAA106000091GA1001+999999999GF100991001001999999001001KA1240M+03111MA1999999099541MD1999999-0081REMSYN082AAXX  16004 82571 32997 00903 10260 20231 39954 40129 333 10311 29081 55064 59008;EQDQ01  00002PRCP06
0162825710999992005061612004-05500-045267FM-12+017499999V0201401N002612200019N0100001N1+02661+02161101381ADDGF101991001001999999001011KA1240N+02201MA1999999099641MD1999999-0151REMSYN082AAXX  16124 82571 22997 11405 10266 20216 39964 40138 80001 333 20220 59015 69914;
0167825710999992005061618004-05500-045267FM-12+017499999V0200901N002112200019N0100001N1+03211+02201101111ADDAA106000091GF103991031021004501001001MA1999999099381MD1999999-0021REMSYN070AAXX  16184 82571 32497 30904 10321 20220 39938 40111 83200 333 59002;EQDQ01  00002PRCP06
0196825710999992005061712004-05500-045267FM-12+017499999V0200901N002112200019N0100001N1+02641+02161101491ADDAA106000091GA1001+999999999GF100991001001999999001001KA1240N+02111MA1999999099751MD1999999+0111REMSYN070AAXX  17124 82571 32997 00904 10264 20216 39975 40149 333 20211 58011;EQDQ01  00002PRCP06
0167825710999992005061718004-05500-045267FM-12+017499999V0200901N002112200019N0100001N1+03181+02161101061ADDAA106000091GF103991031021004501001001MA1999999099331MD1999999-0051REMSYN070AAXX  17184 82571 32497 30904 10318 20216 39933 40106 83200 333 59005;EQDQ01  00002PRCP06
0208825710999992005061800004-05500-045267FM-12+017499999V0209999C000012200019N0100001N1+02661+02371101271ADDAA106000091GA1001+999999999GF100991001001999999001001KA1240M+03251MA1999999099531MD1999999-0041REMSYN082AAXX  18004 82571 32997 00000 10266 20237 39953 40127 333 10325 29074 55102 59004;EQDQ01  00002PRCP06
0186825710999992005061812004-05500-045267FM-12+017499999V0200501N002112200019N0100001N1+02541+02271101431ADDAA106000091GF102991021021004501001001KA1240N+02001MA1999999099681MD1999999-0071REMSYN076AAXX  18124 82571 32497 20504 10254 20227 39968 40143 82200 333 20200 59007;EQDQ01  00002PRCP06
0167825710999992005061818004-05500-045267FM-12+017499999V0200501N002612200019N0100001N1+03241+02281101071ADDAA106000091GF102991021021004501001001MA1999999099341MD1999999+0011REMSYN070AAXX  18184 82571 32497 20505 10324 20228 39934 40107 82200 333 58001;EQDQ01  00002PRCP06
0179825710999992005061900004-05500-045270FM-12+015399999V0209999C000012200019N0100001N1+02661+02391101251ADDAA106000091GF100991001001999999001001MA1999999099501MD1999999-0031REMSYN082AAXX  19004 82571 32997 00000 10266 20239 39950 40125 333 10330 29078 55095 59003;EQDQ01  00002PRCP06
0173825710999992005061912004-05500-045270FM-12+015399999V0200901N002110042019N0100001N1+02501+02321101491ADDAA106000091GF108991081051004501999999MA1999999099471MD1999999+0061REMSYN076AAXX  19124 82571 32497 80904 10250 20232 39947 40149 885// 333 20223 58006;EQDQ01  00002PRCP06
0171825710999992005061918004-05500-045270FM-12+015399999V0200901N002110042019N0100001N1+02881+02351101141ADDAY161061AY221061GF106991061051004501001001MA1999999099401MD1999999+0061MW1021REMSYN082AAXX  19184 82571 21497 60904 10288 20235 39940 40114 70262 86500 333 58006 69981;
0207825710999992005062000004-05500-045270FM-12+015399999V0209999C000012200019N0100001N1+02551+02461101281ADDAA106000091AY101061AY201061GF100991001001999999001001MA1999999099531MD1999999+0031MW1131REMSYN088AAXX  20004 82571 31997 00000 10255 20246 39953 40128 71300 333 10294 29088 55008 58003;EQDQ01  00002PRCP06
0177825710999992005062012004-05500-045270FM-12+015399999V0200501N001010042019N0100001N1+02491+02381101471ADDAY161061AY221061GF108991081051004501999999MA1999999099711MD1999999-0031MW1021REMSYN088AAXX  20124 82571 21497 80502 10249 20238 39971 40147 70262 885// 333 20229 59003 60034;
0167825710999992005062018004-05500-045267FM-12+017499999V0200501N002112200019N0100001N1+03121+02331101101ADDAA106000091GF102991021021004501001001MA1999999099371MD1999999-0031REMSYN070AAXX  20184 82571 32497 20504 10312 20233 39937 40110 82200 333 59003;EQDQ01  00002PRCP06
0208825710999992005062100004-05500-045267FM-12+017499999V0209999C000012200019N0100001N1+02641+02411101261ADDAA106000091GA1001+999999999GF100991001001999999001001KA1240M+03201MA1999999099511MD1999999-0021REMSYN082AAXX  21004 82571 32997 00000 10264 20241 39951 40126 333 10320 29082 55064 59002;EQDQ01  00002PRCP06
0214825710999992005062112004-05500-045267FM-12+017499999V0200501N001012200019N0100001N1+02491+02321101451ADDAA106000091AY141061AY211061GF104991021011004501001011KA1240N+02091MA1999999099701MD1999999-0011MW1011REMSYN082AAXX  21124 82571 31497 40502 10249 20232 39970 40145 70141 82101 333 20209 59001;EQDQ01  00002PRCP06
0167825710999992005062118004-05500-045267FM-12+017499999V0200901N002110450019N0100001N1+03201+02241101101ADDAA106000091GF106991021021004501041011MA1999999099371MD1999999+0001REMSYN070AAXX  21184 82571 32497 60904 10320 20224 39937 40110 82241 333 58000;EQDQ01  00002PRCP06
0198825710999992005062200004-05500-045267FM-12+017499999V0209999C000012200019N0100001N1+02721+02451101241ADDAA106000091GF106991031001017501011011KA1240M+03251MA1999999099491MD1999999-0021REMSYN088AAXX  22004 82571 32797 60000 10272 20245 39949 40124 83011 333 10325 29079 55096 59002;EQDQ01  00002PRCP06
0186825710999992005062212004-05500-045267FM-12+017499999V0203201N000512200019N0100001N1+02531+02331101441ADDAA106000091GF102991011021004501001011KA1240N+02271MA1999999099691MD1999999-0011REMSYN076AAXX  22124 82571 32497 23201 10253 20233 39969 40144 81201 333 20227 59001;EQDQ01  00002PRCP06
0167825710999992005062218004-05500-045267FM-12+017499999V0200901N002612200019N0100001N1+03241+02161101061ADDAA106000091GF102991021021004501001001MA1999999099341MD1999999-0031REMSYN070AAXX  22184 82571 32497 20905 10324 20216 39934 40106 82200 333 59003;EQDQ01  00002PRCP06
0208825710999992005062300004-05500-045267FM-12+017499999V0209999C000012200019N0100001N1+02741+02361101291ADDAA106000091GA1001+999999999GF100991001001999999001001KA1240M+03301MA1999999099551MD1999999+0061REMSYN082AAXX  23004 82571 32997 00000 10274 20236 39955 40129 333 10330 29075 55096 58006;EQDQ01  00002PRCP06
0186825710999992005062312004-05500-045267FM-12+017499999V0200901N001512200019N0100001N1+02641+02331101531ADDAA106000091GF102991011011004501031001KA1240N+02311MA1999999099791MD1999999+0101REMSYN076AAXX  23124 82571 32497 20903 10264 20233 39979 40153 81130 333 20231 58010;EQDQ01  00002PRCP06
0167825710999992005062318004-05500-045267FM-12+017499999V0201401N002612200019N0100001N1+03181+02131101151ADDAA106000091GF104991031021004501031001MA1999999099421MD1999999+0081REMSYN070AAXX  23184 82571 32497 41405 10318 20213 39942 40115 83230 333 58008;EQDQ01  00002PRCP06
0208825710999992005062400004-05500-045267FM-12+017499999V0209999C000012200019N0100001N1+02631+02271101331ADDAA106000091GA1001+999999999GF100991001001999999001001KA1240M+03271MA1999999099591MD1999999+0041REMSYN082AAXX  24004 82571 32997 00900 10263 20227 39959 40133 333 10327 29074 55097 58004;EQDQ01  00002PRCP06
0186825710999992005062412004-05500-045267FM-12+017499999V0201401N003112200019N0100001N1+02661+02141101511ADDAA106000091GF103991011021004501031011KA1240N+02231MA1999999099761MD1999999-0031REMSYN076AAXX  24124 82571 32497 31406 10266 20214 39976 40151 81231 333 20223 59003;EQDQ01  00002PRCP06
0167825710999992005062418004-05500-045267FM-12+017499999V0200501N002111050019N0100001N1+03121+02081101151ADDAA106000091GF105991021021004501041011MA1999999099421MD1999999+0001REMSYN070AAXX  24184 82571 32497 50504 10312 20208 39942 40115 82241 333 58000;EQDQ01  00002PRCP06
0208825710999992005062500004-05500-045267FM-12+017499999V0209999C000012200019N0100001N1+02511+02211101341ADDAA106000091GA1001+999999999GF100991001001999999001001KA1240M+03171MA1999999099591MD1999999+0001REMSYN082AAXX  25004 82571 32997 00000 10251 20221 39959 40134 333 10317 29073 55098 58000;EQDQ01  00002PRCP06
0186825710999992005062512004-05500-045267FM-12+017499999V0203201N000510150019N0100001N1+02441+02051101441ADDAA106000091GF105991051001017501051001KA1240N+02121MA1999999099681MD1999999-0081REMSYN076AAXX  25124 82571 32797 53201 10244 20205 39968 40144 85050 333 20212 59008;EQDQ01  00002PRCP06
0179825710999992005062600004-05500-045270FM-12+015399999V0200901N000512200019N0100001N1+02671+02241101251ADDAA106000091GF100991001001999999001001MA1999999099501MD1999999-0091REMSYN082AAXX  26004 82571 32997 00901 10267 20224 39950 40125 333 10325 29071 55087 59009;EQDQ01  00002PRCP06
0177825710999992005062612004-05500-045270FM-12+015399999V0209999C000010042019N0100001N1+02281+02251101461ADDAY121061AY221061GF108991081051004501999999MA1999999099701MD1999999+0021MW1211REMSYN088AAXX  26124 82571 21497 80000 10228 20225 39970 40146 72122 885// 333 20215 58002 60014;
0148825710999992005062618004-05500-045270FM-12+015399999V0201401N002612200019N0100001N1+03081+02211101081ADDAA106000021GF102991021021004501001001MA1999999099351MD1999999+0031REMSYN070AAXX  26184 82571 32497 21405 10308 20221 39935 40108 82200 333 58003;
0208825710999992005062700004-05500-045267FM-12+017499999V0200501N002112200019N0100001N1+02551+02331101261ADDAA106000091GA1001+999999999GF100991001001999999001001KA1240M+03171MA1999999099501MD1999999+0001REMSYN082AAXX  27004 82571 32997 00504 10255 20233 39950 40126 333 10317 29083 55056 58000;EQDQ01  00002PRCP06
0186825710999992005062712004-05500-045267FM-12+017499999V0200501N002112200019N0100001N1+02661+02241101411ADDAA106000091GF102991021021004501001001KA1240N+02301MA1999999099661MD1999999-0041REMSYN076AAXX  27124 82571 32497 20504 10266 20224 39966 40141 82200 333 20230 59004;EQDQ01  00002PRCP06
0167825710999992005062718004-05500-045267FM-12+017499999V0200501N003112200019N0100001N1+03151+02231101121ADDAA106000091GF103991031021004501001001MA1999999099391MD1999999+0041REMSYN070AAXX  27184 82571 32497 30506 10315 20223 39939 40112 83200 333 58004;EQDQ01  00002PRCP06
0198825710999992005062800004-05500-045267FM-12+017499999V0209999C000012200019N0100001N1+02711+02341101281ADDAA106000091GF102991021001017501061001KA1240M+03221MA1999999099541MD1999999+0041REMSYN088AAXX  28004 82571 32797 20000 10271 20234 39954 40128 82060 333 10322 29074 55097 58004;EQDQ01  00002PRCP06
0186825710999992005062812004-05500-045267FM-12+017499999V0200901N003112200019N0100001N1+02671+02221101441ADDAA106000091GF101991011011004501001001KA1240N+02271MA1999999099701MD1999999+0041REMSYN076AAXX  28124 82571 32497 10906 10267 20222 39970 40144 81100 333 20227 58004;EQDQ01  00002PRCP06
0167825710999992005062818004-05500-045267FM-12+017499999V0200901N002612200019N0100001N1+03161+02121101141ADDAA106000091GF102991021021004501001001MA1999999099411MD1999999+0021REMSYN070AAXX  28184 82571 32497 20905 10316 20212 39941 40114 82200 333 58002;EQDQ01  00002PRCP06
0208825710999992005062900004-05500-045267FM-12+017499999V0209999C000012200019N0100001N1+02771+02271101331ADDAA106000091GA1001+999999999GF100991001001999999001001KA1240M+03231MA1999999099591MD1999999+0051REMSYN082AAXX  29004 82571 32997 03600 10277 20227 39959 40133 333 10323 29070 55103 58005;EQDQ01  00002PRCP06
0196825710999992005062912004-05500-045267FM-12+017499999V0201401N002612200019N0100001N1+02611+01981101381ADDAA106000091GA1001+999999999GF100991001001999999001001KA1240N+02151MA1999999099641MD1999999-0061REMSYN070AAXX  29124 82571 32997 01405 10261 20198 39964 40138 333 20215 59006;EQDQ01  00002PRCP06
0167825710999992005062918004-05500-045267FM-12+017499999V0201401N003612200019N0100001N1+03121+02051101111ADDAA106000091GF104991031021004501051001MA1999999099381MD1999999-0031REMSYN070AAXX  29184 82571 32497 41407 10312 20205 39938 40111 83250 333 59003;EQDQ01  00002PRCP06
0208825710999992005063000004-05500-045267FM-12+017499999V0201401N000512200019N0100001N1+02611+02181101311ADDAA106000091GA1001+999999999GF100991001001999999001001KA1240M+03241MA1999999099561MD1999999-0031REMSYN082AAXX  30004 82571 32997 01401 10261 20218 39956 40131 333 10324 29069 55099 59003;EQDQ01  00002PRCP06
0186825710999992005063012004-05500-045267FM-12+017499999V0201401N003112200019N0100001N1+02531+01931101471ADDAA106000091GF104991041001017501051001KA1240N+01981MA1999999099721MD1999999+0081REMSYN076AAXX  30124 82571 32797 41406 10253 20193 39972 40147 84050 333 20198 58008;EQDQ01  00002PRCP06
0167825710999992005063018004-05500-045267FM-12+017499999V0200901N002112200019N0100001N1+03111+01921101071ADDAA106000091GF103991021011004501001011MA1999999099341MD1999999-0041REMSYN070AAXX  30184 82571 32497 30904 10311 20192 39934 40107 82101 333 59004;EQDQ01  00002PRCP06
0198825710999992005070100004-05500-045267FM-12+017499999V0200501N000510450019N0100001N1+02671+02181101341ADDAA106000091GF106991021021004501051001KA1240M+03191MA1999999099591MD1999999+0031REMSYN088AAXX  01004 82571 32497 60501 10267 20218 39959 40134 82250 333 10319 29066 55087 58003;EQDQ01  00002PRCP06
0186825710999992005070112004-05500-045267FM-12+017499999V0201401N002111050019N0100001N1+02611+02051101421ADDAA106000091GF105991021021004501051011KA1240N+02181MA1999999099671MD1999999-0051REMSYN076AAXX  01124 82571 32497 51404 10261 20205 39967 40142 82251 333 20218 59005;EQDQ01  00002PRCP06
0167825710999992005070118004-05500-045267FM-12+017499999V0200901N002112200019N0100001N1+03111+02021101121ADDAA106000091GF104991031021004501001011MA1999999099391MD1999999+0051REMSYN070AAXX  01184 82571 32497 40904 10311 20202 39939 40112 83201 333 58005;EQDQ01  00002PRCP06
0192825710999992005070200004-05500-045267FM-12+015399999V0201401N000512200019N0100001N1+02701+02201101341ADDAA106000091GF100991001001999999001001KA1240M+03291MA1999999099601MD1999999+0011REMSYN082AAXX  02004 82571 32997 01401 10270 20220 39960 40134 333 10329 29068 55091 58001;EQDQ01  00002PRCP06
0180825710999992005070212004-05500-045267FM-12+015399999V0201401N002612200019N0100001N1+02681+02161101481ADDAA106000091GF100991001001999999001001KA1240N+02221MA1999999099741MD1999999+0071REMSYN070AAXX  02124 82571 32997 01405 10268 20216 39974 40148 333 20222 58007;EQDQ01  00002PRCP06
0167825710999992005070218004-05500-045270FM-12+015399999V0201401N003112200019N0100001N1+03171+02941101211ADDAA106000091GF103991031021004501001001MA1999999099481MD1999999+0091REMSYN070AAXX  02184 82571 32497 31406 10317 20294 39948 40121 83200 333 58009;EQDQ01  00002PRCP06
0179825710999992005070300004-05500-045270FM-12+015399999V0200901N001012200019N0100001N1+02671+02111101451ADDAA106000091GF100991001001999999001001MA1999999099711MD1999999+0111REMSYN082AAXX  03004 82571 32997 00902 10267 20211 39971 40145 333 10330 29066 55105 58011;EQDQ01  00002PRCP06
0173825710999992005070312004-05500-045270FM-12+015399999V0201401N003112200019N0100001N1+02641+01831101601ADDAA106000091GF103991001001999999001011MA1999999099851MD1999999+0111REMSYN076AAXX  03124 82571 32997 31406 10264 20183 39985 40160 80001 333 20200 58011;EQDQ01  00002PRCP06
0167825710999992005070318004-05500-045270FM-12+015399999V0201801N003112200019N0100001N1+03231+01891101181ADDAA106000091GF101991011011004501001001MA1999999099451MD1999999-0031REMSYN070AAXX  03184 82571 32497 11806 10323 20189 39945 40118 81100 333 59003;EQDQ01  00002PRCP06
0186825710999992005070412004-05500-045267FM-12+015399999V0201401N003112200019N0100001N1+02631+02001101391ADDAA106000091GF102991021001017501041001KA1240N+02041MA1999999099651MD1999999-0201REMSYN076AAXX  04124 82571 32797 21406 10263 20200 39965 40139 82040 333 20204 59020;EQDQ01  00002PRCP06
0167825710999992005070418004-05500-045267FM-12+015399999V0200901N002112200019N0100001N1+03191+01961101141ADDAA106000091GF104991031021004501001011MA1999999099411MD1999999-0041REMSYN070AAXX  04184 82571 32497 40904 10319 20196 39941 40114 83201 333 59004;EQDQ01  00002PRCP06
0192825710999992005070500004-05500-045267FM-12+015399999V0201401N001012200019N0100001N1+02641+02161101411ADDAA106000091GF100991001001999999001001KA1240M+03281MA1999999099661MD1999999+0081REMSYN082AAXX  05004 82571 32997 01402 10264 20216 39966 40141 333 10328 29066 55101 58008;EQDQ01  00002PRCP06
0214825710999992005070512004-05500-045267FM-12+015399999V0200501N001510042019N0100001N1+02381+02241101651ADDAA106000091AY141061AY211061GF105991051021004501001001KA1240N+01931MA1999999099891MD1999999-0241MW1011REMSYN082AAXX  05124 82571 31497 50503 10238 20224 39989 40165 70141 85200 333 20193 59024;EQDQ01  00002PRCP06
0167825710999992005070518004-05500-045267FM-12+015399999V0200901N002112200019N0100001N1+03231+01821101251ADDAA106000091GF102991021021004501001001MA1999999099521MD1999999-0131REMSYN070AAXX  05184 82571 32497 20904 10323 20182 39952 40125 82200 333 59013;EQDQ01  00002PRCP06
0192825710999992005070600004-05500-045267FM-12+015399999V0200501N000512200019N0100001N1+02621+02071101501ADDAA106000091GF100991001001999999001001KA1240M+03341MA1999999099741MD1999999+0081REMSYN082AAXX  06004 82571 32997 00501 10262 20207 39974 40150 333 10334 29070 55085 58008;EQDQ01  00002PRCP06
0186825710999992005070612004-05500-045267FM-12+015399999V0201401N001510042019N0100001N1+02161+02111101711ADDAA106000091GF108991081051004501999999KA1240N+01841MA1999999099941MD1999999+0051REMSYN076AAXX  06124 82571 32497 81403 10216 20211 39994 40171 885// 333 20184 58005;EQDQ01  00002PRCP06
0167825710999992005070618004-05500-045267FM-12+015399999V0200901N001512200019N0100001N1+03191+02211101271ADDAA106000091GF102991021021004501001001MA1999999099531MD1999999+0011REMSYN070AAXX  06184 82571 32497 20903 10319 20221 39953 40127 82200 333 58001;EQDQ01  00002PRCP06
0192825710999992005070700004-05500-045267FM-12+015399999V0209999C000012200019N0100001N1+02711+02371101411ADDAA106000091GF100991001001999999001001KA1240M+03281MA1999999099651MD1999999-0091REMSYN082AAXX  07004 82571 32997 00000 10271 20237 39965 40141 333 10328 29079 55071 59009;EQDQ01  00002PRCP06
0186825710999992005070712004-05500-045267FM-12+015399999V0200901N003612200019N0100001N1+02621+02031101661ADDAA106000091GF102991021001017501051001KA1240N+02101MA1999999099911MD1999999-0031REMSYN076AAXX  07124 82571 32797 20907 10262 20203 39991 40166 82050 333 20210 59003;EQDQ01  00002PRCP06
0167825710999992005070718004-05500-045267FM-12+015399999V0200901N002612200019N0100001N1+03231+01961101311ADDAA106000091GF103991031021004501001001MA1999999099551MD1999999+0021REMSYN070AAXX  07184 82571 32497 30905 10323 20196 39955 40131 83200 333 58002;EQDQ01  00002PRCP06
0192825710999992005070800004-05500-045267FM-12+015399999V0209999C000012200019N0100001N1+02711+02151101471ADDAA106000091GF100991001001999999001001KA1240M+03311MA1999999099721MD1999999+0071REMSYN082AAXX  08004 82571 32997 00000 10271 20215 39972 40147 333 10331 29068 55088 58007;EQDQ01  00002PRCP06
0186825710999992005070812004-05500-045267FM-12+015399999V0200501N001510450019N0100001N1+02451+02231101691ADDAA106000091GF106991041021004501031011KA1240N+02091MA1999999099941MD1999999+0031REMSYN076AAXX  08124 82571 32497 60503 10245 20223 39994 40169 84231 333 20209 58003;EQDQ01  00002PRCP06
0167825710999992005070818004-05500-045267FM-12+015399999V0200901N002612200019N0100001N1+03151+02121101331ADDAA106000091GF104991021021004501001011MA1999999099601MD1999999+0051REMSYN070AAXX  08184 82571 32497 40905 10315 20212 39960 40133 82201 333 58005;EQDQ01  00002PRCP06
0192825710999992005070900004-05500-045267FM-12+015399999V0209999C000012200019N0100001N1+02631+02181101461ADDAA106000091GF100991001001999999001001KA1240M+03241MA1999999099711MD1999999-0011REMSYN082AAXX  09004 82571 32997 00000 10263 20218 39971 40146 333 10324 29073 55081 59001;EQDQ01  00002PRCP06
0186825710999992005070912004-05500-045267FM-12+015399999V0200901N005711050019N0100001N1+02641+01831101671ADDAA106000091GF105991021051004501031011KA1240N+02121MA1999999099921MD1999999-0021REMSYN076AAXX  09124 82571 32497 50911 10264 20183 39992 40167 82531 333 20212 59002;EQDQ01  00002PRCP06
0167825710999992005070918004-05500-045267FM-12+015399999V0201401N004610450019N0100001N1+03091+01841101351ADDAA106000091GF106991021021004501031001MA1999999099611MD1999999+0011REMSYN070AAXX  09184 82571 32497 61409 10309 20184 39961 40135 82230 333 58001;EQDQ01  00002PRCP06
0179825710999992005071000004-05500-045270FM-12+015399999V0209999C000012200019N0100001N1+02591+02251101421ADDAA106000091GF100991001001999999001001MA1999999099671MD1999999-0041REMSYN082AAXX  10004 82571 32997 00000 10259 20225 39967 40142 333 10317 29079 55081 59004;EQDQ01  00002PRCP06
0167825710999992005071012004-05500-045270FM-12+015399999V0201401N003612200019N0100001N1+02541+01711101621ADDAA106000091GF100991001001999999001001MA1999999099861MD1999999-0061REMSYN070AAXX  10124 82571 32997 01407 10254 20171 39986 40162 333 20194 59006;EQDQ01  00002PRCP06
0167825710999992005071018004-05500-045270FM-12+015399999V0201401N003112200019N0100001N1+03111+01791101301ADDAA106000091GF102991021021004501001001MA1999999099561MD1999999-0051REMSYN070AAXX  10184 82571 32497 21406 10311 20179 39956 40130 82200 333 59005;EQDQ01  00002PRCP06
0192825710999992005071100004-05500-045267FM-12+015399999V0201401N001012200019N0100001N1+02551+01971101481ADDAA106000091GF100991001001999999001001KA1240M+03171MA1999999099731MD1999999+0061REMSYN082AAXX  11004 82571 32997 01402 10255 20197 39973 40148 333 10317 29061 55103 58006;EQDQ01  00002PRCP06
0180825710999992005071112004-05500-045267FM-12+015399999V0201401N002612200019N0100001N1+02471+01831101561ADDAA106000091GF100991001001999999001001KA1240N+01921MA1999999099801MD1999999-0061REMSYN070AAXX  11124 82571 32997 01405 10247 20183 39980 40156 333 20192 59006;EQDQ01  00002PRCP06
0167825710999992005071118004-05500-045267FM-12+015399999V0200901N002112200019N0100001N1+03111+01711101271ADDAA106000091GF103991031021004501001001MA1999999099531MD1999999-0031REMSYN070AAXX  11184 82571 32497 30904 10311 20171 39953 40127 83200 333 59003;EQDQ01  00002PRCP06
0192825710999992005071200004-05500-045267FM-12+015399999V0209999C000012200019N0100001N1+02671+02221101501ADDAA106000091GF100991001001999999001001KA1240M+03251MA1999999099751MD1999999+0021REMSYN082AAXX  12004 82571 32997 00000 10267 20222 39975 40150 333 10325 29066 55085 58002;EQDQ01  00002PRCP06
0180825710999992005071212004-05500-045267FM-12+015399999V0201401N003112200019N0100001N1+02631+01931101541ADDAA106000091GF100991001001999999001001KA1240N+01971MA1999999099791MD1999999-0011REMSYN070AAXX  12124 82571 32997 01406 10263 20193 39979 40154 333 20197 59001;EQDQ01  00002PRCP06
0167825710999992005071218004-05500-045267FM-12+015399999V0200901N003112200019N0100001N1+03281+01931101211ADDAA106000091GF103991031021004501001001MA1999999099481MD1999999-0051REMSYN070AAXX  12184 82571 32497 30906 10328 20193 39948 40121 83200 333 59005;EQDQ01  00002PRCP06
0192825710999992005071300004-05500-045267FM-12+015399999V0200501N000512200019N0100001N1+02681+02111101361ADDAA106000091GF100991001001999999001001KA1240M+03401MA1999999099621MD1999999-0131REMSYN082AAXX  13004 82571 32997 00501 10268 20211 39962 40136 333 10340 29063 55104 59013;EQDQ01  00002PRCP06
0186825710999992005071312004-05500-045267FM-12+015399999V0201401N005112200019N0100001N1+02651+01741101541ADDAA106000091GF102991021001017501041001KA1240N+02001MA1999999099791MD1999999+0001REMSYN076AAXX  13124 82571 32797 21410 10265 20174 39979 40154 82040 333 20200 58000;EQDQ01  00002PRCP06
0167825710999992005071318004-05500-045267FM-12+015399999V0201401N003612200019N0100001N1+03161+01791101131ADDAA106000091GF102991021011004501001001MA1999999099401MD1999999-0041REMSYN070AAXX  13184 82571 32497 21407 10316 20179 39940 40113 82100 333 59004;EQDQ01  00002PRCP06
0192825710999992005071400004-05500-045267FM-12+015399999V0200901N002112200019N0100001N1+02591+01961101291ADDAA106000091GF100991001001999999001001KA1240M+03251MA1999999099541MD1999999-0081REMSYN082AAXX  14004 82571 32997 00904 10259 20196 39954 40129 333 10325 29059 55103 59008;EQDQ01  00002PRCP06
0180825710999992005071412004-05500-045267FM-12+015399999V0201401N003612200019N0100001N1+02511+01711101421ADDAA106000091GF100991001001999999001001KA1240N+01851MA1999999099671MD1999999-0121REMSYN070AAXX  14124 82571 32997 01407 10251 20171 39967 40142 333 20185 59012;EQDQ01  00002PRCP06
0167825710999992005071418004-05500-045267FM-12+015399999V0200901N002612200019N0100001N1+03191+01751101141ADDAA106000091GF102991021021004501001001MA1999999099401MD1999999+0001REMSYN070AAXX  14184 82571 32497 20905 10319 20175 39940 40114 82200 333 58000;EQDQ01  00002PRCP06
0192825710999992005071500004-05500-045267FM-12+015399999V0200501N000512200019N0100001N1+02591+02061101301ADDAA106000091GF100991001001999999001001KA1240M+03301MA1999999099551MD1999999+0011REMSYN082AAXX  15004 82571 32997 00501 10259 20206 39955 40130 333 10330 29062 55102 58001;EQDQ01  00002PRCP06
0180825710999992005071512004-05500-045267FM-12+015399999V0201401N003112200019N0100001N1+02431+01811101461ADDAA106000091GF100991001001999999001001KA1240N+01821MA1999999099701MD1999999+0031REMSYN070AAXX  15124 82571 32997 01406 10243 20181 39970 40146 333 20182 58003;EQDQ01  00002PRCP06
0167825710999992005071518004-05500-045267FM-12+015399999V0201401N003612200019N0100001N1+03151+01821101131ADDAA106000091GF102991021021004501001001MA1999999099391MD1999999-0011REMSYN070AAXX  15184 82571 32497 21407 10315 20182 39939 40113 82200 333 59001;EQDQ01  00002PRCP06
0180825710999992005071612004-05500-045267FM-12+015399999V0201401N003612200019N0100001N1+02541+01861101541ADDAA106000091GF100991001001999999001001KA1240N+01931MA1999999099791MD1999999+0091REMSYN070AAXX  16124 82571 32997 01407 10254 20186 39979 40154 333 20193 58009;EQDQ01  00002PRCP06
0167825710999992005071618004-05500-045267FM-12+015399999V0200901N002112200019N0100001N1+03121+01861101151ADDAA106000091GF103991021021004501001011MA1999999099421MD1999999+0031REMSYN070AAXX  16184 82571 32497 30904 10312 20186 39942 40115 82201 333 58003;EQDQ01  00002PRCP06
0179825710999992005071700004-05500-045270FM-12+015399999V0209999C000012200019N0100001N1+02621+02101101341ADDAA106000091GF100991001001999999001001MA1999999099591MD1999999+0001REMSYN082AAXX  17004 82571 32997 00000 10262 20210 39959 40134 333 10327 29064 55103 58000;EQDQ01  00002PRCP06
0167825710999992005071712004-05500-045270FM-12+015399999V0201401N002112200019N0100001N1+02531+01811101501ADDAA106000091GF100991001001999999001001MA1999999099751MD1999999-0041REMSYN070AAXX  17124 82571 32997 01404 10253 20181 39975 40150 333 20192 59004;EQDQ01  00002PRCP06
0167825710999992005071718004-05500-045270FM-12+015399999V0201401N003112200019N0100001N1+03231+01961101151ADDAA106000091GF101991011011004501001001MA1999999099421MD1999999+0001REMSYN070AAXX  17184 82571 32497 11406 10323 20196 39942 40115 81100 333 58000;EQDQ01  00002PRCP06
0192825710999992005071800004-05500-045267FM-12+015399999V0209999C000012200019N0100001N1+02671+02201101311ADDAA106000091GF100991001001999999001001KA1240M+03301MA1999999099561MD1999999-0031REMSYN082AAXX  18004 82571 32997 00000 10267 20220 39956 40131 333 10330 29065 55105 59003;EQDQ01  00002PRCP06
0180825710999992005071812004-05500-045267FM-12+015399999V0200901N001512200019N0100001N1+02491+02111101491ADDAA106000091GF100991001001999999001001KA1240N+01821MA1999999099741MD1999999-0011REMSYN070AAXX  18124 82571 32497 00903 10249 20211 39974 40149 333 20182 59001;EQDQ01  00002PRCP06
0167825710999992005071818004-05500-045267FM-12+015399999V0200901N003112200019N0100001N1+03371+01831101101ADDAA106000091GF101991011011004501001001MA1999999099731MD1999999-0051REMSYN070AAXX  18184 82571 32497 10906 10337 20183 39973 40110 81100 333 59005;EQDQ01  00002PRCP06
0192825710999992005071900004-05500-045267FM-12+015399999V0200901N001012200019N0100001N1+02651+01821101251ADDAA106000091GF100991001001999999001001KA1240M+03461MA1999999099501MD1999999-0061REMSYN082AAXX  19004 82571 32997 00902 10265 20182 39950 40125 333 10346 29060 55104 59006;EQDQ01  00002PRCP06
0186825710999992005071912004-05500-045267FM-12+015399999V0202301N001512200019N0100001N1+02221+01821101481ADDAA106000091GF103991031021004501001001KA1240N+01721MA1999999099721MD1999999-0021REMSYN076AAXX  19124 82571 32497 32303 10222 20182 39972 40148 83200 333 20172 59002;EQDQ01  00002PRCP06
0137825710999992005071918004-05500-045267FM-12+015399999V0201401N001512200019N0100001N1+03291+02051101141ADDGF103991031021004501001001MA1999999099411MD1999999+0041REMSYN070AAXX  19184 82571 32497 31403 10329 20205 39941 40114 83200 333 58004;
0162825710999992005072000004-05500-045267FM-12+015399999V0209999C000012200019N0100001N1+02691+02261101271ADDGF100991001001999999001001KA1240M+03381MA1999999099511MD1999999+0011REMSYN082AAXX  20004 82571 32997 00000 10269 20226 39951 40127 333 10338 29070 55099 58001;
0156825710999992005072012004-05500-045267FM-12+015399999V0203601N001512200019N0100001N1+02431+02231101441ADDGF102991021021004501001001KA1240N+02121MA1999999099691MD1999999-0031REMSYN076AAXX  20124 82571 32497 23603 10243 20223 39969 40144 82200 333 20212 59003;
0156825710999992005072018004-05500-045267FM-12+015399999V0200901N002612200019N0100001N1+03271+02031101111ADDGF103991999021004501001001MA1999999099381MD1999999-0031REMSYN070AAXX  20184 82571 32497 30905 10327 20203 39938 40111 82200 333 59003;EQDQ01+000022SCOTLC
0168825710999992005072100004-05500-045267FM-12+015399999V0200501N001012200019N0100001N1+02771+02211101211ADDGF101991011001017501031001KA1240M+03321MA1999999099461MD1999999-0051REMSYN088AAXX  21004 82571 32797 10502 10277 20221 39946 40121 81030 333 10332 29070 55079 59005;
0220825710999992005072112004-05500-045267FM-12+015399999V0200501N002110042019N0100001N1+02631+02271101461ADDAA124000091AY151061AY211061GF106991051051004501031001KA1240N+02301MA1999999099721MD1999999+0031MW1011REMSYN088AAXX  21124 82571 21497 60504 10263 20227 39972 40146 70151 85530 333 20230 58003 69914;EQDQ01  00002PRCP24
0137825710999992005072118004-05500-045267FM-12+015399999V0201401N004612200019N0100001N1+03291+01981101111ADDGF103991031021004501001001MA1999999099391MD1999999+0011REMSYN070AAXX  21184 82571 32497 31409 10329 20198 39939 40111 83200 333 58001;
0162825710999992005072200004-05500-045267FM-12+015399999V0200501N001012200019N0100001N1+02751+02191101271ADDGF100991001001999999001001KA1240M+03401MA1999999099531MD1999999+0071REMSYN082AAXX  22004 82571 32997 00502 10275 20219 39953 40127 333 10340 29068 55092 58007;
0150825710999992005072212004-05500-045267FM-12+015399999V0200901N003112200019N0100001N1+02551+01641101641ADDGF100991001001999999001001KA1240N+01951MA1999999099891MD1999999+0171REMSYN070AAXX  22124 82571 32997 00906 10255 20164 39989 40164 333 20195 58017;
0137825710999992005072218004-05500-045267FM-12+015399999V0201401N003612200019N0100001N1+03231+01671101271ADDGF102991021011004501001001MA1999999099541MD1999999+0151REMSYN070AAXX  22184 82571 32497 21407 10323 20167 39954 40127 82100 333 58015;
0150825710999992005072312004-05500-045267FM-12+015399999V0201401N002112200019N0100001N1+02361+01761101561ADDGF100991001001999999001001KA1240N+01631MA1999999099801MD1999999-0091REMSYN070AAXX  23124 82571 32997 01404 10236 20176 39980 40156 333 20163 59009;
0137825710999992005072318004-05500-045267FM-12+015399999V0201401N003112200019N0100001N1+03191+01781101351ADDGF102991021021004501001001MA1999999099601MD1999999+0061REMSYN070AAXX  23184 82571 32497 21406 10319 20178 39960 40135 82200 333 58006;
0149825710999992005072400004-05500-045270FM-12+015399999V0209999C000012200019N0100001N1+02661+02161101381ADDGF100991001001999999001001MA1999999099631MD1999999-0031REMSYN082AAXX  24004 82571 32997 00000 10266 20216 39963 40138 333 10330 29064 55105 59003;
0137825710999992005072412004-05500-045270FM-12+015399999V0201401N004112200019N0100001N1+02671+01781101651ADDGF100991001001999999001001MA1999999099901MD1999999-0101REMSYN070AAXX  24124 82571 32997 01408 10267 20178 39990 40165 333 20186 59010;
0137825710999992005072418004-05500-045270FM-12+015399999V0201401N002612200019N0100001N1+03271+02101101261ADDGF102991021021004501001001MA1999999099531MD1999999-0071REMSYN070AAXX  24184 82571 32497 21405 10327 20210 39953 40126 82200 333 59007;
0149825710999992005072500004-05500-045270FM-12+015399999V0209999C000012200019N0100001N1+02651+01971101481ADDGF100991001001999999001001MA1999999099731MD1999999+0101REMSYN082AAXX  25004 82571 32997 00000 10265 20197 39973 40148 333 10340 29060 55105 58010;
0150825710999992005072512004-05500-045267FM-12+015399999V0200901N002612200019N0100001N1+02521+01791101681ADDGF100991001001999999001001KA1240N+01701MA1999999099931MD1999999+0031REMSYN070AAXX  25124 82571 32997 00905 10252 20179 39993 40168 333 20170 58003;
0137825710999992005072518004-05500-045267FM-12+015399999V0201801N002112200019N0100001N1+03191+01551101411ADDGF102991021021004501001001MA1999999099671MD1999999+0141REMSYN070AAXX  25184 82571 32497 21804 10319 20155 39967 40141 82200 333 58014;
0162825710999992005072600004-05500-045267FM-12+015399999V0209999C000012200019N0100001N1+02671+02241101581ADDGF100991001001999999001001KA1240M+03381MA1999999099831MD1999999+0101REMSYN082AAXX  26004 82571 32997 00000 10267 20224 39983 40158 333 10338 29059 55100 58010;
0150825710999992005072612004-05500-045267FM-12+015399999V0200901N003112200019N0100001N1+02571+01801101711ADDGF100991001001999999001001KA1240N+01981MA1999999099961MD1999999+0031REMSYN070AAXX  26124 82571 32997 00906 10257 20180 39996 40171 333 20198 58003;
0131825710999992005072618004-05500-045267FM-12+015399999V0201801N002612200019N0100001N1+03331+01671101321ADDGF100991001001999999001001MA1999999099591MD1999999-0081REMSYN064AAXX  26184 82571 32997 01805 10333 20167 39959 40132 333 59008;
0162825710999992005072700004-05500-045267FM-12+015399999V0209999C000012200019N0100001N1+02721+02001101431ADDGF100991001001999999001001KA1240M+03421MA1999999099681MD1999999-0131REMSYN082AAXX  27004 82571 32997 00000 10272 20200 39968 40143 333 10342 29057 55106 59013;
0150825710999992005072712004-05500-045267FM-12+015399999V0200901N002112200019N0100001N1+02631+02201101681ADDGF100991001001999999001001KA1240N+01941MA1999999099941MD1999999-0021REMSYN070AAXX  27124 82571 32997 00904 10263 20220 39994 40168 333 20194 59002;
0137825710999992005072718004-05500-045267FM-12+015399999V0201401N004112200019N0100001N1+03351+01731101221ADDGF101991011011004501001001MA1999999099491MD1999999-0101REMSYN070AAXX  27184 82571 32497 11408 10335 20173 39949 40122 81100 333 59010;
0162825710999992005072800004-05500-045267FM-12+015399999V0200501N000512200019N0100001N1+02751+01941101381ADDGF100991001001999999001001KA1240M+03431MA1999999099641MD1999999-0041REMSYN082AAXX  28004 82571 32997 00501 10275 20194 39964 40138 333 10343 29059 55106 59004;
0150825710999992005072812004-05500-045267FM-12+015399999V0201401N003612200019N0100001N1+02651+01741101681ADDGF100991001001999999001001KA1240N+01951MA1999999099941MD1999999+0001REMSYN070AAXX  28124 82571 32997 01407 10265 20174 39994 40168 333 20195 58000;
0131825710999992005072818004-05500-045267FM-12+015399999V0200901N002612200019N0100001N1+03311+01651101291ADDGF100991001001999999001001MA1999999099561MD1999999+0071REMSYN064AAXX  28184 82571 32997 00905 10331 20165 39956 40129 333 58007;
0162825710999992005072900004-05500-045267FM-12+015399999V0200901N001512200019N0100001N1+02661+01771101441ADDGF100991001001999999001001KA1240M+03421MA1999999099691MD1999999+0051REMSYN082AAXX  29004 82571 32997 00903 10266 20177 39969 40144 333 10342 29052 55107 58005;
0150825710999992005072912004-05500-045267FM-12+015399999V0201401N003112200019N0100001N1+02541+01601101631ADDGF100991001001999999001001KA1240N+01831MA1999999099881MD1999999+0061REMSYN070AAXX  29124 82571 32997 01406 10254 20160 39988 40163 333 20183 58006;
0137825710999992005072918004-05500-045267FM-12+015399999V0200501N003112200019N0100001N1+03341+01581101251ADDGF102991021021004501001001MA1999999099521MD1999999-0041REMSYN070AAXX  29184 82571 32497 20506 10334 20158 39952 40125 82200 333 59004;
0162825710999992005073000004-05500-045267FM-12+015399999V0200901N002112200019N0100001N1+02681+01721101421ADDGF100991001001999999001001KA1240M+03471MA1999999099671MD1999999-0021REMSYN082AAXX  30004 82571 32997 00904 10268 20172 39967 40142 333 10347 29050 55107 59002;
0137825710999992005073012004-05500-045270FM-12+015399999V0200901N002612200019N0100001N1+02481+01491101561ADDGF100991001001999999001001MA1999999099811MD1999999-0071REMSYN070AAXX  30124 82571 32997 00905 10248 20149 39981 40156 333 20170 59007;
0137825710999992005073018004-05500-045270FM-12+015399999V0201801N004112200019N0100001N1+03291+01461101161ADDGF101991011011004501001001MA1999999099431MD1999999-0091REMSYN070AAXX  30184 82571 32497 11808 10329 20146 39943 40116 81100 333 59009;
0149825710999992005073100004-05500-045270FM-12+015399999V0200901N001512200019N0100001N1+02591+02171101331ADDGF100991001001999999001001MA1999999099581MD1999999-0091REMSYN082AAXX  31004 82571 32997 00903 10259 20217 39958 40133 333 10338 29051 55106 59009;
0137825710999992005073112004-05500-045270FM-12+015399999V0201401N003612200019N0100001N1+02531+01651101481ADDGF100991001001999999001001MA1999999099731MD1999999-0081REMSYN070AAXX  31124 82571 32997 01407 10253 20165 39973 40148 333 20183 59008;
0137825710999992005073118004-05500-045267FM-12+015399999V0201401N003112200019N0100001N1+03241+01711101131ADDGF102991021021004501001001MA1999999099391MD1999999-0041REMSYN070AAXX  31184 82571 32497 21406 10324 20171 39939 40113 82200 333 59004;
0166825710999992005080112004-05500-045267FM-12+015399999V0201401N002612200019N0100001N1+02491+01591101521ADDGA1001+999999999GF100991001001999999001001KA1240N+01861MA1999999099771MD1999999+0041REMSYN070AAXX  01124 82571 32997 01405 10249 20159 39977 40152 333 20186 58004;
0137825710999992005080118004-05500-045267FM-12+015399999V0200901N003612200019N0100001N1+03321+01521101131ADDGF102991021011004501001001MA1999999099401MD1999999+0011REMSYN070AAXX  01184 82571 32497 20907 10332 20152 39940 40113 82100 333 58001;
0166825710999992005080212004-05500-045267FM-12+015399999V0200901N002612200019N0100001N1+02431+01531101481ADDGA1001+999999999GF100991001001999999001001KA1240N+01701MA1999999099721MD1999999-0051REMSYN070AAXX  02124 82571 32997 00905 10243 20153 39972 40148 333 20170 59005;
0137825710999992005080218004-05500-045267FM-12+015399999V0201401N001012200019N0100001N1+03251+01511101141ADDGF103991031021004501001001MA1999999099401MD1999999+0001REMSYN070AAXX  02184 82571 32497 31402 10325 20151 39940 40114 83200 333 58000;
0178825710999992005080300004-05500-045267FM-12+015399999V0201401N001512200019N0100001N1+02591+01781101311ADDGA1001+999999999GF100991001001999999001001KA1240M+03361MA1999999099561MD1999999-0031REMSYN082AAXX  03004 82571 32997 01403 10259 20178 39956 40131 333 10336 29054 55102 59003;
0156825710999992005080312004-05500-045267FM-12+015399999V0200901N003612200019N0100001N1+02511+01791101531ADDGF103991031011004501001001KA1240N+01881MA1999999099781MD1999999+0061REMSYN076AAXX  03124 82571 32497 30907 10251 20179 39978 40153 83100 333 20188 58006;
0137825710999992005080318004-05500-045267FM-12+015399999V0201401N003612200019N0100001N1+03241+01711101041ADDGF103991031021004501001001MA1999999099311MD1999999-0091REMSYN070AAXX  03184 82571 32497 31407 10324 20171 39931 40104 83200 333 59009;
0168825710999992005080400004-05500-045267FM-12+015399999V0209999C000012200019N0100001N1+02681+02041101301ADDGF101991011001017501031001KA1240M+03351MA1999999099551MD1999999-0011REMSYN088AAXX  04004 82571 32797 10000 10268 20204 39955 40130 81030 333 10335 29060 55090 59001;
0166825710999992005080412004-05500-045267FM-12+015399999V0200901N002612200019N0100001N1+02621+01781101581ADDGA1001+999999999GF100991001001999999001001KA1240N+01771MA1999999099831MD1999999+0051REMSYN070AAXX  04124 82571 32997 00905 10262 20178 39983 40158 333 20177 58005;
0137825710999992005080418004-05500-045267FM-12+015399999V0201801N003612200019N0100001N1+03311+01781101091ADDGF103991031021004501001001MA1999999099361MD1999999+0051REMSYN070AAXX  04184 82571 32497 31807 10331 20178 39936 40109 83200 333 58005;
0178825710999992005080500004-05500-045267FM-12+015399999V0200901N001012200019N0100001N1+02771+02011101311ADDGA1001+999999999GF100991001001999999001001KA1240M+03421MA1999999099571MD1999999+0021REMSYN082AAXX  05004 82571 32997 00902 10277 20201 39957 40131 333 10342 29056 55105 58002;
0156825710999992005080512004-05500-045267FM-12+015399999V0201401N004112200019N0100001N1+02691+01751101541ADDGF102991021001017501031001KA1240N+01981MA1999999099801MD1999999-0031REMSYN076AAXX  05124 82571 32797 21408 10269 20175 39980 40154 82030 333 20198 59003;
0137825710999992005080518004-05500-045267FM-12+015399999V0201401N002612200019N0100001N1+03341+01751101091ADDGF102991021021004501001001MA1999999099361MD1999999+0001REMSYN070AAXX  05184 82571 32497 21405 10334 20175 39936 40109 82200 333 58000;
0178825710999992005080600004-05500-045267FM-12+015399999V0201401N001512200019N0100001N1+02741+01811101321ADDGA1001+999999999GF100991001001999999001001KA1240M+03451MA1999999099581MD1999999+0011REMSYN082AAXX  06004 82571 32997 01403 10274 20181 39958 40132 333 10345 29052 55104 58001;
0166825710999992005080612004-05500-045267FM-12+015399999V0201401N002612200019N0100001N1+02571+01721101551ADDGA1001+999999999GF100991001001999999001001KA1240N+01831MA1999999099801MD1999999+0001REMSYN070AAXX  06124 82571 32997 01405 10257 20172 39980 40155 333 20183 58000;
0137825710999992005080618004-05500-045267FM-12+015399999V0200901N003112200019N0100001N1+03341+01711101151ADDGF103991031021004501001001MA1999999099421MD1999999+0041REMSYN070AAXX  06184 82571 32497 30906 10334 20171 39942 40115 83200 333 58004;
0149825710999992005080700004-05500-045270FM-12+015399999V0200901N001512200019N0100001N1+02691+01831101311ADDGF100991001001999999001001MA1999999099571MD1999999-0011REMSYN082AAXX  07004 82571 32997 00903 10269 20183 39957 40131 333 10346 29054 55107 59001;
0137825710999992005080712004-05500-045270FM-12+015399999V0200901N003612200019N0100001N1+02581+01661101541ADDGF100991001001999999001001MA1999999099791MD1999999-0011REMSYN070AAXX  07124 82571 32997 00907 10258 20166 39979 40154 333 20186 59001;
0137825710999992005080718004-05500-045270FM-12+015399999V0201801N003112200019N0100001N1+03421+01651101091ADDGF102991021011004501001001MA1999999099361MD1999999-0061REMSYN070AAXX  07184 82571 32497 21806 10342 20165 39936 40109 82100 333 59006;
0178825710999992005080800004-05500-045267FM-12+015399999V0201401N002112200019N0100001N1+02691+01781101311ADDGA1001+999999999GF100991001001999999001001KA1240M+03521MA1999999099571MD1999999+0001REMSYN082AAXX  08004 82571 32997 01404 10269 20178 39957 40131 333 10352 29052 55107 58000;
0166825710999992005080812004-05500-045267FM-12+015399999V0201401N003112200019N0100001N1+02591+01921101481ADDGA1001+999999999GF100991001001999999001001KA1240N+01941MA1999999099731MD1999999-0061REMSYN070AAXX  08124 82571 32997 01406 10259 20192 39973 40148 333 20194 59006;
0137825710999992005080818004-05500-045267FM-12+015399999V0201801N003612200019N0100001N1+03371+01751101101ADDGF102991021011004501001001MA1999999099371MD1999999+0011REMSYN070AAXX  08184 82571 32497 21807 10337 20175 39937 40110 82100 333 58001;
0178825710999992005080900004-05500-045267FM-12+015399999V0200901N002112200019N0100001N1+02751+01771101301ADDGA1001+999999999GF100991001001999999001001KA1240M+03551MA1999999099561MD1999999-0011REMSYN082AAXX  09004 82571 32997 00904 10275 20177 39956 40130 333 10355 29054 55107 59001;
0166825710999992005080912004-05500-045267FM-12+015399999V0200901N002612200019N0100001N1+02651+01851101551ADDGA1001+999999999GF100991001001999999001001KA1240N+01851MA1999999099811MD1999999+0081REMSYN070AAXX  09124 82571 32997 00905 10265 20185 39981 40155 333 20185 58008;
0137825710999992005080918004-05500-045267FM-12+015399999V0201401N002612200019N0100001N1+03421+01611101051ADDGF101991011011004501001001MA1999999099331MD1999999-0041REMSYN070AAXX  09184 82571 32497 11405 10342 20161 39933 40105 81100 333 59004;
0178825710999992005081000004-05500-045267FM-12+015399999V0209999C000012200019N0100001N1+02861+02031101301ADDGA1001+999999999GF100991001001999999001001KA1240M+03561MA1999999099561MD1999999+0001REMSYN082AAXX  10004 82571 32997 00000 10286 20203 39956 40130 333 10356 29054 55106 58000;
0156825710999992005081012004-05500-045267FM-12+015399999V0200901N001512200019N0100001N1+02581+02151101601ADDGF105991011021004501001011KA1240N+01951MA1999999099861MD1999999+0051REMSYN076AAXX  10124 82571 32497 50903 10258 20215 39986 40160 81201 333 20195 58005;
0137825710999992005081018004-05500-045267FM-12+015399999V0201401N001512200019N0100001N1+03371+01831101121ADDGF104991031021004501001011MA1999999099401MD1999999+0071REMSYN070AAXX  10184 82571 32497 41403 10337 20183 39940 40112 83201 333 58007;
0156825710999992005081112004-05500-045267FM-12+015399999V0200501N001510042019N0100001N1+02571+02191101651ADDGF106991061021004501001001KA1240N+02171MA1999999099911MD1999999+0051REMSYN076AAXX  11124 82571 32497 60503 10257 20219 39991 40165 86200 333 20217 58005;
0137825710999992005081118004-05500-045267FM-12+015399999V0201801N002612200019N0100001N1+03441+01881101121ADDGF104991031021004501001011MA1999999099411MD1999999+0011REMSYN070AAXX  11184 82571 32497 41805 10344 20188 39941 40112 83201 333 58001;
0178825710999992005081200004-05500-045267FM-12+015399999V0200901N000512200019N0100001N1+02911+02121101291ADDGA1001+999999999GF100991001001999999001001KA1240M+03541MA1999999099551MD1999999-0061REMSYN082AAXX  12004 82571 32997 00901 10291 20212 39955 40129 333 10354 29061 55081 59006;
0156825710999992005081212004-05500-045267FM-12+015399999V0200901N002610042019N0100001N1+02641+02271101511ADDGF106991061021004501001001KA1240N+02191MA1999999099771MD1999999-0141REMSYN076AAXX  12124 82571 32497 60905 10264 20227 39977 40151 86200 333 20219 59014;
0137825710999992005081218004-05500-045267FM-12+015399999V0201401N003112200019N0100001N1+03371+01911101061ADDGF103991031021004501001001MA1999999099341MD1999999-0071REMSYN070AAXX  12184 82571 32497 31406 10337 20191 39934 40106 83200 333 59007;
0178825710999992005081300004-05500-045267FM-12+015399999V0200501N000512200019N0100001N1+02871+02211101151ADDGA1001+999999999GF100991001001999999001001KA1240M+03471MA1999999099421MD1999999-0131REMSYN082AAXX  13004 82571 32997 00501 10287 20221 39942 40115 333 10347 29064 55090 59013;
0143825710999992005081312004-05500-045270FM-12+015399999V0200501N003112200019N0100001N1+02691+02281101451ADDGF105991041021004501001011MA1999999099721MD1999999-0051REMSYN076AAXX  13124 82571 32497 50506 10269 20228 39972 40145 84201 333 20216 59005;
0137825710999992005081318004-05500-045270FM-12+015399999V0201801N002112200019N0100001N1+03391+01931101031ADDGF102991021021004501001001MA1999999099311MD1999999-0031REMSYN070AAXX  13184 82571 32497 21804 10339 20193 39931 40103 82200 333 59003;
0149825710999992005081400004-05500-045270FM-12+015399999V0200901N000512200019N0100001N1+02871+02101101081ADDGF100991001001999999001001MA1999999099351MD1999999-0071REMSYN082AAXX  14004 82571 32997 00901 10287 20210 39935 40108 333 10352 29062 55082 59007;
0143825710999992005081412004-05500-045270FM-12+015399999V0200501N002110042019N0100001N1+02651+02241101531ADDGF106991061021004501001001MA1999999099791MD1999999+0071REMSYN076AAXX  14124 82571 32497 60504 10265 20224 39979 40153 86200 333 20232 58007;
0137825710999992005081418004-05500-045270FM-12+015399999V0201401N003112200019N0100001N1+03391+01891100971ADDGF102991021021004501001001MA1999999099261MD1999999-0051REMSYN070AAXX  14184 82571 32497 21406 10339 20189 39926 40097 82200 333 59005;
0149825710999992005081500004-05500-045270FM-12+015399999V0200901N000512200019N0100001N1+02871+02001101151ADDGF100991001001999999001001MA1999999099421MD1999999+0071REMSYN082AAXX  15004 82571 32997 00901 10287 20200 39942 40115 333 10350 29059 55089 58007;
0143825710999992005081512004-05500-045270FM-12+015399999V0200501N002112200019N0100001N1+02681+02161101611ADDGF102991021021004501001001MA1999999099871MD1999999+0081REMSYN076AAXX  15124 82571 32497 20504 10268 20216 39987 40161 82200 333 20219 58008;
0137825710999992005081518004-05500-045270FM-12+015399999V0201401N003612200019N0100001N1+03451+01781101091ADDGF106991031021004501001011MA1999999099381MD1999999+0121REMSYN070AAXX  15184 82571 32497 61407 10345 20178 39938 40109 83201 333 58012;
0178825710999992005081600004-05500-045267FM-12+015399999V0200901N000512200019N0100001N1+02931+02031101251ADDGA1001+999999999GF100991001001999999001001KA1240M+03551MA1999999099521MD1999999+0101REMSYN082AAXX  16004 82571 32997 00901 10293 20203 39952 40125 333 10355 29056 55083 58010;
0156825710999992005081612004-05500-045267FM-12+015399999V0200501N002110042019N0100001N1+02651+02221101551ADDGF105991051021004501001001KA1240N+02071MA1999999099811MD1999999-0061REMSYN076AAXX  16124 82571 32497 50504 10265 20222 39981 40155 85200 333 20207 59006;
0137825710999992005081618004-05500-045267FM-12+015399999V0201401N003112200019N0100001N1+03371+01791101071ADDGF103991031021004501001001MA1999999099351MD1999999-0031REMSYN070AAXX  16184 82571 32497 31406 10337 20179 39935 40107 83200 333 59003;
0156825710999992005081712004-05500-045267FM-12+015399999V0200901N002112200019N0100001N1+02721+02221101451ADDGF104991021021004501031001KA1240N+02221MA1999999099721MD1999999-0091REMSYN076AAXX  17124 82571 32497 40904 10272 20222 39972 40145 82230 333 20222 59009;
0137825710999992005081718004-05500-045267FM-12+015399999V0201401N002112200019N0100001N1+03421+01871100941ADDGF104991031011004501011001MA1999999099231MD1999999-0121REMSYN070AAXX  17184 82571 32497 41404 10342 20187 39923 40094 83110 333 59012;
0178825710999992005081800004-05500-045267FM-12+015399999V0201401N001012200019N0100001N1+02851+01901101221ADDGA1001+999999999GF100991001001999999001001KA1240M+03501MA1999999099491MD1999999+0061REMSYN082AAXX  18004 82571 32997 01402 10285 20190 39949 40122 333 10350 29056 55098 58006;
0156825710999992005081812004-05500-045267FM-12+015399999V0200901N002112200019N0100001N1+02661+01971101541ADDGF101991011001017501011001KA1240N+01941MA1999999099801MD1999999+0081REMSYN076AAXX  18124 82571 32797 10904 10266 20197 39980 40154 81010 333 20194 58008;
0137825710999992005081818004-05500-045267FM-12+015399999V0201801N002612200019N0100001N1+03461+01601101041ADDGF104991031021004501001011MA1999999099321MD1999999+0091REMSYN070AAXX  18184 82571 32497 41805 10346 20160 39932 40104 83201 333 58009;
0168825710999992005081900004-05500-045267FM-12+015399999V0200901N001512200019N0100001N1+02831+01761101181ADDGF102991021001017501011001KA1240M+03531MA1999999099451MD1999999-0041REMSYN088AAXX  19004 82571 32797 20903 10283 20176 39945 40118 82010 333 10353 29051 55107 59004;
0156825710999992005081912004-05500-045267FM-12+015399999V0200901N002612200019N0100001N1+02731+01891101601ADDGF102991011011004501001011KA1240N+02061MA1999999099861MD1999999+0061REMSYN076AAXX  19124 82571 32497 20905 10273 20189 39986 40160 81101 333 20206 58006;
0137825710999992005081918004-05500-045267FM-12+015399999V0201801N002112200019N0100001N1+03411+01611101141ADDGF102991021021004501001001MA1999999099421MD1999999+0101REMSYN070AAXX  19184 82571 32497 21804 10341 20161 39942 40114 82200 333 58010;
0178825710999992005082000004-05500-045267FM-12+015399999V0200901N002112200019N0100001N1+02831+01701101241ADDGA1001+999999999GF100991001001999999001001KA1240M+03521MA1999999099511MD1999999+0061REMSYN082AAXX  20004 82571 32997 00904 10283 20170 39951 40124 333 10352 29048 55109 58006;
0156825710999992005082012004-05500-045267FM-12+015399999V0201401N001512200019N0100001N1+02651+02091101501ADDGF102991001001999999001011KA1240N+01951MA1999999099761MD1999999-0111REMSYN076AAXX  20124 82571 32997 21403 10265 20209 39976 40150 80001 333 20195 59011;
0137825710999992005082018004-05500-045267FM-12+015399999V0201801N002112200019N0100001N1+03471+01661101001ADDGF104991011011004501001011MA1999999099281MD1999999-0141REMSYN070AAXX  20184 82571 32497 41804 10347 20166 39928 40100 81101 333 59014;
0149825710999992005082100004-05500-045270FM-12+015399999V0200901N001012200019N0100001N1+02821+01711101201ADDGF100991001001999999001001MA1999999099471MD1999999-0041REMSYN082AAXX  21004 82571 32997 00902 10282 20171 39947 40120 333 10360 29052 55106 59004;
0143825710999992005082112004-05500-045270FM-12+015399999V0200901N003612200019N0100001N1+02641+01631101461ADDGF102991001001999999001011MA1999999099721MD1999999-0041REMSYN076AAXX  21124 82571 32997 20907 10264 20163 39972 40146 80001 333 20188 59004;
0137825710999992005082118004-05500-045270FM-12+015399999V0201401N003112200019N0100001N1+03371+02431101001ADDGF102991021021004501001001MA1999999099281MD1999999+0001REMSYN070AAXX  21184 82571 32497 21406 10337 20243 39928 40100 82200 333 58000;
0178825710999992005082200004-05500-045267FM-12+015399999V0200901N002112200019N0100001N1+02731+01511101141ADDGA1001+999999999GF100991001001999999001001KA1240M+03531MA1999999099401MD1999999-0071REMSYN082AAXX  22004 82571 32997 00904 10273 20151 39940 40114 333 10353 29045 55108 59007;
0156825710999992005082212004-05500-045267FM-12+015399999V0200901N002612200019N0100001N1+02651+01741101361ADDGF101991011011004501001001KA1240N+01801MA1999999099621MD1999999-0101REMSYN076AAXX  22124 82571 32497 10905 10265 20174 39962 40136 81100 333 20180 59010;
0137825710999992005082218004-05500-045267FM-12+015399999V0201401N003112200019N0100001N1+03331+01751100961ADDGF103991031021004501001001MA1999999099251MD1999999-0031REMSYN070AAXX  22184 82571 32497 31406 10333 20175 39925 40096 83200 333 59003;
0178825710999992005082300004-05500-045267FM-12+015399999V0209999C000012200019N0100001N1+02841+02121101071ADDGA1001+999999999GF100991001001999999001001KA1240M+03461MA1999999099341MD1999999-0061REMSYN082AAXX  23004 82571 32997 00000 10284 20212 39934 40107 333 10346 29056 55101 59006;
0201825710999992005082312004-05500-045267FM-12+015399999V0200901N005112200019N0100001N1+02791+01781101371ADDAA124000891AY161061AY201061GF102991021021004501001001KA1240N+02351MA1999999099641MD1999999+0021MW1011REMSYN088AAXX  23124 82571 21497 20910 10279 20178 39964 40137 70160 82200 333 20235 58002 69974;
0137825710999992005082318004-05500-045267FM-12+015399999V0200901N003612200019N0100001N1+03341+01671101071ADDGF103991031021004501001001MA1999999099351MD1999999+0101REMSYN070AAXX  23184 82571 32497 30907 10334 20167 39935 40107 83200 333 58010;
0178825710999992005082400004-05500-045267FM-12+015399999V0209999C000012200019N0100001N1+02841+01991101211ADDGA1001+999999999GF100991001001999999001001KA1240M+03451MA1999999099481MD1999999+0141REMSYN082AAXX  24004 82571 32997 00000 10284 20199 39948 40121 333 10345 29053 55104 58014;
0156825710999992005082412004-05500-045267FM-12+015399999V0200901N001512200019N0100001N1+02751+02211101441ADDGF101991011011004501001001KA1240N+02171MA1999999099711MD1999999+0071REMSYN076AAXX  24124 82571 32497 10903 10275 20221 39971 40144 81100 333 20217 58007;
0137825710999992005082418004-05500-045267FM-12+015399999V0200901N004110450019N0100001N1+03411+01781101101ADDGF106991041021004501031001MA1999999099381MD1999999+0031REMSYN070AAXX  24184 82571 32497 60908 10341 20178 39938 40110 84230 333 58003;
0178825710999992005082500004-05500-045267FM-12+015399999V0201401N001012200019N0100001N1+02891+01961101281ADDGA1001+999999999GF100991001001999999001001KA1240M+03501MA1999999099551MD1999999+0071REMSYN082AAXX  25004 82571 32997 01402 10289 20196 39955 40128 333 10350 29056 55086 58007;
0156825710999992005082512004-05500-045267FM-12+015399999V0200501N003112200019N0100001N1+02791+02251101391ADDGF101991011011004501001001KA1240N+02271MA1999999099661MD1999999-0051REMSYN076AAXX  25124 82571 32497 10506 10279 20225 39966 40139 81100 333 20227 59005;
0137825710999992005082518004-05500-045267FM-12+015399999V0200901N002112200019N0100001N1+03461+01901100861ADDGF103991031021004501001001MA1999999099151MD1999999-0231REMSYN070AAXX  25184 82571 32497 30904 10346 20190 39915 40086 83200 333 59023;
0178825710999992005082600004-05500-045267FM-12+015399999V0209999C000012200019N0100001N1+02971+02121100971ADDGA1001+999999999GF100991001001999999001001KA1240M+03651MA1999999099251MD1999999-0301REMSYN082AAXX  26004 82571 32997 00000 10297 20212 39925 40097 333 10365 29058 55100 59030;
0156825710999992005082612004-05500-045267FM-12+015399999V0200501N003110042019N0100001N1+02711+02221101371ADDGF106991061021004501001001KA1240N+02291MA1999999099641MD1999999-0021REMSYN076AAXX  26124 82571 32497 60506 10271 20222 39964 40137 86200 333 20229 59002;
0137825710999992005082618004-05500-045267FM-12+015399999V0200501N002112200019N0100001N1+03381+01981100931ADDGF103991031021004501001001MA1999999099221MD1999999+0071REMSYN070AAXX  26184 82571 32497 30504 10338 20198 39922 40093 83200 333 58007;
0178825710999992005082700004-05500-045267FM-12+015399999V0203201N001012200019N0100001N1+02871+02161101041ADDGA1001+999999999GF100991001001999999001001KA1240M+03551MA1999999099311MD1999999+0061REMSYN082AAXX  27004 82571 32997 03202 10287 20216 39931 40104 333 10355 29062 55085 58006;
0156825710999992005082712004-05500-045267FM-12+015399999V0200501N001510450019N0100001N1+02581+02191101421ADDGF105991021021004501031001KA1240N+02281MA1999999099681MD1999999+0041REMSYN076AAXX  27124 82571 32497 50503 10258 20219 39968 40142 82230 333 20228 58004;
0137825710999992005082718004-05500-045267FM-12+015399999V0201401N003612200019N0100001N1+03411+01911100911ADDGF103991031021004501001001MA1999999099201MD1999999-0021REMSYN070AAXX  27184 82571 32497 31407 10341 20191 39920 40091 83200 333 59002;
0178825710999992005082800004-05500-045267FM-12+015399999V0209999C000012200019N0100001N1+02941+02191101081ADDGA1001+999999999GF100991001001999999001001KA1240M+03521MA1999999099351MD1999999+0041REMSYN082AAXX  28004 82571 32997 00000 10294 20219 39935 40108 333 10352 29062 55083 58004;
0156825710999992005082812004-05500-045267FM-12+015399999V0200901N002112200019N0100001N1+02731+02171101321ADDGF102991021021004501001001KA1240N+02251MA1999999099591MD1999999-0091REMSYN076AAXX  28124 82571 32497 20904 10273 20217 39959 40132 82200 333 20225 59009;
0137825710999992005082818004-05500-045267FM-12+015399999V0201401N003612200019N0100001N1+03491+01771100831ADDGF102991021021004501001001MA1999999099121MD1999999-0081REMSYN070AAXX  28184 82571 32497 21407 10349 20177 39912 40083 82200 333 59008;
0178825710999992005082900004-05500-045267FM-12+015399999V0200901N000512200019N0100001N1+02941+02031100951ADDGA1001+999999999GF100991001001999999001001KA1240M+03611MA1999999099231MD1999999-0121REMSYN082AAXX  29004 82571 32997 00901 10294 20203 39923 40095 333 10361 29056 55108 59012;
0156825710999992005082912004-05500-045267FM-12+015399999V0200501N003610042019N0100001N1+02691+02171101351ADDGF106991061021004501001001KA1240N+02191MA1999999099621MD1999999+0031REMSYN076AAXX  29124 82571 32497 60507 10269 20217 39962 40135 86200 333 20219 58003;
0137825710999992005082918004-05500-045267FM-12+015399999V0200901N002612200019N0100001N1+03371+01791100841ADDGF104991041021004501001001MA1999999099131MD1999999+0011REMSYN070AAXX  29184 82571 32497 40905 10337 20179 39913 40084 84200 333 58001;
0178825710999992005083000004-05500-045267FM-12+015399999V0209999C000012200019N0100001N1+02941+02161101031ADDGA1001+999999999GF100991001001999999001001KA1240M+03531MA1999999099301MD1999999+0071REMSYN082AAXX  30004 82571 32997 00000 10294 20216 39930 40103 333 10353 29060 55086 58007;
0156825710999992005083012004-05500-045267FM-12+015399999V0200901N001512200019N0100001N1+02651+02221101351ADDGF104991041021004501001001KA1240N+02241MA1999999099621MD1999999+0001REMSYN076AAXX  30124 82571 32497 40903 10265 20222 39962 40135 84200 333 20224 58000;
0137825710999992005083018004-05500-045267FM-12+015399999V0201801N002612200019N0100001N1+03491+01861100811ADDGF103991031021004501001001MA1999999099101MD1999999-0031REMSYN070AAXX  30184 82571 32497 31805 10349 20186 39910 40081 83200 333 59003;
0178825710999992005083100004-05500-045267FM-12+015399999V0203201N000512200019N0100001N1+02961+02181101031ADDGA1001+999999999GF100991001001999999001001KA1240M+03631MA1999999099301MD1999999+0001REMSYN082AAXX  31004 82571 32997 03201 10296 20218 39930 40103 333 10363 29060 55098 58000;
0166825710999992005083112004-05500-045267FM-12+015399999V0200901N003112200019N0100001N1+02731+02101101291ADDGA1001+999999999GF100991001001999999001001KA1240N+02131MA1999999099561MD1999999-0061REMSYN070AAXX  31124 82571 32997 00906 10273 20210 39956 40129 333 20213 59006;
0137825710999992005083118004-05500-045267FM-12+015399999V0201401N004612200019N0100001N1+03611+01641100641ADDGF101991011011004501001001MA1999999098941MD1999999-0161REMSYN070AAXX  31184 82571 32497 11409 10361 20164 39894 40064 81100 333 59016;
0156825710999992005090112004-05500-045267FM-12+017499999V0203601N002612200019N0100001N1+02431+02031101391ADDGF102991021011004501001001KA1240N+01771MA1999999099641MD1999999+0081REMSYN076AAXX  01124 82571 32497 23605 10243 20203 39964 40139 82100 333 20177 58008;
0137825710999992005090118004-05500-045267FM-12+017499999V0200901N002612200019N0100001N1+03511+01601100791ADDGF102991021011004501001001MA1999999099071MD1999999+0131REMSYN070AAXX  01184 82571 32497 20905 10351 20160 39907 40079 82100 333 58013;
0178825710999992005090200004-05500-045267FM-12+017499999V0209999C000012200019N0100001N1+02911+01951101061ADDGA1001+999999999GF100991001001999999001001KA1240M+03641MA1999999099321MD1999999+0161REMSYN082AAXX  02004 82571 32997 00000 10291 20195 39932 40106 333 10364 29056 55088 58016;
0156825710999992005090212004-05500-045267FM-12+017499999V0200901N001512200019N0100001N1+02611+02101101371ADDGF103991031001017501011001KA1240N+02071MA1999999099631MD1999999-0011REMSYN076AAXX  02124 82571 32797 30903 10261 20210 39963 40137 83010 333 20207 59001;
0137825710999992005090218004-05500-045267FM-12+017499999V0200901N002112200019N0100001N1+03531+01801100871ADDGF102991021021004501001001MA1999999099161MD1999999+0091REMSYN070AAXX  02184 82571 32497 20904 10353 20180 39916 40087 82200 333 58009;
0178825710999992005090300004-05500-045267FM-12+017499999V0200501N001012200019N0100001N1+02921+01981101041ADDGA1001+999999999GF100991001001999999001001KA1240M+03631MA1999999099311MD1999999-0011REMSYN082AAXX  03004 82571 32997 00502 10292 20198 39931 40104 333 10363 29056 55104 59001;
0156825710999992005090312004-05500-045267FM-12+017499999V0200501N003112200019N0100001N1+02691+02171101361ADDGF103991031021004501001001KA1240N+02401MA1999999099631MD1999999+0001REMSYN076AAXX  03124 82571 32497 30506 10269 20217 39963 40136 83200 333 20240 58000;
0137825710999992005090318004-05500-045267FM-12+017499999V0200901N002112200019N0100001N1+03481+01881100861ADDGF103991031021004501001001MA1999999099151MD1999999-0011REMSYN070AAXX  03184 82571 32497 30904 10348 20188 39915 40086 83200 333 59001;
0156825710999992005090412004-05500-045267FM-12+017499999V0200501N003112200019N0100001N1+02751+02191101361ADDGF103991031021004501001001KA1240N+02371MA1999999099631MD1999999+0001REMSYN076AAXX  04124 82571 32497 30506 10275 20219 39963 40136 83200 333 20237 58000;
0156825710999992005090418004-05500-045267FM-12+017499999V0202401N004112200019N0100001N1+03471+01921100871ADDGF101991999021008001001001MA1999999099161MD1999999+0011REMSYN070AAXX  04184 82571 32597 12408 10347 20192 39916 40087 82200 333 58001;EQDQ01+000022SCOTLC
0178825710999992005090500004-05500-045267FM-12+017499999V0200901N001512200019N0100001N1+02981+01981101061ADDGA1001+999999999GF100991001001999999001001KA1240M+03631MA1999999099341MD1999999+0041REMSYN082AAXX  05004 82571 32997 00903 10298 20198 39934 40106 333 10363 29055 55098 58004;
0156825710999992005090512004-05500-045267FM-12+017499999V0200501N002612200019N0100001N1+02721+02171101411ADDGF106991041021004501001011KA1240N+02211MA1999999099681MD1999999+0051REMSYN076AAXX  05124 82571 32497 60505 10272 20217 39968 40141 84201 333 20221 58005;
0137825710999992005090518004-05500-045267FM-12+017499999V0201401N003112200019N0100001N1+03451+01861100911ADDGF103991031021004501001001MA1999999099201MD1999999+0041REMSYN070AAXX  05184 82571 32497 31406 10345 20186 39920 40091 83200 333 58004;
0178825710999992005090600004-05500-045267FM-12+017499999V0209999C000012200019N0100001N1+02971+02011101051ADDGA1001+999999999GF100991001001999999001001KA1240M+03601MA1999999099331MD1999999-0011REMSYN082AAXX  06004 82571 32997 00000 10297 20201 39933 40105 333 10360 29055 55103 59001;
0156825710999992005090612004-05500-045267FM-12+017499999V0200501N002110042019N0100001N1+02571+02121101401ADDGF107991071051004501001001KA1240N+02391MA1999999099661MD1999999-0021REMSYN076AAXX  06124 82571 32497 70504 10257 20212 39966 40140 87500 333 20239 59002;
0178825710999992005090700004-05500-045267FM-12+017499999V0203601N000512200019N0100001N1+02971+02121101021ADDGA1001+999999999GF100991001001999999001001KA1240M+03611MA1999999099291MD1999999-0041REMSYN082AAXX  07004 82571 32997 03601 10297 20212 39929 40102 333 10361 29059 55077 59004;
0156825710999992005090712004-05500-045267FM-12+017499999V0200501N002610042019N0100001N1+02691+02011101411ADDGF107991071051004501001001KA1240N+02481MA1999999099681MD1999999+0021REMSYN076AAXX  07124 82571 32497 70505 10269 20201 39968 40141 87500 333 20248 58002;
0137825710999992005090718004-05500-045267FM-12+017499999V0201401N002112200019N0100001N1+03531+02051100991ADDGF103991031021004501001001MA1999999099281MD1999999+0121REMSYN070AAXX  07184 82571 32497 31404 10353 20205 39928 40099 83200 333 58012;
0178825710999992005090800004-05500-045267FM-12+017499999V0203601N001012200019N0100001N1+02961+02231101091ADDGA1001+999999999GF100991001001999999001001KA1240M+03621MA1999999099361MD1999999+0071REMSYN082AAXX  08004 82571 32997 03602 10296 20223 39936 40109 333 10362 29060 55072 58007;
0156825710999992005090812004-05500-045267FM-12+017499999V0200501N003112200019N0100001N1+02761+02121101451ADDGF101991011011004501001001KA1240N+02411MA1999999099721MD1999999+0041REMSYN076AAXX  08124 82571 32497 10506 10276 20212 39972 40145 81100 333 20241 58004;
0137825710999992005090818004-05500-045267FM-12+017499999V0200901N003612200019N0100001N1+03521+01741100951ADDGF104991041021004501001001MA1999999099251MD1999999-0031REMSYN070AAXX  08184 82571 32497 40907 10352 20174 39925 40095 84200 333 59003;
0178825710999992005090900004-05500-045267FM-12+017499999V0201401N001012200019N0100001N1+03021+01991101121ADDGA1001+999999999GF100991001001999999001001KA1240M+03641MA1999999099401MD1999999+0041REMSYN082AAXX  09004 82571 32997 01402 10302 20199 39940 40112 333 10364 29053 55097 58004;
0156825710999992005090912004-05500-045267FM-12+017499999V0200901N001512200019N0100001N1+02751+02211101431ADDGF102991021021004501001001KA1240N+02471MA1999999099701MD1999999-0021REMSYN076AAXX  09124 82571 32497 20903 10275 20221 39970 40143 82200 333 20247 59002;
0137825710999992005090918004-05500-045267FM-12+017499999V0201801N002112200019N0100001N1+03501+01861100921ADDGF103991031011004501001001MA1999999099221MD1999999-0031REMSYN070AAXX  09184 82571 32497 31804 10350 20186 39922 40092 83100 333 59003;
0178825710999992005091000004-05500-045267FM-12+017499999V0200901N002112200019N0100001N1+02931+01821101141ADDGA1001+999999999GF100991001001999999001001KA1240M+03631MA1999999099411MD1999999+0011REMSYN082AAXX  10004 82571 32497 00904 10293 20182 39941 40114 333 10363 29053 55101 58001;
0156825710999992005091012004-05500-045267FM-12+017499999V0200901N003112200019N0100001N1+02771+01961101481ADDGF101991011011004501001001KA1240N+02241MA1999999099751MD1999999+0051REMSYN076AAXX  10124 82571 32497 10906 10277 20196 39975 40148 81100 333 20224 58005;
0137825710999992005091018004-05500-045267FM-12+017499999V0200901N003612200019N0100001N1+03501+01481100961ADDGF102991021011004501001001MA1999999099251MD1999999+0031REMSYN070AAXX  10184 82571 32497 20907 10350 20148 39925 40096 82100 333 58003;
0178825710999992005091100004-05500-045267FM-12+017499999V0201401N002112200019N0100001N1+02821+01551101171ADDGA1001+999999999GF100991001001999999001001KA1240M+03601MA1999999099441MD1999999+0031REMSYN082AAXX  11004 82571 32997 01404 10282 20155 39944 40117 333 10360 29046 55091 58003;
0166825710999992005091112004-05500-045267FM-12+017499999V0200901N002112200019N0100001N1+02601+01961101511ADDGA1001+999999999GF100991001001999999001001KA1240N+01981MA1999999099771MD1999999+0021REMSYN070AAXX  11124 82571 32997 00904 10260 20196 39977 40151 333 20198 58002;
0147825710999992005091118004-05500-045267FM-12+017499999V0201401N004612200019N0100001N1+03511+01501100971ADDGA1001+999999999GF100991001001999999001001MA1999999099261MD1999999+0011REMSYN064AAXX  11184 82571 32997 01409 10351 20150 39926 40097 333 58001;
0178825710999992005091200004-05500-045267FM-12+017499999V0201401N001012200019N0100001N1+02911+01571101151ADDGA1001+999999999GF100991001001999999001001KA1240M+03631MA1999999099421MD1999999-0021REMSYN082AAXX  12004 82571 32997 01402 10291 20157 39942 40115 333 10363 29046 55107 59002;
0166825710999992005091212004-05500-045267FM-12+017499999V0200501N002112200019N0100001N1+02571+02041101591ADDGA1001+999999999GF100991001001999999001001KA1240N+02001MA1999999099851MD1999999+0081REMSYN070AAXX  12124 82571 32997 00504 10257 20204 39985 40159 333 20200 58008;
0137825710999992005091218004-05500-045267FM-12+015399999V0201401N002112200019N0100001N1+03451+01731101061ADDGF102991021011004501001001MA1999999099341MD1999999+0081REMSYN070AAXX  12184 82571 32497 21404 10345 20173 39934 40106 82100 333 58008;
0178825710999992005091300004-05500-045267FM-12+015399999V0200901N000512200019N0100001N1+02891+01931101231ADDGA1001+999999999GF100991001001999999001001KA1240M+03531MA1999999099501MD1999999+0081REMSYN082AAXX  13004 82571 32997 00901 10289 20193 39950 40123 333 10353 29055 55093 58008;
0166825710999992005091312004-05500-045267FM-12+015399999V0200501N002112200019N0100001N1+02721+01981101471ADDGA1001+999999999GF100991001001999999001001KA1240N+02171MA1999999099741MD1999999-0111REMSYN070AAXX  13124 82571 32997 00504 10272 20198 39974 40147 333 20217 59011;
0137825710999992005091318004-05500-045267FM-12+015399999V0201801N003612200019N0100001N1+03491+01681100821ADDGF103991031021004501001001MA1999999099141MD1999999-0201REMSYN070AAXX  13184 82571 32497 31807 10349 20168 39914 40082 83200 333 59020;
0178825710999992005091400004-05500-045267FM-12+015399999V0203601N001012200019N0100001N1+02991+01881101081ADDGA1001+999999999GF100991001001999999001001KA1240M+03651MA1999999099351MD1999999-0151REMSYN082AAXX  14004 82571 32997 03602 10299 20188 39935 40108 333 10365 29050 55098 59015;
0156825710999992005091412004-05500-045267FM-12+015399999V0200501N003112200019N0100001N1+02941+02081101381ADDGF102991011011004501031001KA1240N+02511MA1999999099661MD1999999-0081REMSYN076AAXX  14124 82571 32497 20506 10294 20208 39966 40138 81130 333 20251 59008;
0137825710999992005091418004-05500-045267FM-12+015399999V0200901N002112200019N0100001N1+03611+01831100801ADDGF104991041021004501001001MA1999999099101MD1999999-0041REMSYN070AAXX  14184 82571 32497 40904 10361 20183 39910 40080 84200 333 59004;
0168825710999992005091500004-05500-045267FM-12+015399999V0200501N000512200019N0100001N1+03071+02131101081ADDGF102991021001017501031001KA1240M+03741MA1999999099371MD1999999+0021REMSYN088AAXX  15004 82571 32797 20501 10307 20213 39937 40108 82030 333 10374 29052 55096 58002;
0156825710999992005091512004-05500-045267FM-12+015399999V0200501N001012200019N0100001N1+02771+02091101571ADDGF101991011011004501001001KA1240N+02281MA1999999099841MD1999999+0181REMSYN076AAXX  15124 82571 32497 10502 10277 20209 39984 40157 81100 333 20228 58018;
0137825710999992005091518004-05500-045267FM-12+015399999V0201401N002112200019N0100001N1+03641+01651100921ADDGF103991021011004501011001MA1999999099221MD1999999+0121REMSYN070AAXX  15184 82571 32497 31404 10364 20165 39922 40092 82110 333 58012;
0156825710999992005091612004-05500-045267FM-12+015399999V0200501N002612200019N0100001N1+02621+02161101521ADDGF104991041021004501001001KA1240N+02091MA1999999099781MD1999999-0061REMSYN076AAXX  16124 82571 32497 40505 10262 20216 39978 40152 84200 333 20209 59006;
0137825710999992005091618004-05500-045267FM-12+015399999V0201801N003112200019N0100001N1+03521+01741100931ADDGF102991021021004501001001MA1999999099221MD1999999+0001REMSYN070AAXX  16184 82571 32497 21806 10352 20174 39922 40093 82200 333 58000;
0178825710999992005091700004-05500-045267FM-12+015399999V0200501N000512200019N0100001N1+03021+02041101111ADDGA1001+999999999GF100991001001999999001001KA1240M+03661MA1999999099381MD1999999-0111REMSYN082AAXX  17004 82571 32997 00501 10302 20204 39938 40111 333 10366 29056 55083 59011;
0156825710999992005091712004-05500-045267FM-12+015399999V0200501N001512200019N0100001N1+02811+02121101421ADDGF102991021021004501001001KA1240N+02311MA1999999099691MD1999999-0091REMSYN076AAXX  17124 82571 32497 20503 10281 20212 39969 40142 82200 333 20231 59009;
0137825710999992005091718004-05500-045267FM-12+015399999V0203601N002112200019N0100001N1+03591+01771100811ADDGF102991021021004501001001MA1999999099111MD1999999-0111REMSYN070AAXX  17184 82571 32497 23604 10359 20177 39911 40081 82200 333 59011;
0178825710999992005091800004-05500-045267FM-12+015399999V0200501N002112200019N0100001N1+02971+01831101041ADDGA1001+999999999GF100991001001999999001001KA1240M+03681MA1999999099321MD1999999-0061REMSYN082AAXX  18004 82571 32997 00504 10297 20183 39932 40104 333 10368 29050 55092 59006;
0156825710999992005091812004-05500-045267FM-12+015399999V0200501N002610042019N0100001N1+02731+02101101461ADDGF105991051021004501001001KA1240N+02401MA1999999099731MD1999999+0041REMSYN076AAXX  18124 82571 32497 50505 10273 20210 39973 40146 85200 333 20240 58004;
0137825710999992005091818004-05500-045267FM-12+015399999V0200901N003112200019N0100001N1+03431+01881100981ADDGF102991021021004501001001MA1999999099271MD1999999+0161REMSYN070AAXX  18184 82571 32497 20906 10343 20188 39927 40098 82200 333 58016;
0178825710999992005091900004-05500-045267FM-12+015399999V0209999C000012200019N0100001N1+02931+02111101141ADDGA1001+999999999GF100991001001999999001001KA1240M+03511MA1999999099411MD1999999+0091REMSYN082AAXX  19004 82571 32997 00000 10293 20211 39941 40114 333 10351 29058 55086 58009;
0156825710999992005091912004-05500-045267FM-12+015399999V0200901N002610042019N0100001N1+02681+02161101511ADDGF107991071021004501001001KA1240N+02201MA1999999099771MD1999999+0041REMSYN076AAXX  19124 82571 32497 70905 10268 20216 39977 40151 87200 333 20220 58004;
0137825710999992005091918004-05500-045267FM-12+015399999V0201401N001512200019N0100001N1+03581+01931100851ADDGF103991031021004501001001MA1999999099141MD1999999-0131REMSYN070AAXX  19184 82571 32497 31403 10358 20193 39914 40085 83200 333 59013;
0168825710999992005092000004-05500-045267FM-12+015399999V0200501N001012200019N0100001N1+03031+01971101081ADDGF102991011011004501031001KA1240M+03721MA1999999099351MD1999999-0061REMSYN088AAXX  20004 82571 32497 20502 10303 20197 39935 40108 81130 333 10372 29054 55078 59006;
0156825710999992005092012004-05500-045267FM-12+015399999V0200901N002612200019N0100001N1+02821+02101101361ADDGF101991011011004501001001KA1240N+02391MA1999999099631MD1999999-0141REMSYN076AAXX  20124 82571 32497 10905 10282 20210 39963 40136 81100 333 20239 59014;
0137825710999992005092018004-05500-045267FM-12+015399999V0200901N002112200019N0100001N1+03621+01961100811ADDGF104991041021004501001001MA1999999099111MD1999999-0031REMSYN070AAXX  20184 82571 32497 40904 10362 20196 39911 40081 84200 333 59003;
0168825710999992005092100004-05500-045267FM-12+015399999V0200501N001512200019N0100001N1+03051+02051100991ADDGF102991021001017501011001KA1240M+03721MA1999999099271MD1999999-0081REMSYN088AAXX  21004 82571 32797 20503 10305 20205 39927 40099 82010 333 10372 29053 55105 59008;
0156825710999992005092112004-05500-045267FM-12+015399999V0203601N003612200019N0100001N1+02791+02151101281ADDGF102991011011004501001011KA1240N+02381MA1999999099551MD1999999-0081REMSYN076AAXX  21124 82571 32497 23607 10279 20215 39955 40128 81101 333 20238 59008;
0137825710999992005092118004-05500-045267FM-12+015399999V0203601N001512200019N0100001N1+03701+01991100651ADDGF104991031021004501001011MA1999999098961MD1999999-0151REMSYN070AAXX  21184 82571 32497 43603 10370 20199 39896 40065 83201 333 59015;
0178825710999992005092200004-05500-045267FM-12+015399999V0200501N001012200019N0100001N1+03041+02061100831ADDGA1001+999999999GF100991001001999999001001KA1240M+03781MA1999999099111MD1999999-0161REMSYN082AAXX  22004 82571 32997 00502 10304 20206 39911 40083 333 10378 29054 55101 59016;
0156825710999992005092212004-05500-045267FM-12+015399999V0200901N002112200019N0100001N1+02801+02061101131ADDGF102991011011004501001011KA1240N+02421MA1999999099411MD1999999-0141REMSYN076AAXX  22124 82571 32497 20904 10280 20206 39941 40113 81101 333 20242 59014;
0137825710999992005092218004-05500-045267FM-12+015399999V0200901N001512200019N0100001N1+03641+02021100591ADDGF104991021011004501011001MA1999999098901MD1999999-0061REMSYN070AAXX  22184 82571 32497 40903 10364 20202 39890 40059 82110 333 59006;
0178825710999992005092300004-05500-045267FM-12+015399999V0200501N001512200019N0100001N1+03101+02121100801ADDGA1001+999999999GF100991001001999999001001KA1240M+03741MA1999999099091MD1999999-0021REMSYN082AAXX  23004 82571 32997 00503 10310 20212 39909 40080 333 10374 29054 55091 59002;
0156825710999992005092312004-05500-045267FM-12+015399999V0200501N002110042019N0100001N1+02701+02171101241ADDGF107991071051004501001001KA1240N+02491MA1999999099521MD1999999+0111REMSYN076AAXX  23124 82571 32497 70504 10270 20217 39952 40124 87500 333 20249 58011;
0137825710999992005092318004-05500-045267FM-12+015399999V0201401N001510042019N0100001N1+03371+02121100831ADDGF105991051021004501001001MA1999999099131MD1999999+0231REMSYN070AAXX  23184 82571 32497 51403 10337 20212 39913 40083 85200 333 58023;
0213825710999992005092400004-05500-045267FM-12+015399999V0202701N002112200019N0100001N1+02611+02231101081ADDAA106999999AY161061AY211061GF104991041061004501001001KA1240M+03551MA1999999099341MD1999999+0251MW1131REMSYN100AAXX  24004 82571 21497 42704 10261 20223 39934 40108 71361 84600 333 10355 29075 55051 58025 69911;
0207825710999992005092412004-05500-045267FM-12+015399999V0200501N003110042019N0100001N1+02671+02161101311ADDAA124000291AY161061AY221061GF106991061051004501001001KA1240N+02391MA1999999099571MD1999999+0051MW1021REMSYN094AAXX  24124 82571 21497 60506 10267 20216 39957 40131 70262 86500 333 20239 58005 69924 10003;
0137825710999992005092418004-05500-045267FM-12+015399999V0203601N002610042019N0100001N1+03451+02061100831ADDGF105991051021004501001001MA1999999099121MD1999999-0011REMSYN070AAXX  24184 82571 32497 53605 10345 20206 39912 40083 85200 333 59001;
0178825710999992005092500004-05500-045267FM-12+015399999V0200501N000512200019N0100001N1+02981+02151100971ADDGA1001+999999999GF100991001001999999001001KA1240M+03551MA1999999099241MD1999999-0101REMSYN082AAXX  25004 82571 32997 00501 10298 20215 39924 40097 333 10355 29060 55080 59010;
0156825710999992005092512004-05500-045267FM-12+015399999V0200501N002610042019N0100001N1+02691+02151101341ADDGF106991061051004501041001KA1240N+02391MA1999999099611MD1999999+0041REMSYN076AAXX  25124 82571 32497 60505 10269 20215 39961 40134 86540 333 20239 58004;
0137825710999992005092518004-05500-045267FM-12+015399999V0200501N002110042019N0100001N1+03391+02071100851ADDGF105991051021004501001001MA1999999099141MD1999999+0021REMSYN070AAXX  25184 82571 32497 50504 10339 20207 39914 40085 85200 333 58002;
0168825710999992005092600004-05500-045267FM-12+015399999V0209999C000012200019N0100001N1+03041+02261100941ADDGF102991021001017501031001KA1240M+03501MA1999999099221MD1999999-0021REMSYN088AAXX  26004 82571 32797 20000 10304 20226 39922 40094 82030 333 10350 29061 55074 59002;
0156825710999992005092612004-05500-045267FM-12+015399999V0200901N002112200019N0100001N1+02771+02111101391ADDGF103991011011004501011001KA1240N+02361MA1999999099661MD1999999+0051REMSYN076AAXX  26124 82571 32497 30904 10277 20211 39966 40139 81110 333 20236 58005;
0137825710999992005092618004-05500-045267FM-12+015399999V0201401N002612200019N0100001N1+03531+01971100911ADDGF103991031021004501001001MA1999999099211MD1999999+0071REMSYN070AAXX  26184 82571 32497 31405 10353 20197 39921 40091 83200 333 58007;
0178825710999992005092700004-05500-045267FM-12+015399999V0209999C000012200019N0100001N1+02951+02131101111ADDGA1001+999999999GF100991001001999999001001KA1240M+03651MA1999999099381MD1999999+0161REMSYN082AAXX  27004 82571 32997 00000 10295 20213 39938 40111 333 10365 29057 55094 58016;
0156825710999992005092712004-05500-045267FM-12+015399999V0200501N002612200019N0100001N1+02721+02151101471ADDGF104991041021004501001001KA1240N+02301MA1999999099741MD1999999+0081REMSYN076AAXX  27124 82571 32497 40505 10272 20215 39974 40147 84200 333 20230 58008;
0137825710999992005092718004-05500-045267FM-12+015399999V0200501N002612200019N0100001N1+03531+02011100881ADDGF103991031021004501001001MA1999999099181MD1999999-0031REMSYN070AAXX  27184 82571 32497 30505 10353 20201 39918 40088 83200 333 59003;
0178825710999992005092800004-05500-045267FM-12+015399999V0200501N001012200019N0100001N1+03051+02141101101ADDGA1001+999999999GF100991001001999999001001KA1240M+03691MA1999999099381MD1999999+0001REMSYN082AAXX  28004 82571 32997 00502 10305 20214 39938 40110 333 10369 29057 55089 58000;
0156825710999992005092812004-05500-045267FM-12+015399999V0200501N003112200019N0100001N1+02751+02191101331ADDGF104991021021004501031001KA1240N+02421MA1999999099601MD1999999-0141REMSYN076AAXX  28124 82571 32497 40506 10275 20219 39960 40133 82230 333 20242 59014;
0137825710999992005092818004-05500-045267FM-12+015399999V0200501N003112200019N0100001N1+03581+01841100681ADDGF104991041021004501001001MA1999999098981MD1999999-0201REMSYN070AAXX  28184 82571 32497 40506 10358 20184 39898 40068 84200 333 59020;
0178825710999992005092900004-05500-045267FM-12+015399999V0200501N000512200019N0100001N1+03071+02131100921ADDGA1001+999999999GF100991001001999999001001KA1240M+03651MA1999999099201MD1999999-0181REMSYN082AAXX  29004 82571 32997 00501 10307 20213 39920 40092 333 10365 29055 55089 59018;
0156825710999992005092912004-05500-045267FM-12+015399999V0200901N002110450019N0100001N1+02781+02211101371ADDGF106991021011004501011011KA1240N+02531MA1999999099641MD1999999+0041REMSYN076AAXX  29124 82571 32497 60904 10278 20221 39964 40137 82111 333 20253 58004;
0137825710999992005092918004-05500-045267FM-12+015399999V0200501N002110450019N0100001N1+03471+01881100711ADDGF105991041021004501011001MA1999999099011MD1999999+0031REMSYN070AAXX  29184 82571 32497 50504 10347 20188 39901 40071 84210 333 58003;
0178825710999992005093000004-05500-045267FM-12+015399999V0200501N001012200019N0100001N1+03051+02111100961ADDGA1001+999999999GF100991001001999999001001KA1240M+03641MA1999999099241MD1999999+0041REMSYN082AAXX  30004 82571 32997 00502 10305 20211 39924 40096 333 10364 29056 55085 58004;
0156825710999992005093012004-05500-045267FM-12+015399999V0200501N002610042019N0100001N1+02811+02121101451ADDGF105991051021004501001001KA1240N+02481MA1999999099731MD1999999+0091REMSYN076AAXX  30124 82571 32497 50505 10281 20212 39973 40145 85200 333 20248 58009;
0137825710999992005093018004-05500-045267FM-12+015399999V0200501N001512200019N0100001N1+03551+01871100891ADDGF103991031021004501001001MA1999999099191MD1999999+0181REMSYN070AAXX  30184 82571 32497 30503 10355 20187 39919 40089 83200 333 58018;
0178825710999992005100100004-05500-045267FM-12+015399999V0202701N002112200019N0100001N1+03021+02041101071ADDGA1001+999999999GF100991001001999999001001KA1240M+03651MA1999999099351MD1999999+0111REMSYN082AAXX  01004 82571 32997 02704 10302 20204 39935 40107 333 10365 29054 55089 58011;
0156825710999992005100112004-05500-045267FM-12+015399999V0203201N002112200019N0100001N1+02791+02271101411ADDGF102991021021004501001001KA1240N+02361MA1999999099681MD1999999-0051REMSYN076AAXX  01124 82571 32497 23204 10279 20227 39968 40141 82200 333 20236 59005;
0137825710999992005100118004-05500-045267FM-12+015399999V0200501N001512200019N0100001N1+03601+01901100781ADDGF103991031021004501001001MA1999999099081MD1999999-0111REMSYN070AAXX  01184 82571 32497 30503 10360 20190 39908 40078 83200 333 59011;
0178825710999992005100200004-05500-045267FM-12+015399999V0209999C000012200019N0100001N1+03121+02281101011ADDGA1001+999999999GF100991001001999999001001KA1240M+03771MA1999999099291MD1999999-0061REMSYN082AAXX  02004 82571 32997 03600 10312 20228 39929 40101 333 10377 29058 55091 59006;
0156825710999992005100212004-05500-045267FM-12+015399999V0200501N002110042019N0100001N1+02771+02181101291ADDGF108991081051004501999999KA1240N+02521MA1999999099571MD1999999-0111REMSYN076AAXX  02124 82571 32497 80504 10277 20218 39957 40129 885// 333 20252 59011;
0137825710999992005100218004-05500-045267FM-12+015399999V0200901N002612200019N0100001N1+03571+01971100691ADDGF103991031021004501001001MA1999999099001MD1999999-0081REMSYN070AAXX  02184 82571 32497 30905 10357 20197 39900 40069 83200 333 59008;
0178825710999992005100300004-05500-045267FM-12+015399999V0209999C000012200019N0100001N1+03091+02231100841ADDGA1001+999999999GF100991001001999999001001KA1240M+03731MA1999999099131MD1999999-0161REMSYN082AAXX  03004 82571 32997 00000 10309 20223 39913 40084 333 10373 29059 55075 59016;
0156825710999992005100312004-05500-045267FM-12+015399999V0200501N002610042019N0100001N1+02731+02171101261ADDGF107991071051004501001001KA1240N+02561MA1999999099541MD1999999-0031REMSYN076AAXX  03124 82571 32497 70505 10273 20217 39954 40126 87500 333 20256 59003;
0137825710999992005100318004-05500-045267FM-12+015399999V0200901N002612200019N0100001N1+03521+02071100651ADDGF102991021021004501001001MA1999999098951MD1999999+0051REMSYN070AAXX  03184 82571 32497 20905 10352 20207 39895 40065 82200 333 58005;
0178825710999992005100400004-05500-045267FM-12+015399999V0201301N001012200019N0100001N1+03151+02171100761ADDGA1001+999999999GF100991001001999999001001KA1240M+03681MA1999999099051MD1999999-0081REMSYN082AAXX  04004 82571 32997 01302 10315 20217 39905 40076 333 10368 29056 55071 59008;
0156825710999992005100412004-05500-045267FM-12+015399999V0200501N003610042019N0100001N1+02721+02151101181ADDGF108991081051004501999999KA1240N+02531MA1999999099461MD1999999-0081REMSYN076AAXX  04124 82571 32497 80507 10272 20215 39946 40118 885// 333 20253 59008;
0137825710999992005100418004-05500-045267FM-12+015399999V0203201N001012200019N0100001N1+03421+02091100811ADDGF104991031021004501001011MA1999999099111MD1999999+0161REMSYN070AAXX  04184 82571 32497 43202 10342 20209 39911 40081 83201 333 58016;
0168825710999992005100500004-05500-045267FM-12+015399999V0200501N002112200019N0100001N1+03011+02131100981ADDGF102991021001017501011001KA1240M+03571MA1999999099261MD1999999+0211REMSYN088AAXX  05004 82571 32797 20504 10301 20213 39926 40098 82010 333 10357 29059 55043 58021;
0156825710999992005100512004-05500-045267FM-12+015399999V0200501N002110450019N0100001N1+02701+02201101261ADDGF107991021021004501051001KA1240N+02371MA1999999099531MD1999999+0071REMSYN076AAXX  05124 82571 32497 70504 10270 20220 39953 40126 82250 333 20237 58007;
0137825710999992005100518004-05500-045267FM-12+015399999V0201801N002612200019N0100001N1+03601+01861100731ADDGF104991031021004501011001MA1999999099031MD1999999-0081REMSYN070AAXX  05184 82571 32497 41805 10360 20186 39903 40073 83210 333 59008;
0178825710999992005100600004-05500-045267FM-12+015399999V0200501N000512200019N0100001N1+03091+02191100941ADDGA1001+999999999GF100991001001999999001001KA1240M+03671MA1999999099221MD1999999-0041REMSYN082AAXX  06004 82571 32997 00501 10309 20219 39922 40094 333 10367 29058 55067 59004;
0156825710999992005100612004-05500-045267FM-12+015399999V0201401N002112200019N0100001N1+03001+02171101261ADDGF102991011011004501001011KA1240N+02571MA1999999099551MD1999999+0021REMSYN076AAXX  06124 82571 32497 21404 10300 20217 39955 40126 81101 333 20257 58002;
0137825710999992005100618004-05500-045267FM-12+015399999V0200901N004612200019N0100001N1+03621+01831100781ADDGF103991031021004501001001MA1999999099081MD1999999+0051REMSYN070AAXX  06184 82571 32497 30909 10362 20183 39908 40078 83200 333 58005;
0178825710999992005100700004-05500-045267FM-12+015399999V0200501N000512200019N0100001N1+03081+01951100971ADDGA1001+999999999GF100991001001999999001001KA1240M+03701MA1999999099261MD1999999+0041REMSYN082AAXX  07004 82571 32997 00501 10308 20195 39926 40097 333 10370 29050 55106 58004;
0156825710999992005100712004-05500-045267FM-12+015399999V0200901N004112200019N0100001N1+02831+02171101331ADDGF104991021021004501011011KA1240N+02461MA1999999099611MD1999999+0061REMSYN076AAXX  07124 82571 32497 40908 10283 20217 39961 40133 82211 333 20246 58006;
0137825710999992005100718004-05500-045267FM-12+015399999V0201401N004110450019N0100001N1+03481+01711100841ADDGF107991021021004501071011MA1999999099141MD1999999+0061REMSYN070AAXX  07184 82571 32497 71408 10348 20171 39914 40084 82271 333 58006;
0178825710999992005100800004-05500-045267FM-12+015399999V0201401N002112200019N0100001N1+02991+02031101071ADDGA1001+999999999GF100991001001999999001001KA1240M+03651MA1999999099351MD1999999+0041REMSYN082AAXX  08004 82571 32997 01404 10299 20203 39935 40107 333 10365 29054 55056 58004;
0166825710999992005100812004-05500-045267FM-12+015399999V0200901N002112200019N0100001N1+02851+02031101401ADDGA1001+999999999GF100991001001999999001001KA1240N+02431MA1999999099671MD1999999+0061REMSYN070AAXX  08124 82571 32997 00904 10285 20203 39967 40140 333 20243 58006;
0137825710999992005100818004-05500-045267FM-12+015399999V0200901N003612200019N0100001N1+03671+01641100811ADDGF102991021021004501001001MA1999999099111MD1999999-0031REMSYN070AAXX  08184 82571 32497 20907 10367 20164 39911 40081 82200 333 59003;
0178825710999992005100900004-05500-045267FM-12+015399999V0201401N002112200019N0100001N1+03071+01711101071ADDGA1001+999999999GF100991001001999999001001KA1240M+03751MA1999999099351MD1999999+0001REMSYN082AAXX  09004 82571 32997 01404 10307 20171 39935 40107 333 10375 29045 55090 58000;
0166825710999992005100912004-05500-045267FM-12+015399999V0200501N002112200019N0100001N1+02791+02131101371ADDGA1001+999999999GF100991001001999999001001KA1240N+02341MA1999999099651MD1999999-0021REMSYN070AAXX  09124 82571 32997 00504 10279 20213 39965 40137 333 20234 59002;
0137825710999992005100918004-05500-045267FM-12+015399999V0200901N002110450019N0100001N1+03591+01671100821ADDGF106991041021004501031001MA1999999099121MD1999999+0011REMSYN070AAXX  09184 82571 32497 60904 10359 20167 39912 40082 84230 333 58001;
0178825710999992005101000004-05500-045267FM-12+015399999V0203601N001012200019N0100001N1+02991+02051100961ADDGA1001+999999999GF100991001001999999001001KA1240M+03801MA1999999099241MD1999999-0111REMSYN082AAXX  10004 82571 32997 03602 10299 20205 39924 40096 333 10380 29053 55073 59011;
0156825710999992005101012004-05500-045267FM-12+015399999V0200501N002610042019N0100001N1+02851+02211101231ADDGF106991061051004501001001KA1240N+02461MA1999999099511MD1999999-0141REMSYN076AAXX  10124 82571 32497 60505 10285 20221 39951 40123 86500 333 20246 59014;
0137825710999992005101018004-05500-045267FM-12+015399999V0200901N002612200019N0100001N1+03491+02021100721ADDGF104991041021004501001001MA1999999099021MD1999999-0101REMSYN070AAXX  10184 82571 32497 40905 10349 20202 39902 40072 84200 333 59010;
0178825710999992005101100004-05500-045267FM-12+015399999V0203601N000512200019N0100001N1+03071+02271100921ADDGA1001+999999999GF100991001001999999001001KA1240M+03651MA1999999099211MD1999999-0031REMSYN082AAXX  11004 82571 32997 03601 10307 20227 39921 40092 333 10365 29058 55076 59003;
0156825710999992005101112004-05500-045267FM-12+015399999V0200501N003610042019N0100001N1+02731+02211101261ADDGF108991081051004501999999KA1240N+02611MA1999999099541MD1999999+0031REMSYN076AAXX  11124 82571 32497 80507 10273 20221 39954 40126 885// 333 20261 58003;
0137825710999992005101118004-05500-045267FM-12+015399999V0203601N002110450019N0100001N1+03431+02071100811ADDGF106991041021004501041001MA1999999099111MD1999999+0091REMSYN070AAXX  11184 82571 32497 63604 10343 20207 39911 40081 84240 333 58009;
0196825710999992005101200004-05500-045267FM-12+015399999V0200501N002112200019N0100001N1+02911+02141100981ADDAY111061AY201061GF104991011031004501011001KA1240M+03581MA1999999099251MD1999999+0041MW1131REMSYN094AAXX  12004 82571 31497 40504 10291 20214 39925 40098 71310 81310 333 10358 29061 55037 58004;
0156825710999992005101212004-05500-045267FM-12+015399999V0200501N003110042019N0100001N1+02591+02191101391ADDGF108991081041004501999999KA1240N+02421MA1999999099651MD1999999+0111REMSYN076AAXX  12124 82571 32497 80506 10259 20219 39965 40139 884// 333 20242 58011;
0137825710999992005101218004-05500-045267FM-12+015399999V0203201N002110450019N0100001N1+03321+02141100861ADDGF106991021021004501031011MA1999999099131MD1999999+0021REMSYN070AAXX  12184 82571 32497 63204 10332 20214 39913 40086 82231 333 58002;
0178825710999992005101300004-05500-045267FM-12+015399999V0203601N001012200019N0100001N1+02931+02191100981ADDGA1001+999999999GF100991001001999999001001KA1240M+03431MA1999999099251MD1999999+0001REMSYN082AAXX  13004 82571 32997 03602 10293 20219 39925 40098 333 10343 29064 55032 58000;
0156825710999992005101312004-05500-045267FM-12+015399999V0200501N002610090019N0100001N1+02771+02181101331ADDGF106991061081004501001001KA1240N+02441MA1999999099601MD1999999-0051REMSYN076AAXX  13124 82571 32497 60505 10277 20218 39960 40133 86800 333 20244 59005;
0182825710999992005101318004-05500-045267FM-12+015399999V0203601N003112200019N0100001N1+03391+02041100731ADDAA106003091AY161061AY211061GF104991021021004501031011MA1999999099031MD1999999-0101MW1011REMSYN082AAXX  13184 82571 21497 43606 10339 20204 39903 40073 70161 82231 333 59010 60031;
0168825710999992005101400004-05500-045267FM-12+015399999V0209999C000012200019N0100001N1+02971+02351100911ADDGF103991031001017501011001KA1240M+03501MA1999999099191MD1999999-0061REMSYN088AAXX  14004 82571 32797 30000 10297 20235 39919 40091 83010 333 10350 29063 55057 59006;
0173825710999992005101412004-05500-045267FM-12+015399999V0200501N002110042019N0100001N1+02751+02141101311ADDAA124003091GF108991081051004501999999KA1240N+02481MA1999999099581MD1999999-0021REMSYN082AAXX  14124 82571 22497 80504 10275 20214 39958 40131 885// 333 20248 59002 60034;
0137825710999992005101418004-05500-045267FM-12+015399999V0200901N001512200019N0100001N1+03431+02071100781ADDGF103991031021004501001001MA1999999099081MD1999999-0051REMSYN070AAXX  14184 82571 32497 30903 10343 20207 39908 40078 83200 333 59005;
0178825710999992005101500004-05500-045267FM-12+015399999V0209999C000012200019N0100001N1+03121+02221100911ADDGA1001+999999999GF100991001001999999001001KA1240M+03581MA1999999099201MD1999999+0011REMSYN082AAXX  15004 82571 32997 00000 10312 20222 39920 40091 333 10358 29058 55072 58001;
0175825710999992005101512004-05500-045267FM-12+015399999V0200501N002612200019N0100001N1+02831+02141101181ADDGF102991999001004501061041KA1240N+02371MA1999999099461MD1999999-0121REMSYN076AAXX  15124 82571 32497 20505 10283 20214 39946 40118 86064 333 20237 59012;EQDQ01+000062SCOTLC
0137825710999992005101518004-05500-045267FM-12+015399999V0201401N002112200019N0100001N1+03671+01791100621ADDGF102991021021004501001001MA1999999098931MD1999999-0151REMSYN070AAXX  15184 82571 32497 21404 10367 20179 39893 40062 82200 333 59015;
0168825710999992005101600004-05500-045267FM-12+015399999V0200501N001512200019N0100001N1+03091+01901100751ADDGF102991021001017501031001KA1240M+03821MA1999999099041MD1999999-0161REMSYN088AAXX  16004 82571 32797 20503 10309 20190 39904 40075 82030 333 10382 29049 55092 59016;
0156825710999992005101612004-05500-045267FM-12+015399999V0200501N002112200019N0100001N1+02811+02021101211ADDGF101991011011004501001001KA1240N+02401MA1999999099491MD1999999+0031REMSYN076AAXX  16124 82571 32497 10504 10281 20202 39949 40121 81100 333 20240 58003;
0137825710999992005101618004-05500-045267FM-12+015399999V0200901N003112200019N0100001N1+03691+01851100631ADDGF102991021021004501001001MA1999999098941MD1999999+0011REMSYN070AAXX  16184 82571 32497 20906 10369 20185 39894 40063 82200 333 58001;
0178825710999992005101700004-05500-045267FM-12+015399999V0200501N002112200019N0100001N1+03051+01901100861ADDGA1001+999999999GF100991001001999999001001KA1240M+03801MA1999999099151MD1999999+0111REMSYN082AAXX  17004 82571 32997 00504 10305 20190 39915 40086 333 10380 29049 55100 58011;
0156825710999992005101712004-05500-045267FM-12+015399999V0203601N002110042019N0100001N1+02771+02211101261ADDGF106991061021004501001001KA1240N+02471MA1999999099541MD1999999+0051REMSYN076AAXX  17124 82571 32497 63604 10277 20221 39954 40126 86200 333 20247 58005;
0137825710999992005101718004-05500-045267FM-12+015399999V0200901N001512200019N0100001N1+03581+01881100711ADDGF104991041021004501001001MA1999999099011MD1999999+0071REMSYN070AAXX  17184 82571 32497 40903 10358 20188 39901 40071 84200 333 58007;
0149825710999992005101800004-05500-045270FM-12+015399999V0200501N001012200019N0100001N1+03071+01951100871ADDGF100991001001999999001001MA1999999099151MD1999999+0001REMSYN082AAXX  18004 82571 32997 00502 10307 20195 39915 40087 333 10375 29052 55067 58000;
0137825710999992005101818004-05500-045267FM-12+015399999V0203601N002112200019N0100001N1+03371+02091100851ADDGF103991011011004501011011MA1999999099151MD1999999+0141REMSYN070AAXX  18184 82571 32497 33604 10337 20209 39915 40085 81111 333 58014;
0168825710999992005101900004-05500-045267FM-12+015399999V0203201N001012200019N0100001N1+03011+02311100991ADDGF103991031001017501011001KA1240M+03531MA1999999099271MD1999999+0121REMSYN088AAXX  19004 82571 32797 33202 10301 20231 39927 40099 83010 333 10353 29063 55035 58012;
0156825710999992005101912004-05500-045267FM-12+015399999V0200501N002112200019N0100001N1+02761+02141101291ADDGF104991041021004501001001KA1240N+02401MA1999999099561MD1999999-0021REMSYN076AAXX  19124 82571 32497 40504 10276 20214 39956 40129 84200 333 20240 59002;
0137825710999992005101918004-05500-045267FM-12+015399999V0200901N002112200019N0100001N1+03571+02011100761ADDGF103991031021004501001001MA1999999099061MD1999999-0091REMSYN070AAXX  19184 82571 32497 30904 10357 20201 39906 40076 83200 333 59009;
0168825710999992005102000004-05500-045267FM-12+015399999V0200501N000512200019N0100001N1+03131+02271100861ADDGF102991021001017501011001KA1240M+03671MA1999999099151MD1999999-0121REMSYN088AAXX  20004 82571 32797 20501 10313 20227 39915 40086 82010 333 10367 29057 55097 59012;
0156825710999992005102012004-05500-045267FM-12+015399999V0200901N003110042019N0100001N1+02821+02151101251ADDGF106991061021004501001001KA1240N+02471MA1999999099531MD1999999-0031REMSYN076AAXX  20124 82571 32497 60906 10282 20215 39953 40125 86200 333 20247 59003;
0137825710999992005102018004-05500-045267FM-12+015399999V0201401N002612200019N0100001N1+03581+01931100591ADDGF104991041021004501001001MA1999999098901MD1999999-0161REMSYN070AAXX  20184 82571 32497 41405 10358 20193 39890 40059 84200 333 59016;
0178825710999992005102100004-05500-045267FM-12+015399999V0200501N001012200019N0100001N1+03131+02041100781ADDGA1001+999999999GF100991001001999999001001KA1240M+03751MA1999999099071MD1999999-0081REMSYN082AAXX  21004 82571 32997 00502 10313 20204 39907 40078 333 10375 29052 55079 59008;
0156825710999992005102112004-05500-045267FM-12+015399999V0200901N001510042019N0100001N1+02761+02191101231ADDGF105991051021004501001001KA1240N+02501MA1999999099511MD1999999-0021REMSYN076AAXX  21124 82571 32497 50903 10276 20219 39951 40123 85200 333 20250 59002;
0137825710999992005102118004-05500-045267FM-12+015399999V0200901N002110042019N0100001N1+03521+01831100661ADDGF105991051021004501001001MA1999999098961MD1999999+0061REMSYN070AAXX  21184 82571 32497 50904 10352 20183 39896 40066 85200 333 58006;
0178825710999992005102200004-05500-045267FM-12+015399999V0200501N001512200019N0100001N1+03071+01921100831ADDGA1001+999999999GF100991001001999999001001KA1240M+03621MA1999999099111MD1999999+0041REMSYN082AAXX  22004 82571 32997 00503 10307 20192 39911 40083 333 10362 29052 55062 58004;
0156825710999992005102212004-05500-045267FM-12+015399999V0200901N002612200019N0100001N1+02891+02121101221ADDGF103991031001017501051001KA1240N+02511MA1999999099501MD1999999-0011REMSYN076AAXX  22124 82571 32797 30905 10289 20212 39950 40122 83050 333 20251 59001;
0137825710999992005102218004-05500-045267FM-12+015399999V0200901N002112200019N0100001N1+03591+02771100701ADDGF104991041021004501001001MA1999999099011MD1999999+0051REMSYN070AAXX  22184 82571 32497 40904 10359 20277 39901 40070 84200 333 58005;
0166825710999992005102312004-05500-045267FM-12+015399999V0200901N003112200019N0100001N1+02871+02081101241ADDGA1001+999999999GF100991001001999999001001KA1240N+02461MA1999999099521MD1999999+0021REMSYN070AAXX  23124 82571 32997 00906 10287 20208 39952 40124 333 20246 58002;
0137825710999992005102318004-05500-045267FM-12+015399999V0200901N003112200019N0100001N1+03531+01801100681ADDGF103991031021004501001001MA1999999098981MD1999999-0031REMSYN070AAXX  23184 82571 32497 30906 10353 20180 39898 40068 83200 333 59003;
0168825710999992005102400004-05500-045267FM-12+015399999V0203601N000512200019N0100001N1+03081+02041100861ADDGF102991021001017501031001KA1240M+03671MA1999999099151MD1999999-0011REMSYN088AAXX  24004 82571 32797 23601 10308 20204 39915 40086 82030 333 10367 29052 55090 59001;
0156825710999992005102412004-05500-045267FM-12+015399999V0200501N002612200019N0100001N1+02911+02121101291ADDGF103991011011004501001011KA1240N+02481MA1999999099571MD1999999-0051REMSYN076AAXX  24124 82571 32497 30505 10291 20212 39957 40129 81101 333 20248 59005;
0137825710999992005102418004-05500-045267FM-12+015399999V0201401N002112200019N0100001N1+03571+01971100661ADDGF103991031021004501001001MA1999999098971MD1999999-0011REMSYN070AAXX  24184 82571 32497 31404 10357 20197 39897 40066 83200 333 59001;
0178825710999992005102500004-05500-045267FM-12+015399999V0203601N000512200019N0100001N1+03071+02131100781ADDGA1001+999999999GF100991001001999999001001KA1240M+03661MA1999999099071MD1999999-0081REMSYN082AAXX  25004 82571 32997 03601 10307 20213 39907 40078 333 10366 29054 55094 59008;
0156825710999992005102512004-05500-045267FM-12+015399999V0200501N002110042019N0100001N1+02721+02101101281ADDGF106991051021004501001011KA1240N+02401MA1999999099551MD1999999-0021REMSYN076AAXX  25124 82571 32497 60504 10272 20210 39955 40128 85201 333 20240 59002;
0137825710999992005102518004-05500-045267FM-12+015399999V0202701N001512200019N0100001N1+03591+02031100661ADDGF104991041021004501001001MA1999999098961MD1999999-0011REMSYN070AAXX  25184 82571 32497 42703 10359 20203 39896 40066 84200 333 59001;
0178825710999992005102600004-05500-045267FM-12+015399999V0200501N002112200019N0100001N1+03071+02011100831ADDGA1001+999999999GF100991001001999999001001KA1240M+03731MA1999999099111MD1999999+0041REMSYN082AAXX  26004 82571 32997 00504 10307 20201 39911 40083 333 10373 29054 55080 58004;
0156825710999992005102612004-05500-045267FM-12+015399999V0200501N001510042019N0100001N1+02831+02141101291ADDGF106991061021004501001001KA1240N+02581MA1999999099571MD1999999+0021REMSYN076AAXX  26124 82571 32497 60503 10283 20214 39957 40129 86200 333 20258 58002;
0137825710999992005102618004-05500-045267FM-12+015399999V0200501N001512200019N0100001N1+03621+02001100681ADDGF103991031021004501001001MA1999999098991MD1999999+0031REMSYN070AAXX  26184 82571 32497 30503 10362 20200 39899 40068 83200 333 58003;
0178825710999992005102700004-05500-045267FM-12+015399999V0200501N001012200019N0100001N1+03101+02181100901ADDGA1001+999999999GF100991001001999999001001KA1240M+03681MA1999999099191MD1999999+0081REMSYN082AAXX  27004 82571 32997 00502 10310 20218 39919 40090 333 10368 29055 55083 58008;
0156825710999992005102712004-05500-045267FM-12+015399999V0203601N003110042019N0100001N1+02771+02161101311ADDGF107991071051004501001001KA1240N+02561MA1999999099591MD1999999+0021REMSYN076AAXX  27124 82571 32497 73606 10277 20216 39959 40131 87500 333 20256 58002;
0137825710999992005102718004-05500-045267FM-12+015399999V0200901N002110042019N0100001N1+03281+02071100861ADDGF106991051021004501011001MA1999999099151MD1999999+0161REMSYN070AAXX  27184 82571 32497 60904 10328 20207 39915 40086 85210 333 58016;
0168825710999992005102800004-05500-045267FM-12+015399999V0200501N001012200019N0100001N1+02891+02121101031ADDGF102991021001017501011001KA1240M+03431MA1999999099311MD1999999+0191REMSYN088AAXX  28004 82571 32797 20502 10289 20212 39931 40103 82010 333 10343 29061 55036 58019;
0156825710999992005102812004-05500-045267FM-12+015399999V0200501N004612200019N0100001N1+02791+02031101241ADDGF104991031021004501001011KA1240N+02401MA1999999099511MD1999999-0081REMSYN076AAXX  28124 82571 32497 40509 10279 20203 39951 40124 83201 333 20240 59008;
0137825710999992005102818004-05500-045267FM-12+015399999V0200501N002610042019N0100001N1+03521+01911100661ADDGF105991051021004501001001MA1999999098961MD1999999-0191REMSYN070AAXX  28184 82571 32497 50505 10352 20191 39896 40066 85200 333 59019;
0178825710999992005102900004-05500-045267FM-12+015399999V0200501N001012200019N0100001N1+03071+02071100881ADDGA1001+999999999GF100991001001999999001001KA1240M+03631MA1999999099171MD1999999-0141REMSYN082AAXX  29004 82571 32997 00502 10307 20207 39917 40088 333 10363 29053 55094 59014;
0156825710999992005102912004-05500-045267FM-12+015399999V0200501N004112200019N0100001N1+02831+02091101261ADDGF102991021011004501001001KA1240N+02471MA1999999099541MD1999999+0031REMSYN076AAXX  29124 82571 32497 20508 10283 20209 39954 40126 82100 333 20247 58003;
0137825710999992005102918004-05500-045267FM-12+015399999V0200901N003112200019N0100001N1+03691+01941100621ADDGF102991021021004501001001MA1999999098931MD1999999-0031REMSYN070AAXX  29184 82571 32497 20906 10369 20194 39893 40062 82200 333 59003;
0156825710999992005103012004-05500-045267FM-12+015399999V0200501N003112200019N0100001N1+02771+02111101221ADDGF102991021021004501001001KA1240N+02401MA1999999099501MD1999999-0041REMSYN076AAXX  30124 82571 32497 20506 10277 20211 39950 40122 82200 333 20240 59004;
0137825710999992005103018004-05500-045267FM-12+015399999V0202701N001012200019N0100001N1+03791+01941100741ADDGF103991031021004501001001MA1999999099051MD1999999+0121REMSYN070AAXX  30184 82571 32497 32702 10379 20194 39905 40074 83200 333 58012;
0178825710999992005103100004-05500-045267FM-12+015399999V0203601N001012200019N0100001N1+03231+02131100891ADDGA1001+999999999GF100991001001999999001001KA1240M+03861MA1999999099181MD1999999+0011REMSYN082AAXX  31004 82571 32997 03602 10323 20213 39918 40089 333 10386 29051 55099 58001;
0156825710999992005103112004-05500-045267FM-12+015399999V0200501N002110042019N0100001N1+02801+02131101341ADDGF107991061021004501011001KA1240N+02561MA1999999099621MD1999999+0121REMSYN076AAXX  31124 82571 32497 70504 10280 20213 39962 40134 86210 333 20256 58012;
0137825710999992005103118004-05500-045267FM-12+015399999V0203601N001010450019N0100001N1+03491+02201100901ADDGF107991041021004501031001MA1999999099201MD1999999+0151REMSYN070AAXX  31184 82571 32497 73602 10349 20220 39920 40090 84230 333 58015;
0196825710999992005110100004-05500-045267FM-12+015399999V0203201N001012200019N0100001N1+02791+02251101231ADDAY191061AY221061GF104991041001017501071001KA1240M+03561MA1999999099501MD1999999+0321MW1011REMSYN094AAXX  01004 82571 31797 43202 10279 20225 39950 40123 70192 84070 333 10356 29064 55040 58032;
0201825710999992005110112004-05500-045267FM-12+015399999V0200501N003610450019N0100001N1+02671+02201101451ADDAA124000021AY121061AY221061GF107991041051004501051001KA1240N+02481MA1999999099711MD1999999+0091MW1811REMSYN088AAXX  01124 82571 21497 70507 10267 20220 39971 40145 78122 84550 333 20248 58009 69924;
0137825710999992005110118004-05500-045267FM-12+015399999V0200501N002612200019N0100001N1+03451+02061100901ADDGF104991041021004501001001MA1999999099191MD1999999-0011REMSYN070AAXX  01184 82571 32497 40505 10345 20206 39919 40090 84200 333 59001;
0178825710999992005110200004-05500-045267FM-12+015399999V0202701N001512200019N0100001N1+02961+02211101041ADDGA1001+999999999GF100991001001999999001001KA1240M+03571MA1999999099311MD1999999-0191REMSYN082AAXX  02004 82571 32997 02703 10296 20221 39931 40104 333 10357 29062 55065 59019;
0156825710999992005110212004-05500-045267FM-12+015399999V0200501N003612200019N0100001N1+02871+02101101361ADDGF102991011011004501001011KA1240N+02491MA1999999099631MD1999999-0081REMSYN076AAXX  02124 82571 32497 20507 10287 20210 39963 40136 81101 333 20249 59008;
0137825710999992005110218004-05500-045267FM-12+015399999V0200501N003112200019N0100001N1+03591+01991100861ADDGF106991041021004501001011MA1999999099161MD1999999-0031REMSYN070AAXX  02184 82571 32497 60506 10359 20199 39916 40086 84201 333 59003;
0178825710999992005110300004-05500-045267FM-12+015399999V0200501N001512200019N0100001N1+03091+02091101071ADDGA1001+999999999GF100991001001999999001001KA1240M+03671MA1999999099361MD1999999+0051REMSYN082AAXX  03004 82571 32997 00503 10309 20209 39936 40107 333 10367 29053 55090 58005;
0156825710999992005110312004-05500-045267FM-12+015399999V0203601N002112200019N0100001N1+02831+02171101401ADDGF103991011011004501011001KA1240N+02561MA1999999099681MD1999999+0051REMSYN076AAXX  03124 82571 32497 33604 10283 20217 39968 40140 81110 333 20256 58005;
0137825710999992005110318004-05500-045267FM-12+015399999V0203601N001012200019N0100001N1+03661+02121100791ADDGF104991031021004501001011MA1999999099101MD1999999-0061REMSYN070AAXX  03184 82571 32497 43602 10366 20212 39910 40079 83201 333 59006;
0178825710999992005110400004-05500-045267FM-12+015399999V0203601N000512200019N0100001N1+03191+02181100911ADDGA1001+999999999GF100991001001999999001001KA1240M+03801MA1999999099201MD1999999-0161REMSYN082AAXX  04004 82571 32997 03601 10319 20218 39920 40091 333 10380 29054 55086 59016;
0156825710999992005110412004-05500-045267FM-12+015399999V0203601N002610042019N0100001N1+02931+02241101221ADDGF105991051021004501001001KA1240N+02621MA1999999099511MD1999999-0171REMSYN076AAXX  04124 82571 32497 53605 10293 20224 39951 40122 85200 333 20262 59017;
0137825710999992005110418004-05500-045267FM-12+015399999V0200901N002612200019N0100001N1+03461+02021100691ADDGF104991031021004501011001MA1999999099001MD1999999-0101REMSYN070AAXX  04184 82571 32497 40905 10346 20202 39900 40069 83210 333 59010;
0178825710999992005110500004-05500-045267FM-12+015399999V0209999C000012200019N0100001N1+03071+02211100841ADDGA1001+999999999GF100991001001999999001001KA1240M+03571MA1999999099131MD1999999-0071REMSYN082AAXX  05004 82571 32997 00000 10307 20221 39913 40084 333 10357 29057 55089 59007;
0156825710999992005110512004-05500-045267FM-12+015399999V0200501N003110042019N0100001N1+02751+02121101141ADDGF108991081051004501999999KA1240N+02601MA1999999099421MD1999999-0091REMSYN076AAXX  05124 82571 32497 80506 10275 20212 39942 40114 885// 333 20260 59009;
0137825710999992005110518004-05500-045267FM-12+015399999V0200501N002612200019N0100001N1+03491+01941100661ADDGF103991021021004501001011MA1999999098961MD1999999-0041REMSYN070AAXX  05184 82571 32497 30505 10349 20194 39896 40066 82201 333 59004;
0178825710999992005110600004-05500-045267FM-12+015399999V0209999C000012200019N0100001N1+03031+02151100751ADDGA1001+999999999GF100991001001999999001001KA1240M+03671MA1999999099041MD1999999-0091REMSYN082AAXX  06004 82571 32997 00000 10303 20215 39904 40075 333 10367 29056 55065 59009;
0156825710999992005110612004-05500-045267FM-12+015399999V0200501N003612200019N0100001N1+02871+01971101171ADDGF103991021011004501031001KA1240N+02451MA1999999099451MD1999999+0031REMSYN076AAXX  06124 82571 32497 30507 10287 20197 39945 40117 82130 333 20245 58003;
0156825710999992005110618004-05500-045267FM-12+015399999V0201801N003119999999N0100001N1+03531+01801100701ADDGF105991999021004501001001MA1999999099001MD1999999+0041REMSYN070AAXX  06184 82571 32497 51806 10353 20180 39900 40070 82200 333 58004;EQDQ01+000022SCOTLC
0178825710999992005110700004-05500-045267FM-12+015399999V0200501N000512200019N0100001N1+03071+02011100781ADDGA1001+999999999GF100991001001999999001001KA1240M+03651MA1999999099071MD1999999+0031REMSYN082AAXX  07004 82571 32997 00501 10307 20201 39907 40078 333 10365 29050 55096 58003;
0137825710999992005110718004-05500-045267FM-12+015399999V0200901N003112200019N0100001N1+03701+01761100581ADDGF103991031021004501001001MA1999999098891MD1999999-0111REMSYN070AAXX  07184 82571 32497 30906 10370 20176 39889 40058 83200 333 59011;
0156825710999992005110812004-05500-045267FM-12+015399999V0200501N002612200019N0100001N1+02901+02121101151ADDGF102991011011004501001011KA1240N+02611MA1999999099441MD1999999+0041REMSYN076AAXX  08124 82571 32497 20505 10290 20212 39944 40115 81101 333 20261 58004;
0137825710999992005110818004-05500-045267FM-12+015399999V0200501N002112200019N0100001N1+03691+01761100601ADDGF103991031021004501001001MA1999999098921MD1999999+0031REMSYN070AAXX  08184 82571 32497 30504 10369 20176 39892 40060 83200 333 58003;
0178825710999992005110900004-05500-045267FM-12+015399999V0200501N001012200019N0100001N1+03171+02041100701ADDGA1001+999999999GF100991001001999999001001KA1240M+03841MA1999999099001MD1999999+0021REMSYN082AAXX  09004 82571 32997 00502 10317 20204 39900 40070 333 10384 29049 55104 58002;
0156825710999992005110912004-05500-045267FM-12+015399999V0200501N002610042019N0100001N1+02811+02151101191ADDGF106991061021004501001001KA1240N+02551MA1999999099471MD1999999+0031REMSYN076AAXX  09124 82571 32497 60505 10281 20215 39947 40119 86200 333 20255 58003;
0137825710999992005110918004-05500-045267FM-12+015399999V0200501N002110450019N0100001N1+03601+02031100581ADDGF106991031021004501011001MA1999999098891MD1999999-0031REMSYN070AAXX  09184 82571 32497 60504 10360 20203 39889 40058 83210 333 59003;
0178825710999992005111000004-05500-045267FM-12+015399999V0203601N001012200019N0100001N1+03131+02181100701ADDGA1001+999999999GF100991001001999999001001KA1240M+03751MA1999999098991MD1999999-0011REMSYN082AAXX  10004 82571 32997 03602 10313 20218 39899 40070 333 10375 29055 55083 59001;
0156825710999992005111012004-05500-045267FM-12+015399999V0203601N002610042019N0100001N1+02821+02201101131ADDGF107991061051004501031001KA1240N+02571MA1999999099421MD1999999-0051REMSYN076AAXX  10124 82571 32497 73605 10282 20220 39942 40113 86530 333 20257 59005;
0137825710999992005111018004-05500-045267FM-12+015399999V0200901N001012200019N0100001N1+03451+02201100621ADDGF104991031021004501011001MA1999999098921MD1999999+0031REMSYN070AAXX  10184 82571 32497 40902 10345 20220 39892 40062 83210 333 58003;
0168825710999992005111100004-05500-045267FM-12+015399999V0209999C000012200019N0100001N1+03111+02331100711ADDGF102991021001017501011001KA1240M+03651MA1999999099001MD1999999+0011REMSYN088AAXX  11004 82571 32797 20000 10311 20233 39900 40071 82010 333 10365 29061 55048 58001;
0156825710999992005111112004-05500-045267FM-12+015399999V0200501N002110042019N0100001N1+02741+02211101141ADDGF108991081051004501999999KA1240N+02531MA1999999099421MD1999999+0001REMSYN076AAXX  11124 82571 32497 80504 10274 20221 39942 40114 885// 333 20253 58000;
0137825710999992005111118004-05500-045267FM-12+015399999V0202701N001012200019N0100001N1+03451+02261100611ADDGF104991031021004501031001MA1999999098911MD1999999-0011REMSYN070AAXX  11184 82571 32497 42702 10345 20226 39891 40061 83230 333 59001;
0168825710999992005111200004-05500-045267FM-12+015399999V0201401N000512200019N0100001N1+02931+02261100801ADDGF102991021001017501051001KA1240M+03561MA1999999099081MD1999999+0081REMSYN088AAXX  12004 82571 32797 21401 10293 20226 39908 40080 82050 333 10356 29064 55036 58008;
0156825710999992005111212004-05500-045267FM-12+015399999V0200901N002110042019N0100001N1+02791+02181101041ADDGF106991061021004501001001KA1240N+02551MA1999999099321MD1999999-0101REMSYN076AAXX  12124 82571 32497 60904 10279 20218 39932 40104 86200 333 20255 59010;
0137825710999992005111218004-05500-045267FM-12+015399999V0200901N002112200019N0100001N1+03511+02071100531ADDGF103991031021004501001001MA1999999098831MD1999999-0081REMSYN070AAXX  12184 82571 32497 30904 10351 20207 39883 40053 83200 333 59008;
0168825710999992005111300004-05500-045267FM-12+015399999V0202701N000512200019N0100001N1+03011+02261100711ADDGF102991021001017501031001KA1240M+03601MA1999999099001MD1999999-0081REMSYN088AAXX  13004 82571 32797 22701 10301 20226 39900 40071 82030 333 10360 29060 55059 59008;
0156825710999992005111312004-05500-045267FM-12+015399999V0200501N003610042019N0100001N1+02771+02161101041ADDGF108991081051004501999999KA1240N+02531MA1999999099321MD1999999+0001REMSYN076AAXX  13124 82571 32497 80507 10277 20216 39932 40104 885// 333 20253 58000;
0137825710999992005111318004-05500-045267FM-12+015399999V0203601N002110042019N0100001N1+03551+02071100561ADDGF106991061021004501001001MA1999999098861MD1999999+0031REMSYN070AAXX  13184 82571 32497 63604 10355 20207 39886 40056 86200 333 58003;
0168825710999992005111400004-05500-045267FM-12+015399999V0201401N005710042019N0100001N1+02751+02211100841ADDGF108991081051004501999999KA1240M+03611MA1999999099111MD1999999+0111REMSYN088AAXX  14004 82571 32497 81411 10275 20221 39911 40084 885// 333 10361 29064 55024 58011;
0201825710999992005111412004-05500-045267FM-12+015399999V0203601N001510450019N0100001N1+02661+02221101101ADDAA124005191AY191061AY261061GF106991011011004501031011KA1240N+02251MA1999999099361MD1999999+0041MW1021REMSYN088AAXX  14124 82571 21497 63603 10266 20222 39936 40110 70296 81131 333 20225 58004 60054;
0137825710999992005111418004-05500-045267FM-12+015399999V0200501N002612200019N0100001N1+03311+02171100601ADDGF104991031021004501001011MA1999999098891MD1999999+0031REMSYN070AAXX  14184 82571 32497 40505 10331 20217 39889 40060 83201 333 58003;
0196825710999992005111500004-05500-045267FM-12+015399999V0200501N001010450019N0100001N1+02811+02291100871ADDAY111061AY201061GF106991031021004501041001KA1240M+03371MA1999999099141MD1999999-0031MW1131REMSYN094AAXX  15004 82571 31497 60502 10281 20229 39914 40087 71310 83240 333 10337 29068 55088 59003;
0156825710999992005111512004-05500-045267FM-12+015399999V0200901N003610450019N0100001N1+02831+02171101051ADDGF106991041021004501031001KA1240N+02481MA1999999099321MD1999999-0041REMSYN076AAXX  15124 82571 32497 60907 10283 20217 39932 40105 84230 333 20248 59004;
0137825710999992005111518004-05500-045267FM-12+015399999V0200501N002610450019N0100001N1+03351+02111100631ADDGF107991031021004501011001MA1999999098921MD1999999+0031REMSYN070AAXX  15184 82571 32497 70505 10335 20211 39892 40063 83210 333 58003;
0168825710999992005111600004-05500-045267FM-12+015399999V0202301N002110042019N0100001N1+02811+02241100931ADDGF108991081071004501999999KA1240M+03431MA1999999099201MD1999999+0061REMSYN088AAXX  16004 82571 32497 82304 10281 20224 39920 40093 887// 333 10343 29064 55076 58006;
0156825710999992005111612004-05500-045267FM-12+015399999V0203601N001510450019N0100001N1+02811+02201101071ADDGF106991021011004501031001KA1240N+02581MA1999999099341MD1999999+0021REMSYN076AAXX  16124 82571 32497 63603 10281 20220 39934 40107 82130 333 20258 58002;
0137825710999992005111618004-05500-045267FM-12+015399999V0201401N003610450019N0100001N1+03381+02091100551ADDGF106991041051004501041001MA1999999098851MD1999999-0071REMSYN070AAXX  16184 82571 32497 61407 10338 20209 39885 40055 84540 333 59007;
0196825710999992005111700004-05500-045267FM-12+015399999V0202301N000510150019N0100001N1+02631+02271100801ADDAY191061AY221061GF106991061001017501051001KA1240M+03531MA1999999099071MD1999999-0131MW1021REMSYN094AAXX  17004 82571 31797 62301 10263 20227 39907 40080 70292 86050 333 10353 29069 55045 59013;
0156825710999992005111712004-05500-045267FM-12+015399999V0200501N002112200019N0100001N1+02861+02231100961ADDGF102991021011004501001001KA1240N+02391MA1999999099231MD1999999-0111REMSYN076AAXX  17124 82571 32497 20504 10286 20223 39923 40096 82100 333 20239 59011;
0137825710999992005111718004-05500-045267FM-12+015399999V0200901N002612200019N0100001N1+03501+02091100421ADDGF104991021021004501031001MA1999999098721MD1999999-0131REMSYN070AAXX  17184 82571 32497 40905 10350 20209 39872 40042 82230 333 59013;
0168825710999992005111800004-05500-045267FM-12+015399999V0203201N000512200019N0100001N1+03051+02381100531ADDGF101991011001017501031001KA1240M+03581MA1999999098821MD1999999-0251REMSYN088AAXX  18004 82571 32797 13201 10305 20238 39882 40053 81030 333 10358 29062 55091 59025;
0166825710999992005111812004-05500-045267FM-12+015399999V0200501N003612200019N0100001N1+02801+02121100931ADDGA1001+999999999GF100991001001999999001001KA1240N+02451MA1999999099221MD1999999-0011REMSYN070AAXX  18124 82571 32497 00507 10280 20212 39922 40093 333 20245 59001;
0137825710999992005111818004-05500-045267FM-12+015399999V0200901N003612200019N0100001N1+03731+01791100381ADDGF104991041021004501001001MA1999999098701MD1999999-0021REMSYN070AAXX  18184 82571 32497 40907 10373 20179 39870 40038 84200 333 59002;
0178825710999992005111900004-05500-045267FM-12+015399999V0209999C000012200019N0100001N1+03071+02161100601ADDGA1001+999999999GF100991001001999999001001KA1240M+03801MA1999999098891MD1999999+0071REMSYN082AAXX  19004 82571 32997 00000 10307 20216 39889 40060 333 10380 29053 55102 58007;
0156825710999992005111912004-05500-045267FM-12+015399999V0200501N002112200019N0100001N1+03091+02181100981ADDGF102991021021004501001001KA1240N+02501MA1999999099271MD1999999+0051REMSYN076AAXX  19124 82571 32497 20504 10309 20218 39927 40098 82200 333 20250 58005;
0137825710999992005111918004-05500-045267FM-12+015399999V0200901N002112200019N0100001N1+03651+01911100541ADDGF103991031021004501001001MA1999999098851MD1999999+0151REMSYN070AAXX  19184 82571 32497 30904 10365 20191 39885 40054 83200 333 58015;
0178825710999992005112000004-05500-045267FM-12+015399999V0202701N000512200019N0100001N1+03131+02101100701ADDGA1001+999999999GF100991001001999999001001KA1240M+03781MA1999999099001MD1999999+0111REMSYN082AAXX  20004 82571 32997 02701 10313 20210 39900 40070 333 10378 29050 55105 58011;
0166825710999992005112012004-05500-045267FM-12+015399999V0200501N002112200019N0100001N1+02931+02191101011ADDGA1001+999999999GF100991001001999999001001KA1240N+02501MA1999999099301MD1999999+0031REMSYN070AAXX  20124 82571 32997 00504 10293 20219 39930 40101 333 20250 58003;
0137825710999992005112018004-05500-045267FM-12+015399999V0203601N001512200019N0100001N1+03751+02041100461ADDGF102991021021004501001001MA1999999098781MD1999999-0071REMSYN070AAXX  20184 82571 32497 23603 10375 20204 39878 40046 82200 333 59007;
0206825710999992005112100004-05500-045267FM-12+015399999V0202701N000512200019N0100001N1+03151+02141100591ADDAY191061AY201061GA1001+999999999GF100991001001999999001001KA1240M+03901MA1999999098891MD1999999-0111MW1001REMSYN088AAXX  21004 82571 31997 02701 10315 20214 39889 40059 70090 333 10390 29053 55096 59011;
0156825710999992005112112004-05500-045267FM-12+015399999V0200501N002110042019N0100001N1+02811+02271100971ADDGF107991071051004501001001KA1240N+02581MA1999999099261MD1999999-0041REMSYN076AAXX  21124 82571 32497 70504 10281 20227 39926 40097 87500 333 20258 59004;
0137825710999992005112118004-05500-045267FM-12+015399999V0200901N002112200019N0100001N1+03621+02121100461ADDGF103991031021004501001001MA1999999098771MD1999999-0011REMSYN070AAXX  21184 82571 32497 30904 10362 20212 39877 40046 83200 333 59001;
0178825710999992005112200004-05500-045267FM-12+015399999V0202701N001512200019N0100001N1+03151+02171100641ADDGA1001+999999999GF100991001001999999001001KA1240M+03751MA1999999098931MD1999999+0041REMSYN082AAXX  22004 82571 32997 02703 10315 20217 39893 40064 333 10375 29056 55071 58004;
0156825710999992005112212004-05500-045267FM-12+015399999V0203601N002110042019N0100001N1+02741+02321100981ADDGF107991051051004501031001KA1240N+02631MA1999999099261MD1999999+0001REMSYN076AAXX  22124 82571 32497 73604 10274 20232 39926 40098 85530 333 20263 58000;
0137825710999992005112218004-05500-045267FM-12+015399999V0200501N001512200019N0100001N1+03471+02151100411ADDGF103991031021004501001001MA1999999098721MD1999999-0051REMSYN070AAXX  22184 82571 32497 30503 10347 20215 39872 40041 83200 333 59005;
0196825710999992005112300004-05500-045267FM-12+015399999V0200501N001512200019N0100001N1+03071+02291100621ADDAY101061AY201061GF103991031051004501001001KA1240M+03641MA1999999098911MD1999999-0021MW1171REMSYN094AAXX  23004 82571 31497 30503 10307 20229 39891 40062 71700 83500 333 10364 29062 55040 59002;
0220825710999992005112312004-05500-045267FM-12+015399999V0201801N002110042019N0100001N1+02511+02291101161ADDAA124000091AY191061AY261061GF108991081051004501999999KA1240N+02481MA1999999099431MD1999999+0171MW1021REMSYN088AAXX  23124 82571 21497 81804 10251 20229 39943 40116 70296 885// 333 20248 58017 69914;EQDQ01  00002PRCP24
0137825710999992005112318004-05500-045267FM-12+015399999V0200501N001011050019N0100001N1+03191+02301100681ADDGF105991021011004501011011MA1999999098971MD1999999+0251REMSYN070AAXX  23184 82571 32497 50502 10319 20230 39897 40068 82111 333 58025;
0178825710999992005112400004-05500-045267FM-12+015399999V0201401N002112200019N0100001N1+02751+02301100791ADDGA1001+999999999GF100991001001999999001001KA1240M+03351MA1999999099061MD1999999+0151REMSYN082AAXX  24004 82571 32997 01404 10275 20230 39906 40079 333 10335 29074 55031 58015;
0156825710999992005112412004-05500-045267FM-12+015399999V0200501N002610042019N0100001N1+02891+02251101131ADDGF106991051021004501001011KA1240N+02531MA1999999099401MD1999999-0031REMSYN076AAXX  24124 82571 32497 60505 10289 20225 39940 40113 85201 333 20253 59003;
0137825710999992005112418004-05500-045267FM-12+015399999V0200901N002110042019N0100001N1+03381+02261100661ADDGF107991051021004501011001MA1999999098951MD1999999-0021REMSYN070AAXX  24184 82571 32497 70904 10338 20226 39895 40066 85210 333 59002;
0196825710999992005112500004-05500-045267FM-12+015399999V0202301N002110450019N0100001N1+02671+02281100901ADDAY191061AY221061GF105991021041004501071001KA1240M+03491MA1999999099171MD1999999+0111MW1131REMSYN094AAXX  25004 82571 31497 52304 10267 20228 39917 40090 71392 82470 333 10349 29070 55042 58011;
0156825710999992005112512004-05500-045267FM-12+015399999V0200501N002110042019N0100001N1+02751+02321101171ADDGF108991081051004501999999KA1240N+02581MA1999999099431MD1999999+0031REMSYN076AAXX  25124 82571 32497 80504 10275 20232 39943 40117 885// 333 20258 58003;
0137825710999992005112518004-05500-045267FM-12+015399999V0200901N001510450019N0100001N1+03381+02221100591ADDGF106991031021004501011001MA1999999098881MD1999999-0071REMSYN070AAXX  25184 82571 32497 60903 10338 20222 39888 40059 83210 333 59007;
0232825710999992005112600004-05500-045267FM-12+015399999V0202301N000519999999N0100001N1+02321+02241101021ADDAA106025991AY191061AY261061GF108991999071004501999999KA1240M+03481MA1999999099271MD1999999+0101MW1911REMSYN100AAXX  26004 82571 21497 82301 10232 20224 39927 40102 79196 897// 333 10348 29080 55029 58010 60261;EQDQ01+000092SCOTLC
0201825710999992005112612004-05500-045267FM-12+015399999V0200501N000510042019N0100001N1+02451+02321101061ADDAA124026991AY161061AY221061GF108991081051004501999999KA1240N+02321MA1999999099301MD1999999-0131MW1021REMSYN088AAXX  26124 82571 21497 80501 10245 20232 39930 40106 70262 885// 333 20232 59013 60274;
0137825710999992005112618004-05500-045267FM-12+015399999V0203601N001510042019N0100001N1+03161+02321100501ADDGF105991051031004501001001MA1999999098781MD1999999-0101REMSYN070AAXX  26184 82571 32497 53603 10316 20232 39878 40050 85300 333 59010;
0232825710999992005112700004-05500-045267FM-12+015399999V0201801N001510042019N0100001N1+02631+02391100801ADDAA106000091AY161061AY221061GF108991081071004501999999KA1240M+03301MA1999999099061MD1999999-0211MW1021REMSYN100AAXX  27004 82571 21497 81803 10263 20239 39906 40080 70262 887// 333 10330 29081 55041 59021 69911;EQDQ01  00002PRCP06
0201825710999992005112712004-05500-045267FM-12+015399999V0202701N001010042019N0100001N1+02431+02271101051ADDAA124000891AY161061AY221061GF108991081051004501999999KA1240N+02341MA1999999099301MD1999999+0001MW1021REMSYN088AAXX  27124 82571 21497 82702 10243 20227 39930 40105 70262 885// 333 20234 58000 69974;
0137825710999992005112718004-05500-045267FM-12+015399999V0200501N001010450019N0100001N1+02951+02351100591ADDGF106991041021004501031001MA1999999098861MD1999999+0081REMSYN070AAXX  27184 82571 32497 60502 10295 20235 39886 40059 84230 333 58008;
0213825710999992005112800004-05500-045267FM-12+015399999V0200501N000510042019N0100001N1+02321+02251100831ADDAA106008991AY191061AY261061GF108991081091004501999999KA1240M+03031MA1999999099081MD1999999+0021MW1021REMSYN100AAXX  28004 82571 21497 80501 10232 20225 39908 40083 70296 889// 333 10303 29088 55001 58002 60091;
0201825710999992005112812004-05500-045267FM-12+015399999V0200901N001510042019N0100001N1+02411+02261101041ADDAA124008991AY161061AY221061GF107991051021004501031001KA1240N+02261MA1999999099281MD1999999-0021MW1011REMSYN088AAXX  28124 82571 21497 70903 10241 20226 39928 40104 70162 85230 333 20226 59002 60094;
0168825710999992005112900004-05500-045267FM-12+015399999V0201401N001510042019N0100001N1+02631+02331100901ADDGF105991051051004501001001KA1240M+03011MA1999999099151MD1999999+0071REMSYN088AAXX  29004 82571 32497 51403 10263 20233 39915 40090 85500 333 10301 29082 55020 58007;
0156825710999992005112912004-05500-045267FM-12+015399999V0201401N002110450019N0100001N1+02671+02311101061ADDGF105991031021004501031001KA1240N+02371MA1999999099321MD1999999+0041REMSYN076AAXX  29124 82571 32497 51404 10267 20231 39932 40106 83230 333 20237 58004;
0137825710999992005112918004-05500-045267FM-12+015399999V0200901N005112200019N0100001N1+03371+01981100601ADDGF104991021021004501041001MA1999999098891MD1999999-0091REMSYN070AAXX  29184 82571 32497 40910 10337 20198 39889 40060 82240 333 59009;
0168825710999992005113000004-05500-045267FM-12+015399999V0202301N000510042019N0100001N1+02881+02321100781ADDGF108991081051004501999999KA1240M+03431MA1999999099061MD1999999-0091REMSYN088AAXX  30004 82571 32497 82301 10288 20232 39906 40078 885// 333 10343 29067 55059 59009;
0156825710999992005113012004-05500-045267FM-12+015399999V0203601N001512200019N0100001N1+02811+02221101021ADDGF104991011011004501031001KA1240N+02561MA1999999099301MD1999999-0021REMSYN076AAXX  30124 82571 32497 43603 10281 20222 39930 40102 81130 333 20256 59002;
0137825710999992005113018004-05500-045267FM-12+015399999V0200901N001512200019N0100001N1+03441+02111100501ADDGF103991031021004501001001MA1999999098801MD1999999-0091REMSYN070AAXX  30184 82571 32497 30903 10344 20211 39880 40050 83200 333 59009;
0178825710999992005120100004-05500-045267FM-12+015399999V0209999C000012200019N0100001N1+03031+02381100661ADDGA1001+999999999GF100991001001999999001001KA1240M+03581MA1999999098951MD1999999-0111REMSYN082AAXX  01004 82571 32997 00000 10303 20238 39895 40066 333 10358 29063 55086 59011;
0166825710999992005120112004-05500-045267FM-12+015399999V0203201N001012200019N0100001N1+02911+02341100891ADDGA1001+999999999GF100991001001999999001001KA1240N+02561MA1999999099181MD1999999-0121REMSYN070AAXX  01124 82571 32497 03202 10291 20234 39918 40089 333 20256 59012;
0137825710999992005120118004-05500-045267FM-12+015399999V0200501N002612200019N0100001N1+03511+01911100441ADDGF102991021021004501001001MA1999999098751MD1999999-0051REMSYN070AAXX  01184 82571 32497 20505 10351 20191 39875 40044 82200 333 59005;
0168825710999992005120200004-05500-045267FM-12+015399999V0202301N001012200019N0100001N1+03071+02291100611ADDGF102991021001017501041001KA1240M+03611MA1999999098901MD1999999-0051REMSYN088AAXX  02004 82571 32797 22302 10307 20229 39890 40061 82040 333 10361 29059 55105 59005;
0156825710999992005120212004-05500-045267FM-12+015399999V0200501N002612200019N0100001N1+02941+02291100881ADDGF102991011011004501001011KA1240N+02571MA1999999099171MD1999999-0011REMSYN076AAXX  02124 82571 32497 20505 10294 20229 39917 40088 81101 333 20257 59001;
0137825710999992005120218004-05500-045267FM-12+015399999V0200901N001512200019N0100001N1+03521+02031100501ADDGF104991031021004501011001MA1999999098811MD1999999+0061REMSYN070AAXX  02184 82571 32497 40903 10352 20203 39881 40050 83210 333 58006;
0178825710999992005120300004-05500-045267FM-12+015399999V0200501N002112200019N0100001N1+03011+02241100641ADDGA1001+999999999GF100991001001999999001001KA1240M+03621MA1999999098931MD1999999+0031REMSYN082AAXX  03004 82571 32997 00504 10301 20224 39893 40064 333 10362 29059 55092 58003;
0156825710999992005120312004-05500-045267FM-12+015399999V0203601N002110042019N0100001N1+02751+02281101041ADDGF106991051051004501031001KA1240N+02561MA1999999099321MD1999999+0151REMSYN076AAXX  03124 82571 32497 63604 10275 20228 39932 40104 85530 333 20256 58015;
0137825710999992005120318004-05500-045267FM-12+015399999V0203201N001512200019N0100001N1+03341+02281100641ADDGF103991031021004501001001MA1999999098941MD1999999+0131REMSYN070AAXX  03184 82571 32497 33203 10334 20228 39894 40064 83200 333 58013;
0178825710999992005120400004-05500-045267FM-12+015399999V0209999C000012200019N0100001N1+02991+02161100761ADDGA1001+999999999GF100991001001999999001001KA1240M+03521MA1999999099041MD1999999+0111REMSYN082AAXX  04004 82571 32997 00000 10299 20216 39904 40076 333 10352 29070 55049 58011;
0156825710999992005120412004-05500-045267FM-12+015399999V0201801N003110042019N0100001N1+02741+02321101031ADDGF106991061021004501001001KA1240N+02511MA1999999099311MD1999999-0011REMSYN076AAXX  04124 82571 32497 61806 10274 20232 39931 40103 86200 333 20251 59001;
0182825710999992005120518004-05500-045267FM-12+015399999V0203201N002110042019N0100001N1+02261+02161100861ADDAA106001091AY161061AY221061GF108991081051004501999999MA1999999099111MD1999999+0261MW1021REMSYN082AAXX  05184 82571 21497 83204 10226 20216 39911 40086 70262 885// 333 58026 60011;
0168825710999992005120600004-05500-045267FM-12+015399999V0209999C000010042019N0100001N1+02261+02211100871ADDGF105991051061004501001001KA1240M+02941MA1999999099111MD1999999+0091REMSYN088AAXX  06004 82571 32497 50000 10226 20221 39911 40087 85600 333 10294 29096 55000 58009;
0173825710999992005120612004-05500-045267FM-12+015399999V0209999C000010042019N0100001N1+02391+02241100941ADDAA124001091GF108991081051004501999999KA1240N+02221MA1999999099181MD1999999-0131REMSYN082AAXX  06124 82571 22497 83600 10239 20224 39918 40094 885// 333 20222 59013 60014;
0137825710999992005120618004-05500-045267FM-12+015399999V0200501N002110450019N0100001N1+03041+02231100491ADDGF106991021021004501011011MA1999999098761MD1999999-0351REMSYN070AAXX  06184 82571 32497 60504 10304 20223 39876 40049 82211 333 59035;
0156825710999992005120712004-05500-045267FM-12+015399999V0200501N003610042019N0100001N1+02711+02301100821ADDGF106991051021004501031001KA1240N+02421MA1999999099091MD1999999-0091REMSYN076AAXX  07124 82571 32497 60507 10271 20230 39909 40082 85230 333 20242 59009;
0182825710999992005120718004-05500-045267FM-12+015399999V0202701N002110450019N0100001N1+02761+02301100511ADDAA106000391AY161061AY221061GF107991021051004501071001MA1999999098781MD1999999+0021MW1531REMSYN082AAXX  07184 82571 21497 72704 10276 20230 39878 40051 75362 82570 333 58002 69931;
0168825710999992005120800004-05500-045267FM-12+015399999V0200501N003610090019N0100001N1+02611+02271100931ADDGF107991071081004501001001KA1240M+03221MA1999999099191MD1999999+0231REMSYN088AAXX  08004 82571 32497 70507 10261 20227 39919 40093 87800 333 10322 29079 55038 58023;
0173825710999992005120812004-05500-045267FM-12+015399999V0203601N001510450019N0100001N1+02651+02331101051ADDAA124000391GF105991021021004501031001KA1240N+02321MA1999999099311MD1999999+0221REMSYN082AAXX  08124 82571 22497 53603 10265 20233 39931 40105 82230 333 20232 58022 69934;
0137825710999992005120818004-05500-045267FM-12+015399999V0200901N002610450019N0100001N1+03151+02261100581ADDGF107991021021004501071001MA1999999098861MD1999999+0081REMSYN070AAXX  08184 82571 32497 70905 10315 20226 39886 40058 82270 333 58008;
0196825710999992005120900004-05500-045267FM-12+015399999V0203201N000510450019N0100001N1+02791+02421100921ADDAY121061AY221061GF105991011031004501031001KA1240M+03391MA1999999099191MD1999999+0001MW1131REMSYN094AAXX  09004 82571 31497 53201 10279 20242 39919 40092 71322 81330 333 10339 29075 55057 58000;
0201825710999992005120912004-05500-045267FM-12+015399999V0200901N002610450019N0040001N1+02311+02271101281ADDAA124008991AY191061AY261061GF108991031071004501021999KA1240N+02291MA1999999099531MD1999999+0221MW1611REMSYN088AAXX  09124 82571 21496 80905 10231 20227 39953 40128 76196 8372/ 333 20229 58022 60094;
0182825710999992005120918004-05500-045267FM-12+015399999V0201801N000510450019N0100001N1+02701+02261100951ADDAA124000021AY151061AY221061GF107991021021004501071001MA1999999099211MD1999999+0351MW1021REMSYN082AAXX  09184 82571 21497 71801 10270 20226 39921 40095 70252 82270 333 58035 69914;
0168825710999992005121000004-05500-045267FM-12+015399999V0201801N002110150019N0100001N1+02511+02381101041ADDGF105991051001017501071001KA1240M+02791MA1999999099281MD1999999+0091REMSYN088AAXX  10004 82571 32797 51804 10251 20238 39928 40104 85070 333 10279 29090 55000 58009;
0179825710999992005121012004-05500-045267FM-12+015399999V0200501N001510042019N0100001N1+02591+02401101091ADDAA124000191GF106991061021004501001001KA1240N+02341MA1999999099341MD1999999-0191REMSYN088AAXX  10124 82571 22497 60503 10259 20240 39934 40109 86200 333 20234 59019 69914 10001;
0137825710999992005121018004-05500-045267FM-12+015399999V0200501N003112200019N0100001N1+03051+02221100711ADDGF103991011021004501031001MA1999999098981MD1999999-0231REMSYN070AAXX  10184 82571 32497 30506 10305 20222 39898 40071 81230 333 59023;
0178825710999992005121100004-05500-045267FM-12+015399999V0209999C000012200019N0100001N1+02651+02461100851ADDGA1001+999999999GF100991001001999999001001KA1240M+03171MA1999999099111MD1999999-0171REMSYN082AAXX  11004 82571 32997 00000 10265 20246 39911 40085 333 10317 29082 55053 59017;
0156825710999992005121112004-05500-045267FM-12+015399999V0200501N002610042019N0100001N1+02611+02291100961ADDGF108991081051004501999999KA1240N+02401MA1999999099221MD1999999-0121REMSYN076AAXX  11124 82571 32497 80505 10261 20229 39922 40096 885// 333 20240 59012;
0137825710999992005121118004-05500-045267FM-12+015399999V0200501N003110450019N0100001N1+03181+02251100521ADDGF106991041021004501041001MA1999999098801MD1999999-0181REMSYN070AAXX  11184 82571 32497 60506 10318 20225 39880 40052 84240 333 59018;
0168825710999992005121200004-05500-045267FM-12+015399999V0203601N001510150019N0100001N1+02651+02311100831ADDGF105991051001017501031001KA1240M+03231MA1999999099101MD1999999-0011REMSYN088AAXX  12004 82571 32797 53603 10265 20231 39910 40083 85030 333 10323 29076 55050 59001;
0156825710999992005121212004-05500-045267FM-12+015399999V0203601N001010450019N0100001N1+02641+02311101011ADDGF106991041051004501031001KA1240N+02411MA1999999099271MD1999999+0051REMSYN076AAXX  12124 82571 32497 63602 10264 20231 39927 40101 84530 333 20241 58005;
0137825710999992005121218004-05500-045267FM-12+015399999V0200901N002612200019N0100001N1+03131+02181100571ADDGF105991031021004501001011MA1999999098851MD1999999+0051REMSYN070AAXX  12184 82571 32497 50905 10313 20218 39885 40057 83201 333 58005;
0196825710999992005121300004-05500-045267FM-12+015399999V0202701N001512200019N0100001N1+02621+02291100771ADDAY121061AY201061GF102991021011004501001001KA1240M+03231MA1999999099041MD1999999-0061MW1131REMSYN094AAXX  13004 82571 31497 22703 10262 20229 39904 40077 71320 82100 333 10323 29076 55031 59006;
0156825710999992005121312004-05500-045267FM-12+015399999V0200501N002110450019N0100001N1+02651+02331100971ADDGF105991021021004501031001KA1240N+02391MA1999999099231MD1999999-0041REMSYN076AAXX  13124 82571 32497 50504 10265 20233 39923 40097 82230 333 20239 59004;
0137825710999992005121318004-05500-045267FM-12+015399999V0203601N002110450019N0100001N1+03221+02341100521ADDGF106991041021004501041001MA1999999098801MD1999999-0051REMSYN070AAXX  13184 82571 32497 63604 10322 20234 39880 40052 84240 333 59005;
0213825710999992005121400004-05500-045267FM-12+015399999V0202701N000512200019N0100001N1+02701+02461100781ADDAA106000891AY161061AY221061GF104991011021004501041001KA1240M+03381MA1999999099051MD1999999+0011MW1021REMSYN100AAXX  14004 82571 21497 42701 10270 20246 39905 40078 70262 81240 333 10338 29079 55050 58001 69971;
0201825710999992005121412004-05500-045267FM-12+015399999V0202701N001010450019N0040001N1+02241+02191101051ADDAA124027991AY191061AY261061GF108991041071004501021999KA1240N+02231MA1999999099301MD1999999+0071MW1911REMSYN088AAXX  14124 82571 21496 82702 10224 20219 39930 40105 79196 8472/ 333 20223 58007 60284;
0182825710999992005121418004-05500-045267FM-12+015399999V0200501N001010090019N0100001N1+02421+02351100671ADDAA106002091AY191061AY261061GF108991081081004501999999MA1999999098921MD1999999+0121MW1021REMSYN082AAXX  14184 82571 21497 80502 10242 20235 39892 40067 70296 888// 333 58012 60021;
0168825710999992005121500004-05500-045267FM-12+015399999V0202301N001510150019N0100001N1+02411+02371100811ADDGF106991061001017501051001KA1240M+02711MA1999999099051MD1999999+0001REMSYN088AAXX  15004 82571 32797 62303 10241 20237 39905 40081 86050 333 10271 29097 55000 58000;
0137825710999992005121518004-05500-045267FM-12+015399999V0200501N002610450019N0100001N1+03181+02191100611ADDGF106991021021004501041011MA1999999098891MD1999999-0031REMSYN070AAXX  15184 82571 32497 60505 10318 20219 39889 40061 82241 333 59003;
0168825710999992005121600004-05500-045267FM-12+015399999V0209999C000010150019N0100001N1+02761+02381100771ADDGF106991061001017501031001KA1240M+03271MA1999999099041MD1999999-0011REMSYN088AAXX  16004 82571 32797 60000 10276 20238 39904 40077 86030 333 10327 29074 55076 59001;
0156825710999992005121612004-05500-045267FM-12+015399999V0200501N002110042019N0100001N1+02571+02311101061ADDGF108991081051004501999999KA1240N+02321MA1999999099321MD1999999+0041REMSYN076AAXX  16124 82571 32497 80504 10257 20231 39932 40106 885// 333 20232 58004;
0137825710999992005121618004-05500-045267FM-12+015399999V0200901N002612200019N0100001N1+03261+02151100631ADDGF103991031021004501001001MA1999999098921MD1999999+0031REMSYN070AAXX  16184 82571 32497 30905 10326 20215 39892 40063 83200 333 58003;
0178825710999992005121700004-05500-045267FM-12+015399999V0202301N002112200019N0100001N1+02831+02461100781ADDGA1001+999999999GF100991001001999999001001KA1240M+03351MA1999999099051MD1999999+0011REMSYN082AAXX  17004 82571 32997 02304 10283 20246 39905 40078 333 10335 29074 55071 58001;
0137825710999992005121718004-05500-045267FM-12+015399999V0201801N002112200019N0100001N1+03411+02161100761ADDGF103991031021004501001001MA1999999099051MD1999999+0131REMSYN070AAXX  17184 82571 32497 31804 10341 20216 39905 40076 83200 333 58013;
0168825710999992005121800004-05500-045267FM-12+015399999V0209999C000012200019N0100001N1+03011+02461100901ADDGF102991021001017501041001KA1240M+03501MA1999999099181MD1999999+0131REMSYN088AAXX  18004 82571 32797 20000 10301 20246 39918 40090 82040 333 10350 29068 55092 58013;
0156825710999992005121812004-05500-045267FM-12+015399999V0203601N001012200019N0100001N1+02821+02381101041ADDGF104991021001017501031011KA1240N+02421MA1999999099321MD1999999-0131REMSYN076AAXX  18124 82571 32797 43602 10282 20238 39932 40104 82031 333 20242 59013;
0137825710999992005121818004-05500-045267FM-12+015399999V0200501N002112200019N0100001N1+03351+02241100721ADDGF102991021021004501001001MA1999999099021MD1999999-0031REMSYN070AAXX  18184 82571 32497 20504 10335 20224 39902 40072 82200 333 59003;
0178825710999992005121900004-05500-045267FM-12+015399999V0200901N000512200019N0100001N1+02891+02301100921ADDGA1001+999999999GF100991001001999999001001KA1240M+03451MA1999999099201MD1999999+0021REMSYN082AAXX  19004 82571 32997 00901 10289 20230 39920 40092 333 10345 29067 55093 58002;
0201825710999992005121912004-05500-045267FM-12+015399999V0203601N000510450019N0100001N1+02651+02271101181ADDAA124001091AY161061AY211061GF106991041051004501031001KA1240N+02461MA1999999099451MD1999999+0131MW1021REMSYN088AAXX  19124 82571 21497 63601 10265 20227 39945 40118 70261 84530 333 20246 58013 60014;
0137825710999992005121918004-05500-045267FM-12+015399999V0203601N002110450019N0100001N1+03091+02311100711ADDGF106991031031004501041001MA1999999099001MD1999999-0021REMSYN070AAXX  19184 82571 32497 63604 10309 20231 39900 40071 83340 333 59002;
0178825710999992005122000004-05500-045267FM-12+015399999V0202701N001012200019N0100001N1+02721+02451100841ADDGA1001+999999999GF100991001001999999001001KA1240M+03211MA1999999099111MD1999999-0091REMSYN082AAXX  20004 82571 32997 02702 10272 20245 39911 40084 333 10321 29078 55032 59009;
0137825710999992005122018004-05500-045267FM-12+015399999V0201401N001010090019N0100001N1+02951+02351100831ADDGF106991061081004501001001MA1999999099101MD1999999+0101REMSYN070AAXX  20184 82571 32497 61402 10295 20235 39910 40083 86800 333 58010;
0196825710999992005122100004-05500-045267FM-12+015399999V0203201N000510042019N0100001N1+02691+02461101011ADDAY191061AY221061GF108991081071004501999999KA1240M+03011MA1999999099261MD1999999+0151MW1131REMSYN094AAXX  21004 82571 31497 83201 10269 20246 39926 40101 71392 887// 333 10301 29084 55011 58015;
0156825710999992005122112004-05500-045267FM-12+015399999V0203601N000510450019N0100001N1+02451+02051101341ADDGF106991031051004501031001KA1240N+02351MA1999999099591MD1999999+0111REMSYN076AAXX  21124 82571 32497 63601 10245 20205 39959 40134 83530 333 20235 58011;
0137825710999992005122118004-05500-045267FM-12+015399999V0200501N001010042019N0100001N1+03091+02361100891ADDGF105991051021004501001001MA1999999099161MD1999999+0061REMSYN070AAXX  21184 82571 32497 50502 10309 20236 39916 40089 85200 333 58006;
0178825710999992005122200004-05500-045267FM-12+015399999V0200501N001012200019N0100001N1+02731+02431101031ADDGA1001+999999999GF100991001001999999001001KA1240M+03171MA1999999099291MD1999999+0031REMSYN082AAXX  22004 82571 32997 00502 10273 20243 39929 40103 333 10317 29080 55043 58003;
0156825710999992005122212004-05500-045267FM-12+015399999V0203601N002110450019N0100001N1+02691+02371101271ADDGF105991031021004501031001KA1240N+02351MA1999999099531MD1999999-0061REMSYN076AAXX  22124 82571 32497 53604 10269 20237 39953 40127 83230 333 20235 59006;
0137825710999992005122218004-05500-045267FM-12+015399999V0201401N001012200019N0100001N1+03221+02231100801ADDGF104991041021004501001001MA1999999099081MD1999999-0081REMSYN070AAXX  22184 82571 32497 41402 10322 20223 39908 40080 84200 333 59008;
0223825710999992005122300004-05500-045267FM-12+015399999V0200501N002112200019N0100001N1+02641+02371101011ADDAA106002091AY191061AY261061GA1001+999999999GF100991001001999999001001KA1240M+03331MA1999999099271MD1999999-0021MW1131REMSYN094AAXX  23004 82571 21997 00504 10264 20237 39927 40101 71396 333 10333 29077 55064 59002 60021;
0173825710999992005122312004-05500-045267FM-12+015399999V0200501N002110450019N0100001N1+02731+02361101221ADDAA124002091GF105991041021004501031001KA1240N+02401MA1999999099481MD1999999-0051REMSYN082AAXX  23124 82571 22497 50504 10273 20236 39948 40122 84230 333 20240 59005 60024;
0137825710999992005122318004-05500-045267FM-12+015399999V0203601N001510042019N0100001N1+02961+02331100831ADDGF106991061051004501001001MA1999999099101MD1999999+0021REMSYN070AAXX  23184 82571 32497 63603 10296 20233 39910 40083 86500 333 58002;
0178825710999992005122400004-05500-045267FM-12+015399999V0200501N001512200019N0100001N1+02761+02421100941ADDGA1001+999999999GF100991001001999999001001KA1240M+03051MA1999999099211MD1999999-0061REMSYN082AAXX  24004 82571 32997 00503 10276 20242 39921 40094 333 10305 29078 55042 59006;
0156825710999992005122412004-05500-045267FM-12+015399999V0200501N002110042019N0100001N1+02651+02371101231ADDGF108991081051004501999999KA1240N+02501MA1999999099491MD1999999+0011REMSYN076AAXX  24124 82571 32497 80504 10265 20237 39949 40123 885// 333 20250 58001;
0196825710999992005122500004-05500-045267FM-12+015399999V0203601N001010042019N0100001N1+02591+02351101061ADDAY191061AY221061GF108991051071004501021001KA1240M+03061MA1999999099321MD1999999+0111MW1021REMSYN094AAXX  25004 82571 31497 83602 10259 20235 39932 40106 70292 85720 333 10306 29084 55012 58011;
0220825710999992005122512004-05500-045267FM-12+015399999V0203601N001510042019N0100001N1+02481+02191101221ADDAA124000091AY161061AY221061GF107991071051004501001001KA1240N+02301MA1999999099471MD1999999-0021MW1021REMSYN088AAXX  25124 82571 21497 73603 10248 20219 39947 40122 70262 87500 333 20230 59002 69914;EQDQ01  00002PRCP24
0137825710999992005122518004-05500-045267FM-12+015399999V0203601N002110450019N0100001N1+02971+02251100971ADDGF106991041021004501031001MA1999999099241MD1999999+0101REMSYN070AAXX  25184 82571 32497 63604 10297 20225 39924 40097 84230 333 58010;
0178825710999992005122600004-05500-045267FM-12+015399999V0200501N001012200019N0100001N1+02571+02251101101ADDGA1001+999999999GF100991001001999999001001KA1240M+03111MA1999999099351MD1999999+0031REMSYN082AAXX  26004 82571 32997 00502 10257 20225 39935 40110 333 10311 29078 55040 58003;
0156825710999992005122612004-05500-045267FM-12+015399999V0200501N002610450019N0100001N1+02581+02251101231ADDGF106991041051004501041001KA1240N+02321MA1999999099481MD1999999+0011REMSYN076AAXX  26124 82571 32497 60505 10258 20225 39948 40123 84540 333 20232 58001;
0137825710999992005122618004-05500-045267FM-12+015399999V0201401N002612200019N0100001N1+03211+02171100751ADDGF102991021021004501001001MA1999999099031MD1999999-0211REMSYN070AAXX  26184 82571 32497 21405 10321 20217 39903 40075 82200 333 59021;
0178825710999992005122700004-05500-045267FM-12+015399999V0200501N001012200019N0100001N1+02791+02311100871ADDGA1001+999999999GF100991001001999999001001KA1240M+03331MA1999999099141MD1999999-0121REMSYN082AAXX  27004 82571 32997 00502 10279 20231 39914 40087 333 10333 29072 55078 59012;
0156825710999992005122712004-05500-045267FM-12+015399999V0203601N003612200019N0100001N1+02781+02251101041ADDGF105991041021004501001011KA1240N+02421MA1999999099311MD1999999-0171REMSYN076AAXX  27124 82571 32497 53607 10278 20225 39931 40104 84201 333 20242 59017;
0137825710999992005122718004-05500-045267FM-12+015399999V0203601N003110450019N0100001N1+03221+02231100481ADDGF105991031021004501011001MA1999999098771MD1999999-0261REMSYN070AAXX  27184 82571 32497 53606 10322 20223 39877 40048 83210 333 59026;
0213825710999992005122800004-05500-045267FM-12+015399999V0201401N002110450019N0040001N1+02171+02111101031ADDAA106036191AY191061AY261061GF108991041071004501021999KA1240M+03301MA1999999099281MD1999999+0141MW1911REMSYN100AAXX  28004 82571 21496 81404 10217 20211 39928 40103 79196 8472/ 333 10330 29080 55057 58014 60361;
0201825710999992005122812004-05500-045267FM-12+015399999V0201401N001010042019N0100001N1+02191+02131101251ADDAA124047091AY191061AY261061GF108991081051004501999999KA1240N+02141MA1999999099481MD1999999+0171MW1511REMSYN088AAXX  28124 82571 21497 81402 10219 20213 39948 40125 75196 885// 333 20214 58017 60474;
0137825710999992005122818004-05500-045267FM-12+015399999V0203601N001010042019N0100001N1+02571+02251100941ADDGF108991081051004501999999MA1999999099181MD1999999+0411REMSYN070AAXX  28184 82571 32497 83602 10257 20225 39918 40094 885// 333 58041;
0168825710999992005122900004-05500-045267FM-12+015399999V0200501N001510090019N0100001N1+02431+02281101091ADDGF108991081081004501999999KA1240M+02621MA1999999099331MD1999999+0051REMSYN088AAXX  29004 82571 32497 80503 10243 20228 39933 40109 888// 333 10262 29090 55000 58005;
0156825710999992005122912004-05500-045267FM-12+015399999V0201401N000510090019N0100001N1+02371+02221101151ADDGF107991071081004501001001KA1240N+02221MA1999999099391MD1999999-0091REMSYN076AAXX  29124 82571 32497 71401 10237 20222 39939 40115 87800 333 20222 59009;
0137825710999992005122918004-05500-045267FM-12+015399999V0200901N001510450019N0100001N1+02831+02241100781ADDGF107991041021004501071001MA1999999099041MD1999999-0141REMSYN070AAXX  29184 82571 32497 70903 10283 20224 39904 40078 84270 333 59014;
0168825710999992005123000004-05500-045267FM-12+015399999V0209999C000010042019N0100001N1+02661+02461101001ADDGF107991071021004501001001KA1240M+02911MA1999999099251MD1999999-0081REMSYN088AAXX  30004 82571 32497 70000 10266 20246 39925 40100 87200 333 10291 29085 55017 59008;
0156825710999992005123012004-05500-045267FM-12+015399999V0201801N001512200019N0100001N1+02661+02371101081ADDGF104991031021004501001011KA1240N+02381MA1999999099341MD1999999-0051REMSYN076AAXX  30124 82571 32497 41803 10266 20237 39934 40108 83201 333 20238 59005;
0182825710999992005123018004-05500-045267FM-12+015399999V0201401N004110042019N0040001N1+02371+02221100921ADDAA106000021AY121061AY211061GF108991081051004501999999MA1999999099171MD1999999+0131MW1611REMSYN082AAXX  30184 82571 21496 81408 10237 20222 39917 40092 76121 885// 333 58013 69921;
0201825710999992005123112004-05500-045267FM-12+015399999V0203201N001010450019N0100001N1+02371+02221101151ADDAA124003091AY161061AY221061GF105991031021004501031001KA1240N+02291MA1999999099391MD1999999+0051MW1011REMSYN088AAXX  31124 82571 21497 53202 10237 20222 39939 40115 70162 83230 333 20229 58005 60034;
0137825710999992005123118004-05500-045267FM-12+015399999V0203601N001010450019N0100001N1+03071+02321100851ADDGF106991041021004501031001MA1999999099121MD1999999-0051REMSYN070AAXX  31184 82571 32497 63602 10307 20232 39912 40085 84230 333 59005;
