0211825780999992005032212004-05083-042817FM-12+009099999V0201401N000510075019N0100001N1+02451+02341101581ADDAA124019091AY161061AY261061GF108991061051008001021999KA1240N+02241MA1101861100551MD1999999+0121MW1021REMSYN098AAXX  22124 82578 21597 81401 10245 20234 30055 40158 70266 8652/ 333 20224 58012 60194 555 10186;
0183825780999992005032612004-05083-042817FM-12+009099999V0200901N000510075019N0100001N1+02541+02451101511ADDAA124000791GF108991061051008001021999KA1240N+02381MA1100071100481MD1999999-0071REMSYN092AAXX  26124 82578 22597 80901 10254 20245 30048 40151 8652/ 333 20238 59007 69974 555 10007;
0221825780999992005062912004-05083-042817FM-12+009099999V0201401N003612200019N0100001N1+02631+01961101581ADDAA124000191AY101061AY251061GA1001+999999999GF100991001001999999001001KA1240N+02131MA1100001100561MD1999999-0121MW1021REMSYN092AAXX  29124 82578 21997 01407 10263 20196 30056 40158 70205 333 20213 59012 69914 555 10001;
0137825780999992005091418004-05083-042817FM-12+007499999V0200901N001512200019N0100001N1+03691+02361101101ADDGF102991021011008001001001MA1999999100091MD1999999+0061REMSYN070AAXX  14184 82578 32597 20903 10369 20236 30009 40110 82100 333 58006;
0156825780999992005091612004-05083-042817FM-12+007499999V0201801N002112200019N0100001N1+02741+02331101761ADDGF101991011011008001001001KA1240N+02121MA1999999100741MD1999999-0031REMSYN076AAXX  16124 82578 32597 11804 10274 20233 30074 40176 81100 333 20212 59003;
