0179825830999992005010100004-05167-040667FM-12+029999999V0200901N002112200019N0040001N1+03031+01601100831ADDAA106000091GF100991001001999999001001MA1999999097511MD1999999-0101REMSYN082AAXX  01004 82583 32996 00904 10303 20160 39751 40083 333 10360 29040 55106 59010;EQDQ01  00002PRCP06
0173825830999992005010112004-05167-040667FM-12+029999999V0200901N005112200019N0500001N1+02871+01831101091ADDAA106000091GF101991011011008001001001MA1999999097751MD1999999-0101REMSYN076AAXX  01124 82583 32599 10910 10287 20183 39775 40109 81100 333 20233 59010;EQDQ01  00002PRCP06
0173825830999992005010212004-05167-040667FM-12+029999999V0200901N005710075019N0500001N1+02651+01921101311ADDAA106000091GF107991071021008001001001MA1999999097961MD1999999+0211REMSYN076AAXX  02124 82583 32599 70911 10265 20192 39796 40131 87200 333 20231 58021;EQDQ01  00002PRCP06
0179825830999992005010300004-05167-040667FM-12+029999999V0200501N002112200019N0040001N1+03001+01491100961ADDAA106000091GF100991001001999999001001MA1999999097621MD1999999+0021REMSYN082AAXX  03004 82583 32996 00504 10300 20149 39762 40096 333 10360 29042 55074 58002;EQDQ01  00002PRCP06
0173825830999992005010312004-05167-040667FM-12+029999999V0200901N004612200019N0500001N1+02901+01841101251ADDAA106000091GF103991031011008001001001MA1999999097911MD1999999-0051REMSYN076AAXX  03124 82583 32599 30909 10290 20184 39791 40125 83100 333 20235 59005;EQDQ01  00002PRCP06
0179825830999992005010400004-05167-040667FM-12+029999999V0200501N001512200019N0040001N1+03001+01411100911ADDAA106000091GF100991001001999999001001MA1999999097591MD1999999-0031REMSYN082AAXX  04004 82583 32996 00503 10300 20141 39759 40091 333 10362 29038 55113 59003;EQDQ01  00002PRCP06
0173825830999992005010412004-05167-040667FM-12+029999999V0200901N006712200019N0500001N1+02931+01821101131ADDAA106000091GF102991021011008001001001MA1999999097791MD1999999-0121REMSYN076AAXX  04124 82583 32599 20913 10293 20182 39779 40113 82100 333 20246 59012;EQDQ01  00002PRCP06
0179825830999992005010500004-05167-040667FM-12+029999999V0200501N002112200019N0040001N1+03071+01271100761ADDAA106000091GF100991001001999999001001MA1999999097441MD1999999-0151REMSYN082AAXX  05004 82583 32996 00504 10307 20127 39744 40076 333 10373 29034 55110 59015;EQDQ01  00002PRCP06
0173825830999992005010512004-05167-040667FM-12+029999999V0200901N008212200019N0500001N1+02881+01801101121ADDAA106000091GF102991011011008001001011MA1999999097791MD1999999+0001REMSYN076AAXX  05124 82583 32599 20916 10288 20180 39779 40112 81101 333 20236 58000;EQDQ01  00002PRCP06
0179825830999992005010600004-05167-040667FM-12+029999999V0200901N003112200019N0040001N1+03041+01451100731ADDAA106000091GF100991001001999999001001MA1999999097411MD1999999-0031REMSYN082AAXX  06004 82583 32996 00906 10304 20145 39741 40073 333 10363 29038 55099 59003;EQDQ01  00002PRCP06
0173825830999992005010612004-05167-040667FM-12+029999999V0200901N006212200019N0500001N1+02931+01721101051ADDAA106000091GF101991011011008001001001MA1999999097731MD1999999-0061REMSYN076AAXX  06124 82583 32599 10912 10293 20172 39773 40105 81100 333 20235 59006;EQDQ01  00002PRCP06
0179825830999992005010700004-05167-040667FM-12+029999999V0200501N002612200019N0040001N1+03071+01311100741ADDAA106000091GF100991001001999999001001MA1999999097421MD1999999+0011REMSYN082AAXX  07004 82583 32996 00505 10307 20131 39742 40074 333 10367 29035 55110 58001;EQDQ01  00002PRCP06
0173825830999992005010712004-05167-040667FM-12+029999999V0200901N004612200019N0500001N1+02911+01921101021ADDAA106000091GF102991021011008001001001MA1999999097701MD1999999-0031REMSYN076AAXX  07124 82583 32599 20909 10291 20192 39770 40102 82100 333 20244 59003;EQDQ01  00002PRCP06
0179825830999992005010800004-05167-040667FM-12+029999999V0200901N003112200019N0040001N1+03181+01101100701ADDAA106000091GF100991001001999999001001MA1999999097391MD1999999-0031REMSYN082AAXX  08004 82583 32996 00906 10318 20110 39739 40070 333 10378 29033 55106 59003;EQDQ01  00002PRCP06
0173825830999992005010812004-05167-040667FM-12+029999999V0200901N003110120019N0500001N1+02881+02051101041ADDAA106000091GF107991071081008001001001MA1999999097721MD1999999+0021REMSYN076AAXX  08124 82583 32599 70906 10288 20205 39772 40104 87800 333 20233 58002;EQDQ01  00002PRCP06
0185825830999992005010900004-05170-040670FM-12+029999999V0200901N001012200019N0040001N1+03181+01531100711ADDAA106000091GF102991021021008001001001MA1999999097401MD1999999+0011REMSYN088AAXX  09004 82583 32596 20902 10318 20153 39740 40071 82200 333 10369 29041 55088 58001;EQDQ01  00002PRCP06
0173825830999992005010912004-05170-040670FM-12+029999999V0200901N004610075019N0500001N1+02921+01921101091ADDAA106000091GF106991061021008001001001MA1999999097771MD1999999+0051REMSYN076AAXX  09124 82583 32599 60909 10292 20192 39777 40109 86200 333 20241 58005;EQDQ01  00002PRCP06
0189825830999992005011000004-05167-040667FM-12+029999999V0200501N003112200019N0040001N1+03121+01951100701ADDAY161061AY261061GF102991021011008001001001MA1999999097351MD1999999-0021MW1021REMSYN100AAXX  10004 82583 21596 20506 10312 20195 39735 40070 70266 82100 333 10363 29046 55083 59002 60031;
0149825830999992005011012004-05167-040667FM-12+029999999V0200501N002610075019N0500001N1+02911+02011100991ADDGF107991051021008001001011MA1999999097671MD1999999-0101REMSYN082AAXX  10124 82583 22599 70505 10291 20201 39767 40099 85201 333 20246 59010 60024;
0185825830999992005011100004-05167-040667FM-12+029999999V0200901N003612200019N0040001N1+03171+01401100761ADDAA106000091GF102991021011008001001001MA1999999097451MD1999999+0071REMSYN088AAXX  11004 82583 32596 20907 10317 20140 39745 40076 82100 333 10364 29038 55064 58007;EQDQ01  00002PRCP06
0173825830999992005011112004-05167-040667FM-12+029999999V0200501N003610120019N0500001N1+02661+02001101111ADDAA106000091GF108991081081008001999999MA1999999097771MD1999999+0101REMSYN076AAXX  11124 82583 32599 80507 10266 20200 39777 40111 888// 333 20244 58010;EQDQ01  00002PRCP06
0185825830999992005011200004-05167-040667FM-12+029999999V0200901N002612200019N0040001N1+03071+01521100771ADDAA106000091GF102991021011008001001001MA1999999097431MD1999999-0021REMSYN088AAXX  12004 82583 32596 20905 10307 20152 39743 40077 82100 333 10361 29043 55056 59002;EQDQ01  00002PRCP06
0173825830999992005011212004-05167-040667FM-12+029999999V0200501N003112200019N0500001N1+02871+01941101011ADDAA106000091GF104991031011008001031001MA1999999097681MD1999999-0091REMSYN076AAXX  12124 82583 32599 40506 10287 20194 39768 40101 83130 333 20238 59009;EQDQ01  00002PRCP06
0156825830999992005011300004-05167-040667FM-12+029999999V0200501N005112200019N0040001N1+03161+01751999999ADDAA106000091GF102991999999008001999999REMSYN088AAXX  13004 82583 32596 20510 10316 20175 29741 40073 82000 333 10372 29042 55102 59002;EQDQ01  00002PRCP06
0173825830999992005011312004-05167-040667FM-12+029999999V0200901N003110075019N0500001N1+02891+02041100991ADDAA106000091GF107991061021008001021001MA1999999097671MD1999999-0011REMSYN076AAXX  13124 82583 32599 70906 10289 20204 39767 40099 86220 333 20249 59001;EQDQ01  00002PRCP06
0179825830999992005011400004-05167-040667FM-12+029999999V0209999C000012200019N0040001N1+03081+01851100751ADDAA106000091GF100991001001999999001001MA1999999097431MD1999999+0021REMSYN082AAXX  14004 82583 32996 01400 10308 20185 39743 40075 333 10348 29047 55026 58002;EQDQ01  00002PRCP06
0173825830999992005011412004-05167-040667FM-12+029999999V0203601N001010075019N0500001N1+02661+02141100961ADDAA106000091GF108991081051008001999999MA1999999097621MD1999999-0051REMSYN076AAXX  14124 82583 32599 83602 10266 20214 39762 40096 885// 333 20244 59005;EQDQ01  00002PRCP06
0189825830999992005011500004-05167-040667FM-12+029999999V0200501N008210120019N0040001N1+02741+02101100811ADDAY121061AY221061GF107991071081008001001001MA1999999097461MD1999999+0031MW1611REMSYN100AAXX  15004 82583 21596 70516 10274 20210 39746 40081 76122 87800 333 10363 29060 55063 58003 69911;
0177825830999992005011512004-05167-040667FM-12+029999999V0200901N002610075019N0500001N1+02591+02271101011ADDAY191061AY291061GF108991081051008001999999MA1999999097651MD1999999+0031MW1021REMSYN088AAXX  15124 82583 21599 80905 10259 20227 39765 40101 70299 885// 333 20219 58003 60224;
0189825830999992005011600004-05167-040667FM-12+029999999V0202301N002110075019N0040001N1+02791+02311100811ADDAY161061AY261061GF108991081051008001999999MA1999999097461MD1999999+0001MW1021REMSYN100AAXX  16004 82583 21596 82304 10279 20231 39746 40081 70266 885// 333 10317 29067 55009 58000 69951;
0149825830999992005011612004-05167-040667FM-12+029999999V0200901N033910120019N0500001N1+02821+02151100931ADDGF108991081081008001999999MA1999999097591MD1999999-0061REMSYN082AAXX  16124 82583 22599 80966 10282 20215 39759 40093 888// 333 20240 59006 69954;
0185825830999992005011700004-05170-040670FM-12+029999999V0203601N005110075019N0040001N1+02411+02231100831ADDAA106000091GF108991061061008001021999MA1999999097471MD1999999+0011REMSYN088AAXX  17004 82583 32596 83610 10241 20223 39747 40083 8662/ 333 10315 29073 55010 58001;EQDQ01  00002PRCP06
0177825830999992005011712004-05170-040670FM-12+029999999V0203601N000510075019N0500001N1+02511+02271100971ADDAY161061AY261061GF108991081051008001999999MA1999999097591MD1999999+0001MW1021REMSYN088AAXX  17124 82583 21599 83601 10251 20227 39759 40097 70266 885// 333 20220 58000 60054;
0185825830999992005011800004-05167-040667FM-12+029999999V0203601N002610075019N0040001N1+02441+02071100841ADDAA106000091GF108991081051008001999999MA1999999097481MD1999999+0011REMSYN088AAXX  18004 82583 32596 83605 10244 20207 39748 40084 885// 333 10304 29075 55009 58001;EQDQ01  00002PRCP06
0173825830999992005011812004-05167-040667FM-12+029999999V0200501N003110075019N0500001N1+02711+01771100871ADDAA106000091GF108991081061008001999999MA1999999097501MD1999999-0091REMSYN076AAXX  18124 82583 32599 80506 10271 20177 39750 40087 886// 333 20225 59009;EQDQ01  00002PRCP06
0185825830999992005011900004-05167-040667FM-12+029999999V0203601N001512200019N0040001N1+02731+02101100721ADDAA106000091GF101991001001999999001011MA1999999097381MD1999999-0101REMSYN088AAXX  19004 82583 32996 13603 10273 20210 39738 40072 80001 333 10321 29056 55011 59010;EQDQ01  00002PRCP06
0173825830999992005011912004-05167-040667FM-12+029999999V0203601N001510120019N0500001N1+02731+02101101071ADDAA106000091GF106991061081008001001001MA1999999097721MD1999999+0221REMSYN076AAXX  19124 82583 32599 63603 10273 20210 39772 40107 86800 333 20229 58022;EQDQ01  00002PRCP06
0189825830999992005012000004-05167-040667FM-12+029999999V0203601N001510042019N0020001N1+02361+02241101031ADDAY161061AY261061GF108991081051004501999999MA1999999097651MD1999999+0271MW1611REMSYN100AAXX  20004 82583 21495 83603 10236 20224 39765 40103 76166 885// 333 10346 29072 55061 58027 60041;
0177825830999992005012012004-05167-040667FM-12+029999999V0200501N003110075019N0500001N1+02691+02241101171ADDAY161061AY251061GF106991051021008001001011MA1999999097791MD1999999+0071MW1021REMSYN088AAXX  20124 82583 21599 60506 10269 20224 39779 40117 70265 85201 333 20232 58007 60084;
0185825830999992005012100004-05167-040667FM-12+029999999V0203601N002119999999N0040001N1+02831+01911100911ADDAA106000091GF105991001001999999001021MA1999999097561MD1999999-0091REMSYN088AAXX  21004 82583 32896 53604 10283 20191 39756 40091 80002 333 10338 29054 55058 59009;EQDQ01  00002PRCP06
0173825830999992005012112004-05167-040667FM-12+029999999V0200901N003110075019N0500001N1+02741+02211101121ADDAA106000091GF107991061051008001031001MA1999999097761MD1999999-0031REMSYN076AAXX  21124 82583 32599 70906 10274 20221 39776 40112 86530 333 20229 59003;EQDQ01  00002PRCP06
0185825830999992005012200004-05167-040667FM-12+029999999V0200901N000510075019N0040001N1+02861+02091100901ADDAA106000091GF108991081051008001999999MA1999999097561MD1999999+0001REMSYN088AAXX  22004 82583 32596 80901 10286 20209 39756 40090 885// 333 10337 29058 55028 58000;EQDQ01  00002PRCP06
0173825830999992005012212004-05167-040667FM-12+029999999V0200901N002610075019N0500001N1+02761+02141101181ADDAA106000091GF108991081051008001999999MA1999999097831MD1999999+0071REMSYN076AAXX  22124 82583 32599 80905 10276 20214 39783 40118 885// 333 20244 58007;EQDQ01  00002PRCP06
0189825830999992005012300004-05170-040670FM-12+029999999V0203601N003112200019N0040001N1+02741+02121100991ADDAY161061AY261061GF102991001001999999001031MA1999999097641MD1999999+0081MW1011REMSYN100AAXX  23004 82583 21996 23606 10274 20212 39764 40099 70166 80003 333 10347 29063 55034 58008 60051;
0149825830999992005012312004-05170-040670FM-12+029999999V0203201N001010075019N0040001N1+02591+02251101331ADDGF108991081051008001999999MA1999999097961MD1999999+0131REMSYN082AAXX  23124 82583 22596 83202 10259 20225 39796 40133 885// 333 20238 58013 60054;
0185825830999992005012400004-05170-040670FM-12+029999999V0200501N002112200019N0040001N1+02621+02071101031ADDAA106000091GF103991031051008001001001MA1999999097661MD1999999+0021REMSYN088AAXX  24004 82583 32596 30504 10262 20207 39766 40103 83500 333 10321 29066 55039 58002;EQDQ01  00002PRCP06
0173825830999992005012412004-05170-040670FM-12+029999999V0203201N002110120019N0500001N1+02691+02261101141ADDAA106000091GF106991061081008001001001MA1999999097781MD1999999-0181REMSYN076AAXX  24124 82583 32599 63204 10269 20226 39778 40114 86800 333 20245 59018;EQDQ01  00002PRCP06
0185825830999992005012500004-05167-040667FM-12+029999999V0203201N000510120019N0040001N1+02771+02321101021ADDAA106000091GF108991081081008001999999MA1999999097661MD1999999+0001REMSYN088AAXX  25004 82583 32596 83201 10277 20232 39766 40102 888// 333 10317 29069 55049 58000;EQDQ01  00002PRCP06
0177825830999992005012512004-05167-040667FM-12+029999999V0203601N002110075019N0500001N1+02571+02291101101ADDAY191061AY291061GF106991051051008001001011MA1999999097741MD1999999-0041MW1021REMSYN088AAXX  25124 82583 21599 63604 10257 20229 39774 40110 70299 85501 333 20230 59004 60444;
0189825830999992005012600004-05167-040667FM-12+029999999V0202301N004610075019N0020001N1+02581+02191101021ADDAY121061AY221061GF108991081091008001999999MA1999999097651MD1999999-0011MW1951REMSYN100AAXX  26004 82583 21595 82309 10258 20219 39765 40102 79522 889// 333 10326 29072 55077 59001 60101;
0177825830999992005012612004-05167-040667FM-12+029999999V0200901N001510075019N0500001N1+02261+02181101431ADDAY191061AY261061GF108991081051008001999999MA1999999098031MD1999999+0291MW1611REMSYN088AAXX  26124 82583 21599 80903 10226 20218 39803 40143 76196 885// 333 20213 58029 61144;
0189825830999992005012700004-05167-040667FM-12+029999999V0202701N000510075019N0040001N1+02561+02331101011ADDAY161061AY261061GF105991051091008001001001MA1999999097621MD1999999-0031MW1021REMSYN100AAXX  27004 82583 21596 52701 10256 20233 39762 40101 70266 85900 333 10306 29084 55036 59003 69951;
0149825830999992005012712004-05167-040667FM-12+029999999V0200901N002612200019N0500001N1+02761+02281101271ADDGF104991041021008001001001MA1999999097901MD1999999-0131REMSYN082AAXX  27124 82583 22599 40905 10276 20228 39790 40127 84200 333 20222 59013 69954;
0179825830999992005012800004-05167-040667FM-12+029999999V0200901N001012200019N0040001N1+02751+02541100821ADDAA106000091GF100991001001999999001001MA1999999097481MD1999999+0141REMSYN082AAXX  28004 82583 32996 00902 10275 20254 39748 40082 333 10339 29076 55104 58014;EQDQ01  00002PRCP06
0173825830999992005012812004-05167-040667FM-12+029999999V0200901N002110075019N0500001N1+02651+02181101171ADDAA106000091GF107991051051008001001021MA1999999097811MD1999999-0091REMSYN076AAXX  28124 82583 32599 70904 10265 20218 39781 40117 85502 333 20237 59009;EQDQ01  00002PRCP06
0185825830999992005012900004-05167-040667FM-12+029999999V0203201N001012200019N0040001N1+02801+02361100781ADDAA106000091GF102991021011008001001001MA1999999097431MD1999999-0051REMSYN088AAXX  29004 82583 32596 23202 10280 20236 39743 40078 82100 333 10322 29070 55062 59005;EQDQ01  00002PRCP06
0173825830999992005012912004-05167-040667FM-12+029999999V0200501N004610075019N0500001N1+02621+02181100941ADDAA106000091GF106991061051008001001001MA1999999097581MD1999999-0231REMSYN076AAXX  29124 82583 32599 60509 10262 20218 39758 40094 86500 333 20225 59023;EQDQ01  00002PRCP06
0195825830999992005013000004-05170-040670FM-12+029999999V0209999C000012200019N0040001N1+02691+02371100731ADDAA106000091GA1001+999999999GF100991001001999999001001MA1999999097371MD1999999-0061REMSYN082AAXX  30004 82583 32996 03200 10269 20237 39737 40073 333 10312 29072 55058 59006;EQDQ01  00002PRCP06
0173825830999992005013012004-05170-040670FM-12+029999999V0200501N004110075019N0500001N1+02631+02161100891ADDAA106000091GF106991061021008001001001MA1999999097541MD1999999-0041REMSYN076AAXX  30124 82583 32599 60508 10263 20216 39754 40089 86200 333 20229 59004;EQDQ01  00002PRCP06
0198825830999992005013100004-05167-040667FM-12+029999999V0203201N000512200019N0040001N1+02691+02261100681ADDAA106000091GF102991021051008001001001KA1240M+03261MA1999999097341MD1999999-0031REMSYN088AAXX  31004 82583 32596 23201 10269 20226 39734 40068 82500 333 10326 29070 55079 59003;EQDQ01  00002PRCP06
0186825830999992005013112004-05167-040667FM-12+029999999V0200501N003610120019N0500001N1+02631+02091100901ADDAA106000091GF105991051081008001001001KA1240N+02201MA1999999097541MD1999999+0001REMSYN076AAXX  31124 82583 32599 50507 10263 20209 39754 40090 85800 333 20220 58000;EQDQ01  00002PRCP06
0185825830999992005020100004-05167-040667FM-12+029999999V0202701N001012200019N0040001N1+02691+02111100671ADDAA106000091GF102991021011008001001001MA1999999097321MD1999999-0021REMSYN088AAXX  01004 82583 32596 22702 10269 20211 39732 40067 82100 333 10331 29062 55098 59002;EQDQ01  00002PRCP06
0173825830999992005020112004-05167-040667FM-12+029999999V0200901N001510120019N0500001N1+02641+02091100961ADDAA106000091GF107991051081008001031001MA1999999097601MD1999999+0061REMSYN076AAXX  01124 82583 32599 70903 10264 20209 39760 40096 85830 333 20228 58006;EQDQ01  00002PRCP06
0185825830999992005020200004-05167-040667FM-12+029999999V0203601N002610075019N0040001N1+02771+02161100741ADDAA106000091GF106991061051008001001001MA1999999097391MD1999999+0071REMSYN088AAXX  02004 82583 32596 63605 10277 20216 39739 40074 86500 333 10338 29064 55067 58007;EQDQ01  00002PRCP06
0173825830999992005020212004-05167-040667FM-12+029999999V0200501N003112200019N0500001N1+02831+02191100831ADDAA106000091GF102991011011008001001011MA1999999097491MD1999999-0111REMSYN076AAXX  02124 82583 32599 20506 10283 20219 39749 40083 81101 333 20237 59011;EQDQ01  00002PRCP06
0185825830999992005020300004-05167-040667FM-12+029999999V0200901N001512200019N0040001N1+02711+02031100661ADDAA106000091GF101991011011008001001001MA1999999097321MD1999999-0071REMSYN088AAXX  03004 82583 32596 10903 10271 20203 39732 40066 81100 333 10340 29058 55096 59007;EQDQ01  00002PRCP06
0173825830999992005020312004-05167-040667FM-12+029999999V0200901N004110450019N0500001N1+02761+02161100991ADDAA106000091GF105991021011008001031001MA1999999097641MD1999999+0151REMSYN076AAXX  03124 82583 32599 50908 10276 20216 39764 40099 82130 333 20248 58015;EQDQ01  00002PRCP06
0185825830999992005020400004-05167-040667FM-12+029999999V0209999C000012200019N0040001N1+02801+02111100781ADDAA106000091GF102991021011008001001001MA1999999097441MD1999999+0121REMSYN088AAXX  04004 82583 32596 20900 10280 20211 39744 40078 82100 333 10344 29058 55090 58012;EQDQ01  00002PRCP06
0173825830999992005020412004-05167-040667FM-12+029999999V0200901N004612200019N0500001N1+02831+02221101111ADDAA106000091GF102991011011008001001011MA1999999097761MD1999999+0121REMSYN076AAXX  04124 82583 32599 20909 10283 20222 39776 40111 81101 333 20236 58012;EQDQ01  00002PRCP06
0185825830999992005020500004-05167-040667FM-12+029999999V0200901N000512200019N0040001N1+02811+01941101021ADDAA106000091GF104991041011008001001001MA1999999097671MD1999999+0231REMSYN088AAXX  05004 82583 32596 40901 10281 20194 39767 40102 84100 333 10345 29062 55100 58023;EQDQ01  00002PRCP06
0173825830999992005020512004-05167-040667FM-12+029999999V0200501N003610075019N0500001N1+02771+02161101291ADDAA106000091GF106991061021008001001001MA1999999097941MD1999999+0181REMSYN076AAXX  05124 82583 32599 60507 10277 20216 39794 40129 86200 333 20229 58018;EQDQ01  00002PRCP06
0185825830999992005020600004-05170-040670FM-12+029999999V0201801N002610120019N0040001N1+02871+02051100961ADDAA106000091GF107991071081008001001001MA1999999097621MD1999999-0051REMSYN088AAXX  06004 82583 32596 71805 10287 20205 39762 40096 87800 333 10354 29055 55091 59005;EQDQ01  00002PRCP06
0173825830999992005020612004-05170-040670FM-12+029999999V0200901N003112200019N0500001N1+02791+02201101141ADDAA106000091GF103991999011008001001001MA1999999097801MD1999999-0141REMSYN076AAXX  06124 82583 32599 30906 10279 20220 39780 40114 82100 333 20229 59014;EQDQ01  00002PRCP06
0185825830999992005020700004-05167-040667FM-12+029999999V0203601N002619999999N0040001N1+02841+02091100791ADDAA106000091GF107991999021008001001001MA1999999097451MD1999999-0171REMSYN088AAXX  07004 82583 32596 73605 10284 20209 39745 40079 83200 333 10348 29059 55092 59017;EQDQ01  00002PRCP06
0173825830999992005020712004-05167-040667FM-12+029999999V0200901N003610075019N0500001N1+02701+02201100991ADDAA106000091GF107991071021008001001001MA1999999097651MD1999999-0151REMSYN076AAXX  07124 82583 32599 70907 10270 20220 39765 40099 87200 333 20247 59015;EQDQ01  00002PRCP06
0185825830999992005020800004-05167-040667FM-12+029999999V0200901N000512200019N0040001N1+02941+02031100721ADDAA106000091GF102991021011008001001001MA1999999097381MD1999999-0071REMSYN088AAXX  08004 82583 32596 20901 10294 20203 39738 40072 82100 333 10331 29058 55072 59007;EQDQ01  00002PRCP06
0173825830999992005020812004-05167-040667FM-12+029999999V0200901N004610120019N0500001N1+02661+02091101011ADDAA106000091GF108991081081008001999999MA1999999097661MD1999999+0011REMSYN076AAXX  08124 82583 32599 80909 10266 20209 39766 40101 888// 333 20242 58001;EQDQ01  00002PRCP06
0179825830999992005020900004-05167-040667FM-12+029999999V0203601N001012200019N0040001N1+02751+02041100841ADDAA106000091GF100991001001999999001001MA1999999097491MD1999999+0111REMSYN082AAXX  09004 82583 32996 03602 10275 20204 39749 40084 333 10326 29060 55056 58011;EQDQ01  00002PRCP06
0173825830999992005020912004-05167-040667FM-12+029999999V0200901N004610075019N0500001N1+02671+02111101011ADDAA106000091GF106991061021008001001001MA1999999097651MD1999999-0011REMSYN076AAXX  09124 82583 32599 60909 10267 20211 39765 40101 86200 333 20224 59001;EQDQ01  00002PRCP06
0179825830999992005021000004-05167-040667FM-12+029999999V0203601N001012200019N0040001N1+02861+02031100691ADDAA106000091GF100991001001999999001001MA1999999097611MD1999999-0141REMSYN082AAXX  10004 82583 32996 03602 10286 20203 39761 40069 333 10335 29058 55087 59014;EQDQ01  00002PRCP06
0173825830999992005021012004-05167-040667FM-12+029999999V0200501N003110120019N0500001N1+02651+02041100961ADDAA106000091GF108991081081008001999999MA1999999097611MD1999999-0041REMSYN076AAXX  10124 82583 32599 80506 10265 20204 39761 40096 888// 333 20235 59004;EQDQ01  00002PRCP06
0185825830999992005021100004-05167-040667FM-12+029999999V0203201N000512200019N0040001N1+02871+02251100711ADDAA106000091GF102991021011008001001001MA1999999097371MD1999999+0021REMSYN088AAXX  11004 82583 32596 23201 10287 20225 39737 40071 82100 333 10334 29062 55077 58002;EQDQ01  00002PRCP06
0177825830999992005021112004-05167-040667FM-12+029999999V0200501N002110075019N0500001N1+02701+02221100961ADDAY151061AY251061GF108991051051008001021999MA1999999097621MD1999999+0011MW1021REMSYN088AAXX  11124 82583 21599 80504 10270 20222 39762 40096 70255 8552/ 333 20246 58001 69914;
0185825830999992005021200004-05167-040667FM-12+029999999V0201401N002612200019N0040001N1+02781+02131100811ADDAA106000091GF101991011011008001001001MA1999999097461MD1999999+0091REMSYN088AAXX  12004 82583 32596 11405 10278 20213 39746 40081 81100 333 10329 29064 55032 58009;EQDQ01  00002PRCP06
0177825830999992005021212004-05167-040667FM-12+029999999V0200901N003110075019N0500001N1+02551+02271101021ADDAY161061AY261061GF107991071051008001001001MA1999999097661MD1999999+0041MW1021REMSYN088AAXX  12124 82583 21599 70906 10255 20227 39766 40102 70266 87500 333 20230 58004 60024;
0185825830999992005021300004-05170-040670FM-12+029999999V0203601N001012200019N0040001N1+02601+02251101081ADDAA106000091GF104991041011008001001001MA1999999097711MD1999999+0251REMSYN088AAXX  13004 82583 32596 43602 10260 20225 39771 40108 84100 333 10298 29074 55004 58025;EQDQ01  00002PRCP06
0173825830999992005021312004-05170-040670FM-12+029999999V0200901N003110075019N0500001N1+02761+02231101161ADDAA106000091GF106991061021008001001001MA1999999097801MD1999999+0141REMSYN076AAXX  13124 82583 32599 60906 10276 20223 39780 40116 86200 333 20224 58014;EQDQ01  00002PRCP06
0185825830999992005021400004-05167-040667FM-12+029999999V0203601N003112200019N0040001N1+02971+02151100931ADDAA106000091GF102991021011008001001001MA1999999097601MD1999999-0111REMSYN088AAXX  14004 82583 32596 23606 10297 20215 39760 40093 82100 333 10345 29055 55075 59011;EQDQ01  00002PRCP06
0173825830999992005021412004-05167-040667FM-12+029999999V0209999C000010075019N0500001N1+02631+02271101011ADDAA106000091GF108991081071008001999999MA1999999097661MD1999999-0141REMSYN076AAXX  14124 82583 32599 80500 10263 20227 39766 40101 887// 333 20247 59014;EQDQ01  00002PRCP06
0185825830999992005021500004-05167-040667FM-12+029999999V0203601N004612200019N0040001N1+02561+02111100971ADDAA106000091GF104991041081008001001001MA1999999097601MD1999999+0001REMSYN088AAXX  15004 82583 32596 43609 10256 20211 39760 40097 84800 333 10302 29072 55000 58000;EQDQ01  00002PRCP06
0173825830999992005021512004-05167-040667FM-12+029999999V0203201N001010120019N0500001N1+02561+02251100971ADDAA106000091GF108991081081008001999999MA1999999097591MD1999999-0091REMSYN076AAXX  15124 82583 32599 83202 10256 20225 39759 40097 888// 333 20232 59009;EQDQ01  00002PRCP06
0189825830999992005021600004-05167-040667FM-12+029999999V0203601N002110075019N0040001N1+02391+02301100901ADDAY161061AY261061GF108991081051008001999999MA1999999097511MD1999999-0091MW1021REMSYN100AAXX  16004 82583 21596 83604 10239 20230 39751 40090 70266 885// 333 10323 29092 55022 59009 60291;
0149825830999992005021612004-05167-040667FM-12+029999999V0203601N001510075019N0500001N1+02521+02231100911ADDGF108991081051008001999999MA1999999097531MD1999999-0061REMSYN082AAXX  16124 82583 22599 83603 10252 20223 39753 40091 885// 333 20223 59006 60294;
0185825830999992005021700004-05167-040667FM-12+029999999V0202701N001510075019N0040001N1+02491+02361100901ADDAA106000091GF108991081051008001999999MA1999999097531MD1999999+0021REMSYN088AAXX  17004 82583 32596 82703 10249 20236 39753 40090 885// 333 10309 29081 55032 58002;EQDQ01  00002PRCP06
0177825830999992005021712004-05167-040667FM-12+029999999V0200901N003110075019N0500001N1+02681+02331101021ADDAY161061AY261061GF107991051021008001021001MA1999999097651MD1999999+0121MW1021REMSYN088AAXX  17124 82583 21599 70906 10268 20233 39765 40102 70266 85220 333 20236 58012 69944;
0189825830999992005021800004-05167-040667FM-12+029999999V0203201N002110120019N0040001N1+02481+02291101001ADDAY161061AY261061GF108991081081008001999999MA1999999097621MD1999999+0091MW1021REMSYN100AAXX  18004 82583 21596 83204 10248 20229 39762 40100 70266 888// 333 10318 29078 55040 58009 60021;
0149825830999992005021812004-05167-040667FM-12+029999999V0201401N002110075019N0500001N1+02751+02301101161ADDGF106991051021008001001011MA1999999097791MD1999999+0141REMSYN082AAXX  18124 82583 22599 61404 10275 20230 39779 40116 85201 333 20229 58014 60024;
0185825830999992005021900004-05167-040667FM-12+029999999V0209999C000010075019N0040001N1+02831+02351101001ADDAA106000091GF108991081091008001999999MA1999999097661MD1999999+0041REMSYN088AAXX  19004 82583 32596 83200 10283 20235 39766 40100 889// 333 10341 29064 55070 58004;EQDQ01  00002PRCP06
0177825830999992005021912004-05167-040667FM-12+029999999V0200901N005712200019N0500001N1+02831+02171101061ADDAY161061AY261061GF106991031011008001001011MA1999999097721MD1999999-0071MW1031REMSYN088AAXX  19124 82583 21599 60911 10283 20217 39772 40106 70366 83101 333 20238 59007 69934;
0173825830999992005022012004-05170-040670FM-12+029999999V0200501N002110120019N0500001N1+02681+02261101061ADDAA106000091GF108991081081008001999999MA1999999097711MD1999999-0011REMSYN076AAXX  20124 82583 32599 80504 10268 20226 39771 40106 888// 333 20227 59001;EQDQ01  00002PRCP06
0201825830999992005022100004-05167-040667FM-12+029999999V0201801N001010075019N0040001N1+02811+02361100701ADDAA106000091GF106991061051008001001001MA1999999999999MD1999999-0161REMSYN088AAXX  21004 82583 32596 61802 10281 20236 39536 40070 86500 333 10332 29066 55075 59016;EQDQ01  00002PRCP06Q02 095363APOSP 
0173825830999992005022112004-05167-040667FM-12+029999999V0200501N002610450019N0500001N1+02581+02171100941ADDAA106000091GF108991041051008001021999MA1999999097581MD1999999-0131REMSYN076AAXX  21124 82583 32599 80505 10258 20217 39758 40094 8452/ 333 20237 59013;EQDQ01  00002PRCP06
0185825830999992005022200004-05167-040667FM-12+029999999V0202701N000512200019N0040001N1+02741+02241100741ADDAA106000091GF103991001001999999001011MA1999999097381MD1999999+0021REMSYN088AAXX  22004 82583 32996 32701 10274 20224 39738 40074 80001 333 10328 29068 55052 58002;EQDQ01  00002PRCP06
0173825830999992005022212004-05167-040667FM-12+029999999V0200901N001510450019N0500001N1+02581+02171101091ADDAA106000091GF108991021011008001021999MA1999999097731MD1999999+0151REMSYN076AAXX  22124 82583 32599 80903 10258 20217 39773 40109 8212/ 333 20236 58015;EQDQ01  00002PRCP06
0185825830999992005022300004-05167-040667FM-12+029999999V0202301N001510450019N0040001N1+02731+02051101011ADDAA106000091GF108991041051008001051999MA1999999097651MD1999999+0271REMSYN088AAXX  23004 82583 32596 82303 10273 20205 39765 40101 8455/ 333 10310 29064 55001 58027;EQDQ01  00002PRCP06
0173825830999992005022312004-05167-040667FM-12+029999999V0200501N004110450019N0500001N1+02821+02241101141ADDAA106000091GF106991041021008001051001MA1999999097791MD1999999+0061REMSYN076AAXX  23124 82583 32599 60508 10282 20224 39779 40114 84250 333 20238 58006;EQDQ01  00002PRCP06
0185825830999992005022400004-05167-040667FM-12+029999999V0203201N001010120019N0040001N1+02971+02171101001ADDAA106000091GF105991051081008001051999MA1999999097661MD1999999+0011REMSYN088AAXX  24004 82583 32596 53202 10297 20217 39766 40100 8585/ 333 10349 29056 55074 58001;EQDQ01  00002PRCP06
0177825830999992005022412004-05167-040667FM-12+029999999V0200501N004610120019N0500001N1+02731+02211101181ADDAY151061AY251061GF108991071081008001001011MA1999999097841MD1999999+0051MW1021REMSYN088AAXX  24124 82583 21599 80509 10273 20221 39784 40118 70255 87801 333 20245 58005 69944;
0185825830999992005022500004-05167-040667FM-12+029999999V0200501N002110075019N0040001N1+02951+01991101061ADDAA106000091GF105991051011008001001001MA1999999097711MD1999999+0051REMSYN088AAXX  25004 82583 32596 50504 10295 20199 39771 40106 85100 333 10348 29052 55082 58005;EQDQ01  00002PRCP06
0173825830999992005022512004-05167-040667FM-12+029999999V0200901N003610075019N0500001N1+02841+02221101131ADDAA106000091GF106991061021008001001001MA1999999097791MD1999999-0051REMSYN076AAXX  25124 82583 32599 60907 10284 20222 39779 40113 86200 333 20236 59005;EQDQ01  00002PRCP06
0189825830999992005022600004-05167-040667FM-12+029999999V0200501N003110120019N0040001N1+02541+02331101061ADDAY161061AY261061GF106991061081008001001001MA1999999097701MD1999999-0011MW1021REMSYN100AAXX  26004 82583 21596 60506 10254 20233 39770 40106 70266 86800 333 10361 29068 55093 59001 60041;
0149825830999992005022612004-05167-040667FM-12+029999999V0200901N002112200019N0500001N1+02791+02271101111ADDGF103991031021008001001001MA1999999097751MD1999999-0041REMSYN082AAXX  26124 82583 22599 30904 10279 20227 39775 40111 83200 333 20238 59004 60044;
0189825830999992005022700004-05170-040670FM-12+029999999V0203201N003610120019N0040001N1+02721+02261101021ADDAY121061AY221061GF108991081081008001999999MA1999999097671MD1999999+0031MW1511REMSYN100AAXX  27004 82583 21596 83207 10272 20226 39767 40102 75122 888// 333 10349 29064 55083 58003 69911;
0177825830999992005022712004-05170-040670FM-12+029999999V0200901N001512200019N0040001N1+02741+02401101091ADDAY151061AY251061GF103991031021008001001001MA1999999097731MD1999999-0021MW1021REMSYN088AAXX  27124 82583 21596 30903 10274 20240 39773 40109 70255 83200 333 20242 59002 69954;
0162825830999992005022812004-05167-040667FM-12+029999999V0200501N005712200019N0500001N1+02941+02191101181ADDGF105991041021008001001011KA1240N+02471MA1999999097831MD1999999+0101REMSYN082AAXX  28124 82583 22599 50511 10294 20219 39783 40118 84201 333 20247 58010 69924;
0179825830999992005030100004-05167-040667FM-12+029999999V0200501N002612200019N0040001N1+02931+01881100871ADDAA106000091GF100991001001999999001001MA1999999097551MD1999999-0051REMSYN082AAXX  01004 82583 32996 00505 10293 20188 39755 40087 333 10363 29048 55104 59005;EQDQ01  00002PRCP06
0173825830999992005030112004-05167-040667FM-12+029999999V0200901N004610075019N0500001N1+02771+02131101161ADDAA106000091GF106991061021008001001001MA1999999097821MD1999999-0011REMSYN076AAXX  01124 82583 32599 60909 10277 20213 39782 40116 86200 333 20222 59001;EQDQ01  00002PRCP06
0185825830999992005030200004-05167-040667FM-12+029999999V0200501N001512200019N0040001N1+02991+01811100771ADDAA106000091GF101991001001999999001011MA1999999097441MD1999999-0111REMSYN088AAXX  02004 82583 32996 10503 10299 20181 39744 40077 80001 333 10360 29050 55087 59011;EQDQ01  00002PRCP06
0173825830999992005030212004-05167-040667FM-12+029999999V0200901N002110075019N0500001N1+02781+02131101221ADDAA106000091GF107991071051008001001001MA1999999097781MD1999999-0041REMSYN076AAXX  02124 82583 32599 70904 10278 20213 39778 40122 87500 333 20227 59004;EQDQ01  00002PRCP06
0185825830999992005030300004-05167-040667FM-12+029999999V0203601N002112200019N0040001N1+03021+01861100871ADDAA106000091GF101991011011008001001001MA1999999097541MD1999999+0101REMSYN088AAXX  03004 82583 32596 13604 10302 20186 39754 40087 81100 333 10356 29049 55069 58010;EQDQ01  00002PRCP06
0173825830999992005030312004-05167-040667FM-12+029999999V0200501N003610075019N0500001N1+02821+02241101111ADDAA106000091GF106991051021008001041001MA1999999097771MD1999999-0011REMSYN076AAXX  03124 82583 32599 60507 10282 20224 39777 40111 85240 333 20251 59001;EQDQ01  00002PRCP06
0185825830999992005030400004-05167-040667FM-12+029999999V0203601N002610075019N0040001N1+03001+02271100881ADDAA106000091GF105991051051008001001001MA1999999097561MD1999999+0021REMSYN088AAXX  04004 82583 32596 53605 10300 20227 39756 4//// 85500 333 10364 29/// 55068 58002;EQDQ01  00002PRCP06
0173825830999992005030412004-05167-040667FM-12+029999999V0200901N004611050019N0500001N1+02841+02041101251ADDAA106000091GF107991011011008001001021MA1999999097911MD1999999+0141REMSYN076AAXX  04124 82583 32599 70909 10284 20204 39791 40125 81102 333 20248 58014;EQDQ01  00002PRCP06
0185825830999992005030500004-05167-040667FM-12+029999999V0200501N002612200019N0040001N1+02921+01721100931ADDAA106000091GF101991011011008001001001MA1999999097601MD1999999+0041REMSYN088AAXX  05004 82583 32596 10505 10292 20172 39760 40093 81100 333 10356 29/// 55048 58004;EQDQ01  00002PRCP06
0173825830999992005030512004-05167-040667FM-12+029999999V0200901N007212200019N0500001N1+02901+01871101331ADDAA106000091GF102991011011008001001011MA1999999097981MD1999999+0071REMSYN076AAXX  05124 82583 32599 20914 10290 20187 39798 40133 81101 333 20232 58007;EQDQ01  00002PRCP06
0179825830999992005030600004-05170-040670FM-12+029999999V0200901N001512200019N0040001N1+02921+01671101001ADDAA106000091GF100991001001999999001001MA1999999097661MD1999999+0061REMSYN082AAXX  06004 82583 32996 00903 10292 20167 39766 40100 333 10365 29/// 55100 58006;EQDQ01  00002PRCP06
0173825830999992005030612004-05170-040670FM-12+029999999V0200901N004612200019N0500001N1+02951+01961101101ADDAA106000091GF102991011011008001001011MA1999999097761MD1999999-0221REMSYN076AAXX  06124 82583 32599 20909 10295 20196 39776 40110 81101 333 20233 59022;EQDQ01  00002PRCP06
0179825830999992005030700004-05167-040667FM-12+029999999V0200501N002112200019N0040001N1+03061+01581100811ADDAA106000091GF100991001001999999001001MA1999999097491MD1999999-0171REMSYN082AAXX  07004 82583 32996 00504 10306 20158 39749 40081 333 10374 29/// 55100 59017;EQDQ01  00002PRCP06
0173825830999992005030712004-05167-040667FM-12+029999999V0200901N002612200019N0500001N1+02901+02201101051ADDAA106000091GF106991041011008001001011MA1999999097731MD1999999-0031REMSYN076AAXX  07124 82583 32599 60905 10290 20220 39773 40105 84101 333 20234 59003;EQDQ01  00002PRCP06
0185825830999992005030800004-05167-040667FM-12+029999999V0200501N001010075019N0040001N1+02871+01571100961ADDAA106000091GF106991061051008001001001MA1999999097631MD1999999+0141REMSYN088AAXX  08004 82583 32596 60502 10287 20157 39763 40096 86500 333 10353 29/// 55060 58014;EQDQ01  00002PRCP06
0179825830999992005030900004-05167-040667FM-12+029999999V0203601N001512200019N0040001N1+02841+02241100941ADDAA106000091GF100991001001999999001001MA1999999097601MD1999999-0031REMSYN082AAXX  09004 82583 32996 03603 10284 20224 39760 40094 333 10364 29/// 55051 59003;EQDQ01  00002PRCP06
0149825830999992005030912004-05167-040667FM-12+029999999V0200901N003112200019N0500001N1+02911+02121101121ADDGF103991021021008001001011MA1999999097781MD1999999-0041REMSYN082AAXX  09124 82583 22599 30906 10291 20212 39778 40112 82201 333 20247 59004 60034;
0185825830999992005031000004-05167-040667FM-12+029999999V0203601N003112200019N0040001N1+02811+02101100901ADDAA106000091GF102991021011008001001001MA1999999097561MD1999999-0041REMSYN088AAXX  10004 82583 32596 23606 10281 20210 39756 40090 82100 333 10362 29/// 55102 59004;EQDQ01  00002PRCP06
0173825830999992005031012004-05167-040667FM-12+029999999V0200901N001510075019N0500001N1+02851+02161101151ADDAA106000091GF106991061021008001001001MA1999999097811MD1999999+0031REMSYN076AAXX  10124 82583 32599 60903 10285 20216 39781 40115 86200 333 20240 58003;EQDQ01  00002PRCP06
0189825830999992005031100004-05167-040667FM-12+029999999V0203601N001512200019N0040001N1+02681+02201101031ADDAY151061AY251061GF103991031011008001001001MA1999999097681MD1999999+0121MW1021REMSYN100AAXX  11004 82583 21596 33603 10268 20220 39768 40103 70255 83100 333 10369 29/// 55080 58012 69911;
0149825830999992005031112004-05167-040667FM-12+029999999V0201401N003110075019N0500001N1+02791+02181101151ADDGF107991061021008001031001MA1999999097801MD1999999-0011REMSYN082AAXX  11124 82583 22599 71406 10279 20218 39780 40115 86230 333 20258 59001 69914;
0173825830999992005031212004-05167-040667FM-12+029999999V0200901N003610120019N0500001N1+02811+02101101221ADDAA106000091GF107991071081008001001001MA1999999097861MD1999999+0061REMSYN076AAXX  12124 82583 32599 70907 10281 20210 39786 40122 87800 333 20236 58006;EQDQ01  00002PRCP06
0185825830999992005031300004-05170-040670FM-12+029999999V0203601N003110120019N0040001N1+02731+02211100961ADDAA106000091GF106991061081008001001001MA1999999097621MD1999999-0131REMSYN088AAXX  13004 82583 32596 63606 10273 20221 39762 40096 86800 333 10343 29/// 55023 59013;EQDQ01  00002PRCP06
0173825830999992005031312004-05170-040670FM-12+029999999V0200501N002110075019N0500001N1+02791+02201101181ADDAA106000091GF106991061021008001001001MA1999999097831MD1999999-0031REMSYN076AAXX  13124 82583 32599 60504 10279 20220 39783 40118 86200 333 20237 59003;EQDQ01  00002PRCP06
0185825830999992005031400004-05170-040670FM-12+029999999V0203601N003612200019N0040001N1+02671+02091100841ADDAA106000091GF101991011011008001001001MA1999999097491MD1999999-0131REMSYN088AAXX  14004 82583 32596 13607 10267 20209 39749 40084 81100 333 10365 29/// 55089 59013;EQDQ01  00002PRCP06
0173825830999992005031412004-05170-040670FM-12+029999999V0200901N001510075019N0500001N1+02821+02201101071ADDAA106000091GF106991051021008001031001MA1999999097711MD1999999-0121REMSYN076AAXX  14124 82583 32599 60903 10282 20220 39771 40107 85230 333 20238 59012;EQDQ01  00002PRCP06
0189825830999992005031500004-05167-040667FM-12+029999999V0202701N000510120019N0040001N1+02791+02201100721ADDAY161061AY261061GF107991071081008001001001MA1999999097381MD1999999-0111MW1131REMSYN100AAXX  15004 82583 21596 72701 10279 20220 39738 40072 71366 87800 333 10368 29059 55075 59011 60021;
0149825830999992005031512004-05167-040667FM-12+029999999V0200901N002110450019N0500001N1+02841+02191100941ADDGF106991041021008001031001MA1999999097601MD1999999-0111REMSYN082AAXX  15124 82583 22599 60904 10284 20219 39760 40094 84230 333 20243 59011 60024;
0185825830999992005031600004-05167-040667FM-12+029999999V0202701N003110120019N0040001N1+02941+02261100861ADDAA106000091GF106991061081008001001001MA1999999097531MD1999999+0151REMSYN088AAXX  16004 82583 32596 62706 10294 20226 39753 40086 86800 333 10356 29056 55067 58015;EQDQ01  00002PRCP06
0173825830999992005031612004-05167-040667FM-12+029999999V0200901N006710450019N0500001N1+02841+01991101061ADDAA106000091GF107991021011008001021001MA1999999097721MD1999999+0121REMSYN076AAXX  16124 82583 32599 70913 10284 20199 39772 40106 82120 333 20250 58012;EQDQ01  00002PRCP06
0185825830999992005031700004-05167-040667FM-12+029999999V0201401N001512200019N0040001N1+02931+01821100871ADDAA106000091GF103991021011008001001011MA1999999097541MD1999999+0011REMSYN088AAXX  17004 82583 32596 31403 10293 20182 39754 40087 82101 333 10351 29049 55038 58001;EQDQ01  00002PRCP06
0173825830999992005031712004-05167-040667FM-12+029999999V0200501N001511050019N0500001N1+02811+02051101131ADDAA106000091GF106991021011008001001021MA1999999097791MD1999999+0071REMSYN076AAXX  17124 82583 32599 60503 10281 20205 39779 40113 82102 333 20247 58007;EQDQ01  00002PRCP06
0213825830999992005031800004-05167-040667FM-12+029999999V0203201N002119999999N0040001N1+03021+02071100911ADDAA106000091AY121061AY211061GF108991081999008001999999MA1999999097581MD1999999+0041MW1131REMSYN094AAXX  18004 82583 31596 83204 10302 20207 39758 40091 71321 88/// 333 10367 29050 55061 58004;EQDQ01  00002PRCP06
0173825830999992005031812004-05167-040667FM-12+029999999V0203601N001011050019N0500001N1+02831+02191101111ADDAA106000091GF106991041021008001001021MA1999999097771MD1999999-0021REMSYN076AAXX  18124 82583 32599 63602 10283 20219 39777 40111 84202 333 20251 59002;EQDQ01  00002PRCP06
0189825830999992005031900004-05167-040667FM-12+029999999V0203601N001510042019N0010001N1+02361+02291101191ADDAY121061AY221061GF108991081051004501999999MA1999999097821MD1999999+0241MW1951REMSYN100AAXX  19004 82583 21494 83603 10236 20229 39782 40119 79522 885// 333 10362 29076 55059 58024 60111;
0177825830999992005031912004-05167-040667FM-12+029999999V0200501N001510450019N0500001N1+02631+02331101221ADDAY161061AY261061GF106991041021008001031001MA1999999097841MD1999999+0071MW1021REMSYN088AAXX  19124 82583 21599 60503 10263 20233 39784 40122 70266 84230 333 20231 58007 60334;
0189825830999992005032000004-05170-040670FM-12+029999999V0203601N001510450019N0040001N1+02331+02261101321ADDAY161061AY261061GF108991041061008001021999MA1999999097931MD1999999+0111MW1031REMSYN100AAXX  20004 82583 21596 83603 10233 20226 39793 40132 70366 8462/ 333 10322 29090 55049 58011 60011;
0149825830999992005032012004-05170-040670FM-12+029999999V0200901N001510075019N0500001N1+02641+02271101351ADDGF106991061021008001001001MA1999999097961MD1999999+0121REMSYN082AAXX  20124 82583 22599 60903 10264 20227 39796 40135 86200 333 20225 58012 60014;
0189825830999992005032100004-05167-040667FM-12+029999999V0209999C000010075019N0040001N1+02381+02311101101ADDAY161061AY261061GF108991081051008001999999MA1999999097721MD1999999-0211MW1021REMSYN100AAXX  21004 82583 21596 82700 10238 20231 39772 40110 70266 885// 333 10329 29080 55053 59021 60101;
0177825830999992005032112004-05167-040667FM-12+029999999V0200501N002112200019N0500001N1+02731+02321101221ADDAY161061AY261061GF104991031011008001041001MA1999999097841MD1999999-0121MW1021REMSYN088AAXX  21124 82583 21599 40504 10273 20232 39784 40122 70266 83140 333 20240 59012 60224;
0189825830999992005032200004-05167-040667FM-12+029999999V0202701N001010075019N0040001N1+02281+02231101131ADDAY161061AY261061GF108991081051008001999999MA1999999097751MD1999999+0031MW1211REMSYN100AAXX  22004 82583 21596 82702 10228 20223 39775 40113 72166 885// 333 10320 29081 55047 58003 60251;
0149825830999992005032212004-05167-040667FM-12+029999999V0201401N000510120019N0500001N1+02531+02311101321ADDGF107991061081008001021999MA1999999097921MD1999999+0011REMSYN082AAXX  22124 82583 22599 71401 10253 20231 39792 40132 8682/ 333 20223 58001 60254;
0189825830999992005032300004-05167-040667FM-12+029999999V0203601N003119999999N0040001N1+02461+02341101181ADDAY161061AY261061GF108991081999008001999999MA1999999097801MD1999999+0051MW1021REMSYN100AAXX  23004 82583 21596 83606 10246 20234 39780 40118 70266 88/// 333 10291 29089 55015 58005 60061;
0177825830999992005032312004-05167-040667FM-12+029999999V0201401N001510120019N0500001N1+02581+02371101331ADDAY161061AY251061GF108991081081008001999999MA1999999097991MD1999999+0071MW1021REMSYN088AAXX  23124 82583 21599 81403 10258 20237 39799 40133 70265 888// 333 20232 58007 60164;
0189825830999992005032400004-05167-040667FM-12+029999999V0203201N000510075019N0040001N1+02341+02271101291ADDAY161061AY261061GF108991081051008001999999MA1999999097891MD1999999+0091MW1021REMSYN100AAXX  24004 82583 21596 83201 10234 20227 39789 40129 70266 885// 333 10297 29094 55020 58009 60181;
0149825830999992005032412004-05167-040667FM-12+029999999V0200501N001010075019N0500001N1+02641+02271101401ADDGF106991061021008001001001MA1999999098011MD1999999+0021REMSYN082AAXX  24124 82583 22599 60502 10264 20227 39801 40140 86200 333 20229 58002 60184;
0189825830999992005032500004-05167-040667FM-12+029999999V0201801N001510042019N0010001N1+02351+02311101331ADDAY161061AY261061GF108991081051004501999999MA1999999097941MD1999999+0051MW1631REMSYN100AAXX  25004 82583 21494 81803 10235 20231 39794 40133 76366 885// 333 10320 29081 55076 58005 60071;
0177825830999992005032512004-05167-040667FM-12+029999999V0200901N001519999999N0500001N1+02511+02291101321ADDAY161061AY261061GF107991999061008001031999MA1999999097921MD1999999-0091MW1021REMSYN088AAXX  25124 82583 21599 70903 10251 20229 39792 40132 70266 8863/ 333 20227 59009 60134;
0189825830999992005032600004-05167-040667FM-12+029999999V0202301N001010042019N0010001N1+02361+02291101191ADDAY161061AY261061GF108991081051004501999999MA1999999097841MD1999999-0091MW1611REMSYN100AAXX  26004 82583 21494 82302 10236 20229 39784 40119 76166 885// 333 10323 29082 55057 59009 60091;
0177825830999992005032612004-05167-040667FM-12+029999999V0202301N003110120019N0500001N1+02221+02141101251ADDAY161061AY261061GF107991071081008001001001MA1999999097841MD1999999-0081MW1021REMSYN088AAXX  26124 82583 21599 72306 10222 20214 39784 40125 70266 87800 333 20207 59008 60694;
0185825830999992005032700004-05170-040670FM-12+029999999V0203601N002610120019N0040001N1+02361+02171101171ADDAA106000091GF108991081081008001999999MA1999999097761MD1999999-0091REMSYN088AAXX  27004 82583 32596 83605 10236 20217 39776 40117 888// 333 10302 29083 55034 59009;EQDQ01  00002PRCP06
0173825830999992005032712004-05170-040670FM-12+029999999V0200901N002110120019N0500001N1+02591+02391101171ADDAA106000091GF106991061081008001001001MA1999999097791MD1999999-0051REMSYN076AAXX  27124 82583 32599 60904 10259 20239 39779 40117 86800 333 20222 59005;EQDQ01  00002PRCP06
0189825830999992005032800004-05170-040670FM-12+029999999V0200501N002110042019N0010001N1+02361+02241101181ADDAY121061AY221061GF108991081051004501999999MA1999999097801MD1999999+0041MW1611REMSYN100AAXX  28004 82583 21494 80504 10236 20224 39780 40118 76122 885// 333 10324 29082 55051 58004 69991;
0177825830999992005032812004-05170-040670FM-12+029999999V0200901N001510120019N0500001N1+02541+02331101221ADDAY161061AY251061GF108991081081008001999999MA1999999097831MD1999999+0041MW1021REMSYN088AAXX  28124 82583 21599 80903 10254 20233 39783 40122 70265 888// 333 20229 58004 60124;
0202825830999992005032900004-05167-040667FM-12+029999999V0203601N001510042019N0020001N1+02321+02271101051ADDAY161061AY261061GF108991081051004501999999KA1240M+03101MA1999999097671MD1999999-0131MW1611REMSYN100AAXX  29004 82583 21495 83603 10232 20227 39767 40105 76166 885// 333 10310 29084 55016 59013 60041;
0190825830999992005032912004-05167-040667FM-12+029999999V0201401N001010120019N0500001N1+02551+02311101101ADDAY161061AY251061GF107991061081008001041001KA1240N+02271MA1999999097721MD1999999-0111MW1021REMSYN088AAXX  29124 82583 21599 71402 10255 20231 39772 40110 70265 86840 333 20227 59011 60064;
0202825830999992005033000004-05167-040667FM-12+029999999V0202701N000510120019N0040001N1+02431+02301101171ADDAY161061AY261061GF108991081081008001999999KA1240M+03111MA1999999097791MD1999999+0121MW1021REMSYN100AAXX  30004 82583 21596 82701 10243 20230 39779 40117 70266 888// 333 10311 29082 55032 58012 69931;
0190825830999992005033012004-05167-040667FM-12+029999999V0201401N002110120019N0500001N1+02561+02311101191ADDAY161061AY261061GF108991071081008001031999KA1240N+02281MA1999999097811MD1999999+0091MW1031REMSYN088AAXX  30124 82583 21599 81404 10256 20231 39781 40119 70366 8783/ 333 20228 58009 60024;
0202825830999992005033100004-05167-040667FM-12+029999999V0203201N000510075019N0040001N1+02471+02381101111ADDAY161061AY261061GF105991051021008001001001KA1240M+03141MA1999999097731MD1999999-0061MW1211REMSYN100AAXX  31004 82583 21596 53201 10247 20238 39773 40111 72166 85200 333 10314 29084 55055 59006 60061;
0190825830999992005033112004-05167-040667FM-12+029999999V0201401N002610075019N0500001N1+02311+02241101231ADDAY161061AY261061GF108991081051008001999999KA1240N+02151MA1999999097831MD1999999+0021MW1021REMSYN088AAXX  31124 82583 21599 81405 10231 20224 39783 40123 70266 885// 333 20215 58002 60264;
0189825830999992005040100004-05167-040667FM-12+029999999V0203201N001512200019N0040001N1+02371+02281101121ADDAY161061AY261061GF103991031021008001001001MA1999999097721MD1999999-0011MW1021REMSYN100AAXX  01004 82583 21596 33203 10237 20228 39772 40112 70266 83200 333 10290 29087 55030 59001 69941;
0149825830999992005040112004-05167-040667FM-12+029999999V0201401N001512200019N0500001N1+02641+02311101271ADDGF104991031021008001031001MA1999999097881MD1999999+0051REMSYN082AAXX  01124 82583 22599 41403 10264 20231 39788 40127 83230 333 20229 58005 69944;
0185825830999992005040200004-05167-040667FM-12+029999999V0203601N000512200019N0040001N1+02471+02271101231ADDAA106000091GF103991031011008001001001MA1999999097851MD1999999+0131REMSYN088AAXX  02004 82583 32596 33601 10247 20227 39785 40123 83100 333 10314 29076 55095 58013;EQDQ01  00002PRCP06
0173825830999992005040212004-05167-040667FM-12+029999999V0200901N004610075019N0500001N1+02621+02311101321ADDAA106000091GF107991071051008001001001MA1999999097931MD1999999+0081REMSYN076AAXX  02124 82583 32599 70909 10262 20231 39793 40132 87500 333 20217 58008;EQDQ01  00002PRCP06
0189825830999992005040300004-05170-040670FM-12+029999999V0209999C000012200019N0040001N1+02481+02391101251ADDAY161061AY261061GF101991011011008001001001MA1999999097871MD1999999+0021MW1021REMSYN100AAXX  03004 82583 21596 10500 10248 20239 39787 40125 70266 81100 333 10318 29080 55104 58002 60021;
0149825830999992005040312004-05170-040670FM-12+029999999V0200901N004110075019N0500001N1+02641+02271101391ADDGF106991061021008001001001MA1999999098011MD1999999+0081REMSYN082AAXX  03124 82583 22599 60908 10264 20227 39801 40139 86200 333 20229 58008 60024;
0189825830999992005040400004-05167-040667FM-12+029999999V0201401N001512200019N0040001N1+02491+02291101211ADDAY151061AY251061GF101991011011008001001001MA1999999097841MD1999999-0031MW1021REMSYN100AAXX  04004 82583 21596 11403 10249 20229 39784 40121 70255 81100 333 10315 29077 55076 59003 69951;
0149825830999992005040412004-05167-040667FM-12+029999999V0201401N003112200019N0500001N1+02711+02371101371ADDGF104991041021008001001001MA1999999097991MD1999999-0021REMSYN082AAXX  04124 82583 22599 41406 10271 20237 39799 40137 84200 333 20226 59002 69984;
0185825830999992005040500004-05167-040667FM-12+029999999V0200901N001512200019N0040001N1+02551+02311101091ADDAA106000091GF102991021011008001001001MA1999999097731MD1999999-0111REMSYN088AAXX  05004 82583 32596 20903 10255 20231 39773 40109 82100 333 10315 29076 55095 59011;EQDQ01  00002PRCP06
0173825830999992005040512004-05167-040667FM-12+029999999V0201401N002610075019N0500001N1+02651+02411101301ADDAA106000091GF106991051021008001001011MA1999999097921MD1999999-0071REMSYN076AAXX  05124 82583 32599 61405 10265 20241 39792 40130 85201 333 20229 59007;EQDQ01  00002PRCP06
0185825830999992005040600004-05167-040667FM-12+029999999V0201401N001512200019N0040001N1+02521+02251101171ADDAA106000091GF102991021011008001001001MA1999999097811MD1999999+0081REMSYN088AAXX  06004 82583 32596 21403 10252 20225 39781 40117 82100 333 10311 29070 55072 58008;EQDQ01  00002PRCP06
0173825830999992005040612004-05167-040667FM-12+029999999V0200901N003111050019N0500001N1+02781+02341101241ADDAA106000091GF106991041021008001001021MA1999999097871MD1999999-0051REMSYN076AAXX  06124 82583 32599 60906 10278 20234 39787 40124 84202 333 20232 59005;EQDQ01  00002PRCP06
0185825830999992005040700004-05167-040667FM-12+029999999V0201401N002112200019N0040001N1+02501+02291101051ADDAA106000091GF101991011011008001001001MA1999999097691MD1999999-0121REMSYN088AAXX  07004 82583 32596 11404 10250 20229 39769 40105 81100 333 10309 29078 55073 59012;EQDQ01  00002PRCP06
0173825830999992005040712004-05167-040667FM-12+029999999V0200901N004610075019N0500001N1+02731+02261101131ADDAA106000091GF106991051021008001001011MA1999999097761MD1999999-0111REMSYN076AAXX  07124 82583 32599 60909 10273 20226 39776 40113 85201 333 20233 59011;EQDQ01  00002PRCP06
0177825830999992005040812004-05167-040667FM-12+029999999V0201401N005110450019N0500001N1+02711+02241101071ADDAY161061AY261061GF106991041021008001031001MA1999999097701MD1999999-0061MW1021REMSYN088AAXX  08124 82583 21599 61410 10271 20224 39770 40107 70266 84230 333 20238 59006 69914;
0159825830999992005041812004-05167-040667FM-12+029999999V0200901N003610075019N0500001N1+02711+02341999999ADDAA106000091GF106991061021008001001001MA1999999097651REMSYN076AAXX  18124 82583 32599 60907 10271 20234 39765 4//// 86200 333 202// 5////;EQDQ01  00002PRCP06
0171825830999992005041900004-05167-040667FM-12+029999999V0200901N001012200019N0040001N1+02541+02251100891ADDAA106000091GF101991001001999999001011MA1999999097531REMSYN088AAXX  19004 82583 32996 10902 10254 20225 39753 40089 80001 333 10322 29076 55091 5////;EQDQ01  00002PRCP06
0173825830999992005041912004-05167-040667FM-12+029999999V0200901N002610450019N0500001N1+02731+02341101071ADDAA106000091GF105991041011008001031001MA1999999097711MD1999999+0061REMSYN076AAXX  19124 82583 32599 50905 10273 20234 39771 40107 84130 333 20226 58006;EQDQ01  00002PRCP06
0185825830999992005042000004-05167-040667FM-12+029999999V0200501N004610120019N0040001N1+02591+02351101091ADDAA106000091GF108991081081008001999999MA1999999097731MD1999999+0201REMSYN088AAXX  20004 82583 32596 80509 10259 20235 39773 40109 888// 333 10321 29077 55080 58020;EQDQ01  00002PRCP06
0173825830999992005042012004-05167-040667FM-12+029999999V0200901N004610075019N0500001N1+02771+02231101131ADDAA106000091GF106991999021008001001001MA1999999097771MD1999999+0061REMSYN076AAXX  20124 82583 32599 60909 10277 20223 39777 40113 85200 333 20227 58006;EQDQ01  00002PRCP06
0185825830999992005042100004-05167-040667FM-12+029999999V0201401N001012200019N0040001N1+02541+02211101051ADDAA106000091GF102991001001999999001021MA1999999097691MD1999999-0041REMSYN088AAXX  21004 82583 32996 21402 10254 20221 39769 40105 80002 333 10314 29071 55071 59004;EQDQ01  00002PRCP06
0173825830999992005042112004-05167-040667FM-12+029999999V0200901N001010075019N0500001N1+02601+02231101171ADDAA106000091GF108991081051008001999999MA1999999097791MD1999999+0021REMSYN076AAXX  21124 82583 32599 80902 10260 20223 39779 40117 885// 333 20225 58002;EQDQ01  00002PRCP06
0185825830999992005042200004-05167-040667FM-12+029999999V0201401N001012200019N0040001N1+02521+02291100981ADDAA106000091GF102991001001999999001021MA1999999097601MD1999999-0091REMSYN088AAXX  22004 82583 32996 21402 10252 20229 39760 40098 80002 333 10310 29078 55033 59009;EQDQ01  00002PRCP06
0173825830999992005042212004-05167-040667FM-12+029999999V0200501N001012200019N0500001N1+02821+02201101111ADDAA106000091GF105991041011008001001011MA1999999097751MD1999999-0041REMSYN076AAXX  22124 82583 32599 50502 10282 20220 39775 40111 84101 333 20222 59004;EQDQ01  00002PRCP06
0185825830999992005042300004-05167-040667FM-12+029999999V0200901N001019999999N0040001N1+02571+02191101211ADDAA106000091GF105991001001999999001021MA1999999097591MD1999999+0011REMSYN088AAXX  23004 82583 32596 50902 10257 20219 39759 40121 80002 333 10328 29069 55080 58001;EQDQ01  00002PRCP06
0173825830999992005042312004-05167-040667FM-12+029999999V0200901N002612200019N0500001N1+02901+02321101051ADDAA106000091GF103991999011008001001001MA1999999097691MD1999999-0061REMSYN076AAXX  23124 82583 32599 30905 10290 20232 39769 40105 82100 333 20229 59006;EQDQ01  00002PRCP06
0185825830999992005042400004-05170-040670FM-12+029999999V0200901N002112200019N0020001N1+02721+02221101011ADDAA106000091GF102991021011008001999999MA1999999097621MD1999999+0071REMSYN088AAXX  24004 82583 32595 20904 10272 20222 39762 40101 821// 333 10327 29067 55083 58007;EQDQ01  00002PRCP06
0173825830999992005042412004-05170-040670FM-12+029999999V0200501N001012200019N0500001N1+02741+02191101201ADDAA106000091GF103991031021008001001001MA1999999097841MD1999999+0151REMSYN076AAXX  24124 82583 32599 30502 10274 20219 39784 40120 83200 333 20221 58015;EQDQ01  00002PRCP06
0198825830999992005042500004-05167-040667FM-12+029999999V0200501N001512200019N0040001N1+02611+02251101031ADDAA106000091GF102991021011008001001001KA1240M+03311MA1999999097671MD1999999+0011REMSYN088AAXX  25004 82583 32596 20503 10261 20225 39767 40103 82100 333 10331 29069 55094 58001;EQDQ01  00002PRCP06
0186825830999992005042512004-05167-040667FM-12+029999999V0203601N001010120019N0500001N1+02681+02281101181ADDAA106000091GF108991071081008001001011KA1240N+02271MA1999999097821MD1999999-0021REMSYN076AAXX  25124 82583 32599 83602 10268 20228 39782 40118 87801 333 20227 59002;EQDQ01  00002PRCP06
0134825830999992005042600004-05167-040667FM-12+029999999V0203601N002619999999N0040001N1+02521+02211999999ADDGF108991999999008001999999REMSYN096AAXX  26004 82583 21596 83605 10252 20221 10322 29074 39774 40111 55043 58007 60041 70266 885//;
0190825830999992005042612004-05167-040667FM-12+029999999V0200501N001510075019N0500001N1+02581+02381101221ADDAY161061AY261061GF108991081051008001999999KA1240N+02321MA1999999097841MD1999999+0021MW1031REMSYN088AAXX  26124 82583 21599 80503 10258 20238 39784 40122 70366 885// 333 20232 58002 60064;
0198825830999992005042700004-05167-040667FM-12+029999999V0203601N001010120019N0040001N1+02651+02201101081ADDAA106000091GF107991061081008001001011KA1240M+03331MA1999999097711MD1999999-0031REMSYN088AAXX  27004 82583 32596 73602 10265 20220 39771 40108 86801 333 10333 29072 55073 59003;EQDQ01  00002PRCP06
0186825830999992005042712004-05167-040667FM-12+029999999V0201401N002112200019N0500001N1+02801+02311101211ADDAA106000091GF103991031011008001001001KA1240N+02341MA1999999097851MD1999999+0011REMSYN076AAXX  27124 82583 32599 31404 10280 20231 39785 40121 83100 333 20234 58001;EQDQ01  00002PRCP06
0198825830999992005042800004-05167-040667FM-12+029999999V0202701N001512200019N0040001N1+02561+02271101001ADDAA106000091GF102991021011008001001001KA1240M+03361MA1999999097641MD1999999-0071REMSYN088AAXX  28004 82583 32596 22703 10256 20227 39764 40100 82100 333 10336 29072 55079 59007;EQDQ01  00002PRCP06
0186825830999992005042812004-05167-040667FM-12+029999999V0200901N004610075019N0500001N1+02851+02231101241ADDAA106000091GF106991051021008001001011KA1240N+02341MA1999999097881MD1999999+0031REMSYN076AAXX  28124 82583 32599 60909 10285 20223 39788 40124 85201 333 20234 58003;EQDQ01  00002PRCP06
0202825830999992005042900004-05167-040667FM-12+029999999V0202701N000512200019N0040001N1+02371+02281101191ADDAY161061AY261061GF102991021011008001001001KA1240M+03281MA1999999097821MD1999999+0141MW1021REMSYN100AAXX  29004 82583 21596 22701 10237 20228 39782 40119 70266 82100 333 10328 29076 55048 58014 60091;
0162825830999992005042912004-05167-040667FM-12+029999999V0200901N003110075019N0500001N1+02751+02361101321ADDGF106991051021008001001011KA1240N+02311MA1999999097941MD1999999+0061REMSYN082AAXX  29124 82583 22599 60906 10275 20236 39794 40132 85201 333 20231 58006 60094;
0202825830999992005043000004-05167-040667FM-12+029999999V0203201N001010120019N0040001N1+02511+02421101331ADDAY161061AY261061GF106991061081008001001001KA1240M+03251MA1999999097951MD1999999+0131MW1021REMSYN100AAXX  30004 82583 21596 63202 10251 20242 39795 40133 70266 86800 333 10325 29080 55071 58013 69941;
0190825830999992005043012004-05167-040667FM-12+029999999V0203201N000510450019N0500001N1+02541+02251101441ADDAY161061AY261061GF106991021011008001021011KA1240N+02251MA1999999098051MD1999999+0111MW1031REMSYN088AAXX  30124 82583 21599 63201 10254 20225 39805 40144 70366 82121 333 20225 58011 60234;
0185825830999992005050100004-05170-040670FM-12+029999999V0209999C000012200019N0040001N1+02581+02401101231ADDAA106000091GF102991021011008001001001MA1999999097851MD1999999-0101REMSYN088AAXX  01004 82583 32596 21800 10258 20240 39785 40123 82100 333 10312 29082 55067 59010;EQDQ01  00002PRCP06
0173825830999992005050112004-05170-040670FM-12+029999999V0200901N001510075019N0500001N1+02611+02331101371ADDAA106000091GF108991081051008001999999MA1999999097991MD1999999-0061REMSYN076AAXX  01124 82583 32599 80903 10261 20233 39799 40137 885// 333 20229 59006;EQDQ01  00002PRCP06
0189825830999992005050200004-05170-040670FM-12+029999999V0203601N001012200019N0040001N1+02501+02381101271ADDAY161061AY261061GF101991011011008001001001MA1999999097891MD1999999+0041MW1021REMSYN100AAXX  02004 82583 21596 13602 10250 20238 39789 40127 70266 81100 333 10315 29081 55046 58004 60011;
0183825830999992005050300004-05167-040667FM-12+029999999V0202301N001510042019N0020001N1+02281+02231101351ADDAY131061AY261061GF108991081051004501999999MA1999999097951MD1999999+0061REMSYN100AAXX  03004 82583 21495 82303 10228 20223 39795 40135 77636 885// 333 10324 29084 55050 58006 60441;
0177825830999992005050312004-05167-040667FM-12+029999999V0200901N001510120019N0500001N1+02521+02311101501ADDAY161061AY261061GF108991081081008001999999MA1999999098091MD1999999+0081MW1211REMSYN088AAXX  03124 82583 21599 80903 10252 20231 39809 40150 72166 888// 333 20214 58008 60524;
0189825830999992005050400004-05167-040667FM-12+029999999V0200501N000512200019N0040001N1+02441+02371101271ADDAY161061AY261061GF102991021021008001001001MA1999999097881MD1999999-0011MW1011REMSYN100AAXX  04004 82583 21596 20501 10244 20237 39788 40127 70166 82200 333 10294 29092 55021 59001 60111;
0177825830999992005050412004-05167-040667FM-12+029999999V0200901N003112200019N0500001N1+02631+02331101401ADDAY151061AY251061GF104991999021008001001001MA1999999098021MD1999999-0071MW1021REMSYN088AAXX  04124 82583 21599 40906 10263 20233 39802 40140 70255 83200 333 20232 59007 60114;
0185825830999992005050500004-05167-040667FM-12+029999999V0201801N003112200019N0040001N1+02401+02211101381ADDAA106000091GF104991041021008001001001MA1999999097991MD1999999+0111REMSYN088AAXX  05004 82583 32596 41806 10240 20221 39799 40138 84200 333 10307 29082 55079 58011;EQDQ01  00002PRCP06
0173825830999992005050512004-05167-040667FM-12+029999999V0200901N003610075019N0500001N1+02581+02171101441ADDAA106000091GF106991051021008001031001MA1999999098051MD1999999+0031REMSYN076AAXX  05124 82583 32599 60907 10258 20217 39805 40144 85230 333 20219 58003;EQDQ01  00002PRCP06
0185825830999992005050600004-05167-040667FM-12+029999999V0201401N001010120019N0040001N1+02431+02211101311ADDAA106000091GF106991061081008001001001MA1999999097921MD1999999-0071REMSYN088AAXX  06004 82583 32596 61402 10243 20221 39792 40131 86800 333 10296 29078 55045 59007;EQDQ01  00002PRCP06
0173825830999992005050612004-05167-040667FM-12+029999999V0200901N004610075019N0500001N1+02601+02191101401ADDAA106000091GF106991061021008001001001MA1999999098011MD1999999-0041REMSYN076AAXX  06124 82583 32599 60909 10260 20219 39801 40140 86200 333 20221 59004;EQDQ01  00002PRCP06
0185825830999992005050700004-05167-040667FM-12+029999999V0201401N002112200019N0040001N1+02361+02191101161ADDAA106000091GF101991011011008001001001MA1999999097791MD1999999-0131REMSYN088AAXX  07004 82583 32596 11404 10236 20219 39779 40116 81100 333 10301 29080 55079 59013;EQDQ01  00002PRCP06
0173825830999992005050712004-05167-040667FM-12+029999999V0201401N003112200019N0500001N1+02631+02141101321ADDAA106000091GF101991011011008001001001MA1999999097931MD1999999+0081REMSYN076AAXX  07124 82583 32599 11406 10263 20214 39793 40132 81100 333 20210 58008;EQDQ01  00002PRCP06
0185825830999992005050800004-05170-040670FM-12+029999999V0201401N001512200019N0040001N1+02391+02231101191ADDAA106000091GF101991011011008001001001MA1999999097811MD1999999+0021REMSYN088AAXX  08004 82583 32596 11403 10239 20223 39781 40119 81100 333 10300 29079 55105 58002;EQDQ01  00002PRCP06
0177825830999992005050812004-05170-040670FM-12+029999999V0200901N006210075019N0500001N1+02661+02221101261ADDAY161061AY261061GF105991051021008001001001MA1999999097871MD1999999-0061MW1021REMSYN088AAXX  08124 82583 21599 50912 10266 20222 39787 40126 70266 85200 333 20222 59006 60074;
0185825830999992005050900004-05167-040667FM-12+029999999V0200901N001512200019N0040001N1+02451+02071101211ADDAA106000091GF101991011011008001001001MA1999999097831MD1999999+0021REMSYN088AAXX  09004 82583 32596 10903 10245 20207 39783 40121 81100 333 10303 29070 55077 58002;EQDQ01  00002PRCP06
0173825830999992005050912004-05167-040667FM-12+029999999V0201401N004110120019N0500001N1+02521+02111101301ADDAA106000091GF106991061081008001001001MA1999999097911MD1999999+0041REMSYN076AAXX  09124 82583 32599 61408 10252 20211 39791 40130 86800 333 20207 58004;EQDQ01  00002PRCP06
0185825830999992005051000004-05167-040667FM-12+029999999V0209999C000012200019N0040001N1+02461+02091101201ADDAA106000091GF101991011011008001001001MA1999999097821MD1999999-0011REMSYN088AAXX  10004 82583 32596 10900 10246 20209 39782 40120 81100 333 10307 29073 55043 59001;EQDQ01  00002PRCP06
0173825830999992005051012004-05167-040667FM-12+029999999V0200901N003112200019N0500001N1+02671+02161101271ADDAA106000091GF101991011011008001001001MA1999999097891MD1999999-0021REMSYN076AAXX  10124 82583 32599 10906 10267 20216 39789 40127 81100 333 20206 59002;EQDQ01  00002PRCP06
0185825830999992005051100004-05167-040667FM-12+029999999V0200901N001512200019N0040001N1+02461+02111101111ADDAA106000091GF101991011011008001001001MA1999999097741MD1999999-0081REMSYN088AAXX  11004 82583 32596 10903 10246 20211 39774 40111 81100 333 10315 29070 55106 59008;EQDQ01  00002PRCP06
0173825830999992005051112004-05167-040667FM-12+029999999V0200901N002612200019N0500001N1+02681+02261101241ADDAA106000091GF104991041021008001001001MA1999999097861MD1999999-0031REMSYN076AAXX  11124 82583 32599 40905 10268 20226 39786 40124 84200 333 20220 59003;EQDQ01  00002PRCP06
0185825830999992005051200004-05167-040667FM-12+029999999V0200901N001512200019N0040001N1+02461+02131101141ADDAA106000091GF101991011011008001001001MA1999999097771MD1999999+0031REMSYN088AAXX  12004 82583 32596 10903 10246 20213 39777 40114 81100 333 10314 29073 55092 58003;EQDQ01  00002PRCP06
0177825830999992005051212004-05167-040667FM-12+029999999V0200901N002610120019N0500001N1+02621+02181101251ADDAY161061AY261061GF106991061081008001001001MA1999999097871MD1999999+0011MW1021REMSYN088AAXX  12124 82583 21599 60905 10262 20218 39787 40125 70266 86800 333 20229 58001 69944;
0185825830999992005051300004-05167-040667FM-12+029999999V0200901N001512200019N0040001N1+02481+02211101131ADDAA106000091GF102991021051008001001001MA1999999097751MD1999999-0021REMSYN088AAXX  13004 82583 32596 20903 10248 20221 39775 40113 82500 333 10293 29078 55028 59002;EQDQ01  00002PRCP06
0177825830999992005051312004-05167-040667FM-12+029999999V0200901N002110120019N0500001N1+02491+02291101211ADDAY161061AY261061GF106991051081008001001011MA1999999097831MD1999999-0041MW1021REMSYN088AAXX  13124 82583 21599 60904 10249 20229 39783 40121 70266 85801 333 20227 59004 60024;
0185825830999992005051400004-05167-040667FM-12+029999999V0200501N001512200019N0040001N1+02451+02251101101ADDAA106000091GF102991021051008001001001MA1999999097691MD1999999-0061REMSYN088AAXX  14004 82583 32596 20503 10245 20225 39769 40110 82500 333 10313 29080 55067 59006;EQDQ01  00002PRCP06
0177825830999992005051412004-05167-040667FM-12+029999999V0200901N002610075019N0500001N1+02571+02291101101ADDAY161061AY261061GF106991061051008001001001MA1999999097721MD1999999-0111MW1021REMSYN088AAXX  14124 82583 21599 60905 10257 20229 39772 40110 70266 86500 333 20225 59011 60014;
0185825830999992005051500004-05170-040670FM-12+029999999V0201401N002112200019N0040001N1+02441+02151100931ADDAA106000091GF102991021011008001001001MA1999999097551MD1999999-0141REMSYN088AAXX  15004 82583 32596 21404 10244 20215 39755 40093 82100 333 10297 29078 55072 59014;EQDQ01  00002PRCP06
0173825830999992005051512004-05170-040670FM-12+029999999V0201401N005110075019N0500001N1+02651+02241101041ADDAA106000091GF106991061021008001001001MA1999999097661MD1999999-0061REMSYN076AAXX  15124 82583 32599 61410 10265 20224 39766 40104 86200 333 20233 59006;EQDQ01  00002PRCP06
0185825830999992005051600004-05167-040667FM-12+029999999V0201401N002112200019N0040001N1+02421+02191100991ADDAA106000091GF101991999021008001001001MA1999999097611MD1999999+0061REMSYN088AAXX  16004 82583 32596 11404 10242 20219 39761 40099 83200 333 10310 29075 55096 58006;EQDQ01  00002PRCP06
0173825830999992005051612004-05167-040667FM-12+029999999V0201401N004112200019N0500001N1+02711+02191101061ADDAA106000091GF104991031011008001001011MA1999999097681MD1999999+0021REMSYN076AAXX  16124 82583 32599 41408 10271 20219 39768 40106 83101 333 20220 58002;EQDQ01  00002PRCP06
0185825830999992005051700004-05167-040667FM-12+029999999V0200901N004110075019N0040001N1+02541+02251100961ADDAA106000091GF108991081051008001999999MA1999999097591MD1999999-0021REMSYN088AAXX  17004 82583 32596 80908 10254 20225 39759 40096 885// 333 10308 29076 55047 59002;EQDQ01  00002PRCP06
0173825830999992005051712004-05167-040667FM-12+029999999V0200901N004110075019N0500001N1+02691+02301101011ADDAA106000091GF107991051021008001001011MA1999999097641MD1999999-0041REMSYN076AAXX  17124 82583 32599 70908 10269 20230 39764 40101 85201 333 20229 59004;EQDQ01  00002PRCP06
0185825830999992005051800004-05167-040667FM-12+029999999V0200901N001510150019N0040001N1+02571+02211100841ADDAA106000091GF105991051001017501031001MA1999999097481MD1999999-0111REMSYN088AAXX  18004 82583 32796 50903 10257 20221 39748 40084 85030 333 10307 29074 55038 59011;EQDQ01  00002PRCP06
0173825830999992005051812004-05167-040667FM-12+029999999V0201401N004110120019N0500001N1+02601+02191101061ADDAA106000091GF107991051081008001041011MA1999999097691MD1999999+0051REMSYN076AAXX  18124 82583 32599 71408 10260 20219 39769 40106 85841 333 20228 58005;EQDQ01  00002PRCP06
0185825830999992005051900004-05167-040667FM-12+029999999V0200501N001012200019N0040001N1+02501+02211100901ADDAA106000091GF102991021011008001001001MA1999999097541MD1999999+0061REMSYN088AAXX  19004 82583 32596 20502 10250 20221 39754 40090 82100 333 10301 29075 55021 58006;EQDQ01  00002PRCP06
0177825830999992005051912004-05167-040667FM-12+029999999V0200901N002610075019N0040001N1+02491+02341101041ADDAY161061AY261061GF106991051051008001041011MA1999999097661MD1999999-0031MW1031REMSYN088AAXX  19124 82583 21596 60905 10249 20234 39766 40104 70366 85541 333 20216 59003 69924;
0185825830999992005052000004-05167-040667FM-12+029999999V0201401N000511050019N0040001N1+02471+02271100991ADDAA106000091GF107991011011008001001071MA1999999097611MD1999999+0071REMSYN088AAXX  20004 82583 32596 71401 10247 20227 39761 40099 81107 333 10296 29082 55012 58007;EQDQ01  00002PRCP06
0177825830999992005052012004-05167-040667FM-12+029999999V0200901N005110075019N0500001N1+02661+02241101171ADDAY161061AY261061GF107991051021008001001071MA1999999097791MD1999999+0131MW1031REMSYN088AAXX  20124 82583 21599 70910 10266 20224 39779 40117 70366 85207 333 20223 58013 69914;
0189825830999992005052100004-05167-040667FM-12+029999999V0203601N000510075019N0040001N1+02541+02211101081ADDAY161061AY261061GF107991071051008001001001MA1999999097711MD1999999+0101MW1021REMSYN100AAXX  21004 82583 21596 73601 10254 20221 39771 40108 70266 87500 333 10308 29075 55036 58010 60031;
0149825830999992005052112004-05167-040667FM-12+029999999V0200901N002119999999N0500001N1+02601+02311101271ADDGF106991999021008001001001MA1999999097891MD1999999+0101REMSYN082AAXX  21124 82583 22599 60904 10260 20231 39789 40127 83200 333 20216 58010 60034;
0185825830999992005052200004-05170-040670FM-12+029999999V0200501N000512200019N0040001N1+02661+02181101061ADDAA106000091GF102991001001999999001011MA1999999097701MD1999999-0011REMSYN088AAXX  22004 82583 32996 20501 10266 20218 39770 40106 80001 333 10321 29070 55060 59001;EQDQ01  00002PRCP06
0173825830999992005052212004-05170-040670FM-12+029999999V0200901N003612200019N0040001N1+02731+02191101211ADDAA106000091GF104991041021008001001001MA1999999097851MD1999999-0041REMSYN076AAXX  22124 82583 32596 40907 10273 20219 39785 40121 84200 333 20217 59004;EQDQ01  00002PRCP06
0189825830999992005052300004-05170-040670FM-12+029999999V0203601N001512200019N0040001N1+02521+02341101091ADDAY161061AY261061GF106991041051008001001011MA1999999097721MD1999999+0021MW1021REMSYN100AAXX  23004 82583 21596 63603 10252 20234 39772 40109 70266 84501 333 10324 29074 55062 58002 60031;
0149825830999992005052312004-05170-040670FM-12+029999999V0200901N001510120019N0500001N1+02581+02271101221ADDGF107991061081008001001011MA1999999097841MD1999999-0011REMSYN082AAXX  23124 82583 22599 70903 10258 20227 39784 40122 86801 333 20223 59001 60034;
0189825830999992005052400004-05167-040667FM-12+029999999V0201801N001510450019N0040001N1+02271+02231101071ADDAY161061AY261061GF107991031061008001031001MA1999999097681MD1999999-0041MW1021REMSYN100AAXX  24004 82583 21596 71803 10227 20223 39768 40107 70266 83630 333 10301 29087 55022 59004 60081;
0149825830999992005052412004-05167-040667FM-12+029999999V0200901N004610450019N0500001N1+02671+02201101221ADDGF106991041021008001031001MA1999999097831MD1999999-0011REMSYN082AAXX  24124 82583 22599 60909 10267 20220 39783 40122 84230 333 20212 59001 60084;
0185825830999992005052500004-05167-040667FM-12+029999999V0200501N000512200019N0040001N1+02441+02151101161ADDAA106000091GF103991011001017501031011MA1999999097781MD1999999+0101REMSYN088AAXX  25004 82583 32796 30501 10244 20215 39778 40116 81031 333 10314 29076 55052 58010;EQDQ01  00002PRCP06
0173825830999992005052512004-05167-040667FM-12+029999999V0200901N005110120019N0500001N1+02681+02181101301ADDAA106000091GF106991061081008001001001MA1999999097921MD1999999-0091REMSYN076AAXX  25124 82583 32599 60910 10268 20218 39792 40130 86800 333 20215 59009;EQDQ01  00002PRCP06
0185825830999992005052600004-05167-040667FM-12+029999999V0200501N001512200019N0040001N1+02551+02171101241ADDAA106000091GF103991031021008001001001MA1999999097861MD1999999+0081REMSYN088AAXX  26004 82583 32596 30503 10255 20217 39786 40124 83200 333 10322 29065 55088 58008;EQDQ01  00002PRCP06
0173825830999992005052612004-05167-040667FM-12+029999999V0200901N004110120019N0500001N1+02631+02161101491ADDAA106000091GF107991061081008001031001MA1999999098111MD1999999+0191REMSYN076AAXX  26124 82583 32599 70908 10263 20216 39811 40149 86830 333 20216 58019;EQDQ01  00002PRCP06
0185825830999992005052700004-05167-040667FM-12+029999999V0200501N001012200019N0040001N1+02621+02371101401ADDAA106000091GF102991021011008001001001MA1999999098021MD1999999+0161REMSYN088AAXX  27004 82583 32596 20502 10262 20237 39802 40140 82100 333 10320 29071 55087 58016;EQDQ01  00002PRCP06
0173825830999992005052712004-05167-040667FM-12+029999999V0200901N004610075019N0500001N1+02721+02171101411ADDAA106000091GF106991061021008001001001MA1999999098031MD1999999-0081REMSYN076AAXX  27124 82583 32599 60909 10272 20217 39803 40141 86200 333 20213 59008;EQDQ01  00002PRCP06
0179825830999992005052800004-05167-040667FM-12+029999999V0200901N001512200019N0040001N1+02541+02251101311ADDAA106000091GF100991001001999999001001MA1999999097931MD1999999-0091REMSYN082AAXX  28004 82583 32996 00903 10254 20225 39793 40131 333 10329 29069 55077 59009;EQDQ01  00002PRCP06
0177825830999992005052812004-05167-040667FM-12+029999999V0200901N003112200019N0500001N1+02651+02351101381ADDAY161061AY261061GF103991031051008001001001MA1999999098001MD1999999-0031MW1021REMSYN088AAXX  28124 82583 21599 30906 10265 20235 39800 40138 70266 83500 333 20215 59003 69974;
0195825830999992005052900004-05170-040670FM-12+029999999V0200501N000512200019N0040001N1+02471+02171101271ADDAA106000091GA1001+999999999GF100991001001999999001001MA1999999097891MD1999999-0041REMSYN082AAXX  29004 82583 32996 00501 10247 20217 39789 40127 333 10328 29070 55103 59004;EQDQ01  00002PRCP06
0173825830999992005052912004-05170-040670FM-12+029999999V0201401N006712200019N0500001N1+02751+01891101301ADDAA106000091GF102991021011008001001001MA1999999097921MD1999999-0081REMSYN076AAXX  29124 82583 32599 21413 10275 20189 39792 40130 82100 333 20219 59008;EQDQ01  00002PRCP06
0198825830999992005053000004-05167-040667FM-12+029999999V0200501N002112200019N0040001N1+02551+02251101231ADDAA106000091GF101991011011008001001001KA1240M+03201MA1999999097861MD1999999-0031REMSYN088AAXX  30004 82583 32596 10504 10255 20225 39786 40123 81100 333 10320 29063 55103 59003;EQDQ01  00002PRCP06
0202825830999992005053012004-05167-040667FM-12+029999999V0201401N004612200019N0500001N1+02741+01921999999ADDAA106000091GF102991011011008001001011KA1240N+02091MA1999999097971MD1999999+0051REMSYN076AAXX  30124 82583 32599 21409 10274 20192 39797 40435 81101 333 20209 58005;EQDQ01  00002PRCP06Q02 104353APOSLP
0198825830999992005053100004-05167-040667FM-12+029999999V0200501N001010120019N0040001N1+02501+02001101241ADDAA106000091GF108991081081008001999999KA1240M+03031MA1999999097861MD1999999+0001REMSYN088AAXX  31004 82583 32596 80502 10250 20200 39786 40124 888// 333 10303 29066 55044 58000;EQDQ01  00002PRCP06
0190825830999992005053112004-05167-040667FM-12+029999999V0201401N003610120019N0500001N1+02471+02191101301ADDAY161061AY261061GF107991071081008001001001KA1240N+02171MA1999999097911MD1999999-0061MW1031REMSYN088AAXX  31124 82583 21599 71407 10247 20219 39791 40130 70366 87800 333 20217 59006 60024;
0183825830999992005060100004-05167-040667FM-12+029999999V0200901N001012200019N0040001N1+02331+02071101221ADDAY161061AY261061GF100991001001999999001001MA1999999097821MD1999999-0041MW1001REMSYN094AAXX  01004 82583 21996 00902 10233 20207 39782 40122 70066 333 10303 29076 55029 59004 69921;
0177825830999992005060112004-05167-040667FM-12+029999999V0201801N001510120019N0500001N1+02441+02211101351ADDAY161061AY261061GF106991061081008001001001MA1999999097951MD1999999-0021MW1021REMSYN088AAXX  01124 82583 21599 61803 10244 20221 39795 40135 70266 86800 333 20214 59002 60014;
0189825830999992005060200004-05167-040667FM-12+029999999V0201401N001012200019N0040001N1+02421+02191101181ADDAY161061AY261061GF102991021011008001001001MA1999999097791MD1999999-0031MW1011REMSYN100AAXX  02004 82583 21596 21402 10242 20219 39779 40118 70166 82100 333 10308 29079 55042 59003 69951;
0149825830999992005060212004-05167-040667FM-12+029999999V0201401N005712200019N0500001N1+02711+02001101301ADDGF101991011011008001001001MA1999999097921MD1999999-0031REMSYN082AAXX  02124 82583 22599 11411 10271 20200 39792 40130 81100 333 20215 59003 69954;
0213825830999992005060300004-05167-040667FM-12+029999999V0200501N001012200019N0040001N1+02471+02111101151ADDAA106000091AY121061AY221061GF101991011021008001001001MA1999999097781MD1999999-0011MW1131REMSYN094AAXX  03004 82583 31596 10502 10247 20211 39778 40115 71322 81200 333 10324 29069 55076 59001;EQDQ01  00002PRCP06
0173825830999992005060312004-05167-040667FM-12+029999999V0201401N004612200019N0500001N1+02561+01951101301ADDAA106000091GF106991041011008001001011MA1999999097911MD1999999-0011REMSYN076AAXX  03124 82583 32599 61409 10256 20195 39791 40130 84101 333 20222 59001;EQDQ01  00002PRCP06
0179825830999992005060400004-05167-040667FM-12+029999999V0200901N001512200019N0040001N1+02381+02241101301ADDAA106000091GF100991001001999999001001MA1999999097911MD1999999+0131REMSYN082AAXX  04004 82583 32996 00903 10238 20224 39791 40130 333 10300 29076 55032 58013;EQDQ01  00002PRCP06
0173825830999992005060412004-05170-040670FM-12+029999999V0200901N005110120019N0500001N1+02611+02031101331ADDAA106000091GF107991071081008001001001MA1999999097941MD1999999+0031REMSYN076AAXX  04124 82583 32599 70910 10261 20203 39794 40133 87800 333 20217 58003;EQDQ01  00002PRCP06
0179825830999992005060500004-05170-040670FM-12+029999999V0200901N001012200019N0040001N1+02431+02191101271ADDAA106000091GF100991001001999999001001MA1999999097881MD1999999-0031REMSYN082AAXX  05004 82583 32996 00902 10243 20219 39788 40127 333 10322 29071 55055 59003;EQDQ01  00002PRCP06
0194825830999992005060512004-05167-040667FM-12+029999999V0201401N005110075019N0500001N1+02431+02251101381ADDAA124000391AY161061AY261061GF108991081051008001999999MA1999999097981MD1999999+0041MW1021REMSYN094AAXX  05124 82583 21599 81410 10243 20225 39798 40138 70266 885// 333 20224 58004 69934 10003;
0189825830999992005060600004-05167-040667FM-12+029999999V0200901N000512200019N0040001N1+02481+02361101221ADDAY161061AY261061GF103991031011008001001001MA1999999097831MD1999999-0051MW1021REMSYN100AAXX  06004 82583 21596 30901 10248 20236 39783 40122 70266 83100 333 10325 29079 55047 59005 69921;
0185825830999992005060700004-05167-040667FM-12+029999999V0200901N002610075019N0040001N1+02681+01971101121ADDAA106000091GF108991051051008001999999MA1999999097761MD1999999-0071REMSYN088AAXX  07004 82583 32596 80905 10268 20197 39776 40112 855// 333 10327 29063 55052 59007;EQDQ01  00002PRCP06
0173825830999992005060712004-05167-040667FM-12+029999999V0201401N005110120019N0500001N1+02531+02151101191ADDAA106000091GF108991071081008001041999MA1999999097821MD1999999-0021REMSYN076AAXX  07124 82583 32599 81410 10253 20215 39782 40119 8784/ 333 20225 59002;EQDQ01  00002PRCP06
0185825830999992005060800004-05167-040667FM-12+029999999V0200501N001012200019N0040001N1+02571+02121101081ADDAA106000091GF101991011011008001001001MA1999999097701MD1999999-0061REMSYN088AAXX  08004 82583 32596 10502 10257 20212 39770 40108 81100 333 10304 29072 55016 59006;EQDQ01  00002PRCP06
0177825830999992005060812004-05167-040667FM-12+029999999V0200901N003610075019N0500001N1+02601+02231101311ADDAY161061AY261061GF106991051021008001001011MA1999999097931MD1999999+0111MW1021REMSYN088AAXX  08124 82583 21599 60907 10260 20223 39793 40131 70266 85201 333 20222 58011 60054;
0185825830999992005060900004-05167-040667FM-12+029999999V0200901N001512200019N0040001N1+02571+02151101221ADDAA106000091GF104991041051008001001001MA1999999097851MD1999999+0151REMSYN088AAXX  09004 82583 32596 40903 10257 20215 39785 40122 84500 333 10314 29072 55048 58015;EQDQ01  00002PRCP06
0173825830999992005060912004-05167-040667FM-12+029999999V0200901N004612200019N0500001N1+02691+02061101421ADDAA106000091GF102991021011008001001001MA1999999098041MD1999999+0111REMSYN076AAXX  09124 82583 32599 20909 10269 20206 39804 40142 82100 333 20219 58011;EQDQ01  00002PRCP06
0179825830999992005061000004-05167-040667FM-12+029999999V0200901N002112200019N0040001N1+02491+02291101481ADDAA106000091GF100991001001999999001001MA1999999098101MD1999999+0251REMSYN082AAXX  10004 82583 32996 00904 10249 20229 39810 40148 333 10315 29073 55053 58025;EQDQ01  00002PRCP06
0173825830999992005061012004-05167-040667FM-12+029999999V0200901N002612200019N0500001N1+02691+01861101331ADDAA106000091GF101991011011008001001001MA1999999098011MD1999999-0031REMSYN076AAXX  10124 82583 32599 10905 10269 20186 39801 40133 81100 333 20188 59003;EQDQ01  00002PRCP06
0179825830999992005061100004-05167-040667FM-12+029999999V0200901N001012200019N0040001N1+02441+01921101231ADDAA106000091GF100991001001999999001001MA1999999097851MD1999999-0151REMSYN082AAXX  11004 82583 32996 00902 10244 20192 39785 40123 333 10329 29061 55104 59015;EQDQ01  00002PRCP06
0173825830999992005061112004-05167-040667FM-12+029999999V0200901N003612200019N0500001N1+02851+02141101301ADDAA106000091GF103991031011008001001001MA1999999097921MD1999999-0091REMSYN076AAXX  11124 82583 32599 30907 10285 20214 39792 40130 83100 333 20213 59009;EQDQ01  00002PRCP06
0185825830999992005061200004-05170-040670FM-12+029999999V0200901N003610075019N0040001N1+02681+02061101231ADDAA106000091GF105991051011008001001001MA1999999097881MD1999999+0031REMSYN088AAXX  12004 82583 32596 50907 10268 20206 39788 40123 85100 333 10319 29063 55067 58003;EQDQ01  00002PRCP06
0177825830999992005061212004-05170-040670FM-12+029999999V0201401N003612200019N0500001N1+02651+02141101271ADDAY161061AY261061GF104991041021008001001001MA1999999097911MD1999999-0011MW1021REMSYN088AAXX  12124 82583 21599 41407 10265 20214 39791 40127 70266 84200 333 20225 59001 69934;
0185825830999992005061300004-05167-040667FM-12+029999999V0200501N001512200019N0040001N1+02611+02141101151ADDAA106000091GF104991041051008001001001MA1999999097791MD1999999-0091REMSYN088AAXX  13004 82583 32596 40503 10261 20214 39779 40115 84500 333 10316 29068 55053 59009;EQDQ01  00002PRCP06
0177825830999992005061312004-05167-040667FM-12+029999999V0201401N002612200019N0500001N1+02591+02231101321ADDAY161061AY261061GF104991041021008001001001MA1999999097941MD1999999+0031MW1211REMSYN088AAXX  13124 82583 21599 41405 10259 20223 39794 40132 72166 84200 333 20227 58003 60014;
0185825830999992005061400004-05167-040667FM-12+029999999V0200901N001512200019N0040001N1+02461+01971101191ADDAA106000091GF102991021011008001001001MA1999999097811MD1999999+0021REMSYN088AAXX  14004 82583 32596 20903 10246 20197 39781 40119 82100 333 10329 29074 55082 58002;EQDQ01  00002PRCP06
0177825830999992005061412004-05167-040667FM-12+029999999V0200901N002610120019N0500001N1+02481+02191101471ADDAY161061AY261061GF108991081081008001999999MA1999999098071MD1999999+0131MW1031REMSYN088AAXX  14124 82583 21599 80905 10248 20219 39807 40147 70366 888// 333 20220 58013 69924;
0185825830999992005061500004-05167-040667FM-12+029999999V0200501N002110075019N0040001N1+02671+02041101371ADDAA106000091GF108991081051008001999999MA1999999097991MD1999999+0181REMSYN088AAXX  15004 82583 32596 80504 10267 20204 39799 40137 885// 333 10330 29063 55051 58018;EQDQ01  00002PRCP06
0173825830999992005061512004-05167-040667FM-12+029999999V0200901N005112200019N0500001N1+02811+02071101451ADDAA106000091GF103991031011008001001001MA1999999098091MD1999999+0021REMSYN076AAXX  15124 82583 32599 30910 10281 20207 39809 40145 83100 333 20207 58002;EQDQ01  00002PRCP06
0179825830999992005061600004-05167-040667FM-12+029999999V0200901N002112200019N0040001N1+02541+02021101221ADDAA106000091GF100991001001999999001001MA1999999097861MD1999999-0131REMSYN082AAXX  16004 82583 32996 00904 10254 20202 39786 40122 333 10334 29060 55094 59013;EQDQ01  00002PRCP06
0173825830999992005061612004-05167-040667FM-12+029999999V0201401N004612200019N0500001N1+02851+01901101341ADDAA106000091GF104991041011008001001001MA1999999097971MD1999999-0121REMSYN076AAXX  16124 82583 32599 41409 10285 20190 39797 40134 84100 333 20217 59012;EQDQ01  00002PRCP06
0179825830999992005061700004-05167-040667FM-12+029999999V0200501N000512200019N0040001N1+02531+01981101241ADDAA106000091GF100991001001999999001001MA1999999097881MD1999999+0021REMSYN082AAXX  17004 82583 32996 00501 10253 20198 39788 40124 333 10335 29056 55078 58002;EQDQ01  00002PRCP06
0173825830999992005061712004-05167-040667FM-12+029999999V0200501N002112200019N0500001N1+02701+02111101461ADDAA106000091GF103991031021008001001001MA1999999098081MD1999999+0211REMSYN076AAXX  17124 82583 32599 30504 10270 20211 39808 40146 83200 333 20202 58021;EQDQ01  00002PRCP06
0173825830999992005061812004-05167-040667FM-12+029999999V0200901N003112200019N0500001N1+02841+02041101381ADDAA106000091GF102991021021008001001001MA1999999098021MD1999999-0061REMSYN076AAXX  18124 82583 32599 20906 10284 20204 39802 40138 82200 333 20208 59006;EQDQ01  00002PRCP06
0185825830999992005061900004-05170-040670FM-12+029999999V0200501N001010075019N0040001N1+02491+02311101341ADDAA106000091GF106991061011008001001001MA1999999097971MD1999999+0071REMSYN088AAXX  19004 82583 32596 60502 10249 20231 39797 40134 86100 333 10340 29064 55062 58007;EQDQ01  00002PRCP06
0173825830999992005061912004-05170-040670FM-12+029999999V0200901N004612200019N0500001N1+02841+02071101421ADDAA106000091GF102991021011008001001001MA1999999098051MD1999999+0031REMSYN076AAXX  19124 82583 32599 20909 10284 20207 39805 40142 82100 333 20228 58003;EQDQ01  00002PRCP06
0185825830999992005062000004-05170-040670FM-12+029999999V0200901N002612200019N0040001N1+02571+02011101271ADDAA106000091GF101991011011008001001001MA1999999097911MD1999999-0061REMSYN088AAXX  20004 82583 32596 10905 10257 20201 39791 40127 81100 333 10332 29060 55091 59006;EQDQ01  00002PRCP06
0173825830999992005062012004-05170-040670FM-12+029999999V0200901N005112200019N0500001N1+02811+02021101411ADDAA106000091GF102991021011008001001001MA1999999098041MD1999999+0011REMSYN076AAXX  20124 82583 32599 20910 10281 20202 39804 40141 82100 333 20201 58001;EQDQ01  00002PRCP06
0179825830999992005062100004-05167-040667FM-12+029999999V0201401N000512200019N0040001N1+02491+01871101261ADDAA106000091GF100991001001999999001001MA1999999097891MD1999999-0021REMSYN082AAXX  21004 82583 32996 01401 10249 20187 39789 40126 333 10331 29058 55090 59002;EQDQ01  00002PRCP06
0173825830999992005062112004-05167-040667FM-12+029999999V0201401N004610450019N0500001N1+02711+02101101421ADDAA106000091GF106991041021008001051001MA1999999098041MD1999999+0001REMSYN076AAXX  21124 82583 32599 61409 10271 20210 39804 40142 84250 333 20224 58000;EQDQ01  00002PRCP06
0185825830999992005062200004-05167-040667FM-12+029999999V0200901N000512200019N0040001N1+02611+01981101231ADDAA106000091GF101991001001999999001011MA1999999097861MD1999999-0031REMSYN088AAXX  22004 82583 32996 10901 10261 20198 39786 40123 80001 333 10335 29060 55090 59003;EQDQ01  00002PRCP06
0173825830999992005062212004-05167-040667FM-12+029999999V0200901N004612200019N0500001N1+02861+01811101371ADDAA106000091GF102991011011008001001011MA1999999098011MD1999999-0031REMSYN076AAXX  22124 82583 32599 20909 10286 20181 39801 40137 81101 333 20209 59003;EQDQ01  00002PRCP06
0185825830999992005062300004-05167-040667FM-12+029999999V0200901N001512200019N0040001N1+02601+01791101251ADDAA106000091GF101991011011012501001001MA1999999097891MD1999999+0031REMSYN088AAXX  23004 82583 32696 10903 10260 20179 39789 40125 81100 333 10342 29050 55103 58003;EQDQ01  00002PRCP06
0173825830999992005062312004-05167-040667FM-12+029999999V0201401N005712200019N0500001N1+02811+01861101471ADDAA106000091GF101991011011012501001001MA1999999098041MD1999999+0031REMSYN076AAXX  23124 82583 32699 11411 10281 20186 39804 40147 81100 333 20213 58003;EQDQ01  00002PRCP06
0185825830999992005062400004-05167-040667FM-12+029999999V0201801N001012200019N0040001N1+02711+01711101291ADDAA106000091GF103991031011008001001001MA1999999097941MD1999999+0051REMSYN088AAXX  24004 82583 32596 31802 10271 20171 39794 40129 83100 333 10349 29047 55102 58005;EQDQ01  00002PRCP06
0173825830999992005062412004-05167-040667FM-12+029999999V0201401N003610075019N0500001N1+02621+02011101491ADDAA106000091GF107991071051008001001001MA1999999098111MD1999999+0041REMSYN076AAXX  24124 82583 32599 71407 10262 20201 39811 40149 87500 333 20226 58004;EQDQ01  00002PRCP06
0185825830999992005062500004-05167-040667FM-12+029999999V0200901N001512200019N0040001N1+02601+01921101221ADDAA106000091GF102991021051008001001001MA1999999097851MD1999999-0031REMSYN088AAXX  25004 82583 32596 20903 10260 20192 39785 40122 82500 333 10334 29060 55031 59003;EQDQ01  00002PRCP06
0173825830999992005062512004-05167-040667FM-12+029999999V0200901N002110075019N0500001N1+02531+02041101381ADDAA106000091GF108991081051008001999999MA1999999098001MD1999999-0111REMSYN076AAXX  25124 82583 32599 80904 10253 20204 39800 40138 885// 333 20213 59011;EQDQ01  00002PRCP06
0185825830999992005062600004-05170-040670FM-12+029999999V0200501N001512200019N0040001N1+02671+02111101261ADDAA106000091GF102991021011008001001001MA1999999097881MD1999999+0031REMSYN088AAXX  26004 82583 32596 20503 10267 20211 39788 40126 82100 333 10196 29069 55006 58003;EQDQ01  00002PRCP06
0173825830999992005062612004-05170-040670FM-12+029999999V0200901N004110075019N0500001N1+02551+01901101451ADDAA106000091GF107991071051008001001001MA1999999098071MD1999999+0071REMSYN076AAXX  26124 82583 32599 70908 10255 20190 39807 40145 87500 333 20217 58007;EQDQ01  00002PRCP06
0198825830999992005062700004-05167-040667FM-12+029999999V0200901N003112200019N0040001N1+02691+01881101201ADDAA106000091GF102991021011008001001001KA1240M+03181MA1999999097831MD1999999-0051REMSYN088AAXX  27004 82583 32596 20906 10269 20188 39783 40120 82100 333 10318 29057 55041 59005;EQDQ01  00002PRCP06
0190825830999992005062712004-05167-040667FM-12+029999999V0200901N003110042019N0020001N1+02291+02251101411ADDAY161061AY261061GF108991081051004501999999KA1240N+02291MA1999999098021MD1999999-0051MW1631REMSYN088AAXX  27124 82583 21495 80906 10229 20225 39802 40141 76366 885// 333 20229 59005 60044;
0202825830999992005062800004-05167-040667FM-12+029999999V0203601N001512200019N0040001N1+02291+01901101411ADDAY161061AY261061GF101991011011008001001001KA1240M+02811MA1999999098001MD1999999+0171MW1021REMSYN100AAXX  28004 82583 21596 13603 10229 20190 39800 40141 70266 81100 333 10281 29076 55001 58017 60011;
0162825830999992005062812004-05167-040667FM-12+029999999V0200901N004610120019N0500001N1+02581+02101101491ADDGF108991081081008001999999KA1240N+02001MA1999999098091MD1999999+0071REMSYN082AAXX  28124 82583 22599 80909 10258 20210 39809 40149 888// 333 20200 58007 60014;
0208825830999992005062900004-05167-040667FM-12+029999999V0200901N001512200019N0040001N1+02421+01911101331ADDAA106000091GA1001+999999999GF100991001001999999001001KA1240M+03281MA1999999097941MD1999999-0061REMSYN082AAXX  29004 82583 32996 00903 10242 20191 39794 40133 333 10328 29064 55071 59006;EQDQ01  00002PRCP06
0186825830999992005062912004-05167-040667FM-12+029999999V0201401N003112200019N0500001N1+02691+01881101371ADDAA106000091GF101991011011008001001001KA1240N+01941MA1999999097991MD1999999-0101REMSYN076AAXX  29124 82583 32599 11406 10269 20188 39799 40137 81100 333 20194 59010;EQDQ01  00002PRCP06
0198825830999992005063000004-05167-040667FM-12+029999999V0209999C000012200019N0040001N1+02571+01991101231ADDAA106000091GF103991031051008001001001KA1240M+03091MA1999999097861MD1999999-0081REMSYN088AAXX  30004 82583 32596 30900 10257 20199 39786 40123 83500 333 10309 29062 55044 59008;EQDQ01  00002PRCP06
0186825830999992005063012004-05167-040667FM-12+029999999V0200901N007212200019N0500001N1+02701+01601101371ADDAA106000091GF102991011011008001001011KA1240N+01951MA1999999097991MD1999999+0001REMSYN076AAXX  30124 82583 32599 20914 10270 20160 39799 40137 81101 333 20195 58000;EQDQ01  00002PRCP06
0179825830999992005070100004-05167-040667FM-12+029999999V0200501N002112200019N0040001N1+02591+01791101281ADDAA106000091GF100991001001999999001001MA1999999097901MD1999999+0041REMSYN082AAXX  01004 82583 32996 00504 10259 20179 39790 40128 333 10326 29050 55076 58004;EQDQ01  00002PRCP06
0173825830999992005070112004-05167-040667FM-12+029999999V0200901N004610075019N0500001N1+02711+02051101391ADDAA106000091GF106991061021008001001001MA1999999098011MD1999999+0021REMSYN076AAXX  01124 82583 32599 60909 10271 20205 39801 40139 86200 333 20221 58002;EQDQ01  00002PRCP06
0173825830999992005070212004-05167-040667FM-12+029999999V0201401N004612200019N0500001N1+02721+01821101511ADDAA106000091GF101991011011008001001001MA1999999098131MD1999999+0121REMSYN076AAXX  02124 82583 32599 11409 10272 20182 39813 40151 81100 333 20197 58012;EQDQ01  00002PRCP06
0185825830999992005070300004-05170-040670FM-12+029999999V0200901N002112200019N0040001N1+02651+01821101541ADDAA106000091GF101991011011008001001001MA1999999098161MD1999999+0171REMSYN088AAXX  03004 82583 32596 10904 10265 20182 39816 40154 81100 333 10342 29051 55091 58017;EQDQ01  00002PRCP06
0173825830999992005070312004-05170-040670FM-12+029999999V0201401N006210075019N0500001N1+02731+01971101551ADDAA106000091GF106991061021008001001001MA1999999098171MD1999999+0041REMSYN076AAXX  03124 82583 32599 61412 10273 20197 39817 40155 86200 333 20201 58004;EQDQ01  00002PRCP06
0185825830999992005070400004-05167-040667FM-12+029999999V0200901N002112200019N0040001N1+02591+01871101391ADDAA106000091GF104991041051008001001001MA1999999098011MD1999999-0151REMSYN088AAXX  04004 82583 32596 40904 10259 20187 39801 40139 84500 333 10324 29058 55102 59015;EQDQ01  00002PRCP06
0173825830999992005070412004-05167-040667FM-12+029999999V0200901N004610120019N0500001N1+02661+02041101401ADDAA106000091GF108991081081008001999999MA1999999098021MD1999999-0151REMSYN076AAXX  04124 82583 32599 80909 10266 20204 39802 40140 888// 333 20216 59015;EQDQ01  00002PRCP06
0179825830999992005070500004-05167-040667FM-12+029999999V0200901N001512200019N0040001N1+02501+01721101331ADDAA106000091GF100991001001999999001001MA1999999097951MD1999999-0061REMSYN082AAXX  05004 82583 32996 00903 10250 20172 39795 40133 333 10320 29058 55035 59006;EQDQ01  00002PRCP06
0173825830999992005070512004-05167-040667FM-12+029999999V0201401N003112200019N0500001N1+02691+02061101501ADDAA106000091GF104991041011008001001001MA1999999098121MD1999999+0101REMSYN076AAXX  05124 82583 32599 41406 10269 20206 39812 40150 84100 333 20197 58010;EQDQ01  00002PRCP06
0179825830999992005070600004-05167-040667FM-12+029999999V0200901N001512200019N0040001N1+02691+01781101351ADDAA106000091GF100991001001999999001001MA1999999097981MD1999999+0031REMSYN082AAXX  06004 82583 32996 00903 10269 20178 39798 40135 333 10348 29056 55014 58003;EQDQ01  00002PRCP06
0173825830999992005070612004-05167-040667FM-12+029999999V0201401N004110075019N0500001N1+02711+02001101591ADDAA106000091GF106991051021008001041001MA1999999098211MD1999999+0091REMSYN076AAXX  06124 82583 32599 61408 10271 20200 39821 40159 85240 333 20221 58009;EQDQ01  00002PRCP06
0179825830999992005070700004-05167-040667FM-12+029999999V0200901N002112200019N0040001N1+02681+01921101401ADDAA106000091GF100991001001999999001001MA1999999098031MD1999999+0051REMSYN082AAXX  07004 82583 32996 00904 10268 20192 39803 40140 333 10339 29055 55075 58005;EQDQ01  00002PRCP06
0173825830999992005070712004-05167-040667FM-12+029999999V0200901N004612200019N0500001N1+02691+02011101631ADDAA106000091GF103991021021008001001011MA1999999098251MD1999999+0041REMSYN076AAXX  07124 82583 32599 30909 10269 20201 39825 40163 82201 333 20210 58004;EQDQ01  00002PRCP06
0179825830999992005070800004-05167-040667FM-12+029999999V0200901N001512200019N0040001N1+02751+01801101371ADDAA106000091GF100991001001999999001001MA1999999098001MD1999999-0031REMSYN082AAXX  08004 82583 32996 00903 10275 20180 39800 40137 333 10382 29052 55089 59003;EQDQ01  00002PRCP06
0173825830999992005070812004-05167-040667FM-12+029999999V0200901N004610120019N0500001N1+02581+02101101591ADDAA106000091GF107991061081008001041999MA1999999098211MD1999999-0041REMSYN076AAXX  08124 82583 32599 70909 10258 20210 39821 40159 8684/ 333 20240 59004;EQDQ01  00002PRCP06
0185825830999992005070900004-05167-040667FM-12+029999999V0200901N001512200019N0040001N1+02581+01971101421ADDAA106000091GF102991021011008001001001MA1999999098041MD1999999+0041REMSYN088AAXX  09004 82583 32596 20903 10258 20197 39804 40142 82100 333 10322 29064 55029 58004;EQDQ01  00002PRCP06
0173825830999992005070912004-05167-040667FM-12+029999999V0200901N007212200019N0500001N1+02671+01861101611ADDAA106000091GF104991041021008001001001MA1999999098231MD1999999+0021REMSYN076AAXX  09124 82583 32599 40914 10267 20186 39823 40161 84200 333 20223 58002;EQDQ01  00002PRCP06
0185825830999992005071000004-05170-040670FM-12+029999999V0201401N002612200019N0040001N1+02631+01801101471ADDAA106000091GF101991011011008001001001MA1999999098091MD1999999+0051REMSYN088AAXX  10004 82583 32596 11405 10263 20180 39809 40147 81100 333 10320 29055 55070 58005;EQDQ01  00002PRCP06
0189825830999992005071012004-05170-040670FM-12+029999999V0201801N006219999999N0200001N1+02581+01771101521ADDAA106000091GF108991999021008001001001MA1999999098141MD1999999-0091REMSYN076AAXX  10124 82583 32598 81812 10258 20177 39814 40152 84200 333 20202 59009;EQDQ01+000042SCOTLCQ02  00002PRCP06
0185825830999992005071100004-05167-040667FM-12+029999999V0200901N002612200019N0040001N1+02671+01701101401ADDAA106000091GF103991031011008001001001MA1999999098021MD1999999-0071REMSYN088AAXX  11004 82583 32596 30905 10267 20170 39802 40140 83100 333 10321 29051 55075 59007;EQDQ01  00002PRCP06
0173825830999992005071112004-05167-040667FM-12+029999999V0201401N006212200019N0500001N1+02671+01891101541ADDAA106000091GF101991011011008001001001MA1999999098161MD1999999+0021REMSYN076AAXX  11124 82583 32599 11412 10267 20189 39816 40154 81100 333 20201 58002;EQDQ01  00002PRCP06
0185825830999992005071200004-05167-040667FM-12+029999999V0200901N003110075019N0040001N1+02741+01921101381ADDAA106000091GF106991061051008001001001MA1999999098021MD1999999+0001REMSYN088AAXX  12004 82583 32596 60906 10274 20192 39802 40138 86500 333 10333 29055 55100 58000;EQDQ01  00002PRCP06
0185825830999992005071300004-05167-040667FM-12+029999999V0200901N002112200019N0040001N1+02711+01851101231ADDAA106000091GF102991011011008001001011MA1999999097871MD1999999-0151REMSYN088AAXX  13004 82583 32596 20904 10271 20185 39787 40123 81101 333 10342 29052 55101 59015;EQDQ01  00002PRCP06
0173825830999992005071312004-05167-040667FM-12+029999999V0201401N004612200019N0500001N1+02651+01681101491ADDAA106000091GF101991011011008001001001MA1999999098121MD1999999-0011REMSYN076AAXX  13124 82583 32599 11409 10265 20168 39812 40149 81100 333 20197 59001;EQDQ01  00002PRCP06
0179825830999992005071400004-05167-040667FM-12+029999999V0201801N002112200019N0040001N1+02581+01521101281ADDAA106000091GF100991001001999999001001MA1999999097901MD1999999+0031REMSYN082AAXX  14004 82583 32996 01804 10258 20152 39790 40128 333 10333 29048 55103 58003;EQDQ01  00002PRCP06
0173825830999992005071412004-05167-040667FM-12+029999999V0201401N003612200019N0500001N1+02631+01721101471ADDAA106000091GF103991031011008001001001MA1999999098091MD1999999-0031REMSYN076AAXX  14124 82583 32599 31407 10263 20172 39809 40147 83100 333 20190 59003;EQDQ01  00002PRCP06
0179825830999992005071500004-05167-040667FM-12+029999999V0200901N002112200019N0040001N1+02551+01501101281ADDAA106000091GF100991001001999999001001MA1999999097901MD1999999+0001REMSYN082AAXX  15004 82583 32996 00904 10255 20150 39790 40128 333 10328 29049 55105 58000;EQDQ01  00002PRCP06
0173825830999992005071512004-05167-040667FM-12+029999999V0201401N004612200019N0500001N1+02641+01721101451ADDAA106000091GF101991011011008001001001MA1999999098071MD1999999-0021REMSYN076AAXX  15124 82583 32599 11409 10264 20172 39807 40145 81100 333 20191 59002;EQDQ01  00002PRCP06
0179825830999992005071600004-05167-040667FM-12+029999999V0200901N002112200019N0040001N1+02641+01581101321ADDAA106000091GF100991001001999999001001MA1999999097941MD1999999+0041REMSYN082AAXX  16004 82583 32996 00904 10264 20158 39794 40132 333 10335 29049 55099 58004;EQDQ01  00002PRCP06
0173825830999992005071612004-05167-040667FM-12+029999999V0201401N004612200019N0500001N1+02691+01571101431ADDAA106000091GF101991011001008001001001MA1999999098051MD1999999-0021REMSYN076AAXX  16124 82583 32599 11409 10269 20157 39805 40143 81000 333 20225 59002;EQDQ01  00002PRCP06
0179825830999992005071700004-05170-040670FM-12+029999999V0201401N001512200019N0040001N1+02591+01541101301ADDAA106000091GF100991001001999999001001MA1999999097931MD1999999-0011REMSYN082AAXX  17004 82583 32996 01403 10259 20154 39793 40130 333 10342 29047 55103 59001;EQDQ01  00002PRCP06
0173825830999992005071712004-05170-040670FM-12+029999999V0200901N005112200019N0500001N1+02741+01781101521ADDAA106000091GF102991021011008001001001MA1999999098141MD1999999+0091REMSYN076AAXX  17124 82583 32599 20910 10274 20178 39814 40152 82100 333 20207 58009;EQDQ01  00002PRCP06
0179825830999992005071800004-05167-040667FM-12+029999999V0200901N001512200019N0040001N1+02621+01531101321ADDAA106000091GF100991001001999999001001MA1999999097951MD1999999+0021REMSYN082AAXX  18004 82583 32996 00903 10262 20153 39795 40132 333 10337 29047 55103 58002;EQDQ01  00002PRCP06
0173825830999992005071812004-05167-040667FM-12+029999999V0200901N004612200019N0500001N1+02821+01911101441ADDAA106000091GF101991011011008001001001MA1999999098071MD1999999-0071REMSYN076AAXX  18124 82583 32599 10909 10282 20191 39807 40144 81100 333 20200 59007;EQDQ01  00002PRCP06
0185825830999992005071900004-05167-040667FM-12+029999999V0200901N001512200019N0040001N1+02651+01621101231ADDAA106000091GF101991001001999999001011MA1999999097871MD1999999-0081REMSYN088AAXX  19004 82583 32996 10903 10265 20162 39787 40123 80001 333 10343 29049 55101 59008;EQDQ01  00002PRCP06
0173825830999992005071912004-05167-040667FM-12+029999999V0200901N004612200019N0500001N1+02811+01891101451ADDAA106000091GF104991041011008001001001MA1999999098091MD1999999+0021REMSYN076AAXX  19124 82583 32599 40909 10281 20189 39809 40145 84100 333 20217 58002;EQDQ01  00002PRCP06
0155825830999992005072000004-05167-040667FM-12+029999999V0201401N002112200019N0040001N1+02571+01721101211ADDGF101991011011008001001001MA1999999097851MD1999999-0021REMSYN088AAXX  20004 82583 32596 11404 10257 20172 39785 40121 81100 333 10340 29052 55093 59002;
0143825830999992005072012004-05167-040667FM-12+029999999V0200901N001510075019N0500001N1+02561+01931101491ADDGF108991081051008001999999MA1999999098101MD1999999+0011REMSYN076AAXX  20124 82583 32599 80903 10256 20193 39810 40149 885// 333 20215 58001;
0155825830999992005072100004-05167-040667FM-12+029999999V0200901N002112200019N0040001N1+02681+01731101181ADDGF101991001001999999001011MA1999999097811MD1999999-0041REMSYN088AAXX  21004 82583 32996 10904 10268 20173 39781 40118 80001 333 10341 29054 55071 59004;
0207825830999992005072112004-05167-040667FM-12+029999999V0200901N005112200019N0500001N1+02771+01821101451ADDAA124000091AY161061AY261061GF102991021011008001001001MA1999999098081MD1999999-0021MW1011REMSYN088AAXX  21124 82583 21599 20910 10277 20182 39808 40145 70166 82100 333 20209 59002 69914;EQDQ01  00002PRCP24
0149825830999992005072200004-05167-040667FM-12+029999999V0200901N002112200019N0040001N1+02671+01891101281ADDGF100991001001999999001001MA1999999097921MD1999999+0111REMSYN082AAXX  22004 82583 32996 00904 10267 20189 39792 40128 333 10343 29051 55104 58011;
0137825830999992005072212004-05167-040667FM-12+029999999V0201401N004612200019N0500001N1+02651+01791101561ADDGF100991001001999999001001MA1999999098151MD1999999+0101REMSYN070AAXX  22124 82583 32999 01409 10265 20179 39815 40156 333 20195 58010;
0149825830999992005072300004-05167-040667FM-12+029999999V0200901N002112200019N0040001N1+02661+02041101311ADDGF100991001001999999001001MA1999999097941MD1999999+0021REMSYN082AAXX  23004 82583 32996 00904 10266 20204 39794 40131 333 10347 29057 55105 58002;
0143825830999992005072312004-05167-040667FM-12+029999999V0200901N005110120019N0500001N1+02581+01941101571ADDGF106991061081008001001001MA1999999098181MD1999999+0021REMSYN076AAXX  23124 82583 32599 60910 10258 20194 39818 40157 86800 333 20220 58002;
0155825830999992005072400004-05170-040670FM-12+029999999V0200901N003612200019N0040001N1+02641+02091101331ADDGF101991011011008001001001MA1999999097951MD1999999+0011REMSYN088AAXX  24004 82583 32596 10907 10264 20209 39795 40133 81100 333 10336 29064 55074 58001;
0143825830999992005072412004-05170-040670FM-12+029999999V0201401N005112200019N0500001N1+02701+01961101601ADDGF101991011011008001001001MA1999999098221MD1999999+0041REMSYN076AAXX  24124 82583 32599 11410 10270 20196 39822 40160 81100 333 20197 58004;
0155825830999992005072500004-05170-040670FM-12+029999999V0200901N002612200019N0040001N1+02611+01961101361ADDGF101991011011008001001001MA1999999097981MD1999999-0031REMSYN088AAXX  25004 82583 32596 10905 10261 20196 39798 40136 81100 333 10349 29056 55107 59003;
0143825830999992005072512004-05167-040667FM-12+029999999V0201401N005112200019N0500001N1+02611+01961101631ADDGF104991041011008001001001MA1999999098241MD1999999+0021REMSYN076AAXX  25124 82583 32599 41410 10261 20196 39824 40163 84100 333 20193 58002;
0149825830999992005072600004-05167-040667FM-12+029999999V0200501N002112200019N0040001N1+02781+02091101531ADDGF100991001001999999001001MA1999999098151MD1999999+0171REMSYN082AAXX  26004 82583 32996 00504 10278 20209 39815 40153 333 10336 29061 55080 58017;
0143825830999992005072612004-05167-040667FM-12+029999999V0201401N004612200019N0500001N1+02791+01951101611ADDGF101991011011008001001001MA1999999098251MD1999999+0011REMSYN076AAXX  26124 82583 32599 11409 10279 20195 39825 40161 81100 333 20206 58001;
0149825830999992005072700004-05167-040667FM-12+029999999V0200901N002112200019N0040001N1+02811+01971101351ADDGF100991001001999999001001MA1999999097991MD1999999-0161REMSYN082AAXX  27004 82583 32996 00904 10281 20197 39799 40135 333 10353 29056 55099 59016;
0143825830999992005072712004-05167-040667FM-12+029999999V0200901N004112200019N0500001N1+02801+02061101601ADDGF102991021011008001001001MA1999999098241MD1999999-0011REMSYN076AAXX  27124 82583 32599 20908 10280 20206 39824 40160 82100 333 20222 59001;
0149825830999992005072800004-05167-040667FM-12+029999999V0200901N002112200019N0040001N1+02781+02091101371ADDGF100991001001999999001001MA1999999098011MD1999999+0021REMSYN082AAXX  28004 82583 32996 00904 10278 20209 39801 40137 333 10342 29060 55100 58002;
0143825830999992005072812004-05167-040667FM-12+029999999V0201401N005112200019N0500001N1+02691+01881101671ADDGF101991011011008001001001MA1999999098291MD1999999+0051REMSYN076AAXX  28124 82583 32599 11410 10269 20188 39829 40167 81100 333 20195 58005;
0149825830999992005072900004-05167-040667FM-12+029999999V0200901N001512200019N0040001N1+02711+02101101431ADDGF100991001001999999001001MA1999999098061MD1999999+0051REMSYN082AAXX  29004 82583 32996 00903 10271 20210 39806 40143 333 10334 29061 55104 58005;
0143825830999992005072912004-05167-040667FM-12+029999999V0201401N005112200019N0500001N1+02731+01971101651ADDGF101991011011008001001001MA1999999098251MD1999999-0041REMSYN076AAXX  29124 82583 32599 11410 10273 20197 39825 40165 81100 333 20200 59004;
0155825830999992005073000004-05167-040667FM-12+029999999V0201401N001512200019N0040001N1+02721+02241101541ADDGF101991011011008001001001MA1999999098161MD1999999+0101REMSYN088AAXX  30004 82583 32596 11403 10272 20224 39816 40154 81100 333 10342 29063 55106 58010;
0156825830999992005073012004-05170-040670FM-12+029999999V0200901N005112200019N0500001N1+02641+01661101661ADDGF102991021011008001001001KA1240N+01931MA1999999098281MD1999999+0031REMSYN076AAXX  30124 82583 32599 20910 10264 20166 39828 40166 82100 333 20193 58003;
0162825830999992005073100004-05170-040670FM-12+029999999V0200901N002112200019N0040001N1+02731+02051101371ADDGF100991001001999999001001KA1240M+03291MA1999999098001MD1999999-0161REMSYN082AAXX  31004 82583 32996 00904 10273 20205 39800 40137 333 10329 29057 55103 59016;
0156825830999992005073112004-05170-040670FM-12+029999999V0200901N005712200019N0500001N1+02651+01821101481ADDGF101991011011008001001001KA1240N+02081MA1999999098111MD1999999-0171REMSYN076AAXX  31124 82583 32599 10911 10265 20182 39811 40148 81100 333 20208 59017;
0155825830999992005080100004-05167-040667FM-12+029999999V0200901N002112200019N0040001N1+02681+01731101271ADDGF101991011011008001001001MA1999999097901MD1999999-0101REMSYN088AAXX  01004 82583 32596 10904 10268 20173 39790 40127 81100 333 10265 29054 55101 59010;
0143825830999992005080112004-05167-040667FM-12+029999999V0201401N007212200019N0500001N1+02651+01741101531ADDGF102991021011008001001001MA1999999098151MD1999999+0041REMSYN076AAXX  01124 82583 32599 21414 10265 20174 39815 40153 82100 333 20224 58004;
0149825830999992005080200004-05167-040667FM-12+029999999V0200901N002112200019N0040001N1+02701+01831101231ADDGF100991001001999999001001MA1999999097871MD1999999-0031REMSYN082AAXX  02004 82583 32996 00904 10270 20183 39787 40123 333 10334 29055 55106 59003;
0143825830999992005080212004-05167-040667FM-12+029999999V0201401N004610075019N0500001N1+02581+01941101511ADDGF106991061011008001001001MA1999999098131MD1999999-0021REMSYN076AAXX  02124 82583 32599 61409 10258 20194 39813 40151 86100 333 20195 59002;
0155825830999992005080300004-05167-040667FM-12+029999999V0200901N001512200019N0040001N1+02691+02281101251ADDGF101991011011008001001001MA1999999097871MD1999999+0001REMSYN088AAXX  03004 82583 32596 10903 10269 20228 39787 40125 81100 333 10341 29065 55106 58000;
0188825830999992005080312004-05167-040667FM-12+029999999V0201401N002110120019N0500001N1+02261+02191101571ADDAA124001091AY161061AY251061GF107991061081008001041999MA1999999098171MD1999999+0041MW1201REMSYN088AAXX  03124 82583 21599 71404 10226 20219 39817 40157 72065 8684/ 333 20211 58004 60014;
0155825830999992005080400004-05167-040667FM-12+029999999V0200901N001012200019N0040001N1+02661+02001101231ADDGF101991011011008001001001MA1999999097841MD1999999-0031REMSYN088AAXX  04004 82583 32596 10902 10266 20200 39784 40123 81100 333 10331 29066 55063 59003;
0143825830999992005080412004-05167-040667FM-12+029999999V0200901N006212200019N0500001N1+02771+02011101541ADDGF102991021011008001001001MA1999999098161MD1999999-0011REMSYN076AAXX  04124 82583 32599 20912 10277 20201 39816 40154 82100 333 20210 59001;
0149825830999992005080500004-05167-040667FM-12+029999999V0201401N002112200019N0040001N1+02681+01551101301ADDGF100991001001999999001001MA1999999097941MD1999999-0101REMSYN082AAXX  05004 82583 32996 01404 10268 20155 39794 40130 333 10345 29049 55100 59010;
0143825830999992005080512004-05167-040667FM-12+029999999V0201401N005712200019N0500001N1+02721+01681101541ADDGF101991011011008001001001MA1999999098171MD1999999+0011REMSYN076AAXX  05124 82583 32599 11411 10272 20168 39817 40154 81100 333 20223 58001;
0149825830999992005080600004-05167-040667FM-12+029999999V0200901N002612200019N0040001N1+02691+01541101381ADDGF100991001001999999001001MA1999999098011MD1999999+0071REMSYN082AAXX  06004 82583 32996 00905 10269 20154 39801 40138 333 10336 29048 55098 58007;
0143825830999992005080612004-05167-040667FM-12+029999999V0201401N006712200019N0500001N1+02691+01881101551ADDGF102991021011008001001001MA1999999098171MD1999999+0001REMSYN076AAXX  06124 82583 32599 21413 10269 20188 39817 40155 82100 333 20232 58000;
0155825830999992005080700004-05170-040670FM-12+029999999V0201401N002612200019N0040001N1+02871+01571101331ADDGF102991021011008001001001MA1999999097971MD1999999-0041REMSYN088AAXX  07004 82583 32596 21405 10287 20157 39797 40133 82100 333 10328 29049 55099 59004;
0143825830999992005080712004-05170-040670FM-12+029999999V0201401N005712200019N0500001N1+02751+01751101561ADDGF101991011011008001001001MA1999999098201MD1999999+0031REMSYN076AAXX  07124 82583 32599 11411 10275 20175 39820 40156 81100 333 20215 58003;
0149825830999992005080800004-05167-040667FM-12+029999999V0201401N002112200019N0040001N1+02751+01591101401ADDGF100991001001999999001001MA1999999097891MD1999999-0071REMSYN082AAXX  08004 82583 32996 01404 10275 20159 39789 40140 333 10336 29048 55107 59007;
0143825830999992005080812004-05167-040667FM-12+029999999V0201401N005712200019N0500001N1+02661+01771101541ADDGF101991011011008001001001MA1999999098161MD1999999-0041REMSYN076AAXX  08124 82583 32599 11411 10266 20177 39816 40154 81100 333 20219 59004;
0149825830999992005080900004-05167-040667FM-12+029999999V0200901N002112200019N0040001N1+02711+01791101261ADDGF100991001001999999001001MA1999999097901MD1999999-0141REMSYN082AAXX  09004 82583 32996 00904 10271 20179 39790 40126 333 10339 29051 55099 59014;
0143825830999992005080912004-05167-040667FM-12+029999999V0200901N004112200019N0500001N1+02651+01821101581ADDGF102991021011008001001001MA1999999098201MD1999999+0041REMSYN076AAXX  09124 82583 32599 20908 10265 20182 39820 40158 82100 333 20206 58004;
0149825830999992005081000004-05167-040667FM-12+029999999V0200901N002612200019N0040001N1+02731+01701101271ADDGF100991001001999999001001MA1999999097911MD1999999+0011REMSYN082AAXX  10004 82583 32596 00905 10273 20170 39791 40127 333 10338 29050 55103 58001;
0143825830999992005081012004-05167-040667FM-12+029999999V0200901N004612200019N0500001N1+02721+02001101611ADDGF103991031011008001001001MA1999999098231MD1999999+0031REMSYN076AAXX  10124 82583 32599 30909 10272 20200 39823 40161 83100 333 20210 58003;
0155825830999992005081100004-05167-040667FM-12+029999999V0200901N003112200019N0040001N1+02931+01971101241ADDGF102991021011008001001001MA1999999097891MD1999999-0021REMSYN088AAXX  11004 82583 32596 20906 10293 20197 39789 40124 82100 333 10343 29050 55082 59002;
0143825830999992005081112004-05167-040667FM-12+029999999V0200901N003112200019N0500001N1+02791+02031101601ADDGF102991021011008001001001MA1999999098241MD1999999+0011REMSYN076AAXX  11124 82583 32599 20906 10279 20203 39824 40160 82100 333 20225 58001;
0149825830999992005081200004-05167-040667FM-12+029999999V0200901N002112200019N0040001N1+02951+01811101241ADDGF100991001001999999001001MA1999999097881MD1999999-0011REMSYN082AAXX  12004 82583 32996 00904 10295 20181 39788 40124 333 10358 29049 55101 59001;
0143825830999992005081212004-05167-040667FM-12+029999999V0200901N004112200019N0500001N1+02761+01991101461ADDGF103991021011008001001011MA1999999098101MD1999999-0141REMSYN076AAXX  12124 82583 32599 30908 10276 20199 39810 40146 82101 333 20224 59014;
0155825830999992005081300004-05167-040667FM-12+029999999V0200901N001512200019N0040001N1+02921+01671101071ADDGF102991011011008001001011MA1999999097731MD1999999-0151REMSYN088AAXX  13004 82583 32596 20903 10292 20167 39773 40107 81101 333 10358 29046 55100 59015;
0143825830999992005081312004-05170-040670FM-12+029999999V0200901N002612200019N0500001N1+02671+02111101431ADDGF104991041021008001001001MA1999999098071MD1999999-0031REMSYN076AAXX  13124 82583 32599 40905 10267 20211 39807 40143 84200 333 20227 59003;
0149825830999992005081400004-05170-040670FM-12+029999999V0200901N002612200019N0040001N1+02931+01721101031ADDGF100991001001999999001001MA1999999097681MD1999999-0051REMSYN082AAXX  14004 82583 32996 00905 10293 20172 39768 40103 333 10325 29049 55085 59005;
0143825830999992005081412004-05170-040670FM-12+029999999V0200901N005112200019N0500001N1+02621+01881101491ADDGF104991041011008001001001MA1999999098131MD1999999+0061REMSYN076AAXX  14124 82583 32599 40910 10262 20188 39813 40149 84100 333 20223 58006;
0155825830999992005081500004-05170-040670FM-12+029999999V0200901N002112200019N0040001N1+02891+01871101131ADDGF101991011011008001001001MA1999999097781MD1999999+0101REMSYN088AAXX  15004 82583 32596 10904 10289 20187 39778 40113 81100 333 10264 29051 55089 58010;
0143825830999992005081512004-05170-040670FM-12+029999999V0200901N004610075019N0500001N1+02761+01971101551ADDGF106991061021008001001001MA1999999098191MD1999999+0061REMSYN076AAXX  15124 82583 32599 60909 10276 20197 39819 40155 86200 333 20237 58006;
0155825830999992005081600004-05167-040667FM-12+029999999V0200901N002612200019N0040001N1+02871+01831101261ADDGF102991011011008001001011MA1999999097911MD1999999+0081REMSYN088AAXX  16004 82583 32596 20905 10287 20183 39791 40126 81101 333 10348 29050 55103 58008;
0143825830999992005081612004-05167-040667FM-12+029999999V0201401N002119999999N0500001N1+02671+02231101521ADDGF107991999041008001001001MA1999999098151MD1999999-0041REMSYN076AAXX  16124 82583 32599 71404 10267 20223 39815 40152 88400 333 20229 59004;
0149825830999992005081700004-05167-040667FM-12+029999999V0200901N000512200019N0040001N1+02881+01911101181ADDGF100991001001999999001001MA1999999097811MD1999999-0101REMSYN082AAXX  17004 82583 32996 00901 10288 20191 39781 40118 333 10353 29056 55083 59010;
0143825830999992005081712004-05167-040667FM-12+029999999V0201401N005112200019N0500001N1+02771+01761101411ADDGF101991011011008001001001MA1999999098051MD1999999-0101REMSYN076AAXX  17124 82583 32599 11410 10277 20176 39805 40141 81100 333 20226 59010;
0149825830999992005081800004-05167-040667FM-12+029999999V0201401N002112200019N0040001N1+02761+01831101211ADDGF100991001001999999001001MA1999999097851MD1999999+0041REMSYN082AAXX  18004 82583 32996 01404 10276 20183 39785 40121 333 10346 29048 55093 58004;
0143825830999992005081812004-05167-040667FM-12+029999999V0200901N007212200019N0500001N1+02811+01911101441ADDGF104991041021008001001001MA1999999098081MD1999999+0031REMSYN076AAXX  18124 82583 32599 40914 10281 20191 39808 40144 84200 333 20224 58003;
0155825830999992005081900004-05167-040667FM-12+029999999V0200901N002112200019N0040001N1+02681+02161101261ADDGF101991011011008001001001MA1999999097901MD1999999+0051REMSYN088AAXX  19004 82583 32596 10904 10268 20216 39790 40126 81100 333 10346 29058 55107 58005;
0143825830999992005081912004-05167-040667FM-12+029999999V0201401N004610075019N0500001N1+02681+02061101511ADDGF106991051021008001031001MA1999999098141MD1999999+0061REMSYN076AAXX  19124 82583 32599 61409 10268 20206 39814 40151 85230 333 20218 58006;
0155825830999992005082000004-05167-040667FM-12+029999999V0200901N002612200019N0040001N1+02541+02091101421ADDGF101991011011008001001001MA1999999098041MD1999999+0141REMSYN088AAXX  20004 82583 32596 10905 10254 20209 39804 40142 81100 333 10302 29070 55026 58014;
0143825830999992005082012004-05167-040667FM-12+029999999V0201401N004612200019N0500001N1+02721+01931101481ADDGF101991001001999999001011MA1999999098101MD1999999-0041REMSYN076AAXX  20124 82583 32999 11409 10272 20193 39810 40148 80001 333 20192 59004;
0155825830999992005082100004-05170-040670FM-12+029999999V0200901N005112200019N0040001N1+02831+01961101301ADDGF101991011011008001001001MA1999999097941MD1999999-0101REMSYN088AAXX  21004 82583 32596 10910 10283 20196 39794 40130 81100 333 10349 29052 55111 59010;
0143825830999992005082112004-05170-040670FM-12+029999999V0201401N004612200019N0500001N1+02711+01711101451ADDGF101991011011008001001001MA1999999098021MD1999999-0011REMSYN076AAXX  21124 82583 32599 11409 10271 20171 39802 40145 81100 333 20229 59001;
0178825830999992005082200004-05167-040667FM-12+029999999V0200901N001512200019N0040001N1+02831+02171101161ADDGA1001+999999999GF100991001001999999001001KA1240M+03491MA1999999097801MD1999999-0141REMSYN082AAXX  22004 82583 32996 00903 10283 20217 39780 40116 333 10349 29054 55101 59014;
0156825830999992005082212004-05167-040667FM-12+029999999V0200901N005710120019N0500001N1+02691+01991101361ADDGF107991061081008001041999KA1240N+02291MA1999999098001MD1999999-0091REMSYN076AAXX  22124 82583 32599 70911 10269 20199 39800 40136 8684/ 333 20229 59009;
0168825830999992005082300004-05167-040667FM-12+029999999V0201401N001512200019N0040001N1+02711+02101101181ADDGF101991011011008001001001KA1240M+03341MA1999999097821MD1999999+0021REMSYN088AAXX  23004 82583 32596 11403 10271 20210 39782 40118 81100 333 10334 29058 55058 58002;
0156825830999992005082312004-05167-040667FM-12+029999999V0201401N005112200019N0500001N1+02741+01891101431ADDGF101991011011008001001001KA1240N+02281MA1999999098061MD1999999+0061REMSYN076AAXX  23124 82583 32599 11410 10274 20189 39806 40143 81100 333 20228 58006;
0178825830999992005082400004-05167-040667FM-12+029999999V0201401N001512200019N0040001N1+02861+02351101211ADDGA1001+999999999GF100991001001999999001001KA1240M+03401MA1999999097861MD1999999+0041REMSYN082AAXX  24004 82583 32996 01403 10286 20235 39786 40121 333 10340 29061 55102 58004;
0201825830999992005082412004-05167-040667FM-12+029999999V0201401N003610120019N0200001N1+02291+02251101521ADDAA124013091AY161061AY261061GF108991081081008001999999KA1240N+02151MA1999999098141MD1999999+0081MW1211REMSYN088AAXX  24124 82583 21598 81407 10229 20225 39814 40152 72166 888// 333 20215 58008 60134;
0168825830999992005082500004-05167-040667FM-12+029999999V0201401N002612200019N0040001N1+02641+02101101231ADDGF101991011011008001001001KA1240M+03251MA1999999097931MD1999999+0071REMSYN088AAXX  25004 82583 32596 11405 10264 20210 39793 40123 81100 333 10325 29070 55072 58007;
0156825830999992005082512004-05167-040667FM-12+029999999V0200901N005110075019N0500001N1+02721+02001101481ADDGF106991061011008001001001KA1240N+02121MA1999999098111MD1999999-0031REMSYN076AAXX  25124 82583 32599 60910 10272 20200 39811 40148 86100 333 20212 59003;
0168825830999992005082600004-05167-040667FM-12+029999999V0200901N001512200019N0040001N1+02761+02211101061ADDGF101991011011008001001001KA1240M+03381MA1999999097701MD1999999-0231REMSYN088AAXX  26004 82583 32596 10903 10276 20221 39770 40106 81100 333 10338 29060 55108 59023;
0156825830999992005082612004-05167-040667FM-12+029999999V0201401N005110075019N0500001N1+02741+02101101141ADDGF106991061021008001001001KA1240N+02271MA1999999097981MD1999999-0131REMSYN076AAXX  26124 82583 32599 61410 10274 20210 39798 40114 86200 333 20227 59013;
0178825830999992005082700004-05167-040667FM-12+029999999V0200901N002112200019N0040001N1+02891+02121101041ADDGA1001+999999999GF100991001001999999001001KA1240M+03641MA1999999097691MD1999999-0011REMSYN082AAXX  27004 82583 32996 00904 10289 20212 39769 40104 333 10364 29055 55094 59001;
0156825830999992005082712004-05167-040667FM-12+029999999V0201401N004112200019N0500001N1+02661+02111101401ADDGF103991031011008001001001KA1240N+02341MA1999999098041MD1999999+0061REMSYN076AAXX  27124 82583 32599 31408 10266 20211 39804 40140 83100 333 20234 58006;
0178825830999992005082800004-05167-040667FM-12+029999999V0200901N001512200019N0040001N1+02851+02261101161ADDGA1001+999999999GF100991001001999999001001KA1240M+03461MA1999999097801MD1999999+0111REMSYN082AAXX  28004 82583 32996 00903 10285 20226 39780 40116 333 10346 29060 55100 58011;
0156825830999992005082812004-05167-040667FM-12+029999999V0201401N004612200019N0500001N1+02751+01941101441ADDGF102991021011008001001001KA1240N+02131MA1999999098081MD1999999+0041REMSYN076AAXX  28124 82583 32599 21409 10275 20194 39808 40144 82100 333 20213 58004;
0178825830999992005082900004-05167-040667FM-12+029999999V0200901N001512200019N0040001N1+02821+02421101061ADDGA1001+999999999GF100991001001999999001001KA1240M+03411MA1999999097711MD1999999-0091REMSYN082AAXX  29004 82583 32996 00903 10282 20242 39771 40106 333 10341 29062 55107 59009;
0156825830999992005082912004-05167-040667FM-12+029999999V0200901N005712200019N0500001N1+02871+01891101311ADDGF102991021011008001001001KA1240N+02341MA1999999097951MD1999999-0131REMSYN076AAXX  29124 82583 32599 20911 10287 20189 39795 40131 82100 333 20234 59013;
0178825830999992005083000004-05167-040667FM-12+029999999V0200901N002112200019N0040001N1+02751+01971101081ADDGA1001+999999999GF100991001001999999001001KA1240M+03441MA1999999097731MD1999999+0021REMSYN082AAXX  30004 82583 32996 00904 10275 20197 39773 40108 333 10344 29052 55095 58002;
0156825830999992005083012004-05167-040667FM-12+029999999V0201401N004612200019N0500001N1+02781+01981101341ADDGF102991021011008001001001KA1240N+02241MA1999999097981MD1999999+0031REMSYN076AAXX  30124 82583 32599 21409 10278 20198 39798 40134 82100 333 20224 58003;
0178825830999992005083100004-05167-040667FM-12+029999999V0200901N003612200019N0040001N1+02851+01481101141ADDGA1001+999999999GF100991001001999999001001KA1240M+03491MA1999999097791MD1999999+0061REMSYN082AAXX  31004 82583 32996 00907 10285 20148 39779 40114 333 10349 29043 55097 58006;
0166825830999992005083112004-05167-040667FM-12+029999999V0200901N005112200019N0500001N1+02851+01651101351ADDGA1001+999999999GF100991001001999999001001KA1240N+02171MA1999999097991MD1999999+0011REMSYN070AAXX  31124 82583 32999 00910 10285 20165 39799 40135 333 20217 58001;
0178825830999992005090100004-05167-040667FM-12+029999999V0200901N002112200019N0040001N1+02801+01901100931ADDGA1001+999999999GF100991001001999999001001KA1240M+03541MA1999999097591MD1999999-0201REMSYN082AAXX  01004 82583 32996 00904 10280 20190 39759 40093 333 10354 29046 55103 59020;
0156825830999992005090112004-05167-040667FM-12+029999999V0201401N004612200019N0500001N1+02721+01901101361ADDGF102991021011008001001001KA1240N+02231MA1999999098001MD1999999+0011REMSYN076AAXX  01124 82583 32599 21409 10272 20190 39800 40136 82100 333 20223 58001;
0137825830999992005090118004-05167-040667FM-12+029999999V0200901N005112200019N0500001N1+03451+01821100781ADDGF101991011011008001001001MA1999999097451MD1999999-0021REMSYN070AAXX  01184 82583 32599 10910 10345 20182 39745 40078 81100 333 59002;
0178825830999992005090200004-05167-040667FM-12+029999999V0200901N003112200019N0040001N1+02891+01811101151ADDGA1001+999999999GF100991001001999999001001KA1240M+03491MA1999999097801MD1999999+0211REMSYN082AAXX  02004 82583 32996 00906 10289 20181 39780 40115 333 10349 29051 55102 58021;
0156825830999992005090212004-05167-040667FM-12+029999999V0200901N005112200019N0500001N1+02841+02041101311ADDGF102991021011008001001001KA1240N+02211MA1999999097951MD1999999-0051REMSYN076AAXX  02124 82583 32599 20910 10284 20204 39795 40131 82100 333 20221 59005;
0137825830999992005090218004-05167-040667FM-12+029999999V0200901N003612200019N0500001N1+03441+01841100831ADDGF101991011011008001001001MA1999999097491MD1999999+0041REMSYN070AAXX  02184 82583 32599 10907 10344 20184 39749 40083 81100 333 58004;
0178825830999992005090300004-05167-040667FM-12+029999999V0200901N002112200019N0040001N1+02891+01841101081ADDGA1001+999999999GF100991001001999999001001KA1240M+03521MA1999999097741MD1999999-0061REMSYN082AAXX  03004 82583 32996 00904 10289 20184 39774 40108 333 10352 29052 55102 59006;
0156825830999992005090312004-05167-040667FM-12+029999999V0200901N004110120019N0500001N1+02611+02011101461ADDGF107991071081008001001001KA1240N+02341MA1999999098101MD1999999+0151REMSYN076AAXX  03124 82583 32599 70908 10261 20201 39810 40146 87800 333 20234 58015;
0137825830999992005090318004-05167-040667FM-12+029999999V0200901N006712200019N0500001N1+03431+01671100841ADDGF102991021011008001001001MA1999999097521MD1999999+0031REMSYN070AAXX  03184 82583 32599 20913 10343 20167 39752 40084 82100 333 58003;
0178825830999992005090400004-05167-040667FM-12+029999999V0200901N002112200019N0040001N1+02901+02041101091ADDGA1001+999999999GF100991001001999999001001KA1240M+03491MA1999999097731MD1999999-0011REMSYN082AAXX  04004 82583 32996 00904 10290 20204 39773 40109 333 10349 29056 55078 59001;
0175825830999992005090412004-05167-040667FM-12+029999999V0200901N006719999999N0500001N1+02651+01971101471ADDGF106991999081008001999999KA1240N+02131MA1999999098111MD1999999+0011REMSYN076AAXX  04124 82583 32599 60913 10265 20197 39811 40147 888// 333 20213 58001;EQDQ01+000082SCOTLC
0156825830999992005090418004-05167-040667FM-12+029999999V0201401N004612200019N0500001N1+03471+02071100821ADDGF103991999011008001001001MA1999999097491MD1999999+0031REMSYN070AAXX  04184 82583 32599 31409 10347 20207 39749 40082 84100 333 58003;EQDQ01+000042SCOTLC
0178825830999992005090500004-05167-040667FM-12+029999999V0200901N003112200019N0040001N1+02871+01911101111ADDGA1001+999999999GF100991001001999999001001KA1240M+03531MA1999999097751MD1999999+0021REMSYN082AAXX  05004 82583 32996 00906 10287 20191 39775 40111 333 10353 29056 55082 58002;
0156825830999992005090512004-05167-040667FM-12+029999999V0200901N005712200019N0500001N1+02821+01861101411ADDGF101991011011008001001001KA1240N+02331MA1999999098051MD1999999-0061REMSYN076AAXX  05124 82583 32599 10911 10282 20186 39805 40141 81100 333 20233 59006;
0137825830999992005090518004-05167-040667FM-12+029999999V0201401N003612200019N0500001N1+03251+01791100831ADDGF102991021011008001001001MA1999999097501MD1999999+0011REMSYN070AAXX  05184 82583 32599 21407 10325 20179 39750 40083 82100 333 58001;
0168825830999992005090600004-05167-040667FM-12+029999999V0200901N003112200019N0040001N1+02911+01601101011ADDGF101991011011008001001001KA1240M+03661MA1999999097671MD1999999-0061REMSYN088AAXX  06004 82583 32596 10906 10291 20160 39767 40101 81100 333 10366 29046 55097 59006;
0156825830999992005090612004-05167-040667FM-12+029999999V0200901N004612200019N0500001N1+02851+02011101341ADDGF101991011011008001001001KA1240N+02291MA1999999097991MD1999999-0061REMSYN076AAXX  06124 82583 32599 10909 10285 20201 39799 40134 81100 333 20229 59006;
0137825830999992005090618004-05167-040667FM-12+029999999V0200901N003612200019N0500001N1+03501+01581100821ADDGF103991031011008001001001MA1999999097501MD1999999+0001REMSYN070AAXX  06184 82583 32599 30907 10350 20158 39750 40082 83100 333 58000;
0178825830999992005090700004-05167-040667FM-12+029999999V0200901N002612200019N0040001N1+02921+01711101071ADDGA1001+999999999GF100991001001999999001001KA1240M+03621MA1999999097731MD1999999+0061REMSYN082AAXX  07004 82583 32996 00905 10292 20171 39773 40107 333 10362 29047 55098 58006;
0156825830999992005090712004-05167-040667FM-12+029999999V0200901N006210075019N0500001N1+02641+01831101501ADDGF106991061021008001001001KA1240N+02421MA1999999098141MD1999999+0151REMSYN076AAXX  07124 82583 32599 60912 10264 20183 39814 40150 86200 333 20242 58015;
0137825830999992005090718004-05167-040667FM-12+029999999V0200901N004612200019N0500001N1+03361+01851101031ADDGF102991021011008001001001MA1999999097691MD1999999+0191REMSYN070AAXX  07184 82583 32599 20909 10336 20185 39769 40103 82100 333 58019;
0168825830999992005090800004-05167-040667FM-12+029999999V0200901N003612200019N0040001N1+02911+01671101171ADDGF101991011011008001001001KA1240M+03481MA1999999097821MD1999999+0091REMSYN088AAXX  08004 82583 32596 10907 10291 20167 39782 40117 81100 333 10348 29049 55098 58009;
0156825830999992005090812004-05167-040667FM-12+029999999V0200901N005710075019N0500001N1+02641+01901101511ADDGF106991061011008001001001KA1240N+02361MA1999999098151MD1999999+0011REMSYN076AAXX  08124 82583 32599 60911 10264 20190 39815 40151 86100 333 20236 58001;
0137825830999992005090818004-05167-040667FM-12+029999999V0200901N003112200019N0500001N1+03451+01941100971ADDGF101991011011008001001001MA1999999097631MD1999999-0061REMSYN070AAXX  08184 82583 32599 10906 10345 20194 39763 40097 81100 333 59006;
0168825830999992005090900004-05167-040667FM-12+029999999V0200901N002612200019N0040001N1+02941+01851101191ADDGF101991011011008001001001KA1240M+03591MA1999999097841MD1999999+0021REMSYN088AAXX  09004 82583 32596 10905 10294 20185 39784 40119 81100 333 10359 29052 55098 58002;
0156825830999992005090912004-05167-040667FM-12+029999999V0201401N004610075019N0500001N1+02751+01861101491ADDGF106991061021008001001001KA1240N+02281MA1999999098131MD1999999-0021REMSYN076AAXX  09124 82583 32599 61409 10275 20186 39813 40149 86200 333 20228 59002;
0137825830999992005090918004-05167-040667FM-12+029999999V0200901N002612200019N0500001N1+03401+01501101001ADDGF101991011011008001001001MA1999999097671MD1999999+0041REMSYN070AAXX  09184 82583 32599 10905 10340 20150 39767 40100 81100 333 58004;
0178825830999992005091000004-05167-040667FM-12+029999999V0201401N001512200019N0040001N1+02781+01911101171ADDGA1001+999999999GF100991001001999999001001KA1240M+03501MA1999999097811MD1999999-0031REMSYN082AAXX  10004 82583 32996 01403 10278 20191 39781 40117 333 10350 29052 55102 59003;
0156825830999992005091012004-05167-040667FM-12+029999999V0201401N006212200019N0500001N1+02591+01681101561ADDGF101991011011008001001001KA1240N+02201MA1999999098181MD1999999+0051REMSYN076AAXX  10124 82583 32599 11412 10259 20168 39818 40156 81100 333 20220 58005;
0137825830999992005091018004-05167-040667FM-12+029999999V0200901N003612200019N0500001N1+03391+01591101041ADDGF101991011011008001001001MA1999999097701MD1999999+0031REMSYN070AAXX  10184 82583 32599 10907 10339 20159 39770 40104 81100 333 58003;
0178825830999992005091100004-05167-040667FM-12+029999999V0201401N002112200019N0040001N1+02721+01851101261ADDGA1001+999999999GF100991001001999999001001KA1240M+03481MA1999999097881MD1999999+0071REMSYN082AAXX  11004 82583 32996 01404 10272 20185 39788 40126 333 10348 29052 55101 58007;
0156825830999992005091112004-05167-040667FM-12+029999999V0200901N006712200019N0500001N1+02771+01761101521ADDGF103991031011008001001001KA1240N+02151MA1999999098151MD1999999+0031REMSYN076AAXX  11124 82583 32599 30913 10277 20176 39815 40152 83100 333 20215 58003;
0137825830999992005091118004-05167-040667FM-12+029999999V0201401N006212200019N0500001N1+03391+01541100981ADDGF101991011011008001001001MA1999999097641MD1999999-0061REMSYN070AAXX  11184 82583 32599 11412 10339 20154 39764 40098 81100 333 59006;
0178825830999992005091200004-05167-040667FM-12+029999999V0200901N005112200019N0040001N1+02871+01601101241ADDGA1001+999999999GF100991001001999999001001KA1240M+03441MA1999999097891MD1999999+0011REMSYN082AAXX  12004 82583 32996 00910 10287 20160 39789 40124 333 10344 29045 55102 58001;
0156825830999992005091212004-05167-040667FM-12+029999999V0200901N005112200019N0500001N1+02771+01931101541ADDGF102991021011008001001001KA1240N+02281MA1999999098181MD1999999+0031REMSYN076AAXX  12124 82583 32599 20910 10277 20193 39818 40154 82100 333 20228 58003;
0137825830999992005091218004-05167-040667FM-12+029999999V0201401N002612200019N0500001N1+03371+01951101051ADDGF101991011011008001001001MA1999999097711MD1999999+0071REMSYN070AAXX  12184 82583 32599 11405 10337 20195 39771 40105 81100 333 58007;
0178825830999992005091300004-05167-040667FM-12+029999999V0200901N003612200019N0040001N1+02911+01421101251ADDGA1001+999999999GF100991001001999999001001KA1240M+03461MA1999999097911MD1999999+0021REMSYN082AAXX  13004 82583 32996 00907 10291 20142 39791 40125 333 10346 29046 55102 58002;
0156825830999992005091312004-05167-040667FM-12+029999999V0201401N006712200019N0500001N1+02841+01881101331ADDGF101991011011008001001001KA1240N+02271MA1999999097981MD1999999-0201REMSYN076AAXX  13124 82583 32599 11413 10284 20188 39798 40133 81100 333 20227 59020;
0156825830999992005091412004-05167-040667FM-12+029999999V0200901N006712200019N0500001N1+02831+01961101401ADDGF103991031011008001001001KA1240N+02371MA1999999098041MD1999999+0061REMSYN076AAXX  14124 82583 32599 30913 10283 20196 39804 40140 83100 333 20237 58006;
0137825830999992005091418004-05167-040667FM-12+029999999V0201401N003612200019N0500001N1+03371+01791100861ADDGF101991011011008001001001MA1999999097531MD1999999-0021REMSYN070AAXX  14184 82583 32599 11407 10337 20179 39753 40086 81100 333 59002;
0178825830999992005091500004-05167-040667FM-12+029999999V0201401N002612200019N0040001N1+02841+01881101161ADDGA1001+999999999GF100991001001999999001001KA1240M+03531MA1999999097821MD1999999+0031REMSYN082AAXX  15004 82583 32996 01405 10284 20188 39782 40116 333 10353 29052 55096 58003;
0166825830999992005091512004-05167-040667FM-12+029999999V0201401N006712200019N0500001N1+02841+01701101541ADDGA1001+999999999GF100991001001999999001001KA1240N+02261MA1999999098181MD1999999+0141REMSYN070AAXX  15124 82583 32999 01413 10284 20170 39818 40154 333 20226 58014;
0137825830999992005091518004-05167-040667FM-12+029999999V0201401N004612200019N0500001N1+03411+01701101001ADDGF101991011011008001001001MA1999999097661MD1999999+0131REMSYN070AAXX  15184 82583 32599 11409 10341 20170 39766 40100 81100 333 58013;
0178825830999992005091600004-05167-040667FM-12+029999999V0201401N002612200019N0040001N1+02941+01621101281ADDGA1001+999999999GF100991001001999999001001KA1240M+03511MA1999999097941MD1999999+0121REMSYN082AAXX  16004 82583 32996 01405 10294 20162 39794 40128 333 10351 29044 55097 58012;
0156825830999992005091612004-05167-040667FM-12+029999999V0200901N002110120019N0500001N1+02581+02101101561ADDGF107991061081008001041999KA1240N+02361MA1999999098191MD1999999+0011REMSYN076AAXX  16124 82583 32599 70904 10258 20210 39819 40156 8684/ 333 20236 58001;
0137825830999992005091618004-05167-040667FM-12+029999999V0201401N005112200019N0500001N1+03451+01821100901ADDGF101991011011008001001001MA1999999097581MD1999999-0081REMSYN070AAXX  16184 82583 32599 11410 10345 20182 39758 40090 81100 333 59008;
0178825830999992005091700004-05167-040667FM-12+029999999V0200901N003112200019N0040001N1+02881+01571101171ADDGA1001+999999999GF100991001001999999001001KA1240M+03541MA1999999097811MD1999999-0131REMSYN082AAXX  17004 82583 32996 00906 10288 20157 39781 40117 333 10354 29051 55078 59013;
0156825830999992005091712004-05167-040667FM-12+029999999V0200901N005110075019N0500001N1+02691+01941101421ADDGF106991061021008001001001KA1240N+02201MA1999999098061MD1999999-0131REMSYN076AAXX  17124 82583 32599 60910 10269 20194 39806 40142 86200 333 20220 59013;
0137825830999992005091718004-05167-040667FM-12+029999999V0200901N002112200019N0500001N1+03401+01721100741ADDGF101991011011008001001001MA1999999097411MD1999999-0171REMSYN070AAXX  17184 82583 32599 10904 10340 20172 39741 40074 81100 333 59017;
0178825830999992005091800004-05167-040667FM-12+029999999V0200901N004112200019N0040001N1+03021+01661101011ADDGA1001+999999999GF100991001001999999001001KA1240M+03511MA1999999097671MD1999999-0141REMSYN082AAXX  18004 82583 32996 00908 10302 20166 39767 40101 333 10351 29047 55090 59014;
0156825830999992005091812004-05167-040667FM-12+029999999V0200901N003612200019N0500001N1+02751+01941101341ADDGF104991041011008001001001KA1240N+02751MA1999999097991MD1999999-0071REMSYN076AAXX  18124 82583 32599 40907 10275 20194 39799 40134 84100 333 20275 59007;
0137825830999992005091818004-05167-040667FM-12+029999999V0200901N004612200019N0500001N1+03421+01871100831ADDGF103991031021008001001001MA1999999097521MD1999999+0111REMSYN070AAXX  18184 82583 32599 30909 10342 20187 39752 40083 83200 333 58011;
0168825830999992005091900004-05167-040667FM-12+029999999V0200501N001012200019N0040001N1+03031+02091101071ADDGF101991011011008001001001KA1240M+03561MA1999999097731MD1999999+0061REMSYN088AAXX  19004 82583 32596 10502 10303 20209 39773 40107 81100 333 10356 29054 55085 58006;
0156825830999992005091912004-05167-040667FM-12+029999999V0200901N003610120019N0500001N1+02671+02131101491ADDGF108991081081008001999999KA1240N+02431MA1999999098131MD1999999+0141REMSYN076AAXX  19124 82583 32599 80907 10267 20213 39813 40149 888// 333 20243 58014;
0137825830999992005091918004-05167-040667FM-12+029999999V0200901N003112200019N0500001N1+03501+02051100881ADDGF102991021011008001001001MA1999999097561MD1999999+0041REMSYN070AAXX  19184 82583 32599 20906 10350 20205 39756 40088 82100 333 58004;
0178825830999992005092000004-05167-040667FM-12+029999999V0200901N002112200019N0040001N1+02971+01951101111ADDGA1001+999999999GF100991001001999999001001KA1240M+03591MA1999999097761MD1999999+0031REMSYN082AAXX  20004 82583 32996 00904 10297 20195 39776 40111 333 10359 29056 55073 58003;
0156825830999992005092012004-05167-040667FM-12+029999999V0200901N005110120019N0500001N1+02681+01991101421ADDGF107991071081008001001001KA1240N+02401MA1999999098061MD1999999-0071REMSYN076AAXX  20124 82583 32599 70910 10268 20199 39806 40142 87800 333 20240 59007;
0137825830999992005092018004-05167-040667FM-12+029999999V0200901N004612200019N0500001N1+03541+01891100861ADDGF101991011011008001001001MA1999999097481MD1999999+0021REMSYN070AAXX  20184 82583 32599 10909 10354 20189 39748 40086 81100 333 58002;
0178825830999992005092100004-05167-040667FM-12+029999999V0200901N002612200019N0040001N1+02951+01901101051ADDGA1001+999999999GF100991001001999999001001KA1240M+03601MA1999999097701MD1999999-0061REMSYN082AAXX  21004 82583 32996 00905 10295 20190 39770 40105 333 10360 29052 55085 59006;
0156825830999992005092112004-05167-040667FM-12+029999999V0200501N004610075019N0500001N1+02691+02031101251ADDGF106991061011008001001001KA1240N+02161MA1999999097901MD1999999-0161REMSYN076AAXX  21124 82583 32599 60509 10269 20203 39790 40125 86100 333 20216 59016;
0137825830999992005092118004-05167-040667FM-12+029999999V0200901N003112200019N0500001N1+03571+01971100631ADDGF102991011011008001001011MA1999999098571MD1999999-0171REMSYN070AAXX  21184 82583 32599 20906 10357 20197 39857 40063 81101 333 59017;
0178825830999992005092200004-05167-040667FM-12+029999999V0203601N002112200019N0040001N1+02981+02121100841ADDGA1001+999999999GF100991001001999999001001KA1240M+03721MA1999999097501MD1999999-0201REMSYN082AAXX  22004 82583 32996 03604 10298 20212 39750 40084 333 10372 29056 55089 59020;
0156825830999992005092212004-05167-040667FM-12+029999999V0200901N002612200019N0500001N1+02671+02061101151ADDGF102991011011008001001011KA1240N+02241MA1999999097801MD1999999-0101REMSYN076AAXX  22124 82583 32599 20905 10267 20206 39780 40115 81101 333 20224 59010;
0137825830999992005092218004-05167-040667FM-12+029999999V0200501N002612200019N0500001N1+03551+02391100611ADDGF104991041011008001001001MA1999999097291MD1999999-0021REMSYN070AAXX  22184 82583 32599 40505 10355 20239 39729 40061 84100 333 59002;
0178825830999992005092300004-05167-040667FM-12+029999999V0201401N003112200019N0500001N1+03011+01991100961ADDGA1001+999999999GF100991001001999999001001KA1240M+03641MA1999999097621MD1999999+0121REMSYN082AAXX  23004 82583 32599 01406 10301 20199 30762 40096 333 10364 29057 55090 58012;
0156825830999992005092312004-05167-040667FM-12+029999999V0200501N003110075019N0500001N1+02551+02081101281ADDGF108991081051008001999999KA1240N+02291MA1999999097931MD1999999+0131REMSYN076AAXX  23124 82583 32599 80506 10255 20208 39793 40128 885// 333 20229 58013;
0137825830999992005092318004-05167-040667FM-12+029999999V0200901N003112200019N0500001N1+03271+01961100951ADDGF103991031011008001001001MA1999999097601MD1999999+0311REMSYN070AAXX  23184 82583 32599 30906 10327 20196 39760 40095 83100 333 58031;
0178825830999992005092400004-05167-040667FM-12+029999999V0200901N001512200019N0040001N1+02881+02301101211ADDGA1001+999999999GF100991001001999999001001KA1240M+03331MA1999999097851MD1999999+0231REMSYN082AAXX  24004 82583 32996 00903 10288 20230 39785 40121 333 10333 29066 55054 58023;
0156825830999992005092412004-05167-040667FM-12+029999999V0200901N005712200019N0500001N1+02811+01941101231ADDGF102991021011008001001001KA1240N+02261MA1999999097891MD1999999-0041REMSYN076AAXX  24124 82583 32599 20911 10281 20194 39789 40123 82100 333 20226 59004;
0137825830999992005092418004-05167-040667FM-12+029999999V0200901N004612200019N0500001N1+03441+01671100741ADDGF102991021011008001001001MA1999999097401MD1999999-0201REMSYN070AAXX  24184 82583 32599 20909 10344 20167 39740 40074 82100 333 59020;
0168825830999992005092500004-05167-040667FM-12+029999999V0200901N003612200019N0040001N1+02951+01611100971ADDGF102991021011999999001001KA1240M+03541MA1999999097641MD1999999-0121REMSYN088AAXX  25004 82583 32996 20907 10295 20161 39764 40097 82100 333 10354 29046 55097 59012;
0156825830999992005092512004-05167-040667FM-12+029999999V0200901N007212200019N0500001N1+02721+01741101391ADDGF102991021011008001001001KA1240N+02231MA1999999098031MD1999999+0141REMSYN076AAXX  25124 82583 32599 20914 10272 20174 39803 40139 82100 333 20223 58014;
0137825830999992005092518004-05167-040667FM-12+029999999V0200901N003612200019N0500001N1+03501+01261100801ADDGF101991011011008001001001MA1999999097471MD1999999+0071REMSYN070AAXX  25184 82583 32599 10907 10350 20126 39747 40080 81100 333 58007;
0178825830999992005092600004-05167-040667FM-12+029999999V0200901N002612200019N0040001N1+02841+01011101011ADDGA1001+999999999GF100991001001999999001001KA1240M+03591MA1999999097661MD1999999+0021REMSYN082AAXX  26004 82583 32996 00905 10284 20101 39766 40101 333 10359 29036 55102 58002;
0156825830999992005092612004-05167-040667FM-12+029999999V0200901N005712200019N0500001N1+02841+01671101391ADDGF101991011011008001001001KA1240N+02281MA1999999098031MD1999999+0001REMSYN076AAXX  26124 82583 32599 10911 10284 20167 39803 40139 81100 333 20228 58000;
0137825830999992005092618004-05167-040667FM-12+029999999V0200901N003612200019N0500001N1+03511+01701100841ADDGF101991011011008001001001MA1999999097521MD1999999+0051REMSYN070AAXX  26184 82583 32599 10907 10351 20170 39752 40084 81100 333 58005;
0168825830999992005092700004-05167-040667FM-12+029999999V0200901N003112200019N0040001N1+02971+01511101051ADDGF101991011011008001001001KA1240M+03621MA1999999097711MD1999999-0051REMSYN088AAXX  27004 82583 32596 10906 10297 20151 39771 40105 81100 333 10362 29041 55101 59005;
0156825830999992005092712004-05167-040667FM-12+029999999V0200501N002110120019N0500001N1+02651+02071101511ADDGF108991081081008001999999KA1240N+02391MA1999999098151MD1999999+0121REMSYN076AAXX  27124 82583 32599 80504 10265 20207 39815 40151 888// 333 20239 58012;
0137825830999992005092718004-05167-040667FM-12+029999999V0200901N003612200019N0500001N1+03431+01761100881ADDGF103991031011008001001001MA1999999097561MD1999999+0041REMSYN070AAXX  27184 82583 32599 30907 10343 20176 39756 40088 83100 333 58004;
0178825830999992005092800004-05167-040667FM-12+029999999V0200901N002112200019N0040001N1+02911+01981101171ADDGA1001+999999999GF100991001001999999001001KA1240M+03501MA1999999097821MD1999999+0111REMSYN082AAXX  28004 82583 32996 00904 10291 20198 39782 40117 333 10350 29055 55061 58011;
0156825830999992005092812004-05167-040667FM-12+029999999V0200901N006210075019N0500001N1+02771+01851101421ADDGF106991061061008001001001KA1240N+02351MA1999999098061MD1999999-0091REMSYN076AAXX  28124 82583 32599 60912 10277 20185 39806 40142 86600 333 20235 59009;
0137825830999992005092818004-05167-040667FM-12+029999999V0201401N005112200019N0500001N1+03451+01601100751ADDGF101991011011008001001001MA1999999097421MD1999999-0141REMSYN070AAXX  28184 82583 32599 11410 10345 20160 39742 40075 81100 333 59014;
0178825830999992005092900004-05167-040667FM-12+029999999V0200901N001512200019N0040001N1+02811+01861100981ADDGA1001+999999999GF100991001001999999001001KA1240M+03511MA1999999097641MD1999999-0181REMSYN082AAXX  29004 82583 32996 00903 10281 20186 39764 40098 333 10351 29050 55076 59018;
0156825830999992005092912004-05167-040667FM-12+029999999V0200901N005710075019N0500001N1+02761+01891101391ADDGF106991061021008001001001KA1240N+02261MA1999999098031MD1999999-0031REMSYN076AAXX  29124 82583 32599 60911 10276 20189 39803 40139 86200 333 20226 59003;
0137825830999992005092918004-05167-040667FM-12+029999999V0201401N005112200019N0500001N1+03441+01801100801ADDGF101991011011008001001001MA1999999097461MD1999999+0041REMSYN070AAXX  29184 82583 32599 11410 10344 20180 39746 40080 81100 333 58004;
0178825830999992005093000004-05167-040667FM-12+029999999V0200901N001512200019N0040001N1+02791+01661101081ADDGA1001+999999999GF100991001001999999001001KA1240M+03501MA1999999097731MD1999999+0091REMSYN082AAXX  30004 82583 32996 00903 10279 20166 39773 40108 333 10350 29049 55095 58009;
0156825830999992005093012004-05167-040667FM-12+029999999V0200901N004112200019N0500001N1+02851+01951101431ADDGF104991041011008001001001KA1240N+02171MA1999999098071MD1999999+0041REMSYN076AAXX  30124 82583 32599 40908 10285 20195 39807 40143 84100 333 20217 58004;
0137825830999992005093018004-05167-040667FM-12+029999999V0201401N003112200019N0500001N1+03531+01351100821ADDGF102991021011008001001001MA1999999097491MD1999999+0031REMSYN070AAXX  30184 82583 32599 21406 10353 20135 39749 40082 82100 333 58003;
0155825830999992005100100004-05167-040667FM-12+029999999V0200901N002112200019N0040001N1+02921+01601101051ADDGF101991011011008001001001MA1999999097711MD1999999-0021REMSYN088AAXX  01004 82583 32596 10904 10292 20160 39771 40105 81100 333 10361 29044 55101 59002;
0143825830999992005100112004-05167-040667FM-12+029999999V0200901N004610075019N0500001N1+02801+02001101341ADDGF106991061021008001001001MA1999999097981MD1999999-0091REMSYN076AAXX  01124 82583 32599 60909 10280 20200 39798 40134 86200 333 20221 59009;
0137825830999992005100118004-05167-040667FM-12+029999999V0200901N002112200019N0500001N1+03541+01971100751ADDGF102991021011008001001001MA1999999097431MD1999999-0061REMSYN070AAXX  01184 82583 32599 20904 10354 20197 39743 40075 82100 333 59006;
0149825830999992005100200004-05167-040667FM-12+029999999V0200901N001012200019N0040001N1+03011+01691100951ADDGF100991001001999999001001MA1999999097631MD1999999-0081REMSYN082AAXX  02004 82583 32996 00902 10301 20169 39763 40095 333 10364 29048 55102 59008;
0143825830999992005100212004-05167-040667FM-12+029999999V0200901N005712200019N0500001N1+02981+01981101231ADDGF102991021011008001001001MA1999999097901MD1999999+0081REMSYN076AAXX  02124 82583 32599 20911 10298 20198 39790 40123 82100 333 20242 58008;
0137825830999992005100218004-05167-040667FM-12+029999999V0201401N004612200019N0500001N1+03701+01711100531ADDGF102991021011008001001001MA1999999097231MD1999999-0201REMSYN070AAXX  02184 82583 32599 21409 10370 20171 39723 40053 82100 333 59020;
0149825830999992005100300004-05167-040667FM-12+029999999V0200901N003112200019N0040001N1+03201+01631100901ADDGF100991001001999999001001MA1999999097591MD1999999-0041REMSYN082AAXX  03004 82583 32996 00906 10320 20163 39759 40090 333 10370 29041 55103 59004;
0143825830999992005100312004-05167-040667FM-12+029999999V0200901N004612200019N0500001N1+02781+01851101211ADDGF102991021011008001001001MA1999999097881MD1999999-0021REMSYN076AAXX  03124 82583 32599 20909 10278 20185 39788 40121 82100 333 20249 59002;
0137825830999992005100318004-05167-040667FM-12+029999999V0200901N004112200019N0500001N1+03611+01691100581ADDGF101991011011008001001001MA1999999097281MD1999999+0041REMSYN070AAXX  03184 82583 32599 10908 10361 20169 39728 40058 81100 333 58004;
0149825830999992005100400004-05167-040667FM-12+029999999V0200901N003112200019N0040001N1+03101+01541100821ADDGF100991001001999999001001MA1999999097501MD1999999-0091REMSYN082AAXX  04004 82583 32996 00906 10310 20154 39750 40082 333 10356 29042 55098 59009;
0143825830999992005100412004-05167-040667FM-12+029999999V0200901N004612200019N0500001N1+02861+01901101191ADDGF102991011011008001001011MA1999999097861MD1999999-0021REMSYN076AAXX  04124 82583 32599 20909 10286 20190 39786 40119 81101 333 20250 59002;
0137825830999992005100418004-05167-040667FM-12+029999999V0200501N004612200019N0500001N1+03531+01711100741ADDGF102991021011008001001001MA1999999097421MD1999999+0151REMSYN070AAXX  04184 82583 32599 20509 10353 20171 39742 40074 82100 333 58015;
0149825830999992005100500004-05167-040667FM-12+029999999V0200901N001512200019N0040001N1+02951+01871100981ADDGF100991001001999999001001MA1999999097651MD1999999+0151REMSYN082AAXX  05004 82583 32996 00903 10295 20187 39765 40098 333 10357 29048 55092 58015;
0143825830999992005100512004-05167-040667FM-12+029999999V0200901N004110075019N0500001N1+02801+02031101221ADDGF106991061021008001001001MA1999999097881MD1999999+0021REMSYN076AAXX  05124 82583 32599 60908 10280 20203 39788 40122 86200 333 20247 58002;
0137825830999992005100518004-05167-040667FM-12+029999999V0201401N005712200019N0500001N1+03521+01601100671ADDGF104991041021008001001001MA1999999097351MD1999999-0071REMSYN070AAXX  05184 82583 32599 41411 10352 20160 39735 40067 84200 333 59007;
0149825830999992005100600004-05167-040667FM-12+029999999V0200901N001512200019N0040001N1+02961+02181100921ADDGF100991001001999999001001MA1999999097591MD1999999-0061REMSYN082AAXX  06004 82583 32996 00903 10296 20218 39759 40092 333 10363 29055 55060 59006;
0143825830999992005100612004-05167-040667FM-12+029999999V0200901N007212200019N0500001N1+03021+01731101301ADDGF102991021011008001001001MA1999999097961MD1999999+0061REMSYN076AAXX  06124 82583 32599 20914 10302 20173 39796 40130 82100 333 20243 58006;
0137825830999992005100618004-05167-040667FM-12+029999999V0200901N006212200019N0500001N1+03611+01181100881ADDGF103991031011008001001001MA1999999097521MD1999999-0171REMSYN070AAXX  06184 82583 32599 30912 10361 20118 39752 40088 83100 333 59017;
0149825830999992005100700004-05167-040667FM-12+029999999V0200901N003112200019N0040001N1+03041+01531101051ADDGF100991001001999999001001MA1999999097731MD1999999+0141REMSYN082AAXX  07004 82583 32996 00906 10304 20153 39773 40105 333 10371 29037 55097 58014;
0143825830999992005100712004-05167-040667FM-12+029999999V0200901N006712200019N0500001N1+02891+01871101401ADDGF103991021011008001001011MA1999999098061MD1999999-0101REMSYN076AAXX  07124 82583 32599 30913 10289 20187 39806 40140 82101 333 20237 59010;
0137825830999992005100718004-05167-040667FM-12+029999999V0200901N006712200019N0500001N1+03501+01381100951ADDGF101991011011008001001001MA1999999097621MD1999999+0101REMSYN070AAXX  07184 82583 32599 10913 10350 20138 39762 40095 81100 333 58010;
0149825830999992005100800004-05167-040667FM-12+029999999V0200901N001012200019N0040001N1+02891+02101101221ADDGF100991001001999999001001MA1999999097881MD1999999+0151REMSYN082AAXX  08004 82583 32996 00902 10289 20210 39788 40122 333 10355 29052 55105 58015;
0143825830999992005100812004-05167-040667FM-12+029999999V0200901N008210075019N0500001N1+02881+01911101431ADDGF105991051011008001001001MA1999999098081MD1999999+0021REMSYN076AAXX  08124 82583 32599 50916 10288 20191 39808 40143 85100 333 20230 58002;
0137825830999992005100818004-05167-040667FM-12+029999999V0200901N004610075019N0500001N1+03351+01561100921ADDGF105991051011008001001001MA1999999097581MD1999999-0041REMSYN070AAXX  08184 82583 32599 50909 10335 20156 39758 40092 85100 333 59004;
0149825830999992005100900004-05167-040667FM-12+029999999V0200901N000512200019N0040001N1+02841+02121101141ADDGF100991001001999999001001MA1999999097801MD1999999-0081REMSYN082AAXX  09004 82583 32996 00901 10284 20212 39780 40114 333 10348 29055 55105 59008;
0143825830999992005100912004-05167-040667FM-12+029999999V0201401N007212200019N0500001N1+02881+01861101361ADDGF103991031011008001001001MA1999999098001MD1999999-0081REMSYN076AAXX  09124 82583 32599 31414 10288 20186 39800 40136 83100 333 20228 59008;
0137825830999992005100918004-05167-040667FM-12+029999999V0201801N004110075019N0500001N1+03551+01731100731ADDGF106991061011008001001001MA1999999097411MD1999999-0161REMSYN070AAXX  09184 82583 32599 61808 10355 20173 39741 40073 86100 333 59016;
0155825830999992005101000004-05167-040667FM-12+029999999V0200901N002612200019N0040001N1+03051+01631100921ADDGF101991011011008001001001MA1999999097601MD1999999-0201REMSYN088AAXX  10004 82583 32596 10905 10305 20163 39760 40092 81100 333 10364 29042 55093 59020;
0143825830999992005101012004-05167-040667FM-12+029999999V0200901N005112200019N0500001N1+02901+01871101211ADDGF102991021011008001001001MA1999999097881MD1999999-0121REMSYN076AAXX  10124 82583 32599 20910 10290 20187 39788 40121 82100 333 20233 59012;
0137825830999992005101018004-05167-040667FM-12+029999999V0201401N001512200019N0500001N1+03591+01811100651ADDGF102991021011008001001001MA1999999097341MD1999999-0071REMSYN070AAXX  10184 82583 32599 21403 10359 20181 39734 40065 82100 333 59007;
0149825830999992005101100004-05167-040667FM-12+029999999V0200901N002612200019N0040001N1+03101+01701100891ADDGF100991001001999999001001MA1999999097511MD1999999-0091REMSYN082AAXX  11004 82583 32996 00905 10310 20170 39751 40089 333 10366 29044 55108 59009;
0143825830999992005101112004-05167-040667FM-12+029999999V0200901N005110120019N0500001N1+02751+01991101221ADDGF108991081081008001999999MA1999999097881MD1999999+0001REMSYN076AAXX  11124 82583 32599 80910 10275 20199 39788 40122 888// 333 20242 58000;
0137825830999992005101118004-05167-040667FM-12+029999999V0200501N002110075019N0500001N1+03311+02041100831ADDGF106991051021008001001011MA1999999097501MD1999999+0161REMSYN070AAXX  11184 82583 32599 60504 10331 20204 39750 40083 85201 333 58016;
0149825830999992005101200004-05167-040667FM-12+029999999V0200501N001512200019N0040001N1+02931+01881101001ADDGF100991001001999999001001MA1999999097661MD1999999+0151REMSYN082AAXX  12004 82583 32996 00503 10293 20188 39766 40100 333 10341 29054 55063 58015;
0143825830999992005101212004-05167-040667FM-12+029999999V0200901N004110075019N0500001N1+02831+01821101351ADDGF106991051021008001001011MA1999999098001MD1999999+0121REMSYN076AAXX  12124 82583 32599 60908 10283 20182 39800 40135 85201 333 20237 58012;
0137825830999992005101218004-05167-040667FM-12+029999999V0201401N003110075019N0500001N1+03451+01731100721ADDGF106991061021008001001001MA1999999097391MD1999999-0111REMSYN070AAXX  12184 82583 32599 61406 10345 20173 39739 40072 86200 333 59011;
0149825830999992005101300004-05167-040667FM-12+029999999V0200901N001012200019N0040001N1+02951+02051100941ADDGF100991001001999999001001MA1999999097611MD1999999-0051REMSYN082AAXX  13004 82583 32996 00902 10295 20205 39761 40094 333 10355 29052 55101 59005;
0143825830999992005101312004-05167-040667FM-12+029999999V0200901N006712200019N0500001N1+02871+01731101321ADDGF103991031011008001001001MA1999999097971MD1999999-0031REMSYN076AAXX  13124 82583 32599 30913 10287 20173 39797 40132 83100 333 20241 59003;
0137825830999992005101318004-05167-040667FM-12+029999999V0200901N004612200019N0500001N1+03561+01431100641ADDGF103991011011008001001011MA1999999097331MD1999999-0061REMSYN070AAXX  13184 82583 32599 30909 10356 20143 39733 40064 81101 333 59006;
0155825830999992005101400004-05167-040667FM-12+029999999V0200901N003112200019N0040001N1+03071+01361100871ADDGF102991011011008001001011MA1999999097551MD1999999-0061REMSYN088AAXX  14004 82583 32596 20906 10307 20136 39755 40087 81101 333 10362 29037 55104 59006;
0143825830999992005101412004-05167-040667FM-12+029999999V0201401N006212200019N0500001N1+02851+01811101311ADDGF102991021011008001001001MA1999999097971MD1999999+0001REMSYN076AAXX  14124 82583 32599 21412 10285 20181 39797 40131 82100 333 20240 58000;
0137825830999992005101418004-05167-040667FM-12+029999999V0200501N003612200019N0500001N1+03551+01371100801ADDGF101991011011008001001001MA1999999097481MD1999999+0151REMSYN070AAXX  14184 82583 32599 10507 10355 20137 39748 40080 81100 333 58015;
0149825830999992005101500004-05167-040667FM-12+029999999V0200901N001512200019N0040001N1+02901+01551101001ADDGF100991001001999999001001MA1999999097661MD1999999+0111REMSYN082AAXX  15004 82583 32596 00903 10290 20155 39766 40100 333 10363 29042 55101 58011;
0143825830999992005101512004-05167-040667FM-12+029999999V0200901N008212200019N0500001N1+02921+01571101221ADDGF101991011011008001001001MA1999999097881MD1999999-0091REMSYN076AAXX  15124 82583 32599 10916 10292 20157 39788 40122 81100 333 20233 59009;
0137825830999992005101518004-05167-040667FM-12+029999999V0200501N004112200019N0500001N1+03551+01431100681ADDGF101991011011008001001001MA1999999097361MD1999999-0121REMSYN070AAXX  15184 82583 32599 10508 10355 20143 39736 40068 81100 333 59012;
0149825830999992005101600004-05167-040667FM-12+029999999V0200901N002112200019N0040001N1+02971+01761100871ADDGF100991001001999999001001MA1999999097551MD1999999-0111REMSYN082AAXX  16004 82583 32996 00904 10297 20176 39755 40087 333 10362 29042 55110 59011;
0143825830999992005101612004-05167-040667FM-12+029999999V0200501N007212200019N0500001N1+02971+01691101171ADDGF102991021011008001001001MA1999999097831MD1999999-0051REMSYN076AAXX  16124 82583 32599 20514 10297 20169 39783 40117 82100 333 20232 59005;
0137825830999992005101618004-05167-040667FM-12+029999999V0200901N006212200019N0500001N1+03561+01311100641ADDGF101991011011008001001001MA1999999097341MD1999999-0021REMSYN070AAXX  16184 82583 32599 10912 10356 20131 39734 40064 81100 333 59002;
0149825830999992005101700004-05167-040667FM-12+029999999V0200901N003112200019N0040001N1+03041+01411100861ADDGF100991001001999999001001MA1999999097541MD1999999-0011REMSYN082AAXX  17004 82583 32996 00906 10304 20141 39754 40086 333 10364 29036 55110 59001;
0143825830999992005101712004-05167-040667FM-12+029999999V0201401N005712200019N0500001N1+02911+01831101181ADDGF102991021011008001001001MA1999999097851MD1999999+0021REMSYN076AAXX  17124 82583 32599 21411 10291 20183 39785 40118 82100 333 20229 58002;
0137825830999992005101718004-05167-040667FM-12+029999999V0200901N005112200019N0500001N1+03571+01501100611ADDGF102991021011008001001001MA1999999097311MD1999999-0031REMSYN070AAXX  17184 82583 32599 20910 10357 20150 39731 40061 82100 333 59003;
0149825830999992005101800004-05170-040670FM-12+029999999V0200901N002112200019N0040001N1+02991+02031100901ADDGF100991001001999999001001MA1999999097581MD1999999+0041REMSYN082AAXX  18004 82583 32996 00904 10299 20203 39758 40090 333 10363 29048 55109 58004;
0156825830999992005101812004-05167-040667FM-12+029999999V0200901N006212200019N0500001N1+02971+01761101241ADDGF102991011011008001001011KA1240N+02381MA1999999097901MD1999999+0051REMSYN076AAXX  18124 82583 32599 20912 10297 20176 39790 40124 81101 333 20238 58005;
0137825830999992005101818004-05167-040667FM-12+029999999V0200901N003112200019N0500001N1+03641+01601100711ADDGF102991021011008001001001MA1999999097401MD1999999+0091REMSYN070AAXX  18184 82583 32599 20906 10364 20160 39740 40071 82100 333 58009;
0178825830999992005101900004-05167-040667FM-12+029999999V0200901N002612200019N0040001N1+03041+01641100951ADDGA1001+999999999GF100991001001999999001001KA1240M+03711MA1999999097631MD1999999+0051REMSYN082AAXX  19004 82583 32996 00905 10304 20164 39763 40095 333 10371 29041 55100 58005;
0156825830999992005101912004-05167-040667FM-12+029999999V0200901N004612200019N0500001N1+02921+01921101331ADDGF103991031011008001001001KA1240N+02361MA1999999097991MD1999999+0091REMSYN076AAXX  19124 82583 32599 30909 10292 20192 39799 40133 83100 333 20236 58009;
0137825830999992005101918004-05167-040667FM-12+029999999V0200901N003612200019N0500001N1+03611+01741100751ADDGF103991021011008001001011MA1999999097431MD1999999+0031REMSYN070AAXX  19184 82583 32599 30907 10361 20174 39743 40075 82101 333 58003;
0178825830999992005102000004-05167-040667FM-12+029999999V0200901N003112200019N0040001N1+03111+01711100911ADDGA1001+999999999GF100991001001999999001001KA1240M+03701MA1999999097591MD1999999-0041REMSYN082AAXX  20004 82583 32996 00906 10311 20171 39759 40091 333 10370 29044 55107 59004;
0156825830999992005102012004-05167-040667FM-12+029999999V0200901N004612200019N0500001N1+02901+01811101191ADDGF101991011011008001001001KA1240N+02361MA1999999097861MD1999999-0131REMSYN076AAXX  20124 82583 32599 10909 10290 20181 39786 40119 81100 333 20236 59013;
0137825830999992005102018004-05167-040667FM-12+029999999V0201401N005112200019N0500001N1+03611+01411100591ADDGF101991011011008001001001MA1999999097291MD1999999-0141REMSYN070AAXX  20184 82583 32599 11410 10361 20141 39729 40059 81100 333 59014;
0178825830999992005102100004-05167-040667FM-12+029999999V0201401N002112200019N0040001N1+03001+01531100851ADDGA1001+999999999GF100991001001999999001001KA1240M+03691MA1999999097531MD1999999-0061REMSYN082AAXX  21004 82583 32996 01404 10300 20153 39753 40085 333 10369 29040 55110 59006;
0156825830999992005102112004-05167-040667FM-12+029999999V0200901N007212200019N0500001N1+02971+01691101151ADDGF102991011011008001001011KA1240N+02391MA1999999097821MD1999999-0041REMSYN076AAXX  21124 82583 32599 20914 10297 20169 39782 40115 81101 333 20239 59004;
0137825830999992005102118004-05167-040667FM-12+029999999V0200901N006212200019N0500001N1+03471+01571100671ADDGF101991011011008001001001MA1999999097351MD1999999+0061REMSYN070AAXX  21184 82583 32599 10912 10347 20157 39735 40067 81100 333 58006;
0178825830999992005102200004-05167-040667FM-12+029999999V0200901N001512200019N0040001N1+02931+02031100901ADDGA1001+999999999GF100991001001999999001001KA1240M+03561MA1999999097581MD1999999+0051REMSYN082AAXX  22004 82583 32996 00903 10293 20203 39758 40090 333 10356 29048 55106 58005;
0156825830999992005102212004-05167-040667FM-12+029999999V0200901N006712200019N0500001N1+02931+01721101221ADDGF102991011011008001001011KA1240N+02401MA1999999097881MD1999999+0061REMSYN076AAXX  22124 82583 32599 20913 10293 20172 39788 40122 81101 333 20240 58006;
0137825830999992005102218004-05167-040667FM-12+029999999V0200901N003112200019N0500001N1+03561+01371100661ADDGF102991011011008001001011MA1999999097341MD1999999-0011REMSYN070AAXX  22184 82583 32599 20906 10356 20137 39734 40066 81101 333 59001;
0178825830999992005102300004-05167-040667FM-12+029999999V0200901N001512200019N0040001N1+02901+01781100871ADDGA1001+999999999GF100991001001999999001001KA1240M+03621MA1999999097541MD1999999-0041REMSYN082AAXX  23004 82583 32996 00903 10290 20178 39754 40087 333 10362 29045 55105 59004;
0156825830999992005102312004-05167-040667FM-12+029999999V0200901N005112200019N0500001N1+03001+01781101221ADDGF101991001001999999001011KA1240N+02371MA1999999097881MD1999999+0001REMSYN076AAXX  23124 82583 32999 10910 10300 20178 39788 40122 80001 333 20237 58000;
0137825830999992005102318004-05167-040667FM-12+029999999V0201401N004112200019N0500001N1+03621+01741100591ADDGF102991021011008001001001MA1999999097291MD1999999-0051REMSYN070AAXX  23184 82583 32599 21408 10362 20174 39729 40059 82100 333 59005;
0178825830999992005102400004-05167-040667FM-12+029999999V0200901N003112200019N0040001N1+03111+01521100841ADDGA1001+999999999GF100991001001999999001001KA1240M+03741MA1999999097521MD1999999-0021REMSYN082AAXX  24004 82583 32996 00906 10311 20152 39752 40084 333 10374 29039 55109 59002;
0156825830999992005102412004-05167-040667FM-12+029999999V0200901N004612200019N0500001N1+02911+01951101181ADDGF101991001001999999001011KA1240N+02351MA1999999097851MD1999999-0031REMSYN076AAXX  24124 82583 32999 10909 10291 20195 39785 40118 80001 333 20235 59003;
0137825830999992005102418004-05167-040667FM-12+029999999V0200901N003610075019N0500001N1+03621+01531100611ADDGF106991061011008001001001MA1999999097301MD1999999+0011REMSYN070AAXX  24184 82583 32599 60907 10362 20153 39730 40061 86100 333 58001;
0178825830999992005102500004-05167-040667FM-12+029999999V0200901N002112200019N0040001N1+03141+01661100771ADDGA1001+999999999GF100991001001999999001001KA1240M+03691MA1999999097451MD1999999-0071REMSYN082AAXX  25004 82583 32996 00904 10314 20166 39745 40077 333 10369 29042 55103 59007;
0156825830999992005102512004-05167-040667FM-12+029999999V0201401N005112200019N0500001N1+02891+01991101131ADDGF101991011011008001001001KA1240N+02401MA1999999097801MD1999999-0051REMSYN076AAXX  25124 82583 32599 11410 10289 20199 39780 40113 81100 333 20240 59005;
0137825830999992005102518004-05167-040667FM-12+029999999V0201401N003112200019N0500001N1+03611+01741100581ADDGF104991041011008001001001MA1999999097281MD1999999-0021REMSYN070AAXX  25184 82583 32599 41406 10361 20174 39728 40058 84100 333 59002;
0178825830999992005102600004-05167-040667FM-12+029999999V0200901N002612200019N0040001N1+03171+01871100751ADDGA1001+999999999GF100991001001999999001001KA1240M+03711MA1999999097441MD1999999-0011REMSYN082AAXX  26004 82583 32996 00905 10317 20187 39744 40075 333 10371 29046 55105 59001;
0156825830999992005102612004-05167-040667FM-12+029999999V0200901N002612200019N0500001N1+02891+01931101141ADDGF101991011011008001001001KA1240N+02361MA1999999097821MD1999999+0021REMSYN076AAXX  26124 82583 32599 10905 10289 20193 39782 40114 81100 333 20236 58002;
0137825830999992005102618004-05167-040667FM-12+029999999V0201401N003112200019N0500001N1+03661+01621100581ADDGF103991031011008001001001MA1999999097281MD1999999+0001REMSYN070AAXX  26184 82583 32599 31406 10366 20162 39728 40058 83100 333 58000;
0168825830999992005102700004-05167-040667FM-12+029999999V0200901N002612200019N0040001N1+03071+01681100821ADDGF101991011011008001001001KA1240M+03751MA1999999097501MD1999999+0061REMSYN088AAXX  27004 82583 32596 10905 10307 20168 39750 40082 81100 333 10375 29043 55110 58006;
0156825830999992005102712004-05167-040667FM-12+029999999V0200901N004612200019N0500001N1+02911+01831101251ADDGF102991021011008001001001KA1240N+02471MA1999999097921MD1999999+0101REMSYN076AAXX  27124 82583 32599 20909 10291 20183 39792 40125 82100 333 20247 58010;
0137825830999992005102718004-05167-040667FM-12+029999999V0200901N003612200019N0500001N1+03581+01601100741ADDGF103991031011008001001001MA1999999097361MD1999999-0081REMSYN070AAXX  27184 82583 32599 30907 10358 20160 39736 40074 83100 333 59008;
0156825830999992005102812004-05167-040667FM-12+029999999V0200901N004610075019N0500001N1+02741+01891101251ADDGF106991061021008001001001KA1240N+02291MA1999999097911MD1999999-0011REMSYN076AAXX  28124 82583 32599 60909 10274 20189 39791 40125 86200 333 20229 59001;
0137825830999992005102818004-05167-040667FM-12+029999999V0201401N002612200019N0500001N1+03551+01911100631ADDGF103991031021008001001001MA1999999097321MD1999999-0041REMSYN070AAXX  28184 82583 32599 31405 10355 20191 39732 40063 83200 333 59004;
0168825830999992005102900004-05167-040667FM-12+029999999V0200501N003612200019N0040001N1+03121+01891100881ADDGF101991011011008001001001KA1240M+03631MA1999999097561MD1999999-0091REMSYN088AAXX  29004 82583 32596 10507 10312 20189 39756 40088 81100 333 10363 29049 55099 59009;
0156825830999992005102912004-05167-040667FM-12+029999999V0200501N003110075019N0500001N1+02681+01991101421ADDGF107991071051008001001001KA1240N+02221MA1999999098071MD1999999+0161REMSYN076AAXX  29124 82583 32599 70506 10268 20199 39807 40142 87500 333 20222 58016;
0137825830999992005102918004-05167-040667FM-12+029999999V0200901N004112200019N0500001N1+03621+01591100681ADDGF102991021011008001001001MA1999999097361MD1999999+0041REMSYN070AAXX  29184 82583 32599 20908 10362 20159 39736 40068 82100 333 58004;
0197825830999992005103000004-05167-040667FM-12+029999999V0200501N001512200019N0500001N1+03031+01861101722ADDGA1001+999999999GF100991001001999999001001KA1240M+03661MA1999999097581MD1999999+0021REMSYN082AAXX  30004 82583 32599 00503 10303 20186 39758 40172 333 10366 29049 55090 58002;EQDQ01+101723APOSLP
0156825830999992005103012004-05167-040667FM-12+029999999V0200901N003612200019N0500001N1+02801+01951101221ADDGF101991011011008001001001KA1240N+02271MA1999999097881MD1999999-0191REMSYN076AAXX  30124 82583 32599 10907 10280 20195 39788 40122 81100 333 20227 59019;
0137825830999992005103018004-05167-040667FM-12+029999999V0200901N003612200019N0500001N1+03711+01821100681ADDGF101991011011008001001001MA1999999097361MD1999999+0001REMSYN070AAXX  30184 82583 32599 10907 10371 20182 39736 40068 81100 333 58000;
0178825830999992005103100004-05167-040667FM-12+029999999V0203601N002612200019N0040001N1+03191+01891101001ADDGA1001+999999999GF100991001001999999001001KA1240M+03781MA1999999097681MD1999999+0101REMSYN082AAXX  31004 82583 32996 03605 10319 20189 39768 40100 333 10378 29046 55099 58010;
0156825830999992005103112004-05167-040667FM-12+029999999V0200901N004612200019N0500001N1+02921+01921101241ADDGF102991021011008001001001KA1240N+02361MA1999999097931MD1999999+0051REMSYN076AAXX  31124 82583 32599 20909 10292 20192 39793 40124 82100 333 20236 58005;
0137825830999992005103118004-05167-040667FM-12+029999999V0200501N003612200019N0500001N1+03671+01841100811ADDGF103991031021008001001001MA1999999097491MD1999999+0131REMSYN070AAXX  31184 82583 32599 30507 10367 20184 39749 40081 83200 333 58013;
0168825830999992005110100004-05167-040667FM-12+029999999V0200501N004612200019N0040001N1+03141+01941101031ADDGF101991011011008001001001KA1240M+03721MA1999999097711MD1999999+0031REMSYN088AAXX  01004 82583 32596 10509 10314 20194 39771 40103 81100 333 10372 29047 55101 58003;
0156825830999992005110112004-05167-040667FM-12+029999999V0200901N005112200019N0500001N1+02921+01861101331ADDGF102991021011008001001001KA1240N+02461MA1999999098001MD1999999+0071REMSYN076AAXX  01124 82583 32599 20910 10292 20186 39800 40133 82100 333 20246 58007;
0137825830999992005110118004-05167-040667FM-12+029999999V0200901N003612200019N0500001N1+03581+01751100801ADDGF103991031011008001001001MA1999999097481MD1999999-0011REMSYN070AAXX  01184 82583 32599 30907 10358 20175 39748 40080 83100 333 59001;
0178825830999992005110200004-05167-040667FM-12+029999999V0200901N001512200019N0040001N1+03061+02051101101ADDGA1001+999999999GF100991001001999999001001KA1240M+03661MA1999999097771MD1999999+0061REMSYN082AAXX  02004 82583 32596 00903 10306 20205 39777 40110 333 10366 29049 55105 58006;
0110825830999992005110212004-05167-040667FM-12+029999999V0200901N005719999999N0500001N1+02841+01911999999ADDGF106991999999008001999999REMSYN072AAXX  02124 82583 32599 60911 10284 20191 20234 39804 40135 58004 86200;
0178825830999992005110300004-05167-040667FM-12+029999999V0200901N002612200019N0040001N1+03051+01581101171ADDGA1001+999999999GF100991001001999999001001KA1240M+03611MA1999999097831MD1999999+0061REMSYN082AAXX  03004 82583 32996 00905 10305 20158 39783 40117 333 10361 29044 55095 58006;
0175825830999992005110312004-05167-040667FM-12+029999999V0200901N004612200019N0500001N1+02861+01921101331ADDGF102991999021008001001001KA1240N+02271MA1999999097991MD1999999-0051REMSYN076AAXX  03124 82583 32599 20909 10286 20192 39799 40133 81200 333 20227 59005;EQDQ01+000012SCOTLC
0137825830999992005110318004-05167-040667FM-12+029999999V0201401N002612200019N0500001N1+03571+01791100871ADDGF104991031011008001001011MA1999999097551MD1999999+0031REMSYN070AAXX  03184 82583 32599 41405 10357 20179 39755 40087 83101 333 58003;
0168825830999992005110400004-05167-040667FM-12+029999999V0200901N001512200019N0040001N1+03081+01891100941ADDGF101991011011008001001001KA1240M+03671MA1999999097621MD1999999-0211REMSYN088AAXX  04004 82583 32596 10903 10308 20189 39762 40094 81100 333 10367 29048 55096 59021;
0156825830999992005110412004-05167-040667FM-12+029999999V0200901N004612200019N0500001N1+02901+01801101211ADDGF102991011011008001001011KA1240N+02521MA1999999097881MD1999999-0111REMSYN076AAXX  04124 82583 32599 20909 10290 20180 39788 40121 81101 333 20252 59011;
0137825830999992005110418004-05167-040667FM-12+029999999V0201401N004112200019N0500001N1+03561+01821100661ADDGF102991011011008001051001MA1999999097351MD1999999-0201REMSYN070AAXX  04184 82583 32599 21408 10356 20182 39735 40066 81150 333 59020;
0178825830999992005110500004-05167-040667FM-12+029999999V0200901N002112200019N0040001N1+03001+01531100861ADDGA1001+999999999GF100991001001999999001001KA1240M+03631MA1999999097541MD1999999-0081REMSYN082AAXX  05004 82583 32996 00904 10300 20153 39754 40086 333 10363 29042 55109 59008;
0156825830999992005110512004-05167-040667FM-12+029999999V0200901N006212200019N0500001N1+02811+01741101251ADDGF103991031011008001001001KA1240N+02281MA1999999097911MD1999999+0031REMSYN076AAXX  05124 82583 32599 30912 10281 20174 39791 40125 83100 333 20228 58003;
0137825830999992005110518004-05167-040667FM-12+029999999V0200901N006212200019N0500001N1+03501+01431100661ADDGF101991011011008001001001MA1999999097341MD1999999-0011REMSYN070AAXX  05184 82583 32599 10912 10350 20143 39734 40066 81100 333 59001;
0178825830999992005110600004-05167-040667FM-12+029999999V0200901N003112200019N0040001N1+02941+01641100921ADDGA1001+999999999GF100991001001999999001001KA1240M+03541MA1999999097581MD1999999-0041REMSYN082AAXX  06004 82583 32996 00906 10294 20164 39758 40092 333 10354 29039 55108 59004;
0156825830999992005110612004-05167-040667FM-12+029999999V0200901N006212200019N0500001N1+02881+01801101201ADDGF102991021011008001001001KA1240N+02201MA1999999097861MD1999999-0051REMSYN076AAXX  06124 82583 32599 20912 10288 20180 39786 40120 82100 333 20220 59005;
0137825830999992005110618004-05167-040667FM-12+029999999V0201401N003612200019N0500001N1+03521+01601100641ADDGF102991021011008001001001MA1999999097321MD1999999-0021REMSYN070AAXX  06184 82583 32599 21407 10352 20160 39732 40064 82100 333 59002;
0178825830999992005110700004-05167-040667FM-12+029999999V0201401N002112200019N0040001N1+02961+01681100881ADDGA1001+999999999GF100991001001999999001001KA1240M+03611MA1999999097551MD1999999-0031REMSYN082AAXX  07004 82583 32996 01404 10296 20168 39755 40088 333 10361 29044 55108 59003;
0137825830999992005110718004-05167-040667FM-12+029999999V0201401N003112200019N0500001N1+03501+01681100691ADDGF102991021011008001001001MA1999999097371MD1999999+0051REMSYN070AAXX  07184 82583 32599 21406 10350 20168 39737 40069 82100 333 58005;
0156825830999992005110812004-05167-040667FM-12+029999999V0200901N004612200019N0500001N1+02921+01861101201ADDGF102991021011008001001001KA1240N+02391MA1999999097861MD1999999+0081REMSYN076AAXX  08124 82583 32599 20909 10292 20186 39786 40120 82100 333 20239 58008;
0137825830999992005110818004-05167-040667FM-12+029999999V0201801N003112200019N0500001N1+03541+01671100621ADDGF102991021011008001001001MA1999999097311MD1999999-0061REMSYN070AAXX  08184 82583 32599 21806 10354 20167 39731 40062 82100 333 59006;
0178825830999992005110900004-05167-040667FM-12+029999999V0200901N003612200019N0040001N1+03081+01361100751ADDGA1001+999999999GF100991001001999999001001KA1240M+03671MA1999999097431MD1999999-0041REMSYN082AAXX  09004 82583 32996 00907 10308 20136 39743 40075 333 10367 29039 55106 59004;
0156825830999992005110912004-05167-040667FM-12+029999999V0200901N006210075019N0500001N1+02951+01931101181ADDGF106991061021008001001001KA1240N+02381MA1999999097851MD1999999-0011REMSYN076AAXX  09124 82583 32599 60912 10295 20193 39785 40118 86200 333 20238 59001;
0137825830999992005110918004-05167-040667FM-12+029999999V0200501N003612200019N0500001N1+03601+01671100701ADDGF102991021011008001001001MA1999999097391MD1999999+0081REMSYN070AAXX  09184 82583 32599 20507 10360 20167 39739 40070 82100 333 58008;
0168825830999992005111000004-05167-040667FM-12+029999999V0200901N003612200019N0040001N1+03111+01641100751ADDGF101991011011008001001001KA1240M+03661MA1999999097441MD1999999+0011REMSYN088AAXX  10004 82583 32596 10907 10311 20164 39744 40075 81100 333 10366 29042 55108 58001;
0156825830999992005111012004-05167-040667FM-12+029999999V0200901N004112200019N0500001N1+02961+01871101081ADDGF104991031011008001001011KA1240N+02471MA1999999097761MD1999999-0091REMSYN076AAXX  10124 82583 32599 40908 10296 20187 39776 40108 83101 333 20247 59009;
0137825830999992005111018004-05167-040667FM-12+029999999V0200501N002612200019N0500001N1+03431+01881100601ADDGF102991021011008001001001MA1999999097291MD1999999-0081REMSYN070AAXX  10184 82583 32599 20505 10343 20188 39729 40060 82100 333 59008;
0168825830999992005111100004-05167-040667FM-12+029999999V0200901N002612200019N0040001N1+03071+01781100721ADDGF101991011011008001001001KA1240M+03561MA1999999097401MD1999999-0041REMSYN088AAXX  11004 82583 32596 10905 10307 20178 39740 40072 81100 333 10356 29046 55097 59004;
0156825830999992005111112004-05167-040667FM-12+029999999V0200901N005712200019N0500001N1+02911+01601100991ADDGF102991011011012501001011KA1240N+02351MA1999999097671MD1999999-0091REMSYN076AAXX  11124 82583 32699 20911 10291 20160 39767 40099 81101 333 20235 59009;
0137825830999992005111118004-05167-040667FM-12+029999999V0200901N002612200019N0500001N1+03581+01701100511ADDGF103991011011012501001011MA1999999097211MD1999999-0081REMSYN070AAXX  11184 82583 32699 30905 10358 20170 39721 40051 81101 333 59008;
0168825830999992005111200004-05167-040667FM-12+029999999V0200901N002112200019N0040001N1+03021+01691100741ADDGF101991011011008001001001KA1240M+03641MA1999999097121MD1999999+0021REMSYN088AAXX  12004 82583 32596 10904 10302 20169 39712 40074 81100 333 10364 29042 55110 58002;
0156825830999992005111212004-05167-040667FM-12+029999999V0200501N004110075019N0500001N1+02761+01911101101ADDGF106991061011008001001001KA1240N+02351MA1999999097761MD1999999+0091REMSYN076AAXX  12124 82583 32599 60508 10276 20191 39776 40110 86100 333 20235 58009;
0156825830999992005111218004-05167-040667FM-12+029999999V0200901N003612200019N0500001N1+03481+01781100491ADDGF102991999021008001001001MA1999999097151MD1999999-0031REMSYN070AAXX  12184 82583 32599 20907 10348 20178 39715 40049 83200 333 59003;EQDQ01+000032SCOTLC
0178825830999992005111300004-05167-040667FM-12+029999999V0200501N002112200019N0500001N1+03061+01741100681ADDGA1001+999999999GF100991001001999999001001KA1240M+03671MA1999999097351MD1999999-0071REMSYN082AAXX  13004 82583 32599 00504 10306 20174 39735 40068 333 10367 29047 55084 59007;
0156825830999992005111312004-05167-040667FM-12+029999999V0200901N005110075019N0500001N1+02671+01971101041ADDGF107991071051008001001001KA1240N+02291MA1999999097701MD1999999-0061REMSYN076AAXX  13124 82583 32599 70910 10267 20197 39770 40104 87500 333 20229 59006;
0137825830999992005111318004-05167-040667FM-12+029999999V0200501N003110075019N0500001N1+03421+01701100531ADDGF106991061051008001001001MA1999999097211MD1999999+0031REMSYN070AAXX  13184 82583 32599 60506 10342 20170 39721 40053 86500 333 58003;
0168825830999992005111400004-05167-040667FM-12+029999999V0200901N002112200019N0040001N1+03071+01711100731ADDGF101991011011008001001001KA1240M+03611MA1999999097391MD1999999+0041REMSYN088AAXX  14004 82583 32596 10904 10307 20171 39739 40073 81100 333 10361 29047 55069 58004;
0156825830999992005111412004-05167-040667FM-12+029999999V0200901N003610120019N0500001N1+02711+02001101031ADDGF108991081081008001999999KA1240N+02461MA1999999097691MD1999999-0011REMSYN076AAXX  14124 82583 32599 80907 10271 20200 39769 40103 888// 333 20246 59001;
0137825830999992005111418004-05167-040667FM-12+029999999V0200901N003610120019N0500001N1+03371+01791100501ADDGF106991061081008001001011MA1999999097191MD1999999-0021REMSYN070AAXX  14184 82583 32599 60907 10337 20179 39719 40050 86801 333 59002;
0168825830999992005111500004-05167-040667FM-12+029999999V0200901N002112200019N0040001N1+02901+01871100821ADDGF102991011011008001001011KA1240M+03561MA1999999097481MD1999999+0091REMSYN088AAXX  15004 82583 32596 20904 10290 20187 39748 40082 81101 333 10356 29053 55045 58009;
0156825830999992005111512004-05167-040667FM-12+029999999V0200901N005712200019N0500001N1+02891+01841101011ADDGF102991011011008001001011KA1240N+02331MA1999999097671MD1999999-0021REMSYN076AAXX  15124 82583 32599 20911 10289 20184 39767 40101 81101 333 20233 59002;
0137825830999992005111518004-05167-040667FM-12+029999999V0200501N004612200019N0500001N1+03451+01781100551ADDGF102991021011008001001001MA1999999097231MD1999999+0041REMSYN070AAXX  15184 82583 32599 20509 10345 20178 39723 40055 82100 333 58004;
0168825830999992005111600004-05167-040667FM-12+029999999V0200901N005112200019N0040001N1+03041+01751100821ADDGF102991001001999999001091KA1240M+03611MA1999999097501MD1999999+0021REMSYN088AAXX  16004 82583 32996 20910 10304 20175 39750 40082 80009 333 10361 29046 55106 58002;
0156825830999992005111612004-05167-040667FM-12+029999999V0200901N004612200019N0500001N1+02881+01911101071ADDGF102991011011008001001011KA1240N+02421MA1999999097741MD1999999+0071REMSYN076AAXX  16124 82583 32599 20909 10288 20191 39774 40107 81101 333 20242 58007;
0137825830999992005111618004-05167-040667FM-12+029999999V0200901N004612200019N0500001N1+03521+02321100581ADDGF101991011011008001001001MA1999999097271MD1999999+0041REMSYN070AAXX  16184 82583 32599 10909 10352 20232 39727 40058 81100 333 58004;
0168825830999992005111700004-05167-040667FM-12+029999999V0200901N002112200019N0040001N1+03031+01681100711ADDGF101991011011008001001001KA1240M+03681MA1999999097361MD1999999-0141REMSYN088AAXX  17004 82583 32596 10904 10303 20168 39736 40071 81100 333 10368 29045 55114 59014;
0156825830999992005111712004-05167-040667FM-12+029999999V0200901N005112200019N0500001N1+02901+01901100991ADDGF101991011011008001001001KA1240N+02471MA1999999097661MD1999999-0081REMSYN076AAXX  17124 82583 32599 10910 10290 20190 39766 40099 81100 333 20247 59008;
0137825830999992005111718004-05167-040667FM-12+029999999V0200901N006212200019N0500001N1+03591+02891100461ADDGF101991011011008001001001MA1999999097511MD1999999-0121REMSYN070AAXX  17184 82583 32599 10912 10359 20289 39751 40046 81100 333 59012;
0178825830999992005111800004-05167-040667FM-12+029999999V0200901N001512200019N0040001N1+03061+02081100591ADDGA1001+999999999GF100991001001999999001001KA1240M+03691MA1999999097281MD1999999-0081REMSYN082AAXX  18004 82583 32996 00903 10306 20208 39728 40059 333 10369 29058 55114 59008;
0156825830999992005111812004-05167-040667FM-12+029999999V0200901N007212200019N0500001N1+02891+01901100921ADDGF101991011011008001001001KA1240N+02361MA1999999097601MD1999999-0061REMSYN076AAXX  18124 82583 32599 10914 10289 20190 39760 40092 81100 333 20236 59006;
0137825830999992005111818004-05167-040667FM-12+029999999V0200901N006712200019N0500001N1+03581+01551100511ADDGF101991011011008001001001MA1999999097201MD1999999+0051REMSYN070AAXX  18184 82583 32599 10913 10358 20155 39720 40051 81100 333 58005;
0178825830999992005111900004-05167-040667FM-12+029999999V0201401N002112200019N0040001N1+03021+01471100681ADDGA1001+999999999GF100991001001999999001001KA1240M+03671MA1999999097361MD1999999+0081REMSYN082AAXX  19004 82583 32996 01404 10302 20147 39736 40068 333 10367 29041 55115 58008;
0156825830999992005111912004-05167-040667FM-12+029999999V0200901N006212200019N0500001N1+03011+01831101001ADDGF101991011011008001001001KA1240N+02411MA1999999097681MD1999999+0081REMSYN076AAXX  19124 82583 32599 10912 10301 20183 39768 40100 81100 333 20241 58008;
0137825830999992005111918004-05167-040667FM-12+029999999V0200901N003612200019N0500001N1+03561+01591100611ADDGF102991021011008001001001MA1999999097301MD1999999+0101REMSYN070AAXX  19184 82583 32599 20907 10356 20159 39730 40061 82100 333 58010;
0178825830999992005112000004-05167-040667FM-12+029999999V0200901N003112200019N0040001N1+03061+01661100901ADDGA1001+999999999GF100991001001999999001001KA1240M+03651MA1999999097581MD1999999+0021REMSYN082AAXX  20004 82583 32996 00906 10306 20166 39758 40090 333 10365 29039 55107 58002;
0156825830999992005112012004-05167-040667FM-12+029999999V0200901N003612200019N0500001N1+03111+02161101021ADDGF101991011011008001001001KA1240N+02471MA1999999097701MD1999999+0021REMSYN076AAXX  20124 82583 32599 10907 10311 20216 39770 40102 81100 333 20247 58002;
0137825830999992005112018004-05167-040667FM-12+029999999V0200901N005712200019N0500001N1+03741+02191100881ADDGF101991011011008001001001MA1999999097181MD1999999+0141REMSYN070AAXX  20184 82583 32599 10911 10374 20219 39718 40088 81100 333 58014;
0178825830999992005112100004-05167-040667FM-12+029999999V0200501N001512200019N0040001N1+03181+01841100671ADDGA1001+999999999GF100991001001999999001001KA1240M+03811MA1999999097371MD1999999-0211REMSYN082AAXX  21004 82583 32996 00503 10318 20184 39737 40067 333 10381 29045 55107 59021;
0156825830999992005112112004-05167-040667FM-12+029999999V0200901N006212200019N0500001N1+02931+01851100941ADDGF102991011011008001001011KA1240N+02421MA1999999097621MD1999999-0081REMSYN076AAXX  21124 82583 32599 20912 10293 20185 39762 40094 81101 333 20242 59008;
0137825830999992005112118004-05167-040667FM-12+029999999V0200901N005712200019N0500001N1+03681+01581100451ADDGF102991011011008001001011MA1999999097151MD1999999-0031REMSYN070AAXX  21184 82583 32599 20911 10368 20158 39715 40045 81101 333 59003;
0178825830999992005112200004-05167-040667FM-12+029999999V0200901N002612200019N0040001N1+03011+01471100701ADDGA1001+999999999GF100991001001999999001001KA1240M+03721MA1999999097381MD1999999-0011REMSYN082AAXX  22004 82583 32996 00905 10301 20147 39738 40070 333 10372 29040 55110 59001;
0156825830999992005112212004-05167-040667FM-12+029999999V0200901N005710075019N0500001N1+02961+01871100921ADDGF105991051021008001001001KA1240N+02431MA1999999097601MD1999999-0021REMSYN076AAXX  22124 82583 32599 50911 10296 20187 39760 40092 85200 333 20243 59002;
0137825830999992005112218004-05167-040667FM-12+029999999V0200901N005112200019N0500001N1+03651+01461100411ADDGF102991011011008001001011MA1999999097121MD1999999-0031REMSYN070AAXX  22184 82583 32599 20910 10365 20146 39712 40041 81101 333 59003;
0178825830999992005112300004-05167-040667FM-12+029999999V0200901N002112200019N0040001N1+03031+01371100611ADDGA1001+999999999GF100991001001999999001001KA1240M+03691MA1999999097301MD1999999-0081REMSYN082AAXX  23004 82583 32996 00904 10303 20137 39730 40061 333 10369 29038 55093 59008;
0156825830999992005112312004-05167-040667FM-12+029999999V0200901N005110120019N0500001N1+02841+01911101021ADDGF108991081081008001999999KA1240N+02301MA1999999097691MD1999999+0091REMSYN076AAXX  23124 82583 32599 80910 10284 20191 39769 40102 888// 333 20230 58009;
0137825830999992005112318004-05167-040667FM-12+029999999V0200501N004112200019N0500001N1+03591+01671100521ADDGF104991031011008001001011MA1999999097221MD1999999+0101REMSYN070AAXX  23184 82583 32599 40508 10359 20167 39722 40052 83101 333 58010;
0168825830999992005112400004-05167-040667FM-12+029999999V0200901N002612200019N0040001N1+03081+01711100701ADDGF101991011011008001001001KA1240M+03651MA1999999097381MD1999999+0081REMSYN088AAXX  24004 82583 32596 10905 10308 20171 39738 40070 81100 333 10365 29044 55079 58008;
0156825830999992005112412004-05167-040667FM-12+029999999V0200901N005110075019N0500001N1+02881+02001101081ADDGF106991051021008001001011KA1240N+02371MA1999999097751MD1999999+0061REMSYN076AAXX  24124 82583 32599 60910 10288 20200 39775 40108 85201 333 20237 58006;
0137825830999992005112418004-05167-040667FM-12+029999999V0200901N003112200019N0500001N1+03581+01751100591ADDGF103991031021008001001001MA1999999097271MD1999999+0051REMSYN070AAXX  24184 82583 32599 30906 10358 20175 39727 40059 83200 333 58005;
0168825830999992005112500004-05167-040667FM-12+029999999V0200901N002112200019N0040001N1+03081+01711100741ADDGF101991011011008001001001KA1240M+03651MA1999999097421MD1999999+0041REMSYN088AAXX  25004 82583 32596 10904 10308 20171 39742 40074 81100 333 10365 29045 55094 58004;
0156825830999992005112512004-05167-040667FM-12+029999999V0200901N004610075019N0500001N1+02991+01971101051ADDGF106991051021008001051001KA1240N+02481MA1999999097731MD1999999-0021REMSYN076AAXX  25124 82583 32599 60909 10299 20197 39773 40105 85250 333 20248 59002;
0137825830999992005112518004-05167-040667FM-12+029999999V0200901N004610075019N0500001N1+03511+01551100581ADDGF107991051021008001051011MA1999999097281MD1999999+0011REMSYN070AAXX  25184 82583 32599 70909 10351 20155 39728 40058 85251 333 58001;
0168825830999992005112600004-05167-040667FM-12+029999999V0200901N003112200019N0040001N1+03181+01731100711ADDGF101991011011008001001001KA1240M+03621MA1999999097411MD1999999-0011REMSYN088AAXX  26004 82583 32596 10906 10318 20173 39741 40071 81100 333 10362 29046 55053 59001;
0156825830999992005112612004-05167-040667FM-12+029999999V0200901N003110075019N0500001N1+02791+02031100971ADDGF108991061051008001051999KA1240N+02451MA1999999097651MD1999999-0081REMSYN076AAXX  26124 82583 32599 80906 10279 20203 39765 40097 8655/ 333 20245 59008;
0188825830999992005112618004-05167-040667FM-12+029999999V0200501N002119999999N0500001N1+03481+01791100391ADDGF106991999051008001001001MA1999999097121MD1999999-0181REMSYN070AAXX  26184 82583 32599 60504 10348 20179 39310 40039 84500 333 59018;EQDQ01+000042SCOTLCQ02+093103APOSP Q03+999990APOSP 
0168825830999992005112700004-05167-040667FM-12+029999999V0200501N002612200019N0040001N1+03191+01961100671ADDGF103991031021008001001001KA1240M+03551MA1999999097351MD1999999-0031REMSYN088AAXX  27004 82583 32596 30505 10319 20196 39735 40067 83200 333 10355 29048 55066 59003;
0175825830999992005112712004-05167-040667FM-12+029999999V0200901N005710075019N0500001N1+02821+02021100921ADDGF107991999021008001001001KA1240N+02471MA1999999097601MD1999999-0051REMSYN076AAXX  27124 82583 32599 70911 10282 20202 39760 40092 86200 333 20247 59005;EQDQ01+000062SCOTLC
0137825830999992005112718004-05167-040667FM-12+029999999V0203601N003110075019N0500001N1+03231+02001100431ADDGF106991061051008001001001MA1999999097111MD1999999+0011REMSYN070AAXX  27184 82583 32599 63606 10323 20200 39711 40043 86500 333 58001;
0168825830999992005112800004-05167-040667FM-12+029999999V0200501N002612200019N0040001N1+03011+01731100651ADDGF101991011011008001001001KA1240M+03361MA1999999097331MD1999999-0021REMSYN088AAXX  28004 82583 32596 10505 10301 20173 39733 40065 81100 333 10336 29051 55025 59002;
0236825830999992005112812004-05167-040667FM-12+029999999V0200501N002610120019N0500001N1+02671+02161100971ADDAA124000091AY161061AY261061GF108991999081008001011011KA1240N+02461MA1999999097631MD1999999+0031MW1021REMSYN088AAXX  28124 82583 21599 80505 10267 20216 39763 40097 70266 88811 333 20246 58003 69914;EQDQ01+000082SCOTLCQ02  00002PRCP24
0178825830999992005112900004-05167-040667FM-12+029999999V0200501N002612200019N0040001N1+02931+01851100751ADDGA1001+999999999GF100991001001999999001001KA1240M+03201MA1999999097421MD1999999+0091REMSYN082AAXX  29004 82583 32996 00505 10293 20185 39742 40075 333 10320 29056 55006 58009;
0156825830999992005112912004-05167-040667FM-12+029999999V0200901N007210075019N0500001N1+02931+01941101001ADDGF105991051011008001001001KA1240N+02451MA1999999097671MD1999999+0041REMSYN076AAXX  29124 82583 32599 50914 10293 20194 39767 40100 85100 333 20245 58004;
0137825830999992005112918004-05167-040667FM-12+029999999V0200901N007212200019N0500001N1+03541+01841100581ADDGF104991041011008001001001MA1999999097231MD1999999-0031REMSYN070AAXX  29184 82583 32599 40914 10354 20184 39723 40058 84100 333 59003;
0178825830999992005113000004-05167-040667FM-12+029999999V0200901N003112200019N0040001N1+03011+01861100741ADDGA1001+999999999GF100991001001999999001001KA1240M+03591MA1999999097501MD1999999+0081REMSYN082AAXX  30004 82583 32996 00906 10301 20186 39750 40074 333 10359 29048 55108 58008;
0156825830999992005113012004-05167-040667FM-12+029999999V0200901N008212200019N0500001N1+03061+01991100971ADDGF101991011011008001001001KA1240N+02441MA1999999097651MD1999999-0021REMSYN076AAXX  30124 82583 32599 10916 10306 20199 39765 40097 81100 333 20244 59002;
0137825830999992005113018004-05167-040667FM-12+029999999V0200901N004612200019N0500001N1+03641+01801100451ADDGF101991011011008001001001MA1999999097151MD1999999-0121REMSYN070AAXX  30184 82583 32599 10909 10364 20180 39715 40045 81100 333 59012;
0178825830999992005120100004-05167-040667FM-12+029999999V0200901N002612200019N0040001N1+03061+01701100671ADDGA1001+999999999GF100991001001999999001001KA1240M+03691MA1999999097361MD1999999-0141REMSYN082AAXX  01004 82583 32996 00905 10306 20170 39736 40067 333 10369 29043 55113 59014;
0156825830999992005120112004-05167-040667FM-12+029999999V0200901N006712200019N0500001N1+02981+01731100961ADDGF101991011011008001001001KA1240N+02481MA1999999097641MD1999999-0011REMSYN076AAXX  01124 82583 32599 10913 10298 20173 39764 40096 81100 333 20248 59001;
0137825830999992005120118004-05167-040667FM-12+029999999V0200901N005712200019N0500001N1+03591+01671100471ADDGF103991021011008001001011MA1999999097171MD1999999+0021REMSYN070AAXX  01184 82583 32599 30911 10359 20167 39717 40047 82101 333 58002;
0178825830999992005120200004-05167-040667FM-12+029999999V0200901N002612200019N0040001N1+03061+01621100611ADDGA1001+999999999GF100991001001999999001001KA1240M+03661MA1999999097301MD1999999-0061REMSYN082AAXX  02004 82583 32996 00905 10306 20162 39730 40061 333 10366 29040 55109 59006;
0156825830999992005120212004-05167-040667FM-12+029999999V0200901N005710075019N0500001N1+02871+01971100981ADDGF106991061021008001001001KA1240N+02871MA1999999097651MD1999999+0011REMSYN076AAXX  02124 82583 32599 60911 10287 20197 39765 40098 86200 333 20287 58001;
0137825830999992005120218004-05167-040667FM-12+029999999V0200901N003612200019N0500001N1+03531+01711100521ADDGF104991041011008001011001MA1999999097211MD1999999+0041REMSYN070AAXX  02184 82583 32599 40907 10353 20171 30721 40052 84110 333 58004;
0178825830999992005120300004-05167-040667FM-12+029999999V0200901N002112200019N0040001N1+03021+01681100651ADDGA1001+999999999GF100991001001999999001001KA1240M+03591MA1999999097331MD1999999+0031REMSYN082AAXX  03004 82583 32996 00904 10302 20168 39733 40065 333 10359 29046 55095 58003;
0156825830999992005120312004-05167-040667FM-12+029999999V0200501N003610075019N0500001N1+02781+01981100951ADDGF106991061011008001001011KA1240N+02371MA1999999097621MD1999999-0031REMSYN076AAXX  03124 82583 32599 60507 10278 20198 39762 40095 86101 333 20237 59003;
0137825830999992005120318004-05167-040667FM-12+029999999V0200501N002612200019N0500001N1+03501+01981100521ADDGF103991031021008001001001MA1999999097221MD1999999+0011REMSYN070AAXX  03184 82583 32599 30505 10350 20198 39722 40052 83200 333 58001;
0187825830999992005120400004-05167-040667FM-12+029999999V0201301N001512200019N0040001N1+03021+01831100751ADDGF103991999051008001001001KA1240M+03621MA1999999097421MD1999999+0091REMSYN088AAXX  04004 82583 32596 31303 10302 20183 39742 40075 81500 333 10362 29050 55082 58009;EQDQ01+000012SCOTLC
0175825830999992005120412004-05167-040667FM-12+029999999V0203601N002119999999N0500001N1+02761+02141101021ADDGF107991999021008001001011KA1240N+02491MA1999999097681MD1999999+0061REMSYN076AAXX  04124 82583 32599 73604 10276 20214 39768 40102 88201 333 20249 58006;EQDQ01+000082SCOTLC
0213825830999992005120500004-05167-040667FM-12+029999999V0203601N001012200019N0040001N1+02781+02271100711ADDAA106009991AY161061AY261061GF102991021011008001001001KA1240M+03491MA1999999097371MD1999999-0051MW1011REMSYN100AAXX  05004 82583 21596 23602 10278 20227 39737 40071 70166 82100 333 10349 29066 55049 59005 60101;
0173825830999992005120512004-05167-040667FM-12+029999999V0201801N001510075019N0500001N1+02641+02091100931ADDAA124009991GF108991061051008001031999KA1240N+02411MA1999999097571MD1999999-0111REMSYN082AAXX  05124 82583 22599 81803 10264 20209 39757 40093 8653/ 333 20241 59011 60104;
0137825830999992005120518004-05167-040667FM-12+029999999V0201801N002110075019N0500001N1+02911+02091100681ADDGF108991051051008001021999MA1999999097331MD1999999+0131REMSYN070AAXX  05184 82583 32599 81804 10291 20209 39733 40068 8552/ 333 58013;
0168825830999992005120600004-05167-040667FM-12+029999999V0200901N001512200019N0040001N1+02651+02201100761ADDGF102991021011008001001001KA1240M+03521MA1999999097401MD1999999+0031REMSYN088AAXX  06004 82583 32596 20903 10265 20220 39740 40076 82100 333 10352 29071 55002 58003;
0156825830999992005120612004-05167-040667FM-12+029999999V0200901N002610075019N0500001N1+02761+02121100771ADDGF107991061051008001031001KA1240N+02411MA1999999097421MD1999999-0151REMSYN076AAXX  06124 82583 32599 70905 10276 20212 39742 40077 86530 333 20241 59015;
0137825830999992005120618004-05167-040667FM-12+029999999V0200501N002110075019N0500001N1+03491+01981100291ADDGF105991051021008001001021MA1999999096991MD1999999-0341REMSYN070AAXX  06184 82583 32599 50504 10349 20198 39699 40029 85202 333 59034;
0201825830999992005120718004-05167-040667FM-12+029999999V0201401N004110075019N0500001N1+02991+02141100501ADDAA106000091AY161061AY261061GF108991081051008001999999MA1999999097161MD1999999+0171MW1021REMSYN082AAXX  07184 82583 21599 81408 10299 20214 39716 40050 70266 885// 333 58017 69911;EQDQ01  00002PRCP06
0187825830999992005120800004-05167-040667FM-12+029999999V0203601N002612200019N0040001N1+02721+02191100831ADDGF103991999051008001001001KA1240M+03561MA1999999097481MD1999999+0181REMSYN088AAXX  08004 82583 32596 33605 10272 20219 39748 40083 82500 333 10356 29070 55005 58018;EQDQ01+000022SCOTLC
0201825830999992005120812004-05167-040667FM-12+029999999V0200501N003610120019N0500001N1+02791+02081100971ADDAA124001091AY161061AY261061GF106991061081008001001001KA1240N+02331MA1999999097621MD1999999+0141MW1021REMSYN088AAXX  08124 82583 21599 60507 10279 20208 39762 40097 70266 86800 333 20233 58014 60014;
0182825830999992005120818004-05167-040667FM-12+029999999V0200901N006210120019N0200001N1+02931+02221100661ADDAA106000021AY121061AY221061GF107991071081008001001001MA1999999097301MD1999999+0141MW1611REMSYN082AAXX  08184 82583 21598 70912 10293 20222 39730 40066 76122 87800 333 58014 69921;
0168825830999992005120900004-05167-040667FM-12+029999999V0200501N004612200019N0040001N1+02901+02071101021ADDGF104991041051008001001001KA1240M+03291MA1999999097651MD1999999-0171REMSYN088AAXX  09004 82583 32596 40509 10290 20207 39765 40102 84500 333 10329 29012 55045 59017;
0192825830999992005120912004-05167-040667FM-12+029999999V0200901N006210075019N0500001N1+02791+02081101101ADDAA124000021GF107991061021008001001011KA1240N+99999MA1999999097761MD1999999+0141REMSYN082AAXX  09124 82583 22599 70912 10279 20208 39776 40110 86201 333 20305 58014 69924;EQDQ01 +03052ATMN  
0137825830999992005120918004-05167-040667FM-12+029999999V0200901N005110075019N0500001N1+03321+01821100691ADDGF106991061021008001001001MA1999999097361MD1999999+0061REMSYN070AAXX  09184 82583 32599 60910 10332 20182 39736 40069 86200 333 58006;
0168825830999992005121000004-05167-040667FM-12+029999999V0200901N001012200019N0500001N1+02901+01981100811ADDGF102991021041008001001001KA1240M+03391MA1999999097471MD1999999-0181REMSYN088AAXX  10004 82583 32599 20902 10290 20198 39747 40081 82400 333 10339 29040 55074 59018;
0156825830999992005121012004-05167-040667FM-12+029999999V0200901N004610075019N0500001N1+02871+01891101111ADDGF106991061021008001001001KA1240N+02411MA1999999097771MD1999999+0011REMSYN076AAXX  10124 82583 32599 60909 10287 20189 39777 40111 86200 333 20241 58001;
0137825830999992005121018004-05167-040667FM-12+029999999V0200901N004612200019N0500001N1+03541+01671101041ADDGF102991021011008001001001MA1999999097721MD1999999+0361REMSYN070AAXX  10184 82583 32599 20909 10354 20167 39772 40104 82100 333 58036;
0178825830999992005121100004-05167-040667FM-12+029999999V0201401N002612200019N0040001N1+02991+01611100741ADDGA1001+999999999GF100991001001999999001001KA1240M+03631MA1999999097411MD1999999-0061REMSYN082AAXX  11004 82583 32596 01405 10299 20161 39741 40074 333 10363 29044 55108 59006;
0156825830999992005121112004-05167-040667FM-12+029999999V0200901N006710075019N0500001N1+02891+01871100981ADDGF106991061021008001001001KA1240N+02351MA1999999097651MD1999999-0121REMSYN076AAXX  11124 82583 32599 60913 10289 20187 39765 40098 86200 333 20235 59012;
0137825830999992005121118004-05167-040667FM-12+029999999V0200901N004610075019N0500001N1+03451+01551100471ADDGF106991061021008001001001MA1999999097151MD1999999-0211REMSYN070AAXX  11184 82583 32599 60909 10345 20155 39715 40047 86200 333 59021;
0168825830999992005121200004-05167-040667FM-12+029999999V0200501N005110075019N0040001N1+03131+01771100681ADDGF106991061051008001001001KA1240M+03521MA1999999097361MD1999999-0051REMSYN088AAXX  12004 82583 32596 60510 10313 20177 39736 40068 86500 333 10352 29044 55060 59005;
0156825830999992005121212004-05167-040667FM-12+029999999V0200901N004610120019N0500001N1+02741+01971100951ADDGF107991071081008001999999KA1240N+02331MA1999999097631MD1999999+0021REMSYN076AAXX  12124 82583 32599 70909 10274 20197 39763 40095 878// 333 20233 58002;
0137825830999992005121218004-05167-040667FM-12+029999999V0200901N003110075019N0500001N1+03441+01721100481ADDGF105991051011008001001001MA1999999097161MD1999999+0011REMSYN070AAXX  12184 82583 32599 50906 10344 20172 39716 40048 85100 333 58001;
0187825830999992005121300004-05167-040667FM-12+029999999V0201401N001512200019N0040001N1+02961+01841100661ADDGF102991999021008001051001KA1240M+03541MA1999999097341MD1999999-0021REMSYN088AAXX  13004 82583 32596 21403 10296 20184 39734 40066 88250 333 10354 29046 55071 59002;EQDQ01+000082SCOTLC
0156825830999992005121312004-05167-040667FM-12+029999999V0200901N004610075019N0500001N1+02861+01921100891ADDGF105991051011008001001001KA1240N+02391MA1999999097561MD1999999-0071REMSYN076AAXX  13124 82583 32599 50909 10286 20192 39756 40089 85100 333 20239 59007;
0137825830999992005121318004-05167-040667FM-12+029999999V0200901N006712200019N0500001N1+03431+01761100461ADDGF103991031021008001001001MA1999999097151MD1999999-0011REMSYN070AAXX  13184 82583 32599 30913 10343 20176 39715 40046 83200 333 59001;
0168825830999992005121400004-05167-040667FM-12+029999999V0200901N001512200019N0040001N1+03131+01581100671ADDGF102991021011008001001001KA1240M+03531MA1999999097351MD1999999-0211REMSYN088AAXX  14004 82583 32596 20903 10313 20158 39735 40067 82100 333 10353 29043 55099 59021;
0156825830999992005121412004-05167-040667FM-12+029999999V0200901N006712200019N0500001N1+02901+01721100931ADDGF101991011011008001001001KA1240N+02371MA1999999097611MD1999999+0051REMSYN076AAXX  14124 82583 32599 10913 10290 20172 39761 40093 81100 333 20237 58005;
0137825830999992005121418004-05167-040667FM-12+029999999V0200901N005112200019N0500001N1+03571+01391100471ADDGF105991041021008001001011MA1999999097171MD1999999-0011REMSYN070AAXX  14184 82583 32599 50910 10357 20139 39717 40047 84201 333 59001;
0178825830999992005121500004-05167-040667FM-12+029999999V0200901N003612200019N0040001N1+03071+01601100681ADDGA1001+999999999GF100991001001999999001001KA1240M+03671MA1999999097361MD1999999+0001REMSYN082AAXX  15004 82583 32996 00907 10307 20160 39736 40068 333 10367 29040 55096 58000;
0137825830999992005121518004-05167-040667FM-12+029999999V0200901N002610075019N0500001N1+03331+01911100621ADDGF106991061021008001001001MA1999999097301MD1999999-0121REMSYN070AAXX  15184 82583 32599 60905 10333 20191 39730 40062 86200 333 59012;
0187825830999992005121600004-05167-040667FM-12+029999999V0200901N001512200019N0040001N1+02911+01501100881ADDGF102991999051008001001001KA1240M+03421MA1999999097531MD1999999+0121REMSYN088AAXX  16004 82583 32596 20903 10291 20150 39753 40088 83500 333 10342 29046 55047 58012;EQDQ01+000032SCOTLC
0156825830999992005121612004-05167-040667FM-12+029999999V0200901N006712200019N0500001N1+02841+01761101051ADDGF102991021051008001001001KA1240N+02411MA1999999097711MD1999999+0081REMSYN076AAXX  16124 82583 32599 20913 10284 20176 39771 40105 82500 333 20241 58008;
0156825830999992005121618004-05167-040667FM-12+029999999V0200901N001512200019N0500001N1+03571+01311100501ADDGF102991999001008001041001MA1999999097201MD1999999-0101REMSYN070AAXX  16184 82583 32599 20903 10357 20131 39720 40050 80040 333 59010;EQDQ01+000002SCOTLC
0178825830999992005121700004-05167-040667FM-12+029999999V0200901N002612200019N0040001N1+03031+01371100671ADDGA1001+999999999GF100991001001999999001001KA1240M+03621MA1999999097341MD1999999+0041REMSYN082AAXX  17004 82583 32996 00905 10303 20137 39734 40067 333 10362 29032 55109 58004;
0137825830999992005121718004-05167-040667FM-12+029999999V0200901N004612200019N0500001N1+03471+01611100671ADDGF102991021011008001001001MA1999999097371MD1999999+0171REMSYN070AAXX  17184 82583 32599 20909 10347 20161 39737 40067 82100 333 58017;
0178825830999992005121800004-05167-040667FM-12+029999999V0200901N002612200019N0040001N1+03061+01701100881ADDGA1001+999999999GF100991001001999999001001KA1240M+03551MA1999999097551MD1999999+0151REMSYN082AAXX  18004 82583 32996 00905 10306 20170 39755 40088 333 10355 29046 55088 58015;
0156825830999992005121812004-05167-040667FM-12+029999999V0200901N005712200019N0500001N1+03041+01971101091ADDGF103991031011008001001001KA1240N+02521MA1999999097771MD1999999-0081REMSYN076AAXX  18124 82583 32599 30911 10304 20197 39777 40109 83100 333 20252 59008;
0137825830999992005121818004-05167-040667FM-12+029999999V0200901N005710075019N0500001N1+03561+01731100581ADDGF105991051011008001001001MA1999999097281MD1999999-0081REMSYN070AAXX  18184 82583 32599 50911 10356 20173 39728 40058 85100 333 59008;
0168825830999992005121900004-05167-040667FM-12+029999999V0200901N002612200019N0040001N1+03001+01681100871ADDGF101991011051008001001001KA1240M+03641MA1999999097551MD1999999+0001REMSYN088AAXX  19004 82583 32596 10905 10300 20168 39755 40087 81500 333 10364 29044 55094 58000;
0156825830999992005121912004-05167-040667FM-12+029999999V0201401N004610075019N0500001N1+02971+02151101051ADDGF105991051021008001001001KA1240N+02491MA1999999097731MD1999999-0041REMSYN076AAXX  19124 82583 32599 51409 10297 20215 39773 40105 85200 333 20249 59004;
0137825830999992005121918004-05167-040667FM-12+029999999V0200901N003610075019N0500001N1+03601+02141100621ADDGF106991061041008001001001MA1999999097321MD1999999+0041REMSYN070AAXX  19184 82583 32599 60907 10360 20214 39732 40062 86400 333 58004;
0178825830999992005122000004-05167-040667FM-12+029999999V0200901N004112200019N0040001N1+03101+01621100741ADDGA1001+999999999GF100991001001999999001001KA1240M+03681MA1999999097431MD1999999-0121REMSYN082AAXX  20004 82583 32996 00908 10310 20162 39743 40074 333 10368 29046 55109 59012;
0182825830999992005122018004-05167-040667FM-12+029999999V0203601N008210120019N0100001N1+03081+01711100711ADDAA106000591AY121061AY221061GF107991071081008001999999MA1999999097371MD1999999+0051MW1631REMSYN082AAXX  20184 82583 21597 73616 10308 20171 39737 40071 76322 878// 333 58005 69951;
0168825830999992005122100004-05167-040667FM-12+029999999V0200501N000512200019N0040001N1+02881+02281100901ADDGF102991021051008001001001KA1240M+03671MA1999999097571MD1999999+0141REMSYN088AAXX  21004 82583 32596 20501 10288 20228 39757 40090 82500 333 10367 29061 55063 58014;
0173825830999992005122112004-05167-040667FM-12+029999999V0200901N004610120019N0500001N1+02911+02041101151ADDAA124000591GF107991061081008001001011KA1240N+02551MA1999999097811MD1999999+0111REMSYN082AAXX  21124 82583 22599 70909 10291 20204 39781 40115 86801 333 20255 58011 69954;
0137825830999992005122118004-05167-040667FM-12+029999999V0201401N004610450019N0500001N1+03491+01771100721ADDGF105991031021008001041001MA1999999097401MD1999999+0031REMSYN070AAXX  21184 82583 32599 51409 10349 20177 39740 40072 83240 333 58003;
0178825830999992005122200004-05167-040667FM-12+029999999V0200901N002612200019N0040001N1+03001+01611100911ADDGA1001+999999999GF100991001001999999001001KA1240M+03581MA1999999097591MD1999999+0021REMSYN082AAXX  22004 82583 32996 00905 10300 20161 39759 40091 333 10358 29045 55059 58002;
0156825830999992005122212004-05167-040667FM-12+029999999V0200901N003612200019N0500001N1+02951+01931101141ADDGF103991031021008001001001KA1240N+02321MA1999999097811MD1999999+0001REMSYN076AAXX  22124 82583 32599 30907 10295 20193 39781 40114 83200 333 20232 58000;
0137825830999992005122218004-05167-040667FM-12+029999999V0200901N005110075019N0500001N1+03531+01571100731ADDGF106991061011008001001001MA1999999097411MD1999999+0011REMSYN070AAXX  22184 82583 32599 60910 10353 20157 39741 40073 86100 333 58001;
0168825830999992005122300004-05167-040667FM-12+029999999V0200901N004112200019N0040001N1+03211+01521100851ADDGF101991011011008001001001KA1240M+03551MA1999999097541MD1999999-0051REMSYN088AAXX  23004 82583 32596 10908 10321 20152 39754 40085 81100 333 10355 29039 55085 59005;
0156825830999992005122312004-05167-040667FM-12+029999999V0200901N005112200019N0500001N1+02881+01891101161ADDGF102991021011008001001001KA1240N+02411MA1999999097831MD1999999+0021REMSYN076AAXX  23124 82583 32599 20910 10288 20189 39783 40116 82100 333 20241 58002;
0137825830999992005122318004-05167-040667FM-12+029999999V0200901N003110075019N0500001N1+03401+01641100681ADDGF107991071011008001001001MA1999999097351MD1999999-0061REMSYN070AAXX  23184 82583 32599 70906 10340 20164 39735 40068 87100 333 59006;
0178825830999992005122400004-05167-040667FM-12+029999999V0200901N003112200019N0040001N1+03151+02051100701ADDGA1001+999999999GF100991001001999999001001KA1240M+03511MA1999999097411MD1999999-0421REMSYN082AAXX  24004 82583 32996 00906 10315 20205 39741 40070 333 10351 29049 55077 59042;
0156825830999992005122412004-05167-040667FM-12+029999999V0200901N005112200019N0500001N1+02861+01981101161ADDGF105991031021008001001011KA1240N+02371MA1999999097831MD1999999+0031REMSYN076AAXX  24124 82583 32599 50910 10286 20198 39783 40116 83201 333 20237 58003;
0137825830999992005122418004-05167-040667FM-12+029999999V0200901N003110075019N0500001N1+03391+01851100671ADDGF107991071051008001999999MA1999999097351MD1999999+0001REMSYN070AAXX  24184 82583 32599 70906 10339 20185 39735 40067 875// 333 58000;
0168825830999992005122500004-05167-040667FM-12+029999999V0200901N000512200019N0040001N1+03021+02041100791ADDGF103991031051008001001001KA1240M+03501MA1999999097471MD1999999+0061REMSYN088AAXX  25004 82583 32596 30901 10302 20204 39747 40079 83500 333 10350 29053 55080 58006;
0156825830999992005122512004-05167-040667FM-12+029999999V0200901N005110120019N0500001N1+02871+02001101091ADDGF107991061081008001001011KA1240N+02531MA1999999097751MD1999999-0081REMSYN076AAXX  25124 82583 32599 70910 10287 20200 39775 40109 86801 333 20253 59008;
0137825830999992005122518004-05167-040667FM-12+029999999V0200901N004610075019N0500001N1+03331+01581100681ADDGF106991061021008001001001MA1999999097361MD1999999+0011REMSYN070AAXX  25184 82583 32599 60909 10333 20158 39736 40068 86200 333 58001;
0178825830999992005122600004-05167-040667FM-12+029999999V0200901N002112200019N0040001N1+02941+01691100911ADDGA1001+999999999GF100991001001999999001001KA1240M+03461MA1999999097581MD1999999+0111REMSYN082AAXX  26004 82583 32996 00904 10294 20169 39758 40091 333 10346 29047 55027 58011;
0175825830999992005122612004-05167-040667FM-12+029999999V0200501N001510075019N0500001N1+02721+02081101141ADDGF106991999021008001001001KA1240N+02431MA1999999097791MD1999999+0041REMSYN076AAXX  26124 82583 32599 60503 10272 20208 39779 40114 85200 333 20243 58004;EQDQ01+000052SCOTLC
0137825830999992005122618004-05167-040667FM-12+029999999V0200901N003110075019N0500001N1+03481+01841100591ADDGF107991071021008001001001MA1999999097241MD1999999-0081REMSYN070AAXX  26184 82583 32599 70906 10348 20184 39724 40059 87200 333 59008;
0168825830999992005122700004-05167-040667FM-12+029999999V0200901N001512200019N0040001N1+03121+02051100771ADDGF102991021011008001001001KA1240M+03551MA1999999097441MD1999999-0141REMSYN088AAXX  27004 82583 32596 20903 10312 20205 39744 40077 82100 333 10355 29005 55062 59014;
0175825830999992005122712004-05167-040667FM-12+029999999V0200901N005712200019N0500001N1+02901+01991100991ADDGF102991999081008001001001KA1240N+02541MA1999999097671MD1999999-0121REMSYN076AAXX  27124 82583 32599 20911 10290 20199 39767 40099 86800 333 20254 59012;EQDQ01+000062SCOTLC
0137825830999992005122718004-05167-040667FM-12+029999999V0200901N002110075019N0500001N1+03671+01531100571ADDGF108991081041008001999999MA1999999097271MD1999999+0071REMSYN070AAXX  27184 82583 32599 80904 10367 20153 39727 40057 884// 333 58007;
0178825830999992005122800004-05167-040667FM-12+029999999V0200901N002112200019N0040001N1+03051+01871100621ADDGA1001+999999999GF100991001001999999001001KA1240M+03431MA1999999097311MD1999999-0131REMSYN082AAXX  28004 82583 32996 00904 10305 20187 39731 40062 333 10343 29046 55062 59013;
0236825830999992005122812004-05167-040667FM-12+029999999V0200901N003119999999N0500001N1+02551+02171101081ADDAA124000091AY161061AY261061GF107991999999008001999999KA1240N+02431MA1999999097731MD1999999+0061MW1021REMSYN088AAXX  28124 82583 21599 70906 10255 20217 39773 40108 70266 88/// 333 20243 58006 69924;EQDQ01+000082SCOTLCQ02  00002PRCP24
0137825830999992005122818004-05167-040667FM-12+029999999V0200501N002110075019N0500001N1+02961+01901100771ADDGF108991081051008001999999MA1999999097431MD1999999+0161REMSYN070AAXX  28184 82583 32599 80504 10296 20190 39743 40077 885// 333 58016;
0168825830999992005122900004-05167-040667FM-12+029999999V0203201N001510120019N0040001N1+02541+02231101061ADDGF108991081081008001999999KA1240M+03091MA1999999097691MD1999999+0381REMSYN088AAXX  29004 82583 32596 83203 10254 20223 39769 40106 888// 333 10309 29030 55000 58038;
0156825830999992005122912004-05167-040667FM-12+029999999V0200901N005710450019N0500001N1+02851+01841100981ADDGF106991041021008001031001KA1240N+02421MA1999999097621MD1999999-0111REMSYN076AAXX  29124 82583 32599 60911 10285 20184 39762 40098 84230 333 20242 59011;
0137825830999992005122918004-05167-040667FM-12+029999999V0200901N005110075019N0500001N1+03411+01401100491ADDGF106991061071008001999999MA1999999097231MD1999999-0201REMSYN070AAXX  29184 82583 32599 60910 10341 20140 39723 40049 867// 333 59020;
0187825830999992005123000004-05167-040667FM-12+029999999V0200901N001012200019N0500001N1+03011+01681100751ADDGF102991999021008001001001KA1240M+03501MA1999999097431MD1999999-0261REMSYN088AAXX  30004 82583 32599 20902 10301 20168 39743 40075 83200 333 10350 29046 55055 59026;EQDQ01+000032SCOTLC
0156825830999992005123012004-05167-040667FM-12+029999999V0200901N005110075019N0500001N1+02861+01901100961ADDGF106991061011008001001001KA1240N+02451MA1999999097641MD1999999+0021REMSYN076AAXX  30124 82583 32599 60910 10286 20190 39764 40096 86100 333 20245 58002;
0156825830999992005123018004-05167-040667FM-12+029999999V0200901N003110075019N0500001N1+03421+01611100681ADDGF106991999021008001001001MA1999999097351MD1999999+0121REMSYN070AAXX  30184 82583 32599 60906 10342 20161 39735 40068 85200 333 58012;EQDQ01+000052SCOTLC
0156825830999992005123112004-05167-040667FM-12+029999999V0200901N003110075019N0500001N1+02831+02041100941ADDGF106991061021008001001001KA1240N+02481MA1999999097621MD1999999-0021REMSYN076AAXX  31124 82583 32599 60906 10283 20204 39762 40094 86200 333 20248 59002;
0137825830999992005123118004-05167-040667FM-12+029999999V0200901N001510075019N0500001N1+03341+01871100701ADDGF106991061021008001001001MA1999999097381MD1999999+0031REMSYN070AAXX  31184 82583 32599 60903 10334 20187 39738 40070 86200 333 58003;
