0211825960999992005032212004-05650-035417FM-12+006199999V0200901N003110450019N0040001N1+02741+02501101411ADDAA124006091AY161061AY261061GF106991031041008001051061KA1240N+02381MA1100641100671MD1999999-0101MW1031REMSYN098AAXX  22124 82596 21596 60906 10274 20250 30067 40141 70366 83456 333 20238 59010 60064 555 10064;
0186825960999992005032612004-05650-035417FM-12+006199999V0200901N003110450019N0040001N1+02961+02311101321ADDAA106000091GF106991031021008001051011KA1240N+02421MA1999999100601MD1999999-0091REMSYN076AAXX  26124 82596 32596 60906 10296 20231 30060 40132 83251 333 20242 59009;EQDQ01  00002PRCP06
0167825960999992005052518004-05650-035417FM-12+006199999V0201401N003110450019N0040001N1+02901+02501101301ADDAA106000091GF106991031021008001081011MA1999999100571MD1999999+0081REMSYN070AAXX  25184 82596 32596 61406 10290 20250 30057 40130 83281 333 58008;EQDQ01  00002PRCP06
0211825960999992005062912004-05650-035417FM-12+006199999V0201401N003110450019N0040001N1+02681+02411101531ADDAA124028091AY161061AY221061GF106991031041008001051061KA1240N+02141MA1102811100791MD1999999-0091MW1031REMSYN098AAXX  29124 82596 21596 61406 10268 20241 30079 40153 70362 83456 333 20214 59009 60284 555 10280;
0220825960999992005090112004-05650-035417FM-12+006199999V0201401N003119999999N0040001N1+02681+02281101741ADDAA124001091AY161061AY221061GF106991999021008001001001KA1240N+02301MA1999999101001MD1999999+0091MW1031REMSYN088AAXX  01124 82596 21596 61406 10268 20228 30100 40174 70362 83200 333 20230 58009 60014;EQDQ01+000032SCOTLC
0137825960999992005091418004-05650-035417FM-12+006199999V0201401N005110450019N0040001N1+02881+02031101341ADDGF106991021061008001051091MA1999999100611MD1999999+0021REMSYN070AAXX  14184 82596 32596 61410 10288 20203 30061 40134 82659 333 58002;
0211825960999992005091612004-05650-035417FM-12+006199999V0201801N004610450019N0040001N1+02441+02251101801ADDAA124001091AY151061AY211061GF108991041031008001091061KA1240N+02041MA1100101101061MD1999999+0001MW1201REMSYN098AAXX  16124 82596 21596 81809 10244 20225 30106 40180 72051 84396 333 20204 58000 60014 555 10011;
