0179826780999992005010100004-06767-043017FM-12+013899999V0209999C000012200019N0002001N1+02781+02421101141ADDAA106000091GF100991001001999999001001MA1999999099571MD1999999-0161REMSYN082AAXX  01004 82678 32992 00000 10278 20242 39957 40114 333 10343 29073 55086 59016;EQDQ01  00002PRCP06
0173826780999992005010112004-06767-043017FM-12+013899999V0200501N000510075019N0040001N1+02801+02341101391ADDAA106000091GF106991061051008001001001MA1999999099831MD1999999-0101REMSYN076AAXX  01124 82678 32596 60501 10280 20234 39983 40139 86500 333 20234 59010;EQDQ01  00002PRCP06
0167826780999992005010118004-06767-043017FM-12+013899999V0203601N000510075019N0040001N1+03401+02271101061ADDAA106000091GF105991051021008001001001MA1999999099501MD1999999-0111REMSYN070AAXX  01184 82678 32596 53601 10340 20227 39950 40106 85200 333 59011;EQDQ01  00002PRCP06
0185826780999992005010200004-06767-043017FM-12+013899999V0202301N000512200019N0002001N1+02921+02391101031ADDAA106000091GF103991031051008001001001MA1999999099471MD1999999-0101REMSYN088AAXX  02004 82678 32592 32301 10292 20239 39947 40103 83500 333 10344 29068 55101 59010;EQDQ01  00002PRCP06
0173826780999992005010212004-06767-043017FM-12+013899999V0200501N001010075019N0040001N1+02581+02371101581ADDAA106000091GF108991081051008001999999MA1999999100001MD1999999+0171REMSYN076AAXX  02124 82678 32596 80502 10258 20237 30000 40158 885// 333 20242 58017;EQDQ01  00002PRCP06
0167826780999992005010218004-06767-043017FM-12+013899999V0202301N002610450019N0040001N1+02821+02311101331ADDAA106000091GF108991031021008001021021MA1999999099751MD1999999+0251REMSYN070AAXX  02184 82678 32596 82305 10282 20231 39975 40133 83222 333 58025;EQDQ01  00002PRCP06
0185826780999992005010300004-06767-043017FM-12+013899999V0202301N001012200019N0002001N1+02521+02271101361ADDAA106000091GF102991001001999999001011MA1999999099771MD1999999+0171REMSYN088AAXX  03004 82678 32992 22302 10252 20227 39977 40136 80001 333 10297 29084 55031 58017;EQDQ01  00002PRCP06
0173826780999992005010312004-06767-043017FM-12+013899999V0201401N001010075019N0040001N1+02541+02291101631ADDAA106000091GF108991071051008001001021MA1999999100041MD1999999+0041REMSYN076AAXX  03124 82678 32596 81402 10254 20229 30004 40163 87502 333 20227 58004;EQDQ01  00002PRCP06
0167826780999992005010318004-06767-043017FM-12+013899999V0201401N000511050019N0040001N1+03281+02201101171ADDAA106000091GF107991041021008001001021MA1999999099601MD1999999-0151REMSYN070AAXX  03184 82678 32596 71401 10328 20220 39960 40117 84202 333 59015;EQDQ01  00002PRCP06
0179826780999992005010400004-06767-043017FM-12+013899999V0202301N000512200019N0002001N1+02821+02361101211ADDAA106000091GF100991001001999999001001MA1999999099641MD1999999-0131REMSYN082AAXX  04004 82678 32992 02301 10282 20236 39964 40121 333 10335 29073 55066 59013;EQDQ01  00002PRCP06
0167826780999992005010412004-06767-043017FM-12+013899999V0200501N001512200019N0040001N1+02961+02211101421ADDAA106000091GF100991001001999999001001MA1999999099851MD1999999-0191REMSYN070AAXX  04124 82678 32796 00503 10296 20221 39985 40142 333 20234 59019;EQDQ01  00002PRCP06
0167826780999992005010418004-06767-043017FM-12+013899999V0200901N001512200019N0040001N1+03501+02091100951ADDAA106000091GF103991021011008001001011MA1999999099401MD1999999-0201REMSYN070AAXX  04184 82678 32596 30903 10350 20209 39940 40095 82101 333 59020;EQDQ01  00002PRCP06
0179826780999992005010500004-06767-043017FM-12+013899999V0209999C000012200019N0002001N1+02961+02311100991ADDAA106000091GF100991001001999999001001MA1999999099441MD1999999-0611REMSYN082AAXX  05004 82678 32992 00000 10296 20231 39944 40099 333 10357 59061 55107 59020;EQDQ01  00002PRCP06
0173826780999992005010512004-06767-043017FM-12+013899999V0200501N001512200019N0040001N1+02941+02241101391ADDAA106000091GF103991021011008001001011MA1999999099831MD1999999-0021REMSYN076AAXX  05124 82678 32596 30503 10294 20224 39983 40139 82101 333 20244 59002;EQDQ01  00002PRCP06
0167826780999992005010518004-06767-043017FM-12+013899999V0201401N001012200019N0040001N1+03501+02051100911ADDAA106000091GF102991011031008001001011MA1999999099361MD1999999-0041REMSYN070AAXX  05184 82678 32596 21402 10350 20205 39936 40091 81301 333 59004;EQDQ01  00002PRCP06
0179826780999992005010600004-06767-043017FM-12+013899999V0209999C000012200019N0002001N1+02921+02361100941ADDAA106000091GF100991001001999999001001MA1999999099381MD1999999-0061REMSYN082AAXX  06004 82678 32992 00000 10292 20236 39938 40094 333 10366 29063 55105 59006;EQDQ01  00002PRCP06
0173826780999992005010612004-06767-043017FM-12+013899999V0200901N001012200019N0040001N1+03031+01831101351ADDAA106000091GF103991001001999999001011MA1999999099791MD1999999-0041REMSYN076AAXX  06124 82678 32996 30902 10303 20183 39979 40135 80001 333 20243 59004;EQDQ01  00002PRCP06
0167826780999992005010618004-06767-043017FM-12+013899999V0201401N003112200019N0040001N1+03601+01901100861ADDAA106000091GF102991021021008001001001MA1999999099311MD1999999-0051REMSYN070AAXX  06184 82678 32596 21406 10360 20190 39931 40086 82200 333 59005;EQDQ01  00002PRCP06
0179826780999992005010700004-06767-043017FM-12+013899999V0209999C000012200019N0002001N1+02761+01991100911ADDAA106000091GF100991001001999999001001MA1999999099351MD1999999-0031REMSYN082AAXX  07004 82678 32992 00000 10276 20199 39935 40091 333 10364 29053 55113 59003;EQDQ01  00002PRCP06
0173826780999992005010712004-06767-043017FM-12+013899999V0201401N005112200019N0040001N1+03001+01751101321ADDAA106000091GF103991001001999999001011MA1999999099761MD1999999-0031REMSYN076AAXX  07124 82678 32996 31410 10300 20175 39976 40132 80001 333 20232 59003;EQDQ01  00002PRCP06
0167826780999992005010718004-06767-043017FM-12+013899999V0200901N002112200019N0040001N1+03611+01721100891ADDAA106000091GF106991011021008001001011MA1999999099341MD1999999+0031REMSYN070AAXX  07184 82678 32596 60904 10361 20172 39934 40089 81201 333 58003;EQDQ01  00002PRCP06
0185826780999992005010800004-06767-043017FM-12+013899999V0202301N000512200019N0002001N1+02861+02161100921ADDAA106000091GF102991001001999999001011MA1999999099371MD1999999+0021REMSYN088AAXX  08004 82678 32992 22301 10286 20216 39937 40092 80001 333 10374 29053 55115 58002;EQDQ01  00002PRCP06
0167826780999992005010812004-06767-043017FM-12+013899999V0209999C000012200019N0040001N1+02981+02231101311ADDAA106000091GF100991001001999999001001MA1999999099751MD1999999-0011REMSYN070AAXX  08124 82678 32996 00000 10298 20223 39975 40131 333 20232 59001;EQDQ01  00002PRCP06
0167826780999992005010818004-06767-043017FM-12+013899999V0201401N001012200019N0040001N1+03641+01801100911ADDAA106000091GF103991021021008001001011MA1999999099361MD1999999+0021REMSYN070AAXX  08184 82678 32596 31402 10364 20180 39936 40091 82201 333 58002;EQDQ01  00002PRCP06
0179826780999992005010900004-06770-043020FM-12+012799999V0209999C000012200019N0002001N1+02961+02401101021ADDAA106000091GF100991001001999999001001MA1999999099461MD1999999-0091REMSYN082AAXX  09004 82678 32992 00000 10296 20240 39946 40102 333 10381 29060 55116 59009;EQDQ01  00002PRCP06
0173826780999992005010912004-06770-043020FM-12+012799999V0203201N001010075019N0040001N1+02701+02431101371ADDAA106000091GF108991081051008001999999MA1999999099801MD1999999+0051REMSYN076AAXX  09124 82678 32596 83202 10270 20243 39980 40137 885// 333 20232 58005;EQDQ01  00002PRCP06
0167826780999992005010918004-06770-043020FM-12+012799999V0202301N002110075019N0040001N1+02601+02331101091ADDAA106000091GF108991051051008001031999MA1999999099511MD1999999+0151REMSYN070AAXX  09184 82678 32596 82304 10260 20233 39951 40109 8553/ 333 58015;EQDQ01  00002PRCP06
0185826780999992005011000004-06767-043017FM-12+013899999V0201401N000512200019N0002001N1+02451+02271101071ADDAA106000091GF104991041021017501001001MA1999999099491MD1999999+0001REMSYN088AAXX  10004 82678 32792 41401 10245 20227 39949 40107 84200 333 10297 29088 55003 58000;EQDQ01  00002PRCP06
0173826780999992005011012004-06767-043017FM-12+013899999V0203201N001010075019N0040001N1+02691+02351101391ADDAA106000091GF108991061051008001001011MA1999999099801MD1999999+0001REMSYN076AAXX  10124 82678 32596 83202 10269 20235 39980 40139 86501 333 20230 58000;EQDQ01  00002PRCP06
0171826780999992005011018004-06767-043017FM-12+013899999V0202701N001510075019N0040001N1+02421+02281101111ADDAY161061AY221061GF108991061051008001021999MA1999999099511MD1999999+0001MW1291REMSYN082AAXX  10184 82678 21596 82703 10242 20228 39951 40111 72962 8652/ 333 58000 60031;
0185826780999992005011100004-06767-043017FM-12+013899999V0209999C000010075019N0002001N1+02441+02271101151ADDAA106000091GF108991081051008001999999MA1999999099571MD1999999+0081REMSYN088AAXX  11004 82678 32592 80000 10244 20227 39957 40115 885// 333 10293 29088 55008 58008;EQDQ01  00002PRCP06
0149826780999992005011112004-06767-043017FM-12+013899999V0202701N001012200019N0040001N1+02791+02211101381ADDGF104991011021008001031011MA1999999099801MD1999999+0001REMSYN082AAXX  11124 82678 22596 42702 10279 20221 39980 40138 81231 333 20228 58000 60034;
0167826780999992005011118004-06767-043017FM-12+013899999V0201801N001012200019N0040001N1+03331+02141100991ADDAA106000091GF104991021021008001001021MA1999999099431MD1999999-0081REMSYN070AAXX  11184 82678 32596 41802 10333 20214 39943 40099 82202 333 59008;EQDQ01  00002PRCP06
0185826780999992005011200004-06767-043017FM-12+013899999V0209999C000012200019N0002001N1+02961+02451101121ADDAA106000091GF103991021021008001001011MA1999999099561MD1999999-0011REMSYN088AAXX  12004 82678 32592 30000 10296 20245 39956 40112 82201 333 10355 29067 55096 59001;EQDQ01  00002PRCP06
0173826780999992005011212004-06767-043017FM-12+013899999V0200501N001010075019N0040001N1+02871+02311101281ADDAA106000091GF108991061051008001021999MA1999999099721MD1999999-0081REMSYN076AAXX  12124 82678 32596 80502 10287 20231 39972 40128 8652/ 333 20246 59008;EQDQ01  00002PRCP06
0167826780999992005011218004-06767-043017FM-12+013899999V0200501N001510075019N0040001N1+03421+02261100881ADDAA106000091GF108991051021008001001021MA1999999099321MD1999999-0111REMSYN070AAXX  12184 82678 32596 80503 10342 20226 39932 40088 85202 333 59011;EQDQ01  00002PRCP06
0179826780999992005011300004-06767-043017FM-12+013899999V0200501N001512200019N0002001N1+02661+02441101011ADDAA106000091GF100991001001999999001001MA1999999099451MD1999999-0111REMSYN082AAXX  13004 82678 32992 00503 10266 20244 39945 40101 333 10353 29070 55076 59011;EQDQ01  00002PRCP06
0177826780999992005011312004-06767-043017FM-12+013899999V0203201N001010075019N0040001N1+02551+02331101351ADDAY161061AY221061GF108991051051008001021999MA1999999099771MD1999999+0051MW1021REMSYN088AAXX  13124 82678 21596 83202 10255 20233 39977 40135 70262 8552/ 333 20250 58005 60054;
0171826780999992005011318004-06767-043017FM-12+013899999V0201401N001510450019N0040001N1+02651+02421101181ADDAY161061AY221061GF108991041051008001021999MA1999999099601MD1999999+0281MW1021REMSYN082AAXX  13184 82678 21596 81403 10265 20242 39960 40118 70262 8452/ 333 58028 69911;
0185826780999992005011400004-06767-043017FM-12+013899999V0202301N002110075019N0002001N1+02481+02321101281ADDAA106000091GF108991081051008001999999MA1999999099691MD1999999+0241REMSYN088AAXX  14004 82678 32592 82304 10248 20232 39969 40128 885// 333 10290 29090 55000 58024;EQDQ01  00002PRCP06
0149826780999992005011412004-06767-043017FM-12+013899999V0209999C000010450019N0040001N1+02581+02211101391ADDGF108991041031008001021011MA1999999099801MD1999999+0031REMSYN082AAXX  14124 82678 22596 80000 10258 20221 39980 40139 84321 333 20226 58003 69914;
0167826780999992005011418004-06767-043017FM-12+013899999V0201401N001511050019N0040001N1+02981+02421100931ADDAA106000091GF105991021051008001031011MA1999999099351MD1999999-0251REMSYN070AAXX  14184 82678 32596 51403 10298 20242 39935 40093 82531 333 59025;EQDQ01  00002PRCP06
0185826780999992005011500004-06767-043017FM-12+013899999V0203601N001510075019N0002001N1+02801+02381101181ADDAA106000091GF108991081041008001999999MA1999999099611MD1999999-0081REMSYN088AAXX  15004 82678 32592 83603 10280 20238 39961 40118 884// 333 10311 29077 55019 59008;EQDQ01  00002PRCP06
0149826780999992005011512004-06767-043017FM-12+013899999V0203601N000510450019N0040001N1+02581+02311101341ADDGF108991041041008001031021MA1999999099761MD1999999-0041REMSYN082AAXX  15124 82678 22596 83601 10258 20231 39976 40134 84432 333 20230 59004 69934;
0171826780999992005011518004-06767-043017FM-12+013899999V0203601N001010075019N0040001N1+02601+02331101101ADDAY161061AY221061GF108991061051008001021999MA1999999099511MD1999999+0161MW1021REMSYN082AAXX  15184 82678 21596 83602 10260 20233 39951 40110 70262 8652/ 333 58016 60051;
0189826780999992005011600004-06767-043017FM-12+013899999V0209999C000010075019N0002001N1+02501+02341101361ADDAY161061AY221061GF108991081051008001999999MA1999999099771MD1999999+0161MW1021REMSYN100AAXX  16004 82678 21592 80000 10250 20234 39977 40136 70262 885// 333 10303 29088 55009 58016 69911;
0149826780999992005011612004-06767-043017FM-12+013899999V0209999C000010075019N0040001N1+02441+02251101271ADDGF108991081051008001999999MA1999999099681MD1999999-0081REMSYN082AAXX  16124 82678 22596 80000 10244 20225 39968 40127 885// 333 20231 59008 60054;
0167826780999992005011618004-06767-043017FM-12+013899999V0200501N001510075019N0040001N1+03121+02331100811ADDAA106000091GF108991051021008001001021MA1999999099251MD1999999-0261REMSYN070AAXX  16184 82678 32596 80503 10312 20233 39925 40081 85202 333 59026;EQDQ01  00002PRCP06
0185826780999992005011700004-06770-043020FM-12+012799999V0200901N001012200019N0002001N1+02501+02291101031ADDAA106000091GF105991031021008001001011MA1999999099451MD1999999-0321REMSYN088AAXX  17004 82678 32592 50902 10250 20229 39945 40103 83201 333 10317 29082 55037 59032;EQDQ01  00002PRCP06
0177826780999992005011712004-06770-043020FM-12+012799999V0200501N001010075019N0040001N1+02561+02361101261ADDAY161061AY221061GF108991081051008001999999MA1999999099671MD1999999-0011MW1021REMSYN088AAXX  17124 82678 21596 80502 10256 20236 39967 40126 70262 885// 333 20234 59001 60024;
0167826780999992005011718004-06770-043020FM-12+012799999V0200501N001510450019N0040001N1+02961+02331100921ADDAA106000091GF108991031031008001051999MA1999999099351MD1999999+0101REMSYN070AAXX  17184 82678 32596 80503 10296 20233 39935 40092 8335/ 333 58010;EQDQ01  00002PRCP06
0185826780999992005011800004-06767-043017FM-12+013899999V0200901N001512200019N0002001N1+02661+02331101111ADDAA106000091GF103991021021008001001011MA1999999099531MD1999999+0081REMSYN088AAXX  18004 82678 32592 30903 10266 20233 39953 40111 82201 333 10307 29080 55019 58008;EQDQ01  00002PRCP06
0173826780999992005011812004-06767-043017FM-12+013899999V0201401N002110120019N0040001N1+02781+02301101151ADDAA106000091GF108991051081008001021011MA1999999099581MD1999999-0091REMSYN076AAXX  18124 82678 32596 81404 10278 20230 39958 40115 85821 333 20230 59009;EQDQ01  00002PRCP06
0167826780999992005011818004-06767-043017FM-12+013899999V0201401N001010450019N0040001N1+03301+02211100791ADDAA106000091GF107991041021008001031011MA1999999099231MD1999999-0121REMSYN070AAXX  18184 82678 32596 71402 10330 20221 39923 40079 84231 333 59012;EQDQ01  00002PRCP06
0185826780999992005011900004-06767-043017FM-12+013899999V0200501N001010450019N0002001N1+02841+02291101011ADDAA106000091GF108991031041008001031011MA1999999099451MD1999999-0081REMSYN088AAXX  19004 82678 32592 80502 10284 20229 39945 40101 83431 333 10348 29068 55075 59008;EQDQ01  00002PRCP06
0173826780999992005011912004-06767-043017FM-12+013899999V0201801N001010075019N0040001N1+02841+02311101271ADDAA106000091GF108991071051008001001011MA1999999099701MD1999999+0121REMSYN076AAXX  19124 82678 32596 81802 10284 20231 39970 40127 87501 333 20244 58012;EQDQ01  00002PRCP06
0171826780999992005011918004-06767-043017FM-12+013899999V0202301N001010450019N0040001N1+03001+02461100941ADDAY161061AY221061GF106991031021008001031011MA1999999099371MD1999999+0141MW1021REMSYN082AAXX  19184 82678 21596 62302 10300 20246 39937 40094 70262 83231 333 58014 60241;
0189826780999992005012000004-06767-043017FM-12+013899999V0200501N006710075019N0002001N1+02601+02101101371ADDAY121061AY221061GF108991081051008001999999MA1999999099791MD1999999+0341MW1601REMSYN100AAXX  20004 82678 21592 80513 10260 20210 39979 40137 76022 885// 333 10321 29074 55044 58034 69921;
0149826780999992005012012004-06767-043017FM-12+013899999V0200901N001510450019N0040001N1+02641+02341101391ADDGF108991041021008001031011MA1999999099811MD1999999+0111REMSYN082AAXX  20124 82678 22596 80903 10264 20234 39981 40139 84231 333 20214 58011 60344;
0167826780999992005012018004-06767-043017FM-12+013899999V0200501N001512200019N0040001N1+03221+02231101031ADDAA106000091GF104991031021008001001021MA1999999099461MD1999999+0091REMSYN070AAXX  20184 82678 32596 40503 10322 20223 39946 40103 83202 333 58009;EQDQ01  00002PRCP06
0189826780999992005012100004-06767-043017FM-12+013899999V0209999C000012200019N0002001N1+02381+02281101241ADDAY161061AY221061GF104991021031008001021011MA1999999099651MD1999999-0141MW1621REMSYN100AAXX  21004 82678 21592 40000 10238 20228 39965 40124 76262 82321 333 10339 29082 55076 59014 60081;
0149826780999992005012112004-06767-043017FM-12+013899999V0200901N001012200019N0040001N1+02821+02311101531ADDGF103991021011008001001011MA1999999099941MD1999999+0131REMSYN082AAXX  21124 82678 22596 30902 10282 20231 39994 40153 82101 333 20233 58013 60084;
0167826780999992005012118004-06767-043017FM-12+013899999V0200901N001512200019N0040001N1+03361+02211101131ADDAA106000091GF104991031021008001001011MA1999999099571MD1999999+0101REMSYN070AAXX  21184 82678 32596 40903 10336 20221 39957 40113 83201 333 58010;EQDQ01  00002PRCP06
0179826780999992005012200004-06767-043017FM-12+013899999V0209999C000012200019N0002001N1+02741+02501101191ADDAA106000091GF100991001001999999001001MA1999999099621MD1999999-0031REMSYN082AAXX  22004 82678 32992 00000 10274 20250 39962 40119 333 10342 29075 55083 59003;EQDQ01  00002PRCP06
0173826780999992005012212004-06767-043017FM-12+013899999V0202301N000510450019N0040001N1+02681+02391101471ADDAA106000091GF108991041051008001031021MA1999999099891MD1999999-0051REMSYN076AAXX  22124 82678 32596 82301 10268 20239 39989 40147 84532 333 20248 59005;EQDQ01  00002PRCP06
0167826780999992005012218004-06767-043017FM-12+013899999V0201401N000510120019N0040001N1+03291+02291101001ADDAA106000091GF108991051081008001021011MA1999999099441MD1999999-0131REMSYN070AAXX  22184 82678 32596 81401 10329 20229 39944 40100 85821 333 59013;EQDQ01  00002PRCP06
0185826780999992005012300004-06770-043020FM-12+012799999V0201401N001010075019N0002001N1+02681+02411101421ADDAA106000091GF108991051051008001021999MA1999999099841MD1999999+0221REMSYN088AAXX  23004 82678 32592 81402 10268 20241 39984 40142 8552/ 333 10339 29078 55039 58022;EQDQ01  00002PRCP06
0149826780999992005012312004-06770-043020FM-12+012799999V0209999C000010075019N0040001N1+02481+02191101761ADDGF108991081051008001999999MA1999999100171MD1999999+0281REMSYN082AAXX  23124 82678 22596 80000 10248 20219 30017 40176 885// 333 20220 58028 60224;
0143826780999992005012318004-06770-043020FM-12+012799999V0209999C000010075019N0040001N1+02701+02301101321ADDGF108991061051008001021999MA1999999099731MD1999999+0291REMSYN076AAXX  23184 82678 22596 80000 10270 20230 39973 40132 8652/ 333 58029 60021;
0185826780999992005012400004-06770-043020FM-12+012799999V0201801N000519999999N0002001N1+02461+02341101351ADDAA106000091GF106991001001999999001011MA1999999099761MD1999999-0081REMSYN088AAXX  24004 82678 32992 61801 10246 20234 39976 40135 80001 333 10275 29087 55002 59008;EQDQ01  00002PRCP06
0149826780999992005012412004-06770-043020FM-12+012799999V0203201N001010450019N0040001N1+02521+02361101541ADDGF105991031031008001021999MA1999999099951MD1999999-0221REMSYN082AAXX  24124 82678 22596 53202 10252 20236 39995 40154 8332/ 333 20224 59022 60024;
0167826780999992005012418004-06770-043020FM-12+012799999V0200501N001012200019N0040001N1+03301+02271100971ADDAA106000091GF104991021021008001001021MA1999999099411MD1999999-0321REMSYN070AAXX  24184 82678 32596 40502 10330 20227 39941 40097 82202 333 59032;EQDQ01  00002PRCP06
0185826780999992005012500004-06767-043017FM-12+013899999V0209999C000012200019N0040001N1+02801+02441101211ADDAA106000091GF105991031021008001001011MA1999999099631MD1999999-0131REMSYN088AAXX  25004 82678 32596 50000 10280 20244 39963 40121 83201 333 10345 29077 55087 59013;EQDQ01  00002PRCP06
0173826780999992005012512004-06767-043017FM-12+013899999V0200501N001010450019N0040001N1+02701+02431101421ADDAA106000091GF108991041051008001021999MA1999999099851MD1999999-0101REMSYN076AAXX  25124 82678 32596 80502 10270 20243 39985 40142 8452/ 333 20244 59010;EQDQ01  00002PRCP06
0171826780999992005012518004-06767-043017FM-12+013899999V0209999C000010075019N0040001N1+03181+02411100961ADDAY161061AY221061GF108991051051008001031011MA1999999099401MD1999999-0011MW1021REMSYN082AAXX  25184 82678 21596 80000 10318 20241 39940 40096 70262 85531 333 59001 69961;
0189826780999992005012600004-06767-043017FM-12+013899999V0209999C000010075019N0002001N1+02441+02341101501ADDAY161061AY221061GF108991081051008001999999MA1999999099911MD1999999+0281MW1621REMSYN100AAXX  26004 82678 21592 80000 10244 20234 39991 40150 76262 885// 333 10333 29085 55055 58028 60081;
0177826780999992005012612004-06767-043017FM-12+013899999V0200901N001510075019N0040001N1+02441+02341101661ADDAY161061AY221061GF108991061051008001021999MA1999999100061MD1999999+0211MW1021REMSYN088AAXX  26124 82678 21596 80903 10244 20234 30006 40166 70262 8652/ 333 20243 58021 60124;
0167826780999992005012618004-06767-043017FM-12+013899999V0203201N001010450019N0040001N1+02761+02231101261ADDAA106000091GF108991041051008001021021MA1999999099681MD1999999+0281REMSYN070AAXX  26184 82678 32596 83202 10276 20223 39968 40126 84522 333 58028;EQDQ01  00002PRCP06
0185826780999992005012700004-06767-043017FM-12+013899999V0202701N000512200019N0002001N1+02541+02381101451ADDAA106000091GF108991021001017501031011MA1999999099861MD1999999-0051REMSYN088AAXX  27004 82678 32792 82701 10254 20238 39986 40145 82031 333 10291 29087 55009 59005;EQDQ01  00002PRCP06
0173826780999992005012712004-06767-043017FM-12+013899999V0200501N000510450019N0040001N1+02721+02451101521ADDAA106000091GF107991021041008001031021MA1999999099941MD1999999-0121REMSYN076AAXX  27124 82678 32596 70501 10272 20245 39994 40152 82432 333 20232 59012;EQDQ01  00002PRCP06
0167826780999992005012718004-06767-043017FM-12+013899999V0200501N001010450019N0040001N1+03341+02251101081ADDAA106000091GF107991031031008001021021MA1999999099521MD1999999-0161REMSYN070AAXX  27184 82678 32596 70502 10334 20225 39952 40108 83322 333 59016;EQDQ01  00002PRCP06
0189826780999992005012800004-06767-043017FM-12+013899999V0202701N000512200019N0002001N1+02541+02441101211ADDAY161061AY291061GF106991011001017501031011MA1999999099631MD1999999-0231MW1021REMSYN100AAXX  28004 82678 21792 62701 10254 20244 39963 40121 70269 81031 333 10343 29082 55069 59023 60121;
0149826780999992005012812004-06767-043017FM-12+013899999V0200901N000510075019N0040001N1+02681+02281101491ADDGF108991051051008001001021MA1999999099901MD1999999-0041REMSYN082AAXX  28124 82678 22596 80901 10268 20228 39990 40149 85502 333 20236 59004 60124;
0167826780999992005012818004-06767-043017FM-12+013899999V0201401N001510075019N0040001N1+03261+02301101041ADDAA106000091GF106991061051008001001001MA1999999099471MD1999999-0051REMSYN070AAXX  28184 82678 32596 61403 10326 20230 39947 40104 86500 333 59005;EQDQ01  00002PRCP06
0179826780999992005012900004-06767-043017FM-12+013899999V0209999C000012200019N0002001N1+02781+02421100921ADDAA106000091GF100991001001999999001001MA1999999099351MD1999999-0281REMSYN082AAXX  29004 82678 32992 00000 10278 20242 39935 40092 333 10331 29074 55083 59028;EQDQ01  00002PRCP06
0177826780999992005012912004-06767-043017FM-12+013899999V0200501N000510450019N0040001N1+02611+02371101191ADDAY161061AY221061GF108991041081008001031011MA1999999099621MD1999999-0281MW1021REMSYN088AAXX  29124 82678 21596 80501 10261 20237 39962 40119 70262 84831 333 20236 59028 60304;
0167826780999992005012918004-06767-043017FM-12+013899999V0203601N001010120019N0040001N1+03201+02331100841ADDAA106000091GF108991061081008001031011MA1999999099281MD1999999-0191REMSYN070AAXX  29184 82678 32596 83602 10320 20233 39928 40084 86831 333 59019;EQDQ01  00002PRCP06
0185826780999992005013000004-06770-043020FM-12+012799999V0200901N000512200019N0002001N1+02621+02291100981ADDAA106000091GF104991041041008001001001MA1999999099401MD1999999+0051REMSYN088AAXX  30004 82678 32592 40901 10262 20229 39940 40098 84400 333 10331 29078 55060 58005;EQDQ01  00002PRCP06
0173826780999992005013012004-06770-043020FM-12+012799999V0200501N000510075019N0040001N1+02641+02331101171ADDAA106000091GF108991061051008001001011MA1999999099591MD1999999-0031REMSYN076AAXX  30124 82678 32596 80501 10264 20233 39959 40117 86501 333 20236 59003;EQDQ01  00002PRCP06
0167826780999992005013018004-06770-043020FM-12+012799999V0203201N000510120019N0040001N1+03001+02291100851ADDAA106000091GF108991051081008001021021MA1999999099281MD1999999+0001REMSYN070AAXX  30184 82678 32596 83201 10300 20229 39928 40085 85822 333 58000;EQDQ01  00002PRCP06
0202826780999992005013100004-06767-043017FM-12+013899999V0201401N001010075019N0002001N1+02321+02181100971ADDAY161061AY221061GF108991081051008001999999KA1240M+03151MA1999999099391MD1999999-0011MW1021REMSYN100AAXX  31004 82678 21592 81402 10232 20218 39939 40097 70262 885// 333 10315 29083 55029 59001 60071;
0162826780999992005013112004-06767-043017FM-12+013899999V0201401N001510075019N0040001N1+02661+02371101241ADDGF108991061041008001001021KA1240N+02271MA1999999099651MD1999999+0061REMSYN082AAXX  31124 82678 22596 81403 10266 20237 39965 40124 86402 333 20227 58006 60074;
0171826780999992005013118004-06767-043017FM-12+013899999V0200501N001512200019N0040001N1+03201+02351100791ADDAY161061AY221061GF105991031021008001001011MA1999999099231MD1999999-0051MW1021REMSYN082AAXX  31184 82678 21596 50503 10320 20235 39923 40079 70262 83201 333 59005 69981;
0179826780999992005020100004-06767-043017FM-12+013899999V0201801N000512200019N0002001N1+02671+02391100921ADDAA106000091GF100991001001999999001001MA1999999099351MD1999999-0041REMSYN082AAXX  01004 82678 32992 01801 10267 20239 39935 40092 333 10331 29079 55060 59004;EQDQ01  00002PRCP06
0149826780999992005020112004-06767-043017FM-12+013899999V0202701N001510075019N0040001N1+02821+02361101121ADDGF108991051031008001001021MA1999999099551MD1999999-0101REMSYN082AAXX  01124 82678 22596 82703 10282 20236 39955 40112 85302 333 20282 59010 69984;
0167826780999992005020118004-06767-043017FM-12+013899999V0200901N002110450019N0040001N1+03261+02521100811ADDAA106000091GF108991041031008001021011MA1999999099251MD1999999+0021REMSYN070AAXX  01184 82678 32596 80904 10326 20252 39925 40081 84321 333 58002;EQDQ01  00002PRCP06
0179826780999992005020200004-06767-043017FM-12+013899999V0209999C000012200019N0002001N1+02681+02481100971ADDAA106000091GF100991001001999999001001MA1999999099401MD1999999+0051REMSYN082AAXX  02004 82678 32992 00000 10268 20248 39940 40097 333 10335 29080 55054 58005;EQDQ01  00002PRCP06
0173826780999992005020212004-06767-043017FM-12+013899999V0209999C000010075019N0040001N1+02721+02391101121ADDAA106000091GF108991051041008001001021MA1999999099551MD1999999+0001REMSYN076AAXX  02124 82678 32596 80000 10272 20239 39955 40112 85402 333 20234 58000;EQDQ01  00002PRCP06
0167826780999992005020218004-06767-043017FM-12+013899999V0201401N002610075019N0040001N1+03361+02301100781ADDAA106000091GF108991061021008001001021MA1999999099231MD1999999-0021REMSYN070AAXX  02184 82678 32596 81405 10336 20230 39923 40078 86202 333 59002;EQDQ01  00002PRCP06
0179826780999992005020300004-06767-043017FM-12+013899999V0209999C000012200019N0002001N1+02781+02421100991ADDAA106000091GF100991001001999999001001MA1999999099421MD1999999+0021REMSYN082AAXX  03004 82678 32792 00000 10278 20242 39942 40099 333 10345 29074 55077 58002;EQDQ01  00002PRCP06
0173826780999992005020312004-06767-043017FM-12+013899999V0200501N001010450019N0040001N1+02931+02391101251ADDAA106000091GF108991021041008001031011MA1999999099661MD1999999+0131REMSYN076AAXX  03124 82678 32596 80502 10293 20239 39966 40125 82431 333 20254 58013;EQDQ01  00002PRCP06
0171826780999992005020318004-06767-043017FM-12+013899999V0203201N002110120019N0040001N1+02531+02231100991ADDAY161061AY221061GF108991061081008001031011MA1999999099411MD1999999+0181MW1291REMSYN082AAXX  03184 82678 21596 83204 10253 20223 39941 40099 72962 86831 333 58018 60031;
0185826780999992005020400004-06767-043017FM-12+013899999V0201801N001010075019N0002001N1+02621+02371101171ADDAA106000091GF108991051051008001021999MA1999999099801MD1999999+0191REMSYN088AAXX  04004 82678 32592 81802 10262 20237 39980 40117 8552/ 333 10338 29082 55082 58019;EQDQ01  00002PRCP06
0149826780999992005020412004-06767-043017FM-12+013899999V0209999C000010075019N0040001N1+02661+02411101521ADDGF108991061051008001021999MA1999999099941MD1999999+0201REMSYN082AAXX  04124 82678 22596 80000 10266 20241 39994 40152 8652/ 333 20240 58020 60034;
0167826780999992005020418004-06767-043017FM-12+013899999V0201401N001510450019N0040001N1+03101+02461101171ADDAA106000091GF108991041051008001031021MA1999999099591MD1999999+0181REMSYN070AAXX  04184 82678 32596 81403 10310 20246 39959 40117 84532 333 58018;EQDQ01  00002PRCP06
0179826780999992005020500004-06767-043017FM-12+013899999V0209999C000012200019N0002001N1+02701+02371101341ADDAA106000091GF100991001001999999001001MA1999999099761MD1999999+0161REMSYN082AAXX  05004 82678 32992 00000 10270 20237 39976 40134 333 10321 29080 55028 58016;EQDQ01  00002PRCP06
0173826780999992005020512004-06767-043017FM-12+013899999V0200901N000512200019N0040001N1+02621+02311101591ADDAA106000091GF104991011011008001031001MA1999999100011MD1999999+0071REMSYN076AAXX  05124 82678 32596 40901 10262 20231 30001 40159 81130 333 20224 58007;EQDQ01  00002PRCP06
0167826780999992005020518004-06767-043017FM-12+013899999V0202701N000512200019N0040001N1+03321+02351101241ADDAA106000091GF105991041021008001001011MA1999999099671MD1999999+0081REMSYN070AAXX  05184 82678 32596 52701 10332 20235 39967 40124 84201 333 58008;EQDQ01  00002PRCP06
0179826780999992005020600004-06770-043020FM-12+012799999V0209999C000012200019N0002001N1+02781+02461101221ADDAA106000091GF100991001001999999001001MA1999999099651MD1999999-0111REMSYN082AAXX  06004 82678 32992 00000 10278 20246 39965 40122 333 10339 29076 55094 59011;EQDQ01  00002PRCP06
0173826780999992005020612004-06770-043020FM-12+012799999V0200501N000512200019N0040001N1+02741+02301101461ADDAA106000091GF102991011011008001001011MA1999999099881MD1999999-0131REMSYN076AAXX  06124 82678 32596 20501 10274 20230 39988 40146 81101 333 20232 59013;EQDQ01  00002PRCP06
0167826780999992005020618004-06770-043020FM-12+012799999V0200901N001512200019N0040001N1+03381+02221101051ADDAA106000091GF103991031011008001001001MA1999999099491MD1999999-0181REMSYN070AAXX  06184 82678 32596 30903 10338 20222 39949 40105 83100 333 59018;EQDQ01  00002PRCP06
0179826780999992005020700004-06767-043017FM-12+013899999V0209999C000012200019N0002001N1+02801+02481100951ADDAA106000091GF100991001001999999001001MA1999999099381MD1999999-0271REMSYN082AAXX  07004 82678 32992 00000 10280 20248 39938 40095 333 10347 29074 55108 59027;EQDQ01  00002PRCP06
0173826780999992005020712004-06767-043017FM-12+013899999V0200501N001012200019N0040001N1+02681+02431101321ADDAA106000091GF108991041021008001001011MA1999999099751MD1999999-0131REMSYN076AAXX  07124 82678 32596 80502 10268 20243 39975 40132 84201 333 20231 59013;EQDQ01  00002PRCP06
0167826780999992005020718004-06767-043017FM-12+013899999V0200501N001012200019N0040001N1+03361+02391100981ADDAA106000091GF103991021011008001001011MA1999999099421MD1999999-0071REMSYN070AAXX  07184 82678 32596 30502 10336 20239 39942 40098 82101 333 59007;EQDQ01  00002PRCP06
0179826780999992005020800004-06767-043017FM-12+013899999V0209999C000012200019N0002001N1+02811+02401100991ADDAA106000091GF100991001001999999001001MA1999999099421MD1999999+0041REMSYN082AAXX  08004 82678 32992 00000 10281 20240 39942 40099 333 10353 29075 55082 58004;EQDQ01  00002PRCP06
0173826780999992005020812004-06767-043017FM-12+013899999V0200901N001010075019N0040001N1+02821+02241101261ADDAA106000091GF108991051011008001001011MA1999999099691MD1999999-0061REMSYN076AAXX  08124 82678 32596 80902 10282 20224 39969 40126 85101 333 20232 59006;EQDQ01  00002PRCP06
0167826780999992005020818004-06767-043017FM-12+013899999V0200901N002112200019N0040001N1+03401+02071100971ADDAA106000091GF105991031021008001001011MA1999999099401MD1999999-0021REMSYN070AAXX  08184 82678 32596 50904 10340 20207 39940 40097 83201 333 59002;EQDQ01  00002PRCP06
0179826780999992005020900004-06767-043017FM-12+013899999V0200501N002112200019N0002001N1+02801+02361101081ADDAA106000091GF100991001001999999001001MA1999999099511MD1999999+0091REMSYN082AAXX  09004 82678 32592 00504 10280 20236 39951 40108 333 10349 29068 55107 58009;EQDQ01  00002PRCP06
0177826780999992005020912004-06767-043017FM-12+013899999V0201801N000510075019N0040001N1+02441+02351101321ADDAY161061AY221061GF108991081051008001999999MA1999999099741MD1999999+0051MW1031REMSYN088AAXX  09124 82678 21596 81801 10244 20235 39974 40132 70362 885// 333 20222 58005 60174;
0167826780999992005020918004-06767-043017FM-12+013899999V0200501N001510075019N0040001N1+03061+02471101021ADDAA106000091GF108991071051008001031999MA1999999099451MD1999999+0051REMSYN070AAXX  09184 82678 32596 80503 10306 20247 39945 40102 8753/ 333 58005;EQDQ01  00002PRCP06
0185826780999992005021000004-06767-043017FM-12+013899999V0209999C000012200019N0002001N1+02621+02371101031ADDAA106000091GF104991041001017501031001MA1999999099451MD1999999-0061REMSYN088AAXX  10004 82678 32792 40000 10262 20237 39945 40103 84030 333 10311 29084 55045 59006;EQDQ01  00002PRCP06
0177826780999992005021012004-06767-043017FM-12+013899999V0200901N001510075019N0040001N1+02401+02331101301ADDAY161061AY221061GF108991051051008001021999MA1999999099711MD1999999-0031MW1611REMSYN088AAXX  10124 82678 21596 80903 10240 20233 39971 40130 76162 8552/ 333 20234 59003 60034;
0171826780999992005021018004-06767-043017FM-12+013899999V0201401N001010075019N0040001N1+03221+02371100851ADDAY161061AY221061GF106991051051008001031001MA1999999099291MD1999999-0161MW1021REMSYN082AAXX  10184 82678 21596 61402 10322 20237 39929 40085 70262 85530 333 59016 69961;
0189826780999992005021100004-06767-043017FM-12+013899999V0209999C000010075019N0002001N1+02501+02411101041ADDAY161061AY221061GF107991071051008001001001MA1999999099451MD1999999+0001MW1021REMSYN100AAXX  11004 82678 21592 70000 10250 20241 39945 40104 70262 87500 333 10338 29087 55038 58000 60061;
0149826780999992005021112004-06767-043017FM-12+013899999V0200501N001010075019N0040001N1+02621+02371101351ADDGF108991051051008001021999MA1999999099761MD1999999+0051REMSYN082AAXX  11124 82678 22596 80502 10262 20237 39976 40135 8552/ 333 20232 58005 60074;
0167826780999992005021118004-06767-043017FM-12+013899999V0200501N001011050019N0040001N1+03221+02371100881ADDAA106000091GF105991031021008001001021MA1999999099321MD1999999+0031REMSYN070AAXX  11184 82678 32596 50502 10322 20237 39932 40088 83202 333 58003;EQDQ01  00002PRCP06
0185826780999992005021200004-06767-043017FM-12+013899999V0209999C000012200019N0002001N1+02781+02501101121ADDAA106000091GF103991021021008001001011MA1999999099551MD1999999+0101REMSYN088AAXX  12004 82678 32592 30000 10278 20250 39955 40112 82201 333 10335 29079 55064 58010;EQDQ01  00002PRCP06
0177826780999992005021212004-06767-043017FM-12+013899999V0203601N001010075019N0040001N1+02381+02331101341ADDAY161061AY211061GF108991081051008001999999MA1999999099761MD1999999+0001MW1611REMSYN088AAXX  12124 82678 21596 83602 10238 20233 39976 40134 76161 885// 333 20232 58000 60064;
0171826780999992005021218004-06767-043017FM-12+013899999V0201401N001510075019N0040001N1+02521+02381101211ADDAY161061AY211061GF108991081051008001999999MA1999999099611MD1999999+0291MW1611REMSYN082AAXX  12184 82678 21596 81403 10252 20238 39961 40121 76161 885// 333 58029 60061;
0166826780999992005021300004-06770-043020FM-12+012799999V0209999C000010075019N0002001N1+02521+02311101371ADDAA106000021GF108991081051008001999999MA1999999099781MD1999999+0231REMSYN088AAXX  13004 82678 32592 80000 10252 20231 39978 40137 885// 333 10290 29091 55000 58023;
0149826780999992005021312004-06770-043020FM-12+012799999V0200901N001010075019N0040001N1+02621+02371101471ADDGF108991051031008001001021MA1999999099881MD1999999+0121REMSYN082AAXX  13124 82678 22596 80902 10262 20237 39988 40147 85302 333 20232 58012 60064;
0167826780999992005021318004-06770-043020FM-12+012799999V0203601N001010075019N0040001N1+03241+02441101021ADDAA106000091GF108991051051008001021999MA1999999099451MD1999999-0161REMSYN070AAXX  13184 82678 32596 83602 10324 20244 39945 40102 8552/ 333 59016;EQDQ01  00002PRCP06
0185826780999992005021400004-06767-043017FM-12+013899999V0202701N001010075019N0002001N1+02581+02331101261ADDAA106000091GF108991051031008001021011MA1999999099681MD1999999-0101REMSYN088AAXX  14004 82678 32592 82702 10258 20233 39968 40126 85321 333 10330 29080 55060 59010;EQDQ01  00002PRCP06
0173826780999992005021412004-06767-043017FM-12+013899999V0200501N002110450019N0040001N1+02581+02381101411ADDAA106000091GF108991041051008001031001MA1999999099831MD1999999+0051REMSYN076AAXX  14124 82678 32596 80504 10258 20238 39983 40141 84530 333 20228 58005;EQDQ01  00002PRCP06
0167826780999992005021418004-06767-043017FM-12+013899999V0200501N001510075019N0040001N1+03181+02331100931ADDAA106000091GF106991051051008001001021MA1999999099371MD1999999-0081REMSYN070AAXX  14184 82678 32596 60503 10318 20233 39937 40093 85502 333 59008;EQDQ01  00002PRCP06
0185826780999992005021500004-06767-043017FM-12+013899999V0202701N000510075019N0002001N1+02741+02471101121ADDAA106000091GF108991061051008001021999MA1999999099541MD1999999-0141REMSYN088AAXX  15004 82678 32592 82701 10274 20247 39954 40112 8652/ 333 10327 29080 55055 59014;EQDQ01  00002PRCP06
0177826780999992005021512004-06767-043017FM-12+013899999V0200501N001510075019N0040001N1+02301+02251101411ADDAY161061AY261061GF108991081051008001999999MA1999999099821MD1999999-0011MW1611REMSYN088AAXX  15124 82678 21596 80503 10230 20225 39982 40141 76166 885// 333 20226 59001 60264;
0171826780999992005021518004-06767-043017FM-12+013899999V0200501N001510075019N0040001N1+02821+02421100901ADDAY161061AY221061GF108991051051008001031011MA1999999099331MD1999999-0041MW1021REMSYN082AAXX  15184 82678 21596 80503 10282 20242 39933 40090 70262 85531 333 59004 60061;
0185826780999992005021600004-06767-043017FM-12+013899999V0209999C000012200019N0002001N1+02601+02481101111ADDAA106000091GF104991021031008001001011MA1999999099521MD1999999-0021REMSYN088AAXX  16004 82678 32592 40000 10260 20248 39952 40111 82301 333 10297 29090 55016 59002;EQDQ01  00002PRCP06
0177826780999992005021612004-06767-043017FM-12+013899999V0209999C000010075019N0040001N1+02501+02311101271ADDAY161061AY221061GF108991081051008001999999MA1999999099681MD1999999-0141MW1021REMSYN088AAXX  16124 82678 21596 80000 10250 20231 39968 40127 70262 885// 333 20224 59014 60074;
0167826780999992005021618004-06767-043017FM-12+013899999V0203201N001010075019N0040001N1+02921+02521100841ADDAA106000091GF108991051051008001001021MA1999999099271MD1999999-0061REMSYN070AAXX  16184 82678 32596 83202 10292 20252 39927 40084 85502 333 59006;EQDQ01  00002PRCP06
0155826780999992005021700004-06767-043017FM-12+013899999V0209999C000019999999N0002001N1+02701+99999999999ADDAA106000091GF105991999999008001999999REMSYN087AAXX  17004 82678 32592 50000 10270 2050 39956 40114 82532 333 10315 29086 55036 58004;EQDQ01  00002PRCP06
0177826780999992005021712004-06767-043017FM-12+013899999V0201401N001510075019N0040001N1+02461+02321101461ADDAY161061AY261061GF108991051051008001031001MA1999999099871MD1999999+0191MW1611REMSYN088AAXX  17124 82678 21596 81403 10246 20232 39987 40146 76166 85530 333 20224 58019 60204;
0148826780999992005021718004-06767-043017FM-12+013899999V0202701N001010450019N0040001N1+03021+02411101071ADDAA106000021GF108991041051008001021001MA1999999099491MD1999999+0221REMSYN070AAXX  17184 82678 32596 82702 10302 20241 39949 40107 84520 333 58022;
0185826780999992005021800004-06767-043017FM-12+013899999V0209999C000010075019N0002001N1+02561+02401101291ADDAA106000091GF108991081051008001999999MA1999999099701MD1999999+0101REMSYN088AAXX  18004 82678 32592 80000 10256 20240 39970 40129 885// 333 10323 29086 55010 58010;EQDQ01  00002PRCP06
0173826780999992005021812004-06767-043017FM-12+013899999V0201401N001010075019N0040001N1+02721+02431101481ADDAA106000091GF108991061051008001031021MA1999999099901MD1999999+0031REMSYN076AAXX  18124 82678 32596 81402 10272 20243 39990 40148 86532 333 20244 58003;EQDQ01  00002PRCP06
0167826780999992005021818004-06767-043017FM-12+013899999V0201801N000510075019N0040001N1+03161+02501101131ADDAA106000091GF107991051051008001001021MA1999999099571MD1999999+0081REMSYN070AAXX  18184 82678 32596 71801 10316 20250 39957 40113 85502 333 58008;EQDQ01  00002PRCP06
0185826780999992005021900004-06767-043017FM-12+013899999V0209999C000011050019N0040001N1+02721+02581101261ADDAA106000091GF106991041051008001001021MA1999999099681MD1999999-0021REMSYN088AAXX  19004 82678 32596 60000 10272 20258 39968 40126 84502 333 10320 29084 55012 59002;EQDQ01  00002PRCP06
0173826780999992005021912004-06767-043017FM-12+013899999V0200501N001011050019N0040001N1+02761+02341101351ADDAA106000091GF106991031001017501031021MA1999999099781MD1999999-0121REMSYN076AAXX  19124 82678 32796 60502 10276 20234 39978 40135 83032 333 20234 59012;EQDQ01  00002PRCP06
0167826780999992005021918004-06767-043017FM-12+013899999V0200901N002610075019N0040001N1+03321+02291101041ADDAA106000091GF105991051011008001001001MA1999999099481MD1999999-0091REMSYN070AAXX  19184 82678 32596 50905 10332 20229 39948 40104 85100 333 59009;EQDQ01  00002PRCP06
0185826780999992005022000004-06770-043020FM-12+012799999V0209999C000012200019N0002001N1+02761+02441101101ADDAA106000091GF103991021001017501031011MA1999999099531MD1999999-0151REMSYN088AAXX  20004 82678 32792 30000 10276 20244 39953 40110 82031 333 10341 29075 55106 59015;EQDQ01  00002PRCP06
0173826780999992005022012004-06770-043020FM-12+012799999V0200901N000511050019N0040001N1+02801+02271101321ADDAA106000091GF106991031001017501031021MA1999999099751MD1999999-0031REMSYN076AAXX  20124 82678 32796 60901 10280 20227 39975 40132 83032 333 20236 59003;EQDQ01  00002PRCP06
0167826780999992005022018004-06770-043020FM-12+012799999V0201401N000511050019N0040001N1+03401+02271100911ADDAA106000091GF105991031021008001001021MA1999999099361MD1999999-0121REMSYN070AAXX  20184 82678 32596 51401 10340 20227 39936 40091 83202 333 59012;EQDQ01  00002PRCP06
0185826780999992005022100004-06767-043017FM-12+013899999V0209999C000012200019N0002001N1+02821+02541100911ADDAA106000091GF103991021001017501031011MA1999999099351MD1999999-0181REMSYN088AAXX  21004 82678 32792 30000 10282 20254 39935 40091 82031 333 10347 29074 55105 59018;EQDQ01  00002PRCP06
0173826780999992005022112004-06767-043017FM-12+013899999V0203201N000510075019N0040001N1+02741+02471101241ADDAA106000091GF106991061051008001001001MA1999999099671MD1999999-0081REMSYN076AAXX  21124 82678 32596 63201 10274 20247 39967 40124 86500 333 20241 59008;EQDQ01  00002PRCP06
0167826780999992005022118004-06767-043017FM-12+013899999V0202701N001510075019N0040001N1+03241+02551100761ADDAA106000091GF107991051051008001001021MA1999999099201MD1999999-0161REMSYN070AAXX  21184 82678 32596 72703 10324 20255 39920 40076 85502 333 59016;EQDQ01  00002PRCP06
0185826780999992005022200004-06767-043017FM-12+013899999V0209999C000010075019N0002001N1+02681+02461100961ADDAA106000091GF108991051051008001001021MA1999999099391MD1999999+0041REMSYN088AAXX  22004 82678 32592 80000 10268 20246 39939 40096 85502 333 10341 29082 55059 58004;EQDQ01  00002PRCP06
0177826780999992005022212004-06767-043017FM-12+013899999V0200901N001010075019N0040001N1+02321+02251101501ADDAY161061AY221061GF108991081051008001999999MA1999999099911MD1999999+0241MW1031REMSYN088AAXX  22124 82678 21596 80902 10232 20225 39991 40150 70362 885// 333 20218 58024 60404;
0171826780999992005022218004-06767-043017FM-12+013899999V0202701N000510075019N0040001N1+02681+02331101151ADDAY161061AY221061GF108991081051008001999999MA1999999099571MD1999999+0371MW1021REMSYN082AAXX  22184 82678 21596 82701 10268 20233 39957 40115 70262 885// 333 58037 60051;
0185826780999992005022300004-06767-043017FM-12+013899999V0209999C000010075019N0002001N1+02501+02311101371ADDAA106000091GF108991071051008001021999MA1999999099771MD1999999+0381REMSYN088AAXX  23004 82678 32592 80000 10250 20231 39977 40137 8752/ 333 10277 29089 55000 58038;EQDQ01  00002PRCP06
0149826780999992005022312004-06767-043017FM-12+013899999V0209999C000010075019N0040001N1+02561+02351101511ADDGF108991051051008001001021MA1999999099921MD1999999+0011REMSYN082AAXX  23124 82678 22596 80000 10256 20235 39992 40151 85502 333 20231 58001 60054;
0167826780999992005022318004-06767-043017FM-12+013899999V0209999C000010450019N0200001N1+03021+02461101191ADDAA106000091GF108991041051008001021999MA1999999099611MD1999999+0041REMSYN070AAXX  23184 82678 32598 80000 10302 20246 39961 40119 8452/ 333 58004;EQDQ01  00002PRCP06
0185826780999992005022400004-06767-043017FM-12+013899999V0209999C000011050019N0002001N1+02581+02381101451ADDAA106000091GF108991041051008001001021MA1999999099861MD1999999+0091REMSYN088AAXX  24004 82678 32592 80000 10258 20238 39986 40145 84502 333 10309 29084 55013 58009;EQDQ01  00002PRCP06
0177826780999992005022412004-06767-043017FM-12+013899999V0209999C000010075019N0040001N1+02501+02361101631ADDAY161061AY221061GF108991051031008001001021MA1999999100041MD1999999+0121MW1021REMSYN088AAXX  24124 82678 21596 80000 10250 20236 30004 40163 70262 85302 333 20221 58012 60204;
0167826780999992005022418004-06767-043017FM-12+013899999V0203601N001510075019N0040001N1+02961+02471101231ADDAA106000091GF108991081051008001999999MA1999999099651MD1999999+0041REMSYN070AAXX  24184 82678 32596 83603 10296 20247 39965 40123 885// 333 58004;EQDQ01  00002PRCP06
0185826780999992005022500004-06767-043017FM-12+013899999V0202301N001012200019N0040001N1+02581+02421101401ADDAA106000091GF105991031031008001001011MA1999999099811MD1999999-0051REMSYN088AAXX  25004 82678 32596 52302 10258 20242 39981 40140 83301 333 10313 29087 55043 59005;EQDQ01  00002PRCP06
0173826780999992005022512004-06767-043017FM-12+013899999V0201401N000512200019N0040001N1+02641+02391101551ADDAA106000091GF106991041011008001001011MA1999999099961MD1999999-0081REMSYN076AAXX  25124 82678 32596 61401 10264 20239 39996 40155 84101 333 20230 59008;EQDQ01  00002PRCP06
0167826780999992005022518004-06767-043017FM-12+013899999V0201401N000510075019N0040001N1+03341+02461101121ADDAA106000091GF105991051021008001001001MA1999999099551MD1999999-0101REMSYN070AAXX  25184 82678 32596 51401 10334 20246 39955 40112 85200 333 59010;EQDQ01  00002PRCP06
0179826780999992005022600004-06767-043017FM-12+013899999V0209999C000012200019N0002001N1+02781+02601101111ADDAA106000091GF100991001001999999001001MA1999999099541MD1999999-0271REMSYN082AAXX  26004 82678 32992 00000 10278 20260 39954 40111 333 10337 29082 55101 59027;EQDQ01  00002PRCP06
0173826780999992005022612004-06767-043017FM-12+013899999V0202701N000512200019N0040001N1+02761+02341101311ADDAA106000091GF103991031001017501031001MA1999999099741MD1999999-0221REMSYN076AAXX  26124 82678 32796 32701 10276 20234 39974 40131 83030 333 20234 59022;EQDQ01  00002PRCP06
0167826780999992005022618004-06767-043017FM-12+013899999V0203601N000510075019N0040001N1+03341+02461101021ADDAA106000091GF106991061051008001001001MA1999999099461MD1999999-0101REMSYN070AAXX  26184 82678 32596 63601 10334 20246 39946 40102 86500 333 59010;EQDQ01  00002PRCP06
0189826780999992005022700004-06770-043020FM-12+012799999V0209999C000012200019N0002001N1+02681+02481101121ADDAY161061AY221061GF104991041001017501031001MA1999999099551MD1999999+0011MW1011REMSYN100AAXX  27004 82678 21792 40000 10268 20248 39955 40112 70162 84030 333 10341 29079 55100 58001 60021;
0177826780999992005022712004-06770-043020FM-12+012799999V0200501N002110075019N0040001N1+02801+02361101381ADDAY161061AY221061GF108991051031008001001021MA1999999099811MD1999999+0071MW1021REMSYN088AAXX  27124 82678 21596 80504 10280 20236 39981 40138 70262 85302 333 20240 58007 60034;
0186826780999992005022812004-06767-043017FM-12+013899999V0200501N001012200019N0040001N1+02781+02421101531ADDAA106000091GF105991041021008001001011KA1240N+02421MA1999999099951MD1999999+0141REMSYN076AAXX  28124 82678 32596 50502 10278 20242 39995 40153 84201 333 20242 58014;EQDQ01  00002PRCP06
0152826780999992005022818004-06767-043017FM-12+013899999V0209999C000019999999N0040001N1+03281+02531999999ADDAA106000091GF105991999999008001999999REMSYN084AAXX  28184 82678 32596 50000 10328 20253 10296 32599 39952 40108 58006 60905 83202;EQDQ01  00002PRCP06
0189826780999992005030100004-06767-043017FM-12+013899999V0209999C000012200019N0002001N1+02581+02401101211ADDAY161061AY221061GF103991021021008001001011MA1999999099641MD1999999+0021MW1011REMSYN100AAXX  01004 82678 21592 30000 10258 20240 39964 40121 70162 82201 333 10339 29082 55070 58002 60061;
0177826780999992005030112004-06767-043017FM-12+013899999V0200901N000510075019N0040001N1+02721+02391101461ADDAY161061AY221061GF107991071051008001001001MA1999999099881MD1999999-0071MW1031REMSYN088AAXX  01124 82678 21596 70901 10272 20239 39988 40146 70362 87500 333 20234 59007 60064;
0167826780999992005030118004-06767-043017FM-12+013899999V0203601N000512200019N0040001N1+03341+02481101111ADDAA106000091GF104991021021008001001021MA1999999099551MD1999999-0031REMSYN070AAXX  01184 82678 32596 43601 10334 20248 39955 40111 82202 333 59003;EQDQ01  00002PRCP06
0179826780999992005030200004-06767-043017FM-12+013899999V0209999C000012200019N0002001N1+02761+02581101041ADDAA106000091GF100991001001999999001001MA1999999099471MD1999999-0171REMSYN082AAXX  02004 82678 32992 00000 10276 20258 39947 40104 333 10340 29081 55077 59017;EQDQ01  00002PRCP06
0173826780999992005030212004-06767-043017FM-12+013899999V0200501N000510450019N0040001N1+02861+02561101341ADDAA106000091GF106991021011008001031021MA1999999099771MD1999999-0111REMSYN076AAXX  02124 82678 32596 60501 10286 20256 39977 40134 82132 333 20240 59011;EQDQ01  00002PRCP06
0167826780999992005030218004-06767-043017FM-12+013899999V0200901N001011050019N0040001N1+03401+02481101021ADDAA106000091GF106991031021008001001021MA1999999099461MD1999999-0091REMSYN070AAXX  02184 82678 32596 60902 10340 20248 39946 40102 83202 333 59009;EQDQ01  00002PRCP06
0179826780999992005030300004-06767-043017FM-12+013899999V0209999C000012200019N0002001N1+02801+02481101161ADDAA106000091GF100991001001999999001001MA1999999099601MD1999999+0131REMSYN082AAXX  03004 82678 32992 00000 10280 20248 39960 40116 333 10347 29077 55089 58013;EQDQ01  00002PRCP06
0177826780999992005030312004-06767-043017FM-12+013899999V0200501N003110075019N0040001N1+02361+02261101571ADDAY161061AY211061GF108991081051008001999999MA1999999099981MD1999999+0211MW1611REMSYN088AAXX  03124 82678 21596 80506 10236 20226 39998 40157 76161 885// 333 20231 58021 60174;
0185826780999992005030400004-06767-043017FM-12+013899999V0209999C000010450019N0002001N1+02721+02581101311ADDAA106000091GF108991041051008001021999MA1999999099721MD1999999+0121REMSYN088AAXX  04004 82678 32592 80000 10272 20258 39972 40131 8452/ 333 10313 29088 55029 58012;EQDQ01  00002PRCP06
0149826780999992005030412004-06767-043017FM-12+013899999V0203601N001010075019N0040001N1+02521+02381101601ADDGF108991081051008001999999MA1999999100021MD1999999+0041REMSYN082AAXX  04124 82678 22596 83602 10252 20238 30002 40160 885// 333 20230 58004 60034;
0167826780999992005030418004-06767-043017FM-12+013899999V0209999C000010075019N0040001N1+02981+02471101251ADDAA106000091GF108991051051008001021999MA1999999099681MD1999999+0011REMSYN070AAXX  04184 82678 32596 80000 10298 20247 39968 40125 8552/ 333 58001;EQDQ01  00002PRCP06
0179826780999992005030500004-06767-043017FM-12+013899999V0209999C000012200019N0002001N1+02621+02521101341ADDAA106000091GF100991001001999999001001MA1999999099751MD1999999+0031REMSYN082AAXX  05004 82678 32992 00000 10262 20252 39975 40134 333 10303 29088 55007 58003;EQDQ01  00002PRCP06
0173826780999992005030512004-06767-043017FM-12+013899999V0203601N000510075019N0040001N1+02661+02521101611ADDAA106000091GF106991061051008001001001MA1999999100031MD1999999+0011REMSYN076AAXX  05124 82678 32596 63601 10266 20252 30003 40161 86500 333 20240 58001;EQDQ01  00002PRCP06
0167826780999992005030518004-06767-043017FM-12+013899999V0203601N001012200019N0040001N1+03341+02461101231ADDAA106000091GF104991021011008001001021MA1999999099671MD1999999-0011REMSYN070AAXX  05184 82678 32596 43602 10334 20246 39967 40123 82102 333 59001;EQDQ01  00002PRCP06
0179826780999992005030600004-06770-043020FM-12+012799999V0209999C000012200019N0002001N1+02781+02541101261ADDAA106000091GF100991001001999999001001MA1999999099681MD1999999-0071REMSYN082AAXX  06004 82678 32992 00000 10278 20254 39968 40126 333 10133 29082 55085 59007;EQDQ01  00002PRCP06
0173826780999992005030612004-06770-043020FM-12+012799999V0200901N000510075019N0040001N1+02821+02601101411ADDAA106000091GF108991061051008001031021MA1999999099841MD1999999-0191REMSYN076AAXX  06124 82678 32596 80901 10282 20260 39984 40141 86532 333 20246 59019;EQDQ01  00002PRCP06
0167826780999992005030618004-06770-043020FM-12+012799999V0200501N001010075019N0040001N1+03401+02371100991ADDAA106000091GF105991051021008001001001MA1999999099441MD1999999-0231REMSYN070AAXX  06184 82678 32596 50502 10340 20237 39944 40099 85200 333 59023;EQDQ01  00002PRCP06
0179826780999992005030700004-06767-043017FM-12+013899999V0209999C000012200019N0002001N1+02781+02501101141ADDAA106000091GF100991001001999999001001MA1999999099571MD1999999-0111REMSYN082AAXX  07004 82678 32992 00000 10278 20250 39957 40114 333 10345 29078 55091 59011;EQDQ01  00002PRCP06
0173826780999992005030712004-06767-043017FM-12+013899999V0203601N000510075019N0040001N1+02741+02431101361ADDAA106000091GF108991051051008001001021MA1999999099791MD1999999-0051REMSYN076AAXX  07124 82678 32596 83601 10274 20243 39979 40136 85502 333 20246 59005;EQDQ01  00002PRCP06
0171826780999992005030718004-06767-043017FM-12+013899999V0201801N001510450019N0040001N1+02881+02501101101ADDAY161061AY221061GF108991041051008001031001MA1999999099531MD1999999+0091MW1021REMSYN082AAXX  07184 82678 21596 81803 10288 20250 39953 40110 70262 84530 333 58009 60011;
0179826780999992005030800004-06767-043017FM-12+013899999V0209999C000012200019N0002001N1+02621+02461101391ADDAA106000091GF100991001001999999001001MA1999999099811MD1999999+0241REMSYN082AAXX  08004 82678 32992 00000 10262 20246 39981 40139 333 10303 29086 55001 58024;EQDQ01  00002PRCP06
0167826780999992005030818004-06767-043017FM-12+013899999V0200501N001010075019N0040001N1+03301+02531101001ADDAA106000091GF108991051021008001001021MA1999999099441MD1999999-0091REMSYN070AAXX  08184 82678 32596 80502 10330 20253 39944 40100 85202 333 59009;EQDQ01  00002PRCP06
0179826780999992005030900004-06767-043017FM-12+013899999V0209999C000012200019N0002001N1+02761+02581101271ADDAA106000091GF100991001001999999001001MA1999999099691MD1999999-0121REMSYN082AAXX  09004 82678 32992 00000 10276 20258 39969 40127 333 10335 29082 55064 59012;EQDQ01  00002PRCP06
0173826780999992005030912004-06767-043017FM-12+013899999V0203601N001010075019N0040001N1+02681+02451101411ADDAA106000091GF108991081051008001999999MA1999999099831MD1999999-0101REMSYN076AAXX  09124 82678 32596 83602 10268 20245 39983 40141 885// 333 20249 59010;EQDQ01  00002PRCP06
0167826780999992005030918004-06767-043017FM-12+013899999V0200901N000510075019N0040001N1+02941+02431101101ADDAA106000091GF108991071051008001021999MA1999999099531MD1999999+0091REMSYN070AAXX  09184 82678 32596 80901 10294 20243 39953 40110 8752/ 333 58009;EQDQ01  00002PRCP06
0185826780999992005031000004-06767-043017FM-12+013899999V0202301N001510075019N0002001N1+02461+02301101151ADDAA106000091GF108991081051008001999999MA1999999099571MD1999999-0121REMSYN088AAXX  10004 82678 32592 82303 10246 20230 39957 40115 885// 333 10321 29086 55030 59012;EQDQ01  00002PRCP06
0173826780999992005031012004-06767-043017FM-12+013899999V0201801N000510075019N0040001N1+02541+02381101521ADDAA106000091GF108991081051008001999999MA1999999099931MD1999999+0101REMSYN076AAXX  10124 82678 32596 81801 10254 20238 39993 40152 885// 333 20234 58010;EQDQ01  00002PRCP06
0167826780999992005031018004-06767-043017FM-12+013899999V0201801N001010075019N0040001N1+03161+02391101151ADDAA106000091GF108991051051008001001021MA1999999099581MD1999999+0051REMSYN070AAXX  10184 82678 32596 81802 10316 20239 39958 40115 85502 333 58005;EQDQ01  00002PRCP06
0179826780999992005031100004-06767-043017FM-12+013899999V0209999C000012200019N0002001N1+02701+02431101261ADDAA106000091GF100991001001999999001001MA1999999099681MD1999999+0111REMSYN082AAXX  11004 82678 32992 00000 10270 20243 39968 40126 333 10321 29081 55034 58011;EQDQ01  00002PRCP06
0173826780999992005031112004-06767-043017FM-12+013899999V0201401N000510450019N0040001N1+02761+02441101491ADDAA106000091GF106991011021008001031021MA1999999099911MD1999999-0021REMSYN076AAXX  11124 82678 32596 61401 10276 20244 39991 40149 81232 333 20242 59002;EQDQ01  00002PRCP06
0167826780999992005031118004-06767-043017FM-12+013899999V0200501N000510120019N0040001N1+03331+02321101101ADDAA106000091GF106991051081008001001021MA1999999099541MD1999999-0041REMSYN070AAXX  11184 82678 32596 60501 10333 20232 39954 40110 85802 333 59004;EQDQ01  00002PRCP06
0179826780999992005031200004-06767-043017FM-12+013899999V0201401N000512200019N0002001N1+02731+02521101241ADDAA106000091GF100991001001999999001001MA1999999099671MD1999999-0011REMSYN082AAXX  12004 82678 32992 01401 10273 20252 39967 40124 333 10345 29079 55082 59001;EQDQ01  00002PRCP06
0177826780999992005031212004-06767-043017FM-12+013899999V0202301N001010075019N0040001N1+02441+02211101641ADDAY161061AY221061GF108991081061008001999999MA1999999100051MD1999999+0141MW1021REMSYN088AAXX  12124 82678 21596 82302 10244 20221 30005 40164 70262 886// 333 20224 58014 69924;
0167826780999992005031218004-06767-043017FM-12+013899999V0201401N003110120019N0040001N1+02901+02411101041ADDAA106000091GF108991061081008001031021MA1999999099461MD1999999-0081REMSYN070AAXX  12184 82678 32596 81406 10290 20241 39946 40104 86832 333 59008;EQDQ01  00002PRCP06
0189826780999992005031300004-06770-043020FM-12+012799999V0201401N000512200019N0002001N1+02481+02321101301ADDAY161061AY211061GF102991021001017501021001MA1999999099711MD1999999+0041MW1021REMSYN100AAXX  13004 82678 21792 21401 10248 20232 39971 40130 70261 82020 333 10315 29086 55035 58004 69911;
0149826780999992005031312004-06770-043020FM-12+012799999V0209999C000010075019N0040001N1+02621+02411101531ADDGF108991051051008001999999MA1999999099941MD1999999-0111REMSYN082AAXX  13124 82678 22596 80000 10262 20241 39994 40153 855// 333 20228 59011 69914;
0167826780999992005031318004-06770-043020FM-12+012799999V0209999C000010120019N0040001N1+03001+02511101021ADDAA106000091GF108991051081008001021021MA1999999099451MD1999999-0011REMSYN070AAXX  13184 82678 32596 80000 10300 20251 39945 40102 85822 333 59001;EQDQ01  00002PRCP06
0185826780999992005031400004-06770-043020FM-12+012799999V0209999C000010450019N0002001N1+02681+02461101191ADDAA106000091GF108991041051008001021999MA1999999099611MD1999999-0101REMSYN088AAXX  14004 82678 32592 80000 10268 20246 39961 40119 8452/ 333 10312 29085 55010 59010;EQDQ01  00002PRCP06
0177826780999992005031412004-06770-043020FM-12+012799999V0201401N003110075019N0040001N1+02481+02301101411ADDAY161061AY221061GF108991051051008001999999MA1999999099831MD1999999-0111MW1021REMSYN088AAXX  14124 82678 21596 81406 10248 20230 39983 40141 70262 855// 333 20222 59011 60054;
0167826780999992005031418004-06767-043017FM-12+013899999V0201401N001011050019N0040001N1+03201+02271100911ADDAA106000091GF105991031021008001001021MA1999999099351MD1999999-0101REMSYN070AAXX  14184 82678 32596 51402 10320 20227 39935 40091 83202 333 59010;EQDQ01  00002PRCP06
0179826780999992005031500004-06767-043017FM-12+013899999V0200501N001012200019N0002001N1+02601+02271101171ADDAA106000091GF100991001001999999001001MA1999999099591MD1999999-0021REMSYN082AAXX  15004 82678 32592 00502 10260 20227 39959 40117 333 10337 29078 55053 59002;EQDQ01  00002PRCP06
0173826780999992005031512004-06767-043017FM-12+013899999V0200901N000510450019N0040001N1+02701+02371101281ADDAA106000091GF106991021011008001031021MA1999999099701MD1999999-0131REMSYN076AAXX  15124 82678 32596 60901 10270 20237 39970 40128 82132 333 20225 59013;EQDQ01  00002PRCP06
0167826780999992005031518004-06767-043017FM-12+013899999V0200501N001011050019N0040001N1+03181+02521100961ADDAA106000091GF107991031051008001001021MA1999999099391MD1999999+0041REMSYN070AAXX  15184 82678 32596 70502 10318 20252 39939 40096 83502 333 58004;EQDQ01  00002PRCP06
0185826780999992005031600004-06767-043017FM-12+013899999V0209999C000011050019N0002001N1+02721+02521101121ADDAA106000091GF106991031051008001001021MA1999999099551MD1999999-0041REMSYN088AAXX  16004 82678 32592 60000 10272 20252 39955 40112 83502 333 10321 29082 55062 59004;EQDQ01  00002PRCP06
0173826780999992005031612004-06767-043017FM-12+013899999V0209999C000010450019N0040001N1+02641+02421101411ADDAA106000091GF106991041051008001031021MA1999999099831MD1999999+0131REMSYN076AAXX  16124 82678 32596 60000 10264 20242 39983 40141 84532 333 20241 58013;EQDQ01  00002PRCP06
0167826780999992005031618004-06767-043017FM-12+013899999V0203601N001012200019N0040001N1+03281+02561101071ADDAA106000091GF106991041051008001001011MA1999999099511MD1999999+0121REMSYN070AAXX  16184 82678 32596 63602 10328 20256 39951 40107 84501 333 58012;EQDQ01  00002PRCP06
0185826780999992005031700004-06767-043017FM-12+013899999V0209999C000010075019N0002001N1+02761+02521101201ADDAA106000091GF105991051051008001001001MA1999999099631MD1999999+0081REMSYN088AAXX  17004 82678 32592 50000 10276 20252 39963 40120 85500 333 10331 29082 55061 58008;EQDQ01  00002PRCP06
0177826780999992005031712004-06767-043017FM-12+013899999V0203201N001010120019N0040001N1+02751+02471101491ADDAY161061AY221061GF108991051081008001031021MA1999999099911MD1999999+0081MW1021REMSYN088AAXX  17124 82678 21596 83202 10275 20247 39991 40149 70262 85832 333 20240 58008 60024;
0167826780999992005031718004-06767-043017FM-12+013899999V0200501N001011050019N0040001N1+03341+01341100981ADDAA106000091GF106991041021008001001021MA1999999099421MD1999999-0091REMSYN070AAXX  17184 82678 32596 60502 10334 20134 39942 40098 84202 333 59009;EQDQ01  00002PRCP06
0189826780999992005031800004-06767-043017FM-12+013899999V0209999C000010150019N0002001N1+02571+02381101231ADDAY161061AY221061GF108991051001017501021021MA1999999099651MD1999999+0021MW1021REMSYN100AAXX  18004 82678 21792 80000 10257 20238 39965 40123 70262 85022 333 10345 29080 55063 58002 60161;
0149826780999992005031812004-06767-043017FM-12+013899999V0203601N002110450019N0040001N1+02791+02341101471ADDGF108991021021008001031021MA1999999099891MD1999999-0021REMSYN082AAXX  18124 82678 22596 83604 10279 20234 39989 40147 82232 333 20236 59002 60164;
0171826780999992005031818004-06767-043017FM-12+013899999V0201401N001510120019N0040001N1+03301+02391100971ADDAY161061AY221061GF108991061081008001021011MA1999999099411MD1999999-0011MW1021REMSYN082AAXX  18184 82678 21596 81403 10330 20239 39941 40097 70262 86821 333 59001 69921;
0185826780999992005031900004-06767-043017FM-12+013899999V0202301N001010450019N0002001N1+02681+02481101181ADDAA106000091GF108991021031008001011011MA1999999099611MD1999999-0041REMSYN088AAXX  19004 82678 32592 82302 10268 20248 39961 40118 82311 333 10337 29078 55062 59004;EQDQ01  00002PRCP06
0177826780999992005031912004-06767-043017FM-12+013899999V0200501N000510075019N0040001N1+02681+02411101551ADDAY161061AY221061GF108991051021008001031011MA1999999099971MD1999999+0081MW1021REMSYN088AAXX  19124 82678 21596 80501 10268 20241 39997 40155 70262 85231 333 20226 58008 60064;
0167826780999992005031918004-06767-043017FM-12+013899999V0202301N001512200019N0040001N1+03061+02501101071ADDAA106000091GF108991041021008001001011MA1999999099501MD1999999+0091REMSYN070AAXX  19184 82678 32596 82303 10306 20250 39950 40107 84201 333 58009;EQDQ01  00002PRCP06
0189826780999992005032000004-06770-043020FM-12+012799999V0209999C000010075019N0002001N1+02401+02331101601ADDAY161061AY221061GF108991051051008001999999MA1999999100011MD1999999+0121MW1021REMSYN100AAXX  20004 82678 21592 80000 10240 20233 30001 40160 70262 855// 333 10317 29087 55047 58012 60011;
0149826780999992005032012004-06770-043020FM-12+012799999V0202701N001510075019N0040001N1+02581+02231101581ADDGF108991051021008001031011MA1999999099991MD1999999+0021REMSYN082AAXX  20124 82678 22596 82703 10258 20223 39999 40158 85231 333 20230 58002 60014;
0167826780999992005032018004-06770-043020FM-12+012799999V0203601N001011050019N0040001N1+03141+02531101111ADDAA106000091GF105991031021008001001021MA1999999099541MD1999999+0041REMSYN070AAXX  20184 82678 32596 53602 10314 20253 39954 40111 83202 333 58004;EQDQ01  00002PRCP06
0189826780999992005032100004-06767-043017FM-12+013899999V0201401N001510075019N0002001N1+02601+02401101421ADDAY161061AY211061GF108991081051008001999999MA1999999099841MD1999999-0171MW1021REMSYN100AAXX  21004 82678 21592 81403 10260 20240 39984 40142 70261 885// 333 10325 29082 55067 59017 60021;
0177826780999992005032112004-06767-043017FM-12+013899999V0200901N000510075019N0040001N1+02641+02311101621ADDAY161061AY221061GF108991071051008001031999MA1999999100031MD1999999+0041MW1031REMSYN088AAXX  21124 82678 21596 80901 10264 20231 30003 40162 70362 8753/ 333 20230 58004 69954;
0171826780999992005032118004-06767-043017FM-12+013899999V0203201N000510450019N0040001N1+02961+02491101151ADDAY161061AY221061GF106991031021008001031021MA1999999099571MD1999999+0031MW1011REMSYN082AAXX  21184 82678 21596 63201 10296 20249 39957 40115 70162 83232 333 58003 60051;
0189826780999992005032200004-06767-043017FM-12+013899999V0209999C000010075019N0002001N1+02321+02241101461ADDAY161061AY221061GF108991051051008001021999MA1999999099871MD1999999+0041MW1611REMSYN100AAXX  22004 82678 21592 80000 10232 20224 39987 40146 76162 8552/ 333 10309 29087 55045 58004 60131;
0177826780999992005032212004-06767-043017FM-12+013899999V0209999C000010075019N0040001N1+02501+02251101621ADDAY161061AY221061GF108991081051008001999999MA1999999100021MD1999999-0011MW1021REMSYN088AAXX  22124 82678 21596 80000 10250 20225 30002 40162 70262 885// 333 20226 59001 60144;
0167826780999992005032218004-06767-043017FM-12+013899999V0203201N000510075019N0040001N1+03021+02361101271ADDAA106000091GF105991051051008001001001MA1999999099691MD1999999+0121REMSYN070AAXX  22184 82678 32596 53201 10302 20236 39969 40127 85500 333 58012;EQDQ01  00002PRCP06
0189826780999992005032300004-06767-043017FM-12+013899999V0209999C000010075019N0002001N1+02401+02301101461ADDAY161061AY221061GF108991081051008001999999MA1999999099861MD1999999-0011MW1031REMSYN100AAXX  23004 82678 21592 80000 10240 20230 39986 40146 70362 885// 333 10321 29086 55048 59001 60031;
0149826780999992005032312004-06767-043017FM-12+013899999V0200901N001510075019N0040001N1+02481+02321101761ADDGF108991081051008001999999MA1999999100161MD1999999+0141REMSYN082AAXX  23124 82678 22596 80903 10248 20232 30016 40176 885// 333 20224 58014 60034;
0167826780999992005032318004-06767-043017FM-12+013899999V0201401N002610450019N0040001N1+03231+02201101201ADDAA106000091GF105991031021008001021001MA1999999099631MD1999999-0061REMSYN070AAXX  23184 82678 32596 51405 10323 20220 39963 40120 83220 333 59006;EQDQ01  00002PRCP06
0185826780999992005032400004-06767-043017FM-12+013899999V0209999C000012200019N0002001N1+02671+02501101481ADDAA106000091GF102991011001017501041021MA1999999099891MD1999999+0031REMSYN088AAXX  24004 82678 32792 20000 10267 20250 39989 40148 81042 333 10331 29082 55075 58003;EQDQ01  00002PRCP06
0173826780999992005032412004-06767-043017FM-12+013899999V0201401N001010120019N0040001N1+02721+02281101661ADDAA106000091GF108991051081008001031021MA1999999100081MD1999999-0081REMSYN076AAXX  24124 82678 32596 81402 10272 20228 30008 40166 85832 333 20228 59008;EQDQ01  00002PRCP06
0171826780999992005032418004-06767-043017FM-12+013899999V0201801N001510120019N0040001N1+03151+02401101191ADDAY161061AY221061GF107991051081008001001021MA1999999099621MD1999999-0011MW1021REMSYN082AAXX  24184 82678 21596 71803 10315 20240 39962 40119 70262 85802 333 59001 60011;
0189826780999992005032500004-06767-043017FM-12+013899999V0200901N000510075019N0002001N1+02431+02351101551ADDAY161061AY291061GF108991061051008001021999MA1999999099961MD1999999+0071MW1021REMSYN100AAXX  25004 82678 21592 80901 10243 20235 39996 40155 70269 8652/ 333 10325 29084 55062 58007 60051;
0149826780999992005032512004-06767-043017FM-12+013899999V0200901N000510450019N0040001N1+02521+02211101621ADDGF106991031011008001031011MA1999999100031MD1999999-0051REMSYN082AAXX  25124 82678 22596 60901 10252 20221 30003 40162 83131 333 20220 59005 60064;
0167826780999992005032518004-06767-043017FM-12+013899999V0202701N000512200019N0040001N1+03221+02371101151ADDAA106000091GF104991041011008001001001MA1999999099581MD1999999-0041REMSYN070AAXX  25184 82678 32596 42701 10322 20237 39958 40115 84100 333 59004;EQDQ01  00002PRCP06
0185826780999992005032600004-06767-043017FM-12+013899999V0209999C000010450019N0002001N1+02681+02451101351ADDAA106000091GF106991041051008001031001MA1999999099771MD1999999-0191REMSYN088AAXX  26004 82678 32592 60000 10268 20245 39977 40135 84530 333 10329 29080 55093 59019;EQDQ01  00002PRCP06
0173826780999992005032612004-06767-043017FM-12+013899999V0200501N000510075019N0040001N1+02501+02311101561ADDAA106000091GF108991081051008001999999MA1999999099971MD1999999-0061REMSYN076AAXX  26124 82678 32596 80501 10250 20231 39997 40156 885// 333 20220 59006;EQDQ01  00002PRCP06
0167826780999992005032618004-06767-043017FM-12+013899999V0202701N000511050019N0040001N1+03121+02361101061ADDAA106000091GF105991031021008001001021MA1999999099491MD1999999-0091REMSYN070AAXX  26184 82678 32596 52701 10312 20236 39949 40106 83202 333 59009;EQDQ01  00002PRCP06
0185826780999992005032700004-06770-043020FM-12+012799999V0200501N003110075019N0002001N1+02501+02311101381ADDAA106000091GF108991071051008001031999MA1999999099791MD1999999+0021REMSYN088AAXX  27004 82678 32592 80506 10250 20231 39979 40138 8753/ 333 10321 29083 55061 58002;EQDQ01  00002PRCP06
0173826780999992005032712004-06770-043020FM-12+012799999V0200501N000510075019N0040001N1+02561+02361101481ADDAA106000091GF108991081051008001999999MA1999999099891MD1999999-0081REMSYN076AAXX  27124 82678 32596 80501 10256 20236 39989 40148 885// 333 20226 59008;EQDQ01  00002PRCP06
0167826780999992005032718004-06770-043020FM-12+012799999V0203601N001010075019N0040001N1+03181+02471101021ADDAA106000091GF105991051051008001001001MA1999999099451MD1999999-0041REMSYN070AAXX  27184 82678 32596 53602 10318 20247 39945 40102 85500 333 59004;EQDQ01  00002PRCP06
0185826780999992005032800004-06770-043020FM-12+012799999V0209999C000010075019N0002001N1+02601+02351101311ADDAA106000091GF107991051051008001031001MA1999999099731MD1999999-0061REMSYN088AAXX  28004 82678 32592 70000 10260 20235 39973 40131 85530 333 10325 29082 55071 59006;EQDQ01  00002PRCP06
0177826780999992005032812004-06770-043020FM-12+012799999V0200501N001010075019N0040001N1+02621+02311101541ADDAY161061AY221061GF108991051051008001031021MA1999999099951MD1999999+0061MW1021REMSYN088AAXX  28124 82678 21596 80502 10262 20231 39995 40154 70262 85532 333 20230 58006 60064;
0167826780999992005032818004-06770-043020FM-12+012799999V0201801N001010450019N0040001N1+03101+02411101001ADDAA106000091GF107991041051008001031021MA1999999099441MD1999999-0011REMSYN070AAXX  28184 82678 32596 71802 10310 20241 39944 40100 84532 333 59001;EQDQ01  00002PRCP06
0198826780999992005032900004-06767-043017FM-12+013899999V0200501N000511050019N0002001N1+02641+02421101291ADDAA106000091GF106991011001017501041021KA1240M+03151MA1999999099711MD1999999-0021REMSYN088AAXX  29004 82678 32792 60501 10264 20242 39971 40129 81042 333 10315 29082 55046 59002;EQDQ01  00002PRCP06
0186826780999992005032912004-06767-043017FM-12+013899999V0200501N001510075019N0040001N1+02691+02351101491ADDAA106000091GF108991061051008001021999KA1240N+02441MA1999999099911MD1999999-0041REMSYN076AAXX  29124 82678 32596 80503 10269 20235 39991 40149 8652/ 333 20244 59004;EQDQ01  00002PRCP06
0167826780999992005032918004-06767-043017FM-12+013899999V0202701N000510450019N0040001N1+03141+02301101041ADDAA106000091GF108991031031008001021021MA1999999099471MD1999999+0031REMSYN070AAXX  29184 82678 32596 82701 10314 20230 39947 40104 83322 333 58003;EQDQ01  00002PRCP06
0186826780999992005033012004-06767-043017FM-12+013899999V0200501N001010450019N0040001N1+02761+02441101541ADDAA106000091GF108991041051008001021021KA1240N+02421MA1999999099961MD1999999+0051REMSYN076AAXX  30124 82678 32596 80502 10276 20244 39996 40154 84522 333 20242 58005;EQDQ01  00002PRCP06
0167826780999992005033018004-06767-043017FM-12+013899999V0201801N002110450019N0040001N1+03121+02381101041ADDAA106000091GF108991021021008001021021MA1999999099471MD1999999+0001REMSYN070AAXX  30184 82678 32596 81804 10312 20238 39947 40104 82222 333 58000;EQDQ01  00002PRCP06
0198826780999992005033100004-06767-043017FM-12+013899999V0202701N001510075019N0002001N1+02661+02371101301ADDAA106000091GF105991051051008001001001KA1240M+03251MA1999999099721MD1999999-0071REMSYN088AAXX  31004 82678 32592 52703 10266 20237 39972 40130 85500 333 10325 29079 55039 59007;EQDQ01  00002PRCP06
0167826780999992005033118004-06767-043017FM-12+013899999V0200901N001011050019N0040001N1+03161+02451101011ADDAA106000091GF105991021021008001031021MA1999999099451MD1999999-0021REMSYN070AAXX  31184 82678 32596 50902 10316 20245 39945 40101 82232 333 59002;EQDQ01  00002PRCP06
0179826780999992005040100004-06767-043017FM-12+013899999V0209999C000012200019N0002001N1+02601+02461101341ADDAA106000091GF100991001001999999001001MA1999999099751MD1999999+0031REMSYN082AAXX  01004 82678 32792 00000 10260 20246 39975 40134 333 10329 29086 55050 58003;EQDQ01  00002PRCP06
0173826780999992005040112004-06767-043017FM-12+013899999V0209999C000010075019N0040001N1+02621+02311101591ADDAA106000091GF108991051031008001001021MA1999999100001MD1999999+0031REMSYN076AAXX  01124 82678 32596 80000 10262 20231 30000 40159 85302 333 20232 58003;EQDQ01  00002PRCP06
0167826780999992005040118004-06767-043017FM-12+013899999V0200901N001010075019N0040001N1+03261+02441101151ADDAA106000091GF108991061021008001001021MA1999999099591MD1999999+0141REMSYN070AAXX  01184 82678 32596 80902 10326 20244 39959 40115 86202 333 58014;EQDQ01  00002PRCP06
0179826780999992005040200004-06767-043017FM-12+013899999V0209999C000012200019N0002001N1+02581+02401101491ADDAA106000091GF100991001001999999001001MA1999999099901MD1999999+0151REMSYN082AAXX  02004 82678 32992 00000 10258 20240 39990 40149 333 10335 29081 55073 58015;EQDQ01  00002PRCP06
0173826780999992005040212004-06767-043017FM-12+013899999V0200901N001510075019N0040001N1+02781+02401101511ADDAA106000091GF105991051021008001001001MA1999999099931MD1999999-0071REMSYN076AAXX  02124 82678 32596 50903 10278 20240 39993 40151 85200 333 20230 59007;EQDQ01  00002PRCP06
0167826780999992005040218004-06767-043017FM-12+013899999V0200501N001510075019N0040001N1+03361+02361101101ADDAA106000091GF106991051021008001001021MA1999999099541MD1999999-0051REMSYN070AAXX  02184 82678 32596 60503 10336 20236 39954 40110 85202 333 59005;EQDQ01  00002PRCP06
0185826780999992005040300004-06770-043020FM-12+012799999V0209999C000010075019N0002001N1+02681+02461101391ADDAA106000091GF105991051051008001001001MA1999999099821MD1999999-0081REMSYN088AAXX  03004 82678 32592 50000 10268 20246 39982 40139 85500 333 10339 29078 55084 59008;EQDQ01  00002PRCP06
0173826780999992005040312004-06770-043020FM-12+012799999V0200901N002610075019N0040001N1+02841+02421101601ADDAA106000091GF106991061051008001001001MA1999999100021MD1999999+0091REMSYN076AAXX  03124 82678 32596 60905 10284 20242 30002 40160 86500 333 20230 58009;EQDQ01  00002PRCP06
0167826780999992005040318004-06770-043020FM-12+012799999V0200901N001010075019N0040001N1+03321+02231101181ADDAA106000091GF105991051021008001001001MA1999999099621MD1999999+0081REMSYN070AAXX  03184 82678 32596 50902 10332 20223 39962 40118 85200 333 58008;EQDQ01  00002PRCP06
0185826780999992005040400004-06767-043017FM-12+013899999V0201401N000512200019N0002001N1+02661+02391101451ADDAA106000091GF102991011031008001001011MA1999999099871MD1999999+0051REMSYN088AAXX  04004 82678 32592 21401 10266 20239 39987 40145 81301 333 10339 29075 55099 58005;EQDQ01  00002PRCP06
0173826780999992005040412004-06767-043017FM-12+013899999V0200901N001510450019N0040001N1+02901+02341101651ADDAA106000091GF106991021021008001031011MA1999999100071MD1999999+0051REMSYN076AAXX  04124 82678 32596 60903 10290 20234 30007 40165 82231 333 20228 58005;EQDQ01  00002PRCP06
0167826780999992005040418004-06767-043017FM-12+013899999V0200901N001510075019N0040001N1+03321+02261101231ADDAA106000091GF105991051021008001001001MA1999999099661MD1999999+0041REMSYN070AAXX  04184 82678 32596 50903 10332 20226 39966 40123 85200 333 58004;EQDQ01  00002PRCP06
0179826780999992005040500004-06767-043017FM-12+013899999V0209999C000012200019N0002001N1+02681+02411101351ADDAA106000091GF100991001001999999001001MA1999999099781MD1999999-0091REMSYN082AAXX  05004 82678 32992 00000 10268 20241 39978 40135 333 10337 29074 55103 59009;EQDQ01  00002PRCP06
0173826780999992005040512004-06767-043017FM-12+013899999V0200901N004111050019N0040001N1+02861+02231101591ADDAA106000091GF108991041021008001001021MA1999999100011MD1999999-0061REMSYN076AAXX  05124 82678 32596 80908 10286 20223 30001 40159 84202 333 20220 59006;EQDQ01  00002PRCP06
0167826780999992005040518004-06767-043017FM-12+013899999V0200901N003611050019N0040001N1+03321+02041101191ADDAA106000091GF106991031021008001001021MA1999999099631MD1999999-0031REMSYN070AAXX  05184 82678 32596 60907 10332 20204 39963 40119 83202 333 59003;EQDQ01  00002PRCP06
0185826780999992005040600004-06767-043017FM-12+013899999V0201401N001012200019N0002001N1+02761+02141101411ADDAA106000091GF102991021001017501021001MA1999999099841MD1999999+0061REMSYN088AAXX  06004 82678 32792 21402 10276 20214 39984 40141 82020 333 10339 29064 55103 58006;EQDQ01  00002PRCP06
0173826780999992005040612004-06767-043017FM-12+013899999V0200901N003110075019N0040001N1+02801+02081101531ADDAA106000091GF108991051021008001001011MA1999999099961MD1999999-0051REMSYN076AAXX  06124 82678 32596 80906 10280 20208 39996 40153 85201 333 20218 59005;EQDQ01  00002PRCP06
0167826780999992005040618004-06767-043017FM-12+013899999V0200901N003112200019N0040001N1+03361+02301101171ADDAA106000091GF104991021021008001001021MA1999999099611MD1999999-0011REMSYN070AAXX  06184 82678 32596 40906 10336 20230 39961 40117 82202 333 59001;EQDQ01  00002PRCP06
0179826780999992005040700004-06767-043017FM-12+013899999V0209999C000012200019N0002001N1+02661+02371101311ADDAA106000091GF100991001001999999001001MA1999999099741MD1999999-0101REMSYN082AAXX  07004 82678 32992 00000 10266 20237 39974 40131 333 10345 29072 55093 59010;EQDQ01  00002PRCP06
0173826780999992005040712004-06767-043017FM-12+013899999V0200901N003112200019N0040001N1+02881+02211101421ADDAA106000091GF104991011011008001031021MA1999999099851MD1999999-0111REMSYN076AAXX  07124 82678 32596 40906 10288 20221 39985 40142 81132 333 20228 59011;EQDQ01  00002PRCP06
0167826780999992005040718004-06767-043017FM-12+013899999V0200901N005112200019N0040001N1+03341+02191101131ADDAA106000091GF108991031021008001001011MA1999999099571MD1999999-0041REMSYN070AAXX  07184 82678 32596 80910 10334 20219 39957 40113 83201 333 59004;EQDQ01  00002PRCP06
0179826780999992005040800004-06767-043017FM-12+013899999V0209999C000012200019N0002001N1+02661+02441101301ADDAA106000091GF100991001001999999001001MA1999999099731MD1999999-0011REMSYN082AAXX  08004 82678 32792 00000 10266 20244 39973 40130 333 10341 29074 55099 59001;EQDQ01  00002PRCP06
0167826780999992005040812004-06767-043017FM-12+013899999V0201401N003612200019N0040001N1+02801+01901101441ADDAA106000091GF100991001001999999001001MA1999999099861MD1999999+0011REMSYN070AAXX  08124 82678 32596 01407 10280 20190 39986 40144 333 20224 58001;EQDQ01  00002PRCP06
0167826780999992005040818004-06767-043017FM-12+013899999V0200901N002610075019N0040001N1+03321+02261101121ADDAA106000091GF105991051021008001001001MA1999999099551MD1999999-0021REMSYN070AAXX  08184 82678 32596 50905 10332 20226 39955 40112 85200 333 59002;EQDQ01  00002PRCP06
0179826780999992005040900004-06767-043017FM-12+013899999V0201401N000512200019N0002001N1+02741+02171101301ADDAA106000091GF100991001001999999001001MA1999999099731MD1999999+0001REMSYN082AAXX  09004 82678 32992 01401 10274 20217 39973 40130 333 10337 29064 55097 58000;EQDQ01  00002PRCP06
0173826780999992005040912004-06767-043017FM-12+013899999V0200901N003110150019N0040001N1+02711+01881101541ADDAA106000091GF108991051001017501011011MA1999999099961MD1999999+0101REMSYN076AAXX  09124 82678 32796 80906 10271 20188 39996 40154 85011 333 20210 58010;EQDQ01  00002PRCP06
0167826780999992005040918004-06767-043017FM-12+013899999V0201401N002610450019N0040001N1+03361+02141101161ADDAA106000091GF106991011011008001031021MA1999999099591MD1999999+0041REMSYN070AAXX  09184 82678 32596 61405 10336 20214 39959 40116 81132 333 58004;EQDQ01  00002PRCP06
0179826780999992005041000004-06767-043017FM-12+013899999V0209999C000012200019N0002001N1+02521+02091101301ADDAA106000091GF100991001001999999001001MA1999999099721MD1999999-0011REMSYN082AAXX  10004 82678 32992 00000 10252 20209 39972 40130 333 10341 29066 55094 59001;EQDQ01  00002PRCP06
0173826780999992005041012004-06767-043017FM-12+013899999V0200901N001510075019N0040001N1+02561+02111101421ADDAA106000091GF108991051051008001071999MA1999999099831MD1999999-0131REMSYN076AAXX  10124 82678 32596 80903 10256 20211 39983 40142 8557/ 333 20256 59013;EQDQ01  00002PRCP06
0167826780999992005041018004-06767-043017FM-12+013899999V0200901N003110450019N0040001N1+03241+02221100971ADDAA106000091GF106991021021008001031021MA1999999099411MD1999999-0181REMSYN070AAXX  10184 82678 32596 60906 10324 20222 39941 40097 82232 333 59018;EQDQ01  00002PRCP06
0179826780999992005041100004-06767-043017FM-12+013899999V0209999C000012200019N0002001N1+02691+02371101201ADDAA106000091GF100991001001999999001001MA1999999099621MD1999999-0101REMSYN082AAXX  11004 82678 32992 00000 10269 20237 39962 40120 333 10333 29074 55050 59010;EQDQ01  00002PRCP06
0173826780999992005041112004-06767-043017FM-12+013899999V0201401N004112200019N0040001N1+02871+02161101291ADDAA106000091GF108991041021008001001011MA1999999099721MD1999999-0111REMSYN076AAXX  11124 82678 32596 81408 10287 20216 39972 40129 84201 333 20236 59011;EQDQ01  00002PRCP06
0167826780999992005041118004-06767-043017FM-12+013899999V0200901N003112200019N0040001N1+03401+02211100981ADDAA106000091GF105991031021008001001011MA1999999099431MD1999999+0021REMSYN070AAXX  11184 82678 32596 50906 10340 20221 39943 40098 83201 333 58002;EQDQ01  00002PRCP06
0185826780999992005041200004-06767-043017FM-12+013899999V0209999C000012200019N0002001N1+02681+02241101151ADDAA106000091GF104991041001017501011001MA1999999099581MD1999999-0041REMSYN088AAXX  12004 82678 32792 40000 10268 20224 39958 40115 84010 333 10348 29068 55105 59004;EQDQ01  00002PRCP06
0173826780999992005041212004-06767-043017FM-12+013899999V0200901N001510075019N0040001N1+02681+02201101431ADDAA106000091GF108991051031008001001021MA1999999099851MD1999999+0131REMSYN076AAXX  12124 82678 32596 80903 10268 20220 39985 40143 85302 333 20228 58013;EQDQ01  00002PRCP06
0167826780999992005041218004-06767-043017FM-12+013899999V0200501N001512200019N0040001N1+03121+02331101121ADDAA106000091GF108991031021008001001011MA1999999099551MD1999999+0121REMSYN070AAXX  12184 82678 32596 80503 10312 20233 39955 40112 83201 333 58012;EQDQ01  00002PRCP06
0179826780999992005041300004-06767-043017FM-12+013899999V0209999C000012200019N0002001N1+02621+02311101351ADDAA106000091GF100991001001999999001001MA1999999099771MD1999999+0191REMSYN082AAXX  13004 82678 32792 00000 10262 20231 39977 40135 333 10319 29076 55002 58019;EQDQ01  00002PRCP06
0173826780999992005041312004-06767-043017FM-12+013899999V0201401N003612200019N0040001N1+02881+02251101471ADDAA106000091GF104991021011008001001011MA1999999099891MD1999999+0041REMSYN076AAXX  13124 82678 32596 41407 10288 20225 39989 40147 82101 333 20228 58004;EQDQ01  00002PRCP06
0167826780999992005041318004-06767-043017FM-12+013899999V0200901N002612200019N0040001N1+03431+01981101031ADDAA106000091GF105991041021008001001011MA1999999099471MD1999999-0081REMSYN070AAXX  13184 82678 32596 50905 10343 20198 39947 40103 84201 333 59008;EQDQ01  00002PRCP06
0185826780999992005041400004-06767-043017FM-12+013899999V0209999C000012200019N0002001N1+02821+02361101251ADDAA106000091GF104991041001017501031001MA1999999099681MD1999999-0091REMSYN088AAXX  14004 82678 32792 40000 10282 20236 39968 40125 84030 333 10349 29066 55105 59009;EQDQ01  00002PRCP06
0173826780999992005041412004-06767-043017FM-12+013899999V0200901N004110450019N0040001N1+02881+02131101441ADDAA106000091GF106991011011008001031091MA1999999099871MD1999999-0021REMSYN076AAXX  14124 82678 32596 60908 10288 20213 39987 40144 81139 333 20236 59002;EQDQ01  00002PRCP06
0167826780999992005041418004-06767-043017FM-12+013899999V0200901N001510450019N0040001N1+03341+02221101031ADDAA106000091GF105991041021008001031001MA1999999099471MD1999999+0001REMSYN070AAXX  14184 82678 32596 50903 10334 20222 39947 40103 84230 333 58000;EQDQ01  00002PRCP06
0179826780999992005041500004-06767-043017FM-12+013899999V0209999C000012200019N0002001N1+02781+02321101181ADDAA106000091GF100991001001999999001001MA1999999099621MD1999999-0061REMSYN082AAXX  15004 82678 32992 00000 10278 20232 39962 40118 333 10345 29067 55101 59006;EQDQ01  00002PRCP06
0173826780999992005041512004-06767-043017FM-12+013899999V0200901N003112200019N0040001N1+02921+02291101411ADDAA106000091GF105991021011008001001011MA1999999099841MD1999999-0031REMSYN076AAXX  15124 82678 32596 50906 10292 20229 39984 40141 82101 333 20238 59003;EQDQ01  00002PRCP06
0167826780999992005041518004-06767-043017FM-12+013899999V0200901N001512200019N0040001N1+03461+02301101071ADDAA106000091GF104991031021008001001011MA1999999099511MD1999999+0041REMSYN070AAXX  15184 82678 32596 40903 10346 20230 39951 40107 83201 333 58004;EQDQ01  00002PRCP06
0185826780999992005041600004-06767-043017FM-12+013899999V0200501N001510075019N0002001N1+02861+02441101311ADDAA106000091GF108991081051008001999999MA1999999099751MD1999999+0131REMSYN088AAXX  16004 82678 32592 80503 10286 20244 39975 40131 885// 333 10351 29069 55102 58013;EQDQ01  00002PRCP06
0177826780999992005041612004-06767-043017FM-12+013899999V0200901N004110450019N0040001N1+02841+02261101521ADDAY161061AY221061GF107991031041008001031011MA1999999099951MD1999999+0111MW1021REMSYN088AAXX  16124 82678 21596 70908 10284 20226 39995 40152 70262 83431 333 20248 58011 60054;
0167826780999992005041618004-06767-043017FM-12+013899999V0200501N001510450019N0040001N1+03321+02291101101ADDAA106000091GF106991031081008001031011MA1999999099531MD1999999+0021REMSYN070AAXX  16184 82678 32596 60503 10332 20229 39953 40110 83831 333 58002;EQDQ01  00002PRCP06
0175826780999992005041712004-06770-043020FM-12+012799999V0200901N002619999999N0040001N1+02841+02401101481ADDAA106000091GA1031+009601051GF106991999999008001999999MA1999999099901REMSYN076AAXX  17124 82678 32596 60905 10284 20240 39990 40148 333 83532 20248 59005;EQDQ01  00002PRCP06
0167826780999992005041718004-06770-043020FM-12+012799999V0200901N002110450019N0040001N1+03331+02171101111ADDAA106000091GF108991041021008001011021MA1999999099551MD1999999+0021REMSYN070AAXX  17184 82678 32596 80904 10333 20217 39955 40111 84212 333 58002;EQDQ01  00002PRCP06
0185826780999992005041800004-06767-043017FM-12+013899999V0200901N001010075019N0002001N1+02821+02291101311ADDAA106000091GF107991051041008001031001MA1999999099741MD1999999+0081REMSYN088AAXX  18004 82678 32592 70902 10282 20229 39974 40131 85430 333 10341 29068 55067 58008;EQDQ01  00002PRCP06
0173826780999992005041812004-06767-043017FM-12+013899999V0200901N004112200019N0040001N1+02961+02211101291ADDAA106000091GF104991021011008001001011MA1999999099731MD1999999-0171REMSYN076AAXX  18124 82678 32596 40908 10296 20221 39973 40129 82101 333 20227 59017;EQDQ01  00002PRCP06
0167826780999992005041818004-06767-043017FM-12+013899999V0200901N001511050019N0040001N1+03501+02271100821ADDAA106000091GF105991031021008001001021MA1999999099271MD1999999-0281REMSYN070AAXX  18184 82678 32596 50903 10350 20227 39927 40082 83202 333 59028;EQDQ01  00002PRCP06
0185826780999992005041900004-06767-043017FM-12+013899999V0201401N001010075019N0040001N1+02761+02301101131ADDAA106000091GF108991051021008001001021MA1999999099571MD1999999-0171REMSYN088AAXX  19004 82678 32596 81402 10276 20230 39957 40113 85202 333 10353 29066 55095 59017;EQDQ01  00002PRCP06
0177826780999992005041912004-06767-043017FM-12+013899999V0200901N002110075019N0040001N1+02701+02701101421ADDAY161061AY221061GF108991051051008001021999MA1999999099851MD1999999+0121MW1021REMSYN088AAXX  19124 82678 21596 80904 10270 20270 39985 40142 70262 8552/ 333 20234 58012 60014;
0167826780999992005041918004-06767-043017FM-12+013899999V0200901N002112200019N0040001N1+03321+02231101001ADDAA106000091GF104991031021008001001021MA1999999099441MD1999999+0171REMSYN070AAXX  19184 82678 32596 40904 10332 20223 39944 40100 83202 333 58017;EQDQ01  00002PRCP06
0185826780999992005042000004-06767-043017FM-12+013899999V0209999C000012200019N0002001N1+02641+02371101311ADDAA106000091GF105991031011008001001011MA1999999099731MD1999999+0161REMSYN088AAXX  20004 82678 32592 50000 10264 20237 39973 40131 83101 333 10334 29075 55073 58016;EQDQ01  00002PRCP06
0173826780999992005042012004-06767-043017FM-12+013899999V0200901N003111050019N0002001N1+02921+02191101421ADDAA106000091GF106991021001017501031021MA1999999099851MD1999999+0001REMSYN076AAXX  20124 82678 32792 60906 10292 20219 39985 40142 82032 333 20238 58000;EQDQ01  00002PRCP06
0167826780999992005042018004-06767-043017FM-12+013899999V0200901N001511050019N0040001N1+03281+02231101081ADDAA106000091GF107991031011008001001021MA1999999099521MD1999999+0081REMSYN070AAXX  20184 82678 32596 70903 10328 20223 39952 40108 83102 333 58008;EQDQ01  00002PRCP06
0185826780999992005042100004-06767-043017FM-12+013899999V0209999C000012200019N0002001N1+02621+02311101341ADDAA106000091GF104991021001017501031021MA1999999099731MD1999999+0041REMSYN088AAXX  21004 82678 32792 40000 10262 20231 39973 40134 82032 333 10331 29071 55061 58004;EQDQ01  00002PRCP06
0173826780999992005042112004-06767-043017FM-12+013899999V0200901N003111050019N0040001N1+02801+02271101441ADDAA106000091GF107991021011008001001021MA1999999099861MD1999999+0011REMSYN076AAXX  21124 82678 32596 70906 10280 20227 39986 40144 82102 333 20240 58001;EQDQ01  00002PRCP06
0167826780999992005042118004-06767-043017FM-12+013899999V0201801N001511050019N0040001N1+03301+02331101081ADDAA106000091GF107991041051008001001021MA1999999099521MD1999999+0001REMSYN070AAXX  21184 82678 32596 71803 10330 20233 39952 40108 84502 333 58000;EQDQ01  00002PRCP06
0185826780999992005042200004-06767-043017FM-12+013899999V0209999C000010450019N0002001N1+02721+02371101291ADDAA106000091GF108991041051008001031021MA1999999099721MD1999999-0051REMSYN088AAXX  22004 82678 32592 80000 10272 20237 39972 40129 84532 333 10340 29073 55041 59005;EQDQ01  00002PRCP06
0173826780999992005042212004-06767-043017FM-12+013899999V0201401N001510450019N0040001N1+02981+02371101361ADDAA106000091GF106991021011008001011011MA1999999099791MD1999999-0071REMSYN076AAXX  22124 82678 32596 61403 10298 20237 39979 40136 82111 333 20236 59007;EQDQ01  00002PRCP06
0167826780999992005042218004-06767-043017FM-12+013899999V0203601N002110450019N0040001N1+03401+02211100941ADDAA106000091GF108991041081008001031011MA1999999099381MD1999999-0141REMSYN070AAXX  22184 82678 32596 83604 10340 20221 39938 40094 84831 333 59014;EQDQ01  00002PRCP06
0185826780999992005042300004-06767-043017FM-12+013899999V0202301N000512200019N0002001N1+02781+02421101201ADDAA106000091GF102991001001999999001011MA1999999099641MD1999999-0081REMSYN088AAXX  23004 82678 32992 22301 10278 20242 39964 40120 80001 333 10351 29070 55092 59008;EQDQ01  00002PRCP06
0173826780999992005042312004-06767-043017FM-12+013899999V0200501N001512200019N0040001N1+02981+02231101331ADDAA106000091GF104991011011008001001011MA1999999099771MD1999999-0021REMSYN076AAXX  23124 82678 32596 40503 10298 20223 39977 40133 81101 333 20235 59002;EQDQ01  00002PRCP06
0167826780999992005042318004-06767-043017FM-12+013899999V0200901N001510450019N0040001N1+03561+02031100891ADDAA106000091GF108991031021008001031011MA1999999099341MD1999999-0041REMSYN070AAXX  23184 82678 32596 80903 10356 20203 39934 40089 83231 333 59004;EQDQ01  00002PRCP06
0186826780999992005042400004-06770-043020FM-12+012799999V0200501N000512200019N0002001N1+02861+02281101081ADDAA106000091GF102991001001999999001011MD1999999-0121REMSYN088AAXX  24004 82678 32992 20501 10286 20228 33552 40108 80001 333 10364 24062 55105 59012;EQDQ01+035521APOSP Q02  00002PRCP06
0196826780999992005042412004-06770-043020FM-12+012799999V0200901N001519999999N0040001N1+02961+02351101461ADDAY161061AY211061GF108991999021008001001001MA1999999099891MD1999999+0131MW1021REMSYN088AAXX  24124 82678 21596 80903 10296 20235 39989 40146 70261 84200 333 20244 58013 60034;EQDQ01+000042SCOTLC
0167826780999992005042418004-06770-043020FM-12+012799999V0200901N001510075019N0200001N1+03421+02161100961ADDAA106000091GF108991051021008001001021MA1999999099411MD1999999+0071REMSYN070AAXX  24184 82678 32598 80903 10342 20216 39941 40096 85202 333 58007;EQDQ01  00002PRCP06
0198826780999992005042500004-06767-043017FM-12+013899999V0209999C000012200019N0002001N1+02781+02481101241ADDAA106000091GF103991021011008001001011KA1240M+03491MA1999999099671MD1999999+0151REMSYN088AAXX  25004 82678 32592 30000 10278 20248 39967 40124 82101 333 10349 29072 55083 58015;EQDQ01  00002PRCP06
0190826780999992005042512004-06767-043017FM-12+013899999V0202301N001010075019N0040001N1+02701+02541101471ADDAY161061AY221061GF108991081051008001999999KA1240N+02361MA1999999099891MD1999999+0001MW1021REMSYN088AAXX  25124 82678 21596 82302 10270 20254 39989 40147 70262 885// 333 20236 58000 60034;
0167826780999992005042518004-06767-043017FM-12+013899999V0202701N001010450019N0040001N1+02761+02441101131ADDAA106000091GF108991041051008001021999MA1999999099551MD1999999+0141REMSYN070AAXX  25184 82678 32596 82702 10276 20244 39955 40113 8452/ 333 58014;EQDQ01  00002PRCP06
0221826780999992005042600004-06767-043017FM-12+013899999V0209999C000010450019N0002001N1+02581+02481101371ADDAY161061AY221061GF105991031051008001061011KA1240M+02871MA1999999999999MD1999999+0121MW1021REMSYN100AAXX  26004 82678 21592 50000 10258 20248 39474 40137 70262 83561 333 10287 29090 55000 58012 60081;EQDQ01 094743APOSP 
0162826780999992005042612004-06767-043017FM-12+013899999V0203201N000510075019N0040001N1+02641+02421101511ADDGF108991081051008001999999KA1240N+02281MA1999999099921MD1999999+0031REMSYN082AAXX  26124 82678 22596 83201 10264 20242 39992 40151 885// 333 20228 58003 60084;
0167826780999992005042618004-06767-043017FM-12+013899999V0203201N001011050019N0040001N1+03361+02391101131ADDAA106000091GF105991031021008001001021MA1999999099561MD1999999+0011REMSYN070AAXX  26184 82678 32596 53202 10336 20239 39956 40113 83202 333 58001;EQDQ01  00002PRCP06
0198826780999992005042700004-06767-043017FM-12+013899999V0200901N000510075019N0002001N1+02831+02401101311ADDAA106000091GF108991061041008001031999KA1240M+03451MA1999999099741MD1999999-0051REMSYN088AAXX  27004 82678 32592 80901 10283 20240 39974 40131 8643/ 333 10345 29075 55071 59005;EQDQ01  00002PRCP06
0186826780999992005042712004-06767-043017FM-12+013899999V0200501N001010075019N0040001N1+02781+02361101491ADDAA106000091GF108991081051008001999999KA1240N+02421MA1999999099921MD1999999+0001REMSYN076AAXX  27124 82678 32596 80502 10278 20236 39992 40149 885// 333 20242 58000;EQDQ01  00002PRCP06
0167826780999992005042718004-06767-043017FM-12+013899999V0203601N001011050019N0040001N1+03301+02421101071ADDAA106000091GF107991041051008001001021MA1999999099511MD1999999-0051REMSYN070AAXX  27184 82678 32596 73602 10330 20242 39951 40107 84502 333 59005;EQDQ01  00002PRCP06
0198826780999992005042800004-06767-043017FM-12+013899999V0209999C000011050019N0002001N1+02801+02501101261ADDAA106000091GF105991041051008001001021KA1240M+03411MA1999999099691MD1999999-0051REMSYN088AAXX  28004 82678 32592 50000 10280 20250 39969 40126 84502 333 10341 29076 55060 59005;EQDQ01  00002PRCP06
0190826780999992005042812004-06767-043017FM-12+013899999V0202701N000510075019N0040001N1+02261+02211101681ADDAY161061AY261061GF108991081071008001999999KA1240N+02201MA1999999100091MD1999999+0171MW1611REMSYN088AAXX  28124 82678 21596 82701 10226 20221 30009 40168 76166 887// 333 20220 58017 60344;
0171826780999992005042818004-06767-043017FM-12+013899999V0201401N001510075019N0040001N1+02451+02321101341ADDAY161061AY261061GF108991061071008001021999MA1999999099741MD1999999+0231MW1021REMSYN082AAXX  28184 82678 21596 81403 10245 20232 39974 40134 70266 8672/ 333 58023 60161;
0198826780999992005042900004-06767-043017FM-12+013899999V0209999C000010075019N0002001N1+02421+02371101521ADDAA106000091GF108991081051008001999999KA1240M+02891MA1999999099921MD1999999+0231REMSYN088AAXX  29004 82678 32592 80000 10242 20237 39992 40152 885// 333 10289 29096 55000 58023;EQDQ01  00002PRCP06
0190826780999992005042912004-06767-043017FM-12+013899999V0200901N001510075019N0040001N1+02301+02251101801ADDAY161061AY221061GF108991081071008001999999KA1240N+02221MA1999999100191MD1999999+0101MW1611REMSYN088AAXX  29124 82678 21596 80903 10230 20225 30019 40180 76162 887// 333 20222 58010 60384;
0143826780999992005042918004-06767-043017FM-12+013899999V0203201N001510450019N0040001N1+02831+02381101291ADDGF108991021021008001031021MA1999999099711MD1999999-0031REMSYN076AAXX  29184 82678 22596 83203 10283 20238 39971 40129 82232 333 59003 60021;
0202826780999992005043000004-06767-043017FM-12+013899999V0209999C000010075019N0002001N1+02591+02491101631ADDAY161061AY221061GF108991061041008001011999KA1240M+03031MA1999999100031MD1999999+0111MW1021REMSYN100AAXX  30004 82678 21592 80000 10259 20249 30003 40163 70262 8641/ 333 10303 29091 55017 58011 69991;
0190826780999992005043012004-06767-043017FM-12+013899999V0209999C000010075019N0040001N1+02561+02311101771ADDAY161061AY221061GF108991081051008001999999KA1240N+02221MA1999999100181MD1999999-0011MW1021REMSYN088AAXX  30124 82678 21596 80000 10256 20231 30018 40177 70262 885// 333 20222 59001 60554;
0171826780999992005043018004-06767-043017FM-12+013899999V0209999C000010075019N0040001N1+02561+02421101421ADDAY161061AY211061GF108991081051008001999999MA1999999099821MD1999999+0111MW1021REMSYN082AAXX  30184 82678 21596 80000 10256 20242 39982 40142 70261 885// 333 58011 60031;
0185826780999992005050100004-06770-043020FM-12+012799999V0209999C000010075019N0100001N1+02441+02301101641ADDAA106000091GF108991051051008001031021MA1999999100051MD1999999+0021REMSYN088AAXX  01004 82678 32597 80000 10244 20230 30005 40164 85532 333 10297 29092 55094 58002;EQDQ01  00002PRCP06
0149826780999992005050112004-06770-043020FM-12+012799999V0209999C000011050019N0040001N1+02541+02381101781ADDGF105991021031008001001021MA1999999100181MD1999999+0001REMSYN082AAXX  01124 82678 22596 50000 10254 20238 30018 40178 82302 333 20221 58000 60034;
0167826780999992005050118004-06770-043020FM-12+012799999V0202701N002110075019N0040001N1+02921+02291101351ADDAA106000091GF108991081071008001999999MA1999999099771MD1999999-0051REMSYN070AAXX  01184 82678 32596 82704 10292 20229 39977 40135 887// 333 59005;EQDQ01  00002PRCP06
0179826780999992005050200004-06770-043020FM-12+012799999V0209999C000012200019N0002001N1+02581+02441101531ADDAA106000091GF100991001001999999001001MA1999999099941MD1999999-0111REMSYN082AAXX  02004 82678 32792 00000 10258 20244 39994 40153 333 10324 29086 55053 59011;EQDQ01  00002PRCP06
0167826780999992005050218004-06767-043017FM-12+013899999V0201401N000510075019N0040001N1+02621+02411101361ADDAA106000091GF108991071051008001031999MA1999999099771MD1999999+0001REMSYN070AAXX  02184 82678 32596 81401 10262 20241 39977 40136 8753/ 333 58000;EQDQ01  00002PRCP06
0185826780999992005050300004-06767-043017FM-12+013899999V0209999C000010075019N0002001N1+02401+02311101641ADDAA106000091GF108991081051008001999999MA1999999100051MD1999999+0111REMSYN088AAXX  03004 82678 32592 80000 10240 20231 30005 40164 885// 333 10310 29092 55025 58011;EQDQ01  00002PRCP06
0173826780999992005050312004-06767-043017FM-12+013899999V0200901N003110075019N0040001N1+02701+02241101801ADDAA106000091GF108991051041008001011011MA1999999100211MD1999999+0111REMSYN076AAXX  03124 82678 32596 80906 10270 20224 30021 40180 85411 333 20232 58011;EQDQ01  00002PRCP06
0167826780999992005050318004-06767-043017FM-12+013899999V0201801N001510450019N0040001N1+02931+02361101351ADDAA106000091GF108991031021008001021011MA1999999099771MD1999999+0001REMSYN070AAXX  03184 82678 32596 81803 10293 20236 39977 40135 83221 333 58000;EQDQ01  00002PRCP06
0185826780999992005050400004-06767-043017FM-12+013899999V0209999C000010075019N0002001N1+02651+02391101561ADDAA106000091GF108991051041008001021999MA1999999099981MD1999999-0071REMSYN088AAXX  04004 82678 32592 80000 10265 20239 39998 40156 8542/ 333 10298 29080 55025 59007;EQDQ01  00002PRCP06
0173826780999992005050412004-06767-043017FM-12+013899999V0200901N003110075019N0040001N1+02621+02211101711ADDAA106000091GF107991051051008001031001MA1999999100121MD1999999-0091REMSYN076AAXX  04124 82678 32596 70906 10262 20221 30012 40171 85530 333 20238 59009;EQDQ01  00002PRCP06
0167826780999992005050418004-06767-043017FM-12+013899999V0200901N002610075019N0040001N1+02961+02281101411ADDAA106000091GF107991051051008001031021MA1999999099831MD1999999+0061REMSYN070AAXX  04184 82678 32596 70905 10296 20228 39983 40141 85532 333 58006;EQDQ01  00002PRCP06
0179826780999992005050500004-06767-043017FM-12+013899999V0209999C000012200019N0002001N1+02521+02311101621ADDAA106000091GF100991001001999999001001MA1999999100031MD1999999+0051REMSYN082AAXX  05004 82678 32992 00000 10252 20231 30003 40162 333 10301 29080 55043 58005;EQDQ01  00002PRCP06
0173826780999992005050512004-06767-043017FM-12+013899999V0200901N003612200019N0040001N1+02761+02021101651ADDAA106000091GF103991011011008001041001MA1999999100061MD1999999-0061REMSYN076AAXX  05124 82678 32596 30907 10276 20202 30006 40165 81140 333 20222 59006;EQDQ01  00002PRCP06
0167826780999992005050518004-06767-043017FM-12+013899999V0200501N000510120019N0040001N1+03021+02241101361ADDAA106000091GF108991061081008001031011MA1999999099781MD1999999-0051REMSYN070AAXX  05184 82678 32596 80501 10302 20224 39978 40136 86831 333 59005;EQDQ01  00002PRCP06
0179826780999992005050600004-06767-043017FM-12+013899999V0209999C000012200019N0002001N1+02621+02251101451ADDAA106000091GF100991001001999999001001MA1999999099871MD1999999-0161REMSYN082AAXX  06004 82678 32592 00000 10262 20225 39987 40145 333 10313 29072 55051 59016;EQDQ01  00002PRCP06
0173826780999992005050612004-06767-043017FM-12+013899999V0201401N004110075019N0040001N1+02621+02121101731ADDAA106000091GF108991051051008001031001MA1999999100141MD1999999+0081REMSYN076AAXX  06124 82678 32596 81408 10262 20212 30014 40173 85530 333 20240 58008;EQDQ01  00002PRCP06
0167826780999992005050618004-06767-043017FM-12+013899999V0200901N002112200019N0040001N1+03161+02201101281ADDAA106000091GF104991021021008001031091MA1999999099711MD1999999-0071REMSYN070AAXX  06184 82678 32596 40904 10316 20220 39971 40128 82239 333 59007;EQDQ01  00002PRCP06
0179826780999992005050700004-06767-043017FM-12+013899999V0200901N000512200019N0002001N1+02601+02121999999ADDAA106000091GF100991001001999999001001MA1999999099991MD1999999+0061REMSYN082AAXX  07004 82678 32592 00901 10260 20212 39999 44015 333 10322 29070 55079 58006;EQDQ01  00002PRCP06
0167826780999992005050712004-06767-043017FM-12+013899999V0200901N003612200019N0040001N1+02801+02131101581ADDAA106000091GF100991001001999999001001MA1999999100001MD1999999-0141REMSYN070AAXX  07124 82678 32996 00907 10280 20213 30000 40158 333 20214 59014;EQDQ01  00002PRCP06
0167826780999992005050718004-06767-043017FM-12+013899999V0200901N002611050019N0040001N1+03181+02281101231ADDAA106000091GF105991021021008001031021MA1999999099651MD1999999-0061REMSYN070AAXX  07184 82678 32596 50905 10318 20228 39965 40123 82232 333 59006;EQDQ01  00002PRCP06
0179826780999992005050800004-06770-043020FM-12+012799999V0209999C000012200019N0002001N1+02561+02231101441ADDAA106000091GF100991001001999999001001MA1999999099861MD1999999-0071REMSYN082AAXX  08004 82678 32992 00000 10256 20223 39986 40144 333 10327 29072 55098 59007;EQDQ01  00002PRCP06
0173826780999992005050812004-06770-043020FM-12+012799999V0201401N004112200019N0040001N1+02761+02231101511ADDAA106000091GF103991031011008001001001MA1999999099931MD1999999-0071REMSYN076AAXX  08124 82678 32596 31408 10276 20223 39993 40151 83100 333 20224 59007;EQDQ01  00002PRCP06
0167826780999992005050818004-06770-043020FM-12+012799999V0201401N002612200019N0040001N1+03101+02391101231ADDAA106000091GF103991021021008001031001MA1999999099661MD1999999+0011REMSYN070AAXX  08184 82678 32596 31405 10310 20239 39966 40123 82230 333 58001;EQDQ01  00002PRCP06
0179826780999992005050900004-06767-043017FM-12+013899999V0201401N001012200019N0002001N1+02641+02251101441ADDAA106000091GF100991001001999999001001MA1999999099861MD1999999+0001REMSYN082AAXX  09004 82678 32992 01402 10264 20225 39986 40144 333 10321 29074 55103 58000;EQDQ01  00002PRCP06
0173826780999992005050912004-06767-043017FM-12+013899999V0201401N004112200019N0040001N1+02701+02131101591ADDAA106000091GF104991041021008001001001MA1999999100011MD1999999+0081REMSYN076AAXX  09124 82678 32596 41408 10270 20213 30001 40159 84200 333 20270 58008;EQDQ01  00002PRCP06
0167826780999992005050918004-06767-043017FM-12+013899999V0201401N001512200019N0040001N1+03141+02211101281ADDAA106000091GF105991041051008001001011MA1999999099701MD1999999+0051REMSYN070AAXX  09184 82678 32596 51403 10314 20221 39970 40128 84501 333 58005;EQDQ01  00002PRCP06
0179826780999992005051000004-06767-043017FM-12+013899999V0209999C000012200019N0002001N1+02521+02311101341ADDAA106000091GF100991001001999999001001MA1999999099761MD1999999-0101REMSYN082AAXX  10004 82678 32992 00000 10252 20231 39976 40134 333 10320 29076 55096 59010;EQDQ01  00002PRCP06
0173826780999992005051012004-06767-043017FM-12+013899999V0201401N002110075019N0040001N1+02601+02251101581ADDAA106000091GF108991051051008001031021MA1999999099991MD1999999-0021REMSYN076AAXX  10124 82678 32596 81404 10260 20225 39999 40158 85532 333 20212 59002;EQDQ01  00002PRCP06
0167826780999992005051018004-06767-043017FM-12+013899999V0200901N001512200019N0040001N1+03221+02261101201ADDAA106000091GF105991031021008001001011MA1999999099631MD1999999-0071REMSYN070AAXX  10184 82678 32596 50903 10322 20226 39963 40120 83201 333 59007;EQDQ01  00002PRCP06
0179826780999992005051100004-06767-043017FM-12+013899999V0209999C000012200019N0002001N1+02621+02311101261ADDAA106000091GF100991001001999999001001MA1999999099681MD1999999-0081REMSYN082AAXX  11004 82678 32992 00000 10262 20231 39968 40126 333 10329 29076 55092 59008;EQDQ01  00002PRCP06
0173826780999992005051112004-06767-043017FM-12+013899999V0201401N003610075019N0040001N1+02691+02111101591ADDAA106000091GF106991061051008001001001MA1999999100011MD1999999+0021REMSYN076AAXX  11124 82678 32596 61407 10269 20211 30001 40159 86500 333 20236 58002;EQDQ01  00002PRCP06
0167826780999992005051118004-06767-043017FM-12+013899999V0201401N002112200019N0040001N1+03161+02171101191ADDAA106000091GF104991021021008001031011MA1999999099621MD1999999-0011REMSYN070AAXX  11184 82678 32596 41404 10316 20217 39962 40119 82231 333 59001;EQDQ01  00002PRCP06
0185826780999992005051200004-06767-043017FM-12+013899999V0201801N001012200019N0002001N1+03101+01841101391ADDAA106000091GF102991011001017501021011MA1999999099831MD1999999+0151REMSYN088AAXX  12004 82678 32792 21802 10310 20184 39983 40139 81021 333 10321 29055 55065 58015;EQDQ01  00002PRCP06
0173826780999992005051212004-06767-043017FM-12+013899999V0201401N003612200019N0040001N1+02741+02001101471ADDAA106000091GF104991021011008001001011MA1999999099901MD1999999-0111REMSYN076AAXX  12124 82678 32596 41407 10274 20200 39990 40147 82101 333 20192 59011;EQDQ01  00002PRCP06
0167826780999992005051218004-06767-043017FM-12+013899999V0200901N001510450019N0040001N1+03181+02251101201ADDAA106000091GF105991031021008001031011MA1999999099631MD1999999+0011REMSYN070AAXX  12184 82678 32596 50903 10318 20225 39963 40120 83231 333 58001;EQDQ01  00002PRCP06
0185826780999992005051300004-06767-043017FM-12+013899999V0209999C000010075019N0002001N1+02661+02371101401ADDAA106000091GF108991051031008001001021MA1999999099821MD1999999-0011REMSYN088AAXX  13004 82678 32592 80000 10266 20237 39982 40140 85302 333 10323 29072 55102 59001;EQDQ01  00002PRCP06
0173826780999992005051312004-06767-043017FM-12+013899999V0200901N003619999999N0040001N1+02901+02271101451ADDAA106000091GF105991999021008001001001MA1999999099881MD1999999-0021REMSYN076AAXX  13124 82678 32596 50907 10290 20227 39988 40145 83200 333 20215 59002;EQDQ01  00002PRCP06
0167826780999992005051318004-06767-043017FM-12+013899999V0200901N003110075019N0040001N1+03201+02261101121ADDAA106000091GF108991051051008001031011MA1999999099551MD1999999-0081REMSYN070AAXX  13184 82678 32596 80906 10320 20226 39955 40112 85531 333 59008;EQDQ01  00002PRCP06
0179826780999992005051400004-06767-043017FM-12+013899999V0209999C000012200019N0002001N1+02581+02171101231ADDAA106000091GF100991001001999999001001MA1999999099661MD1999999-0161REMSYN082AAXX  14004 82678 32792 00000 10258 20217 39966 40123 333 10329 29072 55075 59016;EQDQ01  00002PRCP06
0173826780999992005051412004-06767-043017FM-12+013899999V0200901N004111050019N0040001N1+02761+02121101381ADDAA106000091GF105991021011008001001021MA1999999099801MD1999999-0081REMSYN076AAXX  14124 82678 32596 50908 10276 20212 39980 40138 82102 333 20240 59008;EQDQ01  00002PRCP06
0167826780999992005051418004-06767-043017FM-12+013899999V0201401N003110075019N0040001N1+02881+02391101051ADDAA106000091GF107991061051008001031001MA1999999099471MD1999999-0081REMSYN070AAXX  14184 82678 32596 71406 10288 20239 39947 40105 86530 333 59008;EQDQ01  00002PRCP06
0179826780999992005051500004-06770-043020FM-12+012799999V0209999C000012200019N0002001N1+02521+02231101111ADDAA106000091GF100991001001999999001001MA1999999099531MD1999999-0131REMSYN082AAXX  15004 82678 32992 00000 10252 20223 39953 40111 333 10311 29078 55057 59013;EQDQ01  00002PRCP06
0173826780999992005051512004-06770-043020FM-12+012799999V0201401N004110075019N0040001N1+02821+02151101231ADDAA106000091GF105991051011008001001001MA1999999099741MD1999999-0061REMSYN076AAXX  15124 82678 32596 51408 10282 20215 39974 40123 85100 333 20232 59006;EQDQ01  00002PRCP06
0183826780999992005051518004-06770-043020FM-12+012799999V0201401N001519999999N0040001N1+03141+02281100961ADDAA106000091GF105991999021008001001001MA1999999099401MD1999999-0041REMSYN070AAXX  15184 82678 32596 51403 10314 20228 39940 40096 84200 333 59004;EQDQ01+000042SCOTLCQ02  00002PRCP06
0179826780999992005051600004-06767-043017FM-12+013899999V0201801N001512200019N0002001N1+02901+02141101181ADDAA106000091GF100991001001999999001001MA1999999099611MD1999999+0081REMSYN082AAXX  16004 82678 32992 01803 10290 20214 39961 40118 333 10315 29070 55096 58008;EQDQ01  00002PRCP06
0173826780999992005051612004-06767-043017FM-12+013899999V0201401N004110450019N0040001N1+02711+02031101421ADDAA106000091GF108991031021008001011021MA1999999099841MD1999999+0101REMSYN076AAXX  16124 82678 32596 81408 10271 20203 39984 40142 83212 333 20222 58010;EQDQ01  00002PRCP06
0167826780999992005051618004-06767-043017FM-12+013899999V0200901N002111050019N0040001N1+03241+02161101041ADDAA106000091GF105991031021008001001021MA1999999099471MD1999999+0071REMSYN070AAXX  16184 82678 32596 50904 10324 20216 39947 40104 83202 333 58007;EQDQ01  00002PRCP06
0185826780999992005051700004-06767-043017FM-12+013899999V0209999C000012200019N0002001N1+02531+02231101201ADDAA106000091GF104991021001017501011011MA1999999099621MD1999999+0011REMSYN088AAXX  17004 82678 32792 40000 10253 20223 39962 40120 82011 333 10327 29072 55083 58001;EQDQ01  00002PRCP06
0173826780999992005051712004-06767-043017FM-12+013899999V0201401N004110450019N0040001N1+02821+02121101371ADDAA106000091GF108991041011008001011011MA1999999099791MD1999999-0051REMSYN076AAXX  17124 82678 32596 81408 10282 20212 39979 40137 84111 333 20234 59005;EQDQ01  00002PRCP06
0167826780999992005051718004-06767-043017FM-12+013899999V0200901N002610120019N0040001N1+03231+02081100941ADDAA106000091GF108991051081008001001011MA1999999099381MD1999999-0091REMSYN070AAXX  17184 82678 32596 80905 10323 20208 39938 40094 85801 333 59009;EQDQ01  00002PRCP06
0179826780999992005051800004-06767-043017FM-12+013899999V0200901N000512200019N0002001N1+02631+02271101131ADDAA106000091GF100991001001999999001001MA1999999099561MD1999999-0061REMSYN082AAXX  18004 82678 32992 00901 10263 20227 39956 40113 333 10329 29070 55082 59006;EQDQ01  00002PRCP06
0173826780999992005051812004-06767-043017FM-12+013899999V0200901N003110075019N0040001N1+02781+02211101351ADDAA106000091GF108991051021008001001011MA1999999099771MD1999999-0021REMSYN076AAXX  18124 82678 32596 80906 10278 20221 39977 40135 85201 333 20232 59002;EQDQ01  00002PRCP06
0167826780999992005051818004-06767-043017FM-12+013899999V0201401N003111050019N0040001N1+03341+02091100901ADDAA106000091GF108991041081008001001021MA1999999099341MD1999999-0041REMSYN070AAXX  18184 82678 32596 81406 10334 20209 39934 40090 84802 333 59004;EQDQ01  00002PRCP06
0179826780999992005051900004-06767-043017FM-12+013899999V0209999C000012200019N0002001N1+02581+02251101121ADDAA106000091GF100991001001999999001001MA1999999099551MD1999999-0011REMSYN082AAXX  19004 82678 32992 00000 10258 20225 39955 40112 333 10339 29071 55091 59001;EQDQ01  00002PRCP06
0173826780999992005051912004-06767-043017FM-12+013899999V0201401N001512200019N0040001N1+02781+02111101361ADDAA106000091GF103991021011008001001011MA1999999099771MD1999999+0001REMSYN076AAXX  19124 82678 32596 31403 10278 20211 39977 40136 82101 333 20218 58000;EQDQ01  00002PRCP06
0167826780999992005051918004-06767-043017FM-12+013899999V0201401N001510075019N0040001N1+03301+02051100961ADDAA106000091GF108991051031008001001021MA1999999099391MD1999999+0051REMSYN070AAXX  19184 82678 32596 81403 10330 20205 39939 40096 85302 333 58005;EQDQ01  00002PRCP06
0185826780999992005052000004-06767-043017FM-12+013899999V0209999C000010075019N0002001N1+02501+02191101231ADDAA106000091GF108991061011008001001011MA1999999099651MD1999999+0101REMSYN088AAXX  20004 82678 32592 80000 10250 20219 39965 40123 86101 333 10332 29070 55082 58010;EQDQ01  00002PRCP06
0173826780999992005052012004-06767-043017FM-12+013899999V0201401N001010450019N0040001N1+02661+02001101451ADDAA106000091GF107991031051008001031021MA1999999099861MD1999999+0091REMSYN076AAXX  20124 82678 32596 71402 10266 20200 39986 40145 83532 333 20228 58009;EQDQ01  00002PRCP06
0167826780999992005052018004-06767-043017FM-12+013899999V0200901N001510450019N0040001N1+03241+02061101011ADDAA106000091GF108991041021008001021011MA1999999099451MD1999999+0051REMSYN070AAXX  20184 82678 32596 80903 10324 20206 39945 40101 84221 333 58005;EQDQ01  00002PRCP06
0185826780999992005052100004-06767-043017FM-12+013899999V0200901N000519999999N0002001N1+02681+02391101271ADDAA106000091GF107991001001999999001021MA1999999099691MD1999999+0041REMSYN088AAXX  21004 82678 32992 70901 10268 20239 39969 40127 80002 333 10333 29071 55064 58004;EQDQ01  00002PRCP06
0177826780999992005052112004-06767-043017FM-12+013899999V0209999C000010075019N0040001N1+02481+02381101591ADDAY101061AY221061GF108991051051008001999999MA1999999100001MD1999999+0141MW1611REMSYN088AAXX  21124 82678 21596 80000 10248 20238 30000 40159 76102 855// 333 20244 58014 60034;
0171826780999992005052118004-06767-043017FM-12+013899999V0202701N001510450019N0040001N1+02781+02421101211ADDAY161061AY221061GF108991041051008001031021MA1999999099631MD1999999+0181MW1021REMSYN082AAXX  21184 82678 21596 82703 10278 20242 39963 40121 70262 84532 333 58018 60021;
0185826780999992005052200004-06770-043020FM-12+012799999V0209999C000010150019N0002001N1+02541+02381101351ADDAA106000091GF107991061001017501031021MA1999999099761MD1999999+0071REMSYN088AAXX  22004 82678 32792 70000 10254 20238 39976 40135 86032 333 10295 29089 55000 58007;EQDQ01  00002PRCP06
0149826780999992005052212004-06770-043020FM-12+012799999V0202701N000510450019N0040001N1+02691+02351101511ADDGF108991031051008001031011MA1999999099921MD1999999-0081REMSYN082AAXX  22124 82678 22596 82701 10269 20235 39992 40151 83531 333 20237 59008 60024;
0167826780999992005052218004-06770-043020FM-12+012799999V0200501N001010450019N0040001N1+03261+02351100961ADDAA106000091GF108991031081008001021011MA1999999099401MD1999999-0231REMSYN070AAXX  22184 82678 32596 80502 10326 20235 39940 40096 83821 333 59023;EQDQ01  00002PRCP06
0185826780999992005052300004-06770-043020FM-12+012799999V0209999C000019999999N0002001N1+02641+02441101321ADDAA106000091GF105991001001999999001011MA1999999099741MD1999999-0021REMSYN088AAXX  23004 82678 32992 50000 10264 20244 39974 40132 80001 333 10330 29080 55064 59002;EQDQ01  00002PRCP06
0177826780999992005052312004-06770-043020FM-12+012799999V0201401N000510075019N0040001N1+02431+02351101491ADDAY161061AY261061GF108991061051008001021999MA1999999099901MD1999999-0021MW1511REMSYN088AAXX  23124 82678 21596 81401 10243 20235 39990 40149 75166 8652/ 333 20236 59002 60304;
0148826780999992005052318004-06770-043020FM-12+012799999V0203601N001010075019N0040001N1+02801+02441101101ADDAA106000021GF108991061051008001021999MA1999999099521MD1999999+0121REMSYN070AAXX  23184 82678 32596 83602 10280 20244 39952 40110 8652/ 333 58012;
0185826780999992005052400004-06767-043017FM-12+013899999V0200501N002110450019N0002001N1+02521+02381101391ADDAA106000091GF108991021051008001021999MA1999999099801MD1999999+0061REMSYN088AAXX  24004 82678 32592 80504 10252 20238 39980 40139 8252/ 333 10303 29090 55004 58006;EQDQ01  00002PRCP06
0173826780999992005052412004-06767-043017FM-12+013899999V0203201N001010450019N0040001N1+02581+02311101831ADDAA106000091GF105991031051008001021011MA1999999099981MD1999999+0081REMSYN076AAXX  24124 82678 32596 53202 10258 20231 39998 40183 83521 333 20231 58008;EQDQ01  00002PRCP06
0167826780999992005052418004-06767-043017FM-12+013899999V0200501N001010075019N0040001N1+03081+02321101141ADDAA106000091GF108991051021008001001021MA1999999099571MD1999999+0051REMSYN070AAXX  24184 82678 32596 80502 10308 20232 39957 40114 85202 333 58005;EQDQ01  00002PRCP06
0185826780999992005052500004-06767-043017FM-12+013899999V0209999C000012200019N0040001N1+02581+02421101391ADDAA106000091GF105991021011008001001011MA1999999099811MD1999999+0011REMSYN088AAXX  25004 82678 32596 50000 10258 20242 39981 40139 82101 333 10315 29083 55077 58001;EQDQ01  00002PRCP06
0173826780999992005052512004-06767-043017FM-12+013899999V0209999C000012200019N0040001N1+02701+02221101601ADDAA106000091GF102991021001017501001011MA1999999100021MD1999999+0041REMSYN076AAXX  25124 82678 32796 20000 10270 20222 30002 40160 82001 333 20228 58004;EQDQ01  00002PRCP06
0167826780999992005052518004-06767-043017FM-12+013899999V0203201N001012200019N0040001N1+03301+02241101221ADDAA106000091GF105991041021008001001011MA1999999099651MD1999999+0081REMSYN070AAXX  25184 82678 32596 53202 10330 20224 39965 40122 84201 333 58008;EQDQ01  00002PRCP06
0189826780999992005052600004-06767-043017FM-12+013899999V0209999C000010075019N0002001N1+02701+02411101431ADDAY161061AY221061GF108991051051008001021999MA1999999099851MD1999999+0041MW1021REMSYN100AAXX  26004 82678 21592 80000 10270 20241 39985 40143 70262 8552/ 333 10339 29074 55087 58004 60021;
0149826780999992005052612004-06767-043017FM-12+013899999V0200501N001510450019N0040001N1+02721+02371101791ADDGF108991011021008001021011MA1999999100211MD1999999+0191REMSYN082AAXX  26124 82678 22596 80503 10272 20237 30021 40179 81221 333 20239 58019 60024;
0167826780999992005052618004-06767-043017FM-12+013899999V0201401N001510075019N0040001N1+03271+02301101361ADDAA106000091GF108991051021008001001011MA1999999099791MD1999999+0141REMSYN070AAXX  26184 82678 32596 81403 10327 20230 39979 40136 85201 333 58014;EQDQ01  00002PRCP06
0185826780999992005052700004-06767-043017FM-12+013899999V0200501N003112200019N0002001N1+02571+02151101591ADDAA106000091GF105991021001017501011011MA1999999100011MD1999999+0161REMSYN088AAXX  27004 82678 32792 50506 10257 20215 30001 40159 82011 333 10330 29074 55069 58016;EQDQ01  00002PRCP06
0173826780999992005052712004-06767-043017FM-12+013899999V0201401N001510450019N0040001N1+02701+02331101781ADDAA106000091GF108991021051008001031011MA1999999100191MD1999999-0021REMSYN076AAXX  27124 82678 32596 81403 10270 20233 30019 40178 82531 333 20230 59002;EQDQ01  00002PRCP06
0167826780999992005052718004-06767-043017FM-12+013899999V0200901N002112200019N0040001N1+03231+02341101341ADDAA106000091GF105991021021008001001011MA1999999099771MD1999999-0021REMSYN070AAXX  27184 82678 32596 50904 10323 20234 39977 40134 82201 333 59002;EQDQ01  00002PRCP06
0179826780999992005052800004-06767-043017FM-12+013899999V0209999C000012200019N0002001N1+02661+02441101531ADDAA106000091GF100991001001999999001001MA1999999099951MD1999999-0061REMSYN082AAXX  28004 82678 32992 00000 10266 20244 39995 40153 333 10331 29079 55086 59006;EQDQ01  00002PRCP06
0173826780999992005052812004-06767-043017FM-12+013899999V0200901N003112200019N0040001N1+02721+01981101651ADDAA106000091GF102991021001017501031001MA1999999100071MD1999999-0121REMSYN076AAXX  28124 82678 32796 20906 10272 20198 30007 40165 82030 333 20234 59012;EQDQ01  00002PRCP06
0167826780999992005052818004-06767-043017FM-12+013899999V0200901N003112200019N0040001N1+03201+01991101271ADDAA106000091GF104991041011008001001001MA1999999099701MD1999999-0071REMSYN070AAXX  28184 82678 32596 40906 10320 20199 39970 40127 84100 333 59007;EQDQ01  00002PRCP06
0185826780999992005052900004-06770-043020FM-12+012799999V0209999C000012200019N0002001N1+02601+02251101301ADDAA106000091GF104991041051008001001001MA1999999099721MD1999999-0231REMSYN088AAXX  29004 82678 32592 40000 10260 20225 39972 40130 84500 333 10330 29069 55104 59023;EQDQ01  00002PRCP06
0173826780999992005052912004-06770-043020FM-12+012799999V0200901N003112200019N0040001N1+02701+02031101631ADDAA106000091GF103991021011008001031001MA1999999100051MD1999999-0021REMSYN076AAXX  29124 82678 32596 30906 10270 20203 30005 40163 82130 333 20236 59002;EQDQ01  00002PRCP06
0167826780999992005052918004-06770-043020FM-12+012799999V0200901N002612200019N0040001N1+03161+01991101291ADDAA106000091GF104991041021008001001001MA1999999099721MD1999999+0021REMSYN070AAXX  29184 82678 32596 40905 10316 20199 39972 40129 84200 333 58002;EQDQ01  00002PRCP06
0198826780999992005053000004-06767-043017FM-12+013899999V0201801N000512200019N0002001N1+02461+02071101471ADDAA106000091GF102991001001999999001011KA1240M+03231MA1999999099881MD1999999+0161REMSYN088AAXX  30004 82678 32992 21801 10246 20207 39988 40147 80001 333 10323 29069 55103 58016;EQDQ01  00002PRCP06
0186826780999992005053012004-06767-043017FM-12+013899999V0201401N005112200019N0040001N1+02621+02051101771ADDAA106000091GF103991021011008001001011KA1240N+02231MA1999999100181MD1999999+0131REMSYN076AAXX  30124 82678 32596 31410 10262 20205 30018 40177 82101 333 20223 58013;EQDQ01  00002PRCP06
0167826780999992005053018004-06767-043017FM-12+013899999V0200901N001511050019N0040001N1+03201+02481101381ADDAA106000091GF106991041021008001001021MA1999999099801MD1999999+0081REMSYN070AAXX  30184 82678 32596 60903 10320 20248 39980 40138 84202 333 58008;EQDQ01  00002PRCP06
0198826780999992005053100004-06767-043017FM-12+013899999V0201401N001010075019N0002001N1+02781+02341101551ADDAA106000091GF108991051031008001001011KA1240M+03271MA1999999099971MD1999999+0091REMSYN088AAXX  31004 82678 32592 81402 10278 20234 39997 40155 85301 333 10327 29073 55074 58009;EQDQ01  00002PRCP06
0186826780999992005053112004-06767-043017FM-12+013899999V0201401N004112200019N0040001N1+02721+02241101691ADDAA106000091GF104991021011008001001011KA1240N+02391MA1999999100111MD1999999-0071REMSYN076AAXX  31124 82678 32596 41408 10272 20224 30011 40169 82101 333 20239 59007;EQDQ01  00002PRCP06
0167826780999992005053118004-06767-043017FM-12+013899999V0201401N002612200019N0040001N1+03141+02531101361ADDAA106000091GF105991031021008001001011MA1999999099791MD1999999-0011REMSYN070AAXX  31184 82678 32596 51405 10314 20253 39979 40136 83201 333 59001;EQDQ01  00002PRCP06
0179826780999992005060100004-06767-043017FM-12+013899999V0209999C000012200019N0002001N1+02481+02271101471ADDAA106000091GF100991001001999999001001MA1999999099881MD1999999-0091REMSYN082AAXX  01004 82678 32992 00000 10248 20227 39988 40147 333 10319 29080 55096 59009;EQDQ01  00002PRCP06
0173826780999992005060112004-06767-043017FM-12+013899999V0200901N003112200019N0040001N1+02721+02221101691ADDAA106000091GF103991021011008001031001MA1999999100101MD1999999-0011REMSYN076AAXX  01124 82678 32596 30906 10272 20222 30010 40169 82130 333 20230 59001;EQDQ01  00002PRCP06
0167826780999992005060118004-06767-043017FM-12+013899999V0200901N001510075019N0040001N1+03101+02151101291ADDAA106000091GF108991061051008001031001MA1999999099711MD1999999-0081REMSYN070AAXX  01184 82678 32596 80903 10310 20215 39971 40129 86530 333 59008;EQDQ01  00002PRCP06
0173826780999992005060212004-06767-043017FM-12+013899999V0200901N003612200019N0040001N1+02701+01991101651ADDAA106000091GF105991031021008001001011MA1999999100061MD1999999-0041REMSYN076AAXX  02124 82678 32596 50907 10270 20199 30006 40165 83201 333 20224 59004;EQDQ01  00002PRCP06
0167826780999992005060218004-06767-043017FM-12+013899999V0201401N002611050019N0040001N1+03181+01981101271ADDAA106000091GF105991041021008001001021MA1999999099701MD1999999-0011REMSYN070AAXX  02184 82678 32596 51405 10318 20198 39970 40127 84202 333 59001;EQDQ01  00002PRCP06
0179826780999992005060300004-06767-043017FM-12+013899999V0209999C000012200019N0002001N1+02521+02131101451ADDAA106000091GF100991001001999999001001MA1999999099861MD1999999+0001REMSYN082AAXX  03004 82678 32992 00000 10252 20213 39986 40145 333 10327 29068 55100 58000;EQDQ01  00002PRCP06
0173826780999992005060312004-06767-043017FM-12+013899999V0201401N004112200019N0040001N1+02681+01671101621ADDAA106000091GF106991011001017501011011MA1999999100031MD1999999-0031REMSYN076AAXX  03124 82678 32796 61408 10268 20167 30003 40162 81011 333 20218 59003;EQDQ01  00002PRCP06
0167826780999992005060318004-06767-043017FM-12+013899999V0200901N001510075019N0040001N1+03141+02041101301ADDAA106000091GF105991051051008001001001MA1999999099731MD1999999+0031REMSYN070AAXX  03184 82678 32596 50903 10314 20204 39973 40130 85500 333 58003;EQDQ01  00002PRCP06
0185826780999992005060400004-06767-043017FM-12+013899999V0201401N000512200019N0002001N1+02581+02121101481ADDAA106000091GF105991021001017501021011MA1999999099901MD1999999+0041REMSYN088AAXX  04004 82678 32792 51401 10258 20212 39990 40148 82021 333 10323 29064 55095 58004;EQDQ01  00002PRCP06
0189826780999992005060412004-06770-043020FM-12+012799999V0200901N003619999999N0040001N1+02701+01801101671ADDAA106000091GF106991999021017501001001MA1999999100081MD1999999+0051REMSYN076AAXX  04124 82678 32796 60907 10270 20180 30008 40167 81200 333 20228 58005;EQDQ01+000012SCOTLCQ02  00002PRCP06
0167826780999992005060418004-06770-043020FM-12+012799999V0201401N002111050019N0040001N1+03241+01821101261ADDAA106000091GF105991021021008001031011MA1999999099691MD1999999-0041REMSYN070AAXX  04184 82678 32596 51404 10324 20182 39969 40126 82231 333 59004;EQDQ01  00002PRCP06
0179826780999992005060500004-06770-043020FM-12+012799999V0201401N001512200019N0002001N1+02641+02001101471ADDAA106000091GF100991001001999999001001MA1999999099891MD1999999-0011REMSYN082AAXX  05004 82678 32992 01403 10264 20200 39989 40147 333 10331 29059 55105 59001;EQDQ01  00002PRCP06
0173826780999992005060512004-06767-043017FM-12+013899999V0201401N004112200019N0040001N1+02721+02121101661ADDAA106000091GF104991041021008001001001MA1999999100081MD1999999+0001REMSYN076AAXX  05124 82678 32596 41408 10272 20212 30008 40166 84200 333 20216 58000;EQDQ01  00002PRCP06
0167826780999992005060518004-06767-043017FM-12+013899999V0201401N001510075019N0040001N1+03261+02181101291ADDAA106000091GF105991051051008001001001MA1999999099721MD1999999+0031REMSYN070AAXX  05184 82678 32596 51403 10326 20218 39972 40129 85500 333 58003;EQDQ01  00002PRCP06
0185826780999992005060600004-06767-043017FM-12+013899999V0201401N000510075019N0002001N1+02741+02051101501ADDAA106000091GF107991071051008001001001MA1999999099921MD1999999+0031REMSYN088AAXX  06004 82678 32592 71401 10274 20205 39992 40150 87500 333 10333 29064 55087 58003;EQDQ01  00002PRCP06
0173826780999992005060612004-06767-043017FM-12+013899999V0201401N005712200019N0040001N1+02631+01811101621ADDAA106000091GF103991031011008001001001MA1999999100041MD1999999-0041REMSYN076AAXX  06124 82678 32596 31411 10263 20181 30004 40162 83100 333 20221 59004;EQDQ01  00002PRCP06
0167826780999992005060618004-06767-043017FM-12+013899999V0201401N002612200019N0040001N1+03161+01791101291ADDAA106000091GF101991011011008001001001MA1999999099721MD1999999+0001REMSYN070AAXX  06184 82678 32596 11405 10316 20179 39972 40129 81100 333 58000;EQDQ01  00002PRCP06
0179826780999992005060700004-06767-043017FM-12+013899999V0209999C000012200019N0002001N1+02401+01911101401ADDAA106000091GF100991001001999999001001MA1999999099821MD1999999-0111REMSYN082AAXX  07004 82678 32992 00000 10240 20191 39982 40140 333 10325 29063 55103 59011;EQDQ01  00002PRCP06
0173826780999992005060712004-06767-043017FM-12+013899999V0201401N004110150019N0040001N1+02681+01991101541ADDAA106000091GF106991051001017501031011MA1999999099951MD1999999-0091REMSYN076AAXX  07124 82678 32796 61408 10268 20199 39995 40154 85031 333 20210 59009;EQDQ01  00002PRCP06
0167826780999992005060718004-06767-043017FM-12+013899999V0200901N001510075019N0040001N1+03121+02051101231ADDAA106000091GF108991071051008001031999MA1999999099651MD1999999-0071REMSYN070AAXX  07184 82678 32596 80903 10312 20205 39965 40123 8753/ 333 59007;EQDQ01  00002PRCP06
0185826780999992005060800004-06767-043017FM-12+013899999V0209999C000010450019N0002001N1+02701+02201101351ADDAA106000091GF107991041051008001031001MA1999999099771MD1999999-0041REMSYN088AAXX  08004 82678 32592 70000 10270 20220 39977 40135 84530 333 10319 29068 55053 59004;EQDQ01  00002PRCP06
0173826780999992005060812004-06767-043017FM-12+013899999V0200901N004112200019N0040001N1+02701+01911101701ADDAA106000091GF102991011011008001001011MA1999999100121MD1999999+0171REMSYN076AAXX  08124 82678 32596 20908 10270 20191 30012 40170 81101 333 20242 58017;EQDQ01  00002PRCP06
0167826780999992005060818004-06767-043017FM-12+013899999V0200901N001012200019N0040001N1+03261+02051101301ADDAA106000091GF103991021011008001001011MA1999999099741MD1999999+0091REMSYN070AAXX  08184 82678 32596 30902 10326 20205 39974 40130 82101 333 58009;EQDQ01  00002PRCP06
0179826780999992005060900004-06767-043017FM-12+013899999V0201801N000512200019N0002001N1+02561+02061101491ADDAA106000091GF100991001001999999001001MA1999999099911MD1999999+0141REMSYN082AAXX  09004 82678 32992 01801 10256 20206 39991 40149 333 10331 29065 55101 58014;EQDQ01  00002PRCP06
0173826780999992005060912004-06767-043017FM-12+013899999V0201401N005112200019N0040001N1+02701+01991101781ADDAA106000091GF106991041041008001001011MA1999999100191MD1999999+0071REMSYN076AAXX  09124 82678 32596 61410 10270 20199 30019 40178 84401 333 20233 58007;EQDQ01  00002PRCP06
0167826780999992005060918004-06767-043017FM-12+013899999V0200901N002610075019N0040001N1+03101+01871101481ADDAA106000091GF106991061041008001001001MA1999999099901MD1999999+0161REMSYN070AAXX  09184 82678 32596 60905 10310 20187 39990 40148 86400 333 58016;EQDQ01  00002PRCP06
0185826780999992005061000004-06767-043017FM-12+013899999V0209999C000012200019N0002001N1+02501+02111101631ADDAA106000091GF103991031001017501031001MA1999999100041MD1999999+0131REMSYN088AAXX  10004 82678 32792 30000 10250 20211 30004 40163 83030 333 10321 29068 55074 58013;EQDQ01  00002PRCP06
0173826780999992005061012004-06767-043017FM-12+013899999V0201401N004612200019N0040001N1+02621+01761101791ADDAA106000091GF101991001001999999001011MA1999999100201MD1999999+0011REMSYN076AAXX  10124 82678 32996 11409 10262 20176 30020 40179 80001 333 20219 58001;EQDQ01  00002PRCP06
0167826780999992005061018004-06767-043017FM-12+013899999V0201401N003112200019N0040001N1+03261+01681101291ADDAA106000091GF102991011011008001001011MA1999999099721MD1999999-0181REMSYN070AAXX  10184 82678 32596 21406 10326 20168 39972 40129 81101 333 59018;EQDQ01  00002PRCP06
0179826780999992005061100004-06767-043017FM-12+013899999V0209999C000012200019N0002001N1+02471+01971101481ADDAA106000091GF100991001001999999001001MA1999999099891MD1999999-0151REMSYN082AAXX  11004 82678 32992 00000 10247 20197 39989 40148 333 10332 29062 55104 59015;EQDQ01  00002PRCP06
0167826780999992005061112004-06767-043017FM-12+013899999V0201401N005112200019N0040001N1+02661+01821101691ADDAA106000091GF100991001001999999001001MA1999999100101MD1999999-0101REMSYN070AAXX  11124 82678 32796 01410 10266 20182 30010 40169 333 20228 59010;EQDQ01  00002PRCP06
0161826780999992005061118004-06767-043017FM-12+013899999V0201401N002612200019N0040001N1+03321+01971101241ADDAA106000091GF100991001001999999001001MA1999999099681MD1999999-0041REMSYN064AAXX  11184 82678 32596 01405 10332 20197 39968 40124 333 59004;EQDQ01  00002PRCP06
0179826780999992005061200004-06770-043020FM-12+012799999V0209999C000012200019N0002001N1+02581+02101101391ADDAA106000091GF100991001001999999001001MA1999999099791MD1999999-0101REMSYN082AAXX  12004 82678 32992 00000 10258 20210 39979 40139 333 10335 29064 55104 59010;EQDQ01  00002PRCP06
0173826780999992005061212004-06770-043020FM-12+012799999V0200901N002612200019N0040001N1+02721+02051101661ADDAA106000091GF103991021011008001001011MA1999999100071MD1999999-0031REMSYN076AAXX  12124 82678 32596 30905 10272 20205 30007 40166 82101 333 20226 59003;EQDQ01  00002PRCP06
0167826780999992005061218004-06770-043020FM-12+012799999V0200901N003112200019N0040001N1+03281+02031101211ADDAA106000091GF105991021021008001001011MA1999999099651MD1999999-0031REMSYN070AAXX  12184 82678 32596 50906 10328 20203 39965 40121 82201 333 59003;EQDQ01  00002PRCP06
0179826780999992005061300004-06767-043017FM-12+013899999V0209999C000012200019N0002001N1+02761+02311101391ADDAA106000091GF100991001001999999001001MA1999999099811MD1999999+0021REMSYN082AAXX  13004 82678 32792 00000 10276 20231 39981 40139 333 10341 29064 55075 58002;EQDQ01  00002PRCP06
0173826780999992005061312004-06767-043017FM-12+013899999V0201401N001010450019N0040001N1+02621+02141101691ADDAA106000091GF108991041051008001031999MA1999999100111MD1999999+0041REMSYN076AAXX  13124 82678 32596 81402 10262 20214 30011 40169 8453/ 333 20254 58004;EQDQ01  00002PRCP06
0167826780999992005061318004-06767-043017FM-12+013899999V0200901N001512200019N0040001N1+03161+02121101321ADDAA106000091GF103991011011008001031001MA1999999099761MD1999999+0111REMSYN070AAXX  13184 82678 32596 30903 10316 20212 39976 40132 81130 333 58011;EQDQ01  00002PRCP06
0179826780999992005061400004-06767-043017FM-12+013899999V0209999C000012200019N0002001N1+02601+02121101401ADDAA106000091GF100991001001999999001001MA1999999099821MD1999999+0011REMSYN082AAXX  14004 82678 32992 00000 10260 20212 39982 40140 333 10328 29070 55048 58001;EQDQ01  00002PRCP06
0173826780999992005061412004-06767-043017FM-12+013899999V0201401N002610450019N0040001N1+02841+02091101711ADDAA106000091GF105991021011008001031001MA1999999100131MD1999999+0021REMSYN076AAXX  14124 82678 32596 51405 10284 20209 30013 40171 82130 333 20248 58002;EQDQ01  00002PRCP06
0167826780999992005061418004-06767-043017FM-12+013899999V0200901N003112200019N0040001N1+03321+01971101381ADDAA106000091GF104991041021008001001001MA1999999099821MD1999999+0061REMSYN070AAXX  14184 82678 32596 40906 10332 20197 39982 40138 84200 333 58006;EQDQ01  00002PRCP06
0179826780999992005061500004-06767-043017FM-12+013899999V0201401N001012200019N0002001N1+02801+02031101531ADDAA106000091GF100991001001999999001001MA1999999099961MD1999999+0141REMSYN082AAXX  15004 82678 32992 01402 10280 20203 39996 40153 333 10339 29059 55096 58014;EQDQ01  00002PRCP06
0177826780999992005061512004-06767-043017FM-12+013899999V0200901N003110120019N0040001N1+02461+02251101881ADDAY161061AY221061GF108991051081008001021999MA1999999100291MD1999999+0161MW1021REMSYN088AAXX  15124 82678 21596 80906 10246 20225 30029 40188 70262 8582/ 333 20240 58016 60014;
0167826780999992005061518004-06767-043017FM-12+013899999V0201401N003110075019N0040001N1+03131+02021101361ADDAA106000091GF105991051021008001001001MA1999999099791MD1999999-0031REMSYN070AAXX  15184 82678 32596 51406 10313 20202 39979 40136 85200 333 59003;EQDQ01  00002PRCP06
0179826780999992005061600004-06767-043017FM-12+013899999V0209999C000012200019N0002001N1+02661+02141101541ADDAA106000091GF100991001001999999001001MA1999999099951MD1999999-0011REMSYN082AAXX  16004 82678 32992 00000 10266 20214 39995 40154 333 10325 29072 55060 59001;EQDQ01  00002PRCP06
0173826780999992005061612004-06767-043017FM-12+013899999V0200901N003612200019N0040001N1+02741+01951101721ADDAA106000091GF102991011011008001001011MA1999999100141MD1999999-0151REMSYN076AAXX  16124 82678 32596 20907 10274 20195 30014 40172 81101 333 20245 59015;EQDQ01  00002PRCP06
0167826780999992005061618004-06767-043017FM-12+013899999V0201801N003112200019N0040001N1+03341+01751101311ADDAA106000091GF106991021011008001001011MA1999999099751MD1999999-0041REMSYN070AAXX  16184 82678 32596 61806 10334 20175 39975 40131 82101 333 59004;EQDQ01  00002PRCP06
0179826780999992005061700004-06767-043017FM-12+013899999V0201401N001012200019N0002001N1+02631+01911101531ADDAA106000091GF100991001001999999001001MA1999999099951MD1999999+0001REMSYN082AAXX  17004 82678 32992 01402 10263 20191 39995 40153 333 10338 29058 55104 58000;EQDQ01  00002PRCP06
0167826780999992005061712004-06767-043017FM-12+013899999V0200901N001512200019N0040001N1+02801+02031101801ADDAA106000091GF100991001001999999001001MA1999999100221MD1999999+0081REMSYN070AAXX  17124 82678 32996 00903 10280 20203 30022 40180 333 20240 58008;EQDQ01  00002PRCP06
0167826780999992005061718004-06767-043017FM-12+013899999V0201401N001512200019N0040001N1+03381+01981101271ADDAA106000091GF104991021021008001001011MA1999999099711MD1999999-0041REMSYN070AAXX  17184 82678 32596 41403 10338 20198 39971 40127 82201 333 59004;EQDQ01  00002PRCP06
0179826780999992005061800004-06767-043017FM-12+013899999V0209999C000012200019N0002001N1+02681+02201101491ADDAA106000091GF100991001001999999001001MA1999999099911MD1999999-0041REMSYN082AAXX  18004 82678 32992 00000 10268 20220 39991 40149 333 10343 29064 55096 59004;EQDQ01  00002PRCP06
0167826780999992005061812004-06767-043017FM-12+013899999V0200901N003112200019N0040001N1+02821+02071101681ADDAA106000091GF100991001001999999001001MA1999999100101MD1999999-0121REMSYN070AAXX  18124 82678 32996 00906 10282 20207 30010 40168 333 20212 59012;EQDQ01  00002PRCP06
0167826780999992005061818004-06767-043017FM-12+013899999V0201401N001011050019N0040001N1+03381+01951101231ADDAA106000091GF105991031021008001001091MA1999999099661MD1999999-0051REMSYN070AAXX  18184 82678 32596 51402 10338 20195 39966 40123 83209 333 59005;EQDQ01  00002PRCP06
0185826780999992005061900004-06770-043020FM-12+012799999V0209999C000012200019N0002001N1+02721+02221101421ADDAA106000091GF103991031021008001001001MA1999999099851MD1999999-0061REMSYN088AAXX  19004 82678 32592 30000 10272 20222 39985 40142 83200 333 10353 29064 55/// 59006;EQDQ01  00002PRCP06
0173826780999992005061912004-06770-043020FM-12+012799999V0203601N001010075019N0040001N1+02741+02171101681ADDAA106000091GF108991081041008001999999MA1999999100101MD1999999+0001REMSYN076AAXX  19124 82678 32596 83602 10274 20217 30010 40168 884// 333 20244 58000;EQDQ01  00002PRCP06
0167826780999992005061918004-06770-043020FM-12+012799999V0201401N000510075019N0040001N1+03381+02091101231ADDAA106000091GF107991051051008001031001MA1999999099671MD1999999+0011REMSYN070AAXX  19184 82678 32596 71401 10338 20209 39967 40123 85530 333 58001;EQDQ01  00002PRCP06
0185826780999992005062000004-06770-043020FM-12+012799999V0209999C000010075019N0002001N1+02761+02211101371ADDAA106000091GF106991051051008001031001MA1999999099801MD1999999-0051REMSYN088AAXX  20004 82678 32592 60000 10276 20221 39980 40137 85530 333 10342 29066 55/// 59005;EQDQ01  00002PRCP06
0173826780999992005062012004-06770-043020FM-12+012799999V0200901N000512200019N0040001N1+02841+02121101691ADDAA106000091GF102991011011008001031001MA1999999100111MD1999999+0011REMSYN076AAXX  20124 82678 32596 20901 10284 20212 30011 40169 81130 333 20240 58001;EQDQ01  00002PRCP06
0167826780999992005062018004-06767-043017FM-12+013899999V0200501N001012200019N0040001N1+03401+01931101241ADDAA106000091GF104991041011008001001001MA1999999099681MD1999999+0011REMSYN070AAXX  20184 82678 32596 40502 10340 20193 39968 40124 84100 333 58001;EQDQ01  00002PRCP06
0179826780999992005062100004-06767-043017FM-12+013899999V0209999C000012200019N0002001N1+02781+02131101401ADDAA106000091GF100991001001999999001001MA1999999099831MD1999999+0031REMSYN082AAXX  21004 82678 32992 00000 10278 20213 39983 40140 333 10340 29061 55/// 58003;EQDQ01  00002PRCP06
0173826780999992005062112004-06767-043017FM-12+013899999V0201401N002612200019N0040001N1+02891+01911101691ADDAA106000091GF105991021011008001001011MA1999999100121MD1999999+0011REMSYN076AAXX  21124 82678 32596 51405 10289 20191 30012 40169 82101 333 20231 58001;EQDQ01  00002PRCP06
0167826780999992005062118004-06767-043017FM-12+013899999V0201401N002610450019N0040001N1+03481+01841101221ADDAA106000091GF108991031021008001011011MA1999999099661MD1999999-0021REMSYN070AAXX  21184 82678 32596 81405 10348 20184 39966 40122 83211 333 59002;EQDQ01  00002PRCP06
0185826780999992005062200004-06767-043017FM-12+013899999V0202301N001010450019N0002001N1+02871+02061101401ADDAA106000091GF108991031081008001031011MA1999999099841MD1999999+0011REMSYN088AAXX  22004 82678 32592 82302 10287 20206 39984 40140 83831 333 10354 29054 55/// 58001;EQDQ01  00002PRCP06
0173826780999992005062212004-06767-043017FM-12+013899999V0200501N001012200019N0040001N1+02801+01921101691ADDAA106000091GF101991001001999999001011MA1999999100121MD1999999+0001REMSYN076AAXX  22124 82678 32996 10502 10280 20192 30012 40169 80001 333 20220 58000;EQDQ01  00002PRCP06
0167826780999992005062218004-06767-043017FM-12+013899999V0201401N003112200019N0040001N1+03511+01771101231ADDAA106000091GF104991041021008001001001MA1999999099671MD1999999+0011REMSYN070AAXX  22184 82678 32596 41406 10351 20177 39967 40123 84200 333 58001;EQDQ01  00002PRCP06
0185826780999992005062300004-06767-043017FM-12+013899999V0201401N001512200019N0002001N1+02881+01861101461ADDAA106000091GF102991021001017501031001MA1999999099891MD1999999+0051REMSYN088AAXX  23004 82678 32792 21403 10288 20186 39989 40146 82030 333 10355 29051 55/// 58005;EQDQ01  00002PRCP06
0173826780999992005062312004-06767-043017FM-12+013899999V0200901N003112200019N0040001N1+02781+01911101851ADDAA106000091GF103991021011008001001011MA1999999100271MD1999999+0151REMSYN076AAXX  23124 82678 32596 30906 10278 20191 30027 40185 82101 333 20248 58015;EQDQ01  00002PRCP06
0167826780999992005062318004-06767-043017FM-12+013899999V0201401N001512200019N0040001N1+03381+01811101381ADDAA106000091GF104991031021008001001021MA1999999099821MD1999999+0151REMSYN070AAXX  23184 82678 32596 41403 10338 20181 39982 40138 83202 333 58015;EQDQ01  00002PRCP06
0179826780999992005062400004-06767-043017FM-12+013899999V0201401N002612200019N0002001N1+02801+01811101641ADDAA106000091GF100991001001999999001001MA1999999100061MD1999999+0171REMSYN082AAXX  24004 82678 32792 01405 10280 20181 30006 40164 333 10345 29052 55/// 58017;EQDQ01  00002PRCP06
0173826780999992005062412004-06767-043017FM-12+013899999V0201401N003612200019N0040001N1+02741+01841101801ADDAA106000091GF103991021001008001031011MA1999999100221MD1999999-0051REMSYN076AAXX  24124 82678 32596 31407 10274 20184 30022 40180 82031 333 20231 59005;EQDQ01  00002PRCP06
0167826780999992005062418004-06767-043017FM-12+013899999V0200901N001510450019N0040001N1+03321+02971101331ADDAA106000091GF105991031021008001031021MA1999999099771MD1999999-0051REMSYN070AAXX  24184 82678 32596 50903 10332 20297 39977 40133 83232 333 59005;EQDQ01  00002PRCP06
0185826780999992005062500004-06767-043017FM-12+013899999V0202301N001012200019N0002001N1+02721+02191101471ADDAA106000091GF103991031001008001031001MA1999999099891MD1999999-0171REMSYN088AAXX  25004 82678 32592 32302 10272 20219 39989 40147 83030 333 10343 29062 55082 59017;EQDQ01  00002PRCP06
0173826780999992005062512004-06767-043017FM-12+013899999V0200901N002612200019N0040001N1+02781+02041101641ADDAA106000091GF103991031001017501031001MA1999999100061MD1999999-0161REMSYN076AAXX  25124 82678 32796 30905 10278 20204 30006 40164 83030 333 20246 59016;EQDQ01  00002PRCP06
0167826780999992005062518004-06767-043017FM-12+013899999V0201401N001510450019N0040001N1+03321+01891101261ADDAA106000091GF105991041051008001031001MA1999999099701MD1999999-0071REMSYN070AAXX  25184 82678 32596 51403 10332 20189 39970 40126 84530 333 59007;EQDQ01  00002PRCP06
0185826780999992005062600004-06770-043020FM-12+012799999V0209999C000010075019N0002001N1+02801+02001101401ADDAA106000091GF105991051051008001001001MA1999999099831MD1999999-0061REMSYN088AAXX  26004 82678 32592 50000 10280 20200 39983 40140 85500 333 10342 29058 55093 59006;EQDQ01  00002PRCP06
0173826780999992005062612004-06770-043020FM-12+012799999V0200901N003110075019N0040001N1+02761+02021101731ADDAA106000091GF106991051051008001031001MA1999999100151MD1999999+0091REMSYN076AAXX  26124 82678 32596 60906 10276 20202 30015 40173 85530 333 20232 58009;EQDQ01  00002PRCP06
0167826780999992005062618004-06770-043020FM-12+012799999V0201401N001510075019N0040001N1+03201+01991101321ADDAA106000091GF107991061051008001031001MA1999999099761MD1999999+0061REMSYN070AAXX  26184 82678 32596 71403 10320 20199 39976 40132 86530 333 58006;EQDQ01  00002PRCP06
0198826780999992005062700004-06767-043017FM-12+013899999V0200501N001010075019N0002001N1+02761+02211101481ADDAA106000091GF106991061051008001001001KA1240M+03251MA1999999099901MD1999999+0071REMSYN088AAXX  27004 82678 32592 60502 10276 20221 39990 40148 86500 333 10325 29064 55040 58007;EQDQ01  00002PRCP06
0186826780999992005062712004-06767-043017FM-12+013899999V0200901N001012200019N0040001N1+02801+01901101641ADDAA106000091GF103991031001017501031001KA1240N+02551MA1999999100061MD1999999-0041REMSYN076AAXX  27124 82678 32796 30902 10280 20190 30006 40164 83030 333 20255 59004;EQDQ01  00002PRCP06
0167826780999992005062718004-06767-043017FM-12+013899999V0200901N001510075019N0040001N1+03291+01821101221ADDAA106000091GF108991061041008001031001MA1999999099661MD1999999-0101REMSYN070AAXX  27184 82678 32596 80903 10329 20182 39966 40122 86430 333 59010;EQDQ01  00002PRCP06
0198826780999992005062800004-06767-043017FM-12+013899999V0200501N002112200019N0002001N1+02791+02161101511ADDAA106000091GF103991031041008001001001KA1240M+03321MA1999999099941MD1999999+0041REMSYN088AAXX  28004 82678 32592 30504 10279 20216 39994 40151 83400 333 10332 29060 55067 58004;EQDQ01  00002PRCP06
0186826780999992005062812004-06767-043017FM-12+013899999V0201401N005112200019N0040001N1+02801+01811101751ADDAA106000091GF102991011011008001031001KA1240N+02221MA1999999100171MD1999999+0111REMSYN076AAXX  28124 82678 32596 21410 10280 20181 30017 40175 81130 333 20222 58011;EQDQ01  00002PRCP06
0167826780999992005062818004-06767-043017FM-12+013899999V0200901N004110075019N0040001N1+03421+01911101281ADDAA106000091GF105991051021008001001001MA1999999099721MD1999999+0061REMSYN070AAXX  28184 82678 32596 50908 10342 20191 39972 40128 85200 333 58006;EQDQ01  00002PRCP06
0198826780999992005062900004-06767-043017FM-12+013899999V0201401N001512200019N0002001N1+02991+01661101591ADDAA106000091GF104991041001017501031001KA1240M+03481MA1999999100021MD1999999+0081REMSYN088AAXX  29004 82678 32792 41403 10299 20166 30002 40159 84030 333 10348 29046 55088 58008;EQDQ01  00002PRCP06
0186826780999992005062912004-06767-043017FM-12+013899999V0200901N005110450019N0040001N1+02701+01911101731ADDAA106000091GF105991041011008001031001KA1240N+02421MA1999999100161MD1999999-0011REMSYN076AAXX  29124 82678 32596 50910 10270 20191 30016 40173 84130 333 20242 59001;EQDQ01  00002PRCP06
0167826780999992005062918004-06767-043017FM-12+013899999V0201401N002112200019N0040001N1+03101+01941101371ADDAA106000091GF104991021021008001001011MA1999999099801MD1999999+0081REMSYN070AAXX  29184 82678 32596 41404 10310 20194 39980 40137 82201 333 58008;EQDQ01  00002PRCP06
0208826780999992005063000004-06767-043017FM-12+013899999V0201401N001512200019N0002001N1+02701+01801101571ADDAA106000091GA1001+999999999GF100991001001999999001001KA1240M+03151MA1999999099991MD1999999-0031REMSYN082AAXX  30004 82678 32992 01403 10270 20180 39999 40157 333 10315 29057 55042 59003;EQDQ01  00002PRCP06
0196826780999992005063012004-06767-043017FM-12+013899999V0200901N004112200019N0040001N1+02621+01731101791ADDAA106000091GA1001+999999999GF100991001001999999001001KA1240N+02311MA1999999100201MD1999999+0041REMSYN070AAXX  30124 82678 32796 00908 10262 20173 30020 40179 333 20231 58004;EQDQ01  00002PRCP06
0167826780999992005063018004-06767-043017FM-12+013899999V0201401N002610075019N0040001N1+03301+01501101251ADDAA106000091GF106991051021008001001011MA1999999099681MD1999999-0121REMSYN070AAXX  30184 82678 32596 61405 10330 20150 39968 40125 85201 333 59012;EQDQ01  00002PRCP06
0179826780999992005070100004-06767-043017FM-12+013899999V0209999C000012200019N0002001N1+02901+01721101511ADDAA106000091GF100991001001999999001001MA1999999099931MD1999999-0061REMSYN082AAXX  01004 82678 32792 00000 10290 20172 39993 40151 333 10342 29048 55085 59006;EQDQ01  00002PRCP06
0173826780999992005070112004-06767-043017FM-12+013899999V0200901N003112200019N0040001N1+02781+01791101701ADDAA106000091GF103991011001017501031011MA1999999100131MD1999999-0071REMSYN076AAXX  01124 82678 32796 30906 10278 20179 30013 40170 81031 333 20246 59007;EQDQ01  00002PRCP06
0167826780999992005070118004-06767-043017FM-12+013899999V0201401N001512200019N0040001N1+03241+01891101381ADDAA106000091GF104991031011008001001011MA1999999099821MD1999999+0141REMSYN070AAXX  01184 82678 32596 41403 10324 20189 39982 40138 83101 333 58014;EQDQ01  00002PRCP06
0179826780999992005070200004-06767-043017FM-12+012799999V0209999C000012200019N0002001N1+02661+01971101541ADDAA106000091GF100991001001999999001001MA1999999099951MD1999999+0031REMSYN082AAXX  02004 82678 32992 00000 10266 20197 39995 40154 333 10337 29058 55100 58003;EQDQ01  00002PRCP06
0167826780999992005070212004-06767-043017FM-12+012799999V0201401N004612200019N0040001N1+02711+01751101831ADDAA106000091GF100991001001999999001001MA1999999100251MD1999999+0121REMSYN070AAXX  02124 82678 32996 01409 10271 20175 30025 40183 333 20216 58012;EQDQ01  00002PRCP06
0167826780999992005070218004-06767-043017FM-12+012799999V0201401N002610075019N0040001N1+03481+01661101371ADDAA106000091GF105991051021008001001001MA1999999099801MD1999999-0021REMSYN070AAXX  02184 82678 32596 51405 10348 20166 39980 40137 85200 333 59002;EQDQ01  00002PRCP06
0179826780999992005070300004-06770-043020FM-12+012799999V0201401N001012200019N0002001N1+02861+01621101601ADDAA106000091GF100991001001999999001001MA1999999100031MD1999999+0071REMSYN082AAXX  03004 82678 32992 01402 10286 20162 30003 40160 333 10351 29046 55102 58007;EQDQ01  00002PRCP06
0173826780999992005070312004-06770-043020FM-12+012799999V0201401N003112200019N0040001N1+02701+01881101901ADDAA106000091GF103991021001017501031011MA1999999100321MD1999999+0071REMSYN076AAXX  03124 82678 32796 31406 10270 20188 30032 40190 82031 333 20230 58007;EQDQ01  00002PRCP06
0167826780999992005070318004-06770-043020FM-12+012799999V0201401N002612200019N0040001N1+02481+01791101321ADDAA106000091GF104991031011008001001011MA1999999099771MD1999999+0031REMSYN070AAXX  03184 82678 32596 41405 10248 20179 39977 40132 83101 333 58003;EQDQ01  00002PRCP06
0179826780999992005070400004-06767-043017FM-12+012799999V0201401N001512200019N0002001N1+02801+01751101591ADDAA106000091GF100991001001999999001001MA1999999100011MD1999999-0021REMSYN082AAXX  04004 82678 32992 01403 10280 20175 30001 40159 333 10349 29051 55099 59002;EQDQ01  00002PRCP06
0173826780999992005070412004-06767-043017FM-12+012799999V0201401N006211050019N0040001N1+02841+01761101751ADDAA106000091GF105991011011008001031011MA1999999100171MD1999999-0151REMSYN076AAXX  04124 82678 32596 51412 10284 20176 30017 40175 81131 333 20224 59015;EQDQ01  00002PRCP06
0167826780999992005070418004-06767-043017FM-12+012799999V0201401N002112200019N0040001N1+03201+01671101391ADDAA106000091GF108991041021008001001011MA1999999099821MD1999999+0051REMSYN070AAXX  04184 82678 32596 81404 10320 20167 39982 40139 84201 333 58005;EQDQ01  00002PRCP06
0179826780999992005070500004-06767-043017FM-12+012799999V0209999C000012200019N0002001N1+02581+01741101611ADDAA106000091GF100991001001999999001001MA1999999100031MD1999999+0021REMSYN082AAXX  05004 82678 32992 00000 10258 20174 30003 40161 333 10325 29053 55094 58002;EQDQ01  00002PRCP06
0167826780999992005070512004-06767-043017FM-12+012799999V0201401N001512200019N0040001N1+02681+01701101861ADDAA106000091GF100991001001999999001001MA1999999100271MD1999999+0101REMSYN070AAXX  05124 82678 32996 01403 10268 20170 30027 40186 333 20196 58010;EQDQ01  00002PRCP06
0167826780999992005070518004-06767-043017FM-12+012799999V0202301N001012200019N0040001N1+03441+01581101421ADDAA106000091GF104991031021008001001021MA1999999099851MD1999999+0031REMSYN070AAXX  05184 82678 32596 42302 10344 20158 39985 40142 83202 333 58003;EQDQ01  00002PRCP06
0179826780999992005070600004-06767-043017FM-12+012799999V0209999C000012200019N0002001N1+02601+01791101651ADDAA106000091GF100991001001999999001001MA1999999100071MD1999999+0041REMSYN082AAXX  06004 82678 32992 00000 10260 20179 30007 40165 333 10355 29052 55101 58004;EQDQ01  00002PRCP06
0167826780999992005070612004-06767-043017FM-12+012799999V0209999C000012200019N0040001N1+02821+01801101921ADDAA106000091GF100991001001999999001001MA1999999100331MD1999999+0061REMSYN070AAXX  06124 82678 32796 00000 10282 20180 30033 40192 333 20192 58006;EQDQ01  00002PRCP06
0167826780999992005070618004-06767-043017FM-12+012799999V0201801N001512200019N0040001N1+03401+01931101401ADDAA106000091GF104991021021008001001011MA1999999099851MD1999999+0001REMSYN070AAXX  06184 82678 32596 41803 10340 20193 39985 40140 82201 333 58000;EQDQ01  00002PRCP06
0179826780999992005070700004-06767-043017FM-12+012799999V0209999C000012200019N0002001N1+02741+01951101611ADDAA106000091GF100991001001999999001001MA1999999100041MD1999999-0031REMSYN082AAXX  07004 82678 32792 00000 10274 20195 30004 40161 333 10347 29055 55093 59003;EQDQ01  00002PRCP06
0173826780999992005070712004-06767-043017FM-12+012799999V0200901N002612200019N0040001N1+02841+01911101921ADDAA106000091GF103991031001017501031001MA1999999100341MD1999999+0011REMSYN076AAXX  07124 82678 32796 30905 10284 20191 30034 40192 83030 333 20244 58001;EQDQ01  00002PRCP06
0167826780999992005070718004-06767-043017FM-12+012799999V0201401N001510075019N0040001N1+03421+01781101481ADDAA106000091GF105991051021008001001001MA1999999099911MD1999999+0061REMSYN070AAXX  07184 82678 32596 51403 10342 20178 39991 40148 85200 333 58006;EQDQ01  00002PRCP06
0179826780999992005070800004-06767-043017FM-12+012799999V0209999C000012200019N0002001N1+02721+01901101621ADDAA106000091GF100991001001999999001001MA1999999100051MD1999999+0011REMSYN082AAXX  08004 82678 32992 00000 10272 20190 30005 40162 333 10355 29054 55081 58001;EQDQ01  00002PRCP06
0173826780999992005070812004-06767-043017FM-12+012799999V0200901N002610075019N0040001N1+02601+01961101951ADDAA106000091GF106991061051008001001001MA1999999100361MD1999999+0021REMSYN076AAXX  08124 82678 32596 60905 10260 20196 30036 40195 86500 333 20248 58002;EQDQ01  00002PRCP06
0167826780999992005070818004-06767-043017FM-12+012799999V0200901N001510075019N0040001N1+03401+01811101471ADDAA106000091GF105991051051008001001001MA1999999099911MD1999999+0001REMSYN070AAXX  08184 82678 32596 50903 10340 20181 39991 40147 85500 333 58000;EQDQ01  00002PRCP06
0179826780999992005070900004-06767-043017FM-12+012799999V0200901N003112200019N0002001N1+03041+01711101651ADDAA106000091GF100991001001999999001001MA1999999100071MD1999999+0021REMSYN082AAXX  09004 82678 32992 00906 10304 20171 30007 40165 333 10349 29049 55073 58002;EQDQ01  00002PRCP06
0173826780999992005070912004-06767-043017FM-12+012799999V0201401N003610450019N0040001N1+02611+01711101961ADDAA106000091GF106991011011008001031021MA1999999100381MD1999999+0021REMSYN076AAXX  09124 82678 32596 61407 10261 20171 30038 40196 81132 333 20237 58002;EQDQ01  00002PRCP06
0167826780999992005070918004-06767-043017FM-12+012799999V0201401N004110450019N0040001N1+03361+01651101511ADDAA106000091GF107991041081008001031011MA1999999099951MD1999999+0041REMSYN070AAXX  09184 82678 32596 71408 10336 20165 39995 40151 84831 333 58004;EQDQ01  00002PRCP06
0179826780999992005071000004-06770-043020FM-12+012799999V0200901N003112200019N0002001N1+02861+01551101771ADDAA106000091GF100991001001999999001001MA1999999100191MD1999999+0121REMSYN082AAXX  10004 82678 32992 00906 10286 20155 30019 40177 333 10340 29046 55089 58012;EQDQ01  00002PRCP06
0173826780999992005071012004-06770-043020FM-12+012799999V0201401N004112200019N0040001N1+02581+01581101981ADDAA106000091GF103991031011008001001001MA1999999100391MD1999999+0011REMSYN076AAXX  10124 82678 32596 31408 10258 20158 30039 40198 83100 333 20226 58001;EQDQ01  00002PRCP06
0167826780999992005071018004-06770-043020FM-12+012799999V0201401N004110075019N0040001N1+03201+01551101511ADDAA106000091GF105991051021008001001001MA1999999099931MD1999999-0021REMSYN070AAXX  10184 82678 32596 51408 10320 20155 39993 40151 85200 333 59002;EQDQ01  00002PRCP06
0179826780999992005071100004-06767-043017FM-12+012799999V0201401N002612200019N0002001N1+02811+01531101741ADDAA106000091GF100991001001999999001001MA1999999100161MD1999999-0031REMSYN082AAXX  11004 82678 32992 01405 10281 20153 30016 40174 333 10327 29046 55102 59003;EQDQ01  00002PRCP06
0173826780999992005071112004-06767-043017FM-12+012799999V0201401N004112200019N0040001N1+02621+01821101941ADDAA106000091GF102991021011008001001001MA1999999100351MD1999999-0041REMSYN076AAXX  11124 82678 32596 21408 10262 20182 30035 40194 82100 333 20232 59004;EQDQ01  00002PRCP06
0167826780999992005071118004-06767-043017FM-12+012799999V0200901N003110075019N0040001N1+03361+01691101381ADDAA106000091GF105991051011008001001001MA1999999099821MD1999999-0111REMSYN070AAXX  11184 82678 32596 50906 10336 20169 39982 40138 85100 333 59011;EQDQ01  00002PRCP06
0185826780999992005071200004-06767-043017FM-12+012799999V0200901N002610450019N0002001N1+02941+01591101681ADDAA106000091GF105991031051008001031001MA1999999100101MD1999999-0061REMSYN088AAXX  12004 82678 32592 50905 10294 20159 30010 40168 83530 333 10345 29046 55102 59006;EQDQ01  00002PRCP06
0167826780999992005071218004-06767-043017FM-12+012799999V0201401N002610075019N0040001N1+03441+01671101361ADDAA106000091GF105991051021008001001001MA1999999099801MD1999999-0021REMSYN070AAXX  12184 82678 32596 51405 10344 20167 39980 40136 85200 333 59002;EQDQ01  00002PRCP06
0179826780999992005071300004-06767-043017FM-12+012799999V0209999C000012200019N0002001N1+02641+01691101551ADDAA106000091GF100991001001999999001001MA1999999099971MD1999999-0131REMSYN082AAXX  13004 82678 32992 00000 10264 20169 39997 40155 333 10351 29052 55101 59013;EQDQ01  00002PRCP06
0173826780999992005071312004-06767-043017FM-12+012799999V0200901N004612200019N0040001N1+02651+01631101881ADDAA106000091GF103991021011008001001011MA1999999100291MD1999999+0031REMSYN076AAXX  13124 82678 32596 30909 10265 20163 30029 40188 82101 333 20235 58003;EQDQ01  00002PRCP06
0167826780999992005071318004-06767-043017FM-12+012799999V0201401N002612200019N0040001N1+03341+01401101341ADDAA106000091GF103991031011008001001001MA1999999099781MD1999999-0021REMSYN070AAXX  13184 82678 32596 31405 10334 20140 39978 40134 83100 333 59002;EQDQ01  00002PRCP06
0179826780999992005071400004-06767-043017FM-12+012799999V0201401N001512200019N0002001N1+02801+01311101561ADDAA106000091GF100991001001999999001001MA1999999099981MD1999999+0011REMSYN082AAXX  14004 82678 32992 01403 10280 20131 39998 40156 333 10339 29041 55102 58001;EQDQ01  00002PRCP06
0173826780999992005071412004-06767-043017FM-12+012799999V0201401N005112200019N0040001N1+02651+01601101811ADDAA106000091GF101991011011008001001001MA1999999100231MD1999999-0061REMSYN076AAXX  14124 82678 32596 11410 10265 20160 30023 40181 81100 333 20228 59006;EQDQ01  00002PRCP06
0167826780999992005071418004-06767-043017FM-12+012799999V0201401N004110075019N0040001N1+03251+01501101321ADDAA106000091GF106991061021008001001001MA1999999099751MD1999999-0031REMSYN070AAXX  14184 82678 32596 61408 10325 20150 39975 40132 86200 333 59003;EQDQ01  00002PRCP06
0185826780999992005071500004-06767-043017FM-12+012799999V0200901N002612200019N0002001N1+02841+01431101551ADDAA106000091GF101991011001017501031001MA1999999099971MD1999999-0011REMSYN088AAXX  15004 82678 32792 10905 10284 20143 39997 40155 81030 333 10338 29043 55101 59001;EQDQ01  00002PRCP06
0173826780999992005071512004-06767-043017FM-12+012799999V0200901N004112200019N0040001N1+02601+01841101831ADDAA106000091GF102991021011008001001001MA1999999100251MD1999999+0021REMSYN076AAXX  15124 82678 32596 20908 10260 20184 30025 40183 82100 333 20220 58002;EQDQ01  00002PRCP06
0167826780999992005071518004-06767-043017FM-12+012799999V0201401N003112200019N0040001N1+03401+01811101311ADDAA106000091GF103991031011008001001001MA1999999099741MD1999999-0011REMSYN070AAXX  15184 82678 32596 31406 10340 20181 39974 40131 83100 333 59001;EQDQ01  00002PRCP06
0179826780999992005071600004-06767-043017FM-12+012799999V0201401N001512200019N0002001N1+02881+01601101491ADDAA106000091GF100991001001999999001001MA1999999099911MD1999999-0061REMSYN082AAXX  16004 82678 32992 01403 10288 20160 39991 40149 333 10345 29048 55104 59006;EQDQ01  00002PRCP06
0167826780999992005071612004-06767-043017FM-12+012799999V0200901N002612200019N0040001N1+02621+01561101821ADDAA106000091GF100991001001999999001001MA1999999100241MD1999999-0011REMSYN070AAXX  16124 82678 32996 00905 10262 20156 30024 40182 333 20232 59001;EQDQ01  00002PRCP06
0167826780999992005071618004-06767-043017FM-12+012799999V0201401N004112200019N0040001N1+03441+01451101331ADDAA106000091GF101991011011008001001001MA1999999099771MD1999999+0031REMSYN070AAXX  16184 82678 32596 11408 10344 20145 39977 40133 81100 333 58003;EQDQ01  00002PRCP06
0179826780999992005071700004-06770-043020FM-12+012799999V0201401N001512200019N0002001N1+02881+01501101491ADDAA106000091GF100991001001999999001001MA1999999099911MD1999999+0001REMSYN082AAXX  17004 82678 32992 01403 10288 20150 39991 40149 333 10349 29043 55104 58000;EQDQ01  00002PRCP06
0173826780999992005071712004-06770-043020FM-12+012799999V0201401N004110075019N0040001N1+02641+01931101821ADDAA106000091GF105991051011008001001001MA1999999100241MD1999999+0001REMSYN076AAXX  17124 82678 32596 51408 10264 20193 30024 40182 85100 333 20228 58000;EQDQ01  00002PRCP06
0167826780999992005071718004-06770-043020FM-12+012799999V0200901N003112200019N0040001N1+03481+01571101321ADDAA106000091GF103991031011008001001001MA1999999099761MD1999999-0011REMSYN070AAXX  17184 82678 32596 30906 10348 20157 39976 40132 83100 333 59001;EQDQ01  00002PRCP06
0179826780999992005071800004-06767-043017FM-12+012799999V0201401N002612200019N0002001N1+02861+01481101541ADDAA106000091GF100991001001999999001001MA1999999099961MD1999999+0051REMSYN082AAXX  18004 82678 32992 01405 10286 20148 39996 40154 333 10353 29046 55103 58005;EQDQ01  00002PRCP06
0167826780999992005071812004-06767-043017FM-12+012799999V0201401N002612200019N0040001N1+02721+01711101781ADDAA106000091GF100991001001999999001001MA1999999100201MD1999999-0041REMSYN070AAXX  18124 82678 32996 01405 10272 20171 30020 40178 333 20209 59004;EQDQ01  00002PRCP06
0167826780999992005071818004-06767-043017FM-12+012799999V0200901N001012200019N0040001N1+03601+01351101181ADDAA106000091GF102991021011008001001001MA1999999099621MD1999999-0141REMSYN070AAXX  18184 82678 32596 20902 10360 20135 39962 40118 82100 333 59014;EQDQ01  00002PRCP06
0179826780999992005071900004-06767-043017FM-12+012799999V0201401N000512200019N0002001N1+02591+01361101391ADDAA106000091GF100991001001999999001001MA1999999099811MD1999999-0151REMSYN082AAXX  19004 82678 32992 01401 10259 20136 39981 40139 333 10366 29044 55104 59015;EQDQ01  00002PRCP06
0173826780999992005071912004-06767-043017FM-12+012799999V0200901N001512200019N0040001N1+02861+01651101731ADDAA106000091GF103991031001017501031001MA1999999100151MD1999999-0051REMSYN076AAXX  19124 82678 32796 30903 10286 20165 30015 40173 83030 333 20222 59005;EQDQ01  00002PRCP06
0137826780999992005071918004-06767-043017FM-12+012799999V0201801N001010075019N0040001N1+03381+01871101341ADDGF106991061051008001001001MA1999999099771MD1999999+0151REMSYN070AAXX  19184 82678 32596 61802 10338 20187 39977 40134 86500 333 58015;
0155826780999992005072000004-06767-043017FM-12+012799999V0209999C000010075019N0002001N1+03001+01971101401ADDGF107991071051008001001001MA1999999099841MD1999999+0031REMSYN088AAXX  20004 82678 32592 70000 10300 20197 39984 40140 87500 333 10352 29049 55087 58003;
0143826780999992005072012004-06767-043017FM-12+012799999V0200901N004112200019N0040001N1+02991+01831101681ADDGF103991011021008001031011MA1999999100121MD1999999-0031REMSYN076AAXX  20124 82678 32596 30908 10299 20183 30012 40168 81231 333 20264 59003;
0137826780999992005072018004-06767-043017FM-12+012799999V0200901N003110450019N0040001N1+03501+01771101191ADDGF106991041081008001031001MA1999999099641MD1999999-0131REMSYN070AAXX  20184 82678 32596 60906 10350 20177 39964 40119 84830 333 59013;
0155826780999992005072100004-06767-043017FM-12+012799999V0209999C000010150019N0002001N1+02781+01961101361ADDGF105991051001017501031001MA1999999099801MD1999999-0041REMSYN088AAXX  21004 82678 32792 50000 10278 20196 39980 40136 85030 333 10357 29052 55081 59004;
0143826780999992005072112004-06767-043017FM-12+012799999V0200901N004112200019N0040001N1+02861+01841101721ADDGF103991031001017501031001MA1999999100141MD1999999+0021REMSYN076AAXX  21124 82678 32796 30908 10286 20184 30014 40172 83030 333 20264 58002;
0137826780999992005072118004-06767-043017FM-12+012799999V0200901N004612200019N0040001N1+03531+01501101291ADDGF103991031011008001001001MA1999999099741MD1999999+0101REMSYN070AAXX  21184 82678 32596 30909 10353 20150 39974 40129 83100 333 58010;
0149826780999992005072200004-06767-043017FM-12+012799999V0201401N002612200019N0002001N1+02981+01441101561ADDGF100991001001999999001001MA1999999099991MD1999999+0191REMSYN082AAXX  22004 82678 32992 01405 10298 20144 39999 40156 333 10358 29040 55099 58019;
0143826780999992005072212004-06767-043017FM-12+012799999V0201401N004112200019N0040001N1+02621+01591101921ADDGF103991011001008001031011MA1999999100341MD1999999+0201REMSYN076AAXX  22124 82678 32596 31408 10262 20159 30034 40192 81031 333 20224 58020;
0137826780999992005072218004-06767-043017FM-12+012799999V0200901N001512200019N0040001N1+03441+01381101471ADDGF104991011011008001001041MA1999999099901MD1999999+0161REMSYN070AAXX  22184 82678 32596 40903 10344 20138 39990 40147 81104 333 58016;
0149826780999992005072300004-06767-043017FM-12+012799999V0201401N002612200019N0002001N1+02821+01441101611ADDGF100991001001999999001001MA1999999100031MD1999999+0041REMSYN082AAXX  23004 82678 32992 01405 10282 20144 30003 40161 333 10352 29042 55098 58004;
0143826780999992005072312004-06767-043017FM-12+012799999V0201401N004112200019N0040001N1+02681+01581101931ADDGF102991021011008001001001MA1999999100351MD1999999+0011REMSYN076AAXX  23124 82678 32596 21408 10268 20158 30035 40193 82100 333 20242 58001;
0137826780999992005072318004-06767-043017FM-12+012799999V0200901N000510075019N0040001N1+03421+01651101741ADDGF105991051021008001001001MA1999999099112MD1999999+0011REMSYN070AAXX  23184 82678 32596 50901 10342 20165 39911 40174 85200 333 58001;
0149826780999992005072400004-06770-043020FM-12+012799999V0209999C000012200019N0002001N1+02761+01691101571ADDGF100991001001999999001001MA1999999099991MD1999999+0041REMSYN082AAXX  24004 82678 32792 00000 10276 20169 39999 40157 333 10347 29048 55107 58004;
0143826780999992005072412004-06770-043020FM-12+012799999V0201401N005112200019N0040001N1+02681+01781101981ADDGF102991021011008001001001MA1999999099391MD1999999+0041REMSYN076AAXX  24124 82678 32596 21410 10268 20178 39939 40198 82100 333 20220 58004;
0137826780999992005072418004-06770-043020FM-12+012799999V0200901N001510075019N0040001N1+03421+01411101521ADDGF105991051011008001001001MA1999999099951MD1999999+0041REMSYN070AAXX  24184 82678 32596 50903 10342 20141 39995 40152 85100 333 58004;
0149826780999992005072500004-06770-043020FM-12+012799999V0201401N001512200019N0002001N1+02821+01211101671ADDGF100991001001999999001001MA1999999100091MD1999999+0101REMSYN082AAXX  25004 82678 32992 01403 10282 20121 30009 40167 333 10349 29040 55106 58010;
0143826780999992005072512004-06767-043017FM-12+012799999V0200901N004112200019N0040001N1+02661+01591102001ADDGF101991011011008001001001MA1999999100421MD1999999+0031REMSYN076AAXX  25124 82678 32596 10908 10266 20159 30042 40200 81100 333 20230 58003;
0137826780999992005072518004-06767-043017FM-12+012799999V0201801N001512200019N0040001N1+03381+01431101541ADDGF102991021011008001001001MA1999999099981MD1999999+0031REMSYN070AAXX  25184 82678 32596 21803 10338 20143 39998 40154 82100 333 58003;
0149826780999992005072600004-06767-043017FM-12+012799999V0209999C000012200019N0002001N1+02681+01521101801ADDGF100991001001999999001001MA1999999100221MD1999999+0131REMSYN082AAXX  26004 82678 32992 00000 10268 20152 30022 40180 333 10349 29045 55105 58013;
0143826780999992005072612004-06767-043017FM-12+012799999V0201401N004112200019N0040001N1+02751+01571102001ADDGF101991001001999999001021MA1999999100411MD1999999-0011REMSYN076AAXX  26124 82678 32996 11408 10275 20157 30041 40200 80002 333 20212 59001;
0137826780999992005072618004-06767-043017FM-12+012799999V0201401N002612200019N0040001N1+03581+01331101441ADDGF103991031011008001001001MA1999999099871MD1999999-0111REMSYN070AAXX  26184 82678 32596 31405 10358 20133 39987 40144 83100 333 59011;
0149826780999992005072700004-06767-043017FM-12+012799999V0209999C000012200019N0002001N1+02751+01641101621ADDGF100991001001999999001001MA1999999100041MD1999999-0181REMSYN082AAXX  27004 82678 32992 00000 10275 20164 30004 40162 333 10366 29044 55105 59018;
0137826780999992005072712004-06767-043017FM-12+012799999V0200901N002612200019N0040001N1+02761+01771101981ADDGF100991001001999999001001MA1999999100401MD1999999-0011REMSYN070AAXX  27124 82678 32996 00905 10276 20177 30040 40198 333 20240 59001;
0137826780999992005072718004-06767-043017FM-12+012799999V0200901N003112200019N0040001N1+03481+01471101511ADDGF103991031011008001001001MA1999999099961MD1999999+0091REMSYN070AAXX  27184 82678 32596 30906 10348 20147 39996 40151 83100 333 58009;
0149826780999992005072800004-06767-043017FM-12+012799999V0209999C000012200019N0002001N1+02721+01591101601ADDGF100991001001999999001001MA1999999100021MD1999999-0021REMSYN082AAXX  28004 82678 32992 00000 10272 20159 30002 40160 333 10355 29046 55106 59002;
0137826780999992005072812004-06767-043017FM-12+012799999V0201401N005112200019N0040001N1+02701+01541102011ADDGF100991001001999999001001MA1999999100421MD1999999+0021REMSYN070AAXX  28124 82678 32996 01410 10270 20154 30042 40201 333 20228 58002;
0131826780999992005072818004-06767-043017FM-12+012799999V0201801N001512200019N0040001N1+03461+01551101541ADDGF100991001001999999001001MA1999999099981MD1999999+0021REMSYN064AAXX  28184 82678 32996 01803 10346 20155 39998 40154 333 58002;
0149826780999992005072900004-06767-043017FM-12+012799999V0209999C000012200019N0002001N1+02681+01551101691ADDGF100991001001999999001001MA1999999100111MD1999999+0091REMSYN082AAXX  29004 82678 32992 00000 10268 20155 30011 40169 333 10351 29045 55106 58009;
0137826780999992005072912004-06767-043017FM-12+012799999V0201401N004612200019N0040001N1+02661+01561101981ADDGF100991001001999999001001MA1999999100391MD1999999-0031REMSYN070AAXX  29124 82678 32996 01409 10266 20156 30039 40198 333 20240 59003;
0137826780999992005072918004-06767-043017FM-12+012799999V0200901N003112200019N0040001N1+03461+01291101461ADDGF102991021011008001001001MA1999999099901MD1999999-0081REMSYN070AAXX  29184 82678 32596 20906 10346 20129 39990 40146 82100 333 59008;
0149826780999992005073000004-06767-043017FM-12+012799999V0201401N001012200019N0002001N1+02581+01461101711ADDGF100991001001999999001001MA1999999100121MD1999999+0011REMSYN082AAXX  30004 82678 32992 01402 10258 20146 30012 40171 333 10350 29044 55106 58001;
0150826780999992005073012004-06770-043020FM-12+012799999V0200901N004612200019N0040001N1+02661+01591101931ADDGF100991001001999999001001KA1240N+02341MA1999999100341MD1999999-0051REMSYN070AAXX  30124 82678 32996 00909 10266 20159 30034 40193 333 20234 59005;
0137826780999992005073018004-06770-043020FM-12+012799999V0201401N004612200019N0040001N1+03431+01201101351ADDGF106991041011008001001011MA1999999099791MD1999999-0111REMSYN070AAXX  30184 82678 32596 61409 10343 20120 39979 40135 84101 333 59011;
0162826780999992005073100004-06770-043020FM-12+012799999V0201401N002612200019N0002001N1+02941+01321101651ADDGF100991001001999999001001KA1240M+03541MA1999999100071MD1999999-0051REMSYN082AAXX  31004 82678 32992 01405 10294 20132 30007 40165 333 10354 29038 55106 59005;
0156826780999992005073112004-06770-043020FM-12+012799999V0201401N005112200019N0040001N1+02621+01671101831ADDGF101991011011008001001001KA1240N+02621MA1999999100251MD1999999-0091REMSYN076AAXX  31124 82678 32596 11410 10262 20167 30025 40183 81100 333 20262 59009;
0137826780999992005073118004-06767-043017FM-12+012799999V0200901N004112200019N0040001N1+03341+01631101371ADDGF103991031011008001001001MA1999999099811MD1999999+0021REMSYN070AAXX  31184 82678 32596 30908 10334 20163 39981 40137 83100 333 58002;
0149826780999992005080100004-06767-043017FM-12+012799999V0209999C000012200019N0002001N1+02761+01621101591ADDGF100991001001999999001001MA1999999100011MD1999999-0061REMSYN082AAXX  01004 82678 32992 00000 10276 20162 30001 40159 333 10341 29048 55100 59006;
0143826780999992005080112004-06767-043017FM-12+012799999V0201401N003112200019N0040001N1+02641+01351101921ADDGF101991001001999999001011MA1999999100331MD1999999+0081REMSYN076AAXX  01124 82678 32996 11406 10264 20135 30033 40192 80001 333 20234 58008;
0137826780999992005080118004-06767-043017FM-12+012799999V0201401N003112200019N0040001N1+03421+01411101371ADDGF104991001001999999001021MA1999999099811MD1999999+0011REMSYN070AAXX  01184 82678 32996 41406 10342 20141 39981 40137 80002 333 58001;
0149826780999992005080200004-06767-043017FM-12+012799999V0201401N000512200019N0002001N1+02801+01241101561ADDGF100991001001999999001001MA1999999099981MD1999999-0031REMSYN082AAXX  02004 82678 32992 01401 10280 20124 39998 40156 333 10347 29038 55108 59003;
0143826780999992005080212004-06767-043017FM-12+012799999V0200901N005112200019N0040001N1+02651+01541101851ADDGF101991011011008001001001MA1999999100261MD1999999-0071REMSYN076AAXX  02124 82678 32596 10910 10265 20154 30026 40185 81100 333 20234 59007;
0137826780999992005080218004-06767-043017FM-12+012799999V0200901N002610075019N0040001N1+03361+01361101341ADDGF105991051021008001001001MA1999999099781MD1999999-0031REMSYN070AAXX  02184 82678 32596 50905 10336 20136 39978 40134 85200 333 59003;
0149826780999992005080300004-06767-043017FM-12+012799999V0201401N002612200019N0002001N1+02921+01421101531ADDGF100991001001999999001001MA1999999099961MD1999999-0021REMSYN082AAXX  03004 82678 32992 01405 10292 20142 39996 40153 333 10346 29040 55097 59002;
0143826780999992005080312004-06767-043017FM-12+012799999V0200901N003612200019N0040001N1+02701+01721101811ADDGF103991021011008001001011MA1999999100231MD1999999-0031REMSYN076AAXX  03124 82678 32596 30907 10270 20172 30023 40181 82101 333 20242 59003;
0137826780999992005080318004-06767-043017FM-12+012799999V0200901N002610450019N0040001N1+03401+01401101271ADDGF106991041021008001031001MA1999999099711MD1999999-0071REMSYN070AAXX  03184 82678 32596 60905 10340 20140 39971 40127 84230 333 59007;
0155826780999992005080400004-06767-043017FM-12+012799999V0200901N002112200019N0002001N1+03001+01371101491ADDGF101991011041008001001001MA1999999099921MD1999999-0041REMSYN088AAXX  04004 82678 32592 10904 10300 20137 39992 40149 81400 333 10353 29040 55088 59004;
0143826780999992005080412004-06767-043017FM-12+012799999V0200901N004112200019N0040001N1+02741+01801101821ADDGF103991031011008001001001MA1999999100251MD1999999+0021REMSYN076AAXX  04124 82678 32596 30908 10274 20180 30025 40182 83100 333 20242 58002;
0149826780999992005080500004-06767-043017FM-12+012799999V0201401N003112200019N0002001N1+03041+01491101541ADDGF100991001001999999001001MA1999999099971MD1999999+0051REMSYN082AAXX  05004 82678 32992 01406 10304 20149 39997 40154 333 10355 29042 55104 58005;
0143826780999992005080512004-06767-043017FM-12+012799999V0200901N004112200019N0040001N1+02761+01721101861ADDGF101991011011008001001001MA1999999100291MD1999999+0041REMSYN076AAXX  05124 82678 32596 10908 10276 20172 30029 40186 81100 333 20250 58004;
0137826780999992005080518004-06767-043017FM-12+012799999V0201401N003110075019N0040001N1+03461+01601101361ADDGF105991051021008001001001MA1999999099811MD1999999+0051REMSYN070AAXX  05184 82678 32596 51406 10346 20160 39981 40136 85200 333 58005;
0149826780999992005080600004-06767-043017FM-12+012799999V0201401N001512200019N0002001N1+02991+01311101611ADDGF100991001001999999001001MA1999999100041MD1999999+0071REMSYN082AAXX  06004 82678 32992 01403 10299 20131 30004 40161 333 10356 29040 55103 58007;
0137826780999992005080612004-06767-043017FM-12+012799999V0200901N004112200019N0040001N1+02681+01491101931ADDGF100991001001999999001001MA1999999100351MD1999999+0061REMSYN070AAXX  06124 82678 32996 00908 10268 20149 30035 40193 333 20245 58006;
0137826780999992005080618004-06767-043017FM-12+012799999V0201401N002612200019N0040001N1+03381+01481101411ADDGF104991041011008001001001MA1999999099851MD1999999+0041REMSYN070AAXX  06184 82678 32596 41405 10338 20148 39985 40141 84100 333 58004;
0149826780999992005080700004-06770-043020FM-12+012799999V0200901N001012200019N0002001N1+02941+01551101561ADDGF100991001001999999001001MA1999999099991MD1999999-0051REMSYN082AAXX  07004 82678 32992 00902 10294 20155 39999 40156 333 10349 29042 55107 59005;
0143826780999992005080712004-06770-043020FM-12+012799999V0200901N004112200019N0040001N1+02721+01651101891ADDGF101991999011008001001001MA1999999100311MD1999999-0041REMSYN076AAXX  07124 82678 32596 10908 10272 20165 30031 40189 82100 333 20236 59004;
0137826780999992005080718004-06770-043020FM-12+012799999V0200901N003612200019N0040001N1+03361+01601101391ADDGF103991031011008001001001MA1999999099831MD1999999-0021REMSYN070AAXX  07184 82678 32596 30907 10336 20160 39983 40139 83100 333 59002;
0149826780999992005080800004-06767-043017FM-12+012799999V0200901N001012200019N0002001N1+02861+01621101591ADDGF100991001001999999001001MA1999999100021MD1999999+0031REMSYN082AAXX  08004 82678 32992 00902 10286 20162 30002 40159 333 10341 29045 55106 58003;
0137826780999992005080812004-06767-043017FM-12+012799999V0200901N005112200019N0040001N1+02681+01581101881ADDGF100991001001999999001001MA1999999100301MD1999999-0011REMSYN070AAXX  08124 82678 32996 00910 10268 20158 30030 40188 333 20234 59001;
0131826780999992005080818004-06767-043017FM-12+012799999V0201401N003112200019N0040001N1+03461+01601101321ADDGF100991001001999999001001MA1999999099771MD1999999-0061REMSYN064AAXX  08184 82678 32996 01406 10346 20160 39977 40132 333 59006;
0149826780999992005080900004-06767-043017FM-12+012799999V0209999C000012200019N0002001N1+02881+01461101541ADDGF100991001001999999001001MA1999999099971MD1999999-0051REMSYN082AAXX  09004 82678 32992 00000 10288 20146 39997 40154 333 10352 29042 55107 59005;
0137826780999992005080912004-06767-043017FM-12+012799999V0200901N004612200019N0040001N1+02741+01641101831ADDGF100991001001999999001001MA1999999100251MD1999999-0051REMSYN070AAXX  09124 82678 32996 00909 10274 20164 30025 40183 333 20241 59005;
0137826780999992005080918004-06767-043017FM-12+012799999V0201401N002612200019N0040001N1+03561+01481101261ADDGF101991011011008001001001MA1999999099711MD1999999-0061REMSYN070AAXX  09184 82678 32596 11405 10356 20148 39971 40126 81100 333 59006;
0155826780999992005081000004-06767-043017FM-12+012799999V0209999C000012200019N0002001N1+02901+01551101491ADDGF101991011001017501031001MA1999999099921MD1999999-0051REMSYN088AAXX  10004 82678 32792 10000 10290 20155 39992 40149 81030 333 10366 29042 55107 59005;
0143826780999992005081012004-06767-043017FM-12+012799999V0200901N003619999999N0040001N1+02851+01571101831ADDGF108991001001999999001011MA1999999100261MD1999999+0011REMSYN076AAXX  10124 82678 32996 80907 10285 20157 30026 40183 80001 333 20226 58001;
0137826780999992005081018004-06767-043017FM-12+012799999V0201401N001512200019N0040001N1+03581+01651101291ADDGF108991041021008001001011MA1999999099731MD1999999+0021REMSYN070AAXX  10184 82678 32596 81403 10358 20165 39973 40129 84201 333 58002;
0149826780999992005081100004-06767-043017FM-12+012799999V0209999C000012200019N0002001N1+02961+01611101521ADDGF100991001001999999001001MA1999999099951MD1999999+0031REMSYN082AAXX  11004 82678 32992 00000 10296 20161 39995 40152 333 10376 29042 55104 58003;
0137826780999992005081112004-06767-043017FM-12+012799999V0200901N001512200019N0040001N1+02981+01591101901ADDGF100991001001999999001001MA1999999100331MD1999999+0071REMSYN070AAXX  11124 82678 32996 00903 10298 20159 30033 40190 333 20248 58007;
0137826780999992005081118004-06767-043017FM-12+012799999V0200901N001511050019N0040001N1+03621+01741101311ADDGF105991031021008001001021MA1999999099761MD1999999+0031REMSYN070AAXX  11184 82678 32596 50903 10362 20174 39976 40131 83202 333 58003;
0149826780999992005081200004-06767-043017FM-12+012799999V0209999C000012200019N0002001N1+02941+01691101461ADDGF100991001001999999001001MA1999999099901MD1999999-0051REMSYN082AAXX  12004 82678 32992 00000 10294 20169 39990 40146 333 10370 29042 55102 59005;
0143826780999992005081212004-06767-043017FM-12+012799999V0200501N002610450019N0040001N1+03011+01531101721ADDGF108991011011008001031021MA1999999100161MD1999999-0171REMSYN076AAXX  12124 82678 32596 80505 10301 20153 30016 40172 81132 333 20255 59017;
0137826780999992005081218004-06767-043017FM-12+012799999V0202301N001511050019N0040001N1+03661+01511101141ADDGF106991031021008001001021MA1999999099601MD1999999-0161REMSYN070AAXX  12184 82678 32596 62303 10366 20151 39960 40114 83202 333 59016;
0149826780999992005081300004-06767-043017FM-12+012799999V0209999C000012200019N0002001N1+02881+01501101301ADDGF100991001001999999001001MA1999999099741MD1999999-0161REMSYN082AAXX  13004 82678 32992 00000 10288 20150 39974 40130 333 10374 29039 55094 59016;
0143826780999992005081312004-06770-043020FM-12+012799999V0200901N003119999999N0040001N1+03001+01711101691ADDGF105991001001999999001021MA1999999100121MD1999999-0041REMSYN076AAXX  13124 82678 32996 50906 10300 20171 30012 40169 80002 333 20242 59004;
0137826780999992005081318004-06770-043020FM-12+012799999V0201401N002610450019N0040001N1+03521+01551101161ADDGF108991031021008001011021MA1999999099611MD1999999+0011REMSYN070AAXX  13184 82678 32596 81405 10352 20155 39961 40116 83212 333 58001;
0149826780999992005081400004-06770-043020FM-12+012799999V0209999C000012200019N0002001N1+02861+01721101271ADDGF100991001001999999001001MA1999999099711MD1999999-0031REMSYN082AAXX  14004 82678 32992 00000 10286 20172 39971 40127 333 10362 29044 55095 59003;
0143826780999992005081412004-06770-043020FM-12+012799999V0200901N002612200019N0040001N1+02901+01751101601ADDGF101991011001017501031001MA1999999100031MD1999999-0091REMSYN076AAXX  14124 82678 32796 10905 10290 20175 30003 40160 81030 333 20250 59009;
0137826780999992005081418004-06770-043020FM-12+012799999V0201801N003112200019N0040001N1+03601+01521101231ADDGF104991021021008001001011MA1999999099681MD1999999+0071REMSYN070AAXX  14184 82678 32596 41806 10360 20152 39968 40123 82201 333 58007;
0149826780999992005081500004-06770-043020FM-12+012799999V0209999C000012200019N0002001N1+02901+01621101401ADDGF100991001001999999001001MA1999999099841MD1999999+0131REMSYN082AAXX  15004 82678 32992 00000 10290 20162 39984 40140 333 10364 29043 55102 58013;
0143826780999992005081512004-06770-043020FM-12+012799999V0200901N003112200019N0040001N1+02801+01871101881ADDGF102991011011008001001011MA1999999100301MD1999999+0271REMSYN076AAXX  15124 82678 32596 20906 10280 20187 30030 40188 81101 333 20252 58027;
0137826780999992005081518004-06770-043020FM-12+012799999V0201401N002612200019N0040001N1+03601+01721101241ADDGF103991011011008001001021MA1999999099701MD1999999+0021REMSYN070AAXX  15184 82678 32596 31405 10360 20172 39970 40124 81102 333 58002;
0155826780999992005081600004-06767-043017FM-12+012799999V0200901N001012200019N0002001N1+02881+01421101491ADDGF103991011001017501031021MA1999999099921MD1999999+0081REMSYN088AAXX  16004 82678 32792 30902 10288 20142 39992 40149 81032 333 10368 29043 55104 58008;
0143826780999992005081612004-06767-043017FM-12+012799999V0200901N004112200019N0040001N1+02881+01911101821ADDGF103991031011008001001001MA1999999100251MD1999999-0051REMSYN076AAXX  16124 82678 32596 30908 10288 20191 30025 40182 83100 333 20255 59005;
0137826780999992005081618004-06767-043017FM-12+012799999V0201401N001512200019N0040001N1+03631+01421101221ADDGF104991031021008001001011MA1999999099681MD1999999-0021REMSYN070AAXX  16184 82678 32596 41403 10363 20142 39968 40122 83201 333 59002;
0155826780999992005081700004-06767-043017FM-12+012799999V0201401N002110450019N0002001N1+03231+01571101391ADDGF106991041081008001031021MA1999999099841MD1999999-0081REMSYN088AAXX  17004 82678 32592 61404 10323 20157 39984 40139 84832 333 10370 29039 55108 59008;
0137826780999992005081712004-06767-043017FM-12+012799999V0200901N004112200019N0040001N1+02791+01371101771ADDGF100991001001999999001001MA1999999100211MD1999999-0041REMSYN070AAXX  17124 82678 32996 00908 10279 20137 30021 40177 333 20255 59004;
0137826780999992005081718004-06767-043017FM-12+012799999V0201401N003112200019N0040001N1+03491+01301101211ADDGF104991001001999999001011MA1999999099661MD1999999-0021REMSYN070AAXX  17184 82678 32996 41406 10349 20130 39966 40121 80001 333 59002;
0149826780999992005081800004-06767-043017FM-12+012799999V0201401N000512200019N0002001N1+02981+01271101431ADDGF100991001001999999001001MA1999999099861MD1999999+0021REMSYN082AAXX  18004 82678 32992 01401 10298 20127 39986 40143 333 10359 29035 55104 58002;
0143826780999992005081812004-06767-043017FM-12+012799999V0201401N003112200019N0040001N1+02861+01811101821ADDGF102991011011008001041001MA1999999100251MD1999999+0041REMSYN076AAXX  18124 82678 32596 21406 10286 20181 30025 40182 81140 333 20254 58004;
0137826780999992005081818004-06767-043017FM-12+012799999V0201401N002611050019N0040001N1+03501+01581101311ADDGF106991031011008001001021MA1999999099761MD1999999+0101REMSYN070AAXX  18184 82678 32596 61405 10350 20158 39976 40131 83102 333 58010;
0149826780999992005081900004-06767-043017FM-12+012799999V0201401N001012200019N0002001N1+02941+01441101491ADDGF100991001001999999001001MA1999999099921MD1999999+0061REMSYN082AAXX  19004 82678 32992 01402 10294 20144 39992 40149 333 10357 29041 55105 58006;
0137826780999992005081912004-06767-043017FM-12+012799999V0201401N003112200019N0040001N1+02741+01761101871ADDGF100991001001999999001001MA1999999100291MD1999999+0041REMSYN070AAXX  19124 82678 32996 01406 10274 20176 30029 40187 333 20246 58004;
0137826780999992005081918004-06767-043017FM-12+012799999V0200901N001510075019N0040001N1+03461+01551101361ADDGF105991051021008001001001MA1999999099801MD1999999+0041REMSYN070AAXX  19184 82678 32596 50903 10346 20155 39980 40136 85200 333 58004;
0149826780999992005082000004-06767-043017FM-12+012799999V0200901N002112200019N0002001N1+02941+01361101581ADDGF100991001001999999001001MA1999999100011MD1999999+0091REMSYN082AAXX  20004 82678 32992 00904 10294 20136 30001 40158 333 10356 29041 55105 58009;
0137826780999992005082012004-06767-043017FM-12+012799999V0200901N003112200019N0040001N1+02761+01721101841ADDGF100991001001999999001001MA1999999100261MD1999999-0031REMSYN070AAXX  20124 82678 32996 00906 10276 20172 30026 40184 333 20239 59003;
0137826780999992005082018004-06767-043017FM-12+012799999V0201401N003110075019N0040001N1+03521+01551101261ADDGF105991051021008001001001MA1999999099711MD1999999-0091REMSYN070AAXX  20184 82678 32596 51406 10352 20155 39971 40126 85200 333 59009;
0155826780999992005082100004-06770-043020FM-12+012799999V0200901N001012200019N0005001N1+03061+01471101481ADDGF103991021001017501031021MA1999999099911MD1999999-0101REMSYN088AAXX  21004 82678 32793 30902 10306 20147 39991 40148 82032 333 10362 29040 55103 59010;
0143826780999992005082112004-06770-043020FM-12+012799999V0200901N003112200019N0040001N1+02721+01771101741ADDGF102991001001999999001021MA1999999100171MD1999999-0091REMSYN076AAXX  21124 82678 32996 20906 10272 20177 30017 40174 80002 333 20246 59009;
0137826780999992005082118004-06770-043020FM-12+012799999V0201401N001512200019N0040001N1+03521+01281101201ADDGF102991021011008001001001MA1999999099651MD1999999-0061REMSYN070AAXX  21184 82678 32596 21403 10352 20128 39965 40120 82100 333 59006;
0178826780999992005082200004-06767-043017FM-12+012799999V0200901N000512200019N0002001N1+02941+01281101381ADDGA1001+999999999GF100991001001999999001001KA1240M+03591MA1999999099811MD1999999-0101REMSYN082AAXX  22004 82678 32992 00901 10294 20128 39981 40138 333 10359 29038 55110 59010;
0156826780999992005082212004-06767-043017FM-12+012799999V0200901N003610075019N0040001N1+02861+01871101711ADDGF107991071051008001001001KA1240N+02431MA1999999100141MD1999999-0031REMSYN076AAXX  22124 82678 32596 70907 10286 20187 30014 40171 87500 333 20243 59003;
0137826780999992005082218004-06767-043017FM-12+012799999V0201401N001510075019N0040001N1+03341+01831101261ADDGF106991061051008001001001MA1999999099701MD1999999+0051REMSYN070AAXX  22184 82678 32596 61403 10334 20183 39970 40126 86500 333 58005;
0168826780999992005082300004-06767-043017FM-12+012799999V0201401N002612200019N0002001N1+02971+01641101481ADDGF103991031051008001001001KA1240M+03431MA1999999099911MD1999999+0101REMSYN088AAXX  23004 82678 32592 31405 10297 20164 39991 40148 83500 333 10343 29046 55087 58010;
0175826780999992005082312004-06767-043017FM-12+012799999V0200901N004612200019N0040001N1+02801+01391101791ADDGF102991999021017501001001KA1240N+02451MA1999999100221MD1999999+0081REMSYN076AAXX  23124 82678 32796 20909 10280 20139 30022 40179 81200 333 20245 58008;EQDQ01+000012SCOTLC
0137826780999992005082318004-06767-043017FM-12+012799999V0200901N003612200019N0040001N1+03471+01341101311ADDGF101991011011008001001001MA1999999099751MD1999999+0051REMSYN070AAXX  23184 82678 32596 10907 10347 20134 39975 40131 81100 333 58005;
0178826780999992005082400004-06767-043017FM-12+012799999V0201401N001012200019N0002001N1+02881+01501101431ADDGA1001+999999999GF100991001001999999001001KA1240M+03561MA1999999099861MD1999999-0051REMSYN082AAXX  24004 82678 32992 01402 10288 20150 39986 40143 333 10356 29039 55109 59005;
0166826780999992005082412004-06767-043017FM-12+012799999V0200901N003112200019N0040001N1+02901+01811101761ADDGA1001+999999999GF100991001001999999001001KA1240N+02541MA1999999100191MD1999999-0031REMSYN070AAXX  24124 82678 32796 00906 10290 20181 30019 40176 333 20254 59003;
0156826780999992005082418004-06767-043017FM-12+012799999V0200901N002110075019N0040001N1+03441+01761101331ADDGF108991999021008001001001MA1999999099771MD1999999+0021REMSYN070AAXX  24184 82678 32596 80904 10344 20176 39977 40133 85200 333 58002;EQDQ01+000052SCOTLC
0178826780999992005082500004-06767-043017FM-12+012799999V0201401N001512200019N0002001N1+03121+01641101491ADDGA1001+999999999GF100991001001999999001001KA1240M+03531MA1999999099931MD1999999+0071REMSYN082AAXX  25004 82678 32992 01403 10312 20164 39993 40149 333 10353 29043 55067 58007;
0166826780999992005082512004-06767-043017FM-12+012799999V0200901N002612200019N0040001N1+02921+01741101691ADDGA1001+999999999GF100991001001999999001001KA1240N+02581MA1999999100131MD1999999-0061REMSYN070AAXX  25124 82678 32996 00905 10292 20174 30013 40169 333 20258 59006;
0156826780999992005082518004-06767-043017FM-12+012799999V0200901N001519999999N0040001N1+03701+01711101091ADDGF105991999021008001001001MA1999999099551MD1999999-0221REMSYN070AAXX  25184 82678 32596 50903 10370 20171 39955 40109 83200 333 59022;EQDQ01+000032SCOTLC
0178826780999992005082600004-06767-043017FM-12+012799999V0209999C000012200019N0002001N1+02901+01621101201ADDGA1001+999999999GF100991001001999999001001KA1240M+03801MA1999999099641MD1999999-0291REMSYN082AAXX  26004 82678 32992 00000 10290 20162 39964 40120 333 10380 29043 55109 59029;
0156826780999992005082612004-06767-043017FM-12+012799999V0200901N001012200019N0040001N1+02961+01811101581ADDGF103991031011008001001001KA1240N+02421MA1999999100021MD1999999-0111REMSYN076AAXX  26124 82678 32596 30902 10296 20181 30002 40158 83100 333 20242 59011;
0137826780999992005082618004-06767-043017FM-12+012799999V0201801N000510075019N0040001N1+03701+01711101141ADDGF105991051021008001001001MA1999999099591MD1999999+0041REMSYN070AAXX  26184 82678 32596 51801 10370 20171 39959 40114 85200 333 58004;
0178826780999992005082700004-06767-043017FM-12+012799999V0201401N001012200019N0002001N1+03181+01401101221ADDGA1001+999999999GF100991001001999999001001KA1240M+03821MA1999999099671MD1999999+0031REMSYN082AAXX  27004 82678 32992 01402 10318 20140 39967 40122 333 10382 29037 55105 58003;
0166826780999992005082712004-06767-043017FM-12+012799999V0200901N004112200019N0040001N1+02881+01731101711ADDGA1001+999999999GF100991001001999999001001KA1240N+02521MA1999999100151MD1999999+0131REMSYN070AAXX  27124 82678 32996 00908 10288 20173 30015 40171 333 20252 58013;
0137826780999992005082718004-06767-043017FM-12+012799999V0201401N002612200019N0040001N1+03581+01551101141ADDGF101991011011008001001001MA1999999099601MD1999999+0011REMSYN070AAXX  27184 82678 32596 11405 10358 20155 39960 40114 81100 333 58001;
0178826780999992005082800004-06767-043017FM-12+012799999V0201401N000512200019N0002001N1+03121+01441101331ADDGA1001+999999999GF100991001001999999001001KA1240M+03671MA1999999099771MD1999999+0101REMSYN082AAXX  28004 82678 32992 01401 10312 20144 39977 40133 333 10367 29038 55109 58010;
0166826780999992005082812004-06767-043017FM-12+012799999V0201401N002612200019N0040001N1+02921+01741101691ADDGA1001+999999999GF100991001001999999001001KA1240N+02481MA1999999100131MD1999999-0021REMSYN070AAXX  28124 82678 32996 01405 10292 20174 30013 40169 333 20248 59002;
0137826780999992005082818004-06767-043017FM-12+012799999V0201401N003112200019N0040001N1+03661+01721101031ADDGF104991021021008001001021MA1999999099491MD1999999-0111REMSYN070AAXX  28184 82678 32596 41406 10366 20172 39949 40103 82202 333 59011;
0178826780999992005082900004-06767-043017FM-12+012799999V0200901N001512200019N0002001N1+03141+01171101191ADDGA1001+999999999GF100991001001999999001001KA1240M+03731MA1999999099641MD1999999-0131REMSYN082AAXX  29004 82678 32992 00903 10314 20117 39964 40119 333 10373 29035 55109 59013;
0156826780999992005082912004-06767-043017FM-12+012799999V0200901N004612200019N0040001N1+03011+01781101591ADDGF103991011001017501031031KA1240N+02521MA1999999100041MD1999999-0091REMSYN076AAXX  29124 82678 32796 30909 10301 20178 30004 40159 81033 333 20252 59009;
0137826780999992005082918004-06767-043017FM-12+012799999V0200901N003110075019N0040001N1+03521+01791101101ADDGF106991061021008001001001MA1999999099551MD1999999+0061REMSYN070AAXX  29184 82678 32596 60906 10352 20179 39955 40110 86200 333 58006;
0168826780999992005083000004-06767-043017FM-12+012799999V0201401N002112200019N0002001N1+03121+01391101261ADDGF101991011001017501031001KA1240M+03621MA1999999099711MD1999999+0071REMSYN088AAXX  30004 82678 32792 11404 10312 20139 39971 40126 81030 333 10362 29038 55098 58007;
0166826780999992005083012004-06767-043017FM-12+012799999V0200901N003112200019N0040001N1+02971+01711101641ADDGA1001+999999999GF100991001001999999001001KA1240N+02641MA1999999100081MD1999999+0041REMSYN070AAXX  30124 82678 32996 00906 10297 20171 30008 40164 333 20264 58004;
0137826780999992005083018004-06767-043017FM-12+012799999V0200901N001512200019N0040001N1+03681+01791101041ADDGF104991021021008001001031MA1999999099501MD1999999-0051REMSYN070AAXX  30184 82678 32596 40903 10368 20179 39950 40104 82203 333 59005;
0178826780999992005083100004-06767-043017FM-12+012799999V0201401N001512200019N0002001N1+03181+01401101291ADDGA1001+999999999GF100991001001999999001001KA1240M+03741MA1999999099741MD1999999+0031REMSYN082AAXX  31004 82678 32992 01403 10318 20140 39974 40129 333 10374 29037 55106 58003;
0166826780999992005083112004-06767-043017FM-12+012799999V0200901N003612200019N0040001N1+02921+01671101631ADDGA1001+999999999GF100991001001999999001001KA1240N+02381MA1999999100071MD1999999-0011REMSYN070AAXX  31124 82678 32996 00907 10292 20167 30007 40163 333 20238 59001;
0137826780999992005083118004-06767-043017FM-12+012799999V0200901N004112200019N0040001N1+03781+00861100951ADDGF103991021011008001001011MA1999999099411MD1999999-0091REMSYN070AAXX  31184 82678 32596 30908 10378 20086 39941 40095 82101 333 59009;
0178826780999992005090100004-06767-043017FM-12+013899999V0209999C000012200019N0002001N1+02761+00901101161ADDGA1001+999999999GF100991001001999999001001KA1240M+03821MA1999999099601MD1999999-0141REMSYN082AAXX  01004 82678 32992 00000 10276 20090 39960 40116 333 10382 29032 55109 59014;
0166826780999992005090112004-06767-043017FM-12+013899999V0200901N001512200019N0040001N1+02861+01681101621ADDGA1001+999999999GF100991001001999999001001KA1240N+02401MA1999999100051MD1999999-0021REMSYN070AAXX  01124 82678 32996 00903 10286 20168 30005 40162 333 20240 59002;
0137826780999992005090118004-06767-043017FM-12+013899999V0200901N002612200019N0040001N1+03681+01351101021ADDGF103991031011008001001001MA1999999099481MD1999999+0071REMSYN070AAXX  01184 82678 32596 30905 10368 20135 39948 40102 83100 333 58007;
0178826780999992005090200004-06767-043017FM-12+013899999V0201401N001012200019N0002001N1+03121+01301101241ADDGA1001+999999999GF100991001001999999001001KA1240M+03701MA1999999099681MD1999999+0081REMSYN082AAXX  02004 82678 32992 01402 10312 20130 39968 40124 333 10370 29035 55106 58008;
0166826780999992005090212004-06767-043017FM-12+013899999V0200901N001512200019N0040001N1+02901+01781101621ADDGA1001+999999999GF100991001001999999001001KA1240N+02521MA1999999100061MD1999999+0011REMSYN070AAXX  02124 82678 32996 00903 10290 20178 30006 40162 333 20252 58001;
0137826780999992005090218004-06767-043017FM-12+013899999V0201401N002612200019N0040001N1+03681+01471101041ADDGF104991031011008001001011MA1999999099491MD1999999+0011REMSYN070AAXX  02184 82678 32596 41405 10368 20147 39949 40104 83101 333 58001;
0178826780999992005090300004-06767-043017FM-12+013899999V0209999C000012200019N0002001N1+03001+01531101231ADDGA1001+999999999GF100991001001999999001001KA1240M+03781MA1999999099671MD1999999-0011REMSYN082AAXX  03004 82678 32992 00000 10300 20153 39967 40123 333 10378 29040 55107 59001;
0156826780999992005090312004-06767-043017FM-12+013899999V0200501N004112200019N0040001N1+03121+01601101631ADDGF103991001001999999001011KA1240N+02821MA1999999100071MD1999999+0011REMSYN076AAXX  03124 82678 32996 30508 10312 20160 30007 40163 80001 333 20282 58001;
0137826780999992005090318004-06767-043017FM-12+013899999V0200501N002610075019N0040001N1+03641+01501101021ADDGF105991051021008001001001MA1999999099481MD1999999-0011REMSYN070AAXX  03184 82678 32596 50505 10364 20150 39948 40102 85200 333 59001;
0178826780999992005090400004-06767-043017FM-12+013899999V0209999C000012200019N0002001N1+03001+01411101181ADDGA1001+999999999GF100991001001999999001001KA1240M+03771MA1999999099631MD1999999-0041REMSYN082AAXX  04004 82678 32992 00000 10300 20141 39963 40118 333 10377 29036 55102 59004;
0156826780999992005090412004-06767-043017FM-12+013899999V0200901N001512200019N0040001N1+03021+01801101701ADDGF103991031011008001001001KA1240N+02781MA1999999100141MD1999999+0071REMSYN076AAXX  04124 82678 32596 30903 10302 20180 30014 40170 83100 333 20278 58007;
0137826780999992005090418004-06767-043017FM-12+013899999V0201401N001510075019N0040001N1+03661+01671101091ADDGF105991051011008001001001MA1999999099561MD1999999+0081REMSYN070AAXX  04184 82678 32596 51403 10366 20167 39956 40109 85100 333 58008;
0178826780999992005090500004-06767-043017FM-12+013899999V0201401N000512200019N0002001N1+02861+01651101281ADDGA1001+999999999GF100991001001999999001001KA1240M+03701MA1999999099721MD1999999+0091REMSYN082AAXX  05004 82678 32992 01401 10286 20165 39972 40128 333 10370 29044 55099 58009;
0166826780999992005090512004-06767-043017FM-12+013899999V0200901N001512200019N0040001N1+02981+01591101701ADDGA1001+999999999GF100991001001999999001001KA1240N+02641MA1999999100131MD1999999-0011REMSYN070AAXX  05124 82678 32996 00903 10298 20159 30013 40170 333 20264 59001;
0137826780999992005090518004-06767-043017FM-12+013899999V0201401N001512200019N0040001N1+03661+01761101111ADDGF104991041011008001001001MA1999999099561MD1999999+0001REMSYN070AAXX  05184 82678 32596 41403 10366 20176 39956 40111 84100 333 58000;
0178826780999992005090600004-06767-043017FM-12+013899999V0200901N001512200019N0002001N1+03161+01291101241ADDGA1001+999999999GF100991001001999999001001KA1240M+03761MA1999999099691MD1999999-0031REMSYN082AAXX  06004 82678 32992 00903 10316 20129 39969 40124 333 10376 29034 55103 59003;
0166826780999992005090612004-06767-043017FM-12+013899999V0200901N002112200019N0002001N1+03101+01541101621ADDGA1001+999999999GF100991001001999999001001KA1240N+02471MA1999999100071MD1999999-0061REMSYN070AAXX  06124 82678 32992 00904 10310 20154 30007 40162 333 20247 59006;
0137826780999992005090618004-06767-043017FM-12+013899999V0200501N001512200019N0040001N1+03781+01561100971ADDGF103991021011008001001011MA1999999099441MD1999999-0121REMSYN070AAXX  06184 82678 32596 30503 10378 20156 39944 40097 82101 333 59012;
0178826780999992005090700004-06767-043017FM-12+013899999V0209999C000012200019N0002001N1+03001+01371101201ADDGA1001+999999999GF100991001001999999001001KA1240M+03841MA1999999099651MD1999999-0041REMSYN082AAXX  07004 82678 32992 00000 10300 20137 39965 40120 333 10384 29035 55097 59004;
0156826780999992005090712004-06767-043017FM-12+013899999V0200501N001012200019N0040001N1+03061+01731101601ADDGF102991021011008001001001KA1240N+02341MA1999999100041MD1999999-0031REMSYN076AAXX  07124 82678 32596 20502 10306 20173 30004 40160 82100 333 20234 59003;
0137826780999992005090718004-06767-043017FM-12+013899999V0203601N000510075019N0040001N1+03661+01721101181ADDGF106991061021008001001001MA1999999099631MD1999999+0191REMSYN070AAXX  07184 82678 32596 63601 10366 20172 39963 40118 86200 333 58019;
0178826780999992005090800004-06767-043017FM-12+013899999V0209999C000012200019N0002001N1+03221+01611101231ADDGA1001+999999999GF100991001001999999001001KA1240M+03781MA1999999099681MD1999999+0031REMSYN082AAXX  08004 82678 32992 00000 10322 20161 39968 40123 333 10378 29038 55097 58003;
0166826780999992005090812004-06767-043017FM-12+013899999V0200501N001512200019N0040001N1+03061+01701101651ADDGA1001+999999999GF100991001001999999001001KA1240N+02521MA1999999100901MD1999999+0061REMSYN070AAXX  08124 82678 32996 00503 10306 20170 30090 40165 333 20252 58006;
0156826780999992005090818004-06767-043017FM-12+013899999V0201401N002610075019N0040001N1+03641+01701101211ADDGF106991061021008001001001MA1999999099662MD1999999+0031REMSYN070AAXX  08184 82678 32596 61405 10364 20170 39966 40121 86200 333 58003;EQDQ01+099663APOSP 
0178826780999992005090900004-06767-043017FM-12+013899999V0201401N003112200019N0002001N1+03201+01631101371ADDGA1001+999999999GF100991001001999999001001KA1240M+03701MA1999999099821MD1999999+0141REMSYN082AAXX  09004 82678 32992 01406 10320 20163 39982 40137 333 10370 29038 55104 58014;
0166826780999992005090912004-06767-043017FM-12+013899999V0200901N004112200019N0040001N1+02961+01611101791ADDGA1001+999999999GF100991001001999999001001KA1240N+02721MA1999999100231MD1999999+0131REMSYN070AAXX  09124 82678 32996 00908 10296 20161 30023 40179 333 20272 58013;
0137826780999992005090918004-06767-043017FM-12+013899999V0201401N004112200019N0040001N1+03621+01301101201ADDGF102991021011008001001001MA1999999099661MD1999999+0001REMSYN070AAXX  09184 82678 32596 21408 10362 20130 39966 40120 82100 333 58000;
0178826780999992005091000004-06767-043017FM-12+013899999V0201401N002112200019N0002001N1+03141+01071101421ADDGA1001+999999999GF100991001001999999001001KA1240M+03701MA1999999099861MD1999999+0041REMSYN082AAXX  10004 82678 32992 01404 10314 20107 39986 40142 333 10370 29031 55107 58004;
0156826780999992005091012004-06767-043017FM-12+013899999V0201401N004612200019N0040001N1+02811+01431101891ADDGF102991001001999999001011KA1240N+02601MA1999999100321MD1999999+0091REMSYN076AAXX  10124 82678 32996 21409 10281 20143 30032 40189 80001 333 20260 58009;
0137826780999992005091018004-06767-043017FM-12+013899999V0201401N003112200019N0040001N1+03601+01161101271ADDGF101991011001017501031001MA1999999099721MD1999999+0061REMSYN070AAXX  10184 82678 32796 11406 10360 20116 39972 40127 81030 333 58006;
0178826780999992005091100004-06767-043017FM-12+013899999V0201401N002612200019N0002001N1+03051+00821101471ADDGA1001+999999999GF100991001001999999001001KA1240M+03661MA1999999099911MD1999999+0051REMSYN082AAXX  11004 82678 32992 01405 10305 20082 39991 40147 333 10366 29029 55107 58005;
0166826780999992005091112004-06767-043017FM-12+013899999V0201401N004112200019N0040001N1+02781+01731101861ADDGA1001+999999999GF100991001001999999001001KA1240N+02521MA1999999100291MD1999999-0031REMSYN070AAXX  11124 82678 32796 01408 10278 20173 30029 40186 333 20252 59003;
0137826780999992005091118004-06767-043017FM-12+013899999V0200501N001512200019N0040001N1+03601+01351101221ADDGF102991001001999999001011MA1999999099681MD1999999-0041REMSYN070AAXX  11184 82678 32996 20503 10360 20135 39968 40122 80001 333 59004;
0178826780999992005091200004-06767-043017FM-12+013899999V0209999C000012200019N0002001N1+02961+00861101481ADDGA1001+999999999GF100991001001999999001001KA1240M+03641MA1999999099911MD1999999+0001REMSYN082AAXX  12004 82678 32992 00000 10296 20086 39991 40148 333 10364 29033 55107 58000;
0166826780999992005091212004-06767-043017FM-12+013899999V0200901N005112200019N0040001N1+02921+01571101881ADDGA1001+999999999GF100991001001999999001001KA1240N+02181MA1999999100311MD1999999+0021REMSYN070AAXX  12124 82678 32996 00910 10292 20157 30031 40188 333 20218 58002;
0137826780999992005091218004-06767-043017FM-12+012799999V0200901N004112200019N0040001N1+03621+01421101271ADDGF102991011011017501001011MA1999999099711MD1999999+0031REMSYN070AAXX  12184 82678 32796 20908 10362 20142 39971 40127 81101 333 58003;
0178826780999992005091300004-06767-043017FM-12+012799999V0209999C000012200019N0002001N1+03121+01391101451ADDGA1001+999999999GF100991001001999999001001KA1240M+03711MA1999999099891MD1999999-0021REMSYN082AAXX  13004 82678 32992 00000 10312 20139 39989 40145 333 10371 29035 55107 59002;
0156826780999992005091312004-06767-043017FM-12+012799999V0200901N001512200019N0040001N1+03041+01851101661ADDGF101991011011008001001001KA1240N+02701MA1999999100101MD1999999-0211REMSYN076AAXX  13124 82678 32596 10903 10304 20185 30010 40166 81100 333 20270 59021;
0166826780999992005091412004-06767-043017FM-12+012799999V0200901N004112200019N0040001N1+02941+01791101651ADDGA1001+999999999GF100991001001999999001001KA1240N+02701MA1999999100091MD1999999-0011REMSYN070AAXX  14124 82678 32996 00908 10294 20179 30009 40165 333 20270 59001;
0137826780999992005091418004-06767-043017FM-12+012799999V0200901N002612200019N0040001N1+03701+01551101091ADDGF103991031011008001001001MA1999999099551MD1999999+0001REMSYN070AAXX  14184 82678 32596 30905 10370 20155 39955 40109 83100 333 58000;
0178826780999992005091500004-06767-043017FM-12+012799999V0200901N001512200019N0002001N1+03201+01421101391ADDGA1001+999999999GF100991001001999999001001KA1240M+03781MA1999999099841MD1999999+0051REMSYN082AAXX  15004 82678 32992 00903 10320 20142 39984 40139 333 10378 29036 55102 58005;
0166826780999992005091512004-06767-043017FM-12+012799999V0201401N004612200019N0040001N1+02921+01601101881ADDGA1001+999999999GF100991001001999999001001KA1240N+02681MA1999999100321MD1999999+0231REMSYN070AAXX  15124 82678 32996 01409 10292 20160 30032 40188 333 20268 58023;
0147826780999992005091518004-06767-043017FM-12+012799999V0201401N004112200019N0040001N1+03681+01161101241ADDGA1001+999999999GF100991001001999999001001MA1999999099701MD1999999+0151REMSYN064AAXX  15184 82678 32996 01408 10368 20116 39970 40124 333 58015;
0178826780999992005091600004-06767-043017FM-12+012799999V0209999C000012200019N0002001N1+02941+01231101511ADDGA1001+999999999GF100991001001999999001001KA1240M+03751MA1999999099951MD1999999+0111REMSYN082AAXX  16004 82678 32992 00000 10294 20123 39995 40151 333 10375 29034 55105 58011;
0166826780999992005091612004-06767-043017FM-12+012799999V0200901N003112200019N0040001N1+02841+01791101841ADDGA1001+999999999GF100991001001999999001001KA1240N+02601MA1999999100271MD1999999-0051REMSYN070AAXX  16124 82678 32996 00906 10284 20179 30027 40184 333 20260 59005;
0137826780999992005091618004-06767-043017FM-12+012799999V0201401N002112200019N0040001N1+03731+01191101171ADDGF104991041011008001001001MA1999999099631MD1999999-0071REMSYN070AAXX  16184 82678 32596 41404 10373 20119 39963 40117 84100 333 59007;
0178826780999992005091700004-06767-043017FM-12+012799999V0200901N002112200019N0002001N1+03191+01101101401ADDGA1001+999999999GF100991001001999999001001KA1240M+03801MA1999999099841MD1999999-0111REMSYN082AAXX  17004 82678 32992 00904 10319 20110 39984 40140 333 10380 29033 55105 59011;
0166826780999992005091712004-06767-043017FM-12+012799999V0200901N004112200019N0040001N1+02841+01571101711ADDGA1001+999999999GF100991001001999999001001KA1240N+02561MA1999999100151MD1999999-0121REMSYN070AAXX  17124 82678 32996 00908 10284 20157 30015 40171 333 20256 59012;
0147826780999992005091718004-06767-043017FM-12+012799999V0200901N001512200019N0040001N1+03701+01431101021ADDGA1001+999999999GF100991001001999999001001MA1999999099481MD1999999-0151REMSYN064AAXX  17184 82678 32996 00903 10370 20143 39948 40102 333 59015;
0178826780999992005091800004-06767-043017FM-12+012799999V0209999C000012200019N0002001N1+02941+01191101231ADDGA1001+999999999GF100991001001999999001001KA1240M+03821MA1999999099671MD1999999-0171REMSYN082AAXX  18004 82678 32992 00000 10294 20119 39967 40123 333 10382 29035 55110 59017;
0166826780999992005091812004-06767-043017FM-12+012799999V0200901N002112200019N0040001N1+03101+01501101731ADDGA1001+999999999GF100991001001999999001001KA1240N+02181MA1999999100171MD1999999+0021REMSYN070AAXX  18124 82678 32996 00904 10310 20150 30017 40173 333 20218 58002;
0147826780999992005091818004-06767-043017FM-12+012799999V0200901N001512200019N0040001N1+03781+01371101091ADDGA1001+999999999GF100991001001999999001001MA1999999099531MD1999999+0051REMSYN064AAXX  18184 82678 32996 00903 10378 20137 39953 40109 333 58005;
0178826780999992005091900004-06767-043017FM-12+012799999V0200901N000512200019N0040001N1+03241+01311101281ADDGA1001+999999999GF100991001001999999001001KA1240M+03801MA1999999099731MD1999999+0061REMSYN082AAXX  19004 82678 32996 00901 10324 20131 39973 40128 333 10380 29031 55109 58006;
0166826780999992005091912004-06767-043017FM-12+012799999V0200901N001512200019N0040001N1+03101+01661101701ADDGA1001+999999999GF100991001001999999001001KA1240N+02761MA1999999100151MD1999999-0021REMSYN070AAXX  19124 82678 32996 00903 10310 20166 30015 40170 333 20276 59002;
0137826780999992005091918004-06767-043017FM-12+012799999V0200901N001512200019N0040001N1+03721+01561101141ADDGF103991031011008001001001MA1999999099611MD1999999+0081REMSYN070AAXX  19184 82678 32596 30903 10372 20156 39961 40114 83100 333 58008;
0168826780999992005092000004-06767-043017FM-12+012799999V0200901N001012200019N0002001N1+03301+01461101291ADDGF103991031001017501031001KA1240M+03821MA1999999099751MD1999999+0021REMSYN088AAXX  20004 82678 32792 30902 10330 20146 39975 40129 83030 333 10382 29034 55111 58002;
0156826780999992005092012004-06767-043017FM-12+012799999V0200901N002612200019N0040001N1+03141+01801101621ADDGF102991021011008001001001KA1240N+02781MA1999999100071MD1999999-0081REMSYN076AAXX  20124 82678 32596 20905 10314 20180 30007 40162 82100 333 20278 59008;
0137826780999992005092018004-06767-043017FM-12+012799999V0201401N001512200019N0040001N1+03821+01701101041ADDGF104991041021008001001001MA1999999099511MD1999999-0101REMSYN070AAXX  20184 82678 32596 41403 10382 20170 39951 40104 84200 333 59010;
0168826780999992005092100004-06767-043017FM-12+012799999V0209999C000012200019N0002001N1+03101+01421101161ADDGF102991021001017501031001KA1240M+03901MA1999999099611MD1999999-0141REMSYN088AAXX  21004 82678 32792 20000 10310 20142 39961 40116 82030 333 10390 29036 55111 59014;
0156826780999992005092112004-06767-043017FM-12+012799999V0200501N001512200019N0040001N1+03061+01961101431ADDGF102991001001999999001011KA1240N+02581MA1999999099881MD1999999-0191REMSYN076AAXX  21124 82678 32996 20503 10306 20196 39988 40143 80001 333 20258 59019;
0137826780999992005092118004-06767-043017FM-12+012799999V0201401N002112200019N0040001N1+03901+01341100801ADDGF104991021011008001001011MA1999999099271MD1999999-0241REMSYN070AAXX  21184 82678 32596 41404 10390 20134 39927 40080 82101 333 59024;
0178826780999992005092200004-06767-043017FM-12+012799999V0201801N000512200019N0002001N1+03061+01301100931ADDGA1001+999999999GF100991001001999999001001KA1240M+03991MA1999999099381MD1999999-0231REMSYN082AAXX  22004 82678 32992 01801 10306 20130 39938 40093 333 10399 29036 55108 59023;
0156826780999992005092212004-06767-043017FM-12+012799999V0202701N001519999999N0040001N1+02821+02171101401ADDGF107991001001999999001011KA1240N+02501MA1999999099841MD1999999-0041REMSYN076AAXX  22124 82678 32996 72703 10282 20217 39984 40140 80001 333 20250 59004;
0137826780999992005092218004-06767-043017FM-12+012799999V0202701N001010450019N0040001N1+03761+01811100801ADDGF108991041021008001011011MA1999999099261MD1999999-0011REMSYN070AAXX  22184 82678 32596 82702 10376 20181 39926 40080 84211 333 59001;
0168826780999992005092300004-06767-043017FM-12+012799999V0209999C000012200019N0002001N1+03181+01801100961ADDGF104991021001017501011011KA1240M+03861MA1999999099411MD1999999+0031REMSYN088AAXX  23004 82678 32792 40000 10318 20180 39941 40096 82011 333 10386 29047 55077 58003;
0156826780999992005092312004-06767-043017FM-12+012799999V0200501N001512200019N0040001N1+02901+02071101501ADDGF104991021021008001001011KA1240N+02701MA1999999099941MD1999999+0101REMSYN076AAXX  23124 82678 32596 40503 10290 20207 39994 40150 82201 333 20270 58010;
0137826780999992005092318004-06767-043017FM-12+012799999V0201801N001511050019N0040001N1+03661+01911101011ADDGF105991041021008001001021MA1999999099471MD1999999+0211REMSYN070AAXX  23184 82678 32596 51803 10366 20191 39947 40101 84202 333 58021;
0168826780999992005092400004-06767-043017FM-12+012799999V0209999C000010450019N0002001N1+02641+02181101561ADDGF108991041021008001031011KA1240M+03761MA1999999099831MD1999999+0421REMSYN088AAXX  24004 82678 32592 80000 10264 20218 39983 40156 84231 333 10376 29063 55073 58042;
0156826780999992005092412004-06767-043017FM-12+012799999V0203601N001010075019N0040001N1+02901+02151101521ADDGF108991051051008001021001KA1240N+02501MA1999999099951MD1999999+0011REMSYN076AAXX  24124 82678 32596 83602 10290 20215 39995 40152 85520 333 20250 58001;
0156826780999992005092418004-06767-043017FM-12+012799999V0201801N001519999999N0040001N1+03501+02051100971ADDGF108991999021008001001001MA1999999099421MD1999999-0051REMSYN070AAXX  24184 82678 32596 81803 10350 20205 39942 40097 84200 333 59005;EQDQ01+000042SCOTLC
0178826780999992005092500004-06767-043017FM-12+012799999V0209999C000012200019N0002001N1+03161+02171101171ADDGA1001+999999999GF100991001001999999001001KA1240M+03641MA1999999099621MD1999999-0211REMSYN082AAXX  25004 82678 32992 00000 10316 20217 39962 40117 333 10364 29055 55072 59021;
0156826780999992005092512004-06767-043017FM-12+012799999V0203601N000510450019N0040001N1+02941+02111101601ADDGF106991011011008001031021KA1240N+02641MA1999999100041MD1999999+0091REMSYN076AAXX  25124 82678 32596 63601 10294 20211 30004 40160 81132 333 20264 58009;
0137826780999992005092518004-06767-043017FM-12+012799999V0200901N001010075019N0040001N1+03701+01651101061ADDGF106991061011008001001001MA1999999099521MD1999999+0101REMSYN070AAXX  25184 82678 32596 60902 10370 20165 39952 40106 86100 333 58010;
0178826780999992005092600004-06767-043017FM-12+012799999V0209999C000012200019N0002001N1+03221+01731101111ADDGA1001+999999999GF100991001001999999001001KA1240M+03791MA1999999099561MD1999999-0061REMSYN082AAXX  26004 82678 32992 00000 10322 20173 39956 40111 333 10379 29043 55093 59006;
0166826780999992005092612004-06767-043017FM-12+012799999V0203601N001012200019N0040001N1+03021+01991101661ADDGA1001+999999999GF100991001001999999001001KA1240N+02561MA1999999100101MD1999999+0061REMSYN070AAXX  26124 82678 32996 03602 10302 20199 30010 40166 333 20256 58006;
0137826780999992005092618004-06767-043017FM-12+012799999V0200901N001510075019N0040001N1+03761+01651101171ADDGF105991051021008001001001MA1999999099631MD1999999+0111REMSYN070AAXX  26184 82678 32596 50903 10376 20165 39963 40117 85200 333 58011;
0178826780999992005092700004-06767-043017FM-12+012799999V0209999C000012200019N0002001N1+03001+01681101281ADDGA1001+999999999GF100991001001999999001001KA1240M+03821MA1999999099721MD1999999+0161REMSYN082AAXX  27004 82678 32992 00000 10300 20168 39972 40128 333 10382 29043 55099 58016;
0166826780999992005092712004-06767-043017FM-12+012799999V0200501N001512200019N0040001N1+03041+01571101611ADDGA1001+999999999GF100991001001999999001001KA1240N+02381MA1999999100051MD1999999-0051REMSYN070AAXX  27124 82678 32996 00503 10304 20157 30005 40161 333 20238 59005;
0137826780999992005092718004-06767-043017FM-12+012799999V0200901N003112200019N0040001N1+03881+01391101031ADDGF105991041021008001001011MA1999999099481MD1999999-0151REMSYN070AAXX  27184 82678 32596 50906 10388 20139 39948 40103 84201 333 59015;
0178826780999992005092800004-06767-043017FM-12+012799999V0209999C000012200019N0002001N1+03031+01511101251ADDGA1001+999999999GF100991001001999999001001KA1240M+03921MA1999999099701MD1999999-0021REMSYN082AAXX  28004 82678 32992 00000 10303 20151 39970 40125 333 10392 29036 55107 59002;
0156826780999992005092812004-06767-043017FM-12+012799999V0200501N004112200019N0040001N1+03191+01691101551ADDGF105991041021008001001011KA1240N+02731MA1999999100001MD1999999-0051REMSYN076AAXX  28124 82678 32596 50508 10319 20169 30000 40155 84201 333 20273 59005;
0137826780999992005092818004-06767-043017FM-12+012799999V0200901N003112200019N0040001N1+03751+01581100891ADDGF106991041021008001001011MA1999999099351MD1999999-0131REMSYN070AAXX  28184 82678 32596 60906 10375 20158 39935 40089 84201 333 59013;
0168826780999992005092900004-06767-043017FM-12+012799999V0201401N002112200019N0002001N1+03321+01461101201ADDGF104991021011008001001011KA1240M+03841MA1999999099661MD1999999-0041REMSYN088AAXX  29004 82678 32592 41404 10332 20146 39966 40120 82101 333 10384 29034 55100 59004;
0185826780999992005092912004-06767-043017FM-12+012799999V0200901N005712200019N0040001N1+03101+01191101561ADDGA1001+999999999GF100991001001999999001001KA1240N+02501MA1999999999999MD1999999+0001REMSYN070AAXX  29124 82678 32596 00911 10310 20119 39001 40156 333 20250 58000;EQDQ01 090013APOSP 
0156826780999992005092918004-06767-043017FM-12+012799999V0201401N003112200019N0040001N1+03761+01391100891ADDGF104991021021008001001011MA1999999099362MD1999999+0011REMSYN070AAXX  29184 82678 32596 41406 10376 20139 39936 40089 82201 333 58001;EQDQ01+099363APOSP 
0178826780999992005093000004-06767-043017FM-12+012799999V0201401N002112200019N0020001N1+03201+01121101161ADDGA1001+999999999GF100991001001999999001001KA1240M+03841MA1999999099621MD1999999-0041REMSYN082AAXX  30004 82678 32795 01404 10320 20112 39962 40116 333 10384 29028 55103 59004;
0166826780999992005093012004-06767-043017FM-12+012799999V0200901N001512200019N0040001N1+03101+01661101681ADDGA1001+999999999GF100991001001999999001001KA1240N+02641MA1999999100131MD1999999+0121REMSYN070AAXX  30124 82678 32796 00903 10310 20166 30013 40168 333 20264 58012;
0137826780999992005093018004-06767-043017FM-12+012799999V0201401N001012200019N0040001N1+03761+01611101011ADDGF104991021021008001001011MA1999999099481MD1999999+0121REMSYN070AAXX  30184 82678 32596 41402 10376 20161 39948 40101 82201 333 58012;
0149826780999992005100100004-06767-043017FM-12+012799999V0209999C000012200019N0002001N1+03061+01471101221ADDGF100991001001999999001001MA1999999099671MD1999999+0051REMSYN082AAXX  01004 82678 32992 00000 10306 20147 39967 40122 333 10386 29036 55105 58005;
0137826780999992005100112004-06767-043017FM-12+012799999V0200901N001012200019N0040001N1+03241+01541101621ADDGF100991001001999999001001MA1999999100071MD1999999-0061REMSYN070AAXX  01124 82678 32996 00902 10324 20154 30007 40162 333 20242 59006;
0137826780999992005100118004-06767-043017FM-12+012799999V0201401N001510075019N0040001N1+03781+01561101061ADDGF105991051021008001001001MA1999999099511MD1999999+0031REMSYN070AAXX  01184 82678 32596 51403 10378 20156 39951 40106 85200 333 58003;
0149826780999992005100200004-06767-043017FM-12+012799999V0200901N000512200019N0002001N1+03281+01341101211ADDGF100991001001999999001001MA1999999099671MD1999999+0001REMSYN082AAXX  02004 82678 32992 00901 10328 20134 39967 40121 333 10391 29031 55103 58000;
0143826780999992005100212004-06767-043017FM-12+012799999V0202701N001012200019N0040001N1+02241+01861101531ADDGF101991011011008001001001MA1999999099991MD1999999-0081REMSYN076AAXX  02124 82678 32596 12702 10224 20186 39999 40153 81100 333 20260 59008;
0137826780999992005100218004-06767-043017FM-12+012799999V0200901N002610075019N0040001N1+03861+01501100871ADDGF105991051021008001001001MA1999999099361MD1999999-0151REMSYN070AAXX  02184 82678 32596 50905 10386 20150 39936 40087 85200 333 59015;
0149826780999992005100300004-06767-043017FM-12+012799999V0209999C000012200019N0002001N1+03181+01691101051ADDGF100991001001999999001001MA1999999099511MD1999999-0161REMSYN082AAXX  03004 82678 32992 00000 10318 20169 39951 40105 333 10395 29038 55108 59016;
0143826780999992005100312004-06767-043017FM-12+012799999V0203601N002112200019N0040001N1+03221+02011101381ADDGF103991031021008001001001MA1999999099841MD1999999-0051REMSYN076AAXX  03124 82678 32596 33604 10322 20201 39984 40138 83200 333 20269 59005;
0137826780999992005100318004-06767-043017FM-12+012799999V0200901N002110075019N0040001N1+03811+01571100781ADDGF105991051021008001001001MA1999999099251MD1999999-0111REMSYN070AAXX  03184 82678 32596 50904 10381 20157 39925 40078 85200 333 59011;
0155826780999992005100400004-06767-043017FM-12+012799999V0201401N000512200019N0002001N1+03261+01721100961ADDGF104991041041008001001001MA1999999099431MD1999999-0081REMSYN088AAXX  04004 82678 32592 41401 10326 20172 39943 40096 84400 333 10388 29039 55104 59008;
0143826780999992005100412004-06767-043017FM-12+012799999V0203601N001510120019N0040001N1+03071+01991101391ADDGF106991051081008001031001MA1999999099841MD1999999+0001REMSYN076AAXX  04124 82678 32596 63603 10307 20199 39984 40139 85830 333 20280 58000;
0137826780999992005100418004-06767-043017FM-12+012799999V0200501N002112200019N0040001N1+03801+01691100891ADDGF105991041021008001001011MA1999999099371MD1999999+0121REMSYN070AAXX  04184 82678 32596 50504 10380 20169 39937 40089 84201 333 58012;
0155826780999992005100500004-06767-043017FM-12+012799999V0201401N000512200019N0002001N1+03161+01671101101ADDGF102991021041008001001001MA1999999099551MD1999999+0121REMSYN088AAXX  05004 82678 32592 21401 10316 20167 39955 40110 82400 333 10388 29041 55104 58012;
0137826780999992005100512004-06767-043017FM-12+012799999V0203601N001512200019N0040001N1+03141+02001101471ADDGF100991001001999999001001MA1999999099921MD1999999+0081REMSYN070AAXX  05124 82678 32996 03603 10314 20200 39992 40147 333 20252 58008;
0137826780999992005100518004-06767-043017FM-12+012799999V0209999C000012200019N0040001N1+03701+02071100931ADDGF104991031021008001001011MA1999999099391MD1999999+0021REMSYN070AAXX  05184 82678 32596 40000 10370 20207 39939 40093 83201 333 58002;
0149826780999992005100600004-06767-043017FM-12+012799999V0201401N001512200019N0002001N1+03401+01541101131ADDGF100991001001999999001001MA1999999099591MD1999999+0041REMSYN082AAXX  06004 82678 32992 01403 10340 20154 39959 40113 333 10386 29039 55104 58004;
0137826780999992005100612004-06767-043017FM-12+012799999V0200901N004112200019N0040001N1+03281+01821101541ADDGF100991001001999999001001MA1999999100001MD1999999+0081REMSYN070AAXX  06124 82678 32996 00908 10328 20182 30000 40154 333 20252 58008;
0137826780999992005100618004-06767-043017FM-12+012799999V0200901N003612200019N0040001N1+03901+01411101051ADDGF104991031021008001001021MA1999999099511MD1999999+0121REMSYN070AAXX  06184 82678 32596 40907 10390 20141 39951 40105 83202 333 58012;
0155826780999992005100700004-06767-043017FM-12+012799999V0200901N002112200019N0002001N1+03381+01271101211ADDGF102991011011008001001011MA1999999099681MD1999999+0091REMSYN088AAXX  07004 82678 32592 20904 10338 20127 39968 40121 81101 333 10394 29030 55108 58009;
0143826780999992005100712004-06767-043017FM-12+012799999V0200901N003119999999N0040001N1+03181+01691101621ADDGF107991999041008001051001MA1999999100081MD1999999+0081REMSYN076AAXX  07124 82678 32596 70906 10318 20169 30008 40162 88450 333 20268 58008;
0137826780999992005100718004-06767-043017FM-12+012799999V0200901N002611050019N0040001N1+03741+01461101161ADDGF108991041011008001001021MA1999999099631MD1999999+0121REMSYN070AAXX  07184 82678 32596 80905 10374 20146 39963 40116 84102 333 58012;
0155826780999992005100800004-06767-043017FM-12+012799999V0200901N001511050019N0002001N1+03301+01211101341ADDGF107991041051008001001021MA1999999099801MD1999999+0121REMSYN088AAXX  08004 82678 32592 70903 10330 20121 39980 40134 84502 333 10380 29031 55087 58012;
0143826780999992005100812004-06767-043017FM-12+012799999V0200901N004112200019N0040001N1+03121+01951101701ADDGF103991031011008001001001MA1999999100151MD1999999+0071REMSYN076AAXX  08124 82678 32596 30908 10312 20195 30015 40170 83100 333 20264 58007;
0137826780999992005100818004-06767-043017FM-12+012799999V0200901N003110075019N0040001N1+03681+01691101191ADDGF105991051021008001001001MA1999999099651MD1999999+0021REMSYN070AAXX  08184 82678 32596 50906 10368 20169 39965 40119 85200 333 58002;
0155826780999992005100900004-06767-043017FM-12+012799999V0201401N000512200019N0002001N1+03121+01491101351ADDGF102991021001017501031001MA1999999099801MD1999999+0001REMSYN088AAXX  09004 82678 32792 21401 10312 20149 39980 40135 82030 333 10374 29038 55109 58000;
0143826780999992005100912004-06767-043017FM-12+012799999V0200901N003612200019N0040001N1+03161+01551101611ADDGF103991001001999999001011MA1999999100061MD1999999-0091REMSYN076AAXX  09124 82678 32996 30907 10316 20155 30006 40161 80001 333 20254 59009;
0137826780999992005100918004-06767-043017FM-12+012799999V0201801N002612200019N0040001N1+03861+01241101031ADDGF103991031011008001001001MA1999999099491MD1999999-0161REMSYN070AAXX  09184 82678 32596 31805 10386 20124 39949 40103 83100 333 59016;
0155826780999992005101000004-06767-043017FM-12+012799999V0209999C000019999999N0002001N1+03071+01471101181ADDGF105991999031999999081081MA1999999099631MD1999999-0171REMSYN088AAXX  10004 82678 32992 50000 10307 20147 39963 40118 80388 333 10388 29034 55106 59017;
0143826780999992005101012004-06767-043017FM-12+012799999V0200901N002619999999N0040001N1+03151+01581101441ADDGF105991001001999999001011MA1999999099891MD1999999-0171REMSYN076AAXX  10124 82678 32996 50905 10315 20158 39989 40144 80001 333 20267 59017;
0137826780999992005101018004-06767-043017FM-12+012799999V0201401N002610075019N0040001N1+03751+01521100891ADDGF106991051011008001001021MA1999999099351MD1999999-0141REMSYN070AAXX  10184 82678 32596 61405 10375 20152 39935 40089 85102 333 59014;
0149826780999992005101100004-06767-043017FM-12+012799999V0209999C000012200019N0002001N1+03121+01601101081ADDGF100991001001999999001001MA1999999099541MD1999999-0091REMSYN082AAXX  11004 82678 32992 00000 10312 20160 39954 40108 333 10383 29036 55109 59009;
0143826780999992005101112004-06767-043017FM-12+012799999V0200901N002612200019N0040001N1+03281+01621101381ADDGF103991021011008001001011MA1999999099841MD1999999-0051REMSYN076AAXX  11124 82678 32596 30905 10328 20162 39984 40138 82101 333 20272 59005;
0137826780999992005101118004-06767-043017FM-12+012799999V0201401N001512200019N0040001N1+03781+01921100931ADDGF104991031021008001001021MA1999999099391MD1999999+0041REMSYN070AAXX  11184 82678 32596 41403 10378 20192 39939 40093 83202 333 58004;
0149826780999992005101200004-06767-043017FM-12+012799999V0201401N001512200019N0002001N1+03261+01721101111ADDGF100991001001999999001001MA1999999099581MD1999999+0041REMSYN082AAXX  12004 82678 32992 01403 10326 20172 39958 40111 333 10384 29038 55102 58004;
0143826780999992005101212004-06767-043017FM-12+012799999V0200501N001510075019N0040001N1+02841+02071101641ADDGF108991051021008001001021MA1999999100081MD1999999+0241REMSYN076AAXX  12124 82678 32596 80503 10284 20207 30008 40164 85202 333 20262 58024;
0137826780999992005101218004-06767-043017FM-12+012799999V0201801N001012200019N0040001N1+03581+01931101021ADDGF104991021021008001001011MA1999999099481MD1999999+0091REMSYN070AAXX  12184 82678 32596 41802 10358 20193 39948 40102 82201 333 58009;
0149826780999992005101300004-06767-043017FM-12+012799999V0209999C000012200019N0002001N1+03001+01681101171ADDGF100991001001999999001001MA1999999099611MD1999999+0031REMSYN082AAXX  13004 82678 32992 00000 10300 20168 39961 40117 333 10364 29048 55073 58003;
0143826780999992005101312004-06767-043017FM-12+012799999V0203601N001012200019N0040001N1+03141+02041101501ADDGF106991041051008001001011MA1999999099941MD1999999-0141REMSYN076AAXX  13124 82678 32596 63602 10314 20204 39994 40150 84501 333 20250 59014;
0137826780999992005101318004-06767-043017FM-12+012799999V0201801N002610075019N0040001N1+03761+01651100951ADDGF106991051051008001001011MA1999999099411MD1999999-0071REMSYN070AAXX  13184 82678 32596 61805 10376 20165 39941 40095 85501 333 59007;
0155826780999992005101400004-06767-043017FM-12+012799999V0209999C000012200019N0002001N1+03101+01731101061ADDGF103991031021017501001001MA1999999099511MD1999999-0101REMSYN088AAXX  14004 82678 32792 30000 10310 20173 39951 40106 83200 333 10382 29042 55094 59010;
0143826780999992005101412004-06767-043017FM-12+012799999V0200901N001510075019N0040001N1+03161+01961101501ADDGF106991061021008001001001MA1999999099951MD1999999+0011REMSYN076AAXX  14124 82678 32596 60903 10316 20196 39995 40150 86200 333 20268 58001;
0137826780999992005101418004-06767-043017FM-12+012799999V0200901N001510075019N0040001N1+03761+01651100931ADDGF106991061021008001001001MA1999999099401MD1999999+0011REMSYN070AAXX  14184 82678 32596 60903 10376 20165 39940 40093 86200 333 58001;
0155826780999992005101500004-06767-043017FM-12+012799999V0209999C000012200019N0002001N1+03081+01641100981ADDGF102991021001017501031001MA1999999099441MD1999999-0071REMSYN088AAXX  15004 82678 32792 20000 10308 20164 39944 40098 82030 333 10388 29040 55103 59007;
0137826780999992005101512004-06767-043017FM-12+012799999V0200901N004112200019N0040001N1+03221+01521101371ADDGF100991001001999999001001MA1999999099821MD1999999-0131REMSYN070AAXX  15124 82678 32996 00908 10322 20152 39982 40137 333 20248 59013;
0137826780999992005101518004-06767-043017FM-12+012799999V0200901N003112200019N0040001N1+03901+01201100811ADDGF104991041011008001001001MA1999999099281MD1999999-0121REMSYN070AAXX  15184 82678 32596 40906 10390 20120 39928 40081 84100 333 59012;
0155826780999992005101600004-06767-043017FM-12+012799999V0201401N002112200019N0002001N1+03371+01091100941ADDGF101991011001017501031001MA1999999099411MD1999999-0031REMSYN088AAXX  16004 82678 32792 11404 10337 20109 39941 40094 81030 333 10398 29026 55108 59003;
0137826780999992005101612004-06767-043017FM-12+012799999V0200901N003112200019N0040001N1+03161+01511101391ADDGF100991001001999999001001MA1999999099851MD1999999+0031REMSYN070AAXX  16124 82678 32996 00906 10316 20151 39985 40139 333 20239 58003;
0137826780999992005101618004-06767-043017FM-12+012799999V0200901N002612200019N0040001N1+03841+01291100861ADDGF104991999021008001001001MA1999999099321MD1999999+0041REMSYN070AAXX  16184 82678 32596 40905 10384 20129 39932 40086 83200 333 58004;
0155826780999992005101700004-06767-043017FM-12+012799999V0201401N002619999999N0002001N1+03271+00941101051ADDGF105991001001999999001011MA1999999099511MD1999999+0101REMSYN088AAXX  17004 82678 32992 51405 10327 20094 39951 40105 80001 333 10394 29027 55111 58010;
0137826780999992005101712004-06767-043017FM-12+012799999V0200901N001512200019N0002001N1+03181+01691101351ADDGF100991001001999999001001MA1999999099811MD1999999-0041REMSYN070AAXX  17124 82678 32992 00903 10318 20169 39981 40135 333 20254 59004;
0137826780999992005101718004-06767-043017FM-12+012799999V0201401N001512200019N0040001N1+03861+01941100861ADDGF104991031021017501001011MA1999999099321MD1999999+0001REMSYN070AAXX  17184 82678 32796 41403 10386 20194 39932 40086 83201 333 58000;
0155826780999992005101800004-06770-043020FM-12+012799999V0209999C000010450019N0040001N1+03161+01551101021ADDGF105991031021008001031011MA1999999099481MD1999999-0031REMSYN088AAXX  18004 82678 32596 50000 10316 20155 39948 40102 83231 333 10394 29038 55106 59003;
0166826780999992005101812004-06767-043017FM-12+012799999V0200501N001512200019N0040001N1+03221+01911101431ADDGA1001+999999999GF100991001001999999001001KA1240N+02601MA1999999099881MD1999999+0071REMSYN070AAXX  18124 82678 32796 00503 10322 20191 39988 40143 333 20260 58007;
0156826780999992005101818004-06767-043017FM-12+012799999V0209999C000012200019N0040001N1+03821+01591100921ADDGF104991999021008001001001MA1999999099391MD1999999+0071REMSYN070AAXX  18184 82678 32596 40000 10382 20159 39939 40092 83200 333 58007;EQDQ01+000032SCOTLC
0168826780999992005101900004-06767-043017FM-12+012799999V0203601N001510075019N0002001N1+03421+01611101111ADDGF108991051021008001031999KA1240M+03961MA1999999099581MD1999999+0101REMSYN088AAXX  19004 82678 32592 83603 10342 20161 39958 40111 8523/ 333 10396 29035 55106 58010;
0166826780999992005101912004-06767-043017FM-12+012799999V0200501N001012200019N0040001N1+03101+02181101491ADDGA1001+999999999GF100991001001999999001001KA1240N+02761MA1999999099951MD1999999+0071REMSYN070AAXX  19124 82678 32996 00502 10310 20218 39995 40149 333 20276 58007;
0137826780999992005101918004-06767-043017FM-12+012799999V0200901N001010075019N0040001N1+03881+01641100911ADDGF105991051021008001001001MA1999999099391MD1999999+0001REMSYN070AAXX  19184 82678 32596 50902 10388 20164 39939 40091 85200 333 58000;
0168826780999992005102000004-06767-043017FM-12+012799999V0200901N000510075019N0002001N1+03561+01481101031ADDGF107991071051008001001001KA1240M+04001MA1999999099501MD1999999-0081REMSYN088AAXX  20004 82678 32592 70901 10356 20148 39950 40103 87500 333 10400 29036 55104 59008;
0156826780999992005102012004-06767-043017FM-12+012799999V0200901N001512200019N0040001N1+03341+01711101411ADDGF101991011011008001001001KA1240N+03101MA1999999099881MD1999999-0071REMSYN076AAXX  20124 82678 32596 10903 10334 20171 39988 40141 81100 333 20310 59007;
0147826780999992005102018004-06767-043017FM-12+012799999V0200501N003112200019N0040001N1+03821+01471100671ADDGA1001+999999999GF100991001001999999001001MA1999999099331MD1999999-0061REMSYN064AAXX  20184 82678 32996 00506 10382 20147 39933 40067 333 59006;
0178826780999992005102100004-06767-043017FM-12+012799999V0201401N001012200019N0002001N1+03301+01311101011ADDGA1001+999999999GF100991001001999999001001KA1240M+03881MA1999999099481MD1999999-0021REMSYN082AAXX  21004 82678 32992 01402 10330 20131 39948 40101 333 10388 29031 55109 59002;
0156826780999992005102112004-06767-043017FM-12+012799999V0200901N004112200019N0040001N1+03061+01551101511ADDGF104991001001999999001011KA1240N+02831MA1999999099961MD1999999+0081REMSYN076AAXX  21124 82678 32996 40908 10306 20155 39996 40151 80001 333 20283 58008;
0137826780999992005102118004-06767-043017FM-12+012799999V0200901N002611050019N0040001N1+03761+01361100861ADDGF105991031021008001001021MA1999999099331MD1999999+0001REMSYN070AAXX  21184 82678 32596 50905 10376 20136 39933 40086 83202 333 58000;
0168826780999992005102200004-06767-043017FM-12+012799999V0209999C000012200019N0002001N1+03021+01431101011ADDGF103991031001017501031001KA1240M+03781MA1999999099461MD1999999-0021REMSYN088AAXX  22004 82678 32792 30000 10302 20143 39946 40101 83030 333 10378 29035 55106 59002;
0156826780999992005102212004-06767-043017FM-12+012799999V0200901N003610450019N0040001N1+03281+01391101441ADDGF106991031021008001031011KA1240N+02921MA1999999099891MD1999999-0071REMSYN076AAXX  22124 82678 32596 60907 10328 20139 39989 40144 83231 333 20292 59007;
0156826780999992005102218004-06767-043017FM-12+012799999V0200501N002619999999N0040001N1+03741+01401100861ADDGF106991999021008001001001MA1999999099331MD1999999+0001REMSYN070AAXX  22184 82678 32596 60505 10374 20140 39933 40086 84200 333 58000;EQDQ01+000042SCOTLC
0178826780999992005102300004-06767-043017FM-12+012799999V0209999C000012200019N0002001N1+03081+01601101121ADDGA1001+999999999GF100991001001999999001001KA1240M+03841MA1999999099481MD1999999+0021REMSYN082AAXX  23004 82678 32992 00000 10308 20160 39948 40112 333 10384 29036 55095 58002;
0156826780999992005102312004-06767-043017FM-12+012799999V0203601N001512200019N0040001N1+03141+01941101471ADDGF103991021011008001001011KA1240N+02511MA1999999099921MD1999999+0031REMSYN076AAXX  23124 82678 32596 33603 10314 20194 39992 40147 82101 333 20251 58003;
0137826780999992005102318004-06767-043017FM-12+012799999V0200901N001512200019N0040001N1+03821+01701100811ADDGF105991031021008001001011MA1999999099271MD1999999-0061REMSYN070AAXX  23184 82678 32596 50903 10382 20170 39927 40081 83201 333 59006;
0168826780999992005102400004-06767-043017FM-12+012799999V0201401N001510150019N0002001N1+03241+01451101001ADDGF105991051001017501031001KA1240M+03941MA1999999099461MD1999999-0021REMSYN088AAXX  24004 82678 32792 51403 10324 20145 39946 40100 85030 333 10394 29026 55108 59002;
0156826780999992005102412004-06767-043017FM-12+012799999V0200501N001512200019N0040001N1+03101+02031101481ADDGF104991021011008001001021KA1240N+02841MA1999999099931MD1999999-0011REMSYN076AAXX  24124 82678 32596 40503 10310 20203 39993 40148 82102 333 20284 59001;
0137826780999992005102418004-06767-043017FM-12+012799999V0201801N001511050019N0040001N1+03861+01791100801ADDGF105991041021008001001021MA1999999099271MD1999999+0001REMSYN070AAXX  24184 82678 32596 51803 10386 20179 39927 40080 84202 333 58000;
0168826780999992005102500004-06767-043017FM-12+012799999V0209999C000012200019N0002001N1+03201+01551100951ADDGF104991041001017501031001KA1240M+03961MA1999999099411MD1999999-0051REMSYN088AAXX  25004 82678 32792 40000 10320 20155 39941 40095 84030 333 10396 29039 55104 59005;
0156826780999992005102512004-06767-043017FM-12+012799999V0202701N000512200019N0040001N1+03241+01711101421ADDGF101991011011008001001001KA1240N+02681MA1999999099871MD1999999-0061REMSYN076AAXX  25124 82678 32596 12701 10324 20171 39987 40142 81100 333 20268 59006;
0137826780999992005102518004-06767-043017FM-12+012799999V0201401N001512200019N0040001N1+03861+01571100811ADDGF103991031011008001001001MA1999999099291MD1999999+0021REMSYN070AAXX  25184 82678 32596 31403 10386 20157 39929 40081 83100 333 58002;
0178826780999992005102600004-06767-043017FM-12+012799999V0201401N001012200019N0002001N1+03341+01241100941ADDGA1001+999999999GF100991001001999999001001KA1240M+03981MA1999999099411MD1999999+0001REMSYN082AAXX  26004 82678 32992 01402 10334 20124 39941 40094 333 10398 29030 55111 58000;
0156826780999992005102612004-06767-043017FM-12+012799999V0202301N000512200019N0040001N1+03101+02061101431ADDGF101991011011008001001001KA1240N+02721MA1999999099881MD1999999+0011REMSYN076AAXX  26124 82678 32596 12301 10310 20206 39988 40143 81100 333 20272 58001;
0137826780999992005102618004-06767-043017FM-12+012799999V0203601N001510075019N0040001N1+03841+01671100881ADDGF105991051051008001001001MA1999999099351MD1999999+0061REMSYN070AAXX  26184 82678 32596 53603 10384 20167 39935 40088 85500 333 58006;
0178826780999992005102700004-06767-043017FM-12+012799999V0209999C000012200019N0002001N1+03121+01641100991ADDGA1001+999999999GF100991001001999999001001KA1240M+03901MA1999999099451MD1999999+0041REMSYN082AAXX  27004 82678 32992 00000 10312 20164 39945 40099 333 10390 29041 55102 58004;
0156826780999992005102712004-06767-043017FM-12+012799999V0203201N002610075019N0040001N1+02881+02131101531ADDGF108991051051008001011011KA1240N+02731MA1999999099971MD1999999+0091REMSYN076AAXX  27124 82678 32596 83205 10288 20213 39997 40153 85511 333 20273 58009;
0182826780999992005102718004-06767-043017FM-12+012799999V0203201N002110450019N0040001N1+03321+02231101021ADDAA106006191AY161061AY221061GF108991041021008001031011MA1999999099471MD1999999+0121MW1021REMSYN082AAXX  27184 82678 21596 83204 10332 20223 39947 40102 70262 84231 333 58012 60061;
0173826780999992005102812004-06767-043017FM-12+012799999V0200501N003110450019N0040001N1+02921+01921101451ADDAA124006191GF108991031051008001021011KA1240N+02521MA1999999099881MD1999999-0091REMSYN082AAXX  28124 82678 22596 80506 10292 20192 39988 40145 83521 333 20252 59009 60064;
0137826780999992005102818004-06767-043017FM-12+012799999V0203201N002110120019N0040001N1+03631+01641100871ADDGF108991051081008001011011MA1999999099331MD1999999-0141REMSYN070AAXX  28184 82678 32596 83204 10363 20164 39933 40087 85811 333 59014;
0178826780999992005102900004-06767-043017FM-12+012799999V0209999C000012200019N0002001N1+03021+01691101061ADDGA1001+999999999GF100991001001999999001001KA1240M+03711MA1999999099501MD1999999-0181REMSYN082AAXX  29004 82678 32992 00000 10302 20169 39950 40106 333 10371 29044 55091 59018;
0166826780999992005102912004-06767-043017FM-12+012799999V0203601N001512200019N0040001N1+03021+02131101461ADDGA1001+999999999GF100991001001999999001001KA1240N+02641MA1999999099901MD1999999+0021REMSYN070AAXX  29124 82678 32796 03603 10302 20213 39990 40146 333 20264 58002;
0137826780999992005102918004-06767-043017FM-12+012799999V0203601N001512200019N0040001N1+03881+02011100841ADDGF104991021021008001031011MA1999999099311MD1999999-0021REMSYN070AAXX  29184 82678 32596 43603 10388 20201 39931 40084 82231 333 59002;
0178826780999992005103000004-06767-043017FM-12+012799999V0209999C000012200019N0002001N1+03201+01821100951ADDGA1001+999999999GF100991001001999999001001KA1240M+03961MA1999999099411MD1999999-0091REMSYN082AAXX  30004 82678 32992 00000 10320 20182 39941 40095 333 10396 29045 55109 59009;
0156826780999992005103012004-06767-043017FM-12+012799999V0203601N001012200019N0040001N1+02981+02091101481ADDGF103991021011008001001011KA1240N+02581MA1999999099931MD1999999+0031REMSYN076AAXX  30124 82678 32596 33602 10298 20209 39993 40148 82101 333 20258 58003;
0137826780999992005103018004-06767-043017FM-12+012799999V0202701N001010075019N0040001N1+03761+01861100931ADDGF105991051011008001001001MA1999999099411MD1999999+0101REMSYN070AAXX  30184 82678 32596 52702 10376 20186 39941 40093 85100 333 58010;
0168826780999992005103100004-06767-043017FM-12+012799999V0209999C000012200019N0002001N1+03181+01841101141ADDGF103991031021017501001001KA1240M+03851MA1999999099591MD1999999+0181REMSYN088AAXX  31004 82678 32792 30000 10318 20184 39959 40114 83200 333 10385 29046 55106 58018;
0201826780999992005103112004-06767-043017FM-12+012799999V0202701N000510075019N0040001N1+02381+02281101711ADDAA124007991AY161061AY221061GF108991061051008001021999KA1240N+02381MA1999999100131MD1999999+0201MW1631REMSYN088AAXX  31124 82678 21596 82701 10238 20228 30013 40171 76362 8652/ 333 20238 58020 60084;
0182826780999992005103118004-06767-043017FM-12+012799999V0202301N001519999999N0040001N1+03181+02161101221ADDAA106999999AY161061AY221061GF107991031001008001031011MA1999999099671MD1999999+0261MW1021REMSYN082AAXX  31184 82678 21596 72303 10318 20216 39967 40122 70262 83031 333 58026 69921;
0178826780999992005110100004-06767-043017FM-12+012799999V0201801N001012200019N0002001N1+02681+02261101401ADDGA1001+999999999GF100991001001999999001001KA1240M+03231MA1999999099811MD1999999+0221REMSYN082AAXX  01004 82678 32992 01802 10268 20226 39981 40140 333 10323 29076 55103 58022;
0173826780999992005110112004-06767-043017FM-12+012799999V0200501N000510075019N0040001N1+02721+02241101681ADDAA124000021GF108991051051008001999999KA1240N+02381MA1999999100101MD1999999-0031REMSYN082AAXX  01124 82678 22596 80501 10272 20224 30010 40168 855// 333 20238 59003 69924;
0137826780999992005110118004-06767-043017FM-12+012799999V0203201N000510075019N0040001N1+03541+02011101121ADDGF106991061021008001001001MA1999999099561MD1999999-0111REMSYN070AAXX  01184 82678 32596 63201 10354 20201 39956 40112 86200 333 59011;
0178826780999992005110200004-06767-043017FM-12+012799999V0209999C000012200019N0002001N1+03161+02171101211ADDGA1001+999999999GF100991001001999999001001KA1240M+03711MA1999999099651MD1999999-0161REMSYN082AAXX  02004 82678 32992 00000 10316 20217 39965 40121 333 10371 29057 55080 59016;
0110826780999992005110212004-06767-043017FM-12+012799999V0200501N001519999999N0040001N1+02981+02011999999ADDGF105991999999008001999999REMSYN072AAXX  02124 82678 32596 50503 10298 20201 20270 30007 40163 59003 82232;
0168826780999992005110300004-06767-043017FM-12+012799999V0200501N001012200019N0002001N1+03161+01821101261ADDGF103991031041008001001001KA1240M+03841MA1999999099711MD1999999+0061REMSYN088AAXX  03004 82678 32592 30502 10316 20182 39971 40126 83400 333 10384 29044 55091 58006;
0175826780999992005110312004-06767-043017FM-12+012799999V0202701N001512200019N0040001N1+03111+02001101571ADDGF104991999011008001001001KA1240N+02731MA1999999100021MD1999999-0051REMSYN076AAXX  03124 82678 32596 42703 10311 20200 30002 40157 82100 333 20273 59005;EQDQ01+000022SCOTLC
0137826780999992005110318004-06767-043017FM-12+012799999V0200901N002110075019N0040001N1+03901+01411100941ADDGF105991051021008001001001MA1999999099421MD1999999-0091REMSYN070AAXX  03184 82678 32596 50904 10390 20141 39942 40094 85200 333 59009;
0158826780999992005110400004-06767-043017FM-12+012799999V0201401N001512200019N0002001N1+03361+01411101101ADDGF102991999999999999999999KA1240M+03961MA1999999099561REMSYN092AAXX  04004 82678 32992 21403 10336 20141 39956 40110 333 80002 333 10396 29034 55106 59015;
0166826780999992005110412004-06767-043017FM-12+012799999V0203601N003112200019N0040001N1+03301+01681101411ADDGA1001+999999999GF100991001001999999001001KA1240N+02941MA1999999099871MD1999999-0151REMSYN070AAXX  04124 82678 32796 03606 10330 20168 39987 40141 333 20294 59015;
0137826780999992005110418004-06767-043017FM-12+012799999V0203601N003612200019N0040001N1+03861+02041100821ADDGF104991031021008001001011MA1999999099301MD1999999-0121REMSYN070AAXX  04184 82678 32596 43607 10386 20204 39930 40082 83201 333 59012;
0178826780999992005110500004-06767-043017FM-12+012799999V0201401N001512200019N0002001N1+03301+01641101031ADDGA1001+999999999GF100991001001999999001001KA1240M+03861MA1999999099501MD1999999-0061REMSYN082AAXX  05004 82678 32992 01403 10330 20164 39950 40103 333 10386 29037 55105 59006;
0156826780999992005110512004-06767-043017FM-12+012799999V0200901N001512200019N0500001N1+03101+02091101411ADDGF104991021021008001001021KA1240N+02511MA1999999099861MD1999999-0011REMSYN076AAXX  05124 82678 32599 40903 10310 20209 39986 40141 82202 333 20251 59001;
0156826780999992005110518004-06767-043017FM-12+012799999V0200901N001519999999N0040001N1+03721+01771100811ADDGF105991999021008001001001MA1999999099271MD1999999-0031REMSYN070AAXX  05184 82678 32596 50903 10372 20177 39927 40081 83200 333 59003;EQDQ01+000032SCOTLC
0178826780999992005110600004-06767-043017FM-12+012799999V0209999C000012200019N0002001N1+03061+01621100951ADDGA1001+999999999GF100991001001999999001001KA1240M+03821MA1999999099411MD1999999-0071REMSYN082AAXX  06004 82678 32992 00000 10306 20162 39941 40095 333 10382 29043 55104 59007;
0156826780999992005110612004-06767-043017FM-12+012799999V0200901N001012200019N0040001N1+03081+01981101481ADDGF104991041011008001001001KA1240N+02621MA1999999099921MD1999999+0061REMSYN076AAXX  06124 82678 32596 40902 10308 20198 39992 40148 84100 333 20262 58006;
0137826780999992005110618004-06767-043017FM-12+012799999V0201401N001010075019N0040001N1+03721+01561100931ADDGF105991051021008001001001MA1999999099391MD1999999+0121REMSYN070AAXX  06184 82678 32596 51402 10372 20156 39939 40093 85200 333 58012;
0178826780999992005110700004-06767-043017FM-12+012799999V0209999C000012200019N0002001N1+03081+01681100981ADDGA1001+999999999GF100991001001999999001001KA1240M+03801MA1999999099441MD1999999+0031REMSYN082AAXX  07004 82678 32992 00000 10308 20168 39944 40098 333 10380 29042 55108 58003;
0137826780999992005110718004-06767-043017FM-12+012799999V0200901N001510075019N0040001N1+03821+01411100811ADDGF105991051021008001001001MA1999999099281MD1999999-0111REMSYN070AAXX  07184 82678 32596 50903 10382 20141 39928 40081 85200 333 59011;
0156826780999992005110812004-06767-043017FM-12+012799999V0200501N001519999999N0040001N1+03251+01671101331ADDGF106991001001999999001011KA1240N+02621MA1999999099791MD1999999+0031REMSYN076AAXX  08124 82678 32996 60503 10325 20167 39979 40133 80001 333 20262 58003;
0137826780999992005110818004-06767-043017FM-12+012799999V0200901N001010075019N0040001N1+03901+01411100801ADDGF106991061021008001001001MA1999999099271MD1999999-0011REMSYN070AAXX  08184 82678 32596 60902 10390 20141 39927 40080 86200 333 59001;
0168826780999992005110900004-06767-043017FM-12+012799999V0201801N000512200019N0002001N1+03071+01201100861ADDGF102991021011017501001001KA1240M+03971MA1999999099321MD1999999-0041REMSYN088AAXX  09004 82678 32792 21801 10307 20120 39932 40086 82100 333 10397 29032 55115 59004;
0156826780999992005110912004-06767-043017FM-12+012799999V0203601N001510450019N0040001N1+03161+01861101361ADDGF108991011021008001011011KA1240N+02561MA1999999099811MD1999999+0021REMSYN076AAXX  09124 82678 32596 83603 10316 20186 39981 40136 81211 333 20256 58002;
0156826780999992005110918004-06767-043017FM-12+012799999V0200501N001519999999N0040001N1+03921+01491100741ADDGF106991999021008001001001MA1999999099211MD1999999-0061REMSYN070AAXX  09184 82678 32596 60503 10392 20149 39921 40074 84200 333 59006;EQDQ01+000042SCOTLC
0168826780999992005111000004-06767-043017FM-12+012799999V0203201N001010075019N0002001N1+03461+01551100851ADDGF108991061041008001011011KA1240M+03981MA1999999099321MD1999999+0001REMSYN088AAXX  10004 82678 32592 83202 10346 20155 39932 40085 86411 333 10398 29034 55103 58000;
0156826780999992005111012004-06767-043017FM-12+012799999V0203601N001512200019N0040001N1+03221+02171101301ADDGF103991031021008001001001KA1240N+02881MA1999999099771MD1999999-0041REMSYN076AAXX  10124 82678 32596 33603 10322 20217 39977 40130 83200 333 20288 59004;
0156826780999992005111018004-06767-043017FM-12+012799999V0200901N001012200019N0040001N1+03821+01651100731ADDGF104991999021008001001001MA1999999099201MD1999999-0011REMSYN070AAXX  10184 82678 32596 40902 10382 20165 39920 40073 83200 333 59001;EQDQ01+000032SCOTLC
0168826780999992005111100004-06767-043017FM-12+012799999V0200501N003112200019N0002001N1+03321+01851100881ADDGF103991031001008001031001KA1240M+03941MA1999999099351MD1999999+0031REMSYN088AAXX  11004 82678 32592 30506 10332 20185 39935 40088 83030 333 10394 29042 55087 58003;
0156826780999992005111112004-06767-043017FM-12+012799999V0200501N001510450019N0040001N1+03041+02181101261ADDGF108991041011008001031011KA1240N+02761MA1999999099721MD1999999-0051REMSYN076AAXX  11124 82678 32596 80503 10304 20218 39972 40126 84131 333 20276 59005;
0137826780999992005111118004-06767-043017FM-12+012799999V0202301N003110075019N0040001N1+03401+02311100841ADDGF108991051021008001031999MA1999999099311MD1999999+0011REMSYN070AAXX  11184 82678 32596 82306 10340 20231 39931 40084 8523/ 333 58001;
0168826780999992005111200004-06767-043017FM-12+012799999V0202301N001512200019N0002001N1+02881+02131101011ADDGF104991031021008001001011KA1240M+03721MA1999999099451MD1999999+0101REMSYN088AAXX  12004 82678 32592 42303 10288 20213 39945 40101 83201 333 10372 29060 55054 58010;
0156826780999992005111212004-06767-043017FM-12+012799999V0203601N000510075019N0040001N1+02961+02151101231ADDGF107991061051008001001011KA1240N+02581MA1999999099671MD1999999-0051REMSYN076AAXX  12124 82678 32596 73601 10296 20215 39967 40123 86501 333 20258 59005;
0137826780999992005111218004-06767-043017FM-12+012799999V0203601N001510075019N0040001N1+03661+01911100741ADDGF107991051051008001001021MA1999999099201MD1999999-0111REMSYN070AAXX  12184 82678 32596 73603 10366 20191 39920 40074 85502 333 59011;
0168826780999992005111300004-06767-043017FM-12+012799999V0209999C000010150019N0002001N1+03201+01891100821ADDGF105991051011017501001001KA1240M+03721MA1999999099281MD1999999-0171REMSYN088AAXX  13004 82678 32792 50000 10320 20189 39928 40082 85100 333 10372 29048 55087 59017;
0156826780999992005111312004-06767-043017FM-12+012799999V0203601N001010075019N0040001N1+02901+02101101271ADDGF108991051051008001999999KA1240N+02781MA1999999099721MD1999999+0051REMSYN076AAXX  13124 82678 32596 83602 10290 20210 39972 40127 855// 333 20278 58005;
0137826780999992005111318004-06767-043017FM-12+012799999V0201401N003110075019N0040001N1+03241+02101100881ADDGF108991061051008001071999MA1999999099331MD1999999+0131REMSYN070AAXX  13184 82678 32596 81406 10324 20210 39933 40088 8657/ 333 58013;
0168826780999992005111400004-06767-043017FM-12+012799999V0203601N003110075019N0002001N1+02881+02161101071ADDGF108991051051008001999999KA1240M+03471MA1999999099511MD1999999+0231REMSYN088AAXX  14004 82678 32592 83606 10288 20216 39951 40107 855// 333 10347 29061 55013 58023;
0156826780999992005111412004-06767-043017FM-12+012799999V0200901N001510120019N0040001N1+02821+02101101311ADDGF108991051081008001031021KA1240N+02651MA1999999099741MD1999999+0021REMSYN076AAXX  14124 82678 32596 80903 10282 20210 39974 40131 85832 333 20265 58002;
0137826780999992005111418004-06767-043017FM-12+012799999V0200501N000510450019N0040001N1+03561+01911100791ADDGF108991041081008001031021MA1999999099251MD1999999-0081REMSYN070AAXX  14184 82678 32596 80501 10356 20191 39925 40079 84832 333 59008;
0168826780999992005111500004-06767-043017FM-12+012799999V0202701N000510075019N0002001N1+02801+02251101111ADDGF108991051051008001999999KA1240M+03601MA1999999099541MD1999999+0031REMSYN088AAXX  15004 82678 32592 82701 10280 20225 39954 40111 855// 333 10360 29062 55021 58003;
0156826780999992005111512004-06767-043017FM-12+012799999V0200901N002110450019N0040001N1+03001+02171101281ADDGF107991041081008001021011KA1240N+02521MA1999999099721MD1999999-0021REMSYN076AAXX  15124 82678 32596 70904 10300 20217 39972 40128 84821 333 20252 59002;
0182826780999992005111518004-06767-043017FM-12+012799999V0202301N003110450019N0040001N1+03281+02131100851ADDAA106001091AY161061AY221061GF108991041051008001021999MA1999999099291MD1999999+0041MW1021REMSYN082AAXX  15184 82678 21596 82306 10328 20213 39929 40085 70262 8452/ 333 58004 60011;
0168826780999992005111600004-06767-043017FM-12+012799999V0202301N001510075019N0002001N1+02841+02261101151ADDGF108991061051008001011999KA1240M+03351MA1999999099591MD1999999+0051REMSYN088AAXX  16004 82678 32592 82303 10284 20226 39959 40115 8651/ 333 10335 29064 55031 58005;
0173826780999992005111612004-06767-043017FM-12+012799999V0202701N001010075019N0040001N1+02801+02251101361ADDAA124001091GF108991061051008001011999KA1240N+02481MA1999999099791MD1999999+0071REMSYN082AAXX  16124 82678 22596 82702 10280 20225 39979 40136 8651/ 333 20248 58007 60014;
0137826780999992005111618004-06767-043017FM-12+012799999V0202701N001510075019N0040001N1+03441+02141100831ADDGF108991051021008001001021MA1999999099271MD1999999-0021REMSYN070AAXX  16184 82678 32596 82703 10344 20214 39927 40083 85202 333 59002;
0168826780999992005111700004-06767-043017FM-12+012799999V0209999C000012200019N0002001N1+02941+02111100921ADDGF104991041001017501031001KA1240M+03561MA1999999099361MD1999999-0231REMSYN088AAXX  17004 82678 32792 40000 10294 20211 39936 40092 84030 333 10356 29060 55010 59023;
0156826780999992005111712004-06767-043017FM-12+012799999V0200901N001512200019N0040001N1+03241+01931101261ADDGF104991021021008001001011KA1240N+02411MA1999999099711MD1999999-0081REMSYN076AAXX  17124 82678 32596 40903 10324 20193 39971 40126 82201 333 20241 59008;
0137826780999992005111718004-06767-043017FM-12+012799999V0200901N001511050019N0040001N1+03821+01811100601ADDGF105991031021008001001021MA1999999099061MD1999999-0211REMSYN070AAXX  17184 82678 32596 50903 10382 20181 39906 40060 83202 333 59021;
0168826780999992005111800004-06767-043017FM-12+012799999V0209999C000012200019N0002001N1+03321+01851100661ADDGF104991021021008001031011KA1240M+03871MA1999999099131MD1999999-0231REMSYN088AAXX  18004 82678 32592 40000 10332 20185 39913 40066 82231 333 10387 29040 55089 59023;
0156826780999992005111812004-06767-043017FM-12+012799999V0201401N003112200019N0040001N1+03301+01951101081ADDGF102991001001999999001011KA1240N+02821MA1999999099551MD1999999-0161REMSYN076AAXX  18124 82678 32996 21406 10330 20195 39955 40108 80001 333 20282 59016;
0137826780999992005111818004-06767-043017FM-12+012799999V0200501N001512200019N0040001N1+03961+01461100411ADDGF103991031011008001001001MA1999999099071MD1999999+0011REMSYN070AAXX  18184 82678 32596 30503 10396 20146 39907 40041 83100 333 58001;
0178826780999992005111900004-06767-043017FM-12+012799999V0209999C000012200019N0500001N1+03101+01371100741ADDGA1001+999999999GF100991001001999999001001KA1240M+04041MA1999999099211MD1999999+0081REMSYN082AAXX  19004 82678 32999 00000 10310 20137 39921 40074 333 10404 29034 55111 58008;
0156826780999992005111912004-06767-043017FM-12+012799999V0203601N000512200019N0040001N1+03161+02051101231ADDGF102991001001999999001011KA1240N+02381MA1999999099681MD1999999+0131REMSYN076AAXX  19124 82678 32996 23601 10316 20205 39968 40123 80001 333 20238 58013;
0137826780999992005111918004-06767-043017FM-12+012799999V0200901N003110075019N0040001N1+03981+01481100781ADDGF105991051021008001001001MA1999999099251MD1999999+0181REMSYN070AAXX  19184 82678 32596 50906 10398 20148 39925 40078 85200 333 58018;
0178826780999992005112000004-06767-043017FM-12+012799999V0209999C000012200019N0005001N1+03241+01211100921ADDGA1001+999999999GF100991001001999999001001KA1240M+04021MA1999999099381MD1999999+0171REMSYN082AAXX  20004 82678 32993 00000 10324 20121 39938 40092 333 10402 29033 55106 58017;
0156826780999992005112012004-06767-043017FM-12+012799999V0203601N004119999999N0040001N1+03341+01711101221ADDGF105991001001999999001011KA1240N+02581MA1999999099681MD1999999+0001REMSYN076AAXX  20124 82678 32996 53608 10334 20171 39968 40122 80001 333 20258 58000;
0137826780999992005112018004-06767-043017FM-12+012799999V0201401N003112200019N0040001N1+04091+01181100541ADDGF106991041021008001001011MA1999999099021MD1999999-0231REMSYN070AAXX  20184 82678 32596 61406 10409 20118 39902 40054 84201 333 59023;
0168826780999992005112100004-06767-043017FM-12+012799999V0209999C000012200019N0002001N1+03281+01491100691ADDGF103991001001999999001011KA1240M+04181MA1999999099161MD1999999-0221REMSYN088AAXX  21004 82678 32992 30000 10328 20149 39916 40069 80001 333 10418 29031 55099 59022;
0156826780999992005112112004-06767-043017FM-12+012799999V0200501N002112200019N0040001N1+03301+02021101111ADDGF104991031001017501031011KA1240N+02911MA1999999099581MD1999999-0101REMSYN076AAXX  21124 82678 32796 40504 10330 20202 39958 40111 83031 333 20291 59010;
0137826780999992005112118004-06767-043017FM-12+012799999V0200901N002610075019N0040001N1+03271+01571100521ADDGF105991051021008001001001MA1999999099011MD1999999-0011REMSYN070AAXX  21184 82678 32596 50905 10327 20157 39901 40052 85200 333 59001;
0168826780999992005112200004-06767-043017FM-12+012799999V0209999C000012200019N0002001N1+03291+01741100681ADDGF104991041041008001001001KA1240M+04001MA1999999099151MD1999999-0011REMSYN088AAXX  22004 82678 32592 40000 10329 20174 39915 40068 84400 333 10400 29032 55093 59001;
0166826780999992005112212004-06767-043017FM-12+012799999V0203601N001012200019N0040001N1+03321+02401101061ADDGA1001+999999999GF100991001001999999001001KA1240N+02801MA1999999099531MD1999999-0051REMSYN070AAXX  22124 82678 32796 03602 10332 20240 39953 40106 333 20280 59005;
0137826780999992005112218004-06767-043017FM-12+012799999V0200901N001512200019N0040001N1+03901+01981100521ADDGF105991031021008001001011MA1999999098991MD1999999-0021REMSYN070AAXX  22184 82678 32596 50903 10390 20198 39899 40052 83201 333 59002;
0178826780999992005112300004-06767-043017FM-12+012799999V0209999C000012200019N0002001N1+03461+01731100731ADDGA1001+999999999GF100991001001999999001001KA1240M+03941MA1999999099211MD1999999+0061REMSYN082AAXX  23004 82678 32992 00000 10346 20173 39921 40073 333 10394 29038 55102 58006;
0156826780999992005112312004-06767-043017FM-12+012799999V0202701N001510075019N0040001N1+03101+02271101311ADDGF108991051021008001031011KA1240N+02821MA1999999099771MD1999999+0241REMSYN076AAXX  23124 82678 32596 82703 10310 20227 39977 40131 85231 333 20282 58024;
0137826780999992005112318004-06767-043017FM-12+012799999V0209999C000012200019N0040001N1+03741+01891100661ADDGF105991031021008001001011MA1999999099141MD1999999+0151REMSYN070AAXX  23184 82678 32596 50000 10374 20189 39914 40066 83201 333 58015;
0168826780999992005112400004-06767-043017FM-12+012799999V0202301N003110150019N0002001N1+03181+02191100941ADDGF108991051051017501031999KA1240M+03861MA1999999099401MD1999999+0191REMSYN088AAXX  24004 82678 32792 82306 10318 20219 39940 40094 8553/ 333 10386 29051 55082 58019;
0201826780999992005112412004-06767-043017FM-12+012799999V0202301N001010450019N0040001N1+02821+02361101261ADDAA124006191AY161061AY221061GF106991031051008001031011KA1240N+02541MA1999999099701MD1999999-0071MW1021REMSYN088AAXX  24124 82678 21596 62302 10282 20236 39970 40126 70262 83531 333 20254 59007 60064;
0137826780999992005112418004-06767-043017FM-12+012799999V0202701N003110450019N0040001N1+03321+02201100951ADDGF107991031051008001071011MA1999999099401MD1999999+0261REMSYN070AAXX  24184 82678 32596 72706 10332 20220 39940 40095 83571 333 58026;
0168826780999992005112500004-06767-043017FM-12+012799999V0202301N001010075019N0040001N1+02801+02151101071ADDGF105991051051008001001001KA1240M+03461MA1999999099501MD1999999+0101REMSYN088AAXX  25004 82678 32596 52302 10280 20215 39950 40107 85500 333 10346 29066 55025 58010;
0156826780999992005112512004-06767-043017FM-12+012799999V0201401N002610075019N0040001N1+02581+02211101411ADDGF108991081051008001999999KA1240N+02541MA1999999099831MD1999999+0131REMSYN076AAXX  25124 82678 32596 81405 10258 20221 39983 40141 885// 333 20254 58013;
0137826780999992005112518004-06767-043017FM-12+012799999V0201401N001010450019N0040001N1+02981+02201101071ADDGF107991041051008001071011MA1999999099501MD1999999+0101REMSYN070AAXX  25184 82678 32596 71402 10298 20220 39950 40107 84571 333 58010;
0178826780999992005112600004-06767-043017FM-12+012799999V0209999C000012200019N0002001N1+02701+02171101181ADDGA1001+999999999GF100991001001999999001001KA1240M+03051MA1999999099601MD1999999+0101REMSYN082AAXX  26004 82678 32992 00000 10270 20217 39960 40118 333 10305 29072 55013 58010;
0192826780999992005112612004-06767-043017FM-12+012799999V0200501N002619999999N0040001N1+02921+02191101181ADDAA124000591GF105991999021008001001001KA1240N+02371MA1999999099611MD1999999-0221REMSYN082AAXX  26124 82678 22596 50505 10292 20219 39961 40118 83200 333 20237 59022 69954;EQDQ01+000032SCOTLC
0156826780999992005112618004-06767-043017FM-12+012799999V0203201N003119999999N0040001N1+03111+02061100681ADDGF108991999021008001001001MA1999999099121MD1999999-0381REMSYN070AAXX  26184 82678 32596 83206 10311 20206 39912 40068 84200 333 59038;EQDQ01+000042SCOTLC
0168826780999992005112700004-06767-043017FM-12+012799999V0202701N001010075019N0002001N1+02871+02281100921ADDGF106991061041008001001001KA1240M+03271MA1999999099361MD1999999-0241REMSYN088AAXX  27004 82678 32592 62702 10287 20228 39936 40092 86400 333 10327 29065 55042 59024;
0201826780999992005112712004-06767-043017FM-12+012799999V0200501N000510075019N0040001N1+02421+02281101321ADDAA124000391AY121061AY221061GF108991081051008001001001KA1240N+02411MA1999999099741MD1999999+0131MW1511REMSYN088AAXX  27124 82678 21596 80501 10242 20228 39974 40132 75122 88500 333 20241 58013 69934;
0154826780999992005112718004-06767-043017FM-12+012799999V0202701N001010075019N0040001N1+02761+02321100831ADDAA106000591GF108991051051008001021021MA1999999099261MD1999999+0141REMSYN076AAXX  27184 82678 22596 82702 10276 20232 39926 40083 85522 333 58014 69951;
0187826780999992005112800004-06767-043017FM-12+012799999V0202301N002110075019N0002001N1+02571+02291101011ADDGF108991999021008001001001KA1240M+02891MA1999999099431MD1999999+0071REMSYN088AAXX  28004 82678 32592 82304 10257 20229 39943 40101 85200 333 10289 29085 55000 58007;EQDQ01+000052SCOTLC
0201826780999992005112812004-06767-043017FM-12+012799999V0201401N001010075019N0040001N1+02301+02221101411ADDAA124018091AY161061AY221061GF108991081051008001999999KA1240N+02241MA1999999099821MD1999999+0081MW1611REMSYN088AAXX  28124 82678 21596 81402 10230 20222 39982 40141 76162 885// 333 20224 58008 60184;
0168826780999992005112900004-06767-043017FM-12+012799999V0209999C000010075019N0002001N1+02501+02311101171ADDGF108991081051008001999999KA1240M+02761MA1999999099581MD1999999+0151REMSYN088AAXX  29004 82678 32592 80000 10250 20231 39958 40117 885// 333 10276 29086 55000 58015;
0173826780999992005112912004-06767-043017FM-12+012799999V0200901N001510450019N0040001N1+02761+02231101331ADDAA124001091GF108991041021008001031011KA1240N+02301MA1999999099751MD1999999-0071REMSYN082AAXX  29124 82678 22596 80903 10276 20223 39975 40133 84231 333 20230 59007 60014;
0137826780999992005112918004-06767-043017FM-12+012799999V0200501N001010075019N0040001N1+03481+02041100861ADDGF108991051021008001001021MA1999999099311MD1999999-0131REMSYN070AAXX  29184 82678 32596 80502 10348 20204 39931 40086 85202 333 59013;
0168826780999992005113000004-06767-043017FM-12+012799999V0209999C000019999999N0002001N1+03021+02071101031ADDGF105991051001008001031001KA1240M+03601MA1999999099471MD1999999-0111REMSYN088AAXX  30004 82678 32592 50000 10302 20207 39947 40103 85030 333 10360 29058 55025 59011;
0156826780999992005113012004-06767-043017FM-12+012799999V0200501N001512200019N0040001N1+03101+02001101251ADDGF103991031011008001001001KA1240N+02501MA1999999099701MD1999999-0051REMSYN076AAXX  30124 82678 32596 30503 10310 20200 39970 40125 83100 333 20250 59005;
0156826780999992005113018004-06767-043017FM-12+012799999V0200901N001519999999N0040001N1+03621+01831100811ADDGF105991999021008001001001MA1999999099271MD1999999-0041REMSYN070AAXX  30184 82678 32596 50903 10362 20183 39927 40081 83200 333 59004;EQDQ01+000032SCOTLC
0178826780999992005120100004-06767-043017FM-12+012799999V0201401N001012200019N0002001N1+03161+01861100881ADDGA1001+999999999GF100991001001999999001001KA1240M+03741MA1999999099341MD1999999-0131REMSYN082AAXX  01004 82678 32992 01402 10316 20186 39934 40088 333 10374 29045 55102 59013;
0166826780999992005120112004-06767-043017FM-12+012799999V0200901N004112200019N0040001N1+03101+01971101231ADDGA1001+999999999GF100991001001999999001001KA1240N+02741MA1999999099681MD1999999-0021REMSYN070AAXX  01124 82678 32996 00908 10310 20197 39968 40123 333 20274 59002;
0137826780999992005120118004-06767-043017FM-12+012799999V0200901N003110075019N0040001N1+03701+01711100751ADDGF105991051021008001001001MA1999999099221MD1999999-0051REMSYN070AAXX  01184 82678 32596 50906 10370 20171 39922 40075 85200 333 59005;
0178826780999992005120200004-06767-043017FM-12+012799999V0201401N001012200019N0002001N1+03161+01751100841ADDGA1001+999999999GF100991001001999999001001KA1240M+03801MA1999999099301MD1999999-0041REMSYN082AAXX  02004 82678 32992 01402 10316 20175 39930 40084 333 10380 29042 55110 59004;
0156826780999992005120212004-06767-043017FM-12+012799999V0200501N004112200019N0040001N1+03221+01731101071ADDGF103991001001999999001011KA1240N+02491MA1999999099531MD1999999-0151REMSYN076AAXX  02124 82678 32996 30508 10322 20173 39953 40107 80001 333 20249 59015;
0137826780999992005120218004-06767-043017FM-12+012799999V0200901N001510450019N0040001N1+03721+01671100721ADDGF107991031021008001011011MA1999999099181MD1999999-0041REMSYN070AAXX  02184 82678 32596 70903 10372 20167 39918 40072 83211 333 59004;
0178826780999992005120300004-06767-043017FM-12+012799999V0201401N000512200019N0002001N1+03021+02041100771ADDGA1001+999999999GF100991001001999999001001KA1240M+03811MA1999999099231MD1999999-0071REMSYN082AAXX  03004 82678 32992 01401 10302 20204 39923 40077 333 10381 29046 55109 59007;
0156826780999992005120312004-06767-043017FM-12+012799999V0203201N002612200019N0040001N1+03041+02091101111ADDGF106991011001017501031011KA1240N+02741MA1999999099561MD1999999+0031REMSYN076AAXX  03124 82678 32796 63205 10304 20209 39956 40111 81031 333 20274 58003;
0201826780999992005120318004-06767-043017FM-12+012799999V0200901N000510450019N0040001N1+03071+02111100781ADDAA106000091AY161061AY221061GF106991021031008001021021MA1999999099231MD1999999+0051MW1021REMSYN082AAXX  03184 82678 21596 60901 10307 20211 39923 40078 70262 82322 333 58005 69911;EQDQ01  00002PRCP06
0168826780999992005120400004-06767-043017FM-12+012799999V0200501N000512200019N0002001N1+02821+02071100971ADDGF106991031001017501021011KA1240M+03641MA1999999099421MD1999999+0191REMSYN088AAXX  04004 82678 32792 60501 10282 20207 39942 40097 83021 333 10364 29060 55074 58019;
0192826780999992005120412004-06767-043017FM-12+012799999V0203201N001511050019N0040001N1+02841+02281101241ADDAA124000091GF108991041001017501031021KA1240N+02601MA1999999099671MD1999999+0111REMSYN082AAXX  04124 82678 22796 83203 10284 20228 39967 40124 84032 333 20260 58011 69914;EQDQ01  00002PRCP24
0168826780999992005120500004-06767-043017FM-12+012799999V0209999C000010150019N0002001N1+02741+02171101001ADDGF108991081051017501999999KA1240M+03391MA1999999099441MD1999999+0021REMSYN088AAXX  05004 82678 32792 80000 10274 20217 39944 40100 885// 333 10339 29066 55018 58002;
0201826780999992005120512004-06767-043017FM-12+012799999V0203201N001010075019N0040001N1+02461+02321101321ADDAA124003091AY161061AY211061GF108991081051008001999999KA1240N+02411MA1999999099741MD1999999+0071MW1611REMSYN088AAXX  05124 82678 21596 83202 10246 20232 39974 40132 76161 885// 333 20241 58007 60034;
0182826780999992005120518004-06767-043017FM-12+012799999V0203601N001010075019N0040001N1+02321+02191101141ADDAA106026991AY161061AY211061GF108991081051008001999999MA1999999099551MD1999999+0331MW1611REMSYN082AAXX  05184 82678 21596 83602 10232 20219 39955 40114 76161 885// 333 58033 60271;
0213826780999992005120600004-06767-043017FM-12+012799999V0209999C000010075019N0002001N1+02281+02201101091ADDAA106002091AY161061AY221061GF108991081051008001999999KA1240M+02791MA1999999099491MD1999999+0051MW1621REMSYN100AAXX  06004 82678 21592 80000 10228 20220 39949 40109 76262 885// 333 10279 29093 55000 58005 60021;
0173826780999992005120612004-06767-043017FM-12+012799999V0201801N000510075019N0040001N1+02401+02171101231ADDAA124029091GF108991081051008001999999KA1240N+02241MA1999999099631MD1999999-0111REMSYN082AAXX  06124 82678 22596 81801 10240 20217 39963 40123 885// 333 20224 59011 60294;
0137826780999992005120618004-06767-043017FM-12+012799999V0203601N001510075019N0040001N1+03161+02231100781ADDGF108991061051008001001021MA1999999099211MD1999999-0341REMSYN070AAXX  06184 82678 32596 83603 10316 20223 39921 40078 86502 333 59034;
0137826780999992005120718004-06767-043017FM-12+012799999V0200501N000510075019N0040001N1+02841+02311100851ADDGF108991061051008001071999MA1999999099281MD1999999+0071REMSYN070AAXX  07184 82678 32596 80501 10284 20231 39928 40085 8657/ 333 58007;
0168826780999992005120800004-06767-043017FM-12+012799999V0200901N001510075019N0002001N1+02501+02311101081ADDGF108991071051008001031999KA1240M+03051MA1999999099501MD1999999+0151REMSYN088AAXX  08004 82678 32592 80903 10250 20231 39950 40108 8753/ 333 10305 29081 55006 58015;
0156826780999992005120812004-06767-043017FM-12+012799999V0200501N001010450019N0040001N1+02661+02331101321ADDGF108991041051008001021999KA1240N+02421MA1999999099741MD1999999+0221REMSYN076AAXX  08124 82678 32596 80502 10266 20233 39974 40132 8452/ 333 20242 58022;
0156826780999992005120818004-06767-043017FM-12+012799999V0200501N001010075019N0040001N1+03301+02121100831ADDGF108991999031008001021011MA1999999099271MD1999999-0011REMSYN070AAXX  08184 82678 32596 80502 10330 20212 39927 40083 88321 333 59001;EQDQ01+000082SCOTLC
0168826780999992005120900004-06767-043017FM-12+012799999V0201801N000511050019N0002001N1+02861+02311101171ADDGF107991041001017501031021KA1240M+03421MA1999999099601MD1999999+0101REMSYN088AAXX  09004 82678 32792 71801 10286 20231 39960 40117 84032 333 10342 29069 55057 58010;
0201826780999992005120912004-06767-043017FM-12+012799999V0202701N000510075019N0040001N1+02541+02381101551ADDAA124003091AY161061AY221061GF108991081051008001999999KA1240N+02501MA1999999099971MD1999999+0231MW1021REMSYN088AAXX  09124 82678 21596 82701 10254 20238 39997 40155 70262 885// 333 20250 58023 60034;
0182826780999992005120918004-06767-043017FM-12+012799999V0201801N001010450019N0040001N1+02591+02271101161ADDAA106003091AY161061AY221061GF108991041051008001021001MA1999999099581MD1999999+0311MW1021REMSYN082AAXX  09184 82678 21596 81802 10259 20227 39958 40116 70262 84520 333 58031 60031;
0168826780999992005121000004-06767-043017FM-12+012799999V0202301N001010450019N0002001N1+02431+02301101331ADDGF107991021051008001051021KA1240M+03051MA1999999099741MD1999999+0141REMSYN088AAXX  10004 82678 32592 72302 10243 20230 39974 40133 82552 333 10305 29090 55000 58014;
0201826780999992005121012004-06767-043017FM-12+012799999V0200901N001510075019N0040001N1+02741+02321101391ADDAA124004191AY161061AY221061GF108991051021008001001031KA1240N+02341MA1999999099811MD1999999-0161MW1021REMSYN088AAXX  10124 82678 21596 80903 10274 20232 39981 40139 70262 85203 333 20234 59016 60044;
0137826780999992005121018004-06767-043017FM-12+012799999V0200901N001010075019N0040001N1+03341+01951100941ADDGF106991061021008001001001MA1999999099381MD1999999-0201REMSYN070AAXX  10184 82678 32596 60902 10334 20195 39938 40094 86200 333 59020;
0168826780999992005121100004-06767-043017FM-12+012799999V0209999C000012200019N0002001N1+02821+02421100951ADDGF103991031001017501031001KA1240M+03451MA1999999099391MD1999999-0351REMSYN088AAXX  11004 82678 32792 30000 10282 20242 39939 40095 83030 333 10345 29070 55084 59035;
0156826780999992005121112004-06767-043017FM-12+012799999V0203601N001010075019N0040001N1+02761+02341101141ADDGF107991071051008001001001KA1240N+02581MA1999999099571MD1999999-0241REMSYN076AAXX  11124 82678 32596 73602 10276 20234 39957 40114 87500 333 20258 59024;
0137826780999992005121118004-06767-043017FM-12+012799999V0200501N001511050019N0040001N1+03421+01981100761ADDGF106991041051008001001021MA1999999099211MD1999999-0171REMSYN070AAXX  11184 82678 32596 60503 10342 20198 39921 40076 84502 333 59017;
0168826780999992005121200004-06767-043017FM-12+012799999V0203601N001010075019N0002001N1+02821+02331100951ADDGF105991051051008001001001KA1240M+03491MA1999999099391MD1999999+0001REMSYN088AAXX  12004 82678 32592 53602 10282 20233 39939 40095 85500 333 10349 29068 55068 58000;
0156826780999992005121212004-06767-043017FM-12+012799999V0202301N001012200019N0040001N1+02761+02301101241ADDGF108991041051008001001011KA1240N+02501MA1999999099671MD1999999+0011REMSYN076AAXX  12124 82678 32596 82302 10276 20230 39967 40124 84501 333 20250 58001;
0137826780999992005121218004-06767-043017FM-12+012799999V0202701N000510075019N0040001N1+02981+02351100851ADDGF107991051051008001071001MA1999999099281MD1999999+0071REMSYN070AAXX  12184 82678 32596 72701 10298 20235 39928 40085 85570 333 58007;
0232826780999992005121300004-06767-043017FM-12+012799999V0202301N003110075019N0002001N1+02621+02311101031ADDAA106000091AY161061AY221061GF108991081051008001999999KA1240M+03351MA1999999099461MD1999999+0071MW1031REMSYN100AAXX  13004 82678 21592 82306 10262 20231 39946 40103 70362 885// 333 10335 29078 55040 58007 69911;EQDQ01  00002PRCP06
0192826780999992005121312004-06767-043017FM-12+012799999V0202701N000510075019N0040001N1+02601+02351101291ADDAA124000091GF108991051051008001071001KA1240N+02481MA1999999099711MD1999999+0041REMSYN082AAXX  13124 82678 22596 82701 10260 20235 39971 40129 85570 333 20248 58004 69914;EQDQ01  00002PRCP24
0137826780999992005121318004-06767-043017FM-12+012799999V0200901N001512200019N0040001N1+03381+01981100741ADDGF106991031021008001001011MA1999999099191MD1999999-0091REMSYN070AAXX  13184 82678 32596 60903 10338 20198 39919 40074 83201 333 59009;
0168826780999992005121400004-06767-043017FM-12+012799999V0201401N000510450019N0002001N1+02961+02181100931ADDGF108991021041008001021071KA1240M+03521MA1999999099371MD1999999-0091REMSYN088AAXX  14004 82678 32592 81401 10296 20218 39937 40093 82427 333 10352 29064 55059 59009;
0156826780999992005121412004-06767-043017FM-12+012799999V0203601N001510450019N0040001N1+03001+02221101171ADDGF107991031051008001031021KA1240N+02601MA1999999099621MD1999999-0091REMSYN076AAXX  14124 82678 32596 73603 10300 20222 39962 40117 83532 333 20260 59009;
0137826780999992005121418004-06767-043017FM-12+012799999V0201401N001011050019N0040001N1+03441+02001100771ADDGF105991021051008001021011MA1999999099231MD1999999+0041REMSYN070AAXX  14184 82678 32596 51402 10344 20200 39923 40077 82521 333 58004;
0168826780999992005121500004-06767-043017FM-12+012799999V0209999C000019999999N0002001N1+02811+02271100851ADDGF105991001001999999001021KA1240M+03511MA1999999099291MD1999999-0081REMSYN088AAXX  15004 82678 32992 50000 10281 20227 39929 40085 80002 333 10351 29063 55081 59008;
0137826780999992005121518004-06767-043017FM-12+012799999V0200501N000510150019N0040001N1+02981+02121100991ADDGF108991081001017501021999MA1999999099411MD1999999+0181REMSYN070AAXX  15184 82678 32796 80501 10298 20212 39941 40099 8802/ 333 58018;
0168826780999992005121600004-06767-043017FM-12+012799999V0201401N000512200019N0002001N1+02561+02291101071ADDGF108991041001017501021011KA1240M+03041MA1999999099481MD1999999+0191REMSYN088AAXX  16004 82678 32792 81401 10256 20229 39948 40107 84021 333 10304 29080 55007 58019;
0156826780999992005121612004-06767-043017FM-12+012799999V0200501N001512200019N0040001N1+02841+02121101271ADDGF104991021011008001001011KA1240N+02351MA1999999099691MD1999999+0001REMSYN076AAXX  16124 82678 32596 40503 10284 20212 39969 40127 82101 333 20235 58000;
0137826780999992005121618004-06767-043017FM-12+012799999V0209999C000012200019N0040001N1+03461+02091100851ADDGF103991011011008001001011MA1999999099291MD1999999-0121REMSYN070AAXX  16184 82678 32596 30000 10346 20209 39929 40085 81101 333 59012;
0178826780999992005121700004-06767-043017FM-12+012799999V0203201N001012200019N0002001N1+02861+02441100961ADDGA1001+999999999GF100991001001999999001001KA1240M+03551MA1999999099401MD1999999-0081REMSYN082AAXX  17004 82678 32992 03202 10286 20244 39940 40096 333 10355 29066 55089 59008;
0137826780999992005121718004-06767-043017FM-12+012799999V0201401N001012200019N0040001N1+03521+01911101011ADDGF103991021011008001001011MA1999999099471MD1999999+0181REMSYN070AAXX  17184 82678 32596 31402 10352 20191 39947 40101 82101 333 58018;
0178826780999992005121800004-06767-043017FM-12+012799999V0209999C000012200019N0002001N1+02901+01811101171ADDGA1001+999999999GF100991001001999999001001KA1240M+03641MA1999999099611MD1999999+0211REMSYN082AAXX  18004 82678 32992 00000 10290 20181 39961 40117 333 10364 29048 55106 58021;
0156826780999992005121812004-06767-043017FM-12+012799999V0200901N003112200019N0040001N1+03001+02001101361ADDGF104991001001999999001021KA1240N+02321MA1999999099801MD1999999-0071REMSYN076AAXX  18124 82678 32996 40906 10300 20200 39980 40136 80002 333 20232 59007;
0137826780999992005121818004-06767-043017FM-12+012799999V0200901N000510450019N0040001N1+03401+02071101011ADDGF108991041051008001071021MA1999999099451MD1999999-0021REMSYN070AAXX  18184 82678 32596 80901 10340 20207 39945 40101 84572 333 59002;
0178826780999992005121900004-06767-043017FM-12+012799999V0209999C000012200019N0002001N1+02921+02321101151ADDGA1001+999999999GF100991001001999999001001KA1240M+03601MA1999999099591MD1999999-0021REMSYN082AAXX  19004 82678 32992 00000 10292 20232 39959 40115 333 10360 29060 55085 59002;
0156826780999992005121912004-06767-043017FM-12+012799999V0200901N002612200019N0040001N1+02981+02041101391ADDGF102991011011008001001021KA1240N+02401MA1999999099831MD1999999+0031REMSYN076AAXX  19124 82678 32596 20905 10298 20204 39983 40139 81102 333 20240 58003;
0137826780999992005121918004-06767-043017FM-12+012799999V0200901N001010075019N0040001N1+03521+01911100941ADDGF105991051051008001001001MA1999999099391MD1999999-0061REMSYN070AAXX  19184 82678 32596 50902 10352 20191 39939 40094 85500 333 59006;
0178826780999992005122000004-06767-043017FM-12+012799999V0200901N000512200019N0002001N1+03041+01941101021ADDGA1001+999999999GF100991001001999999001001KA1240M+03641MA1999999099471MD1999999+0121REMSYN082AAXX  20004 82678 32992 00901 10304 20194 39947 40102 333 10364 29050 55102 58012;
0137826780999992005122018004-06767-043017FM-12+012799999V0201401N003612200019N0040001N1+03411+01961101051ADDGF104991031021008001001011MA1999999099491MD1999999+0101REMSYN070AAXX  20184 82678 32596 41407 10341 20196 39949 40105 83201 333 58010;
0178826780999992005122100004-06767-043017FM-12+012799999V0209999C000012200019N0002001N1+02801+02001101181ADDGA1001+999999999GF100991001001999999001001KA1240M+03481MA1999999099621MD1999999+0151REMSYN082AAXX  21004 82678 32992 00000 10280 20200 39962 40118 333 10348 29056 55100 58015;
0156826780999992005122112004-06767-043017FM-12+012799999V0200901N002112200019N0040001N1+02951+01911101501ADDGF103991021001017501011011KA1240N+02501MA1999999099931MD1999999+0081REMSYN076AAXX  21124 82678 32796 30904 10295 20191 39993 40150 82011 333 20250 58008;
0137826780999992005122118004-06767-043017FM-12+012799999V0200501N001010450019N0040001N1+03401+01931101071ADDGF108991041021008001011011MA1999999099511MD1999999+0021REMSYN070AAXX  21184 82678 32596 80502 10340 20193 39951 40107 84211 333 58002;
0178826780999992005122200004-06767-043017FM-12+012799999V0209999C000012200019N0002001N1+02901+02151101141ADDGA1001+999999999GF100991001001999999001001KA1240M+03551MA1999999099581MD1999999-0041REMSYN082AAXX  22004 82678 32992 00000 10290 20215 39958 40114 333 10355 29056 55094 59004;
0166826780999992005122212004-06767-043017FM-12+012799999V0209999C000012200019N0040001N1+02921+02221101461ADDGA1001+999999999GF100991001001999999001001KA1240N+02441MA1999999099891MD1999999-0041REMSYN070AAXX  22124 82678 32796 00000 10292 20222 39989 40146 333 20244 59004;
0137826780999992005122218004-06767-043017FM-12+012799999V0200501N001012200019N0040001N1+03621+01831101011ADDGF103991021021008001001011MA1999999099461MD1999999-0051REMSYN070AAXX  22184 82678 32596 30502 10362 20183 39946 40101 82201 333 59005;
0178826780999992005122300004-06767-043017FM-12+012799999V0209999C000012200019N0002001N1+02941+02001101161ADDGA1001+999999999GF100991001001999999001001KA1240M+03661MA1999999099601MD1999999+0021REMSYN082AAXX  23004 82678 32792 00000 10294 20200 39960 40116 333 10366 29054 55113 58002;
0156826780999992005122312004-06767-043017FM-12+012799999V0200901N001012200019N0040001N1+03101+02151101441ADDGF104991021011008001001011KA1240N+02521MA1999999099881MD1999999-0011REMSYN076AAXX  23124 82678 32596 40902 10310 20215 39988 40144 82101 333 20252 59001;
0137826780999992005122318004-06767-043017FM-12+012799999V0203201N001512200019N0040001N1+03401+02001100951ADDGF105991031021008001001011MA1999999099401MD1999999-0061REMSYN070AAXX  23184 82678 32596 53203 10340 20200 39940 40095 83201 333 59006;
0178826780999992005122400004-06767-043017FM-12+012799999V0209999C000012200019N0002001N1+02881+01971101011ADDGA1001+999999999GF100991001001999999001001KA1240M+03551MA1999999099461MD1999999-0141REMSYN082AAXX  24004 82678 32992 00000 10288 20197 39946 40101 333 10355 29054 55092 59014;
0156826780999992005122412004-06767-043017FM-12+012799999V0202301N001512200019N0040001N1+02981+01891101421ADDGF105991031021008001001011KA1240N+02481MA1999999099861MD1999999-0021REMSYN076AAXX  24124 82678 32596 52303 10298 20189 39986 40142 83201 333 20248 59002;
0137826780999992005122418004-06767-043017FM-12+012799999V0203601N001510450019N0040001N1+03281+02131101001ADDGF107991031051008001071021MA1999999099441MD1999999+0041REMSYN070AAXX  24184 82678 32596 73603 10328 20213 39944 40100 83572 333 58004;
0168826780999992005122500004-06767-043017FM-12+012799999V0209999C000011050019N0002001N1+02881+02131101091ADDGF106991041051008001001021KA1240M+03471MA1999999099531MD1999999+0071REMSYN088AAXX  25004 82678 32592 60000 10288 20213 39953 40109 84502 333 10347 29058 55067 58007;
0156826780999992005122512004-06767-043017FM-12+012799999V0202301N000510075019N0040001N1+02741+02211101461ADDGF108991081051008001999999KA1240N+02501MA1999999099891MD1999999+0031REMSYN076AAXX  25124 82678 32596 82301 10274 20221 39989 40146 885// 333 20250 58003;
0182826780999992005122518004-06767-043017FM-12+012799999V0202701N000510075019N0040001N1+02681+02371101151ADDAA106005191AY161061AY221061GF108991051051008001051021MA1999999099571MD1999999+0131MW1611REMSYN082AAXX  25184 82678 21596 82701 10268 20237 39957 40115 76162 85552 333 58013 60051;
0223826780999992005122600004-06767-043017FM-12+012799999V0202301N000512200019N0002001N1+02701+02431101211ADDAA106000021AY161061AY221061GA1001+999999999GF100991001001999999001001KA1240M+03351MA1999999099641MD1999999+0011MW1011REMSYN094AAXX  26004 82678 21992 02301 10270 20243 39964 40121 70162 333 10335 29082 55039 58001 69921;
0173826780999992005122612004-06767-043017FM-12+012799999V0203601N001510120019N0040001N1+02661+02391101441ADDAA124005191GF108991081081008001999999KA1240N+02501MA1999999099861MD1999999-0031REMSYN082AAXX  26124 82678 22596 83603 10266 20239 39986 40144 888// 333 20250 59003 60054;
0137826780999992005122618004-06767-043017FM-12+012799999V0200501N003110450019N0040001N1+03401+02461100901ADDGF106991031021008001011011MA1999999099351MD1999999-0221REMSYN070AAXX  26184 82678 32596 60506 10340 20246 39935 40090 83211 333 59022;
0168826780999992005122700004-06767-043017FM-12+012799999V0202301N001012200019N0040001N1+02901+02721101001ADDGF103991031041008001001001KA1240M+03471MA1999999099441MD1999999-0201REMSYN088AAXX  27004 82678 32596 32302 10290 20272 39944 40100 83400 333 10347 29081 55074 59020;
0220826780999992005122712004-06767-043017FM-12+012799999V0202301N000510075019N0040001N1+02561+02471101351ADDAA124004191AY121061AY221061GF108991999021008001001001KA1240N+02501MA1999999099781MD1999999-0081MW1601REMSYN088AAXX  27124 82678 21596 82301 10256 20247 39978 40135 76022 85200 333 20250 59008 60044;EQDQ01+000052SCOTLC
0201826780999992005122718004-06767-043017FM-12+012799999V0203201N002110075019N0040001N1+02461+02341100931ADDAA106024991AY161061AY261061GF108991999071008001001001MA1999999099351MD1999999+0001MW1021REMSYN082AAXX  27184 82678 21596 83204 10246 20234 39935 40093 70266 86700 333 58000 60251;EQDQ01+000062SCOTLC
0168826780999992005122800004-06767-043017FM-12+012799999V0202301N001510075019N0002001N1+02501+02361101061ADDGF108991081051008001999999KA1240M+02931MA1999999099481MD1999999+0081REMSYN088AAXX  28004 82678 32592 82303 10250 20236 39948 40106 885// 333 10293 29093 55000 58008;
0201826780999992005122812004-06767-043017FM-12+012799999V0201801N001010075019N0040001N1+02421+02351101421ADDAA124024991AY161061AY221061GF108991081051008001999999KA1240N+02341MA1999999099861MD1999999+0051MW1031REMSYN088AAXX  28124 82678 21596 81802 10242 20235 39986 40142 70362 885// 333 20234 58005 60254;
0182826780999992005122818004-06767-043017FM-12+012799999V0203601N001510075019N0040001N1+02401+02311101231ADDAA106020191AY161061AY211061GF108991081051008001999999MA1999999099641MD1999999+0291MW1611REMSYN082AAXX  28184 82678 21596 83603 10240 20231 39964 40123 76161 885// 333 58029 60201;
0213826780999992005122900004-06767-043017FM-12+012799999V0209999C000010075019N0002001N1+02361+02331101321ADDAA106005191AY161061AY221061GF108991081051008001999999KA1240M+02671MA1999999099721MD1999999+0241MW1031REMSYN100AAXX  29004 82678 21592 80000 10236 20233 39972 40132 70362 885// 333 10267 29097 55000 58024 60051;
0201826780999992005122912004-06767-043017FM-12+012799999V0209999C000010075019N0040001N1+02501+02471101381ADDAA124025991AY161061AY211061GF108991081051008001999999KA1240N+02321MA1999999099781MD1999999-0051MW1021REMSYN088AAXX  29124 82678 21596 80000 10250 20247 39978 40138 70261 885// 333 20232 59005 60264;
0137826780999992005122918004-06767-043017FM-12+012799999V0203201N001010450019N0040001N1+03021+02361100981ADDGF108991031051008001031001MA1999999099411MD1999999+0231REMSYN070AAXX  29184 82678 32596 83202 10302 20236 39941 40098 83530 333 58023;
0168826780999992005123000004-06767-043017FM-12+012799999V0201401N000512200019N0002001N1+02651+02501101141ADDGF103991031021017501001001KA1240M+03111MA1999999099561MD1999999-0161REMSYN088AAXX  30004 82678 32792 31401 10265 20250 39956 40114 83200 333 10311 29088 55017 59016;
0201826780999992005123012004-06767-043017FM-12+012799999V0201401N001010075019N0040001N1+02701+02391101311ADDAA124000391AY161061AY221061GF108991051051008001071021KA1240N+02521MA1999999099731MD1999999-0051MW1021REMSYN088AAXX  30124 82678 21596 81402 10270 20239 39973 40131 70262 85572 333 20252 59005 69934;
0156826780999992005123018004-06767-043017FM-12+012799999V0203601N000519999999N0040001N1+02901+02371101021ADDGF107991999051008001001001MA1999999099451MD1999999+0041REMSYN070AAXX  30184 82678 32596 73601 10290 20237 39945 40102 84500 333 58004;EQDQ01+000042SCOTLC
0175826780999992005123112004-06767-043017FM-12+012799999V0201401N001019999999N0040001N1+02721+02371101301ADDGF108991999021008001001001KA1240N+02421MA1999999099721MD1999999-0011REMSYN076AAXX  31124 82678 32596 81402 10272 20237 39972 40130 84200 333 20242 59001;EQDQ01+000042SCOTLC
0137826780999992005123118004-06767-043017FM-12+012799999V0200901N001510075019N0040001N1+03261+02331101001ADDGF108991061051008001031999MA1999999099441MD1999999-0011REMSYN070AAXX  31184 82678 32596 80903 10326 20233 39944 40100 8653/ 333 59001;
