0179827840999992005010100004-07317-039300FM-12+040999999V0201801N000512200019N0020001N1+02691+02201101161ADDAA106000091GF100991001001999999001001MA1999999096511MD1999999-0101REMSYN082AAXX  01004 82784 32595 01801 10269 20220 39651 40116 333 10334 29065 55078 59010;EQDQ01  00002PRCP06
0173827840999992005010112004-07317-039300FM-12+040999999V0200501N002110075019N0200001N1+02621+01961101421ADDAA106000091GF106991061021008001001001MA1999999096761MD1999999-0041REMSYN076AAXX  01124 82784 32598 60504 10262 20196 39676 40142 86200 333 20230 59004;EQDQ01  00002PRCP06
0167827840999992005010118004-07317-039300FM-12+040999999V0200901N002110075019N0200001N1+03381+01711100921ADDAA106000091GF106991061011008001001001MA1999999096311MD1999999-0081REMSYN070AAXX  01184 82784 32598 60904 10338 20171 39631 40092 86100 333 59008;EQDQ01  00002PRCP06
0179827840999992005010200004-07317-039300FM-12+040999999V0201801N000512200019N0020001N1+02671+01921101131ADDAA106000091GF100991001001999999001001MA1999999096491MD1999999-0021REMSYN082AAXX  02004 82784 32995 01801 10267 20192 39649 40113 333 10347 29058 55107 59002;EQDQ01  00002PRCP06
0173827840999992005010212004-07317-039300FM-12+040999999V0200901N002110075019N0200001N1+02581+01971101531ADDAA106000091GF107991071021008001001001MA1999999096861MD1999999+0101REMSYN076AAXX  02124 82784 32598 70904 10258 20197 39686 40153 87200 333 20208 58010;EQDQ01  00002PRCP06
0167827840999992005010218004-07317-039300FM-12+040999999V0201401N002110075019N0200001N1+03371+01791101031ADDAA106000091GF106991051011008001011001MA1999999096421MD1999999+0111REMSYN070AAXX  02184 82784 32598 61404 10337 20179 39642 40103 85110 333 58011;EQDQ01  00002PRCP06
0179827840999992005010300004-07317-039300FM-12+040999999V0209999C000012200019N0020001N1+02741+01811101201ADDAA106000091GF100991001001999999001001MA1999999096551MD1999999+0061REMSYN082AAXX  03004 82784 32995 00000 10274 20181 39655 40120 333 10353 29056 55087 58006;EQDQ01  00002PRCP06
0173827840999992005010312004-07317-039300FM-12+040999999V0201401N002610450019N0200001N1+02761+01861101531ADDAA106000091GF105991031021008001021001MA1999999096881MD1999999+0021REMSYN076AAXX  03124 82784 32598 51405 10276 20186 39688 40153 83220 333 20239 58002;EQDQ01  00002PRCP06
0167827840999992005010318004-07317-039300FM-12+040999999V0200901N002110075019N0200001N1+03211+01711101041ADDAA106000091GF107991051021008001001011MA1999999096421MD1999999+0001REMSYN070AAXX  03184 82784 32598 70904 10321 20171 39642 40104 85201 333 58000;EQDQ01  00002PRCP06
0185827840999992005010400004-07317-039300FM-12+040999999V0209999C000012200019N0020001N1+02761+02021101211ADDAA106000091GF103991031021008001001001MA1999999096571MD1999999+0021REMSYN088AAXX  04004 82784 32595 30000 10276 20202 39657 40121 83200 333 10348 29057 55095 58002;EQDQ01  00002PRCP06
0173827840999992005010412004-07317-039300FM-12+040999999V0200901N004612200019N0200001N1+02791+01781101401ADDAA106000091GF102991011011008001011001MA1999999096751MD1999999-0131REMSYN076AAXX  04124 82784 32598 20909 10279 20178 39675 40140 81110 333 20216 59013;EQDQ01  00002PRCP06
0167827840999992005010418004-07317-039300FM-12+040999999V0201401N003610075019N0200001N1+03371+01481100871ADDAA106000091GF105991051011008001001001MA1999999096271MD1999999-0151REMSYN070AAXX  04184 82784 32598 51407 10337 20148 39627 40087 85100 333 59015;EQDQ01  00002PRCP06
0179827840999992005010500004-07317-039300FM-12+040999999V0202701N000512200019N0020001N1+02741+01781101071ADDAA106000091GF100991001001999999001001MA1999999096441MD1999999-0131REMSYN082AAXX  05004 82784 32995 02701 10274 20178 39644 40107 333 10358 29050 55116 59013;EQDQ01  00002PRCP06
0177827840999992005010512004-07317-039300FM-12+040999999V0201401N002110450019N0200001N1+02781+01881101381ADDAY151061AY221061GF106991041021008001011001MA1999999096741MD1999999-0011MW1021REMSYN088AAXX  05124 82784 21598 61404 10278 20188 39674 40138 70252 84210 333 20230 59001 69964;
0167827840999992005010518004-07317-039300FM-12+040999999V0200501N004110075019N0200001N1+03361+01511100811ADDAA106000091GF106991051011008001011001MA1999999096211MD1999999-0061REMSYN070AAXX  05184 82784 32598 60508 10336 20151 39621 40081 85110 333 59006;EQDQ01  00002PRCP06
0185827840999992005010600004-07317-039300FM-12+040999999V0201801N000512200019N0020001N1+02731+01891101031ADDAA106000091GF102991021021008001001001MA1999999096401MD1999999-0041REMSYN088AAXX  06004 82784 32595 21801 10273 20189 39640 40103 82200 333 10359 29053 55102 59004;EQDQ01  00002PRCP06
0173827840999992005010612004-07317-039300FM-12+040999999V0200901N002112200019N0200001N1+02761+01861101311ADDAA106000091GF102991021021008001001001MA1999999096671MD1999999-0071REMSYN076AAXX  06124 82784 32598 20904 10276 20186 39667 40131 82200 333 20210 59007;EQDQ01  00002PRCP06
0167827840999992005010618004-07317-039300FM-12+040999999V0201801N003612200019N0200001N1+03461+01601100821ADDAA106000091GF104991041021008001001001MA1999999096221MD1999999+0011REMSYN070AAXX  06184 82784 32598 41807 10346 20160 39622 40082 84200 333 58001;EQDQ01  00002PRCP06
0179827840999992005010700004-07317-039300FM-12+040999999V0209999C000012200019N0020001N1+02691+01761101041ADDAA106000091GF100991001001999999001001MA1999999096411MD1999999+0011REMSYN082AAXX  07004 82784 32995 00000 10269 20176 39641 40104 333 10357 29051 55112 58001;EQDQ01  00002PRCP06
0167827840999992005010712004-07317-039300FM-12+040999999V0201801N002112200019N0200001N1+02841+01761101301ADDAA106000091GF100991001001999999001001MA1999999096661MD1999999-0011REMSYN070AAXX  07124 82784 32998 01804 10284 20176 39666 40130 333 20208 59001;EQDQ01  00002PRCP06
0167827840999992005010718004-07317-039300FM-12+040999999V0200901N002612200019N0200001N1+03551+01191100811ADDAA106000091GF102991021021008001001001MA1999999096211MD1999999-0011REMSYN070AAXX  07184 82784 32598 20905 10355 20119 39621 40081 82200 333 59001;EQDQ01  00002PRCP06
0185827840999992005010800004-07317-039300FM-12+040999999V0209999C000012200019N0200001N1+02681+01421101031ADDAA106000091GF101991011021008001001001MA1999999096401MD1999999-0011REMSYN088AAXX  08004 82784 32598 10000 10268 20142 39640 40103 81200 333 10367 29042 55112 59001;EQDQ01  00002PRCP06
0173827840999992005010812004-07317-039300FM-12+040999999V0200501N002110075019N0200001N1+02841+02011101251ADDAA106000091GF108991081021008001999999MA1999999096611MD1999999-0051REMSYN076AAXX  08124 82784 32598 80504 10284 20201 39661 40125 882// 333 20242 59005;EQDQ01  00002PRCP06
0167827840999992005010818004-07317-039300FM-12+040999999V0201401N003610075019N0200001N1+03521+01381100761ADDAA106000091GF105991051011008001001001MA1999999096171MD1999999-0041REMSYN070AAXX  08184 82784 32598 51407 10352 20138 39617 40076 85100 333 59004;EQDQ01  00002PRCP06
0185827840999992005010900004-07320-039300FM-12+040999999V0201801N001512200019N0020001N1+02981+01621100971ADDAA106000091GF101991011041008001001001MA1999999096361MD1999999-0041REMSYN088AAXX  09004 82784 32595 11803 10298 20162 39636 40097 81400 333 10366 29044 55108 59004;EQDQ01  00002PRCP06
0173827840999992005010912004-07320-039300FM-12+040999999V0200501N002110075019N0200001N1+02731+02051100901ADDAA106000091GF106991061021008001001001MA1999999096291MD1999999-0321REMSYN076AAXX  09124 82784 32598 60504 10273 20205 39629 40090 86200 333 20245 59032;EQDQ01  00002PRCP06
0167827840999992005010918004-07320-039300FM-12+040999999V0201401N001510075019N0200001N1+03461+01731100771ADDAA106000091GF106991051021008001001011MA1999999096181MD1999999+0011REMSYN070AAXX  09184 82784 32598 61403 10346 20173 39618 40077 85201 333 58001;EQDQ01  00002PRCP06
0185827840999992005011000004-07317-039300FM-12+040999999V0201401N000510075019N0020001N1+02921+01981100971ADDAA106000091GF106991061051008001001001MA1999999096351MD1999999-0011REMSYN088AAXX  10004 82784 32595 61401 10292 20198 39635 40097 86500 333 10357 29054 55091 59001;EQDQ01  00002PRCP06
0177827840999992005011012004-07317-039300FM-12+040999999V0200901N001510075019N0200001N1+02781+02061101201ADDAY151061AY221061GF107991071021008001001001MA1999999096571MD1999999+0281MW1021REMSYN088AAXX  10124 82784 21598 70903 10278 20206 39657 40120 70252 87200 333 20238 58028 69964;
0167827840999992005011018004-07317-039300FM-12+040999999V0200501N002110450019N0200001N1+03481+01361100691ADDAA106000091GF107991021021008001031001MA1999999096101MD1999999+0081REMSYN070AAXX  10184 82784 32598 70504 10348 20136 39610 40069 82230 333 58008;EQDQ01  00002PRCP06
0179827840999992005011100004-07317-039300FM-12+040999999V0200501N001512200019N0020001N1+02881+02001101061ADDAA106000091GF100991001001999999001001MA1999999096441MD1999999+0091REMSYN082AAXX  11004 82784 32995 00503 10288 20200 39644 40106 333 10369 29053 55060 58009;EQDQ01  00002PRCP06
0173827840999992005011112004-07317-039300FM-12+040999999V0200901N001510075019N0200001N1+02661+02091101311ADDAA106000091GF108991081021008001999999MA1999999096671MD1999999+0101REMSYN076AAXX  11124 82784 32598 80903 10266 20209 39667 40131 882// 333 20248 58010;EQDQ01  00002PRCP06
0167827840999992005011118004-07317-039300FM-12+040999999V0201401N002110075019N0200001N1+03361+01731100831ADDAA106000091GF107991051021008001011001MA1999999096241MD1999999+0141REMSYN070AAXX  11184 82784 32598 71404 10336 20173 39624 40083 85210 333 58014;EQDQ01  00002PRCP06
0179827840999992005011200004-07317-039300FM-12+040999999V0201801N001512200019N0020001N1+02821+01681101061ADDAA106000091GF100991001001999999001001MA1999999096431MD1999999-0011REMSYN082AAXX  12004 82784 32995 01803 10282 20168 39643 40106 333 10361 29052 55081 59001;EQDQ01  00002PRCP06
0173827840999992005011212004-07317-039300FM-12+040999999V0200901N002110075019N0200001N1+02631+01931101311ADDAA106000091GF107991071021008001001001MA1999999096661MD1999999-0011REMSYN076AAXX  12124 82784 32598 70904 10263 20193 39666 40131 87200 333 20248 59001;EQDQ01  00002PRCP06
0167827840999992005011218004-07317-039300FM-12+040999999V0200501N003110450019N0200001N1+03281+01661100811ADDAA106000091GF107991031011008001041011MA1999999096211MD1999999-0031REMSYN070AAXX  12184 82784 32598 70506 10328 20166 39621 40081 83141 333 59003;EQDQ01  00002PRCP06
0179827840999992005011300004-07317-039300FM-12+040999999V0200901N000512200019N0020001N1+02801+01601100951ADDAA106000091GF100991001001999999001001MA1999999096321MD1999999-0111REMSYN082AAXX  13004 82784 32995 00901 10280 20160 39632 40095 333 10312 29050 55086 59011;EQDQ01  00002PRCP06
0173827840999992005011312004-07317-039300FM-12+040999999V0203601N002610075019N0200001N1+02721+02001101191ADDAA106000091GF108991061051008001041999MA1999999096551MD1999999-0111REMSYN076AAXX  13124 82784 32598 83605 10272 20200 39655 40119 8654/ 333 20224 59011;EQDQ01  00002PRCP06
0167827840999992005011318004-07317-039300FM-12+040999999V0203601N001510075019N0200001N1+03321+01781100881ADDAA106000091GF108991071051008001031999MA1999999096271MD1999999+0061REMSYN070AAXX  13184 82784 32598 83603 10332 20178 39627 40088 8753/ 333 58006;EQDQ01  00002PRCP06
0185827840999992005011400004-07317-039300FM-12+040999999V0202301N002610075019N0020001N1+02861+01981101041ADDAA106000091GF108991081061008001999999MA1999999096421MD1999999+0101REMSYN088AAXX  14004 82784 32595 82305 10286 20198 39642 40104 886// 333 10336 29056 55024 58010;EQDQ01  00002PRCP06
0173827840999992005011412004-07317-039300FM-12+040999999V0200901N001510042019N0200001N1+02691+02111101221ADDAA106000091GF107991071051004501001001MA1999999096581MD1999999+0031REMSYN076AAXX  14124 82784 32498 70903 10269 20211 39658 40122 87500 333 20248 58003;EQDQ01  00002PRCP06
0167827840999992005011418004-07317-039300FM-12+040999999V0201401N002110075019N0200001N1+03291+01871100711ADDAA106000091GF106991051021008001051001MA1999999096111MD1999999-0161REMSYN070AAXX  14184 82784 32598 61404 10329 20187 39611 40071 85250 333 59016;EQDQ01  00002PRCP06
0185827840999992005011500004-07317-039300FM-12+040999999V0201801N002110075019N0020001N1+02261+02061100951ADDAA106000091GF107991071061008001001001MA1999999096331MD1999999-0091REMSYN088AAXX  15004 82784 32595 71804 10226 20206 39633 40095 87600 333 10343 29059 55050 59009;EQDQ01  00002PRCP06
0177827840999992005011512004-07317-039300FM-12+040999999V0202701N001010042019N0200001N1+02341+02221101801ADDAY161061AY221061GF108991081071004501999999MA1999999097121MD1999999+0541MW1021REMSYN088AAXX  15124 82784 21498 82702 10234 20222 39712 40180 70262 887// 333 20228 58054 60164;
0167827840999992005011518004-07317-039300FM-12+040999999V0202701N001510075019N0200001N1+03101+02091100762ADDAA106000091GF107991051021008001031011MA1999999096142MD1999999+0031REMSYN070AAXX  15184 82784 32598 72703 10310 20209 39614 40076 85231 333 58003;EQDQ01  00002PRCP06
0185827840999992005011600004-07317-039300FM-12+040999999V0201801N001010075019N0020001N1+02721+02321100971ADDAA106000091GF108991999021008001001001MA1999999096331MD1999999+0001REMSYN088AAXX  16004 82784 32595 81802 10272 20232 39633 40097 85200 333 10329 29076 55049 58000;EQDQ01  00002PRCP06
0173827840999992005011612004-07317-039300FM-12+040999999V0202701N001010075019N0200001N1+02601+02191101091ADDAA106000091GF108991999061008001021999MA1999999096451MD1999999-0671REMSYN076AAXX  16124 82784 32598 82702 10260 20219 39645 40109 8862/ 333 20238 59067;EQDQ01  00002PRCP06
0171827840999992005011618004-07317-039300FM-12+040999999V0202701N001010075019N0200001N1+02501+02251100811ADDAY191061AY261061GF108991999071008001021999MA1999999096161MD1999999+0021MW1021REMSYN082AAXX  16184 82784 21598 82702 10250 20225 39616 40081 70296 8872/ 333 58002 60251;
0189827840999992005011700004-07320-039300FM-12+040999999V0209999C000010075019N0200001N1+02401+02211100911ADDAY161061AY221061GF108991081061008001999999MA1999999096271MD1999999-0061MW1021REMSYN100AAXX  17004 82784 21598 80000 10240 20221 39627 40091 70262 886// 333 10273 29084 55000 59006 60091;
0177827840999992005011712004-07320-039300FM-12+040999999V0201801N001010042019N0200001N1+02361+02241101181ADDAY151061AY221061GF108991081061004501999999MA1999999096511MD1999999+0061MW1021REMSYN088AAXX  17124 82784 21498 81802 10236 20224 39651 40118 70252 886// 333 20224 58006 60344;
0167827840999992005011718004-07320-039300FM-12+040999999V0202701N001510075019N0200001N1+02921+02141100871ADDAA106000091GF107991071051008001001001MA1999999096241MD1999999+0081REMSYN070AAXX  17184 82784 32598 72703 10292 20214 39624 40087 87500 333 58008;EQDQ01  00002PRCP06
0185827840999992005011800004-07317-039300FM-12+040999999V0202701N000510075019N0020001N1+02591+02371101021ADDAA106000091GF108991081061008001999999MA1999999096361MD1999999+0091REMSYN088AAXX  18004 82784 32595 82701 10259 20237 39636 40102 886// 333 10299 29082 55007 58009;EQDQ01  00002PRCP06
0173827840999992005011812004-07317-039300FM-12+040999999V0200901N002110075019N0200001N1+02681+02041101111ADDAA106000091GF108991081021008001999999MA1999999096471MD1999999-0041REMSYN076AAXX  18124 82784 32598 80904 10268 20204 39647 40111 882// 333 20233 59004;EQDQ01  00002PRCP06
0167827840999992005011818004-07317-039300FM-12+040999999V0200901N002610450019N0200001N1+03341+01831100671ADDAA106000091GF105991031021008001031001MA1999999096061MD1999999-0181REMSYN070AAXX  18184 82784 32598 50905 10334 20183 39606 40067 83230 333 59018;EQDQ01  00002PRCP06
0185827840999992005011900004-07317-039300FM-12+040999999V0201801N001510120019N0020001N1+02801+02081100951ADDAA106000091GF105991051081008001001001MA1999999096331MD1999999-0031REMSYN088AAXX  19004 82784 32595 51803 10280 20208 39633 40095 85800 333 10343 29060 55086 59003;EQDQ01  00002PRCP06
0173827840999992005011912004-07317-039300FM-12+040999999V0200501N001510075019N0200001N1+02701+02241101101ADDAA106000091GF108991081021008001999999MA1999999096561MD1999999+0091REMSYN076AAXX  19124 82784 32598 80503 10270 20224 39656 40110 882// 333 20236 58009;EQDQ01  00002PRCP06
0167827840999992005011918004-07317-039300FM-12+040999999V0200901N003110075019N0200001N1+03221+01841100711ADDAA106000091GF107991071021008001001001MA1999999096111MD1999999+0051REMSYN070AAXX  19184 82784 32598 70906 10322 20184 39611 40071 87200 333 58005;EQDQ01  00002PRCP06
0177827840999992005012012004-07317-039300FM-12+040999999V0200501N001510075019N0200001N1+02571+02231101371ADDAY191061AY261061GF108991071021008001031999MA1999999096691MD1999999+0131MW1021REMSYN088AAXX  20124 82784 21598 80503 10257 20223 39669 40137 70296 8723/ 333 20214 58013 60654;
0167827840999992005012018004-07317-039300FM-12+040999999V0200501N002110450019N0200001N1+03241+01821100951ADDAA106000091GF105991021021008001031001MA1999999096321MD1999999+0211REMSYN070AAXX  20184 82784 32598 50504 10324 20182 39632 40095 82230 333 58021;EQDQ01  00002PRCP06
0185827840999992005012100004-07317-039300FM-12+040999999V0202701N001012200019N0020001N1+02581+02231101151ADDAA106000091GF103991011001017501021091MA1999999096501MD1999999-0151REMSYN088AAXX  21004 82784 32795 32702 10258 20223 39650 40115 81029 333 10336 29072 55090 59015;EQDQ01  00002PRCP06
0173827840999992005012112004-07317-039300FM-12+040999999V0200901N002110450019N0200001N1+02731+02051101451ADDAA106000091GF108991041011008001031001MA1999999096791MD1999999+0101REMSYN076AAXX  21124 82784 32598 80904 10273 20205 39679 40145 84130 333 20242 58010;EQDQ01  00002PRCP06
0167827840999992005012118004-07317-039300FM-12+040999999V0200501N003110450019N0200001N1+03401+01771100941ADDAA106000091GF107991041011008001011001MA1999999096331MD1999999-0011REMSYN070AAXX  21184 82784 32598 70506 10340 20177 39633 40094 84110 333 59001;EQDQ01  00002PRCP06
0185827840999992005012200004-07317-039300FM-12+040999999V0202701N001510450019N0020001N1+02841+02241101181ADDAA106000091GF106991041081008001031001MA1999999096551MD1999999+0051REMSYN088AAXX  22004 82784 32595 62703 10284 20224 39655 40118 84830 333 10344 29061 55098 58005;EQDQ01  00002PRCP06
0173827840999992005012212004-07317-039300FM-12+040999999V0200501N001010042019N0200001N1+02671+02221101411ADDAA106000091GF108991081051004501999999MA1999999096761MD1999999-0031REMSYN076AAXX  22124 82784 32498 80502 10267 20222 39676 40141 885// 333 20241 59003;EQDQ01  00002PRCP06
0167827840999992005012218004-07317-039300FM-12+040999999V0203601N001510075019N0200001N1+03341+01951100931ADDAA106000091GF107991051011008001011001MA1999999096321MD1999999-0011REMSYN070AAXX  22184 82784 32598 73603 10334 20195 39632 40093 85110 333 59001;EQDQ01  00002PRCP06
0185827840999992005012300004-07320-039300FM-12+040999999V0201801N000510120019N0020001N1+02861+02211101121ADDAA106000091GF106991061081008001001001MA1999999096491MD1999999-0061REMSYN088AAXX  23004 82784 32595 61801 10286 20221 39649 40112 86800 333 10345 29064 55077 59006;EQDQ01  00002PRCP06
0177827840999992005012312004-07320-039300FM-12+040999999V0202701N002110042019N0200001N1+02461+02151101431ADDAY161061AY251061GF108991081051004501999999MA1999999096771MD1999999+0011MW1021REMSYN088AAXX  23124 82784 21498 82704 10246 20215 39677 40143 70265 885// 333 20224 58001 60074;
0167827840999992005012318004-07320-039300FM-12+040999999V0202701N001010450019N0200001N1+02901+02171100981ADDAA106000091GF108991021031008001041999MA1999999096371MD1999999+0051REMSYN070AAXX  23184 82784 32598 82702 10290 20217 39637 40098 8234/ 333 58005;EQDQ01  00002PRCP06
0185827840999992005012400004-07320-039300FM-12+040999999V0209999C000010450019N0020001N1+02641+02391101231ADDAA106000091GF108991041071008001031999MA1999999096571MD1999999+0081REMSYN088AAXX  24004 82784 32595 80000 10264 20239 39657 40123 8473/ 333 10311 29080 55031 58008;EQDQ01  00002PRCP06
0173827840999992005012412004-07320-039300FM-12+040999999V0200901N002110042019N0200001N1+02561+02231101381ADDAA106000091GF108991051021004501041999MA1999999096721MD1999999-0051REMSYN076AAXX  24124 82784 32498 80904 10256 20223 39672 40138 8524/ 333 20238 59005;EQDQ01  00002PRCP06
0167827840999992005012418004-07320-039300FM-12+040999999V0200501N001510120019N0200001N1+02671+02371101021ADDAA106000091GF107991071081008001001001MA1999999096371MD1999999+0001REMSYN070AAXX  24184 82784 32598 70503 10267 20237 39637 40102 87800 333 58000;EQDQ01  00002PRCP06
0185827840999992005012500004-07317-039300FM-12+040999999V0209999C000012200019N0020001N1+02511+02401101191ADDAA106000091GF103991011041008001031001MA1999999096541MD1999999-0031REMSYN088AAXX  25004 82784 32595 30000 10251 20240 39654 40119 81430 333 10286 29088 55003 59003;EQDQ01  00002PRCP06
0173827840999992005012512004-07317-039300FM-12+040999999V0203601N001510075019N0200001N1+02551+02251101351ADDAA106000091GF107991071051008001001001MA1999999096691MD1999999-0031REMSYN076AAXX  25124 82784 32598 73603 10255 20225 39669 40135 87500 333 20230 59003;EQDQ01  00002PRCP06
0167827840999992005012518004-07317-039300FM-12+040999999V0203601N001510075019N0200001N1+03181+02061100771ADDAA106000091GF107991051021008001021011MA1999999096151MD1999999-0221REMSYN070AAXX  25184 82784 32598 73603 10318 20206 39615 40077 85221 333 59022;EQDQ01  00002PRCP06
0185827840999992005012600004-07317-039300FM-12+040999999V0200901N000510120019N0020001N1+02651+02251101251ADDAA106000091GF107991071081008001001001MA1999999096601MD1999999+0061REMSYN088AAXX  26004 82784 32595 70901 10265 20225 39660 40125 87800 333 10334 29073 55050 58006;EQDQ01  00002PRCP06
0177827840999992005012612004-07317-039300FM-12+040999999V0203601N002110075019N0200001N1+02521+02251101541ADDAY161061AY221061GF108991081071008001999999MA1999999096871MD1999999+0181MW1021REMSYN088AAXX  26124 82784 21598 83604 10252 20225 39687 40154 70262 887// 333 20240 58018 60074;
0167827840999992005012618004-07317-039300FM-12+040999999V0203601N002610450019N0200001N1+02961+01991101131ADDAA106000091GF108991031021008001031999MA1999999096491MD1999999+0341REMSYN070AAXX  26184 82784 32598 83605 10296 20199 39649 40113 8323/ 333 58034;EQDQ01  00002PRCP06
0185827840999992005012700004-07317-039300FM-12+040999999V0202701N001010150019N0020001N1+02481+02291101251ADDAA106000091GF105991051001017501021001MA1999999096591MD1999999-0011REMSYN088AAXX  27004 82784 32795 52702 10248 20229 39659 40125 85020 333 10302 29080 55047 59001;EQDQ01  00002PRCP06
0173827840999992005012712004-07317-039300FM-12+040999999V0200901N002110075019N0200001N1+02631+02121101491ADDAA106000091GF108991081021008001999999MA1999999096821MD1999999-0051REMSYN076AAXX  27124 82784 32598 80904 10263 20212 39682 40149 882// 333 20232 59005;EQDQ01  00002PRCP06
0167827840999992005012718004-07317-039300FM-12+040999999V0200901N001010450019N0200001N1+03201+01891100951ADDAA106000091GF106991041021008001031001MA1999999096331MD1999999-0161REMSYN070AAXX  27184 82784 32598 60902 10320 20189 39633 40095 84230 333 59016;EQDQ01  00002PRCP06
0185827840999992005012800004-07317-039300FM-12+040999999V0200901N000510075019N0020001N1+02761+02361101131ADDAA106000091GF108991081061008001999999MA1999999096491MD1999999-0101REMSYN088AAXX  28004 82784 32595 80901 10276 20236 39649 40113 886// 333 10337 29070 55098 59010;EQDQ01  00002PRCP06
0173827840999992005012812004-07317-039300FM-12+040999999V0203601N000510450019N0200001N1+02521+02171101531ADDAA106000091GF108991031041008001021999MA1999999096871MD1999999+0051REMSYN076AAXX  28124 82784 32598 83601 10252 20217 39687 40153 8342/ 333 20236 58005;EQDQ01  00002PRCP06
0167827840999992005012818004-07317-039300FM-12+040999999V0200501N001512200019N0200001N1+03221+01981100861ADDAA106000091GF104991041021008001001001MA1999999096251MD1999999-0081REMSYN070AAXX  28184 82784 32598 40503 10322 20198 39625 40086 84200 333 59008;EQDQ01  00002PRCP06
0185827840999992005012900004-07317-039300FM-12+040999999V0201801N000510075019N0020001N1+02761+02231100971ADDAA106000091GF107991071041008001001001MA1999999096341MD1999999-0151REMSYN088AAXX  29004 82784 32595 71801 10276 20223 39634 40097 87400 333 10334 29069 55066 59015;EQDQ01  00002PRCP06
0177827840999992005012912004-07317-039300FM-12+040999999V0200501N000519999999N0200001N1+02411+02191101161ADDAY191061AY261061GF108991999021008001001001MA1999999096511MD1999999-0361MW1021REMSYN088AAXX  29124 82784 21598 80501 10241 20219 39651 40116 70296 83200 333 20222 59036 60084;
0167827840999992005012918004-07317-039300FM-12+040999999V0200501N001510075019N0200001N1+02961+02021100821ADDAA106000091GF105991051021008001001001MA1999999096191MD1999999-0061REMSYN070AAXX  29184 82784 32598 50503 10296 20202 39619 40082 85200 333 59006;EQDQ01  00002PRCP06
0201827840999992005013000004-07320-039300FM-12+040999999V0209999C000019999999N0020001N1+02591+02351100941ADDAA106000091GF105991999021008001001001MA1999999096291MD1999999-0051REMSYN088AAXX  30004 82784 32595 50000 10259 20235 39629 40094 84200 333 10310 29079 55084 59005;EQDQ01+000042SCOTLCQ02  00002PRCP06
0177827840999992005013012004-07320-039300FM-12+040999999V0201401N000510042019N0200001N1+02321+02241101171ADDAY161061AY221061GF108991081071004501999999MA1999999096511MD1999999+0001MW1021REMSYN088AAXX  30124 82784 21498 81401 10232 20224 39651 40117 70262 887// 333 20223 58000 60084;
0167827840999992005013018004-07320-039300FM-12+040999999V0200901N000510075019N0200001N1+03011+02001100721ADDAA106000091GF106991061021008001001001MA1999999096101MD1999999-0091REMSYN070AAXX  30184 82784 32598 60901 10301 20200 39610 40072 86200 333 59009;EQDQ01  00002PRCP06
0208827840999992005013100004-07317-039300FM-12+040999999V0201801N000512200019N0200001N1+02501+02211100911ADDAA106000091GA1001+999999999GF100991001001999999001001KA1240M+03191MA1999999096251MD1999999-0041REMSYN082AAXX  31004 82784 32998 01801 10250 20221 39625 40091 333 10319 29080 55070 59004;EQDQ01  00002PRCP06
0186827840999992005013112004-07317-039300FM-12+040999999V0200901N002610075019N0200001N1+02581+02011101141ADDAA106000091GF106991061021008001001001KA1240N+02081MA1999999096491MD1999999-0021REMSYN076AAXX  31124 82784 32598 60905 10258 20201 39649 40114 86200 333 20208 59002;EQDQ01  00002PRCP06
0167827840999992005013118004-07317-039300FM-12+040999999V0201401N001512200019N0200001N1+03211+01931100721ADDAA106000091GF102991021021008001001001MA1999999096101MD1999999+0001REMSYN070AAXX  31184 82784 32598 21403 10321 20193 39610 40072 82200 333 58000;EQDQ01  00002PRCP06
0179827840999992005020100004-07317-039300FM-12+040999999V0209999C000012200019N0020001N1+02531+01981100911ADDAA106000091GF100991001001999999001001MA1999999096271MD1999999+0021REMSYN082AAXX  01004 82784 32995 00000 10253 20198 39627 40091 333 10331 29065 55110 58002;EQDQ01  00002PRCP06
0173827840999992005020112004-07317-039300FM-12+040999999V0200901N003112200019N0200001N1+02641+01931101201ADDAA106000091GF103991021011008001051001MA1999999096551MD1999999+0051REMSYN076AAXX  01124 82784 32598 30906 10264 20193 39655 40120 82150 333 20199 58005;EQDQ01  00002PRCP06
0167827840999992005020118004-07317-039300FM-12+040999999V0200501N002610075019N0200001N1+03161+01751100781ADDAA106000091GF107991051021008001051011MA1999999096151MD1999999+0051REMSYN070AAXX  01184 82784 32598 70505 10316 20175 39615 40078 85251 333 58005;EQDQ01  00002PRCP06
0185827840999992005020200004-07317-039300FM-12+040999999V0201401N002610120019N0020001N1+02661+01921100941ADDAA106000091GF106991061081008001001001MA1999999096311MD1999999+0041REMSYN088AAXX  02004 82784 32595 61405 10266 20192 39631 40094 86800 333 10328 29059 55108 58004;EQDQ01  00002PRCP06
0173827840999992005020212004-07317-039300FM-12+040999999V0200901N001010450019N0200001N1+02771+02181101021ADDAA106000091GF106991031011008001041011MA1999999096391MD1999999-0161REMSYN076AAXX  02124 82784 32598 60902 10277 20218 39639 40102 83141 333 20225 59016;EQDQ01  00002PRCP06
0195827840999992005020218004-07317-039300FM-12+040999999V0201401N002610075019N0200001N1+03161+02081100761ADDAA106000091AY191061AY221061GF107991051051008001001011MA1999999096141MD1999999-0011MW1151REMSYN076AAXX  02184 82784 31598 71405 10316 20208 39614 40076 71592 85501 333 59001;EQDQ01  00002PRCP06
0179827840999992005020300004-07317-039300FM-12+040999999V0201401N002112200019N0020001N1+02691+02011100851ADDAA106000091GF100991001001999999001001MA1999999096231MD1999999-0081REMSYN082AAXX  03004 82784 32995 01404 10269 20201 39623 40085 333 10332 29064 55103 59008;EQDQ01  00002PRCP06
0173827840999992005020312004-07317-039300FM-12+040999999V0200901N003110075019N0200001N1+02701+02011101231ADDAA106000091GF108991051021008001031011MA1999999096591MD1999999+0201REMSYN076AAXX  03124 82784 32598 80906 10270 20201 39659 40123 85231 333 20244 58020;EQDQ01  00002PRCP06
0167827840999992005020318004-07317-039300FM-12+040999999V0200901N003610075019N0200001N1+03191+01931100841ADDAA106000091GF107991071021008001001011MA1999999096231MD1999999-0091REMSYN070AAXX  03184 82784 32598 70907 10319 20193 39623 40084 87201 333 59009;EQDQ01  00002PRCP06
0179827840999992005020400004-07317-039300FM-12+040999999V0209999C000012200019N0020001N1+02591+02041101051ADDAA106000091GF100991001001999999001001MA1999999096411MD1999999+0181REMSYN082AAXX  04004 82784 32995 00000 10259 20204 39641 40105 333 10338 29084 55080 58018;EQDQ01  00002PRCP06
0173827840999992005020412004-07317-039300FM-12+040999999V0200501N001512200019N0200001N1+02751+01991101431ADDAA106000091GF103991011021008001021001MA1999999096771MD1999999+0181REMSYN076AAXX  04124 82784 32598 30503 10275 20199 39677 40143 81220 333 20239 58018;EQDQ01  00002PRCP06
0167827840999992005020418004-07317-039300FM-12+040999999V0201401N002612200019N0200001N1+03341+01581101001ADDAA106000091GF103991021021008001021001MA1999999096391MD1999999+0161REMSYN070AAXX  04184 82784 32598 31405 10334 20158 39639 40100 82220 333 58016;EQDQ01  00002PRCP06
0185827840999992005020500004-07317-039300FM-12+040999999V0209999C000012200019N0020001N1+02661+02111101251ADDAA106000091GF102991021001017501021001MA1999999096611MD1999999+0201REMSYN088AAXX  05004 82784 32795 20000 10266 20211 39661 40125 82020 333 10345 29060 55108 58020;EQDQ01  00002PRCP06
0173827840999992005020512004-07317-039300FM-12+040999999V0200901N002110120019N0200001N1+02641+02091101541ADDAA106000091GF107991071081008001001001MA1999999096881MD1999999+0111REMSYN076AAXX  05124 82784 32598 70904 10264 20209 39688 40154 87800 333 20243 58011;EQDQ01  00002PRCP06
0167827840999992005020518004-07317-039300FM-12+040999999V0201401N001510450019N0200001N1+03401+01931101021ADDAA106000091GF106991031021008001021001MA1999999096411MD1999999+0021REMSYN070AAXX  05184 82784 32598 61403 10340 20193 39641 40102 83220 333 58002;EQDQ01  00002PRCP06
0179827840999992005020600004-07320-039300FM-12+040999999V0209999C000012200019N0020001N1+02631+02051101221ADDAA106000091GF100991001001999999001001MA1999999096571MD1999999-0041REMSYN082AAXX  06004 82784 32995 00000 10263 20205 39657 40122 333 10351 29064 55087 59004;EQDQ01  00002PRCP06
0173827840999992005020612004-07320-039300FM-12+040999999V0200501N001010075019N0200001N1+02701+02131101411ADDAA106000091GF106991061021008001001001MA1999999096751MD1999999-0131REMSYN076AAXX  06124 82784 32598 60502 10270 20213 39675 40141 86200 333 20224 59013;EQDQ01  00002PRCP06
0183827840999992005020618004-07320-039300FM-12+040999999V0201401N002612200019N0200001N1+03401+01931100911ADDAA106000091GF104991999021008001001001MA1999999096291MD1999999-0121REMSYN070AAXX  06184 82784 32598 41405 10340 20193 39629 40091 83200 333 59012;EQDQ01+000032SCOTLCQ02  00002PRCP06
0179827840999992005020700004-07317-039300FM-12+040999999V0201401N000512200019N0020001N1+02751+01831100981ADDAA106000091GF100991001001999999001001MA1999999096351MD1999999-0221REMSYN082AAXX  07004 82784 32995 01401 10275 20183 39635 40098 333 10353 29057 55099 59022;EQDQ01  00002PRCP06
0173827840999992005020712004-07317-039300FM-12+040999999V0200901N002110075019N0200001N1+02751+02141101211ADDAA106000091GF106991061021008001001001MA1999999096571MD1999999-0181REMSYN076AAXX  07124 82784 32598 60904 10275 20214 39657 40121 86200 333 20238 59018;EQDQ01  00002PRCP06
0167827840999992005020718004-07317-039300FM-12+040999999V0201801N003112200019N0200001N1+03481+01611100771ADDAA106000091GF103991031021008001001001MA1999999096171MD1999999-0121REMSYN070AAXX  07184 82784 32598 31806 10348 20161 39617 40077 83200 333 59012;EQDQ01  00002PRCP06
0179827840999992005020800004-07317-039300FM-12+040999999V0201801N001512200019N0020001N1+02961+01681100881ADDAA106000091GF100991001001999999001001MA1999999096271MD1999999-0081REMSYN082AAXX  08004 82784 32995 01803 10296 20168 39627 40088 333 10358 29048 55102 59008;EQDQ01  00002PRCP06
0177827840999992005020812004-07317-039300FM-12+040999999V0201401N002110075019N0200001N1+02631+02121101171ADDAY161061AY211061GF107991051021008001031001MA1999999096541MD1999999-0031MW1021REMSYN088AAXX  08124 82784 21598 71404 10263 20212 39654 40117 70261 85230 333 20234 59003 60084;
0167827840999992005020818004-07317-039300FM-12+040999999V0201801N003110075019N0200001N1+03301+01911100771ADDAA106000091GF107991071021008001001001MA1999999096161MD1999999-0011REMSYN070AAXX  08184 82784 32598 71806 10330 20191 39616 40077 87200 333 59001;EQDQ01  00002PRCP06
0185827840999992005020900004-07317-039300FM-12+040999999V0209999C000012200019N0200001N1+02811+02251100991ADDAA106000091GF101991011021008001001001MA1999999096361MD1999999+0091REMSYN088AAXX  09004 82784 32598 10000 10281 20225 39636 40099 81200 333 10339 29066 55091 58009;EQDQ01  00002PRCP06
0177827840999992005020912004-07317-039300FM-12+040999999V0200901N002610042019N0200001N1+02551+02171101201ADDAY191061AY261061GF108991081021004501999999MA1999999096561MD1999999+0021MW1021REMSYN088AAXX  09124 82784 21498 80905 10255 20217 39656 40120 70296 882// 333 20228 58002 60344;
0167827840999992005020918004-07317-039300FM-12+040999999V0200901N002110075019N0200001N1+03181+01911100721ADDAA106000091GF106991061021008001001001MA1999999096101MD1999999-0061REMSYN070AAXX  09184 82784 32598 60904 10318 20191 39610 40072 86200 333 59006;EQDQ01  00002PRCP06
0185827840999992005021000004-07317-039300FM-12+040999999V0209999C000012200019N0020001N1+02741+02141100891ADDAA106000091GF102991021041008001001001MA1999999096261MD1999999-0101REMSYN088AAXX  10004 82784 32595 20000 10274 20214 39626 40089 82400 333 10337 29066 55083 59010;EQDQ01  00002PRCP06
0177827840999992005021012004-07317-039300FM-12+040999999V0201801N001510075019N0200001N1+02201+02131101171ADDAY151061AY221061GF108991081051008001999999MA1999999096511MD1999999-0051MW1151REMSYN088AAXX  10124 82784 21598 81803 10220 20213 39651 40117 71552 885// 333 20214 59005 60034;
0167827840999992005021018004-07317-039300FM-12+040999999V0203201N000510075019N0200001N1+02851+02221100851ADDAA106000091GF106991051031008001051001MA1999999096221MD1999999+0121REMSYN070AAXX  10184 82784 32598 63201 10285 20222 39622 40085 85350 333 58012;EQDQ01  00002PRCP06
0207827840999992005021100004-07317-039300FM-12+040999999V0209999C000012200019N0020001N1+02421+02231100981ADDAA106000091AY101061AY201061GF100991001001999999001001MA1999999096311MD1999999+0051MW1131REMSYN088AAXX  11004 82784 31995 00000 10242 20223 39631 40098 71300 333 10303 29086 55032 58005;EQDQ01  00002PRCP06
0177827840999992005021112004-07317-039300FM-12+040999999V0203601N001510075019N0200001N1+02561+02231101221ADDAY151061AY221061GF108991071051008001051999MA1999999096561MD1999999+0051MW1021REMSYN088AAXX  11124 82784 21598 83603 10256 20223 39656 40122 70252 8755/ 333 20215 58005 60014;
0167827840999992005021118004-07317-039300FM-12+040999999V0203601N001010075019N0200001N1+02581+02171100941ADDAA106000091GF107991061051008001011001MA1999999096291MD1999999+0071REMSYN070AAXX  11184 82784 32598 73602 10258 20217 39629 40094 86510 333 58007;EQDQ01  00002PRCP06
0213827840999992005021200004-07317-039300FM-12+040999999V0201401N001010075019N0200001N1+02361+02281101151ADDAA106000091AY121061AY221061GF108991081071008001999999MA1999999096491MD1999999+0181MW1131REMSYN094AAXX  12004 82784 31598 81402 10236 20228 39649 40115 71322 887// 333 10289 29088 55012 58018;EQDQ01  00002PRCP06
0177827840999992005021212004-07317-039300FM-12+040999999V0201401N000510075019N0200001N1+02321+02111101371ADDAY151061AY221061GF108991081071008001999999MA1999999096691MD1999999+0131MW1021REMSYN088AAXX  12124 82784 21598 81401 10232 20211 39669 40137 70252 887// 333 20220 58013 69944;
0167827840999992005021218004-07317-039300FM-12+040999999V0203201N002110075019N0200001N1+02891+02041101031ADDAA106000091GF108991081071008001999999MA1999999096371MD1999999+0081REMSYN070AAXX  12184 82784 32598 83204 10289 20204 39637 40103 887// 333 58008;EQDQ01  00002PRCP06
0185827840999992005021300004-07320-039300FM-12+040999999V0203601N001510075019N0020001N1+02521+02321101151ADDAA106000091GF106991061021008001999999MA1999999096531MD1999999-0011REMSYN088AAXX  13004 82784 32595 63603 10252 20232 39653 40115 862// 333 10305 29079 55038 59001;EQDQ01  00002PRCP06
0173827840999992005021312004-07320-039300FM-12+040999999V0200501N002110450019N0200001N1+02631+02101101371ADDAA106000091GF107991041021008001031001MA1999999096711MD1999999+0021REMSYN076AAXX  13124 82784 32598 70504 10263 20210 39671 40137 84230 333 20232 58002;EQDQ01  00002PRCP06
0199827840999992005021318004-07320-039300FM-12+040999999V0203201N999990450019N0200001N1+03121+01951100971ADDAA106000091GF107991041081008001031001MA1999999096311MD1999999-0061REMSYN070AAXX  13184 82784 32598 73274 10312 20195 39631 40097 84830 333 59006;EQDQ01+003803WOSPD Q02  00002PRCP06Q030003803WOSPD 
0185827840999992005021400004-07317-039300FM-12+040999999V0202701N001010075019N0020001N1+02691+02311101121ADDAA106000091GF107991071091008001001001MA1999999096481MD1999999+0001REMSYN088AAXX  14004 82784 32595 72702 10269 20231 39648 40112 87900 333 10319 29071 55049 58000;EQDQ01  00002PRCP06
0177827840999992005021412004-07317-039300FM-12+040999999V0200501N000510450019N0200001N1+02591+02311101241ADDAY121061AY221061GF106991041021008001031001MA1999999096591MD1999999-0121MW1211REMSYN088AAXX  14124 82784 21598 60501 10259 20231 39659 40124 72122 84230 333 20238 59012 60044;
0148827840999992005021418004-07317-039300FM-12+040999999V0201401N001510120019N0200001N1+03181+02251100711ADDAA106000021GF106991061081008001001001MA1999999096101MD1999999-0211REMSYN070AAXX  14184 82784 32598 61403 10318 20225 39610 40071 86800 333 59021;
0185827840999992005021500004-07317-039300FM-12+040999999V0209999C000010120019N0020001N1+02751+02321100941ADDAA106000091GF107991071081008001001001MA1999999096311MD1999999-0171REMSYN088AAXX  15004 82784 32595 70000 10275 20232 39631 40094 87800 333 10331 29074 55063 59017;EQDQ01  00002PRCP06
0177827840999992005021512004-07317-039300FM-12+040999999V0202701N000510120019N0200001N1+02481+02291101171ADDAY121061AY221061GF108991081081008001999999MA1999999096521MD1999999-0071MW1211REMSYN088AAXX  15124 82784 21598 82701 10248 20229 39652 40117 72122 888// 333 20226 59007 60114;
0148827840999992005021518004-07317-039300FM-12+040999999V0201801N000510450019N0200001N1+02951+02261100721ADDAA106000021GF106991031081008001021001MA1999999096091MD1999999-0011REMSYN070AAXX  15184 82784 32598 61801 10295 20226 39609 40072 83820 333 59001;
0185827840999992005021600004-07317-039300FM-12+040999999V0201401N001010120019N0020001N1+02471+02281101101ADDAA106000091GF108991081081008001999999MA1999999096441MD1999999+0131REMSYN088AAXX  16004 82784 32595 81402 10247 20228 39644 40110 888// 333 10305 29084 55018 58013;EQDQ01  00002PRCP06
0177827840999992005021612004-07317-039300FM-12+040999999V0201801N001010075019N0200001N1+02381+02071101171ADDAY161061AY221061GF108991081071008001999999MA1999999096501MD1999999-0021MW1201REMSYN088AAXX  16124 82784 21598 81802 10238 20207 39650 40117 72062 887// 333 20220 59002 60214;
0148827840999992005021618004-07317-039300FM-12+040999999V0203601N002110450019N0200001N1+02881+02081100731ADDAA106000021GF107991041041008001031091MA1999999096101MD1999999+0011REMSYN070AAXX  16184 82784 32598 73604 10288 20208 39610 40073 84439 333 58001;
0177827840999992005021712004-07317-039300FM-12+040999999V0200901N001510042019N0200001N1+02541+02291101351ADDAY161061AY221061GF108991081041004501999999MA1999999096681MD1999999+0181MW1021REMSYN088AAXX  17124 82784 21498 80903 10254 20229 39668 40135 70262 884// 333 20220 58018 60044;
0185827840999992005021800004-07317-039300FM-12+040999999V0203601N001010150019N0200001N1+02541+02311101121ADDAA106000091GF108991081001017501021999MA1999999096471MD1999999-0101REMSYN088AAXX  18004 82784 32798 83602 10254 20231 39647 40112 8802/ 333 10297 29084 55038 59010;EQDQ01  00002PRCP06
0149827840999992005021812004-07317-039300FM-12+040999999V0200901N002112200019N0200001N1+02671+01971101431ADDGF101991011011008001001001MA1999999096771MD1999999+0091REMSYN082AAXX  18124 82784 22598 10904 10267 20197 39677 40143 81100 333 20222 58009 60124;
0167827840999992005021818004-07317-039300FM-12+040999999V0200901N002112200019N0200001N1+03151+02051100981ADDAA106000091GF102991021021008001001001MA1999999096351MD1999999-0091REMSYN070AAXX  18184 82784 32598 20904 10315 20205 39635 40098 82200 333 59009;EQDQ01  00002PRCP06
0185827840999992005021900004-07317-039300FM-12+040999999V0201801N002110075019N0200001N1+02761+02301101311ADDAA106000091GF108991081041008001999999MA1999999096661MD1999999+0191REMSYN088AAXX  19004 82784 32598 81804 10276 20230 39666 40131 884// 333 10324 29068 55111 58019;EQDQ01  00002PRCP06
0173827840999992005021912004-07317-039300FM-12+040999999V0201401N002619999999N0200001N1+02701+02031101401ADDAA106000091GF108991081001017501001011MA1999999096751MD1999999-0021REMSYN076AAXX  19124 82784 32798 81405 10270 20203 39675 40140 88001 333 20220 59002;EQDQ01  00002PRCP06
0167827840999992005021918004-07317-039300FM-12+040999999V0201401N003110450019N0200001N1+03121+01991100971ADDAA106000091GF107991031021008001041011MA1999999096341MD1999999-0011REMSYN070AAXX  19184 82784 32598 71406 10312 20199 39634 40097 83241 333 59001;EQDQ01  00002PRCP06
0173827840999992005022012004-07320-039300FM-12+040999999V0200901N001012200019N0200001N1+02721+02051101291ADDAA106000091GF108991041011008001001011MA1999999096641MD1999999-0111REMSYN076AAXX  20124 82784 32598 80902 10272 20205 39664 40129 84101 333 20224 59011;EQDQ01  00002PRCP06
0167827840999992005022018004-07320-039300FM-12+040999999V0201801N001510075019N0200001N1+03241+02001100841ADDAA106000091GF107991051021008001051011MA1999999096221MD1999999-0121REMSYN070AAXX  20184 82784 32598 71803 10324 20200 39622 40084 85251 333 59012;EQDQ01  00002PRCP06
0179827840999992005022100004-07317-039300FM-12+040999999V0209999C000012200019N0020001N1+02681+02161100991ADDAA106000091GF100991001001999999001001MA1999999096351MD1999999-0211REMSYN082AAXX  21004 82784 32995 00000 10268 20216 39635 40099 333 10345 29065 55111 59021;EQDQ01  00002PRCP06
0173827840999992005022112004-07317-039300FM-12+040999999V0203601N002110075019N0200001N1+02661+02241101111ADDAA106000091GF106991061021008001001001MA1999999096471MD1999999-0171REMSYN076AAXX  21124 82784 32598 63604 10266 20224 39647 40111 86200 333 20224 59017;EQDQ01  00002PRCP06
0167827840999992005022118004-07317-039300FM-12+040999999V0203601N001510450019N0200001N1+03221+02051100751ADDAA106000091GF107991041011008001051001MA1999999096131MD1999999-0091REMSYN070AAXX  21184 82784 32598 73603 10322 20205 39613 40075 84150 333 59009;EQDQ01  00002PRCP06
0213827840999992005022200004-07317-039300FM-12+040999999V0201801N000519999999N0020001N1+02641+02201101001ADDAA106000091AY121061AY221061GF106991061001012501031001MA1999999096361MD1999999+0011MW1131REMSYN094AAXX  22004 82784 31695 61801 10264 20220 39636 40100 71322 86030 333 10341 29070 55096 58001;EQDQ01  00002PRCP06
0173827840999992005022212004-07317-039300FM-12+040999999V0209999C000010075019N0200001N1+02431+02201101361ADDAA106000091GF108991081061008001999999MA1999999096701MD1999999+0231REMSYN076AAXX  22124 82784 32598 80000 10243 20220 39670 40136 886// 333 20222 58023;EQDQ01  00002PRCP06
0167827840999992005022218004-07317-039300FM-12+040999999V0200501N001010450019N0200001N1+03061+02171100921ADDAA106000091GF106991041021008001031001MA1999999096291MD1999999+0161REMSYN070AAXX  22184 82784 32598 60502 10306 20217 39629 40092 84230 333 58016;EQDQ01  00002PRCP06
0185827840999992005022300004-07317-039300FM-12+040999999V0202701N001010450019N0020001N1+02781+02211101281ADDAA106000091GF106991041081008001031001MA1999999096631MD1999999+0271REMSYN088AAXX  23004 82784 32595 62702 10278 20221 39663 40128 84830 333 10319 29071 55058 58027;EQDQ01  00002PRCP06
0173827840999992005022312004-07317-039300FM-12+040999999V0200901N001510120019N0200001N1+02761+02191101451ADDAA106000091GF107991061081008001031001MA1999999096791MD1999999+0091REMSYN076AAXX  23124 82784 32598 70903 10276 20219 39679 40145 86830 333 20235 58009;EQDQ01  00002PRCP06
0167827840999992005022318004-07317-039300FM-12+040999999V0201401N001010450019N0200001N1+03171+02281100981ADDAA106000091GF105991041021008001021001MA1999999096351MD1999999+0061REMSYN070AAXX  23184 82784 32598 51402 10317 20228 39635 40098 84220 333 58006;EQDQ01  00002PRCP06
0185827840999992005022400004-07317-039300FM-12+040999999V0209999C000010450019N0020001N1+02601+02351101261ADDAA106000091GF106991041061008001031001MA1999999096621MD1999999-0011REMSYN088AAXX  24004 82784 32595 60000 10260 20235 39662 40126 84630 333 10327 29076 55040 59001;EQDQ01  00002PRCP06
0173827840999992005022412004-07317-039300FM-12+040999999V0200901N001510450019N0200001N1+02661+02351101531ADDAA106000091GF105991021021008001021001MA1999999096861MD1999999+0071REMSYN076AAXX  24124 82784 32598 50903 10266 20235 39686 40153 82220 333 20238 58007;EQDQ01  00002PRCP06
0167827840999992005022418004-07317-039300FM-12+040999999V0203201N001010120019N0200001N1+03171+02281101031ADDAA106000091GF107991051081008001021001MA1999999096411MD1999999+0061REMSYN070AAXX  24184 82784 32598 73202 10317 20228 39641 40103 85820 333 58006;EQDQ01  00002PRCP06
0185827840999992005022500004-07317-039300FM-12+040999999V0209999C000012200019N0020001N1+02481+02151101301ADDAA106000091GF103991011021008001021001MA1999999096641MD1999999+0021REMSYN088AAXX  25004 82784 32595 30000 10248 20215 39664 40130 81220 333 10331 29074 55069 58002;EQDQ01  00002PRCP06
0173827840999992005022512004-07317-039300FM-12+040999999V0200501N001010075019N0200001N1+02701+02151101461ADDAA106000091GF108991081021008001001001MA1999999096801MD1999999-0061REMSYN076AAXX  25124 82784 32598 80502 10270 20215 39680 40146 88200 333 20226 59006;EQDQ01  00002PRCP06
0167827840999992005022518004-07317-039300FM-12+040999999V0200901N001510075019N0020001N1+03331+02051100961ADDAA106000091GF106991061021008001001001MA1999999096341MD1999999-0071REMSYN070AAXX  25184 82784 32595 60903 10333 20205 39634 40096 86200 333 59007;EQDQ01  00002PRCP06
0179827840999992005022600004-07317-039300FM-12+040999999V0201801N000512200019N0020001N1+02621+02251101121ADDAA106000091GF100991001001999999001001MA1999999096481MD1999999-0161REMSYN082AAXX  26004 82784 32995 01801 10262 20225 39648 40112 333 10341 29070 55010 59016;EQDQ01  00002PRCP06
0173827840999992005022612004-07317-039300FM-12+040999999V0200501N001510075019N0200001N1+02741+02211101351ADDAA106000091GF107991071021008001001001MA1999999096701MD1999999-0101REMSYN076AAXX  26124 82784 32598 70503 10274 20221 39670 40135 87200 333 20220 59010;EQDQ01  00002PRCP06
0167827840999992005022618004-07317-039300FM-12+040999999V0200501N002110075019N0200001N1+03421+01981100881ADDAA106000091GF108991081021008001999999MA1999999096271MD1999999-0071REMSYN070AAXX  26184 82784 32598 80504 10342 20198 39627 40088 882// 333 59007;EQDQ01  00002PRCP06
0185827840999992005022700004-07320-039300FM-12+040999999V0202701N001019999999N0200001N1+02861+02191101111ADDAA106000091GF108991041041008001999999MA1999999096481MD1999999+0001REMSYN088AAXX  27004 82784 32598 82702 10286 20219 39648 40111 844// 333 10286 29062 55077 58000;EQDQ01  00002PRCP06
0177827840999992005022712004-07320-039300FM-12+040999999V0200901N002110075019N0200001N1+02721+02301102271ADDAY151061AY221061GF107991071021008001001001MA1999999096641MD1999999-0061MW1021REMSYN088AAXX  27124 82784 21598 70904 10272 20230 39664 40227 70252 87200 333 20245 59006 69984;
0190827840999992005022812004-07317-039300FM-12+040999999V0200501N001010450019N0200001N1+02691+02131101501ADDAY151061AY221061GF107991041011008001041001KA1240N+02481MA1999999096851MD1999999+0211MW1021REMSYN088AAXX  28124 82784 21598 70502 10269 20213 39685 40150 70252 84140 333 20248 58021 69914;
0167827840999992005022818004-07317-039300FM-12+040999999V0200501N003112200019N0200001N1+03421+01411100931ADDAA106000091GF107991021011008001001011MA1999999096321MD1999999+0071REMSYN070AAXX  28184 82784 32598 70506 10342 20141 39632 40093 82101 333 58007;EQDQ01  00002PRCP06
0185827840999992005030100004-07317-039300FM-12+040999999V0209999C000012200019N0020001N1+02691+02081101181ADDAA106000091GF101991011001012501031001MA1999999096541MD1999999+0051REMSYN088AAXX  01004 82784 32695 10000 10269 20208 39654 40118 81030 333 10349 29060 55091 58005;EQDQ01  00002PRCP06
0173827840999992005030112004-07317-039300FM-12+040999999V0200901N002110075019N0200001N1+02751+02071101381ADDAA106000091GF106991061021008001001001MA1999999096731MD1999999-0121REMSYN076AAXX  01124 82784 32598 60904 10275 20207 39673 40138 86200 333 20232 59012;EQDQ01  00002PRCP06
0167827840999992005030118004-07317-039300FM-12+040999999V0201401N001510075019N0200001N1+03451+01841100921ADDAA106000091GF106991061021008001001001MA1999999096311MD1999999-0011REMSYN070AAXX  01184 82784 32598 61403 10345 20184 39631 40092 86200 333 59001;EQDQ01  00002PRCP06
0185827840999992005030200004-07317-039300FM-12+040999999V0209999C000012200019N0020001N1+02831+02171101011ADDAA106000091GF104991041081008001001001MA1999999096391MD1999999-0151REMSYN088AAXX  02004 82784 32595 40000 10283 20217 39639 40101 84800 333 10357 29060 55111 59015;EQDQ01  00002PRCP06
0173827840999992005030212004-07317-039300FM-12+040999999V0200501N002110042019N0200001N1+02741+02141101371ADDAA106000091GF108991081051004501999999MA1999999096731MD1999999+0001REMSYN076AAXX  02124 82784 32498 80504 10274 20214 39673 40137 885// 333 20232 58000;EQDQ01  00002PRCP06
0167827840999992005030218004-07317-039300FM-12+040999999V0200501N002612200019N0200001N1+03351+02021100831ADDAA106000091GF107991031021008001001011MA1999999096231MD1999999-0081REMSYN070AAXX  02184 82784 32598 70505 10335 20202 39623 40083 83201 333 59008;EQDQ01  00002PRCP06
0179827840999992005030300004-07317-039300FM-12+040999999V0209999C000012200019N0020001N1+02701+02261101131ADDAA106000091GF100991001001999999001001MA1999999096491MD1999999+0101REMSYN082AAXX  03004 82784 32995 00000 10270 20226 39649 40113 333 10352 29068 55091 58010;EQDQ01  00002PRCP06
0177827840999992005030312004-07317-039300FM-12+040999999V0201401N001510450019N0200001N1+02791+02161101361ADDAY151061AY221061GF105991041021008001041001MA1999999096721MD1999999-0011MW1021REMSYN088AAXX  03124 82784 21598 51403 10279 20216 39672 40136 70252 84240 333 20244 59001 69944;
0189827840999992005030400004-07317-039300FM-12+040999999V0203601N002110120019N0020001N1+02861+02141101181ADDAY121061AY221061GF108991081081008001999999MA1999999096551MD1999999+0061MW1201REMSYN100AAXX  04004 82784 21595 83604 10286 20214 39655 40118 72022 888// 333 10361 29059 55089 58006 69941;
0177827840999992005030412004-07317-039300FM-12+040999999V0200501N002112200019N0200001N1+02741+02101101461ADDAY151061AY201061GF103991011011008001001011MA1999999096821MD1999999+0101MW1021REMSYN088AAXX  04124 82784 21598 30504 10274 20210 39682 40146 70250 81101 333 20238 58010 60014;
0167827840999992005030418004-07317-039300FM-12+040999999V0203601N001510075019N0200001N1+03231+01911101141ADDAA106000091GF107991051021008001011001MA1999999096511MD1999999+0271REMSYN070AAXX  04184 82784 32598 73603 10323 20191 39651 40114 85210 333 58027;EQDQ01  00002PRCP06
0179827840999992005030500004-07317-039300FM-12+040999999V0209999C000012200019N0020001N1+02641+02161101211ADDAA106000091GF100991001001999999001001MA1999999096571MD1999999+0021REMSYN082AAXX  05004 82784 32995 00000 10264 20216 39657 40121 333 10333 29066 55091 58002;EQDQ01  00002PRCP06
0173827840999992005030512004-07317-039300FM-12+040999999V0200501N002612200019N0200001N1+02761+01861101601ADDAA106000091GF102991011011008001001091MA1999999096941MD1999999+0121REMSYN076AAXX  05124 82784 32598 20505 10276 20186 39694 40160 81109 333 20226 58012;EQDQ01  00002PRCP06
0167827840999992005030518004-07317-039300FM-12+040999999V0200901N001510075019N0200001N1+03361+02041101031ADDAA106000091GF107991061021008001001091MA1999999096411MD1999999-0101REMSYN070AAXX  05184 82784 32598 70903 10336 20204 39641 40103 86209 333 59010;EQDQ01  00002PRCP06
0185827840999992005030600004-07320-039300FM-12+040999999V0209999C000012200019N0020001N1+02741+02141101231ADDAA106000091GF103991031001017501021001MA1999999096591MD1999999+0021REMSYN088AAXX  06004 82784 32795 30000 10274 20214 39659 40123 83020 333 10356 29061 55106 58002;EQDQ01  00002PRCP06
0173827840999992005030612004-07320-039300FM-12+040999999V0200901N002112200019N0200001N1+02871+02091101361ADDAA106000091GF101991011021008001001001MA1999999096721MD1999999-0221REMSYN076AAXX  06124 82784 32598 10904 10287 20209 39672 40136 81200 333 20246 59022;EQDQ01  00002PRCP06
0167827840999992005030618004-07320-039300FM-12+040999999V0200901N001512200019N0200001N1+03581+01931100721ADDAA106000091GF101991011021008001001001MA1999999096141MD1999999-0271REMSYN070AAXX  06184 82784 32598 10903 10358 20193 39614 40072 81200 333 59027;EQDQ01  00002PRCP06
0179827840999992005030700004-07317-039300FM-12+040999999V0202301N001012200019N0020001N1+02851+02141101051ADDAA106000091GF100991001001999999001001MA1999999096431MD1999999-0161REMSYN082AAXX  07004 82784 32995 02302 10285 20214 39643 40105 333 10369 29058 55109 59016;EQDQ01  00002PRCP06
0173827840999992005030712004-07317-039300FM-12+040999999V0201401N002110450019N0200001N1+02801+01981101341ADDAA106000091GF105991031011008001021001MA1999999096701MD1999999-0021REMSYN076AAXX  07124 82784 32598 51404 10280 20198 39670 40134 83120 333 20241 59002;EQDQ01  00002PRCP06
0167827840999992005030718004-07317-039300FM-12+040999999V0201401N002610450019N0200001N1+03471+01901100831ADDAA106000091GF106991041021008001031001MA1999999096241MD1999999+0101REMSYN070AAXX  07184 82784 32598 61405 10347 20190 39624 40083 84230 333 58010;EQDQ01  00002PRCP06
0185827840999992005030800004-07317-039300FM-12+040999999V0209999C000012200019N0020001N1+02801+02111101191ADDAA106000091GF101991011021008001001001MA1999999096561MD1999999+0131REMSYN088AAXX  08004 82784 32595 10000 10280 20211 39656 40119 81200 333 10357 29058 55084 58013;EQDQ01  00002PRCP06
0167827840999992005030818004-07317-039300FM-12+040999999V0201801N002110450019N0200001N1+03381+01951100861ADDAA106000091GF108991021021008001031999MA1999999096251MD1999999+0011REMSYN070AAXX  08184 82784 32598 81804 10338 20195 39625 40086 8223/ 333 58001;EQDQ01  00002PRCP06
0185827840999992005030900004-07317-039300FM-12+040999999V0201801N000512200019N0020001N1+02761+02191101171ADDAA106000091GF103991031041008001001001MA1999999096531MD1999999-0031REMSYN088AAXX  09004 82784 32595 31801 10276 20219 39653 40117 83400 333 10347 29065 55058 59003;EQDQ01  00002PRCP06
0173827840999992005030912004-07317-039300FM-12+040999999V0203201N000510075019N0200001N1+02651+02161101361ADDAA106000091GF108991081021008001999999MA1999999096711MD1999999-0041REMSYN076AAXX  09124 82784 32598 83201 10265 20216 39671 40136 882// 333 20221 59004;EQDQ01  00002PRCP06
0167827840999992005030918004-07317-039300FM-12+040999999V0203601N001512200019N0200001N1+03451+01881100811ADDAA106000091GF104991021021008001031001MA1999999096201MD1999999-0051REMSYN070AAXX  09184 82784 32598 43603 10345 20188 39620 40081 82230 333 59005;EQDQ01  00002PRCP06
0179827840999992005031000004-07317-039300FM-12+040999999V0209999C000012200019N0020001N1+02581+01851101021ADDAA106000091GF100991001001999999001001MA1999999096381MD1999999-0151REMSYN082AAXX  10004 82784 32995 00000 10258 20185 39638 40102 333 10356 29061 55094 59015;EQDQ01  00002PRCP06
0173827840999992005031012004-07317-039300FM-12+040999999V0200901N001010075019N0200001N1+02601+02121101401ADDAA106000091GF108991051021008001001011MA1999999096741MD1999999+0031REMSYN076AAXX  10124 82784 32598 80902 10260 20212 39674 40140 85201 333 20229 58003;EQDQ01  00002PRCP06
0167827840999992005031018004-07317-039300FM-12+040999999V0201801N001512200019N0200001N1+03321+01891101031ADDAA106000091GF108991041041008001001011MA1999999096391MD1999999+0191REMSYN070AAXX  10184 82784 32598 81803 10332 20189 39639 40103 84401 333 58019;EQDQ01  00002PRCP06
0185827840999992005031100004-07317-039300FM-12+040999999V0201801N001519999999N0020001N1+02731+02051101211ADDAA106000091GF108991999051008001001001MA1999999096561MD1999999+0181REMSYN088AAXX  11004 82784 32595 81803 10273 20205 39656 40121 84500 333 10350 29062 55050 58018;EQDQ01  00002PRCP06
0173827840999992005031112004-07317-039300FM-12+040999999V0200901N002110075019N0200001N1+02751+02101101421ADDAA106000091GF106991051021008001051001MA1999999096771MD1999999+0031REMSYN076AAXX  11124 82784 32598 60904 10275 20210 39677 40142 85250 333 20244 58003;EQDQ01  00002PRCP06
0167827840999992005031118004-07317-039300FM-12+040999999V0203601N001510075019N0200001N1+03461+01781100991ADDAA106000091GF106991051021008001051001MA1999999096391MD1999999+0001REMSYN070AAXX  11184 82784 32598 63603 10346 20178 39639 40099 85250 333 58000;EQDQ01  00002PRCP06
0185827840999992005031200004-07317-039300FM-12+040999999V0209999C000010075019N0020001N1+02981+02121101131ADDAA106000091GF108991081041008001999999MA1999999096511MD1999999-0051REMSYN088AAXX  12004 82784 32595 80000 10298 20212 39651 40113 884// 333 10365 29056 55080 59005;EQDQ01  00002PRCP06
0177827840999992005031212004-07317-039300FM-12+040999999V0202701N000510075019N0200001N1+02291+02161101431ADDAY161061AY251061GF107991061071008001041001MA1999999096771MD1999999+0001MW1021REMSYN088AAXX  12124 82784 21598 72701 10229 20216 39677 40143 70265 86740 333 20214 58000 60964;
0167827840999992005031218004-07317-039300FM-12+040999999V0202701N001510450019N0200001N1+03081+02161100941ADDAA106000091GF105991031011008001051001MA1999999096311MD1999999-0081REMSYN070AAXX  12184 82784 32598 52703 10308 20216 39631 40094 83150 333 59008;EQDQ01  00002PRCP06
0179827840999992005031300004-07320-039300FM-12+040999999V0209999C000012200019N0020001N1+02611+02441101121ADDAA106000091GF100991001001999999001001MA1999999096461MD1999999-0051REMSYN082AAXX  13004 82784 32995 00000 10261 20244 39646 40112 333 10327 29083 55073 59005;EQDQ01  00002PRCP06
0177827840999992005031312004-07320-039300FM-12+040999999V0202701N001519999999N0040001N1+02281+02231101441ADDAY161061AY261061GF108991081999999999999999MA1999999096761MD1999999-0011MW1641REMSYN088AAXX  13124 82784 21/96 82703 10228 20223 39676 40144 76466 88/// 333 20224 59001 60344;
0171827840999992005031318004-07320-039300FM-12+040999999V0201801N000510075019N0200001N1+02541+02311101011ADDAY151061AY221061GF108991081071008001999999MA1999999096351MD1999999+0041MW1021REMSYN082AAXX  13184 82784 21598 81801 10254 20231 39635 40101 70252 887// 333 58004 60021;
0185827840999992005031400004-07320-039300FM-12+040999999V0209999C000019999999N0020001N1+02391+02351101071ADDAA106000091GF105991051999999999999999MA1999999096401MD1999999-0061REMSYN088AAXX  14004 82784 32/95 50000 10239 20235 39640 40107 85/// 333 10289 29094 55007 59006;EQDQ01  00002PRCP06
0177827840999992005031412004-07320-039300FM-12+040999999V0201401N008210450019N0200001N1+02661+02311101341ADDAY161061AY221061GF105991021021008001031001MA1999999096671MD1999999-0091MW1021REMSYN088AAXX  14124 82784 21598 51416 10266 20231 39667 40134 70262 82230 333 20224 59009 60024;
0167827840999992005031418004-07317-039300FM-12+040999999V0200901N000510450019N0200001N1+03041+02261100821ADDAA106000091GF107991031031008001041001MA1999999096191MD1999999-0161REMSYN070AAXX  14184 82784 32598 70901 10304 20226 39619 40082 83340 333 59016;EQDQ01  00002PRCP06
0185827840999992005031500004-07317-039300FM-12+040999999V0203201N001010075019N0020001N1+02541+02131101041ADDAA106000091GF107991071091008001001001MA1999999096401MD1999999+0001REMSYN088AAXX  15004 82784 32595 73202 10254 20213 39640 40104 87900 333 10321 29075 55068 58000;EQDQ01  00002PRCP06
0173827840999992005031512004-07317-039300FM-12+040999999V0200901N001010075019N0200001N1+02521+02361101241ADDAA106000091GF108991081041008001999999MA1999999096581MD1999999-0091REMSYN076AAXX  15124 82784 32598 80902 10252 20236 39658 40124 884// 333 20234 59009;EQDQ01  00002PRCP06
0167827840999992005031518004-07317-039300FM-12+040999999V0200901N001510450019N0200001N1+03181+02221100781ADDAA106000091GF107991031021008001031001MA1999999096161MD1999999-0031REMSYN070AAXX  15184 82784 32598 70903 10318 20222 39616 40078 83230 333 59003;EQDQ01  00002PRCP06
0185827840999992005031600004-07317-039300FM-12+040999999V0209999C000010120019N0020001N1+02681+02371101111ADDAA106000091GF106991061081008001001001MA1999999096461MD1999999+0061REMSYN088AAXX  16004 82784 32595 60000 10268 20237 39646 40111 86800 333 10327 29078 55058 58006;EQDQ01  00002PRCP06
0173827840999992005031612004-07317-039300FM-12+040999999V0200901N001510075019N0200001N1+02671+02201101351ADDAA106000091GF108991061021008001031999MA1999999096701MD1999999+0121REMSYN076AAXX  16124 82784 32598 80903 10267 20220 39670 40135 8623/ 333 20244 58012;EQDQ01  00002PRCP06
0167827840999992005031618004-07317-039300FM-12+040999999V0201801N001510450019N0200001N1+03191+02151100971ADDAA106000091GF107991021021008001031001MA1999999096351MD1999999+0191REMSYN070AAXX  16184 82784 32598 71803 10319 20215 39635 40097 82230 333 58019;EQDQ01  00002PRCP06
0185827840999992005031700004-07317-039300FM-12+040999999V0202701N001010120019N0020001N1+02741+02241101171ADDAA106000091GF106991051081008001031001MA1999999096531MD1999999+0071REMSYN088AAXX  17004 82784 32595 62702 10274 20224 39653 40117 85830 333 10328 29070 55080 58007;EQDQ01  00002PRCP06
0177827840999992005031712004-07317-039300FM-12+040999999V0200901N000510042019N0200001N1+02371+02291101451ADDAY161061AY221061GF108991081071004501999999MA1999999096781MD1999999+0081MW1021REMSYN088AAXX  17124 82784 21498 80901 10237 20229 39678 40145 70262 887// 333 20230 58008 60034;
0171827840999992005031718004-07317-039300FM-12+040999999V0203201N001010450019N0200001N1+02791+02271100971ADDAY151061AY221061GF106991021041008001031001MA1999999096341MD1999999-0011MW1021REMSYN082AAXX  17184 82784 21598 63202 10279 20227 39634 40097 70252 82430 333 59001 69941;
0185827840999992005031800004-07317-039300FM-12+040999999V0202701N000510450019N0020001N1+02581+02311101091ADDAA106000091GF106991041081008001031001MA1999999096431MD1999999-0101REMSYN088AAXX  18004 82784 32595 62701 10258 20231 39643 40109 84830 333 10304 29084 55034 59010;EQDQ01  00002PRCP06
0177827840999992005031812004-07317-039300FM-12+040999999V0200901N001010042019N0200001N1+02351+02291101511ADDAY161061AY221061GF108991081071004501999999MA1999999096831MD1999999+0051MW1021REMSYN088AAXX  18124 82784 21498 80902 10235 20229 39683 40151 70262 887// 333 20228 58005 60084;
0171827840999992005031818004-07317-039300FM-12+040999999V0200501N001010075019N0200001N1+02661+02221101091ADDAY161061AY221061GF108991051041008001051999MA1999999096441MD1999999+0101MW1021REMSYN082AAXX  18184 82784 21598 80502 10266 20222 39644 40109 70262 8545/ 333 58010 60021;
0185827840999992005031900004-07317-039300FM-12+040999999V0201801N001510120019N0020001N1+02481+02411101241ADDAA106000091GF107991071081008001001001MA1999999096571MD1999999+0141REMSYN088AAXX  19004 82784 32595 71803 10248 20241 39657 40124 87800 333 10276 29091 55007 58014;EQDQ01  00002PRCP06
0177827840999992005031912004-07317-039300FM-12+040999999V0200901N001510075019N0200001N1+02101+02081101591ADDAY161061AY221061GF108991081071008001999999MA1999999096891MD1999999+0061MW1211REMSYN088AAXX  19124 82784 21598 80903 10210 20208 39689 40159 72162 887// 333 20208 58006 60814;
0171827840999992005031918004-07317-039300FM-12+040999999V0202301N000510450019N0200001N1+02481+02171101161ADDAY161061AY221061GF107991021041008001031011MA1999999096491MD1999999+0051MW1021REMSYN082AAXX  19184 82784 21598 72301 10248 20217 39649 40116 70262 82431 333 58005 60071;
0185827840999992005032000004-07320-039300FM-12+040999999V0209999C000019999999N0020001N1+02331+02261101491ADDAA106000091GF107991071081999999001001MA1999999096781MD1999999+0211REMSYN088AAXX  20004 82784 32995 70000 10233 20226 39678 40149 87800 333 10259 29093 55000 58021;EQDQ01  00002PRCP06
0149827840999992005032012004-07320-039300FM-12+040999999V0200501N001010042019N0200001N1+02521+02251101431ADDGF107991071021004501001001MA1999999096831MD1999999-0061REMSYN082AAXX  20124 82784 22498 70502 10252 20225 39683 40143 87200 333 20210 59006 60074;
0171827840999992005032018004-07320-039300FM-12+040999999V0201401N001010075019N0200001N1+02321+02251101201ADDAY151061AY221061GF107991051051008001051021MA1999999096601MD1999999+0111MW1021REMSYN082AAXX  20184 82784 21598 71402 10232 20225 39660 40120 70252 85552 333 58011 60051;
0213827840999992005032100004-07317-039300FM-12+040999999V0203201N000510150019N0020001N1+02271+02251101381ADDAA106000091AY121061AY221061GF108991081001017501011999MA1999999096701MD1999999-0081MW1131REMSYN094AAXX  21004 82784 31795 83201 10227 20225 39670 40138 71322 8801/ 333 10290 29094 55022 59008;EQDQ01  00002PRCP06
0177827840999992005032112004-07317-039300FM-12+040999999V0209999C000010075019N0200001N1+02371+02311101531ADDAY161061AY221061GF108991081091008001999999MA1999999096841MD1999999+0011MW1031REMSYN088AAXX  21124 82784 21598 80000 10237 20231 39684 40153 70362 889// 333 20218 58001 60054;
0171827840999992005032118004-07317-039300FM-12+040999999V0202701N001510450019N0200001N1+02681+02331101061ADDAY151061AY221061GF107991031031008001041001MA1999999096421MD1999999-0181MW1021REMSYN082AAXX  21184 82784 21598 72703 10268 20233 39642 40106 70252 83340 333 59018 60011;
0185827840999992005032200004-07317-039300FM-12+040999999V0209999C000010450019N0020001N1+02421+02351101241ADDAA106000091GF105991041061008001031001MA1999999096571MD1999999-0131REMSYN088AAXX  22004 82784 32595 50000 10242 20235 39657 40124 84630 333 10287 29092 55015 59013;EQDQ01  00002PRCP06
0177827840999992005032212004-07317-039300FM-12+040999999V0202301N001010042019N0200001N1+02321+02241101531ADDAY161061AY251061GF108991081051004501999999MA1999999096841MD1999999+0001MW1021REMSYN088AAXX  22124 82784 21498 82302 10232 20224 39684 40153 70265 885// 333 20220 58000 60314;
0167827840999992005032218004-07317-039300FM-12+040999999V0201401N002112200019N0200001N1+02901+02171101191ADDAA106000091GF106991031021008001001011MA1999999096541MD1999999+0121REMSYN070AAXX  22184 82784 32598 61404 10290 20217 39654 40119 83201 333 58012;EQDQ01  00002PRCP06
0185827840999992005032300004-07317-039300FM-12+040999999V0209999C000012200019N0020001N1+02391+02191101341ADDAA106000091GF103991011011008001031001MA1999999096661MD1999999+0091REMSYN088AAXX  23004 82784 32595 30000 10239 20219 39666 40134 81130 333 10303 29084 55052 58009;EQDQ01  00002PRCP06
0173827840999992005032312004-07317-039300FM-12+040999999V0200901N001510075019N0200001N1+02481+02291101591ADDAA106000091GF106991061021008001001001MA1999999096911MD1999999+0071REMSYN076AAXX  23124 82784 32598 60903 10248 20229 39691 40159 86200 333 20214 58007;EQDQ01  00002PRCP06
0167827840999992005032318004-07317-039300FM-12+040999999V0201401N001512200019N0200001N1+03021+02101101171ADDAA106000091GF106991031021008001001011MA1999999096521MD1999999-0021REMSYN070AAXX  23184 82784 32598 61403 10302 20210 39652 40117 83201 333 59002;EQDQ01  00002PRCP06
0179827840999992005032400004-07317-039300FM-12+040999999V0209999C000012200019N0020001N1+02431+02231101411ADDAA106000091GF100991001001999999001001MA1999999096741MD1999999+0081REMSYN082AAXX  24004 82784 32795 00000 10243 20223 39674 40141 333 10319 29081 55091 58008;EQDQ01  00002PRCP06
0177827840999992005032412004-07317-039300FM-12+040999999V0202701N001010042019N0100001N1+02161+02111101731ADDAY161061AY261061GF108991081051004501999999MA1999999097031MD1999999+0121MW1211REMSYN088AAXX  24124 82784 21497 82702 10216 20211 39703 40173 72166 885// 333 20210 58012 60544;
0171827840999992005032418004-07317-039300FM-12+040999999V0203601N001510450019N0200001N1+02821+02201101141ADDAY151061AY221061GF106991041021008001021001MA1999999096481MD1999999-0041MW1021REMSYN082AAXX  24184 82784 21598 63603 10282 20220 39648 40114 70252 84220 333 59004 69921;
0185827840999992005032500004-07317-039300FM-12+040999999V0201401N001510120019N0020001N1+02481+02361101451ADDAA106000091GF108991081081008001999999MA1999999096761MD1999999+0021REMSYN088AAXX  25004 82784 32595 81403 10248 20236 39676 40145 888// 333 10297 29088 55038 58002;EQDQ01  00002PRCP06
0149827840999992005032512004-07317-039300FM-12+040999999V0203201N001010075019N0200001N1+02481+02301101461ADDGF108991081041008001999999MA1999999096791MD1999999-0241REMSYN082AAXX  25124 82784 22598 83202 10248 20230 39679 40146 884// 333 20226 59024 69924;
0167827840999992005032518004-07317-039300FM-12+040999999V0200901N001510450019N0200001N1+02891+02181100961ADDAA106000091GF108991031021008001071999MA1999999096321MD1999999-0161REMSYN070AAXX  25184 82784 32598 80903 10289 20218 39632 40096 8327/ 333 59016;EQDQ01  00002PRCP06
0185827840999992005032600004-07317-039300FM-12+040999999V0201801N001010120019N0020001N1+02481+02341101291ADDAA106000091GF108991081081008001999999MA1999999096631MD1999999-0131REMSYN088AAXX  26004 82784 32595 81802 10248 20234 39663 40129 888// 333 10306 29085 55046 59013;EQDQ01  00002PRCP06
0177827840999992005032612004-07317-039300FM-12+040999999V0201801N001010042019N0200001N1+02391+02231101461ADDAY161061AY221061GF108991061041004501031999MA1999999096791MD1999999+0001MW1021REMSYN088AAXX  26124 82784 21498 81802 10239 20223 39679 40146 70262 8643/ 333 20212 58000 60224;
0167827840999992005032618004-07317-039300FM-12+040999999V0200501N001510450019N0200001N1+02741+02191100971ADDAA106000091GF107991041021008001021001MA1999999096301MD1999999+0021REMSYN070AAXX  26184 82784 32598 70503 10274 20219 39630 40097 84220 333 58002;EQDQ01  00002PRCP06
0185827840999992005032700004-07320-039300FM-12+040999999V0202701N000510120019N0020001N1+02411+02241101271ADDAA106000091GF107991071081008001031091MA1999999096601MD1999999-0031REMSYN088AAXX  27004 82784 32595 72701 10241 20224 39660 40127 87839 333 10288 29086 55034 59003;EQDQ01  00002PRCP06
0177827840999992005032712004-07320-039300FM-12+040999999V0200501N000512200019N0200001N1+02521+02231101341ADDAY161061AY221061GF104991011021008001031091MA1999999096671MD1999999-0121MW1021REMSYN088AAXX  27124 82784 21598 40501 10252 20223 39667 40134 70262 81239 333 20212 59012 60034;
0167827840999992005032718004-07320-039300FM-12+040999999V0201801N003110450019N0200001N1+02861+02211100871ADDAA106000091GF107991041081008001091001MA1999999096231MD1999999-0071REMSYN070AAXX  27184 82784 32598 71806 10286 20221 39623 40087 84890 333 59007;EQDQ01  00002PRCP06
0177827840999992005032812004-07320-039300FM-12+040999999V0202301N001010120019N0200001N1+02381+02261101481ADDAY161061AY221061GF107991061081008001031001MA1999999096801MD1999999+0131MW1211REMSYN088AAXX  28124 82784 21598 72302 10238 20226 39680 40148 72162 86830 333 20213 58013 60484;
0148827840999992005032818004-07320-039300FM-12+040999999V0202701N001010450019N0200001N1+02961+02311100941ADDAA106000021GF105991041021008001031001MA1999999096301MD1999999+0071REMSYN070AAXX  28184 82784 32598 52702 10296 20231 39630 40094 84230 333 58007;
0198827840999992005032900004-07317-039300FM-12+040999999V0200901N001010120019N0020001N1+02441+02351101231ADDAA106000091GF106991051081008001031001KA1240M+03021MA1999999096561MD1999999-0151REMSYN088AAXX  29004 82784 32595 60902 10244 20235 39656 40123 85830 333 10302 29088 55041 59015;EQDQ01  00002PRCP06
0190827840999992005032912004-07317-039300FM-12+040999999V0200901N001010075019N0200001N1+02321+02161101431ADDAY161061AY221061GF108991081071008001999999KA1240N+02081MA1999999096751MD1999999-0051MW1021REMSYN088AAXX  29124 82784 21598 80902 10232 20216 39675 40143 70262 887// 333 20208 59005 60244;
0167827840999992005032918004-07317-039300FM-12+040999999V0203201N000510075019N0200001N1+02841+02311100971ADDAA106000091GF106991051041008001031001MA1999999096321MD1999999+0021REMSYN070AAXX  29184 82784 32598 63201 10284 20231 39632 40097 85430 333 58002;EQDQ01  00002PRCP06
0190827840999992005033012004-07317-039300FM-12+040999999V0203201N000510120019N0200001N1+02381+02191101381ADDAY151061AY221061GF108991061081008001051999KA1240N+02101MA1999999096701MD1999999-0051MW1021REMSYN088AAXX  30124 82784 21598 83201 10238 20219 39670 40138 70252 8685/ 333 20210 59005 69944;
0167827840999992005033018004-07317-039300FM-12+040999999V0200901N001010450019N0200001N1+02981+02231100961ADDAA106000091GF106991031021008001051001MA1999999096331MD1999999+0011REMSYN070AAXX  30184 82784 32598 60902 10298 20223 39633 40096 83250 333 58001;EQDQ01  00002PRCP06
0202827840999992005033100004-07317-039300FM-12+040999999V0201401N003110120019N0020001N1+02431+02171101411ADDAY121061AY221061GF108991081081008001999999KA1240M+03131MA1999999096731MD1999999+0041MW1211REMSYN100AAXX  31004 82784 21595 81406 10243 20217 39673 40141 72122 888// 333 10313 29081 55066 58004 60051;
0190827840999992005033112004-07317-039300FM-12+040999999V0201401N001010120019N0200001N1+02521+02251101481ADDAY161061AY221061GF107991071081008001001001KA1240N+02201MA1999999096781MD1999999+0081MW1021REMSYN088AAXX  31124 82784 21598 71402 10252 20225 39678 40148 70262 87800 333 20220 58008 60094;
0167827840999992005033118004-07317-039300FM-12+040999999V0200901N002112200019N0200001N1+03051+02991100961ADDAA106000091GF106991021011008001001011MA1999999096321MD1999999-0011REMSYN070AAXX  31184 82784 32598 60904 10305 20299 39632 40096 82101 333 59001;EQDQ01  00002PRCP06
0179827840999992005040100004-07317-039300FM-12+040999999V0209999C000012200019N0020001N1+02441+02231101271ADDAA106000091GF100991001001999999001001MA1999999096611MD1999999-0121REMSYN082AAXX  01004 82784 32995 00000 10244 20223 39661 40127 333 10307 29080 55072 59012;EQDQ01  00002PRCP06
0177827840999992005040112004-07317-039300FM-12+040999999V0200501N001510042019N0200001N1+02641+02231101461ADDAY161061AY221061GF106991061021004501001001MA1999999096791MD1999999+0011MW1021REMSYN088AAXX  01124 82784 21498 60503 10264 20223 39679 40146 70262 86200 333 20220 58001 60044;
0167827840999992005040118004-07317-039300FM-12+040999999V0200901N002612200019N0200001N1+03111+01971101101ADDAA106000091GF103991031011008001001001MA1999999096461MD1999999+0141REMSYN070AAXX  01184 82784 32598 30905 10311 20197 39646 40110 83100 333 58014;EQDQ01  00002PRCP06
0185827840999992005040200004-07317-039300FM-12+040999999V0203601N001510075019N0020001N1+02601+02121101391ADDAA106000091GF107991071091008001001001MA1999999096731MD1999999+0121REMSYN088AAXX  02004 82784 32595 73603 10260 20212 39673 40139 87900 333 10317 29070 55101 58012;EQDQ01  00002PRCP06
0173827840999992005040212004-07317-039300FM-12+040999999V0200901N001010075019N0200001N1+02481+02301101521ADDAA106000091GF107991071021008001001001MA1999999096851MD1999999+0061REMSYN076AAXX  02124 82784 32598 70902 10248 20230 39685 40152 87200 333 20225 58006;EQDQ01  00002PRCP06
0167827840999992005040218004-07317-039300FM-12+040999999V0200501N001510450019N0200001N1+03101+02121101111ADDAA106000091GF105991041021008001041001MA1999999096471MD1999999+0011REMSYN070AAXX  02184 82784 32598 50503 10310 20212 39647 40111 84240 333 58001;EQDQ01  00002PRCP06
0185827840999992005040300004-07320-039300FM-12+040999999V0203601N001512200019N0020001N1+02461+02301101451ADDAA106000091GF101991011021008001001001MA1999999096771MD1999999+0041REMSYN088AAXX  03004 82784 32595 13603 10246 20230 39677 40145 81200 333 10319 29082 55069 58004;EQDQ01  00002PRCP06
0173827840999992005040312004-07320-039300FM-12+040999999V0200501N002110075019N0200001N1+02661+02141101541ADDAA106000091GF106991061021008001001001MA1999999096871MD1999999+0021REMSYN076AAXX  03124 82784 32598 60504 10266 20214 39687 40154 86200 333 20220 58002;EQDQ01  00002PRCP06
0167827840999992005040318004-07320-039300FM-12+040999999V0200901N001512200019N0200001N1+03061+02081101161ADDAA106000091GF106991041011008001001041MA1999999096521MD1999999+0051REMSYN070AAXX  03184 82784 32598 60903 10306 20208 39652 40116 84104 333 58005;EQDQ01  00002PRCP06
0179827840999992005040400004-07317-039300FM-12+040999999V0202301N001012200019N0020001N1+02461+02131101301ADDAA106000091GF100991001001999999001001MA1999999096641MD1999999-0131REMSYN082AAXX  04004 82784 32995 02302 10246 20213 39664 40130 333 10317 29073 55094 59013;EQDQ01  00002PRCP06
0173827840999992005040412004-07317-039300FM-12+040999999V0201401N001010075019N0200001N1+02581+02291101661ADDAA106000091GF106991999021008001001001MA1999999096981MD1999999+0111REMSYN076AAXX  04124 82784 32598 61402 10258 20229 39698 40166 85200 333 20228 58011;EQDQ01  00002PRCP06
0167827840999992005040418004-07317-039300FM-12+040999999V0201401N002612200019N0200001N1+03121+02111101191ADDAA106000091GF104991041021008001001001MA1999999096551MD1999999+0031REMSYN070AAXX  04184 82784 32598 41405 10312 20211 39655 40119 84200 333 58003;EQDQ01  00002PRCP06
0185827840999992005040500004-07317-039300FM-12+040999999V0209999C000012200019N0020001N1+02411+02071101401ADDAA106000091GF101991011011008001001001MA1999999096731MD1999999+0091REMSYN088AAXX  05004 82784 32595 10000 10241 20207 39673 40140 81100 333 10319 29076 55084 58009;EQDQ01  00002PRCP06
0173827840999992005040512004-07317-039300FM-12+040999999V0200901N002112200019N0200001N1+02721+02051101571ADDAA106000091GF102991021021008001001001MA1999999096901MD1999999-0081REMSYN076AAXX  05124 82784 32598 20904 10272 20205 39690 40157 82200 333 20230 59008;EQDQ01  00002PRCP06
0167827840999992005040518004-07317-039300FM-12+040999999V0200901N002612200019N0200001N1+03061+01871101121ADDAA106000091GF102991011021008001031001MA1999999096491MD1999999-0061REMSYN070AAXX  05184 82784 32598 20905 10306 20187 39649 40112 81230 333 59006;EQDQ01  00002PRCP06
0179827840999992005040600004-07317-039300FM-12+040999999V0201801N000512200019N0020001N1+02491+02111101421ADDAA106000091GF100991001001999999001001MA1999999096761MD1999999+0031REMSYN082AAXX  06004 82784 32995 01801 10249 20211 39676 40142 333 10315 29069 55107 58003;EQDQ01  00002PRCP06
0173827840999992005040612004-07317-039300FM-12+040999999V0200901N003110150019N0200001N1+02681+02061101541ADDAA106000091GF106991061001017501031001MA1999999096871MD1999999-0031REMSYN076AAXX  06124 82784 32798 60906 10268 20206 39687 40154 86030 333 20212 59003;EQDQ01  00002PRCP06
0167827840999992005040618004-07317-039300FM-12+040999999V0200901N002610075019N0200001N1+03061+02221101141ADDAA106000091GF106991051021008001031001MA1999999096501MD1999999+0011REMSYN070AAXX  06184 82784 32598 60905 10306 20222 39650 40114 85230 333 58001;EQDQ01  00002PRCP06
0185827840999992005040700004-07317-039300FM-12+040999999V0209999C000012200019N0020001N1+02551+02171101331ADDAA106000091GF102991021021008001001001MA1999999096671MD1999999-0091REMSYN088AAXX  07004 82784 32595 20000 10255 20217 39667 40133 82200 333 10315 29072 55098 59009;EQDQ01  00002PRCP06
0173827840999992005040712004-07317-039300FM-12+040999999V0200901N002612200019N0200001N1+02751+02071101391ADDAA106000091GF102991011011008001031001MA1999999096741MD1999999-0131REMSYN076AAXX  07124 82784 32598 20905 10275 20207 39674 40139 81130 333 20213 59013;EQDQ01  00002PRCP06
0167827840999992005040718004-07317-039300FM-12+040999999V0200901N002110075019N0200001N1+02991+02111101091ADDAA106000091GF106991061021008001001001MA1999999096451MD1999999-0051REMSYN070AAXX  07184 82784 32598 60904 10299 20211 39645 40109 86200 333 59005;EQDQ01  00002PRCP06
0185827840999992005040800004-07317-039300FM-12+040999999V0200501N000512200019N0020001N1+02401+02131101321ADDAA106000091GF102991021041008001001001MA1999999096661MD1999999-0011REMSYN088AAXX  08004 82784 32595 20501 10240 20213 39666 40132 82400 333 10306 29074 55086 59001;EQDQ01  00002PRCP06
0173827840999992005040812004-07317-039300FM-12+040999999V0201801N003610075019N0200001N1+02691+02011101401ADDAA106000091GF105991051021008001001001MA1999999096741MD1999999+0001REMSYN076AAXX  08124 82784 32598 51807 10269 20201 39674 40140 85200 333 20230 58000;EQDQ01  00002PRCP06
0167827840999992005040818004-07317-039300FM-12+040999999V0201801N004110450019N0200001N1+02811+02081101051ADDAA106000091GF107991021061008001051001MA1999999096411MD1999999-0041REMSYN070AAXX  08184 82784 32598 71808 10281 20208 39641 40105 82650 333 59004;EQDQ01  00002PRCP06
0179827840999992005040900004-07317-039300FM-12+040999999V0201801N002112200019N0020001N1+02281+01831101311ADDAA106000091GF100991001001999999001001MA1999999096651MD1999999-0011REMSYN082AAXX  09004 82784 32995 01804 10228 20183 39665 40131 333 10296 29071 55098 59001;EQDQ01  00002PRCP06
0173827840999992005040912004-07317-039300FM-12+040999999V0201401N002110450019N0200001N1+02661+01971101371ADDAA106000091GF106991011011008001021011MA1999999096701MD1999999-0041REMSYN076AAXX  09124 82784 32598 61404 10266 20197 39670 40137 81121 333 20208 59004;EQDQ01  00002PRCP06
0183827840999992005040918004-07317-039300FM-12+040999999V0201401N001510450019N0200001N1+02941+02161101091ADDAA106000091GF108991021011008001021999MA1999999999999MD1999999+0041REMSYN070AAXX  09184 82784 32598 81403 10294 20216 39345 40109 8212/ 333 58004;EQDQ01  00002PRCP06Q02 093453APOSP 
0185827840999992005041000004-07317-039300FM-12+040999999V0202701N001519999999N0020001N1+02521+02231101261ADDAA106000091GF106991999021008001001001MA1999999096611MD1999999-0041REMSYN088AAXX  10004 82784 32595 62703 10252 20223 39661 40126 84200 333 10313 29074 55066 59004;EQDQ01  00002PRCP06
0173827840999992005041012004-07317-039300FM-12+040999999V0201401N002110450019N0200001N1+02781+02111101301ADDAA106000091GF106991021021008001031001MA1999999096661MD1999999-0101REMSYN076AAXX  10124 82784 32598 61404 10278 20211 39666 40130 82230 333 20234 59010;EQDQ01  00002PRCP06
0167827840999992005041018004-07317-039300FM-12+040999999V0201401N003110450019N0200001N1+03101+02031100961ADDAA106000091GF106991021021008001031001MA1999999096341MD1999999-0111REMSYN070AAXX  10184 82784 32598 61406 10310 20203 39634 40096 82230 333 59011;EQDQ01  00002PRCP06
0185827840999992005041100004-07317-039300FM-12+040999999V0201401N001512200019N0020001N1+02491+02111101161ADDAA106000091GF101991011011008001001001MA1999999096521MD1999999-0091REMSYN088AAXX  11004 82784 32595 11403 10249 20211 39652 40116 81100 333 10321 29070 55087 59009;EQDQ01  00002PRCP06
0173827840999992005041112004-07317-039300FM-12+040999999V0201401N003112200019N0200001N1+02731+02021101281ADDAA106000091GF103991021021008001001041MA1999999096631MD1999999-0031REMSYN076AAXX  11124 82784 32598 31406 10273 20202 39663 40128 82204 333 20216 59003;EQDQ01  00002PRCP06
0167827840999992005041118004-07317-039300FM-12+040999999V0201401N001510075019N0200001N1+03091+02091100911ADDAA106000091GF106991051021008001011001MA1999999096291MD1999999-0051REMSYN070AAXX  11184 82784 32598 61403 10309 20209 39629 40091 85210 333 59005;EQDQ01  00002PRCP06
0185827840999992005041200004-07317-039300FM-12+040999999V0200901N001012200019N0020001N1+02561+02171101141ADDAA106000091GF102991021001017501021001MA1999999096501MD1999999-0021REMSYN088AAXX  12004 82784 32795 20902 10256 20217 39650 40114 82020 333 10317 29070 55108 59002;EQDQ01  00002PRCP06
0173827840999992005041212004-07317-039300FM-12+040999999V0201401N002110075019N0200001N1+02641+02291101271ADDAA106000091GF107991071051008001001001MA1999999096621MD1999999-0011REMSYN076AAXX  12124 82784 32598 71404 10264 20229 39662 40127 87500 333 20230 59001;EQDQ01  00002PRCP06
0167827840999992005041218004-07317-039300FM-12+040999999V0201401N002612200019N0200001N1+03101+01941100941ADDAA106000091GF105991041011008001001011MA1999999096311MD1999999+0021REMSYN070AAXX  12184 82784 32598 51405 10310 20194 39631 40094 84101 333 58002;EQDQ01  00002PRCP06
0185827840999992005041300004-07317-039300FM-12+040999999V0209999C000012200019N0020001N1+02311+02001101321ADDAA106000091GF101991011001017501021001MA1999999096651MD1999999+0151REMSYN088AAXX  13004 82784 32795 10000 10231 20200 39665 40132 81020 333 10318 29074 55072 58015;EQDQ01  00002PRCP06
0173827840999992005041312004-07317-039300FM-12+040999999V0200901N002610075019N0200001N1+02701+02201101391ADDAA106000091GF107991071021008001001001MA1999999096721MD1999999+0101REMSYN076AAXX  13124 82784 32598 70905 10270 20220 39672 40139 87200 333 20202 58010;EQDQ01  00002PRCP06
0167827840999992005041318004-07317-039300FM-12+040999999V0200901N000510450019N0200001N1+02981+02171101091ADDAA106000091GF106991041051008001031001MA1999999096441MD1999999+0131REMSYN070AAXX  13184 82784 32598 60901 10298 20217 39644 40109 84530 333 58013;EQDQ01  00002PRCP06
0185827840999992005041400004-07317-039300FM-12+040999999V0201801N001012200019N0020001N1+02401+02231101271ADDAA106000091GF101991011001017501021001MA1999999096611MD1999999-0041REMSYN088AAXX  14004 82784 32795 11802 10240 20223 39661 40127 81020 333 10312 29079 55074 59004;EQDQ01  00002PRCP06
0173827840999992005041412004-07317-039300FM-12+040999999V0201401N001510075019N0200001N1+02611+02231101371ADDAA106000091GF107991071041008001001001MA1999999096701MD1999999-0021REMSYN076AAXX  14124 82784 32598 71403 10261 20223 39670 40137 87400 333 20221 59002;EQDQ01  00002PRCP06
0167827840999992005041418004-07317-039300FM-12+040999999V0201401N002612200019N0200001N1+03081+02191100921ADDAA106000091GF104991031021008001031001MA1999999096301MD1999999-0141REMSYN070AAXX  14184 82784 32598 41405 10308 20219 39630 40092 83230 333 59014;EQDQ01  00002PRCP06
0179827840999992005041500004-07317-039300FM-12+040999999V0209999C000012200019N0020001N1+02461+02191101221ADDAA106000091GF100991001001999999001001MA1999999096561MD1999999-0051REMSYN082AAXX  15004 82784 32995 00000 10246 20219 39656 40122 333 10313 29077 55070 59005;EQDQ01  00002PRCP06
0173827840999992005041512004-07317-039300FM-12+040999999V0201401N001510075019N0200001N1+02661+02101101391ADDAA106000091GF108991081021008001999999MA1999999096731MD1999999+0031REMSYN076AAXX  15124 82784 32598 81403 10266 20210 39673 40139 882// 333 20234 58003;EQDQ01  00002PRCP06
0137827840999992005041518004-07317-039300FM-12+040999999V0201801N002112200019N0200001N1+03181+02101100991ADDGF104991031021008001031001MA1999999096371MD1999999+0071REMSYN070AAXX  15184 82784 23598 41804 10318 20210 39637 40099 83230 333 58007;
0185827840999992005041600004-07317-039300FM-12+040999999V0201801N001012200019N0020001N1+02601+02311101371ADDAA106000091GF104991041041008001001001MA1999999096721MD1999999+0161REMSYN088AAXX  16004 82784 32595 41802 10260 20231 39672 40137 84400 333 10326 29074 55092 58016;EQDQ01  00002PRCP06
0162827840999992005041612004-07317-039300FM-12+040999999V0200901N002110075019N0200001N1+02621+02121101501ADDAY161061AY211061GF107991051041008001031001MA1999999096841MW1021REMSYN087AAXX  16124 82784 21598 70904 10262 20212 39684 40150 70261 85430 333 20232 5801 60084;
0167827840999992005041618004-07317-039300FM-12+040999999V0200501N002612200019N0200001N1+03051+02271101081ADDAA106000091GF103991021021008001031001MA1999999096451MD1999999+0081REMSYN070AAXX  16184 82784 32598 30505 10305 20227 39645 40108 82230 333 58008;EQDQ01  00002PRCP06
0194827840999992005041712004-07320-039300FM-12+040999999V0200901N001510450019N0200001N1+02801+02181101331ADDAA124000391AY151061AY221061GF107991031021008001021001MA1999999096681MD1999999-0161MW1031REMSYN094AAXX  17124 82784 21598 70903 10280 20218 39668 40133 70352 83220 333 20238 59016 69934 10003;
0167827840999992005041718004-07320-039300FM-12+040999999V0200901N002610450019N0200001N1+03141+02181100981ADDAA106000091GF107991041021008001021011MA1999999096351MD1999999-0101REMSYN070AAXX  17184 82784 32598 70905 10314 20218 39635 40098 84221 333 59010;EQDQ01  00002PRCP06
0185827840999992005041800004-07317-039300FM-12+040999999V0209999C000010120019N0020001N1+02591+02381101251ADDAA106000091GF106991061081008001001001MA1999999096631MD1999999+0001REMSYN088AAXX  18004 82784 32595 60000 10259 20238 39663 40125 86800 333 10320 29075 55088 58000;EQDQ01  00002PRCP06
0173827840999992005041812004-07317-039300FM-12+040999999V0200501N001510450019N0200001N1+02731+02241101281ADDAA106000091GF105991031021008001021001MA1999999096631MD1999999-0051REMSYN076AAXX  18124 82784 32598 50503 10273 20224 39663 40128 83220 333 20225 59005;EQDQ01  00002PRCP06
0167827840999992005041818004-07317-039300FM-12+040999999V0200901N003112200019N0200001N1+03101+02091100841ADDAA106000091GF103991031011008001001001MA1999999096221MD1999999-0131REMSYN070AAXX  18184 82784 32598 30906 10310 20209 39622 40084 83100 333 59013;EQDQ01  00002PRCP06
0179827840999992005041900004-07317-039300FM-12+040999999V0201801N000512200019N0020001N1+02371+02191101151ADDAA106000091GF100991001001999999001001MA1999999096501MD1999999-0131REMSYN082AAXX  19004 82784 32995 01801 10237 20219 39650 40115 333 10319 29077 55098 59013;EQDQ01  00002PRCP06
0173827840999992005041912004-07317-039300FM-12+040999999V0201801N002110450019N0200001N1+02581+02121101361ADDAA106000091GF106991041021008001031001MA1999999096691MD1999999+0061REMSYN076AAXX  19124 82784 32598 61804 10258 20212 39669 40136 84230 333 20212 58006;EQDQ01  00002PRCP06
0167827840999992005041918004-07317-039300FM-12+040999999V0200901N001010450019N0200001N1+02991+02141100961ADDAA106000091GF108991021021008001031999MA1999999096331MD1999999+0111REMSYN070AAXX  19184 82784 32598 80902 10299 20214 39633 40096 8223/ 333 58011;EQDQ01  00002PRCP06
0185827840999992005042000004-07317-039300FM-12+040999999V0209999C000010450019N0020001N1+02451+02251101281ADDAA106000091GF105991011021008001031001MA1999999096621MD1999999+0121REMSYN088AAXX  20004 82784 32595 50000 10245 20225 39662 40128 81230 333 10307 29078 55071 58012;EQDQ01  00002PRCP06
0177827840999992005042012004-07317-039300FM-12+040999999V0200901N002610075019N0200001N1+02621+02191101431ADDAY161061AY221061GF107991999041008001001001MA1999999096761MD1999999+0071MW1021REMSYN088AAXX  20124 82784 21598 70905 10262 20219 39676 40143 70262 86400 333 20223 58007 60074;
0167827840999992005042018004-07317-039300FM-12+040999999V0200901N002112200019N0200001N1+03061+02141101031ADDAA106000091GF104991021021008001021001MA1999999096401MD1999999+0071REMSYN070AAXX  20184 82784 32598 40904 10306 20214 39640 40103 82220 333 58007;EQDQ01  00002PRCP06
0185827840999992005042100004-07317-039300FM-12+040999999V0209999C000012200019N0020001N1+02511+02361101351ADDAA106000091GF102991011011008001021001MA1999999096691MD1999999+0071REMSYN088AAXX  21004 82784 32595 20000 10251 20236 39669 40135 81120 333 10313 29080 55095 58007;EQDQ01  00002PRCP06
0173827840999992005042112004-07317-039300FM-12+040999999V0201401N002610450019N0200001N1+02701+02111101421ADDAA106000091GF106991011011008001011001MA1999999096761MD1999999+0001REMSYN076AAXX  21124 82784 32598 61405 10270 20211 39676 40142 81110 333 20230 58000;EQDQ01  00002PRCP06
0167827840999992005042118004-07317-039300FM-12+040999999V0200901N001510450019N0200001N1+03021+02131101031ADDAA106000091GF107991041021008001041001MA1999999096401MD1999999+0001REMSYN070AAXX  21184 82784 32598 70903 10302 20213 39640 40103 84240 333 58000;EQDQ01  00002PRCP06
0185827840999992005042200004-07317-039300FM-12+040999999V0209999C000010075019N0020001N1+02441+02271101241ADDAA106000091GF105991051061008001001001MA1999999096581MD1999999-0111REMSYN088AAXX  22004 82784 32595 50000 10244 20227 39658 40124 85600 333 10310 29077 55094 59011;EQDQ01  00002PRCP06
0173827840999992005042212004-07317-039300FM-12+040999999V0209999C000010450019N0200001N1+02531+02151101351ADDAA106000091GF108991021011008001021999MA1999999096681MD1999999-0081REMSYN076AAXX  22124 82784 32598 80000 10253 20215 39668 40135 8212/ 333 20208 59008;EQDQ01  00002PRCP06
0167827840999992005042218004-07317-039300FM-12+040999999V0201401N002110450019N0200001N1+02941+02141100951ADDAA106000091GF107991031011008001021001MA1999999096311MD1999999-0091REMSYN070AAXX  22184 82784 32598 71404 10294 20214 39631 40095 83120 333 59009;EQDQ01  00002PRCP06
0185827840999992005042300004-07317-039300FM-12+040999999V0201801N000512200019N0020001N1+02341+02171101371ADDAA106000091GF101991999011008001001001MA1999999096631MD1999999+0051REMSYN088AAXX  23004 82784 32595 11801 10234 20217 39663 40137 82100 333 10303 29080 55042 58005;EQDQ01  00002PRCP06
0173827840999992005042312004-07317-039300FM-12+040999999V0200901N002119999999N0200001N1+02701+02241101301ADDAA106000091GF108991999011008001001001MA1999999096641MD1999999+0011REMSYN076AAXX  23124 82784 32598 80904 10270 20224 39664 40130 81100 333 20201 58001;EQDQ01  00002PRCP06
0167827840999992005042318004-07317-039300FM-12+040999999V0201401N001519999999N0200001N1+03121+02221100871ADDAA106000091GF105991999021008001001001MA1999999096241MD1999999-0071REMSYN070AAXX  23184 82784 32598 51403 10312 20222 39624 40087 83200 333 59007;EQDQ01  00002PRCP06
0150827840999992005042400004-07320-039300FM-12+040999999V0209999C000012200019N0010001N1+02561+02271999999ADDAA106000091GF100991001001999999001001REMSYN082AAXX  24004 82784 32994 00000 10256 20227 10320 39649 40113 333 29076 55098 59014;EQDQ01  00002PRCP06
0173827840999992005042412004-07320-039300FM-12+040999999V0201401N002112200019N0200001N1+02741+02191101361ADDAA106000091GF107991031011008001001011MA1999999096711MD1999999+0041REMSYN076AAXX  24124 82784 32598 71404 10274 20219 39671 40136 83101 333 20218 58004;EQDQ01  00002PRCP06
0183827840999992005042418004-07320-039300FM-12+040999999V0200901N001519999999N0200001N1+03061+02171100941ADDAA106000091GF106991999011008001001001MA1999999096301MD1999999+0081REMSYN070AAXX  24184 82784 32598 60903 10306 20217 39630 40094 82100 333 58008;EQDQ01+000022SCOTLCQ02  00002PRCP06
0198827840999992005042500004-07317-039300FM-12+040999999V0201801N001019999999N0020001N1+02341+02031101231ADDAA106000091GF108991081001022501001011KA1240M+03141MA1999999096571MD1999999+0081REMSYN088AAXX  25004 82784 32895 81802 10234 20203 39657 40123 88001 333 10314 29074 55099 58008;EQDQ01  00002PRCP06
0202827840999992005042512004-07317-039300FM-12+040999999V0200901N002110120019N0200001N1+02631+02161101451ADDAA106000091GF107991071081008001001001KA1240N+99999MA1999999096781MD1999999+0011REMSYN076AAXX  25124 82784 32598 70904 10263 20216 39678 40145 87800 333 20269 58001;EQDQ01  00002PRCP06Q02 +02692ATMN  
0167827840999992005042518004-07317-039300FM-12+040999999V0201401N002610450019N0200001N1+03161+02261100981ADDAA106000091GF105991031021008001021001MA1999999096341MD1999999+0041REMSYN070AAXX  25184 82784 32598 51405 10316 20226 39634 40098 83220 333 58004;EQDQ01  00002PRCP06
0178827840999992005042600004-07317-039300FM-12+040999999V0202701N000510075019N0020001N1+02541+02191101321ADDAA106000091GF108991081071008001999999KA1240M+03241MA1999999096861REMSYN082AAXX  26004 82784 32595 82701 10254 20219 39686 40132 887// 333 10324 29074 55090;EQDQ01  00002PRCP06
0186827840999992005042612004-07317-039300FM-12+040999999V0200501N001012200019N0200001N1+02701+02151101431ADDAA106000091GF102991021021008001001001KA1240N+02161MA1999999096771MD1999999-0011REMSYN076AAXX  26124 82784 32598 20502 10270 20215 39677 40143 82200 333 20216 59001;EQDQ01  00002PRCP06
0167827840999992005042618004-07317-039300FM-12+040999999V0203601N001512200019N0200001N1+03221+02171100961ADDAA106000091GF103991021021008001071001MA1999999096341MD1999999+0001REMSYN070AAXX  26184 82784 32598 33603 10322 20217 39634 40096 82270 333 58000;EQDQ01  00002PRCP06
0198827840999992005042700004-07317-039300FM-12+040999999V0201801N000512200019N0020001N1+02471+02251101301ADDAA106000091GF101991011021008001001001KA1240M+03301MA1999999096651MD1999999-0011REMSYN088AAXX  27004 82784 32595 11801 10247 20225 39665 40130 81200 333 10330 29076 55099 59001;EQDQ01  00002PRCP06
0186827840999992005042712004-07317-039300FM-12+040999999V0200901N001010075019N0200001N1+02571+02251101421ADDAA106000091GF108991081061008001999999KA1240N+02361MA1999999096751MD1999999-0021REMSYN076AAXX  27124 82784 32598 80902 10257 20225 39675 40142 886// 333 20236 59002;EQDQ01  00002PRCP06
0167827840999992005042718004-07317-039300FM-12+040999999V0200501N000512200019N0200001N1+03121+02281100991ADDAA106000091GF102991021021008001001001MA1999999096361MD1999999+0021REMSYN070AAXX  27184 82784 32598 20501 10312 20228 39636 40099 82200 333 58002;EQDQ01  00002PRCP06
0198827840999992005042800004-07317-039300FM-12+040999999V0209999C000012200019N0020001N1+02541+02331101291ADDAA106000091GF101991011001017501021001KA1240M+03221MA1999999096631MD1999999-0021REMSYN088AAXX  28004 82784 32795 10000 10254 20233 39663 40129 81020 333 10322 29080 55064 59002;EQDQ01  00002PRCP06
0190827840999992005042812004-07317-039300FM-12+040999999V0201801N001010075019N0200001N1+02361+02241101611ADDAY161061AY221061GF108991081071008001999999KA1240N+02181MA1999999096931MD1999999+0141MW1021REMSYN088AAXX  28124 82784 21598 81802 10236 20224 39693 40161 70262 887// 333 20218 58014 60424;
0167827840999992005042818004-07317-039300FM-12+040999999V0203601N001510450019N0200001N1+02871+02351101161ADDAA106000091GF108991031021008001031999MA1999999096511MD1999999+0151REMSYN070AAXX  28184 82784 32598 83603 10287 20235 39651 40116 8323/ 333 58015;EQDQ01  00002PRCP06
0198827840999992005042900004-07317-039300FM-12+040999999V0209999C000012200019N0020001N1+02471+02301101441ADDAA106000091GF101991011021008001001001KA1240M+02971MA1999999096761MD1999999+0131REMSYN088AAXX  29004 82784 32595 10000 10247 20230 39676 40144 81200 333 10297 29087 55046 58013;EQDQ01  00002PRCP06
0190827840999992005042912004-07317-039300FM-12+040999999V0200901N001010042019N0200001N1+02591+02371101601ADDAY151061AY221061GF107991071051004501001001KA1240N+02261MA1999999096931MD1999999+0001MW1031REMSYN088AAXX  29124 82784 21498 70902 10259 20237 39693 40160 70352 87500 333 20226 58000 60014;
0171827840999992005042918004-07317-039300FM-12+040999999V0200901N001510450019N0200001N1+03001+02221101111ADDAY151061AY221061GF106991041021008001011001MA1999999096471MD1999999-0041MW1021REMSYN082AAXX  29184 82784 21598 60903 10300 20222 39647 40111 70252 84210 333 59004 69931;
0208827840999992005043000004-07317-039300FM-12+040999999V0201801N000512200019N0020001N1+02431+02301101491ADDAA106000091GA1001+999999999GF100991001001999999001001KA1240M+03091MA1999999096821MD1999999+0061REMSYN082AAXX  30004 82784 32995 01801 10243 20230 39682 40149 333 10309 29084 55073 58006;EQDQ01  00002PRCP06
0190827840999992005043012004-07317-039300FM-12+040999999V0200901N001510450019N0200001N1+02621+02271101561ADDAY161061AY221061GF106991041021008001011001KA1240N+02221MA1999999096881MD1999999-0051MW1021REMSYN088AAXX  30124 82784 21598 60903 10262 20227 39688 40156 70262 84210 333 20222 59005 60174;
0167827840999992005043018004-07317-039300FM-12+040999999V0200501N002610450019N0200001N1+02961+02281101131ADDAA106000091GF105991041021008001041001MA1999999096481MD1999999+0011REMSYN070AAXX  30184 82784 32598 50505 10296 20228 39648 40113 84240 333 58001;EQDQ01  00002PRCP06
0185827840999992005050100004-07320-039300FM-12+040999999V0209999C000012200019N0020001N1+02461+02371101521ADDAA106000091GF101991011011008001001001MA1999999096851MD1999999+0031REMSYN088AAXX  01004 82784 32595 10000 10246 20237 39685 40152 81100 333 10308 29084 55095 58003;EQDQ01  00002PRCP06
0173827840999992005050112004-07320-039300FM-12+040999999V0200501N001010075019N0200001N1+02501+02311101521ADDAA106000091GF107991071051008001001001MA1999999096851MD1999999+0031REMSYN076AAXX  01124 82784 32598 70502 10250 20231 39685 40152 87500 333 20224 58003;EQDQ01  00002PRCP06
0167827840999992005050118004-07320-039300FM-12+040999999V0203601N001010450019N0200001N1+02981+02201101221ADDAA106000091GF107991031031008001041001MA1999999096571MD1999999+0091REMSYN070AAXX  01184 82784 32598 73602 10298 20220 39657 40122 83340 333 58009;EQDQ01  00002PRCP06
0179827840999992005050200004-07320-039300FM-12+040999999V0209999C000012200019N0020001N1+02441+02301101351ADDAA106000091GF100991001001999999001001MA1999999096681MD1999999-0171REMSYN082AAXX  02004 82784 32995 00000 10244 20230 39668 40135 333 10309 29084 55047 59017;EQDQ01  00002PRCP06
0167827840999992005050218004-07317-039300FM-12+040999999V0200901N001510042019N0200001N1+02581+02291101291ADDAA106000091GF108991061051004501011999MA1999999096621MD1999999+0051REMSYN070AAXX  02184 82784 32498 80903 10258 20229 39662 40129 8651/ 333 58005;EQDQ01  00002PRCP06
0185827840999992005050300004-07317-039300FM-12+040999999V0209999C000010075019N0020001N1+02431+02231101531ADDAA106000091GF106991061091008001001001MA1999999096851MD1999999+0171REMSYN088AAXX  03004 82784 32595 60000 10243 20223 39685 40153 86900 333 10290 29090 55024 58017;EQDQ01  00002PRCP06
0149827840999992005050312004-07317-039300FM-12+040999999V0201401N001510075019N0200001N1+02581+02211101661ADDGF106991051021008001011001MA1999999097171MD1999999+0051REMSYN082AAXX  03124 82784 22598 61403 10258 20221 39717 40166 85210 333 20228 58005 69944;
0167827840999992005050318004-07317-039300FM-12+040999999V0200901N001510450019N0200001N1+02801+02131101331ADDAA106000091GF106991041021008001041041MA1999999096671MD1999999+0051REMSYN070AAXX  03184 82784 32598 60903 10280 20213 39667 40133 84244 333 58005;EQDQ01  00002PRCP06
0185827840999992005050400004-07317-039300FM-12+040999999V0201401N001510075019N0020001N1+02501+02131101611ADDAA106000091GF106991061041008001001001MA1999999096941MD1999999+0091REMSYN088AAXX  04004 82784 32595 61403 10250 20213 39694 40161 86400 333 10283 29077 55052 58009;EQDQ01  00002PRCP06
0173827840999992005050412004-07317-039300FM-12+040999999V0200501N001010075019N0200001N1+02531+02251101711ADDAA106000091GF108991081041008001001001MA1999999097031MD1999999-0141REMSYN076AAXX  04124 82784 32598 80502 10253 20225 39703 40171 88400 333 20222 59014;EQDQ01  00002PRCP06
0167827840999992005050418004-07317-039300FM-12+040999999V0201401N002610075019N0200001N1+02631+02121101401ADDAA106000091GF108991081061008001999999MA1999999096731MD1999999+0061REMSYN070AAXX  04184 82784 32598 81405 10263 20212 39673 40140 886// 333 58006;EQDQ01  00002PRCP06
0185827840999992005050500004-07317-039300FM-12+040999999V0209999C000010075019N0020001N1+02361+02191101741ADDAA106000091GF107991071041008001001001MA1999999097051MD1999999+0111REMSYN088AAXX  05004 82784 32595 70000 10236 20219 39705 40174 87400 333 10282 29083 55033 58011;EQDQ01  00002PRCP06
0173827840999992005050512004-07317-039300FM-12+040999999V0201801N002119999999N0200001N1+02341+02031101721ADDAA106000091GF108991041021008001999999MA1999999097021MD1999999-0011REMSYN076AAXX  05124 82784 32598 81804 10234 20203 39702 40172 842// 333 20218 59001;EQDQ01  00002PRCP06
0167827840999992005050518004-07317-039300FM-12+040999999V0200901N002110075019N0200001N1+02721+02101101281ADDAA106000091GF107991999041008001001001MA1999999096611MD1999999-0121REMSYN070AAXX  05184 82784 32598 70904 10272 20210 39661 40128 85400 333 59012;EQDQ01  00002PRCP06
0189827840999992005050600004-07317-039300FM-12+040999999V0200901N001010075019N0020001N1+02321+02091101601ADDAY121061AY221061GF105991051041008001001001MA1999999096911MD1999999-0141MW1201REMSYN100AAXX  06004 82784 21595 50902 10232 20209 39691 40160 72022 85400 333 10282 29082 55035 59014 69971;
0177827840999992005050612004-07317-039300FM-12+040999999V0201801N002610075019N0200001N1+02541+02151101671ADDAY161061AY221061GF107991071041008001001001MA1999999096981MD1999999-0041MW1021REMSYN088AAXX  06124 82784 21598 71805 10254 20215 39698 40167 70262 87400 333 20212 59004 60024;
0167827840999992005050618004-07317-039300FM-12+040999999V0201801N003110075019N0200001N1+02781+02111101271ADDAA106000091GF105991051021008001001001MA1999999096601MD1999999-0011REMSYN070AAXX  06184 82784 32598 51806 10278 20211 39660 40127 85200 333 59001;EQDQ01  00002PRCP06
0185827840999992005050700004-07317-039300FM-12+040999999V0200901N002110075019N0020001N1+02431+01971101541ADDAA106000091GF106991061041008001001001MA1999999096861MD1999999-0041REMSYN088AAXX  07004 82784 32595 60904 10243 20197 39686 40154 86400 333 10282 29074 55076 59004;EQDQ01  00002PRCP06
0173827840999992005050712004-07317-039300FM-12+040999999V0201401N003110075019N0200001N1+02531+02071101571ADDAA106000091GF106991061021008001001001MA1999999096891MD1999999-0091REMSYN076AAXX  07124 82784 32598 61406 10253 20207 39689 40157 86200 333 20222 59009;EQDQ01  00002PRCP06
0167827840999992005050718004-07317-039300FM-12+040999999V0200901N001510075019N0200001N1+02861+02091101221ADDAA106000091GF107991071051008001001001MA1999999096571MD1999999-0031REMSYN070AAXX  07184 82784 32598 70903 10286 20209 39657 40122 87500 333 59003;EQDQ01  00002PRCP06
0185827840999992005050800004-07320-039300FM-12+040999999V0200901N001512200019N0020001N1+02441+02091101511ADDAA106000091GF103991031041008001001001MA1999999096841MD1999999-0021REMSYN088AAXX  08004 82784 32595 30903 10244 20209 39684 40151 83400 333 10299 29076 55071 59002;EQDQ01  00002PRCP06
0177827840999992005050812004-07320-039300FM-12+040999999V0200901N002610075019N0200001N1+02621+02121101441ADDAY151061AY221061GF106991061021008001001001MA1999999096771MD1999999-0121MW1021REMSYN088AAXX  08124 82784 21598 60905 10262 20212 39677 40144 70252 86200 333 20209 59012 60014;
0167827840999992005050818004-07320-039300FM-12+040999999V0201801N001010075019N0200001N1+02841+02071101191ADDAA106000091GF108991081051008001999999MA1999999096531MD1999999-0041REMSYN070AAXX  08184 82784 32598 81802 10284 20207 39653 40119 885// 333 59004;EQDQ01  00002PRCP06
0185827840999992005050900004-07317-039300FM-12+040999999V0201401N001512200019N0020001N1+02321+01941101521ADDAA106000091GF102991021011008001001001MA1999999096841MD1999999+0001REMSYN088AAXX  09004 82784 32595 21403 10232 20194 39684 40152 82100 333 10303 29074 55076 58000;EQDQ01  00002PRCP06
0173827840999992005050912004-07317-039300FM-12+040999999V0201401N002610075019N0200001N1+02601+01961101581ADDAA106000091GF105991051021008001001001MA1999999096901MD1999999+0131REMSYN076AAXX  09124 82784 32598 51405 10260 20196 39690 40158 85200 333 20199 58013;EQDQ01  00002PRCP06
0167827840999992005050918004-07317-039300FM-12+040999999V0200901N001510075019N0200001N1+02901+01891101301ADDAA106000091GF105991051021008001001001MA1999999096651MD1999999-0121REMSYN070AAXX  09184 82784 32598 50903 10290 20189 39665 40130 85200 333 59012;EQDQ01  00002PRCP06
0179827840999992005051000004-07317-039300FM-12+040999999V0202301N001512200019N0020001N1+02211+02051101461ADDAA106000091GF100991001001999999001001MA1999999096781MD1999999-0061REMSYN082AAXX  10004 82784 32995 02303 10221 20205 39678 40146 333 10303 29077 55096 59006;EQDQ01  00002PRCP06
0173827840999992005051012004-07317-039300FM-12+040999999V0201401N001512200019N0200001N1+02721+02151101471ADDAA106000091GF102991021011008001001001MA1999999096791MD1999999-0111REMSYN076AAXX  10124 82784 32598 21403 10272 20215 39679 40147 82100 333 20200 59011;EQDQ01  00002PRCP06
0167827840999992005051018004-07317-039300FM-12+040999999V0200901N002110075019N0200001N1+03091+02061100871ADDAA106000091GF106991061011008001001001MA1999999096341MD1999999+0311REMSYN070AAXX  10184 82784 32598 60904 10309 20206 39634 40087 86100 333 58031;EQDQ01  00002PRCP06
0189827840999992005051100004-07317-039300FM-12+040999999V0201801N003110075019N0020001N1+02261+02191101471ADDAY121061AY221061GF108991081091008001999999MA1999999096801MD1999999+0021MW1211REMSYN100AAXX  11004 82784 21595 81806 10226 20219 39680 40147 72122 889// 333 10317 29079 55098 58002 60081;
0177827840999992005051112004-07317-039300FM-12+040999999V0201801N002110042019N0200001N1+02541+02131101531ADDAY161061AY221061GF106991061021004501001001MA1999999096851MD1999999+0061MW1021REMSYN088AAXX  11124 82784 21498 61804 10254 20213 39685 40153 70262 86200 333 20204 58006 60084;
0167827840999992005051118004-07317-039300FM-12+040999999V0201401N001010075019N0200001N1+02741+02121101171ADDAA106000091GF107991071051008001001001MA1999999096511MD1999999+0171REMSYN070AAXX  11184 82784 32598 71402 10274 20212 39651 40117 87500 333 58017;EQDQ01  00002PRCP06
0185827840999992005051200004-07317-039300FM-12+040999999V0201401N002110075019N0020001N1+02541+01811101451ADDAA106000091GF108991081091008001999999MA1999999096781MD1999999-0021REMSYN088AAXX  12004 82784 32595 81404 10254 20181 39678 40145 889// 333 10285 29069 55041 59002;EQDQ01  00002PRCP06
0177827840999992005051212004-07317-039300FM-12+040999999V0200901N004110075019N0200001N1+02601+02101101491ADDAY151061AY221061GF105991051021008001001001MA1999999096821MD1999999-0031MW1031REMSYN088AAXX  12124 82784 21598 50908 10260 20210 39682 40149 70352 85200 333 20224 59003 69924;
0167827840999992005051218004-07317-039300FM-12+040999999V0201801N002110075019N0200001N1+02901+02221101111ADDAA106000091GF106991061051008001001001MA1999999096471MD1999999-0041REMSYN070AAXX  12184 82784 32598 61804 10290 20222 39647 40111 86500 333 59004;EQDQ01  00002PRCP06
0185827840999992005051300004-07317-039300FM-12+040999999V0201401N001510120019N0020001N1+02431+02131101381ADDAA106000091GF107991071081008001001001MA1999999096711MD1999999-0071REMSYN088AAXX  13004 82784 32595 71403 10243 20213 39671 40138 87800 333 10299 29077 55071 59007;EQDQ01  00002PRCP06
0173827840999992005051312004-07317-039300FM-12+040999999V0200901N002610075019N0200001N1+02541+02131101481ADDAA106000091GF107991071051008001001001MA1999999096811MD1999999-0011REMSYN076AAXX  13124 82784 32598 70905 10254 20213 39681 40148 87500 333 20211 59001;EQDQ01  00002PRCP06
0167827840999992005051318004-07317-039300FM-12+040999999V0201801N004110075019N0200001N1+02801+02201101031ADDAA106000091GF107991051051008001001011MA1999999096381MD1999999-0091REMSYN070AAXX  13184 82784 32598 71808 10280 20220 39638 40103 85501 333 59009;EQDQ01  00002PRCP06
0185827840999992005051400004-07317-039300FM-12+040999999V0200901N001012200019N0020001N1+02521+02091101271ADDAA106000091GF104991041091008001001001MA1999999096611MD1999999-0101REMSYN088AAXX  14004 82784 32595 40902 10252 20209 39661 40127 84900 333 10303 29076 55055 59010;EQDQ01  00002PRCP06
0173827840999992005051412004-07317-039300FM-12+040999999V0200901N002610450019N0200001N1+02511+02051101371ADDAA106000091GF107991021041008001031001MA1999999096701MD1999999-0111REMSYN076AAXX  14124 82784 32598 70905 10251 20205 39670 40137 82430 333 20226 59011;EQDQ01  00002PRCP06
0167827840999992005051418004-07317-039300FM-12+040999999V0201801N003110075019N0200001N1+02851+01961101011ADDAA106000091GF108991081041008001999999MA1999999096731MD1999999-0011REMSYN070AAXX  14184 82784 32598 81806 10285 20196 39673 40101 884// 333 59001;EQDQ01  00002PRCP06
0185827840999992005051500004-07320-039300FM-12+040999999V0209999C000010075019N0020001N1+02401+02241101301ADDAA106000091GF108991081091008001999999MA1999999096631MD1999999+0021REMSYN088AAXX  15004 82784 32595 80000 10240 20224 39663 40130 889// 333 10299 29079 55050 58002;EQDQ01  00002PRCP06
0173827840999992005051512004-07320-039300FM-12+040999999V0200901N002612200019N0200001N1+02631+02031101291ADDAA106000091GF104991041021008001001001MA1999999096631MD1999999-0071REMSYN076AAXX  15124 82784 32598 40905 10263 20203 39663 40129 84200 333 20208 59007;EQDQ01  00002PRCP06
0167827840999992005051518004-07320-039300FM-12+040999999V0201401N002112200019N0200001N1+02961+02051100981ADDAA106000091GF102991021021008001001001MA1999999096341MD1999999-0031REMSYN070AAXX  15184 82784 32598 21404 10296 20205 39634 40098 82200 333 59003;EQDQ01  00002PRCP06
0185827840999992005051600004-07317-039300FM-12+040999999V0200501N001512200019N0020001N1+02331+02051101221ADDAA106000091GF101991999021008001001001MA1999999096561MD1999999-0071REMSYN088AAXX  16004 82784 32595 10503 10233 20205 39656 40122 85200 333 10305 29074 55101 59007;EQDQ01  00002PRCP06
0173827840999992005051612004-07317-039300FM-12+040999999V0201401N003110075019N0200001N1+02541+01981101391ADDAA106000091GF107991071021008001021001MA1999999096721MD1999999+0091REMSYN076AAXX  16124 82784 32598 71406 10254 20198 39672 40139 87220 333 20223 58009;EQDQ01  00002PRCP06
0167827840999992005051618004-07317-039300FM-12+040999999V0200901N002110075019N0200001N1+02781+02111100951ADDAA106000091GF108991081071008001999999MA1999999096311MD1999999-0031REMSYN070AAXX  16184 82784 32598 80904 10278 20211 39631 40095 887// 333 59003;EQDQ01  00002PRCP06
0189827840999992005051700004-07317-039300FM-12+040999999V0202701N000510075019N0020001N1+02311+02271101251ADDAY121061AY221061GF108991081091008001999999MA1999999096581MD1999999+0021MW1201REMSYN100AAXX  17004 82784 21595 82701 10231 20227 39658 40125 72022 889// 333 10292 29083 55040 58002 69991;
0177827840999992005051712004-07317-039300FM-12+040999999V0201401N002610450019N0200001N1+02641+02161101251ADDAY161061AY221061GF108991021021008001031999MA1999999096581MD1999999-0141MW1021REMSYN088AAXX  17124 82784 21598 81405 10264 20216 39658 40125 70262 8223/ 333 20219 59014 60114;
0167827840999992005051718004-07317-039300FM-12+040999999V0201801N002110075019N0200001N1+02841+02191100901ADDAA106000091GF108991071061008001021999MA1999999096261MD1999999-0051REMSYN070AAXX  17184 82784 32598 81804 10284 20219 39626 40090 8762/ 333 59005;EQDQ01  00002PRCP06
0185827840999992005051800004-07317-039300FM-12+040999999V0201801N000510075019N0020001N1+02441+02231101161ADDAA106000091GF107991071091008001001001MA1999999096511MD1999999-0071REMSYN088AAXX  18004 82784 32595 71801 10244 20223 39651 40116 87900 333 10291 29080 55081 59007;EQDQ01  00002PRCP06
0173827840999992005051812004-07317-039300FM-12+040999999V0201801N003112200019N0200001N1+02631+01981101181ADDAA106000091GF103991021021008001031001MA1999999096531MD1999999-0051REMSYN076AAXX  18124 82784 32598 31806 10263 20198 39653 40118 82230 333 20218 59005;EQDQ01  00002PRCP06
0167827840999992005051818004-07317-039300FM-12+040999999V0200901N003112200019N0200001N1+02941+02031100821ADDAA106000091GF104991041021008001001001MA1999999096191MD1999999-0071REMSYN070AAXX  18184 82784 32598 40906 10294 20203 39619 40082 84200 333 59007;EQDQ01  00002PRCP06
0185827840999992005051900004-07317-039300FM-12+040999999V0201401N001012200019N0020001N1+02341+02031101141ADDAA106000091GF102991021001008001021001MA1999999096481MD1999999-0031REMSYN088AAXX  19004 82784 32595 21402 10234 20203 39648 40114 82020 333 10303 29073 55103 59003;EQDQ01  00002PRCP06
0173827840999992005051912004-07317-039300FM-12+040999999V0200901N001512200019N0200001N1+02651+02071101221ADDAA106000091GF102991021001017501031001MA1999999096561MD1999999+0031REMSYN076AAXX  19124 82784 32798 20903 10265 20207 39656 40122 82030 333 20210 58003;EQDQ01  00002PRCP06
0167827840999992005051918004-07317-039300FM-12+040999999V0201401N002110075019N0200001N1+02991+02111100861ADDAA106000091GF107991051021008001031001MA1999999096231MD1999999+0041REMSYN070AAXX  19184 82784 32598 71404 10299 20211 39623 40086 85230 333 58004;EQDQ01  00002PRCP06
0185827840999992005052000004-07317-039300FM-12+040999999V0209999C000012200019N0020001N1+02301+02111101191ADDAA106000091GF102991021021008001001001MA1999999096531MD1999999+0051REMSYN088AAXX  20004 82784 32595 20000 10230 20211 39653 40119 82200 333 10310 29077 55089 58005;EQDQ01  00002PRCP06
0173827840999992005052012004-07317-039300FM-12+040999999V0200901N002110075019N0200001N1+02621+02121101401ADDAA106000091GF108991081041008001999999MA1999999096731MD1999999+0171REMSYN076AAXX  20124 82784 32598 80904 10262 20212 39673 40140 884// 333 20209 58017;EQDQ01  00002PRCP06
0167827840999992005052018004-07317-039300FM-12+040999999V0200901N002612200019N0200001N1+02961+02071100961ADDAA106000091GF103991031021008001001001MA1999999096331MD1999999+0101REMSYN070AAXX  20184 82784 32598 30905 10296 20207 39633 40096 83200 333 58010;EQDQ01  00002PRCP06
0185827840999992005052100004-07317-039300FM-12+040999999V0209999C000012200019N0020001N1+02321+02161101281ADDAA106000091GF102991011021008001031001MA1999999096651MD1999999+0081REMSYN088AAXX  21004 82784 32595 20000 10232 20216 39665 40128 81230 333 10307 29079 55071 58008;EQDQ01  00002PRCP06
0173827840999992005052112004-07317-039300FM-12+040999999V0200901N001010075019N0200001N1+02621+02251101501ADDAA106000091GF107991071071008001001001MA1999999096821MD1999999+0091REMSYN076AAXX  21124 82784 32598 70902 10262 20225 39682 40150 87700 333 20218 58009;EQDQ01  00002PRCP06
0167827840999992005052118004-07320-039300FM-12+040999999V0200501N001012200019N0200001N1+03041+02161101631ADDAA106000091GF104991041011008001001001MA1999999096821MD1999999+0171REMSYN070AAXX  21184 82784 32598 40502 10304 20216 39682 40163 84100 333 58017;EQDQ01  00002PRCP06
0201827840999992005052200004-07320-039300FM-12+040999999V0201801N000512200019N0020001N1+02351+02191101341ADDAA106000091GF103991999001017501021001MA1999999096671MD1999999+0061REMSYN088AAXX  22004 82784 32795 31801 10235 20219 39667 40134 82020 333 10304 29080 55058 58006;EQDQ01+000022SCOTLCQ02  00002PRCP06
0173827840999992005052212004-07320-039300FM-12+040999999V0200901N001510075019N0200001N1+02591+02271101421ADDAA106000091GF108991081051008001999999MA1999999096781MD1999999+0281REMSYN076AAXX  22124 82784 32598 80903 10259 20227 39678 40142 885// 333 20226 58028;EQDQ01  00002PRCP06
0167827840999992005052218004-07320-039300FM-12+040999999V0200901N001010450019N0200001N1+02921+02121101531ADDAA106000091GF107991031021008001041999MA1999999096861MD1999999+0361REMSYN070AAXX  22184 82784 32598 70902 10292 20212 39686 40153 8324/ 333 58036;EQDQ01  00002PRCP06
0185827840999992005052300004-07320-039300FM-12+040999999V0209999C000010450019N0020001N1+02341+02181101361ADDAA106000091GF108991011011008001011999MA1999999096691MD1999999+0021REMSYN088AAXX  23004 82784 32595 80000 10234 20218 39669 40136 8111/ 333 10303 29082 55032 58002;EQDQ01  00002PRCP06
0177827840999992005052312004-07320-039300FM-12+040999999V0200501N002110075019N0020001N1+02561+02291101461ADDAY161061AY221061GF107991071041008001001001MA1999999096781MD1999999+0001MW1021REMSYN088AAXX  23124 82784 21595 70504 10256 20229 39678 40146 70262 87400 333 20213 58000 60314;
0171827840999992005052318004-07320-039300FM-12+040999999V0200901N002110075019N0200001N1+02581+02331101031ADDAY151061AY221061GF108991081051008001999999MA1999999096471MD1999999-0391MW1021REMSYN082AAXX  23184 82784 21598 80904 10258 20233 39647 40103 70252 885// 333 59039 69921;
0189827840999992005052400004-07317-039300FM-12+040999999V0201801N001010450019N0020001N1+02321+02251101341ADDAY161061AY221061GF106991041041008001031001MA1999999096671MD1999999-0021MW1211REMSYN100AAXX  24004 82784 21595 61802 10232 20225 39667 40134 72162 84430 333 10295 29091 55018 59002 60011;
0149827840999992005052412004-07317-039300FM-12+040999999V0200901N001010150019N0200001N1+02521+02171101461ADDGF108991081001017501031999MA1999999096781MD1999999+0001REMSYN082AAXX  24124 82784 22798 80902 10252 20217 39678 40146 8803/ 333 20200 58000 60024;
0167827840999992005052418004-07317-039300FM-12+040999999V0200501N001010075019N0200001N1+02911+02271101101ADDAA106000091GF107991071021008001001001MA1999999096451MD1999999-0021REMSYN070AAXX  24184 82784 32598 70502 10291 20227 39645 40110 87200 333 59002;EQDQ01  00002PRCP06
0185827840999992005052500004-07317-039300FM-12+040999999V0200901N001510075019N0020001N1+02401+02211101461ADDAA106000091GF108991081041008001999999MA1999999096781MD1999999+0111REMSYN088AAXX  25004 82784 32595 80903 10240 20221 39678 40146 884// 333 10312 29082 55090 58011;EQDQ01  00002PRCP06
0173827840999992005052512004-07317-039300FM-12+040999999V0200501N001510075019N0200001N1+02521+02231101581ADDAA106000091GF108991081041008001999999MA1999999096901MD1999999+0121REMSYN076AAXX  25124 82784 32598 80503 10252 20223 39690 40158 884// 333 20210 58012;EQDQ01  00002PRCP06
0167827840999992005052518004-07317-039300FM-12+040999999V0200501N002612200019N0200001N1+03061+02051101161ADDAA106000091GF103991031021008001001001MA1999999096521MD1999999+0071REMSYN070AAXX  25184 82784 32598 30505 10306 20205 39652 40116 83200 333 58007;EQDQ01  00002PRCP06
0185827840999992005052600004-07317-039300FM-12+040999999V0201801N001012200019N0020001N1+02371+02221101491ADDAA106000091GF102991021021008001001001MA1999999096811MD1999999+0031REMSYN088AAXX  26004 82784 32595 21802 10237 20222 39681 40149 82200 333 10316 29080 55090 58003;EQDQ01  00002PRCP06
0177827840999992005052612004-07317-039300FM-12+040999999V0201801N001510075019N0200001N1+02631+02231101761ADDAY161061AY221061GF107991071021008001001001MA1999999097071MD1999999+0171MW1021REMSYN088AAXX  26124 82784 21598 71803 10263 20223 39707 40176 70262 87200 333 20223 58017 60074;
0167827840999992005052618004-07317-039300FM-12+040999999V0200901N001512200019N0200001N1+03001+02241101351ADDAA106000091GF103991021021008001001091MA1999999096701MD1999999+0181REMSYN070AAXX  26184 82784 32598 30903 10300 20224 39670 40135 82209 333 58018;EQDQ01  00002PRCP06
0179827840999992005052700004-07317-039300FM-12+040999999V0209999C000012200019N0020001N1+02391+02281101601ADDAA106000091GF100991001001999999001001MA1999999096921MD1999999+0111REMSYN082AAXX  27004 82784 32995 00000 10239 20228 39692 40160 333 10309 29082 55101 58011;EQDQ01  00002PRCP06
0173827840999992005052712004-07317-039300FM-12+040999999V0200901N003110075019N0200001N1+02601+02191101691ADDAA106000091GF107991071041008001001001MA1999999097011MD1999999-0061REMSYN076AAXX  27124 82784 32598 70906 10260 20219 39701 40169 87400 333 20214 59006;EQDQ01  00002PRCP06
0167827840999992005052718004-07317-039300FM-12+040999999V0201401N002112200019N0200001N1+03001+02141101261ADDAA106000091GF102991021021008001001001MA1999999096911MD1999999-0091REMSYN070AAXX  27184 82784 32598 21404 10300 20214 39691 40126 82200 333 59009;EQDQ01  00002PRCP06
0185827840999992005052800004-07317-039300FM-12+040999999V0201801N002612200019N0020001N1+02411+01931101611ADDAA106000091GF101991011011008001001001MA1999999096931MD1999999+0011REMSYN088AAXX  28004 82784 32595 11805 10241 20193 39693 40161 81100 333 10307 29072 55091 58001;EQDQ01  00002PRCP06
0173827840999992005052812004-07317-039300FM-12+040999999V0200901N002112200019N0200001N1+02541+01931101621ADDAA106000091GF101991011021008001001001MA1999999096941MD1999999-0071REMSYN076AAXX  28124 82784 32598 10904 10254 20193 39694 40162 81200 333 20204 59007;EQDQ01  00002PRCP06
0167827840999992005052818004-07317-039300FM-12+040999999V0201401N003612200019N0200001N1+02881+01941101241ADDAA106000091GF102991021021008001001001MA1999999096591MD1999999-0021REMSYN070AAXX  28184 82784 32598 21407 10288 20194 39659 40124 82200 333 59002;EQDQ01  00002PRCP06
0185827840999992005052900004-07320-039300FM-12+040999999V0201801N002112200019N0020001N1+02291+01771101441ADDAA106000091GF101991011011008001001001MA1999999096761MD1999999-0171REMSYN088AAXX  29004 82784 32595 11804 10229 20177 39676 40144 81100 333 10295 29068 55107 59017;EQDQ01  00002PRCP06
0173827840999992005052912004-07320-039300FM-12+040999999V0201801N003610075019N0200001N1+02461+01941101591ADDAA106000091GF106991061011008001001001MA1999999096911MD1999999-0031REMSYN076AAXX  29124 82784 32598 61807 10246 20194 39691 40159 86100 333 20208 59003;EQDQ01  00002PRCP06
0167827840999992005052918004-07320-039300FM-12+040999999V0201401N002110075019N0200001N1+02881+01891101221ADDAA106000091GF106991061021008001001001MA1999999096571MD1999999-0021REMSYN070AAXX  29184 82784 32598 61404 10288 20189 39657 40122 86200 333 59002;EQDQ01  00002PRCP06
0208827840999992005053000004-07317-039300FM-12+040999999V0201401N001012200019N0020001N1+02951+01741101481ADDAA106000091GA1001+999999999GF100991001001999999001001KA1240M+02951MA1999999096801MD1999999+0041REMSYN082AAXX  30004 82784 32995 01402 10295 20174 39680 40148 333 10295 29064 55106 58004;EQDQ01  00002PRCP06
0186827840999992005053012004-07317-039300FM-12+040999999V0201401N003112200019N0200001N1+02541+02041101641ADDAA106000091GF103991021021008001031001KA1240N+02581MA1999999096961MD1999999+0051REMSYN076AAXX  30124 82784 32598 31406 10254 20204 39696 40164 82230 333 20258 58005;EQDQ01  00002PRCP06
0167827840999992005053018004-07317-039300FM-12+040999999V0201801N002610075019N0200001N1+02761+02071101351ADDAA106000091GF105991051041008001001001MA1999999096681MD1999999+0111REMSYN070AAXX  30184 82784 32598 51805 10276 20207 39668 40135 85400 333 58011;EQDQ01  00002PRCP06
0198827840999992005053100004-07317-039300FM-12+040999999V0201401N001510075019N0020001N1+02411+01951101581ADDAA106000091GF107991071041008001001001KA1240M+02931MA1999999096901MD1999999+0101REMSYN088AAXX  31004 82784 32595 71403 10241 20195 39690 40158 87400 333 10293 29073 55078 58010;EQDQ01  00002PRCP06
0186827840999992005053112004-07317-039300FM-12+040999999V0201801N002610042019N0200001N1+02421+01881101591ADDAA106000091GF107991071021004501001001KA1240N+02051MA1999999096911MD1999999-0051REMSYN076AAXX  31124 82784 32498 71805 10242 20188 39691 40159 87200 333 20205 59005;EQDQ01  00002PRCP06
0167827840999992005053118004-07317-039300FM-12+040999999V0201401N002110075019N0200001N1+02841+02011101301ADDAA106000091GF107991071021008001001001MA1999999096641MD1999999-0041REMSYN070AAXX  31184 82784 32598 71404 10284 20201 39664 40130 87200 333 59004;EQDQ01  00002PRCP06
0185827840999992005060100004-07317-039300FM-12+040999999V0201401N001512200019N0020001N1+02421+02051101471ADDAA106000091GF101991011001017501021001MA1999999096791MD1999999-0111REMSYN088AAXX  01004 82784 32795 11403 10242 20205 39679 40147 81020 333 10295 29073 55076 59011;EQDQ01  00002PRCP06
0173827840999992005060112004-07317-039300FM-12+040999999V0201801N002110075019N0200001N1+02541+02061101571ADDAA106000091GF107991071021008001001001MA1999999096891MD1999999-0021REMSYN076AAXX  01124 82784 32598 71804 10254 20206 39689 40157 87200 333 20220 59002;EQDQ01  00002PRCP06
0167827840999992005060118004-07317-039300FM-12+040999999V0201801N001010075019N0200001N1+02701+02111101291ADDAA106000091GF108991081051008001999999MA1999999096621MD1999999-0021REMSYN070AAXX  01184 82784 32598 81802 10270 20211 39662 40129 885// 333 59002;EQDQ01  00002PRCP06
0179827840999992005060200004-07317-039300FM-12+040999999V0203201N001012200019N0020001N1+02261+01961101461ADDAA106000091GF100991001001999999001001MA1999999096781MD1999999-0011REMSYN082AAXX  02004 82784 32995 03202 10226 20196 39678 40146 333 10282 29078 55047 59001;EQDQ01  00002PRCP06
0173827840999992005060212004-07317-039300FM-12+040999999V0200901N002610075019N0200001N1+02591+02101101481ADDAA106000091GF108991081021008001001001MA1999999096801MD1999999-0091REMSYN076AAXX  02124 82784 32598 80905 10259 20210 39680 40148 88200 333 20212 59009;EQDQ01  00002PRCP06
0167827840999992005060218004-07317-039300FM-12+040999999V0201801N003110120019N0200001N1+02601+02031101371ADDAA106000091GF106991061081008001001001MA1999999096671MD1999999+0051REMSYN070AAXX  02184 82784 32598 61806 10260 20203 39667 40137 86800 333 58005;EQDQ01  00002PRCP06
0185827840999992005060300004-07317-039300FM-12+040999999V0201401N002610075019N0020001N1+02461+01851101561ADDAA106000091GF108991081041008001001001MA1999999096881MD1999999+0101REMSYN088AAXX  03004 82784 32595 81405 10246 20185 39688 40156 88400 333 10279 29071 55078 58010;EQDQ01  00002PRCP06
0177827840999992005060312004-07317-039300FM-12+040999999V0201401N002110075019N0200001N1+02421+01881101571ADDAY151061AY221061GF108991051061008001031999MA1999999096891MD1999999+0091MW1021REMSYN088AAXX  03124 82784 21598 81404 10242 20188 39689 40157 70252 8563/ 333 20213 58009 69944;
0167827840999992005060318004-07317-039300FM-12+040999999V0201401N002110150019N0200001N1+02811+01841101261ADDAA106000091GF106991061021017501001001MA1999999096601MD1999999-0071REMSYN070AAXX  03184 82784 32798 61404 10281 20184 39660 40126 86200 333 59007;EQDQ01  00002PRCP06
0185827840999992005060400004-07317-039300FM-12+040999999V0201401N002112200019N0020001N1+02421+01911101581ADDAA106000091GF102991021041008001001001MA1999999096891MD1999999+0011REMSYN088AAXX  04004 82784 32595 21404 10242 20191 39689 40158 82400 333 10294 29068 55060 58001;EQDQ01  00002PRCP06
0173827840999992005060412004-07320-039300FM-12+040999999V0201801N001512200019N0200001N1+02531+01831101601ADDAA106000091GF101991011021008001001001MA1999999096921MD1999999+0031REMSYN076AAXX  04124 82784 32598 11803 10253 20183 39692 40160 81200 333 20208 58003;EQDQ01  00002PRCP06
0167827840999992005060418004-07320-039300FM-12+040999999V0200901N002612200019N0200001N1+02931+01661101211ADDAA106000091GF101991999011017501001001MA1999999096561MD1999999-0041REMSYN070AAXX  04184 82784 32798 10905 10293 20166 39656 40121 82100 333 59004;EQDQ01  00002PRCP06
0179827840999992005060500004-07320-039300FM-12+040999999V0201801N001012200019N0020001N1+02151+01821101541ADDAA106000091GF100991001001999999001001MA1999999096851MD1999999-0041REMSYN082AAXX  05004 82784 32995 01802 10215 20182 39685 40154 333 10303 29068 55099 59004;EQDQ01  00002PRCP06
0173827840999992005060512004-07317-039300FM-12+040999999V0201801N003110075019N0200001N1+02481+02011101591ADDAA106000091GF106991061021008001001001MA1999999096891MD1999999+0071REMSYN076AAXX  05124 82784 32598 61806 10248 20201 39689 40159 86200 333 20205 58007;EQDQ01  00002PRCP06
0167827840999992005060518004-07317-039300FM-12+040999999V0201801N002110075019N0200001N1+02721+02051101261ADDAA106000091GF107991071021008001001001MA1999999096591MD1999999+0031REMSYN070AAXX  05184 82784 32598 71804 10272 20205 39659 40126 87200 333 58003;EQDQ01  00002PRCP06
0185827840999992005060600004-07317-039300FM-12+040999999V0200901N001012200019N0020001N1+02441+01901101491ADDAA106000091GF102991021011008001001001MA1999999096811MD1999999+0041REMSYN088AAXX  06004 82784 32595 20902 10244 20190 39681 40149 82100 333 10279 29072 55022 58004;EQDQ01  00002PRCP06
0173827840999992005060612004-07317-039300FM-12+040999999V0201401N003112200019N0200001N1+02501+01771101531ADDAA106000091GF102991021011008001001001MA1999999096851MD1999999-0041REMSYN076AAXX  06124 82784 32598 21406 10250 20177 39685 40153 82100 333 20202 59004;EQDQ01  00002PRCP06
0167827840999992005060618004-07317-039300FM-12+040999999V0201801N002110150019N0200001N1+02901+01811101161ADDAA106000091GF106991061001017501051001MA1999999096511MD1999999-0071REMSYN070AAXX  06184 82784 32798 61804 10290 20181 39651 40116 86050 333 59007;EQDQ01  00002PRCP06
0185827840999992005060700004-07317-039300FM-12+040999999V0201801N000519999999N0020001N1+02461+02011101421ADDAA106000091GF108991999011008001001001MA1999999096751MD1999999-0061REMSYN088AAXX  07004 82784 32595 81801 10246 20201 39675 40142 82100 333 10289 29067 55089 59006;EQDQ01  00002PRCP06
0173827840999992005060712004-07317-039300FM-12+040999999V0201801N003110150019N0200001N1+02571+01821101471ADDAA106000091GF106991061001017501031001MA1999999096801MD1999999-0051REMSYN076AAXX  07124 82784 32798 61806 10257 20182 39680 40147 86030 333 20218 59005;EQDQ01  00002PRCP06
0167827840999992005060718004-07317-039300FM-12+040999999V0201401N002610075019N0200001N1+02961+01871101081ADDAA106000091GF108991081041008001999999MA1999999096441MD1999999-0081REMSYN070AAXX  07184 82784 32598 81405 10296 20187 39644 40108 884// 333 59008;EQDQ01  00002PRCP06
0185827840999992005060800004-07317-039300FM-12+040999999V0200901N000510075019N0020001N1+02581+02061101391ADDAA106000091GF107991071041008001001001MA1999999096731MD1999999-0021REMSYN088AAXX  08004 82784 32595 70901 10258 20206 39673 40139 87400 333 10307 29065 55067 59002;EQDQ01  00002PRCP06
0173827840999992005060812004-07317-039300FM-12+040999999V0201801N002610075019N0200001N1+02391+01771101671ADDAA106000091GF106991061071008001001001MA1999999096991MD1999999-0191REMSYN076AAXX  08124 82784 32598 61805 10239 20177 39699 40167 86700 333 20218 59019;EQDQ01  00002PRCP06
0167827840999992005060818004-07317-039300FM-12+040999999V0200901N001012200019N0200001N1+02891+01901101231ADDAA106000091GF103991021011008001011001MA1999999096581MD1999999+0141REMSYN070AAXX  08184 82784 32598 30902 10289 20190 39658 40123 82110 333 58014;EQDQ01  00002PRCP06
0179827840999992005060900004-07317-039300FM-12+040999999V0202301N001012200019N0020001N1+02161+01681101601ADDAA106000091GF100991001001999999001001MA1999999096901MD1999999+0171REMSYN082AAXX  09004 82784 32995 02302 10216 20168 39690 40160 333 10299 29072 55073 58017;EQDQ01  00002PRCP06
0173827840999992005060912004-07317-039300FM-12+040999999V0201801N004110075019N0200001N1+02481+01941101751ADDAA106000091GF106991061021008001001001MA1999999097051MD1999999+0061REMSYN076AAXX  09124 82784 32598 61808 10248 20194 39705 40175 86200 333 20212 58006;EQDQ01  00002PRCP06
0167827840999992005060918004-07317-039300FM-12+040999999V0201801N002110075019N0200001N1+02751+01801101421ADDAA106000091GF107991051021008001011001MA1999999096751MD1999999+0171REMSYN070AAXX  09184 82784 32598 71804 10275 20180 39675 40142 85210 333 58017;EQDQ01  00002PRCP06
0179827840999992005061000004-07317-039300FM-12+040999999V0201801N001512200019N0020001N1+02181+01561101691ADDAA106000091GF100991001001999999001001MA1999999096991MD1999999+0091REMSYN082AAXX  10004 82784 32995 01803 10218 20156 39699 40169 333 10285 29066 55047 58009;EQDQ01  00002PRCP06
0173827840999992005061012004-07317-039300FM-12+040999999V0201801N003112200019N0200001N1+02381+01781101661ADDAA106000091GF102991021011008001001001MA1999999096961MD1999999-0091REMSYN076AAXX  10124 82784 32598 21806 10238 20178 39696 40166 82100 333 20182 59009;EQDQ01  00002PRCP06
0167827840999992005061018004-07317-039300FM-12+040999999V0201801N003612200019N0200001N1+02881+01731101301ADDAA106000091GF102991021011008001001001MA1999999096631MD1999999-0121REMSYN070AAXX  10184 82784 32598 21807 10288 20173 39663 40130 82100 333 59012;EQDQ01  00002PRCP06
0179827840999992005061100004-07317-039300FM-12+040999999V0200901N001512200019N0020001N1+02281+01881101601ADDAA106000091GF100991001001999999001001MA1999999096911MD1999999-0081REMSYN082AAXX  11004 82784 32995 00903 10228 20188 39691 40160 333 10297 29069 55107 59008;EQDQ01  00002PRCP06
0173827840999992005061112004-07317-039300FM-12+040999999V0201801N004112200019N0200001N1+02461+01911101651ADDAA106000091GF102991021011008001001001MA1999999096951MD1999999-0011REMSYN076AAXX  11124 82784 32598 21808 10246 20191 39695 40165 82100 333 20205 59001;EQDQ01  00002PRCP06
0167827840999992005061118004-07317-039300FM-12+040999999V0201801N002610075019N0200001N1+02821+01861101241ADDAA106000091GF106991061011008001001001MA1999999096581MD1999999-0051REMSYN070AAXX  11184 82784 32598 61805 10282 20186 39658 40124 86100 333 59005;EQDQ01  00002PRCP06
0185827840999992005061200004-07320-039300FM-12+040999999V0201801N000512200019N0020001N1+02341+01981101511ADDAA106000091GF101991011041008001001001MA1999999096831MD1999999-0081REMSYN088AAXX  12004 82784 32595 11801 10234 20198 39683 40151 81400 333 10291 29072 55081 59008;EQDQ01  00002PRCP06
0173827840999992005061212004-07320-039300FM-12+040999999V0201801N002110075019N0200001N1+02501+02031101511ADDAA106000091GF106991061021008001001001MA1999999096911MD1999999-0041REMSYN076AAXX  12124 82784 32598 61804 10250 20203 39691 40151 86200 333 20220 59004;EQDQ01  00002PRCP06
0167827840999992005061218004-07320-039300FM-12+040999999V0201401N002610075019N0200001N1+02841+02091101231ADDAA106000091GF107991071051008001001001MA1999999096581MD1999999+0001REMSYN070AAXX  12184 82784 32598 71405 10284 20209 39658 40123 87500 333 58000;EQDQ01  00002PRCP06
0185827840999992005061300004-07317-039300FM-12+040999999V0201401N003119999999N0020001N1+02521+02021101481ADDAA106000091GF108991081999999999999999MA1999999096811MD1999999-0021REMSYN088AAXX  13004 82784 32/95 81406 10252 20202 39681 40148 88/// 333 10295 29072 55034 59002;EQDQ01  00002PRCP06
0177827840999992005061312004-07317-039300FM-12+040999999V0201401N002110075019N0020001N1+02481+01941101911ADDAY151061AY221061GF105991051021008001001001MA1999999096931MD1999999+0021MW1021REMSYN088AAXX  13124 82784 21595 51404 10248 20194 39693 40191 70252 85200 333 20204 58002 69964;
0167827840999992005061318004-07317-039300FM-12+040999999V0201401N001510075019N0200001N1+02821+02151101261ADDAA106000091GF108991081041008001999999MA1999999096601MD1999999+0021REMSYN070AAXX  13184 82784 32598 81403 10282 20215 39660 40126 884// 333 58002;EQDQ01  00002PRCP06
0189827840999992005061400004-07317-039300FM-12+040999999V0201401N001510120019N0020001N1+02311+02111101531ADDAY121061AY221061GF106991061081008001001001MA1999999096851MD1999999+0041MW1201REMSYN100AAXX  14004 82784 21595 61403 10231 20211 39685 40153 72022 86800 333 10290 29079 55054 58004 69941;
0177827840999992005061412004-07317-039300FM-12+040999999V0201401N001010075019N0200001N1+02541+02231101641ADDAY151061AY221061GF108991081041008001999999MA1999999096951MD1999999+0021MW1021REMSYN088AAXX  14124 82784 21598 81402 10254 20223 39695 40164 70252 884// 333 20216 58002 69964;
0167827840999992005061418004-07317-039300FM-12+040999999V0201401N001519999999N0200001N1+02921+02171101311ADDAA106000091GF107991999071008001001001MA1999999096651MD1999999+0051REMSYN070AAXX  14184 82784 32598 71403 10292 20217 39665 40131 88700 333 58005;EQDQ01  00002PRCP06
0185827840999992005061500004-07317-039300FM-12+040999999V0201401N001010120019N0020001N1+02421+02131101711ADDAA106000091GF107991061081008001031001MA1999999097031MD1999999+0181REMSYN088AAXX  15004 82784 32595 71402 10242 20213 39703 40171 86830 333 10304 29079 55067 58018;EQDQ01  00002PRCP06
0173827840999992005061512004-07317-039300FM-12+040999999V0201401N003110075019N0200001N1+02581+02061101811ADDAA106000091GF108991081021008001999999MA1999999097121MD1999999+0171REMSYN076AAXX  15124 82784 32598 81406 10258 20206 39712 40181 882// 333 20216 58017;EQDQ01  00002PRCP06
0167827840999992005061518004-07317-039300FM-12+040999999V0201801N003112200019N0200001N1+02981+02121101311ADDAA106000091GF102991021021008001001001MA1999999096651MD1999999+0001REMSYN070AAXX  15184 82784 32598 21806 10298 20212 39665 40131 82200 333 58000;EQDQ01  00002PRCP06
0179827840999992005061600004-07317-039300FM-12+040999999V0201401N001512200019N0020001N1+02411+01951101581ADDAA106000091GF100991001001999999001001MA1999999096901MD1999999-0131REMSYN082AAXX  16004 82784 32995 01403 10241 20195 39690 40158 333 10304 29071 55074 59013;EQDQ01  00002PRCP06
0173827840999992005061612004-07317-039300FM-12+040999999V0201401N002612200019N0200001N1+02531+01861101661ADDAA106000091GF101991011011008001001001MA1999999096971MD1999999-0151REMSYN076AAXX  16124 82784 32598 11405 10253 20186 39697 40166 81100 333 20208 59015;EQDQ01  00002PRCP06
0167827840999992005061618004-07317-039300FM-12+040999999V0201401N003112200019N0200001N1+02981+01951101301ADDAA106000091GF102991021021008001001001MA1999999096651MD1999999+0001REMSYN070AAXX  16184 82784 32598 21406 10298 20195 39665 40130 82200 333 58000;EQDQ01  00002PRCP06
0185827840999992005061700004-07317-039300FM-12+040999999V0201801N003119999999N0020001N1+02481+02051101561ADDAA106000091GF106991999081008001001001MA1999999096881MD1999999-0021REMSYN088AAXX  17004 82784 32595 61806 10248 20205 39688 40156 88800 333 10306 29068 55106 59002;EQDQ01  00002PRCP06
0177827840999992005061712004-07317-039300FM-12+040999999V0201401N001510075019N0200001N1+02521+02051101711ADDAY151061AY221061GF105991051021008001001001MA1999999097031MD1999999+0061MW1021REMSYN088AAXX  17124 82784 21598 51403 10252 20205 39703 40171 70252 85200 333 20208 58006 69984;
0167827840999992005061718004-07317-039300FM-12+040999999V0201801N002110075019N0200001N1+02871+02031101271ADDAA106000091GF108991081041008001999999MA1999999096611MD1999999-0041REMSYN070AAXX  17184 82784 32598 81804 10287 20203 39661 40127 884// 333 59004;EQDQ01  00002PRCP06
0185827840999992005061800004-07317-039300FM-12+040999999V0201801N000510120019N0020001N1+02501+02071101561ADDAA106000091GF107991071081008001001001MA1999999096881MD1999999+0001REMSYN088AAXX  18004 82784 32595 71801 10250 20207 39688 40156 87800 333 10301 29072 55061 58000;EQDQ01  00002PRCP06
0173827840999992005061812004-07317-039300FM-12+040999999V0201401N001010075019N0200001N1+02551+02061101681ADDAA106000091GF107991061021008001051001MA1999999097001MD1999999-0031REMSYN076AAXX  18124 82784 32598 71402 10255 20206 39700 40168 86250 333 20215 59003;EQDQ01  00002PRCP06
0167827840999992005061818004-07317-039300FM-12+040999999V0200901N002110075019N0200001N1+02901+02101101271ADDAA106000091GF107991051051008001041001MA1999999096561MD1999999+0011REMSYN070AAXX  18184 82784 32598 70904 10290 20210 39656 40127 85540 333 58001;EQDQ01  00002PRCP06
0189827840999992005061900004-07320-039300FM-12+040999999V0201801N001010075019N0020001N1+02371+02241101601ADDAY121061AY221061GF107991071091008001001001MA1999999096921MD1999999+0041MW1201REMSYN100AAXX  19004 82784 21595 71802 10237 20224 39692 40160 72022 87900 333 10307 29080 55060 58004 60031;
0149827840999992005061912004-07320-039300FM-12+040999999V0200901N001010075019N0200001N1+02541+02151101661ADDGF107991071021008001001001MA1999999096981MD1999999-0021REMSYN082AAXX  19124 82784 22598 70902 10254 20215 39698 40166 87200 333 20222 59002 60034;
0167827840999992005061918004-07320-039300FM-12+040999999V0200901N002110075019N0200001N1+02901+01831101251ADDAA106000091GF106991061051008001001001MA1999999096601MD1999999-0021REMSYN070AAXX  19184 82784 32598 60904 10290 20183 39660 40125 86500 333 59002;EQDQ01  00002PRCP06
0179827840999992005062000004-07320-039300FM-12+040999999V0209999C000012200019N0020001N1+02361+01991101481ADDAA106000091GF100991001001999999001001MA1999999096801MD1999999-0121REMSYN082AAXX  20004 82784 32995 00000 10236 20199 39680 40148 333 10306 29074 55062 59012;EQDQ01  00002PRCP06
0173827840999992005062012004-07320-039300FM-12+040999999V0201401N001512200019N0200001N1+02621+02121101701ADDAA106000091GF102991021021008001001001MA1999999097021MD1999999+0041REMSYN076AAXX  20124 82784 32598 21403 10262 20212 39702 40170 82200 333 20184 58004;EQDQ01  00002PRCP06
0167827840999992005062018004-07317-039300FM-12+040999999V0201401N003112200019N0200001N1+03001+01841101261ADDAA106000091GF102991021021008001001001MA1999999096591MD1999999-0011REMSYN070AAXX  20184 82784 32598 21406 10300 20184 39659 40126 82200 333 59001;EQDQ01  00002PRCP06
0185827840999992005062100004-07317-039300FM-12+040999999V0209999C000010075019N0020001N1+02491+02211101541ADDAA106000091GF106991061041008001001001MA1999999096871MD1999999+0071REMSYN088AAXX  21004 82784 32595 60000 10249 20221 39687 40154 86400 333 10313 29074 55100 58007;EQDQ01  00002PRCP06
0173827840999992005062112004-07317-039300FM-12+040999999V0200901N002112200019N0200001N1+02621+02051101761ADDAA106000091GF106991031011008001001011MA1999999097081MD1999999+0061REMSYN076AAXX  21124 82784 32598 60904 10262 20205 39708 40176 83101 333 20223 58006;EQDQ01  00002PRCP06
0167827840999992005062118004-07317-039300FM-12+040999999V0201401N003610075019N0200001N1+03081+01851101291ADDAA106000091GF106991061011008001001001MA1999999096681MD1999999-0011REMSYN070AAXX  21184 82784 32598 61407 10308 20185 39668 40129 86100 333 59001;EQDQ01  00002PRCP06
0185827840999992005062200004-07317-039300FM-12+040999999V0201801N001512200019N0020001N1+02401+02031101521ADDAA106000091GF103991021021008001021001MA1999999096851MD1999999-0021REMSYN088AAXX  22004 82784 32595 31803 10240 20203 39685 40152 82220 333 10317 29070 55099 59002;EQDQ01  00002PRCP06
0177827840999992005062212004-07317-039300FM-12+040999999V0201401N002112200019N0200001N1+02561+02061101651ADDAY151061AY211061GF103991031011008001001001MA1999999096971MD1999999-0111MW1021REMSYN088AAXX  22124 82784 21598 31404 10256 20206 39697 40165 70251 83100 333 20208 59011 69934;
0167827840999992005062218004-07317-039300FM-12+040999999V0201401N002110075019N0200001N1+02881+02031101331ADDAA106000091GF106991061021008001001001MA1999999096671MD1999999-0011REMSYN070AAXX  22184 82784 32598 61404 10288 20203 39667 40133 86200 333 59001;EQDQ01  00002PRCP06
0179827840999992005062300004-07317-039300FM-12+040999999V0201801N002112200019N0020001N1+02461+01941101611ADDAA106000091GF100991001001999999001001MA1999999096931MD1999999+0081REMSYN082AAXX  23004 82784 32995 01804 10246 20194 39693 40161 333 10305 29070 55096 58008;EQDQ01  00002PRCP06
0173827840999992005062312004-07317-039300FM-12+040999999V0200901N003110075019N0200001N1+02571+01901101681ADDAA106000091GF106991061011008001001001MA1999999097001MD1999999+0011REMSYN076AAXX  23124 82784 32598 60906 10257 20190 39700 40168 86100 333 20210 58001;EQDQ01  00002PRCP06
0167827840999992005062318004-07317-039300FM-12+040999999V0201801N003610450019N0200001N1+02731+01851101451ADDAA106000091GF105991041011008001051001MA1999999096781MD1999999+0111REMSYN070AAXX  23184 82784 32598 51807 10273 20185 39678 40145 84150 333 58011;EQDQ01  00002PRCP06
0185827840999992005062400004-07317-039300FM-12+040999999V0202301N000512200019N0020001N1+02121+01821101711ADDAA106000091GF101991011041008001001001MA1999999097011MD1999999+0081REMSYN088AAXX  24004 82784 32595 12301 10212 20182 39701 40171 81400 333 10289 29073 55097 58008;EQDQ01  00002PRCP06
0173827840999992005062412004-07317-039300FM-12+040999999V0201801N002612200019N0200001N1+02581+01801101731ADDAA106000091GF102991021001017501031001MA1999999097031MD1999999+0031REMSYN076AAXX  24124 82784 32798 21805 10258 20180 39703 40173 82030 333 20193 58003;EQDQ01  00002PRCP06
0167827840999992005062418004-07317-039300FM-12+040999999V0200901N001512200019N0200001N1+02971+01781101271ADDAA106000091GF103991011011008001031001MA1999999096621MD1999999-0131REMSYN070AAXX  24184 82784 32598 30903 10297 20178 39662 40127 81130 333 59013;EQDQ01  00002PRCP06
0185827840999992005062500004-07317-039300FM-12+040999999V0201401N001010120019N0020001N1+02521+01931101531ADDAA106000091GF107991051081008001031001MA1999999096861MD1999999-0151REMSYN088AAXX  25004 82784 32595 71402 10252 20193 39686 40153 85830 333 10313 29062 55080 59015;EQDQ01  00002PRCP06
0173827840999992005062512004-07317-039300FM-12+040999999V0201801N001510075019N0200001N1+02461+02071101631ADDAA106000091GF108991081041008001999999MA1999999096951MD1999999-0081REMSYN076AAXX  25124 82784 32598 81803 10246 20207 39695 40163 884// 333 20222 59008;EQDQ01  00002PRCP06
0167827840999992005062518004-07317-039300FM-12+040999999V0201801N002110075019N0200001N1+02821+02021101251ADDAA106000091GF108991081041008001999999MA1999999096601MD1999999-0021REMSYN070AAXX  25184 82784 32598 81804 10282 20202 39660 40125 884// 333 59002;EQDQ01  00002PRCP06
0185827840999992005062600004-07320-039300FM-12+040999999V0201801N003610075019N0200001N1+02431+01951101551ADDAA106000091GF108991081061008001999999MA1999999096871MD1999999+0051REMSYN088AAXX  26004 82784 32598 81807 10243 20195 39687 40155 886// 333 10307 29073 55035 58005;EQDQ01  00002PRCP06
0173827840999992005062612004-07320-039300FM-12+040999999V0201401N002110120019N0200001N1+02361+01991101621ADDAA106000091GF108991081081008001999999MA1999999096931MD1999999-0021REMSYN076AAXX  26124 82784 32598 81404 10236 20199 39693 40162 888// 333 20204 59002;EQDQ01  00002PRCP06
0167827840999992005062618004-07320-039300FM-12+040999999V0201401N002110120019N0200001N1+02921+01981101291ADDAA106000091GF108991081081008001999999MA1999999096641MD1999999+0041REMSYN070AAXX  26184 82784 32598 81404 10292 20198 39664 40129 888// 333 58004;EQDQ01  00002PRCP06
0214827840999992005062700004-07317-039300FM-12+040999999V0209999C000012200019N0020001N1+02281+02051101511ADDAA106000091GF102991999021008001001001KA1240M+02991MA1999999096821MD1999999-0051REMSYN088AAXX  27004 82784 32595 20000 10228 20205 39682 40151 83200 333 10299 29078 55041 59005;EQDQ01+000032SCOTLCQ02  00002PRCP06
0186827840999992005062712004-07317-039300FM-12+040999999V0201401N003112200019N0200001N1+02551+01881101691ADDAA106000091GF102991021021008001001001KA1240N+02181MA1999999097001MD1999999+0071REMSYN076AAXX  27124 82784 32598 21406 10255 20188 39700 40169 82200 333 20218 58007;EQDQ01  00002PRCP06
0167827840999992005062718004-07317-039300FM-12+040999999V0201801N003610075019N0200001N1+02851+01991101341ADDAA106000091GF108991081051008001999999MA1999999096681MD1999999+0041REMSYN070AAXX  27184 82784 32598 81807 10285 20199 39668 40134 885// 333 58004;EQDQ01  00002PRCP06
0202827840999992005062800004-07317-039300FM-12+040999999V0201401N001510075019N0020001N1+02271+02111101671ADDAY121061AY221061GF108991081091008001999999KA1240M+03061MA1999999096981MD1999999+0161MW1601REMSYN100AAXX  28004 82784 21595 81403 10227 20211 39698 40167 76022 889// 333 10306 29077 55080 58016 60011;
0190827840999992005062812004-07317-039300FM-12+040999999V0201401N002610075019N0200001N1+02441+01951101791ADDAY161061AY221061GF106991061021008001001001KA1240N+02041MA1999999097091MD1999999+0091MW1021REMSYN088AAXX  28124 82784 21598 61405 10244 20195 39709 40179 70262 86200 333 20204 58009 60124;
0167827840999992005062818004-07317-039300FM-12+040999999V0201801N004112200019N0200001N1+02831+01801101401ADDAA106000091GF104991041021008001001001MA1999999096731MD1999999+0051REMSYN070AAXX  28184 82784 32598 41808 10283 20180 39673 40140 84200 333 58005;EQDQ01  00002PRCP06
0208827840999992005062900004-07317-039300FM-12+040999999V0209999C000012200019N0020001N1+02191+01861101701ADDAA106000091GA1001+999999999GF100991001001999999001001KA1240M+02911MA1999999097001MD1999999+0021REMSYN082AAXX  29004 82784 32995 00000 10219 20186 39700 40170 333 10291 29072 55086 58002;EQDQ01  00002PRCP06
0186827840999992005062912004-07317-039300FM-12+040999999V0201401N003610075019N0200001N1+02541+01861101651ADDAA106000091GF106991061021008001001001KA1240N+02121MA1999999096951MD1999999-0141REMSYN076AAXX  29124 82784 32598 61407 10254 20186 39695 40165 86200 333 20212 59014;EQDQ01  00002PRCP06
0198827840999992005063000004-07317-039300FM-12+040999999V0201401N001512200019N0020001N1+02401+01821101571ADDAA106000091GF104991041021008001001001KA1240M+02961MA1999999096891MD1999999-0111REMSYN088AAXX  30004 82784 32595 41403 10240 20182 39689 40157 84200 333 10296 29064 55077 59011;EQDQ01  00002PRCP06
0186827840999992005063012004-07317-039300FM-12+040999999V0201801N003112200019N0200001N1+02391+01771101691ADDAA106000091GF105991041011008001001011KA1240N+01821MA1999999097001MD1999999+0051REMSYN076AAXX  30124 82784 32598 51806 10239 20177 39700 40169 84101 333 20182 58005;EQDQ01  00002PRCP06
0167827840999992005063018004-07317-039300FM-12+040999999V0201401N002110075019N0200001N1+02901+01681101261ADDAA106000091GF107991071021008001001001MA1999999096601MD1999999-0041REMSYN070AAXX  30184 82784 32598 71404 10290 20168 39660 40126 87200 333 59004;EQDQ01  00002PRCP06
0185827840999992005070100004-07317-039300FM-12+040999999V0201401N001510120019N0020001N1+02521+01841101561ADDAA106000091GF106991061081008001001001MA1999999096881MD1999999-0011REMSYN088AAXX  01004 82784 32595 61403 10252 20184 39688 40156 86800 333 10301 29062 55087 59001;EQDQ01  00002PRCP06
0173827840999992005070112004-07317-039300FM-12+040999999V0201801N002610075019N0200001N1+02381+01911101691ADDAA106000091GF106991061021008001001001MA1999999097001MD1999999+0001REMSYN076AAXX  01124 82784 32598 61805 10238 20191 39700 40169 86200 333 20208 58000;EQDQ01  00002PRCP06
0167827840999992005070118004-07317-039300FM-12+040999999V0201801N003110075019N0200001N1+02821+02201101391ADDAA106000091GF106991061021008001001001MA1999999096721MD1999999+0121REMSYN070AAXX  01184 82784 32598 61806 10282 20220 39672 40139 86200 333 58012;EQDQ01  00002PRCP06
0179827840999992005070200004-07317-039300FM-12+040999999V0200901N002112200019N0020001N1+02361+01851101701ADDAA106000091GF100991001001999999001001MA1999999097001MD1999999+0121REMSYN082AAXX  02004 82784 32995 00904 10236 20185 39700 40170 333 10295 29072 55081 58012;EQDQ01  00002PRCP06
0173827840999992005070212004-07317-039300FM-12+040999999V0201801N003612200019N0200001N1+02491+01811101801ADDAA106000091GF103991031011008001001001MA1999999097101MD1999999+0101REMSYN076AAXX  02124 82784 32598 31807 10249 20181 39710 40180 83100 333 20210 58010;EQDQ01  00002PRCP06
0167827840999992005070218004-07317-039300FM-12+040999999V0201801N005112200019N0200001N1+02871+01801101441ADDAA106000091GF103991031011008001001001MA1999999096771MD1999999+0051REMSYN070AAXX  02184 82784 32598 31810 10287 20180 39677 40144 83100 333 58005;EQDQ01  00002PRCP06
0179827840999992005070300004-07320-039300FM-12+040999999V0201801N001512200019N0020001N1+02141+01861101861ADDAA106000091GF100991001001999999001001MA1999999097151MD1999999+0151REMSYN082AAXX  03004 82784 32995 01803 10214 20186 39715 40186 333 10299 29072 55107 58015;EQDQ01  00002PRCP06
0173827840999992005070312004-07320-039300FM-12+040999999V0201801N002610075019N0200001N1+02441+01921101891ADDAA106000091GF108991081041008001999999MA1999999097181MD1999999+0081REMSYN076AAXX  03124 82784 32598 81805 10244 20192 39718 40189 884// 333 20207 58008;EQDQ01  00002PRCP06
0167827840999992005070318004-07320-039300FM-12+040999999V0201801N002110075019N0200001N1+02781+02061101411ADDAA106000091GF108991081041008001999999MA1999999096741MD1999999-0031REMSYN070AAXX  03184 82784 32598 81804 10278 20206 39674 40141 884// 333 59003;EQDQ01  00002PRCP06
0179827840999992005070400004-07317-039300FM-12+040999999V0201801N003112200019N0020001N1+02401+01991101651ADDAA106000091GF100991001001999999001001MA1999999096961MD1999999-0191REMSYN082AAXX  04004 82784 32995 01806 10240 20199 39696 40165 333 10287 29074 55051 59019;EQDQ01  00002PRCP06
0173827840999992005070412004-07317-039300FM-12+040999999V0201401N003110450019N0200001N1+02491+01731101751ADDAA106000091GF107991021021008001021001MA1999999097061MD1999999-0121REMSYN076AAXX  04124 82784 32598 71406 10249 20173 39706 40175 82220 333 20208 59012;EQDQ01  00002PRCP06
0167827840999992005070418004-07317-039300FM-12+040999999V0201801N003112200019N0200001N1+02941+01551101311ADDAA106000091GF102991011011008001001091MA1999999096651MD1999999-0091REMSYN070AAXX  04184 82784 32598 21806 10294 20155 39665 40131 81109 333 59009;EQDQ01  00002PRCP06
0179827840999992005070500004-07317-039300FM-12+040999999V0209999C000012200019N0020001N1+02201+01671101631ADDAA106000091GF100991001001999999001001MA1999999096941MD1999999-0021REMSYN082AAXX  05004 82784 32995 00000 10220 20167 39694 40163 333 10300 29062 55104 59002;EQDQ01  00002PRCP06
0173827840999992005070512004-07317-039300FM-12+040999999V0202301N001012200019N0200001N1+02421+02031101791ADDAA106000091GF101991011011008001001001MA1999999097081MD1999999+0021REMSYN076AAXX  05124 82784 32598 12302 10242 20203 39708 40179 81100 333 20216 58002;EQDQ01  00002PRCP06
0167827840999992005070518004-07317-039300FM-12+040999999V0201801N002112200019N0200001N1+03111+01791101341ADDAA106000091GF104991041021008001001001MA1999999096681MD1999999+0031REMSYN070AAXX  05184 82784 32598 41804 10311 20179 39668 40134 84200 333 58003;EQDQ01  00002PRCP06
0185827840999992005070600004-07317-039300FM-12+040999999V0201001N041122200019N0020001N1+02371+01801101691ADDAA106000091GF101991011021008001001001MA1999999097001MD1999999+0061REMSYN088AAXX  06004 82784 32595 11080 10237 20180 39700 40169 81200 333 10321 29066 55100 58006;EQDQ01  00002PRCP06
0173827840999992005070612004-07317-039300FM-12+040999999V0200901N002110075019N0200001N1+02511+02001101871ADDAA106000091GF108991081021008001999999MA1999999097171MD1999999+0091REMSYN076AAXX  06124 82784 32598 80904 10251 20200 39717 40187 882// 333 20186 58009;EQDQ01  00002PRCP06
0167827840999992005070618004-07317-039300FM-12+040999999V0201801N004112200019N0200001N1+02981+01831101481ADDAA106000091GF102991021021008001001001MA1999999096811MD1999999+0131REMSYN070AAXX  06184 82784 32598 21808 10298 20183 39681 40148 82200 333 58013;EQDQ01  00002PRCP06
0173827840999992005070712004-07317-039300FM-12+040999999V0201801N002119999999N0200001N1+02481+01941101961ADDAA106000091GF108991021021008001999999MA1999999097261MD1999999+0091REMSYN076AAXX  07124 82784 32598 81804 10248 20194 39726 40196 822// 333 20206 58009;EQDQ01  00002PRCP06
0167827840999992005070718004-07317-039300FM-12+040999999V0201801N003110075019N0200001N1+02931+02111101501ADDAA106000091GF108991081021008001999999MA1999999096831MD1999999+0021REMSYN070AAXX  07184 82784 32598 81806 10293 20211 39683 40150 882// 333 58002;EQDQ01  00002PRCP06
0185827840999992005070800004-07317-039300FM-12+040999999V0201401N001510075019N0020001N1+02471+02011101791ADDAA106000091GF107991071041008001001001MA1999999097101MD1999999+0001REMSYN088AAXX  08004 82784 32595 71403 10247 20201 39710 40179 87400 333 10305 29071 55063 58000;EQDQ01  00002PRCP06
0173827840999992005070812004-07317-039300FM-12+040999999V0201801N002110075019N0200001N1+02521+01891101841ADDAA106000091GF107991071021008001001001MA1999999097151MD1999999-0111REMSYN076AAXX  08124 82784 32598 71804 10252 20189 39715 40184 87200 333 20204 59011;EQDQ01  00002PRCP06
0167827840999992005070818004-07317-039300FM-12+040999999V0201801N004610075019N0200001N1+02681+01921101581ADDAA106000091GF106991061021008001001001MA1999999096901MD1999999+0071REMSYN070AAXX  08184 82784 32598 61809 10268 20192 39690 40158 86200 333 58007;EQDQ01  00002PRCP06
0185827840999992005070900004-07317-039300FM-12+040999999V0201401N001512200019N0020001N1+02461+01881101811ADDAA106000091GF101991999021008001001001MA1999999097121MD1999999+0021REMSYN088AAXX  09004 82784 32595 11403 10246 20188 39712 40181 88200 333 10291 29068 55089 58002;EQDQ01  00002PRCP06
0173827840999992005070912004-07317-039300FM-12+040999999V0201801N003610075019N0200001N1+02461+01851102001ADDAA106000091GF106991051021008001031001MA1999999097301MD1999999+0151REMSYN076AAXX  09124 82784 32598 61807 10246 20185 39730 40200 85230 333 20208 58015;EQDQ01  00002PRCP06
0167827840999992005070918004-07317-039300FM-12+040999999V0201801N003610042019N0200001N1+02661+01821101631ADDAA106000091GF107991051051004501001011MA1999999096941MD1999999+0041REMSYN070AAXX  09184 82784 32498 71807 10266 20182 39694 40163 85501 333 58004;EQDQ01  00002PRCP06
0185827840999992005071000004-07320-039300FM-12+040999999V0201801N003119999999N0020001N1+02211+01821101941ADDAA106000091GF105991999041008001001001MA1999999097231MD1999999+0111REMSYN088AAXX  10004 82784 32595 51806 10221 20182 39723 40194 87400 333 10284 29072 55080 58011;EQDQ01  00002PRCP06
0173827840999992005071012004-07320-039300FM-12+040999999V0201801N003610042019N0200001N1+02441+01931101811ADDAA106000091GF107991071051004501001001MA1999999097101MD1999999-0201REMSYN076AAXX  10124 82784 32498 71807 10244 20193 39710 40181 87500 333 20194 59020;EQDQ01  00002PRCP06
0167827840999992005071018004-07320-039300FM-12+040999999V0201801N002610075019N0200001N1+02671+01991101501ADDAA106000091GF106991061021008001001001MA1999999096821MD1999999-0121REMSYN070AAXX  10184 82784 32598 61805 10267 20199 39682 40150 86200 333 59012;EQDQ01  00002PRCP06
0185827840999992005071100004-07317-039300FM-12+040999999V0201801N005112200019N0020001N1+02241+01821101761ADDAA106000091GF102991021011008001001001MA1999999097061MD1999999-0171REMSYN088AAXX  11004 82784 32595 21810 10224 20182 39706 40176 82100 333 10285 29072 55087 59017;EQDQ01  00002PRCP06
0173827840999992005071112004-07317-039300FM-12+040999999V0201401N002110075019N0200001N1+02341+01851101901ADDAA106000091GF108991081021008001001001MA1999999097191MD1999999+0091REMSYN076AAXX  11124 82784 32598 81404 10234 20185 39719 40190 88200 333 20197 58009;EQDQ01  00002PRCP06
0167827840999992005071118004-07317-039300FM-12+040999999V0201801N004110075019N0200001N1+02761+01971101481ADDAA106000091GF105991051011008001001001MA1999999096801MD1999999-0021REMSYN070AAXX  11184 82784 32598 51808 10276 20197 39680 40148 85100 333 59002;EQDQ01  00002PRCP06
0185827840999992005071200004-07317-039300FM-12+040999999V0201801N001012200019N0020001N1+02361+01851101781ADDAA106000091GF103991999041008001001001MA1999999097081MD1999999+0021REMSYN088AAXX  12004 82784 32595 31802 10236 20185 39708 40178 84400 333 10284 29070 55069 58002;EQDQ01  00002PRCP06
0167827840999992005071218004-07317-039300FM-12+040999999V0201801N004112200019N0200001N1+02901+01621101441ADDAA106000091GF106991021011008001001011MA1999999096771MD1999999-0031REMSYN070AAXX  12184 82784 32598 61808 10290 20162 39677 40144 82101 333 59003;EQDQ01  00002PRCP06
0179827840999992005071300004-07317-039300FM-12+040999999V0201801N002612200019N0020001N1+02181+01741101751ADDAA106000091GF100991001001999999001001MA1999999097051MD1999999-0031REMSYN082AAXX  13004 82784 32595 01805 10218 20174 39705 40175 333 10320 29066 55103 59003;EQDQ01  00002PRCP06
0173827840999992005071312004-07317-039300FM-12+040999999V0201801N003612200019N0200001N1+02371+01711101891ADDAA106000091GF102991021021008001001001MA1999999097171MD1999999+0071REMSYN076AAXX  13124 82784 32598 21807 10237 20171 39717 40189 82200 333 20194 58007;EQDQ01  00002PRCP06
0167827840999992005071318004-07317-039300FM-12+040999999V0201801N005112200019N0200001N1+02821+01651101421ADDAA106000091GF103991031021008001001001MA1999999096741MD1999999-0031REMSYN070AAXX  13184 82784 32598 31810 10282 20165 39674 40142 83200 333 59003;EQDQ01  00002PRCP06
0185827840999992005071400004-07317-039300FM-12+040999999V0201401N004612200019N0020001N1+02241+01711101661ADDAA106000091GF102991999021008001001001MA1999999096961MD1999999-0091REMSYN088AAXX  14004 82784 32595 21409 10224 20171 39696 40166 83200 333 10290 29065 55102 59009;EQDQ01  00002PRCP06
0173827840999992005071412004-07317-039300FM-12+040999999V0201801N004110075019N0200001N1+02241+01691101851ADDAA106000091GF108991081041008001999999MA1999999097141MD1999999-0031REMSYN076AAXX  14124 82784 32598 81808 10224 20169 39714 40185 884// 333 20196 59003;EQDQ01  00002PRCP06
0167827840999992005071418004-07317-039300FM-12+040999999V0201801N004110075019N0200001N1+02731+01761101421ADDAA106000091GF106991061021008001001001MA1999999096741MD1999999+0001REMSYN070AAXX  14184 82784 32598 61808 10273 20176 39674 40142 86200 333 58000;EQDQ01  00002PRCP06
0179827840999992005071500004-07317-039300FM-12+040999999V0201401N001512200019N0020001N1+02231+01731101711ADDAA106000091GF100991001001999999001001MA1999999097001MD1999999+0041REMSYN082AAXX  15004 82784 32995 01403 10223 20173 39700 40171 333 10284 29068 55082 58004;EQDQ01  00002PRCP06
0167827840999992005071512004-07317-039300FM-12+040999999V0201401N003112200019N0200001N1+02541+01601101791ADDAA106000091GF100991001001999999001001MA1999999097091MD1999999-0051REMSYN070AAXX  15124 82784 32998 01406 10254 20160 39709 40179 333 20194 59005;EQDQ01  00002PRCP06
0167827840999992005071518004-07317-039300FM-12+040999999V0201801N003112200019N0200001N1+03021+01591101371ADDAA106000091GF102991021021008001001001MA1999999096711MD1999999-0031REMSYN070AAXX  15184 82784 32598 21806 10302 20159 39671 40137 82200 333 59003;EQDQ01  00002PRCP06
0179827840999992005071600004-07317-039300FM-12+040999999V0201401N002112200019N0020001N1+02341+01781101671ADDAA106000091GF100991001001999999001001MA1999999096981MD1999999-0021REMSYN082AAXX  16004 82784 32995 01404 10234 20178 39698 40167 333 10309 29060 55106 59002;EQDQ01  00002PRCP06
0167827840999992005071612004-07317-039300FM-12+040999999V0201801N003612200019N0200001N1+02471+01661101831ADDAA106000091GF100991001001999999001001MA1999999097131MD1999999+0041REMSYN070AAXX  16124 82784 32998 01807 10247 20166 39713 40183 333 20194 58004;EQDQ01  00002PRCP06
0161827840999992005071618004-07317-039300FM-12+040999999V0201401N003612200019N0200001N1+01641+01641101351ADDAA106000091GF100991001001999999001001MA1999999096531MD1999999-0021REMSYN064AAXX  16184 82784 32998 01407 10164 20164 33969 40135 333 59002;EQDQ01  00002PRCP06
0179827840999992005071700004-07320-039300FM-12+040999999V0201801N003112200019N0020001N1+02421+01671101651ADDAA106000091GF100991001001999999001001MA1999999096961MD1999999-0021REMSYN082AAXX  17004 82784 32995 01806 10242 20167 39696 40165 333 10309 29054 55107 59002;EQDQ01  00002PRCP06
0173827840999992005071712004-07320-039300FM-12+040999999V0201401N003110075019N0200001N1+02461+01761101901ADDAA106000091GF107991071021008001001001MA1999999097111MD1999999-0021REMSYN076AAXX  17124 82784 32598 71406 10246 20176 39711 40190 87200 333 20208 59002;EQDQ01  00002PRCP06
0167827840999992005071718004-07320-039300FM-12+040999999V0201801N002612200019N0200001N1+03061+01621101361ADDAA106000091GF101991011021008001001001MA1999999096701MD1999999+0011REMSYN070AAXX  17184 82784 32598 11805 10306 20162 39670 40136 81200 333 58001;EQDQ01  00002PRCP06
0179827840999992005071800004-07317-039300FM-12+040999999V0200901N000512200019N0020001N1+02221+01761101611ADDAA106000091GF100991001001999999001001MA1999999096921MD1999999-0041REMSYN082AAXX  18004 82784 32995 00901 10222 20176 39692 40161 333 10313 29088 55064 59004;EQDQ01  00002PRCP06
0183827840999992005071812004-07317-039300FM-12+040999999V0200901N001012200019N0200001N1+02481+01781999999ADDAA106000091GF100991001001999999001001MA1999999097071MD1999999-0041REMSYN070AAXX  18124 82784 32998 00902 10248 20178 39707 40477 333 20162 59004;EQDQ01  00002PRCP06Q02 104773APOSLP
0167827840999992005071818004-07317-039300FM-12+040999999V0200501N002610075019N0200001N1+03141+01661101242ADDAA106000091GF106991061011008001001001MA1999999096581MD1999999-0121REMSYN070AAXX  18184 82784 32598 60505 10314 20166 39658 40124 86100 333 59012;EQDQ01  00002PRCP06
0179827840999992005071900004-07317-039300FM-12+040999999V0201401N001012200019N0020001N1+02561+01671101501ADDAA106000091GF100991001001999999001001MA1999999096831MD1999999-0091REMSYN082AAXX  19004 82784 32995 01402 10256 20167 39683 40150 333 10325 29056 55105 59009;EQDQ01  00002PRCP06
0173827840999992005071912004-07317-039300FM-12+040999999V0203601N001010075019N0200001N1+02521+02001101681ADDAA106000091GF107991071021008001001001MA1999999097071MD1999999+0001REMSYN076AAXX  19124 82784 32598 73602 10252 20200 39707 40168 87200 333 20204 58000;EQDQ01  00002PRCP06
0137827840999992005071918004-07317-039300FM-12+040999999V0201801N002110075019N0200001N1+03011+01941101331ADDGF106991061071008001001001MA1999999096671MD1999999+0091REMSYN070AAXX  19184 82784 32598 61804 10301 20194 39667 40133 86700 333 58009;
0155827840999992005072000004-07317-039300FM-12+040999999V0201801N001510120019N0020001N1+02591+01821101561ADDGF107991071081008001001001MA1999999096891MD1999999+0061REMSYN088AAXX  20004 82784 32595 71803 10259 20182 39689 40156 87800 333 10318 29062 55077 58006;
0143827840999992005072012004-07317-039300FM-12+040999999V0201401N003110075019N0200001N1+02441+02011101741ADDGF107991071051008001001001MA1999999097061MD1999999-0011REMSYN076AAXX  20124 82784 32598 71406 10244 20201 39706 40174 87500 333 20224 59001;
0182827840999992005072018004-07317-039300FM-12+040999999V0201801N002610075019N0200001N1+02921+01891101231ADDAA106000391AY151061AY221061GF106991061071008001001001MA1999999096671MD1999999+0001MW1021REMSYN082AAXX  20184 82784 21598 61805 10292 20189 39667 40123 70252 86700 333 58000 69931;
0200827840999992005072100004-07317-039300FM-12+040999999V0200901N001010120019N0020001N1+02221+02081101691ADDAA106001091AY151061AY221061GF107991071081008001001001MA1999999096991MD1999999+0101MW1211REMSYN100AAXX  21004 82784 21595 70902 10222 20208 39699 40169 72152 87800 333 10308 29079 55040 58010 60011;
0160827840999992005072112004-07317-039300FM-12+040999999V0201801N004110075019N0200001N1+02441+01761101731ADDAA124002091GF105991051011008001001001MA1999999097031MD1999999-0031REMSYN082AAXX  21124 82784 22598 51808 10244 20176 39703 40173 85100 333 20194 59003 60024;
0137827840999992005072118004-07317-039300FM-12+040999999V0201801N003612200019N0200001N1+03011+01331101411ADDGF101991011011008001001001MA1999999096741MD1999999+0071REMSYN070AAXX  21184 82784 32598 11807 10301 20133 39674 40141 81100 333 58007;
0155827840999992005072200004-07317-039300FM-12+040999999V0201801N001012200019N0020001N1+02281+01461101691ADDGF101991011001017501041001MA1999999096991MD1999999+0001REMSYN088AAXX  22004 82784 32795 11802 10228 20146 39699 40169 81040 333 10307 29056 55096 58000;
0143827840999992005072212004-07317-039300FM-12+040999999V0201801N004112200019N0200001N1+02481+01781101861ADDGF103991031011008001001001MA1999999097161MD1999999+0131REMSYN076AAXX  22124 82784 32598 31808 10248 20178 39716 40186 83100 333 20200 58013;
0137827840999992005072218004-07317-039300FM-12+040999999V0201801N003110075019N0200001N1+02691+01911101571ADDGF107991071051008001001001MA1999999096881MD1999999+0141REMSYN070AAXX  22184 82784 32598 71806 10269 20191 39688 40157 87500 333 58014;
0155827840999992005072300004-07317-039300FM-12+040999999V0201401N001510075019N0020001N1+02271+01961101821ADDGF107991071091008001001001MA1999999097011MD1999999+0131REMSYN088AAXX  23004 82784 32595 71403 10227 20196 39701 40182 87900 333 10303 29073 55073 58013;
0143827840999992005072312004-07317-039300FM-12+040999999V0201801N003110075019N0200001N1+02441+01761101901ADDGF108991081021008001999999MA1999999097191MD1999999+0031REMSYN076AAXX  23124 82784 32598 81806 10244 20176 39719 40190 882// 333 20210 58003;
0137827840999992005072318004-07317-039300FM-12+040999999V0201801N002612200019N0200001N1+02991+01641101431ADDGF103991031021008001001001MA1999999096761MD1999999-0121REMSYN070AAXX  23184 82784 32598 31805 10299 20164 39676 40143 83200 333 59012;
0155827840999992005072400004-07320-039300FM-12+040999999V0201401N001512200019N0020001N1+02331+01811101711ADDGF101991011021008001001001MA1999999097021MD1999999-0101REMSYN088AAXX  24004 82784 32595 11403 10233 20181 39702 40171 81200 333 10307 29064 55095 59010;
0137827840999992005072412004-07320-039300FM-12+040999999V0201401N003112200019N0200001N1+02561+01671101921ADDGF100991001001999999001001MA1999999097221MD1999999+0031REMSYN070AAXX  24124 82784 32998 01406 10256 20167 39722 40192 333 20190 58003;
0131827840999992005072418004-07320-039300FM-12+040999999V0201801N003612200019N0200001N1+03091+01361101491ADDGF100991001001999999001001MA1999999096831MD1999999+0071REMSYN064AAXX  24184 82784 32998 01807 10309 20136 39683 40149 333 58007;
0149827840999992005072500004-07320-039300FM-12+040999999V0201801N003112200019N0020001N1+02381+01841101721ADDGF100991001001999999001001MA1999999097031MD1999999+0011REMSYN082AAXX  25004 82784 32995 01806 10238 20184 39703 40172 333 10317 29059 55108 58001;
0143827840999992005072512004-07317-039300FM-12+040999999V0201401N002112200019N0200001N1+02311+01971102001ADDGF103991031021008001001001MA1999999097291MD1999999+0071REMSYN076AAXX  25124 82784 32598 31404 10231 20197 39729 40200 83200 333 20197 58007;
0137827840999992005072518004-07317-039300FM-12+040999999V0201801N003612200019N0200001N1+02961+01461101551ADDGF101991011011008001001001MA1999999096871MD1999999+0041REMSYN070AAXX  25184 82784 32598 11807 10296 20146 39687 40155 81100 333 58004;
0137827840999992005072612004-07317-039300FM-12+040999999V0201801N003612200019N0200001N1+02501+01841102011ADDGF100991001001999999001001MA1999999097301MD1999999+0011REMSYN070AAXX  26124 82784 32998 01807 10250 20184 39730 40201 333 20184 58001;
0137827840999992005072618004-07317-039300FM-12+040999999V0201801N003612200019N0200001N1+03111+01791101501ADDGF102991021021008001001001MA1999999096831MD1999999-0041REMSYN070AAXX  26184 82784 32598 21807 10311 20179 39683 40150 82200 333 59004;
0149827840999992005072700004-07317-039300FM-12+040999999V0201801N005112200019N0020001N1+02481+01601101771ADDGF100991001001999999001001MA1999999097081MD1999999+0141REMSYN082AAXX  27004 82784 32995 01810 10248 20160 39708 40177 333 10321 29057 55102 58014;
0143827840999992005072712004-07317-039300FM-12+040999999V0201801N004112200019N0200001N1+02441+01761102021ADDGF102991021021008001001001MA1999999097321MD1999999+0021REMSYN076AAXX  27124 82784 32598 21808 10244 20176 39732 40202 82200 333 20208 58002;
0131827840999992005072718004-07317-039300FM-12+040999999V0201801N003612200019N0200001N1+03001+01451101571ADDGF100991001001999999001001MA1999999096901MD1999999+0071REMSYN064AAXX  27184 82784 32998 01807 10300 20145 39690 40157 333 58007;
0149827840999992005072800004-07317-039300FM-12+040999999V0201801N002112200019N0020001N1+02341+01571101851ADDGF100991001001999999001001MA1999999097551MD1999999+0071REMSYN082AAXX  28004 82784 32995 01804 10234 20157 39755 40185 333 10309 29057 55105 58007;
0143827840999992005072812004-07317-039300FM-12+040999999V0201801N004612200019N0200001N1+02431+01621102001ADDGF101991011011008001001001MA1999999097301MD1999999-0021REMSYN076AAXX  28124 82784 32598 11809 10243 20162 39730 40200 81100 333 20197 59002;
0137827840999992005072818004-07317-039300FM-12+040999999V0201801N003112200019N0200001N1+03001+01711101611ADDGF102991021011008001001001MA1999999096931MD1999999+0031REMSYN070AAXX  28184 82784 32598 21806 10300 20171 39693 40161 82100 333 58003;
0149827840999992005072900004-07317-039300FM-12+040999999V0201401N001512200019N0020001N1+02301+01631101841ADDGF100991001001999999001001MA1999999097141MD1999999-0011REMSYN082AAXX  29004 82784 32995 01403 10230 20163 39714 40184 333 10307 29060 55108 59001;
0143827840999992005072912004-07317-039300FM-12+040999999V0201801N004112200019N0200001N1+02401+01581102021ADDGF102991021011008001001001MA1999999097311MD1999999+0011REMSYN076AAXX  29124 82784 32598 21808 10240 20158 39731 40202 82100 333 20199 58001;
0131827840999992005072918004-07317-039300FM-12+040999999V0201801N002612200019N0200001N1+03091+01421101531ADDGF100991001001999999001001MA1999999096861MD1999999-0071REMSYN064AAXX  29184 82784 32998 01805 10309 20142 39686 40153 333 59007;
0149827840999992005073000004-07317-039300FM-12+040999999V0201801N005712200019N0020001N1+02411+01471101801ADDGF100991001001999999001001MA1999999097101MD1999999-0041REMSYN082AAXX  30004 82784 32995 01811 10241 20147 39710 40180 333 10316 29052 55108 59004;
0156827840999992005073012004-07320-039300FM-12+040999999V0201801N002110075019N0200001N1+02361+01871101891ADDGF106991061021008001001001KA1240N+02081MA1999999097191MD1999999-0121REMSYN076AAXX  30124 82784 32598 61804 10236 20187 39719 40189 86200 333 20208 59012;
0137827840999992005073018004-07320-039300FM-12+040999999V0201801N004110075019N0200001N1+02891+01671101441ADDGF106991061011008001001001MA1999999096771MD1999999-0091REMSYN070AAXX  30184 82784 32598 61808 10289 20167 39677 40144 86100 333 59009;
0168827840999992005073100004-07320-039300FM-12+040999999V0201401N005112200019N0020001N1+02431+01701101781ADDGF104991041021008001001001KA1240M+03021MA1999999097081MD1999999-0021REMSYN088AAXX  31004 82784 32595 41410 10243 20170 39708 40178 84200 333 10302 29062 55072 59002;
0156827840999992005073112004-07320-039300FM-12+040999999V0201801N004110075019N0200001N1+02431+01721101791ADDGF105991051011008001001001KA1240N+02001MA1999999097101MD1999999-0091REMSYN076AAXX  31124 82784 32598 51808 10243 20172 39710 40179 85100 333 20200 59009;
0137827840999992005073118004-07317-039300FM-12+040999999V0201801N004612200019N0200001N1+02781+01701101451ADDGF104991041011008001001001MA1999999096771MD1999999+0001REMSYN070AAXX  31184 82784 32598 41809 10278 20170 39677 40145 84100 333 58000;
0149827840999992005080100004-07317-039300FM-12+040999999V0201401N003112200019N0020001N1+02291+01751101701ADDGF100991001001999999001001MA1999999097001MD1999999-0081REMSYN082AAXX  01004 82784 32995 01406 10229 20175 39700 40170 333 10295 29065 55102 59008;
0143827840999992005080112004-07317-039300FM-12+040999999V0201401N002612200019N0200001N1+02461+01631101911ADDGF102991021021008001001001MA1999999097201MD1999999+0101REMSYN076AAXX  01124 82784 32598 21405 10246 20163 39720 40191 82200 333 20198 58010;
0137827840999992005080118004-07317-039300FM-12+040999999V0201801N002112200019N0200001N1+02981+01351101391ADDGF103991031011008001001001MA1999999096731MD1999999-0041REMSYN070AAXX  01184 82784 32598 31804 10298 20135 39673 40139 83100 333 59004;
0149827840999992005080200004-07317-039300FM-12+040999999V0201801N001512200019N0020001N1+02341+01721101661ADDGF100991001001999999001001MA1999999096971MD1999999-0031REMSYN082AAXX  02004 82784 32995 01803 10234 20172 39697 40166 333 10311 29058 55106 59003;
0143827840999992005080212004-07317-039300FM-12+040999999V0201801N002612200019N0200001N1+02401+01651101701ADDGF103991021021008001031001MA1999999097101MD1999999-0101REMSYN076AAXX  02124 82784 32598 31805 10240 20165 39710 40170 82230 333 20200 59010;
0137827840999992005080218004-07317-039300FM-12+040999999V0201801N003612200019N0200001N1+02981+01691101341ADDGF103991031021008001001001MA1999999096671MD1999999-0061REMSYN070AAXX  02184 82784 32598 31807 10298 20169 39667 40134 83200 333 59006;
0155827840999992005080300004-07317-039300FM-12+040999999V0201801N006212200019N0020001N1+02401+01821101601ADDGF102991021011008001001001MA1999999096911MD1999999-0061REMSYN088AAXX  03004 82784 32595 21812 10240 20182 39691 40160 82100 333 10304 29062 55088 59006;
0143827840999992005080312004-07317-039300FM-12+040999999V0201801N002610075019N0200001N1+02341+01811101861ADDGF108991081041008001999999MA1999999097151MD1999999+0051REMSYN076AAXX  03124 82784 32598 81805 10234 20181 39715 40186 884// 333 20214 58005;
0137827840999992005080318004-07317-039300FM-12+040999999V0201801N004610075019N0200001N1+03021+01661101261ADDGF106991061021008001001001MA1999999096611MD1999999-0061REMSYN070AAXX  03184 82784 32598 61809 10302 20166 39661 40126 86200 333 59006;
0155827840999992005080400004-07317-039300FM-12+040999999V0201401N002610120019N0020001N1+02581+01721101571ADDGF105991051081008001001001MA1999999096891MD1999999-0021REMSYN088AAXX  04004 82784 32595 51405 10258 20172 39689 40157 85800 333 10312 29058 55040 59002;
0143827840999992005080412004-07317-039300FM-12+040999999V0201801N003610075019N0200001N1+02481+01851101861ADDGF107991071021008001001001MA1999999097171MD1999999+0021REMSYN076AAXX  04124 82784 32598 71807 10248 20185 39717 40186 87200 333 20208 58002;
0155827840999992005080500004-07317-039300FM-12+040999999V0201401N002612200019N0020001N1+02461+01761101761ADDGF101991011021008001001001MA1999999097071MD1999999+0181REMSYN088AAXX  05004 82784 32595 11405 10246 20176 39707 40176 81200 333 10311 29061 55086 58018;
0143827840999992005080512004-07317-039300FM-12+040999999V0201801N003110075019N0200001N1+02361+01761101951ADDGF108991081021008001001001MA1999999097251MD1999999+0081REMSYN076AAXX  05124 82784 32598 81806 10236 20176 39725 40195 88200 333 20204 58008;
0137827840999992005080518004-07317-039300FM-12+040999999V0201801N004110075019N0200001N1+02941+01691101481ADDGF107991071021008001001001MA1999999096811MD1999999+0031REMSYN070AAXX  05184 82784 32598 71808 10294 20169 39681 40148 87200 333 58003;
0149827840999992005080600004-07317-039300FM-12+040999999V0201401N002612200019N0020001N1+02381+01801101791ADDGF100991001001999999001001MA1999999097091MD1999999+0021REMSYN082AAXX  06004 82784 32995 01405 10238 20180 39709 40179 333 10303 29064 55069 58002;
0143827840999992005080612004-07317-039300FM-12+040999999V0201401N002110075019N0200001N1+02261+01731102011ADDGF108991081021008001999999MA1999999097291MD1999999+0041REMSYN076AAXX  06124 82784 32598 81404 10226 20173 39729 40201 882// 333 20184 58004;
0137827840999992005080618004-07317-039300FM-12+040999999V0201801N003610075019N0200001N1+02881+01731101491ADDGF107991071021008001001001MA1999999096811MD1999999+0001REMSYN070AAXX  06184 82784 32598 71807 10288 20173 39681 40149 87200 333 58000;
0149827840999992005080700004-07320-039300FM-12+040999999V0201801N003612200019N0020001N1+02351+01611101721ADDGF100991001001999999001001MA1999999097021MD1999999-0071REMSYN082AAXX  07004 82784 32995 01807 10235 20161 39702 40172 333 10297 29062 55044 59007;
0162827840999992005080712004-07320-039300FM-12+040999999V0201801N003119999999N0200001N1+02411+01631101921ADDGF108991999021004501001001MA1999999097221MD1999999-0071REMSYN076AAXX  07124 82784 32498 81806 10241 20163 39722 40192 83200 333 20190 59007;EQDQ01+000032SCOTLC
0137827840999992005080718004-07320-039300FM-12+040999999V0201801N003110075019N0200001N1+02841+01731101471ADDGF107991071021008001001001MA1999999096791MD1999999-0021REMSYN070AAXX  07184 82784 32598 71806 10284 20173 39679 40147 87200 333 59002;
0149827840999992005080800004-07317-039300FM-12+040999999V0201401N002612200019N0020001N1+02341+01851101731ADDGF100991001001999999001001MA1999999097031MD1999999+0011REMSYN082AAXX  08004 82784 32995 01405 10234 20185 39703 40173 333 10293 29065 55050 58001;
0143827840999992005080812004-07317-039300FM-12+040999999V0201401N002612200019N0200001N1+02421+01671101901ADDGF103991031021008001001001MA1999999097201MD1999999-0021REMSYN076AAXX  08124 82784 32598 31405 10242 20167 39720 40190 83200 333 20197 59002;
0137827840999992005080818004-07317-039300FM-12+040999999V0201801N002610075019N0200001N1+02861+01621101401ADDGF105991051011008001001001MA1999999096731MD1999999-0061REMSYN070AAXX  08184 82784 32598 51805 10286 20162 39673 40140 85100 333 59006;
0149827840999992005080900004-07317-039300FM-12+040999999V0201401N000512200019N0020001N1+02301+01631101661ADDGF100991001001999999001001MA1999999096961MD1999999-0071REMSYN082AAXX  09004 82784 32995 01401 10230 20163 39696 40166 333 10298 29060 55106 59007;
0143827840999992005080912004-07317-039300FM-12+040999999V0201801N002110075019N0200001N1+02501+01771101861ADDGF106991061011008001001001MA1999999097161MD1999999-0041REMSYN076AAXX  09124 82784 32598 61804 10250 20177 39716 40186 86100 333 20180 59004;
0137827840999992005080918004-07317-039300FM-12+040999999V0201801N002110075019N0200001N1+03021+01391101451ADDGF105991051011008001001001MA1999999096781MD1999999+0051REMSYN070AAXX  09184 82784 32598 51804 10302 20139 39678 40145 85100 333 58005;
0149827840999992005081000004-07317-039300FM-12+040999999V0201401N001012200019N0020001N1+02341+01601101631ADDGF100991001001999999001001MA1999999096941MD1999999-0021REMSYN082AAXX  10004 82784 32995 01402 10234 20160 39694 40163 333 10312 29057 55107 59002;
0143827840999992005081012004-07317-039300FM-12+040999999V0201801N001512200019N0200001N1+02551+01851101881ADDGF101991011011008001001001MA1999999097181MD1999999+0021REMSYN076AAXX  10124 82784 32598 11803 10255 20185 39718 40188 81100 333 20190 58002;
0137827840999992005081018004-07317-039300FM-12+040999999V0201801N004110450019N0200001N1+03221+01521101411ADDGF105991041011008001011001MA1999999096761MD1999999-0021REMSYN070AAXX  10184 82784 32598 51808 10322 20152 39676 40141 84110 333 59002;
0149827840999992005081100004-07317-039300FM-12+040999999V0201801N002612200019N0020001N1+02561+01531101651ADDGF100991001001999999001001MA1999999096971MD1999999+0031REMSYN082AAXX  11004 82784 32995 01805 10256 20153 39697 40165 333 10335 29052 55108 58003;
0143827840999992005081112004-07317-039300FM-12+040999999V0201801N003110075019N0200001N1+02461+01831101931ADDGF106991061021008001001001MA1999999097251MD1999999+0071REMSYN076AAXX  11124 82784 32598 61806 10246 20183 39725 40193 86200 333 20178 58007;
0137827840999992005081118004-07317-039300FM-12+040999999V0201801N002112200019N0200001N1+03241+01631101381ADDGF103991021011008001001011MA1999999096721MD1999999-0041REMSYN070AAXX  11184 82784 32598 31804 10324 20163 39672 40138 82101 333 59004;
0149827840999992005081200004-07317-039300FM-12+040999999V0201801N001512200019N0020001N1+02621+01501101591ADDGF100991001001999999001001MA1999999096921MD1999999-0051REMSYN082AAXX  12004 82784 32995 01803 10262 20150 39692 40159 333 10339 29052 55104 59005;
0143827840999992005081212004-07317-039300FM-12+040999999V0201401N001511050019N0200001N1+02531+01931101771ADDGF108991031021008001001091MA1999999097091MD1999999+0161REMSYN076AAXX  12124 82784 32598 81403 10253 20193 39709 40177 83209 333 20199 58016;
0137827840999992005081218004-07317-039300FM-12+040999999V0201801N002619999999N0200001N1+03181+01771101221ADDGF108991081001008001001011MA1999999096571MD1999999-0151REMSYN070AAXX  12184 82784 32598 81805 10318 20177 39657 40122 88001 333 59015;
0149827840999992005081300004-07317-039300FM-12+040999999V0201801N001512200019N0020001N1+02501+01841101501ADDGF100991001001999999001001MA1999999096831MD1999999-0091REMSYN082AAXX  13004 82784 32995 01803 10250 20184 39683 40150 333 10329 29062 55109 59009;
0143827840999992005081312004-07320-039300FM-12+040999999V0201801N003612200019N0200001N1+02461+01681101731ADDGF102991011011008001001091MA1999999097051MD1999999-0041REMSYN076AAXX  13124 82784 32598 21807 10246 20168 39705 40173 81109 333 20188 59004;
0137827840999992005081318004-07320-039300FM-12+040999999V0201801N002619999999N0200001N1+03221+01481101161ADDGF108991081001008001001011MA1999999096521MD1999999-0051REMSYN070AAXX  13184 82784 32598 81805 10322 20148 39652 40116 88001 333 59005;
0155827840999992005081400004-07320-039300FM-12+040999999V0201801N001512200019N0020001N1+02501+01291101451ADDGF102991021001017501021001MA1999999096781MD1999999-0051REMSYN088AAXX  14004 82784 32795 21803 10250 20129 39678 40145 82020 333 10331 29048 55108 59005;
0143827840999992005081412004-07320-039300FM-12+040999999V0201801N002110075019N0200001N1+02451+01811101821ADDGF107991071021008001001001MA1999999097131MD1999999+0081REMSYN076AAXX  14124 82784 32598 71804 10245 20181 39713 40182 87200 333 20196 58008;
0137827840999992005081418004-07320-039300FM-12+040999999V0201801N002612200019N0200001N1+03211+01551101281ADDGF101991011021008001001001MA1999999096641MD1999999+0121REMSYN070AAXX  14184 82784 32598 11805 10321 20155 39664 40128 81200 333 58012;
0149827840999992005081500004-07320-039300FM-12+040999999V0201801N003612200019N0020001N1+02531+01781101591ADDGF100991001001999999001001MA1999999096911MD1999999+0131REMSYN082AAXX  15004 82784 32995 01807 10253 20178 39691 40159 333 10319 29056 55106 58013;
0143827840999992005081512004-07320-039300FM-12+040999999V0201401N002110120019N0200001N1+02441+01901101981ADDGF108991081081008001999999MA1999999097251MD1999999+0121REMSYN076AAXX  15124 82784 32598 81404 10244 20190 39725 40198 888// 333 20209 58012;
0137827840999992005081518004-07320-039300FM-12+040999999V0201801N003112200019N0200001N1+03101+01661101401ADDGF102991021021008001001001MA1999999096741MD1999999+0101REMSYN070AAXX  15184 82784 32598 21806 10310 20166 39674 40140 82200 333 58010;
0155827840999992005081600004-07317-039300FM-12+040999999V0201401N000512200019N0020001N1+02341+01811101661ADDGF102991021001017501031001MA1999999096971MD1999999+0061REMSYN088AAXX  16004 82784 32795 21401 10234 20181 39697 40166 82030 333 10318 29064 55057 58006;
0143827840999992005081612004-07317-039300FM-12+040999999V0201801N002110075019N0200001N1+02631+01881101801ADDGF107991071021008001001001MA1999999097111MD1999999-0141REMSYN076AAXX  16124 82784 32598 71804 10263 20188 39711 40180 87200 333 20226 59014;
0137827840999992005081618004-07317-039300FM-12+040999999V0201801N003110075019N0200001N1+03221+01731101271ADDGF105991051021008001001001MA1999999096641MD1999999-0101REMSYN070AAXX  16184 82784 32598 51806 10322 20173 39664 40127 85200 333 59010;
0149827840999992005081700004-07317-039300FM-12+040999999V0201801N003112200019N0020001N1+02501+01641101611ADDGF100991001001999999001001MA1999999096941MD1999999-0031REMSYN082AAXX  17004 82784 32995 01806 10250 20164 39694 40161 333 10330 29056 55086 59003;
0143827840999992005081712004-07317-039300FM-12+040999999V0201401N002612200019N0200001N1+02481+01541101831ADDGF101991011011008001001001MA1999999097141MD1999999+0031REMSYN076AAXX  17124 82784 32598 11405 10248 20154 39714 40183 81100 333 20180 58003;
0137827840999992005081718004-07317-039300FM-12+040999999V0201401N003610075019N0200001N1+03161+01551101211ADDGF106991061011008001001001MA1999999096561MD1999999-0081REMSYN070AAXX  17184 82784 32598 61407 10316 20155 39656 40121 86100 333 59008;
0155827840999992005081800004-07317-039300FM-12+040999999V0201401N001510120019N0020001N1+02601+01821101431ADDGF107991071081008001001001MA1999999096761MD1999999-0181REMSYN088AAXX  18004 82784 32595 71403 10260 20182 39676 40143 87800 333 10325 29054 55110 59018;
0143827840999992005081812004-07317-039300FM-12+040999999V0201401N002610075019N0200001N1+02381+01711101861ADDGF108991081051008001999999MA1999999097171MD1999999+0031REMSYN076AAXX  18124 82784 32598 81405 10238 20171 39717 40186 885// 333 20192 58003;
0137827840999992005081818004-07317-039300FM-12+040999999V0201401N002610075019N0200001N1+03081+01561101371ADDGF106991061011008001001001MA1999999096721MD1999999+0161REMSYN070AAXX  18184 82784 32598 61405 10308 20156 39672 40137 86100 333 58016;
0155827840999992005081900004-07317-039300FM-12+040999999V0201401N002112200019N0020001N1+02481+01681101581ADDGF101991011011008001001001MA1999999096901MD1999999+0141REMSYN088AAXX  19004 82784 32595 11404 10248 20168 39690 40158 81100 333 10319 29057 55087 58014;
0143827840999992005081912004-07317-039300FM-12+040999999V0201801N003110075019N0200001N1+02381+01751101851ADDGF107991071051008001001001MA1999999097151MD1999999-0021REMSYN076AAXX  19124 82784 32598 71806 10238 20175 39715 40185 87500 333 20218 59002;
0137827840999992005081918004-07317-039300FM-12+040999999V0201801N004112200019N0200001N1+03001+01241101421ADDGF104991041011008001001001MA1999999096761MD1999999+0041REMSYN070AAXX  19184 82784 32598 41808 10300 20124 39676 40142 84100 333 58004;
0143827840999992005082012004-07317-039300FM-12+040999999V0201801N003612200019N0200001N1+02521+01691101851ADDGF102991021011008001001001MA1999999097511MD1999999+0001REMSYN076AAXX  20124 82784 32598 21807 10252 20169 39751 40185 82100 333 20194 58000;
0137827840999992005082018004-07317-039300FM-12+040999999V0201801N004610075019N0200001N1+02831+01651101441ADDGF106991061021008001001001MA1999999096761MD1999999+0001REMSYN070AAXX  20184 82784 32598 61809 10283 20165 39676 40144 86200 333 58000;
0155827840999992005082100004-07320-039300FM-12+040999999V0201801N002112200019N0020001N1+02321+01631101841ADDGF102991021011008001001001MA1999999097141MD1999999+0121REMSYN088AAXX  21004 82784 32595 21804 10232 20163 39714 40184 82100 333 10302 29060 55091 58012;
0143827840999992005082112004-07320-039300FM-12+040999999V0201801N004612200019N0200001N1+02521+01661101731ADDGF102991021011008001001001MA1999999097041MD1999999-0111REMSYN076AAXX  21124 82784 32598 21809 10252 20166 39704 40173 82100 333 20184 59011;
0156827840999992005082118004-07320-039300FM-12+040999999V0201801N003119999999N0200001N1+02851+01821101271ADDGF107991999021008001001001MA1999999096601MD1999999-0161REMSYN070AAXX  21184 82784 32598 71806 10285 20182 39660 40127 84200 333 59016;EQDQ01+000042SCOTLC
0168827840999992005082200004-07317-039300FM-12+040999999V0201401N002110120019N0020001N1+02341+01911101671ADDGF106991061081008001001001KA1240M+02971MA1999999096981MD1999999-0161REMSYN088AAXX  22004 82784 32595 61404 10234 20191 39698 40167 86800 333 10297 29067 55082 59016;
0201827840999992005082212004-07317-039300FM-12+040999999V0201401N003110075019N0200001N1+02491+01911101761ADDAA124001091AY121061AY221061GF106991061021008001001001KA1240N+02081MA1999999097071MD1999999+0031MW1211REMSYN088AAXX  22124 82784 21598 61406 10249 20191 39707 40176 72122 86200 333 20208 58003 60014;
0137827840999992005082218004-07317-039300FM-12+040999999V0201801N004610075019N0200001N1+02841+01881101331ADDGF106991061021008001001001MA1999999096661MD1999999+0061REMSYN070AAXX  22184 82784 32598 61809 10284 20188 39666 40133 86200 333 58006;
0168827840999992005082300004-07317-039300FM-12+040999999V0201401N003110120019N0020001N1+02441+01661101581ADDGF107991071081008001001001KA1240M+02961MA1999999096901MD1999999-0081REMSYN088AAXX  23004 82784 32595 71406 10244 20166 39690 40158 87800 333 10296 29061 55054 59008;
0166827840999992005082312004-07317-039300FM-12+040999999V0201801N002612200019N0200001N1+02581+01521101761ADDGA1001+999999999GF100991001001999999001001KA1240N+01941MA1999999097071MD1999999+0001REMSYN070AAXX  23124 82784 32998 01805 10258 20152 39707 40176 333 20194 58000;
0137827840999992005082318004-07317-039300FM-12+040999999V0200901N002612200019N0200001N1+03171+01491101321ADDGF103991031021008001001001MA1999999096661MD1999999+0001REMSYN070AAXX  23184 82784 32598 30905 10317 20149 39666 40132 83200 333 58000;
0168827840999992005082400004-07317-039300FM-12+040999999V0201401N003110075019N0020001N1+02631+01761101581ADDGF106991061041008001001001KA1240M+03251MA1999999096911MD1999999+0011REMSYN088AAXX  24004 82784 32595 61406 10263 20176 39691 40158 86400 333 10325 29052 55108 58001;
0201827840999992005082412004-07317-039300FM-12+040999999V0201801N002110075019N0200001N1+02421+01951101791ADDAA124001091AY161061AY221061GF108991081041008001999999KA1240N+02021MA1999999097091MD1999999+0021MW1021REMSYN088AAXX  24124 82784 21598 81804 10242 20195 39709 40179 70262 884// 333 20202 58002 60014;
0137827840999992005082418004-07317-039300FM-12+040999999V0201801N003610075019N0200001N1+02881+01731101461ADDGF107991071021008001001001MA1999999096781MD1999999+0121REMSYN070AAXX  24184 82784 32598 71807 10288 20173 39678 40146 87200 333 58012;
0168827840999992005082500004-07317-039300FM-12+040999999V0201401N002110075019N0020001N1+02561+01781101651ADDGF105991051021008001001001KA1240M+03031MA1999999096971MD1999999+0061REMSYN088AAXX  25004 82784 32595 51404 10256 20178 39697 40165 85200 333 10303 29062 55051 58006;
0156827840999992005082512004-07317-039300FM-12+040999999V0200901N003110450019N0200001N1+02531+01731101741ADDGF107991021021008001031001KA1240N+02151MA1999999097061MD1999999-0031REMSYN076AAXX  25124 82784 32598 70906 10253 20173 39706 40174 82230 333 20215 59003;
0137827840999992005082518004-07317-039300FM-12+040999999V0201401N002610120019N0200001N1+03131+01731101241ADDGF106991061081008001001001MA1999999096601MD1999999-0181REMSYN070AAXX  25184 82784 32598 61405 10313 20173 39660 40124 86800 333 59018;
0168827840999992005082600004-07317-039300FM-12+040999999V0201401N001012200019N0020001N1+02571+01741101361ADDGF101991011011008001001001KA1240M+03201MA1999999096701MD1999999-0271REMSYN088AAXX  26004 82784 32595 11402 10257 20174 39670 40136 81100 333 10320 29056 55073 59027;
0166827840999992005082612004-07317-039300FM-12+040999999V0201401N001512200019N0200001N1+02671+01821101581ADDGA1001+999999999GF100991001001999999001001KA1240N+02001MA1999999096911MD1999999-0151REMSYN070AAXX  26124 82784 32998 01403 10267 20182 39691 40158 333 20200 59015;
0137827840999992005082618004-07317-039300FM-12+040999999V0201801N004612200019N0200001N1+03401+01641101121ADDGF102991021021008001001001MA1999999096501MD1999999-0101REMSYN070AAXX  26184 82784 32598 21809 10340 20164 39650 40112 82200 333 59010;
0168827840999992005082700004-07317-039300FM-12+040999999V0201401N001512200019N0020001N1+02651+01511101481ADDGF102991021021008001001001KA1240M+03521MA1999999096821MD1999999+0121REMSYN088AAXX  27004 82784 32595 21403 10265 20151 39682 40148 82200 333 10352 29049 55108 58012;
0156827840999992005082712004-07317-039300FM-12+040999999V0201401N004112200019N0200001N1+02581+01521101751ADDGF101991011011008001001001KA1240N+01801MA1999999096071MD1999999+0161REMSYN076AAXX  27124 82784 32598 11408 10258 20152 39607 40175 81100 333 20180 58016;
0137827840999992005082718004-07317-039300FM-12+040999999V0201401N001512200019N0200001N1+03201+01591101231ADDGF102991021011008001001001MA1999999096581MD1999999+0081REMSYN070AAXX  27184 82784 32598 21403 10320 20159 39658 40123 82100 333 58008;
0178827840999992005082800004-07317-039300FM-12+040999999V0200901N001012200019N0020001N1+02441+01591101521ADDGA1001+999999999GF100991001001999999001001KA1240M+03311MA1999999096851MD1999999+0031REMSYN082AAXX  28004 82784 32995 00902 10244 20159 39685 40152 333 10331 29052 55109 58003;
0156827840999992005082812004-07317-039300FM-12+040999999V0201801N004110075019N0200001N1+02661+01741101661ADDGF106991061011008001001001KA1240N+01901MA1999999096981MD1999999-0071REMSYN076AAXX  28124 82784 32598 61808 10266 20174 39698 40166 86100 333 20190 59007;
0137827840999992005082818004-07317-039300FM-12+040999999V0201401N002610075019N0200001N1+03141+01581101181ADDGF106991061021008001001001MA1999999096541MD1999999-0041REMSYN070AAXX  28184 82784 32598 61405 10314 20158 39654 40118 86200 333 59004;
0168827840999992005082900004-07317-039300FM-12+040999999V0201801N003612200019N0020001N1+02661+01741101411ADDGF102991021011008001001001KA1240M+03241MA1999999096751MD1999999-0101REMSYN088AAXX  29004 82784 32595 21807 10266 20174 39675 40141 82100 333 10324 29052 55103 59010;
0156827840999992005082912004-07317-039300FM-12+040999999V0201401N003612200019N0200001N1+02651+01661101661ADDGF103991031021008001001001KA1240N+01971MA1999999096991MD1999999+0011REMSYN076AAXX  29124 82784 32598 31407 10265 20166 39699 40166 83200 333 20197 58001;
0137827840999992005082918004-07317-039300FM-12+040999999V0201801N003610120019N0200001N1+03111+01501101191ADDGF107991071081008001001001MA1999999096541MD1999999+0001REMSYN070AAXX  29184 82784 32598 71807 10311 20150 39654 40119 87800 333 58000;
0168827840999992005083000004-07317-039300FM-12+040999999V0200901N001010075019N0020001N1+02551+01671101411ADDGF105991051041008001001001KA1240M+03231MA1999999096751MD1999999+0001REMSYN088AAXX  30004 82784 32595 50902 10255 20167 39675 40141 85400 333 10323 29052 55088 58000;
0156827840999992005083012004-07317-039300FM-12+040999999V0201401N002612200019N0200001N1+02601+01601101741ADDGF101991011011008001001001KA1240N+01881MA1999999097061MD1999999+0071REMSYN076AAXX  30124 82784 32598 11405 10260 20160 39706 40174 81100 333 20188 58007;
0137827840999992005083018004-07317-039300FM-12+040999999V0201401N002612200019N0200001N1+03341+01131101191ADDGF101991011011008001001001MA1999999096551MD1999999+0011REMSYN070AAXX  30184 82784 32598 11405 10334 20113 39655 40119 81100 333 58001;
0178827840999992005083100004-07317-039300FM-12+040999999V0201801N003112200019N0020001N1+02701+01671101471ADDGA1001+999999999GF100991001001999999001001KA1240M+03451MA1999999096811MD1999999+0061REMSYN082AAXX  31004 82784 32995 01806 10270 20167 39681 40147 333 10345 29044 55106 58006;
0156827840999992005083112004-07317-039300FM-12+040999999V0201401N002612200019N0200001N1+02541+01761101711ADDGF101991011011008001001001KA1240N+01761MA1999999097041MD1999999-0021REMSYN076AAXX  31124 82784 32598 11405 10254 20176 39704 40171 81100 333 20176 59002;
0137827840999992005083118004-07317-039300FM-12+040999999V0201801N004112200019N0200001N1+03421+01141100961ADDGF101991011011008001001001MA1999999096341MD1999999-0211REMSYN070AAXX  31184 82784 32598 11808 10342 20114 39634 40096 81100 333 59021;
0168827840999992005090100004-07317-039300FM-12+040999999V0200901N001512200019N0020001N1+02651+01451101301ADDGF101991011011008001001001KA1240M+03401MA1999999096651MD1999999-0161REMSYN088AAXX  01004 82784 32595 10903 10265 20145 39665 40130 81100 333 10340 29046 55108 59016;
0137827840999992005090118004-07317-039300FM-12+040999999V0201801N002612200019N0200001N1+03081+01601101171ADDGF102991021011008001001001MA1999999096521MD1999999+0181REMSYN070AAXX  01184 82784 32598 21805 10308 20160 39652 40117 82100 333 58018;
0168827840999992005090200004-07317-039300FM-12+040999999V0201401N003112200019N0020001N1+02601+01631101431ADDGF101991011041008001001001KA1240M+03191MA1999999096761MD1999999+0111REMSYN088AAXX  02004 82784 32595 11406 10260 20163 39676 40143 81400 333 10319 29055 55106 58011;
0156827840999992005090212004-07317-039300FM-12+040999999V0201801N002610075019N0200001N1+02601+01741101671ADDGF106991061021008001001001KA1240N+02021MA1999999097001MD1999999+0001REMSYN076AAXX  02124 82784 32598 61805 10260 20174 39700 40167 86200 333 20202 58000;
0137827840999992005090218004-07317-039300FM-12+040999999V0201401N003612200019N0200001N1+03341+01491101101ADDGF101991011011008001001001MA1999999096471MD1999999-0051REMSYN070AAXX  02184 82784 32598 11407 10334 20149 39647 40110 81100 333 59005;
0168827840999992005090300004-07317-039300FM-12+040999999V0201401N002112200019N0020001N1+02661+01591101421ADDGF101991011011008001001001KA1240M+03431MA1999999096761MD1999999+0001REMSYN088AAXX  03004 82784 32595 11404 10266 20159 39676 40142 81100 333 10343 29049 55089 58000;
0156827840999992005090312004-07317-039300FM-12+040999999V0201401N003110075019N0020001N1+02631+01781101731ADDGF106991061021008001001001KA1240N+02061MA1999999097061MD1999999+0061REMSYN076AAXX  03124 82784 32595 61406 10263 20178 39706 40173 86200 333 20206 58006;
0137827840999992005090318004-07317-039300FM-12+040999999V0201801N002110075019N0200001N1+03321+01611101111ADDGF105991051021008001001001MA1999999096471MD1999999+0001REMSYN070AAXX  03184 82784 32598 51804 10332 20161 39647 40111 85200 333 58000;
0168827840999992005090400004-07317-039300FM-12+040999999V0201401N003112200019N0020001N1+02611+01631101371ADDGF101991011041008001001001KA1240M+03411MA1999999096711MD1999999-0051REMSYN088AAXX  04004 82784 32595 11406 10261 20163 39671 40137 81400 333 10341 29052 55103 59005;
0175827840999992005090412004-07317-039300FM-12+040999999V0200901N003112200019N0200001N1+02541+01771101741ADDGF102991999021008001001001KA1240N+02001MA1999999097061MD1999999+0001REMSYN076AAXX  04124 82784 32598 20906 10254 20177 39706 40174 83200 333 20200 58000;EQDQ01+000032SCOTLC
0137827840999992005090418004-07317-039300FM-12+040999999V0201801N003112200019N0200001N1+03331+01451101111ADDGF101991011011008001001001MA1999999096481MD1999999-0011REMSYN070AAXX  04184 82784 32598 11806 10333 20145 39648 40111 81100 333 59001;
0168827840999992005090500004-07317-039300FM-12+040999999V0209999C000012200019N0020001N1+02391+01601101431ADDGF101991011011008001001001KA1240M+03441MA1999999096771MD1999999+0061REMSYN088AAXX  05004 82784 32595 10000 10239 20160 39677 40143 81100 333 10344 29054 55108 58006;
0156827840999992005090512004-07317-039300FM-12+040999999V0201401N002612200019N0200001N1+02621+01811101761ADDGF102991021011008001001001KA1240N+01901MA1999999097071MD1999999+0011REMSYN076AAXX  05124 82784 32598 21405 10262 20181 39707 40176 82100 333 20190 58001;
0137827840999992005090518004-07317-039300FM-12+040999999V0201801N002112200019N0200001N1+03311+01481101121ADDGF101991011011008001001001MA1999999096481MD1999999+0001REMSYN070AAXX  05184 82784 32598 11804 10331 20148 39648 40112 81100 333 58000;
0178827840999992005090600004-07317-039300FM-12+040999999V0201401N003112200019N0020001N1+02601+01411101381ADDGA1001+999999999GF100991001001999999001001KA1240M+03431MA1999999096721MD1999999-0051REMSYN082AAXX  06004 82784 32995 01406 10260 20141 39672 40138 333 10343 29048 55108 59005;
0156827840999992005090612004-07317-039300FM-12+040999999V0201401N002612200019N0200001N1+02681+01761101641ADDGF101991011011008001001001KA1240N+01901MA1999999096971MD1999999-0101REMSYN076AAXX  06124 82784 32598 11405 10268 20176 39697 40164 81100 333 20190 59010;
0137827840999992005090618004-07317-039300FM-12+040999999V0202301N001512200019N0200001N1+03411+01811100921ADDGF101991011021008001001001MA1999999096441MD1999999-0041REMSYN070AAXX  06184 82784 32598 12303 10341 20181 39644 40092 81200 333 59004;
0168827840999992005090700004-07317-039300FM-12+040999999V0201801N000512200019N0020001N1+02701+01961101231ADDGF102991021041008001001001KA1240M+03521MA1999999096371MD1999999+0011REMSYN088AAXX  07004 82784 32595 21801 10270 20196 39637 40123 82400 333 10352 29056 55104 58001;
0156827840999992005090712004-07317-039300FM-12+040999999V0201401N003610075019N0200001N1+02691+01751101581ADDGF105991051011008001001001KA1240N+01921MA1999999097061MD1999999+0091REMSYN076AAXX  07124 82784 32598 51407 10269 20175 39706 40158 85100 333 20192 58009;
0137827840999992005090718004-07317-039300FM-12+040999999V0203601N001510075019N0200001N1+03341+01751101071ADDGF106991061011008001001001MA1999999096601MD1999999+0161REMSYN070AAXX  07184 82784 32598 63603 10334 20175 39660 40107 86100 333 58016;
0168827840999992005090800004-07317-039300FM-12+040999999V0201401N000512200019N0020001N1+02491+01781101361ADDGF102991021041008001001001KA1240M+03441MA1999999096841MD1999999+0111REMSYN088AAXX  08004 82784 32595 21401 10249 20178 39684 40136 82400 333 10344 29056 55101 58011;
0156827840999992005090812004-07317-039300FM-12+040999999V0201401N002610075019N0200001N1+02601+01741101671ADDGF106991051011008001011001KA1240N+02151MA1999999097121MD1999999+0061REMSYN076AAXX  08124 82784 32598 61405 10260 20174 39712 40167 85110 333 20215 58006;
0137827840999992005090818004-07317-039300FM-12+040999999V0201401N002110075019N0200001N1+03451+01481101161ADDGF106991061021008001001001MA1999999096631MD1999999+0031REMSYN070AAXX  08184 82784 32598 61404 10345 20148 39663 40116 86200 333 58003;
0168827840999992005090900004-07317-039300FM-12+040999999V0201401N002612200019N0020001N1+02751+01531101411ADDGF101991011041008001001001KA1240M+03491MA1999999096891MD1999999+0051REMSYN088AAXX  09004 82784 32595 11405 10275 20153 39689 40141 81400 333 10349 29046 55106 58005;
0156827840999992005090912004-07317-039300FM-12+040999999V0201401N004610075019N0200001N1+02561+01531101661ADDGF106991061011008001001001KA1240N+02051MA1999999097131MD1999999+0011REMSYN076AAXX  09124 82784 32598 61409 10256 20153 39713 40166 86100 333 20205 58001;
0137827840999992005090918004-07317-039300FM-12+040999999V0201401N003112200019N0200001N1+03241+01361101131ADDGF103991031011008001001001MA1999999096631MD1999999+0001REMSYN070AAXX  09184 82784 32598 31406 10324 20136 39663 40113 83100 333 58000;
0168827840999992005091000004-07317-039300FM-12+040999999V0201401N005112200019N0020001N1+02631+01501101471ADDGF101991011041008001001001KA1240M+03341MA1999999096941MD1999999+0051REMSYN088AAXX  10004 82784 32595 11410 10263 20150 39694 40147 81400 333 10334 29046 55108 58005;
0156827840999992005091012004-07317-039300FM-12+040999999V0201401N004112200019N0200001N1+02541+01571101741ADDGF102991021011008001001001KA1240N+02101MA1999999097201MD1999999+0071REMSYN076AAXX  10124 82784 32598 21408 10254 20157 39720 40174 82100 333 20210 58007;
0178827840999992005091100004-07317-039300FM-12+040999999V0201801N003112200019N0020001N1+02651+01211101431ADDGA1001+999999999GF100991001001999999001001KA1240M+03411MA1999999096901MD1999999-0041REMSYN082AAXX  11004 82784 32995 01806 10265 20121 39690 40143 333 10341 29040 55106 59004;
0156827840999992005091112004-07317-039300FM-12+040999999V0201401N004112200019N0200001N1+02601+01351101701ADDGF103991031001017501041011KA1240N+01951MA1999999097161MD1999999-0041REMSYN076AAXX  11124 82784 32798 31408 10260 20135 39716 40170 83041 333 20195 59004;
0137827840999992005091118004-07317-039300FM-12+040999999V0201401N003112200019N0200001N1+03221+01241101141ADDGF103991031001017501011011MA1999999096641MD1999999+0001REMSYN070AAXX  11184 82784 32798 31406 10322 20124 39664 40114 83011 333 58000;
0168827840999992005091200004-07317-039300FM-12+040999999V0200901N001012200019N0020001N1+02541+01631101311ADDGF101991011011008001001001KA1240M+03351MA1999999096781MD1999999-0121REMSYN088AAXX  12004 82784 32595 10902 10254 20163 39678 40131 81100 333 10335 29048 55109 59012;
0156827840999992005091212004-07317-039300FM-12+040999999V0201401N004112200019N0200001N1+02581+01401101711ADDGF101991011011008001001001KA1240N+01851MA1999999097161MD1999999+0001REMSYN076AAXX  12124 82784 32598 11408 10258 20140 39716 40171 81100 333 20185 58000;
0147827840999992005091218004-07317-039300FM-12+040999999V0201801N004112200019N0200001N1+03201+01231101131ADDGA1001+999999999GF100991001001999999001001MA1999999096631MD1999999-0011REMSYN064AAXX  12184 82784 32998 01808 10320 20123 39663 40113 333 59001;
0178827840999992005091300004-07317-039300FM-12+040999999V0201401N002112200019N0020001N1+02711+01561101401ADDGA1001+999999999GF100991001001999999001001KA1240M+03421MA1999999096881MD1999999+0101REMSYN082AAXX  13004 82784 32995 01404 10271 20156 39688 40140 333 10342 29044 55108 58010;
0156827840999992005091312004-07317-039300FM-12+040999999V0201801N002610075019N0200001N1+02551+01971101571ADDGF108991081021008001999999KA1240N+02081MA1999999097051MD1999999-0111REMSYN076AAXX  13124 82784 32598 81805 10255 20197 39705 40157 882// 333 20208 59011;
0156827840999992005091412004-07317-039300FM-12+040999999V0201801N001512200019N0200001N1+02551+01731101681ADDGF108991011021008001001011KA1240N+02001MA1999999097131MD1999999+0081REMSYN076AAXX  14124 82784 32598 81803 10255 20173 39713 40168 81201 333 20200 58008;
0137827840999992005091418004-07317-039300FM-12+040999999V0201401N004112200019N0200001N1+03191+01511101091ADDGF101991011011008001001001MA1999999096591MD1999999-0011REMSYN070AAXX  14184 82784 32598 11408 10319 20151 39659 40109 81100 333 59001;
0178827840999992005091500004-07317-039300FM-12+040999999V0201801N001512200019N0020001N1+02541+01861101451ADDGA1001+999999999GF100991001001999999001001KA1240M+03291MA1999999096911MD1999999+0091REMSYN082AAXX  15004 82784 32995 01803 10254 20186 39691 40145 333 10329 29057 55103 58009;
0166827840999992005091512004-07317-039300FM-12+040999999V0201801N004112200019N0200001N1+02691+01641101761ADDGA1001+999999999GF100991001001999999001001KA1240N+01881MA1999999097221MD1999999+0091REMSYN070AAXX  15124 82784 32998 01808 10269 20164 39722 40176 333 20188 58009;
0137827840999992005091518004-07317-039300FM-12+040999999V0201801N005112200019N0200001N1+03021+01761101331ADDGF104991041021008001001001MA1999999096791MD1999999+0201REMSYN070AAXX  15184 82784 32598 41810 10302 20176 39679 40133 84200 333 58020;
0178827840999992005091600004-07317-039300FM-12+040999999V0201401N003112200019N0020001N1+02521+01861101531ADDGA1001+999999999GF100991001001999999001001KA1240M+03211MA1999999097001MD1999999+0091REMSYN082AAXX  16004 82784 32995 01406 10252 20186 39700 40153 333 10321 29058 55105 58009;
0156827840999992005091612004-07317-039300FM-12+040999999V0201401N004612200019N0200001N1+02641+01631101741ADDGF102991021021008001001001KA1240N+02041MA1999999097201MD1999999-0021REMSYN076AAXX  16124 82784 32598 21409 10264 20163 39720 40174 82200 333 20204 59002;
0147827840999992005091618004-07317-039300FM-12+040999999V0200901N003112200019N0200001N1+03261+01471101101ADDGA1001+999999999GF100991001001999999001001MA1999999096601MD1999999-0191REMSYN064AAXX  16184 82784 32998 00906 10326 20147 39660 40110 333 59019;
0178827840999992005091700004-07317-039300FM-12+040999999V0201401N004112200019N0020001N1+02601+01411101381ADDGA1001+999999999GF100991001001999999001001KA1240M+03351MA1999999096861MD1999999-0141REMSYN082AAXX  17004 82784 32995 01408 10260 20141 39686 40138 333 10335 29046 55110 59014;
0156827840999992005091712004-07317-039300FM-12+040999999V0200901N002112200019N0200001N1+02561+01621101571ADDGF101991011011008001001001KA1240N+01881MA1999999097041MD1999999-0161REMSYN076AAXX  17124 82784 32598 10904 10256 20162 39704 40157 81100 333 20188 59016;
0147827840999992005091718004-07317-039300FM-12+040999999V0203201N002612200019N0200001N1+03361+01511100891ADDGA1001+999999999GF100991001001999999001001MA1999999096401MD1999999-0201REMSYN064AAXX  17184 82784 32998 03205 10336 20151 39640 40089 333 59020;
0168827840999992005091800004-07317-039300FM-12+040999999V0201401N002112200019N0020001N1+02811+01281101211ADDGF101991011021017501001001KA1240M+03541MA1999999096711MD1999999-0151REMSYN088AAXX  18004 82784 32795 11404 10281 20128 39671 40121 81200 333 10354 29042 55111 59015;
0156827840999992005091812004-07317-039300FM-12+040999999V0201401N001512200019N0200001N1+02701+01661101571ADDGF101991011011008001001001KA1240N+01921MA1999999097061MD1999999+0021REMSYN076AAXX  18124 82784 32598 11403 10270 20166 39706 40157 81100 333 20192 58002;
0137827840999992005091818004-07317-039300FM-12+040999999V0201401N003112200019N0200001N1+03381+01381100991ADDGF102991021011008001001001MA1999999096511MD1999999+0111REMSYN070AAXX  18184 82784 32598 21406 10338 20138 39651 40099 82100 333 58011;
0178827840999992005091900004-07317-039300FM-12+040999999V0201801N004112200019N0020001N1+02761+01431101261ADDGA1001+999999999GF100991001001999999001001KA1240M+03501MA1999999096771MD1999999+0061REMSYN082AAXX  19004 82784 32995 01808 10276 20143 39677 40126 333 10350 29043 55102 58006;
0156827840999992005091912004-07317-039300FM-12+040999999V0201401N003110075019N0200001N1+02641+01801101651ADDGF106991061041008001001001KA1240N+02011MA1999999097131MD1999999+0071REMSYN076AAXX  19124 82784 32598 61406 10264 20180 39713 40165 86400 333 20201 58007;
0137827840999992005091918004-07317-039300FM-12+040999999V0201401N002612200019N0200001N1+03321+01891101051ADDGF103991031011008001001001MA1999999096561MD1999999+0051REMSYN070AAXX  19184 82784 32598 31405 10332 20189 39656 40105 83100 333 58005;
0168827840999992005092000004-07317-039300FM-12+040999999V0201401N003112200019N0020001N1+02751+01751101331ADDGF102991011021008001031001KA1240M+03421MA1999999096831MD1999999+0061REMSYN088AAXX  20004 82784 32595 21406 10275 20175 39683 40133 81230 333 10342 29053 55091 58006;
0156827840999992005092012004-07317-039300FM-12+040999999V0200901N002112200019N0200001N1+02641+01831101471ADDGF103991031011008001001001KA1240N+02181MA1999999096961MD1999999-0171REMSYN076AAXX  20124 82784 32598 30904 10264 20183 39696 40147 83100 333 20218 59017;
0137827840999992005092018004-07317-039300FM-12+040999999V0202301N002112200019N0200001N1+03471+01551100921ADDGF101991011011008001001001MA1999999096511MD1999999-0051REMSYN070AAXX  20184 82784 32598 12304 10347 20155 39651 40092 81100 333 59005;
0168827840999992005092100004-07317-039300FM-12+040999999V0201801N002112200019N0020001N1+02541+01761101151ADDGF101991011011008001001001KA1240M+03571MA1999999096641MD1999999-0191REMSYN088AAXX  21004 82784 32595 11804 10254 20176 39664 40115 81100 333 10357 29054 55101 59019;
0166827840999992005092112004-07317-039300FM-12+040999999V0203201N003112200019N0200001N1+02701+01831101311ADDGA1001+999999999GF100991001001999999001001KA1240N+01721MA1999999096791MD1999999-0171REMSYN070AAXX  21124 82784 32998 03206 10270 20183 39679 40131 333 20172 59017;
0147827840999992005092118004-07317-039300FM-12+040999999V0200501N002112200019N0200001N1+03561+01311100671ADDGA1001+999999999GF100991001001999999001001MA1999999096211MD1999999-0301REMSYN064AAXX  21184 82784 32998 00504 10356 20131 39621 40067 333 59030;
0178827840999992005092200004-07317-039300FM-12+040999999V0201801N001012200019N0020001N1+02531+01681100941ADDGA1001+999999999GF100991001001999999001001KA1240M+03631MA1999999096431MD1999999-0211REMSYN082AAXX  22004 82784 32995 01802 10253 20168 39643 40094 333 10363 29051 55111 59021;
0156827840999992005092212004-07317-039300FM-12+040999999V0200501N002612200019N0200001N1+02641+01831101211ADDGF102991011011008001001011KA1240N+01781MA1999999096691MD1999999-0101REMSYN076AAXX  22124 82784 32598 20505 10264 20183 39669 40121 81101 333 20178 59010;
0137827840999992005092218004-07317-039300FM-12+040999999V0200501N001510450019N0200001N1+03421+01831100701ADDGF108991021021008001031999MA1999999096221MD1999999+0011REMSYN070AAXX  22184 82784 32598 80503 10342 20183 39622 40070 8223/ 333 58001;
0168827840999992005092300004-07317-039300FM-12+040999999V0201801N000512200019N0020001N1+02801+02111100981ADDGF103991031041008001001001KA1240M+03511MA1999999096491MD1999999+0061REMSYN088AAXX  23004 82784 32595 31801 10280 20211 39649 40098 83400 333 10351 29058 55108 58006;
0175827840999992005092312004-07317-039300FM-12+040999999V0200501N001010075019N0200001N1+02501+01981101351ADDGF108991999021008001011999KA1240N+02291MA1999999096841MD1999999+0151REMSYN076AAXX  23124 82784 32598 80502 10250 20198 39684 40135 8821/ 333 20229 58015;EQDQ01+000082SCOTLC
0137827840999992005092318004-07317-039300FM-12+040999999V0201801N002110075019N0200001N1+03191+01961100821ADDGF106991061021008001001001MA1999999096351MD1999999+0131REMSYN070AAXX  23184 82784 32598 61804 10319 20196 39635 40082 86200 333 58013;
0168827840999992005092400004-07317-039300FM-12+040999999V0201401N005110120019N0020001N1+02701+01911101201ADDGF106991061081008001001001KA1240M+03381MA1999999096681MD1999999+0191REMSYN088AAXX  24004 82784 32595 61410 10270 20191 39668 40120 86800 333 10338 29061 55050 58019;
0175827840999992005092412004-07317-039300FM-12+040999999V0200501N002619999999N0200001N1+02591+01921101331ADDGF107991999011008001001001KA1240N+02251MA1999999096821MD1999999-0021REMSYN076AAXX  24124 82784 32598 70505 10259 20192 39682 40133 82100 333 20225 59002;EQDQ01+000022SCOTLC
0137827840999992005092418004-07317-039300FM-12+040999999V0200901N002112200019N0200001N1+03361+01411100771ADDGF101991011021008001001001MA1999999096321MD1999999-0031REMSYN070AAXX  24184 82784 32598 10904 10336 20141 39632 40077 81200 333 59003;
0168827840999992005092500004-07317-039300FM-12+040999999V0201801N002112200019N0020001N1+02831+01681101071ADDGF102991021041008001001001KA1240M+03601MA1999999096571MD1999999-0111REMSYN088AAXX  25004 82784 32595 21804 10283 20168 39657 40107 82400 333 10360 29049 55077 59011;
0156827840999992005092512004-07317-039300FM-12+040999999V0200501N002112200019N0200001N1+02651+01601101451ADDGF101991011011008001001001KA1240N+01861MA1999999096941MD1999999+0121REMSYN076AAXX  25124 82784 32598 10504 10265 20160 39694 40145 81100 333 20186 58012;
0137827840999992005092518004-07317-039300FM-12+040999999V0200501N002112200019N0200001N1+03431+01201100891ADDGF101991011011008001001001MA1999999096411MD1999999+0091REMSYN070AAXX  25184 82784 32598 10504 10343 20120 39641 40089 81100 333 58009;
0178827840999992005092600004-07317-039300FM-12+040999999V0209999C000012200019N0020001N1+02501+01721101121ADDGA1001+999999999GF100991001001999999001001KA1240M+03531MA1999999096611MD1999999+0041REMSYN082AAXX  26004 82784 32995 00000 10250 20172 39661 40112 333 10353 29051 55101 58004;
0156827840999992005092612004-07317-039300FM-12+040999999V0201401N004112200019N0200001N1+02721+01561101521ADDGF102991021011008001001001KA1240N+01841MA1999999096991MD1999999+0051REMSYN076AAXX  26124 82784 32598 21408 10272 20156 39699 40152 82100 333 20184 58005;
0147827840999992005092618004-07317-039300FM-12+040999999V0200501N002612200019N0200001N1+03441+01631100971ADDGA1001+999999999GF100991001001999999001001MA1999999096481MD1999999+0071REMSYN064AAXX  26184 82784 32998 00505 10344 20163 39648 40097 333 58007;
0168827840999992005092700004-07317-039300FM-12+040999999V0201401N002112200019N0020001N1+02741+01511101221ADDGF101991011041008001001001KA1240M+03571MA1999999096731MD1999999+0121REMSYN088AAXX  27004 82784 32595 11404 10274 20151 39673 40122 81400 333 10357 29044 55106 58012;
0156827840999992005092712004-07317-039300FM-12+040999999V0200501N001510075019N0200001N1+02671+01821101581ADDGF106991061021008001001001KA1240N+02161MA1999999097061MD1999999+0071REMSYN076AAXX  27124 82784 32598 60503 10267 20182 39706 40158 86200 333 20216 58007;
0137827840999992005092718004-07317-039300FM-12+040999999V0200501N002612200019N0200001N1+03441+01671100921ADDGF101991011021008001001001MA1999999096461MD1999999-0021REMSYN070AAXX  27184 82784 32598 10505 10344 20167 39646 40092 81200 333 59002;
0168827840999992005092800004-07317-039300FM-12+040999999V0201401N001512200019N0020001N1+02861+01811101211ADDGF103991031011008001001001KA1240M+03531MA1999999096741MD1999999+0011REMSYN088AAXX  28004 82784 32595 31403 10286 20181 39674 40121 83100 333 10353 29050 55095 58001;
0156827840999992005092812004-07317-039300FM-12+040999999V0200901N003110075019N0200001N1+02591+01821101561ADDGF107991071021008001001001KA1240N+02121MA1999999097051MD1999999-0011REMSYN076AAXX  28124 82784 32598 70906 10259 20182 39705 40156 87200 333 20212 59001;
0137827840999992005092818004-07317-039300FM-12+040999999V0201401N003110075019N0200001N1+03441+01381100801ADDGF106991061011008001001001MA1999999096341MD1999999-0121REMSYN070AAXX  28184 82784 32598 61406 10344 20138 39634 40080 86100 333 59012;
0178827840999992005092900004-07317-039300FM-12+040999999V0201401N001512200019N0020001N1+02811+01751101151ADDGA1001+999999999GF100991001001999999001001KA1240M+03531MA1999999096651MD1999999-0091REMSYN082AAXX  29004 82784 32995 01403 10281 20175 39665 40115 333 10353 29050 55068 59009;
0156827840999992005092912004-07317-039300FM-12+040999999V0201401N002612200019N0200001N1+02661+01331101581ADDGF101991011011008001001001KA1240N+01941MA1999999097071MD1999999+0021REMSYN076AAXX  29124 82784 32598 11405 10266 20133 39707 40158 81100 333 20194 58002;
0156827840999992005092918004-07317-039300FM-12+040999999V0201801N002112200019N0200001N1+03351+01191100782ADDGF101991011011008001001001MA1999999096311MD1999999-0031REMSYN070AAXX  29184 82784 32598 11804 10335 20119 39631 40078 81100 333 59003;EQDQ01+100783APOSLP
0168827840999992005093000004-07317-039300FM-12+040999999V0201801N001512200019N0020001N1+02601+01631101161ADDGF103991031021008001001001KA1240M+03441MA1999999096651MD1999999+0001REMSYN088AAXX  30004 82784 32595 31803 10260 20163 39665 40116 83200 333 10344 29046 55108 58000;
0175827840999992005093012004-07317-039300FM-12+040999999V0200901N002619999999N0200001N1+02721+01711101561ADDGF105991999011008001001001KA1240N+02181MA1999999097041MD1999999-0031REMSYN076AAXX  30124 82784 32598 50905 10272 20171 39704 40156 86100 333 20218 59003;EQDQ01+000062SCOTLC
0137827840999992005093018004-07317-039300FM-12+040999999V0201801N002110075019N0200001N1+03401+01541100931ADDGF106991061021008001001001MA1999999096471MD1999999+0161REMSYN070AAXX  30184 82784 32598 61804 10340 20154 39647 40093 86200 333 58016;
0155827840999992005100100004-07317-039300FM-12+040999999V0201801N002112200019N0020001N1+02771+01791101181ADDGF101991011011008001001001MA1999999096691MD1999999+0041REMSYN088AAXX  01004 82784 32595 11804 10277 20179 39669 40118 81100 333 10352 29049 55090 58004;
0143827840999992005100112004-07317-039300FM-12+040999999V0201401N004612200019N0200001N1+02811+01751101461ADDGF102991021021008001001001MA1999999096971MD1999999-0071REMSYN076AAXX  01124 82784 32598 21409 10281 20175 39697 40146 82200 333 20218 59007;
0137827840999992005100118004-07317-039300FM-12+040999999V0201401N002112200019N0200001N1+03441+01761100861ADDGF102991021021008001001001MA1999999096411MD1999999-0061REMSYN070AAXX  01184 82784 32598 21404 10344 20176 39641 40086 82200 333 59006;
0155827840999992005100200004-07317-039300FM-12+040999999V0201401N001512200019N0020001N1+02821+01911101141ADDGF101991011011008001001001MA1999999096661MD1999999-0031REMSYN088AAXX  02004 82784 32595 11403 10282 20191 39666 40114 81100 333 10358 29052 55107 59003;
0137827840999992005100212004-07317-039300FM-12+040999999V0201401N002112200019N0200001N1+02861+01721101351ADDGF100991001001999999001001MA1999999096871MD1999999-0101REMSYN070AAXX  02124 82784 32998 01404 10286 20172 39687 40135 333 20212 59010;
0137827840999992005100218004-07317-039300FM-12+040999999V0201401N001512200019N0200001N1+03561+01431100651ADDGF101991011011008001001001MA1999999096231MD1999999-0171REMSYN070AAXX  02184 82784 32598 11403 10356 20143 39623 40065 81100 333 59017;
0149827840999992005100300004-07317-039300FM-12+040999999V0201401N001512200019N0020001N1+02901+01481100941ADDGF100991001001999999001001MA1999999096491MD1999999-0171REMSYN082AAXX  03004 82784 32995 01403 10290 20148 39649 40094 333 10367 29040 55110 59017;
0143827840999992005100312004-07317-039300FM-12+040999999V0200901N003612200019N0200001N1+02771+01761101301ADDGF101991011021008001001001MA1999999096821MD1999999-0051REMSYN076AAXX  03124 82784 32598 10907 10277 20176 39682 40130 81200 333 20212 59005;
0137827840999992005100318004-07317-039300FM-12+040999999V0200901N002112200019N0200001N1+03481+01521100671ADDGF101991011021008001001001MA1999999096231MD1999999+0001REMSYN070AAXX  03184 82784 32598 10904 10348 20152 39623 40067 81200 333 58000;
0149827840999992005100400004-07317-039300FM-12+040999999V0201401N002112200019N0020001N1+02961+01531101081ADDGF100991001001999999001001MA1999999096611MD1999999+0121REMSYN082AAXX  04004 82784 32995 01404 10296 20153 39661 40108 333 10357 29042 55108 58012;
0137827840999992005100412004-07317-039300FM-12+040999999V0201401N002612200019N0200001N1+02741+01671101311ADDGF100991001001999999001001MA1999999096831MD1999999+0011REMSYN070AAXX  04124 82784 32998 01405 10274 20167 39683 40131 333 20220 58001;
0137827840999992005100418004-07317-039300FM-12+040999999V0200501N001512200019N0200001N1+03401+01681100791ADDGF101991011021008001001001MA1999999096351MD1999999+0121REMSYN070AAXX  04184 82784 32598 10503 10340 20168 39635 40079 81200 333 58012;
0149827840999992005100500004-07317-039300FM-12+040999999V0201401N001012200019N0020001N1+02831+01651101051ADDGF100991001001999999001001MA1999999096571MD1999999-0041REMSYN082AAXX  05004 82784 32995 01402 10283 20165 39657 40105 333 10356 29046 55110 59004;
0143827840999992005100512004-07317-039300FM-12+040999999V0201801N002112200019N0200001N1+02841+01931101361ADDGF102991021021008001001001MA1999999096881MD1999999+0051REMSYN076AAXX  05124 82784 32598 21804 10284 20193 39688 40136 82200 333 20238 58005;
0137827840999992005100518004-07317-039300FM-12+040999999V0201401N002112200019N0200001N1+03401+01641100741ADDGF102991021021008001001001MA1999999096331MD1999999-0021REMSYN070AAXX  05184 82784 32598 21404 10340 20164 39633 40074 82200 333 59002;
0155827840999992005100600004-07317-039300FM-12+040999999V0201401N002112200019N0020001N1+03011+01491101081ADDGF101991011041008001001001MA1999999096621MD1999999+0051REMSYN088AAXX  06004 82784 32595 11404 10301 20149 39662 40108 81400 333 10359 29043 55108 58005;
0143827840999992005100612004-07317-039300FM-12+040999999V0201401N006210450019N0200001N1+02781+01671101421ADDGF108991021011008001011999MA1999999096951MD1999999+0071REMSYN076AAXX  06124 82784 32598 81412 10278 20167 39695 40142 8211/ 333 20221 58007;
0137827840999992005100618004-07317-039300FM-12+040999999V0200901N004610450019N0200001N1+03521+01221100941ADDGF107991041011008001011001MA1999999096501MD1999999+0171REMSYN070AAXX  06184 82784 32598 70909 10352 20122 39650 40094 84110 333 58017;
0149827840999992005100700004-07317-039300FM-12+040999999V0201401N001512200019N0020001N1+02771+01581101241ADDGF100991001001999999001001MA1999999096751MD1999999+0131REMSYN082AAXX  07004 82784 32995 01403 10277 20158 39675 40124 333 10360 29043 55100 58013;
0143827840999992005100712004-07317-039300FM-12+040999999V0201401N004110075019N0200001N1+02721+01591101551ADDGF106991061011008001001001MA1999999097051MD1999999+0101REMSYN076AAXX  07124 82784 32598 61408 10272 20159 39705 40155 86100 333 20204 58010;
0137827840999992005100718004-07317-039300FM-12+040999999V0201401N002610075019N0200001N1+03421+01251100991ADDGF106991061051008001001001MA1999999096531MD1999999+0031REMSYN070AAXX  07184 82784 32598 61405 10342 20125 39653 40099 86500 333 58003;
0200827840999992005100800004-07317-039300FM-12+040999999V0200501N002110075019N0020001N1+02601+01821101511ADDAA106000391AY121061AY221061GF108991081091008001999999MA1999999096991MD1999999+0241MW1201REMSYN100AAXX  08004 82784 21595 80504 10260 20182 39699 40151 72022 889// 333 10355 29050 55084 58024 69931;
0160827840999992005100812004-07317-039300FM-12+040999999V0201401N005110075019N0200001N1+02601+01631101691ADDAA124000391GF107991999021008001001001MA1999999097151MD1999999+0101REMSYN082AAXX  08124 82784 22598 71410 10260 20163 39715 40169 86200 333 20210 58010 69934;
0137827840999992005100818004-07317-039300FM-12+040999999V0201801N004112200019N0200001N1+03341+01451101051ADDGF103991031011008001001001MA1999999096561MD1999999+0031REMSYN070AAXX  08184 82784 32598 31808 10334 20145 39656 40105 83100 333 58003;
0149827840999992005100900004-07317-039300FM-12+040999999V0201401N002112200019N0020001N1+02711+01621101281ADDGF100991001001999999001001MA1999999096771MD1999999-0221REMSYN082AAXX  09004 82784 32995 01404 10271 20162 39677 40128 333 10345 29047 55110 59022;
0143827840999992005100912004-07317-039300FM-12+040999999V0201401N004112200019N0200001N1+02671+01501101561ADDGF102991021011008001001001MA1999999097041MD1999999-0111REMSYN076AAXX  09124 82784 32598 21408 10267 20150 39704 40156 82100 333 20211 59011;
0137827840999992005100918004-07317-039300FM-12+040999999V0201401N003112200019N0200001N1+03321+01331100941ADDGF102991021011008001001001MA1999999096471MD1999999-0091REMSYN070AAXX  09184 82784 32598 21406 10332 20133 39647 40094 82100 333 59009;
0155827840999992005101000004-07317-039300FM-12+040999999V0201401N002612200019N0020001N1+02721+01461101221ADDGF101991011011008001001001MA1999999096721MD1999999-0051REMSYN088AAXX  10004 82784 32595 11405 10272 20146 39672 40122 81100 333 10344 29043 55110 59005;
0143827840999992005101012004-07317-039300FM-12+040999999V0201401N002612200019N0200001N1+02741+01611101301ADDGF102991021011008001001001MA1999999096811MD1999999+0231REMSYN076AAXX  10124 82784 32598 21405 10274 20161 39681 40130 82100 333 20225 58023;
0137827840999992005101018004-07317-039300FM-12+040999999V0200501N001512200019N0200001N1+03461+01401100731ADDGF101991011011008001001001MA1999999096291MD1999999-0181REMSYN070AAXX  10184 82784 32598 10503 10346 20140 39629 40073 81100 333 59018;
0149827840999992005101100004-07317-039300FM-12+040999999V0201801N003112200019N0020001N1+02821+01551100951ADDGF100991001001999999001001MA1999999096481MD1999999-0241REMSYN082AAXX  11004 82784 32995 01806 10282 20155 39648 40095 333 10357 29043 55112 59024;
0143827840999992005101112004-07317-039300FM-12+040999999V0201401N001510075019N0200001N1+02701+01751101301ADDGF106991061021008001001001MA1999999096811MD1999999+0001REMSYN076AAXX  11124 82784 32598 61403 10270 20175 39681 40130 86200 333 20228 58000;
0137827840999992005101118004-07317-039300FM-12+040999999V0201801N003110075019N0200001N1+03361+01691100761ADDGF105991051011008001001001MA1999999096311MD1999999+0021REMSYN070AAXX  11184 82784 32598 51806 10336 20169 39631 40076 85100 333 58002;
0155827840999992005101200004-07317-039300FM-12+040999999V0209999C000012200019N0020001N1+02721+01851101081ADDGF103991031011004501001001MA1999999096581MD1999999+0101REMSYN088AAXX  12004 82784 32495 30000 10272 20185 39658 40108 83100 333 10343 29052 55079 58010;
0143827840999992005101212004-07317-039300FM-12+040999999V0200501N003110075019N0200001N1+02731+01731101441ADDGF105991051021008001001001MA1999999096931MD1999999+0121REMSYN076AAXX  12124 82784 32598 50506 10273 20173 39693 40144 85200 333 20232 58012;
0137827840999992005101218004-07317-039300FM-12+040999999V0201401N002610450019N0200001N1+03371+01571100741ADDGF106991041021008001021001MA1999999096301MD1999999-0011REMSYN070AAXX  12184 82784 32598 61405 10337 20157 39630 40074 84220 333 59001;
0155827840999992005101300004-07317-039300FM-12+040999999V0201401N001010075019N0020001N1+02901+01811101051ADDGF106991061041008001001001MA1999999096571MD1999999-0011REMSYN088AAXX  13004 82784 32595 61402 10290 20181 39657 40105 86400 333 10353 29048 55095 59001;
0143827840999992005101312004-07317-039300FM-12+040999999V0201401N003112200019N0200001N1+02781+01551101411ADDGF104991011011008001001011MA1999999096931MD1999999+0001REMSYN076AAXX  13124 82784 32598 41406 10278 20155 39693 40141 81101 333 20222 58000;
0137827840999992005101318004-07317-039300FM-12+040999999V0201801N003112200019N0200001N1+03461+01771100731ADDGF107991031011008001001011MA1999999096301MD1999999+0001REMSYN070AAXX  13184 82784 32598 71806 10346 20177 39630 40073 83101 333 58000;
0155827840999992005101400004-07317-039300FM-12+040999999V0209999C000010120019N0020001N1+02741+01761100961ADDGF107991071081008001001001MA1999999096481MD1999999+0091REMSYN088AAXX  14004 82784 32595 70000 10274 20176 39648 40096 87800 333 10357 29046 55108 58009;
0143827840999992005101412004-07317-039300FM-12+040999999V0201401N002112200019N0200001N1+02711+01661101451ADDGF104991011011008001021001MA1999999096941MD1999999+0011REMSYN076AAXX  14124 82784 32598 41404 10271 20166 39694 40145 81120 333 20220 58001;
0137827840999992005101418004-07317-039300FM-12+040999999V0201401N002612200019N0200001N1+03501+01261100751ADDGF103991031011008001001001MA1999999096311MD1999999+0011REMSYN070AAXX  14184 82784 32598 31405 10350 20126 39631 40075 83100 333 58001;
0155827840999992005101500004-07317-039300FM-12+040999999V0209999C000012200019N0020001N1+02721+01791101151ADDGF102991011011008001031001MA1999999096651MD1999999+0171REMSYN088AAXX  15004 82784 32595 20000 10272 20179 39665 40115 81130 333 10360 29048 55108 58017;
0137827840999992005101512004-07317-039300FM-12+040999999V0201401N002112200019N0020001N1+02781+01511101321ADDGF100991001001999999001001MA1999999096831MD1999999-0111REMSYN070AAXX  15124 82784 32995 01404 10278 20151 39683 40132 333 20223 59011;
0137827840999992005101518004-07317-039300FM-12+040999999V0201401N003112200019N0200001N1+03561+01061100711ADDGF101991011011008001001001MA1999999096271MD1999999-0041REMSYN070AAXX  15184 82784 32598 11406 10356 20106 39627 40071 81100 333 59004;
0155827840999992005101600004-07317-039300FM-12+040999999V0201401N001512200019N0020001N1+02851+01601101051ADDGF102991021001017501041001MA1999999096571MD1999999-0081REMSYN088AAXX  16004 82784 32795 21403 10285 20160 39657 40105 82040 333 10367 29040 55112 59008;
0143827840999992005101612004-07317-039300FM-12+040999999V0200501N001512200019N0200001N1+02761+01621101331ADDGF102991021011008001001001MA1999999096851MD1999999+0021REMSYN076AAXX  16124 82784 32598 20503 10276 20162 39685 40133 82100 333 20212 58002;
0137827840999992005101618004-07317-039300FM-12+040999999V0200901N003112200019N0200001N1+03441+01381100771ADDGF102991021021008001001001MA1999999096321MD1999999+0051REMSYN070AAXX  16184 82784 32598 20906 10344 20138 39632 40077 82200 333 58005;
0155827840999992005101700004-07317-039300FM-12+040999999V0201401N001012200019N0020001N1+02801+01561101081ADDGF102991021011008001001001MA1999999096601MD1999999+0031REMSYN088AAXX  17004 82784 32595 21402 10280 20156 39660 40108 82100 333 10359 29043 55110 58003;
0143827840999992005101712004-07317-039300FM-12+040999999V0201401N002112200019N0200001N1+02921+01601101211ADDGF101991011011008001001001MA1999999096741MD1999999+0011REMSYN076AAXX  17124 82784 32598 11404 10292 20160 39674 40121 81100 333 20220 58001;
0137827840999992005101718004-07317-039300FM-12+040999999V0201401N003110075019N0200001N1+03541+01171100721ADDGF105991051021008001001001MA1999999096291MD1999999-0031REMSYN070AAXX  17184 82784 32598 51406 10354 20117 39629 40072 85200 333 59003;
0155827840999992005101800004-07320-039300FM-12+040999999V0209999C000010120019N0020001N1+02761+01941101041ADDGF106991061081008001001001MA1999999096571MD1999999-0031REMSYN088AAXX  18004 82784 32595 60000 10276 20194 39657 40104 86800 333 10369 29048 55104 59003;
0166827840999992005101812004-07317-039300FM-12+040999999V0201401N003112200019N0200001N1+02801+01661101301ADDGA1001+999999999GF100991001001999999001001KA1240N+02101MA1999999096821MD1999999+0081REMSYN070AAXX  18124 82784 32998 01406 10280 20166 39682 40130 333 20210 58008;
0137827840999992005101818004-07317-039300FM-12+040999999V0203601N002612200019N0200001N1+03541+01111100841ADDGF102991021011008001001001MA1999999096381MD1999999+0091REMSYN070AAXX  18184 82784 32598 23605 10354 20111 39638 40084 82100 333 58009;
0168827840999992005101900004-07317-039300FM-12+040999999V0209999C000010450019N0020001N1+02671+01901101061ADDGF105991031011008001031001KA1240M+03701MA1999999096571MD1999999+0001REMSYN088AAXX  19004 82784 32595 50000 10267 20190 39657 40106 83130 333 10370 29050 55114 58000;
0166827840999992005101912004-07317-039300FM-12+040999999V0200501N002612200019N0200001N1+02841+01881101321ADDGA1001+999999999GF100991001001999999001001KA1240N+02161MA1999999096831MD1999999+0011REMSYN070AAXX  19124 82784 32998 00505 10284 20188 39683 40132 333 20216 58001;
0137827840999992005101918004-07317-039300FM-12+040999999V0201801N002612200019N0200001N1+03651+01501100811ADDGF102991021011008001001001MA1999999096371MD1999999-0011REMSYN070AAXX  19184 82784 32598 21805 10365 20150 39637 40081 82100 333 59001;
0213827840999992005102000004-07317-039300FM-12+040999999V0201801N002610090019N0020001N1+03171+01431101041ADDAA106999999AY151061AY221061GF108991081081004501999999KA1240M+03741MA1999999096601MD1999999+0031MW1021REMSYN100AAXX  20004 82784 21495 81805 10317 20143 39660 40104 70252 888// 333 10374 29038 55110 58003 69911;
0192827840999992005102012004-07317-039300FM-12+040999999V0201401N004112200019N0200001N1+02691+01601101341ADDAA124000091GF101991011011008001001001KA1240N+02181MA1999999096881MD1999999+0051REMSYN082AAXX  20124 82784 22598 11408 10269 20160 39688 40134 81100 333 20218 58005 69914;EQDQ01  00002PRCP24
0137827840999992005102018004-07317-039300FM-12+040999999V0201801N003612200019N0200001N1+03481+01361100741ADDGF101991011011008001001001MA1999999096311MD1999999-0061REMSYN070AAXX  20184 82784 32598 11807 10348 20136 39631 40074 81100 333 59006;
0168827840999992005102100004-07317-039300FM-12+040999999V0201401N003112200019N0020001N1+02921+01501101011ADDGF101991011011008001001001KA1240M+03601MA1999999096541MD1999999-0061REMSYN088AAXX  21004 82784 32595 11406 10292 20150 39654 40101 81100 333 10360 29041 55113 59006;
0156827840999992005102112004-07317-039300FM-12+040999999V0201401N004112200019N0200001N1+02781+01581101271ADDGF102991021011008001001001KA1240N+02041MA1999999096791MD1999999-0091REMSYN076AAXX  21124 82784 32598 21408 10278 20158 39679 40127 82100 333 20204 59009;
0137827840999992005102118004-07317-039300FM-12+040999999V0201401N002112200019N0200001N1+03381+01431100821ADDGF103991021021008001021001MA1999999096351MD1999999+0041REMSYN070AAXX  21184 82784 32598 31404 10338 20143 39635 40082 82220 333 58004;
0168827840999992005102200004-07317-039300FM-12+040999999V0201401N001010075019N0020001N1+02691+01761100991ADDGF106991061041008001001001KA1240M+03471MA1999999096511MD1999999-0031REMSYN088AAXX  22004 82784 32595 61402 10269 20176 39651 40099 86400 333 10347 29048 55113 59003;
0156827840999992005102212004-07317-039300FM-12+040999999V0201401N002612200019N0200001N1+02771+01611101371ADDGF101991011011008001001001KA1240N+02041MA1999999096871MD1999999+0081REMSYN076AAXX  22124 82784 32598 11405 10277 20161 39687 40137 81100 333 20204 58008;
0137827840999992005102218004-07317-039300FM-12+040999999V0200501N003112200019N0200001N1+03441+01431100751ADDGF102991011021008001021001MA1999999096311MD1999999-0041REMSYN070AAXX  22184 82784 32598 20506 10344 20143 39631 40075 81220 333 59004;
0168827840999992005102300004-07317-039300FM-12+040999999V0200901N001512200019N0020001N1+02741+01441101021ADDGF102991021041008001001001KA1240M+03571MA1999999096541MD1999999+0031REMSYN088AAXX  23004 82784 32595 20903 10274 20144 39654 40102 82400 333 10357 29042 55113 58003;
0156827840999992005102312004-07317-039300FM-12+040999999V0200901N003112200019N0200001N1+02821+01551101311ADDGF102991021001008001021001KA1240N+02141MA1999999096831MD1999999-0041REMSYN076AAXX  23124 82784 32598 20906 10282 20155 39683 40131 82020 333 20214 59004;
0137827840999992005102318004-07317-039300FM-12+040999999V0201401N001512200019N0200001N1+03511+01871100681ADDGF104991041021008001001001MA1999999096251MD1999999-0061REMSYN070AAXX  23184 82784 32598 41403 10351 20187 39625 40068 84200 333 59006;
0168827840999992005102400004-07317-039300FM-12+040999999V0201401N003112200019N0020001N1+03001+01151100951ADDGF101991011011008001001001KA1240M+03661MA1999999096501MD1999999-0041REMSYN088AAXX  24004 82784 32595 11406 10300 20115 39650 40095 81100 333 10366 29037 55113 59004;
0166827840999992005102412004-07317-039300FM-12+040999999V0200501N002112200019N0200001N1+02921+01831101181ADDGA1001+999999999GF100991001001999999001001KA1240N+02121MA1999999096731MD1999999-0101REMSYN070AAXX  24124 82784 32598 00504 10292 20183 39673 40118 333 20212 59010;
0137827840999992005102418004-07317-039300FM-12+040999999V0201401N003112200019N0200001N1+03601+01521100601ADDGF102991011011008001011001MA1999999096181MD1999999-0071REMSYN070AAXX  24184 82784 32598 21406 10360 20152 39618 40060 81110 333 59007;
0178827840999992005102500004-07317-039300FM-12+040999999V0203601N002112200019N0020001N1+02881+01351100931ADDGA1001+999999999GF100991001001999999001001KA1240M+03711MA1999999096521MD1999999+0021REMSYN082AAXX  25004 82784 32995 03604 10288 20135 39652 40093 333 10371 29040 55114 58002;
0166827840999992005102512004-07317-039300FM-12+040999999V0200501N002612200019N0200001N1+02901+01781101181ADDGA1001+999999999GF100991001001999999001001KA1240N+02101MA1999999096721MD1999999-0011REMSYN070AAXX  25124 82784 32998 00505 10290 20178 39672 40118 333 20210 59001;
0137827840999992005102518004-07317-039300FM-12+040999999V0201801N002112200019N0200001N1+03551+01371100631ADDGF102991021011008001001001MA1999999096191MD1999999+0011REMSYN070AAXX  25184 82784 32598 21804 10355 20137 39619 40063 82100 333 58001;
0168827840999992005102600004-07317-039300FM-12+040999999V0200901N001012200019N0020001N1+02841+01821100931ADDGF103991031011008001001001KA1240M+03681MA1999999096471MD1999999-0051REMSYN088AAXX  26004 82784 32595 30902 10284 20182 39647 40093 83100 333 10368 29046 55110 59005;
0166827840999992005102612004-07317-039300FM-12+040999999V0200901N003112200019N0200001N1+02911+01781101201ADDGA1001+999999999GF100991001001999999001001KA1240N+02201MA1999999096731MD1999999+0011REMSYN070AAXX  26124 82784 32998 00906 10291 20178 39673 40120 333 20220 58001;
0137827840999992005102618004-07317-039300FM-12+040999999V0200501N001512200019N0200001N1+03481+01251100631ADDGF103991031011008001001001MA1999999096191MD1999999+0001REMSYN070AAXX  26184 82784 32598 30503 10348 20125 39619 40063 83100 333 58000;
0168827840999992005102700004-07317-039300FM-12+040999999V0201801N000512200019N0020001N1+02851+01731100901ADDGF103991031041008001001001KA1240M+03721MA1999999096451MD1999999-0021REMSYN088AAXX  27004 82784 32595 31801 10285 20173 39645 40090 83400 333 10372 29045 55114 59002;
0156827840999992005102712004-07317-039300FM-12+040999999V0200501N004112200019N0200001N1+02841+01671101251ADDGF101991011011008001001001KA1240N+02091MA1999999096821MD1999999+0041REMSYN076AAXX  27124 82784 32598 10508 10284 20167 39682 40125 81100 333 20209 58004;
0137827840999992005102718004-07317-039300FM-12+040999999V0203201N001510075019N0200001N1+03501+01531100731ADDGF105991051021008001001001MA1999999096291MD1999999+0101REMSYN070AAXX  27184 82784 32598 53203 10350 20153 39629 40073 85200 333 58010;
0156827840999992005102812004-07317-039300FM-12+040999999V0200501N002612200019N0200001N1+02821+01741101311ADDGF102991021011008001001001KA1240N+02321MA1999999096831MD1999999+0061REMSYN076AAXX  28124 82784 32598 20505 10282 20174 39683 40131 82100 333 20232 58006;
0137827840999992005102818004-07317-039300FM-12+040999999V0203201N001010450019N0200001N1+03361+01691100701ADDGF106991041021008001011001MA1999999096251MD1999999-0041REMSYN070AAXX  28184 82784 32598 63202 10336 20169 39625 40070 84210 333 59004;
0178827840999992005102900004-07317-039300FM-12+040999999V0209999C000012200019N0020001N1+02741+02051100901ADDGA1001+999999999GF100991001001999999001001KA1240M+03431MA1999999096431MD1999999-0091REMSYN082AAXX  29004 82784 32995 00000 10274 20205 39643 40090 333 10343 29055 55107 59009;
0156827840999992005102912004-07317-039300FM-12+040999999V0200901N002110075019N0200001N1+02561+01881101361ADDGF108991081051008001999999KA1240N+02281MA1999999096851MD1999999+0021REMSYN076AAXX  29124 82784 32598 80904 10256 20188 39685 40136 885// 333 20228 58002;
0137827840999992005102918004-07317-039300FM-12+040999999V0203201N001512200019N0200001N1+03581+01841100671ADDGF101991011011008001001001MA1999999096241MD1999999-0011REMSYN070AAXX  29184 82784 32598 13203 10358 20184 39624 40067 81100 333 59001;
0178827840999992005103000004-07317-039300FM-12+040999999V0201801N001012200019N0020001N1+02811+01721100141ADDGA1001+999999999GF100991001001999999001001KA1240M+03711MA1999999096451MD1999999-0021REMSYN082AAXX  30004 82784 32995 01802 10281 20172 39645 40014 333 10371 29052 55075 59002;
0156827840999992005103012004-07317-039300FM-12+040999999V0200501N002612200019N0200001N1+02731+01811101261ADDGF101991011011008001001001KA1240N+02021MA1999999096701MD1999999-0081REMSYN076AAXX  30124 82784 32598 10505 10273 20181 39670 40126 81100 333 20202 59008;
0137827840999992005103018004-07317-039300FM-12+040999999V0203201N001510450019N0200001N1+03591+01521100771ADDGF105991041021008001021001MA1999999096321MD1999999+0081REMSYN070AAXX  30184 82784 32598 53203 10359 20152 39632 40077 84220 333 58008;
0178827840999992005103100004-07317-039300FM-12+040999999V0209999C000012200019N0020001N1+02871+01901100191ADDGA1001+999999999GF100991001001999999001001KA1240M+03161MA1999999096521MD1999999-0501REMSYN082AAXX  31004 82784 32995 00000 10287 20190 39652 40019 333 10316 59050 55105 58007;
0156827840999992005103112004-07317-039300FM-12+040999999V0203601N003612200019N0200001N1+02741+01891101291ADDGF103991031021008001001001KA1240N+02241MA1999999096811MD1999999-0061REMSYN076AAXX  31124 82784 32598 33607 10274 20189 39681 40129 83200 333 20224 59006;
0137827840999992005103118004-07317-039300FM-12+040999999V0200501N002110075019N0200001N1+03521+01451100871ADDGF105991051031008001001001MA1999999096411MD1999999+0091REMSYN070AAXX  31184 82784 32598 50504 10352 20145 39641 40087 85300 333 58009;
0168827840999992005110100004-07317-039300FM-12+040999999V0203601N001510075019N0020001N1+02901+02071101131ADDGF106991061011008001001001KA1240M+03671MA1999999096651MD1999999+0131REMSYN088AAXX  01004 82784 32595 63603 10290 20207 39665 40113 86100 333 10367 29053 55098 58013;
0156827840999992005110112004-07317-039300FM-12+040999999V0203601N002110075019N0200001N1+02611+01871101511ADDGF108991081021008001999999KA1240N+02371MA1999999097011MD1999999+0201REMSYN076AAXX  01124 82784 32598 83604 10261 20187 39701 40151 882// 333 20237 58020;
0137827840999992005110118004-07317-039300FM-12+040999999V0200901N002612200019N0200001N1+03431+01611100901ADDGF103991031021008001001001MA1999999096451MD1999999+0041REMSYN070AAXX  01184 82784 32598 30905 10343 20161 39645 40090 83200 333 58004;
0178827840999992005110200004-07317-039300FM-12+040999999V0200901N001012200019N0020001N1+02961+02021101141ADDGA1001+999999999GF100991001001999999001001KA1240M+03571MA1999999096661MD1999999+0011REMSYN082AAXX  02004 82784 32995 00902 10296 20202 39666 40114 333 10357 29053 55078 58001;
0110827840999992005110212004-07317-039300FM-12+040999999V0200901N002619999999N0200001N1+02681+01811999999ADDGF106991999999008001999999REMSYN072AAXX  02124 82784 32598 60905 10268 20181 20216 39701 40158 58000 86200;
0178827840999992005110300004-07317-039300FM-12+040999999V0201801N000512200019N0020001N1+02711+01741101261ADDGA1001+999999999GF100991001001999999001001KA1240M+03591MA1999999096761MD1999999+0101REMSYN082AAXX  03004 82784 32995 01801 10271 20174 39676 40126 333 10359 29051 55100 58010;
0166827840999992005110312004-07317-039300FM-12+040999999V0200901N002112200019N0200001N1+02941+01911101431ADDGA1001+999999999GF100991001001999999001001KA1240N+02071MA1999999096941MD1999999-0071REMSYN070AAXX  03124 82784 32998 00904 10294 20191 39694 40143 333 20207 59007;
0137827840999992005110318004-07317-039300FM-12+040999999V0201801N001512200019N0200001N1+03601+01621100831ADDGF101991011021008001001001MA1999999096381MD1999999-0081REMSYN070AAXX  03184 82784 32598 11803 10360 20162 39638 40083 81200 333 59008;
0178827840999992005110400004-07317-039300FM-12+040999999V0201801N003112200019N0020001N1+03001+01371101051ADDGA1001+999999999GF100991001001999999001001KA1240M+03711MA1999999096601MD1999999-0161REMSYN082AAXX  04004 82784 32995 01806 10300 20137 39660 40105 333 10371 29040 55112 59016;
0156827840999992005110412004-07317-039300FM-12+040999999V0200901N002112200019N0200001N1+02761+01591101361ADDGF102991021011008001001001KA1240N+02301MA1999999096891MD1999999-0051REMSYN076AAXX  04124 82784 32598 20904 10276 20159 39689 40136 82100 333 20230 59005;
0137827840999992005110418004-07317-039300FM-12+040999999V0201401N002612200019N0200001N1+03501+01581100731ADDGF106991011011008001001011MA1999999096291MD1999999-0091REMSYN070AAXX  04184 82784 32598 61405 10350 20158 39629 40073 81101 333 59009;
0178827840999992005110500004-07317-039300FM-12+040999999V0201401N000512200019N0020001N1+02761+01661101011ADDGA1001+999999999GF100991001001999999001001KA1240M+03611MA1999999096531MD1999999-0071REMSYN082AAXX  05004 82784 32995 01401 10276 20166 39653 40101 333 10361 29046 55115 59007;
0156827840999992005110512004-07317-039300FM-12+040999999V0201401N002112200019N0200001N1+02731+01701101361ADDGF102991021021008001001001KA1240N+02251MA1999999096861MD1999999-0031REMSYN076AAXX  05124 82784 32598 21404 10273 20170 39686 40136 82200 333 20225 59003;
0137827840999992005110518004-07317-039300FM-12+040999999V0201401N002112200019N0200001N1+03401+01291100701ADDGF101991011011008001001001MA1999999096241MD1999999-0051REMSYN070AAXX  05184 82784 32598 11404 10340 20129 39624 40070 81100 333 59005;
0178827840999992005110600004-07317-039300FM-12+040999999V0200901N000512200019N0020001N1+02641+01771100981ADDGA1001+999999999GF100991001001999999001001KA1240M+03511MA1999999096491MD1999999-0041REMSYN082AAXX  06004 82784 32995 00901 10264 20177 39649 40098 333 10351 29050 55107 59004;
0156827840999992005110612004-07317-039300FM-12+040999999V0200901N002110075019N0200001N1+02581+01821101391ADDGF105991051031008001001001KA1240N+02111MA1999999096861MD1999999+0001REMSYN076AAXX  06124 82784 32598 50904 10258 20182 39686 40139 85300 333 20211 58000;
0137827840999992005110618004-07317-039300FM-12+040999999V0201401N001510075019N0200001N1+03431+01561100761ADDGF105991051031008001001001MA1999999096311MD1999999+0071REMSYN070AAXX  06184 82784 32598 51403 10343 20156 39631 40076 85300 333 58007;
0168827840999992005110700004-07317-039300FM-12+040999999V0201801N001512200019N0020001N1+02801+01751100951ADDGF101991011001017501041001KA1240M+03511MA1999999096461MD1999999-0031REMSYN088AAXX  07004 82784 32795 11803 10280 20175 39646 40095 81040 333 10351 29050 55084 59003;
0137827840999992005110718004-07317-039300FM-12+040999999V0201801N002110075019N0200001N1+03421+01651100751ADDGF106991061021008001001001MA1999999096291MD1999999-0021REMSYN070AAXX  07184 82784 32598 61804 10342 20165 39629 40075 86200 333 59002;
0156827840999992005110812004-07317-039300FM-12+040999999V0200501N001512200019N0200001N1+02801+01691101211ADDGF101991011011008001001001KA1240N+02041MA1999999096731MD1999999+0051REMSYN076AAXX  08124 82784 32598 10503 10280 20169 39673 40121 81100 333 20204 58005;
0137827840999992005110818004-07317-039300FM-12+040999999V0201801N003112200019N0200001N1+03531+01391100711ADDGF102991021011008001001001MA1999999096251MD1999999-0041REMSYN070AAXX  08184 82784 32598 21806 10353 20139 39625 40071 82100 333 59004;
0168827840999992005110900004-07317-039300FM-12+040999999V0209999C000012200019N0020001N1+02661+01621100901ADDGF102991021011008001001001KA1240M+03641MA1999999096421MD1999999-0031REMSYN088AAXX  09004 82784 32595 20000 10266 20162 39642 40090 82100 333 10364 29046 55111 59003;
0156827840999992005110912004-07317-039300FM-12+040999999V0200901N002112200019N0200001N1+02851+01791101181ADDGF101991011011008001001001KA1240N+02151MA1999999096691MD1999999-0041REMSYN076AAXX  09124 82784 32598 10904 10285 20179 39669 40118 81100 333 20215 59004;
0137827840999992005110918004-07317-039300FM-12+040999999V0203601N002112200019N0200001N1+03541+01671100621ADDGF101991011021008001001001MA1999999096201MD1999999-0051REMSYN070AAXX  09184 82784 32598 13604 10354 20167 39620 40062 81200 333 59005;
0178827840999992005111000004-07317-039300FM-12+040999999V0201801N001012200019N0020001N1+02861+02031100891ADDGA1001+999999999GF100991001001999999001001KA1240M+03671MA1999999096431MD1999999+0011REMSYN082AAXX  10004 82784 32995 01802 10286 20203 39643 40089 333 10367 29052 55113 58001;
0156827840999992005111012004-07317-039300FM-12+040999999V0200501N003112200019N0200001N1+02921+01771101121ADDGF101991011021008001001001KA1240N+02401MA1999999096661MD1999999-0031REMSYN076AAXX  10124 82784 32598 10506 10292 20177 39666 40112 81200 333 20240 59003;
0147827840999992005111018004-07317-039300FM-12+040999999V0200501N002112200019N0200001N1+03521+01551100581ADDGA1001+999999999GF100991001001999999001001MA1999999096101MD1999999-0101REMSYN064AAXX  10184 82784 32598 00504 10352 20155 39610 40058 333 59010;
0168827840999992005111100004-07317-039300FM-12+040999999V0201801N003110075019N0200001N1+03061+01661100761ADDGF108991081071008001999999KA1240M+03671MA1999999096341MD1999999-0091REMSYN088AAXX  11004 82784 32598 81806 10306 20166 39634 40076 887// 333 10367 29042 55110 59009;
0156827840999992005111112004-07317-039300FM-12+040999999V0200901N002110075019N0200001N1+02761+01801101061ADDGF107991071051008001001001KA1240N+02301MA1999999096601MD1999999-0061REMSYN076AAXX  11124 82784 32598 70904 10276 20180 39660 40106 87500 333 20230 59006;
0137827840999992005111118004-07317-039300FM-12+040999999V0200901N001519999999N0200001N1+03391+01891100531ADDGF108991081001008001001051MA1999999096121MD1999999+0021REMSYN070AAXX  11184 82784 32598 80903 10339 20189 39612 40053 88005 333 58002;
0168827840999992005111200004-07317-039300FM-12+040999999V0209999C000010075019N0020001N1+02801+02061100831ADDGF106991051011008001021001KA1240M+03481MA1999999096361MD1999999+0021REMSYN088AAXX  12004 82784 32595 60000 10280 20206 39636 40083 85120 333 10348 29056 55076 58002;
0156827840999992005111212004-07317-039300FM-12+040999999V0200501N002610075019N0200001N1+02651+01771101091ADDGF105991051021008001001001KA1240N+02141MA1999999096591MD1999999-0011REMSYN076AAXX  12124 82784 32598 50505 10265 20177 39659 40109 85200 333 20214 59001;
0137827840999992005111218004-07317-039300FM-12+040999999V0200501N003112200019N0200001N1+03491+01711100501ADDGF102991021021008001001001MA1999999096061MD1999999-0061REMSYN070AAXX  12184 82784 32598 20506 10349 20171 39606 40050 82200 333 59006;
0178827840999992005111300004-07317-039300FM-12+040999999V0202301N001512200019N0020001N1+02761+01771100741ADDGA1001+999999999GF100991001001999999001001KA1240M+03591MA1999999096261MD1999999-0101REMSYN082AAXX  13004 82784 32995 02303 10276 20177 39626 40074 333 10359 29051 55110 59010;
0156827840999992005111312004-07317-039300FM-12+040999999V0200501N002612200019N0200001N1+02701+01861101121ADDGF104991041021008001001001KA1240N+02151MA1999999096631MD1999999+0041REMSYN076AAXX  13124 82784 32598 40505 10270 20186 39663 40112 84200 333 20215 58004;
0137827840999992005111318004-07317-039300FM-12+040999999V0200501N003110075019N0200001N1+03401+01291100551ADDGF105991051021008001001001MA1999999096111MD1999999+0051REMSYN070AAXX  13184 82784 32598 50506 10340 20129 39611 40055 85200 333 58005;
0187827840999992005111400004-07317-039300FM-12+040999999V0201801N001510075019N0020001N1+02901+02071100791ADDGF107991999021008001001001KA1240M+03531MA1999999096331MD1999999+0071REMSYN088AAXX  14004 82784 32595 71803 10290 20207 39633 40079 85200 333 10353 29052 55089 58007;EQDQ01+000052SCOTLC
0156827840999992005111412004-07317-039300FM-12+040999999V0203601N002610075019N0200001N1+02741+01951101111ADDGF107991071021008001001001KA1240N+02441MA1999999096631MD1999999+0001REMSYN076AAXX  14124 82784 32598 73605 10274 20195 39663 40111 87200 333 20244 58000;
0137827840999992005111418004-07317-039300FM-12+040999999V0201801N002610075019N0200001N1+03461+01941100461ADDGF106991061021008001001001MA1999999096001MD1999999-0111REMSYN070AAXX  14184 82784 32598 61805 10346 20194 39600 40046 86200 333 59011;
0168827840999992005111500004-07317-039300FM-12+040999999V0209999C000010120019N0200001N1+02841+02091100781ADDGF106991061081008001001001KA1240M+03551MA1999999096321MD1999999-0011REMSYN088AAXX  15004 82784 32598 60000 10284 20209 39632 40078 86800 333 10355 29058 55079 59001;
0156827840999992005111512004-07317-039300FM-12+040999999V0203601N002112200019N0200001N1+02861+01751101081ADDGF104991011011008001001011KA1240N+02321MA1999999096611MD1999999-0021REMSYN076AAXX  15124 82784 32598 43604 10286 20175 39661 40108 81101 333 20232 59002;
0137827840999992005111518004-07317-039300FM-12+040999999V0200501N004110450019N0200001N1+03381+01481100631ADDGF108991021011008001041011MA1999999096181MD1999999+0181REMSYN070AAXX  15184 82784 32598 80508 10338 20148 39618 40063 82141 333 58018;
0168827840999992005111600004-07317-039300FM-12+040999999V0209999C000019999999N0020001N1+02781+01851100951ADDGF108991081001012501011999KA1240M+03481MA1999999096481MD1999999+0161REMSYN088AAXX  16004 82784 32695 80000 10278 20185 39648 40095 8801/ 333 10348 29049 55079 58016;
0156827840999992005111612004-07317-039300FM-12+040999999V0200501N001512200019N0200001N1+02801+01751101111ADDGF103991011011008001051001KA1240N+02141MA1999999096631MD1999999+0021REMSYN076AAXX  16124 82784 32598 30503 10280 20175 39663 40111 81150 333 20214 58002;
0137827840999992005111618004-07317-039300FM-12+040999999V0200501N002612200019N0200001N1+03571+01501100471ADDGF101991011001017501031001MA1999999096061MD1999999-0121REMSYN070AAXX  16184 82784 32798 10505 10357 20150 39606 40047 81030 333 59012;
0178827840999992005111700004-07317-039300FM-12+040999999V0202301N001012200019N0020001N1+02811+01721100751ADDGA1001+999999999GF100991001001999999001001KA1240M+03691MA1999999096291MD1999999-0191REMSYN082AAXX  17004 82784 32995 02302 10281 20172 39629 40075 333 10369 29046 55109 59019;
0156827840999992005111712004-07317-039300FM-12+040999999V0200501N003112200019N0200001N1+02801+01781101071ADDGF101991011011008001001001KA1240N+02241MA1999999096591MD1999999-0041REMSYN076AAXX  17124 82784 32598 10506 10280 20178 39659 40107 81100 333 20224 59004;
0137827840999992005111718004-07317-039300FM-12+040999999V0200501N003612200019N0200001N1+03601+01521100411ADDGF102991021021008001001001MA1999999096011MD1999999-0051REMSYN070AAXX  17184 82784 32598 20507 10360 20152 39601 40041 82200 333 59005;
0182827840999992005111800004-07317-039300FM-12+040999999V0201801N000512200019N0020001N1+02861+01751100651ADDGA1001+999999999GF100991001001999999001001KA1240M+03711MD1999999-0091REMSYN082AAXX  18004 82784 32995 01801 10286 20175 33962 40065 333 10371 29046 55111 59009;EQDQ01+039621APOSP 
0166827840999992005111812004-07317-039300FM-12+040999999V0200501N002112200019N0200001N1+02771+01731101091ADDGA1001+999999999GF100991001001999999001001KA1240N+02251MA1999999096611MD1999999+0021REMSYN070AAXX  18124 82784 32998 00504 10277 20173 39661 40109 333 20225 58002;
0147827840999992005111818004-07317-039300FM-12+040999999V0200501N003612200019N0200001N1+03551+01481100481ADDGA1001+999999999GF100991001001999999001001MA1999999096081MD1999999+0071REMSYN064AAXX  18184 82784 32998 00507 10355 20148 39608 40048 333 58007;
0168827840999992005111900004-07317-039300FM-12+040999999V0201801N001512200019N0020001N1+02801+01841100761ADDGF101991011011008001001001KA1240M+03631MA1999999096301MD1999999+0101REMSYN088AAXX  19004 82784 32595 11803 10280 20184 39630 40076 81100 333 10363 29048 55117 58010;
0156827840999992005111912004-07317-039300FM-12+040999999V0200501N003112200019N0200001N1+02771+01671101211ADDGF102991011011008001021001KA1240N+02081MA1999999096731MD1999999+0121REMSYN076AAXX  19124 82784 32598 20506 10277 20167 39673 40121 81120 333 20208 58012;
0137827840999992005111918004-07317-039300FM-12+040999999V0200501N002110450019N0200001N1+03491+01711100651ADDGF105991041021008001021001MA1999999096241MD1999999+0161REMSYN070AAXX  19184 82784 32598 50504 10349 20171 39624 40065 84220 333 58016;
0178827840999992005112000004-07317-039300FM-12+040999999V0200901N000512200019N0020001N1+02871+02111100951ADDGA1001+999999999GF100991001001999999001001KA1240M+03581MA1999999096481MD1999999+0181REMSYN082AAXX  20004 82784 32995 00901 10287 20211 39648 40095 333 10358 29054 55109 58018;
0156827840999992005112012004-07317-039300FM-12+040999999V0200501N002112200019N0200001N1+02911+01921101151ADDGF103991011011008001051001KA1240N+02221MA1999999096691MD1999999-0041REMSYN076AAXX  20124 82784 32598 30504 10291 20192 39669 40115 81150 333 20222 59004;
0137827840999992005112018004-07317-039300FM-12+040999999V0200501N003610450019N0200001N1+03671+01271100481ADDGF106991031021008001021001MA1999999096071MD1999999-0171REMSYN070AAXX  20184 82784 32598 60507 10367 20127 39607 40048 83220 333 59017;
0178827840999992005112100004-07317-039300FM-12+040999999V0209999C000012200019N0020001N1+02971+02041100731ADDGA1001+999999999GF100991001001999999001001KA1240M+03771MA1999999096301MD1999999-0181REMSYN082AAXX  21004 82784 32995 00000 10297 20204 39630 40073 333 10377 29048 55109 59018;
0156827840999992005112112004-07317-039300FM-12+040999999V0200901N001010450019N0200001N1+02821+01831100991ADDGF106991011011008001051011KA1240N+02421MA1999999096541MD1999999-0151REMSYN076AAXX  21124 82784 32598 60902 10282 20183 39654 40099 81151 333 20242 59015;
0156827840999992005112118004-07317-039300FM-12+040999999V0200501N002119999999N0200001N1+03581+01751100471ADDGF105991999011008001001001MA1999999096001MD1999999-0071REMSYN070AAXX  21184 82784 32598 50504 10358 20175 39600 40047 86100 333 59007;EQDQ01+000062SCOTLC
0178827840999992005112200004-07317-039300FM-12+040999999V0200901N001012200019N0020001N1+02961+01901100741ADDGA1001+999999999GF100991001001999999001001KA1240M+03701MA1999999096301MD1999999+0001REMSYN082AAXX  22004 82784 32995 00902 10296 20190 39630 40074 333 10370 29049 55115 58000;
0156827840999992005112212004-07317-039300FM-12+040999999V0200501N003112200019N0200001N1+02941+01821100981ADDGF103991031011008001001001KA1240N+02321MA1999999096541MD1999999+0001REMSYN076AAXX  22124 82784 32598 30506 10294 20182 39654 40098 83100 333 20232 58000;
0137827840999992005112218004-07317-039300FM-12+040999999V0200501N002112200019N0200001N1+03541+01351100461ADDGF106991041021008001001011MA1999999095981MD1999999-0021REMSYN070AAXX  22184 82784 32598 60504 10354 20135 39598 40046 84201 333 59002;
0168827840999992005112300004-07317-039300FM-12+040999999V0201401N001512200019N0020001N1+02901+01841100721ADDGF101991011011008001001001KA1240M+03631MA1999999096281MD1999999-0021REMSYN088AAXX  23004 82784 32595 11403 10290 20184 39628 40072 81100 333 10363 29046 55106 59002;
0156827840999992005112312004-07317-039300FM-12+040999999V0200501N003110450019N0200001N1+02961+01781101021ADDGF108991031011008001041011KA1240N+02361MA1999999096571MD1999999+0031REMSYN076AAXX  23124 82784 32598 80506 10296 20178 39657 40102 83141 333 20236 58003;
0137827840999992005112318004-07317-039300FM-12+040999999V0203601N003110075019N0200001N1+03471+01691100531ADDGF107991061021008001031001MA1999999096131MD1999999+0151REMSYN070AAXX  23184 82784 32598 73606 10347 20169 39613 40053 86230 333 58015;
0178827840999992005112400004-07317-039300FM-12+040999999V0200901N001512200019N0020001N1+02881+02001100761ADDGA1001+999999999GF100991001001999999001001KA1240M+03611MA1999999096321MD1999999+0041REMSYN082AAXX  24004 82784 32995 00903 10288 20200 39632 40076 333 10361 29050 55106 58004;
0156827840999992005112412004-07317-039300FM-12+040999999V0200501N003610075019N0200001N1+02961+01871101111ADDGF106991061021008001001001KA1240N+02221MA1999999096651MD1999999+0081REMSYN076AAXX  24124 82784 32598 60507 10296 20187 39665 40111 86200 333 20222 58008;
0137827840999992005112418004-07317-039300FM-12+040999999V0203601N002112200019N0200001N1+03571+01751100531ADDGF103991031021008001001001MA1999999096161MD1999999+0031REMSYN070AAXX  24184 82784 32598 33604 10357 20175 39616 40053 83200 333 58003;
0178827840999992005112500004-07317-039300FM-12+040999999V0209999C000012200019N0020001N1+02831+01861100831ADDGA1001+999999999GF100991001001999999001001KA1240M+03641MA1999999096381MD1999999+0061REMSYN082AAXX  25004 82784 32995 00000 10283 20186 39638 40083 333 10364 29050 55108 58006;
0156827840999992005112512004-07317-039300FM-12+040999999V0200501N003110075019N0200001N1+02921+01831101121ADDGF106991061021008001001001KA1240N+02401MA1999999096651MD1999999+0001REMSYN076AAXX  25124 82784 32598 60506 10292 20183 39665 40112 86200 333 20240 58000;
0137827840999992005112518004-07317-039300FM-12+040999999V0200901N002110450019N0200001N1+03551+01691100671ADDGF108991031021008001021999MA1999999096241MD1999999+0081REMSYN070AAXX  25184 82784 32598 80904 10355 20169 39624 40067 8322/ 333 58008;
0168827840999992005112600004-07317-039300FM-12+040999999V0201801N001512200019N0020001N1+02801+01981100891ADDGF102991021041008001001001KA1240M+03481MA1999999096431MD1999999+0051REMSYN088AAXX  26004 82784 32595 21803 10280 20198 39643 40089 82400 333 10348 29053 55075 58005;
0175827840999992005112612004-07317-039300FM-12+040999999V0200501N003119999999N0200001N1+02941+01681100981ADDGF106991999021008001001001KA1240N+02381MA1999999096521MD1999999-0131REMSYN076AAXX  26124 82784 32598 60506 10294 20168 39652 40098 83200 333 20238 59013;EQDQ01+000032SCOTLC
0156827840999992005112618004-07317-039300FM-12+040999999V0200501N002610075019N0200001N1+03291+01741100411ADDGF107991999021008001001001MA1999999095981MD1999999-0261REMSYN070AAXX  26184 82784 32598 70505 10329 20174 39598 40041 86200 333 59026;EQDQ01+000062SCOTLC
0168827840999992005112700004-07317-039300FM-12+040999999V0209999C000010075019N0020001N1+02891+02231100691ADDGF106991061041008001001001KA1240M+03391MA1999999096251MD1999999-0181REMSYN088AAXX  27004 82784 32595 60000 10289 20223 39625 40069 86400 333 10339 29056 55038 59018;
0175827840999992005112712004-07317-039300FM-12+040999999V0200501N003112200019N0200001N1+02841+02041100961ADDGF103991031031008001001001KA1240N+99999MA1999999096501MD1999999-0021REMSYN076AAXX  27124 82784 32598 30506 10284 20204 39650 40096 83300 333 20292 59002;EQDQ01 +02922ATMN  
0137827840999992005112718004-07317-039300FM-12+040999999V0200501N003612200019N0200001N1+03401+01811100351ADDGF104991041031008001001001MA1999999095911MD1999999-0071REMSYN070AAXX  27184 82784 32598 40507 10340 20181 39591 40035 84300 333 59007;
0168827840999992005112800004-07317-039300FM-12+040999999V0201801N001010075019N0020001N1+02801+02201100681ADDGF106991061041008001001001KA1240M+03491MA1999999096221MD1999999-0031REMSYN088AAXX  28004 82784 32595 61802 10280 20220 39622 40068 86400 333 10349 29060 55071 59003;
0156827840999992005112812004-07317-039300FM-12+040999999V0200501N002110042019N0200001N1+02601+01871101501ADDGF108991081051004501999999KA1240N+02391MA1999999096601MD1999999+0101REMSYN076AAXX  28124 82784 32498 80504 10260 20187 39660 40150 885// 333 20239 58010;
0168827840999992005112900004-07317-039300FM-12+040999999V0209999C000019999999N0020001N1+02461+02131100961ADDGF105991051001012501051001KA1240M+03131MA1999999096451MD1999999+0231REMSYN088AAXX  29004 82784 32695 50000 10246 20213 39645 40096 85050 333 10313 29068 55000 58023;
0156827840999992005112912004-07317-039300FM-12+040999999V0200901N002610075019N0200001N1+02841+01851101141ADDGF105991051011008001001001KA1240N+02261MA1999999096641MD1999999+0041REMSYN076AAXX  29124 82784 32598 50905 10284 20185 39664 40114 85100 333 20226 58004;
0137827840999992005112918004-07317-039300FM-12+040999999V0200501N004112200019N0200001N1+03421+01611100691ADDGF106991041021008001001011MA1999999096151MD1999999-0031REMSYN070AAXX  29184 82784 32598 60508 10342 20161 39615 40069 84201 333 59003;
0168827840999992005113000004-07317-039300FM-12+040999999V0209999C000012200019N0020001N1+02921+02061100861ADDGF103991031041008001001001KA1240M+03511MA1999999096411MD1999999-0041REMSYN088AAXX  30004 82784 32595 30000 10292 20206 39641 40086 83400 333 10351 29052 55110 59004;
0156827840999992005113012004-07317-039300FM-12+040999999V0201401N004110075019N0200001N1+02851+01761101111ADDGF106991061021008001001001KA1240N+02341MA1999999096651MD1999999+0011REMSYN076AAXX  30124 82784 32598 61408 10285 20176 39665 40111 86200 333 20234 58001;
0137827840999992005113018004-07317-039300FM-12+040999999V0200901N002612200019N0200001N1+03541+01621100491ADDGF101991011011008001001001MA1999999096091MD1999999-0061REMSYN070AAXX  30184 82784 32598 10905 10354 20162 39609 40049 81100 333 59006;
0178827840999992005120100004-07317-039300FM-12+040999999V0200901N000512200019N0020001N1+02951+02101100761ADDGA1001+999999999GF100991001001999999001001KA1240M+03691MA1999999096321MD1999999-0091REMSYN082AAXX  01004 82784 32995 00901 10295 20210 39632 40076 333 10369 29051 55101 59009;
0166827840999992005120112004-07317-039300FM-12+040999999V0200901N003612200019N0200001N1+02811+01631101101ADDGA1001+999999999GF100991001001999999001001KA1240N+02281MA1999999096641MD1999999-0011REMSYN070AAXX  01124 82784 32998 00907 10281 20163 39664 40110 333 20228 59001;
0137827840999992005120118004-07317-039300FM-12+040999999V0201801N003112200019N0200001N1+03501+01721100521ADDGF103991031021008001001001MA1999999096121MD1999999+0031REMSYN070AAXX  01184 82784 32598 31806 10350 20172 39612 40052 83200 333 58003;
0178827840999992005120200004-07317-039300FM-12+040999999V0201801N002112200019N0020001N1+02871+01811100731ADDGA1001+999999999GF100991001001999999001001KA1240M+03591MA1999999096281MD1999999-0041REMSYN082AAXX  02004 82784 32995 01804 10287 20181 39628 40073 333 10359 29048 55109 59004;
0156827840999992005120212004-07317-039300FM-12+040999999V0200501N001512200019N0200001N1+02911+01921100901ADDGF104991041021008001001001KA1240N+02251MA1999999096451MD1999999-0191REMSYN076AAXX  02124 82784 32598 40503 10291 20192 39645 40090 84200 333 20225 59019;
0137827840999992005120218004-07317-039300FM-12+040999999V0203601N002110075019N0200001N1+03451+01841100471ADDGF105991051021008001001001MA1999999096061MD1999999-0061REMSYN070AAXX  02184 82784 32598 53604 10345 20184 39606 40047 85200 333 59006;
0168827840999992005120300004-07317-039300FM-12+040999999V0201801N001010120019N0020001N1+03041+01971100671ADDGF106991061081008001001001KA1240M+03591MA1999999096241MD1999999-0041REMSYN088AAXX  03004 82784 32595 61802 10304 20197 39624 40067 86800 333 10359 29050 55099 59004;
0156827840999992005120312004-07317-039300FM-12+040999999V0200501N003110075019N0200001N1+02881+01911100951ADDGF105991051021008001001001KA1240N+02321MA1999999096511MD1999999+0061REMSYN076AAXX  03124 82784 32598 50506 10288 20191 39651 40095 85200 333 20232 58006;
0137827840999992005120318004-07317-039300FM-12+040999999V0200501N002112200019N0200001N1+03441+01881100491ADDGF103991031021008001001001MA1999999096081MD1999999+0021REMSYN070AAXX  03184 82784 32598 30504 10344 20188 39608 40049 83200 333 58002;
0168827840999992005120400004-07317-039300FM-12+040999999V0209999C000012200019N0020001N1+02841+02291100801ADDGF102991021041008001001001KA1240M+03551MA1999999096311MD1999999+0071REMSYN088AAXX  04004 82784 32595 20000 10284 20229 39631 40080 82400 333 10355 29060 55093 58007;
0201827840999992005120412004-07317-039300FM-12+040999999V0200501N003110120019N0200001N1+02591+02081101101ADDAA124002091AY111061AY211061GF107991071081008001001001KA1240N+02291MA1999999096601MD1999999+0091MW1211REMSYN088AAXX  04124 82784 21598 70506 10259 20208 39660 40110 72111 87800 333 20229 58009 60024;
0168827840999992005120500004-07317-039300FM-12+040999999V0202301N001010075019N0020001N1+02541+02021100801ADDGF108991081091008001999999KA1240M+03491MA1999999096291MD1999999-0021REMSYN088AAXX  05004 82784 32595 82302 10254 20202 39629 40080 889// 333 10349 29065 55074 59002;
0201827840999992005120512004-07317-039300FM-12+040999999V0202701N001010075019N0200001N1+02201+02151101081ADDAA124068191AY161061AY251061GF108991081051008001999999KA1240N+02101MA1999999096521MD1999999-0081MW1021REMSYN088AAXX  05124 82784 21598 82702 10220 20215 39652 40108 70265 885// 333 20210 59008 60684;
0165827840999992005120518004-07317-039300FM-12+040999999V0203201N002610120019N0200001N1+02801+02151100711ADDAY191061AY221061GF108991061081008001011999MA1999999096161MD1999999+0161MW1021REMSYN076AAXX  05184 82784 31598 83205 10280 20215 39616 40071 70292 8681/ 333 58016;
0168827840999992005120600004-07317-039300FM-12+040999999V0209999C000019999999N0020001N1+02541+02291100821ADDGF108991081999999999999999KA1240M+02921MA1999999096271MD1999999-0021REMSYN088AAXX  06004 82784 32/95 80000 10254 20229 39627 40082 88/// 333 10292 29084 55009 59002;
0201827840999992005120612004-07317-039300FM-12+040999999V0203601N001010120019N0200001N1+02491+02271100811ADDAA124001091AY151061AY221061GF108991081081008001999999KA1240N+02161MA1999999096291MD1999999+0231MW1021REMSYN088AAXX  06124 82784 21598 83602 10249 20227 39629 40081 70252 888// 333 20216 58023 60014;
0137827840999992005120618004-07317-039300FM-12+040999999V0203601N002110042019N0200001N1+03081+02211100481ADDGF107991051031004501051001MA1999999095941MD1999999-0221REMSYN070AAXX  06184 82784 32498 73604 10308 20221 39594 40048 85350 333 59022;
0182827840999992005120718004-07317-039300FM-12+040999999V0202701N001510075019N0200001N1+02561+02151100611ADDAA106005191AY161061AY221061GF108991081071008001999999MA1999999096101MD1999999+0161MW1021REMSYN082AAXX  07184 82784 21598 82703 10256 20215 39610 40061 70262 887// 333 58016 60051;
0168827840999992005120800004-07317-039300FM-12+040999999V0202701N001010150019N0200001N1+02501+02401100821ADDGF108991081001017501021999KA1240M+02801MA1999999096291MD1999999+0071REMSYN088AAXX  08004 82784 32798 82702 10250 20240 39629 40082 8802/ 333 10280 29089 55012 58007;
0201827840999992005120812004-07317-039300FM-12+040999999V0200501N000510075019N0200001N1+02501+02191101121ADDAA124009991AY161061AY221061GF108991081041008001999999KA1240N+02221MA1999999096591MD1999999+0201MW1021REMSYN088AAXX  08124 82784 21598 80501 10250 20219 39659 40112 70262 884// 333 20222 58020 60104;
0137827840999992005120818004-07317-039300FM-12+040999999V0200901N002610075019N0200001N1+03081+02041100711ADDGF108991081021008001999999MA1999999096231MD1999999+0101REMSYN070AAXX  08184 82784 32598 80905 10308 20204 39623 40071 882// 333 58010;
0168827840999992005120900004-07317-039300FM-12+040999999V0202301N000512200019N0020001N1+02561+02331100991ADDGF103991031051008001001001KA1240M+03191MA1999999096471MD1999999+0181REMSYN088AAXX  09004 82784 32595 32301 10256 20233 39647 40099 83500 333 10319 29078 55049 58018;
0201827840999992005120912004-07317-039300FM-12+040999999V0200501N002610450019N0200001N1+02571+01921101261ADDAA124007191AY161061AY221061GF108991021021008001051999KA1240N+02201MA1999999096731MD1999999+0141MW1021REMSYN088AAXX  09124 82784 21598 80505 10257 20192 39673 40126 70262 8225/ 333 20220 58014 60074;
0137827840999992005120918004-07317-039300FM-12+040999999V0200901N002110075019N0200001N1+03181+01871100731ADDGF106991061021008001001001MA1999999096271MD1999999+0041REMSYN070AAXX  09184 82784 32598 60904 10318 20187 39627 40073 86200 333 58004;
0168827840999992005121000004-07317-039300FM-12+040999999V0202301N003110120019N0020001N1+02751+02141101021ADDGF108991081081008001001001KA1240M+03321MA1999999096521MD1999999+0051REMSYN088AAXX  10004 82784 32595 82306 10275 20214 39652 40102 88800 333 10332 29063 55087 58005;
0156827840999992005121012004-07317-039300FM-12+040999999V0200501N001512200019N0200001N1+02651+01391101241ADDGF102991021021008001001001KA1240N+02271MA1999999096741MD1999999+0011REMSYN076AAXX  10124 82784 32598 20503 10265 20139 39674 40124 82200 333 20227 58001;
0137827840999992005121018004-07317-039300FM-12+040999999V0201401N001512200019N0200001N1+03241+02001100681ADDGF103991031021008001001001MA1999999096221MD1999999-0051REMSYN070AAXX  10184 82784 32598 31403 10324 20200 39622 40068 83200 333 59005;
0168827840999992005121100004-07317-039300FM-12+040999999V0201401N001512200019N0020001N1+02741+01871100861ADDGF103991011011008001051001KA1240M+03381MA1999999096371MD1999999-0151REMSYN088AAXX  11004 82784 32595 31403 10274 20187 39637 40086 81150 333 10338 29058 55113 59015;
0220827840999992005121112004-07317-039300FM-12+040999999V0200501N004110042019N0200001N1+02601+01871100971ADDAA124000091AY151061AY221061GF107991071021004501001001KA1240N+02291MA1999999096471MD1999999-0271MW1021REMSYN088AAXX  11124 82784 21498 70508 10260 20187 39647 40097 70252 87200 333 20229 59027 69914;EQDQ01  00002PRCP24
0137827840999992005121118004-07317-039300FM-12+040999999V0200501N003110075019N0200001N1+03221+01841100611ADDGF106991051021008001001011MA1999999096101MD1999999-0121REMSYN070AAXX  11184 82784 32598 60506 10322 20184 39610 40061 85201 333 59012;
0168827840999992005121200004-07317-039300FM-12+040999999V0201801N000512200019N0020001N1+02521+02111100831ADDGF101991011011008001001001KA1240M+03311MA1999999096321MD1999999-0051REMSYN088AAXX  12004 82784 32595 11801 10252 20211 39632 40083 81100 333 10331 29066 55089 59005;
0156827840999992005121212004-07317-039300FM-12+040999999V0200501N003610042019N0200001N1+02721+02121101051ADDGF107991071051004501001001KA1240N+02181MA1999999096541MD1999999+0071REMSYN076AAXX  12124 82784 32498 70507 10272 20212 39654 40105 87500 333 20218 58007;
0137827840999992005121218004-07317-039300FM-12+040999999V0200501N002110075019N0200001N1+03201+01861100611ADDGF106991061021008001001001MA1999999096121MD1999999+0021REMSYN070AAXX  12184 82784 32598 60504 10320 20186 39612 40061 86200 333 58002;
0168827840999992005121300004-07317-039300FM-12+040999999V0209999C000012200019N0020001N1+02661+02291100821ADDGF103991031011008001001001KA1240M+03311MA1999999096341MD1999999+0021REMSYN088AAXX  13004 82784 32595 30000 10266 20229 39634 40082 83100 333 10331 29069 55091 58002;
0156827840999992005121312004-07317-039300FM-12+040999999V0200501N003110075019N0200001N1+02621+02011100981ADDGF106991061021008001001001KA1240N+02301MA1999999096481MD1999999-0061REMSYN076AAXX  13124 82784 32598 60506 10262 20201 39648 40098 86200 333 20230 59006;
0137827840999992005121318004-07317-039300FM-12+040999999V0200501N001510075019N0200001N1+03261+01911100611ADDGF106991051021008001011001MA1999999096131MD1999999+0011REMSYN070AAXX  13184 82784 32598 60503 10326 20191 39613 40061 85210 333 58001;
0168827840999992005121400004-07317-039300FM-12+040999999V0200501N000510042019N0010001N1+02841+02121101111ADDGF107991071051004501001001KA1240M+03351MA1999999096631MD1999999-0011REMSYN088AAXX  14004 82784 32494 70501 10284 20212 39663 40111 87500 333 10335 29062 55105 59001;
0156827840999992005121412004-07317-039300FM-12+040999999V0200501N002612200019N0200001N1+02561+01881101111ADDGF103991011021008001031001KA1240N+02141MA1999999096611MD1999999+0131REMSYN076AAXX  14124 82784 32598 30505 10256 20188 39661 40111 81230 333 20214 58013;
0137827840999992005121418004-07317-039300FM-12+040999999V0203601N002612200019N0200001N1+03281+01741100631ADDGF104991021021008001031001MA1999999096191MD1999999+0061REMSYN070AAXX  14184 82784 32598 43605 10328 20174 39619 40063 82230 333 58006;
0168827840999992005121500004-07317-039300FM-12+040999999V0201801N000512200019N0020001N1+02521+02111100921ADDGF101991011001017501031001KA1240M+03351MA1999999096411MD1999999+0071REMSYN088AAXX  15004 82784 32795 11801 10252 20211 39641 40092 81030 333 10335 29046 55108 58007;
0137827840999992005121518004-07317-039300FM-12+040999999V0200901N003612200019N0200001N1+03251+01711100641ADDGF102991011021008001031001MA1999999096181MD1999999-0011REMSYN070AAXX  15184 82784 32598 20907 10325 20171 39618 40064 81230 333 59001;
0168827840999992005121600004-07317-039300FM-12+040999999V0201401N001012200019N0020001N1+02621+02071100951ADDGF103991031001008001001091KA1240M+03331MA1999999096451MD1999999+0041REMSYN088AAXX  16004 82784 32595 31402 10262 20207 39645 40095 83009 333 10333 29062 55116 58004;
0156827840999992005121612004-07317-039300FM-12+040999999V0200501N002112200019N0200001N1+02731+01891101111ADDGF102991021001017501031001KA1240N+02091MA1999999096611MD1999999+0011REMSYN076AAXX  16124 82784 32798 20504 10273 20189 39661 40111 82030 333 20209 58001;
0137827840999992005121618004-07317-039300FM-12+040999999V0200901N003112200019N0200001N1+03381+01661100621ADDGF102991021011017501001001MA1999999096171MD1999999-0011REMSYN070AAXX  16184 82784 32798 20906 10338 20166 39617 40062 82100 333 59001;
0178827840999992005121700004-07317-039300FM-12+040999999V0209999C000012200019N0020001N1+02721+02191100861ADDGA1001+999999999GF100991001001999999001001KA1240M+03471MA1999999096371MD1999999-0081REMSYN082AAXX  17004 82784 32995 00000 10272 20219 39637 40086 333 10347 29060 55104 59008;
0137827840999992005121718004-07317-039300FM-12+040999999V0200901N002612200019N0200001N1+03201+01751100821ADDGF106991041011008001001011MA1999999096331MD1999999+0161REMSYN070AAXX  17184 82784 32598 60905 10320 20175 39633 40082 84101 333 58016;
0168827840999992005121800004-07317-039300FM-12+040999999V0201401N001510075019N0020001N1+02781+02041101021ADDGF105991051071008001001001KA1240M+03321MA1999999096531MD1999999+0161REMSYN088AAXX  18004 82784 32595 51403 10278 20204 39653 40102 85700 333 10332 29059 55105 58016;
0156827840999992005121812004-07317-039300FM-12+040999999V0200901N001512200019N0200001N1+02821+01801101171ADDGF102991021011008001001001KA1240N+02301MA1999999096691MD1999999-0131REMSYN076AAXX  18124 82784 32598 20903 10282 20180 39669 40117 82100 333 20230 59013;
0137827840999992005121818004-07317-039300FM-12+040999999V0200501N003110075019N0200001N1+03301+01591100781ADDGF106991061011008001001001MA1999999096271MD1999999-0061REMSYN070AAXX  18184 82784 32598 60506 10330 20159 39627 40078 86100 333 59006;
0196827840999992005121900004-07317-039300FM-12+040999999V0201801N000510075019N0020001N1+02751+02191100991ADDAY121061AY221061GF106991061071008001001001KA1240M+03401MA1999999096521MD1999999-0011MW1131REMSYN094AAXX  19004 82784 31595 61801 10275 20219 39652 40099 71322 86700 333 10340 29058 55112 59001;
0156827840999992005121912004-07317-039300FM-12+040999999V0200901N002112200019N0200001N1+02721+02001101221ADDGF102991021011008001001001KA1240N+02141MA1999999096731MD1999999+0041REMSYN076AAXX  19124 82784 32598 20904 10272 20200 39673 40122 82100 333 20214 58004;
0137827840999992005121918004-07317-039300FM-12+040999999V0200501N002610075019N0200001N1+03321+01701100851ADDGF106991061021008001001001MA1999999096321MD1999999+0051REMSYN070AAXX  19184 82784 32598 60505 10332 20170 39632 40085 86200 333 58005;
0168827840999992005122000004-07317-039300FM-12+040999999V0200901N001012200019N0020001N1+02581+02121101041ADDGF103991031001012501031001KA1240M+03421MA1999999096541MD1999999+0021REMSYN088AAXX  20004 82784 32695 30902 10258 20212 39654 40104 83030 333 10342 29064 55112 58002;
0137827840999992005122018004-07317-039300FM-12+040999999V0200901N003110075019N0200001N1+03211+01821100881ADDGF106991061021008001001001MA1999999096411MD1999999+0091REMSYN070AAXX  20184 82784 32598 60906 10321 20182 39641 40088 86200 333 58009;
0178827840999992005122100004-07317-039300FM-12+040999999V0201401N001512200019N0020001N1+02671+02001101121ADDGA1001+999999999GF100991001001999999001001KA1240M+03291MA1999999096621MD1999999+0081REMSYN082AAXX  21004 82784 32995 01403 10267 20200 39662 40112 333 10329 29058 55114 58008;
0175827840999992005122112004-07317-039300FM-12+040999999V0200901N002612200019N0200001N1+02661+01851101311ADDGF102991021001017501031001KA1240N+99999MA1999999096801MD1999999+0081REMSYN076AAXX  21124 82784 32798 20905 10266 20185 39680 40131 82030 333 20282 58008;EQDQ01 +02822ATMN  
0137827840999992005122118004-07317-039300FM-12+040999999V0200901N002112200019N0200001N1+03311+01781100851ADDGF102991011011008001031001MA1999999096391MD1999999-0021REMSYN070AAXX  21184 82784 32598 20904 10331 20178 39639 40085 81130 333 59002;
0178827840999992005122200004-07317-039300FM-12+040999999V0200901N001012200019N0020001N1+02511+01891101061ADDGA1001+999999999GF100991001001999999001001KA1240M+03391MA1999999096551MD1999999-0071REMSYN082AAXX  22004 82784 32995 00902 10251 20189 39655 40106 333 10339 29059 55117 59007;
0156827840999992005122212004-07317-039300FM-12+040999999V0200501N001512200019N0200001N1+02741+02001101291ADDGF101991011001017501031001KA1240N+02201MA1999999096771MD1999999-0031REMSYN076AAXX  22124 82784 32798 10503 10274 20200 39677 40129 81030 333 20220 59003;
0137827840999992005122218004-07317-039300FM-12+040999999V0200901N003112200019N0200001N1+03331+01581100841ADDGF102991021021008001001001MA1999999096381MD1999999-0011REMSYN070AAXX  22184 82784 32598 20906 10333 20158 39638 40084 82200 333 59001;
0178827840999992005122300004-07317-039300FM-12+040999999V0201401N000512200019N0020001N1+02631+01811101051ADDGA1001+999999999GF100991001001999999001001KA1240M+03421MA1999999096551MD1999999+0001REMSYN082AAXX  23004 82784 32995 01401 10263 20181 39655 40105 333 10342 29055 55117 58000;
0156827840999992005122312004-07317-039300FM-12+040999999V0200501N002112200019N0200001N1+02721+01951101261ADDGF102991021011008001001001KA1240N+02031MA1999999096751MD1999999-0021REMSYN076AAXX  23124 82784 32598 20504 10272 20195 39675 40126 82100 333 20203 59002;
0137827840999992005122318004-07317-039300FM-12+040999999V0200501N002110075019N0200001N1+03261+01841100791ADDGF106991061011008001001001MA1999999096311MD1999999-0071REMSYN070AAXX  23184 82784 32598 60504 10326 20184 39631 40079 86100 333 59007;
0178827840999992005122400004-07317-039300FM-12+040999999V0209999C000012200019N0020001N1+02511+02071101051ADDGA1001+999999999GF100991001001999999001001KA1240M+03341MA1999999096541MD1999999-0011REMSYN082AAXX  24004 82784 32995 00000 10251 20207 39654 40105 333 10334 29065 55115 59001;
0156827840999992005122412004-07317-039300FM-12+040999999V0200901N002110075019N0200001N1+02741+02051101261ADDGF106991051011008001001011KA1240N+02161MA1999999096741MD1999999-0011REMSYN076AAXX  24124 82784 32598 60904 10274 20205 39674 40126 85101 333 20216 59001;
0137827840999992005122418004-07317-039300FM-12+040999999V0200901N002112200019N0200001N1+03321+02071100811ADDGF108991041011008001001011MA1999999096261MD1999999-0051REMSYN070AAXX  24184 82784 32598 80904 10332 20207 39626 40081 84101 333 59005;
0168827840999992005122500004-07317-039300FM-12+040999999V0200901N000512200019N0020001N1+02721+02101100911ADDGF102991021011008001001001KA1240M+03391MA1999999096431MD1999999-0111REMSYN088AAXX  25004 82784 32595 20901 10272 20210 39643 40091 82100 333 10339 29063 55089 59011;
0201827840999992005122512004-07317-039300FM-12+040999999V0209999C000010042019N0200001N1+02291+02111101301ADDAA124004191AY161061AY221061GF108991081051004501999999KA1240N+02041MA1999999096761MD1999999+0021MW1021REMSYN088AAXX  25124 82784 21498 80000 10229 20211 39676 40130 70262 885// 333 20204 58002 60044;
0137827840999992005122518004-07317-039300FM-12+040999999V0203601N000510450019N0200001N1+02871+02191101051ADDGF107991041071008001041001MA1999999096441MD1999999+0181REMSYN070AAXX  25184 82784 32598 73601 10287 20219 39644 40105 84740 333 58018;
0168827840999992005122600004-07317-039300FM-12+040999999V0209999C000012200019N0020001N1+02481+02291101121ADDGF103991031011008001001001KA1240M+03031MA1999999096571MD1999999+0141REMSYN088AAXX  26004 82784 32595 30000 10248 20229 39657 40112 83100 333 10303 29084 55041 58014;
0201827840999992005122612004-07317-039300FM-12+040999999V0203601N001010075019N0200001N1+02501+02251101251ADDAA124002091AY161061AY221061GF107991071021008001001001KA1240N+02121MA1999999096711MD1999999-0051MW1021REMSYN088AAXX  26124 82784 21598 73602 10250 20225 39671 40125 70262 87200 333 20212 59005 60024;
0137827840999992005122618004-07317-039300FM-12+040999999V0200901N001012200019N0200001N1+03201+01931100651ADDGF101991011011008001001001MA1999999096181MD1999999-0261REMSYN070AAXX  26184 82784 32598 10902 10320 20193 39618 40065 81100 333 59026;
0178827840999992005122700004-07317-039300FM-12+040999999V0202701N000512200019N0020001N1+02521+02231100891ADDGA1001+999999999GF100991001001999999001001KA1240M+03331MA1999999096731MD1999999-0201REMSYN082AAXX  27004 82784 32995 02701 10252 20223 39673 40089 333 10333 29072 55091 59020;
0175827840999992005122712004-07317-039300FM-12+040999999V0200501N002119999999N0200001N1+02551+02041101161ADDGF107991999021008001001001KA1240N+02141MA1999999096641MD1999999-0071REMSYN076AAXX  27124 82784 32598 70504 10255 20204 39664 40116 84200 333 20214 59007;EQDQ01+000042SCOTLC
0137827840999992005122718004-07317-039300FM-12+040999999V0200501N001512200019N0200001N1+03201+02091100581ADDGF102991021021008001001001MA1999999096121MD1999999-0061REMSYN070AAXX  27184 82784 32598 20503 10320 20209 39612 40058 82200 333 59006;
0178827840999992005122800004-07317-039300FM-12+040999999V0209999C000012200019N0020001N1+02581+02231100771ADDGA1001+999999999GF100991001001999999001001KA1240M+03331MA1999999096261MD1999999-0111REMSYN082AAXX  28004 82784 32995 00000 10258 20223 39626 40077 333 10333 29072 55100 59011;
0201827840999992005122812004-07317-039300FM-12+040999999V0200901N002110075019N0200001N1+02571+02081101141ADDAA124002091AY161061AY221061GF108991081021008001999999KA1240N+02241MA1999999096621MD1999999-0021MW1021REMSYN088AAXX  28124 82784 21598 80904 10257 20208 39662 40114 70262 882// 333 20224 59002 60024;
0156827840999992005122818004-07317-039300FM-12+040999999V0200501N002119999999N0200001N1+03081+02131100681ADDGF108991999021008001001001MA1999999096211MD1999999+0091REMSYN070AAXX  28184 82784 32598 80504 10308 20213 39621 40068 84200 333 58009;EQDQ01+000042SCOTLC
0168827840999992005122900004-07317-039300FM-12+040999999V0202701N001010075019N0020001N1+02441+02231101051ADDGF108991081061008001999999KA1240M+03151MA1999999096521MD1999999+0261REMSYN088AAXX  29004 82784 32595 82702 10244 20223 39652 40105 886// 333 10315 29077 55047 58026;
0156827840999992005122912004-07317-039300FM-12+040999999V0200901N002610120019N0200001N1+02581+01941101221ADDGF108991071081008001051999KA1240N+02361MA1999999096681MD1999999+0061REMSYN076AAXX  29124 82784 32598 80905 10258 20194 39668 40122 8785/ 333 20236 58006;
0137827840999992005122918004-07317-039300FM-12+040999999V0203601N001010075019N0200001N1+02981+02201100731ADDGF108991081051008001999999MA1999999096201MD1999999-0011REMSYN070AAXX  29184 82784 32598 83602 10298 20220 39620 40073 885// 333 59001;
0178827840999992005123000004-07317-039300FM-12+040999999V0209999C000012200019N0020001N1+02511+02211100871ADDGA1001+999999999GF100991001001999999001001KA1240M+03051MA1999999096361MD1999999-0161REMSYN082AAXX  30004 82784 32995 00000 10251 20221 39636 40087 333 10305 29074 55005 59016;
0175827840999992005123012004-07317-039300FM-12+040999999V0201401N002112200019N0200001N1+02761+01771101171ADDGF102991999011008001001001KA1240N+02241MA1999999096661MD1999999-0021REMSYN076AAXX  30124 82784 32598 21404 10276 20177 39666 40117 85100 333 20224 59002;EQDQ01+000052SCOTLC
0137827840999992005123018004-07317-039300FM-12+040999999V0201401N002610450019N0200001N1+03361+01811100751ADDGF107991041011008001041001MA1999999096211MD1999999+0011REMSYN070AAXX  30184 82784 32598 71405 10336 20181 39621 40075 84140 333 58001;
0156827840999992005123112004-07317-039300FM-12+040999999V0201401N002110450019N0200001N1+02661+01901101071ADDGF108991021011008001041999KA1240N+02321MA1999999096591MD1999999-0071REMSYN076AAXX  31124 82784 32598 81404 10266 20190 39659 40107 8214/ 333 20232 59007;
0137827840999992005123118004-07317-039300FM-12+040999999V0201401N001510075019N0200001N1+03181+01941100681ADDGF108991081051008001999999MA1999999096181MD1999999-0031REMSYN070AAXX  31184 82784 32598 81403 10318 20194 39618 40068 885// 333 59003;
