0211827980999992005032212004-07100-034867FM-12+0007SBJP V0201401N003110450019N0200001N1+02961+02491101451ADDAA124004091AY161061AY221061GF105991031041008001021001KA1240N+02531MA1100411101241MD1999999+0001MW1021REMSYN098AAXX  22124 82798 21598 51406 10296 20249 30124 40145 70262 83420 333 20253 58000 60044 555 10040;
0211827980999992005032612004-07100-034867FM-12+0007SBJP V0203601N003110450019N0200001N1+02901+02391101411ADDAA124000391AY161061AY221061GF106991041051008001041001KA1240N+02531MA1100031101201MD1999999-0071MW1021REMSYN098AAXX  26124 82798 21598 63606 10290 20239 30120 40141 70262 84540 333 20253 59007 69934 555 10003;
0178827980999992005050212004-07100-034867FM-15+0007SBJP V0200901N00151999999CN0112651N1+03001+02501999999ADDGA1045+008101999GA2045+090001999GF104991999999999999999999MA1101491999999MW1001REMMET052SBJP 021200Z 09003KT 9999 SCT027 SCT300 30/25 Q1015;EQDQ01+000000PRSWM2P01 090003SCOCIG
0178827980999992005050213004-07100-034867FM-15+0007SBJP V0201101N00211999999CN0112651N1+03201+02301999999ADDGA1045+008101999GA2045+090001999GF104991999999999999999999MA1101391999999MW1001REMMET052SBJP 021300Z 11004KT 9999 SCT027 SCT300 32/23 Q1014;EQDQ01+000000PRSWM2P01 090003SCOCIG
0178827980999992005050214004-07100-034867FM-15+0007SBJP V0200901N00261999999CN0112651N1+03201+02401999999ADDGA1045+009001999GA2045+090001999GF104991999999999999999999MA1101391999999MW1001REMMET052SBJP 021400Z 09005KT 9999 SCT030 SCT300 32/24 Q1014;EQDQ01+000000PRSWM2P01 090003SCOCIG
0178827980999992005050215004-07100-034867FM-15+0007SBJP V0200501N00261999999CN0112651N1+03201+02301999999ADDGA1045+009001999GA2045+090001999GF104991999999999999999999MA1101291999999MW1001REMMET052SBJP 021500Z 05005KT 9999 SCT030 SCT300 32/23 Q1013;EQDQ01+000000PRSWM2P01 090003SCOCIG
0178827980999992005050216004-07100-034867FM-15+0007SBJP V0201001N00211999999CN0112651N1+03201+02301999999ADDGA1045+009001999GA2045+090001999GF104991999999999999999999MA1101191999999MW1001REMMET052SBJP 021600Z 10004KT 9999 SCT030 SCT300 32/23 Q1012;EQDQ01+000000PRSWM2P01 090003SCOCIG
0178827980999992005050217004-07100-034867FM-15+0007SBJP V0200801N00311999999CN0112651N1+03201+02301999999ADDGA1045+009001999GA2045+090001999GF104991999999999999999999MA1101191999999MW1001REMMET052SBJP 021700Z 08006KT 9999 SCT030 SCT300 32/23 Q1012;EQDQ01+000000PRSWM2P01 090003SCOCIG
0178827980999992005050219004-07100-034867FM-15+0007SBJP V0201001N00411999999CN0112651N1+03001+02401999999ADDGA1025+009001999GA2045+090001999GF104991999999999999999999MA1101191999999MW1001REMMET052SBJP 021900Z 10008KT 9999 FEW030 SCT300 30/24 Q1012;EQDQ01+000000PRSWM2P01 090003SCOCIG
0139827980999992005050220004-07100-034867FM-15+0007SBJP V0200901N003112200019N0112651N1+02901+02401999999ADDGA1025+009001999GF102991999999999999999999MA1101191999999MW1001REMMET045SBJP 022000Z 09006KT 9999 FEW030 29/24 Q1012;EQDQ01+000000PRSWM2
0171827980999992005052518004-07100-034867FM-12+0007SBJP V0201801N002110075019N0040001N1+02581+02461101371ADDAY161061AY221061GF107991071071008001001001MA1999999101161MD1999999+0131MW1621REMSYN082AAXX  25184 82798 21596 71804 10258 20246 30116 40137 76262 87700 333 58013 60101;
0181827980999992005052915004-07100-034870FM-15+0007SBJP V0201701N006212200019N0112651N1+02801+02401999999ADDGA1045+007501999GF104991999999999999999999MA1101391999999REMMET045SBJP 291500Z 17012KT 9999 SCT025 28/24 Q1014;EQDQ01+000000PRSWM1Q02+000000PRSWM2Q03+000000PRSWM3Q04+000000PRSWM4
0211827980999992005062912004-07100-034867FM-12+0007SBJP V0201401N006212200019N0200001N1+02841+02331101701ADDAA124004091AY161061AY221061GF104991021031008001021011KA1240N+02351MA1100411101491MD1999999-0041MW1021REMSYN098AAXX  29124 82798 21598 41412 10284 20233 30149 40170 70262 82321 333 20235 59004 60044 555 10042;
0220827980999992005090315004-07100-034867FM-15+0007SBJP V0201301N00671999999CN0112651N1+02901+02301999999ADDGA1045+006001999GA2045+021001999GF104991999999999999999999MA1101591999999REMMET052SBJP 031500Z 13013KT 9999 SCT020 SCT070 29/23 Q1016;EQDQ01+000000PRSWM1Q02+000000PRSWM2Q03+000000PRSWM3Q04+000000PRSWM4P01 021003SCOCIG
0182827980999992005091418004-07100-034867FM-12+0007SBJP V0201401N003610450019N0100001N1+02481+02301101531ADDAA106999999AY161061AY221061GF106991041061008001051001MA1999999101321MD1999999+0051MW1621REMSYN082AAXX  14184 82798 21597 61407 10248 20230 30132 40153 76262 84650 333 58005 69921;
0211827980999992005091612004-07100-034867FM-12+0007SBJP V0201801N005110075019N0200001N1+02601+02231101921ADDAA124006091AY161061AY221061GF106991051061008001051001KA1240N+02251MA1100541101711MD1999999-0061MW1021REMSYN098AAXX  16124 82798 21598 61810 10260 20223 30171 40192 70262 85650 333 20225 59006 60064 555 10056;
