0179827950999992005010100004-07217-035883FM-12+0560SBKG V0200901N004612200019N0010001N1+02321+02021101401ADDAA106000091GF100991001001999999001001MA1999999095251MD1999999-0041REMSYN082AAXX  01004 82795 32994 00909 10232 20202 39525 40140 333 10320 29072 55109 59004;EQDQ01  00002PRCP06
0173827950999992005010112004-07217-035883FM-12+0560SBKG V0200901N003110075019N0100001N1+02451+01901101511ADDAA106000091GF105991051021008001001001MA1999999095451MD1999999+0031REMSYN076AAXX  01124 82795 32597 50906 10245 20190 39545 40151 85200 333 20198 58003;EQDQ01  00002PRCP06
0167827950999992005010118004-07217-035883FM-12+0560SBKG V0201401N004612200019N0100001N1+03121+01751101051ADDAA106000091GF101991011011008001001001MA1999999094971MD1999999-0061REMSYN070AAXX  01184 82795 32597 11409 10312 20175 39497 40105 81100 333 59006;EQDQ01  00002PRCP06
0179827950999992005010200004-07217-035883FM-12+0560SBKG V0200901N004612200019N0010001N1+02291+01981101451ADDAA106000091GF100991001001999999001001MA1999999095301MD1999999+0051REMSYN082AAXX  02004 82795 32994 00909 10229 20198 39530 40145 333 10317 29070 55109 58005;EQDQ01  00002PRCP06
0173827950999992005010212004-07217-035883FM-12+0560SBKG V0200901N003610075019N0100001N1+02521+01931101561ADDAA106000091GF105991051011008001001001MA1999999095421MD1999999-0031REMSYN076AAXX  02124 82795 32597 50907 10252 20193 39542 40156 85100 333 20203 59003;EQDQ01  00002PRCP06
0167827950999992005010218004-07217-035883FM-12+0560SBKG V0200901N004112200019N0100001N1+03071+01871101201ADDAA106000091GF103991031021008001001001MA1999999095121MD1999999+0151REMSYN070AAXX  02184 82795 32597 30908 10307 20187 39512 40120 83200 333 58015;EQDQ01  00002PRCP06
0185827950999992005010300004-07217-035883FM-12+0560SBKG V0200901N005112200019N0010001N1+02361+02071101491ADDAA106000091GF103991031021008001001001MA1999999095361MD1999999+0061REMSYN088AAXX  03004 82795 32594 30910 10236 20207 39536 40149 83200 333 10314 29072 55107 58006;EQDQ01  00002PRCP06
0173827950999992005010312004-07217-035883FM-12+0560SBKG V0200901N004110075019N0100001N1+02631+01981101541ADDAA106000091GF105991051021008001001001MA1999999095421MD1999999+0001REMSYN076AAXX  03124 82795 32597 50908 10263 20198 39542 40154 85200 333 20208 58000;EQDQ01  00002PRCP06
0167827950999992005010318004-07217-035883FM-12+0560SBKG V0201401N005111050019N0100001N1+02941+02031101201ADDAA106000091GF105991021021008001001021MA1999999095111MD1999999-0011REMSYN070AAXX  03184 82795 32597 51410 10294 20203 39511 40120 82202 333 59001;EQDQ01  00002PRCP06
0173827950999992005010412004-07217-035883FM-12+0560SBKG V0201401N002110075019N0100001N1+02471+02011101521ADDAA106000091GF106991061021008001001001MA1999999095381MD1999999-0041REMSYN076AAXX  04124 82795 32597 61404 10247 20201 39538 40152 86200 333 20210 59004;EQDQ01  00002PRCP06
0167827950999992005010418004-07217-035883FM-12+0560SBKG V0201401N005110075019N0100001N1+03071+02131101091ADDAA106000091GF105991051031008001001001MA1999999095001MD1999999-0111REMSYN070AAXX  04184 82795 32597 51410 10307 20213 39500 40109 85300 333 59011;EQDQ01  00002PRCP06
0173827950999992005010512004-07217-035883FM-12+0560SBKG V0201401N004110075019N0100001N1+02571+01991101491ADDAA106000091GF106991061021008001001001MA1999999095361MD1999999-0021REMSYN076AAXX  05124 82795 32597 61408 10257 20199 39536 40149 86200 333 20203 59002;EQDQ01  00002PRCP06
0185827950999992005010600004-07217-035883FM-12+0560SBKG V0200901N004612200019N0010001N1+02271+02031101381ADDAA106000091GF103991031021008001001001MA1999999095241MD1999999-0071REMSYN088AAXX  06004 82795 32594 30909 10227 20203 39524 40138 83200 333 10320 29073 55100 59007;EQDQ01  00002PRCP06
0173827950999992005010612004-07217-035883FM-12+0560SBKG V0200901N004610075019N0100001N1+02441+01981101411ADDAA106000091GF105991051021008001001001MA1999999095261MD1999999-0101REMSYN076AAXX  06124 82795 32597 50909 10244 20198 39526 40141 85200 333 20196 59010;EQDQ01  00002PRCP06
0173827950999992005010712004-07217-035883FM-12+0560SBKG V0201401N004112200019N0100001N1+02611+01891101401ADDAA106000091GF104991041011008001001001MA1999999095281MD1999999+0021REMSYN076AAXX  07124 82795 32597 41408 10261 20189 39528 40140 84100 333 20193 58002;EQDQ01  00002PRCP06
0177827950999992005010812004-07217-035883FM-12+0560SBKG V0201401N003110075019N0100001N1+02531+02041101311ADDAY161061AY221061GF106991061021008001001001MA1999999095211MD1999999-0071MW1021REMSYN088AAXX  08124 82795 21597 61406 10253 20204 39521 40131 70262 86200 333 20203 59007 69934;
0167827950999992005010818004-07217-035883FM-12+0560SBKG V0201401N005112200019N0100001N1+03181+01941100871ADDAA106000091GF104991041011008001001001MA1999999094821MD1999999-0101REMSYN070AAXX  08184 82795 32597 41410 10318 20194 39482 40087 84100 333 59010;EQDQ01  00002PRCP06
0185827950999992005010900004-07220-035880FM-12+0548SBKG V0201401N005110075019N0100001N1+02461+02191101281ADDAA106000091GF106991061021008001001001MA1999999095181MD1999999-0021REMSYN088AAXX  09004 82795 32597 61410 10246 20219 39518 40128 86200 333 10328 29074 55111 59002;EQDQ01  00002PRCP06
0173827950999992005010912004-07220-035880FM-12+0548SBKG V0201401N003110075019N0100001N1+02431+02011101331ADDAA106000091GF105991051021008001001001MA1999999095211MD1999999+0001REMSYN076AAXX  09124 82795 32597 51406 10243 20201 39521 40133 85200 333 20206 58000;EQDQ01  00002PRCP06
0167827950999992005010918004-07220-035880FM-12+0548SBKG V0200901N003612200019N0100001N1+03081+02041100921ADDAA106000091GF104991041021008001001001MA1999999094851MD1999999+0011REMSYN070AAXX  09184 82795 32597 40907 10308 20204 39485 40092 84200 333 58001;EQDQ01  00002PRCP06
0185827950999992005011000004-07217-035883FM-12+0560SBKG V0200901N003610075019N0010001N1+02411+02151101271ADDAA106000091GF105991051021008001001001MA1999999095141MD1999999-0041REMSYN088AAXX  10004 82795 32594 50907 10241 20215 39514 40127 85200 333 10317 29076 55077 59004;EQDQ01  00002PRCP06
0173827950999992005011012004-07217-035883FM-12+0560SBKG V0201401N004110075019N0100001N1+02531+02091101291ADDAA106000091GF106991061021008001001001MA1999999095171MD1999999-0041REMSYN076AAXX  10124 82795 32597 61408 10253 20209 39517 40129 86200 333 20212 59004;EQDQ01  00002PRCP06
0167827950999992005011018004-07217-035883FM-12+0560SBKG V0201401N004111050019N0100001N1+03181+02011100921ADDAA106000091GF106991021011008001001081MA1999999094881MD1999999+0031REMSYN070AAXX  10184 82795 32597 61408 10318 20201 39488 40092 82108 333 58003;EQDQ01  00002PRCP06
0177827950999992005011112004-07217-035883FM-12+0560SBKG V0201401N005110075019N0100001N1+02561+02351101331ADDAY151061AY221061GF106991061021008001001001MA1999999095211MD1999999+0041MW1021REMSYN088AAXX  11124 82795 21597 61410 10256 20235 39521 40133 70252 86200 333 20208 58004 69914;
0167827950999992005011118004-07217-035883FM-12+0560SBKG V0201401N005712200019N0100001N1+03091+02011101001ADDAA106000091GF103991011011008001001011MA1999999094921MD1999999+0041REMSYN070AAXX  11184 82795 32597 31411 10309 20201 39492 40100 81101 333 58004;EQDQ01  00002PRCP06
0179827950999992005011200004-07217-035883FM-12+0560SBKG V0200901N003612200019N0010001N1+02381+02071101311ADDAA106000091GF100991001001999999001001MA1999999095191MD1999999-0011REMSYN082AAXX  12004 82795 32994 00907 10238 20207 39519 40131 333 10318 29074 55091 59001;EQDQ01  00002PRCP06
0173827950999992005011212004-07217-035883FM-12+0560SBKG V0200901N002611050019N0100001N1+02441+01951101341ADDAA106000091GF106991041021008001001031MA1999999095211MD1999999+0001REMSYN076AAXX  12124 82795 32597 60905 10244 20195 39521 40134 84203 333 20207 58000;EQDQ01  00002PRCP06
0167827950999992005011218004-07217-035883FM-12+0560SBKG V0200901N005110450019N0100001N1+03021+01891101081ADDAA106000091GF105991041021008001021001MA1999999094851MD1999999-0071REMSYN070AAXX  12184 82795 32597 50910 10302 20189 39485 40108 84220 333 59007;EQDQ01  00002PRCP06
0173827950999992005011312004-07217-035883FM-12+0560SBKG V0200901N004610075019N0100001N1+02581+02101101271ADDAA106000091GF106991061021008001001001MA1999999095171MD1999999-0041REMSYN076AAXX  13124 82795 32597 60909 10258 20210 39517 40127 86200 333 20216 59004;EQDQ01  00002PRCP06
0167827950999992005011318004-07217-035883FM-12+0560SBKG V0200501N004110450019N0100001N1+03201+02211100821ADDAA106000091GF106991031021008001031011MA1999999094781MD1999999-0071REMSYN070AAXX  13184 82795 32597 60508 10320 20221 39478 40082 83231 333 59007;EQDQ01  00002PRCP06
0185827950999992005011400004-07217-035883FM-12+0560SBKG V0200901N004611050019N0010001N1+02421+02191101191ADDAA106000091GF106991031021008001001021MA1999999095091MD1999999+0021REMSYN088AAXX  14004 82795 32594 60909 10242 20219 39509 40119 83202 333 10331 29076 55095 58002;EQDQ01  00002PRCP06
0173827950999992005011412004-07217-035883FM-12+0560SBKG V0200901N001510075019N0100001N1+02531+02151101281ADDAA106000091GF106991061061008001001001MA1999999095161MD1999999-0011REMSYN076AAXX  14124 82795 32597 60903 10253 20215 39516 40128 86600 333 20218 59001;EQDQ01  00002PRCP06
0167827950999992005011418004-07217-035883FM-12+0560SBKG V0200901N005110075019N0100001N1+03061+02211100911ADDAA106000091GF107991051041008001031001MA1999999094871MD1999999-0091REMSYN070AAXX  14184 82795 32597 70910 10306 20221 39487 40091 85430 333 59009;EQDQ01  00002PRCP06
0173827950999992005011512004-07217-035883FM-12+0560SBKG V0200901N003610075019N0100001N1+02621+02181101181ADDAA106000091GF106991061061008001001001MA1999999095081MD1999999-0081REMSYN076AAXX  15124 82795 32597 60907 10262 20218 39508 40118 86600 333 20216 59008;EQDQ01  00002PRCP06
0167827950999992005011518004-07217-035883FM-12+0560SBKG V0201401N005110450019N0100001N1+03081+02211100811ADDAA106000091GF106991031031008001041001MA1999999094761MD1999999-0111REMSYN070AAXX  15184 82795 32597 61410 10308 20221 39476 40081 83340 333 59011;EQDQ01  00002PRCP06
0185827950999992005011600004-07217-035883FM-12+0560SBKG V0201401N005119999999N0010001N1+02431+02111101041ADDAA106000091GF105991051021999999001001MA1999999094831MD1999999-0181REMSYN088AAXX  16004 82795 32994 51410 10243 20211 39483 40104 85200 333 10320 29076 55066 59018;EQDQ01  00002PRCP06
0173827950999992005011612004-07217-035883FM-12+0560SBKG V0201401N003610450019N0100001N1+02561+02041101221ADDAA106000091GF106991041021008001041001MA1999999095121MD1999999+0041REMSYN076AAXX  16124 82795 32597 61407 10256 20204 39512 40122 84240 333 20210 58004;EQDQ01  00002PRCP06
0167827950999992005011618004-07217-035883FM-12+0560SBKG V0200901N002610075019N0100001N1+03021+02021100841ADDAA106000091GF107991051021008001041001MA1999999094771MD1999999+0011REMSYN070AAXX  16184 82795 32597 70905 10302 20202 39477 40084 85240 333 58001;EQDQ01  00002PRCP06
0185827950999992005011700004-07220-035880FM-12+0548SBKG V0200901N004610075019N0010001N1+02351+02051100991ADDAA106000091GF106991999021008001001001MA1999999094891MD1999999+0031REMSYN088AAXX  17004 82795 32594 60909 10235 20205 39489 40099 85200 333 10309 29074 55059 58003;EQDQ01  00002PRCP06
0173827950999992005011712004-07220-035880FM-12+0548SBKG V0200901N002610075019N0100001N1+02481+02011101191ADDAA106000091GF106991061061008001001001MA1999999095071MD1999999-0051REMSYN076AAXX  17124 82795 32597 60905 10248 20201 39507 40119 86600 333 20213 59005;EQDQ01  00002PRCP06
0185827950999992005011800004-07217-035883FM-12+0560SBKG V0200901N004611050019N0010001N1+02351+02171101131ADDAA106000091GF107991031021008001001061MA1999999095011MD1999999+0121REMSYN088AAXX  18004 82795 32594 70909 10235 20217 39501 40113 83206 333 10318 29078 55036 58012;EQDQ01  00002PRCP06
0173827950999992005011812004-07217-035883FM-12+0560SBKG V0201401N004610075019N0100001N1+02451+02071101161ADDAA106000091GF106991061021008001001001MA1999999095041MD1999999-0031REMSYN076AAXX  18124 82795 32597 61409 10245 20207 39504 40116 86200 333 20216 59003;EQDQ01  00002PRCP06
0167827950999992005011818004-07217-035883FM-12+0560SBKG V0201401N003110450019N0100001N1+03121+02191100781ADDAA106000091GF106991041041008001011001MA1999999094741MD1999999-0111REMSYN070AAXX  18184 82795 32597 61406 10312 20219 39474 40078 84410 333 59011;EQDQ01  00002PRCP06
0185827950999992005011900004-07217-035883FM-12+0560SBKG V0200901N004610450019N0010001N1+02391+02231101121ADDAA106000091GF106991021021008001031001MA1999999095001MD1999999-0011REMSYN088AAXX  19004 82795 32594 60909 10239 20223 39500 40112 82230 333 10313 29080 55064 59001;EQDQ01  00002PRCP06
0173827950999992005011912004-07217-035883FM-12+0560SBKG V0200901N004610075019N0100001N1+02561+02111101211ADDAA106000091GF106991061061008001001001MA1999999095101MD1999999+0061REMSYN076AAXX  19124 82795 32597 60909 10256 20211 39510 40121 86600 333 20213 58006;EQDQ01  00002PRCP06
0167827950999992005011918004-07217-035883FM-12+0560SBKG V0200901N004610450019N0100001N1+02921+02241100921ADDAA106000091GF107991031021008001021041MA1999999094851MD1999999+0091REMSYN070AAXX  19184 82795 32597 70909 10292 20224 39485 40092 83224 333 58009;EQDQ01  00002PRCP06
0185827950999992005012000004-07217-035883FM-12+0560SBKG V0200901N004110075019N0010001N1+02381+02151101221ADDAA106000091GF106991051021008001041001MA1999999095111MD1999999+0111REMSYN088AAXX  20004 82795 32594 60908 10238 20215 39511 40122 85240 333 10307 29080 55048 58011;EQDQ01  00002PRCP06
0173827950999992005012012004-07217-035883FM-12+0560SBKG V0200901N004610450019N0100001N1+02551+02081101381ADDAA106000091GF107991031021008001041061MA1999999095261MD1999999+0161REMSYN076AAXX  20124 82795 32597 70909 10255 20208 39526 40138 83246 333 20205 58016;EQDQ01  00002PRCP06
0167827950999992005012018004-07217-035883FM-12+0560SBKG V0200901N002610450019N0100001N1+03001+02171100901ADDAA106000091GF107991031041008001031021MA1999999094831MD1999999+0021REMSYN070AAXX  20184 82795 32597 70905 10300 20217 39483 40090 83432 333 58002;EQDQ01  00002PRCP06
0185827950999992005012100004-07217-035883FM-12+0560SBKG V0200901N003110450019N0010001N1+02411+02231101351ADDAA106000091GF107991021021008001071001MA1999999095231MD1999999+0111REMSYN088AAXX  21004 82795 32594 70906 10241 20223 39523 40135 82270 333 10305 29079 55043 58011;EQDQ01  00002PRCP06
0173827950999992005012112004-07217-035883FM-12+0560SBKG V0200901N003610075019N0100001N1+02501+02171101351ADDAA106000091GF107991071071008001001001MA1999999095231MD1999999-0031REMSYN076AAXX  21124 82795 32597 70907 10250 20217 39523 40135 87700 333 20212 59003;EQDQ01  00002PRCP06
0185827950999992005012200004-07217-035883FM-12+0560SBKG V0200901N003612200019N0010001N1+02461+02301101311ADDAA106000091GF104991041021008001001001MA1999999095191MD1999999-0041REMSYN088AAXX  22004 82795 32594 40907 10246 20230 39519 40131 84200 333 10329 29079 55075 59004;EQDQ01  00002PRCP06
0173827950999992005012212004-07217-035883FM-12+0560SBKG V0201401N002610075019N0100001N1+02611+02171101331ADDAA106000091GF106991061021008001001001MA1999999095231MD1999999+0001REMSYN076AAXX  22124 82795 32597 61405 10261 20217 39523 40133 86200 333 20213 58000;EQDQ01  00002PRCP06
0167827950999992005012218004-07217-035883FM-12+0560SBKG V0201401N003112200019N0100001N1+03301+02151100851ADDAA106000091GF104991041011008001001001MA1999999094821MD1999999-0061REMSYN070AAXX  22184 82795 32597 41406 10330 20215 39482 40085 84100 333 59006;EQDQ01  00002PRCP06
0185827950999992005012300004-07220-035880FM-12+0548SBKG V0201401N002610075019N0010001N1+02561+02291101141ADDAA106000091GF106991061021008001001001MA1999999095061MD1999999-0131REMSYN088AAXX  23004 82795 32594 61405 10256 20229 39506 40114 86200 333 10249 29075 55089 59013;EQDQ01  00002PRCP06
0173827950999992005012312004-07220-035880FM-12+0548SBKG V0201401N001512200019N0100001N1+02641+02011101281ADDAA106000091GF104991041011008001001001MA1999999095201MD1999999-0031REMSYN076AAXX  23124 82795 32597 41403 10264 20201 39520 40128 84100 333 20223 59003;EQDQ01  00002PRCP06
0167827950999992005012318004-07220-035880FM-12+0548SBKG V0201401N002112200019N0100001N1+03271+02111100801ADDAA106000091GF106991031021008001001061MA1999999094791MD1999999-0031REMSYN070AAXX  23184 82795 32597 61404 10327 20211 39479 40080 83206 333 59003;EQDQ01  00002PRCP06
0189827950999992005012400004-07220-035880FM-12+0548SBKG V0201801N001010042019N0002001N1+02141+02091101251ADDAY191061AY261061GF108991081091004501999999MA1999999095131MD1999999+0071MW1951REMSYN100AAXX  24004 82795 21492 81802 10214 20209 39513 40125 79596 889// 333 10331 29080 55065 58007 60111;
0177827950999992005012412004-07220-035880FM-12+0548SBKG V0200501N001010450019N0100001N1+02531+02191101371ADDAY161061AY221061GF106991021021008001061001MA1999999095211MD1999999+0011MW1021REMSYN088AAXX  24124 82795 21597 60502 10253 20219 39521 40137 70262 82260 333 20210 58001 60494;
0167827950999992005012418004-07220-035880FM-12+0548SBKG V0200501N001511050019N0100001N1+03021+02311100881ADDAA106000091GF106991031081008001001051MA1999999094801MD1999999+0101REMSYN070AAXX  24184 82795 32597 60503 10302 20231 39480 40088 83805 333 58010;EQDQ01  00002PRCP06
0185827950999992005012500004-07217-035883FM-12+0560SBKG V0200901N004111050019N0010001N1+02421+02261101181ADDAA106000091GF107991031021008001001061MA1999999095071MD1999999-0081REMSYN088AAXX  25004 82795 32594 70908 10242 20226 39507 40118 83206 333 10307 29082 55076 59008;EQDQ01  00002PRCP06
0177827950999992005012512004-07217-035883FM-12+0560SBKG V0200501N002610450019N0100001N1+02491+02251101331ADDAY161061AY221061GF106991021021008001061001MA1999999095191MD1999999-0021MW1021REMSYN088AAXX  25124 82795 21597 60505 10249 20225 39519 40133 70262 82260 333 20223 59002 69934;
0167827950999992005012518004-07217-035883FM-12+0560SBKG V0202301N002110450019N0100001N1+02871+02371100941ADDAA106000091GF106991031041008001031001MA1999999094881MD1999999+0081REMSYN070AAXX  25184 82795 32597 62304 10287 20237 39488 40094 83430 333 58008;EQDQ01  00002PRCP06
0213827950999992005012600004-07217-035883FM-12+0560SBKG V0200501N002110075019N0010001N1+02501+02291101271ADDAA106000091AY121061AY221061GF107991051031008001031001MA1999999095171MD1999999+0101MW1131REMSYN094AAXX  26004 82795 31594 70504 10250 20229 39517 40127 71322 85330 333 10292 29084 55030 58010;EQDQ01  00002PRCP06
0173827950999992005012612004-07217-035883FM-12+0560SBKG V0200501N002610075019N0100001N1+02631+02101101441ADDAA106000091GF106991061061008001001001MA1999999095341MD1999999+0151REMSYN076AAXX  26124 82795 32597 60505 10263 20210 39534 40144 86600 333 20218 58015;EQDQ01  00002PRCP06
0167827950999992005012618004-07217-035883FM-12+0560SBKG V0200501N003110075019N0100001N1+03111+02201101071ADDAA106000091GF105991051031008001001001MA1999999095011MD1999999+0131REMSYN070AAXX  26184 82795 32597 50506 10311 20220 39501 40107 85300 333 58013;EQDQ01  00002PRCP06
0185827950999992005012700004-07217-035883FM-12+0560SBKG V0200901N003612200019N0010001N1+02441+02191101301ADDAA106000091GF104991021021008001001011MA1999999095211MD1999999+0041REMSYN088AAXX  27004 82795 32594 40907 10244 20219 39521 40130 82201 333 10318 29076 55103 58004;EQDQ01  00002PRCP06
0173827950999992005012712004-07217-035883FM-12+0560SBKG V0201401N004612200019N0100001N1+02671+02161101431ADDAA106000091GF106991041021008001001011MA1999999095331MD1999999-0011REMSYN076AAXX  27124 82795 32597 61409 10267 20216 39533 40143 84201 333 20220 59001;EQDQ01  00002PRCP06
0167827950999992005012718004-07217-035883FM-12+0560SBKG V0200501N003112200019N0100001N1+03221+02111101071ADDAA106000091GF104991011021008001001011MA1999999095031MD1999999+0021REMSYN070AAXX  27184 82795 32597 40506 10322 20211 39503 40107 81201 333 58002;EQDQ01  00002PRCP06
0185827950999992005012800004-07217-035883FM-12+0560SBKG V0200901N004112200019N0010001N1+02411+02151101281ADDAA106000091GF103991021021008001001011MA1999999095191MD1999999-0021REMSYN088AAXX  28004 82795 32594 30908 10241 20215 39519 40128 82201 333 10327 29074 55100 59002;EQDQ01  00002PRCP06
0173827950999992005012812004-07217-035883FM-12+0560SBKG V0201401N004112200019N0100001N1+02531+02001101371ADDAA106000091GF105991031021008001001011MA1999999095251MD1999999-0081REMSYN076AAXX  28124 82795 32597 51408 10253 20200 39525 40137 83201 333 20206 59008;EQDQ01  00002PRCP06
0167827950999992005012818004-07217-035883FM-12+0560SBKG V0201401N003110450019N0100001N1+03021+02071100971ADDAA106000091GF106991021021008001031011MA1999999094911MD1999999-0121REMSYN070AAXX  28184 82795 32597 61406 10302 20207 39491 40097 82231 333 59012;EQDQ01  00002PRCP06
0179827950999992005012900004-07217-035883FM-12+0560SBKG V0200901N003112200019N0010001N1+02371+02071101161ADDAA106000091GF100991001001999999001001MA1999999095051MD1999999-0141REMSYN082AAXX  29004 82795 32994 00906 10237 20207 39505 40116 333 10315 29074 55089 59014;EQDQ01  00002PRCP06
0173827950999992005012912004-07217-035883FM-12+0560SBKG V0201401N002112200019N0100001N1+02441+02071101151ADDAA106000091GF105991011031008001001011MA1999999095001MD1999999-0221REMSYN076AAXX  29124 82795 32597 51404 10244 20207 39500 40115 81301 333 20206 59022;EQDQ01  00002PRCP06
0185827950999992005013000004-07220-035880FM-12+0548SBKG V0201401N002110075019N0010001N1+02291+02161100941ADDAA106000091GF105991051061008001001001MA1999999094811MD1999999-0241REMSYN088AAXX  30004 82795 32594 51404 10229 20216 39481 40094 85600 333 10305 29081 55096 59024;EQDQ01  00002PRCP06
0173827950999992005013012004-07220-035880FM-12+0548SBKG V0201401N004612200019N0100001N1+02531+02001101191ADDAA106000091GF103991031011008001001001MA1999999095071MD1999999-0041REMSYN076AAXX  30124 82795 32597 31409 10253 20200 39507 40119 83100 333 20204 59004;EQDQ01  00002PRCP06
0167827950999992005013018004-07220-035880FM-12+0548SBKG V0200501N003612200019N0100001N1+03021+02071100751ADDAA106000091GF105991011021008001001011MA1999999094691MD1999999-0041REMSYN070AAXX  30184 82795 32597 50507 10302 20207 39469 40075 81201 333 59004;EQDQ01  00002PRCP06
0214827950999992005013100004-07217-035883FM-12+0560SBKG V0209999C000012200019N0010001N1+02281+02011101171ADDAA106000091GF103991999011008001001001KA1240M+03111MA1999999095051MD1999999+0241REMSYN088AAXX  31004 82795 32594 31400 10228 20201 39505 40117 84100 333 10311 29075 55109 58024;EQDQ01+000042SCOTLCQ02  00002PRCP06
0186827950999992005013112004-07217-035883FM-12+0560SBKG V0200901N006210075019N0100001N1+02601+02101101181ADDAA106000091GF105991051021008001001001KA1240N+02031MA1999999095071MD1999999+0001REMSYN076AAXX  31124 82795 32597 50912 10260 20210 39507 40118 85200 333 20203 58000;EQDQ01  00002PRCP06
0167827950999992005013118004-07217-035883FM-12+0560SBKG V0201401N003612200019N0100001N1+03041+02151100831ADDAA106000091GF105991011041008001001061MA1999999094751MD1999999+0061REMSYN070AAXX  31184 82795 32597 51407 10304 20215 39475 40083 81406 333 58006;EQDQ01  00002PRCP06
0185827950999992005020100004-07217-035883FM-12+0560SBKG V0200901N002112200019N0010001N1+02421+02111101091ADDAA106000091GF102991011011008001041001MA1999999095001MD1999999-0051REMSYN088AAXX  01004 82795 32594 20904 10242 20211 39500 40109 81140 333 10316 29075 55115 59005;EQDQ01  00002PRCP06
0173827950999992005020112004-07217-035883FM-12+0560SBKG V0201401N005110075019N0100001N1+02521+02191101181ADDAA106000091GF107991071071008001001001MA1999999095071MD1999999+0001REMSYN076AAXX  01124 82795 32597 71410 10252 20219 39507 40118 87700 333 20213 58000;EQDQ01  00002PRCP06
0167827950999992005020118004-07217-035883FM-12+0560SBKG V0201401N003610450019N0100001N1+02811+02201100871ADDAA106000091GF108991031041008001021041MA1999999094771MD1999999+0031REMSYN070AAXX  01184 82795 32597 81407 10281 20220 39477 40087 83424 333 58003;EQDQ01  00002PRCP06
0185827950999992005020200004-07217-035883FM-12+0560SBKG V0200901N003110075019N0010001N1+02401+02281101121ADDAA106000091GF107991051051008001071001MA1999999095021MD1999999+0021REMSYN088AAXX  02004 82795 32594 70906 10240 20228 39502 40112 85570 333 10297 29084 55020 58002;EQDQ01  00002PRCP06
0177827950999992005020212004-07217-035883FM-12+0560SBKG V0201401N005710075019N0100001N1+02561+02211101181ADDAY161061AY221061GF106991061061008001001001MA1999999095071MD1999999+0001MW1021REMSYN088AAXX  02124 82795 21597 61411 10256 20221 39507 40118 70262 86600 333 20213 58000 60014;
0167827950999992005020218004-07217-035883FM-12+0560SBKG V0201401N003112200019N0100001N1+02931+02291100891ADDAA106000091GF104991041041008001001001MA1999999094811MD1999999+0031REMSYN070AAXX  02184 82795 32597 41406 10293 20229 39481 40089 84400 333 58003;EQDQ01  00002PRCP06
0185827950999992005020300004-07217-035883FM-12+0560SBKG V0200901N004610075019N0010001N1+02411+02301101191ADDAA106000091GF106991061021008001001001MA1999999095081MD1999999+0061REMSYN088AAXX  03004 82795 32594 60909 10241 20230 39508 40119 86200 333 10305 29084 55081 58006;EQDQ01  00002PRCP06
0173827950999992005020312004-07217-035883FM-12+0560SBKG V0200901N004610075019N0100001N1+02561+02211101321ADDAA106000091GF106991061021008001001001MA1999999095201MD1999999+0131REMSYN076AAXX  03124 82795 32597 60909 10256 20221 39520 40132 86200 333 20219 58013;EQDQ01  00002PRCP06
0167827950999992005020318004-07217-035883FM-12+0560SBKG V0201401N005112200019N0100001N1+03011+02291101041ADDAA106000091GF105991021021008001001011MA1999999094981MD1999999+0171REMSYN070AAXX  03184 82795 32597 51410 10301 20229 39498 40104 82201 333 58017;EQDQ01  00002PRCP06
0185827950999992005020400004-07217-035883FM-12+0560SBKG V0200901N003610450019N0010001N1+02421+02251101301ADDAA106000091GF106991031021008001051001MA1999999095201MD1999999+0121REMSYN088AAXX  04004 82795 32594 60907 10242 20225 39520 40130 83250 333 10308 29082 55093 58012;EQDQ01  00002PRCP06
0173827950999992005020412004-07217-035883FM-12+0560SBKG V0201401N002610075019N0100001N1+02561+02211101411ADDAA106000091GF106991061021008001001001MA1999999095301MD1999999+0101REMSYN076AAXX  04124 82795 32597 61405 10256 20221 39530 40141 86200 333 20217 58010;EQDQ01  00002PRCP06
0167827950999992005020418004-07217-035883FM-12+0560SBKG V0201401N005712200019N0100001N1+03121+02361101061ADDAA106000091GF105991031021008001001011MA1999999095011MD1999999+0031REMSYN070AAXX  04184 82795 32597 51411 10312 20236 39501 40106 83201 333 58003;EQDQ01  00002PRCP06
0173827950999992005020512004-07217-035883FM-12+0560SBKG V0200901N003611050019N0100001N1+02571+02211101541ADDAA106000091GF106991031021008001001021MA1999999095421MD1999999+0121REMSYN076AAXX  05124 82795 32597 60907 10257 20221 39542 40154 83202 333 20210 58012;EQDQ01  00002PRCP06
0167827950999992005020518004-07217-035883FM-12+0560SBKG V0201401N002112200019N0100001N1+03201+02121101061ADDAA106000091GF104991031021008001001021MA1999999095011MD1999999+0001REMSYN070AAXX  05184 82795 32597 41404 10320 20212 39501 40106 83202 333 58000;EQDQ01  00002PRCP06
0185827950999992005020600004-07220-035880FM-12+0548SBKG V0201401N005111050019N0010001N1+02471+02281101381ADDAA106000091GF106991041021008001001021MA1999999095271MD1999999-0091REMSYN088AAXX  06004 82795 32594 61410 10247 20228 39527 40138 84202 333 10330 29078 55093 59009;EQDQ01  00002PRCP06
0173827950999992005020612004-07220-035880FM-12+0548SBKG V0201401N003610075019N0100001N1+02661+02071101441ADDAA106000091GF105991051021008001001001MA1999999095341MD1999999-0081REMSYN076AAXX  06124 82795 32597 51407 10266 20207 39534 40144 85200 333 20213 59008;EQDQ01  00002PRCP06
0167827950999992005020618004-07220-035880FM-12+0548SBKG V0201401N002612200019N0100001N1+03221+02051100901ADDAA106000091GF103991031021008001001001MA1999999094871MD1999999-0141REMSYN070AAXX  06184 82795 32597 31405 10322 20205 39487 40090 83200 333 59014;EQDQ01  00002PRCP06
0179827950999992005020700004-07217-035883FM-12+0560SBKG V0200901N004112200019N0010001N1+02391+01971101221ADDAA106000091GF100991001001999999001001MA1999999095121MD1999999-0151REMSYN082AAXX  07004 82795 32994 00908 10239 20197 39512 40122 333 10329 29068 55103 59015;EQDQ01  00002PRCP06
0173827950999992005020712004-07217-035883FM-12+0560SBKG V0201401N003110075019N0100001N1+02601+02061101221ADDAA106000091GF105991051011008001001001MA1999999095121MD1999999-0121REMSYN076AAXX  07124 82795 32597 51406 10260 20206 39512 40122 85100 333 20203 59012;EQDQ01  00002PRCP06
0167827950999992005020718004-07217-035883FM-12+0560SBKG V0201401N003112200019N0100001N1+03121+02111101021ADDAA106000091GF103991031021008001001001MA1999999094941MD1999999+0071REMSYN070AAXX  07184 82795 32597 31406 10312 20211 39494 40102 83200 333 58007;EQDQ01  00002PRCP06
0185827950999992005020800004-07217-035883FM-12+0560SBKG V0200901N003612200019N0010001N1+02421+02111101251ADDAA106000091GF101991011011008001001001MA1999999095151MD1999999+0031REMSYN088AAXX  08004 82795 32594 10907 10242 20211 39515 40125 81100 333 10317 29073 55112 58003;EQDQ01  00002PRCP06
0173827950999992005020812004-07217-035883FM-12+0560SBKG V0201401N003610075019N0100001N1+02531+02081101261ADDAA106000091GF105991051021008001001001MA1999999095141MD1999999+0021REMSYN076AAXX  08124 82795 32597 51407 10253 20208 39514 40126 85200 333 20210 58002;EQDQ01  00002PRCP06
0167827950999992005020818004-07217-035883FM-12+0560SBKG V0201401N003110450019N0100001N1+02581+02271101071ADDAA106000091GF106991041041008001081001MA1999999095001MD1999999+0061REMSYN070AAXX  08184 82795 32597 61406 10258 20227 39500 40107 84480 333 58006;EQDQ01  00002PRCP06
0185827950999992005020900004-07217-035883FM-12+0560SBKG V0200901N002110075019N0010001N1+02331+02221101271ADDAA106000091GF106991061021008001001001MA1999999095141MD1999999-0011REMSYN088AAXX  09004 82795 32594 60904 10233 20222 39514 40127 86200 333 10272 29086 55034 59001;EQDQ01  00002PRCP06
0173827950999992005020912004-07217-035883FM-12+0560SBKG V0201401N002110075019N0100001N1+02481+02091101211ADDAA106000091GF106991061061008001001001MA1999999095091MD1999999-0051REMSYN076AAXX  09124 82795 32597 61404 10248 20209 39509 40121 86600 333 20210 59005;EQDQ01  00002PRCP06
0167827950999992005020918004-07217-035883FM-12+0560SBKG V0201401N004610450019N0100001N1+02991+02151100931ADDAA106000091GF105991021081008001021001MA1999999094861MD1999999-0081REMSYN070AAXX  09184 82795 32597 51409 10299 20215 39486 40093 82820 333 59008;EQDQ01  00002PRCP06
0185827950999992005021000004-07217-035883FM-12+0560SBKG V0200901N003612200019N0010001N1+02401+02131101071ADDAA106000091GF104991021021008001041001MA1999999094971MD1999999-0171REMSYN088AAXX  10004 82795 32594 40907 10240 20213 39497 40107 82240 333 10309 29078 55086 59017;EQDQ01  00002PRCP06
0173827950999992005021012004-07217-035883FM-12+0560SBKG V0200901N002610075019N0100001N1+02521+02171101111ADDAA106000091GF106991061061008001001001MA1999999095011MD1999999-0081REMSYN076AAXX  10124 82795 32597 60905 10252 20217 39501 40111 86600 333 20211 59008;EQDQ01  00002PRCP06
0167827950999992005021018004-07217-035883FM-12+0560SBKG V0200501N003610120019N0100001N1+03011+02221100761ADDAA106000091GF105991051081008001001001MA1999999094711MD1999999-0151REMSYN070AAXX  10184 82795 32597 50507 10301 20222 39471 40076 85800 333 59015;EQDQ01  00002PRCP06
0185827950999992005021100004-07217-035883FM-12+0560SBKG V0200901N003610450019N0010001N1+02441+02171101051ADDAA106000091GF106991021021008001051001MA1999999094951MD1999999-0021REMSYN088AAXX  11004 82795 32594 60907 10244 20217 39495 40105 82250 333 10308 29078 55076 59002;EQDQ01  00002PRCP06
0165827950999992005021118004-07217-035883FM-12+0560SBKG V0200501N002610075019N0100001N1+02591+02171100971ADDAY101061AY221061GF107991051051008001021001MA1999999097861MD1999999+0151MW1031REMSYN076AAXX  11184 82795 21597 70505 10259 20217 39786 40097 70302 85520 333 58015;
0185827950999992005021200004-07217-035883FM-12+0560SBKG V0200901N001510075019N0010001N1+02331+02011101291ADDAA106000091GF108991081071008001999999MA1999999095151MD1999999+0201REMSYN088AAXX  12004 82795 32594 80903 10233 20201 39515 40129 887// 333 10263 29083 55009 58020;EQDQ01  00002PRCP06
0177827950999992005021212004-07217-035883FM-12+0560SBKG V0200901N002610450019N0100001N1+02561+02061101251ADDAY161061AY221061GF106991031021008001041001MA1999999095131MD1999999+0051MW1021REMSYN088AAXX  12124 82795 21597 60905 10256 20206 39513 40125 70262 83240 333 20206 58005 60034;
0167827950999992005021218004-07217-035883FM-12+0560SBKG V0200901N003610450019N0100001N1+03041+02231100961ADDAA106000091GF106991041031008001061001MA1999999094891MD1999999+0031REMSYN070AAXX  12184 82795 32597 60907 10304 20223 39489 40096 84360 333 58003;EQDQ01  00002PRCP06
0185827950999992005021300004-07220-035880FM-12+0548SBKG V0200901N001510075019N0010001N1+02511+02091101111ADDAA106000091GF106991061021008001001001MA1999999095011MD1999999-0141REMSYN088AAXX  13004 82795 32594 60903 10251 20209 39501 40111 86200 333 10315 29072 55073 59014;EQDQ01  00002PRCP06
0173827950999992005021312004-07220-035880FM-12+0548SBKG V0200901N003610075019N0100001N1+02561+02151101391ADDAA106000091GF107991071071008001001001MA1999999095281MD1999999+0151REMSYN076AAXX  13124 82795 32597 70907 10256 20215 39528 40139 87700 333 20216 58015;EQDQ01  00002PRCP06
0167827950999992005021318004-07220-035880FM-12+0548SBKG V0200901N004112200019N0100001N1+03211+02121100941ADDAA106000091GF106991021021008001001061MA1999999094911MD1999999+0021REMSYN070AAXX  13184 82795 32597 60908 10321 20212 39491 40094 82206 333 58002;EQDQ01  00002PRCP06
0185827950999992005021400004-07217-035883FM-12+0560SBKG V0200901N004110450019N0010001N1+02511+02331101271ADDAA106000091GF106991031021008001031001MA1999999095181MD1999999+0171REMSYN088AAXX  14004 82795 32594 60908 10251 20233 39518 40127 83230 333 10322 29077 55074 58017;EQDQ01  00002PRCP06
0173827950999992005021412004-07217-035883FM-12+0560SBKG V0200901N002610075019N0100001N1+02561+02111101211ADDAA106000091GF107991071071008001001001MA1999999095131MD1999999-0151REMSYN076AAXX  14124 82795 32597 70905 10256 20211 39513 40121 87700 333 20213 59015;EQDQ01  00002PRCP06
0167827950999992005021418004-07217-035883FM-12+0560SBKG V0200501N003610075019N0100001N1+03081+02291100861ADDAA106000091GF107991051061008001041001MA1999999094771MD1999999-0141REMSYN070AAXX  14184 82795 32597 70507 10308 20229 39477 40086 85640 333 59014;EQDQ01  00002PRCP06
0185827950999992005021500004-07217-035883FM-12+0560SBKG V0200901N003610450019N0010001N1+02521+02311101111ADDAA106000091GF106991031021008001031021MA1999999095031MD1999999-0151REMSYN088AAXX  15004 82795 32594 60907 10252 20231 39503 40111 83232 333 10317 29079 55060 59015;EQDQ01  00002PRCP06
0177827950999992005021512004-07217-035883FM-12+0560SBKG V0200901N003110450019N0100001N1+02611+02181101051ADDAY161061AY221061GF106991041021008001061001MA1999999094971MD1999999-0161MW1021REMSYN088AAXX  15124 82795 21597 60906 10261 20218 39497 40105 70262 84260 333 20213 59016 69914;
0195827950999992005021518004-07217-035883FM-12+0560SBKG V0200501N005710450019N0100001N1+02921+02341100641ADDAA106000091AY121061AY221061GF106991041081008001021001MA1999999094591MD1999999-0181MW1151REMSYN076AAXX  15184 82795 31597 60511 10292 20234 39459 40064 71522 84820 333 59018;EQDQ01  00002PRCP06
0189827950999992005021600004-07217-035883FM-12+0560SBKG V0200901N003110450019N0010001N1+02411+02211101071ADDAY161061AY221061GF107991021041008001071001MA1999999094981MD1999999-0051MW1011REMSYN100AAXX  16004 82795 21594 70906 10241 20221 39498 40107 70162 82470 333 10306 29082 55079 59005 60041;
0177827950999992005021612004-07217-035883FM-12+0560SBKG V0200901N004610075019N0100001N1+02641+02161101181ADDAY161061AY221061GF106991061021008001001001MA1999999095081MD1999999+0111MW1021REMSYN088AAXX  16124 82795 21597 60909 10264 20216 39508 40118 70262 86200 333 20213 58011 60044;
0171827950999992005021618004-07217-035883FM-12+0560SBKG V0200501N004610450019N0100001N1+02641+02271100861ADDAY151061AY221061GF106991031031008001041001MA1999999094751MD1999999+0161MW1021REMSYN082AAXX  16184 82795 21597 60509 10264 20227 39475 40086 70252 83340 333 58016 69931;
0177827950999992005021712004-07217-035883FM-12+0560SBKG V0201401N004110075019N0100001N1+02521+02291101361ADDAY161061AY221061GF108991081071008001999999MA1999999095231MD1999999+0151MW1021REMSYN088AAXX  17124 82795 21597 81408 10252 20229 39523 40136 70262 887// 333 20213 58015 60024;
0171827950999992005021718004-07217-035883FM-12+0560SBKG V0201401N005110075019N0000001N1+02891+02231101011ADDAY161061AY221061GF105991051041008001001001MA1999999094931MD1999999+0181MW1021REMSYN082AAXX  17184 82795 21590 51410 10289 20223 39493 40101 70262 85400 333 58018 60051;
0185827950999992005021800004-07217-035883FM-12+0560SBKG V0201401N004110120019N0010001N1+02391+02231101281ADDAA106000091GF107991071081008001001001MA1999999095161MD1999999+0101REMSYN088AAXX  18004 82795 32594 71408 10239 20223 39516 40128 87800 333 10299 29084 55062 58010;EQDQ01  00002PRCP06
0149827950999992005021812004-07217-035883FM-12+0560SBKG V0201401N004110075019N0100001N1+02631+02161101351ADDGF106991061061008001001001MA1999999095241MD1999999+0011REMSYN082AAXX  18124 82795 22597 61408 10263 20216 39524 40135 86600 333 20210 58001 60054;
0167827950999992005021818004-07217-035883FM-12+0560SBKG V0201401N004612200019N0100001N1+03081+02071101061ADDAA106000091GF103991031021008001001001MA1999999095001MD1999999+0071REMSYN070AAXX  18184 82795 32597 31409 10308 20207 39500 40106 83200 333 58007;EQDQ01  00002PRCP06
0185827950999992005021900004-07217-035883FM-12+0560SBKG V0201401N003110075019N0010001N1+02501+02231101281ADDAA106000091GF107991061021008001041001MA1999999095191MD1999999+0031REMSYN088AAXX  19004 82795 32594 71406 10250 20223 39519 40128 86240 333 10311 29075 55101 58003;EQDQ01  00002PRCP06
0177827950999992005021912004-07217-035883FM-12+0560SBKG V0201401N003110075019N0100001N1+02631+02021101451ADDAY161061AY221061GF105991051051008001001001MA1999999095331MD1999999+0091MW1021REMSYN088AAXX  19124 82795 21597 51406 10263 20202 39533 40145 70262 85500 333 20211 58009 60024;
0167827950999992005021918004-07217-035883FM-12+0560SBKG V0201401N003612200019N0100001N1+03051+02281101011ADDAA106000091GF103991031031008001001001MA1999999094432MD1999999-0031REMSYN070AAXX  19184 82795 32597 31407 10305 20228 39443 40101 83300 333 59003;EQDQ01  00002PRCP06
0185827950999992005022000004-07220-035880FM-12+0548SBKG V0201401N003112200019N0010001N1+02421+02211101421ADDAA106000091GF102991021051008001001001MA1999999095181MD1999999-0011REMSYN088AAXX  20004 82795 32594 21406 10242 20221 39518 40142 82500 333 10311 29078 55094 59001;EQDQ01  00002PRCP06
0173827950999992005022012004-07220-035880FM-12+0548SBKG V0201401N004110075019N0100001N1+02601+02141101291ADDAA106000091GF105991051031008001001001MA1999999095191MD1999999-0141REMSYN076AAXX  20124 82795 32597 51408 10260 20214 39519 40129 85300 333 20214 59014;EQDQ01  00002PRCP06
0167827950999992005022018004-07220-035880FM-12+0548SBKG V0201401N002612200019N0100001N1+03031+02261100831ADDAA106000091GF104991041021008001001001MA1999999094781MD1999999-0151REMSYN070AAXX  20184 82795 32597 41405 10303 20226 39478 40083 84200 333 59015;EQDQ01  00002PRCP06
0179827950999992005022100004-07217-035883FM-12+0560SBKG V0201401N003612200019N0010001N1+02281+02111101101ADDAA106000091GF100991001001999999001001MA1999999095001MD1999999+0181REMSYN082AAXX  21004 82795 32594 01407 10228 20211 39500 40110 333 10311 29079 55101 58018;EQDQ01  00002PRCP06
0173827950999992005022112004-07217-035883FM-12+0560SBKG V0200901N003610075019N0100001N1+02551+02041101201ADDAA106000091GF105991051011008001001001MA1999999095081MD1999999-0111REMSYN076AAXX  21124 82795 32597 50907 10255 20204 39508 40120 85100 333 20206 59011;EQDQ01  00002PRCP06
0185827950999992005022200004-07217-035883FM-12+0560SBKG V0200901N003612200019N0010001N1+02431+02091101081ADDAA106000091GF102991001001999999001011MA1999999094991MD1999999-0011REMSYN088AAXX  22004 82795 32994 20907 10243 20209 39499 40108 80001 333 10318 29074 55105 59001;EQDQ01  00002PRCP06
0173827950999992005022212004-07217-035883FM-12+0560SBKG V0200901N003110075019N0100001N1+02601+02191101241ADDAA106000091GF105991051021008001001001MA1999999095141MD1999999+0061REMSYN076AAXX  22124 82795 32597 50906 10260 20219 39514 40124 85200 333 20208 58006;EQDQ01  00002PRCP06
0167827950999992005022218004-07217-035883FM-12+0560SBKG V0201401N003611050019N0100001N1+03131+02191100951ADDAA106000091GF105991011031008001001021MA1999999094891MD1999999-0151REMSYN070AAXX  22184 82795 32597 51407 10313 20219 39489 40095 81302 333 59015;EQDQ01  00002PRCP06
0185827950999992005022300004-07217-035883FM-12+0560SBKG V0200901N003611050019N0010001N1+02501+02311101301ADDAA106000091GF106991041021008001001021MA1999999095211MD1999999+0221REMSYN088AAXX  23004 82795 32594 60907 10250 20231 39521 40130 84202 333 10320 29078 55091 58022;EQDQ01  00002PRCP06
0173827950999992005022312004-07217-035883FM-12+0560SBKG V0201401N005110075019N0100001N1+02721+02301101431ADDAA106000091GF106991061021008001001001MA1999999095341MD1999999+0201REMSYN076AAXX  23124 82795 32597 61410 10272 20230 39534 40143 86200 333 20224 58020;EQDQ01  00002PRCP06
0167827950999992005022318004-07217-035883FM-12+0560SBKG V0201401N005112200019N0100001N1+03051+02261101061ADDAA106000091GF106991021031008001001041MA1999999095011MD1999999+0031REMSYN070AAXX  23184 82795 32597 61410 10305 20226 39501 40106 82304 333 58003;EQDQ01  00002PRCP06
0185827950999992005022400004-07217-035883FM-12+0560SBKG V0201401N003610075019N0010001N1+02511+02341101421ADDAA106000091GF106991061021008001001001MA1999999095331MD1999999+0121REMSYN088AAXX  24004 82795 32594 61407 10251 20234 39533 40142 86200 333 10317 29080 55086 58012;EQDQ01  00002PRCP06
0173827950999992005022412004-07217-035883FM-12+0560SBKG V0201401N004610075019N0100001N1+02631+02231101681ADDAA106000091GF106991061061008001001001MA1999999095441MD1999999+0101REMSYN076AAXX  24124 82795 32597 61409 10263 20223 39544 40168 86600 333 20220 58010;EQDQ01  00002PRCP06
0173827950999992005022512004-07217-035883FM-12+0560SBKG V0201401N005710075019N0100001N1+02661+02091101421ADDAA106000091GF106991061021008001001001MA1999999095321MD1999999-0141REMSYN076AAXX  25124 82795 32597 61411 10266 20209 39532 40142 86200 333 20220 59014;EQDQ01  00002PRCP06
0167827950999992005022518004-07217-035883FM-12+0560SBKG V0201401N004111050019N0100001N1+03041+02151101061ADDAA106000091GF105991031021008001001091MA1999999095011MD1999999-0071REMSYN070AAXX  25184 82795 32597 51408 10304 20215 39501 40106 83209 333 59007;EQDQ01  00002PRCP06
0185827950999992005022600004-07217-035883FM-12+0560SBKG V0201401N003619999999N0010001N1+02511+02331101261ADDAA106000091GF107991001001999999001061MA1999999095171MD1999999-0141REMSYN088AAXX  26004 82795 32994 71407 10251 20233 39517 40126 80006 333 10319 29077 55089 59014;EQDQ01  00002PRCP06
0173827950999992005022612004-07217-035883FM-12+0560SBKG V0201401N004110075019N0100001N1+02671+02221101311ADDAA106000091GF106991061021008001001001MA1999999095231MD1999999-0091REMSYN076AAXX  26124 82795 32597 61408 10267 20222 39523 40131 86200 333 20223 59009;EQDQ01  00002PRCP06
0167827950999992005022618004-07217-035883FM-12+0560SBKG V0201401N004610075019N0100001N1+03131+02271101111ADDAA106000091GF106991061021008001001001MA1999999095051MD1999999+0041REMSYN070AAXX  26184 82795 32597 61409 10313 20227 39505 40111 86200 333 58004;EQDQ01  00002PRCP06
0185827950999992005022700004-07220-035880FM-12+0548SBKG V0201401N003610075019N0010001N1+02411+02211101371ADDAA106000091GF105991051021008001001001MA1999999095271MD1999999+0101REMSYN088AAXX  27004 82795 32594 51407 10241 20221 39527 40137 85200 333 10322 29079 55091 58010;EQDQ01  00002PRCP06
0173827950999992005022712004-07220-035880FM-12+0548SBKG V0201401N003610075019N0100001N1+02601+02191101371ADDAA106000091GF106991061061008001001001MA1999999095261MD1999999+0031REMSYN076AAXX  27124 82795 32597 61407 10260 20219 39526 40137 86600 333 20221 58003;EQDQ01  00002PRCP06
0186827950999992005022812004-07217-035883FM-12+0560SBKG V0201401N004610075019N0100001N1+02671+02181101461ADDAA106000091GF105991051021008001001001KA1240N+02181MA1999999095361MD1999999+0101REMSYN076AAXX  28124 82795 32597 51409 10267 20218 39536 40146 85200 333 20218 58010;EQDQ01  00002PRCP06
0167827950999992005022818004-07217-035883FM-12+0560SBKG V0201401N005112200019N0100001N1+03121+02251101081ADDAA106000091GF104991041021008001001001MA1999999095041MD1999999+0101REMSYN070AAXX  28184 82795 32597 41410 10312 20225 39504 40108 84200 333 58010;EQDQ01  00002PRCP06
0173827950999992005030112004-07217-035883FM-12+0560SBKG V0200901N004610075019N0100001N1+02641+02181101441ADDAA106000091GF105991051021008001001001MA1999999095341MD1999999-0021REMSYN076AAXX  01124 82795 32597 50909 10264 20218 39534 40144 85200 333 20213 59002;EQDQ01  00002PRCP06
0167827950999992005030118004-07217-035883FM-12+0560SBKG V0201401N005112200019N0100001N1+03241+02311100981ADDAA106000091GF102991021011008001001001MA1999999094941MD1999999-0101REMSYN070AAXX  01184 82795 32597 21410 10324 20231 39494 40098 82100 333 59010;EQDQ01  00002PRCP06
0185827950999992005030200004-07217-035883FM-12+0560SBKG V0200901N004612200019N0010001N1+02481+02231101281ADDAA106000091GF101991011011008001001001MA1999999095131MD1999999-0071REMSYN088AAXX  02004 82795 32594 10909 10248 20223 39513 40128 81100 333 10331 29076 55103 59007;EQDQ01  00002PRCP06
0173827950999992005030212004-07217-035883FM-12+0560SBKG V0201401N004610075019N0100001N1+02641+02181101401ADDAA106000091GF105991051021008001001001MA1999999095301MD1999999-0041REMSYN076AAXX  02124 82795 32597 51409 10264 20218 39530 40140 85200 333 20216 59004;EQDQ01  00002PRCP06
0185827950999992005030300004-07217-035883FM-12+0560SBKG V0200901N003112200019N0010001N1+02531+02231101291ADDAA106000091GF102991021011008001001001MA1999999095271MD1999999+0071REMSYN088AAXX  03004 82795 32594 20906 10253 20223 39527 40129 82100 333 10333 29070 55091 58007;EQDQ01  00002PRCP06
0173827950999992005030312004-07217-035883FM-12+0560SBKG V0201401N004110075019N0100001N1+02661+02151101381ADDAA106000091GF106991061061008001001001MA1999999095301MD1999999+0001REMSYN076AAXX  03124 82795 32597 61408 10266 20215 39530 40138 86600 333 20223 58000;EQDQ01  00002PRCP06
0185827950999992005030400004-07217-035883FM-12+0560SBKG V0200901N004612200019N0010001N1+02431+02111101411ADDAA106000091GF102991021011008001001001MA1999999095311MD1999999+0111REMSYN088AAXX  04004 82795 32594 20909 10243 20211 39531 40141 82100 333 10330 29076 55096 58011;EQDQ01  00002PRCP06
0173827950999992005030412004-07217-035883FM-12+0560SBKG V0200901N005110075019N0100001N1+02621+02141101581ADDAA106000091GF105991051021008001001001MA1999999095461MD1999999+0161REMSYN076AAXX  04124 82795 32597 50910 10262 20214 39546 40158 85200 333 20216 58016;EQDQ01  00002PRCP06
0167827950999992005030418004-07217-035883FM-12+0560SBKG V0200501N005112200019N0100001N1+02961+02381101201ADDAA106000091GF103991031021008001001001MA1999999095131MD1999999-0021REMSYN070AAXX  04184 82795 32597 30510 10296 20238 39513 40120 83200 333 59002;EQDQ01  00002PRCP06
0185827950999992005030500004-07217-035883FM-12+0560SBKG V0200901N003612200019N0010001N1+02431+02231101531ADDAA106000091GF103991031021008001001001MA1999999095401MD1999999+0101REMSYN088AAXX  05004 82795 32594 30907 10243 20223 39540 40153 83200 333 10318 29081 55095 58010;EQDQ01  00002PRCP06
0177827950999992005030512004-07217-035883FM-12+0560SBKG V0200901N004610075019N0100001N1+02551+02311101621ADDAY161061AY221061GF106991061021008001001001MA1999999095501MD1999999+0041MW1021REMSYN088AAXX  05124 82795 21597 60909 10255 20231 39550 40162 70262 86200 333 20216 58004 69974;
0167827950999992005030518004-07217-035883FM-12+0560SBKG V0200901N004110075019N0100001N1+03111+02281101201ADDAA106000091GF105991051021008001001001MA1999999095141MD1999999+0011REMSYN070AAXX  05184 82795 32597 50908 10311 20228 39514 40120 85200 333 58001;EQDQ01  00002PRCP06
0185827950999992005030600004-07220-035880FM-12+0548SBKG V0200901N004612200019N0010001N1+02451+02171101491ADDAA106000091GF102991021021008001001001MA1999999095371MD1999999-0041REMSYN088AAXX  06004 82795 32594 20909 10245 20217 39537 40149 82200 333 10317 29079 55086 59004;EQDQ01  00002PRCP06
0173827950999992005030612004-07220-035880FM-12+0548SBKG V0200901N004610075019N0100001N1+02561+02271101421ADDAA106000091GF105991051021008001001001MA1999999095311MD1999999-0191REMSYN076AAXX  06124 82795 32597 50909 10256 20227 39531 40142 85200 333 20208 59019;EQDQ01  00002PRCP06
0167827950999992005030618004-07220-035880FM-12+0548SBKG V0200901N004612200019N0100001N1+03171+02011100981ADDAA106000091GF103991031021008001001001MA1999999094931MD1999999-0211REMSYN070AAXX  06184 82795 32597 30909 10317 20201 39493 40098 83200 333 59021;EQDQ01  00002PRCP06
0185827950999992005030700004-07217-035883FM-12+0560SBKG V0200901N004610075019N0010001N1+02441+02211101381ADDAA106000091GF105991051021008001001001MA1999999095271MD1999999-0101REMSYN088AAXX  07004 82795 32594 50909 10244 20221 39527 40138 85200 333 10325 29077 55104 59010;EQDQ01  00002PRCP06
0173827950999992005030712004-07217-035883FM-12+0560SBKG V0200901N003610075019N0100001N1+02561+02151101411ADDAA106000091GF106991061021008001001001MA1999999095301MD1999999-0011REMSYN076AAXX  07124 82795 32597 60907 10256 20215 39530 40141 86200 333 20220 59001;EQDQ01  00002PRCP06
0185827950999992005030800004-07217-035883FM-12+0560SBKG V0200901N003612200019N0010001N1+02431+02211101381ADDAA106000091GF102991021021008001001001MA1999999095271MD1999999+0001REMSYN088AAXX  08004 82795 32594 20907 10243 20221 39527 40138 82200 333 10325 29079 55091 58000;EQDQ01  00002PRCP06
0167827950999992005030818004-07217-035883FM-12+0560SBKG V0200901N004610450019N0100001N1+03201+02331100931ADDAA106000091GF108991041041008001081041MA1999999094871MD1999999-0051REMSYN070AAXX  08184 82795 32597 80909 10320 20233 39487 40093 84484 333 59005;EQDQ01  00002PRCP06
0185827950999992005030900004-07217-035883FM-12+0560SBKG V0201401N005112200019N0010001N1+02331+02301101401ADDAA106000091GF103991031061008001001001MA1999999095281MD1999999+0011REMSYN088AAXX  09004 82795 32594 31410 10233 20230 39528 40140 83600 333 10323 29084 55062 58001;EQDQ01  00002PRCP06
0173827950999992005030912004-07217-035883FM-12+0560SBKG V0201401N002612200019N0100001N1+02601+02141101401ADDAA106000091GF105991031021008001001011MA1999999095281MD1999999-0081REMSYN076AAXX  09124 82795 32597 51405 10260 20214 39528 40140 83201 333 20204 59008;EQDQ01  00002PRCP06
0185827950999992005031000004-07217-035883FM-12+0560SBKG V0201401N006212200019N0010001N1+02331+02241101361ADDAA106000091GF102991021021008001001001MA1999999095241MD1999999-0041REMSYN088AAXX  10004 82795 32594 21412 10233 20224 39524 40136 82200 333 10340 29080 55105 59004;EQDQ01  00002PRCP06
0173827950999992005031012004-07217-035883FM-12+0560SBKG V0201401N002612200019N0100001N1+02681+02311101581ADDAA106000091GF105991021021008001001011MA1999999095371MD1999999+0091REMSYN076AAXX  10124 82795 32597 51405 10268 20231 39537 40158 82201 333 20216 58009;EQDQ01  00002PRCP06
0167827950999992005031018004-07217-035883FM-12+0560SBKG V0200501N004610120019N0100001N1+03141+02551101041ADDAA106000091GF107991051081008001021061MA1999999094991MD1999999+0121REMSYN070AAXX  10184 82795 32597 70509 10314 20255 39499 40104 85826 333 58012;EQDQ01  00002PRCP06
0185827950999992005031100004-07217-035883FM-12+0560SBKG V0201401N002610042019N0010001N1+02301+02281101431ADDAA106000091GF105991051051004501001001MA1999999095321MD1999999+0081REMSYN088AAXX  11004 82795 32494 51405 10230 20228 39532 40143 85500 333 10321 29085 55080 58008;EQDQ01  00002PRCP06
0173827950999992005031112004-07217-035883FM-12+0560SBKG V0201401N003111050019N0100001N1+02831+02201101471ADDAA106000091GF106991011041008001001091MA1999999096351MD1999999-0021REMSYN076AAXX  11124 82795 32597 61406 10283 20220 39635 40147 81409 333 20219 59002;EQDQ01  00002PRCP06
0185827950999992005031200004-07217-035883FM-12+0560SBKG V0201401N004110075019N0010001N1+02411+02031101291ADDAA106000091GF105991051061008001001001MA1999999095251MD1999999-0101REMSYN088AAXX  12004 82795 32594 51408 10241 20203 39525 40129 85600 333 10328 29070 55094 59010;EQDQ01  00002PRCP06
0173827950999992005031212004-07217-035883FM-12+0560SBKG V0201401N003612200019N0100001N1+02721+02121101491ADDAA106000091GF105991011021008001001011MA1999999095311MD1999999-0041REMSYN076AAXX  12124 82795 32597 51407 10272 20212 39531 40149 81201 333 20224 59004;EQDQ01  00002PRCP06
0167827950999992005031218004-07217-035883FM-12+0560SBKG V0200501N004112200019N0100001N1+03211+01961100901ADDAA106000091GF103991031021008001001001MA1999999094881MD1999999-0111REMSYN070AAXX  12184 82795 32597 30508 10321 20196 39488 40090 83200 333 59011;EQDQ01  00002PRCP06
0185827950999992005031300004-07220-035880FM-12+0548SBKG V0200901N003612200019N0010001N1+02331+02051101291ADDAA106000091GF102991021011008001001001MA1999999095191MD1999999-0061REMSYN088AAXX  13004 82795 32594 20907 10233 20205 39519 40129 82100 333 10331 29072 55094 59006;EQDQ01  00002PRCP06
0173827950999992005031312004-07220-035880FM-12+0548SBKG V0201401N005111050019N0100001N1+02671+02071101381ADDAA106000091GF105991021041008001001031MA1999999095271MD1999999-0041REMSYN076AAXX  13124 82795 32597 51410 10267 20207 39527 40138 82403 333 20213 59004;EQDQ01  00002PRCP06
0167827950999992005031318004-07220-035880FM-12+0548SBKG V0201401N003610450019N0100001N1+03111+02091100861ADDAA106000091GF105991031041008001031001MA1999999094821MD1999999-0061REMSYN070AAXX  13184 82795 32597 51407 10311 20209 39482 40086 83430 333 59006;EQDQ01  00002PRCP06
0185827950999992005031400004-07220-035880FM-12+0548SBKG V0201401N005110075019N0010001N1+02421+02211101201ADDAA106000091GF105991051021008001001001MA1999999095121MD1999999-0071REMSYN088AAXX  14004 82795 32594 51410 10242 20221 39512 40120 85200 333 10331 29075 55097 59007;EQDQ01  00002PRCP06
0173827950999992005031412004-07220-035880FM-12+0548SBKG V0201401N002612200019N0100001N1+02541+02041101341ADDAA106000091GF104991041031008001001001MA1999999095221MD1999999-0051REMSYN076AAXX  14124 82795 32597 41405 10254 20204 39522 40134 84300 333 20214 59005;EQDQ01  00002PRCP06
0167827950999992005031418004-07217-035883FM-12+0560SBKG V0200901N005710075019N0100001N1+03151+01861100891ADDAA106000091GF106991051021008001021001MA1999999094821MD1999999+0001REMSYN070AAXX  14184 82795 32597 60911 10315 20186 39482 40089 85220 333 58000;EQDQ01  00002PRCP06
0185827950999992005031500004-07217-035883FM-12+0560SBKG V0200901N004612200019N0010001N1+02371+01971101331ADDAA106000091GF102991021011008001001001MA1999999095191MD1999999-0091REMSYN088AAXX  15004 82795 32594 20909 10237 20197 39519 40133 82100 333 10327 29069 55092 59009;EQDQ01  00002PRCP06
0173827950999992005031512004-07217-035883FM-12+0560SBKG V0200901N003611050019N0100001N1+02631+01931101261ADDAA106000091GF105991021031008001001021MA1999999095161MD1999999-0051REMSYN076AAXX  15124 82795 32597 50907 10263 20193 39516 40126 82302 333 20216 59005;EQDQ01  00002PRCP06
0167827950999992005031518004-07217-035883FM-12+0560SBKG V0201401N004610450019N0100001N1+03181+01911100851ADDAA106000091GF107991041041008001061041MA1999999094821MD1999999+0001REMSYN070AAXX  15184 82795 32597 71409 10318 20191 39482 40085 84464 333 58000;EQDQ01  00002PRCP06
0185827950999992005031600004-07217-035883FM-12+0560SBKG V0200501N004112200019N0010001N1+02441+01921101301ADDAA106000091GF101991011011008001001001MA1999999095201MD1999999+0041REMSYN088AAXX  16004 82795 32594 10508 10244 20192 39520 40130 81100 333 10319 29065 55032 58004;EQDQ01  00002PRCP06
0173827950999992005031612004-07217-035883FM-12+0560SBKG V0201401N004112200019N0100001N1+02671+01971101371ADDAA106000091GF105991011021008001001011MA1999999095271MD1999999+0111REMSYN076AAXX  16124 82795 32597 51408 10267 20197 39527 40137 81201 333 20215 58011;EQDQ01  00002PRCP06
0167827950999992005031618004-07217-035883FM-12+0560SBKG V0201401N002610450019N0100001N1+03201+01991100941ADDAA106000091GF107991031041008001021041MA1999999094911MD1999999+0091REMSYN070AAXX  16184 82795 32597 71405 10320 20199 39491 40094 83424 333 58009;EQDQ01  00002PRCP06
0185827950999992005031700004-07217-035883FM-12+0560SBKG V0201401N004612200019N0010001N1+02421+02111101311ADDAA106000091GF102991021011008001001001MA1999999095221MD1999999+0021REMSYN088AAXX  17004 82795 32594 21409 10242 20211 39522 40131 82100 333 10331 29070 55093 58002;EQDQ01  00002PRCP06
0173827950999992005031712004-07217-035883FM-12+0560SBKG V0201401N004111050019N0100001N1+02751+02191101371ADDAA106000091GF105991011031008001001021MA1999999095271MD1999999+0001REMSYN076AAXX  17124 82795 32597 51408 10275 20219 39527 40137 81302 333 20217 58000;EQDQ01  00002PRCP06
0167827950999992005031718004-07217-035883FM-12+0560SBKG V0201401N002110075019N0100001N1+03341+01951100781ADDAA106000091GF106991051021008001001041MA1999999094771MD1999999-0141REMSYN070AAXX  17184 82795 32597 61404 10334 20195 39477 40078 85204 333 59014;EQDQ01  00002PRCP06
0185827950999992005031800004-07217-035883FM-12+0560SBKG V0201401N003610075019N0010001N1+02431+02091101161ADDAA106000091GF106991061071008001001001MA1999999095101MD1999999-0101REMSYN088AAXX  18004 82795 32594 61407 10243 20209 39510 40116 86700 333 10338 29070 55101 59010;EQDQ01  00002PRCP06
0177827950999992005031812004-07217-035883FM-12+0560SBKG V0200901N003610450019N0100001N1+02431+02131101451ADDAY161061AY221061GF106991041081008001021001MA1999999095311MD1999999+0041MW1031REMSYN088AAXX  18124 82795 21597 60907 10243 20213 39531 40145 70362 84820 333 20215 58004 60024;
0213827950999992005031900004-07217-035883FM-12+0560SBKG V0200901N003110075019N0010001N1+02481+02301101311ADDAA106000091AY101061AY201061GF108991051071008001021999MA1999999095261MD1999999+0161MW1131REMSYN094AAXX  19004 82795 31594 80906 10248 20230 39526 40131 71300 8572/ 333 10313 29080 55079 58016;EQDQ01  00002PRCP06
0171827950999992005031918004-07217-035883FM-12+0560SBKG V0200501N004110450019N0100001N1+02751+02211101101ADDAY161061AY221061GF106991031031008001041001MA1999999095001MD1999999+0151MW1021REMSYN082AAXX  19184 82795 21597 60508 10275 20221 39500 40110 70262 83340 333 58015 60051;
0185827950999992005032000004-07220-035880FM-12+0548SBKG V0200501N002610075019N0010001N1+02391+02191101421ADDAA106000091GF105991051071008001001001MA1999999095311MD1999999+0051REMSYN088AAXX  20004 82795 32594 50505 10239 20219 39531 40142 85700 333 10281 29082 55058 58005;EQDQ01  00002PRCP06
0155827950999992005032012004-07220-035880FM-12+0548SBKG V0201401N003110075019N0200001N1+02641+02051101481ADDGF105991051041008001001001MA1999999095361MD1999999+0051REMSYN088AAXX  20124 82795 21598 51406 10264 20205 39536 40148 7//// 85400 333 20217 58005 60054;
0167827950999992005032018004-07220-035880FM-12+0548SBKG V0201401N002110450019N0100001N1+02911+02041101061ADDAA106000091GF105991031081008001021001MA1999999095361MD1999999-0021REMSYN070AAXX  20184 82795 32597 51404 10291 20204 39536 40106 83820 333 59002;EQDQ01  00002PRCP06
0185827950999992005032100004-07217-035883FM-12+0560SBKG V0201401N003110075019N0010001N1+02361+02131101371ADDAA106000091GF105991051061008001001001MA1999999095261MD1999999-0021REMSYN088AAXX  21004 82795 32594 51406 10236 20213 39526 40137 85600 333 10303 29076 55080 59002;EQDQ01  00002PRCP06
0173827950999992005032112004-07217-035883FM-12+0560SBKG V0201401N002610075019N0100001N1+02581+01991101481ADDAA106000091GF105991051021008001001001MA1999999095351MD1999999-0011REMSYN076AAXX  21124 82795 32597 51405 10258 20199 39535 40148 85200 333 20214 59001;EQDQ01  00002PRCP06
0167827950999992005032118004-07217-035883FM-12+0560SBKG V0200901N005110450019N0100001N1+02921+02061101041ADDAA106000091GF107991041041008001081001MA1999999094961MD1999999-0021REMSYN070AAXX  21184 82795 32597 70910 10292 20206 39496 40104 84480 333 59002;EQDQ01  00002PRCP06
0173827950999992005032212004-07217-035883FM-12+0560SBKG V0200901N003611050019N0100001N1+02681+01921101471ADDAA106000091GF106991021041008001001031MA1999999095351MD1999999+0001REMSYN076AAXX  22124 82795 32597 60907 10268 20192 39535 40147 82403 333 20213 58000;EQDQ01  00002PRCP06
0167827950999992005032218004-07217-035883FM-12+0560SBKG V0200901N002110450019N0100001N1+03201+01781101011ADDAA106000091GF107991031021008001021041MA1999999094971MD1999999+0011REMSYN070AAXX  22184 82795 32597 70904 10320 20178 39497 40101 83224 333 58001;EQDQ01  00002PRCP06
0185827950999992005032300004-07217-035883FM-12+0560SBKG V0201401N002610075019N0010001N1+02421+02071101431ADDAA106000091GF106991061061008001001001MA1999999095321MD1999999+0031REMSYN088AAXX  23004 82795 32594 61405 10242 20207 39532 40143 86600 333 10320 29067 55086 58003;EQDQ01  00002PRCP06
0173827950999992005032312004-07217-035883FM-12+0560SBKG V0201401N003612200019N0100001N1+02671+02001101521ADDAA106000091GF103991011021008001001011MA1999999095421MD1999999+0071REMSYN076AAXX  23124 82795 32597 31407 10267 20200 39542 40152 81201 333 20210 58007;EQDQ01  00002PRCP06
0213827950999992005032400004-07217-035883FM-12+0560SBKG V0201401N005110450019N0010001N1+02421+02211101451ADDAA106000091AY121061AY221061GF106991041031008001081001MA1999999095311MD1999999-0011MW1131REMSYN094AAXX  24004 82795 31594 61410 10242 20221 39531 40145 71322 84380 333 10331 29071 55107 59001;EQDQ01  00002PRCP06
0177827950999992005032412004-07217-035883FM-12+0560SBKG V0201401N003110075019N0100001N1+02621+02101101161ADDAY151061AY221061GF106991061041008001001001MA1999999095381MD1999999-0041MW1021REMSYN088AAXX  24124 82795 21597 61406 10262 20210 39538 40116 70252 86400 333 20215 59004 69934;
0167827950999992005032418004-07217-035883FM-12+0560SBKG V0200901N003611050019N0100001N1+03251+01821101051ADDAA106000091GF105991021041008001081041MA1999999095011MD1999999-0031REMSYN070AAXX  24184 82795 32597 50907 10325 20182 39501 40105 82484 333 59003;EQDQ01  00002PRCP06
0195827950999992005032518004-07217-035883FM-12+0560SBKG V0201401N005110075019N0000001N1+02991+02041100961ADDAA106000091AY121061AY221061GF107991051091008001021999MA1999999094891MD1999999-0121MW1151REMSYN076AAXX  25184 82795 31590 71410 10299 20204 39489 40096 71522 8592/ 333 59012;EQDQ01  00002PRCP06
0189827950999992005032600004-07217-035883FM-12+0560SBKG V0200501N002110075019N0010001N1+02271+02191101371ADDAY161061AY221061GF106991061071008001001001MA1999999095251MD1999999-0081MW1021REMSYN100AAXX  26004 82795 21594 60504 10227 20219 39525 40137 70262 86700 333 10326 29080 55066 59008 60031;
0177827950999992005032612004-07217-035883FM-12+0560SBKG V0200501N001510450019N0100001N1+02631+02141101401ADDAY161061AY221061GF106991031031008001021001MA1999999095261MD1999999-0121MW1031REMSYN088AAXX  26124 82795 21597 60503 10263 20214 39526 40140 70362 83320 333 20214 59012 60034;
0171827950999992005032618004-07217-035883FM-12+0560SBKG V0203601N002110075019N0040001N1+02411+02211101051ADDAY151061AY251061GF108991081071008001001001MA1999999094911MD1999999+0021MW1511REMSYN082AAXX  26184 82795 21596 83604 10241 20221 39491 40105 75155 88700 333 58002 69981;
0189827950999992005032700004-07220-035880FM-12+0548SBKG V0200501N001510075019N0010001N1+02251+02141101311ADDAY161061AY221061GF106991061071008001001001MA1999999095191MD1999999-0061MW1021REMSYN100AAXX  27004 82795 21594 60503 10225 20214 39519 40131 70262 86700 333 10281 29088 55029 59006 60011;
0177827950999992005032712004-07220-035880FM-12+0548SBKG V0201401N000511050019N0100001N1+02541+02231101331ADDAY161061AY221061GF106991021031008001041041MA1999999095201MD1999999-0061MW1031REMSYN088AAXX  27124 82795 21597 61401 10254 20223 39520 40133 70362 82344 333 20204 59006 60424;
0171827950999992005032718004-07220-035880FM-12+0548SBKG V0200501N005110075019N0040001N1+02271+02161101131ADDAY161061AY291061GF108991081071008001999999MA1999999095011MD1999999+0011MW1951REMSYN082AAXX  27184 82795 21596 80510 10227 20216 39501 40113 79569 887// 333 58001 60091;
0189827950999992005032800004-07220-035880FM-12+0548SBKG V0200501N000510075019N0010001N1+02241+02191101381ADDAY151061AY261061GF108991081071008001999999MA1999999095241MD1999999+0041MW1511REMSYN100AAXX  28004 82795 21594 80501 10224 20219 39524 40138 75156 887// 333 10251 29092 55051 58004 60171;
0177827950999992005032812004-07220-035880FM-12+0548SBKG V0200501N002110450019N0100001N1+02431+02111101461ADDAY161061AY221061GF106991041031008001021001MA1999999095311MD1999999+0111MW1021REMSYN088AAXX  28124 82795 21597 60504 10243 20211 39531 40146 70262 84320 333 20205 58011 60264;
0167827950999992005032818004-07220-035880FM-12+0548SBKG V0200901N004110075019N0100001N1+02701+02111100991ADDAA106000091GF107991061051008001051001MA1999999094881MD1999999-0131REMSYN070AAXX  28184 82795 32597 70908 10270 20211 39488 40099 86550 333 59013;EQDQ01  00002PRCP06
0202827950999992005032900004-07217-035883FM-12+0560SBKG V0201401N002110450019N0010001N1+02291+02181101271ADDAY151061AY221061GF106991041071008001021001KA1240M+02981MA1999999095131MD1999999-0111MW1021REMSYN100AAXX  29004 82795 21594 61404 10229 20218 39513 40127 70252 84720 333 10298 29087 55035 59011 69981;
0190827950999992005032912004-07217-035883FM-12+0560SBKG V0200901N003110075019N0040001N1+02331+02261101441ADDAY151061AY221061GF108991081071008001999999KA1240N+02151MA1999999095281MD1999999-0031MW1201REMSYN088AAXX  29124 82795 21596 80906 10233 20226 39528 40144 72052 887// 333 20215 59003 60024;
0171827950999992005032918004-07217-035883FM-12+0560SBKG V0209999C000010075019N0100001N1+02681+02311101001ADDAY161061AY251061GF106991051051008001031001MA1999999094891MD1999999+0011MW1021REMSYN082AAXX  29184 82795 21597 60900 10268 20231 39489 40100 70265 85530 333 58001 60111;
0190827950999992005033012004-07217-035883FM-12+0560SBKG V0200901N002610120019N0100001N1+02481+02191101421ADDAY151061AY221061GF108991051081008001051011KA1240N+02161MA1999999095271MD1999999-0011MW1021REMSYN088AAXX  30124 82795 21597 80905 10248 20219 39527 40142 70252 85851 333 20216 59001 60124;
0198827950999992005033100004-07217-035883FM-12+0560SBKG V0201401N003612200019N0010001N1+02321+02151101291ADDAA106000091GF102991021011999999001001KA1240M+02881MA1999999095161MD1999999-0121REMSYN088AAXX  31004 82795 32994 21407 10232 20215 39516 40129 82100 333 10288 29083 55037 59012;EQDQ01  00002PRCP06
0186827950999992005033112004-07217-035883FM-12+0560SBKG V0201401N003610075019N0100001N1+02661+02201101391ADDAA106000091GF106991051041008001011001KA1240N+02201MA1999999095281MD1999999+0011REMSYN076AAXX  31124 82795 32597 61407 10266 20220 39528 40139 85410 333 20220 58001;EQDQ01  00002PRCP06
0167827950999992005033118004-07217-035883FM-12+0560SBKG V0201401N004112200019N0100001N1+02961+02051101171ADDAA106000091GF105991031021008001001041MA1999999095101MD1999999+0221REMSYN070AAXX  31184 82795 32597 51408 10296 20205 39510 40117 83204 333 58022;EQDQ01  00002PRCP06
0185827950999992005040100004-07217-035883FM-12+0560SBKG V0201401N003612200019N0010001N1+02331+02111101151ADDAA106000091GF102991021011999999001001MA1999999095241MD1999999+0161REMSYN088AAXX  01004 82795 32994 21407 10233 20211 39524 40115 82100 333 10305 29083 55101 58016;EQDQ01  00002PRCP06
0173827950999992005040112004-07217-035883FM-12+0560SBKG V0201401N003110075019N0100001N1+02641+02051101411ADDAA106000091GF106991051021008001001011MA1999999095291MD1999999+0011REMSYN076AAXX  01124 82795 32597 61406 10264 20205 39529 40141 85201 333 20215 58001;EQDQ01  00002PRCP06
0179827950999992005040200004-07217-035883FM-12+0560SBKG V0201401N003112200019N0010001N1+02361+02091101471ADDAA106000091GF100991001001999999001001MA1999999095351MD1999999+0111REMSYN082AAXX  02004 82795 32994 01406 10236 20209 39535 40147 333 10305 29074 55102 58011;EQDQ01  00002PRCP06
0173827950999992005040212004-07217-035883FM-12+0560SBKG V0201401N001510450019N0100001N1+02551+02171101481ADDAA106000091GF106991031041008001051001MA1999999095351MD1999999+0061REMSYN076AAXX  02124 82795 32597 61403 10255 20217 39535 40148 83450 333 20206 58006;EQDQ01  00002PRCP06
0171827950999992005040218004-07217-035883FM-12+0560SBKG V0201401N002110450019N0100001N1+02341+02181101331ADDAY161061AY221061GF107991041081008001041001MA1999999095161MD1999999-0151MW1021REMSYN082AAXX  02184 82795 21597 71404 10234 20218 39516 40133 70262 84840 333 59015 60031;
0185827950999992005040300004-07220-035880FM-12+0548SBKG V0201401N003110075019N0010001N1+02301+02271101461ADDAA106000091GF106991061071008001999999MA1999999095321MD1999999-0031REMSYN088AAXX  03004 82795 32594 61406 10230 20227 39532 40146 867// 333 10280 29091 55044 59003;EQDQ01  00002PRCP06
0167827950999992005040318004-07220-035880FM-12+0548SBKG V0201401N003611050019N0100001N1+03011+01941101051ADDAA106000091GF105991021021008001001031MA1999999095001MD1999999-0191REMSYN070AAXX  03184 82795 32597 51407 10301 20194 39500 40105 82203 333 59019;EQDQ01  00002PRCP06
0179827950999992005040400004-07217-035883FM-12+0560SBKG V0201401N003112200019N0010001N1+02351+02131101431ADDAA106000091GF100991001001999999001001MA1999999095291MD1999999-0031REMSYN082AAXX  04004 82795 32994 01406 10235 20213 39529 40143 333 10306 29077 55099 59003;EQDQ01  00002PRCP06
0167827950999992005040418004-07217-035883FM-12+0560SBKG V0201401N004612200019N0100001N1+03061+02081101191ADDAA106000091GF106991041021008001001011MA1999999095131MD1999999+0131REMSYN070AAXX  04184 82795 32597 61409 10306 20208 39513 40119 84201 333 58013;EQDQ01  00002PRCP06
0185827950999992005040500004-07217-035883FM-12+0560SBKG V0201401N004610075019N0010001N1+02331+02091101601ADDAA106000091GF105991051051008001001001MA1999999095461MD1999999+0171REMSYN088AAXX  05004 82795 32594 51409 10233 20209 39546 40160 85500 333 10306 29076 55090 58017;EQDQ01  00002PRCP06
0173827950999992005040512004-07217-035883FM-12+0560SBKG V0201401N003110075019N0100001N1+02561+02061101671ADDAA106000091GF106991061021008001001001MA1999999095551MD1999999+0051REMSYN076AAXX  05124 82795 32597 61406 10256 20206 39555 40167 86200 333 20204 58005;EQDQ01  00002PRCP06
0167827950999992005040518004-07217-035883FM-12+0560SBKG V0201401N005110450019N0100001N1+02861+02111101251ADDAA106000091GF106991041051008001021001MA1999999095151MD1999999+0021REMSYN070AAXX  05184 82795 32597 61410 10286 20211 39515 40125 84520 333 58002;EQDQ01  00002PRCP06
0173827950999992005040612004-07217-035883FM-12+0560SBKG V0201401N004610450019N0100001N1+02561+02191101671ADDAA106000091GF106991031041008001011041MA1999999095531MD1999999-0021REMSYN076AAXX  06124 82795 32597 61409 10256 20219 39553 40167 83414 333 20216 59002;EQDQ01  00002PRCP06
0171827950999992005040618004-07217-035883FM-12+0560SBKG V0201401N005710450019N0100001N1+02921+02121101151ADDAY161061AY221061GF105991031021008001021001MA1999999095081MD1999999-0071MW1021REMSYN082AAXX  06184 82795 21597 51411 10292 20212 39508 40115 70262 83220 333 59007 69931;
0179827950999992005040700004-07217-035883FM-12+0560SBKG V0201401N002612200019N0010001N1+02331+01931101491ADDAA106000091GF100991001001999999001001MA1999999095361MD1999999-0061REMSYN082AAXX  07004 82795 32994 01405 10233 20193 39536 40149 333 10293 29069 55074 59006;EQDQ01  00002PRCP06
0149827950999992005040712004-07217-035883FM-12+0560SBKG V0201401N004610075019N0100001N1+02611+02031101421ADDGF106991061021008001001001MA1999999095301MD1999999-0031REMSYN082AAXX  07124 82795 22597 61409 10261 20203 39530 40142 86200 333 20208 59003 69934;
0171827950999992005040718004-07217-035883FM-12+0560SBKG V0201401N003110450019N0100001N1+02701+02151101121ADDAY161061AY251061GF105991031051008001031001MA1999999095021MD1999999-0061MW1021REMSYN082AAXX  07184 82795 21597 51406 10270 20215 39502 40112 70265 83530 333 59006 60041;
0149827950999992005040812004-07217-035883FM-12+0560SBKG V0201401N003110075019N0100001N1+02541+02021101541ADDGF106991061021008001001001MA1999999095411MD1999999+0111REMSYN082AAXX  08124 82795 22597 61406 10254 20202 39541 40154 86200 333 20213 58011 60044;
0167827950999992005040818004-07217-035883FM-12+0560SBKG V0201401N004610075019N0100001N1+02981+01951101081ADDAA106000091GF105991051021008001001001MA1999999095021MD1999999+0001REMSYN070AAXX  08184 82795 32597 51409 10298 20195 39502 40108 85200 333 58000;EQDQ01  00002PRCP06
0185827950999992005040900004-07217-035883FM-12+0560SBKG V0201401N002612200019N0010001N1+02431+02191101371ADDAA106000091GF104991041021008001001001MA1999999095251MD1999999+0001REMSYN088AAXX  09004 82795 32594 41405 10243 20219 39525 40137 84200 333 10305 29075 55086 58000;EQDQ01  00002PRCP06
0173827950999992005040912004-07217-035883FM-12+0560SBKG V0201401N002110075019N0100001N1+02491+01981101381ADDAA106000091GF106991061021008001001001MA1999999095261MD1999999-0151REMSYN076AAXX  09124 82795 32597 61404 10249 20198 39526 40138 86200 333 20208 59015;EQDQ01  00002PRCP06
0167827950999992005040918004-07217-035883FM-12+0560SBKG V0201401N003110075019N0100001N1+02631+01961101161ADDAA106000091GF108991081071008001999999MA1999999095031MD1999999+0011REMSYN070AAXX  09184 82795 32597 81406 10263 20196 39503 40116 887// 333 58001;EQDQ01  00002PRCP06
0189827950999992005041000004-07217-035883FM-12+0560SBKG V0200901N002110075019N0010001N1+02371+01981101321ADDAY161061AY221061GF108991081061008001999999MA1999999095191MD1999999-0061MW1021REMSYN100AAXX  10004 82795 21594 80904 10237 20198 39519 40132 70262 886// 333 10265 29076 55007 59006 69931;
0177827950999992005041012004-07217-035883FM-12+0560SBKG V0201401N002610075019N0100001N1+02321+02131101461ADDAY161061AY221061GF108991081071008001999999MA1999999095301MD1999999+0041MW1021REMSYN088AAXX  10124 82795 21597 81405 10232 20213 39530 40146 70262 887// 333 20208 58004 69954;
0167827950999992005041018004-07217-035883FM-12+0560SBKG V0201401N002610450019N0100001N1+02951+02051100991ADDAA106000091GF106991031021008001061021MA1999999094911MD1999999-0121REMSYN070AAXX  10184 82795 32597 61405 10295 20205 39491 40099 83262 333 59012;EQDQ01  00002PRCP06
0189827950999992005041100004-07217-035883FM-12+0560SBKG V0201401N003110075019N0010001N1+02341+02151101321ADDAY161061AY221061GF107991051021008001061001MA1999999095161MD1999999-0031MW1021REMSYN100AAXX  11004 82795 21594 71406 10234 20215 39516 40132 70262 85260 333 10298 29081 55054 59003 60041;
0167827950999992005041118004-07217-035883FM-12+0560SBKG V0201401N002110075019N0100001N1+03021+01801100881ADDAA106000091GF105991051021008001001001MA1999999094801MD1999999-0111REMSYN070AAXX  11184 82795 32597 51404 10302 20180 39480 40088 85200 333 59011;EQDQ01  00002PRCP06
0179827950999992005041200004-07217-035883FM-12+0560SBKG V0200901N004112200019N0010001N1+02381+02011101251ADDAA106000091GF100991001001999999001001MA1999999095131MD1999999-0031REMSYN082AAXX  12004 82795 32994 00908 10238 20201 39513 40125 333 10309 29077 55099 59003;EQDQ01  00002PRCP06
0173827950999992005041212004-07217-035883FM-12+0560SBKG V0200901N003610075019N0100001N1+02531+01981101421ADDAA106000091GF105991051011008001001001MA1999999095301MD1999999+0141REMSYN076AAXX  12124 82795 32597 50907 10253 20198 39530 40142 85100 333 20202 58014;EQDQ01  00002PRCP06
0167827950999992005041218004-07217-035883FM-12+0560SBKG V0200901N005110075019N0100001N1+02831+02051101141ADDAA106000091GF107991061071008001081001MA1999999095021MD1999999+0221REMSYN070AAXX  12184 82795 32597 70910 10283 20205 39502 40114 86780 333 58022;EQDQ01  00002PRCP06
0185827950999992005041300004-07217-035883FM-12+0560SBKG V0200901N003612200019N0010001N1+02371+02131101371ADDAA106000091GF102991021021008001001001MA1999999095251MD1999999+0121REMSYN088AAXX  13004 82795 32594 20907 10237 20213 39525 40137 82200 333 10293 29076 55070 58012;EQDQ01  00002PRCP06
0149827950999992005041312004-07217-035883FM-12+0560SBKG V0201401N003612200019N0100001N1+02591+02031101511ADDGF103991031011008001001001MA1999999095381MD1999999+0081REMSYN082AAXX  13124 82795 22597 31407 10259 20203 39538 40151 83100 333 20211 58008 69934;
0185827950999992005041400004-07217-035883FM-12+0560SBKG V0200901N003612200019N0010001N1+02391+02151101371ADDAA106000091GF104991041021008001001001MA1999999095261MD1999999+0011REMSYN088AAXX  14004 82795 32594 40907 10239 20215 39526 40137 84200 333 10302 29074 55084 58001;EQDQ01  00002PRCP06
0173827950999992005041412004-07217-035883FM-12+0560SBKG V0201401N003610075019N0100001N1+02591+02081101411ADDAA106000091GF107991071071008001001001MA1999999095301MD1999999-0081REMSYN076AAXX  14124 82795 32597 71407 10259 20208 39530 40141 87700 333 20213 59008;EQDQ01  00002PRCP06
0189827950999992005041500004-07217-035883FM-12+0560SBKG V0200901N003610075019N0010001N1+02371+02171101331ADDAY161061AY221061GF108991061061008001999999MA1999999095211MD1999999-0051MW1021REMSYN100AAXX  15004 82795 21594 80907 10237 20217 39521 40133 70262 866// 333 10284 29080 55030 59005 60021;
0149827950999992005041512004-07217-035883FM-12+0560SBKG V0201401N004110075019N0100001N1+02481+02011101461ADDGF105991051021008001001001MA1999999095321MD1999999+0021REMSYN082AAXX  15124 82795 22597 51408 10248 20201 39532 40146 85200 333 20211 58002 60054;
0167827950999992005041518004-07217-035883FM-12+0560SBKG V0200901N004610450019N0100001N1+02741+02141101121ADDAA106000091GF107991041051008001021001MA1999999095021MD1999999-0071REMSYN070AAXX  15184 82795 32597 70909 10274 20214 39502 40112 84520 333 59007;EQDQ01  00002PRCP06
0185827950999992005041600004-07217-035883FM-12+0560SBKG V0200901N003110075019N0010001N1+02341+02111101531ADDAA106000091GF106991061021008001001001MA1999999095391MD1999999+0181REMSYN088AAXX  16004 82795 32594 60906 10234 20211 39539 40153 86200 333 10287 29080 55062 58018;EQDQ01  00002PRCP06
0173827950999992005041712004-07220-035880FM-12+0548SBKG V0201401N003610075019N0100001N1+02421+99999101521ADDAA106000091GF106991061021008001001001MA1999999095361MD1999999+0001REMSYN076AAXX  17124 82795 32597 61407 10242 20253 39536 40152 86200 333 20210 58000;EQDQ01  00002PRCP06
0167827950999992005041718004-07220-035880FM-12+0548SBKG V0201401N003610450019N0100001N1+02971+02091101111ADDAA106000091GF106991041021008001061011MA1999999095031MD1999999-0041REMSYN070AAXX  17184 82795 32597 61407 10297 20209 39503 40111 84261 333 59004;EQDQ01  00002PRCP06
0185827950999992005041800004-07217-035883FM-12+0560SBKG V0200901N002112200019N0010001N1+02351+02091101411ADDAA106000091GF102991001001999999001011MA1999999095261MD1999999-0081REMSYN088AAXX  18004 82795 32994 20904 10235 20209 39526 40141 80001 333 10302 29079 55084 59008;EQDQ01  00002PRCP06
0167827950999992005041818004-07217-035883FM-12+0560SBKG V0200901N004610450019N0100001N1+02801+01901101051ADDAA106000091GF105991031041008001081001MA1999999094941MD1999999-0191REMSYN070AAXX  18184 82795 32597 50909 10280 20190 39494 40105 83480 333 59019;EQDQ01  00002PRCP06
0185827950999992005041900004-07217-035883FM-12+0560SBKG V0200901N003619999999N0010001N1+02381+02131101291ADDAA106000091GF105991999021008001001001MA1999999095191MD1999999-0071REMSYN088AAXX  19004 82795 32594 50907 10238 20213 39519 40129 84200 333 10301 29075 55077 59007;EQDQ01  00002PRCP06
0177827950999992005041912004-07217-035883FM-12+0560SBKG V0201401N002110075019N0100001N1+02431+02271101501ADDAY161061AY221061GF108991051071008001011999MA1999999095361MD1999999+0161MW1021REMSYN088AAXX  19124 82795 21597 81404 10243 20227 39536 40150 70262 8571/ 333 20210 58016 69964;
0167827950999992005041918004-07217-035883FM-12+0560SBKG V0201401N005111050019N0100001N1+02841+01911101171ADDAA106000091GF106991021041008001031031MA1999999095071MD1999999+0131REMSYN070AAXX  19184 82795 32597 61410 10284 20191 39507 40117 82433 333 58013;EQDQ01  00002PRCP06
0173827950999992005042012004-07217-035883FM-12+0560SBKG V0201401N003110075019N0100001N1+02571+02061101411ADDAA106000091GF106991061021008001001001MA1999999095291MD1999999-0071REMSYN076AAXX  20124 82795 32597 61406 10257 20206 39529 40141 86200 333 20213 59007;EQDQ01  00002PRCP06
0167827950999992005042018004-07217-035883FM-12+0560SBKG V0200901N005710075019N0100001N1+02451+02001101231ADDAA106000091GF108991081071008001999999MA1999999095081MD1999999+0071REMSYN070AAXX  20184 82795 32597 80911 10245 20200 39508 40123 887// 333 58007;EQDQ01  00002PRCP06
0185827950999992005042100004-07217-035883FM-12+0560SBKG V0200901N003610450019N0010001N1+02371+02111101491ADDAA106000091GF106991031021008001081001MA1999999095361MD1999999+0111REMSYN088AAXX  21004 82795 32594 60907 10237 20211 39536 40149 83280 333 10295 29081 55051 58011;EQDQ01  00002PRCP06
0173827950999992005042112004-07217-035883FM-12+0560SBKG V0201401N004110075019N0100001N1+02351+02171101561ADDAA106000091GF108991051071008001011999MA1999999095401MD1999999+0111REMSYN076AAXX  21124 82795 32597 81408 10235 20217 39540 40156 8571/ 333 20209 58011;EQDQ01  00002PRCP06
0185827950999992005042200004-07217-035883FM-12+0560SBKG V0200901N001510075019N0010001N1+02351+02011101401ADDAA106000091GF108991051051008001001071MA1999999095251MD1999999-0111REMSYN088AAXX  22004 82795 32594 80903 10235 20201 39525 40140 85507 333 10298 29076 55067 59011;EQDQ01  00002PRCP06
0149827950999992005042212004-07217-035883FM-12+0560SBKG V0201401N003610450019N0100001N1+02581+01971101401ADDGF107991031051008001021001MA1999999095341MD1999999-0061REMSYN082AAXX  22124 82795 22597 71407 10258 20197 39534 40140 83520 333 20206 59006 69974;
0167827950999992005042218004-07217-035883FM-12+0560SBKG V0201401N003110450019N0100001N1+02911+01721101061ADDAA106000091GF106991031041008001021031MA1999999094981MD1999999-0101REMSYN070AAXX  22184 82795 32597 61406 10291 20172 39498 40106 83423 333 59010;EQDQ01  00002PRCP06
0173827950999992005042312004-07217-035883FM-12+0560SBKG V0201401N001512200019N0100001N1+02531+01981101411ADDAA106000091GF104991041021008001001001MA1999999095271MD1999999-0071REMSYN076AAXX  23124 82795 32597 41403 10253 20198 39527 40141 84200 333 20202 59007;EQDQ01  00002PRCP06
0167827950999992005042318004-07217-035883FM-12+0560SBKG V0201401N002112200019N0100001N1+03091+01751100891ADDAA106000091GF104991011021008001001011MA1999999094861MD1999999-0161REMSYN070AAXX  23184 82795 32597 41404 10309 20175 39486 40089 81201 333 59016;EQDQ01  00002PRCP06
0173827950999992005042412004-07220-035880FM-12+0548SBKG V0201401N003112200019N0100001N1+02611+01871101421ADDAA106000091GF104991041031008001001001MA1999999095301MD1999999+0031REMSYN076AAXX  24124 82795 32597 41406 10261 20187 39530 40142 84300 333 20208 58003;EQDQ01  00002PRCP06
0169827950999992005042500004-07217-035883FM-12+0560SBKG V0201401N006219999999N0010001N1+99999+99999999999ADDAA106000091GF106991999999008001999999KA1240M+03171REMSYN088AAXX  25004 82795 32594 61412 20214 20224 39520 40133 84510 333 10317 29063 55094 58000;EQDQ01  00002PRCP06
0186827950999992005042512004-07217-035883FM-12+0560SBKG V0201401N002110075019N0100001N1+02611+01991101421ADDAA106000091GF106991061021008001001001KA1240N+02141MA1999999095281MD1999999-0021REMSYN076AAXX  25124 82795 32597 61404 10261 20199 39528 40142 86200 333 20214 59002;EQDQ01  00002PRCP06
0167827950999992005042518004-07217-035883FM-12+0560SBKG V0201401N002612200019N0100001N1+03021+01991100921ADDAA106000091GF105991031021008001001011MA1999999094841MD1999999-0181REMSYN070AAXX  25184 82795 32597 51405 10302 20199 39484 40092 83201 333 59018;EQDQ01  00002PRCP06
0186827950999992005042612004-07217-035883FM-12+0560SBKG V0201401N001510075019N0100001N1+02591+02211101381ADDAA106000091GF106991061021008001001001KA1240N+02201MA1999999095301MD1999999+0021REMSYN076AAXX  26124 82795 32597 61403 10259 20221 39530 40138 86200 333 20220 58002;EQDQ01  00002PRCP06
0202827950999992005042700004-07217-035883FM-12+0560SBKG V0200901N003610075019N0010001N1+02371+02241101371ADDAY161061AY221061GF107991051031008001081001KA1240M+03091MA1999999095211MD1999999-0031MW1021REMSYN100AAXX  27004 82795 21594 70907 10237 20224 39521 40137 70262 85380 333 10309 29081 55064 59003 60011;
0162827950999992005042712004-07217-035883FM-12+0560SBKG V0201401N002112200019N0100001N1+02681+02181101431ADDGF102991021011008001001001KA1240N+02161MA1999999095321MD1999999+0021REMSYN082AAXX  27124 82795 22597 21404 10268 20218 39532 40143 82100 333 20216 58002 60014;
0167827950999992005042718004-07217-035883FM-12+0560SBKG V0200501N002112200019N0100001N1+03131+02051100911ADDAA106000091GF104991041021008001001001MA1999999094881MD1999999-0031REMSYN070AAXX  27184 82795 32597 40504 10313 20205 39488 40091 84200 333 59003;EQDQ01  00002PRCP06
0186827950999992005042812004-07217-035883FM-12+0560SBKG V0201401N003610075019N0100001N1+02571+02171101541ADDAA106000091GF106991061061008001001001KA1240N+02211MA1999999095421MD1999999+0161REMSYN076AAXX  28124 82795 32597 61407 10257 20217 39542 40154 86600 333 20221 58016;EQDQ01  00002PRCP06
0167827950999992005042818004-07217-035883FM-12+0560SBKG V0200501N003110450019N0100001N1+02821+01971101281ADDAA106000091GF105991031031008001041001MA1999999095191MD1999999+0281REMSYN070AAXX  28184 82795 32597 50506 10282 20197 39519 40128 83340 333 58028;EQDQ01  00002PRCP06
0198827950999992005042900004-07217-035883FM-12+0560SBKG V0200901N003110075019N0010001N1+02421+02211101471ADDAA106000091GF106991061021008001001001KA1240M+02901MA1999999095351MD1999999+0141REMSYN088AAXX  29004 82795 32594 60906 10242 20221 39535 40147 86200 333 10290 29078 55072 58014;EQDQ01  00002PRCP06
0190827950999992005042912004-07217-035883FM-12+0560SBKG V0201401N004610450019N0100001N1+02471+02251101591ADDAY161061AY221061GF107991041021008001081021KA1240N+02191MA1999999095451MD1999999+0031MW1211REMSYN088AAXX  29124 82795 21597 71409 10247 20225 39545 40159 72162 84282 333 20219 58003 60034;
0171827950999992005042918004-07217-035883FM-12+0560SBKG V0203601N001510075019N0100001N1+02531+02151101301ADDAY151061AY221061GF107991071071008001999999MA1999999095171MD1999999-0021MW1511REMSYN082AAXX  29184 82795 21597 73603 10253 20215 39517 40130 75152 877// 333 59002 69971;
0221827950999992005043000004-07217-035883FM-12+0560SBKG V0200901N003110075019N0010001N1+02371+02211101571ADDAY161061AY221061GF106991051021008001081001KA1240M+02881MA1999999999999MD1999999+0081MW1021REMSYN100AAXX  30004 82795 21594 60906 10237 20221 39243 40157 70262 85280 333 10288 29087 55046 58008 69921;EQDQ01 092433APOSP 
0162827950999992005043012004-07217-035883FM-12+0560SBKG V0201401N003110075019N0100001N1+02511+02211101541ADDGF106991061021008001001001KA1240N+02151MA1999999095411MD1999999-0041REMSYN082AAXX  30124 82795 22597 61406 10251 20221 39541 40154 86200 333 20215 59004 69994;
0167827950999992005043018004-07217-035883FM-12+0560SBKG V0201401N003112200019N0100001N1+03041+01851101161ADDAA106000091GF102991021021008001001001MA1999999095091MD1999999-0081REMSYN070AAXX  30184 82795 32597 21406 10304 20185 39509 40116 82200 333 59008;EQDQ01  00002PRCP06
0173827950999992005050112004-07220-035880FM-12+0548SBKG V0201401N002112200019N0100001N1+02621+01881101601ADDAA106000091GF105991031011008001001011MA1999999095481MD1999999+0071REMSYN076AAXX  01124 82795 32597 51404 10262 20188 39548 40160 83101 333 20213 58007;EQDQ01  00002PRCP06
0167827950999992005050118004-07220-035880FM-12+0548SBKG V0201401N003111050019N0100001N1+03051+01681101161ADDAA106000091GF105991031021008001001051MA1999999095091MD1999999+0001REMSYN070AAXX  01184 82795 32597 51406 10305 20168 39509 40116 83205 333 58000;EQDQ01  00002PRCP06
0085827950999992005050212004-07217-035883FM-15+0560SBKG V0201201N00211006001CN0112651N1+02701+02101999999ADDMA1101801999999MW1001REMMET052SBKG 021200Z 12004KT 9999 BKN020 SCT300 27/21 Q1018;
0085827950999992005050213004-07217-035883FM-15+0560SBKG V0201301N00311006001CN0112651N1+02901+02001999999ADDMA1101691999999MW1001REMMET052SBKG 021300Z 13006KT 9999 BKN020 SCT300 29/20 Q1017;
0085827950999992005050214004-07217-035883FM-15+0560SBKG V0201201N00101006001CN0112651N1+03001+01901999999ADDMA1101691999999MW1001REMMET052SBKG 021400Z 12002KT 9999 BKN020 SCT300 30/19 Q1017;
0111827950999992005050215004-07217-035883FM-15+0560SBKG V0201301N00311090001CN0112651N1+03101+01901999999ADDGF107991999999999999999999MA1101591999999MW1001REMMET052SBKG 021500Z 13006KT 9999 SCT023 BKN300 31/19 Q1016;
0130827950999992005050216004-07217-035883FM-15+0560SBKG V0201201N00311999999CN0112651N1+03101+01901999999ADDGF104991999999999999999999MA1101491999999MW1001REMMET052SBKG 021600Z 12006KT 9999 SCT023 SCT300 31/19 Q1015;EQDP01 090003SCOCIG
0104827950999992005050217004-07217-035883FM-15+0560SBKG V0201001N003112200019N0112651N1+03201+01901999999ADDGF104991999999999999999999MA1101391999999MW1001REMMET045SBKG 021700Z 10006KT 9999 SCT023 32/19 Q1014;
0104827950999992005050219004-07217-035883FM-15+0560SBKG V0201201N003112200019N0112651N1+03101+01901999999ADDGF104991999999999999999999MA1101291999999MW1001REMMET045SBKG 021900Z 12006KT 9999 SCT023 31/19 Q1013;
0104827950999992005050220004-07217-035883FM-15+0560SBKG V0201301N003112200019N0112651N1+03001+01901999999ADDGF104991999999999999999999MA1101391999999MW1001REMMET045SBKG 022000Z 13006KT 9999 SCT023 30/19 Q1014;
0189827950999992005050300004-07217-035883FM-12+0560SBKG V0201401N001510042019N0002001N1+02181+02131101611ADDAY191061AY281061GF108991081091004501999999MA1999999095461MD1999999+0251MW1951REMSYN100AAXX  03004 82795 21492 81403 10218 20213 39546 40161 79598 889// 333 10319 29077 55093 58025 60121;
0177827950999992005050312004-07217-035883FM-12+0560SBKG V0202301N001510075019N0100001N1+02521+02171101701ADDAY161061AY221061GF106991061021008001001001MA1999999095481MD1999999-0011MW1021REMSYN088AAXX  03124 82795 21597 62303 10252 20217 39548 40170 70262 86200 333 20206 59001 60154;
0167827950999992005050318004-07217-035883FM-12+0560SBKG V0200901N000510450019N0100001N1+03011+01881101191ADDAA106000091GF106991031031008001051001MA1999999095121MD1999999+0091REMSYN070AAXX  03184 82795 32597 60901 10301 20188 39512 40119 83350 333 58009;EQDQ01  00002PRCP06
0213827950999992005050400004-07217-035883FM-12+0560SBKG V0200901N004610075019N0010001N1+02371+02131101581ADDAA106000091AY121061AY221061GF107991051091008001041031MA1999999095441MD1999999-0021MW1131REMSYN094AAXX  04004 82795 31594 70909 10237 20213 39544 40158 71322 85943 333 10302 29076 55045 59002;EQDQ01  00002PRCP06
0173827950999992005050412004-07217-035883FM-12+0560SBKG V0201801N002610075019N0100001N1+02431+02031101711ADDAA106000091GF105991051021008001001001MA1999999095551MD1999999+0071REMSYN076AAXX  04124 82795 32597 51805 10243 20203 39555 40171 85200 333 20215 58007;EQDQ01  00002PRCP06
0195827950999992005050418004-07217-035883FM-12+0560SBKG V0201401N003110075019N0100001N1+02821+01781101251ADDAA106000091AY121061AY221061GF108991081071008001999999MA1999999095151MD1999999+0031MW1161REMSYN076AAXX  04184 82795 31597 81406 10282 20178 39515 40125 71622 887// 333 58003;EQDQ01  00002PRCP06
0189827950999992005050500004-07217-035883FM-12+0560SBKG V0201401N001510075019N0010001N1+02251+02101101641ADDAY161061AY221061GF108991081071008001999999MA1999999095481MD1999999+0041MW1021REMSYN100AAXX  05004 82795 21594 81403 10225 20210 39548 40164 70262 887// 333 10297 29079 55043 58004 60111;
0149827950999992005050512004-07217-035883FM-12+0560SBKG V0201801N002110075019N0100001N1+02501+02071101741ADDGF106991061021008001001001MA1999999095571MD1999999+0021REMSYN082AAXX  05124 82795 22597 61804 10250 20207 39557 40174 86200 333 20204 58002 60114;
0195827950999992005050518004-07217-035883FM-12+0560SBKG V0201401N002110075019N0100001N1+02731+01851101241ADDAA106000091AY121061AY221061GF108991051071008001021999MA1999999095131MD1999999-0021MW1151REMSYN076AAXX  05184 82795 31597 81404 10273 20185 39513 40124 71522 8572/ 333 59002;EQDQ01  00002PRCP06
0185827950999992005050600004-07217-035883FM-12+0560SBKG V0201401N002110450019N0010001N1+02391+02011101571ADDAA106000091GF107991041021008001071001MA1999999095431MD1999999-0051REMSYN088AAXX  06004 82795 32594 71404 10239 20201 39543 40157 84270 333 10293 29073 55064 59005;EQDQ01  00002PRCP06
0173827950999992005050612004-07217-035883FM-12+0560SBKG V0201801N001510075019N0100001N1+02441+02071101621ADDAA106000091GF107991071071008001001001MA1999999095471MD1999999-0101REMSYN076AAXX  06124 82795 32597 71803 10244 20207 39547 40162 87700 333 20205 59010;EQDQ01  00002PRCP06
0171827950999992005050618004-07217-035883FM-12+0560SBKG V0201401N001510450019N0100001N1+02661+02071101261ADDAY121061AY221061GF106991041021008001031001MA1999999095131MD1999999+0001MW1211REMSYN082AAXX  06184 82795 21597 61403 10266 20207 39513 40126 72122 84230 333 58000 60021;
0174827950999992005050700004-07217-035883FM-12+0560SBKG V0201401N001510075019N0010001N1+02271+02141101571ADDAY161061AY221061GF108991081071008001999999MD1999999-0021MW1021REMSYN100AAXX  07004 82795 21594 81403 10227 20214 33954 40157 70262 887// 333 10276 29084 55062 59002 60041;
0177827950999992005050712004-07217-035883FM-12+0560SBKG V0201401N002110075019N0100001N1+02431+02011101571ADDAY161061AY221061GF107991071071008001001001MA1999999095411MD1999999-0061MW1021REMSYN088AAXX  07124 82795 21597 71404 10243 20201 39541 40157 70262 87700 333 20208 59006 60064;
0171827950999992005050718004-07217-035883FM-12+0560SBKG V0201401N004610450019N0100001N1+02711+02051101231ADDAY151061AY221061GF106991031021008001061031MA1999999095111MD1999999-0021MW1021REMSYN082AAXX  07184 82795 21597 61409 10271 20205 39511 40123 70252 83263 333 59002 69911;
0189827950999992005050800004-07220-035880FM-12+0548SBKG V0201401N002619999999N0010001N1+02261+02091101581ADDAY161061AY221061GF106991999021008001001001MA1999999095421MD1999999+0011MW1021REMSYN100AAXX  08004 82795 21594 61405 10226 20209 39542 40158 70262 84200 333 10278 29081 55065 58001 60021;
0177827950999992005050812004-07220-035880FM-12+0548SBKG V0201801N003110075019N0100001N1+02411+01971101491ADDAY161061AY221061GF107991071071008001001001MA1999999095331MD1999999-0081MW1021REMSYN088AAXX  08124 82795 21597 71806 10241 20197 39533 40149 70262 87700 333 20203 59008 60044;
0167827950999992005050818004-07220-035880FM-12+0548SBKG V0201401N004610450019N0100001N1+02811+01691101201ADDAA106000091GF106991031021008001061001MA1999999095091MD1999999-0021REMSYN070AAXX  08184 82795 32597 61409 10281 20169 39509 40120 83260 333 59002;EQDQ01  00002PRCP06
0185827950999992005050900004-07217-035883FM-12+0560SBKG V0201401N001512200019N0010001N1+02281+01881101561ADDAA106000091GF104991041021008001001001MA1999999095401MD1999999-0021REMSYN088AAXX  09004 82795 32594 41403 10228 20188 39540 40156 84200 333 10285 29071 55070 59002;EQDQ01  00002PRCP06
0173827950999992005050912004-07217-035883FM-12+0560SBKG V0201401N002610075019N0100001N1+02451+01971101531ADDAA106000091GF106991061021008001001001MA1999999095371MD1999999+0041REMSYN076AAXX  09124 82795 32597 61405 10245 20197 39537 40153 86200 333 20201 58004;EQDQ01  00002PRCP06
0167827950999992005050918004-07217-035883FM-12+0560SBKG V0201401N002119999999N0100001N1+02981+01921101191ADDAA106000091GF108991999021008001001001MA1999999095101MD1999999+0031REMSYN070AAXX  09184 82795 32597 81404 10298 20192 39510 40119 82200 333 58003;EQDQ01  00002PRCP06
0185827950999992005051000004-07217-035883FM-12+0560SBKG V0201401N003610450019N0010001N1+02291+02031101551ADDAA106000091GF106991041021008001061001MA1999999095391MD1999999-0011REMSYN088AAXX  10004 82795 32594 61407 10229 20203 39539 40155 84260 333 10303 29075 55082 59001;EQDQ01  00002PRCP06
0167827950999992005051018004-07217-035883FM-12+0560SBKG V0201401N005112200019N0100001N1+02921+01571101111ADDAA106000091GF103991031021008001001001MA1999999095031MD1999999-0081REMSYN070AAXX  10184 82795 32597 31410 10292 20157 39503 40111 83200 333 59008;EQDQ01  00002PRCP06
0185827950999992005051100004-07217-035883FM-12+0560SBKG V0201401N002610075019N0010001N1+02371+02131101421ADDAA106000091GF105991051021008001001001MA1999999095301MD1999999-0091REMSYN088AAXX  11004 82795 32594 51405 10237 20213 39530 40142 85200 333 10297 29073 55090 59009;EQDQ01  00002PRCP06
0177827950999992005051112004-07217-035883FM-12+0560SBKG V0201801N003110075019N0020001N1+02251+02171101531ADDAY161061AY251061GF108991051071008001021999MA1999999095341MD1999999+0001MW1551REMSYN088AAXX  11124 82795 21595 81806 10225 20217 39534 40153 75565 8572/ 333 20212 58000 60054;
0171827950999992005051118004-07217-035883FM-12+0560SBKG V0201401N003110075019N0040001N1+02441+02131101241ADDAY161061AY221061GF107991071071008001001001MA1999999095091MD1999999+0061MW1161REMSYN082AAXX  11184 82795 21596 71406 10244 20213 39509 40124 71662 87700 333 58006 60041;
0189827950999992005051200004-07217-035883FM-12+0560SBKG V0201401N001010042019N0010001N1+02241+02191101491ADDAY161061AY221061GF108991081071004501999999MA1999999095311MD1999999+0011MW1021REMSYN100AAXX  12004 82795 21494 81402 10224 20219 39531 40149 70262 887// 333 10254 29093 55020 58001 60021;
0177827950999992005051212004-07217-035883FM-12+0560SBKG V0201801N001510075019N0100001N1+02161+01931101591ADDAY161061AY221061GF108991081071008001999999MA1999999095391MD1999999+0051MW1021REMSYN088AAXX  12124 82795 21597 81803 10216 20193 39539 40159 70262 887// 333 20200 58005 60114;
0185827950999992005051300004-07217-035883FM-12+0560SBKG V0201401N001510075019N0010001N1+02301+02161101521ADDAA106000091GF107991051021008001081001MA1999999095331MD1999999+0021REMSYN088AAXX  13004 82795 32594 71403 10230 20216 39533 40152 85280 333 10258 29088 55012 58002;EQDQ01  00002PRCP06
0177827950999992005051312004-07217-035883FM-12+0560SBKG V0201401N003610075019N0100001N1+02451+02071101481ADDAY161061AY211061GF106991061021008001001001MA1999999095331MD1999999-0061MW1021REMSYN088AAXX  13124 82795 21597 61407 10245 20207 39533 40148 70261 86200 333 20205 59006 60064;
0189827950999992005051400004-07217-035883FM-12+0560SBKG V0201401N005110042019N0002001N1+02271+02151101361ADDAY161061AY221061GF108991081071004501999999MA1999999095201MD1999999-0131MW1501REMSYN100AAXX  14004 82795 21492 81410 10227 20215 39520 40136 75062 887// 333 10283 29088 55063 59013 60051;
0177827950999992005051412004-07217-035883FM-12+0560SBKG V0201401N004110450019N0100001N1+02201+02061101411ADDAY161061AY221061GF106991041031008001031001MA1999999095231MD1999999-0101MW1021REMSYN088AAXX  14124 82795 21597 61408 10220 20206 39523 40141 70262 84330 333 20204 59010 60104;
0208827950999992005051500004-07220-035880FM-12+0548SBKG V0201401N001510075019N0010001N1+02131+01931101391ADDAY151061AY221061GF107991999051008001001001MA1999999095191MD1999999-0191MW1021REMSYN100AAXX  15004 82795 21594 71403 10213 20193 39519 40139 70252 85500 333 10261 29089 55009 59019 69981;EQDQ01+000052SCOTLC
0149827950999992005051512004-07220-035880FM-12+0548SBKG V0201401N003112200019N0100001N1+02411+02011101331ADDGF105991021031008001001011MA1999999095161MD1999999-0071REMSYN082AAXX  15124 82795 22597 51406 10241 20201 39516 40133 82301 333 20206 59007 60054;
0183827950999992005051518004-07220-035880FM-12+0548SBKG V0201401N004119999999N0100001N1+02591+02001101081ADDAA106000091GF106991999021008001001001MA1999999094951MD1999999-0061REMSYN070AAXX  15184 82795 32597 61408 10259 20200 39495 40108 89200 333 59006;EQDQ01+000092SCOTLCQ02  00002PRCP06
0185827950999992005051600004-07217-035883FM-12+0560SBKG V0201401N001010075019N0010001N1+02231+02051101201ADDAA106000091GF108991081051008001999999MA1999999095051MD1999999-0141REMSYN088AAXX  16004 82795 32594 81402 10223 20205 39505 40120 885// 333 10271 29083 55071 59014;EQDQ01  00002PRCP06
0177827950999992005051612004-07217-035883FM-12+0560SBKG V0201401N003610075019N0020001N1+02281+02131101381ADDAY161061AY251061GF108991061071008001021999MA1999999095211MD1999999+0051MW1501REMSYN088AAXX  16124 82795 21595 81407 10228 20213 39521 40138 75065 8672/ 333 20206 58005 60154;
0171827950999992005051618004-07217-035883FM-12+0560SBKG V0201401N005110075019N0200001N1+02341+02071101101ADDAY161061AY221061GF108991081071008001999999MA1999999094941MD1999999-0011MW1151REMSYN082AAXX  16184 82795 21598 81410 10234 20207 39494 40110 71562 887// 333 59001 60031;
0185827950999992005051700004-07217-035883FM-12+0560SBKG V0201401N002110075019N0010001N1+02241+02121101311ADDAA106000091GF108991081061008001999999MA1999999095141MD1999999+0091REMSYN088AAXX  17004 82795 32594 81404 10224 20212 39514 40131 886// 333 10238 29091 55004 58009;EQDQ01  00002PRCP06
0177827950999992005051712004-07217-035883FM-12+0560SBKG V0201401N003110075019N0100001N1+02321+02131101221ADDAY161061AY221061GF108991051071008001011999MA1999999095061MD1999999-0151MW1021REMSYN088AAXX  17124 82795 21597 81406 10232 20213 39506 40122 70262 8571/ 333 20210 59015 60064;
0171827950999992005051718004-07217-035883FM-12+0560SBKG V0201401N003110450019N0100001N1+02611+02211100961ADDAY151061AY221061GF106991041041008001051011MA1999999094851MD1999999-0091MW1021REMSYN082AAXX  17184 82795 21597 61406 10261 20221 39485 40096 70252 84451 333 59009 69951;
0185827950999992005051800004-07217-035883FM-12+0560SBKG V0201401N002110450019N0010001N1+02301+02111101261ADDAA106000091GF107991031021008001081001MA1999999095111MD1999999-0031REMSYN088AAXX  18004 82795 32594 71404 10230 20211 39511 40126 83280 333 10264 29086 55019 59003;EQDQ01  00002PRCP06
0177827950999992005051812004-07217-035883FM-12+0560SBKG V0201801N003610075019N0100001N1+02321+02021101271ADDAY161061AY221061GF106991061061008001001001MA1999999095121MD1999999+0061MW1021REMSYN088AAXX  18124 82795 21597 61807 10232 20202 39512 40127 70262 86600 333 20200 58006 60034;
0171827950999992005051818004-07217-035883FM-12+0560SBKG V0201401N002110075019N0100001N1+02531+02151100951ADDAY151061AY221061GF106991061071008001001001MA1999999094821MD1999999-0031MW1021REMSYN082AAXX  18184 82795 21597 61404 10253 20215 39482 40095 70252 86700 333 59003 69931;
0189827950999992005051900004-07217-035883FM-12+0560SBKG V0201401N003110450019N0010001N1+02271+02111101181ADDAY161061AY221061GF106991031021008001041001MA1999999095031MD1999999-0081MW1011REMSYN100AAXX  19004 82795 21594 61406 10227 20211 39503 40118 70162 83240 333 10275 29086 55039 59008 69971;
0177827950999992005051912004-07217-035883FM-12+0560SBKG V0201801N001510075019N0020001N1+02161+02111101301ADDAY161061AY221061GF108991051071008001021999MA1999999095121MD1999999+0001MW1501REMSYN088AAXX  19124 82795 21595 81803 10216 20211 39512 40130 75062 8572/ 333 20203 58000 60014;
0171827950999992005051918004-07217-035883FM-12+0560SBKG V0201401N002610120019N0100001N1+02311+02031101081ADDAY161061AY221061GF107991051081008001021001MA1999999094911MD1999999+0091MW1021REMSYN082AAXX  19184 82795 21597 71405 10231 20203 39491 40108 70262 85820 333 58009 60021;
0149827950999992005052012004-07217-035883FM-12+0560SBKG V0201401N002610075019N0100001N1+02411+02091101341ADDGF106991061061008001001001MA1999999095181MD1999999+0061REMSYN082AAXX  20124 82795 22597 61405 10241 20209 39518 40134 86600 333 20205 58006 60024;
0167827950999992005052018004-07217-035883FM-12+0560SBKG V0201401N003112200019N0100001N1+02751+02181101041ADDAA106000091GF104991041081008001001001MA1999999094941MD1999999+0031REMSYN070AAXX  20184 82795 32597 41406 10275 20218 39494 40104 84800 333 58003;EQDQ01  00002PRCP06
0189827950999992005052100004-07217-035883FM-12+0560SBKG V0201401N004110042019N0010001N1+02281+02231101351ADDAY181061AY261061GF108991081031004501999999MA1999999095211MD1999999+0061MW1021REMSYN100AAXX  21004 82795 21494 81408 10228 20223 39521 40135 70286 883// 333 10281 29086 55073 58006 60331;
0149827950999992005052112004-07217-035883FM-12+0560SBKG V0201401N002610075019N0100001N1+02371+02151101521ADDGF107991071071008001001001MA1999999095351MD1999999+0171REMSYN082AAXX  21124 82795 22597 71405 10237 20215 39535 40152 87700 333 20210 58017 60334;
0167827950999992005052118004-07217-035883FM-12+0560SBKG V0201401N004110450019N0100001N1+02631+02141101111ADDAA106000091GF105991031021008001061001MA1999999094981MD1999999+0041REMSYN070AAXX  21184 82795 32597 51408 10263 20214 39498 40111 83260 333 58004;EQDQ01  00002PRCP06
0185827950999992005052200004-07220-035880FM-12+0548SBKG V0201401N003110450019N0010001N1+02331+02111101431ADDAA106000091GF107991041021008001061021MA1999999095281MD1999999+0071REMSYN088AAXX  22004 82795 32594 71406 10233 20211 39528 40143 84262 333 10284 29084 55062 58007;EQDQ01  00002PRCP06
0177827950999992005052212004-07220-035880FM-12+0548SBKG V0201401N002610075019N0100001N1+02461+02111101431ADDAY161061AY221061GF106991061021008001001001MA1999999095291MD1999999-0061MW1021REMSYN088AAXX  22124 82795 21597 61405 10246 20211 39529 40143 70262 86200 333 20208 59006 69934;
0167827950999992005052218004-07220-035880FM-12+0548SBKG V0201401N003111050019N0100001N1+02731+02071101071ADDAA106000091GF105991021021008001001051MA1999999094951MD1999999-0031REMSYN070AAXX  22184 82795 32597 51406 10273 20207 39495 40107 82205 333 59003;EQDQ01  00002PRCP06
0185827950999992005052300004-07220-035880FM-12+0548SBKG V0201401N003110120019N0010001N1+02361+02191101401ADDAA106000091GF107991071081008001001001MA1999999095261MD1999999-0021REMSYN088AAXX  23004 82795 32594 71406 10236 20219 39526 40140 87800 333 10276 29082 55043 59002;EQDQ01  00002PRCP06
0177827950999992005052312004-07220-035880FM-12+0548SBKG V0200901N003610075019N0100001N1+02341+02151101521ADDAY161061AY221061GF105991051061008001071999MA1999999095361MD1999999+0071MW1021REMSYN088AAXX  23124 82795 21597 50907 10234 20215 39536 40152 70262 8567/ 333 20205 58007 69984;
0167827950999992005052318004-07220-035880FM-12+0548SBKG V0201401N003110450019N0100001N1+02481+02051101261ADDAA106000091GF106991031081008001061001MA1999999095001MD1999999+0171REMSYN070AAXX  23184 82795 32597 61406 10248 20205 39500 40126 83860 333 58017;EQDQ01  00002PRCP06
0185827950999992005052400004-07217-035883FM-12+0560SBKG V0201401N001510120019N0010001N1+02291+02031101351ADDAA106000091GF107991051001012501081021MA1999999095191MD1999999-0071REMSYN088AAXX  24004 82795 32694 71403 10229 20203 39519 40135 85082 333 10266 29084 55047 59007;EQDQ01  00002PRCP06
0173827950999992005052412004-07217-035883FM-12+0560SBKG V0201401N003110075019N0100001N1+02411+02151101471ADDAA106000091GF107991061021008001001011MA1999999095321MD1999999-0041REMSYN076AAXX  24124 82795 32597 71406 10241 20215 39532 40147 86201 333 20211 59004;EQDQ01  00002PRCP06
0171827950999992005052418004-07217-035883FM-12+0560SBKG V0201401N002110120019N0100001N1+02421+02111101251ADDAY161061AY221061GF108991051081008001071999MA1999999095081MD1999999+0041MW1021REMSYN082AAXX  24184 82795 21597 81404 10242 20211 39508 40125 70262 8587/ 333 58004 60051;
0149827950999992005052512004-07217-035883FM-12+0560SBKG V0201401N002610075019N0100001N1+02451+01861101561ADDGF106991061021008001001001MA1999999095401MD1999999+0081REMSYN082AAXX  25124 82795 22597 61405 10245 20186 39540 40156 86200 333 20204 58008 60054;
0167827950999992005052518004-07217-035883FM-12+0560SBKG V0201401N003610120019N0100001N1+02431+02111101441ADDAA106000091GF108991051081008001011999MA1999999095281MD1999999+0201REMSYN070AAXX  25184 82795 32597 81407 10243 20211 39528 40144 8581/ 333 58020;EQDQ01  00002PRCP06
0185827950999992005052600004-07217-035883FM-12+0560SBKG V0201401N003110120019N0010001N1+02271+02161101581ADDAA106000091GF107991061081008001051001MA1999999095421MD1999999+0121REMSYN088AAXX  26004 82795 32594 71406 10227 20216 39542 40158 86850 333 10281 29085 55045 58012;EQDQ01  00002PRCP06
0173827950999992005052612004-07217-035883FM-12+0560SBKG V0201401N003610075019N0100001N1+02401+02111101771ADDAA106000091GF106991061021008001001001MA1999999095591MD1999999+0191REMSYN076AAXX  26124 82795 32597 61407 10240 20211 39559 40177 86200 333 20213 58019;EQDQ01  00002PRCP06
0167827950999992005052618004-07217-035883FM-12+0560SBKG V0201401N004610120019N0100001N1+02611+02141101481ADDAA106000091GF105991051081008001001001MA1999999095341MD1999999+0111REMSYN070AAXX  26184 82795 32597 51409 10261 20214 39534 40148 85800 333 58011;EQDQ01  00002PRCP06
0185827950999992005052700004-07217-035883FM-12+0560SBKG V0201401N004610075019N0010001N1+02321+02201101661ADDAA106000091GF106991061021008001001001MA1999999095501MD1999999+0081REMSYN088AAXX  27004 82795 32594 61409 10232 20220 39550 40166 86200 333 10227 29086 55074 58008;EQDQ01  00002PRCP06
0173827950999992005052712004-07217-035883FM-12+0560SBKG V0201801N003110075019N0100001N1+02421+02071101721ADDAA106000091GF105991051021008001001001MA1999999095551MD1999999-0041REMSYN076AAXX  27124 82795 32597 51806 10242 20207 39555 40172 85200 333 20215 59004;EQDQ01  00002PRCP06
0167827950999992005052718004-07217-035883FM-12+0560SBKG V0201401N005112200019N0100001N1+02931+02061101341ADDAA106000091GF104991041041008001001001MA1999999095241MD1999999-0101REMSYN070AAXX  27184 82795 32597 41410 10293 20206 39524 40134 84400 333 59010;EQDQ01  00002PRCP06
0185827950999992005052800004-07217-035883FM-12+0560SBKG V0201401N002612200019N0100001N1+02271+01981101661ADDAA106000091GF102991021011008001001001MA1999999095501MD1999999+0001REMSYN088AAXX  28004 82795 32597 21405 10227 20198 39550 40166 82100 333 10288 29078 55074 58000;EQDQ01  00002PRCP06
0177827950999992005052812004-07217-035883FM-12+0560SBKG V0201401N003610075019N0100001N1+02241+02101101671ADDAY161061AY251061GF108991081071008001999999MA1999999095481MD1999999-0071MW1021REMSYN088AAXX  28124 82795 21597 81407 10224 20210 39548 40167 70265 887// 333 20203 59007 60044;
0167827950999992005052818004-07217-035883FM-12+0560SBKG V0201401N004112200019N0100001N1+02731+01951101321ADDAA106000091GF104991041021008001001001MA1999999095191MD1999999-0051REMSYN070AAXX  28184 82795 32597 41408 10273 20195 39519 40132 84200 333 59005;EQDQ01  00002PRCP06
0185827950999992005052900004-07220-035880FM-12+0548SBKG V0201401N002110075019N0010001N1+02221+01991101541ADDAA106000091GF106991061021008001001001MA1999999095341MD1999999-0161REMSYN088AAXX  29004 82795 32594 61404 10222 20199 39534 40154 86200 333 10278 29082 55059 59016;EQDQ01  00002PRCP06
0173827950999992005052912004-07220-035880FM-12+0548SBKG V0201401N005110075019N0100001N1+02291+02011101571ADDAA106000091GF107991071071008001001001MA1999999095391MD1999999-0091REMSYN076AAXX  29124 82795 32597 71410 10229 20201 39539 40157 87700 333 20199 59009;EQDQ01  00002PRCP06
0181827950999992005052915004-07220-035880FM-15+0548SBKG V0201601N00511006001CN0112651N1+02601+01901999999ADDGA1075+006001999GF107991999999999999999999MA1101591999999REMMET045SBKG 291500Z 16010KT 9999 BKN020 26/19 Q1016;EQDQ01+000000PRSWM1Q02+000000PRSWM2Q03+000000PRSWM3Q04+000000PRSWM4
0171827950999992005052918004-07220-035880FM-12+0548SBKG V0201401N003110075019N0100001N1+02471+02091101261ADDAY161061AY221061GF108991081071008001999999MA1999999095101MD1999999-0091MW1211REMSYN082AAXX  29184 82795 21597 81406 10247 20209 39510 40126 72162 887// 333 59009 69911;
0202827950999992005053000004-07217-035883FM-12+0560SBKG V0201801N001510042019N0005001N1+02121+02071101511ADDAY161061AY221061GF108991081071004501999999KA1240M+02591MA1999999095321MD1999999-0021MW1601REMSYN100AAXX  30004 82795 21493 81803 10212 20207 39532 40151 76062 887// 333 10259 29090 55014 59002 60031;
0190827950999992005053012004-07217-035883FM-12+0560SBKG V0201401N003110042019N0010001N1+02161+02161101671ADDAY161061AY251061GF108991051071004501021999KA1240N+01931MA1999999095481MD1999999+0091MW1611REMSYN088AAXX  30124 82795 21494 81406 10216 20216 39548 40167 76165 8572/ 333 20193 58009 60354;
0171827950999992005053018004-07217-035883FM-12+0560SBKG V0201401N003610450019N0100001N1+02291+02161101531ADDAY161061AY221061GF106991041071008001021001MA1999999095331MD1999999+0231MW1161REMSYN082AAXX  30184 82795 21597 61407 10229 20216 39533 40153 71662 84720 333 58023 60061;
0202827950999992005053100004-07217-035883FM-12+0560SBKG V0201401N001510042019N0010001N1+02141+02091101621ADDAY161061AY221061GF108991081061004501999999KA1240M+02401MA1999999095411MD1999999+0091MW1021REMSYN100AAXX  31004 82795 21494 81403 10214 20209 39541 40162 70262 886// 333 10240 29096 55008 58009 60021;
0190827950999992005053112004-07217-035883FM-12+0560SBKG V0201401N003610075019N0100001N1+02291+01841101601ADDAY161061AY221061GF106991061021008001001001KA1240N+01901MA1999999095401MD1999999-0081MW1021REMSYN088AAXX  31124 82795 21597 61407 10229 20184 39540 40160 70262 86200 333 20190 59008 60104;
0171827950999992005053118004-07217-035883FM-12+0560SBKG V0200901N002610450019N0100001N1+02341+02241101361ADDAY161061AY221061GF106991041071008001021001MA1999999095181MD1999999-0151MW1141REMSYN082AAXX  31184 82795 21597 60905 10234 20224 39518 40136 71462 84720 333 59015 60041;
0189827950999992005060100004-07217-035883FM-12+0560SBKG V0201401N002610042019N0010001N1+02161+02111101691ADDAY161061AY221061GF108991081031004501999999MA1999999095421MD1999999+0011MW1211REMSYN100AAXX  01004 82795 21494 81405 10216 20211 39542 40169 72162 883// 333 10260 29094 55021 58001 60041;
0177827950999992005060112004-07217-035883FM-12+0560SBKG V0201801N005110042019N0020001N1+02191+02061101631ADDAY161061AY251061GF108991051071004501021999MA1999999095421MD1999999+0021MW1601REMSYN088AAXX  01124 82795 21495 81810 10219 20206 39542 40163 76065 8572/ 333 20203 58002 60274;
0171827950999992005060118004-07217-035883FM-12+0560SBKG V0201401N003610450019N0100001N1+02371+02091101231ADDAY161061AY221061GF107991031071008001051001MA1999999095051MD1999999-0131MW1021REMSYN082AAXX  01184 82795 21597 71407 10237 20209 39505 40123 70262 83750 333 59013 60021;
0189827950999992005060200004-07217-035883FM-12+0560SBKG V0201401N001510075019N0010001N1+02161+02091101511ADDAY161061AY221061GF108991081031008001999999MA1999999095311MD1999999-0111MW1021REMSYN100AAXX  02004 82795 21594 81403 10216 20209 39531 40151 70262 883// 333 10242 29098 55002 59011 69951;
0177827950999992005060212004-07217-035883FM-12+0560SBKG V0201401N002610042019N0020001N1+02241+02141101511ADDAY161061AY251061GF108991061071004501021999MA1999999095321MD1999999-0011MW1601REMSYN088AAXX  02124 82795 21495 81405 10224 20214 39532 40151 76065 8672/ 333 20203 59001 60054;
0171827950999992005060218004-07217-035883FM-12+0560SBKG V0201401N005110042019N0020001N1+02131+02041101361ADDAY161061AY251061GF108991081071004501999999MA1999999095161MD1999999+0111MW1501REMSYN082AAXX  02184 82795 21495 81410 10213 20204 39516 40136 75065 887// 333 58011 60161;
0189827950999992005060300004-07217-035883FM-12+0560SBKG V0201401N001510450019N0010001N1+02101+02001101601ADDAY161061AY251061GF108991031071004501021999MA1999999095391MD1999999+0081MW1021REMSYN100AAXX  03004 82795 21494 81403 10210 20200 39539 40160 70265 8372/ 333 10227 29094 55000 58008 60031;
0177827950999992005060312004-07217-035883FM-12+0560SBKG V0201801N003110075019N0100001N1+02271+02011101621ADDAY161061AY251061GF107991071061008001001001MA1999999095411MD1999999+0091MW1021REMSYN088AAXX  03124 82795 21597 71806 10227 20201 39541 40162 70265 87600 333 20198 58009 60254;
0195827950999992005060318004-07217-035883FM-12+0560SBKG V0201401N002610075019N0040001N1+02231+02081101411ADDAA106000091AY121061AY221061GF108991081071008001999999MA1999999095201MD1999999+0041MW1151REMSYN076AAXX  03184 82795 31596 81405 10223 20208 39520 40141 71522 887// 333 58004;EQDQ01  00002PRCP06
0189827950999992005060400004-07217-035883FM-12+0560SBKG V0201401N000510075019N0010001N1+02091+01981101621ADDAY161061AY221061GF108991081061008001999999MA1999999095411MD1999999+0021MW1021REMSYN100AAXX  04004 82795 21594 81401 10209 20198 39541 40162 70262 886// 333 10248 29092 55001 58002 69921;
0149827950999992005060412004-07220-035880FM-12+0548SBKG V0201401N002110450019N0100001N1+02231+02031101531ADDGF107991041051008001021001MA1999999095331MD1999999+0011REMSYN082AAXX  04124 82795 22597 71404 10223 20203 39533 40153 84520 333 20189 58001 69924;
0171827950999992005060418004-07220-035880FM-12+0548SBKG V0201401N003110075019N0100001N1+02181+02031101411ADDAY161061AY221061GF108991081071008001999999MA1999999095231MD1999999+0031MW1021REMSYN082AAXX  04184 82795 21597 81406 10218 20203 39523 40141 70262 887// 333 58003 60021;
0185827950999992005060500004-07220-035880FM-12+0548SBKG V0201801N003112200019N0010001N1+02111+01951101521ADDAA106000091GF103991031021999999001001MA1999999095321MD1999999+0101REMSYN088AAXX  05004 82795 32994 31806 10211 20195 39532 40152 83200 333 10228 29090 55008 58010;EQDQ01  00002PRCP06
0194827950999992005060512004-07217-035883FM-12+0560SBKG V0201401N002610075019N0100001N1+02221+02081101571ADDAA124006091AY161061AY221061GF108991081071008001999999MA1999999095361MD1999999+0031MW1021REMSYN094AAXX  05124 82795 21597 81405 10222 20208 39536 40157 70262 887// 333 20200 58003 60064 10058;
0171827950999992005060518004-07217-035883FM-12+0560SBKG V0201401N004110450019N0100001N1+02201+02081101291ADDAY161061AY221061GF108991041081008001051001MA1999999095101MD1999999-0131MW1021REMSYN082AAXX  05184 82795 21597 81408 10220 20208 39510 40129 70262 84850 333 59013 60011;
0149827950999992005060612004-07217-035883FM-12+0560SBKG V0201801N003610075019N0100001N1+02101+01951101601ADDGF108991051071008001011999MA1999999095381MD1999999+0021REMSYN082AAXX  06124 82795 22597 81807 10210 20195 39538 40160 8571/ 333 20293 58002 60014;
0171827950999992005060618004-07217-035883FM-12+0560SBKG V0201401N003610075019N0100001N1+02211+02031101391ADDAY151061AY221061GF108991051051008001021999MA1999999095181MD1999999+0081MW1021REMSYN082AAXX  06184 82795 21597 81407 10221 20203 39518 40139 70252 8552/ 333 58008 69951;
0189827950999992005060700004-07217-035883FM-12+0560SBKG V0201401N001010042019N0010001N1+02061+02011101591ADDAY161061AY221061GF108991081071004501999999MA1999999095351MD1999999-0051MW1021REMSYN100AAXX  07004 82795 21494 81402 10206 20201 39535 40159 70262 887// 333 10235 29095 55001 59005 60041;
0149827950999992005060712004-07217-035883FM-12+0560SBKG V0201401N004110075019N0100001N1+02231+01921101581ADDGF108991999071008001011999MA1999999095341MD1999999-0041REMSYN082AAXX  07124 82795 22597 81408 10223 20192 39534 40158 8871/ 333 20193 59004 60044;
0171827950999992005060718004-07217-035883FM-12+0560SBKG V0201401N003110075019N0100001N1+02131+02071101361ADDAY161061AY251061GF108991081071008001999999MA1999999095141MD1999999-0041MW1511REMSYN082AAXX  07184 82795 21597 81406 10213 20207 39514 40136 75165 887// 333 59004 60021;
0189827950999992005060800004-07217-035883FM-12+0560SBKG V0201401N004110042019N0010001N1+02111+02021101541ADDAY161061AY251061GF108991081071004501999999MA1999999095331MD1999999-0021MW1021REMSYN100AAXX  08004 82795 21494 81408 10211 20202 39533 40154 70265 887// 333 10238 29094 55000 59002 60031;
0171827950999992005060818004-07217-035883FM-12+0560SBKG V0201401N002610075019N0100001N1+02301+02131101391ADDAY161061AY221061GF107991051071008001999999MA1999999095181MD1999999+0041MW1021REMSYN082AAXX  08184 82795 21597 71405 10230 20213 39518 40139 70262 857// 333 58004 60021;
0171827950999992005060918004-07217-035883FM-12+0560SBKG V0201401N005110450019N0100001N1+02421+02031101491ADDAY151061AY221061GF106991031031008001041011MA1999999095331MD1999999+0151MW1021REMSYN082AAXX  09184 82795 21597 61410 10242 20203 39533 40149 70252 83341 333 58015 69921;
0185827950999992005061000004-07217-035883FM-12+0560SBKG V0201401N001512200019N0010001N1+02041+01851101751ADDAA106000091GF102991021041008001001001MA1999999095521MD1999999+0101REMSYN088AAXX  10004 82795 32594 21403 10204 20185 39552 40175 82400 333 10259 29086 55026 58010;EQDQ01  00002PRCP06
0149827950999992005061012004-07217-035883FM-12+0560SBKG V0201801N003110075019N0100001N1+02151+01921101731ADDGF108991081071008001999999MA1999999095501MD1999999-0041REMSYN082AAXX  10124 82795 22597 81806 10215 20192 39550 40173 887// 333 20179 59004 69924;
0171827950999992005061018004-07217-035883FM-12+0560SBKG V0201401N002110075019N0100001N1+02341+02111101441ADDAY151061AY221061GF107991071071008001001001MA1999999095231MD1999999-0101MW1161REMSYN082AAXX  10184 82795 21597 71404 10234 20211 39523 40144 71652 87700 333 59010 69911;
0189827950999992005061100004-07217-035883FM-12+0560SBKG V0201401N001510042019N0010001N1+02131+02041101671ADDAY151061AY221061GF108991081071004501999999MA1999999095451MD1999999-0071MW1021REMSYN100AAXX  11004 82795 21494 81403 10213 20204 39545 40167 70252 887// 333 10252 29090 55017 59007 69921;
0177827950999992005061112004-07217-035883FM-12+0560SBKG V0201401N002610075019N0100001N1+02151+02051101661ADDAY161061AY251061GF108991081071008001999999MA1999999095421MD1999999-0081MW1021REMSYN088AAXX  11124 82795 21597 81405 10215 20205 39542 40166 70265 887// 333 20190 59008 69114;
0171827950999992005061118004-07217-035883FM-12+0560SBKG V0201401N003610042019N0005001N1+02111+02071101511ADDAY161061AY221061GF108991081071004501999999MA1999999095271MD1999999+0041MW1601REMSYN082AAXX  11184 82795 21493 81407 10211 20207 39527 40151 76062 887// 333 58004 60031;
0189827950999992005061200004-07220-035880FM-12+0548SBKG V0201401N003110075019N0010001N1+02121+02071101621ADDAY161061AY221061GF108991081061008001999999MA1999999095411MD1999999-0041MW1021REMSYN100AAXX  12004 82795 21594 81406 10212 20207 39541 40162 70262 886// 333 10233 29095 55000 59004 69921;
0177827950999992005061212004-07220-035880FM-12+0548SBKG V0201401N003610075019N0100001N1+02181+02061101721ADDAY161061AY251061GF108991081071008001999999MA1999999095501MD1999999+0081MW1021REMSYN088AAXX  12124 82795 21597 81407 10218 20206 39550 40172 70265 887// 333 20196 58008 60084;
0171827950999992005061218004-07220-035880FM-12+0548SBKG V0201401N004610450019N0100001N1+02491+02151101341ADDAY161061AY221061GF107991031061008001071001MA1999999095171MD1999999-0101MW1011REMSYN082AAXX  12184 82795 21597 71409 10249 20215 39517 40134 70162 83670 333 59010 60011;
0177827950999992005061312004-07217-035883FM-12+0560SBKG V0201801N002110042019N0020001N1+02201+02081101641ADDAY161061AY251061GF108991051071004501021999MA1999999095421MD1999999-0081MW1511REMSYN088AAXX  13124 82795 21495 81804 10220 20208 39542 40164 75165 8572/ 333 20193 59008 60024;
0171827950999992005061318004-07217-035883FM-12+0560SBKG V0201401N003610075019N0100001N1+02371+02111101341ADDAY161061AY221061GF107991071071008001001001MA1999999095161MD1999999-0011MW1021REMSYN082AAXX  13184 82795 21597 71407 10237 20211 39516 40134 70262 87700 333 59001 60051;
0189827950999992005061400004-07217-035883FM-12+0560SBKG V0201401N002110075019N0010001N1+02181+02101101581ADDAY161061AY221061GF108991081061008001999999MA1999999095381MD1999999+0061MW1021REMSYN100AAXX  14004 82795 21594 81404 10218 20210 39538 40158 70262 886// 333 10241 29092 55008 58006 60011;
0177827950999992005061412004-07217-035883FM-12+0560SBKG V0200901N002610075019N0100001N1+02331+02151101641ADDAY161061AY221061GF108991081071008001999999MA1999999095451MD1999999+0031MW1021REMSYN088AAXX  14124 82795 21597 80905 10233 20215 39545 40164 70262 887// 333 20203 58003 60074;
0171827950999992005061418004-07217-035883FM-12+0560SBKG V0201401N005110120019N0020001N1+02111+02031101541ADDAY161061AY261061GF108991081081008001999999MA1999999095321MD1999999+0161MW1651REMSYN082AAXX  14184 82795 21595 81410 10211 20203 39532 40154 76566 888// 333 58016 60301;
0189827950999992005061500004-07217-035883FM-12+0560SBKG V0201401N001510042019N0010001N1+02101+02051101761ADDAY161061AY261061GF108991081071004501999999MA1999999095551MD1999999+0171MW1211REMSYN100AAXX  15004 82795 21494 81403 10210 20205 39555 40176 72166 887// 333 10234 29095 55004 58017 60101;
0171827950999992005061518004-07217-035883FM-12+0560SBKG V0201401N002610120019N0100001N1+02511+02111101531ADDAY151061AY221061GF105991051081008001001001MA1999999095361MD1999999+0041MW1021REMSYN082AAXX  15184 82795 21597 51405 10251 20211 39536 40153 70252 85800 333 58004 69991;
0185827950999992005061600004-07217-035883FM-12+0560SBKG V0200901N002610075019N0010001N1+02201+02101101651ADDAA106000091GF108991081061008001999999MA1999999095451MD1999999-0101REMSYN088AAXX  16004 82795 32594 80905 10220 20210 39545 40165 886// 333 10256 29090 55025 59010;EQDQ01  00002PRCP06
0167827950999992005061618004-07217-035883FM-12+0560SBKG V0201401N002112200019N0100001N1+02631+02021101481ADDAA106000091GF104991041041008001001001MA1999999095321MD1999999-0041REMSYN070AAXX  16184 82795 32597 41404 10263 20202 39532 40148 84400 333 59004;EQDQ01  00002PRCP06
0185827950999992005061700004-07217-035883FM-12+0560SBKG V0200901N001512200019N0010001N1+02211+02011101641ADDAA106000091GF103991031021008001001001MA1999999095451MD1999999+0001REMSYN088AAXX  17004 82795 32594 30903 10221 20201 39545 40164 83200 333 10266 29084 55082 58000;EQDQ01  00002PRCP06
0177827950999992005061712004-07217-035883FM-12+0560SBKG V0202301N001510042019N0040001N1+02201+02121101711ADDAY161061AY251061GF108991081071004501999999MA1999999095511MD1999999+0011MW1501REMSYN088AAXX  17124 82795 21496 82303 10220 20212 39551 40171 75065 887// 333 20200 58001 60024;
0171827950999992005061718004-07217-035883FM-12+0560SBKG V0201401N001510120019N0100001N1+02611+02171101281ADDAY151061AY221061GF106991061081008001001001MA1999999095141MD1999999-0181MW1021REMSYN082AAXX  17184 82795 21597 61403 10261 20217 39514 40128 70252 86800 333 59018 69921;
0189827950999992005061800004-07217-035883FM-12+0560SBKG V0201401N002110042019N0005001N1+02281+02171101611ADDAY161061AY221061GF108991081031004501999999MA1999999095411MD1999999-0041MW1501REMSYN100AAXX  18004 82795 21493 81404 10228 20217 39541 40161 75062 883// 333 10269 29092 55021 59004 60081;
0177827950999992005061812004-07217-035883FM-12+0560SBKG V0201401N004110021019N0010001N1+02171+02101101761ADDAY161061AY251061GF108991051071002501021999MA1999999095551MD1999999+0041MW1611REMSYN088AAXX  18124 82795 21394 81408 10217 20210 39555 40176 76165 8572/ 333 20206 58004 60164;
0171827950999992005061818004-07217-035883FM-12+0560SBKG V0200901N001510042019N0040001N1+02261+02071101561ADDAY161061AY261061GF108991051071004501071999MA1999999095351MD1999999+0021MW1501REMSYN082AAXX  18184 82795 21496 80903 10226 20207 39535 40156 75066 8577/ 333 58002 60131;
0189827950999992005061900004-07220-035880FM-12+0548SBKG V0202301N000510042019N0010001N1+02021+01951101691ADDAY161061AY251061GF108991081071004501999999MA1999999095461MD1999999+0051MW1021REMSYN100AAXX  19004 82795 21494 82301 10202 20195 39546 40169 70265 887// 333 10228 29094 55000 58005 69961;
0168827950999992005061912004-07220-035880FM-12+0548SBKG V0201401N004119999999N0100001N1+02271+02011101771ADDGF106991999021008001001001MA1999999095551MD1999999+0001REMSYN082AAXX  19124 82795 22597 61408 10227 20201 39555 40177 88200 333 20193 58000 60144;EQDQ01+000082SCOTLC
0185827950999992005062000004-07220-035880FM-12+0548SBKG V0200901N001512200019N0010001N1+02221+02081101651ADDAA106000091GF102991021021008001001001MA1999999095461MD1999999+0001REMSYN088AAXX  20004 82795 32594 20903 10222 20208 39546 40165 82200 333 10265 29086 55082 58000;EQDQ01  00002PRCP06
0177827950999992005062012004-07220-035880FM-12+0548SBKG V0200901N001510042019N0100001N1+02301+02091101741ADDAY161061AY251061GF107991071071004501001001MA1999999095541MD1999999-0011MW1021REMSYN088AAXX  20124 82795 21497 70903 10230 20209 39554 40174 70265 87700 333 20203 59001 60234;
0171827950999992005062018004-07217-035883FM-12+0560SBKG V0201401N003110075019N0100001N1+02391+02071101461ADDAY151061AY221061GF106991061071008001001001MA1999999095271MD1999999-0021MW1021REMSYN082AAXX  20184 82795 21597 61406 10239 20207 39527 40146 70252 86700 333 59002 69921;
0185827950999992005062100004-07217-035883FM-12+0560SBKG V0200901N002610450019N0010001N1+02151+02061101701ADDAA106000091GF106991031021008001051001MA1999999095501MD1999999+0041REMSYN088AAXX  21004 82795 32594 60905 10215 20206 39550 40170 83250 333 10249 29090 55019 58004;EQDQ01  00002PRCP06
0177827950999992005062112004-07217-035883FM-12+0560SBKG V0201401N003610075019N0100001N1+02241+02161101791ADDAY161061AY221061GF107991071061008001001001MA1999999095581MD1999999+0041MW1021REMSYN088AAXX  21124 82795 21597 71407 10224 20216 39558 40179 70262 87600 333 20203 58004 60044;
0171827950999992005062118004-07217-035883FM-12+0560SBKG V0201401N003611050019N0100001N1+02581+01971101421ADDAY151061AY221061GF105991011041008001051011MA1999999095271MD1999999+0001MW1021REMSYN082AAXX  21184 82795 21597 51407 10258 20197 39527 40142 70252 81451 333 58000 69931;
0177827950999992005062212004-07217-035883FM-12+0560SBKG V0201401N004110075019N0040001N1+02221+01991101751ADDAY161061AY221061GF107991071071008001001001MA1999999095531MD1999999-0051MW1551REMSYN088AAXX  22124 82795 21596 71408 10222 20199 39553 40175 75562 87700 333 20195 59005 69934;
0185827950999992005062300004-07217-035883FM-12+0560SBKG V0201401N002610075019N0010001N1+02161+01951101691ADDAA106000091GF106991061021008001001001MA1999999095491MD1999999+0031REMSYN088AAXX  23004 82795 32594 61405 10216 20195 39549 40169 86200 333 10264 29083 55066 58003;EQDQ01  00002PRCP06
0149827950999992005062312004-07217-035883FM-12+0560SBKG V0200901N001510075019N0100001N1+02121+01911101831ADDGF108991081071008001999999MA1999999095631MD1999999+0101REMSYN082AAXX  23124 82795 22597 80903 10212 20191 39563 40183 887// 333 20186 58010 69954;
0171827950999992005062318004-07217-035883FM-12+0560SBKG V0201401N003110075019N0040001N1+02121+01971101601ADDAY161061AY221061GF108991081071008001999999MA1999999095341MD1999999+0101MW1021REMSYN082AAXX  23184 82795 21596 81406 10212 20197 39534 40160 70262 887// 333 58010 60021;
0177827950999992005062412004-07217-035883FM-12+0560SBKG V0201801N003110075019N0100001N1+02191+01971101771ADDAY161061AY221061GF107991071071008001001001MA1999999095551MD1999999-0081MW1021REMSYN088AAXX  24124 82795 21597 71806 10219 20197 39555 40177 70262 87700 333 20198 59008 60034;
0171827950999992005062418004-07217-035883FM-12+0560SBKG V0201401N003110120019N0100001N1+02041+01971101551ADDAY161061AY221061GF108991051081008001021999MA1999999095311MD1999999-0031MW1021REMSYN082AAXX  24184 82795 21597 81406 10204 20197 39531 40155 70262 8582/ 333 59003 60041;
0189827950999992005062500004-07217-035883FM-12+0560SBKG V0201401N002110042019N0002001N1+02081+02031101691ADDAY161061AY221061GF108991081071004501999999MA1999999095471MD1999999-0021MW1601REMSYN100AAXX  25004 82795 21492 81404 10208 20203 39547 40169 76062 887// 333 10257 29094 55027 59002 60021;
0177827950999992005062512004-07217-035883FM-12+0560SBKG V0201401N001510075019N0100001N1+02311+01961101661ADDAY161061AY221061GF105991051051008001001001MA1999999095461MD1999999-0111MW1021REMSYN088AAXX  25124 82795 21597 51403 10231 20196 39546 40166 70262 85500 333 20194 59011 60074;
0167827950999992005062518004-07217-035883FM-12+0560SBKG V0201401N003112200019N0100001N1+02581+01791101361ADDAA106000091GF102991021011008001001001MA1999999095191MD1999999-0121REMSYN070AAXX  25184 82795 32597 21406 10258 20179 39519 40136 82100 333 59012;EQDQ01  00002PRCP06
0185827950999992005062600004-07220-035880FM-12+0548SBKG V0200901N001510075019N0010001N1+02141+01971101561ADDAA106000091GF105991051061008001001001MA1999999095421MD1999999-0051REMSYN088AAXX  26004 82795 32594 50903 10214 20197 39542 40156 85600 333 10262 29080 55070 59005;EQDQ01  00002PRCP06
0201827950999992005062612004-07220-035880FM-12+0548SBKG V0201401N001510075019N0100001N1+02151+01971101711ADDAA106000091AY121061AY221061GF108991081071008001999999MA1999999095491MD1999999+0031MW1151REMSYN082AAXX  26124 82795 31597 81403 10215 20197 39549 40171 71522 887// 333 20194 58003;EQDQ01  00002PRCP06
0171827950999992005062618004-07220-035880FM-12+0548SBKG V0201401N002610075019N0100001N1+02401+02011101471ADDAY161061AY221061GF108991081071008001999999MA1999999095281MD1999999+0091MW1021REMSYN082AAXX  26184 82795 21597 81405 10240 20201 39528 40147 70262 887// 333 58009 60011;
0208827950999992005062700004-07217-035883FM-12+0560SBKG V0201401N001512200019N0010001N1+02031+01851101611ADDAA106000091GA1001+999999999GF100991001001999999001001KA1240M+02701MA1999999095371MD1999999-0051REMSYN082AAXX  27004 82795 32994 01403 10203 20185 39537 40161 333 10270 29087 55010 59005;EQDQ01  00002PRCP06
0162827950999992005062712004-07217-035883FM-12+0560SBKG V0201801N003110075019N0100001N1+02311+01961101721ADDGF106991061021008001001001KA1240N+01811MA1999999095501MD1999999+0011REMSYN082AAXX  27124 82795 22597 61806 10231 20196 39550 40172 86200 333 20181 58001 60014;
0171827950999992005062718004-07217-035883FM-12+0560SBKG V0201401N003110120019N0100001N1+02331+01941101511ADDAY151061AY221061GF107991051081008001021001MA1999999095311MD1999999+0031MW1021REMSYN082AAXX  27184 82795 21597 71406 10233 20194 39531 40151 70252 85820 333 58003 69911;
0198827950999992005062800004-07217-035883FM-12+0560SBKG V0201401N002610075019N0010001N1+02141+01991101701ADDAA106000091GF107991051021008001051001KA1240M+02431MA1999999095501MD1999999+0131REMSYN088AAXX  28004 82795 32594 71405 10214 20199 39550 40170 85250 333 10243 29086 55035 58013;EQDQ01  00002PRCP06
0190827950999992005062812004-07217-035883FM-12+0560SBKG V0201801N003110075019N0100001N1+02251+01941101761ADDAY161061AY221061GF106991061061008001001001KA1240N+01811MA1999999095541MD1999999+0041MW1021REMSYN088AAXX  28124 82795 21597 61806 10225 20194 39554 40176 70262 86600 333 20181 58004 60014;
0171827950999992005062818004-07217-035883FM-12+0560SBKG V0201401N003610075019N0040001N1+02031+01971101631ADDAY161061AY251061GF108991081071008001999999MA1999999095371MD1999999+0061MW1501REMSYN082AAXX  28184 82795 21596 81407 10203 20197 39537 40163 75065 887// 333 58006 60111;
0202827950999992005062900004-07217-035883FM-12+0560SBKG V0201401N002619999999N0010001N1+02021+01851101711ADDAY161061AY251061GF106991031001008001051021KA1240M+02331MA1999999095491MD1999999-0011MW1011REMSYN100AAXX  29004 82795 21594 61405 10202 20185 39549 40171 70165 83052 333 10233 29090 55003 59001 69911;
0190827950999992005062912004-07217-035883FM-12+0560SBKG V0201401N005710075019N0100001N1+02291+01921101721ADDAY161061AY221061GF106991061061008001001001KA1240N+01901MA1999999095501MD1999999-0041MW1021REMSYN088AAXX  29124 82795 21597 61411 10229 20192 39550 40172 70262 86600 333 20190 59004 60204;
0167827950999992005062918004-07217-035883FM-12+0560SBKG V0201401N004610075019N0100001N1+02441+01961101481ADDAA106000091GF105991051031008001001001MA1999999095291MD1999999-0081REMSYN070AAXX  29184 82795 32597 51409 10244 20196 39529 40148 85300 333 59008;EQDQ01  00002PRCP06
0198827950999992005063000004-07217-035883FM-12+0560SBKG V0201401N002610075019N0010001N1+02031+01851101681ADDAA106000091GF106991061021008001001001KA1240M+02601MA1999999095461MD1999999-0031REMSYN088AAXX  30004 82795 32594 61405 10203 20185 39546 40168 86200 333 10260 29082 55070 59003;EQDQ01  00002PRCP06
0190827950999992005063012004-07217-035883FM-12+0560SBKG V0201401N003610042019N0040001N1+02141+02001101751ADDAY161061AY221061GF108991081071004501999999KA1240N+01811MA1999999095511MD1999999+0011MW1601REMSYN088AAXX  30124 82795 21496 81407 10214 20200 39551 40175 76062 887// 333 20181 58001 69924;
0171827950999992005063018004-07217-035883FM-12+0560SBKG V0201401N004612200019N0100001N1+02391+01911101441ADDAY151061AY221061GF104991041031008001001001MA1999999095231MD1999999-0061MW1021REMSYN082AAXX  30184 82795 21597 41409 10239 20191 39523 40144 70252 84300 333 59006 69971;
0171827950999992005070118004-07217-035883FM-12+0560SBKG V0200501N001510450019N0100001N1+02171+02041101521ADDAY161061AY221061GF107991041071008001021001MA1999999095321MD1999999+0091MW1021REMSYN082AAXX  01184 82795 21597 70503 10217 20204 39532 40152 70262 84720 333 58009 60011;
0189827950999992005070200004-07217-035883FM-12+0548SBKG V0202301N001510042019N0005001N1+02061+02011101821ADDAY151061AY221061GF108991081071004501999999MA1999999095571MD1999999+0131MW1501REMSYN100AAXX  02004 82795 21493 82303 10206 20201 39557 40182 75052 887// 333 10230 29096 55009 58013 60011;
0149827950999992005070212004-07217-035883FM-12+0548SBKG V0201801N002610075019N0100001N1+02201+01921101881ADDGF105991051021008001001001MA1999999095641MD1999999+0081REMSYN082AAXX  02124 82795 22597 51805 10220 20192 39564 40188 85200 333 20174 58008 60024;
0167827950999992005070218004-07217-035883FM-12+0548SBKG V0201801N002610075019N0100001N1+02511+02071101601ADDAA106000091GF107991051021008001061001MA1999999095391MD1999999+0071REMSYN070AAXX  02184 82795 32597 71805 10251 20207 39539 40160 85260 333 58007;EQDQ01  00002PRCP06
0189827950999992005070300004-07220-035880FM-12+0548SBKG V0201401N002610075019N0010001N1+02121+02021101871ADDAY161061AY221061GF108991081061008001999999MA1999999095641MD1999999+0071MW1021REMSYN100AAXX  03004 82795 21594 81405 10212 20202 39564 40187 70262 886// 333 10253 29087 55053 58007 69931;
0177827950999992005070312004-07220-035880FM-12+0548SBKG V0201401N004110075019N0100001N1+02181+02041101891ADDAY161061AY251061GF108991081071008001999999MA1999999095661MD1999999+0021MW1501REMSYN088AAXX  03124 82795 21597 81408 10218 20204 39566 40189 75065 887// 333 20200 58002 60024;
0171827950999992005070318004-07220-035880FM-12+0548SBKG V0201401N003610042019N0040001N1+02341+02131101581ADDAY161061AY251061GF108991081071004501999999MA1999999095341MD1999999-0021MW1501REMSYN082AAXX  03184 82795 21496 81407 10234 20213 39534 40158 75065 887// 333 59002 60021;
0189827950999992005070400004-07217-035883FM-12+0548SBKG V0201401N001510075019N0010001N1+02071+01941101761ADDAY161061AY221061GF108991081061008001999999MA1999999095531MD1999999-0111MW1021REMSYN100AAXX  04004 82795 21594 81403 10207 20194 39553 40176 70262 886// 333 10239 29092 55001 59011 69961;
0171827950999992005070418004-07217-035883FM-12+0548SBKG V0201401N003612200019N0100001N1+02511+01871101461ADDAY151061AY221061GF104991041041008001001001MA1999999095271MD1999999-0101MW1021REMSYN082AAXX  04184 82795 21597 41407 10251 20187 39527 40146 70252 84400 333 59010 69961;
0185827950999992005070500004-07217-035883FM-12+0548SBKG V0200901N001512200019N0010001N1+02051+01871101761ADDAA106000091GF104991021021008001061001MA1999999095501MD1999999-0031REMSYN088AAXX  05004 82795 32594 40903 10205 20187 39550 40176 82260 333 10252 29086 55044 59003;EQDQ01  00002PRCP06
0149827950999992005070512004-07217-035883FM-12+0548SBKG V0201801N001010075019N0100001N1+02331+01751101791ADDGF105991051021008001001001MA1999999095581MD1999999+0001REMSYN082AAXX  05124 82795 22597 51802 10233 20175 39558 40179 85200 333 20173 58000 69964;
0185827950999992005070600004-07217-035883FM-12+0548SBKG V0200901N003110450019N0010001N1+02191+01781101811ADDAA106000091GF105991031021008001041001MA1999999095611MD1999999+0111REMSYN088AAXX  06004 82795 32594 50906 10219 20178 39561 40181 83240 333 10264 29080 55099 58011;EQDQ01  00002PRCP06
0173827950999992005070612004-07217-035883FM-12+0548SBKG V0201801N002110075019N0100001N1+02331+02011101881ADDAA106000091GF105991051021008001001001MA1999999094681MD1999999+0101REMSYN076AAXX  06124 82795 32597 51804 10233 20201 39468 40188 85200 333 20189 58010;EQDQ01  00002PRCP06
0167827950999992005070618004-07217-035883FM-12+0548SBKG V0201401N002110075019N0100001N1+02631+01881101591ADDAA106000091GF105991051031008001001001MA1999999095431MD1999999+0101REMSYN070AAXX  06184 82795 32597 51404 10263 20188 39543 40159 85300 333 58010;EQDQ01  00002PRCP06
0173827950999992005070712004-07217-035883FM-12+0548SBKG V0201801N003612200019N0100001N1+02251+01991101901ADDAA106000091GF106991041021008001001011MA1999999095681MD1999999+0001REMSYN076AAXX  07124 82795 32597 61807 10225 20199 39568 40190 84201 333 20195 58000;EQDQ01  00002PRCP06
0189827950999992005070800004-07217-035883FM-12+0548SBKG V0201401N002610042019N0005001N1+02101+02051101831ADDAY161061AY251061GF108991081071004501999999MA1999999095611MD1999999-0021MW1501REMSYN100AAXX  08004 82795 21493 81405 10210 20205 39561 40183 75065 887// 333 10258 29092 55047 59002 60021;
0149827950999992005070812004-07217-035883FM-12+0548SBKG V0201801N003610075019N0100001N1+02171+01881101931ADDGF106991061061008001001001MA1999999095691MD1999999-0011REMSYN082AAXX  08124 82795 22597 61807 10217 20188 39569 40193 86600 333 20189 59001 60044;
0179827950999992005070900004-07217-035883FM-12+0548SBKG V0201401N002612200019N0010001N1+02061+01891101921ADDAA106000091GF100991001001999999001001MA1999999095681MD1999999+0071REMSYN082AAXX  09004 82795 32994 01405 10206 20189 39568 40192 333 10246 29084 55016 58007;EQDQ01  00002PRCP06
0173827950999992005070912004-07217-035883FM-12+0548SBKG V0201801N003610075019N0100001N1+02171+01841101931ADDAA106000091GF106991061021008001001001MA1999999095691MD1999999+0001REMSYN076AAXX  09124 82795 32597 61807 10217 20184 39569 40193 86200 333 20178 58000;EQDQ01  00002PRCP06
0167827950999992005070918004-07217-035883FM-12+0548SBKG V0201401N004110450019N0100001N1+02511+01961101691ADDAA106000091GF107991041021008001071001MA1999999095471MD1999999-0021REMSYN070AAXX  09184 82795 32597 71408 10251 20196 39547 40169 84270 333 59002;EQDQ01  00002PRCP06
0189827950999992005071000004-07220-035880FM-12+0548SBKG V0201401N001510075019N0010001N1+02051+01961101921ADDAY161061AY221061GF107991051021008001071001MA1999999095681MD1999999+0001MW1021REMSYN100AAXX  10004 82795 21594 71403 10205 20196 39568 40192 70262 85270 333 10253 29087 55029 58000 60011;
0149827950999992005071012004-07220-035880FM-12+0548SBKG V0201801N004110075019N0100001N1+02131+01841101861ADDGF106991061061008001001001MA1999999095621MD1999999-0071REMSYN082AAXX  10124 82795 22597 61808 10213 20184 39562 40186 86600 333 20176 59007 60014;
0167827950999992005071018004-07220-035880FM-12+0548SBKG V0201801N004610075019N0100001N1+02571+01771101621ADDAA106000091GF106991051021008001061001MA1999999095421MD1999999-0051REMSYN070AAXX  10184 82795 32597 61809 10257 20177 39542 40162 85260 333 59005;EQDQ01  00002PRCP06
0185827950999992005071100004-07217-035883FM-12+0548SBKG V0201401N002612200019N0010001N1+02041+01851101841ADDAA106000091GF103991031021008001001001MA1999999095591MD1999999-0091REMSYN088AAXX  11004 82795 32594 31405 10204 20185 39559 40184 83200 333 10259 29080 55075 59009;EQDQ01  00002PRCP06
0177827950999992005071112004-07217-035883FM-12+0548SBKG V0201401N005710075019N0100001N1+02271+02011101921ADDAY161061AY221061GF107991071071008001001001MA1999999095691MD1999999+0071MW1021REMSYN088AAXX  11124 82795 21597 71411 10227 20201 39569 40192 70262 87700 333 20186 58007 60014;
0185827950999992005071200004-07217-035883FM-12+0548SBKG V0201401N002610075019N0010001N1+02011+01831101881ADDAA106000091GF106991061061008001001001MA1999999095651MD1999999+0061REMSYN088AAXX  12004 82795 32594 61405 10201 20183 39565 40188 86600 333 10247 29088 55013 58006;EQDQ01  00002PRCP06
0167827950999992005071218004-07217-035883FM-12+0548SBKG V0201401N005112200019N0100001N1+02481+01651101581ADDAA106000091GF103991031021008001001001MA1999999095381MD1999999-0021REMSYN070AAXX  12184 82795 32597 31410 10248 20165 39538 40158 83200 333 59002;EQDQ01  00002PRCP06
0179827950999992005071300004-07217-035883FM-12+0548SBKG V0201401N002112200019N0010001N1+01961+01761101841ADDAA106000091GF100991001001999999001001MA1999999095601MD1999999-0051REMSYN082AAXX  13004 82795 32994 01404 10196 20176 39560 40184 333 10257 29078 55096 59005;EQDQ01  00002PRCP06
0167827950999992005071318004-07217-035883FM-12+0548SBKG V0201401N001512200019N0100001N1+02531+01691101551ADDAA106000091GF104991011021008001001011MA1999999095341MD1999999-0041REMSYN070AAXX  13184 82795 32597 41403 10253 20169 39534 40155 81201 333 59004;EQDQ01  00002PRCP06
0185827950999992005071400004-07217-035883FM-12+0548SBKG V0201401N002110075019N0010001N1+02021+01831101811ADDAA106000091GF106991051021008001061001MA1999999095561MD1999999-0041REMSYN088AAXX  14004 82795 32594 61404 10202 20183 39556 40181 85260 333 10257 29079 55096 59004;EQDQ01  00002PRCP06
0167827950999992005071418004-07217-035883FM-12+0548SBKG V0201401N004611050019N0100001N1+02471+01781101501ADDAA106000091GF105991011031008001001021MA1999999095301MD1999999-0041REMSYN070AAXX  14184 82795 32597 51409 10247 20178 39530 40150 81302 333 59004;EQDQ01  00002PRCP06
0185827950999992005071500004-07217-035883FM-12+0548SBKG V0201401N002611050019N0010001N1+02041+01681101821ADDAA106000091GF105991031021008001001021MA1999999095581MD1999999+0021REMSYN088AAXX  15004 82795 32594 51405 10204 20168 39558 40182 83202 333 10260 29077 55077 58002;EQDQ01  00002PRCP06
0173827950999992005071512004-07217-035883FM-12+0548SBKG V0201401N004610450019N0100001N1+02141+01661101861ADDAA106000091GF106991031031008001041001MA1999999095611MD1999999+0021REMSYN076AAXX  15124 82795 32597 61409 10214 20166 39561 40186 83340 333 20185 58002;EQDQ01  00002PRCP06
0167827950999992005071518004-07217-035883FM-12+0548SBKG V0201401N003119999999N0100001N1+02391+01681101611ADDAA106000091GF107991071001008001071001MA1999999095401MD1999999+0101REMSYN070AAXX  15184 82795 32597 71406 10239 20168 39540 40161 87070 333 58010;EQDQ01  00002PRCP06
0179827950999992005071600004-07217-035883FM-12+0548SBKG V0201401N003112200019N0010001N1+01931+01701101901ADDAA106000091GF100991001001999999001001MA1999999095631MD1999999+0051REMSYN082AAXX  16004 82795 32994 01406 10193 20170 39563 40190 333 10244 29078 55028 58005;EQDQ01  00002PRCP06
0173827950999992005071612004-07217-035883FM-12+0548SBKG V0201401N003112200019N0100001N1+02181+01631101911ADDAA106000091GF104991999051008001001001MA1999999095651MD1999999+0041REMSYN076AAXX  16124 82795 32597 41406 10218 20163 39565 40191 85500 333 20171 58004;EQDQ01  00002PRCP06
0179827950999992005071700004-07220-035880FM-12+0548SBKG V0201401N002612200019N0010001N1+02011+01761101831ADDAA106000091GF100991001001999999001001MA1999999095581MD1999999-0051REMSYN082AAXX  17004 82795 32994 01405 10201 20176 39558 40183 333 10264 29072 55099 59005;EQDQ01  00002PRCP06
0173827950999992005071712004-07220-035880FM-12+0548SBKG V0201401N004112200019N0100001N1+02341+01831101001ADDAA106000091GF103991031031008001001001MA1999999095761MD1999999+0111REMSYN076AAXX  17124 82795 32597 31408 10234 20183 39576 40100 83300 333 20174 58011;EQDQ01  00002PRCP06
0167827950999992005071718004-07220-035880FM-12+0548SBKG V0201401N003112200019N0100001N1+02541+01711101551ADDAA106000091GF104991041031008001001001MA1999999095351MD1999999-0071REMSYN070AAXX  17184 82795 32597 41406 10254 20171 39535 40155 84300 333 59007;EQDQ01  00002PRCP06
0185827950999992005071800004-07217-035883FM-12+0548SBKG V0201401N003612200019N0010001N1+02021+01831101751ADDAA106000091GF101991011011008001001001MA1999999095531MD1999999-0051REMSYN088AAXX  18004 82795 32594 11407 10202 20183 39553 40175 81100 333 10261 29078 55081 59005;EQDQ01  00002PRCP06
0173827950999992005071812004-07217-035883FM-12+0548SBKG V0201801N001510075019N0100001N1+02141+01861101861ADDAA106000091GF107991071071008001001001MA1999999095611MD1999999-0151REMSYN076AAXX  18124 82795 32597 71803 10214 20186 39561 40186 87700 333 20178 59015;EQDQ01  00002PRCP06
0171827950999992005071818004-07217-035883FM-12+0548SBKG V0201401N003110075019N0100001N1+02131+01861101181ADDAY161061AY221061GF108991081071008001999999MA1999999095341MD1999999-0011MW1021REMSYN082AAXX  18184 82795 21597 81406 10213 20186 39534 40118 70262 887// 333 59001 60021;
0185827950999992005071900004-07217-035883FM-12+0548SBKG V0202301N000510450019N0010001N1+01951+01881101811ADDAA106000091GF108991041071008001071999MA1999999095561MD1999999+0031REMSYN088AAXX  19004 82795 32594 82301 10195 20188 39556 40181 8477/ 333 10240 29090 55001 58003;EQDQ01  00002PRCP06
0149827950999992005071912004-07217-035883FM-12+0548SBKG V0201801N003110075019N0100001N1+02231+01941101821ADDGF106991061061008001001001MA1999999095581MD1999999+0231REMSYN082AAXX  19124 82795 22597 61806 10223 20194 39558 40182 86600 333 20185 58023 60024;
0137827950999992005071918004-07217-035883FM-12+0548SBKG V0201401N002610075019N0100001N1+02571+01881101511ADDGF105991051031008001001001MA1999999095341MD1999999+0001REMSYN070AAXX  19184 82795 32597 51405 10257 20188 39534 40151 85300 333 58000;
0155827950999992005072000004-07217-035883FM-12+0548SBKG V0200901N004110075019N0010001N1+02191+02061101711ADDGF106991061021008001001001MA1999999095511MD1999999-0051REMSYN088AAXX  20004 82795 32594 60908 10219 20206 39551 40171 86200 333 10226 29084 55087 59005;
0188827950999992005072012004-07217-035883FM-12+0548SBKG V0201401N003610075019N0100001N1+02181+02061101841ADDAA124001091AY161061AY221061GF108991081071008001999999MA1999999095621MD1999999+0041MW1021REMSYN088AAXX  20124 82795 21597 81407 10218 20206 39562 40184 70262 887// 333 20199 58004 69994;
0137827950999992005072018004-07217-035883FM-12+0548SBKG V0201401N006210450019N0100001N1+02481+01961101571ADDGF106991041081008001021001MA1999999095361MD1999999+0021REMSYN070AAXX  20184 82795 32597 61412 10248 20196 39536 40157 84820 333 58002;
0149827950999992005072100004-07217-035883FM-12+0548SBKG V0201401N004112200019N0010001N1+02061+01841101681ADDGF100991001001999999001001MA1999999095451MD1999999-0061REMSYN082AAXX  21004 82795 32994 01408 10206 20184 39545 40168 333 10255 29085 55048 59006;
0188827950999992005072112004-07217-035883FM-12+0548SBKG V0201401N003610075019N0100001N1+02281+01811101841ADDAA124000891AY161061AY221061GF106991061021008001001001MA1999999095621MD1999999+0001MW1021REMSYN088AAXX  21124 82795 21597 61407 10228 20181 39562 40184 70262 86200 333 20185 58000 69974;
0137827950999992005072118004-07217-035883FM-12+0548SBKG V0201801N003612200019N0100001N1+02571+01641101561ADDGF103991031021008001001001MA1999999095361MD1999999+0001REMSYN070AAXX  21184 82795 32597 31807 10257 20164 39536 40156 83200 333 58000;
0149827950999992005072200004-07217-035883FM-12+0548SBKG V0201401N002612200019N0010001N1+02011+01741101791ADDGF100991001001999999001001MA1999999095571MD1999999+0121REMSYN082AAXX  22004 82795 32994 01405 10201 20174 39557 40179 333 10265 29075 55096 58012;
0207827950999992005072212004-07217-035883FM-12+0548SBKG V0201801N002110075019N0100001N1+02201+01941101901ADDAA124000091AY161061AY221061GF108991081071008001999999MA1999999095661MD1999999+0041MW1021REMSYN088AAXX  22124 82795 21597 81804 10220 20194 39566 40190 70262 887// 333 20180 58004 69924;EQDQ01  00002PRCP24
0182827950999992005072218004-07217-035883FM-12+0548SBKG V0201401N002610075019N0100001N1+02151+01951101801ADDAA106003091AY161061AY221061GF108991081071008001999999MA1999999095541MD1999999+0181MW1151REMSYN082AAXX  22184 82795 21597 81405 10215 20195 39554 40180 71562 887// 333 58018 60031;
0200827950999992005072300004-07217-035883FM-12+0548SBKG V0201401N001010042019N0010001N1+02771+01931101831ADDAA106002091AY161061AY221061GF108991081071004501999999MA1999999095591MD1999999+0021MW1211REMSYN100AAXX  23004 82795 21494 81402 10277 20193 39559 40183 72162 887// 333 10251 29092 55022 58002 60021;
0188827950999992005072312004-07217-035883FM-12+0548SBKG V0201401N003110075019N0100001N1+02191+99999101911ADDAA124007991AY161061AY221061GF105991051021008001001001MA1999999095661MD1999999+0001MW1021REMSYN088AAXX  23124 82795 21597 51406 10219 29178 39566 40191 70262 85200 333 20178 58000 60084;
0137827950999992005072318004-07217-035883FM-12+0548SBKG V0201401N003112200019N0100001N1+02651+01581101591ADDGF102991011011008001001011MA1999999095391MD1999999-0151REMSYN070AAXX  23184 82795 32597 21406 10265 20158 39539 40159 81101 333 59015;
0155827950999992005072400004-07220-035880FM-12+0548SBKG V0201401N002112200019N0010001N1+02021+01811101851ADDGF102991011011008001001011MA1999999095611MD1999999+0021REMSYN088AAXX  24004 82795 32594 21404 10202 20181 39561 40185 81101 333 10266 29076 55101 58002;
0143827950999992005072412004-07220-035880FM-12+0548SBKG V0201801N002610075019N0100001N1+02051+01821102061ADDGF106991061021008001001001MA1999999095771MD1999999+0101REMSYN076AAXX  24124 82795 32597 61805 10205 20182 39577 40206 86200 333 20164 58010;
0137827950999992005072418004-07220-035880FM-12+0548SBKG V0201801N004112200019N0100001N1+02641+01771101671ADDGF102991021011008001001001MA1999999095471MD1999999+0081REMSYN070AAXX  24184 82795 32597 21808 10264 20177 39547 40167 82100 333 58008;
0155827950999992005072500004-07220-035880FM-12+0548SBKG V0201401N002112200019N0010001N1+02041+01641101931ADDGF102991021011008001001001MA1999999095671MD1999999+0061REMSYN088AAXX  25004 82795 32594 21404 10204 20164 39567 40193 82100 333 10266 29076 55095 58006;
0143827950999992005072512004-07217-035883FM-12+0548SBKG V0201401N004610075019N0100001N1+02241+01731101981ADDGF106991061011008001001001MA1999999095741MD1999999-0031REMSYN076AAXX  25124 82795 32597 61409 10224 20173 39574 40198 86100 333 20180 59003;
0137827950999992005072518004-07217-035883FM-12+0548SBKG V0201401N003119999999N0100001N1+02551+01731101691ADDGF108991081001008001071001MA1999999095491MD1999999+0021REMSYN070AAXX  25184 82795 32597 81406 10255 20173 39549 40169 88070 333 58002;
0143827950999992005072612004-07217-035883FM-12+0548SBKG V0201801N003110450019N0100001N1+02131+01721102001ADDGF107991041051008001021001MA1999999095741MD1999999+0001REMSYN076AAXX  26124 82795 32597 71806 10213 20172 39574 40200 84520 333 20174 58000;
0137827950999992005072618004-07217-035883FM-12+0548SBKG V0201401N003610075019N0100001N1+02511+01801101721ADDGF106991061041008001001001MA1999999095521MD1999999+0021REMSYN070AAXX  26184 82795 32597 61407 10251 20180 39552 40172 86400 333 58002;
0155827950999992005072700004-07217-035883FM-12+0548SBKG V0201401N002612200019N0010001N1+02091+01741101991ADDGF102991021021008001001001MA1999999095741MD1999999+0011REMSYN088AAXX  27004 82795 32594 21405 10209 20174 39574 40199 82200 333 10259 29076 55042 58001;
0143827950999992005072712004-07217-035883FM-12+0548SBKG V0201801N003610075019N0100001N1+02271+01661101981ADDGF105991051011008001001001MA1999999095741MD1999999+0001REMSYN076AAXX  27124 82795 32597 51807 10227 20166 39574 40198 85100 333 20178 58000;
0137827950999992005072718004-07217-035883FM-12+0548SBKG V0201401N003612200019N0100001N1+02611+01681101741ADDGF104991041031008001001001MA1999999095541MD1999999+0021REMSYN070AAXX  27184 82795 32597 41407 10261 20168 39554 40174 84300 333 58002;
0155827950999992005072800004-07217-035883FM-12+0548SBKG V0201401N002612200019N0010001N1+02081+01801101981ADDGF102991021011008001001001MA1999999095741MD1999999+0001REMSYN088AAXX  28004 82795 32594 21405 10208 20180 39574 40198 82100 333 10270 29074 55101 58000;
0143827950999992005072812004-07217-035883FM-12+0548SBKG V0201801N003610075019N0100001N1+02151+01801102021ADDGF106991061021008001001001MA1999999095771MD1999999+0031REMSYN076AAXX  28124 82795 32597 61807 10215 20180 39577 40202 86200 333 20178 58003;
0137827950999992005072818004-07217-035883FM-12+0548SBKG V0201401N005710450019N0100001N1+02291+02001101851ADDGF107991041081008001021001MA1999999095601MD1999999+0061REMSYN070AAXX  28184 82795 32597 71411 10229 20200 39560 40185 84820 333 58006;
0155827950999992005072900004-07217-035883FM-12+0548SBKG V0201401N002610075019N0010001N1+02031+01801102011ADDGF106991061051008001001001MA1999999095761MD1999999+0021REMSYN088AAXX  29004 82795 32594 61405 10203 20180 39576 40201 86500 333 10255 29084 55072 58002;
0143827950999992005072912004-07217-035883FM-12+0548SBKG V0201801N004610075019N0100001N1+02131+01661102031ADDGF105991051011008001001001MA1999999095771MD1999999+0001REMSYN076AAXX  29124 82795 32597 51809 10213 20166 39577 40203 85100 333 20174 58000;
0137827950999992005072918004-07217-035883FM-12+0548SBKG V0201401N004112200019N0100001N1+02591+01721101641ADDGF102991021011008001001001MA1999999095451MD1999999-0151REMSYN070AAXX  29184 82795 32597 21408 10259 20172 39545 40164 82100 333 59015;
0155827950999992005073000004-07217-035883FM-12+0548SBKG V0201401N003112200019N0010001N1+02031+01661102011ADDGF102991021011008001001001MA1999999095751MD1999999-0011REMSYN088AAXX  30004 82795 32594 21406 10203 20166 39575 40201 82100 333 10266 29073 55102 59001;
0220827950999992005073012004-07220-035880FM-12+0548SBKG V0201801N002612200019N0010001N1+02021+01951102031ADDAA124000591AY161061AY251061GF102991999071004501011999KA1240N+01781MA1999999095751MD1999999-0021MW1501REMSYN088AAXX  30124 82795 21494 21805 10202 20195 39575 40203 75065 8571/ 333 20178 59002 69954;EQDQ01+000052SCOTLC
0182827950999992005073018004-07220-035880FM-12+0548SBKG V0201401N002610450019N0100001N1+02341+01931101701ADDAA106002091AY161061AY221061GF106991031021008001071001MA1999999095461MD1999999+0011MW1021REMSYN082AAXX  30184 82795 21597 61405 10234 20193 39546 40170 70262 83270 333 58001 60021;
0168827950999992005073100004-07220-035880FM-12+0548SBKG V0201401N002110450019N0010001N1+01981+01701102001ADDGF106991041021008001041001KA1240M+02381MA1999999095731MD1999999-0021REMSYN088AAXX  31004 82795 32594 61404 10198 20170 39573 40200 84240 333 10238 29086 55010 59002;
0201827950999992005073112004-07220-035880FM-12+0548SBKG V0201401N002610075019N0100001N1+02021+01811101961ADDAA124002091AY161061AY221061GF107991071071008001001001KA1240N+01711MA1999999095691MD1999999-0061MW1021REMSYN088AAXX  31124 82795 21597 71405 10202 20181 39569 40196 70262 87700 333 20171 59006 60024;
0137827950999992005073118004-07217-035883FM-12+0548SBKG V0201401N003110075019N0100001N1+02351+01781101661ADDGF108991081051008001999999MA1999999095421MD1999999-0041REMSYN070AAXX  31184 82795 32597 81406 10235 20178 39542 40166 885// 333 59004;
0155827950999992005080100004-07217-035883FM-12+0548SBKG V0201401N002110450019N0010001N1+02031+01681101881ADDGF107991041021008001051001MA1999999095621MD1999999-0111REMSYN088AAXX  01004 82795 32594 71404 10203 20168 39562 40188 84250 333 10247 29080 55030 59011;
0143827950999992005080112004-07217-035883FM-12+0548SBKG V0201401N003610075019N0100001N1+02191+01761101901ADDGF106991061021008001001001MA1999999095661MD1999999-0031REMSYN076AAXX  01124 82795 32597 61407 10219 20176 39566 40190 86200 333 20164 59003;
0137827950999992005080118004-07217-035883FM-12+0548SBKG V0201401N004610120019N0100001N1+02631+01631101491ADDGF105991051081008001001001MA1999999095311MD1999999-0111REMSYN070AAXX  01184 82795 32597 51409 10263 20163 39531 40149 85800 333 59011;
0200827950999992005080200004-07217-035883FM-12+0548SBKG V0201401N002610075019N0010001N1+01901+01821101841ADDAA106001091AY161061AY221061GF108991081071008001999999MA1999999095591MD1999999-0031MW1021REMSYN100AAXX  02004 82795 21594 81405 10190 20182 39559 40184 70262 887// 333 10270 29080 55097 59003 69991;
0188827950999992005080212004-07217-035883FM-12+0548SBKG V0201401N003112200019N0100001N1+02211+01841101861ADDAA124001091AY161061AY221061GF106991041021008001001011MA1999999095611MD1999999-0051MW1021REMSYN088AAXX  02124 82795 21597 61406 10221 20184 39561 40186 70262 84201 333 20178 59005 60014;
0182827950999992005080218004-07217-035883FM-12+0548SBKG V0201401N002610120019N0100001N1+02041+01941101641ADDAA106004191AY161061AY221061GF108991051081008001031999MA1999999095361MD1999999+0051MW1021REMSYN082AAXX  02184 82795 21597 81405 10204 20194 39536 40164 70262 8583/ 333 58005 60041;
0200827950999992005080300004-07217-035883FM-12+0548SBKG V0201401N003110042019N0002001N1+01841+01781101871ADDAA106002091AY161061AY221061GF108991081071004501999999MA1999999095611MD1999999+0021MW1601REMSYN100AAXX  03004 82795 21492 81406 10184 20178 39561 40187 76062 887// 333 10240 29092 55043 58002 60021;
0188827950999992005080312004-07217-035883FM-12+0548SBKG V0201401N003610075019N0100001N1+02031+01871102101ADDAA124007991AY161061AY251061GF108991051071008001011999MA1999999095691MD1999999+0081MW1021REMSYN088AAXX  03124 82795 21597 81407 10203 20187 39569 40210 70265 8571/ 333 20173 58008 60084;
0137827950999992005080318004-07217-035883FM-12+0548SBKG V0201401N004110450019N0100001N1+02371+02011101511ADDGF107991041071008001011001MA1999999095311MD1999999-0051REMSYN070AAXX  03184 82795 32597 71408 10237 20201 39531 40151 84710 333 59005;
0200827950999992005080400004-07217-035883FM-12+0548SBKG V0201401N002110075019N0010001N1+02041+01911101781ADDAA106001091AY161061AY221061GF108991081061008001999999MA1999999095531MD1999999-0081MW1021REMSYN100AAXX  04004 82795 21594 81404 10204 20191 39553 40178 70262 886// 333 10251 29088 55029 59008 60011;
0188827950999992005080412004-07217-035883FM-12+0548SBKG V0201401N003110075019N0100001N1+02101+01891101971ADDAA124004191AY161061AY221061GF108991081071008001999999MA1999999095711MD1999999+0021MW1021REMSYN088AAXX  04124 82795 21597 81406 10210 20189 39571 40197 70262 887// 333 20189 58002 60044;
0155827950999992005080500004-07217-035883FM-12+0548SBKG V0201801N002610075019N0010001N1+01991+01851101941ADDGF107991071051008001001001MA1999999095681MD1999999+0151REMSYN088AAXX  05004 82795 32594 71805 10199 20185 39568 40194 87500 333 10247 29086 55015 58015;
0188827950999992005080512004-07217-035883FM-12+0548SBKG V0201401N003610075019N0100001N1+02061+01941102001ADDAA124003091AY161061AY221061GF108991081071008001999999MA1999999095721MD1999999+0011MW1021REMSYN088AAXX  05124 82795 21597 81407 10206 20194 39572 40200 70262 887// 333 20178 58001 60034;
0182827950999992005080518004-07217-035883FM-12+0548SBKG V0201401N004610075019N0100001N1+02171+01931101671ADDAA106001091AY161061AY221061GF108991081071008001999999MA1999999095421MD1999999-0121MW1021REMSYN082AAXX  05184 82795 21597 81409 10217 20193 39542 40167 70262 887// 333 59012 60011;
0200827950999992005080600004-07217-035883FM-12+0548SBKG V0201401N002610042019N0005001N1+02021+01951101961ADDAA106000591AY161061AY221061GF108991081071004501999999MA1999999095701MD1999999+0021MW1601REMSYN100AAXX  06004 82795 21493 81405 10202 20195 39570 40196 76062 887// 333 10225 29093 55012 58002 69941;
0188827950999992005080612004-07217-035883FM-12+0548SBKG V0201401N003610075019N0100001N1+02141+01911101981ADDAA124006191AY161061AY221061GF107991051041008001021001MA1999999095711MD1999999-0011MW1021REMSYN088AAXX  06124 82795 21597 71407 10214 20191 39571 40198 70262 85420 333 20180 59001 60064;
0137827950999992005080618004-07217-035883FM-12+0548SBKG V0201401N003110075019N0100001N1+02541+01761101601ADDGF105991051041008001001001MA1999999095401MD1999999-0021REMSYN070AAXX  06184 82795 32597 51406 10254 20176 39540 40160 85400 333 59002;
0149827950999992005080700004-07220-035880FM-12+0548SBKG V0201401N003112200019N0010001N1+01921+01841101861ADDGF100991001001999999001001MA1999999095601MD1999999-0101REMSYN082AAXX  07004 82795 32994 01406 10192 20184 39560 40186 333 10256 29084 55063 59010;
0143827950999992005080712004-07220-035880FM-12+0548SBKG V0201401N003110450019N0100001N1+02121+01801101961ADDGF105991031031008001041001MA1999999095691MD1999999-0051REMSYN076AAXX  07124 82795 32597 51406 10212 20180 39569 40196 83340 333 20161 59005;
0182827950999992005080718004-07220-035880FM-12+0548SBKG V0201401N004610450019N0100001N1+02391+01771101601ADDAA106000891AY151061AY221061GF106991041031008001051001MA1999999095391MD1999999-0011MW1021REMSYN082AAXX  07184 82795 21597 61409 10239 20177 39539 40160 70252 84350 333 59001 69981;
0149827950999992005080800004-07217-035883FM-12+0548SBKG V0201401N003612200019N0010001N1+01941+01571101911ADDGF100991001001999999001001MA1999999095641MD1999999+0041REMSYN082AAXX  08004 82795 32994 01407 10194 20157 39564 40191 333 10242 29078 55054 58004;
0160827950999992005080812004-07217-035883FM-12+0548SBKG V0201801N004610075019N0100001N1+02191+01741101931ADDAA124000591GF107991071071008001001001MA1999999095671MD1999999-0021REMSYN082AAXX  08124 82795 22597 71809 10219 20174 39567 40193 87700 333 20170 59002 69944;
0137827950999992005080818004-07217-035883FM-12+0548SBKG V0201401N002610075019N0100001N1+02421+01791101611ADDGF108991051071008001051999MA1999999095361MD1999999-0031REMSYN070AAXX  08184 82795 32597 81405 10242 20179 39536 40161 8575/ 333 59003;
0155827950999992005080900004-07217-035883FM-12+0548SBKG V0201401N002112200019N0010001N1+02021+01801101851ADDGF103991031021008001001001MA1999999095611MD1999999-0031REMSYN088AAXX  09004 82795 32594 31404 10202 20180 39561 40185 83200 333 10255 29079 55048 59003;
0143827950999992005080912004-07217-035883FM-12+0548SBKG V0201401N003110075019N0100001N1+02171+01881102001ADDGF108991051061008001011999MA1999999095751MD1999999+0091REMSYN076AAXX  09124 82795 32597 81406 10217 20188 39575 40200 8561/ 333 20171 58009;
0182827950999992005080918004-07217-035883FM-12+0548SBKG V0201401N003610120019N0100001N1+02571+01731101601ADDAA106000591AY151061AY221061GF106991061081008001001001MA1999999095391MD1999999+0031MW1021REMSYN082AAXX  09184 82795 21597 61407 10257 20173 39539 40160 70252 86800 333 58003 69951;
0155827950999992005081000004-07217-035883FM-12+0548SBKG V0201401N003112200019N0010001N1+02061+01931101821ADDGF104991021021008001041001MA1999999095581MD1999999-0031REMSYN088AAXX  10004 82795 32594 41406 10206 20193 39558 40182 82240 333 10261 29082 55051 59003;
0160827950999992005081012004-07217-035883FM-12+0548SBKG V0201401N004610075019N0100001N1+02291+01831102011ADDAA124000591GF107991071061008001001001MA1999999095771MD1999999+0021REMSYN082AAXX  10124 82795 22597 71409 10229 20183 39577 40201 87600 333 20177 58002 69954;
0137827950999992005081018004-07217-035883FM-12+0548SBKG V0201401N003610075019N0100001N1+02701+01721101571ADDGF105991051021008001001001MA1999999095401MD1999999+0011REMSYN070AAXX  10184 82795 32597 51407 10270 20172 39540 40157 85200 333 58001;
0155827950999992005081100004-07217-035883FM-12+0548SBKG V0201401N001510075019N0010001N1+02131+01971101921ADDGF107991051021008001061001MA1999999095701MD1999999+0121REMSYN088AAXX  11004 82795 32594 71403 10213 20197 39570 40192 85260 333 10276 29078 55086 58012;
0143827950999992005081112004-07217-035883FM-12+0548SBKG V0201401N004610075019N0100001N1+02271+01791101991ADDGF106991061021008001001001MA1999999095771MD1999999+0001REMSYN076AAXX  11124 82795 32597 61409 10227 20179 39577 40199 86200 333 20179 58000;
0137827950999992005081118004-07217-035883FM-12+0548SBKG V0201401N004610075019N0100001N1+02641+01691101611ADDGF105991051021008001001001MA1999999095431MD1999999+0031REMSYN070AAXX  11184 82795 32597 51409 10264 20169 39543 40161 85200 333 58003;
0155827950999992005081200004-07217-035883FM-12+0548SBKG V0201401N003112200019N0010001N1+02131+01901101801ADDGF103991031021008001001001MA1999999095591MD1999999-0111REMSYN088AAXX  12004 82795 32594 31406 10213 20190 39559 40180 83200 333 10280 29076 55102 59011;
0188827950999992005081212004-07217-035883FM-12+0548SBKG V0201401N003110075019N0040001N1+02101+02021101911ADDAA124000021AY151061AY221061GF108991051071008001011011MA1999999095671MD1999999-0101MW1501REMSYN088AAXX  12124 82795 21596 81406 10210 20202 39567 40191 75052 85711 333 20193 59010 69914;
0182827950999992005081218004-07217-035883FM-12+0548SBKG V0201401N003110120019N0100001N1+02411+02111101471ADDAA106000891AY151061AY221061GF107991071081008001001001MA1999999095271MD1999999-0161MW1021REMSYN082AAXX  12184 82795 21597 71406 10241 20211 39527 40147 70252 87800 333 59016 69981;
0155827950999992005081300004-07217-035883FM-12+0548SBKG V0201401N002610075019N0010001N1+02101+01891101791ADDGF107991071051008001001001MA1999999095551MD1999999-0041REMSYN088AAXX  13004 82795 32594 71405 10210 20189 39555 40179 87500 333 10252 29089 55006 59004;
0160827950999992005081312004-07220-035880FM-12+0548SBKG V0201801N004119999999N0100001N1+02221+01711101831ADDAA124001091GF106991999021008001001001MA1999999095671MD1999999-0061REMSYN082AAXX  13124 82795 22597 61808 10222 20171 39567 40183 84200 333 20173 59006 69994;
0137827950999992005081318004-07220-035880FM-12+0548SBKG V0201401N004612200019N0100001N1+02711+01651101481ADDGF105991031011008001001011MA1999999095291MD1999999+0021REMSYN070AAXX  13184 82795 32597 51409 10271 20165 39529 40148 83101 333 58002;
0149827950999992005081400004-07220-035880FM-12+0548SBKG V0201401N003112200019N0010001N1+02081+01871101681ADDGF100991001001999999001001MA1999999095461MD1999999-0091REMSYN082AAXX  14004 82795 32994 01406 10208 20187 39546 40168 333 10276 29075 55103 59009;
0143827950999992005081412004-07220-035880FM-12+0548SBKG V0201401N003610075019N0100001N1+02221+01861101851ADDGF106991061021008001001001MA1999999095621MD1999999+0011REMSYN076AAXX  14124 82795 32597 61407 10222 20186 39562 40185 86200 333 20174 58001;
0137827950999992005081418004-07220-035880FM-12+0548SBKG V0201401N004112200019N0100001N1+02731+01811101551ADDGF103991031021008001001001MA1999999095371MD1999999+0081REMSYN070AAXX  14184 82795 32597 31408 10273 20181 39537 40155 83200 333 58008;
0155827950999992005081500004-07220-035880FM-12+0548SBKG V0201401N003110075019N0010001N1+02111+01951101811ADDGF106991061021008001001001MA1999999095591MD1999999+0131REMSYN088AAXX  15004 82795 32594 61406 10211 20195 39559 40181 86200 333 10277 29079 55086 58013;
0188827950999992005081512004-07220-035880FM-12+0548SBKG V0201401N002610042019N0005001N1+02191+02031101941ADDAA124000391AY151061AY221061GF108991081071004501999999MA1999999095711MD1999999+0091MW1501REMSYN088AAXX  15124 82795 21493 81405 10219 20203 39571 40194 75052 887// 333 20195 58009 69934;
0182827950999992005081518004-07220-035880FM-12+0548SBKG V0201401N003110450019N0100001N1+02361+02201101601ADDAA106000591AY151061AY201061GF107991041081008001041001MA1999999095391MD1999999+0021MW1021REMSYN082AAXX  15184 82795 21597 71406 10236 20220 39539 40160 70250 84840 333 58002 69951;
0200827950999992005081600004-07217-035883FM-12+0548SBKG V0201401N001510042019N0010001N1+02021+01951101901ADDAA106002091AY161061AY221061GF108991081061004501999999MA1999999095661MD1999999+0071MW1021REMSYN100AAXX  16004 82795 21494 81403 10202 20195 39566 40190 70262 886// 333 10261 29093 55027 58007 60021;
0188827950999992005081612004-07217-035883FM-12+0548SBKG V0201401N004110075019N0100001N1+02201+01951101911ADDAA124009991AY161061AY221061GF108991081071008001999999MA1999999095691MD1999999-0021MW1021REMSYN088AAXX  16124 82795 21597 81408 10220 20195 39569 40191 70262 887// 333 20191 59002 60104;
0182827950999992005081618004-07217-035883FM-12+0548SBKG V0201401N004110075019N0100001N1+02431+01951101641ADDAA106000391AY151061AY221061GF105991051041008001001001MA1999999095441MD1999999+0051MW1021REMSYN082AAXX  16184 82795 21597 51408 10243 20195 39544 40164 70252 85400 333 58005 69931;
0155827950999992005081700004-07217-035883FM-12+0548SBKG V0201401N003112200019N0010001N1+01991+01811101841ADDGF102991021011008001001001MA1999999095601MD1999999-0061REMSYN088AAXX  17004 82795 32594 21406 10199 20181 39560 40184 82100 333 10252 29085 55034 59006;
0188827950999992005081712004-07217-035883FM-12+0548SBKG V0201401N003110075019N0100001N1+01971+01881102061ADDAA124001091AY161061AY221061GF108991051071008001021999MA1999999095651MD1999999-0041MW1551REMSYN088AAXX  17124 82795 21597 81406 10197 20188 39565 40206 75562 8572/ 333 20170 59004 60014;
0182827950999992005081718004-07217-035883FM-12+0548SBKG V0201401N004610450019N0100001N1+02211+01921101551ADDAA106008991AY161061AY221061GF107991041071008001021001MA1999999095311MD1999999-0131MW1151REMSYN082AAXX  17184 82795 21597 71409 10221 20192 39531 40155 71562 84720 333 59013 60091;
0155827950999992005081800004-07217-035883FM-12+0548SBKG V0201401N002112200019N0010001N1+01991+01871101791ADDGF104991021021008001041001MA1999999095521MD1999999-0081REMSYN088AAXX  18004 82795 32594 41404 10199 20187 39552 40179 82240 333 10236 29090 55009 59008;
0188827950999992005081812004-07217-035883FM-12+0548SBKG V0201401N004610075019N0100001N1+02201+01881102001ADDAA124008991AY161061AY221061GF106991061021008001001001MA1999999095751MD1999999+0101MW1021REMSYN088AAXX  18124 82795 21597 61409 10220 20188 39575 40200 70262 86200 333 20172 58010 60094;
0182827950999992005081818004-07217-035883FM-12+0548SBKG V0201401N003610120019N0100001N1+02401+01821101561ADDAA106000591AY151061AY221061GF105991051081008001001001MA1999999095351MD1999999+0041MW1021REMSYN082AAXX  18184 82795 21597 51407 10240 20182 39535 40156 70252 85800 333 58004 69951;
0200827950999992005081900004-07217-035883FM-12+0548SBKG V0201401N003610042019N0005001N1+01941+01891101851ADDAA106004191AY161061AY221061GF108991081071004501999999MA1999999095601MD1999999-0081MW1501REMSYN100AAXX  19004 82795 21493 81407 10194 20189 39560 40185 75062 887// 333 10254 29086 55054 59008 60041;
0188827950999992005081912004-07217-035883FM-12+0548SBKG V0201401N005110075019N0100001N1+02251+01801101991ADDAA124006191AY161061AY221061GF106991061021008001001001MA1999999095741MD1999999-0011MW1021REMSYN088AAXX  19124 82795 21597 61410 10225 20180 39574 40199 70262 86200 333 20178 59001 60064;
0137827950999992005081918004-07217-035883FM-12+0548SBKG V0201401N003610075019N0100001N1+02531+01431101631ADDGF106991061041008001051001MA1999999095431MD1999999+0081REMSYN070AAXX  19184 82795 32597 61407 10253 20143 39543 40163 86450 333 58008;
0155827950999992005082000004-07217-035883FM-12+0548SBKG V0201401N001512200019N0010001N1+02011+01781101921ADDGF102991021041008001001001MA1999999095681MD1999999+0081REMSYN088AAXX  20004 82795 32594 21403 10201 20178 39568 40192 82400 333 10264 29075 55059 58008;
0188827950999992005082012004-07217-035883FM-12+0548SBKG V0201801N003110075019N0040001N1+01971+01901102001ADDAA124002091AY161061AY251061GF108991051071008001011999MA1999999095721MD1999999-0021MW1501REMSYN088AAXX  20124 82795 21596 81806 10197 20190 39572 40200 75065 8571/ 333 20178 59002 60024;
0182827950999992005082018004-07217-035883FM-12+0548SBKG V0201801N003610075019N0100001N1+02241+01691101611ADDAA106000391AY161061AY221061GF106991061051008001001001MA1999999095361MD1999999-0071MW1021REMSYN082AAXX  20184 82795 21597 61807 10224 20169 39536 40161 70262 86500 333 59007 69931;
0155827950999992005082100004-07220-035880FM-12+0548SBKG V0201401N001519999999N0010001N1+02011+01761101871ADDGF105991999021008001001001MA1999999095611MD1999999-0071REMSYN088AAXX  21004 82795 32594 51403 10201 20176 39561 40187 83200 333 10241 29084 55009 59007;
0188827950999992005082112004-07220-035880FM-12+0548SBKG V0201801N002610075019N0040001N1+02011+01901101981ADDAA124000591AY161061AY221061GF108991051071008001011999MA1999999095701MD1999999-0021MW1511REMSYN088AAXX  21124 82795 21596 81805 10201 20190 39570 40198 75162 8571/ 333 20169 59002 69944;
0182827950999992005082118004-07220-035880FM-12+0548SBKG V0201401N005710075019N0040001N1+02021+01941101621ADDAA106002091AY161061AY251061GF108991051071008001011001MA1999999095331MD1999999-0031MW1511REMSYN082AAXX  21184 82795 21596 81411 10202 20194 39533 40162 75165 85710 333 59003 60021;
0232827950999992005082200004-07217-035883FM-12+0548SBKG V0200901N003110075019N0010001N1+01991+01901101761ADDAA106002091AY161061AY221061GF108991999051008001001001KA1240M+02511MA1999999095501MD1999999-0111MW1021REMSYN100AAXX  22004 82795 21594 80906 10199 20190 39550 40176 70262 87500 333 10251 29094 55031 59011 60021;EQDQ01+000072SCOTLC
0201827950999992005082212004-07217-035883FM-12+0548SBKG V0201401N005710075019N0100001N1+02721+01931101921ADDAA124006191AY161061AY221061GF108991081071008001999999KA1240N+01801MA1999999095681MD1999999-0021MW1021REMSYN088AAXX  22124 82795 21597 81411 10272 20193 39568 40192 70262 887// 333 20180 59002 60064;
0201827950999992005082218004-07217-035883FM-12+0548SBKG V0201401N004619999999N0100001N1+02381+01841101571ADDAA106000891AY161061AY221061GF106991999021008001001001MA1999999095351MD1999999-0021MW1021REMSYN082AAXX  22184 82795 21597 61409 10238 20184 39535 40157 70262 84200 333 59002 69981;EQDQ01+000042SCOTLC
0168827950999992005082300004-07217-035883FM-12+0548SBKG V0201401N001512200019N0010001N1+01981+01791101821ADDGF104991041021008001001001KA1240M+02411MA1999999095561MD1999999+0061REMSYN088AAXX  23004 82795 32594 41403 10198 20179 39556 40182 84200 333 10241 29086 55023 58006;
0201827950999992005082312004-07217-035883FM-12+0548SBKG V0201801N001510042019N0020001N1+02961+01891101921ADDAA124003091AY161061AY251061GF108991051071004501021999KA1240N+01741MA1999999095641MD1999999-0041MW1611REMSYN088AAXX  23124 82795 21495 81803 10296 20189 39564 40192 76165 8572/ 333 20174 59004 60034;
0182827950999992005082318004-07217-035883FM-12+0548SBKG V0201401N003610075019N0100001N1+02221+01991101641ADDAA106002091AY161061AY221061GF108991081071008001999999MA1999999095391MD1999999+0041MW1021REMSYN082AAXX  23184 82795 21597 81407 10222 20199 39539 40164 70262 887// 333 58004 60021;
0213827950999992005082400004-07217-035883FM-12+0548SBKG V0201401N001512200019N0010001N1+01941+01801101861ADDAA106013091AY161061AY221061GF102991021021008001001001KA1240M+02331MA1999999095581MD1999999+0021MW1021REMSYN100AAXX  24004 82795 21594 21403 10194 20180 39558 40186 70262 82200 333 10233 29092 55002 58002 60131;
0220827950999992005082412004-07217-035883FM-12+0548SBKG V0201401N003610075019N0100001N1+02101+02031101841ADDAA124015091AY161061AY221061GF108991999001008001021001KA1240N+01861MA1999999095581MD1999999-0061MW1021REMSYN088AAXX  24124 82795 21597 81407 10210 20203 39558 40184 70262 85020 333 20186 59006 60154;EQDQ01+000052SCOTLC
0182827950999992005082418004-07217-035883FM-12+0548SBKG V0201401N003110450019N0020001N1+02151+02091101661ADDAA106006191AY161061AY251061GF108991041071004501021999MA1999999095411MD1999999+0021MW1611REMSYN082AAXX  24184 82795 21495 81406 10215 20209 39541 40166 76165 8472/ 333 58002 60061;
0213827950999992005082500004-07217-035883FM-12+0548SBKG V0201401N003610075019N0010001N1+01981+01961101761ADDAA106016091AY161061AY221061GF108991081071008001999999KA1240M+02411MA1999999095521MD1999999-0061MW1501REMSYN100AAXX  25004 82795 21594 81407 10198 20196 39552 40176 75062 887// 333 10241 29096 55000 59006 60161;
0201827950999992005082512004-07217-035883FM-12+0548SBKG V0201801N002610075019N0100001N1+02011+01851101891ADDAA124040991AY161061AY221061GF108991081071008001999999KA1240N+01851MA1999999095651MD1999999+0011MW1021REMSYN088AAXX  25124 82795 21597 81805 10201 20185 39565 40189 70262 887// 333 20185 58001 60414;
0137827950999992005082518004-07217-035883FM-12+0548SBKG V0201401N004610075019N0100001N1+02341+01931101541ADDGF106991061061008001001001MA1999999095321MD1999999-0091REMSYN070AAXX  25184 82795 32597 61409 10234 20193 39532 40154 86600 333 59009;
0178827950999992005082600004-07217-035883FM-12+0548SBKG V0201401N003112200019N0010001N1+01941+01861101731ADDGA1001+999999999GF100991001001999999001001KA1240M+02501MA1999999095461MD1999999-0061REMSYN082AAXX  26004 82795 32994 01406 10194 20186 39546 40173 333 10250 29089 55033 59006;
0156827950999992005082612004-07217-035883FM-12+0548SBKG V0201401N002110075019N0100001N1+02191+01971101811ADDGF107991071071008001001001KA1240N+01781MA1999999095591MD1999999+0011REMSYN076AAXX  26124 82795 32597 71404 10219 20197 39559 40181 87700 333 20178 58001;
0137827950999992005082618004-07217-035883FM-12+0548SBKG V0201401N003610075019N0100001N1+02661+01921101461ADDGF105991051021008001001001MA1999999095271MD1999999-0051REMSYN070AAXX  26184 82795 32597 51407 10266 20192 39527 40146 85200 333 59005;
0178827950999992005082700004-07217-035883FM-12+0548SBKG V0201401N003612200019N0010001N1+02001+01801101841ADDGA1001+999999999GF100991001001999999001001KA1240M+02681MA1999999095581MD1999999+0121REMSYN082AAXX  27004 82795 32994 01407 10200 20180 39558 40184 333 10268 29082 55075 58012;
0156827950999992005082712004-07217-035883FM-12+0548SBKG V0201401N004612200019N0100001N1+02301+01581101841ADDGF103991031021008001001001KA1240N+01731MA1999999095621MD1999999+0061REMSYN076AAXX  27124 82795 32597 31409 10230 20158 39562 40184 83200 333 20173 58006;
0137827950999992005082718004-07217-035883FM-12+0548SBKG V0201401N004612200019N0100001N1+02621+01671101511ADDGF103991031021008001001001MA1999999095331MD1999999+0061REMSYN070AAXX  27184 82795 32597 31409 10262 20167 39533 40151 83200 333 58006;
0178827950999992005082800004-07217-035883FM-12+0548SBKG V0201401N003112200019N0010001N1+02031+01781101801ADDGA1001+999999999GF100991001001999999001001KA1240M+02681MA1999999095581MD1999999+0001REMSYN082AAXX  28004 82795 32994 01406 10203 20178 39558 40180 333 10268 29073 55100 58000;
0156827950999992005082812004-07217-035883FM-12+0548SBKG V0201401N003110075019N0100001N1+02181+01901101931ADDGF108991051031008001021001KA1240N+01891MA1999999095691MD1999999+0071REMSYN076AAXX  28124 82795 32597 81406 10218 20190 39569 40193 85320 333 20189 58007;
0182827950999992005082818004-07217-035883FM-12+0548SBKG V0201401N005110450019N0100001N1+02581+01921101411ADDAA106999999AY151061AY221061GF105991031031008001021001MA1999999095241MD1999999-0091MW1021REMSYN082AAXX  28184 82795 21597 51410 10258 20192 39524 40141 70252 83320 333 59009 69911;
0168827950999992005082900004-07217-035883FM-12+0548SBKG V0201401N002112200019N0010001N1+02031+01921101571ADDGF104991041071008001001001KA1240M+02681MA1999999095351MD1999999-0231REMSYN088AAXX  29004 82795 32594 41404 10203 20192 39535 40157 84700 333 10268 29080 55039 59023;
0201827950999992005082912004-07217-035883FM-12+0548SBKG V0201401N004610075019N0100001N1+02241+01841101761ADDAA124000891AY161061AY221061GF108991081071008001999999KA1240N+01931MA1999999095521MD1999999-0071MW1021REMSYN088AAXX  29124 82795 21597 81409 10224 20184 39552 40176 70262 887// 333 20193 59007 69974;
0182827950999992005082918004-07217-035883FM-12+0548SBKG V0201401N005110450019N0100001N1+02511+01811101381ADDAA106999999AY151061AY221061GF105991031041008001021001MA1999999095211MD1999999+0031MW1021REMSYN082AAXX  29184 82795 21597 51410 10251 20181 39521 40138 70252 83420 333 58003 69911;
0168827950999992005083000004-07217-035883FM-12+0548SBKG V0201401N003110075019N0010001N1+02091+01841101721ADDGF106991061021008001001001KA1240M+02581MA1999999095501MD1999999+0151REMSYN088AAXX  30004 82795 32594 61406 10209 20184 39550 40172 86200 333 10258 29078 55040 58015;
0201827950999992005083012004-07217-035883FM-12+0548SBKG V0201401N003610075019N0040001N1+02191+01941101821ADDAA124004191AY161061AY221061GF107991071021008001001001KA1240N+01891MA1999999095601MD1999999+0081MW1151REMSYN088AAXX  30124 82795 21596 71407 10219 20194 39560 40182 71562 87200 333 20189 58008 60044;
0137827950999992005083018004-07217-035883FM-12+0548SBKG V0201401N005712200019N0100001N1+02611+01601101461ADDGF104991041021008001001001MA1999999095281MD1999999+0071REMSYN070AAXX  30184 82795 32597 41411 10261 20160 39528 40146 84200 333 58007;
0213827950999992005083100004-07217-035883FM-12+0548SBKG V0201401N003110075019N0010001N1+02041+01971101821ADDAA106999999AY121061AY221061GF108991081071008001999999KA1240M+02651MA1999999095581MD1999999+0081MW1601REMSYN100AAXX  31004 82795 21594 81406 10204 20197 39558 40182 76022 887// 333 10265 29083 55063 58008 69911;
0173827950999992005083112004-07217-035883FM-12+0548SBKG V0201401N005110075019N0100001N1+02311+01891101751ADDAA124000021GF108991081061008001999999KA1240N+01871MA1999999095531MD1999999-0071REMSYN082AAXX  31124 82795 22597 81410 10231 20189 39553 40175 886// 333 20187 59007 69914;
0137827950999992005083118004-07217-035883FM-12+0548SBKG V0201401N006710075019N0100001N1+02531+01891101351ADDGF105991051031008001001001MA1999999095171MD1999999-0111REMSYN070AAXX  31184 82795 32597 51413 10253 20189 39517 40135 85300 333 59011;
0168827950999992005090100004-07217-035883FM-12+0560SBKG V0201401N003612200019N0010001N1+02001+01801101591ADDGF102991021011008001001001KA1240M+02721MA1999999095381MD1999999-0201REMSYN088AAXX  01004 82795 32594 21407 10200 20180 39538 40159 82100 333 10272 29080 55079 59020;
0220827950999992005090112004-07217-035883FM-12+0560SBKG V0201401N032410075019N0100001N1+02371+01801101691ADDAA124000091AY161061AY221061GF106991061021008001001001KA1240N+01841MA1999999095471MD1999999-0061MW1021REMSYN088AAXX  01124 82795 21597 61463 10237 20180 39547 40169 70262 86200 333 20184 59006 69914;EQDQ01  00002PRCP24
0137827950999992005090118004-07217-035883FM-12+0560SBKG V0201401N005710075019N0100001N1+02711+01881101881ADDGF105991051031008001001001MA1999999095181MD1999999+0061REMSYN070AAXX  01184 82795 32597 51411 10271 20188 39518 40188 85300 333 58006;
0168827950999992005090200004-07217-035883FM-12+0560SBKG V0201401N002110450019N0010001N1+02071+01801101691ADDGF105991031021008001041001KA1240M+02761MA1999999095491MD1999999+0111REMSYN088AAXX  02004 82795 32594 51404 10207 20180 39549 40169 83240 333 10276 29075 55101 58011;
0201827950999992005090212004-07217-035883FM-12+0560SBKG V0201401N003110075019N0100001N1+02231+01881101791ADDAA124000891AY161061AY221061GF106991061021008001001001KA1240N+01861MA1999999095571MD1999999+0101MW1021REMSYN088AAXX  02124 82795 21597 61406 10223 20188 39557 40179 70262 86200 333 20186 58010 69984;
0137827950999992005090218004-07217-035883FM-12+0560SBKG V0201401N006212200019N0100001N1+02671+01971101431ADDGF103991031021008001001001MA1999999095271MD1999999+0091REMSYN070AAXX  02184 82795 32597 31412 10267 20197 39527 40143 83200 333 58009;
0168827950999992005090300004-07217-035883FM-12+0560SBKG V0201401N001510075019N0010001N1+02181+01951101691ADDGF106991051021008001041001KA1240M+02751MA1999999095491MD1999999+0001REMSYN088AAXX  03004 82795 32594 61403 10218 20195 39549 40169 85240 333 10275 29080 55084 58000;
0201827950999992005090312004-07217-035883FM-12+0560SBKG V0201401N003110075019N0100001N1+02201+02031101801ADDAA124002091AY161061AY221061GF108991051071008001011999KA1240N+01931MA1999999095591MD1999999+0021MW1021REMSYN088AAXX  03124 82795 21597 81406 10220 20203 39559 40180 70262 8571/ 333 20193 58002 60024;
0114827950999992005090315004-07217-035883FM-15+0560SBKG V0201301N004612200019N0112651N1+02701+02001999999ADDGA1045+006901999GF104991999999999999999999MA1101801999999REMMET045SBKG 031500Z 13009KT 9999 SCT023 27/20 Q1018;
0114827950999992005090316004-07217-035883FM-15+0560SBKG V0201401N00721006901CN0112651N1+02801+01901999999ADDGA1075+006901999GF107991999999999999999999MA1101691999999REMMET045SBKG 031600Z 14014KT 9999 BKN023 28/19 Q1017;
0137827950999992005090318004-07217-035883FM-12+0560SBKG V0201401N004112200019N0100001N1+02731+01871101461ADDGF103991031011008001001001MA1999999095311MD1999999+0041REMSYN070AAXX  03184 82795 32597 31408 10273 20187 39531 40146 83100 333 58004;
0168827950999992005090400004-07217-035883FM-12+0560SBKG V0201401N003110075019N0010001N1+02141+01911101681ADDGF106991061021008001001001KA1240M+02751MA1999999095461MD1999999-0031REMSYN088AAXX  04004 82795 32594 61406 10214 20191 39546 40168 86200 333 10275 29081 55056 59003;
0156827950999992005090412004-07217-035883FM-12+0560SBKG V0201401N004110075019N0100001N1+02251+01921101891ADDGF105991051021008001001001KA1240N+01861MA1999999095671MD1999999+0081REMSYN076AAXX  04124 82795 32597 51408 10225 20192 39567 40189 85200 333 20186 58008;
0137827950999992005090418004-07217-035883FM-12+0560SBKG V0201401N005112200019N0100001N1+02671+01711101511ADDGF102991021021008001001001MA1999999095331MD1999999+0021REMSYN070AAXX  04184 82795 32597 21410 10267 20171 39533 40151 82200 333 58002;
0168827950999992005090500004-07217-035883FM-12+0560SBKG V0201401N002112200019N0010001N1+02041+01851101761ADDGF103991031021008001001001KA1240M+02741MA1999999095541MD1999999+0081REMSYN088AAXX  05004 82795 32594 31404 10204 20185 39554 40176 83200 333 10274 29079 55095 58008;
0201827950999992005090512004-07217-035883FM-12+0560SBKG V0201401N003610075019N0100001N1+02081+02001101901ADDAA124000591AY161061AY221061GF108991051071008001011999KA1240N+01901MA1999999095641MD1999999-0031MW1021REMSYN088AAXX  05124 82795 21597 81407 10208 20200 39564 40190 70262 8571/ 333 20190 59003 69944;
0201827950999992005090518004-07217-035883FM-12+0560SBKG V0201401N003612200019N0100001N1+02641+01691101441ADDAA106000591AY151061AY221061GF103991999021008001001001MA1999999095281MD1999999-0051MW1021REMSYN082AAXX  05184 82795 21597 31407 10264 20169 39528 40144 70252 85200 333 59005 69941;EQDQ01+000052SCOTLC
0168827950999992005090600004-07217-035883FM-12+0560SBKG V0201401N002612200019N0010001N1+02051+01801101791ADDGF102991021011008001001001KA1240M+02691MA1999999095541MD1999999+0001REMSYN088AAXX  06004 82795 32594 21405 10205 20180 39554 40179 82100 333 10269 29081 55052 58000;
0201827950999992005090612004-07217-035883FM-12+0560SBKG V0201401N004110075019N0100001N1+02231+01991101891ADDAA124000591AY161061AY221061GF108991051071008001011999KA1240N+01841MA1999999095661MD1999999+0021MW1021REMSYN088AAXX  06124 82795 21597 81408 10223 20199 39566 40189 70262 8571/ 333 20184 58002 69954;
0182827950999992005090618004-07217-035883FM-12+0560SBKG V0201401N006210120019N0100001N1+02531+02021101461ADDAA106000891AY151061AY221061GF105991051081008001001001MA1999999095271MD1999999-0011MW1021REMSYN082AAXX  06184 82795 21597 51412 10253 20202 39527 40146 70252 85800 333 59001 69971;
0168827950999992005090700004-07217-035883FM-12+0560SBKG V0201401N004110075019N0010001N1+02111+02001101711ADDGF106991061021008001001001KA1240M+02631MA1999999095491MD1999999-0051REMSYN088AAXX  07004 82795 32594 61408 10211 20200 39549 40171 86200 333 10263 29087 55057 59005;
0173827950999992005090712004-07217-035883FM-12+0560SBKG V0201401N005110075019N0100001N1+02311+01971101901ADDAA124000891GF106991061021008001001001KA1240N+01931MA1999999095681MD1999999+0021REMSYN082AAXX  07124 82795 22597 61410 10231 20197 39568 40190 86200 333 20193 58002 69974;
0137827950999992005090718004-07217-035883FM-12+0560SBKG V0201401N006712200019N0100001N1+02511+02031101561ADDGF104991041021008001001001MA1999999095401MD1999999+0131REMSYN070AAXX  07184 82795 32597 41413 10251 20203 39540 40156 84200 333 58013;
0168827950999992005090800004-07217-035883FM-12+0560SBKG V0200901N004112200019N0010001N1+02101+01911101811ADDGF104991021021008001041001KA1240M+02701MA1999999095601MD1999999+0111REMSYN088AAXX  08004 82795 32594 40908 10210 20191 39560 40181 82240 333 10270 29082 55091 58011;
0156827950999992005090812004-07217-035883FM-12+0560SBKG V0201801N005710075019N0100001N1+02301+01811102091ADDGF106991061021008001001001KA1240N+01911MA1999999095861MD1999999+0181REMSYN076AAXX  08124 82795 32597 61811 10230 20181 39586 40209 86200 333 20191 58018;
0137827950999992005090818004-07217-035883FM-12+0560SBKG V0201401N003112200019N0100001N1+02731+01591101621ADDGF103991021021008001001011MA1999999095441MD1999999+0041REMSYN070AAXX  08184 82795 32597 31406 10273 20159 39544 40162 82201 333 58004;
0168827950999992005090900004-07217-035883FM-12+0560SBKG V0201401N003112200019N0010001N1+02111+01841101911ADDGF104991041021008001001001KA1240M+02771MA1999999095691MD1999999-0091REMSYN088AAXX  09004 82795 32594 41406 10211 20184 39569 40191 84200 333 10277 29073 55101 59009;
0220827950999992005090912004-07217-035883FM-12+0560SBKG V0201401N004610075019N0100001N1+02261+01821101951ADDAA124000091AY161061AY221061GF107991071071008001001001KA1240N+01781MA1999999095721MD1999999-0141MW1021REMSYN088AAXX  09124 82795 21597 71409 10226 20182 39572 40195 70262 87700 333 20178 59014 69924;EQDQ01  00002PRCP24
0137827950999992005090918004-07217-035883FM-12+0560SBKG V0201401N004612200019N0100001N1+02631+01591101651ADDGF103991031021008001001001MA1999999095461MD1999999+0021REMSYN070AAXX  09184 82795 32597 31409 10263 20159 39546 40165 83200 333 58002;
0168827950999992005091000004-07217-035883FM-12+0560SBKG V0201401N002112200019N0010001N1+02021+01621101941ADDGF103991031021008001001001KA1240M+02771MA1999999095711MD1999999+0021REMSYN088AAXX  10004 82795 32594 31404 10202 20162 39571 40194 83200 333 10277 29071 55102 58002;
0156827950999992005091012004-07217-035883FM-12+0560SBKG V0201401N006210075019N0100001N1+02281+01641102011ADDGF106991061061008001001001KA1240N+01781MA1999999095771MD1999999+0051REMSYN076AAXX  10124 82795 32597 61412 10228 20164 39577 40201 86600 333 20178 58005;
0137827950999992005091018004-07217-035883FM-12+0560SBKG V0201401N006210075019N0100001N1+02731+01441101731ADDGF105991051021008001001001MA1999999095531MD1999999+0071REMSYN070AAXX  10184 82795 32597 51412 10273 20144 39553 40173 85200 333 58007;
0168827950999992005091100004-07217-035883FM-12+0560SBKG V0201401N003612200019N0010001N1+02031+01721101911ADDGF103991031021008001001001KA1240M+02741MA1999999095681MD1999999-0031REMSYN088AAXX  11004 82795 32594 31407 10203 20172 39568 40191 83200 333 10274 29070 55103 59003;
0201827950999992005091112004-07217-035883FM-12+0560SBKG V0201401N003610075019N0100001N1+02051+01941101981ADDAA124007191AY161061AY251061GF107991071071008001001001KA1240N+01791MA1999999095721MD1999999-0051MW1021REMSYN088AAXX  11124 82795 21597 71407 10205 20194 39572 40198 70265 87700 333 20179 59005 60074;
0137827950999992005091118004-07217-035883FM-12+0560SBKG V0201401N005111050019N0100001N1+02561+01591101631ADDGF105991021021008001061011MA1999999095431MD1999999-0101REMSYN070AAXX  11184 82795 32597 51410 10256 20159 39543 40163 82261 333 59010;
0196827950999992005091200004-07217-035883FM-12+0560SBKG V0201401N003110075019N0010001N1+01961+01721101891ADDAY121061AY221061GF107991051021008001071001KA1240M+02591MA1999999095631MD1999999-0051MW1161REMSYN094AAXX  12004 82795 31594 71406 10196 20172 39563 40189 71622 85270 333 10259 29080 55051 59005;
0156827950999992005091212004-07217-035883FM-12+0560SBKG V0201801N002610075019N0100001N1+02231+01781102131ADDGF106991061061008001001001KA1240N+01781MA1999999095741MD1999999+0021REMSYN076AAXX  12124 82795 32597 61805 10223 20178 39574 40213 86600 333 20178 58002;
0137827950999992005091218004-07217-035883FM-12+0548SBKG V0201401N004610075019N0100001N1+02701+01601101511ADDGF105991051011008001001001MA1999999095331MD1999999-0101REMSYN070AAXX  12184 82795 32597 51409 10270 20160 39533 40151 85100 333 59010;
0168827950999992005091300004-07217-035883FM-12+0548SBKG V0201401N002612200019N0010001N1+02071+01681101811ADDGF103991021011008001001021KA1240M+02721MA1999999095591MD1999999-0041REMSYN088AAXX  13004 82795 32594 31405 10207 20168 39559 40181 82102 333 10272 29071 55078 59004;
0184827950999992005091312004-07217-035883FM-12+0548SBKG V0201401N004610450019N0100001N1+02131+02021101781ADDAY121061AY221061GF107991041071008001021001KA1240N+01841MA1999999095551MD1999999-0191MW1151REMSYN082AAXX  13124 82795 31597 71409 10213 20202 39555 40178 71522 84720 333 20184 59019;
0137827950999992005091318004-07217-035883FM-12+0548SBKG V0201401N005110075019N0100001N1+02671+01891101401ADDGF105991051021008001001001MA1999999095341MD1999999-0091REMSYN070AAXX  13184 82795 32597 51410 10267 20189 39534 40140 85200 333 59009;
0201827950999992005091412004-07217-035883FM-12+0548SBKG V0201801N004110075019N0100001N1+02261+01711101831ADDAA124000591AY151061AY221061GF107991051041008001021001KA1240N+01801MA1999999095621MD1999999+0071MW1021REMSYN088AAXX  14124 82795 21597 71808 10226 20171 39562 40183 70252 85420 333 20180 58007 69954;
0137827950999992005091418004-07217-035883FM-12+0548SBKG V0201401N005112200019N0100001N1+02721+01661101431ADDGF104991041021008001001001MA1999999095241MD1999999+0001REMSYN070AAXX  14184 82795 32597 41410 10272 20166 39524 40143 84200 333 58000;
0168827950999992005091500004-07217-035883FM-12+0548SBKG V0201401N003110075019N0010001N1+02051+01741101801ADDGF106991061061008001001001KA1240M+02811MA1999999095581MD1999999+0071REMSYN088AAXX  15004 82795 32594 61406 10205 20174 39558 40180 86600 333 10281 29072 55092 58007;
0184827950999992005091512004-07217-035883FM-12+0548SBKG V0201401N003110120019N0040001N1+02151+02021101951ADDAY121061AY221061GF108991081081008001999999KA1240N+01841MA1999999095721MD1999999+0101MW1161REMSYN082AAXX  15124 82795 31596 81406 10215 20202 39572 40195 71622 888// 333 20184 58010;
0182827950999992005091518004-07217-035883FM-12+0548SBKG V0201401N006212200019N0100001N1+02621+01701101581ADDAA106000391AY151061AY221061GF105991031021008001001011MA1999999095401MD1999999+0161MW1021REMSYN082AAXX  15184 82795 21597 51412 10262 20170 39540 40158 70252 83201 333 58016 69931;
0178827950999992005091600004-07217-035883FM-12+0548SBKG V0201401N003112200019N0010001N1+02041+01781101931ADDGA1001+999999999GF100991001001999999001001KA1240M+02681MA1999999095691MD1999999+0111REMSYN082AAXX  16004 82795 32994 01406 10204 20178 39569 40193 333 10268 29080 55057 58011;
0173827950999992005091612004-07217-035883FM-12+0548SBKG V0201401N005110075019N0100001N1+02281+01831101901ADDAA124000391GF107991051051008001031001KA1240N+01761MA1999999095761MD1999999+0041REMSYN082AAXX  16124 82795 22597 71410 10228 20183 39576 40190 85530 333 20176 58004 69934;
0137827950999992005091618004-07217-035883FM-12+0548SBKG V0201401N005712200019N0100001N1+02521+01841101571ADDGF104991041041008001001001MA1999999095361MD1999999-0051REMSYN070AAXX  16184 82795 32597 41411 10252 20184 39536 40157 84400 333 59005;
0168827950999992005091700004-07217-035883FM-12+0548SBKG V0201401N003110075019N0010001N1+01991+01801101831ADDGF106991061021008001001001KA1240M+02731MA1999999095611MD1999999-0081REMSYN088AAXX  17004 82795 32594 61406 10199 20180 39561 40183 86200 333 10273 29080 55065 59008;
0175827950999992005091712004-07217-035883FM-12+0548SBKG V0201401N005110075019N0100001N1+02291+01591101801ADDGF107991999031008001001001KA1240N+01731MA1999999095581MD1999999+0181REMSYN076AAXX  17124 82795 32597 71410 10229 20159 39558 40180 85300 333 20173 58018;EQDQ01+000052SCOTLC
0137827950999992005091718004-07217-035883FM-12+0548SBKG V0201401N003112200019N0100001N1+02781+01731101281ADDGF104991041011008001001001MA1999999095121MD1999999-0161REMSYN070AAXX  17184 82795 32597 41406 10278 20173 39512 40128 84100 333 59016;
0178827950999992005091800004-07217-035883FM-12+0548SBKG V0201401N001512200019N0010001N1+02011+01701101611ADDGA1001+999999999GF100991001001999999001001KA1240M+02801MA1999999095431MD1999999-0181REMSYN082AAXX  18004 82795 32994 01403 10201 20170 39543 40161 333 10280 29071 55086 59018;
0156827950999992005091812004-07217-035883FM-12+0548SBKG V0201401N004612200019N0100001N1+02481+01871101771ADDGF104991041021008001001001KA1240N+01921MA1999999095571MD1999999-0011REMSYN076AAXX  18124 82795 32597 41409 10248 20187 39557 40177 84200 333 20192 59001;
0137827950999992005091818004-07217-035883FM-12+0548SBKG V0201401N004612200019N0100001N1+02871+01751101421ADDGF103991031031008001001001MA1999999095261MD1999999+0141REMSYN070AAXX  18184 82795 32597 31409 10287 20175 39526 40142 83300 333 58014;
0178827950999992005091900004-07217-035883FM-12+0548SBKG V0201401N003612200019N0010001N1+02031+01801101781ADDGA1001+999999999GF100991001001999999001001KA1240M+02921MA1999999095581MD1999999+0131REMSYN082AAXX  19004 82795 32994 01407 10203 20180 39558 40178 333 10292 29073 55112 58013;
0156827950999992005091912004-07217-035883FM-12+0548SBKG V0201401N004110075019N0100001N1+02321+01871101941ADDGF106991061021008001001001KA1240N+01851MA1999999095741MD1999999+0171REMSYN076AAXX  19124 82795 32597 61408 10232 20187 39574 40194 86200 333 20185 58017;
0137827950999992005091918004-07217-035883FM-12+0548SBKG V0201401N004612200019N0100001N1+02831+01611101471ADDGF103991031021008001001001MA1999999095321MD1999999+0061REMSYN070AAXX  19184 82795 32597 31409 10283 20161 39532 40147 83200 333 58006;
0168827950999992005092000004-07217-035883FM-12+0548SBKG V0201401N002612200019N0010001N1+02071+01911101951ADDGF102991021021008001001001KA1240M+02871MA1999999095731MD1999999+0151REMSYN088AAXX  20004 82795 32594 21405 10207 20191 39573 40195 82200 333 10287 29076 55103 58015;
0156827950999992005092012004-07217-035883FM-12+0548SBKG V0201401N003110075019N0100001N1+02361+01761101801ADDGF105991051021008001001001KA1240N+01851MA1999999095591MD1999999-0151REMSYN076AAXX  20124 82795 32597 51406 10236 20176 39559 40180 85200 333 20185 59015;
0137827950999992005092018004-07217-035883FM-12+0548SBKG V0201401N003612200019N0100001N1+02791+01671101441ADDGF102991021011008001001001MA1999999095291MD1999999-0031REMSYN070AAXX  20184 82795 32597 21407 10279 20167 39529 40144 82100 333 59003;
0168827950999992005092100004-07217-035883FM-12+0548SBKG V0200901N003612200019N0010001N1+02121+01881101571ADDGF102991021011008001001001KA1240M+02851MA1999999095391MD1999999-0341REMSYN088AAXX  21004 82795 32594 20907 10212 20188 39539 40157 82100 333 10285 29073 55110 59034;
0156827950999992005092112004-07217-035883FM-12+0548SBKG V0200901N003110075019N0100001N1+02361+01761101411ADDGF106991061041008001001001KA1240N+01881MA1999999095331MD1999999-0261REMSYN076AAXX  21124 82795 32597 60906 10236 20176 39533 40141 86400 333 20188 59026;
0137827950999992005092118004-07217-035883FM-12+0548SBKG V0200501N003612200019N0100001N1+02831+01741101051ADDGF102991021011008001001011MA1999999094921MD1999999-0301REMSYN070AAXX  21184 82795 32597 20507 10283 20174 39492 40105 82101 333 59030;
0168827950999992005092200004-07217-035883FM-12+0548SBKG V0200901N004110075019N0010001N1+02121+01891101321ADDGF105991051021008001001001KA1240M+02881MA1999999095151MD1999999-0241REMSYN088AAXX  22004 82795 32594 50908 10212 20189 39515 40132 85200 333 10288 29074 55110 59024;
0156827950999992005092212004-07217-035883FM-12+0548SBKG V0200901N003610075019N0100001N1+02381+01801101501ADDGF106991061021008001001001KA1240N+01901MA1999999095311MD1999999-0021REMSYN076AAXX  22124 82795 32597 60907 10238 20180 39531 40150 86200 333 20190 59002;
0137827950999992005092218004-07217-035883FM-12+0548SBKG V0201401N004611050019N0100001N1+02821+01771101091ADDGF105991031021008001001021MA1999999094971MD1999999+0001REMSYN070AAXX  22184 82795 32597 51409 10282 20177 39497 40109 83202 333 58000;
0168827950999992005092300004-07217-035883FM-12+0548SBKG V0200901N004110075019N0010001N1+02151+01931101381ADDGF106991061021008001001001KA1240M+02881MA1999999095211MD1999999+0061REMSYN088AAXX  23004 82795 32594 60908 10215 20193 39521 40138 86200 333 10288 29074 55099 58006;
0156827950999992005092312004-07217-035883FM-12+0548SBKG V0200901N003610450019N0100001N1+02341+01811101591ADDGF107991041051008001021001KA1240N+01941MA1999999095411MD1999999+0101REMSYN076AAXX  23124 82795 32597 70907 10234 20181 39541 40159 84520 333 20194 58010;
0137827950999992005092318004-07217-035883FM-12+0548SBKG V0200501N003612200019N0100001N1+02731+01851101211ADDGF104991041021008001001001MA1999999095091MD1999999+0121REMSYN070AAXX  23184 82795 32597 40507 10273 20185 39509 40121 84200 333 58012;
0168827950999992005092400004-07217-035883FM-12+0548SBKG V0200901N001512200019N0010001N1+02131+01801101581ADDGF102991021011008001001001KA1240M+02811MA1999999095401MD1999999+0191REMSYN088AAXX  24004 82795 32594 20903 10213 20180 39540 40158 82100 333 10281 29073 55081 58019;
0175827950999992005092412004-07217-035883FM-12+0548SBKG V0200501N005119999999N0100001N1+02331+01831101571ADDGF106991999021008001001001KA1240N+01841MA1999999095401MD1999999-0021REMSYN076AAXX  24124 82795 32597 60510 10233 20183 39540 40157 83200 333 20184 59002;EQDQ01+000032SCOTLC
0137827950999992005092418004-07217-035883FM-12+0548SBKG V0201401N007212200019N0100001N1+02591+01801101291ADDGF104991041041008001001001MA1999999095131MD1999999+0041REMSYN070AAXX  24184 82795 32597 41414 10259 20180 39513 40129 84400 333 58004;
0178827950999992005092500004-07217-035883FM-12+0548SBKG V0200901N002112200019N0010001N1+02141+01761101571ADDGA1001+999999999GF100991001001999999001001KA1240M+02811MA1999999095391MD1999999-0011REMSYN082AAXX  25004 82795 32994 00904 10214 20176 39539 40157 333 10281 29074 55090 59001;
0156827950999992005092512004-07217-035883FM-12+0548SBKG V0201401N004610075019N0100001N1+02571+01801101791ADDGF107991071021008001001001KA1240N+01951MA1999999095591MD1999999+0191REMSYN076AAXX  25124 82795 32597 71409 10257 20180 39559 40179 87200 333 20195 58019;
0137827950999992005092518004-07217-035883FM-12+0548SBKG V0200901N004612200019N0010001N1+02811+01601101371ADDGF104991041021008001001001MA1999999095231MD1999999+0101REMSYN070AAXX  25184 82795 32594 40909 10281 20160 39523 40137 84200 333 58010;
0168827950999992005092600004-07217-035883FM-12+0548SBKG V0200901N003612200019N0010001N1+02121+01861101631ADDGF102991021011008001001001KA1240M+02861MA1999999095441MD1999999+0051REMSYN088AAXX  26004 82795 32594 20907 10212 20186 39544 40163 82100 333 10286 29072 55092 58005;
0156827950999992005092612004-07217-035883FM-12+0548SBKG V0200901N004110075019N0100001N1+02471+01831101701ADDGF106991061041008001001001KA1240N+01961MA1999999095521MD1999999-0071REMSYN076AAXX  26124 82795 32597 60908 10247 20183 39552 40170 86400 333 20196 59007;
0137827950999992005092618004-07217-035883FM-12+0548SBKG V0201401N006712200019N0100001N1+02741+01841101401ADDGF104991041021008001001001MA1999999095241MD1999999+0011REMSYN070AAXX  26184 82795 32597 41413 10274 20184 39524 40140 84200 333 58001;
0168827950999992005092700004-07217-035883FM-12+0548SBKG V0200901N004110075019N0010001N1+02191+01971101711ADDGF106991061021008001001001KA1240M+02871MA1999999095531MD1999999+0091REMSYN088AAXX  27004 82795 32594 60908 10219 20197 39553 40171 86200 333 10287 29075 55096 58009;
0156827950999992005092712004-07217-035883FM-12+0548SBKG V0200901N003110450019N0100001N1+02461+01881101801ADDGF107991041051008001041001KA1240N+02031MA1999999095621MD1999999+0101REMSYN076AAXX  27124 82795 32597 70906 10246 20188 39562 40180 84540 333 20203 58010;
0137827950999992005092718004-07217-035883FM-12+0548SBKG V0201401N005112200019N0100001N1+02881+01801101401ADDGF103991031021008001001001MA1999999095281MD1999999+0041REMSYN070AAXX  27184 82795 32597 31410 10288 20180 39528 40140 83200 333 58004;
0168827950999992005092800004-07217-035883FM-12+0548SBKG V0200901N004110075019N0010001N1+02151+01931101741ADDGF106991061021008001001001KA1240M+02951MA1999999095561MD1999999+0031REMSYN088AAXX  28004 82795 32594 60908 10215 20193 39556 40174 86200 333 10295 29074 55082 58003;
0156827950999992005092812004-07217-035883FM-12+0548SBKG V0201401N005110450019N0100001N1+02541+01601101791ADDGF106991041021008001021001KA1240N+01931MA1999999095621MD1999999+0001REMSYN076AAXX  28124 82795 32597 61410 10254 20160 39562 40179 84220 333 20193 58000;
0137827950999992005092818004-07217-035883FM-12+0548SBKG V0201401N006212200019N0100001N1+02821+01551101301ADDGF104991041021008001001001MA1999999095161MD1999999-0121REMSYN070AAXX  28184 82795 32597 41412 10282 20155 39516 40130 84200 333 59012;
0168827950999992005092900004-07217-035883FM-12+0548SBKG V0201401N004112200019N0010001N1+02111+01801101631ADDGF104991041021008001001001KA1240M+02901MA1999999095451MD1999999-0111REMSYN088AAXX  29004 82795 32594 41408 10211 20180 39545 40163 84200 333 10290 29066 55096 59011;
0156827950999992005092912004-07217-035883FM-12+0548SBKG V0201401N005110120019N0100001N1+02421+01861101711ADDGF107991071081008001001001KA1240N+01861MA1999999095521MD1999999-0101REMSYN076AAXX  29124 82795 32597 71410 10242 20186 39552 40171 87800 333 20186 59010;
0137827950999992005092918004-07217-035883FM-12+0548SBKG V0201401N004610075019N0100001N1+02831+01441101291ADDGF105991051021008001001001MA1999999095151MD1999999-0011REMSYN070AAXX  29184 82795 32597 51409 10283 20144 39515 40129 85200 333 59001;
0168827950999992005093000004-07217-035883FM-12+0548SBKG V0201401N003112200019N0010001N1+02141+01881101631ADDGF102991021011008001001001KA1240M+02921MA1999999095441MD1999999-0011REMSYN088AAXX  30004 82795 32594 21406 10214 20188 39544 40163 82100 333 10292 29071 55084 59001;
0156827950999992005093012004-07217-035883FM-12+0548SBKG V0201401N005110075019N0100001N1+02441+01741100831ADDGF106991061021008001001001KA1240N+01941MA1999999095641MD1999999+0121REMSYN076AAXX  30124 82795 32597 61410 10244 20174 39564 40083 86200 333 20194 58012;
0137827950999992005093018004-07217-035883FM-12+0548SBKG V0201401N003612200019N0100001N1+02911+01721101281ADDGF104991041021008001001001MA1999999095161MD1999999+0011REMSYN070AAXX  30184 82795 32597 41407 10291 20172 39516 40128 84200 333 58001;
0155827950999992005100100004-07217-035883FM-12+0548SBKG V0200901N003110075019N0010001N1+02111+01781101591ADDGF106991061021008001001001MA1999999095411MD1999999-0031REMSYN088AAXX  01004 82795 32594 60906 10211 20178 39541 40159 86200 333 10295 29069 55081 59003;
0143827950999992005100112004-07217-035883FM-12+0548SBKG V0201401N006212200019N0100001N1+02591+01571101741ADDGF103991031031008001001001MA1999999095571MD1999999+0071REMSYN076AAXX  01124 82795 32597 31412 10259 20157 39557 40174 83300 333 20194 58007;
0137827950999992005100118004-07217-035883FM-12+0548SBKG V0201401N005712200019N0100001N1+02911+01551101291ADDGF104991041021008001001001MA1999999095161MD1999999+0001REMSYN070AAXX  01184 82795 32597 41411 10291 20155 39516 40129 84200 333 58000;
0149827950999992005100200004-07217-035883FM-12+0548SBKG V0201401N003112200019N0010001N1+02111+01681101641ADDGF100991001001999999001001MA1999999095481MD1999999+0041REMSYN082AAXX  02004 82795 32994 01406 10211 20168 39548 40164 333 10303 29063 55103 58004;
0143827950999992005100212004-07217-035883FM-12+0548SBKG V0201401N004610075019N0100001N1+02441+01711101751ADDGF105991051021008001001001MA1999999095551MD1999999-0021REMSYN076AAXX  02124 82795 32597 51409 10244 20171 39555 40175 85200 333 20197 59002;
0137827950999992005100218004-07217-035883FM-12+0548SBKG V0201401N004612200019N0100001N1+03011+01941101101ADDGF101991011011008001001001MA1999999095011MD1999999-0151REMSYN070AAXX  02184 82795 32597 11409 10301 20194 39501 40110 81100 333 59015;
0155827950999992005100300004-07217-035883FM-12+0548SBKG V0200501N005112200019N0100001N1+02091+01741101541ADDGF104991011011008001001021MA1999999095361MD1999999-0121REMSYN088AAXX  03004 82795 32597 40510 10209 20174 39536 40154 81102 333 10309 29069 55104 59012;
0143827950999992005100312004-07217-035883FM-12+0548SBKG V0200901N006210075019N0100001N1+02461+01681101601ADDGF105991051021008001001001MA1999999095421MD1999999-0131REMSYN076AAXX  03124 82795 32597 50912 10246 20168 39542 40160 85200 333 20193 59013;
0137827950999992005100318004-07217-035883FM-12+0548SBKG V0201401N003112200019N0100001N1+02891+01581101141ADDGF101991011011008001001001MA1999999095021MD1999999+0011REMSYN070AAXX  03184 82795 32597 11406 10289 20158 39502 40114 81100 333 58001;
0155827950999992005100400004-07217-035883FM-12+0548SBKG V0200901N003112200019N0010001N1+02161+01861101471ADDGF103991011021008001051001MA1999999095311MD1999999-0051REMSYN088AAXX  04004 82795 32594 30906 10216 20186 39531 40147 81250 333 10294 29068 55098 59005;
0188827950999992005100412004-07217-035883FM-12+0548SBKG V0201401N006210075019N0100001N1+02481+01961101541ADDAA124000591AY151061AY221061GF106991061041008001001001MA1999999095401MD1999999-0021MW1021REMSYN088AAXX  04124 82795 21597 61412 10248 20196 39540 40154 70252 86400 333 20195 59002 69964;
0137827950999992005100418004-07217-035883FM-12+0548SBKG V0200901N006712200019N0100001N1+02811+01751101241ADDGF104991041041008001001001MA1999999095131MD1999999+0111REMSYN070AAXX  04184 82795 32597 40913 10281 20175 39513 40124 84400 333 58011;
0155827950999992005100500004-07217-035883FM-12+0548SBKG V0200901N004610075019N0010001N1+02261+02031101571ADDGF106991061021008001001001MA1999999095411MD1999999+0101REMSYN088AAXX  05004 82795 32594 60909 10226 20203 39541 40157 86200 333 10295 29075 55084 58010;
0143827950999992005100512004-07217-035883FM-12+0548SBKG V0201401N003610075019N0100001N1+02521+01891101661ADDGF107991071061008001001001MA1999999095511MD1999999+0111REMSYN076AAXX  05124 82795 32597 71407 10252 20189 39551 40166 87600 333 20197 58011;
0137827950999992005100518004-07217-035883FM-12+0548SBKG V0201401N004612200019N0100001N1+02841+01821101221ADDGF103991031011008001001001MA1999999095101MD1999999-0031REMSYN070AAXX  05184 82795 32597 31409 10284 20182 39510 40122 83100 333 59003;
0155827950999992005100600004-07217-035883FM-12+0548SBKG V0201401N002610075019N0010001N1+02321+01891101561ADDGF106991061021008001001001MA1999999095421MD1999999+0011REMSYN088AAXX  06004 82795 32594 61405 10232 20189 39542 40156 86200 333 10294 29069 55091 58001;
0188827950999992005100612004-07217-035883FM-12+0548SBKG V0201401N004110120019N0100001N1+02421+01791101821ADDAA124003091AY161061AY251061GF107991071081008001001001MA1999999095641MD1999999+0131MW1021REMSYN088AAXX  06124 82795 21597 71408 10242 20179 39564 40182 70265 87800 333 20198 58013 60034;
0137827950999992005100618004-07217-035883FM-12+0548SBKG V0201401N005712200019N0100001N1+02811+01601101481ADDGF105991031021008001001011MA1999999095341MD1999999+0241REMSYN070AAXX  06184 82795 32597 51411 10281 20160 39534 40148 83201 333 58024;
0174827950999992005100700004-07217-035883FM-12+0548SBKG V0200901N004110075019N0010001N1+02201+01901101751ADDGF106991061021008001001001MA1999999999999MD1999999+0151REMSYN088AAXX  07004 82795 32594 60908 10220 20190 39157 40175 86200 333 10294 29070 55065 58015;EQDQ01 091573APOSP 
0188827950999992005100712004-07217-035883FM-12+0548SBKG V0201401N005710120019N0100001N1+02291+01961101781ADDAA124003091AY161061AY251061GF107991071081008001001001MA1999999095611MD1999999-0031MW1021REMSYN088AAXX  07124 82795 21597 71411 10229 20196 39561 40178 70265 87800 333 20197 59003 60034;
0137827950999992005100718004-07217-035883FM-12+0548SBKG V0201401N005110075019N0100001N1+02821+01801101471ADDGF106991061041008001001001MA1999999095321MD1999999-0021REMSYN070AAXX  07184 82795 32597 61410 10282 20180 39532 40147 86400 333 59002;
0155827950999992005100800004-07217-035883FM-12+0548SBKG V0201401N003610075019N0010001N1+02151+01991101871ADDGF107991071021008001001001MA1999999095651MD1999999+0081REMSYN088AAXX  08004 82795 32594 71407 10215 20199 39565 40187 87200 333 10286 29079 55060 58008;
0188827950999992005100812004-07217-035883FM-12+0548SBKG V0201401N005110120019N0100001N1+02501+01641101821ADDAA124001091AY161061AY221061GF106991999081008001001001MA1999999095641MD1999999+0091MW1021REMSYN088AAXX  08124 82795 21597 61410 10250 20164 39564 40182 70262 85800 333 20193 58009 60014;
0137827950999992005100818004-07217-035883FM-12+0548SBKG V0200501N005112200019N0100001N1+02711+01661101411ADDGF104991041021008001001001MA1999999095251MD1999999-0101REMSYN070AAXX  08184 82795 32597 40510 10271 20166 39525 40141 84200 333 59010;
0155827950999992005100900004-07217-035883FM-12+0548SBKG V0200901N003112200019N0010001N1+02111+01891101731ADDGF102991021011008001001001MA1999999095551MD1999999-0101REMSYN088AAXX  09004 82795 32594 20906 10211 20189 39555 40173 82100 333 10286 29072 55094 59010;
0143827950999992005100912004-07217-035883FM-12+0548SBKG V0201401N004612200019N0100001N1+02341+01571101761ADDGF104991021021008001061001MA1999999095551MD1999999-0091REMSYN076AAXX  09124 82795 32597 41409 10234 20157 39555 40176 82260 333 20185 59009;
0137827950999992005100918004-07217-035883FM-12+0548SBKG V0201401N004612200019N0100001N1+02891+01531101321ADDGF104991041021008001001001MA1999999095191MD1999999+0061REMSYN070AAXX  09184 82795 32597 41409 10289 20153 39519 40132 84200 333 58006;
0155827950999992005101000004-07217-035883FM-12+0548SBKG V0201401N003612200019N0010001N1+02181+01741101641ADDGF102991021011008001001001MA1999999095451MD1999999-0101REMSYN088AAXX  10004 82795 32594 21407 10218 20174 39545 40164 82100 333 10293 29064 55101 59010;
0143827950999992005101012004-07217-035883FM-12+0548SBKG V0201401N003112200019N0100001N1+02511+01701101581ADDGF102991021021008001001001MA1999999095421MD1999999-0171REMSYN076AAXX  10124 82795 32597 21406 10251 20170 39542 40158 82200 333 20188 59017;
0137827950999992005101018004-07217-035883FM-12+0548SBKG V0201401N003612200019N0100001N1+02861+01751101221ADDGF101991999041008001001001MA1999999095101MD1999999-0091REMSYN070AAXX  10184 82795 32597 11407 10286 20175 39510 40122 83400 333 59009;
0155827950999992005101100004-07217-035883FM-12+0548SBKG V0200901N004110075019N0010001N1+02111+01881101561ADDGF106991061021008001001001MA1999999095391MD1999999-0061REMSYN088AAXX  11004 82795 32594 60908 10211 20188 39539 40156 86200 333 10293 29071 55102 59006;
0143827950999992005101112004-07217-035883FM-12+0548SBKG V0201401N004610075019N0100001N1+02331+01741101651ADDGF105991051031008001001001MA1999999095451MD1999999+0031REMSYN076AAXX  11124 82795 32597 51409 10233 20174 39545 40165 85300 333 20194 58003;
0137827950999992005101118004-07217-035883FM-12+0548SBKG V0201401N006212200019N0100001N1+02741+01671101251ADDGF102991021011008001001001MA1999999095111MD1999999+0011REMSYN070AAXX  11184 82795 32597 21412 10274 20167 39511 40125 82100 333 58001;
0155827950999992005101200004-07217-035883FM-12+0548SBKG V0200901N004112200019N0010001N1+02171+01921101581ADDGF102991021011008001001001MA1999999095471MD1999999+0011REMSYN088AAXX  12004 82795 32594 20908 10217 20192 39547 40158 82100 333 10283 29073 55092 58001;
0188827950999992005101212004-07217-035883FM-12+0548SBKG V0200901N004610075019N0100001N1+02511+01661101721ADDAA124000391AY161061AY221061GF106991061021008001001001MA1999999095551MD1999999+0101MW1021REMSYN088AAXX  12124 82795 21597 60909 10251 20166 39555 40172 70262 86200 333 20195 58010 69934;
0137827950999992005101218004-07217-035883FM-12+0548SBKG V0200901N005112200019N0100001N1+02841+01501101211ADDGF104991041021008001001001MA1999999095091MD1999999-0021REMSYN070AAXX  12184 82795 32597 40910 10284 20150 39509 40121 84200 333 59002;
0155827950999992005101300004-07217-035883FM-12+0548SBKG V0200901N005110075019N0010001N1+02091+01841101571ADDGF106991061021008001001001MA1999999095401MD1999999+0001REMSYN088AAXX  13004 82795 32594 60910 10209 20184 39540 40157 86200 333 10293 29069 55095 58000;
0143827950999992005101312004-07217-035883FM-12+0548SBKG V0201401N006710075019N0100001N1+02531+01741101651ADDGF105991051051008001001001MA1999999095461MD1999999-0091REMSYN076AAXX  13124 82795 32597 51413 10253 20174 39546 40165 85500 333 20192 59009;
0137827950999992005101318004-07217-035883FM-12+0548SBKG V0200501N005712200019N0100001N1+02811+01751101191ADDGF103991031021008001001001MA1999999095061MD1999999-0031REMSYN070AAXX  13184 82795 32597 30511 10281 20175 39506 40119 83200 333 59003;
0155827950999992005101400004-07217-035883FM-12+0548SBKG V0200901N004610075019N0010001N1+02221+01861101571ADDGF106991061021008001001001MA1999999095411MD1999999+0011REMSYN088AAXX  14004 82795 32594 60909 10222 20186 39541 40157 86200 333 10307 29069 55106 58001;
0188827950999992005101412004-07217-035883FM-12+0548SBKG V0200501N004110120019N0100001N1+02051+01851101821ADDAA124000591AY151061AY221061GF108991999081008001001001MA1999999095581MD1999999+0121MW1021REMSYN088AAXX  14124 82795 21597 80508 10205 20185 39558 40182 70252 87800 333 20196 58012 69964;
0137827950999992005101418004-07217-035883FM-12+0548SBKG V0201401N005110075019N0100001N1+02731+01521101821ADDGF105991051021008001001001MA1999999095581MD1999999+0121REMSYN070AAXX  14184 82795 32597 51410 10273 20152 39558 40182 85200 333 58012;
0155827950999992005101500004-07217-035883FM-12+0548SBKG V0200901N003612200019N0010001N1+02131+01861101671ADDGF102991021011008001001001MA1999999095441MD1999999+0031REMSYN088AAXX  15004 82795 32594 20907 10213 20186 39544 40167 82100 333 10291 29076 55060 58003;
0143827950999992005101512004-07217-035883FM-12+0548SBKG V0200901N003110075019N0100001N1+02481+01781101641ADDGF105991051021008001001001MA1999999095461MD1999999-0181REMSYN076AAXX  15124 82795 32597 50906 10248 20178 39546 40164 85200 333 20197 59018;
0137827950999992005101518004-07217-035883FM-12+0548SBKG V0200901N003112200019N0100001N1+02831+01611101221ADDGF103991031011008001001001MA1999999095101MD1999999-0081REMSYN070AAXX  15184 82795 32597 30906 10283 20161 39510 40122 83100 333 59008;
0143827950999992005101612004-07217-035883FM-12+0548SBKG V0201401N003110075019N0100001N1+02491+01651101591ADDGF106991061021008001001001MA1999999095411MD1999999-0051REMSYN076AAXX  16124 82795 32597 61406 10249 20165 39541 40159 86200 333 20192 59005;
0156827950999992005101618004-07217-035883FM-12+0548SBKG V0200901N004612200019N0100001N1+02921+01531101161ADDGF103991031021008001001001MA1999999999999MD1999999-0061REMSYN070AAXX  16184 82795 32597 30909 10292 20153 39704 40116 83200 333 59006;EQDQ01 097043APOSP 
0155827950999992005101700004-07217-035883FM-12+0548SBKG V0200901N006210075019N0010001N1+02171+01841101641ADDGF105991051011008001001001MA1999999095461MD1999999+0081REMSYN088AAXX  17004 82795 32594 50912 10217 20184 39546 40164 85100 333 10298 29066 55102 58008;
0188827950999992005101712004-07217-035883FM-12+0548SBKG V0201401N003110120019N0100001N1+02401+02031101581ADDAA124000891AY151061AY221061GF107991071081008001001001MA1999999095401MD1999999-0011MW1021REMSYN088AAXX  17124 82795 21597 71406 10240 20203 39540 40158 70252 87800 333 20195 59001 69974;
0137827950999992005101718004-07217-035883FM-12+0548SBKG V0201401N005712200019N0100001N1+02861+01551101201ADDGF103991031011008001001001MA1999999095081MD1999999+0041REMSYN070AAXX  17184 82795 32597 31411 10286 20155 39508 40120 83100 333 58004;
0155827950999992005101800004-07220-035880FM-12+0548SBKG V0200901N002112200019N0010001N1+02201+01821101561ADDGF103991031011008001001001MA1999999095391MD1999999-0071REMSYN088AAXX  18004 82795 32594 30904 10220 20182 39539 40156 83100 333 10291 29071 55076 59007;
0156827950999992005101812004-07217-035883FM-12+0548SBKG V0201401N005110075019N0100001N1+02541+01651101551ADDGF106991061021008001001001KA1240N+01971MA1999999095391MD1999999-0011REMSYN076AAXX  18124 82795 32597 61410 10254 20165 39539 40155 86200 333 20197 59001;
0156827950999992005101818004-07217-035883FM-12+0548SBKG V0201401N005712200019N0100001N1+02931+01711101201ADDGF102991999011008001001001MA1999999095101MD1999999+0021REMSYN070AAXX  18184 82795 32597 21411 10293 20171 39510 40120 83100 333 58002;EQDQ01+000032SCOTLC
0178827950999992005101900004-07217-035883FM-12+0548SBKG V0200901N004612200019N0010001N1+02221+01841101611ADDGA1001+999999999GF100991001001999999001001KA1240M+03001MA1999999095451MD1999999+0061REMSYN082AAXX  19004 82795 32994 00909 10222 20184 39545 40161 333 10300 29066 55112 58006;
0156827950999992005101912004-07217-035883FM-12+0548SBKG V0201401N004110075019N0100001N1+02501+01871101651ADDGF106991051041008001001021KA1240N+01981MA1999999095491MD1999999+0101REMSYN076AAXX  19124 82795 32597 61408 10250 20187 39549 40165 85402 333 20198 58010;
0137827950999992005101918004-07217-035883FM-12+0548SBKG V0200501N006710120019N0100001N1+02911+01481101391ADDGF105991051081008001001051MA1999999095271MD1999999+0171REMSYN070AAXX  19184 82795 32597 50513 10291 20148 39527 40139 85805 333 58017;
0168827950999992005102000004-07217-035883FM-12+0548SBKG V0200901N004610075019N0010001N1+02171+01801101691ADDGF105991051021008001001001KA1240M+03051MA1999999095531MD1999999+0081REMSYN088AAXX  20004 82795 32594 50909 10217 20180 39553 40169 85200 333 10305 29067 55095 58008;
0156827950999992005102012004-07217-035883FM-12+0548SBKG V0201401N007210075019N0100001N1+02641+01581101651ADDGF106991061021008001001001KA1240N+01921MA1999999095501MD1999999+0011REMSYN076AAXX  20124 82795 32597 61414 10264 20158 39550 40165 86200 333 20192 58001;
0137827950999992005102018004-07217-035883FM-12+0548SBKG V0201401N003612200019N0100001N1+02911+01551101251ADDGF102991021021008001001001MA1999999095121MD1999999-0151REMSYN070AAXX  20184 82795 32597 21407 10291 20155 39512 40125 82200 333 59015;
0168827950999992005102100004-07217-035883FM-12+0548SBKG V0201401N004112200019N0010001N1+02201+01781101491ADDGF104991041021008001001001KA1240M+02991MA1999999095351MD1999999-0181REMSYN088AAXX  21004 82795 32594 41408 10220 20178 39535 40149 84200 333 10299 29062 55112 59018;
0156827950999992005102112004-07217-035883FM-12+0548SBKG V0200901N004610075019N0100001N1+02521+01791101581ADDGF106991061031008001001001KA1240N+02061MA1999999095381MD1999999-0121REMSYN076AAXX  21124 82795 32597 60909 10252 20179 39538 40158 86300 333 20206 59012;
0137827950999992005102118004-07217-035883FM-12+0548SBKG V0201401N006210075019N0100001N1+02841+01671101211ADDGF105991051021008001001001MA1999999095091MD1999999-0031REMSYN070AAXX  21184 82795 32597 51412 10284 20167 39509 40121 85200 333 59003;
0168827950999992005102200004-07217-035883FM-12+0548SBKG V0200901N004612200019N0010001N1+02171+01881101521ADDGF102991021011008001001001KA1240M+02971MA1999999095361MD1999999+0011REMSYN088AAXX  22004 82795 32594 20909 10217 20188 39536 40152 82100 333 10297 29070 55094 58001;
0156827950999992005102212004-07217-035883FM-12+0548SBKG V0200901N005712200019N0100001N1+02541+01631101511ADDGF102991021011008001001001KA1240N+01911MA1999999095351MD1999999-0031REMSYN076AAXX  22124 82795 32597 20911 10254 20163 39535 40151 82100 333 20191 59003;
0137827950999992005102218004-07217-035883FM-12+0548SBKG V0200901N004612200019N0100001N1+03011+01531101151ADDGF102991011011008001001011MA1999999095051MD1999999-0041REMSYN070AAXX  22184 82795 32597 20909 10301 20153 39505 40115 81101 333 59004;
0168827950999992005102300004-07217-035883FM-12+0548SBKG V0200901N003612200019N0010001N1+02151+01821101521ADDGF102991001001999999001011KA1240M+03041MA1999999095361MD1999999+0001REMSYN088AAXX  23004 82795 32994 20907 10215 20182 39536 40152 80001 333 10304 29065 55108 58000;
0156827950999992005102312004-07217-035883FM-12+0548SBKG V0201401N004110075019N0100001N1+02451+01831101581ADDGF106991061021008001001001KA1240N+01891MA1999999095411MD1999999+0061REMSYN076AAXX  23124 82795 32597 61408 10245 20183 39541 40158 86200 333 20189 58006;
0137827950999992005102318004-07217-035883FM-12+0548SBKG V0201401N004612200019N0100001N1+02961+01641101171ADDGF103991031021008001001001MA1999999095051MD1999999+0001REMSYN070AAXX  23184 82795 32597 31409 10296 20164 39505 40117 83200 333 58000;
0168827950999992005102400004-07217-035883FM-12+0548SBKG V0200901N004112200019N0010001N1+02181+01801101531ADDGF103991031021008001001001KA1240M+03041MA1999999095361MD1999999+0001REMSYN088AAXX  24004 82795 32594 30908 10218 20180 39536 40153 83200 333 10304 29068 55102 58000;
0156827950999992005102412004-07217-035883FM-12+0548SBKG V0201401N005110075019N0100001N1+02511+02051101611ADDGF105991051021008001001001KA1240N+01931MA1999999095451MD1999999+0041REMSYN076AAXX  24124 82795 32597 51410 10251 20205 39545 40161 85200 333 20193 58004;
0137827950999992005102418004-07217-035883FM-12+0548SBKG V0201401N005712200019N0100001N1+02891+01501101141ADDGF103991031021008001001001MA1999999095021MD1999999-0031REMSYN070AAXX  24184 82795 32597 31411 10289 20150 39502 40114 83200 333 59003;
0168827950999992005102500004-07217-035883FM-12+0548SBKG V0200901N005112200019N0010001N1+02131+01881101481ADDGF102991021011008001001001KA1240M+03011MA1999999095321MD1999999-0041REMSYN088AAXX  25004 82795 32594 20910 10213 20188 39532 40148 82100 333 10301 29072 55105 59004;
0156827950999992005102512004-07217-035883FM-12+0548SBKG V0201401N004110075019N0100001N1+02511+01871101541ADDGF106991061021008001001001KA1240N+01951MA1999999095371MD1999999-0081REMSYN076AAXX  25124 82795 32597 61408 10251 20187 39537 40154 86200 333 20195 59008;
0137827950999992005102518004-07217-035883FM-12+0548SBKG V0201401N005112200019N0100001N1+02961+01781101161ADDGF102991021011008001001001MA1999999095051MD1999999+0031REMSYN070AAXX  25184 82795 32597 21410 10296 20178 39505 40116 82100 333 58003;
0178827950999992005102600004-07217-035883FM-12+0548SBKG V0200901N003112200019N0010001N1+02161+01771101431ADDGA1001+999999999GF100991001001999999001001KA1240M+03091MA1999999095281MD1999999-0041REMSYN082AAXX  26004 82795 32994 00906 10216 20177 39528 40143 333 10309 29067 55102 59004;
0156827950999992005102612004-07217-035883FM-12+0548SBKG V0201401N004610075019N0100001N1+02691+01811101481ADDGF106991061021008001001001KA1240N+01931MA1999999095341MD1999999-0031REMSYN076AAXX  26124 82795 32597 61409 10269 20181 39534 40148 86200 333 20193 59003;
0137827950999992005102618004-07217-035883FM-12+0548SBKG V0201401N005712200019N0100001N1+02981+01661101151ADDGF101991011011008001001001MA1999999095041MD1999999-0011REMSYN070AAXX  26184 82795 32597 11411 10298 20166 39504 40115 81100 333 59001;
0168827950999992005102700004-07217-035883FM-12+0548SBKG V0200901N005110075019N0010001N1+02241+01941101381ADDGF106991061021008001001001KA1240M+03141MA1999999095261MD1999999-0021REMSYN088AAXX  27004 82795 32594 60910 10224 20194 39526 40138 86200 333 10314 29068 55111 59002;
0156827950999992005102712004-07217-035883FM-12+0548SBKG V0201401N005110075019N0100001N1+02501+01821101511ADDGF106991061021008001001001KA1240N+01971MA1999999095351MD1999999+0011REMSYN076AAXX  27124 82795 32597 61410 10250 20182 39535 40151 86200 333 20197 58001;
0137827950999992005102718004-07217-035883FM-12+0548SBKG V0201401N004612200019N0100001N1+02961+01781101101ADDGF103991031021008001001001MA1999999095001MD1999999-0041REMSYN070AAXX  27184 82795 32597 31409 10296 20178 39500 40110 83200 333 59004;
0156827950999992005102812004-07217-035883FM-12+0548SBKG V0200901N004110075019N0100001N1+02451+01811101551ADDGF105991051021008001001001KA1240N+02001MA1999999095381MD1999999+0031REMSYN076AAXX  28124 82795 32597 50908 10245 20181 39538 40155 85200 333 20200 58003;
0137827950999992005102818004-07217-035883FM-12+0548SBKG V0200501N003612200019N0100001N1+03031+01691101061ADDGF101991011011008001001001MA1999999095011MD1999999+0011REMSYN070AAXX  28184 82795 32597 10507 10303 20169 39501 40106 81100 333 58001;
0168827950999992005102900004-07217-035883FM-12+0548SBKG V0200901N004110075019N0010001N1+02141+01901101411ADDGF106991061021008001001001KA1240M+03061MA1999999095251MD1999999-0101REMSYN088AAXX  29004 82795 32594 60908 10214 20190 39525 40141 86200 333 10306 29072 55101 59010;
0156827950999992005102912004-07217-035883FM-12+0548SBKG V0200901N004610075019N0100001N1+02521+01841101591ADDGF105991051021008001001001KA1240N+01931MA1999999095421MD1999999+0041REMSYN076AAXX  29124 82795 32597 50909 10252 20184 39542 40159 85200 333 20193 58004;
0137827950999992005102918004-07217-035883FM-12+0548SBKG V0200901N003612200019N0100001N1+03171+01531101081ADDGF101991011011008001001001MA1999999094991MD1999999-0021REMSYN070AAXX  29184 82795 32597 10907 10317 20153 39499 40108 81100 333 59002;
0168827950999992005103000004-07217-035883FM-12+0548SBKG V0200901N004612200019N0010001N1+02131+01971101351ADDGF102991021011008001001001KA1240M+03171MA1999999095191MD1999999-0061REMSYN088AAXX  30004 82795 32594 20909 10213 20197 39519 40135 82100 333 10317 29069 55108 59006;
0156827950999992005103012004-07217-035883FM-12+0548SBKG V0200501N004112200019N0100001N1+02131+01791101551ADDGF102991021011008001001001KA1240N+02001MA1999999095381MD1999999-0041REMSYN076AAXX  30124 82795 32597 20508 10213 20179 39538 40155 82100 333 20200 59004;
0137827950999992005103018004-07217-035883FM-12+0548SBKG V0200901N004112200019N0100001N1+03211+01631101141ADDGF101991011011008001001001MA1999999095071MD1999999+0081REMSYN070AAXX  30184 82795 32597 10908 10321 20163 39507 40114 81100 333 58008;
0187827950999992005103100004-07217-035883FM-12+0548SBKG V0200901N004119999999N0010001N1+02221+01921101461ADDGF105991999021008001001001KA1240M+03211MA1999999095351MD1999999+0121REMSYN088AAXX  31004 82795 32594 50908 10222 20192 39535 40146 83200 333 10321 29067 55104 58012;EQDQ01+000032SCOTLC
0156827950999992005103112004-07217-035883FM-12+0548SBKG V0200901N004610075019N0100001N1+02561+01821101591ADDGF106991061021008001001001KA1240N+02041MA1999999095441MD1999999+0061REMSYN076AAXX  31124 82795 32597 60909 10256 20182 39544 40159 86200 333 20204 58006;
0137827950999992005103118004-07217-035883FM-12+0548SBKG V0201401N004612200019N0100001N1+02921+01711101251ADDGF101991011011008001001001MA1999999095151MD1999999+0081REMSYN070AAXX  31184 82795 32597 11409 10292 20171 39515 40125 81100 333 58008;
0168827950999992005110100004-07217-035883FM-12+0548SBKG V0200901N004112200019N0010001N1+02201+01921101601ADDGF101991011011008001001001KA1240M+03021MA1999999095441MD1999999+0131REMSYN088AAXX  01004 82795 32594 10908 10220 20192 39544 40160 81100 333 10302 29070 55097 58013;
0156827950999992005110112004-07217-035883FM-12+0548SBKG V0200901N003610075019N0100001N1+02461+01901101731ADDGF106991061021008001001001KA1240N+02021MA1999999095551MD1999999+0111REMSYN076AAXX  01124 82795 32597 60907 10246 20190 39555 40173 86200 333 20202 58011;
0137827950999992005110118004-07217-035883FM-12+0548SBKG V0200501N004612200019N0100001N1+03011+01641101281ADDGF101991011011008001001001MA1999999095181MD1999999+0081REMSYN070AAXX  01184 82795 32597 10509 10301 20164 39518 40128 81100 333 58008;
0178827950999992005110200004-07217-035883FM-12+0548SBKG V0200901N004112200019N0010001N1+02181+01781101701ADDGA1001+999999999GF100991001001999999001001KA1240M+03081MA1999999095521MD1999999+0081REMSYN082AAXX  02004 82795 32994 00908 10218 20178 39552 40170 333 10308 29068 55101 58008;
0110827950999992005110212004-07217-035883FM-12+0548SBKG V0200901N003119999999N0100001N1+02591+01821999999ADDGF105991999999008001999999REMSYN072AAXX  02124 82795 32597 50906 10259 20182 20194 39568 40186 58013 85200;
0168827950999992005110300004-07217-035883FM-12+0548SBKG V0200901N004612200019N0010001N1+02231+01941101631ADDGF102991011011008001001011KA1240M+03151MA1999999095481MD1999999-0041REMSYN088AAXX  03004 82795 32594 20909 10223 20194 39548 40163 81101 333 10315 29068 55100 59004;
0156827950999992005110312004-07217-035883FM-12+0548SBKG V0201401N004110075019N0100001N1+02561+01701101871ADDGF105991051011008001001001KA1240N+02001MA1999999095691MD1999999+0011REMSYN076AAXX  03124 82795 32597 51408 10256 20170 39569 40187 85100 333 20200 58001;
0137827950999992005110318004-07217-035883FM-12+0548SBKG V0201401N005112200019N0100001N1+03021+01471101391ADDGF102991021011008001001001MA1999999095271MD1999999-0061REMSYN070AAXX  03184 82795 32597 21410 10302 20147 39527 40139 82100 333 59006;
0168827950999992005110400004-07217-035883FM-12+0548SBKG V0200901N004612200019N0010001N1+02221+01761101701ADDGF102991011011008001001011KA1240M+03121MA1999999095541MD1999999+0061REMSYN088AAXX  04004 82795 32594 20909 10222 20176 39554 40170 81101 333 10312 29062 55102 58006;
0156827950999992005110412004-07217-035883FM-12+0548SBKG V0201401N005710075019N0100001N1+02491+01771101651ADDGF106991061021008001001001KA1240N+01931MA1999999095491MD1999999-0201REMSYN076AAXX  04124 82795 32597 61411 10249 20177 39549 40165 86200 333 20193 59020;
0137827950999992005110418004-07217-035883FM-12+0548SBKG V0201401N006712200019N0100001N1+02891+01391101301ADDGF103991031021008001001001MA1999999095181MD1999999-0091REMSYN070AAXX  04184 82795 32597 31413 10289 20139 39518 40130 83200 333 59009;
0168827950999992005110500004-07217-035883FM-12+0548SBKG V0200901N003612200019N0010001N1+02141+01801101581ADDGF104991031021008001001011KA1240M+03031MA1999999095411MD1999999-0131REMSYN088AAXX  05004 82795 32594 40907 10214 20180 39541 40158 83201 333 10303 29066 55102 59013;
0156827950999992005110512004-07217-035883FM-12+0548SBKG V0201401N003612200019N0100001N1+02521+01631101631ADDGF103991011031008001001011KA1240N+01931MA1999999095451MD1999999-0041REMSYN076AAXX  05124 82795 32597 31407 10252 20163 39545 40163 81301 333 20193 59004;
0137827950999992005110518004-07217-035883FM-12+0548SBKG V0201401N005112200019N0100001N1+02951+01691101121ADDGF103991031021008001001001MA1999999095021MD1999999-0161REMSYN070AAXX  05184 82795 32597 31410 10295 20169 39502 40112 83200 333 59016;
0168827950999992005110600004-07217-035883FM-12+0548SBKG V0201401N005110075019N0010001N1+02181+01921101461ADDGF106991061051008001001001KA1240M+03031MA1999999095301MD1999999-0111REMSYN088AAXX  06004 82795 32594 61410 10218 20192 39530 40146 86500 333 10303 29068 55103 59011;
0156827950999992005110612004-07217-035883FM-12+0548SBKG V0201401N004610075019N0100001N1+02511+01741101531ADDGF105991051031008001001001KA1240N+01991MA1999999095371MD1999999-0081REMSYN076AAXX  06124 82795 32597 51409 10251 20174 39537 40153 85300 333 20199 59008;
0137827950999992005110618004-07217-035883FM-12+0548SBKG V0201401N004612200019N0100001N1+03041+01571101051ADDGF102991021021008001001001MA1999999094961MD1999999-0061REMSYN070AAXX  06184 82795 32597 21409 10304 20157 39496 40105 82200 333 59006;
0168827950999992005110700004-07217-035883FM-12+0548SBKG V0201401N006210075019N0010001N1+02121+01781101471ADDGF106991061061008001001001KA1240M+03081MA1999999095291MD1999999-0011REMSYN088AAXX  07004 82795 32594 61412 10212 20178 39529 40147 86600 333 10308 29066 55104 59001;
0137827950999992005110718004-07217-035883FM-12+0548SBKG V0201401N004612200019N0100001N1+02981+01351100971ADDGF101991011011008001001001MA1999999094891MD1999999-0071REMSYN070AAXX  07184 82795 32597 11409 10298 20135 39489 40097 81100 333 59007;
0156827950999992005110812004-07217-035883FM-12+0548SBKG V0201401N004112200019N0100001N1+02561+01731101451ADDGF104991041011008001001001KA1240N+01951MA1999999095311MD1999999-0021REMSYN076AAXX  08124 82795 32597 41408 10256 20173 39531 40145 84100 333 20195 59002;
0137827950999992005110818004-07217-035883FM-12+0548SBKG V0201401N004612200019N0100001N1+02971+01681101111ADDGF104991041021008001001001MA1999999095011MD1999999+0121REMSYN070AAXX  08184 82795 32597 41409 10297 20168 39501 40111 84200 333 58012;
0168827950999992005110900004-07217-035883FM-12+0548SBKG V0200901N004110075019N0010001N1+02241+01921101441ADDGF105991051021008001001001KA1240M+03111MA1999999095301MD1999999+0011REMSYN088AAXX  09004 82795 32594 50908 10224 20192 39530 40144 85200 333 10311 29067 55098 58001;
0156827950999992005110912004-07217-035883FM-12+0548SBKG V0201401N004610075019N0100001N1+02631+01911101441ADDGF105991051021008001001001KA1240N+02071MA1999999095321MD1999999+0011REMSYN076AAXX  09124 82795 32597 51409 10263 20191 39532 40144 85200 333 20207 58001;
0137827950999992005110918004-07217-035883FM-12+0548SBKG V0201401N006212200019N0100001N1+02921+01801101181ADDGF102991021021008001001001MA1999999095081MD1999999+0071REMSYN070AAXX  09184 82795 32597 21412 10292 20180 39508 40118 82200 333 58007;
0168827950999992005111000004-07217-035883FM-12+0548SBKG V0200901N004612200019N0010001N1+02221+01921101401ADDGF103991031021008001001001KA1240M+03081MA1999999095261MD1999999-0041REMSYN088AAXX  10004 82795 32594 30909 10222 20192 39526 40140 83200 333 10308 29070 55095 59004;
0175827950999992005111012004-07217-035883FM-12+0548SBKG V0201401N004612200019N0100001N1+02581+01851101451ADDGF104991999021008001001001KA1240N+02031MA1999999095311MD1999999-0011REMSYN076AAXX  10124 82795 32597 41409 10258 20185 39531 40145 85200 333 20203 59001;EQDQ01+000052SCOTLC
0137827950999992005111018004-07217-035883FM-12+0548SBKG V0201401N006212200019N0100001N1+02951+01791101041ADDGF103991031021008001001001MA1999999094951MD1999999+0131REMSYN070AAXX  10184 82795 32597 31412 10295 20179 39495 40104 83200 333 58013;
0168827950999992005111100004-07217-035883FM-12+0548SBKG V0200901N004612200019N0010001N1+02191+01971101311ADDGF102991021011008001001001KA1240M+03061MA1999999095171MD1999999-0091REMSYN088AAXX  11004 82795 32594 20909 10219 20197 39517 40131 82100 333 10306 29070 55099 59009;
0156827950999992005111112004-07217-035883FM-12+0548SBKG V0200901N005712200019N0100001N1+02541+01571101331ADDGF105991031021008001001011KA1240N+01981MA1999999095191MD1999999-0121REMSYN076AAXX  11124 82795 32597 50911 10254 20157 39519 40133 83201 333 20198 59012;
0137827950999992005111118004-07217-035883FM-12+0548SBKG V0201401N004112200019N0100001N1+03011+01711100911ADDGF105991031021008001001011MA1999999094831MD1999999-0111REMSYN070AAXX  11184 82795 32597 51408 10301 20171 39483 40091 83201 333 59011;
0168827950999992005111200004-07217-035883FM-12+0548SBKG V0200901N003612200019N0010001N1+02191+01741101221ADDGF102991001001999999001011KA1240M+03121MA1999999095081MD1999999-0091REMSYN088AAXX  12004 82795 32994 20907 10219 20174 39508 40122 80001 333 10312 29065 55093 59009;
0156827950999992005111212004-07217-035883FM-12+0548SBKG V0200901N004612200019N0100001N1+02511+01821101291ADDGF104991031011008001001011KA1240N+02011MA1999999095151MD1999999-0041REMSYN076AAXX  12124 82795 32597 40909 10251 20182 39515 40129 83101 333 20201 59004;
0137827950999992005111218004-07217-035883FM-12+0548SBKG V0200901N003612200019N0100001N1+03131+01301100841ADDGF103991011011008001001021MA1999999094771MD1999999-0101REMSYN070AAXX  12184 82795 32597 30907 10313 20130 39477 40084 81102 333 59010;
0168827950999992005111300004-07217-035883FM-12+0548SBKG V0200901N004612200019N0010001N1+02211+01861101111ADDGF102991021011008001001001KA1240M+03161MA1999999094981MD1999999-0101REMSYN088AAXX  13004 82795 32594 20909 10221 20186 39498 40111 82100 333 10316 29066 55106 59010;
0156827950999992005111312004-07217-035883FM-12+0548SBKG V0200501N004612200019N0100001N1+02471+01831101271ADDGF104991041021008001001001KA1240N+02001MA1999999095151MD1999999-0021REMSYN076AAXX  13124 82795 32597 40509 10247 20183 39515 40127 84200 333 20200 59002;
0137827950999992005111318004-07217-035883FM-12+0548SBKG V0200901N003112200019N0100001N1+03081+01601100911ADDGF102991011011008001001011MA1999999094841MD1999999+0071REMSYN070AAXX  13184 82795 32597 20906 10308 20160 39484 40091 81101 333 58007;
0168827950999992005111400004-07217-035883FM-12+0548SBKG V0200901N003612200019N0010001N1+02241+01941101191ADDGF102991001001999999001011KA1240M+03111MA1999999095051MD1999999+0071REMSYN088AAXX  14004 82795 32994 20907 10224 20194 39505 40119 80001 333 10311 29068 55100 58007;
0156827950999992005111412004-07217-035883FM-12+0548SBKG V0200901N004610075019N0100001N1+02591+01841101321ADDGF106991061021008001001001KA1240N+02031MA1999999095191MD1999999+0061REMSYN076AAXX  14124 82795 32597 60909 10259 20184 39519 40132 86200 333 20203 58006;
0137827950999992005111418004-07217-035883FM-12+0548SBKG V0200901N004611050019N0100001N1+03071+01771100871ADDGF105991021011008001001051MA1999999094801MD1999999-0041REMSYN070AAXX  14184 82795 32597 50909 10307 20177 39480 40087 82105 333 59004;
0168827950999992005111500004-07217-035883FM-12+0548SBKG V0200901N008210075019N0010001N1+02261+01921101311ADDGF105991051021008001001001KA1240M+03111MA1999999095181MD1999999+0131REMSYN088AAXX  15004 82795 32594 50916 10226 20192 39518 40131 85200 333 10311 29068 55093 58013;
0156827950999992005111512004-07217-035883FM-12+0548SBKG V0200901N004610075019N0100001N1+02461+01881101391ADDGF106991061021008001001001KA1240N+01991MA1999999095241MD1999999+0051REMSYN076AAXX  15124 82795 32597 60909 10246 20188 39524 40139 86200 333 20199 58005;
0137827950999992005111518004-07217-035883FM-12+0548SBKG V0200901N004112200019N0100001N1+02931+01621101071ADDGF104991041021008001001001MA1999999094971MD1999999+0171REMSYN070AAXX  15184 82795 32597 40908 10293 20162 39497 40107 84200 333 58017;
0168827950999992005111600004-07217-035883FM-12+0548SBKG V0200901N004119999999N0010001N1+02241+01921101431ADDGF105991001001999999001051KA1240M+03081MA1999999095281MD1999999+0101REMSYN088AAXX  16004 82795 32994 50908 10224 20192 39528 40143 80005 333 10308 29070 55099 58010;
0156827950999992005111612004-07217-035883FM-12+0548SBKG V0200901N005110075019N0100001N1+02531+01741101411ADDGF106991061021008001001001KA1240N+02031MA1999999095261MD1999999+0021REMSYN076AAXX  16124 82795 32597 60910 10253 20174 39526 40141 86200 333 20203 58002;
0137827950999992005111618004-07217-035883FM-12+0548SBKG V0201401N004612200019N0100001N1+02831+01741101021ADDGF104991041031008001001001MA1999999095021MD1999999+0051REMSYN070AAXX  16184 82795 32597 41409 10283 20174 39502 40102 84300 333 58005;
0168827950999992005111700004-07217-035883FM-12+0548SBKG V0200901N002110450019N0010001N1+02231+01971101331ADDGF106991011011008001031021KA1240M+02981MA1999999095191MD1999999-0091REMSYN088AAXX  17004 82795 32594 60904 10223 20197 39519 40133 81132 333 10298 29070 55084 59009;
0156827950999992005111712004-07217-035883FM-12+0548SBKG V0201401N005710075019N0100001N1+02591+01891101351ADDGF106991061021008001001001KA1240N+02031MA1999999095221MD1999999-0041REMSYN076AAXX  17124 82795 32597 61411 10259 20189 39522 40135 86200 333 20203 59004;
0137827950999992005111718004-07217-035883FM-12+0548SBKG V0201401N006212200019N0100001N1+02981+01511101001ADDGF101991011011008001001001MA1999999094921MD1999999+0001REMSYN070AAXX  17184 82795 32597 11412 10298 20151 39492 40100 81100 333 58000;
0168827950999992005111800004-07217-035883FM-12+0548SBKG V0200901N003612200019N0010001N1+02241+01961101171ADDGF104991041021008001001001KA1240M+03091MA1999999095051MD1999999-0141REMSYN088AAXX  18004 82795 32594 40907 10224 20196 39505 40117 84200 333 10309 29068 55093 59014;
0156827950999992005111812004-07217-035883FM-12+0548SBKG V0201401N005110075019N0100001N1+02521+01741101321ADDGF106991061021008001001001KA1240N+02011MA1999999095181MD1999999-0041REMSYN076AAXX  18124 82795 32597 61410 10252 20174 39518 40132 86200 333 20201 59004;
0137827950999992005111818004-07217-035883FM-12+0548SBKG V0209999C000012200019N0100001N1+02911+01591101031ADDGF101991011011008001001001MA1999999094931MD1999999+0011REMSYN070AAXX  18184 82795 32597 11400 10291 20159 39493 40103 81100 333 58001;
0168827950999992005111900004-07217-035883FM-12+0548SBKG V0200901N004112200019N0010001N1+02221+01861101291ADDGF102991021011008001001001KA1240M+03031MA1999999095151MD1999999+0101REMSYN088AAXX  19004 82795 32594 20908 10222 20186 39515 40129 82100 333 10303 29067 55100 58010;
0156827950999992005111912004-07217-035883FM-12+0548SBKG V0201401N004110075019N0100001N1+02521+01931101431ADDGF106991061061008001001001KA1240N+02021MA1999999095281MD1999999+0101REMSYN076AAXX  19124 82795 32597 61408 10252 20193 39528 40143 86600 333 20202 58010;
0137827950999992005111918004-07217-035883FM-12+0548SBKG V0200901N004110075019N0100001N1+02851+01791101111ADDGF106991061021008001001001MA1999999095011MD1999999+0081REMSYN070AAXX  19184 82795 32597 60908 10285 20179 39501 40111 86200 333 58008;
0168827950999992005112000004-07217-035883FM-12+0548SBKG V0200901N003610075019N0010001N1+02271+01991101451ADDGF106991061021008001001001KA1240M+02921MA1999999095301MD1999999+0151REMSYN088AAXX  20004 82795 32594 60907 10227 20199 39530 40145 86200 333 10292 29073 55076 58015;
0156827950999992005112012004-07217-035883FM-12+0548SBKG V0201401N004110075019N0100001N1+02471+01921101471ADDGF107991071061008001001001KA1240N+01961MA1999999095321MD1999999+0041REMSYN076AAXX  20124 82795 32597 71408 10247 20192 39532 40147 87600 333 20196 58004;
0137827950999992005112018004-07217-035883FM-12+0548SBKG V0200901N004611050019N0100001N1+03011+01681100991ADDGF107991021011008001001061MA1999999094911MD1999999-0101REMSYN070AAXX  20184 82795 32597 70909 10301 20168 39491 40099 82106 333 59010;
0168827950999992005112100004-07217-035883FM-12+0548SBKG V0200901N004610075019N0010001N1+02221+01901101271ADDGF106991061021008001001001KA1240M+03031MA1999999095131MD1999999-0171REMSYN088AAXX  21004 82795 32594 60909 10222 20190 39513 40127 86200 333 10303 29070 55081 59017;
0156827950999992005112112004-07217-035883FM-12+0548SBKG V0201401N003610075019N0100001N1+02461+01901101321ADDGF106991061021008001001001KA1240N+01991MA1999999095181MD1999999-0141REMSYN076AAXX  21124 82795 32597 61407 10246 20190 39518 40132 86200 333 20199 59014;
0137827950999992005112118004-07217-035883FM-12+0548SBKG V0201401N003612200019N0100001N1+03051+01781100871ADDGF101991011011008001001001MA1999999094781MD1999999-0131REMSYN070AAXX  21184 82795 32597 11407 10305 20178 39478 40087 81100 333 59013;
0168827950999992005112200004-07217-035883FM-12+0548SBKG V0200901N003610075019N0010001N1+02321+02021101211ADDGF106991061021008001001001KA1240M+03071MA1999999095091MD1999999-0041REMSYN088AAXX  22004 82795 32594 60907 10232 20202 39509 40121 86200 333 10307 29071 55080 59004;
0156827950999992005112212004-07217-035883FM-12+0548SBKG V0201401N005710075019N0100001N1+02561+02021101241ADDGF106991061021008001001001KA1240N+02071MA1999999095121MD1999999-0061REMSYN076AAXX  22124 82795 32597 61411 10256 20202 39512 40124 86200 333 20207 59006;
0137827950999992005112218004-07217-035883FM-12+0548SBKG V0201401N005112200019N0100001N1+03061+01831101191ADDGF102991021021008001001001MA1999999094731MD1999999-0051REMSYN070AAXX  22184 82795 32597 21410 10306 20183 39473 40119 82200 333 59005;
0168827950999992005112300004-07217-035883FM-12+0548SBKG V0200901N004610075019N0010001N1+02341+02001101131ADDGF106991061021008001001001KA1240M+03161MA1999999095031MD1999999-0061REMSYN088AAXX  23004 82795 32594 60909 10234 20200 39503 40113 86200 333 10316 29070 55092 59006;
0156827950999992005112312004-07217-035883FM-12+0548SBKG V0201401N004612200019N0100001N1+02611+01961101291ADDGF106991041021008001001011KA1240N+02091MA1999999095171MD1999999+0051REMSYN076AAXX  23124 82795 32597 61409 10261 20196 39517 40129 84201 333 20209 58005;
0137827950999992005112318004-07217-035883FM-12+0548SBKG V0200501N003612200019N0100001N1+03131+01711100911ADDGF104991021021008001001011MA1999999094851MD1999999+0121REMSYN070AAXX  23184 82795 32597 40507 10313 20171 39485 40091 82201 333 58012;
0168827950999992005112400004-07217-035883FM-12+0548SBKG V0200901N005112200019N0010001N1+02351+02071101211ADDGF102991021011008001001001KA1240M+03161MA1999999095101MD1999999+0071REMSYN088AAXX  24004 82795 32594 20910 10235 20207 39510 40121 82100 333 10316 29070 55093 58007;
0156827950999992005112412004-07217-035883FM-12+0548SBKG V0200901N003610075019N0100001N1+02561+02081101351ADDGF106991061021008001001001KA1240N+02131MA1999999095231MD1999999+0061REMSYN076AAXX  24124 82795 32597 60907 10256 20208 39523 40135 86200 333 20213 58006;
0137827950999992005112418004-07217-035883FM-12+0548SBKG V0201401N004112200019N0100001N1+03041+01781101121ADDGF101991011011008001001001MA1999999095001MD1999999+0201REMSYN070AAXX  24184 82795 32597 11408 10304 20178 39500 40112 81100 333 58020;
0168827950999992005112500004-07217-035883FM-12+0548SBKG V0200901N004110075019N0010001N1+02371+02111101311ADDGF106991061021008001001001KA1240M+03141MA1999999095191MD1999999+0091REMSYN088AAXX  25004 82795 32594 60908 10237 20211 39519 40131 86200 333 10314 29073 55089 58009;
0156827950999992005112512004-07217-035883FM-12+0548SBKG V0200901N003610075019N0100001N1+02431+02011101401ADDGF106991061021008001001001KA1240N+02131MA1999999095261MD1999999+0031REMSYN076AAXX  25124 82795 32597 60907 10243 20201 39526 40140 86200 333 20213 58003;
0137827950999992005112518004-07217-035883FM-12+0548SBKG V0201401N004110075019N0100001N1+02791+01731101031ADDGF107991051041008001051001MA1999999094931MD1999999-0121REMSYN070AAXX  25184 82795 32597 71408 10279 20173 39493 40103 85450 333 59012;
0168827950999992005112600004-07217-035883FM-12+0548SBKG V0201401N002119999999N0010001N1+02191+02031101341ADDGF106991001001999999001011KA1240M+02901MA1999999095181MD1999999-0011REMSYN088AAXX  26004 82795 32994 61404 10219 20203 39518 40134 80001 333 10290 29078 55037 59001;
0156827950999992005112612004-07217-035883FM-12+0548SBKG V0201401N003610450019N0100001N1+02521+01961101241ADDGF106991041041008001031001KA1240N+02051MA1999999095101MD1999999-0131REMSYN076AAXX  26124 82795 32597 61407 10252 20196 39510 40124 84430 333 20205 59013;
0137827950999992005112618004-07217-035883FM-12+0548SBKG V0201401N003610120019N0100001N1+02941+01791100781ADDGF107991051081008001031001MA1999999094711MD1999999-0181REMSYN070AAXX  26184 82795 32597 71407 10294 20179 39471 40078 85830 333 59018;
0168827950999992005112700004-07217-035883FM-12+0548SBKG V0201401N004610075019N0010001N1+02241+01901101131ADDGF105991051061008001001001KA1240M+03001MA1999999095011MD1999999-0101REMSYN088AAXX  27004 82795 32594 51409 10224 20190 39501 40113 85600 333 10300 29070 55054 59010;
0156827950999992005112712004-07217-035883FM-12+0548SBKG V0201401N001510075019N0100001N1+02541+01911101191ADDGF105991051021008001001001KA1240N+02081MA1999999095071MD1999999-0031REMSYN076AAXX  27124 82795 32597 51403 10254 20191 39507 40119 85200 333 20208 59003;
0137827950999992005112718004-07217-035883FM-12+0548SBKG V0201401N004612200019N0100001N1+03001+01681100721ADDGF103991011011008001001011MA1999999094651MD1999999-0061REMSYN070AAXX  27184 82795 32597 31409 10300 20168 39465 40072 81101 333 59006;
0168827950999992005112800004-07217-035883FM-12+0548SBKG V0201401N005112200019N0010001N1+02221+01961101121ADDGF104991041061008001001001KA1240M+03061MA1999999094991MD1999999-0021REMSYN088AAXX  28004 82795 32594 41410 10222 20196 39499 40112 84600 333 10306 29070 55095 59002;
0156827950999992005112812004-07217-035883FM-12+0548SBKG V0200901N004612200019N0100001N1+02671+01871101261ADDGF106991041021008001001011KA1240N+02081MA1999999095141MD1999999+0071REMSYN076AAXX  28124 82795 32597 60909 10267 20187 39514 40126 84201 333 20208 58007;
0168827950999992005112900004-07217-035883FM-12+0548SBKG V0200901N004112200019N0010001N1+02271+01981101321ADDGF102991021021008001001001KA1240M+03111MA1999999095201MD1999999+0211REMSYN088AAXX  29004 82795 32594 20908 10227 20198 39520 40132 82200 333 10311 29070 55080 58021;
0156827950999992005112912004-07217-035883FM-12+0548SBKG V0201401N004610075019N0100001N1+02501+01911101451ADDGF106991061021008001001001KA1240N+02061MA1999999095301MD1999999+0161REMSYN076AAXX  29124 82795 32597 61409 10250 20191 39530 40145 86200 333 20206 58016;
0137827950999992005112918004-07217-035883FM-12+0548SBKG V0201401N006712200019N0100001N1+02981+01691101001ADDGF104991041021008001001001MA1999999094931MD1999999+0101REMSYN070AAXX  29184 82795 32597 41413 10298 20169 39493 40100 84200 333 58010;
0168827950999992005113000004-07217-035883FM-12+0548SBKG V0200901N004112200019N0010001N1+02271+01961101461ADDGF104991041021008001001001KA1240M+03061MA1999999095311MD1999999+0111REMSYN088AAXX  30004 82795 32594 40908 10227 20196 39531 40146 84200 333 10306 29070 55088 58011;
0201827950999992005113012004-07217-035883FM-12+0548SBKG V0201401N005710042019N0040001N1+02271+01881102481ADDAA124000891AY161061AY221061GF108991081071004501999999KA1240N+02051MA1999999095301MD1999999+0001MW1501REMSYN088AAXX  30124 82795 21496 81411 10227 20188 39530 40248 75062 887// 333 20205 58000 69984;
0156827950999992005113018004-07217-035883FM-12+0548SBKG V0201401N006212200019N0100001N1+02931+01501101002ADDGF101991011011008001001001MA1999999094911MD1999999+0021REMSYN070AAXX  30184 82795 32597 11412 10293 20150 39491 40100 81100 333 58002;EQDQ01+101003APOSLP
0168827950999992005120100004-07217-035883FM-12+0548SBKG V0201401N004110075019N0010001N1+02301+01851101351ADDGF106991061021008001001001KA1240M+02981MA1999999095181MD1999999-0131REMSYN088AAXX  01004 82795 32594 61408 10230 20185 39518 40135 86200 333 10298 29068 55078 59013;
0156827950999992005120112004-07217-035883FM-12+0548SBKG V0200901N003610075019N0100001N1+02521+01771101301ADDGF106991061021008001001001KA1240N+02011MA1999999095171MD1999999-0131REMSYN076AAXX  01124 82795 32597 60907 10252 20177 39517 40130 86200 333 20201 59013;
0137827950999992005120118004-07217-035883FM-12+0548SBKG V0201401N004612200019N0100001N1+02931+01741100921ADDGF103991031031008001001001MA1999999094841MD1999999-0071REMSYN070AAXX  01184 82795 32597 31409 10293 20174 39484 40092 83300 333 59007;
0168827950999992005120200004-07217-035883FM-12+0548SBKG V0200901N004110075019N0010001N1+02261+01921101191ADDGF105991051021008001001001KA1240M+03041MA1999999095071MD1999999-0111REMSYN088AAXX  02004 82795 32594 50908 10226 20192 39507 40119 85200 333 10304 29068 55084 59011;
0156827950999992005120212004-07217-035883FM-12+0548SBKG V0201401N005710075019N0100001N1+02611+01791101081ADDGF105991051021008001001001KA1240N+01961MA1999999094961MD1999999-0211REMSYN076AAXX  02124 82795 32597 51411 10261 20179 39496 40108 85200 333 20196 59021;
0137827950999992005120218004-07217-035883FM-12+0548SBKG V0201401N003112200019N0100001N1+03001+01711100841ADDGF103991031021008001001001MA1999999094761MD1999999-0081REMSYN070AAXX  02184 82795 32597 31406 10300 20171 39476 40084 83200 333 59008;
0168827950999992005120300004-07217-035883FM-12+0548SBKG V0200901N004612200019N0010001N1+02311+01941101071ADDGF102991021011008001001001KA1240M+03161MA1999999094971MD1999999-0101REMSYN088AAXX  03004 82795 32594 20909 10231 20194 39497 40107 82100 333 10316 29066 55101 59010;
0156827950999992005120312004-07217-035883FM-12+0548SBKG V0200901N003612200019N0100001N1+02571+01921101271ADDGF105991031021008001001011KA1240N+02081MA1999999095151MD1999999+0191REMSYN076AAXX  03124 82795 32597 50907 10257 20192 39515 40127 83201 333 20208 58019;
0137827950999992005120318004-07217-035883FM-12+0548SBKG V0200901N002111050019N0100001N1+03171+01731100781ADDGF105991031021008001001021MA1999999094741MD1999999-0021REMSYN070AAXX  03184 82795 32597 50904 10317 20173 39474 40078 83202 333 59002;
0168827950999992005120400004-07217-035883FM-12+0548SBKG V0200901N004610075019N0010001N1+02341+02011101071ADDGF105991051021008001001001KA1240M+03271MA1999999094971MD1999999+0001REMSYN088AAXX  04004 82795 32594 50909 10234 20201 39497 40107 85200 333 10327 29068 55095 58000;
0156827950999992005120412004-07217-035883FM-12+0548SBKG V0200901N003110075019N0100001N1+02701+01941101291ADDGF105991051011008001001001KA1240N+02131MA1999999095191MD1999999+0041REMSYN076AAXX  04124 82795 32597 50906 10270 20194 39519 40129 85100 333 20213 58004;
0196827950999992005120500004-07217-035883FM-12+0548SBKG V0200901N004111050019N0010001N1+02351+02031101001ADDAY121061AY221061GF106991041091008001001031KA1240M+03231MA1999999094921MD1999999-0051MW1131REMSYN094AAXX  05004 82795 31594 60908 10235 20203 39492 40100 71322 84903 333 10323 29068 55101 59005;
0201827950999992005120512004-07217-035883FM-12+0548SBKG V0200901N003110075019N0100001N1+02451+01851101131ADDAA124000591AY161061AY221061GF106991061021008001001001KA1240N+02201MA1999999095011MD1999999-0181MW1021REMSYN088AAXX  05124 82795 21597 60906 10245 20185 39501 40113 70262 86200 333 20220 59018 69944;
0137827950999992005120518004-07217-035883FM-12+0548SBKG V0200501N004612200019N0100001N1+03031+01831100691ADDGF106991031031008001001011MA1999999094661MD1999999+0011REMSYN070AAXX  05184 82795 32597 60509 10303 20183 39466 40069 83301 333 58001;
0196827950999992005120600004-07217-035883FM-12+0548SBKG V0200901N003111050019N0010001N1+02361+02051100971ADDAY121061AY221061GF106991041091008001001031KA1240M+03131MA1999999094871MD1999999-0051MW1131REMSYN094AAXX  06004 82795 31594 60906 10236 20205 39487 40097 71322 84903 333 10313 29071 55066 59005;
0236827950999992005120612004-07217-035883FM-12+0548SBKG V0200501N001510075019N0100001N1+02101+01941101111ADDAA124000091AY161061AY221061GF107991071071008001001001KA1240N+99999MA1999999094991MD1999999-0021MW1021REMSYN088AAXX  06124 82795 21597 70503 10210 20194 39499 40111 70262 87700 333 20216 59002 69924;EQDQ01  00002PRCP24Q02 +02162ATMN  
0165827950999992005120618004-07217-035883FM-12+0548SBKG V0200501N005110120019N0100001N1+02831+02021100531ADDAY121061AY221061GF105991051081008001021999MA1999999094471MD1999999-0191MW1151REMSYN076AAXX  06184 82795 31597 50510 10283 20202 39447 40053 71522 8582/ 333 59019;
0182827950999992005120718004-07217-035883FM-12+0548SBKG V0200901N005110450019N0100001N1+02661+02221100761ADDAA106014091AY161061AY221061GF106991031081008001031011MA1999999094651MD1999999+0181MW1211REMSYN082AAXX  07184 82795 21597 60910 10266 20222 39465 40076 72162 83831 333 58018 60141;
0168827950999992005120800004-07217-035883FM-12+0548SBKG V0200901N003610075019N0010001N1+02311+02111101061ADDGF106991061021008001001001KA1240M+02951MA1999999094961MD1999999+0061REMSYN088AAXX  08004 82795 32594 60907 10231 20211 39496 40106 86200 333 10295 29080 55068 58006;
0173827950999992005120812004-07217-035883FM-12+0548SBKG V0200901N004110075019N0100001N1+02451+01971101341ADDAA124014091GF106991061021008001001001KA1240N+02131MA1999999095201MD1999999+0041REMSYN082AAXX  08124 82795 22597 60908 10245 20197 39520 40134 86200 333 20213 58004 60144;
0137827950999992005120818004-07217-035883FM-12+0548SBKG V0201401N005710450019N0100001N1+02861+01951100941ADDGF106991031081008001031001MA1999999094881MD1999999+0231REMSYN070AAXX  08184 82795 32597 61411 10286 20195 39488 40094 83830 333 58023;
0168827950999992005120900004-07217-035883FM-12+0548SBKG V0200901N005110075019N0010001N1+02311+02031101321ADDGF105991051021008001001001KA1240M+02921MA1999999095181MD1999999+0221REMSYN088AAXX  09004 82795 32594 50910 10231 20203 39518 40132 85200 333 10292 29076 55080 58022;
0156827950999992005120912004-07217-035883FM-12+0548SBKG V0200901N003610075019N0100001N1+02601+01791101391ADDGF106991061021008001001001KA1240N+02091MA1999999095271MD1999999+0071REMSYN076AAXX  09124 82795 32597 60907 10260 20179 39527 40139 86200 333 20209 58007;
0137827950999992005120918004-07217-035883FM-12+0548SBKG V0201401N005110450019N0100001N1+02891+01771101191ADDGF106991021031008001031021MA1999999095091MD1999999+0211REMSYN070AAXX  09184 82795 32597 61410 10289 20177 39509 40119 82332 333 58021;
0168827950999992005121000004-07217-035883FM-12+0548SBKG V0200901N002111050019N0010001N1+02271+01941101381ADDGF105991031021008001001021KA1240M+03021MA1999999095261MD1999999+0081REMSYN088AAXX  10004 82795 32594 50904 10227 20194 39526 40138 83202 333 10302 29069 55101 58008;
0156827950999992005121012004-07217-035883FM-12+0548SBKG V0201401N003110075019N0100001N1+02471+01831101461ADDGF105991051021008001001001KA1240N+02021MA1999999095311MD1999999+0041REMSYN076AAXX  10124 82795 32597 51406 10247 20183 39531 40146 85200 333 20202 58004;
0137827950999992005121018004-07217-035883FM-12+0548SBKG V0200901N004110075019N0100001N1+03001+01781101021ADDGF105991051021008001001001MA1999999094931MD1999999-0161REMSYN070AAXX  10184 82795 32597 50908 10300 20178 39493 40102 85200 333 59016;
0156827950999992005121112004-07217-035883FM-12+0548SBKG V0200901N003610075019N0100001N1+02511+01961101221ADDGF105991051011008001001001KA1240N+02041MA1999999095101MD1999999-0211REMSYN076AAXX  11124 82795 32597 50907 10251 20196 39510 40122 85100 333 20204 59021;
0137827950999992005121118004-07217-035883FM-12+0548SBKG V0200901N005110075019N0100001N1+02811+01951100901ADDGF106991051031008001041001MA1999999094811MD1999999-0121REMSYN070AAXX  11184 82795 32597 60910 10281 20195 39481 40090 85340 333 59012;
0168827950999992005121200004-07217-035883FM-12+0548SBKG V0200901N004110075019N0010001N1+02241+02011101181ADDGF105991051021008001001001KA1240M+02951MA1999999095041MD1999999-0101REMSYN088AAXX  12004 82795 32594 50908 10224 20201 39504 40118 85200 333 10295 29076 55077 59010;
0201827950999992005121212004-07217-035883FM-12+0548SBKG V0200901N003610075019N0100001N1+02301+02011101341ADDAA124007191AY161061AY251061GF106991061061008001001001KA1240N+01961MA1999999095171MD1999999+0071MW1021REMSYN088AAXX  12124 82795 21597 60907 10230 20201 39517 40134 70265 86600 333 20196 58007 60074;
0137827950999992005121218004-07217-035883FM-12+0548SBKG V0201401N002612200019N0100001N1+02831+01951100951ADDGF103991031031008001001001MA1999999094861MD1999999+0051REMSYN070AAXX  12184 82795 32597 31405 10283 20195 39486 40095 83300 333 58005;
0168827950999992005121300004-07217-035883FM-12+0548SBKG V0200901N003610075019N0010001N1+02261+01991101271ADDGF106991061021008001001001KA1240M+02971MA1999999095111MD1999999+0071REMSYN088AAXX  13004 82795 32594 60907 10226 20199 39511 40127 86200 333 10297 29078 55074 58007;
0156827950999992005121312004-07217-035883FM-12+0548SBKG V0200901N005110075019N0100001N1+02491+01731101291ADDGF106991061021008001001001KA1240N+01991MA1999999095151MD1999999-0021REMSYN076AAXX  13124 82795 32597 60910 10249 20173 39515 40129 86200 333 20199 59002;
0137827950999992005121318004-07217-035883FM-12+0548SBKG V0201401N005112200019N0100001N1+02851+01881100781ADDGF103991031021008001001001MA1999999094781MD1999999-0081REMSYN070AAXX  13184 82795 32597 31410 10285 20188 39478 40078 83200 333 59008;
0168827950999992005121400004-07217-035883FM-12+0548SBKG V0200901N004110075019N0010001N1+02251+01901101221ADDGF106991061021008001001001KA1240M+03001MA1999999095081MD1999999-0031REMSYN088AAXX  14004 82795 32594 60908 10225 20190 39508 40122 86200 333 10300 29070 55097 59003;
0156827950999992005121412004-07217-035883FM-12+0548SBKG V0200901N005110450019N0100001N1+02511+01931101251ADDGF106991041021008001061001KA1240N+02031MA1999999095111MD1999999-0041REMSYN076AAXX  14124 82795 32597 60910 10251 20193 39511 40125 84260 333 20203 59004;
0137827950999992005121418004-07217-035883FM-12+0548SBKG V0201401N005112200019N0100001N1+02831+01941100961ADDGF104991041031008001001001MA1999999094851MD1999999+0071REMSYN070AAXX  14184 82795 32597 41410 10283 20194 39485 40096 84300 333 58007;
0168827950999992005121500004-07217-035883FM-12+0548SBKG V0200901N004110075019N0010001N1+02321+01981101241ADDGF106991061021008001001001KA1240M+03021MA1999999095121MD1999999+0041REMSYN088AAXX  15004 82795 32594 60908 10232 20198 39512 40124 86200 333 10302 29073 55098 58004;
0137827950999992005121518004-07217-035883FM-12+0548SBKG V0200901N005112200019N0100001N1+02961+01531100931ADDGF101991011011008001001001MA1999999094941MD1999999+0091REMSYN070AAXX  15184 82795 32597 10910 10296 20153 39494 40093 81100 333 58009;
0187827950999992005121600004-07217-035883FM-12+0548SBKG V0200901N004112200019N0010001N1+02321+01891101271ADDGF102991001001999999001021KA1240M+03051MA1999999095141MD1999999+0021REMSYN088AAXX  16004 82795 32594 20908 10232 20189 39514 40127 80002 333 10305 29066 55105 58002;EQDQ01+008002SCOLCB
0156827950999992005121612004-07217-035883FM-12+0548SBKG V0201401N005710075019N0100001N1+02571+01921101331ADDGF105991051021008001001001KA1240N+02031MA1999999095201MD1999999+0081REMSYN076AAXX  16124 82795 32597 51411 10257 20192 39520 40133 85200 333 20203 58008;
0137827950999992005121618004-07217-035883FM-12+0548SBKG V0201401N006712200019N0100001N1+03041+01711100881ADDGF103991011011008001001011MA1999999094801MD1999999-0141REMSYN070AAXX  16184 82795 32597 31413 10304 20171 39480 40088 81101 333 59014;
0168827950999992005121700004-07217-035883FM-12+0548SBKG V0200901N004612200019N0010001N1+02331+01981101261ADDGF102991021021008001001001KA1240M+03111MA1999999095141MD1999999+0001REMSYN088AAXX  17004 82795 32594 20909 10233 20198 39514 40126 82200 333 10311 29068 55104 58000;
0137827950999992005121718004-07217-035883FM-12+0548SBKG V0201401N005110450019N0100001N1+02721+01901101121ADDGF106991041041008001031001MA1999999095021MD1999999+0221REMSYN070AAXX  17184 82795 32597 61410 10272 20190 39502 40112 84430 333 58022;
0156827950999992005121812004-07217-035883FM-12+0548SBKG V0201401N003112200019N0100001N1+02521+01931101401ADDGF104991041031008001001001KA1240N+02041MA1999999095251MD1999999-0071REMSYN076AAXX  18124 82795 32597 41406 10252 20193 39525 40140 84300 333 20204 59007;
0137827950999992005121818004-07217-035883FM-12+0548SBKG V0201401N004612200019N0100001N1+03011+01811101011ADDGF103991031021008001001001MA1999999094951MD1999999-0071REMSYN070AAXX  18184 82795 32597 31409 10301 20181 39495 40101 83200 333 59007;
0168827950999992005121900004-07217-035883FM-12+0548SBKG V0201401N003112200019N0010001N1+02321+01901101421ADDGF103991031021008001001001KA1240M+03111MA1999999095281MD1999999-0021REMSYN088AAXX  19004 82795 32594 31406 10232 20190 39528 40142 83200 333 10311 29068 55097 59002;
0201827950999992005121912004-07217-035883FM-12+0548SBKG V0200901N004110075019N0100001N1+02491+02111101411ADDAA124000391AY161061AY221061GF107991071061008001001001KA1240N+02131MA1999999095271MD1999999-0021MW1021REMSYN088AAXX  19124 82795 21597 70908 10249 20211 39527 40141 70262 87600 333 20213 59002 69934;
0182827950999992005121918004-07217-035883FM-12+0548SBKG V0200901N004610075019N0100001N1+02821+01971101191ADDAA106000391AY151061AY221061GF105991051041008001001001MA1999999095091MD1999999+0141MW1021REMSYN082AAXX  19184 82795 21597 50909 10282 20197 39509 40119 70252 85400 333 58014 69931;
0168827950999992005122000004-07217-035883FM-12+0548SBKG V0200901N004610075019N0010001N1+02351+02091101391ADDGF107991051021008001001021KA1240M+02981MA1999999095251MD1999999-0031REMSYN088AAXX  20004 82795 32594 70909 10235 20209 39525 40139 85202 333 10298 29076 55065 59003;
0137827950999992005122018004-07217-035883FM-12+0548SBKG V0201401N006212200019N0100001N1+02981+01861101151ADDGF104991041021008001001001MA1999999095051MD1999999-0041REMSYN070AAXX  20184 82795 32597 41412 10298 20186 39505 40115 84200 333 59004;
0168827950999992005122100004-07217-035883FM-12+0548SBKG V0201401N004610075019N0010001N1+02351+01931101481ADDGF106991061021008001001001KA1240M+03011MA1999999095341MD1999999+0091REMSYN088AAXX  21004 82795 32594 61409 10235 20193 39534 40148 86200 333 10301 29069 55078 58009;
0156827950999992005122112004-07217-035883FM-12+0548SBKG V0201401N003110075019N0100001N1+02501+01871101481ADDGF106991061021008001001001KA1240N+02031MA1999999095341MD1999999+0051REMSYN076AAXX  21124 82795 32597 61406 10250 20187 39534 40148 86200 333 20203 58005;
0137827950999992005122118004-07217-035883FM-12+0548SBKG V0201401N003112200019N0100001N1+03001+01711101131ADDGF103991031021008001001001MA1999999095041MD1999999-0011REMSYN070AAXX  21184 82795 32597 31406 10300 20171 39504 40113 83200 333 59001;
0178827950999992005122200004-07217-035883FM-12+0548SBKG V0200901N004612200019N0010001N1+02291+01941101471ADDGA1001+999999999GF100991001001999999001001KA1240M+03091MA1999999095331MD1999999-0011REMSYN082AAXX  22004 82795 32994 00909 10229 20194 39533 40147 333 10309 29070 55100 59001;
0156827950999992005122212004-07217-035883FM-12+0548SBKG V0201401N005112200019N0100001N1+02571+01661101581ADDGF106991041021008001001011KA1240N+01991MA1999999095431MD1999999+0091REMSYN076AAXX  22124 82795 32597 61410 10257 20166 39543 40158 84201 333 20199 58009;
0137827950999992005122218004-07217-035883FM-12+0548SBKG V0201401N004612200019N0100001N1+03031+01621101131ADDGF105991021011008001001011MA1999999095031MD1999999-0011REMSYN070AAXX  22184 82795 32597 51409 10303 20162 39503 40113 82101 333 59001;
0168827950999992005122300004-07217-035883FM-12+0548SBKG V0200901N004610075019N0010001N1+02291+01921101451ADDGF105991051021008001001001KA1240M+03091MA1999999095311MD1999999-0021REMSYN088AAXX  23004 82795 32594 50909 10229 20192 39531 40145 85200 333 10309 29065 55110 59002;
0156827950999992005122312004-07217-035883FM-12+0548SBKG V0200901N004610075019N0100001N1+02481+01821101571ADDGF105991051011008001001001KA1240N+02031MA1999999095411MD1999999-0021REMSYN076AAXX  23124 82795 32597 50909 10248 20182 39541 40157 85100 333 20203 59002;
0137827950999992005122318004-07217-035883FM-12+0548SBKG V0200901N004612200019N0100001N1+03061+01661101051ADDGF104991041021008001001001MA1999999094971MD1999999-0061REMSYN070AAXX  23184 82795 32597 40909 10306 20166 39497 40105 84200 333 59006;
0168827950999992005122400004-07217-035883FM-12+0548SBKG V0200901N004612200019N0010001N1+02261+01921101341ADDGF103991031021008001001001KA1240M+03141MA1999999095271MD1999999-0111REMSYN088AAXX  24004 82795 32594 30909 10226 20192 39527 40134 83200 333 10314 29068 55112 59011;
0156827950999992005122412004-07217-035883FM-12+0548SBKG V0201401N003610075019N0100001N1+02561+01801101451ADDGF105991051021008001001001KA1240N+02031MA1999999095311MD1999999-0101REMSYN076AAXX  24124 82795 32597 51407 10256 20180 39531 40145 85200 333 20203 59010;
0137827950999992005122418004-07217-035883FM-12+0548SBKG V0200901N004110075019N0100001N1+02911+01671101071ADDGF106991061021008001001001MA1999999094971MD1999999+0001REMSYN070AAXX  24184 82795 32597 60908 10291 20167 39497 40107 86200 333 58000;
0168827950999992005122500004-07217-035883FM-12+0548SBKG V0200901N004612200019N0010001N1+02261+01821101311ADDGF102991011011008001041001KA1240M+03041MA1999999095181MD1999999-0021REMSYN088AAXX  25004 82795 32594 20909 10226 20182 39518 40131 81140 333 10304 29066 55089 59002;
0175827950999992005122512004-07217-035883FM-12+0548SBKG V0200901N004119999999N0100001N1+02491+01731101481ADDGF106991999021008001001001KA1240N+01991MA1999999095321MD1999999+0021REMSYN076AAXX  25124 82795 32597 60908 10249 20173 39532 40148 84200 333 20199 58002;EQDQ01+000042SCOTLC
0137827950999992005122518004-07217-035883FM-12+0548SBKG V0201401N002611050019N0100001N1+03081+01521101041ADDGF105991031021008001001021MA1999999094961MD1999999-0011REMSYN070AAXX  25184 82795 32597 51405 10308 20152 39496 40104 83202 333 59001;
0168827950999992005122600004-07217-035883FM-12+0548SBKG V0200901N004612200019N0010001N1+02301+01851101331ADDGF103991021021008001001011KA1240M+03121MA1999999095201MD1999999+0021REMSYN088AAXX  26004 82795 32594 30909 10230 20185 39520 40133 82201 333 10312 29064 55098 58002;
0156827950999992005122612004-07217-035883FM-12+0548SBKG V0200901N004610075019N0100001N1+02471+01731101421ADDGF105991051011008001001001KA1240N+02031MA1999999095271MD1999999-0051REMSYN076AAXX  26124 82795 32597 50909 10247 20173 39527 40142 85100 333 20203 59005;
0137827950999992005122618004-07217-035883FM-12+0548SBKG V0201401N006710120019N0100001N1+03011+01751100921ADDGF105991051081008001001001MA1999999094841MD1999999-0131REMSYN070AAXX  26184 82795 32597 51413 10301 20175 39484 40092 85800 333 59013;
0168827950999992005122700004-07217-035883FM-12+0548SBKG V0200901N005110075019N0010001N1+02301+01871101271ADDGF105991051021008001001001KA1240M+03131MA1999999095131MD1999999-0071REMSYN088AAXX  27004 82795 32594 50910 10230 20187 39513 40127 85200 333 10313 29066 55101 59007;
0175827950999992005122712004-07217-035883FM-12+0548SBKG V0200901N004119999999N0100001N1+02521+01891101321ADDGF105991999021008001001001KA1240N+02101MA1999999095191MD1999999-0081REMSYN076AAXX  27124 82795 32597 50908 10252 20189 39519 40132 86200 333 20210 59008;EQDQ01+000062SCOTLC
0137827950999992005122718004-07217-035883FM-12+0548SBKG V0201401N006212200019N0100001N1+03001+01911100831ADDGF104991041031008001001001MA1999999094761MD1999999-0081REMSYN070AAXX  27184 82795 32597 41412 10300 20191 39476 40083 84300 333 59008;
0168827950999992005122800004-07217-035883FM-12+0548SBKG V0200901N004610075019N0010001N1+02331+02011101111ADDGF106991061021008001001001KA1240M+03071MA1999999094991MD1999999-0141REMSYN088AAXX  28004 82795 32594 60909 10233 20201 39499 40111 86200 333 10307 29071 55097 59014;
0156827950999992005122812004-07217-035883FM-12+0548SBKG V0200901N004111050019N0100001N1+02471+01851101321ADDGF107991031021008001001051KA1240N+02051MA1999999095191MD1999999+0001REMSYN076AAXX  28124 82795 32597 70908 10247 20185 39519 40132 83205 333 20205 58000;
0137827950999992005122818004-07217-035883FM-12+0548SBKG V0201401N006712200019N0100001N1+02641+01881101051ADDGF104991021021008001001011MA1999999094921MD1999999+0161REMSYN070AAXX  28184 82795 32597 41413 10264 20188 39492 40105 82201 333 58016;
0168827950999992005122900004-07217-035883FM-12+0548SBKG V0200901N004612200019N0010001N1+02291+01901101311ADDGF102991021011008001001001KA1240M+03081MA1999999095171MD1999999+0181REMSYN088AAXX  29004 82795 32594 20909 10229 20190 39517 40131 82100 333 10308 29072 55078 58018;
0156827950999992005122912004-07217-035883FM-12+0548SBKG V0200901N005710450019N0100001N1+02491+01921101291ADDGF105991031011008001041001KA1240N+02081MA1999999095161MD1999999-0031REMSYN076AAXX  29124 82795 32597 50911 10249 20192 39516 40129 83140 333 20208 59003;
0137827950999992005122918004-07217-035883FM-12+0548SBKG V0201401N005110450019N0100001N1+02881+02001100901ADDGF106991021041008001031051MA1999999094821MD1999999-0101REMSYN070AAXX  29184 82795 32597 61410 10288 20200 39482 40090 82435 333 59010;
0168827950999992005123000004-07217-035883FM-12+0548SBKG V0200901N004112200019N0010001N1+02291+01961101291ADDGF104991041021008001001001KA1240M+03021MA1999999095161MD1999999-0011REMSYN088AAXX  30004 82795 32594 40908 10229 20196 39516 40129 84200 333 10302 29072 55083 59001;
0156827950999992005123012004-07217-035883FM-12+0548SBKG V0200901N004110075019N0100001N1+02471+01881101331ADDGF106991061021008001001001KA1240N+02061MA1999999095191MD1999999+0031REMSYN076AAXX  30124 82795 32597 60908 10247 20188 39519 40133 86200 333 20206 58003;
0137827950999992005123018004-07217-035883FM-12+0548SBKG V0201401N005710450019N0100001N1+02711+01881101001ADDGF106991041081008001031001MA1999999094871MD1999999+0051REMSYN070AAXX  30184 82795 32597 61411 10271 20188 39487 40100 84830 333 58005;
0220827950999992005123112004-07217-035883FM-12+0548SBKG V0200901N003610042019N0020001N1+02141+02091101371ADDAA124007991AY161061AY221061GF108991999051004501001001KA1240N+02031MA1999999095191MD1999999+0001MW1021REMSYN088AAXX  31124 82795 21495 80907 10214 20209 39519 40137 70262 86500 333 20203 58000 60084;EQDQ01+000062SCOTLC
0182827950999992005123118004-07217-035883FM-12+0548SBKG V0201401N003610450019N0100001N1+02751+01971101031ADDAA106000591AY151061AY251061GF106991041021008001051001MA1999999094921MD1999999+0051MW1011REMSYN082AAXX  31184 82795 21597 61407 10275 20197 39492 40103 70155 84250 333 58005 69961;
