0211829000999992005032212004-08050-034917FM-12+000799999V0201801N002110450019N0100001N1+02931+02311101381ADDAA124016091AY161061AY221061GF106991031041008001091001KA1240N+02271MA1101591101291MD1999999+0021MW1011REMSYN098AAXX  22124 82900 21597 61804 10293 20231 30129 40138 70162 83490 333 20227 58002 60164 555 10158;
0211829000999992005032612004-08050-034917FM-12+000799999V0200501N000510075019N0100001N1+02901+02411101291ADDAA124001091AY121061AY261061GF107991071051008001001001KA1240N+02371MA1100101101201MD1999999-0101MW1031REMSYN098AAXX  26124 82900 21597 70501 10290 20241 30120 40129 70326 87500 333 20237 59010 60014 555 10010;
0171829000999992005052518004-08050-034917FM-12+000799999V0209999C000010075019N0100001N1+02751+02481101291ADDAY161061AY221061GF108991081071008001999999MA1999999101201MD1999999+0121MW1021REMSYN082AAXX  25184 82900 21597 80000 10275 20248 30120 40129 70262 887// 333 58012 60021;
0211829000999992005062912004-08050-034917FM-12+000799999V0201401N003112200019N0100001N1+02721+02191101641ADDAA124014091AY161061AY221061GF104991041021008001001001KA1240N+02311MA1101391101551MD1999999-0111MW1021REMSYN098AAXX  29124 82900 21597 41406 10272 20219 30155 40164 70262 84200 333 20231 59011 60144 555 10138;
0137829000999992005091418004-08050-034917FM-12+000799999V0201401N004110075019N0100001N1+02581+02081101411ADDGF106991061031008001001001MA1999999101321MD1999999-0081REMSYN070AAXX  14184 82900 32597 61408 10258 20208 30132 40141 86300 333 59008;
0156829000999992005091612004-08050-034917FM-12+000799999V0201401N004110450019N0100001N1+02681+01991101851ADDGF105991041021008001011001KA1240N+01851MA1999999101761MD1999999-0091REMSYN076AAXX  16124 82900 32597 51408 10268 20199 30176 40185 84210 333 20185 59009;
