0183829750999992005032212004-09100-044117FM-12+033199999V0201801N002610450019N0100001N1+02611+02291101451ADDAA124010091GF106991041031008001021031KA1240N+01761MA1101051097721MD1999999+0021REMSYN092AAXX  22124 82975 22597 61805 10261 20229 39772 40145 84323 333 20176 58002 60104 555 10104;
0186829750999992005032612004-09100-044117FM-12+033199999V0209999C000010450019N0200001N1+02631+02211101461ADDAA106000091GF106991031041008001031021KA1240N+01821MA1999999097731MD1999999-0021REMSYN076AAXX  26124 82975 32598 60000 10263 20221 39773 40146 83432 333 20182 59002;EQDQ01  00002PRCP06
0186829750999992005052512004-09100-044117FM-12+033199999V0202301N002610450019N0100001N1+02741+01571101351ADDAA106000091GF106991021031008001041021KA1240N+02121MA1999999097641MD1999999+0041REMSYN076AAXX  25124 82975 32597 62305 10274 20157 39764 40135 82342 333 20212 58004;EQDQ01  00002PRCP06
0167829750999992005052518004-09100-044117FM-12+033199999V0203201N002610450019N0100001N1+03611+01621101861ADDAA106000091GF105991041021008001021001MA1999999097311MD1999999+0021REMSYN070AAXX  25184 82975 32597 53205 10361 20162 39731 40186 84220 333 58002;EQDQ01  00002PRCP06
0196829750999992005062912004-09100-044117FM-12+033199999V0200901N003612200019N0002001N1+02891+02151101491ADDAA106000091GA1001+999999999GF100991001001999999001001KA1240N+02151MA1999999097811MD1999999-0021REMSYN070AAXX  29124 82975 32992 00907 10289 20215 39781 40149 333 20215 59002;EQDQ01  00002PRCP06
0206829750999992005071712004-09100-044120FM-12+033199999V0200101N049922200019N0005001N1+99999+99999999999ADDGF101991999999000251999999KA1240M+01991KA2240N+00401MA1999999085421MD1810221+9999ME1315669REMSYN085AAXX  17124 82975 01005 10197 21037 38542 48566 58022 333 10199 20040 91010 55 91026;EQDQ01+004993WOSPD 
0166829750999992005082112004-09100-044120FM-12+033199999V0201801N004112200019N0002001N1+02821+02181101541ADDGA1001+999999999GF100991001001999999001001KA1240N+02051MA1999999097841MD1999999-0061REMSYN070AAXX  21124 82975 32992 01808 10282 20218 39784 40154 333 20205 59006;
0147829750999992005091418004-09100-044117FM-12+033199999V0201801N002612200019N0002001N1+03961+01961100871ADDGA1001+999999999GF100991001001999999001001MA1999999097381MD1999999-0021REMSYN064AAXX  14184 82975 32992 01805 10396 20196 39738 40087 333 59002;
0166829750999992005091612004-09100-044117FM-12+033199999V0201801N003612200019N0002001N1+03131+02341101581ADDGA1001+999999999GF100991001001999999001001KA1240N+02211MA1999999097931MD1999999-0071REMSYN070AAXX  16124 82975 32992 01807 10313 20234 39793 40158 333 20221 59007;
