0198829830999992005010100004-09383-040483FM-12+037099999V0200501N001512200019N0020001N1+02941+01821100951ADDAA106000091GF104991041011008001001001KA1240M+03501MA1999999096861MD1999999-0081REMSYN088AAXX  01004 82983 32595 40503 10294 20182 39686 40095 84100 333 10350 29049 55095 59008;EQDQ01  00002PRCP06
0196829830999992005010112004-09383-040483FM-12+037099999V0201401N003112200019N0020001N1+02861+01621101211ADDAA106000091GA1001+999999999GF100991001001999999001001KA1240N+02581MA1999999097111MD1999999-0111REMSYN070AAXX  01124 82983 32995 01406 10286 20162 39711 40121 333 20258 59011;EQDQ01  00002PRCP06
0167829830999992005010118004-09383-040483FM-12+037099999V0200901N002612200019N0020001N1+03461+01691100771ADDAA106000091GF103991031011008001001001MA1999999096711MD1999999-0101REMSYN070AAXX  01184 82983 32595 30905 10346 20169 39671 40077 83100 333 59010;EQDQ01  00002PRCP06
0198829830999992005010200004-09383-040483FM-12+037099999V0200901N001512200019N0020001N1+03241+01451100881ADDAA106000091GF104991041011008001001001KA1240M+03601MA1999999096821MD1999999-0061REMSYN088AAXX  02004 82983 32595 40903 10324 20145 39682 40088 84100 333 10360 29038 55115 59006;EQDQ01  00002PRCP06
0186829830999992005010212004-09383-040483FM-12+037099999V0200901N004111050019N0020001N1+02761+01591101351ADDAA106000091GF106991031011008001001021KA1240N+02481MA1999999097271MD1999999+0161REMSYN076AAXX  02124 82983 32595 60908 10276 20159 39727 40135 83102 333 20248 58016;EQDQ01  00002PRCP06
0167829830999992005010218004-09383-040483FM-12+037099999V0201401N003110450019N0020001N1+03441+01481100871ADDAA106000091GF106991031011008001011021MA1999999096811MD1999999+0101REMSYN070AAXX  02184 82983 32595 61406 10344 20148 39681 40087 83112 333 58010;EQDQ01  00002PRCP06
0198829830999992005010300004-09383-040483FM-12+037099999V0201401N002610075019N0020001N1+03161+01551100971ADDAA106000091GF105991051011008001001001KA1240M+03521MA1999999096891MD1999999+0071REMSYN088AAXX  03004 82983 32595 51405 10316 20155 39689 40097 85100 333 10352 29039 55104 58007;EQDQ01  00002PRCP06
0186829830999992005010312004-09383-040483FM-12+037099999V0200901N004110075019N0020001N1+02661+01901101401ADDAA106000091GF108991081051008001999999KA1240N+02441MA1999999097291MD1999999+0021REMSYN076AAXX  03124 82983 32595 80908 10266 20190 39729 40140 885// 333 20244 58002;EQDQ01  00002PRCP06
0167829830999992005010318004-09383-040483FM-12+037099999V0201401N002610075019N0020001N1+03461+01691100901ADDAA106000091GF105991051011008001001001MA1999999096841MD1999999+0031REMSYN070AAXX  03184 82983 32595 51405 10346 20169 39684 40090 85100 333 58003;EQDQ01  00002PRCP06
0198829830999992005010400004-09383-040483FM-12+037099999V0201801N001510075019N0020001N1+02901+01811101151ADDAA106000091GF106991061021008001001001KA1240M+03541MA1999999096951MD1999999+0061REMSYN088AAXX  04004 82983 32595 61803 10290 20181 39695 40115 86200 333 10354 29050 55072 58006;EQDQ01  00002PRCP06
0186829830999992005010412004-09383-040483FM-12+037099999V0200901N004112200019N0020001N1+02761+01691101331ADDAA106000091GF102991021011008001001001KA1240N+02421MA1999999097221MD1999999-0071REMSYN076AAXX  04124 82983 32595 20908 10276 20169 39722 40133 82100 333 20242 59007;EQDQ01  00002PRCP06
0167829830999992005010418004-09383-040483FM-12+037099999V0201401N003110075019N0020001N1+03481+01521100781ADDAA106000091GF106991061021008001001001MA1999999096711MD1999999-0131REMSYN070AAXX  04184 82983 32595 61406 10348 20152 39671 40078 86200 333 59013;EQDQ01  00002PRCP06
0198829830999992005010500004-09383-040483FM-12+037099999V0200901N001512200019N0020001N1+03121+01391100871ADDAA106000091GF102991021011008001001001KA1240M+03581MA1999999096791MD1999999-0161REMSYN088AAXX  05004 82983 32595 20903 10312 20139 39679 40087 82100 333 10358 29038 55117 59016;EQDQ01  00002PRCP06
0186829830999992005010512004-09383-040483FM-12+037099999V0200901N004110075019N0020001N1+02681+01701101301ADDAA106000091GF105991051011008001001001KA1240N+02401MA1999999097191MD1999999-0031REMSYN076AAXX  05124 82983 32595 50908 10268 20170 39719 40130 85100 333 20240 59003;EQDQ01  00002PRCP06
0167829830999992005010518004-09383-040483FM-12+037099999V0200901N003112200019N0020001N1+03401+01501100741ADDAA106000091GF102991021011008001001001MA1999999096671MD1999999-0041REMSYN070AAXX  05184 82983 32595 20906 10340 20150 39667 40074 82100 333 59004;EQDQ01  00002PRCP06
0198829830999992005010600004-09383-040483FM-12+037099999V0201401N001512200019N0020001N1+03081+01481100851ADDAA106000091GF102991021011008001001001KA1240M+03541MA1999999096751MD1999999-0041REMSYN088AAXX  06004 82983 32595 21403 10308 20148 39675 40085 82100 333 10354 29041 55112 59004;EQDQ01  00002PRCP06
0196829830999992005010612004-09383-040483FM-12+037099999V0201401N004112200019N0020001N1+02641+01511101281ADDAA106000091GA1001+999999999GF100991001001999999001001KA1240N+02381MA1999999097171MD1999999-0021REMSYN070AAXX  06124 82983 32995 01408 10264 20151 39717 40128 333 20238 59002;EQDQ01  00002PRCP06
0167829830999992005010618004-09383-040483FM-12+037099999V0201401N003112200019N0020001N1+03501+01381100701ADDAA106000091GF102991021011008001001001MA1999999096641MD1999999-0031REMSYN070AAXX  06184 82983 32595 21406 10350 20138 39664 40070 82100 333 59003;EQDQ01  00002PRCP06
0208829830999992005010700004-09383-040483FM-12+037099999V0201801N002612200019N0020001N1+03141+01271100851ADDAA106000091GA1001+999999999GF100991001001999999001001KA1240M+03581MA1999999096761MD1999999+0011REMSYN082AAXX  07004 82983 32995 01805 10314 20127 39676 40085 333 10358 29036 55119 58001;EQDQ01  00002PRCP06
0186829830999992005010712004-09383-040483FM-12+037099999V0201401N003112200019N0020001N1+02701+01751101271ADDAA106000091GF102991021011008001001001KA1240N+02381MA1999999097161MD1999999-0011REMSYN076AAXX  07124 82983 32595 21406 10270 20175 39716 40127 82100 333 20238 59001;EQDQ01  00002PRCP06
0167829830999992005010718004-09383-040483FM-12+037099999V0201401N003112200019N0020001N1+03561+01371100721ADDAA106000091GF103991031011008001001001MA1999999096661MD1999999+0021REMSYN070AAXX  07184 82983 32595 31406 10356 20137 39666 40072 83100 333 58002;EQDQ01  00002PRCP06
0208829830999992005010800004-09383-040483FM-12+037099999V0201401N002612200019N0020001N1+03161+01291100861ADDAA106000091GA1001+999999999GF100991001001999999001001KA1240M+03681MA1999999096781MD1999999+0021REMSYN082AAXX  08004 82983 32995 01405 10316 20129 39678 40086 333 10368 29037 55112 58002;EQDQ01  00002PRCP06
0186829830999992005010812004-09383-040483FM-12+037099999V0201401N003110075019N0020001N1+02721+01901101211ADDAA106000091GF106991061021008001001001KA1240N+02441MA1999999097121MD1999999-0041REMSYN076AAXX  08124 82983 32595 61406 10272 20190 39712 40121 86200 333 20244 59004;EQDQ01  00002PRCP06
0167829830999992005010818004-09383-040483FM-12+037099999V0201401N002610075019N0020001N1+02631+01291100671ADDAA106000091GF106991061011008001001001MA1999999096611MD1999999-0051REMSYN070AAXX  08184 82983 32595 61405 10263 20129 39661 40067 86100 333 59005;EQDQ01  00002PRCP06
0185829830999992005010900004-09380-040480FM-12+037099999V0200901N001512200019N0020001N1+03201+01321100761ADDAA106000091GF103991031011008001001001MA1999999096691MD1999999-0091REMSYN088AAXX  09004 82983 32595 30903 10320 20132 39669 40076 83100 333 10366 29038 55093 59009;EQDQ01  00002PRCP06
0167829830999992005010912004-09380-040480FM-12+037099999V0201401N004112200019N0020001N1+02761+01751101181ADDAA106000091GF100991001001999999001001MA1999999097111MD1999999-0011REMSYN070AAXX  09124 82983 32995 01408 10276 20175 39711 40118 333 20244 59001;EQDQ01  00002PRCP06
0167829830999992005010918004-09380-040480FM-12+037099999V0201801N002610450019N0020001N1+03541+01351100651ADDAA106000091GF105991021011008001011001MA1999999096591MD1999999-0021REMSYN070AAXX  09184 82983 32595 51805 10354 20135 39659 40065 82110 333 59002;EQDQ01  00002PRCP06
0198829830999992005011000004-09383-040483FM-12+037099999V0209999C000012200019N0020001N1+03141+01451100721ADDAA106000091GF102991021011008001001001KA1240M+03641MA1999999096651MD1999999-0041REMSYN088AAXX  10004 82983 32595 20000 10314 20145 39665 40072 82100 333 10364 29038 55103 59004;EQDQ01  00002PRCP06
0186829830999992005011012004-09383-040483FM-12+037099999V0201401N003110450019N0020001N1+02821+02021101081ADDAA106000091GF105991031011008001011001KA1240N+02601MA1999999097011MD1999999-0101REMSYN076AAXX  10124 82983 32595 51406 10282 20202 39701 40108 83110 333 20260 59010;EQDQ01  00002PRCP06
0167829830999992005011018004-09383-040483FM-12+037099999V0200901N003110450019N0020001N1+03441+01721100631ADDAA106000091GF106991031021008001021001MA1999999096551MD1999999-0041REMSYN070AAXX  10184 82983 32595 60906 10344 20172 39655 40063 83220 333 59004;EQDQ01  00002PRCP06
0202829830999992005011100004-09383-040483FM-12+037099999V0200901N002610075019N0020001N1+02541+02111100771ADDAY151061AY261061GF108991081061008001999999KA1240M+03541MA1999999096661MD1999999+0011MW1031REMSYN100AAXX  11004 82983 21595 80905 10254 20211 39666 40077 70356 886// 333 10354 29063 55061 58001 60021;
0162829830999992005011112004-09383-040483FM-12+037099999V0201401N003112200019N0020001N1+02781+02061101211ADDGF103991011011008001021001KA1240N+02421MA1999999097071MD1999999-0041REMSYN082AAXX  11124 82983 22595 31406 10278 20206 39707 40121 81120 333 20242 59004 60024;
0167829830999992005011118004-09383-040483FM-12+037099999V0200901N003110075019N0020001N1+03501+01721100631ADDAA106000091GF106991061011008001001001MA1999999096571MD1999999+0021REMSYN070AAXX  11184 82983 32595 60906 10350 20172 39657 40063 86100 333 58002;EQDQ01  00002PRCP06
0198829830999992005011200004-09383-040483FM-12+037099999V0203601N001510075019N0020001N1+03101+01701100841ADDAA106000091GF105991051021008001001001KA1240M+03641MA1999999096761MD1999999+0101REMSYN088AAXX  12004 82983 32595 53603 10310 20170 39676 40084 85200 333 10364 29046 55098 58010;EQDQ01  00002PRCP06
0202829830999992005011212004-09383-040483FM-12+037099999V0200901N003112200019N0020001N1+02921+01921100961ADDAA106000091GF102991999001008001021001KA1240N+02661MA1999999096901MD1999999-0171REMSYN076AAXX  12124 82983 32595 20906 10292 20192 39690 40096 80020 333 20266 59017;EQDQ01+000002SCOTLCQ02  00002PRCP06
0167829830999992005011218004-09383-040483FM-12+037099999V0203601N003110075019N0020001N1+03541+01761100481ADDAA106000091GF107991071041008001001001MA1999999096461MD1999999-0111REMSYN070AAXX  12184 82983 32595 73606 10354 20176 39646 40048 87400 333 59011;EQDQ01  00002PRCP06
0198829830999992005011300004-09383-040483FM-12+037099999V0203601N001510075019N0020001N1+03051+01871100711ADDAA106000091GF107991071021008001001001KA1240M+03581MA1999999096691MD1999999-0071REMSYN088AAXX  13004 82983 32595 73603 10305 20187 39669 40071 87200 333 10358 29047 55073 59007;EQDQ01  00002PRCP06
0186829830999992005011312004-09383-040483FM-12+037099999V0200501N001510075019N0020001N1+02941+01881100981ADDAA106000091GF108991081061008001999999KA1240N+02681MA1999999096921MD1999999+0021REMSYN076AAXX  13124 82983 32595 80503 10294 20188 39692 40098 886// 333 20268 58002;EQDQ01  00002PRCP06
0171829830999992005011318004-09383-040483FM-12+037099999V0202701N006710075019N0020001N1+02421+02071100931ADDAY121061AY251061GF108991081061008001999999MA1999999096781MD1999999+0321MW1501REMSYN082AAXX  13184 82983 21595 82713 10242 20207 39678 40093 75025 886// 333 58032 69901;
0183829830999992005011400004-09383-040483FM-12+037099999V0200901N002619999999N0020001N1+02381+02011101151ADDAA106000021GF105991999021008001001001KA1240M+03281MA1999999097011REMSYN087AAXX  14004 82983 32595 50905 10238 20201 39701 40115 86200 333 10328 29073 5012 58032;EQDQ01+000062SCOTLC
0186829830999992005011412004-09383-040483FM-12+037099999V0200501N003110450019N0020001N1+02601+01961101101ADDAA106000091GF106991041011008001011001KA1240N+02321MA1999999096961MD1999999+0041REMSYN076AAXX  14124 82983 32595 60506 10260 20196 39696 40110 84110 333 20232 58004;EQDQ01  00002PRCP06
0167829830999992005011418004-09383-040483FM-12+037099999V0201401N001510075019N0020001N1+03161+01861100671ADDAA106000091GF106991061021008001001001MA1999999096561MD1999999-0221REMSYN070AAXX  14184 82983 32595 61403 10316 20186 39656 40067 86200 333 59022;EQDQ01  00002PRCP06
0202829830999992005011500004-09383-040483FM-12+037099999V0200901N001510075019N0020001N1+02601+02101100971ADDAY151061AY261061GF108991081071008001999999KA1240M+03261MA1999999096841MD1999999-0171MW1031REMSYN100AAXX  15004 82983 21595 80903 10260 20210 39684 40097 70356 887// 333 10326 29066 55021 59017 60031;
0162829830999992005011512004-09383-040483FM-12+037099999V0200901N001510075019N0020001N1+02501+02111101121ADDGF108991061051008001001031KA1240N+02321MA1999999096981MD1999999+0021REMSYN082AAXX  15124 82983 22595 80903 10250 20211 39698 40112 86503 333 20232 58002 60034;
0167829830999992005011518004-09383-040483FM-12+037099999V0200501N003110075019N0020001N1+03221+02051100621ADDAA106000091GF108991081061008001999999MA1999999096531MD1999999-0031REMSYN070AAXX  15184 82983 32595 80506 10322 20205 39653 40062 886// 333 59003;EQDQ01  00002PRCP06
0202829830999992005011600004-09383-040483FM-12+037099999V0201401N002610075019N0020001N1+02401+02211100971ADDAY121061AY211061GF108991081051008001999999KA1240M+03261MA1999999096811MD1999999-0031MW1031REMSYN100AAXX  16004 82983 21595 81405 10240 20221 39681 40097 70321 885// 333 10326 29077 55042 59003 60011;
0162829830999992005011612004-09383-040483FM-12+037099999V0201401N004110075019N0020001N1+02701+02031101091ADDGF108991081051008001999999KA1240N+02341MA1999999096951MD1999999-0031REMSYN082AAXX  16124 82983 22595 81408 10270 20203 39695 40109 885// 333 20234 59003 69974;
0167829830999992005011618004-09383-040483FM-12+037099999V0200901N003110075019N0020001N1+03221+01881100561ADDAA106000091GF107991061021008001021001MA1999999096461MD1999999-0071REMSYN070AAXX  16184 82983 32595 70906 10322 20188 39646 40056 86220 333 59007;EQDQ01  00002PRCP06
0189829830999992005011700004-09380-040480FM-12+037099999V0203601N002610075019N0020001N1+02601+02291100691ADDAY151061AY261061GF106991061021008001001001MA1999999096571MD1999999-0241MW1021REMSYN100AAXX  17004 82983 21595 63605 10260 20229 39657 40069 70256 86200 333 10336 29070 55098 59024 60011;
0149829830999992005011712004-09380-040480FM-12+037099999V0201401N003112200019N0020001N1+02681+01811101001ADDGF105991041011008001001011MA1999999096871MD1999999-0081REMSYN082AAXX  17124 82983 22595 51406 10268 20181 39687 40100 84101 333 20244 59008 60014;
0167829830999992005011718004-09380-040480FM-12+037099999V0200501N002612200019N0020001N1+03161+01891100611ADDAA106000091GF105991031011008001001011MA1999999096541MD1999999+0081REMSYN070AAXX  17184 82983 32595 50505 10316 20189 39654 40061 83101 333 58008;EQDQ01  00002PRCP06
0198829830999992005011800004-09383-040483FM-12+037099999V0200901N001512200019N0020001N1+03001+01941100801ADDAA106000091GF104991041021008001001001KA1240M+03341MA1999999096721MD1999999+0151REMSYN088AAXX  18004 82983 32595 40903 10300 20194 39672 40080 84200 333 10334 29053 55081 58015;EQDQ01  00002PRCP06
0186829830999992005011812004-09383-040483FM-12+037099999V0201401N003110450019N0020001N1+02721+01741100971ADDAA106000091GF107991041011008001021001KA1240N+02521MA1999999096881MD1999999+0011REMSYN076AAXX  18124 82983 32595 71406 10272 20174 39688 40097 84120 333 20252 58001;EQDQ01  00002PRCP06
0167829830999992005011818004-09383-040483FM-12+037099999V0200901N003110450019N0020001N1+03301+01721100591ADDAA106000091GF106991041011008001021001MA1999999096531MD1999999-0011REMSYN070AAXX  18184 82983 32595 60906 10330 20172 39653 40059 84120 333 59001;EQDQ01  00002PRCP06
0198829830999992005011900004-09383-040483FM-12+037099999V0201401N003110075019N0020001N1+03101+01721100781ADDAA106000091GF106991061011008001001001KA1240M+03421MA1999999096701MD1999999-0021REMSYN088AAXX  19004 82983 32595 61406 10310 20172 39670 40078 86100 333 10342 29046 55062 59002;EQDQ01  00002PRCP06
0202829830999992005011912004-09383-040483FM-12+037099999V0201401N003112200019N0020001N1+02821+01801100951ADDAA106000091GF102991999001008001011001KA1240N+02521MA1999999096971MD1999999+0091REMSYN076AAXX  19124 82983 32595 21406 10282 20180 39697 40095 80010 333 20252 58009;EQDQ01+000002SCOTLCQ02  00002PRCP06
0167829830999992005011918004-09383-040483FM-12+037099999V0200901N002610075019N0020001N1+03501+01811100571ADDAA106000091GF106991061011008001001001MA1999999096521MD1999999-0011REMSYN070AAXX  19184 82983 32595 60905 10350 20181 39652 40057 86100 333 59001;EQDQ01  00002PRCP06
0198829830999992005012000004-09383-040483FM-12+037099999V0201401N003110075019N0020001N1+03081+01881100771ADDAA106000091GF106991061021008001001001KA1240M+03541MA1999999096701MD1999999+0001REMSYN088AAXX  20004 82983 32595 61406 10308 20188 39670 40077 86200 333 10354 29047 55112 58000;EQDQ01  00002PRCP06
0190829830999992005012012004-09383-040483FM-12+037099999V0200901N003112200019N0020001N1+02721+02081101151ADDAY161061AY251061GF103991031011008001001001KA1240N+02301MA1999999097051MD1999999+0081MW1011REMSYN088AAXX  20124 82983 21595 30906 10272 20208 39705 40115 70165 83100 333 20230 58008 60034;
0171829830999992005012018004-09383-040483FM-12+037099999V0203601N001510075019N0020001N1+03221+01841100691ADDAY111061AY221061GF106991061031008001001001MA1999999096581MD1999999+0061MW1501REMSYN082AAXX  20184 82983 21595 63603 10322 20184 39658 40069 75012 86300 333 58006 69921;
0179829830999992005012100004-09383-040483FM-12+037099999V0201801N001510075019N0020001N1+02741+01941100921ADDAA106000021GF106991061031008001001001KA1240M+03461MA1999999096821MD1999999+0121REMSYN088AAXX  21004 82983 32595 61803 10274 20194 39682 40092 86300 333 10346 29060 55090 58012;
0162829830999992005012112004-09383-040483FM-12+037099999V0200901N003110450019N0020001N1+02721+02051101321ADDGF106991031011008001021001KA1240N+02361MA1999999097201MD1999999+0151REMSYN082AAXX  21124 82983 22595 60906 10272 20205 39720 40132 83120 333 20236 58015 69924;
0167829830999992005012118004-09383-040483FM-12+037099999V0200501N003112200019N0020001N1+03481+01751100851ADDAA106000091GF104991041011008001001001MA1999999096761MD1999999+0181REMSYN070AAXX  21184 82983 32595 40506 10348 20175 39676 40085 84100 333 58018;EQDQ01  00002PRCP06
0208829830999992005012200004-09383-040483FM-12+037099999V0200901N001512200019N0020001N1+03141+01801100901ADDAA106000091GA1001+999999999GF100991001001999999001001KA1240M+03561MA1999999096821MD1999999+0001REMSYN082AAXX  22004 82983 32995 00903 10314 20180 39682 40090 333 10356 29048 55091 58000;EQDQ01  00002PRCP06
0186829830999992005012212004-09383-040483FM-12+037099999V0201401N003110450019N0020001N1+02741+02051101321ADDAA106000091GF106991041011008001021001KA1240N+02581MA1999999097221MD1999999+0021REMSYN076AAXX  22124 82983 32595 61406 10274 20205 39722 40132 84120 333 20258 58002;EQDQ01  00002PRCP06
0167829830999992005012218004-09383-040483FM-12+037099999V0201401N003110075019N0020001N1+03521+01871100801ADDAA106000091GF105991051011008001001001MA1999999096681MD1999999-0081REMSYN070AAXX  22184 82983 32595 51406 10352 20187 39668 40080 85100 333 59008;EQDQ01  00002PRCP06
0189829830999992005012300004-09380-040480FM-12+037099999V0209999C000010075019N0020001N1+02621+01981100981ADDAY151061AY261061GF108991081061008001999999MA1999999096861MD1999999+0041MW1501REMSYN100AAXX  23004 82983 21595 80000 10262 20198 39686 40098 75056 886// 333 10362 29060 55091 58004 60021;
0149829830999992005012312004-09380-040480FM-12+037099999V0200901N002610450019N0020001N1+02761+02021101301ADDGF107991031021008001021021MA1999999097161MD1999999-0061REMSYN082AAXX  23124 82983 22595 70905 10276 20202 39716 40130 83222 333 20238 59006 60024;
0167829830999992005012318004-09380-040480FM-12+037099999V0200901N002610450019N0020001N1+03341+01911100731ADDAA106000091GF106991041011008001021001MA1999999096641MD1999999-0021REMSYN070AAXX  23184 82983 32595 60905 10334 20191 39664 40073 84120 333 59002;EQDQ01  00002PRCP06
0185829830999992005012400004-09380-040480FM-12+037099999V0202701N001510075019N0020001N1+02501+02051101041ADDAA106000091GF106991061021008001001001MA1999999096921MD1999999+0061REMSYN088AAXX  24004 82983 32595 62703 10250 20205 39692 40104 86200 333 10354 29065 55069 58006;EQDQ01  00002PRCP06
0173829830999992005012412004-09380-040480FM-12+037099999V0201401N002612200019N0020001N1+02861+02061101201ADDAA106000091GF102991021011008001001001MA1999999097071MD1999999-0091REMSYN076AAXX  24124 82983 32595 21405 10286 20206 39707 40120 82100 333 20238 59009;EQDQ01  00002PRCP06
0167829830999992005012418004-09380-040480FM-12+037099999V0200901N002610450019N0020001N1+03461+01821100641ADDAA106000091GF106991021011008001021001MA1999999096561MD1999999-0081REMSYN070AAXX  24184 82983 32595 60905 10346 20182 39656 40064 82120 333 59008;EQDQ01  00002PRCP06
0214829830999992005012500004-09383-040483FM-12+037099999V0203601N002611050019N0020001N1+03961+02151100871ADDAA106000091GF106991041021008001001021KA1240M+99999MA1999999096781MD1999999-0141REMSYN088AAXX  25004 82983 32595 63605 10396 20215 39678 40087 84202 333 10358 29056 55111 59014;EQDQ01  00002PRCP06Q02 +03582ATMX  
0186829830999992005012512004-09383-040483FM-12+037099999V0202701N001510075019N0020001N1+02881+02031101091ADDAA106000091GF106991061021008001001001KA1240N+02581MA1999999096991MD1999999-0081REMSYN076AAXX  25124 82983 32595 62703 10288 20203 39699 40109 86200 333 20258 59008;EQDQ01  00002PRCP06
0167829830999992005012518004-09383-040483FM-12+037099999V0203201N004110450019N0020001N1+03241+02101100711ADDAA106000091GF106991031011008001021011MA1999999096631MD1999999+0071REMSYN070AAXX  25184 82983 32595 63208 10324 20210 39663 40071 83121 333 58007;EQDQ01  00002PRCP06
0198829830999992005012600004-09383-040483FM-12+037099999V0202701N003111050019N0020001N1+02841+02071100911ADDAA106000091GF105991021011008001001021KA1240M+03401MA1999999096821MD1999999+0041REMSYN088AAXX  26004 82983 32595 52706 10284 20207 39682 40091 82102 333 10340 29059 55052 58004;EQDQ01  00002PRCP06
0190829830999992005012612004-09383-040483FM-12+037099999V0203201N001510075019N0020001N1+02481+02191101351ADDAY151061AY261061GF108991081051008001999999KA1240N+02341MA1999999097211MD1999999+0221MW1511REMSYN088AAXX  26124 82983 21595 83203 10248 20219 39721 40135 75156 885// 333 20234 58022 60234;
0148829830999992005012618004-09383-040483FM-12+037099999V0203601N003110450019N0020001N1+02901+02041101071ADDAA106000021GF106991031011008001021011MA1999999096941MD1999999+0311REMSYN070AAXX  26184 82983 32595 63606 10290 20204 39694 40107 83121 333 58031;
0198829830999992005012700004-09383-040483FM-12+037099999V0209999C000012200019N0020001N1+02701+02201101111ADDAA106000091GF102991011011008001001011KA1240M+03001MA1999999096971MD1999999+0151REMSYN088AAXX  27004 82983 32595 20000 10270 20220 39697 40111 81101 333 10300 29073 55018 58015;EQDQ01  00002PRCP06
0186829830999992005012712004-09383-040483FM-12+037099999V0201801N001011050019N0020001N1+02861+02191101311ADDAA106000091GF106991021011008001021061KA1240N+02441MA1999999097161MD1999999-0051REMSYN076AAXX  27124 82983 32595 61802 10286 20219 39716 40131 82126 333 20244 59005;EQDQ01  00002PRCP06
0167829830999992005012718004-09383-040483FM-12+037099999V0203601N002610450019N0020001N1+03221+02011100811ADDAA106000091GF106991021021008001091001MA1999999096731MD1999999-0211REMSYN070AAXX  27184 82983 32595 63605 10322 20201 39673 40081 82290 333 59021;EQDQ01  00002PRCP06
0198829830999992005012800004-09383-040483FM-12+037099999V0201401N002610075019N0020001N1+02801+02111101031ADDAA106000091GF108991081051008001999999KA1240M+03341MA1999999096941MD1999999-0031REMSYN088AAXX  28004 82983 32595 81405 10280 20211 39694 40103 885// 333 10334 29062 55061 59003;EQDQ01  00002PRCP06
0186829830999992005012812004-09383-040483FM-12+037099999V0201401N003110075019N0020001N1+02721+02001101281ADDAA106000091GF105991051011008001001001KA1240N+02461MA1999999097161MD1999999+0001REMSYN076AAXX  28124 82983 32595 51406 10272 20200 39716 40128 85100 333 20246 58000;EQDQ01  00002PRCP06
0167829830999992005012818004-09383-040483FM-12+037099999V0201401N002610450019N0020001N1+03301+01841100761ADDAA106000091GF106991031011008001021001MA1999999096681MD1999999-0051REMSYN070AAXX  28184 82983 32595 61405 10330 20184 39668 40076 83120 333 59005;EQDQ01  00002PRCP06
0198829830999992005012900004-09383-040483FM-12+037099999V0201401N004112200019N0020001N1+02901+01901100831ADDAA106000091GF103991031021008001001001KA1240M+03421MA1999999096721MD1999999-0221REMSYN088AAXX  29004 82983 32595 31408 10290 20190 39672 40083 83200 333 10342 29054 55088 59022;EQDQ01  00002PRCP06
0202829830999992005012912004-09383-040483FM-12+037099999V0201401N003119999999N0020001N1+02781+01911100931ADDAA106000091GF105991999021008001001001KA1240N+02481MA1999999096841MD1999999-0321REMSYN076AAXX  29124 82983 32595 51406 10278 20191 39684 40093 83200 333 20248 59032;EQDQ01+000032SCOTLCQ02  00002PRCP06
0167829830999992005012918004-09383-040483FM-12+037099999V0201401N003110450019N0020001N1+02781+01771100621ADDAA106000091GF106991031011008001041021MA1999999096511MD1999999-0171REMSYN070AAXX  29184 82983 32595 61406 10278 20177 39651 40062 83142 333 59017;EQDQ01  00002PRCP06
0185829830999992005013000004-09380-040480FM-12+037099999V0201801N001512200019N0020001N1+02861+01981100711ADDAA106000091GF103991031011008001001001MA1999999096631MD1999999-0091REMSYN088AAXX  30004 82983 32595 31803 10286 20198 39663 40071 83100 333 10338 29055 55072 59009;EQDQ01  00002PRCP06
0173829830999992005013012004-09380-040480FM-12+037099999V0201401N003110450019N0020001N1+02741+01951100891ADDAA106000091GF106991031011008001021021MA1999999096801MD1999999-0041REMSYN076AAXX  30124 82983 32595 61406 10274 20195 39680 40089 83122 333 20246 59004;EQDQ01  00002PRCP06
0167829830999992005013018004-09380-040480FM-12+037099999V0200501N003110450019N0020001N1+03201+01991100481ADDAA106000091GF106991031011008001021021MA1999999096411MD1999999-0101REMSYN070AAXX  30184 82983 32595 60506 10320 20199 39641 40048 83122 333 59010;EQDQ01  00002PRCP06
0208829830999992005013100004-09383-040483FM-12+037099999V0209999C000012200019N0020001N1+02861+02011100701ADDAA106000091GA1001+999999999GF100991001001999999001001KA1240M+03321MA1999999096621MD1999999-0011REMSYN082AAXX  31004 82983 32995 00000 10286 20201 39662 40070 333 10332 29058 55086 59001;EQDQ01  00002PRCP06
0190829830999992005013112004-09383-040483FM-12+037099999V0200901N003110075019N0020001N1+02761+01991100951ADDAY121061AY251061GF106991061011008001001001KA1240N+02441MA1999999096861MD1999999-0061MW1011REMSYN088AAXX  31124 82983 21595 60906 10276 20199 39686 40095 70125 86100 333 20244 59006 69964;
0167829830999992005013118004-09383-040483FM-12+037099999V0200501N002610075019N0020001N1+03321+01821100491ADDAA106000091GF106991061011008001001001MA1999999096421MD1999999+0011REMSYN070AAXX  31184 82983 32595 60505 10332 20182 39642 40049 86100 333 58001;EQDQ01  00002PRCP06
0208829830999992005020100004-09383-040483FM-12+037099999V0203601N001012200019N0020001N1+02961+01961100671ADDAA106000091GA1001+999999999GF100991001001999999001001KA1240M+03401MA1999999096591MD1999999-0031REMSYN082AAXX  01004 82983 32995 03602 10296 20196 39659 40067 333 10340 29054 55100 59003;EQDQ01  00002PRCP06
0186829830999992005020112004-09383-040483FM-12+037099999V0200901N003112200019N0020001N1+02801+01921100891ADDAA106000091GF104991031011008001001011KA1240N+02541MA1999999096801MD1999999-0061REMSYN076AAXX  01124 82983 32595 40906 10280 20192 39680 40089 83101 333 20254 59006;EQDQ01  00002PRCP06
0167829830999992005020118004-09383-040483FM-12+037099999V0200901N003110450019N0020001N1+03441+01721100471ADDAA106000091GF106991041011008001021001MA1999999096421MD1999999+0001REMSYN070AAXX  01184 82983 32595 60906 10344 20172 39642 40047 84120 333 58000;EQDQ01  00002PRCP06
0208829830999992005020200004-09383-040483FM-12+037099999V0203601N001012200019N0020001N1+02941+01691100671ADDAA106000091GA1001+999999999GF100991001001999999001001KA1240M+03501MA1999999096591MD1999999+0001REMSYN082AAXX  02004 82983 32995 03602 10294 20169 39659 40067 333 10350 29047 55097 58000;EQDQ01  00002PRCP06
0186829830999992005020212004-09383-040483FM-12+037099999V0201401N004110075019N0020001N1+02561+01951101011ADDAA106000091GF107991071061008001001001KA1240N+02521MA1999999096901MD1999999+0101REMSYN076AAXX  02124 82983 32595 71408 10256 20195 39690 40101 87600 333 20252 58010;EQDQ01  00002PRCP06
0167829830999992005020218004-09383-040483FM-12+037099999V0201401N003110450019N0020001N1+03261+01561100591ADDAA106000091GF106991031011008001021001MA1999999096541MD1999999+0121REMSYN070AAXX  02184 82983 32595 61406 10326 20156 39654 40059 83120 333 58012;EQDQ01  00002PRCP06
0198829830999992005020300004-09383-040483FM-12+037099999V0200901N003112200019N0020001N1+03081+01751100731ADDAA106000091GF104991041011008001001001KA1240M+03501MA1999999096651MD1999999+0061REMSYN088AAXX  03004 82983 32595 40906 10308 20175 39665 40073 84100 333 10350 29049 55044 58006;EQDQ01  00002PRCP06
0186829830999992005020312004-09383-040483FM-12+037099999V0201401N004110450019N0020001N1+02741+01971101141ADDAA106000091GF108991041011008001021999KA1240N+02601MA1999999097041MD1999999+0141REMSYN076AAXX  03124 82983 32595 81408 10274 20197 39704 40114 8412/ 333 20260 58014;EQDQ01  00002PRCP06
0167829830999992005020318004-09383-040483FM-12+037099999V0200901N003112200019N0020001N1+03441+01671100791ADDAA106000091GF106991031011008001001011MA1999999096731MD1999999+0191REMSYN070AAXX  03184 82983 32595 60906 10344 20167 39673 40079 83101 333 58019;EQDQ01  00002PRCP06
0169829830999992005020400004-09383-040483FM-12+037099999V0201401N001512200019N0020001N1+03201+02721999999ADDAA106000091GF104991999999008001999999KA1240M+03541REMSYN088AAXX  04004 82983 32595 41403 10320 20272 29878 40096 48100 333 10354 29045 55072 58013;EQDQ01  00002PRCP06
0186829830999992005020412004-09383-040483FM-12+037099999V0201401N004110450019N0020001N1+02741+01921101341ADDAA106000091GF107991041011008001021001KA1240N+02501MA1999999097241MD1999999+0201REMSYN076AAXX  04124 82983 32595 71408 10274 20192 39724 40134 84120 333 20250 58020;EQDQ01  00002PRCP06
0167829830999992005020418004-09383-040483FM-12+037099999V0201401N004112200019N0020001N1+03401+01811100861ADDAA106000091GF106991031011008001001011MA1999999096801MD1999999+0071REMSYN070AAXX  04184 82983 32595 61408 10340 20181 39680 40086 83101 333 58007;EQDQ01  00002PRCP06
0198829830999992005020500004-09383-040483FM-12+037099999V0201401N003112200019N0020001N1+03101+01621101081ADDAA106000091GF102991021011008001001001KA1240M+03501MA1999999096981MD1999999+0201REMSYN088AAXX  05004 82983 32595 21406 10310 20162 39698 40108 82100 333 10350 29046 55111 58020;EQDQ01  00002PRCP06
0186829830999992005020512004-09383-040483FM-12+037099999V0201401N004110075019N0020001N1+02661+01871101421ADDAA106000091GF106991061011008001001001KA1240N+02461MA1999999097311MD1999999+0071REMSYN076AAXX  05124 82983 32595 61408 10266 20187 39731 40142 86100 333 20246 58007;EQDQ01  00002PRCP06
0167829830999992005020518004-09383-040483FM-12+037099999V0201401N003112200019N0020001N1+03381+01661100941ADDAA106000091GF104991041011008001001001MA1999999096881MD1999999+0081REMSYN070AAXX  05184 82983 32595 41406 10338 20166 39688 40094 84100 333 58008;EQDQ01  00002PRCP06
0179829830999992005020600004-09380-040480FM-12+037099999V0200901N001512200019N0020001N1+03141+01621101011ADDAA106000091GF100991001001999999001001MA1999999096921MD1999999-0061REMSYN082AAXX  06004 82983 32995 00903 10314 20162 39692 40101 333 10352 29044 55097 59006;EQDQ01  00002PRCP06
0173829830999992005020612004-09380-040480FM-12+037099999V0201401N004110075019N0020001N1+02741+01701101331ADDAA106000091GF106991061011008001001001MA1999999097231MD1999999-0081REMSYN076AAXX  06124 82983 32595 61408 10274 20170 39723 40133 86100 333 20244 59008;EQDQ01  00002PRCP06
0167829830999992005020618004-09380-040480FM-12+037099999V0201401N004112200019N0020001N1+03521+01501100751ADDAA106000091GF102991021011008001001001MA1999999096691MD1999999-0191REMSYN070AAXX  06184 82983 32595 21408 10352 20150 39669 40075 82100 333 59019;EQDQ01  00002PRCP06
0208829830999992005020700004-09383-040483FM-12+037099999V0201401N003112200019N0020001N1+03161+01291100781ADDAA106000091GA1001+999999999GF100991001001999999001001KA1240M+03601MA1999999096711MD1999999-0211REMSYN082AAXX  07004 82983 32995 01406 10316 20129 39671 40078 333 10360 29037 55112 59021;EQDQ01  00002PRCP06
0186829830999992005020712004-09383-040483FM-12+037099999V0201401N003112200019N0020001N1+02621+01761101211ADDAA106000091GF103991031011008001001001KA1240N+02401MA1999999097111MD1999999-0121REMSYN076AAXX  07124 82983 32595 31406 10262 20176 39711 40121 83100 333 20240 59012;EQDQ01  00002PRCP06
0167829830999992005020718004-09383-040483FM-12+037099999V0201401N003112200019N0020001N1+03541+01521100691ADDAA106000091GF104991041011008001001001MA1999999096631MD1999999-0061REMSYN070AAXX  07184 82983 32595 41406 10354 20152 39663 40069 84100 333 59006;EQDQ01  00002PRCP06
0208829830999992005020800004-09383-040483FM-12+037099999V0201401N003112200019N0020001N1+03181+01571100741ADDAA106000091GA1001+999999999GF100991001001999999001001KA1240M+03601MA1999999096661MD1999999-0051REMSYN082AAXX  08004 82983 32995 01406 10318 20157 39666 40074 333 10360 29041 55117 59005;EQDQ01  00002PRCP06
0186829830999992005020812004-09383-040483FM-12+037099999V0201401N005111050019N0020001N1+02921+01801101071ADDAA106000091GF106991041011008001001021KA1240N+02481MA1999999097001MD1999999-0111REMSYN076AAXX  08124 82983 32595 61410 10292 20180 39700 40107 84102 333 20248 59011;EQDQ01  00002PRCP06
0167829830999992005020818004-09383-040483FM-12+037099999V0201401N003110075019N0020001N1+03441+01581100701ADDAA106000091GF107991051011008001021001MA1999999096631MD1999999+0001REMSYN070AAXX  08184 82983 32595 71406 10344 20158 39663 40070 85120 333 58000;EQDQ01  00002PRCP06
0198829830999992005020900004-09383-040483FM-12+037099999V0201801N005712200019N0020001N1+02941+01941100911ADDAA106000091GF102991021011008001001001KA1240M+03561MA1999999096831MD1999999+0171REMSYN088AAXX  09004 82983 32595 21811 10294 20194 39683 40091 82100 333 10356 29048 55104 58017;EQDQ01  00002PRCP06
0186829830999992005020912004-09383-040483FM-12+037099999V0201401N005710075019N0020001N1+02661+01791101171ADDAA106000091GF106991061041008001001001KA1240N+02281MA1999999097071MD1999999+0071REMSYN076AAXX  09124 82983 32595 61411 10266 20179 39707 40117 86400 333 20228 58007;EQDQ01  00002PRCP06
0167829830999992005020918004-09383-040483FM-12+037099999V0201401N003110075019N0020001N1+03201+01751100701ADDAA106000091GF106991061011008001001001MA1999999096601MD1999999-0031REMSYN070AAXX  09184 82983 32595 61406 10320 20175 39660 40070 86100 333 59003;EQDQ01  00002PRCP06
0208829830999992005021000004-09383-040483FM-12+037099999V0201401N006212200019N0020001N1+02961+01841100801ADDAA106000091GA1001+999999999GF100991001001999999001001KA1240M+03321MA1999999096721MD1999999-0111REMSYN082AAXX  10004 82983 32995 01412 10296 20184 39672 40080 333 10332 29051 55109 59011;EQDQ01  00002PRCP06
0186829830999992005021012004-09383-040483FM-12+037099999V0201401N005110075019N0020001N1+02661+01871101011ADDAA106000091GF106991061021008001001001KA1240N+02481MA1999999096921MD1999999-0151REMSYN076AAXX  10124 82983 32595 61410 10266 20187 39692 40101 86200 333 20248 59015;EQDQ01  00002PRCP06
0167829830999992005021018004-09383-040483FM-12+037099999V0200901N003112200019N0020001N1+03341+01751100601ADDAA106000091GF103991031011008001001001MA1999999096531MD1999999-0071REMSYN070AAXX  10184 82983 32595 30906 10334 20175 39653 40060 83100 333 59007;EQDQ01  00002PRCP06
0198829830999992005021100004-09383-040483FM-12+037099999V0200901N001510075019N0020001N1+02821+02021100741ADDAA106000091GF106991061011008001001001KA1240M+03481MA1999999096641MD1999999-0081REMSYN088AAXX  11004 82983 32595 60903 10282 20202 39664 40074 86100 333 10348 29056 55089 59008;EQDQ01  00002PRCP06
0186829830999992005021112004-09383-040483FM-12+037099999V0201401N003110075019N0020001N1+02681+01971101071ADDAA106000091GF107991071021008001001001KA1240N+02461MA1999999096951MD1999999+0031REMSYN076AAXX  11124 82983 32595 71406 10268 20197 39695 40107 87200 333 20246 58003;EQDQ01  00002PRCP06
0167829830999992005021118004-09383-040483FM-12+037099999V0201401N002612200019N0020001N1+03401+01771100541ADDAA106000091GF103991031011008001001001MA1999999096471MD1999999-0061REMSYN070AAXX  11184 82983 32595 31405 10340 20177 39647 40054 83100 333 59006;EQDQ01  00002PRCP06
0198829830999992005021200004-09383-040483FM-12+037099999V0203601N004112200019N0020001N1+02761+02041100831ADDAA106000091GF104991041011008001001001KA1240M+03521MA1999999096721MD1999999+0081REMSYN088AAXX  12004 82983 32595 43608 10276 20204 39672 40083 84100 333 10352 29058 55078 58008;EQDQ01  00002PRCP06
0190829830999992005021212004-09383-040483FM-12+037099999V0201401N001010075019N0020001N1+02421+02051101131ADDAY151061AY221061GF108991081051008001999999KA1240N+02361MA1999999096991MD1999999+0041MW1031REMSYN088AAXX  12124 82983 21595 81402 10242 20205 39699 40113 70352 885// 333 20236 58004 69944;
0171829830999992005021218004-09383-040483FM-12+037099999V0203601N003110075019N0020001N1+02901+02021100891ADDAY121061AY211061GF108991081051008001999999MA1999999096771MD1999999+0301MW1501REMSYN082AAXX  12184 82983 21595 83606 10290 20202 39677 40089 75021 885// 333 58030 69901;
0166829830999992005021300004-09380-040480FM-12+037099999V0202701N001510075019N0020001N1+02621+02031101011ADDAA106000021GF108991999051008001999081MA1999999096861MD1999999+0051REMSYN088AAXX  13004 82983 32595 82703 10262 20203 39686 40101 885/8 333 10300 29070 55000 58005;
0177829830999992005021312004-09380-040480FM-12+037099999V0201801N000510075019N0020001N1+02381+02241101251ADDAY161061AY251061GF108991081061008001999999MA1999999097101MD1999999+0111MW1641REMSYN088AAXX  13124 82983 21595 81801 10238 20224 39710 40125 76465 886// 333 20234 58011 60194;
0148829830999992005021318004-09380-040480FM-12+037099999V0201801N003110075019N0020001N1+03041+02181100761ADDAA106000021GF108991081051008001999999MA1999999096651MD1999999-0121REMSYN070AAXX  13184 82983 32595 81806 10304 20218 39665 40076 885// 333 59012;
0202829830999992005021400004-09383-040483FM-12+037099999V0200901N004110075019N0020001N1+02461+02251101161ADDAY151061AY221061GF108991081051008001999999KA1240M+03081MA1999999096991MD1999999+0131MW1031REMSYN100AAXX  14004 82983 21595 80908 10246 20225 39699 40116 70352 885// 333 10308 29082 55010 58013 69941;
0190829830999992005021412004-09383-040483FM-12+037099999V0201801N001010450019N0020001N1+02581+02101101141ADDAY121061AY251061GF106991041011008001021021KA1240N+02341MA1999999096991MD1999999-0111MW1011REMSYN088AAXX  14124 82983 21595 61802 10258 20210 39699 40114 70125 84122 333 20234 59011 60014;
0171829830999992005021418004-09383-040483FM-12+037099999V0200501N003110075019N0020001N1+02881+02051100641ADDAY111061AY221061GF108991081071008001999999MA1999999096521MD1999999-0131MW1631REMSYN082AAXX  14184 82983 21595 80506 10288 20205 39652 40064 76312 887// 333 59013 60021;
0202829830999992005021500004-09383-040483FM-12+037099999V0202301N001510075019N0020001N1+02421+02231100901ADDAY151061AY261061GF108991081061008001999999KA1240M+03221MA1999999096761MD1999999-0231MW1031REMSYN100AAXX  15004 82983 21595 82303 10242 20223 39676 40090 70356 886// 333 10322 29078 55048 59023 60301;
0190829830999992005021512004-09383-040483FM-12+037099999V0200501N001510075019N0020001N1+02361+02131101071ADDAY121061AY261061GF108991081021008001999999KA1240N+02201MA1999999096911MD1999999-0081MW1031REMSYN088AAXX  15124 82983 21595 80503 10236 20213 39691 40107 70326 882// 333 20220 59008 60364;
0171829830999992005021518004-09383-040483FM-12+037099999V0202701N001510120019N0020001N1+02281+02141100851ADDAY151061AY261061GF108991081081008001999999MA1999999096691MD1999999+0171MW1611REMSYN082AAXX  15184 82983 21595 82703 10228 20214 39669 40085 76156 888// 333 58017 60201;
0202829830999992005021600004-09383-040483FM-12+037099999V0209999C000010075019N0020001N1+02261+02091100881ADDAY121061AY251061GF108991081061008001999999KA1240M+02541MA1999999096721MD1999999-0041MW1031REMSYN100AAXX  16004 82983 21595 80000 10226 20209 39672 40088 70325 886// 333 10254 29090 55000 59004 69941;
0190829830999992005021612004-09383-040483FM-12+037099999V0200901N001510075019N0020001N1+02341+02221101051ADDAY161061AY251061GF108991081061008001999999KA1240N+02221MA1999999096881MD1999999-0031MW1031REMSYN088AAXX  16124 82983 21595 80903 10234 20222 39688 40105 70365 886// 333 20222 59003 60294;
0167829830999992005021618004-09383-040483FM-12+037099999V0200501N002610075019N0020001N1+02881+02211100611ADDAA106000091GF106991061021008001001001MA1999999096501MD1999999-0191REMSYN070AAXX  16184 82983 32595 60505 10288 20221 39650 40061 86200 333 59019;EQDQ01  00002PRCP06
0190829830999992005021712004-09383-040483FM-12+037099999V0200901N002610075019N0020001N1+02501+02191101211ADDAY161061AY251061GF108991081051008001999999KA1240N+02201MA1999999097071MD1999999+0191MW1021REMSYN088AAXX  17124 82983 21595 80905 10250 20219 39707 40121 70265 885// 333 20220 58019 60354;
0171829830999992005021718004-09383-040483FM-12+037099999V0200901N001010075019N0020001N1+02741+02241100881ADDAY121061AY211061GF108991081061008001999999MA1999999096731MD1999999+0231MW1501REMSYN082AAXX  17184 82983 21595 80902 10274 20224 39673 40088 75021 886// 333 58023 69901;
0179829830999992005021800004-09383-040483FM-12+037099999V0200901N003110075019N0020001N1+02561+02191101131ADDAA106000021GF106991061021008001001001KA1240M+03041MA1999999096991MD1999999+0181REMSYN088AAXX  18004 82983 32595 60906 10256 20219 39699 40113 86200 333 10304 29079 55044 58018;
0186829830999992005021812004-09383-040483FM-12+037099999V0201401N003110075019N0020001N1+02561+02021101391ADDAA106000091GF106991061021008001001001KA1240N+02321MA1999999097231MD1999999+0161REMSYN076AAXX  18124 82983 32595 61406 10256 20202 39723 40139 86200 333 20232 58016;EQDQ01  00002PRCP06
0167829830999992005021818004-09383-040483FM-12+037099999V0201401N003112200019N0020001N1+03141+01771100981ADDAA106000091GF103991031011008001001001MA1999999096871MD1999999+0141REMSYN070AAXX  18184 82983 32595 31406 10314 20177 39687 40098 83100 333 58014;EQDQ01  00002PRCP06
0198829830999992005021900004-09383-040483FM-12+037099999V0201401N001510075019N0020001N1+02801+02031101341ADDAA106000091GF105991051011008001001001KA1240M+03201MA1999999097201MD1999999+0211REMSYN088AAXX  19004 82983 32595 51403 10280 20203 39720 40134 85100 333 10320 29060 55098 58021;EQDQ01  00002PRCP06
0186829830999992005021912004-09383-040483FM-12+037099999V0201401N003112200019N0020001N1+02621+01911101341ADDAA106000091GF102991011011008001001011KA1240N+02341MA1999999097221MD1999999-0011REMSYN076AAXX  19124 82983 32595 21406 10262 20191 39722 40134 81101 333 20234 59001;EQDQ01  00002PRCP06
0167829830999992005021918004-09383-040483FM-12+037099999V0200901N003112200019N0020001N1+03261+01951100871ADDAA106000091GF102991021011008001001001MA1999999096781MD1999999-0091REMSYN070AAXX  19184 82983 32595 20906 10326 20195 39678 40087 82100 333 59009;EQDQ01  00002PRCP06
0185829830999992005022000004-09380-040480FM-12+037099999V0200901N003110075019N0020001N1+02881+02031100981ADDAA106000091GF106991061011008001001001MA1999999096871MD1999999-0331REMSYN088AAXX  20004 82983 32595 60906 10288 20203 39687 40098 86100 333 10334 29058 55113 59033;EQDQ01  00002PRCP06
0173829830999992005022012004-09380-040480FM-12+037099999V0201401N003112200019N0020001N1+02681+01891101171ADDAA106000091GF104991001001999999001081MA1999999097071MD1999999-0151REMSYN076AAXX  20124 82983 32595 41406 10268 20189 39707 40117 80008 333 20238 59015;EQDQ01  00002PRCP06
0167829830999992005022018004-09380-040480FM-12+037099999V0200501N001010450019N0020001N1+03201+01821100731ADDAA106000091GF106991031011008001021001MA1999999096651MD1999999-0131REMSYN070AAXX  20184 82983 32595 60502 10320 20182 39665 40073 83120 333 59013;EQDQ01  00002PRCP06
0208829830999992005022100004-09383-040483FM-12+037099999V0209999C000012200019N0020001N1+02821+02021100851ADDAA106000091GA1001+999999999GF100991001001999999001001KA1240M+03281MA1999999096751MD1999999-0121REMSYN082AAXX  21004 82983 32995 00000 10282 20202 39675 40085 333 10328 29058 55114 59012;EQDQ01  00002PRCP06
0186829830999992005022112004-09383-040483FM-12+037099999V0200901N002610075019N0020001N1+02741+02101100951ADDAA106000091GF107991071021008001001001KA1240N+02461MA1999999096861MD1999999-0211REMSYN076AAXX  21124 82983 32595 70905 10274 20210 39686 40095 87200 333 20246 59021;EQDQ01  00002PRCP06
0167829830999992005022118004-09383-040483FM-12+037099999V0203601N001510075019N0020001N1+03401+02001100461ADDAA106000091GF106991061011008001001001MA1999999096381MD1999999-0271REMSYN070AAXX  21184 82983 32595 63603 10340 20200 39638 40046 86100 333 59027;EQDQ01  00002PRCP06
0202829830999992005022200004-09383-040483FM-12+037099999V0201801N003110075019N0020001N1+02441+02271100951ADDAY121061AY211061GF108991081051008001999999KA1240M+03441MA1999999096821MD1999999+0071MW1631REMSYN100AAXX  22004 82983 21595 81806 10244 20227 39682 40095 76321 885// 333 10344 29073 55076 58007 60031;
0190829830999992005022212004-09383-040483FM-12+037099999V0201401N001010075019N0020001N1+02461+02131101191ADDAY151061AY261061GF108991081061008001999999KA1240N+02261MA1999999097031MD1999999+0171MW1031REMSYN088AAXX  22124 82983 21595 81402 10246 20213 39703 40119 70356 886// 333 20226 58017 60284;
0167829830999992005022218004-09383-040483FM-12+037099999V0203601N001510075019N0020001N1+02901+01461100921ADDAA106000091GF107991071051008001001001MA1999999096781MD1999999+0401REMSYN070AAXX  22184 82983 32595 73603 10290 20146 39678 40092 87500 333 58040;EQDQ01  00002PRCP06
0198829830999992005022300004-09383-040483FM-12+037099999V0209999C000010075019N0020001N1+02681+02181101151ADDAA106000091GF108991081051008001999999KA1240M+03001MA1999999097011MD1999999+0191REMSYN088AAXX  23004 82983 32595 80000 10268 20218 39701 40115 885// 333 10300 29072 55012 58019;EQDQ01  00002PRCP06
0186829830999992005022312004-09383-040483FM-12+037099999V0201401N003110075019N0020001N1+02561+02171101331ADDAA106000091GF108991081051008001999999KA1240N+02481MA1999999097181MD1999999+0151REMSYN076AAXX  23124 82983 32595 81406 10256 20217 39718 40133 885// 333 20248 58015;EQDQ01  00002PRCP06
0167829830999992005022318004-09383-040483FM-12+037099999V0200501N003110075019N0020001N1+03001+02271100921ADDAA106000091GF108991081051008001999999MA1999999096821MD1999999+0041REMSYN070AAXX  23184 82983 32595 80506 10300 20227 39682 40092 885// 333 58004;EQDQ01  00002PRCP06
0198829830999992005022400004-09383-040483FM-12+037099999V0201801N001510075019N0020001N1+02621+02141101211ADDAA106000091GF108991081061008001999999KA1240M+03061MA1999999097071MD1999999+0061REMSYN088AAXX  24004 82983 32595 81803 10262 20214 39707 40121 886// 333 10306 29074 55031 58006;EQDQ01  00002PRCP06
0186829830999992005022412004-09383-040483FM-12+037099999V0200901N003110075019N0020001N1+02641+02161101411ADDAA106000091GF108991081051008001999999KA1240N+02461MA1999999097271MD1999999+0091REMSYN076AAXX  24124 82983 32595 80906 10264 20216 39727 40141 885// 333 20246 58009;EQDQ01  00002PRCP06
0167829830999992005022418004-09383-040483FM-12+037099999V0200901N002610450019N0020001N1+03161+01921100941ADDAA106000091GF106991031011008001021001MA1999999096851MD1999999+0031REMSYN070AAXX  24184 82983 32595 60905 10316 20192 39685 40094 83120 333 58003;EQDQ01  00002PRCP06
0198829830999992005022500004-09383-040483FM-12+037099999V0201801N001510075019N0020001N1+02861+01981101171ADDAA106000091GF106991061021008001001001KA1240M+03261MA1999999097051MD1999999-0021REMSYN088AAXX  25004 82983 32595 61803 10286 20198 39705 40117 86200 333 10326 29060 55078 59002;EQDQ01  00002PRCP06
0186829830999992005022512004-09383-040483FM-12+037099999V0201401N003110075019N0020001N1+02701+02081101381ADDAA106000091GF106991061011008001001001KA1240N+02461MA1999999097271MD1999999+0001REMSYN076AAXX  25124 82983 32595 61406 10270 20208 39727 40138 86100 333 20246 58000;EQDQ01  00002PRCP06
0167829830999992005022518004-09383-040483FM-12+037099999V0201401N002612200019N0020001N1+03241+01931100921ADDAA106000091GF103991031011008001001001MA1999999096831MD1999999-0021REMSYN070AAXX  25184 82983 32595 31405 10324 20193 39683 40092 83100 333 59002;EQDQ01  00002PRCP06
0208829830999992005022600004-09383-040483FM-12+037099999V0201401N001512200019N0020001N1+02981+02041100941ADDAA106000091GA1001+999999999GF100991001001999999001001KA1240M+03301MA1999999096851MD1999999-0201REMSYN082AAXX  26004 82983 32995 01403 10298 20204 39685 40094 333 10330 29057 55099 59020;EQDQ01  00002PRCP06
0186829830999992005022612004-09383-040483FM-12+037099999V0201401N003110075019N0020001N1+02741+02071101201ADDAA106000091GF106991061021008001001001KA1240N+02481MA1999999097101MD1999999-0171REMSYN076AAXX  26124 82983 32595 61406 10274 20207 39710 40120 86200 333 20248 59017;EQDQ01  00002PRCP06
0167829830999992005022618004-09383-040483FM-12+037099999V0200501N003112200019N0020001N1+03221+02081100841ADDAA106000091GF104991041011008001001001MA1999999096751MD1999999-0081REMSYN070AAXX  26184 82983 32595 40506 10322 20208 39675 40084 84100 333 59008;EQDQ01  00002PRCP06
0185829830999992005022700004-09380-040480FM-12+037099999V0201401N003112200019N0020001N1+02981+02061100951ADDAA106000091GF103991031011008001001001MA1999999096861MD1999999+0011REMSYN088AAXX  27004 82983 32595 31406 10298 20206 39686 40095 83100 333 10334 29058 55095 58001;EQDQ01  00002PRCP06
0167829830999992005022712004-09380-040480FM-12+037099999V0201401N003112200019N0020001N1+02761+02071101161ADDAA106000091GF100991001001999999001001MA1999999097061MD1999999-0041REMSYN070AAXX  27124 82983 32595 01406 10276 20207 39706 40116 333 20248 59004;EQDQ01  00002PRCP06
0186829830999992005022812004-09383-040483FM-12+037099999V0201401N003110075019N0020001N1+02721+02121101361ADDAA106000091GF106991061021008001001001KA1240N+02501MA1999999097251MD1999999+0191REMSYN076AAXX  28124 82983 32595 61406 10272 20212 39725 40136 86200 333 20250 58019;EQDQ01  00002PRCP06
0167829830999992005022818004-09383-040483FM-12+037099999V0200901N001510450019N0020001N1+03221+02201100881ADDAA106000091GF107991031011008001021001MA1999999096791MD1999999+0061REMSYN070AAXX  28184 82983 32595 70903 10322 20220 39679 40088 83120 333 58006;EQDQ01  00002PRCP06
0198829830999992005030100004-09383-040483FM-12+037099999V0201801N001512200019N0020001N1+02921+02341101011ADDAA106000091GF104991041021008001001001KA1240M+03301MA1999999096921MD1999999+0091REMSYN088AAXX  01004 82983 32595 41803 10292 20234 39692 40101 84200 333 10330 29067 55073 58009;EQDQ01  00002PRCP06
0186829830999992005030112004-09383-040483FM-12+037099999V0200901N002612200019N0020001N1+02861+02141101201ADDAA106000091GF102991021011008001001001KA1240N+02501MA1999999097101MD1999999-0151REMSYN076AAXX  01124 82983 32595 20905 10286 20214 39710 40120 82100 333 20250 59015;EQDQ01  00002PRCP06
0167829830999992005030118004-09383-040483FM-12+037099999V0201401N001010075019N0020001N1+03341+01981100801ADDAA106000091GF106991061011008001001001MA1999999096721MD1999999-0071REMSYN070AAXX  01184 82983 32595 61402 10334 20198 39672 40080 86100 333 59007;EQDQ01  00002PRCP06
0208829830999992005030200004-09383-040483FM-12+037099999V0209999C000012200019N0020001N1+03021+02241100861ADDAA106000091GA1001+999999999GF100991001001999999001001KA1240M+03481MA1999999096781MD1999999-0141REMSYN082AAXX  02004 82983 32995 00000 10302 20224 39678 40086 333 10348 29059 55108 59014;EQDQ01  00002PRCP06
0186829830999992005030212004-09383-040483FM-12+037099999V0201401N003112200019N0020001N1+02801+02031101181ADDAA106000091GF103991011011008001001011KA1240N+02521MA1999999097081MD1999999-0021REMSYN076AAXX  02124 82983 32595 31406 10280 20203 39708 40118 81101 333 20252 59002;EQDQ01  00002PRCP06
0167829830999992005030218004-09383-040483FM-12+037099999V0200901N002612200019N0020001N1+03361+01971100771ADDAA106000091GF106991041011008001001011MA1999999096701MD1999999-0021REMSYN070AAXX  02184 82983 32595 60905 10336 20197 39670 40077 84101 333 59002;EQDQ01  00002PRCP06
0198829830999992005030300004-09383-040483FM-12+037099999V0201801N003112200019N0020001N1+03101+01941100961ADDAA106000091GF102991021011008001001001KA1240M+03501MA1999999096881MD1999999+0101REMSYN088AAXX  03004 82983 32595 21806 10310 20194 39688 40096 82100 333 10350 29052 55104 58010;EQDQ01  00002PRCP06
0186829830999992005030312004-09383-040483FM-12+037099999V0201401N003110450019N0020001N1+02721+01911101331ADDAA106000091GF105991031011008001021001KA1240N+02541MA1999999097221MD1999999+0141REMSYN076AAXX  03124 82983 32595 51406 10272 20191 39722 40133 83120 333 20254 58014;EQDQ01  00002PRCP06
0208829830999992005030400004-09383-040483FM-12+037099999V0201801N002612200019N0020001N1+02941+01821101021ADDAA106000091GA1001+999999999GF100991001001999999001001KA1240M+03341MA1999999096951MD1999999+0071REMSYN082AAXX  04004 82983 32995 01805 10294 20182 39695 40102 333 10334 29051 55095 58007;EQDQ01  00002PRCP06
0186829830999992005030412004-09383-040483FM-12+037099999V0200901N004110075019N0020001N1+02721+02001101361ADDAA106000091GF105991051011008001001001KA1240N+02441MA1999999097251MD1999999+0031REMSYN076AAXX  04124 82983 32595 50908 10272 20200 39725 40136 85100 333 20244 58003;EQDQ01  00002PRCP06
0167829830999992005030418004-09383-040483FM-12+037099999V0201401N003110450019N0020001N1+03301+01871100931ADDAA106000091GF106991041011008001021001MA1999999096841MD1999999+0011REMSYN070AAXX  04184 82983 32595 61406 10330 20187 39684 40093 84120 333 58001;EQDQ01  00002PRCP06
0198829830999992005030500004-09383-040483FM-12+037099999V0201401N001012200019N0020001N1+03001+02191101021ADDAA106000091GF103991031011008001001001KA1240M+03401MA1999999096921MD1999999-0031REMSYN088AAXX  05004 82983 32595 31402 10300 20219 39692 40102 83100 333 10340 29058 55097 59003;EQDQ01  00002PRCP06
0202829830999992005030512004-09383-040483FM-12+037099999V0201401N004112200019N0020001N1+02781+01981101441ADDAA106000091GF104991999001008001021001KA1240N+02561MA1999999097321MD1999999+0081REMSYN076AAXX  05124 82983 32595 41408 10278 20198 39732 40144 80020 333 20256 58008;EQDQ01+000002SCOTLCQ02  00002PRCP06
0167829830999992005030518004-09383-040483FM-12+037099999V0200901N001510450019N0020001N1+03281+01861100991ADDAA106000091GF106991031011008001021001MA1999999096811MD1999999+0071REMSYN070AAXX  05184 82983 32595 60903 10328 20186 39681 40099 83120 333 58007;EQDQ01  00002PRCP06
0179829830999992005030600004-09380-040480FM-12+037099999V0200901N002612200019N0020001N1+03141+01801101011ADDAA106000091GF100991001001999999001001MA1999999096921MD1999999+0001REMSYN082AAXX  06004 82983 32995 00905 10314 20180 39692 40101 333 10340 29049 55097 58000;EQDQ01  00002PRCP06
0173829830999992005030612004-09380-040480FM-12+037099999V0201401N003112200019N0020001N1+02721+02031101271ADDAA106000091GF104991041011008001001001MA1999999097171MD1999999-0151REMSYN076AAXX  06124 82983 32595 41406 10272 20203 39717 40127 84100 333 20246 59015;EQDQ01  00002PRCP06
0167829830999992005030618004-09380-040480FM-12+037099999V0200901N003112200019N0020001N1+03401+01641100681ADDAA106000091GF102991021011008001001001MA1999999096621MD1999999-0291REMSYN070AAXX  06184 82983 32595 20906 10340 20164 39662 40068 82100 333 59029;EQDQ01  00002PRCP06
0198829830999992005030700004-09383-040483FM-12+037099999V0201801N003110075019N0020001N1+03121+01821100901ADDAA106000091GF106991061011008001001001KA1240M+03501MA1999999096811MD1999999-0111REMSYN088AAXX  07004 82983 32595 61806 10312 20182 39681 40090 86100 333 10350 29048 55111 59011;EQDQ01  00002PRCP06
0202829830999992005030712004-09383-040483FM-12+037099999V0201401N003112200019N0020001N1+02741+01811101221ADDAA106000091GF102991001001999999001011KA1240N+02481MA1999999097131MD1999999-0041REMSYN076AAXX  07124 82983 32595 21406 10274 20181 39713 40122 80001 333 20248 59004;EQDQ01+008002SCOLCBQ02  00002PRCP06
0167829830999992005030718004-09383-040483FM-12+037099999V0201401N003110075019N0020001N1+03281+01861100771ADDAA106000091GF106991061011008001001001MA1999999096701MD1999999+0081REMSYN070AAXX  07184 82983 32595 61406 10328 20186 39670 40077 86100 333 58008;EQDQ01  00002PRCP06
0208829830999992005030800004-09383-040483FM-12+037099999V0201801N001512200019N0020001N1+02921+02061101031ADDAA106000091GA1001+999999999GF100991001001999999001001KA1240M+03341MA1999999096941MD1999999+0141REMSYN082AAXX  08004 82983 32995 01803 10292 20206 39694 40103 333 10334 29055 55084 58014;EQDQ01  00002PRCP06
0167829830999992005030818004-09383-040483FM-12+037099999V0200901N003110450019N0020001N1+03301+01871100761ADDAA106000091GF106991031011008001021001MA1999999096701MD1999999+0001REMSYN070AAXX  08184 82983 32595 60906 10330 20187 39670 40076 83120 333 58000;EQDQ01  00002PRCP06
0208829830999992005030900004-09383-040483FM-12+037099999V0201801N001012200019N0020001N1+02861+02101100991ADDAA106000091GA1001+999999999GF100991001001999999001001KA1240M+03361MA1999999096901MD1999999-0041REMSYN082AAXX  09004 82983 32995 01802 10286 20210 39690 40099 333 10336 29055 55106 59004;EQDQ01  00002PRCP06
0186829830999992005030912004-09383-040483FM-12+037099999V0200901N004110450019N0020001N1+02761+01861101201ADDAA106000091GF107991021011008001021011KA1240N+02541MA1999999097101MD1999999-0051REMSYN076AAXX  09124 82983 32595 70908 10276 20186 39710 40120 82121 333 20254 59005;EQDQ01  00002PRCP06
0167829830999992005030918004-09383-040483FM-12+037099999V0203601N002610450019N0020001N1+03301+01801100661ADDAA106000091GF107991041021008001021011MA1999999096601MD1999999-0101REMSYN070AAXX  09184 82983 32595 73605 10330 20180 39660 40066 84221 333 59010;EQDQ01  00002PRCP06
0198829830999992005031000004-09383-040483FM-12+037099999V0201801N003112200019N0020001N1+02841+02071100861ADDAA106000091GF102991021011008001001001KA1240M+03341MA1999999096701MD1999999-0131REMSYN088AAXX  10004 82983 32595 21806 10284 20207 39670 40086 82100 333 10334 29056 55058 59013;EQDQ01  00002PRCP06
0186829830999992005031012004-09383-040483FM-12+037099999V0201401N002610075019N0020001N1+02561+02041101311ADDAA106000091GF107991071051008001001001KA1240N+02481MA1999999097171MD1999999+0071REMSYN076AAXX  10124 82983 32595 71405 10256 20204 39717 40131 87500 333 20248 58007;EQDQ01  00002PRCP06
0167829830999992005031018004-09383-040483FM-12+037099999V0201801N002610450019N0020001N1+03161+01891100871ADDAA106000091GF107991041011008001021001MA1999999096781MD1999999+0181REMSYN070AAXX  10184 82983 32595 71805 10316 20189 39678 40087 84120 333 58018;EQDQ01  00002PRCP06
0198829830999992005031100004-09383-040483FM-12+037099999V0209999C000010075019N0020001N1+02641+02141101181ADDAA106000091GF108991081061008001999999KA1240M+03281MA1999999097021MD1999999+0251REMSYN088AAXX  11004 82983 32595 80000 10264 20214 39702 40118 886// 333 10328 29067 55044 58025;EQDQ01  00002PRCP06
0186829830999992005031112004-09383-040483FM-12+037099999V0201401N003110075019N0020001N1+02641+02051101321ADDAA106000091GF108991081051008001999999KA1240N+02521MA1999999097181MD1999999+0011REMSYN076AAXX  11124 82983 32595 81406 10264 20205 39718 40132 885// 333 20252 58001;EQDQ01  00002PRCP06
0167829830999992005031118004-09383-040483FM-12+037099999V0203601N001510075019N0020001N1+03141+02131100881ADDAA106000091GF106991061021008001001001MA1999999096791MD1999999+0011REMSYN070AAXX  11184 82983 32595 63603 10314 20213 39679 40088 86200 333 58001;EQDQ01  00002PRCP06
0202829830999992005031200004-09383-040483FM-12+037099999V0202301N001510075019N0020001N1+02541+02291101191ADDAY121061AY251061GF108991081061008001999999KA1240M+03241MA1999999097051MD1999999+0031MW1511REMSYN100AAXX  12004 82983 21595 82303 10254 20229 39705 40119 75125 886// 333 10324 29074 55032 58003 69981;
0162829830999992005031212004-09383-040483FM-12+037099999V0200901N002610450019N0020001N1+02561+02111101371ADDGF106991041021008001021001KA1240N+02321MA1999999097211MD1999999+0031REMSYN082AAXX  12124 82983 22595 60905 10256 20211 39721 40137 84220 333 20232 58003 69984;
0167829830999992005031218004-09383-040483FM-12+037099999V0203601N002610075019N0020001N1+03201+02031100751ADDAA106000091GF105991051011008001001001MA1999999096651MD1999999-0141REMSYN070AAXX  12184 82983 32595 53605 10320 20203 39665 40075 85100 333 59014;EQDQ01  00002PRCP06
0185829830999992005031300004-09380-040480FM-12+037099999V0203601N001012200019N0020001N1+02861+02151100931ADDAA106000091GF102991021011008001001001MA1999999096811MD1999999-0241REMSYN088AAXX  13004 82983 32595 23602 10286 20215 39681 40093 82100 333 10328 29064 55088 59024;EQDQ01  00002PRCP06
0177829830999992005031312004-09380-040480FM-12+037099999V0209999C000010075019N0020001N1+02241+02121101361ADDAY151061AY261061GF108991081061008001999999MA1999999097201MD1999999-0011MW1631REMSYN088AAXX  13124 82983 21595 80000 10224 20212 39720 40136 76356 886// 333 20220 59001 60274;
0171829830999992005031318004-09380-040480FM-12+037099999V0203601N003110075019N0020001N1+02281+02091101021ADDAY151061AY261061GF108991081051008001999999MA1999999096921MD1999999+0271MW1501REMSYN082AAXX  13184 82983 21595 83606 10228 20209 39692 40102 75056 885// 333 58027 60081;
0166829830999992005031400004-09380-040480FM-12+037099999V0201801N001010075019N0020001N1+02361+02071101061ADDAA106000021GF106991061021008001001001MA1999999096891MD1999999+0081REMSYN088AAXX  14004 82983 32595 61802 10236 20207 39689 40106 86200 333 10288 29088 55004 58008;
0149829830999992005031412004-09380-040480FM-12+037099999V0201401N002619999999N0020001N1+02401+02031101301ADDGF106991999061008001999999MA1999999097131MD1999999-0071REMSYN082AAXX  14124 82983 22595 61405 10240 20203 39713 40130 886// 333 20224 59007 60084;
0167829830999992005031418004-09383-040483FM-12+037099999V0201401N003110075019N0020001N1+02961+02151100791ADDAA106000091GF105991051021008001001001MA1999999096671MD1999999-0251REMSYN070AAXX  14184 82983 32595 51406 10296 20215 39667 40079 85200 333 59025;EQDQ01  00002PRCP06
0198829830999992005031500004-09383-040483FM-12+037099999V0209999C000012200019N0020001N1+02481+02151101021ADDAA106000091GF102991021011008001001001KA1240M+03041MA1999999096861MD1999999-0031REMSYN088AAXX  15004 82983 32595 20000 10248 20215 39686 40102 82100 333 10304 29076 55021 59003;EQDQ01  00002PRCP06
0186829830999992005031512004-09383-040483FM-12+037099999V0200901N004110075019N0020001N1+02641+02001101181ADDAA106000091GF105991051011008001001001KA1240N+02341MA1999999097041MD1999999-0091REMSYN076AAXX  15124 82983 32595 50908 10264 20200 39704 40118 85100 333 20234 59009;EQDQ01  00002PRCP06
0167829830999992005031518004-09383-040483FM-12+037099999V0201401N002610075019N0020001N1+03101+02001100811ADDAA106000091GF105991051011008001001001MA1999999096691MD1999999+0021REMSYN070AAXX  15184 82983 32595 51405 10310 20200 39669 40081 85100 333 58002;EQDQ01  00002PRCP06
0198829830999992005031600004-09383-040483FM-12+037099999V0201801N002612200019N0020001N1+02801+02031100981ADDAA106000091GF102991021011008001001001KA1240M+03181MA1999999096861MD1999999+0001REMSYN088AAXX  16004 82983 32595 21805 10280 20203 39686 40098 82100 333 10318 29062 55110 58000;EQDQ01  00002PRCP06
0186829830999992005031612004-09383-040483FM-12+037099999V0200901N004110075019N0020001N1+02641+02031101341ADDAA106000091GF107991071051008001001999KA1240N+02381MA1999999097201MD1999999+0161REMSYN076AAXX  16124 82983 32595 70908 10264 20203 39720 40134 8750/ 333 20238 58016;EQDQ01  00002PRCP06
0167829830999992005031618004-09383-040483FM-12+037099999V0201401N002610450019N0020001N1+03081+02011100951ADDAA106000091GF105991031011008001021001MA1999999096851MD1999999+0161REMSYN070AAXX  16184 82983 32595 51405 10308 20201 39685 40095 83120 333 58016;EQDQ01  00002PRCP06
0198829830999992005031700004-09383-040483FM-12+037099999V0200901N001512200019N0020001N1+02801+02111101061ADDAA106000091GF103991031011008001001001KA1240M+03201MA1999999096941MD1999999+0081REMSYN088AAXX  17004 82983 32595 30903 10280 20211 39694 40106 83100 333 10320 29064 55083 58008;EQDQ01  00002PRCP06
0186829830999992005031712004-09383-040483FM-12+037099999V0201401N004110075019N0020001N1+02621+02031101341ADDAA106000091GF106991061021008001001001KA1240N+02361MA1999999097201MD1999999+0001REMSYN076AAXX  17124 82983 32595 61408 10262 20203 39720 40134 86200 333 20236 58000;EQDQ01  00002PRCP06
0167829830999992005031718004-09383-040483FM-12+037099999V0200901N003110450019N0020001N1+03101+02001100871ADDAA106000091GF105991041011008001021001MA1999999096781MD1999999-0071REMSYN070AAXX  17184 82983 32595 50906 10310 20200 39678 40087 84120 333 59007;EQDQ01  00002PRCP06
0208829830999992005031800004-09383-040483FM-12+037099999V0202701N001012200019N0020001N1+02741+02171100941ADDAA106000091GA1001+999999999GF100991001001999999001001KA1240M+03201MA1999999096821MD1999999-0121REMSYN082AAXX  18004 82983 32995 02702 10274 20217 39682 40094 333 10320 29066 55098 59012;EQDQ01  00002PRCP06
0186829830999992005031812004-09383-040483FM-12+037099999V0201401N003110075019N0020001N1+02581+01991101331ADDAA106000091GF106991061011008001001001KA1240N+02381MA1999999097191MD1999999-0011REMSYN076AAXX  18124 82983 32595 61406 10258 20199 39719 40133 86100 333 20238 59001;EQDQ01  00002PRCP06
0167829830999992005031818004-09383-040483FM-12+037099999V0201401N003112200019N0020001N1+03061+01931100851ADDAA106000091GF102991021011008001001001MA1999999096761MD1999999-0021REMSYN070AAXX  18184 82983 32595 21406 10306 20193 39676 40085 82100 333 59002;EQDQ01  00002PRCP06
0198829830999992005031900004-09383-040483FM-12+037099999V0200501N001510075019N0020001N1+02841+01991101021ADDAA106000091GF105991051011008001001001KA1240M+03201MA1999999096901MD1999999+0081REMSYN088AAXX  19004 82983 32595 50503 10284 20199 39690 40102 85100 333 10320 29060 55103 58008;EQDQ01  00002PRCP06
0186829830999992005031912004-09383-040483FM-12+037099999V0201401N003112200019N0020001N1+02741+01971101301ADDAA106000091GF104991041011008001001001KA1240N+02501MA1999999097191MD1999999+0001REMSYN076AAXX  19124 82983 32595 41406 10274 20197 39719 40130 84100 333 20250 58000;EQDQ01  00002PRCP06
0167829830999992005031918004-09383-040483FM-12+037099999V0201401N001512200019N0020001N1+03161+02021100761ADDAA106000091GF106991031011008001001011MA1999999096681MD1999999-0081REMSYN070AAXX  19184 82983 32595 61403 10316 20202 39668 40076 83101 333 59008;EQDQ01  00002PRCP06
0185829830999992005032000004-09380-040480FM-12+037099999V0203601N001510075019N0020001N1+02761+02211101161ADDAA106000091GF105991051061008001001001MA1999999097041MD1999999+0141REMSYN088AAXX  20004 82983 32595 53603 10276 20221 39704 40116 85600 333 10324 29064 55078 58014;EQDQ01  00002PRCP06
0173829830999992005032012004-09380-040480FM-12+037099999V0202301N001510075019N0020001N1+02601+02191101401ADDAA106000091GF108991081051008001999999MA1999999097261MD1999999+0071REMSYN076AAXX  20124 82983 32595 82303 10260 20219 39726 40140 885// 333 20250 58007;EQDQ01  00002PRCP06
0167829830999992005032018004-09380-040480FM-12+037099999V0201801N002610450019N0020001N1+03101+02181100821ADDAA106000091GF105991031011008001021001MA1999999096741MD1999999+0061REMSYN070AAXX  20184 82983 32595 51805 10310 20218 39674 40082 83120 333 58006;EQDQ01  00002PRCP06
0202829830999992005032100004-09383-040483FM-12+037099999V0201801N001519999999N0020001N1+02441+02191101191ADDAY161061AY221061GF108991999021008001001001KA1240M+03341MA1999999097041MD1999999+0101MW1031REMSYN100AAXX  21004 82983 21595 81803 10244 20219 39704 40119 70362 83200 333 10334 29057 55012 58010 69941;
0162829830999992005032112004-09383-040483FM-12+037099999V0201401N003110450019N0020001N1+02601+02141101401ADDGF106991031011008001011001KA1240N+02401MA1999999097241MD1999999-0021REMSYN082AAXX  21124 82983 22595 61406 10260 20214 39724 40140 83110 333 20240 59002 69944;
0167829830999992005032118004-09383-040483FM-12+037099999V0201401N003110075019N0020001N1+03161+01961100861ADDAA106000091GF106991061011008001001001MA1999999096761MD1999999+0021REMSYN070AAXX  21184 82983 32595 61406 10316 20196 39676 40086 86100 333 58002;EQDQ01  00002PRCP06
0208829830999992005032200004-09383-040483FM-12+037099999V0201801N002612200019N0020001N1+02801+02081101111ADDAA106000091GA1001+999999999GF100991001001999999001001KA1240M+03301MA1999999096991MD1999999-0051REMSYN082AAXX  22004 82983 32995 01805 10280 20208 39699 40111 333 10330 29064 55081 59005;EQDQ01  00002PRCP06
0186829830999992005032212004-09383-040483FM-12+037099999V0201401N003110075019N0020001N1+02741+01971101361ADDAA106000091GF105991051011008001001001KA1240N+02401MA1999999097241MD1999999+0001REMSYN076AAXX  22124 82983 32595 51406 10274 20197 39724 40136 85100 333 20240 58000;EQDQ01  00002PRCP06
0167829830999992005032218004-09383-040483FM-12+037099999V0200901N003112200019N0020001N1+03161+01921100951ADDAA106000091GF104991041011008001001001MA1999999096861MD1999999+0101REMSYN070AAXX  22184 82983 32595 40906 10316 20192 39686 40095 84100 333 58010;EQDQ01  00002PRCP06
0198829830999992005032300004-09383-040483FM-12+037099999V0200501N002612200019N0020001N1+02841+02071101131ADDAA106000091GF104991041011008001001001KA1240M+03281MA1999999097031MD1999999+0041REMSYN088AAXX  23004 82983 32595 40505 10284 20207 39703 40113 84100 333 10328 29059 55110 58004;EQDQ01  00002PRCP06
0190829830999992005032312004-09383-040483FM-12+037099999V0201401N004110075019N0020001N1+02661+02011101521ADDAY161061AY251061GF106991061011008001001001KA1240N+02381MA1999999097391MD1999999+0151MW1031REMSYN088AAXX  23124 82983 21595 61408 10266 20201 39739 40152 70365 86100 333 20238 58015 60034;
0167829830999992005032318004-09383-040483FM-12+037099999V0201401N003112200019N0020001N1+03241+01861100991ADDAA106000091GF104991041011008001001001MA1999999096901MD1999999+0041REMSYN070AAXX  23184 82983 32595 41406 10324 20186 39690 40099 84100 333 58004;EQDQ01  00002PRCP06
0198829830999992005032400004-09383-040483FM-12+037099999V0203601N001510075019N0020001N1+02621+02101101231ADDAA106000091GF105991051011008001001001KA1240M+03301MA1999999097091MD1999999+0061REMSYN088AAXX  24004 82983 32595 53603 10262 20210 39709 40123 85100 333 10330 29064 55100 58006;EQDQ01  00002PRCP06
0186829830999992005032412004-09383-040483FM-12+037099999V0201401N003112200019N0020001N1+02721+02001101451ADDAA106000091GF104991041011008001001001KA1240N+02401MA1999999097311MD1999999-0081REMSYN076AAXX  24124 82983 32595 41406 10272 20200 39731 40145 84100 333 20240 59008;EQDQ01  00002PRCP06
0167829830999992005032418004-09383-040483FM-12+037099999V0200901N002610075019N0020001N1+03201+01961100901ADDAA106000091GF105991051011008001001001MA1999999096811MD1999999-0091REMSYN070AAXX  24184 82983 32595 50905 10320 20196 39681 40090 85100 333 59009;EQDQ01  00002PRCP06
0202829830999992005032500004-09383-040483FM-12+037099999V0200901N004110075019N0020001N1+02361+02131101321ADDAY111061AY221061GF108991081051008001999999KA1240M+03281MA1999999097161MD1999999+0071MW1501REMSYN100AAXX  25004 82983 21595 80908 10236 20213 39716 40132 75012 885// 333 10328 29072 55110 58007 60021;
0190829830999992005032512004-09383-040483FM-12+037099999V0201401N002610075019N0020001N1+02661+02041101381ADDAY131061AY251061GF106991061011008001001001KA1240N+02361MA1999999097221MD1999999-0091MW1021REMSYN088AAXX  25124 82983 21595 61405 10266 20204 39722 40138 70235 86100 333 20236 59009 60034;
0167829830999992005032518004-09383-040483FM-12+037099999V0201801N001512200019N0020001N1+03221+01881100841ADDAA106000091GF104991041011008001001001MA1999999096751MD1999999-0061REMSYN070AAXX  25184 82983 32595 41803 10322 20188 39675 40084 84100 333 59006;EQDQ01  00002PRCP06
0198829830999992005032600004-09383-040483FM-12+037099999V0200901N002612200019N0020001N1+02881+02161101021ADDAA106000091GF103991031011008001001001KA1240M+03301MA1999999096911MD1999999-0091REMSYN088AAXX  26004 82983 32595 30905 10288 20216 39691 40102 83100 333 10330 29061 55111 59009;EQDQ01  00002PRCP06
0190829830999992005032612004-09383-040483FM-12+037099999V0200501N001510075019N0020001N1+02501+02191101341ADDAY151061AY221061GF108991081051008001999999KA1240N+02321MA1999999097201MD1999999-0021MW1031REMSYN088AAXX  26124 82983 21595 80503 10250 20219 39720 40134 70352 885// 333 20232 59002 69944;
0171829830999992005032618004-09383-040483FM-12+037099999V0200901N001510450019N0020001N1+03081+02011100741ADDAY151061AY221061GF106991021011008001011021MA1999999096661MD1999999+0091MW1011REMSYN082AAXX  26184 82983 21595 60903 10308 20201 39666 40074 70152 82112 333 58009 69941;
0185829830999992005032700004-09380-040480FM-12+037099999V0203601N001512200019N0020001N1+02661+02091101061ADDAA106000091GF102991011011008001011001MA1999999096931MD1999999+0021REMSYN088AAXX  27004 82983 32595 23603 10266 20209 39693 40106 81110 333 10314 29070 55067 58002;EQDQ01  00002PRCP06
0149829830999992005032712004-09380-040480FM-12+037099999V0200901N003110075019N0020001N1+02561+02151101301ADDGF108991081021008001999999MA1999999097151MD1999999-0051REMSYN082AAXX  27124 82983 22595 80906 10256 20215 39715 40130 882// 333 20238 59005 69944;
0167829830999992005032718004-09380-040480FM-12+037099999V0201401N002612200019N0020001N1+03161+01991100691ADDAA106000091GF104991021011008001001011MA1999999096611MD1999999-0051REMSYN070AAXX  27184 82983 32595 41405 10316 20199 39661 40069 82101 333 59005;EQDQ01  00002PRCP06
0179829830999992005032800004-09380-040480FM-12+037099999V0203601N001512200019N0020001N1+02761+02191100991ADDAA106000091GF100991001001999999001001MA1999999096861MD1999999-0071REMSYN082AAXX  28004 82983 32995 03603 10276 20219 39686 40099 333 10320 29068 55080 59007;EQDQ01  00002PRCP06
0177829830999992005032812004-09380-040480FM-12+037099999V0202301N001510075019N0020001N1+02341+02111101321ADDAY161061AY251061GF108991081061008001999999MA1999999097161MD1999999+0011MW1031REMSYN088AAXX  28124 82983 21595 82303 10234 20211 39716 40132 70365 886// 333 20216 58001 60174;
0167829830999992005032818004-09380-040480FM-12+037099999V0202301N001010450019N0020001N1+02821+02331100941ADDAA106000091GF107991041011008001011001MA1999999096781MD1999999+0171REMSYN070AAXX  28184 82983 32595 72302 10282 20233 39678 40094 84110 333 58017;EQDQ01  00002PRCP06
0198829830999992005032900004-09383-040483FM-12+037099999V0209999C000012200019N0020001N1+02581+02311101071ADDAA106000091GF103991031011008001001001KA1240M+02921MA1999999096911MD1999999+0051REMSYN088AAXX  29004 82983 32595 30000 10258 20231 39691 40107 83100 333 10292 29083 55019 58005;EQDQ01  00002PRCP06
0186829830999992005032912004-09383-040483FM-12+037099999V0201801N001010075019N0020001N1+02561+02231101221ADDAA106000091GF108991081051008001999999KA1240N+02561MA1999999097101MD1999999-0061REMSYN076AAXX  29124 82983 32595 81802 10256 20223 39710 40122 885// 333 20256 59006;EQDQ01  00002PRCP06
0167829830999992005032918004-09383-040483FM-12+037099999V0200901N001510450019N0020001N1+02921+02121100841ADDAA106000091GF106991021011008001021021MA1999999096721MD1999999-0061REMSYN070AAXX  29184 82983 32595 60903 10292 20212 39672 40084 82122 333 59006;EQDQ01  00002PRCP06
0190829830999992005033012004-09383-040483FM-12+037099999V0201801N001510075019N0020001N1+02401+02261101311ADDAY161061AY251061GF107991051051008001011001KA1240N+02281MA1999999097151MD1999999+0051MW1021REMSYN088AAXX  30124 82983 21595 71803 10240 20226 39715 40131 70265 85510 333 20228 58005 60104;
0167829830999992005033018004-09383-040483FM-12+037099999V0201801N003110075019N0020001N1+02741+02241100921ADDAA106000091GF107991071021008001001001MA1999999096771MD1999999+0051REMSYN070AAXX  30184 82983 32595 71806 10274 20224 39677 40092 87200 333 58005;EQDQ01  00002PRCP06
0198829830999992005033100004-09383-040483FM-12+037099999V0200501N001510075019N0020001N1+02561+02171101171ADDAA106000091GF105991051021008001001001KA1240M+03001MA1999999097021MD1999999-0011REMSYN088AAXX  31004 82983 32595 50503 10256 20217 39702 40117 85200 333 10300 29081 55020 59001;EQDQ01  00002PRCP06
0186829830999992005033112004-09383-040483FM-12+037099999V0200901N003110075019N0020001N1+02561+02041101371ADDAA106000091GF107991071011008001001001KA1240N+02421MA1999999097211MD1999999+0061REMSYN076AAXX  31124 82983 32595 70906 10256 20204 39721 40137 87100 333 20242 58006;EQDQ01  00002PRCP06
0167829830999992005033118004-09383-040483FM-12+037099999V0201401N002612200019N0020001N1+03061+02081100871ADDAA106000091GF104991031011008001001011MA1999999096751MD1999999-0021REMSYN070AAXX  31184 82983 32595 41405 10306 20208 39675 40087 83101 333 59002;EQDQ01  00002PRCP06
0202829830999992005040100004-09383-040483FM-12+037099999V0201401N002612200019N0020001N1+02601+02121101151ADDAY151061AY221061GF102991021011008001001001KA1240M+03181MA1999999097011MD1999999-0011MW1011REMSYN100AAXX  01004 82983 21595 21405 10260 20212 39701 40115 70152 82100 333 10318 29070 55082 59001 69941;
0162829830999992005040112004-09383-040483FM-12+037099999V0201401N002610075019N0020001N1+02641+02091101401ADDGF106991061011008001001001KA1240N+02381MA1999999097251MD1999999+0041REMSYN082AAXX  01124 82983 22595 61405 10264 20209 39725 40140 86100 333 20238 58004 69944;
0167829830999992005040118004-09383-040483FM-12+037099999V0201401N001510075019N0020001N1+03101+02031100991ADDAA106000091GF105991051011008001001001MA1999999096871MD1999999+0121REMSYN070AAXX  01184 82983 32595 51403 10310 20203 39687 40099 85100 333 58012;EQDQ01  00002PRCP06
0198829830999992005040200004-09383-040483FM-12+037099999V0200901N001510075019N0020001N1+02721+02121101241ADDAA106000091GF105991051011008001001001KA1240M+03181MA1999999097111MD1999999+0101REMSYN088AAXX  02004 82983 32595 50903 10272 20212 39711 40124 85100 333 10318 29066 55092 58010;EQDQ01  00002PRCP06
0186829830999992005040212004-09383-040483FM-12+037099999V0201401N003110075019N0020001N1+02581+02121101371ADDAA106000091GF106991061021008001001001KA1240N+02301MA1999999097241MD1999999-0011REMSYN076AAXX  02124 82983 32595 61406 10258 20212 39724 40137 86200 333 20230 59001;EQDQ01  00002PRCP06
0167829830999992005040218004-09383-040483FM-12+037099999V0200901N003110075019N0020001N1+03141+02101100961ADDAA106000091GF106991061011008001001001MA1999999096841MD1999999-0031REMSYN070AAXX  02184 82983 32595 60906 10314 20210 39684 40096 86100 333 59003;EQDQ01  00002PRCP06
0189829830999992005040300004-09380-040480FM-12+037099999V0200901N003110075019N0020001N1+02421+02191101381ADDAY161061AY251061GF108991081061008001999999MA1999999097221MD1999999+0111MW1621REMSYN100AAXX  03004 82983 21595 80906 10242 20219 39722 40138 76265 886// 333 10324 29076 55099 58011 60161;
0149829830999992005040312004-09380-040480FM-12+037099999V0201401N003112200019N0020001N1+02661+02141101491ADDGF104991041011008001001001MA1999999097331MD1999999+0091REMSYN082AAXX  03124 82983 22595 41406 10266 20214 39733 40149 84100 333 20240 58009 60164;
0167829830999992005040318004-09380-040480FM-12+037099999V0201401N001512200019N0020001N1+03081+01981101011ADDAA106000091GF104991041011008001001001MA1999999096901MD1999999+0061REMSYN070AAXX  03184 82983 32595 41403 10308 20198 39690 40101 84100 333 58006;EQDQ01  00002PRCP06
0198829830999992005040400004-09383-040483FM-12+037099999V0201401N002612200019N0020001N1+02601+02141101231ADDAA106000091GF102991021011008001001001KA1240M+03201MA1999999097091MD1999999-0131REMSYN088AAXX  04004 82983 32595 21405 10260 20214 39709 40123 82100 333 10320 29069 55105 59013;EQDQ01  00002PRCP06
0186829830999992005040412004-09383-040483FM-12+037099999V0201401N003110075019N0020001N1+02581+02041101591ADDAA106000091GF106991061011008001001001KA1240N+02361MA1999999097431MD1999999+0101REMSYN076AAXX  04124 82983 32595 61406 10258 20204 39743 40159 86100 333 20236 58010;EQDQ01  00002PRCP06
0167829830999992005040418004-09383-040483FM-12+037099999V0201401N003112200019N0020001N1+03141+01581101131ADDAA106000091GF102991021011008001001001MA1999999097001MD1999999+0101REMSYN070AAXX  04184 82983 32595 21406 10314 20158 39700 40113 82100 333 58010;EQDQ01  00002PRCP06
0198829830999992005040500004-09383-040483FM-12+037099999V0201401N002612200019N0020001N1+02761+02041101261ADDAA106000091GF103991031011008001001001KA1240M+03201MA1999999097121MD1999999+0031REMSYN088AAXX  05004 82983 32595 31405 10276 20204 39712 40126 83100 333 10320 29060 55093 58003;EQDQ01  00002PRCP06
0186829830999992005040512004-09383-040483FM-12+037099999V0200901N004110075019N0020001N1+02541+01981101531ADDAA106000091GF106991061021008001001001KA1240N+02241MA1999999097381MD1999999-0051REMSYN076AAXX  05124 82983 32595 60908 10254 20198 39738 40153 86200 333 20224 59005;EQDQ01  00002PRCP06
0183829830999992005040518004-09383-040483FM-12+037099999V0200901N003119999999N0020001N1+03141+01841101041ADDAA106000091GF105991999011008001001001MA1999999096911MD1999999-0091REMSYN070AAXX  05184 82983 32595 50906 10314 20184 39691 40104 86100 333 59009;EQDQ01+000062SCOTLCQ02  00002PRCP06
0198829830999992005040600004-09383-040483FM-12+037099999V0200901N002612200019N0020001N1+02821+01941101311ADDAA106000091GF104991041011008001001001KA1240M+03181MA1999999097171MD1999999+0051REMSYN088AAXX  06004 82983 32595 40905 10282 20194 39717 40131 84100 333 10318 29059 55088 58005;EQDQ01  00002PRCP06
0186829830999992005040612004-09383-040483FM-12+037099999V0200901N004112200019N0020001N1+02621+01911101481ADDAA106000091GF104991021011008001021011KA1240N+02321MA1999999097341MD1999999-0041REMSYN076AAXX  06124 82983 32595 40908 10262 20191 39734 40148 82121 333 20232 59004;EQDQ01  00002PRCP06
0167829830999992005040618004-09383-040483FM-12+037099999V0200901N002610450019N0020001N1+03121+01791101091ADDAA106000091GF106991031011008001021021MA1999999096961MD1999999+0051REMSYN070AAXX  06184 82983 32595 60905 10312 20179 39696 40109 83122 333 58005;EQDQ01  00002PRCP06
0208829830999992005040700004-09383-040483FM-12+037099999V0200901N001512200019N0020001N1+02781+01881101181ADDAA106000091GA1001+999999999GF100991001001999999001001KA1240M+03181MA1999999097051MD1999999-0121REMSYN082AAXX  07004 82983 32995 00903 10278 20188 39705 40118 333 10318 29056 55099 59012;EQDQ01  00002PRCP06
0186829830999992005040712004-09383-040483FM-12+037099999V0200901N004110075019N0020001N1+02581+02041101401ADDAA106000091GF106991061011008001001001KA1240N+02221MA1999999097261MD1999999-0081REMSYN076AAXX  07124 82983 32595 60908 10258 20204 39726 40140 86100 333 20222 59008;EQDQ01  00002PRCP06
0167829830999992005040718004-09383-040483FM-12+037099999V0201401N003110075019N0020001N1+03241+01671100951ADDAA106000091GF105991051011008001001001MA1999999096851MD1999999-0111REMSYN070AAXX  07184 82983 32595 51406 10324 20167 39685 40095 85100 333 59011;EQDQ01  00002PRCP06
0198829830999992005040800004-09383-040483FM-12+037099999V0201401N003112200019N0020001N1+02841+01671101171ADDAA106000091GF103991031011008001001001KA1240M+03321MA1999999097041MD1999999-0011REMSYN088AAXX  08004 82983 32595 31406 10284 20167 39704 40117 83100 333 10332 29052 55097 59001;EQDQ01  00002PRCP06
0186829830999992005040812004-09383-040483FM-12+037099999V0201401N004112200019N0020001N1+02581+01771101401ADDAA106000091GF102991021011008001001001KA1240N+02181MA1999999097261MD1999999+0001REMSYN076AAXX  08124 82983 32595 21408 10258 20177 39726 40140 82100 333 20218 58000;EQDQ01  00002PRCP06
0167829830999992005040818004-09383-040483FM-12+037099999V0201401N004112200019N0020001N1+03201+01371100921ADDAA106000091GF101991011011008001001001MA1999999096801MD1999999-0051REMSYN070AAXX  08184 82983 32595 11408 10320 20137 39680 40092 81100 333 59005;EQDQ01  00002PRCP06
0198829830999992005040900004-09383-040483FM-12+037099999V0201801N002612200019N0020001N1+02661+01971101191ADDAA106000091GF104991041011008001001001KA1240M+03281MA1999999097051MD1999999+0011REMSYN088AAXX  09004 82983 32595 41805 10266 20197 39705 40119 84100 333 10328 29056 55109 58001;EQDQ01  00002PRCP06
0186829830999992005040912004-09383-040483FM-12+037099999V0200901N004110075019N0020001N1+02581+01821101421ADDAA106000091GF105991051011008001001001KA1240N+02201MA1999999097291MD1999999+0031REMSYN076AAXX  09124 82983 32595 50908 10258 20182 39729 40142 85100 333 20220 58003;EQDQ01  00002PRCP06
0167829830999992005040918004-09383-040483FM-12+037099999V0201401N002612200019N0020001N1+03181+01441100941ADDAA106000091GF102991021011008001001001MA1999999096821MD1999999+0021REMSYN070AAXX  09184 82983 32595 21405 10318 20144 39682 40094 82100 333 58002;EQDQ01  00002PRCP06
0198829830999992005041000004-09383-040483FM-12+037099999V0201401N003110075019N0020001N1+02761+01691101161ADDAA106000091GF106991061011008001001001KA1240M+03241MA1999999097021MD1999999-0031REMSYN088AAXX  10004 82983 32595 61406 10276 20169 39702 40116 86100 333 10324 29050 55112 59003;EQDQ01  00002PRCP06
0186829830999992005041012004-09383-040483FM-12+037099999V0201401N003110075019N0020001N1+02601+01991101351ADDAA106000091GF106991061021008001001001KA1240N+02321MA1999999097211MD1999999-0081REMSYN076AAXX  10124 82983 32595 61406 10260 20199 39721 40135 86200 333 20232 59008;EQDQ01  00002PRCP06
0167829830999992005041018004-09383-040483FM-12+037099999V0201401N004110450019N0020001N1+02921+02041100981ADDAA106000091GF106991041021008001021001MA1999999096851MD1999999+0031REMSYN070AAXX  10184 82983 32595 61408 10292 20204 39685 40098 84220 333 58003;EQDQ01  00002PRCP06
0198829830999992005041100004-09383-040483FM-12+037099999V0201801N003112200019N0020001N1+02561+02021101181ADDAA106000091GF104991011011008001021001KA1240M+03081MA1999999097041MD1999999+0021REMSYN088AAXX  11004 82983 32595 41806 10256 20202 39704 40118 81120 333 10308 29068 55057 58002;EQDQ01  00002PRCP06
0186829830999992005041112004-09383-040483FM-12+037099999V0201401N003110075019N0020001N1+02581+01901102231ADDAA106000091GF105991051011008001001001KA1240N+02301MA1999999097091MD1999999-0121REMSYN076AAXX  11124 82983 32595 51406 10258 20190 39709 40223 85100 333 20230 59012;EQDQ01  00002PRCP06
0183829830999992005041118004-09383-040483FM-12+037099999V0201801N003110450019N0020001N1+02821+02071100932ADDAA106000091GF106991041021008001011001MA1999999096791MD1999999-0061REMSYN070AAXX  11184 82983 32595 61806 10282 20207 39679 40093 84210 333 59006;EQDQ01+100933APOSLPQ02  00002PRCP06
0198829830999992005041200004-09383-040483FM-12+037099999V0201401N003112200019N0020001N1+02741+01781101031ADDAA106000091GF102991021011008001001001KA1240M+03001MA1999999096901MD1999999-0141REMSYN088AAXX  12004 82983 32595 21406 10274 20178 39690 40103 82100 333 10300 29060 55084 59014;EQDQ01  00002PRCP06
0186829830999992005041212004-09383-040483FM-12+037099999V0201801N002610075019N0020001N1+02481+01961101261ADDAA106000091GF108991081051008001999999KA1240N+02401MA1999999097121MD1999999+0031REMSYN076AAXX  12124 82983 32595 81805 10248 20196 39712 40126 885// 333 20240 58003;EQDQ01  00002PRCP06
0167829830999992005041218004-09383-040483FM-12+037099999V0201801N003110075019N0020001N1+02901+01931100971ADDAA106000091GF108991081051008001999999MA1999999096851MD1999999+0061REMSYN070AAXX  12184 82983 32595 81806 10290 20193 39685 40097 885// 333 58006;EQDQ01  00002PRCP06
0202829830999992005041300004-09383-040483FM-12+037099999V0201801N003110075019N0020001N1+02321+02131101351ADDAY151061AY221061GF108991081061008001999999KA1240M+03021MA1999999097171MD1999999+0271MW1531REMSYN100AAXX  13004 82983 21595 81806 10232 20213 39717 40135 75352 886// 333 10302 29077 55017 58027 60021;
0190829830999992005041312004-09383-040483FM-12+037099999V0200901N002610075019N0020001N1+02421+02071101421ADDAY151061AY261061GF108991081051008001999999KA1240N+02261MA1999999097241MD1999999+0121MW1031REMSYN088AAXX  13124 82983 21595 80905 10242 20207 39724 40142 70356 885// 333 20226 58012 60094;
0167829830999992005041318004-09383-040483FM-12+037099999V0201401N003110450019N0020001N1+02881+02101100971ADDAA106000091GF106991041021008001021001MA1999999096851MD1999999+0001REMSYN070AAXX  13184 82983 32595 61406 10288 20210 39685 40097 84220 333 58000;EQDQ01  00002PRCP06
0202829830999992005041400004-09383-040483FM-12+037099999V0201401N002610075019N0020001N1+02481+02191101301ADDAY121061AY211061GF108991081051008001999999KA1240M+02961MA1999999097111MD1999999-0061MW1501REMSYN100AAXX  14004 82983 21595 81405 10248 20219 39711 40130 75021 885// 333 10296 29078 55038 59006 69981;
0190829830999992005041412004-09383-040483FM-12+037099999V0201401N003110075019N0020001N1+02401+01991101411ADDAY151061AY221061GF108991081051008001999999KA1240N+02241MA1999999097241MD1999999+0001MW1031REMSYN088AAXX  14124 82983 21595 81406 10240 20199 39724 40141 70352 885// 333 20224 58000 60024;
0167829830999992005041418004-09383-040483FM-12+037099999V0201401N002610075019N0020001N1+02881+02081100991ADDAA106000091GF106991061011008001001001MA1999999096851MD1999999+0001REMSYN070AAXX  14184 82983 32595 61405 10288 20208 39685 40099 86100 333 58000;EQDQ01  00002PRCP06
0198829830999992005041500004-09383-040483FM-12+037099999V0201401N001510075019N0020001N1+02661+02091101161ADDAA106000091GF105991051011008001001001KA1240M+02961MA1999999097021MD1999999-0091REMSYN088AAXX  15004 82983 32595 51403 10266 20209 39702 40116 85100 333 10296 29070 55034 59009;EQDQ01  00002PRCP06
0186829830999992005041512004-09383-040483FM-12+037099999V0201401N003110075019N0020001N1+02541+02041101391ADDAA106000091GF108991081051008001999999KA1240N+02301MA1999999097241MD1999999+0001REMSYN076AAXX  15124 82983 32595 81406 10254 20204 39724 40139 885// 333 20230 58000;EQDQ01  00002PRCP06
0167829830999992005041518004-09383-040483FM-12+037099999V0201401N003112200019N0020001N1+03061+01991101001ADDAA106000091GF104991041011008001001001MA1999999096871MD1999999+0021REMSYN070AAXX  15184 82983 32595 41406 10306 20199 39687 40100 84100 333 58002;EQDQ01  00002PRCP06
0208829830999992005041600004-09383-040483FM-12+037099999V0201801N003112200019N0020001N1+02661+02091101241ADDAA106000091GA1001+999999999GF100991001001999999001001KA1240M+03181MA1999999097101MD1999999+0081REMSYN082AAXX  16004 82983 32995 01806 10266 20209 39710 40124 333 10318 29067 55084 58008;EQDQ01  00002PRCP06
0186829830999992005041612004-09383-040483FM-12+037099999V0200901N003110075019N0020001N1+02661+02001101391ADDAA106000091GF106991061021008001001001KA1240N+02421MA1999999097251MD1999999+0011REMSYN076AAXX  16124 82983 32595 60906 10266 20200 39725 40139 86200 333 20242 58001;EQDQ01  00002PRCP06
0167829830999992005041618004-09383-040483FM-12+037099999V0200901N002612200019N0020001N1+03121+01981101021ADDAA106000091GF106991041011008001001011MA1999999096911MD1999999+0041REMSYN070AAXX  16184 82983 32595 60905 10312 20198 39691 40102 84101 333 58004;EQDQ01  00002PRCP06
0173829830999992005041712004-09380-040480FM-12+037099999V0201401N003110075019N0020001N1+02601+02011101371ADDAA106000091GF107991071021008001001001MA1999999097231MD1999999-0021REMSYN076AAXX  17124 82983 32595 71406 10260 20201 39723 40137 87200 333 20246 59002;EQDQ01  00002PRCP06
0167829830999992005041718004-09380-040480FM-12+037099999V0201401N001510450019N0020001N1+03021+01991100991ADDAA106000091GF106991021011008001021021MA1999999096881MD1999999-0031REMSYN070AAXX  17184 82983 32595 61403 10302 20199 39688 40099 82122 333 59003;EQDQ01  00002PRCP06
0198829830999992005041800004-09383-040483FM-12+037099999V0201401N001512200019N0020001N1+02761+02021101151ADDAA106000091GF102991021021008001001011KA1240M+03181MA1999999097021MD1999999-0061REMSYN088AAXX  18004 82983 32595 21403 10276 20202 39702 40115 82201 333 10318 29066 55060 59006;EQDQ01  00002PRCP06
0186829830999992005041812004-09383-040483FM-12+037099999V0201401N003112200019N0020001N1+02641+02001101231ADDAA106000091GF106991041011008001001011KA1240N+02381MA1999999097101MD1999999-0131REMSYN076AAXX  18124 82983 32595 61406 10264 20200 39710 40123 84101 333 20238 59013;EQDQ01  00002PRCP06
0167829830999992005041818004-09383-040483FM-12+037099999V0201401N002610075019N0020001N1+03101+01971100801ADDAA106000091GF106991061011008001001001MA1999999096701MD1999999-0181REMSYN070AAXX  18184 82983 32595 61405 10310 20197 39670 40080 86100 333 59018;EQDQ01  00002PRCP06
0198829830999992005041900004-09383-040483FM-12+037099999V0201801N003112200019N0020001N1+02641+02121101121ADDAA106000091GF102991021011008001001001KA1240M+03151MA1999999096981MD1999999-0041REMSYN088AAXX  19004 82983 32595 21806 10264 20212 39698 40112 82100 333 10315 29066 55081 59004;EQDQ01  00002PRCP06
0186829830999992005041912004-09383-040483FM-12+037099999V0201401N003110075019N0020001N1+02561+01931101361ADDAA106000091GF106991061021008001001001KA1240N+02341MA1999999097211MD1999999+0111REMSYN076AAXX  19124 82983 32595 61406 10256 20193 39721 40136 86200 333 20234 58011;EQDQ01  00002PRCP06
0167829830999992005041918004-09383-040483FM-12+037099999V0201401N004110450019N0020001N1+03161+01711100881ADDAA106000091GF105991031011008001011011MA1999999096781MD1999999+0081REMSYN070AAXX  19184 82983 32595 51408 10316 20171 39678 40088 83111 333 58008;EQDQ01  00002PRCP06
0198829830999992005042000004-09383-040483FM-12+037099999V0201801N003110450019N0020001N1+02641+01711101171ADDAA106000091GF105991041031008001011001KA1240M+03201MA1999999097031MD1999999+0051REMSYN088AAXX  20004 82983 32595 51806 10264 20171 39703 40117 84310 333 10320 29056 55096 58005;EQDQ01  00002PRCP06
0186829830999992005042012004-09383-040483FM-12+037099999V0201401N003110075019N0020001N1+02621+02071101391ADDAA106000091GF107991071051008001001001KA1240N+02361MA1999999097251MD1999999+0041REMSYN076AAXX  20124 82983 32595 71406 10262 20207 39725 40139 87500 333 20236 58004;EQDQ01  00002PRCP06
0167829830999992005042018004-09383-040483FM-12+037099999V0201801N003110450019N0020001N1+03081+01981100961ADDAA106000091GF107991041021008001011011MA1999999096841MD1999999+0061REMSYN070AAXX  20184 82983 32595 71806 10308 20198 39684 40096 84211 333 58006;EQDQ01  00002PRCP06
0198829830999992005042100004-09383-040483FM-12+037099999V0201801N004110075019N0020001N1+02701+02011101301ADDAA106000091GF105991051011008001001001KA1240M+03161MA1999999097161MD1999999+0131REMSYN088AAXX  21004 82983 32595 51808 10270 20201 39716 40130 85100 333 10316 29064 55060 58013;EQDQ01  00002PRCP06
0186829830999992005042112004-09383-040483FM-12+037099999V0201401N004110075019N0020001N1+02461+02011101411ADDAA106000091GF108991081021008001999999KA1240N+02321MA1999999097261MD1999999+0011REMSYN076AAXX  21124 82983 32595 81408 10246 20201 39726 40141 882// 333 20232 58001;EQDQ01  00002PRCP06
0167829830999992005042118004-09383-040483FM-12+037099999V0200901N002610450019N0020001N1+03041+01941100931ADDAA106000091GF106991031011008001021011MA1999999096811MD1999999-0031REMSYN070AAXX  21184 82983 32595 60905 10304 20194 39681 40093 83121 333 59003;EQDQ01  00002PRCP06
0202829830999992005042200004-09383-040483FM-12+037099999V0201401N001510450019N0020001N1+02641+02051101141ADDAY121061AY251061GF105991031011008001021001KA1240M+03161MA1999999097001MD1999999-0161MW1021REMSYN100AAXX  22004 82983 21595 51403 10264 20205 39700 40114 70225 83120 333 10316 29067 55035 59016 60011;
0162829830999992005042212004-09383-040483FM-12+037099999V0200901N004110450019N0020001N1+02501+02001101311ADDGF106991041011008001021011KA1240N+02381MA1999999097151MD1999999-0111REMSYN082AAXX  22124 82983 22595 60908 10250 20200 39715 40131 84121 333 20238 59011 60014;
0167829830999992005042218004-09383-040483FM-12+037099999V0201401N001510450019N0020001N1+03221+01881100801ADDAA106000091GF106991021011008001021001MA1999999096721MD1999999-0091REMSYN070AAXX  22184 82983 32595 61403 10322 20188 39672 40080 82120 333 59009;EQDQ01  00002PRCP06
0198829830999992005042300004-09383-040483FM-12+037099999V0201801N002612200019N0020001N1+02721+02031101191ADDAA106000091GF102991021011008001001001KA1240M+03241MA1999999097051MD1999999+0051REMSYN088AAXX  23004 82983 32595 21805 10272 20203 39705 40119 82100 333 10324 29063 55027 58005;EQDQ01  00002PRCP06
0202829830999992005042312004-09383-040483FM-12+037099999V0201401N003119999999N0020001N1+02641+02001101251ADDAA106000091GF105991999011008001001001KA1240N+02321MA1999999097121MD1999999-0031REMSYN076AAXX  23124 82983 32595 51406 10264 20200 39712 40125 84100 333 20232 59003;EQDQ01+000042SCOTLCQ02  00002PRCP06
0167829830999992005042318004-09383-040483FM-12+037099999V0200901N003110450019N0020001N1+03241+01821100741ADDAA106000091GF107991031011008001011001MA1999999096661MD1999999-0061REMSYN070AAXX  23184 82983 32595 70906 10324 20182 39666 40074 83110 333 59006;EQDQ01  00002PRCP06
0150829830999992005042400004-09380-040480FM-12+037099999V0201801N004112200019N0020001N1+02761+01861999999ADDAA106000091GF100991001001999999001001REMSYN082AAXX  24004 82983 32995 01808 10276 20186 10330 39690 40101 333 29057 55102 59015;EQDQ01  00002PRCP06
0173829830999992005042412004-09380-040480FM-12+037099999V0201401N003112200019N0020001N1+02641+01601101371ADDAA106000091GF104991041011008001001001MA1999999097231MD1999999+0111REMSYN076AAXX  24124 82983 32595 41406 10264 20160 39723 40137 84100 333 20226 58011;EQDQ01  00002PRCP06
0167829830999992005042418004-09380-040480FM-12+037099999V0200901N003112200019N0020001N1+03281+01691100861ADDAA106000091GF104991041011008001001001MA1999999096761MD1999999+0101REMSYN070AAXX  24184 82983 32595 40906 10328 20169 39676 40086 84100 333 58010;EQDQ01  00002PRCP06
0198829830999992005042500004-09383-040483FM-12+037099999V0201801N002611050019N0020001N1+02761+01891101091ADDAA106000091GF105991021011008001001021KA1240M+03321MA1999999096961MD1999999+0061REMSYN088AAXX  25004 82983 32595 51805 10276 20189 39696 40109 82102 333 10332 29055 55105 58006;EQDQ01  00002PRCP06
0186829830999992005042512004-09383-040483FM-12+037099999V0201401N003110075019N0020001N1+02521+01931101391ADDAA106000091GF107991071011008001001001KA1240N+02341MA1999999097251MD1999999+0021REMSYN076AAXX  25124 82983 32595 71406 10252 20193 39725 40139 87100 333 20234 58002;EQDQ01  00002PRCP06
0167829830999992005042518004-09383-040483FM-12+037099999V0200901N001510450019N0020001N1+03021+01831100941ADDAA106000091GF107991021011008001091001MA1999999096851MD1999999+0091REMSYN070AAXX  25184 82983 32595 70903 10302 20183 39685 40094 82190 333 58009;EQDQ01  00002PRCP06
0214829830999992005042600004-09383-040483FM-12+037099999V0200901N001019999999N0020001N1+02741+01841101171ADDAA106000091GF105991999011008001999999KA1240M+03101MA1999999097041MD1999999+0081REMSYN088AAXX  26004 82983 32595 50902 10274 20184 39704 40117 881// 333 10310 29059 55035 58008;EQDQ01+000082SCOTLCQ02  00002PRCP06
0186829830999992005042612004-09383-040483FM-12+037099999V0201401N002612200019N0020001N1+02621+01881101381ADDAA106000091GF104991021011008001001011KA1240N+02281MA1999999097251MD1999999+0001REMSYN076AAXX  26124 82983 32595 41405 10262 20188 39725 40138 82101 333 20228 58000;EQDQ01  00002PRCP06
0167829830999992005042618004-09383-040483FM-12+037099999V0203201N001510450019N0020001N1+03221+01771100851ADDAA106000091GF105991021011008001011001MA1999999096761MD1999999-0091REMSYN070AAXX  26184 82983 32595 53203 10322 20177 39676 40085 82110 333 59009;EQDQ01  00002PRCP06
0198829830999992005042700004-09383-040483FM-12+037099999V0209999C000012200019N0020001N1+02721+01931101091ADDAA106000091GF103991031011008001001001KA1240M+03341MA1999999096951MD1999999-0091REMSYN088AAXX  27004 82983 32595 30000 10272 20193 39695 40109 83100 333 10334 29058 55108 59009;EQDQ01  00002PRCP06
0202829830999992005042712004-09383-040483FM-12+037099999V0201401N002619999999N0020001N1+02741+01781101321ADDAA106000091GF105991001001999999001091KA1240N+02281MA1999999097201MD1999999-0051REMSYN076AAXX  27124 82983 32595 51405 10274 20178 39720 40132 80009 333 20228 59005;EQDQ01+008002SCOLCBQ02  00002PRCP06
0167829830999992005042718004-09383-040483FM-12+037099999V0200901N001511050019N0020001N1+03301+01721100761ADDAA106000091GF105991021011008001001021MA1999999096681MD1999999-0081REMSYN070AAXX  27184 82983 32595 50903 10330 20172 39668 40076 82102 333 59008;EQDQ01  00002PRCP06
0208829830999992005042800004-09383-040483FM-12+037099999V0201801N001512200019N0020001N1+02961+01841101111ADDAA106000091GA1001+999999999GF100991001001999999001001KA1240M+03481MA1999999096921MD1999999-0031REMSYN082AAXX  28004 82983 32995 01803 10296 20184 39692 40111 333 10348 29049 55100 59003;EQDQ01  00002PRCP06
0186829830999992005042812004-09383-040483FM-12+037099999V0200901N003110075019N0020001N1+02661+01901101411ADDAA106000091GF107991071051008001001001KA1240N+02481MA1999999097301MD1999999+0101REMSYN076AAXX  28124 82983 32595 70906 10266 20190 39730 40141 87500 333 20248 58010;EQDQ01  00002PRCP06
0167829830999992005042818004-09383-040483FM-12+037099999V0201401N003110450019N0020001N1+03261+01841100911ADDAA106000091GF106991031011008001021011MA1999999096831MD1999999+0151REMSYN070AAXX  28184 82983 32595 61406 10326 20184 39683 40091 83121 333 58015;EQDQ01  00002PRCP06
0198829830999992005042900004-09383-040483FM-12+037099999V0201801N002610075019N0020001N1+02681+02041101251ADDAA106000091GF105991051021008001001001KA1240M+03321MA1999999097111MD1999999+0191REMSYN088AAXX  29004 82983 32595 51805 10268 20204 39711 40125 85200 333 10332 29060 55072 58019;EQDQ01  00002PRCP06
0190829830999992005042912004-09383-040483FM-12+037099999V0201401N003110075019N0020001N1+02621+02101101531ADDAY121061AY251061GF108991081051008001999999KA1240N+02481MA1999999097381MD1999999+0081MW1031REMSYN088AAXX  29124 82983 21595 81406 10262 20210 39738 40153 70325 885// 333 20248 58008 69944;
0167829830999992005042918004-09383-040483FM-12+037099999V0200901N005710075019N0020001N1+02741+02121101131ADDAA106000091GF107991071061008001001001MA1999999096991MD1999999+0161REMSYN070AAXX  29184 82983 32595 70911 10274 20212 39699 40113 87600 333 58016;EQDQ01  00002PRCP06
0198829830999992005043000004-09383-040483FM-12+037099999V0200901N001512200019N0020001N1+02641+02161101371ADDAA106000091GF104991041011008001001001KA1240M+03241MA1999999097231MD1999999+0121REMSYN088AAXX  30004 82983 32595 40903 10264 20216 39723 40137 84100 333 10324 29073 55055 58012;EQDQ01  00002PRCP06
0186829830999992005043012004-09383-040483FM-12+037099999V0201401N002610450019N0020001N1+02681+02061101511ADDAA106000091GF106991041011008001021001KA1240N+02461MA1999999097361MD1999999-0021REMSYN076AAXX  30124 82983 32595 61405 10268 20206 39736 40151 84120 333 20246 59002;EQDQ01  00002PRCP06
0167829830999992005043018004-09383-040483FM-12+037099999V0200901N001512200019N0020001N1+03201+01861101021ADDAA106000091GF103991031011008001001001MA1999999096931MD1999999-0061REMSYN070AAXX  30184 82983 32595 30903 10320 20186 39693 40102 83100 333 59006;EQDQ01  00002PRCP06
0185829830999992005050100004-09380-040480FM-12+037099999V0209999C000012200019N0020001N1+02721+02121101351ADDAA106000091GF103991031011008001001001MA1999999097211MD1999999-0021REMSYN088AAXX  01004 82983 32595 30000 10272 20212 39721 40135 83100 333 10328 29064 55073 59002;EQDQ01  00002PRCP06
0177829830999992005050112004-09380-040480FM-12+037099999V0201401N001510075019N0020001N1+02461+02151101471ADDAY151061AY231061GF108991081021008001999999MA1999999097321MD1999999-0031MW1031REMSYN088AAXX  01124 82983 21595 81403 10246 20215 39732 40147 70353 882// 333 20228 59003 60094;
0167829830999992005050118004-09380-040480FM-12+037099999V0201801N001510075019N0020001N1+02801+02111101021ADDAA106000091GF107991051011008001021001MA1999999096891MD1999999-0041REMSYN070AAXX  01184 82983 32595 71803 10280 20211 39689 40102 85120 333 59004;EQDQ01  00002PRCP06
0185829830999992005050200004-09380-040480FM-12+037099999V0209999C000010075019N0020001N1+02561+02231101271ADDAA106000091GF105991051021008001001001MA1999999097121MD1999999-0091REMSYN088AAXX  02004 82983 32595 50000 10256 20223 39712 40127 85200 333 10290 29078 55004 59009;EQDQ01  00002PRCP06
0171829830999992005050218004-09383-040483FM-12+037099999V0201401N003110075019N0020001N1+02641+01931101271ADDAY151061AY221061GF108991081051008001999999MA1999999097111MD1999999+0221MW1031REMSYN082AAXX  02184 82983 21595 81406 10264 20193 39711 40127 70352 885// 333 58022 60011;
0198829830999992005050300004-09383-040483FM-12+037099999V0201401N003110075019N0020001N1+02361+01951101571ADDAA106000091GF106991061021008001001001KA1240M+02721MA1999999097381MD1999999+0261REMSYN088AAXX  03004 82983 32595 61406 10236 20195 39738 40157 86200 333 10272 29076 55003 58026;EQDQ01  00002PRCP06
0162829830999992005050312004-09383-040483FM-12+037099999V0201801N003110075019N0020001N1+02401+01891101701ADDGF108991081021008001999999KA1240N+02181MA1999999097501MD1999999+0101REMSYN082AAXX  03124 82983 22595 81806 10240 20189 39750 40170 882// 333 20218 58010 60014;
0167829830999992005050318004-09383-040483FM-12+037099999V0201401N003110075019N0020001N1+02721+01931101331ADDAA106000091GF107991071021008001001001MA1999999097161MD1999999+0051REMSYN070AAXX  03184 82983 32595 71406 10272 20193 39716 40133 87200 333 58005;EQDQ01  00002PRCP06
0198829830999992005050400004-09383-040483FM-12+037099999V0209999C000012200019N0020001N1+02401+01931101561ADDAA106000091GF102991021011008001001001KA1240M+02761MA1999999097381MD1999999+0001REMSYN088AAXX  04004 82983 32595 20000 10240 20193 39738 40156 82100 333 10276 29071 55014 58000;EQDQ01  00002PRCP06
0202829830999992005050412004-09383-040483FM-12+037099999V0201801N004119999999N0020001N1+02461+01941101741ADDAA106000091GF106991999021008001001001KA1240N+02221MA1999999097551MD1999999+0051REMSYN076AAXX  04124 82983 32595 61808 10246 20194 39755 40174 88200 333 20222 58005;EQDQ01+000082SCOTLCQ02  00002PRCP06
0183829830999992005050418004-09383-040483FM-12+037099999V0201801N004119999999N0020001N1+02641+01931101391ADDAA106000091GF107991999071008001021001MA1999999097211MD1999999+0051REMSYN070AAXX  04184 82983 32595 71808 10264 20193 39721 40139 88720 333 58005;EQDQ01+000082SCOTLCQ02  00002PRCP06
0198829830999992005050500004-09383-040483FM-12+037099999V0201801N003110075019N0020001N1+02441+01901101661ADDAA106000091GF105991051021008001001001KA1240M+02881MA1999999097481MD1999999+0101REMSYN088AAXX  05004 82983 32595 51806 10244 20190 39748 40166 85200 333 10288 29070 55043 58010;EQDQ01  00002PRCP06
0186829830999992005050512004-09383-040483FM-12+037099999V0201801N003110075019N0020001N1+02461+01881101691ADDAA106000091GF107991071051008001001001KA1240N+02261MA1999999097511MD1999999-0041REMSYN076AAXX  05124 82983 32595 71806 10246 20188 39751 40169 87500 333 20226 59004;EQDQ01  00002PRCP06
0167829830999992005050518004-09383-040483FM-12+037099999V0201401N003110075019N0020001N1+02701+01911101221ADDAA106000091GF106991061021008001001001MA1999999097101MD1999999-0111REMSYN070AAXX  05184 82983 32595 61406 10270 20191 39710 40122 86200 333 59011;EQDQ01  00002PRCP06
0198829830999992005050600004-09383-040483FM-12+037099999V0201801N003110075019N0020001N1+02441+01861101551ADDAA106000091GF106991061021008001001001KA1240M+02841MA1999999097371MD1999999-0111REMSYN088AAXX  06004 82983 32595 61806 10244 20186 39737 40155 86200 333 10284 29068 55038 59011;EQDQ01  00002PRCP06
0186829830999992005050612004-09383-040483FM-12+037099999V0201401N003110075019N0020001N1+02361+01911101701ADDAA106000091GF108991081051008001999999KA1240N+02221MA1999999097521MD1999999+0011REMSYN076AAXX  06124 82983 32595 81406 10236 20191 39752 40170 885// 333 20222 58001;EQDQ01  00002PRCP06
0167829830999992005050618004-09383-040483FM-12+037099999V0201401N003110075019N0020001N1+02761+01831101221ADDAA106000091GF108991081051008001999999MA1999999097041MD1999999-0041REMSYN070AAXX  06184 82983 32595 81406 10276 20183 39704 40122 885// 333 59004;EQDQ01  00002PRCP06
0198829830999992005050700004-09383-040483FM-12+037099999V0201401N002610075019N0020001N1+02481+01921101501ADDAA106000091GF106991061061008001001001KA1240M+02841MA1999999097321MD1999999-0051REMSYN088AAXX  07004 82983 32595 61405 10248 20192 39732 40150 86600 333 10284 29068 55004 59005;EQDQ01  00002PRCP06
0186829830999992005050712004-09383-040483FM-12+037099999V0201401N003110075019N0020001N1+02381+01871101641ADDAA106000091GF108991081051008001999999KA1240N+02181MA1999999097451MD1999999-0071REMSYN076AAXX  07124 82983 32595 81406 10238 20187 39745 40164 885// 333 20218 59007;EQDQ01  00002PRCP06
0167829830999992005050718004-09383-040483FM-12+037099999V0201401N003119999999N0020001N1+02881+01831101211ADDAA106000091GF108991021021008001999999MA1999999097071MD1999999+0011REMSYN070AAXX  07184 82983 32595 81406 10288 20183 39707 40121 822// 333 58001;EQDQ01  00002PRCP06
0185829830999992005050800004-09380-040480FM-12+037099999V0201401N002612200019N0020001N1+02541+01861101501ADDAA106000091GF103991031011008001001001MA1999999097331MD1999999+0011REMSYN088AAXX  08004 82983 32595 31405 10254 20186 39733 40150 83100 333 10294 29064 55027 58001;EQDQ01  00002PRCP06
0173829830999992005050812004-09380-040480FM-12+037099999V0201401N003110075019N0020001N1+02441+01951101461ADDAA106000091GF108991081021008001999999MA1999999097301MD1999999-0151REMSYN076AAXX  08124 82983 32595 81406 10244 20195 39730 40146 882// 333 20224 59015;EQDQ01  00002PRCP06
0171829830999992005050818004-09380-040480FM-12+037099999V0200901N002610075019N0020001N1+02561+02231101181ADDAY121061AY251061GF108991081061008001999999MA1999999097021MD1999999-0051MW1501REMSYN082AAXX  08184 82983 21595 80905 10256 20223 39702 40118 75025 886// 333 59005 60011;
0202829830999992005050900004-09383-040483FM-12+037099999V0201401N003110075019N0020001N1+02281+02111101531ADDAY161061AY251061GF105991051021008001001001KA1240M+02741MA1999999097311MD1999999+0031MW1021REMSYN100AAXX  09004 82983 21595 51406 10228 20211 39731 40153 70265 85200 333 10274 29084 55042 58003 60031;
0162829830999992005050912004-09383-040483FM-12+037099999V0201401N003110075019N0020001N1+02381+01971101561ADDGF108991081051008001999999KA1240N+02221MA1999999097371MD1999999+0071REMSYN082AAXX  09124 82983 22595 81406 10238 20197 39737 40156 885// 333 20222 58007 60044;
0167829830999992005050918004-09383-040483FM-12+037099999V0201401N003110075019N0020001N1+02801+02001101191ADDAA106000091GF106991061021008001001001MA1999999097031MD1999999+0011REMSYN070AAXX  09184 82983 32595 61406 10280 20200 39703 40119 86200 333 58001;EQDQ01  00002PRCP06
0202829830999992005051000004-09383-040483FM-12+037099999V0201801N002610075019N0020001N1+02361+02131101461ADDAY101061AY231061GF106991061061008001001001KA1240M+02881MA1999999097281MD1999999-0071MW1521REMSYN100AAXX  10004 82983 21595 61805 10236 20213 39728 40146 75203 86600 333 10288 29078 55030 59007 69961;
0162829830999992005051012004-09383-040483FM-12+037099999V0201401N002610075019N0020001N1+02441+02011101551ADDGF108991081051008001999999KA1240N+02181MA1999999097371MD1999999+0001REMSYN082AAXX  10124 82983 22595 81405 10244 20201 39737 40155 885// 333 20218 58000 69964;
0167829830999992005051018004-09383-040483FM-12+037099999V0201401N003110075019N0020001N1+02901+01991101081ADDAA106000091GF106991051011008001001011MA1999999096931MD1999999-0101REMSYN070AAXX  10184 82983 32595 61406 10290 20199 39693 40108 85101 333 59010;EQDQ01  00002PRCP06
0202829830999992005051100004-09383-040483FM-12+037099999V0201801N002610075019N0020001N1+02381+02151101441ADDAY151061AY261061GF106991051011008001011001KA1240M+03021MA1999999097261MD1999999-0021MW1031REMSYN100AAXX  11004 82983 21595 61805 10238 20215 39726 40144 70356 85110 333 10302 29077 55056 59002 60021;
0190829830999992005051112004-09383-040483FM-12+037099999V0201401N004110075019N0020001N1+02381+02071101581ADDAY151061AY261061GF108991081051008001999999KA1240N+02181MA1999999097401MD1999999+0031MW1501REMSYN088AAXX  11124 82983 21595 81408 10238 20207 39740 40158 75056 885// 333 20218 58003 60044;
0148829830999992005051118004-09383-040483FM-12+037099999V0201401N004110075019N0020001N1+02981+01691101121ADDAA106000021GF105991051011008001001001MA1999999096981MD1999999-0051REMSYN070AAXX  11184 82983 32595 51408 10298 20169 39698 40112 85100 333 59005;
0208829830999992005051200004-09383-040483FM-12+037099999V0201801N001512200019N0020001N1+02421+01721101411ADDAA106000091GA1001+999999999GF100991001001999999001001KA1240M+03041MA1999999097231MD1999999-0031REMSYN082AAXX  12004 82983 32995 01803 10242 20172 39723 40141 333 10304 29065 55071 59003;EQDQ01  00002PRCP06
0186829830999992005051212004-09383-040483FM-12+037099999V0201401N004110075019N0020001N1+02441+01951101511ADDAA106000091GF108991081051008001999999KA1240N+02161MA1999999097341MD1999999-0061REMSYN076AAXX  12124 82983 32595 81408 10244 20195 39734 40151 885// 333 20216 59006;EQDQ01  00002PRCP06
0167829830999992005051218004-09383-040483FM-12+037099999V0201401N003110075019N0020001N1+02981+01861101121ADDAA106000091GF107991071021008001001001MA1999999096981MD1999999+0001REMSYN070AAXX  12184 82983 32595 71406 10298 20186 39698 40112 87200 333 58000;EQDQ01  00002PRCP06
0198829830999992005051300004-09383-040483FM-12+037099999V0201401N001512200019N0020001N1+02521+01891101321ADDAA106000091GF102991021011008001001001KA1240M+03081MA1999999097161MD1999999-0071REMSYN088AAXX  13004 82983 32595 21403 10252 20189 39716 40132 82100 333 10308 29065 55072 59007;EQDQ01  00002PRCP06
0186829830999992005051312004-09383-040483FM-12+037099999V0201401N003110075019N0020001N1+02441+01861101491ADDAA106000091GF106991061021008001001001KA1240N+02201MA1999999097331MD1999999-0011REMSYN076AAXX  13124 82983 32595 61406 10244 20186 39733 40149 86200 333 20220 59001;EQDQ01  00002PRCP06
0167829830999992005051318004-09383-040483FM-12+037099999V0201401N004110450019N0020001N1+02941+01911101061ADDAA106000091GF106991031011008001011021MA1999999096921MD1999999-0061REMSYN070AAXX  13184 82983 32595 61408 10294 20191 39692 40106 83112 333 59006;EQDQ01  00002PRCP06
0208829830999992005051400004-09383-040483FM-12+037099999V0201401N002612200019N0020001N1+02461+01881101251ADDAA106000091GA1001+999999999GF100991001001999999001001KA1240M+03001MA1999999097091MD1999999-0071REMSYN082AAXX  14004 82983 32995 01405 10246 20188 39709 40125 333 10300 29066 55061 59007;EQDQ01  00002PRCP06
0190829830999992005051412004-09383-040483FM-12+037099999V0201401N004110075019N0020001N1+02481+01921101381ADDAY151061AY221061GF106991061011008001001001KA1240N+02181MA1999999097211MD1999999-0121MW1031REMSYN088AAXX  14124 82983 21595 61408 10248 20192 39721 40138 70352 86100 333 20218 59012 69944;
0167829830999992005051418004-09383-040483FM-12+037099999V0201401N004110075019N0020001N1+03061+01701100941ADDAA106000091GF105991051011008001001001MA1999999096821MD1999999-0101REMSYN070AAXX  14184 82983 32595 51408 10306 20170 39682 40094 85100 333 59010;EQDQ01  00002PRCP06
0185829830999992005051500004-09380-040480FM-12+037099999V0201401N004112200019N0020001N1+02601+01821101201ADDAA106000091GF102991021011008001001001MA1999999097061MD1999999-0031REMSYN088AAXX  15004 82983 32595 21408 10260 20182 39706 40120 82100 333 10312 29060 55083 59003;EQDQ01  00002PRCP06
0173829830999992005051512004-09380-040480FM-12+037099999V0201401N004110075019N0020001N1+02441+01901101241ADDAA106000091GF108991081021008001999999MA1999999097181MD1999999-0031REMSYN076AAXX  15124 82983 32595 81408 10244 20190 39718 40124 882// 333 20218 59003;EQDQ01  00002PRCP06
0183829830999992005051518004-09380-040480FM-12+037099999V0201401N003119999999N0020001N1+02861+01901100971ADDAA106000091GF108991999021008001001001MA1999999999999MD1999999+0001REMSYN070AAXX  15184 82983 32595 81406 10286 20190 39382 40097 83200 333 58000;EQDQ01  00002PRCP06Q02 093823APOSP 
0198829830999992005051600004-09383-040483FM-12+037099999V0201401N002610075019N0020001N1+02581+01901101251ADDAA106000091GF106991061021008001001001KA1240M+02981MA1999999097101MD1999999+0041REMSYN088AAXX  16004 82983 32595 61405 10258 20190 39710 40125 86200 333 10298 29065 55042 58004;EQDQ01  00002PRCP06
0186829830999992005051612004-09383-040483FM-12+037099999V0201401N004110075019N0020001N1+02541+01911101361ADDAA106000091GF106991061011008001001001KA1240N+02201MA1999999097201MD1999999+0021REMSYN076AAXX  16124 82983 32595 61408 10254 20191 39720 40136 86100 333 20220 58002;EQDQ01  00002PRCP06
0167829830999992005051618004-09383-040483FM-12+037099999V0201401N003110075019N0020001N1+02941+01881100921ADDAA106000091GF106991061011008001001001MA1999999096781MD1999999-0041REMSYN070AAXX  16184 82983 32595 61406 10294 20188 39678 40092 86100 333 59004;EQDQ01  00002PRCP06
0198829830999992005051700004-09383-040483FM-12+037099999V0201401N002612200019N0020001N1+02541+02021101161ADDAA106000091GF102991021011008001001001KA1240M+03001MA1999999097021MD1999999-0081REMSYN088AAXX  17004 82983 32595 21405 10254 20202 39702 40116 82100 333 10300 29066 55079 59008;EQDQ01  00002PRCP06
0186829830999992005051712004-09383-040483FM-12+037099999V0201401N004112200019N0020001N1+02581+01971101271ADDAA106000091GF105991031011008001001011KA1240N+02301MA1999999097131MD1999999-0071REMSYN076AAXX  17124 82983 32595 51408 10258 20197 39713 40127 83101 333 20230 59007;EQDQ01  00002PRCP06
0167829830999992005051718004-09383-040483FM-12+037099999V0201401N003110075019N0020001N1+02961+01961100821ADDAA106000091GF106991061011008001001001MA1999999096701MD1999999-0081REMSYN070AAXX  17184 82983 32595 61406 10296 20196 39670 40082 86100 333 59008;EQDQ01  00002PRCP06
0198829830999992005051800004-09383-040483FM-12+037099999V0201401N003110075019N0020001N1+02561+02041101091ADDAA106000091GF106991061011008001001001KA1240M+03041MA1999999096951MD1999999-0071REMSYN088AAXX  18004 82983 32595 61406 10256 20204 39695 40109 86100 333 10304 29068 55048 59007;EQDQ01  00002PRCP06
0186829830999992005051812004-09383-040483FM-12+037099999V0201401N003112200019N0020001N1+02621+01811101271ADDAA106000091GF104991041011008001001001KA1240N+02201MA1999999097131MD1999999+0001REMSYN076AAXX  18124 82983 32595 41406 10262 20181 39713 40127 84100 333 20220 58000;EQDQ01  00002PRCP06
0167829830999992005051818004-09383-040483FM-12+037099999V0201401N004112200019N0020001N1+02981+01661100811ADDAA106000091GF104991041011008001001001MA1999999096691MD1999999-0011REMSYN070AAXX  18184 82983 32595 41408 10298 20166 39669 40081 84100 333 59001;EQDQ01  00002PRCP06
0208829830999992005051900004-09383-040483FM-12+037099999V0201401N003112200019N0020001N1+02541+01981101021ADDAA106000091GA1001+999999999GF100991001001999999001001KA1240M+03081MA1999999096891MD1999999-0061REMSYN082AAXX  19004 82983 32995 01406 10254 20198 39689 40102 333 10308 29062 55089 59006;EQDQ01  00002PRCP06
0202829830999992005051912004-09383-040483FM-12+037099999V0201401N004112200019N0020001N1+02441+01591101271ADDAA106000091GF103991001001999999001011KA1240N+02101MA1999999097121MD1999999-0011REMSYN076AAXX  19124 82983 32595 31408 10244 20159 39712 40127 80001 333 20210 59001;EQDQ01+008002SCOLCBQ02  00002PRCP06
0183829830999992005051918004-09383-040483FM-12+037099999V0200901N001512200019N0020001N1+03021+01211100821ADDAA106000091GF102991999001008001011001MA1999999096701MD1999999+0011REMSYN070AAXX  19184 82983 32595 20903 10302 20121 39670 40082 80010 333 58001;EQDQ01+000002SCOTLCQ02  00002PRCP06
0198829830999992005052000004-09383-040483FM-12+037099999V0201801N003112200019N0020001N1+02501+01561101161ADDAA106000091GF102991021011008001001001KA1240M+03101MA1999999097001MD1999999+0111REMSYN088AAXX  20004 82983 32595 21806 10250 20156 39700 40116 82100 333 10310 29051 55103 58011;EQDQ01  00002PRCP06
0202829830999992005052012004-09383-040483FM-12+037099999V0201401N003112200019N0020001N1+02481+01831101401ADDAA106000091GF103991999001008001011011KA1240N+02101MA1999999097241MD1999999+0121REMSYN076AAXX  20124 82983 32595 31406 10248 20183 39724 40140 80011 333 20210 58012;EQDQ01+000002SCOTLCQ02  00002PRCP06
0167829830999992005052018004-09383-040483FM-12+037099999V0200901N001510075019N0020001N1+03141+01691100831ADDAA106000091GF105991051011008001001001MA1999999096711MD1999999+0011REMSYN070AAXX  20184 82983 32595 50903 10314 20169 39671 40083 85100 333 58001;EQDQ01  00002PRCP06
0198829830999992005052100004-09383-040483FM-12+037099999V0201401N002612200019N0020001N1+02721+01791101141ADDAA106000091GF104991041011008001001001KA1240M+03241MA1999999097001MD1999999+0001REMSYN088AAXX  21004 82983 32595 41405 10272 20179 39700 40114 84100 333 10324 29056 55105 58000;EQDQ01  00002PRCP06
0186829830999992005052112004-09383-040483FM-12+037099999V0201401N003112200019N0020001N1+02581+02041101381ADDAA106000091GF103991011011008001001011KA1240N+02241MA1999999097241MD1999999+0001REMSYN076AAXX  21124 82983 32595 31406 10258 20204 39724 40138 81101 333 20224 58000;EQDQ01  00002PRCP06
0167829830999992005052118004-09383-040483FM-12+037099999V0201401N001512200019N0020001N1+03281+01761100861ADDAA106000091GF103991021011008001001011MA1999999096771MD1999999+0061REMSYN070AAXX  21184 82983 32595 31403 10328 20176 39677 40086 82101 333 58006;EQDQ01  00002PRCP06
0185829830999992005052200004-09380-040480FM-12+037099999V0201401N003112200019N0020001N1+02721+01931101141ADDAA106000091GF103991011011008001001011MA1999999097001MD1999999+0001REMSYN088AAXX  22004 82983 32595 31406 10272 20193 39700 40114 81101 333 10334 29059 55098 58000;EQDQ01  00002PRCP06
0173829830999992005052212004-09380-040480FM-12+037099999V0201401N002610450019N0020001N1+02701+01991101341ADDAA106000091GF106991041011008001011001MA1999999097201MD1999999-0041REMSYN076AAXX  22124 82983 32595 61405 10270 20199 39720 40134 84110 333 20240 59004;EQDQ01  00002PRCP06
0167829830999992005052218004-09380-040480FM-12+037099999V0200901N001512200019N0020001N1+03241+01781100781ADDAA106000091GF105991031011008001001011MA1999999096701MD1999999-0071REMSYN070AAXX  22184 82983 32595 50903 10324 20178 39670 40078 83101 333 59007;EQDQ01  00002PRCP06
0185829830999992005052300004-09380-040480FM-12+037099999V0201401N001510075019N0020001N1+02841+01931101111ADDAA106000091GF106991061011008001001001MA1999999096991MD1999999-0011REMSYN088AAXX  23004 82983 32595 61403 10284 20193 39699 40111 86100 333 10334 29056 55089 59001;EQDQ01  00002PRCP06
0173829830999992005052312004-09380-040480FM-12+037099999V0200901N003110075019N0020001N1+02761+02141101231ADDAA106000091GF106991061011008001001001MA1999999097131MD1999999-0071REMSYN076AAXX  23124 82983 32595 60906 10276 20214 39713 40123 86100 333 20242 59007;EQDQ01  00002PRCP06
0167829830999992005052318004-09380-040480FM-12+037099999V0200901N002610450019N0020001N1+03221+01801100761ADDAA106000091GF106991031011008001011011MA1999999096681MD1999999-0021REMSYN070AAXX  23184 82983 32595 60905 10322 20180 39668 40076 83111 333 59002;EQDQ01  00002PRCP06
0198829830999992005052400004-09383-040483FM-12+037099999V0200501N003110075019N0020001N1+02661+02071101111ADDAA106000091GF106991061011008001001001KA1240M+03301MA1999999096981MD1999999-0011REMSYN088AAXX  24004 82983 32595 60506 10266 20207 39698 40111 86100 333 10330 29063 55098 59001;EQDQ01  00002PRCP06
0190829830999992005052412004-09383-040483FM-12+037099999V0200501N002610450019N0020001N1+02721+02031101341ADDAY121061AY251061GF106991021011008001011021KA1240N+02401MA1999999097201MD1999999+0071MW1011REMSYN088AAXX  24124 82983 21595 60505 10272 20203 39720 40134 70125 82112 333 20240 58007 69944;
0167829830999992005052418004-09383-040483FM-12+037099999V0200901N002610450019N0020001N1+03281+01861100851ADDAA106000091GF106991041011008001021001MA1999999096761MD1999999+0081REMSYN070AAXX  24184 82983 32595 60905 10328 20186 39676 40085 84120 333 58008;EQDQ01  00002PRCP06
0198829830999992005052500004-09383-040483FM-12+037099999V0200901N001512200019N0020001N1+02881+01801101111ADDAA106000091GF103991031011008001001001KA1240M+03301MA1999999097011MD1999999+0021REMSYN088AAXX  25004 82983 32595 30903 10288 20180 39701 40111 83100 333 10330 29053 55087 58002;EQDQ01  00002PRCP06
0186829830999992005052512004-09383-040483FM-12+037099999V0200901N003112200019N0020001N1+02701+01991101401ADDAA106000091GF104991031011008001001011KA1240N+02341MA1999999097291MD1999999+0091REMSYN076AAXX  25124 82983 32595 40906 10270 20199 39729 40140 83101 333 20234 58009;EQDQ01  00002PRCP06
0167829830999992005052518004-09383-040483FM-12+037099999V0200501N002610075019N0020001N1+03261+01841100981ADDAA106000091GF105991051011008001001001MA1999999096891MD1999999+0131REMSYN070AAXX  25184 82983 32595 50505 10326 20184 39689 40098 85100 333 58013;EQDQ01  00002PRCP06
0198829830999992005052600004-09383-040483FM-12+037099999V0200901N002612200019N0020001N1+02841+01821101211ADDAA106000091GF104991041011008001001001KA1240M+03361MA1999999097091MD1999999+0081REMSYN088AAXX  26004 82983 32595 40905 10284 20182 39709 40121 84100 333 10336 29054 55103 58008;EQDQ01  00002PRCP06
0186829830999992005052612004-09383-040483FM-12+037099999V0200901N003112200019N0020001N1+02741+02051101571ADDAA106000091GF105991031011008001001011KA1240N+02441MA1999999097451MD1999999+0161REMSYN076AAXX  26124 82983 32595 50906 10274 20205 39745 40157 83101 333 20244 58016;EQDQ01  00002PRCP06
0167829830999992005052618004-09383-040483FM-12+037099999V0200901N002612200019N0020001N1+03341+01751101121ADDAA106000091GF104991031011008001001011MA1999999097021MD1999999+0131REMSYN070AAXX  26184 82983 32595 40905 10334 20175 39702 40112 83101 333 58013;EQDQ01  00002PRCP06
0208829830999992005052700004-09383-040483FM-12+037099999V0201401N001512200019N0020001N1+02861+01901101361ADDAA106000091GA1001+999999999GF100991001001999999001001KA1240M+03401MA1999999097251MD1999999+0161REMSYN082AAXX  27004 82983 32995 01403 10286 20190 39725 40136 333 10340 29054 55100 58016;EQDQ01  00002PRCP06
0186829830999992005052712004-09383-040483FM-12+037099999V0201401N003110075019N0020001N1+02621+02011101631ADDAA106000091GF106991061011008001001001KA1240N+02381MA1999999097501MD1999999+0051REMSYN076AAXX  27124 82983 32595 61406 10262 20201 39750 40163 86100 333 20238 58005;EQDQ01  00002PRCP06
0167829830999992005052718004-09383-040483FM-12+037099999V0201401N004112200019N0020001N1+03201+01711101201ADDAA106000091GF104991041011008001001001MA1999999097101MD1999999+0081REMSYN070AAXX  27184 82983 32595 41408 10320 20171 39710 40120 84100 333 58008;EQDQ01  00002PRCP06
0198829830999992005052800004-09383-040483FM-12+037099999V0201401N003112200019N0020001N1+02661+01851101521ADDAA106000091GF102991021011008001001001KA1240M+03261MA1999999097401MD1999999+0151REMSYN088AAXX  28004 82983 32595 21406 10266 20185 39740 40152 82100 333 10326 29058 55086 58015;EQDQ01  00002PRCP06
0202829830999992005052812004-09383-040483FM-12+037099999V0201801N004112200019N0020001N1+02481+01851101631ADDAA106000091GF102991999021008001999999KA1240N+02181MA1999999097461MD1999999-0041REMSYN076AAXX  28124 82983 32595 21808 10248 20185 39746 40163 882// 333 20218 59004;EQDQ01+000082SCOTLCQ02  00002PRCP06
0167829830999992005052818004-09383-040483FM-12+037099999V0201801N004112200019N0020001N1+02981+01921101241ADDAA106000091GF103991031011008001001001MA1999999097101MD1999999+0001REMSYN070AAXX  28184 82983 32595 31808 10298 20192 39710 40124 83100 333 58000;EQDQ01  00002PRCP06
0179829830999992005052900004-09380-040480FM-12+037099999V0201801N003112200019N0020001N1+02561+01641101391ADDAA106000091GF100991001001999999001001MA1999999097231MD1999999-0171REMSYN082AAXX  29004 82983 32995 01806 10256 20164 39723 40139 333 10308 29059 55076 59017;EQDQ01  00002PRCP06
0173829830999992005052912004-09380-040480FM-12+037099999V0201401N003110075019N0020001N1+02481+01801101611ADDAA106000091GF106991061011008001001001MA1999999097441MD1999999-0021REMSYN076AAXX  29124 82983 32595 61406 10248 20180 39744 40161 86100 333 20212 59002;EQDQ01  00002PRCP06
0167829830999992005052918004-09380-040480FM-12+037099999V0201401N004112200019N0020001N1+03041+01451101131ADDAA106000091GF104991041011008001001001MA1999999096991MD1999999-0111REMSYN070AAXX  29184 82983 32595 41408 10304 20145 39699 40113 84100 333 59011;EQDQ01  00002PRCP06
0208829830999992005053000004-09383-040483FM-12+037099999V0201401N005112200019N0020001N1+02561+01751101461ADDAA106000091GA1001+999999999GF100991001001999999001001KA1240M+03141MA1999999097301MD1999999+0071REMSYN082AAXX  30004 82983 32995 01410 10256 20175 39730 40146 333 10314 29056 55103 58007;EQDQ01  00002PRCP06
0186829830999992005053012004-09383-040483FM-12+037099999V0201401N004112200019N0020001N1+02541+01761101651ADDAA106000091GF104991041011008001001001KA1240N+02141MA1999999097481MD1999999+0041REMSYN076AAXX  30124 82983 32595 41408 10254 20176 39748 40165 84100 333 20214 58004;EQDQ01  00002PRCP06
0167829830999992005053018004-09383-040483FM-12+037099999V0201401N004110075019N0020001N1+02841+01671101321ADDAA106000091GF108991081051008001999999MA1999999097151MD1999999+0161REMSYN070AAXX  30184 82983 32595 81408 10284 20167 39715 40132 885// 333 58016;EQDQ01  00002PRCP06
0208829830999992005053100004-09383-040483FM-12+037099999V0201401N002612200019N0020001N1+02541+01681101481ADDAA106000091GA1001+999999999GF100991001001999999001001KA1240M+02961MA1999999097321MD1999999+0021REMSYN082AAXX  31004 82983 32995 01405 10254 20168 39732 40148 333 10296 29057 55041 58002;EQDQ01  00002PRCP06
0186829830999992005053112004-09383-040483FM-12+037099999V0201801N004110075019N0020001N1+02461+01711101631ADDAA106000091GF106991061011008001001001KA1240N+02181MA1999999097461MD1999999-0021REMSYN076AAXX  31124 82983 32595 61808 10246 20171 39746 40163 86100 333 20218 59002;EQDQ01  00002PRCP06
0167829830999992005053118004-09383-040483FM-12+037099999V0201401N003110075019N0020001N1+02881+01831101251ADDAA106000091GF106991061011008001001001MA1999999097101MD1999999-0051REMSYN070AAXX  31184 82983 32595 61406 10288 20183 39710 40125 86100 333 59005;EQDQ01  00002PRCP06
0202829830999992005060100004-09383-040483FM-12+037099999V0201401N002610075019N0020001N1+02361+02131101541ADDAY121061AY251061GF108991081061008001999999KA1240M+02961MA1999999097361MD1999999+0041MW1501REMSYN100AAXX  01004 82983 21595 81405 10236 20213 39736 40154 75025 886// 333 10296 29072 55065 58004 60011;
0190829830999992005060112004-09383-040483FM-12+037099999V0201801N004110075019N0020001N1+02421+01911101661ADDAY151061AY221061GF105991051011008001001001KA1240N+02221MA1999999097481MD1999999+0021MW1021REMSYN088AAXX  01124 82983 21595 51808 10242 20191 39748 40166 70252 85100 333 20222 58002 60024;
0167829830999992005060118004-09383-040483FM-12+037099999V0201401N004110450019N0020001N1+03061+01701101141ADDAA106000091GF106991031011008001011001MA1999999097001MD1999999-0101REMSYN070AAXX  01184 82983 32595 61408 10306 20170 39700 40114 83110 333 59010;EQDQ01  00002PRCP06
0186829830999992005060212004-09383-040483FM-12+037099999V0201401N004110075019N0020001N1+02441+01691101641ADDAA106000091GF105991051011008001001001KA1240N+02141MA1999999097471MD1999999-0011REMSYN076AAXX  02124 82983 32595 51408 10244 20169 39747 40164 85100 333 20214 59001;EQDQ01  00002PRCP06
0167829830999992005060218004-09383-040483FM-12+037099999V0201401N004112200019N0020001N1+02981+01401101171ADDAA106000091GF103991021011008001001011MA1999999097031MD1999999+0031REMSYN070AAXX  02184 82983 32595 31408 10298 20140 39703 40117 82101 333 58003;EQDQ01  00002PRCP06
0208829830999992005060300004-09383-040483FM-12+037099999V0201401N003112200019N0020001N1+02541+01651101451ADDAA106000091GA1001+999999999GF100991001001999999001001KA1240M+03081MA1999999097291MD1999999+0061REMSYN082AAXX  03004 82983 32995 01406 10254 20165 39729 40145 333 10308 29054 55091 58006;EQDQ01  00002PRCP06
0186829830999992005060312004-09383-040483FM-12+037099999V0201401N004110075019N0020001N1+02401+01731101561ADDAA106000091GF105991051011008001001001KA1240N+02021MA1999999097381MD1999999-0091REMSYN076AAXX  03124 82983 32595 51408 10240 20173 39738 40156 85100 333 20202 59009;EQDQ01  00002PRCP06
0167829830999992005060318004-09383-040483FM-12+037099999V0201401N004112200019N0020001N1+02941+01551101231ADDAA106000091GF105991031011008001001011MA1999999097071MD1999999+0041REMSYN070AAXX  03184 82983 32595 51408 10294 20155 39707 40123 83101 333 58004;EQDQ01  00002PRCP06
0208829830999992005060400004-09383-040483FM-12+037099999V0201401N003112200019N0020001N1+02481+01821101531ADDAA106000091GA1001+999999999GF100991001001999999001001KA1240M+03061MA1999999097351MD1999999+0061REMSYN082AAXX  04004 82983 32995 01406 10248 20182 39735 40153 333 10306 29054 55096 58006;EQDQ01  00002PRCP06
0173829830999992005060412004-09380-040480FM-12+037099999V0201401N004110075019N0020001N1+02421+01841101641ADDAA106000091GF106991061011008001001001MA1999999097461MD1999999+0081REMSYN076AAXX  04124 82983 32595 61408 10242 20184 39746 40164 86100 333 20210 58008;EQDQ01  00002PRCP06
0167829830999992005060418004-09380-040480FM-12+037099999V0200901N003110075019N0020001N1+02901+01781101231ADDAA106000091GF106991061011008001001001MA1999999097081MD1999999+0011REMSYN070AAXX  04184 82983 32595 60906 10290 20178 39708 40123 86100 333 58001;EQDQ01  00002PRCP06
0185829830999992005060500004-09380-040480FM-12+037099999V0201401N003110075019N0020001N1+02401+01991101531ADDAA106000091GF106991061011008001001001MA1999999097351MD1999999+0001REMSYN088AAXX  05004 82983 32595 61406 10240 20199 39735 40153 86100 333 10298 29069 55058 58000;EQDQ01  00002PRCP06
0207829830999992005060512004-09383-040483FM-12+037099999V0201401N005110075019N0020001N1+02401+01631101671ADDAA124001091AY121061AY251061GF105991051011008001001001KA1240N+02081MA1999999097491MD1999999+0031MW1021REMSYN094AAXX  05124 82983 21595 51410 10240 20163 39749 40167 70225 85100 333 20208 58003 60014 10010;
0167829830999992005060518004-09383-040483FM-12+037099999V0201401N003112200019N0020001N1+03001+01611101251ADDAA106000091GF104991041011008001001001MA1999999097101MD1999999+0021REMSYN070AAXX  05184 82983 32595 41406 10300 20161 39710 40125 84100 333 58002;EQDQ01  00002PRCP06
0198829830999992005060600004-09383-040483FM-12+037099999V0201701N004110075019N0020001N1+02501+01871101521ADDAA106000091GF106991061021008001001001KA1240M+03041MA1999999097351MD1999999+0001REMSYN088AAXX  06004 82983 32595 61708 10250 20187 39735 40152 86200 333 10304 29060 55096 58000;EQDQ01  00002PRCP06
0186829830999992005060612004-09383-040483FM-12+037099999V0201401N004110075019N0020001N1+02421+01671101531ADDAA106000091GF105991051011008001001001KA1240N+02061MA1999999097351MD1999999-0141REMSYN076AAXX  06124 82983 32595 51408 10242 20167 39735 40153 85100 333 20206 59014;EQDQ01  00002PRCP06
0138829830999992005060618004-09383-040483FM-12+037099999V0201401N004119999999N0020001N1+02921+01671999999ADDAA106000091GF106991999999008001999999REMSYN070AAXX  06184 82983 32595 61408 10292 20167 20116 39701 86100 333 59009;EQDQ01  00002PRCP06
0208829830999992005060700004-09383-040483FM-12+037099999V0201401N003112200019N0020001N1+02441+01811101381ADDAA106000091GA1001+999999999GF100991001001999999001001KA1240M+03001MA1999999097211MD1999999-0141REMSYN082AAXX  07004 82983 32995 01406 10244 20181 39721 40138 333 10300 29062 55087 59014;EQDQ01  00002PRCP06
0186829830999992005060712004-09383-040483FM-12+037099999V0201401N003110075019N0020001N1+02401+01801101481ADDAA106000091GF106991061011008001001001KA1240N+02161MA1999999097301MD1999999-0051REMSYN076AAXX  07124 82983 32595 61406 10240 20180 39730 40148 86100 333 20216 59005;EQDQ01  00002PRCP06
0167829830999992005060718004-09383-040483FM-12+037099999V0201401N004110075019N0020001N1+02861+01841101111ADDAA106000091GF106991061011008001001001MA1999999096961MD1999999-0051REMSYN070AAXX  07184 82983 32595 61408 10286 20184 39696 40111 86100 333 59005;EQDQ01  00002PRCP06
0198829830999992005060800004-09383-040483FM-12+037099999V0201801N003110075019N0020001N1+02361+01891101431ADDAA106000091GF106991061011008001001001KA1240M+03001MA1999999097251MD1999999+0041REMSYN088AAXX  08004 82983 32595 61806 10236 20189 39725 40143 86100 333 10300 29068 55058 58004;EQDQ01  00002PRCP06
0186829830999992005060812004-09383-040483FM-12+037099999V0201401N003110075019N0020001N1+02361+01661101731ADDAA106000091GF106991061011008001001001KA1240N+02141MA1999999097541MD1999999+0241REMSYN076AAXX  08124 82983 32595 61406 10236 20166 39754 40173 86100 333 20214 58024;EQDQ01  00002PRCP06
0167829830999992005060818004-09383-040483FM-12+037099999V0201401N004112200019N0020001N1+02981+01591101271ADDAA106000091GF104991021011008001011001MA1999999097121MD1999999+0161REMSYN070AAXX  08184 82983 32595 41408 10298 20159 39712 40127 82110 333 58016;EQDQ01  00002PRCP06
0198829830999992005060900004-09383-040483FM-12+037099999V0201801N003112200019N0020001N1+02401+01861101551ADDAA106000091GF103991031011008001001001KA1240M+03021MA1999999097371MD1999999+0121REMSYN088AAXX  09004 82983 32595 31806 10240 20186 39737 40155 83100 333 10302 29063 55098 58012;EQDQ01  00002PRCP06
0190829830999992005060912004-09383-040483FM-12+037099999V0201401N005112200019N0020001N1+02361+01561101801ADDAY121061AY251061GF103991011011008001001011KA1240N+02081MA1999999097611MD1999999+0071MW1011REMSYN088AAXX  09124 82983 21595 31410 10236 20156 39761 40180 70125 81101 333 20208 58007 69984;
0167829830999992005060918004-09383-040483FM-12+037099999V0201401N003112200019N0020001N1+02901+01361101421ADDAA106000091GF104991021011008001011001MA1999999097251MD1999999+0121REMSYN070AAXX  09184 82983 32595 41406 10290 20136 39725 40142 82110 333 58012;EQDQ01  00002PRCP06
0208829830999992005061000004-09383-040483FM-12+037099999V0201401N003112200019N0020001N1+02441+01661101651ADDAA106000091GA1001+999999999GF100991001001999999001001KA1240M+02981MA1999999097471MD1999999+0101REMSYN082AAXX  10004 82983 32995 01406 10244 20166 39747 40165 333 10298 29056 55105 58010;EQDQ01  00002PRCP06
0186829830999992005061012004-09383-040483FM-12+037099999V0201401N004112200019N0020001N1+02401+01701101731ADDAA106000091GF102991021011008001001001KA1240N+02001MA1999999097541MD1999999-0071REMSYN076AAXX  10124 82983 32595 21408 10240 20170 39754 40173 82100 333 20200 59007;EQDQ01  00002PRCP06
0167829830999992005061018004-09383-040483FM-12+037099999V0201401N004112200019N0020001N1+02981+01591101231ADDAA106000091GF103991031011008001001001MA1999999097081MD1999999-0171REMSYN070AAXX  10184 82983 32595 31408 10298 20159 39708 40123 83100 333 59017;EQDQ01  00002PRCP06
0198829830999992005061100004-09383-040483FM-12+037099999V0201801N003110075019N0020001N1+02441+01691101571ADDAA106000091GF106991061051008001001001KA1240M+03001MA1999999097391MD1999999-0081REMSYN088AAXX  11004 82983 32595 61806 10244 20169 39739 40157 86500 333 10300 29058 55106 59008;EQDQ01  00002PRCP06
0186829830999992005061112004-09383-040483FM-12+037099999V0201401N004112200019N0020001N1+02421+01671101641ADDAA106000091GF102991021011008001001001KA1240N+02041MA1999999097461MD1999999-0081REMSYN076AAXX  11124 82983 32595 21408 10242 20167 39746 40164 82100 333 20204 59008;EQDQ01  00002PRCP06
0167829830999992005061118004-09383-040483FM-12+037099999V0201401N004110075019N0020001N1+03021+01621101201ADDAA106000091GF105991051011008001001001MA1999999097051MD1999999-0031REMSYN070AAXX  11184 82983 32595 51408 10302 20162 39705 40120 85100 333 59003;EQDQ01  00002PRCP06
0198829830999992005061200004-09383-040483FM-12+037099999V0201801N003112200019N0020001N1+02541+01861101471ADDAA106000091GF102991021011008001001001KA1240M+03061MA1999999097311MD1999999-0081REMSYN088AAXX  12004 82983 32595 21806 10254 20186 39731 40147 82100 333 10306 29060 55106 59008;EQDQ01  00002PRCP06
0173829830999992005061212004-09380-040480FM-12+037099999V0201401N003110075019N0020001N1+02421+01881101641ADDAA106000091GF108991081021008001999999MA1999999097471MD1999999+0011REMSYN076AAXX  12124 82983 32595 81406 10242 20188 39747 40164 882// 333 20222 58001;EQDQ01  00002PRCP06
0167829830999992005061218004-09380-040480FM-12+037099999V0201401N004110075019N0020001N1+02801+02001101181ADDAA106000091GF105991051021008001001001MA1999999097041MD1999999-0011REMSYN070AAXX  12184 82983 32595 51408 10280 20200 39704 40118 85200 333 59001;EQDQ01  00002PRCP06
0202829830999992005061300004-09383-040483FM-12+037099999V0201401N003110075019N0020001N1+02181+01861101531ADDAY151061AY261061GF108991081061008001999999KA1240M+03001MA1999999097341MD1999999+0031MW1031REMSYN100AAXX  13004 82983 21595 81406 10218 20186 39734 40153 70356 886// 333 10300 29074 55078 58003 60071;
0162829830999992005061312004-09383-040483FM-12+037099999V0201401N004110075019N0020001N1+02341+01641101651ADDGF106991061021008001001001KA1240N+02081MA1999999097451MD1999999-0021REMSYN082AAXX  13124 82983 22595 61408 10234 20164 39745 40165 86200 333 20208 59002 60074;
0167829830999992005061318004-09383-040483FM-12+037099999V0201401N003110075019N0020001N1+02781+01761101301ADDAA106000091GF106991061021008001001001MA1999999097141MD1999999+0101REMSYN070AAXX  13184 82983 32595 61406 10278 20176 39714 40130 86200 333 58010;EQDQ01  00002PRCP06
0208829830999992005061400004-09383-040483FM-12+037099999V0201401N002612200019N0020001N1+02401+01771101481ADDAA106000091GA1001+999999999GF100991001001999999001001KA1240M+02881MA1999999097301MD1999999-0041REMSYN082AAXX  14004 82983 32995 01405 10240 20177 39730 40148 333 10288 29064 55059 59004;EQDQ01  00002PRCP06
0186829830999992005061412004-09383-040483FM-12+037099999V0201401N003110075019N0020001N1+02441+01831101661ADDAA106000091GF106991061021008001001001KA1240N+02141MA1999999097481MD1999999+0031REMSYN076AAXX  14124 82983 32595 61406 10244 20183 39748 40166 86200 333 20214 58003;EQDQ01  00002PRCP06
0167829830999992005061418004-09383-040483FM-12+037099999V0201401N003110075019N0020001N1+02941+01851101231ADDAA106000091GF106991061011008001001001MA1999999097091MD1999999-0091REMSYN070AAXX  14184 82983 32595 61406 10294 20185 39709 40123 86100 333 59009;EQDQ01  00002PRCP06
0202829830999992005061500004-09383-040483FM-12+037099999V0201401N003110075019N0020001N1+02281+02091101701ADDAY151061AY221061GF108991081061008001999999KA1240M+03001MA1999999097511MD1999999+0211MW1501REMSYN100AAXX  15004 82983 21595 81406 10228 20209 39751 40170 75052 886// 333 10300 29075 55048 58021 60021;
0190829830999992005061512004-09383-040483FM-12+037099999V0201401N003110450019N0020001N1+02301+01981101781ADDAY151061AY261061GF106991041011008001021001KA1240N+02121MA1999999097571MD1999999+0091MW1011REMSYN088AAXX  15124 82983 21595 61406 10230 20198 39757 40178 70156 84120 333 20212 58009 60074;
0167829830999992005061518004-09383-040483FM-12+037099999V0201401N003110075019N0020001N1+02761+01971101381ADDAA106000091GF106991061011008001001001MA1999999097181MD1999999+0091REMSYN070AAXX  15184 82983 32595 61406 10276 20197 39718 40138 86100 333 58009;EQDQ01  00002PRCP06
0198829830999992005061600004-09383-040483FM-12+037099999V0201401N002612200019N0020001N1+02441+01831101571ADDAA106000091GF102991021011008001001001KA1240M+02901MA1999999097381MD1999999-0131REMSYN088AAXX  16004 82983 32595 21405 10244 20183 39738 40157 82100 333 10290 29070 55035 59013;EQDQ01  00002PRCP06
0186829830999992005061612004-09383-040483FM-12+037099999V0201401N003110075019N0020001N1+02401+01911101681ADDAA106000091GF107991071021008001001001KA1240N+02141MA1999999097501MD1999999-0071REMSYN076AAXX  16124 82983 32595 71406 10240 20191 39750 40168 87200 333 20214 59007;EQDQ01  00002PRCP06
0167829830999992005061618004-09383-040483FM-12+037099999V0201401N003110075019N0020001N1+02741+01951101331ADDAA106000091GF106991061021008001001001MA1999999097171MD1999999-0011REMSYN070AAXX  16184 82983 32595 61406 10274 20195 39717 40133 86200 333 59001;EQDQ01  00002PRCP06
0198829830999992005061700004-09383-040483FM-12+037099999V0201401N002610075019N0020001N1+02341+02001101621ADDAA106000091GF106991061031008001001001KA1240M+02821MA1999999097441MD1999999+0061REMSYN088AAXX  17004 82983 32595 61405 10234 20200 39744 40162 86300 333 10282 29074 55031 58006;EQDQ01  00002PRCP06
0186829830999992005061712004-09383-040483FM-12+037099999V0201401N003112200019N0020001N1+02401+01731101761ADDAA106000091GF104991041011008001001001KA1240N+02081MA1999999097561MD1999999+0061REMSYN076AAXX  17124 82983 32595 41406 10240 20173 39756 40176 84100 333 20208 58006;EQDQ01  00002PRCP06
0167829830999992005061718004-09383-040483FM-12+037099999V0200901N003112200019N0020001N1+03001+01411101211ADDAA106000091GF102991021011008001001001MA1999999097081MD1999999-0091REMSYN070AAXX  17184 82983 32595 20906 10300 20141 39708 40121 82100 333 59009;EQDQ01  00002PRCP06
0208829830999992005061800004-09383-040483FM-12+037099999V0201401N003112200019N0020001N1+02521+01581101461ADDAA106000091GA1001+999999999GF100991001001999999001001KA1240M+03081MA1999999097291MD1999999-0151REMSYN082AAXX  18004 82983 32995 01406 10252 20158 39729 40146 333 10308 29054 55100 59015;EQDQ01  00002PRCP06
0186829830999992005061812004-09383-040483FM-12+037099999V0201401N003110075019N0020001N1+02401+01771101661ADDAA106000091GF107991071051008001001001KA1240N+02161MA1999999097481MD1999999-0081REMSYN076AAXX  18124 82983 32595 71406 10240 20177 39748 40166 87500 333 20216 59008;EQDQ01  00002PRCP06
0206829830999992005061818004-09383-040483FM-12+037099999V0200501N005110042019N0002001N1+01941+01941101401ADDAY161061AY261061GF108991081051004501999999MA1999999999999MD1999999+0081MW1611REMSYN082AAXX  18184 82983 21492 80510 10194 20194 39231 40140 76166 885// 333 58008 60211;EQDQ01+092313APOSP Q02 092313APOSP 
0166829830999992005061900004-09380-040480FM-12+037099999V0201401N003110075019N0020001N1+02641+01721101421ADDAA106000021GF105991051011008001001001MA1999999097261MD1999999-0031REMSYN088AAXX  19004 82983 32595 51406 10264 20172 39726 40142 85100 333 10306 29057 55078 59003;
0173829830999992005061912004-09380-040480FM-12+037099999V0200901N003112200019N0020001N1+02561+01931101541ADDAA106000091GF102991021011008001001011MA1999999097381MD1999999-0101REMSYN076AAXX  19124 82983 32595 20906 10256 20193 39738 40154 82101 333 20224 59010;EQDQ01  00002PRCP06
0167829830999992005061918004-09380-040480FM-12+037099999V0200501N003110450019N0020001N1+03121+01751101101ADDAA106000091GF106991041011008001021001MA1999999096971MD1999999-0051REMSYN070AAXX  19184 82983 32595 60506 10312 20175 39697 40110 84120 333 59005;EQDQ01  00002PRCP06
0179829830999992005062000004-09380-040480FM-12+037099999V0200901N002612200019N0020001N1+02661+01741101301ADDAA106000091GF100991001001999999001001MA1999999097151MD1999999-0111REMSYN082AAXX  20004 82983 32995 00905 10266 20174 39715 40130 333 10320 29056 55096 59011;EQDQ01  00002PRCP06
0173829830999992005062012004-09380-040480FM-12+037099999V0200901N003110075019N0020001N1+02341+02181101601ADDAA106000091GF107991071051008001001001MA1999999097431MD1999999+0051REMSYN076AAXX  20124 82983 32595 70906 10234 20218 39743 40160 87500 333 20218 58005;EQDQ01  00002PRCP06
0167829830999992005062018004-09383-040483FM-12+037099999V0200901N002612200019N0020001N1+03181+01731101111ADDAA106000091GF104991041011008001001001MA1999999096981MD1999999+0011REMSYN070AAXX  20184 82983 32595 40905 10318 20173 39698 40111 84100 333 58001;EQDQ01  00002PRCP06
0198829830999992005062100004-09383-040483FM-12+037099999V0201401N003112200019N0020001N1+02641+01851101431ADDAA106000091GF102991021011008001001001KA1240M+03261MA1999999097271MD1999999+0121REMSYN088AAXX  21004 82983 32595 21406 10264 20185 39727 40143 82100 333 10326 29060 55084 58012;EQDQ01  00002PRCP06
0186829830999992005062112004-09383-040483FM-12+037099999V0201401N003110075019N0020001N1+02541+01981101641ADDAA106000091GF107991071051008001001001KA1240N+02201MA1999999097481MD1999999+0051REMSYN076AAXX  21124 82983 32595 71406 10254 20198 39748 40164 87500 333 20220 58005;EQDQ01  00002PRCP06
0167829830999992005062118004-09383-040483FM-12+037099999V0201401N003112200019N0020001N1+03121+01561101211ADDAA106000091GF103991031011008001001001MA1999999097071MD1999999+0091REMSYN070AAXX  21184 82983 32595 31406 10312 20156 39707 40121 83100 333 58009;EQDQ01  00002PRCP06
0208829830999992005062200004-09383-040483FM-12+037099999V0201801N003112200019N0020001N1+02641+01741101441ADDAA106000091GA1001+999999999GF100991001001999999001001KA1240M+03201MA1999999097291MD1999999+0021REMSYN082AAXX  22004 82983 32995 01806 10264 20174 39729 40144 333 10320 29057 55083 58002;EQDQ01  00002PRCP06
0186829830999992005062212004-09383-040483FM-12+037099999V0201401N004110075019N0020001N1+02441+01741101691ADDAA106000091GF106991061021008001001001KA1240N+02261MA1999999097521MD1999999+0041REMSYN076AAXX  22124 82983 32595 61408 10244 20174 39752 40169 86200 333 20226 58004;EQDQ01  00002PRCP06
0167829830999992005062218004-09383-040483FM-12+037099999V0201401N003112200019N0020001N1+03081+01561101251ADDAA106000091GF104991041011008001001001MA1999999097111MD1999999+0041REMSYN070AAXX  22184 82983 32595 41406 10308 20156 39711 40125 84100 333 58004;EQDQ01  00002PRCP06
0198829830999992005062300004-09383-040483FM-12+037099999V0201401N004112200019N0020001N1+02541+01881101591ADDAA106000091GF102991021011008001001001KA1240M+03181MA1999999097421MD1999999+0131REMSYN088AAXX  23004 82983 32595 21408 10254 20188 39742 40159 82100 333 10318 29060 55094 58013;EQDQ01  00002PRCP06
0186829830999992005062312004-09383-040483FM-12+037099999V0201401N004110075019N0020001N1+02321+01741101841ADDAA106000091GF108991081051008001999999KA1240N+02181MA1999999097651MD1999999+0131REMSYN076AAXX  23124 82983 32595 81408 10232 20174 39765 40184 885// 333 20218 58013;EQDQ01  00002PRCP06
0167829830999992005062318004-09383-040483FM-12+037099999V0201401N003110075019N0020001N1+02821+01681101471ADDAA106000091GF106991061021008001001001MA1999999097301MD1999999+0191REMSYN070AAXX  23184 82983 32595 61406 10282 20168 39730 40147 86200 333 58019;EQDQ01  00002PRCP06
0198829830999992005062400004-09383-040483FM-12+037099999V0201801N003112200019N0020001N1+02261+01751101641ADDAA106000091GF102991021011008001001001KA1240M+02861MA1999999097441MD1999999+0021REMSYN088AAXX  24004 82983 32595 21806 10226 20175 39744 40164 82100 333 10286 29066 55024 58002;EQDQ01  00002PRCP06
0190829830999992005062412004-09383-040483FM-12+037099999V0201401N003110075019N0020001N1+02301+01851101701ADDAY111061AY251061GF106991061021008001001001KA1240N+02081MA1999999097501MD1999999-0151MW1031REMSYN088AAXX  24124 82983 21595 61406 10230 20185 39750 40170 70315 86200 333 20208 59015 69944;
0167829830999992005062418004-09383-040483FM-12+037099999V0201401N002610450019N0020001N1+02801+01841101341ADDAA106000091GF106991041021008001021001MA1999999097161MD1999999-0141REMSYN070AAXX  24184 82983 32595 61405 10280 20184 39716 40134 84220 333 59014;EQDQ01  00002PRCP06
0198829830999992005062500004-09383-040483FM-12+037099999V0201801N003112200019N0020001N1+02381+01841101591ADDAA106000091GF104991041011008001001001KA1240M+02881MA1999999097391MD1999999-0051REMSYN088AAXX  25004 82983 32595 41806 10238 20184 39739 40159 84100 333 10288 29069 55066 59005;EQDQ01  00002PRCP06
0186829830999992005062512004-09383-040483FM-12+037099999V0201401N003110075019N0020001N1+02341+01831101641ADDAA106000091GF108991081051008001999999KA1240N+02181MA1999999097451MD1999999-0051REMSYN076AAXX  25124 82983 32595 81406 10234 20183 39745 40164 885// 333 20218 59005;EQDQ01  00002PRCP06
0167829830999992005062518004-09383-040483FM-12+037099999V0201401N003110075019N0020001N1+02861+01831101241ADDAA106000091GF106991061011008001001001MA1999999097081MD1999999-0081REMSYN070AAXX  25184 82983 32595 61406 10286 20183 39708 40124 86100 333 59008;EQDQ01  00002PRCP06
0173829830999992005062612004-09380-040480FM-12+037099999V0201401N002610075019N0020001N1+02361+01851101661ADDAA106000091GF108991081061008001999999MA1999999097481MD1999999+0031REMSYN076AAXX  26124 82983 32595 81405 10236 20185 39748 40166 886// 333 20228 58003;EQDQ01  00002PRCP06
0167829830999992005062618004-09380-040480FM-12+037099999V0201401N003110075019N0020001N1+02941+01721101241ADDAA106000091GF106991061011008001001001MA1999999097101MD1999999+0021REMSYN070AAXX  26184 82983 32595 61406 10294 20172 39710 40124 86100 333 58002;EQDQ01  00002PRCP06
0198829830999992005062700004-09383-040483FM-12+037099999V0201401N003112200019N0020001N1+02601+01651101521ADDAA106000091GF104991041011008001001001KA1240M+03021MA1999999097351MD1999999+0021REMSYN088AAXX  27004 82983 32595 41406 10260 20165 39735 40152 84100 333 10302 29058 55044 58002;EQDQ01  00002PRCP06
0186829830999992005062712004-09383-040483FM-12+037099999V0201401N003110075019N0020001N1+02541+01811101651ADDAA106000091GF105991051011008001001001KA1240N+02201MA1999999097481MD1999999+0001REMSYN076AAXX  27124 82983 32595 51406 10254 20181 39748 40165 85100 333 20220 58000;EQDQ01  00002PRCP06
0167829830999992005062718004-09383-040483FM-12+037099999V0201401N003112200019N0020001N1+03061+01581101201ADDAA106000091GF104991041011008001001001MA1999999097061MD1999999-0021REMSYN070AAXX  27184 82983 32595 41406 10306 20158 39706 40120 84100 333 59002;EQDQ01  00002PRCP06
0198829830999992005062800004-09383-040483FM-12+037099999V0201801N003112200019N0020001N1+02541+01861101541ADDAA106000091GF102991021011008001001001KA1240M+03141MA1999999097381MD1999999+0031REMSYN088AAXX  28004 82983 32595 21806 10254 20186 39738 40154 82100 333 10314 29059 55099 58003;EQDQ01  00002PRCP06
0186829830999992005062812004-09383-040483FM-12+037099999V0201401N004110075019N0020001N1+02401+01771101791ADDAA106000091GF106991061021008001001001KA1240N+02141MA1999999097601MD1999999+0121REMSYN076AAXX  28124 82983 32595 61408 10240 20177 39760 40179 86200 333 20214 58012;EQDQ01  00002PRCP06
0167829830999992005062818004-09383-040483FM-12+037099999V0201401N003110075019N0020001N1+02941+01511101361ADDAA106000091GF106991061011008001001001MA1999999097201MD1999999+0141REMSYN070AAXX  28184 82983 32595 61406 10294 20151 39720 40136 86100 333 58014;EQDQ01  00002PRCP06
0202829830999992005062900004-09383-040483FM-12+037099999V0201801N003110075019N0020001N1+02201+01941101781ADDAY121061AY211061GF108991081051008001999999KA1240M+03061MA1999999097571MD1999999+0191MW1501REMSYN100AAXX  29004 82983 21595 81806 10220 20194 39757 40178 75021 885// 333 10306 29070 55074 58019 69941;
0162829830999992005062912004-09383-040483FM-12+037099999V0201401N004110075019N0020001N1+02301+01791101731ADDGF108991081051008001999999KA1240N+02181MA1999999097531MD1999999-0071REMSYN082AAXX  29124 82983 22595 81408 10230 20179 39753 40173 885// 333 20218 59007 69944;
0167829830999992005062918004-09383-040483FM-12+037099999V0201401N002610075019N0020001N1+02801+01561101311ADDAA106000091GF106991061011008001001001MA1999999097151MD1999999-0051REMSYN070AAXX  29184 82983 32595 61405 10280 20156 39715 40131 86100 333 59005;EQDQ01  00002PRCP06
0208829830999992005063000004-09383-040483FM-12+037099999V0201401N004112200019N0020001N1+02421+01671101611ADDAA106000091GA1001+999999999GF100991001001999999001001KA1240M+02901MA1999999097421MD1999999-0151REMSYN082AAXX  30004 82983 32995 01408 10242 20167 39742 40161 333 10290 29062 55046 59015;EQDQ01  00002PRCP06
0186829830999992005063012004-09383-040483FM-12+037099999V0201401N004112200019N0020001N1+02281+01591101751ADDAA106000091GF102991021011008001001001KA1240N+01921MA1999999097551MD1999999+0021REMSYN076AAXX  30124 82983 32595 21408 10228 20159 39755 40175 82100 333 20192 58002;EQDQ01  00002PRCP06
0167829830999992005063018004-09383-040483FM-12+037099999V0201401N004112200019N0020001N1+02941+01441101281ADDAA106000091GF102991021011008001001001MA1999999097121MD1999999-0031REMSYN070AAXX  30184 82983 32595 21408 10294 20144 39712 40128 82100 333 59003;EQDQ01  00002PRCP06
0208829830999992005070100004-09383-040483FM-12+037099999V0201401N003112200019N0020001N1+02441+01591101521ADDAA106000091GA1001+999999999GF100991001001999999001001KA1240M+03341MA1999999097341MD1999999-0081REMSYN082AAXX  01004 82983 32995 01406 10244 20159 39734 40152 333 10334 29056 55081 59008;EQDQ01  00002PRCP06
0186829830999992005070112004-09383-040483FM-12+037099999V0201401N004112200019N0020001N1+02381+01681101701ADDAA106000091GF104991041011008001001001KA1240N+02381MA1999999097521MD1999999-0031REMSYN076AAXX  01124 82983 32595 41408 10238 20168 39752 40170 84100 333 20238 59003;EQDQ01  00002PRCP06
0167829830999992005070118004-09383-040483FM-12+037099999V0201401N003112200019N0020001N1+03031+01491101331ADDAA106000091GF102991021011008001001001MA1999999097161MD1999999+0041REMSYN070AAXX  01184 82983 32595 21406 10303 20149 39716 40133 82100 333 58004;EQDQ01  00002PRCP06
0208829830999992005070200004-09383-040483FM-12+037099999V0201401N001512200019N0020001N1+02541+01601101671ADDAA106000091GA1001+999999999GF100991001001999999001001KA1240M+03121MA1999999097491MD1999999+0151REMSYN082AAXX  02004 82983 32995 01403 10254 20160 39749 40167 333 10312 29054 55107 58015;EQDQ01  00002PRCP06
0186829830999992005070212004-09383-040483FM-12+037099999V0201401N004110075019N0020001N1+02481+01751101861ADDAA106000091GF105991051011008001001001KA1240N+02041MA1999999097681MD1999999+0161REMSYN076AAXX  02124 82983 32595 51408 10248 20175 39768 40186 85100 333 20204 58016;EQDQ01  00002PRCP06
0167829830999992005070218004-09383-040483FM-12+037099999V0201401N004112200019N0020001N1+02901+01521101451ADDAA106000091GF104991041011008001001001MA1999999097291MD1999999+0131REMSYN070AAXX  02184 82983 32595 41408 10290 20152 39729 40145 84100 333 58013;EQDQ01  00002PRCP06
0179829830999992005070300004-09380-040480FM-12+037099999V0201401N002612200019N0020001N1+02501+01721101781ADDAA106000091GF100991001001999999001001MA1999999097601MD1999999+0111REMSYN082AAXX  03004 82983 32995 01405 10250 20172 39760 40178 333 10300 29058 55082 58011;EQDQ01  00002PRCP06
0173829830999992005070312004-09380-040480FM-12+037099999V0201401N004110075019N0020001N1+02281+01811101901ADDAA106000091GF108991081021008001999999MA1999999097711MD1999999+0031REMSYN076AAXX  03124 82983 32595 81408 10228 20181 39771 40190 882// 333 20214 58003;EQDQ01  00002PRCP06
0167829830999992005070318004-09380-040480FM-12+037099999V0201401N003110075019N0020001N1+02741+01781101481ADDAA106000091GF107991071011008001001001MA1999999097301MD1999999+0011REMSYN070AAXX  03184 82983 32595 71406 10274 20178 39730 40148 87100 333 58001;EQDQ01  00002PRCP06
0198829830999992005070400004-09383-040483FM-12+037099999V0201401N002612200019N0020001N1+02461+01761101671ADDAA106000091GF103991031011008001001001KA1240M+02801MA1999999097481MD1999999-0121REMSYN088AAXX  04004 82983 32595 31405 10246 20176 39748 40167 83100 333 10280 29065 55017 59012;EQDQ01  00002PRCP06
0186829830999992005070412004-09383-040483FM-12+037099999V0201401N004110075019N0020001N1+02241+01711101761ADDAA106000091GF108991081051008001999999KA1240N+02041MA1999999097561MD1999999-0151REMSYN076AAXX  04124 82983 32595 81408 10224 20171 39756 40176 885// 333 20204 59015;EQDQ01  00002PRCP06
0167829830999992005070418004-09383-040483FM-12+037099999V0201401N003110075019N0020001N1+02861+01301101321ADDAA106000091GF106991051011008001021001MA1999999097141MD1999999-0161REMSYN070AAXX  04184 82983 32595 61406 10286 20130 39714 40132 85120 333 59016;EQDQ01  00002PRCP06
0208829830999992005070500004-09383-040483FM-12+037099999V0201401N001512200019N0020001N1+02441+01391101601ADDAA106000091GA1001+999999999GF100991001001999999001001KA1240M+02981MA1999999097411MD1999999-0071REMSYN082AAXX  05004 82983 32995 01403 10244 20139 39741 40160 333 10298 29054 55038 59007;EQDQ01  00002PRCP06
0186829830999992005070512004-09383-040483FM-12+037099999V0201401N003110075019N0020001N1+02341+01761101771ADDAA106000091GF106991061011008001001001KA1240N+02081MA1999999097581MD1999999+0021REMSYN076AAXX  05124 82983 32595 61406 10234 20176 39758 40177 86100 333 20208 58002;EQDQ01  00002PRCP06
0167829830999992005070518004-09383-040483FM-12+037099999V0201401N003112200019N0020001N1+03041+01571101331ADDAA106000091GF104991041011008001001001MA1999999097181MD1999999+0041REMSYN070AAXX  05184 82983 32595 41406 10304 20157 39718 40133 84100 333 58004;EQDQ01  00002PRCP06
0208829830999992005070600004-09383-040483FM-12+037099999V0201401N003112200019N0020001N1+02421+01731101621ADDAA106000091GA1001+999999999GF100991001001999999001001KA1240M+03141MA1999999097441MD1999999+0031REMSYN082AAXX  06004 82983 32995 01406 10242 20173 39744 40162 333 10314 29062 55109 58003;EQDQ01  00002PRCP06
0186829830999992005070612004-09383-040483FM-12+037099999V0201801N003110075019N0020001N1+02361+01761101661ADDAA106000091GF106991061011008001001001KA1240N+02141MA1999999097481MD1999999-0101REMSYN076AAXX  06124 82983 32595 61806 10236 20176 39748 40166 86100 333 20214 59010;EQDQ01  00002PRCP06
0167829830999992005070618004-09383-040483FM-12+037099999V0201401N004110075019N0020001N1+02881+01771101511ADDAA106000091GF106991061011008001001001MA1999999097341MD1999999+0161REMSYN070AAXX  06184 82983 32595 61408 10288 20177 39734 40151 86100 333 58016;EQDQ01  00002PRCP06
0237829830999992005070700004-09383-040483FM-12+037099999V0201801N003610120019N0005001N1+01881+01881101731ADDAY161061AY261061GF108991081051012501999999KA1240N+99999MA1999999999999MD1999999+0041MW1021REMSYN100AAXX  07004 82983 21693 81807 10188 20188 39263 40173 70266 885// 333 20240 29092 55048 58004 60011;EQDQ01 092633APOSP Q02 +02402ATMN  
0186829830999992005070712004-09383-040483FM-12+037099999V0201401N004110075019N0020001N1+02461+01811101891ADDAA106000091GF106991061011008001001001KA1240N+02081MA1999999097701MD1999999+0221REMSYN076AAXX  07124 82983 32595 61408 10246 20181 39770 40189 86100 333 20208 58022;EQDQ01  00002PRCP06
0167829830999992005070718004-09383-040483FM-12+037099999V0201401N003112200019N0020001N1+02961+01781101461ADDAA106000091GF104991041011008001001001MA1999999097301MD1999999-0041REMSYN070AAXX  07184 82983 32595 41406 10296 20178 39730 40146 84100 333 59004;EQDQ01  00002PRCP06
0198829830999992005070800004-09383-040483FM-12+037099999V0201401N004110075019N0020001N1+02281+01961101831ADDAA106000091GF108991081061008001999999KA1240M+03041MA1999999097631MD1999999+0071REMSYN088AAXX  08004 82983 32595 81408 10228 20196 39763 40183 886// 333 10304 29070 55090 58007;EQDQ01  00002PRCP06
0186829830999992005070812004-09383-040483FM-12+037099999V0201401N004110075019N0020001N1+02381+01841101911ADDAA106000091GF105991051011008001001001KA1240N+02141MA1999999097711MD1999999+0011REMSYN076AAXX  08124 82983 32595 51408 10238 20184 39771 40191 85100 333 20214 58001;EQDQ01  00002PRCP06
0167829830999992005070818004-09383-040483FM-12+037099999V0201401N004110075019N0020001N1+02761+01751101581ADDAA106000091GF106991061011008001001001MA1999999097401MD1999999+0101REMSYN070AAXX  08184 82983 32595 61408 10276 20175 39740 40158 86100 333 58010;EQDQ01  00002PRCP06
0198829830999992005070900004-09383-040483FM-12+037099999V0201401N003110075019N0020001N1+02341+01721101891ADDAA106000091GF106991061011008001001001KA1240M+02841MA1999999097691MD1999999+0061REMSYN088AAXX  09004 82983 32595 61406 10234 20172 39769 40189 86100 333 10284 29066 55048 58006;EQDQ01  00002PRCP06
0186829830999992005070912004-09383-040483FM-12+037099999V0201401N005110075019N0020001N1+02321+01531102001ADDAA106000091GF106991061021008001001001KA1240N+02101MA1999999097791MD1999999+0081REMSYN076AAXX  09124 82983 32595 61410 10232 20153 39779 40200 86200 333 20210 58008;EQDQ01  00002PRCP06
0167829830999992005070918004-09383-040483FM-12+037099999V0201401N005110075019N0020001N1+02621+01531101691ADDAA106000091GF105991051011008001001001MA1999999097501MD1999999+0101REMSYN070AAXX  09184 82983 32595 51410 10262 20153 39750 40169 85100 333 58010;EQDQ01  00002PRCP06
0185829830999992005071000004-09380-040480FM-12+037099999V0201401N003110075019N0020001N1+02281+01541101931ADDAA106000091GF105991051011008001001001MA1999999097721MD1999999+0031REMSYN088AAXX  10004 82983 32595 51406 10228 20154 39772 40193 85100 333 10274 29060 55089 58003;EQDQ01  00002PRCP06
0173829830999992005071012004-09380-040480FM-12+037099999V0201401N005110075019N0020001N1+02161+01471101951ADDAA106000091GF106991061011008001001001MA1999999097731MD1999999-0061REMSYN076AAXX  10124 82983 32595 61410 10216 20147 39773 40195 86100 333 20200 59006;EQDQ01  00002PRCP06
0167829830999992005071018004-09380-040480FM-12+037099999V0201401N004110075019N0020001N1+02581+01991101651ADDAA106000091GF106991061011008001001001MA1999999097451MD1999999-0051REMSYN070AAXX  10184 82983 32595 61408 10258 20199 39745 40165 86100 333 59005;EQDQ01  00002PRCP06
0198829830999992005071100004-09383-040483FM-12+037099999V0201401N004110075019N0020001N1+02281+01621101881ADDAA106000091GF106991061021008001001001KA1240M+02781MA1999999097661MD1999999-0061REMSYN088AAXX  11004 82983 32595 61408 10228 20162 39766 40188 86200 333 10278 29063 55066 59006;EQDQ01  00002PRCP06
0186829830999992005071112004-09383-040483FM-12+037099999V0201401N005110075019N0020001N1+02281+01701101941ADDAA106000091GF105991051011008001001001KA1240N+02121MA1999999097731MD1999999+0001REMSYN076AAXX  11124 82983 32595 51410 10228 20170 39773 40194 85100 333 20212 58000;EQDQ01  00002PRCP06
0167829830999992005071118004-09383-040483FM-12+037099999V0201401N003110075019N0020001N1+02661+01681101491ADDAA106000091GF106991061011008001001001MA1999999097311MD1999999-0141REMSYN070AAXX  11184 82983 32595 61406 10266 20168 39731 40149 86100 333 59014;EQDQ01  00002PRCP06
0198829830999992005071200004-09383-040483FM-12+037099999V0200901N004110075019N0020001N1+02201+01901101871ADDAA106000091GF108991081051008001999999KA1240M+02801MA1999999097651MD1999999-0011REMSYN088AAXX  12004 82983 32595 80908 10220 20190 39765 40187 885// 333 10280 29073 55000 59001;EQDQ01  00002PRCP06
0167829830999992005071218004-09383-040483FM-12+037099999V0201401N003112200019N0020001N1+02961+01421101421ADDAA106000091GF104991021011008001001011MA1999999097261MD1999999-0051REMSYN070AAXX  12184 82983 32595 41406 10296 20142 39726 40142 82101 333 59005;EQDQ01  00002PRCP06
0198829830999992005071300004-09383-040483FM-12+037099999V0201401N004110075019N0020001N1+02261+01711101801ADDAA106000091GF106991061021008001001001KA1240M+03041MA1999999097591MD1999999-0061REMSYN088AAXX  13004 82983 32595 61408 10226 20171 39759 40180 86200 333 10304 29062 55/// 59006;EQDQ01  00002PRCP06
0186829830999992005071312004-09383-040483FM-12+037099999V0201401N004112200019N0020001N1+02241+01551101851ADDAA106000091GF104991041011008001001001KA1240N+01921MA1999999097631MD1999999-0081REMSYN076AAXX  13124 82983 32595 41408 10224 20155 39763 40185 84100 333 20192 59008;EQDQ01  00002PRCP06
0167829830999992005071318004-09383-040483FM-12+037099999V0201401N004112200019N0020001N1+02781+01441101441ADDAA106000091GF104991041011008001001001MA1999999097261MD1999999+0001REMSYN070AAXX  13184 82983 32595 41408 10278 20144 39726 40144 84100 333 58000;EQDQ01  00002PRCP06
0198829830999992005071400004-09383-040483FM-12+037099999V0201801N003110075019N0020001N1+02361+01781101691ADDAA106000091GF106991061051008001001001KA1240M+02901MA1999999097491MD1999999-0101REMSYN088AAXX  14004 82983 32595 61806 10236 20178 39749 40169 86500 333 10290 29062 55/// 59010;EQDQ01  00002PRCP06
0186829830999992005071412004-09383-040483FM-12+037099999V0201801N005110075019N0020001N1+02261+01471101831ADDAA106000091GF106991061021008001001001KA1240N+02021MA1999999097621MD1999999-0011REMSYN076AAXX  14124 82983 32595 61810 10226 20147 39762 40183 86200 333 20202 59001;EQDQ01  00002PRCP06
0167829830999992005071418004-09383-040483FM-12+037099999V0201401N004110075019N0020001N1+02681+01521101441ADDAA106000091GF106991061051008001001001MA1999999097261MD1999999+0001REMSYN070AAXX  14184 82983 32595 61408 10268 20152 39726 40144 86500 333 58000;EQDQ01  00002PRCP06
0198829830999992005071500004-09383-040483FM-12+037099999V0201401N004110075019N0020001N1+02181+01761101771ADDAA106000091GF107991071051008001001001KA1240M+02781MA1999999097551MD1999999+0061REMSYN088AAXX  15004 82983 32595 71408 10218 20176 39755 40177 87500 333 10278 29066 55/// 58006;EQDQ01  00002PRCP06
0186829830999992005071512004-09383-040483FM-12+037099999V0201401N003110075019N0020001N1+02181+01741101881ADDAA106000091GF108991081051008001999999KA1240N+01981MA1999999097661MD1999999+0041REMSYN076AAXX  15124 82983 32595 81406 10218 20174 39766 40188 885// 333 20198 58004;EQDQ01  00002PRCP06
0167829830999992005071518004-09383-040483FM-12+037099999V0201401N004110075019N0020001N1+02521+01741101521ADDAA106000091GF108991081051008001999999MA1999999097321MD1999999+0061REMSYN070AAXX  15184 82983 32595 81408 10252 20174 39732 40152 885// 333 58006;EQDQ01  00002PRCP06
0198829830999992005071600004-09383-040483FM-12+037099999V0201401N002610075019N0020001N1+02341+01641101771ADDAA106000091GF108991081061008001999999KA1240M+02581MA1999999097551MD1999999+0001REMSYN088AAXX  16004 82983 32595 81405 10234 20164 39755 40177 886// 333 10258 29067 55/// 58000;EQDQ01  00002PRCP06
0186829830999992005071612004-09383-040483FM-12+037099999V0201401N003110075019N0020001N1+02161+01781101881ADDAA106000091GF106991061021008001001001KA1240N+01901MA1999999097661MD1999999+0001REMSYN076AAXX  16124 82983 32595 61406 10216 20178 39766 40188 86200 333 20190 58000;EQDQ01  00002PRCP06
0185829830999992005071700004-09380-040480FM-12+037099999V0201401N003110075019N0020001N1+02261+01821101671ADDAA106000091GF105991051021008001001001MA1999999097461MD1999999-0091REMSYN088AAXX  17004 82983 32595 51406 10226 20182 39746 40167 85200 333 10288 29071 55/// 59009;EQDQ01  00002PRCP06
0173829830999992005071712004-09380-040480FM-12+037099999V0201401N003110075019N0020001N1+02241+01691101851ADDAA106000091GF108991081051008001999999MA1999999097631MD1999999-0031REMSYN076AAXX  17124 82983 32595 81406 10224 20169 39763 40185 885// 333 20210 59003;EQDQ01  00002PRCP06
0167829830999992005071718004-09380-040480FM-12+037099999V0201401N003112200019N0020001N1+02901+01521101361ADDAA106000091GF102991021011008001001001MA1999999097201MD1999999-0061REMSYN070AAXX  17184 82983 32595 21406 10290 20152 39720 40136 82100 333 59006;EQDQ01  00002PRCP06
0208829830999992005071800004-09383-040483FM-12+037099999V0201401N003112200019N0020001N1+02441+01451101611ADDAA106000091GA1001+999999999GF100991001001999999001001KA1240M+03001MA1999999097421MD1999999-0041REMSYN082AAXX  18004 82983 32995 01406 10244 20145 39742 40161 333 10300 29056 55/// 59004;EQDQ01  00002PRCP06
0196829830999992005071812004-09383-040483FM-12+037099999V0201401N003112200019N0020001N1+02301+01791101781ADDAA106000091GA1001+999999999GF100991001001999999001001KA1240N+01901MA1999999097591MD1999999-0041REMSYN070AAXX  18124 82983 32995 01406 10230 20179 39759 40178 333 20190 59004;EQDQ01  00002PRCP06
0177829830999992005071818004-09383-040483FM-12+037099999V0201401N003112200019N0020001N1+03101+00931101191ADDAA106000091GA1001+999999999GF100991001001999999001001MA1999999097051MD1999999-0151REMSYN064AAXX  18184 82983 32995 01406 10310 20093 39705 40119 333 59015;EQDQ01  00002PRCP06
0208829830999992005071900004-09383-040483FM-12+037099999V0201401N002612200019N0020001N1+02481+01461101481ADDAA106000091GA1001+999999999GF100991001001999999001001KA1240M+03221MA1999999097301MD1999999-0121REMSYN082AAXX  19004 82983 32995 01405 10248 20146 39730 40148 333 10322 29051 55/// 59012;EQDQ01  00002PRCP06
0202829830999992005071912004-09383-040483FM-12+037099999V0201401N003112200019N0020001N1+02421+01631101701ADDAA106000091GF104991999001008001021001KA1240N+01961MA1999999097531MD1999999-0061REMSYN076AAXX  19124 82983 32595 41406 10242 20163 39753 40170 80020 333 20196 59006;EQDQ01+000002SCOTLCQ02  00002PRCP06
0137829830999992005071918004-09383-040483FM-12+037099999V0200901N002612200019N0020001N1+03201+01121101191ADDGF103991031011008001001001MA1999999097051MD1999999+0001REMSYN070AAXX  19184 82983 32595 30905 10320 20112 39705 40119 83100 333 58000;
0168829830999992005072000004-09383-040483FM-12+037099999V0201401N003110075019N0020001N1+02741+01341101481ADDGF106991061011008001001001KA1240M+03281MA1999999097311MD1999999+0011REMSYN088AAXX  20004 82983 32595 61406 10274 20134 39731 40148 86100 333 10328 29044 55/// 58001;
0156829830999992005072012004-09383-040483FM-12+037099999V0201401N003110075019N0020001N1+02441+01861101671ADDGF108991081051008001999999KA1240N+02361MA1999999097511MD1999999-0021REMSYN076AAXX  20124 82983 32595 81406 10244 20186 39751 40167 885// 333 20236 59002;
0137829830999992005072018004-09383-040483FM-12+037099999V0201401N003112200019N0020001N1+03141+01501101181ADDGF103991031011008001001001MA1999999097081MD1999999+0031REMSYN070AAXX  20184 82983 32595 31406 10314 20150 39708 40118 83100 333 58003;
0213829830999992005072100004-09383-040483FM-12+037099999V0201401N005110075019N0020001N1+02461+02031101571ADDAA106002091AY111061AY221061GF108991081061008001999999KA1240M+03181MA1999999097391MD1999999+0081MW1521REMSYN100AAXX  21004 82983 21595 81410 10246 20203 39739 40157 75212 886// 333 10318 29065 55/// 58008 60021;
0201829830999992005072112004-09383-040483FM-12+037099999V0201401N004110075019N0020001N1+02241+01801101781ADDAA124003091AY151061AY261061GF108991081051008001999999KA1240N+02061MA1999999097581MD1999999+0071MW1031REMSYN088AAXX  21124 82983 21595 81408 10224 20180 39758 40178 70356 885// 333 20206 58007 60034;
0137829830999992005072118004-09383-040483FM-12+037099999V0201401N004110075019N0020001N1+02841+01461101481ADDGF106991061011008001001001MA1999999097301MD1999999+0221REMSYN070AAXX  21184 82983 32595 61408 10284 20146 39730 40148 86100 333 58022;
0168829830999992005072200004-09383-040483FM-12+037099999V0201401N002612200019N0020001N1+02361+01561101731ADDGF104991041051008001001001KA1240M+02921MA1999999097531MD1999999+0141REMSYN088AAXX  22004 82983 32595 41405 10236 20156 39753 40173 84500 333 10292 29060 55/// 58014;
0156829830999992005072212004-09383-040483FM-12+037099999V0201401N004110075019N0020001N1+02361+01611101921ADDGF105991051011008001001001KA1240N+01941MA1999999097721MD1999999+0141REMSYN076AAXX  22124 82983 32595 51408 10236 20161 39772 40192 85100 333 20194 58014;
0137829830999992005072218004-09383-040483FM-12+037099999V0201401N003110075019N0020001N1+02621+01701101641ADDGF107991071021008001001001MA1999999097441MD1999999+0141REMSYN070AAXX  22184 82983 32595 71406 10262 20170 39744 40164 87200 333 58014;
0178829830999992005072300004-09383-040483FM-12+037099999V0200901N001512200019N0020001N1+02281+01701101721ADDGA1001+999999999GF100991001001999999001001KA1240M+02721MA1999999097521MD1999999-0011REMSYN082AAXX  23004 82983 32995 00903 10228 20170 39752 40172 333 10272 29065 55/// 59001;
0156829830999992005072312004-09383-040483FM-12+037099999V0201401N004110075019N0020001N1+02281+01661101941ADDGF106991061051008001001001KA1240N+01961MA1999999097731MD1999999+0011REMSYN076AAXX  23124 82983 32595 61408 10228 20166 39773 40194 86500 333 20196 58001;
0137829830999992005072318004-09383-040483FM-12+037099999V0201401N003110075019N0020001N1+02841+01461101501ADDGF107991071011008001001001MA1999999097311MD1999999-0131REMSYN070AAXX  23184 82983 32595 71406 10284 20146 39731 40150 87100 333 59013;
0155829830999992005072400004-09380-040480FM-12+037099999V0200901N004110075019N0020001N1+02461+01681101721ADDGF106991061051008001001001MA1999999097531MD1999999+0011REMSYN088AAXX  24004 82983 32595 60908 10246 20168 39753 40172 86500 333 10294 29059 55/// 58001;
0143829830999992005072412004-09380-040480FM-12+037099999V0201401N003110075019N0020001N1+02221+01671101991ADDGF108991081051008001999999MA1999999097781MD1999999+0031REMSYN076AAXX  24124 82983 32595 81406 10222 20167 39778 40199 885// 333 20204 58003;
0137829830999992005072418004-09380-040480FM-12+037099999V0201401N004110075019N0020001N1+02741+01671101581ADDGF107991071021008001001001MA1999999097391MD1999999+0081REMSYN070AAXX  24184 82983 32595 71408 10274 20167 39739 40158 87200 333 58008;
0149829830999992005072500004-09380-040480FM-12+037099999V0201401N003112200019N0020001N1+02341+01641101781ADDGF100991001001999999001001MA1999999097571MD1999999+0041REMSYN082AAXX  25004 82983 32995 01406 10234 20164 39757 40178 333 10286 29063 55/// 58004;
0156829830999992005072512004-09383-040483FM-12+037099999V0201401N003112200019N0020001N1+02141+01531102041ADDGF102991021011008001001001KA1240N+01881MA1999999097821MD1999999+0041REMSYN076AAXX  25124 82983 32595 21406 10214 20153 39782 40204 82100 333 20188 58004;
0147829830999992005072518004-09383-040483FM-12+037099999V0201401N003112200019N0020001N1+02921+01171101561ADDGA1001+999999999GF100991001001999999001001MA1999999097371MD1999999-0021REMSYN064AAXX  25184 82983 32995 01406 10292 20117 39737 40156 333 59002;
0178829830999992005072600004-09383-040483FM-12+037099999V0201401N003112200019N0020001N1+02441+01301101871ADDGA1001+999999999GF100991001001999999001001KA1240M+03001MA1999999097661MD1999999+0091REMSYN082AAXX  26004 82983 32995 01406 10244 20130 39766 40187 333 10300 29050 55/// 58009;
0156829830999992005072612004-09383-040483FM-12+037099999V0201401N004112200019N0020001N1+02361+01591102051ADDGF102991021011008001001001KA1240N+02021MA1999999097841MD1999999+0021REMSYN076AAXX  26124 82983 32595 21408 10236 20159 39784 40205 82100 333 20202 58002;
0137829830999992005072618004-09383-040483FM-12+037099999V0201401N002612200019N0020001N1+03001+01201101481ADDGF102991021011008001001001MA1999999097321MD1999999-0051REMSYN070AAXX  26184 82983 32595 21405 10300 20120 39732 40148 82100 333 59005;
0178829830999992005072700004-09383-040483FM-12+037099999V0201401N002612200019N0020001N1+02521+01491101771ADDGA1001+999999999GF100991001001999999001001KA1240M+03141MA1999999097581MD1999999-0081REMSYN082AAXX  27004 82983 32995 01405 10252 20149 39758 40177 333 10314 29050 55/// 59008;
0156829830999992005072712004-09383-040483FM-12+037099999V0201401N005110075019N0020001N1+02261+01641102061ADDGF106991061051008001001001KA1240N+02081MA1999999097851MD1999999+0011REMSYN076AAXX  27124 82983 32595 61410 10226 20164 39785 40206 86500 333 20208 58001;
0147829830999992005072718004-09383-040483FM-12+037099999V0201401N003112200019N0020001N1+03081+01171101531ADDGA1001+999999999GF100991001001999999001001MA1999999097331MD1999999+0011REMSYN064AAXX  27184 82983 32995 01406 10308 20117 39733 40153 333 58001;
0178829830999992005072800004-09383-040483FM-12+037099999V0201401N003112200019N0020001N1+02521+01491101761ADDGA1001+999999999GF100991001001999999001001KA1240M+03161MA1999999097601MD1999999+0021REMSYN082AAXX  28004 82983 32995 01406 10252 20149 39760 40176 333 10316 29051 55/// 58002;
0156829830999992005072812004-09383-040483FM-12+037099999V0201401N004112200019N0020001N1+02341+01521102031ADDGF103991031011008001001001KA1240N+01981MA1999999097831MD1999999-0021REMSYN076AAXX  28124 82983 32595 31408 10234 20152 39783 40203 83100 333 20198 59002;
0137829830999992005072818004-09383-040483FM-12+037099999V0201401N004112200019N0020001N1+03001+01331101561ADDGF102991021011008001001001MA1999999097391MD1999999+0061REMSYN070AAXX  28184 82983 32595 21408 10300 20133 39739 40156 82100 333 58006;
0178829830999992005072900004-09383-040483FM-12+037099999V0201401N003112200019N0020001N1+02501+01531101821ADDGA1001+999999999GF100991001001999999001001KA1240M+03041MA1999999097631MD1999999+0031REMSYN082AAXX  29004 82983 32995 01406 10250 20153 39763 40182 333 10304 29052 55/// 58003;
0156829830999992005072912004-09383-040483FM-12+037099999V0201401N005112200019N0020001N1+02341+01521102031ADDGF104991041011008001001001KA1240N+01941MA1999999097831MD1999999+0001REMSYN076AAXX  29124 82983 32595 41410 10234 20152 39783 40203 84100 333 20194 58000;
0137829830999992005072918004-09383-040483FM-12+037099999V0201401N004112200019N0020001N1+03021+01171101471ADDGF104991041011008001001001MA1999999097311MD1999999-0081REMSYN070AAXX  29184 82983 32595 41408 10302 20117 39731 40147 84100 333 59008;
0178829830999992005073000004-09383-040483FM-12+037099999V0201401N003112200019N0020001N1+02521+01311101811ADDGA1001+999999999GF100991001001999999001001KA1240M+03101MA1999999097621MD1999999-0011REMSYN082AAXX  30004 82983 32995 01406 10252 20131 39762 40181 333 10310 29046 55/// 59001;
0143829830999992005073012004-09380-040480FM-12+037099999V0201401N003110075019N0020001N1+02221+01551101991ADDGF106991061011008001001001MA1999999097781MD1999999-0051REMSYN076AAXX  30124 82983 32595 61406 10222 20155 39778 40199 86100 333 20190 59005;
0137829830999992005073018004-09380-040480FM-12+037099999V0201401N004110075019N0020001N1+02901+01241101461ADDGF105991051011008001001001MA1999999097281MD1999999-0031REMSYN070AAXX  30184 82983 32595 51408 10290 20124 39728 40146 85100 333 59003;
0149829830999992005073100004-09380-040480FM-12+037099999V0201401N004112200019N0020001N1+02521+01551101801ADDGF100991001001999999001001MA1999999097601MD1999999-0021REMSYN082AAXX  31004 82983 32995 01408 10252 20155 39760 40180 333 10308 29053 55107 59002;
0143829830999992005073112004-09380-040480FM-12+037099999V0201401N005112200019N0020001N1+02361+01461101891ADDGF104991041011008001001001MA1999999097701MD1999999-0081REMSYN076AAXX  31124 82983 32595 41410 10236 20146 39770 40189 84100 333 20212 59008;
0137829830999992005073118004-09383-040483FM-12+037099999V0201401N004112200019N0020001N1+02841+01311101481ADDGF102991021011008001001001MA1999999097301MD1999999+0021REMSYN070AAXX  31184 82983 32595 21408 10284 20131 39730 40148 82100 333 58002;
0178829830999992005080100004-09383-040483FM-12+037099999V0201801N002612200019N0020001N1+02321+01281101761ADDGA1001+999999999GF100991001001999999001001KA1240M+02941MA1999999097561MD1999999-0041REMSYN082AAXX  01004 82983 32995 01805 10232 20128 39756 40176 333 10294 29050 55106 59004;
0156829830999992005080112004-09383-040483FM-12+037099999V0201401N003110075019N0020001N1+02221+01551101981ADDGF105991051011008001001001KA1240N+01941MA1999999097761MD1999999+0061REMSYN076AAXX  01124 82983 32595 51406 10222 20155 39776 40198 85100 333 20194 58006;
0137829830999992005080118004-09383-040483FM-12+037099999V0201401N003112200019N0020001N1+02941+01281101411ADDGF104991041011008001001001MA1999999097231MD1999999-0071REMSYN070AAXX  01184 82983 32595 41406 10294 20128 39723 40141 84100 333 59007;
0168829830999992005080200004-09383-040483FM-12+037099999V0201401N004110075019N0020001N1+02241+01711101801ADDGF106991061021008001001001KA1240M+03041MA1999999097591MD1999999+0031REMSYN088AAXX  02004 82983 32595 61408 10224 20171 39759 40180 86200 333 10304 29062 55080 58003;
0156829830999992005080212004-09383-040483FM-12+037099999V0201401N004110075019N0020001N1+02281+01641101841ADDGF106991061021008001001001KA1240N+02001MA1999999097621MD1999999-0141REMSYN076AAXX  02124 82983 32595 61408 10228 20164 39762 40184 86200 333 20200 59014;
0137829830999992005080218004-09383-040483FM-12+037099999V0201401N004110075019N0020001N1+02541+01601101501ADDGF108991081051008001999999MA1999999097301MD1999999+0071REMSYN070AAXX  02184 82983 32595 81408 10254 20160 39730 40150 885// 333 58007;
0168829830999992005080300004-09383-040483FM-12+037099999V0200901N002610075019N0020001N1+02421+01541101701ADDGF106991061021008001001001KA1240M+02661MA1999999097511MD1999999-0081REMSYN088AAXX  03004 82983 32595 60905 10242 20154 39751 40170 86200 333 10266 29060 55013 59008;
0201829830999992005080312004-09383-040483FM-12+037099999V0201401N003110075019N0020001N1+02061+01801101921ADDAA124000021AY111061AY221061GF108991081061008001999999KA1240N+02061MA1999999097701MD1999999+0081MW1501REMSYN088AAXX  03124 82983 21595 81406 10206 20180 39770 40192 75012 886// 333 20206 58008 69904;
0182829830999992005080318004-09383-040483FM-12+037099999V0201401N002610075019N0020001N1+02841+01461101351ADDAA106999999AY121061AY251061GF106991061051008001001001MA1999999097171MD1999999-0131MW1031REMSYN082AAXX  03184 82983 21595 61405 10284 20146 39717 40135 70325 86500 333 59013 69921;
0168829830999992005080400004-09383-040483FM-12+037099999V0201401N004112200019N0020001N1+02441+01591101641ADDGF102991021011008001001001KA1240M+02941MA1999999097441MD1999999-0071REMSYN088AAXX  04004 82983 32595 21408 10244 20159 39744 40164 82100 333 10294 29062 55051 59007;
0173829830999992005080412004-09383-040483FM-12+037099999V0201401N004610075019N0020001N1+02261+01711101911ADDAA124000021GF106991061021008001001001KA1240N+02201MA1999999097711MD1999999+0011REMSYN082AAXX  04124 82983 22595 61409 10226 20171 39771 40191 86200 333 20220 58001 69924;
0178829830999992005080500004-09383-040483FM-12+037099999V0201401N003112200019N0020001N1+02501+01621101721ADDGA1001+999999999GF100991001001999999001001KA1240M+03041MA1999999097541MD1999999+0101REMSYN082AAXX  05004 82983 32995 01406 10250 20162 39754 40172 333 10304 29057 55077 58010;
0156829830999992005080512004-09383-040483FM-12+037099999V0201401N004110075019N0020001N1+02321+01621101951ADDGF107991071021008001001001KA1240N+02081MA1999999097751MD1999999+0041REMSYN076AAXX  05124 82983 32595 71408 10232 20162 39775 40195 87200 333 20208 58004;
0137829830999992005080518004-09383-040483FM-12+037099999V0201401N004112200019N0020001N1+02961+01381101491ADDGF104991041011008001001001MA1999999097331MD1999999+0021REMSYN070AAXX  05184 82983 32595 41408 10296 20138 39733 40149 84100 333 58002;
0178829830999992005080600004-09383-040483FM-12+037099999V0200901N003112200019N0020001N1+02381+01581101761ADDGA1001+999999999GF100991001001999999001001KA1240M+03061MA1999999097561MD1999999+0021REMSYN082AAXX  06004 82983 32995 00906 10238 20158 39756 40176 333 10306 29056 55088 58002;
0156829830999992005080612004-09383-040483FM-12+037099999V0201401N004110075019N0020001N1+02221+01481101991ADDGF106991061011008001001001KA1240N+01881MA1999999097771MD1999999+0021REMSYN076AAXX  06124 82983 32595 61408 10222 20148 39777 40199 86100 333 20188 58002;
0137829830999992005080618004-09383-040483FM-12+037099999V0201401N003110075019N0020001N1+02941+01281101471ADDGF105991051011008001001001MA1999999097291MD1999999-0041REMSYN070AAXX  06184 82983 32595 51406 10294 20128 39729 40147 85100 333 59004;
0155829830999992005080700004-09380-040480FM-12+037099999V0201401N004112200019N0020001N1+02321+01741101791ADDGF102991021011008001001001MA1999999097571MD1999999+0011REMSYN088AAXX  07004 82983 32595 21408 10232 20174 39757 40179 82100 333 10304 29060 55108 58001;
0143829830999992005080712004-09380-040480FM-12+037099999V0201401N004119999999N0020001N1+02341+01641101901ADDGF107991999011008001001001MA1999999097701MD1999999-0071REMSYN076AAXX  07124 82983 32595 71408 10234 20164 39770 40190 82100 333 20210 59007;
0137829830999992005080718004-09380-040480FM-12+037099999V0201401N004110075019N0020001N1+02741+01701101501ADDGF107991071021008001001001MA1999999097321MD1999999+0031REMSYN070AAXX  07184 82983 32595 71408 10274 20170 39732 40150 87200 333 58003;
0168829830999992005080800004-09383-040483FM-12+037099999V0201401N003110075019N0020001N1+02241+01691101811ADDGF105991051011008001001001KA1240M+02841MA1999999097601MD1999999+0031REMSYN088AAXX  08004 82983 32595 51406 10224 20169 39760 40181 85100 333 10284 29065 55053 58003;
0156829830999992005080812004-09383-040483FM-12+037099999V0201401N003112200019N0020001N1+02301+01531101881ADDGF102991021011008001001001KA1240N+01901MA1999999097661MD1999999-0041REMSYN076AAXX  08124 82983 32595 21406 10230 20153 39766 40188 82100 333 20190 59004;
0137829830999992005080818004-09383-040483FM-12+037099999V0201401N003112200019N0020001N1+02861+01251101411ADDGF102991021011008001001001MA1999999097231MD1999999-0091REMSYN070AAXX  08184 82983 32595 21406 10286 20125 39723 40141 82100 333 59009;
0178829830999992005080900004-09383-040483FM-12+037099999V0201401N002612200019N0020001N1+02461+01321101641ADDGA1001+999999999GF100991001001999999001001KA1240M+03021MA1999999097451MD1999999-0151REMSYN082AAXX  09004 82983 32995 01405 10246 20132 39745 40164 333 10302 29049 55109 59015;
0156829830999992005080912004-09383-040483FM-12+037099999V0201401N003112200019N0020001N1+02341+01551101921ADDGF103991031011008001001001KA1240N+01821MA1999999097731MD1999999+0071REMSYN076AAXX  09124 82983 32595 31406 10234 20155 39773 40192 83100 333 20182 58007;
0137829830999992005080918004-09383-040483FM-12+037099999V0201401N002612200019N0020001N1+03081+01221101341ADDGF102991021011008001001001MA1999999097181MD1999999-0051REMSYN070AAXX  09184 82983 32595 21405 10308 20122 39718 40134 82100 333 59005;
0178829830999992005081000004-09383-040483FM-12+037099999V0201401N003112200019N0020001N1+02561+01441101591ADDGA1001+999999999GF100991001001999999001001KA1240M+03161MA1999999097411MD1999999-0041REMSYN082AAXX  10004 82983 32995 01406 10256 20144 39741 40159 333 10316 29048 55105 59004;
0156829830999992005081012004-09383-040483FM-12+037099999V0201401N003112200019N0020001N1+02381+01631101871ADDGF103991021011008001001011KA1240N+02081MA1999999097681MD1999999-0051REMSYN076AAXX  10124 82983 32595 31406 10238 20163 39768 40187 82101 333 20208 59005;
0137829830999992005081018004-09383-040483FM-12+037099999V0201401N003112200019N0020001N1+03081+01361101341ADDGF103991021011008001001011MA1999999097181MD1999999+0001REMSYN070AAXX  10184 82983 32595 31406 10308 20136 39718 40134 82101 333 58000;
0178829830999992005081100004-09383-040483FM-12+037099999V0201401N003112200019N0020001N1+02641+01421101621ADDGA1001+999999999GF100991001001999999001001KA1240M+03141MA1999999097451MD1999999+0041REMSYN082AAXX  11004 82983 32995 01406 10264 20142 39745 40162 333 10314 29048 55105 58004;
0156829830999992005081112004-09383-040483FM-12+037099999V0200901N004110075019N0020001N1+02441+01481101921ADDGF106991061011008001001001KA1240N+02161MA1999999097741MD1999999+0061REMSYN076AAXX  11124 82983 32595 60908 10244 20148 39774 40192 86100 333 20216 58006;
0137829830999992005081118004-09383-040483FM-12+037099999V0201401N003112200019N0020001N1+03101+01541101371ADDGF103991021011008001001011MA1999999097211MD1999999+0131REMSYN070AAXX  11184 82983 32595 31406 10310 20154 39721 40137 82101 333 58013;
0178829830999992005081200004-09383-040483FM-12+037099999V0201401N002612200019N0020001N1+02641+01451101611ADDGA1001+999999999GF100991001001999999001001KA1240M+03201MA1999999097431MD1999999-0021REMSYN082AAXX  12004 82983 32995 01405 10264 20145 39743 40161 333 10320 29048 55098 59002;
0156829830999992005081212004-09383-040483FM-12+037099999V0200901N003110450019N0020001N1+02441+01691101781ADDGF106991041011008001021001KA1240N+02181MA1999999097601MD1999999-0141REMSYN076AAXX  12124 82983 32595 60906 10244 20169 39760 40178 84120 333 20218 59014;
0137829830999992005081218004-09383-040483FM-12+037099999V0201401N002610450019N0020001N1+03181+01401101141ADDGF106991021011008001011021MA1999999097001MD1999999-0211REMSYN070AAXX  12184 82983 32595 61405 10318 20140 39700 40114 82112 333 59021;
0178829830999992005081300004-09383-040483FM-12+037099999V0201801N003112200019N0020001N1+02701+01781101471ADDGA1001+999999999GF100991001001999999001001KA1240M+03281MA1999999097311MD1999999-0121REMSYN082AAXX  13004 82983 32995 01806 10270 20178 39731 40147 333 10328 29053 55091 59012;
0143829830999992005081312004-09380-040480FM-12+037099999V0201401N004112200019N0020001N1+02461+01521101691ADDGF103991011011008001001011MA1999999097531MD1999999-0071REMSYN076AAXX  13124 82983 32595 31408 10246 20152 39753 40169 81101 333 20198 59007;
0137829830999992005081318004-09380-040480FM-12+037099999V0201401N004112200019N0020001N1+03161+01291101141ADDGF104991021011008001001011MA1999999097001MD1999999+0001REMSYN070AAXX  13184 82983 32595 41408 10316 20129 39700 40114 82101 333 58000;
0165829830999992005081400004-09380-040480FM-12+037099999V0201401N003112200019N0020001N1+02641+01321101431ADDGA1001+999999999GF100991001001999999001001MA1999999097271MD1999999-0041REMSYN082AAXX  14004 82983 32995 01406 10264 20132 39727 40143 333 10328 29044 55103 59004;
0143829830999992005081412004-09380-040480FM-12+037099999V0201401N003110075019N0020001N1+02401+01891101761ADDGF106991061011008001001001MA1999999097591MD1999999+0061REMSYN076AAXX  14124 82983 32595 61406 10240 20189 39759 40176 86100 333 20212 58006;
0137829830999992005081418004-09380-040480FM-12+037099999V0200901N004110075019N0020001N1+03121+01561101281ADDGF105991051011008001001001MA1999999097141MD1999999+0141REMSYN070AAXX  14184 82983 32595 50908 10312 20156 39714 40128 85100 333 58014;
0155829830999992005081500004-09380-040480FM-12+037099999V0201401N003112200019N0020001N1+02561+01701101631ADDGF102991001001999999001011MA1999999097461MD1999999+0191REMSYN088AAXX  15004 82983 32595 21406 10256 20170 39746 40163 80001 333 10322 29058 55089 58019;
0143829830999992005081512004-09380-040480FM-12+037099999V0201401N004112200019N0020001N1+02361+01611101911ADDGF103991031011008001001001MA1999999097721MD1999999+0131REMSYN076AAXX  15124 82983 32595 31408 10236 20161 39772 40191 83100 333 20214 58013;
0137829830999992005081518004-09380-040480FM-12+037099999V0201401N003119999999N0020001N1+03081+01521101381ADDGF105991999011008001001001MA1999999097241MD1999999+0101REMSYN070AAXX  15184 82983 32595 51406 10308 20152 39724 40138 84100 333 58010;
0187829830999992005081600004-09383-040483FM-12+037099999V0201401N004112200019N0020001N1+02521+01841101681ADDGF102991021011008001001001KA1240M+03161MA1999999999999MD1999999+0041REMSYN088AAXX  16004 82983 32595 21408 10252 20184 39050 40168 82100 333 10316 29058 55109 58004;EQDQ01 090503APOSP 
0201829830999992005081612004-09383-040483FM-12+037099999V0201401N003110075019N0020001N1+02241+01941101891ADDAA124003091AY161061AY251061GF107991071051008001001001KA1240N+02121MA1999999097701MD1999999-0021MW1021REMSYN088AAXX  16124 82983 21595 71406 10224 20194 39770 40189 70265 87500 333 20212 59002 60034;
0137829830999992005081618004-09383-040483FM-12+037099999V0201401N005110075019N0020001N1+02861+01781101411ADDGF106991061021008001001001MA1999999097251MD1999999+0011REMSYN070AAXX  16184 82983 32595 61410 10286 20178 39725 40141 86200 333 58001;
0178829830999992005081700004-09383-040483FM-12+037099999V0201401N002612200019N0020001N1+02461+01521101711ADDGA1001+999999999GF100991001001999999001001KA1240M+03061MA1999999097531MD1999999+0031REMSYN082AAXX  17004 82983 32995 01405 10246 20152 39753 40171 333 10306 29062 55054 58003;
0156829830999992005081712004-09383-040483FM-12+037099999V0201401N003110075019N0020001N1+02221+01671101871ADDGF106991061021008001001001KA1240N+01881MA1999999097671MD1999999-0031REMSYN076AAXX  17124 82983 32595 61406 10222 20167 39767 40187 86200 333 20188 59003;
0137829830999992005081718004-09383-040483FM-12+037099999V0201401N005110075019N0020001N1+02961+01501101301ADDGF106991061011008001001001MA1999999097141MD1999999-0111REMSYN070AAXX  17184 82983 32595 61410 10296 20150 39714 40130 86100 333 59011;
0168829830999992005081800004-09383-040483FM-12+037099999V0201401N004112200019N0020001N1+02541+01761101641ADDGF102991021011008001001001KA1240M+03121MA1999999097461MD1999999-0071REMSYN088AAXX  18004 82983 32595 21408 10254 20176 39746 40164 82100 333 10312 29059 55101 59007;
0156829830999992005081812004-09383-040483FM-12+037099999V0201401N004110075019N0020001N1+02361+01561101881ADDGF106991061011008001001001KA1240N+02361MA1999999097691MD1999999+0021REMSYN076AAXX  18124 82983 32595 61408 10236 20156 39769 40188 86100 333 20236 58002;
0137829830999992005081818004-09383-040483FM-12+037099999V0200901N005110075019N0020001N1+02881+01641101421ADDGF106991061011008001001001MA1999999097241MD1999999+0101REMSYN070AAXX  18184 82983 32595 60910 10288 20164 39724 40142 86100 333 58010;
0178829830999992005081900004-09383-040483FM-12+037099999V0201401N003112200019N0020001N1+02521+01431101621ADDGA1001+999999999GF100991001001999999001001KA1240M+03001MA1999999097441MD1999999-0021REMSYN082AAXX  19004 82983 32995 01406 10252 20143 39744 40162 333 10300 29051 55086 59002;
0156829830999992005081912004-09383-040483FM-12+037099999V0201401N004112200019N0020001N1+02401+01551101901ADDGF105991031011008001001011KA1240N+02041MA1999999097721MD1999999+0031REMSYN076AAXX  19124 82983 32595 51408 10240 20155 39772 40190 83101 333 20204 58003;
0137829830999992005081918004-09383-040483FM-12+037099999V0201401N003110450019N0020001N1+03061+01251101401ADDGF106991021011008001021001MA1999999097241MD1999999+0001REMSYN070AAXX  19184 82983 32595 61406 10306 20125 39724 40140 82120 333 58000;
0168829830999992005082000004-09383-040483FM-12+037099999V0201801N004112200019N0020001N1+02461+01781101721ADDGF102991011011008001001011KA1240M+03181MA1999999097541MD1999999+0101REMSYN088AAXX  20004 82983 32595 21808 10246 20178 39754 40172 81101 333 10318 29056 55106 58010;
0201829830999992005082012004-09383-040483FM-12+037099999V0201401N004112200019N0020001N1+02261+01541101961ADDAA124000891AY151061AY211061GF102991021011008001001001KA1240N+01941MA1999999097761MD1999999+0041MW1011REMSYN088AAXX  20124 82983 21595 21408 10226 20154 39776 40196 70151 82100 333 20194 58004 69984;
0147829830999992005082018004-09383-040483FM-12+037099999V0201401N004112200019N0020001N1+02941+01191101401ADDGA1001+999999999GF100991001001999999001001MA1999999097221MD1999999-0021REMSYN064AAXX  20184 82983 32995 01408 10294 20119 39722 40140 333 59002;
0165829830999992005082100004-09380-040480FM-12+037099999V0201801N002612200019N0020001N1+02441+01481101701ADDGA1001+999999999GF100991001001999999001001MA1999999097511MD1999999-0031REMSYN082AAXX  21004 82983 32995 01805 10244 20148 39751 40170 333 10308 29052 55109 59003;
0143829830999992005082112004-09380-040480FM-12+037099999V0201401N004111050019N0020001N1+02321+01741101811ADDGF105991011011008001021011MA1999999097621MD1999999-0141REMSYN076AAXX  21124 82983 32595 51408 10232 20174 39762 40181 81121 333 20198 59014;
0137829830999992005082118004-09380-040480FM-12+037099999V0201401N004110075019N0020001N1+02761+01421101321ADDGF108991081021008001001001MA1999999097141MD1999999-0141REMSYN070AAXX  21184 82983 32595 81408 10276 20142 39714 40132 88200 333 59014;
0187829830999992005082200004-09383-040483FM-12+037099999V0201401N003119999999N0020001N1+02461+01731101631ADDGF108991999021008001001001KA1240M+02901MA1999999097451MD1999999-0061REMSYN088AAXX  22004 82983 32595 81406 10246 20173 39745 40163 81200 333 10290 29060 55063 59006;EQDQ01+000012SCOTLC
0156829830999992005082212004-09383-040483FM-12+037099999V0201401N004110075019N0020001N1+02441+01531101721ADDGF106991061011008001001001KA1240N+02141MA1999999097541MD1999999-0081REMSYN076AAXX  22124 82983 32595 61408 10244 20153 39754 40172 86100 333 20214 59008;
0137829830999992005082218004-09383-040483FM-12+037099999V0201401N003110075019N0020001N1+02961+01341101251ADDGF107991071051008001001001MA1999999097111MD1999999-0031REMSYN070AAXX  22184 82983 32595 71406 10296 20134 39711 40125 87500 333 59003;
0168829830999992005082300004-09383-040483FM-12+037099999V0201401N004112200019N0020001N1+02541+01361101611ADDGF102991021011008001001001KA1240M+03041MA1999999097441MD1999999-0011REMSYN088AAXX  23004 82983 32595 21408 10254 20136 39744 40161 82100 333 10304 29048 55059 59001;
0156829830999992005082312004-09383-040483FM-12+037099999V0201401N004110075019N0020001N1+02301+01511101841ADDGF106991061011008001001001KA1240N+01881MA1999999097651MD1999999+0111REMSYN076AAXX  23124 82983 32595 61408 10230 20151 39765 40184 86100 333 20188 58011;
0137829830999992005082318004-09383-040483FM-12+037099999V0200901N002612200019N0020001N1+03061+01341101351ADDGF103991031021008001001001MA1999999097181MD1999999+0071REMSYN070AAXX  23184 82983 32595 30905 10306 20134 39718 40135 83200 333 58007;
0178829830999992005082400004-09383-040483FM-12+037099999V0201401N002612200019N0020001N1+02601+01541101561ADDGA1001+999999999GF100991001001999999001001KA1240M+03141MA1999999097381MD1999999-0061REMSYN082AAXX  24004 82983 32995 01405 10260 20154 39738 40156 333 10314 29050 55110 59006;
0175829830999992005082412004-09383-040483FM-12+037099999V0201401N003119999999N0020001N1+02341+01691101791ADDGF107991999021008001001001KA1240N+02201MA1999999097601MD1999999-0051REMSYN076AAXX  24124 82983 32595 71406 10234 20169 39760 40179 83200 333 20220 59005;EQDQ01+000032SCOTLC
0137829830999992005082418004-09383-040483FM-12+037099999V0200901N002610075019N0020001N1+02921+01531101401ADDGF105991051011008001001001MA1999999097241MD1999999+0081REMSYN070AAXX  24184 82983 32595 50905 10292 20153 39724 40140 85100 333 58008;
0168829830999992005082500004-09383-040483FM-12+037099999V0201401N003110075019N0020001N1+02781+01371101581ADDGF106991061031008001001001KA1240M+03141MA1999999097421MD1999999+0041REMSYN088AAXX  25004 82983 32595 61406 10278 20137 39742 40158 86300 333 10314 29048 55072 58004;
0156829830999992005082512004-09383-040483FM-12+037099999V0201401N003112200019N0020001N1+02361+01591101771ADDGF104991041011008001001001KA1240N+02081MA1999999097591MD1999999-0011REMSYN076AAXX  25124 82983 32595 41406 10236 20159 39759 40177 84100 333 20208 59001;
0137829830999992005082518004-09383-040483FM-12+037099999V0201401N003112200019N0020001N1+03141+01221101121ADDGF101991011011008001001001MA1999999096981MD1999999-0261REMSYN070AAXX  25184 82983 32595 11406 10314 20122 39698 40112 81100 333 59026;
0178829830999992005082600004-09383-040483FM-12+037099999V0201401N003112200019N0020001N1+02741+01341101281ADDGA1001+999999999GF100991001001999999001001KA1240M+03301MA1999999097141MD1999999-0281REMSYN082AAXX  26004 82983 32995 01406 10274 20134 39714 40128 333 10330 29044 55102 59028;
0156829830999992005082612004-09383-040483FM-12+037099999V0201401N004112200019N0020001N1+02401+01521101681ADDGF101991011011008001001001KA1240N+02061MA1999999097511MD1999999-0081REMSYN076AAXX  26124 82983 32595 11408 10240 20152 39751 40168 81100 333 20206 59008;
0147829830999992005082618004-09383-040483FM-12+037099999V0201401N004112200019N0020001N1+02401+01321101241ADDGA1001+999999999GF100991001001999999001001MA1999999097051MD1999999+0071REMSYN064AAXX  26184 82983 32995 01408 10240 20132 39705 40124 333 58007;
0178829830999992005082700004-09383-040483FM-12+037099999V0201401N003112200019N0020001N1+02581+01611101531ADDGA1001+999999999GF100991001001999999001001KA1240M+03201MA1999999097361MD1999999+0221REMSYN082AAXX  27004 82983 32995 01406 10258 20161 39736 40153 333 10320 29050 55110 58022;
0156829830999992005082712004-09383-040483FM-12+037099999V0201401N004110075019N0020001N1+02341+01521101771ADDGF106991061011008001001001KA1240N+01981MA1999999097591MD1999999+0081REMSYN076AAXX  27124 82983 32595 61408 10234 20152 39759 40177 86100 333 20198 58008;
0147829830999992005082718004-09383-040483FM-12+037099999V0201401N003112200019N0020001N1+03161+01091101161ADDGA1001+999999999GF100991001001999999001001MA1999999097021MD1999999-0031REMSYN064AAXX  27184 82983 32995 01406 10316 20109 39702 40116 333 59003;
0178829830999992005082800004-09383-040483FM-12+037099999V0201401N002612200019N0020001N1+02681+01491101501ADDGA1001+999999999GF100991001001999999001001KA1240M+03261MA1999999097341MD1999999-0021REMSYN082AAXX  28004 82983 32995 01405 10268 20149 39734 40150 333 10326 29046 55110 59002;
0156829830999992005082812004-09383-040483FM-12+037099999V0201401N005110075019N0020001N1+02401+01631101781ADDGF108991081051008001999999KA1240N+02081MA1999999097601MD1999999+0011REMSYN076AAXX  28124 82983 32595 81410 10240 20163 39760 40178 885// 333 20208 58001;
0137829830999992005082818004-09383-040483FM-12+037099999V0201401N003112200019N0020001N1+03101+01421101101ADDGF104991041011008001001001MA1999999096961MD1999999-0061REMSYN070AAXX  28184 82983 32595 41406 10310 20142 39696 40110 84100 333 59006;
0178829830999992005082900004-09383-040483FM-12+037099999V0200901N001512200019N0020001N1+02721+01561101301ADDGA1001+999999999GF100991001001999999001001KA1240M+03241MA1999999097161MD1999999-0181REMSYN082AAXX  29004 82983 32995 00903 10272 20156 39716 40130 333 10324 29049 55098 59018;
0156829830999992005082912004-09383-040483FM-12+037099999V0201401N004110075019N0020001N1+02461+01681101671ADDGF105991051011008001001001KA1240N+02201MA1999999097511MD1999999-0091REMSYN076AAXX  29124 82983 32595 51408 10246 20168 39751 40167 85100 333 20220 59009;
0137829830999992005082918004-09383-040483FM-12+037099999V0201401N003110075019N0020001N1+03141+01171101041ADDGF105991051011008001001001MA1999999096911MD1999999-0051REMSYN070AAXX  29184 82983 32595 51406 10314 20117 39691 40104 85100 333 59005;
0168829830999992005083000004-09383-040483FM-12+037099999V0200901N004110075019N0020001N1+02801+01501101351ADDGF107991071021008001001001KA1240M+03261MA1999999097211MD1999999+0051REMSYN088AAXX  30004 82983 32595 70908 10280 20150 39721 40135 87200 333 10326 29046 55100 58005;
0156829830999992005083012004-09383-040483FM-12+037099999V0200901N004112200019N0020001N1+02441+01641101671ADDGF102991011011008001001011KA1240N+02141MA1999999097511MD1999999+0001REMSYN076AAXX  30124 82983 32595 20908 10244 20164 39751 40167 81101 333 20214 58000;
0137829830999992005083018004-09383-040483FM-12+037099999V0200901N004112200019N0020001N1+03261+01171101111ADDGF101991011011008001001001MA1999999096981MD1999999+0071REMSYN070AAXX  30184 82983 32595 10908 10326 20117 39698 40111 81100 333 58007;
0178829830999992005083100004-09383-040483FM-12+037099999V0201401N004112200019N0020001N1+02741+01441101481ADDGA1001+999999999GF100991001001999999001001KA1240M+03361MA1999999097331MD1999999+0121REMSYN082AAXX  31004 82983 32995 01408 10274 20144 39733 40148 333 10336 29045 55103 58012;
0156829830999992005083112004-09383-040483FM-12+037099999V0200901N005112200019N0020001N1+02341+01551101681ADDGF102991021011008001001001KA1240N+02081MA1999999097521MD1999999+0011REMSYN076AAXX  31124 82983 32595 20910 10234 20155 39752 40168 82100 333 20208 58001;
0147829830999992005083118004-09383-040483FM-12+037099999V0200901N004112200019N0020001N1+03161+01141101011ADDGA1001+999999999GF100991001001999999001001MA1999999096881MD1999999-0101REMSYN064AAXX  31184 82983 32995 00908 10316 20114 39688 40101 333 59010;
0178829830999992005090100004-09383-040483FM-12+037099999V0200901N004112200019N0020001N1+02681+01351101321ADDGA1001+999999999GF100991001001999999001001KA1240M+03261MA1999999097161MD1999999-0171REMSYN082AAXX  01004 82983 32995 00908 10268 20135 39716 40132 333 10326 29044 55104 59017;
0156829830999992005090112004-09383-040483FM-12+037099999V0201401N004110075019N0020001N1+02441+01531101671ADDGF105991051011008001001001KA1240N+01981MA1999999097521MD1999999+0001REMSYN076AAXX  01124 82983 32595 51408 10244 20153 39752 40167 85100 333 20198 58000;
0178829830999992005090200004-09383-040483FM-12+037099999V0200901N002612200019N0020001N1+02641+01581101441ADDGA1001+999999999GF100991001001999999001001KA1240M+03201MA1999999097271MD1999999+0111REMSYN082AAXX  02004 82983 32995 00905 10264 20158 39727 40144 333 10320 29054 55106 58011;
0156829830999992005090212004-09383-040483FM-12+037099999V0201401N004110075019N0020001N1+02441+01741101741ADDGF106991061021008001001001KA1240N+02181MA1999999097561MD1999999+0041REMSYN076AAXX  02124 82983 32595 61408 10244 20174 39756 40174 86200 333 20218 58004;
0178829830999992005090300004-09383-040483FM-12+037099999V0201401N003112200019N0020001N1+02841+01431101361ADDGA1001+999999999GF100991001001999999001001KA1240M+03241MA1999999097201MD1999999-0071REMSYN082AAXX  03004 82983 32995 01406 10284 20143 39720 40136 333 10324 29050 55087 59007;
0166829830999992005090312004-09383-040483FM-12+037099999V0200901N003112200019N0020001N1+02421+01621101631ADDGA1001+999999999GF100991001001999999001001KA1240N+02101MA1999999097481MD1999999-0081REMSYN070AAXX  03124 82983 32995 00906 10242 20162 39748 40163 333 20210 59008;
0178829830999992005090400004-09383-040483FM-12+037099999V0201401N002612200019N0020001N1+02821+01411101331ADDGA1001+999999999GF100991001001999999001001KA1240M+03381MA1999999097191MD1999999-0011REMSYN082AAXX  04004 82983 32995 01405 10282 20141 39719 40133 333 10338 29048 55105 59001;
0156829830999992005090412004-09383-040483FM-12+037099999V0201401N004112200019N0020001N1+02401+01631101731ADDGF103991031011008001001001KA1240N+02081MA1999999097561MD1999999+0081REMSYN076AAXX  04124 82983 32595 31408 10240 20163 39756 40173 83100 333 20208 58008;
0168829830999992005090500004-09383-040483FM-12+037099999V0201401N003112200019N0020001N1+02761+01321101371ADDGF102991021011008001001001KA1240M+03281MA1999999097221MD1999999+0031REMSYN088AAXX  05004 82983 32595 21406 10276 20132 39722 40137 82100 333 10328 29048 55107 58003;
0156829830999992005090512004-09383-040483FM-12+037099999V0201401N004110075019N0020001N1+02521+01741101681ADDGF106991061011008001001001KA1240N+02321MA1999999097531MD1999999-0031REMSYN076AAXX  05124 82983 32595 61408 10252 20174 39753 40168 86100 333 20232 59003;
0178829830999992005090600004-09383-040483FM-12+037099999V0200901N003112200019N0020001N1+02781+01261101341ADDGA1001+999999999GF100991001001999999001001KA1240M+03341MA1999999097211MD1999999-0011REMSYN082AAXX  06004 82983 32995 00906 10278 20126 39721 40134 333 10334 29047 55109 59001;
0156829830999992005090612004-09383-040483FM-12+037099999V0200901N004110075019N0020001N1+02461+01731101661ADDGF107991071021008001001001KA1240N+02121MA1999999097501MD1999999-0031REMSYN076AAXX  06124 82983 32595 70908 10246 20173 39750 40166 87200 333 20212 59003;
0178829830999992005090700004-09383-040483FM-12+037099999V0200901N003112200019N0020001N1+02881+01311101241ADDGA1001+999999999GF100991001001999999001001KA1240M+03421MA1999999097121MD1999999+0011REMSYN082AAXX  07004 82983 32995 00906 10288 20131 39712 40124 333 10342 29047 55085 58001;
0156829830999992005090712004-09383-040483FM-12+037099999V0200901N004112200019N0020001N1+02561+01721101661ADDGF104991041011008001001001KA1240N+02561MA1999999097521MD1999999+0021REMSYN076AAXX  07124 82983 32595 40908 10256 20172 39752 40166 84100 333 20256 58002;
0178829830999992005090800004-09383-040483FM-12+037099999V0201401N002612200019N0020001N1+02801+01351101401ADDGA1001+999999999GF100991001001999999001001KA1240M+03301MA1999999097261MD1999999+0141REMSYN082AAXX  08004 82983 32995 01405 10280 20135 39726 40140 333 10330 29047 55084 58014;
0156829830999992005090812004-09383-040483FM-12+037099999V0200901N003110075019N0020001N1+02621+01671101791ADDGF106991061011008001001001KA1240N+02321MA1999999097641MD1999999+0121REMSYN076AAXX  08124 82983 32595 60906 10262 20167 39764 40179 86100 333 20232 58012;
0168829830999992005090900004-09383-040483FM-12+037099999V0201401N005112200019N0020001N1+02781+01671101151ADDGF103991031011008001001001KA1240M+03401MA1999999097411MD1999999+0111REMSYN088AAXX  09004 82983 32595 31410 10278 20167 39741 40115 83100 333 10340 29053 55094 58011;
0156829830999992005090912004-09383-040483FM-12+037099999V0201401N004110075019N0020001N1+02401+01551101931ADDGF105991051011008001001001KA1240N+02201MA1999999097771MD1999999+0131REMSYN076AAXX  09124 82983 32595 51408 10240 20155 39777 40193 85100 333 20220 58013;
0178829830999992005091000004-09383-040483FM-12+037099999V0201401N003112200019N0020001N1+02661+01301101671ADDGA1001+999999999GF100991001001999999001001KA1240M+03201MA1999999097501MD1999999+0091REMSYN082AAXX  10004 82983 32995 01406 10266 20130 39750 40167 333 10320 29049 55097 58009;
0156829830999992005091012004-09383-040483FM-12+037099999V0201401N004110075019N0020001N1+02461+01581101951ADDGF106991061011008001001001KA1240N+02001MA1999999097771MD1999999+0001REMSYN076AAXX  10124 82983 32595 61408 10246 20158 39777 40195 86100 333 20200 58000;
0178829830999992005091100004-09383-040483FM-12+037099999V0201401N005112200019N0020001N1+02581+01641101671ADDGA1001+999999999GF100991001001999999001001KA1240M+03201MA1999999097501MD1999999+0001REMSYN082AAXX  11004 82983 32995 01410 10258 20164 39750 40167 333 10320 29057 55104 58000;
0156829830999992005091112004-09383-040483FM-12+037099999V0201401N004110075019N0020001N1+02421+01571101861ADDGF107991071021008001001001KA1240N+02141MA1999999097681MD1999999-0091REMSYN076AAXX  11124 82983 32595 71408 10242 20157 39768 40186 87200 333 20214 59009;
0178829830999992005091200004-09383-040483FM-12+037099999V0201401N003112200019N0020001N1+02721+01391101511ADDGA1001+999999999GF100991001001999999001001KA1240M+03241MA1999999097531MD1999999-0151REMSYN082AAXX  12004 82983 32995 01406 10272 20139 39753 40151 333 10324 29049 55103 59015;
0156829830999992005091212004-09383-040483FM-12+037099999V0201401N004110075019N0020001N1+02541+01601101861ADDGF106991061011008001001001KA1240N+02121MA1999999097701MD1999999+0021REMSYN076AAXX  12124 82983 32595 61408 10254 20160 39770 40186 86100 333 20212 58002;
0178829830999992005091300004-09383-040483FM-12+037099999V0201401N005112200019N0020001N1+02621+01811101571ADDGA1001+999999999GF100991001001999999001001KA1240M+03161MA1999999097421MD1999999+0071REMSYN082AAXX  13004 82983 32995 01410 10262 20181 39742 40157 333 10316 29059 55082 58007;
0156829830999992005091312004-09383-040483FM-12+037099999V0201401N004110075019N0020001N1+02521+01691101751ADDGF105991051011008001001001KA1240N+02221MA1999999097581MD1999999-0121REMSYN076AAXX  13124 82983 32595 51408 10252 20169 39758 40175 85100 333 20222 59012;
0156829830999992005091412004-09383-040483FM-12+037099999V0201801N003111050019N0020001N1+02461+01611101801ADDGF105991021011008001001051KA1240N+02161MA1999999097631MD1999999+0051REMSYN076AAXX  14124 82983 32595 51806 10246 20161 39763 40180 82105 333 20216 58005;
0178829830999992005091500004-09383-040483FM-12+037099999V0200901N002612200019N0020001N1+02621+01431101591ADDGA1001+999999999GF100991001001999999001001KA1240M+03221MA1999999098431MD1999999+0131REMSYN082AAXX  15004 82983 32995 00905 10262 20143 39843 40159 333 10322 29052 55103 58013;
0156829830999992005091512004-09383-040483FM-12+037099999V0201401N003110075019N0020001N1+02501+01561101981ADDGF106991061011008001001001KA1240N+02181MA1999999097801MD1999999+0171REMSYN076AAXX  15124 82983 32595 61406 10250 20156 39780 40198 86100 333 20218 58017;
0178829830999992005091600004-09383-040483FM-12+037099999V0201401N002612200019N0020001N1+02661+01531101661ADDGA1001+999999999GF100991001001999999001001KA1240M+03281MA1999999097501MD1999999+0071REMSYN082AAXX  16004 82983 32995 01405 10266 20153 39750 40166 333 10328 29052 55105 58007;
0156829830999992005091612004-09383-040483FM-12+037099999V0201401N003110075019N0020001N1+02381+01611101951ADDGF106991061021008001001001KA1240N+02161MA1999999097761MD1999999-0041REMSYN076AAXX  16124 82983 32595 61406 10238 20161 39776 40195 86200 333 20216 59004;
0178829830999992005091700004-09383-040483FM-12+037099999V0201401N001512200019N0020001N1+02641+01321101531ADDGA1001+999999999GF100991001001999999001001KA1240M+03201MA1999999097361MD1999999-0141REMSYN082AAXX  17004 82983 32995 01403 10264 20132 39736 40153 333 10320 29050 55088 59014;
0166829830999992005091712004-09383-040483FM-12+037099999V0201401N003112200019N0020001N1+02501+01391101731ADDGA1001+999999999GF100991001001999999001001KA1240N+02101MA1999999097551MD1999999-0211REMSYN070AAXX  17124 82983 32995 01406 10250 20139 39755 40173 333 20210 59021;
0178829830999992005091800004-09383-040483FM-12+037099999V0201401N003112200019N0020001N1+02761+01461101321ADDGA1001+999999999GF100991001001999999001001KA1240M+03421MA1999999097171MD1999999-0191REMSYN082AAXX  18004 82983 32995 01406 10276 20146 39717 40132 333 10342 29047 55106 59019;
0156829830999992005091812004-09383-040483FM-12+037099999V0201401N003110075019N0020001N1+02421+01671101771ADDGF108991081051008001999999KA1240N+02261MA1999999097601MD1999999+0051REMSYN076AAXX  18124 82983 32595 81406 10242 20167 39760 40177 885// 333 20226 58005;
0178829830999992005091900004-09383-040483FM-12+037099999V0201401N003112200019N0020001N1+02781+01411101451ADDGA1001+999999999GF100991001001999999001001KA1240M+03341MA1999999097301MD1999999+0131REMSYN082AAXX  19004 82983 32995 01406 10278 20141 39730 40145 333 10334 29080 55091 58013;
0156829830999992005091912004-09383-040483FM-12+037099999V0201401N003112200019N0020001N1+02541+01651101751ADDGF104991021011008001001011KA1240N+02161MA1999999097591MD1999999-0011REMSYN076AAXX  19124 82983 32595 41406 10254 20165 39759 40175 82101 333 20216 59001;
0178829830999992005092000004-09383-040483FM-12+037099999V0201401N003112200019N0020001N1+02861+01411101451ADDGA1001+999999999GF100991001001999999001001KA1240M+03461MA1999999097311MD1999999+0011REMSYN082AAXX  20004 82983 32995 01406 10286 20141 39731 40145 333 10346 29050 55112 58001;
0156829830999992005092012004-09383-040483FM-12+037099999V0200901N004112200019N0020001N1+02561+01611101621ADDGF103991031011008001001001KA1240N+02101MA1999999097481MD1999999-0111REMSYN076AAXX  20124 82983 32595 30908 10256 20161 39748 40162 83100 333 20210 59011;
0178829830999992005092100004-09383-040483FM-12+037099999V0200901N001512200019N0020001N1+03021+01021101141ADDGA1001+999999999GF100991001001999999001001KA1240M+03561MA1999999097041MD1999999-0291REMSYN082AAXX  21004 82983 32995 00903 10302 20102 39704 40114 333 10356 29038 55105 59029;
0175829830999992005092112004-09383-040483FM-12+037099999V0200901N003112200019N0020001N1+02741+01701101261ADDGF102991001001999999001051KA1240N+02221MA1999999097151MD1999999-0331REMSYN076AAXX  21124 82983 32595 20906 10274 20170 39715 40126 80005 333 20222 59033;EQDQ01+008002SCOLCB
0178829830999992005092200004-09383-040483FM-12+037099999V0209999C000012200019N0020001N1+02941+01361100781ADDGA1001+999999999GF100991001001999999001001KA1240M+03681MA1999999096701MD1999999-0341REMSYN082AAXX  22004 82983 32995 00000 10294 20136 39670 40078 333 10368 29043 55111 59034;
0156829830999992005092212004-09383-040483FM-12+037099999V0201401N003112200019N0020001N1+02621+01861101201ADDGF104991041011008001001001KA1240N+02481MA1999999097101MD1999999-0051REMSYN076AAXX  22124 82983 32595 41406 10262 20186 39710 40120 84100 333 20248 59005;
0178829830999992005092300004-09383-040483FM-12+037099999V0201401N004112200019N0020001N1+02881+01771101021ADDGA1001+999999999GF100991001001999999001001KA1240M+03501MA1999999096911MD1999999+0211REMSYN082AAXX  23004 82983 32995 01408 10288 20177 39691 40102 333 10350 29055 55084 58021;
0156829830999992005092312004-09383-040483FM-12+037099999V0201401N003110075019N0020001N1+02541+01781101441ADDGF108991081051008001999999KA1240N+02381MA1999999097301MD1999999+0201REMSYN076AAXX  23124 82983 32595 81406 10254 20178 39730 40144 885// 333 20238 58020;
0168829830999992005092400004-09383-040483FM-12+037099999V0201401N001510075019N0020001N1+02921+01601101191ADDGF106991061011008001001001KA1240M+03261MA1999999097071MD1999999+0161REMSYN088AAXX  24004 82983 32595 61403 10292 20160 39707 40119 86100 333 10326 29051 55050 58016;
0156829830999992005092412004-09383-040483FM-12+037099999V0201401N003112200019N0020001N1+02641+01801101371ADDGF104991021011008001021001KA1240N+02321MA1999999097261MD1999999-0041REMSYN076AAXX  24124 82983 32595 41406 10264 20180 39726 40137 82120 333 20232 59004;
0168829830999992005092500004-09383-040483FM-12+037099999V0201801N002612200019N0020001N1+03041+01411101011ADDGF103991031011008001001001KA1240M+03441MA1999999096921MD1999999-0151REMSYN088AAXX  25004 82983 32595 31805 10304 20141 39692 40101 83100 333 10344 29045 55102 59015;
0175829830999992005092512004-09383-040483FM-12+037099999V0200901N003112200019N0020001N1+02721+01621101431ADDGF103991999001008001021001KA1240N+02421MA1999999097321MD1999999+0061REMSYN076AAXX  25124 82983 32595 30906 10272 20162 39732 40143 80020 333 20242 58006;EQDQ01+000002SCOTLC
0178829830999992005092600004-09383-040483FM-12+037099999V0200901N001512200019N0020001N1+03021+01431101051ADDGA1001+999999999GF100991001001999999001001KA1240M+03501MA1999999096961MD1999999+0021REMSYN082AAXX  26004 82983 32995 00903 10302 20143 39696 40105 333 10350 29042 55104 58002;
0156829830999992005092612004-09383-040483FM-12+037099999V0200901N004112200019N0020001N1+02601+01631101581ADDGF102991021011008001001001KA1240N+02281MA1999999097461MD1999999+0141REMSYN076AAXX  26124 82983 32595 20908 10260 20163 39746 40158 82100 333 20228 58014;
0178829830999992005092700004-09383-040483FM-12+037099999V0201801N001012200019N0020001N1+02881+01351101291ADDGA1001+999999999GF100991001001999999001001KA1240M+03401MA1999999097151MD1999999+0091REMSYN082AAXX  27004 82983 32995 01802 10288 20135 39715 40129 333 10340 29044 55106 58009;
0156829830999992005092712004-09383-040483FM-12+037099999V0200901N004110075019N0020001N1+02601+01761101631ADDGF105991051011008001001001KA1240N+02301MA1999999097501MD1999999+0041REMSYN076AAXX  27124 82983 32595 50908 10260 20176 39750 40163 85100 333 20230 58004;
0168829830999992005092800004-09383-040483FM-12+037099999V0201401N001512200019N0020001N1+03101+01241101351ADDGF102991021011008001001001KA1240M+03541MA1999999097201MD1999999+0021REMSYN088AAXX  28004 82983 32595 21403 10310 20124 39720 40135 82100 333 10354 29041 55103 58002;
0156829830999992005092812004-09383-040483FM-12+037099999V0201401N004110075019N0020001N1+02661+01771101601ADDGF106991061011008001001001KA1240N+02441MA1999999097481MD1999999-0021REMSYN076AAXX  28124 82983 32595 61408 10266 20177 39748 40160 86100 333 20244 59002;
0178829830999992005092900004-09383-040483FM-12+037099999V0201401N003112200019N0020001N1+02861+01291101251ADDGA1001+999999999GF100991001001999999001001KA1240M+03301MA1999999097141MD1999999-0061REMSYN082AAXX  29004 82983 32995 01406 10286 20129 39714 40125 333 10330 29045 55089 59006;
0156829830999992005092912004-09383-040483FM-12+037099999V0201401N004110075019N0020001N1+02501+01641101701ADDGF105991051011008001001001KA1240N+02161MA1999999097501MD1999999+0021REMSYN076AAXX  29124 82983 32595 51408 10250 20164 39750 40170 85100 333 20216 58002;
0178829830999992005093000004-09383-040483FM-12+037099999V0201801N003112200019N0020001N1+02701+01631101331ADDGA1001+999999999GF100991001001999999001001KA1240M+03341MA1999999097171MD1999999+0031REMSYN082AAXX  30004 82983 32995 01806 10270 20163 39717 40133 333 10334 29054 55109 58003;
0156829830999992005093012004-09383-040483FM-12+037099999V0200901N004110075019N0020001N1+02601+01631101691ADDGF106991061011008001001001KA1240N+02241MA1999999097541MD1999999+0041REMSYN076AAXX  30124 82983 32595 60908 10260 20163 39754 40169 86100 333 20224 58004;
0178829830999992005100100004-09383-040483FM-12+037099999V0200901N002612200019N0020001N1+02981+01271101201ADDGA1001+999999999GF100991001001999999001001KA1240M+03401MA1999999097101MD1999999-0071REMSYN082AAXX  01004 82983 32995 00905 10298 20127 39710 40120 333 10340 29042 55097 59007;
0156829830999992005100112004-09383-040483FM-12+037099999V0201401N003110075019N0020001N1+02561+01751101611ADDGF107991071051008001001001KA1240N+02281MA1999999097481MD1999999-0061REMSYN076AAXX  01124 82983 32595 71406 10256 20175 39748 40161 87500 333 20228 59006;
0137829830999992005100118004-09383-040483FM-12+037099999V0201401N003112200019N0020001N1+03441+01271100991ADDGF102991021011008001001001MA1999999096901MD1999999+0021REMSYN070AAXX  01184 82983 32595 21406 10344 20127 39690 40099 82100 333 58002;
0178829830999992005100200004-09383-040483FM-12+037099999V0201801N002612200019N0020001N1+02921+01531101261ADDGA1001+999999999GF100991001001999999001001KA1240M+03501MA1999999097141MD1999999+0041REMSYN082AAXX  02004 82983 32995 01805 10292 20153 39714 40126 333 10350 29044 55088 58004;
0156829830999992005100212004-09383-040483FM-12+037099999V0201401N004112200019N0020001N1+02661+01741101481ADDGF104991041011008001001001KA1240N+02261MA1999999097361MD1999999-0121REMSYN076AAXX  02124 82983 32595 41408 10266 20174 39736 40148 84100 333 20226 59012;
0137829830999992005100218004-09383-040483FM-12+037099999V0200901N003112200019N0020001N1+03441+01331100761ADDGF101991011011008001001001MA1999999096681MD1999999-0221REMSYN070AAXX  02184 82983 32595 10906 10344 20133 39668 40076 81100 333 59022;
0178829830999992005100300004-09383-040483FM-12+037099999V0201401N003112200019N0020001N1+03061+01511101061ADDGA1001+999999999GF100991001001999999001001KA1240M+03521MA1999999096961MD1999999-0181REMSYN082AAXX  03004 82983 32995 01406 10306 20151 39696 40106 333 10352 29041 55105 59018;
0156829830999992005100312004-09383-040483FM-12+037099999V0200901N004112200019N0020001N1+02681+01701101421ADDGF104991041011008001001001KA1240N+02281MA1999999097311MD1999999-0051REMSYN076AAXX  03124 82983 32595 40908 10268 20170 39731 40142 84100 333 20228 59005;
0137829830999992005100318004-09383-040483FM-12+037099999V0200901N003112200019N0020001N1+03361+01411100791ADDGF104991041011008001001001MA1999999096711MD1999999+0031REMSYN070AAXX  03184 82983 32595 40906 10336 20141 39671 40079 84100 333 58003;
0178829830999992005100400004-09383-040483FM-12+037099999V0201401N002612200019N0020001N1+02941+01151101061ADDGA1001+999999999GF100991001001999999001001KA1240M+03501MA1999999096961MD1999999+0001REMSYN082AAXX  04004 82983 32995 01405 10294 20115 39696 40106 333 10350 29038 55110 58000;
0156829830999992005100412004-09383-040483FM-12+037099999V0200901N004110075019N0020001N1+02721+01651101391ADDGF106991061021008001001001KA1240N+02361MA1999999097281MD1999999-0031REMSYN076AAXX  04124 82983 32595 60908 10272 20165 39728 40139 86200 333 20236 59003;
0137829830999992005100418004-09383-040483FM-12+037099999V0200901N001510075019N0020001N1+03341+01351100921ADDGF106991061011008001001001MA1999999096831MD1999999+0121REMSYN070AAXX  04184 82983 32595 60903 10334 20135 39683 40092 86100 333 58012;
0168829830999992005100500004-09383-040483FM-12+037099999V0201401N002612200019N0020001N1+02981+01351101101ADDGF101991011011008001001001KA1240M+03461MA1999999097001MD1999999+0041REMSYN088AAXX  05004 82983 32595 11405 10298 20135 39700 40110 81100 333 10346 29039 55113 58004;
0156829830999992005100512004-09383-040483FM-12+037099999V0200901N004110075019N0020001N1+02621+01701101541ADDGF108991081051008001999999KA1240N+02421MA1999999097421MD1999999+0141REMSYN076AAXX  05124 82983 32595 80908 10262 20170 39742 40154 885// 333 20242 58014;
0137829830999992005100518004-09383-040483FM-12+037099999V0201401N002612200019N0020001N1+03381+01431100941ADDGF104991041011008001001001MA1999999096851MD1999999+0021REMSYN070AAXX  05184 82983 32595 41405 10338 20143 39685 40094 84100 333 58002;
0168829830999992005100600004-09383-040483FM-12+037099999V0201401N001512200019N0020001N1+03041+01641101141ADDGF102991021011008001001001KA1240M+03461MA1999999097041MD1999999+0041REMSYN088AAXX  06004 82983 32595 21403 10304 20164 39704 40114 82100 333 10346 29044 55077 58004;
0156829830999992005100612004-09383-040483FM-12+037099999V0201401N004110075019N0020001N1+02661+01741101631ADDGF106991061011008001001001KA1240N+02301MA1999999097511MD1999999+0091REMSYN076AAXX  06124 82983 32595 61408 10266 20174 39751 40163 86100 333 20230 58009;
0137829830999992005100618004-09383-040483FM-12+037099999V0201401N004110075019N0020001N1+03401+01331101091ADDGF105991051011008001001001MA1999999096991MD1999999+0141REMSYN070AAXX  06184 82983 32595 51408 10340 20133 39699 40109 85100 333 58014;
0178829830999992005100700004-09383-040483FM-12+037099999V0201401N004112200019N0020001N1+02961+01421101311ADDGA1001+999999999GF100991001001999999001001KA1240M+03501MA1999999097191MD1999999+0191REMSYN082AAXX  07004 82983 32995 01408 10296 20142 39719 40131 333 10350 29041 55090 58019;
0156829830999992005100712004-09383-040483FM-12+037099999V0201401N003110450019N0020001N1+02641+01741101731ADDGF106991041011008001011001KA1240N+02281MA1999999097611MD1999999+0101REMSYN076AAXX  07124 82983 32595 61406 10264 20174 39761 40173 84110 333 20228 58010;
0137829830999992005100718004-09383-040483FM-12+037099999V0201401N003112200019N0020001N1+03281+01291101191ADDGF106991041011008001001011MA1999999097071MD1999999+0081REMSYN070AAXX  07184 82983 32595 61406 10328 20129 39707 40119 84101 333 58008;
0178829830999992005100800004-09383-040483FM-12+037099999V0201401N004112200019N0020001N1+02901+01401101451ADDGA1001+999999999GF100991001001999999001001KA1240M+03421MA1999999097331MD1999999+0141REMSYN082AAXX  08004 82983 32995 01408 10290 20140 39733 40145 333 10342 29042 55095 58014;
0156829830999992005100812004-09383-040483FM-12+037099999V0201401N004110075019N0020001N1+02661+01591101741ADDGF106991061021008001001001KA1240N+02321MA1999999097621MD1999999+0011REMSYN076AAXX  08124 82983 32595 61408 10266 20159 39762 40174 86200 333 20232 58001;
0137829830999992005100818004-09383-040483FM-12+037099999V0201401N003112200019N0020001N1+03241+01261101171ADDGF105991021011008001001011MA1999999097041MD1999999-0031REMSYN070AAXX  08184 82983 32595 51406 10324 20126 39704 40117 82101 333 59003;
0178829830999992005100900004-09383-040483FM-12+037099999V0201401N001512200019N0020001N1+02881+01141101351ADDGA1001+999999999GF100991001001999999001001KA1240M+03381MA1999999097231MD1999999-0101REMSYN082AAXX  09004 82983 32995 01403 10288 20114 39723 40135 333 10338 29038 55102 59010;
0156829830999992005100912004-09383-040483FM-12+037099999V0201401N004112200019N0020001N1+02661+01531101671ADDGF104991041011008001001001KA1240N+02241MA1999999097541MD1999999-0081REMSYN076AAXX  09124 82983 32595 41408 10266 20153 39754 40167 84100 333 20224 59008;
0137829830999992005100918004-09383-040483FM-12+037099999V0201401N003112200019N0020001N1+03401+01181101031ADDGF101991011011008001001001MA1999999096921MD1999999-0121REMSYN070AAXX  09184 82983 32595 11406 10340 20118 39692 40103 81100 333 59012;
0178829830999992005101000004-09383-040483FM-12+037099999V0201401N001512200019N0020001N1+02901+01111101231ADDGA1001+999999999GF100991001001999999001001KA1240M+03461MA1999999097131MD1999999-0101REMSYN082AAXX  10004 82983 32995 01403 10290 20111 39713 40123 333 10346 29036 55107 59010;
0156829830999992005101012004-09383-040483FM-12+037099999V0201401N004112200019N0020001N1+02561+01621101481ADDGF104991041011008001001001KA1240N+02161MA1999999097351MD1999999-0191REMSYN076AAXX  10124 82983 32595 41408 10256 20162 39735 40148 84100 333 20216 59019;
0147829830999992005101018004-09383-040483FM-12+037099999V0201401N003112200019N0020001N1+03341+01291100901ADDGA1001+999999999GF100991001001999999001001MA1999999096781MD1999999-0141REMSYN064AAXX  10184 82983 32995 01406 10334 20129 39678 40090 333 59014;
0178829830999992005101100004-09383-040483FM-12+037099999V0201401N003112200019N0020001N1+02921+01381101191ADDGA1001+999999999GF100991001001999999001001KA1240M+03441MA1999999097071MD1999999-0061REMSYN082AAXX  11004 82983 32995 01406 10292 20138 39707 40119 333 10344 29041 55113 59006;
0156829830999992005101112004-09383-040483FM-12+037099999V0201401N004110075019N0020001N1+02501+01641101431ADDGF107991071011008001001001KA1240N+02301MA1999999097321MD1999999-0031REMSYN076AAXX  11124 82983 32595 71408 10250 20164 39732 40143 87100 333 20230 59003;
0168829830999992005101200004-09383-040483FM-12+037099999V0201401N001512200019N0020001N1+02941+01401101121ADDGF102991021011008001001001KA1240M+03381MA1999999096991MD1999999-0081REMSYN088AAXX  12004 82983 32595 21403 10294 20140 39699 40112 82100 333 10338 29046 55081 59008;
0156829830999992005101212004-09383-040483FM-12+037099999V0201401N003110075019N0020001N1+02581+01721101531ADDGF106991061011008001001001KA1240N+02341MA1999999097401MD1999999+0081REMSYN076AAXX  12124 82983 32595 61406 10258 20172 39740 40153 86100 333 20234 58008;
0168829830999992005101300004-09383-040483FM-12+037099999V0201801N001510075019N0020001N1+02901+01361101091ADDGF105991051011008001001001KA1240M+03341MA1999999096971MD1999999-0021REMSYN088AAXX  13004 82983 32595 51803 10290 20136 39697 40109 85100 333 10334 29045 55083 59002;
0156829830999992005101312004-09383-040483FM-12+037099999V0201401N004110075019N0020001N1+02561+01591101531ADDGF106991061011008001001001KA1240N+02241MA1999999097411MD1999999+0011REMSYN076AAXX  13124 82983 32595 61408 10256 20159 39741 40153 86100 333 20224 58001;
0168829830999992005101400004-09383-040483FM-12+037099999V0201401N001510075019N0020001N1+02961+01211101091ADDGF105991051011008001001001KA1240M+03441MA1999999096971MD1999999+0001REMSYN088AAXX  14004 82983 32595 51403 10296 20121 39697 40109 85100 333 10344 29041 55103 58000;
0156829830999992005101412004-09383-040483FM-12+037099999V0201401N003112200019N0020001N1+02641+01531101581ADDGF104991041011008001001001KA1240N+02281MA1999999097461MD1999999+0051REMSYN076AAXX  14124 82983 32595 41406 10264 20153 39746 40158 84100 333 20228 58005;
0168829830999992005101500004-09383-040483FM-12+037099999V0201401N002612200019N0020001N1+02961+01341101121ADDGF102991021011008001001001KA1240M+03561MA1999999097021MD1999999+0051REMSYN088AAXX  15004 82983 32595 21405 10296 20134 39702 40112 82100 333 10356 29041 55113 58005;
0166829830999992005101512004-09383-040483FM-12+037099999V0201401N004112200019N0020001N1+02581+01611101451ADDGA1001+999999999GF100991001001999999001001KA1240N+02321MA1999999097331MD1999999-0131REMSYN070AAXX  15124 82983 32995 01408 10258 20161 39733 40145 333 20232 59013;
0178829830999992005101600004-09383-040483FM-12+037099999V0201401N003112200019N0020001N1+02941+01151101091ADDGA1001+999999999GF100991001001999999001001KA1240M+03521MA1999999096971MD1999999-0051REMSYN082AAXX  16004 82983 32995 01406 10294 20115 39697 40109 333 10352 29040 55100 59005;
0166829830999992005101612004-09383-040483FM-12+037099999V0201401N004112200019N0020001N1+02521+01431101441ADDGA1001+999999999GF100991001001999999001001KA1240N+02101MA1999999097321MD1999999-0011REMSYN070AAXX  16124 82983 32995 01408 10252 20143 39732 40144 333 20210 59001;
0178829830999992005101700004-09383-040483FM-12+037099999V0201801N003112200019N0020001N1+02881+01391101151ADDGA1001+999999999GF100991001001999999001001KA1240M+03481MA1999999097021MD1999999+0051REMSYN082AAXX  17004 82983 32995 01806 10288 20139 39702 40115 333 10348 29044 55107 58005;
0156829830999992005101712004-09383-040483FM-12+037099999V0201401N004112200019N0020001N1+02641+01631101451ADDGF104991041011008001001001KA1240N+02341MA1999999097331MD1999999+0011REMSYN076AAXX  17124 82983 32595 41408 10264 20163 39733 40145 84100 333 20234 58001;
0155829830999992005101800004-09380-040480FM-12+037099999V0200901N001512200019N0020001N1+02941+01481101071ADDGF102991021011008001001001MA1999999096971MD1999999-0051REMSYN088AAXX  18004 82983 32595 20903 10294 20148 39697 40107 82100 333 10350 29045 55101 59005;
0166829830999992005101812004-09383-040483FM-12+037099999V0201401N003112200019N0020001N1+02621+01641101471ADDGA1001+999999999GF100991001001999999001001KA1240N+02221MA1999999097351MD1999999+0021REMSYN070AAXX  18124 82983 32995 01406 10262 20164 39735 40147 333 20222 58002;
0168829830999992005101900004-09383-040483FM-12+037099999V0201401N001512200019N0020001N1+03041+01371101071ADDGF102991021011008001001001KA1240M+03541MA1999999096971MD1999999+0001REMSYN088AAXX  19004 82983 32595 21403 10304 20137 39697 40107 82100 333 10354 29042 55113 58000;
0156829830999992005101912004-09383-040483FM-12+037099999V0201401N004110450019N0020001N1+02721+01681101441ADDGF106991021011008001011011KA1240N+02361MA1999999097331MD1999999-0021REMSYN076AAXX  19124 82983 32595 61408 10272 20168 39733 40144 82111 333 20236 59002;
0168829830999992005102000004-09383-040483FM-12+037099999V0201401N005110075019N0020001N1+03061+01511101191ADDGF106991061051008001001001KA1240M+03541MA1999999097091MD1999999+0121REMSYN088AAXX  20004 82983 32595 61410 10306 20151 39709 40119 86500 333 10354 29044 55095 58012;
0156829830999992005102012004-09383-040483FM-12+037099999V0201401N004112200019N0020001N1+02661+01501101561ADDGF106991041011008001001011KA1240N+02301MA1999999097441MD1999999+0111REMSYN076AAXX  20124 82983 32595 61408 10266 20150 39744 40156 84101 333 20230 58011;
0178829830999992005102100004-09383-040483FM-12+037099999V0201401N004112200019N0020001N1+02801+01391101231ADDGA1001+999999999GF100991001001999999001001KA1240M+03441MA1999999097111MD1999999+0021REMSYN082AAXX  21004 82983 32995 01408 10280 20139 39711 40123 333 10344 29044 55106 58002;
0156829830999992005102112004-09383-040483FM-12+037099999V0201401N004112200019N0020001N1+02541+01541101581ADDGF104991041011008001001001KA1240N+02121MA1999999097431MD1999999-0011REMSYN076AAXX  21124 82983 32595 41408 10254 20154 39743 40158 84100 333 20212 59001;
0168829830999992005102200004-09383-040483FM-12+037099999V0201401N004110075019N0020001N1+03001+01491101131ADDGF106991061011008001001001KA1240M+03501MA1999999096921MD1999999-0191REMSYN088AAXX  22004 82983 32595 61408 10300 20149 39692 40113 86100 333 10350 29045 55112 59019;
0156829830999992005102212004-09383-040483FM-12+037099999V0201401N004110075019N0020001N1+02721+01591101451ADDGF106991061011008001001001KA1240N+02301MA1999999097341MD1999999-0091REMSYN076AAXX  22124 82983 32595 61408 10272 20159 39734 40145 86100 333 20230 59009;
0178829830999992005102300004-09383-040483FM-12+037099999V0200901N001512200019N0020001N1+02961+01211101011ADDGA1001+999999999GF100991001001999999001001KA1240M+03441MA1999999096921MD1999999+0001REMSYN082AAXX  23004 82983 32995 00903 10296 20121 39692 40101 333 10344 29039 55112 58000;
0156829830999992005102312004-09383-040483FM-12+037099999V0201401N003110075019N0020001N1+02481+01601101461ADDGF107991071011008001001001KA1240N+02241MA1999999097321MD1999999-0021REMSYN076AAXX  23124 82983 32595 71406 10248 20160 39732 40146 87100 333 20224 59002;
0178829830999992005102400004-09383-040483FM-12+037099999V0201801N001512200019N0020001N1+02961+00921101091ADDGA1001+999999999GF100991001001999999001001KA1240M+03521MA1999999096961MD1999999+0041REMSYN082AAXX  24004 82983 32995 01803 10296 20092 39696 40109 333 10352 29038 55084 58004;
0156829830999992005102412004-09383-040483FM-12+037099999V0201401N003112200019N0020001N1+02501+01621101421ADDGF103991011011008001001011KA1240N+02221MA1999999097301MD1999999-0021REMSYN076AAXX  24124 82983 32595 31406 10250 20162 39730 40142 81101 333 20222 59002;
0178829830999992005102500004-09383-040483FM-12+037099999V0201401N003112200019N0020001N1+02961+01071101031ADDGA1001+999999999GF100991001001999999001001KA1240M+03561MA1999999096921MD1999999-0041REMSYN082AAXX  25004 82983 32995 01406 10296 20107 39692 40103 333 10356 29040 55113 59004;
0156829830999992005102512004-09383-040483FM-12+037099999V0201401N004112200019N0020001N1+02561+01501101441ADDGF102991021011008001001001KA1240N+02221MA1999999097321MD1999999+0021REMSYN076AAXX  25124 82983 32595 21408 10256 20150 39732 40144 82100 333 20222 58002;
0178829830999992005102600004-09383-040483FM-12+037099999V0201401N001512200019N0020001N1+02941+01001101021ADDGA1001+999999999GF100991001001999999001001KA1240M+03481MA1999999096911MD1999999-0011REMSYN082AAXX  26004 82983 32995 01403 10294 20100 39691 40102 333 10348 29037 55111 59001;
0156829830999992005102612004-09383-040483FM-12+037099999V0201401N004112200019N0020001N1+02641+01691101411ADDGF102991021011008001001001KA1240N+02261MA1999999097291MD1999999-0031REMSYN076AAXX  26124 82983 32595 21408 10264 20169 39729 40141 82100 333 20226 59003;
0178829830999992005102700004-09383-040483FM-12+037099999V0200501N001512200019N0020001N1+03001+01291100951ADDGA1001+999999999GF100991001001999999001001KA1240M+03541MA1999999096861MD1999999-0051REMSYN082AAXX  27004 82983 32995 00503 10300 20129 39686 40095 333 10354 29042 55114 59005;
0156829830999992005102712004-09383-040483FM-12+037099999V0201401N003112200019N0020001N1+02861+01811101271ADDGF104991041011008001001001KA1240N+02401MA1999999097171MD1999999-0121REMSYN076AAXX  27124 82983 32595 41406 10286 20181 39717 40127 84100 333 20240 59012;
0156829830999992005102812004-09383-040483FM-12+037099999V0200901N003112200019N0020001N1+02881+01801101201ADDGF104991041011008001001001KA1240N+02501MA1999999097101MD1999999-0071REMSYN076AAXX  28124 82983 32595 40906 10288 20180 39710 40120 84100 333 20250 59007;
0178829830999992005102900004-09383-040483FM-12+037099999V0209999C000012200019N0020001N1+03041+01451100841ADDGA1001+999999999GF100991001001999999001001KA1240M+03581MA1999999096761MD1999999-0111REMSYN082AAXX  29004 82983 32995 00000 10304 20145 39676 40084 333 10358 29043 55102 59011;
0166829830999992005102912004-09383-040483FM-12+037099999V0200501N003112200019N0020001N1+02981+01761101141ADDGA1001+999999999GF100991001001999999001001KA1240N+02501MA1999999097071MD1999999-0031REMSYN070AAXX  29124 82983 32995 00506 10298 20176 39707 40114 333 20250 59003;
0178829830999992005103000004-09383-040483FM-12+037099999V0200901N001512200019N0020001N1+03261+01381100681ADDGA1001+999999999GF100991001001999999001001KA1240M+03841MA1999999096621MD1999999-0141REMSYN082AAXX  30004 82983 32995 00903 10326 20138 39662 40068 333 10384 29037 55112 59014;
0166829830999992005103012004-09383-040483FM-12+037099999V0200901N002612200019N0020001N1+03001+01781101111ADDGA1001+999999999GF100991001001999999001001KA1240N+02501MA1999999097051MD1999999-0021REMSYN070AAXX  30124 82983 32995 00905 10300 20178 39705 40111 333 20250 59002;
0178829830999992005103100004-09383-040483FM-12+037099999V0209999C000012200019N0020001N1+03121+01481100861ADDGA1001+999999999GF100991001001999999001001KA1240M+03781MA1999999096801MD1999999+0181REMSYN082AAXX  31004 82983 32995 00000 10312 20148 39680 40086 333 10378 29041 55114 58018;
0175829830999992005103112004-09383-040483FM-12+037099999V0200901N003112200019N0020001N1+02881+01911101281ADDGF103991999011008001001001KA1240N+02161MA1999999097201MD1999999+0151REMSYN076AAXX  31124 82983 32595 30906 10288 20191 39720 40128 82100 333 20216 58015;EQDQ01+000022SCOTLC
0137829830999992005103118004-09383-040483FM-12+037099999V0200901N001512200019N0020001N1+03541+01521100651ADDGF104991041021008001001001MA1999999096721MD1999999-0011REMSYN070AAXX  31184 82983 32595 40903 10354 20152 39672 40065 84200 333 59001;
0213829830999992005110100004-09383-040483FM-12+037099999V0200901N002610075019N0020001N1+03261+01511101101ADDAA106999999AY111061AY221061GF106991061051008001001001KA1240M+03661MA1999999097041MD1999999+0241MW1511REMSYN100AAXX  01004 82983 21595 60905 10326 20151 39704 40110 75112 86500 333 10366 29039 55111 58024 69901;
0156829830999992005110112004-09383-040483FM-12+037099999V0200901N003110075019N0020001N1+02901+01931101371ADDGF106991061011008001001001KA1240N+02541MA1999999097291MD1999999+0091REMSYN076AAXX  01124 82983 32595 60906 10290 20193 39729 40137 86100 333 20254 58009;
0137829830999992005110118004-09383-040483FM-12+037099999V0200901N002612200019N0020001N1+03581+01441100821ADDGF104991041011008001001001MA1999999096771MD1999999+0051REMSYN070AAXX  01184 82983 32595 40905 10358 20144 39677 40082 84100 333 58005;
0178829830999992005110200004-09383-040483FM-12+037099999V0201401N002612200019N0020001N1+03161+01471101091ADDGA1001+999999999GF100991001001999999001001KA1240M+03681MA1999999097031MD1999999-0011REMSYN082AAXX  02004 82983 32995 01405 10316 20147 39703 40109 333 10368 29039 55111 59001;
0110829830999992005110212004-09383-040483FM-12+037099999V0200101N003112200019N0020001N1+02781+01701999999ADDGF104991999999008001999999REMSYN072AAXX  02124 82983 32595 40106 10278 20170 20236 39742 40152 58013 84100;
0178829830999992005110300004-09383-040483FM-12+037099999V0201801N002612200019N0020001N1+03061+01001101301ADDGA1001+999999999GF100991001001999999001001KA1240M+03501MA1999999097191MD1999999+0161REMSYN082AAXX  03004 82983 32995 01805 10306 20100 39719 40130 333 10350 29034 55115 58016;
0175829830999992005110312004-09383-040483FM-12+037099999V0201401N004119999999N0020001N1+02741+01701101581ADDGF106991999011008001001001KA1240N+02301MA1999999097461MD1999999+0041REMSYN076AAXX  03124 82983 32595 61408 10274 20170 39746 40158 82100 333 20230 58004;EQDQ01+000022SCOTLC
0137829830999992005110318004-09383-040483FM-12+037099999V0200901N003112200019N0020001N1+03441+01211100991ADDGF104991041011008001001001MA1999999096911MD1999999+0031REMSYN070AAXX  03184 82983 32595 40906 10344 20121 39691 40099 84100 333 58003;
0178829830999992005110400004-09383-040483FM-12+037099999V0201401N001512200019N0020001N1+03021+01121101171ADDGA1001+999999999GF100991001001999999001001KA1240M+03541MA1999999097071MD1999999-0121REMSYN082AAXX  04004 82983 32995 01403 10302 20112 39707 40117 333 10354 29035 55108 59012;
0166829830999992005110412004-09383-040483FM-12+037099999V0200901N005112200019N0020001N1+02661+01531101481ADDGA1001+999999999GF100991001001999999001001KA1240N+02281MA1999999097361MD1999999+0101REMSYN070AAXX  04124 82983 32995 00910 10266 20153 39736 40148 333 20228 58010;
0147829830999992005110418004-09383-040483FM-12+037099999V0201401N003112200019N0020001N1+03401+00931100861ADDGA1001+999999999GF100991001001999999001001MA1999999096771MD1999999-0141REMSYN064AAXX  04184 82983 32995 01406 10340 20093 39677 40086 333 59014;
0178829830999992005110500004-09383-040483FM-12+037099999V0200901N001512200019N0020001N1+02921+00931101091ADDGA1001+999999999GF100991001001999999001001KA1240M+03501MA1999999096991MD1999999-0081REMSYN082AAXX  05004 82983 32995 00903 10292 20093 39699 40109 333 10350 29032 55105 59008;
0156829830999992005110512004-09383-040483FM-12+037099999V0201401N004112200019N0020001N1+02561+01591101451ADDGF104991041021008001001001KA1240N+02221MA1999999097331MD1999999-0031REMSYN076AAXX  05124 82983 32595 41408 10256 20159 39733 40145 84200 333 20222 59003;
0147829830999992005110518004-09383-040483FM-12+037099999V0201401N003112200019N0020001N1+03381+01101100781ADDGA1001+999999999GF100991001001999999001001MA1999999096701MD1999999-0071REMSYN064AAXX  05184 82983 32995 01406 10338 20110 39670 40078 333 59007;
0178829830999992005110600004-09383-040483FM-12+037099999V0200901N001512200019N0020001N1+02881+01001100981ADDGA1001+999999999GF100991001001999999001001KA1240M+03461MA1999999096861MD1999999-0131REMSYN082AAXX  06004 82983 32995 00903 10288 20100 39686 40098 333 10346 29035 55110 59013;
0156829830999992005110612004-09383-040483FM-12+037099999V0200901N004112200019N0020001N1+02581+01491101491ADDGF102991021011008001001001KA1240N+02241MA1999999097361MD1999999+0031REMSYN076AAXX  06124 82983 32595 20908 10258 20149 39736 40149 82100 333 20224 58003;
0147829830999992005110618004-09383-040483FM-12+037099999V0200901N003112200019N0020001N1+03421+01251100811ADDGA1001+999999999GF100991001001999999001001MA1999999096731MD1999999+0031REMSYN064AAXX  06184 82983 32995 00906 10342 20125 39673 40081 333 58003;
0178829830999992005110700004-09383-040483FM-12+037099999V0201401N002612200019N0020001N1+03001+01201101001ADDGA1001+999999999GF100991001001999999001001KA1240M+03521MA1999999096911MD1999999+0051REMSYN082AAXX  07004 82983 32995 01405 10300 20120 39691 40100 333 10352 29036 55116 58005;
0147829830999992005110718004-09383-040483FM-12+037099999V0201401N002612200019N0020001N1+03461+00841100801ADDGA1001+999999999GF100991001001999999001001MA1999999096731MD1999999+0001REMSYN064AAXX  07184 82983 32995 01405 10346 20084 39673 40080 333 58000;
0166829830999992005110812004-09383-040483FM-12+037099999V0200901N003112200019N0020001N1+02721+01591101291ADDGA1001+999999999GF100991001001999999001001KA1240N+02341MA1999999097181MD1999999-0071REMSYN070AAXX  08124 82983 32995 00906 10272 20159 39718 40129 333 20234 59007;
0172829830999992005110818004-09383-040483FM-12+037099999V0200901N002612200019N0020001N1+03481+01251100741ADDGF102991021011008001001001MA1999999096741MD1999999-0071REMSYN070AAXX  08184 82983 32595 20905 10348 20125 33666 40074 82100 333 59007;EQDQ01+036661APOSP Q02+999990APOSP 
0178829830999992005110900004-09383-040483FM-12+037099999V0200501N001512200019N0020001N1+03101+01041100881ADDGA1001+999999999GF100991001001999999001001KA1240M+03581MA1999999096791MD1999999-0081REMSYN082AAXX  09004 82983 32595 00503 10310 20104 39679 40088 333 10358 29033 55116 59008;
0156829830999992005110912004-09383-040483FM-12+037099999V0200901N004112200019N0020001N1+02741+01781101321ADDGF104991041011008001001001KA1240N+02261MA1999999097211MD1999999+0031REMSYN076AAXX  09124 82983 32595 40908 10274 20178 39721 40132 84100 333 20226 58003;
0137829830999992005110918004-09383-040483FM-12+037099999V0200901N003112200019N0020001N1+03381+01431100761ADDGF102991021011008001001001MA1999999096681MD1999999+0021REMSYN070AAXX  09184 82983 32595 20906 10338 20143 39668 40076 82100 333 58002;
0178829830999992005111000004-09383-040483FM-12+037099999V0201401N001512200019N0020001N1+03061+01421100921ADDGA1001+999999999GF100991001001999999001001KA1240M+03481MA1999999096831MD1999999+0041REMSYN082AAXX  10004 82983 32995 01403 10306 20142 39683 40092 333 10348 29040 55114 58004;
0156829830999992005111012004-09383-040483FM-12+037099999V0201401N003112200019N0020001N1+02741+01761101221ADDGF104991041011008001001001KA1240N+02441MA1999999097121MD1999999-0091REMSYN076AAXX  10124 82983 32595 41406 10274 20176 39712 40122 84100 333 20244 59009;
0137829830999992005111018004-09383-040483FM-12+037099999V0201401N003112200019N0020001N1+03441+01631100661ADDGF104991041011008001001001MA1999999096591MD1999999-0091REMSYN070AAXX  10184 82983 32595 41406 10344 20163 39659 40066 84100 333 59009;
0168829830999992005111100004-09383-040483FM-12+037099999V0201401N002612200019N0020001N1+03081+01481100831ADDGF102991021011008001001001KA1240M+03541MA1999999096751MD1999999-0081REMSYN088AAXX  11004 82983 32595 21405 10308 20148 39675 40083 82100 333 10354 29041 55113 59008;
0156829830999992005111112004-09383-040483FM-12+037099999V0201401N003111050019N0020001N1+02681+01701101121ADDGF105991021061008001011011KA1240N+02301MA1999999097021MD1999999-0101REMSYN076AAXX  11124 82983 32595 51406 10268 20170 39702 40112 82611 333 20230 59010;
0137829830999992005111118004-09383-040483FM-12+037099999V0201401N002610450019N0020001N1+03421+01471100541ADDGF105991031011008001011011MA1999999096481MD1999999-0111REMSYN070AAXX  11184 82983 32595 51405 10342 20147 39648 40054 83111 333 59011;
0168829830999992005111200004-09383-040483FM-12+037099999V0200501N001510450019N0020001N1+03081+01521100761ADDGF105991021011008001021001KA1240M+03541MA1999999096681MD1999999-0071REMSYN088AAXX  12004 82983 32595 50503 10308 20152 39668 40076 82120 333 10354 29041 55085 59007;
0156829830999992005111212004-09383-040483FM-12+037099999V0200901N003110075019N0020001N1+02681+01861101081ADDGF108991081051008001999999KA1240N+01981MA1999999096981MD1999999-0041REMSYN076AAXX  12124 82983 32595 80906 10268 20186 39698 40108 885// 333 20198 59004;
0137829830999992005111218004-09383-040483FM-12+037099999V0200501N001512200019N0020001N1+03381+01661100121ADDGF103991031011008001001001MA1999999096461MD1999999+0021REMSYN070AAXX  12184 82983 32595 30503 10338 20166 39646 40012 83100 333 58002;
0178829830999992005111300004-09383-040483FM-12+037099999V0201401N001012200019N0020001N1+03061+01661100631ADDGA1001+999999999GF100991001001999999001001KA1240M+03501MA1999999096551MD1999999-0131REMSYN082AAXX  13004 82983 32995 01402 10306 20166 39655 40063 333 10350 29046 55089 59013;
0156829830999992005111312004-09383-040483FM-12+037099999V0201401N004111050019N0020001N1+02801+01841101061ADDGF105991021011008001021011KA1240N+02121MA1999999096991MD1999999+0011REMSYN076AAXX  13124 82983 32595 51408 10280 20184 39699 40106 82121 333 20212 58001;
0137829830999992005111318004-09383-040483FM-12+037099999V0200901N002610450019N0020001N1+03401+01681100521ADDGF107991041011008001021001MA1999999096471MD1999999+0011REMSYN070AAXX  13184 82983 32595 70905 10340 20168 39647 40052 84120 333 58001;
0213829830999992005111400004-09383-040483FM-12+037099999V0201801N002610075019N0020001N1+02441+02251100991ADDAA106003091AY121061AY251061GF108991081051008001999999KA1240M+03501MA1999999096861MD1999999+0351MW1601REMSYN100AAXX  14004 82983 21595 81805 10244 20225 39686 40099 76025 885// 333 10350 29068 55065 58035 60031;
0173829830999992005111412004-09383-040483FM-12+037099999V0201401N003110450019N0020001N1+02641+01931101141ADDAA124003091GF106991041011008001021011KA1240N+02381MA1999999097001MD1999999+0011REMSYN082AAXX  14124 82983 22595 61406 10264 20193 39700 40114 84121 333 20238 58001 60034;
0167829830999992005111418004-09383-040483FM-12+037099999V0200901N002619999999N0020001N1+03141+01661999999ADDGF106991999001008001061051MD1999999+0081REMSYN064AAXX  14184 82983 32595 60905 10314 20166 49655 80065 333 58008;EQDQ01+000002SCOTLCQ02+096553APOSLPQ03 096553APOSLP
0168829830999992005111500004-09383-040483FM-12+037099999V0201401N003110075019N0020001N1+02761+01911100931ADDGF108991081051008001999999KA1240M+03221MA1999999096811MD1999999-0051REMSYN088AAXX  15004 82983 32595 81406 10276 20191 39681 40093 885// 333 10322 29056 55022 59005;
0156829830999992005111512004-09383-040483FM-12+037099999V0200901N003110075019N0020001N1+02721+01851101151ADDGF106991061011008001001001KA1240N+02461MA1999999097031MD1999999+0031REMSYN076AAXX  15124 82983 32595 60906 10272 20185 39703 40115 86100 333 20246 58003;
0137829830999992005111518004-09383-040483FM-12+037099999V0201401N002610075019N0020001N1+03441+01531100581ADDGF106991061021008001001001MA1999999096521MD1999999-0031REMSYN070AAXX  15184 82983 32595 61405 10344 20153 39652 40058 86200 333 59003;
0168829830999992005111600004-09383-040483FM-12+037099999V0201401N002610450019N0020001N1+03021+01731100921ADDGF105991021011008001021001KA1240M+03501MA1999999096831MD1999999+0021REMSYN088AAXX  16004 82983 32595 51405 10302 20173 39683 40092 82120 333 10350 29046 55056 58002;
0156829830999992005111612004-09383-040483FM-12+037099999V0200901N003112200019N0020001N1+02741+01811101191ADDGF104991021011008001001011KA1240N+02381MA1999999097091MD1999999+0061REMSYN076AAXX  16124 82983 32595 40906 10274 20181 39709 40119 82101 333 20238 58006;
0137829830999992005111618004-09383-040483FM-12+037099999V0201801N001510450019N0020001N1+03521+01451100611ADDGF106991041011008001021001MA1999999096541MD1999999+0021REMSYN070AAXX  16184 82983 32595 61803 10352 20145 39654 40061 84120 333 58002;
0168829830999992005111700004-09383-040483FM-12+037099999V0201801N002610075019N0020001N1+03061+01551100781ADDGF105991051021008001001001KA1240M+03641MA1999999096701MD1999999-0131REMSYN088AAXX  17004 82983 32595 51805 10306 20155 39670 40078 85200 333 10364 29042 55113 59013;
0156829830999992005111712004-09383-040483FM-12+037099999V0201401N004110075019N0020001N1+02681+01761101191ADDGF106991061011008001001001KA1240N+02181MA1999999097091MD1999999+0001REMSYN076AAXX  17124 82983 32595 61408 10268 20176 39709 40119 86100 333 20218 58000;
0137829830999992005111718004-09383-040483FM-12+037099999V0201401N003112200019N0020001N1+02361+01201100571ADDGF104991041011008001001001MA1999999096501MD1999999-0041REMSYN070AAXX  17184 82983 32595 41406 10236 20120 39650 40057 84100 333 59004;
0178829830999992005111800004-09383-040483FM-12+037099999V0201401N001512200019N0020001N1+03081+01401100651ADDGA1001+999999999GF100991001001999999001001KA1240M+03501MA1999999096571MD1999999-0131REMSYN082AAXX  18004 82983 32995 01403 10308 20140 39657 40065 333 10350 29039 55108 59013;
0175829830999992005111812004-09383-040483FM-12+037099999V0200901N004112200019N0020001N1+02821+01711101081ADDGF103991999011008001001001KA1240N+01941MA1999999097001MD1999999-0091REMSYN076AAXX  18124 82983 32595 30908 10282 20171 39700 40108 84100 333 20194 59009;EQDQ01+000042SCOTLC
0147829830999992005111818004-09383-040483FM-12+037099999V0201401N003112200019N0020001N1+03581+01011100561ADDGA1001+999999999GF100991001001999999001001MA1999999096511MD1999999+0011REMSYN064AAXX  18184 82983 32995 01406 10358 20101 39651 40056 333 58001;
0178829830999992005111900004-09383-040483FM-12+037099999V0200901N002612200019N0020001N1+03101+01091100781ADDGA1001+999999999GF100991001001999999001001KA1240M+03641MA1999999096711MD1999999+0141REMSYN082AAXX  19004 82983 32995 00905 10310 20109 39671 40078 333 10364 29032 55117 58014;
0166829830999992005111912004-09383-040483FM-12+037099999V0201401N003112200019N0020001N1+02741+01611101291ADDGA1001+999999999GF100991001001999999001001KA1240N+02321MA1999999097181MD1999999+0181REMSYN070AAXX  19124 82983 32995 01406 10274 20161 39718 40129 333 20232 58018;
0147829830999992005111918004-09383-040483FM-12+037099999V0200901N002612200019N0020001N1+03541+00831100711ADDGA1001+999999999GF100991001001999999001001MA1999999096641MD1999999+0131REMSYN064AAXX  19184 82983 32995 00905 10354 20083 39664 40071 333 58013;
0178829830999992005112000004-09383-040483FM-12+037099999V0200901N001512200019N0020001N1+02961+00971100941ADDGA1001+999999999GF100991001001999999001001KA1240M+03641MA1999999096851MD1999999+0141REMSYN082AAXX  20004 82983 32995 00903 10296 20097 39685 40094 333 10364 29032 55116 58014;
0175829830999992005112012004-09383-040483FM-12+037099999V0200901N003112200019N0020001N1+02801+01841101191ADDGF102991001001999999001051KA1240N+02401MA1999999097091MD1999999-0091REMSYN076AAXX  20124 82983 32595 20906 10280 20184 39709 40119 80005 333 20240 59009;EQDQ01+008002SCOLCB
0137829830999992005112018004-09383-040483FM-12+037099999V0201401N001510450019N0020001N1+03721+01321100521ADDGF105991031011008001021001MA1999999096471MD1999999-0171REMSYN070AAXX  20184 82983 32595 51403 10372 20132 39647 40052 83120 333 59017;
0168829830999992005112100004-09383-040483FM-12+037099999V0201401N001010075019N0020001N1+03321+01381100711ADDGF105991051021008001001001KA1240M+03821MA1999999096651MD1999999-0201REMSYN088AAXX  21004 82983 32595 51402 10332 20138 39665 40071 85200 333 10382 29036 55116 59020;
0175829830999992005112112004-09383-040483FM-12+037099999V0200901N004112200019N0020001N1+03061+01661100921ADDGF102991999001008001011001KA1240N+02581MA1999999096881MD1999999-0211REMSYN076AAXX  21124 82983 32595 20908 10306 20166 39688 40092 80010 333 20258 59021;EQDQ01+000002SCOTLC
0137829830999992005112118004-09383-040483FM-12+037099999V0200901N003110075019N0020001N1+03761+01151100391ADDGF105991051011008001001001MA1999999096371MD1999999-0101REMSYN070AAXX  21184 82983 32595 50906 10376 20115 39637 40039 85100 333 59010;
0168829830999992005112200004-09383-040483FM-12+037099999V0200901N001512200019N0020001N1+03321+00991100641ADDGF103991031011008001001001KA1240M+03861MA1999999096611MD1999999-0041REMSYN088AAXX  22004 82983 32595 30903 10332 20099 39661 40064 83100 333 10386 29028 55117 59004;
0156829830999992005112212004-09383-040483FM-12+037099999V0201401N003110075019N0020001N1+02801+01721101101ADDGF105991051011008001001001KA1240N+02361MA1999999096941MD1999999+0061REMSYN076AAXX  22124 82983 32595 51406 10280 20172 39694 40110 85100 333 20236 58006;
0137829830999992005112218004-09383-040483FM-12+037099999V0201401N003112200019N0020001N1+03581+01131100421ADDGF102991021011008001001001MA1999999096371MD1999999+0001REMSYN070AAXX  22184 82983 32595 21406 10358 20113 39637 40042 82100 333 58000;
0168829830999992005112300004-09383-040483FM-12+037099999V0200501N001512200019N0020001N1+03181+01261100661ADDGF102991021011008001001001KA1240M+03681MA1999999096601MD1999999-0011REMSYN088AAXX  23004 82983 32595 20503 10318 20126 39660 40066 82100 333 10368 29034 55116 59001;
0156829830999992005112312004-09383-040483FM-12+037099999V0200901N003110075019N0020001N1+02801+01901101051ADDGF108991081051008001999999KA1240N+02461MA1999999096981MD1999999+0041REMSYN076AAXX  23124 82983 32595 80906 10280 20190 39698 40105 885// 333 20246 58004;
0137829830999992005112318004-09383-040483FM-12+037099999V0201401N003110075019N0020001N1+03481+01711100591ADDGF106991061011008001011021MA1999999096531MD1999999+0161REMSYN070AAXX  23184 82983 32595 61406 10348 20171 39653 40059 86112 333 58016;
0168829830999992005112400004-09383-040483FM-12+037099999V0201401N002612200019N0020001N1+03161+01671100731ADDGF103991031011008001001001KA1240M+03541MA1999999096651MD1999999+0051REMSYN088AAXX  24004 82983 32595 31405 10316 20167 39665 40073 83100 333 10354 29044 55079 58005;
0156829830999992005112412004-09383-040483FM-12+037099999V0200901N003110075019N0020001N1+02781+01881101181ADDGF106991061021008001001001KA1240N+02481MA1999999097071MD1999999+0091REMSYN076AAXX  24124 82983 32595 60906 10278 20188 39707 40118 86200 333 20248 58009;
0137829830999992005112418004-09383-040483FM-12+037099999V0200901N003110075019N0020001N1+03481+01611100671ADDGF106991061011008001001001MA1999999096601MD1999999+0071REMSYN070AAXX  24184 82983 32595 60906 10348 20161 39660 40067 86100 333 58007;
0178829830999992005112500004-09383-040483FM-12+037099999V0200901N002612200019N0020001N1+03141+01501100791ADDGA1001+999999999GF100991001001999999001001KA1240M+03561MA1999999096721MD1999999+0071REMSYN082AAXX  25004 82983 32595 00905 10314 20150 39672 40079 333 10356 29041 55101 58007;
0201829830999992005112512004-09383-040483FM-12+037099999V0201801N002610075019N0020001N1+02221+02101101341ADDAA124008991AY151061AY261061GF108991081061008001999999KA1240N+02201MA1999999097201MD1999999+0131MW1631REMSYN088AAXX  25124 82983 21595 81805 10222 20210 39720 40134 76356 886// 333 20220 58013 60094;
0182829830999992005112518004-09383-040483FM-12+037099999V0201801N001510075019N0020001N1+02741+01971100931ADDAA106004191AY161061AY251061GF108991081061008001999999MA1999999096811MD1999999+0211MW1031REMSYN082AAXX  25184 82983 21595 81803 10274 20197 39681 40093 70365 886// 333 58021 60041;
0213829830999992005112600004-09383-040483FM-12+037099999V0201801N002610075019N0020001N1+02321+02181101021ADDAA106006191AY161061AY251061GF108991081051008001999999KA1240M+03201MA1999999096841MD1999999+0121MW1011REMSYN100AAXX  26004 82983 21595 81805 10232 20218 39684 40102 70165 885// 333 10320 29085 55000 58012 60061;
0173829830999992005112612004-09383-040483FM-12+037099999V0200901N003110450019N0020001N1+02701+01941101031ADDAA124010991GF106991031011008001021001KA1240N+02121MA1999999096881MD1999999-0321REMSYN082AAXX  26124 82983 22595 60906 10270 20194 39688 40103 83120 333 20212 59032 60114;
0137829830999992005112618004-09383-040483FM-12+037099999V0200901N001510450019N0020001N1+03241+01781100411ADDGF107991041011008001011021MA1999999096331MD1999999-0481REMSYN070AAXX  26184 82983 32595 70903 10324 20178 39633 40041 84112 333 59048;
0168829830999992005112700004-09383-040483FM-12+037099999V0209999C000010450019N0020001N1+02941+02051100661ADDGF106991041011008001021001KA1240M+03361MA1999999096581MD1999999-0261REMSYN088AAXX  27004 82983 32595 60000 10294 20205 39658 40066 84120 333 10336 29056 55046 59026;
0201829830999992005112712004-09383-040483FM-12+037099999V0201401N001510450019N0020001N1+02741+02141100891ADDAA124007191AY101061AY231061GF107991041011008001021001KA1240N+02301MA1999999096801MD1999999-0081MW1051REMSYN088AAXX  27124 82983 21595 71403 10274 20214 39680 40089 70503 84120 333 20230 59008 60074;
0182829830999992005112718004-09383-040483FM-12+037099999V0203201N002610450019N0020001N1+03001+02051100481ADDAA106002091AY161061AY221061GF107991041021008001021001MA1999999096381MD1999999+0051MW1031REMSYN082AAXX  27184 82983 21595 73205 10300 20205 39638 40048 70362 84220 333 58005 60021;
0213829830999992005112800004-09383-040483FM-12+037099999V0200501N005110075019N0020001N1+02361+02151100931ADDAA106002091AY161061AY251061GF108991081071008001999999KA1240M+03101MA1999999096791MD1999999+0211MW1631REMSYN100AAXX  28004 82983 21595 80510 10236 20215 39679 40093 76365 887// 333 10310 29076 55027 58021 60021;
0201829830999992005112812004-09383-040483FM-12+037099999V0200901N003110075019N0020001N1+02281+02141101221ADDAA124026991AY161061AY251061GF108991081051008001999999KA1240N+02201MA1999999097041MD1999999+0241MW1511REMSYN088AAXX  28124 82983 21595 80906 10228 20214 39704 40122 75165 885// 333 20220 58024 60274;
0168829830999992005112900004-09383-040483FM-12+037099999V0201801N001510075019N0020001N1+02441+02091100991ADDGF106991061051008001001001KA1240M+02581MA1999999096831MD1999999+0041REMSYN088AAXX  29004 82983 32595 61803 10244 20209 39683 40099 86500 333 10258 29083 55000 58004;
0173829830999992005112912004-09383-040483FM-12+037099999V0200901N005110075019N0020001N1+02681+01811101231ADDAA124002091GF105991051011008001001001KA1240N+02301MA1999999097091MD1999999+0051REMSYN082AAXX  29124 82983 22595 50910 10268 20181 39709 40123 85100 333 20230 58005 60024;
0137829830999992005112918004-09383-040483FM-12+037099999V0200901N004110450019N0020001N1+03301+01101100761ADDGF106991041021008001021001MA1999999096681MD1999999-0081REMSYN070AAXX  29184 82983 32595 60908 10330 20110 39668 40076 84220 333 59008;
0168829830999992005113000004-09383-040483FM-12+037099999V0201401N001510075019N0020001N1+02881+01701100961ADDGF106991061021008001001001KA1240M+03361MA1999999096871MD1999999+0041REMSYN088AAXX  30004 82983 32595 61403 10288 20170 39687 40096 86200 333 10336 29048 55106 58004;
0156829830999992005113012004-09383-040483FM-12+037099999V0200901N003110075019N0020001N1+02641+01901101251ADDGF106991061011008001001001KA1240N+02361MA1999999097131MD1999999+0041REMSYN076AAXX  30124 82983 32595 60906 10264 20190 39713 40125 86100 333 20236 58004;
0137829830999992005113018004-09383-040483FM-12+037099999V0200901N003112200019N0020001N1+03241+01671100751ADDGF103991031011008001001001MA1999999096671MD1999999-0011REMSYN070AAXX  30184 82983 32595 30906 10324 20167 39667 40075 83100 333 59001;
0168829830999992005120100004-09383-040483FM-12+037099999V0201801N002612200019N0020001N1+02841+01671100901ADDGF102991021011008001001001KA1240M+03301MA1999999096801MD1999999-0071REMSYN088AAXX  01004 82983 32595 21805 10284 20167 39680 40090 82100 333 10330 29050 55102 59007;
0156829830999992005120112004-09383-040483FM-12+037099999V0201401N003110075019N0020001N1+02561+01751101251ADDGF106991061011008001001001KA1240N+02221MA1999999097121MD1999999-0011REMSYN076AAXX  01124 82983 32595 61406 10256 20175 39712 40125 86100 333 20222 59001;
0137829830999992005120118004-09383-040483FM-12+037099999V0201401N003112200019N0020001N1+03261+01601100711ADDGF102991021011008001001001MA1999999096631MD1999999-0041REMSYN070AAXX  01184 82983 32595 21406 10326 20160 39663 40071 82100 333 59004;
0178829830999992005120200004-09383-040483FM-12+037099999V0201401N002612200019N0020001N1+02841+01701100851ADDGA1001+999999999GF100991001001999999001001KA1240M+03361MA1999999096741MD1999999-0061REMSYN082AAXX  02004 82983 32995 01405 10284 20170 39674 40085 333 10336 29050 55093 59006;
0156829830999992005120212004-09383-040483FM-12+037099999V0201401N003110075019N0020001N1+02441+01901101071ADDGF108991081051008001999999KA1240N+02341MA1999999096941MD1999999-0181REMSYN076AAXX  02124 82983 32595 81406 10244 20190 39694 40107 885// 333 20234 59018;
0137829830999992005120218004-09383-040483FM-12+037099999V0201401N002612200019N0020001N1+03201+01631100641ADDGF103991031011008001001001MA1999999096551MD1999999-0081REMSYN070AAXX  02184 82983 32595 31405 10320 20163 39655 40064 83100 333 59008;
0178829830999992005120300004-09383-040483FM-12+037099999V0201801N001012200019N0020001N1+02821+01801100741ADDGA1001+999999999GF100991001001999999001001KA1240M+03301MA1999999096621MD1999999-0121REMSYN082AAXX  03004 82983 32995 01802 10282 20180 39662 40074 333 10330 29055 55076 59012;
0175829830999992005120312004-09383-040483FM-12+037099999V0200901N003112200019N0020001N1+02861+01781100911ADDGF103991999001008001011011KA1240N+02381MA1999999096821MD1999999-0121REMSYN076AAXX  03124 82983 32595 30906 10286 20178 39682 40091 80011 333 20238 59012;EQDQ01+000002SCOTLC
0137829830999992005120318004-09383-040483FM-12+037099999V0203201N001510450019N0020001N1+03521+01651100481ADDGF106991031011008001021001MA1999999096431MD1999999-0121REMSYN070AAXX  03184 82983 32595 63203 10352 20165 39643 40048 83120 333 59012;
0178829830999992005120400004-09383-040483FM-12+037099999V0202701N001012200019N0020001N1+02941+02031100741ADDGA1001+999999999GF100991001001999999001001KA1240M+03621MA1999999096621MD1999999+0001REMSYN082AAXX  04004 82983 32995 02702 10294 20203 39662 40074 333 10362 29050 55114 58000;
0156829830999992005120412004-09383-040483FM-12+037099999V0201401N003110450019N0020001N1+02701+01911101001ADDGF106991041011008001021001KA1240N+02601MA1999999096911MD1999999+0091REMSYN076AAXX  04124 82983 32595 61406 10270 20191 39691 40100 84120 333 20260 58009;
0178829830999992005120500004-09383-040483FM-12+037099999V0201401N003112200019N0020001N1+02821+01911100741ADDGA1001+999999999GF100991001001999999001001KA1240M+03341MA1999999096641MD1999999+0021REMSYN082AAXX  05004 82983 32995 01406 10282 20191 39664 40074 333 10334 29056 55083 58002;
0156829830999992005120512004-09383-040483FM-12+037099999V0201401N002610075019N0020001N1+02461+01971101111ADDGF108991081051008001999999KA1240N+02421MA1999999096971MD1999999+0061REMSYN076AAXX  05124 82983 32595 81405 10246 20197 39697 40111 885// 333 20242 58006;
0137829830999992005120518004-09383-040483FM-12+037099999V0200501N002610075019N0020001N1+02901+01931100631ADDGF106991061011008001001001MA1999999096521MD1999999+0051REMSYN070AAXX  05184 82983 32595 60505 10290 20193 39652 40063 86100 333 58005;
0168829830999992005120600004-09383-040483FM-12+037099999V0209999C000010075019N0020001N1+02581+01991100941ADDGF106991061021008001001001KA1240M+03001MA1999999096791MD1999999+0151REMSYN088AAXX  06004 82983 32595 60000 10258 20199 39679 40094 86200 333 10300 29068 55016 58015;
0156829830999992005120612004-09383-040483FM-12+037099999V0201401N001510450019N0020001N1+02601+02081100861ADDGF107991041011008001021001KA1240N+02361MA1999999096741MD1999999-0031REMSYN076AAXX  06124 82983 32595 71403 10260 20208 39674 40086 84120 333 20236 59003;
0137829830999992005120618004-09383-040483FM-12+037099999V0202701N002610075019N0020001N1+03061+01951100371ADDGF108991081061008001999999MA1999999096291MD1999999-0231REMSYN070AAXX  06184 82983 32595 82705 10306 20195 39629 40037 886// 333 59023;
0182829830999992005120718004-09383-040483FM-12+037099999V0203201N003110075019N0020001N1+02321+02111100721ADDAA106004191AY151061AY261061GF108991081061008001999999MA1999999096571MD1999999+0281MW1611REMSYN082AAXX  07184 82983 21595 83206 10232 20211 39657 40072 76156 886// 333 58028 60041;
0213829830999992005120800004-09383-040483FM-12+037099999V0202701N001010075019N0020001N1+02321+02111100811ADDAA106003091AY161061AY251061GF108991081051008001999999KA1240M+02921MA1999999096671MD1999999+0091MW1031REMSYN100AAXX  08004 82983 21595 82702 10232 20211 39667 40081 70365 885// 333 10292 29084 55005 58009 60031;
0201829830999992005120812004-09383-040483FM-12+037099999V0203201N002610075019N0020001N1+02341+02111101161ADDAA124009991AY161061AY251061GF108991081051008001999999KA1240N+02301MA1999999096981MD1999999-0021MW1011REMSYN088AAXX  08124 82983 21595 83205 10234 20211 39698 40116 70165 885// 333 20230 59002 60104;
0137829830999992005120818004-09383-040483FM-12+037099999V0203601N004110075019N0020001N1+02741+02171100751ADDGF108991081071008001999999MA1999999096611MD1999999+0041REMSYN070AAXX  08184 82983 32595 83608 10274 20217 39661 40075 887// 333 58004;
0213829830999992005120900004-09383-040483FM-12+037099999V0201401N001510075019N0020001N1+02441+02031101031ADDAA106006191AY161061AY251061GF108991081061008001999999KA1240M+03121MA1999999096871MD1999999+0201MW1501REMSYN100AAXX  09004 82983 21595 81403 10244 20203 39687 40103 75065 886// 333 10312 29078 55034 58020 60061;
0173829830999992005120912004-09383-040483FM-12+037099999V0200901N003110075019N0020001N1+02581+02121101281ADDAA124006191GF108991081051008001999999KA1240N+02541MA1999999097131MD1999999+0151REMSYN082AAXX  09124 82983 22595 80906 10258 20212 39713 40128 885// 333 20254 58015 60064;
0137829830999992005120918004-09383-040483FM-12+037099999V0201401N003110075019N0020001N1+03081+01981100871ADDGF107991071041008001001001MA1999999096771MD1999999+0161REMSYN070AAXX  09184 82983 32595 71406 10308 20198 39677 40087 87400 333 58016;
0178829830999992005121000004-09383-040483FM-12+037099999V0202701N001512200019N0020001N1+02481+02191101061ADDGA1001+999999999GF100991001001999999001001KA1240M+03161MA1999999096921MD1999999+0051REMSYN082AAXX  10004 82983 32995 02703 10248 20219 39692 40106 333 10316 29074 55069 58005;
0156829830999992005121012004-09383-040483FM-12+037099999V0200901N003110075019N0020001N1+02501+01821101321ADDGF106991061021008001001001KA1240N+02281MA1999999097161MD1999999+0031REMSYN076AAXX  10124 82983 32595 60906 10250 20182 39716 40132 86200 333 20228 58003;
0137829830999992005121018004-09383-040483FM-12+037099999V0200901N003110075019N0020001N1+03081+01711100831ADDGF106991061011008001001001MA1999999096721MD1999999-0051REMSYN070AAXX  10184 82983 32595 60906 10308 20171 39672 40083 86100 333 59005;
0178829830999992005121100004-09383-040483FM-12+037099999V0201401N001512200019N0020001N1+02741+01761100871ADDGA1001+999999999GF100991001001999999001001KA1240M+03181MA1999999096751MD1999999-0171REMSYN082AAXX  11004 82983 32995 01403 10274 20176 39675 40087 333 10318 29055 55112 59017;
0156829830999992005121112004-09383-040483FM-12+037099999V0200901N003112200019N0020001N1+02561+01881101091ADDGF104991011011008001021011KA1240N+02261MA1999999096951MD1999999-0211REMSYN076AAXX  11124 82983 32595 40906 10256 20188 39695 40109 81121 333 20226 59021;
0137829830999992005121118004-09383-040483FM-12+037099999V0201801N002610075019N0020001N1+03121+01921100641ADDGF106991061011008001001001MA1999999096541MD1999999-0181REMSYN070AAXX  11184 82983 32595 61805 10312 20192 39654 40064 86100 333 59018;
0178829830999992005121200004-09383-040483FM-12+037099999V0201401N001012200019N0020001N1+02801+01661101101ADDGA1001+999999999GF100991001001999999001001KA1240M+03201MA1999999096691MD1999999-0061REMSYN082AAXX  12004 82983 32995 01402 10280 20166 39669 40110 333 10320 29054 55111 59006;
0156829830999992005121212004-09383-040483FM-12+037099999V0200901N003110075019N0020001N1+02581+02041101131ADDGF107991071021008001001001KA1240N+02361MA1999999097001MD1999999+0051REMSYN076AAXX  12124 82983 32595 70906 10258 20204 39700 40113 87200 333 20236 58005;
0137829830999992005121218004-09383-040483FM-12+037099999V0201401N003110075019N0020001N1+03181+01871100611ADDGF106991061021008001001001MA1999999096541MD1999999+0001REMSYN070AAXX  12184 82983 32595 61406 10318 20187 39654 40061 86200 333 58000;
0178829830999992005121300004-09383-040483FM-12+037099999V0201401N001512200019N0020001N1+02821+01911100831ADDGA1001+999999999GF100991001001999999001001KA1240M+03301MA1999999096721MD1999999+0131REMSYN082AAXX  13004 82983 32995 01403 10282 20191 39672 40083 333 10330 29058 55093 58013;
0156829830999992005121312004-09383-040483FM-12+037099999V0201401N003110075019N0020001N1+02581+01941101101ADDGF106991061011008001001001KA1240N+02321MA1999999096971MD1999999-0031REMSYN076AAXX  13124 82983 32595 61406 10258 20194 39697 40110 86100 333 20232 59003;
0137829830999992005121318004-09383-040483FM-12+037099999V0201401N003110075019N0020001N1+03161+01711100641ADDGF105991051021008001001001MA1999999096561MD1999999+0021REMSYN070AAXX  13184 82983 32595 51406 10316 20171 39656 40064 85200 333 58002;
0168829830999992005121400004-09383-040483FM-12+037099999V0201401N003112200019N0020001N1+02821+01861100851ADDGF102991021011008001001001KA1240M+03241MA1999999096741MD1999999+0021REMSYN088AAXX  14004 82983 32595 21406 10282 20186 39674 40085 82100 333 10324 29056 55111 58002;
0156829830999992005121412004-09383-040483FM-12+037099999V0200901N003110450019N0020001N1+02621+01881101101ADDGF107991041061008001021001KA1240N+02261MA1999999096971MD1999999+0001REMSYN076AAXX  14124 82983 32595 70906 10262 20188 39697 40110 84620 333 20226 58000;
0137829830999992005121418004-09383-040483FM-12+037099999V0200501N002610450019N0020001N1+03181+01571100651ADDGF107991021011008001021011MA1999999096571MD1999999+0011REMSYN070AAXX  14184 82983 32595 70505 10318 20157 39657 40065 82121 333 58001;
0168829830999992005121500004-09383-040483FM-12+037099999V0201401N001512200019N0020001N1+02741+01761100781ADDGF102991021011008001001001KA1240M+03261MA1999999096671MD1999999-0071REMSYN088AAXX  15004 82983 32595 21403 10274 20176 39667 40078 82100 333 10326 29053 55045 59007;
0137829830999992005121518004-09383-040483FM-12+037099999V0200901N001510450019N0020001N1+03341+01541100631ADDGF107991041011008001071001MA1999999096551MD1999999-0021REMSYN070AAXX  15184 82983 32595 70903 10334 20154 39655 40063 84170 333 59002;
0187829830999992005121600004-09383-040483FM-12+037099999V0200501N000519999999N0020001N1+02821+01711100891ADDGF106991999001008001071001KA1240M+03421MA1999999096801MD1999999+0131REMSYN088AAXX  16004 82983 32595 60501 10282 20171 39680 40089 80070 333 10342 29050 55103 58013;EQDQ01+000002SCOTLC
0156829830999992005121612004-09383-040483FM-12+037099999V0201401N003110450019N0020001N1+02661+01971101121ADDGF107991031011008001021001KA1240N+02381MA1999999097001MD1999999+0081REMSYN076AAXX  16124 82983 32595 71406 10266 20197 39700 40112 83120 333 20238 58008;
0137829830999992005121618004-09383-040483FM-12+037099999V0200901N003110450019N0020001N1+03321+01331100681ADDGF106991031011008001021001MA1999999096601MD1999999+0051REMSYN070AAXX  16184 82983 32595 60906 10332 20133 39660 40068 83120 333 58005;
0178829830999992005121700004-09383-040483FM-12+037099999V0201401N002612200019N0020001N1+02941+01591100881ADDGA1001+999999999GF100991001001999999001001KA1240M+03381MA1999999096791MD1999999-0011REMSYN082AAXX  17004 82983 32995 01405 10294 20159 39679 40088 333 10338 29046 55060 59001;
0137829830999992005121718004-09383-040483FM-12+037099999V0200901N003111050019N0020001N1+03241+01581100941ADDGF106991021011008001001021MA1999999096851MD1999999+0251REMSYN070AAXX  17184 82983 32595 60906 10324 20158 39685 40094 82102 333 58025;
0168829830999992005121800004-09383-040483FM-12+037099999V0201401N003110075019N0020001N1+02921+01671101121ADDGF105991051011008001001001KA1240M+03301MA1999999097001MD1999999+0211REMSYN088AAXX  18004 82983 32595 51406 10292 20167 39700 40112 85100 333 10330 29048 55111 58021;
0156829830999992005121812004-09383-040483FM-12+037099999V0201401N003110075019N0020001N1+02561+01881101321ADDGF106991061011008001001001KA1240N+02301MA1999999097201MD1999999-0081REMSYN076AAXX  18124 82983 32595 61406 10256 20188 39720 40132 86100 333 20230 59008;
0137829830999992005121818004-09383-040483FM-12+037099999V0201401N004110075019N0020001N1+03321+01781100821ADDGF106991061011008001001001MA1999999096741MD1999999-0111REMSYN070AAXX  18184 82983 32595 61408 10332 20178 39674 40082 86100 333 59011;
0168829830999992005121900004-09383-040483FM-12+037099999V0201401N001512200019N0020001N1+03021+01861101011ADDGF104991041011008001001001KA1240M+03401MA1999999096921MD1999999-0081REMSYN088AAXX  19004 82983 32595 41403 10302 20186 39692 40101 84100 333 10340 29052 55108 59008;
0156829830999992005121912004-09383-040483FM-12+037099999V0201401N003112200019N0020001N1+02661+01791101311ADDGF104991041011008001001001KA1240N+02261MA1999999097201MD1999999+0001REMSYN076AAXX  19124 82983 32595 41406 10266 20179 39720 40131 84100 333 20226 58000;
0137829830999992005121918004-09383-040483FM-12+037099999V0201401N003110075019N0020001N1+03341+01631100811ADDGF106991061011008001001001MA1999999096731MD1999999-0011REMSYN070AAXX  19184 82983 32595 61406 10334 20163 39673 40081 86100 333 59001;
0178829830999992005122000004-09383-040483FM-12+037099999V0201401N003112200019N0020001N1+02661+01901101141ADDGA1001+999999999GF100991001001999999001001KA1240M+03441MA1999999097001MD1999999+0081REMSYN082AAXX  20004 82983 32995 01406 10266 20190 39700 40114 333 10344 29055 55105 58008;
0137829830999992005122018004-09383-040483FM-12+037099999V0201401N005110075019N0020001N1+03201+01551100971ADDGF106991061011008001001001MA1999999096881MD1999999+0151REMSYN070AAXX  20184 82983 32595 61410 10320 20155 39688 40097 86100 333 58015;
0178829830999992005122100004-09383-040483FM-12+037099999V0201401N003112200019N0020001N1+02801+01841101191ADDGA1001+999999999GF100991001001999999001001KA1240M+03301MA1999999097061MD1999999+0061REMSYN082AAXX  21004 82983 32995 01406 10280 20184 39706 40119 333 10330 29052 55095 58006;
0156829830999992005122112004-09383-040483FM-12+037099999V0201401N004112200019N0020001N1+02561+01801101421ADDGF103991031011008001001001KA1240N+02161MA1999999097281MD1999999+0001REMSYN076AAXX  21124 82983 32595 31408 10256 20180 39728 40142 83100 333 20216 58000;
0137829830999992005122118004-09383-040483FM-12+037099999V0201401N003112200019N0020001N1+03301+01551100961ADDGF102991021011008001001001MA1999999096801MD1999999-0011REMSYN070AAXX  21184 82983 32595 21406 10330 20155 39680 40096 82100 333 59001;
0178829830999992005122200004-09383-040483FM-12+037099999V0201401N001512200019N0020001N1+02881+01501101201ADDGA1001+999999999GF100991001001999999001001KA1240M+03401MA1999999097071MD1999999+0011REMSYN082AAXX  22004 82983 32995 01403 10288 20150 39707 40120 333 10340 29046 55115 58001;
0156829830999992005122212004-09383-040483FM-12+037099999V0201401N004112200019N0020001N1+02581+01721101401ADDGF103991031011008001001001KA1240N+02261MA1999999097281MD1999999+0001REMSYN076AAXX  22124 82983 32595 31408 10258 20172 39728 40140 83100 333 20226 58000;
0137829830999992005122218004-09383-040483FM-12+037099999V0200901N003112200019N0020001N1+03301+01311100921ADDGF103991031011008001001001MA1999999096831MD1999999-0041REMSYN070AAXX  22184 82983 32595 30906 10330 20131 39683 40092 83100 333 59004;
0178829830999992005122300004-09383-040483FM-12+037099999V0200901N001512200019N0020001N1+02841+01271101101ADDGA1001+999999999GF100991001001999999001001KA1240M+03401MA1999999096971MD1999999-0101REMSYN082AAXX  23004 82983 32995 00903 10284 20127 39697 40110 333 10340 29041 55114 59010;
0156829830999992005122312004-09383-040483FM-12+037099999V0200901N004112200019N0020001N1+02481+01651101311ADDGF103991031011008001001001KA1240N+02181MA1999999095261MD1999999-0021REMSYN076AAXX  23124 82983 32595 30908 10248 20165 39526 40131 83100 333 20218 59002;
0137829830999992005122318004-09383-040483FM-12+037099999V0200901N001512200019N0020001N1+03341+00941100791ADDGF101991011011008001001001MA1999999096711MD1999999-0101REMSYN070AAXX  23184 82983 32595 10903 10334 20094 39671 40079 81100 333 59010;
0178829830999992005122400004-09383-040483FM-12+037099999V0201401N001512200019N0020001N1+02921+01031100961ADDGA1001+999999999GF100991001001999999001001KA1240M+03501MA1999999096841MD1999999-0131REMSYN082AAXX  24004 82983 32995 01403 10292 20103 39684 40096 333 10350 29036 55120 59013;
0156829830999992005122412004-09383-040483FM-12+037099999V0200901N003110075019N0020001N1+02541+01761101341ADDGF107991071011008001001001KA1240N+02261MA1999999097221MD1999999-0041REMSYN076AAXX  24124 82983 32595 70906 10254 20176 39722 40134 87100 333 20226 59004;
0137829830999992005122418004-09383-040483FM-12+037099999V0201401N001511050019N0020001N1+03341+01351100761ADDGF106991031011008001001021MA1999999096681MD1999999-0031REMSYN070AAXX  24184 82983 32595 61403 10334 20135 39668 40076 83102 333 59003;
0168829830999992005122500004-09383-040483FM-12+037099999V0201401N004112200019N0020001N1+02841+01761100981ADDGF102991021011008001001001KA1240M+03481MA1999999096861MD1999999+0021REMSYN088AAXX  25004 82983 32595 21408 10284 20176 39686 40098 82100 333 10348 29050 55084 58002;
0156829830999992005122512004-09383-040483FM-12+037099999V0200901N002610075019N0020001N1+02541+01761101311ADDGF106991061021008001001001KA1240N+02261MA1999999097211MD1999999-0011REMSYN076AAXX  25124 82983 32595 60905 10254 20176 39721 40131 86200 333 20226 59001;
0137829830999992005122518004-09383-040483FM-12+037099999V0200901N001511050019N0020001N1+03161+01431100841ADDGF105991021011008001001021MA1999999096731MD1999999+0051REMSYN070AAXX  25184 82983 32595 50903 10316 20143 39673 40084 82102 333 58005;
0178829830999992005122600004-09383-040483FM-12+037099999V0200901N001512200019N0020001N1+02941+01551100941ADDGA1001+999999999GF100991001001999999001001KA1240M+03361MA1999999096841MD1999999-0021REMSYN082AAXX  26004 82983 32995 00903 10294 20155 39684 40094 333 10336 29046 55098 59002;
0156829830999992005122612004-09383-040483FM-12+037099999V0200901N003112200019N0020001N1+02681+01731101241ADDGF102991021011008001001001KA1240N+02321MA1999999097141MD1999999-0071REMSYN076AAXX  26124 82983 32595 20906 10268 20173 39714 40124 82100 333 20232 59007;
0137829830999992005122618004-09383-040483FM-12+037099999V0201401N002612200019N0020001N1+03361+01511100691ADDGF104991041011008001001001MA1999999096611MD1999999-0121REMSYN070AAXX  26184 82983 32595 41405 10336 20151 39661 40069 84100 333 59012;
0178829830999992005122700004-09383-040483FM-12+037099999V0201401N002612200019N0020001N1+02891+01551100841ADDGA1001+999999999GF100991001001999999001001KA1240M+03451MA1999999096751MD1999999-0091REMSYN082AAXX  27004 82983 32995 01405 10289 20155 39675 40084 333 10345 29043 55112 59009;
0156829830999992005122712004-09383-040483FM-12+037099999V0200901N003110450019N0020001N1+02581+01741101171ADDGF106991031011008001021001KA1240N+02301MA1999999097071MD1999999-0071REMSYN076AAXX  27124 82983 32595 60906 10258 20174 39707 40117 83120 333 20230 59007;
0137829830999992005122718004-09383-040483FM-12+037099999V0201401N003112200019N0020001N1+03301+01501100571ADDGF104991041011008001001001MA1999999096501MD1999999-0111REMSYN070AAXX  27184 82983 32595 41406 10330 20150 39650 40057 84100 333 59011;
0168829830999992005122800004-09383-040483FM-12+037099999V0201801N002612200019N0020001N1+02961+01501100781ADDGF103991031011008001001001KA1240M+03381MA1999999096681MD1999999-0071REMSYN088AAXX  28004 82983 32595 31805 10296 20150 39668 40078 83100 333 10338 29044 55104 59007;
0156829830999992005122812004-09383-040483FM-12+037099999V0200901N003110450019N0020001N1+02541+01811101131ADDGF108991021011008001021001KA1240N+02341MA1999999097011MD1999999-0061REMSYN076AAXX  28124 82983 32595 80906 10254 20181 39701 40113 82120 333 20234 59006;
0137829830999992005122818004-09383-040483FM-12+037099999V0200901N002610450019N0020001N1+03141+01661100681ADDGF106991031011008001021001MA1999999096601MD1999999+0101REMSYN070AAXX  28184 82983 32595 60905 10314 20166 39660 40068 83120 333 58010;
0168829830999992005122900004-09383-040483FM-12+037099999V0201801N002610075019N0020001N1+02861+01651101001ADDGF105991051021008001001001KA1240M+03241MA1999999096881MD1999999+0201REMSYN088AAXX  29004 82983 32595 51805 10286 20165 39688 40100 85200 333 10324 29050 55026 58020;
0201829830999992005122912004-09383-040483FM-12+037099999V0200901N003110075019N0020001N1+02641+01901101071ADDAA124000591AY151061AY221061GF108991051011008001021999KA1240N+02401MA1999999096951MD1999999-0061MW1031REMSYN088AAXX  29124 82983 21595 80906 10264 20190 39695 40107 70352 8512/ 333 20240 59006 69964;
0156829830999992005122918004-09383-040483FM-12+037099999V0200901N003110075019N0020001N1+03121+01791100671ADDGF108991999011008001021001MA1999999096571MD1999999-0031REMSYN070AAXX  29184 82983 32595 80906 10312 20179 39657 40067 88120 333 59003;EQDQ01+000082SCOTLC
0168829830999992005123000004-09383-040483FM-12+037099999V0201801N001510075019N0020001N1+02541+01981100831ADDGF106991061021008001001001KA1240M+03241MA1999999096711MD1999999-0171REMSYN088AAXX  30004 82983 32595 61803 10254 20198 39671 40083 86200 333 10324 29063 55031 59017;
0175829830999992005123012004-09383-040483FM-12+037099999V0200901N003110075019N0020001N1+02641+01801101241ADDGF108991999021008001001001KA1240N+02381MA1999999097101MD1999999+0051REMSYN076AAXX  30124 82983 32595 80906 10264 20180 39710 40124 86200 333 20238 58005;EQDQ01+000062SCOTLC
0156829830999992005123018004-09383-040483FM-12+037099999V0201401N003119999999N0020001N1+03321+01521100771ADDGF108991999021008001001001MA1999999096651MD1999999+0081REMSYN070AAXX  30184 82983 32595 81406 10332 20152 39665 40077 83200 333 58008;EQDQ01+000032SCOTLC
0156829830999992005123112004-09383-040483FM-12+037099999V0201401N003110075019N0020001N1+02661+01821101241ADDGF108991081021008001001001KA1240N+02461MA1999999097141MD1999999+0041REMSYN076AAXX  31124 82983 32595 81406 10266 20182 39714 40124 88200 333 20246 58004;
0137829830999992005123118004-09383-040483FM-12+037099999V0201401N002610450019N0020001N1+03181+01771100821ADDGF107991031011008001021011MA1999999096741MD1999999+0091REMSYN070AAXX  31184 82983 32595 71405 10318 20177 39674 40082 83121 333 58009;
