0186829940999992005032212004-09667-035700FM-12+008999999V0202301N001010450019N0040001N1+02961+02211101141ADDAA106000091GF106991021021012501061001KA1240N+02321MA1999999100401MD1999999+0061REMSYN076AAXX  22124 82994 32696 62302 10296 20221 30040 40114 82260 333 20232 58006;EQDQ01  00002PRCP06
0186829940999992005032612004-09667-035700FM-12+008999999V0202301N004611050019N0040001N1+02781+02301101021ADDAA106000091GF105991021021012501041011KA1240N+02181MA1999999100281MD1999999-0191REMSYN076AAXX  26124 82994 32696 52309 10278 20230 30028 40102 82241 333 20218 59019;EQDQ01  00002PRCP06
0167829940999992005052518004-09667-035700FM-12+008999999V0201401N004110450019N0040001N1+02901+02221101051ADDAA106000091GF107991041041012501031001MA1999999100311MD1999999+0101REMSYN070AAXX  25184 82994 32696 71408 10290 20222 30031 40105 84430 333 58010;EQDQ01  00002PRCP06
0211829940999992005062912004-09667-035700FM-12+008999999V0202301N005712200019N0040001N1+02681+02021101511ADDAA124004091AY181061AY201061GF102991011021008001041011KA1240N+02101MA1100411100771MD1999999+0001MW1031REMSYN098AAXX  29124 82994 21596 22311 10268 20202 30077 40151 70380 81241 333 20210 58000 60044 555 10042;
0137829940999992005091418004-09667-035700FM-12+006599999V0202301N001510450019N0040001N1+02621+02051101331ADDGF106991041031012501061001MA1999999100591MD1999999+0041REMSYN070AAXX  14184 82994 32696 62303 10262 20205 30059 40133 84360 333 58004;
0156829940999992005091612004-09667-035700FM-12+006599999V0200901N001510450019N0040001N1+02641+01981101581ADDGF106991031031008001041001KA1240N+01901MA1999999100841MD1999999-0121REMSYN076AAXX  16124 82994 32596 60903 10264 20198 30084 40158 83340 333 20190 59012;
