0198830960999992005010100004-10917-037050FM-12+000699999V0200901N004112200019N0020001N1+02671+02331101141ADDAA106000091GF101991011011012501001001KA1240M+03101MA1999999101071MD1999999-0161REMSYN088AAXX  01004 83096 32695 10908 10267 20233 30107 40114 81100 333 10310 29076 55109 59016;EQDQ01  00002PRCP06
0186830960999992005010112004-10917-037050FM-12+000699999V0200901N003112200019N0020001N1+02971+02211101331ADDAA106000091GF102991021011012501001001KA1240N+02451MA1999999101261MD1999999-0041REMSYN076AAXX  01124 83096 32695 20906 10297 20221 30126 40133 82100 333 20245 59004;EQDQ01  00002PRCP06
0167830960999992005010118004-10917-037050FM-12+000699999V0200901N003112200019N0020001N1+02971+02181101241ADDAA106000091GF101991011011012501001001MA1999999101171MD1999999-0041REMSYN070AAXX  01184 83096 32695 10906 10297 20218 30117 40124 81100 333 59004;EQDQ01  00002PRCP06
0198830960999992005010200004-10917-037050FM-12+000699999V0200901N004112200019N0020001N1+02691+02281101201ADDAA106000091GF102991021011012501001001KA1240M+03101MA1999999101131MD1999999+0061REMSYN088AAXX  02004 83096 32695 20908 10269 20228 30113 40120 82100 333 10310 29071 55115 58006;EQDQ01  00002PRCP06
0186830960999992005010212004-10917-037050FM-12+000699999V0200901N003612200019N0020001N1+02931+02191101451ADDAA106000091GF102991021011012501001001KA1240N+02451MA1999999101381MD1999999+0121REMSYN076AAXX  02124 83096 32695 20907 10293 20219 30138 40145 82100 333 20245 58012;EQDQ01  00002PRCP06
0167830960999992005010218004-10917-037050FM-12+000699999V0200901N003112200019N0020001N1+02951+02161101281ADDAA106000091GF102991021011012501001001MA1999999101211MD1999999+0041REMSYN070AAXX  02184 83096 32695 20906 10295 20216 30121 40128 82100 333 58004;EQDQ01  00002PRCP06
0190830960999992005010312004-10917-037050FM-12+000699999V0200901N003110120019N0020001N1+02911+02521101601ADDAY161061AY261061GF106991061011012501001001KA1240N+02391MA1999999101531MD1999999+0151MW1201REMSYN088AAXX  03124 83096 21695 60906 10291 20252 30153 40160 72066 86100 333 20239 58015 60014;
0148830960999992005010318004-10917-037050FM-12+000699999V0200901N005112200019N0020001N1+02941+02431101351ADDAA106000021GF101991011011012501001001MA1999999101281MD1999999+0071REMSYN070AAXX  03184 83096 32695 10910 10294 20243 30128 40135 81100 333 58007;
0198830960999992005010400004-10917-037050FM-12+000699999V0200901N005112200019N0020001N1+02661+02311101491ADDAA106000091GF101991011051012501001001KA1240M+03081MA1999999101421MD1999999+0071REMSYN088AAXX  04004 83096 32695 10910 10266 20231 30142 40149 81500 333 10308 29079 55058 58007;EQDQ01  00002PRCP06
0186830960999992005010412004-10917-037050FM-12+000699999V0200901N003612200019N0020001N1+02941+02331101541ADDAA106000091GF102991021011012501001001KA1240N+02391MA1999999101471MD1999999-0061REMSYN076AAXX  04124 83096 32695 20907 10294 20233 30147 40154 82100 333 20239 59006;EQDQ01  00002PRCP06
0137830960999992005010418004-10917-037050FM-12+000699999V0200901N004112200019N0020001N1+99999+99999999999ADDAA106000091GF101991999999012501999999REMSYN069AAXX  04184 83096 32695 10908 1292 20227 30117 40124 81100 333 59011;EQDQ01  00002PRCP06
0198830960999992005010500004-10917-037050FM-12+000699999V0200901N003612200019N0020001N1+02631+02231101441ADDAA106000091GF101991011051012501001001KA1240M+03101MA1999999101331MD1999999-0091REMSYN088AAXX  05004 83096 32695 10907 10263 20223 30133 40144 81500 333 10310 29073 55111 59009;EQDQ01  00002PRCP06
0186830960999992005010512004-10917-037050FM-12+000699999V0200901N003612200019N0020001N1+02901+02101101511ADDAA106000091GF102991021011012501001001KA1240N+02431MA1999999101441MD1999999-0031REMSYN076AAXX  05124 83096 32695 20907 10290 20210 30144 40151 82100 333 20243 59003;EQDQ01  00002PRCP06
0167830960999992005010518004-10917-037050FM-12+000699999V0200901N005112200019N0020001N1+02931+02141101221ADDAA106000091GF102991021011012501001001MA1999999101151MD1999999-0021REMSYN070AAXX  05184 83096 32695 20910 10293 20214 30115 40122 82100 333 59002;EQDQ01  00002PRCP06
0198830960999992005010600004-10917-037050FM-12+000699999V0200901N003112200019N0020001N1+02671+02111101361ADDAA106000091GF101991011051012501001001KA1240M+03101MA1999999101291MD1999999-0041REMSYN088AAXX  06004 83096 32695 10906 10267 20211 30129 40136 81500 333 10310 29066 55104 59004;EQDQ01  00002PRCP06
0186830960999992005010612004-10917-037050FM-12+000699999V0200901N003612200019N0020001N1+02951+02131101421ADDAA106000091GF101991011011012501001001KA1240N+02301MA1999999101351MD1999999-0091REMSYN076AAXX  06124 83096 32695 10907 10295 20213 30135 40142 81100 333 20230 59009;EQDQ01  00002PRCP06
0167830960999992005010618004-10917-037050FM-12+000699999V0200901N005112200019N0020001N1+02911+02221101081ADDAA106000091GF101991011011012501001001MA1999999101011MD1999999-0141REMSYN070AAXX  06184 83096 32695 10910 10291 20222 30101 40108 81100 333 59014;EQDQ01  00002PRCP06
0198830960999992005010700004-10917-037050FM-12+000699999V0200901N004112200019N0020001N1+02651+02201101421ADDAA106000091GF101991011051012501001001KA1240M+03121MA1999999101351MD1999999+0061REMSYN088AAXX  07004 83096 32695 10908 10265 20220 30135 40142 81500 333 10312 29070 55116 58006;EQDQ01  00002PRCP06
0186830960999992005010712004-10917-037050FM-12+000699999V0200901N004112200019N0020001N1+02951+02261101481ADDAA106000091GF101991011011012501001001KA1240N+02491MA1999999101411MD1999999+0061REMSYN076AAXX  07124 83096 32695 10908 10295 20226 30141 40148 81100 333 20249 58006;EQDQ01  00002PRCP06
0167830960999992005010718004-10917-037050FM-12+000699999V0201401N002112200019N0020001N1+02981+02201101291ADDAA106000091GF101991011011012501001001MA1999999101221MD1999999+0211REMSYN070AAXX  07184 83096 32695 11404 10298 20220 30122 40129 81100 333 58021;EQDQ01  00002PRCP06
0198830960999992005010800004-10917-037050FM-12+000699999V0200901N003110120019N0020001N1+02511+02451101391ADDAA106000091GF108991081051012501999999KA1240M+03121MA1999999101321MD1999999-0031REMSYN088AAXX  08004 83096 32695 80906 10251 20245 30132 40139 885// 333 10312 29080 55116 59003;EQDQ01  00002PRCP06
0167830960999992005010818004-10917-037050FM-12+000699999V0200901N003112200019N0020001N1+02971+02421101151ADDAA106000091GF101991011011012501001001MA1999999101081MD1999999-0141REMSYN070AAXX  08184 83096 32695 10906 10297 20242 30108 40115 81100 333 59014;EQDQ01  00002PRCP06
0173830960999992005010912004-10920-037050FM-12+000599999V0200901N003112200019N0020001N1+02911+02451101331ADDAA106000091GF101991011011012501001001MA1999999090121MD1999999-0071REMSYN076AAXX  09124 83096 32695 10906 10291 20245 39012 40133 81100 333 20241 59007;EQDQ01  00002PRCP06
0167830960999992005010918004-10920-037050FM-12+000599999V0200901N004112200019N0020001N1+02991+02371101081ADDAA106000091GF101991011011012501001001MA1999999101012MD1999999-0071REMSYN070AAXX  09184 83096 32695 10908 10299 20237 30101 40108 81100 333 59007;EQDQ01  00002PRCP06
0186830960999992005011012004-10917-037050FM-12+000699999V0200901N002610120019N0020001N1+02851+02421101191ADDAA106000091GF105991051011012501001001KA1240N+02451MA1999999101121MD1999999-0141REMSYN076AAXX  10124 83096 32695 50905 10285 20242 30112 40119 85100 333 20245 59014;EQDQ01  00002PRCP06
0167830960999992005011018004-10917-037050FM-12+000699999V0200901N003610120019N0020001N1+02951+02361101081ADDAA106000091GF105991051011012501001001MA1999999101011MD1999999+0001REMSYN070AAXX  10184 83096 32695 50907 10295 20236 30101 40108 85100 333 58000;EQDQ01  00002PRCP06
0198830960999992005011100004-10917-037050FM-12+000699999V0200901N004112200019N0020001N1+02711+02371101121ADDAA106000091GF102991021011012501001001KA1240M+03141MA1999999101051MD1999999-0061REMSYN088AAXX  11004 83096 32695 20908 10271 20237 30105 40112 82100 333 10314 29078 55058 59006;EQDQ01  00002PRCP06
0186830960999992005011112004-10917-037050FM-12+000699999V0200901N004112200019N0020001N1+02971+02311101271ADDAA106000091GF102991021011012501001001KA1240N+02491MA1999999101201MD1999999+0081REMSYN076AAXX  11124 83096 32695 20908 10297 20231 30120 40127 82100 333 20249 58008;EQDQ01  00002PRCP06
0167830960999992005011118004-10917-037050FM-12+000699999V0200901N004112200019N0020001N1+02981+02371101081ADDAA106000091GF104991041001012501031001MA1999999101011MD1999999+0001REMSYN070AAXX  11184 83096 32695 40908 10298 20237 30101 40108 84030 333 58000;EQDQ01  00002PRCP06
0198830960999992005011200004-10917-037050FM-12+000699999V0200901N004612200019N0020001N1+02691+02391101081ADDAA106000091GF101991011011012501001001KA1240M+03121MA1999999101011MD1999999-0041REMSYN088AAXX  12004 83096 32695 10909 10269 20239 30101 40108 81100 333 10312 29076 55110 59004;EQDQ01  00002PRCP06
0186830960999992005011212004-10917-037050FM-12+000699999V0200901N004112200019N0020001N1+02931+02221101171ADDAA106000091GF103991031011012501001001KA1240N+02471MA1999999101101MD1999999-0101REMSYN076AAXX  12124 83096 32695 30908 10293 20222 30110 40117 83100 333 20247 59010;EQDQ01  00002PRCP06
0167830960999992005011218004-10917-037050FM-12+000699999V0200901N005112200019N0020001N1+02951+02331100961ADDAA106000091GF102991021011012501001001MA1999999100891MD1999999-0121REMSYN070AAXX  12184 83096 32695 20910 10295 20233 30089 40096 82100 333 59012;EQDQ01  00002PRCP06
0198830960999992005011300004-10917-037050FM-12+000699999V0200901N005112200019N0020001N1+02671+02391100931ADDAA106000091GF101991011011012501001001KA1240M+03101MA1999999100861MD1999999-0151REMSYN088AAXX  13004 83096 32695 10910 10267 20239 30086 40093 81100 333 10310 29076 55112 59015;EQDQ01  00002PRCP06
0186830960999992005011312004-10917-037050FM-12+000699999V0200501N003112200019N0020001N1+02951+02191101081ADDAA106000091GF102991021011012501001001KA1240N+02471MA1999999101011MD1999999-0091REMSYN076AAXX  13124 83096 32695 20506 10295 20219 30101 40108 82100 333 20247 59009;EQDQ01  00002PRCP06
0167830960999992005011318004-10917-037050FM-12+000699999V0200901N005110120019N0020001N1+02911+02481100861ADDAA106000091GF105991051051012501001001MA1999999100791MD1999999-0101REMSYN070AAXX  13184 83096 32695 50910 10291 20248 30079 40086 85500 333 59010;EQDQ01  00002PRCP06
0198830960999992005011400004-10917-037050FM-12+000699999V0200501N001510120019N0020001N1+02731+02451101021ADDAA106000091GF106991061051012501001001KA1240M+03181MA1999999100951MD1999999-0151REMSYN088AAXX  14004 83096 32695 60503 10273 20245 30095 40102 86500 333 10318 29078 55067 59015;EQDQ01  00002PRCP06
0190830960999992005011412004-10917-037050FM-12+000699999V0203601N001510120019N0020001N1+02571+02401101131ADDAY161061AY261061GF105991051051012501001001KA1240N+02161MA1999999101061MD1999999+0051MW1211REMSYN088AAXX  14124 83096 21695 53603 10257 20240 30106 40113 72166 85500 333 20216 58005 60374;
0148830960999992005011418004-10917-037050FM-12+000699999V0200901N003110120019N0020001N1+02811+02441100991ADDAA106000021GF105991051051012501001001MA1999999100921MD1999999+0131REMSYN070AAXX  14184 83096 32695 50906 10281 20244 30092 40099 85500 333 58013;
0198830960999992005011500004-10917-037050FM-12+000699999V0200901N002612200019N0020001N1+02671+02441101051ADDAA106000091GF104991041051012501001001KA1240M+03001MA1999999100981MD1999999+0031REMSYN088AAXX  15004 83096 32695 40905 10267 20244 30098 40105 84500 333 10300 29087 55010 58003;EQDQ01  00002PRCP06
0186830960999992005011512004-10917-037050FM-12+000699999V0200901N002612200019N0020001N1+02891+02411101131ADDAA106000091GF103991031011012501001001KA1240N+02461MA1999999101061MD1999999+0001REMSYN076AAXX  15124 83096 32695 30905 10289 20241 30106 40113 83100 333 20246 58000;EQDQ01  00002PRCP06
0167830960999992005011518004-10917-037050FM-12+000699999V0200901N002612200019N0020001N1+02911+02391101011ADDAA106000091GF103991031011012501001001MA1999999100941MD1999999+0021REMSYN070AAXX  15184 83096 32695 30905 10291 20239 30094 40101 83100 333 58002;EQDQ01  00002PRCP06
0198830960999992005011600004-10917-037050FM-12+000699999V0200901N002612200019N0020001N1+02651+02391101051ADDAA106000091GF102991021011012501001001KA1240M+03041MA1999999100981MD1999999+0001REMSYN088AAXX  16004 83096 32695 20905 10265 20239 30098 40105 82100 333 10304 29080 55098 58000;EQDQ01  00002PRCP06
0186830960999992005011612004-10917-037050FM-12+000699999V0200901N003112200019N0020001N1+02891+02301101171ADDAA106000091GF102991021011012501001001KA1240N+02451MA1999999101101MD1999999+0041REMSYN076AAXX  16124 83096 32695 20906 10289 20230 30110 40117 82100 333 20245 58004;EQDQ01  00002PRCP06
0167830960999992005011618004-10917-037050FM-12+000699999V0200901N002612200019N0020001N1+02931+02321101071ADDAA106000091GF102991021011012501001001MA1999999101001MD1999999+0061REMSYN070AAXX  16184 83096 32695 20905 10293 20232 30100 40107 82100 333 58006;EQDQ01  00002PRCP06
0185830960999992005011700004-10920-037050FM-12+000599999V0200901N003112200019N0020001N1+02591+02331100911ADDAA106000091GF101991011011012501001001MA1999999100841MD1999999-0141REMSYN088AAXX  17004 83096 32695 10906 10259 20233 30084 40091 81100 333 10306 29078 55114 59014;EQDQ01  00002PRCP06
0173830960999992005011712004-10920-037050FM-12+000599999V0200901N003112200019N0020001N1+02931+02311101151ADDAA106000091GF103991999031012501001001MA1999999101081MD1999999-0021REMSYN076AAXX  17124 83096 32695 30906 10293 20231 30108 40115 81300 333 20241 59002;EQDQ01  00002PRCP06
0167830960999992005011718004-10920-037050FM-12+000599999V0200901N004112200019N0020001N1+02911+02361100941ADDAA106000091GF101991011011012501001001MA1999999100871MD1999999-0131REMSYN070AAXX  17184 83096 32695 10908 10291 20236 30087 40094 81100 333 59013;EQDQ01  00002PRCP06
0198830960999992005011800004-10917-037050FM-12+000699999V0200901N002612200019N0020001N1+02641+02371101131ADDAA106000091GF101991011051012501001001KA1240M+03061MA1999999101061MD1999999+0221REMSYN088AAXX  18004 83096 32695 10905 10264 20237 30106 40113 81500 333 10306 29078 55095 58022;EQDQ01  00002PRCP06
0202830960999992005011812004-10917-037050FM-12+000699999V0200901N003110120019N0020001N1+02831+02461101141ADDAA106000091GF106991999011012501001001KA1240N+02451MA1999999101071MD1999999-0011REMSYN076AAXX  18124 83096 32695 60906 10283 20246 30107 40114 85100 333 20245 59001;EQDQ01+000052SCOTLCQ02  00002PRCP06
0167830960999992005011818004-10917-037050FM-12+000699999V0200901N005112200019N0020001N1+02931+02381100881ADDAA106000091GF101991011051012501001001MA1999999100811MD1999999-0061REMSYN070AAXX  18184 83096 32695 10910 10293 20238 30081 40088 81500 333 59006;EQDQ01  00002PRCP06
0198830960999992005011900004-10917-037050FM-12+000699999V0200901N004112200019N0020001N1+02681+02371101131ADDAA106000091GF101991011051012501001001KA1240M+03091MA1999999101061MD1999999+0001REMSYN088AAXX  19004 83096 32695 10908 10268 20237 30106 40113 81500 333 10309 29079 55107 58000;EQDQ01  00002PRCP06
0186830960999992005011912004-10917-037050FM-12+000699999V0200901N003112200019N0020001N1+02951+02421101241ADDAA106000091GF102991021011012501001001KA1240N+02391MA1999999101171MD1999999+0101REMSYN076AAXX  19124 83096 32695 20906 10295 20242 30117 40124 82100 333 20239 58010;EQDQ01  00002PRCP06
0167830960999992005011918004-10917-037050FM-12+000699999V0200901N005112200019N0020001N1+02941+02381100991ADDAA106000091GF101991011011012501001001MA1999999100921MD1999999+0111REMSYN070AAXX  19184 83096 32695 10910 10294 20238 30092 40099 81100 333 58011;EQDQ01  00002PRCP06
0198830960999992005012000004-10917-037050FM-12+000699999V0200901N004112200019N0020001N1+02701+02411101201ADDAA106000091GF101991011051012501001001KA1240M+03121MA1999999101131MD1999999+0071REMSYN088AAXX  20004 83096 32695 10908 10270 20241 30113 40120 81500 333 10312 29078 55112 58007;EQDQ01  00002PRCP06
0186830960999992005012012004-10917-037050FM-12+000699999V0200901N002610120019N0020001N1+02871+02661101341ADDAA106000091GF108991081021012501999999KA1240N+02471MA1999999101271MD1999999+0101REMSYN076AAXX  20124 83096 32695 80905 10287 20266 30127 40134 882// 333 20247 58010;EQDQ01  00002PRCP06
0167830960999992005012018004-10917-037050FM-12+000699999V0200901N005712200019N0020001N1+02931+02381101061ADDAA106000091GF101991011011012501001001MA1999999100991MD1999999+0111REMSYN070AAXX  20184 83096 32695 10911 10293 20238 30099 40106 81100 333 58011;EQDQ01  00002PRCP06
0198830960999992005012100004-10917-037050FM-12+000699999V0200901N004112200019N0020001N1+02671+02391101261ADDAA106000091GF101991011051012501001001KA1240M+03081MA1999999101191MD1999999+0061REMSYN088AAXX  21004 83096 32695 10908 10267 20239 30119 40126 81500 333 10308 29082 55088 58006;EQDQ01  00002PRCP06
0186830960999992005012112004-10917-037050FM-12+000699999V0200901N003110120019N0020001N1+02911+02411101401ADDAA106000091GF106991061021012501001001KA1240N+02411MA1999999101331MD1999999+0061REMSYN076AAXX  21124 83096 32695 60906 10291 20241 30133 40140 86200 333 20241 58006;EQDQ01  00002PRCP06
0167830960999992005012118004-10917-037050FM-12+000699999V0200901N004612200019N0020001N1+02941+02431101101ADDAA106000091GF101991011011012501001001MA1999999101031MD1999999+0041REMSYN070AAXX  21184 83096 32695 10909 10294 20243 30103 40110 81100 333 58004;EQDQ01  00002PRCP06
0198830960999992005012200004-10917-037050FM-12+000699999V0200901N003112200019N0020001N1+02681+02451101301ADDAA106000091GF101991011051012501001001KA1240M+03081MA1999999101231MD1999999+0041REMSYN088AAXX  22004 83096 32695 10906 10268 20245 30123 40130 81500 333 10308 29080 55083 58004;EQDQ01  00002PRCP06
0186830960999992005012212004-10917-037050FM-12+000699999V0200901N004112200019N0020001N1+02961+02451101431ADDAA106000091GF102991021011012501001001KA1240N+02491MA1999999101361MD1999999+0031REMSYN076AAXX  22124 83096 32695 20908 10296 20245 30136 40143 82100 333 20249 58003;EQDQ01  00002PRCP06
0167830960999992005012218004-10917-037050FM-12+000699999V0200901N003612200019N0020001N1+02971+02471101151ADDAA106000091GF101991011011012501001001MA1999999101081MD1999999+0051REMSYN070AAXX  22184 83096 32695 10907 10297 20247 30108 40115 81100 333 58005;EQDQ01  00002PRCP06
0173830960999992005012312004-10920-037050FM-12+000599999V0200901N002612200019N0020001N1+02941+02361101351ADDAA106000091GF101991011011012501001001MA1999999101281MD1999999-0081REMSYN076AAXX  23124 83096 32695 10905 10294 20236 30128 40135 81100 333 20237 59008;EQDQ01  00002PRCP06
0167830960999992005012318004-10920-037050FM-12+000599999V0200901N004112200019N0020001N1+02901+02321100991ADDAA106000091GF101991011011012501001001MA1999999100921MD1999999-0161REMSYN070AAXX  23184 83096 32695 10908 10290 20232 30092 40099 81100 333 59016;EQDQ01  00002PRCP06
0173830960999992005012412004-10920-037050FM-12+000599999V0200901N002112200019N0020001N1+02931+02241101201ADDAA106000091GF103991031011012501001001MA1999999101131MD1999999-0151REMSYN076AAXX  24124 83096 32695 30904 10293 20224 30113 40120 83100 333 20230 59015;EQDQ01  00002PRCP06
0167830960999992005012418004-10920-037050FM-12+000599999V0200901N003112200019N0020001N1+02981+02301100981ADDAA106000091GF102991021011012501001001MA1999999100911MD1999999-0011REMSYN070AAXX  24184 83096 32695 20906 10298 20230 30091 40098 82100 333 59001;EQDQ01  00002PRCP06
0198830960999992005012500004-10917-037050FM-12+000699999V0200901N003112200019N0020001N1+02691+02281100981ADDAA106000091GF102991021011012501001001KA1240M+03101MA1999999100911MD1999999-0051REMSYN088AAXX  25004 83096 32695 20906 10269 20228 30091 40098 82100 333 10310 29073 55112 59005;EQDQ01  00002PRCP06
0186830960999992005012512004-10917-037050FM-12+000699999V0200901N001512200019N0020001N1+02851+02221101131ADDAA106000091GF104991041011012501001001KA1240N+02391MA1999999101061MD1999999-0071REMSYN076AAXX  25124 83096 32695 40903 10285 20222 30106 40113 84100 333 20239 59007;EQDQ01  00002PRCP06
0167830960999992005012518004-10917-037050FM-12+000699999V0201401N002612200019N0020001N1+02991+02331100981ADDAA106000091GF101991011011012501001001MA1999999100911MD1999999+0001REMSYN070AAXX  25184 83096 32695 11405 10299 20233 30091 40098 81100 333 58000;EQDQ01  00002PRCP06
0198830960999992005012600004-10917-037050FM-12+000699999V0200901N003110120019N0020001N1+02731+02451101021ADDAA106000091GF105991051051012501001001KA1240M+03161MA1999999100951MD1999999+0041REMSYN088AAXX  26004 83096 32695 50906 10273 20245 30095 40102 85500 333 10316 29077 55115 58004;EQDQ01  00002PRCP06
0186830960999992005012612004-10917-037050FM-12+000699999V0200501N002112200019N0020001N1+03031+02411101151ADDAA106000091GF101991011011012501001001KA1240N+02501MA1999999101081MD1999999+0021REMSYN076AAXX  26124 83096 32695 10504 10303 20241 30108 40115 81100 333 20250 58002;EQDQ01  00002PRCP06
0167830960999992005012618004-10917-037050FM-12+000699999V0200901N005112200019N0020001N1+03051+02551100951ADDAA106000091GF101991011011012501001001MA1999999100881MD1999999-0031REMSYN070AAXX  26184 83096 32695 10910 10305 20255 30088 40095 81100 333 59003;EQDQ01  00002PRCP06
0198830960999992005012700004-10917-037050FM-12+000699999V0200901N004112200019N0020001N1+02791+02481101011ADDAA106000091GF101991011011012501001001KA1240M+03301MA1999999100941MD1999999-0011REMSYN088AAXX  27004 83096 32695 10908 10279 20248 30094 40101 81100 333 10330 29078 55109 59001;EQDQ01  00002PRCP06
0186830960999992005012712004-10917-037050FM-12+000699999V0200901N003112200019N0020001N1+02911+02411101171ADDAA106000091GF102991021011012501001001KA1240N+02501MA1999999101101MD1999999+0021REMSYN076AAXX  27124 83096 32695 20906 10291 20241 30110 40117 82100 333 20250 58002;EQDQ01  00002PRCP06
0167830960999992005012718004-10917-037050FM-12+000699999V0200901N005112200019N0020001N1+02991+02491101081ADDAA106000091GF102991021011012501001001MA1999999101011MD1999999+0131REMSYN070AAXX  27184 83096 32695 20910 10299 20249 30101 40108 82100 333 58013;EQDQ01  00002PRCP06
0198830960999992005012800004-10917-037050FM-12+000699999V0200901N003112200019N0020001N1+02691+02451101141ADDAA106000091GF101991011011012501001001KA1240M+03101MA1999999101071MD1999999+0131REMSYN088AAXX  28004 83096 32695 10906 10269 20245 30107 40114 81100 333 10310 29081 55105 58013;EQDQ01  00002PRCP06
0190830960999992005012812004-10917-037050FM-12+000699999V0202301N001510120019N0020001N1+02631+02461101271ADDAY161061AY261061GF106991061051012501001001KA1240N+02451MA1999999101201MD1999999+0101MW1211REMSYN088AAXX  28124 83096 21695 62303 10263 20246 30120 40127 72166 86500 333 20245 58010 60064;
0148830960999992005012818004-10917-037050FM-12+000699999V0201801N002112200019N0020001N1+02851+02351101061ADDAA106000021GF103991031011012501001001MA1999999100991MD1999999-0021REMSYN070AAXX  28184 83096 32695 31804 10285 20235 30099 40106 83100 333 59002;
0198830960999992005012900004-10917-037050FM-12+000699999V0201801N001512200019N0020001N1+02591+02331101051ADDAA106000091GF102991021011012501001001KA1240M+02991MA1999999100981MD1999999-0091REMSYN088AAXX  29004 83096 32695 21803 10259 20233 30098 40105 82100 333 10299 29084 55047 59009;EQDQ01  00002PRCP06
0190830960999992005012912004-10917-037050FM-12+000699999V0202701N001510120019N0020001N1+02531+02361101051ADDAY161061AY261061GF106991061051012501001001KA1240N+02361MA1999999100981MD1999999-0221MW1211REMSYN088AAXX  29124 83096 21695 62703 10253 20236 30098 40105 72166 86500 333 20236 59022 60084;
0148830960999992005012918004-10917-037050FM-12+000699999V0200901N002612200019N0020001N1+02971+02351100871ADDAA106000021GF102991021011012501001001MA1999999100801MD1999999-0191REMSYN070AAXX  29184 83096 32695 20905 10297 20235 30080 40087 82100 333 59019;
0185830960999992005013000004-10920-037050FM-12+000599999V0200901N004112200019N0020001N1+02711+02351100871ADDAA106000091GF102991021011012501001001MA1999999100801MD1999999-0181REMSYN088AAXX  30004 83096 32695 20908 10271 20235 30080 40087 82100 333 10304 29080 55083 59018;EQDQ01  00002PRCP06
0173830960999992005013012004-10920-037050FM-12+000599999V0200901N003612200019N0020001N1+02951+02191101031ADDAA106000091GF103991031011012501001001MA1999999100961MD1999999-0021REMSYN076AAXX  30124 83096 32695 30907 10295 20219 30096 40103 83100 333 20245 59002;EQDQ01  00002PRCP06
0167830960999992005013018004-10920-037050FM-12+000599999V0200901N004112200019N0020001N1+02991+02201100861ADDAA106000091GF103991031011012501001001MA1999999100791MD1999999-0011REMSYN070AAXX  30184 83096 32695 30908 10299 20220 30079 40086 83100 333 59001;EQDQ01  00002PRCP06
0186830960999992005013112004-10917-037050FM-12+000699999V0200901N004112200019N0020001N1+02961+02331101121ADDAA106000091GF103991031011012501001001KA1240N+02481MA1999999101051MD1999999+0091REMSYN076AAXX  31124 83096 32695 30908 10296 20233 30105 40112 83100 333 20248 58009;EQDQ01  00002PRCP06
0167830960999992005013118004-10917-037050FM-12+000699999V0200901N005112200019N0020001N1+02921+02411100821ADDAA106000091GF101991011011012501051001MA1999999100751MD1999999-0041REMSYN070AAXX  31184 83096 32695 10910 10292 20241 30075 40082 81150 333 59004;EQDQ01  00002PRCP06
0198830960999992005020100004-10917-037050FM-12+000699999V0200901N003112200019N0020001N1+02691+02431101051ADDAA106000091GF101991011051012501001001KA1240M+03091MA1999999100981MD1999999+0081REMSYN088AAXX  01004 83096 32695 10906 10269 20243 30098 40105 81500 333 10309 29078 55114 58008;EQDQ01  00002PRCP06
0186830960999992005020112004-10917-037050FM-12+000699999V0200901N003112200019N0020001N1+02911+02301101001ADDAA106000091GF103991031011012501001001KA1240N+02301MA1999999100931MD1999999-0121REMSYN076AAXX  01124 83096 32695 30906 10291 20230 30093 40100 83100 333 20230 59012;EQDQ01  00002PRCP06
0167830960999992005020118004-10917-037050FM-12+000699999V0200901N005710120019N0020001N1+02861+02391100861ADDAA106000091GF106991061011012501001001MA1999999100791MD1999999+0061REMSYN070AAXX  01184 83096 32695 60911 10286 20239 30079 40086 86100 333 58006;EQDQ01  00002PRCP06
0198830960999992005020200004-10917-037050FM-12+000699999V0200901N002612200019N0020001N1+02671+02451101061ADDAA106000091GF101991011051012501001001KA1240M+03101MA1999999100991MD1999999+0011REMSYN088AAXX  02004 83096 32695 10905 10267 20245 30099 40106 81500 333 10310 29080 55086 58001;EQDQ01  00002PRCP06
0186830960999992005020212004-10917-037050FM-12+000699999V02099999999992200019N0020001N1+02951+02471101181ADDAA106000091GF102991021011012501001001KA1240N+02431MA1999999101111MD1999999+0281REMSYN076AAXX  02124 83096 32695 209// 10295 20247 30111 40118 82100 333 20243 58028;EQDQ01  00002PRCP06
0167830960999992005020218004-10917-037050FM-12+000699999V0201401N003110120019N0020001N1+02991+02491100991ADDAA106000091GF106991061011012501011001MA1999999100921MD1999999+0131REMSYN070AAXX  02184 83096 32695 61406 10299 20249 30092 40099 86110 333 58013;EQDQ01  00002PRCP06
0198830960999992005020300004-10917-037050FM-12+000699999V0200901N003112200019N0020001N1+02691+02501101221ADDAA106000091GF101991011051012501001001KA1240M+03131MA1999999101151MD1999999+0161REMSYN088AAXX  03004 83096 32695 10906 10269 20250 30115 40122 81500 333 10313 29080 55111 58016;EQDQ01  00002PRCP06
0162830960999992005020312004-10917-037050FM-12+000699999V0200901N003112200019N0020001N1+02951+02401101331ADDGF103991021001012501061061KA1240N+02411MA1999999101261MD1999999+0151REMSYN082AAXX  03124 83096 22695 30906 10295 20240 30126 40133 82066 333 20241 58015 69944;
0167830960999992005020318004-10917-037050FM-12+000699999V0201401N003112200019N0020001N1+02981+02371101071ADDAA106000091GF101991011011012501001001MA1999999101001MD1999999+0081REMSYN070AAXX  03184 83096 32695 11406 10298 20237 30100 40107 81100 333 58008;EQDQ01  00002PRCP06
0198830960999992005020400004-10917-037050FM-12+000699999V0200901N003112200019N0020001N1+02701+02371101341ADDAA106000091GF101991011051012501001001KA1240M+03121MA1999999101271MD1999999+0121REMSYN088AAXX  04004 83096 32695 10906 10270 20237 30127 40134 81500 333 10312 29076 55112 58012;EQDQ01  00002PRCP06
0190830960999992005020412004-10917-037050FM-12+000699999V0201401N002610120019N0020001N1+02951+02351101511ADDAY151061AY251061GF105991051011012501001001KA1240N+02431MA1999999101441MD1999999+0181MW1201REMSYN088AAXX  04124 83096 21695 51405 10295 20235 30144 40151 72055 85100 333 20243 58018 60014;
0148830960999992005020418004-10917-037050FM-12+000699999V0201401N003112200019N0020001N1+02961+02381101271ADDAA106000021GF101991011011012501001001MA1999999101201MD1999999+0201REMSYN070AAXX  04184 83096 32695 11406 10296 20238 30120 40127 81100 333 58020;
0198830960999992005020500004-10917-037050FM-12+000699999V0201401N003112200019N0020001N1+02711+02301101501ADDAA106000091GF101991011051012501001001KA1240M+03121MA1999999101431MD1999999+0161REMSYN088AAXX  05004 83096 32695 11406 10271 20230 30143 40150 81500 333 10312 29074 55094 58016;EQDQ01  00002PRCP06
0186830960999992005020512004-10917-037050FM-12+000699999V0201401N002110120019N0020001N1+02981+02491101531ADDAA106000091GF105991051011012501001001KA1240N+02471MA1999999101461MD1999999+0021REMSYN076AAXX  05124 83096 32695 51404 10298 20249 30146 40153 85100 333 20247 58002;EQDQ01  00002PRCP06
0167830960999992005020518004-10917-037050FM-12+000699999V0201401N002612200019N0020001N1+03001+02371101311ADDAA106000091GF101991011011012501001001MA1999999101241MD1999999+0041REMSYN070AAXX  05184 83096 32695 11405 10300 20237 30124 40131 81100 333 58004;EQDQ01  00002PRCP06
0173830960999992005020612004-10920-037050FM-12+000599999V0200901N002112200019N0020001N1+02891+02371101431ADDAA106000091GF102991021011012501001001MA1999999101361MD1999999-0101REMSYN076AAXX  06124 83096 32695 20904 10289 20237 30136 40143 82100 333 20242 59010;EQDQ01  00002PRCP06
0167830960999992005020618004-10920-037050FM-12+000599999V0201401N003112200019N0020001N1+02971+02331101141ADDAA106000091GF101991011011012501001001MA1999999101071MD1999999-0171REMSYN070AAXX  06184 83096 32695 11406 10297 20233 30107 40114 81100 333 59017;EQDQ01  00002PRCP06
0198830960999992005020700004-10917-037050FM-12+000699999V0201401N003112200019N0020001N1+02711+02241101191ADDAA106000091GF101991011051012501001001KA1240M+03131MA1999999101121MD1999999-0241REMSYN088AAXX  07004 83096 32695 11406 10271 20224 30112 40119 81500 333 10313 29073 55111 59024;EQDQ01  00002PRCP06
0186830960999992005020712004-10917-037050FM-12+000699999V0201401N002612200019N0020001N1+02901+02461101271ADDAA106000091GF101991011011012501001001KA1240N+02481MA1999999101201MD1999999-0161REMSYN076AAXX  07124 83096 32695 11405 10290 20246 30120 40127 81100 333 20248 59016;EQDQ01  00002PRCP06
0167830960999992005020718004-10917-037050FM-12+000699999V0201401N003112200019N0020001N1+03041+02311101131ADDAA106000091GF103991031011012501001001MA1999999101061MD1999999-0011REMSYN070AAXX  07184 83096 32695 31406 10304 20231 30106 40113 83100 333 59001;EQDQ01  00002PRCP06
0198830960999992005020800004-10917-037050FM-12+000699999V0201401N001512200019N0020001N1+02731+02401101221ADDAA106000091GF101991011051012501001001KA1240M+03181MA1999999101151MD1999999+0031REMSYN088AAXX  08004 83096 32695 11403 10273 20240 30115 40122 81500 333 10318 29076 55106 58003;EQDQ01  00002PRCP06
0190830960999992005020812004-10917-037050FM-12+000699999V0201401N001512200019N0020001N1+02821+02441101261ADDAY151061AY251061GF102991021021012501001001KA1240N+02491MA1999999101191MD1999999-0011MW1201REMSYN088AAXX  08124 83096 21695 21403 10282 20244 30119 40126 72055 82200 333 20249 59001 69964;
0148830960999992005020818004-10917-037050FM-12+000699999V0201401N003112200019N0020001N1+03031+02381101011ADDAA106000021GF101991011011012501001001MA1999999100941MD1999999-0121REMSYN070AAXX  08184 83096 32695 11406 10303 20238 30094 40101 81100 333 59012;
0190830960999992005020912004-10917-037050FM-12+000699999V0202701N003112200019N0020001N1+02621+02351101311ADDAY161061AY261061GF103991031011012501001001KA1240N+02221MA1999999101241MD1999999+0051MW1211REMSYN088AAXX  09124 83096 21695 32706 10262 20235 30124 40131 72166 83100 333 20222 58005 60474;
0148830960999992005020918004-10917-037050FM-12+000699999V0201401N004112200019N0020001N1+02921+02361100911ADDAA106000021GF101991011011012501001001MA1999999100841MD1999999-0101REMSYN070AAXX  09184 83096 32695 11408 10292 20236 30084 40091 81100 333 59010;
0198830960999992005021000004-10917-037050FM-12+000699999V0201401N001512200019N0020001N1+02711+02321101121ADDAA106000091GF101991011051012501001001KA1240M+03041MA1999999101051MD1999999-0161REMSYN088AAXX  10004 83096 32695 11403 10271 20232 30105 40112 81500 333 10304 29079 55094 59016;EQDQ01  00002PRCP06
0190830960999992005021012004-10917-037050FM-12+000699999V0200901N001512200019N0020001N1+02611+02351101071ADDAY151061AY251061GF103991031051012501001001KA1240N+02221MA1999999101001MD1999999-0241MW1201REMSYN088AAXX  10124 83096 21695 30903 10261 20235 30100 40107 72055 83500 333 20222 59024 69984;
0148830960999992005021018004-10917-037050FM-12+000699999V0201401N002610120019N0020001N1+02821+02331100921ADDAA106000021GF106991061011012501001001MA1999999100851MD1999999+0011REMSYN070AAXX  10184 83096 32695 61405 10282 20233 30085 40092 86100 333 58001;
0198830960999992005021100004-10917-037050FM-12+000699999V0200901N001512200019N0020001N1+02681+02391100941ADDAA106000091GF101991011051012501001001KA1240M+03061MA1999999100871MD1999999-0181REMSYN088AAXX  11004 83096 32695 10903 10268 20239 30087 40094 81500 333 10306 29082 55030 59018;EQDQ01  00002PRCP06
0186830960999992005021112004-10917-037050FM-12+000699999V0200901N001512200019N0020001N1+02951+02451101021ADDAA106000091GF103991031051012501001001KA1240N+02431MA1999999100951MD1999999-0051REMSYN076AAXX  11124 83096 32695 30903 10295 20245 30095 40102 83500 333 20243 59005;EQDQ01  00002PRCP06
0167830960999992005021118004-10917-037050FM-12+000699999V0200901N005110120019N0020001N1+02981+02421100911ADDAA106000091GF106991061011012501001001MA1999999100841MD1999999-0011REMSYN070AAXX  11184 83096 32695 60910 10298 20242 30084 40091 86100 333 59001;EQDQ01  00002PRCP06
0198830960999992005021200004-10917-037050FM-12+000699999V0200901N003612200019N0020001N1+02751+02421101081ADDAA106000091GF103991031051012501001001KA1240M+03121MA1999999101011MD1999999+0141REMSYN088AAXX  12004 83096 32695 30907 10275 20242 30101 40108 83500 333 10312 29078 55078 58014;EQDQ01  00002PRCP06
0186830960999992005021212004-10917-037050FM-12+000699999V0200501N001512200019N0020001N1+03021+02261101131ADDAA106000091GF103991031011012501001001KA1240N+02451MA1999999101061MD1999999+0111REMSYN076AAXX  12124 83096 32695 30503 10302 20226 30106 40113 83100 333 20245 58011;EQDQ01  00002PRCP06
0167830960999992005021218004-10917-037050FM-12+000699999V0200901N005110120019N0020001N1+02951+02451100971ADDAA106000091GF108991081021012501999999MA1999999100901MD1999999+0061REMSYN070AAXX  12184 83096 32695 80910 10295 20245 30090 40097 882// 333 58006;EQDQ01  00002PRCP06
0185830960999992005021300004-10920-037050FM-12+000599999V0200901N005110120019N0020001N1+02771+02401101181ADDAA106000091GF108991081051012501999999MA1999999101111MD1999999+0101REMSYN088AAXX  13004 83096 32695 80910 10277 20240 30111 40118 885// 333 10315 29074 55057 58010;EQDQ01  00002PRCP06
0173830960999992005021312004-10920-037050FM-12+000599999V0200901N004112200019N0020001N1+03041+02411101261ADDAA106000091GF102991021011012501001001MA1999999101191MD1999999+0131REMSYN076AAXX  13124 83096 32695 20908 10304 20241 30119 40126 82100 333 20233 58013;EQDQ01  00002PRCP06
0167830960999992005021318004-10920-037050FM-12+000599999V0200901N008210120019N0020001N1+02841+02421100921ADDAA106000091GF108991081021012501999999MA1999999100851MD1999999-0051REMSYN070AAXX  13184 83096 32695 80916 10284 20242 30085 40092 882// 333 59005;EQDQ01  00002PRCP06
0198830960999992005021400004-10917-037050FM-12+000699999V0200901N004610120019N0020001N1+02771+02461101121ADDAA106000091GF108991081051012501999999KA1240M+03121MA1999999101051MD1999999-0061REMSYN088AAXX  14004 83096 32695 80909 10277 20246 30105 40112 885// 333 10312 29078 55070 59006;EQDQ01  00002PRCP06
0190830960999992005021412004-10917-037050FM-12+000699999V0200901N002612200019N0020001N1+02851+02351101031ADDAY161061AY261061GF104991041011012501001001KA1240N+02351MA1999999100961MD1999999-0231MW1211REMSYN088AAXX  14124 83096 21695 40905 10285 20235 30096 40103 72166 84100 333 20235 59023 60024;
0148830960999992005021418004-10917-037050FM-12+000699999V0200901N005112200019N0020001N1+02911+02481100841ADDAA106000021GF104991041051012501001001MA1999999100771MD1999999-0081REMSYN070AAXX  14184 83096 32695 40910 10291 20248 30077 40084 84500 333 59008;
0198830960999992005021500004-10917-037050FM-12+000699999V0200901N004110120019N0020001N1+02781+02501100941ADDAA106000091GF108991081051012501999999KA1240M+03121MA1999999100871MD1999999-0181REMSYN088AAXX  15004 83096 32695 80908 10278 20250 30087 40094 885// 333 10312 29081 55063 59018;EQDQ01  00002PRCP06
0186830960999992005021512004-10917-037050FM-12+000699999V0200501N001510120019N0020001N1+02751+02361100931ADDAA106000091GF106991061051012501001001KA1240N+02201MA1999999100861MD1999999-0101REMSYN076AAXX  15124 83096 32695 60503 10275 20236 30086 40093 86500 333 20220 59010;EQDQ01  00002PRCP06
0167830960999992005021518004-10917-037050FM-12+000699999V0201801N002110120019N0020001N1+02891+02411100771ADDAA106000091GF106991061051012501001001MA1999999100701MD1999999-0071REMSYN070AAXX  15184 83096 32695 61804 10289 20241 30070 40077 86500 333 59007;EQDQ01  00002PRCP06
0198830960999992005021600004-10917-037050FM-12+000699999V0200901N003610120019N0020001N1+02761+02501101001ADDAA106000091GF108991081021012501999999KA1240M+03061MA1999999100931MD1999999+0061REMSYN088AAXX  16004 83096 32695 80907 10276 20250 30093 40100 882// 333 10306 29082 55002 58006;EQDQ01  00002PRCP06
0186830960999992005021612004-10917-037050FM-12+000699999V0200901N002610120019N0020001N1+02931+02451100911ADDAA106000091GF105991051011012501001001KA1240N+02451MA1999999100841MD1999999-0021REMSYN076AAXX  16124 83096 32695 50905 10293 20245 30084 40091 85100 333 20245 59002;EQDQ01  00002PRCP06
0167830960999992005021618004-10917-037050FM-12+000699999V0200901N005110120019N0020001N1+02891+02501100801ADDAA106000091GF106991061051012501001001MA1999999100731MD1999999+0031REMSYN070AAXX  16184 83096 32695 60910 10289 20250 30073 40080 86500 333 58003;EQDQ01  00002PRCP06
0198830960999992005021700004-10917-037050FM-12+000699999V0200901N002610120019N0020001N1+02751+02441101191ADDAA106000091GF108991081021012501999999KA1240M+03161MA1999999101121MD1999999+0191REMSYN088AAXX  17004 83096 32695 80905 10275 20244 30112 40119 882// 333 10316 29082 55048 58019;EQDQ01  00002PRCP06
0186830960999992005021712004-10917-037050FM-12+000699999V0200901N003112200019N0020001N1+02951+02521101231ADDAA106000091GF103991031011012501001001KA1240N+02451MA1999999101161MD1999999+0321REMSYN076AAXX  17124 83096 32695 30906 10295 20252 30116 40123 83100 333 20245 58032;EQDQ01  00002PRCP06
0167830960999992005021718004-10917-037050FM-12+000699999V0200901N003612200019N0020001N1+02991+02441101101ADDAA106000091GF103991031011012501001001MA1999999101031MD1999999+0201REMSYN070AAXX  17184 83096 32695 30907 10299 20244 30103 40110 83100 333 58020;EQDQ01  00002PRCP06
0198830960999992005021800004-10917-037050FM-12+000699999V0200901N003610120019N0020001N1+02761+02421101301ADDAA106000091GF108991081051012501999999KA1240M+03121MA1999999101231MD1999999+0111REMSYN088AAXX  18004 83096 32695 80907 10276 20242 30123 40130 885// 333 10312 29079 55103 58011;EQDQ01  00002PRCP06
0186830960999992005021812004-10917-037050FM-12+000699999V0200901N003112200019N0020001N1+02931+02431101351ADDAA106000091GF104991041011012501001001KA1240N+02451MA1999999101281MD1999999+0121REMSYN076AAXX  18124 83096 32695 40906 10293 20243 30128 40135 84100 333 20245 58012;EQDQ01  00002PRCP06
0167830960999992005021818004-10917-037050FM-12+000699999V0201401N002112200019N0020001N1+03011+02341101241ADDAA106000091GF102991021011012501001001MA1999999101171MD1999999+0141REMSYN070AAXX  18184 83096 32695 21404 10301 20234 30117 40124 82100 333 58014;EQDQ01  00002PRCP06
0198830960999992005021900004-10917-037050FM-12+000699999V0200901N003112200019N0020001N1+02751+02401101401ADDAA106000091GF101991011051012501001001KA1240M+03121MA1999999101331MD1999999+0101REMSYN088AAXX  19004 83096 32695 10906 10275 20240 30133 40140 81500 333 10312 29077 55099 58010;EQDQ01  00002PRCP06
0186830960999992005021912004-10917-037050FM-12+000699999V0200901N002612200019N0020001N1+02911+02481101251ADDAA106000091GF102991021011012501001001KA1240N+02451MA1999999101281MD1999999+0001REMSYN076AAXX  19124 83096 32695 20905 10291 20248 30128 40125 82100 333 20245 58000;EQDQ01  00002PRCP06
0167830960999992005021918004-10917-037050FM-12+000699999V0200901N002612200019N0020001N1+02991+02371101261ADDAA106000091GF102991021011012501001001MA1999999101191MD1999999+0021REMSYN070AAXX  19184 83096 32695 20905 10299 20237 30119 40126 82100 333 58002;EQDQ01  00002PRCP06
0185830960999992005022000004-10920-037050FM-12+000599999V0200901N003112200019N0020001N1+02711+02351101191ADDAA106000091GF102991021011012501001001MA1999999101121MD1999999-0211REMSYN088AAXX  20004 83096 32695 20906 10271 20235 30112 40119 82100 333 10312 29077 55097 59021;EQDQ01  00002PRCP06
0173830960999992005022012004-10920-037050FM-12+000599999V0200901N002112200019N0020001N1+02951+02331101251ADDAA106000091GF103991031011012501001001MA1999999101181MD1999999-0101REMSYN076AAXX  20124 83096 32695 30904 10295 20233 30118 40125 83100 333 20237 59010;EQDQ01  00002PRCP06
0167830960999992005022018004-10920-037050FM-12+000599999V0200901N002112200019N0020001N1+03011+02341101181ADDAA106000091GF102991021011012501001001MA1999999101111MD1999999-0081REMSYN070AAXX  20184 83096 32695 20904 10301 20234 30111 40118 82100 333 59008;EQDQ01  00002PRCP06
0198830960999992005022100004-10917-037050FM-12+000699999V0200901N003112200019N0020001N1+02711+02301101071ADDAA106000091GF102991021011012501001001KA1240M+03121MA1999999101001MD1999999-0121REMSYN088AAXX  21004 83096 32695 20906 10271 20230 30100 40107 82100 333 10312 29074 55105 59012;EQDQ01  00002PRCP06
0186830960999992005022112004-10917-037050FM-12+000699999V0200901N003112200019N0020001N1+02971+02231101051ADDAA106000091GF103991031011012501001001KA1240N+02451MA1999999100951MD1999999-0201REMSYN076AAXX  21124 83096 32695 30906 10297 20223 30095 40105 83100 333 20245 59020;EQDQ01  00002PRCP06
0167830960999992005022118004-10917-037050FM-12+000699999V0200901N006712200019N0020001N1+02931+02471100701ADDAA106000091GF103991031011012501001001MA1999999100631MD1999999-0481REMSYN070AAXX  21184 83096 32695 30913 10293 20247 30063 40070 83100 333 59048;EQDQ01  00002PRCP06
0198830960999992005022200004-10917-037050FM-12+000699999V0200901N002610120019N0020001N1+02721+02391101051ADDAA106000091GF106991061021012501001001KA1240M+03101MA1999999100981MD1999999-0021REMSYN088AAXX  22004 83096 32695 60905 10272 20239 30098 40105 86200 333 10310 29076 55108 59002;EQDQ01  00002PRCP06
0186830960999992005022212004-10917-037050FM-12+000699999V0200901N003110120019N0020001N1+02811+02271101051ADDAA106000091GF106991061011012501001001KA1240N+02451MA1999999100981MD1999999+0001REMSYN076AAXX  22124 83096 32695 60906 10281 20227 30098 40105 86100 333 20245 58000;EQDQ01  00002PRCP06
0167830960999992005022218004-10917-037050FM-12+000699999V0200901N003110120019N0020001N1+02821+02421100971ADDAA106000091GF108991081011012501999999MA1999999100901MD1999999+0271REMSYN070AAXX  22184 83096 32695 80906 10282 20242 30090 40097 881// 333 58027;EQDQ01  00002PRCP06
0198830960999992005022300004-10917-037050FM-12+000699999V0200901N001510120019N0020001N1+02711+02481101251ADDAA106000091GF108991081051012501999999KA1240M+03011MA1999999101211MD1999999+0231REMSYN088AAXX  23004 83096 32695 80903 10271 20248 30121 40125 885// 333 10301 29082 55000 58023;EQDQ01  00002PRCP06
0186830960999992005022312004-10917-037050FM-12+000699999V0200901N002612200019N0020001N1+02931+02541101311ADDAA106000091GF103991031011012501001001KA1240N+02451MA1999999101241MD1999999+0261REMSYN076AAXX  23124 83096 32695 30905 10293 20254 30124 40131 83100 333 20245 58026;EQDQ01  00002PRCP06
0167830960999992005022318004-10917-037050FM-12+000699999V0200901N005112200019N0020001N1+02991+02551101161ADDAA106000091GF102991021011012501001001MA1999999101091MD1999999+0191REMSYN070AAXX  23184 83096 32695 20910 10299 20255 30109 40116 82100 333 58019;EQDQ01  00002PRCP06
0198830960999992005022400004-10917-037050FM-12+000699999V0200901N003112200019N0020001N1+02741+02541101421ADDAA106000091GF101991011051012501001001KA1240M+03141MA1999999101351MD1999999+0141REMSYN088AAXX  24004 83096 32695 10906 10274 20254 30135 40142 81500 333 10314 29084 55088 58014;EQDQ01  00002PRCP06
0186830960999992005022412004-10917-037050FM-12+000699999V0200901N003112200019N0020001N1+02991+02471101431ADDAA106000091GF103991031011012501001001KA1240N+02451MA1999999101361MD1999999+0121REMSYN076AAXX  24124 83096 32695 30906 10299 20247 30136 40143 83100 333 20245 58012;EQDQ01  00002PRCP06
0167830960999992005022418004-10917-037050FM-12+000699999V0200901N004110120019N0020001N1+02971+02471101281ADDAA106000091GF106991061011012501001001MA1999999101211MD1999999+0121REMSYN070AAXX  24184 83096 32695 60908 10297 20247 30121 40128 86100 333 58012;EQDQ01  00002PRCP06
0198830960999992005022500004-10917-037050FM-12+000699999V0200901N003112200019N0020001N1+02711+02481101251ADDAA106000091GF102991021011012501001001KA1240M+03161MA1999999101181MD1999999-0171REMSYN088AAXX  25004 83096 32695 20906 10271 20248 30118 40125 82100 333 10316 29081 55081 59017;EQDQ01  00002PRCP06
0186830960999992005022512004-10917-037050FM-12+000699999V0200901N002610120019N0020001N1+02841+02441101331ADDAA106000091GF105991051051012501001001KA1240N+02461MA1999999101261MD1999999-0101REMSYN076AAXX  25124 83096 32695 50905 10284 20244 30126 40133 85500 333 20246 59010;EQDQ01  00002PRCP06
0167830960999992005022518004-10917-037050FM-12+000699999V0201401N003112200019N0020001N1+02991+02441101181ADDAA106000091GF104991041051012501001001MA1999999101111MD1999999-0101REMSYN070AAXX  25184 83096 32695 41406 10299 20244 30111 40118 84500 333 59010;EQDQ01  00002PRCP06
0198830960999992005022600004-10917-037050FM-12+000699999V0200901N002612200019N0020001N1+02711+02461101191ADDAA106000091GF102991021011012501001001KA1240M+03121MA1999999101121MD1999999-0061REMSYN088AAXX  26004 83096 32695 20905 10271 20246 30112 40119 82100 333 10312 29081 55023 59006;EQDQ01  00002PRCP06
0186830960999992005022612004-10917-037050FM-12+000699999V0200901N002612200019N0020001N1+02971+02381101231ADDAA106000091GF102991021011012501001001KA1240N+02461MA1999999101161MD1999999-0101REMSYN076AAXX  26124 83096 32695 20905 10297 20238 30116 40123 82100 333 20246 59010;EQDQ01  00002PRCP06
0167830960999992005022618004-10917-037050FM-12+000699999V0200901N002612200019N0020001N1+03011+02391101121ADDAA106000091GF103991031011012501001001MA1999999101051MD1999999-0061REMSYN070AAXX  26184 83096 32695 30905 10301 20239 30105 40112 83100 333 59006;EQDQ01  00002PRCP06
0185830960999992005022700004-10920-037050FM-12+000599999V0200901N003612200019N0020001N1+02711+02371101171ADDAA106000091GF102991021011012501001001MA1999999101101MD1999999-0021REMSYN088AAXX  27004 83096 32695 20907 10271 20237 30110 40117 82100 333 10314 29076 55109 59002;EQDQ01  00002PRCP06
0173830960999992005022712004-10920-037050FM-12+000599999V0200901N002612200019N0020001N1+02951+01181101251ADDAA106000091GF102991021011012501001001MA1999999101181MD1999999+0021REMSYN076AAXX  27124 83096 32695 20905 10295 20118 30118 40125 82100 333 20246 58002;EQDQ01  00002PRCP06
0167830960999992005022718004-10920-037050FM-12+000599999V0200901N002612200019N0020001N1+03011+02341101131ADDAA106000091GF102991021011012501001001MA1999999101061MD1999999+0011REMSYN070AAXX  27184 83096 32695 20905 10301 20234 30106 40113 82100 333 58001;EQDQ01  00002PRCP06
0198830960999992005022800004-10917-037050FM-12+000699999V0200901N003112200019N0020001N1+02711+02431101181ADDAA106000091GF102991021011012501001001KA1240M+03141MA1999999101111MD1999999+0011REMSYN088AAXX  28004 83096 32695 20906 10271 20243 30111 40118 82100 333 10314 29076 55110 58001;EQDQ01  00002PRCP06
0186830960999992005022812004-10917-037050FM-12+000699999V0200901N002612200019N0020001N1+02931+02431101371ADDAA106000091GF104991041011012501001001KA1240N+02461MA1999999101301MD1999999+0121REMSYN076AAXX  28124 83096 32695 40905 10293 20243 30130 40137 84100 333 20246 58012;EQDQ01  00002PRCP06
0167830960999992005022818004-10917-037050FM-12+000699999V0200901N004112200019N0020001N1+02991+02441101141ADDAA106000091GF102991021011012501001001MA1999999101071MD1999999+0011REMSYN070AAXX  28184 83096 32695 20908 10299 20244 30107 40114 82100 333 58001;EQDQ01  00002PRCP06
0198830960999992005030100004-10917-037050FM-12+000699999V0200901N003112200019N0020001N1+02691+02451101071ADDAA106000091GF101991011011012501001001KA1240M+03121MA1999999101001MD1999999-0111REMSYN088AAXX  01004 83096 32695 10906 10269 20245 30100 40107 81100 333 10312 29080 55107 59011;EQDQ01  00002PRCP06
0186830960999992005030112004-10917-037050FM-12+000699999V0200901N002612200019N0020001N1+02951+02381101271ADDAA106000091GF102991021011012501001001KA1240N+02461MA1999999101201MD1999999-0101REMSYN076AAXX  01124 83096 32695 20905 10295 20238 30120 40127 82100 333 20246 59010;EQDQ01  00002PRCP06
0167830960999992005030118004-10917-037050FM-12+000699999V0200901N003612200019N0020001N1+02991+02531101041ADDAA106000091GF102991021011012501001001MA1999999100971MD1999999-0101REMSYN070AAXX  01184 83096 32695 20907 10299 20253 30097 40104 82100 333 59010;EQDQ01  00002PRCP06
0198830960999992005030200004-10917-037050FM-12+000699999V0200901N003612200019N0020001N1+02691+02461101051ADDAA106000091GF101991011011012501001001KA1240M+03121MA1999999100981MD1999999-0021REMSYN088AAXX  02004 83096 32695 10907 10269 20246 30098 40105 81100 333 10312 29081 55108 59002;EQDQ01  00002PRCP06
0186830960999992005030212004-10917-037050FM-12+000699999V0200901N002612200019N0020001N1+02931+02451101231ADDAA106000091GF104991041011012501001001KA1240N+02461MA1999999101161MD1999999-0041REMSYN076AAXX  02124 83096 32695 40905 10293 20245 30116 40123 84100 333 20246 59004;EQDQ01  00002PRCP06
0167830960999992005030218004-10917-037050FM-12+000699999V0200901N004112200019N0020001N1+03051+02481101061ADDAA106000091GF102991021011012501001001MA1999999100991MD1999999+0021REMSYN070AAXX  02184 83096 32695 20908 10305 20248 30099 40106 82100 333 58002;EQDQ01  00002PRCP06
0198830960999992005030300004-10917-037050FM-12+000699999V0200901N002612200019N0020001N1+02711+02431101131ADDAA106000091GF101991011011012501001001KA1240M+03141MA1999999101061MD1999999+0081REMSYN088AAXX  03004 83096 32695 10905 10271 20243 30106 40113 81100 333 10314 29079 55106 58008;EQDQ01  00002PRCP06
0186830960999992005030312004-10917-037050FM-12+000699999V0200901N003112200019N0020001N1+02911+02431101351ADDAA106000091GF103991031011012501001001KA1240N+02471MA1999999101281MD1999999+0121REMSYN076AAXX  03124 83096 32695 30906 10291 20243 30128 40135 83100 333 20247 58012;EQDQ01  00002PRCP06
0198830960999992005030400004-10917-037050FM-12+000699999V0200901N002612200019N0020001N1+02731+02371101271ADDAA106000091GF101991011011012501001001KA1240M+03161MA1999999101201MD1999999+0141REMSYN088AAXX  04004 83096 32695 10905 10273 20237 30120 40127 81100 333 10316 29076 55105 58014;EQDQ01  00002PRCP06
0186830960999992005030412004-10917-037050FM-12+000699999V0200901N002612200019N0020001N1+02991+02441101381ADDAA106000091GF103991031011012501001001KA1240N+02471MA1999999101311MD1999999+0031REMSYN076AAXX  04124 83096 32695 30905 10299 20244 30131 40138 83100 333 20247 58003;EQDQ01  00002PRCP06
0167830960999992005030418004-10917-037050FM-12+000699999V0200901N004112200019N0020001N1+03051+02361101241ADDAA106000091GF102991021011012501001001MA1999999101171MD1999999+0031REMSYN070AAXX  04184 83096 32695 20908 10305 20236 30117 40124 82100 333 58003;EQDQ01  00002PRCP06
0198830960999992005030500004-10917-037050FM-12+000699999V0200901N002612200019N0020001N1+02721+02341101271ADDAA106000091GF102991021011012501001001KA1240M+03161MA1999999101201MD1999999+0001REMSYN088AAXX  05004 83096 32695 20905 10272 20234 30120 40127 82100 333 10316 29075 55108 58000;EQDQ01  00002PRCP06
0186830960999992005030512004-10917-037050FM-12+000699999V0200901N003112200019N0020001N1+02951+02381101431ADDAA106000091GF103991031011012501001001KA1240N+02471MA1999999101361MD1999999+0051REMSYN076AAXX  05124 83096 32695 30906 10295 20238 30136 40143 83100 333 20247 58005;EQDQ01  00002PRCP06
0167830960999992005030518004-10917-037050FM-12+000699999V0200901N003612200019N0020001N1+03031+02391101281ADDAA106000091GF102991021011012501001001MA1999999101211MD1999999+0041REMSYN070AAXX  05184 83096 32695 20907 10303 20239 30121 40128 82100 333 58004;EQDQ01  00002PRCP06
0185830960999992005030600004-10920-037050FM-12+000599999V0200901N004112200019N0020001N1+02751+02501101291ADDAA106000091GF101991011011012501001001MA1999999101221MD1999999+0021REMSYN088AAXX  06004 83096 32695 10908 10275 20250 30122 40129 81100 333 10316 29078 55106 58002;EQDQ01  00002PRCP06
0173830960999992005030612004-10920-037050FM-12+000599999V0200901N003112200019N0020001N1+02991+02441101301ADDAA106000091GF103991031011012501001001MA1999999101251MD1999999-0111REMSYN076AAXX  06124 83096 32695 30906 10299 20244 30125 40130 83100 333 20247 59011;EQDQ01  00002PRCP06
0167830960999992005030618004-10920-037050FM-12+000599999V0200901N003612200019N0020001N1+03031+02411101241ADDAA106000091GF102991021011012501001001MA1999999101171MD1999999-0041REMSYN070AAXX  06184 83096 32695 20907 10303 20241 30117 40124 82100 333 59004;EQDQ01  00002PRCP06
0178830960999992005030700004-10917-037050FM-12+000699999V0200901N003110120019N0020001N1+02751+02301101231ADDAA106000091GF105991051011012501001001KA1240M+03161MA1999999101161REMSYN082AAXX  07004 83096 32695 50906 10275 20230 30116 40123 85100 333 10316 29074 55101;EQDQ01  00002PRCP06
0186830960999992005030712004-10917-037050FM-12+000699999V0200901N002612200019N0020001N1+02931+02391101251ADDAA106000091GF104991041011012501001001KA1240N+02471MA1999999101181MD1999999-0071REMSYN076AAXX  07124 83096 32695 40905 10293 20239 30118 40125 84100 333 20247 59007;EQDQ01  00002PRCP06
0167830960999992005030718004-10917-037050FM-12+000699999V0200901N004112200019N0020001N1+03031+02361101061ADDAA106000091GF103991031011012501001001MA1999999100991MD1999999-0181REMSYN070AAXX  07184 83096 32695 30908 10303 20236 30099 40106 83100 333 59018;EQDQ01  00002PRCP06
0198830960999992005030800004-10917-037050FM-12+000699999V0200901N003112200019N0020001N1+02721+02391101381ADDAA106000091GF101991011051012501001001KA1240M+03161MA1999999101311MD1999999+0151REMSYN088AAXX  08004 83096 32695 10906 10272 20239 30131 40138 81500 333 10316 29076 55092 58015;EQDQ01  00002PRCP06
0186830960999992005030812004-10917-037050FM-12+000699999V0200901N002612200019N0020001N1+02991+02331101331ADDAA106000091GF103991031011012501001001KA1240N+02351MA1999999101261MD1999999+0081REMSYN076AAXX  08124 83096 32695 30905 10299 20233 30126 40133 83100 333 20235 58008;EQDQ01  00002PRCP06
0167830960999992005030818004-10917-037050FM-12+000699999V0200901N004112200019N0020001N1+02991+02301101051ADDAA106000091GF102991021011012501001001MA1999999100981MD1999999-0011REMSYN070AAXX  08184 83096 32695 20908 10299 20230 30098 40105 82100 333 59001;EQDQ01  00002PRCP06
0198830960999992005030900004-10917-037050FM-12+000699999V0200901N003112200019N0020001N1+02741+02361101241ADDAA106000091GF101991011051012501001001KA1240M+03181MA1999999101171MD1999999-0241REMSYN088AAXX  09004 83096 32695 10906 10274 20236 30117 40124 81500 333 10318 29074 55095 59024;EQDQ01  00002PRCP06
0186830960999992005030912004-10917-037050FM-12+000699999V0200901N002119999999N0020001N1+03031+02341101221ADDAA106000091GF105991999011012501001001KA1240N+02301MA1999999101151MD1999999-0111REMSYN076AAXX  09124 83096 32695 50904 10303 20234 30115 40122 84100 333 20230 59011;EQDQ01  00002PRCP06
0167830960999992005030918004-10917-037050FM-12+000699999V0200901N003112200019N0020001N1+03011+02291100941ADDAA106000091GF102991021011012501001001MA1999999100871MD1999999-0111REMSYN070AAXX  09184 83096 32695 20906 10301 20229 30087 40094 82100 333 59011;EQDQ01  00002PRCP06
0198830960999992005031000004-10917-037050FM-12+000699999V0200901N004112200019N0020001N1+02761+02361101151ADDAA106000091GF102991021051012501001001KA1240M+03161MA1999999101081MD1999999-0091REMSYN088AAXX  10004 83096 32695 20908 10276 20236 30108 40115 82500 333 10316 29073 55107 59009;EQDQ01  00002PRCP06
0190830960999992005031012004-10917-037050FM-12+000699999V0200901N002110120019N0020001N1+02891+02411101231ADDAY161061AY261061GF105991051011012501001001KA1240N+02371MA1999999101161MD1999999+0011MW1211REMSYN088AAXX  10124 83096 21695 50904 10289 20241 30116 40123 72166 85100 333 20237 58001 60024;
0148830960999992005031018004-10917-037050FM-12+000699999V0200901N002610120019N0020001N1+02891+02321101141ADDAA106000021GF105991051051012501001001MA1999999101071MD1999999+0201REMSYN070AAXX  10184 83096 32695 50905 10289 20232 30107 40114 85500 333 58020;
0198830960999992005031100004-10917-037050FM-12+000699999V0200901N003610120019N0020001N1+02671+02461101331ADDAA106000091GF108991081051012501999999KA1240M+03041MA1999999101261MD1999999+0181REMSYN088AAXX  11004 83096 32695 80907 10267 20246 30126 40133 885// 333 10304 29081 55027 58018;EQDQ01  00002PRCP06
0186830960999992005031112004-10917-037050FM-12+000699999V0200901N003112200019N0020001N1+02991+02491101321ADDAA106000091GF102991021011012501001001KA1240N+02471MA1999999101251MD1999999+0091REMSYN076AAXX  11124 83096 32695 20906 10299 20249 30125 40132 82100 333 20247 58009;EQDQ01  00002PRCP06
0167830960999992005031118004-10917-037050FM-12+000699999V0200901N004112200019N0020001N1+03051+02431101141ADDAA106000091GF102991021011012501001001MA1999999101071MD1999999+0001REMSYN070AAXX  11184 83096 32695 20908 10305 20243 30107 40114 82100 333 58000;EQDQ01  00002PRCP06
0198830960999992005031200004-10917-037050FM-12+000699999V0200901N005112200019N0020001N1+02791+02501101291ADDAA106000091GF103991031051012501001001KA1240M+03181MA1999999101221MD1999999-0041REMSYN088AAXX  12004 83096 32695 30910 10279 20250 30122 40129 83500 333 10318 29078 55105 59004;EQDQ01  00002PRCP06
0186830960999992005031212004-10917-037050FM-12+000699999V0200901N002612200019N0020001N1+03051+02411101241ADDAA106000091GF103991031011012501001001KA1240N+02351MA1999999101171MD1999999-0081REMSYN076AAXX  12124 83096 32695 30905 10305 20241 30117 40124 83100 333 20235 59008;EQDQ01  00002PRCP06
0167830960999992005031218004-10917-037050FM-12+000699999V0200901N003112200019N0020001N1+03051+02381101081ADDAA106000091GF103991031011012501001001MA1999999101011MD1999999-0061REMSYN070AAXX  12184 83096 32695 30906 10305 20238 30101 40108 83100 333 59006;EQDQ01  00002PRCP06
0185830960999992005031300004-10920-037050FM-12+000599999V0200901N003612200019N0020001N1+02791+02421101071ADDAA106000091GF102991021011012501001001MA1999999101001MD1999999-0221REMSYN088AAXX  13004 83096 32695 20907 10279 20242 30100 40107 82100 333 10318 29075 55104 59022;EQDQ01  00002PRCP06
0173830960999992005031312004-10920-037050FM-12+000599999V0200901N003112200019N0020001N1+03011+02441101221ADDAA106000091GF102991021011012501001001MA1999999101151MD1999999-0021REMSYN076AAXX  13124 83096 32695 20906 10301 20244 30115 40122 82100 333 20249 59002;EQDQ01  00002PRCP06
0167830960999992005031318004-10920-037050FM-12+000599999V0200901N004112200019N0020001N1+03031+02391101041ADDAA106000091GF102991021011012501001001MA1999999100971MD1999999-0041REMSYN070AAXX  13184 83096 32695 20908 10303 20239 30097 40104 82100 333 59004;EQDQ01  00002PRCP06
0185830960999992005031400004-10920-037050FM-12+000599999V0200901N003112200019N0020001N1+02871+02331101091ADDAA106000091GF103991031051012501001001MA1999999101021MD1999999+0021REMSYN088AAXX  14004 83096 32695 30906 10287 20233 30102 40109 83500 333 10316 29072 55105 58002;EQDQ01  00002PRCP06
0173830960999992005031412004-10920-037050FM-12+000599999V0200901N002612200019N0020001N1+02921+02411101241ADDAA106000091GF104991041011012501001001MA1999999101171MD1999999+0021REMSYN076AAXX  14124 83096 32695 40905 10292 20241 30117 40124 84100 333 20250 58002;EQDQ01  00002PRCP06
0167830960999992005031418004-10917-037050FM-12+000699999V0200901N003112200019N0020001N1+03061+02451101041ADDAA106000091GF102991021011012501001001MA1999999100971MD1999999+0001REMSYN070AAXX  14184 83096 32695 20906 10306 20245 30097 40104 82100 333 58000;EQDQ01  00002PRCP06
0198830960999992005031500004-10917-037050FM-12+000699999V0200901N005712200019N0020001N1+02801+02401101051ADDAA106000091GF101991011051012501001001KA1240M+03181MA1999999100981MD1999999-0041REMSYN088AAXX  15004 83096 32695 10911 10280 20240 30098 40105 81500 333 10318 29075 55096 59004;EQDQ01  00002PRCP06
0186830960999992005031512004-10917-037050FM-12+000699999V0200901N002112200019N0020001N1+02991+02441101121ADDAA106000091GF103991031011012501001001KA1240N+02501MA1999999101051MD1999999-0121REMSYN076AAXX  15124 83096 32695 30904 10299 20244 30105 40112 83100 333 20250 59012;EQDQ01  00002PRCP06
0167830960999992005031518004-10917-037050FM-12+000699999V0200901N003110120019N0020001N1+03011+02411101021ADDAA106000091GF106991061011012501001001MA1999999100951MD1999999-0021REMSYN070AAXX  15184 83096 32695 60906 10301 20241 30095 40102 86100 333 59002;EQDQ01  00002PRCP06
0198830960999992005031600004-10917-037050FM-12+000699999V0200901N002612200019N0020001N1+02761+02401101191ADDAA106000091GF101991011051012501001001KA1240M+03211MA1999999101121MD1999999+0141REMSYN088AAXX  16004 83096 32695 10905 10276 20240 30112 40119 81500 333 10321 29076 55060 58014;EQDQ01  00002PRCP06
0190830960999992005031612004-10917-037050FM-12+000699999V0200901N003112200019N0020001N1+02991+02331101281ADDAY161061AY261061GF104991041011012501001001KA1240N+02301MA1999999101211MD1999999+0161MW1211REMSYN088AAXX  16124 83096 21695 40906 10299 20233 30121 40128 72166 84100 333 20230 58016 60014;
0148830960999992005031618004-10917-037050FM-12+000699999V0201401N003110120019N0020001N1+03061+02331101181ADDAA106000021GF105991051011012501001001MA1999999101111MD1999999+0161REMSYN070AAXX  16184 83096 32695 51406 10306 20233 30111 40118 85100 333 58016;
0198830960999992005031700004-10917-037050FM-12+000699999V0200901N003112200019N0020001N1+02751+02421101281ADDAA106000091GF101991011051012501001001KA1240M+03181MA1999999101211MD1999999+0091REMSYN088AAXX  17004 83096 32695 10906 10275 20242 30121 40128 81500 333 10318 29074 55101 58009;EQDQ01  00002PRCP06
0190830960999992005031712004-10917-037050FM-12+000699999V0200901N002612200019N0020001N1+02991+02441101281ADDAY151061AY251061GF103991031011012501001001KA1240N+02491MA1999999101211MD1999999+0001MW1201REMSYN088AAXX  17124 83096 21695 30905 10299 20244 30121 40128 72055 83100 333 20249 58000 69934;
0148830960999992005031718004-10917-037050FM-12+000699999V0200901N003112200019N0020001N1+03071+02401101121ADDAA106000021GF103991031011012501001001MA1999999101051MD1999999-0061REMSYN070AAXX  17184 83096 32695 30906 10307 20240 30105 40112 83100 333 59006;
0198830960999992005031800004-10917-037050FM-12+000699999V0201401N002612200019N0020001N1+02771+02341101101ADDAA106000091GF101991011051012501001001KA1240M+03181MA1999999101031MD1999999-0181REMSYN088AAXX  18004 83096 32695 11405 10277 20234 30103 40110 81500 333 10318 29073 55105 59018;EQDQ01  00002PRCP06
0190830960999992005031812004-10917-037050FM-12+000699999V0200901N002112200019N0020001N1+02811+02441101231ADDAY151061AY251061GF104991041011012501001001KA1240N+02491MA1999999101161MD1999999-0051MW1201REMSYN088AAXX  18124 83096 21695 40904 10281 20244 30116 40123 72055 84100 333 20249 59005 69974;
0148830960999992005031818004-10917-037050FM-12+000699999V0200901N003112200019N0020001N1+03051+02431101041ADDAA106000021GF101991011011012501001001MA1999999100971MD1999999-0081REMSYN070AAXX  18184 83096 32695 10906 10305 20243 30097 40104 81100 333 59008;
0198830960999992005031900004-10917-037050FM-12+000699999V0200901N002612200019N0020001N1+02771+02361101251ADDAA106000091GF101991011051012501001001KA1240M+03201MA1999999101181MD1999999+0151REMSYN088AAXX  19004 83096 32695 10905 10277 20236 30118 40125 81500 333 10320 29076 55088 58015;EQDQ01  00002PRCP06
0186830960999992005031912004-10917-037050FM-12+000699999V0200901N003110120019N0020001N1+03071+02441101361ADDAA106000091GF105991051021012501001001KA1240N+02411MA1999999101291MD1999999+0131REMSYN076AAXX  19124 83096 32695 50906 10307 20244 30129 40136 85200 333 20241 58013;EQDQ01  00002PRCP06
0167830960999992005031918004-10917-037050FM-12+000699999V0200901N005110120019N0020001N1+03081+02441101011ADDAA106000091GF106991061021012501001001MA1999999100941MD1999999-0031REMSYN070AAXX  19184 83096 32695 60910 10308 20244 30094 40101 86200 333 59003;EQDQ01  00002PRCP06
0185830960999992005032000004-10920-037050FM-12+000599999V0200901N003112200019N0020001N1+02801+02401101281ADDAA106000091GF101991011051012501001001MA1999999101211MD1999999+0031REMSYN088AAXX  20004 83096 32695 10906 10280 20240 30121 40128 81500 333 10320 29074 55101 58003;EQDQ01  00002PRCP06
0173830960999992005032012004-10920-037050FM-12+000599999V0200901N003612200019N0020001N1+03101+02261101411ADDAA106000091GF102991021011012501001001MA1999999101341MD1999999+0051REMSYN076AAXX  20124 83096 32695 20907 10310 20226 30134 40141 82100 333 20226 58005;EQDQ01  00002PRCP06
0167830960999992005032018004-10920-037050FM-12+000599999V0200901N005112200019N0020001N1+03111+02431101181ADDAA106000091GF102991021011012501001001MA1999999101111MD1999999+0171REMSYN070AAXX  20184 83096 32695 20910 10311 20243 30111 40118 82100 333 58017;EQDQ01  00002PRCP06
0198830960999992005032100004-10917-037050FM-12+000699999V0200901N005112200019N0020001N1+02831+02421101131ADDAA106000091GF102991021051012501001001KA1240M+03221MA1999999101061MD1999999-0151REMSYN088AAXX  21004 83096 32695 20910 10283 20242 30106 40113 82500 333 10322 29071 55100 59015;EQDQ01  00002PRCP06
0190830960999992005032112004-10917-037050FM-12+000699999V0200901N002610120019N0020001N1+02931+02451101341ADDAY151061AY251061GF105991051011012501001001KA1240N+02301MA1999999101271MD1999999-0071MW1201REMSYN088AAXX  21124 83096 21695 50905 10293 20245 30127 40134 72055 85100 333 20230 59007 69944;
0148830960999992005032118004-10917-037050FM-12+000699999V0200901N003110120019N0020001N1+02941+02401101171ADDAA106000021GF106991061011012501001001MA1999999101101MD1999999-0011REMSYN070AAXX  21184 83096 32695 60906 10294 20240 30110 40117 86100 333 59001;
0202830960999992005032200004-10917-037050FM-12+000699999V0200901N003112200019N0020001N1+02711+02431101321ADDAY161061AY261061GF102991021051012501001001KA1240M+03181MA1999999101251MD1999999+0191MW1211REMSYN100AAXX  22004 83096 21695 20906 10271 20243 30125 40132 72166 82500 333 10318 29079 55044 58019 60031;
0190830960999992005032212004-10917-037050FM-12+000699999V0200901N001512200019N0020001N1+02711+02371101361ADDAY161061AY261061GF103991031051012501001001KA1240N+02391MA1999999101291MD1999999+0021MW1201REMSYN088AAXX  22124 83096 21695 30903 10271 20237 30129 40136 72066 83500 333 20239 58002 60034;
0148830960999992005032218004-10917-037050FM-12+000699999V0200901N003112200019N0020001N1+03011+02341101221ADDAA106000021GF103991031011012501001001MA1999999101151MD1999999+0051REMSYN070AAXX  22184 83096 32695 30906 10301 20234 30115 40122 83100 333 58005;
0198830960999992005032300004-10917-037050FM-12+000699999V0200901N003112200019N0020001N1+02771+02301101321ADDAA106000091GF101991011051012501001001KA1240M+03161MA1999999101251MD1999999+0001REMSYN088AAXX  23004 83096 32695 10906 10277 20230 30125 40132 81500 333 10316 29075 55088 58000;EQDQ01  00002PRCP06
0190830960999992005032312004-10917-037050FM-12+000699999V0200901N002112200019N0020001N1+02931+02431101451ADDAY161061AY261061GF104991041011012501001001KA1240N+02471MA1999999101381MD1999999+0091MW1211REMSYN088AAXX  23124 83096 21695 40904 10293 20243 30138 40145 72166 84100 333 20247 58009 60014;
0171830960999992005032318004-10917-037050FM-12+000699999V0201401N002612200019N0020001N1+02951+02361101221ADDAY161061AY261061GF102991021011012501001001MA1999999101151MD1999999+0001MW1211REMSYN082AAXX  23184 83096 21695 21405 10295 20236 30115 40122 72166 82100 333 58000 60051;
0179830960999992005032400004-10917-037050FM-12+000699999V0200901N003112200019N0020001N1+02791+02421101441ADDAA106000021GF101991011051012501001001KA1240M+03121MA1999999101371MD1999999+0121REMSYN088AAXX  24004 83096 32695 10906 10279 20242 30137 40144 81500 333 10312 29076 55089 58012;
0190830960999992005032412004-10917-037050FM-12+000699999V0201401N002110075019N0010001N1+02671+02431101371ADDAY161061AY261061GF106991061051008001001001KA1240N+02431MA1999999101301MD1999999-0081MW1611REMSYN088AAXX  24124 83096 21594 61404 10267 20243 30130 40137 76166 86500 333 20243 59008 60084;
0171830960999992005032418004-10917-037050FM-12+000699999V0201401N003110120019N0020001N1+02801+02381101241ADDAY161061AY261061GF106991061021012501001001MA1999999101171MD1999999+0021MW1211REMSYN082AAXX  24184 83096 21695 61406 10280 20238 30117 40124 72166 86200 333 58002 60021;
0179830960999992005032500004-10917-037050FM-12+000699999V0201401N001512200019N0020001N1+02691+02351101191ADDAA106000021GF102991021051012501001001KA1240M+03141MA1999999101121MD1999999-0251REMSYN088AAXX  25004 83096 32695 21403 10269 20235 30112 40119 82500 333 10314 29082 55044 59025;
0162830960999992005032512004-10917-037050FM-12+000699999V0200901N002110120019N0020001N1+02771+02401101351ADDGF105991051011012501001001KA1240N+02391MA1999999101281MD1999999-0021REMSYN082AAXX  25124 83096 22695 50904 10277 20240 30128 40135 85100 333 20239 59002 60024;
0167830960999992005032518004-10917-037050FM-12+000699999V0200901N002610120019N0020001N1+02811+02341101181ADDAA106000091GF105991051011012501001001MA1999999101111MD1999999-0061REMSYN070AAXX  25184 83096 32695 50905 10281 20234 30111 40118 85100 333 59006;EQDQ01  00002PRCP06
0198830960999992005032600004-10917-037050FM-12+000699999V0200901N002612200019N0020001N1+02771+02361101151ADDAA106000091GF103991031011012501001001KA1240M+03121MA1999999101081MD1999999-0041REMSYN088AAXX  26004 83096 32695 30905 10277 20236 30108 40115 83100 333 10312 29079 55095 59004;EQDQ01  00002PRCP06
0190830960999992005032612004-10917-037050FM-12+000699999V0200901N002112200019N0020001N1+02851+02421101211ADDAY161061AY261061GF104991041011012501001001KA1240N+02391MA1999999101141MD1999999-0141MW1211REMSYN088AAXX  26124 83096 21695 40904 10285 20242 30114 40121 72166 84100 333 20239 59014 60014;
0148830960999992005032618004-10917-037050FM-12+000699999V0200901N002612200019N0020001N1+02911+02301101121ADDAA106000021GF104991041011012501001001MA1999999101051MD1999999-0061REMSYN070AAXX  26184 83096 32695 40905 10291 20230 30105 40112 84100 333 59006;
0185830960999992005032700004-10920-037050FM-12+000599999V0200901N003112200019N0020001N1+02791+02401101111ADDAA106000091GF103991031051012501001001MA1999999101041MD1999999-0041REMSYN088AAXX  27004 83096 32695 30906 10279 20240 30104 40111 83500 333 10312 29077 55085 59004;EQDQ01  00002PRCP06
0173830960999992005032712004-10920-037050FM-12+000599999V0203601N002112200019N0020001N1+03071+02381101171ADDAA106000091GF103991031011012501001001MA1999999101101MD1999999-0041REMSYN076AAXX  27124 83096 32695 33604 10307 20238 30110 40117 83100 333 20250 59004;EQDQ01  00002PRCP06
0167830960999992005032718004-10920-037050FM-12+000599999V0200901N002612200019N0020001N1+03081+02371101001ADDAA106000091GF103991031011012501001001MA1999999100931MD1999999-0121REMSYN070AAXX  27184 83096 32695 30905 10308 20237 30093 40100 83100 333 59012;EQDQ01  00002PRCP06
0185830960999992005032800004-10920-037050FM-12+000599999V0200901N003610120019N0020001N1+02811+02311101171ADDAA106000091GF105991051011012501001001MA1999999101101MD1999999+0061REMSYN088AAXX  28004 83096 32695 50907 10281 20231 30110 40117 85100 333 10314 29071 55099 58006;EQDQ01  00002PRCP06
0173830960999992005032812004-10920-037050FM-12+000599999V0200901N002110120019N0020001N1+03011+02441101161ADDAA106000091GF105991051011012501001001MA1999999101091MD1999999-0011REMSYN076AAXX  28124 83096 32695 50904 10301 20244 30109 40116 85100 333 20250 59001;EQDQ01  00002PRCP06
0167830960999992005032818004-10920-037050FM-12+000599999V0200901N003110120019N0020001N1+02951+02491101021ADDAA106000091GF106991061011012501001001MA1999999100951MD1999999+0021REMSYN070AAXX  28184 83096 32695 60906 10295 20249 30095 40102 86100 333 58002;EQDQ01  00002PRCP06
0198830960999992005032900004-10917-037050FM-12+000699999V0200901N004110120019N0020001N1+02801+02441101151ADDAA106000091GF106991061051012501001001KA1240M+03181MA1999999101081MD1999999-0021REMSYN088AAXX  29004 83096 32695 60908 10280 20244 30108 40115 86500 333 10318 29077 55067 59002;EQDQ01  00002PRCP06
0190830960999992005032912004-10917-037050FM-12+000699999V0200901N001510120019N0020001N1+02751+02471101211ADDAY161061AY261061GF105991051011012501001001KA1240N+02301MA1999999101141MD1999999+0051MW1211REMSYN088AAXX  29124 83096 21695 50903 10275 20247 30114 40121 72166 85100 333 20230 58005 60204;
0148830960999992005032918004-10917-037050FM-12+000699999V0201401N003110120019N0020001N1+02871+02481101031ADDAA106000021GF106991061011012501001001MA1999999100961MD1999999+0011REMSYN070AAXX  29184 83096 32695 61406 10287 20248 30096 40103 86100 333 58001;
0198830960999992005033000004-10917-037050FM-12+000699999V0201401N001510120019N0020001N1+02691+02431101341ADDAA106000091GF108991081051012501999999KA1240M+03171MA1999999101271MD1999999+0191REMSYN088AAXX  30004 83096 32695 81403 10269 20243 30127 40134 885// 333 10317 29083 55067 58019;EQDQ01  00002PRCP06
0190830960999992005033012004-10917-037050FM-12+000699999V0202701N001510120019N0020001N1+02591+02381101301ADDAY161061AY261061GF107991071051012501001001KA1240N+02331MA1999999101231MD1999999+0091MW1211REMSYN088AAXX  30124 83096 21695 72703 10259 20238 30123 40130 72166 87500 333 20233 58009 60174;
0148830960999992005033018004-10917-037050FM-12+000699999V0201401N001510120019N0020001N1+02801+02421101181ADDAA106000021GF108991081051012501999999MA1999999101111MD1999999+0151REMSYN070AAXX  30184 83096 32695 81403 10280 20242 30111 40118 885// 333 58015;
0198830960999992005033100004-10917-037050FM-12+000699999V0201401N001510120019N0020001N1+02571+02421101231ADDAA106000091GF108991081051012501999999KA1240M+02911MA1999999101161MD1999999-0111REMSYN088AAXX  31004 83096 32695 81403 10257 20242 30116 40123 885// 333 10291 29088 55011 59011;EQDQ01  00002PRCP06
0190830960999992005033112004-10917-037050FM-12+000699999V0201801N001512200019N0020001N1+02731+02431101271ADDAY151061AY251061GF103991031051012501001001KA1240N+02251MA1999999101201MD1999999-0031MW1201REMSYN088AAXX  31124 83096 21695 31803 10273 20243 30120 40127 72055 83500 333 20225 59003 69944;
0171830960999992005033118004-10917-037050FM-12+000699999V0201401N002610120019N0020001N1+02961+02491101161ADDAY151061AY251061GF105991051011012501001001MA1999999101091MD1999999-0021MW1201REMSYN082AAXX  31184 83096 21695 51405 10296 20249 30109 40116 72055 85100 333 59002 60021;
0179830960999992005040100004-10917-037050FM-12+000699999V0201401N001512200019N0020001N1+02761+02421101271ADDAA106000021GF103991031051012501001001KA1240M+03071MA1999999101201MD1999999+0041REMSYN088AAXX  01004 83096 32695 31403 10276 20242 30120 40127 83500 333 10307 29081 55065 58004;
0190830960999992005040112004-10917-037050FM-12+000699999V0201401N002112200019N0020001N1+02971+02351101291ADDAY161061AY261061GF103991031011012501001001KA1240N+02491MA1999999101221MD1999999+0021MW1211REMSYN088AAXX  01124 83096 21695 31404 10297 20235 30122 40129 72166 83100 333 20249 58002 60024;
0171830960999992005040118004-10917-037050FM-12+000699999V0201401N003112200019N0020001N1+03011+02411101221ADDAY151061AY251061GF103991031011012501001001MA1999999101151MD1999999+0061MW1201REMSYN082AAXX  01184 83096 21695 31406 10301 20241 30115 40122 72055 83100 333 58006 69951;
0179830960999992005040200004-10917-037050FM-12+000699999V0201401N001512200019N0020001N1+02771+02421101331ADDAA106000021GF103991031051012501001001KA1240M+03141MA1999999101261MD1999999+0061REMSYN088AAXX  02004 83096 32695 31403 10277 20242 30126 40133 83500 333 10314 29075 55096 58006;
0190830960999992005040212004-10917-037050FM-12+000699999V0200501N001512200019N0020001N1+02861+02501101461ADDAY151061AY251061GF102991021011012501001001KA1240N+02281MA1999999101391MD1999999+0171MW1201REMSYN088AAXX  02124 83096 21695 20503 10286 20250 30139 40146 72055 82100 333 20228 58017 69954;
0171830960999992005040218004-10917-037050FM-12+000699999V0201401N003110120019N0020001N1+02841+02501101251ADDAY151061AY251061GF106991061011012501001011MA1999999101181MD1999999+0031MW1201REMSYN082AAXX  02184 83096 21695 61406 10284 20250 30118 40125 72055 86101 333 58003 60041;
0166830960999992005040300004-10920-037050FM-12+000599999V0201401N001510120019N0020001N1+02741+02401101441ADDAA106000021GF105991051051012501001001MA1999999101371MD1999999+0111REMSYN088AAXX  03004 83096 32695 51403 10274 20240 30137 40144 85500 333 10309 29082 55068 58011;
0177830960999992005040312004-10920-037050FM-12+000599999V0201801N001510120019N0020001N1+02671+02461101491ADDAY161061AY261061GF106991061051012501001001MA1999999101421MD1999999+0031MW1211REMSYN088AAXX  03124 83096 21695 61803 10267 20246 30142 40149 72166 86500 333 20233 58003 60104;
0171830960999992005040318004-10920-037050FM-12+000599999V0201401N002610120019N0020001N1+02611+02461101271ADDAY161061AY261061GF106991061051012501001001MA1999999101201MD1999999+0021MW1211REMSYN082AAXX  03184 83096 21695 61405 10261 20246 30120 40127 72166 86500 333 58002 60091;
0179830960999992005040400004-10917-037050FM-12+000699999V0200901N002612200019N0020001N1+02711+02371101401ADDAA106000021GF103991031051012501001001KA1240M+02951MA1999999101331MD1999999-0041REMSYN088AAXX  04004 83096 32695 30905 10271 20237 30133 40140 83500 333 10295 29085 55020 59004;
0190830960999992005040412004-10917-037050FM-12+000699999V0200901N002612200019N0020001N1+02971+02381101531ADDAY151061AY251061GF104991041011012501001001KA1240N+02431MA1999999101461MD1999999+0041MW1201REMSYN088AAXX  04124 83096 21695 40905 10297 20238 30146 40153 72055 84100 333 20243 58004 60094;
0148830960999992005040418004-10917-037050FM-12+000699999V0200901N002112200019N0020001N1+02991+02281101361ADDAA106000021GF102991021011012501001001MA1999999101291MD1999999+0091REMSYN070AAXX  04184 83096 32695 20904 10299 20228 30129 40136 82100 333 58009;
0198830960999992005040500004-10917-037050FM-12+000699999V0201401N002612200019N0020001N1+02781+02271101501ADDAA106000091GF103991031051012501001001KA1240M+03131MA1999999101431MD1999999+0101REMSYN088AAXX  05004 83096 32695 31405 10278 20227 30143 40150 83500 333 10313 29071 55101 58010;EQDQ01  00002PRCP06
0186830960999992005040512004-10917-037050FM-12+000699999V0200901N002612200019N0020001N1+02931+02341101511ADDAA106000091GF104991041011012501001001KA1240N+02451MA1999999101441MD1999999-0021REMSYN076AAXX  05124 83096 32695 40905 10293 20234 30144 40151 84100 333 20245 59002;EQDQ01  00002PRCP06
0167830960999992005040518004-10917-037050FM-12+000699999V0200901N002112200019N0020001N1+03011+02341101321ADDAA106000091GF103991031011012501001001MA1999999101251MD1999999-0041REMSYN070AAXX  05184 83096 32695 30904 10301 20234 30125 40132 83100 333 59004;EQDQ01  00002PRCP06
0198830960999992005040600004-10917-037050FM-12+000699999V0200901N003112200019N0020001N1+02761+02381101551ADDAA106000091GF103991031051012501001001KA1240M+03151MA1999999101481MD1999999+0051REMSYN088AAXX  06004 83096 32695 30906 10276 20238 30148 40155 83500 333 10315 29075 55103 58005;EQDQ01  00002PRCP06
0186830960999992005040612004-10917-037050FM-12+000699999V0200901N002612200019N0020001N1+03001+02391101471ADDAA106000091GF103991031011012501001001KA1240N+02451MA1999999101401MD1999999-0041REMSYN076AAXX  06124 83096 32695 30905 10300 20239 30140 40147 83100 333 20245 59004;EQDQ01  00002PRCP06
0167830960999992005040618004-10917-037050FM-12+000699999V0200901N002612200019N0020001N1+03031+02341101321ADDAA106000091GF102991021011012501001001MA1999999101251MD1999999+0001REMSYN070AAXX  06184 83096 32695 20905 10303 20234 30125 40132 82100 333 58000;EQDQ01  00002PRCP06
0198830960999992005040700004-10917-037050FM-12+000699999V0200901N002612200019N0020001N1+02751+02321101461ADDAA106000091GF101991011051012501001001KA1240M+03161MA1999999101391MD1999999-0091REMSYN088AAXX  07004 83096 32695 10905 10275 20232 30139 40146 81500 333 10316 29073 55103 59009;EQDQ01  00002PRCP06
0186830960999992005040712004-10917-037050FM-12+000699999V0200901N003112200019N0020001N1+02931+02321101391ADDAA106000091GF103991031011012501001001KA1240N+02471MA1999999101321MD1999999-0081REMSYN076AAXX  07124 83096 32695 30906 10293 20232 30132 40139 83100 333 20247 59008;EQDQ01  00002PRCP06
0167830960999992005040718004-10917-037050FM-12+000699999V0201401N002612200019N0020001N1+02991+02171101261ADDAA106000091GF103991031011012501001001MA1999999101191MD1999999-0061REMSYN070AAXX  07184 83096 32695 31405 10299 20217 30119 40126 83100 333 59006;EQDQ01  00002PRCP06
0198830960999992005040800004-10917-037050FM-12+000699999V0201401N002612200019N0020001N1+02801+02251101441ADDAA106000091GF103991031051012501001001KA1240M+03161MA1999999101371MD1999999-0021REMSYN088AAXX  08004 83096 32695 31405 10280 20225 30137 40144 83500 333 10316 29060 55100 59002;EQDQ01  00002PRCP06
0202830960999992005040812004-10917-037050FM-12+000699999V0201401N002119999999N0020001N1+02951+02081101411ADDAA106000091GF105991999011012501001001KA1240N+02431MA1999999101341MD1999999+0021REMSYN076AAXX  08124 83096 32695 51404 10295 20208 30134 40141 82100 333 20243 58002;EQDQ01+000022SCOTLCQ02  00002PRCP06
0167830960999992005040818004-10917-037050FM-12+000699999V0201401N001512200019N0020001N1+02991+02171101241ADDAA106000091GF104991041011012501001001MA1999999101171MD1999999-0021REMSYN070AAXX  08184 83096 32695 41403 10299 20217 30117 40124 84100 333 59002;EQDQ01  00002PRCP06
0198830960999992005040900004-10917-037050FM-12+000699999V0201401N002612200019N0020001N1+02751+02211101401ADDAA106000091GF101991011051012501001001KA1240M+03121MA1999999101331MD1999999-0041REMSYN088AAXX  09004 83096 32695 11405 10275 20221 30133 40140 81500 333 10312 29066 55104 59004;EQDQ01  00002PRCP06
0190830960999992005040912004-10917-037050FM-12+000699999V0201401N002112200019N0020001N1+02751+02301101321ADDAY161061AY261061GF103991031011012501001001KA1240N+02431MA1999999101241MD1999999-0101MW1211REMSYN088AAXX  09124 83096 21695 31404 10275 20230 30124 40132 72166 83100 333 20243 59010 60024;
0148830960999992005040918004-10917-037050FM-12+000699999V0201401N001512200019N0020001N1+02991+02351101181ADDAA106000021GF103991031011012501001001MA1999999101111MD1999999-0061REMSYN070AAXX  09184 83096 32695 31403 10299 20235 30111 40118 83100 333 59006;
0202830960999992005041000004-10917-037050FM-12+000699999V0201401N001512200019N0020001N1+02691+02241101271ADDAY151061AY251061GF103991031051012501001001KA1240M+03021MA1999999101201MD1999999-0131MW1201REMSYN100AAXX  10004 83096 21695 31403 10269 20224 30120 40127 72055 83500 333 10302 29075 55070 59013 69921;
0190830960999992005041012004-10917-037050FM-12+000699999V0201401N002110120019N0020001N1+02681+02391101271ADDAY151061AY251061GF106991061051012501001001KA1240N+02451MA1999999101201MD1999999-0041MW1201REMSYN088AAXX  10124 83096 21695 61404 10268 20239 30120 40127 72055 86500 333 20245 59004 69964;
0171830960999992005041018004-10917-037050FM-12+000699999V0200901N003110075019N0010001N1+02511+02341101171ADDAY161061AY261061GF108991081051008001999999MA1999999101101MD1999999-0011MW1601REMSYN082AAXX  10184 83096 21594 80906 10251 20234 30110 40117 76066 885// 333 59001 60041;
0202830960999992005041100004-10917-037050FM-12+000699999V0201401N001510120019N0020001N1+02701+02281101271ADDAY161061AY261061GF108991081051012501999999KA1240M+02811MA1999999101201MD1999999+0001MW1211REMSYN100AAXX  11004 83096 21695 81403 10270 20228 30120 40127 72166 885// 333 10281 29083 55000 58000 60031;
0190830960999992005041112004-10917-037050FM-12+000699999V0200901N002612200019N0020001N1+02871+02421101171ADDAY151061AY251061GF104991041051012501001001KA1240N+02201MA1999999101101MD1999999-0101MW1201REMSYN088AAXX  11124 83096 21695 40905 10287 20242 30110 40117 72055 84500 333 20220 59010 60084;
0171830960999992005041118004-10917-037050FM-12+000699999V0201401N002610075019N0020001N1+02591+02461101111ADDAY161061AY261061GF108991081051008001999999MA1999999101041MD1999999-0061MW1601REMSYN082AAXX  11184 83096 21595 81405 10259 20246 30104 40111 76066 885// 333 59006 60021;
0202830960999992005041200004-10917-037050FM-12+000699999V0201801N001510075019N0020001N1+02401+02211101311ADDAY161061AY261061GF108991081051008001999999KA1240M+03101MA1999999101241MD1999999+0041MW1601REMSYN100AAXX  12004 83096 21595 81803 10240 20221 30124 40131 76066 885// 333 10310 29087 55073 58004 60041;
0190830960999992005041212004-10917-037050FM-12+000699999V0200901N003610075019N0010001N1+02611+02441101221ADDAY161061AY261061GF108991081051008001999999KA1240N+02351MA1999999101151MD1999999+0041MW1611REMSYN088AAXX  12124 83096 21594 80907 10261 20244 30115 40122 76166 885// 333 20235 58004 60124;
0171830960999992005041218004-10917-037050FM-12+000699999V0201401N001510120019N0020001N1+02601+02351101131ADDAY161061AY261061GF108991081021012501999999MA1999999101061MD1999999+0061MW1601REMSYN082AAXX  12184 83096 21695 81403 10260 20235 30106 40113 76066 882// 333 58006 60021;
0202830960999992005041300004-10917-037050FM-12+000699999V0201401N001510120019N0020001N1+02481+02451101401ADDAY161061AY261061GF108991081051012501999999KA1240M+02801MA1999999101331MD1999999+0091MW1601REMSYN100AAXX  13004 83096 21695 81403 10248 20245 30133 40140 76066 885// 333 10280 29093 55003 58009 60071;
0190830960999992005041312004-10917-037050FM-12+000699999V0200901N001510120019N0020001N1+02471+02241101321ADDAY161061AY261061GF108991081051012501999999KA1240N+02221MA1999999101251MD1999999+0101MW1211REMSYN088AAXX  13124 83096 21695 80903 10247 20224 30125 40132 72166 885// 333 20222 58010 60104;
0171830960999992005041318004-10917-037050FM-12+000699999V0200901N003110120019N0020001N1+02481+02361101211ADDAY161061AY261061GF108991081051012501999999MA1999999101141MD1999999+0081MW1211REMSYN082AAXX  13184 83096 21695 80906 10248 20236 30114 40121 72166 885// 333 58008 60021;
0202830960999992005041400004-10917-037050FM-12+000699999V0202301N000510120019N0020001N1+02401+02371101371ADDAY161061AY261061GF108991081051012501999999KA1240M+02691MA1999999101301MD1999999-0031MW1601REMSYN100AAXX  14004 83096 21695 82301 10240 20237 30130 40137 76066 885// 333 10269 29095 55000 59003 60071;
0190830960999992005041412004-10917-037050FM-12+000699999V0200901N002110120019N0020001N1+02541+02421101321ADDAY161061AY261061GF106991061051012501001001KA1240N+02261MA1999999101251MD1999999+0001MW1201REMSYN088AAXX  14124 83096 21695 60904 10254 20242 30125 40132 72066 86500 333 20226 58000 60104;
0148830960999992005041418004-10917-037050FM-12+000699999V0201401N002610120019N0020001N1+02581+02331101151ADDAA106000021GF108991081051012501999999MA1999999101081MD1999999-0061REMSYN070AAXX  14184 83096 32695 81405 10258 20233 30108 40115 885// 333 59006;
0198830960999992005041500004-10917-037050FM-12+000699999V0201401N002110120019N0020001N1+02601+02371101351ADDAA106000091GF108991081051012501999999KA1240M+02901MA1999999101281MD1999999-0021REMSYN088AAXX  15004 83096 32695 81404 10260 20237 30128 40135 885// 333 10290 29088 55006 59002;EQDQ01  00002PRCP06
0190830960999992005041512004-10917-037050FM-12+000699999V0200901N003112200019N0020001N1+02811+02441101331ADDAY161061AY261061GF104991041011012501011001KA1240N+02201MA1999999101261MD1999999+0011MW1211REMSYN088AAXX  15124 83096 21695 40906 10281 20244 30126 40133 72166 84110 333 20220 58001 60134;
0148830960999992005041518004-10917-037050FM-12+000699999V0201401N002112200019N0020001N1+02871+02371101211ADDAA106000021GF102991021011012501001001MA1999999101141MD1999999+0061REMSYN070AAXX  15184 83096 32695 21404 10287 20237 30114 40121 82100 333 58006;
0198830960999992005041600004-10917-037050FM-12+000699999V0201401N001510120019N0020001N1+02671+02331101481ADDAA106000091GF108991081051012501999999KA1240M+03001MA1999999101411MD1999999+0131REMSYN088AAXX  16004 83096 32695 81403 10267 20233 30141 40148 885// 333 10300 29079 55086 58013;EQDQ01  00002PRCP06
0190830960999992005041612004-10917-037050FM-12+000699999V0202301N001010120019N0020001N1+02601+02441101511ADDAY161061AY261061GF108991081051012501999999KA1240N+02361MA1999999101441MD1999999+0181MW1211REMSYN088AAXX  16124 83096 21695 82302 10260 20244 30144 40151 72166 885// 333 20236 58018 60164;
0171830960999992005041618004-10917-037050FM-12+000699999V0200901N002612200019N0020001N1+02921+02411101201ADDAY161061AY261061GF102991021011012501001001MA1999999101131MD1999999-0011MW1211REMSYN082AAXX  16184 83096 21695 20905 10292 20241 30113 40120 72166 82100 333 59001 60031;
0166830960999992005041700004-10920-037050FM-12+000599999V0201401N001012200019N0020001N1+02711+02411101401ADDAA106000021GF102991021051012501001001MA1999999101331MD1999999-0081REMSYN088AAXX  17004 83096 32695 21402 10271 20241 30133 40140 82500 333 10300 29083 55061 59008;
0177830960999992005041712004-10920-037050FM-12+000599999V0200501N002610120019N0020001N1+02731+02471101471ADDAY161061AY261061GF106991061021012501001001MA1999999101401MD1999999-0041MW1201REMSYN088AAXX  17124 83096 21695 60505 10273 20247 30140 40147 72066 86200 333 20243 59004 60034;
0148830960999992005041718004-10920-037050FM-12+000599999V0200901N004110120019N0020001N1+02941+02451101181ADDAA106000021GF105991051011012501001001MA1999999101111MD1999999-0021REMSYN070AAXX  17184 83096 32695 50908 10294 20245 30111 40118 85100 333 59002;
0198830960999992005041800004-10917-037050FM-12+000699999V0200901N004112200019N0020001N1+02671+02391101331ADDAA106000091GF102991021051012501001001KA1240M+03041MA1999999101261MD1999999-0071REMSYN088AAXX  18004 83096 32695 20908 10267 20239 30126 40133 82500 333 10304 29082 55057 59007;EQDQ01  00002PRCP06
0186830960999992005041812004-10917-037050FM-12+000699999V0201801N002112200019N0020001N1+02711+02331101251ADDAA106000091GF104991041051012501001001KA1240N+02351MA1999999101181MD1999999-0221REMSYN076AAXX  18124 83096 32695 41804 10271 20233 30118 40125 84500 333 20235 59022;EQDQ01  00002PRCP06
0167830960999992005041818004-10917-037050FM-12+000699999V0200901N003112200019N0020001N1+02941+02331101051ADDAA106000091GF104991041051012501001001MA1999999100981MD1999999-0131REMSYN070AAXX  18184 83096 32695 40906 10294 20233 30098 40105 84500 333 59013;EQDQ01  00002PRCP06
0198830960999992005041900004-10917-037050FM-12+000699999V0200901N002110120019N0020001N1+02731+02321101321ADDAA106000091GF105991051051012501001001KA1240M+03051MA1999999101251MD1999999-0011REMSYN088AAXX  19004 83096 32695 50904 10273 20232 30125 40132 85500 333 10305 29074 55040 59001;EQDQ01  00002PRCP06
0186830960999992005041912004-10917-037050FM-12+000699999V0201401N002110120019N0020001N1+02871+02281101291ADDAA106000091GF105991051011012501001001KA1240N+02321MA1999999101221MD1999999+0041REMSYN076AAXX  19124 83096 32695 51404 10287 20228 30122 40129 85100 333 20232 58004;EQDQ01  00002PRCP06
0167830960999992005041918004-10917-037050FM-12+000699999V0200901N002112200019N0020001N1+02871+02371101121ADDAA106000091GF104991041011012501001001MA1999999101051MD1999999+0071REMSYN070AAXX  19184 83096 32695 40904 10287 20237 30105 40112 84100 333 58007;EQDQ01  00002PRCP06
0198830960999992005042000004-10917-037050FM-12+000699999V0201401N002112200019N0020001N1+02751+02361101321ADDAA106000091GF103991031051012501001001KA1240M+03001MA1999999101251MD1999999+0001REMSYN088AAXX  20004 83096 32695 31404 10275 20236 30125 40132 83500 333 10300 29074 55067 58000;EQDQ01  00002PRCP06
0190830960999992005042012004-10917-037050FM-12+000699999V0202301N001510075019N0010001N1+02411+02301101411ADDAY161061AY261061GF108991081051008001999999KA1240N+02331MA1999999101341MD1999999+0121MW1631REMSYN088AAXX  20124 83096 21594 82303 10241 20230 30134 40141 76366 885// 333 20233 58012 60404;
0171830960999992005042018004-10917-037050FM-12+000699999V0201801N002110075019N0010001N1+02451+02321101251ADDAY161061AY261061GF108991081051008001999999MA1999999101181MD1999999+0131MW1631REMSYN082AAXX  20184 83096 21594 81804 10245 20232 30118 40125 76366 885// 333 58013 60231;
0202830960999992005042100004-10917-037050FM-12+000699999V0202301N000510120019N0020001N1+02451+02391101491ADDAY161061AY261061GF108991081051012501999999KA1240M+02741MA1999999101421MD1999999+0171MW1211REMSYN100AAXX  21004 83096 21695 82301 10245 20239 30142 40149 72166 885// 333 10274 29095 55000 58017 60041;
0190830960999992005042112004-10917-037050FM-12+000699999V0200901N003110120019N0020001N1+02711+02411101331ADDAY161061AY261061GF105991051011012501001001KA1240N+02301MA1999999101261MD1999999-0081MW1211REMSYN088AAXX  21124 83096 21695 50906 10271 20241 30126 40133 72166 85100 333 20230 59008 60334;
0148830960999992005042118004-10917-037050FM-12+000699999V0200901N002612200019N0020001N1+02951+02381101111ADDAA106000021GF103991031011012501001001MA1999999101041MD1999999-0141REMSYN070AAXX  21184 83096 32695 30905 10295 20238 30104 40111 83100 333 59014;
0198830960999992005042200004-10917-037050FM-12+000699999V0200901N003112200019N0020001N1+02711+02371101241ADDAA106000091GF101991011051012501001001KA1240M+03041MA1999999101171MD1999999-0251REMSYN088AAXX  22004 83096 32695 10906 10271 20237 30117 40124 81500 333 10304 29079 55094 59025;EQDQ01  00002PRCP06
0186830960999992005042212004-10917-037050FM-12+000699999V0200901N002610120019N0020001N1+02811+02221101211ADDAA106000091GF105991051011012501001001KA1240N+02351MA1999999101141MD1999999-0121REMSYN076AAXX  22124 83096 32695 50905 10281 20222 30114 40121 85100 333 20235 59012;EQDQ01  00002PRCP06
0167830960999992005042218004-10917-037050FM-12+000699999V0200901N003112200019N0020001N1+02911+02201101061ADDAA106000091GF103991031011012501001001MA1999999100991MD1999999-0051REMSYN070AAXX  22184 83096 32695 30906 10291 20220 30099 40106 83100 333 59005;EQDQ01  00002PRCP06
0198830960999992005042300004-10917-037050FM-12+000699999V0200901N002612200019N0020001N1+02701+02281101341ADDAA106000091GF102991021051012501001001KA1240M+03041MA1999999101271MD1999999+0101REMSYN088AAXX  23004 83096 32695 20905 10270 20228 30127 40134 82500 333 10304 29073 55079 58010;EQDQ01  00002PRCP06
0190830960999992005042312004-10917-037050FM-12+000699999V0200901N002112200019N0020001N1+02861+02461101251ADDAY161061AY261061GF104991041011012501001001KA1240N+02331MA1999999101181MD1999999+0041MW1211REMSYN088AAXX  23124 83096 21695 40904 10286 20246 30118 40125 72166 84100 333 20233 58004 60014;
0148830960999992005042318004-10917-037050FM-12+000699999V0200901N002612200019N0020001N1+02931+02361101081ADDAA106000021GF103991031011012501001001MA1999999101011MD1999999+0021REMSYN070AAXX  23184 83096 32695 30905 10293 20236 30101 40108 83100 333 58002;
0185830960999992005042400004-10920-037050FM-12+000599999V0200901N002112200019N0020001N1+02711+02221101151ADDAA106000091GF102991021011012501001001MA1999999101881MD1999999-0191REMSYN088AAXX  24004 83096 32695 20904 10271 20222 30188 40115 82100 333 10302 29075 55093 59019;EQDQ01  00002PRCP06
0177830960999992005042412004-10920-037050FM-12+000599999V0200901N001512200019N0020001N1+02811+02401101291ADDAY161061AY261061GF104991041011012501001001MA1999999101221MD1999999+0041MW1211REMSYN088AAXX  24124 83096 21695 40903 10281 20240 30122 40129 72166 84100 333 20233 58004 60014;
0148830960999992005042418004-10920-037050FM-12+000599999V0200901N002612200019N0020001N1+02911+02341101101ADDAA106000021GF103991031011012501001001MA1999999101031MD1999999+0021REMSYN070AAXX  24184 83096 32695 30905 10291 20234 30103 40110 83100 333 58002;
0198830960999992005042500004-10917-037050FM-12+000699999V0200901N001512200019N0020001N1+02691+02201101251ADDAA106000091GF102991021051012501001001KA1240M+03021MA1999999101181MD1999999+0101REMSYN088AAXX  25004 83096 32695 20903 10269 20220 30118 40125 82500 333 10302 29075 55090 58010;EQDQ01  00002PRCP06
0190830960999992005042512004-10917-037050FM-12+000699999V0200901N001512200019N0020001N1+02811+02251101291ADDAY151061AY251061GF104991041011012501001001KA1240N+02361MA1999999101221MD1999999+0001MW1201REMSYN088AAXX  25124 83096 21695 40903 10281 20225 30122 40129 72055 84100 333 20236 58000 69964;
0148830960999992005042518004-10917-037050FM-12+000699999V0201401N003112200019N0020001N1+02901+02201101141ADDAA106000021GF101991011011012501001001MA1999999101071MD1999999+0041REMSYN070AAXX  25184 83096 32695 11406 10290 20220 30107 40114 81100 333 58004;
0198830960999992005042600004-10917-037050FM-12+000699999V0200901N001512200019N0020001N1+02631+02071101331ADDAA106000091GF101991011051012501001001KA1240M+03051MA1999999101261MD1999999+0081REMSYN088AAXX  26004 83096 32695 10903 10263 20207 30126 40133 81500 333 10305 29070 55099 58008;EQDQ01  00002PRCP06
0186830960999992005042612004-10917-037050FM-12+000699999V0200901N002112200019N0020001N1+02791+02221101301ADDAA106000091GF102991021011012501001001KA1240N+02201MA1999999101231MD1999999+0011REMSYN076AAXX  26124 83096 32695 20904 10279 20222 30123 40130 82100 333 20220 58001;EQDQ01  00002PRCP06
0167830960999992005042618004-10917-037050FM-12+000699999V0200901N002110120019N0020001N1+02911+01891101061ADDAA106000091GF106991061011012501001001MA1999999100991MD1999999-0071REMSYN070AAXX  26184 83096 32695 60904 10291 20189 30099 40106 86100 333 59007;EQDQ01  00002PRCP06
0198830960999992005042700004-10917-037050FM-12+000699999V0200901N003112200019N0020001N1+02681+02181101271ADDAA106000091GF101991011051012501001001KA1240M+03101MA1999999101201MD1999999-0061REMSYN088AAXX  27004 83096 32695 10906 10268 20218 30120 40127 81500 333 10310 29068 55076 59006;EQDQ01  00002PRCP06
0186830960999992005042712004-10917-037050FM-12+000699999V0200901N001512200019N0020001N1+02871+02421101251ADDAA106000091GF102991021011012501001001KA1240N+02301MA1999999101181MD1999999-0051REMSYN076AAXX  27124 83096 32695 20903 10287 20242 30118 40125 82100 333 20230 59005;EQDQ01  00002PRCP06
0167830960999992005042718004-10917-037050FM-12+000699999V0201401N002612200019N0020001N1+02941+02431101041ADDAA106000091GF101991011011012501001001MA1999999100971MD1999999-0021REMSYN070AAXX  27184 83096 32695 11405 10294 20243 30097 40104 81100 333 59002;EQDQ01  00002PRCP06
0198830960999992005042800004-10917-037050FM-12+000699999V0201401N001512200019N0020001N1+02751+02321101361ADDAA106000091GF101991011051012501001001KA1240M+03081MA1999999101291MD1999999+0091REMSYN088AAXX  28004 83096 32695 11403 10275 20232 30129 40136 81500 333 10308 29076 55094 58009;EQDQ01  00002PRCP06
0190830960999992005042812004-10917-037050FM-12+000699999V0200501N002112200019N0020001N1+02751+02451101371ADDAY161061AY261061GF103991031051012501001001KA1240N+02301MA1999999101301MD1999999+0121MW1211REMSYN088AAXX  28124 83096 21695 30504 10275 20245 30130 40137 72166 83500 333 20230 58012 60014;
0148830960999992005042818004-10917-037050FM-12+000699999V0201401N001510120019N0020001N1+02971+02441101171ADDAA106000021GF105991051011012501001001MA1999999101101MD1999999+0131REMSYN070AAXX  28184 83096 32695 51403 10297 20244 30110 40117 85100 333 58013;
0198830960999992005042900004-10917-037050FM-12+000699999V0201401N001510120019N0020001N1+02761+02461101421ADDAA106000091GF106991061051012501001001KA1240M+03061MA1999999101351MD1999999+0061REMSYN088AAXX  29004 83096 32695 61403 10276 20246 30135 40142 86500 333 10306 29081 55059 58006;EQDQ01  00002PRCP06
0186830960999992005042912004-10917-037050FM-12+000699999V0200901N001512200019N0020001N1+02751+02381101411ADDAA106000091GF104991041051012501001001KA1240N+02331MA1999999101341MD1999999+0041REMSYN076AAXX  29124 83096 32695 40903 10275 20238 30134 40141 84500 333 20233 58004;EQDQ01  00002PRCP06
0167830960999992005042918004-10917-037050FM-12+000699999V0201401N002612200019N0020001N1+02901+02341101301ADDAA106000091GF102991021011012501001001MA1999999101231MD1999999+0131REMSYN070AAXX  29184 83096 32695 21405 10290 20234 30123 40130 82100 333 58013;EQDQ01  00002PRCP06
0198830960999992005043000004-10917-037050FM-12+000699999V0200901N003112200019N0020001N1+02771+02461101541ADDAA106000091GF101991011051012501001001KA1240M+03121MA1999999101471MD1999999+0121REMSYN088AAXX  30004 83096 32695 10906 10277 20246 30147 40154 81500 333 10312 29080 55066 58012;EQDQ01  00002PRCP06
0186830960999992005043012004-10917-037050FM-12+000699999V0200901N001512200019N0020001N1+02931+02521101411ADDAA106000091GF103991031051012501001001KA1240N+02361MA1999999101341MD1999999+0001REMSYN076AAXX  30124 83096 32695 30903 10293 20252 30134 40141 83500 333 20236 58000;EQDQ01  00002PRCP06
0167830960999992005043018004-10917-037050FM-12+000699999V0200901N002612200019N0020001N1+02951+02451101141ADDAA106000091GF103991031011012501001001MA1999999101071MD1999999-0161REMSYN070AAXX  30184 83096 32695 30905 10295 20245 30107 40114 83100 333 59016;EQDQ01  00002PRCP06
0185830960999992005050100004-10920-037050FM-12+000599999V0200901N002612200019N0020001N1+02771+02341101431ADDAA106000091GF102991021051012501001001MA1999999101361MD1999999-0111REMSYN088AAXX  01004 83096 32695 20905 10277 20234 30136 40143 82500 333 10314 29077 55066 59011;EQDQ01  00002PRCP06
0173830960999992005050112004-10920-037050FM-12+000599999V0200901N001512200019N0020001N1+02891+02391101381ADDAA106000091GF104991041051012501001001MA1999999101311MD1999999-0031REMSYN076AAXX  01124 83096 32695 40903 10289 20239 30131 40138 84500 333 20235 59003;EQDQ01  00002PRCP06
0171830960999992005050118004-10920-037050FM-12+000599999V0201401N001510120019N0020001N1+02901+02391101161ADDAY161061AY261061GF106991061011012501001001MA1999999101091MD1999999+0021MW1211REMSYN082AAXX  01184 83096 21695 61403 10290 20239 30109 40116 72166 86100 333 58002 60051;
0166830960999992005050200004-10920-037050FM-12+000599999V0201401N001512200019N0020001N1+02721+02481101431ADDAA106000021GF103991031051012501001001MA1999999101361MD1999999-0111REMSYN088AAXX  02004 83096 32695 31403 10272 20248 30136 40143 83500 333 10305 29081 55042 59011;
0171830960999992005050218004-10917-037050FM-12+000699999V0201801N002610075019N0010001N1+02531+02361101291ADDAY161061AY261061GF108991081051008001999999MA1999999101221MD1999999+0131MW1631REMSYN082AAXX  02184 83096 21594 81805 10253 20236 30122 40129 76366 885// 333 58013 60101;
0202830960999992005050300004-10917-037050FM-12+000699999V0201801N003110120019N0020001N1+02501+02311101541ADDAY161061AY261061GF108991081051012501999999KA1240M+02761MA1999999101471MD1999999+0221MW1211REMSYN100AAXX  03004 83096 21695 81806 10250 20231 30147 40154 72166 885// 333 10276 29089 55000 58022 60021;
0190830960999992005050312004-10917-037050FM-12+000699999V0201801N002610120019N0020001N1+02551+02271101501ADDAY161061AY261061GF108991081051012501999999KA1240N+02251MA1999999101431MD1999999+0101MW1211REMSYN088AAXX  03124 83096 21695 81805 10255 20227 30143 40150 72166 885// 333 20225 58010 60274;
0148830960999992005050318004-10917-037050FM-12+000699999V0201801N002610120019N0020001N1+02711+02151101391ADDAA106000021GF106991061051012501001001MA1999999101321MD1999999+0101REMSYN070AAXX  03184 83096 32695 61805 10271 20215 30132 40139 86500 333 58010;
0202830960999992005050400004-10917-037050FM-12+000699999V0201801N003110075019N0020001N1+02381+02331101681ADDAY161061AY261061GF108991081051008001999999KA1240M+02851MA1999999101611MD1999999+0141MW1601REMSYN100AAXX  04004 83096 21595 81806 10238 20233 30161 40168 76066 885// 333 10285 29088 55000 58014 60191;
0190830960999992005050412004-10917-037050FM-12+000699999V0201801N002110120019N0020001N1+02691+02201101571ADDAY161061AY261061GF108991081051012501999999KA1240N+02251MA1999999101501MD1999999+0071MW1211REMSYN088AAXX  04124 83096 21695 81804 10269 20220 30150 40157 72166 885// 333 20225 58007 60244;
0171830960999992005050418004-10917-037050FM-12+000699999V0201801N002110120019N0020001N1+02651+02201101411ADDAY161061AY261061GF106991061051012501001001MA1999999101341MD1999999+0021MW1211REMSYN082AAXX  04184 83096 21695 61804 10265 20220 30134 40141 72166 86500 333 58002 60101;
0202830960999992005050500004-10917-037050FM-12+000699999V0200901N002110120019N0020001N1+02501+02191101721ADDAY161061AY261061GF108991081051012501999999KA1240M+02791MA1999999101651MD1999999+0041MW1201REMSYN100AAXX  05004 83096 21695 80904 10250 20219 30165 40172 72066 885// 333 10279 29079 55000 58004 69961;
0190830960999992005050512004-10917-037050FM-12+000699999V0201801N002610075019N0010001N1+02471+02281101581ADDAY161061AY261061GF108991081051008001999999KA1240N+02241MA1999999101511MD1999999+0011MW1611REMSYN088AAXX  05124 83096 21594 81805 10247 20228 30151 40158 76166 885// 333 20224 58001 60174;
0171830960999992005050518004-10917-037050FM-12+000699999V0201801N002610075019N0010001N1+02411+02231101411ADDAY161061AY261061GF108991081051008001999999MA1999999101341MD1999999+0001MW1601REMSYN082AAXX  05184 83096 21594 81805 10241 20223 30134 40141 76066 885// 333 58000 60031;
0202830960999992005050600004-10917-037050FM-12+000699999V0201801N003110075019N0020001N1+02351+02241101411ADDAY161061AY261061GF108991081051008001999999KA1240M+02711MA1999999101341MD1999999+0311MW1601REMSYN100AAXX  06004 83096 21595 81806 10235 20224 30134 40141 76066 885// 333 10271 29091 55/// 58031 60131;
0190830960999992005050612004-10917-037050FM-12+000699999V0202301N003610120019N0020001N1+02451+02271101571ADDAY161061AY261061GF106991061051012501001001KA1240N+02221MA1999999100151MD1999999-0011MW1201REMSYN088AAXX  06124 83096 21695 62307 10245 20227 30015 40157 72066 86500 333 20222 59001 60284;
0167830960999992005050618004-10917-037050FM-12+000699999V0201801N002610120019N0020001N1+02791+02181101371ADDAA106000021GF105991051051012501001001MA1999999101302MD1999999-0041REMSYN070AAXX  06184 83096 32695 51805 10279 20218 30130 40137 85500 333 59004;EQDQ01+101303APOSP 
0198830960999992005050700004-10917-037050FM-12+000699999V0201401N002610120019N0020001N1+02661+02181101511ADDAA106000091GF108991081051012501999999KA1240M+02931MA1999999101441MD1999999+0101REMSYN088AAXX  07004 83096 32695 81405 10266 20218 30144 40151 885// 333 10293 29078 55011 58010;EQDQ01  00002PRCP06
0190830960999992005050712004-10917-037050FM-12+000699999V0201801N002610120019N0020001N1+02531+02361101521ADDAY161061AY261061GF106991061051012501001001KA1240N+02201MA1999999101451MD1999999-0051MW1211REMSYN088AAXX  07124 83096 21695 61805 10253 20236 30145 40152 72166 86500 333 20220 59005 60074;
0148830960999992005050718004-10917-037050FM-12+000699999V0201801N002610120019N0020001N1+02811+02251101331ADDAA106000021GF105991051051012501001001MA1999999101261MD1999999-0041REMSYN070AAXX  07184 83096 32695 51805 10281 20225 30126 40133 85500 333 59004;
0189830960999992005050800004-10920-037050FM-12+000599999V0201801N002110120019N0020001N1+02491+02321101481ADDAY161061AY261061GF105991051051012501001001MA1999999101411MD1999999-0031MW1211REMSYN100AAXX  08004 83096 21695 51804 10249 20232 30141 40148 72166 85500 333 10289 29086 55030 59003 60031;
0177830960999992005050812004-10920-037050FM-12+000599999V0201401N002612200019N0020001N1+02861+02351101421ADDAY161061AY261061GF104991041011012501001001MA1999999101351MD1999999-0101MW1211REMSYN088AAXX  08124 83096 21695 41405 10286 20235 30135 40142 72166 84100 333 20235 59010 60214;
0148830960999992005050818004-10920-037050FM-12+000599999V0201401N003112200019N0020001N1+02851+02281101321ADDAA106000021GF103991031011012501001001MA1999999101251MD1999999-0011REMSYN070AAXX  08184 83096 32695 31406 10285 20228 30125 40132 83100 333 59001;
0198830960999992005050900004-10917-037050FM-12+000699999V0200901N001510120019N0020001N1+02591+02351101531ADDAA106000091GF105991051051012501001001KA1240M+03001MA1999999101461MD1999999+0051REMSYN088AAXX  09004 83096 32695 50903 10259 20235 30146 40153 85500 333 10300 29079 55075 58005;EQDQ01  00002PRCP06
0190830960999992005050912004-10917-037050FM-12+000699999V0201801N001512200019N0020001N1+02531+02311101481ADDAY161061AY261061GF104991041051012501001001KA1240N+02351MA1999999101411MD1999999+0061MW1211REMSYN088AAXX  09124 83096 21695 41803 10253 20231 30141 40148 72166 84500 333 20235 58006 60054;
0171830960999992005050918004-10917-037050FM-12+000699999V0201401N002610120019N0020001N1+02691+02371101291ADDAY161061AY261061GF106991061011012501001001MA1999999101221MD1999999-0031MW1211REMSYN082AAXX  09184 83096 21695 61405 10269 20237 30122 40129 72166 86100 333 59003 60021;
0202830960999992005051000004-10917-037050FM-12+000699999V0201801N001010120019N0020001N1+02531+02441101551ADDAY161061AY261061GF108991081051012501999999KA1240M+02841MA1999999101481MD1999999+0021MW1201REMSYN100AAXX  10004 83096 21695 81802 10253 20244 30148 40155 72066 885// 333 10284 29089 55029 58002 60011;
0190830960999992005051012004-10917-037050FM-12+000699999V0201801N002112200019N0020001N1+02851+02421101391ADDAY161061AY261061GF104991041011012501001001KA1240N+02371MA1999999101321MD1999999-0091MW1211REMSYN088AAXX  10124 83096 21695 41804 10285 20242 30132 40139 72166 84100 333 20237 59009 60044;
0171830960999992005051018004-10917-037050FM-12+000699999V0201401N003610120019N0020001N1+02711+02431101291ADDAY161061AY261061GF108991081051012501999999MA1999999101221MD1999999+0001MW1201REMSYN082AAXX  10184 83096 21695 81407 10271 20243 30122 40129 72066 885// 333 59000 69961;
0202830960999992005051100004-10917-037050FM-12+000699999V0200901N004110120019N0020001N1+02701+02331101501ADDAY161061AY261061GF108991081051012501999999KA1240M+03041MA1999999101431MD1999999-0051MW1201REMSYN100AAXX  11004 83096 21695 80908 10270 20233 30143 40150 72066 885// 333 10304 29080 55034 59005 69961;
0162830960999992005051112004-10917-037050FM-12+000699999V0201801N002112200019N0020001N1+02831+02151101471ADDGF103991031011012501001001KA1240N+02391MA1999999101401MD1999999+0081REMSYN082AAXX  11124 83096 22695 31804 10283 20215 30140 40147 83100 333 20239 58008 60014;
0167830960999992005051118004-10917-037050FM-12+000699999V0201401N003112200019N0020001N1+02851+02311101331ADDAA106000091GF101991011011012501001001MA1999999101261MD1999999+0041REMSYN070AAXX  11184 83096 32695 11406 10285 20231 30126 40133 81100 333 58004;EQDQ01  00002PRCP06
0198830960999992005051200004-10917-037050FM-12+000699999V0201401N003110120019N0020001N1+02501+02321101551ADDAA106000091GF108991081051012501999999KA1240M+03021MA1999999101481MD1999999+0051REMSYN088AAXX  12004 83096 32695 81406 10250 20232 30148 40155 885// 333 10302 29080 55087 58005;EQDQ01  00002PRCP06
0186830960999992005051212004-10917-037050FM-12+000699999V0201401N002612200019N0020001N1+02811+02271101471ADDAA106000091GF104991041011012501001001KA1240N+02411MA1999999101401MD1999999+0001REMSYN076AAXX  12124 83096 32695 41405 10281 20227 30140 40147 84100 333 20241 58000;EQDQ01  00002PRCP06
0171830960999992005051218004-10917-037050FM-12+000699999V0201401N002610120019N0020001N1+02871+02351101331ADDAY161061AY261061GF105991051011012501001001MA1999999101261MD1999999+0001MW1201REMSYN082AAXX  12184 83096 21695 51405 10287 20235 30126 40133 72066 85100 333 58000 69961;
0179830960999992005051300004-10917-037050FM-12+000699999V0200901N002612200019N0020001N1+02691+02411101501ADDAA106000021GF103991031051012501001001KA1240M+03061MA1999999101431MD1999999-0051REMSYN088AAXX  13004 83096 32695 30905 10269 20241 30143 40150 83500 333 10306 29078 55076 59005;
0190830960999992005051312004-10917-037050FM-12+000699999V0200901N001510120019N0020001N1+02591+02371101401ADDAY151061AY251061GF105991051051012501001001KA1240N+02301MA1999999101331MD1999999-0071MW1201REMSYN088AAXX  13124 83096 21695 50903 10259 20237 30133 40140 72055 85500 333 20230 59007 60014;
0148830960999992005051318004-10917-037050FM-12+000699999V0201401N002610120019N0020001N1+02811+02381101271ADDAA106000021GF105991051011012501001001MA1999999101201MD1999999-0061REMSYN070AAXX  13184 83096 32695 51405 10281 20238 30120 40127 85100 333 59006;
0198830960999992005051400004-10917-037050FM-12+000699999V0200901N004110120019N0020001N1+02741+02281101391ADDAA106000091GF108991081051012501999999KA1240M+03021MA1999999101321MD1999999-0111REMSYN088AAXX  14004 83096 32695 80908 10274 20228 30132 40139 885// 333 10302 29076 55054 59011;EQDQ01  00002PRCP06
0190830960999992005051412004-10917-037050FM-12+000699999V0201401N002610120019N0020001N1+02861+02371101471ADDAY161061AY261061GF106991061011012501001001KA1240N+02391MA1999999101401MD1999999+0071MW1211REMSYN088AAXX  14124 83096 21695 61405 10286 20237 30140 40147 72166 86100 333 20239 58007 60034;
0167830960999992005051418004-10917-037050FM-12+000699999V0201401N003610120019N0020001N1+02841+02381101231ADDAA106000021GF108991999011012501001011MA1999999101161MD1999999-0041REMSYN070AAXX  14184 83096 32695 81407 10284 20238 30116 40123 88101 333 59004;EQDQ01+000082SCOTLC
0185830960999992005051500004-10920-037050FM-12+000599999V0201401N003612200019N0020001N1+02691+02301101351ADDAA106000091GF103991031051012501001001MA1999999101281MD1999999-0041REMSYN088AAXX  15004 83096 32695 31407 10269 20230 30128 40135 83500 333 10299 29076 55083 59004;EQDQ01  00002PRCP06
0173830960999992005051512004-10920-037050FM-12+000599999V0201401N003112200019N0020001N1+02901+02321101411ADDAA106000091GF102991021011012501001001MA1999999101341MD1999999-0061REMSYN076AAXX  15124 83096 32695 21406 10290 20232 30134 40141 82100 333 20239 59006;EQDQ01  00002PRCP06
0171830960999992005051518004-10920-037050FM-12+000599999V0201401N001010120019N0020001N1+02541+02441101191ADDAY161061AY261061GF108991081051012501999999MA1999999101121MD1999999-0041MW1211REMSYN082AAXX  15184 83096 21695 81402 10254 20244 30112 40119 72166 885// 333 59004 60031;
0179830960999992005051600004-10917-037050FM-12+000699999V0201401N002612200019N0020001N1+02691+02411101351ADDAA106000021GF102991021051012501001001KA1240M+03041MA1999999101281MD1999999+0001REMSYN088AAXX  16004 83096 32695 21405 10269 20241 30128 40135 82500 333 10304 29082 55069 58000;
0162830960999992005051612004-10917-037050FM-12+000699999V0201401N002110120019N0020001N1+02831+02381101321ADDGF105991051011012501001001KA1240N+02411MA1999999101251MD1999999-0091REMSYN082AAXX  16124 83096 22695 51404 10283 20238 30125 40132 85100 333 20241 59009 60034;
0167830960999992005051618004-10917-037050FM-12+000699999V0201401N002112200019N0020001N1+02911+02501101111ADDAA106000091GF104991041011012501001001MA1999999101041MD1999999-0081REMSYN070AAXX  16184 83096 32695 41404 10291 20250 30104 40111 84100 333 59008;EQDQ01  00002PRCP06
0202830960999992005051700004-10917-037050FM-12+000699999V0200901N001510120019N0020001N1+02571+02421101301ADDAY161061AY261061GF108991081051012501999999KA1240M+03021MA1999999101231MD1999999-0051MW1201REMSYN100AAXX  17004 83096 21695 80903 10257 20242 30123 40130 72066 885// 333 10302 29084 55076 59005 60021;
0190830960999992005051712004-10917-037050FM-12+000699999V0201401N002612200019N0020001N1+02631+02371101231ADDAY161061AY261061GF104991041051012501001001KA1240N+02391MA1999999101161MD1999999-0091MW1211REMSYN088AAXX  17124 83096 21695 41405 10263 20237 30116 40123 72166 84500 333 20239 59009 60054;
0148830960999992005051718004-10917-037050FM-12+000699999V0200901N002612200019N0020001N1+02851+02291101051ADDAA106000021GF103991031051012501001001MA1999999100981MD1999999-0061REMSYN070AAXX  17184 83096 32695 30905 10285 20229 30098 40105 83500 333 59006;
0198830960999992005051800004-10917-037050FM-12+000699999V0201401N002612200019N0020001N1+02671+02221101241ADDAA106000091GF102991021051012501001001KA1240M+02981MA1999999101171MD1999999-0061REMSYN088AAXX  18004 83096 32695 21405 10267 20222 30117 40124 82500 333 10298 29077 55048 59006;EQDQ01  00002PRCP06
0186830960999992005051812004-10917-037050FM-12+000699999V0201401N002112200019N0020001N1+02851+02221101211ADDAA106000091GF102991021011012501001001KA1240N+02411MA1999999101141MD1999999-0021REMSYN076AAXX  18124 83096 32695 21404 10285 20222 30114 40121 82100 333 20241 59002;EQDQ01  00002PRCP06
0167830960999992005051818004-10917-037050FM-12+000699999V0201401N002612200019N0020001N1+02841+02091101011ADDAA106000091GF102991021011012501001001MA1999999100941MD1999999-0041REMSYN070AAXX  18184 83096 32695 21405 10284 20209 30094 40101 82100 333 59004;EQDQ01  00002PRCP06
0198830960999992005051900004-10917-037050FM-12+000699999V0201401N002112200019N0020001N1+02571+02121101201ADDAA106000091GF102991021051012501001001KA1240M+02901MA1999999101131MD1999999-0041REMSYN088AAXX  19004 83096 32695 21404 10257 20212 30113 40120 82500 333 10290 29071 55094 59004;EQDQ01  00002PRCP06
0186830960999992005051912004-10917-037050FM-12+000699999V0201401N002112200019N0020001N1+02771+02121101211ADDAA106000091GF104991041011012501001001KA1240N+02281MA1999999101141MD1999999+0001REMSYN076AAXX  19124 83096 32695 41404 10277 20212 30114 40121 84100 333 20228 58000;EQDQ01  00002PRCP06
0167830960999992005051918004-10917-037050FM-12+000699999V0200901N002110120019N0020001N1+02751+02021101011ADDAA106000091GF105991051011012501001001MA1999999100941MD1999999+0001REMSYN070AAXX  19184 83096 32695 50904 10275 20202 30094 40101 85100 333 58000;EQDQ01  00002PRCP06
0198830960999992005052000004-10917-037050FM-12+000699999V0200901N001512200019N0020001N1+02601+02141101301ADDAA106000091GF101991011051012501001001KA1240M+02961MA1999999101331MD1999999+0101REMSYN088AAXX  20004 83096 32695 10903 10260 20214 30133 40130 81500 333 10296 29071 55078 58010;EQDQ01  00002PRCP06
0186830960999992005052012004-10917-037050FM-12+000699999V0202701N001512200019N0020001N1+02671+02291101331ADDAA106000091GF104991041011012501001001KA1240N+02281MA1999999101261MD1999999+0121REMSYN076AAXX  20124 83096 32695 42703 10267 20229 30126 40133 84100 333 20228 58012;EQDQ01  00002PRCP06
0167830960999992005052018004-10917-037050FM-12+000699999V0200901N001510120019N0020001N1+02791+02341101111ADDAA106000091GF105991051051012501001001MA1999999101041MD1999999+0101REMSYN070AAXX  20184 83096 32695 50903 10279 20234 30104 40111 85500 333 58010;EQDQ01  00002PRCP06
0198830960999992005052100004-10917-037050FM-12+000699999V0200901N004110120019N0020001N1+02591+02391101401ADDAA106000091GF108991081051012501999999KA1240M+02981MA1999999101331MD1999999+0101REMSYN088AAXX  21004 83096 32695 80908 10259 20239 30133 40140 885// 333 10298 29083 55049 58010;EQDQ01  00002PRCP06
0190830960999992005052112004-10917-037050FM-12+000699999V0200501N001512200019N0020001N1+02691+02451101271ADDAY161061AY261061GF104991041051012501001001KA1240N+02391MA1999999101301MD1999999+0041MW1211REMSYN088AAXX  21124 83096 21695 40503 10269 20245 30130 40127 72166 84500 333 20239 58004 60014;
0171830960999992005052118004-10917-037050FM-12+000699999V0200901N002612200019N0020001N1+02831+02361101191ADDAY161061AY261061GF102991021011012501001001MA1999999101121MD1999999+0081MW1211REMSYN082AAXX  21184 83096 21695 20905 10283 20236 30112 40119 72166 82100 333 58008 60011;
0166830960999992005052200004-10920-037050FM-12+000599999V0200901N003112200019N0020001N1+02631+02351101211ADDAA106000021GF104991041051012501001001MA1999999101141MD1999999-0191REMSYN088AAXX  22004 83096 32695 40906 10263 20235 30114 40121 84500 333 10299 29083 55055 59019;
0149830960999992005052212004-10920-037050FM-12+000599999V0200501N001512200019N0020001N1+02751+02451101281ADDGF104991041051012501001001MA1999999101211MD1999999-0091REMSYN082AAXX  22124 83096 22695 40503 10275 20245 30121 40128 84500 333 20239 59009 60014;
0167830960999992005052218004-10920-037050FM-12+000599999V0200901N002112200019N0020001N1+02831+02361101131ADDAA106000091GF103991031011012501001001MA1999999101061MD1999999-0061REMSYN070AAXX  22184 83096 32695 30904 10283 20236 30106 40113 83100 333 59006;EQDQ01  00002PRCP06
0185830960999992005052300004-10920-037050FM-12+000599999V0200901N002610120019N0020001N1+02711+02411101091ADDAA106000091GF105991051011012501001001MA1999999101021MD1999999-0121REMSYN088AAXX  23004 83096 32695 50905 10271 20241 30102 40109 85100 333 10300 29082 55064 59012;EQDQ01  00002PRCP06
0173830960999992005052312004-10920-037050FM-12+000599999V0200501N001512200019N0020001N1+02851+02351101211ADDAA106000091GF102991021011012501001001MA1999999101141MD1999999-0071REMSYN076AAXX  23124 83096 32695 20503 10285 20235 30114 40121 82100 333 20241 59007;EQDQ01  00002PRCP06
0167830960999992005052318004-10920-037050FM-12+000599999V0200901N004112200019N0020001N1+02901+02251101031ADDAA106000091GF103991031011012501001001MA1999999100961MD1999999-0101REMSYN070AAXX  23184 83096 32695 30908 10290 20225 30096 40103 83100 333 59010;EQDQ01  00002PRCP06
0198830960999992005052400004-10917-037050FM-12+000699999V0200901N003112200019N0020001N1+02711+02501101261ADDAA106000091GF101991011051012501001001KA1240M+03041MA1999999101191MD1999999+0171REMSYN088AAXX  24004 83096 32695 10906 10271 20250 30119 40126 81500 333 10304 29080 55095 58017;EQDQ01  00002PRCP06
0186830960999992005052412004-10917-037050FM-12+000699999V0200901N002112200019N0020001N1+02871+02481101271ADDAA106000091GF104991041011012501011001KA1240N+02431MA1999999101201MD1999999+0061REMSYN076AAXX  24124 83096 32695 40904 10287 20248 30120 40127 84110 333 20243 58006;EQDQ01  00002PRCP06
0167830960999992005052418004-10917-037050FM-12+000699999V0200901N005112200019N0020001N1+02901+02541101141ADDAA106000091GF101991011011012501001001MA1999999101071MD1999999+0111REMSYN070AAXX  24184 83096 32695 10910 10290 20254 30107 40114 81100 333 58011;EQDQ01  00002PRCP06
0198830960999992005052500004-10917-037050FM-12+000699999V0200901N003112200019N0020001N1+02691+02411101361ADDAA106000091GF102991021051012501001001KA1240M+03031MA1999999101291MD1999999+0101REMSYN088AAXX  25004 83096 32695 20906 10269 20241 30129 40136 82500 333 10303 29082 55/// 58010;EQDQ01  00002PRCP06
0186830960999992005052512004-10917-037050FM-12+000699999V0200901N001512200019N0020001N1+02791+02421101371ADDAA106000091GF104991041051012501071001KA1240N+02301MA1999999101301MD1999999+0101REMSYN076AAXX  25124 83096 32695 40903 10279 20242 30130 40137 84570 333 20230 58010;EQDQ01  00002PRCP06
0167830960999992005052518004-10917-037050FM-12+000699999V0200901N005112200019N0020001N1+02891+02431101271ADDAA106000091GF102991021011012501001001MA1999999101201MD1999999+0131REMSYN070AAXX  25184 83096 32695 20910 10289 20243 30120 40127 82100 333 58013;EQDQ01  00002PRCP06
0198830960999992005052600004-10917-037050FM-12+000699999V0200901N004112200019N0020001N1+02711+02431101551ADDAA106000091GF103991031051012501001001KA1240M+03021MA1999999101481MD1999999+0191REMSYN088AAXX  26004 83096 32695 30908 10271 20243 30148 40155 83500 333 10302 29081 55091 58019;EQDQ01  00002PRCP06
0186830960999992005052612004-10917-037050FM-12+000699999V0200901N002112200019N0020001N1+02851+02481101551ADDAA106000091GF102991021011012501001001KA1240N+02391MA1999999101481MD1999999+0181REMSYN076AAXX  26124 83096 32695 20904 10285 20248 30148 40155 82100 333 20239 58018;EQDQ01  00002PRCP06
0167830960999992005052618004-10917-037050FM-12+000699999V0200901N004112200019N0020001N1+02881+02411101461ADDAA106000091GF101991011011012501001001MA1999999101391MD1999999+0191REMSYN070AAXX  26184 83096 32695 10908 10288 20241 30139 40146 81100 333 58019;EQDQ01  00002PRCP06
0198830960999992005052700004-10917-037050FM-12+000699999V0200901N004112200019N0020001N1+02721+02411101561ADDAA106000091GF101991011051012501001001KA1240M+03011MA1999999101491MD1999999+0011REMSYN088AAXX  27004 83096 32695 10908 10272 20241 30149 40156 81500 333 10301 29081 55090 58001;EQDQ01  00002PRCP06
0186830960999992005052712004-10917-037050FM-12+000699999V0201401N001512200019N0020001N1+02851+02291101591ADDAA106000091GF104991041011012501001001KA1240N+02401MA1999999101521MD1999999+0041REMSYN076AAXX  27124 83096 32695 41403 10285 20229 30152 40159 84100 333 20240 58004;EQDQ01  00002PRCP06
0167830960999992005052718004-10917-037050FM-12+000699999V0201401N003112200019N0020001N1+02821+02291101551ADDAA106000091GF103991031011012501001001MA1999999101481MD1999999+0091REMSYN070AAXX  27184 83096 32695 31406 10282 20229 30148 40155 83100 333 58009;EQDQ01  00002PRCP06
0198830960999992005052800004-10917-037050FM-12+000699999V0201401N002112200019N0020001N1+02671+02281101721ADDAA106000091GF103991031051012501001001KA1240M+03011MA1999999101651MD1999999+0161REMSYN088AAXX  28004 83096 32695 31404 10267 20228 30165 40172 83500 333 10301 29076 55085 58016;EQDQ01  00002PRCP06
0190830960999992005052812004-10917-037050FM-12+000699999V0201401N001510120019N0020001N1+02761+02281101721ADDAY161061AY261061GF108991081021012501999999KA1240N+02401MA1999999101651MD1999999+0131MW1211REMSYN088AAXX  28124 83096 21695 81403 10276 20228 30165 40172 72166 882// 333 20240 58013 60104;
0171830960999992005052818004-10917-037050FM-12+000699999V0201401N002612200019N0020001N1+02821+02291101481ADDAY151061AY251061GF101991011011012501001001MA1999999101411MD1999999-0071MW1201REMSYN082AAXX  28184 83096 21695 11405 10282 20229 30141 40148 72055 81100 333 59007 69941;
0166830960999992005052900004-10920-037050FM-12+000599999V0201401N002612200019N0020001N1+02671+02241101601ADDAA106000021GF101991011051012501001001MA1999999101531MD1999999-0121REMSYN088AAXX  29004 83096 32695 11405 10267 20224 30153 40160 81500 333 10299 29075 55085 59012;
0177830960999992005052912004-10920-037050FM-12+000599999V0201401N001512200019N0020001N1+02841+02311101691ADDAY151061AY251061GF101991011011012501001001MA1999999101621MD1999999-0031MW1201REMSYN088AAXX  29124 83096 21695 11403 10284 20231 30162 40169 72055 81100 333 20241 59003 69944;
0148830960999992005052918004-10920-037050FM-12+000599999V0201401N001512200019N0020001N1+02861+02141101461ADDAA106000021GF102991021011012501001001MA1999999101391MD1999999-0021REMSYN070AAXX  29184 83096 32695 21403 10286 20214 30139 40146 82100 333 59002;
0198830960999992005053000004-10917-037050FM-12+000699999V0201401N003110120019N0020001N1+02631+02181101581ADDAA106000091GF108991081051012501999999KA1240M+03001MA1999999101511MD1999999-0021REMSYN088AAXX  30004 83096 32695 81406 10263 20218 30151 40158 885// 333 10300 29072 55092 59002;EQDQ01  00002PRCP06
0190830960999992005053012004-10917-037050FM-12+000699999V0201401N002112200019N0020001N1+02811+02131101581ADDAY151061AY251061GF103991031011012501001001KA1240N+02331MA1999999101511MD1999999+0111MW1201REMSYN088AAXX  30124 83096 21695 31404 10281 20213 30151 40158 72055 83100 333 20233 58011 69994;
0171830960999992005053018004-10917-037050FM-12+000699999V0201401N002610120019N0020001N1+02591+02331101491ADDAY161061AY261061GF106991061051012501001001MA1999999101421MD1999999+0031MW1211REMSYN082AAXX  30184 83096 21695 61405 10259 20233 30142 40149 72166 86500 333 58003 60031;
0202830960999992005053100004-10917-037050FM-12+000699999V0201401N001510120019N0020001N1+02581+02211101631ADDAY161061AY261061GF108991081051012501999999KA1240M+02931MA1999999101561MD1999999+0051MW1211REMSYN100AAXX  31004 83096 21695 81403 10258 20221 30156 40163 72166 885// 333 10293 29078 55053 58005 60021;
0190830960999992005053112004-10917-037050FM-12+000699999V0200901N003112200019N0020001N1+02751+02191101551ADDAY161061AY261061GF103991031011012501001001KA1240N+02331MA1999999101481MD1999999-0031MW1211REMSYN088AAXX  31124 83096 21695 30906 10275 20219 30148 40155 72166 83100 333 20233 59003 60144;
0171830960999992005053118004-10917-037050FM-12+000699999V0201401N002110120019N0020001N1+02721+02281101391ADDAY151061AY251061GF106991061051012501001001MA1999999101321MD1999999-0101MW1201REMSYN082AAXX  31184 83096 21695 61404 10272 20228 30132 40139 72055 86500 333 59010 69981;
0202830960999992005060100004-10917-037050FM-12+000699999V0201401N003110120019N0020001N1+02641+02161101631ADDAY161061AY261061GF108991081051012501999999KA1240M+02941MA1999999101561MD1999999+0001MW1211REMSYN100AAXX  01004 83096 21695 81406 10264 20216 30156 40163 72166 885// 333 10294 29075 55046 58000 60011;
0190830960999992005060112004-10917-037050FM-12+000699999V0200901N002612200019N0020001N1+02751+02341101551ADDAY161061AY261061GF103991031011012501001001KA1240N+02351MA1999999101481MD1999999+0001MW1211REMSYN088AAXX  01124 83096 21695 30905 10275 20234 30148 40155 72166 83100 333 20235 58000 60074;
0148830960999992005060118004-10917-037050FM-12+000699999V0200901N002612200019N0020001N1+02851+02221101351ADDAA106000021GF102991021011012501001001MA1999999101281MD1999999-0041REMSYN070AAXX  01184 83096 32695 20905 10285 20222 30128 40135 82100 333 59004;
0202830960999992005060200004-10917-037050FM-12+000699999V0201401N002612200019N0020001N1+02611+02351101531ADDAY151061AY251061GF101991011051012501001001KA1240M+02981MA1999999101461MD1999999-0101MW1201REMSYN100AAXX  02004 83096 21695 11405 10261 20235 30146 40153 72055 81500 333 10298 29079 55077 59010 69961;
0190830960999992005060212004-10917-037050FM-12+000699999V0201801N002612200019N0020001N1+02751+02021101531ADDAY161061AY261061GF102991021011012501001001KA1240N+02411MA1999999101461MD1999999-0021MW1211REMSYN088AAXX  02124 83096 21695 21805 10275 20202 30146 40153 72166 82100 333 20241 59002 60034;
0148830960999992005060218004-10917-037050FM-12+000699999V0201401N002612200019N0020001N1+02811+02001101351ADDAA106000021GF102991021011012501001001MA1999999101281MD1999999+0001REMSYN070AAXX  02184 83096 32695 21405 10281 20200 30128 40135 82100 333 58000;
0198830960999992005060300004-10917-037050FM-12+000699999V0201401N002112200019N0020001N1+02671+02041101631ADDAA106000091GF101991011051012501001001KA1240M+02911MA1999999101561MD1999999+0101REMSYN088AAXX  03004 83096 32695 11404 10267 20204 30156 40163 81500 333 10291 29066 55090 58010;EQDQ01  00002PRCP06
0186830960999992005060312004-10917-037050FM-12+000699999V0201401N001512200019N0020001N1+02791+02161101471ADDAA106000091GF102991021011012501001001KA1240N+02431MA1999999101401MD1999999-0061REMSYN076AAXX  03124 83096 32695 21403 10279 20216 30140 40147 82100 333 20243 59006;EQDQ01  00002PRCP06
0167830960999992005060318004-10917-037050FM-12+000699999V0201401N002112200019N0020001N1+02851+02121101451ADDAA106000091GF102991021011012501001001MA1999999101381MD1999999+0101REMSYN070AAXX  03184 83096 32695 21404 10285 20212 30138 40145 82100 333 58010;EQDQ01  00002PRCP06
0202830960999992005060400004-10917-037050FM-12+000699999V0201401N002612200019N0020001N1+02561+02291101641ADDAY161061AY261061GF103991031051012501001001KA1240M+02961MA1999999101571MD1999999+0011MW1211REMSYN100AAXX  04004 83096 21695 31405 10256 20229 30157 40164 72166 83500 333 10296 29076 55092 58001 60011;
0177830960999992005060412004-10920-037050FM-12+000599999V0200501N001510120019N0020001N1+02451+02211101501ADDAY161061AY261061GF106991061051012501001001MA1999999101431MD1999999+0031MW1211REMSYN088AAXX  04124 83096 21695 60503 10245 20221 30143 40150 72166 86500 333 20224 58003 60064;
0148830960999992005060418004-10920-037050FM-12+000599999V0201401N002112200019N0020001N1+02791+02301101431ADDAA106000021GF104991041051012501001001MA1999999101361MD1999999-0021REMSYN070AAXX  04184 83096 32695 41404 10279 20230 30136 40143 84500 333 59002;
0189830960999992005060500004-10920-037050FM-12+000599999V0200901N002610075019N0010001N1+02341+02171101481ADDAY161061AY261061GF108991081051008001999999MA1999999101411MD1999999-0161MW1651REMSYN100AAXX  05004 83096 21594 80905 10234 20217 30141 40148 76566 885// 333 10273 29085 55012 59016 60161;
0162830960999992005060512004-10917-037050FM-12+000699999V0201401N002112200019N0020001N1+02791+02091101601ADDGF102991021011012501001001KA1240N+02261MA1999999101531MD1999999+0101REMSYN082AAXX  05124 83096 22695 21404 10279 20209 30153 40160 82100 333 20226 58010 60164;
0167830960999992005060518004-10917-037050FM-12+000699999V0201401N002112200019N0020001N1+02841+02121101451ADDAA106000091GF103991031011012501001001MA1999999101381MD1999999+0021REMSYN070AAXX  05184 83096 32695 31404 10284 20212 30138 40145 83100 333 58002;EQDQ01  00002PRCP06
0198830960999992005060600004-10917-037050FM-12+000699999V0201401N001512200019N0020001N1+02531+02191101531ADDAA106000091GF102991021011012501001001KA1240M+02931MA1999999101461MD1999999+0051REMSYN088AAXX  06004 83096 32695 21403 10253 20219 30146 40153 82100 333 10293 29074 55086 58005;EQDQ01  00002PRCP06
0190830960999992005060612004-10917-037050FM-12+000699999V0201401N002612200019N0020001N1+02691+02131101481ADDAY161061AY261061GF103991031011012501001001KA1240N+02331MA1999999101411MD1999999-0121MW1211REMSYN088AAXX  06124 83096 21695 31405 10269 20213 30141 40148 72166 83100 333 20233 59012 60024;
0171830960999992005060618004-10917-037050FM-12+000699999V0201401N002610120019N0020001N1+02611+02271101751ADDAY161061AY261061GF105991051011012501001001MA1999999101681MD1999999+0301MW1611REMSYN082AAXX  06184 83096 21695 51405 10261 20227 30168 40175 76166 85100 333 58030 60081;
0202830960999992005060700004-10917-037050FM-12+000699999V0200901N001512200019N0020001N1+02421+02251101571ADDAY161061AY261061GF103991031051012501001001KA1240M+02841MA1999999101501MD1999999+0041MW1211REMSYN100AAXX  07004 83096 21695 30903 10242 20225 30150 40157 72166 83500 333 10284 29083 55059 58004 60011;
0190830960999992005060712004-10917-037050FM-12+000699999V0200901N002610120019N0020001N1+02591+02271101441ADDAY161061AY261061GF105991051011012501001001KA1240N+02261MA1999999101371MD1999999-0041MW1211REMSYN088AAXX  07124 83096 21695 50905 10259 20227 30137 40144 72166 85100 333 20226 59004 60134;
0148830960999992005060718004-10917-037050FM-12+000699999V0201401N002612200019N0020001N1+02761+02191101351ADDAA106000021GF102991021011012501001001MA1999999101281MD1999999-0401REMSYN070AAXX  07184 83096 32695 21405 10276 20219 30128 40135 82100 333 59040;
0198830960999992005060800004-10917-037050FM-12+000699999V0201401N001510120019N0020001N1+02571+02121101571ADDAA106000091GF106991061051012501001001KA1240M+02901MA1999999101501MD1999999+0001REMSYN088AAXX  08004 83096 32695 61403 10257 20212 30150 40157 86500 333 10290 29076 55098 58000;EQDQ01  00002PRCP06
0190830960999992005060812004-10917-037050FM-12+000699999V0201801N001510075019N0010001N1+02511+02231101581ADDAY161061AY261061GF106991061051008001001001KA1240N+02201MA1999999101511MD1999999+0141MW1601REMSYN088AAXX  08124 83096 21594 61803 10251 20223 30151 40158 76066 86500 333 20220 58014 60014;
0171830960999992005060818004-10917-037050FM-12+000699999V0201401N002610120019N0020001N1+02551+02211101471ADDAY151061AY251061GF106991061021012501001001MA1999999101401MD1999999+0121MW1201REMSYN082AAXX  08184 83096 21695 61405 10255 20221 30140 40147 72055 86200 333 58012 69961;
0179830960999992005060900004-10917-037050FM-12+000699999V0201401N002610120019N0020001N1+02601+02031101781ADDAA106000021GF108991081051012501999999KA1240M+02791MA1999999101711MD1999999+0211REMSYN088AAXX  09004 83096 32695 81405 10260 20203 30171 40178 885// 333 10279 29077 55015 58021;
0162830960999992005060912004-10917-037050FM-12+000699999V0201401N001512200019N0020001N1+02751+02001101681ADDGF102991021011012501001001KA1240N+02411MA1999999101611MD1999999+0101REMSYN082AAXX  09124 83096 22695 21403 10275 20200 30161 40168 82100 333 20241 58010 69964;
0167830960999992005060918004-10917-037050FM-12+000699999V0201401N003612200019N0020001N1+02771+02041101591ADDAA106000091GF103991031011012501001001MA1999999101521MD1999999+0121REMSYN070AAXX  09184 83096 32695 31407 10277 20204 30152 40159 83100 333 58012;EQDQ01  00002PRCP06
0198830960999992005061000004-10917-037050FM-12+000699999V0201401N002610120019N0020001N1+02901+02091101761ADDAA106000091GF108991081051012501999999KA1240M+02901MA1999999101691MD1999999-0021REMSYN088AAXX  10004 83096 32695 81405 10290 20209 30169 40176 885// 333 10290 29070 55090 59002;EQDQ01  00002PRCP06
0190830960999992005061012004-10917-037050FM-12+000699999V0201401N002112200019N0020001N1+02691+02021101601ADDAY151061AY251061GF102991021011012501001001KA1240N+02391MA1999999101531MD1999999-0081MW1201REMSYN088AAXX  10124 83096 21695 21404 10269 20202 30153 40160 72055 82100 333 20239 59008 69984;
0148830960999992005061018004-10917-037050FM-12+000699999V0201401N002612200019N0020001N1+02751+02191101511ADDAA106000021GF102991021011012501001001MA1999999101441MD1999999-0081REMSYN070AAXX  10184 83096 32695 21405 10275 20219 30144 40151 82100 333 59008;
0198830960999992005061100004-10917-037050FM-12+000699999V0201401N001512200019N0020001N1+02571+02151101661ADDAA106000091GF103991031051012501001001KA1240M+02571MA1999999101591MD1999999-0101REMSYN088AAXX  11004 83096 32695 31403 10257 20215 30159 40166 83500 333 10257 29073 55068 59010;EQDQ01  00002PRCP06
0186830960999992005061112004-10917-037050FM-12+000699999V0201401N003612200019N0020001N1+02761+02191101681ADDAA106000091GF102991021011012501001001KA1240N+02261MA1999999101611MD1999999+0081REMSYN076AAXX  11124 83096 32695 21407 10276 20219 30161 40168 82100 333 20226 58008;EQDQ01  00002PRCP06
0167830960999992005061118004-10917-037050FM-12+000699999V0201401N003112200019N0020001N1+02691+02281101441ADDAA106000091GF101991011011012501001001MA1999999101371MD1999999-0071REMSYN070AAXX  11184 83096 32695 11406 10269 20228 30137 40144 81100 333 59007;EQDQ01  00002PRCP06
0185830960999992005061200004-10920-037050FM-12+000599999V0200901N003110120019N0020001N1+02601+02291101611ADDAA106000091GF105991051051012501001001MA1999999101541MD1999999-0051REMSYN088AAXX  12004 83096 32695 50906 10260 20229 30154 40161 85500 333 10292 29079 55076 59005;EQDQ01  00002PRCP06
0177830960999992005061212004-10920-037050FM-12+000599999V0201401N004110120019N0020001N1+02481+02171101761ADDAY161061AY261061GF108991081021012501999999MA1999999101691MD1999999+0081MW1601REMSYN088AAXX  12124 83096 21695 81408 10248 20217 30169 40176 76066 882// 333 20226 58008 60044;
0148830960999992005061218004-10920-037050FM-12+000599999V0201401N001510120019N0020001N1+02661+02271101451ADDAA106000021GF105991051021012501001001MA1999999101381MD1999999+0011REMSYN070AAXX  12184 83096 32695 51403 10266 20227 30138 40145 85200 333 58001;
0198830960999992005061300004-10917-037050FM-12+000699999V0201401N002112200019N0020001N1+02591+02231101571ADDAA106000091GF103991031051012501001001KA1240M+02861MA1999999101501MD1999999-0041REMSYN088AAXX  13004 83096 32695 31404 10259 20223 30150 40157 83500 333 10286 29080 55029 59004;EQDQ01  00002PRCP06
0186830960999992005061312004-10917-037050FM-12+000699999V0201801N002112200019N0020001N1+02751+02261101511ADDAA106000091GF104991041011012501001001KA1240N+02241MA1999999101441MD1999999-0251REMSYN076AAXX  13124 83096 32695 41804 10275 20226 30144 40151 84100 333 20224 59025;EQDQ01  00002PRCP06
0171830960999992005061318004-10917-037050FM-12+000699999V0201801N002112200019N0020001N1+02551+02331101401ADDAY161061AY261061GF104991041051012501001001MA1999999101331MD1999999-0051MW1211REMSYN082AAXX  13184 83096 21695 41804 10255 20233 30133 40140 72166 84500 333 59005 60011;
0202830960999992005061400004-10917-037050FM-12+000699999V0201401N002112200019N0020001N1+02581+02271101601ADDAY161061AY261061GF101991011051012501001001KA1240M+02921MA1999999101531MD1999999+0031MW1211REMSYN100AAXX  14004 83096 21695 11404 10258 20227 30153 40160 72166 81500 333 10292 29082 55053 58003 60011;
0190830960999992005061412004-10917-037050FM-12+000699999V0201801N002110120019N0020001N1+02651+02311101581ADDAY161061AY261061GF106991061051012501001001KA1240N+02301MA1999999101511MD1999999+0071MW1211REMSYN088AAXX  14124 83096 21695 61804 10265 20231 30151 40158 72166 86500 333 20230 58007 60094;
0148830960999992005061418004-10917-037050FM-12+000699999V0201801N002110120019N0020001N1+02611+02251101471ADDAA106000021GF108991081051012501999999MA1999999101401MD1999999+0071REMSYN070AAXX  14184 83096 32695 81804 10261 20225 30140 40147 885// 333 58007;
0198830960999992005061500004-10917-037050FM-12+000699999V0201401N002112200019N0020001N1+02611+02481101781ADDAA106000091GF102991021051012501001001KA1240M+02781MA1999999101711MD1999999+0181REMSYN088AAXX  15004 83096 32695 21404 10261 20248 30171 40178 82500 333 10278 29086 55000 58018;EQDQ01  00002PRCP06
0190830960999992005061512004-10917-037050FM-12+000699999V0201801N002112200019N0020001N1+02751+02261101711ADDAY151061AY251061GF103991031011012501001001KA1240N+02391MA1999999101641MD1999999+0131MW1201REMSYN088AAXX  15124 83096 21695 31804 10275 20226 30164 40171 72055 83100 333 20239 58013 69924;
0148830960999992005061518004-10917-037050FM-12+000699999V0201801N002612200019N0020001N1+02801+02311101481ADDAA106000021GF103991031051012501001001MA1999999101411MD1999999+0011REMSYN070AAXX  15184 83096 32695 31805 10280 20231 30141 40148 83500 333 58001;
0198830960999992005061600004-10917-037050FM-12+000699999V0201401N001512200019N0020001N1+02671+02161101671ADDAA106000091GF102991021051012501001001KA1240M+02911MA1999999101601MD1999999-0111REMSYN088AAXX  16004 83096 32695 21403 10267 20216 30160 40167 82500 333 10291 29074 55084 59011;EQDQ01  00002PRCP06
0190830960999992005061612004-10917-037050FM-12+000699999V0201801N002112200019N0020001N1+02731+02151101581ADDAY161061AY261061GF103991031011012501001001KA1240N+02301MA1999999101511MD1999999-0131MW1211REMSYN088AAXX  16124 83096 21695 31804 10273 20215 30151 40158 72166 83100 333 20230 59013 60044;
0148830960999992005061618004-10917-037050FM-12+000699999V0201801N002612200019N0020001N1+02751+02101101471ADDAA106000021GF102991021011012501001001MA1999999101401MD1999999-0011REMSYN070AAXX  16184 83096 32695 21805 10275 20210 30140 40147 82100 333 59001;
0198830960999992005061700004-10917-037050FM-12+000699999V0201801N002112200019N0020001N1+02511+02131101701ADDAA106000091GF103991031051012501001001KA1240M+02881MA1999999101631MD1999999+0031REMSYN088AAXX  17004 83096 32695 31804 10251 20213 30163 40170 83500 333 10288 29074 55086 58003;EQDQ01  00002PRCP06
0190830960999992005061712004-10917-037050FM-12+000699999V0201801N001510075019N0010001N1+02381+02241101621ADDAY161061AY261061GF108991081051008001999999KA1240N+02201MA1999999101551MD1999999+0041MW1611REMSYN088AAXX  17124 83096 21594 81803 10238 20224 30155 40162 76166 885// 333 20220 58004 60044;
0148830960999992005061718004-10917-037050FM-12+000699999V0201801N002112200019N0020001N1+02631+02311101401ADDAA106000021GF104991041051012501001001MA1999999101331MD1999999-0071REMSYN070AAXX  17184 83096 32695 41804 10263 20231 30133 40140 84500 333 59007;
0202830960999992005061800004-10917-037050FM-12+000699999V0200901N002610120019N0020001N1+02371+02281101681ADDAY161061AY261061GF108991081051012501999999KA1240M+02701MA1999999101611MD1999999-0021MW1311REMSYN100AAXX  18004 83096 21695 80905 10237 20228 30161 40168 73166 885// 333 10270 29091 55010 59002 60011;
0190830960999992005061812004-10917-037050FM-12+000699999V0202701N001512200019N0020001N1+02431+02251101521ADDAY151061AY251061GF104991041051012501001001KA1240N+02201MA1999999101451MD1999999-0101MW1201REMSYN088AAXX  18124 83096 21695 42703 10243 20225 30145 40152 72055 84500 333 20220 59010 60024;
0148830960999992005061818004-10917-037050FM-12+000699999V0201801N002112200019N0020001N1+02671+02291101381ADDAA106000021GF104991041051012501001001MA1999999101311MD1999999-0021REMSYN070AAXX  18184 83096 32695 41804 10267 20229 30131 40138 84500 333 59002;
0189830960999992005061900004-10920-037050FM-12+000599999V0200501N001510120019N0020001N1+02361+02191101511ADDAY161061AY261061GF106991061051012501001001MA1999999101441MD1999999-0171MW1211REMSYN100AAXX  19004 83096 21695 60503 10236 20219 30144 40151 72166 86500 333 10279 29087 55010 59017 60051;
0177830960999992005061912004-10920-037050FM-12+000599999V0202701N001510120019N0020001N1+02491+02091101521ADDAY161061AY261061GF105991051011012501001001MA1999999101451MD1999999+0001MW1201REMSYN088AAXX  19124 83096 21695 52703 10249 20209 30145 40152 72066 85100 333 20220 58000 60064;
0148830960999992005061918004-10920-037050FM-12+000599999V0201401N002112200019N0020001N1+02751+02261101341ADDAA106000021GF103991031011012501001001MA1999999101271MD1999999-0041REMSYN070AAXX  19184 83096 32695 31404 10275 20226 30127 40134 83100 333 59004;
0185830960999992005062000004-10920-037050FM-12+000599999V0200901N001512200019N0020001N1+02571+02351101391ADDAA106000091GF102991021011012501001001MA1999999101321MD1999999-0121REMSYN088AAXX  20004 83096 32695 20903 10257 20235 30132 40139 82100 333 10283 29082 55047 59012;EQDQ01  00002PRCP06
0173830960999992005062012004-10920-037050FM-12+000599999V0200501N001510120019N0020001N1+02591+02331101521ADDAA106000091GF105991051011012501001001MA1999999101451MD1999999+0001REMSYN076AAXX  20124 83096 32695 50503 10259 20233 30145 40152 85100 333 20230 58000;EQDQ01  00002PRCP06
0167830960999992005062018004-10920-037050FM-12+000599999V0200901N005112200019N0020001N1+02851+02501101411ADDAA106000091GF101991011011012501001001MA1999999101341MD1999999+0071REMSYN070AAXX  20184 83096 32695 10910 10285 20250 30134 40141 81100 333 58007;EQDQ01  00002PRCP06
0198830960999992005062100004-10917-037050FM-12+000699999V0200901N003112200019N0020001N1+02611+02391101611ADDAA106000091GF101991011051012501001001KA1240M+02951MA1999999101541MD1999999+0221REMSYN088AAXX  21004 83096 32695 10906 10261 20239 30154 40161 81500 333 10295 29085 55082 58022;EQDQ01  00002PRCP06
0186830960999992005062112004-10917-037050FM-12+000699999V0200901N001512200019N0020001N1+02691+02451101581ADDAA106000091GF104991041051012501001001KA1240N+02301MA1999999101511MD1999999+0061REMSYN076AAXX  21124 83096 32695 40903 10269 20245 30151 40158 84500 333 20230 58006;EQDQ01  00002PRCP06
0167830960999992005062118004-10917-037050FM-12+000699999V0200901N003112200019N0020001N1+02821+02421101451ADDAA106000091GF101991011021012501001001MA1999999101381MD1999999+0041REMSYN070AAXX  21184 83096 32695 10906 10282 20242 30138 40145 81200 333 58004;EQDQ01  00002PRCP06
0198830960999992005062200004-10917-037050FM-12+000699999V0200901N003112200019N0020001N1+02621+02211101641ADDAA106000091GF102991021051012501001001KA1240M+02971MA1999999101571MD1999999+0031REMSYN088AAXX  22004 83096 32695 20906 10262 20221 30157 40164 82500 333 10297 29080 55077 58003;EQDQ01  00002PRCP06
0186830960999992005062212004-10917-037050FM-12+000699999V0200901N002112200019N0020001N1+02781+02341101581ADDAA106000091GF102991021011012501001001KA1240N+02411MA1999999101511MD1999999+0001REMSYN076AAXX  22124 83096 32695 20904 10278 20234 30151 40158 82100 333 20241 58000;EQDQ01  00002PRCP06
0167830960999992005062218004-10917-037050FM-12+000699999V0201401N002612200019N0020001N1+02801+02291101511ADDAA106000091GF101991011011012501001001MA1999999101441MD1999999+0061REMSYN070AAXX  22184 83096 32695 11405 10280 20229 30144 40151 81100 333 58006;EQDQ01  00002PRCP06
0198830960999992005062300004-10917-037050FM-12+000699999V0201401N002612200019N0020001N1+02611+02251101751ADDAA106000091GF101991011051012501001001KA1240M+02961MA1999999101681MD1999999+0111REMSYN088AAXX  23004 83096 32695 11405 10261 20225 30168 40175 81500 333 10296 29078 55083 58011;EQDQ01  00002PRCP06
0190830960999992005062312004-10917-037050FM-12+000699999V0202701N001510120019N0020001N1+02451+02211101681ADDAY151061AY251061GF105991051051012501001001KA1240N+02241MA1999999101611MD1999999+0101MW1201REMSYN088AAXX  23124 83096 21695 52703 10245 20221 30161 40168 72055 85500 333 20224 58010 69964;
0171830960999992005062318004-10917-037050FM-12+000699999V0200901N001010120019N0020001N1+02601+02331101601ADDAY161061AY261061GF106991061021012501001001MA1999999101531MD1999999+0091MW1211REMSYN082AAXX  23184 83096 21695 60902 10260 20233 30153 40160 72166 86200 333 58009 60011;
0179830960999992005062400004-10917-037050FM-12+000699999V0201801N001512200019N0020001N1+02511+02211101671ADDAA106000021GF103991031051012501001001KA1240M+02931MA1999999101601MD1999999-0081REMSYN088AAXX  24004 83096 32695 31803 10251 20221 30160 40167 83500 333 10293 29085 55018 59008;
0190830960999992005062412004-10917-037050FM-12+000699999V0202701N001512200019N0020001N1+02461+02231101611ADDAY161061AY261061GF103991031011012501001001KA1240N+02201MA1999999101541MD1999999-0071MW1211REMSYN088AAXX  24124 83096 21695 32703 10246 20223 30154 40161 72166 83100 333 20220 59007 60024;
0148830960999992005062418004-10917-037050FM-12+000699999V0200901N002112200019N0020001N1+02751+02281101471ADDAA106000021GF102991021011012501001011MA1999999101401MD1999999-0131REMSYN070AAXX  24184 83096 32695 20904 10275 20228 30140 40147 82101 333 59013;
0198830960999992005062500004-10917-037050FM-12+000699999V0200901N001512200019N0020001N1+02531+02151101651ADDAA106000091GF102991021051012501001001KA1240M+02871MA1999999101581MD1999999-0021REMSYN088AAXX  25004 83096 32695 20903 10253 20215 30158 40165 82500 333 10287 29080 55059 59002;EQDQ01  00002PRCP06
0186830960999992005062512004-10917-037050FM-12+000699999V0202301N002610120019N0020001N1+02561+02351101681ADDAA106000091GF105991051011012501001001KA1240N+02291MA1999999101611MD1999999+0071REMSYN076AAXX  25124 83096 32695 52305 10256 20235 30161 40168 85100 333 20229 58007;EQDQ01  00002PRCP06
0171830960999992005062518004-10917-037050FM-12+000699999V0201401N002610120019N0020001N1+02561+02191101431ADDAY161061AY261061GF106991061021012501001001MA1999999101361MD1999999+0041MW1211REMSYN082AAXX  25184 83096 21695 61405 10256 20219 30136 40143 72166 86200 333 58004 60021;
0166830960999992005062600004-10920-037050FM-12+000599999V0201401N001512200019N0020001N1+02581+02191101611ADDAA106000021GF101991999051012501001001MA1999999101541MD1999999+0041REMSYN088AAXX  26004 83096 32695 11403 10258 20219 30154 40161 82500 333 10292 29081 55023 58004;
0177830960999992005062612004-10920-037050FM-12+000599999V0201401N001510120019N0020001N1+02581+02331101681ADDAY161061AY261061GF106991061021012501001001MA1999999101611MD1999999+0001MW1211REMSYN088AAXX  26124 83096 21695 61403 10258 20233 30161 40168 72166 86200 333 20226 58000 60074;
0148830960999992005062618004-10920-037050FM-12+000599999V0201401N001512200019N0020001N1+02721+02151101451ADDAA106000021GF103991031011012501001001MA1999999101381MD1999999+0021REMSYN070AAXX  26184 83096 32695 31403 10272 20215 30138 40145 83100 333 58002;
0198830960999992005062700004-10917-037050FM-12+000699999V0201401N003112200019N0020001N1+02581+02251101631ADDAA106000091GF102991021051012501001001KA1240M+02921MA1999999101561MD1999999+0021REMSYN088AAXX  27004 83096 32695 21406 10258 20225 30156 40163 82500 333 10292 29080 55024 58002;EQDQ01  00002PRCP06
0186830960999992005062712004-10917-037050FM-12+000699999V0200901N002612200019N0020001N1+02771+02191101581ADDAA106000091GF103991031011012501001001KA1240N+02261MA1999999101511MD1999999-0101REMSYN076AAXX  27124 83096 32695 30905 10277 20219 30151 40158 83100 333 20226 59010;EQDQ01  00002PRCP06
0167830960999992005062718004-10917-037050FM-12+000699999V0201401N001512200019N0020001N1+02801+02181101491ADDAA106000091GF103991031011012501001001MA1999999101421MD1999999+0041REMSYN070AAXX  27184 83096 32695 31403 10280 20218 30142 40149 83100 333 58004;EQDQ01  00002PRCP06
0198830960999992005062800004-10917-037050FM-12+000699999V0201401N003112200019N0020001N1+02581+02211101711ADDAA106000091GF103991031051012501001001KA1240M+02941MA1999999101641MD1999999+0081REMSYN088AAXX  28004 83096 32695 31406 10258 20221 30164 40171 83500 333 10294 29075 55085 58008;EQDQ01  00002PRCP06
0190830960999992005062812004-10917-037050FM-12+000699999V0200901N002112200019N0020001N1+02691+02241101691ADDAY161061AY261061GF102991021011012501001001KA1240N+02331MA1999999101621MD1999999+0111MW1211REMSYN088AAXX  28124 83096 21695 20904 10269 20224 30162 40169 72166 82100 333 20233 58011 60034;
0171830960999992005062818004-10917-037050FM-12+000699999V0201401N002112200019N0020001N1+02591+02271101571ADDAY151061AY251061GF104991041051012501001001MA1999999101501MD1999999+0081MW1201REMSYN082AAXX  28184 83096 21695 41404 10259 20227 30150 40157 72055 84500 333 58008 69921;
0202830960999992005062900004-10917-037050FM-12+000699999V0201401N003110120019N0020001N1+02401+02261101771ADDAY161061AY261061GF108991081051012501999999KA1240M+02881MA1999999101701MD1999999+0061MW1601REMSYN100AAXX  29004 83096 21695 81406 10240 20226 30170 40177 76066 885// 333 10288 29086 55063 58006 60101;
0190830960999992005062912004-10917-037050FM-12+000699999V0201401N002612200019N0020001N1+02711+02021101701ADDAY161061AY261061GF103991031011012501001001KA1240N+02221MA1999999101631MD1999999+0011MW1201REMSYN088AAXX  29124 83096 21695 31405 10271 20202 30163 40170 72066 83100 333 20222 58001 60104;
0148830960999992005062918004-10917-037050FM-12+000699999V0201401N002110120019N0020001N1+02691+02061101571ADDAA106000021GF105991051051012501001001MA1999999101501MD1999999+0001REMSYN070AAXX  29184 83096 32695 51404 10269 20206 30150 40157 85500 333 58000;
0198830960999992005063000004-10917-037050FM-12+000699999V0201401N002612200019N0020001N1+02551+02021101741ADDAA106000091GF103991031051012501001001KA1240M+02861MA1999999101691MD1999999-0011REMSYN088AAXX  30004 83096 32695 31405 10255 20202 30169 40174 83500 333 10286 29070 55072 59001;EQDQ01  00002PRCP06
0186830960999992005063012004-10917-037050FM-12+000699999V0200901N002612200019N0020001N1+02571+02151101621ADDAA106000091GF103991031021012501001001KA1240N+02181MA1999999101551MD1999999+0081REMSYN076AAXX  30124 83096 32695 30905 10257 20215 30155 40162 83200 333 20218 58008;EQDQ01  00002PRCP06
0167830960999992005063018004-10917-037050FM-12+000699999V0201801N002112200019N0020001N1+02651+02141101511ADDAA106000091GF103991031051012501001001MA1999999101441MD1999999-0061REMSYN070AAXX  30184 83096 32695 31804 10265 20214 30144 40151 83500 333 59006;EQDQ01  00002PRCP06
0198830960999992005070100004-10917-037050FM-12+000699999V0201401N001512200019N0020001N1+02411+02151101651ADDAA106000091GF102991021051012501001001KA1240M+02771MA1999999101581MD1999999-0111REMSYN088AAXX  01004 83096 32695 21403 10241 20215 30158 40165 82500 333 10277 29080 55030 59011;EQDQ01  00002PRCP06
0186830960999992005070112004-10917-037050FM-12+000699999V0201801N001512200019N0020001N1+02611+02191101601ADDAA106000091GF103991031011012501001001KA1240N+02151MA1999999101531MD1999999-0021REMSYN076AAXX  01124 83096 32695 31803 10261 20219 30153 40160 83100 333 20215 59002;EQDQ01  00002PRCP06
0167830960999992005070118004-10917-037050FM-12+000699999V0201801N003112200019N0020001N1+02751+02021101471ADDAA106000091GF103991031011012501001001MA1999999101401MD1999999-0041REMSYN070AAXX  01184 83096 32695 31806 10275 20202 30140 40147 83100 333 59004;EQDQ01  00002PRCP06
0198830960999992005070200004-10917-037050FM-12+000599999V0201801N001512200019N0020001N1+02591+02081101591ADDAA106000091GF103991031011012501001001KA1240M+02881MA1999999101521MD1999999-0061REMSYN088AAXX  02004 83096 32695 31803 10259 20208 30152 40159 83100 333 10288 29073 55086 59006;EQDQ01  00002PRCP06
0186830960999992005070212004-10917-037050FM-12+000599999V0201801N002610120019N0020001N1+02691+02021101701ADDAA106000091GF105991051011012501001001KA1240N+02401MA1999999101631MD1999999+0101REMSYN076AAXX  02124 83096 32695 51805 10269 20202 30163 40170 85100 333 20240 58010;EQDQ01  00002PRCP06
0167830960999992005070218004-10917-037050FM-12+000599999V0201801N002612200019N0020001N1+02731+02081101571ADDAA106000091GF104991041011012501001001MA1999999101501MD1999999+0101REMSYN070AAXX  02184 83096 32695 41805 10273 20208 30150 40157 84100 333 58010;EQDQ01  00002PRCP06
0189830960999992005070300004-10920-037050FM-12+000599999V0200901N002112200019N0020001N1+02451+02171101711ADDAY161061AY261061GF103991031051012501001001MA1999999101641MD1999999+0121MW1211REMSYN100AAXX  03004 83096 21695 30904 10245 20217 30164 40171 72166 83500 333 10287 29076 55012 58012 60051;
0177830960999992005070312004-10920-037050FM-12+000599999V0200901N002610075019N0010001N1+02431+02211101821ADDAY161061AY261061GF108991081051008001999999MA1999999101751MD1999999+0121MW1601REMSYN088AAXX  03124 83096 21594 80905 10243 20221 30175 40182 76066 885// 333 20226 58012 60114;
0171830960999992005070318004-10920-037050FM-12+000599999V0200901N002110120019N0020001N1+02591+02151101601ADDAY121061AY221061GF105991051051012501001001MA1999999101531MD1999999+0031MW1201REMSYN082AAXX  03184 83096 21695 50904 10259 20215 30153 40160 72022 85500 333 58003 69921;
0179830960999992005070400004-10917-037050FM-12+000599999V0201801N002612200019N0020001N1+02551+02041101641ADDAA106000021GF103991031011012501001001KA1240M+02771MA1999999101571MD1999999-0071REMSYN088AAXX  04004 83096 32695 31805 10255 20204 30157 40164 83100 333 10277 29078 55012 59007;
0162830960999992005070412004-10917-037050FM-12+000599999V0201401N001512200019N0020001N1+02751+02101101681ADDGF102991021011012501001001KA1240N+02371MA1999999101611MD1999999-0141REMSYN082AAXX  04124 83096 22695 21403 10275 20210 30161 40168 82100 333 20237 59014 69924;
0171830960999992005070418004-10917-037050FM-12+000599999V0200901N001510120019N0020001N1+02441+02151101561ADDAY151061AY251061GF108991081051012501999999MA1999999101491MD1999999-0041MW1201REMSYN082AAXX  04184 83096 21695 80903 10244 20215 30149 40156 72055 885// 333 59004 69921;
0202830960999992005070500004-10917-037050FM-12+000599999V0201801N002610075019N0020001N1+02381+02211101741ADDAY161061AY261061GF108991081051008001999999KA1240M+02841MA1999999101671MD1999999+0101MW1601REMSYN100AAXX  05004 83096 21595 81805 10238 20221 30167 40174 76066 885// 333 10284 29083 55037 58010 60041;
0190830960999992005070512004-10917-037050FM-12+000599999V0202701N002610120019N0020001N1+02331+02181101821ADDAY161061AY261061GF108991081021012501999999KA1240N+02061MA1999999101751MD1999999+0141MW1601REMSYN088AAXX  05124 83096 21695 82705 10233 20218 30175 40182 76066 882// 333 20206 58014 60194;
0148830960999992005070518004-10917-037050FM-12+000599999V0201801N003610120019N0020001N1+02641+02181101551ADDAA106000021GF106991061021012501001001MA1999999101481MD1999999-0011REMSYN070AAXX  05184 83096 32695 61807 10264 20218 30148 40155 86200 333 59001;
0202830960999992005070600004-10917-037050FM-12+000599999V0201801N002610075019N0020001N1+02231+02221101891ADDAY161061AY251061GF108991081051008001999999KA1240M+02761MA1999999101821MD1999999+0151MW1601REMSYN100AAXX  06004 83096 21595 81805 10223 20222 30182 40189 76065 885// 333 10276 29091 55025 58015 60191;
0190830960999992005070612004-10917-037050FM-12+000599999V0202301N002110075019N0020001N1+02201+02171101501ADDAY161061AY251061GF108991081021008001999999KA1240N+02081MA1999999101431MD1999999-0321MW1601REMSYN088AAXX  06124 83096 21595 82304 10220 20217 30143 40150 76065 882// 333 20208 59032 60194;
0171830960999992005070618004-10917-037050FM-12+000599999V0202301N003110120019N0020001N1+02391+02241101701ADDAY161061AY261061GF108991081051012501999999MA1999999101631MD1999999+0151MW1601REMSYN082AAXX  06184 83096 21695 82306 10239 20224 30163 40170 76066 885// 333 58015 60021;
0202830960999992005070700004-10917-037050FM-12+000599999V0201401N002610120019N0020001N1+02401+02231101861ADDAY161061AY261061GF108991081051012501999999KA1240M+02791MA1999999101791MD1999999-0031MW1601REMSYN100AAXX  07004 83096 21695 81405 10240 20223 30179 40186 76066 885// 333 10279 29092 55003 59003 60041;
0190830960999992005070712004-10917-037050FM-12+000599999V0201401N002110075019N0020001N1+02341+02261102021ADDAY161061AY251061GF108991081051008001999999KA1240N+02041MA1999999101951MD1999999+0521MW1601REMSYN088AAXX  07124 83096 21595 81404 10234 20226 30195 40202 76065 885// 333 20204 58052 60094;
0171830960999992005070718004-10917-037050FM-12+000599999V0201401N003110120019N0020001N1+02521+02231101681ADDAY161061AY261061GF108991081051012501999999MA1999999101611MD1999999-0021MW1601REMSYN082AAXX  07184 83096 21695 81406 10252 20223 30161 40168 76066 885// 333 59002 60051;
0179830960999992005070800004-10917-037050FM-12+000599999V0201801N001510120019N0020001N1+02481+02231101881ADDAA106000021GF106991061051012501001001KA1240M+02811MA1999999101811MD1999999+0021REMSYN088AAXX  08004 83096 32695 61803 10248 20223 30181 40188 86500 333 10281 29088 55026 58002;
0190830960999992005070812004-10917-037050FM-12+000599999V0201401N001510120019N0020001N1+02401+02301101951ADDAY161061AY261061GF108991081051012501999999KA1240N+02081MA1999999101881MD1999999-0071MW1601REMSYN088AAXX  08124 83096 21695 81403 10240 20230 30188 40195 76066 885// 333 20208 59007 60104;
0171830960999992005070818004-10917-037050FM-12+000599999V0201401N003110075019N0020001N1+02401+02171101761ADDAY161061AY251061GF108991081051008001999999MA1999999101691MD1999999+0081MW1601REMSYN082AAXX  08184 83096 21595 81406 10240 20217 30169 40176 76065 885// 333 58008 60051;
0202830960999992005070900004-10917-037050FM-12+000599999V0202301N001510075019N0020001N1+02191+02151102001ADDAY161061AY251061GF108991081051008001999999KA1240M+02711MA1999999101931MD1999999+0121MW1601REMSYN100AAXX  09004 83096 21595 82303 10219 20215 30193 40200 76065 885// 333 10271 29094 55016 58012 60041;
0190830960999992005070912004-10917-037050FM-12+000599999V0202301N002610120019N0020001N1+02301+02131102071ADDAY161061AY261061GF108991081051012501999999KA1240N+02051MA1999999102001MD1999999+0121MW1601REMSYN088AAXX  09124 83096 21695 82305 10230 20213 30200 40207 76066 885// 333 20205 58012 60194;
0190830960999992005070918004-10917-037050FM-12+000599999V0201401N003119999999N0020001N1+02471+02191101761ADDAY161061AY261061GF108991999011012501001001MA1999999101691MD1999999+0001MW1601REMSYN082AAXX  09184 83096 21695 81406 10247 20219 30169 40176 76066 82100 333 58000 60091;EQDQ01+000022SCOTLC
0189830960999992005071000004-10920-037050FM-12+000599999V0201401N005110120019N0020001N1+02261+02121101971ADDAY161061AY261061GF108991081051012501999999MA1999999101901MD1999999-0031MW1601REMSYN100AAXX  10004 83096 21695 81410 10226 20212 30190 40197 76066 885// 333 10264 29090 55023 59003 60021;
0177830960999992005071012004-10920-037050FM-12+000599999V0201401N003110120019N0020001N1+02481+02231101951ADDAY161061AY261061GF108991081051012501999999MA1999999101851MD1999999-0151MW1601REMSYN088AAXX  10124 83096 21695 81406 10248 20223 30185 40195 76066 885// 333 20208 59015 60154;
0171830960999992005071018004-10920-037050FM-12+000599999V0201401N003110120019N0020001N1+02271+02131101761ADDAY161061AY261061GF108991081051012501999999MA1999999101691MD1999999+0001MW1601REMSYN082AAXX  10184 83096 21695 81406 10227 20213 30169 40176 76066 885// 333 58000 60091;
0202830960999992005071100004-10917-037050FM-12+000599999V0201401N003612200019N0020001N1+02421+02131101891ADDAY161061AY261061GF101991011051012501001001KA1240M+02621MA1999999101821MD1999999-0081MW1601REMSYN100AAXX  11004 83096 21695 11407 10242 20213 30182 40189 76066 81500 333 10262 29086 55029 59008 60091;
0190830960999992005071112004-10917-037050FM-12+000599999V0200901N003110120019N0020001N1+02471+02091101781ADDAY161061AY261061GF105991051051012501001001KA1240N+02101MA1999999101711MD1999999-0141MW1211REMSYN088AAXX  11124 83096 21695 50906 10247 20209 30171 40178 72166 85500 333 20210 59014 60194;
0148830960999992005071118004-10917-037050FM-12+000599999V0200901N003112200019N0020001N1+02711+02151101601ADDAA106000021GF103991031051012501001001MA1999999101531MD1999999-0161REMSYN070AAXX  11184 83096 32695 30906 10271 20215 30153 40160 83500 333 59016;
0202830960999992005071200004-10917-037050FM-12+000599999V0201401N003112200019N0020001N1+02511+01961101721ADDAY161061AY261061GF102991021011012501001001KA1240M+02771MA1999999101651MD1999999-0171MW1211REMSYN100AAXX  12004 83096 21695 21406 10251 20196 30165 40172 72166 82100 333 10277 29074 55052 59017 60021;
0162830960999992005071212004-10917-037050FM-12+000599999V0201401N002110120019N0020001N1+02531+02021101801ADDGF105991051051012501001001KA1240N+02101MA1999999101731MD1999999+0021REMSYN082AAXX  12124 83096 22695 51404 10253 20202 30173 40180 85500 333 20210 58002 60024;
0171830960999992005071218004-10917-037050FM-12+000599999V0201401N002112200019N0020001N1+02631+02011101661ADDAY151061AY251061GF104991041011012501001001MA1999999101591MD1999999+0061MW1201REMSYN082AAXX  12184 83096 21695 41404 10263 20201 30159 40166 72055 84100 333 58006 69961;
0202830960999992005071300004-10917-037050FM-12+000599999V0201801N002112200019N0020001N1+02281+02141101721ADDAY161061AY261061GF104991041051012501001001KA1240M+02731MA1999999101651MD1999999+0001MW1211REMSYN100AAXX  13004 83096 21695 41804 10228 20214 30165 40172 72166 84500 333 10273 29081 55059 58000 60071;
0190830960999992005071312004-10917-037050FM-12+000599999V0201801N002112200019N0020001N1+02521+01981101761ADDAY161061AY261061GF103991031051012501001001KA1240N+02221MA1999999101691MD1999999-0041MW1211REMSYN088AAXX  13124 83096 21695 31804 10252 20198 30169 40176 72166 83500 333 20222 59004 60094;
0171830960999992005071318004-10917-037050FM-12+000599999V0201801N003112200019N0020001N1+02571+02061101621ADDAY161061AY261061GF104991041051012501001001MA1999999101551MD1999999-0041MW1211REMSYN082AAXX  13184 83096 21695 41806 10257 20206 30155 40162 72166 84500 333 59004 60091;
0190830960999992005071412004-10917-037050FM-12+000599999V0202301N002112200019N0020001N1+02251+02051101731ADDAY161061AY261061GF103991031051012501001001KA1240N+02021MA1999999101661MD1999999-0031MW1211REMSYN088AAXX  14124 83096 21695 32304 10225 20205 30166 40173 72166 83500 333 20202 59003 60284;
0148830960999992005071418004-10917-037050FM-12+000599999V0200901N002112200019N0020001N1+02611+02101101561ADDAA106000021GF103991031051012501001001MA1999999101491MD1999999-0061REMSYN070AAXX  14184 83096 32695 30904 10261 20210 30149 40156 83500 333 59006;
0198830960999992005071500004-10917-037050FM-12+000599999V0201801N002112200019N0020001N1+02361+02091101601ADDAA106000091GF104991041051012501001001KA1240M+02711MA1999999101531MD1999999-0041REMSYN088AAXX  15004 83096 32695 41804 10236 20209 30153 40160 84500 333 10271 29083 55055 59004;EQDQ01  00002PRCP06
0190830960999992005071512004-10917-037050FM-12+000599999V0201801N003112200019N0020001N1+02531+01861101761ADDAY161061AY261061GF104991041011012501001001KA1240N+02161MA1999999101691MD1999999+0031MW1211REMSYN088AAXX  15124 83096 21695 41806 10253 20186 30169 40176 72166 84100 333 20216 58003 60084;
0148830960999992005071518004-10917-037050FM-12+000599999V0201401N003112200019N0020001N1+02651+01951101601ADDAA106000021GF102991021011012501001001MA1999999101531MD1999999+0041REMSYN070AAXX  15184 83096 32695 21406 10265 20195 30153 40160 82100 333 58004;
0198830960999992005071600004-10917-037050FM-12+000599999V0201801N002110120019N0020001N1+02381+02091101681ADDAA106000091GF105991051051012501001001KA1240M+02771MA1999999101611MD1999999+0081REMSYN088AAXX  16004 83096 32695 51804 10238 20209 30161 40168 85500 333 10277 29075 55077 58008;EQDQ01  00002PRCP06
0190830960999992005071612004-10917-037050FM-12+000599999V0200901N003110075019N0010001N1+02301+02131101831ADDAY161061AY261061GF108991081051008001999999KA1240N+02141MA1999999101761MD1999999+0071MW1601REMSYN088AAXX  16124 83096 21594 80906 10230 20213 30176 40183 76066 885// 333 20214 58007 60064;
0171830960999992005071618004-10917-037050FM-12+000599999V0201401N002110120019N0020001N1+02451+02131101621ADDAY161061AY261061GF105991051051012501001001MA1999999101551MD1999999+0021MW1201REMSYN082AAXX  16184 83096 21695 51404 10245 20213 30155 40162 72066 85500 333 58002 60041;
0189830960999992005071700004-10920-037050FM-12+000599999V0201801N002610120019N0020001N1+02261+02141101731ADDAY161061AY261061GF108991081051012501999999MA1999999101661MD1999999+0051MW1211REMSYN100AAXX  17004 83096 21695 81805 10226 20214 30166 40173 72166 885// 333 10259 29090 55012 58005 60031;
0177830960999992005071712004-10920-037050FM-12+000599999V0200901N002612200019N0020001N1+02671+02201101721ADDAY161061AY261061GF104991041011012501001001MA1999999101651MD1999999-0111MW1201REMSYN088AAXX  17124 83096 21695 40905 10267 20220 30165 40172 72066 84100 333 20222 59011 60084;
0148830960999992005071718004-10920-037050FM-12+000599999V0200901N002612200019N0020001N1+02731+02081101581ADDAA106000021GF102991021011012501001001MA1999999101511MD1999999-0041REMSYN070AAXX  17184 83096 32695 20905 10273 20208 30151 40158 82100 333 59004;
0198830960999992005071800004-10917-037050FM-12+000599999V0200901N002612200019N0020001N1+02471+02011101621ADDAA106000091GF102991021011012501001001KA1240M+02811MA1999999101551MD1999999-0111REMSYN088AAXX  18004 83096 32695 20905 10247 20201 30155 40162 82100 333 10281 29074 55092 59011;EQDQ01  00002PRCP06
0186830960999992005071812004-10917-037050FM-12+000599999V0201401N001512200019N0020001N1+02641+02071101861ADDAA106000091GF103991031011012501001001KA1240N+01901MA1999999101791MD1999999+0141REMSYN076AAXX  18124 83096 32695 31403 10264 20207 30179 40186 83100 333 20190 58014;EQDQ01  00002PRCP06
0167830960999992005071818004-10917-037050FM-12+000599999V0201401N002112200019N0020001N1+02671+02161101491ADDAA106000091GF102991021011012501001001MA1999999101421MD1999999-0091REMSYN070AAXX  18184 83096 32695 21404 10267 20216 30142 40149 82100 333 59009;EQDQ01  00002PRCP06
0198830960999992005071900004-10917-037050FM-12+000599999V0201401N001512200019N0020001N1+02481+02211101661ADDAA106000091GF102991021051012501001001KA1240M+02891MA1999999101591MD1999999+0041REMSYN088AAXX  19004 83096 32695 21403 10248 20221 30159 40166 82500 333 10289 29078 55103 58004;EQDQ01  00002PRCP06
0190830960999992005071912004-10917-037050FM-12+000599999V0202701N001510075019N0010001N1+02361+02191101631ADDAY161061AY261061GF108991081051008001999999KA1240N+02001MA1999999101561MD1999999-0231MW1501REMSYN088AAXX  19124 83096 21594 82703 10236 20219 30156 40163 75066 885// 333 20200 59023 60064;
0137830960999992005071918004-10917-037050FM-12+000599999V0200901N002612200019N0020001N1+02661+02271101491ADDGF101991011011012501001001MA1999999101421MD1999999+0001REMSYN070AAXX  19184 83096 32695 10905 10266 20227 30142 40149 81100 333 58000;
0168830960999992005072000004-10917-037050FM-12+000599999V0201401N001510120019N0020001N1+02521+02311101721ADDGF108991081051012501999999KA1240M+02851MA1999999101651MD1999999+0061REMSYN088AAXX  20004 83096 32695 81403 10252 20231 30165 40172 885// 333 10285 29086 55024 58006;
0156830960999992005072012004-10917-037050FM-12+000599999V0201401N003110120019N0020001N1+02561+02191101861ADDGF108991081021012501999999KA1240N+02391MA1999999101791MD1999999+0231REMSYN076AAXX  20124 83096 32695 81406 10256 20219 30179 40186 882// 333 20239 58023;
0137830960999992005072018004-10917-037050FM-12+000599999V0200901N002610120019N0020001N1+02551+02291101601ADDGF108991081051012501999999MA1999999101531MD1999999+0111REMSYN070AAXX  20184 83096 32695 80905 10255 20229 30153 40160 885// 333 58011;
0213830960999992005072100004-10917-037050FM-12+000599999V0200901N003110075019N0020001N1+02521+02131101711ADDAA106000591AY151061AY251061GF105991051051008001001001KA1240M+02661MA1999999101641MD1999999-0011MW1201REMSYN100AAXX  21004 83096 21595 50906 10252 20213 30164 40171 72055 85500 333 10266 29081 55002 59001 69941;
0201830960999992005072112004-10917-037050FM-12+000599999V0201401N001512200019N0020001N1+02741+01951101941ADDAA124000591AY151061AY251061GF102991021011012501001001KA1240N+02351MA1999999101871MD1999999+0081MW1201REMSYN088AAXX  21124 83096 21695 21403 10274 20195 30187 40194 72055 82100 333 20235 58008 69944;
0182830960999992005072118004-10917-037050FM-12+000599999V0201401N003110120019N0020001N1+02501+02071101681ADDAA106003091AY161061AY261061GF108991081051012501999999MA1999999101611MD1999999+0081MW1601REMSYN082AAXX  21184 83096 21695 81406 10250 20207 30161 40168 76066 885// 333 58008 60031;
0168830960999992005072200004-10917-037050FM-12+000599999V0201401N002610120019N0020001N1+02431+02091101791ADDGF108991081051012501999999KA1240M+02801MA1999999101721MD1999999+0081REMSYN088AAXX  22004 83096 32695 81405 10243 20209 30172 40179 885// 333 10280 29073 55047 58008;
0201830960999992005072212004-10917-037050FM-12+000599999V0201401N003110120019N0020001N1+02621+02031102001ADDAA124004191AY161061AY261061GF108991081051012501999999KA1240N+02241MA1999999101931MD1999999+0061MW1601REMSYN088AAXX  22124 83096 21695 81406 10262 20203 30193 40200 76066 885// 333 20224 58006 60044;
0137830960999992005072218004-10917-037050FM-12+000599999V0201401N001512200019N0020001N1+02701+02031101771ADDGF103991031011012501001001MA1999999101701MD1999999+0091REMSYN070AAXX  22184 83096 32695 31403 10270 20203 30170 40177 83100 333 58009;
0168830960999992005072300004-10917-037050FM-12+000599999V0201401N002612200019N0020001N1+02491+02031101861ADDGF102991021051012501001001KA1240M+02811MA1999999101791MD1999999+0071REMSYN088AAXX  23004 83096 32695 21405 10249 20203 30179 40186 82500 333 10281 29072 55084 58007;
0201830960999992005072312004-10917-037050FM-12+000599999V0201401N002610120019N0020001N1+02501+02151101931ADDAA124007191AY161061AY261061GF105991051051012501001001KA1240N+02161MA1999999101861MD1999999-0071MW1601REMSYN088AAXX  23124 83096 21695 51405 10250 20215 30186 40193 76066 85500 333 20216 59007 60074;
0182830960999992005072318004-10917-037050FM-12+000599999V0201401N003110120019N0020001N1+02541+02171101711ADDAA106002091AY161061AY261061GF108991081051012501999999MA1999999101641MD1999999-0061MW1601REMSYN082AAXX  23184 83096 21695 81406 10254 20217 30164 40171 76066 885// 333 59006 60021;
0155830960999992005072400004-10920-037050FM-12+000599999V0201401N001512200019N0020001N1+02501+02071101851ADDGF102991021051012501001001MA1999999101781MD1999999-0011REMSYN088AAXX  24004 83096 32695 21403 10250 20207 30178 40185 82500 333 10281 29079 55034 59001;
0188830960999992005072412004-10920-037050FM-12+000599999V0201401N003112200019N0020001N1+02611+02101102031ADDAA124006191AY161061AY261061GF102991021011012501001001MA1999999101961MD1999999+0101MW1601REMSYN088AAXX  24124 83096 21695 21406 10261 20210 30196 40203 76066 82100 333 20212 58010 60064;
0182830960999992005072418004-10920-037050FM-12+000599999V0201401N002612200019N0020001N1+02631+02031101831ADDAA106000591AY151061AY251061GF101991011011012501001001MA1999999101761MD1999999+0121MW1201REMSYN082AAXX  24184 83096 21695 11405 10263 20203 30176 40183 72055 81100 333 58012 69961;
0155830960999992005072500004-10920-037050FM-12+000599999V0201401N002612200019N0020001N1+02471+01921101881ADDGF101991011051012501001001MA1999999101811MD1999999+0031REMSYN088AAXX  25004 83096 32695 11405 10247 20192 30181 40188 81500 333 10281 29076 55090 58003;
0201830960999992005072512004-10917-037050FM-12+000599999V0200901N002110120019N0020001N1+02491+02031101871ADDAA124000891AY151061AY251061GF105991051011012501001001KA1240N+02181MA1999999101801MD1999999-0161MW1201REMSYN088AAXX  25124 83096 21695 50904 10249 20203 30180 40187 72055 85100 333 20218 59016 69984;
0137830960999992005072518004-10917-037050FM-12+000599999V0201401N002112200019N0020001N1+02621+02071101791ADDGF102991021011012501001001MA1999999101721MD1999999-0041REMSYN070AAXX  25184 83096 32695 21404 10262 20207 30172 40179 82100 333 59004;
0213830960999992005072600004-10917-037050FM-12+000599999V0201801N001512200019N0020001N1+02401+02111101881ADDAA106999999AY151061AY251061GF104991041051012501001001KA1240M+02731MA1999999101811MD1999999+0001MW1201REMSYN100AAXX  26004 83096 21695 41803 10240 20211 30181 40188 72055 84500 333 10273 29079 55082 58000 69921;
0173830960999992005072612004-10917-037050FM-12+000599999V0201801N001512200019N0020001N1+02451+02211101971ADDAA124000021GF104991041051012501001001KA1240N+02061MA1999999101901MD1999999+0101REMSYN082AAXX  26124 83096 22695 41803 10245 20221 30190 40197 84500 333 20206 58010 69924;
0182830960999992005072618004-10917-037050FM-12+000599999V0201801N002112200019N0020001N1+02661+02041101791ADDAA106999999AY151061AY251061GF103991031011012501001001MA1999999101721MD1999999+0001MW1201REMSYN082AAXX  26184 83096 21695 31804 10266 20204 30172 40179 72055 83100 333 58000 69921;
0213830960999992005072700004-10917-037050FM-12+000599999V0201801N002112200019N0020001N1+02471+02071101801ADDAA106000591AY151061AY251061GF103991031011012501001001KA1240M+02751MA1999999101731MD1999999-0081MW1201REMSYN100AAXX  27004 83096 21695 31804 10247 20207 30173 40180 72055 83100 333 10275 29078 55060 59008 69941;
0192830960999992005072712004-10917-037050FM-12+000599999V0201801N002112200019N0020001N1+02251+02071101981ADDAA124000591GF103991031011012501001001KA1240N+99999MA1999999101911MD1999999+0011REMSYN082AAXX  27124 83096 22695 31804 10225 20207 30191 40198 83100 333 20237 58001 69964;EQDQ01 +02372ATMN  
0137830960999992005072718004-10917-037050FM-12+000599999V0201801N003112200019N0020001N1+02691+02081101811ADDGF103991031011012501001001MA1999999101741MD1999999+0021REMSYN070AAXX  27184 83096 32695 31806 10269 20208 30174 40181 83100 333 58002;
0168830960999992005072800004-10917-037050FM-12+000599999V0201401N003112200019N0020001N1+02511+02051101861ADDGF103991031011012501001001KA1240M+02791MA1999999101791MD1999999+0061REMSYN088AAXX  28004 83096 32695 31406 10251 20205 30179 40186 83100 333 10279 29075 55099 58006;
0156830960999992005072812004-10917-037050FM-12+000599999V0201401N002612200019N0020001N1+02611+01991101981ADDGF102991021011012501001001KA1240N+02401MA1999999101911MD1999999+0001REMSYN076AAXX  28124 83096 32695 21405 10261 20199 30191 40198 82100 333 20240 58000;
0137830960999992005072818004-10917-037050FM-12+000599999V0201401N002112200019N0020001N1+02671+02161101871ADDGF103991031011012501001001MA1999999101801MD1999999+0061REMSYN070AAXX  28184 83096 32695 31404 10267 20216 30180 40187 83100 333 58006;
0213830960999992005072900004-10917-037050FM-12+000599999V0201401N002112200019N0020001N1+02471+02011101891ADDAA106001091AY151061AY251061GF102991021011012501001001KA1240M+02831MA1999999101821MD1999999+0031MW1201REMSYN100AAXX  29004 83096 21695 21404 10247 20201 30182 40189 72055 82100 333 10283 29074 55010 58003 60011;
0137830960999992005072918004-10917-037050FM-12+000599999V0201401N001512200019N0020001N1+02681+02021101831ADDGF103991031011012501001001MA1999999101761MD1999999+0041REMSYN070AAXX  29184 83096 32695 31403 10268 20202 30176 40183 83100 333 58004;
0168830960999992005073000004-10917-037050FM-12+000599999V0201801N003112200019N0020001N1+02551+01931101871ADDGF104991041011012501001001KA1240M+02831MA1999999101801MD1999999-0021REMSYN088AAXX  30004 83096 32695 41806 10255 20193 30180 40187 84100 333 10283 29069 55098 59002;
0143830960999992005073012004-10920-037050FM-12+000599999V0201801N002112200019N0020001N1+02621+01941101901ADDGF102991021011012501001001MA1999999101831MD1999999+0001REMSYN076AAXX  30124 83096 32695 21804 10262 20194 30183 40190 82100 333 20240 58000;
0137830960999992005073018004-10920-037050FM-12+000599999V0200901N003112200019N0020001N1+02691+02041101771ADDGF103991031011012501001001MA1999999101701MD1999999-0061REMSYN070AAXX  30184 83096 32695 30906 10269 20204 30170 40177 83100 333 59006;
0200830960999992005073100004-10920-037050FM-12+000599999V0201401N002612200019N0020001N1+02451+02011101891ADDAA106001091AY161061AY261061GF104991041051012501001001MA1999999101821MD1999999+0021MW1211REMSYN100AAXX  31004 83096 21695 41405 10245 20201 30182 40189 72166 84500 333 10285 29072 55097 58002 60011;
0160830960999992005073112004-10920-037050FM-12+000599999V0201801N003112200019N0020001N1+02571+01991101861ADDAA124001091GF104991041011012501001001MA1999999101791MD1999999-0041REMSYN082AAXX  31124 83096 22695 41806 10257 20199 30179 40186 84100 333 20228 59004 60014;
0137830960999992005073118004-10917-037050FM-12+000599999V0201801N003112200019N0020001N1+02711+01991101711ADDGF104991041011012501001001MA1999999101641MD1999999-0061REMSYN070AAXX  31184 83096 32695 41806 10271 20199 30164 40171 84100 333 59006;
0168830960999992005080100004-10917-037050FM-12+000599999V0201801N002112200019N0020001N1+02451+02011101691ADDGF103991031051012501001001KA1240M+02831MA1999999101621MD1999999-0201REMSYN088AAXX  01004 83096 32695 31804 10245 20201 30162 40169 83500 333 10283 29072 55098 59020;
0201830960999992005080112004-10917-037050FM-12+000599999V0201801N001510120019N0020001N1+02301+02111101811ADDAA124000021AY151061AY251061GF106991061051012501001001KA1240N+02161MA1999999101741MD1999999-0051MW1201REMSYN088AAXX  01124 83096 21695 61803 10230 20211 30174 40181 72055 86500 333 20216 59005 69924;
0182830960999992005080118004-10917-037050FM-12+000599999V0201401N003110120019N0020001N1+02571+01871101711ADDAA106009991AY161061AY261061GF106991061021012501001001MA1999999101641MD1999999+0001MW1601REMSYN082AAXX  01184 83096 21695 61406 10257 20187 30164 40171 76066 86200 333 58000 60101;
0168830960999992005080200004-10917-037050FM-12+000599999V0201401N003110120019N0020001N1+02501+02071101831ADDGF106991061051012501001001KA1240M+02551MA1999999101761MD1999999+0141REMSYN088AAXX  02004 83096 32695 61406 10250 20207 30176 40183 86500 333 10255 29077 55007 58014;
0201830960999992005080212004-10917-037050FM-12+000599999V0201801N002112200019N0020001N1+02381+01991101741ADDAA124020191AY161061AY261061GF104991041051012501001001KA1240N+02141MA1999999101671MD1999999-0071MW1211REMSYN088AAXX  02124 83096 21695 41804 10238 20199 30167 40174 72166 84500 333 20214 59007 60204;
0182830960999992005080218004-10917-037050FM-12+000599999V0201401N004112200019N0020001N1+02561+02111101681ADDAA106999999AY151061AY251061GF103991031011012501001001MA1999999101611MD1999999-0031MW1201REMSYN082AAXX  02184 83096 21695 31408 10256 20211 30161 40168 72055 83100 333 59003 69921;
0213830960999992005080300004-10917-037050FM-12+000599999V0201401N001510120019N0020001N1+02381+02091101851ADDAA106000891AY161061AY261061GF105991051051012501001001KA1240M+02711MA1999999101781MD1999999+0021MW1211REMSYN100AAXX  03004 83096 21695 51403 10238 20209 30178 40185 72166 85500 333 10271 29081 55053 58002 69981;
0201830960999992005080312004-10917-037050FM-12+000599999V0200901N003112200019N0020001N1+02651+02181101721ADDAA124002091AY151061AY251061GF103991031051012501001001KA1240N+02221MA1999999101651MD1999999-0021MW1201REMSYN088AAXX  03124 83096 21695 30906 10265 20218 30165 40172 72055 83500 333 20222 59002 60024;
0137830960999992005080318004-10917-037050FM-12+000599999V0201401N003112200019N0020001N1+02701+02261101641ADDGF102991021011012501001001MA1999999101571MD1999999-0041REMSYN070AAXX  03184 83096 32695 21406 10270 20226 30157 40164 82100 333 59004;
0168830960999992005080400004-10917-037050FM-12+000599999V0201401N002110120019N0020001N1+02501+02111101841ADDGF108991081051012501999999KA1240M+02851MA1999999101771MD1999999-0011REMSYN088AAXX  04004 83096 32695 81404 10250 20211 30177 40184 885// 333 10285 29078 55082 59001;
0156830960999992005080412004-10917-037050FM-12+000599999V0200901N002112200019N0020001N1+02471+02011101821ADDGF104991041051012501001001KA1240N+02261MA1999999101751MD1999999+0101REMSYN076AAXX  04124 83096 32695 40904 10247 20201 30175 40182 84500 333 20226 58010;
0137830960999992005080418004-10917-037050FM-12+000599999V0201401N002612200019N0020001N1+02681+02021101841ADDGF103991031011012501001001MA1999999101771MD1999999+0201REMSYN070AAXX  04184 83096 32695 31405 10268 20202 30177 40184 83100 333 58020;
0168830960999992005080500004-10917-037050FM-12+000599999V0200901N003110120019N0020001N1+02401+02171101901ADDGF108991081051012501999999KA1240M+02831MA1999999101831MD1999999+0061REMSYN088AAXX  05004 83096 32695 80906 10240 20217 30183 40190 885// 333 10283 29079 55068 58006;
0201830960999992005080512004-10917-037050FM-12+000599999V0201401N002112200019N0020001N1+02591+01921101901ADDAA124002091AY161061AY261061GF104991041011012501001001KA1240N+02201MA1999999101831MD1999999+0081MW1211REMSYN088AAXX  05124 83096 21695 41404 10259 20192 30183 40190 72166 84100 333 20220 58008 60024;
0137830960999992005080518004-10917-037050FM-12+000599999V0201401N003110120019N0020001N1+02611+02031101861ADDGF105991051011012501001001MA1999999101791MD1999999+0021REMSYN070AAXX  05184 83096 32695 51406 10261 20203 30179 40186 85100 333 58002;
0168830960999992005080600004-10917-037050FM-12+000599999V0201401N001512200019N0020001N1+02501+02051102001ADDGF102991021051012501001001KA1240M+02781MA1999999101931MD1999999+0101REMSYN088AAXX  06004 83096 32695 21403 10250 20205 30193 40200 82500 333 10278 29072 55081 58010;
0156830960999992005080612004-10917-037050FM-12+000599999V0201401N002610120019N0020001N1+02491+02151102041ADDGF105991051011012501001001KA1240N+02291MA1999999101971MD1999999+0141REMSYN076AAXX  06124 83096 32695 51405 10249 20215 30197 40204 85100 333 20229 58014;
0182830960999992005080618004-10917-037050FM-12+000599999V0201401N002110120019N0020001N1+02371+02291101771ADDAA106006191AY161061AY261061GF108991081051012501999999MA1999999101701MD1999999-0091MW1601REMSYN082AAXX  06184 83096 21695 81404 10237 20229 30170 40177 76066 885// 333 59009 60061;
0200830960999992005080700004-10920-037050FM-12+000599999V0201401N003110075019N0020001N1+02221+02171101971ADDAA106013091AY161061AY261061GF108991081051008001999999MA1999999101901MD1999999-0031MW1631REMSYN100AAXX  07004 83096 21595 81406 10222 20217 30190 40197 76366 885// 333 10265 29092 55023 59003 60131;
0188830960999992005080712004-10920-037050FM-12+000599999V0201401N004110075019N0020001N1+02301+02091102021ADDAA124051191AY161061AY261061GF108991081051008001999999MA1999999101951MD1999999-0021MW1631REMSYN088AAXX  07124 83096 21595 81408 10230 20209 30195 40202 76366 885// 333 20214 59002 60514;
0137830960999992005080718004-10920-037050FM-12+000599999V0201401N003112200019N0020001N1+02631+01981101751ADDGF102991021011012501001001MA1999999101681MD1999999-0021REMSYN070AAXX  07184 83096 32695 21406 10263 20198 30168 40175 82100 333 59002;
0168830960999992005080800004-10917-037050FM-12+000599999V0201401N003112200019N0020001N1+02471+01921101891ADDGF101991011051012501001001KA1240M+02751MA1999999101821MD1999999-0081REMSYN088AAXX  08004 83096 32695 11406 10247 20192 30182 40189 81500 333 10275 29074 55042 59008;
0156830960999992005080812004-10917-037050FM-12+000599999V0201401N002112200019N0020001N1+02511+02001101811ADDGF103991031051012501001001KA1240N+02201MA1999999101741MD1999999-0211REMSYN076AAXX  08124 83096 32695 31404 10251 20200 30174 40181 83500 333 20220 59021;
0137830960999992005080818004-10917-037050FM-12+000599999V0201401N002110120019N0020001N1+02651+02031101611ADDGF105991051011012501001001MA1999999101541MD1999999-0141REMSYN070AAXX  08184 83096 32695 51404 10265 20203 30154 40161 85100 333 59014;
0168830960999992005080900004-10917-037050FM-12+000599999V0201401N001512200019N0020001N1+02521+02021101781ADDGF102991021051012501001001KA1240M+02771MA1999999101711MD1999999-0111REMSYN088AAXX  09004 83096 32695 21403 10252 20202 30171 40178 82500 333 10277 29073 55044 59011;
0156830960999992005080912004-10917-037050FM-12+000599999V0200901N003112200019N0020001N1+02651+02071101801ADDGF103991031011012501001001KA1240N+02331MA1999999101731MD1999999-0011REMSYN076AAXX  09124 83096 32695 30906 10265 20207 30173 40180 83100 333 20233 59001;
0137830960999992005080918004-10917-037050FM-12+000599999V0201401N002112200019N0020001N1+02691+02061101591ADDGF102991021011012501001001MA1999999101521MD1999999-0021REMSYN070AAXX  09184 83096 32695 21404 10269 20206 30152 40159 82100 333 59002;
0168830960999992005081000004-10917-037050FM-12+000599999V0200901N001512200019N0020001N1+02481+02111101811ADDGF103991031051012501001001KA1240M+02801MA1999999101741MD1999999+0031REMSYN088AAXX  10004 83096 32695 30903 10248 20211 30174 40181 83500 333 10280 29075 55013 58003;
0156830960999992005081012004-10917-037050FM-12+000599999V0200901N001512200019N0020001N1+02671+02291101801ADDGF104991041051012501001001KA1240N+02161MA1999999101731MD1999999+0001REMSYN076AAXX  10124 83096 32695 40903 10267 20229 30173 40180 84500 333 20216 58000;
0137830960999992005081018004-10917-037050FM-12+000599999V0200901N002612200019N0020001N1+02711+02151101671ADDGF102991021011012501001001MA1999999101601MD1999999+0081REMSYN070AAXX  10184 83096 32695 20905 10271 20215 30160 40167 82100 333 58008;
0168830960999992005081100004-10917-037050FM-12+000599999V0200901N004112200019N0020001N1+02501+02111101791ADDGF102991021051012501001001KA1240M+02831MA1999999101721MD1999999-0021REMSYN088AAXX  11004 83096 32695 20908 10250 20211 30172 40179 82500 333 10283 29077 55093 59002;
0156830960999992005081112004-10917-037050FM-12+000599999V0200901N001512200019N0020001N1+02491+02191101881ADDGF104991041051012501001001KA1240N+02201MA1999999101811MD1999999+0081REMSYN076AAXX  11124 83096 32695 40903 10249 20219 30181 40188 84500 333 20220 58008;
0137830960999992005081118004-10917-037050FM-12+000599999V0201401N001512200019N0020001N1+02711+02171101671ADDGF104991041011012501001001MA1999999101601MD1999999+0001REMSYN070AAXX  11184 83096 32695 41403 10271 20217 30160 40167 84100 333 58000;
0168830960999992005081200004-10917-037050FM-12+000599999V0201401N001010120019N0020001N1+02401+02211101841ADDGF108991081051012501999999KA1240M+02851MA1999999101771MD1999999+0051REMSYN088AAXX  12004 83096 32695 81402 10240 20221 30177 40184 885// 333 10285 29084 55077 58005;
0201830960999992005081212004-10917-037050FM-12+000599999V0200901N002612200019N0020001N1+02571+02081101721ADDAA124001091AY151061AY251061GF104991041051012501001001KA1240N+02241MA1999999101651MD1999999-0161MW1201REMSYN088AAXX  12124 83096 21695 40905 10257 20208 30165 40172 72055 84500 333 20224 59016 60014;
0137830960999992005081218004-10917-037050FM-12+000599999V0200901N002112200019N0020001N1+02691+02021101571ADDGF102991021011012501001001MA1999999101501MD1999999-0101REMSYN070AAXX  12184 83096 32695 20904 10269 20202 30150 40157 82100 333 59010;
0168830960999992005081300004-10917-037050FM-12+000599999V0201401N002612200019N0020001N1+02471+02071101761ADDGF101991011051012501001001KA1240M+02811MA1999999101691MD1999999-0081REMSYN088AAXX  13004 83096 32695 11405 10247 20207 30169 40176 81500 333 10281 29074 55069 59008;
0188830960999992005081312004-10920-037050FM-12+000599999V0200901N003110075019N0020001N1+02511+02051101681ADDAA124000591AY151061AY251061GF108991081051008001999999MA1999999101611MD1999999-0041MW1501REMSYN088AAXX  13124 83096 21595 80906 10251 20205 30161 40168 75055 885// 333 20230 59004 69964;
0182830960999992005081318004-10920-037050FM-12+000599999V0200901N002612200019N0020001N1+02491+02151101571ADDAA106999999AY151061AY251061GF104991041051012501001001MA1999999101501MD1999999+0001MW1201REMSYN082AAXX  13184 83096 21695 40905 10249 20215 30150 40157 72055 84500 333 58000 69921;
0155830960999992005081400004-10920-037050FM-12+000599999V0200901N002112200019N0020001N1+02451+02111101601ADDGF104991041051012501001001MA1999999101531MD1999999-0161REMSYN088AAXX  14004 83096 32695 40904 10245 20211 30153 40160 84500 333 10269 29080 55047 59016;
0188830960999992005081412004-10920-037050FM-12+000599999V0200901N001510120019N0020001N1+02401+01991101701ADDAA124006191AY161061AY261061GF105991051051012501001001MA1999999101631MD1999999+0021MW1211REMSYN088AAXX  14124 83096 21695 50903 10240 20199 30163 40170 72166 85500 333 20210 58002 60064;
0137830960999992005081418004-10920-037050FM-12+000599999V0201401N002612200019N0020001N1+02691+02131101651ADDGF104991041011012501001001MA1999999101581MD1999999+0081REMSYN070AAXX  14184 83096 32695 41405 10269 20213 30158 40165 84100 333 58008;
0155830960999992005081500004-10920-037050FM-12+000599999V0201401N002612200019N0020001N1+02491+02211101691ADDGF103991031051012501001001MA1999999101621MD1999999+0091REMSYN088AAXX  15004 83096 32695 31405 10249 20221 30162 40169 83500 333 10279 29080 55060 58009;
0188830960999992005081512004-10920-037050FM-12+000599999V0200901N002110120019N0020001N1+02401+02211101811ADDAA124009991AY161061AY261061GF106991061051012501001001MA1999999101741MD1999999+0111MW1211REMSYN088AAXX  15124 83096 21695 60904 10240 20221 30174 40181 72166 86500 333 20220 58011 60104;
0182830960999992005081518004-10920-037050FM-12+000599999V0200901N004110120019N0020001N1+02621+02311101741ADDAA106004191AY161061AY261061GF106991061021012501001001MA1999999101671MD1999999+0091MW1601REMSYN082AAXX  15184 83096 21695 60908 10262 20231 30167 40174 76066 86200 333 58009 60041;
0168830960999992005081600004-10917-037050FM-12+000599999V0201401N003610120019N0020001N1+02521+02231101861ADDGF106991061051012501001001KA1240M+02751MA1999999101791MD1999999+0161REMSYN088AAXX  16004 83096 32695 61407 10252 20223 30179 40186 86500 333 10275 29085 55031 58016;
0201830960999992005081612004-10917-037050FM-12+000599999V0201401N002612200019N0020001N1+02631+02031101811ADDAA124004191AY151061AY251061GF103991031011012501001001KA1240N+02331MA1999999101741MD1999999+0001MW1201REMSYN088AAXX  16124 83096 21695 31405 10263 20203 30174 40181 72055 83100 333 20233 58000 60044;
0182830960999992005081618004-10917-037050FM-12+000599999V0200901N002112200019N0020001N1+02691+01971101681ADDAA106999999AY151061AY251061GF102991021021012501001001MA1999999101611MD1999999-0061MW1201REMSYN082AAXX  16184 83096 21695 20904 10269 20197 30161 40168 72055 82200 333 59006 69921;
0168830960999992005081700004-10917-037050FM-12+000599999V0201401N001510120019N0020001N1+02471+02071101871ADDGF106991061051012501001001KA1240M+02801MA1999999101801MD1999999+0011REMSYN088AAXX  17004 83096 32695 61403 10247 20207 30180 40187 86500 333 10280 29073 55099 58001;
0201830960999992005081712004-10917-037050FM-12+000599999V0200901N002112200019N0020001N1+02471+02231101721ADDAA124006191AY161061AY261061GF104991041051012501001001KA1240N+02201MA1999999101651MD1999999-0091MW1211REMSYN088AAXX  17124 83096 21695 40904 10247 20223 30165 40172 72166 84500 333 20220 59009 60064;
0182830960999992005081718004-10917-037050FM-12+000599999V0200901N004110120019N0020001N1+02561+02041101591ADDAA106004191AY161061AY261061GF108991081021012501999999MA1999999101521MD1999999-0091MW1601REMSYN082AAXX  17184 83096 21695 80908 10256 20204 30152 40159 76066 882// 333 59009 60041;
0168830960999992005081800004-10917-037050FM-12+000599999V0201401N002612200019N0020001N1+02491+02031101801ADDGF103991031051012501001001KA1240M+02611MA1999999101731MD1999999-0071REMSYN088AAXX  18004 83096 32695 31405 10249 20203 30173 40180 83500 333 10261 29077 55012 59007;
0201830960999992005081812004-10917-037050FM-12+000599999V0200901N002612200019N0020001N1+02651+02051101761ADDAA124004191AY161061AY261061GF102991021011012501001001KA1240N+02301MA1999999101691MD1999999+0041MW1201REMSYN088AAXX  18124 83096 21695 20905 10265 20205 30169 40176 72066 82100 333 20230 58004 60044;
0137830960999992005081818004-10917-037050FM-12+000599999V0201401N001512200019N0020001N1+02651+02091101701ADDGF103991031011012501001001MA1999999101631MD1999999+0111REMSYN070AAXX  18184 83096 32695 31403 10265 20209 30163 40170 83100 333 58011;
0168830960999992005081900004-10917-037050FM-12+000599999V0201401N002610120019N0020001N1+02511+02051101871ADDGF106991061051012501001001KA1240M+02801MA1999999101801MD1999999+0071REMSYN088AAXX  19004 83096 32695 61405 10251 20205 30180 40187 86500 333 10280 29073 55094 58007;
0201830960999992005081912004-10917-037050FM-12+000599999V0200901N002610120019N0020001N1+02491+01921101781ADDAA124004191AY161061AY261061GF106991061051012501001001KA1240N+02261MA1999999101711MD1999999+0021MW1211REMSYN088AAXX  19124 83096 21695 60905 10249 20192 30171 40178 72166 86500 333 20226 58002 60044;
0182830960999992005081918004-10917-037050FM-12+000599999V0201401N001512200019N0020001N1+02601+02101101751ADDAA106009991AY161061AY261061GF101991011011012501001001MA1999999101681MD1999999+0051MW1601REMSYN082AAXX  19184 83096 21695 11403 10260 20210 30168 40175 76066 81100 333 58005 60101;
0168830960999992005082000004-10917-037050FM-12+000599999V0201401N002612200019N0020001N1+02461+02031101961ADDGF103991031051012501001001KA1240M+02681MA1999999101891MD1999999+0091REMSYN088AAXX  20004 83096 32695 31405 10246 20203 30189 40196 83500 333 10268 29077 55046 58009;
0201830960999992005082012004-10917-037050FM-12+000599999V0201401N002112200019N0020001N1+02631+01951101971ADDAA124009991AY161061AY261061GF101991011011012501001001KA1240N+02231MA1999999101901MD1999999+0191MW1601REMSYN088AAXX  20124 83096 21695 11404 10263 20195 30190 40197 76066 81100 333 20223 58019 60104;
0137830960999992005082018004-10917-037050FM-12+000599999V0201401N002612200019N0020001N1+02651+02161101731ADDGF101991011011012501001001MA1999999101661MD1999999-0021REMSYN070AAXX  20184 83096 32695 11405 10265 20216 30166 40173 81100 333 59002;
0155830960999992005082100004-10920-037050FM-12+000599999V0201401N003110120019N0020001N1+02471+02131101881ADDGF108991081051012501999999MA1999999101811MD1999999+0081REMSYN088AAXX  21004 83096 32695 81406 10247 20213 30181 40188 885// 333 10277 29075 55101 58008;
0188830960999992005082112004-10920-037050FM-12+000599999V0201401N003110120019N0020001N1+02381+02071101891ADDAA124003091AY161061AY261061GF108991081051012501999999MA1999999101821MD1999999-0081MW1601REMSYN088AAXX  21124 83096 21695 81406 10238 20207 30182 40189 76066 885// 333 20220 59008 60034;
0182830960999992005082118004-10920-037050FM-12+000599999V0200901N003110120019N0020001N1+02501+02291101541ADDAA106003091AY161061AY261061GF108991081021012501999999MA1999999101471MD1999999-0191MW1601REMSYN082AAXX  21184 83096 21695 80906 10250 20229 30147 40154 76066 882// 333 59019 60031;
0213830960999992005082200004-10917-037050FM-12+000599999V0201401N003110120019N0020001N1+02241+02101101851ADDAA106004191AY161061AY261061GF108991081051012501999999KA1240M+02691MA1999999101781MD1999999-0031MW1601REMSYN100AAXX  22004 83096 21695 81406 10224 20210 30178 40185 76066 885// 333 10269 29089 55028 59003 60041;
0201830960999992005082212004-10917-037050FM-12+000599999V0200901N002612200019N0020001N1+02611+01841101751ADDAA124010991AY161061AY261061GF103991031011012501001001KA1240N+02201MA1999999101681MD1999999-0141MW1211REMSYN088AAXX  22124 83096 21695 30905 10261 20184 30168 40175 72166 83100 333 20220 59014 60114;
0137830960999992005082218004-10917-037050FM-12+000599999V0201401N002612200019N0020001N1+02631+02011101591ADDGF104991041011012501001001MA1999999101521MD1999999+0051REMSYN070AAXX  22184 83096 32695 41405 10263 20201 30152 40159 84100 333 58005;
0168830960999992005082300004-10917-037050FM-12+000599999V0201401N001510120019N0020001N1+02421+01951101761ADDGF106991061051012501001001KA1240M+02781MA1999999101691MD1999999-0091REMSYN088AAXX  23004 83096 32695 61403 10242 20195 30169 40176 86500 333 10278 29070 55106 59009;
0201830960999992005082312004-10917-037050FM-12+000599999V0202701N001510120019N0020001N1+02301+02071101721ADDAA124001091AY161061AY261061GF105991051051012501001001KA1240N+02101MA1999999101651MD1999999-0031MW1211REMSYN088AAXX  23124 83096 21695 52703 10230 20207 30165 40172 72166 85500 333 20210 59003 60014;
0182830960999992005082318004-10917-037050FM-12+000599999V0200901N002112200019N0020001N1+02581+02171101601ADDAA106002091AY161061AY261061GF104991041051012501001001MA1999999101531MD1999999+0011MW1211REMSYN082AAXX  23184 83096 21695 40904 10258 20217 30153 40160 72166 84500 333 58001 60021;
0168830960999992005082400004-10917-037050FM-12+000599999V0201401N003110120019N0020001N1+02461+02091101841ADDGF106991061051012501001001KA1240M+02801MA1999999101771MD1999999+0081REMSYN088AAXX  24004 83096 32695 61406 10246 20209 30177 40184 86500 333 10280 29081 55042 58008;
0173830960999992005082412004-10917-037050FM-12+000599999V0201401N001512200019N0020001N1+02631+02031101701ADDAA124002091GF103991031011012501001001KA1240N+02261MA1999999101631MD1999999-0021REMSYN082AAXX  24124 83096 22695 31403 10263 20203 30163 40170 83100 333 20226 59002 60024;
0137830960999992005082418004-10917-037050FM-12+000599999V0201401N002612200019N0020001N1+02571+02191101671ADDGF104991041051012501001001MA1999999101601MD1999999+0071REMSYN070AAXX  24184 83096 32695 41405 10257 20219 30160 40167 84500 333 58007;
0213830960999992005082500004-10917-037050FM-12+000599999V0201401N001512200019N0020001N1+02411+02091101881ADDAA106003091AY161061AY261061GF103991031051012501001001KA1240M+02831MA1999999101801MD1999999+0041MW1601REMSYN100AAXX  25004 83096 21695 31403 10241 20209 30180 40188 76066 83500 333 10283 29078 55081 58004 60031;
0201830960999992005082512004-10917-037050FM-12+000599999V0201401N002112200019N0020001N1+02571+01931101721ADDAA124004191AY161061AY261061GF102991021011012501001001KA1240N+02241MA1999999101651MD1999999+0021MW1201REMSYN088AAXX  25124 83096 21695 21404 10257 20193 30165 40172 72066 82100 333 20224 58002 60044;
0137830960999992005082518004-10917-037050FM-12+000599999V0200901N002112200019N0020001N1+02691+02061101511ADDGF102991021011012501001001MA1999999101441MD1999999-0161REMSYN070AAXX  25184 83096 32695 20904 10269 20206 30144 40151 82100 333 59016;
0168830960999992005082600004-10917-037050FM-12+000599999V0200901N002612200019N0020001N1+02421+02051101631ADDGF102991021051012501001001KA1240M+02801MA1999999101561MD1999999-0251REMSYN088AAXX  26004 83096 32695 20905 10242 20205 30156 40163 82500 333 10280 29074 55105 59025;
0156830960999992005082612004-10917-037050FM-12+000599999V0200901N003112200019N0020001N1+02531+02021101691ADDGF103991031011012501001001KA1240N+02351MA1999999101621MD1999999-0031REMSYN076AAXX  26124 83096 32695 30906 10253 20202 30162 40169 83100 333 20235 59003;
0137830960999992005082618004-10917-037050FM-12+000599999V0201401N002612200019N0020001N1+02711+01861101571ADDGF101991011011012501001001MA1999999101501MD1999999+0061REMSYN070AAXX  26184 83096 32695 11405 10271 20186 30150 40157 81100 333 58006;
0168830960999992005082700004-10917-037050FM-12+000599999V0201401N001512200019N0020001N1+02461+02091101831ADDGF101991011051012501001001KA1240M+02831MA1999999101761MD1999999+0201REMSYN088AAXX  27004 83096 32695 11403 10246 20209 30176 40183 81500 333 10283 29073 55096 58020;
0156830960999992005082712004-10917-037050FM-12+000599999V0201401N001512200019N0020001N1+02651+02071101701ADDGF103991031011012501001001KA1240N+02351MA1999999101631MD1999999+0011REMSYN076AAXX  27124 83096 32695 31403 10265 20207 30163 40170 83100 333 20235 58001;
0137830960999992005082718004-10917-037050FM-12+000599999V0200901N003112200019N0020001N1+02671+02141101571ADDGF103991031051012501001001MA1999999101501MD1999999+0001REMSYN070AAXX  27184 83096 32695 30906 10267 20214 30150 40157 83500 333 58000;
0168830960999992005082800004-10917-037050FM-12+000599999V0200901N002112200019N0020001N1+02491+02131101611ADDGF103991031051012501001001KA1240M+02851MA1999999101541MD1999999-0221REMSYN088AAXX  28004 83096 32695 30904 10249 20213 30154 40161 83500 333 10285 29077 55098 59022;
0201830960999992005082812004-10917-037050FM-12+000599999V0200901N002610120019N0020001N1+02611+02191101681ADDAA124003091AY161061AY261061GF105991051051012501001001KA1240N+02351MA1999999101611MD1999999-0021MW1211REMSYN088AAXX  28124 83096 21695 50905 10261 20219 30161 40168 72166 85500 333 20235 59002 60034;
0137830960999992005082818004-10917-037050FM-12+000599999V0200901N002612200019N0020001N1+02671+02181101571ADDGF104991041051012501001001MA1999999101501MD1999999+0001REMSYN070AAXX  28184 83096 32695 40905 10267 20218 30150 40157 84500 333 58000;
0168830960999992005082900004-10917-037050FM-12+000599999V0200901N002612200019N0020001N1+02491+02211101491ADDGF104991041051012501001001KA1240M+02811MA1999999101421MD1999999-0121REMSYN088AAXX  29004 83096 32695 40905 10249 20221 30142 40149 84500 333 10281 29080 55048 59012;
0156830960999992005082912004-10917-037050FM-12+000599999V0200901N002112200019N0020001N1+02651+02141101601ADDGF104991041051012501001001KA1240N+02391MA1999999101531MD1999999-0081REMSYN076AAXX  29124 83096 32695 40904 10265 20214 30153 40160 84500 333 20239 59008;
0137830960999992005082918004-10917-037050FM-12+000599999V02099999999992200019N0020001N1+02701+02131101451ADDGF101991011011012501001001MA1999999101381MD1999999-0121REMSYN070AAXX  29184 83096 32695 109// 10270 20213 30138 40145 81100 333 59012;
0168830960999992005083000004-10917-037050FM-12+000599999V0200901N003112200019N0020001N1+02521+02191101721ADDGF103991031051012501001001KA1240M+02851MA1999999101651MD1999999+0231REMSYN088AAXX  30004 83096 32695 30906 10252 20219 30165 40172 83500 333 10285 29077 55095 58023;
0156830960999992005083012004-10917-037050FM-12+000599999V0200901N003112200019N0020001N1+02651+02121101681ADDGF103991031011012501001001KA1240N+02351MA1999999101611MD1999999+0081REMSYN076AAXX  30124 83096 32695 30906 10265 20212 30161 40168 83100 333 20235 58008;
0137830960999992005083018004-10917-037050FM-12+000599999V0200901N002612200019N0020001N1+02701+02171101601ADDGF102991021011012501001001MA1999999101531MD1999999+0151REMSYN070AAXX  30184 83096 32695 20905 10270 20217 30153 40160 82100 333 58015;
0168830960999992005083100004-10917-037050FM-12+000599999V0200901N003112200019N0020001N1+02481+02111101811ADDGF102991021051012501001001KA1240M+02861MA1999999101741MD1999999+0091REMSYN088AAXX  31004 83096 32695 20906 10248 20211 30174 40181 82500 333 10286 29076 55100 58009;
0156830960999992005083112004-10917-037050FM-12+000599999V0200901N002612200019N0020001N1+02691+02041101661ADDGF103991031011012501001001KA1240N+02371MA1999999101591MD1999999-0021REMSYN076AAXX  31124 83096 32695 30905 10269 20204 30159 40166 83100 333 20237 59002;
0137830960999992005083118004-10917-037050FM-12+000599999V0200901N003112200019N0020001N1+02721+02151101491ADDGF101991011011012501001001MA1999999101421MD1999999-0111REMSYN070AAXX  31184 83096 32695 10906 10272 20215 30142 40149 81100 333 59011;
0168830960999992005090100004-10917-037050FM-12+000699999V0200901N003112200019N0020001N1+02501+02071101591ADDGF101991011051012501001001KA1240M+02861MA1999999101521MD1999999-0221REMSYN088AAXX  01004 83096 32695 10906 10250 20207 30152 40159 81500 333 10286 29073 55100 59022;
0156830960999992005090112004-10917-037050FM-12+000699999V0200901N002110120019N0020001N1+02591+02011101581ADDGF105991051051012501001001KA1240N+02371MA1999999101511MD1999999-0081REMSYN076AAXX  01124 83096 32695 50904 10259 20201 30151 40158 85500 333 20237 59008;
0182830960999992005090118004-10917-037050FM-12+000699999V0200901N001512200019N0020001N1+02681+02161101461ADDAA106001091AY161061AY261061GF103991031011012501001001MA1999999101391MD1999999-0031MW1211REMSYN082AAXX  01184 83096 21695 30903 10268 20216 30139 40146 72166 83100 333 59003 60011;
0168830960999992005090200004-10917-037050FM-12+000699999V0200901N003112200019N0020001N1+02501+02111101731ADDGF102991021051012501001001KA1240M+02821MA1999999101661MD1999999+0141REMSYN088AAXX  02004 83096 32695 20906 10250 20211 30166 40173 82500 333 10282 29075 55049 58014;
0173830960999992005090212004-10917-037050FM-12+000699999V0200901N002612200019N0020001N1+02671+02071101601ADDAA124001091GF102991021011012501001001KA1240N+02301MA1999999101531MD1999999+0021REMSYN082AAXX  02124 83096 22695 20905 10267 20207 30153 40160 82100 333 20230 58002 60014;
0137830960999992005090218004-10917-037050FM-12+000699999V0200901N002612200019N0020001N1+02741+02171101541ADDGF101991011011012501001001MA1999999101471MD1999999+0081REMSYN070AAXX  02184 83096 32695 10905 10274 20217 30147 40154 81100 333 58008;
0168830960999992005090300004-10917-037050FM-12+000699999V0200901N002612200019N0020001N1+02531+02151101711ADDGF102991021051012501001001KA1240M+02851MA1999999101641MD1999999-0021REMSYN088AAXX  03004 83096 32695 20905 10253 20215 30164 40171 82500 333 10285 29075 55095 59002;
0201830960999992005090312004-10917-037050FM-12+000699999V0200901N003110120019N0020001N1+02711+02281101851ADDAA124000891AY151061AY251061GF105991051011012501001001KA1240N+02371MA1999999101781MD1999999+0251MW1201REMSYN088AAXX  03124 83096 21695 50906 10271 20228 30178 40185 72055 85100 333 20237 58025 69984;
0137830960999992005090318004-10917-037050FM-12+000699999V0200901N003112200019N0020001N1+02701+02131101581ADDGF101991011011012501001001MA1999999101511MD1999999+0041REMSYN070AAXX  03184 83096 32695 10906 10270 20213 30151 40158 81100 333 58004;
0156830960999992005090412004-10917-037050FM-12+000699999V0200901N004112200019N0020001N1+02721+02121101931ADDGF101991011011012501001001KA1240N+02421MA1999999101861MD1999999+0081REMSYN076AAXX  04124 83096 32695 10908 10272 20212 30186 40193 81100 333 20242 58008;
0137830960999992005090418004-10917-037050FM-12+000699999V0200901N003110120019N0020001N1+02661+02091101571ADDGF106991061021012501001001MA1999999101501MD1999999-0011REMSYN070AAXX  04184 83096 32695 60906 10266 20209 30150 40157 86200 333 59001;
0201830960999992005090512004-10917-037050FM-12+000699999V0200901N002612200019N0020001N1+02681+02091101701ADDAA124001091AY151061AY251061GF104991041011012501001001KA1240N+02371MA1999999101631MD1999999-0231MW1201REMSYN088AAXX  05124 83096 21695 40905 10268 20209 30163 40170 72055 84100 333 20237 59023 60014;
0137830960999992005090518004-10917-037050FM-12+000699999V0200901N002612200019N0020001N1+02731+02051101511ADDGF103991031011012501001001MA1999999101441MD1999999-0061REMSYN070AAXX  05184 83096 32695 30905 10273 20205 30144 40151 83100 333 59006;
0168830960999992005090600004-10917-037050FM-12+000699999V0200901N003110120019N0020001N1+02531+02131101771ADDGF106991061051012501001001KA1240M+02851MA1999999101701MD1999999+0021REMSYN088AAXX  06004 83096 32695 60906 10253 20213 30170 40177 86500 333 10285 29073 55096 58002;
0156830960999992005090612004-10917-037050FM-12+000699999V0200901N003610120019N0020001N1+02651+02071101611ADDGF105991051011012501001001KA1240N+02371MA1999999101541MD1999999-0091REMSYN076AAXX  06124 83096 32695 50907 10265 20207 30154 40161 85100 333 20237 59009;
0137830960999992005090618004-10917-037050FM-12+000699999V0200901N003112200019N0020001N1+02731+02151101461ADDGF101991011011012501001001MA1999999101391MD1999999-0051REMSYN070AAXX  06184 83096 32695 10906 10273 20215 30139 40146 81100 333 59005;
0168830960999992005090700004-10917-037050FM-12+000699999V0200901N002612200019N0020001N1+02521+02211101691ADDGF101991011051012501001001KA1240M+02871MA1999999101621MD1999999-0081REMSYN088AAXX  07004 83096 32695 10905 10252 20221 30162 40169 81500 333 10287 29077 55083 59008;
0156830960999992005090712004-10917-037050FM-12+000699999V0200901N003112200019N0020001N1+02711+02221101671ADDGF104991041011012501001001KA1240N+02371MA1999999101601MD1999999+0061REMSYN076AAXX  07124 83096 32695 40906 10271 20222 30160 40167 84100 333 20237 58006;
0137830960999992005090718004-10917-037050FM-12+000699999V0200901N002612200019N0020001N1+02751+02261101551ADDGF102991021011012501001001MA1999999101481MD1999999+0091REMSYN070AAXX  07184 83096 32695 20905 10275 20226 30148 40155 82100 333 58009;
0168830960999992005090800004-10917-037050FM-12+000699999V0200901N004112200019N0020001N1+02541+02151101791ADDGF102991021051012501001001KA1240M+02891MA1999999101721MD1999999+0101REMSYN088AAXX  08004 83096 32695 20908 10254 20215 30172 40179 82500 333 10289 29077 55098 58010;
0156830960999992005090812004-10917-037050FM-12+000699999V0200901N002112200019N0020001N1+02591+02271101791ADDGF104991041051012501001001KA1240N+02381MA1999999101721MD1999999+0121REMSYN076AAXX  08124 83096 32695 40904 10259 20227 30172 40179 84500 333 20238 58012;
0137830960999992005090818004-10917-037050FM-12+000699999V0200901N003112200019N0020001N1+02751+02171101681ADDGF102991021011012501001001MA1999999101611MD1999999+0131REMSYN070AAXX  08184 83096 32695 20906 10275 20217 30161 40168 82100 333 58013;
0168830960999992005090900004-10917-037050FM-12+000699999V0201401N003110120019N0020001N1+02541+02041101951ADDGF105991051051012501001001KA1240M+02891MA1999999101881MD1999999+0161REMSYN088AAXX  09004 83096 32695 51406 10254 20204 30188 40195 85500 333 10289 29075 55090 58016;
0156830960999992005090912004-10917-037050FM-12+000699999V0201401N002112200019N0020001N1+02691+01941101891ADDGF102991021011012501001001KA1240N+02401MA1999999101821MD1999999+0101REMSYN076AAXX  09124 83096 32695 21404 10269 20194 30182 40189 82100 333 20240 58010;
0137830960999992005090918004-10917-037050FM-12+000699999V0201401N002112200019N0020001N1+02731+02001101751ADDGF102991021011012501001001MA1999999101681MD1999999+0071REMSYN070AAXX  09184 83096 32695 21404 10273 20200 30168 40175 82100 333 58007;
0168830960999992005091000004-10917-037050FM-12+000699999V0201401N003112200019N0020001N1+02541+02061102021ADDGF102991021051012501001001KA1240M+02871MA1999999101951MD1999999+0071REMSYN088AAXX  10004 83096 32695 21406 10254 20206 30195 40202 82500 333 10287 29070 55098 58007;
0156830960999992005091012004-10917-037050FM-12+000699999V0201401N002112200019N0020001N1+02631+02101101891ADDGF104991041011012501001001KA1240N+02401MA1999999101821MD1999999+0001REMSYN076AAXX  10124 83096 32695 41404 10263 20210 30182 40189 84100 333 20240 58000;
0182830960999992005091018004-10917-037050FM-12+000699999V0200901N002112200019N0020001N1+02701+02031101691ADDAA106002091AY161061AY261061GF102991021011012501001001MA1999999101621MD1999999-0061MW1211REMSYN082AAXX  10184 83096 21695 20904 10270 20203 30162 40169 72166 82100 333 59006 60021;
0173830960999992005091112004-10917-037050FM-12+000699999V0200901N004112200019N0020001N1+02711+02131101781ADDAA124005191GF102991021011012501001001KA1240N+02391MA1999999101711MD1999999-0111REMSYN082AAXX  11124 83096 22695 20908 10271 20213 30171 40178 82100 333 20239 59011 60054;
0182830960999992005091118004-10917-037050FM-12+000699999V0200901N003612200019N0020001N1+02691+02061101651ADDAA106000891AY151061AY251061GF103991031011012501001001MA1999999101581MD1999999-0041MW1201REMSYN082AAXX  11184 83096 21695 30907 10269 20206 30158 40165 72055 83100 333 59004 69981;
0201830960999992005091212004-10917-037050FM-12+000699999V0200901N002612200019N0020001N1+02651+02181101781ADDAA124002091AY151061AY251061GF102991021011012501001001KA1240N+02331MA1999999101711MD1999999+0001MW1201REMSYN088AAXX  12124 83096 21695 20905 10265 20218 30171 40178 72055 82100 333 20233 58000 60024;
0182830960999992005091218004-10917-037050FM-12+000599999V0201401N003110120019N0020001N1+02361+02191101721ADDAA106003091AY161061AY261061GF108991081051012501999999MA1999999101651MD1999999+0071MW1211REMSYN082AAXX  12184 83096 21695 81406 10236 20219 30165 40172 72166 885// 333 58007 60031;
0213830960999992005091300004-10917-037050FM-12+000599999V0201401N001510120019N0020001N1+02481+02071101831ADDAA106003091AY161061AY261061GF108991081051012501999999KA1240M+02791MA1999999101761MD1999999+0111MW1211REMSYN100AAXX  13004 83096 21695 81403 10248 20207 30176 40183 72166 885// 333 10279 29084 55062 58011 60031;
0201830960999992005091312004-10917-037050FM-12+000599999V0201401N002112200019N0020001N1+02651+02141101701ADDAA124007991AY161061AY261061GF103991031011012501001001KA1240N+02301MA1999999101631MD1999999-0081MW1211REMSYN088AAXX  13124 83096 21695 31404 10265 20214 30163 40170 72166 83100 333 20230 59008 60084;
0137830960999992005091318004-10917-037050FM-12+000599999V0201401N001512200019N0020001N1+02661+02161101571ADDGF103991031011012501001001MA1999999101501MD1999999-0151REMSYN070AAXX  13184 83096 32695 31403 10266 20216 30150 40157 83100 333 59015;
0168830960999992005091400004-10917-037050FM-12+000599999V0201401N001512200019N0020001N1+02451+02031101801ADDGF103991031051012501001001KA1240M+02791MA1999999101731MD1999999-0031REMSYN088AAXX  14004 83096 32695 31403 10245 20203 30173 40180 83500 333 10279 29075 55056 59003;
0201830960999992005091412004-10917-037050FM-12+000599999V0201801N002612200019N0020001N1+02621+02051101701ADDAA124000891AY151061AY251061GF102991021011012501001001KA1240N+02351MA1999999101631MD1999999+0001MW1201REMSYN088AAXX  14124 83096 21695 21805 10262 20205 30163 40170 72055 82100 333 20235 58000 69984;
0137830960999992005091418004-10917-037050FM-12+000599999V0201401N002610120019N0020001N1+02611+02211101631ADDGF106991061051012501001001MA1999999101561MD1999999+0061REMSYN070AAXX  14184 83096 32695 61405 10261 20221 30156 40163 86500 333 58006;
0168830960999992005091500004-10917-037050FM-12+000599999V0201401N004112200019N0020001N1+02501+02051101851ADDGF102991021051012501001001KA1240M+02811MA1999999101781MD1999999+0051REMSYN088AAXX  15004 83096 32695 21408 10250 20205 30178 40185 82500 333 10281 29075 55085 58005;
0201830960999992005091512004-10917-037050FM-12+000599999V0201801N003610075019N0010001N1+02401+02231101881ADDAA124003091AY161061AY261061GF105991051051008001001001KA1240N+02241MA1999999101811MD1999999+0181MW1501REMSYN088AAXX  15124 83096 21594 51807 10240 20223 30181 40188 75066 85500 333 20224 58018 60034;
0182830960999992005091518004-10917-037050FM-12+000599999V0201401N003610120019N0020001N1+02401+02171101771ADDAA106002091AY161061AY261061GF108991081051012501999999MA1999999101701MD1999999+0141MW1211REMSYN082AAXX  15184 83096 21695 81407 10240 20217 30170 40177 72166 885// 333 58014 60021;
0213830960999992005091600004-10917-037050FM-12+000599999V0201401N001510120019N0020001N1+02351+02091101881ADDAA106001091AY151061AY251061GF108991081051012501999999KA1240M+02671MA1999999101811MD1999999+0031MW1201REMSYN100AAXX  16004 83096 21695 81403 10235 20209 30181 40188 72055 885// 333 10267 29087 55021 58003 60011;
0173830960999992005091612004-10917-037050FM-12+000599999V0200901N002612200019N0020001N1+02371+01971101841ADDAA124003091GF104991041051012501001001KA1240N+02301MA1999999101771MD1999999-0041REMSYN082AAXX  16124 83096 22695 40905 10237 20197 30177 40184 84500 333 20230 59004 60034;
0137830960999992005091618004-10917-037050FM-12+000599999V0201401N003112200019N0020001N1+02671+02021101651ADDGF101991011011012501001001MA1999999101581MD1999999-0121REMSYN070AAXX  16184 83096 32695 11406 10267 20202 30158 40165 81100 333 59012;
0168830960999992005091700004-10917-037050FM-12+000599999V0201401N001512200019N0020001N1+02451+01991101841ADDGF103991031051012501001001KA1240M+02811MA1999999101771MD1999999-0041REMSYN088AAXX  17004 83096 32695 31403 10245 20199 30177 40184 83500 333 10281 29073 55079 59004;
0201830960999992005091712004-10917-037050FM-12+000599999V0201401N001512200019N0020001N1+02601+02191101771ADDAA124003091AY161061AY261061GF101991011011012501001001KA1240N+02141MA1999999101701MD1999999-0071MW1211REMSYN088AAXX  17124 83096 21695 11403 10260 20219 30170 40177 72166 81100 333 20214 59007 60034;
0137830960999992005091718004-10917-037050FM-12+000599999V0201401N003112200019N0020001N1+02651+02021101411ADDGF101991011011012501001001MA1999999101341MD1999999-0241REMSYN070AAXX  17184 83096 32695 11406 10265 20202 30134 40141 81100 333 59024;
0156830960999992005091812004-10917-037050FM-12+000599999V0201401N002110120019N0020001N1+02641+02091101881ADDGF108991081021012501999999KA1240N+02161MA1999999101811MD1999999+0111REMSYN076AAXX  18124 83096 32695 81404 10264 20209 30181 40188 882// 333 20216 58011;
0137830960999992005091818004-10917-037050FM-12+000599999V0201401N003112200019N0020001N1+02701+02131101551ADDGF101991011011012501001001MA1999999101481MD1999999+0141REMSYN070AAXX  18184 83096 32695 11406 10270 20213 30148 40155 81100 333 58014;
0168830960999992005091900004-10917-037050FM-12+000599999V0201401N003110120019N0020001N1+02551+02111101691ADDGF106991061051012501001001KA1240M+02851MA1999999101621MD1999999+0031REMSYN088AAXX  19004 83096 32695 61406 10255 20211 30162 40169 86500 333 10285 29074 55038 58003;
0156830960999992005091912004-10917-037050FM-12+000599999V0201401N002112200019N0020001N1+02691+02131101691ADDGF102991021011012501001001KA1240N+02201MA1999999101621MD1999999-0191REMSYN076AAXX  19124 83096 32695 21404 10269 20213 30162 40169 82100 333 20220 59019;
0137830960999992005091918004-10917-037050FM-12+000599999V0200901N002112200019N0020001N1+02691+02111101571ADDGF102991021011012501001001MA1999999101501MD1999999+0021REMSYN070AAXX  19184 83096 32695 20904 10269 20211 30150 40157 82100 333 58002;
0168830960999992005092000004-10917-037050FM-12+000599999V0201401N002110120019N0020001N1+02511+02171101821ADDGF106991061051012501001001KA1240M+02871MA1999999101751MD1999999+0131REMSYN088AAXX  20004 83096 32695 61404 10251 20217 30175 40182 86500 333 10287 29076 55104 58013;
0156830960999992005092012004-10917-037050FM-12+000599999V0200901N001512200019N0020001N1+02651+02231101621ADDGF104991041051012501001001KA1240N+02201MA1999999101551MD1999999-0071REMSYN076AAXX  20124 83096 32695 40903 10265 20223 30155 40162 84500 333 20220 59007;
0137830960999992005092018004-10917-037050FM-12+000599999V0200901N003112200019N0020001N1+02751+02211101361ADDGF101991011011012501001001MA1999999101291MD1999999-0211REMSYN070AAXX  20184 83096 32695 10906 10275 20221 30129 40136 81100 333 59021;
0168830960999992005092100004-10917-037050FM-12+000599999V0200901N003110120019N0020001N1+02521+02231101531ADDGF105991051051012501001001KA1240M+02891MA1999999101461MD1999999-0291REMSYN088AAXX  21004 83096 32695 50906 10252 20223 30146 40153 85500 333 10289 29080 55076 59029;
0156830960999992005092112004-10917-037050FM-12+000599999V0200901N002112200019N0020001N1+02611+02231101301ADDGF104991041011012501001001KA1240N+02201MA1999999101231MD1999999-0321REMSYN076AAXX  21124 83096 32695 40904 10261 20223 30123 40130 84100 333 20220 59032;
0137830960999992005092118004-10917-037050FM-12+000599999V0200901N004112200019N0020001N1+02751+02191101061ADDGF101991011011012501001001MA1999999100991MD1999999-0301REMSYN070AAXX  21184 83096 32695 10908 10275 20219 30099 40106 81100 333 59030;
0168830960999992005092200004-10917-037050FM-12+000599999V0200901N003112200019N0020001N1+02531+02211101211ADDGF103991031051012501001001KA1240M+02921MA1999999101141MD1999999-0321REMSYN088AAXX  22004 83096 32695 30906 10253 20221 30114 40121 83500 333 10292 29079 55104 59032;
0156830960999992005092212004-10917-037050FM-12+000599999V0200901N002612200019N0020001N1+02791+02301101291ADDGF103991031011012501001001KA1240N+02401MA1999999101221MD1999999-0011REMSYN076AAXX  22124 83096 32695 30905 10279 20230 30122 40129 83100 333 20240 59001;
0137830960999992005092218004-10917-037050FM-12+000599999V0200901N004112200019N0020001N1+02791+02251101091ADDGF102991021011012501001001MA1999999101721MD1999999+0031REMSYN070AAXX  22184 83096 32695 20908 10279 20225 30172 40109 82100 333 58003;
0168830960999992005092300004-10917-037050FM-12+000599999V0200901N003112200019N0020001N1+02541+02211101461ADDGF102991021051012501001001KA1240M+02951MA1999999101391MD1999999+0251REMSYN088AAXX  23004 83096 32695 20906 10254 20221 30139 40146 82500 333 10295 29078 55091 58025;
0156830960999992005092312004-10917-037050FM-12+000599999V0200901N002612200019N0020001N1+02611+02191101291ADDGF104991041011012501001001KA1240N+02411MA1999999101321MD1999999+0101REMSYN076AAXX  23124 83096 32695 40905 10261 20219 30132 40129 84100 333 20241 58010;
0137830960999992005092318004-10917-037050FM-12+000599999V0200901N003112200019N0020001N1+02751+02211101291ADDGF101991011011012501001001MA1999999101221MD1999999+0201REMSYN070AAXX  23184 83096 32695 10906 10275 20221 30122 40129 81100 333 58020;
0168830960999992005092400004-10917-037050FM-12+000599999V0200901N003612200019N0020001N1+02551+02211101521ADDGF101991011051012501001001KA1240M+02931MA1999999101451MD1999999+0061REMSYN088AAXX  24004 83096 32695 10907 10255 20221 30145 40152 81500 333 10293 29078 55083 58006;
0156830960999992005092412004-10917-037050FM-12+000599999V0200901N002612200019N0020001N1+02751+02191101411ADDGF102991021011012501001001KA1240N+02371MA1999999101341MD1999999+0021REMSYN076AAXX  24124 83096 32695 20905 10275 20219 30134 40141 82100 333 20237 58002;
0137830960999992005092418004-10917-037050FM-12+000599999V0200901N003612200019N0020001N1+02771+02191101251ADDGF101991011011012501001001MA1999999101181MD1999999-0041REMSYN070AAXX  24184 83096 32695 10907 10277 20219 30118 40125 81100 333 59004;
0168830960999992005092500004-10917-037050FM-12+000599999V0200901N004112200019N0020001N1+02571+02151101371ADDGF102991021011012501001001KA1240M+02931MA1999999101301MD1999999-0111REMSYN088AAXX  25004 83096 32695 20908 10257 20215 30130 40137 82100 333 10293 29075 55101 59011;
0156830960999992005092512004-10917-037050FM-12+000599999V0200901N003112200019N0020001N1+02751+02191101581ADDGF102991021011012501001001KA1240N+02431MA1999999101511MD1999999+0171REMSYN076AAXX  25124 83096 32695 20906 10275 20219 30151 40158 82100 333 20243 58017;
0137830960999992005092518004-10917-037050FM-12+000599999V0200901N004112200019N0020001N1+02791+02211101391ADDGF102991021011012501001001MA1999999101321MD1999999+0141REMSYN070AAXX  25184 83096 32695 20908 10279 20221 30132 40139 82100 333 58014;
0156830960999992005092612004-10917-037050FM-12+000599999V0200901N003112200019N0020001N1+02741+02211101611ADDGF103991031011012501001001KA1240N+02451MA1999999101541MD1999999+0031REMSYN076AAXX  26124 83096 32695 30906 10274 20221 30154 40161 83100 333 20245 58003;
0137830960999992005092618004-10917-037050FM-12+000599999V0200901N004112200019N0020001N1+02781+02311101481ADDGF101991011011012501001001MA1999999101411MD1999999+0091REMSYN070AAXX  26184 83096 32695 10908 10278 20231 30141 40148 81100 333 58009;
0168830960999992005092700004-10917-037050FM-12+000599999V0200901N003110120019N0020001N1+02581+02271101651ADDGF106991061051012501001001KA1240M+02951MA1999999101581MD1999999+0261REMSYN088AAXX  27004 83096 32695 60906 10258 20227 30158 40165 86500 333 10295 29078 55095 58026;
0156830960999992005092712004-10917-037050FM-12+000599999V0200901N002612200019N0020001N1+02771+02281101671ADDGF103991031011012501001001KA1240N+02451MA1999999101601MD1999999+0061REMSYN076AAXX  27124 83096 32695 30905 10277 20228 30160 40167 83100 333 20245 58006;
0137830960999992005092718004-10917-037050FM-12+000599999V0200901N005112200019N0020001N1+02811+02331101481ADDGF102991021011012501001001MA1999999101411MD1999999+0001REMSYN070AAXX  27184 83096 32695 20910 10281 20233 30141 40148 82100 333 58000;
0168830960999992005092800004-10917-037050FM-12+000599999V0200901N004112200019N0020001N1+02591+02251101781ADDGF103991031051012501001001KA1240M+02981MA1999999101711MD1999999+0131REMSYN088AAXX  28004 83096 32695 30908 10259 20225 30171 40178 83500 333 10298 29078 55090 58013;
0156830960999992005092812004-10917-037050FM-12+000599999V0200901N003612200019N0020001N1+02751+02171101731ADDGF102991021011012501001001KA1240N+02451MA1999999101661MD1999999+0061REMSYN076AAXX  28124 83096 32695 20907 10275 20217 30166 40173 82100 333 20245 58006;
0137830960999992005092818004-10917-037050FM-12+000599999V0200901N004112200019N0020001N1+02751+02231101451ADDGF103991031011012501001001MA1999999101381MD1999999-0031REMSYN070AAXX  28184 83096 32695 30908 10275 20223 30138 40145 83100 333 59003;
0168830960999992005092900004-10917-037050FM-12+000599999V0200901N003112200019N0020001N1+02531+02061101641ADDGF102991021051012501001001KA1240M+02931MA1999999101571MD1999999-0141REMSYN088AAXX  29004 83096 32695 20906 10253 20206 30157 40164 82500 333 10293 29073 55093 59014;
0156830960999992005092912004-10917-037050FM-12+000599999V0200901N002112200019N0020001N1+02771+02141101621ADDGF104991041011012501001001KA1240N+02431MA1999999101551MD1999999-0111REMSYN076AAXX  29124 83096 32695 40904 10277 20214 30155 40162 84100 333 20243 59011;
0137830960999992005092918004-10917-037050FM-12+000599999V0201401N003112200019N0020001N1+02751+02211101381ADDGF103991031011012501001001MA1999999101311MD1999999-0071REMSYN070AAXX  29184 83096 32695 31406 10275 20221 30131 40138 83100 333 59007;
0168830960999992005093000004-10917-037050FM-12+000599999V0201401N002612200019N0020001N1+02531+02191101691ADDGF102991021051012501001001KA1240M+02911MA1999999101621MD1999999+0051REMSYN088AAXX  30004 83096 32695 21405 10253 20219 30162 40169 82500 333 10291 29076 55100 58005;
0201830960999992005093012004-10917-037050FM-12+000599999V0200901N002612200019N0020001N1+02751+02171101661ADDAA124000021AY151061AY251061GF103991031011012501001001KA1240N+02411MA1999999101591MD1999999+0041MW1201REMSYN088AAXX  30124 83096 21695 30905 10275 20217 30159 40166 72055 83100 333 20241 58004 69924;
0137830960999992005093018004-10917-037050FM-12+000599999V0200901N003112200019N0020001N1+02761+02211101421ADDGF101991011011012501001001MA1999999101351MD1999999+0041REMSYN070AAXX  30184 83096 32695 10906 10276 20221 30135 40142 81100 333 58004;
0168830960999992005100100004-10917-037050FM-12+000599999V0200901N003112200019N0020001N1+02561+02171101631ADDGF102991021051012501001001KA1240M+02951MA1999999101561MD1999999-0061REMSYN088AAXX  01004 83096 32695 20906 10256 20217 30156 40163 82500 333 10295 29075 55106 59006;
0156830960999992005100112004-10917-037050FM-12+000599999V0200901N002112200019N0020001N1+02711+02171101661ADDGF104991041011012501001001KA1240N+02451MA1999999101591MD1999999+0001REMSYN076AAXX  01124 83096 32695 40904 10271 20217 30159 40166 84100 333 20245 58000;
0137830960999992005100118004-10917-037050FM-12+000599999V0201401N003112200019N0020001N1+02761+02251101411ADDGF101991011011012501001001MA1999999101341MD1999999-0011REMSYN070AAXX  01184 83096 32695 11406 10276 20225 30134 40141 81100 333 59001;
0168830960999992005100200004-10917-037050FM-12+000599999V0201401N003112200019N0020001N1+02541+02211101631ADDGF102991021051012501001001KA1240M+02931MA1999999101561MD1999999+0001REMSYN088AAXX  02004 83096 32695 21406 10254 20221 30156 40163 82500 333 10293 29078 55096 58000;
0156830960999992005100212004-10917-037050FM-12+000599999V0200901N003112200019N0020001N1+02821+02171101691ADDGF102991021011012501001001KA1240N+02271MA1999999101621MD1999999+0031REMSYN076AAXX  02124 83096 32695 20906 10282 20217 30162 40169 82100 333 20227 58003;
0137830960999992005100218004-10917-037050FM-12+000599999V0200901N003112200019N0020001N1+02801+02181101251ADDGF101991011011012501001001MA1999999101181MD1999999-0161REMSYN070AAXX  02184 83096 32695 10906 10280 20218 30118 40125 81100 333 59016;
0156830960999992005100312004-10917-037050FM-12+000599999V0200901N003112200019N0020001N1+02791+02251101471ADDGF103991031011012501001001KA1240N+02301MA1999999101401MD1999999-0221REMSYN076AAXX  03124 83096 32695 30906 10279 20225 30140 40147 83100 333 20230 59022;
0137830960999992005100318004-10917-037050FM-12+000599999V0200901N004112200019N0020001N1+02831+02221101231ADDGF101991011011012501001001MA1999999101161MD1999999-0021REMSYN070AAXX  03184 83096 32695 10908 10283 20222 30116 40123 81100 333 59002;
0168830960999992005100400004-10917-037050FM-12+000599999V0200901N004112200019N0020001N1+02571+02121101511ADDGF103991031051012501001001KA1240M+02991MA1999999101441MD1999999+0151REMSYN088AAXX  04004 83096 32695 30908 10257 20212 30144 40151 83500 333 10299 29074 55108 58015;
0156830960999992005100412004-10917-037050FM-12+000599999V0200901N003112200019N0020001N1+02791+02181101471ADDGF103991031011012501001001KA1240N+02431MA1999999101401MD1999999+0001REMSYN076AAXX  04124 83096 32695 30906 10279 20218 30140 40147 83100 333 20243 58000;
0137830960999992005100418004-10917-037050FM-12+000599999V0200901N004112200019N0020001N1+02811+02181101341ADDGF101991011011012501001001MA1999999101271MD1999999+0111REMSYN070AAXX  04184 83096 32695 10908 10281 20218 30127 40134 81100 333 58011;
0168830960999992005100500004-10917-037050FM-12+000599999V0200901N005110120019N0020001N1+02591+02291101531ADDGF105991051051012501001001KA1240M+02961MA1999999101461MD1999999+0021REMSYN088AAXX  05004 83096 32695 50910 10259 20229 30146 40153 85500 333 10296 29076 55108 58002;
0156830960999992005100512004-10917-037050FM-12+000599999V0200901N004112200019N0020001N1+02771+02231101571ADDGF103991031011012501001001KA1240N+02451MA1999999101501MD1999999+0101REMSYN076AAXX  05124 83096 32695 30908 10277 20223 30150 40157 83100 333 20245 58010;
0137830960999992005100518004-10917-037050FM-12+000599999V0200901N004112200019N0020001N1+02851+02261101401ADDGF103991031011012501001001MA1999999101331MD1999999+0061REMSYN070AAXX  05184 83096 32695 30908 10285 20226 30133 40140 83100 333 58006;
0168830960999992005100600004-10917-037050FM-12+000599999V0201401N003110120019N0020001N1+02591+02311101691ADDGF106991061051012501001001KA1240M+02991MA1999999101621MD1999999+0161REMSYN088AAXX  06004 83096 32695 61406 10259 20231 30162 40169 86500 333 10299 29078 55104 58016;
0201830960999992005100612004-10917-037050FM-12+000599999V0200901N003112200019N0020001N1+02831+02241101731ADDAA124000891AY151061AY251061GF102991021011012501001001KA1240N+02361MA1999999101661MD1999999+0161MW1201REMSYN088AAXX  06124 83096 21695 20906 10283 20224 30166 40173 72055 82100 333 20236 58016 69984;
0137830960999992005100618004-10917-037050FM-12+000599999V0200901N003112200019N0020001N1+02831+02241101601ADDGF102991021011012501001001MA1999999101531MD1999999+0201REMSYN070AAXX  06184 83096 32695 20906 10283 20224 30153 40160 82100 333 58020;
0168830960999992005100700004-10917-037050FM-12+000599999V0200901N004112200019N0020001N1+02601+02231101811ADDGF103991031051012501001001KA1240M+02981MA1999999101741MD1999999+0121REMSYN088AAXX  07004 83096 32695 30908 10260 20223 30174 40181 83500 333 10298 29075 55105 58012;
0201830960999992005100712004-10917-037050FM-12+000599999V0200901N003112200019N0020001N1+02751+02191101731ADDAA124000021AY151061AY251061GF102991021011012501001001KA1240N+02411MA1999999101661MD1999999+0001MW1201REMSYN088AAXX  07124 83096 21695 20906 10275 20219 30166 40173 72055 82100 333 20241 58000 69924;
0137830960999992005100718004-10917-037050FM-12+000599999V0200901N002612200019N0020001N1+02831+02071101631ADDGF102991021011012501001001MA1999999101561MD1999999+0031REMSYN070AAXX  07184 83096 32695 20905 10283 20207 30156 40163 82100 333 58003;
0213830960999992005100800004-10917-037050FM-12+000599999V0201401N003110120019N0020001N1+02541+02171101971ADDAA106000591AY151061AY251061GF106991061051012501001001KA1240M+03011MA1999999101901MD1999999+0161MW1201REMSYN100AAXX  08004 83096 21695 61406 10254 20217 30190 40197 72055 86500 333 10301 29074 55104 58016 69961;
0173830960999992005100812004-10917-037050FM-12+000599999V0200901N003112200019N0020001N1+02771+02091101771ADDAA124000591GF103991031011012501001001KA1240N+02411MA1999999101701MD1999999+0041REMSYN082AAXX  08124 83096 22695 30906 10277 20209 30170 40177 83100 333 20241 58004 69964;
0137830960999992005100818004-10917-037050FM-12+000599999V0200901N002612200019N0020001N1+02831+02071101681ADDGF103991031011012501001001MA1999999101611MD1999999+0051REMSYN070AAXX  08184 83096 32695 30905 10283 20207 30161 40168 83100 333 58005;
0168830960999992005100900004-10917-037050FM-12+000599999V0200901N002612200019N0020001N1+02531+02021101711ADDGF104991041011012501001001KA1240M+03001MA1999999101641MD1999999-0261REMSYN088AAXX  09004 83096 32695 40905 10253 20202 30164 40171 84100 333 10300 29070 55103 59026;
0201830960999992005100912004-10917-037050FM-12+000599999V0200901N003112200019N0020001N1+02591+02271101721ADDAA124002091AY161061AY261061GF104991041011012501001001KA1240N+02221MA1999999101651MD1999999-0051MW1211REMSYN088AAXX  09124 83096 21695 40906 10259 20227 30165 40172 72166 84100 333 20222 59005 60024;
0137830960999992005100918004-10917-037050FM-12+000599999V0201801N003110120019N0020001N1+02571+02131101551ADDGF105991051051012501001001MA1999999101481MD1999999-0131REMSYN070AAXX  09184 83096 32695 51806 10257 20213 30148 40155 85500 333 59013;
0168830960999992005101000004-10917-037050FM-12+000599999V0200901N002110120019N0020001N1+02491+02151101531ADDGF105991051051012501001001KA1240M+02891MA1999999101461MD1999999-0181REMSYN088AAXX  10004 83096 32695 50904 10249 20215 30146 40153 85500 333 10289 29081 55048 59018;
0201830960999992005101012004-10917-037050FM-12+000599999V0200901N002112200019N0020001N1+02661+02241101571ADDAA124003091AY161061AY261061GF104991041011012501001001KA1240N+02241MA1999999101501MD1999999-0151MW1211REMSYN088AAXX  10124 83096 21695 40904 10266 20224 30150 40157 72166 84100 333 20224 59015 60034;
0182830960999992005101018004-10917-037050FM-12+000599999V0201401N003112200019N0020001N1+02681+02221101321ADDAA106003091AY161061AY261061GF103991031011012501001001MA1999999101251MD1999999-0231MW1211REMSYN082AAXX  10184 83096 21695 31406 10268 20222 30125 40132 72166 83100 333 59023 60031;
0168830960999992005101100004-10917-037050FM-12+000599999V0200901N004110120019N0020001N1+02411+02111101671ADDGF106991061051012501001001KA1240M+02831MA1999999101601MD1999999+0141REMSYN088AAXX  11004 83096 32695 60908 10241 20211 30160 40167 86500 333 10283 29080 55060 58014;
0201830960999992005101112004-10917-037050FM-12+000599999V0200901N002110120019N0020001N1+02671+02071101521ADDAA124007191AY161061AY261061GF105991051011012501001001KA1240N+02261MA1999999101451MD1999999-0051MW1211REMSYN088AAXX  11124 83096 21695 50904 10267 20207 30145 40152 72166 85100 333 20226 59005 60074;
0137830960999992005101118004-10917-037050FM-12+000599999V0201401N002610120019N0020001N1+02581+02271101391ADDGF106991061051012501001001MA1999999101321MD1999999+0071REMSYN070AAXX  11184 83096 32695 61405 10258 20227 30132 40139 86500 333 58007;
0213830960999992005101200004-10917-037050FM-12+000599999V0200901N004112200019N0020001N1+02461+02151101601ADDAA106000591AY151061AY251061GF101991011051012501001001KA1240M+02941MA1999999101531MD1999999-0071MW1201REMSYN100AAXX  12004 83096 21695 10908 10246 20215 30153 40160 72055 81500 333 10294 29080 55064 59007 69961;
0201830960999992005101212004-10917-037050FM-12+000599999V0200501N001510120019N0020001N1+02491+02131101571ADDAA124000591AY151061AY251061GF106991061051012501001001KA1240N+02141MA1999999101501MD1999999+0051MW1201REMSYN088AAXX  12124 83096 21695 60503 10249 20213 30150 40157 72055 86500 333 20214 58005 69964;
0137830960999992005101218004-10917-037050FM-12+000599999V0200901N003610120019N0020001N1+02801+02311101391ADDGF105991051011012501001001MA1999999101321MD1999999+0001REMSYN070AAXX  12184 83096 32695 50907 10280 20231 30132 40139 85100 333 58000;
0213830960999992005101300004-10917-037050FM-12+000599999V0200901N005112200019N0020001N1+02541+02171101581ADDAA106002091AY161061AY261061GF103991031051012501001001KA1240M+02891MA1999999101511MD1999999-0021MW1601REMSYN100AAXX  13004 83096 21695 30910 10254 20217 30151 40158 76066 83500 333 10289 29079 55025 59002 60021;
0173830960999992005101312004-10917-037050FM-12+000599999V0200901N004112200019N0020001N1+02791+02181101571ADDAA124002091GF102991021011012501001001KA1240N+02431MA1999999101501MD1999999+0001REMSYN082AAXX  13124 83096 22695 20908 10279 20218 30150 40157 82100 333 20243 58000 60024;
0137830960999992005101318004-10917-037050FM-12+000599999V0200901N005112200019N0020001N1+02781+02251101351ADDGF103991031011012501001001MA1999999101281MD1999999-0041REMSYN070AAXX  13184 83096 32695 30910 10278 20225 30128 40135 83100 333 59004;
0168830960999992005101400004-10917-037050FM-12+000599999V0200901N004110120019N0020001N1+02561+02231101631ADDGF105991051051012501001001KA1240M+02961MA1999999101561MD1999999+0051REMSYN088AAXX  14004 83096 32695 50908 10256 20223 30156 40163 85500 333 10296 29077 55106 58005;
0201830960999992005101412004-10917-037050FM-12+000599999V0200901N003112200019N0020001N1+02591+02211101641ADDAA124001091AY151061AY251061GF104991041011012501001001KA1240N+02261MA1999999101571MD1999999+0071MW1201REMSYN088AAXX  14124 83096 21695 40906 10259 20221 30157 40164 72055 84100 333 20226 58007 60014;
0137830960999992005101418004-10917-037050FM-12+000599999V0200901N004112200019N0020001N1+02801+02251101331ADDGF102991021011012501001001MA1999999101261MD1999999-0021REMSYN070AAXX  14184 83096 32695 20908 10280 20225 30126 40133 82100 333 59002;
0168830960999992005101500004-10917-037050FM-12+000599999V0200901N005112200019N0020001N1+02561+02021101651ADDGF103991031051012501001001KA1240M+02981MA1999999101581MD1999999+0021REMSYN088AAXX  15004 83096 32695 30910 10256 20202 30158 40165 83500 333 10298 29074 55077 58002;
0156830960999992005101512004-10917-037050FM-12+000599999V0200901N005112200019N0020001N1+02851+02141101711ADDGF101991011011012501001001KA1240N+02411MA1999999101641MD1999999+0071REMSYN076AAXX  15124 83096 32695 10910 10285 20214 30164 40171 81100 333 20241 58007;
0137830960999992005101518004-10917-037050FM-12+000599999V0201401N004112200019N0020001N1+02801+02081101381ADDGF101991011011012501001001MA1999999101311MD1999999+0051REMSYN070AAXX  15184 83096 32695 11408 10280 20208 30131 40138 81100 333 58005;
0168830960999992005101600004-10917-037050FM-12+000599999V0200901N003612200019N0020001N1+02541+02151101551ADDGF102991021051012501001001KA1240M+03001MA1999999101481MD1999999-0101REMSYN088AAXX  16004 83096 32695 20907 10254 20215 30148 40155 82500 333 10300 29072 55109 59010;
0156830960999992005101612004-10917-037050FM-12+000599999V0200901N004112200019N0020001N1+02841+02221101641ADDGF103991031011012501001001KA1240N+02381MA1999999101571MD1999999-0071REMSYN076AAXX  16124 83096 32695 30908 10284 20222 30157 40164 83100 333 20238 59007;
0137830960999992005101618004-10917-037050FM-12+000599999V0201401N003612200019N0020001N1+02791+02181101401ADDGF103991031011012501001001MA1999999101331MD1999999+0021REMSYN070AAXX  16184 83096 32695 31407 10279 20218 30133 40140 83100 333 58002;
0168830960999992005101700004-10917-037050FM-12+000599999V0201401N003112200019N0020001N1+02591+02191101571ADDGF102991021051012501001001KA1240M+03001MA1999999101501MD1999999+0021REMSYN088AAXX  17004 83096 32695 21406 10259 20219 30150 40157 82500 333 10300 29073 55100 58002;
0156830960999992005101712004-10917-037050FM-12+000599999V0200901N003612200019N0020001N1+02791+02161101471ADDGF103991031011012501001001KA1240N+02371MA1999999101401MD1999999-0171REMSYN076AAXX  17124 83096 32695 30907 10279 20216 30140 40147 83100 333 20237 59017;
0137830960999992005101718004-10917-037050FM-12+000599999V0200901N002612200019N0020001N1+02831+02151101341ADDGF102991021011012501001001MA1999999101271MD1999999-0061REMSYN070AAXX  17184 83096 32695 20905 10283 20215 30127 40134 82100 333 59006;
0155830960999992005101800004-10920-037050FM-12+000599999V0200901N003112200019N0020001N1+02551+02111101571ADDGF102991021051012501001001MA1999999101501MD1999999+0001REMSYN088AAXX  18004 83096 32695 20906 10255 20211 30150 40157 82500 333 10291 29072 55111 58000;
0156830960999992005101812004-10917-037050FM-12+000599999V0200901N003612200019N0020001N1+02811+02181101511ADDGF102991021011012501001001KA1240N+02451MA1999999101441MD1999999+0041REMSYN076AAXX  18124 83096 32695 20907 10281 20218 30144 40151 82100 333 20245 58004;
0137830960999992005101818004-10917-037050FM-12+000599999V0200901N003612200019N0020001N1+02851+02141101341ADDGF101991011011012501001001MA1999999101271MD1999999+0001REMSYN070AAXX  18184 83096 32695 10907 10285 20214 30127 40134 81100 333 58000;
0168830960999992005101900004-10917-037050FM-12+000599999V0200901N003110120019N0020001N1+02581+02191101501ADDGF105991051051012501001001KA1240M+02991MA1999999101431MD1999999-0071REMSYN088AAXX  19004 83096 32695 50906 10258 20219 30143 40150 85500 333 10299 29073 55108 59007;
0156830960999992005101912004-10917-037050FM-12+000599999V0200901N003612200019N0020001N1+02811+02131101551ADDGF103991031011012501001001KA1240N+02451MA1999999101481MD1999999+0051REMSYN076AAXX  19124 83096 32695 30907 10281 20213 30148 40155 83100 333 20245 58005;
0137830960999992005101918004-10917-037050FM-12+000599999V0200901N003612200019N0020001N1+02871+02191101461ADDGF103991031011012501001001MA1999999101391MD1999999+0121REMSYN070AAXX  19184 83096 32695 30907 10287 20219 30139 40146 83100 333 58012;
0168830960999992005102000004-10917-037050FM-12+000599999V0200901N002612200019N0020001N1+02571+02111101641ADDGF102991021051012501001001KA1240M+03031MA1999999101571MD1999999+0141REMSYN088AAXX  20004 83096 32695 20905 10257 20211 30157 40164 82500 333 10303 29071 55100 58014;
0156830960999992005102012004-10917-037050FM-12+000599999V0200901N003112200019N0020001N1+02791+02061101571ADDGF103991031011012501001001KA1240N+02351MA1999999101501MD1999999+0021REMSYN076AAXX  20124 83096 32695 30906 10279 20206 30150 40157 83100 333 20235 58002;
0137830960999992005102018004-10917-037050FM-12+000599999V0200901N003112200019N0020001N1+02831+02101101501ADDGF102991021011012501001001MA1999999101431MD1999999+0041REMSYN070AAXX  20184 83096 32695 20906 10283 20210 30143 40150 82100 333 58004;
0168830960999992005102100004-10917-037050FM-12+000599999V0200901N003112200019N0020001N1+02561+02061101641ADDGF101991011051012501001001KA1240M+03011MA1999999101571MD1999999+0001REMSYN088AAXX  21004 83096 32695 10906 10256 20206 30157 40164 81500 333 10301 29070 55105 58000;
0156830960999992005102112004-10917-037050FM-12+000599999V0200901N002612200019N0020001N1+02791+02091101531ADDGF103991031011012501001001KA1240N+02451MA1999999101461MD1999999-0041REMSYN076AAXX  21124 83096 32695 30905 10279 20209 30146 40153 83100 333 20245 59004;
0182830960999992005102118004-10917-037050FM-12+000599999V0200901N003112200019N0020001N1+02711+02261101391ADDAA106004191AY161061AY261061GF103991031011012501001001MA1999999101321MD1999999-0111MW1211REMSYN082AAXX  21184 83096 21695 30906 10271 20226 30132 40139 72166 83100 333 59011 60041;
0168830960999992005102200004-10917-037050FM-12+000599999V0201401N003110120019N0020001N1+02581+02271101571ADDGF106991061051012501001001KA1240M+02961MA1999999101501MD1999999-0071REMSYN088AAXX  22004 83096 32695 61406 10258 20227 30150 40157 86500 333 10296 29077 55101 59007;
0201830960999992005102212004-10917-037050FM-12+000599999V0200901N003112200019N0020001N1+02781+02231101521ADDAA124005191AY161061AY261061GF103991031011012501001001KA1240N+02431MA1999999101451MD1999999-0011MW1201REMSYN088AAXX  22124 83096 21695 30906 10278 20223 30145 40152 72066 83100 333 20243 59001 60054;
0137830960999992005102218004-10917-037050FM-12+000599999V0200901N003112200019N0020001N1+02811+02181101401ADDGF101991011011012501001001MA1999999101331MD1999999+0011REMSYN070AAXX  22184 83096 32695 10906 10281 20218 30133 40140 81100 333 58001;
0168830960999992005102300004-10917-037050FM-12+000599999V0200901N002612200019N0020001N1+02551+02151101391ADDGF102991021011012501001001KA1240M+02991MA1999999101321MD1999999-0181REMSYN088AAXX  23004 83096 32695 20905 10255 20215 30132 40139 82100 333 10299 29075 55110 59018;
0156830960999992005102312004-10917-037050FM-12+000599999V0200901N003112200019N0020001N1+02821+02241101531ADDGF103991031011012501001001KA1240N+02471MA1999999101461MD1999999+0011REMSYN076AAXX  23124 83096 32695 30906 10282 20224 30146 40153 83100 333 20247 58001;
0137830960999992005102318004-10917-037050FM-12+000599999V0200901N003612200019N0020001N1+02851+02141101301ADDGF103991031011012501001001MA1999999101231MD1999999-0101REMSYN070AAXX  23184 83096 32695 30907 10285 20214 30123 40130 83100 333 59010;
0168830960999992005102400004-10917-037050FM-12+000599999V0200901N003112200019N0020001N1+02551+02191101371ADDGF102991021011012501001001KA1240M+03001MA1999999101301MD1999999-0021REMSYN088AAXX  24004 83096 32695 20906 10255 20219 30130 40137 82100 333 10300 29075 55111 59002;
0156830960999992005102412004-10917-037050FM-12+000599999V0200901N003612200019N0020001N1+02831+02151101491ADDGF102991021011012501001001KA1240N+02241MA1999999101421MD1999999-0041REMSYN076AAXX  24124 83096 32695 20907 10283 20215 30142 40149 82100 333 20224 59004;
0137830960999992005102418004-10917-037050FM-12+000599999V0201401N003112200019N0020001N1+02801+02251101311ADDGF101991011011012501001001MA1999999101241MD1999999+0011REMSYN070AAXX  24184 83096 32695 11406 10280 20225 30124 40131 81100 333 58001;
0168830960999992005102500004-10917-037050FM-12+000599999V0201401N003112200019N0020001N1+02571+02171101531ADDGF103991031051012501001001KA1240M+03011MA1999999101461MD1999999+0161REMSYN088AAXX  25004 83096 32695 31406 10257 20217 30146 40153 83500 333 10301 29074 55109 58016;
0156830960999992005102512004-10917-037050FM-12+000599999V0200901N003112200019N0020001N1+02771+02091101491ADDGF102991021011012501001001KA1240N+02431MA1999999101421MD1999999+0001REMSYN076AAXX  25124 83096 32695 20906 10277 20209 30142 40149 82100 333 20243 58000;
0137830960999992005102518004-10917-037050FM-12+000599999V0201401N005112200019N0020001N1+02771+02111101301ADDGF101991011011012501001001MA1999999101231MD1999999-0011REMSYN070AAXX  25184 83096 32695 11410 10277 20211 30123 40130 81100 333 59001;
0168830960999992005102600004-10917-037050FM-12+000599999V0201401N003112200019N0020001N1+02581+02191101491ADDGF101991011051012501001001KA1240M+02981MA1999999101421MD1999999-0041REMSYN088AAXX  26004 83096 32695 11406 10258 20219 30142 40149 81500 333 10298 29073 55115 59004;
0156830960999992005102612004-10917-037050FM-12+000599999V0200901N003112200019N0020001N1+02791+02161101411ADDGF103991031011012501001001KA1240N+02451MA1999999101341MD1999999-0081REMSYN076AAXX  26124 83096 32695 30906 10279 20216 30134 40141 83100 333 20245 59008;
0137830960999992005102618004-10917-037050FM-12+000599999V0200901N004112200019N0020001N1+02841+02261101221ADDGF102991021011012501001001MA1999999101151MD1999999-0081REMSYN070AAXX  26184 83096 32695 20908 10284 20226 30115 40122 82100 333 59008;
0168830960999992005102700004-10917-037050FM-12+000599999V0200901N005112200019N0020001N1+02621+02291101341ADDGF103991031051012501001001KA1240M+03021MA1999999101271MD1999999-0151REMSYN088AAXX  27004 83096 32695 30910 10262 20229 30127 40134 83500 333 10302 29076 55111 59015;
0156830960999992005102712004-10917-037050FM-12+000599999V0200901N003112200019N0020001N1+02871+02211101371ADDGF103991031011012501001001KA1240N+02451MA1999999101301MD1999999-0041REMSYN076AAXX  27124 83096 32695 30906 10287 20221 30130 40137 83100 333 20245 59004;
0137830960999992005102718004-10917-037050FM-12+000599999V0200901N005112200019N0020001N1+02881+02371101201ADDGF102991021011012501001001MA1999999101131MD1999999-0021REMSYN070AAXX  27184 83096 32695 20910 10288 20237 30113 40120 82100 333 59002;
0168830960999992005102800004-10917-037050FM-12+000599999V0200901N006710120019N0020001N1+02601+02271101411ADDGF105991051051012501001001KA1240M+03051MA1999999101341MD1999999+0071REMSYN088AAXX  28004 83096 32695 50913 10260 20227 30134 40141 85500 333 10305 29076 55103 58007;
0156830960999992005102812004-10917-037050FM-12+000599999V0200901N002612200019N0020001N1+02891+02211101291ADDGF103991031011012501001001KA1240N+02411MA1999999101221MD1999999-0081REMSYN076AAXX  28124 83096 32695 30905 10289 20221 30122 40129 83100 333 20241 59008;
0137830960999992005102818004-10917-037050FM-12+000599999V0200901N005712200019N0020001N1+02811+02241101111ADDGF101991011011012501001001MA1999999101041MD1999999-0091REMSYN070AAXX  28184 83096 32695 10911 10281 20224 30104 40111 81100 333 59009;
0168830960999992005102900004-10917-037050FM-12+000599999V0200901N005112200019N0020001N1+02571+02211101271ADDGF101991011051012501001001KA1240M+03011MA1999999101201MD1999999-0141REMSYN088AAXX  29004 83096 32695 10910 10257 20221 30120 40127 81500 333 10301 29075 55110 59014;
0156830960999992005102912004-10917-037050FM-12+000599999V0200901N006212200019N0020001N1+02831+02381101411ADDGF101991011011012501001001KA1240N+02331MA1999999101341MD1999999+0121REMSYN076AAXX  29124 83096 32695 10912 10283 20238 30134 40141 81100 333 20233 58012;
0137830960999992005102918004-10917-037050FM-12+000599999V0200901N006212200019N0020001N1+02791+02271101001ADDGF101991011011012501001001MA1999999100931MD1999999-0111REMSYN070AAXX  29184 83096 32695 10912 10279 20227 30093 40100 81100 333 59011;
0168830960999992005103000004-10917-037050FM-12+000599999V0200901N005112200019N0020001N1+02571+02351101181ADDGF103991031051012501001001KA1240M+02991MA1999999101111MD1999999-0091REMSYN088AAXX  30004 83096 32695 30910 10257 20235 30111 40118 83500 333 10299 29079 55105 59009;
0156830960999992005103012004-10917-037050FM-12+000599999V0200901N005112200019N0020001N1+02861+02351101391ADDGF101991011011012501001001KA1240N+02351MA1999999101321MD1999999+0011REMSYN076AAXX  30124 83096 32695 10910 10286 20235 30132 40139 81100 333 20235 58001;
0137830960999992005103018004-10917-037050FM-12+000599999V0200901N006712200019N0020001N1+02831+02351101161ADDGF101991011051012501001001MA1999999101091MD1999999+0161REMSYN070AAXX  30184 83096 32695 10913 10283 20235 30109 40116 81500 333 58016;
0168830960999992005103100004-10917-037050FM-12+000599999V0200901N005112200019N0020001N1+02601+02331101411ADDGF101991011051012501001001KA1240M+03001MA1999999101341MD1999999+0231REMSYN088AAXX  31004 83096 32695 10910 10260 20233 30134 40141 81500 333 10300 29080 55110 58023;
0156830960999992005103112004-10917-037050FM-12+000599999V0200901N003612200019N0020001N1+02771+02251101371ADDGF104991041051012501001001KA1240N+02351MA1999999101301MD1999999-0021REMSYN076AAXX  31124 83096 32695 40907 10277 20225 30130 40137 84500 333 20235 59002;
0137830960999992005103118004-10917-037050FM-12+000599999V0200901N005712200019N0020001N1+02821+02381101311ADDGF101991011011012501001001MA1999999101241MD1999999-0151REMSYN070AAXX  31184 83096 32695 10911 10282 20238 30124 40131 81100 333 59015;
0168830960999992005110100004-10917-037050FM-12+000599999V0200901N004112200019N0020001N1+02601+02291101571ADDGF103991031051012501001001KA1240M+03001MA1999999101501MD1999999+0161REMSYN088AAXX  01004 83096 32695 30908 10260 20229 30150 40157 83500 333 10300 29079 55100 58016;
0156830960999992005110112004-10917-037050FM-12+000599999V0200901N003112200019N0020001N1+02841+02091101531ADDGF102991021011012501001001KA1240N+02331MA1999999101461MD1999999+0161REMSYN076AAXX  01124 83096 32695 20906 10284 20209 30146 40153 82100 333 20233 58016;
0168830960999992005110200004-10917-037050FM-12+000599999V0200901N005112200019N0020001N1+02571+02231101671ADDGF103991031051012501001001KA1240M+03001MA1999999101601MD1999999+0101REMSYN088AAXX  02004 83096 32695 30910 10257 20223 30160 40167 83500 333 10300 29075 55112 58010;
0156830960999992005110212004-10917-037050FM-12+000599999V0200901N003612200019N0020001N1+02851+02291101631ADDGF101991011011012501001001KA1240N+02451MA1999999101561MD1999999+0101REMSYN076AAXX  02124 83096 32695 10907 10285 20229 30156 40163 81100 333 20245 58010;
0137830960999992005110218004-10917-037050FM-12+000599999V0200901N004612200019N0020001N1+02821+02331101431ADDGF101991011011012501001001MA1999999101361MD1999999+0091REMSYN070AAXX  02184 83096 32695 10909 10282 20233 30136 40143 81100 333 58009;
0168830960999992005110300004-10917-037050FM-12+000599999V0200901N003112200019N0020001N1+02601+02291101561ADDGF101991011051012501001001KA1240M+03011MA1999999101491MD1999999+0111REMSYN088AAXX  03004 83096 32695 10906 10260 20229 30149 40156 81500 333 10301 29077 55108 58011;
0156830960999992005110312004-10917-037050FM-12+000599999V0200901N004112200019N0020001N1+02791+02301101671ADDGF103991031051012501001001KA1240N+02471MA1999999101601MD1999999+0041REMSYN076AAXX  03124 83096 32695 30908 10279 20230 30160 40167 83500 333 20247 58004;
0137830960999992005110318004-10917-037050FM-12+000599999V0200901N004112200019N0020001N1+02841+02311101551ADDGF101991011011012501001001MA1999999101481MD1999999+0121REMSYN070AAXX  03184 83096 32695 10908 10284 20231 30148 40155 81100 333 58012;
0168830960999992005110400004-10917-037050FM-12+000599999V0200901N005112200019N0020001N1+02581+02171101711ADDGF101991011051012501001001KA1240M+03101MA1999999101641MD1999999+0151REMSYN088AAXX  04004 83096 32695 10910 10258 20217 30164 40171 81500 333 10310 29076 55101 58015;
0156830960999992005110412004-10917-037050FM-12+000599999V0200901N003612200019N0020001N1+02851+02171101571ADDGF102991021011012501001001KA1240N+02411MA1999999101501MD1999999-0101REMSYN076AAXX  04124 83096 32695 20907 10285 20217 30150 40157 82100 333 20241 59010;
0137830960999992005110418004-10917-037050FM-12+000599999V0200901N003112200019N0020001N1+02811+02201101261ADDGF101991011011012501001001MA1999999101191MD1999999+0291REMSYN070AAXX  04184 83096 32695 10906 10281 20220 30119 40126 81100 333 58029;
0168830960999992005110500004-10917-037050FM-12+000599999V0200901N003112200019N0020001N1+02561+02151101521ADDGF101991011051012501001001KA1240M+03041MA1999999101451MD1999999-0191REMSYN088AAXX  05004 83096 32695 10906 10256 20215 30145 40152 81500 333 10304 29073 55112 59019;
0201830960999992005110512004-10917-037050FM-12+000599999V0200901N004112200019N0020001N1+02611+02311101511ADDAA124001091AY161061AY261061GF104991041051012501001001KA1240N+02221MA1999999101441MD1999999-0061MW1211REMSYN088AAXX  05124 83096 21695 40908 10261 20231 30144 40151 72166 84500 333 20222 59006 60014;
0137830960999992005110518004-10917-037050FM-12+000599999V0200901N003112200019N0020001N1+02771+02131101271ADDGF102991021011012501001001MA1999999101201MD1999999-0011REMSYN070AAXX  05184 83096 32695 20906 10277 20213 30120 40127 82100 333 59001;
0168830960999992005110600004-10917-037050FM-12+000599999V0200901N004112200019N0020001N1+02541+02111101491ADDGF101991011051012501001001KA1240M+02921MA1999999101421MD1999999-0031REMSYN088AAXX  06004 83096 32695 10908 10254 20211 30142 40149 81500 333 10292 29076 55099 59003;
0156830960999992005110612004-10917-037050FM-12+000599999V0200901N003112200019N0020001N1+02871+02101101591ADDGF101991011011012501001001KA1240N+02401MA1999999101151MD1999999+0081REMSYN076AAXX  06124 83096 32695 10906 10287 20210 30115 40159 81100 333 20240 58008;
0137830960999992005110618004-10917-037050FM-12+000599999V0200901N003112200019N0020001N1+02831+02071101321ADDGF101991011011012501001001MA1999999101251MD1999999+0051REMSYN070AAXX  06184 83096 32695 10906 10283 20207 30125 40132 81100 333 58005;
0168830960999992005110700004-10917-037050FM-12+000599999V0200901N002612200019N0020001N1+02591+01941101351ADDGF102991021011012501001001KA1240M+03001MA1999999101281MD1999999-0141REMSYN088AAXX  07004 83096 32695 20905 10259 20194 30128 40135 82100 333 10300 29066 55099 59014;
0137830960999992005110718004-10917-037050FM-12+000599999V0200901N004112200019N0020001N1+02851+02121101251ADDGF101991011011012501001001MA1999999101181MD1999999-0071REMSYN070AAXX  07184 83096 32695 10908 10285 20212 30118 40125 81100 333 59007;
0156830960999992005110812004-10917-037050FM-12+000599999V0200901N003612200019N0020001N1+02831+02221101271ADDGF102991021011012501001001KA1240N+02471MA1999999101201MD1999999-0111REMSYN076AAXX  08124 83096 32695 20907 10283 20222 30120 40127 82100 333 20247 59011;
0137830960999992005110818004-10917-037050FM-12+000599999V0200901N003612200019N0020001N1+02871+02161101201ADDGF101991011011012501001001MA1999999101131MD1999999-0051REMSYN070AAXX  08184 83096 32695 10907 10287 20216 30113 40120 81100 333 59005;
0168830960999992005110900004-10917-037050FM-12+000599999V0200901N004112200019N0020001N1+02691+02271101271ADDGF104991041051012501001001KA1240M+03021MA1999999101201MD1999999+0001REMSYN088AAXX  09004 83096 32695 40908 10269 20227 30120 40127 84500 333 10302 29075 55111 58000;
0156830960999992005110912004-10917-037050FM-12+000599999V0200901N003612200019N0020001N1+02871+02211101271ADDGF103991031011012501001001KA1240N+02471MA1999999101301MD1999999+0101REMSYN076AAXX  09124 83096 32695 30907 10287 20221 30130 40127 83100 333 20247 58010;
0137830960999992005110918004-10917-037050FM-12+000599999V0200901N003612200019N0020001N1+02861+02331101161ADDGF102991021011012501001001MA1999999101091MD1999999-0041REMSYN070AAXX  09184 83096 32695 20907 10286 20233 30109 40116 82100 333 59004;
0168830960999992005111000004-10917-037050FM-12+000599999V0200901N004112200019N0020001N1+02611+02251101231ADDGF103991031051012501001001KA1240M+03021MA1999999101161MD1999999-0041REMSYN088AAXX  10004 83096 32695 30908 10261 20225 30116 40123 83500 333 10302 29076 55107 59004;
0156830960999992005111012004-10917-037050FM-12+000599999V0200901N003612200019N0020001N1+02851+02221101311ADDGF102991021011012501001001KA1240N+02471MA1999999101241MD1999999-0061REMSYN076AAXX  10124 83096 32695 20907 10285 20222 30124 40131 82100 333 20247 59006;
0137830960999992005111018004-10917-037050FM-12+000599999V0200901N003112200019N0020001N1+02851+02121101141ADDGF101991011011012501001001MA1999999101071MD1999999-0021REMSYN070AAXX  10184 83096 32695 10906 10285 20212 30107 40114 81100 333 59002;
0168830960999992005111100004-10917-037050FM-12+000599999V0200901N003612200019N0020001N1+02591+02171101151ADDGF102991021011012501001001KA1240M+03021MA1999999101081MD1999999-0081REMSYN088AAXX  11004 83096 32695 20907 10259 20217 30108 40115 82100 333 10302 29072 55109 59008;
0156830960999992005111112004-10917-037050FM-12+000599999V0200901N004112200019N0020001N1+02831+02121101211ADDGF103991031011012501001001KA1240N+02481MA1999999101141MD1999999-0101REMSYN076AAXX  11124 83096 32695 30908 10283 20212 30114 40121 83100 333 20248 59010;
0137830960999992005111118004-10917-037050FM-12+000599999V0200901N004112200019N0020001N1+02851+02141101021ADDGF101991011011012501001001MA1999999100951MD1999999-0121REMSYN070AAXX  11184 83096 32695 10908 10285 20214 30095 40102 81100 333 59012;
0168830960999992005111200004-10917-037050FM-12+000599999V0200901N004112200019N0020001N1+02591+02121101071ADDGF103991031051012501001001KA1240M+03021MA1999999101001MD1999999-0081REMSYN088AAXX  12004 83096 32695 30908 10259 20212 30100 40107 83500 333 10302 29071 55105 59008;
0156830960999992005111212004-10917-037050FM-12+000599999V0200901N003112200019N0020001N1+02851+02221101131ADDGF102991021011012501001001KA1240N+02431MA1999999101061MD1999999-0081REMSYN076AAXX  12124 83096 32695 20906 10285 20222 30106 40113 82100 333 20243 59008;
0137830960999992005111218004-10917-037050FM-12+000599999V0200901N004112200019N0020001N1+02851+02261100921ADDGF102991021011012501001001MA1999999100851MD1999999-0151REMSYN070AAXX  12184 83096 32695 20908 10285 20226 30085 40092 82100 333 59015;
0168830960999992005111300004-10917-037050FM-12+000599999V0200901N003612200019N0020001N1+02611+02251100971ADDGF103991031051012501001001KA1240M+03041MA1999999100901MD1999999-0101REMSYN088AAXX  13004 83096 32695 30907 10261 20225 30090 40097 83500 333 10304 29075 55110 59010;
0156830960999992005111312004-10917-037050FM-12+000599999V0200901N003112200019N0020001N1+02911+02151101171ADDGF103991031011012501001001KA1240N+02471MA1999999101101MD1999999+0041REMSYN076AAXX  13124 83096 32695 30906 10291 20215 30110 40117 83100 333 20247 58004;
0168830960999992005111400004-10917-037050FM-12+000599999V0200901N003112200019N0020001N1+02631+02311101071ADDGF104991041051012501001001KA1240M+03041MA1999999101001MD1999999+0101REMSYN088AAXX  14004 83096 32695 40906 10263 20231 30100 40107 84500 333 10304 29075 55094 58010;
0156830960999992005111412004-10917-037050FM-12+000599999V0200901N002112200019N0020001N1+02751+02171101171ADDGF104991041051012501001001KA1240N+02471MA1999999101101MD1999999+0001REMSYN076AAXX  14124 83096 32695 40904 10275 20217 30110 40117 84500 333 20247 58000;
0137830960999992005111418004-10917-037050FM-12+000599999V0200901N004112200019N0020001N1+02871+02281100981ADDGF103991031011012501001001MA1999999100911MD1999999+0021REMSYN070AAXX  14184 83096 32695 30908 10287 20228 30091 40098 83100 333 58002;
0168830960999992005111500004-10917-037050FM-12+000599999V0200901N003612200019N0020001N1+02661+02291101231ADDGF102991021051012501001001KA1240M+03021MA1999999101161MD1999999+0161REMSYN088AAXX  15004 83096 32695 20907 10266 20229 30116 40123 82500 333 10302 29075 55030 58016;
0156830960999992005111512004-10917-037050FM-12+000599999V0200901N003612200019N0020001N1+02811+02221101211ADDGF103991031011012501001001KA1240N+02431MA1999999101141MD1999999+0041REMSYN076AAXX  15124 83096 32695 30907 10281 20222 30114 40121 83100 333 20243 58004;
0137830960999992005111518004-10917-037050FM-12+000599999V0200901N006710120019N0020001N1+02771+02321101151ADDGF108991081051012501999999MA1999999101081MD1999999+0171REMSYN070AAXX  15184 83096 32695 80913 10277 20232 30108 40115 885// 333 58017;
0168830960999992005111600004-10917-037050FM-12+000599999V0200901N005112200019N0020001N1+02651+02201101271ADDGF104991041051012501001001KA1240M+03021MA1999999101201MD1999999+0041REMSYN088AAXX  16004 83096 32695 40910 10265 20220 30120 40127 84500 333 10302 29075 55081 58004;
0156830960999992005111612004-10917-037050FM-12+000599999V0200901N004112200019N0020001N1+02851+02291101271ADDGF103991031011012501001001KA1240N+02481MA1999999101201MD1999999+0061REMSYN076AAXX  16124 83096 32695 30908 10285 20229 30120 40127 83100 333 20248 58006;
0137830960999992005111618004-10917-037050FM-12+000599999V0200901N004112200019N0020001N1+02891+02211101181ADDGF102991021011012501001001MA1999999101111MD1999999+0031REMSYN070AAXX  16184 83096 32695 20908 10289 20221 30111 40118 82100 333 58003;
0168830960999992005111700004-10917-037050FM-12+000599999V0200901N005112200019N0020001N1+02661+02181101431ADDGF104991041051012501001001KA1240M+03041MA1999999101361MD1999999+0161REMSYN088AAXX  17004 83096 32695 40910 10266 20218 30136 40143 84500 333 10304 29072 55097 58016;
0156830960999992005111712004-10917-037050FM-12+000599999V0200901N004112200019N0020001N1+02831+02221101311ADDGF104991041011012501001001KA1240N+02481MA1999999101241MD1999999+0041REMSYN076AAXX  17124 83096 32695 40908 10283 20222 30124 40131 84100 333 20248 58004;
0137830960999992005111718004-10917-037050FM-12+000599999V0200901N004112200019N0020001N1+02871+02281101041ADDGF101991011011012501001001MA1999999100971MD1999999-0141REMSYN070AAXX  17184 83096 32695 10908 10287 20228 30097 40104 81100 333 59014;
0168830960999992005111800004-10917-037050FM-12+000599999V0200901N005112200019N0020001N1+02611+02181101181ADDGF103991031051012501001001KA1240M+03051MA1999999101111MD1999999-0251REMSYN088AAXX  18004 83096 32695 30910 10261 20218 30111 40118 83500 333 10305 29074 55100 59025;
0156830960999992005111812004-10917-037050FM-12+000599999V0200901N003612200019N0020001N1+02871+02211101271ADDGF101991011011012501001001KA1240N+02481MA1999999101201MD1999999-0041REMSYN076AAXX  18124 83096 32695 10907 10287 20221 30120 40127 81100 333 20248 59004;
0137830960999992005111818004-10917-037050FM-12+000599999V0200901N004112200019N0020001N1+02891+02211101101ADDGF101991011011012501001001MA1999999101031MD1999999+0061REMSYN070AAXX  18184 83096 32695 10908 10289 20221 30103 40110 81100 333 58006;
0168830960999992005111900004-10917-037050FM-12+000599999V0200901N005112200019N0020001N1+02641+02231101271ADDGF103991031051012501001001KA1240M+03061MA1999999101201MD1999999+0091REMSYN088AAXX  19004 83096 32695 30910 10264 20223 30120 40127 83500 333 10306 29073 55109 58009;
0156830960999992005111912004-10917-037050FM-12+000599999V0200901N002612200019N0020001N1+02891+02131101331ADDGF104991041011012501001001KA1240N+02351MA1999999101261MD1999999+0061REMSYN076AAXX  19124 83096 32695 40905 10289 20213 30126 40133 84100 333 20235 58006;
0137830960999992005111918004-10917-037050FM-12+000599999V0200901N005112200019N0020001N1+02891+02221101211ADDGF101991011011012501001001MA1999999101141MD1999999+0111REMSYN070AAXX  19184 83096 32695 10910 10289 20222 30114 40121 81100 333 58011;
0168830960999992005112000004-10917-037050FM-12+000599999V0200901N004112200019N0020001N1+02631+02161101211ADDGF102991021011012501001001KA1240M+03041MA1999999101141MD1999999-0061REMSYN088AAXX  20004 83096 32695 20908 10263 20216 30114 40121 82100 333 10304 29070 55114 59006;
0156830960999992005112012004-10917-037050FM-12+000599999V0200901N003112200019N0020001N1+02871+02191101331ADDGF103991031011012501001001KA1240N+02491MA1999999101261MD1999999+0001REMSYN076AAXX  20124 83096 32695 30906 10287 20219 30126 40133 83100 333 20249 58000;
0156830960999992005112018004-10917-037050FM-12+000599999V0200901N005112200019N0020001N1+02871+02351101061ADDGF103991999011012501001001MA1999999100991MD1999999-0151REMSYN070AAXX  20184 83096 32695 30910 10287 20235 30099 40106 82100 333 59015;EQDQ01+000022SCOTLC
0168830960999992005112100004-10917-037050FM-12+000599999V0200901N002612200019N0020001N1+02611+02311101131ADDGF104991041051012501001001KA1240M+03041MA1999999101061MD1999999-0081REMSYN088AAXX  21004 83096 32695 40905 10261 20231 30106 40113 84500 333 10304 29077 55100 59008;
0156830960999992005112112004-10917-037050FM-12+000599999V0200901N003612200019N0020001N1+02871+02211101161ADDGF102991021011012501001001KA1240N+02411MA1999999101091MD1999999-0171REMSYN076AAXX  21124 83096 32695 20907 10287 20221 30109 40116 82100 333 20241 59017;
0137830960999992005112118004-10917-037050FM-12+000599999V0200901N005112200019N0020001N1+02891+02251100941ADDGF101991011011012501001001MA1999999100871MD1999999-0121REMSYN070AAXX  21184 83096 32695 10910 10289 20225 30087 40094 81100 333 59012;
0168830960999992005112200004-10917-037050FM-12+000599999V0200901N005112200019N0020001N1+02631+02331101271ADDGF103991031051012501001001KA1240M+03041MA1999999101201MD1999999+0141REMSYN088AAXX  22004 83096 32695 30910 10263 20233 30120 40127 83500 333 10304 29076 55/// 58014;
0156830960999992005112212004-10917-037050FM-12+000599999V0200901N003612200019N0020001N1+02951+02081101161ADDGF101991011011012501001001KA1240N+02391MA1999999101091MD1999999+0001REMSYN076AAXX  22124 83096 32695 10907 10295 20208 30109 40116 81100 333 20239 58000;
0168830960999992005112300004-10917-037050FM-12+000599999V0201401N003110120019N0020001N1+02651+02331101221ADDGF106991061051012501001001KA1240M+03051MA1999999101151MD1999999+0051REMSYN088AAXX  23004 83096 32695 61406 10265 20233 30115 40122 86500 333 10305 29074 55/// 58005;
0156830960999992005112312004-10917-037050FM-12+000599999V0200901N004112200019N0020001N1+02871+02311101211ADDGF104991041011012501001001KA1240N+02461MA1999999101141MD1999999+0051REMSYN076AAXX  23124 83096 32695 40908 10287 20231 30114 40121 84100 333 20246 58005;
0137830960999992005112318004-10917-037050FM-12+000599999V0201401N005112200019N0020001N1+02881+02351101041ADDGF103991031011012501001001MA1999999100971MD1999999+0141REMSYN070AAXX  23184 83096 32695 31410 10288 20235 30097 40104 83100 333 58014;
0168830960999992005112400004-10917-037050FM-12+000599999V0201401N003612200019N0020001N1+02641+02391101291ADDGF101991011051012501001001KA1240M+03061MA1999999101221MD1999999+0071REMSYN088AAXX  24004 83096 32695 11407 10264 20239 30122 40129 81500 333 10306 29076 55/// 58007;
0201830960999992005112412004-10917-037050FM-12+000599999V0200901N003612200019N0020001N1+02891+02391101221ADDAA124000591AY151061AY251061GF104991041011012501001001KA1240N+02431MA1999999101151MD1999999+0011MW1201REMSYN088AAXX  24124 83096 21695 40907 10289 20239 30115 40122 72055 84100 333 20243 58001 69964;
0137830960999992005112418004-10917-037050FM-12+000599999V0201401N004612200019N0020001N1+02891+02391101101ADDGF102991021011012501001001MA1999999101031MD1999999+0061REMSYN070AAXX  24184 83096 32695 21409 10289 20239 30103 40110 82100 333 58006;
0168830960999992005112500004-10917-037050FM-12+000599999V0200901N005710120019N0020001N1+02701+02411101261ADDGF106991061051012501001001KA1240M+03091MA1999999101191MD1999999-0031REMSYN088AAXX  25004 83096 32695 60911 10270 20241 30119 40126 86500 333 10309 29079 55/// 59003;
0201830960999992005112512004-10917-037050FM-12+000599999V0200901N003610120019N0020001N1+02691+02351101271ADDAA124000591AY151061AY251061GF106991061051012501001001KA1240N+02431MA1999999101201MD1999999+0051MW1201REMSYN088AAXX  25124 83096 21695 60907 10269 20235 30120 40127 72055 86500 333 20243 58005 69964;
0172830960999992005112518004-10917-037050FM-12+000599999V0200201N999990120019N0020001N1+02711+02301101111ADDGF106991061051012501001001MA1999999101041MD1999999+0011REMSYN070AAXX  25184 83096 32695 60291 10271 20230 30104 40111 86500 333 58001;EQDQ01+004683WOSPD Q020004683WOSPD 
0168830960999992005112600004-10917-037050FM-12+000599999V0200901N004610120019N0020001N1+02621+02331101241ADDGF106991061051012501001001KA1240M+02941MA1999999101171MD1999999-0021REMSYN088AAXX  26004 83096 32695 60909 10262 20233 30117 40124 86500 333 10294 29082 55/// 59002;
0156830960999992005112612004-10917-037050FM-12+000599999V0200901N003610120019N0020001N1+02751+02281101131ADDGF106991061011012501001001KA1240N+02471MA1999999101061MD1999999-0141REMSYN076AAXX  26124 83096 32695 60907 10275 20228 30106 40113 86100 333 20247 59014;
0137830960999992005112618004-10917-037050FM-12+000599999V0200901N006210120019N0020001N1+02821+02331100781ADDGF106991061011012501001001MA1999999100711MD1999999-0031REMSYN070AAXX  26184 83096 32695 60912 10282 20233 30071 40078 86100 333 59003;
0168830960999992005112700004-10917-037050FM-12+000599999V0200901N004110120019N0020001N1+02661+02391101031ADDGF106991061051012501001001KA1240M+03061MA1999999100961MD1999999-0211REMSYN088AAXX  27004 83096 32695 60908 10266 20239 30096 40103 86500 333 10306 29080 55/// 59021;
0137830960999992005112718004-10917-037050FM-12+000599999V0200901N007712200019N0020001N1+02831+02401100681ADDGF102991021011012501001001MA1999999100611MD1999999-0101REMSYN070AAXX  27184 83096 32695 20915 10283 20240 30061 40068 82100 333 59010;
0168830960999992005112800004-10917-037050FM-12+000599999V0200901N005110120019N0020001N1+02641+02391101031ADDGF105991051051012501001001KA1240M+03031MA1999999100961MD1999999+0001REMSYN088AAXX  28004 83096 32695 50910 10264 20239 30096 40103 85500 333 10303 29080 55/// 58000;
0156830960999992005112812004-10917-037050FM-12+000599999V0200901N003612200019N0020001N1+02851+02351101111ADDGF104991041011012501001001KA1240N+02461MA1999999101041MD1999999+0011REMSYN076AAXX  28124 83096 32695 40907 10285 20235 30104 40111 84100 333 20246 58001;
0137830960999992005112818004-10917-037050FM-12+000599999V0200901N003610120019N0020001N1+02751+02321101061ADDGF105991051051012501031001MA1999999100991MD1999999+0281REMSYN070AAXX  28184 83096 32695 50907 10275 20232 30099 40106 85530 333 58028;
0168830960999992005112900004-10917-037050FM-12+000599999V0200901N008210120019N0020001N1+02561+02311101341ADDGF106991061051012501001001KA1240M+03051MA1999999101271MD1999999+0311REMSYN088AAXX  29004 83096 32695 60916 10256 20231 30127 40134 86500 333 10305 29081 55/// 58031;
0201830960999992005112912004-10917-037050FM-12+000599999V0200901N003612200019N0020001N1+02881+02321101291ADDAA124000391AY151061AY251061GF103991031001012501031001KA1240N+02481MA1999999101221MD1999999+0181MW1201REMSYN088AAXX  29124 83096 21695 30907 10288 20232 30122 40129 72055 83030 333 20248 58018 69934;
0137830960999992005112918004-10917-037050FM-12+000599999V0200901N004112200019N0020001N1+02871+02351101241ADDGF102991021011012501001001MA1999999101171MD1999999+0181REMSYN070AAXX  29184 83096 32695 20908 10287 20235 30117 40124 82100 333 58018;
0168830960999992005113000004-10917-037050FM-12+000599999V0200901N004112200019N0020001N1+02641+02311101461ADDGF102991021051012501001001KA1240M+03041MA1999999101391MD1999999+0121REMSYN088AAXX  30004 83096 32695 20908 10264 20231 30139 40146 82500 333 10304 29078 55/// 58012;
0156830960999992005113012004-10917-037050FM-12+000599999V0200901N004112200019N0020001N1+02851+02261101371ADDGF102991021011012501001001KA1240N+02471MA1999999101301MD1999999+0081REMSYN076AAXX  30124 83096 32695 20908 10285 20226 30130 40137 82100 333 20247 58008;
0137830960999992005113018004-10917-037050FM-12+000599999V0200901N003610120019N0020001N1+02851+02291101241ADDGF105991051011012501001001MA1999999101171MD1999999+0001REMSYN070AAXX  30184 83096 32695 50907 10285 20229 30117 40124 85100 333 58000;
0168830960999992005120100004-10917-037050FM-12+000599999V0200901N002612200019N0020001N1+02601+02331101361ADDGF103991031051012501001001KA1240M+03041MA1999999101291MD1999999-0101REMSYN088AAXX  01004 83096 32695 30905 10260 20233 30129 40136 83500 333 10304 29078 55/// 59010;
0156830960999992005120112004-10917-037050FM-12+000599999V0200901N003110120019N0020001N1+02751+02191101231ADDGF105991051011012501001001KA1240N+02471MA1999999101161MD1999999-0141REMSYN076AAXX  01124 83096 32695 50906 10275 20219 30116 40123 85100 333 20247 59014;
0137830960999992005120118004-10917-037050FM-12+000599999V0200901N002612200019N0020001N1+02931+02121101141ADDGF101991011011012501001001MA1999999101071MD1999999-0101REMSYN070AAXX  01184 83096 32695 10905 10293 20212 30107 40114 81100 333 59010;
0187830960999992005120200004-10917-037050FM-12+000599999V0200301N005112200019N0020001N1+02571+02271101151ADDGF101991999051012501001001KA1240M+03041MA1999999101081MD1999999-0211REMSYN088AAXX  02004 83096 32695 10310 10257 20227 30108 40115 80500 333 10304 29075 55/// 59021;EQDQ01+000002SCOTLC
0156830960999992005120212004-10917-037050FM-12+000599999V0200901N002612200019N0020001N1+02851+02221101011ADDGF103991031011012501001001KA1240N+02451MA1999999100941MD1999999-0221REMSYN076AAXX  02124 83096 32695 30905 10285 20222 30094 40101 83100 333 20245 59022;
0137830960999992005120218004-10917-037050FM-12+000599999V0200901N004112200019N0020001N1+02851+02041100971ADDGF101991011011012501001001MA1999999100901MD1999999+0171REMSYN070AAXX  02184 83096 32695 10908 10285 20204 30090 40097 81100 333 58017;
0168830960999992005120300004-10917-037050FM-12+000599999V0200901N003112200019N0020001N1+02591+02231101001ADDGF101991011051012501001001KA1240M+03061MA1999999100931MD1999999-0151REMSYN088AAXX  03004 83096 32695 10906 10259 20223 30093 40100 81500 333 10306 29073 55/// 59015;
0156830960999992005120312004-10917-037050FM-12+000599999V0200901N002612200019N0020001N1+02871+02231100971ADDGF103991031011012501001001KA1240N+02371MA1999999100901MD1999999-0041REMSYN076AAXX  03124 83096 32695 30905 10287 20223 30090 40097 83100 333 20237 59004;
0137830960999992005120318004-10917-037050FM-12+000599999V0200901N005112200019N0020001N1+02901+02501100821ADDGF104991041011012501001001MA1999999100751MD1999999-0151REMSYN070AAXX  03184 83096 32695 40910 10290 20250 30075 40082 84100 333 59015;
0168830960999992005120400004-10917-037050FM-12+000599999V0200901N004112200019N0020001N1+02651+02421100871ADDGF102991021011012501001001KA1240M+03061MA1999999100801MD1999999-0131REMSYN088AAXX  04004 83096 32695 20908 10265 20242 30080 40087 82100 333 10306 29081 55/// 59013;
0156830960999992005120412004-10917-037050FM-12+000599999V0200901N002612200019N0020001N1+02991+02281101061ADDGF103991031011012501001001KA1240N+02471MA1999999100991MD1999999+0091REMSYN076AAXX  04124 83096 32695 30905 10299 20228 30099 40106 83100 333 20247 58009;
0137830960999992005120418004-10917-037050FM-12+000599999V0201801N002612200019N0020001N1+02831+02291100921ADDGF104991041011012501001001MA1999999100851MD1999999+0101REMSYN070AAXX  04184 83096 32695 41805 10283 20229 30085 40092 84100 333 58010;
0168830960999992005120500004-10917-037050FM-12+000599999V0201801N002610120019N0020001N1+02631+02311100931ADDGF105991051051012501001001KA1240M+03101MA1999999100861MD1999999+0061REMSYN088AAXX  05004 83096 32695 51805 10263 20231 30086 40093 85500 333 10310 29076 55/// 58006;
0201830960999992005120512004-10917-037050FM-12+000599999V0202701N001510075019N0010001N1+02491+02291100981ADDAA124035191AY161061AY261061GF108991081051008001999999KA1240N+02281MA1999999100911MD1999999-0081MW1601REMSYN088AAXX  05124 83096 21594 82703 10249 20229 30091 40098 76066 885// 333 20228 59008 60354;
0182830960999992005120518004-10917-037050FM-12+000599999V0201801N004110120019N0020001N1+02461+02361100791ADDAA106001091AY151061AY251061GF108991081051012501999999MA1999999100721MD1999999-0131MW1161REMSYN082AAXX  05184 83096 21695 81808 10246 20236 30072 40079 71655 885// 333 59013 60011;
0213830960999992005120600004-10917-037050FM-12+000599999V0202701N001010120019N0010001N1+02411+02351100901ADDAA106001091AY151061AY251061GF108991081051012501999999KA1240M+02961MA1999999100831MD1999999-0031MW1161REMSYN100AAXX  06004 83096 21694 82702 10241 20235 30083 40090 71655 885// 333 10296 29094 55/// 59003 60011;
0173830960999992005120612004-10917-037050FM-12+000599999V0202701N001510120019N0020001N1+02731+02321100791ADDAA124002091GF105991051011012501001001KA1240N+02391MA1999999100721MD1999999-0191REMSYN082AAXX  06124 83096 22695 52703 10273 20232 30072 40079 85100 333 20239 59019 60024;
0137830960999992005120618004-10917-037050FM-12+000599999V0201401N002610150019N0020001N1+02831+02381100571ADDGF108991081081012501999999MA1999999100501MD1999999-0221REMSYN070AAXX  06184 83096 32695 81405 10283 20238 30050 40057 888// 333 59022;
0137830960999992005120718004-10917-037050FM-12+000599999V0200901N005712200019N0020001N1+02901+02521100561ADDGF101991011011012501001001MA1999999100491MD1999999-0011REMSYN070AAXX  07184 83096 32695 10911 10290 20252 30049 40056 81100 333 59001;
0168830960999992005120800004-10917-037050FM-12+000599999V0200901N005712200019N0020001N1+02651+02411100931ADDGF102991021051012501001001KA1240M+03071MA1999999100861MD1999999+0131REMSYN088AAXX  08004 83096 32695 20911 10265 20241 30086 40093 82500 333 10307 29081 55/// 58013;
0156830960999992005120812004-10917-037050FM-12+000599999V0200901N002612200019N0020001N1+03051+02231101051ADDGF103991031011012501001001KA1240N+02431MA1999999100981MD1999999+0241REMSYN076AAXX  08124 83096 32695 30905 10305 20223 30098 40105 83100 333 20243 58024;
0137830960999992005120818004-10917-037050FM-12+000599999V0200901N007712200019N0020001N1+02861+02441100881ADDGF101991011011012501001001MA1999999100811MD1999999+0321REMSYN070AAXX  08184 83096 32695 10915 10286 20244 30081 40088 81100 333 58032;
0168830960999992005120900004-10917-037050FM-12+000599999V0200901N005112200019N0020001N1+02641+02421101291ADDGF101991011051012501001001KA1240M+03131MA1999999101221MD1999999+0361REMSYN088AAXX  09004 83096 32695 10910 10264 20242 30122 40129 81500 333 10313 29079 55/// 58036;
0156830960999992005120912004-10917-037050FM-12+000599999V0200901N003110120019N0020001N1+02791+02301101311ADDGF105991051051012501001001KA1240N+02451MA1999999101241MD1999999+0261REMSYN076AAXX  09124 83096 32695 50906 10279 20230 30124 40131 85500 333 20245 58026;
0137830960999992005120918004-10917-037050FM-12+000599999V0200901N006712200019N0020001N1+02871+02391101071ADDGF101991011011012501001001MA1999999101001MD1999999+0191REMSYN070AAXX  09184 83096 32695 10913 10287 20239 30100 40107 81100 333 58019;
0168830960999992005121000004-10917-037050FM-12+000599999V0200901N004112200019N0020001N1+02601+02351101331ADDGF101991011051012501001001KA1240M+03031MA1999999101261MD1999999+0041REMSYN088AAXX  10004 83096 32695 10908 10260 20235 30126 40133 81500 333 10303 29080 55/// 58004;
0156830960999992005121012004-10917-037050FM-12+000599999V0200901N004110120019N0020001N1+02851+02331101351ADDGF105991051011012501001001KA1240N+02511MA1999999101281MD1999999+0041REMSYN076AAXX  10124 83096 32695 50908 10285 20233 30128 40135 85100 333 20251 58004;
0137830960999992005121018004-10917-037050FM-12+000599999V0200901N005712200019N0020001N1+02851+02351101111ADDGF102991021011012501001001MA1999999101041MD1999999+0041REMSYN070AAXX  10184 83096 32695 20911 10285 20235 30104 40111 82100 333 58004;
0168830960999992005121100004-10917-037050FM-12+000599999V0200901N004112200019N0020001N1+02601+02331101201ADDGF102991021051012501001001KA1240M+03041MA1999999101131MD1999999-0131REMSYN088AAXX  11004 83096 32695 20908 10260 20233 30113 40120 82500 333 10304 29079 55/// 59013;
0156830960999992005121112004-10917-037050FM-12+000599999V0200901N003612200019N0020001N1+02901+02221101211ADDGF102991021011012501001001KA1240N+02511MA1999999101141MD1999999-0141REMSYN076AAXX  11124 83096 32695 20907 10290 20222 30114 40121 82100 333 20251 59014;
0137830960999992005121118004-10917-037050FM-12+000599999V0200901N005712200019N0020001N1+02821+02331100941ADDGF101991011011012501001001MA1999999100871MD1999999-0171REMSYN070AAXX  11184 83096 32695 10911 10282 20233 30087 40094 81100 333 59017;
0168830960999992005121200004-10917-037050FM-12+000599999V0200901N003112200019N0020001N1+02601+02351101151ADDGF102991021051012501001001KA1240M+03021MA1999999101081MD1999999-0051REMSYN088AAXX  12004 83096 32695 20906 10260 20235 30108 40115 82500 333 10302 29078 55/// 59005;
0156830960999992005121212004-10917-037050FM-12+000599999V0200901N003112200019N0020001N1+02871+02391101171ADDGF103991031011012501001001KA1240N+02471MA1999999101101MD1999999-0041REMSYN076AAXX  12124 83096 32695 30906 10287 20239 30110 40117 83100 333 20247 59004;
0137830960999992005121218004-10917-037050FM-12+000599999V0200901N004110120019N0020001N1+02911+02391101041ADDGF105991051011012501001001MA1999999100971MD1999999+0101REMSYN070AAXX  12184 83096 32695 50908 10291 20239 30097 40104 85100 333 58010;
0168830960999992005121300004-10917-037050FM-12+000599999V0200901N004112200019N0020001N1+02611+02331101181ADDGF102991021051012501001001KA1240M+03061MA1999999101111MD1999999+0031REMSYN088AAXX  13004 83096 32695 20908 10261 20233 30111 40118 82500 333 10306 29080 55/// 58003;
0201830960999992005121312004-10917-037050FM-12+000599999V0200901N003612200019N0020001N1+02831+02271101171ADDAA124002091AY161061AY261061GF102991021011012501001001KA1240N+02471MA1999999101101MD1999999+0021MW1211REMSYN088AAXX  13124 83096 21695 20907 10283 20227 30110 40117 72166 82100 333 20247 58002 60024;
0137830960999992005121318004-10917-037050FM-12+000599999V0200901N004112200019N0020001N1+02861+02291101011ADDGF102991021011012501001001MA1999999100941MD1999999+0031REMSYN070AAXX  13184 83096 32695 20908 10286 20229 30094 40101 82100 333 58003;
0168830960999992005121400004-10917-037050FM-12+000599999V0200901N004112200019N0020001N1+02601+02421101201ADDGF103991031051012501001001KA1240M+03081MA1999999101131MD1999999+0021REMSYN088AAXX  14004 83096 32695 30908 10260 20242 30113 40120 83500 333 10308 29081 55/// 58002;
0156830960999992005121412004-10917-037050FM-12+000599999V0200901N002612200019N0020001N1+02851+02351101191ADDGF103991031011012501001001KA1240N+02481MA1999999101121MD1999999+0021REMSYN076AAXX  14124 83096 32695 30905 10285 20235 30112 40119 83100 333 20248 58002;
0137830960999992005121418004-10917-037050FM-12+000599999V0200901N003112200019N0020001N1+02791+02301100991ADDGF103991031011012501001001MA1999999100921MD1999999-0021REMSYN070AAXX  14184 83096 32695 30906 10279 20230 30092 40099 83100 333 59002;
0168830960999992005121500004-10917-037050FM-12+000599999V02099999999992200019N0020001N1+02601+02441101151ADDGF101991011051012501001001KA1240M+03071MA1999999101081MD1999999-0051REMSYN088AAXX  15004 83096 32695 1//// 10260 20244 30108 40115 81500 333 10307 29082 55/// 59005;
0137830960999992005121518004-10917-037050FM-12+000599999V0200901N004112200019N0020001N1+02831+02291101051ADDGF101991011011012501001001MA1999999100981MD1999999+0061REMSYN070AAXX  15184 83096 32695 10908 10283 20229 30098 40105 81100 333 58006;
0168830960999992005121600004-10917-037050FM-12+000599999V0200901N003112200019N0020001N1+02591+02351101271ADDGF102991021051012501001001KA1240M+03031MA1999999101201MD1999999+0121REMSYN088AAXX  16004 83096 32695 20906 10259 20235 30120 40127 82500 333 10303 29081 55089 58012;
0156830960999992005121612004-10917-037050FM-12+000599999V0200901N003112200019N0020001N1+02851+02221101271ADDGF102991021011012501001001KA1240N+02471MA1999999101201MD1999999+0101REMSYN076AAXX  16124 83096 32695 20906 10285 20222 30120 40127 82100 333 20247 58010;
0137830960999992005121618004-10917-037050FM-12+000599999V0200901N003112200019N0020001N1+02871+02231101141ADDGF102991021011012501001001MA1999999101071MD1999999+0091REMSYN070AAXX  16184 83096 32695 20906 10287 20223 30107 40114 82100 333 58009;
0168830960999992005121700004-10917-037050FM-12+000599999V0200901N002612200019N0020001N1+02601+02231101311ADDGF102991021051012501001001KA1240M+03021MA1999999101241MD1999999+0041REMSYN088AAXX  17004 83096 32695 20905 10260 20223 30124 40131 82500 333 10302 29074 55099 58004;
0137830960999992005121718004-10917-037050FM-12+000599999V0200901N002112200019N0020001N1+02871+02281101291ADDGF101991011011012501001001MA1999999101221MD1999999+0151REMSYN070AAXX  17184 83096 32695 10904 10287 20228 30122 40129 81100 333 58015;
0168830960999992005121800004-10917-037050FM-12+000599999V0200901N003110120019N0020001N1+02691+02331101431ADDGF105991051051012501001001KA1240M+03041MA1999999101361MD1999999+0121REMSYN088AAXX  18004 83096 32695 50906 10269 20233 30136 40143 85500 333 10304 29075 55092 58012;
0201830960999992005121812004-10917-037050FM-12+000599999V0200901N003112200019N0020001N1+02871+02371101431ADDAA124000591AY151061AY251061GF103991031011012501001001KA1240N+02491MA1999999101361MD1999999+0001MW1011REMSYN088AAXX  18124 83096 21695 30906 10287 20237 30136 40143 70155 83100 333 20249 58000 69964;
0137830960999992005121818004-10917-037050FM-12+000599999V0200901N003112200019N0020001N1+02911+02341101321ADDGF101991011011012501001001MA1999999101251MD1999999+0031REMSYN070AAXX  18184 83096 32695 10906 10291 20234 30125 40132 81100 333 58003;
0168830960999992005121900004-10917-037050FM-12+000599999V0200901N002612200019N0020001N1+02671+02391101371ADDGF103991031051012501001001KA1240M+03061MA1999999101301MD1999999-0061REMSYN088AAXX  19004 83096 32695 30905 10267 20239 30130 40137 83500 333 10306 29079 55109 59006;
0220830960999992005121912004-10917-037050FM-12+000599999V0200901N002119999999N0020001N1+02741+02361101371ADDAA124000391AY151061AY251061GF105991999051012501001001KA1240N+02461MA1999999101301MD1999999-0061MW1011REMSYN088AAXX  19124 83096 21695 50904 10274 20236 30130 40137 70155 86500 333 20246 59006 69934;EQDQ01+000062SCOTLC
0137830960999992005121918004-10917-037050FM-12+000599999V0200901N002610120019N0020001N1+02851+02581101301ADDGF106991061011012501001001MA1999999101231MD1999999-0021REMSYN070AAXX  19184 83096 32695 60905 10285 20258 30123 40130 86100 333 59002;
0168830960999992005122000004-10917-037050FM-12+000599999V0200901N003112200019N0020001N1+02651+02351101421ADDGF102991021051012501001001KA1240M+03051MA1999999101351MD1999999+0051REMSYN088AAXX  20004 83096 32695 20906 10265 20235 30135 40142 82500 333 10305 29081 55038 58005;
0137830960999992005122018004-10917-037050FM-12+000599999V0200901N003112200019N0020001N1+02901+02301101391ADDGF101991011011012501001001MA1999999101321MD1999999+0091REMSYN070AAXX  20184 83096 32695 10906 10290 20230 30132 40139 81100 333 58009;
0168830960999992005122100004-10917-037050FM-12+000599999V0200901N002112200019N0020001N1+02631+02331101521ADDGF102991021051012501001001KA1240M+03061MA1999999101451MD1999999+0101REMSYN088AAXX  21004 83096 32695 20904 10263 20233 30145 40152 82500 333 10306 29078 55103 58010;
0156830960999992005122112004-10917-037050FM-12+000599999V0200901N003112200019N0020001N1+02871+02281101461ADDGF102991021011012501001001KA1240N+02451MA1999999101391MD1999999-0011REMSYN076AAXX  21124 83096 32695 20906 10287 20228 30139 40146 82100 333 20245 59001;
0137830960999992005122118004-10917-037050FM-12+000599999V0200901N003112200019N0020001N1+02891+02371101331ADDGF102991021051012501001001MA1999999101261MD1999999-0061REMSYN070AAXX  21184 83096 32695 20906 10289 20237 30126 40133 82500 333 59006;
0168830960999992005122200004-10917-037050FM-12+000599999V0200901N003112200019N0020001N1+02621+02291101481ADDGF102991021051012501001001KA1240M+03081MA1999999101411MD1999999-0041REMSYN088AAXX  22004 83096 32695 20906 10262 20229 30141 40148 82500 333 10308 29077 55117 59004;
0156830960999992005122212004-10917-037050FM-12+000599999V0200901N002112200019N0020001N1+02891+02251101451ADDGF103991031011012501001001KA1240N+02451MA1999999101281MD1999999-0011REMSYN076AAXX  22124 83096 32695 30904 10289 20225 30128 40145 83100 333 20245 59001;
0137830960999992005122218004-10917-037050FM-12+000599999V0200901N003112200019N0020001N1+02921+02191101311ADDGF101991011011012501001001MA1999999101241MD1999999-0021REMSYN070AAXX  22184 83096 32695 10906 10292 20219 30124 40131 81100 333 59002;
0168830960999992005122300004-10917-037050FM-12+000599999V0200901N002612200019N0020001N1+02641+02181101461ADDGF101991011051012501001001KA1240M+03091MA1999999101391MD1999999-0021REMSYN088AAXX  23004 83096 32695 10905 10264 20218 30139 40146 81500 333 10309 29071 55110 59002;
0156830960999992005122312004-10917-037050FM-12+000599999V0200901N002112200019N0020001N1+02871+02061101471ADDGF101991011011012501001001KA1240N+02301MA1999999101401MD1999999+0021REMSYN076AAXX  23124 83096 32695 10904 10287 20206 30140 40147 81100 333 20230 58002;
0137830960999992005122318004-10917-037050FM-12+000599999V0200901N002612200019N0020001N1+02831+02521101231ADDGF101991011011012501001001MA1999999101161MD1999999-0081REMSYN070AAXX  23184 83096 32695 10905 10283 20252 30116 40123 81100 333 59008;
0168830960999992005122400004-10917-037050FM-12+000599999V0200901N003112200019N0020001N1+02611+02191101351ADDGF101991011051012501001001KA1240M+03061MA1999999101281MD1999999-0111REMSYN088AAXX  24004 83096 32695 10906 10261 20219 30128 40135 81500 333 10306 29073 55116 59011;
0156830960999992005122412004-10917-037050FM-12+000599999V0200901N004110120019N0020001N1+02641+02231101491ADDGF106991061011012501001001KA1240N+02511MA1999999101421MD1999999+0021REMSYN076AAXX  24124 83096 32695 60908 10264 20223 30142 40149 86100 333 20251 58002;
0137830960999992005122418004-10917-037050FM-12+000599999V0200901N005112200019N0020001N1+02901+02221101221ADDGF101991011011012501001001MA1999999101151MD1999999-0011REMSYN070AAXX  24184 83096 32695 10910 10290 20222 30115 40122 81100 333 59001;
0168830960999992005122500004-10917-037050FM-12+000599999V0200901N003112200019N0020001N1+02621+02161101321ADDGF101991011051012501001001KA1240M+03061MA1999999101251MD1999999-0331REMSYN088AAXX  25004 83096 32695 10906 10262 20216 30125 40132 81500 333 10306 29074 55077 59033;
0156830960999992005122512004-10917-037050FM-12+000599999V0200901N003112200019N0020001N1+02921+02241101401ADDGF101991011011012501001001KA1240N+02411MA1999999101331MD1999999-0091REMSYN076AAXX  25124 83096 32695 10906 10292 20224 30133 40140 81100 333 20241 59009;
0137830960999992005122518004-10917-037050FM-12+000599999V0200901N004112200019N0020001N1+02871+02251101161ADDGF101991011011012501001001MA1999999101091MD1999999-0061REMSYN070AAXX  25184 83096 32695 10908 10287 20225 30109 40116 81100 333 59006;
0168830960999992005122600004-10917-037050FM-12+000599999V0200901N003612200019N0020001N1+02621+02251101341ADDGF101991011051012501001001KA1240M+03071MA1999999101271MD1999999+0021REMSYN088AAXX  26004 83096 32695 10907 10262 20225 30127 40134 81500 333 10307 29074 55118 58002;
0156830960999992005122612004-10917-037050FM-12+000599999V0200901N003112200019N0020001N1+02871+02161101311ADDGF103991031011012501001001KA1240N+02331MA1999999101241MD1999999-0091REMSYN076AAXX  26124 83096 32695 30906 10287 20216 30124 40131 83100 333 20233 59009;
0137830960999992005122618004-10917-037050FM-12+000599999V0200901N004112200019N0020001N1+02891+02131101161ADDGF101991011011012501001001MA1999999101091MD1999999+0001REMSYN070AAXX  26184 83096 32695 10908 10289 20213 30109 40116 81100 333 58000;
0168830960999992005122700004-10917-037050FM-12+000599999V0200901N004112200019N0020001N1+02641+02141101281ADDGF101991011051012501001001KA1240M+03061MA1999999101211MD1999999-0061REMSYN088AAXX  27004 83096 32695 10908 10264 20214 30121 40128 81500 333 10306 29070 55116 59006;
0156830960999992005122712004-10917-037050FM-12+000599999V0200901N002112200019N0020001N1+02851+02171101211ADDGF103991031011012501001001KA1240N+02331MA1999999101141MD1999999-0101REMSYN076AAXX  27124 83096 32695 30904 10285 20217 30114 40121 83100 333 20233 59010;
0137830960999992005122718004-10917-037050FM-12+000599999V0200901N003110120019N0020001N1+02871+02161101061ADDGF105991051011012501001001MA1999999100991MD1999999-0101REMSYN070AAXX  27184 83096 32695 50906 10287 20216 30099 40106 85100 333 59010;
0168830960999992005122800004-10917-037050FM-12+000599999V0200901N003112200019N0020001N1+02601+02351101181ADDGF101991011051012501001001KA1240M+03061MA1999999101111MD1999999-0101REMSYN088AAXX  28004 83096 32695 10906 10260 20235 30111 40118 81500 333 10306 29076 55080 59010;
0201830960999992005122812004-10917-037050FM-12+000599999V0200501N001510120019N0020001N1+02571+02271101191ADDAA124016091AY161061AY261061GF106991061051012501001001KA1240N+02331MA1999999101121MD1999999-0021MW1011REMSYN088AAXX  28124 83096 21695 60503 10257 20227 30112 40119 70166 86500 333 20233 59002 60164;
0137830960999992005122818004-10917-037050FM-12+000599999V0200901N004110120019N0020001N1+02781+02141101071ADDGF105991051051012501001001MA1999999101001MD1999999+0011REMSYN070AAXX  28184 83096 32695 50908 10278 20214 30100 40107 85500 333 58001;
0168830960999992005122900004-10917-037050FM-12+000599999V0200901N005110120019N0020001N1+02651+02311101311ADDGF105991051051012501001001KA1240M+02981MA1999999101241MD1999999+0131REMSYN088AAXX  29004 83096 32695 50910 10265 20231 30124 40131 85500 333 10298 29079 55046 58013;
0156830960999992005122912004-10917-037050FM-12+000599999V0200901N004110120019N0020001N1+02891+02281101271ADDGF105991051011012501001001KA1240N+02451MA1999999101201MD1999999+0081REMSYN076AAXX  29124 83096 32695 50908 10289 20228 30120 40127 85100 333 20245 58008;
0137830960999992005122918004-10917-037050FM-12+000599999V0200901N003112200019N0020001N1+02871+02261101101ADDGF102991021011012501001001MA1999999101031MD1999999+0031REMSYN070AAXX  29184 83096 32695 20906 10287 20226 30103 40110 82100 333 58003;
0168830960999992005123000004-10917-037050FM-12+000599999V0200901N003112200019N0020001N1+02651+02291101341ADDGF102991021051012501001001KA1240M+03011MA1999999101271MD1999999-0031REMSYN088AAXX  30004 83096 32695 20906 10265 20229 30127 40134 82500 333 10301 29075 55066 59003;
0156830960999992005123012004-10917-037050FM-12+000599999V0200901N002112200019N0020001N1+02891+02281101311ADDGF103991031011012501001001KA1240N+02391MA1999999101341MD1999999+0041REMSYN076AAXX  30124 83096 32695 30904 10289 20228 30134 40131 83100 333 20239 58004;
0137830960999992005123018004-10917-037050FM-12+000599999V0200901N001510120019N0020001N1+02591+02231101201ADDGF106991061051012501001001MA1999999101131MD1999999+0101REMSYN070AAXX  30184 83096 32695 60903 10259 20223 30113 40120 86500 333 58010;
0173830960999992005123112004-10917-037050FM-12+000599999V0200901N002612200019N0020001N1+02811+02271101271ADDAA124000591GF104991041011012501001001KA1240N+02431MA1999999101201MD1999999-0041REMSYN082AAXX  31124 83096 22695 40905 10281 20227 30120 40127 84100 333 20243 59004 69964;
0182830960999992005123118004-10917-037050FM-12+000599999V0200901N002112200019N0020001N1+02751+02261101241ADDAA106000591AY151061AY251061GF104991041051012501001001MA1999999101171MD1999999+0041MW1201REMSYN082AAXX  31184 83096 21695 40904 10275 20226 30117 40124 72055 84500 333 58004 69951;
