0214831820999992005010100004-11300-041867FM-12+074799999V0200901N002119999999N0010001N1+02671+01691100971ADDAA106000091GF108991001001999999001011KA1240M+03221MA1999999092911MD1999999+0031REMSYN088AAXX  01004 83182 32994 80904 10267 20169 39291 40097 88001 333 10322 29/// 55088 58003;EQDQ01+000082SCOTLCQ02  00002PRCP06
0156831820999992005010112004-11300-041867FM-12+074799999V0200901N003619999999N0100001N1+99999+99999999999ADDAA106000091GF108991999999008001999999KA1240N+01821REMSYN075AAXX  01124 83182 32597 80907 1027 20181 39304 40109 81201 333 20182 59016;EQDQ01  00002PRCP06
0198831820999992005010200004-11300-041867FM-12+074799999V02099999999990450019N0010001N1+02641+01631100911ADDAA106000091GF108991031051008001041011KA1240M+03281MA1999999092911MD1999999+0001REMSYN088AAXX  02004 83182 32594 809// 10264 20163 39291 40091 83541 333 10328 29/// 55083 58000;EQDQ01  00002PRCP06
0172831820999992005020112004-11300-041867FM-12+074799999V02099999999991050019N0100001N1+02501+01941999999ADDAA106000091GF108991011021008001001021KA1240N+01681MA1999999092851REMSYN076AAXX  01124 83182 32597 809// 10250 20194 39285 4//// 81202 333 20168 5////;EQDQ01  00002PRCP06
0212831820999992005020200004-11300-041867FM-12+074799999V02099999999990450019N0010001N1+02241+01211999999ADDAA106000091AY121061AY221061GF108991041031008001021021KA1240M+03041MA1999999092721MW1131REMSYN094AAXX  02004 83182 31594 818// 10224 20121 39272 4//// 71322 84322 333 10304 29/// 55032 5////;EQDQ01  00002PRCP06
0186831820999992005020212004-11300-041867FM-12+074799999V0200901N004110450019N0100001N1+02501+01841101031ADDAA106000091GF108991021021008001041011KA1240N+01801MA1999999092861MD1999999+0011REMSYN076AAXX  02124 83182 32597 80908 10250 20184 39286 40103 82241 333 20180 58001;EQDQ01  00002PRCP06
0198831820999992005020300004-11300-041867FM-12+074799999V0201401N001510075019N0010001N1+02401+01771100921ADDAA106000091GF108991081051008001999999KA1240M+02971MA1999999092791MD1999999+0071REMSYN088AAXX  03004 83182 32594 81403 10240 20177 39279 40092 885// 333 10297 29/// 55084 58007;EQDQ01  00002PRCP06
0186831820999992005020312004-11300-041867FM-12+074799999V0200901N005110450019N0100001N1+02531+01901101151ADDAA106000091GF108991011021008001041011KA1240N+01891MA1999999093011MD1999999+0151REMSYN076AAXX  03124 83182 32597 80910 10253 20190 39301 40115 81241 333 20189 58015;EQDQ01  00002PRCP06
0198831820999992005020400004-11300-041867FM-12+074799999V0201401N003110450019N0010001N1+02351+01681101161ADDAA106000091GF108991011021008001041011KA1240M+03041MA1999999093011MD1999999+0221REMSYN088AAXX  04004 83182 32594 81406 10235 20168 39301 40116 81241 333 10304 29/// 55098 58022;EQDQ01  00002PRCP06
0186831820999992005020412004-11300-041867FM-12+074799999V0201401N005112200019N0100001N1+02541+01651101381ADDAA106000091GF108991021021008001001011KA1240N+01681MA1999999093201MD1999999+0191REMSYN076AAXX  04124 83182 32597 81410 10254 20165 39320 40138 82201 333 20168 58019;EQDQ01  00002PRCP06
0208831820999992005020500004-11300-041867FM-12+074799999V0200901N003112200019N0010001N1+02331+01201101231ADDAA106000091GA1001+999999999GF100991001001999999001001KA1240M+03111MA1999999093081MD1999999+0071REMSYN082AAXX  05004 83182 32994 00906 10233 20120 39308 40123 333 10311 29/// 55113 58007;EQDQ01  00002PRCP06
0186831820999992005020512004-11300-041867FM-12+074799999V0201401N005112200019N0100001N1+02461+01811101401ADDAA106000091GF108991041021008001001011KA1240N+01621MA1999999093221MD1999999+0021REMSYN076AAXX  05124 83182 32597 81410 10246 20181 39322 40140 84201 333 20162 58002;EQDQ01  00002PRCP06
0198831820999992005020600004-11300-041870FM-12+074799999V0200901N003619999999N0010001N1+02641+01631101061ADDAA106000091GF108991001001999999001011KA1240M+03281MA1999999092951MD1999999-0131REMSYN088AAXX  06004 83182 32994 80907 10264 20163 39295 40106 80001 333 10328 29/// 55114 59013;EQDQ01  00002PRCP06
0186831820999992005020612004-11300-041870FM-12+074799999V0201401N005112200019N0100001N1+02561+01831101271ADDAA106000091GF108991011011012501001011KA1240N+01781MA1999999093161MD1999999-0061REMSYN076AAXX  06124 83182 32697 81410 10256 20183 39316 40127 81101 333 20178 59006;EQDQ01  00002PRCP06
0186831820999992005020712004-11300-041867FM-12+074799999V0200901N005112200019N0100001N1+02621+01761101251ADDAA106000091GF108991021021008001001011KA1240N+01751MA1999999093131MD1999999-0031REMSYN076AAXX  07124 83182 32597 80910 10262 20176 39313 40125 82201 333 20175 59003;EQDQ01  00002PRCP06
0208831820999992005020800004-11300-041867FM-12+074799999V0200901N004612200019N0010001N1+02551+01771100871ADDAA106000091GA1001+999999999GF100991001001999999001001KA1240M+03201MA1999999092801MD1999999-0011REMSYN082AAXX  08004 83182 32994 00909 10255 20177 39280 40087 333 10320 29/// 55115 59001;EQDQ01  00002PRCP06
0186831820999992005020812004-11300-041867FM-12+074799999V0201401N007212200019N0100001N1+02631+01821101061ADDAA106000091GF108991021021008001001011KA1240N+01691MA1999999092971MD1999999-0161REMSYN076AAXX  08124 83182 32597 81414 10263 20182 39297 40106 82201 333 20169 59016;EQDQ01  00002PRCP06
0186831820999992005020912004-11300-041867FM-12+074799999V0201401N006210450019N0100001N1+02401+01651101211ADDAA106000091GF108991021021008001041011KA1240N+01701MA1999999093051MD1999999+0081REMSYN076AAXX  09124 83182 32597 81412 10240 20165 39305 40121 82241 333 20170 58008;EQDQ01  00002PRCP06
0192831820999992005021000004-11300-041867FM-12+074799999V0200901N003619999999N0010001N1+02471+01641100841ADDAA106000091GF108991999999999999999999KA1240M+03201MA1999999092721MD1999999-0231REMSYN082AAXX  10004 83182 32994 80907 10247 20164 39272 40084 333 10320 29/// 55085 59023;EQDQ01  00002PRCP06
0186831820999992005021012004-11300-041867FM-12+074799999V0201401N005110120019N0100001N1+02531+01721100981ADDAA106000091GF108991051011012501001011KA1240N+01721MA1999999092861MD1999999-0191REMSYN076AAXX  10124 83182 32697 81410 10253 20172 39286 40098 85101 333 20172 59019;EQDQ01  00002PRCP06
0226831820999992005021100004-11300-041867FM-12+074799999V0201401N002612200019N0010001N1+02661+01771100791ADDAA106000091AY121061AY221061GF108991041031008001001011KA1240M+03321MA1999999092731MD1999999+0011MW1131REMSYN094AAXX  11004 83182 31594 81405 10266 20177 39273 40079 71322 84301 333 10332 29/// 55098 58001;EQDQ01  00002PRCP06
0186831820999992005021112004-11300-041867FM-12+074799999V0200901N003112200019N0100001N1+02661+01871100901ADDAA106000091GF103991031021008001001001KA1240N+01801MA1999999092851MD1999999-0011REMSYN076AAXX  11124 83182 32597 30906 10266 20187 39285 40090 83200 333 20180 59001;EQDQ01  00002PRCP06
0202831820999992005021200004-11300-041867FM-12+074799999V0201401N001510042019N0010001N1+02341+02051100751ADDAY161061AY221061GF108991061031004501021999KA1240M+03331MA1999999092671MD1999999-0061MW1131REMSYN100AAXX  12004 83182 21494 81403 10234 20205 39267 40075 71362 8632/ 333 10333 29/// 55098 59006 60081;
0190831820999992005021212004-11300-041867FM-12+074799999V0200501N001510042019N0020001N1+02031+01981101241ADDAY161061AY261061GF108991061071004501021999KA1240N+01731MA1999999093001MD1999999+0151MW1611REMSYN088AAXX  12124 83182 21495 80503 10203 20198 39300 40124 76166 8672/ 333 20173 58015 60664;
0189831820999992005021300004-11300-041870FM-12+074799999V0203601N001010042019N0010001N1+02241+02031101091ADDAY161061AY261061GF108991051071004501021999MA1999999092851MD1999999+0181MW1021REMSYN100AAXX  13004 83182 21494 83602 10224 20203 39285 40109 70266 8572/ 333 1//// 29/// 55000 58018 60061;
0190831820999992005021312004-11300-041870FM-12+074799999V0203201N000510450019N0100001N1+02401+02031101221ADDAY161061AY221061GF108991031021008001041041KA1240N+01781MA1999999093011MD1999999+0011MW1031REMSYN088AAXX  13124 83182 21597 83201 10240 20203 39301 40122 70362 83244 333 20178 58001 60074;
0198831820999992005021400004-11300-041867FM-12+074799999V0202301N000510075019N0010001N1+02311+02061101031ADDAA106000091GF108991081051008001999999KA1240M+02821MA1999999092861MD1999999+0011REMSYN088AAXX  14004 83182 32594 82301 10231 20206 39286 40103 885// 333 10282 29/// 55080 58001;EQDQ01  00002PRCP06
0190831820999992005021412004-11300-041867FM-12+074799999V0203201N002110450019N0100001N1+02361+01991101091ADDAY161061AY221061GF108991041071004501021999KA1240N+01801MA1999999092921MD1999999-0091MW1021REMSYN088AAXX  14124 83182 21497 83204 10236 20199 39292 40109 70262 8472/ 333 20180 59009 69924;
0202831820999992005021500004-11300-041867FM-12+074799999V0202701N002610042019N0010001N1+02311+02101100921ADDAY161061AY221061GF108991051031004501021999KA1240M+02741MA1999999092761MD1999999-0101MW1131REMSYN100AAXX  15004 83182 21494 82705 10231 20210 39276 40092 71362 8532/ 333 10274 29/// 55043 59010 60021;
0209831820999992005021512004-11300-041867FM-12+074799999V0203201N003110042019N0020001N1+02081+02031101061ADDAY161061AY261061GF108991999071004501021999KA1240N+01761MA1999999092841MD1999999+0081MW1611REMSYN088AAXX  15124 83182 21495 83206 10208 20203 39284 40106 76166 8872/ 333 20176 58008 60394;EQDQ01+000082SCOTLC
0202831820999992005021600004-11300-041867FM-12+074799999V0203201N001510450019N0010001N1+02121+02071101021ADDAY161061AY261061GF108991041071004501021999KA1240M+02531MA1999999092751MD1999999-0011MW1401REMSYN100AAXX  16004 83182 21494 83203 10212 20207 39275 40102 74066 8472/ 333 10253 29/// 55017 59001 60021;
0162831820999992005021612004-11300-041867FM-12+074799999V0202701N001510042019N0100001N1+02301+02011101051ADDGF108991061071004501021999KA1240N+01881MA1999999092831MD1999999-0011REMSYN082AAXX  16124 83182 22497 82703 10230 20201 39283 40105 8672/ 333 20188 59001 60024;
0202831820999992005021700004-11300-041867FM-12+074799999V0200901N001010075019N0010001N1+02101+01641101061ADDAY161061AY221061GF108991061051008001061999KA1240M+02671MA1999999092841MD1999999+0091MW1021REMSYN100AAXX  17004 83182 21594 80902 10210 20164 39284 40106 70262 8656/ 333 10267 29/// 55015 58009 60101;
0190831820999992005021712004-11300-041867FM-12+074799999V0200901N001010450019N0100001N1+02331+02021101321ADDAY161061AY221061GF108991041071004501011999KA1240N+01781MA1999999093081MD1999999+0251MW1021REMSYN088AAXX  17124 83182 21497 80902 10233 20202 39308 40132 70262 8471/ 333 20178 58025 60134;
0202831820999992005021800004-11300-041867FM-12+074799999V0200901N001510042019N0010001N1+02231+02001101251ADDAY161061AY221061GF108991061071004501021999KA1240M+02781MA1999999093051MD1999999+0211MW1021REMSYN100AAXX  18004 83182 21494 80903 10223 20200 39305 40125 70262 8672/ 333 10278 29/// 55/// 58021 69941;
0198831820999992005021900004-11300-041867FM-12+074799999V0200901N003119999999N0010001N1+02231+01831101271ADDAA106000091GF108991001001999999001011KA1240M+02961MA1999999093081MD1999999+0031REMSYN088AAXX  19004 83182 32994 80906 10223 20183 39308 40127 80001 333 10296 29/// 55061 58003;EQDQ01  00002PRCP06
0186831820999992005021912004-11300-041867FM-12+074799999V0201401N005710450019N0100001N1+02471+01931101401ADDAA106000091GF108991021021008001041011KA1240N+01651MA1999999093201MD1999999-0021REMSYN076AAXX  19124 83182 32597 81411 10247 20193 39320 40140 82241 333 20165 59002;EQDQ01  00002PRCP06
0198831820999992005022000004-11300-041870FM-12+074799999V0200901N002619999999N0010001N1+02321+01961101111ADDAA106000091GF108991001001999999001011KA1240M+03011MA1999999092951MD1999999-0131REMSYN088AAXX  20004 83182 32994 80905 10232 20196 39295 40111 80001 333 10301 29/// 55112 59013;EQDQ01  00002PRCP06
0186831820999992005022012004-11300-041870FM-12+074799999V0200901N001512200019N0100001N1+02601+01961101191ADDAA106000091GF108991021021008001001011KA1240N+01661MA1999999093051MD1999999-0151REMSYN076AAXX  20124 83182 32597 80903 10260 20196 39305 40119 82201 333 20166 59015;EQDQ01  00002PRCP06
0198831820999992005022100004-11300-041867FM-12+074799999V0201401N003110075019N0010001N1+02281+02011100871ADDAA106000091GF108991061051008001021999KA1240M+03101MA1999999092751MD1999999-0201REMSYN088AAXX  21004 83182 32594 81406 10228 20201 39275 40087 8652/ 333 10310 29/// 55079 59020;EQDQ01  00002PRCP06
0186831820999992005022112004-11300-041867FM-12+074799999V0200901N001010450019N0100001N1+02701+02011100921ADDAA106000091GF108991021021008001051011KA1240N+01841MA1999999092811MD1999999-0241REMSYN076AAXX  21124 83182 32597 80902 10270 20201 39281 40092 82251 333 20184 59024;EQDQ01  00002PRCP06
0202831820999992005022200004-11300-041867FM-12+074799999V0201401N002110042019N0010001N1+02151+02081100941ADDAY161061AY261061GF108991061071004501021999KA1240M+02851MA1999999092801MD1999999+0051MW1611REMSYN100AAXX  22004 83182 21494 81404 10215 20208 39280 40094 76166 8672/ 333 10285 29/// 55036 58005 60071;
0162831820999992005022212004-11300-041867FM-12+074799999V0200501N002110075019N0100001N1+02561+02021101051ADDGF108991051021008001061011KA1240N+01741MA1999999092881MD1999999+0071REMSYN082AAXX  22124 83182 22597 80504 10256 20202 39288 40105 85261 333 20174 58007 60074;
0202831820999992005022300004-11300-041867FM-12+074799999V0203601N001510450019N0010001N1+02051+02001101161ADDAY161061AY261061GF108991021071004501021999KA1240M+02701MA1999999093021MD1999999+0221MW1021REMSYN100AAXX  23004 83182 21494 83603 10205 20200 39302 40116 70266 8272/ 333 10270 29/// 55027 58022 60341;
0162831820999992005022312004-11300-041867FM-12+074799999V0200901N003110450019N0100001N1+02441+02011101331ADDGF108991021021008001051011KA1240N+01721MA1999999093101MD1999999+0221REMSYN082AAXX  23124 83182 22597 80906 10244 20201 39310 40133 82251 333 20172 58022 60344;
0202831820999992005022400004-11300-041867FM-12+074799999V0200901N003610450019N0010001N1+02331+01961101291ADDAY161061AY221061GF108991011031008001051021KA1240M+02881MA1999999093121MD1999999+0101MW1131REMSYN100AAXX  24004 83182 21594 80907 10233 20196 39312 40129 71362 81352 333 10288 29/// 55048 58010 69921;
0162831820999992005022412004-11300-041867FM-12+074799999V0200901N005110450019N0100001N1+02601+02171101421ADDGF108991021021008001041021KA1240N+01881MA1999999093271MD1999999+0171REMSYN082AAXX  24124 83182 22597 80910 10260 20217 39327 40142 82242 333 20188 58017 69924;
0198831820999992005022500004-11300-041867FM-12+074799999V0201401N002610450019N0010001N1+02301+02031101291ADDAA106000091GF108991021021008001051021KA1240M+02891MA1999999093061MD1999999-0061REMSYN088AAXX  25004 83182 32594 81405 10230 20203 39306 40129 82252 333 10289 29/// 55066 59006;EQDQ01  00002PRCP06
0186831820999992005022512004-11300-041867FM-12+074799999V0200901N002612200019N0100001N1+02561+01931101361ADDAA106000091GF101991011021008001001001KA1240N+01721MA1999999093201MD1999999-0071REMSYN076AAXX  25124 83182 32597 10905 10256 20193 39320 40136 81200 333 20172 59007;EQDQ01  00002PRCP06
0208831820999992005022600004-11300-041867FM-12+074799999V0200901N003612200019N0010001N1+02291+01951101101ADDAA106000091GA1001+999999999GF100991001001999999001001KA1240M+03021MA1999999092961MD1999999-0101REMSYN082AAXX  26004 83182 32994 00907 10229 20195 39296 40110 333 10302 29/// 55100 59010;EQDQ01  00002PRCP06
0186831820999992005022612004-11300-041867FM-12+074799999V0200901N002612200019N0100001N1+02631+01861101261ADDAA106000091GF108991021021008001001011KA1240N+01661MA1999999093111MD1999999-0091REMSYN076AAXX  26124 83182 32597 80905 10263 20186 39311 40126 82201 333 20166 59009;EQDQ01  00002PRCP06
0198831820999992005022700004-11300-041870FM-12+074799999V0200901N003119999999N0010001N1+02431+02061101041ADDAA106000091GF108991001001999999001011KA1240M+03071MA1999999092921MD1999999-0041REMSYN088AAXX  27004 83182 32994 80906 10243 20206 39292 40104 80001 333 10307 29/// 55108 59004;EQDQ01  00002PRCP06
0186831820999992005022712004-11300-041870FM-12+074799999V0201401N003112200019N0100001N1+02751+02151101071ADDAA106000091GF108991021011012501001011KA1240N+01781MA1999999092981MD1999999+0011REMSYN076AAXX  27124 83182 32697 81406 10275 20215 39298 40107 82101 333 20178 58001;EQDQ01  00002PRCP06
0226831820999992005022800004-11300-041867FM-12+074799999V0200901N003610450019N0010001N1+02421+01931101101ADDAA106000091AY121061AY221061GF108991011031008001051021KA1240M+03291MA1999999093011MD1999999+0091MW1131REMSYN094AAXX  28004 83182 31594 80907 10242 20193 39301 40110 71322 81352 333 10329 29/// 55095 58009;EQDQ01  00002PRCP06
0186831820999992005022812004-11300-041867FM-12+074799999V0201401N003112200019N0100001N1+02661+01971101281ADDAA106000091GF108991011021008001001011KA1240N+01801MA1999999093161MD1999999+0181REMSYN076AAXX  28124 83182 32597 81406 10266 20197 39316 40128 81201 333 20180 58018;EQDQ01  00002PRCP06
0198831820999992005030100004-11300-041867FM-12+074799999V0200901N003112200019N0010001N1+02491+01921101091ADDAA106000091GF108991011001017501041011KA1240M+03161MA1999999093001MD1999999-0011REMSYN088AAXX  01004 83182 32794 80906 10249 20192 39300 40109 81041 333 10316 29/// 55104 59001;EQDQ01  00002PRCP06
0186831820999992005030112004-11300-041867FM-12+074799999V0201401N002612200019N0100001N1+02651+01861101231ADDAA106000091GF108991031021008001001011KA1240N+01781MA1999999093111MD1999999-0051REMSYN076AAXX  01124 83182 32597 81405 10265 20186 39311 40123 83201 333 20178 59005;EQDQ01  00002PRCP06
0198831820999992005030200004-11300-041867FM-12+074799999V0200901N003119999999N0010001N1+02441+01901101011ADDAA106000091GF108991001001999999001011KA1240M+03141MA1999999092911MD1999999-0091REMSYN088AAXX  02004 83182 32994 80906 10244 20190 39291 40101 80001 333 10314 29/// 55109 59009;EQDQ01  00002PRCP06
0186831820999992005030212004-11300-041867FM-12+074799999V0201401N002612200019N0100001N1+02601+01891101171ADDAA106000091GF108991011011012501001011KA1240N+01761MA1999999093041MD1999999-0071REMSYN076AAXX  02124 83182 32697 81405 10260 20189 39304 40117 81101 333 20176 59007;EQDQ01  00002PRCP06
0198831820999992005030300004-11300-041867FM-12+074799999V0201401N002619999999N0010001N1+02331+02171101121ADDAA106000091GF108991001001999999001011KA1240M+03261MA1999999092991MD1999999+0081REMSYN088AAXX  03004 83182 32994 81405 10233 20217 39299 40112 80001 333 10326 29/// 55078 58008;EQDQ01  00002PRCP06
0186831820999992005030312004-11300-041867FM-12+074799999V0201401N006212200019N0100001N1+02461+01811101361ADDAA106000091GF108991011021008001001011KA1240N+01701MA1999999093181MD1999999+0041REMSYN076AAXX  03124 83182 32597 81412 10246 20181 39318 40136 81201 333 20170 58004;EQDQ01  00002PRCP06
0198831820999992005030400004-11300-041867FM-12+074799999V0201401N002619999999N0010001N1+02301+01611101201ADDAA106000091GF108991001001999999001011KA1240M+03021MA1999999093041MD1999999+0041REMSYN088AAXX  04004 83182 32994 81405 10230 20161 39304 40120 80001 333 10302 29/// 55108 58004;EQDQ01  00002PRCP06
0186831820999992005030412004-11300-041867FM-12+074799999V0200901N004612200019N0100001N1+02461+01811101431ADDAA106000091GF108991011021008001001011KA1240N+01641MA1999999093251MD1999999+0071REMSYN076AAXX  04124 83182 32597 80909 10246 20181 39325 40143 81201 333 20164 58007;EQDQ01  00002PRCP06
0198831820999992005030500004-11300-041867FM-12+074799999V0200901N003119999999N0010001N1+02331+01831101271ADDAA106000091GF108991001001999999001011KA1240M+02961MA1999999093101MD1999999+0061REMSYN088AAXX  05004 83182 32994 80906 10233 20183 39310 40127 80001 333 10296 29/// 55098 58006;EQDQ01  00002PRCP06
0186831820999992005030512004-11300-041867FM-12+074799999V0200901N003612200019N0100001N1+02551+01911101491ADDAA106000091GF108991011021008001001011KA1240N+01781MA1999999093321MD1999999+0071REMSYN076AAXX  05124 83182 32597 80907 10255 20191 39332 40149 81201 333 20178 58007;EQDQ01  00002PRCP06
0198831820999992005030600004-11300-041870FM-12+074799999V0201401N002619999999N0010001N1+02381+01971101261ADDAA106000091GF108991001001999999001011KA1240M+03081MA1999999093111MD1999999+0011REMSYN088AAXX  06004 83182 32994 81405 10238 20197 39311 40126 80001 333 10308 29/// 55065 58001;EQDQ01  00002PRCP06
0186831820999992005030612004-11300-041870FM-12+074799999V0200901N004110450019N0100001N1+02581+01941101271ADDAA106000091GF108991031011012501031011KA1240N+01721MA1999999093141MD1999999+0041REMSYN076AAXX  06124 83182 32697 80908 10258 20194 39314 40127 83131 333 20172 58004;EQDQ01  00002PRCP06
0186831820999992005030712004-11300-041867FM-12+074799999V0200901N004110075019N0100001N1+02511+01921101231ADDAA106000091GF108991061021008001001011KA1240N+01731MA1999999093081MD1999999-0061REMSYN076AAXX  07124 83182 32597 80908 10251 20192 39308 40123 86201 333 20173 59006;EQDQ01  00002PRCP06
0202831820999992005030800004-11300-041867FM-12+074799999V0202701N001010150019N0010001N1+02271+02171101261ADDAY161061AY261061GF108991081071017501999999KA1240M+03081MA1999999093091MD1999999+0151MW1611REMSYN100AAXX  08004 83182 21794 82702 10227 20217 39309 40126 76166 887// 333 10308 29/// 55073 58015 60011;
0190831820999992005030812004-11300-041867FM-12+074799999V0201401N004110150019N0010001N1+02511+02141101341ADDAY161061AY221061GF108991061071017501031011KA1240N+02511MA1999999093161MD1999999+0081MW1021REMSYN088AAXX  08124 83182 21794 81408 10251 20214 39316 40134 70262 86731 333 20251 58008 60074;
0202831820999992005030900004-11300-041867FM-12+074799999V0201801N002110150019N0010001N1+02081+02031101211ADDAY161061AY261061GF108991081071017501999999KA1240M+03071MA1999999093011MD1999999-0081MW1211REMSYN100AAXX  09004 83182 21794 81804 10208 20203 39301 40121 72166 887// 333 10307 29/// 55037 59008 60181;
0186831820999992005030912004-11300-041867FM-12+074799999V0201401N003110450019N0100001N1+02311+02021101261ADDAA106000091GF108991021021008001031011KA1240N+01781MA1999999093021MD1999999-0141REMSYN076AAXX  09124 83182 32597 81406 10231 20202 39302 40126 82231 333 20178 59014;EQDQ01  00002PRCP06
0198831820999992005031000004-11300-041867FM-12+074799999V0201401N001012200019N0010001N1+02331+02101101081ADDAA106000091GF108991041021008001001011KA1240M+02881MA1999999092891MD1999999-0121REMSYN088AAXX  10004 83182 32594 81402 10233 20210 39289 40108 84201 333 10288 29/// 55041 59012;EQDQ01  00002PRCP06
0186831820999992005031012004-11300-041867FM-12+074799999V0200901N004110075019N0100001N1+02351+01941101321ADDAA106000091GF108991081051008001999999KA1240N+01911MA1999999093131MD1999999+0111REMSYN076AAXX  10124 83182 32597 80908 10235 20194 39313 40132 885// 333 20191 58011;EQDQ01  00002PRCP06
0198831820999992005031100004-11300-041867FM-12+074799999V0201401N002110150019N0010001N1+02261+02141101231ADDAA106000091GF108991081001017501011999KA1240M+02501MA1999999093031MD1999999+0141REMSYN088AAXX  11004 83182 32794 81404 10226 20214 39303 40123 8801/ 333 10250 29/// 55000 58014;EQDQ01  00002PRCP06
0186831820999992005031112004-11300-041867FM-12+074799999V0201401N003610150019N0100001N1+02601+02121101281ADDAA106000091GF108991051001017501031011KA1240N+01851MA1999999093131MD1999999+0001REMSYN076AAXX  11124 83182 32797 81407 10260 20212 39313 40128 85031 333 20185 58000;EQDQ01  00002PRCP06
0226831820999992005031200004-11300-041867FM-12+074799999V0201801N002110450019N0010001N1+02351+02141101121ADDAA106000091AY121061AY221061GF108991011031008001051021KA1240M+03001MA1999999092991MD1999999-0041MW1131REMSYN094AAXX  12004 83182 31594 81804 10235 20214 39299 40112 71322 81352 333 10300 29/// 55062 59004;EQDQ01  00002PRCP06
0190831820999992005031212004-11300-041867FM-12+074799999V0200901N002110150019N0100001N1+02381+02191101321ADDAY161061AY221061GF108991081071017501999999KA1240N+01801MA1999999093131MD1999999+0001MW1211REMSYN088AAXX  12124 83182 21797 80904 10238 20219 39313 40132 72162 887// 333 20180 58000 60114;
0202831820999992005031300004-11300-041870FM-12+074799999V0202301N001510150019N0010001N1+02111+02041101241ADDAY161061AY261061GF108991081071017501999999KA1240M+02961MA1999999092971MD1999999-0021MW1611REMSYN100AAXX  13004 83182 21794 82303 10211 20204 39297 40124 76166 887// 333 10296 29/// 55028 59002 60241;
0190831820999992005031312004-11300-041870FM-12+074799999V0200901N002610450019N0100001N1+02371+02101101291ADDAY161061AY261061GF108991021011012501021011KA1240N+01871MA1999999093061MD1999999-0071MW1021REMSYN088AAXX  13124 83182 21697 80905 10237 20210 39306 40129 70266 82121 333 20187 59007 60384;
0202831820999992005031400004-11300-041870FM-12+074799999V0201801N003110150019N0010001N1+02081+02001101101ADDAY161061AY261061GF108991999071017501021999KA1240M+02741MA1999999092891MD1999999-0081MW1611REMSYN100AAXX  14004 83182 21794 81806 10208 20200 39289 40110 76166 8872/ 333 10274 29/// 55002 59008 60241;
0190831820999992005031412004-11300-041870FM-12+074799999V0200901N003110450019N0100001N1+02501+02111101261ADDAY161061AY261061GF108991031021008001031011KA1240N+01751MA1999999093051MD1999999-0011MW1021REMSYN088AAXX  14124 83182 21597 80906 10250 20211 39305 40126 70266 83231 333 20175 59001 60254;
0226831820999992005031500004-11300-041867FM-12+074799999V0200901N002110450019N0010001N1+02261+01981100911ADDAA106000091AY121061AY221061GF108991011031008001051021KA1240M+02931MA1999999092771MD1999999-0121MW1131REMSYN094AAXX  15004 83182 31594 80904 10226 20198 39277 40091 71322 81352 333 10293 29/// 55017 59012;EQDQ01  00002PRCP06
0186831820999992005031512004-11300-041867FM-12+074799999V0200901N003110075019N0100001N1+02471+02041101171ADDAA106000091GF108991061051008001001011KA1240N+01691MA1999999092991MD1999999-0061REMSYN076AAXX  15124 83182 32597 80906 10247 20204 39299 40117 86501 333 20169 59006;EQDQ01  00002PRCP06
0198831820999992005031600004-11300-041867FM-12+074799999V0201401N002112200019N0010001N1+02251+02001101071ADDAA106000091GF102991021001017501041001KA1240M+03001MA1999999092901MD1999999+0131REMSYN088AAXX  16004 83182 32794 21404 10225 20200 39290 40107 82040 333 10300 29/// 55/// 58013;EQDQ01  00002PRCP06
0186831820999992005031612004-11300-041867FM-12+074799999V0201401N005110075019N0100001N1+02471+01951101301ADDAA106000091GF108991051021008001001011KA1240N+01711MA1999999093111MD1999999+0121REMSYN076AAXX  16124 83182 32597 81410 10247 20195 39311 40130 85201 333 20171 58012;EQDQ01  00002PRCP06
0198831820999992005031700004-11300-041867FM-12+074799999V0201401N002612200019N0010001N1+02271+01931101171ADDAA106000091GF103991031001017501031001KA1240M+02981MA1999999092991MD1999999+0091REMSYN088AAXX  17004 83182 32794 31405 10227 20193 39299 40117 83030 333 10298 29/// 55103 58009;EQDQ01  00002PRCP06
0186831820999992005031712004-11300-041867FM-12+074799999V0201401N003110075019N0100001N1+02421+01821101361ADDAA106000091GF106991051021008001001041KA1240N+01701MA1999999093161MD1999999+0051REMSYN076AAXX  17124 83182 32597 61406 10242 20182 39316 40136 85204 333 20170 58005;EQDQ01  00002PRCP06
0198831820999992005031800004-11300-041867FM-12+074799999V0200901N002612200019N0010001N1+02321+01871101111ADDAA106000091GF103991011021008001051011KA1240M+03041MA1999999092941MD1999999-0051REMSYN088AAXX  18004 83182 32594 30905 10232 20187 39294 40111 81251 333 10304 29/// 55102 59005;EQDQ01  00002PRCP06
0186831820999992005031812004-11300-041867FM-12+074799999V0201401N003612200019N0100001N1+02421+01821101281ADDAA106000091GF103991031021008001001001KA1240N+01621MA1999999093091MD1999999-0071REMSYN076AAXX  18124 83182 32597 31407 10242 20182 39309 40128 83200 333 20162 59007;EQDQ01  00002PRCP06
0198831820999992005031900004-11300-041867FM-12+074799999V0200901N003112200019N0010001N1+02331+01771101071ADDAA106000091GF108991031001017501041011KA1240M+03051MA1999999092921MD1999999-0021REMSYN088AAXX  19004 83182 32794 80906 10233 20177 39292 40107 83041 333 10305 29/// 55102 59002;EQDQ01  00002PRCP06
0186831820999992005031912004-11300-041867FM-12+074799999V0200901N001510075019N0100001N1+02561+01881101321ADDAA106000091GF108991061021008001001011KA1240N+01561MA1999999093161MD1999999+0071REMSYN076AAXX  19124 83182 32597 80903 10256 20188 39316 40132 86201 333 20156 58007;EQDQ01  00002PRCP06
0198831820999992005032000004-11300-041870FM-12+074799999V0203601N001010075019N0010001N1+02481+01851101021ADDAA106000091GF108991061021008001001011KA1240M+03121MA1999999093001MD1999999+0081REMSYN088AAXX  20004 83182 32594 83602 10248 20185 39300 40102 86201 333 10312 29/// 55103 58008;EQDQ01  00002PRCP06
0186831820999992005032012004-11300-041870FM-12+074799999V0201401N001510075019N0100001N1+02601+01891101281ADDAA106000091GF108991051021008001041011KA1240N+01781MA1999999093161MD1999999+0001REMSYN076AAXX  20124 83182 32597 81403 10260 20189 39316 40128 85241 333 20178 58000;EQDQ01  00002PRCP06
0198831820999992005032100004-11300-041867FM-12+074799999V02099999999990075019N0010001N1+02481+01851101131ADDAA106000091GF108991081051008001999999KA1240M+03061MA1999999093021MD1999999+0021REMSYN088AAXX  21004 83182 32594 814// 10248 20185 39302 40113 885// 333 10306 29/// 55079 58002;EQDQ01  00002PRCP06
0186831820999992005032112004-11300-041867FM-12+074799999V02099999999990450019N0100001N1+02531+01901101351ADDAA106000091GF106991011021008001041001KA1240N+01721MA1999999093211MD1999999+0051REMSYN076AAXX  21124 83182 32597 614// 10253 20190 39321 40135 81240 333 20172 58005;EQDQ01  00002PRCP06
0198831820999992005032200004-11300-041867FM-12+074799999V0201401N003112200019N0010001N1+02301+01791101191ADDAA106000091GF101991011001017501041001KA1240M+03041MA1999999093031MD1999999+0011REMSYN088AAXX  22004 83182 32794 11406 10230 20179 39303 40119 81040 333 10304 29/// 55093 58001;EQDQ01  00002PRCP06
0186831820999992005032212004-11300-041867FM-12+074799999V0200901N004610075019N0100001N1+02601+01761101381ADDAA106000091GF105991051021008001001001KA1240N+01641MA1999999093221MD1999999+0011REMSYN076AAXX  22124 83182 32597 50909 10260 20176 39322 40138 85200 333 20164 58001;EQDQ01  00002PRCP06
0198831820999992005032300004-11300-041867FM-12+074799999V0201401N003110450019N0100001N1+02241+01801101311ADDAA106000091GF108991021021008001051021KA1240M+03041MA1999999093141MD1999999+0111REMSYN088AAXX  23004 83182 32597 81406 10224 20180 39314 40131 82252 333 10304 29/// 55102 58011;EQDQ01  00002PRCP06
0186831820999992005032312004-11300-041867FM-12+074799999V0201401N002612200019N0100001N1+02521+01771101451ADDAA106000091GF103991031021008001001001KA1240N+01621MA1999999093271MD1999999+0051REMSYN076AAXX  23124 83182 32597 31405 10252 20177 39327 40145 83200 333 20162 58005;EQDQ01  00002PRCP06
0186831820999992005032412004-11300-041867FM-12+074799999V0200901N005112200019N0100001N1+02641+01881101411ADDAA106000091GF102991021021008001001001KA1240N+01761MA1999999093251MD1999999-0021REMSYN076AAXX  24124 83182 32597 20910 10264 20188 39325 40141 82200 333 20176 59002;EQDQ01  00002PRCP06
0198831820999992005032500004-11300-041867FM-12+074799999V0201401N003110450019N0010001N1+02341+01831101221ADDAA106000091GF106991021021008001051001KA1240M+03101MA1999999093101MD1999999+0011REMSYN088AAXX  25004 83182 32594 61406 10234 20183 39310 40122 82250 333 10310 29/// 55105 58001;EQDQ01  00002PRCP06
0186831820999992005032512004-11300-041867FM-12+074799999V0200501N002111050019N0100001N1+02481+01751101411ADDAA106000091GF108991011021008001001021KA1240N+01691MA1999999093231MD1999999-0021REMSYN076AAXX  25124 83182 32597 80504 10248 20175 39323 40141 81202 333 20169 59002;EQDQ01  00002PRCP06
0198831820999992005032600004-11300-041867FM-12+074799999V0200901N002110450019N0010001N1+02281+01771101131ADDAA106000091GF108991011021008001041011KA1240M+03121MA1999999092971MD1999999-0131REMSYN088AAXX  26004 83182 32594 80904 10228 20177 39297 40113 81241 333 10312 29/// 55108 59013;EQDQ01  00002PRCP06
0186831820999992005032612004-11300-041867FM-12+074799999V0200501N001010075019N0100001N1+02541+01761101301ADDAA106000091GF108991051021008001031011KA1240N+01601MA1999999093131MD1999999-0101REMSYN076AAXX  26124 83182 32597 80502 10254 20176 39313 40130 85231 333 20160 59010;EQDQ01  00002PRCP06
0198831820999992005032700004-11300-041870FM-12+074799999V0201401N001010450019N0010001N1+02451+01751101081ADDAA106000091GF108991011021008001051011KA1240M+03141MA1999999092951MD1999999-0021REMSYN088AAXX  27004 83182 32594 81402 10245 20175 39295 40108 81251 333 10314 29/// 55102 59002;EQDQ01  00002PRCP06
0190831820999992005032712004-11300-041870FM-12+074799999V0200901N003110450019N0100001N1+02621+02031101291ADDAY161061AY221061GF108991021021008001061011KA1240N+01791MA1999999093101MD1999999-0031MW1021REMSYN088AAXX  27124 83182 21597 80906 10262 20203 39310 40129 70262 82261 333 20179 59003 60044;
0226831820999992005032800004-11300-041870FM-12+074799999V0201801N002610075019N0010001N1+02401+01971101061ADDAA106000091AY121061AY221061GF108991051031008001021999KA1240M+03161MA1999999092921MD1999999-0031MW1131REMSYN094AAXX  28004 83182 31594 81805 10240 20197 39292 40106 71322 8532/ 333 10316 29/// 55082 59003;EQDQ01  00002PRCP06
0186831820999992005032812004-11300-041870FM-12+074799999V0200901N001510450019N0100001N1+02531+01981101221ADDAA106000091GF108991031021008001061011KA1240N+01841MA1999999093101MD1999999+0001REMSYN076AAXX  28124 83182 32597 80903 10253 20198 39310 40122 83261 333 20184 58000;EQDQ01  00002PRCP06
0202831820999992005032900004-11300-041867FM-12+074799999V0201401N000510042019N0010001N1+02181+02081101061ADDAY161061AY221061GF108991061071004501021999KA1240M+02841MA1999999092891MD1999999-0031MW1021REMSYN100AAXX  29004 83182 21494 81401 10218 20208 39289 40106 70262 8672/ 333 10284 29/// 55039 59003 69941;
0190831820999992005032912004-11300-041867FM-12+074799999V0200901N001010450019N0040001N1+02441+02031101351ADDAY161061AY221061GF108991041031008001021011KA1240N+01821MA1999999093141MD1999999+0041MW1621REMSYN088AAXX  29124 83182 21596 80902 10244 20203 39314 40135 76262 84321 333 20182 58004 60014;
0198831820999992005033000004-11300-041867FM-12+074799999V0201401N002610450019N0010001N1+02151+02001101221ADDAA106000091GF108991031051008001041021KA1240M+02641MA1999999093021MD1999999-0131REMSYN088AAXX  30004 83182 32594 81405 10215 20200 39302 40122 83542 333 10264 29/// 55003 59013;EQDQ01  00002PRCP06
0202831820999992005033100004-11300-041867FM-12+074799999V0201401N002612200019N0100001N1+02281+02011101171ADDAY161061AY221061GF108991011031008001001011KA1240M+03041MA1999999093011MD1999999-0011MW1131REMSYN100AAXX  31004 83182 21597 81405 10228 20201 39301 40117 71362 81301 333 10304 29/// 55082 59001 69921;
0162831820999992005033112004-11300-041867FM-12+074799999V0200901N004612200019N0100001N1+02661+02001101271ADDGF106991041021008001001011KA1240N+01751MA1999999093121MD1999999-0091REMSYN082AAXX  31124 83182 22597 60909 10266 20200 39312 40127 84201 333 20175 59009 69924;
0202831820999992005040100004-11300-041867FM-12+074799999V0201401N003110042019N0010001N1+02231+02031101161ADDAY161061AY221061GF108991061071004501021999KA1240M+03101MA1999999093021MD1999999+0011MW1021REMSYN100AAXX  01004 83182 21494 81406 10223 20203 39302 40116 70262 8672/ 333 10310 29/// 55082 58001 60091;
0162831820999992005040112004-11300-041867FM-12+074799999V0200901N004111050019N0100001N1+02601+01841101411ADDGF105991021021008001041011KA1240N+01881MA1999999093231MD1999999+0111REMSYN082AAXX  01124 83182 22597 50908 10260 20184 39323 40141 82241 333 20188 58011 60094;
0202831820999992005040200004-11300-041867FM-12+074799999V0201401N004110450019N0010001N1+02181+01991101331ADDAY161061AY221061GF108991021031004501021011KA1240M+03061MA1999999093121MD1999999+0131MW1131REMSYN100AAXX  02004 83182 21494 81408 10218 20199 39312 40133 71362 82321 333 10306 29/// 55082 58013 69981;
0162831820999992005040212004-11300-041867FM-12+074799999V0201401N004610075019N0100001N1+02521+01941101381ADDGF107991071021008001001001KA1240N+01761MA1999999093181MD1999999-0051REMSYN082AAXX  02124 83182 22597 71409 10252 20194 39318 40138 87200 333 20176 59005 69984;
0226831820999992005040300004-11300-041870FM-12+074799999V0201401N004110450019N0010001N1+02221+01961101331ADDAA106000091AY121061AY221061GF108991021031008001021999KA1240M+02981MA1999999093141MD1999999+0021MW1131REMSYN094AAXX  03004 83182 31594 81408 10222 20196 39314 40133 71322 8232/ 333 10298 29/// 55078 58002;EQDQ01  00002PRCP06
0186831820999992005040312004-11300-041870FM-12+074799999V0201401N005110075019N0100001N1+02501+01941101441ADDAA106000091GF106991061021008001001001KA1240N+01721MA1999999093271MD1999999-0091REMSYN076AAXX  03124 83182 32597 61410 10250 20194 39327 40144 86200 333 20172 59009;EQDQ01  00002PRCP06
0198831820999992005040400004-11300-041867FM-12+074799999V0201401N004110075019N0010001N1+02201+01901101351ADDAA106000091GF108991081051008001999999KA1240M+02981MA1999999093151MD1999999+0011REMSYN088AAXX  04004 83182 32594 81408 10220 20190 39315 40135 885// 333 10298 29/// 55086 58001;EQDQ01  00002PRCP06
0190831820999992005040412004-11300-041867FM-12+074799999V0201401N004110075019N0100001N1+02501+01941101591ADDAY161061AY261061GF107991071021008001001001KA1240N+01841MA1999999093371MD1999999+0101MW1031REMSYN088AAXX  04124 83182 21597 71408 10250 20194 39337 40159 70366 87200 333 20184 58010 60014;
0208831820999992005040500004-11300-041867FM-12+074799999V0201401N003112200019N0010001N1+02261+01941101451ADDAA106000091GA1001+999999999GF100991001001999999001001KA1240M+03021MA1999999093261MD1999999+0111REMSYN082AAXX  05004 83182 32994 01406 10226 20194 39326 40145 333 10302 29/// 55083 58011;EQDQ01  00002PRCP06
0186831820999992005040512004-11300-041867FM-12+074799999V0200901N005110075019N0100001N1+02481+01961101541ADDAA106000091GF108991081051008001999999KA1240N+01701MA1999999093331MD1999999-0041REMSYN076AAXX  05124 83182 32597 80910 10248 20196 39333 40154 885// 333 20170 59004;EQDQ01  00002PRCP06
0198831820999992005040600004-11300-041867FM-12+074799999V0201401N002619999999N0010001N1+02051+01831101451ADDAA106000091GF108991001001999999001011KA1240M+02921MA1999999093211MD1999999-0051REMSYN088AAXX  06004 83182 32994 81405 10205 20183 39321 40145 80001 333 10292 29/// 55055 59005;EQDQ01  00002PRCP06
0186831820999992005040612004-11300-041867FM-12+074799999V0200901N003110075019N0100001N1+02521+01981101541ADDAA106000091GF108991071021008001001011KA1240N+01681MA1999999093311MD1999999-0021REMSYN076AAXX  06124 83182 32597 80906 10252 20198 39331 40154 87201 333 20168 59002;EQDQ01  00002PRCP06
0198831820999992005040700004-11300-041867FM-12+074799999V0201401N004119999999N0010001N1+02201+01901101361ADDAA106000091GF108991001001999999001011KA1240M+03041MA1999999093161MD1999999-0051REMSYN088AAXX  07004 83182 32994 81408 10220 20190 39316 40136 80001 333 10304 29/// 55082 59005;EQDQ01  00002PRCP06
0186831820999992005040712004-11300-041867FM-12+074799999V0201401N005710075019N0100001N1+02541+01911101381ADDAA106000091GF108991061021008001001011KA1240N+01741MA1999999093181MD1999999-0131REMSYN076AAXX  07124 83182 32597 81411 10254 20191 39318 40138 86201 333 20174 59013;EQDQ01  00002PRCP06
0202831820999992005040812004-11300-041867FM-12+074799999V0201401N005119999999N0100001N1+02381+01681101491ADDAA106000091GF108991999011012501001001KA1240N+01201MA1999999093251MD1999999+0071REMSYN076AAXX  08124 83182 32697 81410 10238 20168 39325 40149 81100 333 20120 58007;EQDQ01+000012SCOTLCQ02  00002PRCP06
0208831820999992005040900004-11300-041867FM-12+074799999V0201401N002612200019N0010001N1+02081+01801101291ADDAA106000091GA1001+999999999GF100991001001999999001001KA1240M+03041MA1999999093071MD1999999-0071REMSYN082AAXX  09004 83182 32994 01405 10208 20180 39307 40129 333 10304 29/// 55109 59007;EQDQ01  00002PRCP06
0186831820999992005040912004-11300-041867FM-12+074799999V0201401N004610075019N0100001N1+02401+01731101431ADDAA106000091GF107991071051008001001001KA1240N+01451MA1999999093191MD1999999-0061REMSYN076AAXX  09124 83182 32597 71409 10240 20173 39319 40143 87500 333 20145 59006;EQDQ01  00002PRCP06
0208831820999992005041000004-11300-041867FM-12+074799999V0201401N003112200019N0010001N1+02131+01711101261ADDAA106000091GA1001+999999999GF100991001001999999001001KA1240M+02961MA1999999093041MD1999999-0031REMSYN082AAXX  10004 83182 32994 01406 10213 20171 39304 40126 333 10296 29/// 55087 59003;EQDQ01  00002PRCP06
0186831820999992005041012004-11300-041867FM-12+074799999V0201401N005110075019N0100001N1+02331+01841101451ADDAA106000091GF108991071051008001001011KA1240N+01531MA1999999093211MD1999999-0021REMSYN076AAXX  10124 83182 32597 81410 10233 20184 39321 40145 87501 333 20153 59002;EQDQ01  00002PRCP06
0214831820999992005041100004-11300-041867FM-12+074799999V0201401N003619999999N0010001N1+02291+01861101221ADDAA106000091GF108991001001999999001011KA1240M+03021MA1999999093021MD1999999-0021REMSYN088AAXX  11004 83182 32994 81407 10229 20186 39302 40122 88001 333 10302 29/// 55092 59002;EQDQ01+000082SCOTLCQ02  00002PRCP06
0186831820999992005041112004-11300-041867FM-12+074799999V0201401N005110450019N0100001N1+02421+01791101311ADDAA106000091GF108991041021008001031011KA1240N+01741MA1999999093121MD1999999-0091REMSYN076AAXX  11124 83182 32597 81410 10242 20179 39312 40131 84231 333 20174 59009;EQDQ01  00002PRCP06
0208831820999992005041200004-11300-041867FM-12+074799999V0201401N003612200019N0010001N1+02111+01881101231ADDAA106000091GA1001+999999999GF100991001001999999001001KA1240M+02991MA1999999093011MD1999999-0011REMSYN082AAXX  12004 83182 32994 01407 10211 20188 39301 40123 333 10299 29/// 55078 59001;EQDQ01  00002PRCP06
0186831820999992005041212004-11300-041867FM-12+074799999V0201401N005710450019N0100001N1+02441+01761101381ADDAA106000091GF108991021021008001041011KA1240N+01541MA1999999093161MD1999999+0041REMSYN076AAXX  12124 83182 32597 81411 10244 20176 39316 40138 82241 333 20154 58004;EQDQ01  00002PRCP06
0198831820999992005041300004-11300-041867FM-12+074799999V0201401N001510075019N0010001N1+02481+01851101251ADDAA106000091GF108991081051008001999999KA1240M+03041MA1999999093101MD1999999+0091REMSYN088AAXX  13004 83182 32594 81403 10248 20185 39310 40125 885// 333 10304 29/// 55103 58009;EQDQ01  00002PRCP06
0186831820999992005041312004-11300-041867FM-12+074799999V0201401N004110075019N0100001N1+02451+01871101361ADDAA106000091GF108991081051008001999999KA1240N+01641MA1999999093201MD1999999+0041REMSYN076AAXX  13124 83182 32597 81408 10245 20187 39320 40136 885// 333 20164 58004;EQDQ01  00002PRCP06
0198831820999992005041400004-11300-041867FM-12+074799999V0201401N004110075019N0010001N1+02301+01921101191ADDAA106000091GF108991081051008001999999KA1240M+02981MA1999999093031MD1999999-0071REMSYN088AAXX  14004 83182 32594 81408 10230 20192 39303 40119 885// 333 10298 29/// 55041 59007;EQDQ01  00002PRCP06
0186831820999992005041412004-11300-041867FM-12+074799999V0201401N003110075019N0100001N1+02531+01821101311ADDAA106000091GF108991061051008001001011KA1240N+01701MA1999999093141MD1999999-0061REMSYN076AAXX  14124 83182 32597 81406 10253 20182 39314 40131 86501 333 20170 59006;EQDQ01  00002PRCP06
0198831820999992005041500004-11300-041867FM-12+074799999V0201401N003112200019N0010001N1+02241+01861101201ADDAA106000091GF108991021001017501031011KA1240M+03081MA1999999093041MD1999999+0011REMSYN088AAXX  15004 83182 32794 81406 10224 20186 39304 40120 82031 333 10308 29/// 55071 58001;EQDQ01  00002PRCP06
0186831820999992005041512004-11300-041867FM-12+074799999V0201401N004610075019N0100001N1+02431+01961101351ADDAA106000091GF108991071021008001031001KA1240N+01731MA1999999093151MD1999999+0011REMSYN076AAXX  15124 83182 32597 81409 10243 20196 39315 40135 87230 333 20173 58001;EQDQ01  00002PRCP06
0198831820999992005041600004-11300-041867FM-12+074799999V0201401N003110075019N0010001N1+02281+01961101401ADDAA106000091GF108991081051008001999999KA1240M+03021MA1999999093201MD1999999+0161REMSYN088AAXX  16004 83182 32594 81406 10228 20196 39320 40140 885// 333 10302 29/// 55067 58016;EQDQ01  00002PRCP06
0186831820999992005041612004-11300-041867FM-12+074799999V0200901N005710075019N0100001N1+02611+01871101331ADDAA106000091GF107991061021008001051001KA1240N+01781MA1999999093171MD1999999+0021REMSYN076AAXX  16124 83182 32597 70911 10261 20187 39317 40133 86250 333 20178 58002;EQDQ01  00002PRCP06
0198831820999992005041700004-11300-041870FM-12+074799999V0201401N002112200019N0010001N1+02261+01881101251ADDAA106000091GF104991041001017501041001KA1240M+02981MA1999999093101MD1999999-0101REMSYN088AAXX  17004 83182 32794 41404 10226 20188 39310 40125 84040 333 10298 29/// 55076 59010;EQDQ01  00002PRCP06
0186831820999992005041712004-11300-041870FM-12+074799999V0201401N004110075019N0100001N1+02511+01781101351ADDAA106000091GF108991071051008001001011KA1240N+01701MA1999999093171MD1999999+0001REMSYN076AAXX  17124 83182 32597 81408 10251 20178 39317 40135 87501 333 20170 58000;EQDQ01  00002PRCP06
0198831820999992005041800004-11300-041867FM-12+074799999V0201401N003110450019N0010001N1+02241+01881101201ADDAA106000091GF108991011051008001041011KA1240M+03041MA1999999093041MD1999999-0061REMSYN088AAXX  18004 83182 32594 81406 10224 20188 39304 40120 81541 333 10304 29/// 55061 59006;EQDQ01  00002PRCP06
0186831820999992005041812004-11300-041867FM-12+074799999V0201401N003110075019N0100001N1+02501+01821101231ADDAA106000091GF108991051051008001011999KA1240N+01781MA1999999093051MD1999999-0121REMSYN076AAXX  18124 83182 32597 81406 10250 20182 39305 40123 8551/ 333 20178 59012;EQDQ01  00002PRCP06
0198831820999992005041900004-11300-041867FM-12+074799999V0201401N003119999999N0010001N1+02201+01881101351ADDAA106000091GF108991001001999999001011KA1240M+02881MA1999999092931MD1999999-0111REMSYN088AAXX  19004 83182 32994 81406 10220 20188 39293 40135 80001 333 10288 29/// 55048 59011;EQDQ01  00002PRCP06
0186831820999992005041912004-11300-041867FM-12+074799999V0201401N004111050019N0100001N1+02261+01821101391ADDAA106000091GF108991011001017501041021KA1240N+01701MA1999999093151MD1999999+0101REMSYN076AAXX  19124 83182 32797 81408 10226 20182 39315 40139 81042 333 20170 58010;EQDQ01  00002PRCP06
0198831820999992005042000004-11300-041867FM-12+074799999V0201401N003119999999N0010001N1+02041+01721101291ADDAA106000091GF108991001001999999001011KA1240M+02931MA1999999093101MD1999999+0171REMSYN088AAXX  20004 83182 32994 81406 10204 20172 39310 40129 80001 333 10293 29/// 55060 58017;EQDQ01  00002PRCP06
0186831820999992005042012004-11300-041867FM-12+074799999V0200901N002610075019N0100001N1+02521+01861101411ADDAA106000091GF108991071021008001001011KA1240N+01441MA1999999093191MD1999999+0041REMSYN076AAXX  20124 83182 32597 80905 10252 20186 39319 40141 87201 333 20144 58004;EQDQ01  00002PRCP06
0198831820999992005042100004-11300-041867FM-12+074799999V0201401N003119999999N0010001N1+02281+01861101271ADDAA106000091GF108991001001999999001021KA1240M+03121MA1999999093101MD1999999+0001REMSYN088AAXX  21004 83182 32994 81406 10228 20186 39310 40127 80002 333 10312 29/// 55087 58000;EQDQ01  00002PRCP06
0186831820999992005042112004-11300-041867FM-12+074799999V0200901N004110075019N0100001N1+02461+01941101371ADDAA106000091GF108991081051008001999999KA1240N+01601MA1999999093171MD1999999-0021REMSYN076AAXX  21124 83182 32597 80908 10246 20194 39317 40137 885// 333 20160 59002;EQDQ01  00002PRCP06
0198831820999992005042200004-11300-041867FM-12+074799999V0200901N003119999999N0010001N1+02331+01841101191ADDAA106000091GF108991001001999999001011KA1240M+03131MA1999999093031MD1999999-0071REMSYN088AAXX  22004 83182 32994 80906 10233 20184 39303 40119 80001 333 10313 29/// 55084 59007;EQDQ01  00002PRCP06
0186831820999992005042212004-11300-041867FM-12+074799999V0201401N002110075019N0100001N1+02461+01991101251ADDAA106000091GF108991081051008001999999KA1240N+01651MA1999999093081MD1999999-0091REMSYN076AAXX  22124 83182 32597 81404 10246 20199 39308 40125 885// 333 20165 59009;EQDQ01  00002PRCP06
0202831820999992005042300004-11300-041867FM-12+074799999V0200901N003119999999N0010001N1+02301+01791101151ADDAY161061AY221061GF108991001001999999001011KA1240M+03161MA1999999092991MD1999999-0031MW1021REMSYN100AAXX  23004 83182 21994 80906 10230 20179 39299 40115 70262 80001 333 10316 29/// 55060 59003 69961;
0162831820999992005042312004-11300-041867FM-12+074799999V0201401N005110075019N0100001N1+02561+01931101231ADDGF108991061021008001001011KA1240N+01661MA1999999093081MD1999999+0001REMSYN082AAXX  23124 83182 22597 81410 10256 20193 39308 40123 86201 333 20166 58000 69964;
0198831820999992005042400004-11300-041870FM-12+074799999V0201401N002610450019N0010001N1+02231+01721101081ADDAA106000091GF108991011021008001041011KA1240M+03221MA1999999092931MD1999999-0061REMSYN088AAXX  24004 83182 32594 81405 10223 20172 39293 40108 81241 333 10322 29/// 55100 59006;EQDQ01  00002PRCP06
0186831820999992005042412004-11300-041870FM-12+074799999V0201401N002110075019N0100001N1+02471+01841101381ADDAA106000091GF105991051021008001001001KA1240N+01571MA1999999093181MD1999999+0101REMSYN076AAXX  24124 83182 32597 51404 10247 20184 39318 40138 85200 333 20157 58010;EQDQ01  00002PRCP06
0198831820999992005042500004-11300-041867FM-12+074799999V0200901N003119999999N0010001N1+02211+01771101261ADDAA106000091GF108991001001999999001011KA1240M+03101MA1999999093081MD1999999+0151REMSYN088AAXX  25004 83182 32994 80906 10221 20177 39308 40126 80001 333 10310 29/// 55107 58015;EQDQ01  00002PRCP06
0186831820999992005042512004-11300-041867FM-12+074799999V0201401N003110075019N0100001N1+02381+01971101391ADDAA106000091GF108991061021008001011999KA1240N+01621MA1999999093171MD1999999-0011REMSYN076AAXX  25124 83182 32597 81406 10238 20197 39317 40139 8621/ 333 20162 59001;EQDQ01  00002PRCP06
0198831820999992005042600004-11300-041867FM-12+074799999V0201401N002119999999N0010001N1+02211+01751101251ADDAA106000091GF108991001001999999001011KA1240M+03061MA1999999093051MD1999999-0031REMSYN088AAXX  26004 83182 32994 81404 10221 20175 39305 40125 80001 333 10306 29/// 55040 59003;EQDQ01  00002PRCP06
0186831820999992005042612004-11300-041867FM-12+074799999V0200901N002119999999N0100001N1+02661+01741101241ADDAA106000091GF108991001001999999001011KA1240N+01541MA1999999093091MD1999999+0081REMSYN076AAXX  26124 83182 32997 80904 10266 20174 39309 40124 80001 333 20154 58008;EQDQ01  00002PRCP06
0198831820999992005042700004-11300-041867FM-12+074799999V0200901N001510075019N0010001N1+02641+01771101031ADDAA106000091GF108991061051008001051011KA1240M+03281MA1999999092961MD1999999-0051REMSYN088AAXX  27004 83182 32594 80903 10264 20177 39296 40103 86551 333 10328 29/// 55101 59005;EQDQ01  00002PRCP06
0186831820999992005042712004-11300-041867FM-12+074799999V0203601N001510075019N0100001N1+02651+01861101211ADDAA106000091GF108991061051008001041011KA1240N+01941MA1999999093131MD1999999+0041REMSYN076AAXX  27124 83182 32597 83603 10265 20186 39313 40121 86541 333 20194 58004;EQDQ01  00002PRCP06
0226831820999992005042800004-11300-041867FM-12+074799999V0200901N004610042019N0010001N1+02331+01991101161ADDAA106000091AY121061AY221061GF108991051031004501021999KA1240M+03181MA1999999093031MD1999999+0071MW1131REMSYN094AAXX  28004 83182 31494 80909 10233 20199 39303 40116 71322 8532/ 333 10318 29/// 55028 58007;EQDQ01  00002PRCP06
0190831820999992005042812004-11300-041867FM-12+074799999V0201401N004110075019N0100001N1+02481+01901101411ADDAY161061AY261061GF108991061051008001051011KA1240N+01791MA1999999093231MD1999999+0101MW1021REMSYN088AAXX  28124 83182 21597 81408 10248 20190 39323 40141 70266 86551 333 20179 58010 60164;
0202831820999992005042900004-11300-041867FM-12+074799999V0201401N002610042019N0010001N1+02141+01991101331ADDAY161061AY221061GF108991061071004501021999KA1240M+02721MA1999999093151MD1999999+0121MW1021REMSYN100AAXX  29004 83182 21494 81405 10214 20199 39315 40133 70262 8672/ 333 10272 29/// 55011 58012 60111;
0162831820999992005042912004-11300-041867FM-12+074799999V0200901N002610075019N0100001N1+02331+01991101631ADDGF108991081051008001999999KA1240N+01801MA1999999093381MD1999999+0131REMSYN082AAXX  29124 83182 22597 80905 10233 20199 39338 40163 885// 333 20180 58013 60114;
0190831820999992005043012004-11300-041867FM-12+074799999V0200501N001510075019N0100001N1+02521+02021101541ADDAY161061AY221061GF108991071051008001001011KA1240N+01781MA1999999093311MD1999999-0071MW1211REMSYN088AAXX  30124 83182 21597 80503 10252 20202 39331 40154 72162 87501 333 20178 59007 60104;
0226831820999992005050100004-11300-041870FM-12+074799999V0201801N002610042019N0010001N1+02141+02101101391ADDAA106000091AY121061AY221061GF108991061031004501021999KA1240M+02981MA1999999093191MD1999999-0141MW1131REMSYN094AAXX  01004 83182 31494 81805 10214 20210 39319 40139 71322 8632/ 333 10298 29/// 55046 59014;EQDQ01  00002PRCP06
0190831820999992005050112004-11300-041870FM-12+074799999V0200901N001510075019N0100001N1+02581+01941101451ADDAY161061AY261061GF107991051021008001041011KA1240N+01761MA1999999093261MD1999999-0051MW1031REMSYN088AAXX  01124 83182 21597 70903 10258 20194 39326 40145 70366 85241 333 20176 59005 60864;
0202831820999992005050200004-11300-041870FM-12+074799999V0201801N002110042019N0010001N1+02181+02091101361ADDAY161061AY261061GF108991061031004501021999KA1240M+02841MA1999999093181MD1999999-0011MW1951REMSYN100AAXX  02004 83182 21494 81804 10218 20209 39318 40136 79566 8632/ 333 10284 29/// 55019 59001 60411;
0202831820999992005050300004-11300-041867FM-12+074799999V0201401N004110042019N0010001N1+01961+01811101601ADDAY161061AY221061GF108991071071004501021999KA1240M+02371MA1999999093281MD1999999+0101MW1021REMSYN100AAXX  03004 83182 21494 81408 10196 20181 39328 40160 70262 8772/ 333 10237 29/// 55000 58010 69961;
0162831820999992005050312004-11300-041867FM-12+074799999V0201801N004612200019N0100001N1+02271+01661101681ADDGF108991011021008001001011KA1240N+01541MA1999999093371MD1999999+0031REMSYN082AAXX  03124 83182 22597 81809 10227 20166 39337 40168 81201 333 20154 58003 69964;
0198831820999992005050400004-11300-041867FM-12+074799999V0201401N002110075019N0100001N1+02141+01781101551ADDAA106000091GF108991081051008001999999KA1240M+02681MA1999999093291MD1999999+0041REMSYN088AAXX  04004 83182 32597 81404 10214 20178 39329 40155 885// 333 10268 29/// 55044 58004;EQDQ01  00002PRCP06
0186831820999992005050412004-11300-041867FM-12+074799999V0201401N005712200019N0100001N1+02311+01711101741ADDAA106000091GF108991011021008001001011KA1240N+01501MA1999999093461MD1999999+0091REMSYN076AAXX  04124 83182 32597 81411 10231 20171 39346 40174 81201 333 20150 58009;EQDQ01  00002PRCP06
0198831820999992005050500004-11300-041867FM-12+074799999V0201401N004110075019N0010001N1+02141+01701101681ADDAA106000091GF108991081051008001999999KA1240M+02681MA1999999093411MD1999999+0121REMSYN088AAXX  05004 83182 32594 81408 10214 20170 39341 40168 885// 333 10268 29/// 55045 58012;EQDQ01  00002PRCP06
0186831820999992005050512004-11300-041867FM-12+074799999V0201401N004110450019N0100001N1+02211+01721101711ADDAA106000091GF108991011021012501041011KA1240N+01471MA1999999093421MD1999999-0041REMSYN076AAXX  05124 83182 32697 81408 10221 20172 39342 40171 81241 333 20147 59004;EQDQ01  00002PRCP06
0208831820999992005050600004-11300-041867FM-12+074799999V0201401N001512200019N0010001N1+01881+01661101601ADDAA106000091GA1001+999999999GF100991001001999999001001KA1240M+02661MA1999999093281MD1999999-0161REMSYN082AAXX  06004 83182 32994 01403 10188 20166 39328 40160 333 10266 29/// 55088 59016;EQDQ01  00002PRCP06
0186831820999992005050612004-11300-041867FM-12+074799999V0201401N005110450019N0100001N1+02321+01701101721ADDAA106000091GF106991021021008001051001KA1240N+01441MA1999999093411MD1999999-0011REMSYN076AAXX  06124 83182 32597 61410 10232 20170 39341 40172 82250 333 20144 59001;EQDQ01  00002PRCP06
0208831820999992005050700004-11300-041867FM-12+074799999V0201401N002612200019N0010001N1+01961+01721101461ADDAA106000091GA1001+999999999GF100991001001999999001001KA1240M+02821MA1999999093191MD1999999-0091REMSYN082AAXX  07004 83182 32994 01405 10196 20172 39319 40146 333 10282 29/// 55071 59009;EQDQ01  00002PRCP06
0186831820999992005050712004-11300-041867FM-12+074799999V0201401N004612200019N0100001N1+02361+01761101601ADDAA106000091GF101991011011012501001001KA1240N+01441MA1999999093321MD1999999-0091REMSYN076AAXX  07124 83182 32697 11409 10236 20176 39332 40160 81100 333 20144 59009;EQDQ01  00002PRCP06
0192831820999992005050800004-11300-041870FM-12+074799999V0201401N002112200019N0010001N1+02031+01771101561ADDAA106000091GF100991001001999999001001KA1240M+02911MA1999999093301MD1999999+0111REMSYN082AAXX  08004 83182 32994 01404 10203 20177 39330 40156 333 10291 29/// 55097 58011;EQDQ01  00002PRCP06
0186831820999992005050812004-11300-041870FM-12+074799999V0201801N005112200019N0100001N1+02361+01691101531ADDAA106000091GF101991011011012501001001KA1240N+01421MA1999999093271MD1999999-0051REMSYN076AAXX  08124 83182 32697 11810 10236 20169 39327 40153 81100 333 20142 59005;EQDQ01  00002PRCP06
0198831820999992005050900004-11300-041867FM-12+074799999V0201401N004110075019N0010001N1+02281+01751101571ADDAA106000091GF108991081051008001999999KA1240M+02781MA1999999093341MD1999999+0041REMSYN088AAXX  09004 83182 32594 81408 10228 20175 39334 40157 885// 333 10278 29/// 55076 58004;EQDQ01  00002PRCP06
0186831820999992005050912004-11300-041867FM-12+074799999V0200901N006710075019N0100001N1+02501+01671101551ADDAA106000091GF106991051021008001001011KA1240N+01601MA1999999093351MD1999999+0081REMSYN076AAXX  09124 83182 32597 60913 10250 20167 39335 40155 85201 333 20160 58008;EQDQ01  00002PRCP06
0198831820999992005051000004-11300-041867FM-12+074799999V0201401N004610075019N0100001N1+02251+01781101471ADDAA106000091GF108991081051008001999999KA1240M+02801MA1999999093281MD1999999-0061REMSYN088AAXX  10004 83182 32597 81409 10225 20178 39328 40147 885// 333 10280 29/// 55072 59006;EQDQ01  00002PRCP06
0186831820999992005051012004-11300-041867FM-12+074799999V0201401N005110075019N0100001N1+02291+01361101571ADDAA106000091GF108991081051008001999999KA1240N+01641MA1999999093341MD1999999-0011REMSYN076AAXX  10124 83182 32597 81410 10229 20136 39334 40157 885// 333 20164 59001;EQDQ01  00002PRCP06
0198831820999992005051100004-11300-041867FM-12+074799999V0201401N004612200019N0010001N1+02161+01861101471ADDAA106000091GF103991021001017501041011KA1240M+02771MA1999999093231MD1999999-0051REMSYN088AAXX  11004 83182 32794 31409 10216 20186 39323 40147 82041 333 10277 29/// 55043 59005;EQDQ01  00002PRCP06
0186831820999992005051112004-11300-041867FM-12+074799999V0201401N004610075019N0100001N1+02401+01771101531ADDAA106000091GF106991051021008001001011KA1240N+01601MA1999999093301MD1999999-0041REMSYN076AAXX  11124 83182 32597 61409 10240 20177 39330 40153 85201 333 20160 59004;EQDQ01  00002PRCP06
0208831820999992005051200004-11300-041867FM-12+074799999V0201401N002112200019N0010001N1+01901+01661101461ADDAA106000091GA1001+999999999GF100991001001999999001001KA1240M+02881MA1999999093191MD1999999-0041REMSYN082AAXX  12004 83182 32994 01404 10190 20166 39319 40146 333 10288 29/// 55107 59004;EQDQ01  00002PRCP06
0186831820999992005051212004-11300-041867FM-12+074799999V0201401N005710075019N0100001N1+02361+01781101561ADDAA106000091GF108991081051008001999999KA1240N+01541MA1999999093281MD1999999-0021REMSYN076AAXX  12124 83182 32597 81411 10236 20178 39328 40156 885// 333 20154 59002;EQDQ01  00002PRCP06
0198831820999992005051300004-11300-041867FM-12+074799999V0201401N003119999999N0010001N1+02031+01811101431ADDAA106000091GF108991001001999999001011KA1240M+02781MA1999999093181MD1999999-0011REMSYN088AAXX  13004 83182 32994 81406 10203 20181 39318 40143 80001 333 10278 29/// 55088 59001;EQDQ01  00002PRCP06
0186831820999992005051312004-11300-041867FM-12+074799999V0201401N005710075019N0100001N1+02271+01871101481ADDAA106000091GF108991081051008001999999KA1240N+01581MA1999999093211MD1999999-0071REMSYN076AAXX  13124 83182 32597 81411 10227 20187 39321 40148 885// 333 20158 59007;EQDQ01  00002PRCP06
0186831820999992005051412004-11300-041867FM-12+074799999V0200901N006210075019N0100001N1+02291+01601101551ADDAA106000091GF107991071051008001001001KA1240N+01611MA1999999093251MD1999999+0041REMSYN076AAXX  14124 83182 32597 70912 10229 20160 39325 40155 87500 333 20161 58004;EQDQ01  00002PRCP06
0192831820999992005051500004-11300-041870FM-12+074799999V0201401N003112200019N0010001N1+02061+01761101291ADDAA106000091GF100991001001999999001001KA1240M+02901MA1999999093051MD1999999-0071REMSYN082AAXX  15004 83182 32994 01406 10206 20176 39305 40129 333 10290 29/// 55080 59007;EQDQ01  00002PRCP06
0186831820999992005051512004-11300-041870FM-12+074799999V0200901N007210075019N0100001N1+02361+01731101361ADDAA106000091GF106991051021008001001011KA1240N+01501MA1999999093121MD1999999-0131REMSYN076AAXX  15124 83182 32597 60914 10236 20173 39312 40136 85201 333 20150 59013;EQDQ01  00002PRCP06
0208831820999992005051600004-11300-041867FM-12+074799999V0201401N002112200019N0010001N1+02001+01801101371ADDAA106000091GA1001+999999999GF100991001001999999001001KA1240M+02801MA1999999093131MD1999999+0081REMSYN082AAXX  16004 83182 32994 01404 10200 20180 39313 40137 333 10280 29/// 55071 58008;EQDQ01  00002PRCP06
0186831820999992005051612004-11300-041867FM-12+074799999V0201401N004610075019N0100001N1+02361+01801101361ADDAA106000091GF108991061021008001001011KA1240N+01491MA1999999093121MD1999999+0001REMSYN076AAXX  16124 83182 32597 81409 10236 20180 39312 40136 86201 333 20149 58000;EQDQ01  00002PRCP06
0198831820999992005051700004-11300-041867FM-12+074799999V0201401N002610150019N0010001N1+02271+01741101211ADDAA106000091GF106991061001017501051001KA1240M+02921MA1999999093011MD1999999-0021REMSYN088AAXX  17004 83182 32794 61405 10227 20174 39301 40121 86050 333 10292 29/// 55097 59002;EQDQ01  00002PRCP06
0186831820999992005051712004-11300-041867FM-12+074799999V0200901N004110075019N0100001N1+02401+01821101321ADDAA106000091GF108991061021008001001011KA1240N+01501MA1999999093131MD1999999+0011REMSYN076AAXX  17124 83182 32597 80908 10240 20182 39313 40132 86201 333 20150 58001;EQDQ01  00002PRCP06
0198831820999992005051800004-11300-041867FM-12+074799999V0201401N003619999999N0010001N1+02071+01821101181ADDAA106000091GF108991001001999999001011KA1240M+02901MA1999999092971MD1999999-0041REMSYN088AAXX  18004 83182 32994 81407 10207 20182 39297 40118 80001 333 10290 29/// 55104 59004;EQDQ01  00002PRCP06
0186831820999992005051812004-11300-041867FM-12+074799999V0201401N004610075019N0100001N1+02271+01851101151ADDAA106000091GF108991071051008001001011KA1240N+01471MA1999999093091MD1999999-0041REMSYN076AAXX  18124 83182 32597 81409 10227 20185 39309 40115 87501 333 20147 59004;EQDQ01  00002PRCP06
0208831820999992005051900004-11300-041867FM-12+074799999V0201401N005112200019N0010001N1+02061+01821101081ADDAA106000091GA1001+999999999GF100991001001999999001001KA1240M+02961MA1999999092841MD1999999-0131REMSYN082AAXX  19004 83182 32994 01410 10206 20182 39284 40108 333 10296 29/// 55102 59013;EQDQ01  00002PRCP06
0186831820999992005051912004-11300-041867FM-12+074799999V0201401N003619999999N0100001N1+02331+01561101311ADDAA106000091GF108991001001999999001011KA1240N+01381MA1999999093071MD1999999-0021REMSYN076AAXX  19124 83182 32997 81407 10233 20156 39307 40131 80001 333 20138 59002;EQDQ01  00002PRCP06
0198831820999992005052000004-11300-041867FM-12+074799999V0200901N002619999999N0010001N1+02031+01671101211ADDAA106000091GF108991001001999999001011KA1240M+03021MA1999999092971MD1999999+0131REMSYN088AAXX  20004 83182 32994 80905 10203 20167 39297 40121 80001 333 10302 29/// 55103 58013;EQDQ01  00002PRCP06
0186831820999992005052012004-11300-041867FM-12+074799999V0201401N002119999999N0100001N1+02311+01751101781ADDAA106000091GF108991001001999999001011KA1240N+01311MA1999999093141MD1999999+0071REMSYN076AAXX  20124 83182 32997 81404 10231 20175 39314 40178 80001 333 20131 58007;EQDQ01  00002PRCP06
0198831820999992005052100004-11300-041867FM-12+074799999V0201401N003119999999N0010001N1+02111+01631101201ADDAA106000091GF108991001001999999001011KA1240M+03071MA1999999092961MD1999999-0011REMSYN088AAXX  21004 83182 32994 81406 10211 20163 39296 40120 80001 333 10307 29/// 55099 59001;EQDQ01  00002PRCP06
0186831820999992005052112004-11300-041867FM-12+074799999V0201401N002619999999N0100001N1+02561+01731101401ADDAA106000091GF108991001001999999001011KA1240N+01131MA1999999093201MD1999999+0061REMSYN076AAXX  21124 83182 32997 81405 10256 20173 39320 40140 80001 333 20113 58006;EQDQ01  00002PRCP06
0198831820999992005052200004-11300-041870FM-12+074799999V0200901N001512200019N0010001N1+02201+01761101141ADDAA106000091GF108991031001017501051011KA1240M+03141MA1999999092981MD1999999+0021REMSYN088AAXX  22004 83182 32794 80903 10220 20176 39298 40114 83051 333 10314 29/// 55105 58002;EQDQ01  00002PRCP06
0186831820999992005052212004-11300-041870FM-12+074799999V0200901N003112200019N0100001N1+02531+02011101321ADDAA106000091GF108991011011012501001011KA1240N+01561MA1999999093131MD1999999-0071REMSYN076AAXX  22124 83182 32697 80906 10253 20201 39313 40132 81101 333 20156 59007;EQDQ01  00002PRCP06
0198831820999992005052300004-11300-041870FM-12+074799999V0200901N002610450019N0010001N1+02361+01851101141ADDAA106000091GF108991021021008001051011KA1240M+03161MA1999999093001MD1999999+0021REMSYN088AAXX  23004 83182 32594 80905 10236 20185 39300 40114 82251 333 10316 29/// 55101 58002;EQDQ01  00002PRCP06
0186831820999992005052312004-11300-041870FM-12+074799999V0200901N002610450019N0100001N1+02641+02031101171ADDAA106000091GF108991021021008001041011KA1240N+01681MA1999999093041MD1999999-0091REMSYN076AAXX  23124 83182 32597 80905 10264 20203 39304 40117 82241 333 20168 59009;EQDQ01  00002PRCP06
0198831820999992005052400004-11300-041867FM-12+074799999V0201801N002110075019N0010001N1+02301+01851101181ADDAA106000091GF108991071051008001001011KA1240M+03151MA1999999093021MD1999999-0021REMSYN088AAXX  24004 83182 32594 81804 10230 20185 39302 40118 87501 333 10315 29/// 55086 59002;EQDQ01  00002PRCP06
0186831820999992005052412004-11300-041867FM-12+074799999V0200901N002110075019N0100001N1+02641+02051101311ADDAA106000091GF108991051021008001031011KA1240N+01821MA1999999093151MD1999999+0111REMSYN076AAXX  24124 83182 32597 80904 10264 20205 39315 40131 85231 333 20182 58011;EQDQ01  00002PRCP06
0198831820999992005052500004-11300-041867FM-12+074799999V0201401N000510450019N0010001N1+02181+01921101241ADDAA106000091GF108991021021008001051011KA1240M+03021MA1999999093071MD1999999+0051REMSYN088AAXX  25004 83182 32594 81401 10218 20192 39307 40124 82251 333 10302 29/// 55044 58005;EQDQ01  00002PRCP06
0186831820999992005052512004-11300-041867FM-12+074799999V0200501N004110075019N0100001N1+02601+01891101371ADDAA106000091GF108991051021008001041011KA1240N+01681MA1999999093191MD1999999+0041REMSYN076AAXX  25124 83182 32597 80508 10260 20189 39319 40137 85241 333 20168 58004;EQDQ01  00002PRCP06
0198831820999992005052600004-11300-041867FM-12+074799999V0201401N003112200019N0010001N1+02291+01781101281ADDAA106000091GF108991021001017501041011KA1240M+03021MA1999999093131MD1999999-0061REMSYN088AAXX  26004 83182 32794 81406 10229 20178 39313 40128 82041 333 10302 29/// 55088 59006;EQDQ01  00002PRCP06
0186831820999992005052612004-11300-041867FM-12+074799999V0201401N002612200019N0100001N1+02541+01981101611ADDAA106000091GF108991021011012501001011KA1240N+01681MA1999999093411MD1999999+0221REMSYN076AAXX  26124 83182 32697 81405 10254 20198 39341 40161 82101 333 20168 58022;EQDQ01  00002PRCP06
0198831820999992005052700004-11300-041867FM-12+074799999V0200901N002110450019N0010001N1+02351+01881101381ADDAA106000091GF108991031051008001041011KA1240M+03201MA1999999093221MD1999999+0091REMSYN088AAXX  27004 83182 32594 80904 10235 20188 39322 40138 83541 333 10320 29/// 55102 58009;EQDQ01  00002PRCP06
0186831820999992005052712004-11300-041867FM-12+074799999V0200901N005710450019N0100001N1+02561+01931101601ADDAA106000091GF108991021021008001041011KA1240N+01701MA1999999093421MD1999999+0011REMSYN076AAXX  27124 83182 32597 80911 10256 20193 39342 40160 82241 333 20170 58001;EQDQ01  00002PRCP06
0214831820999992005052800004-11300-041867FM-12+074799999V0201401N002619999999N0010001N1+02121+01841101611ADDAA106000091GF108991001001999999001011KA1240M+02831MA1999999093391MD1999999+0171REMSYN088AAXX  28004 83182 32594 81405 10212 20184 39339 40161 80001 333 10283 29/// 55097 58017;EQDQ01+008002SCOLCBQ02  00002PRCP06
0186831820999992005052812004-11300-041867FM-12+074799999V0201401N006210075019N0100001N1+02291+01781101661ADDAA106000091GF107991071051008001001001KA1240N+01531MA1999999093391MD1999999-0031REMSYN076AAXX  28124 83182 32597 71412 10229 20178 39339 40166 87500 333 20153 59003;EQDQ01  00002PRCP06
0198831820999992005052900004-11300-041870FM-12+074799999V0201401N003619999999N0010001N1+01881+01591101621ADDAA106000091GF108991001001999999001011KA1240M+02631MA1999999093261MD1999999-0131REMSYN088AAXX  29004 83182 32994 81407 10188 20159 39326 40162 80001 333 10263 29/// 55065 59013;EQDQ01  00002PRCP06
0186831820999992005052912004-11300-041870FM-12+074799999V0200901N002610075019N0100001N1+02351+01751101691ADDAA106000091GF107991071021008001001001KA1240N+01441MA1999999093381MD1999999-0011REMSYN076AAXX  29124 83182 32597 70905 10235 20175 39338 40169 87200 333 20144 59001;EQDQ01  00002PRCP06
0208831820999992005053000004-11300-041867FM-12+074799999V0201401N004612200019N0010001N1+02151+01611101621ADDAA106000091GA1001+999999999GF100991001001999999001001KA1240M+02741MA1999999093231MD1999999+0111REMSYN082AAXX  30004 83182 32994 01409 10215 20161 39323 40162 333 10274 29/// 55100 58011;EQDQ01  00002PRCP06
0202831820999992005053012004-11300-041867FM-12+074799999V0201401N005110075019N0100001N1+02321+01581101731ADDAA106000091GF107991999021008001001001KA1240N+01461MA1999999093471MD1999999+0091REMSYN076AAXX  30124 83182 32597 71410 10232 20158 39347 40173 86200 333 20146 58009;EQDQ01+000062SCOTLCQ02  00002PRCP06
0198831820999992005053100004-11300-041867FM-12+074799999V0201401N002610075019N0010001N1+02001+01721101791ADDAA106000091GF108991081051008001999999KA1240M+02721MA1999999093491MD1999999+0121REMSYN088AAXX  31004 83182 32594 81405 10200 20172 39349 40179 885// 333 10272 29/// 55101 58012;EQDQ01  00002PRCP06
0186831820999992005053112004-11300-041867FM-12+074799999V0201401N005110075019N0100001N1+02281+01671101681ADDAA106000091GF106991061021008001001001KA1240N+01481MA1999999093391MD1999999-0081REMSYN076AAXX  31124 83182 32597 61410 10228 20167 39339 40168 86200 333 20148 59008;EQDQ01  00002PRCP06
0198831820999992005060100004-11300-041867FM-12+074799999V0201401N003112200019N0010001N1+02111+01751101661ADDAA106000091GF104991041051008001001001KA1240M+02821MA1999999093391MD1999999-0101REMSYN088AAXX  01004 83182 32594 41406 10211 20175 39339 40166 84500 333 10282 29/// 55071 59010;EQDQ01  00002PRCP06
0186831820999992005060112004-11300-041867FM-12+074799999V0200901N009312200019N0100001N1+02351+01681101681ADDAA106000091GF108991041051008001001011KA1240N+01581MA1999999093431MD1999999+0041REMSYN076AAXX  01124 83182 32597 80918 10235 20168 39343 40168 84501 333 20158 58004;EQDQ01  00002PRCP06
0198831820999992005060200004-11300-041867FM-12+074799999V0201401N003110075019N0010001N1+02161+01791101651ADDAA106000091GF108991081051008001999999KA1240M+02781MA1999999093371MD1999999-0021REMSYN088AAXX  02004 83182 32594 81406 10216 20179 39337 40165 885// 333 10278 29/// 55080 59002;EQDQ01  00002PRCP06
0186831820999992005060212004-11300-041867FM-12+074799999V0201401N005110075019N0100001N1+02111+01731101721ADDAA106000091GF108991071051008001001011KA1240N+01661MA1999999093431MD1999999+0001REMSYN076AAXX  02124 83182 32597 81410 10211 20173 39343 40172 87501 333 20166 58000;EQDQ01  00002PRCP06
0198831820999992005060300004-11300-041867FM-12+074799999V0201401N004112200019N0010001N1+02021+01681101681ADDAA106000091GF108991021051008001001011KA1240M+02651MA1999999093361MD1999999-0011REMSYN088AAXX  03004 83182 32594 81408 10202 20168 39336 40168 82501 333 10265 29/// 55072 59001;EQDQ01  00002PRCP06
0186831820999992005060312004-11300-041867FM-12+074799999V0200901N004612200019N0100001N1+02261+01621101641ADDAA106000091GF108991021021008001001011KA1240N+01401MA1999999093351MD1999999-0081REMSYN076AAXX  03124 83182 32597 80909 10226 20162 39335 40164 82201 333 20140 59008;EQDQ01  00002PRCP06
0198831820999992005060400004-11300-041867FM-12+074799999V0201401N002610075019N0010001N1+01831+01551101771ADDAA106000091GF108991061051008001001011KA1240M+02601MA1999999093441MD1999999+0081REMSYN088AAXX  04004 83182 32594 81405 10183 20155 39344 40177 86501 333 10260 29/// 55067 58008;EQDQ01  00002PRCP06
0186831820999992005060412004-11300-041870FM-12+074799999V0201401N005710075019N0100001N1+02261+01711101711ADDAA106000091GF108991061051008001001011KA1240N+01421MA1999999093381MD1999999+0031REMSYN076AAXX  04124 83182 32597 81411 10226 20171 39338 40171 86501 333 20142 58003;EQDQ01  00002PRCP06
0198831820999992005060500004-11300-041870FM-12+074799999V0201401N003610075019N0010001N1+02011+01691101661ADDAA106000091GF108991061051008001001011KA1240M+02541MA1999999093371MD1999999-0071REMSYN088AAXX  05004 83182 32594 81407 10201 20169 39337 40166 86501 333 10254 29/// 55059 59007;EQDQ01  00002PRCP06
0186831820999992005060512004-11300-041867FM-12+074799999V0201401N006710075019N0100001N1+02161+01631101741ADDAA106000091GF108991081051008001999999KA1240N+01541MA1999999093431MD1999999+0051REMSYN076AAXX  05124 83182 32597 81413 10216 20163 39343 40174 885// 333 20154 58005;EQDQ01  00002PRCP06
0186831820999992005060612004-11300-041867FM-12+074799999V0201401N006710075019N0100001N1+02201+01651101601ADDAA106000091GF108991071021008001001011KA1240N+01491MA1999999093301MD1999999-0171REMSYN076AAXX  06124 83182 32597 81413 10220 20165 39330 40160 87201 333 20149 59017;EQDQ01  00002PRCP06
0198831820999992005060700004-11300-041867FM-12+074799999V0201401N003110075019N0010001N1+01981+01791101631ADDAA106000091GF108991081051008001999999KA1240M+02541MA1999999093331MD1999999-0061REMSYN088AAXX  07004 83182 32594 81406 10198 20179 39333 40163 885// 333 10254 29/// 55045 59006;EQDQ01  00002PRCP06
0186831820999992005060712004-11300-041867FM-12+074799999V0201401N004110075019N0100001N1+02181+01761101601ADDAA106000091GF108991081051008001999999KA1240N+01501MA1999999093301MD1999999+0001REMSYN076AAXX  07124 83182 32597 81408 10218 20176 39330 40160 885// 333 20150 58000;EQDQ01  00002PRCP06
0202831820999992005060800004-11300-041867FM-12+074799999V0201401N002610042019N0010001N1+01881+01801101521ADDAY161061AY221061GF108991081071004501999999KA1240M+02641MA1999999093211MD1999999-0121MW1021REMSYN100AAXX  08004 83182 21494 81405 10188 20180 39321 40152 70262 887// 333 10264 29/// 55071 59012 60031;
0162831820999992005060812004-11300-041867FM-12+074799999V0201401N005110075019N0100001N1+02121+01641101791ADDGF108991081051008001999999KA1240N+01421MA1999999093441MD1999999+0141REMSYN082AAXX  08124 83182 22597 81410 10212 20164 39344 40179 885// 333 20142 58014 60034;
0198831820999992005060900004-11300-041867FM-12+074799999V0201401N003110075019N0010001N1+01801+01581101721ADDAA106000091GF107991071051008001001001KA1240M+02501MA1999999093361MD1999999+0151REMSYN088AAXX  09004 83182 32594 71406 10180 20158 39336 40172 87500 333 10250 29/// 55057 58015;EQDQ01  00002PRCP06
0186831820999992005060912004-11300-041867FM-12+074799999V0201401N006210075019N0100001N1+02201+01611101871ADDAA106000091GF106991061021008001001001KA1240N+01611MA1999999093521MD1999999+0081REMSYN076AAXX  09124 83182 32597 61412 10220 20161 39352 40187 86200 333 20161 58008;EQDQ01  00002PRCP06
0198831820999992005061000004-11300-041867FM-12+074799999V0201401N002112200019N0010001N1+01841+01531101741ADDAA106000091GF102991021001017501051001KA1240M+02501MA1999999093391MD1999999+0061REMSYN088AAXX  10004 83182 32794 21404 10184 20153 39339 40174 82050 333 10250 29/// 55087 58006;EQDQ01  00002PRCP06
0186831820999992005061012004-11300-041867FM-12+074799999V0201401N005710075019N0100001N1+02181+01651101811ADDAA106000091GF108991081051008001999999KA1240N+01361MA1999999093461MD1999999-0061REMSYN076AAXX  10124 83182 32597 81411 10218 20165 39346 40181 885// 333 20136 59006;EQDQ01  00002PRCP06
0208831820999992005061100004-11300-041867FM-12+074799999V0200901N003112200019N0010001N1+01811+01521101681ADDAA106000091GA1001+999999999GF100991001001999999001001KA1240M+02501MA1999999093341MD1999999-0051REMSYN082AAXX  11004 83182 32994 00906 10181 20152 39334 40168 333 10250 29/// 55053 59005;EQDQ01  00002PRCP06
0186831820999992005061112004-11300-041867FM-12+074799999V0201401N003110075019N0100001N1+02101+01621101791ADDAA106000091GF106991061021008001001001KA1240N+01201MA1999999093431MD1999999-0031REMSYN076AAXX  11124 83182 32597 61406 10210 20162 39343 40179 86200 333 20120 59003;EQDQ01  00002PRCP06
0192831820999992005061200004-11300-041870FM-12+074799999V0201401N002612200019N0010001N1+01941+01701101721ADDAA106000091GF100991001001999999001001KA1240M+02841MA1999999093371MD1999999+0031REMSYN082AAXX  12004 83182 32994 01405 10194 20170 39337 40172 333 10284 29/// 55105 58003;EQDQ01  00002PRCP06
0186831820999992005061212004-11300-041870FM-12+074799999V0201401N004610075019N0100001N1+02221+01781101751ADDAA106000091GF106991061021008001001001KA1240N+01461MA1999999093441MD1999999+0011REMSYN076AAXX  12124 83182 32597 61409 10222 20178 39344 40175 86200 333 20146 58001;EQDQ01  00002PRCP06
0208831820999992005061300004-11300-041867FM-12+074799999V0201401N003612200019N0010001N1+01981+01761101561ADDAA106000091GA1001+999999999GF100991001001999999001001KA1240M+02651MA1999999093261MD1999999-0111REMSYN082AAXX  13004 83182 32994 01407 10198 20176 39326 40156 333 10265 29/// 55085 59011;EQDQ01  00002PRCP06
0186831820999992005061312004-11300-041867FM-12+074799999V0201401N005112200019N0100001N1+02301+01561101741ADDAA106000091GF102991021021008001001001KA1240N+01421MA1999999093451MD1999999+0011REMSYN076AAXX  13124 83182 32597 21410 10230 20156 39345 40174 82200 333 20142 58001;EQDQ01  00002PRCP06
0208831820999992005061400004-11300-041867FM-12+074799999V0201401N002612200019N0010001N1+01961+01661101711ADDAA106000091GA1001+999999999GF100991001001999999001001KA1240M+02801MA1999999093421MD1999999+0161REMSYN082AAXX  14004 83182 32994 01405 10196 20166 39342 40171 333 10280 29/// 55094 58016;EQDQ01  00002PRCP06
0186831820999992005061412004-11300-041867FM-12+074799999V0201401N004110075019N0100001N1+02301+01771101761ADDAA106000091GF108991061021008001031001KA1240N+01601MA1999999093461MD1999999+0011REMSYN076AAXX  14124 83182 32597 81408 10230 20177 39346 40176 86230 333 20160 58001;EQDQ01  00002PRCP06
0198831820999992005061500004-11300-041867FM-12+074799999V0201401N003610150019N0010001N1+02181+01841101701ADDAA106000091GF107991071001017501051001KA1240M+02861MA1999999093451MD1999999+0031REMSYN088AAXX  15004 83182 32794 71407 10218 20184 39345 40170 87050 333 10286 29/// 55058 58003;EQDQ01  00002PRCP06
0186831820999992005061512004-11300-041867FM-12+074799999V0201401N003112200019N0100001N1+02261+01721101851ADDAA106000091GF103991021021008001041001KA1240N+01561MA1999999093561MD1999999+0101REMSYN076AAXX  15124 83182 32597 31406 10226 20172 39356 40185 82240 333 20156 58010;EQDQ01  00002PRCP06
0198831820999992005061600004-11300-041867FM-12+074799999V0201401N003112200019N0010001N1+01961+01841101791ADDAA106000091GF101991011001017501041001KA1240M+02801MA1999999093471MD1999999+0021REMSYN088AAXX  16004 83182 32794 11406 10196 20184 39347 40179 81040 333 10280 29/// 55083 58002;EQDQ01  00002PRCP06
0186831820999992005061612004-11300-041867FM-12+074799999V0201401N005110075019N0100001N1+02281+01731101691ADDAA106000091GF108991081051008001999999KA1240N+01381MA1999999093381MD1999999-0181REMSYN076AAXX  16124 83182 32597 81410 10228 20173 39338 40169 885// 333 20138 59018;EQDQ01  00002PRCP06
0208831820999992005061700004-11300-041867FM-12+074799999V0201401N002612200019N0010001N1+01901+01701101701ADDAA106000091GA1001+999999999GF100991001001999999001001KA1240M+02641MA1999999093391MD1999999-0081REMSYN082AAXX  17004 83182 32994 01405 10190 20170 39339 40170 333 10264 29/// 55007 59008;EQDQ01  00002PRCP06
0186831820999992005061712004-11300-041867FM-12+074799999V0201401N002612200019N0100001N1+02161+01721101811ADDAA106000091GF101991011001017501041001KA1240N+01391MA1999999093471MD1999999+0091REMSYN076AAXX  17124 83182 32797 11405 10216 20172 39347 40181 81040 333 20139 58009;EQDQ01  00002PRCP06
0208831820999992005061800004-11300-041867FM-12+074799999V0200901N003112200019N0010001N1+02501+01671101411ADDAA106000091GA1001+999999999GF100991001001999999001001KA1240M+02781MA1999999093211MD1999999-0181REMSYN082AAXX  18004 83182 32994 00906 10250 20167 39321 40141 333 10278 29/// 55105 59018;EQDQ01  00002PRCP06
0186831820999992005061812004-11300-041867FM-12+074799999V0200901N002612200019N0100001N1+02261+01661101601ADDAA106000091GF103991001001999999001011KA1240N+01391MA1999999093381MD1999999-0091REMSYN076AAXX  18124 83182 32997 30905 10226 20166 39338 40160 80001 333 20139 59009;EQDQ01  00002PRCP06
0198831820999992005061900004-11300-041870FM-12+074799999V0200901N003612200019N0010001N1+02101+01601101461ADDAA106000091GF102991021001017501041001KA1240M+03071MA1999999093211MD1999999+0001REMSYN088AAXX  19004 83182 32794 20907 10210 20160 39321 40146 82040 333 10307 29/// 55102 58000;EQDQ01  00002PRCP06
0186831820999992005061912004-11300-041870FM-12+074799999V0201801N002119999999N0100001N1+02411+01781101551ADDAA106000091GF108991001001999999001011KA1240N+01601MA1999999093311MD1999999-0071REMSYN076AAXX  19124 83182 32997 81804 10241 20178 39331 40155 80001 333 20160 59007;EQDQ01  00002PRCP06
0198831820999992005062000004-11300-041870FM-12+074799999V0200501N001010450019N0010001N1+02391+01761101471ADDAA106000091GF108991011021008001051011KA1240M+03201MA1999999093281MD1999999+0071REMSYN088AAXX  20004 83182 32594 80502 10239 20176 39328 40147 81251 333 10320 29/// 55098 58007;EQDQ01  00002PRCP06
0186831820999992005062012004-11300-041870FM-12+074799999V0200901N002612200019N0100001N1+02481+01351101531ADDAA106000091GF101991011021008001001001KA1240N+01801MA1999999093351MD1999999+0041REMSYN076AAXX  20124 83182 32597 10905 10248 20135 39335 40153 81200 333 20180 58004;EQDQ01  00002PRCP06
0198831820999992005062100004-11300-041867FM-12+074799999V0200901N002612200019N0010001N1+02071+01651101471ADDAA106000091GF101991001001999999001011KA1240M+03061MA1999999093251MD1999999-0031REMSYN088AAXX  21004 83182 32994 10905 10207 20165 39325 40147 80001 333 10306 29/// 55100 59003;EQDQ01  00002PRCP06
0186831820999992005062112004-11300-041867FM-12+074799999V0201401N002612200019N0100001N1+02461+01731101661ADDAA106000091GF103991011011012501001011KA1240N+01731MA1999999093411MD1999999+0061REMSYN076AAXX  21124 83182 32697 31405 10246 20173 39341 40166 81101 333 20173 58006;EQDQ01  00002PRCP06
0208831820999992005062200004-11300-041867FM-12+074799999V0200901N002612200019N0010001N1+02131+01691101511ADDAA106000091GA1001+999999999GF100991001001999999001001KA1240M+03121MA1999999093281MD1999999+0031REMSYN082AAXX  22004 83182 32994 00905 10213 20169 39328 40151 333 10312 29/// 55097 58003;EQDQ01  00002PRCP06
0186831820999992005062212004-11300-041867FM-12+074799999V0200901N004112200019N0100001N1+02461+01631101671ADDAA106000091GF102991021021008001001001KA1240N+01761MA1999999093441MD1999999+0031REMSYN076AAXX  22124 83182 32597 20908 10246 20163 39344 40167 82200 333 20176 58003;EQDQ01  00002PRCP06
0198831820999992005062300004-11300-041867FM-12+074799999V0200901N004112200019N0010001N1+02061+01761101671ADDAA106000091GF101991011001017501041001KA1240M+03031MA1999999093421MD1999999+0141REMSYN088AAXX  23004 83182 32794 10908 10206 20176 39342 40167 81040 333 10303 29/// 55084 58014;EQDQ01  00002PRCP06
0186831820999992005062312004-11300-041867FM-12+074799999V0201401N005110075019N0100001N1+02111+01581101901ADDAA106000091GF108991081051008001999999KA1240N+01881MA1999999093571MD1999999+0131REMSYN076AAXX  23124 83182 32597 81410 10211 20158 39357 40190 885// 333 20188 58013;EQDQ01  00002PRCP06
0198831820999992005062400004-11300-041867FM-12+074799999V0201401N002612200019N0010001N1+01941+01571101771ADDAA106000091GF102991021051008001001001KA1240M+02621MA1999999093441MD1999999+0021REMSYN088AAXX  24004 83182 32594 21405 10194 20157 39344 40177 82500 333 10262 29/// 55052 58002;EQDQ01  00002PRCP06
0186831820999992005062412004-11300-041867FM-12+074799999V0200901N003610075019N0100001N1+02121+01571101791ADDAA106000091GF108991081051008001999999KA1240N+01811MA1999999093451MD1999999-0121REMSYN076AAXX  24124 83182 32597 80907 10212 20157 39345 40179 885// 333 20181 59012;EQDQ01  00002PRCP06
0198831820999992005062500004-11300-041867FM-12+074799999V0201401N003110150019N0010001N1+01981+01681101721ADDAA106000091GF107991071001017501051001KA1240M+02541MA1999999093391MD1999999-0051REMSYN088AAXX  25004 83182 32794 71406 10198 20168 39339 40172 87050 333 10254 29/// 55008 59005;EQDQ01  00002PRCP06
0186831820999992005062512004-11300-041867FM-12+074799999V0201401N004110075019N0100001N1+02181+01761101681ADDAA106000091GF108991081051008001999999KA1240N+01841MA1999999093371MD1999999-0081REMSYN076AAXX  25124 83182 32597 81408 10218 20176 39337 40168 885// 333 20184 59008;EQDQ01  00002PRCP06
0198831820999992005062600004-11300-041870FM-12+074799999V0201401N004112200019N0010001N1+01961+01661101621ADDAA106000091GF108991021001017501041011KA1240M+02621MA1999999093301MD1999999-0091REMSYN088AAXX  26004 83182 32794 81408 10196 20166 39330 40162 82041 333 10262 29/// 55023 59009;EQDQ01  00002PRCP06
0186831820999992005062612004-11300-041870FM-12+074799999V0201401N005110075019N0100001N1+02181+01631101711ADDAA106000091GF108991081051008001999999KA1240N+01761MA1999999093421MD1999999+0051REMSYN076AAXX  26124 83182 32597 81410 10218 20163 39342 40171 885// 333 20176 58005;EQDQ01  00002PRCP06
0198831820999992005062700004-11300-041867FM-12+074799999V0201401N002110075019N0010001N1+02011+01701101661ADDAA106000091GF108991081051008001999999KA1240M+02601MA1999999093351MD1999999+0051REMSYN088AAXX  27004 83182 32594 81404 10201 20170 39335 40166 885// 333 10260 29/// 55049 58005;EQDQ01  00002PRCP06
0186831820999992005062712004-11300-041867FM-12+074799999V0200901N003610075019N0100001N1+02301+01681101661ADDAA106000091GF108991081051008001999999KA1240N+01841MA1999999093371MD1999999-0051REMSYN076AAXX  27124 83182 32597 80907 10230 20168 39337 40166 885// 333 20184 59005;EQDQ01  00002PRCP06
0198831820999992005062800004-11300-041867FM-12+074799999V0201401N004610075019N0010001N1+02011+01691101741ADDAA106000091GF108991081051008001999999KA1240M+02691MA1999999093451MD1999999+0101REMSYN088AAXX  28004 83182 32594 81409 10201 20169 39345 40174 885// 333 10269 29/// 55040 58010;EQDQ01  00002PRCP06
0186831820999992005062812004-11300-041867FM-12+074799999V0200901N006710075019N0100001N1+02351+01551101851ADDAA106000091GF106991061021008001001001KA1240N+01661MA1999999093561MD1999999+0191REMSYN076AAXX  28124 83182 32597 60913 10235 20155 39356 40185 86200 333 20166 58019;EQDQ01  00002PRCP06
0198831820999992005062900004-11300-041867FM-12+074799999V0201401N003112200019N0010001N1+01911+01501101771ADDAA106000091GF102991001001999999001011KA1240M+02741MA1999999093471MD1999999+0021REMSYN088AAXX  29004 83182 32994 21406 10191 20150 39347 40177 80001 333 10274 29/// 55074 58002;EQDQ01  00002PRCP06
0186831820999992005062912004-11300-041867FM-12+074799999V0200901N006710075019N0100001N1+02181+01541101801ADDAA106000091GF107991071051008001001001KA1240N+01561MA1999999093461MD1999999+0101REMSYN076AAXX  29124 83182 32597 70913 10218 20154 39346 40180 87500 333 20156 58010;EQDQ01  00002PRCP06
0208831820999992005063000004-11300-041867FM-12+074799999V0201401N002612200019N0010001N1+01831+01551101711ADDAA106000091GA1001+999999999GF100991001001999999001001KA1240M+02681MA1999999093361MD1999999-0111REMSYN082AAXX  30004 83182 32994 01405 10183 20155 39336 40171 333 10268 29/// 55045 59011;EQDQ01  00002PRCP06
0186831820999992005063012004-11300-041867FM-12+074799999V0200901N005112200019N0100001N1+02301+01231101811ADDAA106000091GF105991041021008001001011KA1240N+01381MA1999999093471MD1999999+0011REMSYN076AAXX  30124 83182 32597 50910 10230 20123 39347 40181 84201 333 20138 58001;EQDQ01  00002PRCP06
0198831820999992005070100004-11300-041867FM-12+074799999V0201401N003119999999N0010001N1+01841+01531101631ADDAA106000091GF108991001001999999001011KA1240M+02751MA1999999093321MD1999999-0041REMSYN088AAXX  01004 83182 32994 81406 10184 20153 39332 40163 80001 333 10275 29/// 55096 59004;EQDQ01  00002PRCP06
0186831820999992005070112004-11300-041867FM-12+074799999V0201401N003112200019N0100001N1+02231+01251101781ADDAA106000091GF103991011021008001001011KA1240N+01521MA1999999093451MD1999999-0021REMSYN076AAXX  01124 83182 32597 31406 10223 20125 39345 40178 81201 333 20152 59002;EQDQ01  00002PRCP06
0192831820999992005070200004-11300-041867FM-12+074799999V0201401N004612200019N0010001N1+01951+01461101741ADDAA106000091GF100991001001999999001001KA1240M+02961MA1999999093431MD1999999+0111REMSYN082AAXX  02004 83182 32994 01409 10195 20146 39343 40174 333 10296 29/// 55075 58011;EQDQ01  00002PRCP06
0186831820999992005070212004-11300-041867FM-12+074799999V0201401N005710075019N0100001N1+02271+01601101891ADDAA106000091GF108991061021008001001011KA1240N+01701MA1999999093561MD1999999+0111REMSYN076AAXX  02124 83182 32597 81411 10227 20160 39356 40189 86201 333 20170 58011;EQDQ01  00002PRCP06
0198831820999992005070300004-11300-041870FM-12+074799999V0200901N001512200019N0010001N1+01901+01551101901ADDAA106000091GF108991021021008001001011KA1240M+02901MA1999999093571MD1999999+0141REMSYN088AAXX  03004 83182 32594 80903 10190 20155 39357 40190 82201 333 10290 29/// 55104 58014;EQDQ01  00002PRCP06
0186831820999992005070312004-11300-041870FM-12+074799999V0200901N005110075019N0100001N1+02221+01271102021ADDAA106000091GF107991071021008001001001KA1240N+01501MA1999999093671MD1999999+0111REMSYN076AAXX  03124 83182 32597 70910 10222 20127 39367 40202 87200 333 20150 58011;EQDQ01  00002PRCP06
0198831820999992005070400004-11300-041867FM-12+074799999V0201401N002119999999N0010001N1+01931+01601101811ADDAA106000091GF108991001001999999001011KA1240M+02841MA1999999093491MD1999999-0081REMSYN088AAXX  04004 83182 32994 81404 10193 20160 39349 40181 80001 333 10284 29/// 55085 59008;EQDQ01  00002PRCP06
0186831820999992005070412004-11300-041867FM-12+074799999V0201401N003110075019N0100001N1+02101+01461101811ADDAA106000091GF108991081051008001999999KA1240N+01541MA1999999093461MD1999999-0211REMSYN076AAXX  04124 83182 32597 81406 10210 20146 39346 40181 885// 333 20154 59021;EQDQ01  00002PRCP06
0192831820999992005070500004-11300-041867FM-12+074799999V0201401N002112200019N0010001N1+01801+01181101651ADDAA106000091GF100991001001999999001001KA1240M+02601MA1999999093291MD1999999-0201REMSYN082AAXX  05004 83182 32994 01404 10180 20118 39329 40165 333 10260 29/// 55025 59020;EQDQ01  00002PRCP06
0186831820999992005070512004-11300-041867FM-12+074799999V0201401N002612200019N0100001N1+02111+01351101931ADDAA106000091GF102991011001017501041011KA1240N+01341MA1999999093551MD1999999+0091REMSYN076AAXX  05124 83182 32797 21405 10211 20135 39355 40193 81041 333 20134 58009;EQDQ01  00002PRCP06
0186831820999992005070612004-11300-041867FM-12+074799999V0200901N005112200019N0100001N1+02281+01561101871ADDAA106000091GF102991021021008001001001KA1240N+01641MA1999999093621MD1999999+0071REMSYN076AAXX  06124 83182 32597 20910 10228 20156 39362 40187 82200 333 20164 58007;EQDQ01  00002PRCP06
0192831820999992005070700004-11300-041867FM-12+074799999V0200901N002612200019N0010001N1+02011+01591101831ADDAA106000091GF100991001001999999001001KA1240M+02981MA1999999093531MD1999999+0171REMSYN082AAXX  07004 83182 32994 00905 10201 20159 39353 40183 333 10298 29/// 55085 58017;EQDQ01  00002PRCP06
0186831820999992005070712004-11300-041867FM-12+074799999V0201401N004112200019N0100001N1+02481+01491101891ADDAA106000091GF108991011001008001021011KA1240N+01661MA1999999093621MD1999999+0001REMSYN076AAXX  07124 83182 32597 81408 10248 20149 39362 40189 81021 333 20166 58000;EQDQ01  00002PRCP06
0186831820999992005070812004-11300-041867FM-12+074799999V0201401N006210075019N0100001N1+02241+01571101951ADDAA106000091GF107991071051008001001001KA1240N+01821MA1999999093641MD1999999+0021REMSYN076AAXX  08124 83182 32597 71412 10224 20157 39364 40195 87500 333 20182 58002;EQDQ01  00002PRCP06
0198831820999992005070900004-11300-041867FM-12+074799999V0201401N003119999999N0010001N1+01851+01471101971ADDAA106000091GF108991001001999999001011KA1240M+02541MA1999999093631MD1999999+0151REMSYN088AAXX  09004 83182 32994 81406 10185 20147 39363 40197 80001 333 10254 29/// 55055 58015;EQDQ01  00002PRCP06
0186831820999992005070912004-11300-041867FM-12+074799999V0201401N005110075019N0100001N1+01931+01281102191ADDAA106000091GF108991061021008001031011KA1240N+01721MA1999999093771MD1999999+0131REMSYN076AAXX  09124 83182 32597 81410 10193 20128 39377 40219 86231 333 20172 58013;EQDQ01  00002PRCP06
0192831820999992005071000004-11300-041870FM-12+074799999V0201401N003112200019N0010001N1+01831+01231102061ADDAA106000091GF100991001001999999001001KA1240M+02571MA1999999093621MD1999999-0011REMSYN082AAXX  10004 83182 32994 01406 10183 20123 39362 40206 333 10257 29/// 55094 59001;EQDQ01  00002PRCP06
0186831820999992005071012004-11300-041870FM-12+074799999V0201401N006712200019N0100001N1+02021+01361102081ADDAA106000091GF102991011011012501001011KA1240N+01461MA1999999093671MD1999999-0101REMSYN076AAXX  10124 83182 32697 21413 10202 20136 39367 40208 81101 333 20146 59010;EQDQ01  00002PRCP06
0192831820999992005071100004-11300-041867FM-12+074799999V0200901N002112200019N0010001N1+01831+01181101961ADDAA106000091GF100991001001999999001001KA1240M+02691MA1999999093561MD1999999-0061REMSYN082AAXX  11004 83182 32994 00904 10183 20118 39356 40196 333 10269 29/// 55099 59006;EQDQ01  00002PRCP06
0186831820999992005071112004-11300-041867FM-12+074799999V0200901N006212200019N0100001N1+02081+01331102051ADDAA106000091GF102991011021008001001011KA1240N+01281MA1999999093671MD1999999+0001REMSYN076AAXX  11124 83182 32597 20912 10208 20133 39367 40205 81201 333 20128 58000;EQDQ01  00002PRCP06
0198831820999992005071200004-11300-041867FM-12+074799999V0201401N001512200019N0010001N1+01821+01431101901ADDAA106000091GF102991021001017501051001KA1240M+02701MA1999999093531MD1999999-0031REMSYN088AAXX  12004 83182 32794 21403 10182 20143 39353 40190 82050 333 10270 29/// 55100 59003;EQDQ01  00002PRCP06
0186831820999992005071212004-11300-041867FM-12+074799999V0201401N003610075019N0100001N1+02101+01601102011ADDAA106000091GF108991081051008001999999KA1240N+01661MA1999999093631MD1999999-0041REMSYN076AAXX  12124 83182 32597 81407 10210 20160 39363 40201 885// 333 20166 59004;EQDQ01  00002PRCP06
0202831820999992005071300004-11300-041867FM-12+074799999V0201401N004110042019N0010001N1+01801+01701101891ADDAY161061AY221061GF108991081071004501999999KA1240M+02481MA1999999093521MD1999999-0011MW1021REMSYN100AAXX  13004 83182 21494 81408 10180 20170 39352 40189 70262 887// 333 10248 29/// 55032 59001 69981;
0162831820999992005071312004-11300-041867FM-12+074799999V0201401N005710075019N0100001N1+01961+01481101981ADDGF108991081051008001999999KA1240N+01581MA1999999093581MD1999999-0051REMSYN082AAXX  13124 83182 22597 81411 10196 20148 39358 40198 885// 333 20158 59005 69984;
0198831820999992005071400004-11300-041867FM-12+074799999V0201401N002612200019N0010001N1+01701+01371101831ADDAA106000091GF101991011001017501041001KA1240M+02461MA1999999093431MD1999999-0091REMSYN088AAXX  14004 83182 32794 11405 10170 20137 39343 40183 81040 333 10246 29/// 55043 59009;EQDQ01  00002PRCP06
0186831820999992005071412004-11300-041867FM-12+074799999V0201401N006212200019N0100001N1+02061+01231101891ADDAA106000091GF101991011021008001001001KA1240N+01621MA1999999093501MD1999999-0081REMSYN076AAXX  14124 83182 32597 11412 10206 20123 39350 40189 81200 333 20162 59008;EQDQ01  00002PRCP06
0192831820999992005071500004-11300-041867FM-12+074799999V0200901N003112200019N0010001N1+01841+01391101801ADDAA106000091GF100991001001999999001001KA1240M+02771MA1999999093441MD1999999+0011REMSYN082AAXX  15004 83182 32994 00906 10184 20139 39344 40180 333 10277 29/// 55081 58001;EQDQ01  00002PRCP06
0186831820999992005071512004-11300-041867FM-12+074799999V0201401N006210075019N0100001N1+02151+01501101921ADDAA106000091GF106991061021008001001001KA1240N+01681MA1999999093561MD1999999+0061REMSYN076AAXX  15124 83182 32597 61412 10215 20150 39356 40192 86200 333 20168 58006;EQDQ01  00002PRCP06
0198831820999992005071600004-11300-041867FM-12+074799999V0200901N002612200019N0010001N1+01901+01621101801ADDAA106000091GF108991021021008001001011KA1240M+02441MA1999999093451MD1999999-0011REMSYN088AAXX  16004 83182 32594 80905 10190 20162 39345 40180 82201 333 10244 29/// 55062 59001;EQDQ01  00002PRCP06
0186831820999992005071612004-11300-041867FM-12+074799999V0201401N005710075019N0100001N1+02131+01491101891ADDAA106000091GF108991081051008001999999KA1240N+01701MA1999999093541MD1999999-0021REMSYN076AAXX  16124 83182 32597 81411 10213 20149 39354 40189 885// 333 20170 59002;EQDQ01  00002PRCP06
0192831820999992005071700004-11300-041870FM-12+074799999V0200901N004112200019N0010001N1+01861+01551101791ADDAA106000091GF100991001001999999001001KA1240M+02721MA1999999093441MD1999999-0011REMSYN082AAXX  17004 83182 32994 00908 10186 20155 39344 40179 333 10272 29/// 55080 59001;EQDQ01  00002PRCP06
0186831820999992005071712004-11300-041870FM-12+074799999V0200901N004112200019N0100001N1+02241+01531101881ADDAA106000091GF101991011021008001001001KA1240N+01321MA1999999093541MD1999999+0001REMSYN076AAXX  17124 83182 32597 10908 10224 20153 39354 40188 81200 333 20132 58000;EQDQ01  00002PRCP06
0192831820999992005071800004-11300-041867FM-12+074799999V0200901N003112200019N0010001N1+01941+01331101661ADDAA106000091GF100991001001999999001001KA1240M+02901MA1999999093351MD1999999-0091REMSYN082AAXX  18004 83182 32994 00906 10194 20133 39335 40166 333 10290 29/// 55100 59009;EQDQ01  00002PRCP06
0186831820999992005071812004-11300-041867FM-12+074799999V0200901N002112200019N0100001N1+02211+01241101801ADDAA106000091GF101991011011012501001001KA1240N+01341MA1999999093481MD1999999-0061REMSYN076AAXX  18124 83182 32697 10904 10221 20124 39348 40180 81100 333 20134 59006;EQDQ01  00002PRCP06
0192831820999992005071900004-11300-041867FM-12+074799999V0200901N003112200019N0010001N1+02001+01371101581ADDAA106000091GF100991001001999999001001KA1240M+03001MA1999999093281MD1999999-0071REMSYN082AAXX  19004 83182 32994 00906 10200 20137 39328 40158 333 10300 29/// 55101 59007;EQDQ01  00002PRCP06
0186831820999992005071912004-11300-041867FM-12+074799999V0200901N002619999999N0100001N1+02281+01151101711ADDAA106000091GF108991001001999999001011KA1240N+01381MA1999999093421MD1999999-0061REMSYN076AAXX  19124 83182 32997 80905 10228 20115 39342 40171 80001 333 20138 59006;EQDQ01  00002PRCP06
0168831820999992005072000004-11300-041867FM-12+074799999V0201401N002612200019N0010001N1+02081+01331101531ADDGF102991021001017501041011KA1240M+03121MA1999999093271MD1999999-0011REMSYN088AAXX  20004 83182 32794 21405 10208 20133 39327 40153 82041 333 10312 29/// 55107 59001;
0156831820999992005072012004-11300-041867FM-12+074799999V0201401N004110150019N0100001N1+02281+01541101711ADDGF107991071001017501051001KA1240N+01741MA1999999093441MD1999999+0021REMSYN076AAXX  20124 83182 32797 71408 10228 20154 39344 40171 87050 333 20174 58002;
0168831820999992005072100004-11300-041867FM-12+074799999V0201401N002610150019N0010001N1+02131+01811101601ADDGF107991071001017501051001KA1240M+03021MA1999999093341MD1999999+0071REMSYN088AAXX  21004 83182 32794 71405 10213 20181 39334 40160 87050 333 10302 29/// 55070 58007;
0156831820999992005072112004-11300-041867FM-12+074799999V0200901N006210075019N0100001N1+02251+01701101761ADDGF108991061021008001031011KA1240N+01761MA1999999093481MD1999999+0041REMSYN076AAXX  21124 83182 32597 80912 10225 20170 39348 40176 86231 333 20176 58004;
0168831820999992005072200004-11300-041867FM-12+074799999V0200901N002612200019N0010001N1+01901+01431101841ADDGF108991031001017501021011KA1240M+02601MA1999999093501MD1999999+0161REMSYN088AAXX  22004 83182 32794 80905 10190 20143 39350 40184 83021 333 10260 29/// 55065 58016;
0156831820999992005072212004-11300-041867FM-12+074799999V0200901N005112200019N0100001N1+02221+01411101981ADDGF108991031011012501001011KA1240N+01511MA1999999093641MD1999999+0301REMSYN076AAXX  22124 83182 32697 80910 10222 20141 39364 40198 83101 333 20151 58030;
0162831820999992005072300004-11300-041867FM-12+074799999V0201401N003112200019N0100001N1+01931+01531101771ADDGF100991001001999999001001KA1240M+02821MA1999999093551MD1999999+0051REMSYN082AAXX  23004 83182 32997 01406 10193 20153 39355 40177 333 10282 29/// 55106 58005;
0156831820999992005072312004-11300-041867FM-12+074799999V0200901N003610075019N0100001N1+02001+01581102001ADDGF108991081051008001999999KA1240N+01671MA1999999093621MD1999999-0021REMSYN076AAXX  23124 83182 32597 80907 10200 20158 39362 40200 885// 333 20167 59002;
0168831820999992005072400004-11300-041870FM-12+074799999V0200901N004110150019N0010001N1+02141+01501101891ADDGF106991051001017501051011KA1240M+02701MA1999999093551MD1999999+0001REMSYN088AAXX  24004 83182 32794 60908 10214 20150 39355 40189 85051 333 10270 29/// 55049 58000;
0156831820999992005072412004-11300-041870FM-12+074799999V0200901N005110450019N0100001N1+02231+01441101971ADDGF108991021021008001021011KA1240N+01451MA1999999093671MD1999999+0051REMSYN076AAXX  24124 83182 32597 80910 10223 20144 39367 40197 82221 333 20145 58005;
0168831820999992005072500004-11300-041870FM-12+074799999V0201401N003119999999N0010001N1+01851+01541101891ADDGF108991001001999999001011KA1240M+02701MA1999999093551MD1999999+0001REMSYN088AAXX  25004 83182 32994 81406 10185 20154 39355 40189 80001 333 10270 29/// 55083 58000;
0156831820999992005072512004-11300-041867FM-12+074799999V0200901N004112200019N0100001N1+02261+01371102091ADDGF102991021021008001001001KA1240N+01481MA1999999093741MD1999999+0071REMSYN076AAXX  25124 83182 32597 20908 10226 20137 39374 40209 82200 333 20148 58007;
0162831820999992005072600004-11300-041867FM-12+074799999V0200901N003612200019N0010001N1+01821+01531101951ADDGF100991001001999999001001KA1240M+02801MA1999999093611MD1999999+0061REMSYN082AAXX  26004 83182 32994 00907 10182 20153 39361 40195 333 10280 29/// 55095 58006;
0156831820999992005072612004-11300-041867FM-12+074799999V0201401N004112200019N0100001N1+02281+01461102081ADDGF101991011011012501001001KA1240N+01421MA1999999093731MD1999999+0031REMSYN076AAXX  26124 83182 32697 11408 10228 20146 39373 40208 81100 333 20142 58003;
0162831820999992005072700004-11300-041867FM-12+074799999V0200901N005112200019N0010001N1+02041+01451101831ADDGF100991001001999999001001KA1240M+02941MA1999999093531MD1999999-0081REMSYN082AAXX  27004 83182 32994 00910 10204 20145 39353 40183 333 10294 29/// 55107 59008;
0156831820999992005072712004-11300-041867FM-12+074799999V0200901N005712200019N0100001N1+02281+01461102041ADDGF108991031021008001001011KA1240N+01591MA1999999093721MD1999999-0011REMSYN076AAXX  27124 83182 32597 80911 10228 20146 39372 40204 83201 333 20159 59001;
0162831820999992005072800004-11300-041867FM-12+074799999V0200901N003112200019N0010001N1+02011+01491101871ADDGF100991001001999999001001KA1240M+02871MA1999999093561MD1999999+0031REMSYN082AAXX  28004 83182 32994 00906 10201 20149 39356 40187 333 10287 29/// 55105 58003;
0156831820999992005072812004-11300-041867FM-12+074799999V0200901N005110075019N0100001N1+02141+01501102081ADDGF108991081051008001999999KA1240N+01671MA1999999093731MD1999999+0011REMSYN076AAXX  28124 83182 32597 80910 10214 20150 39373 40208 885// 333 20167 58001;
0162831820999992005072900004-11300-041867FM-12+074799999V0200901N002612200019N0010001N1+01941+01221101951ADDGF100991001001999999001001KA1240M+02851MA1999999093611MD1999999+0051REMSYN082AAXX  29004 83182 32994 00905 10194 20122 39361 40195 333 10285 29/// 55093 58005;
0162831820999992005073000004-11300-041867FM-12+074799999V0200901N003119999999N0010001N1+02051+01591101931ADDGF108991999999999999999999KA1240M+02911MA1999999093591MD1999999-0021REMSYN082AAXX  30004 83182 32994 80906 10205 20159 39359 40193 333 10291 29/// 55102 59002;
0156831820999992005073012004-11300-041870FM-12+074799999V0201401N005112200019N0100001N1+02241+01321102011ADDGF103991011021008001001011KA1240N+01141MA1999999093671MD1999999-0051REMSYN076AAXX  30124 83182 32597 31410 10224 20132 39367 40201 81201 333 20114 59005;
0162831820999992005073100004-11300-041870FM-12+074799999V0201401N004112200019N0010001N1+01961+01501101861ADDGF100991001001999999001001KA1240M+02741MA1999999093541MD1999999-0051REMSYN082AAXX  31004 83182 32994 01408 10196 20150 39354 40186 333 10274 29/// 55098 59005;
0156831820999992005073112004-11300-041870FM-12+074799999V0201401N007712200019N0100001N1+02201+01251101911ADDGF102991021021008001001001KA1240N+01661MA1999999093581MD1999999-0091REMSYN076AAXX  31124 83182 32597 21415 10220 20125 39358 40191 82200 333 20166 59009;
0178831820999992005080100004-11300-041867FM-12+074799999V0200901N002612200019N0010001N1+01751+01151101871ADDGA1001+999999999GF100991001001999999001001KA1240M+02611MA1999999093501MD1999999-0041REMSYN082AAXX  01004 83182 32994 00905 10175 20115 39350 40187 333 10261 29/// 55100 59004;
0156831820999992005080112004-11300-041867FM-12+074799999V0200901N006212200019N0100001N1+02141+01311102051ADDGF102991021021008001001001KA1240N+01421MA1999999093661MD1999999+0081REMSYN076AAXX  01124 83182 32597 20912 10214 20131 39366 40205 82200 333 20142 58008;
0168831820999992005080200004-11300-041867FM-12+074799999V0200901N004110075019N0010001N1+02141+01501101751ADDGF108991081051008001999999KA1240M+02701MA1999999093451MD1999999-0051REMSYN088AAXX  02004 83182 32594 80908 10214 20150 39345 40175 885// 333 10270 29/// 55078 59005;
0156831820999992005080212004-11300-041867FM-12+074799999V0200901N004110075019N0100001N1+02081+01541101861ADDGF106991061051008001001001KA1240N+01441MA1999999093541MD1999999-0121REMSYN076AAXX  02124 83182 32597 60908 10208 20154 39354 40186 86500 333 20144 59012;
0178831820999992005080300004-11300-041867FM-12+074799999V0200901N002612200019N0010001N1+01901+01301101801ADDGA1001+999999999GF100991001001999999001001KA1240M+02621MA1999999093481MD1999999+0031REMSYN082AAXX  03004 83182 32994 00905 10190 20130 39348 40180 333 10262 29/// 55056 58003;
0156831820999992005080312004-11300-041867FM-12+074799999V0200901N004110042019N0100001N1+01981+01611101961ADDGF108991081071004501999999KA1240N+01561MA1999999093581MD1999999+0041REMSYN076AAXX  03124 83182 32497 80908 10198 20161 39358 40196 887// 333 20156 58004;
0213831820999992005080400004-11300-041867FM-12+074799999V0201401N003610075019N0010001N1+01881+01591101861ADDAA106000591AY161061AY221061GF108991081051008001999999KA1240M+02481MA1999999093491MD1999999+0011MW1021REMSYN100AAXX  04004 83182 21594 81407 10188 20159 39349 40186 70262 885// 333 10248 29/// 55024 58001 69941;
0201831820999992005080412004-11300-041867FM-12+074799999V0200901N004610075019N0100001N1+02161+01631102031ADDAA124000891AY161061AY221061GF106991061051008001001001KA1240N+01681MA1999999093661MD1999999+0081MW1011REMSYN088AAXX  04124 83182 21597 60909 10216 20163 39366 40203 70162 86500 333 20168 58008 69984;
0178831820999992005080500004-11300-041867FM-12+074799999V0201401N004612200019N0010001N1+01811+01541101911ADDGA1001+999999999GF100991001001999999001001KA1240M+02681MA1999999093551MD1999999+0061REMSYN082AAXX  05004 83182 32994 01409 10181 20154 39355 40191 333 10268 29/// 55075 58006;
0156831820999992005080512004-11300-041867FM-12+074799999V0200901N007712200019N0100001N1+02281+01441102031ADDGF101991011021008001001001KA1240N+01541MA1999999093681MD1999999+0021REMSYN076AAXX  05124 83182 32597 10915 10228 20144 39368 40203 81200 333 20154 58002;
0168831820999992005080600004-11300-041867FM-12+074799999V0201401N003119999999N0010001N1+01921+01341101891ADDGF108991001001999999001011KA1240M+02741MA1999999093561MD1999999-0011REMSYN088AAXX  06004 83182 32994 81406 10192 20134 39356 40189 80001 333 10274 29/// 55103 59001;
0156831820999992005080612004-11300-041867FM-12+074799999V0200901N005112200019N0100001N1+02221+01351102001ADDGF108991031021008001001011KA1240N+01301MA1999999093651MD1999999-0031REMSYN076AAXX  06124 83182 32597 80910 10222 20135 39365 40200 83201 333 20130 59003;
0162831820999992005080700004-11300-041870FM-12+074799999V0200901N004112200019N0010001N1+01891+01541101871ADDGF100991001001999999001001KA1240M+02811MA1999999093531MD1999999-0031REMSYN082AAXX  07004 83182 32994 00908 10189 20154 39353 40187 333 10281 29/// 55100 59003;
0156831820999992005080712004-11300-041870FM-12+074799999V0201401N006710075019N0100001N1+02101+01491102071ADDGF108991081051008001999999KA1240N+01551MA1999999093701MD1999999+0051REMSYN076AAXX  07124 83182 32597 81413 10210 20149 39370 40207 885// 333 20155 58005;
0178831820999992005080800004-11300-041867FM-12+074799999V0200901N004612200019N0010001N1+01971+01581101801ADDGA1001+999999999GF100991001001999999001001KA1240M+02821MA1999999093461MD1999999-0071REMSYN082AAXX  08004 83182 32994 00909 10197 20158 39346 40180 333 10282 29/// 55081 59007;
0156831820999992005080812004-11300-041867FM-12+074799999V0200901N005710075019N0100001N1+02231+01281101911ADDGF106991061021008001001001KA1240N+01561MA1999999093581MD1999999-0121REMSYN076AAXX  08124 83182 32597 60911 10223 20128 39358 40191 86200 333 20156 59012;
0178831820999992005080900004-11300-041867FM-12+074799999V0200901N003612200019N0010001N1+01961+01281101691ADDGA1001+999999999GF100991001001999999001001KA1240M+02861MA1999999093381MD1999999-0081REMSYN082AAXX  09004 83182 32994 00907 10196 20128 39338 40169 333 10286 29/// 55094 59008;
0156831820999992005080912004-11300-041867FM-12+074799999V0201401N002612200019N0100001N1+02201+01441101921ADDGF101991011011012501001001KA1240N+01441MA1999999093591MD1999999+0011REMSYN076AAXX  09124 83182 32697 11405 10220 20144 39359 40192 81100 333 20144 58001;
0178831820999992005081000004-11300-041867FM-12+074799999V0201401N003112200019N0010001N1+02021+01431101811ADDGA1001+999999999GF100991001001999999001001KA1240M+02921MA1999999093491MD1999999+0111REMSYN082AAXX  10004 83182 32994 01406 10202 20143 39349 40181 333 10292 29/// 55098 58011;
0156831820999992005081012004-11300-041867FM-12+074799999V0201401N003119999999N0100001N1+02171+01281101911ADDGF108991001001999999001011KA1240N+01551MA1999999093581MD1999999-0011REMSYN076AAXX  10124 83182 32997 81406 10217 20128 39358 40191 80001 333 20155 59001;
0168831820999992005081100004-11300-041867FM-12+074799999V0201401N003119999999N0010001N1+02091+01361101701ADDGF108991001001999999001011KA1240M+03001MA1999999093411MD1999999-0081REMSYN088AAXX  11004 83182 32994 81406 10209 20136 39341 40170 80001 333 10300 29/// 55105 59008;
0156831820999992005081112004-11300-041867FM-12+074799999V0201401N003612200019N0100001N1+02381+01681101881ADDGF108991021021008001001011KA1240N+01581MA1999999093611MD1999999+0031REMSYN076AAXX  11124 83182 32597 81407 10238 20168 39361 40188 82201 333 20158 58003;
0168831820999992005081200004-11300-041867FM-12+074799999V0200901N004119999999N0010001N1+02191+01501101601ADDGF108991001001999999001011KA1240M+03051MA1999999093351MD1999999-0061REMSYN088AAXX  12004 83182 32994 80908 10219 20150 39335 40160 80001 333 10305 29/// 55098 59006;
0156831820999992005081212004-11300-041867FM-12+074799999V0200901N004119999999N0100001N1+02431+01461101651ADDGF108991001001999999001011KA1240N+01621MA1999999093421MD1999999-0191REMSYN076AAXX  12124 83182 32997 80908 10243 20146 39342 40165 80001 333 20162 59019;
0168831820999992005081300004-11300-041867FM-12+074799999V0200901N004119999999N0010001N1+02181+01671101511ADDGF108991001001999999001011KA1240M+03071MA1999999093281MD1999999-0071REMSYN088AAXX  13004 83182 32994 80908 10218 20167 39328 40151 80001 333 10307 29/// 55096 59007;
0156831820999992005081312004-11300-041870FM-12+074799999V0201401N005112200019N0100001N1+02431+01461101651ADDGF108991011021008001001011KA1240N+01861MA1999999093421MD1999999+0001REMSYN076AAXX  13124 83182 32597 81410 10243 20146 39342 40165 81201 333 20186 58000;
0168831820999992005081400004-11300-041870FM-12+074799999V0201401N003619999999N0010001N1+02131+01441101471ADDGF108991001001999999001011KA1240M+02981MA1999999093251MD1999999-0031REMSYN088AAXX  14004 83182 32994 81407 10213 20144 39325 40147 80001 333 10298 29/// 55080 59003;
0156831820999992005081412004-11300-041870FM-12+074799999V0201401N004612200019N0100001N1+02401+01411101741ADDGF102991021011012501001001KA1240N+01561MA1999999093481MD1999999+0061REMSYN076AAXX  14124 83182 32697 21409 10240 20141 39348 40174 82100 333 20156 58006;
0168831820999992005081500004-11300-041870FM-12+074799999V0200901N003619999999N0010001N1+02181+01561101591ADDGF108991001001999999001011KA1240M+03001MA1999999093361MD1999999+0111REMSYN088AAXX  15004 83182 32994 80907 10218 20156 39336 40159 80001 333 10300 29/// 55105 58011;
0156831820999992005081512004-11300-041870FM-12+074799999V0201401N006212200019N0100001N1+02281+01661101881ADDGF101991011011012501001001KA1240N+01581MA1999999093611MD1999999+0131REMSYN076AAXX  15124 83182 32697 11412 10228 20166 39361 40188 81100 333 20158 58013;
0168831820999992005081600004-11300-041867FM-12+074799999V0200901N004112200019N0010001N1+02171+01191101741ADDGF108991031001017501051011KA1240M+03081MA1999999093481MD1999999+0121REMSYN088AAXX  16004 83182 32794 80908 10217 20119 39348 40174 83051 333 10308 29/// 55099 58012;
0156831820999992005081612004-11300-041867FM-12+074799999V0201401N005110075019N0100001N1+02471+01741101811ADDGF108991071021008001001011KA1240N+01901MA1999999093561MD1999999-0151REMSYN076AAXX  16124 83182 32597 81410 10247 20174 39356 40181 87201 333 20190 59015;
0168831820999992005081700004-11300-041867FM-12+074799999V0200901N003119999999N0010001N1+01981+01441101771ADDGF108991001001999999001011KA1240M+02981MA1999999093511MD1999999+0031REMSYN088AAXX  17004 83182 32994 80906 10198 20144 39351 40177 80001 333 10298 29/// 55079 58003;
0156831820999992005081712004-11300-041867FM-12+074799999V0200901N006712200019N0100001N1+02361+01381101871ADDGF103991021021008001001011KA1240N+01501MA1999999093561MD1999999+0001REMSYN076AAXX  17124 83182 32597 30913 10236 20138 39356 40187 82201 333 20150 58000;
0168831820999992005081800004-11300-041867FM-12+074799999V0201401N004110450019N0010001N1+02171+01691101791ADDGF108991021051008001051011KA1240M+02921MA1999999093531MD1999999+0021REMSYN088AAXX  18004 83182 32594 81408 10217 20169 39353 40179 82551 333 10292 29/// 55099 58002;
0156831820999992005081812004-11300-041867FM-12+074799999V0200901N005110075019N0100001N1+02221+01481101891ADDGF108991071051008001001011KA1240N+01821MA1999999093601MD1999999+0041REMSYN076AAXX  18124 83182 32597 80910 10222 20148 39360 40189 87501 333 20182 58004;
0168831820999992005081900004-11300-041867FM-12+074799999V0201401N002619999999N0010001N1+01941+01381101761ADDGF108991001001999999001011KA1240M+02721MA1999999093451MD1999999-0081REMSYN088AAXX  19004 83182 32994 81405 10194 20138 39345 40176 80001 333 10272 29/// 55072 59008;
0156831820999992005081912004-11300-041867FM-12+074799999V0200901N002612200019N0100001N1+02311+01331101991ADDGF108991021021008001001011KA1240N+01601MA1999999093671MD1999999+0071REMSYN076AAXX  19124 83182 32597 80905 10231 20133 39367 40199 82201 333 20160 58007;
0168831820999992005082000004-11300-041867FM-12+074799999V0201401N003119999999N0010001N1+01941+01491101931ADDGF108991001001999999001011KA1240M+02881MA1999999093621MD1999999+0171REMSYN088AAXX  20004 83182 32994 81406 10194 20149 39362 40193 80001 333 10288 29/// 55103 58017;
0156831820999992005082012004-11300-041867FM-12+074799999V0200901N007212200019N0100001N1+02171+01221102011ADDGF101991011011012501001001KA1240N+01561MA1999999093661MD1999999-0011REMSYN076AAXX  20124 83182 32697 10914 10217 20122 39366 40201 81100 333 20156 59001;
0162831820999992005082100004-11300-041870FM-12+074799999V0200901N003112200019N0010001N1+01921+01361101891ADDGF100991001001999999001001KA1240M+02901MA1999999093541MD1999999-0081REMSYN082AAXX  21004 83182 32994 00906 10192 20136 39354 40189 333 10290 29/// 55108 59008;
0156831820999992005082112004-11300-041870FM-12+074799999V0201401N005112200019N0100001N1+02301+01291101921ADDGF103991021021008001041001KA1240N+01681MA1999999093591MD1999999-0071REMSYN076AAXX  21124 83182 32597 31410 10230 20129 39359 40192 82240 333 20168 59007;
0168831820999992005082200004-11300-041867FM-12+074799999V0200901N004610150019N0010001N1+02071+01651101661ADDGF108991061001017501071011KA1240M+02831MA1999999093391MD1999999-0151REMSYN088AAXX  22004 83182 32794 80909 10207 20165 39339 40166 86071 333 10283 29/// 55105 59015;
0156831820999992005082212004-11300-041867FM-12+074799999V0201401N005710075019N0100001N1+02231+01471101781ADDGF106991061021008001001001KA1240N+01681MA1999999093481MD1999999-0111REMSYN076AAXX  22124 83182 32597 61411 10223 20147 39348 40178 86200 333 20168 59011;
0168831820999992005082300004-11300-041867FM-12+074799999V0200901N007210042019N0010001N1+01931+01411101761ADDGF108991081051004501999999KA1240M+02881MA1999999093451MD1999999+0061REMSYN088AAXX  23004 83182 32494 80914 10193 20141 39345 40176 885// 333 10288 29/// 55103 58006;
0220831820999992005082312004-11300-041867FM-12+074799999V0200901N004112200019N0100001N1+01981+01501102071ADDAA124000091AY161061AY221061GF108991021021008001001011KA1240N+01661MA1999999093681MD1999999+0201MW1011REMSYN088AAXX  23124 83182 21597 80908 10198 20150 39368 40207 70162 82201 333 20166 58020 69914;EQDQ01  00002PRCP24
0168831820999992005082400004-11300-041867FM-12+074799999V0201401N003119999999N0010001N1+02061+01521101731ADDGF108991001001999999001011KA1240M+02981MA1999999093381MD1999999-0071REMSYN088AAXX  24004 83182 32994 81406 10206 20152 39338 40173 80001 333 10298 29/// 55085 59007;
0156831820999992005082412004-11300-041867FM-12+074799999V0200901N005112200019N0100001N1+02361+01491101761ADDGF102991021021012501001001KA1240N+01661MA1999999093421MD1999999-0201REMSYN076AAXX  24124 83182 32697 20910 10236 20149 39342 40176 82200 333 20166 59020;
0168831820999992005082500004-11300-041867FM-12+074799999V0200901N003619999999N0010001N1+02041+01411101661ADDGF108991001001999999001011KA1240M+02951MA1999999093391MD1999999+0011REMSYN088AAXX  25004 83182 32994 80907 10204 20141 39339 40166 80001 333 10295 29/// 55082 58001;
0156831820999992005082512004-11300-041867FM-12+074799999V0200901N005119999999N0100001N1+02251+01221101741ADDGF108991001001999999001011KA1240N+01521MA1999999093451MD1999999-0031REMSYN076AAXX  25124 83182 32997 80910 10225 20122 39345 40174 80001 333 20152 59003;
0168831820999992005082600004-11300-041867FM-12+074799999V0200901N003119999999N0010001N1+02181+01441101401ADDGF108991001001999999001011KA1240M+03161MA1999999093151MD1999999-0241REMSYN088AAXX  26004 83182 32994 80906 10218 20144 39315 40140 80001 333 10316 29/// 55109 59024;
0156831820999992005082612004-11300-041867FM-12+074799999V0201401N003112200019N0100001N1+02161+01321101701ADDGF102991011011012501001011KA1240N+01501MA1999999093421MD1999999-0031REMSYN076AAXX  26124 83182 32697 21406 10216 20132 39342 40170 81101 333 20150 59003;
0178831820999992005082700004-11300-041867FM-12+074799999V0201401N004112200019N0010001N1+02031+01391101621ADDGA1001+999999999GF100991001001999999001001KA1240M+03021MA1999999093321MD1999999+0171REMSYN082AAXX  27004 83182 32994 01408 10203 20139 39332 40162 333 10302 29/// 55100 58017;
0156831820999992005082712004-11300-041867FM-12+074799999V0200901N005712200019N0100001N1+02241+01261101771ADDGF101991011011012501001001KA1240N+01421MA1999999093471MD1999999+0021REMSYN076AAXX  27124 83182 32697 10911 10224 20126 39347 40177 81100 333 20142 58002;
0178831820999992005082800004-11300-041867FM-12+074799999V0201401N004112200019N0010001N1+02141+01331101641ADDGA1001+999999999GF100991001001999999001001KA1240M+03041MA1999999093371MD1999999+0041REMSYN082AAXX  28004 83182 32994 01408 10214 20133 39337 40164 333 10304 29/// 55109 58004;
0156831820999992005082812004-11300-041867FM-12+074799999V0200901N003612200019N0100001N1+02401+01411101751ADDGF103991031021008001001001KA1240N+01621MA1999999093491MD1999999+0021REMSYN076AAXX  28124 83182 32597 30907 10240 20141 39349 40175 83200 333 20162 58002;
0178831820999992005082900004-11300-041867FM-12+074799999V0200901N003612200019N0010001N1+02201+01281101401ADDGA1001+999999999GF100991001001999999001001KA1240M+03061MA1999999093181MD1999999-0191REMSYN082AAXX  29004 83182 32994 00907 10220 20128 39318 40140 333 10306 29/// 55107 59019;
0166831820999992005082912004-11300-041867FM-12+074799999V0200901N003112200019N0100001N1+02471+01681101601ADDGA1001+999999999GF100991001001999999001001KA1240N+01641MA1999999093381MD1999999-0111REMSYN070AAXX  29124 83182 32997 00906 10247 20168 39338 40160 333 20164 59011;
0178831820999992005083000004-11300-041867FM-12+074799999V0200901N004112200019N0010001N1+02271+01451101411ADDGA1001+999999999GF100991001001999999001001KA1240M+03141MA1999999093211MD1999999+0031REMSYN082AAXX  30004 83182 32994 00908 10227 20145 39321 40141 333 10314 29/// 55105 58003;
0166831820999992005083012004-11300-041867FM-12+074799999V0200901N003112200019N0100001N1+02501+01621101651ADDGA1001+999999999GF100991001001999999001001KA1240N+01621MA1999999093351MD1999999-0031REMSYN070AAXX  30124 83182 32997 00906 10250 20162 39335 40165 333 20162 59003;
0178831820999992005083100004-11300-041867FM-12+074799999V0201401N003112200019N0010001N1+02101+01541101501ADDGA1001+999999999GF100991001001999999001001KA1240M+03221MA1999999093271MD1999999+0061REMSYN082AAXX  31004 83182 32994 01406 10210 20154 39327 40150 333 10322 29/// 55102 58006;
0156831820999992005083112004-11300-041867FM-12+074799999V0200901N006210075019N0100001N1+02151+01441101661ADDGF108991071021008001001011KA1240N+01761MA1999999093371MD1999999+0021REMSYN076AAXX  31124 83182 32597 80912 10215 20144 39337 40166 87201 333 20176 58002;
0197831820999992005090100004-11300-041867FM-12+074799999V0201401N003112200019N0010001N1+02171+01441101461ADDGA1001+999999999GF100991001001999999001001KA1240M+03061MA1999999999999MD1999999-0101REMSYN082AAXX  01004 83182 32994 01406 10217 20144 39017 40146 333 10306 29/// 55099 59010;EQDQ01 090173APOSP 
0156831820999992005090112004-11300-041867FM-12+074799999V0200901N005112200019N0100001N1+02331+01241101691ADDGF101991011011012501001001KA1240N+01501MA1999999093421MD1999999+0051REMSYN076AAXX  01124 83182 32697 10910 10233 20124 39342 40169 81100 333 20150 58005;
0123831820999992005090118004-11300-041867FM-12+074799999V0200901N003612200019N0100001N1+03001+01001999999ADDGF101991011011012501001001MA1999999092921REMSYN070AAXX  01184 83182 32697 10907 10300 20100 39292 4//// 81100 333 5////;
0178831820999992005090200004-11300-041867FM-12+074799999V0200901N004112200019N0010001N1+02181+01371101471ADDGA1001+999999999GF100991001001999999001001KA1240M+03041MA1999999093231MD1999999+0061REMSYN082AAXX  02004 83182 32994 00908 10218 20137 39323 40147 333 10304 29047 55107 58006;
0166831820999992005090212004-11300-041867FM-12+074799999V0200901N005112200019N0100001N1+02401+01521101661ADDGA1001+999999999GF100991001001999999001001KA1240N+01481MA1999999093431MD1999999+0011REMSYN070AAXX  02124 83182 32997 00910 10240 20152 39343 40166 333 20148 58001;
0178831820999992005090300004-11300-041867FM-12+074799999V0200901N004112200019N0010001N1+02381+01481101371ADDGA1001+999999999GF100991001001999999001001KA1240M+03201MA1999999093191MD1999999-0041REMSYN082AAXX  03004 83182 32994 00908 10238 20148 39319 40137 333 10320 29/// 55103 59004;
0166831820999992005090312004-11300-041867FM-12+074799999V0200901N004612200019N0100001N1+02521+01401101571ADDGA1001+999999999GF100991001001999999001001KA1240N+01661MA1999999093391MD1999999-0041REMSYN070AAXX  03124 83182 32997 00909 10252 20140 39339 40157 333 20166 59004;
0123831820999992005090318004-11300-041867FM-12+074799999V0201401N006212200019N0100001N1+03061+01301100971ADDGF101991011021008001001001MA1999999092891REMSYN070AAXX  03184 83182 32597 11412 10306 20130 39289 40097 81200 333 5////;
0156831820999992005090412004-11300-041867FM-12+074799999V0201401N005112200019N0100001N1+02381+01391101691ADDGF101991011021008001001001KA1240N+01621MA1999999093471MD1999999+0081REMSYN076AAXX  04124 83182 32597 11410 10238 20139 39347 40169 81200 333 20162 58008;
0137831820999992005090418004-11300-041867FM-12+074799999V0201401N003112200019N0100001N1+03051+01141101171ADDGF102991011011012501001011MA1999999092911MD1999999+0021REMSYN070AAXX  04184 83182 32697 21406 10305 20114 39291 40117 81101 333 58002;
0156831820999992005090512004-11300-041867FM-12+074799999V0200901N005712200019N0100001N1+02401+01581101641ADDGF101991011011012501001001KA1240N+01661MA1999999093421MD1999999-0051REMSYN076AAXX  05124 83182 32697 10911 10240 20158 39342 40164 81100 333 20166 59005;
0137831820999992005090518004-11300-041867FM-12+074799999V0203601N001512200019N0100001N1+03121+01251100971ADDGF102991021021008001001001MA1999999092871MD1999999-0041REMSYN070AAXX  05184 83182 32597 23603 10312 20125 39287 40097 82200 333 59004;
0178831820999992005090600004-11300-041867FM-12+074799999V0201401N002612200019N0010001N1+02301+01401101391ADDGA1001+999999999GF100991001001999999001001KA1240M+03161MA1999999093191MD1999999-0041REMSYN082AAXX  06004 83182 32994 01405 10230 20140 39319 40139 333 10316 29051 55107 59004;
0156831820999992005090612004-11300-041867FM-12+074799999V0200901N003612200019N0100001N1+02401+01521101591ADDGF101991001001999999001011KA1240N+01601MA1999999093371MD1999999-0051REMSYN076AAXX  06124 83182 32997 10907 10240 20152 39337 40159 80001 333 20160 59005;
0137831820999992005090618004-11300-041867FM-12+074799999V0201401N002112200019N0100001N1+03151+01371100931ADDGF104991041021008001001001MA1999999092841MD1999999-0031REMSYN070AAXX  06184 83182 32597 41404 10315 20137 39284 40093 84200 333 59003;
0178831820999992005090700004-11300-041867FM-12+074799999V0200901N002612200019N0010001N1+02291+01211101331ADDGA1001+999999999GF100991001001999999001001KA1240M+03201MA1999999093141MD1999999-0051REMSYN082AAXX  07004 83182 32994 00905 10229 20121 39314 40133 333 10320 29048 55102 59005;
0156831820999992005090712004-11300-041867FM-12+074799999V0200901N004612200019N0100001N1+02461+01581101581ADDGF101991011011012501001001KA1240N+01681MA1999999093381MD1999999+0011REMSYN076AAXX  07124 83182 32697 10909 10246 20158 39338 40158 81100 333 20168 58001;
0137831820999992005090718004-11300-041867FM-12+074799999V0201401N003610075019N0100001N1+02901+01401101331ADDGF108991071021008001001011MA1999999093171MD1999999+0331REMSYN070AAXX  07184 83182 32597 81407 10290 20140 39317 40133 87201 333 58033;
0168831820999992005090800004-11300-041867FM-12+074799999V0201401N003119999999N0010001N1+02281+01241101481ADDGF108991001001999999001011KA1240M+02961MA1999999093271MD1999999+0131REMSYN088AAXX  08004 83182 32994 81406 10228 20124 39327 40148 80001 333 10296 29050 55101 58013;
0156831820999992005090812004-11300-041867FM-12+074799999V0200901N006212200019N0100001N1+02511+01451101741ADDGF108991031021008001001011KA1240N+01871MA1999999093531MD1999999+0151REMSYN076AAXX  08124 83182 32597 80912 10251 20145 39353 40174 83201 333 20187 58015;
0168831820999992005090900004-11300-041867FM-12+074799999V0200901N004619999999N0010001N1+02331+01431101621ADDGF108991001001999999001011KA1240M+03051MA1999999093421MD1999999+0151REMSYN088AAXX  09004 83182 32994 80909 10233 20143 39342 40162 80001 333 10305 29048 55092 58015;
0156831820999992005090912004-11300-041867FM-12+074799999V0200901N009312200019N0100001N1+02501+01621101831ADDGF102991021021008001001001KA1240N+01881MA1999999093621MD1999999+0091REMSYN076AAXX  09124 83182 32597 20918 10250 20162 39362 40183 82200 333 20188 58009;
0137831820999992005090918004-11300-041867FM-12+074799999V0200901N007212200019N0100001N1+02861+01161101371ADDGF102991021021008001001001MA1999999093231MD1999999+0101REMSYN070AAXX  09184 83182 32597 20914 10286 20116 39323 40137 82200 333 58010;
0178831820999992005091000004-11300-041867FM-12+074799999V0200901N004112200019N0010001N1+02111+01431101781ADDGA1001+999999999GF100991001001999999001001KA1240M+02941MA1999999093541MD1999999+0121REMSYN082AAXX  10004 83182 32994 00908 10211 20143 39354 40178 333 10294 29053 55102 58012;
0166831820999992005091012004-11300-041867FM-12+074799999V0200901N006712200019N0100001N1+02411+01001101961ADDGA1001+999999999GF100991001001999999001001KA1240N+01661MA1999999093681MD1999999+0061REMSYN070AAXX  10124 83182 32997 00913 10241 20100 39368 40196 333 20166 58006;
0156831820999992005091112004-11300-041867FM-12+074799999V0201401N005710075019N0100001N1+02041+01661101891ADDGF106991061051008001001001KA1240N+01721MA1999999093601MD1999999-0081REMSYN076AAXX  11124 83182 32597 61411 10204 20166 39360 40189 86500 333 20172 59008;
0168831820999992005091118004-11300-041867FM-12+074799999V0201401N005710075019N0100001N1+02421+01651101481ADDAA106000591AY161061AY261061GF108991081051008001999999MA1999999093241MW1021REMSYN082AAXX  11184 83182 21597 81411 10242 20165 39324 40148 70266 885// 333 5//// 69941;
0173831820999992005091212004-11300-041867FM-12+074799999V0200901N004110075019N0100001N1+02321+01601101911ADDAA124000591GF108991081051008001999999KA1240N+01761MA1999999093601MD1999999+0001REMSYN082AAXX  12124 83182 22597 80908 10232 20160 39360 40191 885// 333 20176 58000 69944;
0137831820999992005091218004-11300-041867FM-12+074799999V0200901N003612200019N0100001N1+02981+01351101331ADDGF103991031021008001001001MA1999999093151MD1999999-0091REMSYN070AAXX  12184 83182 32597 30907 10298 20135 39315 40133 83200 333 59009;
0178831820999992005091300004-11300-041867FM-12+074799999V0201401N003112200019N0010001N1+02161+01721101691ADDGA1001+999999999GF100991001001999999001001KA1240M+03041MA1999999093441MD1999999+0071REMSYN082AAXX  13004 83182 32994 01406 10216 20172 39344 40169 333 10304 29059 55064 58007;
0156831820999992005091312004-11300-041867FM-12+074799999V0200901N003112200019N0100001N1+02391+01541101751ADDGF102991021021008001001011KA1240N+01811MA1999999093491MD1999999-0111REMSYN076AAXX  13124 83182 32597 20906 10239 20154 39349 40175 82201 333 20181 59011;
0137831820999992005091318004-11300-041867FM-12+074799999V0201401N004112200019N0100001N1+02981+01401101181ADDGF101991011011012501001001MA1999999093051MD1999999-0101REMSYN070AAXX  13184 83182 32697 11408 10298 20140 39305 40118 81100 333 59010;
0178831820999992005091400004-11300-041867FM-12+074799999V0201401N002112200019N0010001N1+02051+01451101601ADDGA1001+999999999GF100991001001999999001001KA1240M+03021MA1999999093341MD1999999-0101REMSYN082AAXX  14004 83182 32994 01404 10205 20145 39334 40160 333 10302 29055 55092 59010;
0156831820999992005091412004-11300-041867FM-12+074799999V0200901N006212200019N0100001N1+02321+01531101811ADDGF108991041021008001001011KA1240N+01611MA1999999093531MD1999999+0041REMSYN076AAXX  14124 83182 32597 80912 10232 20153 39353 40181 84201 333 20161 58004;
0147831820999992005091418004-11300-041867FM-12+074799999V0200901N004112200019N0100001N1+02921+01381101231ADDGA1001+999999999GF100991001001999999001001MA1999999093051MD1999999+0001REMSYN064AAXX  14184 83182 32997 00908 10292 20138 39305 40123 333 58000;
0168831820999992005091500004-11300-041867FM-12+074799999V0200901N003119999999N0010001N1+02071+01411101721ADDGF108991001001999999001011KA1240M+02941MA1999999093451MD1999999+0111REMSYN088AAXX  15004 83182 32994 80906 10207 20141 39345 40172 80001 333 10294 29055 55102 58011;
0184831820999992005091512004-11300-041867FM-12+074799999V0200901N005119999999N0100001N1+02321+01341101941ADDAY121061AY221061GF108991001001999999001011KA1240N+01611MA1999999093651MD1999999+0121MW1051REMSYN082AAXX  15124 83182 31997 80910 10232 20134 39365 40194 70522 80001 333 20161 58012;
0137831820999992005091518004-11300-041867FM-12+074799999V0200901N006212200019N0100001N1+02991+01401101341ADDGF108991021011012501001011MA1999999093161MD1999999+0111REMSYN070AAXX  15184 83182 32697 80912 10299 20140 39316 40134 82101 333 58011;
0168831820999992005091600004-11300-041867FM-12+074799999V0200901N004119999999N0010001N1+02111+01401101691ADDGF108991001001999999001011KA1240M+03041MA1999999093421MD1999999-0031REMSYN088AAXX  16004 83182 32994 80908 10211 20140 39342 40169 80001 333 10304 29052 55104 59003;
0156831820999992005091612004-11300-041867FM-12+074799999V0200901N004612200019N0100001N1+02361+01351101941ADDGF108991011011012501001011KA1240N+01321MA1999999093661MD1999999+0011REMSYN076AAXX  16124 83182 32697 80909 10236 20135 39366 40194 81101 333 20132 58001;
0137831820999992005091618004-11300-041867FM-12+074799999V0200901N004612200019N0100001N1+03001+01291101281ADDGF104991041021008001001001MA1999999093091MD1999999-0071REMSYN070AAXX  16184 83182 32597 40909 10300 20129 39309 40128 84200 333 59007;
0178831820999992005091700004-11300-041867FM-12+074799999V0201401N002612200019N0010001N1+02101+01491101621ADDGA1001+999999999GF100991001001999999001001KA1240M+03101MA1999999093371MD1999999-0051REMSYN082AAXX  17004 83182 32994 01405 10210 20149 39337 40162 333 10310 29052 55109 59005;
0156831820999992005091712004-11300-041867FM-12+074799999V0200901N003112200019N0100001N1+02481+01511101771ADDGF103991031021008001001001KA1240N+01701MA1999999093531MD1999999-0131REMSYN076AAXX  17124 83182 32597 30906 10248 20151 39353 40177 83200 333 20170 59013;
0137831820999992005091718004-11300-041867FM-12+074799999V0200901N006212200019N0100001N1+03151+01281100981ADDGF108991021011012501001011MA1999999092861MD1999999-0231REMSYN070AAXX  17184 83182 32697 80912 10315 20128 39286 40098 82101 333 59023;
0156831820999992005091812004-11300-041867FM-12+074799999V0200901N006212200019N0100001N1+02321+01391101771ADDGF108991021021008001001011KA1240N+01701MA1999999093531MD1999999+0001REMSYN076AAXX  18124 83182 32597 80912 10232 20139 39353 40177 82201 333 20170 58000;
0137831820999992005091818004-11300-041867FM-12+074799999V0200901N005112200019N0100001N1+03001+01331101171ADDGF108991011011012501001011MA1999999093041MD1999999+0181REMSYN070AAXX  18184 83182 32697 80910 10300 20133 39304 40117 81101 333 58018;
0168831820999992005091900004-11300-041867FM-12+074799999V0200901N003119999999N0010001N1+02241+01431101581ADDGF108991001001999999001011KA1240M+03021MA1999999093351MD1999999+0161REMSYN088AAXX  19004 83182 32994 80906 10224 20143 39335 40158 80001 333 10302 29051 55091 58016;
0156831820999992005091912004-11300-041867FM-12+074799999V0200901N005712200019N0100001N1+02381+01481101821ADDGF108991031021008001001011KA1240N+01541MA1999999093571MD1999999+0041REMSYN076AAXX  19124 83182 32597 80911 10238 20148 39357 40182 83201 333 20154 58004;
0137831820999992005091918004-11300-041867FM-12+074799999V0200901N003112200019N0100001N1+03131+01311101171ADDGF108991021011012501001011MA1999999093041MD1999999+0001REMSYN070AAXX  19184 83182 32697 80906 10313 20131 39304 40117 82101 333 58000;
0168831820999992005092000004-11300-041867FM-12+074799999V0200901N004119999999N0010001N1+02301+01481101571ADDGF108991001001999999001011KA1240M+03151MA1999999093351MD1999999+0001REMSYN088AAXX  20004 83182 32994 80908 10230 20148 39335 40157 80001 333 10315 29050 55102 58000;
0156831820999992005092012004-11300-041867FM-12+074799999V0200901N003119999999N0100001N1+02491+01551101531ADDGF108991001001999999001011KA1240N+01661MA1999999093341MD1999999-0231REMSYN076AAXX  20124 83182 32997 80906 10249 20155 39334 40153 80001 333 20166 59023;
0137831820999992005092018004-11300-041867FM-12+074799999V0200501N003112200019N0100001N1+03321+01281100871ADDGF108991021011012501001011MA1999999092831MD1999999-0211REMSYN070AAXX  20184 83182 32697 80506 10332 20128 39283 40087 82101 333 59021;
0168831820999992005092100004-11300-041867FM-12+074799999V0200901N004619999999N0010001N1+02541+01361101161ADDGF108991001001999999001011KA1240M+03401MA1999999093031MD1999999-0321REMSYN088AAXX  21004 83182 32994 80909 10254 20136 39303 40116 80001 333 10340 29044 55104 59032;
0166831820999992005092112004-11300-041867FM-12+074799999V0200901N001512200019N0100001N1+02781+01441101121ADDGA1001+999999999GF100991001001999999001001KA1240N+01721MA1999999093051MD1999999-0291REMSYN070AAXX  21124 83182 32997 00903 10278 20144 39305 40112 333 20172 59029;
0137831820999992005092118004-11300-041867FM-12+074799999V0202301N001512200019N0100001N1+03621+01241101561ADDGF108991031021008001001011MA1999999092561MD1999999-0271REMSYN070AAXX  21184 83182 32597 82303 10362 20124 39256 40156 83201 333 59027;
0168831820999992005092200004-11300-041867FM-12+074799999V0203601N001510075019N0010001N1+02941+01721100841ADDGF108991081051008001999999KA1240M+03661MA1999999092821MD1999999-0211REMSYN088AAXX  22004 83182 32594 83603 10294 20172 39282 40084 885// 333 10366 29037 55098 59021;
0220831820999992005092212004-11300-041867FM-12+074799999V0201401N003110450019N0100001N1+02761+01801101031ADDAA124000091AY161061AY221061GF108991011021008001051011KA1240N+02201MA1999999093031MD1999999-0021MW1021REMSYN088AAXX  22124 83182 21597 81406 10276 20180 39303 40103 70262 81251 333 20220 59002 69924;EQDQ01  00002PRCP24
0137831820999992005092218004-11300-041867FM-12+074799999V0200501N002112200019N0100001N1+03331+01481100511ADDGF108991021021008001001011MA1999999092581MD1999999+0021REMSYN070AAXX  22184 83182 32597 80504 10333 20148 39258 40051 82201 333 58002;
0168831820999992005092300004-11300-041867FM-12+074799999V0201401N005712200019N0010001N1+02421+01791101121ADDGF108991011001017501041011KA1240M+03361MA1999999093031MD1999999+0211REMSYN088AAXX  23004 83182 32794 81411 10242 20179 39303 40112 81041 333 10336 29053 55076 58021;
0184831820999992005092312004-11300-041867FM-12+074799999V0200501N002110450019N0100001N1+02461+01971101391ADDAY121061AY221061GF108991011011012501051011KA1240N+02101MA1999999093231MD1999999+0201MW1051REMSYN082AAXX  23124 83182 31697 80504 10246 20197 39323 40139 70522 81151 333 20210 58020;
0137831820999992005092318004-11300-041867FM-12+074799999V0201401N003610075019N0100001N1+02991+01631100911ADDGF108991071021008001001011MA1999999092841MD1999999+0261REMSYN070AAXX  23184 83182 32597 81407 10299 20163 39284 40091 87201 333 58026;
0168831820999992005092400004-11300-041867FM-12+074799999V0200901N003119999999N0010001N1+02381+01661101251ADDGF108991001001999999001011KA1240M+03111MA1999999093081MD1999999+0051REMSYN088AAXX  24004 83182 32994 80906 10238 20166 39308 40125 80001 333 10311 29061 55056 58005;
0156831820999992005092412004-11300-041867FM-12+074799999V0200901N002612200019N0100001N1+02591+01731101261ADDGF108991021021008001001011KA1240N+01951MA1999999093131MD1999999-0101REMSYN076AAXX  24124 83182 32597 80905 10259 20173 39313 40126 82201 333 20195 59010;
0137831820999992005092418004-11300-041867FM-12+074799999V0203601N002610450019N0100001N1+03181+01531100751ADDGF108991031021008001051011MA1999999092721MD1999999+0121REMSYN070AAXX  24184 83182 32597 83605 10318 20153 39272 40075 83251 333 58012;
0168831820999992005092500004-11300-041867FM-12+074799999V0200901N003112200019N0010001N1+02521+01581101111ADDGF108991021001017501041011KA1240M+03221MA1999999093001MD1999999-0081REMSYN088AAXX  25004 83182 32794 80906 10252 20158 39300 40111 82041 333 10322 29051 55078 59008;
0156831820999992005092512004-11300-041867FM-12+074799999V0200901N003110150019N0010001N1+02511+01701101351ADDGF107991071001017501051001KA1240N+02071MA1999999093211MD1999999+0081REMSYN076AAXX  25124 83182 32794 70906 10251 20170 39321 40135 87050 333 20207 58008;
0137831820999992005092518004-11300-041867FM-12+074799999V0200901N002110075019N0100001N1+03121+01481100841ADDGF108991071021008001001011MA1999999092811MD1999999+0091REMSYN070AAXX  25184 83182 32597 80904 10312 20148 39281 40084 87201 333 58009;
0184831820999992005092612004-11300-041867FM-12+074799999V0200901N004612200019N0100001N1+02531+01621101331ADDAY121061AY221061GF108991011011012501001011KA1240N+01901MA1999999093341MD1999999+0131MW1051REMSYN082AAXX  26124 83182 31697 80909 10253 20162 39334 40133 70522 81101 333 20190 58013;
0137831820999992005092618004-11300-041867FM-12+074799999V0200901N003112200019N0100001N1+03151+01851101021ADDGF108991041021008001001011MA1999999092951MD1999999+0141REMSYN070AAXX  26184 83182 32597 80906 10315 20185 39295 40102 84201 333 58014;
0168831820999992005092700004-11300-041867FM-12+074799999V0201401N003119999999N0010001N1+02311+01501101381ADDGF108991001001999999001011KA1240M+03171MA1999999093201MD1999999+0141REMSYN088AAXX  27004 83182 32994 81406 10231 20150 39320 40138 80001 333 10317 29055 55098 58014;
0184831820999992005092712004-11300-041867FM-12+074799999V0200901N004112200019N0100001N1+02591+01561101601ADDAY121061AY211061GF101991011021008001001001KA1240N+01821MA1999999093421MD1999999+0081MW1051REMSYN082AAXX  27124 83182 31597 10908 10259 20156 39342 40160 70521 81200 333 20182 58008;
0165831820999992005092718004-11300-041867FM-12+074799999V0200901N003119999999N0100001N1+03341+01191101001ADDAY121061AY221061GF108991001001999999001011MA1999999092951MD1999999+0001MW1051REMSYN076AAXX  27184 83182 31997 80906 10334 20119 39295 40100 70522 80001 333 58000;
0168831820999992005092800004-11300-041867FM-12+074799999V0200901N005119999999N0010001N1+02511+01541101411ADDGF108991001001999999001011KA1240M+03381MA1999999093281MD1999999+0081REMSYN088AAXX  28004 83182 32994 80910 10251 20154 39328 40141 80001 333 10338 29045 55103 58008;
0156831820999992005092812004-11300-041867FM-12+074799999V0200901N007212200019N0100001N1+02561+01591101551ADDGF106991031021008001001011KA1240N+02001MA1999999093411MD1999999-0011REMSYN076AAXX  28124 83182 32597 60914 10256 20159 39341 40155 83201 333 20200 59001;
0137831820999992005092818004-11300-041867FM-12+074799999V0200501N005112200019N0100001N1+03111+01341101031ADDGF108991021011012501001011MA1999999092881MD1999999-0071REMSYN070AAXX  28184 83182 32697 80510 10311 20134 39288 40103 82101 333 59007;
0168831820999992005092900004-11300-041867FM-12+074799999V0200901N003119999999N0010001N1+02481+01401101341ADDGF108991001001999999001011KA1240M+03171MA1999999093201MD1999999-0081REMSYN088AAXX  29004 83182 32994 80906 10248 20140 39320 40134 80001 333 10317 29047 55104 59008;
0156831820999992005092912004-11300-041867FM-12+074799999V0200901N005712200019N0100001N1+02581+01461101521ADDGF108991031021008001001011KA1240N+01961MA1999999093381MD1999999+0031REMSYN076AAXX  29124 83182 32597 80911 10258 20146 39338 40152 83201 333 20196 58003;
0137831820999992005092918004-11300-041867FM-12+074799999V0200901N005112200019N0100001N1+03131+01231100981ADDGF108991021011012501001011MA1999999092881MD1999999+0001REMSYN070AAXX  29184 83182 32697 80910 10313 20123 39288 40098 82101 333 58000;
0178831820999992005093000004-11300-041867FM-12+074799999V0200901N003612200019N0010001N1+02421+01221101301ADDGA1001+999999999GF100991001001999999001001KA1240M+03141MA1999999093161MD1999999-0041REMSYN082AAXX  30004 83182 32994 00907 10242 20122 39316 40130 333 10314 29043 55104 59004;
0156831820999992005093012004-11300-041867FM-12+074799999V0200901N004612200019N0100001N1+02561+01561101561ADDGF108991011021008001001011KA1240N+01861MA1999999093401MD1999999+0021REMSYN076AAXX  30124 83182 32597 80909 10256 20156 39340 40156 81201 333 20186 58002;
0137831820999992005093018004-11300-041867FM-12+074799999V0200901N005112200019N0100001N1+03211+01231100931ADDGF104991041021008001001001MA1999999093891MD1999999+0011REMSYN070AAXX  30184 83182 32597 40910 10321 20123 39389 40093 84200 333 58001;
0178831820999992005100100004-11300-041867FM-12+074799999V0200901N004112200019N0010001N1+02511+01331101261ADDGA1001+999999999GF100991001001999999001001KA1240M+03261MA1999999093141MD1999999-0021REMSYN082AAXX  01004 83182 32994 00908 10251 20133 39314 40126 333 10326 29044 55097 59002;
0156831820999992005100112004-11300-041867FM-12+074799999V0201401N005712200019N0100001N1+02661+01621101511ADDGF104991041021008001001001KA1240N+01921MA1999999093391MD1999999-0011REMSYN076AAXX  01124 83182 32597 41411 10266 20162 39339 40151 84200 333 20192 59001;
0137831820999992005100118004-11300-041867FM-12+074799999V0201401N004110075019N0100001N1+03181+01531100941ADDGF107991071021008001001001MA1999999092901MD1999999+0011REMSYN070AAXX  01184 83182 32597 71408 10318 20153 39290 40094 87200 333 58001;
0178831820999992005100200004-11300-041867FM-12+074799999V0200901N004112200019N0010001N1+02461+01501101221ADDGA1001+999999999GF100991001001999999001001KA1240M+03231MA1999999093141MD1999999+0001REMSYN082AAXX  02004 83182 32994 00908 10246 20150 39314 40122 333 10323 29048 55103 58000;
0156831820999992005100212004-11300-041867FM-12+074799999V0200901N005112200019N0100001N1+02641+01581101421ADDGF103991031021008001001001KA1240N+02011MA1999999093291MD1999999+0151REMSYN076AAXX  02124 83182 32597 30910 10264 20158 39329 40142 83200 333 20201 58015;
0137831820999992005100218004-11300-041867FM-12+074799999V0201401N002610075019N0100001N1+03241+01171100701ADDGF106991061021008001001001MA1999999092691MD1999999-0211REMSYN070AAXX  02184 83182 32597 61405 10324 20117 39269 40070 86200 333 59021;
0178831820999992005100300004-11300-041867FM-12+074799999V0200901N003112200019N0010001N1+02501+01531101131ADDGA1001+999999999GF100991001001999999001001KA1240M+03321MA1999999093021MD1999999-0121REMSYN082AAXX  03004 83182 32994 00906 10250 20153 39302 40113 333 10332 29046 55104 59012;
0156831820999992005100312004-11300-041867FM-12+074799999V0200901N005710075019N0100001N1+02531+01471101341ADDGF105991051021008001001001KA1240N+01851MA1999999093201MD1999999-0091REMSYN076AAXX  03124 83182 32597 50911 10253 20147 39320 40134 85200 333 20185 59009;
0137831820999992005100318004-11300-041867FM-12+074799999V0201401N003612200019N0100001N1+03221+01341100751ADDGF108991021021008001001011MA1999999092721MD1999999+0031REMSYN070AAXX  03184 83182 32597 81407 10322 20134 39272 40075 82201 333 58003;
0168831820999992005100400004-11300-041867FM-12+074799999V0200901N005119999999N0010001N1+02431+01501101091ADDGF108991001001999999001011KA1240M+03241MA1999999092961MD1999999-0061REMSYN088AAXX  04004 83182 32994 80910 10243 20150 39296 40109 80001 333 10324 29047 55110 59006;
0156831820999992005100412004-11300-041867FM-12+074799999V0200901N005112200019N0100001N1+02631+01621101281ADDGF104991041021008001001001KA1240N+01841MA1999999093161MD1999999-0041REMSYN076AAXX  04124 83182 32597 40910 10263 20162 39316 40128 84200 333 20184 59004;
0137831820999992005100418004-11300-041867FM-12+074799999V0200901N003110075019N0100001N1+03191+01501100851ADDGF106991061021008001001001MA1999999092801MD1999999+0081REMSYN070AAXX  04184 83182 32597 60906 10319 20150 39280 40085 86200 333 58008;
0178831820999992005100500004-11300-041867FM-12+074799999V0200901N003112200019N0010001N1+02481+01511101341ADDGA1001+999999999GF100991001001999999001001KA1240M+03241MA1999999093031MD1999999+0071REMSYN082AAXX  05004 83182 32994 00906 10248 20151 39303 40134 333 10324 29048 55101 58007;
0156831820999992005100512004-11300-041867FM-12+074799999V0200901N005112200019N0100001N1+02601+01631101421ADDGF108991021011012501001011KA1240N+01921MA1999999093291MD1999999+0131REMSYN076AAXX  05124 83182 32697 80910 10260 20163 39329 40142 82101 333 20192 58013;
0137831820999992005100518004-11300-041867FM-12+074799999V0201401N003610075019N0100001N1+03131+01531101051ADDGF105991051021008001001001MA1999999092981MD1999999+0181REMSYN070AAXX  05184 83182 32597 51407 10313 20153 39298 40105 85200 333 58018;
0178831820999992005100600004-11300-041867FM-12+074799999V0200901N003112200019N0010001N1+02501+01351101121ADDGA1001+999999999GF100991001001999999001001KA1240M+03241MA1999999093011MD1999999-0021REMSYN082AAXX  06004 83182 32994 00906 10250 20135 39301 40112 333 10324 29047 55111 59002;
0156831820999992005100612004-11300-041867FM-12+074799999V0200901N006712200019N0100001N1+02581+01581101581ADDGF102991021011012501001001KA1240N+01931MA1999999093441MD1999999+0151REMSYN076AAXX  06124 83182 32697 20913 10258 20158 39344 40158 82100 333 20193 58015;
0137831820999992005100618004-11300-041867FM-12+074799999V0200901N005112200019N0100001N1+03301+01211101041ADDGF108991021021008001001011MA1999999093011MD1999999+0031REMSYN070AAXX  06184 83182 32597 80910 10330 20121 39301 40104 82201 333 58003;
0168831820999992005100700004-11300-041867FM-12+074799999V0200901N003119999999N0010001N1+02551+01231101311ADDGF108991001001999999001011KA1240M+03341MA1999999093191MD1999999+0181REMSYN088AAXX  07004 83182 32994 80906 10255 20123 39319 40131 80001 333 10334 29042 55110 58018;
0156831820999992005100712004-11300-041867FM-12+074799999V0200901N006712200019N0100001N1+02661+01471101701ADDGF108991021021008001001011KA1240N+01921MA1999999093561MD1999999+0121REMSYN076AAXX  07124 83182 32597 80913 10266 20147 39356 40170 82201 333 20192 58012;
0137831820999992005100718004-11300-041867FM-12+074799999V0200901N005710075019N0100001N1+03131+01261101161ADDGF108991061021008001001011MA1999999093101MD1999999+0091REMSYN070AAXX  07184 83182 32597 80911 10313 20126 39310 40116 86201 333 58009;
0168831820999992005100800004-11300-041867FM-12+074799999V0200901N007719999999N0010001N1+02441+01481101511ADDGF108991001001999999001011KA1240M+03221MA1999999093371MD1999999+0181REMSYN088AAXX  08004 83182 32994 80915 10244 20148 39337 40151 80001 333 10322 29045 55080 58018;
0156831820999992005100812004-11300-041867FM-12+074799999V0200901N004112200019N0100001N1+02411+01321101801ADDGF108991021021008001001011KA1240N+01781MA1999999093601MD1999999+0041REMSYN076AAXX  08124 83182 32597 80908 10241 20132 39360 40180 82201 333 20178 58004;
0137831820999992005100818004-11300-041867FM-12+074799999V0201401N003110075019N0100001N1+03161+01141101111ADDGF108991051021008001001011MA1999999093001MD1999999-0101REMSYN070AAXX  08184 83182 32597 81406 10316 20114 39300 40111 85201 333 59010;
0168831820999992005100900004-11300-041867FM-12+074799999V0200901N005119999999N0010001N1+02361+01461101471ADDGF108991001001999999001011KA1240M+03181MA1999999093281MD1999999-0091REMSYN088AAXX  09004 83182 32994 80910 10236 20146 39328 40147 80001 333 10318 29047 55074 59009;
0156831820999992005100912004-11300-041867FM-12+074799999V0200901N005112200019N0100001N1+02471+01451101691ADDGF102991021021008001001001KA1240N+01821MA1999999093481MD1999999-0121REMSYN076AAXX  09124 83182 32597 20910 10247 20145 39348 40169 82200 333 20182 59012;
0137831820999992005100918004-11300-041867FM-12+074799999V0201401N003112200019N0100001N1+03101+01091100981ADDGF102991021021008001001001MA1999999092921MD1999999-0081REMSYN070AAXX  09184 83182 32597 21406 10310 20109 39292 40098 82200 333 59008;
0178831820999992005101000004-11300-041867FM-12+074799999V0200901N004112200019N0100001N1+02331+01461101301ADDGA1001+999999999GF100991001001999999001001KA1240M+03161MA1999999093131MD1999999-0151REMSYN082AAXX  10004 83182 32997 00908 10233 20146 39313 40130 333 10316 29047 55095 59015;
0166831820999992005101012004-11300-041867FM-12+074799999V0200901N005112200019N0100001N1+02501+01351101451ADDGA1001+999999999GF100991001001999999001001KA1240N+01661MA1999999093261MD1999999-0221REMSYN070AAXX  10124 83182 32997 00910 10250 20135 39326 40145 333 20166 59022;
0137831820999992005101018004-11300-041867FM-12+074799999V0201401N003612200019N0100001N1+03241+00991100831ADDGF108991021011012501001011MA1999999092761MD1999999-0161REMSYN070AAXX  10184 83182 32697 81407 10324 20099 39276 40083 82101 333 59016;
0168831820999992005101100004-11300-041867FM-12+074799999V0200901N003619999999N0010001N1+02471+02041101211ADDGF108991001001999999001011KA1240M+03281MA1999999093081MD1999999-0051REMSYN088AAXX  11004 83182 32994 80907 10247 20204 39308 40121 80001 333 10328 29040 55108 59005;
0156831820999992005101112004-11300-041867FM-12+074799999V0201401N005112200019N0100001N1+02511+01411101421ADDGF102991021021008001001011KA1240N+01841MA1999999093261MD1999999+0001REMSYN076AAXX  11124 83182 32597 21410 10251 20141 39326 40142 82201 333 20184 58000;
0165831820999992005101118004-11300-041867FM-12+074799999V0201401N003612200019N0100001N1+03251+01501100781ADDAY101061AY201061GF102991021011012501001001MA1999999092751MD1999999-0011MW1051REMSYN076AAXX  11184 83182 31697 21407 10325 20150 39275 40078 70500 82100 333 59001;
0197831820999992005101200004-11300-041867FM-12+074799999V0200901N003112200019N0010001N1+03531+01281101141ADDGA1001+999999999GF100991001001999999001001KA1240M+99999MA1999999093011MD1999999-0071REMSYN082AAXX  12004 83182 32994 00906 10353 20128 39301 40114 333 10332 29044 55106 59007;EQDQ01 +03322ATMX  
0156831820999992005101212004-11300-041867FM-12+074799999V0200901N005712200019N0100001N1+02551+01521101601ADDGF108991011011012501001011KA1240N+01901MA1999999093301MD1999999+0041REMSYN076AAXX  12124 83182 32697 80911 10255 20152 39330 40160 81101 333 20190 58004;
0137831820999992005101218004-11300-041867FM-12+074799999V0201401N003110075019N0100001N1+03131+01311100811ADDGF108991061021008001001011MA1999999092761MD1999999+0011REMSYN070AAXX  12184 83182 32597 81406 10313 20131 39276 40081 86201 333 58001;
0168831820999992005101300004-11300-041867FM-12+074799999V0200901N003112200019N0010001N1+02521+01371101131ADDGF108991011001017501041011KA1240M+03201MA1999999093021MD1999999+0011REMSYN088AAXX  13004 83182 32794 80906 10252 20137 39302 40113 81041 333 10320 29046 55091 58001;
0156831820999992005101312004-11300-041867FM-12+074799999V0200901N006712200019N0100001N1+02601+01451101431ADDGF106991031021008001001011KA1240N+02021MA1999999093301MD1999999+0001REMSYN076AAXX  13124 83182 32597 60913 10260 20145 39330 40143 83201 333 20202 58000;
0137831820999992005101318004-11300-041867FM-12+074799999V0200901N003110075019N0100001N1+03191+01311100831ADDGF108991051021008001001011MA1999999092811MD1999999+0051REMSYN070AAXX  13184 83182 32597 80906 10319 20131 39281 40083 85201 333 58005;
0168831820999992005101400004-11300-041867FM-12+074799999V0200901N003119999999N0100001N1+02481+01141101441ADDGF108991001001999999001011KA1240M+03241MA1999999093031MD1999999+0011REMSYN088AAXX  14004 83182 32997 80906 10248 20114 39303 40144 80001 333 10324 29042 55085 58001;
0156831820999992005101412004-11300-041867FM-12+074799999V0200901N003612200019N0100001N1+02651+01461101471ADDGF108991021011012501001011KA1240N+01851MA1999999093341MD1999999+0041REMSYN076AAXX  14124 83182 32697 80907 10265 20146 39334 40147 82101 333 20185 58004;
0137831820999992005101418004-11300-041867FM-12+074799999V0203201N001510075019N0100001N1+03341+01291101361ADDGF106991061021008001001001MA1999999092821MD1999999+0011REMSYN070AAXX  14184 83182 32597 63203 10334 20129 39282 40136 86200 333 58001;
0178831820999992005101500004-11300-041867FM-12+074799999V0200901N002612200019N0010001N1+02581+01521101161ADDGA1001+999999999GF100991001001999999001001KA1240M+03341MA1999999093061MD1999999+0031REMSYN082AAXX  15004 83182 32994 00905 10258 20152 39306 40116 333 10334 29045 55111 58003;
0156831820999992005101512004-11300-041867FM-12+074799999V0200901N003119999999N0100001N1+02701+01511101301ADDGF108991001001999999001011KA1240N+01981MA1999999093211MD1999999-0131REMSYN076AAXX  15124 83182 32997 80906 10270 20151 39321 40130 80001 333 20198 59013;
0137831820999992005101518004-11300-041867FM-12+074799999V0201401N003112200019N0100001N1+03401+01121101371ADDGF102991021011012501001001MA1999999092711MD1999999-0111REMSYN070AAXX  15184 83182 32697 21406 10340 20112 39271 40137 82100 333 59011;
0178831820999992005101600004-11300-041867FM-12+074799999V0200901N004612200019N0010001N1+02551+01231101071ADDGA1001+999999999GF100991001001999999001001KA1240M+03421MA1999999092981MD1999999-0081REMSYN082AAXX  16004 83182 32994 00909 10255 20123 39298 40107 333 10342 29040 55110 59008;
0156831820999992005101612004-11300-041867FM-12+074799999V0200901N005119999999N0100001N1+02541+01291101391ADDGF108991001001999999001011KA1240N+01761MA1999999093261MD1999999+0051REMSYN076AAXX  16124 83182 32997 80910 10254 20129 39326 40139 80001 333 20176 58005;
0137831820999992005101618004-11300-041867FM-12+074799999V0200901N004119999999N0100001N1+03221+01141100831ADDGF108991001001999999001011MA1999999092801MD1999999+0091REMSYN070AAXX  16184 83182 32997 80908 10322 20114 39280 40083 80001 333 58009;
0178831820999992005101700004-11300-041867FM-12+074799999V0200901N003612200019N0010001N1+02401+01351101241ADDGA1001+999999999GF100991001001999999001001KA1240M+03281MA1999999093101MD1999999+0121REMSYN082AAXX  17004 83182 32994 00907 10240 20135 39310 40124 333 10328 29044 55111 58012;
0156831820999992005101712004-11300-041867FM-12+074799999V0200901N004612200019N0100001N1+02621+01531101391ADDGF103991021021008001001011KA1240N+01721MA1999999093251MD1999999-0011REMSYN076AAXX  17124 83182 32597 30909 10262 20153 39325 40139 82201 333 20172 59001;
0137831820999992005101718004-11300-041867FM-12+074799999V0200501N003112200019N0100001N1+03241+01361100761ADDGF108991031021008001001011MA1999999092721MD1999999-0081REMSYN070AAXX  17184 83182 32597 80506 10324 20136 39272 40076 83201 333 59008;
0155831820999992005101800004-11300-041870FM-12+074799999V0200901N004619999999N0010001N1+02521+01551101041ADDGF108991001001999999001011MA1999999092941MD1999999-0161REMSYN088AAXX  18004 83182 32994 80909 10252 20155 39294 40104 80001 333 10328 29048 55108 59016;
0156831820999992005101812004-11300-041867FM-12+074799999V0200501N003119999999N0100001N1+02681+01551101321ADDGF108991001001999999001011KA1240N+01881MA1999999093211MD1999999-0041REMSYN076AAXX  18124 83182 32997 80506 10268 20155 39321 40132 80001 333 20188 59004;
0137831820999992005101818004-11300-041867FM-12+074799999V0200501N003112200019N0100001N1+03351+01021100771ADDGF108991031021008001001011MA1999999092771MD1999999+0051REMSYN070AAXX  18184 83182 32597 80506 10335 20102 39277 40077 83201 333 58005;
0168831820999992005101900004-11300-041867FM-12+074799999V0200901N003119999999N0010001N1+02661+01031101081ADDGF108991001001999999001011KA1240M+03441MA1999999093011MD1999999+0071REMSYN088AAXX  19004 83182 32994 80906 10266 20103 39301 40108 80001 333 10344 29041 55104 58007;
0156831820999992005101912004-11300-041867FM-12+074799999V0200901N003119999999N0100001N1+02831+01781101211ADDGF108991001001999999001021KA1240N+01941MA1999999093161MD1999999-0051REMSYN076AAXX  19124 83182 32997 80906 10283 20178 39316 40121 80002 333 20194 59005;
0137831820999992005101918004-11300-041867FM-12+074799999V0200901N007211050019N0100001N1+03281+01441100801ADDGF108991021021008001001021MA1999999092801MD1999999+0031REMSYN070AAXX  19184 83182 32597 80914 10328 20144 39280 40080 82202 333 58003;
0168831820999992005102000004-11300-041867FM-12+074799999V0201401N002611050019N0010001N1+02501+01391101251ADDGF108991011001017501041021KA1240M+03441MA1999999093161MD1999999-0151REMSYN088AAXX  20004 83182 32794 81405 10250 20139 39316 40125 81042 333 10344 29046 55067 59015;
0156831820999992005102012004-11300-041867FM-12+074799999V0200901N007712200019N0100001N1+02511+01301101541ADDGF108991031021008001001011KA1240N+01871MA1999999093381MD1999999+0221REMSYN076AAXX  20124 83182 32597 80915 10251 20130 39338 40154 83201 333 20187 58022;
0137831820999992005102018004-11300-041867FM-12+074799999V0200901N004612200019N0100001N1+03111+01101100901ADDGF108991021021008001001011MA1999999092851MD1999999+0051REMSYN070AAXX  20184 83182 32597 80909 10311 20110 39285 40090 82201 333 58005;
0168831820999992005102100004-11300-041867FM-12+074799999V0200901N003119999999N0010001N1+02461+01321101261ADDGF108991001001999999001011KA1240M+03151MA1999999093111MD1999999-0051REMSYN088AAXX  21004 83182 32994 80906 10246 20132 39311 40126 80001 333 10315 29044 55108 59005;
0156831820999992005102112004-11300-041867FM-12+074799999V0200901N005112200019N0100001N1+02521+01141101431ADDGF106991021021008001001011KA1240N+01661MA1999999093301MD1999999-0081REMSYN076AAXX  21124 83182 32597 60910 10252 20114 39330 40143 82201 333 20166 59008;
0137831820999992005102118004-11300-041867FM-12+074799999V0200901N005112200019N0100001N1+03051+00991100901ADDGF104991041021008001001001MA1999999092811MD1999999-0041REMSYN070AAXX  21184 83182 32597 40910 10305 20099 39281 40090 84200 333 59004;
0178831820999992005102200004-11300-041867FM-12+074799999V0200901N003612200019N0010001N1+02431+01091101121ADDGA1001+999999999GF100991001001999999001001KA1240M+03181MA1999999092991MD1999999-0121REMSYN082AAXX  22004 83182 32994 00907 10243 20109 39299 40112 333 10318 29041 55096 59012;
0156831820999992005102212004-11300-041867FM-12+074799999V0200901N003112200019N0100001N1+02671+01511101371ADDGF102991021011012501001001KA1240N+01941MA1999999093251MD1999999-0051REMSYN076AAXX  22124 83182 32697 20906 10267 20151 39325 40137 82100 333 20194 59005;
0137831820999992005102218004-11300-041867FM-12+074799999V0200501N003110075019N0100001N1+03121+01251100811ADDGF108991071021008001001011MA1999999092761MD1999999-0051REMSYN070AAXX  22184 83182 32597 80506 10312 20125 39276 40081 87201 333 59005;
0168831820999992005102300004-11300-041867FM-12+074799999V0200901N003119999999N0010001N1+02551+01201101011ADDGF108991001001999999001011KA1240M+03261MA1999999092931MD1999999-0061REMSYN088AAXX  23004 83182 32994 80906 10255 20120 39293 40101 80001 333 10326 29042 55095 59006;
0156831820999992005102312004-11300-041867FM-12+074799999V0201401N004619999999N0100001N1+02661+01501101271ADDGF108991001001999999001011KA1240N+01861MA1999999093161MD1999999-0091REMSYN076AAXX  23124 83182 32997 81409 10266 20150 39316 40127 80001 333 20186 59009;
0137831820999992005102318004-11300-041867FM-12+074799999V0201401N003112200019N0100001N1+03231+01201100731ADDGF108991021021008001001011MA1999999092701MD1999999-0061REMSYN070AAXX  23184 83182 32597 81406 10323 20120 39270 40073 82201 333 59006;
0168831820999992005102400004-11300-041867FM-12+074799999V0200901N003119999999N0010001N1+02571+00991101041ADDGF108991001001999999001011KA1240M+03421MA1999999092951MD1999999+0021REMSYN088AAXX  24004 83182 32994 80906 10257 20099 39295 40104 80001 333 10342 29038 55111 58002;
0156831820999992005102412004-11300-041867FM-12+074799999V0200901N004119999999N0100001N1+02681+01241101311ADDGF108991001001999999001011KA1240N+01841MA1999999093201MD1999999+0041REMSYN076AAXX  24124 83182 32997 80908 10268 20124 39320 40131 80001 333 20184 58004;
0137831820999992005102418004-11300-041867FM-12+074799999V0200901N003119999999N0100001N1+03311+00711100751ADDGF108991001001999999001011MA1999999092741MD1999999+0041REMSYN070AAXX  24184 83182 32997 80906 10331 20071 39274 40075 80001 333 58004;
0168831820999992005102500004-11300-041867FM-12+074799999V0201401N005119999999N0010001N1+02501+01671101081ADDGF108991001001999999001011KA1240M+03381MA1999999092991MD1999999+0041REMSYN088AAXX  25004 83182 32994 81410 10250 20167 39299 40108 80001 333 10338 29045 55112 58004;
0156831820999992005102512004-11300-041867FM-12+074799999V0200901N005119999999N0100001N1+02491+01211101361ADDGF108991001001999999001011KA1240N+01701MA1999999093221MD1999999+0021REMSYN076AAXX  25124 83182 32997 80910 10249 20121 39322 40136 80001 333 20170 58002;
0137831820999992005102518004-11300-041867FM-12+074799999V0200501N003119999999N0100001N1+03291+00891100731ADDGF108991001001999999001011MA1999999092701MD1999999-0041REMSYN070AAXX  25184 83182 32997 80506 10329 20089 39270 40073 80001 333 59004;
0168831820999992005102600004-11300-041867FM-12+074799999V0200901N004119999999N0010001N1+02501+01291101191ADDGF108991001001999999001011KA1240M+03321MA1999999092971MD1999999-0021REMSYN088AAXX  26004 83182 32994 80908 10250 20129 39297 40119 80001 333 10332 29040 55113 59002;
0156831820999992005102612004-11300-041867FM-12+074799999V0201401N003619999999N0100001N1+02661+01301101301ADDGF108991001001999999001011KA1240N+01681MA1999999093191MD1999999-0031REMSYN076AAXX  26124 83182 32997 81407 10266 20130 39319 40130 80001 333 20168 59003;
0137831820999992005102618004-11300-041867FM-12+074799999V0201401N002619999999N0100001N1+03411+01001101411ADDGF108991001001999999001011MA1999999092621MD1999999-0081REMSYN070AAXX  26184 83182 32997 81405 10341 20100 39262 40141 80001 333 59008;
0168831820999992005102700004-11300-041867FM-12+074799999V0200901N004119999999N0010001N1+02561+01061100951ADDGF108991001001999999001011KA1240M+03461MA1999999092871MD1999999-0101REMSYN088AAXX  27004 83182 32994 80908 10256 20106 39287 40095 80001 333 10346 29036 55114 59010;
0156831820999992005102712004-11300-041867FM-12+074799999V0201401N003119999999N0100001N1+02751+01611101291ADDGF108991001001999999001011KA1240N+01831MA1999999093111MD1999999-0081REMSYN076AAXX  27124 83182 32997 81406 10275 20161 39311 40129 80001 333 20183 59008;
0137831820999992005102718004-11300-041867FM-12+074799999V0200501N002110075019N0100001N1+03391+01341100601ADDGF108991051021008001001011MA1999999092621MD1999999+0001REMSYN070AAXX  27184 83182 32597 80504 10339 20134 39262 40060 85201 333 58000;
0168831820999992005102800004-11300-041867FM-12+074799999V0200501N003112200019N0010001N1+02831+01491100941ADDGF108991021021008001001011KA1240M+03451MA1999999092931MD1999999+0061REMSYN088AAXX  28004 83182 32594 80506 10283 20149 39293 40094 82201 333 10345 29042 55109 58006;
0156831820999992005102812004-11300-041867FM-12+074799999V0200901N003112200019N0100001N1+02791+01831101081ADDGF108991021021008001001011KA1240N+02121MA1999999093061MD1999999-0051REMSYN076AAXX  28124 83182 32597 80906 10279 20183 39306 40108 82201 333 20212 59005;
0137831820999992005102818004-11300-041867FM-12+074799999V0200901N002610075019N0100001N1+03311+01511100461ADDGF108991061021008001001011MA1999999092521MD1999999-0101REMSYN070AAXX  28184 83182 32597 80905 10331 20151 39252 40046 86201 333 59010;
0168831820999992005102900004-11300-041867FM-12+074799999V0200501N002619999999N0010001N1+02801+01631100971ADDGF108991001001999999001011KA1240M+03421MA1999999092961MD1999999+0031REMSYN088AAXX  29004 83182 32994 80505 10280 20163 39296 40097 80001 333 10342 29047 55099 58003;
0156831820999992005102912004-11300-041867FM-12+074799999V0200901N001512200019N0100001N1+02941+01591101031ADDGF108991021011012501001011KA1240N+02121MA1999999093031MD1999999-0031REMSYN076AAXX  29124 83182 32697 80903 10294 20159 39303 40103 82101 333 20212 59003;
0137831820999992005102918004-11300-041867FM-12+074799999V0203601N002612200019N0100001N1+03531+01511101431ADDGF108991041021008001001011MA1999999092521MD1999999+0001REMSYN070AAXX  29184 83182 32597 83605 10353 20151 39252 40143 84201 333 58000;
0168831820999992005103000004-11300-041867FM-12+074799999V0201401N002610075019N0010001N1+02941+01881100711ADDGF108991061051008001001011KA1240M+03561MA1999999092771MD1999999-0191REMSYN088AAXX  30004 83182 32594 81405 10294 20188 39277 40071 86501 333 10356 29045 55102 59019;
0156831820999992005103012004-11300-041867FM-12+074799999V0200901N003112200019N0100001N1+03091+01691101031ADDGF108991021011012501001011KA1240N+02291MA1999999093001MD1999999-0031REMSYN076AAXX  30124 83182 32697 80906 10309 20169 39300 40103 82101 333 20229 59003;
0137831820999992005103018004-11300-041867FM-12+074799999V0202301N001512200019N0100001N1+03581+01391100471ADDGF108991031021008001001011MA1999999092601MD1999999+0081REMSYN070AAXX  30184 83182 32597 82303 10358 20139 39260 40047 83201 333 58008;
0168831820999992005103100004-11300-041867FM-12+074799999V0201401N002110075019N0010001N1+02741+01741100981ADDGF108991061051008001001011KA1240M+03681MA1999999093001MD1999999+0231REMSYN088AAXX  31004 83182 32594 81404 10274 20174 39300 40098 86501 333 10368 29044 55086 58023;
0156831820999992005103112004-11300-041867FM-12+074799999V0200901N003610450019N0100001N1+02861+01781101201ADDGF108991011021008001051011KA1240N+02241MA1999999093171MD1999999+0171REMSYN076AAXX  31124 83182 32597 80907 10286 20178 39317 40120 81251 333 20224 58017;
0137831820999992005103118004-11300-041867FM-12+074799999V0200901N002110075019N0100001N1+03301+01591100711ADDGF108991051031008001001011MA1999999092751MD1999999+0101REMSYN070AAXX  31184 83182 32597 80904 10330 20159 39275 40071 85301 333 58010;
0213831820999992005110100004-11300-041867FM-12+074799999V0202301N001012200019N0010001N1+02181+02041101331ADDAA106003091AY161061AY221061GF108991031051008001001011KA1240M+03431MA1999999093191MD1999999+0191MW1001REMSYN100AAXX  01004 83182 21594 82302 10218 20204 39319 40133 70062 83501 333 10343 29068 55061 58019 60031;
0173831820999992005110112004-11300-041867FM-12+074799999V0200901N003112200019N0100001N1+02811+01821101381ADDAA124003091GF108991021021008001001011KA1240N+02041MA1999999093241MD1999999+0071REMSYN082AAXX  01124 83182 22597 80906 10281 20182 39324 40138 82201 333 20204 58007 60034;
0168831820999992005110200004-11300-041867FM-12+074799999V0201401N002619999999N0010001N1+02631+01621101151ADDGF108991001001999999001011KA1240M+03341MA1999999093091MD1999999+0101REMSYN088AAXX  02004 83182 32994 81405 10263 20162 39309 40115 80001 333 10334 29050 55081 58010;
0156831820999992005110212004-11300-041867FM-12+074799999V0201401N004119999999N0100001N1+02611+01581101431ADDGF108991001001999999001011KA1240N+01981MA1999999093321MD1999999+0081REMSYN076AAXX  02124 83182 32997 81408 10261 20158 39332 40143 80001 333 20198 58008;
0137831820999992005110218004-11300-041867FM-12+074799999V0200901N003112200019N0100001N1+03251+00931100881ADDGF108991021021008001001011MA1999999092871MD1999999+0071REMSYN070AAXX  02184 83182 32597 80906 10325 20093 39287 40088 82201 333 58007;
0168831820999992005110300004-11300-041867FM-12+074799999V0200901N004119999999N0010001N1+02581+00831101301ADDGF108991001001999999001011KA1240M+03421MA1999999093191MD1999999+0101REMSYN088AAXX  03004 83182 32994 80908 10258 20083 39319 40130 80001 333 10342 29036 55114 58010;
0156831820999992005110312004-11300-041867FM-12+074799999V0201401N005119999999N0100001N1+02701+01541101481ADDGF108991001001999999001011KA1240N+01891MA1999999093381MD1999999+0061REMSYN076AAXX  03124 83182 32997 81410 10270 20154 39338 40148 80001 333 20189 58006;
0137831820999992005110318004-11300-041867FM-12+074799999V0201401N002112200019N0100001N1+03401+01121100871ADDGF108991011011012501001011MA1999999092861MD1999999-0011REMSYN070AAXX  03184 83182 32697 81404 10340 20112 39286 40087 81101 333 59001;
0168831820999992005110400004-11300-041867FM-12+074799999V0200901N005119999999N0010001N1+02581+01901101221ADDGF108991001001999999001011KA1240M+03421MA1999999093141MD1999999-0051REMSYN088AAXX  04004 83182 32994 80910 10258 20190 39314 40122 80001 333 10342 29052 55115 59005;
0156831820999992005110412004-11300-041867FM-12+074799999V0201401N006212200019N0100001N1+02661+01441101371ADDGF101991011011012501001001KA1240N+01901MA1999999093261MD1999999-0121REMSYN076AAXX  04124 83182 32697 11412 10266 20144 39326 40137 81100 333 20190 59012;
0137831820999992005110418004-11300-041867FM-12+074799999V0200901N005119999999N0100001N1+03301+01091100781ADDGF108991001001999999001011MA1999999092761MD1999999-0101REMSYN070AAXX  04184 83182 32997 80910 10330 20109 39276 40078 80001 333 59010;
0168831820999992005110500004-11300-041867FM-12+074799999V0200901N003119999999N0010001N1+02501+01081101161ADDGF108991001001999999001011KA1240M+03311MA1999999093061MD1999999-0081REMSYN088AAXX  05004 83182 32994 80906 10250 20108 39306 40116 80001 333 10331 29039 55115 59008;
0156831820999992005110512004-11300-041867FM-12+074799999V0201401N006219999999N0100001N1+02711+01071101291ADDGF108991001001999999001011KA1240N+01871MA1999999093181MD1999999-0081REMSYN076AAXX  05124 83182 32997 81412 10271 20107 39318 40129 80001 333 20187 59008;
0137831820999992005110518004-11300-041867FM-12+074799999V0201401N003619999999N0100001N1+03271+01121100741ADDGF108991001001999999001011MA1999999092731MD1999999-0031REMSYN070AAXX  05184 83182 32997 81407 10327 20112 39273 40074 80001 333 59003;
0168831820999992005110600004-11300-041867FM-12+074799999V0201401N002619999999N0010001N1+02511+01231101061ADDGF108991001001999999001011KA1240M+03261MA1999999092961MD1999999-0101REMSYN088AAXX  06004 83182 32994 81405 10251 20123 39296 40106 80001 333 10326 29038 55116 59010;
0156831820999992005110612004-11300-041867FM-12+074799999V0201401N004119999999N0100001N1+02641+01171101311ADDGF108991001001999999001011KA1240N+01811MA1999999093201MD1999999+0021REMSYN076AAXX  06124 83182 32997 81408 10264 20117 39320 40131 80001 333 20181 58002;
0137831820999992005110618004-11300-041867FM-12+074799999V0200501N001512200019N0100001N1+03361+01021100701ADDGF101991011011012501001001MA1999999092691MD1999999-0041REMSYN070AAXX  06184 83182 32697 10503 10336 20102 39269 40070 81100 333 59004;
0178831820999992005110700004-11300-041867FM-12+074799999V0201401N005112200019N0010001N1+02541+01011101051ADDGA1001+999999999GF100991001001999999001001KA1240M+03391MA1999999092961MD1999999+0001REMSYN082AAXX  07004 83182 32994 01410 10254 20101 39296 40105 333 10339 29035 55115 58000;
0137831820999992005110718004-11300-041867FM-12+074799999V0201401N003112200019N0100001N1+03291+01541101321ADDGF101991011011012501001001MA1999999092721MD1999999+0031REMSYN070AAXX  07184 83182 32697 11406 10329 20154 39272 40132 81100 333 58003;
0156831820999992005110812004-11300-041867FM-12+074799999V0201401N002619999999N0100001N1+02641+01451101201ADDGF108991001001999999001011KA1240N+01681MA1999999093081MD1999999-0121REMSYN076AAXX  08124 83182 32997 81405 10264 20145 39308 40120 80001 333 20168 59012;
0137831820999992005110818004-11300-041867FM-12+074799999V0201401N003112200019N0100001N1+03471+01241101451ADDGF108991011011012501001011MA1999999092621MD1999999-0101REMSYN070AAXX  08184 83182 32697 81406 10347 20124 39262 40145 81101 333 59010;
0168831820999992005110900004-11300-041867FM-12+074799999V0200901N003119999999N0010001N1+02711+00991100861ADDGF108991001001999999001011KA1240M+03481MA1999999092831MD1999999-0141REMSYN088AAXX  09004 83182 32994 80906 10271 20099 39283 40086 80001 333 10348 29036 55114 59014;
0156831820999992005110912004-11300-041867FM-12+074799999V0200901N005112200019N0100001N1+02691+01591101181ADDGF108991011011012501001011KA1240N+01981MA1999999093121MD1999999+0041REMSYN076AAXX  09124 83182 32697 80910 10269 20159 39312 40118 81101 333 20198 58004;
0137831820999992005110918004-11300-041867FM-12+074799999V0200501N002610075019N0100001N1+03321+01431100601ADDGF108991051021008001001011MA1999999092641MD1999999+0021REMSYN070AAXX  09184 83182 32597 80505 10332 20143 39264 40060 85201 333 58002;
0168831820999992005111000004-11300-041867FM-12+074799999V0200901N004119999999N0010001N1+02661+01471100901ADDGF108991001001999999001011KA1240M+03351MA1999999092861MD1999999+0031REMSYN088AAXX  10004 83182 32994 80908 10266 20147 39286 40090 80001 333 10335 29041 55113 58003;
0156831820999992005111012004-11300-041867FM-12+074799999V0200901N004612200019N0100001N1+02741+01611101101ADDGF101991011011012501001011KA1240N+02041MA1999999093051MD1999999-0071REMSYN076AAXX  10124 83182 32697 10909 10274 20161 39305 40110 81101 333 20204 59007;
0137831820999992005111018004-11300-041867FM-12+074799999V0200901N002610075019N0100001N1+03271+01701100531ADDGF108991061031008001001011MA1999999092551MD1999999-0091REMSYN070AAXX  10184 83182 32597 80905 10327 20170 39255 40053 86301 333 59009;
0168831820999992005111100004-11300-041867FM-12+074799999V0200901N003612200019N0010001N1+02681+01551100831ADDGF108991031001017501031011KA1240M+03361MA1999999092801MD1999999-0061REMSYN088AAXX  11004 83182 32794 80907 10268 20155 39280 40083 83031 333 10336 29046 55084 59006;
0156831820999992005111112004-11300-041867FM-12+074799999V0201401N004112200019N0100001N1+02561+01581101041ADDGF108991041001017501041011KA1240N+02121MA1999999092951MD1999999-0101REMSYN076AAXX  11124 83182 32797 81408 10256 20158 39295 40104 84041 333 20212 59010;
0137831820999992005111118004-11300-041867FM-12+074799999V0200901N002110075019N0100001N1+03141+01541100481ADDGF106991061031008001001001MA1999999092491MD1999999-0061REMSYN070AAXX  11184 83182 32597 60904 10314 20154 39249 40048 86300 333 59006;
0213831820999992005111200004-11300-041867FM-12+074799999V0202701N003110042019N0010001N1+02241+02031101041ADDAA106002091AY121061AY221061GF108991081071004501999999KA1240M+03241MA1999999092891MD1999999+0091MW1611REMSYN100AAXX  12004 83182 21494 82706 10224 20203 39289 40104 76122 887// 333 10324 29067 55044 58009 60021;
0201831820999992005111212004-11300-041867FM-12+074799999V0200901N002610450019N0100001N1+02561+01621101061ADDAA124004191AY161061AY221061GF108991011011012501031011KA1240N+01981MA1999999092911MD1999999-0041MW1021REMSYN088AAXX  12124 83182 21697 80905 10256 20162 39291 40106 70262 81131 333 20198 59004 60044;
0137831820999992005111218004-11300-041867FM-12+074799999V0203201N002110450019N0100001N1+03141+01621100471ADDGF108991031031008001051011MA1999999092431MD1999999-0061REMSYN070AAXX  12184 83182 32597 83204 10314 20162 39243 40047 83351 333 59006;
0213831820999992005111300004-11300-041867FM-12+074799999V0201801N006710042019N0010001N1+02131+01971100941ADDAA106008991AY121061AY221061GF108991061071004501021999KA1240M+03211MA1999999092781MD1999999+0111MW1611REMSYN100AAXX  13004 83182 21494 81813 10213 20197 39278 40094 76122 8672/ 333 10321 29069 55059 58011 60091;
0201831820999992005111312004-11300-041867FM-12+074799999V0200901N003110042019N0100001N1+02421+01951101151ADDAA124008991AY161061AY221061GF108991051071004501021999KA1240N+02041MA1999999092951MD1999999+0041MW1021REMSYN088AAXX  13124 83182 21497 80906 10242 20195 39295 40115 70262 8572/ 333 20204 58004 60094;
0213831820999992005111400004-11300-041867FM-12+074799999V0201401N003110042019N0010001N1+02021+01951101161ADDAA106007991AY161061AY261061GF108991071071004501021999KA1240M+02621MA1999999092931MD1999999+0151MW1611REMSYN100AAXX  14004 83182 21494 81406 10202 20195 39293 40116 76166 8772/ 333 10262 29085 55000 58015 60081;
0201831820999992005111412004-11300-041867FM-12+074799999V0201401N002110042019N0100001N1+02121+01911101301ADDAA124016091AY161061AY261061GF108991061071004501021999KA1240N+01861MA1999999093011MD1999999+0061MW1021REMSYN088AAXX  14124 83182 21497 81404 10212 20191 39301 40130 70266 8672/ 333 20186 58006 60164;
0182831820999992005111418004-11300-041867FM-12+074799999V0201401N003610075019N0100001N1+02401+01931100881ADDAA106000591AY161061AY221061GF108991081051008001999999MA1999999092671MD1999999-0011MW1021REMSYN082AAXX  14184 83182 21597 81407 10240 20193 39267 40088 70262 885// 333 59001 69961;
0168831820999992005111500004-11300-041867FM-12+074799999V0201401N004110042019N0010001N1+02121+01911101191ADDGF108991061071004501021999KA1240M+02421MA1999999092931MD1999999+0001REMSYN088AAXX  15004 83182 32494 81408 10212 20191 39293 40119 8672/ 333 10242 29085 55000 58000;
0201831820999992005111512004-11300-041867FM-12+074799999V0201401N004110075019N0100001N1+02401+01971101231ADDAA124000891AY161061AY221061GF108991081051008001999999KA1240N+01981MA1999999093011MD1999999+0001MW1021REMSYN088AAXX  15124 83182 21597 81408 10240 20197 39301 40123 70262 885// 333 20198 58000 69984;
0182831820999992005111518004-11300-041867FM-12+074799999V0200901N003110075019N0100001N1+02281+01011100911ADDAA106005191AY121061AY221061GF108991051031008001021999MA1999999092681MD1999999+0011MW1951REMSYN082AAXX  15184 83182 21597 80906 10228 20101 39268 40091 79522 8532/ 333 58001 60051;
0196831820999992005111600004-11300-041867FM-12+074799999V0201401N004110450019N0010001N1+02141+01901101191ADDAY121061AY221061GF108991041031008001021999KA1240M+02901MA1999999092971MD1999999+0041MW1131REMSYN094AAXX  16004 83182 31594 81408 10214 20190 39297 40119 71322 8432/ 333 10290 29084 55012 58004;
0173831820999992005111612004-11300-041867FM-12+074799999V0201401N003110450019N0100001N1+02361+01731101321ADDAA124005191GF108991011021008001051021KA1240N+02001MA1999999093091MD1999999-0081REMSYN082AAXX  16124 83182 22597 81406 10236 20173 39309 40132 81252 333 20200 59008 60054;
0137831820999992005111618004-11300-041867FM-12+074799999V0201401N003110450019N0100001N1+03051+01461100801ADDGF108991021021008001041021MA1999999092721MD1999999+0041REMSYN070AAXX  16184 83182 32597 81406 10305 20146 39272 40080 82242 333 58004;
0168831820999992005111700004-11300-041867FM-12+074799999V0201401N003112200019N0010001N1+02271+01641101001ADDGF108991041001017501051011KA1240M+03081MA1999999092821MD1999999-0151REMSYN088AAXX  17004 83182 32794 81406 10227 20164 39282 40100 84051 333 10308 29065 55052 59015;
0156831820999992005111712004-11300-041867FM-12+074799999V0200901N004610075019N0100001N1+02461+01941101201ADDGF107991071051008001001001KA1240N+01901MA1999999093021MD1999999-0071REMSYN076AAXX  17124 83182 32597 70909 10246 20194 39302 40120 87500 333 20190 59007;
0137831820999992005111718004-11300-041867FM-12+074799999V0200501N002612200019N0100001N1+03071+01671100621ADDGF108991031021008001001011MA1999999092571MD1999999-0151REMSYN070AAXX  17184 83182 32597 80505 10307 20167 39257 40062 83201 333 59015;
0168831820999992005111800004-11300-041867FM-12+074799999V0200901N002619999999N0010001N1+02541+01651100821ADDGF108991001001999999001011KA1240M+03151MA1999999092721MD1999999-0101REMSYN088AAXX  18004 83182 32994 80905 10254 20165 39272 40082 80001 333 10315 29058 55100 59010;
0156831820999992005111812004-11300-041867FM-12+074799999V0201401N004112200019N0100001N1+02591+01731101031ADDGF108991011011012501001011KA1240N+01921MA1999999092931MD1999999-0091REMSYN076AAXX  18124 83182 32697 81408 10259 20173 39293 40103 81101 333 20192 59009;
0137831820999992005111818004-11300-041867FM-12+074799999V0200901N003112200019N0100001N1+03311+01421101651ADDGF108991011011012501001011MA1999999092511MD1999999-0061REMSYN070AAXX  18184 83182 32697 80906 10331 20142 39251 40165 81101 333 59006;
0168831820999992005111900004-11300-041867FM-12+074799999V0201401N004119999999N0010001N1+02661+01441100861ADDGF108991001001999999001011KA1240M+03331MA1999999092791MD1999999-0071REMSYN088AAXX  19004 83182 32994 81408 10266 20144 39279 40086 80001 333 10333 29046 55115 59007;
0156831820999992005111912004-11300-041867FM-12+074799999V0201401N004119999999N0100001N1+02641+01601101141ADDGF108991001001999999001011KA1240N+01851MA1999999093061MD1999999+0131REMSYN076AAXX  19124 83182 32997 81408 10264 20160 39306 40114 80001 333 20185 58013;
0137831820999992005111918004-11300-041867FM-12+074799999V0201401N002112200019N0100001N1+03431+00951100631ADDGF108991011011012501001011MA1999999092651MD1999999+0141REMSYN070AAXX  19184 83182 32697 81404 10343 20095 39265 40063 81101 333 58014;
0178831820999992005112000004-11300-041867FM-12+074799999V0200901N004612200019N0010001N1+02671+01121101001ADDGA1001+999999999GF100991001001999999001001KA1240M+03251MA1999999092901MD1999999+0111REMSYN082AAXX  20004 83182 32994 00909 10267 20112 39290 40100 333 10325 29038 55114 58011;
0156831820999992005112012004-11300-041867FM-12+074799999V0201401N002619999999N0100001N1+02881+01671100891ADDGF108991001001999999001011KA1240N+01841MA1999999093011MD1999999-0051REMSYN076AAXX  20124 83182 32997 81405 10288 20167 39301 40089 80001 333 20184 59005;
0137831820999992005112018004-11300-041867FM-12+074799999V0200901N005112200019N0100001N1+03571+01261100431ADDGF108991011011012501001011MA1999999092491MD1999999-0161REMSYN070AAXX  20184 83182 32697 80910 10357 20126 39249 40043 81101 333 59016;
0168831820999992005112100004-11300-041867FM-12+074799999V0200901N005719999999N0010001N1+02781+01181100651ADDGF108991001001999999001011KA1240M+03631MA1999999092681MD1999999-0221REMSYN088AAXX  21004 83182 32994 80911 10278 20118 39268 40065 80001 333 10363 29037 55112 59022;
0156831820999992005112112004-11300-041867FM-12+074799999V0201401N003612200019N0100001N1+02901+01751100831ADDGF108991011001017501031011KA1240N+01961MA1999999092851MD1999999-0161REMSYN076AAXX  21124 83182 32797 81407 10290 20175 39285 40083 81031 333 20196 59016;
0137831820999992005112118004-11300-041867FM-12+074799999V0203601N001512200019N0100001N1+03621+01361101501ADDGF108991031021008001001011MA1999999092341MD1999999-0151REMSYN070AAXX  21184 83182 32597 83603 10362 20136 39234 40150 83201 333 59015;
0187831820999992005112200004-11300-041867FM-12+074799999V0200901N003612200019N0010001N1+02821+01371100632ADDGF108991011001017501051011KA1240M+03671MA1999999092661MD1999999-0021REMSYN088AAXX  22004 83182 32794 80907 10282 20137 39266 40063 81051 333 10367 29040 55106 59002;EQDQ01+100633APOSLP
0156831820999992005112212004-11300-041867FM-12+074799999V0201401N003112200019N0100001N1+02741+01541100891ADDGF108991011011012501001011KA1240N+01941MA1999999092881MD1999999+0031REMSYN076AAXX  22124 83182 32697 81406 10274 20154 39288 40089 81101 333 20194 58003;
0137831820999992005112218004-11300-041867FM-12+074799999V0201401N002112200019N0100001N1+03301+01461100391ADDGF108991041021008001001011MA1999999092451MD1999999+0111REMSYN070AAXX  22184 83182 32597 81404 10330 20146 39245 40039 84201 333 58011;
0168831820999992005112300004-11300-041867FM-12+074799999V0200901N004112200019N0010001N1+02691+01401100701ADDGF108991011001017501051011KA1240M+03611MA1999999092671MD1999999+0011REMSYN088AAXX  23004 83182 32794 80908 10269 20140 39267 40070 81051 333 10361 29043 55106 58001;
0156831820999992005112312004-11300-041867FM-12+074799999V0201401N003612200019N0100001N1+02721+01741100981ADDGF108991011011012501001011KA1240N+02021MA1999999092941MD1999999+0061REMSYN076AAXX  23124 83182 32697 81407 10272 20174 39294 40098 81101 333 20202 58006;
0137831820999992005112318004-11300-041867FM-12+074799999V0200501N003612200019N0100001N1+03271+01611100701ADDGF108991041021008001001011MA1999999092551MD1999999+0101REMSYN070AAXX  23184 83182 32597 80507 10327 20161 39255 40070 84201 333 58010;
0168831820999992005112400004-11300-041867FM-12+074799999V0200901N003619999999N0010001N1+02711+01481100771ADDGF108991001001999999001011KA1240M+03001MA1999999092741MD1999999+0071REMSYN088AAXX  24004 83182 32994 80907 10271 20148 39274 40077 80001 333 10300 29046 55099 58007;
0156831820999992005112412004-11300-041867FM-12+074799999V0200901N003110450019N0100001N1+02741+01761101071ADDGF108991011021008001041011KA1240N+01981MA1999999093041MD1999999+0101REMSYN076AAXX  24124 83182 32597 80906 10274 20176 39304 40107 81241 333 20198 58010;
0137831820999992005112418004-11300-041867FM-12+074799999V0201401N002110450019N0100001N1+03231+01571100721ADDGF108991031031008001031011MA1999999092571MD1999999+0021REMSYN070AAXX  24184 83182 32597 81404 10323 20157 39257 40072 83331 333 58002;
0213831820999992005112500004-11300-041867FM-12+074799999V0201401N003110450019N0010001N1+02141+01991101061ADDAA106013091AY161061AY221061GF108991041031004501021999KA1240M+03261MA1999999092921MD1999999+0181MW1211REMSYN100AAXX  25004 83182 21494 81406 10214 20199 39292 40106 72162 8432/ 333 10326 29068 55072 58018 60131;
0201831820999992005112512004-11300-041867FM-12+074799999V0201401N002610450019N0100001N1+02061+01911101401ADDAA124039191AY161061AY261061GF108991041071004501021999KA1240N+01861MA1999999093121MD1999999+0081MW1021REMSYN088AAXX  25124 83182 21497 81405 10206 20191 39312 40140 70266 8472/ 333 20186 58008 60394;
0137831820999992005112518004-11300-041867FM-12+074799999V0200501N004110042019N0100001N1+02441+01921100661ADDGF108991061071004501021999MA1999999092761MD1999999+0191REMSYN070AAXX  25184 83182 32497 80508 10244 20192 39276 40066 8672/ 333 58019;
0168831820999992005112600004-11300-041867FM-12+074799999V0200501N001010042019N0010001N1+02541+02211101081ADDGF108991061071004501021999KA1240M+02501MA1999999092871MD1999999-0051REMSYN088AAXX  26004 83182 32494 80502 10254 20221 39287 40108 8672/ 333 10250 29082 55003 59005;
0156831820999992005112612004-11300-041867FM-12+074799999V0200901N002110450019N0100001N1+02521+01841100901ADDGF108991011021008001051011KA1240N+01981MA1999999092831MD1999999-0291REMSYN076AAXX  26124 83182 32597 80904 10252 20184 39283 40090 81251 333 20198 59029;
0165831820999992005112618004-11300-041867FM-12+074799999V0203601N002610450019N0100001N1+02371+01981100631ADDAY121061AY221061GF108991041031008001021011MA1999999092471MD1999999-0291MW1151REMSYN076AAXX  26184 83182 31597 83605 10237 20198 39247 40063 71522 84321 333 59029;
0213831820999992005112700004-11300-041867FM-12+074799999V0201801N002610042019N0010001N1+02231+01931100881ADDAA106000021AY121061AY221061GF108991061071004501021999KA1240M+02821MA1999999092741MD1999999-0131MW1601REMSYN100AAXX  27004 83182 21494 81805 10223 20193 39274 40088 76022 8672/ 333 10282 29078 55020 59013 69921;
0137831820999992005112718004-11300-041867FM-12+074799999V0203201N003110042019N0100001N1+02481+02051100561ADDGF108991071021004501061021MA1999999092411MD1999999-0061REMSYN070AAXX  27184 83182 32497 83206 10248 20205 39241 40056 87262 333 59006;
0196831820999992005112800004-11300-041867FM-12+074799999V0209999C000010450019N0010001N1+02201+02061100951ADDAY121061AY221061GF108991031031008001021999KA1240M+02541MA1999999092721MD1999999-0021MW1131REMSYN094AAXX  28004 83182 31594 83600 10220 20206 39272 40095 71322 8332/ 333 10254 29089 55008 59002;
0201831820999992005112812004-11300-041867FM-12+074799999V0203201N001510042019N0100001N1+02261+02031101141ADDAA124002091AY161061AY221061GF108991061071004501021999KA1240N+01911MA1999999092931MD1999999+0081MW1021REMSYN088AAXX  28124 83182 21497 83203 10226 20203 39293 40114 70262 8672/ 333 20191 58008 60024;
0137831820999992005112818004-11300-041867FM-12+074799999V0203601N003610075019N0100001N1+02681+01841100691ADDGF108991051021008001041011MA1999999092561MD1999999+0151REMSYN070AAXX  28184 83182 32597 83607 10268 20184 39256 40069 85241 333 58015;
0168831820999992005112900004-11300-041867FM-12+074799999V0200501N000510450019N0010001N1+02111+02001101051ADDGF108991041071004501021999KA1240M+02701MA1999999092831MD1999999+0111REMSYN088AAXX  29004 83182 32494 80501 10211 20200 39283 40105 8472/ 333 10270 29084 55012 58011;
0156831820999992005112912004-11300-041867FM-12+074799999V0200901N006710075019N0100001N1+02471+01861101221ADDGF108991051021008001031011KA1240N+02031MA1999999093021MD1999999+0091REMSYN076AAXX  29124 83182 32597 80913 10247 20186 39302 40122 85231 333 20203 58009;
0137831820999992005112918004-11300-041867FM-12+074799999V0200901N004110075019N0100001N1+02481+01791100831ADDGF108991051021008001031011MA1999999092711MD1999999+0151REMSYN070AAXX  29184 83182 32597 80908 10248 20179 39271 40083 85231 333 58015;
0168831820999992005113000004-11300-041867FM-12+074799999V0201401N003619999999N0010001N1+02231+01931101201ADDGF108991001001999999001011KA1240M+02921MA1999999093021MD1999999+0191REMSYN088AAXX  30004 83182 32994 81407 10223 20193 39302 40120 80001 333 10292 29072 55065 58019;
0175831820999992005113012004-11300-041867FM-12+074799999V0200901N006210075019N0100001N1+02521+01691101311ADDGF108991999021008001001001KA1240N+02121MA1999999093141MD1999999+0121REMSYN076AAXX  30124 83182 32597 80912 10252 20169 39314 40131 86200 333 20212 58012;EQDQ01+000062SCOTLC
0137831820999992005113018004-11300-041867FM-12+074799999V0200901N004112200019N0100001N1+03081+01601100751ADDGF104991041021008001001001MA1999999092711MD1999999+0001REMSYN070AAXX  30184 83182 32597 40908 10308 20160 39271 40075 84200 333 58000;
0178831820999992005120100004-11300-041867FM-12+074799999V0201401N003112200019N0010001N1+02401+01701101061ADDGA1001+999999999GF100991001001999999001001KA1240M+03121MA1999999092921MD1999999-0101REMSYN082AAXX  01004 83182 32994 01406 10240 20170 39292 40106 333 10312 29058 55109 59010;
0156831820999992005120112004-11300-041867FM-12+074799999V0201401N002612200019N0100001N1+02441+01641101261ADDGF108991011011012501001011KA1240N+01841MA1999999093091MD1999999-0051REMSYN076AAXX  01124 83182 32697 81405 10244 20164 39309 40126 81101 333 20184 59005;
0137831820999992005120118004-11300-041867FM-12+074799999V0201401N001512200019N0100001N1+03151+01421100681ADDGF108991031021008001001011MA1999999092641MD1999999-0071REMSYN070AAXX  01184 83182 32597 81403 10315 20142 39264 40068 83201 333 59007;
0168831820999992005120200004-11300-041867FM-12+074799999V0200901N003119999999N0010001N1+02411+01561100891ADDGF108991001001999999001011KA1240M+03201MA1999999092751MD1999999-0171REMSYN088AAXX  02004 83182 32994 80906 10241 20156 39275 40089 80001 333 10320 29054 55109 59017;
0156831820999992005120212004-11300-041867FM-12+074799999V0200901N002612200019N0100001N1+02601+01791100941ADDGF108991011011012501001011KA1240N+01811MA1999999092831MD1999999-0261REMSYN076AAXX  02124 83182 32697 80905 10260 20179 39283 40094 81101 333 20181 59026;
0137831820999992005120218004-11300-041867FM-12+074799999V0201401N001512200019N0100001N1+03231+01351100531ADDGF108991031021008001001011MA1999999092501MD1999999-0141REMSYN070AAXX  02184 83182 32597 81403 10323 20135 39250 40053 83201 333 59014;
0168831820999992005120300004-11300-041867FM-12+074799999V0200901N003119999999N0010001N1+02561+01591100651ADDGF108991001001999999001011KA1240M+03321MA1999999092601MD1999999-0151REMSYN088AAXX  03004 83182 32994 80906 10256 20159 39260 40065 80001 333 10332 29051 55116 59015;
0156831820999992005120312004-11300-041867FM-12+074799999V0200901N002119999999N0100001N1+02901+01591100751ADDGF108991001001999999001021KA1240N+01881MA1999999092741MD1999999-0091REMSYN076AAXX  03124 83182 32997 80904 10290 20159 39274 40075 80002 333 20188 59009;
0137831820999992005120318004-11300-041867FM-12+074799999V0202701N003610450019N0100001N1+03301+01641100391ADDGF108991021021008001031021MA1999999092411MD1999999-0091REMSYN070AAXX  03184 83182 32597 82707 10330 20164 39241 40039 82232 333 59009;
0168831820999992005120400004-11300-041867FM-12+074799999V0201401N001510075019N0010001N1+02781+01731100671ADDGF108991081051008001999999KA1240M+03221MA1999999092681MD1999999+0081REMSYN088AAXX  04004 83182 32594 81403 10278 20173 39268 40067 885// 333 10322 29047 55072 58008;
0201831820999992005120412004-11300-041867FM-12+074799999V0201401N004110450019N0100001N1+02381+01971100981ADDAA124007191AY161061AY221061GF108991041071004501011011KA1240N+01981MA1999999092901MD1999999+0161MW1061REMSYN088AAXX  04124 83182 21497 81408 10238 20197 39290 40098 70662 84711 333 20198 58016 60074;
0165831820999992005120418004-11300-041867FM-12+074799999V0201401N002610450019N0100001N1+02951+01831100551ADDAY121061AY221061GF108991021031008001031011MA1999999092521MD1999999+0111MW1161REMSYN076AAXX  04184 83182 31597 81405 10295 20183 39252 40055 71622 82331 333 58011;
0213831820999992005120500004-11300-041867FM-12+074799999V0201401N002110042019N0010001N1+02251+01991100891ADDAA106001091AY161061AY221061GF108991081051004501999999KA1240M+02971MA1999999092721MD1999999+0041MW1021REMSYN100AAXX  05004 83182 21494 81404 10225 20199 39272 40089 70262 885// 333 10297 29075 55051 58004 60011;
0173831820999992005120512004-11300-041867FM-12+074799999V0200901N003110075019N0100001N1+02321+01871101061ADDAA124001091GF108991081051008001999999KA1240N+01871MA1999999092871MD1999999-0031REMSYN082AAXX  05124 83182 22597 80906 10232 20187 39287 40106 885// 333 20187 59003 60014;
0137831820999992005120518004-11300-041867FM-12+074799999V0200901N003110075019N0100001N1+02851+01861100521ADDGF108991051021008001041011MA1999999092431MD1999999-0091REMSYN070AAXX  05184 83182 32597 80906 10285 20186 39243 40052 85241 333 59009;
0196831820999992005120600004-11300-041867FM-12+074799999V0202701N002110042019N0010001N1+02371+02001100801ADDAY121061AY221061GF108991051031004501021999KA1240M+02971MA1999999092651MD1999999-0071MW1131REMSYN094AAXX  06004 83182 31494 82704 10237 20200 39265 40080 71322 8532/ 333 10297 29072 55040 59007;
0156831820999992005120612004-11300-041867FM-12+074799999V0200501N001510075019N0100001N1+02491+01971100811ADDGF108991071031008001001011KA1240N+02121MA1999999092691MD1999999-0181REMSYN076AAXX  06124 83182 32597 80503 10249 20197 39269 40081 87301 333 20212 59018;
0137831820999992005120618004-11300-041867FM-12+074799999V0203201N004110450019N0100001N1+02941+01881100331ADDGF108991021021008001011011MA1999999092301MD1999999-0131REMSYN070AAXX  06184 83182 32597 83208 10294 20188 39230 40033 82211 333 59013;
0165831820999992005120718004-11300-041867FM-12+074799999V0203601N001010450019N0100001N1+03021+01621100241ADDAY121061AY221061GF108991031031008001021999MA1999999092221MD1999999-0081MW1161REMSYN076AAXX  07184 83182 31597 83602 10302 20162 39222 40024 71622 8332/ 333 59008;
0213831820999992005120800004-11300-041867FM-12+074799999V0203201N002110042019N0010001N1+02121+02091100841ADDAA106045091AY191061AY261061GF108991061071004501021999KA1240M+03041MA1999999092721MD1999999+0231MW1611REMSYN100AAXX  08004 83182 21494 83204 10212 20209 39272 40084 76196 8672/ 333 10304 29075 55058 58023 60451;
0201831820999992005120812004-11300-041867FM-12+074799999V0203201N001511050019N0100001N1+02571+01931101011ADDAA124045091AY161061AY221061GF108991021021008001001021KA1240N+02041MA1999999092851MD1999999+0241MW1021REMSYN088AAXX  08124 83182 21597 83203 10257 20193 39285 40101 70262 82202 333 20204 58024 60454;
0137831820999992005120818004-11300-041867FM-12+074799999V0203201N001510075019N0100001N1+02961+01871100721ADDGF108991061021008001001021MA1999999092491MD1999999+0271REMSYN070AAXX  08184 83182 32597 83203 10296 20187 39249 40072 86202 333 58027;
0213831820999992005120900004-11300-041867FM-12+074799999V0200901N002610042019N0010001N1+02561+01971101171ADDAA106015091AY161061AY221061GF108991061031004501021999KA1240M+03101MA1999999092911MD1999999+0191MW1961REMSYN100AAXX  09004 83182 21494 80905 10256 20197 39291 40117 79662 8632/ 333 10310 29065 55081 58019 60151;
0201831820999992005120912004-11300-041867FM-12+074799999V0201801N000510042019N0100001N1+02161+02021101361ADDAA124068191AY161061AY261061GF108991061071004501021999KA1240N+01941MA1999999093161MD1999999+0311MW1021REMSYN088AAXX  09124 83182 21497 81801 10216 20202 39316 40136 70266 8672/ 333 20194 58031 60684;
0137831820999992005120918004-11300-041867FM-12+074799999V0200501N004610450019N0100001N1+02741+01951100951ADDGF108991021031008001041011MA1999999092841MD1999999+0351REMSYN070AAXX  09184 83182 32597 80509 10274 20195 39284 40095 82341 333 58035;
0213831820999992005121000004-11300-041867FM-12+074799999V0201801N003110450019N0010001N1+02101+01981101051ADDAA106005191AY161061AY221061GF108991021071004501061021KA1240M+02781MA1999999092811MD1999999-0101MW1021REMSYN100AAXX  10004 83182 21494 81806 10210 20198 39281 40105 70262 82762 333 10278 29085 55042 59010 60051;
0173831820999992005121012004-11300-041867FM-12+074799999V0200901N004610075019N0100001N1+02441+01971101281ADDAA124005191GF108991051021008001001011KA1240N+01961MA1999999093061MD1999999-0101REMSYN082AAXX  10124 83182 22597 80909 10244 20197 39306 40128 85201 333 20196 59010 60054;
0137831820999992005121018004-11300-041867FM-12+074799999V0200501N001010075019N0100001N1+02731+01861100821ADDGF108991061021008001001011MA1999999092681MD1999999-0161REMSYN070AAXX  10184 83182 32597 80502 10273 20186 39268 40082 86201 333 59016;
0168831820999992005121100004-11300-041867FM-12+074799999V0201401N002619999999N0010001N1+02131+01631100951ADDGF108991001001999999001011KA1240M+02841MA1999999092771MD1999999-0041REMSYN088AAXX  11004 83182 32994 81405 10213 20163 39277 40095 80001 333 10284 29070 55/// 59004;
0156831820999992005121112004-11300-041867FM-12+074799999V0201401N005112200019N0100001N1+02441+02011101031ADDGF108991021021008001001011KA1240N+01841MA1999999092851MD1999999-0211REMSYN076AAXX  11124 83182 32597 81410 10244 20201 39285 40103 82201 333 20184 59021;
0137831820999992005121118004-11300-041867FM-12+074799999V0200501N005110450019N0100001N1+02841+01761100641ADDGF108991021021008001011011MA1999999092521MD1999999-0161REMSYN070AAXX  11184 83182 32597 80510 10284 20176 39252 40064 82211 333 59016;
0168831820999992005121200004-11300-041867FM-12+074799999V0200901N001510450019N0100001N1+02201+01721100931ADDGF108991021021008001021011KA1240M+02891MA1999999092751MD1999999-0021REMSYN088AAXX  12004 83182 32597 80903 10220 20172 39275 40093 82221 333 10289 29062 55098 59002;
0156831820999992005121212004-11300-041867FM-12+074799999V0200901N004110450019N0100001N1+02461+01851101131ADDGF108991031021008001031011KA1240N+01841MA1999999092951MD1999999+0101REMSYN076AAXX  12124 83182 32597 80908 10246 20185 39295 40113 83231 333 20184 58010;
0137831820999992005121218004-11300-041867FM-12+074799999V0200901N004119999999N0100001N1+02841+01761100641ADDGF108991021021999999061011MA1999999092541MD1999999+0021REMSYN070AAXX  12184 83182 32997 80908 10284 20176 39254 40064 82261 333 58002;
0168831820999992005121300004-11300-041867FM-12+074799999V0200901N003110150019N0010001N1+02341+01781101201ADDGF108991061001017501051011KA1240M+02921MA1999999092791MD1999999+0041REMSYN088AAXX  13004 83182 32794 80906 10234 20178 39279 40120 86051 333 10292 29066 55110 58004;
0156831820999992005121312004-11300-041867FM-12+074799999V0200901N003110450019N0100001N1+02561+01701101061ADDGF108991011011012501011011KA1240N+01981MA1999999092921MD1999999-0031REMSYN076AAXX  13124 83182 32697 80906 10256 20170 39292 40106 81111 333 20198 59003;
0137831820999992005121318004-11300-041867FM-12+074799999V0200901N002110450019N0100001N1+02871+01761100641ADDGF108991031021008001031011MA1999999092551MD1999999+0011REMSYN070AAXX  13184 83182 32597 80904 10287 20176 39255 40064 83231 333 58001;
0168831820999992005121400004-11300-041867FM-12+074799999V0201401N002110450019N0010001N1+02351+01751100931ADDGF108991021041008001011011KA1240M+02911MA1999999092801MD1999999+0011REMSYN088AAXX  14004 83182 32594 81404 10235 20175 39280 40093 82411 333 10291 29062 55042 58001;
0156831820999992005121412004-11300-041867FM-12+074799999V0201401N003110450019N0100001N1+02501+01821101061ADDGF108991011011012501011011KA1240N+02041MA1999999092911MD1999999-0011REMSYN076AAXX  14124 83182 32697 81406 10250 20182 39291 40106 81111 333 20204 59001;
0137831820999992005121418004-11300-041867FM-12+074799999V0200501N004110450019N0100001N1+02711+01611100731ADDGF108991011021008001041011MA1999999092621MD1999999+0071REMSYN070AAXX  14184 83182 32597 80508 10271 20161 39262 40073 81241 333 58007;
0168831820999992005121500004-11300-041867FM-12+074799999V0200901N004110150019N0010001N1+02141+01611100961ADDGF108991061001017501041011KA1240M+02761MA1999999092781MD1999999-0021REMSYN088AAXX  15004 83182 32794 80908 10214 20161 39278 40096 86041 333 10276 29065 55044 59002;
0137831820999992005121518004-11300-041867FM-12+074799999V0200501N003110075019N0100001N1+02581+01941100961ADDGF108991051031008001021999MA1999999092661MD1999999+0041REMSYN070AAXX  15184 83182 32597 80506 10258 20194 39266 40096 8532/ 333 58004;
0196831820999992005121600004-11300-041867FM-12+074799999V0201401N002610450019N0010001N1+02091+01831101051ADDAY121061AY221061GF108991021031008001021999KA1240M+02981MA1999999092861MD1999999+0081MW1131REMSYN094AAXX  16004 83182 31594 81405 10209 20183 39286 40105 71322 8232/ 333 10298 29076 55047 58008;
0156831820999992005121612004-11300-041867FM-12+074799999V0200901N005711050019N0100001N1+02481+01851101191ADDGF108991011021008001001021KA1240N+01881MA1999999092991MD1999999+0161REMSYN076AAXX  16124 83182 32597 80911 10248 20185 39299 40119 81202 333 20188 58016;
0137831820999992005121618004-11300-041867FM-12+074799999V0201401N003110450019N0100001N1+02781+01881100881ADDGF108991021021008001041021MA1999999092741MD1999999+0081REMSYN070AAXX  16184 83182 32597 81406 10278 20188 39274 40088 82242 333 58008;
0168831820999992005121700004-11300-041867FM-12+074799999V0201401N003119999999N0010001N1+02201+01821101101ADDGF108991001001999999001021KA1240M+02821MA1999999092931MD1999999+0071REMSYN088AAXX  17004 83182 32994 81406 10220 20182 39293 40110 80002 333 10282 29071 55061 58007;
0137831820999992005121718004-11300-041867FM-12+074799999V0200401N004612200019N0100001N1+03111+01471100951ADDGF108991011011008001001011MA1999999092871MD1999999+0131REMSYN070AAXX  17184 83182 32597 80409 10311 20147 39287 40095 81101 333 58013;
0168831820999992005121800004-11300-041867FM-12+074799999V0201401N003112200019N0100001N1+02351+01721101041ADDGF108991011011012501001011KA1240M+03141MA1999999092871MD1999999-0061REMSYN088AAXX  18004 83182 32697 81406 10235 20172 39287 40104 81101 333 10314 29060 55096 59006;
0156831820999992005121812004-11300-041867FM-12+074799999V0201401N005112200019N0100001N1+02521+01661101311ADDGF108991011021008001001011KA1240N+01921MA1999999093151MD1999999-0041REMSYN076AAXX  18124 83182 32597 81410 10252 20166 39315 40131 81201 333 20192 59004;
0137831820999992005121818004-11300-041867FM-12+074799999V0200901N005112200019N0100001N1+02931+01601100941ADDGF108991041021008001001011MA1999999092851MD1999999-0021REMSYN070AAXX  18184 83182 32597 80910 10293 20160 39285 40094 84201 333 59002;
0168831820999992005121900004-11300-041867FM-12+074799999V0200901N002119999999N0010001N1+02361+01761101161ADDGF108991001001999999001011KA1240M+03061MA1999999093021MD1999999+0151REMSYN088AAXX  19004 83182 32994 80904 10236 20176 39302 40116 80001 333 10306 29060 55106 58015;
0156831820999992005121912004-11300-041867FM-12+074799999V0200901N006212200019N0100001N1+02521+01691101351ADDGF108991021021008001001011KA1240N+01841MA1999999093191MD1999999+0041REMSYN076AAXX  19124 83182 32597 80912 10252 20169 39319 40135 82201 333 20184 58004;
0137831820999992005121918004-11300-041867FM-12+074799999V0200501N003112200019N0100001N1+03111+01291100841ADDGF108991041021008001001011MA1999999092701MD1999999-0081REMSYN070AAXX  19184 83182 32597 80506 10311 20129 39270 40084 84201 333 59008;
0168831820999992005122000004-11300-041867FM-12+074799999V0200901N003119999999N0010001N1+02451+01491101051ADDGF108991001001999999001011KA1240M+03151MA1999999092931MD1999999-0091REMSYN088AAXX  20004 83182 32994 80906 10245 20149 39293 40105 80001 333 10315 29051 55111 59009;
0137831820999992005122018004-11300-041867FM-12+074799999V0200901N005112200019N0100001N1+03021+01551100971ADDGF108991031021008001001011MA1999999092911MD1999999+0141REMSYN070AAXX  20184 83182 32597 80910 10302 20155 39291 40097 83201 333 58014;
0168831820999992005122100004-11300-041867FM-12+074799999V0201401N001519999999N0010001N1+02301+01561101271ADDGF108991001001999999001011KA1240M+03041MA1999999093101MD1999999+0171REMSYN088AAXX  21004 83182 32994 81403 10230 20156 39310 40127 80001 333 10304 29058 55115 58017;
0156831820999992005122112004-11300-041867FM-12+074799999V0201401N003612200019N0100001N1+02401+01551101391ADDGF102991021011012501001001KA1240N+01861MA1999999093191MD1999999-0021REMSYN076AAXX  21124 83182 32697 21407 10240 20155 39319 40139 82100 333 20186 59002;
0137831820999992005122118004-11300-041867FM-12+074799999V0200901N003112200019N0100001N1+03161+01241100911ADDGF102991021021008001001001MA1999999092841MD1999999-0071REMSYN070AAXX  21184 83182 32597 20906 10316 20124 39284 40091 82200 333 59007;
0168831820999992005122200004-11300-041867FM-12+074799999V0200901N003112200019N0010001N1+02371+01521101181ADDGF108991011001017501051011KA1240M+03241MA1999999093021MD1999999-0081REMSYN088AAXX  22004 83182 32794 80906 10237 20152 39302 40118 81051 333 10324 29052 55117 59008;
0156831820999992005122212004-11300-041867FM-12+074799999V0200901N005112200019N0100001N1+02461+01611101421ADDGF108991011011012501001011KA1240N+01861MA1999999093241MD1999999+0051REMSYN076AAXX  22124 83182 32697 80910 10246 20161 39324 40142 81101 333 20186 58005;
0137831820999992005122218004-11300-041867FM-12+074799999V0201401N003112200019N0100001N1+03051+01461100941ADDGF108991041021008001001011MA1999999092861MD1999999+0021REMSYN070AAXX  22184 83182 32597 81406 10305 20146 39286 40094 84201 333 58002;
0178831820999992005122300004-11300-041867FM-12+074799999V0200901N003112200019N0010001N1+02351+01391101061ADDGA1001+999999999GF100991001001999999001001KA1240M+03091MA1999999092971MD1999999-0051REMSYN082AAXX  23004 83182 32994 00906 10235 20139 39297 40106 333 10309 29052 55111 59005;
0156831820999992005122312004-11300-041867FM-12+074799999V0200901N004112200019N0100001N1+02451+01621101381ADDGF108991011011012501001011KA1240N+01721MA1999999093201MD1999999-0041REMSYN076AAXX  23124 83182 32697 80908 10245 20162 39320 40138 81101 333 20172 59004;
0137831820999992005122318004-11300-041867FM-12+074799999V0201401N003112200019N0100001N1+03141+01121100781ADDGF101991011011012501001001MA1999999092721MD1999999-0141REMSYN070AAXX  23184 83182 32697 11406 10314 20112 39272 40078 81100 333 59014;
0178831820999992005122400004-11300-041867FM-12+074799999V0200901N004612200019N0010001N1+02411+01611101031ADDGA1001+999999999GF100991001001999999001001KA1240M+03181MA1999999092891MD1999999-0081REMSYN082AAXX  24004 83182 32994 00909 10241 20161 39289 40103 333 10318 29053 55117 59008;
0156831820999992005122412004-11300-041867FM-12+074799999V0201401N005112200019N0100001N1+02571+01511101261ADDGF108991011011012501001011KA1240N+01801MA1999999093131MD1999999-0071REMSYN076AAXX  24124 83182 32697 81410 10257 20151 39313 40126 81101 333 20180 59007;
0137831820999992005122418004-11300-041867FM-12+074799999V0201401N002111050019N0100001N1+03161+01341100771ADDGF108991041021008001001021MA1999999092731MD1999999+0011REMSYN070AAXX  24184 83182 32597 81404 10316 20134 39273 40077 84202 333 58001;
0168831820999992005122500004-11300-041867FM-12+074799999V0200901N003119999999N0010001N1+02411+01531100931ADDGF108991001001999999001011KA1240M+03191MA1999999092821MD1999999-0071REMSYN088AAXX  25004 83182 32994 80906 10241 20153 39282 40093 80001 333 10319 29050 55102 59007;
0156831820999992005122512004-11300-041867FM-12+074799999V0201401N003112200019N0100001N1+02561+01831101381ADDGF108991011021008001001011KA1240N+01801MA1999999093071MD1999999-0091REMSYN076AAXX  25124 83182 32597 81406 10256 20183 39307 40138 81201 333 20180 59009;
0137831820999992005122518004-11300-041867FM-12+074799999V0201401N003112200019N0100001N1+03241+01261100651ADDGF102991021021008001001001MA1999999092611MD1999999-0121REMSYN070AAXX  25184 83182 32597 21406 10324 20126 39261 40065 82200 333 59012;
0178831820999992005122600004-11300-041867FM-12+074799999V0200901N003112200019N0010001N1+02461+01681100961ADDGA1001+999999999GF100991001001999999001001KA1240M+03281MA1999999092851MD1999999+0031REMSYN082AAXX  26004 83182 32994 00906 10246 20168 39285 40096 333 10328 29054 55117 58003;
0156831820999992005122612004-11300-041867FM-12+074799999V0201401N003612200019N0100001N1+02501+01481101221ADDGF103991011021008001041011KA1240N+01861MA1999999093091MD1999999+0021REMSYN076AAXX  26124 83182 32597 31407 10250 20148 39309 40122 81241 333 20186 58002;
0137831820999992005122618004-11300-041867FM-12+074799999V0200901N004112200019N0100001N1+03101+01541101681ADDGF102991021021008001001001MA1999999092641MD1999999+0031REMSYN070AAXX  26184 83182 32597 20908 10310 20154 39264 40168 82200 333 58003;
0168831820999992005122700004-11300-041867FM-12+074799999V0200901N002619999999N0010001N1+02441+01561100941ADDGF108991001001999999001011KA1240M+03181MA1999999092811MD1999999-0041REMSYN088AAXX  27004 83182 32994 80905 10244 20156 39281 40094 80001 333 10318 29052 55102 59004;
0156831820999992005122712004-11300-041867FM-12+074799999V0201401N003110450019N0100001N1+02421+01591101131ADDGF108991011011012501041011KA1240N+01891MA1999999092991MD1999999-0101REMSYN076AAXX  27124 83182 32697 81406 10242 20159 39299 40113 81141 333 20189 59010;
0137831820999992005122718004-11300-041867FM-12+074799999V0200901N005110075019N0100001N1+02971+01651100591ADDGF108991061021008001031011MA1999999092531MD1999999-0101REMSYN070AAXX  27184 83182 32597 80910 10297 20165 39253 40059 86231 333 59010;
0168831820999992005122800004-11300-041867FM-12+074799999V0200901N002112200019N0010001N1+02371+01701100911ADDGF108991021021008001001011KA1240M+03031MA1999999092771MD1999999-0041REMSYN088AAXX  28004 83182 32594 80904 10237 20170 39277 40091 82201 333 10303 29059 55068 59004;
0156831820999992005122812004-11300-041867FM-12+074799999V0201401N003110450019N0100001N1+02441+01381101121ADDGF108991011011012501051011KA1240N+01881MA1999999092961MD1999999-0031REMSYN076AAXX  28124 83182 32697 81406 10244 20138 39296 40112 81151 333 20188 59003;
0137831820999992005122818004-11300-041867FM-12+074799999V0200901N001510450019N0100001N1+02861+01721100731ADDGF108991041021008001051021MA1999999092641MD1999999+0111REMSYN070AAXX  28184 83182 32597 80903 10286 20172 39264 40073 84252 333 58011;
0168831820999992005122900004-11300-041867FM-12+074799999V0200901N002110450019N0010001N1+02341+01301101011ADDGF108991031051008001051011KA1240M+02881MA1999999092861MD1999999+0091REMSYN088AAXX  29004 83182 32594 80904 10234 20130 39286 40101 83551 333 10288 29052 55017 58009;
0156831820999992005122912004-11300-041867FM-12+074799999V0200901N005110075019N0100001N1+02471+01791101091ADDGF108991061051008001011999KA1240N+01991MA1999999092941MD1999999-0021REMSYN076AAXX  29124 83182 32597 80910 10247 20179 39294 40109 8651/ 333 20199 59002;
0137831820999992005122918004-11300-041867FM-12+074799999V0200901N002610075019N0100001N1+02651+01671100721ADDGF108991061051008001021999MA1999999092591MD1999999-0051REMSYN070AAXX  29184 83182 32597 80905 10265 20167 39259 40072 8652/ 333 59005;
0213831820999992005123000004-11300-041867FM-12+074799999V0202301N001510042019N0010001N1+02651+02041101001ADDAA106006191AY161061AY261061GF108991061071004501021999KA1240M+02881MA1999999092861MD1999999+0001MW1611REMSYN100AAXX  30004 83182 21494 82303 10265 20204 39286 40100 76166 8672/ 333 10288 29077 55019 58000 60061;
0201831820999992005123012004-11300-041867FM-12+074799999V0200901N002110042019N0100001N1+02141+01781101301ADDAA124027991AY161061AY261061GF108991061071004501021999KA1240N+01801MA1999999093131MD1999999+0191MW1021REMSYN088AAXX  30124 83182 21497 80904 10214 20178 39313 40130 70266 8672/ 333 20180 58019 60284;
0137831820999992005123018004-11300-041867FM-12+074799999V0201401N003610450019N0100001N1+02541+01601101101ADDGF108991021021008001021999MA1999999092871MD1999999+0281REMSYN070AAXX  30184 83182 32597 81407 10254 20160 39287 40110 8222/ 333 58028;
0156831820999992005123112004-11300-041867FM-12+074799999V0201401N003110075019N0100001N1+02321+01791101341ADDGF108991061051008001011999KA1240N+01811MA1999999093101MD1999999-0031REMSYN076AAXX  31124 83182 32597 81406 10232 20179 39310 40134 8651/ 333 20181 59003;
0137831820999992005123118004-11300-041867FM-12+074799999V0201401N003110450019N0100001N1+02891+01861100931ADDGF108991021021008001031011MA1999999092791MD1999999-0081REMSYN070AAXX  31184 83182 32597 81406 10289 20186 39279 40093 82231 333 59008;
