0208832360999992005010100004-12150-045000FM-12+044099999V0209999C000012200019N0200001N1+02711+02171100841ADDAA106000091GA1001+999999999GF100991001001999999001001KA1240M+03431MA1999999096011MD1999999-0051REMSYN082AAXX  01004 83236 32998 00000 10271 20217 39601 40084 333 10343 29064 55/// 59005;EQDQ01  00002PRCP06
0186832360999992005010112004-12150-045000FM-12+044099999V0202301N000512200019N0200001N1+02701+02031101041ADDAA106000091GF103991011011008001041001KA1240N+01961MA1999999096201MD1999999-0121REMSYN076AAXX  01124 83236 32598 32301 10270 20203 39620 40104 81140 333 20196 59012;EQDQ01  00002PRCP06
0167832360999992005010118004-12150-045000FM-12+044099999V0203601N001012200019N0200001N1+03441+01801100601ADDAA106000091GF103991021011008001001041MA1999999095781MD1999999-0161REMSYN070AAXX  01184 83236 32598 33602 10344 20180 39578 40060 82104 333 59016;EQDQ01  00002PRCP06
0226832360999992005010200004-12150-045000FM-12+044099999V0209999C000010450019N0100001N1+02691+02111100861ADDAA106000091AY101061AY221061GF107991041071008001021001KA1240M+03511MA1999999096031MD1999999+0021MW1131REMSYN094AAXX  02004 83236 31597 70000 10269 20211 39603 40086 71302 84720 333 10351 29061 55/// 58002;EQDQ01  00002PRCP06
0190832360999992005010212004-12150-045000FM-12+044099999V0203601N001510450019N0100001N1+02621+02141101281ADDAY191061AY261061GF107991041081008001071001KA1240N+02111MA1999999096421MD1999999+0221MW1021REMSYN088AAXX  02124 83236 21597 73603 10262 20214 39642 40128 70296 84870 333 20211 58022 60244;
0195832360999992005010218004-12150-045000FM-12+044099999V0200501N006210450019N0100001N1+02681+02111101011ADDAA106000091AY101061AY221061GF107991041071008001021001MA1999999096131MD1999999+0351MW1151REMSYN076AAXX  02184 83236 31597 70512 10268 20211 39613 40101 71502 84720 333 58035;EQDQ01  00002PRCP06
0190832360999992005010312004-12150-045000FM-12+044099999V0201801N002110075019N0040001N1+02461+02051101351ADDAY151061AY251061GF107991051021008001031001KA1240N+02151MA1999999096441MD1999999+0021MW1021REMSYN088AAXX  03124 83236 21596 71804 10246 20205 39644 40135 70255 85230 333 20215 58002 60064;
0195832360999992005010318004-12150-045000FM-12+044099999V0203601N002111050019N0100001N1+02991+02231100901ADDAA106000091AY101061AY291061GF106991041031008001001031MA1999999096041MD1999999-0091MW1291REMSYN076AAXX  03184 83236 31597 63604 10299 20223 39604 40090 72909 84303 333 59009;EQDQ01  00002PRCP06
0186832360999992005010412004-12150-045000FM-12+044099999V0209999C000012200019N0200001N1+02631+02141101161ADDAA106000091GF103991011011008001041001KA1240N+02111MA1999999096281MD1999999-0161REMSYN076AAXX  04124 83236 32598 30000 10263 20214 39628 40116 81140 333 20211 59016;EQDQ01  00002PRCP06
0167832360999992005010418004-12150-045000FM-12+044099999V0203601N002612200019N0200001N1+03151+02171100711ADDAA106000091GF104991031021008001001041MA1999999095871MD1999999-0171REMSYN070AAXX  04184 83236 32598 43605 10315 20217 39587 40071 83204 333 59017;EQDQ01  00002PRCP06
0198832360999992005010500004-12150-045000FM-12+044099999V0209999C000010450019N0200001N1+02611+02211100861ADDAA106000091GF105991021061008001021001KA1240M+03211MA1999999096011MD1999999-0251REMSYN088AAXX  05004 83236 32598 50000 10261 20221 39601 40086 82620 333 10321 29072 55/// 59025;EQDQ01  00002PRCP06
0186832360999992005010512004-12150-045000FM-12+044099999V0200501N001010450019N0100001N1+02651+02121101081ADDAA106000091GF106991021021008001071001KA1240N+02251MA1999999096251MD1999999-0031REMSYN076AAXX  05124 83236 32597 60502 10265 20212 39625 40108 82270 333 20225 59003;EQDQ01  00002PRCP06
0167832360999992005010518004-12150-045000FM-12+044099999V0203601N004111050019N0100001N1+03221+02111100611ADDAA106000091GF107991021021008001001061MA1999999095801MD1999999-0071REMSYN070AAXX  05184 83236 32597 73608 10322 20211 39580 40061 82206 333 59007;EQDQ01  00002PRCP06
0198832360999992005010600004-12150-045000FM-12+044099999V0201801N001012200019N0100001N1+02461+02251100791ADDAA106000091GF103991001001999999001061KA1240M+03291MA1999999095941MD1999999-0071REMSYN088AAXX  06004 83236 32997 31802 10246 20225 39594 40079 80006 333 10329 29075 55/// 59007;EQDQ01  00002PRCP06
0190832360999992005010612004-12150-045000FM-12+044099999V0209999C000011050019N0200001N1+02701+02111101061ADDAY151061AY251061GF106991021001022501031051KA1240N+02191MA1999999096201MD1999999-0051MW1021REMSYN088AAXX  06124 83236 21898 60000 10270 20211 39620 40106 70255 82035 333 20219 59005 69944;
0167832360999992005010618004-12150-045000FM-12+044099999V0203601N001512200019N0200001N1+03291+01961100621ADDAA106000091GF106991031021008001001041MA1999999095811MD1999999+0011REMSYN070AAXX  06184 83236 32598 63603 10329 20196 39581 40062 83204 333 58001;EQDQ01  00002PRCP06
0198832360999992005010700004-12150-045000FM-12+044099999V0202301N001512200019N0200001N1+02551+02251100751ADDAA106000091GF102991021021008001001001KA1240M+03371MA1999999095911MD1999999-0031REMSYN088AAXX  07004 83236 32598 22303 10255 20225 39591 40075 82200 333 10337 29070 55/// 59003;EQDQ01  00002PRCP06
0186832360999992005010712004-12150-045000FM-12+044099999V0209999C000012200019N0200001N1+02761+01941101091ADDAA106000091GF103991001001999999001041KA1240N+02061MA1999999096241MD1999999+0041REMSYN076AAXX  07124 83236 32998 30000 10276 20194 39624 40109 80004 333 20206 58004;EQDQ01  00002PRCP06
0167832360999992005010718004-12150-045000FM-12+044099999V0200901N001012200019N0200001N1+03431+01701100671ADDAA106000091GF105991031021008001001041MA1999999095871MD1999999+0061REMSYN070AAXX  07184 83236 32598 50902 10343 20170 39587 40067 83204 333 58006;EQDQ01  00002PRCP06
0208832360999992005010800004-12150-045000FM-12+044099999V0202301N000512200019N0200001N1+02661+02021100811ADDAA106000091GA1001+999999999GF100991001001999999001001KA1240M+03511MA1999999095981MD1999999+0071REMSYN082AAXX  08004 83236 32998 02301 10266 20202 39598 40081 333 10351 29058 55/// 58007;EQDQ01  00002PRCP06
0167832360999992005010818004-12150-045000FM-12+044099999V0203601N003612200019N0200001N1+03381+01571100601ADDAA106000091GF103991021011008001001021MA1999999095791MD1999999-0081REMSYN070AAXX  08184 83236 32598 33607 10338 20157 39579 40060 82102 333 59008;EQDQ01  00002PRCP06
0186832360999992005010912004-12150-045000FM-12+043999999V0200501N004111050019N0200001N1+02761+01891101011ADDAA106000091GF105991031021008001001091KA1240N+02171MA1999999096161MD1999999-0021REMSYN076AAXX  09124 83236 32598 50508 10276 20189 39616 40101 83209 333 20217 59002;EQDQ01  00002PRCP06
0167832360999992005010918004-12150-045000FM-12+043999999V0203601N000511050019N0200001N1+03281+01821100481ADDAA106000091GF105991031021008001001021MA1999999095681MD1999999-0111REMSYN070AAXX  09184 83236 32598 53601 10328 20182 39568 40048 83202 333 59011;EQDQ01  00002PRCP06
0198832360999992005011000004-12150-045000FM-12+044099999V0201801N001510450019N0100001N1+02801+02001100721ADDAA106000091GF105991041041008001041001KA1240M+03411MA1999999095911MD1999999+0111REMSYN088AAXX  10004 83236 32597 51803 10280 20200 39591 40072 84440 333 10341 29056 55/// 58011;EQDQ01  00002PRCP06
0186832360999992005011012004-12150-045000FM-12+044099999V0201801N001012200019N0200001N1+02881+02081100941ADDAA106000091GF102991021001022501041001KA1240N+02221MA1999999096141MD1999999-0021REMSYN076AAXX  10124 83236 32898 21802 10288 20208 39614 40094 82040 333 20222 59002;EQDQ01  00002PRCP06
0167832360999992005011018004-12150-045000FM-12+044099999V0200501N002610450019N0200001N1+03391+01961100531ADDAA106000091GF106991041081008001041001MA1999999095751MD1999999+0071REMSYN070AAXX  10184 83236 32598 60505 10339 20196 39575 40053 84840 333 58007;EQDQ01  00002PRCP06
0226832360999992005011100004-12150-045000FM-12+044099999V0200501N002110075019N0100001N1+02661+01971100911ADDAA106000091AY101061AY221061GF106991061071008001001001KA1240M+03511MA1999999096091MD1999999+0181MW1131REMSYN094AAXX  11004 83236 31597 60504 10266 20197 39609 40091 71302 86700 333 10351 29059 55/// 58018;EQDQ01  00002PRCP06
0186832360999992005011112004-12150-045000FM-12+044099999V0202301N001510075019N0200001N1+02791+02111101051ADDAA106000091GF106991051021008001061001KA1240N+02251MA1999999096211MD1999999+0071REMSYN076AAXX  11124 83236 32598 62303 10279 20211 39621 40105 85260 333 20225 58007;EQDQ01  00002PRCP06
0195832360999992005011118004-12150-045000FM-12+044099999V0201401N003610450019N0200001N1+03011+02001100671ADDAA106000091AY121061AY221061GF106991041051008001071051MA1999999095841MD1999999+0091MW1151REMSYN076AAXX  11184 83236 31598 61407 10301 20200 39584 40067 71522 84575 333 58009;EQDQ01  00002PRCP06
0198832360999992005011200004-12150-045000FM-12+044099999V0203201N001510075019N0200001N1+02511+02151100871ADDAA106000091GF105991051021008001061001KA1240M+03171MA1999999096031MD1999999-0061REMSYN088AAXX  12004 83236 32598 53203 10251 20215 39603 40087 85260 333 10317 29072 55/// 59006;EQDQ01  00002PRCP06
0186832360999992005011212004-12150-045000FM-12+044099999V0203601N002610450019N0200001N1+02781+02211100981ADDAA106000091GF106991041041008001061071KA1240N+02281MA1999999096141MD1999999-0071REMSYN076AAXX  12124 83236 32598 63605 10278 20221 39614 40098 84467 333 20228 59007;EQDQ01  00002PRCP06
0167832360999992005011218004-12150-045000FM-12+044099999V0203601N001510450019N0200001N1+02991+02221100511ADDAA106000091GF106991031021008001071061MA1999999095691MD1999999-0151REMSYN070AAXX  12184 83236 32598 63603 10299 20222 39569 40051 83276 333 59015;EQDQ01  00002PRCP06
0226832360999992005011300004-12150-045000FM-12+044099999V0200501N008710075019N0100001N1+02511+01911100941ADDAA106000091AY121061AY221061GF108991071051008001021999KA1240M+03241MA1999999096101MD1999999+0071MW1131REMSYN094AAXX  13004 83236 31597 80517 10251 20191 39610 40094 71322 8752/ 333 10324 29069 55/// 58007;EQDQ01  00002PRCP06
0209832360999992005011312004-12150-045000FM-12+044099999V0200501N002110075019N0100001N1+02371+02191101121ADDAY161061AY251061GF108991999071008001041999KA1240N+02081MA1999999096231MD1999999+0091MW1101REMSYN088AAXX  13124 83236 21597 80504 10237 20219 39623 40112 71065 8874/ 333 20208 58009 60204;EQDQ01+000082SCOTLC
0171832360999992005011318004-12150-045000FM-12+044099999V0200501N006210075019N0040001N1+02361+02111100851ADDAY161061AY261061GF108991071051008001021999MA1999999095921MD1999999+0231MW1101REMSYN082AAXX  13184 83236 21596 80512 10236 20211 39592 40085 71066 8752/ 333 58023 60201;
0202832360999992005011400004-12150-045000FM-12+044099999V0200501N004610075019N0040001N1+02231+02101100961ADDAY161061AY261061GF108991061071008001021999KA1240M+02531MA1999999096051MD1999999-0051MW1101REMSYN100AAXX  14004 83236 21596 80509 10223 20210 39605 40096 71066 8672/ 333 10253 29090 55/// 59005 69941;
0189832360999992005011412004-12150-045000FM-12+044099999V0200501N002610120019N0200001N1+02371+02131100981ADDAY121061AY221061GF108991071081008001041999KA1999N+02161MA1999999096071MD1999999-0161MW1101REMSYN087AAXX  14124 83236 21598 80505 10237 20213 39607 40098 71022 8784/ 33320216 59016 60204;
0171832360999992005011418004-12150-045000FM-12+044099999V0202701N004610075019N0040001N1+02501+02171100521ADDAY151061AY251061GF108991071061008001021999MA1999999095641MD1999999-0281MW1511REMSYN082AAXX  14184 83236 21596 82709 10250 20217 39564 40052 75155 8762/ 333 59028 69961;
0202832360999992005011500004-12150-045000FM-12+044099999V0200501N003110075019N0020001N1+02261+02211100821ADDAY161061AY261061GF108991051061008001999999KA1240M+03001MA1999999095921MD1999999-0131MW1611REMSYN100AAXX  15004 83236 21595 80506 10226 20221 39592 40082 76166 856// 333 10300 29091 55/// 59013 60181;
0190832360999992005011512004-12150-045000FM-12+044099999V0209999C000010075019N0040001N1+02301+02161101071ADDAY161061AY261061GF108991061071008001021999KA1240N+02151MA1999999096151MD1999999+0081MW1101REMSYN088AAXX  15124 83236 21596 80000 10230 20216 39615 40107 71066 8672/ 333 20215 58008 60494;
0167832360999992005011518004-12150-045000FM-12+044099999V0202701N002110075019N0040001N1+02691+02181100671ADDAA106000091GF108991071041008001071999MA1999999095801MD1999999+0161REMSYN070AAXX  15184 83236 32596 82704 10269 20218 39580 40067 8747/ 333 58016;EQDQ01  00002PRCP06
0198832360999992005011600004-12150-045000FM-12+044099999V0200501N004110075019N0040001N1+02351+02181100921ADDAA106000091GF108991061071008001021999KA1240M+02741MA1999999096011MD1999999+0091REMSYN088AAXX  16004 83236 32596 80508 10235 20218 39601 40092 8672/ 333 10274 29087 55/// 58009;EQDQ01  00002PRCP06
0186832360999992005011612004-12150-045000FM-12+044099999V0200501N001010075019N0100001N1+02541+02251100961ADDAA106000091GF107991061041008001071051KA1240N+02291MA1999999096081MD1999999-0071REMSYN076AAXX  16124 83236 32597 70502 10254 20225 39608 40096 86475 333 20229 59007;EQDQ01  00002PRCP06
0167832360999992005011618004-12150-045000FM-12+044099999V0203601N004610450019N0200001N1+02681+02221100511ADDAA106000091GF106991041031008001071051MA1999999095661MD1999999-0141REMSYN070AAXX  16184 83236 32598 63609 10268 20222 39566 40051 84375 333 59014;EQDQ01  00002PRCP06
0198832360999992005011700004-12150-045000FM-12+043999999V0200501N001512200019N0200001N1+02451+02171100581ADDAA106000091GF104991031021012501081051KA1240M+02941MA1999999095731MD1999999-0281REMSYN088AAXX  17004 83236 32698 40503 10245 20217 39573 40058 83285 333 10294 29082 55/// 59028;EQDQ01  00002PRCP06
0214832360999992005011712004-12150-045000FM-12+043999999V0200501N002110075019N0100001N1+02481+02211100941ADDAA106000091AY121061AY221061GF108991061051008001071999KA1240N+02231MA1999999096061MD1999999-0021MW1161REMSYN082AAXX  17124 83236 31597 80504 10248 20221 39606 40094 71622 8657/ 333 20223 59002;EQDQ01  00002PRCP06
0195832360999992005011718004-12150-045000FM-12+043999999V0203601N004110075019N0200001N1+02811+02201100521ADDAA106000091AY121061AY221061GF106991051051008001041051MA1999999095681MD1999999+0021MW1151REMSYN076AAXX  17184 83236 31598 63608 10281 20220 39568 40052 71522 85545 333 58002;EQDQ01  00002PRCP06
0198832360999992005011800004-12150-045000FM-12+044099999V0203601N001512200019N0200001N1+02331+02111100811ADDAA106000091GF104991031021012501071031KA1240M+03031MA1999999095931MD1999999+0201REMSYN088AAXX  18004 83236 32698 43603 10233 20211 39593 40081 83273 333 10303 29083 55/// 58020;EQDQ01  00002PRCP06
0186832360999992005011812004-12150-045000FM-12+044099999V0200501N002612200019N0200001N1+02631+02161100881ADDAA106000091GF104991031021008001001051KA1240N+02191MA1999999096011MD1999999-0051REMSYN076AAXX  18124 83236 32598 40505 10263 20216 39601 40088 83205 333 20219 59005;EQDQ01  00002PRCP06
0167832360999992005011818004-12150-045000FM-12+044099999V0203601N003112200019N0200001N1+03021+01211100531ADDAA106000091GF103991031021008001001001MA1999999095701MD1999999+0021REMSYN070AAXX  18184 83236 32598 33606 10302 20121 39570 40053 83200 333 58002;EQDQ01  00002PRCP06
0198832360999992005011900004-12150-045000FM-12+044099999V0209999C000010450019N0200001N1+02511+02231100781ADDAA106000091GF105991041021012501061051KA1240M+03061MA1999999095931MD1999999+0001REMSYN088AAXX  19004 83236 32698 50000 10251 20223 39593 40078 84265 333 10306 29076 55/// 58000;EQDQ01  00002PRCP06
0186832360999992005011912004-12150-045000FM-12+044099999V0209999C000010075019N0200001N1+02701+02281100921ADDAA106000091GF106991051021008001071051KA1240N+02311MA1999999096061MD1999999+0051REMSYN076AAXX  19124 83236 32598 60000 10270 20228 39606 40092 85275 333 20231 58005;EQDQ01  00002PRCP06
0167832360999992005011918004-12150-045000FM-12+044099999V0200501N003610075019N0100001N1+03021+02181100541ADDAA106000091GF108991061021008001081999MA1999999095721MD1999999+0021REMSYN070AAXX  19184 83236 32597 80507 10302 20218 39572 40054 8628/ 333 58002;EQDQ01  00002PRCP06
0198832360999992005012000004-12150-045000FM-12+044099999V0201401N001510120019N0100001N1+02451+02251100751ADDAA106000091GF108991071021012501071051KA1240M+03081MA1999999095901MD1999999-0031REMSYN088AAXX  20004 83236 32697 81403 10245 20225 39590 40075 87275 333 10308 29079 55/// 59003;EQDQ01  00002PRCP06
0190832360999992005012012004-12150-045000FM-12+044099999V0200501N001510120019N0100001N1+02391+02131101181ADDAY151061AY251061GF108991071081008001041999KA1240N+02211MA1999999096281MD1999999+0221MW1101REMSYN088AAXX  20124 83236 21597 80503 10239 20213 39628 40118 71055 8784/ 333 20221 58022 69994;
0167832360999992005012018004-12150-045000FM-12+044099999V0203601N003610075019N0200001N1+03001+02191100681ADDAA106000091GF106991051021008001001071MA1999999095841MD1999999+0121REMSYN070AAXX  20184 83236 32598 63607 10300 20219 39584 40068 85207 333 58012;EQDQ01  00002PRCP06
0198832360999992005012100004-12150-045000FM-12+044099999V0209999C000011050019N0200001N1+02521+02291100801ADDAA106000091GF105991031021012501001051KA1240M+03041MA1999999095931MD1999999+0031REMSYN088AAXX  21004 83236 32698 50000 10252 20229 39593 40080 83205 333 10304 29080 55/// 58003;EQDQ01  00002PRCP06
0190832360999992005012112004-12150-045000FM-12+044099999V0209999C000010075019N0040001N1+02191+02131101341ADDAY161061AY261061GF108991061071008001021999KA1240N+02001MA1999999096421MD1999999+0141MW1101REMSYN088AAXX  21124 83236 21596 80000 10219 20213 39642 40134 71066 8672/ 333 20200 58014 60344;
0167832360999992005012118004-12150-045000FM-12+044099999V0203601N001510450019N0200001N1+02941+02311100871ADDAA106000091GF105991041021008001071031MA1999999096021MD1999999+0181REMSYN070AAXX  21184 83236 32598 53603 10294 20231 39602 40087 84273 333 58018;EQDQ01  00002PRCP06
0198832360999992005012200004-12150-045000FM-12+044099999V0209999C000011050019N0200001N1+02431+02131101111ADDAA106000091GF106991031001022501061071KA1240M+03011MA1999999096191MD1999999+0261REMSYN088AAXX  22004 83236 32898 60000 10243 20213 39619 40111 83067 333 10301 29084 55/// 58026;EQDQ01  00002PRCP06
0186832360999992005012212004-12150-045000FM-12+044099999V0202301N001510450019N0200001N1+02641+02231101241ADDAA106000091GF106991041021012501061051KA1240N+02121MA1999999096361MD1999999-0061REMSYN076AAXX  22124 83236 32698 62303 10264 20223 39636 40124 84265 333 20212 59006;EQDQ01  00002PRCP06
0195832360999992005012218004-12150-045000FM-12+044099999V0201401N001510075019N0100001N1+02771+02161100831ADDAA106000091AY121061AY221061GF108991071051008001071999MA1999999095951MD1999999-0071MW1151REMSYN076AAXX  22184 83236 31597 81403 10277 20216 39595 40083 71522 8757/ 333 59007;EQDQ01  00002PRCP06
0186832360999992005012312004-12150-045000FM-12+043999999V0209999C000010120019N0100001N1+02421+02111101281ADDAA106000091GF108991071081008001041999KA1240N+02131MA1999999096341MD1999999-0021REMSYN076AAXX  23124 83236 32597 80000 10242 20211 39634 40128 8784/ 333 20213 59002;EQDQ01  00002PRCP06
0195832360999992005012318004-12150-045000FM-12+043999999V0201401N005710075019N0100001N1+02631+02121100811ADDAA106000091AY121061AY221061GF108991071051008001081999MA1999999095921MD1999999-0031MW1131REMSYN076AAXX  23184 83236 31597 81411 10263 20212 39592 40081 71322 8758/ 333 59003;EQDQ01  00002PRCP06
0186832360999992005012412004-12150-045000FM-12+043999999V0209999C000010450019N0200001N1+02481+02211101151ADDAA106000091GF106991041021008001061051KA1240N+02131MA1999999096251MD1999999-0091REMSYN076AAXX  24124 83236 32598 60000 10248 20221 39625 40115 84265 333 20213 59009;EQDQ01  00002PRCP06
0195832360999992005012418004-12150-045000FM-12+043999999V0200501N002110075019N0200001N1+03071+02191100691ADDAA106000091AY121061AY221061GF107991051051008001071051MA1999999095851MD1999999-0071MW1151REMSYN076AAXX  24184 83236 31598 70504 10307 20219 39585 40069 71522 85575 333 59007;EQDQ01  00002PRCP06
0198832360999992005012500004-12150-045000FM-12+044099999V0209999C000011050019N0200001N1+02411+02131100901ADDAA106000091GF105991031001022501061031KA1240M+03141MA1999999096021MD1999999-0251REMSYN088AAXX  25004 83236 32898 50000 10241 20213 39602 40090 83063 333 10314 29079 55/// 59025;EQDQ01  00002PRCP06
0186832360999992005012512004-12150-045000FM-12+044099999V0209999C000011050019N0200001N1+02631+02231101011ADDAA106000091GF106991041001022501061051KA1240N+02201MA1999999096141MD1999999-0111REMSYN076AAXX  25124 83236 32898 60000 10263 20223 39614 40101 84065 333 20220 59011;EQDQ01  00002PRCP06
0171832360999992005012518004-12150-045000FM-12+044099999V0203601N001510450019N0200001N1+03081+02291100571ADDAY151061AY251061GF106991041021012501071051MA1999999095751MD1999999-0101MW1031REMSYN082AAXX  25184 83236 21698 63603 10308 20229 39575 40057 70355 84275 333 59010 60011;
0226832360999992005012600004-12150-045000FM-12+044099999V0203601N002110450019N0100001N1+02591+02231100891ADDAA106000091AY121061AY221061GF108991041051008001081999KA1240M+03241MA1999999096041MD1999999+0021MW1131REMSYN094AAXX  26004 83236 31597 83604 10259 20223 39604 40089 71322 8458/ 333 10324 29076 55/// 58002;EQDQ01  00002PRCP06
0162832360999992005012612004-12150-045000FM-12+044099999V0200901N001010075019N0100001N1+02731+02191101091ADDGF107991051041008001021001KA1240N+02271MA1999999096241MD1999999+0101REMSYN082AAXX  26124 83236 22597 70902 10273 20219 39624 40109 85420 333 20227 58010 60014;
0171832360999992005012618004-12150-045000FM-12+044099999V0202701N003610075019N0100001N1+02761+02231100741ADDAY161061AY261061GF108991051071008001021999MA1999999095901MD1999999+0151MW1291REMSYN082AAXX  26184 83236 21597 82707 10276 20223 39590 40074 72966 8572/ 333 58015 60191;
0226832360999992005012700004-12150-045000FM-12+044099999V0209999C000010450019N0100001N1+02501+02321101081ADDAA106000091AY101061AY291061GF106991031041008001021001KA1240M+03011MA1999999096221MD1999999+0181MW1021REMSYN094AAXX  27004 83236 31597 60000 10250 20232 39622 40108 70209 83420 333 10301 29082 55/// 58018;EQDQ01  00002PRCP06
0162832360999992005012712004-12150-045000FM-12+044099999V0209999C000012200019N0100001N1+02501+02271101251ADDGF106991041021008001001041KA1240N+02141MA1999999096361MD1999999+0121REMSYN082AAXX  27124 83236 22597 60000 10250 20227 39636 40125 84204 333 20214 58012 60194;
0167832360999992005012718004-12150-045000FM-12+044099999V0201801N001010450019N0100001N1+02601+02191100991ADDAA106000091GF108991031071008001021999MA1999999096111MD1999999+0211REMSYN070AAXX  27184 83236 32597 81802 10260 20219 39611 40099 8372/ 333 58021;EQDQ01  00002PRCP06
0198832360999992005012800004-12150-045000FM-12+044099999V0201801N001510450019N0100001N1+02411+02241101081ADDAA106000091GF107991031071008001021001KA1240M+03211MA1999999096191MD1999999-0031REMSYN088AAXX  28004 83236 32597 71803 10241 20224 39619 40108 83720 333 10321 29087 55/// 59003;EQDQ01  00002PRCP06
0190832360999992005012812004-12150-045000FM-12+044099999V0202301N000510450019N0100001N1+02681+02241101231ADDAY151061AY251061GF106991041021008001081001KA1240N+02221MA1999999096351MD1999999-0011MW1021REMSYN088AAXX  28124 83236 21597 62301 10268 20224 39635 40123 70255 84280 333 20222 59001 69944;
0167832360999992005012818004-12150-045000FM-12+044099999V0203601N002610075019N0100001N1+03091+02201100681ADDAA106000091GF105991051021008001001001MA1999999095861MD1999999-0251REMSYN070AAXX  28184 83236 32597 53605 10309 20220 39586 40068 85200 333 59025;EQDQ01  00002PRCP06
0226832360999992005012900004-12150-045000FM-12+044099999V0209999C000012200019N0100001N1+02601+02311100681ADDAA106000091AY101061AY221061GF103991031091008001001001KA1240M+03291MA1999999095851MD1999999-0341MW1131REMSYN094AAXX  29004 83236 31597 30000 10260 20231 39585 40068 71302 83900 333 10329 29076 55/// 59034;EQDQ01  00002PRCP06
0186832360999992005012912004-12150-045000FM-12+044099999V0209999C000011050019N0200001N1+02671+02201100851ADDAA106000091GF105991021021008001061041KA1240N+02251MA1999999096011MD1999999-0341REMSYN076AAXX  29124 83236 32598 50000 10267 20220 39601 40085 82264 333 20225 59034;EQDQ01  00002PRCP06
0171832360999992005012918004-12150-045000FM-12+044099999V0201401N005110075019N0100001N1+02381+02211100661ADDAY161061AY261061GF107991051071008001021001MA1999999095771MD1999999-0091MW1951REMSYN082AAXX  29184 83236 21597 71410 10238 20221 39577 40066 79566 85720 333 59009 60471;
0202832360999992005013000004-12150-045000FM-12+043999999V0209999C000010450019N0040001N1+02271+02161100811ADDAY161061AY261061GF108991031071008001021999KA1240M+02931MA1999999095941MD1999999+0091MW1021REMSYN100AAXX  30004 83236 21596 80000 10227 20216 39594 40081 70266 8372/ 333 10293 29088 55/// 58009 60051;
0190832360999992005013012004-12150-045000FM-12+043999999V0201801N001012200019N0100001N1+02441+02131100921ADDAY151061AY251061GF106991041021008001001041KA1240N+02141MA1999999096021MD1999999+0011MW1021REMSYN088AAXX  30124 83236 21597 61802 10244 20213 39602 40092 70255 84204 333 20214 58001 60534;
0167832360999992005013018004-12150-045000FM-12+043999999V0200901N001012200019N0100001N1+02941+02051100451ADDAA106000091GF105991021021008001001061MA1999999095621MD1999999-0151REMSYN070AAXX  30184 83236 32597 50902 10294 20205 39562 40045 82206 333 59015;EQDQ01  00002PRCP06
0226832360999992005013100004-12150-045000FM-12+044099999V0200501N004110450019N0100001N1+02541+02231100661ADDAA106000091AY101061AY221061GF106991041031008001041001KA1240M+03071MA1999999095801MD1999999-0141MW1131REMSYN094AAXX  31004 83236 31597 60508 10254 20223 39580 40066 71302 84340 333 10307 29078 55/// 59014;EQDQ01  00002PRCP06
0186832360999992005013112004-12150-045000FM-12+044099999V0202701N000510075019N0100001N1+02451+02171100941ADDAA106000091GF108991051051008001021999KA1240N+02201MA1999999096071MD1999999+0051REMSYN076AAXX  31124 83236 32597 82701 10245 20217 39607 40094 8552/ 333 20220 58005;EQDQ01  00002PRCP06
0167832360999992005013118004-12150-045000FM-12+044099999V0202701N003110075019N0100001N1+02931+02211100481ADDAA106000091GF107991051051008001001041MA1999999095661MD1999999+0041REMSYN070AAXX  31184 83236 32597 72706 10293 20221 39566 40048 85504 333 58004;EQDQ01  00002PRCP06
0202832360999992005020100004-12150-045000FM-12+044099999V0209999C000010075019N0040001N1+02381+02291100811ADDAY161061AY261061GF108991051051008001021999KA1240M+03011MA1999999095931MD1999999+0131MW1121REMSYN100AAXX  01004 83236 21596 80000 10238 20229 39593 40081 71266 8552/ 333 10301 29086 55/// 58013 60071;
0162832360999992005020112004-12150-045000FM-12+044099999V0202301N000510120019N0100001N1+02501+02131100871ADDGF107991051081008001001041KA1240N+02181MA1999999095991MD1999999-0081REMSYN082AAXX  01124 83236 22597 72301 10250 20213 39599 40087 85804 333 20218 59008 60074;
0167832360999992005020118004-12150-045000FM-12+044099999V0200501N004612200019N0100001N1+02971+02231100401ADDAA106000091GF106991031021008001001061MA1999999095571MD1999999-0091REMSYN070AAXX  01184 83236 32597 60509 10297 20223 39557 40040 83206 333 59009;EQDQ01  00002PRCP06
0202832360999992005020200004-12150-045000FM-12+044099999V0209999C000010450019N0100001N1+02211+02121100771ADDAY191061AY261061GF107991031071008001021001KA1240M+03071MA1999999095881MD1999999-0051MW1021REMSYN100AAXX  02004 83236 21597 70000 10221 20212 39588 40077 70296 83720 333 10307 29083 55/// 59005 60071;
0162832360999992005020212004-12150-045000FM-12+044099999V0202301N001010450019N0100001N1+02421+02191100971ADDGF107991021021008001031061KA1240N+02101MA1999999096061MD1999999+0071REMSYN082AAXX  02124 83236 22597 72302 10242 20219 39606 40097 82236 333 20210 58007 60074;
0167832360999992005020218004-12150-045000FM-12+044099999V0200501N003112200019N0100001N1+03001+02141100601ADDAA106000091GF106991021021008001001061MA1999999095751MD1999999+0181REMSYN070AAXX  02184 83236 32597 60506 10300 20214 39575 40060 82206 333 58018;EQDQ01  00002PRCP06
0198832360999992005020300004-12150-045000FM-12+044099999V0209999C000010450019N0100001N1+02581+02371100831ADDAA106000091GF108991041071008001021999KA1240M+03081MA1999999095961MD1999999+0081REMSYN088AAXX  03004 83236 32597 80000 10258 20237 39596 40083 8472/ 333 10308 29081 55/// 58008;EQDQ01  00002PRCP06
0186832360999992005020312004-12150-045000FM-12+044099999V0202301N001510450019N0100001N1+02391+02151101191ADDAA106000091GF108991021021008001021999KA1240N+02271MA1999999096311MD1999999+0251REMSYN076AAXX  03124 83236 32597 82303 10239 20215 39631 40119 8222/ 333 20227 58025;EQDQ01  00002PRCP06
0167832360999992005020318004-12150-045000FM-12+044099999V0209999C000010450019N0100001N1+03001+02141100881ADDAA106000091GF107991041021008001061061MA1999999096051MD1999999+0301REMSYN070AAXX  03184 83236 32597 70000 10300 20214 39605 40088 84266 333 58030;EQDQ01  00002PRCP06
0198832360999992005020400004-12150-045000FM-12+044099999V0209999C000010450019N0100001N1+02491+02211101061ADDAA106000091GF106991021011008001021001KA1240M+03131MA1999999096171MD1999999+0211REMSYN088AAXX  04004 83236 32597 60000 10249 20221 39617 40106 82120 333 10313 29078 55/// 58021;EQDQ01  00002PRCP06
0186832360999992005020412004-12150-045000FM-12+044099999V0209999C000019999999N0100001N1+02611+01931101241ADDAA106000091GF105991001001999999001091KA1240N+02031MA1999999096361MD1999999+0051REMSYN076AAXX  04124 83236 32997 50000 10261 20193 39636 40124 80009 333 20203 58005;EQDQ01  00002PRCP06
0167832360999992005020418004-12150-045000FM-12+044099999V0200901N002111050019N0100001N1+03291+01951100871ADDAA106000091GF106991041021008001001021MA1999999096041MD1999999-0011REMSYN070AAXX  04184 83236 32597 60904 10329 20195 39604 40087 84202 333 59001;EQDQ01  00002PRCP06
0198832360999992005020500004-12150-045000FM-12+044099999V0202701N001012200019N0100001N1+02501+01891101161ADDAA106000091GF102991021011008001001001KA1240M+03391MA1999999096291MD1999999+0121REMSYN088AAXX  05004 83236 32597 22702 10250 20189 39629 40116 82100 333 10339 29062 55/// 58012;EQDQ01  00002PRCP06
0186832360999992005020512004-12150-045000FM-12+044099999V0209999C000012200019N0200001N1+02511+01861101281ADDAA106000091GF103991001001999999001041KA1240N+02161MA1999999096391MD1999999+0031REMSYN076AAXX  05124 83236 32998 30000 10251 20186 39639 40128 80004 333 20216 58003;EQDQ01  00002PRCP06
0167832360999992005020518004-12150-045000FM-12+044099999V0203601N001512200019N0200001N1+03231+02051100901ADDAA106000091GF104991021011008001001041MA1999999096061MD1999999+0041REMSYN070AAXX  05184 83236 32598 43603 10323 20205 39606 40090 82104 333 58004;EQDQ01  00002PRCP06
0208832360999992005020600004-12150-045000FM-12+043999999V0209999C000012200019N0200001N1+02551+02191100991ADDAA106000091GA1001+999999999GF100991001001999999001001KA1240M+03271MA1999999096131MD1999999-0161REMSYN082AAXX  06004 83236 32998 00000 10255 20219 39613 40099 333 10327 29069 55/// 59016;EQDQ01  00002PRCP06
0186832360999992005020612004-12150-045000FM-12+043999999V0202701N001012200019N0200001N1+02431+02091101241ADDAA106000091GF104991021011008001001011KA1240N+01981MA1999999096351MD1999999-0041REMSYN076AAXX  06124 83236 32598 42702 10243 20209 39635 40124 82101 333 20198 59004;EQDQ01  00002PRCP06
0176832360999992005020618004-12150-045000FM-12+043999999V0203601N001510075019N0200001N1+03301+02091100801ADDAA106000021AY101061AY291061GF105991051031008001001001MA1999999095971MD1999999-0091MW1951REMSYN076AAXX  06184 83236 31598 53603 10330 20209 39597 40080 79509 85300 333 59009;
0179832360999992005020700004-12150-045000FM-12+044099999V0201801N000510120019N0100001N1+02691+02081100811ADDAA106000021GF106991061081008001001001KA1240M+03371MA1999999095951MD1999999-0181REMSYN088AAXX  07004 83236 32597 61801 10269 20208 39595 40081 86800 333 10337 29067 55/// 59018;
0186832360999992005020712004-12150-045000FM-12+044099999V0201801N003112200019N0200001N1+02701+01991101031ADDAA106000091GF104991001001999999001051KA1240N+02041MA1999999096191MD1999999-0161REMSYN076AAXX  07124 83236 32998 41806 10270 20199 39619 40103 80005 333 20204 59016;EQDQ01  00002PRCP06
0202832360999992005020800004-12150-045000FM-12+044099999V0209999C000012200019N0200001N1+02541+02381100801ADDAY161061AY261061GF103991031011008001001001KA1240M+03331MA1999999095951MD1999999+0001MW1021REMSYN100AAXX  08004 83236 21598 30000 10254 20238 39595 40080 70266 83100 333 10333 29075 55/// 58000 60111;
0162832360999992005020812004-12150-045000FM-12+044099999V0201801N001012200019N0200001N1+02601+01991101051ADDGF104991001001999999001061KA1240N+02081MA1999999096181MD1999999-0011REMSYN082AAXX  08124 83236 22998 41802 10260 20199 39618 40105 80006 333 20208 59001 60114;
0167832360999992005020818004-12150-045000FM-12+044099999V0203601N001510450019N0200001N1+03221+02261100601ADDAA106000091GF105991031031008001041001MA1999999095781MD1999999-0101REMSYN070AAXX  08184 83236 32598 53603 10322 20226 39578 40060 83340 333 59010;EQDQ01  00002PRCP06
0186832360999992005020912004-12150-045000FM-12+044099999V0201801N003112200019N0200001N1+02581+01951101091ADDAA106000091GF103991011011008001031001KA1240N+02041MA1999999096221MD1999999+0041REMSYN076AAXX  09124 83236 32598 31806 10258 20195 39622 40109 81130 333 20204 58004;EQDQ01  00002PRCP06
0167832360999992005020918004-12150-045000FM-12+044099999V0200501N002612200019N0200001N1+03151+02181100611ADDAA106000091GF105991041031008001001011MA1999999095771MD1999999-0011REMSYN070AAXX  09184 83236 32598 50505 10315 20218 39577 40061 84301 333 59001;EQDQ01  00002PRCP06
0198832360999992005021000004-12150-045000FM-12+044099999V0209999C000012200019N0200001N1+02561+02171100741ADDAA106000091GF103991031001022501041001KA1240M+03351MA1999999095891MD1999999-0121REMSYN088AAXX  10004 83236 32898 30000 10256 20217 39589 40074 83040 333 10335 29071 55/// 59012;EQDQ01  00002PRCP06
0186832360999992005021012004-12150-045000FM-12+044099999V0202301N001012200019N0200001N1+02591+01971100901ADDAA106000091GF102991021021012501001001KA1240N+02091MA1999999096051MD1999999-0151REMSYN076AAXX  10124 83236 32698 22302 10259 20197 39605 40090 82200 333 20209 59015;EQDQ01  00002PRCP06
0167832360999992005021018004-12150-045000FM-12+044099999V0203601N003112200019N0200001N1+03171+01991100511ADDAA106000091GF103991031021008001001001MA1999999095691MD1999999-0081REMSYN070AAXX  10184 83236 32598 33606 10317 20199 39569 40051 83200 333 59008;EQDQ01  00002PRCP06
0226832360999992005021100004-12150-045000FM-12+044099999V0201801N001512200019N0200001N1+02491+02111100671ADDAA106000091AY121061AY221061GF104991041051008001001001KA1240M+03221MA1999999095821MD1999999-0071MW1131REMSYN094AAXX  11004 83236 31598 41803 10249 20211 39582 40067 71322 84500 333 10322 29070 55/// 59007;EQDQ01  00002PRCP06
0186832360999992005021112004-12150-045000FM-12+044099999V0209999C000012200019N0200001N1+02771+02211100821ADDAA106000091GF104991041021008001001001KA1240N+02141MA1999999095981MD1999999-0071REMSYN076AAXX  11124 83236 32598 40000 10277 20221 39598 40082 84200 333 20214 59007;EQDQ01  00002PRCP06
0171832360999992005021118004-12150-045000FM-12+044099999V0202301N001510075019N0100001N1+02431+02171100661ADDAY151061AY251061GF108991071051008001071999MA1999999095751MD1999999+0061MW1151REMSYN082AAXX  11184 83236 21597 82303 10243 20217 39575 40066 71555 8757/ 333 58006 60031;
0198832360999992005021200004-12150-045000FM-12+044099999V0209999C000010075019N0100001N1+02301+02201100811ADDAA106000091GF108991071071008001021999KA1240M+03061MA1999999095951MD1999999+0131REMSYN088AAXX  12004 83236 32597 80000 10230 20220 39595 40081 8772/ 333 10306 29086 55/// 58013;EQDQ01  00002PRCP06
0162832360999992005021212004-12150-045000FM-12+044099999V0200501N001510120019N0100001N1+02391+02191101001ADDGF108991071081008001041999KA1240N+02191MA1999999096101MD1999999+0121REMSYN082AAXX  12124 83236 22597 80503 10239 20219 39610 40100 8784/ 333 20219 58012 60034;
0171832360999992005021218004-12150-045000FM-12+044099999V0203601N007210075019N0100001N1+02601+02121100711ADDAY151061AY251061GF108991061051008001021999MA1999999095831MD1999999+0081MW1171REMSYN082AAXX  12184 83236 21597 83614 10260 20212 39583 40071 71755 8652/ 333 58008 60011;
0202832360999992005021300004-12150-045000FM-12+043999999V0203601N001510075019N0040001N1+02271+02191100961ADDAY151061AY251061GF108991071061008001999999KA1240M+02941MA1999999096061MD1999999+0111MW1511REMSYN100AAXX  13004 83236 21596 83603 10227 20219 39606 40096 75155 876// 333 10294 29089 55/// 58011 60031;
0190832360999992005021312004-12150-045000FM-12+043999999V0201401N002110120019N0040001N1+02341+02171101081ADDAY151061AY251061GF108991071081008001041999KA1240N+02151MA1999999096161MD1999999+0061MW1101REMSYN088AAXX  13124 83236 21596 81404 10234 20217 39616 40108 71055 8784/ 333 20215 58006 60094;
0171832360999992005021318004-12150-045000FM-12+043999999V0200501N002610450019N0200001N1+02601+02311100671ADDAY161061AY261061GF106991041021008001071051MA1999999095781MD1999999-0051MW1031REMSYN082AAXX  13184 83236 21598 60505 10260 20231 39578 40067 70366 84275 333 59005 60081;
0226832360999992005021400004-12150-045000FM-12+044099999V0209999C000010075019N0100001N1+02471+02321100671ADDAA106000091AY121061AY221061GF108991071051008001041999KA1240M+02851MA1999999095951MD1999999-0111MW1171REMSYN094AAXX  14004 83236 31597 80000 10247 20232 39595 40067 71722 8754/ 333 10285 29090 55/// 59011;EQDQ01  00002PRCP06
0190832360999992005021412004-12150-045000FM-12+044099999V0200501N001510075019N0040001N1+02401+02261101011ADDAY161061AY261061GF108991071061008001021999KA1240N+02251MA1999999096141MD1999999-0031MW1511REMSYN088AAXX  14124 83236 21596 80503 10240 20226 39614 40101 75166 8762/ 333 20225 59003 60214;
0171832360999992005021418004-12150-045000FM-12+044099999V0209999C000010075019N0040001N1+02461+02431100701ADDAY161061AY261061GF108991061061008001021999MA1999999095811MD1999999+0031MW1161REMSYN082AAXX  14184 83236 21596 80000 10246 20243 39581 40070 71666 8662/ 333 58003 60041;
0202832360999992005021500004-12150-045000FM-12+044099999V0200501N002610075019N0040001N1+02331+02251100791ADDAY161061AY251061GF108991071061008001999999KA1240M+03111MA1999999095901MD1999999-0051MW1101REMSYN100AAXX  15004 83236 21596 80505 10233 20225 39590 40079 71065 876// 333 10311 29096 55/// 59005 60071;
0190832360999992005021512004-12150-045000FM-12+044099999V0200901N001510075019N0040001N1+02541+02271100771ADDAY161061AY261061GF108991061071008001041999KA1240N+02251MA1999999095901MD1999999-0221MW1101REMSYN088AAXX  15124 83236 21596 80903 10254 20227 39590 40077 71066 8674/ 333 20225 59022 60344;
0171832360999992005021518004-12150-045000FM-12+044099999V0200501N003110450019N0200001N1+02891+02351100301ADDAY151061AY251061GF106991041051008001071031MA1999999095471MD1999999-0341MW1151REMSYN082AAXX  15184 83236 21598 60506 10289 20235 39547 40030 71555 84573 333 59034 69961;
0202832360999992005021600004-12150-045000FM-12+044099999V0203601N001510075019N0040001N1+02331+02271100641ADDAY161061AY261061GF108991061061008001999999KA1240M+02971MA1999999095771MD1999999-0131MW1511REMSYN100AAXX  16004 83236 21596 83603 10233 20227 39577 40064 75166 866// 333 10297 29088 55/// 59013 60341;
0190832360999992005021612004-12150-045000FM-12+044099999V0200501N001510075019N0040001N1+02371+02281100861ADDAY161061AY261061GF108991071071008001041999KA1240N+02271MA1999999095961MD1999999+0061MW1101REMSYN088AAXX  16124 83236 21596 80503 10237 20228 39596 40086 71066 8774/ 333 20227 58006 60774;
0195832360999992005021618004-12150-045000FM-12+044099999V0203601N001010075019N0040001N1+02441+02231100581ADDAA106000091AY191061AY291061GF108991061051008001071999MA1999999095701MD1999999+0231MW1171REMSYN076AAXX  16184 83236 31596 83602 10244 20223 39570 40058 71799 8657/ 333 58023;EQDQ01  00002PRCP06
0198832360999992005021700004-12150-045000FM-12+044099999V0200501N003110120019N0040001N1+02331+02201100801ADDAA106000091GF108991061081008001041999KA1240M+02901MA1999999095911MD1999999+0141REMSYN088AAXX  17004 83236 32596 80506 10233 20220 39591 40080 8684/ 333 10290 29092 55/// 58014;EQDQ01  00002PRCP06
0190832360999992005021712004-12150-045000FM-12+044099999V0200501N003110075019N0200001N1+02391+02241101151ADDAY151061AY251061GF108991061071008001041999KA1240N+02231MA1999999096241MD1999999+0281MW1101REMSYN088AAXX  17124 83236 21598 80506 10239 20224 39624 40115 71055 8674/ 333 20223 58028 69934;
0167832360999992005021718004-12150-045000FM-12+044099999V0203601N002110120019N0040001N1+02701+02241100791ADDAA106000091GF108991071081008001041999MA1999999095931MD1999999+0231REMSYN070AAXX  17184 83236 32596 83604 10270 20224 39593 40079 8784/ 333 58023;EQDQ01  00002PRCP06
0198832360999992005021800004-12150-045000FM-12+044099999V0209999C000010450019N0100001N1+02381+02191101061ADDAA106000091GF108991041021008001071051KA1240M+02771MA1999999096161MD1999999+0251REMSYN088AAXX  18004 83236 32597 80000 10238 20219 39616 40106 84275 333 10277 29086 55/// 58025;EQDQ01  00002PRCP06
0186832360999992005021812004-12150-045000FM-12+044099999V0209999C000010075019N0100001N1+02531+02271101281ADDAA106000091GF107991061021008001001071KA1240N+02171MA1999999096381MD1999999+0141REMSYN076AAXX  18124 83236 32597 70000 10253 20227 39638 40128 86207 333 20217 58014;EQDQ01  00002PRCP06
0195832360999992005021818004-12150-045000FM-12+044099999V0200901N003110075019N0100001N1+02951+02331100881ADDAA106000091AY121061AY221061GF108991071051008001041999MA1999999096021MD1999999+0091MW1151REMSYN076AAXX  18184 83236 31597 80906 10295 20233 39602 40088 71522 8754/ 333 58009;EQDQ01  00002PRCP06
0198832360999992005021900004-12150-045000FM-12+044099999V0200901N001010450019N0200001N1+02471+02361101151ADDAA106000091GF106991041021012501061071KA1240M+03111MA1999999096271MD1999999+0111REMSYN088AAXX  19004 83236 32698 60902 10247 20236 39627 40115 84267 333 10311 29086 55/// 58011;EQDQ01  00002PRCP06
0186832360999992005021912004-12150-045000FM-12+044099999V0209999C000012200019N0200001N1+02591+02291101231ADDAA106000091GF102991021021012501001001KA1240N+02231MA1999999096361MD1999999-0021REMSYN076AAXX  19124 83236 32698 20000 10259 20229 39636 40123 82200 333 20223 59002;EQDQ01  00002PRCP06
0167832360999992005021918004-12150-045000FM-12+044099999V0203601N003612200019N0200001N1+03141+02101100731ADDAA106000091GF104991041021008001001001MA1999999095911MD1999999-0111REMSYN070AAXX  19184 83236 32598 43607 10314 20210 39591 40073 84200 333 59011;EQDQ01  00002PRCP06
0226832360999992005022000004-12150-045000FM-12+043999999V0209999C000010450019N0200001N1+02511+02271100971ADDAA106000091AY121061AY221061GF106991041051008001041071KA1240M+03231MA1999999096111MD1999999-0161MW1131REMSYN094AAXX  20004 83236 31598 60000 10251 20227 39611 40097 71322 84547 333 10323 29078 55/// 59016;EQDQ01  00002PRCP06
0186832360999992005022012004-12150-045000FM-12+043999999V0202301N001012200019N0200001N1+02551+02251101131ADDAA106000091GF104991021021008001001051KA1240N+02191MA1999999096261MD1999999-0101REMSYN076AAXX  20124 83236 32598 42302 10255 20225 39626 40113 82205 333 20219 59010;EQDQ01  00002PRCP06
0167832360999992005022018004-12150-045000FM-12+043999999V0203601N001510450019N0200001N1+03221+02241100551ADDAA106000091GF106991041021008001081071MA1999999095741MD1999999-0171REMSYN070AAXX  20184 83236 32598 63603 10322 20224 39574 40055 84287 333 59017;EQDQ01  00002PRCP06
0202832360999992005022100004-12150-045000FM-12+044099999V0209999C000011050019N0200001N1+02411+02301100841ADDAY151061AY251061GF105991031021008001001051KA1240M+03271MA1999999095971MD1999999-0141MW1021REMSYN100AAXX  21004 83236 21598 50000 10241 20230 39597 40084 70255 83205 333 10327 29082 55/// 59014 69921;
0190832360999992005022112004-12150-045000FM-12+044099999V0209999C000010450019N0200001N1+02471+02321100911ADDAY151061AY251061GF106991041021008001051071KA1240N+02291MA1999999096031MD1999999-0231MW1021REMSYN088AAXX  21124 83236 21598 60000 10247 20232 39603 40091 70255 84257 333 20229 59023 69974;
0167832360999992005022118004-12150-045000FM-12+044099999V0200501N002610450019N0200001N1+03211+02381100331ADDAA106000091GF106991031021008001081051MA1999999095541MD1999999-0201REMSYN070AAXX  21184 83236 32598 60505 10321 20238 39554 40033 83285 333 59020;EQDQ01  00002PRCP06
0202832360999992005022200004-12150-045000FM-12+044099999V0209999C000010450019N0200001N1+02341+02221100681ADDAY161061AY291061GF106991031051008001071051KA1240M+03271MA1999999095801MD1999999-0171MW1131REMSYN100AAXX  22004 83236 21598 60000 10234 20222 39580 40068 71369 83575 333 10327 29085 55/// 59017 60031;
0190832360999992005022212004-12150-045000FM-12+044099999V0200901N001510075019N0200001N1+02561+02331100971ADDAY161061AY251061GF108991071021008001081999KA1240N+02311MA1999999096091MD1999999+0061MW1031REMSYN088AAXX  22124 83236 21598 80903 10256 20233 39609 40097 70365 8728/ 333 20231 58006 60054;
0167832360999992005022218004-12150-045000FM-12+044099999V0203601N003610075019N0100001N1+02821+02291100711ADDAA106000091GF108991061041008001071999MA1999999095861MD1999999+0321REMSYN070AAXX  22184 83236 32597 83607 10282 20229 39586 40071 8647/ 333 58032;EQDQ01  00002PRCP06
0198832360999992005022300004-12150-045000FM-12+044099999V0203601N003110075019N0040001N1+02281+02141101091ADDAA106000091GF108991061031008001071999KA1240M+03001MA1999999096191MD1999999+0391REMSYN088AAXX  23004 83236 32596 83606 10228 20214 39619 40109 8637/ 333 10300 29087 55/// 58039;EQDQ01  00002PRCP06
0186832360999992005022312004-12150-045000FM-12+044099999V0209999C000010450019N0200001N1+02441+02151101251ADDAA106000091GF106991041021008001021061KA1240N+02231MA1999999096341MD1999999+0251REMSYN076AAXX  23124 83236 32598 60000 10244 20215 39634 40125 84226 333 20223 58025;EQDQ01  00002PRCP06
0167832360999992005022318004-12150-045000FM-12+044099999V0203601N003111050019N0200001N1+03031+02131100851ADDAA106000091GF105991031021008001001051MA1999999096011MD1999999+0151REMSYN070AAXX  23184 83236 32598 53606 10303 20213 39601 40085 83205 333 58015;EQDQ01  00002PRCP06
0226832360999992005022400004-12150-045000FM-12+044099999V0209999C000010450019N0200001N1+02491+02321101161ADDAA106000091AY121061AY221061GF105991031051008001071031KA1240M+03111MA1999999096271MD1999999+0081MW1131REMSYN094AAXX  24004 83236 31598 50000 10249 20232 39627 40116 71322 83573 333 10311 29081 55/// 58008;EQDQ01  00002PRCP06
0186832360999992005022412004-12150-045000FM-12+044099999V0202301N001010450019N0200001N1+02621+02291101341ADDAA106000091GF106991041021012501051071KA1240N+02231MA1999999096461MD1999999+0121REMSYN076AAXX  24124 83236 32698 62302 10262 20229 39646 40134 84257 333 20223 58012;EQDQ01  00002PRCP06
0167832360999992005022418004-12150-045000FM-12+044099999V0201801N002110450019N0200001N1+02551+02311100911ADDAA106000091GF107991041031012501071051MA1999999096031MD1999999+0021REMSYN070AAXX  24184 83236 32698 71804 10255 20231 39603 40091 84375 333 58002;EQDQ01  00002PRCP06
0226832360999992005022500004-12150-045000FM-12+044099999V0209999C000010075019N0100001N1+02501+02341101141ADDAA106000091AY121061AY221061GF108991061051008001041999KA1240M+03141MA1999999096271MD1999999+0001MW1131REMSYN094AAXX  25004 83236 31597 80000 10250 20234 39627 40114 71322 8654/ 333 10314 29088 55/// 58000;EQDQ01  00002PRCP06
0186832360999992005022512004-12150-045000FM-12+044099999V0209999C000012200019N0200001N1+02541+02241101281ADDAA106000091GF103991031021008001001001KA1240N+02251MA1999999096391MD1999999-0071REMSYN076AAXX  25124 83236 32598 30000 10254 20224 39639 40128 83200 333 20225 59007;EQDQ01  00002PRCP06
0167832360999992005022518004-12150-045000FM-12+044099999V0203601N003612200019N0200001N1+03201+02121100771ADDAA106000091GF104991031021008001001041MA1999999095951MD1999999-0081REMSYN070AAXX  25184 83236 32598 43607 10320 20212 39595 40077 83204 333 59008;EQDQ01  00002PRCP06
0198832360999992005022600004-12150-045000FM-12+044099999V0201401N001512200019N0100001N1+02531+02251100871ADDAA106000091GF104991021001022501061081KA1240M+03221MA1999999096031MD1999999-0241REMSYN088AAXX  26004 83236 32897 41403 10253 20225 39603 40087 82068 333 10322 29074 55/// 59024;EQDQ01  00002PRCP06
0186832360999992005022612004-12150-045000FM-12+044099999V0201801N001512200019N0200001N1+02721+02241101111ADDAA106000091GF104991031021008001041001KA1240N+02191MA1999999096251MD1999999-0141REMSYN076AAXX  26124 83236 32598 41803 10272 20224 39625 40111 83240 333 20219 59014;EQDQ01  00002PRCP06
0167832360999992005022618004-12150-045000FM-12+044099999V0200501N004112200019N0200001N1+03271+02211100661ADDAA106000091GF104991031021008001001041MA1999999095851MD1999999-0101REMSYN070AAXX  26184 83236 32598 40508 10327 20221 39585 40066 83204 333 59010;EQDQ01  00002PRCP06
0186832360999992005022712004-12150-045000FM-12+043999999V0209999C000012200019N0200001N1+02701+02301101051ADDAA106000091GF103991001001999999001041KA1240N+02191MA1999999096201MD1999999-0051REMSYN076AAXX  27124 83236 32998 30000 10270 20230 39620 40105 80004 333 20219 59005;EQDQ01  00002PRCP06
0167832360999992005022718004-12150-045000FM-12+043999999V0200501N003112200019N0200001N1+03321+02171100611ADDAA106000091GF104991021021008001001041MA1999999095821MD1999999-0031REMSYN070AAXX  27184 83236 32598 40506 10332 20217 39582 40061 82204 333 59003;EQDQ01  00002PRCP06
0226832360999992005022800004-12150-045000FM-12+044099999V0209999C000012200019N0200001N1+02651+02241100971ADDAA106000091AY101061AY221061GF103991031031008001001001KA1240M+03391MA1999999096141MD1999999+0181MW1131REMSYN094AAXX  28004 83236 31598 30000 10265 20224 39614 40097 71302 83300 333 10339 29072 55/// 58018;EQDQ01  00002PRCP06
0186832360999992005022812004-12150-045000FM-12+044099999V0202701N001010450019N0200001N1+02581+02251101221ADDAA106000091GF107991031041008001021001KA1240N+02041MA1999999096351MD1999999+0151REMSYN076AAXX  28124 83236 32598 72702 10258 20225 39635 40122 83420 333 20204 58015;EQDQ01  00002PRCP06
0167832360999992005022818004-12150-045000FM-12+044099999V0202701N001512200019N0200001N1+02951+02291100751ADDAA106000091GF106991041021008001001041MA1999999095931MD1999999+0111REMSYN070AAXX  28184 83236 32598 62703 10295 20229 39593 40075 84204 333 58011;EQDQ01  00002PRCP06
0226832360999992005030100004-12150-045000FM-12+044099999V0201801N001510450019N0200001N1+02461+02231101011ADDAA106000091AY101061AY291061GF105991031071008001041001KA1240M+03341MA1999999096141MD1999999+0001MW1131REMSYN094AAXX  01004 83236 31598 51803 10246 20223 39614 40101 71309 83740 333 10334 29081 55/// 58000;EQDQ01  00002PRCP06
0186832360999992005030112004-12150-045000FM-12+044099999V0200501N001511050019N0200001N1+02681+02241101191ADDAA106000091GF106991021021008001061041KA1240N+02251MA1999999096321MD1999999-0031REMSYN076AAXX  01124 83236 32598 60503 10268 20224 39632 40119 82264 333 20225 59003;EQDQ01  00002PRCP06
0167832360999992005030118004-12150-045000FM-12+044099999V0202701N001511050019N0200001N1+03041+02311100721ADDAA106000091GF107991031021008001001061MA1999999095891MD1999999-0041REMSYN070AAXX  01184 83236 32598 72703 10304 20231 39589 40072 83206 333 59004;EQDQ01  00002PRCP06
0198832360999992005030200004-12150-045000FM-12+044099999V0201801N001012200019N0200001N1+02531+02331100881ADDAA106000091GF104991021021008001001041KA1240M+03251MA1999999096031MD1999999-0111REMSYN088AAXX  02004 83236 32598 41802 10253 20233 39603 40088 82204 333 10325 29080 55/// 59011;EQDQ01  00002PRCP06
0190832360999992005030212004-12150-045000FM-12+044099999V0209999C000012200019N0200001N1+02581+02311101111ADDAY151061AY251061GF106991041021008001001041KA1240N+02251MA1999999096241MD1999999-0081MW1021REMSYN088AAXX  02124 83236 21598 60000 10258 20231 39624 40111 70255 84204 333 20225 59008 69944;
0167832360999992005030218004-12150-045000FM-12+044099999V0203601N002111050019N0200001N1+03261+02151100611ADDAA106000091GF106991031021008001001031MA1999999095821MD1999999-0071REMSYN070AAXX  02184 83236 32598 63604 10326 20215 39582 40061 83203 333 59007;EQDQ01  00002PRCP06
0226832360999992005030300004-12150-045000FM-12+044099999V0201801N001510450019N0200001N1+02661+02351100951ADDAA106000091AY101061AY221061GF106991031071008001021001KA1240M+03371MA1999999096101MD1999999+0071MW1131REMSYN094AAXX  03004 83236 31598 61803 10266 20235 39610 40095 71302 83720 333 10337 29076 55/// 58007;EQDQ01  00002PRCP06
0190832360999992005030312004-12150-045000FM-12+044099999V0202701N001010450019N0100001N1+02471+02321101171ADDAY191061AY261061GF107991041021008001061041KA1240N+02251MA1999999096301MD1999999+0061MW1021REMSYN088AAXX  03124 83236 21597 72702 10247 20232 39630 40117 70296 84264 333 20225 58006 60054;
0198832360999992005030400004-12150-045000FM-12+044099999V0202701N000510450019N0100001N1+02621+02211101101ADDAA106000091GF108991041021008001021999KA1240M+03211MA1999999096231MD1999999+0131REMSYN088AAXX  04004 83236 32597 82701 10262 20221 39623 40110 8422/ 333 10321 29078 55/// 58013;EQDQ01  00002PRCP06
0186832360999992005030412004-12150-045000FM-12+044099999V0209999C000019999999N0200001N1+02641+02161101211ADDAA106000091GF106991051001008001071041KA1240N+02141MA1999999096351MD1999999+0051REMSYN076AAXX  04124 83236 32598 60000 10264 20216 39635 40121 85074 333 20214 58005;EQDQ01  00002PRCP06
0167832360999992005030418004-12150-045000FM-12+044099999V0203601N003611050019N0200001N1+03041+02181100841ADDAA106000091GF106991021021008001061061MA1999999096001MD1999999+0101REMSYN070AAXX  04184 83236 32598 63607 10304 20218 39600 40084 82266 333 58010;EQDQ01  00002PRCP06
0226832360999992005030500004-12150-045000FM-12+044099999V0209999C000010450019N0200001N1+02611+02331101081ADDAA106000091AY101061AY221061GF106991031071008001021001KA1240M+03111MA1999999096221MD1999999-0011MW1131REMSYN094AAXX  05004 83236 31598 60000 10261 20233 39622 40108 71302 83720 333 10311 29076 55/// 59001;EQDQ01  00002PRCP06
0186832360999992005030512004-12150-045000FM-12+044099999V0201801N001010075019N0100001N1+02601+02291101391ADDAA106000091GF108991051051008001021999KA1240N+02391MA1999999096521MD1999999+0171REMSYN076AAXX  05124 83236 32597 81802 10260 20229 39652 40139 8552/ 333 20239 58017;EQDQ01  00002PRCP06
0171832360999992005030518004-12150-045000FM-12+044099999V0203601N003610450019N0100001N1+02611+02391101121ADDAY161061AY261061GF108991031071008001021999MA1999999096261MD1999999+0261MW1951REMSYN082AAXX  05184 83236 21597 83607 10261 20239 39626 40112 79566 8372/ 333 58026 60041;
0202832360999992005030600004-12150-045000FM-12+043999999V0209999C000010450019N0100001N1+02351+02311101271ADDAY161061AY261061GF108991031071008001021999KA1240M+02791MA1999999096361MD1999999+0141MW1021REMSYN100AAXX  06004 83236 21597 80000 10235 20231 39636 40127 70266 8372/ 333 10279 29091 55/// 58014 60131;
0162832360999992005030612004-12150-045000FM-12+043999999V0209999C000010075019N0020001N1+02521+02341101271ADDGF108991051051008001021999KA1240N+02251MA1999999096371MD1999999-0151REMSYN082AAXX  06124 83236 22595 80000 10252 20234 39637 40127 8552/ 333 20225 59015 60174;
0167832360999992005030618004-12150-045000FM-12+043999999V0203601N002612200019N0100001N1+03071+02211100691ADDAA106000091GF105991031021008001001041MA1999999095871MD1999999-0391REMSYN070AAXX  06184 83236 32597 53605 10307 20221 39587 40069 83204 333 59039;EQDQ01  00002PRCP06
0178832360999992005030700004-12150-045000FM-12+044099999V0209999C000010075019N0100001N1+02511+02341100981ADDAA106000091GF108991051051008001021999KA1240M+03171MA1999999096111REMSYN082AAXX  07004 83236 32597 80000 10251 20234 39611 40098 8552/ 333 10317 29082 55///;EQDQ01  00002PRCP06
0190832360999992005030712004-12150-045000FM-12+044099999V0202701N000510075019N0040001N1+02231+02191101251ADDAY161061AY261061GF108991081001008001021999KA1240N+02201MA1999999096361MD1999999-0031MW1511REMSYN088AAXX  07124 83236 21596 82701 10223 20219 39636 40125 75166 8802/ 333 20220 59003 60354;
0171832360999992005030718004-12150-045000FM-12+044099999V0201801N001010450019N0040001N1+02431+02321100991ADDAY151061AY251061GF108991031051008001021999MA1999999096101MD1999999+0231MW1511REMSYN082AAXX  07184 83236 21596 81802 10243 20232 39610 40099 75155 8352/ 333 58023 60031;
0202832360999992005030800004-12150-045000FM-12+044099999V0201801N000510210019N0020001N1+02371+02221101291ADDAY151061AY251061GF108991081001022501021999KA1240M+02561MA1999999096361MD1999999+0251MW1501REMSYN100AAXX  08004 83236 21895 81801 10237 20222 39636 40129 75055 8802/ 333 10256 29095 55/// 58025 60041;
0190832360999992005030812004-12150-045000FM-12+044099999V0200501N001510450019N0100001N1+02351+02221101321ADDAY151061AY251061GF108991041021008001021999KA1240N+02161MA1999999096401MD1999999+0061MW1021REMSYN088AAXX  08124 83236 21597 80503 10235 20222 39640 40132 70255 8422/ 333 20216 58006 60094;
0167832360999992005030818004-12150-045000FM-12+044099999V0201801N001510450019N0100001N1+02731+02341100861ADDAA106000091GF106991031021008001041041MA1999999095991MD1999999-0111REMSYN070AAXX  08184 83236 32597 61803 10273 20234 39599 40086 83244 333 59011;EQDQ01  00002PRCP06
0198832360999992005030900004-12150-045000FM-12+044099999V0209999C000010450019N0100001N1+02511+02341101091ADDAA106000091GF108991041051008001021999KA1240M+02891MA1999999096021MD1999999-0161REMSYN088AAXX  09004 83236 32597 80000 10251 20234 39602 40109 8452/ 333 10289 29088 55/// 59016;EQDQ01  00002PRCP06
0190832360999992005030912004-12150-045000FM-12+044099999V0209999C000010450019N0100001N1+02551+02191101101ADDAY151061AY251061GF105991021021008001061001KA1240N+02231MA1999999096231MD1999999-0171MW1021REMSYN088AAXX  09124 83236 21597 50000 10255 20219 39623 40110 70255 82260 333 20223 59017 69924;
0195832360999992005030918004-12150-045000FM-12+044099999V0200501N007211050019N0100001N1+03011+02181100641ADDAA106000091AY101061AY221061GF106991041031008001001031MA1999999095811MD1999999-0181MW1151REMSYN076AAXX  09184 83236 31597 60514 10301 20218 39581 40064 71502 84303 333 59018;EQDQ01  00002PRCP06
0198832360999992005031000004-12150-045000FM-12+044099999V0209999C000012200019N0100001N1+02451+02301100951ADDAA106000091GF104991021021008001041001KA1240M+03101MA1999999096081MD1999999-0121REMSYN088AAXX  10004 83236 32597 40000 10245 20230 39608 40095 82240 333 10310 29081 55/// 59012;EQDQ01  00002PRCP06
0186832360999992005031012004-12150-045000FM-12+044099999V0209999C000010450019N0100001N1+02441+02271101231ADDAA106000091GF108991021021008001071999KA1240N+02271MA1999999096341MD1999999+0111REMSYN076AAXX  10124 83236 32597 80000 10244 20227 39634 40123 8227/ 333 20227 58011;EQDQ01  00002PRCP06
0167832360999992005031018004-12150-045000FM-12+044099999V0203601N002610450019N0100001N1+02811+02081100811ADDAA106000091GF107991021021008001061051MA1999999095961MD1999999+0151REMSYN070AAXX  10184 83236 32597 73605 10281 20208 39596 40081 82265 333 58015;EQDQ01  00002PRCP06
0198832360999992005031100004-12150-045000FM-12+044099999V0200901N002112200019N0100001N1+02441+02191101161ADDAA106000091GF104991021021008001001051KA1240M+03021MA1999999096271MD1999999+0191REMSYN088AAXX  11004 83236 32597 40904 10244 20219 39627 40116 82205 333 10302 29082 55/// 58019;EQDQ01  00002PRCP06
0186832360999992005031112004-12150-045000FM-12+044099999V0201801N000510450019N0100001N1+02501+02211101291ADDAA106000091GF105991021021008001081001KA1240N+02121MA1999999096391MD1999999+0051REMSYN076AAXX  11124 83236 32597 51801 10250 20221 39639 40129 82280 333 20212 58005;EQDQ01  00002PRCP06
0167832360999992005031118004-12150-045000FM-12+044099999V0203601N002112200019N0100001N1+03211+02091100771ADDAA106000091GF104991031021008001001021MA1999999095951MD1999999-0011REMSYN070AAXX  11184 83236 32597 43604 10321 20209 39595 40077 83202 333 59001;EQDQ01  00002PRCP06
0198832360999992005031200004-12150-045000FM-12+044099999V0209999C000012200019N0100001N1+02531+02381101061ADDAA106000091GF103991021021008001001041KA1240M+03301MA1999999096181MD1999999-0091REMSYN088AAXX  12004 83236 32597 30000 10253 20238 39618 40106 82204 333 10330 29080 55/// 59009;EQDQ01  00002PRCP06
0186832360999992005031212004-12150-045000FM-12+044099999V0209999C000010450019N0200001N1+02691+02311101141ADDAA106000091GF105991031021012501051071KA1240N+02251MA1999999096281MD1999999-0111REMSYN076AAXX  12124 83236 32698 50000 10269 20231 39628 40114 83257 333 20225 59011;EQDQ01  00002PRCP06
0195832360999992005031218004-12150-045000FM-12+044099999V0203601N001510075019N0200001N1+03131+02281100571ADDAA106000091AY121061AY221061GF108991061051008001071999MA1999999095751MD1999999-0201MW1151REMSYN076AAXX  12184 83236 31598 83603 10313 20228 39575 40057 71522 8657/ 333 59020;EQDQ01  00002PRCP06
0226832360999992005031300004-12150-045000FM-12+043999999V0209999C000010450019N0200001N1+02461+02321100921ADDAA106000091AY121061AY221061GF106991041051008001041071KA1240M+03231MA1999999096061MD1999999-0121MW1131REMSYN094AAXX  13004 83236 31598 60000 10246 20232 39606 40092 71322 84547 333 10323 29081 55/// 59012;EQDQ01  00002PRCP06
0190832360999992005031312004-12150-045000FM-12+043999999V0209999C000010075019N0100001N1+02321+02201101171ADDAY151061AY251061GF108991071061008001041999KA1240N+02231MA1999999096271MD1999999-0011MW1151REMSYN088AAXX  13124 83236 21597 80000 10232 20220 39627 40117 71555 8764/ 333 20223 59001 60064;
0167832360999992005031318004-12150-045000FM-12+043999999V0209999C000010075019N0100001N1+02731+02321100661ADDAA106000091GF108991071041008001071999MA1999999095801MD1999999+0051REMSYN070AAXX  13184 83236 32597 80000 10273 20232 39580 40066 8747/ 333 58005;EQDQ01  00002PRCP06
0202832360999992005031400004-12150-045000FM-12+043999999V0209999C000010075019N0100001N1+02251+02141101001ADDAY161061AY251061GF108991071071008001041999KA1240M+03011MA1999999096091MD1999999+0031MW1031REMSYN100AAXX  14004 83236 21597 80000 10225 20214 39609 40100 70365 8774/ 333 10301 29090 55/// 58003 60061;
0190832360999992005031412004-12150-045000FM-12+043999999V0203601N001510120019N0100001N1+02411+02231101151ADDAY121061AY221061GF108991061081008001041999KA1240N+02191MA1999999096241MD1999999-0031MW1101REMSYN088AAXX  14124 83236 21597 83603 10241 20223 39624 40115 71022 8684/ 333 20219 59003 60064;
0195832360999992005031418004-12150-045000FM-12+044099999V0200501N003110450019N0200001N1+02861+02281100601ADDAA106000091AY121061AY221061GF107991041051008001071041MA1999999095751MD1999999-0051MW1151REMSYN076AAXX  14184 83236 31598 70506 10286 20228 39575 40060 71522 84574 333 59005;EQDQ01  00002PRCP06
0202832360999992005031500004-12150-045000FM-12+044099999V0201801N001010075019N0100001N1+02251+02101100991ADDAY151061AY251061GF108991061071008001041999KA1240M+02971MA1999999096031MD1999999-0061MW1031REMSYN100AAXX  15004 83236 21597 81802 10225 20210 39603 40099 70355 8674/ 333 10297 29086 55/// 59006 69951;
0162832360999992005031512004-12150-045000FM-12+044099999V0209999C000010450019N0200001N1+02411+02191101071ADDGF105991031021008001061051KA1240N+02131MA1999999096151MD1999999-0091REMSYN082AAXX  15124 83236 22598 50000 10241 20219 39615 40107 83265 333 20213 59009 69954;
0167832360999992005031518004-12150-045000FM-12+044099999V0200501N002610450019N0200001N1+03031+02291100571ADDAA106000091GF106991041021008001041071MA1999999095741MD1999999-0011REMSYN070AAXX  15184 83236 32598 60505 10303 20229 39574 40057 84247 333 59001;EQDQ01  00002PRCP06
0226832360999992005031600004-12150-045000FM-12+044099999V0201401N001010075019N0100001N1+02571+02311100951ADDAA106000091AY121061AY221061GF108991051051008001071999KA1240M+03101MA1999999096081MD1999999+0051MW1131REMSYN094AAXX  16004 83236 31597 81402 10257 20231 39608 40095 71322 8557/ 333 10310 29081 55/// 58005;EQDQ01  00002PRCP06
0190832360999992005031612004-12150-045000FM-12+044099999V0202701N001010450019N0200001N1+02541+02291101211ADDAY161061AY251061GF106991041021008001071051KA1240N+02251MA1999999096341MD1999999+0191MW1031REMSYN088AAXX  16124 83236 21598 62702 10254 20229 39634 40121 70365 84275 333 20225 58019 60034;
0167832360999992005031618004-12150-045000FM-12+044099999V0200901N001510450019N0200001N1+03051+02231100761ADDAA106000091GF106991031021008001081051MA1999999095921MD1999999+0181REMSYN070AAXX  16184 83236 32598 60903 10305 20223 39592 40076 83285 333 58018;EQDQ01  00002PRCP06
0226832360999992005031700004-12150-045000FM-12+044099999V0209999C000010450019N0200001N1+02461+02321101141ADDAA106000091AY121061AY221061GF106991041051008001071041KA1240M+03161MA1999999096261MD1999999+0181MW1131REMSYN094AAXX  17004 83236 31598 60000 10246 20232 39626 40114 71322 84574 333 10316 29083 55/// 58018;EQDQ01  00002PRCP06
0186832360999992005031712004-12150-045000FM-12+044099999V0209999C000010450019N0200001N1+02651+02251101141ADDAA106000091GF105991031021008001051031KA1240N+02201MA1999999096271MD1999999-0071REMSYN076AAXX  17124 83236 32598 50000 10265 20225 39627 40114 83253 333 20220 59007;EQDQ01  00002PRCP06
0195832360999992005031718004-12150-045000FM-12+044099999V0201801N001510450019N0200001N1+02941+02211100701ADDAA106000091AY121061AY221061GF106991041051008001041071MA1999999095861MD1999999-0061MW1151REMSYN076AAXX  17184 83236 31598 61803 10294 20221 39586 40070 71522 84547 333 59006;EQDQ01  00002PRCP06
0202832360999992005031800004-12150-045000FM-12+044099999V0209999C000012200019N0200001N1+02391+02291100931ADDAY161061AY251061GF103991021051008001001071KA1240M+03191MA1999999096061MD1999999-0201MW1131REMSYN100AAXX  18004 83236 21598 30000 10239 20229 39606 40093 71365 82507 333 10319 29084 55/// 59020 60071;
0162832360999992005031812004-12150-045000FM-12+044099999V0209999C000010450019N0200001N1+02541+02211101201ADDGF106991031021008001071051KA1240N+02091MA1999999096311MD1999999+0041REMSYN082AAXX  18124 83236 22598 60000 10254 20221 39631 40120 83275 333 20209 58004 60074;
0167832360999992005031818004-12150-045000FM-12+044099999V0200901N001510450019N0200001N1+03141+02241100711ADDAA106000091GF106991041041008001071051MA1999999095871MD1999999+0011REMSYN070AAXX  18184 83236 32598 60903 10314 20224 39587 40071 84475 333 58001;EQDQ01  00002PRCP06
0198832360999992005031900004-12150-045000FM-12+044099999V0209999C000012200019N0200001N1+02381+02131101001ADDAA106000091GF104991021021012501061051KA1240M+03211MA1999999096121MD1999999+0061REMSYN088AAXX  19004 83236 32698 40000 10238 20213 39612 40100 82265 333 10321 29078 55/// 58006;EQDQ01  00002PRCP06
0186832360999992005031912004-12150-045000FM-12+044099999V0202701N001012200019N0200001N1+02671+02291101191ADDAA106000091GF104991031021012501001051KA1240N+02131MA1999999096311MD1999999+0001REMSYN076AAXX  19124 83236 32698 42702 10267 20229 39631 40119 83205 333 20213 58000;EQDQ01  00002PRCP06
0167832360999992005031918004-12150-045000FM-12+044099999V0203201N001510450019N0200001N1+03091+02211100731ADDAA106000091GF106991041041008001071051MA1999999095901MD1999999+0031REMSYN070AAXX  19184 83236 32598 63203 10309 20221 39590 40073 84475 333 58003;EQDQ01  00002PRCP06
0198832360999992005032000004-12150-045000FM-12+043999999V0209999C000011050019N0200001N1+02461+02251101061ADDAA106000091GF106991031001022501061051KA1240M+03261MA1999999096191MD1999999+0071REMSYN088AAXX  20004 83236 32898 60000 10246 20225 39619 40106 83065 333 10326 29079 55/// 58007;EQDQ01  00002PRCP06
0186832360999992005032012004-12150-045000FM-12+043999999V0200501N001510450019N0200001N1+02651+02271101281ADDAA106000091GF106991041021008001051071KA1240N+02171MA1999999096401MD1999999+0091REMSYN076AAXX  20124 83236 32598 60503 10265 20227 39640 40128 84257 333 20217 58009;EQDQ01  00002PRCP06
0167832360999992005032018004-12150-045000FM-12+043999999V0203601N003111050019N0200001N1+03071+02051100761ADDAA106000091GF105991031021008001001051MA1999999095931MD1999999+0031REMSYN070AAXX  20184 83236 32598 53606 10307 20205 39593 40076 83205 333 58003;EQDQ01  00002PRCP06
0198832360999992005032100004-12150-045000FM-12+044099999V0209999C000010450019N0200001N1+02451+02251101081ADDAA106000091GF106991041021008001071051KA1240M+03131MA1999999096211MD1999999+0021REMSYN088AAXX  21004 83236 32598 60000 10245 20225 39621 40108 84275 333 10313 29078 55/// 58002;EQDQ01  00002PRCP06
0186832360999992005032112004-12150-045000FM-12+044099999V0202301N001010075019N0100001N1+02591+02251101231ADDAA106000091GF108991071021008001071999KA1240N+02131MA1999999096351MD1999999-0051REMSYN076AAXX  21124 83236 32597 82302 10259 20225 39635 40123 8727/ 333 20213 59005;EQDQ01  00002PRCP06
0171832360999992005032118004-12150-045000FM-12+044099999V0209999C000010450019N0200001N1+02871+02371100881ADDAY151061AY251061GF106991041051008001081051MA1999999096001MD1999999+0071MW1151REMSYN082AAXX  21184 83236 21598 60000 10287 20237 39600 40088 71555 84585 333 58007 69921;
0198832360999992005032200004-12150-045000FM-12+044099999V0209999C000010450019N0200001N1+02271+02141101111ADDAA106000091GF106991031021008001061071KA1240M+02951MA1999999096221MD1999999+0011REMSYN088AAXX  22004 83236 32598 60000 10227 20214 39622 40111 83267 333 10295 29086 55/// 58001;EQDQ01  00002PRCP06
0190832360999992005032212004-12150-045000FM-12+044099999V0209999C000010450019N0200001N1+02341+02221101401ADDAY151061AY251061GF107991041051008001071051KA1240N+02131MA1999999096481MD1999999+0131MW1151REMSYN088AAXX  22124 83236 21598 70000 10234 20222 39648 40140 71555 84575 333 20213 58013 69944;
0167832360999992005032218004-12150-045000FM-12+044099999V0200501N001511050019N0200001N1+03081+02211100871ADDAA106000091GF105991031021008001001051MA1999999096021MD1999999+0021REMSYN070AAXX  22184 83236 32598 50503 10308 20221 39602 40087 83205 333 58002;EQDQ01  00002PRCP06
0226832360999992005032300004-12150-045000FM-12+044099999V0209999C000012200019N0200001N1+02411+02231101211ADDAA106000091AY121061AY221061GF102991021051008001001001KA1240M+03151MA1999999096301MD1999999+0081MW1131REMSYN094AAXX  23004 83236 31598 20000 10241 20223 39630 40121 71322 82500 333 10315 29083 55/// 58008;EQDQ01  00002PRCP06
0186832360999992005032312004-12150-045000FM-12+044099999V0209999C000012200019N0200001N1+02641+02251101381ADDAA106000091GF103991021021012501001031KA1240N+02111MA1999999096491MD1999999+0011REMSYN076AAXX  23124 83236 32698 30000 10264 20225 39649 40138 82203 333 20211 58001;EQDQ01  00002PRCP06
0195832360999992005032318004-12150-045000FM-12+044099999V0209999C000011050019N0200001N1+03161+02201100901ADDAA106000091AY121061AY221061GF105991031051008001001051MA1999999096061MD1999999+0041MW1151REMSYN076AAXX  23184 83236 31598 50000 10316 20220 39606 40090 71522 83505 333 58004;EQDQ01  00002PRCP06
0202832360999992005032400004-12150-045000FM-12+044099999V0209999C000012200019N0200001N1+02361+02281101171ADDAY151061AY251061GF102991021051012501001001KA1240M+03301MA1999999096291MD1999999+0011MW1131REMSYN100AAXX  24004 83236 21698 20000 10236 20228 39629 40117 71355 82500 333 10330 29082 55/// 58001 69911;
0190832360999992005032412004-12150-045000FM-12+044099999V0209999C000012200019N0200001N1+02561+02311101391ADDAY151061AY251061GF102991021021012501001001KA1240N+02141MA1999999096491MD1999999+0001MW1021REMSYN088AAXX  24124 83236 21698 20000 10256 20231 39649 40139 70255 82200 333 20214 58000 69934;
0167832360999992005032418004-12150-045000FM-12+044099999V0200501N001511050019N0200001N1+03241+02131100851ADDAA106000091GF105991041021008001001051MA1999999096021MD1999999-0041REMSYN070AAXX  24184 83236 32598 50503 10324 20213 39602 40085 84205 333 59004;EQDQ01  00002PRCP06
0202832360999992005032500004-12150-045000FM-12+044099999V0209999C000012200019N0200001N1+02331+02131101121ADDAY151061AY251061GF102991021001022501061001KA1240M+03301MA1999999096231MD1999999-0061MW1021REMSYN100AAXX  25004 83236 21898 20000 10233 20213 39623 40112 70255 82060 333 10330 29079 55/// 59006 69921;
0162832360999992005032512004-12150-045000FM-12+044099999V0200501N001511050019N0200001N1+02621+02251101331ADDGF105991041021012501001051KA1240N+02081MA1999999096431MD1999999-0061REMSYN082AAXX  25124 83236 22698 50503 10262 20225 39643 40133 84205 333 20208 59006 69924;
0167832360999992005032518004-12150-045000FM-12+044099999V0200501N003610450019N0200001N1+03151+02161100751ADDAA106000091GF105991031021008001071031MA1999999095911MD1999999-0111REMSYN070AAXX  25184 83236 32598 50507 10315 20216 39591 40075 83273 333 59011;EQDQ01  00002PRCP06
0198832360999992005032600004-12150-045000FM-12+044099999V0202301N001012200019N0200001N1+02411+02231100941ADDAA106000091GF104991041001022501061001KA1240M+03201MA1999999096071MD1999999-0161REMSYN088AAXX  26004 83236 32898 42302 10241 20223 39607 40094 84060 333 10320 29079 55/// 59016;EQDQ01  00002PRCP06
0186832360999992005032612004-12150-045000FM-12+044099999V0209999C000010450019N0200001N1+02581+02231101131ADDAA106000091GF105991031021008001051071KA1240N+02091MA1999999096251MD1999999-0181REMSYN076AAXX  26124 83236 32598 50000 10258 20223 39625 40113 83257 333 20209 59018;EQDQ01  00002PRCP06
0167832360999992005032618004-12150-045000FM-12+044099999V0200501N002110120019N0200001N1+03261+02151100581ADDAA106000091GF106991051021012501071051MA1999999095761MD1999999-0151REMSYN070AAXX  26184 83236 32698 60504 10326 20215 39576 40058 85275 333 59015;EQDQ01  00002PRCP06
0202832360999992005032700004-12150-045000FM-12+043999999V0201801N001010075019N0200001N1+02401+02261100921ADDAY151061AY251061GF107991051021008001071051KA1240M+03291MA1999999096051MD1999999-0021MW1021REMSYN100AAXX  27004 83236 21598 71802 10240 20226 39605 40092 70255 85275 333 10329 29079 55/// 59002 69921;
0190832360999992005032712004-12150-045000FM-12+043999999V0209999C000011050019N0200001N1+02541+02191101131ADDAY151061AY251061GF105991021011008001061041KA1240N+02091MA1999999096241MD1999999-0011MW1021REMSYN088AAXX  27124 83236 21598 50000 10254 20219 39624 40113 70255 82164 333 20209 59001 69944;
0167832360999992005032718004-12150-045000FM-12+043999999V0203601N001011050019N0200001N1+03261+02051100581ADDAA106000091GF105991031031008001001031MA1999999095761MD1999999+0001REMSYN070AAXX  27184 83236 32598 53602 10326 20205 39576 40058 83303 333 58000;EQDQ01  00002PRCP06
0198832360999992005032800004-12150-045000FM-12+043999999V0209999C000010450019N0100001N1+02451+02211101041ADDAA106000091GF108991041071008001021999KA1240M+03351MA1999999096161MD1999999+0111REMSYN088AAXX  28004 83236 32597 80000 10245 20221 39616 40104 8472/ 333 10335 29076 55/// 58011;EQDQ01  00002PRCP06
0186832360999992005032812004-12150-045000FM-12+043999999V0209999C000012200019N0200001N1+02601+02171101121ADDAA106000091GF104991021021008001061001KA1240N+02121MA1999999096241MD1999999+0001REMSYN076AAXX  28124 83236 32598 40000 10260 20217 39624 40112 82260 333 20212 58000;EQDQ01  00002PRCP06
0167832360999992005032818004-12150-045000FM-12+043999999V0200501N004611050019N0200001N1+03041+02091100641ADDAA106000091GF105991031021008001001021MA1999999095811MD1999999+0051REMSYN070AAXX  28184 83236 32598 50509 10304 20209 39581 40064 83202 333 58005;EQDQ01  00002PRCP06
0226832360999992005032900004-12150-045000FM-12+044099999V0203601N001510450019N0100001N1+02581+02211100921ADDAA106000091AY101061AY221061GF108991041071008001021999KA1240M+03151MA1999999096071MD1999999-0091MW1131REMSYN094AAXX  29004 83236 31597 83603 10258 20221 39607 40092 71302 8472/ 333 10315 29074 55/// 59009;EQDQ01  00002PRCP06
0190832360999992005032912004-12150-045000FM-12+044099999V0209999C000010450019N0100001N1+02461+02231101271ADDAY101061AY221061GF107991041051008001071001KA1240N+02351MA1999999096381MD1999999+0141MW1051REMSYN088AAXX  29124 83236 21597 70000 10246 20223 39638 40127 70502 84570 333 20235 58014 69914;
0167832360999992005032918004-12150-045000FM-12+044099999V0200501N004112200019N0200001N1+03121+01991100711ADDAA106000091GF104991041021008001001001MA1999999095901MD1999999+0091REMSYN070AAXX  29184 83236 32598 40508 10312 20199 39590 40071 84200 333 58009;EQDQ01  00002PRCP06
0226832360999992005033000004-12150-045000FM-12+044099999V0209999C000012200019N0200001N1+02531+02171101091ADDAA106000091AY101061AY221061GF104991031031008001041001KA1240M+03201MA1999999096211MD1999999+0171MW1131REMSYN094AAXX  30004 83236 31598 40000 10253 20217 39621 40109 71302 83340 333 10320 29075 55/// 58017;EQDQ01  00002PRCP06
0186832360999992005033012004-12150-045000FM-12+044099999V0200501N001012200019N0200001N1+02681+02181101241ADDAA106000091GF104991031011008001001011KA1240N+02141MA1999999096371MD1999999-0011REMSYN076AAXX  30124 83236 32598 40502 10268 20218 39637 40124 83101 333 20214 59001;EQDQ01  00002PRCP06
0167832360999992005033018004-12150-045000FM-12+044099999V0201801N003610450019N0200001N1+02811+02271100821ADDAA106000091GF105991041021008001041001MA1999999095951MD1999999+0051REMSYN070AAXX  30184 83236 32598 51807 10281 20227 39595 40082 84240 333 58005;EQDQ01  00002PRCP06
0226832360999992005033100004-12150-045000FM-12+044099999V0201801N001510450019N0100001N1+02531+02311101031ADDAA106000091AY101061AY221061GF105991031031008001041001KA1240M+03071MA1999999096171MD1999999-0041MW1131REMSYN094AAXX  31004 83236 31597 51803 10253 20231 39617 40103 71302 83340 333 10307 29080 55/// 59004;EQDQ01  00002PRCP06
0162832360999992005033112004-12150-045000FM-12+044099999V0200501N001010075019N0100001N1+02561+02271101261ADDGF108991061021008001071999KA1240N+02251MA1999999096381MD1999999+0011REMSYN082AAXX  31124 83236 22597 80502 10256 20227 39638 40126 8627/ 333 20225 58001 69924;
0167832360999992005033118004-12150-045000FM-12+044099999V0201801N002110450019N0200001N1+02541+02211100881ADDAA106000091GF106991041041008001081071MA1999999096001MD1999999+0051REMSYN070AAXX  31184 83236 32598 61804 10254 20221 39600 40088 84487 333 58005;EQDQ01  00002PRCP06
0226832360999992005040100004-12150-045000FM-12+044099999V0202301N001512200019N0200001N1+02381+02281101091ADDAA106000091AY121061AY221061GF102991021051008001001001KA1240M+03251MA1999999096201MD1999999+0031MW1131REMSYN094AAXX  01004 83236 31598 22303 10238 20228 39620 40109 71322 82500 333 10325 29088 55/// 58003;EQDQ01  00002PRCP06
0186832360999992005040112004-12150-045000FM-12+044099999V0209999C000010450019N0100001N1+02681+02241101321ADDAA106000091GF106991021021008001061001KA1240N+02251MA1999999096441MD1999999+0061REMSYN076AAXX  01124 83236 32597 60000 10268 20224 39644 40132 82260 333 20225 58006;EQDQ01  00002PRCP06
0195832360999992005040118004-12150-045000FM-12+044099999V0200901N003611050019N0100001N1+02831+02051100901ADDAA106000091AY101061AY221061GF105991031031008001001031MA1999999096051MD1999999+0051MW1151REMSYN076AAXX  01184 83236 31597 50907 10283 20205 39605 40090 71502 83303 333 58005;EQDQ01  00002PRCP06
0198832360999992005040200004-12150-045000FM-12+044099999V0209999C000012200019N0100001N1+02551+02351101111ADDAA106000091GF103991031041008001001001KA1240M+03251MA1999999096251MD1999999+0051REMSYN088AAXX  02004 83236 32597 30000 10255 20235 39625 40111 83400 333 10325 29079 55/// 58005;EQDQ01  00002PRCP06
0190832360999992005040212004-12150-045000FM-12+044099999V0201801N001012200019N0200001N1+02651+02161101301ADDAY161061AY261061GF104991041021008001001001KA1240N+02121MA1999999096431MD1999999+0011MW1021REMSYN088AAXX  02124 83236 21598 41802 10265 20216 39643 40130 70266 84200 333 20212 58001 60144;
0195832360999992005040218004-12150-045000FM-12+044099999V0201401N003610075019N0200001N1+03181+02221100891ADDAA106000091AY101061AY221061GF105991051031008001001001MA1999999096061MD1999999+0011MW1151REMSYN076AAXX  02184 83236 31598 51407 10318 20222 39606 40089 71502 85300 333 58001;EQDQ01  00002PRCP06
0202832360999992005040300004-12150-045000FM-12+043999999V0209999C000012200019N0200001N1+02351+02281101121ADDAY161061AY261061GF103991031031008001001001KA1240M+03251MA1999999096241MD1999999-0011MW1131REMSYN100AAXX  03004 83236 21598 30000 10235 20228 39624 40112 71366 83300 333 10325 29080 55/// 59001 60061;
0162832360999992005040312004-12150-045000FM-12+043999999V0200501N001012200019N0200001N1+02581+02171101441ADDGF104991041021008001001001KA1240N+02251MA1999999096541MD1999999+0111REMSYN082AAXX  03124 83236 22598 40502 10258 20217 39654 40144 84200 333 20225 58011 60064;
0167832360999992005040318004-12150-045000FM-12+043999999V0203601N002110075019N0200001N1+03111+01991100911ADDAA106000091GF105991051021008001001001MA1999999096081MD1999999+0021REMSYN070AAXX  03184 83236 32598 53604 10311 20199 39608 40091 85200 333 58002;EQDQ01  00002PRCP06
0198832360999992005040400004-12150-045000FM-12+044099999V0209999C000012200019N0200001N1+02541+02331101101ADDAA106000091GF102991021061008001001001KA1240M+03191MA1999999096231MD1999999-0011REMSYN088AAXX  04004 83236 32598 20000 10254 20233 39623 40110 82600 333 10319 29078 55/// 59001;EQDQ01  00002PRCP06
0190832360999992005040412004-12150-045000FM-12+044099999V0201801N001012200019N0200001N1+02711+02201101451ADDAY151061AY251061GF103991031011008001001001KA1240N+02041MA1999999096571MD1999999+0041MW1021REMSYN088AAXX  04124 83236 21598 31802 10271 20220 39657 40145 70255 83100 333 20204 58004 69924;
0195832360999992005040418004-12150-045000FM-12+044099999V0200501N005711050019N0200001N1+03181+02131100881ADDAA106000091AY101061AY221061GF105991031031008001001031MA1999999096061MD1999999-0021MW1151REMSYN076AAXX  04184 83236 31598 50511 10318 20213 39606 40088 71502 83303 333 59002;EQDQ01  00002PRCP06
0202832360999992005040500004-12150-045000FM-12+044099999V0209999C000012200019N0200001N1+02401+02311101191ADDAY191061AY261061GF103991031041008001001001KA1240M+03251MA1999999096321MD1999999+0091MW1021REMSYN100AAXX  05004 83236 21598 30000 10240 20231 39632 40119 70296 83400 333 10325 29080 55/// 58009 69951;
0190832360999992005040512004-12150-045000FM-12+044099999V0209999C000012200019N0200001N1+02511+02111101381ADDAY151061AY251061GF104991011011008001001041KA1240N+02111MA1999999096481MD1999999-0091MW1021REMSYN088AAXX  05124 83236 21598 40000 10251 20211 39648 40138 70255 81104 333 20211 59009 69964;
0195832360999992005040518004-12150-045000FM-12+044099999V0200501N005110075019N0200001N1+03101+02231100961ADDAA106000091AY101061AY221061GF106991051021008001001041MA1999999096121MD1999999+0061MW1151REMSYN076AAXX  05184 83236 31598 60510 10310 20223 39612 40096 71502 85204 333 58006;EQDQ01  00002PRCP06
0202832360999992005040600004-12150-045000FM-12+044099999V0209999C000012200019N0200001N1+02421+02281101261ADDAY161061AY261061GF103991031061008001001001KA1240M+03211MA1999999096371MD1999999+0051MW1021REMSYN100AAXX  06004 83236 21598 30000 10242 20228 39637 40126 70266 83600 333 10321 29081 55/// 58005 60011;
0162832360999992005040612004-12150-045000FM-12+044099999V0209999C000012200019N0200001N1+02521+01961101461ADDGF104991001001999999001081KA1240N+01981MA1999999096551MD1999999+0071REMSYN082AAXX  06124 83236 22998 40000 10252 20196 39655 40146 80008 333 20198 58007 60014;
0167832360999992005040618004-12150-045000FM-12+044099999V0200901N001512200019N0200001N1+03201+01891101011ADDAA106000091GF105991041021008001001041MA1999999096161MD1999999+0041REMSYN070AAXX  06184 83236 32598 50903 10320 20189 39616 40101 84204 333 58004;EQDQ01  00002PRCP06
0198832360999992005040700004-12150-045000FM-12+044099999V0209999C000010120019N0200001N1+02421+02151101211ADDAA106000091GF106991061081008001001001KA1240M+03371MA1999999096321MD1999999-0051REMSYN088AAXX  07004 83236 32598 60000 10242 20215 39632 40121 86800 333 10337 29072 55/// 59005;EQDQ01  00002PRCP06
0186832360999992005040712004-12150-045000FM-12+044099999V0203601N001012200019N0200001N1+02681+02111101311ADDAA106000091GF104991031021008001041001KA1240N+02191MA1999999096431MD1999999-0121REMSYN076AAXX  07124 83236 32598 43602 10268 20211 39643 40131 83240 333 20219 59012;EQDQ01  00002PRCP06
0171832360999992005040718004-12150-045000FM-12+044099999V0202701N000512200019N0200001N1+02641+02291101001ADDAY161061AY261061GF104991031021008001041001MA1999999096121MD1999999-0041MW1021REMSYN082AAXX  07184 83236 21598 42701 10264 20229 39612 40100 70266 83240 333 59004 60101;
0202832360999992005040800004-12150-045000FM-12+044099999V0209999C000012200019N0200001N1+02371+02171101171ADDAY161061AY261061GF102991021011008001001001KA1240M+03121MA1999999096291MD1999999-0031MW1021REMSYN100AAXX  08004 83236 21598 20000 10237 20217 39629 40117 70266 82100 333 10312 29082 55/// 59003 60021;
0172832360999992005040812004-12150-045000FM-12+044099999V0201801N001512200019N0200001N1+02511+02031101381ADDGA1001+999999999GF100991001001999999001001KA1240N+01981MA1999999096481MD1999999+0031REMSYN076AAXX  08124 83236 22998 01803 10251 20203 39648 40138 333 20198 58003 60124;
0167832360999992005040818004-12150-045000FM-12+044099999V0201401N002612200019N0200001N1+03181+01871100851ADDAA106000091GF104991041021008001001001MA1999999096051MD1999999-0071REMSYN070AAXX  08184 83236 32598 41405 10318 20187 39605 40085 84200 333 59007;EQDQ01  00002PRCP06
0208832360999992005040900004-12150-045000FM-12+044099999V0202701N000512200019N0200001N1+02321+02071101121ADDAA106000091GA1001+999999999GF100991001001999999001001KA1240M+03231MA1999999096221MD1999999-0071REMSYN082AAXX  09004 83236 32998 02701 10232 20207 39622 40112 333 10323 29073 55/// 59007;EQDQ01  00002PRCP06
0196832360999992005040912004-12150-045000FM-12+044099999V0201801N000512200019N0200001N1+02451+01921101321ADDAA106000091GA1001+999999999GF100991001001999999001001KA1240N+01931MA1999999096411MD1999999-0071REMSYN070AAXX  09124 83236 32998 01801 10245 20192 39641 40132 333 20193 59007;EQDQ01  00002PRCP06
0167832360999992005040918004-12150-045000FM-12+044099999V0201401N005112200019N0200001N1+03111+01621100871ADDAA106000091GF104991041021008001001001MA1999999096011MD1999999-0041REMSYN070AAXX  09184 83236 32598 41410 10311 20162 39601 40087 84200 333 59004;EQDQ01  00002PRCP06
0198832360999992005041000004-12150-045000FM-12+044099999V0209999C000012200019N0200001N1+02251+02011101101ADDAA106000091GF102991021011008001001001KA1240M+03171MA1999999096191MD1999999-0031REMSYN088AAXX  10004 83236 32598 20000 10225 20201 39619 40110 82100 333 10317 29072 55/// 59003;EQDQ01  00002PRCP06
0162832360999992005041012004-12150-045000FM-12+044099999V0209999C000012200019N0200001N1+02411+01931101311ADDGF102991021011008001001001KA1240N+01891MA1999999096391MD1999999-0021REMSYN082AAXX  10124 83236 22598 20000 10241 20193 39639 40131 82100 333 20189 59002 60024;
0183832360999992005041018004-12150-045000FM-12+044099999V0200501N002612200019N0200001N1+03091+01921100482ADDAA106000091GF103991031021008001001001MA1999999095981MD1999999-0031REMSYN070AAXX  10184 83236 32598 30505 10309 20192 39598 40048 83200 333 59003;EQDQ01+100483APOSLPQ02  00002PRCP06
0208832360999992005041100004-12150-045000FM-12+044099999V0201801N001512200019N0200001N1+02271+01881101091ADDAA106000091GA1001+999999999GF100991001001999999001001KA1240M+03161MA1999999096181MD1999999-0011REMSYN082AAXX  11004 83236 32998 01803 10227 20188 39618 40109 333 10316 29071 55/// 59001;EQDQ01  00002PRCP06
0186832360999992005041112004-12150-045000FM-12+044099999V0201801N001512200019N0200001N1+02511+01871101271ADDAA106000091GF102991021001022501051001KA1240N+01811MA1999999096361MD1999999-0031REMSYN076AAXX  11124 83236 32898 21803 10251 20187 39636 40127 82050 333 20181 59003;EQDQ01  00002PRCP06
0167832360999992005041118004-12150-045000FM-12+044099999V0200501N002110075019N0200001N1+03121+01851100781ADDAA106000091GF106991051021008001001051MA1999999095921MD1999999-0061REMSYN070AAXX  11184 83236 32598 60504 10312 20185 39592 40078 85205 333 59006;EQDQ01  00002PRCP06
0198832360999992005041200004-12150-045000FM-12+044099999V0209999C000010450019N0200001N1+02531+02231100991ADDAA106000091GF106991041021008001051071KA1240M+03271MA1999999096121MD1999999-0061REMSYN088AAXX  12004 83236 32598 60000 10253 20223 39612 40099 84257 333 10327 29071 55/// 59006;EQDQ01  00002PRCP06
0186832360999992005041212004-12150-045000FM-12+044099999V0202301N001012200019N0200001N1+02511+01961101281ADDAA106000091GF102991021011012501001001KA1240N+01911MA1999999096401MD1999999+0041REMSYN076AAXX  12124 83236 32698 22302 10251 20196 39640 40128 82100 333 20191 58004;EQDQ01  00002PRCP06
0167832360999992005041218004-12150-045000FM-12+044099999V0201401N005110075019N0200001N1+03111+01871100891ADDAA106000091GF105991051021008001001001MA1999999096031MD1999999+0111REMSYN070AAXX  12184 83236 32598 51410 10311 20187 39603 40089 85200 333 58011;EQDQ01  00002PRCP06
0208832360999992005041300004-12150-045000FM-12+044099999V0209999C000012200019N0500001N1+02351+02001101191ADDAA106000091GA1001+999999999GF100991001001999999001001KA1240M+03291MA1999999096301MD1999999+0181REMSYN082AAXX  13004 83236 32999 00000 10235 20200 39630 40119 333 10329 29070 55/// 58018;EQDQ01  00002PRCP06
0186832360999992005041312004-12150-045000FM-12+044099999V0201801N001512200019N0200001N1+02621+02051101311ADDAA106000091GF101991011011012501001001KA1240N+01871MA1999999096421MD1999999+0021REMSYN076AAXX  13124 83236 32698 11803 10262 20205 39642 40131 81100 333 20187 58002;EQDQ01  00002PRCP06
0167832360999992005041318004-12150-045000FM-12+044099999V0201401N003110075019N0200001N1+03221+01981100871ADDAA106000091GF105991051021008001001001MA1999999096011MD1999999-0021REMSYN070AAXX  13184 83236 32598 51406 10322 20198 39601 40087 85200 333 59002;EQDQ01  00002PRCP06
0208832360999992005041400004-12150-045000FM-12+044099999V0209999C000012200019N0500001N1+02341+02131101081ADDAA106000091GA1001+999999999GF100991001001999999001001KA1240M+03271MA1999999096201MD1999999-0101REMSYN082AAXX  14004 83236 32999 00000 10234 20213 39620 40108 333 10327 29074 55/// 59010;EQDQ01  00002PRCP06
0186832360999992005041412004-12150-045000FM-12+044099999V0209999C000010450019N0200001N1+02551+02001101271ADDAA106000091GF105991031021008001071031KA1240N+01951MA1999999096371MD1999999-0051REMSYN076AAXX  14124 83236 32598 50000 10255 20200 39637 40127 83273 333 20195 59005;EQDQ01  00002PRCP06
0167832360999992005041418004-12150-045000FM-12+044099999V0200501N001010450019N0200001N1+03141+02071100811ADDAA106000091GF106991041021012501051071MA1999999095951MD1999999-0061REMSYN070AAXX  14184 83236 32698 60502 10314 20207 39595 40081 84257 333 59006;EQDQ01  00002PRCP06
0198832360999992005041500004-12150-045000FM-12+044099999V0201801N001012200019N0200001N1+02411+02071101011ADDAA106000091GF104991041021012501061001KA1240M+03231MA1999999096131MD1999999+0071REMSYN088AAXX  15004 83236 32698 41802 10241 20207 39613 40101 84260 333 10323 29072 55/// 58007;EQDQ01  00002PRCP06
0186832360999992005041512004-12150-045000FM-12+044099999V0201401N001512200019N0200001N1+02641+02001101241ADDAA106000091GF103991031021012501001001KA1240N+02001MA1999999096351MD1999999+0021REMSYN076AAXX  15124 83236 32698 31403 10264 20200 39635 40124 83200 333 20200 58002;EQDQ01  00002PRCP06
0195832360999992005041518004-12150-045000FM-12+044099999V0200501N002610075019N0200001N1+03031+02041100901ADDAA106000091AY121061AY221061GF105991051051008001001001MA1999999096041MD1999999+0091MW1151REMSYN076AAXX  15184 83236 31598 50505 10303 20204 39604 40090 71522 85500 333 58009;EQDQ01  00002PRCP06
0198832360999992005041600004-12150-045000FM-12+044099999V0209999C000012200019N0200001N1+02361+02111101121ADDAA106000091GF102991021011012501001001KA1240M+03281MA1999999096241MD1999999+0111REMSYN088AAXX  16004 83236 32698 20000 10236 20211 39624 40112 82100 333 10328 29074 55/// 58011;EQDQ01  00002PRCP06
0186832360999992005041612004-12150-045000FM-12+044099999V0209999C000012200019N0200001N1+02631+02011101271ADDAA106000091GF102991001001999999001031KA1240N+01901MA1999999096381MD1999999+0031REMSYN076AAXX  16124 83236 32998 20000 10263 20201 39638 40127 80003 333 20190 58003;EQDQ01  00002PRCP06
0167832360999992005041618004-12150-045000FM-12+044099999V0200501N003110075019N0200001N1+03291+02101100811ADDAA106000091GF106991051021008001001051MA1999999095971MD1999999-0071REMSYN070AAXX  16184 83236 32598 60506 10329 20210 39597 40081 85205 333 59007;EQDQ01  00002PRCP06
0208832360999992005041700004-12150-045000FM-12+043999999V0201801N001512200019N0200001N1+02451+02151101061ADDAA106000091GA1001+999999999GF100991001001999999001001KA1240M+03391MA1999999096191MD1999999-0051REMSYN082AAXX  17004 83236 32898 01803 10245 20215 39619 40106 333 10339 29072 55/// 59005;EQDQ01  00002PRCP06
0186832360999992005041712004-12150-045000FM-12+043999999V0201401N001510075019N0200001N1+02471+02171101331ADDAA106000091GF106991051021008001071051KA1240N+02131MA1999999096431MD1999999+0051REMSYN076AAXX  17124 83236 32598 61403 10247 20217 39643 40133 85275 333 20213 58005;EQDQ01  00002PRCP06
0167832360999992005041718004-12150-045000FM-12+043999999V0203601N001010450019N0200001N1+03221+02111100841ADDAA106000091GF106991041021008001081051MA1999999096001MD1999999+0031REMSYN070AAXX  17184 83236 32598 63602 10322 20211 39600 40084 84285 333 58003;EQDQ01  00002PRCP06
0198832360999992005041800004-12150-045000FM-12+044099999V0201801N001011050019N0200001N1+02471+02231101021ADDAA106000091GF106991021021012501001071KA1240M+03331MA1999999096141MD1999999-0051REMSYN088AAXX  18004 83236 32698 61802 10247 20223 39614 40102 82207 333 10333 29078 55/// 59005;EQDQ01  00002PRCP06
0190832360999992005041812004-12150-045000FM-12+044099999V0203601N001510075019N0100001N1+02351+02181101161ADDAY161061AY261061GF108991061041008001071999KA1240N+02261MA1999999096261MD1999999-0171MW1101REMSYN088AAXX  18124 83236 21597 83603 10235 20218 39626 40116 71066 8647/ 333 20226 59017 60064;
0167832360999992005041818004-12150-045000FM-12+044099999V0200501N003110075019N0100001N1+02791+02231100771ADDAA106000091GF108991061021008001081999MA1999999095911MD1999999-0091REMSYN070AAXX  18184 83236 32597 80506 10279 20223 39591 40077 8628/ 333 59009;EQDQ01  00002PRCP06
0198832360999992005041900004-12150-045000FM-12+044099999V0209999C000011050019N0200001N1+02331+02201101071ADDAA106000091GF105991031001022501061071KA1240M+03021MA1999999096161MD1999999+0021REMSYN088AAXX  19004 83236 32898 50000 10233 20220 39616 40107 83067 333 10302 29087 55/// 58002;EQDQ01  00002PRCP06
0190832360999992005041912004-12150-045000FM-12+044099999V0201801N001010450019N0200001N1+02591+02151101221ADDAY151061AY251061GF107991041021008001061071KA1240N+02151MA1999999096331MD1999999+0071MW1021REMSYN088AAXX  19124 83236 21598 71802 10259 20215 39633 40122 70255 84267 333 20215 58007 69944;
0195832360999992005041918004-12150-045000FM-12+044099999V0203201N001510450019N0200001N1+02751+02171100851ADDAA106000091AY121061AY221061GF106991031051008001041071MA1999999095971MD1999999+0061MW1161REMSYN076AAXX  19184 83236 31598 63203 10275 20217 39597 40085 71622 83547 333 58006;EQDQ01  00002PRCP06
0198832360999992005042000004-12150-045000FM-12+044099999V0209999C000010450019N0200001N1+02381+02221100991ADDAA106000091GF105991031021012501051071KA1240M+03241MA1999999096121MD1999999-0041REMSYN088AAXX  20004 83236 32698 50000 10238 20222 39612 40099 83257 333 10324 29082 55/// 59004;EQDQ01  00002PRCP06
0186832360999992005042012004-12150-045000FM-12+044099999V0201401N001510450019N0200001N1+02611+02011101301ADDAA106000091GF106991041021008001061071KA1240N+02081MA1999999096411MD1999999+0081REMSYN076AAXX  20124 83236 32598 61403 10261 20201 39641 40130 84267 333 20208 58008;EQDQ01  00002PRCP06
0167832360999992005042018004-12150-045000FM-12+044099999V0203201N001010075019N0100001N1+02861+02211100981ADDAA106000091GF108991061031008001081999MA1999999096101MD1999999+0131REMSYN070AAXX  20184 83236 32597 83202 10286 20221 39610 40098 8638/ 333 58013;EQDQ01  00002PRCP06
0198832360999992005042100004-12150-045000FM-12+044099999V0201801N001010075019N0100001N1+02381+02211101131ADDAA106000091GF108991061021008001061999KA1240M+03021MA1999999096251MD1999999+0131REMSYN088AAXX  21004 83236 32597 81802 10238 20221 39625 40113 8626/ 333 10302 29080 55/// 58013;EQDQ01  00002PRCP06
0186832360999992005042112004-12150-045000FM-12+044099999V0209999C000012200019N0500001N1+02531+02151101221ADDAA106000091GF103991001001999999001071KA1240N+01971MA1999999096331MD1999999-0081REMSYN076AAXX  21124 83236 32999 30000 10253 20215 39633 40122 80007 333 20197 59008;EQDQ01  00002PRCP06
0195832360999992005042118004-12150-045000FM-12+044099999V0200501N003111050019N0200001N1+03331+02101100691ADDAA106000091AY121061AY221061GF105991041051012501001071MA1999999095871MD1999999-0231MW1151REMSYN076AAXX  21184 83236 31698 50506 10333 20210 39587 40069 71522 84507 333 59023;EQDQ01  00002PRCP06
0198832360999992005042200004-12150-045000FM-12+044099999V0209999C000012200019N0200001N1+02341+01911101011ADDAA106000091GF103991001001999999001071KA1240M+03391MA1999999096131MD1999999-0121REMSYN088AAXX  22004 83236 32998 30000 10234 20191 39613 40101 80007 333 10339 29072 55/// 59012;EQDQ01  00002PRCP06
0186832360999992005042212004-12150-045000FM-12+044099999V0209999C000011050019N0200001N1+02591+02111101111ADDAA106000091GF105991021011012501001051KA1240N+02031MA1999999096221MD1999999-0101REMSYN076AAXX  22124 83236 32698 50000 10259 20211 39622 40111 82105 333 20203 59010;EQDQ01  00002PRCP06
0167832360999992005042218004-12150-045000FM-12+044099999V0203601N001510450019N0200001N1+03381+01571100621ADDAA106000091GF105991031021008001041071MA1999999095801MD1999999-0071REMSYN070AAXX  22184 83236 32598 53603 10338 20157 39580 40062 83247 333 59007;EQDQ01  00002PRCP06
0226832360999992005042300004-12150-045000FM-12+044099999V0209999C000010075019N0200001N1+02411+02131100911ADDAA106000091AY121061AY221061GF106991051051008001071051KA1240M+03411MA1999999096041MD1999999-0091MW1131REMSYN094AAXX  23004 83236 31598 60000 10241 20213 39604 40091 71322 85575 333 10341 29070 55/// 59009;EQDQ01  00002PRCP06
0186832360999992005042312004-12150-045000FM-12+044099999V0209999C000010450019N0200001N1+02691+02181101141ADDAA106000091GF105991031021012501061051KA1240N+02151MA1999999096271MD1999999+0051REMSYN076AAXX  23124 83236 32698 50000 10269 20218 39627 40114 83265 333 20215 58005;EQDQ01  00002PRCP06
0167832360999992005042318004-12150-045000FM-12+044099999V0203601N002111050019N0200001N1+03431+02021100591ADDAA106000091GF106991041021008001001071MA1999999095801MD1999999+0001REMSYN070AAXX  23184 83236 32598 63604 10343 20202 39580 40059 84207 333 58000;EQDQ01  00002PRCP06
0198832360999992005042400004-12150-045000FM-12+043999999V0209999C000010450019N0200001N1+02471+02151100891ADDAA106000091GF105991031021012501051071KA1240M+03481MA1999999096041MD1999999+0001REMSYN088AAXX  24004 83236 32698 50000 10247 20215 39604 40089 83257 333 10348 29071 55/// 58000;EQDQ01  00002PRCP06
0190832360999992005042412004-12150-045000FM-12+043999999V0209999C000011050019N0200001N1+02761+02321101221ADDAY161061AY251061GF105991031021008001001051KA1240N+02281MA1999999096351MD1999999+0081MW1021REMSYN088AAXX  24124 83236 21598 50000 10276 20232 39635 40122 70265 83205 333 20228 58008 60024;
0171832360999992005042418004-12150-045000FM-12+043999999V0200501N003110450019N0200001N1+03091+02241100711ADDAY151061AY251061GF106991041051008001041071MA1999999095891MD1999999+0091MW1151REMSYN082AAXX  24184 83236 21598 60506 10309 20224 39589 40071 71555 84547 333 58009 60021;
0198832360999992005042500004-12150-045000FM-12+044099999V0201401N001010075019N0200001N1+02451+02231100931ADDAA106000091GF108991061021008001071999KA1240M+03381MA1999999096081MD1999999+0041REMSYN088AAXX  25004 83236 32598 81402 10245 20223 39608 40093 8627/ 333 10338 29079 55/// 58004;EQDQ01  00002PRCP06
0162832360999992005042512004-12150-045000FM-12+044099999V0209999C000011050019N0200001N1+02621+02161101201ADDGF105991021001022501041051KA1240N+02091MA1999999096331MD1999999-0021REMSYN082AAXX  25124 83236 22898 50000 10262 20216 39633 40120 82045 333 20209 59002 60024;
0167832360999992005042518004-12150-045000FM-12+044099999V0203601N002112200019N0200001N1+03241+01891100681ADDAA106000091GF106991031021008001001061MA1999999095861MD1999999-0031REMSYN070AAXX  25184 83236 32598 63604 10324 20189 39586 40068 83206 333 59003;EQDQ01  00002PRCP06
0198832360999992005042600004-12150-045000FM-12+044099999V0209999C000010120019N0200001N1+02741+02121101011ADDAA106000091GF107991071081008001001001KA1240M+03381MA1999999096171MD1999999+0091REMSYN088AAXX  26004 83236 32598 70000 10274 20212 39617 40101 87800 333 10338 29065 55/// 58009;EQDQ01  00002PRCP06
0186832360999992005042612004-12150-045000FM-12+044099999V0209999C000010450019N0200001N1+02511+02071101201ADDAA106000091GF107991021011008001041061KA1240N+02041MA1999999096341MD1999999+0011REMSYN076AAXX  26124 83236 32598 70000 10251 20207 39634 40120 82146 333 20204 58001;EQDQ01  00002PRCP06
0167832360999992005042618004-12150-045000FM-12+044099999V0201401N000512200019N0200001N1+03171+02041100701ADDAA106000091GF106991031021008001001061MA1999999095871MD1999999+0011REMSYN070AAXX  26184 83236 32598 61401 10317 20204 39587 40070 83206 333 58001;EQDQ01  00002PRCP06
0202832360999992005042700004-12150-045000FM-12+044099999V0202701N001010450019N0100001N1+02411+02251101131ADDAY151061AY251061GF108991031021008001021999KA1240M+03271MA1999999096241MD1999999+0071MW1021REMSYN100AAXX  27004 83236 21597 82702 10241 20225 39624 40113 70255 8322/ 333 10327 29077 55/// 58007 69941;
0162832360999992005042712004-12150-045000FM-12+044099999V0203601N001010450019N0200001N1+02621+02141101201ADDGF106991021011008001031001KA1240N+02151MA1999999096321MD1999999-0021REMSYN082AAXX  27124 83236 22598 63602 10262 20214 39632 40120 82130 333 20215 59002 69944;
0167832360999992005042718004-12150-045000FM-12+044099999V0202301N001010120019N0200001N1+02961+02101100751ADDAA106000091GF107991071081008001001001MA1999999095901MD1999999+0031REMSYN070AAXX  27184 83236 32598 72302 10296 20210 39590 40075 87800 333 58003;EQDQ01  00002PRCP06
0226832360999992005042800004-12150-045000FM-12+044099999V0209999C000010450019N0200001N1+02651+02221101081ADDAA106000091AY101061AY221061GF107991041071008001021999KA1240M+03181MA1999999096231MD1999999-0011MW1131REMSYN094AAXX  28004 83236 31598 70000 10265 20222 39623 40108 71302 8472/ 333 10318 29072 55/// 59001;EQDQ01  00002PRCP06
0190832360999992005042812004-12150-045000FM-12+044099999V0209999C000010075019N0100001N1+02381+02221101381ADDAY151061AY251061GF108991051051008001021999KA1240N+02281MA1999999096491MD1999999+0171MW1021REMSYN088AAXX  28124 83236 21597 80000 10238 20222 39649 40138 70255 8552/ 333 20228 58017 69944;
0167832360999992005042818004-12150-045000FM-12+044099999V0200501N002611050019N0200001N1+03011+02071100891ADDAA106000091GF106991021031008001041031MA1999999096051MD1999999+0151REMSYN070AAXX  28184 83236 32598 60505 10301 20207 39605 40089 82343 333 58015;EQDQ01  00002PRCP06
0198832360999992005042900004-12150-045000FM-12+044099999V0200501N003110450019N0100001N1+02441+02171101301ADDAA106000091GF108991041041008001021999KA1240M+03051MA1999999096391MD1999999+0161REMSYN088AAXX  29004 83236 32597 80506 10244 20217 39639 40130 8442/ 333 10305 29080 55/// 58016;EQDQ01  00002PRCP06
0190832360999992005042912004-12150-045000FM-12+044099999V0201801N001010075019N0200001N1+02521+02231101471ADDAY151061AY251061GF108991051021008001021999KA1240N+02241MA1999999096571MD1999999+0081MW1021REMSYN088AAXX  29124 83236 21598 81802 10252 20223 39657 40147 70255 8522/ 333 20224 58008 69934;
0171832360999992005042918004-12150-045000FM-12+044099999V0201801N002110450019N0200001N1+02621+02211101121ADDAY151061AY251061GF106991041021008001071001MA1999999096231MD1999999+0101MW1021REMSYN082AAXX  29184 83236 21598 61804 10262 20221 39623 40112 70255 84270 333 58010 69951;
0214832360999992005043000004-12150-045000FM-12+044099999V0201801N001010075019N0200001N1+02381+02281101421ADDAA106000091GF106991999041008001001001KA1240M+02871MA1999999096521MD1999999+0131REMSYN088AAXX  30004 83236 32598 61802 10238 20228 39652 40142 85400 333 10287 29088 55/// 58013;EQDQ01+000052SCOTLCQ02  00002PRCP06
0190832360999992005043012004-12150-045000FM-12+044099999V0203601N001510075019N0200001N1+02361+02131101441ADDAY161061AY261061GF107991051021008001001041KA1240N+02211MA1999999096521MD1999999-0051MW1021REMSYN088AAXX  30124 83236 21598 73603 10236 20213 39652 40144 70266 85204 333 20221 59005 60064;
0167832360999992005043018004-12150-045000FM-12+044099999V0200501N002611050019N0200001N1+03011+02051101001ADDAA106000091GF105991031031008001001031MA1999999096151MD1999999-0081REMSYN070AAXX  30184 83236 32598 50505 10301 20205 39615 40100 83303 333 59008;EQDQ01  00002PRCP06
0198832360999992005050100004-12150-045000FM-12+043999999V0201801N001010450019N0200001N1+02461+02231101291ADDAA106000091GF106991041021008001041001KA1240M+03091MA1999999096381MD1999999-0141REMSYN088AAXX  01004 83236 32598 61802 10246 20223 39638 40129 84240 333 10309 29080 55/// 59014;EQDQ01  00002PRCP06
0190832360999992005050112004-12150-045000FM-12+043999999V0202301N001010450019N0200001N1+02491+02191101371ADDAY151061AY251061GF107991021021008001071001KA1240N+02231MA1999999096481MD1999999-0041MW1021REMSYN088AAXX  01124 83236 21598 72302 10249 20219 39648 40137 70255 82270 333 20223 59004 69984;
0167832360999992005050118004-12150-045000FM-12+043999999V0203601N003112200019N0200001N1+03001+02081100861ADDAA106000091GF106991041021008001001041MA1999999096021MD1999999-0131REMSYN070AAXX  01184 83236 32598 63606 10300 20208 39602 40086 84204 333 59013;EQDQ01  00002PRCP06
0202832360999992005050200004-12150-045000FM-12+043999999V0202301N002110075019N0040001N1+02171+02131101401ADDAY161061AY261061GF108991051071008001021999KA1240M+03231MA1999999096461MD1999999+0081MW1501REMSYN100AAXX  02004 83236 21596 82304 10217 20213 39646 40140 75066 8572/ 333 10323 29084 55/// 58008 60381;
0195832360999992005050218004-12150-045000FM-12+044099999V0201801N005110075019N0100001N1+02521+02171101131ADDAA106000091AY101061AY221061GF107991051051008001021001MA1999999096221MD1999999+0201MW1151REMSYN076AAXX  02184 83236 31597 71810 10252 20217 39622 40113 71502 85520 333 58020;EQDQ01  00002PRCP06
0198832360999992005050300004-12150-045000FM-12+044099999V0209999C000010075019N0040001N1+02291+02141101441ADDAA106000091GF108991081051008001999999KA1240M+02801MA1999999096501MD1999999+0041REMSYN088AAXX  03004 83236 32596 80000 10229 20214 39650 40144 885// 333 10280 29088 55/// 58004;EQDQ01  00002PRCP06
0186832360999992005050312004-12150-045000FM-12+044099999V0201801N000510075019N0100001N1+02371+02091101591ADDAA106000091GF107991051021008001041001KA1240N+02151MA1999999096661MD1999999+0121REMSYN076AAXX  03124 83236 32597 71801 10237 20209 39666 40159 85240 333 20215 58012;EQDQ01  00002PRCP06
0171832360999992005050318004-12150-045000FM-12+044099999V0202701N002610075019N0100001N1+02281+02091101261ADDAY161061AY261061GF107991051051008001021001MA1999999096321MD1999999+0101MW1151REMSYN082AAXX  03184 83236 21597 72705 10228 20209 39632 40126 71566 85520 333 58010 60011;
0202832360999992005050400004-12150-045000FM-12+044099999V0200901N003110075019N0040001N1+02381+02091101411ADDAY151061AY251061GF108991081071008001999999KA1240M+02871MA1999999096501MD1999999+0001MW1021REMSYN100AAXX  04004 83236 21596 80906 10238 20209 39650 40141 70255 887// 333 10287 29088 55/// 58000 69931;
0181832360999992005050412004-12150-045000FM-12+044099999V0201801N001512200019N0200001N1+02381+01681101581ADDGF103991001001999999001041KA1240N+02061MA1999999096661MD1999999+0001REMSYN082AAXX  04124 83236 22998 31803 10238 20168 39666 40158 83004 333 20206 58000 60024;EQDQ01+000032SCOTLC
0167832360999992005050418004-12150-045000FM-12+044099999V0200501N001010075019N0200001N1+02811+02001101221ADDAA106000091GF107991051071008001021001MA1999999096341MD1999999+0021REMSYN070AAXX  04184 83236 32598 70502 10281 20200 39634 40122 85720 333 58002;EQDQ01  00002PRCP06
0198832360999992005050500004-12150-045000FM-12+044099999V0202301N001012200019N0200001N1+02341+01931101491ADDAA106000091GF103991031061008001001001KA1240M+02951MA1999999096561MD1999999+0061REMSYN088AAXX  05004 83236 32598 32302 10234 20193 39656 40149 83600 333 10295 29071 55/// 58006;EQDQ01  00002PRCP06
0186832360999992005050512004-12150-045000FM-12+044099999V0201801N003112200019N0200001N1+02401+01701101631ADDAA106000091GF102991021001022501041001KA1240N+01801MA1999999096701MD1999999+0041REMSYN076AAXX  05124 83236 32898 21806 10240 20170 39670 40163 82040 333 20180 58004;EQDQ01  00002PRCP06
0167832360999992005050518004-12150-045000FM-12+044099999V0201801N002112200019N0200001N1+03001+01681101101ADDAA106000091GF104991041021008001001001MA1999999096221MD1999999-0121REMSYN070AAXX  05184 83236 32598 41804 10300 20168 39622 40110 84200 333 59012;EQDQ01  00002PRCP06
0208832360999992005050600004-12150-045000FM-12+044099999V0202701N001012200019N0200001N1+02211+01841101371ADDAA106000091GA1001+999999999GF100991001001999999001001KA1240M+03051MA1999999096441MD1999999-0121REMSYN082AAXX  06004 83236 32998 02702 10221 20184 39644 40137 333 10305 29068 55/// 59012;EQDQ01  00002PRCP06
0196832360999992005050612004-12150-045000FM-12+044099999V0202301N003112200019N0200001N1+02271+01731101641ADDAA106000091GA1001+999999999GF100991001001999999001001KA1240N+01681MA1999999096681MD1999999-0021REMSYN070AAXX  06124 83236 32998 02306 10227 20173 39668 40164 333 20168 59002;EQDQ01  00002PRCP06
0167832360999992005050618004-12150-045000FM-12+044099999V0200901N001512200019N0200001N1+03041+01751101021ADDAA106000091GF103991031011008001001001MA1999999096131MD1999999-0091REMSYN070AAXX  06184 83236 32598 30903 10304 20175 39613 40102 83100 333 59009;EQDQ01  00002PRCP06
0198832360999992005050700004-12150-045000FM-12+044099999V0209999C000012200019N0200001N1+02451+01941101291ADDAA106000091GF104991041081008001001001KA1240M+03101MA1999999096371MD1999999-0071REMSYN088AAXX  07004 83236 32598 40000 10245 20194 39637 40129 84800 333 10310 29066 55/// 59007;EQDQ01  00002PRCP06
0186832360999992005050712004-12150-045000FM-12+044099999V0201401N002112200019N0200001N1+02461+01761101491ADDAA106000091GF102991021001022501041001KA1240N+01861MA1999999096581MD1999999-0101REMSYN076AAXX  07124 83236 32898 21404 10246 20176 39658 40149 82040 333 20186 59010;EQDQ01  00002PRCP06
0167832360999992005050718004-12150-045000FM-12+044099999V0201801N001012200019N0200001N1+03101+01771100981ADDAA106000091GF103991031011008001001001MA1999999096131MD1999999+0001REMSYN070AAXX  07184 83236 32598 31802 10310 20177 39613 40098 83100 333 58000;EQDQ01  00002PRCP06
0208832360999992005050800004-12150-045000FM-12+043999999V0201801N001012200019N0200001N1+02331+02031101281ADDAA106000091GA1001+999999999GF100991001001999999001001KA1240M+03171MA1999999096371MD1999999+0001REMSYN082AAXX  08004 83236 32998 01802 10233 20203 39637 40128 333 10317 29069 55/// 58000;EQDQ01  00002PRCP06
0186832360999992005050812004-12150-045000FM-12+043999999V0201801N001012200019N0200001N1+02461+01921101441ADDAA106000091GF102991021001008001081001KA1240N+01881MA1999999096531MD1999999-0051REMSYN076AAXX  08124 83236 32598 21802 10246 20192 39653 40144 82080 333 20188 59005;EQDQ01  00002PRCP06
0183832360999992005050818004-12150-045000FM-12+043999999V0201401N002612200019N0200001N1+03071+01701100971ADDAA106000091GF103991999031008001011001MA1999999096121MD1999999-0011REMSYN070AAXX  08184 83236 32598 31405 10307 20170 39612 40097 88310 333 59001;EQDQ01+000082SCOTLCQ02  00002PRCP06
0198832360999992005050900004-12150-045000FM-12+044099999V0202301N000510120019N0200001N1+02551+01931101261ADDAA106000091GF106991061081008001001001KA1240M+03231MA1999999096371MD1999999+0001REMSYN088AAXX  09004 83236 32598 62301 10255 20193 39637 40126 86800 333 10323 29063 55/// 58000;EQDQ01  00002PRCP06
0186832360999992005050912004-12150-045000FM-12+044099999V0209999C000012200019N0200001N1+02651+01931101511ADDAA106000091GF104991001001999999001071KA1240N+02151MA1999999096631MD1999999+0101REMSYN076AAXX  09124 83236 32998 40000 10265 20193 39663 40151 80007 333 20215 58010;EQDQ01  00002PRCP06
0167832360999992005050918004-12150-045000FM-12+044099999V0200901N003610450019N0200001N1+03031+01861101041ADDAA106000091GF106991041021008001051071MA1999999096191MD1999999+0071REMSYN070AAXX  09184 83236 32598 60907 10303 20186 39619 40104 84257 333 58007;EQDQ01  00002PRCP06
0198832360999992005051000004-12150-045000FM-12+044099999V0202301N001012200019N0200001N1+02311+02011101311ADDAA106000091GF102991001001999999001031KA1240M+03191MA1999999096421MD1999999+0051REMSYN088AAXX  10004 83236 32998 22302 10231 20201 39642 40131 80003 333 10319 29071 55/// 58005;EQDQ01  00002PRCP06
0186832360999992005051012004-12150-045000FM-12+044099999V0201401N003110450019N0200001N1+02571+01781101461ADDAA106000091GF105991031021012501061051KA1240N+01981MA1999999096551MD1999999-0081REMSYN076AAXX  10124 83236 32698 51406 10257 20178 39655 40146 83265 333 20198 59008;EQDQ01  00002PRCP06
0167832360999992005051018004-12150-045000FM-12+044099999V0203601N003610075019N0200001N1+03031+02041101001ADDAA106000091GF106991051021008001051071MA1999999096141MD1999999-0051REMSYN070AAXX  10184 83236 32598 63607 10303 20204 39614 40100 85257 333 59005;EQDQ01  00002PRCP06
0198832360999992005051100004-12150-045000FM-12+044099999V0202301N001512200019N0200001N1+02421+01951101291ADDAA106000091GF103991031021012501001001KA1240M+03161MA1999999096401MD1999999-0021REMSYN088AAXX  11004 83236 32698 32303 10242 20195 39640 40129 83200 333 10316 29067 55/// 59002;EQDQ01  00002PRCP06
0186832360999992005051112004-12150-045000FM-12+044099999V0201401N002110450019N0200001N1+02461+01831101491ADDAA106000091GF106991041011012501051071KA1240N+01881MA1999999096581MD1999999+0031REMSYN076AAXX  11124 83236 32698 61404 10246 20183 39658 40149 84157 333 20188 58003;EQDQ01  00002PRCP06
0167832360999992005051118004-12150-045000FM-12+044099999V0201401N003110075019N0200001N1+03041+01851101011ADDAA106000091GF106991051021008001041071MA1999999096151MD1999999+0011REMSYN070AAXX  11184 83236 32598 61406 10304 20185 39615 40101 85247 333 58001;EQDQ01  00002PRCP06
0208832360999992005051200004-12150-045000FM-12+044099999V0209999C000012200019N0200001N1+02271+01961101291ADDAA106000091GA1001+999999999GF100991001001999999001001KA1240M+03191MA1999999096371MD1999999-0031REMSYN082AAXX  12004 83236 32998 00000 10227 20196 39637 40129 333 10319 29071 55/// 59003;EQDQ01  00002PRCP06
0186832360999992005051212004-12150-045000FM-12+044099999V0201801N001519999999N0200001N1+02481+01801101441ADDAA106000091GF105991001001999999001071KA1240N+01701MA1999999096531MD1999999-0051REMSYN076AAXX  12124 83236 32998 51803 10248 20180 39653 40144 80007 333 20170 59005;EQDQ01  00002PRCP06
0167832360999992005051218004-12150-045000FM-12+044099999V0200901N003110450019N0200001N1+03131+01711101041ADDAA106000091GF106991041021008001071041MA1999999096161MD1999999+0011REMSYN070AAXX  12184 83236 32598 60906 10313 20171 39616 40104 84274 333 58001;EQDQ01  00002PRCP06
0198832360999992005051300004-12150-045000FM-12+044099999V0209999C000012200019N0200001N1+02291+01921101231ADDAA106000091GF104991041021012501001001KA1240M+03181MA1999999096331MD1999999-0041REMSYN088AAXX  13004 83236 32698 40000 10229 20192 39633 40123 84200 333 10318 29067 55/// 59004;EQDQ01  00002PRCP06
0186832360999992005051312004-12150-045000FM-12+044099999V0209999C000012200019N0200001N1+02421+01791101451ADDAA106000091GF103991001001999999001071KA1240N+01801MA1999999096531MD1999999+0001REMSYN076AAXX  13124 83236 32998 30000 10242 20179 39653 40145 80007 333 20180 58000;EQDQ01  00002PRCP06
0167832360999992005051318004-12150-045000FM-12+044099999V0200901N003611050019N0200001N1+02971+01861101041ADDAA106000091GF106991041021008001001071MA1999999096151MD1999999-0011REMSYN070AAXX  13184 83236 32598 60907 10297 20186 39615 40104 84207 333 59001;EQDQ01  00002PRCP06
0198832360999992005051400004-12150-045000FM-12+044099999V0209999C000010075019N0200001N1+02291+01961101201ADDAA106000091GF106991051041008001001051KA1240M+03131MA1999999096291MD1999999-0041REMSYN088AAXX  14004 83236 32598 60000 10229 20196 39629 40120 85405 333 10313 29071 55/// 59004;EQDQ01  00002PRCP06
0186832360999992005051412004-12150-045000FM-12+044099999V0201401N003110450019N0200001N1+02621+01881101321ADDAA106000091GF106991041021008001071051KA1240N+02111MA1999999096421MD1999999-0111REMSYN076AAXX  14124 83236 32598 61406 10262 20188 39642 40132 84275 333 20211 59011;EQDQ01  00002PRCP06
0167832360999992005051418004-12150-045000FM-12+044099999V0200901N003610075019N0200001N1+03091+01751100911ADDAA106000091GF105991051021008001001001MA1999999096061MD1999999-0091REMSYN070AAXX  14184 83236 32598 50907 10309 20175 39606 40091 85200 333 59009;EQDQ01  00002PRCP06
0198832360999992005051500004-12150-045000FM-12+043999999V0202301N001512200019N0200001N1+02121+01721101131ADDAA106000091GF102991001001999999001031KA1240M+03181MA1999999096221MD1999999-0071REMSYN088AAXX  15004 83236 32998 22303 10212 20172 39622 40113 80003 333 10318 29066 55/// 59007;EQDQ01  00002PRCP06
0186832360999992005051512004-12150-045000FM-12+043999999V0200901N001512200019N0200001N1+02521+01771101321ADDAA106000091GF104991001001999999001051KA1240N+01891MA1999999096391MD1999999-0031REMSYN076AAXX  15124 83236 32998 40903 10252 20177 39639 40132 80005 333 20189 59003;EQDQ01  00002PRCP06
0167832360999992005051518004-12150-045000FM-12+043999999V0200501N003111050019N0200001N1+03031+01761100941ADDAA106000091GF106991041021008001001051MA1999999096061MD1999999+0001REMSYN070AAXX  15184 83236 32598 60506 10303 20176 39606 40094 84205 333 58000;EQDQ01  00002PRCP06
0208832360999992005051600004-12150-045000FM-12+044099999V0202301N001012200019N0200001N1+02141+01821101191ADDAA106000091GA1001+999999999GF100991001001999999001001KA1240M+03151MA1999999096281MD1999999+0061REMSYN082AAXX  16004 83236 32998 02302 10214 20182 39628 40119 333 10315 29068 55/// 58006;EQDQ01  00002PRCP06
0186832360999992005051612004-12150-045000FM-12+044099999V0202301N001012200019N0200001N1+02321+01761101351ADDAA106000091GF104991021021012501001051KA1240N+01681MA1999999096411MD1999999+0021REMSYN076AAXX  16124 83236 32698 42302 10232 20176 39641 40135 82205 333 20168 58002;EQDQ01  00002PRCP06
0167832360999992005051618004-12150-045000FM-12+044099999V0201401N003111050019N0200001N1+03091+01821100861ADDAA106000091GF105991041021008001001051MA1999999095971MD1999999-0091REMSYN070AAXX  16184 83236 32598 51406 10309 20182 39597 40086 84205 333 59009;EQDQ01  00002PRCP06
0208832360999992005051700004-12150-045000FM-12+044099999V0209999C000012200019N0200001N1+02131+01881101131ADDAA106000091GA1001+999999999GF100991001001999999001001KA1240M+03231MA1999999096191MD1999999-0091REMSYN082AAXX  17004 83236 32998 00000 10213 20188 39619 40113 333 10323 29072 55/// 59009;EQDQ01  00002PRCP06
0186832360999992005051712004-12150-045000FM-12+044099999V0209999C000012200019N0200001N1+02291+01831101331ADDAA106000091GF103991001001999999001071KA1240N+01691MA1999999096381MD1999999-0031REMSYN076AAXX  17124 83236 32998 30000 10229 20183 39638 40133 80007 333 20169 59003;EQDQ01  00002PRCP06
0167832360999992005051718004-12150-045000FM-12+044099999V0201401N001512200019N0200001N1+03141+01691100751ADDAA106000091GF104991021001008001001051MA1999999095891MD1999999-0081REMSYN070AAXX  17184 83236 32598 41403 10314 20169 39589 40075 82005 333 59008;EQDQ01  00002PRCP06
0208832360999992005051800004-12150-045000FM-12+044099999V0202301N001012200019N0200001N1+02091+01841101051ADDAA106000091GA1001+999999999GF100991001001999999001001KA1240M+03211MA1999999096111MD1999999-0081REMSYN082AAXX  18004 83236 32998 02302 10209 20184 39611 40105 333 10321 29073 55/// 59008;EQDQ01  00002PRCP06
0186832360999992005051812004-12150-045000FM-12+044099999V0209999C000012200019N0200001N1+02281+01701101231ADDAA106000091GF103991021011012501001051KA1240N+01681MA1999999096281MD1999999-0101REMSYN076AAXX  18124 83236 32698 30000 10228 20170 39628 40123 82105 333 20168 59010;EQDQ01  00002PRCP06
0167832360999992005051818004-12150-045000FM-12+044099999V0200501N003112200019N0200001N1+03161+01711100691ADDAA106000091GF102991021011012501001001MA1999999095811MD1999999-0081REMSYN070AAXX  18184 83236 32698 20506 10316 20171 39581 40069 82100 333 59008;EQDQ01  00002PRCP06
0208832360999992005051900004-12150-045000FM-12+044099999V0201801N001012200019N0200001N1+02141+01781100921ADDAA106000091GA1001+999999999GF100991001001999999001001KA1240M+03231MA1999999095991MD1999999-0121REMSYN082AAXX  19004 83236 32998 01802 10214 20178 39599 40092 333 10323 29068 55/// 59012;EQDQ01  00002PRCP06
0186832360999992005051912004-12150-045000FM-12+044099999V0209999C000012200019N0200001N1+02211+01671101221ADDAA106000091GF104991021011012501001051KA1240N+01541MA1999999096261MD1999999-0021REMSYN076AAXX  19124 83236 32698 40000 10221 20167 39626 40122 82105 333 20154 59002;EQDQ01  00002PRCP06
0167832360999992005051918004-12150-045000FM-12+044099999V0203601N001511050019N0200001N1+03121+01561100711ADDAA106000091GF105991031021008001001051MA1999999095821MD1999999+0011REMSYN070AAXX  19184 83236 32598 53603 10312 20156 39582 40071 83205 333 58001;EQDQ01  00002PRCP06
0198832360999992005052000004-12150-045000FM-12+044099999V0202301N001512200019N0200001N1+02061+01801101011ADDAA106000091GF102991021001022501061001KA1240M+03221MA1999999096061MD1999999+0071REMSYN088AAXX  20004 83236 32898 22303 10206 20180 39606 40101 82060 333 10322 29070 55/// 58007;EQDQ01  00002PRCP06
0186832360999992005052012004-12150-045000FM-12+044099999V0203601N001012200019N0200001N1+02291+01771101321ADDAA106000091GF103991001001999999001071KA1240N+01601MA1999999096361MD1999999+0101REMSYN076AAXX  20124 83236 32998 33602 10229 20177 39636 40132 80007 333 20160 58010;EQDQ01  00002PRCP06
0167832360999992005052018004-12150-045000FM-12+044099999V0203601N002611050019N0200001N1+03181+01691100741ADDAA106000091GF105991031021008001001071MA1999999095861MD1999999+0041REMSYN070AAXX  20184 83236 32598 53605 10318 20169 39586 40074 83207 333 58004;EQDQ01  00002PRCP06
0198832360999992005052100004-12150-045000FM-12+044099999V0201401N001510450019N0200001N1+02161+01841101081ADDAA106000091GF105991021011012501061051KA1240M+03251MA1999999096141MD1999999+0081REMSYN088AAXX  21004 83236 32698 51403 10216 20184 39614 40108 82165 333 10325 29070 55/// 58008;EQDQ01  00002PRCP06
0186832360999992005052112004-12150-045000FM-12+044099999V0209999C000010450019N0200001N1+02311+01811101411ADDAA106000091GF106991031011012501061071KA1240N+01661MA1999999096461MD1999999+0101REMSYN076AAXX  21124 83236 32698 60000 10231 20181 39646 40141 83167 333 20166 58010;EQDQ01  00002PRCP06
0167832360999992005052118004-12150-045000FM-12+044099999V0200501N002110450019N0200001N1+03171+01791100831ADDAA106000091GF105991031021008001071051MA1999999095951MD1999999+0091REMSYN070AAXX  21184 83236 32598 50504 10317 20179 39595 40083 83275 333 58009;EQDQ01  00002PRCP06
0198832360999992005052200004-12150-045000FM-12+043999999V0209999C000019999999N0200001N1+02121+01821101091ADDAA106000091GF105991001001999999001071KA1240M+03261MA1999999096151MD1999999+0011REMSYN088AAXX  22004 83236 32998 50000 10212 20182 39615 40109 80007 333 10326 29071 55/// 58001;EQDQ01  00002PRCP06
0186832360999992005052212004-12150-045000FM-12+043999999V0209999C000010450019N0200001N1+02321+01811101281ADDAA106000091GF106991031011012501051071KA1240N+01651MA1999999096331MD1999999-0131REMSYN076AAXX  22124 83236 32698 60000 10232 20181 39633 40128 83157 333 20165 59013;EQDQ01  00002PRCP06
0167832360999992005052218004-12150-045000FM-12+043999999V0203601N003110450019N0200001N1+03271+01721100671ADDAA106000091GF106991031011008001071051MA1999999095871MD1999999-0081REMSYN070AAXX  22184 83236 32598 63606 10327 20172 39587 40067 83175 333 59008;EQDQ01  00002PRCP06
0198832360999992005052300004-12150-045000FM-12+043999999V0209999C000012200019N0200001N1+02271+02051101001ADDAA106000091GF103991021021012501001071KA1240M+03321MA1999999096091MD1999999-0061REMSYN088AAXX  23004 83236 32698 30000 10227 20205 39609 40100 82207 333 10332 29072 55/// 59006;EQDQ01  00002PRCP06
0186832360999992005052312004-12150-045000FM-12+043999999V0209999C000011050019N0200001N1+02391+01841101181ADDAA106000091GF105991031011012501001051KA1240N+01781MA1999999096271MD1999999-0061REMSYN076AAXX  23124 83236 32698 50000 10239 20184 39627 40118 83105 333 20178 59006;EQDQ01  00002PRCP06
0167832360999992005052318004-12150-045000FM-12+043999999V0200501N002110450019N0200001N1+03231+01841100711ADDAA106000091GF106991031021008001071051MA1999999095871MD1999999+0001REMSYN070AAXX  23184 83236 32598 60504 10323 20184 39587 40071 83275 333 58000;EQDQ01  00002PRCP06
0198832360999992005052400004-12150-045000FM-12+044099999V0201801N001012200019N0200001N1+02271+01981100951ADDAA106000091GF103991001001999999001031KA1240M+03301MA1999999096051MD1999999-0041REMSYN088AAXX  24004 83236 32998 31802 10227 20198 39605 40095 80003 333 10330 29071 55/// 59004;EQDQ01  00002PRCP06
0186832360999992005052412004-12150-045000FM-12+044099999V0203601N000512200019N0200001N1+02481+01981101271ADDAA106000091GF104991011011008001031041KA1240N+01861MA1999999096361MD1999999-0091REMSYN076AAXX  24124 83236 32598 43601 10248 20198 39636 40127 81134 333 20186 59009;EQDQ01  00002PRCP06
0167832360999992005052418004-12150-045000FM-12+044099999V0203601N002111050019N0200001N1+03261+01911100691ADDAA106000091GF105991021021008001001051MA1999999095871MD1999999+0001REMSYN070AAXX  24184 83236 32598 53604 10326 20191 39587 40069 82205 333 58000;EQDQ01  00002PRCP06
0198832360999992005052500004-12150-045000FM-12+044099999V0203601N001512200019N0200001N1+02521+02071100991ADDAA106000091GF103991031001022501061001KA1240M+03301MA1999999096121MD1999999+0071REMSYN088AAXX  25004 83236 32898 33603 10252 20207 39612 40099 83060 333 10330 29068 55/// 58007;EQDQ01  00002PRCP06
0186832360999992005052512004-12150-045000FM-12+044099999V0203601N002611050019N0200001N1+02571+02081101301ADDAA106000091GF106991021001022501041051KA1240N+02061MA1999999096421MD1999999+0061REMSYN076AAXX  25124 83236 32898 63605 10257 20208 39642 40130 82045 333 20206 58006;EQDQ01  00002PRCP06
0167832360999992005052518004-12150-045000FM-12+044099999V0203601N004612200019N0200001N1+03171+02071100861ADDAA106000091GF105991021011008001001041MA1999999096021MD1999999+0151REMSYN070AAXX  25184 83236 32598 53609 10317 20207 39602 40086 82104 333 58015;EQDQ01  00002PRCP06
0226832360999992005052600004-12150-045000FM-12+044099999V0201801N001010450019N0100001N1+02411+02111101201ADDAA106000091AY101061AY221061GF108991041071008001071999KA1240M+03291MA1999999096321MD1999999+0201MW1131REMSYN094AAXX  26004 83236 31597 81802 10241 20211 39632 40120 71302 8477/ 333 10329 29073 55/// 58020;EQDQ01  00002PRCP06
0190832360999992005052612004-12150-045000FM-12+044099999V0203201N001510075019N0100001N1+02301+02031101621ADDAY161061AY261061GF107991051051008001041001KA1240N+02041MA1999999096691MD1999999+0271MW1021REMSYN088AAXX  26124 83236 21597 73203 10230 20203 39669 40162 70266 85540 333 20204 58027 60164;
0167832360999992005052618004-12150-045000FM-12+044099999V0201801N002110450019N0100001N1+02731+02191101281ADDAA106000091GF107991021021008001071061MA1999999096391MD1999999+0371REMSYN070AAXX  26184 83236 32597 71804 10273 20219 39639 40128 82276 333 58037;EQDQ01  00002PRCP06
0198832360999992005052700004-12150-045000FM-12+044099999V0209999C000012200019N0200001N1+02271+02161101451ADDAA106000091GF103991031001022501041001KA1240M+02791MA1999999096511MD1999999+0191REMSYN088AAXX  27004 83236 32898 30000 10227 20216 39651 40145 83040 333 10279 29086 55/// 58019;EQDQ01  00002PRCP06
0190832360999992005052712004-12150-045000FM-12+044099999V0201101N020610450019N0100001N1+02411+02051101601ADDAY151061AY251061GF105991021021008001061001KA1240N+02051MA1999999096671MD1999999-0021MW1021REMSYN088AAXX  27124 83236 21597 51140 10241 20205 39667 40160 70255 82260 333 20205 59002 69944;
0195832360999992005052718004-12150-045000FM-12+044099999V0202701N001510075019N0100001N1+02701+02081101281ADDAA106000091AY101061AY291061GF106991051031008001001031MA1999999096361MD1999999-0031MW1151REMSYN076AAXX  27184 83236 31597 62703 10270 20208 39636 40128 71509 85303 333 59003;EQDQ01  00002PRCP06
0198832360999992005052800004-12150-045000FM-12+044099999V0202701N001512200019N0100001N1+02401+02141101451ADDAA106000091GF103991031021008001001001KA1240M+03131MA1999999096541MD1999999+0031REMSYN088AAXX  28004 83236 32597 32703 10240 20214 39654 40145 83200 333 10313 29083 55/// 58003;EQDQ01  00002PRCP06
0186832360999992005052812004-12150-045000FM-12+044099999V0201401N003112200019N0100001N1+02431+01821101611ADDAA106000091GF103991021011008001001091KA1240N+01881MA1999999096691MD1999999+0021REMSYN076AAXX  28124 83236 32597 31406 10243 20182 39669 40161 82109 333 20188 58002;EQDQ01  00002PRCP06
0167832360999992005052818004-12150-045000FM-12+044099999V0200901N003110075019N0100001N1+02721+01821101251ADDAA106000091GF107991071051008001001001MA1999999096431MD1999999+0071REMSYN070AAXX  28184 83236 32597 70906 10272 20182 39643 40125 87500 333 58007;EQDQ01  00002PRCP06
0198832360999992005052900004-12150-045000FM-12+043999999V0202701N002112200019N0100001N1+02141+01971101401ADDAA106000091GF104991041081008001001001KA1240M+02871MA1999999096461MD1999999-0081REMSYN088AAXX  29004 83236 32597 42704 10214 20197 39646 40140 84800 333 10287 29077 55/// 59008;EQDQ01  00002PRCP06
0186832360999992005052912004-12150-045000FM-12+043999999V0201401N003112200019N0200001N1+02371+01821101621ADDAA106000091GF104991041021008001001001KA1240N+01961MA1999999096661MD1999999-0031REMSYN076AAXX  29124 83236 32598 41406 10237 20182 39666 40162 84200 333 20196 59003;EQDQ01  00002PRCP06
0167832360999992005052918004-12150-045000FM-12+043999999V0201801N005110075019N0200001N1+02871+01641101221ADDAA106000091GF106991061021008001001001MA1999999096331MD1999999-0101REMSYN070AAXX  29184 83236 32598 61810 10287 20164 39633 40122 86200 333 59010;EQDQ01  00002PRCP06
0198832360999992005053000004-12150-045000FM-12+044099999V0202301N001012200019N0200001N1+02111+01821101421ADDAA106000091GF104991021061008001001041KA1240M+03041MA1999999096471MD1999999+0011REMSYN088AAXX  30004 83236 32598 42302 10211 20182 39647 40142 82604 333 10304 29071 55/// 58001;EQDQ01  00002PRCP06
0186832360999992005053012004-12150-045000FM-12+044099999V0201801N002112200019N0200001N1+02421+01841101721ADDAA106000091GF103991021011008001001021KA1240N+01791MA1999999096761MD1999999+0101REMSYN076AAXX  30124 83236 32598 31804 10242 20184 39676 40172 82102 333 20179 58010;EQDQ01  00002PRCP06
0167832360999992005053018004-12150-045000FM-12+044099999V0200901N003612200019N0200001N1+02891+01521101261ADDAA106000091GF104991041021008001001001MA1999999096361MD1999999+0031REMSYN070AAXX  30184 83236 32598 40907 10289 20152 39636 40126 84200 333 58003;EQDQ01  00002PRCP06
0198832360999992005053100004-12150-045000FM-12+044099999V0203201N001510075019N0200001N1+02091+01761101421ADDAA106000091GF106991061021008001001001KA1240M+03031MA1999999096471MD1999999+0001REMSYN088AAXX  31004 83236 32598 63203 10209 20176 39647 40142 86200 333 10303 29069 55/// 58000;EQDQ01  00002PRCP06
0186832360999992005053112004-12150-045000FM-12+044099999V0201401N001512200019N0200001N1+02381+01631101711ADDAA106000091GF101991011011008001001001KA1240N+01741MA1999999096771MD1999999+0011REMSYN076AAXX  31124 83236 32598 11403 10238 20163 39677 40171 81100 333 20174 58001;EQDQ01  00002PRCP06
0167832360999992005053118004-12150-045000FM-12+044099999V0201401N005112200019N0200001N1+02991+01711101211ADDAA106000091GF104991041021008001001001MA1999999096331MD1999999-0031REMSYN070AAXX  31184 83236 32598 41410 10299 20171 39633 40121 84200 333 59003;EQDQ01  00002PRCP06
0198832360999992005060100004-12150-045000FM-12+044099999V0202701N001510120019N0100001N1+02271+01881101451ADDAA106000091GF107991071081008001001001KA1240M+03051MA1999999096511MD1999999+0041REMSYN088AAXX  01004 83236 32597 72703 10227 20188 39651 40145 87800 333 10305 29066 55/// 58004;EQDQ01  00002PRCP06
0186832360999992005060112004-12150-045000FM-12+044099999V0201401N003112200019N0200001N1+02381+01781101671ADDAA106000091GF106991021011008001001061KA1240N+01821MA1999999096721MD1999999-0051REMSYN076AAXX  01124 83236 32598 61406 10238 20178 39672 40167 82106 333 20182 59005;EQDQ01  00002PRCP06
0167832360999992005060118004-12150-045000FM-12+044099999V0200901N003110120019N0100001N1+02741+01761101251ADDAA106000091GF108991081081008001999999MA1999999096351MD1999999+0021REMSYN070AAXX  01184 83236 32597 80906 10274 20176 39635 40125 888// 333 58002;EQDQ01  00002PRCP06
0198832360999992005060200004-12150-045000FM-12+044099999V0202701N000512200019N0200001N1+02081+01951101481ADDAA106000091GF104991041021008001001001KA1240M+02851MA1999999096531MD1999999+0021REMSYN088AAXX  02004 83236 32598 42701 10208 20195 39653 40148 84200 333 10285 29077 55/// 58002;EQDQ01  00002PRCP06
0186832360999992005060212004-12150-045000FM-12+044099999V0201401N002110450019N0200001N1+02341+01621101661ADDAA106000091GF107991031021008001071001KA1240N+01981MA1999999096691MD1999999-0031REMSYN076AAXX  02124 83236 32598 71404 10234 20162 39669 40166 83270 333 20198 59003;EQDQ01  00002PRCP06
0167832360999992005060218004-12150-045000FM-12+044099999V0200901N005111050019N0100001N1+02811+01511101221ADDAA106000091GF107991031001022501081061MA1999999096321MD1999999-0031REMSYN070AAXX  02184 83236 32897 70910 10281 20151 39632 40122 83086 333 59003;EQDQ01  00002PRCP06
0214832360999992005060300004-12150-045000FM-12+044099999V0209999C000012200019N0200001N1+02051+01781101431ADDAA106000091GF104991001001999999001051KA1240M+02901MA1999999999999MD1999999-0061REMSYN088AAXX  03004 83236 32998 40000 10205 20178 30964 40143 80005 333 10290 29069 55/// 59006;EQDQ01  00002PRCP06Q02 099643APOSP 
0186832360999992005060312004-12150-045000FM-12+044099999V0201401N004111050019N0200001N1+02331+01551101651ADDAA106000091GF106991041001022501051021KA1240N+01761MA1999999096681MD1999999-0011REMSYN076AAXX  03124 83236 32898 61408 10233 20155 39668 40165 84052 333 20176 59001;EQDQ01  00002PRCP06
0167832360999992005060318004-12150-045000FM-12+044099999V0200901N004110450019N0200001N1+02941+01551101161ADDAA106000091GF105991031021008001041001MA1999999096261MD1999999-0061REMSYN070AAXX  03184 83236 32598 50908 10294 20155 39626 40116 83240 333 59006;EQDQ01  00002PRCP06
0198832360999992005060400004-12150-045000FM-12+044099999V0202701N001012200019N0200001N1+02201+01691101541ADDAA106000091GF104991041081008001001001KA1240M+03051MA1999999096591MD1999999+0121REMSYN088AAXX  04004 83236 32598 42702 10220 20169 39659 40154 84800 333 10305 29062 55/// 58012;EQDQ01  00002PRCP06
0186832360999992005060412004-12150-045000FM-12+043999999V0201401N003612200019N0200001N1+02291+01651101641ADDAA106000091GF101991011011008001001001KA1240N+01691MA1999999096681MD1999999+0001REMSYN076AAXX  04124 83236 32598 11407 10229 20165 39668 40164 81100 333 20169 58000;EQDQ01  00002PRCP06
0167832360999992005060418004-12150-045000FM-12+043999999V0200901N005110075019N0200001N1+02961+01611101211ADDAA106000091GF105991051021008001001001MA1999999096321MD1999999+0061REMSYN070AAXX  04184 83236 32598 50910 10296 20161 39632 40121 85200 333 58006;EQDQ01  00002PRCP06
0198832360999992005060500004-12150-045000FM-12+043999999V0201401N005110450019N0100001N1+02531+01681101481ADDAA106000091GF108991031021008001051999KA1240M+03071MA1999999096561MD1999999-0031REMSYN088AAXX  05004 83236 32597 81410 10253 20168 39656 40148 8325/ 333 10307 29057 55/// 59003;EQDQ01  00002PRCP06
0186832360999992005060512004-12150-045000FM-12+044099999V0201801N003610450019N0100001N1+02251+01621101691ADDAA106000091GF105991031041008001061001KA1240N+02041MA1999999096761MD1999999+0081REMSYN076AAXX  05124 83236 32597 51807 10225 20162 39676 40169 83460 333 20204 58008;EQDQ01  00002PRCP06
0167832360999992005060518004-12150-045000FM-12+044099999V0201401N004610120019N0100001N1+02831+01741101301ADDAA106000091GF107991071081008001001001MA1999999096411MD1999999+0091REMSYN070AAXX  05184 83236 32597 71409 10283 20174 39641 40130 87800 333 58009;EQDQ01  00002PRCP06
0198832360999992005060600004-12150-045000FM-12+044099999V0209999C000012200019N0100001N1+02141+01801101521ADDAA106000091GF103991031021008001001001KA1240M+02931MA1999999096561MD1999999+0001REMSYN088AAXX  06004 83236 32597 30000 10214 20180 39656 40152 83200 333 10293 29070 55/// 58000;EQDQ01  00002PRCP06
0186832360999992005060612004-12150-045000FM-12+044099999V0201401N001510075019N0200001N1+02311+01701101591ADDAA106000091GF105991051021008001001001KA1240N+01901MA1999999096631MD1999999-0131REMSYN076AAXX  06124 83236 32598 51403 10231 20170 39663 40159 85200 333 20190 59013;EQDQ01  00002PRCP06
0167832360999992005060618004-12150-045000FM-12+044099999V0200901N004110075019N0100001N1+02971+01761101091ADDAA106000091GF105991051021008001001001MA1999999096231MD1999999-0161REMSYN070AAXX  06184 83236 32597 50908 10297 20176 39623 40109 85200 333 59016;EQDQ01  00002PRCP06
0198832360999992005060700004-12150-045000FM-12+044099999V0202701N001510075019N0100001N1+02191+01781101351ADDAA106000091GF105991051021008001001001KA1240M+03011MA1999999096411MD1999999+0001REMSYN088AAXX  07004 83236 32597 52703 10219 20178 39641 40135 85200 333 10301 29068 55/// 58000;EQDQ01  00002PRCP06
0186832360999992005060712004-12150-045000FM-12+044099999V0201801N002112200019N0200001N1+02441+01741101491ADDAA106000091GF101991011011008001001001KA1240N+01911MA1999999096571MD1999999-0061REMSYN076AAXX  07124 83236 32598 11804 10244 20174 39657 40149 81100 333 20191 59006;EQDQ01  00002PRCP06
0167832360999992005060718004-12150-045000FM-12+044099999V0201401N004110120019N0200001N1+02891+01751101111ADDAA106000091GF106991061081008001001001MA1999999096241MD1999999+0011REMSYN070AAXX  07184 83236 32598 61408 10289 20175 39624 40111 86800 333 58001;EQDQ01  00002PRCP06
0198832360999992005060800004-12150-045000FM-12+044099999V0209999C000012200019N0200001N1+02281+01771101331ADDAA106000091GF104991041081008001001001KA1240M+02931MA1999999096411MD1999999+0001REMSYN088AAXX  08004 83236 32598 40000 10228 20177 39641 40133 84800 333 10293 29065 55/// 58000;EQDQ01  00002PRCP06
0186832360999992005060812004-12150-045000FM-12+044099999V0201401N004112200019N0200001N1+02301+01681101671ADDAA106000091GF102991001001999999001031KA1240N+01781MA1999999096721MD1999999+0151REMSYN076AAXX  08124 83236 32998 21408 10230 20168 39672 40167 80003 333 20178 58015;EQDQ01  00002PRCP06
0167832360999992005060818004-12150-045000FM-12+044099999V0200901N003110075019N0200001N1+03181+01731101121ADDAA106000091GF105991051021008001001001MA1999999096241MD1999999+0001REMSYN070AAXX  08184 83236 32598 50906 10318 20173 39624 40112 85200 333 58000;EQDQ01  00002PRCP06
0198832360999992005060900004-12150-045000FM-12+044099999V0202701N001510450019N0200001N1+02161+01781101551ADDAA106000091GF105991041021012501061001KA1240M+03321MA1999999096601MD1999999+0191REMSYN088AAXX  09004 83236 32698 52703 10216 20178 39660 40155 84260 333 10332 29067 55/// 58019;EQDQ01  00002PRCP06
0186832360999992005060912004-12150-045000FM-12+044099999V0201401N003112200019N0200001N1+02361+01781101731ADDAA106000091GF103991031011012501001001KA1240N+01821MA1999999096771MD1999999+0051REMSYN076AAXX  09124 83236 32698 31406 10236 20178 39677 40173 83100 333 20182 58005;EQDQ01  00002PRCP06
0167832360999992005060918004-12150-045000FM-12+044099999V0200901N003112200019N0200001N1+02981+01661101231ADDAA106000091GF104991041011012501001001MA1999999096351MD1999999+0111REMSYN070AAXX  09184 83236 32698 40906 10298 20166 39635 40123 84100 333 58011;EQDQ01  00002PRCP06
0208832360999992005061000004-12150-045000FM-12+044099999V0209999C000012200019N0200001N1+02071+01801101511ADDAA106000091GA1001+999999999GF100991001001999999001001KA1240M+03021MA1999999096551MD1999999-0051REMSYN082AAXX  10004 83236 32998 00000 10207 20180 39655 40151 333 10302 29072 55/// 59005;EQDQ01  00002PRCP06
0186832360999992005061012004-12150-045000FM-12+044099999V0201801N001512200019N0200001N1+02221+01531101731ADDAA106000091GF103991021011012501001031KA1240N+01531MA1999999096751MD1999999-0021REMSYN076AAXX  10124 83236 32698 31803 10222 20153 39675 40173 82103 333 20153 59002;EQDQ01  00002PRCP06
0167832360999992005061018004-12150-045000FM-12+044099999V0201401N003112200019N0200001N1+03021+01591101211ADDAA106000091GF104991041021012501001001MA1999999096301MD1999999-0051REMSYN070AAXX  10184 83236 32698 41406 10302 20159 39630 40121 84200 333 59005;EQDQ01  00002PRCP06
0208832360999992005061100004-12150-045000FM-12+044099999V0209999C000012200019N0200001N1+02051+01621101401ADDAA106000091GA1001+999999999GF100991001001999999001001KA1240M+03081MA1999999096441MD1999999-0111REMSYN082AAXX  11004 83236 32998 00000 10205 20162 39644 40140 333 10308 29065 55/// 59011;EQDQ01  00002PRCP06
0196832360999992005061112004-12150-045000FM-12+044099999V0209999C000012200019N0200001N1+02171+01611101661ADDAA106000091GA1001+999999999GF100991001001999999001001KA1240N+01481MA1999999096671MD1999999-0081REMSYN070AAXX  11124 83236 32998 00000 10217 20161 39667 40166 333 20148 59008;EQDQ01  00002PRCP06
0167832360999992005061118004-12150-045000FM-12+044099999V0201401N002612200019N0200001N1+03111+01461101111ADDAA106000091GF103991021011012501001031MA1999999096201MD1999999-0101REMSYN070AAXX  11184 83236 32698 31405 10311 20146 39620 40111 82103 333 59010;EQDQ01  00002PRCP06
0208832360999992005061200004-12150-045000FM-12+043999999V0209999C000012200019N0200001N1+01941+01611101381ADDAA106000091GA1001+999999999GF100991001001999999001001KA1240M+03191MA1999999096391MD1999999-0051REMSYN082AAXX  12004 83236 32998 00000 10194 20161 39639 40138 333 10319 29068 55/// 59005;EQDQ01  00002PRCP06
0186832360999992005061212004-12150-045000FM-12+043999999V0202301N001012200019N0200001N1+02141+01721101721ADDAA106000091GF102991001001999999001031KA1240N+01441MA1999999096721MD1999999+0051REMSYN076AAXX  12124 83236 32998 22302 10214 20172 39672 40172 80003 333 20144 58005;EQDQ01  00002PRCP06
0167832360999992005061218004-12150-045000FM-12+043999999V0200901N003110075019N0200001N1+03081+01641101081ADDAA106000091GF105991051021008001001001MA1999999096171MD1999999-0031REMSYN070AAXX  12184 83236 32598 50906 10308 20164 39617 40108 85200 333 59003;EQDQ01  00002PRCP06
0198832360999992005061300004-12150-045000FM-12+044099999V0202301N001012200019N0200001N1+02001+01661101361ADDAA106000091GF102991001001999999001031KA1240M+03141MA1999999096371MD1999999-0021REMSYN088AAXX  13004 83236 32998 22302 10200 20166 39637 40136 80003 333 10314 29070 55/// 59002;EQDQ01  00002PRCP06
0186832360999992005061312004-12150-045000FM-12+044099999V0201401N001012200019N0200001N1+02281+01661101611ADDAA106000091GF103991001001999999001031KA1240N+01421MA1999999096631MD1999999-0091REMSYN076AAXX  13124 83236 32998 31402 10228 20166 39663 40161 80003 333 20142 59009;EQDQ01  00002PRCP06
0167832360999992005061318004-12150-045000FM-12+044099999V0200901N002112200019N0200001N1+03121+01601101121ADDAA106000091GF103991031021012501001001MA1999999096221MD1999999+0051REMSYN070AAXX  13184 83236 32698 30904 10312 20160 39622 40112 83200 333 58005;EQDQ01  00002PRCP06
0208832360999992005061400004-12150-045000FM-12+044099999V0209999C000012200019N0200001N1+02101+01931101381ADDAA106000091GA1001+999999999GF100991001001999999001001KA1240M+03221MA1999999096431MD1999999+0061REMSYN082AAXX  14004 83236 32998 00000 10210 20193 39643 40138 333 10322 29072 55/// 58006;EQDQ01  00002PRCP06
0186832360999992005061412004-12150-045000FM-12+044099999V0202301N001012200019N0200001N1+02221+01621101711ADDAA106000091GF102991001001999999001031KA1240N+01511MA1999999096731MD1999999+0101REMSYN076AAXX  14124 83236 32998 22302 10222 20162 39673 40171 80003 333 20151 58010;EQDQ01  00002PRCP06
0167832360999992005061418004-12150-045000FM-12+044099999V0200901N002112200019N0200001N1+03191+01711101211ADDAA106000091GF103991031021012501001001MA1999999096281MD1999999+0061REMSYN070AAXX  14184 83236 32698 30904 10319 20171 39628 40121 83200 333 58006;EQDQ01  00002PRCP06
0208832360999992005061500004-12150-045000FM-12+044099999V0209999C000012200019N0200001N1+02131+01801101531ADDAA106000091GA1001+999999999GF100991001001999999001001KA1240M+03261MA1999999096561MD1999999+0131REMSYN082AAXX  15004 83236 32998 00000 10213 20180 39656 40153 333 10326 29068 55/// 58013;EQDQ01  00002PRCP06
0186832360999992005061512004-12150-045000FM-12+044099999V0209999C000012200019N0200001N1+02431+01881101651ADDAA106000091GF104991031011012501001051KA1240N+01691MA1999999096701MD1999999-0031REMSYN076AAXX  15124 83236 32698 40000 10243 20188 39670 40165 83105 333 20169 59003;EQDQ01  00002PRCP06
0167832360999992005061518004-12150-045000FM-12+044099999V0200501N001510120019N0200001N1+03131+01681101161ADDAA106000091GF105991051021012501001001MA1999999096271MD1999999-0011REMSYN070AAXX  15184 83236 32698 50503 10313 20168 39627 40116 85200 333 59001;EQDQ01  00002PRCP06
0198832360999992005061600004-12150-045000FM-12+044099999V0209999C000012200019N0200001N1+02231+01941101401ADDAA106000091GF104991041021012501001001KA1240M+03271MA1999999096481MD1999999-0081REMSYN088AAXX  16004 83236 32698 40000 10223 20194 39648 40140 84200 333 10327 29070 55/// 59008;EQDQ01  00002PRCP06
0186832360999992005061612004-12150-045000FM-12+044099999V0202301N001012200019N0200001N1+02311+01751101581ADDAA106000091GF104991001001999999001051KA1240N+01721MA1999999096631MD1999999-0071REMSYN076AAXX  16124 83236 32998 42302 10231 20175 39663 40158 80005 333 20172 59007;EQDQ01  00002PRCP06
0167832360999992005061618004-12150-045000FM-12+044099999V0200901N002612200019N0200001N1+03231+01691101091ADDAA106000091GF103991031021008001001001MA1999999096231MD1999999-0041REMSYN070AAXX  16184 83236 32598 30905 10323 20169 39623 40109 83200 333 59004;EQDQ01  00002PRCP06
0198832360999992005061700004-12150-045000FM-12+044099999V0209999C000012200019N0200001N1+02211+01841101411ADDAA106000091GF103991031001022501061001KA1240M+03311MA1999999096461MD1999999-0021REMSYN088AAXX  17004 83236 32898 30000 10221 20184 39646 40141 83060 333 10331 29068 55/// 59002;EQDQ01  00002PRCP06
0186832360999992005061712004-12150-045000FM-12+044099999V0209999C000012200019N0200001N1+02341+01761101611ADDAA106000091GF103991001001999999001051KA1240N+01681MA1999999096651MD1999999+0021REMSYN076AAXX  17124 83236 32998 30000 10234 20176 39665 40161 80005 333 20168 58002;EQDQ01  00002PRCP06
0167832360999992005061718004-12150-045000FM-12+044099999V0203201N001511050019N0200001N1+03311+01951101021ADDAA106000091GF105991041021012501001051MA1999999096171MD1999999-0061REMSYN070AAXX  17184 83236 32698 53203 10331 20195 39617 40102 84205 333 59006;EQDQ01  00002PRCP06
0208832360999992005061800004-12150-045000FM-12+044099999V0209999C000012200019N0200001N1+02161+01801101281ADDAA106000091GA1001+999999999GF100991001001999999001001KA1240M+03241MA1999999096341MD1999999-0121REMSYN082AAXX  18004 83236 32998 00000 10216 20180 39634 40128 333 10324 29070 55/// 59012;EQDQ01  00002PRCP06
0186832360999992005061812004-12150-045000FM-12+044099999V0209999C000012200019N0200001N1+02231+01711101531ADDAA106000091GF103991001001999999001031KA1240N+01581MA1999999096571MD1999999-0081REMSYN076AAXX  18124 83236 32998 30000 10223 20171 39657 40153 80003 333 20158 59008;EQDQ01  00002PRCP06
0167832360999992005061818004-12150-045000FM-12+044099999V0203601N001011050019N0200001N1+03261+01421100961ADDAA106000091GF105991021011008001001051MA1999999096091MD1999999-0081REMSYN070AAXX  18184 83236 32598 53602 10326 20142 39609 40096 82105 333 59008;EQDQ01  00002PRCP06
0198832360999992005061900004-12150-045000FM-12+043999999V0201801N001012200019N0200001N1+02141+01801101241ADDAA106000091GF103991011011012501001031KA1240M+03361MA1999999096291MD1999999+0051REMSYN088AAXX  19004 83236 32698 31802 10214 20180 39629 40124 81103 333 10336 29067 55/// 58005;EQDQ01  00002PRCP06
0202832360999992005061912004-12150-045000FM-12+043999999V0209999C000012200019N0500001N1+02331+01701101461ADDAA106000091GF102991001001999999001051KA1240N+01641MA1999999096511MD1999999-0061REMSYN076AAXX  19124 83236 32299 20000 10233 20170 39651 40146 80005 333 20164 59006;EQDQ01+001502SCOLCBQ02  00002PRCP06
0167832360999992005061918004-12150-045000FM-12+043999999V0202701N001512200019N0200001N1+03371+01651101891ADDAA106000091GF104991031021012501001031MA1999999096041MD1999999-0051REMSYN070AAXX  19184 83236 32698 42703 10337 20165 39604 40189 83203 333 59005;EQDQ01  00002PRCP06
0198832360999992005062000004-12150-045000FM-12+043999999V0209999C000012200019N0200001N1+02201+01801101231ADDAA106000091GF102991021001022501061001KA1240M+03431MA1999999096291MD1999999+0001REMSYN088AAXX  20004 83236 32898 20000 10220 20180 39629 40123 82060 333 10343 29065 55/// 58000;EQDQ01  00002PRCP06
0186832360999992005062012004-12150-045000FM-12+043999999V0201801N001012200019N0200001N1+02441+01811101501ADDAA106000091GF104991011011012501001051KA1240N+01721MA1999999096561MD1999999+0051REMSYN076AAXX  20124 83236 32698 41802 10244 20181 39656 40150 81105 333 20172 58005;EQDQ01  00002PRCP06
0167832360999992005062018004-12150-045000FM-12+043999999V0209999C000011050019N0200001N1+03251+01781100991ADDAA106000091GF105991031021008001001051MA1999999096131MD1999999+0091REMSYN070AAXX  20184 83236 32598 50000 10325 20178 39613 40099 83205 333 58009;EQDQ01  00002PRCP06
0198832360999992005062100004-12150-045000FM-12+044099999V0209999C000010450019N0200001N1+02221+01861101211ADDAA106000091GF105991021011012501071051KA1240M+03361MA1999999096301MD1999999+0011REMSYN088AAXX  21004 83236 32698 50000 10222 20186 39630 40121 82175 333 10336 29068 55/// 58001;EQDQ01  00002PRCP06
0186832360999992005062112004-12150-045000FM-12+044099999V0209999C000012200019N0200001N1+02331+01741101581ADDAA106000091GF103991011011012501001031KA1240N+01711MA1999999096631MD1999999+0071REMSYN076AAXX  21124 83236 32698 30000 10233 20174 39663 40158 81103 333 20171 58007;EQDQ01  00002PRCP06
0167832360999992005062118004-12150-045000FM-12+044099999V0201801N001512200019N0200001N1+03261+01641100991ADDAA106000091GF103991031021008001001001MA1999999096131MD1999999+0001REMSYN070AAXX  21184 83236 32598 31803 10326 20164 39613 40099 83200 333 58000;EQDQ01  00002PRCP06
0208832360999992005062200004-12150-045000FM-12+044099999V0209999C000012200019N0200001N1+02231+01801101341ADDAA106000091GA1001+999999999GF100991001001999999001001KA1240M+03471MA1999999096411MD1999999+0111REMSYN082AAXX  22004 83236 32998 00000 10223 20180 39641 40134 333 10347 29066 55/// 58011;EQDQ01  00002PRCP06
0186832360999992005062212004-12150-045000FM-12+044099999V0201401N001512200019N0200001N1+02461+01681101551ADDAA106000091GF102991001001999999001051KA1240N+01741MA1999999096621MD1999999-0011REMSYN076AAXX  22124 83236 32998 21403 10246 20168 39662 40155 80005 333 20174 59001;EQDQ01  00002PRCP06
0167832360999992005062218004-12150-045000FM-12+044099999V0201401N002612200019N0200001N1+03061+01641101171ADDAA106000091GF104991041021008001001001MA1999999096291MD1999999+0161REMSYN070AAXX  22184 83236 32598 41405 10306 20164 39629 40117 84200 333 58016;EQDQ01  00002PRCP06
0198832360999992005062300004-12150-045000FM-12+044099999V0202301N001512200019N0200001N1+02221+01801101461ADDAA106000091GF102991001001999999001051KA1240M+03291MA1999999096541MD1999999+0131REMSYN088AAXX  23004 83236 32998 22303 10222 20180 39654 40146 80005 333 10329 29065 55/// 58013;EQDQ01  00002PRCP06
0186832360999992005062312004-12150-045000FM-12+044099999V0201401N002612200019N0200001N1+02331+01651101781ADDAA106000091GF102991001001999999001051KA1240N+02001MA1999999096821MD1999999+0201REMSYN076AAXX  23124 83236 32998 21405 10233 20165 39682 40178 80005 333 20200 58020;EQDQ01  00002PRCP06
0167832360999992005062318004-12150-045000FM-12+044099999V0201401N001511050019N0200001N1+03021+01691101231ADDAA106000091GF105991031021008001001051MA1999999096361MD1999999+0071REMSYN070AAXX  23184 83236 32598 51403 10302 20169 39636 40123 83205 333 58007;EQDQ01  00002PRCP06
0214832360999992005062400004-12150-045000FM-12+044099999V0201801N002112200019N0200001N1+02311+01581101511ADDAA106000091GF103991001001999999001051KA1240M+03141MA1999999999999MD1999999+0031REMSYN088AAXX  24004 83236 32998 31804 10231 20158 39357 40151 80005 333 10314 29065 55/// 58003;EQDQ01  00002PRCP06Q02 093573APOSP 
0186832360999992005062412004-12150-045000FM-12+044099999V0209999C000010450019N0200001N1+02311+01531101631ADDAA106000091GF105991031011012501061051KA1240N+01661MA1999999096681MD1999999-0141REMSYN076AAXX  24124 83236 32698 50000 10231 20153 39668 40163 83165 333 20166 59014;EQDQ01  00002PRCP06
0167832360999992005062418004-12150-045000FM-12+044099999V0201401N002610450019N0200001N1+03021+01621101161ADDAA106000091GF106991031021008001071051MA1999999096271MD1999999-0091REMSYN070AAXX  24184 83236 32598 61405 10302 20162 39627 40116 83275 333 59009;EQDQ01  00002PRCP06
0198832360999992005062500004-12150-045000FM-12+044099999V0202301N001510450019N0200001N1+02251+01731101511ADDAA106000091GF106991041021008001061051KA1240M+03141MA1999999096571MD1999999+0001REMSYN088AAXX  25004 83236 32598 62303 10225 20173 39657 40151 84265 333 10314 29063 55/// 58000;EQDQ01  00002PRCP06
0186832360999992005062512004-12150-045000FM-12+044099999V0202701N000519999999N0200001N1+02241+01601101601ADDAA106000091GF105991001001999999001061KA1240N+01631MA1999999096651MD1999999-0031REMSYN076AAXX  25124 83236 32998 52701 10224 20160 39665 40160 80006 333 20163 59003;EQDQ01  00002PRCP06
0167832360999992005062518004-12150-045000FM-12+044099999V0201401N003111050019N0200001N1+02991+01881101121ADDAA106000091GF107991041021008001001061MA1999999096221MD1999999-0021REMSYN070AAXX  25184 83236 32598 71406 10299 20188 39622 40112 84206 333 59002;EQDQ01  00002PRCP06
0198832360999992005062600004-12150-045000FM-12+043999999V0202301N001512200019N0100001N1+02451+01811101351ADDAA106000091GF104991041021008001001001KA1240M+03101MA1999999096431MD1999999-0141REMSYN088AAXX  26004 83236 32597 42303 10245 20181 39643 40135 84200 333 10310 29063 55/// 59014;EQDQ01  00002PRCP06
0186832360999992005062612004-12150-045000FM-12+043999999V0201401N001512200019N0200001N1+02301+01651101571ADDAA106000091GF102991021001022501041001KA1240N+01751MA1999999096641MD1999999-0011REMSYN076AAXX  26124 83236 32898 21403 10230 20165 39664 40157 82040 333 20175 59001;EQDQ01  00002PRCP06
0167832360999992005062618004-12150-045000FM-12+043999999V0201401N003112200019N0200001N1+03051+01511101061ADDAA106000091GF104991041021008001001001MA1999999096181MD1999999-0041REMSYN070AAXX  26184 83236 32598 41406 10305 20151 39618 40106 84200 333 59004;EQDQ01  00002PRCP06
0198832360999992005062700004-12150-045000FM-12+044099999V0202301N000512200019N0200001N1+02611+01811101221ADDAA106000091GF104991041021008001001001KA1240M+03091MA1999999096331MD1999999-0101REMSYN088AAXX  27004 83236 32598 42301 10261 20181 39633 40122 84200 333 10309 29057 55/// 59010;EQDQ01  00002PRCP06
0186832360999992005062712004-12150-045000FM-12+044099999V0209999C000012200019N0200001N1+02501+01701101451ADDAA106000091GF101991011011008001001001KA1240N+01761MA1999999096561MD1999999-0081REMSYN076AAXX  27124 83236 32598 10000 10250 20170 39656 40145 81100 333 20176 59008;EQDQ01  00002PRCP06
0167832360999992005062718004-12150-045000FM-12+044099999V0200901N002110075019N0200001N1+03031+01711101071ADDAA106000091GF105991051021008001001001MA1999999096201MD1999999+0021REMSYN070AAXX  27184 83236 32598 50904 10303 20171 39620 40107 85200 333 58002;EQDQ01  00002PRCP06
0198832360999992005062800004-12150-045000FM-12+044099999V0202701N000512200019N0200001N1+02601+01891101171ADDAA106000091GF104991041041008001001001KA1240M+03101MA1999999096301MD1999999-0031REMSYN088AAXX  28004 83236 32598 42701 10260 20189 39630 40117 84400 333 10310 29059 55/// 59003;EQDQ01  00002PRCP06
0186832360999992005062812004-12150-045000FM-12+044099999V0202701N001012200019N0200001N1+02441+01791101661ADDAA106000091GF102991011011008001001041KA1240N+02231MA1999999096731MD1999999+0171REMSYN076AAXX  28124 83236 32598 22702 10244 20179 39673 40166 81104 333 20223 58017;EQDQ01  00002PRCP06
0167832360999992005062818004-12150-045000FM-12+044099999V0200901N002112200019N0200001N1+03181+01611101211ADDAA106000091GF104991031021008001001041MA1999999096361MD1999999+0161REMSYN070AAXX  28184 83236 32598 40904 10318 20161 39636 40121 83204 333 58016;EQDQ01  00002PRCP06
0198832360999992005062900004-12150-045000FM-12+044099999V0202701N001012200019N0200001N1+02181+01651101511ADDAA106000091GF102991021011008001001001KA1240M+03231MA1999999096571MD1999999+0271REMSYN088AAXX  29004 83236 32598 22702 10218 20165 39657 40151 82100 333 10323 29066 55/// 58027;EQDQ01  00002PRCP06
0186832360999992005062912004-12150-045000FM-12+044099999V0201401N002612200019N0200001N1+02301+01481101711ADDAA106000091GF104991001001999999001071KA1240N+01601MA1999999096751MD1999999+0021REMSYN076AAXX  29124 83236 32998 41405 10230 20148 39675 40171 80007 333 20160 58002;EQDQ01  00002PRCP06
0167832360999992005062918004-12150-045000FM-12+044099999V0200901N004612200019N0200001N1+03041+01321101211ADDAA106000091GF102991021011008001001001MA1999999096311MD1999999-0051REMSYN070AAXX  29184 83236 32598 20909 10304 20132 39631 40121 82100 333 59005;EQDQ01  00002PRCP06
0208832360999992005063000004-12150-045000FM-12+044099999V0202701N001512200019N0200001N1+02151+01521101451ADDAA106000091GA1001+999999999GF100991001001999999001001KA1240M+03111MA1999999096491MD1999999-0081REMSYN082AAXX  30004 83236 32998 02703 10215 20152 39649 40145 333 10311 29057 55/// 59008;EQDQ01  00002PRCP06
0186832360999992005063012004-12150-045000FM-12+044099999V0209999C000011050019N0200001N1+02231+01551101771ADDAA106000091GF105991011011008001001071KA1240N+01521MA1999999096801MD1999999+0051REMSYN076AAXX  30124 83236 32598 50000 10223 20155 39680 40177 81107 333 20152 58005;EQDQ01  00002PRCP06
0167832360999992005063018004-12150-045000FM-12+044099999V0201401N004611050019N0200001N1+02911+01161101311ADDAA106000091GF105991011011008001001051MA1999999096381MD1999999+0071REMSYN070AAXX  30184 83236 32598 51409 10291 20116 39638 40131 81105 333 58007;EQDQ01  00002PRCP06
0198832360999992005070100004-12150-045000FM-12+044099999V0202701N001512200019N0200001N1+02111+01341101481ADDAA106000091GF103991001001999999001051KA1240M+02991MA1999999096511MD1999999+0021REMSYN088AAXX  01004 83236 32998 32703 10211 20134 39651 40148 80005 333 10299 29055 55/// 58002;EQDQ01  00002PRCP06
0186832360999992005070112004-12150-045000FM-12+044099999V0202301N000512200019N0200001N1+02181+01491101671ADDAA106000091GF104991011011008001001041KA1240N+01621MA1999999096691MD1999999-0111REMSYN076AAXX  01124 83236 32598 42301 10218 20149 39669 40167 81104 333 20162 59011;EQDQ01  00002PRCP06
0167832360999992005070118004-12150-045000FM-12+044099999V0200901N001512200019N0200001N1+03101+01241101251ADDAA106000091GF105991031021008001001041MA1999999096361MD1999999-0021REMSYN070AAXX  01184 83236 32598 50903 10310 20124 39636 40125 83204 333 59002;EQDQ01  00002PRCP06
0192832360999992005070200004-12150-045000FM-12+043999999V0202301N000512200019N0500001N1+02031+01561101551ADDAA106000091GF100991001001999999001001KA1240M+03161MA1999999096571MD1999999+0061REMSYN082AAXX  02004 83236 32999 02301 10203 20156 39657 40155 333 10316 29061 55/// 58006;EQDQ01  00002PRCP06
0180832360999992005070212004-12150-045000FM-12+043999999V0201801N001012200019N0200001N1+02221+01511101791ADDAA106000091GF100991001001999999001001KA1240N+01461MA1999999096801MD1999999+0111REMSYN070AAXX  02124 83236 32998 01802 10222 20151 39680 40179 333 20146 58011;EQDQ01  00002PRCP06
0167832360999992005070218004-12150-045000FM-12+043999999V0200901N003112200019N0200001N1+03181+01261101181ADDAA106000091GF104991011011008001001041MA1999999096291MD1999999-0061REMSYN070AAXX  02184 83236 32598 40906 10318 20126 39629 40118 81104 333 59006;EQDQ01  00002PRCP06
0192832360999992005070300004-12150-045000FM-12+043999999V0202701N001012200019N0200001N1+02151+01521101581ADDAA106000091GF100991001001999999001001KA1240M+03271MA1999999096621MD1999999-0051REMSYN082AAXX  03004 83236 32998 02702 10215 20152 39662 40158 333 10327 29057 55/// 59005;EQDQ01  00002PRCP06
0180832360999992005070312004-12150-045000FM-12+043999999V0209999C000012200019N0200001N1+02101+01421101841ADDAA106000091GF100991001001999999001001KA1240N+01411MA1999999096851MD1999999+0051REMSYN070AAXX  03124 83236 32998 00000 10210 20142 39685 40184 333 20141 58005;EQDQ01  00002PRCP06
0167832360999992005070318004-12150-045000FM-12+043999999V0201401N002112200019N0200001N1+03181+01401101211ADDAA106000091GF102991021011008001001001MA1999999096321MD1999999+0031REMSYN070AAXX  03184 83236 32598 21404 10318 20140 39632 40121 82100 333 58003;EQDQ01  00002PRCP06
0198832360999992005070400004-12150-045000FM-12+043999999V0202701N001012200019N0200001N1+02071+01561101541ADDAA106000091GF104991001001999999001041KA1240M+03211MA1999999096561MD1999999-0061REMSYN088AAXX  04004 83236 32998 42702 10207 20156 39656 40154 80004 333 10321 29061 55105 59006;EQDQ01  00002PRCP06
0180832360999992005070412004-12150-045000FM-12+043999999V0202301N000512200019N0200001N1+02091+01371101711ADDAA106000091GF100991001001999999001001KA1240N+01341MA1999999096721MD1999999-0131REMSYN070AAXX  04124 83236 32998 02301 10209 20137 39672 40171 333 20134 59013;EQDQ01  00002PRCP06
0167832360999992005070418004-12150-045000FM-12+043999999V0202301N002112200019N0200001N1+03021+01351101221ADDAA106000091GF104991041021008001001001MA1999999096271MD1999999-0051REMSYN070AAXX  04184 83236 32598 42304 10302 20135 39627 40122 84200 333 59005;EQDQ01  00002PRCP06
0198832360999992005070500004-12150-045000FM-12+043999999V0209999C000012200019N0200001N1+02201+01631101441ADDAA106000091GF103991031021008001001001KA1240M+03161MA1999999096471MD1999999-0091REMSYN088AAXX  05004 83236 32598 30000 10220 20163 39647 40144 83200 333 10316 29060 55095 59009;EQDQ01  00002PRCP06
0186832360999992005070512004-12150-045000FM-12+043999999V0201801N000512200019N0200001N1+02181+01471101781ADDAA106000091GF105991021001022501041091KA1240N+01461MA1999999096811MD1999999+0091REMSYN076AAXX  05124 83236 32898 51801 10218 20147 39681 40178 82049 333 20146 58009;EQDQ01  00002PRCP06
0167832360999992005070518004-12150-045000FM-12+043999999V0201801N001510075019N0200001N1+02931+01101101311ADDAA106000091GF105991051021008001001001MA1999999096381MD1999999+0111REMSYN070AAXX  05184 83236 32598 51803 10293 20110 39638 40131 85200 333 58011;EQDQ01  00002PRCP06
0198832360999992005070600004-12150-045000FM-12+043999999V0209999C000012200019N0200001N1+02261+01541101431ADDAA106000091GF104991041021008001001001KA1240M+03151MA1999999096601MD1999999+0131REMSYN088AAXX  06004 83236 32598 40000 10226 20154 39660 40143 84200 333 10315 29056 55086 58013;EQDQ01  00002PRCP06
0186832360999992005070612004-12150-045000FM-12+043999999V0201801N000512200019N0200001N1+02011+01461101811ADDAA106000091GF104991021011008001001041KA1240N+01361MA1999999096831MD1999999+0021REMSYN076AAXX  06124 83236 32598 41801 10201 20146 39683 40181 82104 333 20136 58002;EQDQ01  00002PRCP06
0167832360999992005070618004-12150-045000FM-12+043999999V0202701N002112200019N0200001N1+03231+00991101311ADDAA106000091GF103991011011008001001021MA1999999096401MD1999999+0021REMSYN070AAXX  06184 83236 32598 32704 10323 20099 39640 40131 81102 333 58002;EQDQ01  00002PRCP06
0192832360999992005070700004-12150-045000FM-12+043999999V0209999C000012200019N0200001N1+01981+01521101671ADDAA106000091GF100991001001999999001001KA1240M+03271MA1999999096661MD1999999+0061REMSYN082AAXX  07004 83236 32998 00000 10198 20152 39666 40167 333 10327 29062 55099 58006;EQDQ01  00002PRCP06
0180832360999992005070712004-12150-045000FM-12+043999999V0201801N001512200019N0200001N1+02131+01261101881ADDAA106000091GF100991001001999999001001KA1240N+01281MA1999999096871MD1999999+0041REMSYN070AAXX  07124 83236 32998 01803 10213 20126 39687 40188 333 20128 58004;EQDQ01  00002PRCP06
0167832360999992005070718004-12150-045000FM-12+043999999V0201401N001012200019N0200001N1+03031+01261101381ADDAA106000091GF103991031011008001001011MA1999999096431MD1999999+0031REMSYN070AAXX  07184 83236 32598 31402 10303 20126 39643 40138 83101 333 58003;EQDQ01  00002PRCP06
0198832360999992005070800004-12150-045000FM-12+043999999V0202701N000512200019N0200001N1+02221+01501101591ADDAA106000091GF104991041021008001001001KA1240M+03181MA1999999096631MD1999999-0031REMSYN088AAXX  08004 83236 32598 42701 10222 20150 39663 40159 84200 333 10318 29053 55089 59003;EQDQ01  00002PRCP06
0186832360999992005070812004-12150-045000FM-12+043999999V0200901N004612200019N0200001N1+02361+01461101811ADDAA106000091GF103991011011008001001041KA1240N+01661MA1999999096871MD1999999+0001REMSYN076AAXX  08124 83236 32598 30909 10236 20146 39687 40181 81104 333 20166 58000;EQDQ01  00002PRCP06
0167832360999992005070818004-12150-045000FM-12+043999999V0201801N004110075019N0200001N1+03161+01431101321ADDAA106000091GF105991051021008001001001MA1999999096471MD1999999+0041REMSYN070AAXX  08184 83236 32598 51808 10316 20143 39647 40132 85200 333 58004;EQDQ01  00002PRCP06
0198832360999992005070900004-12150-045000FM-12+043999999V0201801N001512200019N0200001N1+02321+01391101651ADDAA106000091GF103991031061008001001001KA1240M+03211MA1999999096721MD1999999+0091REMSYN088AAXX  09004 83236 32598 31803 10232 20139 39672 40165 83600 333 10321 29051 55080 58009;EQDQ01  00002PRCP06
0186832360999992005070912004-12150-045000FM-12+043999999V0201401N003612200019N0200001N1+02111+01341102081ADDAA106000091GF103991031011008001001001KA1240N+01651MA1999999097091MD1999999+0221REMSYN076AAXX  09124 83236 32598 31407 10211 20134 39709 40208 83100 333 20165 58022;EQDQ01  00002PRCP06
0167832360999992005070918004-12150-045000FM-12+043999999V0201401N004112200019N0200001N1+02881+01351101551ADDAA106000091GF103991031011008001001001MA1999999096641MD1999999+0171REMSYN070AAXX  09184 83236 32598 31408 10288 20135 39664 40155 83100 333 58017;EQDQ01  00002PRCP06
0198832360999992005071000004-12150-045000FM-12+043999999V0202701N002112200019N0200001N1+01891+01251101831ADDAA106000091GF102991021011008001001001KA1240M+02931MA1999999096821MD1999999+0101REMSYN088AAXX  10004 83236 32598 22704 10189 20125 39682 40183 82100 333 10293 29059 55104 58010;EQDQ01  00002PRCP06
0186832360999992005071012004-12150-045000FM-12+043999999V0201801N002111050019N0200001N1+01981+01131102041ADDAA106000091GF105991021011012501061031KA1240N+01271MA1999999097011MD1999999-0081REMSYN076AAXX  10124 83236 32698 51804 10198 20113 39701 40204 82163 333 20127 59008;EQDQ01  00002PRCP06
0167832360999992005071018004-12150-045000FM-12+043999999V0201401N002611050019N0200001N1+02881+01141101361ADDAA106000091GF105991031021012501001051MA1999999096421MD1999999-0221REMSYN070AAXX  10184 83236 32698 51405 10288 20114 39642 40136 83205 333 59022;EQDQ01  00002PRCP06
0198832360999992005071100004-12150-045000FM-12+043999999V0202701N001012200019N0200001N1+01901+01231101741ADDAA106000091GF102991001001999999001031KA1240M+02921MA1999999096721MD1999999+0101REMSYN088AAXX  11004 83236 32998 22702 10190 20123 39672 40174 80003 333 10292 29056 55102 58010;EQDQ01  00002PRCP06
0180832360999992005071112004-12150-045000FM-12+043999999V0202301N001012200019N0200001N1+02021+01221101981ADDAA106000091GF100991001001999999001001KA1240N+01321MA1999999096951MD1999999-0061REMSYN070AAXX  11124 83236 32998 02302 10202 20122 39695 40198 333 20132 59006;EQDQ01  00002PRCP06
0167832360999992005071118004-12150-045000FM-12+043999999V0200901N003112200019N0200001N1+03001+01101101401ADDAA106000091GF103991031021012501001001MA1999999096441MD1999999+0021REMSYN070AAXX  11184 83236 32698 30906 10300 20110 39644 40140 83200 333 58002;EQDQ01  00002PRCP06
0198832360999992005071200004-12150-045000FM-12+043999999V0202701N001512200019N0200001N1+02071+01211101681ADDAA106000091GF103991011001022501061031KA1240M+03061MA1999999096681MD1999999-0041REMSYN088AAXX  12004 83236 32898 32703 10207 20121 39668 40168 81063 333 10306 29052 55104 59004;EQDQ01  00002PRCP06
0186832360999992005071212004-12150-045000FM-12+043999999V0201801N002612200019N0200001N1+02201+01461101881ADDAA106000091GF102991021001022501061001KA1240N+01561MA1999999096891MD1999999-0041REMSYN076AAXX  12124 83236 32898 21805 10220 20146 39689 40188 82060 333 20156 59004;EQDQ01  00002PRCP06
0167832360999992005071218004-12150-045000FM-12+043999999V0201401N004112200019N0200001N1+02981+01311101441ADDAA106000091GF103991031021008001001001MA1999999096421MD1999999-0021REMSYN070AAXX  12184 83236 32598 31408 10298 20131 39642 40144 83200 333 59002;EQDQ01  00002PRCP06
0198832360999992005071300004-12150-045000FM-12+043999999V0202301N001010120019N0200001N1+02271+01711101561ADDAA106000091GF105991051021012501001001KA1240M+03071MA1999999096611MD1999999-0071REMSYN088AAXX  13004 83236 32698 52302 10227 20171 39661 40156 85200 333 10307 29060 55105 59007;EQDQ01  00002PRCP06
0186832360999992005071312004-12150-045000FM-12+043999999V0201401N002612200019N0200001N1+02241+01431101781ADDAA106000091GF102991021001022501061001KA1240N+01881MA1999999096821MD1999999-0071REMSYN076AAXX  13124 83236 32898 21405 10224 20143 39682 40178 82060 333 20188 59007;EQDQ01  00002PRCP06
0167832360999992005071318004-12150-045000FM-12+043999999V0200901N003110120019N0200001N1+02941+01321101221ADDAA106000091GF105991051021012501001001MA1999999096531MD1999999-0071REMSYN070AAXX  13184 83236 32698 50906 10294 20132 39653 40122 85200 333 59007;EQDQ01  00002PRCP06
0198832360999992005071400004-12150-045000FM-12+043999999V0202701N001510120019N0200001N1+02221+01461101491ADDAA106000091GF105991051021012501061001KA1240M+03051MA1999999096541MD1999999-0071REMSYN088AAXX  14004 83236 32698 52703 10222 20146 39654 40149 85260 333 10305 29055 55091 59007;EQDQ01  00002PRCP06
0180832360999992005071412004-12150-045000FM-12+043999999V0201401N003112200019N0200001N1+02201+01281101731ADDAA106000091GF100991001001999999001001KA1240N+01601MA1999999096761MD1999999-0061REMSYN070AAXX  14124 83236 32998 01406 10220 20128 39676 40173 333 20160 59006;EQDQ01  00002PRCP06
0167832360999992005071418004-12150-045000FM-12+043999999V0200901N002112200019N0200001N1+02961+01121101201ADDAA106000091GF103991031021012501001001MA1999999096301MD1999999+0051REMSYN070AAXX  14184 83236 32698 30904 10296 20112 39630 40120 83200 333 58005;EQDQ01  00002PRCP06
0198832360999992005071500004-12150-045000FM-12+043999999V0202301N001510120019N0200001N1+02101+01271101501ADDAA106000091GF106991051021012501071001KA1240M+03071MA1999999096531MD1999999-0011REMSYN088AAXX  15004 83236 32698 62303 10210 20127 39653 40150 85270 333 10307 29052 55103 59001;EQDQ01  00002PRCP06
0186832360999992005071512004-12150-045000FM-12+043999999V0200901N001512200019N0200001N1+02341+01411101761ADDAA106000091GF104991041021012501001001KA1240N+01851MA1999999096791MD1999999+0031REMSYN076AAXX  15124 83236 32698 40903 10234 20141 39679 40176 84200 333 20185 58003;EQDQ01  00002PRCP06
0167832360999992005071518004-12150-045000FM-12+043999999V0200901N002612200019N0200001N1+02841+01391101201ADDAA106000091GF104991041021008001001001MA1999999096361MD1999999+0061REMSYN070AAXX  15184 83236 32598 40905 10284 20139 39636 40120 84200 333 58006;EQDQ01  00002PRCP06
0198832360999992005071600004-12150-045000FM-12+043999999V0209999C000010075019N0200001N1+02161+01541101471ADDAA106000091GF105991051021008001001001KA1240M+02941MA1999999096521MD1999999-0011REMSYN088AAXX  16004 83236 32598 50000 10216 20154 39652 40147 85200 333 10294 29058 55067 59001;EQDQ01  00002PRCP06
0186832360999992005071612004-12150-045000FM-12+043999999V0209999C000012200019N0200001N1+02101+01541101731ADDAA106000091GF102991021021012501001001KA1240N+01501MA1999999096751MD1999999-0041REMSYN076AAXX  16124 83236 32698 20000 10210 20154 39675 40173 82200 333 20150 59004;EQDQ01  00002PRCP06
0167832360999992005071618004-12150-045000FM-12+043999999V0203601N002112200019N0200001N1+03121+01351101191ADDAA106000091GF104991021011012501001071MA1999999096281MD1999999-0081REMSYN070AAXX  16184 83236 32698 43604 10312 20135 39628 40119 82107 333 59008;EQDQ01  00002PRCP06
0192832360999992005071700004-12150-045000FM-12+043999999V0209999C000012200019N0200001N1+01961+01481101451ADDAA106000091GF100991001001999999001001KA1240M+03191MA1999999096461MD1999999-0061REMSYN082AAXX  17004 83236 32998 00000 10196 20148 39646 40145 333 10319 29062 55105 59006;EQDQ01  00002PRCP06
0180832360999992005071712004-12150-045000FM-12+043999999V0209999C000012200019N0200001N1+02051+01431101711ADDAA106000091GF100991001001999999001001KA1240N+01401MA1999999096701MD1999999-0051REMSYN070AAXX  17124 83236 32998 00000 10205 20143 39670 40171 333 20140 59005;EQDQ01  00002PRCP06
0183832360999992005071718004-12150-045000FM-12+043999999V0209999C000012200019N0200001N1+03151+01361101181ADDAA106000091GF102991999001012501001001MA1999999096261MD1999999-0021REMSYN070AAXX  17184 83236 32698 20000 10315 20136 39626 40118 81000 333 59002;EQDQ01+000012SCOTLCQ02  00002PRCP06
0192832360999992005071800004-12150-045000FM-12+043999999V0202301N001012200019N0200001N1+02101+01461101391ADDAA106000091GF100991001001999999001001KA1240M+03261MA1999999096411MD1999999-0051REMSYN082AAXX  18004 83236 32998 02302 10210 20146 39641 40139 333 10326 29059 55103 59005;EQDQ01  00002PRCP06
0186832360999992005071812004-12150-045000FM-12+043999999V0209999C000012200019N0200001N1+02201+01461101581ADDAA106000091GF104991041011012501061001KA1240N+01621MA1999999096611MD1999999-0091REMSYN076AAXX  18124 83236 32698 40000 10220 20146 39661 40158 84160 333 20162 59009;EQDQ01  00002PRCP06
0167832360999992005071818004-12150-045000FM-12+043999999V0203601N001010450019N0200001N1+03141+01271101011ADDAA106000091GF105991031021008001051001MA1999999096131MD1999999-0131REMSYN070AAXX  18184 83236 32598 53602 10314 20127 39613 40101 83250 333 59013;EQDQ01  00002PRCP06
0214832360999992005071900004-12150-045000FM-12+043999999V0209999C000012200019N0200001N1+02131+01511101321ADDAA106000091GF102991999001022501061001KA1240M+03211MA1999999096361MD1999999-0051REMSYN088AAXX  19004 83236 32898 20000 10213 20151 39636 40132 80060 333 10321 29058 55078 59005;EQDQ01+000002SCOTLCQ02  00002PRCP06
0180832360999992005071912004-12150-045000FM-12+043999999V0200501N001512200019N0200001N1+02431+01401101511ADDAA106000091GF100991001001999999001001KA1240N+01541MA1999999096571MD1999999-0041REMSYN070AAXX  19124 83236 32998 00503 10243 20140 39657 40151 333 20154 59004;EQDQ01  00002PRCP06
0137832360999992005071918004-12150-045000FM-12+043999999V0201801N002110075019N0200001N1+03221+01481101091ADDGF105991051021008001001001MA1999999096201MD1999999+0071REMSYN070AAXX  19184 83236 32598 51804 10322 20148 39620 40109 85200 333 58007;
0168832360999992005072000004-12150-045000FM-12+043999999V0209999C000012200019N0200001N1+02081+01491101331ADDGF102991001001999999001051KA1240M+03411MA1999999096391MD1999999+0031REMSYN088AAXX  20004 83236 32998 20000 10208 20149 39639 40133 80005 333 10341 29057 55101 58003;
0156832360999992005072012004-12150-045000FM-12+043999999V0202301N001512200019N0200001N1+02251+01291101611ADDGF102991001001999999001051KA1240N+01381MA1999999096641MD1999999+0071REMSYN076AAXX  20124 83236 32998 22303 10225 20129 39664 40161 80005 333 20138 58007;
0137832360999992005072018004-12150-045000FM-12+043999999V0201801N002112200019N0200001N1+03321+01031101031ADDGF102991001001999999001031MA1999999096141MD1999999-0061REMSYN070AAXX  20184 83236 32998 21804 10332 20103 39614 40103 80003 333 59006;
0168832360999992005072100004-12150-045000FM-12+043999999V0202301N001512200019N0200001N1+02201+01311101351ADDGF102991001001999999001051KA1240M+03391MA1999999096401MD1999999-0011REMSYN088AAXX  21004 83236 32998 22303 10220 20131 39640 40135 80005 333 10339 29049 55105 59001;
0156832360999992005072112004-12150-045000FM-12+043999999V0200901N001510450019N0200001N1+02441+01861101651ADDGF106991041021008001051071KA1240N+01771MA1999999096701MD1999999+0061REMSYN076AAXX  21124 83236 32598 60903 10244 20186 39670 40165 84257 333 20177 58006;
0137832360999992005072118004-12150-045000FM-12+043999999V0200901N003611050019N0200001N1+02931+01771101251ADDGF106991041021008001001051MA1999999096351MD1999999+0211REMSYN070AAXX  21184 83236 32598 60907 10293 20177 39635 40125 84205 333 58021;
0168832360999992005072200004-12150-045000FM-12+043999999V0201401N003610075019N0100001N1+02631+01641101541ADDGF108991061041008001061999KA1240M+03071MA1999999096651MD1999999+0251REMSYN088AAXX  22004 83236 32597 81407 10263 20164 39665 40154 8646/ 333 10307 29058 55044 58025;
0156832360999992005072212004-12150-045000FM-12+043999999V0201801N002112200019N0200001N1+02371+01641101841ADDGF102991021021012501001001KA1240N+01961MA1999999096931MD1999999+0231REMSYN076AAXX  22124 83236 32698 21804 10237 20164 39693 40184 82200 333 20196 58023;
0137832360999992005072218004-12150-045000FM-12+043999999V0201401N001512200019N0200001N1+03031+01551101291ADDGF104991041021008001001001MA1999999096421MD1999999+0071REMSYN070AAXX  22184 83236 32598 41403 10303 20155 39642 40129 84200 333 58007;
0168832360999992005072300004-12150-045000FM-12+043999999V0209999C000012200019N0200001N1+02251+01571101561ADDGF102991021021012501001001KA1240M+03141MA1999999096621MD1999999-0031REMSYN088AAXX  23004 83236 32698 20000 10225 20157 39662 40156 82200 333 10314 29059 55101 59003;
0156832360999992005072312004-12150-045000FM-12+043999999V0209999C000011050019N0200001N1+02331+01391101821ADDGF105991011011012501001071KA1240N+01601MA1999999096861MD1999999-0071REMSYN076AAXX  23124 83236 32698 50000 10233 20139 39686 40182 81107 333 20160 59007;
0137832360999992005072318004-12150-045000FM-12+043999999V0201401N003612200019N0200001N1+03041+01231101301ADDGF104991021021008001001051MA1999999096421MD1999999+0001REMSYN070AAXX  23184 83236 32598 41407 10304 20123 39642 40130 82205 333 58000;
0168832360999992005072400004-12150-045000FM-12+043999999V0202701N001511050019N0200001N1+02371+01401101481ADDGF105991031021012501001071KA1240M+03131MA1999999096551MD1999999-0071REMSYN088AAXX  24004 83236 32698 52703 10237 20140 39655 40148 83207 333 10313 29050 55098 59007;
0156832360999992005072412004-12150-045000FM-12+043999999V0201401N001512200019N0200001N1+02381+01421101851ADDGF104991031011012501061001KA1240N+01841MA1999999096911MD1999999+0051REMSYN076AAXX  24124 83236 32698 41403 10238 20142 39691 40185 83160 333 20184 58005;
0137832360999992005072418004-12150-045000FM-12+043999999V0200901N004612200019N0200001N1+03131+01051101331ADDGF102991021011012501001001MA1999999096431MD1999999+0011REMSYN070AAXX  24184 83236 32698 20909 10313 20105 39643 40133 82100 333 58001;
0168832360999992005072500004-12150-045000FM-12+043999999V0209999C000012200019N0200001N1+02231+01481101551ADDGF104991041001022501061001KA1240M+03191MA1999999096611MD1999999+0061REMSYN088AAXX  25004 83236 32898 40000 10223 20148 39661 40155 84060 333 10319 29053 55098 58006;
0156832360999992005072512004-12150-045000FM-12+043999999V0209999C000012200019N0200001N1+02201+01561101961ADDGF103991011011008001061001KA1240N+01621MA1999999096981MD1999999+0071REMSYN076AAXX  25124 83236 32598 30000 10220 20156 39698 40196 81160 333 20162 58007;
0137832360999992005072518004-12150-045000FM-12+043999999V0201801N002612200019N0200001N1+03111+01331101381ADDGF104991041021008001001001MA1999999096481MD1999999+0051REMSYN070AAXX  25184 83236 32598 41805 10311 20133 39648 40138 84200 333 58005;
0162832360999992005072600004-12150-045000FM-12+043999999V0202301N001512200019N0200001N1+02361+01321101681ADDGF100991001001999999001001KA1240M+03191MA1999999096731MD1999999+0121REMSYN082AAXX  26004 83236 32998 02303 10236 20132 39673 40168 333 10319 29051 55/// 58012;
0150832360999992005072612004-12150-045000FM-12+043999999V0200501N000512200019N0200001N1+02241+01351101911ADDGF100991001001999999001001KA1240N+01461MA1999999096951MD1999999-0031REMSYN070AAXX  26124 83236 32998 00501 10224 20135 39695 40191 333 20146 59003;
0137832360999992005072618004-12150-045000FM-12+043999999V0201801N002612200019N0200001N1+03201+01231101281ADDGF103991021011008001001041MA1999999096381MD1999999-0101REMSYN070AAXX  26184 83236 32598 31805 10320 20123 39638 40128 82104 333 59010;
0162832360999992005072700004-12150-045000FM-12+043999999V0202301N002112200019N0200001N1+02231+01181101561ADDGF100991001001999999001001KA1240M+03281MA1999999096611MD1999999-0121REMSYN082AAXX  27004 83236 32998 02304 10223 20118 39661 40156 333 10328 29047 55102 59012;
0156832360999992005072712004-12150-045000FM-12+043999999V0209999C000012200019N0200001N1+02261+01391101841ADDGF102991001001999999001011KA1240N+01411MA1999999096861MD1999999-0091REMSYN076AAXX  27124 83236 32998 20000 10226 20139 39686 40184 80001 333 20141 59009;
0137832360999992005072718004-12150-045000FM-12+043999999V0201401N004612200019N0200001N1+03261+00811101291ADDGF103991011011008001001041MA1999999096381MD1999999+0001REMSYN070AAXX  27184 83236 32598 31409 10326 20081 39638 40129 81104 333 58000;
0162832360999992005072800004-12150-045000FM-12+043999999V0209999C000012200019N0200001N1+02191+01111101561ADDGF100991001001999999001001KA1240M+03311MA1999999096601MD1999999-0011REMSYN082AAXX  28004 83236 32998 00000 10219 20111 39660 40156 333 10331 29045 55106 59001;
0150832360999992005072812004-12150-045000FM-12+043999999V0209999C000012200019N0500001N1+02201+01251101921ADDGF100991001001999999001001KA1240N+01341MA1999999096941MD1999999+0081REMSYN070AAXX  28124 83236 32999 00000 10220 20125 39694 40192 333 20134 58008;
0131832360999992005072818004-12150-045000FM-12+043999999V0201401N004612200019N0500001N1+03201+00831101431ADDGF100991001001999999001001MA1999999096511MD1999999+0131REMSYN064AAXX  28184 83236 32999 01409 10320 20083 39651 40143 333 58013;
0162832360999992005072900004-12150-045000FM-12+043999999V0202301N001012200019N0200001N1+02151+01141101681ADDGF100991001001999999001001KA1240M+03231MA1999999096701MD1999999+0101REMSYN082AAXX  29004 83236 32998 02302 10215 20114 39670 40168 333 10323 29046 55107 58010;
0137832360999992005072918004-12150-045000FM-12+043999999V0201401N004612200019N0500001N1+03121+00881101341ADDGF102991011011008001001011MA1999999096431MD1999999-0081REMSYN070AAXX  29184 83236 32599 21409 10312 20088 39643 40134 81101 333 59008;
0162832360999992005073000004-12150-045000FM-12+043999999V0209999C000012200019N0200001N1+02151+01201101671ADDGF100991001001999999001001KA1240M+03211MA1999999096651MD1999999-0051REMSYN082AAXX  30004 83236 32998 00000 10215 20120 39665 40167 333 10321 29048 55105 59005;
0156832360999992005073012004-12150-045000FM-12+043999999V0209999C000012200019N0200001N1+02191+01421101871ADDGF102991011011008001001011KA1240N+01421MA1999999096881MD1999999-0021REMSYN076AAXX  30124 83236 32598 20000 10219 20142 39688 40187 81101 333 20142 59002;
0137832360999992005073018004-12150-045000FM-12+043999999V0200901N003612200019N0200001N1+03091+01041101291ADDGF104991041021008001001001MA1999999096371MD1999999-0031REMSYN070AAXX  30184 83236 32598 40907 10309 20104 39637 40129 84200 333 59003;
0162832360999992005073100004-12150-045000FM-12+043999999V0202301N000512200019N0200001N1+02251+01291101531ADDGF100991001001999999001001KA1240M+03181MA1999999096571MD1999999-0081REMSYN082AAXX  31004 83236 32998 02301 10225 20129 39657 40153 333 10318 29048 55101 59008;
0150832360999992005073112004-12150-045000FM-12+043999999V0202301N000512200019N0500001N1+02331+01471101721ADDGF100991001001999999001001KA1240N+01421MA1999999096771MD1999999-0111REMSYN070AAXX  31124 83236 32999 02301 10233 20147 39677 40172 333 20142 59011;
0137832360999992005073118004-12150-045000FM-12+043999999V0201801N003612200019N0500001N1+03101+01091101211ADDGF104991011011008001001071MA1999999096301MD1999999-0071REMSYN070AAXX  31184 83236 32599 41807 10310 20109 39630 40121 81107 333 59007;
0178832360999992005080100004-12150-045000FM-12+043999999V0202701N001012200019N0200001N1+02171+01321101511ADDGA1001+999999999GF100991001001999999001001KA1240M+03171MA1999999096561MD1999999-0011REMSYN082AAXX  01004 83236 32998 02702 10217 20132 39656 40151 333 10317 29051 55098 59001;
0166832360999992005080112004-12150-045000FM-12+043999999V0201801N001012200019N0500001N1+02161+01191101931ADDGA1001+999999999GF100991001001999999001001KA1240N+01401MA1999999096941MD1999999+0171REMSYN070AAXX  01124 83236 32999 01802 10216 20119 39694 40193 333 20140 58017;
0147832360999992005080118004-12150-045000FM-12+043999999V0201801N003112200019N0500001N1+03051+00871101291ADDGA1001+999999999GF100991001001999999001001MA1999999096391MD1999999+0091REMSYN064AAXX  01184 83236 32999 01806 10305 20087 39639 40129 333 58009;
0178832360999992005080200004-12150-045000FM-12+043999999V0201801N001512200019N0200001N1+02261+00941101541ADDGA1001+999999999GF100991001001999999001001KA1240M+03201MA1999999096581MD1999999+0021REMSYN082AAXX  02004 83236 32998 01803 10226 20094 39658 40154 333 10320 29042 55104 58002;
0166832360999992005080212004-12150-045000FM-12+043999999V0203601N001512200019N0500001N1+02391+01321101731ADDGA1001+999999999GF100991001001999999001001KA1240N+01521MA1999999096781MD1999999-0161REMSYN070AAXX  02124 83236 32999 03603 10239 20132 39678 40173 333 20152 59016;
0137832360999992005080218004-12150-045000FM-12+043999999V0200901N003112200019N0500001N1+02961+01211101331ADDGF104991041021008001001001MA1999999096391MD1999999+0001REMSYN070AAXX  02184 83236 32599 40906 10296 20121 39639 40133 84200 333 58000;
0168832360999992005080300004-12150-045000FM-12+043999999V0201401N004612200019N0200001N1+02451+01331101521ADDGF104991021021008001061001KA1240M+03091MA1999999096601MD1999999+0021REMSYN088AAXX  03004 83236 32598 41409 10245 20133 39660 40152 82260 333 10309 29046 55098 58002;
0156832360999992005080312004-12150-045000FM-12+043999999V0202701N000512200019N0500001N1+02331+01241101721ADDGF102991011011008001041001KA1240N+01701MA1999999096791MD1999999+0011REMSYN076AAXX  03124 83236 32599 22701 10233 20124 39679 40172 81140 333 20170 58001;
0137832360999992005080318004-12150-045000FM-12+043999999V0200901N005110075019N0200001N1+02931+01301101281ADDGF105991051021008001001001MA1999999096371MD1999999-0021REMSYN070AAXX  03184 83236 32598 50910 10293 20130 39637 40128 85200 333 59002;
0168832360999992005080400004-12150-045000FM-12+043999999V0209999C000010120019N0200001N1+02501+01421101501ADDGF107991071081008001001001KA1240M+03151MA1999999096581MD1999999-0021REMSYN088AAXX  04004 83236 32598 70000 10250 20142 39658 40150 87800 333 10315 29047 55075 59002;
0156832360999992005080412004-12150-045000FM-12+043999999V0209999C000012200019N0200001N1+02421+01671101731ADDGF104991041001022501031001KA1240N+02051MA1999999096811MD1999999+0021REMSYN076AAXX  04124 83236 32898 40000 10242 20167 39681 40173 84030 333 20205 58002;
0137832360999992005080418004-12150-045000FM-12+043999999V0200901N004110075019N0200001N1+03001+01331101291ADDGF106991061021008001001001MA1999999096441MD1999999+0071REMSYN070AAXX  04184 83236 32598 60908 10300 20133 39644 40129 86200 333 58007;
0168832360999992005080500004-12150-045000FM-12+043999999V0201801N002112200019N0200001N1+02471+01371101571ADDGF104991041021008001001001KA1240M+03081MA1999999096661MD1999999+0081REMSYN088AAXX  05004 83236 32598 41804 10247 20137 39666 40157 84200 333 10308 29050 55071 58008;
0156832360999992005080512004-12150-045000FM-12+043999999V0203201N000512200019N0500001N1+02271+01381101871ADDGF101991011011008001001001KA1240N+01801MA1999999096931MD1999999+0121REMSYN076AAXX  05124 83236 32599 13201 10227 20138 39693 40187 81100 333 20180 58012;
0137832360999992005080518004-12150-045000FM-12+043999999V0201801N002112200019N0500001N1+03001+01051101341ADDGF103991031011008001001001MA1999999096441MD1999999+0001REMSYN070AAXX  05184 83236 32599 31804 10300 20105 39644 40134 83100 333 58000;
0168832360999992005080600004-12150-045000FM-12+043999999V0202301N000512200019N0200001N1+02331+01111101561ADDGF103991031021008001001001KA1240M+03111MA1999999096621MD1999999-0041REMSYN088AAXX  06004 83236 32598 32301 10233 20111 39662 40156 83200 333 10311 29045 55104 59004;
0166832360999992005080612004-12150-045000FM-12+043999999V0202301N000512200019N0500001N1+02151+01171101871ADDGA1001+999999999GF100991001001999999001001KA1240N+01361MA1999999096901MD1999999-0031REMSYN070AAXX  06124 83236 32999 02301 10215 20117 39690 40187 333 20136 59003;
0137832360999992005080618004-12150-045000FM-12+043999999V0200501N002112200019N0500001N1+03081+01121101301ADDGF101991011011008001001001MA1999999096401MD1999999-0041REMSYN070AAXX  06184 83236 32599 10504 10308 20112 39640 40130 81100 333 59004;
0166832360999992005080712004-12150-045000FM-12+043999999V0201801N000512200019N0500001N1+02281+01241101791ADDGA1001+999999999GF100991001001999999001001KA1240N+01531MA1999999096831MD1999999-0071REMSYN070AAXX  07124 83236 32999 01801 10228 20124 39683 40179 333 20153 59007;
0147832360999992005080718004-12150-045000FM-12+043999999V0201801N001012200019N0500001N1+03141+01121101111ADDGA1001+999999999GF100991001001999999001001MA1999999096241MD1999999-0161REMSYN064AAXX  07184 83236 32999 01802 10314 20112 39624 40111 333 59016;
0178832360999992005080800004-12150-045000FM-12+043999999V0209999C000012200019N0200001N1+02121+01411101541ADDGA1001+999999999GF100991001001999999001001KA1240M+03231MA1999999096551MD1999999-0031REMSYN082AAXX  08004 83236 32998 00000 10212 20141 39655 40154 333 10323 29052 55105 59003;
0166832360999992005080812004-12150-045000FM-12+043999999V0209999C000012200019N0200001N1+02201+01311101791ADDGA1001+999999999GF100991001001999999001001KA1240N+01411MA1999999096811MD1999999-0021REMSYN070AAXX  08124 83236 32998 00000 10220 20131 39681 40179 333 20141 59002;
0137832360999992005080818004-12150-045000FM-12+043999999V0201801N002112200019N0200001N1+03051+01151101121ADDGF104991041021008001001001MA1999999096241MD1999999+0001REMSYN070AAXX  08184 83236 32598 41804 10305 20115 39624 40112 84200 333 58000;
0168832360999992005080900004-12150-045000FM-12+043999999V0202701N001012200019N0200001N1+02451+01321101441ADDGF103991031011008001001001KA1240M+03191MA1999999096501MD1999999-0051REMSYN088AAXX  09004 83236 32598 32702 10245 20132 39650 40144 83100 333 10319 29046 55089 59005;
0156832360999992005080912004-12150-045000FM-12+043999999V0209999C000012200019N0200001N1+02251+01241101661ADDGF104991031011008001061001KA1240N+01451MA1999999096731MD1999999-0081REMSYN076AAXX  09124 83236 32598 40000 10225 20124 39673 40166 83160 333 20145 59008;
0137832360999992005080918004-12150-045000FM-12+043999999V0201801N001511050019N0200001N1+03141+01321101191ADDGF105991041021008001001031MA1999999096291MD1999999+0051REMSYN070AAXX  09184 83236 32598 51803 10314 20132 39629 40119 84203 333 58005;
0168832360999992005081000004-12150-045000FM-12+043999999V0202301N001510450019N0200001N1+02401+01291101411ADDGF106991041021012501061001KA1240M+03291MA1999999096471MD1999999-0031REMSYN088AAXX  10004 83236 32698 62303 10240 20129 39647 40141 84260 333 10329 29046 55095 59003;
0156832360999992005081012004-12150-045000FM-12+043999999V0200501N002610450019N0200001N1+02431+01371101631ADDGF106991031011012501071051KA1240N+01701MA1999999096711MD1999999-0021REMSYN076AAXX  10124 83236 32698 60505 10243 20137 39671 40163 83175 333 20170 59002;
0137832360999992005081018004-12150-045000FM-12+043999999V0200501N002610450019N0200001N1+03321+01111101121ADDGF106991021011012501081051MA1999999096241MD1999999-0051REMSYN070AAXX  10184 83236 32698 60505 10332 20111 39624 40112 82185 333 59005;
0168832360999992005081100004-12150-045000FM-12+043999999V0209999C000010450019N0200001N1+02261+01341101391ADDGF106991031011012501061051KA1240M+03351MA1999999096471MD1999999+0001REMSYN088AAXX  11004 83236 32698 60000 10226 20134 39647 40139 83165 333 10335 29048 55095 58000;
0156832360999992005081112004-12150-045000FM-12+043999999V0203601N001510450019N0200001N1+02301+01351101711ADDGF106991041011012501081051KA1240N+01541MA1999999096761MD1999999+0051REMSYN076AAXX  11124 83236 32698 63603 10230 20135 39676 40171 84185 333 20154 58005;
0137832360999992005081118004-12150-045000FM-12+043999999V0202701N001510450019N0200001N1+03371+00961101151ADDGF106991041021008001071051MA1999999096291MD1999999+0051REMSYN070AAXX  11184 83236 32598 62703 10337 20096 39629 40115 84275 333 58005;
0168832360999992005081200004-12150-045000FM-12+043999999V0202301N001012200019N0200001N1+02211+01361101371ADDGF103991001001999999001051KA1240M+03441MA1999999096431MD1999999-0041REMSYN088AAXX  12004 83236 32998 32302 10221 20136 39643 40137 80005 333 10344 29049 55084 59004;
0156832360999992005081212004-12150-045000FM-12+043999999V0209999C000010450019N0200001N1+02371+01311101551ADDGF106991031011012501081051KA1240N+01631MA1999999096611MD1999999-0151REMSYN076AAXX  12124 83236 32698 60000 10237 20131 39661 40155 83185 333 20163 59015;
0137832360999992005081218004-12150-045000FM-12+043999999V0202301N001010450019N0200001N1+03341+01191100971ADDGF107991041021008001071051MA1999999096111MD1999999-0181REMSYN070AAXX  12184 83236 32598 72302 10334 20119 39611 40097 84275 333 59018;
0168832360999992005081300004-12150-045000FM-12+043999999V0209999C000012200019N0200001N1+02201+01541101251ADDGF103991031011012501001001KA1240M+03431MA1999999096331MD1999999-0101REMSYN088AAXX  13004 83236 32698 30000 10220 20154 39633 40125 83100 333 10343 29053 55070 59010;
0156832360999992005081312004-12150-045000FM-12+043999999V0209999C000010450019N0200001N1+02371+01381101551ADDGF106991031011012501081051KA1240N+01631MA1999999096611MD1999999-0151REMSYN076AAXX  13124 83236 32698 60000 10237 20138 39661 40155 83185 333 20163 59015;
0137832360999992005081318004-12150-045000FM-12+043999999V0203201N002110075019N0200001N1+03331+01331100961ADDGF107991051021008001081051MA1999999096091MD1999999-0021REMSYN070AAXX  13184 83236 32598 73204 10333 20133 39609 40096 85285 333 59002;
0168832360999992005081400004-12150-045000FM-12+043999999V0209999C000010450019N0200001N1+02331+01451101181ADDGF105991041011012501061051KA1240M+03421MA1999999096271MD1999999-0061REMSYN088AAXX  14004 83236 32698 50000 10233 20145 39627 40118 84165 333 10342 29050 55094 59006;
0156832360999992005081412004-12150-045000FM-12+043999999V0209999C000012200019N0200001N1+02431+01371101501ADDGF103991001001999999001071KA1240N+01651MA1999999096581MD1999999+0011REMSYN076AAXX  14124 83236 32998 30000 10243 20137 39658 40150 80007 333 20165 58001;
0137832360999992005081418004-12150-045000FM-12+043999999V0201401N001511050019N0200001N1+03341+00941101011ADDGF105991031021008001001071MA1999999096151MD1999999+0061REMSYN070AAXX  14184 83236 32598 51403 10334 20094 39615 40101 83207 333 58006;
0168832360999992005081500004-12150-045000FM-12+043999999V0202301N001012200019N0200001N1+02401+01321101321ADDGF102991021011012501001001KA1240M+03441MA1999999096411MD1999999+0141REMSYN088AAXX  15004 83236 32698 22302 10240 20132 39641 40132 82100 333 10344 29044 55101 58014;
0166832360999992005081512004-12150-045000FM-12+043999999V0200501N001012200019N0200001N1+02451+01361101721ADDGA1001+999999999GF100991001001999999001001KA1240N+01641MA1999999096791MD1999999+0121REMSYN070AAXX  15124 83236 32998 00502 10245 20136 39679 40172 333 20164 58012;
0137832360999992005081518004-12150-045000FM-12+043999999V0201401N003110450019N0200001N1+03311+01311101101ADDGF106991031011008001061051MA1999999096271MD1999999+0121REMSYN070AAXX  15184 83236 32598 61406 10331 20131 39627 40110 83165 333 58012;
0178832360999992005081600004-12150-045000FM-12+043999999V0201801N002612200019N0200001N1+02501+01081101391ADDGA1001+999999999GF100991001001999999001001KA1240M+03361MA1999999096501MD1999999+0091REMSYN082AAXX  16004 83236 32998 01805 10250 20108 39650 40139 333 10336 29041 55101 58009;
0166832360999992005081612004-12150-045000FM-12+043999999V0209999C000012200019N0200001N1+02451+01301101661ADDGA1001+999999999GF100991001001999999001001KA1240N+01571MA1999999096751MD1999999-0041REMSYN070AAXX  16124 83236 32998 00000 10245 20130 39675 40166 333 20157 59004;
0137832360999992005081618004-12150-045000FM-12+043999999V0200501N003610075019N0200001N1+03421+01141100971ADDGF105991051021008001001001MA1999999096131MD1999999-0141REMSYN070AAXX  16184 83236 32598 50507 10342 20114 39613 40097 85200 333 59014;
0168832360999992005081700004-12150-045000FM-12+043999999V0209999C000010075019N0200001N1+02591+01431101241ADDGF105991051021008001001001KA1240M+03501MA1999999096361MD1999999-0141REMSYN088AAXX  17004 83236 32598 50000 10259 20143 39636 40124 85200 333 10350 29042 55103 59014;
0175832360999992005081712004-12150-045000FM-12+043999999V0200501N002119999999N0200001N1+02521+01521101611ADDGF105991001001999999001071KA1240N+01801MA1999999096721MD1999999+0031REMSYN076AAXX  17124 83236 32598 50504 10252 20152 39672 40161 80007 333 20180 58003;EQDQ01+008002SCOLCB
0137832360999992005081718004-12150-045000FM-12+043999999V0200901N003110075019N0200001N1+03141+01271101121ADDGF107991051021008001081051MA1999999096271MD1999999+0141REMSYN070AAXX  17184 83236 32598 70906 10314 20127 39627 40112 85285 333 58014;
0187832360999992005081800004-12150-045000FM-12+043999999V0202701N001519999999N0200001N1+02291+01361101932ADDGF106991001001999999001071KA1240M+03211MA1999999096481MD1999999+0121REMSYN088AAXX  18004 83236 32998 62703 10229 20136 39648 40193 80007 333 10321 29050 55073 58012;EQDQ01+101933APOSLP
0156832360999992005081812004-12150-045000FM-12+043999999V0203601N001012200019N0200001N1+02571+01471101651ADDGF103991031001022501061001KA1240N+01701MA1999999096741MD1999999+0021REMSYN076AAXX  18124 83236 32898 33602 10257 20147 39674 40165 83060 333 20170 58002;
0137832360999992005081818004-12150-045000FM-12+043999999V0200901N001512200019N0200001N1+03391+01331101061ADDGF103991031021008001001001MA1999999096211MD1999999-0061REMSYN070AAXX  18184 83236 32598 30903 10339 20133 39621 40106 83200 333 59006;
0168832360999992005081900004-12150-045000FM-12+043999999V0202701N001512200019N0200001N1+02401+01321101251ADDGF104991031021012501001051KA1240M+03441MA1999999096361MD1999999-0121REMSYN088AAXX  19004 83236 32698 42703 10240 20132 39636 40125 83205 333 10344 29046 55101 59012;
0156832360999992005081912004-12150-045000FM-12+043999999V0200501N001512200019N0200001N1+02471+01501101701ADDGF101991001001999999001071KA1240N+01701MA1999999096781MD1999999+0041REMSYN076AAXX  19124 83236 32998 10503 10247 20150 39678 40170 80007 333 20170 58004;
0137832360999992005081918004-12150-045000FM-12+043999999V0200901N001512200019N0200001N1+03301+01211101111ADDGF104991041021008001001001MA1999999096281MD1999999+0071REMSYN070AAXX  19184 83236 32598 40903 10330 20121 39628 40111 84200 333 58007;
0168832360999992005082000004-12150-045000FM-12+043999999V0209999C000012200019N0200001N1+02651+01091101381ADDGF104991031021008001001071KA1240M+03331MA1999999096501MD1999999+0141REMSYN088AAXX  20004 83236 32598 40000 10265 20109 39650 40138 83207 333 10333 29040 55105 58014;
0166832360999992005082012004-12150-045000FM-12+043999999V0209999C000012200019N0200001N1+02391+01281101721ADDGA1001+999999999GF100991001001999999001001KA1240N+01571MA1999999096811MD1999999+0031REMSYN070AAXX  20124 83236 32998 00000 10239 20128 39681 40172 333 20157 58003;
0137832360999992005082018004-12150-045000FM-12+043999999V0201401N001512200019N0200001N1+03181+01211101121ADDGF104991041021008001001001MA1999999096251MD1999999-0031REMSYN070AAXX  20184 83236 32598 41403 10318 20121 39625 40112 84200 333 59003;
0178832360999992005082100004-12150-045000FM-12+043999999V0202301N001512200019N0200001N1+02351+01111101381ADDGA1001+999999999GF100991001001999999001001KA1240M+03291MA1999999096471MD1999999-0031REMSYN082AAXX  21004 83236 32998 02303 10235 20111 39647 40138 333 10329 29043 55108 59003;
0166832360999992005082112004-12150-045000FM-12+043999999V0202301N001512200019N0200001N1+02321+01251101701ADDGA1001+999999999GF100991001001999999001001KA1240N+01591MA1999999096761MD1999999-0051REMSYN070AAXX  21124 83236 32998 02303 10232 20125 39676 40170 333 20159 59005;
0137832360999992005082118004-12150-045000FM-12+043999999V0200901N001512200019N0200001N1+03191+01101101001ADDGF103991031021008001001001MA1999999096141MD1999999-0111REMSYN070AAXX  21184 83236 32598 30903 10319 20110 39614 40100 83200 333 59011;
0178832360999992005082200004-12150-045000FM-12+043999999V0202301N001512200019N0200001N1+02241+00891101321ADDGA1001+999999999GF100991001001999999001001KA1240M+03271MA1999999096391MD1999999-0081REMSYN082AAXX  22004 83236 32998 02303 10224 20089 39639 40132 333 10327 29041 55110 59008;
0166832360999992005082212004-12150-045000FM-12+043999999V0209999C000012200019N0200001N1+02381+01391101571ADDGA1001+999999999GF100991001001999999001001KA1240N+01561MA1999999096631MD1999999-0131REMSYN070AAXX  22124 83236 32998 00000 10238 20139 39663 40157 333 20156 59013;
0137832360999992005082218004-12150-045000FM-12+043999999V0200901N003112200019N0200001N1+03251+01261100991ADDGF103991021011008001001051MA1999999096111MD1999999-0031REMSYN070AAXX  22184 83236 32598 30906 10325 20126 39611 40099 82105 333 59003;
0168832360999992005082300004-12150-045000FM-12+043999999V0202701N001512200019N0200001N1+02391+01181101231ADDGF104991031011012501071001KA1240M+03321MA1999999096331MD1999999-0061REMSYN088AAXX  23004 83236 32698 42703 10239 20118 39633 40123 83170 333 10332 29044 55109 59006;
0178832360999992005082400004-12150-045000FM-12+043999999V0209999C000012200019N0200001N1+02261+01281101341ADDGA1001+999999999GF100991001001999999001001KA1240M+03241MA1999999099641MD1999999+0101REMSYN082AAXX  24004 83236 32998 00000 10226 20128 39964 40134 333 10324 29/// 55106 58010;
0166832360999992005082412004-12150-045000FM-12+043999999V0200901N000512200019N0200001N1+02451+01421101621ADDGA1001+999999999GF100991001001999999001001KA1240N+01461MA1999999096691MD1999999-0021REMSYN070AAXX  24124 83236 32998 00901 10245 20142 39669 40162 333 20146 59002;
0137832360999992005082418004-12150-045000FM-12+043999999V0201801N001012200019N0200001N1+03361+01091101131ADDGF103991031011008001001001MA1999999096241MD1999999-0011REMSYN070AAXX  24184 83236 32598 31802 10336 20109 39624 40113 83100 333 59001;
0168832360999992005082500004-12150-045000FM-12+043999999V0201801N001012200019N0200001N1+02751+01181101261ADDGF104991041081008001001001KA1240M+03471MA1999999096391MD1999999-0041REMSYN088AAXX  25004 83236 32598 41802 10275 20118 39639 40126 84800 333 10347 29038 55105 59004;
0166832360999992005082512004-12150-045000FM-12+043999999V0203601N001012200019N0200001N1+02521+01461101451ADDGA1001+999999999GF100991001001999999001001KA1240N+01721MA1999999096581MD1999999-0111REMSYN070AAXX  25124 83236 32998 03602 10252 20146 39658 40145 333 20172 59011;
0137832360999992005082518004-12150-045000FM-12+043999999V0201801N002112200019N0200001N1+03481+01061100801ADDGF102991011011008001001011MA1999999095971MD1999999-0271REMSYN070AAXX  25184 83236 32598 21804 10348 20106 39597 40080 81101 333 59027;
0178832360999992005082600004-12150-045000FM-12+043999999V0209999C000012200019N0200001N1+02471+01351101051ADDGA1001+999999999GF100991001001999999001001KA1240M+03531MA1999999096171MD1999999-0221REMSYN082AAXX  26004 83236 32998 00000 10247 20135 39617 40105 333 10353 29044 55109 59022;
0156832360999992005082612004-12150-045000FM-12+043999999V0209999C000012200019N0200001N1+02431+00981101381ADDGF102991001001999999001011KA1240N+01451MA1999999096481MD1999999-0101REMSYN076AAXX  26124 83236 32998 20000 10243 20098 39648 40138 80001 333 20145 59010;
0137832360999992005082618004-12150-045000FM-12+043999999V0202701N001512200019N0200001N1+03631+00731100831ADDGF103991021011008001001011MA1999999095981MD1999999-0011REMSYN070AAXX  26184 83236 32598 32703 10363 20073 39598 40083 82101 333 59001;
0178832360999992005082700004-12150-045000FM-12+043999999V0202301N002612200019N0200001N1+02691+00801101061ADDGA1001+999999999GF100991001001999999001001KA1240M+03671MA1999999096191MD1999999+0021REMSYN082AAXX  27004 83236 32998 02305 10269 20080 39619 40106 333 10367 29029 55105 58002;
0156832360999992005082712004-12150-045000FM-12+043999999V0203601N004112200019N0200001N1+02451+01241101491ADDGF103991001001999999001041KA1240N+01821MA1999999096601MD1999999+0121REMSYN076AAXX  27124 83236 32998 33608 10245 20124 39660 40149 80004 333 20182 58012;
0165832360999992005082718004-12150-045000FM-12+043999999V0203601N001012200019N0200001N1+03381+01101100861ADDAY101061AY221061GF101991011011008001001001MA1999999096061MD1999999+0081MW1041REMSYN076AAXX  27184 83236 31598 13602 10338 20110 39606 40086 70402 81100 333 58008;
0178832360999992005082800004-12150-045000FM-12+043999999V0202701N001012200019N0100001N1+02341+00981101181ADDGA1001+999999999GF100991001001999999001001KA1240M+03511MA1999999096281MD1999999+0091REMSYN082AAXX  28004 83236 32997 02702 10234 20098 39628 40118 333 10351 29039 55109 58009;
0184832360999992005082812004-12150-045000FM-12+043999999V0200501N002112200019N0100001N1+02511+01081101431ADDAY101061AY221061GF104991001001999999001041KA1240N+01361MA1999999096521MD1999999-0081MW1051REMSYN082AAXX  28124 83236 31997 40504 10251 20108 39652 40143 70502 80004 333 20136 59008;
0175832360999992005082818004-12150-045000FM-12+043999999V0203601N002112200019N0100001N1+03421+00761100761ADDAY101061AY241061GA1001+999999999GF100991001001999999001001MA1999999095901MD1999999-0161MW1051REMSYN070AAXX  28184 83236 31997 03604 10342 20076 39590 40076 70504 333 59016;
0178832360999992005082900004-12150-045000FM-12+043999999V0200901N001012200019N0100001N1+02281+01181101001ADDGA1001+999999999GF100991001001999999001001KA1240M+03531MA1999999096111MD1999999-0171REMSYN082AAXX  29004 83236 32997 00902 10228 20118 39611 40100 333 10353 29040 55108 59017;
0184832360999992005082912004-12150-045000FM-12+043999999V0203601N003112200019N0100001N1+02561+01281101371ADDAY101061AY241061GF104991001001999999001091KA1240N+01561MA1999999096461MD1999999-0061MW1051REMSYN082AAXX  29124 83236 31997 43606 10256 20128 39646 40137 70504 80009 333 20156 59006;
0165832360999992005082918004-12150-045000FM-12+043999999V0203201N002612200019N0100001N1+03501+00631100701ADDAY101061AY241061GF104991011011008001001041MA1999999095851MD1999999-0051MW1051REMSYN076AAXX  29184 83236 31597 43205 10350 20063 39585 40070 70504 81104 333 59005;
0168832360999992005083000004-12150-045000FM-12+043999999V0209999C000012200019N0100001N1+02321+01281101011ADDGF103991001001999999001041KA1240M+03561MA1999999096131MD1999999+0021REMSYN088AAXX  30004 83236 32997 30000 10232 20128 39613 40101 80004 333 10356 29044 55108 58002;
0194832360999992005083012004-12150-045000FM-12+043999999V0203601N001512200019N0100001N1+02681+01491101361ADDAY101061AY241061GA1001+999999999GF100991001001999999001001KA1240N+01861MA1999999096471MD1999999+0011MW1051REMSYN076AAXX  30124 83236 31997 03603 10268 20149 39647 40136 70504 333 20186 58001;
0165832360999992005083018004-12150-045000FM-12+043999999V0202701N001012200019N0100001N1+03581+00931100731ADDAY101061AY241061GF104991041021008001001001MA1999999095971MD1999999+0121MW1051REMSYN076AAXX  30184 83236 31597 42702 10358 20093 39597 40073 70504 84200 333 58012;
0168832360999992005083100004-12150-045000FM-12+043999999V0201801N001512200019N0100001N1+02731+01341101011ADDGF104991041081008001001001KA1240M+03631MA1999999096171MD1999999+0041REMSYN088AAXX  31004 83236 32597 41803 10273 20134 39617 40101 84800 333 10363 29038 55101 58004;
0184832360999992005083112004-12150-045000FM-12+043999999V0203601N005112200019N0100001N1+02661+01471101301ADDAY101061AY241061GF102991001001999999001011KA1240N+02271MA1999999096451MD1999999-0021MW1051REMSYN082AAXX  31124 83236 31997 23610 10266 20147 39645 40130 70504 80001 333 20227 59002;
0165832360999992005083118004-12150-045000FM-12+043999999V0201801N002612200019N0100001N1+03581+00861100571ADDAY101061AY241061GF104991041011008001001001MA1999999095821MD1999999-0161MW1051REMSYN076AAXX  31184 83236 31597 41805 10358 20086 39582 40057 70504 84100 333 59016;
0168832360999992005090100004-12150-045000FM-12+044099999V0209999C000012200019N0100001N1+02471+01251100891ADDGF102991021011008001001001KA1240M+03691MA1999999096031MD1999999-0141REMSYN088AAXX  01004 83236 32597 20000 10247 20125 39603 40089 82100 333 10369 29040 55098 59014;
0194832360999992005090112004-12150-045000FM-12+044099999V0200501N003112200019N0100001N1+02661+01371101361ADDAY101061AY241061GA1001+999999999GF100991001001999999001001KA1240N+01761MA1999999096481MD1999999+0031MW1051REMSYN076AAXX  01124 83236 31997 00506 10266 20137 39648 40136 70504 333 20176 58003;
0175832360999992005090118004-12150-045000FM-12+044099999V0202701N001012200019N0100001N1+03341+00881100751ADDAY101061AY241061GA1001+999999999GF100991001001999999001001MA1999999095931MD1999999+0111MW1051REMSYN070AAXX  01184 83236 31997 02702 10334 20088 39593 40075 70504 333 58011;
0206832360999992005090200004-12150-045000FM-12+044099999V0202701N000512200019N0040001N1+02311+01221101051ADDAY101061AY241061GA1001+999999999GF100991001001999999001001KA1240M+03471MA1999999096171MD1999999+0141MW1051REMSYN088AAXX  02004 83236 31996 02701 10231 20122 39617 40105 70504 333 10347 29042 55108 58014;
0194832360999992005090212004-12150-045000FM-12+044099999V0203601N003112200019N0100001N1+02621+01301101391ADDAY101061AY241061GA1001+999999999GF100991001001999999001001KA1240N+01501MA1999999096491MD1999999+0011MW1051REMSYN076AAXX  02124 83236 31997 03606 10262 20130 39649 40139 70504 333 20150 58001;
0165832360999992005090218004-12150-045000FM-12+044099999V0200501N002112200019N0100001N1+03471+00621100821ADDAY101061AY241061GF103991011011008001001021MA1999999095951MD1999999+0021MW1051REMSYN076AAXX  02184 83236 31597 30504 10347 20062 39595 40082 70504 81102 333 58002;
0206832360999992005090300004-12150-045000FM-12+044099999V0209999C000012200019N0040001N1+02341+01081101111ADDAY101061AY241061GA1001+999999999GF100991001001999999001001KA1240M+03551MA1999999096231MD1999999+0061MW1051REMSYN088AAXX  03004 83236 31996 00000 10234 20108 39623 40111 70504 333 10355 29038 55107 58006;
0194832360999992005090312004-12150-045000FM-12+044099999V0203601N001012200019N0100001N1+02521+01171101401ADDAY101061AY241061GA1001+999999999GF100991001001999999001001KA1240N+01481MA1999999096501MD1999999+0011MW1051REMSYN076AAXX  03124 83236 31997 03602 10252 20117 39650 40140 70504 333 20148 58001;
0165832360999992005090318004-12150-045000FM-12+044099999V0201401N001512200019N0100001N1+03571+00931100731ADDAY101061AY241061GF104991041011008001001001MA1999999095891MD1999999-0061MW1051REMSYN076AAXX  03184 83236 31597 41403 10357 20093 39589 40073 70504 84100 333 59006;
0194832360999992005090412004-12150-045000FM-12+044099999V0203601N000512200019N0100001N1+02671+01391101461ADDAY101061AY241061GA1001+999999999GF100991001001999999001001KA1240N+01801MA1999999096571MD1999999+0071MW1051REMSYN076AAXX  04124 83236 31997 03601 10267 20139 39657 40146 70504 333 20180 58007;
0165832360999992005090418004-12150-045000FM-12+044099999V0202301N002112200019N0100001N1+03511+01141100691ADDAY101061AY241061GF104991041011008001001001MA1999999095931MD1999999+0041MW1051REMSYN076AAXX  04184 83236 31597 42304 10351 20114 39593 40069 70504 84100 333 58004;
0194832360999992005090512004-12150-045000FM-12+044099999V0200501N004112200019N0040001N1+02661+01261101341ADDAY101061AY241061GA1001+999999999GF100991001001999999001001KA1240N+01381MA1999999096501MD1999999-0071MW1041REMSYN076AAXX  05124 83236 31996 00508 10266 20126 39650 40134 70404 333 20138 59007;
0165832360999992005090518004-12150-045000FM-12+044099999V0203201N001011050019N0040001N1+03501+01261100691ADDAY101061AY241061GF105991041021008001001021MA1999999095921MD1999999-0011MW1041REMSYN076AAXX  05184 83236 31596 53202 10350 20126 39592 40069 70404 84202 333 59001;
0196832360999992005090600004-12150-045000FM-12+044099999V0201801N001010120019N0040001N1+02981+01311100951ADDAY101061AY241061GF107991071081008001001001KA1240M+03561MA1999999096141MD1999999-0081MW1041REMSYN094AAXX  06004 83236 31596 71802 10298 20131 39614 40095 70404 87800 333 10356 29035 55097 59008;
0194832360999992005090612004-12150-045000FM-12+044099999V0200501N005712200019N0100001N1+02761+01431101221ADDAY101061AY241061GA1001+999999999GF100991001001999999001001KA1240N+01981MA1999999096411MD1999999-0091MW1041REMSYN076AAXX  06124 83236 31997 00511 10276 20143 39641 40122 70404 333 20198 59009;
0165832360999992005090618004-12150-045000FM-12+044099999V0202301N001512200019N0040001N1+03471+01231100641ADDAY101061AY241061GF103991031011008001001001MA1999999095891MD1999999-0031MW1041REMSYN076AAXX  06184 83236 31596 32303 10347 20123 39589 40064 70404 83100 333 59003;
0196832360999992005090700004-12150-045000FM-12+044099999V0202301N000512200019N0040001N1+02801+01501100911ADDAY101061AY241061GF104991041021008001001001KA1240M+03671MA1999999096101MD1999999-0041MW1041REMSYN094AAXX  07004 83236 31596 42301 10280 20150 39610 40091 70404 84200 333 10367 29040 55106 59004;
0184832360999992005090712004-12150-045000FM-12+044099999V0203601N004612200019N0040001N1+02801+01351101301ADDAY101061AY241061GF102991021011008001001001KA1240N+01931MA1999999096471MD1999999+0061MW1041REMSYN082AAXX  07124 83236 31596 23609 10280 20135 39647 40130 70404 82100 333 20193 58006;
0165832360999992005090718004-12150-045000FM-12+044099999V0203601N001510075019N0040001N1+03641+01191100761ADDAY101061AY241061GF105991051021008001001001MA1999999095991MD1999999+0101MW1041REMSYN076AAXX  07184 83236 31596 53603 10364 20119 39599 40076 70404 85200 333 58010;
0196832360999992005090800004-12150-045000FM-12+044099999V0202701N001012200019N0040001N1+02711+01261101031ADDAY101061AY241061GF103991031021008001001001KA1240M+03701MA1999999096201MD1999999+0101MW1041REMSYN094AAXX  08004 83236 31596 32702 10271 20126 39620 40103 70404 83200 333 10370 29036 55083 58010;
0184832360999992005090812004-12150-045000FM-12+044099999V0200501N002612200019N0100001N1+02661+01191101351ADDAY101061AY251061GF104991031021012501001051KA1240N+01901MA1999999096591MD1999999+0121MW1041REMSYN082AAXX  08124 83236 31697 40505 10266 20119 39659 40135 70405 83205 333 20190 58012;
0165832360999992005090818004-12150-045000FM-12+044099999V0200501N001510450019N0040001N1+03461+01231100951ADDAY101061AY241061GF106991041021008001071051MA1999999096131MD1999999+0141MW1041REMSYN076AAXX  08184 83236 31596 60503 10346 20123 39613 40095 70404 84275 333 58014;
0206832360999992005090900004-12150-045000FM-12+044099999V0201801N001512200019N0040001N1+02601+01101101231ADDAY101061AY241061GA1001+999999999GF100991001001999999001001KA1240M+03491MA1999999096371MD1999999+0171MW1041REMSYN088AAXX  09004 83236 31996 01803 10260 20110 39637 40123 70404 333 10349 29036 55077 58017;
0184832360999992005090912004-12150-045000FM-12+044099999V0200901N003112200019N0040001N1+02651+01451101621ADDAY101061AY241061GF102991021011012501001001KA1240N+01841MA1999999096741MD1999999+0151MW1041REMSYN082AAXX  09124 83236 31696 20906 10265 20145 39674 40162 70404 82100 333 20184 58015;
0165832360999992005090918004-12150-045000FM-12+044099999V0200901N004612200019N0040001N1+03301+01311101081ADDAY101061AY251061GF102991021011008001001001MA1999999096221MD1999999+0091MW1041REMSYN076AAXX  09184 83236 31596 20909 10330 20131 39622 40108 70405 82100 333 58009;
0206832360999992005091000004-12150-045000FM-12+044099999V0200901N006712200019N0040001N1+02891+00951101291ADDAY101061AY241061GA1001+999999999GF100991001001999999001001KA1240M+03331MA1999999096451MD1999999+0081MW1051REMSYN088AAXX  10004 83236 31996 00913 10289 20095 39645 40129 70504 333 10333 29035 55104 58008;
0194832360999992005091012004-12150-045000FM-12+044099999V0200901N003612200019N0040001N1+02531+01141101731ADDAY101061AY241061GA1001+999999999GF100991001001999999001001KA1240N+01941MA1999999096861MD1999999+0121MW1041REMSYN076AAXX  10124 83236 31996 00907 10253 20114 39686 40173 70404 333 20194 58012;
0165832360999992005091018004-12150-045000FM-12+044099999V0201401N003612200019N0040001N1+03291+00761101091ADDAY101061AY241061GF102991001001999999001051MA1999999096261MD1999999+0041MW1041REMSYN076AAXX  10184 83236 31996 21407 10329 20076 39626 40109 70404 80005 333 58004;
0156832360999992005091112004-12150-045000FM-12+044099999V0200901N004110450019N0200001N1+02591+01461101711ADDGF106991041021008001071031KA1240N+02101MA1999999096851MD1999999-0011REMSYN076AAXX  11124 83236 32598 60908 10259 20146 39685 40171 84273 333 20210 59001;
0137832360999992005091118004-12150-045000FM-12+044099999V0200901N004110075019N0200001N1+03191+01491101151ADDGF105991051021008001001001MA1999999096301MD1999999+0041REMSYN070AAXX  11184 83236 32598 50908 10319 20149 39630 40115 85200 333 58004;
0156832360999992005091212004-12150-045000FM-12+044099999V0200501N001512200019N0200001N1+02781+01611101591ADDGF102991021021012501001001KA1240N+02021MA1999999096741MD1999999-0111REMSYN076AAXX  12124 83236 32698 20503 10278 20161 39674 40159 82200 333 20202 59011;
0137832360999992005091218004-12150-045000FM-12+043999999V0200501N003112200019N0200001N1+03431+01141101031ADDGF103991031021008001001001MA1999999096201MD1999999-0101REMSYN070AAXX  12184 83236 32598 30506 10343 20114 39620 40103 83200 333 59010;
0178832360999992005091300004-12150-045000FM-12+043999999V0209999C000012200019N0200001N1+02431+01461101291ADDGA1001+999999999GF100991001001999999001001KA1240M+03471MA1999999096421MD1999999-0041REMSYN082AAXX  13004 83236 32998 00000 10243 20146 39642 40129 333 10347 29046 55102 59004;
0166832360999992005091312004-12150-045000FM-12+043999999V0200501N003112200019N0200001N1+02671+01531101461ADDGA1001+999999999GF100991001001999999001001KA1240N+01741MA1999999096571MD1999999-0171REMSYN070AAXX  13124 83236 32998 00506 10267 20153 39657 40146 333 20174 59017;
0137832360999992005091318004-12150-045000FM-12+043999999V0201401N001512200019N0200001N1+03631+01241100821ADDGF104991041021008001001001MA1999999095991MD1999999-0211REMSYN070AAXX  13184 83236 32598 41403 10363 20124 39599 40082 84200 333 59021;
0168832360999992005091400004-12150-045000FM-12+043999999V0202301N001510075019N0200001N1+02791+01261101051ADDGF107991071031008001061001KA1240M+03691MA1999999096221MD1999999-0201REMSYN088AAXX  14004 83236 32598 72303 10279 20126 39622 40105 87360 333 10369 29038 55105 59020;
0156832360999992005091412004-12150-045000FM-12+043999999V0203601N002112200019N0200001N1+02711+01511101491ADDGF104991001001999999001071KA1240N+02301MA1999999096641MD1999999+0071REMSYN076AAXX  14124 83236 32998 43604 10271 20151 39664 40149 80007 333 20230 58007;
0137832360999992005091418004-12150-045000FM-12+043999999V0200501N002612200019N0200001N1+03491+01251100811ADDGF104991041021008001001001MA1999999096011MD1999999+0021REMSYN070AAXX  14184 83236 32598 40505 10349 20125 39601 40081 84200 333 58002;
0168832360999992005091500004-12150-045000FM-12+043999999V0209999C000012200019N0200001N1+02751+01341101141ADDGF103991031021008001001001KA1240M+03651MA1999999096311MD1999999+0091REMSYN088AAXX  15004 83236 32598 30000 10275 20134 39631 40114 83200 333 10365 29040 55102 58009;
0156832360999992005091512004-12150-045000FM-12+043999999V0200901N002612200019N0200001N1+02761+01391101661ADDGF104991001001999999001071KA1240N+02171MA1999999096801MD1999999+0161REMSYN076AAXX  15124 83236 32998 40905 10276 20139 39680 40166 80007 333 20217 58016;
0165832360999992005091518004-12150-045000FM-12+043999999V0201401N001511050019N0100001N1+03531+01031100961ADDAY101061AY241061GF105991031021008001001071MA1999999096171MD1999999+0161MW1041REMSYN076AAXX  15184 83236 31597 51403 10353 20103 39617 40096 70404 83207 333 58016;
0206832360999992005091600004-12150-045000FM-12+043999999V0201401N002612200019N0100001N1+02681+01021101271ADDAY101061AY241061GA1001+999999999GF100991001001999999001001KA1240M+03571MA1999999096421MD1999999+0111MW1041REMSYN088AAXX  16004 83236 31997 01405 10268 20102 39642 40127 70404 333 10357 29033 55105 58011;
0184832360999992005091612004-12150-045000FM-12+043999999V0209999C000012200019N0100001N1+02641+01091101641ADDAY101061AY241061GF102991001001999999001051KA1240N+01891MA1999999096771MD1999999-0031MW1041REMSYN082AAXX  16124 83236 31997 20000 10264 20109 39677 40164 70404 80005 333 20189 59003;
0175832360999992005091618004-12150-045000FM-12+043999999V0201801N001012200019N0100001N1+03541+00831100871ADDAY101061AY241061GA1001+999999999GF100991001001999999001001MA1999999096081MD1999999-0091MW1041REMSYN070AAXX  16184 83236 31997 01802 10354 20083 39608 40087 70404 333 59009;
0206832360999992005091700004-12150-045000FM-12+043999999V0202301N001512200019N0100001N1+02661+00861101161ADDAY101061AY241061GA1001+999999999GF100991001001999999001001KA1240M+03601MA1999999096311MD1999999-0111MW1041REMSYN088AAXX  17004 83236 31997 02303 10266 20086 39631 40116 70404 333 10360 29030 55110 59011;
0156832360999992005091712004-12150-045000FM-12+043999999V0200501N004612200019N0200001N1+02661+01741101461ADDGF103991001001999999001051KA1240N+01681MA1999999096591MD1999999-0181REMSYN076AAXX  17124 83236 32998 30509 10266 20174 39659 40146 80005 333 20168 59018;
0137832360999992005091718004-12150-045000FM-12+043999999V0200501N004612200019N0200001N1+03531+01221100721ADDGF104991021011008001001051MA1999999095901MD1999999-0181REMSYN070AAXX  17184 83236 32598 40509 10353 20122 39590 40072 82105 333 59018;
0156832360999992005091812004-12150-045000FM-12+043999999V0200501N003612200019N0200001N1+02871+01191101431ADDGF104991001001999999001051KA1240N+01821MA1999999096551MD1999999-0041REMSYN076AAXX  18124 83236 32998 40507 10287 20119 39655 40143 80005 333 20182 59004;
0137832360999992005091818004-12150-045000FM-12+043999999V0200501N002611050019N0200001N1+03631+01181100811ADDGF105991031021012501001051MA1999999095991MD1999999+0091REMSYN070AAXX  18184 83236 32698 50505 10363 20118 39599 40081 83205 333 58009;
0168832360999992005091900004-12150-045000FM-12+043999999V0209999C000012200019N0200001N1+02661+01331101071ADDGF103991031001022501061001KA1240M+03691MA1999999096241MD1999999+0091REMSYN088AAXX  19004 83236 32898 30000 10266 20133 39624 40107 83060 333 10369 29039 55106 58009;
0156832360999992005091912004-12150-045000FM-12+043999999V0200501N005719999999N0200001N1+02751+01411101451ADDGF105991001001999999001071KA1240N+02161MA1999999096591MD1999999+0041REMSYN076AAXX  19124 83236 32998 50511 10275 20141 39659 40145 80007 333 20216 58004;
0137832360999992005091918004-12150-045000FM-12+043999999V0203601N001511050019N0200001N1+03581+01081100811ADDGF105991021021012501001071MA1999999096051MD1999999+0061REMSYN070AAXX  19184 83236 32698 53603 10358 20108 39605 40081 82207 333 58006;
0206832360999992005092000004-12150-045000FM-12+043999999V0209999C000012200019N0100001N1+02561+01281101101ADDAY101061AY241061GA1001+999999999GF100991001001999999001001KA1240M+03661MA1999999096251MD1999999+0011MW1041REMSYN088AAXX  20004 83236 31997 00000 10256 20128 39625 40110 70404 333 10366 29038 55103 58001;
0184832360999992005092012004-12150-045000FM-12+043999999V0200501N005112200019N0100001N1+02811+01461101261ADDAY101061AY241061GF102991021011012501001001KA1240N+01921MA1999999096411MD1999999-0181MW1041REMSYN082AAXX  20124 83236 31697 20510 10281 20146 39641 40126 70404 82100 333 20192 59018;
0165832360999992005092018004-12150-045000FM-12+043999999V0200501N001512200019N0100001N1+03761+01001100551ADDAY101061AY241061GF102991021021008001001001MA1999999095821MD1999999-0231MW1041REMSYN076AAXX  20184 83236 31597 20503 10376 20100 39582 40055 70404 82200 333 59023;
0206832360999992005092100004-12150-045000FM-12+043999999V0209999C000012200019N0040001N1+02611+01541100811ADDAY101061AY241061GA1001+999999999GF100991001001999999001001KA1240M+03811MA1999999096001MD1999999-0251MW1041REMSYN088AAXX  21004 83236 31996 00000 10261 20154 39600 40081 70404 333 10381 29042 55108 59025;
0184832360999992005092112004-12150-045000FM-12+043999999V0209999C000012200019N0040001N1+02741+01101101051ADDAY101061AY241061GF104991031011012501051071KA1240N+01741MA1999999096201MD1999999-0211MW1041REMSYN082AAXX  21124 83236 31696 40000 10274 20110 39620 40105 70404 83157 333 20174 59021;
0165832360999992005092118004-12150-045000FM-12+043999999V0202701N001012200019N0040001N1+03791+00941100361ADDAY101061AY241061GF104991021021008001001071MA1999999095581MD1999999-0241MW1041REMSYN076AAXX  21184 83236 31596 42702 10379 20094 39558 40036 70404 82207 333 59024;
0196832360999992005092200004-12150-045000FM-12+043999999V0209999C000010075019N0040001N1+03031+01261100551ADDAY101061AY241061GF108991061021008001071999KA1240M+03871MA1999999095781MD1999999-0221MW1041REMSYN094AAXX  22004 83236 31596 80000 10303 20126 39578 40055 70404 8627/ 333 10387 29030 55094 59022;
0184832360999992005092212004-12150-045000FM-12+043999999V0202301N001510450019N0040001N1+02851+01531100851ADDAY101061AY241061GF106991041011008001061051KA1240N+02391MA1999999096071MD1999999-0131MW1041REMSYN082AAXX  22124 83236 31596 62303 10285 20153 39607 40085 70404 84165 333 20239 59013;
0165832360999992005092218004-12150-045000FM-12+043999999V0201801N001510450019N0040001N1+03771+01151100251ADDAY101061AY241061GF106991041021008001071051MA1999999095541MD1999999-0041MW1041REMSYN076AAXX  22184 83236 31596 61803 10377 20115 39554 40025 70404 84275 333 59004;
0196832360999992005092300004-12150-045000FM-12+043999999V0209999C000010450019N0040001N1+02841+01571100601ADDAY101061AY241061GF105991031021012501051071KA1240M+03851MA1999999095821MD1999999+0041MW1041REMSYN094AAXX  23004 83236 31696 50000 10284 20157 39582 40060 70404 83257 333 10385 29040 55066 58004;
0184832360999992005092312004-12150-045000FM-12+043999999V0200901N001010450019N0040001N1+02741+01761101201ADDAY101061AY241061GF106991021071008001011001KA1240N+02411MA1999999096381MD1999999+0311MW1041REMSYN082AAXX  23124 83236 31596 60902 10274 20176 39638 40120 70404 82710 333 20241 58031;
0165832360999992005092318004-12150-045000FM-12+043999999V0203601N003112200019N0040001N1+03331+01701100661ADDAY101061AY241061GF105991041021008001001081MA1999999095881MD1999999+0341MW1041REMSYN076AAXX  23184 83236 31596 53606 10333 20170 39588 40066 70404 84208 333 58034;
0196832360999992005092400004-12150-045000FM-12+043999999V0200501N003110450019N0040001N1+02851+01821100981ADDAY101061AY241061GF105991021021008001011001KA1240M+03391MA1999999096171MD1999999+0351MW1041REMSYN094AAXX  24004 83236 31596 50506 10285 20182 39617 40098 70404 82210 333 10339 29050 55030 58035;
0184832360999992005092412004-12150-045000FM-12+043999999V0201801N001512200019N0040001N1+02681+01921101221ADDAY101061AY241061GF105991021011008001001081KA1240N+02121MA1999999096381MD1999999+0001MW1051REMSYN082AAXX  24124 83236 31596 51803 10268 20192 39638 40122 70504 82108 333 20212 58000;
0165832360999992005092418004-12150-045000FM-12+043999999V0203601N001512200019N0040001N1+03481+01611100551ADDAY101061AY241061GF105991031021008001001081MA1999999095781MD1999999-0101MW1051REMSYN076AAXX  24184 83236 31596 53603 10348 20161 39578 40055 70504 83208 333 59010;
0196832360999992005092500004-12150-045000FM-12+043999999V0201801N002110450019N0040001N1+02421+02051101071ADDAY101061AY291061GF107991041071008001021001KA1240M+03551MA1999999096201MD1999999+0031MW1291REMSYN094AAXX  25004 83236 31596 71804 10242 20205 39620 40107 72909 84720 333 10355 29064 55083 58003;
0201832360999992005092512004-12150-045000FM-12+043999999V0209999C000010450019N0100001N1+02531+01931101321ADDAA124003091AY101061AY261061GF108991031051008001021999KA1240N+02251MA1999999096431MD1999999+0051MW1021REMSYN088AAXX  25124 83236 21597 80000 10253 20193 39643 40132 70206 8352/ 333 20225 58005 60034;
0182832360999992005092518004-12150-045000FM-12+043999999V0203601N001011050019N0100001N1+03121+01751100711ADDAA106999999AY151061AY251061GF106991021011008001041041MA1999999095891MD1999999+0111MW1021REMSYN082AAXX  25184 83236 21597 63602 10312 20175 39589 40071 70255 82144 333 58011 69921;
0192832360999992005092612004-12150-045000FM-12+043999999V0209999C000010075019N0100001N1+02621+01981101281ADDAA124000091GF108991051051008001041001KA1240N+02231MA1999999096431MD1999999+0001REMSYN082AAXX  26124 83236 22597 80000 10262 20198 39643 40128 85540 333 20223 58000 69924;EQDQ01  00002PRCP24
0137832360999992005092618004-12150-045000FM-12+043999999V0203601N003111050019N0100001N1+03431+01561100721ADDGF106991041031008001001031MA1999999095941MD1999999+0051REMSYN070AAXX  26184 83236 32597 63606 10343 20156 39594 40072 84303 333 58005;
0213832360999992005092700004-12150-045000FM-12+043999999V0209999C000010450019N0100001N1+02431+02231101311ADDAA106006191AY161061AY261061GF108991041021008001021999KA1240M+03551MA1999999096421MD1999999+0251MW1021REMSYN100AAXX  27004 83236 21597 80000 10243 20223 39642 40131 70266 8422/ 333 10355 29069 55063 58025 60061;
0201832360999992005092712004-12150-045000FM-12+043999999V0209999C000012200019N0100001N1+02521+02021101421ADDAA124006191AY151061AY251061GF104991031001022501061041KA1240N+02271MA1999999096531MD1999999+0101MW1021REMSYN088AAXX  27124 83236 21897 40000 10252 20202 39653 40142 70255 83064 333 20227 58010 60064;
0137832360999992005092718004-12150-045000FM-12+043999999V0201801N002110075019N0100001N1+03331+01751100791ADDGF105991051021008001001001MA1999999095991MD1999999+0051REMSYN070AAXX  27184 83236 32597 51804 10333 20175 39599 40079 85200 333 58005;
0168832360999992005092800004-12150-045000FM-12+043999999V0201801N001010450019N0100001N1+02901+01901101161ADDGF108991041021008001021999KA1240M+03491MA1999999096321MD1999999-0101REMSYN088AAXX  28004 83236 32597 81802 10290 20190 39632 40116 8422/ 333 10349 29056 55070 59010;
0201832360999992005092812004-12150-045000FM-12+043999999V0200901N002112200019N0100001N1+02941+01691101281ADDAA124002091AY161061AY261061GF104991031001008001031021KA1240N+02311MA1999999096471MD1999999-0061MW1021REMSYN088AAXX  28124 83236 21597 40904 10294 20169 39647 40128 70266 83032 333 20231 59006 60024;
0165832360999992005092818004-12150-045000FM-12+043999999V0201801N001010075019N0040001N1+03441+01381100681ADDAY101061AY241061GF106991061031008001001001MA1999999095891MD1999999-0101MW1041REMSYN076AAXX  28184 83236 31596 61802 10344 20138 39589 40068 70404 86300 333 59010;
0168832360999992005092900004-12150-045000FM-12+043999999V0201801N000510075019N0040001N1+02841+01701100981ADDGF105991051021008001001001KA1240M+03511MA1999999096191MD1999999-0131REMSYN088AAXX  29004 83236 32596 51801 10284 20170 39619 40098 85200 333 10351 29044 55066 59013;
0156832360999992005092912004-12150-045000FM-12+043999999V0200501N002110450019N0100001N1+02801+01751101301ADDGF105991021011008001031001KA1240N+02291MA1999999096471MD1999999+0001REMSYN076AAXX  29124 83236 32597 50504 10280 20175 39647 40130 82130 333 20229 58000;
0184832360999992005092918004-12150-045000FM-12+043999999V0201801N001010075019N0100001N1+03301+01681100701ADDAY101061AY201061GF106991999091008001001001MA1999999095911MD1999999+0021MW1151REMSYN076AAXX  29184 83236 31597 61802 10330 20168 39591 40070 71500 85900 333 58002;EQDQ01+000052SCOTLC
0213832360999992005093000004-12150-045000FM-12+043999999V0209999C000010120019N0100001N1+02481+02231101031ADDAA106003091AY161061AY261061GF107991071081008001001001KA1240M+03431MA1999999096181MD1999999-0011MW1021REMSYN100AAXX  30004 83236 21597 70000 10248 20223 39618 40103 70266 87800 333 10343 29066 55073 59001 60031;
0173832360999992005093012004-12150-045000FM-12+043999999V0203601N001011050019N0100001N1+02701+01721101411ADDAA124003091GF105991021001022501061071KA1240N+02131MA1999999096541MD1999999+0071REMSYN082AAXX  30124 83236 22897 53602 10270 20172 39654 40141 82067 333 20213 58007 60034;
0137832360999992005093018004-12150-045000FM-12+043999999V0201801N001510075019N0100001N1+03501+01531100691ADDGF106991061021008001001001MA1999999095911MD1999999+0001REMSYN070AAXX  30184 83236 32597 61803 10350 20153 39591 40069 86200 333 58000;
0168832360999992005100100004-12150-045000FM-12+043999999V0209999C000010120019N0200001N1+02821+01801101011ADDGF106991061081008001001001KA1240M+03591MA1999999096181MD1999999+0001REMSYN088AAXX  01004 83236 32598 60000 10282 20180 39618 40101 86800 333 10359 29048 55091 58000;
0156832360999992005100112004-12150-045000FM-12+043999999V0209999C000010450019N0100001N1+02721+01771101301ADDGF106991031021008001061001KA1240N+02401MA1999999096461MD1999999-0081REMSYN076AAXX  01124 83236 32597 60000 10272 20177 39646 40130 83260 333 20240 59008;
0137832360999992005100118004-12150-045000FM-12+043999999V0201801N001510075019N0100001N1+03511+01431100691ADDGF106991061021008001001001MA1999999095921MD1999999+0011REMSYN070AAXX  01184 83236 32597 61803 10351 20143 39592 40069 86200 333 58001;
0168832360999992005100200004-12150-045000FM-12+043999999V0209999C000012200019N0100001N1+02811+02031100951ADDGF104991041021008001001001KA1240M+03651MA1999999096131MD1999999-0051REMSYN088AAXX  02004 83236 32597 40000 10281 20203 39613 40095 84200 333 10365 29053 55055 59005;
0166832360999992005100212004-12150-045000FM-12+043999999V0200501N005112200019N0200001N1+02981+01731101141ADDGA1001+999999999GF100991001001999999001001KA1240N+02171MA1999999096341MD1999999-0121REMSYN070AAXX  02124 83236 32598 00510 10298 20173 39634 40114 333 20217 59012;
0137832360999992005100218004-12150-045000FM-12+043999999V0201401N003612200019N0200001N1+03741+00991100451ADDGF104991041021008001001001MA1999999095721MD1999999-0201REMSYN070AAXX  02184 83236 32598 41407 10374 20099 39572 40045 84200 333 59020;
0168832360999992005100300004-12150-045000FM-12+043999999V0202701N001012200019N0200001N1+02831+01171100771ADDGF103991001001999999001041KA1240M+03821MA1999999095991MD1999999-0141REMSYN088AAXX  03004 83236 32998 32702 10283 20117 39599 40077 80004 333 10382 29034 55105 59014;
0156832360999992005100312004-12150-045000FM-12+043999999V0200501N002612200019N0100001N1+02921+01261101041ADDGF104991001001999999001071KA1240N+01901MA1999999096251MD1999999-0091REMSYN076AAXX  03124 83236 32997 40505 10292 20126 39625 40104 80007 333 20190 59009;
0137832360999992005100318004-12150-045000FM-12+043999999V0200901N002110075019N0100001N1+03651+01141100441ADDGF105991051021008001001001MA1999999095671MD1999999-0051REMSYN070AAXX  03184 83236 32597 50904 10365 20114 39567 40044 85200 333 59005;
0168832360999992005100400004-12150-045000FM-12+043999999V0201801N000510075019N0100001N1+02961+01501100671ADDGF105991051021008001001001KA1240M+03771MA1999999095901MD1999999-0091REMSYN088AAXX  04004 83236 32597 51801 10296 20150 39590 40067 85200 333 10377 29035 55092 59009;
0156832360999992005100412004-12150-045000FM-12+043999999V0201801N001012200019N0100001N1+02871+01421101001ADDGF104991041001022501031001KA1240N+02291MA1999999096211MD1999999-0041REMSYN076AAXX  04124 83236 32897 41802 10287 20142 39621 40100 84030 333 20229 59004;
0137832360999992005100418004-12150-045000FM-12+043999999V0200901N003110075019N0100001N1+03671+01291100411ADDGF105991051021008001001001MA1999999095681MD1999999+0011REMSYN070AAXX  04184 83236 32597 50906 10367 20129 39568 40041 85200 333 58001;
0168832360999992005100500004-12150-045000FM-12+043999999V0209999C000012200019N0100001N1+02921+01421100691ADDGF102991021001022501061001KA1240M+03771MA1999999095911MD1999999+0011REMSYN088AAXX  05004 83236 32897 20000 10292 20142 39591 40069 82060 333 10377 29036 55079 58001;
0156832360999992005100512004-12150-045000FM-12+043999999V0200501N003112200019N0100001N1+03001+01571101101ADDGF103991001001999999001041KA1240N+02171MA1999999096311MD1999999+0101REMSYN076AAXX  05124 83236 32997 30506 10300 20157 39631 40110 80004 333 20217 58010;
0137832360999992005100518004-12150-045000FM-12+043999999V0203601N001012200019N0100001N1+03611+01221100571ADDGF105991041021008001001041MA1999999095841MD1999999+0161REMSYN070AAXX  05184 83236 32597 53602 10361 20122 39584 40057 84204 333 58016;
0168832360999992005100600004-12150-045000FM-12+043999999V0209999C000012200019N0100001N1+03071+01441100781ADDGF104991011071008001011001KA1240M+03801MA1999999096031MD1999999+0181REMSYN088AAXX  06004 83236 32597 40000 10307 20144 39603 40078 81710 333 10380 29035 55101 58018;
0194832360999992005100612004-12150-045000FM-12+043999999V0200901N003112200019N0100001N1+02921+01571101311ADDAY101061AY241061GA1001+999999999GF100991001001999999001001KA1240N+02041MA1999999096521MD1999999+0211MW1051REMSYN076AAXX  06124 83236 31997 00906 10292 20157 39652 40131 70504 333 20204 58021;
0165832360999992005100618004-12150-045000FM-12+043999999V0200901N002619999999N0100001N1+03681+01161100721ADDAY101061AY241061GF105991051021999999001001MA1999999095961MD1999999+0121MW1051REMSYN076AAXX  06184 83236 31997 50905 10368 20116 39596 40072 70504 85200 333 58012;
0168832360999992005100700004-12150-045000FM-12+043999999V0201801N001512200019N0200001N1+02941+01101100881ADDGF102991021011008001001001KA1240M+03781MA1999999096101MD1999999+0071REMSYN088AAXX  07004 83236 32598 21803 10294 20110 39610 40088 82100 333 10378 29032 55101 58007;
0194832360999992005100712004-12150-045000FM-12+043999999V0200501N004112200019N0100001N1+02951+01401101361ADDAY101061AY241061GA1001+999999999GF100991001001999999001001KA1240N+02131MA1999999096561MD1999999+0041MW1051REMSYN076AAXX  07124 83236 31597 00508 10295 20140 39656 40136 70504 333 20213 58004;
0165832360999992005100718004-12150-045000FM-12+043999999V0203601N004112200019N0040001N1+03541+00661100881ADDAY101061AY241061GF103991021011008001001071MA1999999096101MD1999999+0141MW1041REMSYN076AAXX  07184 83236 31596 33608 10354 20066 39610 40088 70404 82107 333 58014;
0168832360999992005100800004-12150-045000FM-12+043999999V0203201N001510075019N0040001N1+03191+00681101081ADDGF105991051021008001001001KA1240M+03661MA1999999096311MD1999999+0211REMSYN088AAXX  08004 83236 32596 53203 10319 20068 39631 40108 85200 333 10366 29024 55101 58021;
0184832360999992005100812004-12150-045000FM-12+043999999V0200501N003112200019N0100001N1+02901+01361101491ADDAY101061AY241061GF103991001001999999001051KA1240N+01981MA1999999096691MD1999999+0131MW1041REMSYN082AAXX  08124 83236 31997 30506 10290 20136 39669 40149 70404 80005 333 20198 58013;
0137832360999992005100818004-12150-045000FM-12+043999999V0201801N002111050019N0200001N1+03641+00911100871ADDGF106991041021008001001071MA1999999096071MD1999999-0031REMSYN070AAXX  08184 83236 32598 61804 10364 20091 39607 40087 84207 333 59003;
0206832360999992005100900004-12150-045000FM-12+043999999V0202301N001512200019N0040001N1+02641+01091101121ADDAY101061AY241061GA1001+999999999GF100991001001999999001001KA1240M+03601MA1999999096291MD1999999-0021MW1041REMSYN088AAXX  09004 83236 31996 02303 10264 20109 39629 40112 70404 333 10360 29034 55099 59002;
0194832360999992005100912004-12150-045000FM-12+043999999V0209999C000012200019N0040001N1+02791+01261101441ADDAY101061AY241061GA1001+999999999GF100991001001999999001001KA1240N+01811MA1999999096581MD1999999-0111MW1041REMSYN076AAXX  09124 83236 31996 00000 10279 20126 39658 40144 70404 333 20181 59011;
0137832360999992005100918004-12150-045000FM-12+043999999V0201401N001512200019N0200001N1+03511+00791100781ADDGF104991041021008001001001MA1999999095961MD1999999-0111REMSYN070AAXX  09184 83236 32598 41403 10351 20079 39596 40078 84200 333 59011;
0206832360999992005101000004-12150-045000FM-12+043999999V0202301N001512200019N0100001N1+02711+01151100921ADDAY101061AY241061GA1001+999999999GF100991001001999999001001KA1240M+03621MA1999999096101MD1999999-0191MW1041REMSYN088AAXX  10004 83236 31997 02303 10271 20115 39610 40092 70404 333 10362 29034 55106 59019;
0184832360999992005101012004-12150-045000FM-12+043999999V0200501N002612200019N0100001N1+02871+01291101141ADDAY101061AY241061GF102991001001999999001031KA1240N+01851MA1999999096321MD1999999-0261MW1041REMSYN082AAXX  10124 83236 31997 20505 10287 20129 39632 40114 70404 80003 333 20185 59026;
0137832360999992005101018004-12150-045000FM-12+043999999V0202301N002112200019N0200001N1+03641+00911100551ADDGF104991041021012501001001MA1999999095771MD1999999-0191REMSYN070AAXX  10184 83236 32698 42304 10364 20091 39577 40055 84200 333 59019;
0196832360999992005101100004-12150-045000FM-12+043999999V0202301N001512200019N0100001N1+02731+01201100891ADDAY101061AY241061GF103991031011012501001001KA1240M+03751MA1999999096081MD1999999-0021MW1041REMSYN094AAXX  11004 83236 31697 32303 10273 20120 39608 40089 70404 83100 333 10375 29034 55109 59002;
0194832360999992005101112004-12150-045000FM-12+043999999V0200501N002112200019N0100001N1+02871+01251101111ADDAY101061AY241061GA1001+999999999GF100991001001999999001001KA1240N+02031MA1999999096291MD1999999-0031MW1041REMSYN076AAXX  11124 83236 31997 00504 10287 20125 39629 40111 70404 333 20203 59003;
0165832360999992005101118004-12150-045000FM-12+043999999V0202301N001511050019N0100001N1+03721+01051100471ADDAY101061AY241061GF105991031021012501001031MA1999999095731MD1999999-0041MW1041REMSYN076AAXX  11184 83236 31697 52303 10372 20105 39573 40047 70404 83203 333 59004;
0196832360999992005101200004-12150-045000FM-12+043999999V0209999C000012200019N0100001N1+02801+01311100721ADDAY101061AY241061GF103991001001999999001051KA1240M+03781MA1999999095931MD1999999-0151MW1041REMSYN094AAXX  12004 83236 31997 30000 10280 20131 39593 40072 70404 80005 333 10378 29034 55105 59015;
0156832360999992005101212004-12150-045000FM-12+043999999V0203601N004612200019N0200001N1+03021+01391101171ADDGF104991001001999999001071KA1240N+02441MA1999999096371MD1999999+0081REMSYN076AAXX  12124 83236 32998 43609 10302 20139 39637 40117 80007 333 20244 58008;
0137832360999992005101218004-12150-045000FM-12+043999999V0203601N002611050019N0200001N1+03621+01361100481ADDGF105991031021008001001051MA1999999095751MD1999999+0021REMSYN070AAXX  12184 83236 32598 53605 10362 20136 39575 40048 83205 333 58002;
0213832360999992005101300004-12150-045000FM-12+043999999V0203601N001010075019N0100001N1+02681+01991100861ADDAA106000591AY151061AY251061GF108991071061008001021999KA1240M+03661MA1999999096061MD1999999+0131MW1151REMSYN100AAXX  13004 83236 21597 83602 10268 20199 39606 40086 71555 8762/ 333 10366 29049 55100 58013 69941;
0173832360999992005101312004-12150-045000FM-12+043999999V0200501N004612200019N0200001N1+02941+01591101191ADDAA124000591GF104991031011012501001051KA1240N+02211MA1999999096371MD1999999+0001REMSYN082AAXX  13124 83236 22698 40509 10294 20159 39637 40119 83105 333 20221 58000 69944;
0137832360999992005101318004-12150-045000FM-12+043999999V0201801N002611050019N0200001N1+03601+01461100551ADDGF106991041021008001001071MA1999999095801MD1999999+0051REMSYN070AAXX  13184 83236 32598 61805 10360 20146 39580 40055 84207 333 58005;
0206832360999992005101400004-12150-045000FM-12+043999999V0209999C000012200019N0100001N1+02811+01281100791ADDAY101061AY241061GA1001+999999999GF100991001001999999001001KA1240M+03701MA1999999096001MD1999999-0061MW1041REMSYN088AAXX  14004 83236 31997 00000 10281 20128 39600 40079 70404 333 10370 29038 55091 59006;
0156832360999992005101412004-12150-045000FM-12+043999999V0200501N004112200019N0200001N1+02911+01341101191ADDGF102991001001999999001031KA1240N+01951MA1999999096381MD1999999+0011REMSYN076AAXX  14124 83236 32998 20508 10291 20134 39638 40119 80003 333 20195 58001;
0137832360999992005101418004-12150-045000FM-12+043999999V0200501N001510120019N0200001N1+03641+01191100611ADDGF105991051021012501001001MA1999999095841MD1999999+0041REMSYN070AAXX  14184 83236 32698 50503 10364 20119 39584 40061 85200 333 58004;
0168832360999992005101500004-12150-045000FM-12+043999999V0202301N001512200019N0200001N1+02701+01371100831ADDGF104991031021012501001031KA1240M+03691MA1999999096031MD1999999+0031REMSYN088AAXX  15004 83236 32698 42303 10270 20137 39603 40083 83203 333 10369 29037 55108 58003;
0194832360999992005101512004-12150-045000FM-12+043999999V0201401N001512200019N0100001N1+02971+01251101051ADDAY101061AY241061GA1001+999999999GF100991001001999999001001KA1240N+01971MA1999999096251MD1999999-0131MW1041REMSYN076AAXX  15124 83236 31997 01403 10297 20125 39625 40105 70404 333 20197 59013;
0168832360999992005101600004-12150-045000FM-12+043999999V0209999C000012200019N0200001N1+02851+01191100651ADDGF103991031011012501001001KA1240M+03931MA1999999095871MD1999999-0161REMSYN088AAXX  16004 83236 32698 30000 10285 20119 39587 40065 83100 333 10393 29031 55101 59016;
0194832360999992005101612004-12150-045000FM-12+043999999V0200501N003112200019N0100001N1+03031+01281101101ADDAY101061AY241061GA1001+999999999GF100991001001999999001001KA1240N+02421MA1999999096311MD1999999+0061MW1041REMSYN076AAXX  16124 83236 31997 00506 10303 20128 39631 40110 70404 333 20242 58006;
0165832360999992005101618004-12150-045000FM-12+043999999V0201801N001512200019N0100001N1+03651+01061100501ADDAY101061AY241061GF104991041021012501001001MA1999999095781MD1999999+0121MW1041REMSYN076AAXX  16184 83236 31697 41803 10365 20106 39578 40050 70404 84200 333 58012;
0196832360999992005101700004-12150-045000FM-12+043999999V0209999C000012200019N0100001N1+02941+00481100791ADDAY101061AY241061GF102991001001999999001051KA1240M+03751MA1999999096031MD1999999+0161MW1041REMSYN094AAXX  17004 83236 31997 20000 10294 20048 39603 40079 70404 80005 333 10375 29024 55111 58016;
0184832360999992005101712004-12150-045000FM-12+043999999V0209999C000019999999N0100001N1+02781+01141101211ADDAY101061AY241061GF105991001001999999001071KA1240N+01781MA1999999096401MD1999999+0091MW1041REMSYN082AAXX  17124 83236 31997 50000 10278 20114 39640 40121 70404 80007 333 20178 58009;
0165832360999992005101718004-12150-045000FM-12+043999999V0201401N002611050019N0100001N1+03751+00441100491ADDAY101061AY241061GF105991031001022501041071MA1999999095731MD1999999-0051MW1041REMSYN076AAXX  17184 83236 31897 51405 10375 20044 39573 40049 70404 83047 333 59005;
0196832360999992005101800004-12150-045000FM-12+043999999V0209999C000011050019N0100001N1+02851+00921100771ADDAY101061AY241061GF105991021021012501001071KA1240M+03801MA1999999095971MD1999999-0061MW1041REMSYN094AAXX  18004 83236 31697 50000 10285 20092 39597 40077 70404 82207 333 10380 29027 55095 59006;
0184832360999992005101812004-12150-045000FM-12+043999999V0209999C000012200019N0100001N1+02881+01221101111ADDAY101061AY221061GF103991001001999999001051KA1240N+01781MA1999999096301MD1999999-0101MW1041REMSYN082AAXX  18124 83236 31997 30000 10288 20122 39630 40111 70402 80005 333 20178 59010;
0165832360999992005101818004-12150-045000FM-12+043999999V0203201N002111050019N0100001N1+03811+00601100541ADDAY101061AY241061GF105991031021008001001071MA1999999095751MD1999999+0021MW1041REMSYN076AAXX  18184 83236 31597 53204 10381 20060 39575 40054 70404 83207 333 58002;
0196832360999992005101900004-12150-045000FM-12+043999999V0201801N001012200019N0100001N1+02641+01321100811ADDAY101061AY241061GF103991031001022501061001KA1240M+03861MA1999999095991MD1999999+0021MW1041REMSYN094AAXX  19004 83236 31897 31802 10264 20132 39599 40081 70404 83060 333 10386 29035 55111 58002;
0184832360999992005101912004-12150-045000FM-12+043999999V0200501N003112200019N0100001N1+03111+01331101051ADDAY101061AY241061GF101991011011012501001001KA1240N+01901MA1999999096251MD1999999-0051MW1041REMSYN082AAXX  19124 83236 31697 10506 10311 20133 39625 40105 70404 81100 333 20190 59005;
0165832360999992005101918004-12150-045000FM-12+043999999V0209999C000011050019N0100001N1+03821+00971100561ADDAY101061AY241061GF105991031021008001001051MA1999999095811MD1999999+0061MW1041REMSYN076AAXX  19184 83236 31597 50000 10382 20097 39581 40056 70404 83205 333 58006;
0206832360999992005102000004-12150-045000FM-12+043999999V0209999C000012200019N0100001N1+02751+01101100721ADDAY101061AY241061GA1001+999999999GF100991001001999999001001KA1240M+03891MA1999999095951MD1999999-0041MW1041REMSYN088AAXX  20004 83236 31997 00000 10275 20110 39595 40072 70404 333 10389 29031 55098 59004;
0213832360999992005102012004-12150-045000FM-12+043999999V0200501N004112200019N0100001N1+02871+01441101181ADDAY101061AY201061GA1001+999999999GF100991001001999999001001KA1240N+02091MA1999999096361MD1999999+0111MW1041REMSYN076AAXX  20124 83236 31997 00508 10287 20144 39636 40118 70407 333 20209 58011;EQDQ01+000072PSTWM2
0165832360999992005102018004-12150-045000FM-12+043999999V0200901N002612200019N0100001N1+03641+01061100521ADDAY101061AY241061GF104991041021008001001001MA1999999095771MD1999999-0041MW1041REMSYN076AAXX  20184 83236 31597 40905 10364 20106 39577 40052 70404 84200 333 59004;
0206832360999992005102100004-12150-045000FM-12+043999999V0209999C000012200019N0100001N1+02731+01041100841ADDAY101061AY241061GA1001+999999999GF100991001001999999001001KA1240M+03681MA1999999096041MD1999999+0091MW1041REMSYN088AAXX  21004 83236 31997 00000 10273 20104 39604 40084 70404 333 10368 29033 55102 58009;
0184832360999992005102112004-12150-045000FM-12+043999999V0200501N003112200019N0100001N1+02801+01281101241ADDAY101061AY241061GF103991001001999999001051KA1240N+01881MA1999999096401MD1999999+0041MW1041REMSYN082AAXX  21124 83236 31997 30506 10280 20128 39640 40124 70404 80005 333 20188 58004;
0165832360999992005102118004-12150-045000FM-12+043999999V0200901N001512200019N0100001N1+03541+01241100591ADDAY101061AY241061GF104991031021012501001031MA1999999095781MD1999999+0011MW1041REMSYN076AAXX  21184 83236 31697 40903 10354 20124 39578 40059 70404 83203 333 58001;
0206832360999992005102200004-12150-045000FM-12+043999999V0209999C000012200019N0100001N1+02491+01071100811ADDAY101061AY241061GA1001+999999999GF100991001001999999001001KA1240M+03611MA1999999095971MD1999999-0071MW1041REMSYN088AAXX  22004 83236 31997 00000 10249 20107 39597 40081 70404 333 10361 29037 55100 59007;
0194832360999992005102212004-12150-045000FM-12+043999999V0203601N001012200019N0100001N1+02791+01141101171ADDAY101061AY241061GA1001+999999999GF100991001001999999001001KA1240N+01741MA1999999096321MD1999999-0081MW1041REMSYN076AAXX  22124 83236 31997 03602 10279 20114 39632 40117 70404 333 20174 59008;
0165832360999992005102218004-12150-045000FM-12+043999999V0201801N001512200019N0100001N1+03591+00931100581ADDAY101061AY241061GF104991041021008001001001MA1999999095761MD1999999-0021MW1041REMSYN076AAXX  22184 83236 31597 41803 10359 20093 39576 40058 70404 84200 333 59002;
0206832360999992005102300004-12150-045000FM-12+043999999V0209999C000012200019N0100001N1+02571+01501100781ADDAY101061AY241061GA1001+999999999GF100991001001999999001001KA1240M+03711MA1999999095951MD1999999-0021MW1041REMSYN088AAXX  23004 83236 31997 00000 10257 20150 39595 40078 70404 333 10371 29040 55104 59002;
0184832360999992005102312004-12150-045000FM-12+043999999V0200501N002112200019N0100001N1+02301+01301101091ADDAY101061AY241061GF103991001001999999001041KA1240N+02061MA1999999096271MD1999999-0051MW1041REMSYN082AAXX  23124 83236 31997 30504 10230 20130 39627 40109 70404 80004 333 20206 59005;
0165832360999992005102318004-12150-045000FM-12+043999999V0203201N001512200019N0100001N1+03681+01231100461ADDAY101061AY241061GF105991021011008001001041MA1999999095701MD1999999-0061MW1041REMSYN076AAXX  23184 83236 31597 53203 10368 20123 39570 40046 70404 82104 333 59006;
0196832360999992005102400004-12150-045000FM-12+043999999V0209999C000012200019N0100001N1+03061+01471100641ADDAY101061AY241061GF104991021011008001001041KA1240M+03791MA1999999095891MD1999999-0061MW1041REMSYN094AAXX  24004 83236 31597 40000 10306 20147 39589 40064 70404 82104 333 10379 29034 55103 59006;
0194832360999992005102412004-12150-045000FM-12+043999999V0203601N005112200019N0100001N1+03101+01141101021ADDAY101061AY241061GA1001+999999999GF100991001001999999001001KA1240N+02331MA1999999096261MD1999999-0011MW1051REMSYN076AAXX  24124 83236 31997 03610 10310 20114 39626 40102 70504 333 20233 59001;
0165832360999992005102418004-12150-045000FM-12+043999999V0201801N001010075019N0100001N1+03791+01191100401ADDAY101061AY241061GF105991051021008001001001MA1999999095681MD1999999-0021MW1051REMSYN076AAXX  24184 83236 31597 51802 10379 20119 39568 40040 70504 85200 333 59002;
0196832360999992005102500004-12150-045000FM-12+043999999V0209999C000010120019N0100001N1+02991+01241100611ADDAY101061AY241061GF107991071081008001001001KA1240M+03861MA1999999095861MD1999999-0031MW1051REMSYN094AAXX  25004 83236 31597 70000 10299 20124 39586 40061 70504 87800 333 10386 29030 55089 59003;
0194832360999992005102512004-12150-045000FM-12+043999999V0203601N005112200019N0100001N1+02931+00951101131ADDAY101061AY241061GA1001+999999999GF100991001001999999001001KA1240N+01921MA1999999096341MD1999999+0081MW1051REMSYN076AAXX  25124 83236 31997 03610 10293 20095 39634 40113 70504 333 20192 58008;
0165832360999992005102518004-12150-045000FM-12+043999999V0202701N001012200019N0100001N1+03721+00891100421ADDAY101061AY241061GF103991031011008001001001MA1999999095671MD1999999-0011MW1041REMSYN076AAXX  25184 83236 31597 32702 10372 20089 39567 40042 70404 83100 333 59001;
0196832360999992005102600004-12150-045000FM-12+043999999V0201801N002112200019N0100001N1+02951+00811100671ADDAY101061AY241061GF102991021011008001001001KA1240M+03811MA1999999095901MD1999999+0041MW1041REMSYN094AAXX  26004 83236 31597 21804 10295 20081 39590 40067 70404 82100 333 10381 29025 55110 58004;
0194832360999992005102612004-12150-045000FM-12+043999999V0200501N004112200019N0100001N1+03021+01171101041ADDAY101061AY241061GA1001+999999999GF100991001001999999001001KA1240N+01951MA1999999096261MD1999999-0081MW1051REMSYN076AAXX  26124 83236 31997 00508 10302 20117 39626 40104 70504 333 20195 59008;
0165832360999992005102618004-12150-045000FM-12+043999999V0202301N002612200019N0100001N1+03721+00971100341ADDAY101061AY241061GF102991021011008001001001MA1999999095591MD1999999-0081MW1041REMSYN076AAXX  26184 83236 31597 22305 10372 20097 39559 40034 70404 82100 333 59008;
0206832360999992005102700004-12150-045000FM-12+043999999V0209999C000012200019N0100001N1+02921+01041100601ADDAY101061AY241061GA1001+999999999GF100991001001999999001001KA1240M+03881MA1999999095841MD1999999-0061MW1041REMSYN088AAXX  27004 83236 31997 00000 10292 20104 39584 40060 70404 333 10388 29028 55110 59006;
0184832360999992005102712004-12150-045000FM-12+043999999V0200501N004112200019N0040001N1+03201+01371100941ADDAY101061AY241061GF103991001001999999001071KA1240N+02151MA1999999096181MD1999999-0081MW1041REMSYN082AAXX  27124 83236 31996 30508 10320 20137 39618 40094 70404 80007 333 20215 59008;
0165832360999992005102718004-12150-045000FM-12+043999999V0203201N001012200019N0040001N1+03911+00881100321ADDAY101061AY241061GF104991041021008001001001MA1999999095601MD1999999+0011MW1041REMSYN076AAXX  27184 83236 31596 43202 10391 20088 39560 40032 70404 84200 333 58001;
0196832360999992005102800004-12150-045000FM-12+043999999V0209999C000012200019N0040001N1+03141+02692100571ADDAY101061AY241061GF104991021011008001001041KA1240M+03991MA1999999095921MD1999999+0081MW1041REMSYN094AAXX  28004 83236 31596 40000 10314 20269 39592 40057 70404 82104 333 10399 29033 55104 58008;
0184832360999992005102812004-12150-045000FM-12+043999999V0203601N001011050019N0040001N1+02991+01971100891ADDAY101061AY241061GF106991021011008001001071KA1240N+02231MA1999999096131MD1999999-0051MW1041REMSYN082AAXX  28124 83236 31596 63602 10299 20197 39613 40089 70404 82107 333 20223 59005;
0165832360999992005102818004-12150-045000FM-12+043999999V0203201N006210075019N0040001N1+03461+01981100331ADDAY101061AY241061GF106991061021008001001001MA1999999095561MD1999999-0041MW1041REMSYN076AAXX  28184 83236 31596 63212 10346 20198 39556 40033 70404 86200 333 59004;
0213832360999992005102900004-12150-045000FM-12+043999999V0202701N000510075019N0040001N1+02501+02001100781ADDAA106007191AY191061AY261061GF108991051071008001021999KA1240M+03781MA1999999095961MD1999999+0041MW1131REMSYN100AAXX  29004 83236 21596 82701 10250 20200 39596 40078 71396 8572/ 333 10378 29061 55080 58004 60071;
0201832360999992005102912004-12150-045000FM-12+043999999V0202301N001510450019N0100001N1+02521+02051101141ADDAA124009991AY161061AY261061GF108991031071008001011001KA1240N+02211MA1999999096261MD1999999+0131MW1021REMSYN088AAXX  29124 83236 21597 82303 10252 20205 39626 40114 70266 83710 333 20221 58013 60104;
0196832360999992005103000004-12150-045000FM-12+043999999V0209999C000010450019N0100001N1+02611+02081100891ADDAY101061AY221061GF106991041071008001011001KA1240M+03341MA1999999096031MD1999999+0071MW1131REMSYN094AAXX  30004 83236 31597 60000 10261 20208 39603 40089 71302 84710 333 10334 29066 55046 58007;
0156832360999992005103012004-12150-045000FM-12+043999999V0202301N001012200019N0100001N1+02691+01721101111ADDGF106991031021008001001041KA1240N+02241MA1999999096261MD1999999+0001REMSYN076AAXX  30124 83236 32597 62302 10269 20172 39626 40111 83204 333 20224 58000;
0137832360999992005103018004-12150-045000FM-12+043999999V0203601N002612200019N0100001N1+03681+01581100531ADDGF105991031021008001001041MA1999999095771MD1999999-0051REMSYN070AAXX  30184 83236 32597 53605 10368 20158 39577 40053 83204 333 59005;
0213832360999992005103100004-12150-045000FM-12+043999999V0201801N002610075019N0040001N1+02781+02211101021ADDAA106004191AY101061AY291061GF108991051071008001021999KA1240M+03741MA1999999096191MD1999999+0161MW1951REMSYN100AAXX  31004 83236 21596 81805 10278 20221 39619 40102 79509 8572/ 333 10374 29056 55071 58016 60041;
0201832360999992005103112004-12150-045000FM-12+043999999V0200501N003610450019N0100001N1+02451+02151101331ADDAA124011991AY101061AY261061GF108991041051008001021999KA1240N+02371MA1999999096461MD1999999+0191MW1021REMSYN088AAXX  31124 83236 21597 80507 10245 20215 39646 40133 70206 8452/ 333 20237 58019 60124;
0137832360999992005103118004-12150-045000FM-12+043999999V0200501N003110450019N0100001N1+03021+02131100861ADDGF106991021021008001071001MA1999999096041MD1999999+0271REMSYN070AAXX  31184 83236 32597 60506 10302 20213 39604 40086 82270 333 58027;
0168832360999992005110100004-12150-045000FM-12+043999999V0209999C000012200019N0100001N1+02711+02131101121ADDGF104991041021008001001001KA1240M+03081MA1999999096261MD1999999+0071REMSYN088AAXX  01004 83236 32597 40000 10271 20213 39626 40112 84200 333 10308 29071 55024 58007;
0156832360999992005110112004-12150-045000FM-12+043999999V0209999C000010120019N0100001N1+02821+02051101261ADDGF106991061081008001001001KA1240N+02271MA1999999096421MD1999999-0041REMSYN076AAXX  01124 83236 32597 60000 10282 20205 39642 40126 86800 333 20227 59004;
0196832360999992005110200004-12150-045000FM-12+043999999V0209999C000010075019N0100001N1+02841+02091100911ADDAY101061AY221061GF106991061071008001001001KA1240M+03621MA1999999096111MD1999999-0151MW1131REMSYN094AAXX  02004 83236 31597 60000 10284 20209 39611 40091 71302 86700 333 10362 29057 55063 59015;
0201832360999992005110212004-12150-045000FM-12+043999999V0209999C000011050019N0100001N1+02661+02221101271ADDAA124003091AY191061AY261061GF106991031021008001001021KA1240N+02231MA1999999096431MD1999999+0011MW1021REMSYN088AAXX  02124 83236 21597 60000 10266 20222 39643 40127 70296 83202 333 20223 58001 60034;
0124832360999992005110218004-12150-045000FM-12+043999999V0203601N001011050019N0100001N1+03291+01801100801ADDGF107991041021008001001061MA1999999096001REMSYN071AAXX  02184 83236 32597 73602 10329 20180 39600 40080 84206 333 528020;
0196832360999992005110300004-12150-045000FM-12+043999999V0200901N006210075019N0100001N1+02591+01871101481ADDAY101061AY291061GF108991051071008001021999KA1240M+03451MA1999999096601MD1999999+0491MW1971REMSYN094AAXX  03004 83236 31597 80912 10259 20187 39660 40148 79709 8572/ 333 10345 29062 55031 58049;
0201832360999992005110312004-12150-045000FM-12+043999999V0201801N001012200019N0100001N1+02781+02041101331ADDAA124000591AY191061AY251061GF103991001001999999001091KA1240N+02191MA1999999096481MD1999999+0051MW1021REMSYN088AAXX  03124 83236 21997 31802 10278 20204 39648 40133 70295 80009 333 20219 58005 69964;
0137832360999992005110318004-12150-045000FM-12+043999999V0200901N002612200019N0100001N1+03641+01381100741ADDGF103991031021008001001001MA1999999095961MD1999999-0041REMSYN070AAXX  03184 83236 32597 30905 10364 20138 39596 40074 83200 333 59004;
0196832360999992005110400004-12150-045000FM-12+043999999V0202701N001010075019N0100001N1+02851+01921100931ADDAY101061AY221061GF105991051071008001001001KA1240M+03701MA1999999096121MD1999999-0411MW1131REMSYN094AAXX  04004 83236 31597 52702 10285 20192 39612 40093 71302 85700 333 10370 29051 55112 59041;
0166832360999992005110412004-12150-045000FM-12+043999999V0203601N004112200019N0200001N1+02961+01571101101ADDGA1001+999999999GF100991001001999999001001KA1240N+02191MA1999999096301MD1999999-0181REMSYN070AAXX  04124 83236 32998 03608 10296 20157 39630 40110 333 20219 59018;
0137832360999992005110418004-12150-045000FM-12+043999999V0201801N003112200019N0200001N1+03621+01361100511ADDGF104991041021008001001001MA1999999095751MD1999999-0211REMSYN070AAXX  04184 83236 32598 41806 10362 20136 39575 40051 84200 333 59021;
0178832360999992005110500004-12150-045000FM-12+043999999V0202701N001012200019N0200001N1+02811+01601100771ADDGA1001+999999999GF100991001001999999001001KA1240M+03741MA1999999095991MD1999999-0131REMSYN082AAXX  05004 83236 32998 02702 10281 20160 39599 40077 333 10374 29041 55106 59013;
0166832360999992005110512004-12150-045000FM-12+043999999V0203601N001512200019N0200001N1+02951+01421101001ADDGA1001+999999999GF100991001001999999001001KA1240N+02091MA1999999096211MD1999999-0091REMSYN070AAXX  05124 83236 32998 03603 10295 20142 39621 40100 333 20209 59009;
0137832360999992005110518004-12150-045000FM-12+043999999V0201401N002112200019N0200001N1+03681+01291100431ADDGF104991021011008001001041MA1999999095681MD1999999-0071REMSYN070AAXX  05184 83236 32598 41404 10368 20129 39568 40043 82104 333 59007;
0168832360999992005110600004-12150-045000FM-12+043999999V0200501N002112200019N0200001N1+02941+01231100631ADDGF103991001001999999001041KA1240M+03771MA1999999095861MD1999999-0131REMSYN088AAXX  06004 83236 32998 30504 10294 20123 39586 40063 80004 333 10377 29033 55108 59013;
0166832360999992005110612004-12150-045000FM-12+043999999V0203601N003112200019N0200001N1+02941+01441101071ADDGA1001+999999999GF100991001001999999001001KA1240N+01981MA1999999096281MD1999999-0071REMSYN070AAXX  06124 83236 32998 03606 10294 20144 39628 40107 333 20198 59007;
0137832360999992005110618004-12150-045000FM-12+043999999V0200901N004112200019N0200001N1+03681+00941100461ADDGF102991021011008001001001MA1999999095711MD1999999+0031REMSYN070AAXX  06184 83236 32598 20908 10368 20094 39571 40046 82100 333 58003;
0178832360999992005110700004-12150-045000FM-12+043999999V0201801N001512200019N0200001N1+02891+01111100731ADDGA1001+999999999GF100991001001999999001001KA1240M+03821MA1999999095951MD1999999+0091REMSYN082AAXX  07004 83236 32998 01803 10289 20111 39595 40073 333 10382 29031 55117 58009;
0147832360999992005110718004-12150-045000FM-12+043999999V0201401N001512200019N0200001N1+03791+00861100471ADDGA1001+999999999GF100991001001999999001001MA1999999095681MD1999999-0031REMSYN064AAXX  07184 83236 32998 01403 10379 20086 39568 40047 333 59003;
0156832360999992005110812004-12150-045000FM-12+043999999V0203601N003612200019N0200001N1+02961+01341100971ADDGF103991001001999999001051KA1240N+01861MA1999999096171MD1999999-0071REMSYN076AAXX  08124 83236 32998 33607 10296 20134 39617 40097 80005 333 20186 59007;
0137832360999992005110818004-12150-045000FM-12+043999999V0203201N002611050019N0200001N1+03691+01161100481ADDGF105991031021008001001071MA1999999095711MD1999999+0031REMSYN070AAXX  08184 83236 32598 53205 10369 20116 39571 40048 83207 333 58003;
0168832360999992005110900004-12150-045000FM-12+043999999V0201801N001012200019N0200001N1+02751+01641100631ADDGF102991021011012501001001KA1240M+03791MA1999999095851MD1999999-0081REMSYN088AAXX  09004 83236 32698 21802 10275 20164 39585 40063 82100 333 10379 29041 55112 59008;
0156832360999992005110912004-12150-045000FM-12+043999999V0203601N001512200019N0200001N1+03111+01371100921ADDGF103991021021012501001031KA1240N+02291MA1999999096141MD1999999-0031REMSYN076AAXX  09124 83236 32698 33603 10311 20137 39614 40092 82203 333 20229 59003;
0137832360999992005110918004-12150-045000FM-12+043999999V0203601N001012200019N0200001N1+03721+00891100371ADDGF104991041021008001001001MA1999999095651MD1999999-0061REMSYN070AAXX  09184 83236 32598 43602 10372 20089 39565 40037 84200 333 59006;
0168832360999992005111000004-12150-045000FM-12+043999999V0209999C000012200019N0200001N1+02831+01741100591ADDGF104991021011012501061031KA1240M+03791MA1999999095831MD1999999-0021REMSYN088AAXX  10004 83236 32698 40000 10283 20174 39583 40059 82163 333 10379 29039 55112 59002;
0156832360999992005111012004-12150-045000FM-12+043999999V0203601N004110450019N0200001N1+03141+01501100861ADDGF106991041021008001071051KA1240N+02621MA1999999096091MD1999999-0051REMSYN076AAXX  10124 83236 32598 63608 10314 20150 39609 40086 84275 333 20262 59005;
0137832360999992005111018004-12150-045000FM-12+043999999V0203601N002110450019N0200001N1+03571+01481100301ADDGF106991031021008001051071MA1999999095581MD1999999-0071REMSYN070AAXX  10184 83236 32598 63604 10357 20148 39558 40030 83257 333 59007;
0196832360999992005111100004-12150-045000FM-12+043999999V0200501N003110075019N0200001N1+02811+01781100701ADDAY121061AY221061GF108991071051008001041999KA1240M+03661MA1999999095931MD1999999+0101MW1131REMSYN094AAXX  11004 83236 31598 80506 10281 20178 39593 40070 71322 8754/ 333 10366 29044 55057 58010;
0201832360999992005111112004-12150-045000FM-12+043999999V0201801N001510075019N0040001N1+02351+02181101101ADDAA124010991AY161061AY251061GF108991061071008001041999KA1240N+02251MA1999999096241MD1999999+0151MW1101REMSYN088AAXX  11124 83236 21596 81803 10235 20218 39624 40110 71065 8674/ 333 20225 58015 60114;
0182832360999992005111118004-12150-045000FM-12+043999999V0203201N001010075019N0100001N1+02481+02211100831ADDAA106000391AY151061AY251061GF108991071061008001051999MA1999999095941MD1999999+0361MW1151REMSYN082AAXX  11184 83236 21597 83202 10248 20221 39594 40083 71555 8765/ 333 58036 69931;
0213832360999992005111200004-12150-045000FM-12+043999999V0209999C000010075019N0040001N1+02341+02261100871ADDAA106001091AY161061AY251061GF108991061061008001021999KA1240M+02831MA1999999095971MD1999999+0041MW1151REMSYN100AAXX  12004 83236 21596 80000 10234 20226 39597 40087 71565 8662/ 333 10283 29092 55004 58004 60011;
0201832360999992005111212004-12150-045000FM-12+043999999V0202301N001010075019N0100001N1+02531+02151100941ADDAA124002091AY151061AY251061GF108991061071008001041041KA1240N+02311MA1999999096061MD1999999-0181MW1031REMSYN088AAXX  12124 83236 21597 82302 10253 20215 39606 40094 70355 86744 333 20231 59018 60024;
0137832360999992005111218004-12150-045000FM-12+043999999V0201801N001010075019N0200001N1+03101+01871100441ADDGF106991051041008001051071MA1999999095621MD1999999-0321REMSYN070AAXX  12184 83236 32598 61802 10310 20187 39562 40044 85457 333 59032;
0196832360999992005111300004-12150-045000FM-12+043999999V0200901N001510075019N0100001N1+02641+02121100751ADDAY121061AY221061GF108991061051008001041999KA1240M+03171MA1999999095911MD1999999-0061MW1151REMSYN094AAXX  13004 83236 31597 80903 10264 20212 39591 40075 71522 8654/ 333 10317 29068 55038 59006;
0201832360999992005111312004-12150-045000FM-12+043999999V0209999C000010075019N0020001N1+02291+02161101161ADDAA124037191AY161061AY261061GF108991061051008001021999KA1240N+02181MA1999999096271MD1999999+0211MW1511REMSYN088AAXX  13124 83236 21595 80000 10229 20216 39627 40116 75166 8652/ 333 20218 58021 60374;
0168832360999992005111400004-12150-045000FM-12+043999999V0200501N002110075019N0040001N1+02431+02111100981ADDGF108991061051008001081999KA1240M+02871MA1999999096081MD1999999+0171REMSYN088AAXX  14004 83236 32596 80504 10243 20211 39608 40098 8658/ 333 10287 29083 55025 58017;
0201832360999992005111412004-12150-045000FM-12+043999999V0209999C000010075019N0040001N1+02261+02031101031ADDAA124009991AY161061AY251061GF108991061071008001041999KA1240N+02121MA1999999096131MD1999999-0141MW1101REMSYN088AAXX  14124 83236 21596 80000 10226 20203 39613 40103 71065 8674/ 333 20212 59014 60104;
0137832360999992005111418004-12150-045000FM-12+043999999V0200501N001510075019N0100001N1+02831+02171100581ADDGF108991071021008001071999MA1999999095731MD1999999+0011REMSYN070AAXX  14184 83236 32597 80503 10283 20217 39573 40058 8727/ 333 58001;
0168832360999992005111500004-12150-045000FM-12+043999999V0203601N003110075019N0040001N1+02351+02091101011ADDGF108991061071008001051999KA1240M+02871MA1999999096101MD1999999+0021REMSYN088AAXX  15004 83236 32596 83606 10235 20209 39610 40101 8675/ 333 10287 29082 55006 58002;
0201832360999992005111512004-12150-045000FM-12+043999999V0209999C000010075019N0040001N1+02401+02151101111ADDAA124003091AY151061AY251061GF108991061061008001041999KA1240N+02241MA1999999096211MD1999999+0081MW1101REMSYN088AAXX  15124 83236 21596 80000 10240 20215 39621 40111 71055 8664/ 333 20224 58008 60034;
0182832360999992005111518004-12150-045000FM-12+043999999V0200501N003110075019N0040001N1+02311+02141100941ADDAA106001091AY151061AY251061GF108991061071008001041999MA1999999096021MD1999999+0291MW1101REMSYN082AAXX  15184 83236 21596 80506 10231 20214 39602 40094 71055 8674/ 333 58029 60011;
0213832360999992005111600004-12150-045000FM-12+043999999V0209999C000010075019N0020001N1+02271+02141101141ADDAA106000021AY151061AY251061GF108991071061008001999999KA1240M+02461MA1999999096231MD1999999+0131MW1511REMSYN100AAXX  16004 83236 21595 80000 10227 20214 39623 40114 75155 876// 333 10246 29091 55000 58013 69921;
0201832360999992005111612004-12150-045000FM-12+043999999V0200501N001510120019N0100001N1+02551+02041101211ADDAA124004191AY121061AY221061GF108991061081008001041999KA1240N+02191MA1999999096311MD1999999+0101MW1101REMSYN088AAXX  16124 83236 21597 80503 10255 20204 39631 40121 71022 8684/ 333 20219 58010 60044;
0137832360999992005111618004-12150-045000FM-12+043999999V0200501N003610075019N0200001N1+02971+01991100671ADDGF106991061041008001061001MA1999999095821MD1999999-0201REMSYN070AAXX  16184 83236 32598 60507 10297 20199 39582 40067 86460 333 59020;
0168832360999992005111700004-12150-045000FM-12+043999999V0209999C000010075019N0100001N1+02471+02231100821ADDGF108991051021008001061999KA1240M+03011MA1999999095951MD1999999-0281REMSYN088AAXX  17004 83236 32597 80000 10247 20223 39595 40082 8526/ 333 10301 29076 55054 59028;
0156832360999992005111712004-12150-045000FM-12+043999999V0209999C000012200019N0200001N1+02631+01981100971ADDGF104991021021012501001051KA1240N+02151MA1999999096111MD1999999-0201REMSYN076AAXX  17124 83236 32698 40000 10263 20198 39611 40097 82205 333 20215 59020;
0137832360999992005111718004-12150-045000FM-12+043999999V0203601N002610450019N0200001N1+03271+01841100391ADDGF106991031021008001071051MA1999999095591MD1999999-0231REMSYN070AAXX  17184 83236 32598 63605 10327 20184 39559 40039 83275 333 59023;
0168832360999992005111800004-12150-045000FM-12+043999999V0201801N001010450019N0200001N1+02561+02041100611ADDGF106991031021008001061071KA1240M+03311MA1999999095771MD1999999-0181REMSYN088AAXX  18004 83236 32598 61802 10256 20204 39577 40061 83267 333 10331 29064 55088 59018;
0156832360999992005111812004-12150-045000FM-12+043999999V0200501N002112200019N0200001N1+02951+01961100781ADDGF104991021021008001051001KA1240N+02231MA1999999095961MD1999999-0151REMSYN076AAXX  18124 83236 32598 40504 10295 20196 39596 40078 82250 333 20223 59015;
0137832360999992005111818004-12150-045000FM-12+043999999V0200501N004111050019N0200001N1+03551+01621100251ADDGF105991031021008001001071MA1999999095501MD1999999-0091REMSYN070AAXX  18184 83236 32598 50508 10355 20162 39550 40025 83207 333 59009;
0168832360999992005111900004-12150-045000FM-12+043999999V0202301N001010075019N0200001N1+02811+02111100541ADDGF108991081071008001999999KA1240M+03631MA1999999095771MD1999999+0001REMSYN088AAXX  19004 83236 32598 82302 10281 20211 39577 40054 887// 333 10363 29055 55107 58000;
0156832360999992005111912004-12150-045000FM-12+043999999V0209999C000011050019N0200001N1+02831+02121100191ADDGF105991021021012501041071KA1240N+02341MA1999999096131MD1999999+0171REMSYN076AAXX  19124 83236 32698 50000 10283 20212 39613 40019 82247 333 20234 58017;
0137832360999992005111918004-12150-045000FM-12+043999999V0203601N002611050019N0200001N1+03431+01511100541ADDGF105991031021008001001051MA1999999095781MD1999999+0281REMSYN070AAXX  19184 83236 32598 53605 10343 20151 39578 40054 83205 333 58028;
0168832360999992005112000004-12150-045000FM-12+043999999V0202301N001012200019N0200001N1+02611+02061100841ADDGF102991021001022501061001KA1240M+03511MA1999999096021MD1999999+0251REMSYN088AAXX  20004 83236 32898 22302 10261 20206 39602 40084 82060 333 10351 29060 55113 58025;
0156832360999992005112012004-12150-045000FM-12+043999999V0201801N002619999999N0200001N1+02941+01911101001ADDGF105991001001999999001071KA1240N+02221MA1999999096171MD1999999+0041REMSYN076AAXX  20124 83236 32998 51805 10294 20191 39617 40100 80007 333 20222 58004;
0137832360999992005112018004-12150-045000FM-12+043999999V0202701N001012200019N0200001N1+03591+01331100391ADDGF102991021021012501001001MA1999999095641MD1999999-0141REMSYN070AAXX  20184 83236 32698 22702 10359 20133 39564 40039 82200 333 59014;
0178832360999992005112100004-12150-045000FM-12+043999999V0209999C000012200019N0200001N1+02691+02061100561ADDGA1001+999999999GF100991001001999999001001KA1240M+03671MA1999999095771MD1999999-0251REMSYN082AAXX  21004 83236 32998 00000 10269 20206 39577 40056 333 10367 29054 55115 59025;
0156832360999992005112112004-12150-045000FM-12+043999999V0209999C000010450019N0200001N1+02971+01991100771ADDGF105991021021012501051001KA1240N+02161MA1999999095981MD1999999-0191REMSYN076AAXX  21124 83236 32698 50000 10297 20199 39598 40077 82250 333 20216 59019;
0137832360999992005112118004-12150-045000FM-12+043999999V0203601N002112200019N0200001N1+03641+01261100251ADDGF103991021021008001001051MA1999999095491MD1999999-0151REMSYN070AAXX  21184 83236 32598 33604 10364 20126 39549 40025 82205 333 59015;
0187832360999992005112200004-12150-045000FM-12+043999999V0201801N001012200019N0200001N1+02741+01921100511ADDGF102991001001999999001051KA1240M+03691MA1999999095731MD1999999-0041REMSYN088AAXX  22004 83236 32898 21802 10274 20192 39573 40051 80005 333 10369 29050 55108 59004;EQDQ01+022502SCOLCB
0156832360999992005112212004-12150-045000FM-12+043999999V0203601N002612200019N0200001N1+02941+01971100741ADDGF104991041001022501061001KA1240N+02441MA1999999095951MD1999999-0031REMSYN076AAXX  22124 83236 32898 43605 10294 20197 39595 40074 84060 333 20244 59003;
0168832360999992005112300004-12150-045000FM-12+043999999V0201801N001010075019N0100001N1+02791+02031100531ADDGF105991051021008001001001KA1240M+03551MA1999999095751MD1999999+0021REMSYN088AAXX  23004 83236 32597 51802 10279 20203 39575 40053 85200 333 10355 29054 55089 58002;
0156832360999992005112312004-12150-045000FM-12+043999999V0201401N002110450019N0100001N1+02801+02031100891ADDGF106991011011008001031051KA1240N+02331MA1999999096081MD1999999+0131REMSYN076AAXX  23124 83236 32597 61404 10280 20203 39608 40089 81135 333 20233 58013;
0137832360999992005112318004-12150-045000FM-12+043999999V0200501N003110450019N0100001N1+03391+01681100341ADDGF105991031021008001061001MA1999999095591MD1999999+0131REMSYN070AAXX  23184 83236 32597 50506 10339 20168 39559 40034 83260 333 58013;
0168832360999992005112400004-12150-045000FM-12+043999999V0202301N001510075019N0100001N1+02691+02011100701ADDGF108991051071008001021999KA1240M+03471MA1999999095891MD1999999+0141REMSYN088AAXX  24004 83236 32597 82303 10269 20201 39589 40070 8572/ 333 10347 29058 55091 58014;
0201832360999992005112412004-12150-045000FM-12+043999999V0202701N001010450019N0100001N1+02581+02081101131ADDAA124000591AY151061AY251061GF106991031021008001071001KA1240N+02331MA1999999096281MD1999999+0201MW1021REMSYN088AAXX  24124 83236 21597 62702 10258 20208 39628 40113 70255 83270 333 20233 58020 69954;
0165832360999992005112418004-12150-045000FM-12+043999999V0202301N002110075019N0100001N1+03031+02001100691ADDAY101061AY291061GF107991051091008001041001MA1999999095881MD1999999+0291MW1171REMSYN076AAXX  24184 83236 31597 72304 10303 20200 39588 40069 71709 85940 333 58029;
0213832360999992005112500004-12150-045000FM-12+043999999V0201801N001010210019N0100001N1+02371+02071101031ADDAA106001091AY151061AY251061GF108991081001022501021999KA1240M+03071MA1999999096151MD1999999+0261MW1021REMSYN100AAXX  25004 83236 21897 81802 10237 20207 39615 40103 70255 8802/ 333 10307 29074 55014 58026 60011;
0173832360999992005112512004-12150-045000FM-12+043999999V0203601N002110450019N0100001N1+02511+02031101111ADDAA124001091GF108991031051008001051001KA1240N+02251MA1999999096221MD1999999-0061REMSYN082AAXX  25124 83236 22597 83604 10251 20203 39622 40111 83550 333 20225 59006 60014;
0137832360999992005112518004-12150-045000FM-12+043999999V0203601N005110450019N0100001N1+02771+02041100651ADDGF106991021021008001071001MA1999999095791MD1999999-0091REMSYN070AAXX  25184 83236 32597 63610 10277 20204 39579 40065 82270 333 59009;
0168832360999992005112600004-12150-045000FM-12+043999999V0200501N002110120019N0100001N1+02561+02061100731ADDGF108991081081008001999999KA1240M+02891MA1999999095971MD1999999-0181REMSYN088AAXX  26004 83236 32597 80504 10256 20206 39597 40073 888// 333 10289 29072 55021 59018;
0201832360999992005112612004-12150-045000FM-12+043999999V0201401N001010075019N0040001N1+02201+02061101011ADDAA124003091AY161061AY261061GF108991051051008001021999KA1240N+02171MA1999999096121MD1999999-0101MW1421REMSYN088AAXX  26124 83236 21596 81402 10220 20206 39612 40101 74266 8552/ 333 20217 59010 60034;
0182832360999992005112618004-12150-045000FM-12+043999999V0200501N001510075019N0040001N1+02281+02141100651ADDAA106009991AY161061AY261061GF108991081001008001021999MA1999999095751MD1999999-0041MW1411REMSYN082AAXX  26184 83236 21596 80503 10228 20214 39575 40065 74166 8802/ 333 59004 60101;
0213832360999992005112700004-12150-045000FM-12+043999999V0209999C000010210019N0040001N1+02291+02181100871ADDAA106004191AY161061AY261061GF108991081001022501021999KA1240M+02701MA1999999095951MD1999999-0021MW1501REMSYN100AAXX  27004 83236 21896 80000 10229 20218 39595 40087 75066 8802/ 333 10270 29092 55004 59002 60041;
0182832360999992005112718004-12150-045000FM-12+043999999V0201801N001010450019N0100001N1+02341+02151100471ADDAA106003091AY161061AY261061GF108991041071008001021999MA1999999095571MD1999999-0181MW1151REMSYN082AAXX  27184 83236 21597 81802 10234 20215 39557 40047 71566 8472/ 333 59018 60031;
0213832360999992005112800004-12150-045000FM-12+043999999V0209999C000010450019N0040001N1+02281+02091100851ADDAA106000021AY151061AY251061GF108991041071008001021999KA1240M+02931MA1999999095851MD1999999-0101MW1501REMSYN100AAXX  28004 83236 21596 80000 10228 20209 39585 40085 75055 8472/ 333 10293 29089 55018 59010 69911;
0201832360999992005112812004-12150-045000FM-12+043999999V0200501N002110450019N0100001N1+02461+02071100931ADDAA124014091AY161061AY261061GF106991041021008001081001KA1240N+02131MA1999999096031MD1999999+0011MW1021REMSYN088AAXX  28124 83236 21597 60504 10246 20207 39603 40093 70266 84280 333 20213 58001 60144;
0182832360999992005112818004-12150-045000FM-12+043999999V0203601N005710075019N0100001N1+02551+02081100531ADDAA106001091AY151061AY251061GF108991051051008001021999MA1999999095641MD1999999+0071MW1021REMSYN082AAXX  28184 83236 21597 83611 10255 20208 39564 40053 70255 8552/ 333 58007 69991;
0213832360999992005112900004-12150-045000FM-12+043999999V0200501N001510210019N0040001N1+02261+02141100921ADDAA106002091AY151061AY251061GF108991081001022501021999KA1240M+02991MA1999999096021MD1999999+0171MW1411REMSYN100AAXX  29004 83236 21896 80503 10226 20214 39602 40092 74155 8802/ 333 10299 29085 55020 58017 60021;
0201832360999992005112912004-12150-045000FM-12+043999999V0209999C000010450019N0100001N1+02331+02001101191ADDAA124016091AY161061AY261061GF108991041051008001021999KA1240N+02051MA1999999096271MD1999999+0241MW1021REMSYN088AAXX  29124 83236 21597 80000 10233 20200 39627 40119 70266 8452/ 333 20205 58024 60164;
0137832360999992005112918004-12150-045000FM-12+043999999V0200501N004110120019N0100001N1+02761+02071100831ADDGF107991071081008001001001MA1999999095951MD1999999+0311REMSYN070AAXX  29184 83236 32597 70508 10276 20207 39595 40083 87800 333 58031;
0168832360999992005113000004-12150-045000FM-12+043999999V0209999C000010450019N0100001N1+02471+02171101021ADDGF108991021011008001011999KA1240M+02831MA1999999096131MD1999999+0111REMSYN088AAXX  30004 83236 32597 80000 10247 20217 39613 40102 8211/ 333 10283 29078 55005 58011;
0156832360999992005113012004-12150-045000FM-12+043999999V0200501N001510450019N0100001N1+02561+02061101131ADDGF107991021011008001071001KA1240N+02231MA1999999096251MD1999999-0021REMSYN076AAXX  30124 83236 32597 70503 10256 20206 39625 40113 82170 333 20223 59002;
0137832360999992005113018004-12150-045000FM-12+043999999V0200501N004112200019N0100001N1+03121+01891100681ADDGF103991031021008001001001MA1999999095871MD1999999-0081REMSYN070AAXX  30184 83236 32597 30508 10312 20189 39587 40068 83200 333 59008;
0168832360999992005120100004-12150-045000FM-12+043999999V0209999C000012200019N0100001N1+02491+02251100901ADDGF102991021011008001001001KA1240M+03201MA1999999096031MD1999999-0101REMSYN088AAXX  01004 83236 32597 20000 10249 20225 39603 40090 82100 333 10320 29074 55076 59010;
0156832360999992005120112004-12150-045000FM-12+043999999V0203601N001012200019N0100001N1+02731+01891101041ADDGF104991011011008001001041KA1240N+02041MA1999999096181MD1999999-0071REMSYN076AAXX  01124 83236 32597 43602 10273 20189 39618 40104 81104 333 20204 59007;
0137832360999992005120118004-12150-045000FM-12+043999999V0203601N001512200019N0100001N1+03251+01911100531ADDGF105991041021008001001041MA1999999095721MD1999999-0151REMSYN070AAXX  01184 83236 32597 53603 10325 20191 39572 40053 84204 333 59015;
0168832360999992005120200004-12150-045000FM-12+043999999V0201801N001012200019N0100001N1+02731+02001100681ADDGF102991021061008001001001KA1240M+03331MA1999999095871MD1999999-0161REMSYN088AAXX  02004 83236 32597 21802 10273 20200 39587 40068 82600 333 10333 29058 55087 59016;
0156832360999992005120212004-12150-045000FM-12+043999999V0203601N001012200019N0100001N1+02801+01871100811ADDGF103991001001999999001041KA1240N+02041MA1999999095991MD1999999-0191REMSYN076AAXX  02124 83236 32997 33602 10280 20187 39599 40081 80004 333 20204 59019;
0137832360999992005120218004-12150-045000FM-12+043999999V0203601N000512200019N0100001N1+03401+01681100401ADDGF104991021011008001001041MA1999999095621MD1999999-0101REMSYN070AAXX  02184 83236 32597 43601 10340 20168 39562 40040 82104 333 59010;
0168832360999992005120300004-12150-045000FM-12+043999999V0202701N001012200019N0100001N1+02671+02091100511ADDGF103991001001999999001041KA1240M+03481MA1999999095711MD1999999-0161REMSYN088AAXX  03004 83236 32997 32702 10267 20209 39571 40051 80004 333 10348 29058 55115 59016;
0156832360999992005120312004-12150-045000FM-12+043999999V0200901N003112200019N0100001N1+02791+01871100771ADDGF106991011011008001001041KA1240N+02161MA1999999095951MD1999999-0041REMSYN076AAXX  03124 83236 32597 60906 10279 20187 39595 40077 81104 333 20216 59004;
0137832360999992005120318004-12150-045000FM-12+043999999V0201801N001511050019N0100001N1+03291+01911100481ADDGF106991021021008001071041MA1999999095571MD1999999-0011REMSYN070AAXX  03184 83236 32597 61803 10329 20191 39557 40048 82274 333 59001;
0168832360999992005120400004-12150-045000FM-12+043999999V0201801N000510450019N0100001N1+02591+02121100651ADDGF105991021011008001011001KA1240M+03451MA1999999095831MD1999999+0121REMSYN088AAXX  04004 83236 32597 51801 10259 20212 39583 40065 82110 333 10345 29063 55069 58012;
0236832360999992005120412004-12150-045000FM-12+043999999V0202701N002110075019N0100001N1+02561+02151100971ADDAA124000091AY151061AY251061GF108991999051008001001001KA1240N+02251MA1999999096121MD1999999+0171MW1021REMSYN088AAXX  04124 83236 21597 82704 10256 20215 39612 40097 70255 87500 333 20225 58017 69924;EQDQ01+000072SCOTLCQ02  00002PRCP24
0182832360999992005120418004-12150-045000FM-12+043999999V0200501N001512200019N0100001N1+03031+02061100411ADDAA106006191AY161061AY261061GF104991031031008001041001MA1999999095601MD1999999+0031MW1021REMSYN082AAXX  04184 83236 21597 40503 10303 20206 39560 40041 70266 83340 333 58003 60061;
0196832360999992005120500004-12150-045000FM-12+043999999V0203601N002110450019N0100001N1+02461+02151100781ADDAY101061AY221061GF106991041071008001021001KA1240M+03141MA1999999095891MD1999999+0061MW1131REMSYN094AAXX  05004 83236 31597 63604 10246 20215 39589 40078 71302 84720 333 10314 29075 55020 58006;
0173832360999992005120512004-12150-045000FM-12+043999999V0203201N001010450019N0100001N1+02721+02191100781ADDAA124006191GF106991011011008001051021KA1240N+02241MA1999999095941MD1999999-0181REMSYN082AAXX  05124 83236 22597 63202 10272 20219 39594 40078 81152 333 20224 59018 60064;
0165832360999992005120518004-12150-045000FM-12+043999999V0203201N000510075019N0100001N1+02971+02281100291ADDAY101061AY291061GF107991051071008001021001MA1999999095481MD1999999-0121MW1151REMSYN076AAXX  05184 83236 31597 73201 10297 20228 39548 40029 71509 85720 333 59012;
0213832360999992005120600004-12150-045000FM-12+043999999V0200501N003110075019N0040001N1+02371+02191100641ADDAA106005191AY161061AY261061GF108991081071008001999999KA1240M+03181MA1999999095791MD1999999-0101MW1421REMSYN100AAXX  06004 83236 21596 80506 10237 20219 39579 40064 74266 887// 333 10318 29079 55063 59010 60051;
0201832360999992005120612004-12150-045000FM-12+043999999V0200501N001510075019N0100001N1+02381+02171100841ADDAA124015091AY161061AY261061GF108991081051008001999999KA1240N+02211MA1999999095951MD1999999+0011MW1021REMSYN088AAXX  06124 83236 21597 80503 10238 20217 39595 40084 70266 885// 333 20221 58001 60154;
0182832360999992005120618004-12150-045000FM-12+043999999V0201801N002610450019N0100001N1+02331+02201100541ADDAA106002091AY161061AY261061GF108991041071008001021999MA1999999095641MD1999999+0161MW1951REMSYN082AAXX  06184 83236 21597 81805 10233 20220 39564 40054 79566 8472/ 333 58016 60021;
0165832360999992005120718004-12150-045000FM-12+043999999V0201801N001510075019N0100001N1+02761+02281100321ADDAY121061AY221061GF107991051051008001041071MA1999999095471MD1999999-0171MW1151REMSYN076AAXX  07184 83236 31597 71803 10276 20228 39547 40032 71522 85547 333 59017;
0196832360999992005120800004-12150-045000FM-12+043999999V0200501N002110075019N0100001N1+02651+02121100511ADDAY121061AY221061GF108991051051008001071999KA1240M+03011MA1999999095671MD1999999-0041MW1131REMSYN094AAXX  08004 83236 31597 80504 10265 20212 39567 40051 71322 8557/ 333 10301 29076 55074 59004;
0201832360999992005120812004-12150-045000FM-12+043999999V0200501N002610075019N0040001N1+02331+02131100941ADDAA124023991AY161061AY261061GF108991061071008001021999KA1240N+02131MA1999999096071MD1999999+0251MW1101REMSYN088AAXX  08124 83236 21596 80505 10233 20213 39607 40094 71066 8672/ 333 20213 58025 60244;
0182832360999992005120818004-12150-045000FM-12+043999999V0209999C000010120019N0040001N1+02411+02301100681ADDAA106032091AY161061AY261061GF108991071081008001041999MA1999999095771MD1999999+0321MW1101REMSYN082AAXX  08184 83236 21596 80000 10241 20230 39577 40068 71066 8784/ 333 58032 60321;
0080832360999992005120900004-12150-045000FM-12+043999999V0209999C000019999999N0020001N1+02271+02161999999ADDGF108991999999008001999999REMSYN042AAXX  09004 83236 21595 80000 10227 20216;
0201832360999992005120912004-12150-045000FM-12+043999999V0209999C000010120019N0040001N1+02371+02131101101ADDAA124042991AY151061AY251061GF108991051081008001041999KA1240N+02171MA1999999096171MD1999999+0301MW1101REMSYN088AAXX  09124 83236 21596 80000 10237 20213 39617 40110 71055 8584/ 333 20217 58030 60434;
0137832360999992005120918004-12150-045000FM-12+043999999V0202301N001010450019N0100001N1+02921+02191100801ADDGF106991041041008001071051MA1999999095941MD1999999+0171REMSYN070AAXX  09184 83236 32597 62302 10292 20219 39594 40080 84475 333 58017;
0196832360999992005121000004-12150-045000FM-12+043999999V0200501N003110075019N0100001N1+02381+02131101111ADDAY121061AY221061GF108991051051008001061999KA1240M+03011MA1999999096201MD1999999+0031MW1131REMSYN094AAXX  10004 83236 31597 80506 10238 20213 39620 40111 71322 8556/ 333 10301 29081 55023 58003;
0156832360999992005121012004-12150-045000FM-12+043999999V0200501N001510075019N0200001N1+02661+02271100981ADDGF105991051021008001001001KA1240N+02151MA1999999096121MD1999999-0251REMSYN076AAXX  10124 83236 32598 50503 10266 20227 39612 40098 85200 333 20215 59025;
0137832360999992005121018004-12150-045000FM-12+043999999V0203601N004111050019N0200001N1+03051+01971100481ADDGF106991041021008001001051MA1999999095641MD1999999-0301REMSYN070AAXX  10184 83236 32598 63608 10305 20197 39564 40048 84205 333 59030;
0196832360999992005121100004-12150-045000FM-12+043999999V0209999C000010075019N0100001N1+02581+02271100751ADDAY121061AY221061GF108991061051008001071999KA1240M+03101MA1999999095911MD1999999-0291MW1131REMSYN094AAXX  11004 83236 31597 80000 10258 20227 39591 40075 71322 8657/ 333 10310 29075 55094 59029;
0192832360999992005121112004-12150-045000FM-12+043999999V0203601N002110450019N0200001N1+02761+01991100811ADDAA124000091GF106991031021008001061051KA1240N+02331MA1999999095971MD1999999-0151REMSYN082AAXX  11124 83236 22598 63604 10276 20199 39597 40081 83265 333 20233 59015 69914;EQDQ01  00002PRCP24
0137832360999992005121118004-12150-045000FM-12+043999999V0203601N002610450019N0200001N1+03041+01941100411ADDGF106991031021008001051071MA1999999095601MD1999999-0041REMSYN070AAXX  11184 83236 32598 63605 10304 20194 39560 40041 83257 333 59004;
0156832360999992005121212004-12150-045000FM-12+043999999V0209999C000010450019N0100001N1+02591+02081100881ADDGF107991041021008001071051KA1240N+02291MA1999999096031MD1999999+0061REMSYN076AAXX  12124 83236 32597 70000 10259 20208 39603 40088 84275 333 20229 58006;
0137832360999992005121218004-12150-045000FM-12+043999999V0203601N001510075019N0100001N1+03061+02051100431ADDGF108991051021008001061999MA1999999095621MD1999999+0021REMSYN070AAXX  12184 83236 32597 83603 10306 20205 39562 40043 8526/ 333 58002;
0213832360999992005121300004-12150-045000FM-12+043999999V0202301N001010075019N0040001N1+02211+02141100941ADDAA106000891AY151061AY251061GF108991051071008001051999KA1240M+03121MA1999999096051MD1999999+0251MW1031REMSYN100AAXX  13004 83236 21596 82302 10221 20214 39605 40094 70355 8575/ 333 10312 29080 55034 58025 69971;
0201832360999992005121312004-12150-045000FM-12+043999999V0209999C000010075019N0100001N1+02311+02111101091ADDAA124007991AY151061AY251061GF108991051071008001051999KA1240N+02091MA1999999096161MD1999999+0131MW1511REMSYN088AAXX  13124 83236 21597 80000 10231 20211 39616 40109 75155 8575/ 333 20209 58013 60084;
0137832360999992005121318004-12150-045000FM-12+043999999V0203601N001010120019N0100001N1+02751+02141100661ADDGF108991051081008001041999MA1999999095781MD1999999+0161REMSYN070AAXX  13184 83236 32597 83602 10275 20214 39578 40066 8584/ 333 58016;
0213832360999992005121400004-12150-045000FM-12+043999999V0202301N001510075019N0040001N1+02231+02141101031ADDAA106003091AY151061AY251061GF108991061051008001021999KA1240M+02831MA1999999096101MD1999999+0051MW1511REMSYN100AAXX  14004 83236 21596 82303 10223 20214 39610 40103 75155 8652/ 333 10283 29087 55005 58005 60031;
0201832360999992005121412004-12150-045000FM-12+043999999V0200501N002110075019N0040001N1+02301+02071101081ADDAA124006191AY151061AY251061GF108991051071008001041999KA1240N+02191MA1999999096151MD1999999-0011MW1101REMSYN088AAXX  14124 83236 21596 80504 10230 20207 39615 40108 71055 8574/ 333 20219 59001 60064;
0137832360999992005121418004-12150-045000FM-12+043999999V0200501N004612200019N0200001N1+02911+02041100541ADDGF104991031031008001001031MA1999999095691MD1999999-0091REMSYN070AAXX  14184 83236 32598 40509 10291 20204 39569 40054 83303 333 59009;
0213832360999992005121500004-12150-045000FM-12+043999999V0209999C000010075019N0040001N1+02501+02341100811ADDAA106000021AY121061AY221061GF108991061061008001041999KA1240M+02961MA1999999095931MD1999999-0171MW1511REMSYN100AAXX  15004 83236 21596 80000 10250 20234 39593 40081 75122 8664/ 333 10296 29082 55043 59017 69921;
0137832360999992005121518004-12150-045000FM-12+043999999V0200501N001510075019N0040001N1+02771+01991100691ADDGF108991051041008001071999MA1999999095861MD1999999+0141REMSYN070AAXX  15184 83236 32596 80503 10277 20199 39586 40069 8547/ 333 58014;
0168832360999992005121600004-12150-045000FM-12+043999999V0209999C000010450019N0100001N1+02331+02091100901ADDGF106991031021008001061001KA1240M+02831MA1999999096011MD1999999+0081REMSYN088AAXX  16004 83236 32597 60000 10233 20209 39601 40090 83260 333 10283 29080 55000 58008;
0156832360999992005121612004-12150-045000FM-12+043999999V0201801N001010450019N0200001N1+02601+02191101011ADDGF107991031021008001071051KA1240N+02191MA1999999096131MD1999999+0081REMSYN076AAXX  16124 83236 32598 71802 10260 20219 39613 40101 83275 333 20219 58008;
0137832360999992005121618004-12150-045000FM-12+043999999V0203601N002110450019N0200001N1+03031+02241100631ADDGF106991031031008001051071MA1999999096791MD1999999-0041REMSYN070AAXX  16184 83236 32598 63604 10303 20224 39679 40063 83357 333 59004;
0213832360999992005121700004-12150-045000FM-12+043999999V0209999C000010075019N0040001N1+02441+02211100931ADDAA106000391AY151061AY251061GF108991051051008001071999KA1240M+03091MA1999999096051MD1999999+0041MW1131REMSYN100AAXX  17004 83236 21596 80000 10244 20221 39605 40093 71355 8557/ 333 10309 29078 55030 58004 69931;
0137832360999992005121718004-12150-045000FM-12+043999999V0203601N002610450019N0200001N1+03011+02081100911ADDGF107991041031008001081051MA1999999096061MD1999999+0271REMSYN070AAXX  17184 83236 32598 73605 10301 20208 39606 40091 84385 333 58027;
0168832360999992005121800004-12150-045000FM-12+043999999V0209999C000010450019N0200001N1+02461+01991101111ADDGF106991021021012501071051KA1240M+03081MA1999999096241MD1999999+0191REMSYN088AAXX  18004 83236 32698 60000 10246 20199 39624 40111 82275 333 10308 29072 55029 58019;
0156832360999992005121812004-12150-045000FM-12+043999999V0202301N001010450019N0200001N1+02571+02191101221ADDGF106991031021008001061071KA1240N+02141MA1999999096341MD1999999+0001REMSYN076AAXX  18124 83236 32598 62302 10257 20219 39634 40122 83267 333 20214 58000;
0137832360999992005121818004-12150-045000FM-12+043999999V0203601N002111050019N0200001N1+03111+01971100821ADDGF105991021021008001051071MA1999999095971MD1999999-0091REMSYN070AAXX  18184 83236 32598 53604 10311 20197 39597 40082 82257 333 59009;
0178832360999992005121900004-12150-045000FM-12+043999999V0209999C000012200019N0200001N1+02491+02301101001ADDGA1001+999999999GF100991001001999999001001KA1240M+03151MA1999999096141MD1999999-0101REMSYN082AAXX  19004 83236 32998 00000 10249 20230 39614 40100 333 10315 29073 55087 59010;
0156832360999992005121912004-12150-045000FM-12+043999999V0209999C000012200019N0200001N1+02711+02131101121ADDGF103991011021012501001071KA1240N+02021MA1999999096261MD1999999-0081REMSYN076AAXX  19124 83236 32698 30000 10271 20213 39626 40112 81207 333 20202 59008;
0137832360999992005121918004-12150-045000FM-12+043999999V0203601N004610450019N0200001N1+03151+01871100731ADDGF106991031031008001051071MA1999999095901MD1999999-0071REMSYN070AAXX  19184 83236 32598 63609 10315 20187 39590 40073 83357 333 59007;
0168832360999992005122000004-12150-045000FM-12+043999999V0209999C000012200019N0200001N1+02371+01801100941ADDGF102991001001999999001051KA1240M+03201MA1999999096081MD1999999-0061REMSYN088AAXX  20004 83236 32998 20000 10237 20180 39608 40094 80005 333 10320 29065 55111 59006;
0165832360999992005122018004-12150-045000FM-12+043999999V0203601N003110450019N0200001N1+03251+01891100821ADDAY121061AY221061GF106991041051008001071051MA1999999095961MD1999999+0061MW1151REMSYN076AAXX  20184 83236 31598 63606 10325 20189 39596 40082 71522 84575 333 58006;
0168832360999992005122100004-12150-045000FM-12+043999999V0209999C000010450019N0200001N1+02731+02101101011ADDGF106991021021008001061071KA1240M+03301MA1999999096161MD1999999+0081REMSYN088AAXX  21004 83236 32598 60000 10273 20210 39616 40101 82267 333 10330 29060 55098 58008;
0156832360999992005122112004-12150-045000FM-12+043999999V0200501N003112200019N0200001N1+02471+01611101171ADDGF104991021021012501061001KA1240N+02001MA1999999096341MD1999999+0021REMSYN076AAXX  21124 83236 32698 40506 10247 20161 39634 40117 82260 333 20200 58002;
0137832360999992005122118004-12150-045000FM-12+043999999V0203601N003611050019N0200001N1+03211+01861100801ADDGF105991031021008001001071MA1999999095971MD1999999+0011REMSYN070AAXX  21184 83236 32598 53607 10321 20186 39597 40080 83207 333 58001;
0178832360999992005122200004-12150-045000FM-12+043999999V0201801N001012200019N0200001N1+02411+02191100931ADDGA1001+999999999GF100991001001999999001001KA1240M+03261MA1999999096071MD1999999-0091REMSYN082AAXX  22004 83236 32998 01802 10241 20219 39607 40093 333 10326 29068 55108 59009;
0156832360999992005122212004-12150-045000FM-12+043999999V0203601N002112200019N0200001N1+02731+01871101191ADDGF101991011011008001001001KA1240N+02001MA1999999096321MD1999999-0021REMSYN076AAXX  22124 83236 32598 13604 10273 20187 39632 40119 81100 333 20200 59002;
0137832360999992005122218004-12150-045000FM-12+043999999V0203601N002611050019N0200001N1+03201+01711100771ADDGF106991041021008001001071MA1999999095941MD1999999-0031REMSYN070AAXX  22184 83236 32598 63605 10320 20171 39594 40077 84207 333 59003;
0168832360999992005122300004-12150-045000FM-12+043999999V0209999C000012200019N0100001N1+02651+01971100931ADDGF102991021021008001001001KA1240M+03281MA1999999096101MD1999999+0031REMSYN088AAXX  23004 83236 32597 20000 10265 20197 39610 40093 82200 333 10328 29058 55103 58003;
0156832360999992005122312004-12150-045000FM-12+043999999V0200501N002112200019N0200001N1+02721+01821101181ADDGF102991001001999999001041KA1240N+02001MA1999999096341MD1999999+0021REMSYN076AAXX  23124 83236 32998 20504 10272 20182 39634 40118 80004 333 20200 58002;
0137832360999992005122318004-12150-045000FM-12+043999999V0203601N002112200019N0200001N1+03241+01751100691ADDGF104991041021008001001001MA1999999095871MD1999999-0071REMSYN070AAXX  23184 83236 32598 43604 10324 20175 39587 40069 84200 333 59007;
0168832360999992005122400004-12150-045000FM-12+043999999V0201801N002612200019N0200001N1+02891+01691100751ADDGF102991021011008001001001KA1240M+03291MA1999999095951MD1999999-0151REMSYN088AAXX  24004 83236 32598 21805 10289 20169 39595 40075 82100 333 10329 29049 55113 59015;
0156832360999992005122412004-12150-045000FM-12+043999999V0201401N001519999999N0200001N1+02681+01891101081ADDGF105991001001999999001051KA1240N+01851MA1999999096261MD1999999-0081REMSYN076AAXX  24124 83236 32998 51403 10268 20189 39626 40108 80005 333 20185 59008;
0137832360999992005122418004-12150-045000FM-12+043999999V0203601N001512200019N0200001N1+03271+01861100691ADDGF106991031021008001001061MA1999999095861MD1999999-0011REMSYN070AAXX  24184 83236 32598 63603 10327 20186 39586 40069 83206 333 59001;
0168832360999992005122500004-12150-045000FM-12+043999999V0209999C000012200019N0200001N1+02721+01981100791ADDGF102991021021008001001001KA1240M+03361MA1999999095961MD1999999+0011REMSYN088AAXX  25004 83236 32598 20000 10272 20198 39596 40079 82200 333 10336 29058 55114 58001;
0156832360999992005122512004-12150-045000FM-12+043999999V0209999C000012200019N0200001N1+02631+01831101081ADDGF103991001001999999001081KA1240N+01811MA1999999096241MD1999999-0021REMSYN076AAXX  25124 83236 32998 30000 10263 20183 39624 40108 80008 333 20181 59002;
0137832360999992005122518004-12150-045000FM-12+043999999V0203601N002612200019N0200001N1+03331+01491100661ADDGF103991031021008001001001MA1999999095821MD1999999-0041REMSYN070AAXX  25184 83236 32598 33605 10333 20149 39582 40066 83200 333 59004;
0178832360999992005122600004-12150-045000FM-12+043999999V0202301N001012200019N0200001N1+02501+01871100781ADDGA1001+999999999GF100991001001999999001001KA1240M+03401MA1999999095931MD1999999-0031REMSYN082AAXX  26004 83236 32998 02302 10250 20187 39593 40078 333 10340 29058 55117 59003;
0156832360999992005122612004-12150-045000FM-12+043999999V0200501N003112200019N0200001N1+02761+01911101021ADDGF104991021021008001061001KA1240N+02371MA1999999096171MD1999999-0071REMSYN076AAXX  26124 83236 32598 40506 10276 20191 39617 40102 82260 333 20237 59007;
0137832360999992005122618004-12150-045000FM-12+043999999V0203601N005112200019N0200001N1+03181+01981100561ADDGF106991031021008001001061MA1999999095771MD1999999-0051REMSYN070AAXX  26184 83236 32598 63610 10318 20198 39577 40056 83206 333 59005;
0168832360999992005122700004-12150-045000FM-12+043999999V0201801N000510450019N0100001N1+02501+02051100751ADDGF106991031021008001011001KA1240M+03251MA1999999095921MD1999999-0011REMSYN088AAXX  27004 83236 32597 61801 10250 20205 39592 40075 83210 333 10325 29065 55088 59001;
0201832360999992005122712004-12150-045000FM-12+043999999V0209999C000011050019N0100001N1+02231+02011101161ADDAA124018091AY161061AY261061GF107991041051008001001051KA1240N+02111MA1999999096191MD1999999+0021MW1411REMSYN088AAXX  27124 83236 21597 70000 10223 20201 39619 40116 74166 84505 333 20211 58002 60184;
0137832360999992005122718004-12150-045000FM-12+043999999V0203601N002112200019N0100001N1+02981+02041100531ADDGF106991031021008001001061MA1999999095711MD1999999-0011REMSYN070AAXX  27184 83236 32597 63604 10298 20204 39571 40053 83206 333 59001;
0213832360999992005122800004-12150-045000FM-12+043999999V0201801N002110450019N0040001N1+02251+02141101021ADDAA106001091AY151061AY251061GF108991041051008001021999KA1240M+03071MA1999999096091MD1999999+0171MW1501REMSYN100AAXX  28004 83236 21596 81804 10225 20214 39609 40102 75055 8452/ 333 10307 29082 55034 58017 60011;
0201832360999992005122812004-12150-045000FM-12+043999999V0203601N001510075019N0040001N1+02311+02091101141ADDAA124002091AY151061AY251061GF108991081051008001999999KA1240N+02191MA1999999096221MD1999999+0031MW1541REMSYN088AAXX  28124 83236 21596 83603 10231 20209 39622 40114 75455 885// 333 20219 58003 60024;
0182832360999992005122818004-12150-045000FM-12+043999999V0200501N003110210019N0040001N1+02251+02141101041ADDAA106027991AY161061AY261061GF108991081001022501021999MA1999999096111MD1999999+0401MW1601REMSYN082AAXX  28184 83236 21896 80506 10225 20214 39611 40104 76066 8802/ 333 58040 60281;
0213832360999992005122900004-12150-045000FM-12+043999999V0200901N001010210019N0040001N1+02131+02021101071ADDAA106010991AY161061AY261061GF108991081001022501021999KA1240M+02371MA1999999096131MD1999999+0041MW1411REMSYN100AAXX  29004 83236 21896 80902 10213 20202 39613 40107 74166 8802/ 333 10237 29092 55000 58004 60111;
0201832360999992005122912004-12150-045000FM-12+043999999V0200901N001510450019N0100001N1+02321+01981101121ADDAA124039191AY151061AY251061GF108991031051008001021999KA1240N+02041MA1999999096181MD1999999-0041MW1021REMSYN088AAXX  29124 83236 21597 80903 10232 20198 39618 40112 70255 8352/ 333 20204 59004 60394;
0137832360999992005122918004-12150-045000FM-12+043999999V0200501N002111050019N0100001N1+02721+02081100681ADDGF107991031021008001001061MA1999999095801MD1999999-0311REMSYN070AAXX  29184 83236 32597 70504 10272 20208 39580 40068 83206 333 59031;
0232832360999992005123000004-12150-045000FM-12+043999999V0200501N003110075019N0040001N1+02141+02041101151ADDAA106001091AY161061AY261061GF108991051071008001021999KA1240M+02801MA1999999096221MD1999999+0091MW1421REMSYN100AAXX  30004 83236 21596 80506 10214 20204 39622 40115 74366 8572/ 333 10280 29084 55014 58009 60011;EQDQ01+000432PRSWM1
0201832360999992005123012004-12150-045000FM-12+043999999V0203601N003110210019N0040001N1+02041+01961101471ADDAA124024991AY161061AY261061GF108991081001022501021999KA1240N+01991MA1999999096471MD1999999+0291MW1051REMSYN088AAXX  30124 83236 21896 83606 10204 20196 39647 40147 70566 8802/ 333 20199 58029 60254;
0182832360999992005123018004-12150-045000FM-12+043999999V0209999C000010075019N0040001N1+02161+02011101191ADDAA106007991AY161061AY261061GF108991051051008001021999MA1999999096231MD1999999+0431MW1441REMSYN082AAXX  30184 83236 21596 80000 10216 20201 39623 40119 74466 8552/ 333 58043 60081;
0201832360999992005123112004-12150-045000FM-12+043999999V0209999C000010450019N0100001N1+02271+02031101311ADDAA124009991AY161061AY261061GF107991021021008001061051KA1240N+02001MA1999999096361MD1999999-0111MW1021REMSYN088AAXX  31124 83236 21597 70000 10227 20203 39636 40131 70266 82265 333 20200 59011 60104;
0137832360999992005123118004-12150-045000FM-12+043999999V0200501N002110450019N0100001N1+02691+02011100921ADDGF108991031051008001021999MA1999999096031MD1999999-0201REMSYN070AAXX  31184 83236 32597 80504 10269 20201 39603 40092 8352/ 333 59020;
