0208833390999992005010100004-14050-042617FM-12+088299999V0209999C000012200019N0020001N1+02331+01521100981ADDAA106000091GA1001+999999999GF100991001001999999001001KA1240M+02941MA1999999091461MD1999999-0131REMSYN082AAXX  01004 83339 32995 00000 10233 20152 39146 40098 333 10294 29060 55116 59013;EQDQ01  00002PRCP06
0186833390999992005010112004-14050-042617FM-12+088299999V0200901N003112200019N0100001N1+02431+01951101081ADDAA106000091GF102991021011004501001001KA1240N+01881MA1999999091571MD1999999-0181REMSYN076AAXX  01124 83339 32497 20906 10243 20195 39157 40108 82100 333 20188 59018;EQDQ01  00002PRCP06
0167833390999992005010118004-14050-042617FM-12+088299999V0200501N003110042019N0100001N1+02891+01871100741ADDAA106000091GF106991051021004501001011MA1999999091281MD1999999-0131REMSYN070AAXX  01184 83339 32497 60506 10289 20187 39128 40074 85201 333 59013;EQDQ01  00002PRCP06
0198833390999992005010200004-14050-042617FM-12+088299999V0201401N001510042019N0020001N1+02351+01691101001ADDAA106000091GF108991051021004501021999KA1240M+03051MA1999999091501MD1999999+0041REMSYN088AAXX  02004 83339 32495 81403 10235 20169 39150 40100 8522/ 333 10305 29065 55090 58004;EQDQ01  00002PRCP06
0186833390999992005010212004-14050-042617FM-12+088299999V0200901N004110450019N0100001N1+02181+01921101351ADDAA106000091GF106991041021004501031001KA1240N+01981MA1999999091751MD1999999+0181REMSYN076AAXX  02124 83339 32497 60908 10218 20192 39175 40135 84230 333 20198 58018;EQDQ01  00002PRCP06
0167833390999992005010218004-14050-042617FM-12+088299999V0201401N003610042019N0100001N1+02691+01781100901ADDAA106000091GF106991051021004501001011MA1999999091411MD1999999+0131REMSYN070AAXX  02184 83339 32497 61407 10269 20178 39141 40090 85201 333 58013;EQDQ01  00002PRCP06
0190833390999992005010312004-14050-042617FM-12+088299999V0200901N004610042019N0040001N1+02051+01921101341ADDAY161061AY261061GF108991081051004501999999KA1240N+01831MA1999999091731MD1999999-0021MW1101REMSYN088AAXX  03124 83339 21496 80909 10205 20192 39173 40134 71066 885// 333 20183 59002 60644;
0167833390999992005010318004-14050-042617FM-12+088299999V0201401N004610042019N0040001N1+02271+01821101291ADDAA106000091GF107991061021004501021999MA1999999091561MD1999999+0151REMSYN070AAXX  03184 83339 32496 71409 10227 20182 39156 40129 8622/ 333 58015;EQDQ01  00002PRCP06
0198833390999992005010400004-14050-042617FM-12+088299999V0201401N002612200019N0020001N1+02191+01701101261ADDAA106000091GF102991021021004501001001KA1240M+02341MA1999999091621MD1999999-0031REMSYN088AAXX  04004 83339 32495 21405 10219 20170 39162 40126 82200 333 10234 29078 55000 59003;EQDQ01  00002PRCP06
0167833390999992005010418004-14050-042617FM-12+088299999V0200901N003112200019N0100001N1+02671+01771100881ADDAA106000091GF102991021021004501001001MA1999999091351MD1999999-0211REMSYN070AAXX  04184 83339 32497 20906 10267 20177 39135 40088 82200 333 59021;EQDQ01  00002PRCP06
0208833390999992005010500004-14050-042617FM-12+088299999V0209999C000012200019N0020001N1+02311+01791101021ADDAA106000091GA1001+999999999GF100991001001999999001001KA1240M+02751MA1999999091421MD1999999-0201REMSYN082AAXX  05004 83339 32995 00000 10231 20179 39142 40102 333 10275 29077 55112 59020;EQDQ01  00002PRCP06
0214833390999992005010512004-14050-042617FM-12+088299999V0201401N004610042019N0100001N1+02131+01931101241ADDAA106000091AY101061AY201061GF106991061021004501001001KA1240N+01861MA1999999091641MD1999999-0041MW1101REMSYN082AAXX  05124 83339 31497 61409 10213 20193 39164 40124 71000 86200 333 20186 59004;EQDQ01  00002PRCP06
0167833390999992005010518004-14050-042617FM-12+088299999V0201401N005710042019N0100001N1+02651+01801101011ADDAA106000091GF106991051021004501021001MA1999999091341MD1999999-0011REMSYN070AAXX  05184 83339 32497 61411 10265 20180 39134 40101 85220 333 59001;EQDQ01  00002PRCP06
0198833390999992005010600004-14050-042617FM-12+088299999V0201401N005712200019N0020001N1+02291+01701100991ADDAA106000091GF102991021021004501001001KA1240M+02701MA1999999091391MD1999999-0031REMSYN088AAXX  06004 83339 32495 21411 10229 20170 39139 40099 82200 333 10270 29073 55084 59003;EQDQ01  00002PRCP06
0162833390999992005010612004-14050-042617FM-12+088299999V0201401N006212200019N0100001N1+02171+01801999999ADDAA106000091GF104991999999004501999999KA1240N+01801REMSYN081AAXX  06124 83339 31497 41412 10217 20180 3916 40121 71000 84200 333 20180 58001;EQDQ01  00002PRCP06
0167833390999992005010618004-14050-042617FM-12+088299999V0201401N006212200019N0100001N1+02791+01791100781ADDAA106000091GF102991011021004501021001MA1999999091361MD1999999+0021REMSYN070AAXX  06184 83339 32497 21412 10279 20179 39136 40078 81220 333 58002;EQDQ01  00002PRCP06
0208833390999992005010700004-14050-042617FM-12+088299999V0201401N000512200019N0020001N1+02251+01641100991ADDAA106000091GA1001+999999999GF100991001001999999001001KA1240M+02841MA1999999091411MD1999999+0021REMSYN082AAXX  07004 83339 32995 01401 10225 20164 39141 40099 333 10284 29072 55109 58002;EQDQ01  00002PRCP06
0214833390999992005010712004-14050-042617FM-12+088299999V0200501N006710042019N0100001N1+02131+01761101301ADDAA106000091AY101061AY201061GF106991061021004501001001KA1240N+01861MA1999999091691MD1999999+0041MW1101REMSYN082AAXX  07124 83339 31497 60513 10213 20176 39169 40130 71000 86200 333 20186 58004;EQDQ01  00002PRCP06
0167833390999992005010718004-14050-042617FM-12+088299999V0201401N005112200019N0100001N1+02711+01691101111ADDAA106000091GF102991021021004501001001MA1999999091421MD1999999+0061REMSYN070AAXX  07184 83339 32497 21410 10271 20169 39142 40111 82200 333 58006;EQDQ01  00002PRCP06
0208833390999992005010800004-14050-042617FM-12+088299999V0201801N003112200019N0020001N1+02231+01481101061ADDAA106000091GA1001+999999999GF100991001001999999001001KA1240M+02781MA1999999091451MD1999999+0041REMSYN082AAXX  08004 83339 32995 01806 10223 20148 39145 40106 333 10278 29064 55094 58004;EQDQ01  00002PRCP06
0186833390999992005010812004-14050-042617FM-12+088299999V0200501N003112200019N0100001N1+02291+01901101171ADDAA106000091GF103991031021004501001001KA1240N+01901MA1999999091601MD1999999-0091REMSYN076AAXX  08124 83339 32497 30506 10229 20190 39160 40117 83200 333 20190 59009;EQDQ01  00002PRCP06
0167833390999992005010818004-14050-042617FM-12+088299999V0201401N003110450019N0100001N1+02831+01441100751ADDAA106000091GF105991041021004501031001MA1999999091291MD1999999-0131REMSYN070AAXX  08184 83339 32497 51406 10283 20144 39129 40075 84230 333 59013;EQDQ01  00002PRCP06
0201833390999992005010912004-14050-042620FM-12+088299999V0201401N004110042019N0100001N1+02191+01921101081ADDAA106000091AY101061AY201061GF106991061021004501001001MA1999999091541MD1999999-0061MW1101REMSYN082AAXX  09124 83339 31497 61408 10219 20192 39154 40108 71000 86200 333 20196 59006;EQDQ01  00002PRCP06
0167833390999992005010918004-14050-042620FM-12+088299999V0201401N003112200019N0100001N1+02991+01731100571ADDAA106000091GF102991021021004501001001MA1999999091151MD1999999-0141REMSYN070AAXX  09184 83339 32497 21406 10299 20173 39115 40057 82200 333 59014;EQDQ01  00002PRCP06
0186833390999992005011012004-14050-042617FM-12+088299999V0200901N001512200019N0100001N1+02421+01911101031ADDAA106000091GF102991021011004501001001KA1240N+01861MA1999999091531MD1999999-0011REMSYN076AAXX  10124 83339 32497 20903 10242 20191 39153 40103 82100 333 20186 59001;EQDQ01  00002PRCP06
0167833390999992005011018004-14050-042617FM-12+088299999V0201401N002612200019N0100001N1+03011+01731100641ADDAA106000091GF104991041021004501001001MA1999999091191MD1999999+0041REMSYN070AAXX  10184 83339 32497 41405 10301 20173 39119 40064 84200 333 58004;EQDQ01  00002PRCP06
0198833390999992005011100004-14050-042617FM-12+088299999V0209999C000012200019N0020001N1+02401+01731100811ADDAA106000091GF102991021021004501001001KA1240M+03121MA1999999091331MD1999999+0041REMSYN088AAXX  11004 83339 32495 20000 10240 20173 39133 40081 82200 333 10312 29063 55117 58004;EQDQ01  00002PRCP06
0186833390999992005011112004-14050-042617FM-12+088299999V0200501N001512200019N0100001N1+02451+01991101061ADDAA106000091GF104991011011004501031011KA1240N+02021MA1999999091551MD1999999+0021REMSYN076AAXX  11124 83339 32497 40503 10245 20199 39155 40106 81131 333 20202 58002;EQDQ01  00002PRCP06
0171833390999992005011118004-14050-042617FM-12+088299999V0203201N001012200019N0100001N1+02541+02271100741ADDAY121061AY221061GF106991041021004501001011MA1999999091211MD1999999+0021MW1601REMSYN082AAXX  11184 83339 21497 63202 10254 20227 39121 40074 76022 84201 333 58002 60091;
0189833390999992005011200004-14050-042617FM-12+088299999V0202301N001012200019N0020001N1+02361+02011100811ADDAA106000021GA1001+999999999GF100991001001999999001001KA1240M+03061MA1999999091331MD1999999+0001REMSYN082AAXX  12004 83339 32995 02302 10236 20201 39133 40081 333 10306 29080 55075 58000;
0190833390999992005011212004-14050-042617FM-12+088299999V0203201N001510042019N0100001N1+02711+01881100841ADDAY161061AY221061GF106991061021004501001001KA1240N+02171MA1999999091421MD1999999-0131MW1021REMSYN088AAXX  12124 83339 21497 63203 10271 20188 39142 40084 70262 86200 333 20217 59013 60094;
0171833390999992005011218004-14050-042617FM-12+088299999V0202301N005112200019N0100001N1+02581+02061100551ADDAY161061AY221061GF106991041021004501001041MA1999999091091MD1999999-0121MW1021REMSYN082AAXX  12184 83339 21497 62310 10258 20206 39109 40055 70262 84204 333 59012 69921;
0198833390999992005011300004-14050-042617FM-12+088299999V0201801N001510042019N0020001N1+02391+01241100701ADDAA106000091GF106991061021004501001001KA1240M+02941MA1999999091291MD1999999-0041REMSYN088AAXX  13004 83339 32495 61803 10239 20124 39129 40070 86200 333 10294 29069 55056 59004;EQDQ01  00002PRCP06
0190833390999992005011312004-14050-042617FM-12+088299999V0202701N002610450019N0040001N1+02071+01911101081ADDAY161061AY221061GF108991041021004501021999KA1240N+01961MA1999999091521MD1999999+0101MW1601REMSYN088AAXX  13124 83339 21496 82705 10207 20191 39152 40108 76062 8422/ 333 20196 58010 60164;
0171833390999992005011318004-14050-042617FM-12+088299999V0203201N001510450019N0100001N1+02371+01911100771ADDAY161061AY221061GF108991031021004501021999MA1999999091191MD1999999+0101MW1021REMSYN082AAXX  13184 83339 21497 83203 10237 20191 39119 40077 70262 8322/ 333 58010 69921;
0202833390999992005011400004-14050-042617FM-12+088299999V0202701N001010450019N0020001N1+02031+01941100941ADDAY161061AY221061GF108991041021004501021999KA1240M+02461MA1999999091311MD1999999+0021MW1401REMSYN100AAXX  14004 83339 21495 82702 10203 20194 39131 40094 74062 8422/ 333 10246 29089 55000 58002 60021;
0190833390999992005011412004-14050-042617FM-12+088299999V0203201N004610042019N0020001N1+01991+01901101041ADDAY161061AY241061GF108991051021004501021999KA1240N+01951MA1999999091381MD1999999-0141MW1601REMSYN088AAXX  14124 83339 21495 83209 10199 20190 39138 40104 76064 8522/ 333 20195 59014 60194;
0171833390999992005011418004-14050-042617FM-12+088299999V0203201N004110042019N0100001N1+02431+01991100631ADDAY161061AY261061GF106991061021004501001001MA1999999091091MD1999999-0101MW1021REMSYN082AAXX  14184 83339 21497 63208 10243 20199 39109 40063 70266 86200 333 59010 60061;
0202833390999992005011500004-14050-042617FM-12+088299999V0202701N001010042019N0020001N1+02081+01961101051ADDAY101061AY221061GF108991051021004501021999KA1240M+02481MA1999999091411MD1999999+0101MW1601REMSYN100AAXX  15004 83339 21495 82702 10208 20196 39141 40105 76002 8522/ 333 10248 29098 55004 58010 60061;
0190833390999992005011512004-14050-042617FM-12+088299999V0200501N001010042019N0100001N1+02221+02071100991ADDAY161061AY261061GF106991061021004501001001KA1240N+01961MA1999999091131MD1999999+0011MW1401REMSYN088AAXX  15124 83339 21497 60502 10222 20207 39113 40099 74066 86200 333 20196 58001 60254;
0171833390999992005011518004-14050-042617FM-12+088299999V0202701N003110450019N0100001N1+02201+01971100781ADDAY161061AY241061GF108991041021004501021999MA1999999091161MD1999999+0071MW1021REMSYN082AAXX  15184 83339 21497 82706 10220 20197 39116 40078 70264 8422/ 333 58007 60051;
0190833390999992005011612004-14050-042617FM-12+088299999V0209999C000010042019N0100001N1+02101+01951101081ADDAY161061AY221061GF108991061021004501021999KA1240N+01921MA1999999091451MD1999999+0061MW1021REMSYN088AAXX  16124 83339 21497 80000 10210 20195 39145 40108 70262 8622/ 333 20192 58006 60054;
0171833390999992005011618004-14050-042617FM-12+088299999V0209999C000010042019N0100001N1+02741+01971100491ADDAY161061AY221061GF105991051021004501001001MA1999999091001MD1999999-0161MW1021REMSYN082AAXX  16184 83339 21497 50000 10274 20197 39100 40049 70262 85200 333 59016 69921;
0189833390999992005011700004-14050-042620FM-12+088299999V0201401N001012200019N0020001N1+02141+02021100701ADDAY161061AY221061GF102991021011004501001001MA1999999091111MD1999999-0231MW1021REMSYN100AAXX  17004 83339 21495 21402 10214 20202 39111 40070 70262 82100 333 10282 29085 55034 59023 60071;
0177833390999992005011712004-14050-042620FM-12+088299999V0203201N001510042019N0040001N1+02271+01991100971ADDAY161061AY261061GF107991061021004501021999MA1999999091391MD1999999-0061MW1101REMSYN088AAXX  17124 83339 21496 73203 10227 20199 39139 40097 71066 8622/ 333 20196 59006 60074;
0167833390999992005011718004-14050-042620FM-12+088299999V0201401N004610042019N0100001N1+02671+02001100571ADDAA106000091GF106991051021004501021001MA1999999091091MD1999999+0091REMSYN070AAXX  17184 83339 32497 61409 10267 20200 39109 40057 85220 333 58009;EQDQ01  00002PRCP06
0226833390999992005011800004-14050-042617FM-12+088299999V0200901N003110042019N0020001N1+02231+01921100781ADDAA106000091AY101061AY201061GF106991051021004501021001KA1240M+02751MA1999999091261MD1999999+0151MW1101REMSYN094AAXX  18004 83339 31495 60906 10223 20192 39126 40078 71000 85220 333 10275 29086 55065 58015;EQDQ01  00002PRCP06
0214833390999992005011812004-14050-042617FM-12+088299999V0200901N002610042019N0040001N1+02091+01911100911ADDAA106000091AY101061AY201061GF108991081051004501999999KA1240N+01981MA1999999091321MD1999999-0071MW1101REMSYN082AAXX  18124 83339 31496 80905 10209 20191 39132 40091 71000 885// 333 20198 59007;EQDQ01  00002PRCP06
0167833390999992005011818004-14050-042617FM-12+088299999V0200901N003610450019N0100001N1+02631+01881100721ADDAA106000091GF105991041021004501031001MA1999999091091MD1999999+0001REMSYN070AAXX  18184 83339 32497 50907 10263 20188 39109 40072 84230 333 58000;EQDQ01  00002PRCP06
0198833390999992005011900004-14050-042617FM-12+088299999V0201401N000512200019N0020001N1+02231+01731100881ADDAA106000091GF102991021021004501001001KA1240M+02681MA1999999091291MD1999999+0031REMSYN088AAXX  19004 83339 32495 21401 10223 20173 39129 40088 82200 333 10268 29075 55056 58003;EQDQ01  00002PRCP06
0214833390999992005011912004-14050-042617FM-12+088299999V0200501N001510042019N0100001N1+02131+01931100981ADDAA106000091AY101061AY201061GF106991061021004501001001KA1240N+01831MA1999999091431MD1999999+0111MW1101REMSYN082AAXX  19124 83339 31497 60503 10213 20193 39143 40098 71000 86200 333 20183 58011;EQDQ01  00002PRCP06
0167833390999992005011918004-14050-042617FM-12+088299999V0201401N005712200019N0100001N1+02771+01911100631ADDAA106000091GF104991041021004501001001MA1999999091161MD1999999+0071REMSYN070AAXX  19184 83339 32497 41411 10277 20191 39116 40063 84200 333 58007;EQDQ01  00002PRCP06
0226833390999992005012000004-14050-042617FM-12+088299999V0200901N001512200019N0020001N1+02231+01861100881ADDAA106000091AY101061AY201061GF102991021021004501001001KA1240M+02841MA1999999091291MD1999999+0001MW1101REMSYN094AAXX  20004 83339 31495 20903 10223 20186 39129 40088 71000 82200 333 10284 29077 55088 58000;EQDQ01  00002PRCP06
0214833390999992005012012004-14050-042617FM-12+088299999V0200901N001510042019N0100001N1+02171+01901101081ADDAA106000091AY101061AY201061GF106991061021004501001001KA1240N+01841MA1999999091521MD1999999+0091MW1101REMSYN082AAXX  20124 83339 31497 60903 10217 20190 39152 40108 71000 86200 333 20184 58009;EQDQ01  00002PRCP06
0195833390999992005012018004-14050-042617FM-12+088299999V0201401N001510042019N0100001N1+02771+01911100621ADDAA106000091AY101061AY201061GF106991061021004501001001MA1999999091141MD1999999-0021MW1171REMSYN076AAXX  20184 83339 31497 61403 10277 20191 39114 40062 71700 86200 333 59002;EQDQ01  00002PRCP06
0226833390999992005012100004-14050-042617FM-12+088299999V0200901N002112200019N0020001N1+02351+01831100801ADDAA106000091AY191061AY201061GF102991021021004501001001KA1240M+02901MA1999999091261MD1999999-0031MW1021REMSYN094AAXX  21004 83339 31495 20904 10235 20183 39126 40080 70290 82200 333 10290 29078 55085 59003;EQDQ01  00002PRCP06
0186833390999992005012112004-14050-042617FM-12+088299999V0203201N003112200019N0100001N1+02491+01901101161ADDAA106000091GF103991031021004501001001KA1240N+01921MA1999999091631MD1999999+0111REMSYN076AAXX  21124 83339 32497 33206 10249 20190 39163 40116 83200 333 20192 58011;EQDQ01  00002PRCP06
0171833390999992005012118004-14050-042617FM-12+088299999V0200901N001510042019N0040001N1+02151+01971101071ADDAY191061AY261061GF106991051021004501021001MA1999999091411MD1999999+0271MW1101REMSYN082AAXX  21184 83339 21496 60903 10215 20197 39141 40107 71096 85220 333 58027 60071;
0226833390999992005012200004-14050-042617FM-12+088299999V0203601N001510042019N0020001N1+02311+02001101011ADDAA106000091AY101061AY201061GF106991061021004501001001KA1240M+02961MA1999999091511MD1999999+0251MW1101REMSYN094AAXX  22004 83339 31495 63603 10231 20200 39151 40101 71000 86200 333 10296 29080 55083 58025;EQDQ01  00002PRCP06
0190833390999992005012212004-14050-042617FM-12+088299999V0200501N001512200019N0100001N1+02531+01921101181ADDAY161061AY261061GF104991041021004501001001KA1240N+02141MA1999999091661MD1999999+0031MW1021REMSYN088AAXX  22124 83339 21497 40503 10253 20192 39166 40118 70266 84200 333 20214 58003 60074;
0171833390999992005012218004-14050-042617FM-12+088299999V0202701N002610042019N0040001N1+02011+01931100971ADDAY191061AY261061GF108991081051004501999999MA1999999091351MD1999999-0061MW1101REMSYN082AAXX  22184 83339 21496 82705 10201 20193 39135 40097 71096 885// 333 59006 60311;
0177833390999992005012312004-14050-042620FM-12+088299999V0200501N000510042019N0100001N1+02291+01831101091ADDAY161061AY261061GF106991061021004501001001MA1999999091531MD1999999-0131MW1021REMSYN088AAXX  23124 83339 21497 60501 10229 20183 39153 40109 70266 86200 333 20184 59013 60314;
0167833390999992005012318004-14050-042620FM-12+088299999V0200901N003112200019N0100001N1+02671+01851100941ADDAA106000091GF102991011021004501021001MA1999999091291MD1999999-0061REMSYN070AAXX  23184 83339 32497 20906 10267 20185 39129 40094 81220 333 59006;EQDQ01  00002PRCP06
0201833390999992005012412004-14050-042620FM-12+088299999V0202701N001510042019N0040001N1+02211+01951101001ADDAA106000091AY101061AY201061GF108991081051004501999999MA1999999091461MD1999999-0071MW1101REMSYN082AAXX  24124 83339 31496 82703 10221 20195 39146 40100 71000 885// 333 20205 59007;EQDQ01  00002PRCP06
0167833390999992005012418004-14050-042620FM-12+088299999V0201401N003610450019N0100001N1+02851+01671100831ADDAA106000091GF105991041021004501031001MA1999999091231MD1999999-0061REMSYN070AAXX  24184 83339 32497 51407 10285 20167 39123 40083 84230 333 59006;EQDQ01  00002PRCP06
0186833390999992005012512004-14050-042617FM-12+088299999V0202301N005112200019N0100001N1+02611+02011100901ADDAA106000091GF102991021021004501001001KA1240N+02221MA1999999091411MD1999999-0051REMSYN076AAXX  25124 83339 32497 22310 10261 20201 39141 40090 82200 333 20222 59005;EQDQ01  00002PRCP06
0167833390999992005012518004-14050-042617FM-12+088299999V0201801N002110042019N0100001N1+02711+01801100681ADDAA106000091GF106991061021004501001001MA1999999091141MD1999999-0091REMSYN070AAXX  25184 83339 32497 61804 10271 20180 39114 40068 86200 333 59009;EQDQ01  00002PRCP06
0198833390999992005012600004-14050-042617FM-12+088299999V0201801N000512200019N0020001N1+02371+01851100621ADDAA106000091GF104991031021004501021001KA1240M+02541MA1999999091251MD1999999-0101REMSYN088AAXX  26004 83339 32495 41801 10237 20185 39125 40062 83220 333 10254 29069 55070 59010;EQDQ01  00002PRCP06
0186833390999992005012612004-14050-042617FM-12+088299999V0202701N001510042019N0100001N1+02531+01981100971ADDAA106000091GF106991061021004501001001KA1240N+02141MA1999999091471MD1999999+0061REMSYN076AAXX  26124 83339 32497 62703 10253 20198 39147 40097 86200 333 20214 58006;EQDQ01  00002PRCP06
0167833390999992005012618004-14050-042617FM-12+088299999V0202301N005112200019N0100001N1+02891+02031100731ADDAA106000091GF103991031021004501001001MA1999999091171MD1999999+0031REMSYN070AAXX  26184 83339 32497 32310 10289 20203 39117 40073 83200 333 58003;EQDQ01  00002PRCP06
0202833390999992005012700004-14050-042617FM-12+088299999V0201801N001510042019N0020001N1+02211+02121100971ADDAY191061AY261061GF108991081051004501999999KA1240M+03031MA1999999091541MD1999999+0291MW1101REMSYN100AAXX  27004 83339 21495 81803 10221 20212 39154 40097 71096 885// 333 10303 29080 55074 58029 60221;
0190833390999992005012712004-14050-042617FM-12+088299999V0203601N001010042019N0100001N1+02291+02111101181ADDAY161061AY261061GF106991051021004501021001KA1240N+02001MA1999999091611MD1999999+0141MW1101REMSYN088AAXX  27124 83339 21497 63602 10229 20211 39161 40118 71066 85220 333 20200 58014 60224;
0167833390999992005012718004-14050-042617FM-12+088299999V0200901N003110450019N0100001N1+02831+01861100991ADDAA106000091GF105991041021004501021001MA1999999091341MD1999999+0171REMSYN070AAXX  27184 83339 32497 50906 10283 20186 39134 40099 84220 333 58017;EQDQ01  00002PRCP06
0226833390999992005012800004-14050-042617FM-12+088299999V0201401N003112200019N0020001N1+02331+02021101061ADDAA106000091AY101061AY201061GF103991031021004501001001KA1240M+02921MA1999999091521MD1999999-0021MW1131REMSYN094AAXX  28004 83339 31495 31406 10233 20202 39152 40106 71300 83200 333 10292 29078 55071 59002;EQDQ01  00002PRCP06
0214833390999992005012812004-14050-042617FM-12+088299999V0200901N003110042019N0040001N1+02151+02001101201ADDAA106000091AY101061AY201061GF108991081051004501999999KA1240N+02101MA1999999091661MD1999999+0051MW1101REMSYN082AAXX  28124 83339 31496 80906 10215 20200 39166 40120 71000 885// 333 20210 58005;EQDQ01  00002PRCP06
0167833390999992005012818004-14050-042617FM-12+088299999V0201401N004112200019N0100001N1+02731+01881100821ADDAA106000091GF103991031021004501001001MA1999999091341MD1999999+0001REMSYN070AAXX  28184 83339 32497 31408 10273 20188 39134 40082 83200 333 58000;EQDQ01  00002PRCP06
0198833390999992005012900004-14050-042617FM-12+088299999V0201401N007712200019N0020001N1+02351+01871100901ADDAA106000091GF104991041021004501001001KA1240M+02801MA1999999091311MD1999999-0211REMSYN088AAXX  29004 83339 32495 41415 10235 20187 39131 40090 84200 333 10280 29078 55082 59021;EQDQ01  00002PRCP06
0214833390999992005012912004-14050-042617FM-12+088299999V0201401N004610042019N0040001N1+02091+01911100921ADDAA106000091AY101061AY201061GF108991081051004501999999KA1240N+01981MA1999999091411MD1999999-0251MW1101REMSYN082AAXX  29124 83339 31496 81409 10209 20191 39141 40092 71000 885// 333 20198 59025;EQDQ01  00002PRCP06
0171833390999992005012918004-14050-042617FM-12+088299999V0201401N003110042019N0100001N1+02511+01891100621ADDAY161061AY261061GF105991051021004501001001MA1999999091101MD1999999-0241MW1021REMSYN082AAXX  29184 83339 21497 51406 10251 20189 39110 40062 70266 85200 333 59024 69941;
0177833390999992005013012004-14050-042620FM-12+088299999V0200901N004610042019N0040001N1+02051+01941100991ADDAY161061AY261061GF108991081051004501999999MA1999999091351MD1999999-0061MW1101REMSYN088AAXX  30124 83339 21496 80909 10205 20194 39135 40099 71066 885// 333 20193 59006 60144;
0167833390999992005013018004-14050-042620FM-12+088299999V0201401N003112200019N0100001N1+02591+01801100631ADDAA106000091GF103991031021004501001001MA1999999091011MD1999999-0091REMSYN070AAXX  30184 83339 32497 31406 10259 20180 39101 40063 83200 333 59009;EQDQ01  00002PRCP06
0226833390999992005013100004-14050-042617FM-12+088299999V0201401N003610042019N0020001N1+02231+02051100831ADDAA106000091AY101061AY201061GF106991061021004501001001KA1240M+02701MA1999999091211MD1999999-0081MW1101REMSYN094AAXX  31004 83339 31495 61407 10223 20205 39121 40083 71000 86200 333 10270 29083 55057 59008;EQDQ01  00002PRCP06
0190833390999992005013112004-14050-042617FM-12+088299999V0200501N001010042019N0020001N1+02221+02101100961ADDAY161061AY221061GF106991061021004501001001KA1240N+01961MA1999999091381MD1999999+0031MW1401REMSYN088AAXX  31124 83339 21495 60502 10222 20210 39138 40096 74062 86200 333 20196 58003 60234;
0171833390999992005013118004-14050-042617FM-12+088299999V0201401N001010450019N0100001N1+02341+02091100661ADDAY161061AY241061GF106991041021004501021001MA1999999091091MD1999999+0081MW1021REMSYN082AAXX  31184 83339 21497 61402 10234 20209 39109 40066 70264 84220 333 58008 60031;
0226833390999992005020100004-14050-042617FM-12+088299999V0209999C000012200019N0020001N1+02141+02021100831ADDAA106000091AY121061AY221061GF102991021021004501001001KA1240M+02631MA1999999091261MD1999999+0051MW1131REMSYN094AAXX  01004 83339 31495 20000 10214 20202 39126 40083 71322 82200 333 10263 29091 55015 58005;EQDQ01  00002PRCP06
0190833390999992005020112004-14050-042617FM-12+088299999V0200501N001012200019N0100001N1+02331+01951100851ADDAY161061AY221061GF106991041021004501001041KA1240N+01931MA1999999091311MD1999999-0071MW1021REMSYN088AAXX  01124 83339 21497 60502 10233 20195 39131 40085 70262 84204 333 20193 59007 60034;
0171833390999992005020118004-14050-042617FM-12+088299999V0201401N002610042019N0020001N1+02221+02081100681ADDAY161061AY221061GF108991051021004501021999MA1999999091111MD1999999+0021MW1601REMSYN082AAXX  01184 83339 21495 81405 10222 20208 39111 40068 76062 8522/ 333 58002 60061;
0202833390999992005020200004-14050-042617FM-12+088299999V0209999C000010450019N0020001N1+02011+01991100861ADDAY161061AY241061GF108991041021004501021999KA1240M+02661MA1999999091271MD1999999+0011MW1401REMSYN100AAXX  02004 83339 21495 80000 10201 20199 39127 40086 74064 8422/ 333 10266 29092 55036 58001 60071;
0190833390999992005020212004-14050-042617FM-12+088299999V0200901N004110042019N0100001N1+02131+01951101081ADDAY161061AY241061GF106991061021004501001001KA1240N+01831MA1999999091441MD1999999+0131MW1021REMSYN088AAXX  02124 83339 21497 60908 10213 20195 39144 40108 70264 86200 333 20183 58013 60134;
0167833390999992005020218004-14050-042617FM-12+088299999V0200501N005112200019N0100001N1+02711+01821100711ADDAA106000091GF104991021011004501001011MA1999999091201MD1999999+0091REMSYN070AAXX  02184 83339 32497 40510 10271 20182 39120 40071 82101 333 58009;EQDQ01  00002PRCP06
0208833390999992005020300004-14050-042617FM-12+088299999V0201401N003112200019N0020001N1+02431+01741100921ADDAA106000091GA1001+999999999GF100991001001999999001001KA1240M+02761MA1999999091391MD1999999+0121REMSYN082AAXX  03004 83339 32995 01406 10243 20174 39139 40092 333 10276 29069 55077 58012;EQDQ01  00002PRCP06
0186833390999992005020312004-14050-042617FM-12+088299999V0200901N005110042019N0100001N1+02191+01801101241ADDAA106000091GF106991061021004501001001KA1240N+01801MA1999999091681MD1999999+0241REMSYN076AAXX  03124 83339 32497 60910 10219 20180 39168 40124 86200 333 20180 58024;EQDQ01  00002PRCP06
0167833390999992005020318004-14050-042617FM-12+088299999V0200501N004612200019N0100001N1+02671+01731101021ADDAA106000091GF102991021011004501001001MA1999999091481MD1999999+0281REMSYN070AAXX  03184 83339 32497 20509 10267 20173 39148 40102 82100 333 58028;EQDQ01  00002PRCP06
0208833390999992005020400004-14050-042617FM-12+088299999V0201801N002612200019N0020001N1+02281+01511101131ADDAA106000091GA1001+999999999GF100991001001999999001001KA1240M+02711MA1999999091561MD1999999+0171REMSYN082AAXX  04004 83339 32995 01805 10228 20151 39156 40113 333 10271 29064 55093 58017;EQDQ01  00002PRCP06
0186833390999992005020412004-14050-042617FM-12+088299999V0200501N005112200019N0100001N1+02251+01731101431ADDAA106000091GF104991031021004501001011KA1240N+02251MA1999999091831MD1999999+0151REMSYN076AAXX  04124 83339 32497 40510 10225 20173 39183 40143 83201 333 20225 58015;EQDQ01  00002PRCP06
0167833390999992005020418004-14050-042617FM-12+088299999V0200901N003112200019N0100001N1+02591+01711101121ADDAA106000091GF103991031021004501001001MA1999999091571MD1999999+0091REMSYN070AAXX  04184 83339 32497 30906 10259 20171 39157 40112 83200 333 58009;EQDQ01  00002PRCP06
0208833390999992005020500004-14050-042617FM-12+088299999V0201401N003612200019N0020001N1+02271+01831101321ADDAA106000091GA1001+999999999GF100991001001999999001001KA1240M+02741MA1999999091731MD1999999+0171REMSYN082AAXX  05004 83339 32995 01407 10227 20183 39173 40132 333 10274 29070 55117 58017;EQDQ01  00002PRCP06
0186833390999992005020512004-14050-042617FM-12+088299999V0201401N006712200019N0100001N1+02201+01881101371ADDAA106000091GF103991031021004501001001KA1240N+01861MA1999999091771MD1999999-0061REMSYN076AAXX  05124 83339 32497 31413 10220 20188 39177 40137 83200 333 20186 59006;EQDQ01  00002PRCP06
0177833390999992005020518004-14050-042617FM-12+088299999V0201401N005712200019N0100001N1+02771+01731101081ADDAA106000091GA1001+999999999GF100991001001999999001001MA1999999091551MD1999999-0021REMSYN064AAXX  05184 83339 32997 01411 10277 20173 39155 40108 333 59002;EQDQ01  00002PRCP06
0179833390999992005020600004-14050-042620FM-12+088299999V0202301N001512200019N0020001N1+02391+01521101131ADDAA106000091GF100991001001999999001001MA1999999091581MD1999999-0151REMSYN082AAXX  06004 83339 32995 02303 10239 20152 39158 40113 333 10284 29063 55094 59015;EQDQ01  00002PRCP06
0173833390999992005020612004-14050-042620FM-12+088299999V0200901N005112200019N0100001N1+02331+01951101321ADDAA106000091GF104991041021004501001001MA1999999091771MD1999999+0001REMSYN076AAXX  06124 83339 32497 40910 10233 20195 39177 40132 84200 333 20200 58000;EQDQ01  00002PRCP06
0167833390999992005020618004-14050-042620FM-12+088299999V0200501N003612200019N0100001N1+02751+01831100941ADDAA106000091GF102991021021004501001001MA1999999095462MD1999999-0091REMSYN070AAXX  06184 83339 32497 20507 10275 20183 39546 40094 82200 333 59009;EQDQ01  00002PRCP06
0230833390999992005020712004-14050-042617FM-12+088299999V0201401N005119999999N0100001N1+02151+02001101241ADDAA106000091AY101061AY201061GF105991999021004501001001KA1240N+01941MA1999999091641MD1999999-0131MW1101REMSYN082AAXX  07124 83339 31497 51410 10215 20200 39164 40124 71000 86200 333 20194 59013;EQDQ01+000062SCOTLCQ02  00002PRCP06
0167833390999992005020718004-14050-042617FM-12+088299999V0201401N005112200019N0100001N1+02691+01811101021ADDAA106000091GF104991031021004501021001MA1999999091421MD1999999-0041REMSYN070AAXX  07184 83339 32497 41410 10269 20181 39142 40102 83220 333 59004;EQDQ01  00002PRCP06
0226833390999992005020800004-14050-042617FM-12+088299999V0201401N009312200019N0020001N1+02191+01821101061ADDAA106000091AY101061AY201061GF102991021021004501001001KA1240M+02641MA1999999091451MD1999999+0041MW1101REMSYN094AAXX  08004 83339 31495 21418 10219 20182 39145 40106 71000 82200 333 10264 29083 55089 58004;EQDQ01  00002PRCP06
0186833390999992005020812004-14050-042617FM-12+088299999V0201401N004112200019N0100001N1+02051+01641101231ADDAA106000091GF104991041021004501001001KA1240N+01681MA1999999091631MD1999999-0011REMSYN076AAXX  08124 83339 32497 41408 10205 20164 39163 40123 84200 333 20168 59001;EQDQ01  00002PRCP06
0167833390999992005020818004-14050-042617FM-12+088299999V0201401N006212200019N0100001N1+02591+01741101141ADDAA106000091GF102991021021004501001001MA1999999091411MD1999999-0011REMSYN070AAXX  08184 83339 32497 21412 10259 20174 39141 40114 82200 333 59001;EQDQ01  00002PRCP06
0214833390999992005020912004-14050-042617FM-12+088299999V0201401N008210042019N0100001N1+02031+01701101201ADDAA106000091AY101061AY201061GF105991051021004501001001KA1240N+01761MA1999999091631MD1999999+0001MW1101REMSYN082AAXX  09124 83339 31497 51416 10203 20170 39163 40120 71000 85200 333 20176 58000;EQDQ01  00002PRCP06
0167833390999992005020918004-14050-042617FM-12+088299999V0201401N004112200019N0100001N1+02551+01831101031ADDAA106000091GF102991011021004501021001MA1999999091311MD1999999-0101REMSYN070AAXX  09184 83339 32497 21408 10255 20183 39131 40103 81220 333 59010;EQDQ01  00002PRCP06
0198833390999992005021000004-14050-042617FM-12+088299999V0200901N003112200019N0020001N1+02291+01701100991ADDAA106000091GF102991021021004501001001KA1240M+02651MA1999999091351MD1999999-0161REMSYN088AAXX  10004 83339 32495 20906 10229 20170 39135 40099 82200 333 10265 29073 55108 59016;EQDQ01  00002PRCP06
0214833390999992005021012004-14050-042617FM-12+088299999V0200901N004110042019N0040001N1+02011+01921101001ADDAA106000091AY101061AY201061GF107991061021004501021999KA1240N+01901MA1999999091461MD1999999-0171MW1101REMSYN082AAXX  10124 83339 31496 70908 10201 20192 39146 40100 71000 8622/ 333 20190 59017;EQDQ01  00002PRCP06
0167833390999992005021018004-14050-042617FM-12+088299999V0200501N002610042019N0100001N1+02651+01951100771ADDAA106000091GF106991051021004501021001MA1999999091251MD1999999-0061REMSYN070AAXX  10184 83339 32497 60505 10265 20195 39125 40077 85220 333 59006;EQDQ01  00002PRCP06
0208833390999992005021100004-14050-042617FM-12+088299999V0201801N001512200019N0020001N1+02231+01761100881ADDAA106000091GA1001+999999999GF100991001001999999001001KA1240M+02701MA1999999091251MD1999999-0101REMSYN082AAXX  11004 83339 32995 01803 10223 20176 39125 40088 333 10270 29078 55068 59010;EQDQ01  00002PRCP06
0214833390999992005021112004-14050-042617FM-12+088299999V0201401N003112200019N0100001N1+02251+02051100951ADDAA106000091AY101061AY201061GF104991041021004501001001KA1240N+01761MA1999999091401MD1999999-0061MW1101REMSYN082AAXX  11124 83339 31497 41406 10225 20205 39140 40095 71000 84200 333 20176 59006;EQDQ01  00002PRCP06
0195833390999992005021118004-14050-042617FM-12+088299999V0201401N002612200019N0100001N1+02771+02041100761ADDAA106000091AY191061AY201061GF103991031021004501001001MA1999999091061MD1999999-0191MW1021REMSYN076AAXX  11184 83339 31497 31405 10277 20204 39106 40076 70290 83200 333 59019;EQDQ01  00002PRCP06
0202833390999992005021200004-14050-042617FM-12+088299999V0201801N004610042019N0020001N1+01971+01961100831ADDAY191061AY261061GF108991081051004501999999KA1240M+02881MA1999999091291MD1999999+0041MW1621REMSYN100AAXX  12004 83339 21495 81809 10197 20196 39129 40083 76296 885// 333 10288 29087 55087 58004 60071;
0190833390999992005021212004-14050-042617FM-12+088299999V0200901N002610042019N0040001N1+02211+02031101081ADDAY161061AY261061GF107991061021004501021999KA1240N+01931MA1999999091421MD1999999+0021MW1101REMSYN088AAXX  12124 83339 21496 70905 10221 20203 39142 40108 71066 8622/ 333 20193 58002 60084;
0167833390999992005021218004-14050-042617FM-12+088299999V0202701N004610042019N0100001N1+02591+01991100821ADDAA106000091GF106991051021004501021001MA1999999091141MD1999999+0081REMSYN070AAXX  12184 83339 32497 62709 10259 20199 39114 40082 85220 333 58008;EQDQ01  00002PRCP06
0189833390999992005021300004-14050-042620FM-12+088299999V0202701N000510042019N0020001N1+02171+02131100881ADDAY161061AY261061GF108991081051004501999999MA1999999091341MD1999999+0051MW1101REMSYN100AAXX  13004 83339 21495 82701 10217 20213 39134 40088 71066 885// 333 10272 29087 55016 58005 60021;
0177833390999992005021312004-14050-042620FM-12+088299999V0203201N004110042019N0100001N1+02171+02011101061ADDAY161061AY261061GF106991051021004501021001MA1999999091451MD1999999+0031MW1101REMSYN088AAXX  13124 83339 21497 63208 10217 20201 39145 40106 71066 85220 333 20200 58003 60104;
0167833390999992005021318004-14050-042620FM-12+088299999V0203201N004610042019N0100001N1+02531+01741100791ADDAA106000091GF106991061021004501001001MA1999999091151MD1999999+0011REMSYN070AAXX  13184 83339 32497 63209 10253 20174 39115 40079 86200 333 58001;EQDQ01  00002PRCP06
0226833390999992005021400004-14050-042617FM-12+088299999V0202701N001512200019N0020001N1+02291+02011100871ADDAA106000091AY101061AY201061GF104991041021004501001001KA1240M+02781MA1999999091301MD1999999-0041MW1101REMSYN094AAXX  14004 83339 31495 42703 10229 20201 39130 40087 71000 84200 333 10278 29086 55055 59004;EQDQ01  00002PRCP06
0190833390999992005021412004-14050-042617FM-12+088299999V0202701N005110042019N0100001N1+02291+02111100821ADDAY161061AY221061GF105991051021004501001001KA1240N+02111MA1999999091301MD1999999-0151MW1021REMSYN088AAXX  14124 83339 21497 52710 10229 20211 39130 40082 70262 85200 333 20211 59015 69924;
0171833390999992005021418004-14050-042617FM-12+088299999V0202701N003110042019N0100001N1+02591+02171100451ADDAY161061AY221061GF106991061021004501001001MA1999999090981MD1999999-0171MW1021REMSYN082AAXX  14184 83339 21497 62706 10259 20217 39098 40045 70262 86200 333 59017 60041;
0202833390999992005021500004-14050-042617FM-12+088299999V0202701N001010042019N0020001N1+02211+02121100731ADDAY161061AY221061GF108991051021004501021999KA1240M+02831MA1999999091201MD1999999-0101MW1601REMSYN100AAXX  15004 83339 21495 82702 10221 20212 39120 40073 76062 8522/ 333 10283 29088 55046 59010 60021;
0190833390999992005021512004-14050-042617FM-12+088299999V0203201N001510042019N0020001N1+02101+02051100771ADDAY161061AY261061GF108991051051004501021999KA1240N+02071MA1999999091191MD1999999-0111MW1401REMSYN088AAXX  15124 83339 21495 83203 10210 20205 39119 40077 74066 8552/ 333 20207 59011 60084;
0171833390999992005021518004-14050-042617FM-12+088299999V0202701N002110042019N0100001N1+02431+02251100411ADDAY161061AY241061GF106991061021004501001001MA1999999090911MD1999999-0071MW1021REMSYN082AAXX  15184 83339 21497 62704 10243 20225 39091 40041 70264 86200 333 59007 60171;
0198833390999992005021600004-14050-042617FM-12+088299999V0203201N001010042019N0020001N1+02251+02141100671ADDAA106000091GF105991051021004501001001KA1240M+02571MA1999999091101MD1999999-0101REMSYN088AAXX  16004 83339 32495 53202 10225 20214 39110 40067 85200 333 10257 29093 55005 59010;EQDQ01  00002PRCP06
0190833390999992005021612004-14050-042617FM-12+088299999V0203201N002610042019N0020001N1+02121+02041100841ADDAY161061AY221061GF108991051021004501021999KA1240N+02101MA1999999091281MD1999999+0091MW1601REMSYN088AAXX  16124 83339 21495 83205 10212 20204 39128 40084 76062 8522/ 333 20210 58009 60194;
0171833390999992005021618004-14050-042617FM-12+088299999V0203201N005110450019N0020001N1+02251+02071100701ADDAY161061AY261061GF108991041021004501021999MA1999999091131MD1999999+0221MW1601REMSYN082AAXX  16184 83339 21495 83210 10225 20207 39113 40070 76066 8422/ 333 58022 60021;
0202833390999992005021700004-14050-042617FM-12+088299999V0209999C000010450019N0020001N1+02081+01931100921ADDAY161061AY221061GF108991041021004501021999KA1240M+02341MA1999999091311MD1999999+0211MW1131REMSYN100AAXX  17004 83339 21495 80000 10208 20193 39131 40092 71362 8422/ 333 10234 29091 55000 58021 69921;
0190833390999992005021712004-14050-042617FM-12+088299999V0202301N001012200019N0100001N1+02341+02011101111ADDAY161061AY221061GF104991021021004501001011KA1240N+01981MA1999999091521MD1999999+0241MW1021REMSYN088AAXX  17124 83339 21497 42302 10234 20201 39152 40111 70262 82201 333 20198 58024 60024;
0171833390999992005021718004-14050-042617FM-12+088299999V0209999C000010042019N0020001N1+02171+02131100951ADDAY161061AY221061GF106991061021004501001001MA1999999091321MD1999999+0191MW1401REMSYN082AAXX  17184 83339 21495 60000 10217 20213 39132 40095 74062 86200 333 58019 60121;
0226833390999992005021800004-14050-042617FM-12+088299999V0209999C000010042019N0020001N1+02121+02051101131ADDAA106000091AY141061AY241061GF108991051021004501031999KA1240M+02681MA1999999091561MD1999999+0251MW1401REMSYN094AAXX  18004 83339 31495 80000 10212 20205 39156 40113 74044 8523/ 333 10268 29093 55028 58025;EQDQ01  00002PRCP06
0190833390999992005021812004-14050-042617FM-12+088299999V0200901N004110450019N0100001N1+02151+02021101361ADDAY161061AY241061GF106991041021004501031001KA1240N+02041MA1999999091731MD1999999+0211MW1021REMSYN088AAXX  18124 83339 21497 60908 10215 20202 39173 40136 70264 84230 333 20204 58021 60134;
0167833390999992005021818004-14050-042617FM-12+088299999V0201401N004610042019N0100001N1+02491+02001101021ADDAA106000091GF108991051021004501021999MA1999999091461MD1999999+0141REMSYN070AAXX  18184 83339 32497 81409 10249 20200 39146 40102 8522/ 333 58014;EQDQ01  00002PRCP06
0198833390999992005021900004-14050-042617FM-12+088299999V0200901N001010042019N0020001N1+02231+02071101231ADDAA106000091GF106991061021004501001001KA1240M+02581MA1999999091631MD1999999+0071REMSYN088AAXX  19004 83339 32495 60902 10223 20207 39163 40123 86200 333 10258 29086 55000 58007;EQDQ01  00002PRCP06
0190833390999992005021912004-14050-042617FM-12+088299999V0200501N001010042019N0100001N1+02261+02071101331ADDAY161061AY221061GF106991061021004501001001KA1240N+02061MA1999999091741MD1999999+0011MW1021REMSYN088AAXX  19124 83339 21497 60502 10226 20207 39174 40133 70262 86200 333 20206 58001 69944;
0167833390999992005021918004-14050-042617FM-12+088299999V0201401N002612200019N0100001N1+02771+01981100811ADDAA106000091GF103991031021004501001001MA1999999091331MD1999999+0131REMSYN070AAXX  19184 83339 32497 31405 10277 20198 39133 40081 83200 333 58013;EQDQ01  00002PRCP06
0185833390999992005022000004-14050-042620FM-12+088299999V0200901N001510450019N0020001N1+02371+01751101031ADDAA106000091GF106991041021004501031001MA1999999091531MD1999999-0101REMSYN088AAXX  20004 83339 32495 60903 10237 20175 39153 40103 84230 333 10281 29072 55065 59010;EQDQ01  00002PRCP06
0177833390999992005022012004-14050-042620FM-12+088299999V0209999C000012200019N0100001N1+02281+02091101101ADDAY161061AY221061GF104991011011004501031001MA1999999091551MD1999999-0191MW1021REMSYN088AAXX  20124 83339 21497 40000 10228 20209 39155 40110 70262 81130 333 20204 59019 60014;
0167833390999992005022018004-14050-042620FM-12+088299999V0202301N003610042019N0100001N1+02851+01981100521ADDAA106000091GF106991061021004501001001MA1999999091081MD1999999-0251REMSYN070AAXX  20184 83339 32497 62307 10285 20198 39108 40052 86200 333 59025;EQDQ01  00002PRCP06
0198833390999992005022100004-14050-042617FM-12+088299999V0209999C000010450019N0020001N1+02211+02121100851ADDAA106000091GF105991031011004501031001KA1240M+03001MA1999999091311MD1999999-0221REMSYN088AAXX  21004 83339 32495 50000 10221 20212 39131 40085 83130 333 10300 29084 55070 59022;EQDQ01  00002PRCP06
0214833390999992005022112004-14050-042617FM-12+088299999V0201401N004610042019N0040001N1+02111+02001100921ADDAA106000091AY101061AY201061GF108991081051004501999999KA1240N+01931MA1999999091371MD1999999-0181MW1101REMSYN082AAXX  21124 83339 31496 81409 10211 20200 39137 40092 71000 885// 333 20193 59018;EQDQ01  00002PRCP06
0176833390999992005022118004-14050-042617FM-12+088299999V0200901N002612200019N0100001N1+02651+01831999999ADDAA106000091GF104991031021004501021001MA1999999091061MD1999999-0021ME1100059REMSYN070AAXX  21184 83339 32497 40905 10265 20183 39106 41005 83220 333 59002;EQDQ01  00002PRCP06
0202833390999992005022200004-14050-042617FM-12+088299999V0201801N000510042019N0020001N1+02111+02021100821ADDAY191061AY261061GF106991051021004501031001KA1240M+02781MA1999999091241MD1999999+0001MW1101REMSYN100AAXX  22004 83339 21495 61801 10211 20202 39124 40082 71096 85230 333 10278 29084 55077 59000 60331;
0190833390999992005022212004-14050-042617FM-12+088299999V0200901N004610042019N0040001N1+02151+02071101061ADDAY161061AY261061GF108991081051004501999999KA1240N+02041MA1999999091451MD1999999+0081MW1101REMSYN088AAXX  22124 83339 21496 80909 10215 20207 39145 40106 71066 885// 333 20204 58008 60334;
0195833390999992005022218004-14050-042617FM-12+088299999V0202701N004110042019N0040001N1+02331+01961100871ADDAA106000091AY101061AY201061GF107991061021004501021999MA1999999091231MD1999999+0171MW1101REMSYN076AAXX  22184 83339 31496 72708 10233 20196 39123 40087 71000 8622/ 333 58017;EQDQ01  00002PRCP06
0202833390999992005022300004-14050-042617FM-12+088299999V0201801N000510042019N0020001N1+02251+02171101111ADDAY191061AY261061GF108991081051004501999999KA1240M+02721MA1999999091521MD1999999+0281MW1171REMSYN100AAXX  23004 83339 21495 81801 10225 20217 39152 40111 71796 885// 333 10272 29091 55049 58028 60101;
0190833390999992005022312004-14050-042617FM-12+088299999V0200501N003110042019N0100001N1+02271+02011101161ADDAY161061AY261061GF105991051021004501001001KA1240N+02001MA1999999091591MD1999999+0141MW1101REMSYN088AAXX  23124 83339 21497 50506 10227 20201 39159 40116 71066 85200 333 20200 58014 60104;
0167833390999992005022318004-14050-042617FM-12+088299999V0202701N000512200019N0100001N1+02631+02031100971ADDAA106000091GF104991041021004501001001MA1999999091351MD1999999+0121REMSYN070AAXX  23184 83339 32497 42701 10263 20203 39135 40097 84200 333 58012;EQDQ01  00002PRCP06
0226833390999992005022400004-14050-042617FM-12+088299999V0200901N002610042019N0020001N1+02171+02081101241ADDAA106000091AY191061AY201061GF108991081051004501999999KA1240M+02841MA1999999091641MD1999999+0121MW1131REMSYN094AAXX  24004 83339 31495 80905 10217 20208 39164 40124 71390 885// 333 10284 29084 55083 58012;EQDQ01  00002PRCP06
0162833390999992005022412004-14050-042617FM-12+088299999V0200901N002110042019N0040001N1+02291+02111101401ADDGF107991061021004501021001KA1240N+02061MA1999999091801MD1999999+0211REMSYN082AAXX  24124 83339 22496 70904 10229 20211 39180 40140 86220 333 20206 58021 60074;
0167833390999992005022418004-14050-042617FM-12+088299999V0200901N003612200019N0100001N1+02671+01971101061ADDAA106000091GF103991021021004501021001MA1999999091401MD1999999+0051REMSYN070AAXX  24184 83339 32497 30907 10267 20197 39140 40106 82220 333 58005;EQDQ01  00002PRCP06
0226833390999992005022500004-14050-042617FM-12+088299999V0200901N003112200019N0020001N1+02311+02031101131ADDAA106000091AY101061AY201061GF102991011021004501021001KA1240M+02801MA1999999091601MD1999999-0041MW1101REMSYN094AAXX  25004 83339 31495 20906 10231 20203 39160 40113 71000 81220 333 10280 29086 55075 59004;EQDQ01  00002PRCP06
0214833390999992005022512004-14050-042617FM-12+088299999V0200501N002610042019N0100001N1+02271+02071101241ADDAA106000091AY101061AY201061GF106991061021004501001001KA1240N+01931MA1999999091701MD1999999-0101MW1101REMSYN082AAXX  25124 83339 31497 60505 10227 20207 39170 40124 71000 86200 333 20193 59010;EQDQ01  00002PRCP06
0195833390999992005022518004-14050-042617FM-12+088299999V0202701N005710042019N0100001N1+02571+01951101101ADDAA106000091AY101061AY201061GF106991061021004501001001MA1999999091411MD1999999+0011MW1171REMSYN076AAXX  25184 83339 31497 62711 10257 20195 39141 40110 71700 86200 333 58001;EQDQ01  00002PRCP06
0226833390999992005022600004-14050-042617FM-12+088299999V0209999C000012200019N0020001N1+02251+01991101021ADDAA106000091AY101061AY201061GF104991041021004501001001KA1240M+02881MA1999999091461MD1999999-0141MW1101REMSYN094AAXX  26004 83339 31495 40000 10225 20199 39146 40102 71000 84200 333 10288 29088 55076 59014;EQDQ01  00002PRCP06
0186833390999992005022612004-14050-042617FM-12+088299999V0203601N001512200019N0100001N1+02591+01941101121ADDAA106000091GF102991011021004501001041KA1240N+02061MA1999999091551MD1999999-0151REMSYN076AAXX  26124 83339 32497 23603 10259 20194 39155 40112 81204 333 20206 59015;EQDQ01  00002PRCP06
0167833390999992005022618004-14050-042617FM-12+088299999V0202301N003610042019N0100001N1+03091+01821100851ADDAA106000091GF105991051021004501001001MA1999999091231MD1999999-0181REMSYN070AAXX  26184 83339 32497 52307 10309 20182 39123 40085 85200 333 59018;EQDQ01  00002PRCP06
0213833390999992005022700004-14050-042620FM-12+088299999V0200901N001510042019N0020001N1+02331+02051100811ADDAA106000091AY191061AY201061GF106991051021004501021001MA1999999091411MD1999999-0051MW1131REMSYN094AAXX  27004 83339 31495 60903 10233 20205 39141 40081 71390 85220 333 10316 29071 55092 59005;EQDQ01  00002PRCP06
0173833390999992005022712004-14050-042620FM-12+088299999V0200501N001512200019N0100001N1+02591+02101101051ADDAA106000091GF102991021021004501001001MA1999999091531MD1999999-0021REMSYN076AAXX  27124 83339 32497 20503 10259 20210 39153 40105 82200 333 20218 59002;EQDQ01  00002PRCP06
0171833390999992005022718004-14050-042620FM-12+088299999V0202701N001010042019N0040001N1+02291+02231100881ADDAY191061AY261061GF107991061021004501021999MA1999999091311MD1999999+0081MW1101REMSYN082AAXX  27184 83339 21496 72702 10229 20223 39131 40088 71096 8622/ 333 58008 60321;
0226833390999992005022800004-14050-042617FM-12+088299999V0201801N001012200019N0020001N1+02371+02091100921ADDAA106000091AY101061AY201061GF103991031021004501001001KA1240M+02981MA1999999091511MD1999999+0101MW1131REMSYN094AAXX  28004 83339 31495 31802 10237 20209 39151 40092 71300 83200 333 10298 29087 55055 58010;EQDQ01  00002PRCP06
0190833390999992005022812004-14050-042617FM-12+088299999V0202301N003110042019N0020001N1+02381+02191101301ADDAY161061AY221061GF106991061021004501001001KA1240N+02141MA1999999091771MD1999999+0241MW1401REMSYN088AAXX  28124 83339 21495 62306 10238 20219 39177 40130 74062 86200 333 20214 58024 60334;
0195833390999992005022818004-14050-042617FM-12+088299999V0203201N001010042019N0100001N1+02811+02171100751ADDAA106000091AY141061AY221061GF106991061021004501001001MA1999999091321MD1999999+0011MW1021REMSYN076AAXX  28184 83339 31497 63202 10281 20217 39132 40075 70242 86200 333 58001;EQDQ01  00002PRCP06
0221833390999992005030100004-14050-042617FM-12+088299999V0209999C000012200019N0020001N1+02331+02131101021ADDAY161061AY221061GF102991021021004501001001KA1240M+02881MA1999999091501MD1999999-0011MW1222REMSYN100AAXX  01004 83339 21495 20000 10233 20213 39150 40102 72262 82200 333 10288 29085 55041 59001 69941;EQDQ01+000002PRSWM1
0190833390999992005030112004-14050-042617FM-12+088299999V0203201N001512200019N0100001N1+02431+02211101151ADDAY161061AY221061GF102991021011004501001001KA1240N+02141MA1999999091641MD1999999-0131MW1021REMSYN088AAXX  01124 83339 21497 23203 10243 20221 39164 40115 70262 82100 333 20214 59013 69944;
0171833390999992005030118004-14050-042617FM-12+088299999V0209999C000010042019N0100001N1+02361+02051100861ADDAY161061AY221061GF105991051021004501001001MA1999999091321MD1999999+0001MW1021REMSYN082AAXX  01184 83339 21497 50000 10236 20205 39132 40086 70262 85200 333 58000 60041;
0208833390999992005030200004-14050-042617FM-12+088299999V0201801N001512200019N0020001N1+02351+02011100911ADDAA106000091GA1001+999999999GF100991001001999999001001KA1240M+02941MA1999999091421MD1999999-0081REMSYN082AAXX  02004 83339 32995 01803 10235 20201 39142 40091 333 10294 29083 55052 59008;EQDQ01  00002PRCP06
0190833390999992005030212004-14050-042617FM-12+088299999V0203201N001012200019N0100001N1+02431+02031101101ADDAY161061AY221061GF104991011011004501001011KA1240N+01981MA1999999091591MD1999999-0051MW1021REMSYN088AAXX  02124 83339 21497 43202 10243 20203 39159 40110 70262 81101 333 20198 59005 60044;
0167833390999992005030218004-14050-042617FM-12+088299999V0201401N003112200019N0100001N1+02731+01921100801ADDAA106000091GF106991031021004501001011MA1999999091321MD1999999+0001REMSYN070AAXX  02184 83339 32497 61406 10273 20192 39132 40080 83201 333 58000;EQDQ01  00002PRCP06
0198833390999992005030300004-14050-042617FM-12+088299999V0201401N001510042019N0020001N1+02331+01831101081ADDAA106000091GF105991051021004501001001KA1240M+02881MA1999999091571MD1999999+0151REMSYN088AAXX  03004 83339 32495 51403 10233 20183 39157 40108 85200 333 10288 29071 55052 58015;EQDQ01  00002PRCP06
0186833390999992005030312004-14050-042617FM-12+088299999V0200901N003110042019N0100001N1+02101+01951101371ADDAA106000091GF108991051021004501021999KA1240N+01991MA1999999091751MD1999999+0161REMSYN076AAXX  03124 83339 32497 80906 10210 20195 39175 40137 8522/ 333 20199 58016;EQDQ01  00002PRCP06
0208833390999992005030400004-14050-042617FM-12+088299999V0201401N003612200019N0020001N1+02351+01661101201ADDAA106000091GA1001+999999999GF100991001001999999001001KA1240M+02791MA1999999091601MD1999999+0031REMSYN082AAXX  04004 83339 32995 01407 10235 20166 39160 40120 333 10279 29068 55085 58003;EQDQ01  00002PRCP06
0186833390999992005030412004-14050-042617FM-12+088299999V0201401N004612200019N0100001N1+02231+01941101291ADDAA106000091GF103991031021004501001001KA1240N+01881MA1999999091731MD1999999-0021REMSYN076AAXX  04124 83339 32497 31409 10223 20194 39173 40129 83200 333 20188 59002;EQDQ01  00002PRCP06
0167833390999992005030418004-14050-042617FM-12+088299999V0200501N002612200019N0100001N1+02811+01551100911ADDAA106000091GF102991011011004501001011MA1999999091421MD1999999-0041REMSYN070AAXX  04184 83339 32497 20505 10281 20155 39142 40091 81101 333 59004;EQDQ01  00002PRCP06
0208833390999992005030500004-14050-042617FM-12+088299999V0201401N005112200019N0020001N1+02321+01631101201ADDAA106000091GA1001+999999999GF100991001001999999001001KA1240M+02861MA1999999091631MD1999999+0031REMSYN082AAXX  05004 83339 32995 01410 10232 20163 39163 40120 333 10286 29064 55100 58003;EQDQ01  00002PRCP06
0186833390999992005030512004-14050-042617FM-12+088299999V0201401N001512200019N0100001N1+02251+01881101401ADDAA106000091GF106991031011004501001041KA1240N+01831MA1999999091831MD1999999+0101REMSYN076AAXX  05124 83339 32497 61403 10225 20188 39183 40140 83104 333 20183 58010;EQDQ01  00002PRCP06
0167833390999992005030518004-14050-042617FM-12+088299999V0200501N002110042019N0100001N1+02671+02061101051ADDAA106000091GF106991051021004501001041MA1999999091531MD1999999+0111REMSYN070AAXX  05184 83339 32497 60504 10267 20206 39153 40105 85204 333 58011;EQDQ01  00002PRCP06
0198833390999992005030600004-14050-042620FM-12+088299999V0209999C000012200019N0020001N1+02301+02091101201ADDAA106000091GF104991041021004501001001KA1240M+02801MA1999999091651MD1999999+0021REMSYN088AAXX  06004 83339 32495 40000 10230 20209 39165 40120 84200 333 10280 29081 55028 58002;EQDQ01  00002PRCP06
0186833390999992005030612004-14050-042620FM-12+088299999V0200901N002610042019N0100001N1+02301+01921101261ADDAA106000091GF106991061021004501001001KA1240N+02071MA1999999091701MD1999999-0131REMSYN076AAXX  06124 83339 32497 60905 10230 20192 39170 40126 86200 333 20207 59013;EQDQ01  00002PRCP06
0167833390999992005030618004-14050-042620FM-12+088299999V0201401N003110042019N0100001N1+02611+02051100811ADDAA106000091GF108991051021004501021999MA1999999091331MD1999999-0201REMSYN070AAXX  06184 83339 32497 81406 10261 20205 39133 40081 8522/ 333 59020;EQDQ01  00002PRCP06
0214833390999992005030712004-14050-042617FM-12+088299999V0200501N002610042019N0040001N1+02171+01881101211ADDAA106000091AY101061AY201061GF107991061021004501021999KA1240N+02061MA1999999091641MD1999999-0061MW1101REMSYN082AAXX  07124 83339 31496 70505 10217 20188 39164 40121 71000 8622/ 333 20206 59006;EQDQ01  00002PRCP06
0171833390999992005030718004-14050-042617FM-12+088299999V0201801N003110042019N0040001N1+02291+02031100971ADDAY161061AY261061GF108991081051004501999999MA1999999091421MD1999999+0091MW1101REMSYN082AAXX  07184 83339 21496 81806 10229 20203 39142 40097 71066 885// 333 58009 69941;
0202833390999992005030800004-14050-042617FM-12+088299999V0201801N000510042019N0020001N1+02031+01941101281ADDAY161061AY261061GF108991081051004501999999KA1240M+02461MA1999999091641MD1999999+0161MW1101REMSYN100AAXX  08004 83339 21495 81801 10203 20194 39164 40128 71066 885// 333 10246 29090 55000 58016 60031;
0190833390999992005030812004-14050-042617FM-12+088299999V0200901N001510042019N0040001N1+02031+02021101371ADDAY161061AY261061GF108991081051004501999999KA1240N+01881MA1999999091701MD1999999+0061MW1101REMSYN088AAXX  08124 83339 21496 80903 10203 20202 39170 40137 71066 885// 333 20188 58006 60034;
0167833390999992005030818004-14050-042617FM-12+088299999V0201401N002610042019N0100001N1+02591+01941101041ADDAA106000091GF106991051021004501031001MA1999999091341MD1999999-0081REMSYN070AAXX  08184 83339 32497 61405 10259 20194 39134 40104 85230 333 59008;EQDQ01  00002PRCP06
0202833390999992005030900004-14050-042617FM-12+088299999V0202301N001510042019N0020001N1+01911+01831101241ADDAY191061AY201061GF108991081051004501999999KA1240M+02241MA1999999091581MD1999999-0061MW1621REMSYN100AAXX  09004 83339 21495 82303 10191 20183 39158 40124 76290 885// 333 10224 29099 55027 59006 60181;
0190833390999992005030912004-14050-042617FM-12+088299999V0201401N003110042019N0100001N1+02251+02011101231ADDAY161061AY261061GF106991051021004501021001KA1240N+01861MA1999999091531MD1999999-0171MW1101REMSYN088AAXX  09124 83339 21497 61406 10225 20201 39153 40123 71066 85220 333 20186 59017 60194;
0167833390999992005030918004-14050-042617FM-12+088299999V0201401N002112200019N0100001N1+02651+01801100741ADDAA106000091GF104991041021004501001001MA1999999091211MD1999999-0131REMSYN070AAXX  09184 83339 32497 41404 10265 20180 39121 40074 84200 333 59013;EQDQ01  00002PRCP06
0226833390999992005031000004-14050-042617FM-12+088299999V0209999C000012200019N0020001N1+02291+01941100881ADDAA106000091AY101061AY201061GF102991021021004501001001KA1240M+02801MA1999999091341MD1999999-0241MW1101REMSYN094AAXX  10004 83339 31495 20000 10229 20194 39134 40088 71000 82200 333 10280 29082 55080 59024;EQDQ01  00002PRCP06
0214833390999992005031012004-14050-042617FM-12+088299999V0203601N000510042019N0100001N1+02191+02101101211ADDAA106000091AY101061AY201061GF106991061021004501001001KA1240N+01881MA1999999091651MD1999999+0121MW1101REMSYN082AAXX  10124 83339 31497 63601 10219 20210 39165 40121 71000 86200 333 20188 58012;EQDQ01  00002PRCP06
0167833390999992005031018004-14050-042617FM-12+088299999V0201801N003112200019N0100001N1+02631+01981100881ADDAA106000091GF104991041021004501001001MA1999999091351MD1999999+0141REMSYN070AAXX  10184 83339 32497 41806 10263 20198 39135 40088 84200 333 58014;EQDQ01  00002PRCP06
0226833390999992005031100004-14050-042617FM-12+088299999V0202701N001012200019N0020001N1+02171+01951101161ADDAA106000091AY101061AY201061GF102991021021004501001001KA1240M+03021MA1999999091561MD1999999+0221MW1101REMSYN094AAXX  11004 83339 31495 22702 10217 20195 39156 40116 71000 82200 333 10302 29084 55056 58022;EQDQ01  00002PRCP06
0186833390999992005031112004-14050-042617FM-12+088299999V0200901N001510042019N0100001N1+02391+01971101301ADDAA106000091GF106991061021004501001001KA1240N+01931MA1999999091691MD1999999+0041REMSYN076AAXX  11124 83339 32497 60903 10239 20197 39169 40130 86200 333 20193 58004;EQDQ01  00002PRCP06
0152833390999992005031118004-14050-042617FM-12+088299999V0201801N001512200019N0100001N1+02851+01701100891ADDAA106000091GF104991041021004501001001MD1999999+0051REMSYN070AAXX  11184 83339 32497 41803 10285 20170 33914 40089 84200 333 58005;EQDQ01  00002PRCP06
0202833390999992005031200004-14050-042617FM-12+088299999V0201801N002612200019N0020001N1+02331+02051101031ADDAY161061AY261061GF102991021021004501001001KA1240M+03001MA1999999091531MD1999999-0031MW1101REMSYN100AAXX  12004 83339 21495 21805 10233 20205 39153 40103 71066 82200 333 10300 29088 55070 59003 60081;
0190833390999992005031212004-14050-042617FM-12+088299999V0209999C000010042019N0100001N1+02351+02091101121ADDAY161061AY261061GF106991051021004501031001KA1240N+02061MA1999999091591MD1999999-0101MW1101REMSYN088AAXX  12124 83339 21497 60000 10235 20209 39159 40112 71066 85230 333 20206 59010 60084;
0171833390999992005031218004-14050-042617FM-12+088299999V02099999999990042019N0100001N1+02331+02241100791ADDAY161061AY261061GF106991051021004501021001MA1999999091191MD1999999-0211MW1101REMSYN082AAXX  12184 83339 21497 6//// 10233 20224 39119 40079 71066 85220 333 59021 60171;
0226833390999992005031300004-14050-042620FM-12+088299999V0201801N000510042019N0020001N1+02191+02101101091ADDAA106000091AY101061AY201061GF108991081051004501999999KA1240M+02631MA1999999091501MD1999999-0031MW1171REMSYN094AAXX  13004 83339 31495 81801 10219 20210 39150 40109 71700 885// 333 10263 29098 55019 59003;EQDQ01  00002PRCP06
0190833390999992005031312004-14050-042620FM-12+088299999V0201401N002610042019N0100001N1+02271+02121101121ADDAY161061AY261061GF106991061021004501001001KA1240N+01981MA1999999091531MD1999999-0061MW1101REMSYN088AAXX  13124 83339 21497 61405 10227 20212 39153 40112 71066 86200 333 20198 59006 60244;
0171833390999992005031318004-14050-042620FM-12+088299999V0202701N002110042019N0100001N1+02291+02201100851ADDAY161061AY261061GF106991051021004501021001MA1999999091231MD1999999+0041MW1101REMSYN082AAXX  13184 83339 21497 62704 10229 20220 39123 40085 71066 85220 333 58004 60221;
0226833390999992005031400004-14050-042620FM-12+088299999V0203201N003110042019N0020001N1+02051+01961101031ADDAA106000091AY101061AY201061GF108991081051004501999999KA1240M+02731MA1999999091491MD1999999-0011MW1101REMSYN094AAXX  14004 83339 31495 83206 10205 20196 39149 40103 71000 885// 333 10273 29098 55036 59001;EQDQ01  00002PRCP06
0190833390999992005031412004-14050-042620FM-12+088299999V0209999C000010450019N0100001N1+02101+01851101271ADDAY161061AY221061GF108991041021004501021999KA1240N+01941MA1999999091611MD1999999+0081MW1021REMSYN088AAXX  14124 83339 21497 80000 10210 20185 39161 40127 70262 8422/ 333 20194 58008 60324;
0167833390999992005031418004-14050-042617FM-12+088299999V0200901N001510042019N0100001N1+02581+02121100771ADDAA106000091GF106991051021004501031001MA1999999091251MD1999999+0021REMSYN070AAXX  14184 83339 32497 60903 10258 20212 39125 40077 85230 333 58002;EQDQ01  00002PRCP06
0198833390999992005031500004-14050-042617FM-12+088299999V0209999C000012200019N0020001N1+02231+01991100971ADDAA106000091GF103991031021004501001001KA1240M+02631MA1999999091371MD1999999-0121REMSYN088AAXX  15004 83339 32495 30000 10223 20199 39137 40097 83200 333 10263 29085 55007 59012;EQDQ01  00002PRCP06
0186833390999992005031512004-14050-042617FM-12+088299999V0200901N003610042019N0100001N1+02131+02001101161ADDAA106000091GF108991051021004501021999KA1240N+01991MA1999999091561MD1999999-0051REMSYN076AAXX  15124 83339 32497 80907 10213 20200 39156 40116 8522/ 333 20199 59005;EQDQ01  00002PRCP06
0167833390999992005031518004-14050-042617FM-12+088299999V0200901N005112200019N0100001N1+02701+01801100731ADDAA106000091GF102991021021004501001001MA1999999091241MD1999999-0011REMSYN070AAXX  15184 83339 32497 20910 10270 20180 39124 40073 82200 333 59001;EQDQ01  00002PRCP06
0208833390999992005031600004-14050-042617FM-12+088299999V0200901N003112200019N0020001N1+02271+01901101061ADDAA106000091GA1001+999999999GF100991001001999999001001KA1240M+02761MA1999999091471MD1999999+0101REMSYN082AAXX  16004 83339 32995 00906 10227 20190 39147 40106 333 10276 29077 55073 58010;EQDQ01  00002PRCP06
0186833390999992005031612004-14050-042617FM-12+088299999V0200901N002610450019N0100001N1+02311+02021101341ADDAA106000091GF105991041021004501031001KA1240N+01941MA1999999091771MD1999999+0211REMSYN076AAXX  16124 83339 32497 50905 10231 20202 39177 40134 84230 333 20194 58021;EQDQ01  00002PRCP06
0208833390999992005031700004-14050-042617FM-12+088299999V0200901N002112200019N0020001N1+02261+01791101081ADDAA106000091GA1001+999999999GF100991001001999999001001KA1240M+02761MA1999999091541MD1999999+0071REMSYN082AAXX  17004 83339 32995 00904 10226 20179 39154 40108 333 10276 29074 55094 58007;EQDQ01  00002PRCP06
0186833390999992005031712004-14050-042617FM-12+088299999V0200901N004612200019N0100001N1+02231+01941101301ADDAA106000091GF103991031021004501001001KA1240N+01941MA1999999091711MD1999999-0061REMSYN076AAXX  17124 83339 32497 30909 10223 20194 39171 40130 83200 333 20194 59006;EQDQ01  00002PRCP06
0167833390999992005031718004-14050-042617FM-12+088299999V0200901N003112200019N0100001N1+02691+01801100851ADDAA106000091GF102991021021004501001001MA1999999091331MD1999999-0101REMSYN070AAXX  17184 83339 32497 20906 10269 20180 39133 40085 82200 333 59010;EQDQ01  00002PRCP06
0208833390999992005031800004-14050-042617FM-12+088299999V0209999C000012200019N0020001N1+02211+01671101081ADDAA106000091GA1001+999999999GF100991001001999999001001KA1240M+02771MA1999999091491MD1999999-0051REMSYN082AAXX  18004 83339 32995 00000 10221 20167 39149 40108 333 10277 29071 55102 59005;EQDQ01  00002PRCP06
0186833390999992005031812004-14050-042617FM-12+088299999V0200901N001010042019N0100001N1+02291+02051101181ADDAA106000091GF105991051021004501001001KA1240N+01851MA1999999091631MD1999999-0081REMSYN076AAXX  18124 83339 32497 50902 10229 20205 39163 40118 85200 333 20185 59008;EQDQ01  00002PRCP06
0183833390999992005031818004-14050-042617FM-12+088299999V0200901N003112200019N0100001N1+02871+01801100781ADDAA106000091GF103991021021004501001011MA1999999999999MD1999999-0011REMSYN070AAXX  18184 83339 32497 30906 10287 20180 39732 40078 82201 333 59001;EQDQ01  00002PRCP06Q02 097323APOSP 
0208833390999992005031900004-14050-042617FM-12+088299999V0201801N001512200019N0020001N1+02381+01631100981ADDAA106000091GA1001+999999999GF100991001001999999001001KA1240M+02941MA1999999091461MD1999999-0031REMSYN082AAXX  19004 83339 32995 01803 10238 20163 39146 40098 333 10294 29066 55102 59003;EQDQ01  00002PRCP06
0196833390999992005031912004-14050-042617FM-12+088299999V0200501N001512200019N0100001N1+02471+02011101131ADDAA106000091GA1001+999999999GF100991001001999999001001KA1240N+01921MA1999999091621MD1999999-0011REMSYN070AAXX  19124 83339 32997 00503 10247 20201 39162 40113 333 20192 59001;EQDQ01  00002PRCP06
0167833390999992005031918004-14050-042617FM-12+088299999V0201801N002612200019N0100001N1+02731+01921100771ADDAA106000091GF105991031021004501001041MA1999999091281MD1999999-0041REMSYN070AAXX  19184 83339 32497 51805 10273 20192 39128 40077 83204 333 59004;EQDQ01  00002PRCP06
0198833390999992005032000004-14050-042620FM-12+088299999V0209999C000012200019N0020001N1+02351+01851101001ADDAA106000091GF103991021011004501001011KA1240M+03041MA1999999091501MD1999999+0041REMSYN088AAXX  20004 83339 32495 30000 10235 20185 39150 40100 82101 333 10304 29071 55089 58004;EQDQ01  00002PRCP06
0186833390999992005032012004-14050-042620FM-12+088299999V0203201N001512200019N0100001N1+02491+01911101281ADDAA106000091GF106991041021004501001011KA1240N+01971MA1999999091751MD1999999+0131REMSYN076AAXX  20124 83339 32497 63203 10249 20191 39175 40128 84201 333 20197 58013;EQDQ01  00002PRCP06
0171833390999992005032018004-14050-042620FM-12+088299999V0201801N002610042019N0100001N1+02371+01971100951ADDAY161061AY261061GF106991061021004501001001MA1999999091401MD1999999+0121MW1021REMSYN082AAXX  20184 83339 21497 61805 10237 20197 39140 40095 70266 86200 333 58012 69961;
0198833390999992005032100004-14050-042617FM-12+088299999V0209999C000012200019N0020001N1+02291+01951101071ADDAA106000091GF102991021011004501001001KA1240M+02961MA1999999091561MD1999999+0061REMSYN088AAXX  21004 83339 32495 20000 10229 20195 39156 40107 82100 333 10296 29075 55051 58006;EQDQ01  00002PRCP06
0190833390999992005032112004-14050-042617FM-12+088299999V0201401N004610042019N0040001N1+02091+02001101411ADDAY161061AY261061GF108991081051004501999999KA1240N+01881MA1999999091791MD1999999+0041MW1101REMSYN088AAXX  21124 83339 21496 81409 10209 20200 39179 40141 71066 885// 333 20188 58004 69964;
0167833390999992005032118004-14050-042617FM-12+088299999V0200901N004112200019N0100001N1+02771+01851100851ADDAA106000091GF102991021021004501001001MA1999999091361MD1999999-0041REMSYN070AAXX  21184 83339 32497 20908 10277 20185 39136 40085 82200 333 59004;EQDQ01  00002PRCP06
0208833390999992005032200004-14050-042617FM-12+088299999V0200901N001512200019N0020001N1+02271+01621101221ADDAA106000091GA1001+999999999GF100991001001999999001001KA1240M+02701MA1999999091581MD1999999+0021REMSYN082AAXX  22004 83339 32995 00903 10227 20162 39158 40122 333 10270 29070 55079 58002;EQDQ01  00002PRCP06
0214833390999992005032212004-14050-042617FM-12+088299999V0201401N003612200019N0100001N1+02291+01941101371ADDAA106000091AY101061AY201061GF102991021021004501001001KA1240N+01941MA1999999091801MD1999999+0011MW1101REMSYN082AAXX  22124 83339 31497 21407 10229 20194 39180 40137 71000 82200 333 20194 58001;EQDQ01  00002PRCP06
0167833390999992005032218004-14050-042617FM-12+088299999V0201401N004612200019N0100001N1+02691+01671101151ADDAA106000091GF103991031021004501001001MA1999999091521MD1999999+0161REMSYN070AAXX  22184 83339 32497 31409 10269 20167 39152 40115 83200 333 58016;EQDQ01  00002PRCP06
0198833390999992005032300004-14050-042617FM-12+088299999V0201401N005112200019N0020001N1+02331+01741101281ADDAA106000091GF102991021021004501001001KA1240M+02841MA1999999091721MD1999999+0141REMSYN088AAXX  23004 83339 32495 21410 10233 20174 39172 40128 82200 333 10284 29068 55107 58014;EQDQ01  00002PRCP06
0214833390999992005032312004-14050-042617FM-12+088299999V0201401N004610042019N0100001N1+02191+01901101551ADDAA106000091AY101061AY201061GF106991061021004501001001KA1240N+01941MA1999999091941MD1999999+0141MW1101REMSYN082AAXX  23124 83339 31497 61409 10219 20190 39194 40155 71000 86200 333 20194 58014;EQDQ01  00002PRCP06
0167833390999992005032318004-14050-042617FM-12+088299999V0201401N004612200019N0100001N1+02711+01751101281ADDAA106000091GF102991021021004501001001MA1999999091601MD1999999+0081REMSYN070AAXX  23184 83339 32497 21409 10271 20175 39160 40128 82200 333 58008;EQDQ01  00002PRCP06
0186833390999992005032412004-14050-042617FM-12+088299999V0201401N004610042019N0100001N1+02311+01851101461ADDAA106000091GF105991051021004501001001KA1240N+02001MA1999999091881MD1999999-0061REMSYN076AAXX  24124 83339 32497 51409 10231 20185 39188 40146 85200 333 20200 59006;EQDQ01  00002PRCP06
0167833390999992005032418004-14050-042617FM-12+088299999V0201401N002112200019N0100001N1+02751+01611101001ADDAA106000091GF102991021021004501001001MA1999999091501MD1999999-0101REMSYN070AAXX  24184 83339 32497 21404 10275 20161 39150 40100 82200 333 59010;EQDQ01  00002PRCP06
0226833390999992005032500004-14050-042617FM-12+088299999V0200901N002112200019N0020001N1+02211+01941101251ADDAA106000091AY101061AY201061GF102991021021004501001001KA1240M+02841MA1999999091661MD1999999-0041MW1101REMSYN094AAXX  25004 83339 31495 20904 10221 20194 39166 40125 71000 82200 333 10284 29088 55099 59004;EQDQ01  00002PRCP06
0214833390999992005032512004-14050-042617FM-12+088299999V0200901N004610042019N0040001N1+02191+01941101411ADDAA106000091AY101061AY201061GF106991051021004501031001KA1240N+01931MA1999999091791MD1999999-0091MW1101REMSYN082AAXX  25124 83339 31496 60909 10219 20194 39179 40141 71000 85230 333 20193 59009;EQDQ01  00002PRCP06
0167833390999992005032518004-14050-042617FM-12+088299999V0201401N003612200019N0100001N1+02711+01371101091ADDAA106000091GF102991021021004501001001MA1999999091431MD1999999-0071REMSYN070AAXX  25184 83339 32497 21407 10271 20137 39143 40109 82200 333 59007;EQDQ01  00002PRCP06
0208833390999992005032600004-14050-042617FM-12+088299999V0201801N001512200019N0020001N1+02271+01571101081ADDAA106000091GA1001+999999999GF100991001001999999001001KA1240M+02851MA1999999091491MD1999999-0171REMSYN082AAXX  26004 83339 32995 01803 10227 20157 39149 40108 333 10285 29070 55059 59017;EQDQ01  00002PRCP06
0196833390999992005032612004-14050-042617FM-12+088299999V0201401N003612200019N0100001N1+02371+01851101171ADDAA106000091GA1001+999999999GF100991001001999999001001KA1240N+01801MA1999999091621MD1999999-0171REMSYN070AAXX  26124 83339 32997 01407 10237 20185 39162 40117 333 20180 59017;EQDQ01  00002PRCP06
0167833390999992005032618004-14050-042617FM-12+088299999V0200501N001512200019N0100001N1+02851+01501100741ADDAA106000091GF102991021021004501001001MA1999999091261MD1999999-0171REMSYN070AAXX  26184 83339 32497 20503 10285 20150 39126 40074 82200 333 59017;EQDQ01  00002PRCP06
0192833390999992005032700004-14050-042620FM-12+088299999V0201801N002112200019N0020001N1+02271+01591100961ADDAA106000091GF100991001001999999001001KA1240M+02941MA1999999091461MD1999999-0031REMSYN082AAXX  27004 83339 32995 01804 10227 20159 39146 40096 333 10294 29069 55110 59003;EQDQ01  00002PRCP06
0214833390999992005032712004-14050-042620FM-12+088299999V0200501N003610042019N0100001N1+02151+01931101241ADDAA106000091AY101061AY201061GF106991061021004501001001KA1240N+01961MA1999999091641MD1999999+0021MW1101REMSYN082AAXX  27124 83339 31497 60507 10215 20193 39164 40124 71000 86200 333 20196 58002;EQDQ01  00002PRCP06
0167833390999992005032718004-14050-042620FM-12+088299999V0200501N002612200019N0100001N1+02791+01641100771ADDAA106000091GF104991031021004501001041MA1999999091291MD1999999+0031REMSYN070AAXX  27184 83339 32497 40505 10279 20164 39129 40077 83204 333 58003;EQDQ01  00002PRCP06
0226833390999992005032800004-14050-042620FM-12+088299999V0201401N001510042019N0020001N1+02371+01871101121ADDAA106000091AY101061AY201061GF106991051021004501021001KA1240M+02921MA1999999091551MD1999999+0091MW1131REMSYN094AAXX  28004 83339 31495 61403 10237 20187 39155 40112 71300 85220 333 10292 29078 55080 58009;EQDQ01  00002PRCP06
0186833390999992005032812004-14050-042620FM-12+088299999V0200901N003110042019N0100001N1+02131+01951101091ADDAA106000091GF106991061021004501001001KA1240N+01971MA1999999091591MD1999999-0051REMSYN076AAXX  28124 83339 32497 60906 10213 20195 39159 40109 86200 333 20197 59005;EQDQ01  00002PRCP06
0167833390999992005032818004-14050-042620FM-12+088299999V0201401N004112200019N0100001N1+02701+01831100721ADDAA106000091GF103991031021004501001001MA1999999091231MD1999999-0061REMSYN070AAXX  28184 83339 32497 31408 10270 20183 39123 40072 83200 333 59006;EQDQ01  00002PRCP06
0198833390999992005032900004-14050-042617FM-12+088299999V0209999C000010450019N0020001N1+02311+01811101011ADDAA106000091GF106991021021004501031001KA1240M+02751MA1999999091431MD1999999-0121REMSYN088AAXX  29004 83339 32495 60000 10231 20181 39143 40101 82230 333 10275 29074 55061 59012;EQDQ01  00002PRCP06
0190833390999992005032912004-14050-042617FM-12+088299999V0201401N002610042019N0100001N1+02021+01941101361ADDAY161061AY241061GF108991051021004501021999KA1240N+01901MA1999999091731MD1999999+0141MW1401REMSYN088AAXX  29124 83339 21497 81405 10202 20194 39173 40136 74064 8522/ 333 20190 58014 60154;
0171833390999992005032918004-14050-042617FM-12+088299999V0201401N002110042019N0100001N1+02611+01961100921ADDAY161061AY241061GF106991051021004501031001MA1999999091371MD1999999+0141MW1021REMSYN082AAXX  29184 83339 21497 61404 10261 20196 39137 40092 70264 85230 333 58014 69941;
0202833390999992005033000004-14050-042617FM-12+088299999V0200901N002612200019N0020001N1+02091+01961101291ADDAY161061AY221061GF104991041021004501001001KA1240M+02661MA1999999091631MD1999999+0201MW1021REMSYN100AAXX  30004 83339 21495 40905 10209 20196 39163 40129 70262 84200 333 10266 29086 55015 58020 60011;
0167833390999992005033018004-14050-042617FM-12+088299999V0200901N004112200019N0100001N1+02601+01841100911ADDAA106000091GF102991021011004501001001MA1999999091381MD1999999+0011REMSYN070AAXX  30184 83339 32497 20908 10260 20184 39138 40091 82100 333 58001;EQDQ01  00002PRCP06
0208833390999992005033100004-14050-042617FM-12+088299999V0201401N004612200019N0020001N1+02301+01901101171ADDAA106000091GA1001+999999999GF100991001001999999001001KA1240M+02661MA1999999091571MD1999999-0061REMSYN082AAXX  31004 83339 32995 01409 10230 20190 39157 40117 333 10266 29078 55082 59006;EQDQ01  00002PRCP06
0186833390999992005033112004-14050-042617FM-12+088299999V0200501N006210042019N0100001N1+02341+01891101281ADDAA106000091GF105991051021004501001001KA1240N+01971MA1999999091721MD1999999-0011REMSYN076AAXX  31124 83339 32497 50512 10234 20189 39172 40128 85200 333 20197 59001;EQDQ01  00002PRCP06
0208833390999992005040100004-14050-042617FM-12+088299999V0201401N005112200019N0020001N1+02301+01791101131ADDAA106000091GA1001+999999999GF100991001001999999001001KA1240M+02751MA1999999091581MD1999999+0011REMSYN082AAXX  01004 83339 32995 01410 10230 20179 39158 40113 333 10275 29070 55088 58001;EQDQ01  00002PRCP06
0186833390999992005040112004-14050-042617FM-12+088299999V0201401N005710450019N0100001N1+02071+01871101401ADDAA106000091GF108991041021004501021999KA1240N+01951MA1999999091781MD1999999+0201REMSYN076AAXX  01124 83339 32497 81411 10207 20187 39178 40140 8422/ 333 20195 58020;EQDQ01  00002PRCP06
0167833390999992005040118004-14050-042617FM-12+088299999V0201401N002112200019N0100001N1+02731+01841101001ADDAA106000091GF102991021021004501001001MA1999999091481MD1999999+0081REMSYN070AAXX  01184 83339 32497 21404 10273 20184 39148 40100 82200 333 58008;EQDQ01  00002PRCP06
0198833390999992005040200004-14050-042617FM-12+088299999V0201401N006210042019N0020001N1+02281+01961101341ADDAA106000091GF105991051021004501001001KA1240M+02761MA1999999091711MD1999999+0131REMSYN088AAXX  02004 83339 32495 51412 10228 20196 39171 40134 85200 333 10276 29078 55066 58013;EQDQ01  00002PRCP06
0186833390999992005040212004-14050-042617FM-12+088299999V0201401N005710042019N0100001N1+02131+01911101471ADDAA106000091GF108991051021004501021999KA1240N+01911MA1999999091861MD1999999+0081REMSYN076AAXX  02124 83339 32497 81411 10213 20191 39186 40147 8522/ 333 20191 58008;EQDQ01  00002PRCP06
0167833390999992005040218004-14050-042617FM-12+088299999V0200901N003612200019N0100001N1+02641+01721101061ADDAA106000091GF103991031021004501001001MA1999999091521MD1999999+0041REMSYN070AAXX  02184 83339 32497 30907 10264 20172 39152 40106 83200 333 58004;EQDQ01  00002PRCP06
0179833390999992005040300004-14050-042620FM-12+088299999V0201401N003112200019N0020001N1+02291+01721101321ADDAA106000091GF100991001001999999001001MA1999999091711MD1999999+0001REMSYN082AAXX  03004 83339 32995 01406 10229 20172 39171 40132 333 10274 29071 55063 58000;EQDQ01  00002PRCP06
0173833390999992005040312004-14050-042620FM-12+088299999V0200901N003612200019N0100001N1+02221+01841101531ADDAA106000091GF102991021021004501001001MA1999999091921MD1999999+0061REMSYN076AAXX  03124 83339 32497 20907 10222 20184 39192 40153 82200 333 20190 58006;EQDQ01  00002PRCP06
0167833390999992005040318004-14050-042620FM-12+088299999V0200501N001512200019N0100001N1+02831+01631101061ADDAA106000091GF103991031021004501001001MA1999999091551MD1999999+0031REMSYN070AAXX  03184 83339 32497 30503 10283 20163 39155 40106 83200 333 58003;EQDQ01  00002PRCP06
0208833390999992005040400004-14050-042617FM-12+088299999V0200901N004112200019N0020001N1+02331+01781101271ADDAA106000091GA1001+999999999GF100991001001999999001001KA1240M+02921MA1999999091671MD1999999-0041REMSYN082AAXX  04004 83339 32995 00908 10233 20178 39167 40127 333 10292 29067 55104 59004;EQDQ01  00002PRCP06
0214833390999992005040412004-14050-042617FM-12+088299999V0201401N004610042019N0100001N1+02251+01921101501ADDAA106000091AY101061AY201061GF106991061021004501001001KA1240N+01921MA1999999091941MD1999999+0021MW1101REMSYN082AAXX  04124 83339 31497 61409 10225 20192 39194 40150 71000 86200 333 20192 58002;EQDQ01  00002PRCP06
0167833390999992005040418004-14050-042617FM-12+088299999V0201401N003612200019N0100001N1+02751+01731101231ADDAA106000091GF103991021021004501001041MA1999999091551MD1999999+0001REMSYN070AAXX  04184 83339 32497 31407 10275 20173 39155 40123 82204 333 58000;EQDQ01  00002PRCP06
0226833390999992005040500004-14050-042617FM-12+088299999V0201401N005712200019N0020001N1+02231+02011101241ADDAA106000091AY101061AY201061GF102991021021004501001001KA1240M+02601MA1999999091651MD1999999-0021MW1101REMSYN094AAXX  05004 83339 31495 21411 10223 20201 39165 40124 71000 82200 333 10260 29091 55090 59002;EQDQ01  00002PRCP06
0214833390999992005040512004-14050-042617FM-12+088299999V0200501N003610042019N0100001N1+02091+01741101431ADDAA106000091AY101061AY201061GF106991061021004501001001KA1240N+01931MA1999999091831MD1999999-0111MW1101REMSYN082AAXX  05124 83339 31497 60507 10209 20174 39183 40143 71000 86200 333 20193 59011;EQDQ01  00002PRCP06
0167833390999992005040518004-14050-042617FM-12+088299999V0200501N007212200019N0100001N1+02731+01351101111ADDAA106000091GF102991021021004501001001MA1999999091561MD1999999+0011REMSYN070AAXX  05184 83339 32497 20514 10273 20135 39156 40111 82200 333 58001;EQDQ01  00002PRCP06
0208833390999992005040600004-14050-042617FM-12+088299999V0201401N005712200019N0020001N1+02271+01311101381ADDAA106000091GA1001+999999999GF100991001001999999001001KA1240M+02801MA1999999091731MD1999999+0081REMSYN082AAXX  06004 83339 32995 01411 10227 20131 39173 40138 333 10280 29060 55084 58008;EQDQ01  00002PRCP06
0186833390999992005040612004-14050-042617FM-12+088299999V0201401N004112200019N0100001N1+02151+01841101591ADDAA106000091GF103991031011004501001001KA1240N+01781MA1999999091951MD1999999+0121REMSYN076AAXX  06124 83339 32497 31408 10215 20184 39195 40159 83100 333 20178 58012;EQDQ01  00002PRCP06
0167833390999992005040618004-14050-042617FM-12+088299999V0201401N005712200019N0100001N1+02551+01801101231ADDAA106000091GF102991021021004501001001MA1999999091631MD1999999+0071REMSYN070AAXX  06184 83339 32497 21411 10255 20180 39163 40123 82200 333 58007;EQDQ01  00002PRCP06
0198833390999992005040700004-14050-042617FM-12+088299999V0201401N005710042019N0020001N1+02201+01921101441ADDAA106000091GF106991061021004501001001KA1240M+02641MA1999999091801MD1999999+0071REMSYN088AAXX  07004 83339 32495 61411 10220 20192 39180 40144 86200 333 10264 29078 55067 58007;EQDQ01  00002PRCP06
0194833390999992005040712004-14050-042617FM-12+088299999V0201401N004110450019N0100001N1+02011+01901101521ADDAY121061AY221061GF108991041021004501021999KA1240N+01881MD1999999-0101MW1511REMSYN088AAXX  07124 83339 21497 81408 10201 20190 33185 40152 75122 8422/ 333 20188 59010 69924;EQDQ01+031851APOSP 
0171833390999992005040718004-14050-042617FM-12+088299999V0200901N004612200019N0100001N1+02531+01931101161ADDAY151061AY221061GF102991021021004501001001MA1999999091561MD1999999-0071MW1021REMSYN082AAXX  07184 83339 21497 20909 10253 20193 39156 40116 70252 82200 333 59007 69901;
0198833390999992005040800004-14050-042617FM-12+088299999V0201401N004612200019N0020001N1+02191+01861101391ADDAA106000091GF102991021021004501001001KA1240M+02641MA1999999091741MD1999999-0061REMSYN088AAXX  08004 83339 32495 21409 10219 20186 39174 40139 82200 333 10264 29081 55055 59006;EQDQ01  00002PRCP06
0196833390999992005040812004-14050-042617FM-12+088299999V0201401N005112200019N0100001N1+02131+01681101531ADDAA106000091GA1001+999999999GF100991001001999999001001KA1240N+01811MA1999999091881MD1999999+0031REMSYN070AAXX  08124 83339 32997 01410 10213 20168 39188 40153 333 20181 58003;EQDQ01  00002PRCP06
0167833390999992005040818004-14050-042617FM-12+088299999V0201401N004612200019N0100001N1+02721+01521101031ADDAA106000091GF102991021011004501001001MA1999999091511MD1999999-0051REMSYN070AAXX  08184 83339 32497 21409 10272 20152 39151 40103 82100 333 59005;EQDQ01  00002PRCP06
0208833390999992005040900004-14050-042617FM-12+088299999V0201401N004112200019N0020001N1+02121+01511101281ADDAA106000091GA1001+999999999GF100991001001999999001001KA1240M+02761MA1999999091641MD1999999-0101REMSYN082AAXX  09004 83339 32995 01408 10212 20151 39164 40128 333 10276 29065 55109 59010;EQDQ01  00002PRCP06
0186833390999992005040912004-14050-042617FM-12+088299999V0201401N007712200019N0100001N1+02111+01821101501ADDAA106000091GF104991041021004501001001KA1240N+01791MA1999999091841MD1999999-0041REMSYN076AAXX  09124 83339 32497 41415 10211 20182 39184 40150 84200 333 20179 59004;EQDQ01  00002PRCP06
0167833390999992005040918004-14050-042617FM-12+088299999V0200901N002610042019N0100001N1+02621+01731101051ADDAA106000091GF105991051021004501001001MA1999999091461MD1999999-0051REMSYN070AAXX  09184 83339 32497 50905 10262 20173 39146 40105 85200 333 59005;EQDQ01  00002PRCP06
0212833390999992005041000004-14050-042617FM-12+088299999V0201401N006712200019N0020001N1+02131+01591101301ADDAY161061AY221061GA1001+999999999GF100991001001999999001001KA1240M+02741MA1999999091641MD1999999+0001MW1021REMSYN094AAXX  10004 83339 21995 01413 10213 20159 39164 40130 70262 333 10274 29071 55089 58000 60011;
0190833390999992005041012004-14050-042617FM-12+088299999V0201401N004110042019N0100001N1+01971+01781101501ADDAY161061AY221061GF106991061021004501001001KA1240N+01761MA1999999091821MD1999999-0021MW1021REMSYN088AAXX  10124 83339 21497 61408 10197 20178 39182 40150 70262 86200 333 20176 59002 60014;
0167833390999992005041018004-14050-042617FM-12+088299999V0200901N003112200019N0100001N1+02661+01621101051ADDAA106000091GF102991021021004501001001MA1999999091461MD1999999+0001REMSYN070AAXX  10184 83339 32497 20906 10266 20162 39146 40105 82200 333 58000;EQDQ01  00002PRCP06
0208833390999992005041100004-14050-042617FM-12+088299999V0201401N006212200019N0020001N1+02071+01861101301ADDAA106000091GA1001+999999999GF100991001001999999001001KA1240M+02761MA1999999091621MD1999999-0021REMSYN082AAXX  11004 83339 32995 01412 10207 20186 39162 40130 333 10276 29079 55087 59002;EQDQ01  00002PRCP06
0202833390999992005041112004-14050-042617FM-12+088299999V0201401N006719999999N0100001N1+02061+01781101401ADDAA106000091GF105991999021004501001001KA1240N+01781MA1999999091731MD1999999-0091REMSYN076AAXX  11124 83339 32497 51413 10206 20178 39173 40140 86200 333 20178 59009;EQDQ01+000062SCOTLCQ02  00002PRCP06
0167833390999992005041118004-14050-042617FM-12+088299999V0200501N007712200019N0100001N1+02691+01721100941ADDAA106000091GF104991041021004501001001MA1999999091391MD1999999-0071REMSYN070AAXX  11184 83339 32497 40515 10269 20172 39139 40094 84200 333 59007;EQDQ01  00002PRCP06
0208833390999992005041200004-14050-042617FM-12+088299999V0201401N006712200019N0020001N1+02111+01911101261ADDAA106000091GA1001+999999999GF100991001001999999001001KA1240M+02741MA1999999091601MD1999999-0021REMSYN082AAXX  12004 83339 32995 01413 10211 20191 39160 40126 333 10274 29079 55089 59002;EQDQ01  00002PRCP06
0186833390999992005041212004-14050-042617FM-12+088299999V0200901N003610042019N0100001N1+02181+01841101361ADDAA106000091GF106991061021004501001001KA1240N+01841MA1999999091731MD1999999+0001REMSYN076AAXX  12124 83339 32497 60907 10218 20184 39173 40136 86200 333 20184 58000;EQDQ01  00002PRCP06
0167833390999992005041218004-14050-042617FM-12+088299999V0200901N002612200019N0100001N1+02621+01831101041ADDAA106000091GF104991041021004501001001MA1999999091481MD1999999+0091REMSYN070AAXX  12184 83339 32497 40905 10262 20183 39148 40104 84200 333 58009;EQDQ01  00002PRCP06
0198833390999992005041300004-14050-042617FM-12+088299999V0201401N004610042019N0020001N1+02231+01841101391ADDAA106000091GF106991061021004501001001KA1240M+02711MA1999999091771MD1999999+0171REMSYN088AAXX  13004 83339 32495 61409 10223 20184 39177 40139 86200 333 10271 29075 55060 58017;EQDQ01  00002PRCP06
0190833390999992005041312004-14050-042617FM-12+088299999V0201401N004610042019N0100001N1+01971+01811101471ADDAY161061AY221061GF106991061021004501001001KA1240N+01841MA1999999091811MD1999999+0081MW1021REMSYN088AAXX  13124 83339 21497 61409 10197 20181 39181 40147 70262 86200 333 20184 58008 60014;
0167833390999992005041318004-14050-042617FM-12+088299999V0201401N004110042019N0100001N1+02431+01881101161ADDAA106000091GF106991061021004501001001MA1999999091561MD1999999+0081REMSYN070AAXX  13184 83339 32497 61408 10243 20188 39156 40116 86200 333 58008;EQDQ01  00002PRCP06
0202833390999992005041400004-14050-042617FM-12+088299999V0200901N003112200019N0020001N1+02161+01611101301ADDAY161061AY221061GF102991021021004501001001KA1240M+02511MA1999999091641MD1999999-0131MW1021REMSYN100AAXX  14004 83339 21495 20906 10216 20161 39164 40130 70262 82200 333 10251 29076 55039 59013 60021;
0190833390999992005041412004-14050-042617FM-12+088299999V0200901N007712200019N0100001N1+02021+01761101431ADDAY161061AY221061GF104991041021004501001001KA1240N+01851MA1999999091771MD1999999-0041MW1021REMSYN088AAXX  14124 83339 21497 40915 10202 20176 39177 40143 70262 84200 333 20185 59004 60024;
0167833390999992005041418004-14050-042617FM-12+088299999V0201401N005112200019N0100001N1+02631+01831100981ADDAA106000091GF102991021011004501001001MA1999999091431MD1999999-0131REMSYN070AAXX  14184 83339 32497 21410 10263 20183 39143 40098 82100 333 59013;EQDQ01  00002PRCP06
0198833390999992005041500004-14050-042617FM-12+088299999V0200901N006210042019N0020001N1+02211+01861101301ADDAA106000091GF106991061021004501001001KA1240M+02681MA1999999091651MD1999999+0011REMSYN088AAXX  15004 83339 32495 60912 10221 20186 39165 40130 86200 333 10268 29076 55086 58001;EQDQ01  00002PRCP06
0214833390999992005041512004-14050-042617FM-12+088299999V0200501N005110042019N0100001N1+02071+01761101431ADDAA106000091AY101061AY201061GF106991061021004501001001KA1240N+01821MA1999999091791MD1999999+0021MW1101REMSYN082AAXX  15124 83339 31497 60510 10207 20176 39179 40143 71000 86200 333 20182 58002;EQDQ01  00002PRCP06
0167833390999992005041518004-14050-042617FM-12+088299999V0201401N003612200019N0100001N1+02591+01691101301ADDAA106000091GF102991021021004501001001MA1999999091551MD1999999+0121REMSYN070AAXX  15184 83339 32497 21407 10259 20169 39155 40130 82200 333 58012;EQDQ01  00002PRCP06
0198833390999992005041600004-14050-042617FM-12+088299999V0201401N003612200019N0020001N1+02291+01771101311ADDAA106000091GF103991031021004501001001KA1240M+02681MA1999999091701MD1999999+0051REMSYN088AAXX  16004 83339 32495 31407 10229 20177 39170 40131 83200 333 10268 29077 55085 58005;EQDQ01  00002PRCP06
0214833390999992005041612004-14050-042617FM-12+088299999V0201401N005110042019N0100001N1+02081+01861101411ADDAA106000091AY101061AY201061GF106991061021004501001001KA1240N+01861MA1999999091791MD1999999+0001MW1101REMSYN082AAXX  16124 83339 31497 61410 10208 20186 39179 40141 71000 86200 333 20186 58000;EQDQ01  00002PRCP06
0167833390999992005041618004-14050-042617FM-12+088299999V0201401N004612200019N0100001N1+02571+01781101241ADDAA106000091GF103991031021004501001001MA1999999091541MD1999999-0011REMSYN070AAXX  16184 83339 32497 31409 10257 20178 39154 40124 83200 333 59001;EQDQ01  00002PRCP06
0213833390999992005041700004-14050-042620FM-12+088299999V0201401N004112200019N0020001N1+02211+01841101311ADDAA106000091AY101061AY201061GF102991021021004501001001MA1999999091661MD1999999-0041MW1101REMSYN094AAXX  17004 83339 31495 21408 10221 20184 39166 40131 71000 82200 333 10268 29081 55070 59004;EQDQ01  00002PRCP06
0201833390999992005041712004-14050-042620FM-12+088299999V0200901N003110042019N0100001N1+02191+01951101391ADDAA106000091AY101061AY201061GF106991061021004501001001MA1999999091791MD1999999+0001MW1101REMSYN082AAXX  17124 83339 31497 60906 10219 20195 39179 40139 71000 86200 333 20194 58000;EQDQ01  00002PRCP06
0167833390999992005041718004-14050-042620FM-12+088299999V0201401N003612200019N0100001N1+02951+01621100901ADDAA106000091GF102991011021004501021001MA1999999091431MD1999999-0111REMSYN070AAXX  17184 83339 32497 21407 10295 20162 39143 40090 81220 333 59011;EQDQ01  00002PRCP06
0198833390999992005041800004-14050-042617FM-12+088299999V0201401N006212200019N0020001N1+02411+01701101141ADDAA106000091GF103991031021004501001001KA1240M+02531MA1999999091591MD1999999-0071REMSYN088AAXX  18004 83339 32495 31412 10241 20170 39159 40114 83200 333 10253 29068 55079 59007;EQDQ01  00002PRCP06
0186833390999992005041812004-14050-042617FM-12+088299999V0200901N004610042019N0100001N1+02191+01971101181ADDAA106000091GF106991061021004501001001KA1240N+02041MA1999999091631MD1999999-0161REMSYN076AAXX  18124 83339 32497 60909 10219 20197 39163 40118 86200 333 20204 59016;EQDQ01  00002PRCP06
0167833390999992005041818004-14050-042617FM-12+088299999V0201401N003610042019N0100001N1+02621+01781100801ADDAA106000091GF108991051021004501021999MA1999999091301MD1999999-0131REMSYN070AAXX  18184 83339 32497 81407 10262 20178 39130 40080 8522/ 333 59013;EQDQ01  00002PRCP06
0198833390999992005041900004-14050-042617FM-12+088299999V0201401N005710042019N0020001N1+02241+01821101121ADDAA106000091GF106991061021004501001001KA1240M+02661MA1999999091531MD1999999-0061REMSYN088AAXX  19004 83339 32495 61411 10224 20182 39153 40112 86200 333 10266 29075 55002 59006;EQDQ01  00002PRCP06
0186833390999992005041912004-14050-042617FM-12+088299999V0201401N005110042019N0100001N1+02151+01821101351ADDAA106000091GF105991051021004501001001KA1240N+01891MA1999999091741MD1999999+0111REMSYN076AAXX  19124 83339 32497 51410 10215 20182 39174 40135 85200 333 20189 58011;EQDQ01  00002PRCP06
0167833390999992005041918004-14050-042617FM-12+088299999V0200501N003112200019N0100001N1+02601+01711100951ADDAA106000091GF105991021011004501001041MA1999999091401MD1999999+0101REMSYN070AAXX  19184 83339 32497 50506 10260 20171 39140 40095 82104 333 58010;EQDQ01  00002PRCP06
0208833390999992005042000004-14050-042617FM-12+088299999V0200901N003112200019N0020001N1+02191+01761101191ADDAA106000091GA1001+999999999GF100991001001999999001001KA1240M+02671MA1999999091571MD1999999+0041REMSYN082AAXX  20004 83339 32995 00906 10219 20176 39157 40119 333 10267 29073 55057 58004;EQDQ01  00002PRCP06
0186833390999992005042012004-14050-042617FM-12+088299999V0200901N002612200019N0100001N1+02191+01861101431ADDAA106000091GF104991041021004501001001KA1240N+01881MA1999999091811MD1999999+0071REMSYN076AAXX  20124 83339 32497 40905 10219 20186 39181 40143 84200 333 20188 58007;EQDQ01  00002PRCP06
0167833390999992005042018004-14050-042617FM-12+088299999V0201401N003112200019N0100001N1+02771+01511100951ADDAA106000091GF105991031011004501001011MA1999999091441MD1999999+0041REMSYN070AAXX  20184 83339 32497 51406 10277 20151 39144 40095 83101 333 58004;EQDQ01  00002PRCP06
0198833390999992005042100004-14050-042617FM-12+088299999V0201401N002612200019N0100001N1+02361+01561101211ADDAA106000091GF104991011011004501001041KA1240M+02881MA1999999091641MD1999999+0071REMSYN088AAXX  21004 83339 32497 41405 10236 20156 39164 40121 81104 333 10288 29062 55075 58007;EQDQ01  00002PRCP06
0186833390999992005042112004-14050-042617FM-12+088299999V0200901N003110042019N0100001N1+03121+01881101361ADDAA106000091GF108991051051004501021999KA1240N+01891MA1999999091761MD1999999-0051REMSYN076AAXX  21124 83339 32497 80906 10312 20188 39176 40136 8552/ 333 20189 59005;EQDQ01  00002PRCP06
0167833390999992005042118004-14050-042617FM-12+088299999V0200901N002612200019N0100001N1+02811+01711100811ADDAA106000091GF105991031011004501001011MA1999999091331MD1999999-0111REMSYN070AAXX  21184 83339 32497 50905 10281 20171 39133 40081 83101 333 59011;EQDQ01  00002PRCP06
0208833390999992005042200004-14050-042617FM-12+088299999V0201401N004112200019N0020001N1+02351+01691101101ADDAA106000091GA1001+999999999GF100991001001999999001001KA1240M+02861MA1999999091541MD1999999-0101REMSYN082AAXX  22004 83339 32995 01408 10235 20169 39154 40110 333 10286 29067 55065 59010;EQDQ01  00002PRCP06
0186833390999992005042212004-14050-042617FM-12+088299999V0200501N002110450019N0100001N1+02081+01911101281ADDAA106000091GF106991041021004501021001KA1240N+01861MA1999999091671MD1999999-0091REMSYN076AAXX  22124 83339 32497 60504 10208 20191 39167 40128 84220 333 20186 59009;EQDQ01  00002PRCP06
0167833390999992005042218004-14050-042617FM-12+088299999V0200901N003612200019N0100001N1+02871+01731100711ADDAA106000091GF102991021021004501001001MA1999999091241MD1999999-0091REMSYN070AAXX  22184 83339 32497 20907 10287 20173 39124 40071 82200 333 59009;EQDQ01  00002PRCP06
0208833390999992005042300004-14050-042617FM-12+088299999V0209999C000012200019N0020001N1+02331+01691101081ADDAA106000091GA1001+999999999GF100991001001999999001001KA1240M+03001MA1999999091491MD1999999-0051REMSYN082AAXX  23004 83339 32995 00000 10233 20169 39149 40108 333 10300 29068 55079 59005;EQDQ01  00002PRCP06
0186833390999992005042312004-14050-042617FM-12+088299999V0200901N002110042019N0100001N1+02131+01931101251ADDAA106000091GF106991061021004501001001KA1240N+01841MA1999999091661MD1999999-0011REMSYN076AAXX  23124 83339 32497 60904 10213 20193 39166 40125 86200 333 20184 59001;EQDQ01  00002PRCP06
0167833390999992005042318004-14050-042617FM-12+088299999V0201401N004112200019N0100001N1+02931+01591100731ADDAA106000091GF102991021021004501001001MA1999999091301MD1999999+0061REMSYN070AAXX  23184 83339 32497 21408 10293 20159 39130 40073 82200 333 58006;EQDQ01  00002PRCP06
0185833390999992005042400004-14050-042620FM-12+088299999V0201401N005112200019N0020001N1+02441+01641101001ADDAA106000091GF102991021011004501001001MA1999999091461MD1999999-0031REMSYN088AAXX  24004 83339 32495 21410 10244 20164 39146 40100 82100 333 10300 29064 55092 59003;EQDQ01  00002PRCP06
0173833390999992005042412004-14050-042620FM-12+088299999V0201401N006212200019N0100001N1+02281+01831101311ADDAA106000091GF103991031021004501001001MA1999999091761MD1999999+0101REMSYN076AAXX  24124 83339 32497 31412 10228 20183 39176 40131 83200 333 20194 58010;EQDQ01  00002PRCP06
0167833390999992005042418004-14050-042620FM-12+088299999V0201401N003612200019N0100001N1+02771+01641100841ADDAA106000091GF102991021011004501001001MA1999999091351MD1999999+0051REMSYN070AAXX  24184 83339 32497 21407 10277 20164 39135 40084 82100 333 58005;EQDQ01  00002PRCP06
0198833390999992005042500004-14050-042617FM-12+088299999V0201801N001512200019N0020001N1+02261+01571101071ADDAA106000091GF102991021011004501001001KA1240M+02851MA1999999091511MD1999999+0051REMSYN088AAXX  25004 83339 32495 21803 10226 20157 39151 40107 82100 333 10285 29064 55106 58005;EQDQ01  00002PRCP06
0214833390999992005042512004-14050-042617FM-12+088299999V0201401N002110042019N0100001N1+02111+01801101371ADDAA106000091AY101061AY201061GF106991061021004501001001KA1240N+01901MA1999999091731MD1999999-0031MW1101REMSYN082AAXX  25124 83339 31497 61404 10211 20180 39173 40137 71000 86200 333 20190 59003;EQDQ01  00002PRCP06
0167833390999992005042518004-14050-042617FM-12+088299999V0201401N003112200019N0100001N1+02831+01331101011ADDAA106000091GF103991031021004501001001MA1999999091351MD1999999+0001REMSYN070AAXX  25184 83339 32497 31406 10283 20133 39135 40101 83200 333 58000;EQDQ01  00002PRCP06
0198833390999992005042600004-14050-042617FM-12+088299999V0201801N000512200019N0020001N1+02251+01371101081ADDAA106000091GF102991011021004501021001KA1240M+02921MA1999999091491MD1999999-0021REMSYN088AAXX  26004 83339 32495 21801 10225 20137 39149 40108 81220 333 10292 29061 55094 59002;EQDQ01  00002PRCP06
0186833390999992005042612004-14050-042617FM-12+088299999V0203601N001512200019N0100001N1+02331+01741101141ADDAA106000091GF102991011021004501021001KA1240N+01821MA1999999091591MD1999999-0141REMSYN076AAXX  26124 83339 32497 23603 10233 20174 39159 40114 81220 333 20182 59014;EQDQ01  00002PRCP06
0167833390999992005042618004-14050-042617FM-12+088299999V0202301N002612200019N0100001N1+02991+01271101011ADDAA106000091GF104991031021004501001041MA1999999091291MD1999999-0061REMSYN070AAXX  26184 83339 32497 42305 10299 20127 39129 40101 83204 333 59006;EQDQ01  00002PRCP06
0198833390999992005042700004-14050-042617FM-12+088299999V0201801N003110042019N0020001N1+02551+01571100991ADDAA106000091GF106991051021004501031001KA1240M+03161MA1999999091471MD1999999-0021REMSYN088AAXX  27004 83339 32495 61806 10255 20157 39147 40099 85230 333 10316 29060 55087 59002;EQDQ01  00002PRCP06
0186833390999992005042712004-14050-042617FM-12+088299999V0200901N001510042019N0100001N1+02471+01991101021ADDAA106000091GF106991051021004501021001KA1240N+02121MA1999999091581MD1999999-0011REMSYN076AAXX  27124 83339 32497 60903 10247 20199 39158 40102 85220 333 20212 59001;EQDQ01  00002PRCP06
0167833390999992005042718004-14050-042617FM-12+088299999V0200901N003610042019N0100001N1+02611+01841100871ADDAA106000091GF107991061021004501021999MA1999999091281MD1999999-0011REMSYN070AAXX  27184 83339 32497 70907 10261 20184 39128 40087 8622/ 333 59001;EQDQ01  00002PRCP06
0202833390999992005042800004-14050-042617FM-12+088299999V0201401N005110042019N0020001N1+02011+01991101091ADDAY161061AY261061GF108991081051004501999999KA1240M+02841MA1999999091621MD1999999+0151MW1101REMSYN100AAXX  28004 83339 21495 81410 10201 20199 39162 40109 71066 885// 333 10284 29082 55020 58015 60031;
0190833390999992005042812004-14050-042617FM-12+088299999V0201401N004610042019N0040001N1+01851+01811101521ADDAY161061AY261061GF108991081051004501999999KA1240N+01801MA1999999091791MD1999999+0211MW1101REMSYN088AAXX  28124 83339 21496 81409 10185 20181 39179 40152 71066 885// 333 20180 58021 60044;
0195833390999992005042818004-14050-042617FM-12+088299999V0200901N003110042019N0100001N1+02191+01861101261ADDAA106000091AY101061AY201061GF106991061021004501001001MA1999999091541MD1999999+0261MW1101REMSYN076AAXX  28184 83339 31497 60906 10219 20186 39154 40126 71000 86200 333 58026;EQDQ01  00002PRCP06
0226833390999992005042900004-14050-042617FM-12+088299999V0201401N003112200019N0020001N1+02151+01841101451ADDAA106000091AY101061AY201061GF104991041021004501001001KA1240M+02261MA1999999091691MD1999999+0071MW1101REMSYN094AAXX  29004 83339 31495 41406 10215 20184 39169 40145 71000 84200 333 10226 29086 55011 58007;EQDQ01  00002PRCP06
0214833390999992005042912004-14050-042617FM-12+088299999V0201401N006710042019N0040001N1+02051+01891101501ADDAA106000091AY101061AY201061GF108991081051004501999999KA1240N+01831MA1999999091841MD1999999+0051MW1101REMSYN082AAXX  29124 83339 31496 81413 10205 20189 39184 40150 71000 885// 333 20183 58005;EQDQ01  00002PRCP06
0167833390999992005042918004-14050-042617FM-12+088299999V0201401N004610042019N0100001N1+02351+01871101331ADDAA106000091GF106991051021004501021001MA1999999091621MD1999999+0081REMSYN070AAXX  29184 83339 32497 61409 10235 20187 39162 40133 85220 333 58008;EQDQ01  00002PRCP06
0190833390999992005043012004-14050-042617FM-12+088299999V0200901N002610042019N0100001N1+02071+01961101551ADDAY161061AY261061GF106991051021004501021001KA1240N+01881MA1999999091841MD1999999+0001MW1101REMSYN088AAXX  30124 83339 21497 60905 10207 20196 39184 40155 71066 85220 333 20188 58000 60034;
0171833390999992005043018004-14050-042617FM-12+088299999V0209999C000010042019N0040001N1+02251+02051101321ADDAY161061AY261061GF108991081051004501999999MA1999999091591MD1999999-0031MW1611REMSYN082AAXX  30184 83339 21496 80000 10225 20205 39159 40132 76166 885// 333 59003 60021;
0189833390999992005050100004-14050-042620FM-12+088299999V0209999C000010042019N0020001N1+02091+02001101371ADDAY161061AY261061GF108991081051004501999999MA1999999091721MD1999999-0141MW1101REMSYN100AAXX  01004 83339 21495 80000 10209 20200 39172 40137 71066 885// 333 10254 29098 55014 59014 60171;
0177833390999992005050112004-14050-042620FM-12+088299999V0200901N003110042019N0040001N1+02031+01971101491ADDAY161061AY261061GF108991081051004501999999MA1999999091811MD1999999-0031MW1101REMSYN088AAXX  01124 83339 21496 80906 10203 20197 39181 40149 71066 885// 333 20200 59003 60204;
0171833390999992005050118004-14050-042620FM-12+088299999V0201401N004610042019N0100001N1+02171+01861101171ADDAY161061AY261061GF106991061021004501001001MA1999999091541MD1999999-0051MW1101REMSYN082AAXX  01184 83339 21497 61409 10217 20186 39154 40117 71066 86200 333 59005 60041;
0213833390999992005050200004-14050-042620FM-12+088299999V0201401N003110042019N0020001N1+02011+01921101461ADDAA106000091AY101061AY201061GF106991061021004501001001MA1999999091751MD1999999+0031MW1101REMSYN094AAXX  02004 83339 31495 61406 10201 20192 39175 40146 71000 86200 333 10230 29097 55006 58003;EQDQ01  00002PRCP06
0195833390999992005050218004-14050-042617FM-12+088299999V0200901N003610450019N0100001N1+02011+01621101441ADDAA106000091AY141061AY221061GF108991041021004501021999MA1999999091701MD1999999+0161MW1021REMSYN076AAXX  02184 83339 31497 80907 10201 20162 39170 40144 70242 8422/ 333 58016;EQDQ01  00002PRCP06
0198833390999992005050300004-14050-042617FM-12+088299999V0201401N005112200019N0020001N1+01931+01531101661ADDAA106000091GF104991041021004501001001KA1240M+02101MA1999999091861MD1999999+0111REMSYN088AAXX  03004 83339 32495 41410 10193 20153 39186 40166 84200 333 10210 29082 55000 58011;EQDQ01  00002PRCP06
0186833390999992005050312004-14050-042617FM-12+088299999V0200901N006212200019N0100001N1+01831+01531101811ADDAA106000091GF103991031021004501001001KA1240N+01581MA1999999092041MD1999999+0081REMSYN076AAXX  03124 83339 32497 30912 10183 20153 39204 40181 83200 333 20158 58008;EQDQ01  00002PRCP06
0167833390999992005050318004-14050-042617FM-12+088299999V0200901N002612200019N0100001N1+02411+01341101321ADDAA106000091GF102991011011004501001011MA1999999091671MD1999999-0031REMSYN070AAXX  03184 83339 32497 20905 10241 20134 39167 40132 81101 333 59003;EQDQ01  00002PRCP06
0208833390999992005050400004-14050-042617FM-12+088299999V0201401N003112200019N0020001N1+01941+01171101671ADDAA106000091GA1001+999999999GF100991001001999999001001KA1240M+02471MA1999999091911MD1999999+0051REMSYN082AAXX  04004 83339 32995 01406 10194 20117 39191 40167 333 10247 29064 55099 58005;EQDQ01  00002PRCP06
0186833390999992005050412004-14050-042617FM-12+088299999V0200901N005712200019N0100001N1+01751+01451101891ADDAA106000091GF103991031021004501001001KA1240N+01571MA1999999092091MD1999999+0051REMSYN076AAXX  04124 83339 32497 30911 10175 20145 39209 40189 83200 333 20157 58005;EQDQ01  00002PRCP06
0167833390999992005050418004-14050-042617FM-12+088299999V0200901N003612200019N0100001N1+02371+01731101441ADDAA106000091GF102991011011004501001011MA1999999091741MD1999999+0071REMSYN070AAXX  04184 83339 32497 20907 10237 20173 39174 40144 81101 333 58007;EQDQ01  00002PRCP06
0208833390999992005050500004-14050-042617FM-12+088299999V0201401N005112200019N0020001N1+01921+01381101771ADDAA106000091GA1001+999999999GF100991001001999999001001KA1240M+02431MA1999999091981MD1999999+0071REMSYN082AAXX  05004 83339 32995 01410 10192 20138 39198 40177 333 10243 29069 55101 58007;EQDQ01  00002PRCP06
0186833390999992005050512004-14050-042617FM-12+088299999V0200901N005110042019N0100001N1+01731+01471101911ADDAA106000091GF106991061021004501001001KA1240N+01591MA1999999092081MD1999999-0011REMSYN076AAXX  05124 83339 32497 60910 10173 20147 39208 40191 86200 333 20159 59001;EQDQ01  00002PRCP06
0167833390999992005050518004-14050-042617FM-12+088299999V0201401N003112200019N0100001N1+02391+01351101351ADDAA106000091GF102991021011004501001001MA1999999091651MD1999999-0091REMSYN070AAXX  05184 83339 32497 21406 10239 20135 39165 40135 82100 333 59009;EQDQ01  00002PRCP06
0208833390999992005050600004-14050-042617FM-12+088299999V0200901N001012200019N0020001N1+01881+01391101651ADDAA106000091GA1001+999999999GF100991001001999999001001KA1240M+02431MA1999999091851MD1999999-0131REMSYN082AAXX  06004 83339 32995 00902 10188 20139 39185 40165 333 10243 29070 55087 59013;EQDQ01  00002PRCP06
0186833390999992005050612004-14050-042617FM-12+088299999V0200901N005112200019N0100001N1+01891+01531101861ADDAA106000091GF102991021021004501001001KA1240N+01571MA1999999092081MD1999999+0001REMSYN076AAXX  06124 83339 32497 20910 10189 20153 39208 40186 82200 333 20157 58000;EQDQ01  00002PRCP06
0167833390999992005050618004-14050-042617FM-12+088299999V0200501N001512200019N0100001N1+02501+01261101231ADDAA106000091GF102991021011004501001001MA1999999091591MD1999999-0061REMSYN070AAXX  06184 83339 32497 20503 10250 20126 39159 40123 82100 333 59006;EQDQ01  00002PRCP06
0208833390999992005050700004-14050-042617FM-12+088299999V0201401N004612200019N0020001N1+02081+01171101491ADDAA106000091GA1001+999999999GF100991001001999999001001KA1240M+02571MA1999999091781MD1999999-0071REMSYN082AAXX  07004 83339 32995 01409 10208 20117 39178 40149 333 10257 29059 55101 59007;EQDQ01  00002PRCP06
0186833390999992005050712004-14050-042617FM-12+088299999V0200901N004110042019N0100001N1+01871+01711101741ADDAA106000091GF108991051021004501021999KA1240N+01731MA1999999091991MD1999999-0091REMSYN076AAXX  07124 83339 32497 80908 10187 20171 39199 40174 8522/ 333 20173 59009;EQDQ01  00002PRCP06
0177833390999992005050718004-14050-042617FM-12+088299999V0201401N003112200019N0100001N1+02431+01561101251ADDAA106000091GA1001+999999999GF100991001001999999001001MA1999999091611MD1999999+0021REMSYN064AAXX  07184 83339 32997 01406 10243 20156 39161 40125 333 58002;EQDQ01  00002PRCP06
0179833390999992005050800004-14050-042620FM-12+088299999V0200901N004112200019N0020001N1+02151+01431101521ADDAA106000091GF100991001001999999001001MA1999999091811MD1999999+0031REMSYN082AAXX  08004 83339 32995 00908 10215 20143 39181 40152 333 10250 29068 55060 58003;EQDQ01  00002PRCP06
0173833390999992005050812004-14050-042620FM-12+088299999V0200901N006712200019N0100001N1+01971+01661101681ADDAA106000091GF104991041021004501001001MA1999999091981MD1999999-0011REMSYN076AAXX  08124 83339 32497 40913 10197 20166 39198 40168 84200 333 20176 59001;EQDQ01  00002PRCP06
0198833390999992005050900004-14050-042617FM-12+088299999V0201401N005110042019N0020001N1+02191+01541101571ADDAA106000091GF105991051021004501001001KA1240M+02661MA1999999091901MD1999999+0091REMSYN088AAXX  09004 83339 32495 51410 10219 20154 39190 40157 85200 333 10266 29066 55094 58009;EQDQ01  00002PRCP06
0214833390999992005050912004-14050-042617FM-12+088299999V0200901N008210042019N0040001N1+01911+01731101661ADDAA106000091AY101061AY201061GF108991081051004501999999KA1240N+01741MA1999999091961MD1999999-0021MW1101REMSYN082AAXX  09124 83339 31496 80916 10191 20173 39196 40166 71000 885// 333 20174 59002;EQDQ01  00002PRCP06
0167833390999992005050918004-14050-042617FM-12+088299999V0201401N005712200019N0100001N1+02631+01301101411ADDAA106000091GF103991021021004501021001MA1999999091711MD1999999+0141REMSYN070AAXX  09184 83339 32497 31411 10263 20130 39171 40141 82220 333 58014;EQDQ01  00002PRCP06
0208833390999992005051000004-14050-042617FM-12+088299999V0201401N007212200019N0020001N1+02151+01381101571ADDAA106000091GA1001+999999999GF100991001001999999001001KA1240M+02661MA1999999091841MD1999999-0061REMSYN082AAXX  10004 83339 32995 01414 10215 20138 39184 40157 333 10266 29067 55077 59006;EQDQ01  00002PRCP06
0214833390999992005051012004-14050-042617FM-12+088299999V0201401N008710042019N0100001N1+01991+01681101591ADDAA106000091AY101061AY201061GF106991061021004501001001KA1240N+01781MA1999999091941MD1999999-0021MW1101REMSYN082AAXX  10124 83339 31497 61417 10199 20168 39194 40159 71000 86200 333 20178 59002;EQDQ01  00002PRCP06
0167833390999992005051018004-14050-042617FM-12+088299999V0201401N004610042019N0100001N1+02411+01581101391ADDAA106000091GF106991061021004501001001MA1999999091641MD1999999-0071REMSYN070AAXX  10184 83339 32497 61409 10241 20158 39164 40139 86200 333 59007;EQDQ01  00002PRCP06
0198833390999992005051100004-14050-042617FM-12+088299999V0200901N004610042019N0020001N1+02111+01641101551ADDAA106000091GF105991051021004501001001KA1240M+02481MA1999999091841MD1999999+0001REMSYN088AAXX  11004 83339 32495 50909 10211 20164 39184 40155 85200 333 10248 29074 55062 58000;EQDQ01  00002PRCP06
0214833390999992005051112004-14050-042617FM-12+088299999V0201401N007210042019N0040001N1+01851+01671101561ADDAA106000091AY101061AY201061GF108991081051004501999999KA1240N+01701MA1999999091911MD1999999-0031MW1101REMSYN082AAXX  11124 83339 31496 81414 10185 20167 39191 40156 71000 885// 333 20170 59003;EQDQ01  00002PRCP06
0167833390999992005051118004-14050-042617FM-12+088299999V0200901N004612200019N0100001N1+02481+01651101461ADDAA106000091GF102991021021004501001001MA1999999091651MD1999999+0011REMSYN070AAXX  11184 83339 32497 20909 10248 20165 39165 40146 82200 333 58001;EQDQ01  00002PRCP06
0186833390999992005051212004-14050-042617FM-12+088299999V0201401N006712200019N0100001N1+01931+01491101621ADDAA106000091GF103991031021004501001001KA1240N+01701MA1999999091931MD1999999+0021REMSYN076AAXX  12124 83339 32497 31413 10193 20149 39193 40162 83200 333 20170 58002;EQDQ01  00002PRCP06
0167833390999992005051218004-14050-042617FM-12+088299999V0201401N006712200019N0100001N1+02631+00951101441ADDAA106000091GF102991021021004501001001MA1999999091661MD1999999+0011REMSYN070AAXX  12184 83339 32497 21413 10263 20095 39166 40144 82200 333 58001;EQDQ01  00002PRCP06
0208833390999992005051300004-14050-042617FM-12+088299999V0201401N006712200019N0020001N1+02091+01401101531ADDAA106000091GA1001+999999999GF100991001001999999001001KA1240M+02681MA1999999091801MD1999999+0021REMSYN082AAXX  13004 83339 32995 01413 10209 20140 39180 40153 333 10268 29067 55103 58002;EQDQ01  00002PRCP06
0214833390999992005051312004-14050-042617FM-12+088299999V0201401N006210042019N0040001N1+01831+01651101521ADDAA106000091AY101061AY201061GF108991081051004501999999KA1240N+01681MA1999999091851MD1999999-0081MW1101REMSYN082AAXX  13124 83339 31496 81412 10183 20165 39185 40152 71000 885// 333 20168 59008;EQDQ01  00002PRCP06
0167833390999992005051318004-14050-042617FM-12+088299999V0201401N009310042019N0100001N1+02551+01421101431ADDAA106000091GF106991061021004501001001MA1999999091591MD1999999-0071REMSYN070AAXX  13184 83339 32497 61418 10255 20142 39159 40143 86200 333 59007;EQDQ01  00002PRCP06
0198833390999992005051400004-14050-042617FM-12+088299999V0201401N007710450019N0020001N1+02151+01551101501ADDAA106000091GF105991041021004501031001KA1240M+02641MA1999999091741MD1999999-0061REMSYN088AAXX  14004 83339 32495 51415 10215 20155 39174 40150 84230 333 10264 29071 55061 59006;EQDQ01  00002PRCP06
0214833390999992005051412004-14050-042617FM-12+088299999V0201401N006210042019N0100001N1+01891+01661101481ADDAA106000091AY101061AY201061GF106991061021004501001001KA1240N+01721MA1999999091771MD1999999-0081MW1101REMSYN082AAXX  14124 83339 31497 61412 10189 20166 39177 40148 71000 86200 333 20172 59008;EQDQ01  00002PRCP06
0167833390999992005051418004-14050-042617FM-12+088299999V0200901N006210042019N0100001N1+02431+01431101311ADDAA106000091GF106991061021004501001001MA1999999091561MD1999999-0031REMSYN070AAXX  14184 83339 32497 60912 10243 20143 39156 40131 86200 333 59003;EQDQ01  00002PRCP06
0213833390999992005051500004-14050-042620FM-12+088299999V0201401N004112200019N0100001N1+01961+01771101471ADDAA106000091AY101061AY201061GF104991041021004501001001MA1999999091731MD1999999-0011MW1101REMSYN094AAXX  15004 83339 31497 41408 10196 20177 39173 40147 71000 84200 333 10260 29092 55058 59001;EQDQ01  00002PRCP06
0201833390999992005051512004-14050-042620FM-12+088299999V0201401N008210042019N0040001N1+01771+01701101461ADDAA106000091AY101061AY201061GF108991081051004501999999MA1999999091741MD1999999-0031MW1101REMSYN082AAXX  15124 83339 31496 81416 10177 20170 39174 40146 71000 885// 333 20168 59003;EQDQ01  00002PRCP06
0167833390999992005051518004-14050-042620FM-12+088299999V02099999999992200019N0100001N1+02571+01441101291ADDAA106000091GF103991031021004501001001MA1999999091511MD1999999-0051REMSYN070AAXX  15184 83339 32497 3//14 10257 20144 39151 40129 83200 333 59005;EQDQ01  00002PRCP06
0198833390999992005051600004-14050-042617FM-12+088299999V0201401N005112200019N0020001N1+02091+01621101461ADDAA106000091GF102991021021004501001001KA1240M+02661MA1999999091681MD1999999-0051REMSYN088AAXX  16004 83339 32495 21410 10209 20162 39168 40146 82200 333 10266 29078 55063 59005;EQDQ01  00002PRCP06
0186833390999992005051612004-14050-042617FM-12+088299999V0201401N006710042019N0100001N1+01941+01771101461ADDAA106000091GF106991061021004501001001KA1240N+01761MA1999999091751MD1999999+0011REMSYN076AAXX  16124 83339 32497 61413 10194 20177 39175 40146 86200 333 20176 58001;EQDQ01  00002PRCP06
0167833390999992005051618004-14050-042617FM-12+088299999V0200901N003612200019N0100001N1+02551+01471101031ADDAA106000091GF104991041021004501001001MA1999999091431MD1999999+0081REMSYN070AAXX  16184 83339 32497 40907 10255 20147 39143 40103 84200 333 58008;EQDQ01  00002PRCP06
0208833390999992005051700004-14050-042617FM-12+088299999V0201401N001512200019N0020001N1+02111+01391101261ADDAA106000091GA1001+999999999GF100991001001999999001001KA1240M+02601MA1999999091591MD1999999-0091REMSYN082AAXX  17004 83339 32995 01403 10211 20139 39159 40126 333 10260 29067 55076 59009;EQDQ01  00002PRCP06
0186833390999992005051712004-14050-042617FM-12+088299999V0201401N004610042019N0100001N1+01981+01761101441ADDAA106000091GF106991061021004501001001KA1240N+01771MA1999999091761MD1999999+0011REMSYN076AAXX  17124 83339 32497 61409 10198 20176 39176 40144 86200 333 20177 58001;EQDQ01  00002PRCP06
0167833390999992005051718004-14050-042617FM-12+088299999V0200501N003112200019N0100001N1+02681+01421100861ADDAA106000091GF103991031021004501001001MA1999999091321MD1999999-0111REMSYN070AAXX  17184 83339 32497 30506 10268 20142 39132 40086 83200 333 59011;EQDQ01  00002PRCP06
0208833390999992005051800004-14050-042617FM-12+088299999V0201401N001512200019N0020001N1+02151+01431101161ADDAA106000091GA1001+999999999GF100991001001999999001001KA1240M+02711MA1999999091511MD1999999-0081REMSYN082AAXX  18004 83339 32995 01403 10215 20143 39151 40116 333 10271 29065 55070 59008;EQDQ01  00002PRCP06
0186833390999992005051812004-14050-042617FM-12+088299999V0201401N004112200019N0100001N1+02211+01801101311ADDAA106000091GF104991041021004501001001KA1240N+01801MA1999999091681MD1999999-0081REMSYN076AAXX  18124 83339 32497 41408 10221 20180 39168 40131 84200 333 20180 59008;EQDQ01  00002PRCP06
0167833390999992005051818004-14050-042617FM-12+088299999V0200501N001512200019N0100001N1+02731+01611100731ADDAA106000091GF102991021021004501001001MA1999999091221MD1999999-0101REMSYN070AAXX  18184 83339 32497 20503 10273 20161 39122 40073 82200 333 59010;EQDQ01  00002PRCP06
0208833390999992005051900004-14050-042617FM-12+088299999V0201401N002112200019N0020001N1+02111+01621101021ADDAA106000091GA1001+999999999GF100991001001999999001001KA1240M+02781MA1999999091421MD1999999-0091REMSYN082AAXX  19004 83339 32995 01404 10211 20162 39142 40102 333 10278 29068 55096 59009;EQDQ01  00002PRCP06
0186833390999992005051912004-14050-042617FM-12+088299999V0200901N003612200019N0100001N1+01981+01681101251ADDAA106000091GF104991041021004501001001KA1240N+01741MA1999999091591MD1999999-0091REMSYN076AAXX  19124 83339 32497 40907 10198 20168 39159 40125 84200 333 20174 59009;EQDQ01  00002PRCP06
0167833390999992005051918004-14050-042617FM-12+088299999V0201401N002112200019N0100001N1+02721+01241100741ADDAA106000091GF102991021011004501001001MA1999999091231MD1999999+0011REMSYN070AAXX  19184 83339 32497 21404 10272 20124 39123 40074 82100 333 58001;EQDQ01  00002PRCP06
0208833390999992005052000004-14050-042617FM-12+088299999V0201401N001512200019N0020001N1+02121+01261101141ADDAA106000091GA1001+999999999GF100991001001999999001001KA1240M+02741MA1999999091491MD1999999+0071REMSYN082AAXX  20004 83339 32995 01403 10212 20126 39149 40114 333 10274 29060 55102 58007;EQDQ01  00002PRCP06
0196833390999992005052012004-14050-042617FM-12+088299999V0200501N001512200019N0100001N1+02131+01681101341ADDAA106000091GA1001+999999999GF100991001001999999001001KA1240N+01561MA1999999091691MD1999999+0101REMSYN070AAXX  20124 83339 32997 00503 10213 20168 39169 40134 333 20156 58010;EQDQ01  00002PRCP06
0167833390999992005052018004-14050-042617FM-12+088299999V0201401N003112200019N0100001N1+02831+00921100741ADDAA106000091GF102991021011004501001001MA1999999091021MD1999999-0021REMSYN070AAXX  20184 83339 32497 21406 10283 20092 39102 40074 82100 333 59002;EQDQ01  00002PRCP06
0208833390999992005052100004-14050-042617FM-12+088299999V0201401N001012200019N0020001N1+02201+01021101071ADDAA106000091GA1001+999999999GF100991001001999999001001KA1240M+02881MA1999999091461MD1999999-0031REMSYN082AAXX  21004 83339 32995 01402 10220 20102 39146 40107 333 10288 29050 55104 59003;EQDQ01  00002PRCP06
0186833390999992005052112004-14050-042617FM-12+088299999V0200501N001012200019N0100001N1+02221+01461101341ADDAA106000091GF103991021011004501001011KA1240N+01591MA1999999091731MD1999999+0041REMSYN076AAXX  21124 83339 32497 30502 10222 20146 39173 40134 82101 333 20159 58004;EQDQ01  00002PRCP06
0167833390999992005052118004-14050-042617FM-12+088299999V0202301N001010042019N0100001N1+02761+01321100881ADDAA106000091GF106991061021004501001001MA1999999091341MD1999999+0131REMSYN070AAXX  21184 83339 32497 62302 10276 20132 39134 40088 86200 333 58013;EQDQ01  00002PRCP06
0185833390999992005052200004-14050-042620FM-12+088299999V0209999C000010042019N0020001N1+02441+01361101001ADDAA106000091GF108991081021004501999999MA1999999091461MD1999999+0001REMSYN088AAXX  22004 83339 32495 80000 10244 20136 39146 40100 882// 333 10290 29052 55054 58000;EQDQ01  00002PRCP06
0173833390999992005052212004-14050-042620FM-12+088299999V0209999C000010042019N0100001N1+02421+01591101101ADDAA106000091GF106991061041004501001001MA1999999091611MD1999999-0121REMSYN076AAXX  22124 83339 32497 60000 10242 20159 39161 40110 86400 333 20193 59012;EQDQ01  00002PRCP06
0167833390999992005052218004-14050-042620FM-12+088299999V0202701N002612200019N0100001N1+02851+01411100681ADDAA106000091GF104991041021004501001001MA1999999091231MD1999999-0111REMSYN070AAXX  22184 83339 32497 42705 10285 20141 39123 40068 84200 333 59011;EQDQ01  00002PRCP06
0185833390999992005052300004-14050-042620FM-12+088299999V0209999C000012200019N0020001N1+02401+01291100921ADDAA106000091GF102991021011004501001001MA1999999091431MD1999999-0031REMSYN088AAXX  23004 83339 32495 20000 10240 20129 39143 40092 82100 333 10298 29050 55064 59003;EQDQ01  00002PRCP06
0173833390999992005052312004-14050-042620FM-12+088299999V0202701N003110042019N0100001N1+02331+01741101061ADDAA106000091GF106991051021004501021001MA1999999091541MD1999999-0071REMSYN076AAXX  23124 83339 32497 62706 10233 20174 39154 40106 85220 333 20182 59007;EQDQ01  00002PRCP06
0167833390999992005052318004-14050-042620FM-12+088299999V0202301N003112200019N0100001N1+02971+01291100911ADDAA106000091GF104991031021004501021001MA1999999091261MD1999999+0031REMSYN070AAXX  23184 83339 32497 42306 10297 20129 39126 40091 83220 333 58003;EQDQ01  00002PRCP06
0198833390999992005052400004-14050-042617FM-12+088299999V0201801N001512200019N0020001N1+02251+01371100971ADDAA106000091GF102991011021004501021001KA1240M+03031MA1999999091451MD1999999+0021REMSYN088AAXX  24004 83339 32495 21803 10225 20137 39145 40097 81220 333 10303 29061 55078 58002;EQDQ01  00002PRCP06
0186833390999992005052412004-14050-042617FM-12+088299999V0200501N001012200019N0100001N1+02391+01991101211ADDAA106000091GF102991011021004501021001KA1240N+01761MA1999999091641MD1999999+0101REMSYN076AAXX  24124 83339 32497 20502 10239 20199 39164 40121 81220 333 20176 58010;EQDQ01  00002PRCP06
0167833390999992005052418004-14050-042617FM-12+088299999V0203201N001012200019N0100001N1+03011+01611100961ADDAA106000091GF104991031021004501021001MA1999999091291MD1999999+0031REMSYN070AAXX  24184 83339 32497 43202 10301 20161 39129 40096 83220 333 58003;EQDQ01  00002PRCP06
0208833390999992005052500004-14050-042617FM-12+088299999V0201801N000512200019N0020001N1+02371+01661100921ADDAA106000091GA1001+999999999GF100991001001999999001001KA1240M+03041MA1999999091431MD1999999-0021REMSYN082AAXX  25004 83339 32995 01801 10237 20166 39143 40092 333 10304 29070 55094 59002;EQDQ01  00002PRCP06
0214833390999992005052512004-14050-042617FM-12+088299999V0203601N001012200019N0100001N1+02331+01961101151ADDAA106000091AY101061AY201061GF102991011021004501021001KA1240N+01981MA1999999091641MD1999999+0001MW1101REMSYN082AAXX  25124 83339 31497 23602 10233 20196 39164 40115 71000 81220 333 20198 58000;EQDQ01  00002PRCP06
0167833390999992005052518004-14050-042617FM-12+088299999V0200901N000512200019N0100001N1+02911+01621101021ADDAA106000091GF103991031021004501001001MA1999999091361MD1999999+0071REMSYN070AAXX  25184 83339 32497 30901 10291 20162 39136 40102 83200 333 58007;EQDQ01  00002PRCP06
0198833390999992005052600004-14050-042617FM-12+088299999V0201801N002112200019N0020001N1+02471+01761101131ADDAA106000091GF104991041021004501001001KA1240M+03041MA1999999091601MD1999999+0171REMSYN088AAXX  26004 83339 32495 41804 10247 20176 39160 40113 84200 333 10304 29068 55084 58017;EQDQ01  00002PRCP06
0190833390999992005052612004-14050-042617FM-12+088299999V0201401N000510042019N0100001N1+02191+01991101401ADDAY161061AY261061GF106991061021004501001001KA1240N+01881MA1999999091901MD1999999+0261MW1101REMSYN088AAXX  26124 83339 21497 61401 10219 20199 39190 40140 71066 86200 333 20188 58026 60064;
0167833390999992005052618004-14050-042617FM-12+088299999V0202301N003110042019N0100001N1+02751+01871101401ADDAA106000091GF105991051021004501001001MA1999999091661MD1999999+0301REMSYN070AAXX  26184 83339 32497 52306 10275 20187 39166 40140 85200 333 58030;EQDQ01  00002PRCP06
0226833390999992005052700004-14050-042617FM-12+088299999V0201801N001510042019N0020001N1+02251+01861101391ADDAA106000091AY101061AY201061GF106991061021004501001001KA1240M+02861MA1999999091771MD1999999+0171MW1131REMSYN094AAXX  27004 83339 31495 61803 10225 20186 39177 40139 71300 86200 333 10286 29076 55048 58017;EQDQ01  00002PRCP06
0190833390999992005052712004-14050-042617FM-12+088299999V0201401N007710042019N0040001N1+01891+01811101631ADDAY161061AY261061GF108991081051004501999999KA1240N+01821MA1999999092011MD1999999+0111MW1101REMSYN088AAXX  27124 83339 21496 81415 10189 20181 39201 40163 71066 885// 333 20182 58011 60024;
0167833390999992005052718004-14050-042617FM-12+088299999V0201401N004110042019N0100001N1+02271+01691101581ADDAA106000091GF106991061021004501001001MA1999999091831MD1999999+0171REMSYN070AAXX  27184 83339 32497 61408 10227 20169 39183 40158 86200 333 58017;EQDQ01  00002PRCP06
0226833390999992005052800004-14050-042617FM-12+088299999V0201401N007210042019N0020001N1+01991+01701101771ADDAA106000091AY101061AY201061GF106991061021004501001001KA1240M+02801MA1999999092001MD1999999+0231MW1101REMSYN094AAXX  28004 83339 31495 61414 10199 20170 39200 40177 71000 86200 333 10280 29088 55024 58023;EQDQ01  00002PRCP06
0214833390999992005052812004-14050-042617FM-12+088299999V0201401N005710042019N0040001N1+01671+01421101731ADDAA106000091AY101061AY201061GF108991081051004501999999KA1240N+01601MA1999999092001MD1999999-0011MW1101REMSYN082AAXX  28124 83339 31496 81411 10167 20142 39200 40173 71000 885// 333 20160 59001;EQDQ01  00002PRCP06
0195833390999992005052818004-14050-042617FM-12+088299999V0201401N006210042019N0040001N1+01991+01661101651ADDAA106000091AY101061AY201061GF106991051021004501021001MA1999999091851MD1999999+0021MW1101REMSYN076AAXX  28184 83339 31496 61412 10199 20166 39185 40165 71000 85220 333 58002;EQDQ01  00002PRCP06
0189833390999992005052900004-14050-042620FM-12+088299999V0201401N004610042019N0020001N1+01791+01781101731ADDAY161061AY261061GF108991081051004501999999MA1999999091941MD1999999-0061MW1501REMSYN100AAXX  29004 83339 21495 81409 10179 20178 39194 40173 75066 885// 333 10210 29091 55009 59006 60011;
0177833390999992005052912004-14050-042620FM-12+088299999V0201401N004610042019N0040001N1+01751+01691101801ADDAY161061AY261061GF108991081051004501999999MA1999999091981MD1999999-0021MW1101REMSYN088AAXX  29124 83339 21496 81409 10175 20169 39198 40180 71066 885// 333 20164 59002 60094;
0167833390999992005052918004-14050-042620FM-12+088299999V0200901N003610042019N0100001N1+02111+01661101641ADDAA106000091GF106991061021004501001001MA1999999091801MD1999999-0051REMSYN070AAXX  29184 83339 32497 60907 10211 20166 39180 40164 86200 333 59005;EQDQ01  00002PRCP06
0226833390999992005053000004-14050-042617FM-12+088299999V0201401N005112200019N0020001N1+01851+01761101721ADDAA106000091AY101061AY201061GF103991031021004501001001KA1240M+02241MA1999999091891MD1999999-0051MW1101REMSYN094AAXX  30004 83339 31495 31410 10185 20176 39189 40172 71000 83200 333 10224 29098 55021 59005;EQDQ01  00002PRCP06
0190833390999992005053012004-14050-042617FM-12+088299999V0201401N007710042019N0100001N1+01881+01691101831ADDAY161061AY221061GF106991061021004501001001KA1240N+01721MA1999999092041MD1999999+0061MW1021REMSYN088AAXX  30124 83339 21497 61415 10188 20169 39204 40183 70262 86200 333 20172 58006 69924;
0167833390999992005053018004-14050-042617FM-12+088299999V0201401N007212200019N0100001N1+02471+01401101421ADDAA106000091GF103991031021004501001001MA1999999091761MD1999999-0041REMSYN070AAXX  30184 83339 32497 31414 10247 20140 39176 40142 83200 333 59004;EQDQ01  00002PRCP06
0208833390999992005053100004-14050-042617FM-12+088299999V0201401N009312200019N0020001N1+01991+01461101661ADDAA106000091GA1001+999999999GF100991001001999999001001KA1240M+02541MA1999999091921MD1999999+0031REMSYN082AAXX  31004 83339 32995 01418 10199 20146 39192 40166 333 10254 29070 55086 58003;EQDQ01  00002PRCP06
0214833390999992005053112004-14050-042617FM-12+088299999V0201401N006710450019N0020001N1+01761+01751101811ADDAA106000091AY141061AY221061GF108991041051004501021999KA1240N+01641MA1999999092021MD1999999-0021MW1401REMSYN082AAXX  31124 83339 31495 81413 10176 20175 39202 40181 74042 8452/ 333 20164 59002;EQDQ01  00002PRCP06
0171833390999992005053118004-14050-042617FM-12+088299999V0200901N005710042019N0100001N1+02161+01801101531ADDAY161061AY241061GF106991061021004501001001MA1999999091781MD1999999+0021MW1021REMSYN082AAXX  31184 83339 21497 60911 10216 20180 39178 40153 70264 86200 333 58002 69941;
0202833390999992005060100004-14050-042617FM-12+088299999V0201401N005710450019N0020001N1+01851+01811101741ADDAY161061AY241061GF106991031021004501021001KA1240M+02301MA1999999091971MD1999999+0051MW1401REMSYN100AAXX  01004 83339 21495 61411 10185 20181 39197 40174 74064 83220 333 10230 29093 55020 58005 60021;
0190833390999992005060112004-14050-042617FM-12+088299999V0201401N005710042019N0020001N1+02751+01651101861ADDAY161061AY241061GF108991051021004501021999KA1240N+01631MA1999999092041MD1999999+0021MW1401REMSYN088AAXX  01124 83339 21495 81411 10275 20165 39204 40186 74064 8522/ 333 20163 58002 60054;
0195833390999992005060118004-14050-042617FM-12+088299999V0200901N006210042019N0100001N1+02201+01671101491ADDAA106000091AY141061AY221061GF106991061021004501001001MA1999999091761MD1999999-0021MW1021REMSYN076AAXX  01184 83339 31497 60912 10220 20167 39176 40149 70242 86200 333 59002;EQDQ01  00002PRCP06
0208833390999992005060200004-14050-042617FM-12+088299999V0201401N004612200019N0020001N1+01911+01221101761ADDAA106000091GA1001+999999999GF100991001001999999001001KA1240M+02261MA1999999091971MD1999999+0001REMSYN082AAXX  02004 83339 32995 01409 10191 20122 39197 40176 333 10226 29073 55005 58000;EQDQ01  00002PRCP06
0186833390999992005060212004-14050-042617FM-12+088299999V0201401N007712200019N0100001N1+01861+01571101831ADDAA106000091GF105991031021004501001011KA1240N+01601MA1999999092051MD1999999+0011REMSYN076AAXX  02124 83339 32497 51415 10186 20157 39205 40183 83201 333 20160 58001;EQDQ01  00002PRCP06
0167833390999992005060218004-14050-042617FM-12+088299999V0201401N007210450019N0100001N1+02121+01391101461ADDAA106000091GF106991031021004501021001MA1999999091721MD1999999-0041REMSYN070AAXX  02184 83339 32497 61414 10212 20139 39172 40146 83220 333 59004;EQDQ01  00002PRCP06
0208833390999992005060300004-14050-042617FM-12+088299999V0201401N008212200019N0020001N1+01801+01391101591ADDAA106000091GA1001+999999999GF100991001001999999001001KA1240M+02241MA1999999091821MD1999999-0151REMSYN082AAXX  03004 83339 32995 01416 10180 20139 39182 40159 333 10224 29075 55014 59015;EQDQ01  00002PRCP06
0190833390999992005060312004-14050-042617FM-12+088299999V0201401N005710042019N0020001N1+01681+01621101841ADDAY141061AY221061GF108991051021004501021999KA1240N+01561MA1999999092001MD1999999-0051MW1501REMSYN088AAXX  03124 83339 21495 81411 10168 20162 39200 40184 75042 8522/ 333 20156 59005 69924;
0171833390999992005060318004-14050-042617FM-12+088299999V0200901N005110450019N0100001N1+02201+01611101561ADDAY151061AY241061GF105991031021004501031001MA1999999091771MD1999999+0051MW1021REMSYN082AAXX  03184 83339 21497 50910 10220 20161 39177 40156 70254 83230 333 58005 69961;
0198833390999992005060400004-14050-042617FM-12+088299999V0201401N006710042019N0020001N1+01801+01671101821ADDAA106000091GF106991061021004501001001KA1240M+02261MA1999999092021MD1999999+0201REMSYN088AAXX  04004 83339 32495 61413 10180 20167 39202 40182 86200 333 10226 29087 55014 58020;EQDQ01  00002PRCP06
0177833390999992005060412004-14050-042620FM-12+088299999V0201401N010310042019N0100001N1+01691+01531101831ADDAY151061AY221061GF108991051021004501021999MA1999999091991MD1999999-0011MW1021REMSYN088AAXX  04124 83339 21497 81420 10169 20153 39199 40183 70252 8522/ 333 20154 59001 69964;
0167833390999992005060418004-14050-042620FM-12+088299999V0201401N007212200019N0100001N1+02311+01391101501ADDAA106000091GF102991021021004501001001MA1999999091771MD1999999+0001REMSYN070AAXX  04184 83339 32497 21414 10231 20139 39177 40150 82200 333 58000;EQDQ01  00002PRCP06
0185833390999992005060500004-14050-042620FM-12+088299999V0201401N004110042019N0020001N1+01891+01531101841ADDAA106000091GF106991061021004501001001MA1999999092021MD1999999+0001REMSYN088AAXX  05004 83339 32495 61408 10189 20153 39202 40184 86200 333 10236 29076 55033 58000;EQDQ01  00002PRCP06
0186833390999992005060512004-14050-042617FM-12+088299999V0201401N008212200019N0100001N1+01681+01501101901ADDAA106000091GF104991041021004501001001KA1240N+01521MA1999999092071MD1999999+0081REMSYN076AAXX  05124 83339 32497 41416 10168 20150 39207 40190 84200 333 20152 58008;EQDQ01  00002PRCP06
0167833390999992005060518004-14050-042617FM-12+088299999V0201401N005712200019N0100001N1+02311+01581101521ADDAA106000091GF102991021011004501001001MA1999999091791MD1999999+0021REMSYN070AAXX  05184 83339 32497 21411 10231 20158 39179 40152 82100 333 58002;EQDQ01  00002PRCP06
0190833390999992005060612004-14050-042617FM-12+088299999V0201401N008710042019N0040001N1+01731+01541101641ADDAY161061AY261061GF108991081051004501999999KA1240N+01621MA1999999091901MD1999999-0171MW1101REMSYN088AAXX  06124 83339 21496 81417 10173 20154 39190 40164 71066 885// 333 20162 59017 60014;
0167833390999992005060618004-14050-042617FM-12+088299999V0200901N006710042019N0100001N1+02371+01351101461ADDAA106000091GF105991051021004501001001MA1999999091641MD1999999-0151REMSYN070AAXX  06184 83339 32497 50913 10237 20135 39164 40146 85200 333 59015;EQDQ01  00002PRCP06
0198833390999992005060700004-14050-042617FM-12+088299999V0201401N008210042019N0020001N1+01991+01461101681ADDAA106000091GF106991061021004501001001KA1240M+02421MA1999999091851MD1999999-0131REMSYN088AAXX  07004 83339 32495 61416 10199 20146 39185 40168 86200 333 10242 29076 55026 59013;EQDQ01  00002PRCP06
0214833390999992005060712004-14050-042617FM-12+088299999V0201401N006210042019N0100001N1+01771+01661101611ADDAA106000091AY101061AY201061GF106991061021004501001001KA1240N+01641MA1999999091891MD1999999-0011MW1101REMSYN082AAXX  07124 83339 31497 61412 10177 20166 39189 40161 71000 86200 333 20164 59001;EQDQ01  00002PRCP06
0167833390999992005060718004-14050-042617FM-12+088299999V0201401N006212200019N0100001N1+02391+01361101301ADDAA106000091GF103991031021004501001001MA1999999091641MD1999999+0001REMSYN070AAXX  07184 83339 32497 31412 10239 20136 39164 40130 83200 333 58000;EQDQ01  00002PRCP06
0198833390999992005060800004-14050-042617FM-12+088299999V0200901N004112200019N0020001N1+01931+01531101651ADDAA106000091GF102991021021004501001001KA1240M+02441MA1999999091851MD1999999+0001REMSYN088AAXX  08004 83339 32495 20908 10193 20153 39185 40165 82200 333 10244 29081 55060 58000;EQDQ01  00002PRCP06
0214833390999992005060812004-14050-042617FM-12+088299999V0201401N007710042019N0100001N1+01771+01471101771ADDAA106000091AY101061AY201061GF105991051021004501001001KA1240N+01531MA1999999092021MD1999999+0131MW1101REMSYN082AAXX  08124 83339 31497 51415 10177 20147 39202 40177 71000 85200 333 20153 58013;EQDQ01  00002PRCP06
0167833390999992005060818004-14050-042617FM-12+088299999V0201401N008212200019N0100001N1+02271+01501101601ADDAA106000091GF104991041021004501001001MA1999999091761MD1999999+0121REMSYN070AAXX  08184 83339 32497 41416 10227 20150 39176 40160 84200 333 58012;EQDQ01  00002PRCP06
0207833390999992005060900004-14050-042617FM-12+088299999V0201401N005110042019N0020001N1+01851+01761101821ADDAA106000021AY101061AY201061GF108991081051004501999999KA1240M+02361MA1999999092001MD1999999+0151MW1501REMSYN094AAXX  09004 83339 31495 81410 10185 20176 39200 40182 75000 885// 333 10236 29098 55085 58015;
0190833390999992005060912004-14050-042617FM-12+088299999V0201401N008712200019N0100001N1+01831+01391101881ADDAY161061AY261061GF102991021021004501001001KA1240N+01601MA1999999092081MD1999999+0061MW1021REMSYN088AAXX  09124 83339 21497 21417 10183 20139 39208 40188 70266 82200 333 20160 58006 60024;
0167833390999992005060918004-14050-042617FM-12+088299999V0200501N006212200019N0100001N1+02371+01031101721ADDAA106000091GF102991021011004501001001MA1999999091791MD1999999+0031REMSYN070AAXX  09184 83339 32497 20512 10237 20103 39179 40172 82100 333 58003;EQDQ01  00002PRCP06
0198833390999992005061000004-14050-042617FM-12+088299999V0200901N006210042019N0020001N1+01911+01531101761ADDAA106000091GF105991051021004501001001KA1240M+02421MA1999999091971MD1999999-0031REMSYN088AAXX  10004 83339 32495 50912 10191 20153 39197 40176 85200 333 10242 29083 55106 59003;EQDQ01  00002PRCP06
0190833390999992005061012004-14050-042617FM-12+088299999V0201401N005110042019N0040001N1+01651+01611101791ADDAY161061AY261061GF108991081051004501999999KA1240N+01601MA1999999092041MD1999999-0041MW1501REMSYN088AAXX  10124 83339 21496 81410 10165 20161 39204 40179 75066 885// 333 20160 59004 69934;
0148833390999992005061018004-14050-042617FM-12+088299999V0200901N006712200019N0100001N1+02231+01481101681ADDAA106000021GF104991041021004501001001MA1999999091801MD1999999-0011REMSYN070AAXX  10184 83339 32497 40913 10223 20148 39180 40168 84200 333 59001;
0208833390999992005061100004-14050-042617FM-12+088299999V0200901N004612200019N0020001N1+01931+01361101671ADDAA106000091GA1001+999999999GF100991001001999999001001KA1240M+02341MA1999999091881MD1999999-0101REMSYN082AAXX  11004 83339 32995 00909 10193 20136 39188 40167 333 10234 29075 55055 59010;EQDQ01  00002PRCP06
0214833390999992005061112004-14050-042617FM-12+088299999V0201401N006710042019N0020001N1+01731+01661101751ADDAA106000091AY121061AY221061GF106991061021004501001001KA1240N+01641MA1999999091961MD1999999-0081MW1401REMSYN082AAXX  11124 83339 31495 61413 10173 20166 39196 40175 74022 86200 333 20164 59008;EQDQ01  00002PRCP06
0167833390999992005061118004-14050-042617FM-12+088299999V0200501N004612200019N0100001N1+02321+01531101381ADDAA106000091GF102991021021004501001001MA1999999091681MD1999999-0121REMSYN070AAXX  11184 83339 32497 20509 10232 20153 39168 40138 82200 333 59012;EQDQ01  00002PRCP06
0185833390999992005061200004-14050-042620FM-12+088299999V0200901N004612200019N0100001N1+01921+01661101681ADDAA106000091GF103991031021004501001001MA1999999091881MD1999999+0011REMSYN088AAXX  12004 83339 32497 30909 10192 20166 39188 40168 83200 333 10242 29082 55053 58001;EQDQ01  00002PRCP06
0173833390999992005061212004-14050-042620FM-12+088299999V0200901N003110042019N0100001N1+01771+01651101901ADDAA106000091GF106991061021004501001001MA1999999092101MD1999999+0141REMSYN076AAXX  12124 83339 32497 60906 10177 20165 39210 40190 86200 333 20163 58014;EQDQ01  00002PRCP06
0167833390999992005061218004-14050-042620FM-12+088299999V0200501N003112200019N0100001N1+02481+01171101281ADDAA106000091GF102991021011004501001001MA1999999091641MD1999999-0041REMSYN070AAXX  12184 83339 32497 20506 10248 20117 39164 40128 82100 333 59004;EQDQ01  00002PRCP06
0208833390999992005061300004-14050-042617FM-12+088299999V0201401N001512200019N0020001N1+01941+01241101661ADDAA106000091GA1001+999999999GF100991001001999999001001KA1240M+02531MA1999999091881MD1999999+0001REMSYN082AAXX  13004 83339 32995 01403 10194 20124 39188 40166 333 10253 29066 55079 58000;EQDQ01  00002PRCP06
0190833390999992005061312004-14050-042617FM-12+088299999V0201401N008212200019N0100001N1+01841+01561101761ADDAY161061AY221061GF104991041021004501021001KA1240N+01641MA1999999091991MD1999999-0111MW1021REMSYN088AAXX  13124 83339 21497 41416 10184 20156 39199 40176 70262 84220 333 20164 59011 60014;
0183833390999992005061318004-14050-042617FM-12+088299999V0201401N005112200019N0100001N1+02481+01211101331ADDAA106000091GF102991001001999999001011MA1999999091661MD1999999+0021REMSYN070AAXX  13184 83339 32897 21410 10248 20121 39166 40133 80001 333 58002;EQDQ01+022502SCOLCBQ02  00002PRCP06
0208833390999992005061400004-14050-042617FM-12+088299999V0200901N002112200019N0020001N1+01951+01281101631ADDAA106000091GA1001+999999999GF100991001001999999001001KA1240M+02521MA1999999091871MD1999999-0011REMSYN082AAXX  14004 83339 32995 00904 10195 20128 39187 40163 333 10252 29065 55090 59001;EQDQ01  00002PRCP06
0186833390999992005061412004-14050-042617FM-12+088299999V0200901N004610042019N0100001N1+01851+01691101881ADDAA106000091GF106991061021004501001001KA1240N+01681MA1999999092101MD1999999+0111REMSYN076AAXX  14124 83339 32497 60909 10185 20169 39210 40188 86200 333 20168 58011;EQDQ01  00002PRCP06
0167833390999992005061418004-14050-042617FM-12+088299999V0201401N003612200019N0100001N1+02361+01541101461ADDAA106000091GF102991021021004501001001MA1999999091781MD1999999+0121REMSYN070AAXX  14184 83339 32497 21407 10236 20154 39178 40146 82200 333 58012;EQDQ01  00002PRCP06
0198833390999992005061500004-14050-042617FM-12+088299999V0201401N006712200019N0100001N1+02051+01761101761ADDAA106000091GF102991021021004501001001KA1240M+02451MA1999999092011MD1999999+0141REMSYN088AAXX  15004 83339 32497 21413 10205 20176 39201 40176 82200 333 10245 29079 55052 58014;EQDQ01  00002PRCP06
0186833390999992005061512004-14050-042617FM-12+088299999V0201401N006710042019N0100001N1+01881+01621101841ADDAA106000091GF105991051021004501001001KA1240N+01701MA1999999092081MD1999999-0021REMSYN076AAXX  15124 83339 32497 51413 10188 20162 39208 40184 85200 333 20170 59002;EQDQ01  00002PRCP06
0167833390999992005061518004-14050-042617FM-12+088299999V0200901N006212200019N0100001N1+02361+01431101421ADDAA106000091GF102991021011004501001001MA1999999091761MD1999999-0021REMSYN070AAXX  15184 83339 32497 20912 10236 20143 39176 40142 82100 333 59002;EQDQ01  00002PRCP06
0208833390999992005061600004-14050-042617FM-12+088299999V0200901N004612200019N0020001N1+02101+01551101631ADDAA106000091GA1001+999999999GF100991001001999999001001KA1240M+02441MA1999999091911MD1999999-0101REMSYN082AAXX  16004 83339 32995 00909 10210 20155 39191 40163 333 10244 29071 55091 59010;EQDQ01  00002PRCP06
0214833390999992005061612004-14050-042617FM-12+088299999V0201401N005110042019N0100001N1+01781+01671101851ADDAA106000091AY121061AY221061GF108991051021004501021999KA1240N+01701MA1999999092051MD1999999-0031MW1401REMSYN082AAXX  16124 83339 31497 81410 10178 20167 39205 40185 74022 8522/ 333 20170 59003;EQDQ01  00002PRCP06
0205833390999992005061618004-14050-042617FM-12+088299999V0200901N003612200019N0100001N1+02551+01281101261ADDAA106000091AY141061AY221061GA1001+999999999GF100991001001999999001001MA1999999091641MD1999999-0121MW1021REMSYN070AAXX  16184 83339 31497 00907 10255 20128 39164 40126 70242 333 59012;EQDQ01  00002PRCP06
0208833390999992005061700004-14050-042617FM-12+088299999V0200901N005112200019N0020001N1+02051+01401101661ADDAA106000091GA1001+999999999GF100991001001999999001001KA1240M+02631MA1999999091901MD1999999-0011REMSYN082AAXX  17004 83339 32995 00910 10205 20140 39190 40166 333 10263 29068 55064 59001;EQDQ01  00002PRCP06
0196833390999992005061712004-14050-042617FM-12+088299999V0200901N002612200019N0020001N1+01941+01551101711ADDAA106000091GA1001+999999999GF100991001001999999001001KA1240N+01441MA1999999091981MD1999999-0071REMSYN070AAXX  17124 83339 32995 00905 10194 20155 39198 40171 333 20144 59007;EQDQ01  00002PRCP06
0167833390999992005061718004-14050-042617FM-12+088299999V0200901N002612200019N0100001N1+02651+01401101201ADDAA106000091GF103991031021004501001001MA1999999091561MD1999999-0081REMSYN070AAXX  17184 83339 32497 30905 10265 20140 39156 40120 83200 333 59008;EQDQ01  00002PRCP06
0208833390999992005061800004-14050-042617FM-12+088299999V0201801N001512200019N0020001N1+02271+01211101321ADDAA106000091GA1001+999999999GF100991001001999999001001KA1240M+02801MA1999999091691MD1999999-0211REMSYN082AAXX  18004 83339 32995 01803 10227 20121 39169 40132 333 10280 29057 55097 59021;EQDQ01  00002PRCP06
0196833390999992005061812004-14050-042617FM-12+088299999V0200501N002112200019N0100001N1+02051+01621101521ADDAA106000091GA1001+999999999GF100991001001999999001001KA1240N+01501MA1999999091871MD1999999-0111REMSYN070AAXX  18124 83339 32997 00504 10205 20162 39187 40152 333 20150 59011;EQDQ01  00002PRCP06
0167833390999992005061818004-14050-042617FM-12+088299999V0200501N002112200019N0100001N1+02831+01231101011ADDAA106000091GF104991031021004501001011MA1999999091431MD1999999-0131REMSYN070AAXX  18184 83339 32497 40504 10283 20123 39143 40101 83201 333 59013;EQDQ01  00002PRCP06
0185833390999992005061900004-14050-042620FM-12+088299999V0201401N001512200019N0020001N1+02291+01351101281ADDAA106000091GF102991001001999999001011MA1999999091651MD1999999-0041REMSYN088AAXX  19004 83339 32895 21403 10229 20135 39165 40128 80001 333 10288 29056 55091 59004;EQDQ01  00002PRCP06
0173833390999992005061912004-14050-042620FM-12+088299999V0203601N001512200019N0100001N1+02211+01551101391ADDAA106000091GF103991001001999999001011MA1999999091791MD1999999-0081REMSYN076AAXX  19124 83339 32897 33603 10221 20155 39179 40139 80001 333 20166 59008;EQDQ01  00002PRCP06
0167833390999992005061918004-14050-042620FM-12+088299999V0202301N002612200019N0100001N1+02911+01301100971ADDAA106000091GF102991021021004501001001MA1999999091451MD1999999+0021REMSYN070AAXX  19184 83339 32497 22305 10291 20130 39145 40097 82200 333 58002;EQDQ01  00002PRCP06
0185833390999992005062000004-14050-042620FM-12+088299999V0209999C000012200019N0020001N1+02231+01321101271ADDAA106000091GF102991011011004501001011MA1999999091661MD1999999+0011REMSYN088AAXX  20004 83339 32495 20000 10223 20132 39166 40127 81101 333 10300 29054 55101 58001;EQDQ01  00002PRCP06
0173833390999992005062012004-14050-042620FM-12+088299999V0201401N004610042019N0100001N1+02021+01811101571ADDAA106000091GF106991061021004501001001MA1999999091901MD1999999+0111REMSYN076AAXX  20124 83339 32497 61409 10202 20181 39190 40157 86200 333 20172 58011;EQDQ01  00002PRCP06
0167833390999992005062018004-14050-042620FM-12+088299999V0201401N001512200019N0100001N1+02861+01441101011ADDAA106000091GF103991031021004501001001MA1999999091491MD1999999+0041REMSYN070AAXX  20184 83339 32497 31403 10286 20144 39149 40101 83200 333 58004;EQDQ01  00002PRCP06
0208833390999992005062100004-14050-042617FM-12+088299999V0201401N002112200019N0020001N1+02291+01581101321ADDAA106000091GA1001+999999999GF100991001001999999001001KA1240M+02941MA1999999091691MD1999999+0031REMSYN082AAXX  21004 83339 32995 01404 10229 20158 39169 40132 333 10294 29064 55083 58003;EQDQ01  00002PRCP06
0196833390999992005062112004-14050-042617FM-12+088299999V0200501N001512200019N0100001N1+02251+01751101571ADDAA106000091GA1001+999999999GF100991001001999999001001KA1240N+01701MA1999999091951MD1999999+0051REMSYN070AAXX  21124 83339 32997 00503 10225 20175 39195 40157 333 20170 58005;EQDQ01  00002PRCP06
0167833390999992005062118004-14050-042617FM-12+088299999V0201401N003112200019N0100001N1+02891+00901101061ADDAA106000091GF102991021021004501001001MA1999999091541MD1999999+0051REMSYN070AAXX  21184 83339 32497 21406 10289 20090 39154 40106 82200 333 58005;EQDQ01  00002PRCP06
0198833390999992005062200004-14050-042617FM-12+088299999V0201801N003112200019N0020001N1+02331+01061101301ADDAA106000091GF103991031021004501001001KA1240M+03001MA1999999091741MD1999999+0051REMSYN088AAXX  22004 83339 32495 31806 10233 20106 39174 40130 83200 333 10300 29048 55097 58005;EQDQ01  00002PRCP06
0190833390999992005062212004-14050-042617FM-12+088299999V0200901N003110042019N0040001N1+01791+01781101701ADDAY161061AY261061GF108991081051004501999999KA1240N+01761MA1999999092001MD1999999+0051MW1601REMSYN088AAXX  22124 83339 21496 80906 10179 20178 39200 40170 76066 885// 333 20176 58005 60154;
0171833390999992005062218004-14050-042617FM-12+088299999V0201401N005110042019N0100001N1+02251+01571101551ADDAY161061AY261061GF106991051021004501031001MA1999999091801MD1999999+0261MW1021REMSYN082AAXX  22184 83339 21497 61410 10225 20157 39180 40155 70266 85230 333 58026 69961;
0214833390999992005062300004-14050-042617FM-12+088299999V0201401N008212200019N0020001N1+01811+01511101891ADDAA106000091GF102991999001008001031011KA1240M+02431MA1999999092061MD1999999+0321REMSYN088AAXX  23004 83339 32595 21416 10181 20151 39206 40189 80031 333 10243 29082 55004 58032;EQDQ01+000002SCOTLCQ02  00002PRCP06
0190833390999992005062312004-14050-042617FM-12+088299999V0201401N007210042019N0100001N1+01591+01371102041ADDAY161061AY221061GF106991061021004501001001KA1240N+01481MA1999999092161MD1999999+0161MW1021REMSYN088AAXX  23124 83339 21497 61414 10159 20137 39216 40204 70262 86200 333 20148 58016 69964;
0167833390999992005062318004-14050-042617FM-12+088299999V0201401N005112200019N0100001N1+02291+01431101561ADDAA106000091GF104991021011004501001011MA1999999091831MD1999999+0031REMSYN070AAXX  23184 83339 32497 41410 10229 20143 39183 40156 82101 333 58003;EQDQ01  00002PRCP06
0198833390999992005062400004-14050-042617FM-12+088299999V0201401N007712200019N0020001N1+01871+01391101901ADDAA106000091GF105991021011004501001011KA1240M+02331MA1999999092051MD1999999-0011REMSYN088AAXX  24004 83339 32495 51415 10187 20139 39205 40190 82101 333 10233 29073 55084 59001;EQDQ01  00002PRCP06
0186833390999992005062412004-14050-042617FM-12+088299999V0201401N005710042019N0100001N1+01601+01421101911ADDAA106000091GF106991061021004501001001KA1240N+01501MA1999999092061MD1999999-0101REMSYN076AAXX  24124 83339 32497 61411 10160 20142 39206 40191 86200 333 20150 59010;EQDQ01  00002PRCP06
0167833390999992005062418004-14050-042617FM-12+088299999V0200901N002112200019N0100001N1+02311+01351101671ADDAA106000091GF105991041021004501001041MA1999999091771MD1999999-0061REMSYN070AAXX  24184 83339 32497 50904 10231 20135 39177 40167 84204 333 59006;EQDQ01  00002PRCP06
0198833390999992005062500004-14050-042617FM-12+088299999V0201401N002611050019N0020001N1+01961+01441101721ADDAA106000091GF105991021011004501031011KA1240M+02381MA1999999091921MD1999999-0131REMSYN088AAXX  25004 83339 32495 51405 10196 20144 39192 40172 82131 333 10238 29072 55072 59013;EQDQ01  00002PRCP06
0186833390999992005062512004-14050-042617FM-12+088299999V0200901N004611050019N0100001N1+01841+01431101731ADDAA106000091GF105991021011004501031011KA1240N+01601MA1999999091971MD1999999-0091REMSYN076AAXX  25124 83339 32497 50909 10184 20143 39197 40173 82131 333 20160 59009;EQDQ01  00002PRCP06
0167833390999992005062518004-14050-042617FM-12+088299999V0200901N003110450019N0100001N1+02231+01551101421ADDAA106000091GF108991041021004501021999MA1999999091721MD1999999-0051REMSYN070AAXX  25184 83339 32497 80906 10223 20155 39172 40142 8422/ 333 59005;EQDQ01  00002PRCP06
0185833390999992005062600004-14050-042620FM-12+088299999V0201401N004610042019N0020001N1+01911+01531101661ADDAA106000091GF108991051021004501021999MA1999999091881MD1999999-0041REMSYN088AAXX  26004 83339 32495 81409 10191 20153 39188 40166 8522/ 333 10226 29074 55017 59004;EQDQ01  00002PRCP06
0173833390999992005062612004-14050-042620FM-12+088299999V0201401N006712200019N0100001N1+01811+01471101791ADDAA106000091GF102991021021004501001001MA1999999092001MD1999999+0031REMSYN076AAXX  26124 83339 32497 21413 10181 20147 39200 40179 82200 333 20157 58003;EQDQ01  00002PRCP06
0167833390999992005062618004-14050-042620FM-12+088299999V0200901N005712200019N0100001N1+02411+01541101341ADDAA106000091GF102991021011004501001001MA1999999091671MD1999999+0041REMSYN070AAXX  26184 83339 32497 20911 10241 20154 39167 40134 82100 333 58004;EQDQ01  00002PRCP06
0198833390999992005062700004-14050-042617FM-12+088299999V0201401N004112200019N0020001N1+01941+01591101681ADDAA106000091GF103991031021004501001001KA1240M+02461MA1999999091901MD1999999+0021REMSYN088AAXX  27004 83339 32495 31408 10194 20159 39190 40168 83200 333 10246 29075 55094 58002;EQDQ01  00002PRCP06
0214833390999992005062712004-14050-042617FM-12+088299999V0200901N005110042019N0020001N1+01731+01681101771ADDAA106000091AY121061AY221061GF108991051051004501021999KA1240N+01661MA1999999091981MD1999999-0021MW1401REMSYN082AAXX  27124 83339 31495 80910 10173 20168 39198 40177 74022 8552/ 333 20166 59002;EQDQ01  00002PRCP06
0195833390999992005062718004-14050-042617FM-12+088299999V0201401N003110042019N0100001N1+02331+01641101381ADDAA106000091AY141061AY221061GF105991051021004501001001MA1999999091711MD1999999+0041MW1021REMSYN076AAXX  27184 83339 31497 51406 10233 20164 39171 40138 70242 85200 333 58004;EQDQ01  00002PRCP06
0198833390999992005062800004-14050-042617FM-12+088299999V0201401N004612200019N0020001N1+02011+01661101681ADDAA106000091GF102991021021004501001001KA1240M+02441MA1999999091901MD1999999+0001REMSYN088AAXX  28004 83339 32495 21409 10201 20166 39190 40168 82200 333 10244 29080 55054 58000;EQDQ01  00002PRCP06
0186833390999992005062812004-14050-042617FM-12+088299999V0200901N006710042019N0100001N1+01901+01661101901ADDAA106000091GF105991051021004501001001KA1240N+01701MA1999999092141MD1999999+0161REMSYN076AAXX  28124 83339 32497 50913 10190 20166 39214 40190 85200 333 20170 58016;EQDQ01  00002PRCP06
0167833390999992005062818004-14050-042617FM-12+088299999V0200501N005712200019N0100001N1+02391+01471101531ADDAA106000091GF102991021011004501001001MA1999999091861MD1999999+0151REMSYN070AAXX  28184 83339 32497 20511 10239 20147 39186 40153 82100 333 58015;EQDQ01  00002PRCP06
0208833390999992005062900004-14050-042617FM-12+088299999V0201401N007712200019N0020001N1+01971+01521101781ADDAA106000091GA1001+999999999GF100991001001999999001001KA1240M+02431MA1999999092031MD1999999+0131REMSYN082AAXX  29004 83339 32995 01415 10197 20152 39203 40178 333 10243 29073 55063 58013;EQDQ01  00002PRCP06
0186833390999992005062912004-14050-042617FM-12+088299999V0201401N008210042019N0100001N1+01701+01391101861ADDAA106000091GF106991061021004501001001KA1240N+01451MA1999999092061MD1999999-0081REMSYN076AAXX  29124 83339 32497 61416 10170 20139 39206 40186 86200 333 20145 59008;EQDQ01  00002PRCP06
0167833390999992005062918004-14050-042617FM-12+088299999V0200901N006712200019N0100001N1+02391+01411101481ADDAA106000091GF103991031021004501001001MA1999999091771MD1999999+0091REMSYN070AAXX  29184 83339 32497 30913 10239 20141 39177 40148 83200 333 58009;EQDQ01  00002PRCP06
0198833390999992005063000004-14050-042617FM-12+088299999V0201401N006210042019N0020001N1+01941+01491101661ADDAA106000091GF106991061021004501001001KA1240M+02481MA1999999091961MD1999999-0071REMSYN088AAXX  30004 83339 32495 61412 10194 20149 39196 40166 86200 333 10248 29072 55099 59007;EQDQ01  00002PRCP06
0186833390999992005063012004-14050-042617FM-12+088299999V0201401N005110042019N0100001N1+01741+01431101891ADDAA106000091GF106991061021004501001001KA1240N+01541MA1999999092091MD1999999+0031REMSYN076AAXX  30124 83339 32497 61410 10174 20143 39209 40189 86200 333 20154 58003;EQDQ01  00002PRCP06
0167833390999992005063018004-14050-042617FM-12+088299999V0200901N005110042019N0100001N1+02231+01451101561ADDAA106000091GF108991051021004501021999MA1999999091811MD1999999+0041REMSYN070AAXX  30184 83339 32497 80910 10223 20145 39181 40156 8522/ 333 58004;EQDQ01  00002PRCP06
0198833390999992005070100004-14050-042617FM-12+088299999V0201401N003610042019N0020001N1+01931+01611101721ADDAA106000091GF108991061021004501021999KA1240M+02281MA1999999091941MD1999999-0021REMSYN088AAXX  01004 83339 32495 81407 10193 20161 39194 40172 8622/ 333 10228 29076 55020 59002;EQDQ01  00002PRCP06
0190833390999992005070112004-14050-042617FM-12+088299999V0200901N005110042019N0020001N1+01731+01591101861ADDAY161061AY221061GF108991051021004501021999KA1240N+01621MA1999999092061MD1999999-0031MW1401REMSYN088AAXX  01124 83339 21495 80910 10173 20159 39206 40186 74062 8522/ 333 20162 59003 60024;
0195833390999992005070118004-14050-042617FM-12+088299999V0200501N003612200019N0100001N1+02391+01351101631ADDAA106000091AY141061AY221061GF103991031021004501001001MA1999999091801MD1999999-0011MW1021REMSYN076AAXX  01184 83339 31497 30507 10239 20135 39180 40163 70242 83200 333 59001;EQDQ01  00002PRCP06
0192833390999992005070200004-14050-042617FM-12+088299999V0209999C000012200019N0020001N1+01991+01271101811ADDAA106000091GF100991001001999999001001KA1240M+02441MA1999999092021MD1999999+0081REMSYN082AAXX  02004 83339 32995 00000 10199 20127 39202 40181 333 10244 29067 55066 58008;EQDQ01  00002PRCP06
0186833390999992005070212004-14050-042617FM-12+088299999V0200901N003612200019N0100001N1+01851+01431101941ADDAA106000091GF102991021011004501001001KA1240N+01471MA1999999092171MD1999999+0111REMSYN076AAXX  02124 83339 32497 20907 10185 20143 39217 40194 82100 333 20147 58011;EQDQ01  00002PRCP06
0161833390999992005070218004-14050-042617FM-12+088299999V0200901N005112200019N0100001N1+02501+01221101491ADDAA106000091GF100991001001999999001001MA1999999091811MD1999999+0011REMSYN064AAXX  02184 83339 32497 00910 10250 20122 39181 40149 333 58001;EQDQ01  00002PRCP06
0179833390999992005070300004-14050-042620FM-12+088299999V0201401N005112200019N0020001N1+02041+01361101811ADDAA106000091GF100991001001999999001001MA1999999092051MD1999999+0031REMSYN082AAXX  03004 83339 32995 01410 10204 20136 39205 40181 333 10254 29063 55101 58003;EQDQ01  00002PRCP06
0173833390999992005070312004-14050-042620FM-12+088299999V0201401N005710042019N0100001N1+01761+01491101991ADDAA106000091GF105991051021004501001001MA1999999092201MD1999999+0031REMSYN076AAXX  03124 83339 32497 51411 10176 20149 39220 40199 85200 333 20156 58003;EQDQ01  00002PRCP06
0161833390999992005070318004-14050-042620FM-12+088299999V0200901N004112200019N0100001N1+02491+01291101451ADDAA106000091GF100991001001999999001001MA1999999091791MD1999999-0021REMSYN064AAXX  03184 83339 32497 00908 10249 20129 39179 40145 333 59002;EQDQ01  00002PRCP06
0192833390999992005070400004-14050-042617FM-12+088299999V0209999C000012200019N0100001N1+02001+01231101741ADDAA106000091GF100991001001999999001001KA1240M+02531MA1999999091971MD1999999-0081REMSYN082AAXX  04004 83339 32997 00000 10200 20123 39197 40174 333 10253 29063 55101 59008;EQDQ01  00002PRCP06
0186833390999992005070412004-14050-042617FM-12+088299999V0201401N002610042019N0100001N1+01741+01501101821ADDAA106000091GF106991061021004501001001KA1240N+01571MA1999999092031MD1999999-0171REMSYN076AAXX  04124 83339 32497 61405 10174 20150 39203 40182 86200 333 20157 59017;EQDQ01  00002PRCP06
0167833390999992005070418004-14050-042617FM-12+088299999V0200501N002112200019N0100001N1+02411+01151101371ADDAA106000091GF102991021021004501001001MA1999999091701MD1999999-0091REMSYN070AAXX  04184 83339 32497 20504 10241 20115 39170 40137 82200 333 59009;EQDQ01  00002PRCP06
0192833390999992005070500004-14050-042617FM-12+088299999V0201401N002112200019N0020001N1+01931+01081101701ADDAA106000091GF100991001001999999001001KA1240M+02461MA1999999091871MD1999999-0101REMSYN082AAXX  05004 83339 32995 01404 10193 20108 39187 40170 333 10246 29062 55070 59010;EQDQ01  00002PRCP06
0214833390999992005070512004-14050-042617FM-12+088299999V0201401N002610042019N0020001N1+01681+01501101921ADDAA106000091AY121061AY221061GF106991061021004501001001KA1240N+01441MA1999999092091MD1999999+0061MW1401REMSYN082AAXX  05124 83339 31495 61405 10168 20150 39209 40192 74022 86200 333 20144 58006;EQDQ01  00002PRCP06
0195833390999992005070518004-14050-042617FM-12+088299999V0202301N003110042019N0100001N1+02511+01101101431ADDAA106000091AY141061AY221061GF105991051021004501001001MA1999999091731MD1999999+0031MW1021REMSYN076AAXX  05184 83339 31497 52306 10251 20110 39173 40143 70242 85200 333 58003;EQDQ01  00002PRCP06
0214833390999992005070612004-14050-042617FM-12+088299999V0201401N003110042019N0020001N1+01661+01531102021ADDAA106000091AY121061AY221061GF106991061021004501001001KA1240N+01471MA1999999092211MD1999999+0121MW1401REMSYN082AAXX  06124 83339 31495 61406 10166 20153 39221 40202 74022 86200 333 20147 58012;EQDQ01  00002PRCP06
0144833390999992005070618004-14050-042617FM-12+088299999V0200901N003112200019N0100001N1+02531+01191999999ADDAA106000091GF104991999999004501999999REMSYN076AAXX  06184 83339 31497 40906 10253 20119 20152 39185 70242 84200 333 58012;EQDQ01  00002PRCP06
0192833390999992005070700004-14050-042617FM-12+088299999V0201401N001512200019N0020001N1+01951+01191101891ADDAA106000091GF100991001001999999001001KA1240M+02601MA1999999092061MD1999999+0121REMSYN082AAXX  07004 83339 32995 01403 10195 20119 39206 40189 333 10260 29064 55082 58012;EQDQ01  00002PRCP06
0186833390999992005070712004-14050-042617FM-12+088299999V0201401N007712200019N0100001N1+01881+01551102021ADDAA106000091GF104991041021004501001001KA1240N+01631MA1999999092231MD1999999+0021REMSYN076AAXX  07124 83339 32497 41415 10188 20155 39223 40202 84200 333 20163 58002;EQDQ01  00002PRCP06
0167833390999992005070718004-14050-042617FM-12+088299999V0201401N005112200019N0100001N1+02471+01341101581ADDAA106000091GF102991021021004501001001MA1999999091891MD1999999+0041REMSYN070AAXX  07184 83339 32497 21410 10247 20134 39189 40158 82200 333 58004;EQDQ01  00002PRCP06
0186833390999992005070812004-14050-042617FM-12+088299999V0201401N005110042019N0100001N1+01651+01371102141ADDAA106000091GF108991051021004501021999KA1240N+01551MA1999999092311MD1999999+0081REMSYN076AAXX  08124 83339 32497 81410 10165 20137 39231 40214 8522/ 333 20155 58008;EQDQ01  00002PRCP06
0167833390999992005070818004-14050-042617FM-12+088299999V0200901N005112200019N0100001N1+02291+01231101761ADDAA106000091GF102991021011004501001001MA1999999092031MD1999999+0141REMSYN070AAXX  08184 83339 32497 20910 10229 20123 39203 40176 82100 333 58014;EQDQ01  00002PRCP06
0198833390999992005070900004-14050-042617FM-12+088299999V0201401N008710042019N0020001N1+01711+01271102201ADDAA106000091GF106991061021004501001001KA1240M+02321MA1999999092311MD1999999+0201REMSYN088AAXX  09004 83339 32495 61417 10171 20127 39231 40220 86200 333 10232 29071 55066 58020;EQDQ01  00002PRCP06
0186833390999992005070912004-14050-042617FM-12+088299999V0201401N008210042019N0100001N1+01461+01001102391ADDAA106000091GF105991051021004501001001KA1240N+01341MA1999999092441MD1999999+0131REMSYN076AAXX  09124 83339 32497 51416 10146 20100 39244 40239 85200 333 20134 58013;EQDQ01  00002PRCP06
0167833390999992005070918004-14050-042617FM-12+088299999V0201401N005712200019N0100001N1+02131+00931101911ADDAA106000091GF102991021011004501001001MA1999999092081MD1999999+0051REMSYN070AAXX  09184 83339 32497 21411 10213 20093 39208 40191 82100 333 58005;EQDQ01  00002PRCP06
0179833390999992005071000004-14050-042620FM-12+088299999V0201401N006712200019N0020001N1+01641+00981102241ADDAA106000091GF100991001001999999001001MA1999999092281MD1999999-0031REMSYN082AAXX  10004 83339 32995 01413 10164 20098 39228 40224 333 10218 29063 55088 59003;EQDQ01  00002PRCP06
0173833390999992005071012004-14050-042620FM-12+088299999V0201401N006712200019N0100001N1+01451+01061102291ADDAA106000091GF102991021011004501001001MA1999999092331MD1999999-0111REMSYN076AAXX  10124 83339 32497 21413 10145 20106 39233 40229 82100 333 20121 59011;EQDQ01  00002PRCP06
0161833390999992005071018004-14050-042620FM-12+088299999V0201401N005712200019N0100001N1+02251+01041101711ADDAA106000091GF100991001001999999001001MA1999999091911MD1999999-0171REMSYN064AAXX  10184 83339 32497 01411 10225 20104 39191 40171 333 59017;EQDQ01  00002PRCP06
0192833390999992005071100004-14050-042617FM-12+088299999V0201401N006212200019N0020001N1+01791+00991102081ADDAA106000091GF100991001001999999001001KA1240M+02311MA1999999092151MD1999999-0131REMSYN082AAXX  11004 83339 32995 01412 10179 20099 39215 40208 333 10231 29060 55100 59013;EQDQ01  00002PRCP06
0186833390999992005071112004-14050-042617FM-12+088299999V0201401N005712200019N0100001N1+01711+01271102141ADDAA106000091GF102991021021004501001001KA1240N+01371MA1999999092271MD1999999-0061REMSYN076AAXX  11124 83339 32497 21411 10171 20127 39227 40214 82200 333 20137 59006;EQDQ01  00002PRCP06
0167833390999992005071118004-14050-042617FM-12+088299999V0200901N005712200019N0100001N1+02251+01281101691ADDAA106000091GF102991021011004501001001MA1999999091911MD1999999+0001REMSYN070AAXX  11184 83339 32497 20911 10225 20128 39191 40169 82100 333 58000;EQDQ01  00002PRCP06
0198833390999992005071200004-14050-042617FM-12+088299999V0201401N005712200019N0020001N1+01931+01011101991ADDAA106000091GF104991041021004501001001KA1240M+02301MA1999999092151MD1999999+0001REMSYN088AAXX  12004 83339 32495 41411 10193 20101 39215 40199 84200 333 10230 29068 55102 58000;EQDQ01  00002PRCP06
0190833390999992005071212004-14050-042617FM-12+088299999V0201401N006712200019N0100001N1+01551+01451102101ADDAY161061AY221061GF104991041021004501001001KA1240N+01471MA1999999092241MD1999999-0031MW1021REMSYN088AAXX  12124 83339 21497 41413 10155 20145 39224 40210 70262 84200 333 20147 59003 60044;
0167833390999992005071218004-14050-042617FM-12+088299999V0201401N006712200019N0100001N1+02261+01231101691ADDAA106000091GF104991041021004501001001MA1999999091931MD1999999+0021REMSYN070AAXX  12184 83339 32497 41413 10226 20123 39193 40169 84200 333 58002;EQDQ01  00002PRCP06
0198833390999992005071300004-14050-042617FM-12+088299999V0201401N004112200019N0020001N1+01791+01311102031ADDAA106000091GF102991021011004501001001KA1240M+02321MA1999999092141MD1999999-0011REMSYN088AAXX  13004 83339 32495 21408 10179 20131 39214 40203 82100 333 10232 29073 55074 59001;EQDQ01  00002PRCP06
0186833390999992005071312004-14050-042617FM-12+088299999V0201401N006710042019N0100001N1+01551+01411102061ADDAA106000091GF106991061021004501001001KA1240N+01481MA1999999092161MD1999999-0081REMSYN076AAXX  13124 83339 32497 61413 10155 20141 39216 40206 86200 333 20148 59008;EQDQ01  00002PRCP06
0167833390999992005071318004-14050-042617FM-12+088299999V0201401N005712200019N0100001N1+02191+01111101581ADDAA106000091GF102991021011004501001001MA1999999091831MD1999999-0101REMSYN070AAXX  13184 83339 32497 21411 10219 20111 39183 40158 82100 333 59010;EQDQ01  00002PRCP06
0198833390999992005071400004-14050-042617FM-12+088299999V0201401N006712200019N0020001N1+01731+01101101911ADDAA106000091GF102991021011004501001001KA1240M+02281MA1999999092031MD1999999-0111REMSYN088AAXX  14004 83339 32495 21413 10173 20110 39203 40191 82100 333 10228 29068 55079 59011;EQDQ01  00002PRCP06
0186833390999992005071412004-14050-042617FM-12+088299999V0201401N005112200019N0100001N1+01611+01121102011ADDAA106000091GF103991021011004501001011KA1240N+01301MA1999999092121MD1999999-0041REMSYN076AAXX  14124 83339 32497 31410 10161 20112 39212 40201 82101 333 20130 59004;EQDQ01  00002PRCP06
0167833390999992005071418004-14050-042617FM-12+088299999V0200901N005712200019N0100001N1+02261+01041101551ADDAA106000091GF104991041011004501001001MA1999999091781MD1999999-0051REMSYN070AAXX  14184 83339 32497 40911 10226 20104 39178 40155 84100 333 59005;EQDQ01  00002PRCP06
0198833390999992005071500004-14050-042617FM-12+088299999V0200901N005110042019N0020001N1+01851+01351101871ADDAA106000091GF108991051021004501021999KA1240M+02341MA1999999092031MD1999999+0001REMSYN088AAXX  15004 83339 32495 80910 10185 20135 39203 40187 8522/ 333 10234 29066 55063 58000;EQDQ01  00002PRCP06
0186833390999992005071512004-14050-042617FM-12+088299999V0201401N008210450019N0100001N1+01651+01371101961ADDAA106000091GF106991031021004501021001KA1240N+01431MA1999999092111MD1999999-0011REMSYN076AAXX  15124 83339 32497 61416 10165 20137 39211 40196 83220 333 20143 59001;EQDQ01  00002PRCP06
0199833390999992005071518004-14050-042617FM-12+088299999V0200901N004610042019N0100001N1+02291+01381101521ADDAA106000091GF105991051021004501001001MA1999999999999MD1999999-0011REMSYN070AAXX  15184 83339 32497 50909 10229 20138 30177 40152 85200 333 59001;EQDQ01+101773APOSP Q02  00002PRCP06Q03 101773APOSP 
0202833390999992005071600004-14050-042617FM-12+088299999V0201401N004110042019N0020001N1+01651+01551101901ADDAY121061AY221061GF108991051021004501021999KA1240M+02341MA1999999092021MD1999999-0011MW1501REMSYN100AAXX  16004 83339 21495 81408 10165 20155 39202 40190 75022 8522/ 333 10234 29082 55044 59001 69901;
0190833390999992005071612004-14050-042617FM-12+088299999V0201401N005112200019N0100001N1+01731+01371102031ADDAY161061AY221061GF102991021011004501001001KA1240N+01461MA1999999092151MD1999999+0041MW1021REMSYN088AAXX  16124 83339 21497 21410 10173 20137 39215 40203 70262 82100 333 20146 58004 60014;
0167833390999992005071618004-14050-042617FM-12+088299999V0200501N002612200019N0100001N1+02361+01231101491ADDAA106000091GF102991021011004501001001MA1999999091761MD1999999-0011REMSYN070AAXX  16184 83339 32497 20505 10236 20123 39176 40149 82100 333 59001;EQDQ01  00002PRCP06
0179833390999992005071700004-14050-042620FM-12+088299999V0201401N003112200019N0020001N1+01951+01191101661ADDAA106000091GF100991001001999999001001MA1999999091881MD1999999-0041REMSYN082AAXX  17004 83339 32995 01406 10195 20119 39188 40166 333 10246 29062 55105 59004;EQDQ01  00002PRCP06
0201833390999992005071712004-14050-042620FM-12+088299999V0200901N001010450019N0020001N1+01571+01451101921ADDAA106000091AY121061AY221061GF108991041021004501021999MA1999999092071MD1999999-0081MW1401REMSYN082AAXX  17124 83339 31495 80902 10157 20145 39207 40192 74022 8422/ 333 20124 59008;EQDQ01  00002PRCP06
0195833390999992005071718004-14050-042620FM-12+088299999V0200501N001512200019N0100001N1+02631+01251101361ADDAA106000091AY141061AY221061GF102991021011004501001001MA1999999091661MD1999999-0101MW1021REMSYN076AAXX  17184 83339 31497 20503 10263 20125 39166 40136 70242 82100 333 59010;EQDQ01  00002PRCP06
0192833390999992005071800004-14050-042617FM-12+088299999V0201801N000512200019N0020001N1+02061+01231101621ADDAA106000091GF100991001001999999001001KA1240M+02671MA1999999091831MD1999999-0051REMSYN082AAXX  18004 83339 32995 01801 10206 20123 39183 40162 333 10267 29063 55072 59005;EQDQ01  00002PRCP06
0180833390999992005071812004-14050-042617FM-12+088299999V0203201N001012200019N0100001N1+01821+01451101631ADDAA106000091GF100991001001999999001001KA1240N+01401MA1999999091951MD1999999-0121REMSYN070AAXX  18124 83339 32997 03202 10182 20145 39195 40163 333 20140 59012;EQDQ01  00002PRCP06
0161833390999992005071818004-14050-042617FM-12+088299999V0201401N003112200019N0100001N1+02671+00761101131ADDAA106000091GF100991001001999999001001MA1999999091581MD1999999-0081REMSYN064AAXX  18184 83339 32997 01406 10267 20076 39158 40113 333 59008;EQDQ01  00002PRCP06
0192833390999992005071900004-14050-042617FM-12+088299999V0201401N002612200019N0020001N1+02171+00921101481ADDAA106000091GF100991001001999999001001KA1240M+02801MA1999999091741MD1999999-0091REMSYN082AAXX  19004 83339 32995 01405 10217 20092 39174 40148 333 10280 29049 55105 59009;EQDQ01  00002PRCP06
0180833390999992005071912004-14050-042617FM-12+088299999V0201401N003112200019N0100001N1+01991+01521101601ADDAA106000091GF100991001001999999001001KA1240N+01441MA1999999091961MD1999999+0011REMSYN070AAXX  19124 83339 32997 01406 10199 20152 39196 40160 333 20144 58001;EQDQ01  00002PRCP06
0131833390999992005071918004-14050-042617FM-12+088299999V0201401N004112200019N0100001N1+02691+00781101341ADDGF100991001001999999001001MA1999999091691MD1999999+0111REMSYN064AAXX  19184 83339 32997 01408 10269 20078 39169 40134 333 58011;
0162833390999992005072000004-14050-042617FM-12+088299999V0201401N002112200019N0020001N1+02151+00801101611ADDGF100991001001999999001001KA1240M+02781MA1999999091891MD1999999+0151REMSYN082AAXX  20004 83339 32995 01404 10215 20080 39189 40161 333 10278 29048 55108 58015;
0184833390999992005072012004-14050-042617FM-12+088299999V0201401N007710042019N0100001N1+01691+01461101731ADDAY101061AY201061GF106991061021004501001001KA1240N+01541MA1999999092061MD1999999+0101MW1101REMSYN082AAXX  20124 83339 31497 61415 10169 20146 39206 40173 71000 86200 333 20154 58010;
0137833390999992005072018004-14050-042617FM-12+088299999V0201401N005712200019N0100001N1+02591+00881101451ADDGF102991021021004501001001MA1999999091711MD1999999+0021REMSYN070AAXX  20184 83339 32497 21411 10259 20088 39171 40145 82200 333 58002;
0196833390999992005072100004-14050-042617FM-12+088299999V0201401N006710042019N0020001N1+01811+01801101791ADDAY101061AY201061GF108991081051004501999999KA1240M+02661MA1999999091951MD1999999+0061MW1101REMSYN094AAXX  21004 83339 31495 81413 10181 20180 39195 40179 71000 885// 333 10266 29079 55070 58006;
0201833390999992005072112004-14050-042617FM-12+088299999V0201401N010810042019N0040001N1+01751+01561101891ADDAA124000591AY161061AY261061GF108991081051004501999999KA1240N+01601MA1999999092061MD1999999+0001MW1101REMSYN088AAXX  21124 83339 21496 81421 10175 20156 39206 40189 71066 885// 333 20160 58000 69964;
0137833390999992005072118004-14050-042617FM-12+088299999V0201401N007210042019N0100001N1+02271+01231101751ADDGF105991051021004501001001MA1999999091901MD1999999+0191REMSYN070AAXX  21184 83339 32497 51414 10227 20123 39190 40175 85200 333 58019;
0196833390999992005072200004-14050-042617FM-12+088299999V0201401N008712200019N0020001N1+01871+01511101881ADDAY101061AY201061GF104991041021004501001001KA1240M+02341MA1999999092051MD1999999+0101MW1101REMSYN094AAXX  22004 83339 31495 41417 10187 20151 39205 40188 71000 84200 333 10234 29081 55035 58010;
0201833390999992005072212004-14050-042617FM-12+088299999V0201401N007210042019N0040001N1+01711+01531102011ADDAA124000591AY161061AY261061GF108991081051004501999999KA1240N+01541MA1999999092221MD1999999+0161MW1101REMSYN088AAXX  22124 83339 21496 81414 10171 20153 39222 40201 71066 885// 333 20154 58016 69954;
0137833390999992005072218004-14050-042617FM-12+088299999V0200901N004612200019N0100001N1+02351+01271101831ADDGF102991021021004501001001MA1999999091941MD1999999+0041REMSYN070AAXX  22184 83339 32497 20909 10235 20127 39194 40183 82200 333 58004;
0168833390999992005072300004-14050-042617FM-12+088299999V0201401N001510042019N0020001N1+01951+01241101941ADDGF105991051021004501001001KA1240M+02461MA1999999092091MD1999999+0041REMSYN088AAXX  23004 83339 32495 51403 10195 20124 39209 40194 85200 333 10246 29069 55054 58004;
0201833390999992005072312004-14050-042617FM-12+088299999V0201401N006210042019N0040001N1+01671+01661101961ADDAA124003091AY161061AY261061GF108991081051004501999999KA1240N+01621MA1999999092191MD1999999-0031MW1501REMSYN088AAXX  23124 83339 21496 81412 10167 20166 39219 40196 75066 885// 333 20162 59003 60034;
0165833390999992005072318004-14050-042617FM-12+088299999V0200901N006210042019N0100001N1+02291+01411101771ADDAY151061AY201061GF106991061021004501001001MA1999999091921MD1999999-0021MW1021REMSYN076AAXX  23184 83339 31497 60912 10229 20141 39192 40177 70250 86200 333 59002;
0155833390999992005072400004-14050-042620FM-12+088299999V0201401N004610042019N0020001N1+02031+01321101951ADDGF106991061021004501001001MA1999999092081MD1999999-0011REMSYN088AAXX  24004 83339 32495 61409 10203 20132 39208 40195 86200 333 10234 29067 55030 59001;
0171833390999992005072412004-14050-042620FM-12+088299999V0201401N005110042019N0040001N1+01571+01561101971ADDAY101061AY201061GF108991081051004501999999MA1999999092241MD1999999+0051MW1501REMSYN082AAXX  24124 83339 31496 81410 10157 20156 39224 40197 75000 885// 333 20150 58005;
0165833390999992005072418004-14050-042620FM-12+088299999V0200901N003610042019N0100001N1+02191+01591101871ADDAY151061AY201061GF107991061021004501021999MA1999999091991MD1999999+0071MW1021REMSYN076AAXX  24184 83339 31497 70907 10219 20159 39199 40187 70250 8622/ 333 58007;
0155833390999992005072500004-14050-042620FM-12+088299999V0201401N006210042019N0020001N1+01971+01501102081ADDGF105991051021004501001001MA1999999092151MD1999999+0071REMSYN088AAXX  25004 83339 32495 51412 10197 20150 39215 40208 85200 333 10234 29077 55043 58007;
0156833390999992005072512004-14050-042617FM-12+088299999V0200901N002610042019N0100001N1+01631+01511102141ADDGF108991051021004501021999KA1240N+01541MA1999999092291MD1999999+0051REMSYN076AAXX  25124 83339 32497 80905 10163 20151 39229 40214 8522/ 333 20154 58005;
0137833390999992005072518004-14050-042617FM-12+088299999V0201401N006212200019N0100001N1+02331+01271101701ADDGF103991031011004501001001MA1999999091951MD1999999-0041REMSYN070AAXX  25184 83339 32497 31412 10233 20127 39195 40170 83100 333 59004;
0162833390999992005072600004-14050-042617FM-12+088299999V0201401N002612200019N0020001N1+01941+01311101991ADDGF100991001001999999001001KA1240M+02381MA1999999092151MD1999999+0001REMSYN082AAXX  26004 83339 32995 01405 10194 20131 39215 40199 333 10238 29064 55060 58000;
0156833390999992005072612004-14050-042617FM-12+088299999V0200501N002112200019N0100001N1+01941+01591102001ADDGF104991041021004501001001KA1240N+01581MA1999999092231MD1999999-0061REMSYN076AAXX  26124 83339 32497 40504 10194 20159 39223 40200 84200 333 20158 59006;
0131833390999992005072618004-14050-042617FM-12+088299999V0200901N005112200019N0100001N1+02631+01171101441ADDGF100991001001999999001001MA1999999091821MD1999999-0131REMSYN064AAXX  26184 83339 32997 00910 10263 20117 39182 40144 333 59013;
0162833390999992005072700004-14050-042617FM-12+088299999V0200501N001512200019N0020001N1+02141+00991101731ADDGF100991001001999999001001KA1240M+02681MA1999999092031MD1999999-0121REMSYN082AAXX  27004 83339 32995 00503 10214 20099 39203 40173 333 10268 29054 55091 59012;
0156833390999992005072712004-14050-042617FM-12+088299999V0201401N006712200019N0100001N1+01871+01451102011ADDGF104991041021004501001001KA1240N+01591MA1999999092251MD1999999+0021REMSYN076AAXX  27124 83339 32497 41413 10187 20145 39225 40201 84200 333 20159 58002;
0156833390999992005072718004-14050-042617FM-12+088299999V0200901N005112200019N0100001N1+02491+01121101621ADDGF102991001001999999001011MA1999999091961MD1999999+0141REMSYN070AAXX  27184 83339 32897 20910 10249 20112 39196 40162 80001 333 58014;EQDQ01+022502SCOLCB
0162833390999992005072800004-14050-042617FM-12+088299999V0201401N003112200019N0020001N1+01991+01121101851ADDGF100991001001999999001001KA1240M+02551MA1999999092091MD1999999+0061REMSYN082AAXX  28004 83339 32995 01406 10199 20112 39209 40185 333 10255 29056 55097 58006;
0156833390999992005072812004-14050-042617FM-12+088299999V0201401N006210042019N0100001N1+01831+01491102071ADDGF105991051021004501001001KA1240N+01561MA1999999092271MD1999999+0021REMSYN076AAXX  28124 83339 32497 51412 10183 20149 39227 40207 85200 333 20156 58002;
0137833390999992005072818004-14050-042617FM-12+088299999V0200901N006712200019N0100001N1+02511+01211101641ADDGF102991021011004501001001MA1999999091961MD1999999+0001REMSYN070AAXX  28184 83339 32497 20913 10251 20121 39196 40164 82100 333 58000;
0162833390999992005072900004-14050-042617FM-12+088299999V0209999C000012200019N0020001N1+01981+01211101961ADDGF100991001001999999001001KA1240M+02541MA1999999092171MD1999999+0081REMSYN082AAXX  29004 83339 32995 00000 10198 20121 39217 40196 333 10254 29060 55088 58008;
0156833390999992005072912004-14050-042617FM-12+088299999V0200901N006210042019N0100001N1+01811+01551102061ADDGF106991061021004501001001KA1240N+01561MA1999999092261MD1999999-0011REMSYN076AAXX  29124 83339 32497 60912 10181 20155 39226 40206 86200 333 20156 59001;
0137833390999992005072918004-14050-042617FM-12+088299999V0200901N004112200019N0100001N1+02501+01191101611ADDGF102991021011004501001001MA1999999091921MD1999999-0041REMSYN070AAXX  29184 83339 32497 20908 10250 20119 39192 40161 82100 333 59004;
0168833390999992005073000004-14050-042617FM-12+088299999V0200901N005112200019N0020001N1+01891+01531101971ADDGF103991031021004501001001KA1240M+02551MA1999999092161MD1999999-0011REMSYN088AAXX  30004 83339 32495 30910 10189 20153 39216 40197 83200 333 10255 29072 55093 59001;
0143833390999992005073012004-14050-042620FM-12+088299999V0201401N004612200019N0100001N1+01871+01511101921ADDGF104991021021004501001011MA1999999092231MD1999999-0031REMSYN076AAXX  30124 83339 32497 41409 10187 20151 39223 40192 82201 333 20160 59003;
0131833390999992005073018004-14050-042620FM-12+088299999V0200901N007212200019N0100001N1+02431+01171101571ADDGF100991001001999999001001MA1999999091851MD1999999-0071REMSYN064AAXX  30184 83339 32497 00914 10243 20117 39185 40157 333 59007;
0149833390999992005073100004-14050-042620FM-12+088299999V0201401N004112200019N0020001N1+02001+01271101831ADDGF100991001001999999001001MA1999999092071MD1999999-0091REMSYN082AAXX  31004 83339 32995 01408 10200 20127 39207 40183 333 10250 29062 55089 59009;
0143833390999992005073112004-14050-042620FM-12+088299999V0201401N005112200019N0100001N1+01781+01351101991ADDGF104991041021004501001001MA1999999092201MD1999999-0031REMSYN076AAXX  31124 83339 32497 41410 10178 20135 39220 40199 84200 333 20159 59003;
0131833390999992005073118004-14050-042617FM-12+088299999V0201401N005712200019N0100001N1+02411+01081101511ADDGF100991001001999999001001MA1999999091801MD1999999-0051REMSYN064AAXX  31184 83339 32497 01411 10241 20108 39180 40151 333 59005;
0178833390999992005080100004-14050-042617FM-12+088299999V0201401N005112200019N0020001N1+01841+00921101891ADDGA1001+999999999GF100991001001999999001001KA1240M+02481MA1999999092061MD1999999-0011REMSYN082AAXX  01004 83339 32995 01410 10184 20092 39206 40189 333 10248 29057 55067 59001;
0156833390999992005080112004-14050-042617FM-12+088299999V0201401N005710042019N0100001N1+01691+01311102101ADDGF106991061021004501001001KA1240N+01361MA1999999092241MD1999999+0041REMSYN076AAXX  01124 83339 32497 61411 10169 20131 39224 40210 86200 333 20136 58004;
0137833390999992005080118004-14050-042617FM-12+088299999V0201401N007712200019N0100001N1+02351+01241101861ADDGF104991041021004501001001MA1999999091941MD1999999+0141REMSYN070AAXX  01184 83339 32497 41415 10235 20124 39194 40186 84200 333 58014;
0196833390999992005080200004-14050-042617FM-12+088299999V0201401N004612200019N0020001N1+01791+01481101901ADDAY101061AY201061GF102991021021004501001001KA1240M+02401MA1999999092051MD1999999-0011MW1101REMSYN094AAXX  02004 83339 31495 21409 10179 20148 39205 40190 71000 82200 333 10240 29073 55070 59001;
0184833390999992005080212004-14050-042617FM-12+088299999V0201401N005710042019N0040001N1+01651+01291101951ADDAY101061AY201061GF108991081051004501999999KA1240N+01461MA1999999092121MD1999999-0121MW1101REMSYN082AAXX  02124 83339 31496 81411 10165 20129 39212 40195 71000 885// 333 20146 59012;
0137833390999992005080218004-14050-042617FM-12+088299999V0200901N006212200019N0100001N1+02171+00951101901ADDGF104991041021004501001001MA1999999091951MD1999999+0011REMSYN070AAXX  02184 83339 32497 40912 10217 20095 39195 40190 84200 333 58001;
0178833390999992005080300004-14050-042617FM-12+088299999V0201401N007712200019N0020001N1+01831+00731101931ADDGA1001+999999999GF100991001001999999001001KA1240M+02341MA1999999092081MD1999999+0031REMSYN082AAXX  03004 83339 32995 01415 10183 20073 39208 40193 333 10234 29053 55038 58003;
0156833390999992005080312004-14050-042617FM-12+088299999V0201401N007210042019N0100001N1+01711+01271101971ADDGF106991061021004501001001KA1240N+01711MA1999999092161MD1999999+0041REMSYN076AAXX  03124 83339 32497 61414 10171 20127 39216 40197 86200 333 20171 58004;
0137833390999992005080318004-14050-042617FM-12+088299999V0201401N006210042019N0100001N1+02251+01181101671ADDGF105991051021004501001001MA1999999091911MD1999999-0041REMSYN070AAXX  03184 83339 32497 51412 10225 20118 39191 40167 85200 333 59004;
0196833390999992005080400004-14050-042617FM-12+088299999V0201401N005712200019N0020001N1+01811+01451101941ADDAY101061AY201061GF102991021021004501001001KA1240M+02441MA1999999092091MD1999999+0011MW1101REMSYN094AAXX  04004 83339 31495 21411 10181 20145 39209 40194 71000 82200 333 10244 29084 55068 58001;
0201833390999992005080412004-14050-042617FM-12+088299999V0201401N004610042019N0100001N1+01691+01391102131ADDAA124001091AY161061AY261061GF106991061021004501001001KA1240N+01501MA1999999092301MD1999999+0141MW1101REMSYN088AAXX  04124 83339 21497 61409 10169 20139 39230 40213 71066 86200 333 20150 58014 60014;
0137833390999992005080418004-14050-042617FM-12+088299999V0200501N007212200019N0100001N1+02431+00601101881ADDGF103991031021004501001001MA1999999091981MD1999999+0071REMSYN070AAXX  04184 83339 32497 30514 10243 20060 39198 40188 83200 333 58007;
0168833390999992005080500004-14050-042617FM-12+088299999V0201401N006212200019N0020001N1+01891+01431101911ADDGF102991021021004501001001KA1240M+02521MA1999999092111MD1999999+0021REMSYN088AAXX  05004 83339 32495 21412 10189 20143 39211 40191 82200 333 10252 29078 55064 58002;
0156833390999992005080512004-14050-042617FM-12+088299999V0201401N007710042019N0100001N1+01651+01261102081ADDGF106991061021004501001001KA1240N+01361MA1999999092281MD1999999-0021REMSYN076AAXX  05124 83339 32497 61415 10165 20126 39228 40208 86200 333 20136 59002;
0137833390999992005080518004-14050-042617FM-12+088299999V0200501N007212200019N0100001N1+02371+00641101931ADDGF102991021021004501001001MA1999999092001MD1999999+0021REMSYN070AAXX  05184 83339 32497 20514 10237 20064 39200 40193 82200 333 58002;
0178833390999992005080600004-14050-042617FM-12+088299999V0200901N003112200019N0020001N1+01891+00421102001ADDGA1001+999999999GF100991001001999999001001KA1240M+02441MA1999999092111MD1999999+0001REMSYN082AAXX  06004 83339 32995 00906 10189 20042 39211 40200 333 10244 29043 55094 58000;
0201833390999992005080612004-14050-042617FM-12+088299999V0200901N007710042019N0040001N1+01591+01581102031ADDAA124003091AY161061AY261061GF108991081051004501999999KA1240N+01541MA1999999092241MD1999999-0041MW1501REMSYN088AAXX  06124 83339 21496 80915 10159 20158 39224 40203 75066 885// 333 20154 59004 60034;
0165833390999992005080618004-14050-042617FM-12+088299999V0201401N005712200019N0100001N1+02291+00851101711ADDAY151061AY201061GF102991021021004501001001MA1999999091911MD1999999+0041MW1021REMSYN076AAXX  06184 83339 31497 21411 10229 20085 39191 40171 70250 82200 333 58004;
0171833390999992005080712004-14050-042620FM-12+088299999V0201401N005110042019N0100001N1+01691+01371102041ADDAY101061AY201061GF106991061021004501001001MA1999999092201MD1999999-0041MW1101REMSYN082AAXX  07124 83339 31497 61410 10169 20137 39220 40204 71000 86200 333 20142 59004;
0137833390999992005080718004-14050-042620FM-12+088299999V0201401N003112200019N0100001N1+02331+01061101811ADDGF102991021021004501001001MA1999999091921MD1999999-0041REMSYN070AAXX  07184 83339 32497 21406 10233 20106 39192 40181 82200 333 59004;
0178833390999992005080800004-14050-042617FM-12+088299999V0201401N005712200019N0020001N1+02071+00981101871ADDGA1001+999999999GF100991001001999999001001KA1240M+02401MA1999999092011MD1999999-0101REMSYN082AAXX  08004 83339 32995 01411 10207 20098 39201 40187 333 10240 29056 55090 59010;
0156833390999992005080812004-14050-042617FM-12+088299999V0201401N005112200019N0100001N1+01771+01391101961ADDGF103991031011004501001001KA1240N+01521MA1999999092171MD1999999-0031REMSYN076AAXX  08124 83339 32497 31410 10177 20139 39217 40196 83100 333 20152 59003;
0137833390999992005080818004-14050-042617FM-12+088299999V0200501N005112200019N0100001N1+02431+00991101431ADDGF103991031011004501001001MA1999999091751MD1999999-0171REMSYN070AAXX  08184 83339 32497 30510 10243 20099 39175 40143 83100 333 59017;
0178833390999992005080900004-14050-042617FM-12+088299999V0201401N001012200019N0020001N1+02001+00961101671ADDGA1001+999999999GF100991001001999999001001KA1240M+02501MA1999999091911MD1999999-0101REMSYN082AAXX  09004 83339 32995 01402 10200 20096 39191 40167 333 10250 29055 55102 59010;
0156833390999992005080912004-14050-042617FM-12+088299999V0201401N004612200019N0100001N1+01851+01531101871ADDGF104991041021004501001001KA1240N+01531MA1999999092091MD1999999-0081REMSYN076AAXX  09124 83339 32497 41409 10185 20153 39209 40187 84200 333 20153 59008;
0137833390999992005080918004-14050-042617FM-12+088299999V0201401N003612200019N0100001N1+02471+01401101411ADDGF103991031021004501001001MA1999999091741MD1999999-0011REMSYN070AAXX  09184 83339 32497 31407 10247 20140 39174 40141 83200 333 59001;
0178833390999992005081000004-14050-042617FM-12+088299999V0201401N005712200019N0020001N1+01931+01621101671ADDGA1001+999999999GF100991001001999999001001KA1240M+02521MA1999999091911MD1999999+0001REMSYN082AAXX  10004 83339 32995 01411 10193 20162 39191 40167 333 10252 29074 55093 58000;
0156833390999992005081012004-14050-042617FM-12+088299999V0201401N003110042019N0100001N1+01791+01541101901ADDGF106991061021004501001001KA1240N+01611MA1999999092101MD1999999+0011REMSYN076AAXX  10124 83339 32497 61406 10179 20154 39210 40190 86200 333 20161 58001;
0137833390999992005081018004-14050-042617FM-12+088299999V0200501N001510042019N0100001N1+02671+01451101321ADDGF106991061021004501001001MA1999999091691MD1999999-0051REMSYN070AAXX  10184 83339 32497 60503 10267 20145 39169 40132 86200 333 59005;
0178833390999992005081100004-14050-042617FM-12+088299999V0200901N003112200019N0020001N1+02151+01431101681ADDGA1001+999999999GF100991001001999999001001KA1240M+02761MA1999999091941MD1999999+0031REMSYN082AAXX  11004 83339 32995 00906 10215 20143 39194 40168 333 10276 29062 55068 58003;
0156833390999992005081112004-14050-042617FM-12+088299999V0201401N002110042019N0100001N1+01901+01601101871ADDGF106991061021004501001001KA1240N+01681MA1999999092131MD1999999+0031REMSYN076AAXX  11124 83339 32497 61404 10190 20160 39213 40187 86200 333 20168 58003;
0137833390999992005081118004-14050-042617FM-12+088299999V0201401N003112200019N0100001N1+02771+01331101331ADDGF104991021011004501001041MA1999999091741MD1999999+0051REMSYN070AAXX  11184 83339 32497 41406 10277 20133 39174 40133 82104 333 58005;
0178833390999992005081200004-14050-042617FM-12+088299999V0201401N003112200019N0020001N1+02211+01251101611ADDGA1001+999999999GF100991001001999999001001KA1240M+02801MA1999999091921MD1999999-0021REMSYN082AAXX  12004 83339 32995 01406 10221 20125 39192 40161 333 10280 29058 55076 59002;
0156833390999992005081212004-14050-042617FM-12+088299999V0201401N004112200019N0100001N1+01971+01611101661ADDGF102991011011004501001011KA1240N+01551MA1999999091981MD1999999-0151REMSYN076AAXX  12124 83339 32497 21408 10197 20161 39198 40166 81101 333 20155 59015;
0137833390999992005081218004-14050-042617FM-12+088299999V0200901N003112200019N0100001N1+02831+01061101071ADDGF102991011011004501001011MA1999999091531MD1999999-0211REMSYN070AAXX  12184 83339 32497 20906 10283 20106 39153 40107 81101 333 59021;
0178833390999992005081300004-14050-042617FM-12+088299999V0200901N003612200019N0020001N1+02251+01521101431ADDGA1001+999999999GF100991001001999999001001KA1240M+02901MA1999999091771MD1999999-0151REMSYN082AAXX  13004 83339 32995 00907 10225 20152 39177 40143 333 10290 29060 55094 59015;
0143833390999992005081312004-14050-042620FM-12+088299999V0201401N003610042019N0100001N1+01871+01591101581ADDGF106991061021004501001001MA1999999091931MD1999999-0051REMSYN076AAXX  13124 83339 32497 61407 10187 20159 39193 40158 86200 333 20170 59005;
0137833390999992005081318004-14050-042620FM-12+088299999V0200901N005112200019N0100001N1+02631+01131101161ADDGF103991011011004501001011MA1999999091561MD1999999+0031REMSYN070AAXX  13184 83339 32497 30910 10263 20113 39156 40116 81101 333 58003;
0155833390999992005081400004-14050-042620FM-12+088299999V0201401N005712200019N0020001N1+02251+01201101401ADDGF104991011011004501001011MA1999999091731MD1999999-0041REMSYN088AAXX  14004 83339 32495 41411 10225 20120 39173 40140 81101 333 10268 29056 55075 59004;
0143833390999992005081412004-14050-042620FM-12+088299999V0201401N005712200019N0100001N1+02051+01521101651ADDGF103991031021004501001001MA1999999091991MD1999999+0061REMSYN076AAXX  14124 83339 32497 31411 10205 20152 39199 40165 83200 333 20166 58006;
0137833390999992005081418004-14050-042620FM-12+088299999V0200501N003612200019N0100001N1+02631+01171101301ADDGF104991011011004501001011MA1999999091691MD1999999+0131REMSYN070AAXX  14184 83339 32497 40507 10263 20117 39169 40130 81101 333 58013;
0165833390999992005081500004-14050-042620FM-12+088299999V0201401N003112200019N0020001N1+02141+01201101631ADDGA1001+999999999GF100991001001999999001001MA1999999091951MD1999999+0221REMSYN082AAXX  15004 83339 32995 01406 10214 20120 39195 40163 333 10266 29055 55098 58022;
0171833390999992005081512004-14050-042620FM-12+088299999V0201401N004610042019N0040001N1+01791+01491101901ADDAY101061AY201061GF108991081051004501999999MA1999999092141MD1999999+0151MW1101REMSYN082AAXX  15124 83339 31496 81409 10179 20149 39214 40190 71000 885// 333 20158 58015;
0137833390999992005081518004-14050-042620FM-12+088299999V0200501N005112200019N0100001N1+02611+00851101461ADDGF102991011021004501001041MA1999999091841MD1999999+0151REMSYN070AAXX  15184 83339 32497 20510 10261 20085 39184 40146 81204 333 58015;
0178833390999992005081600004-14050-042617FM-12+088299999V0201401N005712200019N0020001N1+02231+00971101721ADDGA1001+999999999GF100991001001999999001001KA1240M+02681MA1999999091921MD1999999-0031REMSYN082AAXX  16004 83339 32995 01411 10223 20097 39192 40172 333 10268 29049 55078 59003;
0184833390999992005081612004-14050-042617FM-12+088299999V0201401N004610042019N0040001N1+01911+01621101771ADDAY101061AY201061GF107991061021004501021999KA1240N+01761MA1999999092141MD1999999+0001MW1101REMSYN082AAXX  16124 83339 31496 71409 10191 20162 39214 40177 71000 8622/ 333 20176 58000;
0137833390999992005081618004-14050-042617FM-12+088299999V0201401N006212200019N0100001N1+02471+01321101581ADDGF102991021021004501001001MA1999999091791MD1999999-0051REMSYN070AAXX  16184 83339 32497 21412 10247 20132 39179 40158 82200 333 59005;
0178833390999992005081700004-14050-042617FM-12+088299999V0201401N005112200019N0020001N1+02051+01261101701ADDGA1001+999999999GF100991001001999999001001KA1240M+02541MA1999999091951MD1999999+0031REMSYN082AAXX  17004 83339 32995 01410 10205 20126 39195 40170 333 10254 29064 55071 58003;
0184833390999992005081712004-14050-042617FM-12+088299999V0201401N006710042019N0100001N1+01831+01531101811ADDAY101061AY201061GF106991061021004501001001KA1240N+01601MA1999999092091MD1999999-0051MW1101REMSYN082AAXX  17124 83339 31497 61413 10183 20153 39209 40181 71000 86200 333 20160 59005;
0137833390999992005081718004-14050-042617FM-12+088299999V0201401N006710450019N0100001N1+02491+01101101611ADDGF105991041021004501021001MA1999999091751MD1999999-0041REMSYN070AAXX  17184 83339 32497 51413 10249 20110 39175 40161 84220 333 59004;
0168833390999992005081800004-14050-042617FM-12+088299999V0201401N004110042019N0020001N1+02091+01221101701ADDGF106991051021004501021001KA1240M+02581MA1999999091921MD1999999-0031REMSYN088AAXX  18004 83339 32495 61408 10209 20122 39192 40170 85220 333 10258 29062 55067 59003;
0184833390999992005081812004-14050-042617FM-12+088299999V0201401N006210042019N0100001N1+01891+01531101791ADDAY101061AY201061GF106991061021004501001001KA1240N+01701MA1999999092051MD1999999-0041MW1101REMSYN082AAXX  18124 83339 31497 61412 10189 20153 39205 40179 71000 86200 333 20170 59004;
0137833390999992005081818004-14050-042617FM-12+088299999V0201401N005112200019N0100001N1+02511+01221101601ADDGF103991031021004501001001MA1999999091781MD1999999+0031REMSYN070AAXX  18184 83339 32497 31410 10251 20122 39178 40160 83200 333 58003;
0178833390999992005081900004-14050-042617FM-12+088299999V0201401N007212200019N0020001N1+02011+01321101641ADDGA1001+999999999GF100991001001999999001001KA1240M+02621MA1999999091881MD1999999-0041REMSYN082AAXX  19004 83339 32995 01414 10201 20132 39188 40164 333 10262 29067 55080 59004;
0156833390999992005081912004-14050-042617FM-12+088299999V0201401N008212200019N0100001N1+01831+01351101821ADDGF104991031021004501031001KA1240N+01461MA1999999092101MD1999999+0051REMSYN076AAXX  19124 83339 32497 41416 10183 20135 39210 40182 83230 333 20146 58005;
0137833390999992005081918004-14050-042617FM-12+088299999V0201401N007210042019N0100001N1+02491+00871101671ADDGF106991051021004501031001MA1999999091811MD1999999+0031REMSYN070AAXX  19184 83339 32497 61414 10249 20087 39181 40167 85230 333 58003;
0168833390999992005082000004-14050-042617FM-12+088299999V0201401N006210450019N0020001N1+02131+00881101781ADDGF105991041021004501021001KA1240M+02631MA1999999091991MD1999999+0111REMSYN088AAXX  20004 83339 32495 51412 10213 20088 39199 40178 84220 333 10263 29050 55095 58011;
0156833390999992005082012004-14050-042617FM-12+088299999V0201401N005112200019N0100001N1+01851+01151101841ADDGF102991021021004501001001KA1240N+01441MA1999999092161MD1999999+0061REMSYN076AAXX  20124 83339 32497 21410 10185 20115 39216 40184 82200 333 20144 58006;
0137833390999992005082018004-14050-042617FM-12+088299999V0200501N006212200019N0100001N1+02511+00671101651ADDGF102991021021004501001001MA1999999091791MD1999999-0021REMSYN070AAXX  20184 83339 32497 20512 10251 20067 39179 40165 82200 333 59002;
0155833390999992005082100004-14050-042620FM-12+088299999V0201401N004612200019N0020001N1+01971+01261101801ADDGF102991021021004501001001MA1999999092011MD1999999+0021REMSYN088AAXX  21004 83339 32495 21409 10197 20126 39201 40180 82200 333 10256 29067 55108 58002;
0171833390999992005082112004-14050-042620FM-12+088299999V0201401N006210042019N0040001N1+01611+01421101841ADDAY101061AY201061GF108991081051004501999999MA1999999092101MD1999999-0061MW1101REMSYN082AAXX  21124 83339 31496 81412 10161 20142 39210 40184 71000 885// 333 20156 59006;
0137833390999992005082118004-14050-042620FM-12+088299999V0201401N004612200019N0100001N1+02391+01151101651ADDGF103991031021004501001001MA1999999091751MD1999999-0041REMSYN070AAXX  21184 83339 32497 31409 10239 20115 39175 40165 83200 333 59004;
0168833390999992005082200004-14050-042617FM-12+088299999V0201401N005710042019N0020001N1+02071+01491101801ADDGF106991061021004501001001KA1240M+02501MA1999999091931MD1999999-0081REMSYN088AAXX  22004 83339 32495 61411 10207 20149 39193 40180 86200 333 10250 29075 55061 59008;
0201833390999992005082212004-14050-042617FM-12+088299999V0201401N004110042019N0100001N1+01781+01511101911ADDAA124001091AY161061AY221061GF106991061021004501001001KA1240N+01521MA1999999092081MD1999999-0021MW1021REMSYN088AAXX  22124 83339 21497 61408 10178 20151 39208 40191 70262 86200 333 20152 59002 60014;
0137833390999992005082218004-14050-042617FM-12+088299999V0200501N006212200019N0100001N1+02471+01301101341ADDGF102991021021004501001001MA1999999091671MD1999999+0081REMSYN070AAXX  22184 83339 32497 20512 10247 20130 39167 40134 82200 333 58008;
0168833390999992005082300004-14050-042617FM-12+088299999V0201401N006712200019N0020001N1+01941+01291101741ADDGF102991021011004501001001KA1240M+02531MA1999999091951MD1999999+0021REMSYN088AAXX  23004 83339 32495 21413 10194 20129 39195 40174 82100 333 10253 29066 55085 58002;
0156833390999992005082312004-14050-042617FM-12+088299999V0200901N004110450019N0100001N1+01671+01461102031ADDGF108991041021004501021999KA1240N+01501MA1999999092191MD1999999+0111REMSYN076AAXX  23124 83339 32497 80908 10167 20146 39219 40203 8422/ 333 20150 58011;
0137833390999992005082318004-14050-042617FM-12+088299999V0200901N005112200019N0100001N1+02561+01241101421ADDGF102991021011004501001001MA1999999091761MD1999999+0091REMSYN070AAXX  23184 83339 32497 20910 10256 20124 39176 40142 82100 333 58009;
0168833390999992005082400004-14050-042617FM-12+088299999V0200901N003110042019N0020001N1+02151+01321101721ADDGF106991061021004501001001KA1240M+02601MA1999999091951MD1999999+0001REMSYN088AAXX  24004 83339 32495 60906 10215 20132 39195 40172 86200 333 10260 29062 55082 58000;
0184833390999992005082412004-14050-042617FM-12+088299999V0201401N004610042019N0100001N1+01851+01761101701ADDAY101061AY201061GF106991061021004501001001KA1240N+01621MA1999999092041MD1999999-0151MW1101REMSYN082AAXX  24124 83339 31497 61409 10185 20176 39204 40170 71000 86200 333 20162 59015;
0182833390999992005082418004-14050-042617FM-12+088299999V0200501N003112200019N0100001N1+02531+01241101671ADDAA106001091AY161061AY261061GF103991031021004501001001MA1999999091831MD1999999+0071MW1021REMSYN082AAXX  24184 83339 21497 30506 10253 20124 39183 40167 70266 83200 333 58007 60011;
0178833390999992005082500004-14050-042617FM-12+088299999V0201401N004612200019N0020001N1+02051+01111101701ADDGA1001+999999999GF100991001001999999001001KA1240M+02601MA1999999091951MD1999999+0001REMSYN082AAXX  25004 83339 32995 01409 10205 20111 39195 40170 333 10260 29058 55069 58000;
0211833390999992005082512004-14050-042617FM-12+088299999V0200901N002612200019N0100001N1+02091+01281101651ADDAA124001091AY161061AY261061GA1001+999999999GF100991001001999999001001KA1240N+01881MA1999999091951MD1999999-0091MW1001REMSYN082AAXX  25124 83339 21997 00905 10209 20128 39195 40165 70066 333 20188 59009 60014;
0147833390999992005082518004-14050-042617FM-12+088299999V0200501N004612200019N0100001N1+02851+00401101301ADDGA1001+999999999GF100991001001999999001001MA1999999091491MD1999999-0341REMSYN064AAXX  25184 83339 32997 00509 10285 20040 39149 40130 333 59034;
0178833390999992005082600004-14050-042617FM-12+088299999V0200901N001512200019N0020001N1+02191+00571101331ADDGA1001+999999999GF100991001001999999001001KA1240M+02921MA1999999091681MD1999999-0271REMSYN082AAXX  26004 83339 32995 00903 10219 20057 39168 40133 333 10292 29040 55107 59027;
0156833390999992005082612004-14050-042617FM-12+088299999V0201401N007712200019N0100001N1+01871+01371101531ADDGF102991021021004501001001KA1240N+01521MA1999999091901MD1999999-0051REMSYN076AAXX  26124 83339 32497 21415 10187 20137 39190 40153 82200 333 20152 59005;
0147833390999992005082618004-14050-042617FM-12+088299999V0201401N004112200019N0100001N1+02651+00481101461ADDGA1001+999999999GF100991001001999999001001MA1999999091651MD1999999+0161REMSYN064AAXX  26184 83339 32997 01408 10265 20048 39165 40146 333 58016;
0178833390999992005082700004-14050-042617FM-12+088299999V0201401N005112200019N0020001N1+02051+01111101641ADDGA1001+999999999GF100991001001999999001001KA1240M+02741MA1999999091881MD1999999+0201REMSYN082AAXX  27004 83339 32995 01410 10205 20111 39188 40164 333 10274 29059 55109 58020;
0156833390999992005082712004-14050-042617FM-12+088299999V0201401N006212200019N0100001N1+01951+01041101661ADDGF102991011021004501021001KA1240N+01501MA1999999091961MD1999999+0061REMSYN076AAXX  27124 83339 32497 21412 10195 20104 39196 40166 81220 333 20150 58006;
0147833390999992005082718004-14050-042617FM-12+088299999V0200501N004112200019N0100001N1+02711+00351101491ADDGA1001+999999999GF100991001001999999001001MA1999999091631MD1999999-0021REMSYN064AAXX  27184 83339 32997 00508 10271 20035 39163 40149 333 59002;
0178833390999992005082800004-14050-042617FM-12+088299999V0201401N004612200019N0020001N1+02191+00721101601ADDGA1001+999999999GF100991001001999999001001KA1240M+02761MA1999999091861MD1999999-0021REMSYN082AAXX  28004 83339 32995 01409 10219 20072 39186 40160 333 10276 29044 55108 59002;
0156833390999992005082812004-14050-042617FM-12+088299999V0200501N006210042019N0100001N1+01991+01331101571ADDGF106991061021004501001001KA1240N+01581MA1999999091941MD1999999-0021REMSYN076AAXX  28124 83339 32497 60512 10199 20133 39194 40157 86200 333 20158 59002;
0147833390999992005082818004-14050-042617FM-12+088299999V0200501N005112200019N0100001N1+02751+00381101281ADDGA1001+999999999GF100991001001999999001001MA1999999091491MD1999999-0141REMSYN064AAXX  28184 83339 32997 00510 10275 20038 39149 40128 333 59014;
0178833390999992005082900004-14050-042617FM-12+088299999V0201401N005112200019N0020001N1+02271+00831101351ADDGA1001+999999999GF100991001001999999001001KA1240M+02801MA1999999091651MD1999999-0211REMSYN082AAXX  29004 83339 32995 01410 10227 20083 39165 40135 333 10280 29043 55098 59021;
0156833390999992005082912004-14050-042617FM-12+088299999V0201401N002612200019N0100001N1+01971+01551101451ADDGF102991021021004501001001KA1240N+01601MA1999999091871MD1999999-0071REMSYN076AAXX  29124 83339 32497 21405 10197 20155 39187 40145 82200 333 20160 59007;
0137833390999992005082918004-14050-042617FM-12+088299999V0201401N003112200019N0100001N1+02911+00871100911ADDGF103991031021004501001001MA1999999091401MD1999999-0091REMSYN070AAXX  29184 83339 32497 31406 10291 20087 39140 40091 83200 333 59009;
0168833390999992005083000004-14050-042617FM-12+088299999V0201401N004612200019N0020001N1+02411+01101101301ADDGF102991021021004501001001KA1240M+03031MA1999999091621MD1999999-0031REMSYN088AAXX  30004 83339 32495 21409 10241 20110 39162 40130 82200 333 10303 29049 55091 59003;
0156833390999992005083012004-14050-042617FM-12+088299999V0201401N003112200019N0100001N1+02171+01611101401ADDGF102991011021004501001021KA1240N+01701MA1999999091881MD1999999+0011REMSYN076AAXX  30124 83339 32497 21406 10217 20161 39188 40140 81202 333 20170 58001;
0137833390999992005083018004-14050-042617FM-12+088299999V0201401N002112200019N0100001N1+02991+00881101181ADDGF103991031021004501001001MA1999999091481MD1999999+0081REMSYN070AAXX  30184 83339 32497 31404 10299 20088 39148 40118 83200 333 58008;
0168833390999992005083100004-14050-042617FM-12+088299999V0200901N003612200019N0020001N1+02431+01191101321ADDGF102991021021004501001001KA1240M+03131MA1999999091711MD1999999+0091REMSYN088AAXX  31004 83339 32495 20907 10243 20119 39171 40132 82200 333 10313 29050 55102 58009;
0156833390999992005083112004-14050-042617FM-12+088299999V0201401N006710042019N0100001N1+02171+01631101311ADDGF105991051021004501001001KA1240N+01731MA1999999091801MD1999999-0081REMSYN076AAXX  31124 83339 32497 51413 10217 20163 39180 40131 85200 333 20173 59008;
0147833390999992005083118004-14050-042617FM-12+088299999V0200501N006212200019N0100001N1+02811+00931101061ADDGA1001+999999999GF100991001001999999001001MA1999999091401MD1999999-0081REMSYN064AAXX  31184 83339 32997 00512 10281 20093 39140 40106 333 59008;
0178833390999992005090100004-14050-042617FM-12+088299999V0201401N003112200019N0020001N1+02291+00991101211ADDGA1001+999999999GF100991001001999999001001KA1240M+02861MA1999999091611MD1999999-0101REMSYN082AAXX  01004 83339 32995 01406 10229 20099 39161 40121 333 10286 29048 55100 59010;
0156833390999992005090112004-14050-042617FM-12+088299999V0201401N004112200019N0100001N1+02071+01331101471ADDGF103991031021004501001001KA1240N+01681MA1999999091891MD1999999+0091REMSYN076AAXX  01124 83339 32497 31408 10207 20133 39189 40147 83200 333 20168 58009;
0147833390999992005090118004-14050-042617FM-12+088299999V0200501N004112200019N0100001N1+02791+00601101221ADDGA1001+999999999GF100991001001999999001001MA1999999091481MD1999999+0081REMSYN064AAXX  01184 83339 32997 00508 10279 20060 39148 40122 333 58008;
0178833390999992005090200004-14050-042617FM-12+088299999V0201401N004612200019N0020001N1+02351+00751101321ADDGA1001+999999999GF100991001001999999001001KA1240M+02861MA1999999091671MD1999999+0061REMSYN082AAXX  02004 83339 32995 01409 10235 20075 39167 40132 333 10286 29041 55099 58006;
0156833390999992005090212004-14050-042617FM-12+088299999V0201401N002612200019N0100001N1+02071+01561101471ADDGF102991021021004501001001KA1240N+01641MA1999999091911MD1999999+0021REMSYN076AAXX  02124 83339 32497 21405 10207 20156 39191 40147 82200 333 20164 58002;
0137833390999992005090218004-14050-042617FM-12+088299999V0201401N004612200019N0100001N1+02871+00781101261ADDGF103991031021004501001001MA1999999091521MD1999999+0041REMSYN070AAXX  02184 83339 32497 31409 10287 20078 39152 40126 83200 333 58004;
0178833390999992005090300004-14050-042617FM-12+088299999V0200901N003612200019N0020001N1+02291+00811101391ADDGA1001+999999999GF100991001001999999001001KA1240M+03001MA1999999091741MD1999999+0071REMSYN082AAXX  03004 83339 32995 00907 10229 20081 39174 40139 333 10300 29043 55101 58007;
0156833390999992005090312004-14050-042617FM-12+088299999V0201401N004612200019N0100001N1+02131+01641101481ADDGF102991021021004501001001KA1240N+01661MA1999999091901MD1999999-0011REMSYN076AAXX  03124 83339 32497 21409 10213 20164 39190 40148 82200 333 20166 59001;
0147833390999992005090318004-14050-042617FM-12+088299999V0200501N004112200019N0100001N1+02751+00681101241ADDGA1001+999999999GF100991001001999999001001MA1999999091541MD1999999+0021REMSYN064AAXX  03184 83339 32997 00508 10275 20068 39154 40124 333 58002;
0156833390999992005090412004-14050-042617FM-12+088299999V0201401N008212200019N0100001N1+02111+01371101591ADDGF102991021021004501001001KA1240N+01631MA1999999091951MD1999999+0051REMSYN076AAXX  04124 83339 32497 21416 10211 20137 39195 40159 82200 333 20163 58005;
0137833390999992005090418004-14050-042617FM-12+088299999V0200501N006212200019N0100001N1+02671+01191101321ADDGF102991021021004501001001MA1999999091541MD1999999+0001REMSYN070AAXX  04184 83339 32497 20512 10267 20119 39154 40132 82200 333 58000;
0156833390999992005090512004-14050-042617FM-12+088299999V0201401N003112200019N0100001N1+01991+01521101561ADDGF102991021021004501001001KA1240N+01561MA1999999091911MD1999999-0041REMSYN076AAXX  05124 83339 32497 21406 10199 20152 39191 40156 82200 333 20156 59004;
0137833390999992005090518004-14050-042617FM-12+088299999V0200501N002112200019N0100001N1+02791+00911101091ADDGF102991021021004501001001MA1999999091531MD1999999-0011REMSYN070AAXX  05184 83339 32497 20504 10279 20091 39153 40109 82200 333 59001;
0178833390999992005090600004-14050-042617FM-12+088299999V0201401N003612200019N0020001N1+02271+00971101471ADDGA1001+999999999GF100991001001999999001001KA1240M+02921MA1999999091761MD1999999-0041REMSYN082AAXX  06004 83339 32995 01407 10227 20097 39176 40147 333 10292 29049 55093 59004;
0156833390999992005090612004-14050-042617FM-12+088299999V0201401N004112200019N0100001N1+02161+01631101421ADDGF102991021011004501001001KA1240N+01701MA1999999091801MD1999999-0111REMSYN076AAXX  06124 83339 32497 21408 10216 20163 39180 40142 82100 333 20170 59011;
0137833390999992005090618004-14050-042617FM-12+088299999V0200901N003612200019N0100001N1+02921+01171100961ADDGF102991021011004501001001MA1999999091431MD1999999-0101REMSYN070AAXX  06184 83339 32497 20907 10292 20117 39143 40096 82100 333 59010;
0178833390999992005090700004-14050-042617FM-12+088299999V0201401N005112200019N0020001N1+02291+01231101261ADDGA1001+999999999GF100991001001999999001001KA1240M+02951MA1999999091651MD1999999-0111REMSYN082AAXX  07004 83339 32995 01410 10229 20123 39165 40126 333 10295 29052 55094 59011;
0156833390999992005090712004-14050-042617FM-12+088299999V0201401N004612200019N0100001N1+02121+01571101531ADDGF102991021011004501001001KA1240N+01711MA1999999091901MD1999999+0101REMSYN076AAXX  07124 83339 32497 21409 10212 20157 39190 40153 82100 333 20171 58010;
0137833390999992005090718004-14050-042617FM-12+088299999V0200501N004112200019N0100001N1+02851+01121101141ADDGF103991011011004501001011MA1999999091591MD1999999+0161REMSYN070AAXX  07184 83339 32497 30508 10285 20112 39159 40114 81101 333 58016;
0178833390999992005090800004-14050-042617FM-12+088299999V0201401N004112200019N0020001N1+02371+01051101401ADDGA1001+999999999GF100991001001999999001001KA1240M+02911MA1999999091801MD1999999+0151REMSYN082AAXX  08004 83339 32995 01408 10237 20105 39180 40140 333 10291 29048 55104 58015;
0156833390999992005090812004-14050-042617FM-12+088299999V0200901N007212200019N0100001N1+02171+01541101581ADDGF104991041021004501001001KA1240N+01741MA1999999091961MD1999999+0061REMSYN076AAXX  08124 83339 32497 40914 10217 20154 39196 40158 84200 333 20174 58006;
0137833390999992005090818004-14050-042617FM-12+088299999V0200901N006712200019N0100001N1+02651+01151101321ADDGF105991011011004501001041MA1999999091731MD1999999+0141REMSYN070AAXX  08184 83339 32497 50913 10265 20115 39173 40132 81104 333 58014;
0178833390999992005090900004-14050-042617FM-12+088299999V0201401N005112200019N0020001N1+02261+01391101591ADDGA1001+999999999GF100991001001999999001001KA1240M+02741MA1999999091951MD1999999+0151REMSYN082AAXX  09004 83339 32995 01410 10226 20139 39195 40159 333 10274 29056 55082 58015;
0156833390999992005090912004-14050-042617FM-12+088299999V0201401N007710042019N0100001N1+01881+01411101881ADDGF106991051021004501031001KA1240N+01601MA1999999092151MD1999999+0191REMSYN076AAXX  09124 83339 32497 61415 10188 20141 39215 40188 85230 333 20160 58019;
0137833390999992005090918004-14050-042617FM-12+088299999V0201401N005712200019N0100001N1+02561+01101101471ADDGF102991021011004501001001MA1999999091831MD1999999+0101REMSYN070AAXX  09184 83339 32497 21411 10256 20110 39183 40147 82100 333 58010;
0178833390999992005091000004-14050-042617FM-12+088299999V0200901N007712200019N0020001N1+02131+01111101791ADDGA1001+999999999GF100991001001999999001001KA1240M+02621MA1999999092051MD1999999+0101REMSYN082AAXX  10004 83339 32995 00915 10213 20111 39205 40179 333 10262 29054 55082 58010;
0156833390999992005091012004-14050-042617FM-12+088299999V0201401N007212200019N0100001N1+02031+01381101861ADDGF104991041021004501001001KA1240N+01561MA1999999092161MD1999999+0011REMSYN076AAXX  10124 83339 32497 41414 10203 20138 39216 40186 84200 333 20156 58001;
0137833390999992005091018004-14050-042617FM-12+088299999V0200901N005710042019N0100001N1+02451+01521101501ADDGF106991061021004501001001MA1999999091821MD1999999-0011REMSYN070AAXX  10184 83339 32497 60911 10245 20152 39182 40150 86200 333 59001;
0201833390999992005091112004-14050-042617FM-12+088299999V0201401N006712200019N0100001N1+01871+01281102031ADDAA124003091AY161061AY221061GF104991041021004501001001KA1240N+01521MA1999999092191MD1999999+0031MW1021REMSYN088AAXX  11124 83339 21497 41413 10187 20128 39219 40203 70262 84200 333 20152 58003 60034;
0137833390999992005091118004-14050-042617FM-12+088299999V0200501N006210042019N0100001N1+02561+02121101441ADDGF106991061021004501001001MA1999999091781MD1999999-0041REMSYN070AAXX  11184 83339 32497 60512 10256 20212 39178 40144 86200 333 59004;
0184833390999992005091212004-14050-042617FM-12+088299999V0201401N005710042019N0040001N1+02011+01641101811ADDAY101061AY201061GF108991081051004501999999KA1240N+02001MA1999999092151MD1999999-0041MW1101REMSYN082AAXX  12124 83339 31496 81411 10201 20164 39215 40181 71000 885// 333 20200 59004;
0156833390999992005091218004-14050-042617FM-12+088299999V0201401N004619999999N0100001N1+02651+01321101551ADDGF105991999021004501001001MA1999999091801MD1999999+0021REMSYN070AAXX  12184 83339 32497 51409 10265 20132 39180 40155 86200 333 58002;EQDQ01+000062SCOTLC
0178833390999992005091300004-14050-042617FM-12+088299999V0201401N005112200019N0020001N1+02151+01551101611ADDGA1001+999999999GF100991001001999999001001KA1240M+02721MA1999999091921MD1999999-0041REMSYN082AAXX  13004 83339 32995 01410 10215 20155 39192 40161 333 10272 29072 55049 59004;
0184833390999992005091312004-14050-042617FM-12+088299999V0201401N006710042019N0100001N1+01971+01661101631ADDAY101061AY201061GF106991061021004501001001KA1240N+01501MA1999999091971MD1999999-0181MW1101REMSYN082AAXX  13124 83339 31497 61413 10197 20166 39197 40163 71000 86200 333 20150 59018;
0137833390999992005091318004-14050-042617FM-12+088299999V0201401N005112200019N0100001N1+02791+00911101371ADDGF102991021021004501001001MA1999999091601MD1999999-0201REMSYN070AAXX  13184 83339 32497 21410 10279 20091 39160 40137 82200 333 59020;
0178833390999992005091400004-14050-042617FM-12+088299999V0201401N005112200019N0020001N1+02331+01131101511ADDGA1001+999999999GF100991001001999999001001KA1240M+02921MA1999999091801MD1999999-0121REMSYN082AAXX  14004 83339 32995 01410 10233 20113 39180 40151 333 10292 29052 55086 59012;
0156833390999992005091412004-14050-042617FM-12+088299999V0201401N007212200019N0100001N1+02051+01211101651ADDGF102991021021004501001001KA1240N+01661MA1999999092071MD1999999+0101REMSYN076AAXX  14124 83339 32497 21414 10205 20121 39207 40165 82200 333 20166 58010;
0147833390999992005091418004-14050-042617FM-12+088299999V0201401N005112200019N0100001N1+02791+00711101371ADDGA1001+999999999GF100991001001999999001001MA1999999091621MD1999999+0021REMSYN064AAXX  14184 83339 32997 01410 10279 20071 39162 40137 333 58002;
0178833390999992005091500004-14050-042617FM-12+088299999V0201401N007712200019N0020001N1+02171+01101101681ADDGA1001+999999999GF100991001001999999001001KA1240M+02881MA1999999091981MD1999999+0181REMSYN082AAXX  15004 83339 32995 01415 10217 20110 39198 40168 333 10288 29054 55103 58018;
0156833390999992005091512004-14050-042617FM-12+088299999V0201401N008712200019N0100001N1+02071+01361101851ADDGF103991031021004501001001KA1240N+01541MA1999999092191MD1999999+0121REMSYN076AAXX  15124 83339 32497 31417 10207 20136 39219 40185 83200 333 20154 58012;
0137833390999992005091518004-14050-042617FM-12+088299999V0201401N006712200019N0100001N1+02691+00961101581ADDGF102991011021004501021001MA1999999091761MD1999999+0141REMSYN070AAXX  15184 83339 32497 21413 10269 20096 39176 40158 81220 333 58014;
0178833390999992005091600004-14050-042617FM-12+088299999V0201401N006712200019N0020001N1+02131+01311101641ADDGA1001+999999999GF100991001001999999001001KA1240M+02741MA1999999091931MD1999999-0051REMSYN082AAXX  16004 83339 32995 01413 10213 20131 39193 40164 333 10274 29065 55105 59005;
0156833390999992005091612004-14050-042617FM-12+088299999V0201401N006712200019N0100001N1+02051+01291101791ADDGF102991011021004501021001KA1240N+01641MA1999999092121MD1999999-0071REMSYN076AAXX  16124 83339 32497 21413 10205 20129 39212 40179 81220 333 20164 59007;
0147833390999992005091618004-14050-042617FM-12+088299999V0201401N004612200019N0100001N1+02691+01211101511ADDGA1001+999999999GF100991001001999999001001MA1999999091701MD1999999-0061REMSYN064AAXX  16184 83339 32997 01409 10269 20121 39170 40151 333 59006;
0178833390999992005091700004-14050-042617FM-12+088299999V0200901N000512200019N0020001N1+02251+01291101521ADDGA1001+999999999GF100991001001999999001001KA1240M+02781MA1999999091841MD1999999-0091REMSYN082AAXX  17004 83339 32995 00901 10225 20129 39184 40152 333 10278 29059 55109 59009;
0156833390999992005091712004-14050-042617FM-12+088299999V0201401N003612200019N0100001N1+02231+01621101541ADDGF102991021021004501001001KA1240N+01721MA1999999091931MD1999999-0191REMSYN076AAXX  17124 83339 32497 21407 10223 20162 39193 40154 82200 333 20172 59019;
0147833390999992005091718004-14050-042617FM-12+088299999V0200501N005712200019N0100001N1+02911+01061101251ADDGA1001+999999999GF100991001001999999001001MA1999999091511MD1999999-0191REMSYN064AAXX  17184 83339 32997 00511 10291 20106 39151 40125 333 59019;
0156833390999992005091812004-14050-042617FM-12+088299999V0201401N006710042019N0100001N1+02051+01471101621ADDGF106991061021004501001001KA1240N+01801MA1999999091981MD1999999+0051REMSYN076AAXX  18124 83339 32497 61413 10205 20147 39198 40162 86200 333 20180 58005;
0156833390999992005091818004-14050-042617FM-12+088299999V0200901N005112200019N0100001N1+02781+01301101131ADDGF103991001001999999001011MA1999999091581MD1999999+0071REMSYN070AAXX  18184 83339 32597 30910 10278 20130 39158 40113 80001 333 58007;EQDQ01+008002SCOLCB
0187833390999992005091900004-14050-042617FM-12+088299999V0200901N003112200019N0020001N1+02281+01241101501ADDGF102991001001999999001011KA1240M+02821MA1999999091851MD1999999+0161REMSYN088AAXX  19004 83339 32895 20906 10228 20124 39185 40150 80001 333 10282 29053 55085 58016;EQDQ01+022502SCOLCB
0156833390999992005091912004-14050-042617FM-12+088299999V0200901N004612200019N0100001N1+02271+01541101611ADDGF103991031011004501001001KA1240N+01841MA1999999092021MD1999999+0041REMSYN076AAXX  19124 83339 32497 30909 10227 20154 39202 40161 83100 333 20184 58004;
0137833390999992005091918004-14050-042617FM-12+088299999V0201401N003612200019N0100001N1+02871+01421101101ADDGF103991011011004501001011MA1999999091571MD1999999-0011REMSYN070AAXX  19184 83339 32497 31407 10287 20142 39157 40110 81101 333 59001;
0178833390999992005092000004-14050-042617FM-12+088299999V0201401N004112200019N0020001N1+02291+01531101391ADDGA1001+999999999GF100991001001999999001001KA1240M+02961MA1999999091821MD1999999-0031REMSYN082AAXX  20004 83339 32995 01408 10229 20153 39182 40139 333 10296 29057 55096 59003;
0166833390999992005092012004-14050-042617FM-12+088299999V0200901N002612200019N0100001N1+02331+01721101351ADDGA1001+999999999GF100991001001999999001001KA1240N+01701MA1999999091781MD1999999-0241REMSYN070AAXX  20124 83339 32997 00905 10233 20172 39178 40135 333 20170 59024;
0137833390999992005092018004-14050-042617FM-12+088299999V0200901N004112200019N0100001N1+03301+00971100701ADDGF102991021011004501001001MA1999999091291MD1999999-0281REMSYN070AAXX  20184 83339 32497 20908 10330 20097 39129 40070 82100 333 59028;
0178833390999992005092100004-14050-042617FM-12+088299999V0201401N004612200019N0020001N1+02721+01081100941ADDGA1001+999999999GF100991001001999999001001KA1240M+03391MA1999999091481MD1999999-0341REMSYN082AAXX  21004 83339 32995 01409 10272 20108 39148 40094 333 10339 29041 55100 59034;
0156833390999992005092112004-14050-042617FM-12+088299999V0200501N001512200019N0100001N1+02571+01641100981ADDGF104991011011004501031001KA1240N+01941MA1999999091581MD1999999-0201REMSYN076AAXX  21124 83339 32497 40503 10257 20164 39158 40098 81130 333 20194 59020;
0137833390999992005092118004-14050-042617FM-12+088299999V0202301N001510042019N0100001N1+03151+01071100551ADDGF106991051021004501031001MA1999999091191MD1999999-0101REMSYN070AAXX  21184 83339 32497 62303 10315 20107 39119 40055 85230 333 59010;
0168833390999992005092200004-14050-042617FM-12+088299999V0202301N002112200019N0020001N1+02801+01111100621ADDGF103991011011004501031001KA1240M+03291MA1999999091271MD1999999-0211REMSYN088AAXX  22004 83339 32495 32304 10280 20111 39127 40062 81130 333 10329 29039 55042 59021;
0156833390999992005092212004-14050-042617FM-12+088299999V0201401N005110042019N0100001N1+02141+01821101061ADDGF106991061021004501001001KA1240N+02001MA1999999091571MD1999999-0011REMSYN076AAXX  22124 83339 32497 61410 10214 20182 39157 40106 86200 333 20200 59001;
0137833390999992005092218004-14050-042617FM-12+088299999V0201401N004110042019N0100001N1+02961+01681100551ADDGF108991061021004501021999MA1999999091141MD1999999-0051REMSYN070AAXX  22184 83339 32497 81408 10296 20168 39114 40055 8622/ 333 59005;
0213833390999992005092300004-14050-042617FM-12+088299999V0201401N005110042019N0020001N1+02121+01911101131ADDAA106037191AY161061AY221061GF108991051021004501021999KA1240M+03071MA1999999091501MD1999999+0231MW1021REMSYN100AAXX  23004 83339 21495 81410 10212 20191 39150 40113 70262 8522/ 333 10307 29076 55052 58023 60371;
0201833390999992005092312004-14050-042617FM-12+088299999V0209999C000010450019N0100001N1+01911+01751101501ADDAA124038191AY161061AY261061GF108991041021004501021999KA1240N+01801MA1999999091791MD1999999+0221MW1021REMSYN088AAXX  23124 83339 21497 80000 10191 20175 39179 40150 70266 8422/ 333 20180 58022 60384;
0137833390999992005092318004-14050-042617FM-12+088299999V0200501N001011050019N0100001N1+02531+01731100941ADDGF105991021021004501031041MA1999999091361MD1999999+0221REMSYN070AAXX  23184 83339 32497 50502 10253 20173 39136 40094 82234 333 58022;
0178833390999992005092400004-14050-042617FM-12+088299999V0202301N001512200019N0020001N1+02191+01541101151ADDGA1001+999999999GF100991001001999999001001KA1240M+02631MA1999999091591MD1999999+0091REMSYN082AAXX  24004 83339 32995 02303 10219 20154 39159 40115 333 10263 29071 55018 58009;
0156833390999992005092412004-14050-042617FM-12+088299999V0201401N002112200019N0100001N1+02221+01821101281ADDGF103991031021004501001001KA1240N+01721MA1999999091671MD1999999-0121REMSYN076AAXX  24124 83339 32497 31404 10222 20182 39167 40128 83200 333 20172 59012;
0182833390999992005092418004-14050-042617FM-12+088299999V0202701N004110042019N0100001N1+02351+02011100931ADDAA106002091AY121061AY221061GF108991051021004501021999MA1999999091301MD1999999-0061MW1601REMSYN082AAXX  24184 83339 21497 82708 10235 20201 39130 40093 76022 8522/ 333 59006 60021;
0213833390999992005092500004-14050-042617FM-12+088299999V0209999C000012200019N0020001N1+02061+01891101151ADDAA106000591AY161061AY221061GF102991021021004501001001KA1240M+02941MA1999999091541MD1999999-0051MW1021REMSYN100AAXX  25004 83339 21495 20000 10206 20189 39154 40115 70262 82200 333 10294 29085 55054 59005 69941;
0201833390999992005092512004-14050-042617FM-12+088299999V0201401N002112200019N0100001N1+01901+01861101471ADDAA124002091AY161061AY221061GF103991021021004501031001KA1240N+01901MA1999999091761MD1999999+0091MW1021REMSYN088AAXX  25124 83339 21497 31404 10190 20186 39176 40147 70262 82230 333 20190 58009 60024;
0137833390999992005092518004-14050-042617FM-12+088299999V0200901N003110042019N0100001N1+02771+01641100861ADDGF105991051021004501001001MA1999999091351MD1999999+0051REMSYN070AAXX  25184 83339 32497 50906 10277 20164 39135 40086 85200 333 58005;
0156833390999992005092612004-14050-042617FM-12+088299999V0201401N003110042019N0100001N1+02291+01751101401ADDGF106991051021004501021001KA1240N+01761MA1999999091831MD1999999+0071REMSYN076AAXX  26124 83339 32497 61406 10229 20175 39183 40140 85220 333 20176 58007;
0137833390999992005092618004-14050-042617FM-12+088299999V0201401N002610042019N0100001N1+02991+01461100871ADDGF106991061021004501001001MA1999999091431MD1999999+0081REMSYN070AAXX  26184 83339 32497 61405 10299 20146 39143 40087 86200 333 58008;
0187833390999992005092700004-14050-042617FM-12+088299999V0201401N003112200019N0020001N1+02471+01051101251ADDGF102991999021004501001001KA1240M+03061MA1999999091691MD1999999+0071REMSYN088AAXX  27004 83339 32495 21406 10247 20105 39169 40125 83200 333 10306 29046 55078 58007;EQDQ01+000032SCOTLC
0156833390999992005092712004-14050-042617FM-12+088299999V0201401N002612200019N0100001N1+02331+01701101381ADDGF102991011021004501021001KA1240N+01901MA1999999091881MD1999999+0051REMSYN076AAXX  27124 83339 32497 21405 10233 20170 39188 40138 81220 333 20190 58005;
0137833390999992005092718004-14050-042617FM-12+088299999V0201401N004612200019N0100001N1+02891+01351101231ADDGF102991021021004501001001MA1999999091551MD1999999+0121REMSYN070AAXX  27184 83339 32497 21409 10289 20135 39155 40123 82200 333 58012;
0178833390999992005092800004-14050-042617FM-12+088299999V0201401N003112200019N0020001N1+02391+01281101371ADDGA1001+999999999GF100991001001999999001001KA1240M+02961MA1999999091821MD1999999+0131REMSYN082AAXX  28004 83339 32995 01406 10239 20128 39182 40137 333 10296 29050 55091 58013;
0156833390999992005092812004-14050-042617FM-12+088299999V0201401N007710042019N0100001N1+02251+01621101461ADDGF106991061021004501001001KA1240N+01921MA1999999091921MD1999999+0041REMSYN076AAXX  28124 83339 32497 61415 10225 20162 39192 40146 86200 333 20192 58004;
0137833390999992005092818004-14050-042617FM-12+088299999V0201401N005112200019N0100001N1+02691+01391101241ADDGF103991031021004501001001MA1999999091541MD1999999-0011REMSYN070AAXX  28184 83339 32497 31410 10269 20139 39154 40124 83200 333 59001;
0168833390999992005092900004-14050-042617FM-12+088299999V0201401N007712200019N0020001N1+02211+01821101391ADDGF102991021021004501001001KA1240M+02801MA1999999091791MD1999999-0031REMSYN088AAXX  29004 83339 32495 21415 10221 20182 39179 40139 82200 333 10280 29083 55098 59003;
0201833390999992005092912004-14050-042617FM-12+088299999V0201401N005110042019N0040001N1+01731+01671101571ADDAA124000591AY161061AY261061GF108991081051004501999999KA1240N+01621MA1999999091951MD1999999+0031MW1101REMSYN088AAXX  29124 83339 21496 81410 10173 20167 39195 40157 71066 885// 333 20162 58003 69944;
0137833390999992005092918004-14050-042617FM-12+088299999V0201401N006210042019N0100001N1+02491+01341101401ADDGF106991061021004501001001MA1999999091581MD1999999+0041REMSYN070AAXX  29184 83339 32497 61412 10249 20134 39158 40140 86200 333 58004;
0168833390999992005093000004-14050-042617FM-12+088299999V0201401N004612200019N0020001N1+02131+01551101631ADDGF102991021021004501001001KA1240M+02601MA1999999091781MD1999999-0011REMSYN088AAXX  30004 83339 32495 21409 10213 20155 39178 40163 82200 333 10260 29073 55056 59001;
0156833390999992005093012004-14050-042617FM-12+088299999V0201401N007210042019N0100001N1+02051+01641101611ADDGF106991061021004501001001KA1240N+01741MA1999999091951MD1999999+0001REMSYN076AAXX  30124 83339 32497 61414 10205 20164 39195 40161 86200 333 20174 58000;
0137833390999992005093018004-14050-042617FM-12+088299999V0200901N006212200019N0100001N1+02751+01441101061ADDGF102991021021004501001001MA1999999091501MD1999999-0081REMSYN070AAXX  30184 83339 32497 20912 10275 20144 39150 40106 82200 333 59008;
0178833390999992005100100004-14050-042617FM-12+088299999V0201401N007712200019N0020001N1+02251+01451101411ADDGA1001+999999999GF100991001001999999001001KA1240M+02801MA1999999091741MD1999999-0041REMSYN082AAXX  01004 83339 32995 01415 10225 20145 39174 40141 333 10280 29064 55100 59004;
0156833390999992005100112004-14050-042617FM-12+088299999V0201401N006212200019N0100001N1+02131+01641101541ADDGF103991031021004501001001KA1240N+01831MA1999999091931MD1999999-0021REMSYN076AAXX  01124 83339 32497 31412 10213 20164 39193 40154 83200 333 20183 59002;
0156833390999992005100118004-14050-042617FM-12+088299999V0200501N003119999999N0100001N1+02931+00981101301ADDGF105991999021004501001001MA1999999091541MD1999999+0041REMSYN070AAXX  01184 83339 32497 50506 10293 20098 39154 40130 84200 333 58004;EQDQ01+000042SCOTLC
0178833390999992005100200004-14050-042617FM-12+088299999V0201401N003612200019N0020001N1+02411+00991101281ADDGA1001+999999999GF100991001001999999001001KA1240M+03031MA1999999091651MD1999999-0091REMSYN082AAXX  02004 83339 32995 01407 10241 20099 39165 40128 333 10303 29046 55094 59009;
0156833390999992005100212004-14050-042617FM-12+088299999V0201401N004612200019N0100001N1+02171+01661101381ADDGF104991041021004501001001KA1240N+01761MA1999999091811MD1999999-0121REMSYN076AAXX  02124 83339 32497 41409 10217 20166 39181 40138 84200 333 20176 59012;
0137833390999992005100218004-14050-042617FM-12+088299999V0201401N003112200019N0100001N1+02891+00901101041ADDGF102991011021004501021001MA1999999091341MD1999999-0201REMSYN070AAXX  02184 83339 32497 21406 10289 20090 39134 40104 81220 333 59020;
0178833390999992005100300004-14050-042617FM-12+088299999V0200901N001512200019N0020001N1+02391+00901101191ADDGA1001+999999999GF100991001001999999001001KA1240M+02981MA1999999091591MD1999999-0061REMSYN082AAXX  03004 83339 32995 00903 10239 20090 39159 40119 333 10298 29042 55102 59006;
0156833390999992005100312004-14050-042617FM-12+088299999V0200901N003612200019N0100001N1+02071+01471101371ADDGF104991041021004501001001KA1240N+01701MA1999999091771MD1999999-0041REMSYN076AAXX  03124 83339 32497 40907 10207 20147 39177 40137 84200 333 20170 59004;
0147833390999992005100318004-14050-042617FM-12+088299999V0200901N005112200019N0100001N1+02831+01111100861ADDGA1001+999999999GF100991001001999999001001MA1999999091341MD1999999+0001REMSYN064AAXX  03184 83339 32997 00910 10283 20111 39134 40086 333 58000;
0178833390999992005100400004-14050-042617FM-12+088299999V0200901N006712200019N0020001N1+02401+01231101071ADDGA1001+999999999GF100991001001999999001001KA1240M+02901MA1999999091511MD1999999-0081REMSYN082AAXX  04004 83339 32995 00913 10240 20123 39151 40107 333 10290 29050 55085 59008;
0156833390999992005100412004-14050-042617FM-12+088299999V0201401N006212200019N0100001N1+02191+01581101271ADDGF104991041021004501001001KA1240N+01711MA1999999091711MD1999999-0061REMSYN076AAXX  04124 83339 32497 41412 10219 20158 39171 40127 84200 333 20171 59006;
0137833390999992005100418004-14050-042617FM-12+088299999V0200501N003112200019N0100001N1+02911+01381100841ADDGF102991021011004501001001MA1999999091341MD1999999+0001REMSYN070AAXX  04184 83339 32497 20506 10291 20138 39134 40084 82100 333 58000;
0178833390999992005100500004-14050-042617FM-12+088299999V0201401N005712200019N0020001N1+02411+01541101101ADDGA1001+999999999GF100991001001999999001001KA1240M+02941MA1999999091551MD1999999+0041REMSYN082AAXX  05004 83339 32995 01411 10241 20154 39155 40110 333 10294 29056 55085 58004;
0156833390999992005100512004-14050-042617FM-12+088299999V0201401N005112200019N0100001N1+02331+01691101341ADDGF103991031021004501001001KA1240N+01861MA1999999091791MD1999999+0081REMSYN076AAXX  05124 83339 32497 31410 10233 20169 39179 40134 83200 333 20186 58008;
0137833390999992005100518004-14050-042617FM-12+088299999V0200501N003612200019N0100001N1+03091+01241100881ADDGF102991021011004501001001MA1999999091441MD1999999+0101REMSYN070AAXX  05184 83339 32497 20507 10309 20124 39144 40088 82100 333 58010;
0178833390999992005100600004-14050-042617FM-12+088299999V0201401N003112200019N0020001N1+02511+01241101141ADDGA1001+999999999GF100991001001999999001001KA1240M+03121MA1999999091631MD1999999+0081REMSYN082AAXX  06004 83339 32995 01406 10251 20124 39163 40114 333 10312 29047 55099 58008;
0166833390999992005100612004-14050-042617FM-12+088299999V0201401N005112200019N0100001N1+02331+01501101411ADDGA1001+999999999GF100991001001999999001001KA1240N+01781MA1999999091941MD1999999+0151REMSYN070AAXX  06124 83339 32997 01410 10233 20150 39194 40141 333 20178 58015;
0137833390999992005100618004-14050-042617FM-12+088299999V0200501N004612200019N0100001N1+03031+00861101281ADDGF102991021021004501001001MA1999999091571MD1999999+0131REMSYN070AAXX  06184 83339 32497 20509 10303 20086 39157 40128 82200 333 58013;
0178833390999992005100700004-14050-042617FM-12+088299999V0201401N004112200019N0020001N1+02511+01121101251ADDGA1001+999999999GF100991001001999999001001KA1240M+03101MA1999999091731MD1999999+0101REMSYN082AAXX  07004 83339 32995 01408 10251 20112 39173 40125 333 10310 29046 55110 58010;
0166833390999992005100712004-14050-042617FM-12+088299999V0201401N009312200019N0100001N1+02311+01321101591ADDGA1001+999999999GF100991001001999999001001KA1240N+01741MA1999999092041MD1999999+0101REMSYN070AAXX  07124 83339 32997 01418 10231 20132 39204 40159 333 20174 58010;
0137833390999992005100718004-14050-042617FM-12+088299999V0201401N005112200019N0100001N1+02831+00901101441ADDGF102991021021004501001001MA1999999091721MD1999999+0151REMSYN070AAXX  07184 83339 32497 21410 10283 20090 39172 40144 82200 333 58015;
0178833390999992005100800004-14050-042617FM-12+088299999V0201401N006212200019N0100001N1+02391+00901101521ADDGA1001+999999999GF100991001001999999001001KA1240M+02961MA1999999091951MD1999999+0221REMSYN082AAXX  08004 83339 32997 01412 10239 20090 39195 40152 333 10296 29045 55113 58022;
0156833390999992005100812004-14050-042617FM-12+088299999V0201401N007212200019N0100001N1+02241+01321101771ADDGF102991021011004501001001KA1240N+01741MA1999999092151MD1999999+0111REMSYN076AAXX  08124 83339 32497 21414 10224 20132 39215 40177 82100 333 20174 58011;
0147833390999992005100818004-14050-042617FM-12+088299999V0200901N006212200019N0100001N1+02831+01011101181ADDGA1001+999999999GF100991001001999999001001MA1999999091631MD1999999-0091REMSYN064AAXX  08184 83339 32997 00912 10283 20101 39163 40118 333 59009;
0178833390999992005100900004-14050-042617FM-12+088299999V0201401N006212200019N0020001N1+02371+01121101381ADDGA1001+999999999GF100991001001999999001001KA1240M+02881MA1999999091811MD1999999-0141REMSYN082AAXX  09004 83339 32995 01412 10237 20112 39181 40138 333 10288 29045 55111 59014;
0156833390999992005100912004-14050-042617FM-12+088299999V0201401N005712200019N0100001N1+02171+01611101661ADDGF103991031021004501001001KA1240N+01801MA1999999092041MD1999999-0111REMSYN076AAXX  09124 83339 32497 31411 10217 20161 39204 40166 83200 333 20180 59011;
0137833390999992005100918004-14050-042617FM-12+088299999V0200901N002112200019N0100001N1+02801+01351101051ADDGF102991021011004501001001MA1999999091511MD1999999-0121REMSYN070AAXX  09184 83339 32497 20904 10280 20135 39151 40105 82100 333 59012;
0178833390999992005101000004-14050-042617FM-12+088299999V0201401N001512200019N0020001N1+02321+01161101271ADDGA1001+999999999GF100991001001999999001001KA1240M+02901MA1999999091681MD1999999-0131REMSYN082AAXX  10004 83339 32995 01403 10232 20116 39168 40127 333 10290 29052 55103 59013;
0156833390999992005101012004-14050-042617FM-12+088299999V0201401N006212200019N0100001N1+02231+01551101381ADDGF102991021021004501001001KA1240N+01631MA1999999091831MD1999999-0211REMSYN076AAXX  10124 83339 32497 21412 10223 20155 39183 40138 82200 333 20163 59021;
0147833390999992005101018004-14050-042617FM-12+088299999V0201401N004612200019N0100001N1+02931+00831101101ADDGA1001+999999999GF100991001001999999001001MA1999999091411MD1999999-0101REMSYN064AAXX  10184 83339 32997 01409 10293 20083 39141 40110 333 59010;
0178833390999992005101100004-14050-042617FM-12+088299999V0200901N005112200019N0020001N1+02431+00981101201ADDGA1001+999999999GF100991001001999999001001KA1240M+03001MA1999999091631MD1999999-0051REMSYN082AAXX  11004 83339 32995 00910 10243 20098 39163 40120 333 10300 29044 55113 59005;
0156833390999992005101112004-14050-042617FM-12+088299999V0201401N006210042019N0100001N1+02091+01641101351ADDGF106991061021004501001001KA1240N+01701MA1999999091751MD1999999-0081REMSYN076AAXX  11124 83339 32497 61412 10209 20164 39175 40135 86200 333 20170 59008;
0137833390999992005101118004-14050-042617FM-12+088299999V0200901N004112200019N0100001N1+02931+00931101171ADDGF102991021021004501001001MA1999999091421MD1999999+0011REMSYN070AAXX  11184 83339 32497 20908 10293 20093 39142 40117 82200 333 58001;
0178833390999992005101200004-14050-042617FM-12+088299999V0201401N001512200019N0020001N1+02431+00991101151ADDGA1001+999999999GF100991001001999999001001KA1240M+03001MA1999999091521MD1999999-0111REMSYN082AAXX  12004 83339 32995 01403 10243 20099 39152 40115 333 10300 29045 55090 59011;
0156833390999992005101212004-14050-042617FM-12+088299999V0200901N008212200019N0100001N1+02251+01621101371ADDGF102991021021004501001001KA1240N+01741MA1999999091821MD1999999+0071REMSYN076AAXX  12124 83339 32497 20916 10225 20162 39182 40137 82200 333 20174 58007;
0137833390999992005101218004-14050-042617FM-12+088299999V0201401N004612200019N0100001N1+02931+01221101081ADDGF103991031021004501001001MA1999999091391MD1999999-0031REMSYN070AAXX  12184 83339 32497 31409 10293 20122 39139 40108 83200 333 59003;
0178833390999992005101300004-14050-042617FM-12+088299999V0200901N002612200019N0020001N1+02431+00981101161ADDGA1001+999999999GF100991001001999999001001KA1240M+02941MA1999999091591MD1999999+0071REMSYN082AAXX  13004 83339 32995 00905 10243 20098 39159 40116 333 10294 29045 55105 58007;
0156833390999992005101312004-14050-042617FM-12+088299999V0200901N005112200019N0100001N1+02291+01831101371ADDGF102991021021004501001001KA1240N+01721MA1999999091821MD1999999+0001REMSYN076AAXX  13124 83339 32497 20910 10229 20183 39182 40137 82200 333 20172 58000;
0137833390999992005101318004-14050-042617FM-12+088299999V0201401N004612200019N0100001N1+02891+01181101111ADDGF102991021021004501001001MA1999999091421MD1999999+0031REMSYN070AAXX  13184 83339 32497 21409 10289 20118 39142 40111 82200 333 58003;
0178833390999992005101400004-14050-042617FM-12+088299999V0201401N006212200019N0020001N1+02471+01351101061ADDGA1001+999999999GF100991001001999999001001KA1240M+03021MA1999999091551MD1999999-0041REMSYN082AAXX  14004 83339 32995 01412 10247 20135 39155 40106 333 10302 29052 55114 59004;
0156833390999992005101412004-14050-042617FM-12+088299999V0201401N004612200019N0100001N1+02331+01601101361ADDGF102991021021004501001001KA1240N+01701MA1999999091861MD1999999+0041REMSYN076AAXX  14124 83339 32497 21409 10233 20160 39186 40136 82200 333 20170 58004;
0137833390999992005101418004-14050-042617FM-12+088299999V0200501N001512200019N0100001N1+03171+00791101081ADDGF103991031021004501001001MA1999999091391MD1999999-0031REMSYN070AAXX  14184 83339 32497 30503 10317 20079 39139 40108 83200 333 59003;
0168833390999992005101500004-14050-042617FM-12+088299999V0201401N006712200019N0020001N1+02571+00941101101ADDGF104991041021004501001001KA1240M+03231MA1999999091571MD1999999+0021REMSYN088AAXX  15004 83339 32495 41413 10257 20094 39157 40110 84200 333 10323 29040 55106 58002;
0166833390999992005101512004-14050-042617FM-12+088299999V0201401N003112200019N0100001N1+02411+01951101261ADDGA1001+999999999GF100991001001999999001001KA1240N+01801MA1999999091771MD1999999-0091REMSYN070AAXX  15124 83339 32997 01406 10241 20195 39177 40126 333 20180 59009;
0137833390999992005101518004-14050-042617FM-12+088299999V0201401N003612200019N0100001N1+03211+01011101001ADDGF102991021021004501001001MA1999999091331MD1999999-0061REMSYN070AAXX  15184 83339 32497 21407 10321 20101 39133 40100 82200 333 59006;
0178833390999992005101600004-14050-042617FM-12+088299999V0201401N001512200019N0020001N1+02531+00541100981ADDGA1001+999999999GF100991001001999999001001KA1240M+03261MA1999999091501MD1999999-0071REMSYN082AAXX  16004 83339 32995 01403 10253 20054 39150 40098 333 10326 29034 55112 59007;
0166833390999992005101612004-14050-042617FM-12+088299999V0201401N006712200019N0100001N1+02311+01041101391ADDGA1001+999999999GF100991001001999999001001KA1240N+01701MA1999999091851MD1999999+0081REMSYN070AAXX  16124 83339 32997 01413 10231 20104 39185 40139 333 20170 58008;
0147833390999992005101618004-14050-042617FM-12+088299999V0201401N005112200019N0100001N1+02851+00901101231ADDGA1001+999999999GF100991001001999999001001MA1999999091531MD1999999+0201REMSYN064AAXX  16184 83339 32997 01410 10285 20090 39153 40123 333 58020;
0178833390999992005101700004-14050-042617FM-12+088299999V0200901N000512200019N0020001N1+02351+00831101191ADDGA1001+999999999GF100991001001999999001001KA1240M+02941MA1999999091651MD1999999+0151REMSYN082AAXX  17004 83339 32995 00901 10235 20083 39165 40119 333 10294 29042 55115 58015;
0156833390999992005101712004-14050-042617FM-12+088299999V0201401N005712200019N0100001N1+02321+01581101381ADDGF102991021011004501001001KA1240N+01661MA1999999091831MD1999999-0021REMSYN076AAXX  17124 83339 32497 21411 10232 20158 39183 40138 82100 333 20166 59002;
0137833390999992005101718004-14050-042617FM-12+088299999V0200501N004612200019N0100001N1+02941+01051100801ADDGF102991021001004501001041MA1999999091321MD1999999-0211REMSYN070AAXX  17184 83339 32497 20509 10294 20105 39132 40080 82004 333 59021;
0155833390999992005101800004-14050-042620FM-12+088299999V0200901N001512200019N0020001N1+02351+01201100991ADDGF102991001001999999001041MA1999999091741MD1999999-0181REMSYN088AAXX  18004 83339 32895 20903 10235 20120 39174 40099 80004 333 10300 29048 55116 59018;
0166833390999992005101812004-14050-042617FM-12+088299999V0200501N002112200019N0100001N1+02431+01761101261ADDGA1001+999999999GF100991001001999999001001KA1240N+01721MA1999999091741MD1999999-0091REMSYN070AAXX  18124 83339 32997 00504 10243 20176 39174 40126 333 20172 59009;
0137833390999992005101818004-14050-042617FM-12+088299999V0203601N002112200019N0100001N1+03271+00831100531ADDGF102991021011004501001001MA1999999091251MD1999999-0071REMSYN070AAXX  18184 83339 32497 23604 10327 20083 39125 40053 82100 333 59007;
0178833390999992005101900004-14050-042617FM-12+088299999V0201401N004112200019N0020001N1+02691+00891100961ADDGA1001+999999999GF100991001001999999001001KA1240M+03371MA1999999091531MD1999999+0061REMSYN082AAXX  19004 83339 32995 01408 10269 20089 39153 40096 333 10337 29038 55114 58006;
0166833390999992005101912004-14050-042617FM-12+088299999V0201401N005712200019N0100001N1+02441+01641101181ADDGA1001+999999999GF100991001001999999001001KA1240N+01871MA1999999091731MD1999999-0011REMSYN070AAXX  19124 83339 32997 01411 10244 20164 39173 40118 333 20187 59001;
0137833390999992005101918004-14050-042617FM-12+088299999V0201401N005112200019N0100001N1+03201+00891100801ADDGF102991011011004501001011MA1999999091421MD1999999+0171REMSYN070AAXX  19184 83339 32497 21410 10320 20089 39142 40080 81101 333 58017;
0178833390999992005102000004-14050-042617FM-12+088299999V0201401N005712200019N0020001N1+02511+01101101161ADDGA1001+999999999GF100991001001999999001001KA1240M+03291MA1999999091661MD1999999+0131REMSYN082AAXX  20004 83339 32995 01411 10251 20110 39166 40116 333 10329 29042 55110 58013;
0166833390999992005102012004-14050-042617FM-12+088299999V0201401N008212200019N0100001N1+02301+01291101311ADDGA1001+999999999GF100991001001999999001001KA1240N+01751MA1999999091781MD1999999+0051REMSYN070AAXX  20124 83339 32997 01416 10230 20129 39178 40131 333 20175 58005;
0147833390999992005102018004-14050-042617FM-12+088299999V0200901N006712200019N0100001N1+02871+01051100921ADDGA1001+999999999GF100991001001999999001001MA1999999091411MD1999999-0011REMSYN064AAXX  20184 83339 32997 00913 10287 20105 39141 40092 333 59001;
0178833390999992005102100004-14050-042617FM-12+088299999V0201401N006712200019N0020001N1+02401+01101101151ADDGA1001+999999999GF100991001001999999001001KA1240M+02961MA1999999091621MD1999999-0041REMSYN082AAXX  21004 83339 32995 01413 10240 20110 39162 40115 333 10296 29043 55114 59004;
0166833390999992005102112004-14050-042617FM-12+088299999V0201401N006712200019N0100001N1+02221+01191101431ADDGA1001+999999999GF100991001001999999001001KA1240N+01621MA1999999091851MD1999999+0071REMSYN070AAXX  21124 83339 32997 01413 10222 20119 39185 40143 333 20162 58007;
0137833390999992005102118004-14050-042617FM-12+088299999V0200901N006712200019N0100001N1+02691+01371101061ADDGF102991021011004501001001MA1999999091471MD1999999+0061REMSYN070AAXX  21184 83339 32497 20913 10269 20137 39147 40106 82100 333 58006;
0178833390999992005102200004-14050-042617FM-12+088299999V0201401N004612200019N0020001N1+02361+01201101051ADDGA1001+999999999GF100991001001999999001001KA1240M+02781MA1999999091511MD1999999-0111REMSYN082AAXX  22004 83339 32995 01409 10236 20120 39151 40105 333 10278 29048 55116 59011;
0166833390999992005102212004-14050-042617FM-12+088299999V0201401N003112200019N0100001N1+02311+01531101351ADDGA1001+999999999GF100991001001999999001001KA1240N+01691MA1999999091801MD1999999-0051REMSYN070AAXX  22124 83339 32997 01406 10231 20153 39180 40135 333 20169 59005;
0137833390999992005102218004-14050-042617FM-12+088299999V0200501N001512200019N0100001N1+03111+00881100751ADDGF102991021011004501001001MA1999999091271MD1999999-0201REMSYN070AAXX  22184 83339 32497 20503 10311 20088 39127 40075 82100 333 59020;
0178833390999992005102300004-14050-042617FM-12+088299999V0201401N003612200019N0020001N1+02611+00771100961ADDGA1001+999999999GF100991001001999999001001KA1240M+03221MA1999999091431MD1999999-0081REMSYN082AAXX  23004 83339 32995 01407 10261 20077 39143 40096 333 10322 29037 55100 59008;
0166833390999992005102312004-14050-042617FM-12+088299999V0201401N005112200019N0100001N1+02381+01631101151ADDGA1001+999999999GF100991001001999999001001KA1240N+01801MA1999999091671MD1999999-0131REMSYN070AAXX  23124 83339 32997 01410 10238 20163 39167 40115 333 20180 59013;
0137833390999992005102318004-14050-042617FM-12+088299999V0200501N003112200019N0100001N1+03201+00951100681ADDGF103991031011004501001001MA1999999091251MD1999999-0021REMSYN070AAXX  23184 83339 32497 30506 10320 20095 39125 40068 83100 333 59002;
0178833390999992005102400004-14050-042617FM-12+088299999V0201401N003112200019N0020001N1+02671+00961100921ADDGA1001+999999999GF100991001001999999001001KA1240M+03331MA1999999091461MD1999999+0031REMSYN082AAXX  24004 83339 32995 01406 10267 20096 39146 40092 333 10333 29039 55110 58003;
0156833390999992005102412004-14050-042617FM-12+088299999V0201401N003112200019N0100001N1+02451+01511101111ADDGF102991011021004501021001KA1240N+01881MA1999999091721MD1999999+0051REMSYN076AAXX  24124 83339 32497 21406 10245 20151 39172 40111 81220 333 20188 58005;
0137833390999992005102418004-14050-042617FM-12+088299999V0200501N005712200019N0100001N1+03111+00681100721ADDGF102991011021004501001041MA1999999091331MD1999999+0081REMSYN070AAXX  24184 83339 32497 20511 10311 20068 39133 40072 81204 333 58008;
0178833390999992005102500004-14050-042617FM-12+088299999V0201401N004612200019N0020001N1+02511+00671101051ADDGA1001+999999999GF100991001001999999001001KA1240M+03201MA1999999091561MD1999999+0101REMSYN082AAXX  25004 83339 32995 01409 10251 20067 39156 40105 333 10320 29034 55113 58010;
0166833390999992005102512004-14050-042617FM-12+088299999V0201401N008712200019N0100001N1+02291+01181101151ADDGA1001+999999999GF100991001001999999001001KA1240N+01701MA1999999091701MD1999999-0021REMSYN070AAXX  25124 83339 32997 01417 10229 20118 39170 40115 333 20170 59002;
0147833390999992005102518004-14050-042617FM-12+088299999V0200501N006212200019N0100001N1+02951+00551101081ADDGA1001+999999999GF100991001001999999001001MA1999999091351MD1999999+0021REMSYN064AAXX  25184 83339 32997 00512 10295 20055 39135 40108 333 58002;
0178833390999992005102600004-14050-042617FM-12+088299999V0200901N002612200019N0020001N1+02451+00751101031ADDGA1001+999999999GF100991001001999999001001KA1240M+03041MA1999999091491MD1999999-0071REMSYN082AAXX  26004 83339 32995 00905 10245 20075 39149 40103 333 10304 29037 55116 59007;
0156833390999992005102612004-14050-042617FM-12+088299999V0200901N004612200019N0100001N1+02371+01541101251ADDGF102991021021004501001001KA1240N+01701MA1999999091731MD1999999+0031REMSYN076AAXX  26124 83339 32497 20909 10237 20154 39173 40125 82200 333 20170 58003;
0147833390999992005102618004-14050-042617FM-12+088299999V0201401N003112200019N0100001N1+03151+00711100941ADDGA1001+999999999GF100991001001999999001001MA1999999091231MD1999999-0121REMSYN064AAXX  26184 83339 32997 01406 10315 20071 39123 40094 333 59012;
0178833390999992005102700004-14050-042617FM-12+088299999V0201401N004112200019N0020001N1+02571+00291100911ADDGA1001+999999999GF100991001001999999001001KA1240M+03161MA1999999091441MD1999999-0051REMSYN082AAXX  27004 83339 32995 01408 10257 20029 39144 40091 333 10316 29028 55113 59005;
0156833390999992005102712004-14050-042617FM-12+088299999V0200501N003112200019N0100001N1+02531+01691101081ADDGF102991011021004501021001KA1240N+01801MA1999999091651MD1999999-0081REMSYN076AAXX  27124 83339 32497 20506 10253 20169 39165 40108 81220 333 20180 59008;
0137833390999992005102718004-14050-042617FM-12+088299999V0200501N004612200019N0100001N1+03351+01191100891ADDGF103991031021004501001001MA1999999091201MD1999999-0031REMSYN070AAXX  27184 83339 32497 30509 10335 20119 39120 40089 83200 333 59003;
0168833390999992005102800004-14050-042617FM-12+088299999V0201401N005112200019N0020001N1+02791+01141100831ADDGF102991021021004501001001KA1240M+03451MA1999999091411MD1999999-0031REMSYN088AAXX  28004 83339 32495 21410 10279 20114 39141 40083 82200 333 10345 29039 55110 59003;
0156833390999992005102812004-14050-042617FM-12+088299999V0200901N001510450019N0100001N1+02611+01841100891ADDGF105991041021004501031001KA1240N+01961MA1999999091561MD1999999-0091REMSYN076AAXX  28124 83339 32497 50903 10261 20184 39156 40089 84230 333 20196 59009;
0137833390999992005102818004-14050-042617FM-12+088299999V0203601N001510042019N0100001N1+03231+01431100661ADDGF106991061021004501001001MA1999999091091MD1999999-0111REMSYN070AAXX  28184 83339 32497 63603 10323 20143 39109 40066 86200 333 59011;
0213833390999992005102900004-14050-042617FM-12+088299999V0200901N003112200019N0020001N1+02631+01761100661ADDAA106001091AY161061AY261061GF102991021021004501001001KA1240M+03441MA1999999091291MD1999999-0121MW1021REMSYN100AAXX  29004 83339 21495 20906 10263 20176 39129 40066 70266 82200 333 10344 29060 55071 59012 60011;
0201833390999992005102912004-14050-042617FM-12+088299999V0203201N003112200019N0100001N1+02771+01891100981ADDAA124001091AY161061AY261061GF103991031021004501001001KA1240N+01981MA1999999091581MD1999999+0021MW1021REMSYN088AAXX  29124 83339 21497 33206 10277 20189 39158 40098 70266 83200 333 20198 58002 60014;
0165833390999992005102918004-14050-042617FM-12+088299999V0202301N004610042019N0100001N1+02631+01931100701ADDAY191061AY201061GF106991051021004501021001MA1999999091211MD1999999+0121MW1021REMSYN076AAXX  29184 83339 31497 62309 10263 20193 39121 40070 70290 85220 333 58012;
0168833390999992005103000004-14050-042617FM-12+088299999V0209999C000010042019N0020001N1+02471+02031100921ADDGF105991051021004501001001KA1240M+03101MA1999999091391MD1999999+0101REMSYN088AAXX  30004 83339 32495 50000 10247 20203 39139 40092 85200 333 10310 29070 55048 58010;
0156833390999992005103012004-14050-042617FM-12+088299999V0200501N002610042019N0100001N1+02731+02001101131ADDGF106991051021004501031001KA1240N+02221MA1999999091651MD1999999+0071REMSYN076AAXX  30124 83339 32497 60505 10273 20200 39165 40113 85230 333 20222 58007;
0182833390999992005103018004-14050-042617FM-12+088299999V0201801N000510042019N0040001N1+01971+01931101071ADDAA106037191AY191061AY261061GF107991061021004501021999MA1999999091481MD1999999+0271MW1171REMSYN082AAXX  30184 83339 21496 71801 10197 20193 39148 40107 71796 8622/ 333 58027 60371;
0196833390999992005103100004-14050-042617FM-12+088299999V0209999C000010042019N0020001N1+02051+02041101151ADDAY101061AY201061GF108991081051004501999999KA1240M+03101MA1999999091641MD1999999+0251MW1401REMSYN094AAXX  31004 83339 31495 80000 10205 20204 39164 40115 74000 885// 333 10310 29088 55010 58025;
0201833390999992005103112004-14050-042617FM-12+088299999V0209999C000010042019N0020001N1+02041+02021101471ADDAA124040991AY191061AY261061GF108991061021004501021999KA1240N+01961MA1999999091791MD1999999+0141MW1601REMSYN088AAXX  31124 83339 21495 80000 10204 20202 39179 40147 76096 8622/ 333 20196 58014 60414;
0182833390999992005103118004-14050-042617FM-12+088299999V0201401N001010450019N0100001N1+02361+02071101101ADDAA106003091AY161061AY221061GF108991041021004501021999MA1999999091511MD1999999+0031MW1021REMSYN082AAXX  31184 83339 21497 81402 10236 20207 39151 40110 70262 8422/ 333 58003 60031;
0178833390999992005110100004-14050-042617FM-12+088299999V0209999C000012200019N0020001N1+02111+01891101361ADDGA1001+999999999GF100991001001999999001001KA1240M+02421MA1999999091691MD1999999+0051REMSYN082AAXX  01004 83339 32995 00000 10211 20189 39169 40136 333 10242 29089 55012 58005;
0201833390999992005110112004-14050-042617FM-12+088299999V0200901N002612200019N0100001N1+02451+01941101371ADDAA124003091AY161061AY221061GF104991021011004501031001KA1240N+01901MA1999999091801MD1999999+0011MW1021REMSYN088AAXX  01124 83339 21497 40905 10245 20194 39180 40137 70262 82130 333 20190 58001 60034;
0178833390999992005110200004-14050-042617FM-12+088299999V0201401N005712200019N0020001N1+02551+01801101301ADDGA1001+999999999GF100991001001999999001001KA1240M+03101MA1999999091641MD1999999-0051REMSYN082AAXX  02004 83339 32995 01411 10255 20180 39164 40130 333 10310 29062 55093 59005;
0156833390999992005110212004-14050-042617FM-12+088299999V0201401N004610042019N0100001N1+02251+01861101391ADDGF106991061021004501001001KA1240N+01961MA1999999091851MD1999999+0051REMSYN076AAXX  02124 83339 32497 61409 10225 20186 39185 40139 86200 333 20196 58005;
0137833390999992005110218004-14050-042617FM-12+088299999V0200901N004112200019N0100001N1+02911+01531100961ADDGF104991021011004501001011MA1999999091501MD1999999+0151REMSYN070AAXX  02184 83339 32497 40908 10291 20153 39150 40096 82101 333 58015;
0178833390999992005110300004-14050-042617FM-12+088299999V0201401N001012200019N0020001N1+02511+01461101161ADDGA1001+999999999GF100991001001999999001001KA1240M+02981MA1999999091711MD1999999+0071REMSYN082AAXX  03004 83339 32995 01402 10251 20146 39171 40116 333 10298 29056 55081 58007;
0166833390999992005110312004-14050-042617FM-12+088299999V0201401N006212200019N0100001N1+02461+01221101411ADDGA1001+999999999GF100991001001999999001001KA1240N+01871MA1999999091911MD1999999+0061REMSYN070AAXX  03124 83339 32997 01412 10246 20122 39191 40141 333 20187 58006;
0137833390999992005110318004-14050-042617FM-12+088299999V0200901N005712200019N0100001N1+02981+01271101001ADDGF102991021021004501001001MA1999999091541MD1999999+0041REMSYN070AAXX  03184 83339 32497 20911 10298 20127 39154 40100 82200 333 58004;
0178833390999992005110400004-14050-042617FM-12+088299999V0201401N001512200019N0020001N1+02511+01101101151ADDGA1001+999999999GF100991001001999999001001KA1240M+03051MA1999999091371MD1999999-0041REMSYN082AAXX  04004 83339 32995 01403 10251 20110 39137 40115 333 10305 29041 55116 59004;
0166833390999992005110412004-14050-042617FM-12+088299999V0200901N005712200019N0100001N1+02401+01471101281ADDGA1001+999999999GF100991001001999999001001KA1240N+01841MA1999999091771MD1999999-0141REMSYN070AAXX  04124 83339 32997 00911 10240 20147 39177 40128 333 20184 59014;
0147833390999992005110418004-14050-042617FM-12+088299999V0200901N005112200019N0100001N1+02941+01231100841ADDGA1001+999999999GF100991001001999999001001MA1999999091351MD1999999-0191REMSYN064AAXX  04184 83339 32997 00910 10294 20123 39135 40084 333 59019;
0178833390999992005110500004-14050-042617FM-12+088299999V0201401N003612200019N0020001N1+02541+01161101061ADDGA1001+999999999GF100991001001999999001001KA1240M+02991MA1999999091571MD1999999-0101REMSYN082AAXX  05004 83339 32995 01407 10254 20116 39157 40106 333 10299 29044 55116 59010;
0166833390999992005110512004-14050-042617FM-12+088299999V0201401N005712200019N0100001N1+02351+01321101191ADDGA1001+999999999GF100991001001999999001001KA1240N+01801MA1999999091691MD1999999-0081REMSYN070AAXX  05124 83339 32997 01411 10235 20132 39169 40119 333 20180 59008;
0147833390999992005110518004-14050-042617FM-12+088299999V0200901N005112200019N0100001N1+03031+01041100661ADDGA1001+999999999GF100991001001999999001001MA1999999091241MD1999999-0111REMSYN064AAXX  05184 83339 32997 00910 10303 20104 39124 40066 333 59011;
0178833390999992005110600004-14050-042617FM-12+088299999V0200901N005112200019N0020001N1+02461+01411100981ADDGA1001+999999999GF100991001001999999001001KA1240M+03081MA1999999091481MD1999999-0091REMSYN082AAXX  06004 83339 32995 00910 10246 20141 39148 40098 333 10308 29046 55117 59009;
0166833390999992005110612004-14050-042617FM-12+088299999V0200501N005112200019N0100001N1+02401+01131101231ADDGA1001+999999999GF100991001001999999001001KA1240N+01761MA1999999091731MD1999999+0041REMSYN070AAXX  06124 83339 32997 00510 10240 20113 39173 40123 333 20176 58004;
0147833390999992005110618004-14050-042617FM-12+088299999V0200901N005112200019N0100001N1+03021+00801100801ADDGA1001+999999999GF100991001001999999001001MA1999999091341MD1999999+0101REMSYN064AAXX  06184 83339 32997 00910 10302 20080 39134 40080 333 58010;
0178833390999992005110700004-14050-042617FM-12+088299999V0201401N005712200019N0020001N1+02531+00931101001ADDGA1001+999999999GF100991001001999999001001KA1240M+03051MA1999999091521MD1999999+0041REMSYN082AAXX  07004 83339 32995 01411 10253 20093 39152 40100 333 10305 29036 55118 58004;
0147833390999992005110718004-14050-042617FM-12+088299999V0201401N003612200019N0100001N1+03031+00801100881ADDGA1001+999999999GF100991001001999999001001MA1999999091241MD1999999-0101REMSYN064AAXX  07184 83339 32997 01407 10303 20080 39124 40088 333 59010;
0156833390999992005110812004-14050-042617FM-12+088299999V0201801N003112200019N0100001N1+02491+01681100961ADDGF103991021021004501001041KA1240N+01881MA1999999091501MD1999999-0191REMSYN076AAXX  08124 83339 32497 31806 10249 20168 39150 40096 82204 333 20188 59019;
0137833390999992005110818004-14050-042617FM-12+088299999V0200501N004610042019N0100001N1+03051+01281100961ADDGF106991051021004501021001MA1999999091261MD1999999+0021REMSYN070AAXX  08184 83339 32497 60509 10305 20128 39126 40096 85220 333 58002;
0168833390999992005110900004-14050-042617FM-12+088299999V0201401N006212200019N0020001N1+02571+01061100731ADDGF102991011021004501031001KA1240M+03101MA1999999091301MD1999999-0151REMSYN088AAXX  09004 83339 32495 21412 10257 20106 39130 40073 81230 333 10310 29043 55112 59015;
0156833390999992005110912004-14050-042617FM-12+088299999V0200501N005112200019N0100001N1+02351+01761101101ADDGF103991031021004501001001KA1240N+01901MA1999999091611MD1999999+0111REMSYN076AAXX  09124 83339 32497 30510 10235 20176 39161 40110 83200 333 20190 58011;
0137833390999992005110918004-14050-042617FM-12+088299999V0200901N004612200019N0100001N1+02951+01301100881ADDGF102991021021004501001001MA1999999091241MD1999999-0021REMSYN070AAXX  09184 83339 32497 20909 10295 20130 39124 40088 82200 333 59002;
0178833390999992005111000004-14050-042617FM-12+088299999V0201401N006712200019N0020001N1+02571+01281100911ADDGA1001+999999999GF100991001001999999001001KA1240M+03101MA1999999091401MD1999999+0101REMSYN082AAXX  10004 83339 32995 01413 10257 20128 39140 40091 333 10310 29048 55114 58010;
0156833390999992005111012004-14050-042617FM-12+088299999V0201401N006210042019N0100001N1+02251+01781101011ADDGF106991061021004501001001KA1240N+01921MA1999999091591MD1999999-0021REMSYN076AAXX  10124 83339 32497 61412 10225 20178 39159 40101 86200 333 20192 59002;
0137833390999992005111018004-14050-042617FM-12+088299999V0200501N006212200019N0100001N1+02871+01521100801ADDGF103991021021004501021001MA1999999091161MD1999999-0081REMSYN070AAXX  10184 83339 32497 30512 10287 20152 39116 40080 82220 333 59008;
0168833390999992005111100004-14050-042617FM-12+088299999V0200901N005712200019N0020001N1+02511+01501100821ADDGF102991021021004501001001KA1240M+02981MA1999999091341MD1999999-0061REMSYN088AAXX  11004 83339 32495 20911 10251 20150 39134 40082 82200 333 10298 29058 55089 59006;
0184833390999992005111112004-14050-042617FM-12+088299999V0200901N002110042019N0040001N1+02131+01841100951ADDAY101061AY201061GF107991061021004501021999KA1240N+01921MA1999999091521MD1999999-0071MW1101REMSYN082AAXX  11124 83339 31496 70904 10213 20184 39152 40095 71000 8622/ 333 20192 59007;
0137833390999992005111118004-14050-042617FM-12+088299999V0203601N001510042019N0040001N1+02451+01861100951ADDGF106991051021004501031001MA1999999091251MD1999999+0091REMSYN070AAXX  11184 83339 32496 63603 10245 20186 39125 40095 85230 333 58009;
0213833390999992005111200004-14050-042617FM-12+088299999V0200501N003110042019N0020001N1+01951+01911101041ADDAA106013091AY191061AY261061GF108991081051004501999999KA1240M+02781MA1999999091401MD1999999+0061MW1101REMSYN100AAXX  12004 83339 21495 80506 10195 20191 39140 40104 71096 885// 333 10278 29086 55031 58006 60131;
0201833390999992005111212004-14050-042617FM-12+088299999V0200501N004610042019N0040001N1+01871+01861101171ADDAA124014091AY161061AY261061GF108991081051004501999999KA1240N+01831MA1999999091451MD1999999-0071MW1101REMSYN088AAXX  12124 83339 21496 80509 10187 20186 39145 40117 71066 885// 333 20183 59007 60144;
0182833390999992005111218004-14050-042617FM-12+088299999V0201401N002110042019N0040001N1+02191+01921100821ADDAA106001091AY161061AY261061GF107991061021004501021999MA1999999091201MD1999999-0051MW1101REMSYN082AAXX  12184 83339 21496 71404 10219 20192 39120 40082 71066 8622/ 333 59005 60011;
0196833390999992005111300004-14050-042617FM-12+088299999V0200501N001510042019N0020001N1+02031+01971101071ADDAY101061AY201061GF108991081051004501999999KA1240M+02261MA1999999091381MD1999999-0021MW1101REMSYN094AAXX  13004 83339 31495 80503 10203 20197 39138 40107 71000 885// 333 10226 29093 55000 59002;
0201833390999992005111312004-14050-042617FM-12+088299999V0203601N003110042019N0040001N1+01751+01711101321ADDAA124005191AY161061AY261061GF108991081051004501999999KA1240N+01681MA1999999091591MD1999999+0141MW1601REMSYN088AAXX  13124 83339 21496 83606 10175 20171 39159 40132 76066 885// 333 20168 58014 60054;
0213833390999992005111400004-14050-042617FM-12+088299999V0203201N005110042019N0020001N1+01791+01781101271ADDAA106000591AY161061AY261061GF108991081051004501999999KA1240M+02961MA1999999091491MD1999999+0111MW1501REMSYN100AAXX  14004 83339 21495 83210 10179 20178 39149 40127 75066 885// 333 10296 29098 55000 58011 69961;
0201833390999992005111412004-14050-042617FM-12+088299999V0201401N006210042019N0020001N1+01791+01771101341ADDAA124007991AY161061AY261061GF108991051051004501021999KA1240N+01701MA1999999091571MD1999999-0021MW1401REMSYN088AAXX  14124 83339 21495 81412 10179 20177 39157 40134 74066 8552/ 333 20170 59002 60084;
0165833390999992005111418004-14050-042617FM-12+088299999V0201401N004610450019N0100001N1+02081+01801100981ADDAY141061AY221061GF108991041051004501021999MA1999999091281MD1999999-0071MW1021REMSYN076AAXX  14184 83339 31497 81409 10208 20180 39128 40098 70242 8452/ 333 59007;
0168833390999992005111500004-14050-042617FM-12+088299999V0201401N005110042019N0020001N1+01981+01831101221ADDGF108991061021004501021999KA1240M+02171MA1999999091501MD1999999+0011REMSYN088AAXX  15004 83339 32495 81410 10198 20183 39150 40122 8622/ 333 10217 29091 55000 58001;
0184833390999992005111512004-14050-042617FM-12+088299999V0200901N005110042019N0020001N1+01931+01861101321ADDAY121061AY221061GF108991051051004501021999KA1240N+01761MA1999999091611MD1999999+0041MW1401REMSYN082AAXX  15124 83339 31495 80910 10193 20186 39161 40132 74022 8552/ 333 20176 58004;
0137833390999992005111518004-14050-042617FM-12+088299999V0200901N003610042019N0100001N1+02361+01871100971ADDGF106991061021004501001001MA1999999091351MD1999999+0071REMSYN070AAXX  15184 83339 32497 60907 10236 20187 39135 40097 86200 333 58007;
0213833390999992005111600004-14050-042617FM-12+088299999V0200501N001010042019N0020001N1+02071+01961101231ADDAA106000891AY161061AY221061GF108991061021004501021999KA1240M+02401MA1999999091551MD1999999+0051MW1021REMSYN100AAXX  16004 83339 21495 80502 10207 20196 39155 40123 70262 8622/ 333 10240 29089 55000 58005 69971;
0201833390999992005111612004-14050-042617FM-12+088299999V0209999C000010450019N0020001N1+01951+01891101391ADDAA124020191AY161061AY261061GF108991041021004501021999KA1240N+01881MA1999999091691MD1999999+0081MW1401REMSYN088AAXX  16124 83339 21495 80000 10195 20189 39169 40139 74066 8422/ 333 20188 58008 60204;
0182833390999992005111618004-14050-042617FM-12+088299999V0201401N001510450019N0100001N1+02221+01821101001ADDAA106001091AY161061AY241061GF108991031051004501021999MA1999999091361MD1999999+0011MW1021REMSYN082AAXX  16184 83339 21497 81403 10222 20182 39136 40100 70264 8352/ 333 58001 60011;
0213833390999992005111700004-14050-042617FM-12+088299999V0200901N001510042019N0020001N1+01791+01451101211ADDAA106000391AY161061AY221061GF106991051021004501031001KA1240M+02261MA1999999091471MD1999999-0081MW1021REMSYN100AAXX  17004 83339 21495 60903 10179 20145 39147 40121 70262 85230 333 10226 29084 55000 59008 69931;
0201833390999992005111712004-14050-042617FM-12+088299999V0200501N002610042019N0100001N1+02071+01951101211ADDAA124001091AY161061AY221061GF106991061021004501001001KA1240N+01661MA1999999091511MD1999999-0181MW1021REMSYN088AAXX  17124 83339 21497 60505 10207 20195 39151 40121 70262 86200 333 20166 59018 60014;
0137833390999992005111718004-14050-042617FM-12+088299999V0200501N003612200019N0100001N1+02831+01731100581ADDGF103991031021004501001001MA1999999091081MD1999999-0281REMSYN070AAXX  17184 83339 32497 30507 10283 20173 39108 40058 83200 333 59028;
0168833390999992005111800004-14050-042617FM-12+088299999V0200901N003110042019N0020001N1+02451+01711100791ADDGF106991061021004501001001KA1240M+02801MA1999999091251MD1999999-0221REMSYN088AAXX  18004 83339 32495 60906 10245 20171 39125 40079 86200 333 10280 29066 55078 59022;
0156833390999992005111812004-14050-042617FM-12+088299999V0200901N002612200019N0100001N1+02451+01941100841ADDGF102991011011004501001011KA1240N+01841MA1999999091371MD1999999-0141REMSYN076AAXX  18124 83339 32497 20905 10245 20194 39137 40084 81101 333 20184 59014;
0137833390999992005111818004-14050-042617FM-12+088299999V0200901N003112200019N0100001N1+03011+01691100491ADDGF105991031021004501001011MA1999999091081MD1999999+0001REMSYN070AAXX  18184 83339 32497 50906 10301 20169 39108 40049 83201 333 58000;
0168833390999992005111900004-14050-042617FM-12+088299999V0201401N003112200019N0020001N1+02451+01471100761ADDGF104991031021004501001011KA1240M+03061MA1999999091301MD1999999+0051REMSYN088AAXX  19004 83339 32495 41406 10245 20147 39130 40076 83201 333 10306 29057 55102 58005;
0166833390999992005111912004-14050-042617FM-12+088299999V0200901N003112200019N0020001N1+02431+01741101001ADDGA1001+999999999GF100991001001999999001001KA1240N+01841MA1999999091521MD1999999+0151REMSYN070AAXX  19124 83339 32995 00906 10243 20174 39152 40100 333 20184 58015;
0137833390999992005111918004-14050-042617FM-12+088299999V0200901N002112200019N0100001N1+03071+01311100631ADDGF102991021021004501001001MA1999999091211MD1999999+0131REMSYN070AAXX  19184 83339 32497 20904 10307 20131 39121 40063 82200 333 58013;
0178833390999992005112000004-14050-042617FM-12+088299999V0201401N004112200019N0020001N1+02561+01171100951ADDGA1001+999999999GF100991001001999999001001KA1240M+03151MA1999999091491MD1999999+0191REMSYN082AAXX  20004 83339 32995 01408 10256 20117 39149 40095 333 10315 29046 55116 58019;
0156833390999992005112012004-14050-042617FM-12+088299999V0200901N001512200019N0100001N1+02551+01511101011ADDGF102991021021004501001001KA1240N+01801MA1999999091591MD1999999+0071REMSYN076AAXX  20124 83339 32497 20903 10255 20151 39159 40101 82200 333 20180 58007;
0137833390999992005112018004-14050-042617FM-12+088299999V0200501N003112200019N0100001N1+03111+01141100531ADDGF102991021021004501001001MA1999999091151MD1999999-0061REMSYN070AAXX  20184 83339 32497 20506 10311 20114 39115 40053 82200 333 59006;
0178833390999992005112100004-14050-042617FM-12+088299999V0201401N005112200019N0020001N1+02551+01121100701ADDGA1001+999999999GF100991001001999999001001KA1240M+03231MA1999999091291MD1999999-0201REMSYN082AAXX  21004 83339 32995 01410 10255 20112 39129 40070 333 10323 29041 55097 59020;
0156833390999992005112112004-14050-042617FM-12+088299999V0200501N002612200019N0100001N1+02591+01871100821ADDGF103991021021004501021001KA1240N+01921MA1999999091401MD1999999-0121REMSYN076AAXX  21124 83339 32497 30505 10259 20187 39140 40082 82220 333 20192 59012;
0137833390999992005112118004-14050-042617FM-12+088299999V0203601N008210042019N0100001N1+02631+01371100561ADDGF106991061021004501001001MA1999999091101MD1999999-0051REMSYN070AAXX  21184 83339 32497 63616 10263 20137 39110 40056 86200 333 59005;
0213833390999992005112200004-14050-042617FM-12+088299999V0201401N010812200019N0020001N1+02311+01531100831ADDAA106015091AY191061AY261061GF103991031021004501001001KA1240M+03311MA1999999091361MD1999999+0071MW1021REMSYN100AAXX  22004 83339 21495 31421 10231 20153 39136 40083 70296 83200 333 10331 29058 55079 58007 60151;
0201833390999992005112212004-14050-042617FM-12+088299999V0200501N003110042019N0040001N1+02111+01741101041ADDAA124015091AY161061AY261061GF108991081051004501999999KA1240N+01941MA1999999091451MD1999999+0051MW1101REMSYN088AAXX  22124 83339 21496 80506 10211 20174 39145 40104 71066 885// 333 20194 58005 60154;
0137833390999992005112218004-14050-042617FM-12+088299999V0201401N003610450019N0100001N1+02711+01441100601ADDGF105991041021004501031001MA1999999091121MD1999999+0021REMSYN070AAXX  22184 83339 32497 51407 10271 20144 39112 40060 84230 333 58002;
0168833390999992005112300004-14050-042617FM-12+088299999V0200901N006212200019N0020001N1+02491+01371100811ADDGF104991041021004501001001KA1240M+02821MA1999999091291MD1999999-0071REMSYN088AAXX  23004 83339 32495 40912 10249 20137 39129 40081 84200 333 10282 29056 55059 59007;
0201833390999992005112312004-14050-042617FM-12+088299999V0200501N003110042019N0040001N1+02011+01831101101ADDAA124000591AY161061AY261061GF108991081051004501999999KA1240N+01861MA1999999091541MD1999999+0091MW1101REMSYN088AAXX  23124 83339 21496 80506 10201 20183 39154 40110 71066 885// 333 20186 58009 69954;
0165833390999992005112318004-14050-042617FM-12+088299999V0200901N004110042019N0040001N1+02151+01841100951ADDAY101061AY201061GF107991061021004501021999MA1999999091321MD1999999+0201MW1101REMSYN076AAXX  23184 83339 31496 70908 10215 20184 39132 40095 71000 8622/ 333 58020;
0168833390999992005112400004-14050-042617FM-12+088299999V02099999999990042019N0020001N1+02071+01641101071ADDGF105991051021004501001001KA1240M+03081MA1999999091431MD1999999+0141REMSYN088AAXX  24004 83339 32495 5//// 10207 20164 39143 40107 85200 333 10308 29081 55000 58014;
0184833390999992005112412004-14050-042617FM-12+088299999V02099999999990042019N0040001N1+02131+01841101241ADDAY101061AY201061GF106991051021004501021001KA1240N+01901MA1999999091601MD1999999+0061MW1101REMSYN082AAXX  24124 83339 31496 6//// 10213 20184 39160 40124 71000 85220 333 20190 58006;
0137833390999992005112418004-14050-042617FM-12+088299999V02099999999990042019N0100001N1+02251+01841101041ADDGF106991061021004501001001MA1999999091401MD1999999+0081REMSYN070AAXX  24184 83339 32497 6//// 10225 20184 39140 40104 86200 333 58008;
0196833390999992005112500004-14050-042617FM-12+088299999V0200501N003110042019N0020001N1+02091+01821101131ADDAY101061AY201061GF108991081051004501999999KA1240M+02481MA1999999091501MD1999999+0071MW1101REMSYN094AAXX  25004 83339 31495 80506 10209 20182 39150 40113 71000 885// 333 10248 29082 55006 58007;
0201833390999992005112512004-14050-042617FM-12+088299999V0203601N000510042019N0040001N1+02091+01871101221ADDAA124021191AY161061AY261061GF108991081051004501999999KA1240N+01921MA1999999091581MD1999999-0021MW1101REMSYN088AAXX  25124 83339 21496 83601 10209 20187 39158 40122 71066 885// 333 20192 59002 60214;
0137833390999992005112518004-14050-042617FM-12+088299999V0203201N001510042019N0100001N1+02451+01901100781ADDGF106991051021004501021001MA1999999091201MD1999999-0201REMSYN070AAXX  25184 83339 32497 63203 10245 20190 39120 40078 85220 333 59020;
0196833390999992005112600004-14050-042617FM-12+088299999V0200901N000510042019N0020001N1+02111+01951101031ADDAY101061AY201061GF108991081051004501999999KA1240M+02551MA1999999091371MD1999999-0131MW1101REMSYN094AAXX  26004 83339 31495 80901 10211 20195 39137 40103 71000 885// 333 10255 29085 55012 59013;
0201833390999992005112612004-14050-042617FM-12+088299999V0200501N000510042019N0040001N1+02091+02011101021ADDAA124002091AY161061AY261061GF108991081051004501999999KA1240N+02001MA1999999091401MD1999999-0181MW1101REMSYN088AAXX  26124 83339 21496 80501 10209 20201 39140 40102 71066 885// 333 20200 59018 60024;
0182833390999992005112618004-14050-042617FM-12+088299999V0203601N002110042019N0040001N1+02091+02031100711ADDAA106009991AY161061AY261061GF107991061021004501021999MA1999999091101MD1999999-0101MW1101REMSYN082AAXX  26184 83339 21496 73604 10209 20203 39110 40071 71066 8622/ 333 59010 60101;
0196833390999992005112700004-14050-042617FM-12+088299999V0200901N001010042019N0020001N1+02051+01801100901ADDAY101061AY201061GF108991081051004501999999KA1240M+02801MA1999999091271MD1999999-0101MW1101REMSYN094AAXX  27004 83339 31495 80902 10205 20180 39127 40090 71000 885// 333 10280 29090 55000 59010;
0182833390999992005112718004-14050-042617FM-12+088299999V0200501N001510042019N0040001N1+02231+02011100691ADDAA106002091AY161061AY221061GF108991081051004501999999MA1999999091101MD1999999+0001MW1101REMSYN082AAXX  27184 83339 21496 80503 10223 20201 39110 40069 71062 885// 333 58000 60021;
0213833390999992005112800004-14050-042617FM-12+088299999V0203201N000510042019N0040001N1+01951+01871100941ADDAA106023191AY161061AY231061GF108991081051004501999999KA1240M+02331MA1999999091331MD1999999+0061MW1401REMSYN100AAXX  28004 83339 21496 83201 10195 20187 39133 40094 74063 885// 333 10233 29090 55000 58006 60231;
0201833390999992005112812004-14050-042617FM-12+088299999V0203601N001010042019N0020001N1+02071+02011101041ADDAA124024991AY161061AY241061GF108991051051004501021999KA1240N+01931MA1999999091381MD1999999+0031MW1601REMSYN088AAXX  28124 83339 21495 83602 10207 20201 39138 40104 76064 8552/ 333 20193 58003 60254;
0182833390999992005112818004-14050-042617FM-12+088299999V0201401N004110042019N0100001N1+02231+02051100721ADDAA106000021AY161061AY241061GF108991061021004501021999MA1999999091131MD1999999+0031MW1021REMSYN082AAXX  28184 83339 21497 81408 10223 20205 39113 40072 70264 8622/ 333 58003 69921;
0213833390999992005112900004-14050-042617FM-12+088299999V0200901N005710042019N0020001N1+02031+01991101031ADDAA106005191AY161061AY241061GF108991061021004501021999KA1240M+02311MA1999999091391MD1999999+0061MW1401REMSYN100AAXX  29004 83339 21495 80911 10203 20199 39139 40103 74064 8622/ 333 10231 29095 55000 58006 60051;
0201833390999992005112912004-14050-042617FM-12+088299999V0201401N003610042019N0100001N1+01961+01881101311ADDAA124007191AY161061AY241061GF108991051021004501021999KA1240N+01821MA1999999091631MD1999999+0251MW1401REMSYN088AAXX  29124 83339 21497 81407 10196 20188 39163 40131 74064 8522/ 333 20182 58025 60074;
0165833390999992005112918004-14050-042617FM-12+088299999V0200901N004610042019N0100001N1+02441+01921100971ADDAY141061AY221061GF106991051021004501001041MA1999999091371MD1999999+0241MW1021REMSYN076AAXX  29184 83339 31497 60909 10244 20192 39137 40097 70242 85204 333 58024;
0168833390999992005113000004-14050-042617FM-12+088299999V0200901N005712200019N0020001N1+02021+01811101291ADDGF104991041021004501001001KA1240M+02481MA1999999091611MD1999999+0221REMSYN088AAXX  30004 83339 32495 40911 10202 20181 39161 40129 84200 333 10248 29086 55005 58022;
0156833390999992005113012004-14050-042617FM-12+088299999V0200901N005712200019N0100001N1+02201+01801101311ADDGF103991031021004501001001KA1240N+01821MA1999999091661MD1999999+0291REMSYN076AAXX  30124 83339 32497 30911 10220 20180 39166 40131 83200 333 20182 58029;
0137833390999992005113018004-14050-042617FM-12+088299999V0200901N005112200019N0100001N1+02671+01731100861ADDGF102991021011004501001001MA1999999091321MD1999999-0051REMSYN070AAXX  30184 83339 32497 20910 10267 20173 39132 40086 82100 333 59005;
0178833390999992005120100004-14050-042617FM-12+088299999V0201401N005112200019N0020001N1+02311+01791101041ADDGA1001+999999999GF100991001001999999001001KA1240M+02721MA1999999091481MD1999999-0131REMSYN082AAXX  01004 83339 32995 01410 10231 20179 39148 40104 333 10272 29070 55100 59013;
0156833390999992005120112004-14050-042617FM-12+088299999V0200901N003110042019N0100001N1+02241+01751101171ADDGF105991051021004501001001KA1240N+01881MA1999999091621MD1999999-0041REMSYN076AAXX  01124 83339 32497 50906 10224 20175 39162 40117 85200 333 20188 59004;
0137833390999992005120118004-14050-042617FM-12+088299999V0201401N000512200019N0100001N1+02771+01511100731ADDGF102991021011004501001001MA1999999091251MD1999999-0071REMSYN070AAXX  01184 83339 32497 21401 10277 20151 39125 40073 82100 333 59007;
0178833390999992005120200004-14050-042617FM-12+088299999V0201801N001512200019N0020001N1+02211+01461100911ADDGA1001+999999999GF100991001001999999001001KA1240M+02831MA1999999091341MD1999999-0141REMSYN082AAXX  02004 83339 32995 01803 10221 20146 39134 40091 333 10283 29061 55100 59014;
0175833390999992005120212004-14050-042617FM-12+088299999V0200501N002612200019N0020001N1+02431+01811100901ADDGF102991001001999999001011KA1240N+01771MA1999999091371MD1999999-0251REMSYN076AAXX  02124 83339 32895 20505 10243 20181 39137 40090 80001 333 20177 59025;EQDQ01+022502SCOLCB
0137833390999992005120218004-14050-042617FM-12+088299999V0200901N002112200019N0100001N1+03011+01661100451ADDGF102991021021004501001001MA1999999091021MD1999999-0231REMSYN070AAXX  02184 83339 32497 20904 10301 20166 39102 40045 82200 333 59023;
0178833390999992005120300004-14050-042617FM-12+088299999V0201801N002112200019N0020001N1+02431+01531100631ADDGA1001+999999999GF100991001001999999001001KA1240M+03061MA1999999091181MD1999999-0071REMSYN082AAXX  03004 83339 32995 01804 10243 20153 39118 40063 333 10306 29057 55111 59007;
0156833390999992005120312004-14050-042617FM-12+088299999V0200901N001510450019N0100001N1+02691+01831100631ADDGF106991031021004501031001KA1240N+01981MA1999999091231MD1999999-0141REMSYN076AAXX  03124 83339 32497 60903 10269 20183 39123 40063 83230 333 20198 59014;
0137833390999992005120318004-14050-042617FM-12+088299999V0203601N003110042019N0100001N1+02671+02181100561ADDGF106991051021004501031001MA1999999091101MD1999999+0081REMSYN070AAXX  03184 83339 32497 63606 10267 20218 39110 40056 85230 333 58008;
0168833390999992005120400004-14050-042617FM-12+088299999V0200901N004612200019N0020001N1+02261+02011100781ADDGF104991041021004501001001KA1240M+03071MA1999999091321MD1999999+0141REMSYN088AAXX  04004 83339 32495 40909 10226 20201 39132 40078 84200 333 10307 29076 55075 58014;
0156833390999992005120412004-14050-042617FM-12+088299999V0200901N004610042019N0100001N1+01921+01591101201ADDGF108991051051004501021999KA1240N+01741MA1999999091561MD1999999+0331REMSYN076AAXX  04124 83339 32497 80909 10192 20159 39156 40120 8552/ 333 20174 58033;
0137833390999992005120418004-14050-042617FM-12+088299999V0200501N003112200019N0100001N1+02481+01801100731ADDGF103991021011004501001011MA1999999091151MD1999999+0051REMSYN070AAXX  04184 83339 32497 30506 10248 20180 39115 40073 82101 333 58005;
0178833390999992005120500004-14050-042617FM-12+088299999V0200901N003112200019N0020001N1+02221+01671100881ADDGA1001+999999999GF100991001001999999001001KA1240M+02521MA1999999091251MD1999999-0071REMSYN082AAXX  05004 83339 32995 00906 10222 20167 39125 40088 333 10252 29072 55049 59007;
0184833390999992005120512004-14050-042617FM-12+088299999V0201401N001510042019N0040001N1+01991+01781101051ADDAY101061AY201061GF108991081051004501999999KA1240N+01761MA1999999091431MD1999999-0131MW1101REMSYN082AAXX  05124 83339 31496 81403 10199 20178 39143 40105 71000 885// 333 20176 59013;
0137833390999992005120518004-14050-042617FM-12+088299999V0200501N003110042019N0100001N1+02531+01891100571ADDGF106991051021004501021001MA1999999091011MD1999999-0141REMSYN070AAXX  05184 83339 32497 60506 10253 20189 39101 40057 85220 333 59014;
0196833390999992005120600004-14050-042617FM-12+088299999V0200901N001510042019N0020001N1+02131+01821100711ADDAY101061AY201061GF105991051021004501001001KA1240M+02601MA1999999091101MD1999999-0151MW1101REMSYN094AAXX  06004 83339 31495 50903 10213 20182 39110 40071 71000 85200 333 10260 29080 55055 59015;
0156833390999992005120612004-14050-042617FM-12+088299999V0203601N006210042019N0040001N1+02191+01781100811ADDGF107991061021004501021021KA1240N+01931MA1999999091231MD1999999-0201REMSYN076AAXX  06124 83339 32496 73612 10219 20178 39123 40081 86222 333 20193 59020;
0182833390999992005120618004-14050-042617FM-12+088299999V0203201N006710042019N0100001N1+02491+01801100461ADDAA106001091AY161061AY261061GF106991051021004501031001MA1999999090941MD1999999-0071MW1021REMSYN082AAXX  06184 83339 21497 63213 10249 20180 39094 40046 70266 85230 333 59007 60011;
0165833390999992005120718004-14050-042617FM-12+088299999V0200501N003110042019N0040001N1+02491+02051100401ADDAY101061AY201061GF106991051021004501031001MA1999999090901MD1999999-0041MW1171REMSYN076AAXX  07184 83339 31496 60506 10249 20205 39090 40040 71700 85230 333 59004;
0196833390999992005120800004-14050-042617FM-12+088299999V0209999C000012200019N0020001N1+02271+02111100611ADDAY191061AY201061GF102991021021004501001001KA1240M+02801MA1999999091091MD1999999+0051MW1101REMSYN094AAXX  08004 83339 31495 20000 10227 20211 39109 40061 71090 82200 333 10280 29084 55011 58005;
0201833390999992005120812004-14050-042617FM-12+088299999V0200501N004610042019N0040001N1+02031+02031101001ADDAA124014091AY161061AY211061GF108991081051004501999999KA1240N+01981MA1999999091401MD1999999+0241MW1101REMSYN088AAXX  08124 83339 21496 80509 10203 20203 39140 40100 71061 885// 333 20198 58024 60144;
0182833390999992005120818004-14050-042617FM-12+088299999V0200901N001010042019N0100001N1+02431+01951100751ADDAA106001091AY161061AY261061GF106991051021004501021001MA1999999091221MD1999999+0321MW1021REMSYN082AAXX  08184 83339 21497 60902 10243 20195 39122 40075 70266 85220 333 58032 60011;
0196833390999992005120900004-14050-042617FM-12+088299999V0203201N004610042019N0020001N1+01991+01931101251ADDAY101061AY201061GF108991081051004501999999KA1240M+02501MA1999999091521MD1999999+0431MW1101REMSYN094AAXX  09004 83339 31495 83209 10199 20193 39152 40125 71000 885// 333 10250 29092 55000 58043;
0201833390999992005120912004-14050-042617FM-12+088299999V0200501N001510042019N0040001N1+02031+01951101421ADDAA124009991AY161061AY261061GF108991081051004501999999KA1240N+01881MA1999999091721MD1999999+0321MW1101REMSYN088AAXX  09124 83339 21496 80503 10203 20195 39172 40142 71066 885// 333 20188 58032 60104;
0165833390999992005120918004-14050-042617FM-12+088299999V0203601N001510042019N0040001N1+02251+01981101061ADDAY101061AY201061GF108991081051004501999999MA1999999091421MD1999999+0201MW1101REMSYN076AAXX  09184 83339 31496 83603 10225 20198 39142 40106 71000 885// 333 58020;
0213833390999992005121000004-14050-042617FM-12+088299999V0200901N006210042019N0020001N1+02111+01981101191ADDAA106001091AY161061AY261061GF108991081051004501999999KA1240M+02541MA1999999091541MD1999999+0021MW1101REMSYN100AAXX  10004 83339 21495 80912 10211 20198 39154 40119 71066 885// 333 10254 29091 55005 58002 60011;
0201833390999992005121012004-14050-042617FM-12+088299999V0200501N002610042019N0040001N1+02091+01981101191ADDAA124001091AY161061AY261061GF108991081051004501999999KA1240N+01941MA1999999091551MD1999999-0171MW1101REMSYN088AAXX  10124 83339 21496 80505 10209 20198 39155 40119 71066 885// 333 20194 59017 60014;
0137833390999992005121018004-14050-042617FM-12+088299999V0201401N005112200019N0100001N1+02731+01711100701ADDGF103991031021004501001001MA1999999091211MD1999999-0211REMSYN070AAXX  10184 83339 32497 31410 10273 20171 39121 40070 83200 333 59021;
0168833390999992005121100004-14050-042617FM-12+088299999V0200901N003612200019N0020001N1+02271+01691100961ADDGF102991021021004501001001KA1240M+02781MA1999999091381MD1999999-0161REMSYN088AAXX  11004 83339 32495 20907 10227 20169 39138 40096 82200 333 10278 29072 55072 59016;
0156833390999992005121112004-14050-042617FM-12+088299999V0200501N003112200019N0100001N1+02231+01781100971ADDGF104991031021004501021001KA1240N+01761MA1999999091421MD1999999-0131REMSYN076AAXX  11124 83339 32497 40506 10223 20178 39142 40097 83220 333 20176 59013;
0137833390999992005121118004-14050-042617FM-12+088299999V0200901N004612200019N0100001N1+02711+01411100581ADDGF103991021021004501001021MA1999999091091MD1999999-0111REMSYN070AAXX  11184 83339 32497 30909 10271 20141 39109 40058 82202 333 59011;
0168833390999992005121200004-14050-042617FM-12+088299999V0201401N003110042019N0020001N1+02291+01751100841ADDGF106991061021004501001001KA1240M+02841MA1999999091301MD1999999-0081REMSYN088AAXX  12004 83339 32495 61406 10229 20175 39130 40084 86200 333 10284 29066 55089 59008;
0201833390999992005121212004-14050-042617FM-12+088299999V0201401N003110450019N0100001N1+02201+01921101021ADDAA124002091AY161061AY221061GF106991041021004501031001KA1240N+01961MA1999999091461MD1999999+0041MW1021REMSYN088AAXX  12124 83339 21497 61406 10220 20192 39146 40102 70262 84230 333 20196 58004 60024;
0137833390999992005121218004-14050-042617FM-12+088299999V0201401N004112200019N0100001N1+02641+01721100611ADDGF105991041021004501001011MA1999999091011MD1999999+0021REMSYN070AAXX  12184 83339 32497 51408 10264 20172 39101 40061 84201 333 58002;
0168833390999992005121300004-14050-042617FM-12+088299999V0201401N002112200019N0020001N1+02251+01791100881ADDGF103991031021004501001001KA1240M+02721MA1999999091311MD1999999+0011REMSYN088AAXX  13004 83339 32495 31404 10225 20179 39131 40088 83200 333 10272 29073 55048 58001;
0156833390999992005121312004-14050-042617FM-12+088299999V0201401N003110450019N0100001N1+02151+01931101061ADDGF108991031021004501021999KA1240N+01981MA1999999091471MD1999999+0011REMSYN076AAXX  13124 83339 32497 81406 10215 20193 39147 40106 8322/ 333 20198 58001;
0182833390999992005121318004-14050-042617FM-12+088299999V0200501N002610450019N0020001N1+02231+02051100821ADDAA106002091AY161061AY221061GF108991041021004501021999MA1999999091221MD1999999+0111MW1601REMSYN082AAXX  13184 83339 21495 80505 10223 20205 39122 40082 76062 8422/ 333 58011 60021;
0213833390999992005121400004-14050-042617FM-12+088299999V0201801N002110042019N0020001N1+02031+01871101051ADDAA106001091AY161061AY221061GF108991051021004501021999KA1240M+02481MA1999999091431MD1999999+0121MW1401REMSYN100AAXX  14004 83339 21495 81804 10203 20187 39143 40105 74062 8522/ 333 10248 29085 55003 58012 60011;
0201833390999992005121412004-14050-042617FM-12+088299999V0201401N001510450019N0020001N1+02111+01981101101ADDAA124006191AY161061AY241061GF108991041021004501021999KA1240N+01941MA1999999091451MD1999999-0021MW1401REMSYN088AAXX  14124 83339 21495 81403 10211 20198 39145 40110 74064 8422/ 333 20194 59002 60064;
0165833390999992005121418004-14050-042617FM-12+088299999V0201401N002610042019N0100001N1+02511+01911100661ADDAY141061AY221061GF107991051021004501021001MA1999999091141MD1999999-0081MW1021REMSYN076AAXX  14184 83339 31497 71405 10251 20191 39114 40066 70242 85220 333 59008;
0213833390999992005121500004-14050-042617FM-12+088299999V0200901N003610042019N0020001N1+02091+01951100921ADDAA106008991AY161061AY221061GF108991051021004501021999KA1240M+02581MA1999999091311MD1999999-0121MW1401REMSYN100AAXX  15004 83339 21495 80907 10209 20195 39131 40092 74062 8522/ 333 10258 29086 55002 59012 60091;
0137833390999992005121518004-14050-042617FM-12+088299999V0202701N001510450019N0100001N1+02641+01771100691ADDGF107991031021004501021001MA1999999091181MD1999999+0041REMSYN070AAXX  15184 83339 32497 72703 10264 20177 39118 40069 83220 333 58004;
0168833390999992005121600004-14050-042617FM-12+088299999V0209999C000010450019N0020001N1+02191+01881101021ADDGF108991031021004501021999KA1240M+02761MA1999999091421MD1999999+0111REMSYN088AAXX  16004 83339 32495 80000 10219 20188 39142 40102 8322/ 333 10276 29078 55007 58011;
0156833390999992005121612004-14050-042617FM-12+088299999V0200901N003610042019N0100001N1+02241+01961101131ADDGF106991061021004501001001KA1240N+01911MA1999999091541MD1999999+0171REMSYN076AAXX  16124 83339 32497 60907 10224 20196 39154 40113 86200 333 20191 58017;
0137833390999992005121618004-14050-042617FM-12+088299999V0200901N006710450019N0100001N1+02511+01981100821ADDGF106991031021004501031011MA1999999091251MD1999999+0071REMSYN070AAXX  16184 83339 32497 60913 10251 20198 39125 40082 83231 333 58007;
0168833390999992005121700004-14050-042617FM-12+088299999V0201401N003610042019N0020001N1+02261+01881101071ADDGF106991061021004501001001KA1240M+02661MA1999999091511MD1999999+0091REMSYN088AAXX  17004 83339 32495 61407 10226 20188 39151 40107 86200 333 10266 29078 55013 58009;
0137833390999992005121718004-14050-042617FM-12+088299999V0201401N004111050019N0100001N1+02661+01621101051ADDGF105991021021004501031011MA1999999091531MD1999999+0281REMSYN070AAXX  17184 83339 32497 51408 10266 20162 39153 40105 82231 333 58028;
0168833390999992005121800004-14050-042617FM-12+088299999V0200901N003612200019N0020001N1+02411+01591101151ADDGF103991021021004501001011KA1240M+02701MA1999999091621MD1999999+0111REMSYN088AAXX  18004 83339 32495 30907 10241 20159 39162 40115 82201 333 10270 29064 55016 58011;
0156833390999992005121812004-14050-042617FM-12+088299999V0200901N004112200019N0100001N1+02131+01821101291ADDGF104991041021004501001001KA1240N+01921MA1999999091701MD1999999+0001REMSYN076AAXX  18124 83339 32497 40908 10213 20182 39170 40129 84200 333 20192 58000;
0137833390999992005121818004-14050-042617FM-12+088299999V0200901N004612200019N0100001N1+02811+01681100921ADDGF102991011011004501001011MA1999999091431MD1999999-0101REMSYN070AAXX  18184 83339 32497 20909 10281 20168 39143 40092 81101 333 59010;
0178833390999992005121900004-14050-042617FM-12+088299999V0201401N005112200019N0020001N1+02331+01811101171ADDGA1001+999999999GF100991001001999999001001KA1240M+02861MA1999999091601MD1999999-0021REMSYN082AAXX  19004 83339 32995 01410 10233 20181 39160 40117 333 10286 29069 55092 59002;
0156833390999992005121912004-14050-042617FM-12+088299999V0200901N003110042019N0100001N1+02251+01671101371ADDGF106991061021004501001001KA1240N+01801MA1999999091801MD1999999+0101REMSYN076AAXX  19124 83339 32497 60906 10225 20167 39180 40137 86200 333 20180 58010;
0137833390999992005121918004-14050-042617FM-12+088299999V0200501N003612200019N0100001N1+02831+01441100981ADDGF103991031021004501001001MA1999999091481MD1999999+0051REMSYN070AAXX  19184 83339 32497 30507 10283 20144 39148 40098 83200 333 58005;
0178833390999992005122000004-14050-042617FM-12+088299999V0201401N004612200019N0020001N1+02371+01261101141ADDGA1001+999999999GF100991001001999999001001KA1240M+02901MA1999999091591MD1999999-0011REMSYN082AAXX  20004 83339 32995 01409 10237 20126 39159 40114 333 10290 29052 55096 59001;
0137833390999992005122018004-14050-042617FM-12+088299999V0201401N005112200019N0100001N1+02891+01271100981ADDGF102991011021004501001021MA1999999091501MD1999999+0021REMSYN070AAXX  20184 83339 32497 21410 10289 20127 39150 40098 81202 333 58002;
0178833390999992005122100004-14050-042617FM-12+088299999V0200901N003612200019N0020001N1+02411+01321101141ADDGA1001+999999999GF100991001001999999001001KA1240M+02961MA1999999091591MD1999999+0001REMSYN082AAXX  21004 83339 32995 00907 10241 20132 39159 40114 333 10296 29053 55109 58000;
0156833390999992005122112004-14050-042617FM-12+088299999V0201401N003112200019N0100001N1+02291+01771101301ADDGF102991011021004501021001KA1240N+01831MA1999999091751MD1999999-0031REMSYN076AAXX  21124 83339 32497 21406 10229 20177 39175 40130 81220 333 20183 59003;
0137833390999992005122118004-14050-042617FM-12+088299999V0200901N004612200019N0100001N1+02891+01091100991ADDGF102991021021004501001001MA1999999091491MD1999999-0011REMSYN070AAXX  21184 83339 32497 20909 10289 20109 39149 40099 82200 333 59001;
0178833390999992005122200004-14050-042617FM-12+088299999V0201401N002112200019N0020001N1+02371+01061101101ADDGA1001+999999999GF100991001001999999001001KA1240M+03001MA1999999091571MD1999999-0021REMSYN082AAXX  22004 83339 32995 01404 10237 20106 39157 40110 333 10300 29048 55101 59002;
0156833390999992005122212004-14050-042617FM-12+088299999V0201401N006712200019N0100001N1+02251+01571101371ADDGF102991011021004501001021KA1240N+01821MA1999999091801MD1999999+0051REMSYN076AAXX  22124 83339 32497 21413 10225 20157 39180 40137 81202 333 20182 58005;
0137833390999992005122218004-14050-042617FM-12+088299999V0200501N004612200019N0100001N1+02791+00811101051ADDGF102991021021004501001001MA1999999091531MD1999999+0041REMSYN070AAXX  22184 83339 32497 20509 10279 20081 39153 40105 82200 333 58004;
0178833390999992005122300004-14050-042617FM-12+088299999V0201401N001512200019N0020001N1+02311+00871101141ADDGA1001+999999999GF100991001001999999001001KA1240M+02881MA1999999091591MD1999999+0021REMSYN082AAXX  23004 83339 32995 01403 10231 20087 39159 40114 333 10288 29090 55119 58002;
0156833390999992005122312004-14050-042617FM-12+088299999V0201401N004612200019N0100001N1+02211+01691101401ADDGF104991041021004501001001KA1240N+01781MA1999999091801MD1999999+0001REMSYN076AAXX  23124 83339 32497 41409 10221 20169 39180 40140 84200 333 20178 58000;
0137833390999992005122318004-14050-042617FM-12+088299999V0200901N003112200019N0100001N1+02811+00981100921ADDGF102991021021004501001001MA1999999091431MD1999999-0101REMSYN070AAXX  23184 83339 32497 20906 10281 20098 39143 40092 82200 333 59010;
0178833390999992005122400004-14050-042617FM-12+088299999V0200501N004612200019N0020001N1+02231+01621101091ADDGA1001+999999999GF100991001001999999001001KA1240M+02881MA1999999091501MD1999999-0091REMSYN082AAXX  24004 83339 32995 00509 10223 20162 39150 40109 333 10288 29060 55116 59009;
0156833390999992005122412004-14050-042617FM-12+088299999V0200901N003612200019N0100001N1+02311+01721101331ADDGF104991031021004501021001KA1240N+01821MA1999999091741MD1999999-0061REMSYN076AAXX  24124 83339 32497 40907 10231 20172 39174 40133 83220 333 20182 59006;
0137833390999992005122418004-14050-042617FM-12+088299999V0201401N003112200019N0100001N1+02891+01271100881ADDGF103991021021004501021001MA1999999091411MD1999999-0021REMSYN070AAXX  24184 83339 32497 31406 10289 20127 39141 40088 82220 333 59002;
0178833390999992005122500004-14050-042617FM-12+088299999V0201401N002612200019N0020001N1+02351+01411100941ADDGA1001+999999999GF100991001001999999001001KA1240M+03001MA1999999091431MD1999999-0071REMSYN082AAXX  25004 83339 32995 01405 10235 20141 39143 40094 333 10300 29055 55113 59007;
0184833390999992005122512004-14050-042617FM-12+088299999V0201401N003110042019N0100001N1+02191+01841101211ADDAY101061AY201061GF106991061021004501001001KA1240N+01781MA1999999091641MD1999999-0101MW1101REMSYN082AAXX  25124 83339 31497 61406 10219 20184 39164 40121 71000 86200 333 20178 59010;
0137833390999992005122518004-14050-042617FM-12+088299999V0200901N003612200019N0100001N1+02911+01401100781ADDGF102991021021004501001001MA1999999091301MD1999999-0111REMSYN070AAXX  25184 83339 32497 20907 10291 20140 39130 40078 82200 333 59011;
0178833390999992005122600004-14050-042617FM-12+088299999V0201801N001512200019N0020001N1+02431+01311100941ADDGA1001+999999999GF100991001001999999001001KA1240M+03021MA1999999091411MD1999999-0021REMSYN082AAXX  26004 83339 32995 01803 10243 20131 39141 40094 333 10302 29054 55066 59002;
0184833390999992005122612004-14050-042617FM-12+088299999V0200501N003610042019N0100001N1+02231+01861101151ADDAY101061AY201061GF106991061021004501001001KA1240N+01921MA1999999091621MD1999999-0021MW1101REMSYN082AAXX  26124 83339 31497 60507 10223 20186 39162 40115 71000 86200 333 20192 59002;
0137833390999992005122618004-14050-042617FM-12+088299999V0203201N001510042019N0100001N1+02791+01611100781ADDGF107991061021004501021001MA1999999091321MD1999999+0021REMSYN070AAXX  26184 83339 32497 73203 10279 20161 39132 40078 86220 333 58002;
0168833390999992005122700004-14050-042617FM-12+088299999V0201401N004112200019N0020001N1+02411+01521100941ADDGF102991021021004501001001KA1240M+02921MA1999999091411MD1999999+0001REMSYN088AAXX  27004 83339 32495 21408 10241 20152 39141 40094 82200 333 10292 29060 55054 58000;
0184833390999992005122712004-14050-042617FM-12+088299999V0201401N003610042019N0040001N1+02191+01821101151ADDAY101061AY201061GF107991061021004501031001KA1240N+01931MA1999999091601MD1999999-0021MW1101REMSYN082AAXX  27124 83339 31496 71407 10219 20182 39160 40115 71000 86230 333 20193 59002;
0137833390999992005122718004-14050-042617FM-12+088299999V0201401N004610042019N0100001N1+02631+01641100751ADDGF106991051021004501021001MA1999999091241MD1999999-0071REMSYN070AAXX  27184 83339 32497 61409 10263 20164 39124 40075 85220 333 59007;
0187833390999992005122800004-14050-042617FM-12+088299999V0209999C000010042019N0020001N1+02351+01741100941ADDGF105991051021004501001001KA1240M+02731MA1999999999999MD1999999-0021REMSYN088AAXX  28004 83339 32495 50000 10235 20174 39639 40094 85200 333 10273 29067 55052 59002;EQDQ01 096393APOSP 
0184833390999992005122812004-14050-042617FM-12+088299999V0203601N003610042019N0040001N1+02031+01721101151ADDAY101061AY201061GF108991081051004501999999KA1240N+01931MA1999999091551MD1999999-0051MW1101REMSYN082AAXX  28124 83339 31496 83607 10203 20172 39155 40115 71000 885// 333 20193 59005;
0137833390999992005122818004-14050-042617FM-12+088299999V0201401N005110042019N0100001N1+02451+01611100901ADDGF106991051021004501021001MA1999999091331MD1999999+0091REMSYN070AAXX  28184 83339 32497 61410 10245 20161 39133 40090 85220 333 58009;
0196833390999992005122900004-14050-042617FM-12+088299999V0203201N000510042019N0020001N1+01991+01851101171ADDAY101061AY201061GF108991081051004501999999KA1240M+02561MA1999999091501MD1999999+0111MW1101REMSYN094AAXX  29004 83339 31495 83201 10199 20185 39150 40117 71000 885// 333 10256 29080 55002 58011;
0184833390999992005122912004-14050-042617FM-12+088299999V0200501N006210042019N0040001N1+02031+01761101261ADDAY101061AY201061GF107991061021004501021999KA1240N+01841MA1999999091581MD1999999+0031MW1101REMSYN082AAXX  29124 83339 31496 70512 10203 20176 39158 40126 71000 8622/ 333 20184 58003;
0137833390999992005122918004-14050-042617FM-12+088299999V0201401N003610042019N0100001N1+02731+01281100751ADDGF106991051021004501021001MA1999999091241MD1999999-0081REMSYN070AAXX  29184 83339 32497 61407 10273 20128 39124 40075 85220 333 59008;
0201833390999992005123012004-14050-042617FM-12+088299999V0201401N002610042019N0040001N1+01991+01901101541ADDAA124023991AY161061AY221061GF108991081051004501999999KA1240N+01831MA1999999091831MD1999999+0251MW1101REMSYN088AAXX  30124 83339 21496 81405 10199 20190 39183 40154 71062 885// 333 20183 58025 60244;
0165833390999992005123018004-14050-042617FM-12+088299999V0203201N006210042019N0040001N1+02151+01861101311ADDAY101061AY201061GF107991061021004501021999MA1999999091631MD1999999+0391MW1101REMSYN076AAXX  30184 83339 31496 73212 10215 20186 39163 40131 71000 8622/ 333 58039;
0184833390999992005123112004-14050-042617FM-12+088299999V0200501N006710042019N0040001N1+02051+01741101431ADDAY101061AY201061GF107991061021004501031999KA1240N+01801MA1999999091731MD1999999-0101MW1101REMSYN082AAXX  31124 83339 31496 70513 10205 20174 39173 40143 71000 8623/ 333 20180 59010;
0137833390999992005123118004-14050-042617FM-12+088299999V0200901N003110042019N0100001N1+02371+01781101171ADDGF106991051021004501021001MA1999999091541MD1999999-0091REMSYN070AAXX  31184 83339 32497 60906 10237 20178 39154 40117 85220 333 59009;
