0208833440999992005010100004-14950-040883FM-12+0905SBQV V0200901N001512200019N0100001N1+02171+01571101141ADDAA106000091GA1001+999999999GF100991001001999999001001KA1240M+02911MA1999999091641MD1999999-0031REMSYN082AAXX  01004 83344 32597 00903 10217 20157 39164 40114 333 10291 29065 55071 59003;EQDQ01  00002PRCP06
0186833440999992005010112004-14950-040883FM-12+0905SBQV V0200901N001510042019N0200001N1+02171+01781101361ADDAA106000091GF108991081061004501999999KA1240N+01591MA1999999091781MD1999999-0111REMSYN076AAXX  01124 83344 32498 80903 10217 20178 39178 40136 886// 333 20159 59011;EQDQ01  00002PRCP06
0167833440999992005010118004-14950-040883FM-12+0905SBQV V0200901N001512200019N0200001N1+02591+01321101021ADDAA106000091GF104991041041004501001001MA1999999091491MD1999999-0041REMSYN070AAXX  01184 83344 32498 40903 10259 20132 39149 40102 84400 333 59004;EQDQ01  00002PRCP06
0208833440999992005010200004-14950-040883FM-12+0905SBQV V0200901N003112200019N0100001N1+02091+01911101321ADDAA106000091GA1001+999999999GF100991001001999999001001KA1240M+02831MA1999999091751MD1999999+0111REMSYN082AAXX  02004 83344 32997 00906 10209 20191 39175 40132 333 10283 29079 55029 58011;EQDQ01  00002PRCP06
0186833440999992005010212004-14950-040883FM-12+0905SBQV V0200901N003110450019N0200001N1+02331+01791101501ADDAA106000091GF108991041071004501021999KA1240N+01691MA1999999091931MD1999999-0151REMSYN076AAXX  02124 83344 32498 80906 10233 20179 39193 40150 8472/ 333 20169 59015;EQDQ01  00002PRCP06
0167833440999992005010218004-14950-040883FM-12+0905SBQV V0200901N004610450019N0200001N1+02651+01851101171ADDAA106000091GF107991041031004501021011MA1999999091611MD1999999+0121REMSYN070AAXX  02184 83344 32498 70909 10265 20185 39161 40117 84321 333 58012;EQDQ01  00002PRCP06
0162833440999992005010312004-14950-040883FM-12+0905SBQV V0200901N002110042019N0200001N1+02101+01781101621ADDGF108991081061004501999999KA1240N+01691MA1999999091991MD1999999+0061REMSYN082AAXX  03124 83344 22498 80904 10210 20178 39199 40162 886// 333 20169 58006 69914;
0167833440999992005010318004-14950-040883FM-12+0905SBQV V0201401N002110042019N0200001N1+02531+01711101301ADDAA106000091GF108991081061004501999999MA1999999091731MD1999999+0121REMSYN070AAXX  03184 83344 32498 81404 10253 20171 39173 40130 886// 333 58012;EQDQ01  00002PRCP06
0198833440999992005010400004-14950-040883FM-12+0905SBQV V0200901N001512200019N0100001N1+01941+01721101551ADDAA106000091GF103991031001012501031001KA1240M+02651MA1999999091891MD1999999+0181REMSYN088AAXX  04004 83344 32697 30903 10194 20172 39189 40155 83030 333 10265 29079 55009 58018;EQDQ01  00002PRCP06
0186833440999992005010412004-14950-040883FM-12+0905SBQV V0200501N003110450019N0200001N1+02351+01621101511ADDAA106000091GF106991021011004501091021KA1240N+01591MA1999999091921MD1999999-0071REMSYN076AAXX  04124 83344 32498 60506 10235 20162 39192 40151 82192 333 20159 59007;EQDQ01  00002PRCP06
0167833440999992005010418004-14950-040883FM-12+0905SBQV V0200901N004612200019N0200001N1+02791+01481100981ADDAA106000091GF104991021021004501041001MA1999999091511MD1999999-0221REMSYN070AAXX  04184 83344 32498 40909 10279 20148 39151 40098 82240 333 59022;EQDQ01  00002PRCP06
0208833440999992005010500004-14950-040883FM-12+0905SBQV V0200901N003112200019N0040001N1+02011+01811101261ADDAA106000091GA1001+999999999GF100991001001999999001001KA1240M+02931MA1999999091711MD1999999-0181REMSYN082AAXX  05004 83344 32996 00906 10201 20181 39171 40126 333 10293 29072 55104 59018;EQDQ01  00002PRCP06
0186833440999992005010512004-14950-040883FM-12+0905SBQV V0200901N004110042019N0200001N1+02151+01741101461ADDAA106000091GF108991081071004501999999KA1240N+01751MA1999999091871MD1999999-0051REMSYN076AAXX  05124 83344 32498 80908 10215 20174 39187 40146 887// 333 20175 59005;EQDQ01  00002PRCP06
0167833440999992005010518004-14950-040883FM-12+0905SBQV V0201401N003110042019N0200001N1+02451+01831101201ADDAA106000091GF108991081071004501999999MA1999999091641MD1999999+0131REMSYN070AAXX  05184 83344 32498 81406 10245 20183 39164 40120 887// 333 58013;EQDQ01  00002PRCP06
0208833440999992005010600004-14950-040883FM-12+0905SBQV V0200901N001512200019N0040001N1+01981+01761101281ADDAA106000091GA1001+999999999GF100991001001999999001001KA1240M+02571MA1999999091661MD1999999-0051REMSYN082AAXX  06004 83344 32996 00903 10198 20176 39166 40128 333 10257 29080 55012 59005;EQDQ01  00002PRCP06
0186833440999992005010612004-14950-040883FM-12+0905SBQV V0200901N004611050019N0200001N1+02331+01581101381ADDAA106000091GF105991031021004501001091KA1240N+01561MA1999999091801MD1999999-0071REMSYN076AAXX  06124 83344 32498 50909 10233 20158 39180 40138 83209 333 20156 59007;EQDQ01  00002PRCP06
0167833440999992005010618004-14950-040883FM-12+0905SBQV V0200901N004110042019N0200001N1+02791+01611101071ADDAA106000091GF105991051021004501001001MA1999999091521MD1999999-0121REMSYN070AAXX  06184 83344 32498 50908 10279 20161 39152 40107 85200 333 59012;EQDQ01  00002PRCP06
0208833440999992005010700004-14950-040883FM-12+0905SBQV V0200901N003112200019N0100001N1+01971+01681101281ADDAA106000091GA1001+999999999GF100991001001999999001001KA1240M+03051MA1999999091711MD1999999+0051REMSYN082AAXX  07004 83344 32997 00906 10197 20168 39171 40128 333 10305 29070 55109 58005;EQDQ01  00002PRCP06
0186833440999992005010712004-14950-040883FM-12+0905SBQV V0200501N002610042019N0200001N1+02341+01761101461ADDAA106000091GF106991061021004501001001KA1240N+01711MA1999999091871MD1999999+0071REMSYN076AAXX  07124 83344 32498 60505 10234 20176 39187 40146 86200 333 20171 58007;EQDQ01  00002PRCP06
0167833440999992005010718004-14950-040883FM-12+0905SBQV V0201401N002112200019N0200001N1+02791+01821101081ADDAA106000091GF104991041021004501001001MA1999999091561MD1999999+0041REMSYN070AAXX  07184 83344 32498 41404 10279 20182 39156 40108 84200 333 58004;EQDQ01  00002PRCP06
0208833440999992005010800004-14950-040883FM-12+0905SBQV V0200901N003112200019N0100001N1+02131+01821101201ADDAA106000091GA1001+999999999GF100991001001999999001001KA1240M+02871MA1999999091671MD1999999-0041REMSYN082AAXX  08004 83344 32997 00906 10213 20182 39167 40120 333 10287 29073 55085 59004;EQDQ01  00002PRCP06
0167833440999992005010818004-14950-040883FM-12+0905SBQV V0200901N002610450019N0200001N1+02951+01441101041ADDAA106000091GF106991031021004501051001MA1999999091471MD1999999-0091REMSYN070AAXX  08184 83344 32498 60905 10295 20144 39147 40104 83250 333 59009;EQDQ01  00002PRCP06
0173833440999992005010912004-14950-040880FM-12+0840SBQV V0200501N003110450019N0200001N1+02471+01941101241ADDAA106000091GF106991031021004501051001MA1999999091691MD1999999-0121REMSYN076AAXX  09124 83344 32498 60506 10247 20194 39169 40124 83250 333 20143 59012;EQDQ01  00002PRCP06
0167833440999992005010918004-14950-040880FM-12+0840SBQV V0201401N003612200019N0200001N1+02951+01551100861ADDAA106000091GF103991031021004501001001MA1999999091341MD1999999-0131REMSYN070AAXX  09184 83344 32498 31407 10295 20155 39134 40086 83200 333 59013;EQDQ01  00002PRCP06
0186833440999992005011012004-14950-040883FM-12+0905SBQV V0203601N002610450019N0200001N1+02321+01791101301ADDAA106000091GF106991041021004501081001KA1240N+01691MA1999999091761MD1999999+0071REMSYN076AAXX  10124 83344 32498 63605 10232 20179 39176 40130 84280 333 20169 58007;EQDQ01  00002PRCP06
0167833440999992005011018004-14950-040883FM-12+0905SBQV V0201801N003112200019N0200001N1+03131+01641100861ADDAA106000091GF104991041021004501001001MA1999999091321MD1999999-0021REMSYN070AAXX  10184 83344 32498 41806 10313 20164 39132 40086 84200 333 59002;EQDQ01  00002PRCP06
0208833440999992005011100004-14950-040883FM-12+0905SBQV V0200501N003612200019N0100001N1+02271+01711100931ADDAA106000091GA1001+999999999GF100991001001999999001001KA1240M+03231MA1999999091451MD1999999-0051REMSYN082AAXX  11004 83344 32997 00507 10227 20171 39145 40093 333 10323 29064 55099 59005;EQDQ01  00002PRCP06
0186833440999992005011112004-14950-040883FM-12+0905SBQV V0203601N003112200019N0200001N1+02501+01871101131ADDAA106000091GF104991041021004501001001KA1240N+01701MA1999999091661MD1999999-0101REMSYN076AAXX  11124 83344 32498 43606 10250 20187 39166 40113 84200 333 20170 59010;EQDQ01  00002PRCP06
0167833440999992005011118004-14950-040883FM-12+0905SBQV V0200501N000510042019N0200001N1+03011+01711100751ADDAA106000091GF107991051021004501001091MA1999999091301MD1999999-0021REMSYN070AAXX  11184 83344 32498 70501 10301 20171 39130 40075 85209 333 59002;EQDQ01  00002PRCP06
0208833440999992005011200004-14950-040883FM-12+0905SBQV V0200501N002612200019N0100001N1+02431+01791100891ADDAA106000091GA1001+999999999GF100991001001999999001001KA1240M+03211MA1999999091471MD1999999+0021REMSYN082AAXX  12004 83344 32997 00505 10243 20179 39147 40089 333 10321 29062 55093 58002;EQDQ01  00002PRCP06
0186833440999992005011212004-14950-040883FM-12+0905SBQV V0203601N003611050019N0200001N1+02611+01921100971ADDAA106000091GF106991021011004501001091KA1240N+01891MA1999999091561MD1999999-0101REMSYN076AAXX  12124 83344 32498 63607 10261 20192 39156 40097 82109 333 20189 59010;EQDQ01  00002PRCP06
0167833440999992005011218004-14950-040883FM-12+0905SBQV V0203601N002611050019N0200001N1+03241+01781100491ADDAA106000091GF106991041021004501001091MA1999999091151MD1999999-0151REMSYN070AAXX  12184 83344 32498 63605 10324 20178 39115 40049 84209 333 59015;EQDQ01  00002PRCP06
0198833440999992005011300004-14950-040883FM-12+0905SBQV V0201401N001010042019N0040001N1+02191+01951100911ADDAA106000091GF106991061071004501001001KA1240M+03311MA1999999091471MD1999999+0001REMSYN088AAXX  13004 83344 32496 61402 10219 20195 39147 40091 86700 333 10331 29070 55084 58000;EQDQ01  00002PRCP06
0190833440999992005011312004-14950-040883FM-12+0905SBQV V0203601N002610042019N0100001N1+02091+02011101191ADDAY191061AY251061GF108991081071004501999999KA1240N+01871MA1999999091631MD1999999+0071MW1501REMSYN088AAXX  13124 83344 21497 83605 10209 20201 39163 40119 75095 887// 333 20187 58007 60014;
0171833440999992005011318004-14950-040883FM-12+0905SBQV V0203601N002110042019N0200001N1+02291+02031100921ADDAY191061AY221061GF108991081071004501999999MA1999999091341MD1999999+0191MW1021REMSYN082AAXX  13184 83344 21498 83604 10229 20203 39134 40092 70292 887// 333 58019 60061;
0198833440999992005011400004-14950-040883FM-12+0905SBQV V0203601N002110021019N0040001N1+02051+01991101031ADDAA106000091GF108991081071002501999999KA1240M+02421MA1999999091441MD1999999-0031REMSYN088AAXX  14004 83344 32396 83604 10205 20199 39144 40103 887// 333 10242 29094 55000 59003;EQDQ01  00002PRCP06
0162833440999992005011412004-14950-040883FM-12+0905SBQV V0203601N003110042019N0200001N1+02231+01921101021ADDGF108991081071004501999999KA1240N+01871MA1999999091471MD1999999-0161REMSYN082AAXX  14124 83344 22498 83606 10223 20192 39147 40102 887// 333 20187 59016 60064;
0167833440999992005011418004-14950-040883FM-12+0905SBQV V0203601N004110042019N0200001N1+02391+02031100831ADDAA106000091GF108991081071004501999999MA1999999091301MD1999999-0041REMSYN070AAXX  14184 83344 32498 83608 10239 20203 39130 40083 887// 333 59004;EQDQ01  00002PRCP06
0198833440999992005011500004-14950-040883FM-12+0905SBQV V0200501N001510042019N0100001N1+02071+01891101031ADDAA106000091GF108991081071004501999999KA1240M+02611MA1999999091481MD1999999+0041REMSYN088AAXX  15004 83344 32497 80503 10207 20189 39148 40103 887// 333 10261 29086 55020 58004;EQDQ01  00002PRCP06
0186833440999992005011512004-14950-040883FM-12+0905SBQV V0203601N001510042019N0200001N1+02291+02031101061ADDAA106000091GF108991051071004501051001KA1240N+01891MA1999999091531MD1999999+0061REMSYN076AAXX  15124 83344 32498 83603 10229 20203 39153 40106 85750 333 20189 58006;EQDQ01  00002PRCP06
0167833440999992005011518004-14950-040883FM-12+0905SBQV V0203601N004110450019N0200001N1+02441+02091100821ADDAA106000091GF106991041071004501051001MA1999999091291MD1999999-0011REMSYN070AAXX  15184 83344 32498 63608 10244 20209 39129 40082 84750 333 59001;EQDQ01  00002PRCP06
0190833440999992005011612004-14950-040883FM-12+0905SBQV V0203601N004110450019N0200001N1+02331+02001101121ADDAY151061AY221061GF106991041031004501051001KA1240N+01851MA1999999091561MD1999999+0031MW1011REMSYN088AAXX  16124 83344 21498 63608 10233 20200 39156 40112 70152 84350 333 20185 58003 60044;
0167833440999992005011618004-14950-040883FM-12+0905SBQV V0201801N001510042019N0100001N1+02371+02111100731ADDAA106000091GF108991081071004501999999MA1999999091191MD1999999-0101REMSYN070AAXX  16184 83344 32497 81803 10237 20211 39119 40073 887// 333 59010;EQDQ01  00002PRCP06
0189833440999992005011700004-14950-040880FM-12+0840SBQV V0200501N003110042019N0040001N1+02081+02031100781ADDAY181061AY261061GF108991081071004501999999MA1999999091271MD1999999-0261MW1021REMSYN100AAXX  17004 83344 21496 80506 10208 20203 39127 40078 70286 887// 333 10285 29090 55041 59026 60111;
0149833440999992005011712004-14950-040880FM-12+0840SBQV V0200501N003110042019N0200001N1+02211+01861101141ADDGF108991081071004501999999MA1999999091581MD1999999+0021REMSYN082AAXX  17124 83344 22498 80506 10221 20186 39158 40114 887// 333 20171 58002 60114;
0167833440999992005011718004-14950-040880FM-12+0840SBQV V0200501N003110450019N0200001N1+02671+01971100831ADDAA106000091GF108991041071004501051061MA1999999091321MD1999999+0131REMSYN070AAXX  17184 83344 32498 80506 10267 20197 39132 40083 84756 333 58013;EQDQ01  00002PRCP06
0198833440999992005011800004-14950-040883FM-12+0905SBQV V0200501N002610042019N0100001N1+02011+01871101061ADDAA106000091GF106991061041004501001001KA1240M+02711MA1999999091491MD1999999+0221REMSYN088AAXX  18004 83344 32497 60505 10201 20187 39149 40106 86400 333 10271 29083 55044 58022;EQDQ01  00002PRCP06
0186833440999992005011812004-14950-040883FM-12+0905SBQV V0200501N003110042019N0200001N1+02451+01711101031ADDAA106000091GF106991061071004501001001KA1240N+01671MA1999999091541MD1999999-0061REMSYN076AAXX  18124 83344 32498 60506 10245 20171 39154 40103 86700 333 20167 59006;EQDQ01  00002PRCP06
0167833440999992005011818004-14950-040883FM-12+0905SBQV V0201401N002610450019N0200001N1+02631+01861100821ADDAA106000091GF106991041031004501051001MA1999999091331MD1999999+0011REMSYN070AAXX  18184 83344 32498 61405 10263 20186 39133 40082 84350 333 58001;EQDQ01  00002PRCP06
0198833440999992005011900004-14950-040883FM-12+0905SBQV V0200501N002112200019N0100001N1+02151+01931101021ADDAA106000091GF103991031021004501001001KA1240M+02811MA1999999091531MD1999999+0041REMSYN088AAXX  19004 83344 32497 30504 10215 20193 39153 40102 83200 333 10281 29076 55048 58004;EQDQ01  00002PRCP06
0186833440999992005011912004-14950-040883FM-12+0905SBQV V0200901N003112200019N0200001N1+02391+01631101101ADDAA106000091GF104991011001012501081011KA1240N+01731MA1999999091601MD1999999+0081REMSYN076AAXX  19124 83344 32698 40906 10239 20163 39160 40110 81081 333 20173 58008;EQDQ01  00002PRCP06
0167833440999992005011918004-14950-040883FM-12+0905SBQV V0200901N003110450019N0200001N1+02851+01851100831ADDAA106000091GF106991021011004501031021MA1999999091371MD1999999+0041REMSYN070AAXX  19184 83344 32498 60906 10285 20185 39137 40083 82132 333 58004;EQDQ01  00002PRCP06
0208833440999992005012000004-14950-040883FM-12+0905SBQV V0200901N002112200019N0040001N1+02051+01851101041ADDAA106000091GA1001+999999999GF100991001001999999001001KA1240M+02891MA1999999091511MD1999999-0021REMSYN082AAXX  20004 83344 32996 00904 10205 20185 39151 40104 333 10289 29074 55078 59002;EQDQ01  00002PRCP06
0186833440999992005012012004-14950-040883FM-12+0905SBQV V0203601N003612200019N0200001N1+02361+01781101261ADDAA106000091GF104991021011004501081001KA1240N+01651MA1999999091711MD1999999+0111REMSYN076AAXX  20124 83344 32498 43607 10236 20178 39171 40126 82180 333 20165 58011;EQDQ01  00002PRCP06
0167833440999992005012018004-14950-040883FM-12+0905SBQV V0202301N001510042019N0200001N1+03011+01641100821ADDAA106000091GF105991051021004501001001MA1999999091351MD1999999-0021REMSYN070AAXX  20184 83344 32498 52303 10301 20164 39135 40082 85200 333 59002;EQDQ01  00002PRCP06
0208833440999992005012100004-14950-040883FM-12+0905SBQV V0200501N001512200019N0100001N1+02091+01801100961ADDAA106000091GA1001+999999999GF100991001001999999001001KA1240M+03041MA1999999091441MD1999999-0071REMSYN082AAXX  21004 83344 32997 00503 10209 20180 39144 40096 333 10304 29070 55096 59007;EQDQ01  00002PRCP06
0186833440999992005012112004-14950-040883FM-12+0905SBQV V0203601N003112200019N0200001N1+02551+01911101301ADDAA106000091GF103991031011004501001001KA1240N+01821MA1999999091781MD1999999+0071REMSYN076AAXX  21124 83344 32498 33606 10255 20191 39178 40130 83100 333 20182 58007;EQDQ01  00002PRCP06
0167833440999992005012118004-14950-040883FM-12+0905SBQV V0201401N001512200019N0200001N1+03031+01661100921ADDAA106000091GF104991041021004501001001MA1999999091481MD1999999+0131REMSYN070AAXX  21184 83344 32498 41403 10303 20166 39148 40092 84200 333 58013;EQDQ01  00002PRCP06
0198833440999992005012200004-14950-040883FM-12+0905SBQV V0200501N001510450019N0100001N1+02371+01891101151ADDAA106000091GF105991031031004501051001KA1240M+03211MA1999999091711MD1999999+0271REMSYN088AAXX  22004 83344 32497 50503 10237 20189 39171 40115 83350 333 10321 29065 55088 58027;EQDQ01  00002PRCP06
0202833440999992005012212004-14950-040883FM-12+0905SBQV V0201801N001012200019N0200001N1+02751+01761101191ADDAA106000091GF104991999021004501001001KA1240N+01711MA1999999091781MD1999999+0001REMSYN076AAXX  22124 83344 32498 41802 10275 20176 39178 40119 82200 333 20171 58000;EQDQ01+000022SCOTLCQ02  00002PRCP06
0167833440999992005012218004-14950-040883FM-12+0905SBQV V0201401N003110450019N0200001N1+02931+01501100931ADDAA106000091GF106991041021004501071001MA1999999091511MD1999999+0031REMSYN070AAXX  22184 83344 32498 61406 10293 20150 39151 40093 84270 333 58003;EQDQ01  00002PRCP06
0173833440999992005012312004-14950-040880FM-12+0840SBQV V0201801N002110042019N0200001N1+02591+01821101171ADDAA106000091GF105991051021004501001001MA1999999091701MD1999999-0081REMSYN076AAXX  23124 83344 32498 51804 10259 20182 39170 40117 85200 333 20193 59008;EQDQ01  00002PRCP06
0167833440999992005012318004-14950-040880FM-12+0840SBQV V0201401N003111050019N0200001N1+02971+01641100821ADDAA106000091GF108991041001012501091061MA1999999091431MD1999999-0081REMSYN070AAXX  23184 83344 32698 81406 10297 20164 39143 40082 84096 333 59008;EQDQ01  00002PRCP06
0173833440999992005012412004-14950-040880FM-12+0840SBQV V0200501N001510450019N0200001N1+02591+01741101191ADDAA106000091GF107991031021004501051001MA1999999091681MD1999999-0021REMSYN076AAXX  24124 83344 32498 70503 10259 20174 39168 40119 83250 333 20179 59002;EQDQ01  00002PRCP06
0167833440999992005012418004-14950-040880FM-12+0840SBQV V0201401N002110450019N0200001N1+02851+01791100811ADDAA106000091GF105991031031004501051001MA1999999091341MD1999999-0091REMSYN070AAXX  24184 83344 32498 51404 10285 20179 39134 40081 83350 333 59009;EQDQ01  00002PRCP06
0198833440999992005012500004-14950-040883FM-12+0905SBQV V0200901N001510450019N0100001N1+02371+01891100831ADDAA106000091GF105991021021004501051001KA1240M+03171MA1999999091441MD1999999-0101REMSYN088AAXX  25004 83344 32497 50903 10237 20189 39144 40083 82250 333 10317 29066 55053 59010;EQDQ01  00002PRCP06
0186833440999992005012512004-14950-040883FM-12+0905SBQV V0200501N002610450019N0200001N1+02751+01731100971ADDAA106000091GF107991041041004501071001KA1240N+01851MA1999999091581MD1999999-0101REMSYN076AAXX  25124 83344 32498 70505 10275 20173 39158 40097 84470 333 20185 59010;EQDQ01  00002PRCP06
0167833440999992005012518004-14950-040883FM-12+0905SBQV V0203601N002110042019N0200001N1+03051+01681100811ADDAA106000091GF107991051041004501091001MA1999999091201MD1999999-0141REMSYN070AAXX  25184 83344 32498 73604 10305 20168 39120 40081 85490 333 59014;EQDQ01  00002PRCP06
0198833440999992005012600004-14950-040883FM-12+0905SBQV V0200901N001510450019N0100001N1+02191+01951100971ADDAA106000091GF106991021011004501081021KA1240M+03291MA1999999091551MD1999999+0111REMSYN088AAXX  26004 83344 32497 60903 10219 20195 39155 40097 82182 333 10329 29068 55065 58011;EQDQ01  00002PRCP06
0186833440999992005012612004-14950-040883FM-12+0905SBQV V0203601N003612200019N0200001N1+02711+01861101061ADDAA106000091GF102991021011004501001001KA1240N+01921MA1999999091631MD1999999+0051REMSYN076AAXX  26124 83344 32498 23607 10271 20186 39163 40106 82100 333 20192 58005;EQDQ01  00002PRCP06
0167833440999992005012618004-14950-040883FM-12+0905SBQV V0203601N002112200019N0200001N1+03291+01741100661ADDAA106000091GF104991041021004501001001MA1999999091341MD1999999+0141REMSYN070AAXX  26184 83344 32498 43604 10329 20174 39134 40066 84200 333 58014;EQDQ01  00002PRCP06
0198833440999992005012700004-14950-040883FM-12+0905SBQV V0200501N001510042019N0100001N1+02601+01841101171ADDAA106000091GF105991051021004501001001KA1240M+03881MA1999999091661MD1999999+0081REMSYN088AAXX  27004 83344 32497 50503 10260 20184 39166 40117 85200 333 10388 29056 55105 58008;EQDQ01  00002PRCP06
0186833440999992005012712004-14950-040883FM-12+0905SBQV V0200901N002110120019N0200001N1+02491+01871101251ADDAA106000091GF107991071001012501091001KA1240N+01971MA1999999091841MD1999999+0211REMSYN076AAXX  27124 83344 32698 70904 10249 20187 39184 40125 87090 333 20197 58021;EQDQ01  00002PRCP06
0167833440999992005012718004-14950-040883FM-12+0905SBQV V0200901N003110450019N0200001N1+03131+01711100901ADDAA106000091GF106991021011004501091001MA1999999091521MD1999999+0181REMSYN070AAXX  27184 83344 32498 60906 10313 20171 39152 40090 82190 333 58018;EQDQ01  00002PRCP06
0198833440999992005012800004-14950-040883FM-12+0905SBQV V0201401N003110042019N0040001N1+02211+02011101311ADDAA106000091GF108991081061004501999999KA1240M+03191MA1999999091811MD1999999+0151REMSYN088AAXX  28004 83344 32496 81406 10221 20201 39181 40131 886// 333 10319 29073 55047 58015;EQDQ01  00002PRCP06
0186833440999992005012812004-14950-040883FM-12+0905SBQV V0201801N004610042019N0200001N1+02371+02011101371ADDAA106000091GF107991071071004501001001KA1240N+01961MA1999999091851MD1999999+0011REMSYN076AAXX  28124 83344 32498 71809 10237 20201 39185 40137 87700 333 20196 58001;EQDQ01  00002PRCP06
0167833440999992005012818004-14950-040883FM-12+0905SBQV V0201801N004111050019N0200001N1+02951+01821100901ADDAA106000091GF107991031021004501001091MA1999999091501MD1999999-0021REMSYN070AAXX  28184 83344 32498 71808 10295 20182 39150 40090 83209 333 59002;EQDQ01  00002PRCP06
0198833440999992005012900004-14950-040883FM-12+0905SBQV V0201401N003610021019N0040001N1+02081+02031101161ADDAA106000091GF108991081071002501999999KA1240M+02971MA1999999091621MD1999999-0191REMSYN088AAXX  29004 83344 32396 81407 10208 20203 39162 40116 887// 333 10297 29081 55065 59019;EQDQ01  00002PRCP06
0190833440999992005012912004-14950-040883FM-12+0905SBQV V0201401N003610042019N0100001N1+02011+01901101211ADDAY161061AY221061GF108991081071004501999999KA1240N+01831MA1999999091601MD1999999-0251MW1021REMSYN088AAXX  29124 83344 21497 81407 10201 20190 39160 40121 70262 887// 333 20183 59025 60044;
0171833440999992005012918004-14950-040883FM-12+0905SBQV V0201401N001510042019N0100001N1+02591+01801100881ADDAY151061AY221061GF108991081071004501999999MA1999999091381MD1999999-0121MW1521REMSYN082AAXX  29184 83344 21497 81403 10259 20180 39138 40088 75252 887// 333 59012 60031;
0202833440999992005013000004-14950-040883FM-12+0905SBQV V0200901N002610042019N0040001N1+01981+01911101131ADDAY161061AY221061GF108991081071004501999999KA1240M+02471MA1999999091511MD1999999-0111MW1011REMSYN100AAXX  30004 83344 21496 80905 10198 20191 39151 40113 70162 887// 333 10247 29087 55008 59011 60131;
0177833440999992005013012004-14950-040880FM-12+0840SBQV V0201401N002110021019N0040001N1+02171+01951101041ADDAY161061AY251061GF108991081071002501999999MA1999999091451MD1999999-0151MW1511REMSYN088AAXX  30124 83344 21396 81404 10217 20195 39145 40104 75165 887// 333 20185 59015 60244;
0171833440999992005013018004-14950-040880FM-12+0840SBQV V0200901N001010042019N0100001N1+02111+02061100821ADDAY181061AY261061GF108991081091004501999999MA1999999091231MD1999999-0151MW1601REMSYN082AAXX  30184 83344 21497 80902 10211 20206 39123 40082 76086 889// 333 59015 60451;
0162833440999992005013112004-14950-040883FM-12+0905SBQV V0200501N002610042019N0200001N1+02251+01901101091ADDGF108991081071004501999999KA1240N+01851MA1999999091541MD1999999+0091REMSYN082AAXX  31124 83344 22498 80505 10225 20190 39154 40109 887// 333 20185 58009 60474;
0167833440999992005013118004-14950-040883FM-12+0905SBQV V0200501N003110450019N0200001N1+02731+01951100571ADDAA106000091GF107991021021004501091021MA1999999091151MD1999999-0081REMSYN070AAXX  31184 83344 32498 70506 10273 20195 39115 40057 82292 333 59008;EQDQ01  00002PRCP06
0214833440999992005020100004-14950-040883FM-12+0905SBQV V0200501N001512200019N0040001N1+02121+01931100931ADDAA106000091GF104991999021004501001001KA1240M+02831MA1999999091411MD1999999-0061REMSYN088AAXX  01004 83344 32496 40503 10212 20193 39141 40093 82200 333 10283 29081 55025 59006;EQDQ01+000022SCOTLCQ02  00002PRCP06
0186833440999992005020112004-14950-040883FM-12+0905SBQV V0203601N003610042019N0100001N1+02271+01921101011ADDAA106000091GF108991081071004501999999KA1240N+01811MA1999999091481MD1999999-0061REMSYN076AAXX  01124 83344 32497 83607 10227 20192 39148 40101 887// 333 20181 59006;EQDQ01  00002PRCP06
0167833440999992005020118004-14950-040883FM-12+0905SBQV V0203601N003110450019N0200001N1+02701+01881100731ADDAA106000091GF108991041071004501051001MA1999999091251MD1999999+0101REMSYN070AAXX  01184 83344 32498 83606 10270 20188 39125 40073 84750 333 58010;EQDQ01  00002PRCP06
0198833440999992005020200004-14950-040883FM-12+0905SBQV V0200501N001510042019N0040001N1+02171+02021101011ADDAA106000091GF108991081071004501999999KA1240M+02821MA1999999091481MD1999999+0071REMSYN088AAXX  02004 83344 32496 80503 10217 20202 39148 40101 887// 333 10282 29081 55027 58007;EQDQ01  00002PRCP06
0186833440999992005020212004-14950-040883FM-12+0905SBQV V0200501N003112200019N0200001N1+02331+01811101151ADDAA106000091GF106991031021008001001011KA1240N+01571MA1999999091631MD1999999+0151REMSYN076AAXX  02124 83344 32598 60506 10233 20181 39163 40115 83201 333 20157 58015;EQDQ01  00002PRCP06
0167833440999992005020218004-14950-040883FM-12+0905SBQV V0200901N004110450019N0200001N1+02761+01771100931ADDAA106000091GF107991021041008001021041MA1999999091431MD1999999+0181REMSYN070AAXX  02184 83344 32598 70908 10276 20177 39143 40093 82424 333 58018;EQDQ01  00002PRCP06
0208833440999992005020300004-14950-040883FM-12+0905SBQV V0200901N002112200019N0200001N1+01971+01701101231ADDAA106000091GA1001+999999999GF100991001001999999001001KA1240M+02851MA1999999091661MD1999999+0181REMSYN082AAXX  03004 83344 32998 00904 10197 20170 39166 40123 333 10285 29075 55070 58018;EQDQ01  00002PRCP06
0186833440999992005020312004-14950-040883FM-12+0905SBQV V0200901N003112200019N0200001N1+02251+01691101141ADDAA106000091GF104991041041004501001001KA1240N+01531MA1999999091871MD1999999+0241REMSYN076AAXX  03124 83344 32498 40906 10225 20169 39187 40114 84400 333 20153 58024;EQDQ01  00002PRCP06
0167833440999992005020318004-14950-040883FM-12+0905SBQV V0200501N003112200019N0200001N1+02751+01511101201ADDAA106000091GF102991021011004501001001MA1999999091641MD1999999+0211REMSYN070AAXX  03184 83344 32498 20506 10275 20151 39164 40120 82100 333 58021;EQDQ01  00002PRCP06
0208833440999992005020400004-14950-040883FM-12+0905SBQV V0200901N001012200019N0100001N1+02071+01761101361ADDAA106000091GA1001+999999999GF100991001001999999001001KA1240M+02851MA1999999091781MD1999999+0121REMSYN082AAXX  04004 83344 32997 00902 10207 20176 39178 40136 333 10285 29071 55114 58012;EQDQ01  00002PRCP06
0186833440999992005020412004-14950-040883FM-12+0905SBQV V0201401N003110450019N0200001N1+02331+01791101571ADDAA106000091GF106991031011008001081001KA1240N+01551MA1999999091991MD1999999+0121REMSYN076AAXX  04124 83344 32598 61406 10233 20179 39199 40157 83180 333 20155 58012;EQDQ01  00002PRCP06
0171833440999992005020418004-14950-040883FM-12+0905SBQV V0201401N002610450019N0200001N1+02171+02021101471ADDAY151061AY221061GF107991041071004501021001MA1999999091801MD1999999+0161MW1201REMSYN082AAXX  04184 83344 21498 71405 10217 20202 39180 40147 72052 84720 333 58016 69901;
0189833440999992005020500004-14950-040883FM-12+0905SBQV V0201401N003112200019N0100001N1+02031+01781101431ADDAA106000021GA1001+999999999GF100991001001999999001001KA1240M+02691MA1999999091861MD1999999+0081REMSYN082AAXX  05004 83344 32997 01406 10203 20178 39186 40143 333 10269 29084 55080 58008;
0186833440999992005020512004-14950-040883FM-12+0905SBQV V0201401N001512200019N0200001N1+02271+01821101601ADDAA106000091GF104991021041004501031001KA1240N+01771MA1999999091991MD1999999+0001REMSYN076AAXX  05124 83344 32498 41403 10227 20182 39199 40160 82430 333 20177 58000;EQDQ01  00002PRCP06
0167833440999992005020518004-14950-040883FM-12+0905SBQV V0201401N003612200019N0200001N1+02771+01831101211ADDAA106000091GF101991011011004501001001MA1999999091701MD1999999-0101REMSYN070AAXX  05184 83344 32498 11407 10277 20183 39170 40121 81100 333 59010;EQDQ01  00002PRCP06
0173833440999992005020612004-14950-040880FM-12+0840SBQV V0200901N002610450019N0200001N1+02231+01801101011ADDAA106000091GF108991041071004501021999MA1999999091941MD1999999-0051REMSYN076AAXX  06124 83344 32498 80905 10223 20180 39194 40101 8472/ 333 20189 59005;EQDQ01  00002PRCP06
0167833440999992005020618004-14950-040880FM-12+0840SBQV V0201401N002612200019N0200001N1+02771+01561101041ADDAA106000091GF103991031011008001001001MA1999999091591MD1999999-0111REMSYN070AAXX  06184 83344 32598 31405 10277 20156 39159 40104 83100 333 59011;EQDQ01  00002PRCP06
0186833440999992005020712004-14950-040883FM-12+0905SBQV V0201401N004110042019N0200001N1+02041+01721101491ADDAA106000091GF108991081071004501999999KA1240N+01731MA1999999091851MD1999999-0091REMSYN076AAXX  07124 83344 32498 81408 10204 20172 39185 40149 887// 333 20173 59009;EQDQ01  00002PRCP06
0167833440999992005020718004-14950-040883FM-12+0905SBQV V0201401N004110450019N0200001N1+02391+01751101231ADDAA106000091GF105991021021004501061001MA1999999091641MD1999999+0051REMSYN070AAXX  07184 83344 32498 51408 10239 20175 39164 40123 82260 333 58005;EQDQ01  00002PRCP06
0198833440999992005020800004-14950-040883FM-12+0905SBQV V0201401N002112200019N0040001N1+01921+01731101361ADDAA106000091GF104991041001012501041001KA1240M+02551MA1999999091721MD1999999-0171REMSYN088AAXX  08004 83344 32696 41404 10192 20173 39172 40136 84040 333 10255 29082 55035 59017;EQDQ01  00002PRCP06
0186833440999992005020812004-14950-040883FM-12+0905SBQV V0201401N007210450019N0200001N1+02131+01531101481ADDAA106000091GF106991041011008001081001KA1240N+01531MA1999999091831MD1999999-0021REMSYN076AAXX  08124 83344 32598 61414 10213 20153 39183 40148 84180 333 20153 59002;EQDQ01  00002PRCP06
0167833440999992005020818004-14950-040883FM-12+0905SBQV V0201401N005110450019N0200001N1+02201+01751101271ADDAA106000091GF106991031061004501011001MA1999999091641MD1999999+0001REMSYN070AAXX  08184 83344 32498 61410 10220 20175 39164 40127 83610 333 58000;EQDQ01  00002PRCP06
0186833440999992005020912004-14950-040883FM-12+0905SBQV V0201401N005110042019N0200001N1+02051+01561101521ADDAA106000091GF108991081051004501999999KA1240N+01671MA1999999091861MD1999999+0031REMSYN076AAXX  09124 83344 32498 81410 10205 20156 39186 40152 885// 333 20167 58003;EQDQ01  00002PRCP06
0167833440999992005020918004-14950-040883FM-12+0905SBQV V0201401N003110450019N0200001N1+02531+01491101001ADDAA106000091GF105991021041004501091001MA1999999091471MD1999999-0171REMSYN070AAXX  09184 83344 32498 51406 10253 20149 39147 40100 82490 333 59017;EQDQ01  00002PRCP06
0208833440999992005021000004-14950-040883FM-12+0905SBQV V0201401N003112200019N0100001N1+02091+01621101211ADDAA106000091GA1001+999999999GF100991001001999999001001KA1240M+02571MA1999999091601MD1999999-0091REMSYN082AAXX  10004 83344 32997 01406 10209 20162 39160 40121 333 10257 29069 55060 59009;EQDQ01  00002PRCP06
0186833440999992005021012004-14950-040883FM-12+0905SBQV V0201401N005110075019N0200001N1+02111+01581101241ADDAA106000091GF106991061021008001001001KA1240N+01751MA1999999091651MD1999999-0211REMSYN076AAXX  10124 83344 32598 61410 10211 20158 39165 40124 86200 333 20175 59021;EQDQ01  00002PRCP06
0167833440999992005021018004-14950-040883FM-12+0905SBQV V0201401N004112200019N0200001N1+02611+01711100791ADDAA106000091GF105991021011008001001011MA1999999091321MD1999999-0151REMSYN070AAXX  10184 83344 32598 51408 10261 20171 39132 40079 82101 333 59015;EQDQ01  00002PRCP06
0208833440999992005021100004-14950-040883FM-12+0905SBQV V0201401N001512200019N0200001N1+02041+01621100981ADDAA106000091GA1001+999999999GF100991001001999999001001KA1240M+02691MA1999999091421MD1999999-0181REMSYN082AAXX  11004 83344 32998 01403 10204 20162 39142 40098 333 10269 29071 55079 59018;EQDQ01  00002PRCP06
0186833440999992005021112004-14950-040883FM-12+0905SBQV V0200901N001512200019N0200001N1+02231+01781101151ADDAA106000091GF104991041041004501001001KA1240N+01731MA1999999091591MD1999999-0061REMSYN076AAXX  11124 83344 32498 40903 10223 20178 39159 40115 84400 333 20173 59006;EQDQ01  00002PRCP06
0167833440999992005021118004-14950-040883FM-12+0905SBQV V0200901N003112200019N0200001N1+02631+01981100701ADDAA106000091GF103991031041004501001001MA1999999091221MD1999999-0101REMSYN070AAXX  11184 83344 32498 30906 10263 20198 39122 40070 83400 333 59010;EQDQ01  00002PRCP06
0208833440999992005021200004-14950-040883FM-12+0905SBQV V0200501N002112200019N0040001N1+02231+01901100871ADDAA106000091GA1001+999999999GF100991001001999999001001KA1240M+02951MA1999999091371MD1999999-0051REMSYN082AAXX  12004 83344 32996 00504 10223 20190 39137 40087 333 10295 29076 55074 59005;EQDQ01  00002PRCP06
0190833440999992005021212004-14950-040883FM-12+0905SBQV V0203601N003110021019N0200001N1+02181+01971101041ADDAY191061AY281061GF108991081071002501999999KA1240N+01771MA1999999091511MD1999999-0081MW1021REMSYN088AAXX  12124 83344 21398 83606 10218 20197 39151 40104 70298 887// 333 20177 59008 60244;
0167833440999992005021218004-14950-040883FM-12+0905SBQV V0203601N003110450019N0200001N1+02661+01821100701ADDAA106000091GF108991041031002501021999MA1999999091241MD1999999+0021REMSYN070AAXX  12184 83344 32398 83606 10266 20182 39124 40070 8432/ 333 58002;EQDQ01  00002PRCP06
0185833440999992005021300004-14950-040880FM-12+0840SBQV V0203201N001510450019N0100001N1+02291+02031100901ADDAA106000091GF108991041091004501021999MA1999999091401MD1999999+0031REMSYN088AAXX  13004 83344 32497 83203 10229 20203 39140 40090 8492/ 333 10273 29080 55025 58003;EQDQ01  00002PRCP06
0177833440999992005021312004-14950-040880FM-12+0840SBQV V0203601N000510042019N0040001N1+02111+02031101151ADDAY161061AY221061GF108991081071004501999999MA1999999091611MD1999999+0101MW1621REMSYN088AAXX  13124 83344 21496 83601 10211 20203 39161 40115 76262 887// 333 20181 58010 60154;
0148833440999992005021318004-14950-040880FM-12+0840SBQV V0202701N001512200019N0200001N1+02671+01951100681ADDAA106000021GF104991041041004501001001MA1999999091241MD1999999+0001REMSYN070AAXX  13184 83344 32498 42703 10267 20195 39124 40068 84400 333 58000;
0202833440999992005021400004-14950-040883FM-12+0905SBQV V0203601N004110042019N0040001N1+02111+02031101051ADDAY161061AY221061GF108991081071004501999999KA1240M+02811MA1999999091481MD1999999+0081MW1621REMSYN100AAXX  14004 83344 21496 83608 10211 20203 39148 40105 76262 887// 333 10281 29088 55050 58008 60031;
0190833440999992005021412004-14950-040883FM-12+0905SBQV V0203601N001510021019N0040001N1+02031+01971101081ADDAY161061AY251061GF108991081071002501999999KA1240N+01911MA1999999091481MD1999999-0131MW1651REMSYN088AAXX  14124 83344 21396 83603 10203 20197 39148 40108 76565 887// 333 20191 59013 60334;
0171833440999992005021418004-14950-040883FM-12+0905SBQV V0203601N004110075019N0200001N1+02511+02111100501ADDAY161061AY251061GF106991061021008001001001MA1999999091051MD1999999-0191MW1031REMSYN082AAXX  14184 83344 21598 63608 10251 20211 39105 40050 70365 86200 333 59019 60071;
0202833440999992005021500004-14950-040883FM-12+0905SBQV V0203601N002110021019N0040001N1+02131+02021100881ADDAY161061AY251061GF108991081071002501999999KA1240M+02631MA1999999091331MD1999999-0151MW1611REMSYN100AAXX  15004 83344 21396 83604 10213 20202 39133 40088 76165 887// 333 10263 29091 55026 59015 60051;
0190833440999992005021512004-14950-040883FM-12+0905SBQV V0203601N003110042019N0100001N1+02131+01981100841ADDAY121061AY261061GF108991081071004501999999KA1240N+01871MA1999999091311MD1999999-0171MW1001REMSYN088AAXX  15124 83344 21497 83606 10213 20198 39131 40084 70026 887// 333 20187 59017 60134;
0167833440999992005021518004-14950-040883FM-12+0905SBQV V0203601N003610042019N0100001N1+02391+02071100551ADDAA106000091GF108991081071004501999999MA1999999091081MD1999999+0031REMSYN070AAXX  15184 83344 32497 83607 10239 20207 39108 40055 887// 333 58003;EQDQ01  00002PRCP06
0202833440999992005021600004-14950-040883FM-12+0905SBQV V0203601N002610021019N0040001N1+02171+02041100811ADDAY161061AY251061GF108991081071002501999999KA1240M+02251MA1999999091281MD1999999-0051MW1501REMSYN100AAXX  16004 83344 21396 83605 10217 20204 39128 40081 75065 887// 333 10225 29090 55034 59005 60021;
0190833440999992005021612004-14950-040883FM-12+0905SBQV V0203601N005110021019N0040001N1+01981+01831101001ADDAY161061AY251061GF108991081071002501999999KA1240N+01771MA1999999091411MD1999999+0101MW1601REMSYN088AAXX  16124 83344 21396 83610 10198 20183 39141 40100 76065 887// 333 20177 58010 60314;
0171833440999992005021618004-14950-040883FM-12+0905SBQV V0203601N002110021019N0200001N1+02351+01981100771ADDAY161061AY251061GF108991081071002501999999MA1999999091261MD1999999+0181MW1021REMSYN082AAXX  16184 83344 21398 83604 10235 20198 39126 40077 70265 887// 333 58018 60011;
0202833440999992005021700004-14950-040883FM-12+0905SBQV V0200501N002110042019N0040001N1+02101+02021101071ADDAY151061AY221061GF108991081071004501999999KA1240M+02471MA1999999091471MD1999999+0191MW1201REMSYN100AAXX  17004 83344 21496 80504 10210 20202 39147 40107 72052 887// 333 10247 29090 55000 58019 69941;
0162833440999992005021712004-14950-040883FM-12+0905SBQV V0203601N003110042019N0200001N1+02251+01801101361ADDGF108991081071004501999999KA1240N+01871MA1999999091781MD1999999+0371REMSYN082AAXX  17124 83344 22498 83606 10225 20180 39178 40136 887// 333 20187 58037 60024;
0167833440999992005021718004-14950-040883FM-12+0905SBQV V0203601N002110450019N0200001N1+02521+01891101451ADDAA106000091GF106991041021004501061001MA1999999091901MD1999999+0651REMSYN070AAXX  17184 83344 32498 63604 10252 20189 39190 40145 84260 333 58065;EQDQ01  00002PRCP06
0202833440999992005021800004-14950-040883FM-12+0905SBQV V0200901N001510120019N0040001N1+02071+01991101361ADDAY161061AY221061GF108991081001012501021999KA1240M+02791MA1999999091781MD1999999+0311MW1021REMSYN100AAXX  18004 83344 21696 80903 10207 20199 39178 40136 70262 8802/ 333 10279 29084 55060 58031 60191;
0190833440999992005021812004-14950-040883FM-12+0905SBQV V0200901N003110450019N0200001N1+02311+01851101461ADDAY151061AY221061GF106991041041008001031001KA1240N+01891MA1999999091871MD1999999+0091MW1031REMSYN088AAXX  18124 83344 21598 60906 10231 20185 39187 40146 70352 84430 333 20189 58009 60194;
0167833440999992005021818004-14950-040883FM-12+0905SBQV V0201401N003110042019N0200001N1+02551+01911101151ADDAA106000091GF107991071071004501001001MA1999999091651MD1999999+0191REMSYN070AAXX  18184 83344 32498 71406 10255 20191 39165 40115 87700 333 58019;EQDQ01  00002PRCP06
0198833440999992005021900004-14950-040883FM-12+0905SBQV V0200901N001012200019N0100001N1+01981+01781101391ADDAA106000091GF104991041051008001001001KA1240M+02691MA1999999091811MD1999999+0031REMSYN088AAXX  19004 83344 32597 40902 10198 20178 39181 40139 84500 333 10269 29080 55018 58003;EQDQ01  00002PRCP06
0186833440999992005021912004-14950-040883FM-12+0905SBQV V0200501N003110450019N0200001N1+02371+01691101451ADDAA106000091GF105991031011008001041001KA1240N+01691MA1999999091881MD1999999+0011REMSYN076AAXX  19124 83344 32598 50506 10237 20169 39188 40145 83140 333 20169 58001;EQDQ01  00002PRCP06
0167833440999992005021918004-14950-040883FM-12+0905SBQV V0200501N001510450019N0200001N1+02771+01831100951ADDAA106000091GF106991041021004501041001MA1999999091461MD1999999-0191REMSYN070AAXX  19184 83344 32498 60503 10277 20183 39146 40095 84240 333 59019;EQDQ01  00002PRCP06
0179833440999992005022000004-14950-040880FM-12+0840SBQV V0200901N000512200019N0100001N1+02211+01921101031ADDAA106000091GF100991001001999999001001MA1999999091541MD1999999-0271REMSYN082AAXX  20004 83344 32997 00901 10221 20192 39154 40103 333 10283 29073 55074 59027;EQDQ01  00002PRCP06
0173833440999992005022012004-14950-040880FM-12+0840SBQV V0203601N003610450019N0200001N1+02351+02001101181ADDAA106000091GF107991031041004501091001MA1999999091671MD1999999-0211REMSYN076AAXX  20124 83344 32498 73607 10235 20200 39167 40118 83490 333 20189 59021;EQDQ01  00002PRCP06
0167833440999992005022018004-14950-040880FM-12+0840SBQV V0202701N002110042019N0200001N1+02701+01991100621ADDAA106000091GF108991081071004501999999MA1999999091181MD1999999-0281REMSYN070AAXX  20184 83344 32498 82704 10270 20199 39118 40062 887// 333 59028;EQDQ01  00002PRCP06
0202833440999992005022100004-14950-040883FM-12+0905SBQV V0203601N001510042019N0020001N1+02171+02021100971ADDAY191061AY221061GF108991081071004501999999KA1240M+02911MA1999999091461MD1999999-0081MW1621REMSYN100AAXX  21004 83344 21495 83603 10217 20202 39146 40097 76292 887// 333 10291 29083 55046 59008 60051;
0190833440999992005022112004-14950-040883FM-12+0905SBQV V0201401N003110450019N0200001N1+02191+01941101011ADDAY161061AY251061GF108991041071004501011001KA1240N+01771MA1999999091481MD1999999-0191MW1021REMSYN088AAXX  21124 83344 21498 81406 10219 20194 39148 40101 70265 84710 333 20177 59019 60054;
0167833440999992005022118004-14950-040883FM-12+0905SBQV V0201401N001510075019N0200001N1+02691+01861100651ADDAA106000091GF105991051011008001001001MA1999999091211MD1999999+0031REMSYN070AAXX  21184 83344 32598 51403 10269 20186 39121 40065 85100 333 58003;EQDQ01  00002PRCP06
0198833440999992005022200004-14950-040883FM-12+0905SBQV V0200901N001512200019N0100001N1+02011+01871101021ADDAA106000091GF102991021011008001001001KA1240M+02731MA1999999091451MD1999999-0011REMSYN088AAXX  22004 83344 32597 20903 10201 20187 39145 40102 82100 333 10273 29083 55083 59001;EQDQ01  00002PRCP06
0190833440999992005022212004-14950-040883FM-12+0905SBQV V0200901N002110042019N0200001N1+02191+01921101231ADDAY161061AY221061GF107991051041004501051001KA1240N+01851MA1999999091641MD1999999+0161MW1021REMSYN088AAXX  22124 83344 21498 70904 10219 20192 39164 40123 70262 85450 333 20185 58016 60324;
0195833440999992005022218004-14950-040883FM-12+0905SBQV V0201401N002610042019N0200001N1+02531+02131100901ADDAA106000091AY121061AY221061GF106991061041004501001001MA1999999091401MD1999999-0191MW1161REMSYN076AAXX  22184 83344 31498 61405 10253 20213 39140 40090 71622 86400 333 59019;EQDQ01  00002PRCP06
0198833440999992005022300004-14950-040883FM-12+0905SBQV V0200901N001510042019N0040001N1+02171+01931101251ADDAA106000091GF108991051061004501091999KA1240M+02691MA1999999091701MD1999999+0251REMSYN088AAXX  23004 83344 32496 80903 10217 20193 39170 40125 8569/ 333 10269 29085 55047 58025;EQDQ01  00002PRCP06
0186833440999992005022312004-14950-040883FM-12+0905SBQV V0203601N003112200019N0200001N1+02431+01861101341ADDAA106000091GF102991021011004501001001KA1240N+01891MA1999999091821MD1999999+0181REMSYN076AAXX  23124 83344 32498 23606 10243 20186 39182 40134 82100 333 20189 58018;EQDQ01  00002PRCP06
0171833440999992005022318004-14950-040883FM-12+0905SBQV V0201401N002110042019N0100001N1+02331+02111101121ADDAY191061AY221061GF108991081071004501999999MA1999999091581MD1999999+0181MW1521REMSYN082AAXX  23184 83344 21497 81404 10233 20211 39158 40112 75292 887// 333 58018 69921;
0202833440999992005022400004-14950-040883FM-12+0905SBQV V0200901N003110042019N0040001N1+02151+02001101331ADDAY191061AY261061GF108991081071004501999999KA1240M+02851MA1999999091811MD1999999+0111MW1021REMSYN100AAXX  24004 83344 21496 80906 10215 20200 39181 40133 70296 887// 333 10285 29086 55057 58011 69961;
0162833440999992005022412004-14950-040883FM-12+0905SBQV V0200501N002110450019N0200001N1+02411+01931101541ADDGF106991021011008001081091KA1240N+01791MA1999999092001MD1999999+0181REMSYN082AAXX  24124 83344 22598 60504 10241 20193 39200 40154 82189 333 20179 58018 69984;
0167833440999992005022418004-14950-040883FM-12+0905SBQV V0201401N003110450019N0200001N1+02731+01981101111ADDAA106000091GF106991031021008001041001MA1999999091631MD1999999+0051REMSYN070AAXX  24184 83344 32598 61406 10273 20198 39163 40111 83240 333 58005;EQDQ01  00002PRCP06
0198833440999992005022500004-14950-040883FM-12+0905SBQV V0200501N001512200019N0100001N1+02131+01981101351ADDAA106000091GF103991021031008001051001KA1240M+02871MA1999999091771MD1999999-0041REMSYN088AAXX  25004 83344 32597 30503 10213 20198 39177 40135 82350 333 10287 29081 55076 59004;EQDQ01  00002PRCP06
0186833440999992005022512004-14950-040883FM-12+0905SBQV V0203601N002611050019N0200001N1+02331+01761101471ADDAA106000091GF106991021011004501001091KA1240N+01741MA1999999091921MD1999999-0081REMSYN076AAXX  25124 83344 32498 63605 10233 20176 39192 40147 82109 333 20174 59008;EQDQ01  00002PRCP06
0167833440999992005022518004-14950-040883FM-12+0905SBQV V0200501N001510042019N0200001N1+02901+01961101011ADDAA106000091GF106991061031004501001001MA1999999091541MD1999999-0091REMSYN070AAXX  25184 83344 32498 60503 10290 20196 39154 40101 86300 333 59009;EQDQ01  00002PRCP06
0208833440999992005022600004-14950-040883FM-12+0905SBQV V0200501N002112200019N0100001N1+02071+01841101111ADDAA106000091GA1001+999999999GF100991001001999999001001KA1240M+02951MA1999999091571MD1999999-0021REMSYN082AAXX  26004 83344 32497 00504 10207 20184 39157 40111 333 10295 29075 55089 59002;EQDQ01  00002PRCP06
0186833440999992005022612004-14950-040883FM-12+0905SBQV V0203601N003112200019N0200001N1+02411+01991101121ADDAA106000091GF104991021021004501031001KA1240N+01871MA1999999091691MD1999999-0231REMSYN076AAXX  26124 83344 32498 43606 10241 20199 39169 40112 82230 333 20187 59023;EQDQ01  00002PRCP06
0167833440999992005022618004-14950-040883FM-12+0905SBQV V0203201N001512200019N0200001N1+02971+01991100811ADDAA106000091GF103991031021004501001001MA1999999091401MD1999999-0141REMSYN070AAXX  26184 83344 32498 33203 10297 20199 39140 40081 83200 333 59014;EQDQ01  00002PRCP06
0185833440999992005022700004-14950-040880FM-12+0840SBQV V0200501N001519999999N0100001N1+02331+02091101091ADDAA106000091GF107991001001999999001091MA1999999091591MD1999999+0021REMSYN088AAXX  27004 83344 32997 70503 10233 20209 39159 40109 80009 333 10305 29077 55087 58002;EQDQ01  00002PRCP06
0173833440999992005022712004-14950-040880FM-12+0840SBQV V0203601N003112200019N0200001N1+02591+02101101121ADDAA106000091GF104991001001999999001051MA1999999091681MD1999999-0011REMSYN076AAXX  27124 83344 32998 43606 10259 20210 39168 40112 80005 333 20201 59001;EQDQ01  00002PRCP06
0167833440999992005022718004-14950-040880FM-12+0840SBQV V0203601N001519999999N0200001N1+02871+02141100741ADDAA106000091GF106991999021999999001001MA1999999091351MD1999999-0051REMSYN070AAXX  27184 83344 32998 63603 10287 20214 39135 40074 84200 333 59005;EQDQ01  00002PRCP06
0226833440999992005022800004-14950-040883FM-12+0905SBQV V0203601N002110042019N0100001N1+02361+02031100801ADDAA106000091AY191061AY221061GF106991061031004501001001KA1240M+03031MA1999999091411MD1999999-0181MW1031REMSYN094AAXX  28004 83344 31497 63604 10236 20203 39141 40080 70392 86300 333 10303 29076 55096 59018;EQDQ01  00002PRCP06
0186833440999992005022812004-14950-040883FM-12+0905SBQV V0203601N002610450019N0200001N1+02431+02051101331ADDAA106000091GF106991021021004501051001KA1240N+01911MA1999999091851MD1999999+0171REMSYN076AAXX  28124 83344 32498 63605 10243 20205 39185 40133 82250 333 20191 58017;EQDQ01  00002PRCP06
0167833440999992005022818004-14950-040883FM-12+0905SBQV V0203601N001510042019N0200001N1+02991+01861100761ADDAA106000091GF105991051021004501001001MA1999999091371MD1999999+0021REMSYN070AAXX  28184 83344 32498 53603 10299 20186 39137 40076 85200 333 58002;EQDQ01  00002PRCP06
0208833440999992005030100004-14950-040883FM-12+0905SBQV V0200501N000512200019N0100001N1+02311+02091101091ADDAA106000091GA1001+999999999GF100991001001999999001001KA1240M+03051MA1999999091611MD1999999+0201REMSYN082AAXX  01004 83344 32997 00501 10231 20209 39161 40109 333 10305 29077 55093 58020;EQDQ01  00002PRCP06
0186833440999992005030112004-14950-040883FM-12+0905SBQV V0203601N002111050019N0200001N1+02271+01881101311ADDAA106000091GF107991041001012501071051KA1240N+01851MA1999999091791MD1999999-0061REMSYN076AAXX  01124 83344 32698 73604 10227 20188 39179 40131 84075 333 20185 59006;EQDQ01  00002PRCP06
0167833440999992005030118004-14950-040883FM-12+0905SBQV V0200901N000510450019N0200001N1+02951+01721100821ADDAA106000091GF106991021021004501041011MA1999999091431MD1999999+0061REMSYN070AAXX  01184 83344 32498 60901 10295 20172 39143 40082 82241 333 58006;EQDQ01  00002PRCP06
0208833440999992005030200004-14950-040883FM-12+0905SBQV V0200901N001512200019N0100001N1+02271+02051101111ADDAA106000091GA1001+999999999GF100991001001999999001001KA1240M+03071MA1999999091591MD1999999-0021REMSYN082AAXX  02004 83344 32997 00903 10227 20205 39159 40111 333 10307 29076 55099 59002;EQDQ01  00002PRCP06
0186833440999992005030212004-14950-040883FM-12+0905SBQV V0201801N002610450019N0200001N1+02771+02051101231ADDAA106000091GF106991031041008001031061KA1240N+01771MA1999999091801MD1999999+0011REMSYN076AAXX  02124 83344 32598 61805 10277 20205 39180 40123 83436 333 20177 58001;EQDQ01  00002PRCP06
0167833440999992005030218004-14950-040883FM-12+0905SBQV V0200901N003610450019N0200001N1+02711+01871100991ADDAA106000091GF106991041031008001031001MA1999999091521MD1999999+0091REMSYN070AAXX  02184 83344 32598 60907 10271 20187 39152 40099 84330 333 58009;EQDQ01  00002PRCP06
0208833440999992005030300004-14950-040883FM-12+0905SBQV V0200501N001512200019N0100001N1+02071+01801101291ADDAA106000091GA1001+999999999GF100991001001999999001001KA1240M+02851MA1999999091741MD1999999+0151REMSYN082AAXX  03004 83344 32997 00503 10207 20180 39174 40129 333 10285 29078 55088 58015;EQDQ01  00002PRCP06
0186833440999992005030312004-14950-040883FM-12+0905SBQV V0200901N003610042019N0200001N1+02361+01891101491ADDAA106000091GF106991061031004501001001KA1240N+01711MA1999999091921MD1999999+0121REMSYN076AAXX  03124 83344 32498 60907 10236 20189 39192 40149 86300 333 20171 58012;EQDQ01  00002PRCP06
0208833440999992005030400004-14950-040883FM-12+0905SBQV V0200901N002612200019N0100001N1+02091+01841101401ADDAA106000091GA1001+999999999GF100991001001999999001001KA1240M+02831MA1999999091841MD1999999+0101REMSYN082AAXX  04004 83344 32997 00905 10209 20184 39184 40140 333 10283 29076 55096 58010;EQDQ01  00002PRCP06
0202833440999992005030412004-14950-040883FM-12+0905SBQV V0200501N003110042019N0200001N1+02211+01861101481ADDAA106000091GF107991071061004501001001KA1240N+99999MA1999999091891MD1999999-0031REMSYN076AAXX  04124 83344 32498 70506 10221 20186 39189 40148 87600 333 20227 59003;EQDQ01  00002PRCP06Q02 +02272ATMN  
0167833440999992005030418004-14950-040883FM-12+0905SBQV V0200501N002612200019N0200001N1+02771+01431101091ADDAA106000091GF102991021011004501001001MA1999999091591MD1999999-0041REMSYN070AAXX  04184 83344 32498 20505 10277 20143 39159 40109 82100 333 59004;EQDQ01  00002PRCP06
0208833440999992005030500004-14950-040883FM-12+0905SBQV V0200901N001512200019N0040001N1+01941+01641101441ADDAA106000091GA1001+999999999GF100991001001999999001001KA1240M+02871MA1999999091811MD1999999-0031REMSYN082AAXX  05004 83344 32996 00903 10194 20164 39181 40144 333 10287 29073 55095 59003;EQDQ01  00002PRCP06
0186833440999992005030512004-14950-040883FM-12+0905SBQV V0200501N004112200019N0200001N1+02351+01931101581ADDAA106000091GF106991041001022501091011KA1240N+01651MA1999999091971MD1999999+0081REMSYN076AAXX  05124 83344 32898 60508 10235 20193 39197 40158 84091 333 20165 58008;EQDQ01  00002PRCP06
0179833440999992005030600004-14950-040880FM-12+0840SBQV V0200901N001512200019N0100001N1+02191+01971101351ADDAA106000091GF100991001001999999001001MA1999999091811MD1999999+0001REMSYN082AAXX  06004 83344 32997 00903 10219 20197 39181 40135 333 10295 29081 55075 58000;EQDQ01  00002PRCP06
0173833440999992005030612004-14950-040880FM-12+0840SBQV V0200501N002610450019N0200001N1+02431+01951101371ADDAA106000091GF107991041041004501051001MA1999999091851MD1999999-0121REMSYN076AAXX  06124 83344 32498 70505 10243 20195 39185 40137 84450 333 20178 59012;EQDQ01  00002PRCP06
0167833440999992005030618004-14950-040880FM-12+0840SBQV V0201401N003110450019N0200001N1+02671+02091100921ADDAA106000091GF106991031021004501051001MA1999999091441MD1999999-0181REMSYN070AAXX  06184 83344 32498 61406 10267 20209 39144 40092 83250 333 59018;EQDQ01  00002PRCP06
0208833440999992005030700004-14950-040883FM-12+0905SBQV V0200501N002112200019N0100001N1+02281+02111101171ADDAA106000091GA1001+999999999GF100991001001999999001001KA1240M+02931MA1999999091651MD1999999-0161REMSYN082AAXX  07004 83344 32997 00504 10228 20211 39165 40117 333 10293 29081 55079 59016;EQDQ01  00002PRCP06
0186833440999992005030712004-14950-040883FM-12+0905SBQV V0200501N002110042019N0100001N1+02211+01881101351ADDAA106000091GF108991081061004501999999KA1240N+01851MA1999999091811MD1999999-0041REMSYN076AAXX  07124 83344 32497 80504 10221 20188 39181 40135 886// 333 20185 59004;EQDQ01  00002PRCP06
0167833440999992005030718004-14950-040883FM-12+0905SBQV V0201801N003110042019N0200001N1+02401+02111101051ADDAA106000091GF108991081071004501999999MA1999999091521MD1999999+0081REMSYN070AAXX  07184 83344 32498 81806 10240 20211 39152 40105 887// 333 58008;EQDQ01  00002PRCP06
0198833440999992005030800004-14950-040883FM-12+0905SBQV V0201801N001512200019N0040001N1+02111+01931101411ADDAA106000091GF104991041001012501031001KA1240M+02671MA1999999091831MD1999999+0181REMSYN088AAXX  08004 83344 32696 41803 10211 20193 39183 40141 84030 333 10267 29087 55000 58018;EQDQ01  00002PRCP06
0186833440999992005030812004-14950-040883FM-12+0905SBQV V0200501N000512200019N0200001N1+02491+01751101361ADDAA106000091GF103991021011008001001011KA1240N+01651MA1999999091841MD1999999+0031REMSYN076AAXX  08124 83344 32598 30501 10249 20175 39184 40136 82101 333 20165 58003;EQDQ01  00002PRCP06
0167833440999992005030818004-14950-040883FM-12+0905SBQV V0201401N003112200019N0200001N1+02621+01911100971ADDAA106000091GF105991031021008001001041MA1999999091461MD1999999-0061REMSYN070AAXX  08184 83344 32598 51406 10262 20191 39146 40097 83204 333 59006;EQDQ01  00002PRCP06
0198833440999992005030900004-14950-040883FM-12+0905SBQV V0200901N001510210019N0100001N1+02131+01911101221ADDAA106000091GF108991081001022501021999KA1240M+02831MA1999999091711MD1999999-0121REMSYN088AAXX  09004 83344 32897 80903 10213 20191 39171 40122 8802/ 333 10283 29076 55093 59012;EQDQ01  00002PRCP06
0186833440999992005030912004-14950-040883FM-12+0905SBQV V0200501N002110450019N0200001N1+02411+01841101251ADDAA106000091GF106991031031004501051001KA1240N+01771MA1999999091721MD1999999-0121REMSYN076AAXX  09124 83344 32498 60504 10241 20184 39172 40125 83350 333 20177 59012;EQDQ01  00002PRCP06
0167833440999992005030918004-14950-040883FM-12+0905SBQV V0201401N001010042019N0200001N1+02571+01971100891ADDAA106000091GF106991061071004501001001MA1999999091391MD1999999-0071REMSYN070AAXX  09184 83344 32498 61402 10257 20197 39139 40089 86700 333 59007;EQDQ01  00002PRCP06
0208833440999992005031000004-14950-040883FM-12+0905SBQV V0200501N001512200019N0100001N1+02071+01841101031ADDAA106000091GA1001+999999999GF100991001001999999001001KA1240M+02831MA1999999091521MD1999999-0191REMSYN082AAXX  10004 83344 32997 00503 10207 20184 39152 40103 333 10283 29079 55059 59019;EQDQ01  00002PRCP06
0186833440999992005031012004-14950-040883FM-12+0905SBQV V0200501N001510075019N0200001N1+02471+01941101351ADDAA106000091GF105991051011008001001001KA1240N+01611MA1999999091811MD1999999+0091REMSYN076AAXX  10124 83344 32598 50503 10247 20194 39181 40135 85100 333 20161 58009;EQDQ01  00002PRCP06
0167833440999992005031018004-14950-040883FM-12+0905SBQV V0201401N001510075019N0200001N1+02851+01911100891ADDAA106000091GF106991061021008001001001MA1999999091411MD1999999+0021REMSYN070AAXX  10184 83344 32598 61403 10285 20191 39141 40089 86200 333 58002;EQDQ01  00002PRCP06
0202833440999992005031100004-14950-040883FM-12+0905SBQV V0200501N001510021019N0100001N1+02171+02011101251ADDAY151061AY221061GF106991061071002501001001KA1240M+03011MA1999999091741MD1999999+0221MW1031REMSYN100AAXX  11004 83344 21397 60503 10217 20201 39174 40125 70352 86700 333 10301 29078 55097 58022 69921;
0162833440999992005031112004-14950-040883FM-12+0905SBQV V0203601N002612200019N0200001N1+02511+01981101341ADDGF104991041011004501001001KA1240N+01841MA1999999091841MD1999999+0031REMSYN082AAXX  11124 83344 22498 43605 10251 20198 39184 40134 84100 333 20184 58003 69924;
0171833440999992005031118004-14950-040883FM-12+0905SBQV V0203201N001510450019N0200001N1+02431+02171101081ADDAY151061AY221061GF106991041061004501051001MA1999999091551MD1999999-0141MW1501REMSYN082AAXX  11184 83344 21498 63203 10243 20217 39155 40108 75052 84650 333 59014 69911;
0202833440999992005031200004-14950-040883FM-12+0905SBQV V0200501N000510042019N0040001N1+02171+02041101191ADDAY161061AY251061GF106991061071004501001001KA1240M+02951MA1999999091701MD1999999-0041MW1021REMSYN100AAXX  12004 83344 21496 60501 10217 20204 39170 40119 70265 86700 333 10295 29086 55065 59004 60071;
0190833440999992005031212004-14950-040883FM-12+0905SBQV V0203601N002110450019N0200001N1+02431+01951101251ADDAY161061AY251061GF107991041061004501051001KA1240N+01871MA1999999091741MD1999999-0101MW1031REMSYN088AAXX  12124 83344 21498 73604 10243 20195 39174 40125 70365 84650 333 20187 59010 60074;
0171833440999992005031218004-14950-040883FM-12+0905SBQV V0200501N003110042019N0200001N1+02371+02091100881ADDAY151061AY221061GF108991081071004501999999MA1999999091361MD1999999-0191MW1021REMSYN082AAXX  12184 83344 21498 80506 10237 20209 39136 40088 70252 887// 333 59019 69921;
0185833440999992005031300004-14950-040880FM-12+0840SBQV V0201401N001010021019N0100001N1+02291+02131100941ADDAA106000091GF108991081071002501999999MA1999999091471MD1999999-0231REMSYN088AAXX  13004 83344 32397 81402 10229 20213 39147 40094 887// 333 10279 29085 55018 59023;EQDQ01  00002PRCP06
0177833440999992005031312004-14950-040880FM-12+0840SBQV V0200501N002610042019N0200001N1+02351+02051101221ADDAY161061AY251061GF106991061071004501001001MA1999999091711MD1999999-0031MW1021REMSYN088AAXX  13124 83344 21498 60505 10235 20205 39171 40122 70265 86700 333 20190 59003 60104;
0171833440999992005031318004-14950-040880FM-12+0840SBQV V0201401N001010021019N0100001N1+02111+01951100921ADDAY181061AY261061GF108991081071002501999999MA1999999091361MD1999999+0001MW1501REMSYN082AAXX  13184 83344 21397 81402 10211 20195 39136 40092 75086 887// 333 58000 60091;
0189833440999992005031400004-14950-040880FM-12+0840SBQV V0209999C000019999999N0100001N1+02081+01951101101ADDAY151061AY221061GF108991081071999999999999MA1999999091561MD1999999+0091MW1031REMSYN100AAXX  14004 83344 21997 80000 10208 20195 39156 40110 70352 887// 333 10267 29090 55032 58009 69911;
0149833440999992005031412004-14950-040880FM-12+0840SBQV V0200501N001510450019N0200001N1+02351+02001101271ADDGF108991041071004501021999MA1999999091731MD1999999+0021REMSYN082AAXX  14124 83344 22498 80503 10235 20200 39173 40127 8472/ 333 20167 58002 60094;
0190833440999992005031418004-14950-040883FM-12+0905SBQV V0209999C000010021019N0200001N1+02231+02121101041ADDAY161061AY251061GF108991999091002501021999MA1999999091471MD1999999+0111MW1981REMSYN082AAXX  14184 83344 21398 80000 10223 20212 39147 40104 79865 8892/ 333 58011 60131;EQDQ01+000082SCOTLC
0202833440999992005031500004-14950-040883FM-12+0905SBQV V0200501N002610021019N0100001N1+01991+01911101151ADDAY151061AY221061GF108991081071002501999999KA1240M+02551MA1999999091591MD1999999+0031MW1021REMSYN100AAXX  15004 83344 21397 80505 10199 20191 39159 40115 70252 887// 333 10255 29092 55015 58003 69911;
0162833440999992005031512004-14950-040883FM-12+0905SBQV V0200501N002110042019N0200001N1+02311+02011101261ADDGF105991051021004501001001KA1240N+01721MA1999999091691MD1999999+0041REMSYN082AAXX  15124 83344 22498 50504 10231 20201 39169 40126 85200 333 20172 58004 60134;
0167833440999992005031518004-14950-040883FM-12+0905SBQV V0200901N004110042019N0100001N1+02351+02151101041ADDAA106000091GF108991081071004501999999MA1999999091451MD1999999-0021REMSYN070AAXX  15184 83344 32497 80908 10235 20215 39145 40104 887// 333 59002;EQDQ01  00002PRCP06
0212833440999992005031600004-14950-040883FM-12+0905SBQV V0200901N002112200019N0040001N1+01981+01901101311ADDAY161061AY221061GA1001+999999999GF100991001001999999001001KA1240M+02771MA1999999091741MD1999999+0151MW1011REMSYN094AAXX  16004 83344 21996 00904 10198 20190 39174 40131 70162 333 10277 29091 55055 58015 60021;
0190833440999992005031612004-14950-040883FM-12+0905SBQV V0200901N003110075019N0200001N1+02291+01861101491ADDAY161061AY251061GF106991061051008001001001KA1240N+01631MA1999999091901MD1999999+0211MW1031REMSYN088AAXX  16124 83344 21598 60906 10229 20186 39190 40149 70365 86500 333 20163 58021 60024;
0167833440999992005031618004-14950-040883FM-12+0905SBQV V0201401N002110042019N0200001N1+02641+01881101091ADDAA106000091GF106991061031004501001001MA1999999091591MD1999999+0141REMSYN070AAXX  16184 83344 32498 61404 10264 20188 39159 40109 86300 333 58014;EQDQ01  00002PRCP06
0198833440999992005031700004-14950-040883FM-12+0905SBQV V0200901N001512200019N0100001N1+02031+01781101371ADDAA106000091GF103991999001022501051001KA1240M+02811MA1999999091791MD1999999+0051REMSYN088AAXX  17004 83344 32897 30903 10203 20178 39179 40137 86050 333 10281 29078 55079 58005;EQDQ01  00002PRCP06
0186833440999992005031712004-14950-040883FM-12+0905SBQV V0200901N003110075019N0200001N1+02271+01791101401ADDAA106000091GF106991061051008001001001KA1240N+01691MA1999999091821MD1999999-0081REMSYN076AAXX  17124 83344 32598 60906 10227 20179 39182 40140 86500 333 20169 59008;EQDQ01  00002PRCP06
0167833440999992005031718004-14950-040883FM-12+0905SBQV V0201801N003110042019N0200001N1+02711+01961100981ADDAA106000091GF105991051021004501001001MA1999999091491MD1999999-0101REMSYN070AAXX  17184 83344 32498 51806 10271 20196 39149 40098 85200 333 59010;EQDQ01  00002PRCP06
0198833440999992005031800004-14950-040883FM-12+0905SBQV V0201801N001012200019N0100001N1+02171+01931101211ADDAA106000091GF104991041001012501041001KA1240M+02771MA1999999091661MD1999999-0131REMSYN088AAXX  18004 83344 32697 41802 10217 20193 39166 40121 84040 333 10277 29078 55074 59013;EQDQ01  00002PRCP06
0186833440999992005031812004-14950-040883FM-12+0905SBQV V0200501N002611050019N0200001N1+02551+01811101221ADDAA106000091GF106991041001022501061081KA1240N+01751MA1999999091711MD1999999-0091REMSYN076AAXX  18124 83344 32898 60505 10255 20181 39171 40122 84068 333 20175 59009;EQDQ01  00002PRCP06
0171833440999992005031818004-14950-040883FM-12+0905SBQV V0202701N000510450019N0200001N1+02611+02191100971ADDAY151061AY221061GF107991041031008001021001MA1999999091461MD1999999-0031MW1021REMSYN082AAXX  18184 83344 21598 72701 10261 20219 39146 40097 70252 84320 333 59003 69921;
0202833440999992005031900004-14950-040883FM-12+0905SBQV V0200501N001512200019N0100001N1+02111+01931101121ADDAY151061AY221061GF103991031051004501001001KA1240M+02831MA1999999091621MD1999999-0041MW1031REMSYN100AAXX  19004 83344 21497 30503 10211 20193 39162 40112 70352 83500 333 10283 29081 55065 59004 69921;
0162833440999992005031912004-14950-040883FM-12+0905SBQV V0203601N002112200019N0200001N1+02351+01831101301ADDGF104991001001999999001011KA1240N+01651MA1999999091761MD1999999+0031REMSYN082AAXX  19124 83344 22998 43604 10235 20183 39176 40130 80001 333 20165 58003 60024;
0167833440999992005031918004-14950-040883FM-12+0905SBQV V0209999C000010042019N0200001N1+02711+01941100931ADDAA106000091GF105991051061004501001001MA1999999091401MD1999999-0011REMSYN070AAXX  19184 83344 32498 51800 10271 20194 39140 40093 85600 333 59001;EQDQ01  00002PRCP06
0183833440999992005032000004-14950-040880FM-12+0840SBQV V0203601N001012200019N0040001N1+02031+01921101231ADDAY161061AY211061GF100991001001999999001001MA1999999091681MD1999999+0061MW1021REMSYN094AAXX  20004 83344 21996 03602 10203 20192 39168 40123 70261 333 10289 29081 55067 58006 60081;
0149833440999992005032012004-14950-040880FM-12+0840SBQV V0200501N001510450019N0200001N1+02531+01891101401ADDGF107991041011008001081001MA1999999091871MD1999999+0111REMSYN082AAXX  20124 83344 22598 70503 10253 20189 39187 40140 84180 333 20163 58011 60084;
0171833440999992005032018004-14950-040880FM-12+0840SBQV V0203601N005710021019N0040001N1+02151+02071101291ADDAY191061AY281061GF108991081091002501999999MA1999999091631MD1999999+0181MW1291REMSYN082AAXX  20184 83344 21396 83611 10215 20207 39163 40129 72998 889// 333 58018 60041;
0202833440999992005032100004-14950-040883FM-12+0905SBQV V0200501N002111050019N0100001N1+02061+01981101191ADDAY151061AY221061GF106991021011004501001091KA1240M+02951MA1999999091681MD1999999+0001MW1011REMSYN100AAXX  21004 83344 21497 60504 10206 20198 39168 40119 70152 82109 333 10295 29088 55042 58000 60011;
0162833440999992005032112004-14950-040883FM-12+0905SBQV V0201401N002110450019N0200001N1+02311+01981101521ADDGF106991031021004501051001KA1240N+01641MA1999999091951MD1999999+0081REMSYN082AAXX  21124 83344 22498 61404 10231 20198 39195 40152 83250 333 20164 58008 60054;
0167833440999992005032118004-14950-040883FM-12+0905SBQV V0201401N001512200019N0200001N1+02781+01791101241ADDAA106000091GF103991031021004501001001MA1999999091711MD1999999+0081REMSYN070AAXX  21184 83344 32498 31403 10278 20179 39171 40124 83200 333 58008;EQDQ01  00002PRCP06
0198833440999992005032200004-14950-040883FM-12+0905SBQV V0201401N001510042019N0100001N1+02031+01891101381ADDAA106000091GF105991051021004501001001KA1240M+02871MA1999999091801MD1999999+0121REMSYN088AAXX  22004 83344 32497 51403 10203 20189 39180 40138 85200 333 10287 29080 55098 58012;EQDQ01  00002PRCP06
0186833440999992005032212004-14950-040883FM-12+0905SBQV V0200901N002610021019N0100001N1+02251+01991101601ADDAA106000091GF108991081071002501999999KA1240N+01771MA1999999091991MD1999999+0001REMSYN076AAXX  22124 83344 32397 80905 10225 20199 39199 40160 887// 333 20177 58000;EQDQ01  00002PRCP06
0171833440999992005032218004-14950-040883FM-12+0905SBQV V0201401N001510450019N0200001N1+02531+02091101221ADDAY151061AY221061GF107991021021008001061041MA1999999091691MD1999999-0021MW1031REMSYN082AAXX  22184 83344 21598 71403 10253 20209 39169 40122 70352 82264 333 59002 60021;
0208833440999992005032300004-14950-040883FM-12+0905SBQV V0201401N000512200019N0100001N1+02081+01931101491ADDAA106000091GA1001+999999999GF100991001001999999001001KA1240M+02651MA1999999091901MD1999999+0101REMSYN082AAXX  23004 83344 32997 01401 10208 20193 39190 40149 333 10265 29086 55063 58010;EQDQ01  00002PRCP06
0162833440999992005032312004-14950-040883FM-12+0905SBQV V0201401N003110042019N0200001N1+02531+01821101761ADDGF105991051041004501001001KA1240N+01721MA1999999092121MD1999999+0131REMSYN082AAXX  23124 83344 22498 51406 10253 20182 39212 40176 85400 333 20172 58013 60024;
0167833440999992005032318004-14950-040883FM-12+0905SBQV V0201401N003111050019N0200001N1+02471+02151101341ADDAA106000091GF106991041031004501001021MA1999999091761MD1999999+0071REMSYN070AAXX  23184 83344 32498 61406 10247 20215 39176 40134 84302 333 58007;EQDQ01  00002PRCP06
0202833440999992005032400004-14950-040883FM-12+0905SBQV V0201401N001510021019N0040001N1+02001+01921101541ADDAY161061AY251061GF108991081071002501999999KA1240M+02611MA1999999091901MD1999999+0001MW1031REMSYN100AAXX  24004 83344 21396 81403 10200 20192 39190 40154 70365 887// 333 10261 29089 55053 58000 60011;
0190833440999992005032412004-14950-040883FM-12+0905SBQV V0201401N001510021019N0200001N1+02211+01971101641ADDAY151061AY221061GF107991071071002501001001KA1240N+01731MA1999999092011MD1999999+0111MW1201REMSYN088AAXX  24124 83344 21398 71403 10221 20197 39201 40164 72052 87700 333 20173 58011 60014;
0171833440999992005032418004-14950-040883FM-12+0905SBQV V0200501N003110450019N0200001N1+02241+02071101361ADDAY181061AY261061GF107991041071002501021001MA1999999091741MD1999999-0021MW1211REMSYN082AAXX  24184 83344 21398 70506 10224 20207 39174 40136 72186 84720 333 59002 60171;
0179833440999992005032500004-14950-040883FM-12+0905SBQV V0200501N002112200019N0100001N1+02091+01951101391ADDAA106000021GF103991031051008001001001KA1240M+03171MA1999999091811MD1999999-0091REMSYN088AAXX  25004 83344 32597 30504 10209 20195 39181 40139 83500 333 10317 29090 55035 59009;
0162833440999992005032512004-14950-040883FM-12+0905SBQV V0201401N001512200019N0200001N1+02231+01841101621ADDGF104991041021004501001001KA1240N+01411MA1999999091911MD1999999+0001REMSYN082AAXX  25124 83344 22498 41403 10223 20184 39191 40162 84200 333 20141 58000 60174;
0167833440999992005032518004-14950-040883FM-12+0905SBQV V0201401N002112200019N0200001N1+02651+01901101061ADDAA106000091GF102991021011004501001001MA1999999091531MD1999999-0211REMSYN070AAXX  25184 83344 32498 21404 10265 20190 39153 40106 82100 333 59021;EQDQ01  00002PRCP06
0208833440999992005032600004-14950-040883FM-12+0905SBQV V0200901N001512200019N0100001N1+01901+01681101291ADDAA106000091GA1001+999999999GF100991001001999999001001KA1240M+02711MA1999999091671MD1999999-0151REMSYN082AAXX  26004 83344 32997 00903 10190 20168 39167 40129 333 10271 29079 55099 59015;EQDQ01  00002PRCP06
0186833440999992005032612004-14950-040883FM-12+0905SBQV V0201401N001510042019N0200001N1+02001+01901101411ADDAA106000091GF105991051041004501001001KA1240N+01471MA1999999091721MD1999999-0191REMSYN076AAXX  26124 83344 32498 51403 10200 20190 39172 40141 85400 333 20147 59019;EQDQ01  00002PRCP06
0167833440999992005032618004-14950-040883FM-12+0905SBQV V0201801N001512200019N0200001N1+02661+01771100961ADDAA106000091GF104991041021004501001001MA1999999091401MD1999999-0131REMSYN070AAXX  26184 83344 32498 41803 10266 20177 39140 40096 84200 333 59013;EQDQ01  00002PRCP06
0185833440999992005032700004-14950-040880FM-12+0840SBQV V0201401N001512200019N0100001N1+01941+01861101261ADDAA106000091GF102991021001004501051001MA1999999091611MD1999999-0061REMSYN088AAXX  27004 83344 32497 21403 10194 20186 39161 40126 82050 333 10278 29085 55079 59006;EQDQ01  00002PRCP06
0173833440999992005032712004-14950-040880FM-12+0840SBQV V0200501N002110042019N0200001N1+02131+01861101421ADDAA106000091GF106991061041004501001001MA1999999091791MD1999999+0071REMSYN076AAXX  27124 83344 32498 60504 10213 20186 39179 40142 86400 333 20174 58007;EQDQ01  00002PRCP06
0167833440999992005032718004-14950-040880FM-12+0840SBQV V0202301N001510042019N0200001N1+02771+01801100891ADDAA106000091GF106991061061004501001001MA1999999091431MD1999999-0031REMSYN070AAXX  27184 83344 32498 62303 10277 20180 39143 40089 86600 333 59003;EQDQ01  00002PRCP06
0185833440999992005032800004-14950-040880FM-12+0840SBQV V0201401N003610021019N0040001N1+02071+01941101311ADDAA106000091GF108991081071002501999999MA1999999091711MD1999999+0101REMSYN088AAXX  28004 83344 32396 81407 10207 20194 39171 40131 887// 333 10289 29082 55074 58010;EQDQ01  00002PRCP06
0177833440999992005032812004-14950-040880FM-12+0840SBQV V0200901N002110042019N0100001N1+01991+01881101411ADDAY151061AY221061GF108991081051004501999999MA1999999091781MD1999999-0011MW1021REMSYN088AAXX  28124 83344 21497 80904 10199 20188 39178 40141 70252 885// 333 20177 59001 69924;
0167833440999992005032818004-14950-040880FM-12+0840SBQV V0201401N003112200019N0200001N1+02611+01941100901ADDAA106000091GF102991021021004501001001MA1999999091401MD1999999-0031REMSYN070AAXX  28184 83344 32498 21406 10261 20194 39140 40090 82200 333 59003;EQDQ01  00002PRCP06
0202833440999992005032900004-14950-040883FM-12+0905SBQV V0200901N001010120019N0040001N1+02051+01911101301ADDAY151061AY221061GF108991081001012501071999KA1240M+02711MA1999999091661MD1999999-0051MW1021REMSYN100AAXX  29004 83344 21696 80902 10205 20191 39166 40130 70252 8807/ 333 10271 29086 55042 59005 69921;
0190833440999992005032912004-14950-040883FM-12+0905SBQV V0200901N003110042019N0100001N1+02211+01951101461ADDAY151061AY221061GF108991081071004501999999KA1240N+01751MA1999999091881MD1999999+0101MW1021REMSYN088AAXX  29124 83344 21497 80906 10221 20195 39188 40146 70252 887// 333 20175 58010 69934;
0171833440999992005032918004-14950-040883FM-12+0905SBQV V0201401N002110450019N0200001N1+02431+01991101121ADDAY151061AY221061GF106991041071004501051001MA1999999091561MD1999999+0161MW1031REMSYN082AAXX  29184 83344 21498 61404 10243 20199 39156 40112 70352 84750 333 58016 69981;
0202833440999992005033000004-14950-040883FM-12+0905SBQV V0201401N003110042019N0100001N1+01981+01911101431ADDAY151061AY221061GF106991061071004501001001KA1240M+02471MA1999999091821MD1999999+0161MW1031REMSYN100AAXX  30004 83344 21497 61406 10198 20191 39182 40143 70352 86700 333 10247 29089 55025 58016 69911;
0162833440999992005033012004-14950-040883FM-12+0905SBQV V0201401N001510042019N0200001N1+02191+01861101541ADDGF107991051061004501031001KA1240N+01771MA1999999091921MD1999999+0041REMSYN082AAXX  30124 83344 22498 71403 10219 20186 39192 40154 85630 333 20177 58004 69994;
0167833440999992005033018004-14950-040883FM-12+0905SBQV V0201401N002610075019N0200001N1+02551+01881101121ADDAA106000091GF106991061021008001001001MA1999999091581MD1999999+0021REMSYN070AAXX  30184 83344 32598 61405 10255 20188 39158 40112 86200 333 58002;EQDQ01  00002PRCP06
0208833440999992005033100004-14950-040883FM-12+0905SBQV V0200901N001512200019N0100001N1+01981+01901101411ADDAA106000091GA1001+999999999GF100991001001999999001001KA1240M+02591MA1999999091751MD1999999-0071REMSYN082AAXX  31004 83344 32997 00903 10198 20190 39175 40141 333 10259 29085 55071 59007;EQDQ01  00002PRCP06
0186833440999992005033112004-14950-040883FM-12+0905SBQV V0200901N002610042019N0200001N1+02131+01861101551ADDAA106000091GF108991081071004501999999KA1240N+01751MA1999999091911MD1999999-0011REMSYN076AAXX  31124 83344 32498 80905 10213 20186 39191 40155 887// 333 20175 59001;EQDQ01  00002PRCP06
0167833440999992005033118004-14950-040883FM-12+0905SBQV V0201401N003112200019N0200001N1+02551+02021101141ADDAA106000091GF104991041021004501001001MA1999999091601MD1999999+0021REMSYN070AAXX  31184 83344 32498 41406 10255 20202 39160 40114 84200 333 58002;EQDQ01  00002PRCP06
0198833440999992005040100004-14950-040883FM-12+0905SBQV V0200901N001512200019N0040001N1+01901+01801101431ADDAA106000091GF102991021011004501001001KA1240M+02591MA1999999091781MD1999999+0031REMSYN088AAXX  01004 83344 32496 20903 10190 20180 39178 40143 82100 333 10259 29088 55054 58003;EQDQ01  00002PRCP06
0186833440999992005040112004-14950-040883FM-12+0905SBQV V0201401N002110042019N0100001N1+02201+01951101611ADDAA106000091GF108991081071004501999999KA1240N+01751MA1999999091961MD1999999+0081REMSYN076AAXX  01124 83344 32497 81404 10220 20195 39196 40161 887// 333 20175 58008;EQDQ01  00002PRCP06
0167833440999992005040118004-14950-040883FM-12+0905SBQV V0201401N003110042019N0200001N1+02551+01951101261ADDAA106000091GF106991061031004501001001MA1999999091711MD1999999+0171REMSYN070AAXX  01184 83344 32498 61406 10255 20195 39171 40126 86300 333 58017;EQDQ01  00002PRCP06
0198833440999992005040200004-14950-040883FM-12+0905SBQV V0201401N003110021019N0040001N1+02001+01881101561ADDAA106000091GF108991081071002501999999KA1240M+02641MA1999999091941MD1999999+0161REMSYN088AAXX  02004 83344 32396 81406 10200 20188 39194 40156 887// 333 10264 29085 55071 58016;EQDQ01  00002PRCP06
0186833440999992005040212004-14950-040883FM-12+0905SBQV V0200901N004110042019N0200001N1+02131+01801101651ADDAA106000091GF106991061021004501001001KA1240N+01591MA1999999092001MD1999999+0041REMSYN076AAXX  02124 83344 32498 60908 10213 20180 39200 40165 86200 333 20159 58004;EQDQ01  00002PRCP06
0167833440999992005040218004-14950-040883FM-12+0905SBQV V0201401N003110042019N0200001N1+02601+01921101271ADDAA106000091GF105991051021004501001001MA1999999091721MD1999999+0011REMSYN070AAXX  02184 83344 32498 51406 10260 20192 39172 40127 85200 333 58001;EQDQ01  00002PRCP06
0179833440999992005040300004-14950-040880FM-12+0840SBQV V0200501N002112200019N0100001N1+01941+01821101611ADDAA106000091GF100991001001999999001001MA1999999091961MD1999999+0021REMSYN082AAXX  03004 83344 32997 00504 10194 20182 39196 40161 333 10263 29083 55090 58002;EQDQ01  00002PRCP06
0173833440999992005040312004-14950-040880FM-12+0840SBQV V0201401N003112200019N0200001N1+02271+01821101641ADDAA106000091GF102991021011004501001001MA1999999092051MD1999999+0051REMSYN076AAXX  03124 83344 32498 21406 10227 20182 39205 40164 82100 333 20161 58005;EQDQ01  00002PRCP06
0167833440999992005040318004-14950-040880FM-12+0840SBQV V0200901N003112200019N0200001N1+02571+01781101291ADDAA106000091GF102991021011004501001001MA1999999091741MD1999999+0021REMSYN070AAXX  03184 83344 32498 20906 10257 20178 39174 40129 82100 333 58002;EQDQ01  00002PRCP06
0198833440999992005040400004-14950-040883FM-12+0905SBQV V0200901N003112200019N0040001N1+02091+01781101481ADDAA106000091GF103991031001012501091001KA1240M+02671MA1999999091911MD1999999-0051REMSYN088AAXX  04004 83344 32696 30906 10209 20178 39191 40148 83090 333 10267 29076 55099 59005;EQDQ01  00002PRCP06
0186833440999992005040412004-14950-040883FM-12+0905SBQV V0201401N002610450019N0200001N1+02291+01961101721ADDAA106000091GF107991041041004501051001KA1240N+01651MA1999999092131MD1999999+0081REMSYN076AAXX  04124 83344 32498 71405 10229 20196 39213 40172 84450 333 20165 58008;EQDQ01  00002PRCP06
0171833440999992005040418004-14950-040883FM-12+0905SBQV V0200901N003610042019N0040001N1+02141+02061101541ADDAY161061AY251061GF108991081071004501999999MA1999999091861MD1999999+0121MW1511REMSYN082AAXX  04184 83344 21496 80907 10214 20206 39186 40154 75165 887// 333 58012 60121;
0212833440999992005040500004-14950-040883FM-12+0905SBQV V0201401N002612200019N0100001N1+02031+01901101591ADDAY151061AY221061GA1001+999999999GF100991001001999999001001KA1240M+02631MA1999999091931MD1999999+0021MW1021REMSYN094AAXX  05004 83344 21497 01405 10203 20190 39193 40159 70252 333 10263 29091 55035 58002 69981;
0190833440999992005040512004-14950-040883FM-12+0905SBQV V0200901N004610042019N0200001N1+02331+01911101701ADDAY161061AY251061GF106991061071004501001001KA1240N+01671MA1999999092111MD1999999-0021MW1031REMSYN088AAXX  05124 83344 21498 60909 10233 20191 39211 40170 70365 86700 333 20167 59002 60134;
0167833440999992005040518004-14950-040883FM-12+0905SBQV V0200901N003111050019N0200001N1+02591+01661101361ADDAA106000091GF105991031021008001001091MA1999999091821MD1999999-0041REMSYN070AAXX  05184 83344 32598 50906 10259 20166 39182 40136 83209 333 59004;EQDQ01  00002PRCP06
0208833440999992005040600004-14950-040883FM-12+0905SBQV V0200901N002112200019N0100001N1+01951+01661101611ADDAA106000091GA1001+999999999GF100991001001999999001001KA1240M+02671MA1999999092001MD1999999+0071REMSYN082AAXX  06004 83344 32997 00904 10195 20166 39200 40161 333 10267 29076 55094 58007;EQDQ01  00002PRCP06
0186833440999992005040612004-14950-040883FM-12+0905SBQV V0201401N003110042019N0200001N1+02011+01871101811ADDAA106000091GF106991061041004501001001KA1240N+01511MA1999999092131MD1999999+0021REMSYN076AAXX  06124 83344 32498 61406 10201 20187 39213 40181 86400 333 20151 58002;EQDQ01  00002PRCP06
0167833440999992005040618004-14950-040883FM-12+0905SBQV V0201401N005110042019N0200001N1+02331+01981101481ADDAA106000091GF108991081071004501999999MA1999999091861MD1999999+0041REMSYN070AAXX  06184 83344 32498 81410 10233 20198 39186 40148 887// 333 58004;EQDQ01  00002PRCP06
0198833440999992005040700004-14950-040883FM-12+0905SBQV V0201401N002110042019N0100001N1+01991+01851101691ADDAA106000091GF105991051041004501001001KA1240M+02491MA1999999092021MD1999999+0021REMSYN088AAXX  07004 83344 32497 51404 10199 20185 39202 40169 85400 333 10249 29089 55064 58002;EQDQ01  00002PRCP06
0186833440999992005040712004-14950-040883FM-12+0905SBQV V0201401N003110042019N0100001N1+02021+01871101701ADDAA106000091GF108991081071004501999999KA1240N+01731MA1999999092031MD1999999-0101REMSYN076AAXX  07124 83344 32497 81406 10202 20187 39203 40170 887// 333 20173 59010;EQDQ01  00002PRCP06
0167833440999992005040718004-14950-040883FM-12+0905SBQV V0201401N003110042019N0100001N1+02321+02051101371ADDAA106000091GF108991081071004501999999MA1999999091761MD1999999-0101REMSYN070AAXX  07184 83344 32497 81406 10232 20205 39176 40137 887// 333 59010;EQDQ01  00002PRCP06
0212833440999992005040800004-14950-040883FM-12+0905SBQV V0201401N001512200019N0100001N1+01931+01851101321ADDAY161061AY251061GA1001+999999999GF100991001001999999001001KA1240M+02531MA1999999091941MD1999999-0081MW1021REMSYN094AAXX  08004 83344 21497 01403 10193 20185 39194 40132 70265 333 10253 29092 55042 59008 60011;
0190833440999992005040812004-14950-040883FM-12+0905SBQV V0201401N003112200019N0200001N1+02251+01691101671ADDAY151061AY221061GF102991021011008001001001KA1240N+01551MA1999999092041MD1999999+0011MW1031REMSYN088AAXX  08124 83344 21598 21406 10225 20169 39204 40167 70352 82100 333 20155 58001 60014;
0167833440999992005040818004-14950-040883FM-12+0905SBQV V0201401N003112200019N0200001N1+02531+01691101341ADDAA106000091GF103991031011008001001001MA1999999091741MD1999999-0021REMSYN070AAXX  08184 83344 32598 31406 10253 20169 39174 40134 83100 333 59002;EQDQ01  00002PRCP06
0208833440999992005040900004-14950-040883FM-12+0905SBQV V0200901N000512200019N0100001N1+01641+01481101441ADDAA106000091GA1001+999999999GF100991001001999999001001KA1240M+02591MA1999999091771MD1999999-0171REMSYN082AAXX  09004 83344 32997 00901 10164 20148 39177 40144 333 10259 29078 55103 59017;EQDQ01  00002PRCP06
0186833440999992005040912004-14950-040883FM-12+0905SBQV V0201401N003110450019N0200001N1+02171+01721101751ADDAA106000091GF106991021041004501091001KA1240N+01451MA1999999092041MD1999999+0001REMSYN076AAXX  09124 83344 32498 61406 10217 20172 39204 40175 82490 333 20145 58000;EQDQ01  00002PRCP06
0167833440999992005040918004-14950-040883FM-12+0905SBQV V0201401N003110042019N0200001N1+02311+01751101401ADDAA106000091GF108991081071004501999999MA1999999091721MD1999999-0021REMSYN070AAXX  09184 83344 32498 81406 10231 20175 39172 40140 887// 333 59002;EQDQ01  00002PRCP06
0208833440999992005041000004-14950-040883FM-12+0905SBQV V0200901N002112200019N0040001N1+01761+01661101551ADDAA106000091GA1001+999999999GF100991001001999999001001KA1240M+02671MA1999999091871MD1999999+0101REMSYN082AAXX  10004 83344 32996 00904 10176 20166 39187 40155 333 10267 29083 55078 58010;EQDQ01  00002PRCP06
0186833440999992005041012004-14950-040883FM-12+0905SBQV V0201401N003110042019N0200001N1+02151+01781101661ADDAA106000091GF105991051031004501001001KA1240N+01501MA1999999091971MD1999999-0071REMSYN076AAXX  10124 83344 32498 51406 10215 20178 39197 40166 85300 333 20150 59007;EQDQ01  00002PRCP06
0171833440999992005041018004-14950-040883FM-12+0905SBQV V0201401N003610042019N0200001N1+02271+01941101411ADDAY151061AY221061GF106991061071004501001001MA1999999091751MD1999999+0031MW1021REMSYN082AAXX  10184 83344 21498 61407 10227 20194 39175 40141 70252 86700 333 58003 60011;
0198833440999992005041100004-14950-040883FM-12+0905SBQV V0201401N003112200019N0100001N1+01941+01801101461ADDAA106000091GF103991031021004501001001KA1240M+02471MA1999999091831MD1999999-0041REMSYN088AAXX  11004 83344 32497 31406 10194 20180 39183 40146 83200 333 10247 29087 55034 59004;EQDQ01  00002PRCP06
0190833440999992005041112004-14950-040883FM-12+0905SBQV V0201401N002610021019N0100001N1+02001+01921101581ADDAY151061AY221061GF108991081071002501999999KA1240N+01671MA1999999091901MD1999999-0071MW1501REMSYN088AAXX  11124 83344 21397 81405 10200 20192 39190 40158 75052 887// 333 20167 59007 60034;
0171833440999992005041118004-14950-040883FM-12+0905SBQV V0200901N005110021019N0100001N1+02001+01881101331ADDAY161061AY251061GF108991081071002501999999MA1999999091671MD1999999-0081MW1501REMSYN082AAXX  11184 83344 21397 80910 10200 20188 39167 40133 75065 887// 333 59008 60031;
0202833440999992005041200004-14950-040883FM-12+0905SBQV V0200501N002112200019N0100001N1+01881+01811101511ADDAY151061AY221061GF103991031061004501001001KA1240M+02291MA1999999091841MD1999999+0011MW1021REMSYN100AAXX  12004 83344 21497 30504 10188 20181 39184 40151 70252 83600 333 10229 29095 55005 58001 69921;
0190833440999992005041212004-14950-040883FM-12+0905SBQV V0201401N002610042019N0200001N1+02071+01931101601ADDAY161061AY221061GF106991061071004501001001KA1240N+01691MA1999999091921MD1999999+0021MW1021REMSYN088AAXX  12124 83344 21498 61405 10207 20193 39192 40160 70262 86700 333 20169 58002 60064;
0167833440999992005041218004-14950-040883FM-12+0905SBQV V0200901N003110450019N0200001N1+02291+01881101311ADDAA106000091GF107991041061004501071001MA1999999091691MD1999999+0021REMSYN070AAXX  12184 83344 32498 70906 10229 20188 39169 40131 84670 333 58002;EQDQ01  00002PRCP06
0212833440999992005041300004-14950-040883FM-12+0905SBQV V0200901N001512200019N0040001N1+01921+01841101611ADDAY161061AY221061GA1001+999999999GF100991001001999999001001KA1240M+02491MA1999999091951MD1999999+0111MW1011REMSYN094AAXX  13004 83344 21996 00903 10192 20184 39195 40161 70162 333 10249 29090 55030 58011 60051;
0190833440999992005041312004-14950-040883FM-12+0905SBQV V0201401N004110042019N0100001N1+01951+01861101651ADDAY161061AY221061GF108991081071004501999999KA1240N+01651MA1999999091961MD1999999+0041MW1501REMSYN088AAXX  13124 83344 21497 81408 10195 20186 39196 40165 75062 887// 333 20165 58004 60074;
0171833440999992005041318004-14950-040883FM-12+0905SBQV V0201401N003110042019N0200001N1+02331+01911101331ADDAY161061AY251061GF106991061071004501001001MA1999999091731MD1999999+0041MW1021REMSYN082AAXX  13184 83344 21498 61406 10233 20191 39173 40133 70265 86700 333 58004 60021;
0188833440999992005041400004-14950-040883FM-12+0905SBQV V0201401N003112200019N0100001N1+01971+01841101551ADDAA106000091GF103991031021004501001001KA1240M+02351MA1999999091871REMSYN092AAXX  14004 83344 32497 31406 10197 20184 39187 40155 83200 333 10235 333 29090 55008 59008;EQDQ01  00002PRCP06
0190833440999992005041412004-14950-040883FM-12+0905SBQV V0201401N004610042019N0200001N1+02111+01911101571ADDAY151061AY221061GF107991071071004501001001KA1240N+01651MA1999999091931MD1999999-0031MW1031REMSYN088AAXX  14124 83344 21498 71409 10211 20191 39193 40157 70352 87700 333 20165 59003 60014;
0171833440999992005041418004-14950-040883FM-12+0905SBQV V0201401N005110450019N0200001N1+02231+01961101291ADDAY161061AY251061GF106991031071004501041081MA1999999091671MD1999999-0061MW1031REMSYN082AAXX  14184 83344 21498 61410 10223 20196 39167 40129 70365 83748 333 59006 60051;
0202833440999992005041500004-14950-040883FM-12+0905SBQV V0200501N001510021019N0100001N1+01961+01881101481ADDAY151061AY221061GF108991081071002501001001KA1240M+02391MA1999999091851MD1999999-0021MW1021REMSYN100AAXX  15004 83344 21397 80503 10196 20188 39185 40148 70252 88700 333 10239 29091 55029 59002 69921;
0162833440999992005041512004-14950-040883FM-12+0905SBQV V0200901N003110042019N0200001N1+02191+01861101611ADDGF108991081071004501999999KA1240N+01711MA1999999091961MD1999999+0031REMSYN082AAXX  15124 83344 22498 80906 10219 20186 39196 40161 887// 333 20171 58003 60054;
0167833440999992005041518004-14950-040883FM-12+0905SBQV V0201401N003110450019N0200001N1+02271+01921101351ADDAA106000091GF106991041041004501091001MA1999999091751MD1999999+0081REMSYN070AAXX  15184 83344 32498 61406 10227 20192 39175 40135 84490 333 58008;EQDQ01  00002PRCP06
0198833440999992005041600004-14950-040883FM-12+0905SBQV V0200901N002110450019N0040001N1+01961+01811101531ADDAA106000091GF105991021041004501031001KA1240M+02511MA1999999091891MD1999999+0041REMSYN088AAXX  16004 83344 32496 50904 10196 20181 39189 40153 82430 333 10251 29086 55051 58004;EQDQ01  00002PRCP06
0186833440999992005041612004-14950-040883FM-12+0905SBQV V0200501N001510042019N0200001N1+02131+01821101611ADDAA106000091GF108991081061004501999999KA1240N+01671MA1999999091961MD1999999+0001REMSYN076AAXX  16124 83344 32498 80503 10213 20182 39196 40161 886// 333 20167 58000;EQDQ01  00002PRCP06
0167833440999992005041618004-14950-040883FM-12+0905SBQV V0201401N003110042019N0200001N1+02411+02051101261ADDAA106000091GF106991061061004501001001MA1999999091711MD1999999+0041REMSYN070AAXX  16184 83344 32498 61406 10241 20205 39171 40126 86600 333 58004;EQDQ01  00002PRCP06
0179833440999992005041700004-14950-040880FM-12+0840SBQV V0201401N001512200019N0100001N1+01961+01791101521ADDAA106000091GF100991001001999999001001MA1999999091881MD1999999-0011REMSYN082AAXX  17004 83344 32497 01403 10196 20179 39188 40152 333 10255 29086 55038 59001;EQDQ01  00002PRCP06
0173833440999992005041712004-14950-040880FM-12+0840SBQV V0200901N002612200019N0200001N1+02331+01981101481ADDAA106000091GF102991011011008001001011MA1999999091891MD1999999-0071REMSYN076AAXX  17124 83344 32598 20905 10233 20198 39189 40148 81101 333 20167 59007;EQDQ01  00002PRCP06
0167833440999992005041718004-14950-040880FM-12+0840SBQV V0201401N003112200019N0200001N1+02591+01941101161ADDAA106000091GF104991031011008001001051MA1999999091641MD1999999-0071REMSYN070AAXX  17184 83344 32598 41406 10259 20194 39164 40116 83105 333 59007;EQDQ01  00002PRCP06
0208833440999992005041800004-14950-040883FM-12+0905SBQV V0201401N001012200019N0100001N1+02051+01891101431ADDAA106000091GA1001+999999999GF100991001001999999001001KA1240M+02671MA1999999091861MD1999999-0021REMSYN082AAXX  18004 83344 32997 01402 10205 20189 39186 40143 333 10267 29083 55101 59002;EQDQ01  00002PRCP06
0186833440999992005041812004-14950-040883FM-12+0905SBQV V0201401N003110450019N0200001N1+02131+01821101451ADDAA106000091GF106991041041004501091001KA1240N+01811MA1999999091841MD1999999-0051REMSYN076AAXX  18124 83344 32498 61406 10213 20182 39184 40145 84490 333 20181 59005;EQDQ01  00002PRCP06
0167833440999992005041818004-14950-040883FM-12+0905SBQV V0201401N003110042019N0200001N1+02411+01931101061ADDAA106000091GF106991061061004501001001MA1999999091551MD1999999-0091REMSYN070AAXX  18184 83344 32498 61406 10241 20193 39155 40106 86600 333 59009;EQDQ01  00002PRCP06
0198833440999992005041900004-14950-040883FM-12+0905SBQV V0200901N002610120019N0040001N1+01961+01811101421ADDAA106000091GF106991061001012501021001KA1240M+02471MA1999999091791MD1999999-0071REMSYN088AAXX  19004 83344 32696 60905 10196 20181 39179 40142 86020 333 10247 29085 55031 59007;EQDQ01  00002PRCP06
0186833440999992005041912004-14950-040883FM-12+0905SBQV V0201401N002110042019N0100001N1+02131+01861101621ADDAA106000091GF108991081071004501999999KA1240N+01521MA1999999091971MD1999999+0131REMSYN076AAXX  19124 83344 32497 81404 10213 20186 39197 40162 887// 333 20152 58013;EQDQ01  00002PRCP06
0167833440999992005041918004-14950-040883FM-12+0905SBQV V0201401N002111050019N0200001N1+02371+01931101211ADDAA106000091GF106991041031004501001091MA1999999091601MD1999999+0051REMSYN070AAXX  19184 83344 32498 61404 10237 20193 39160 40121 84309 333 58005;EQDQ01  00002PRCP06
0202833440999992005042000004-14950-040883FM-12+0905SBQV V0200901N003110021019N0040001N1+01981+01911101421ADDAY151061AY221061GF108991081071002501999999KA1240M+02451MA1999999091791MD1999999+0001MW1501REMSYN100AAXX  20004 83344 21396 80906 10198 20191 39179 40142 75052 887// 333 10245 29088 55038 58000 60011;
0190833440999992005042012004-14950-040883FM-12+0905SBQV V0200901N001510075019N0200001N1+02131+01861101611ADDAY151061AY221061GF106991061021008001001001KA1240N+01571MA1999999091961MD1999999-0011MW1031REMSYN088AAXX  20124 83344 21598 60903 10213 20186 39196 40161 70352 86200 333 20157 59001 60014;
0167833440999992005042018004-14950-040883FM-12+0905SBQV V0201401N003110450019N0200001N1+02571+01831101171ADDAA106000091GF106991041051008001021001MA1999999091651MD1999999+0051REMSYN070AAXX  20184 83344 32598 61406 10257 20183 39165 40117 84520 333 58005;EQDQ01  00002PRCP06
0198833440999992005042100004-14950-040883FM-12+0905SBQV V0201401N001011050019N0100001N1+01971+01791101511ADDAA106000091GF107991031001012501051091KA1240M+02611MA1999999091871MD1999999+0081REMSYN088AAXX  21004 83344 32697 71402 10197 20179 39187 40151 83059 333 10261 29082 55103 58008;EQDQ01  00002PRCP06
0186833440999992005042112004-14950-040883FM-12+0905SBQV V0200901N001010450019N0200001N1+02191+01761101551ADDAA106000091GF106991041021004501061001KA1240N+01691MA1999999091931MD1999999-0031REMSYN076AAXX  21124 83344 32498 60902 10219 20176 39193 40155 84260 333 20169 59003;EQDQ01  00002PRCP06
0167833440999992005042118004-14950-040883FM-12+0905SBQV V0201401N003111050019N0200001N1+02431+01931101101ADDAA106000091GF105991011011004501031081MA1999999091551MD1999999-0101REMSYN070AAXX  21184 83344 32498 51406 10243 20193 39155 40110 81138 333 59010;EQDQ01  00002PRCP06
0198833440999992005042200004-14950-040883FM-12+0905SBQV V0200901N001510120019N0040001N1+02071+01911101311ADDAA106000091GF108991081001012501021999KA1240M+02691MA1999999091741MD1999999-0131REMSYN088AAXX  22004 83344 32696 80903 10207 20191 39174 40131 8802/ 333 10269 29083 55065 59013;EQDQ01  00002PRCP06
0186833440999992005042212004-14950-040883FM-12+0905SBQV V0203601N001512200019N0200001N1+02351+01831101351ADDAA106000091GF103991031011004501001001KA1240N+01671MA1999999091791MD1999999-0141REMSYN076AAXX  22124 83344 32498 33603 10235 20183 39179 40135 83100 333 20167 59014;EQDQ01  00002PRCP06
0167833440999992005042218004-14950-040883FM-12+0905SBQV V0201401N003110042019N0200001N1+02571+01931100971ADDAA106000091GF106991061021004501001001MA1999999091451MD1999999-0101REMSYN070AAXX  22184 83344 32498 61406 10257 20193 39145 40097 86200 333 59010;EQDQ01  00002PRCP06
0208833440999992005042300004-14950-040883FM-12+0905SBQV V0200901N001012200019N0100001N1+01961+01881101301ADDAA106000091GA1001+999999999GF100991001001999999001001KA1240M+02751MA1999999091731MD1999999-0011REMSYN082AAXX  23004 83344 32997 00902 10196 20188 39173 40130 333 10275 29083 55079 59001;EQDQ01  00002PRCP06
0186833440999992005042312004-14950-040883FM-12+0905SBQV V0200501N002612200019N0200001N1+02271+01791101381ADDAA106000091GF105991031011008001001011KA1240N+01471MA1999999091801MD1999999+0011REMSYN076AAXX  23124 83344 32598 50505 10227 20179 39180 40138 83101 333 20147 58001;EQDQ01  00002PRCP06
0167833440999992005042318004-14950-040883FM-12+0905SBQV V0201401N003112200019N0200001N1+02551+01781101091ADDAA106000091GF106991041011008001001061MA1999999091541MD1999999+0091REMSYN070AAXX  23184 83344 32598 61406 10255 20178 39154 40109 84106 333 58009;EQDQ01  00002PRCP06
0179833440999992005042400004-14950-040880FM-12+0840SBQV V0200901N002112200019N0100001N1+01941+01811101301ADDAA106000091GF100991001001999999001001MA1999999091701MD1999999+0031REMSYN082AAXX  24004 83344 32997 00904 10194 20181 39170 40130 333 10263 29080 55101 58003;EQDQ01  00002PRCP06
0173833440999992005042412004-14950-040880FM-12+0840SBQV V0200901N000510042019N0100001N1+02151+01821101621ADDAA106000091GF108991081071004501999999MA1999999091971MD1999999+0171REMSYN076AAXX  24124 83344 32497 80901 10215 20182 39197 40162 887// 333 20165 58017;EQDQ01  00002PRCP06
0167833440999992005042418004-14950-040880FM-12+0840SBQV V0201401N003112200019N0200001N1+02611+01921101101ADDAA106000091GF104991021011004501031001MA1999999091581MD1999999+0041REMSYN070AAXX  24184 83344 32498 41406 10261 20192 39158 40110 82130 333 58004;EQDQ01  00002PRCP06
0198833440999992005042500004-14950-040883FM-12+0905SBQV V0200901N001510450019N0040001N1+01921+01801101351ADDAA106000091GF106991021011004501081021KA1240M+02651MA1999999091731MD1999999+0031REMSYN088AAXX  25004 83344 32496 60903 10192 20180 39173 40135 82182 333 10265 29084 55064 58003;EQDQ01  00002PRCP06
0186833440999992005042512004-14950-040883FM-12+0905SBQV V0201401N001510042019N0200001N1+02101+01821101541ADDAA106000091GF107991071071004501001001KA1240N+01681MA1999999091881MD1999999-0091REMSYN076AAXX  25124 83344 32498 71403 10210 20182 39188 40154 87700 333 20168 59009;EQDQ01  00002PRCP06
0167833440999992005042518004-14950-040883FM-12+0905SBQV V0201801N003111050019N0200001N1+02551+01651101041ADDAA106000091GF107991021021004501001021MA1999999091151MD1999999-0071REMSYN070AAXX  25184 83344 32498 71806 10255 20165 39115 40104 82202 333 59007;EQDQ01  00002PRCP06
0208833440999992005042600004-14950-040883FM-12+0905SBQV V0200501N001512200019N0100001N1+01941+01821101371ADDAA106000091GA1001+999999999GF100991001001999999001001KA1240M+02651MA1999999091691MD1999999-0041REMSYN082AAXX  26004 83344 32997 00503 10194 20182 39169 40137 333 10265 29082 55069 59004;EQDQ01  00002PRCP06
0186833440999992005042612004-14950-040883FM-12+0905SBQV V0203601N003611050019N0200001N1+02311+01901101281ADDAA106000091GF106991041001022501041021KA1240N+01671MA1999999091711MD1999999-0171REMSYN076AAXX  26124 83344 32898 63607 10231 20190 39171 40128 84042 333 20167 59017;EQDQ01  00002PRCP06
0167833440999992005042618004-14950-040883FM-12+0905SBQV V0202701N002110075019N0200001N1+02931+01501100801ADDAA106000091GF106991061011008001001001MA1999999091371MD1999999-0141REMSYN070AAXX  26184 83344 32598 62704 10293 20150 39137 40080 86100 333 59014;EQDQ01  00002PRCP06
0198833440999992005042700004-14950-040883FM-12+0905SBQV V0200901N001012200019N0100001N1+02051+01801101361ADDAA106000091GF102991001001999999001011KA1240M+02971MA1999999091801MD1999999+0111REMSYN088AAXX  27004 83344 32997 20902 10205 20180 39180 40136 80001 333 10297 29073 55077 58011;EQDQ01  00002PRCP06
0186833440999992005042712004-14950-040883FM-12+0905SBQV V0200901N001510120019N0100001N1+02211+01941101401ADDAA106000091GF108991081001012501021999KA1240N+01771MA1999999091821MD1999999+0111REMSYN076AAXX  27124 83344 32697 80903 10221 20194 39182 40140 8802/ 333 20177 58011;EQDQ01  00002PRCP06
0167833440999992005042718004-14950-040883FM-12+0905SBQV V02099999999990042019N0200001N1+02111+01881101241ADDAA106000091GF108991081071004501999999MA1999999091631MD1999999+0261REMSYN070AAXX  27184 83344 32498 809// 10211 20188 39163 40124 887// 333 58026;EQDQ01  00002PRCP06
0202833440999992005042800004-14950-040883FM-12+0905SBQV V0200901N003610042019N0040001N1+01861+01791101511ADDAY151061AY221061GF108991081071004501999999KA1240M+02271MA1999999091871MD1999999+0071MW1521REMSYN100AAXX  28004 83344 21496 80907 10186 20179 39187 40151 75252 887// 333 10227 29091 55006 58007 69941;
0190833440999992005042812004-14950-040883FM-12+0905SBQV V0200901N002110042019N0100001N1+01821+01721101751ADDAY151061AY221061GF108991081071004501999999KA1240N+01551MA1999999092011MD1999999+0191MW1021REMSYN088AAXX  28124 83344 21497 80904 10182 20172 39201 40175 70252 887// 333 20155 58019 60024;
0167833440999992005042818004-14950-040883FM-12+0905SBQV V0201401N002110042019N0200001N1+02111+01881101391ADDAA106000091GF108991081071004501999999MA1999999091731MD1999999+0101REMSYN070AAXX  28184 83344 32498 81404 10211 20188 39173 40139 887// 333 58010;EQDQ01  00002PRCP06
0198833440999992005042900004-14950-040883FM-12+0905SBQV V0201401N002610042019N0040001N1+01941+01871101641ADDAA106000091GF108991081071004501999999KA1240M+02201MA1999999091941MD1999999+0071REMSYN088AAXX  29004 83344 32496 81405 10194 20187 39194 40164 887// 333 10220 29093 55003 58007;EQDQ01  00002PRCP06
0190833440999992005042912004-14950-040883FM-12+0905SBQV V0201401N003610042019N0040001N1+02031+01891101791ADDAY151061AY221061GF108991081071004501999999KA1240N+01671MA1999999092111MD1999999+0101MW1501REMSYN088AAXX  29124 83344 21496 81407 10203 20189 39211 40179 75052 887// 333 20167 58010 60014;
0171833440999992005042918004-14950-040883FM-12+0905SBQV V0201401N003110021019N0040001N1+02031+01951101511ADDAY151061AY221061GF108991081071002501999999MA1999999091841MD1999999+0111MW1501REMSYN082AAXX  29184 83344 21396 81406 10203 20195 39184 40151 75052 887// 333 58011 69921;
0202833440999992005043000004-14950-040883FM-12+0905SBQV V0201401N005110021019N0100001N1+01981+01861101551ADDAY151061AY221061GF108991081071002501999999KA1240M+02171MA1999999091891MD1999999-0051MW1201REMSYN100AAXX  30004 83344 21397 81410 10198 20186 39189 40155 72052 887// 333 10217 29094 55000 59005 69921;
0162833440999992005043012004-14950-040883FM-12+0905SBQV V0203601N001510450019N0200001N1+02151+01741101591ADDGF106991031041004501031001KA1240N+01691MA1999999091951MD1999999-0161REMSYN082AAXX  30124 83344 22498 63603 10215 20174 39195 40159 83430 333 20169 59016 69944;
0167833440999992005043018004-14950-040883FM-12+0905SBQV V0201401N002110450019N0200001N1+02691+01841101141ADDAA106000091GF106991021011004501031091MA1999999091641MD1999999-0201REMSYN070AAXX  30184 83344 32498 61404 10269 20184 39164 40114 82139 333 59020;EQDQ01  00002PRCP06
0179833440999992005050100004-14950-040880FM-12+0840SBQV V0209999C000012200019N0100001N1+01981+01791101471ADDAA106000091GF100991001001999999001001MA1999999091841MD1999999-0051REMSYN082AAXX  01004 83344 32997 00000 10198 20179 39184 40147 333 10275 29079 55049 59005;EQDQ01  00002PRCP06
0173833440999992005050112004-14950-040880FM-12+0840SBQV V0201401N002610042019N0100001N1+02131+01951101581ADDAA106000091GF108991081071004501999999MA1999999091941MD1999999-0011REMSYN076AAXX  01124 83344 32497 81405 10213 20195 39194 40158 887// 333 20177 59001;EQDQ01  00002PRCP06
0171833440999992005050118004-14950-040880FM-12+0840SBQV V0201401N003110042019N0100001N1+02051+01911101361ADDAY151061AY221061GF108991081071004501999999MA1999999091721MD1999999+0081MW1501REMSYN082AAXX  01184 83344 21497 81406 10205 20191 39172 40136 75052 887// 333 58008 69911;
0189833440999992005050200004-14950-040880FM-12+0840SBQV V0201401N003610021019N0040001N1+01801+01751101611ADDAY151061AY221061GF108991081071002501999999MA1999999091931MD1999999-0091MW1501REMSYN100AAXX  02004 83344 21396 81407 10180 20175 39193 40161 75052 887// 333 10233 29094 55000 59009 69961;
0167833440999992005050218004-14950-040883FM-12+0905SBQV V0201401N003110042019N0200001N1+02011+01461101561ADDAA106000091GF108991051061004501031001MA1999999091841MD1999999+0121REMSYN070AAXX  02184 83344 32498 81406 10201 20146 39184 40156 85630 333 58012;EQDQ01  00002PRCP06
0162833440999992005050220004-14950-040883FM-15+0905SBQV V0201201N00461021001CN0112651N1+02001+01501999999ADDGA1025+004501999GA2075+021001999GF107991999999999999999999MA1102001999999MW1001REMMET052SBQV 022000Z 12009KT 9999 FEW015 BKN070 20/15 Q1020;EQDQ01+000000PRSWM2
0198833440999992005050300004-14950-040883FM-12+0905SBQV V0201401N001510042019N0100001N1+01701+01571101851ADDAA106000091GF108991081061004501999999KA1240M+02091MA1999999092061MD1999999+0131REMSYN088AAXX  03004 83344 32497 81403 10170 20157 39206 40185 886// 333 10209 29085 55000 58013;EQDQ01  00002PRCP06
0186833440999992005050312004-14950-040883FM-12+0905SBQV V0201401N003612200019N0200001N1+01841+01411101991ADDAA106000091GF104991041051004501001001KA1240N+01251MA1999999092191MD1999999+0131REMSYN076AAXX  03124 83344 32498 41407 10184 20141 39219 40199 84500 333 20125 58013;EQDQ01  00002PRCP06
0167833440999992005050318004-14950-040883FM-12+0905SBQV V0201401N003110042019N0200001N1+02151+01281101631ADDAA106000091GF106991061041004501001001MA1999999091901MD1999999+0041REMSYN070AAXX  03184 83344 32498 61406 10215 20128 39190 40163 86400 333 58004;EQDQ01  00002PRCP06
0208833440999992005050400004-14950-040883FM-12+0905SBQV V0200901N001012200019N0040001N1+01601+01401101931ADDAA106000091GA1001+999999999GF100991001001999999001001KA1240M+02291MA1999999092121MD1999999+0061REMSYN082AAXX  04004 83344 32996 00902 10160 20140 39212 40193 333 10229 29077 55078 58006;EQDQ01  00002PRCP06
0186833440999992005050412004-14950-040883FM-12+0905SBQV V0201401N003610042019N0100001N1+01681+01461102161ADDAA106000091GF108991081071004501999999KA1240N+01251MA1999999092301MD1999999+0111REMSYN076AAXX  04124 83344 32497 81407 10168 20146 39230 40216 887// 333 20125 58011;EQDQ01  00002PRCP06
0167833440999992005050418004-14950-040883FM-12+0905SBQV V0201401N003110042019N0200001N1+02001+01581101801ADDAA106000091GF106991061041004501001001MA1999999092021MD1999999+0121REMSYN070AAXX  04184 83344 32498 61406 10200 20158 39202 40180 86400 333 58012;EQDQ01  00002PRCP06
0208833440999992005050500004-14950-040883FM-12+0905SBQV V0200901N002112200019N0100001N1+01621+01511102041ADDAA106000091GA1001+999999999GF100991001001999999001001KA1240M+02071MA1999999092191MD1999999+0071REMSYN082AAXX  05004 83344 32997 00904 10162 20151 39219 40204 333 10207 29087 55026 58007;EQDQ01  00002PRCP06
0186833440999992005050512004-14950-040883FM-12+0905SBQV V0201801N003112200019N0200001N1+01921+01421102061ADDAA106000091GF103991031011008001001001KA1240N+01091MA1999999092251MD1999999-0051REMSYN076AAXX  05124 83344 32598 31806 10192 20142 39225 40206 83100 333 20109 59005;EQDQ01  00002PRCP06
0167833440999992005050518004-14950-040883FM-12+0905SBQV V0201401N003112200019N0200001N1+02211+01391101571ADDAA106000091GF103991031011008001001001MA1999999091851MD1999999-0171REMSYN070AAXX  05184 83344 32598 31406 10221 20139 39185 40157 83100 333 59017;EQDQ01  00002PRCP06
0208833440999992005050600004-14950-040883FM-12+0905SBQV V0200901N001512200019N0100001N1+01481+01301101871ADDAA106000091GA1001+999999999GF100991001001999999001001KA1240M+02311MA1999999092061MD1999999-0131REMSYN082AAXX  06004 83344 32997 00903 10148 20130 39206 40187 333 10231 29077 55098 59013;EQDQ01  00002PRCP06
0186833440999992005050612004-14950-040883FM-12+0905SBQV V0201401N004610042019N0200001N1+01821+01451101881ADDAA106000091GF108991081071004501999999KA1240N+01211MA1999999092221MD1999999-0031REMSYN076AAXX  06124 83344 32498 81409 10182 20145 39222 40188 887// 333 20121 59003;EQDQ01  00002PRCP06
0167833440999992005050618004-14950-040883FM-12+0905SBQV V0201401N003612200019N0200001N1+02211+01491101571ADDAA106000091GF104991041011004501001001MA1999999091831MD1999999-0021REMSYN070AAXX  06184 83344 32498 41407 10221 20149 39183 40157 84100 333 59002;EQDQ01  00002PRCP06
0208833440999992005050700004-14950-040883FM-12+0905SBQV V0200901N001512200019N0040001N1+01621+01521101841ADDAA106000091GA1001+999999999GF100991001001999999001001KA1240M+02311MA1999999092041MD1999999-0021REMSYN082AAXX  07004 83344 32996 00903 10162 20152 39204 40184 333 10231 29083 55057 59002;EQDQ01  00002PRCP06
0186833440999992005050712004-14950-040883FM-12+0905SBQV V0201401N003110450019N0100001N1+01861+01641101971ADDAA106000091GF108991041071008001021999KA1240N+01411MA1999999092171MD1999999-0051REMSYN076AAXX  07124 83344 32597 81406 10186 20164 39217 40197 8472/ 333 20141 59005;EQDQ01  00002PRCP06
0167833440999992005050718004-14950-040883FM-12+0905SBQV V0201401N003610042019N0200001N1+02231+01581101541ADDAA106000091GF105991051021004501001001MA1999999091881MD1999999+0051REMSYN070AAXX  07184 83344 32498 51407 10223 20158 39188 40154 85200 333 58005;EQDQ01  00002PRCP06
0179833440999992005050800004-14950-040880FM-12+0840SBQV V0200501N001012200019N0100001N1+01701+01601101801ADDAA106000091GF100991001001999999001001MA1999999092041MD1999999+0001REMSYN082AAXX  08004 83344 32997 00502 10170 20160 39204 40180 333 10235 29085 55044 58000;EQDQ01  00002PRCP06
0173833440999992005050812004-14950-040880FM-12+0840SBQV V0201401N004610450019N0200001N1+02031+01641101861ADDAA106000091GF108991041071004501021999MA1999999092111MD1999999-0061REMSYN076AAXX  08124 83344 32498 81409 10203 20164 39211 40186 8472/ 333 20145 59006;EQDQ01  00002PRCP06
0167833440999992005050818004-14950-040880FM-12+0840SBQV V0201401N003110450019N0200001N1+02411+01681101441ADDAA106000091GF106991041021004501081001MA1999999091831MD1999999-0051REMSYN070AAXX  08184 83344 32498 61406 10241 20168 39183 40144 84280 333 59005;EQDQ01  00002PRCP06
0202833440999992005050900004-14950-040883FM-12+0905SBQV V0201401N003110021019N0040001N1+02051+01721101781ADDAY121061AY221061GF108991081071002501999999KA1240M+02471MA1999999092121MD1999999+0081MW1501REMSYN100AAXX  09004 83344 21396 81406 10205 20172 39212 40178 75022 887// 333 10247 29077 55059 58008 69901;
0190833440999992005050912004-14950-040883FM-12+0905SBQV V0201801N002610042019N0100001N1+01861+01791101921ADDAY151061AY221061GF108991081071004501999999KA1240N+01611MA1999999092211MD1999999+0101MW1521REMSYN088AAXX  09124 83344 21497 81805 10186 20179 39221 40192 75252 887// 333 20161 58010 60014;
0171833440999992005050918004-14950-040883FM-12+0905SBQV V0201401N003612200019N0200001N1+02331+01701101501ADDAY151061AY221061GF102991021021004501001001MA1999999091931MD1999999+0101MW1021REMSYN082AAXX  09184 83344 21498 21407 10233 20170 39193 40150 70252 82200 333 58010 69931;
0198833440999992005051000004-14950-040883FM-12+0905SBQV V0200901N002112200019N0040001N1+01961+01811101821ADDAA106000091GF101991011011004501001001KA1240M+02451MA1999999092091MD1999999-0031REMSYN088AAXX  10004 83344 32496 10904 10196 20181 39209 40182 81100 333 10245 29087 55052 59003;EQDQ01  00002PRCP06
0162833440999992005051012004-14950-040883FM-12+0905SBQV V0201801N003610042019N0200001N1+02041+01741101831ADDGF106991061041004501001001KA1240N+01571MA1999999092151MD1999999-0061REMSYN082AAXX  10124 83344 22498 61807 10204 20174 39215 40183 86400 333 20157 59006 69934;
0167833440999992005051018004-14950-040883FM-12+0905SBQV V0201401N005110042019N0200001N1+02211+01821101481ADDAA106000091GF108991081071004501999999MA1999999091851MD1999999-0081REMSYN070AAXX  10184 83344 32498 81410 10221 20182 39185 40148 887// 333 59008;EQDQ01  00002PRCP06
0208833440999992005051100004-14950-040883FM-12+0905SBQV V0200901N002112200019N0100001N1+01761+01661101721ADDAA106000091GA1001+999999999GF100991001001999999001001KA1240M+02431MA1999999092011MD1999999-0081REMSYN082AAXX  11004 83344 32997 00904 10176 20166 39201 40172 333 10243 29087 55051 59008;EQDQ01  00002PRCP06
0190833440999992005051112004-14950-040883FM-12+0905SBQV V0201401N003110450019N0200001N1+02051+01871101801ADDAY151061AY221061GF108991041071004501011999KA1240N+01491MA1999999092071MD1999999-0081MW1031REMSYN088AAXX  11124 83344 21498 81406 10205 20187 39207 40180 70352 8471/ 333 20149 59008 60024;
0171833440999992005051118004-14950-040883FM-12+0905SBQV V0200901N005110450019N0200001N1+02291+01831101541ADDAY151061AY221061GF106991041071004501081001MA1999999091881MD1999999+0031MW1031REMSYN082AAXX  11184 83344 21498 60910 10229 20183 39188 40154 70352 84780 333 58003 69961;
0208833440999992005051200004-14950-040883FM-12+0905SBQV V0209999C000012200019N0100001N1+01541+01441101771ADDAA106000091GA1001+999999999GF100991001001999999001001KA1240M+02331MA1999999092011MD1999999+0001REMSYN082AAXX  12004 83344 32997 00000 10154 20144 39201 40177 333 10233 29088 55024 58000;EQDQ01  00002PRCP06
0190833440999992005051212004-14950-040883FM-12+0905SBQV V0200901N005112200019N0200001N1+02071+01741101881ADDAY151061AY221061GF102991021021004501001001KA1240N+01251MA1999999092111MD1999999+0041MW1011REMSYN088AAXX  12124 83344 21498 20910 10207 20174 39211 40188 70152 82200 333 20125 58004 69994;
0167833440999992005051218004-14950-040883FM-12+0905SBQV V0201401N004112200019N0200001N1+02331+01601101511ADDAA106000091GF104991041021004501021001MA1999999091871MD1999999-0011REMSYN070AAXX  12184 83344 32498 41408 10233 20160 39187 40151 84220 333 59001;EQDQ01  00002PRCP06
0198833440999992005051300004-14950-040883FM-12+0905SBQV V0200901N002612200019N0040001N1+01861+01731101711ADDAA106000091GF102991021061004501001001KA1240M+02451MA1999999092021MD1999999+0011REMSYN088AAXX  13004 83344 32496 20905 10186 20173 39202 40171 82600 333 10245 29083 55070 58001;EQDQ01  00002PRCP06
0186833440999992005051312004-14950-040883FM-12+0905SBQV V0201401N005110042019N0200001N1+01901+01681101821ADDAA106000091GF106991061071004501001001KA1240N+01321MA1999999092091MD1999999-0021REMSYN076AAXX  13124 83344 32498 61410 10190 20168 39209 40182 86700 333 20132 59002;EQDQ01  00002PRCP06
0167833440999992005051318004-14950-040883FM-12+0905SBQV V0201801N004110450019N0200001N1+02241+01801101521ADDAA106000091GF107991041041004501051001MA1999999091831MD1999999-0041REMSYN070AAXX  13184 83344 32498 71808 10224 20180 39183 40152 84450 333 59004;EQDQ01  00002PRCP06
0208833440999992005051400004-14950-040883FM-12+0905SBQV V0201401N002112200019N0100001N1+01801+01691101701ADDAA106000091GA1001+999999999GF100991001001999999001001KA1240M+02371MA1999999091961MD1999999-0061REMSYN082AAXX  14004 83344 32997 01404 10180 20169 39196 40170 333 10237 29087 55000 59006;EQDQ01  00002PRCP06
0190833440999992005051412004-14950-040883FM-12+0905SBQV V0200901N003110075019N0200001N1+02171+01621101691ADDAY151061AY221061GF106991061021008001001001KA1240N+01491MA1999999092021MD1999999-0071MW1031REMSYN088AAXX  14124 83344 21598 60906 10217 20162 39202 40169 70352 86200 333 20149 59007 60024;
0167833440999992005051418004-14950-040883FM-12+0905SBQV V0200901N005710042019N0200001N1+02171+01681101391ADDAA106000091GF106991061061004501001001MA1999999091751MD1999999-0081REMSYN070AAXX  14184 83344 32498 60911 10217 20168 39175 40139 86600 333 59008;EQDQ01  00002PRCP06
0179833440999992005051500004-14950-040880FM-12+0840SBQV V0200901N002112200019N0100001N1+01761+01661101601ADDAA106000091GF100991001001999999001001MA1999999091921MD1999999-0041REMSYN082AAXX  15004 83344 32997 00904 10176 20166 39192 40160 333 10233 29083 55076 59004;EQDQ01  00002PRCP06
0177833440999992005051512004-14950-040880FM-12+0840SBQV V0201401N004610042019N0200001N1+01941+01751101671ADDAY151061AY221061GF106991061071004501001001MA1999999091941MD1999999-0081MW1011REMSYN088AAXX  15124 83344 21498 61409 10194 20175 39194 40167 70152 86700 333 20153 59008 69964;
0167833440999992005051518004-14950-040880FM-12+0840SBQV V0200901N003112200019N0200001N1+02311+01811101271ADDAA106000091GF102991021011004501001001MA1999999091651MD1999999-0101REMSYN070AAXX  15184 83344 32498 20906 10231 20181 39165 40127 82100 333 59010;EQDQ01  00002PRCP06
0198833440999992005051600004-14950-040883FM-12+0905SBQV V0200901N000512200019N0040001N1+01761+01701101651ADDAA106000091GF102991021001012501031001KA1240M+02431MA1999999091921MD1999999+0001REMSYN088AAXX  16004 83344 32696 20901 10176 20170 39192 40165 82030 333 10243 29089 55055 58000;EQDQ01  00002PRCP06
0186833440999992005051612004-14950-040883FM-12+0905SBQV V0201401N003110042019N0200001N1+02111+01821101631ADDAA106000091GF107991071071004501001001KA1240N+01541MA1999999091951MD1999999+0011REMSYN076AAXX  16124 83344 32498 71406 10211 20182 39195 40163 87700 333 20154 58001;EQDQ01  00002PRCP06
0167833440999992005051618004-14950-040883FM-12+0905SBQV V0200901N004612200019N0200001N1+02471+01681101171ADDAA106000091GF104991021021004501081001MA1999999091611MD1999999-0041REMSYN070AAXX  16184 83344 32498 40909 10247 20168 39161 40117 82280 333 59004;EQDQ01  00002PRCP06
0198833440999992005051700004-14950-040883FM-12+0905SBQV V0200901N002112200019N0100001N1+01841+01741101471ADDAA106000091GF104991021021004501001091KA1240M+02561MA1999999091801MD1999999-0121REMSYN088AAXX  17004 83344 32497 40904 10184 20174 39180 40147 82209 333 10256 29083 55087 59012;EQDQ01  00002PRCP06
0186833440999992005051712004-14950-040883FM-12+0905SBQV V0201401N002610450019N0200001N1+02091+01761101581ADDAA106000091GF108991041071004501011999KA1240N+01651MA1999999091901MD1999999-0051REMSYN076AAXX  17124 83344 32498 81405 10209 20176 39190 40158 8471/ 333 20165 59005;EQDQ01  00002PRCP06
0167833440999992005051718004-14950-040883FM-12+0905SBQV V0201401N003112200019N0200001N1+02471+01621101051ADDAA106000091GF103991021011008001001011MA1999999091501MD1999999-0111REMSYN070AAXX  17184 83344 32598 31406 10247 20162 39150 40105 82101 333 59011;EQDQ01  00002PRCP06
0202833440999992005051800004-14950-040883FM-12+0905SBQV V0201401N003112200019N0100001N1+01981+01791101341ADDAY151061AY221061GF104991041071004501001001KA1240M+02531MA1999999091721MD1999999-0081MW1031REMSYN100AAXX  18004 83344 21497 41406 10198 20179 39172 40134 70352 84700 333 10253 29081 55054 59008 60021;
0190833440999992005051812004-14950-040883FM-12+0905SBQV V0200901N001510042019N0200001N1+01991+01741101531ADDAY151061AY221061GF107991071061004501001001KA1240N+01511MA1999999091871MD1999999-0031MW1021REMSYN088AAXX  18124 83344 21498 70903 10199 20174 39187 40153 70252 87600 333 20151 59003 60024;
0167833440999992005051818004-14950-040883FM-12+0905SBQV V0201401N003110450019N0200001N1+02431+01621100981ADDAA106000091GF105991021011004501051001MA1999999091451MD1999999-0051REMSYN070AAXX  18184 83344 32498 51406 10243 20162 39145 40098 82150 333 59005;EQDQ01  00002PRCP06
0208833440999992005051900004-14950-040883FM-12+0905SBQV V0200901N002112200019N0040001N1+01821+01691101301ADDAA106000091GA1001+999999999GF100991001001999999001001KA1240M+02531MA1999999091631MD1999999-0091REMSYN082AAXX  19004 83344 32996 00904 10182 20169 39163 40130 333 10253 29084 55062 59009;EQDQ01  00002PRCP06
0186833440999992005051912004-14950-040883FM-12+0905SBQV V0200501N002612200019N0200001N1+02151+01531101411ADDAA106000091GF103991031011004501001001KA1240N+01191MA1999999091761MD1999999-0111REMSYN076AAXX  19124 83344 32498 30505 10215 20153 39176 40141 83100 333 20119 59011;EQDQ01  00002PRCP06
0167833440999992005051918004-14950-040883FM-12+0905SBQV V0201401N002612200019N0200001N1+02461+01781101001ADDAA106000091GF102991021021004501001001MA1999999091371MD1999999-0081REMSYN070AAXX  19184 83344 32498 21405 10246 20178 39137 40100 82200 333 59008;EQDQ01  00002PRCP06
0208833440999992005052000004-14950-040883FM-12+0905SBQV V0200501N001012200019N0100001N1+01641+01481101381ADDAA106000091GA1001+999999999GF100991001001999999001001KA1240M+02701MA1999999091701MD1999999+0071REMSYN082AAXX  20004 83344 32997 00502 10164 20148 39170 40138 333 10270 29078 55099 58007;EQDQ01  00002PRCP06
0186833440999992005052012004-14950-040883FM-12+0905SBQV V0200501N001512200019N0200001N1+02171+01571101541ADDAA106000091GF102991021011004501001001KA1240N+01341MA1999999091851MD1999999+0091REMSYN076AAXX  20124 83344 32498 20503 10217 20157 39185 40154 82100 333 20134 58009;EQDQ01  00002PRCP06
0167833440999992005052018004-14950-040883FM-12+0905SBQV V0201801N003112200019N0200001N1+02631+01731100931ADDAA106000091GF102991021011004501001001MA1999999091371MD1999999+0001REMSYN070AAXX  20184 83344 32498 21806 10263 20173 39137 40093 82100 333 58000;EQDQ01  00002PRCP06
0208833440999992005052100004-14950-040883FM-12+0905SBQV V0200501N002112200019N0100001N1+01801+01631100761ADDAA106000091GA1001+999999999GF100991001001999999001001KA1240M+02791MA1999999091671MD1999999-0031REMSYN082AAXX  21004 83344 32997 00504 10180 20163 39167 40076 333 10279 29077 55099 59003;EQDQ01  00002PRCP06
0186833440999992005052112004-14950-040883FM-12+0905SBQV V0203601N003612200019N0200001N1+02311+01701101471ADDAA106000091GF102991021001012501081001KA1240N+01391MA1999999091841MD1999999-0011REMSYN076AAXX  21124 83344 32698 23607 10231 20170 39184 40147 82080 333 20139 59001;EQDQ01  00002PRCP06
0185833440999992005052200004-14950-040880FM-12+0840SBQV V0203601N001510120019N0040001N1+01981+01781101191ADDAA106000091GF106991061001012501081001MA1999999091631MD1999999-0041REMSYN088AAXX  22004 83344 32696 63603 10198 20178 39163 40119 86080 333 10291 29072 55092 59004;EQDQ01  00002PRCP06
0173833440999992005052212004-14950-040880FM-12+0840SBQV V0203601N005110120019N0200001N1+02221+01841101321ADDAA106000091GF106991061001012501051001MA1999999091721MD1999999-0121REMSYN076AAXX  22124 83344 32698 63610 10222 20184 39172 40132 86050 333 20173 59012;EQDQ01  00002PRCP06
0167833440999992005052218004-14950-040880FM-12+0840SBQV V0203201N003112200019N0200001N1+02971+01681100751ADDAA106000091GF104991021021004501081001MA1999999091361MD1999999-0111REMSYN070AAXX  22184 83344 32498 43206 10297 20168 39136 40075 82280 333 59011;EQDQ01  00002PRCP06
0179833440999992005052300004-14950-040880FM-12+0840SBQV V0200501N000512200019N0100001N1+01971+01681101201ADDAA106000091GF100991001001999999001001MA1999999091611MD1999999-0021REMSYN082AAXX  23004 83344 32997 00501 10197 20168 39161 40120 333 10300 29073 55077 59002;EQDQ01  00002PRCP06
0173833440999992005052312004-14950-040880FM-12+0840SBQV V0203601N003112200019N0200001N1+02361+01911101191ADDAA106000091GF105991011011008001001011MA1999999091631MD1999999-0091REMSYN076AAXX  23124 83344 32598 53606 10236 20191 39163 40119 81101 333 20167 59009;EQDQ01  00002PRCP06
0167833440999992005052318004-14950-040880FM-12+0840SBQV V0203601N001510450019N0200001N1+02731+01741100831ADDAA106000091GF108991041071008001021011MA1999999091371MD1999999+0011REMSYN070AAXX  23184 83344 32598 83603 10273 20174 39137 40083 84721 333 58001;EQDQ01  00002PRCP06
0198833440999992005052400004-14950-040883FM-12+0905SBQV V0201401N000512200019N0100001N1+02121+01951101111ADDAA106000091GF103991031001022501081001KA1240M+02911MA1999999091591MD1999999-0021REMSYN088AAXX  24004 83344 32897 31401 10212 20195 39159 40111 83080 333 10291 29077 55062 59002;EQDQ01  00002PRCP06
0186833440999992005052412004-14950-040883FM-12+0905SBQV V0200901N001510450019N0200001N1+02331+01941101441ADDAA106000091GF106991041041004501091001KA1240N+01791MA1999999091871MD1999999+0241REMSYN076AAXX  24124 83344 32498 60903 10233 20194 39187 40144 84490 333 20179 58024;EQDQ01  00002PRCP06
0167833440999992005052418004-14950-040883FM-12+0905SBQV V0200901N002110450019N0200001N1+02631+02071100921ADDAA106000091GF107991021011004501071001MA1999999091451MD1999999+0081REMSYN070AAXX  24184 83344 32498 70904 10263 20207 39145 40092 82170 333 58008;EQDQ01  00002PRCP06
0208833440999992005052500004-14950-040883FM-12+0905SBQV V0200501N000512200019N0100001N1+02171+02011101271ADDAA106000091GA1001+999999999GF100991001001999999001001KA1240M+02491MA1999999091741MD1999999+0151REMSYN082AAXX  25004 83344 32997 00501 10217 20201 39174 40127 333 10249 29083 55054 58015;EQDQ01  00002PRCP06
0186833440999992005052512004-14950-040883FM-12+0905SBQV V0203601N005111050019N0200001N1+02271+01881101351ADDAA106000091GF106991031031004501001091KA1240N+01771MA1999999091791MD1999999-0081REMSYN076AAXX  25124 83344 32498 63610 10227 20188 39179 40135 83309 333 20177 59008;EQDQ01  00002PRCP06
0167833440999992005052518004-14950-040883FM-12+0905SBQV V0203601N002112200019N0200001N1+02931+01771100991ADDAA106000091GF104991021021004501051001MA1999999091581MD1999999+0131REMSYN070AAXX  25184 83344 32498 43604 10293 20177 39158 40099 82250 333 58013;EQDQ01  00002PRCP06
0208833440999992005052600004-14950-040883FM-12+0905SBQV V0200901N000512200019N0100001N1+01981+01811101401ADDAA106000091GA1001+999999999GF100991001001999999001001KA1240M+02991MA1999999091791MD1999999+0051REMSYN082AAXX  26004 83344 32997 00901 10198 20181 39179 40140 333 10299 29077 55097 58005;EQDQ01  00002PRCP06
0186833440999992005052612004-14950-040883FM-12+0905SBQV V0203601N004111050019N0200001N1+02291+01901101601ADDAA106000091GF106991031001012501051021KA1240N+01781MA1999999091991MD1999999+0201REMSYN076AAXX  26124 83344 32698 63608 10229 20190 39199 40160 83052 333 20178 58020;EQDQ01  00002PRCP06
0171833440999992005052618004-14950-040883FM-12+0905SBQV V0201401N005110042019N0200001N1+02241+02031101401ADDAY161061AY251061GF108991081071004501999999MA1999999091821MD1999999+0241MW1021REMSYN082AAXX  26184 83344 21498 81410 10224 20203 39182 40140 70265 887// 333 58024 60011;
0202833440999992005052700004-14950-040883FM-12+0905SBQV V0203201N001510021019N0020001N1+01901+01821101701ADDAY191061AY281061GF108991081091002501999999KA1240M+03021MA1999999092061MD1999999+0271MW1631REMSYN100AAXX  27004 83344 21395 83203 10190 20182 39206 40170 76398 889// 333 10302 29089 55062 58027 60241;
0190833440999992005052712004-14950-040883FM-12+0905SBQV V0201401N004110021019N0040001N1+01801+01631102061ADDAY191061AY261061GF108991081071002501999999KA1240N+01601MA1999999092271MD1999999+0281MW1021REMSYN088AAXX  27124 83344 21396 81408 10180 20163 39227 40206 70296 887// 333 20160 58028 60434;
0167833440999992005052718004-14950-040883FM-12+0905SBQV V0201401N003110042019N0100001N1+01951+01811101831ADDAA106000091GF108991081071004501999999MA1999999092101MD1999999+0281REMSYN070AAXX  27184 83344 32497 81406 10195 20181 39210 40183 887// 333 58028;EQDQ01  00002PRCP06
0198833440999992005052800004-14950-040883FM-12+0905SBQV V0201401N003110021019N0040001N1+01871+01691102021ADDAA106000091GF108991081071002501999999KA1240M+02091MA1999999092241MD1999999+0181REMSYN088AAXX  28004 83344 32396 81406 10187 20169 39224 40202 887// 333 10209 29090 55002 58018;EQDQ01  00002PRCP06
0186833440999992005052812004-14950-040883FM-12+0905SBQV V0201401N004110042019N0100001N1+01721+01591102051ADDAA106000091GF108991081071004501999999KA1240N+01471MA1999999092261MD1999999-0011REMSYN076AAXX  28124 83344 32497 81408 10172 20159 39226 40205 887// 333 20147 59001;EQDQ01  00002PRCP06
0167833440999992005052818004-14950-040883FM-12+0905SBQV V0201801N003110042019N0100001N1+01851+01741101821ADDAA106000091GF108991081071004501999999MA1999999092031MD1999999-0071REMSYN070AAXX  28184 83344 32497 81806 10185 20174 39203 40182 887// 333 59007;EQDQ01  00002PRCP06
0189833440999992005052900004-14950-040880FM-12+0840SBQV V0201401N002610021019N0040001N1+01821+01741101941ADDAY151061AY221061GF108991081071002501999999MA1999999092151MD1999999-0091MW1511REMSYN100AAXX  29004 83344 21396 81405 10182 20174 39215 40194 75152 887// 333 10197 29094 55000 59009 69961;
0177833440999992005052912004-14950-040880FM-12+0840SBQV V0201401N003110450019N0200001N1+01991+01701101931ADDAY161061AY251061GF108991041071004501021999MA1999999092191MD1999999-0071MW1021REMSYN088AAXX  29124 83344 21498 81406 10199 20170 39219 40193 70265 8472/ 333 20147 59007 60044;
0098833440999992005052915004-14950-040880FM-15+0840SBQV V0201301N007212200019N0112651N1+01901+01901999999ADDGF104991999999999999999999MA1102201999999REMMET045SBQV 291500Z 13014KT 9999 SCT011 19/19 Q1022;
0171833440999992005052918004-14950-040880FM-12+0840SBQV V0200901N005112200019N0200001N1+02191+01741101611ADDAY161061AY221061GF103991031071004501001001MA1999999091951MD1999999-0081MW1031REMSYN082AAXX  29184 83344 21498 30910 10219 20174 39195 40161 70362 83700 333 59008 60051;
0198833440999992005053000004-14950-040883FM-12+0905SBQV V0201401N001512200019N0100001N1+01801+01671101851ADDAA106000091GF104991041061004501001001KA1240M+02231MA1999999092121MD1999999-0031REMSYN088AAXX  30004 83344 32497 41403 10180 20167 39212 40185 84600 333 10223 29086 55047 59003;EQDQ01  00002PRCP06
0190833440999992005053012004-14950-040883FM-12+0905SBQV V0200901N005112200019N0200001N1+02011+01561102061ADDAY161061AY221061GF104991041021004501001001KA1240N+01581MA1999999092311MD1999999+0121MW1011REMSYN088AAXX  30124 83344 21498 40910 10201 20156 39231 40206 70162 84200 333 20158 58012 60094;
0167833440999992005053018004-14950-040883FM-12+0905SBQV V0200901N005112200019N0200001N1+02251+01621101691ADDAA106000091GF102991021011004501001001MA1999999092051MD1999999+0101REMSYN070AAXX  30184 83344 32498 20910 10225 20162 39205 40169 82100 333 58010;EQDQ01  00002PRCP06
0198833440999992005053100004-14950-040883FM-12+0905SBQV V0200901N003110042019N0040001N1+01861+01641101901ADDAA106000091GF108991081071004501999999KA1240M+02391MA1999999092191MD1999999+0071REMSYN088AAXX  31004 83344 32496 80906 10186 20164 39219 40190 887// 333 10239 29079 55090 58007;EQDQ01  00002PRCP06
0190833440999992005053112004-14950-040883FM-12+0905SBQV V0201401N002610042019N0100001N1+01901+01831101971ADDAY161061AY251061GF108991081071004501999999KA1240N+01561MA1999999092231MD1999999-0081MW1011REMSYN088AAXX  31124 83344 21497 81405 10190 20183 39223 40197 70165 887// 333 20156 59008 60034;
0171833440999992005053118004-14950-040883FM-12+0905SBQV V0201401N002610021019N0040001N1+01991+01871101731ADDAY161061AY251061GF108991081071002501999999MA1999999092021MD1999999+0031MW1611REMSYN082AAXX  31184 83344 21396 81405 10199 20187 39202 40173 76165 887// 333 58003 69951;
0202833440999992005060100004-14950-040883FM-12+0905SBQV V0201401N003110021019N0040001N1+01841+01781101981ADDAY161061AY251061GF108991081071002501999999KA1240M+02151MA1999999092281MD1999999+0031MW1501REMSYN100AAXX  01004 83344 21396 81406 10184 20178 39228 40198 75065 887// 333 10215 29095 55006 58003 60021;
0190833440999992005060112004-14950-040883FM-12+0905SBQV V0201401N004110021019N0040001N1+01921+01661101981ADDAY151061AY221061GF108991081071002501999999KA1240N+01491MA1999999092241MD1999999+0051MW1161REMSYN088AAXX  01124 83344 21396 81408 10192 20166 39224 40198 71652 887// 333 20149 58005 60044;
0167833440999992005060118004-14950-040883FM-12+0905SBQV V0200901N004111050019N0200001N1+02171+01401101651ADDAA106000091GF107991041041008001001091MA1999999091961MD1999999-0061REMSYN070AAXX  01184 83344 32598 70908 10217 20140 39196 40165 84409 333 59006;EQDQ01  00002PRCP06
0214833440999992005060200004-14950-040883FM-12+0905SBQV V0200901N003110024019N0100001N1+01701+01601101931ADDAA106000091GA1091+999999999GF109991091999999999999999KA1240M+02311MA1999999092151MD1999999-0071REMSYN088AAXX  02004 83344 32597 90906 10170 20160 39215 40193 8//// 333 10231 29084 55067 59007;EQDQ01  00002PRCP06
0190833440999992005060212004-14950-040883FM-12+0905SBQV V0201401N003110042019N0100001N1+01821+01691102021ADDAY151061AY221061GF108991081071004501999999KA1240N+01471MA1999999092221MD1999999-0021MW1521REMSYN088AAXX  02124 83344 21497 81406 10182 20169 39222 40202 75252 887// 333 20147 59002 60014;
0171833440999992005060218004-14950-040883FM-12+0905SBQV V0201401N004610042019N0200001N1+02071+01491101651ADDAY151061AY221061GF108991081071004501999999MA1999999091901MD1999999-0061MW1021REMSYN082AAXX  02184 83344 21498 81409 10207 20149 39190 40165 70252 887// 333 59006 60011;
0208833440999992005060300004-14950-040883FM-12+0905SBQV V0200901N003112200019N0040001N1+01621+01461101881ADDAA106000091GA1001+999999999GF100991001001999999001001KA1240M+02191MA1999999092071MD1999999-0081REMSYN082AAXX  03004 83344 32996 00906 10162 20146 39207 40188 333 10219 29080 55012 59008;EQDQ01  00002PRCP06
0190833440999992005060312004-14950-040883FM-12+0905SBQV V0201401N003110042019N0100001N1+01891+01751101981ADDAY151061AY221061GF108991081071004501999999KA1240N+01451MA1999999092181MD1999999-0041MW1021REMSYN088AAXX  03124 83344 21497 81406 10189 20175 39218 40198 70252 887// 333 20145 59004 60034;
0171833440999992005060318004-14950-040883FM-12+0905SBQV V0200901N004610042019N0200001N1+01981+01721101741ADDAY161061AY251061GF106991061071004501001001MA1999999092001MD1999999+0101MW1011REMSYN082AAXX  03184 83344 21498 60909 10198 20172 39200 40174 70165 86700 333 58010 60031;
0202833440999992005060400004-14950-040883FM-12+0905SBQV V0201401N003112200019N0100001N1+01681+01581102081ADDAY161061AY251061GF102991021021004501001001KA1240M+02071MA1999999092291MD1999999+0221MW1031REMSYN100AAXX  04004 83344 21497 21406 10168 20158 39229 40208 70365 82200 333 10207 29091 55007 58022 60021;
0177833440999992005060412004-14950-040880FM-12+0840SBQV V0201401N005110042019N0200001N1+01801+01651102011ADDAY151061AY221061GF106991061071004501001001MA1999999092211MD1999999+0031MW1031REMSYN088AAXX  04124 83344 21498 61410 10180 20165 39221 40201 70352 86700 333 20145 58003 60064;
0167833440999992005060418004-14950-040880FM-12+0840SBQV V0201401N003110042019N0200001N1+01891+01661101821ADDAA106000091GF107991071071004501001001MA1999999092051MD1999999-0051REMSYN070AAXX  04184 83344 32498 71406 10189 20166 39205 40182 87700 333 59005;EQDQ01  00002PRCP06
0190833440999992005060512004-14950-040883FM-12+0905SBQV V0201401N003110042019N0040001N1+01721+01621102121ADDAY151061AY221061GF108991081071004501999999KA1240N+01471MA1999999092291MD1999999+0081MW1021REMSYN088AAXX  05124 83344 21496 81406 10172 20162 39229 40212 70252 887// 333 20147 58008 69974;
0167833440999992005060518004-14950-040883FM-12+0905SBQV V0200901N002112200019N0200001N1+02091+01821101721ADDAA106000091GF104991041021004501001001MA1999999092031MD1999999-0021REMSYN070AAXX  05184 83344 32498 40904 10209 20182 39203 40172 84200 333 59002;EQDQ01  00002PRCP06
0202833440999992005060600004-14950-040883FM-12+0905SBQV V0201401N003110042019N0040001N1+01741+01681101981ADDAY151061AY221061GF108991081071004501999999KA1240M+02091MA1999999092181MD1999999-0051MW1521REMSYN100AAXX  06004 83344 21496 81406 10174 20168 39218 40198 75252 887// 333 10209 29093 55025 59005 60011;
0190833440999992005060612004-14950-040883FM-12+0905SBQV V0201401N005110042019N0100001N1+01821+01671101961ADDAY151061AY221061GF108991081071004501999999KA1240N+01491MA1999999092181MD1999999-0111MW1501REMSYN088AAXX  06124 83344 21497 81410 10182 20167 39218 40196 75052 887// 333 20149 59011 60034;
0171833440999992005060618004-14950-040883FM-12+0905SBQV V0201801N003110042019N0200001N1+02131+01681101561ADDAY151061AY221061GF106991061061004501001001MA1999999091881MD1999999-0151MW1021REMSYN082AAXX  06184 83344 21498 61806 10213 20168 39188 40156 70252 86600 333 59015 69911;
0202833440999992005060700004-14950-040883FM-12+0905SBQV V0201401N003610021019N0040001N1+01751+01661101811ADDAY161061AY251061GF108991081071002501999999KA1240M+02211MA1999999092051MD1999999-0131MW1021REMSYN100AAXX  07004 83344 21396 81407 10175 20166 39205 40181 70265 887// 333 10221 29089 55052 59013 60021;
0190833440999992005060712004-14950-040883FM-12+0905SBQV V0201401N002610021019N0200001N1+01781+01671101911ADDAY151061AY261061GF108991081071002501999999KA1240N+01551MA1999999092121MD1999999-0061MW1021REMSYN088AAXX  07124 83344 21398 81405 10178 20167 39212 40191 70256 887// 333 20155 59006 60064;
0171833440999992005060718004-14950-040883FM-12+0905SBQV V0201401N003110042019N0200001N1+01961+01701101631ADDAY151061AY221061GF106991061071004501001001MA1999999091901MD1999999+0021MW1031REMSYN082AAXX  07184 83344 21498 61406 10196 20170 39190 40163 70352 86700 333 58002 69911;
0202833440999992005060800004-14950-040883FM-12+0905SBQV V0201401N003110042019N0200001N1+01721+01601101841ADDAY151061AY221061GF106991061071004501001001KA1240M+02151MA1999999092051MD1999999+0001MW1031REMSYN100AAXX  08004 83344 21498 61406 10172 20160 39205 40184 70352 86700 333 10215 29092 55028 58000 69921;
0190833440999992005060812004-14950-040883FM-12+0905SBQV V0201801N003110042019N0040001N1+01741+01681102031ADDAY151061AY221061GF108991081071004501999999KA1240N+01741MA1999999092231MD1999999+0111MW1521REMSYN088AAXX  08124 83344 21496 81806 10174 20168 39223 40203 75252 887// 333 20174 58011 60014;
0171833440999992005060818004-14950-040883FM-12+0905SBQV V0200901N004110042019N0100001N1+01921+01771101711ADDAY151061AY221061GF108991081071004501999999MA1999999091971MD1999999+0071MW1021REMSYN082AAXX  08184 83344 21497 80908 10192 20177 39197 40171 70252 887// 333 58007 69981;
0202833440999992005060900004-14950-040883FM-12+0905SBQV V0200901N002612200019N0040001N1+01581+01481102051ADDAY161061AY221061GF104991041011004501001001KA1240M+02031MA1999999092201MD1999999+0151MW1011REMSYN100AAXX  09004 83344 21496 40905 10158 20148 39220 40205 70162 84100 333 10203 29094 55002 58015 60011;
0162833440999992005060912004-14950-040883FM-12+0905SBQV V0201401N003610042019N0100001N1+01781+01581102151ADDGF108991081071004501999999KA1240N+01221MA1999999092321MD1999999+0091REMSYN082AAXX  09124 83344 22497 81407 10178 20158 39232 40215 887// 333 20122 58009 60024;
0167833440999992005060918004-14950-040883FM-12+0905SBQV V0201801N004110042019N0100001N1+01981+01791101871ADDAA106000091GF108991081071004501999999MA1999999092081MD1999999+0111REMSYN070AAXX  09184 83344 32497 81808 10198 20179 39208 40187 887// 333 58011;EQDQ01  00002PRCP06
0202833440999992005061000004-14950-040883FM-12+0905SBQV V0201401N000510021019N0020001N1+01701+01641101991ADDAY151061AY221061GF108991081071002501999999KA1240M+02131MA1999999092191MD1999999-0011MW1501REMSYN100AAXX  10004 83344 21395 81401 10170 20164 39219 40199 75052 887// 333 10213 29092 55028 59001 69961;
0190833440999992005061012004-14950-040883FM-12+0905SBQV V0201401N004110042019N0200001N1+01801+01601102021ADDAY161061AY251061GF108991081071004501999999KA1240N+01451MA1999999092221MD1999999-0101MW1031REMSYN088AAXX  10124 83344 21498 81408 10180 20160 39222 40202 70365 887// 333 20145 59010 60074;
0171833440999992005061018004-14950-040883FM-12+0905SBQV V0200901N003110450019N0200001N1+02131+01461101691ADDAY151061AY221061GF106991041071004501081001MA1999999091981MD1999999-0101MW1031REMSYN082AAXX  10184 83344 21498 60906 10213 20146 39198 40169 70352 84780 333 59010 69911;
0202833440999992005061100004-14950-040883FM-12+0905SBQV V0201401N003110021019N0010001N1+01731+01671101891ADDAY151061AY221061GF108991081071002501999999KA1240M+02231MA1999999092101MD1999999-0091MW1511REMSYN100AAXX  11004 83344 21394 81406 10173 20167 39210 40189 75152 887// 333 10223 29087 55062 59009 69941;
0190833440999992005061112004-14950-040883FM-12+0905SBQV V0200901N002110042019N0100001N1+01841+01711101981ADDAY151061AY221061GF108991081071004501999999KA1240N+01491MA1999999092201MD1999999-0021MW1511REMSYN088AAXX  11124 83344 21497 80904 10184 20171 39220 40198 75152 887// 333 20149 59002 60034;
0171833440999992005061118004-14950-040883FM-12+0905SBQV V0200901N003610042019N0100001N1+02001+01741101641ADDAY151061AY221061GF108991081071004501999999MA1999999091941MD1999999-0041MW1021REMSYN082AAXX  11184 83344 21497 80907 10200 20174 39194 40164 70252 887// 333 59004 69971;
0192833440999992005061200004-14950-040883FM-12+090599999V0200901N001512200019N0040001N1+01381+99999101951ADDAA106000091GF103991031061004501001001KA1240M+02091MA1999999092111MD1999999+0011REMSYN082AAXX  12004 83344 32496 30903 10138 39211 40195 83600 333 10209 29092 55023 58001;EQDQ01  00002PRCP06
0149833440999992005061212004-14950-040880FM-12+0840SBQV V0200901N003110450019N0200001N1+01861+01551102101ADDGF106991021011004501051001MA1999999092251MD1999999+0051REMSYN082AAXX  12124 83344 22498 60906 10186 20155 39225 40210 82150 333 20127 58005 69974;
0167833440999992005061218004-14950-040880FM-12+0840SBQV V0200901N004112200019N0200001N1+02231+01551101631ADDAA106000091GF104991021011004501081001MA1999999091901MD1999999-0041REMSYN070AAXX  12184 83344 32498 40908 10223 20155 39190 40163 82180 333 59004;EQDQ01  00002PRCP06
0198833440999992005061300004-14950-040883FM-12+0905SBQV V0200901N001012200019N0100001N1+01701+01641101861ADDAA106000091GF104991041021004501001001KA1240M+02271MA1999999092091MD1999999-0021REMSYN088AAXX  13004 83344 32497 40902 10170 20164 39209 40186 84200 333 10227 29082 55074 59002;EQDQ01  00002PRCP06
0190833440999992005061312004-14950-040883FM-12+0905SBQV V0200901N003110042019N0200001N1+01861+01601101971ADDAY151061AY221061GF107991071071004501001001KA1240N+01331MA1999999092191MD1999999-0061MW1031REMSYN088AAXX  13124 83344 21498 70906 10186 20160 39219 40197 70352 87700 333 20133 59006 60014;
0167833440999992005061318004-14950-040883FM-12+0905SBQV V0201401N003610042019N0200001N1+02281+01611101571ADDAA106000091GF106991051071004501001011MA1999999091911MD1999999+0011REMSYN070AAXX  13184 83344 32498 61407 10228 20161 39191 40157 85701 333 58001;EQDQ01  00002PRCP06
0198833440999992005061400004-14950-040883FM-12+0905SBQV V0201401N001510042019N0100001N1+01761+01661101911ADDAA106000091GF108991081071004501999999KA1240M+02331MA1999999092101MD1999999+0011REMSYN088AAXX  14004 83344 32497 81403 10176 20166 39210 40191 887// 333 10233 29085 55051 58001;EQDQ01  00002PRCP06
0186833440999992005061412004-14950-040883FM-12+0905SBQV V0201401N003610042019N0200001N1+01901+01681101981ADDAA106000091GF108991081071004501999999KA1240N+01451MA1999999092221MD1999999+0031REMSYN076AAXX  14124 83344 32498 81407 10190 20168 39222 40198 887// 333 20145 58003;EQDQ01  00002PRCP06
0167833440999992005061418004-14950-040883FM-12+0905SBQV V0201401N003110042019N0200001N1+02071+01871101681ADDAA106000091GF106991061041004501001001MA1999999091981MD1999999+0071REMSYN070AAXX  14184 83344 32498 61406 10207 20187 39198 40168 86400 333 58007;EQDQ01  00002PRCP06
0202833440999992005061500004-14950-040883FM-12+0905SBQV V0200901N001010042019N0040001N1+01821+01761102001ADDAY151061AY221061GF108991081071004501999999KA1240M+02191MA1999999092241MD1999999+0141MW1501REMSYN100AAXX  15004 83344 21496 80902 10182 20176 39224 40200 75052 887// 333 10219 29092 55002 58014 69921;
0190833440999992005061512004-14950-040883FM-12+0905SBQV V0201401N002610021019N0100001N1+01821+01761102091ADDAY151061AY221061GF108991081071002501999999KA1240N+01391MA1999999092301MD1999999+0081MW1501REMSYN088AAXX  15124 83344 21397 81405 10182 20176 39230 40209 75052 887// 333 20139 58008 69954;
0171833440999992005061518004-14950-040883FM-12+0905SBQV V0200901N003110042019N0200001N1+02221+01991101711ADDAY151061AY221061GF106991061061004501001001MA1999999092001MD1999999+0021MW1021REMSYN082AAXX  15184 83344 21498 60906 10222 20199 39200 40171 70252 86600 333 58002 69951;
0202833440999992005061600004-14950-040883FM-12+0905SBQV V0201401N000510021019N0040001N1+01801+01701101911ADDAY151061AY221061GF108991081071002501999999KA1240M+02271MA1999999092141MD1999999+0101MW1021REMSYN100AAXX  16004 83344 21396 81401 10180 20170 39214 40191 70252 887// 333 10227 29093 55028 58010 69901;
0190833440999992005061612004-14950-040883FM-12+0905SBQV V0201401N004610042019N0200001N1+01811+01561102011ADDAY151061AY221061GF108991081071004501999999KA1240N+01391MA1999999092231MD1999999-0071MW1021REMSYN088AAXX  16124 83344 21498 81409 10181 20156 39223 40201 70252 887// 333 20139 59007 69964;
0167833440999992005061618004-14950-040883FM-12+0905SBQV V0201401N003110075019N0200001N1+02081+01541101621ADDAA106000091GF106991061041008001001001MA1999999091921MD1999999-0081REMSYN070AAXX  16184 83344 32598 61406 10208 20154 39192 40162 86400 333 59008;EQDQ01  00002PRCP06
0208833440999992005061700004-14950-040883FM-12+0905SBQV V0200901N000512200019N0100001N1+01401+01311101961ADDAA106000091GA1001+999999999GF100991001001999999001001KA1240M+02231MA1999999092101MD1999999-0041REMSYN082AAXX  17004 83344 32997 00901 10140 20131 39210 40196 333 10223 29086 55056 59004;EQDQ01  00002PRCP06
0186833440999992005061712004-14950-040883FM-12+0905SBQV V0200901N001512200019N0200001N1+02031+01481101911ADDAA106000091GF102991021011004501001001KA1240N+01011MA1999999092101MD1999999-0131REMSYN076AAXX  17124 83344 32498 20903 10203 20148 39210 40191 82100 333 20101 59013;EQDQ01  00002PRCP06
0167833440999992005061718004-14950-040883FM-12+0905SBQV V0201401N003112200019N0200001N1+02371+01781101321ADDAA106000091GF102991021021004501001001MA1999999091751MD1999999-0171REMSYN070AAXX  17184 83344 32498 21406 10237 20178 39175 40132 82200 333 59017;EQDQ01  00002PRCP06
0208833440999992005061800004-14950-040883FM-12+0905SBQV V0200901N000512200019N0040001N1+01661+01501101651ADDAA106000091GA1001+999999999GF100991001001999999001001KA1240M+02521MA1999999091921MD1999999-0181REMSYN082AAXX  18004 83344 32996 00901 10166 20150 39192 40165 333 10252 29080 55092 59018;EQDQ01  00002PRCP06
0186833440999992005061812004-14950-040883FM-12+0905SBQV V0200501N004119999999N0200001N1+02081+01681101741ADDAA106000091GF106991001001999999001041KA1240N+01291MA1999999092001MD1999999-0101REMSYN076AAXX  18124 83344 32998 60508 10208 20168 39200 40174 80004 333 20129 59010;EQDQ01  00002PRCP06
0167833440999992005061818004-14950-040883FM-12+0905SBQV V0202301N001512200019N0200001N1+02691+01421101211ADDAA106000091GF107991031041008001001041MA1999999091621MD1999999-0131REMSYN070AAXX  18184 83344 32598 72303 10269 20142 39162 40121 83404 333 59013;EQDQ01  00002PRCP06
0179833440999992005061900004-14950-040880FM-12+0840SBQV V0200901N001512200019N0100001N1+01941+01771101441ADDAA106000091GF100991001001999999001001MA1999999091791MD1999999-0131REMSYN082AAXX  19004 83344 32997 00903 10194 20177 39179 40144 333 10181 29076 55085 59013;EQDQ01  00002PRCP06
0173833440999992005061912004-14950-040880FM-12+0840SBQV V0203601N005112200019N0200001N1+02091+01841101581ADDAA106000091GF106991021011004501001061MA1999999091911MD1999999-0011REMSYN076AAXX  19124 83344 32498 63610 10209 20184 39191 40158 82106 333 20158 59001;EQDQ01  00002PRCP06
0167833440999992005061918004-14950-040880FM-12+0840SBQV V0202701N001519999999N0200001N1+02781+01641101111ADDAA106000091GF105991999031004501001001MA1999999091611MD1999999-0011REMSYN070AAXX  19184 83344 32498 52703 10278 20164 39161 40111 84300 333 59001;EQDQ01  00002PRCP06
0185833440999992005062000004-14950-040880FM-12+0840SBQV V0200501N001010450019N0100001N1+02001+01921101501ADDAA106000091GF106991031021004501051001MA1999999091861MD1999999+0071REMSYN088AAXX  20004 83344 32497 60502 10200 20192 39186 40150 83250 333 10285 29080 55087 58007;EQDQ01  00002PRCP06
0173833440999992005062012004-14950-040880FM-12+0840SBQV V0203601N003112200019N0200001N1+02201+01901101711ADDAA106000091GF104991021021004501081001MA1999999092041MD1999999+0131REMSYN076AAXX  20124 83344 32498 43606 10220 20190 39204 40171 82280 333 20157 58013;EQDQ01  00002PRCP06
0167833440999992005062018004-14950-040880FM-12+0840SBQV V0201401N001512200019N0200001N1+02351+01981101251ADDAA106000091GF104991041041004501001001MA1999999091701MD1999999+0091REMSYN070AAXX  20184 83344 32498 41403 10235 20198 39170 40125 84400 333 58009;EQDQ01  00002PRCP06
0198833440999992005062100004-14950-040883FM-12+0905SBQV V0203601N003112200019N0040001N1+01881+01661101561ADDAA106000091GF102991021001012501031001KA1240M+02731MA1999999091921MD1999999+0061REMSYN088AAXX  21004 83344 32696 23606 10188 20166 39192 40156 82030 333 10273 29082 55085 58006;EQDQ01  00002PRCP06
0186833440999992005062112004-14950-040883FM-12+0905SBQV V0203601N002612200019N0200001N1+02101+01891101751ADDAA106000091GF104991021021004501001011KA1240N+01651MA1999999092071MD1999999+0031REMSYN076AAXX  21124 83344 32498 43605 10210 20189 39207 40175 82201 333 20165 58003;EQDQ01  00002PRCP06
0167833440999992005062118004-14950-040883FM-12+0905SBQV V0201401N001511050019N0200001N1+02851+01601101241ADDAA106000091GF105991021021004501001021MA1999999091761MD1999999+0061REMSYN070AAXX  21184 83344 32498 51403 10285 20160 39176 40124 82202 333 58006;EQDQ01  00002PRCP06
0198833440999992005062200004-14950-040883FM-12+0905SBQV V0200501N001519999999N0100001N1+02011+01811101641ADDAA106000091GF106991001001999999001041KA1240M+02891MA1999999091991MD1999999+0071REMSYN088AAXX  22004 83344 32997 60503 10201 20181 39199 40164 80004 333 10289 29078 55099 58007;EQDQ01  00002PRCP06
0190833440999992005062212004-14950-040883FM-12+0905SBQV V0201401N003110042019N0200001N1+01861+01681101941ADDAY151061AY261061GF108991081071004501999999KA1240N+01531MA1999999092231MD1999999+0161MW1021REMSYN088AAXX  22124 83344 21498 81406 10186 20168 39223 40194 70256 887// 333 20153 58016 60024;
0167833440999992005062218004-14950-040883FM-12+0905SBQV V0201401N003110042019N0200001N1+01931+01641101801ADDAA106000091GF108991081071004501001001MA1999999092071MD1999999+0301REMSYN070AAXX  22184 83344 32498 81406 10193 20164 39207 40180 88700 333 58030;EQDQ01  00002PRCP06
0202833440999992005062300004-14950-040883FM-12+0905SBQV V0201401N003110021019N0040001N1+01681+01621102121ADDAY151061AY221061GF108991081071002501999999KA1240M+02031MA1999999092311MD1999999+0321MW1501REMSYN100AAXX  23004 83344 21396 81406 10168 20162 39231 40212 75052 887// 333 10203 29091 55004 58032 69951;
0190833440999992005062312004-14950-040883FM-12+0905SBQV V0201401N006210042019N0200001N1+02701+01391102181ADDAY151061AY221061GF107991071071004501001001KA1240N+01291MA1999999092351MD1999999+0121MW1021REMSYN088AAXX  23124 83344 21498 71412 10270 20139 39235 40218 70252 87700 333 20129 58012 60014;
0167833440999992005062318004-14950-040883FM-12+0905SBQV V0201401N004110042019N0200001N1+01961+01441101851ADDAA106000091GF106991061041004501001001MA1999999092081MD1999999+0011REMSYN070AAXX  23184 83344 32498 61408 10196 20144 39208 40185 86400 333 58001;EQDQ01  00002PRCP06
0198833440999992005062400004-14950-040883FM-12+0905SBQV V0201401N003110042019N0100001N1+01701+01571102061ADDAA106000091GF106991061061004501001001KA1240M+02031MA1999999092241MD1999999-0071REMSYN088AAXX  24004 83344 32497 61406 10170 20157 39224 40206 86600 333 10203 29084 55062 59007;EQDQ01  00002PRCP06
0186833440999992005062412004-14950-040883FM-12+0905SBQV V0201401N004610042019N0200001N1+01801+01431101981ADDAA106000091GF107991071071004501001001KA1240N+01371MA1999999092181MD1999999-0171REMSYN076AAXX  24124 83344 32498 71409 10180 20143 39218 40198 87700 333 20137 59017;EQDQ01  00002PRCP06
0167833440999992005062418004-14950-040883FM-12+0905SBQV V0201801N002610042019N0200001N1+02011+01721101721ADDAA106000091GF108991081071004501999999MA1999999091961MD1999999-0121REMSYN070AAXX  24184 83344 32498 81805 10201 20172 39196 40172 887// 333 59012;EQDQ01  00002PRCP06
0198833440999992005062500004-14950-040883FM-12+0905SBQV V0201401N002612200019N0100001N1+01771+01591101891ADDAA106000091GF104991041001012501051001KA1240M+02191MA1999999092121MD1999999-0121REMSYN088AAXX  25004 83344 32697 41405 10177 20159 39212 40189 84050 333 10219 29086 55042 59012;EQDQ01  00002PRCP06
0186833440999992005062512004-14950-040883FM-12+0905SBQV V0201401N004110042019N0100001N1+01701+01601101961ADDAA106000091GF108991081071004501999999KA1240N+01341MA1999999092161MD1999999+0021REMSYN076AAXX  25124 83344 32497 81408 10170 20160 39216 40196 887// 333 20134 58002;EQDQ01  00002PRCP06
0167833440999992005062518004-14950-040883FM-12+0905SBQV V0201401N003110042019N0200001N1+01811+01631101741ADDAA106000091GF108991081071004501999999MA1999999091951MD1999999-0011REMSYN070AAXX  25184 83344 32498 81406 10181 20163 39195 40174 887// 333 59001;EQDQ01  00002PRCP06
0185833440999992005062600004-14950-040880FM-12+0840SBQV V0201401N001510450019N0040001N1+01701+01531101911ADDAA106000091GF108991041071004501091999MA1999999092101MD1999999-0021REMSYN088AAXX  26004 83344 32496 81403 10170 20153 39210 40191 8479/ 333 10189 29091 55000 59002;EQDQ01  00002PRCP06
0173833440999992005062612004-14950-040880FM-12+0840SBQV V0201401N003110042019N0200001N1+01621+01381102031ADDAA106000091GF108991081071004501999999MA1999999092181MD1999999+0021REMSYN076AAXX  26124 83344 32498 81406 10162 20138 39218 40203 887// 333 20135 58002;EQDQ01  00002PRCP06
0167833440999992005062618004-14950-040880FM-12+0840SBQV V0201401N004110042019N0200001N1+01861+01641101631ADDAA106000091GF108991081071004501999999MA1999999091941MD1999999-0011REMSYN070AAXX  26184 83344 32498 81408 10186 20164 39194 40163 887// 333 59001;EQDQ01  00002PRCP06
0202833440999992005062700004-14950-040883FM-12+0905SBQV V0201401N003110042019N0040001N1+01681+01621101951ADDAY151061AY221061GF108991081071004501999999KA1240M+01951MA1999999092111MD1999999+0011MW1501REMSYN100AAXX  27004 83344 21496 81406 10168 20162 39211 40195 75052 887// 333 10195 29091 55000 58001 69911;
0190833440999992005062712004-14950-040883FM-12+0905SBQV V0201401N003110450019N0200001N1+01821+01671101921ADDAY151061AY221061GF108991041071004501021999KA1240N+01451MA1999999092131MD1999999-0051MW1031REMSYN088AAXX  27124 83344 21498 81406 10182 20167 39213 40192 70352 8472/ 333 20145 59005 69954;
0167833440999992005062718004-14950-040883FM-12+0905SBQV V0201401N002610450019N0200001N1+02151+01721101611ADDAA106000091GF106991041041004501051001MA1999999091911MD1999999-0031REMSYN070AAXX  27184 83344 32498 61405 10215 20172 39191 40161 84450 333 59003;EQDQ01  00002PRCP06
0202833440999992005062800004-14950-040883FM-12+0905SBQV V0200901N002110021019N0040001N1+01801+01671101891ADDAY151061AY221061GF108991081071002501999999KA1240M+02261MA1999999092121MD1999999+0011MW1031REMSYN100AAXX  28004 83344 21396 80904 10180 20167 39212 40189 70352 887// 333 10226 29088 55025 58001 60011;
0190833440999992005062812004-14950-040883FM-12+0905SBQV V0201401N002610042019N0200001N1+01821+01691102151ADDAY151061AY261061GF108991081071004501999999KA1240N+01171MA1999999092351MD1999999+0221MW1031REMSYN088AAXX  28124 83344 21498 81405 10182 20169 39235 40215 70356 887// 333 20117 58022 60014;
0167833440999992005062818004-14950-040883FM-12+0905SBQV V0200901N003110450019N0200001N1+02721+01551101801ADDAA106000091GF106991031051008001031091MA1999999092141MD1999999+0231REMSYN070AAXX  28184 83344 32598 60906 10272 20155 39214 40180 83539 333 58023;EQDQ01  00002PRCP06
0208833440999992005062900004-14950-040883FM-12+0905SBQV V0200901N002112200019N0100001N1+01601+01471102101ADDAA106000091GA1001+999999999GF100991001001999999001001KA1240M+02311MA1999999092271MD1999999+0151REMSYN082AAXX  29004 83344 32997 00904 10160 20147 39227 40210 333 10231 29086 55036 58015;EQDQ01  00002PRCP06
0186833440999992005062912004-14950-040883FM-12+0905SBQV V0201401N003110042019N0200001N1+01761+01491102181ADDAA106000091GF106991061071004501001001KA1240N+01111MA1999999092351MD1999999+0001REMSYN076AAXX  29124 83344 32498 61406 10176 20149 39235 40218 86700 333 20111 58000;EQDQ01  00002PRCP06
0167833440999992005062918004-14950-040883FM-12+0905SBQV V0201401N002610450019N0200001N1+01941+01591101801ADDAA106000091GF105991021041004501091001MA1999999092051MD1999999-0091REMSYN070AAXX  29184 83344 32498 51405 10194 20159 39205 40180 82490 333 59009;EQDQ01  00002PRCP06
0202833440999992005063000004-14950-040883FM-12+0905SBQV V0200901N001512200019N0040001N1+01601+01501101961ADDAY151061AY221061GF104991041041004501001001KA1240M+02091MA1999999092151MD1999999-0121MW1011REMSYN100AAXX  30004 83344 21496 40903 10160 20150 39215 40196 70152 84400 333 10209 29088 55036 59012 60041;
0190833440999992005063012004-14950-040883FM-12+0905SBQV V0201401N002610042019N0100001N1+01741+01571102101ADDAY151061AY221061GF108991081071004501999999KA1240N+01151MA1999999092251MD1999999-0101MW1021REMSYN088AAXX  30124 83344 21497 81405 10174 20157 39225 40210 70252 887// 333 20115 59010 69984;
0171833440999992005063018004-14950-040883FM-12+0905SBQV V0201801N002610042019N0100001N1+01861+01641101891ADDAY151061AY221061GF108991081071004501999999MA1999999092041MD1999999-0011MW1501REMSYN082AAXX  30184 83344 21497 81805 10186 20164 39204 40189 75052 887// 333 59001 69921;
0196833440999992005070100004-14950-040883FM-12+0905SBQV V0201401N001012200019N0100001N1+01701+01551101941ADDAY151061AY221061GF100991001001999999001001KA1240M+02051MA1999999092131MD1999999-0021MW1031REMSYN094AAXX  01004 83344 21997 01402 10170 20155 39213 40194 70352 333 10205 29090 55026 59002 69921;
0162833440999992005070112004-14950-040883FM-12+0905SBQV V0200901N003111050019N0200001N1+01801+01391102001ADDGF105991021011008001001051KA1240N+00951MA1999999092201MD1999999-0051REMSYN082AAXX  01124 83344 22598 50906 10180 20139 39220 40200 82105 333 20095 59005 69944;
0167833440999992005070118004-14950-040883FM-12+0905SBQV V0201401N003112200019N0200001N1+02151+01531101741ADDAA106000091GF106991021011008001001061MA1999999092001MD1999999-0041REMSYN070AAXX  01184 83344 32598 61406 10215 20153 39200 40174 82106 333 59004;EQDQ01  00002PRCP06
0192833440999992005070200004-14950-040883FM-12+0840SBQV V0201401N001012200019N0100001N1+01451+01261102101ADDAA106000091GF100991001001999999001001KA1240M+02271MA1999999092231MD1999999+0101REMSYN082AAXX  02004 83344 32997 01402 10145 20126 39223 40210 333 10227 29081 55089 58010;EQDQ01  00002PRCP06
0186833440999992005070212004-14950-040883FM-12+0840SBQV V0201801N002110450019N0200001N1+01661+01441102281ADDAA106000091GF106991021031004501081091KA1240N+00971MA1999999092371MD1999999+0171REMSYN076AAXX  02124 83344 32498 61804 10166 20144 39237 40228 82389 333 20097 58017;EQDQ01  00002PRCP06
0167833440999992005070218004-14950-040883FM-12+0840SBQV V0200901N002610042019N0200001N1+02011+01541102011ADDAA106000091GF108991051041004501001091MA1999999092131MD1999999+0131REMSYN070AAXX  02184 83344 32498 80905 10201 20154 39213 40201 85409 333 58013;EQDQ01  00002PRCP06
0179833440999992005070300004-14950-040880FM-12+0840SBQV V0200901N001012200019N0100001N1+01701+01341102141ADDAA106000091GF100991001001999999001001MA1999999092261MD1999999+0031REMSYN082AAXX  03004 83344 32997 00902 10170 20134 39226 40214 333 10209 29086 55060 58003;EQDQ01  00002PRCP06
0173833440999992005070312004-14950-040880FM-12+0840SBQV V0200901N003110075019N0200001N1+01841+01511102221ADDAA106000091GF105991051071008001001001MA1999999092351MD1999999-0021REMSYN076AAXX  03124 83344 32598 50906 10184 20151 39235 40222 85700 333 20127 59002;EQDQ01  00002PRCP06
0167833440999992005070318004-14950-040880FM-12+0840SBQV V0201401N003110075019N0200001N1+02211+01561101741ADDAA106000091GF106991061011008001001001MA1999999092001MD1999999-0131REMSYN070AAXX  03184 83344 32598 61406 10221 20156 39200 40174 86100 333 59013;EQDQ01  00002PRCP06
0192833440999992005070400004-14950-040883FM-12+0840SBQV V0200901N001512200019N0100001N1+01621+01421102021ADDAA106000091GF100991001001999999001001KA1240M+02331MA1999999092221MD1999999-0041REMSYN082AAXX  04004 83344 32997 00903 10162 20142 39222 40202 333 10233 29081 55063 59004;EQDQ01  00002PRCP06
0186833440999992005070412004-14950-040883FM-12+0840SBQV V0200901N003112200019N0200001N1+01741+01331101931ADDAA106000091GF104991021021004501081001KA1240N+01311MA1999999092121MD1999999-0231REMSYN076AAXX  04124 83344 32498 40906 10174 20133 39212 40193 82280 333 20131 59023;EQDQ01  00002PRCP06
0167833440999992005070418004-14950-040883FM-12+0840SBQV V0201401N003610042019N0200001N1+02181+01421101671ADDAA106000091GF106991061021004501001001MA1999999091901MD1999999-0101REMSYN070AAXX  04184 83344 32498 61407 10218 20142 39190 40167 86200 333 59010;EQDQ01  00002PRCP06
0208833440999992005070500004-14950-040883FM-12+0840SBQV V0200501N001512200019N0100001N1+01541+99999102331ADDAA106000091GF100991001001999999001001KA1240M+02331MA1999999999999MD1999999-0191REMSYN082AAXX  05004 83344 32997 00503 10154 29203 30182 40233 333 10233 29082 55086 59019;EQDQ01  00002PRCP06Q02 101823APOSP 
0186833440999992005070512004-14950-040883FM-12+0840SBQV V0200501N002612200019N0200001N1+02031+01411101931ADDAA106000091GF104991041011008001001001KA1240N+01771MA1999999092151MD1999999+0031REMSYN076AAXX  05124 83344 32598 40505 10203 20141 39215 40193 84100 333 20177 58003;EQDQ01  00002PRCP06
0167833440999992005070518004-14950-040883FM-12+0840SBQV V0201801N000510042019N0200001N1+02301+01351101511ADDAA106000091GF106991061061004501001001MA1999999091841MD1999999-0061REMSYN070AAXX  05184 83344 32498 61801 10230 20135 39184 40151 86600 333 59006;EQDQ01  00002PRCP06
0192833440999992005070600004-14950-040883FM-12+0840SBQV V0201801N000512200019N0100001N1+01461+01361101891ADDAA106000091GF100991001001999999001001KA1240M+02471MA1999999092101MD1999999+0071REMSYN082AAXX  06004 83344 32997 01801 10146 20136 39210 40189 333 10247 29078 55066 58007;EQDQ01  00002PRCP06
0186833440999992005070612004-14950-040883FM-12+0840SBQV V0200901N001510042019N0200001N1+02001+01541102121ADDAA106000091GF106991061021004501001001KA1240N+01261MA1999999092311MD1999999+0161REMSYN076AAXX  06124 83344 32498 60903 10200 20154 39231 40212 86200 333 20126 58016;EQDQ01  00002PRCP06
0167833440999992005070618004-14950-040883FM-12+0840SBQV V0201801N003110450019N0200001N1+02211+01461101801ADDAA106000091GF106991021021004501051001MA1999999092041MD1999999+0201REMSYN070AAXX  06184 83344 32498 61806 10221 20146 39204 40180 82250 333 58020;EQDQ01  00002PRCP06
0192833440999992005070700004-14950-040883FM-12+0840SBQV V0200901N002112200019N0100001N1+01701+01531102031ADDAA106000091GF100991001001999999001001KA1240M+02391MA1999999092261MD1999999+0161REMSYN082AAXX  07004 83344 32997 00904 10170 20153 39226 40203 333 10239 29079 55062 58016;EQDQ01  00002PRCP06
0186833440999992005070712004-14950-040883FM-12+0840SBQV V0201401N005110042019N0200001N1+01881+01531102221ADDAA106000091GF107991071071004501001001KA1240N+01351MA1999999092401MD1999999+0091REMSYN076AAXX  07124 83344 32498 71410 10188 20153 39240 40222 87700 333 20135 58009;EQDQ01  00002PRCP06
0167833440999992005070718004-14950-040883FM-12+0840SBQV V0201401N002610042019N0200001N1+02071+01521101881ADDAA106000091GF106991061071004501001001MA1999999092131MD1999999+0091REMSYN070AAXX  07184 83344 32498 61405 10207 20152 39213 40188 86700 333 58009;EQDQ01  00002PRCP06
0192833440999992005070800004-14950-040883FM-12+0840SBQV V0201401N000512200019N0100001N1+01441+01301102191ADDAA106000091GF100991001001999999001001KA1240M+02211MA1999999092331MD1999999+0071REMSYN082AAXX  08004 83344 32997 01401 10144 20130 39233 40219 333 10221 29083 55048 58007;EQDQ01  00002PRCP06
0186833440999992005070812004-14950-040883FM-12+0840SBQV V0201801N004610042019N0100001N1+01501+01341102431ADDAA106000091GF108991081071004501999999KA1240N+01281MA1999999092461MD1999999+0061REMSYN076AAXX  08124 83344 32497 81809 10150 20134 39246 40243 887// 333 20128 58006;EQDQ01  00002PRCP06
0167833440999992005070818004-14950-040883FM-12+0840SBQV V0201801N005110042019N0100001N1+01801+01371102141ADDAA106000091GF108991081071004501999999MA1999999092261MD1999999+0131REMSYN070AAXX  08184 83344 32497 81810 10180 20137 39226 40214 887// 333 58013;EQDQ01  00002PRCP06
0202833440999992005070900004-14950-040883FM-12+0840SBQV V0201801N003110021019N0040001N1+01471+01331102431ADDAY151061AY221061GF108991081071002501999999KA1240M+01961MA1999999092491MD1999999+0161MW1501REMSYN100AAXX  09004 83344 21396 81806 10147 20133 39249 40243 75052 887// 333 10196 29087 55019 58016 69961;
0190833440999992005070912004-14950-040883FM-12+0840SBQV V0201801N005710021019N0200001N1+01141+01131102601ADDAY151061AY221061GF108991081071002501999999KA1240N+01071MA1999999092621MD1999999+0161MW1021REMSYN088AAXX  09124 83344 21398 81811 10114 20113 39262 40260 70252 887// 333 20107 58016 60024;
0167833440999992005070918004-14950-040883FM-12+0840SBQV V0201401N005710021019N0200001N1+01741+01191102261ADDAA106000091GF106991061071002501001001MA1999999092341MD1999999+0081REMSYN070AAXX  09184 83344 32398 61411 10174 20119 39234 40226 86700 333 58008;EQDQ01  00002PRCP06
0179833440999992005071000004-14950-040880FM-12+0840SBQV V0201401N001512200019N0100001N1+01301+01171102421ADDAA106000091GF100991001001999999001001MA1999999092421MD1999999-0071REMSYN082AAXX  10004 83344 32997 01403 10130 20117 39242 40242 333 10185 29085 55049 59007;EQDQ01  00002PRCP06
0173833440999992005071012004-14950-040880FM-12+0840SBQV V0201401N004110042019N0200001N1+01481+01211102421ADDAA106000091GF108991081071004501999999MA1999999092441MD1999999-0181REMSYN076AAXX  10124 83344 32498 81408 10148 20121 39244 40242 887// 333 20096 59018;EQDQ01  00002PRCP06
0167833440999992005071018004-14950-040880FM-12+0840SBQV V0201801N005712200019N0200001N1+01981+01301102001ADDAA106000091GF104991021011004501081001MA1999999092121MD1999999-0221REMSYN070AAXX  10184 83344 32498 41811 10198 20130 39212 40200 82180 333 59022;EQDQ01  00002PRCP06
0214833440999992005071100004-14950-040883FM-12+0840SBQV V0201401N001512200019N0100001N1+01461+01261102271ADDAA106000091GF102991999021004501001001KA1240M+02051MA1999999092321MD1999999-0101REMSYN088AAXX  11004 83344 32497 21403 10146 20126 39232 40227 88200 333 10205 29082 55078 59010;EQDQ01+000082SCOTLCQ02  00002PRCP06
0186833440999992005071112004-14950-040883FM-12+0840SBQV V0201401N003610450019N0200001N1+01721+01481102271ADDAA106000091GF108991041071004501021999KA1240N+01251MA1999999092381MD1999999-0061REMSYN076AAXX  11124 83344 32498 81407 10172 20148 39238 40227 8472/ 333 20125 59006;EQDQ01  00002PRCP06
0167833440999992005071118004-14950-040883FM-12+0840SBQV V0201401N003110042019N0200001N1+01981+01611101981ADDAA106000091GF106991061071004501001001MA1999999092161MD1999999+0041REMSYN070AAXX  11184 83344 32498 61406 10198 20161 39216 40198 86700 333 58004;EQDQ01  00002PRCP06
0202833440999992005071200004-14950-040883FM-12+0840SBQV V0201401N003110021019N0040001N1+01581+01521102201ADDAY151061AY221061GF108991081071002501999999KA1240M+02171MA1999999092341MD1999999+0021MW1201REMSYN100AAXX  12004 83344 21396 81406 10158 20152 39234 40220 72052 887// 333 10217 29089 55043 58002 69931;
0190833440999992005071212004-14950-040883FM-12+0840SBQV V0201401N004110021019N0100001N1+01591+01331102301ADDAY151061AY221061GF108991081071002501999999KA1240N+01271MA1999999092411MD1999999+0031MW1031REMSYN088AAXX  12124 83344 21397 81408 10159 20133 39241 40230 70352 887// 333 20127 58003 60024;
0171833440999992005071218004-14950-040883FM-12+0840SBQV V0201801N004610021019N0100001N1+01801+01531102061ADDAY121061AY211061GF108991081071002501999999MA1999999092171MD1999999+0011MW1521REMSYN082AAXX  12184 83344 21397 81809 10180 20153 39217 40206 75221 887// 333 58001 69901;
0179833440999992005071300004-14950-040883FM-12+0840SBQV V0201801N002110021019N0040001N1+01621+01491102161ADDAA106000021GF108991081071002501999999KA1240M+01831MA1999999092281MD1999999-0061REMSYN088AAXX  13004 83344 32396 81804 10162 20149 39228 40216 887// 333 10183 29088 55002 59006;
0190833440999992005071312004-14950-040883FM-12+0840SBQV V0201401N003610021019N0100001N1+01541+01321102241ADDAY151061AY221061GF108991081071002501999999KA1240N+01251MA1999999092351MD1999999-0061MW1201REMSYN088AAXX  13124 83344 21397 81407 10154 20132 39235 40224 72052 887// 333 20125 59006 69904;
0148833440999992005071318004-14950-040883FM-12+0840SBQV V0201401N004110042019N0200001N1+01881+01301101951ADDAA106000021GF106991061071004501001001MA1999999092111MD1999999-0061REMSYN070AAXX  13184 83344 32498 61408 10188 20130 39211 40195 86700 333 59006;
0192833440999992005071400004-14950-040883FM-12+0840SBQV V0201401N002112200019N0100001N1+01341+01111102201ADDAA106000091GF100991001001999999001001KA1240M+01931MA1999999092251MD1999999-0031REMSYN082AAXX  14004 83344 32997 01404 10134 20111 39225 40220 333 10193 29082 55022 59003;EQDQ01  00002PRCP06
0186833440999992005071412004-14950-040883FM-12+0840SBQV V0201401N004110450019N0200001N1+01601+01271102151ADDAA106000091GF108991041041004501051999KA1240N+01101MA1999999092221MD1999999-0131REMSYN076AAXX  14124 83344 32498 81408 10160 20127 39222 40215 8445/ 333 20110 59013;EQDQ01  00002PRCP06
0167833440999992005071418004-14950-040883FM-12+0840SBQV V0201401N003610450019N0200001N1+01781+01411101911ADDAA106000091GF107991041041004501051001MA1999999092021MD1999999-0091REMSYN070AAXX  14184 83344 32498 71407 10178 20141 39202 40191 84450 333 59009;EQDQ01  00002PRCP06
0190833440999992005071512004-14950-040883FM-12+0840SBQV V0201101N020610021019N0040001N1+01601+01501102171ADDAY151061AY221061GF108991081071002501999999KA1240N+01211MA1999999092271MD1999999+0051MW1501REMSYN088AAXX  15124 83344 21396 81140 10160 20150 39227 40217 75052 887// 333 20121 58005 69984;
0171833440999992005071518004-14950-040883FM-12+0840SBQV V0201401N002619999999N0040001N1+01621+01561101981ADDAY151061AY221061GF108991071999002501999999MA1999999092081MD1999999+0061MW1511REMSYN082AAXX  15184 83344 21396 81405 10162 20156 39208 40198 75152 87/// 333 58006 60021;
0202833440999992005071600004-14950-040883FM-12+0840SBQV V0201401N002610042019N0100001N1+01581+01551102111ADDAY151061AY221061GF108991081071004501999999KA1240M+01771MA1999999092241MD1999999+0041MW1021REMSYN100AAXX  16004 83344 21497 81405 10158 20155 39224 40211 70252 887// 333 10177 29096 55000 58004 69941;
0209833440999992005071612004-14950-040883FM-12+0840SBQV V0201401N002119999999N0200001N1+01601+01351102211ADDAY151061AY221061GF107991999081004501001001KA1240N+01071MA1999999092331MD1999999+0061MW1031REMSYN088AAXX  16124 83344 21498 71404 10160 20135 39233 40221 70352 88800 333 20107 58006 60024;EQDQ01+000082SCOTLC
0167833440999992005071618004-14950-040883FM-12+0840SBQV V0201401N003112200019N0200001N1+02071+01411101781ADDAA106000091GF105991031011008001001081MA1999999091961MD1999999-0121REMSYN070AAXX  16184 83344 32598 51406 10207 20141 39196 40178 83108 333 59012;EQDQ01  00002PRCP06
0179833440999992005071700004-14950-040880FM-12+0840SBQV V0209999C000012200019N0100001N1+01361+01231102001ADDAA106000091GF100991001001999999001001MA1999999092101MD1999999-0141REMSYN082AAXX  17004 83344 32997 00000 10136 20123 39210 40200 333 10209 29084 55052 59014;EQDQ01  00002PRCP06
0177833440999992005071712004-14950-040880FM-12+0840SBQV V0200501N001510042019N0100001N1+01461+01331102161ADDAY151061AY221061GF108991081071004501999999MA1999999092201MD1999999-0131MW1201REMSYN088AAXX  17124 83344 21497 80503 10146 20133 39220 40216 72052 887// 333 20097 59013 69914;
0148833440999992005071718004-14950-040880FM-12+0840SBQV V0203601N000512200019N0200001N1+02501+01351101571ADDAA106000021GF102991021011004501001001MA1999999091811MD1999999-0151REMSYN070AAXX  17184 83344 32498 23601 10250 20135 39181 40157 82100 333 59015;
0192833440999992005071800004-14950-040883FM-12+0840SBQV V0201501N002612200019N0100001N1+01601+01441101851ADDAA106000091GF100991001001999999001001KA1240M+02531MA1999999091991MD1999999-0111REMSYN082AAXX  18004 83344 32997 01505 10160 20144 39199 40185 333 10253 29080 55062 59011;EQDQ01  00002PRCP06
0180833440999992005071812004-14950-040883FM-12+0840SBQV V0203601N003612200019N0200001N1+02101+01621101761ADDAA106000091GF100991001001999999001001KA1240N+01291MA1999999092021MD1999999-0181REMSYN070AAXX  18124 83344 32998 03607 10210 20162 39202 40176 333 20129 59018;EQDQ01  00002PRCP06
0167833440999992005071818004-14950-040883FM-12+0840SBQV V0203601N002612200019N0200001N1+02661+01371101311ADDAA106000091GF103991031011004501001001MA1999999091691MD1999999-0121REMSYN070AAXX  18184 83344 32498 33605 10266 20137 39169 40131 83100 333 59012;EQDQ01  00002PRCP06
0192833440999992005071900004-14950-040883FM-12+0840SBQV V0200501N002112200019N0100001N1+01721+01501101571ADDAA106000091GF100991001001999999001001KA1240M+02701MA1999999091871MD1999999-0121REMSYN082AAXX  19004 83344 32997 00504 10172 20150 39187 40157 333 10270 29073 55101 59012;EQDQ01  00002PRCP06
0180833440999992005071912004-14950-040883FM-12+0840SBQV V0200501N001012200019N0200001N1+02071+01281101871ADDAA106000091GF100991001001999999001001KA1240N+00991MA1999999092141MD1999999+0121REMSYN070AAXX  19124 83344 32998 00502 10207 20128 39214 40187 333 20099 58012;EQDQ01  00002PRCP06
0131833440999992005071918004-14950-040883FM-12+0840SBQV V0201401N003112200019N0200001N1+02471+01121101601ADDGF100991001001999999001001MA1999999091871MD1999999+0181REMSYN064AAXX  19184 83344 32998 01406 10247 20112 39187 40160 333 58018;
0162833440999992005072000004-14950-040883FM-12+0840SBQV V0200901N002112200019N0100001N1+01621+01241101831ADDGF100991001001999999001001KA1240M+02581MA1999999092081MD1999999+0211REMSYN082AAXX  20004 83344 32997 00904 10162 20124 39208 40183 333 10258 29065 55091 58021;
0156833440999992005072012004-14950-040883FM-12+0840SBQV V0201401N005110075019N0200001N1+01861+01371102111ADDGF106991061021008001001001KA1240N+01091MA1999999092301MD1999999+0161REMSYN076AAXX  20124 83344 32598 61410 10186 20137 39230 40211 86200 333 20109 58016;
0137833440999992005072018004-14950-040883FM-12+0840SBQV V0200501N004610042019N0200001N1+01861+01641101811ADDGF108991081071004501999999MA1999999091971MD1999999+0101REMSYN070AAXX  20184 83344 32498 80509 10186 20164 39197 40181 887// 333 58010;
0168833440999992005072100004-14950-040883FM-12+0840SBQV V0201401N003110021019N0100001N1+01741+01681101901ADDGF108991081071002501999999KA1240M+02051MA1999999092131MD1999999+0051REMSYN088AAXX  21004 83344 32397 81406 10174 20168 39213 40190 887// 333 10205 29088 55029 58005;
0201833440999992005072112004-14950-040883FM-12+0840SBQV V0201401N003610021019N0100001N1+01661+01561102161ADDAA124000021AY151061AY221061GF108991081071002501999999KA1240N+01471MA1999999092331MD1999999+0031MW1511REMSYN088AAXX  21124 83344 21397 81407 10166 20156 39233 40216 75152 887// 333 20147 58003 69904;
0182833440999992005072118004-14950-040883FM-12+0840SBQV V0201401N005710021019N0040001N1+01821+01641101921ADDAA106999999AY151061AY221061GF108991081071002501999999MA1999999092131MD1999999+0161MW1161REMSYN082AAXX  21184 83344 21396 81411 10182 20164 39213 40192 71652 887// 333 58016 69901;
0213833440999992005072200004-14950-040883FM-12+0840SBQV V0201401N003610021019N0040001N1+01681+01581102171ADDAA106002091AY151061AY221061GF108991081071002501001001KA1240M+01951MA1999999092311MD1999999+0181MW1201REMSYN100AAXX  22004 83344 21396 81407 10168 20158 39231 40217 72052 88700 333 10195 29093 55003 58018 60021;
0201833440999992005072212004-14950-040883FM-12+0840SBQV V0201401N003611050019N0200001N1+01771+01521102241ADDAA124002091AY151061AY221061GF106991041031004501001091KA1240N+01401MA1999999092391MD1999999+0061MW1021REMSYN088AAXX  22124 83344 21498 61407 10177 20152 39239 40224 70252 84309 333 20140 58006 60024;
0137833440999992005072218004-14950-040883FM-12+0840SBQV V0201401N002110042019N0200001N1+02031+01621101911ADDGF108991081071004501999999MA1999999092141MD1999999-0011REMSYN070AAXX  22184 83344 32498 81404 10203 20162 39214 40191 887// 333 59001;
0213833440999992005072300004-14950-040883FM-12+0840SBQV V0201401N002110021019N0040001N1+01741+01611102031ADDAA106000591AY151061AY221061GF108991081071002501999999KA1240M+02181MA1999999092231MD1999999-0081MW1201REMSYN100AAXX  23004 83344 21396 81404 10174 20161 39223 40203 72052 887// 333 10218 29087 55044 59008 69951;
0201833440999992005072312004-14950-040883FM-12+0840SBQV V0201401N005110021019N0100001N1+01801+01691102181ADDAA124003091AY161061AY251061GF108991081071002501999999KA1240N+01471MA1999999092361MD1999999-0031MW1201REMSYN088AAXX  23124 83344 21397 81410 10180 20169 39236 40218 72065 887// 333 20147 59003 60034;
0200833440999992005072400004-14950-040880FM-12+0840SBQV V0200901N000510042019N0100001N1+01621+01541102081ADDAA106002091AY161061AY251061GF108991081071004501999999MA1999999092251MD1999999+0021MW1021REMSYN100AAXX  24004 83344 21497 80901 10162 20154 39225 40208 70265 887// 333 10211 29090 55024 58002 60021;
0188833440999992005072412004-14950-040880FM-12+0840SBQV V0201401N002610042019N0200001N1+01861+01621102181ADDAA124003091AY151061AY221061GF106991061031004501001001MA1999999092361MD1999999+0001MW1021REMSYN088AAXX  24124 83344 21498 61405 10186 20162 39236 40218 70252 86300 333 20119 58000 60034;
0182833440999992005072418004-14950-040880FM-12+0840SBQV V0200901N003110042019N0200001N1+02161+01541101971ADDAA106999999AY151061AY221061GF107991071061004501001001MA1999999092171MD1999999+0101MW1031REMSYN082AAXX  24184 83344 21498 70906 10216 20154 39217 40197 70352 87600 333 58010 69911;
0149833440999992005072500004-14950-040880FM-12+0840SBQV V0200501N001512200019N0100001N1+01481+01351102161ADDGF100991001001999999001001MA1999999092301MD1999999+0051REMSYN082AAXX  25004 83344 32997 00503 10148 20135 39230 40216 333 10221 29084 55054 58005;
0201833440999992005072512004-14950-040883FM-12+0840SBQV V0200901N003110042019N0200001N1+01841+01531102271ADDAA124001091AY151061AY221061GF107991071071004501001001KA1240N+01071MA1999999092401MD1999999+0041MW1031REMSYN088AAXX  25124 83344 21498 70906 10184 20153 39240 40227 70352 87700 333 20107 58004 60014;
0137833440999992005072518004-14950-040883FM-12+0840SBQV V0200901N001510021019N0200001N1+02211+01581101901ADDGF106991061061002501001001MA1999999092111MD1999999-0061REMSYN070AAXX  25184 83344 32398 60903 10221 20158 39211 40190 86600 333 59006;
0168833440999992005072600004-14950-040883FM-12+0840SBQV V0200901N002112200019N0100001N1+01721+01591102161ADDGF104991041051008001001001KA1240M+02261MA1999999092361MD1999999+0061REMSYN088AAXX  26004 83344 32597 40904 10172 20159 39236 40216 84500 333 10226 29085 55049 58006;
0150833440999992005072612004-14950-040883FM-12+0840SBQV V0201401N002112200019N0200001N1+01891+01571102141ADDGF100991001001999999001001KA1240N+01301MA1999999092351MD1999999-0051REMSYN070AAXX  26124 83344 32498 01404 10189 20157 39235 40214 333 20130 59005;
0137833440999992005072618004-14950-040883FM-12+0840SBQV V0201401N003112200019N0200001N1+02431+01491101701ADDGF102991021011004501001001MA1999999092011MD1999999-0101REMSYN070AAXX  26184 83344 32498 21406 10243 20149 39201 40170 82100 333 59010;
0162833440999992005072700004-14950-040883FM-12+0840SBQV V0200901N002612200019N0100001N1+01681+01551102051ADDGF100991001001999999001001KA1240M+02521MA1999999092261MD1999999-0101REMSYN082AAXX  27004 83344 32997 00905 10168 20155 39226 40205 333 10252 29080 55093 59010;
0156833440999992005072712004-14950-040883FM-12+0840SBQV V0201401N003112200019N0200001N1+01921+01471102301ADDGF104991021021008001081001KA1240N+01191MA1999999092471MD1999999+0121REMSYN076AAXX  27124 83344 32598 41406 10192 20147 39247 40230 82280 333 20119 58012;
0137833440999992005072718004-14950-040883FM-12+0840SBQV V0201401N003112200019N0200001N1+02311+01381101941ADDGF104991041011008001001001MA1999999092181MD1999999+0171REMSYN070AAXX  27184 83344 32598 41406 10231 20138 39218 40194 84100 333 58017;
0162833440999992005072800004-14950-040883FM-12+0840SBQV V0200901N001512200019N0100001N1+01421+01341102221ADDGF100991001001999999001001KA1240M+02351MA1999999092351MD1999999+0091REMSYN082AAXX  28004 83344 32997 00903 10142 20134 39235 40222 333 10235 29080 55097 58009;
0156833440999992005072812004-14950-040883FM-12+0840SBQV V0201401N002610042019N0200001N1+01801+01541102341ADDGF106991061061004501001001KA1240N+01311MA1999999092451MD1999999-0021REMSYN076AAXX  28124 83344 32498 61405 10180 20154 39245 40234 86600 333 20131 59002;
0137833440999992005072818004-14950-040883FM-12+0840SBQV V0201401N004110450019N0200001N1+02211+01581101991ADDGF106991041061004501051001MA1999999092211MD1999999+0031REMSYN070AAXX  28184 83344 32498 61408 10221 20158 39221 40199 84650 333 58003;
0162833440999992005072900004-14950-040883FM-12+0840SBQV V0200901N003112200019N0100001N1+01741+01661102141ADDGF100991001001999999001001KA1240M+02351MA1999999092331MD1999999-0021REMSYN082AAXX  29004 83344 32997 00906 10174 20166 39233 40214 333 10235 29086 55063 59002;
0137833440999992005072918004-14950-040883FM-12+0840SBQV V0200501N003110042019N0200001N1+02031+01561101921ADDGF108991081071004501999999MA1999999092161MD1999999-0051REMSYN070AAXX  29184 83344 32498 80506 10203 20156 39216 40192 887// 333 59005;
0213833440999992005073000004-14950-040883FM-12+0840SBQV V0201401N001510021019N0040001N1+01601+01501102251ADDAA106001091AY161061AY251061GF108991081071002501999999KA1240M+02311MA1999999092431MD1999999+0101MW1511REMSYN100AAXX  30004 83344 21396 81403 10160 20150 39243 40225 75165 887// 333 10231 29086 55048 58010 60011;
0188833440999992005073012004-14950-040880FM-12+0840SBQV V0200901N003110042019N0200001N1+01841+01601102311ADDAA124001091AY161061AY251061GF106991061071004501001001MA1999999092451MD1999999-0011MW1031REMSYN088AAXX  30124 83344 21498 60906 10184 20160 39245 40231 70365 86700 333 20131 59001 60014;
0137833440999992005073018004-14950-040880FM-12+0840SBQV V0201401N002110075019N0200001N1+02131+01461101861ADDGF106991061041008001001001MA1999999092111MD1999999-0051REMSYN070AAXX  30184 83344 32598 61404 10213 20146 39211 40186 86400 333 59005;
0155833440999992005073100004-14950-040880FM-12+0840SBQV V0200901N001010042019N0040001N1+01601+01541102181ADDGF106991061061004501001001MA1999999092351MD1999999-0081REMSYN088AAXX  31004 83344 32496 60902 10160 20154 39235 40218 86600 333 10221 29086 55044 59008;
0143833440999992005073112004-14950-040880FM-12+0840SBQV V0201401N005710042019N0200001N1+01641+01221102291ADDGF106991061021004501001001MA1999999092401MD1999999-0051REMSYN076AAXX  31124 83344 32498 61411 10164 20122 39240 40229 86200 333 20123 59005;
0137833440999992005073118004-14950-040883FM-12+0840SBQV V0201401N002612200019N0200001N1+02091+01031101831ADDGF102991021011004501001001MA1999999092051MD1999999-0061REMSYN070AAXX  31184 83344 32498 21405 10209 20103 39205 40183 82100 333 59006;
0162833440999992005080100004-14950-040883FM-12+0840SBQV V0200401N002612200019N0100001N1+01441+01241102161ADDGF101991999999999999999999KA1240M+02141MA1999999092261MD1999999-0091REMSYN082AAXX  01004 83344 32997 10405 10144 20124 39226 40216 333 10214 29076 55101 59009;
0201833440999992005080112004-14950-040883FM-12+0840SBQV V0201401N003110021019N0040001N1+01671+01551102321ADDAA124001091AY151061AY221061GF108991081071002501999999KA1240N+01231MA1999999092411MD1999999+0011MW1201REMSYN088AAXX  01124 83344 21396 81406 10167 20155 39241 40232 72052 887// 333 20123 58001 60014;
0182833440999992005080118004-14950-040883FM-12+0840SBQV V0200901N004110042019N0200001N1+01991+01521101941ADDAA106002091AY161061AY221061GF108991081071004501999999MA1999999092151MD1999999+0101MW1021REMSYN082AAXX  01184 83344 21498 80908 10199 20152 39215 40194 70262 887// 333 58010 60021;
0213833440999992005080200004-14950-040883FM-12+0840SBQV V0201401N001510042019N0040001N1+01601+01541102141ADDAA106001091AY151061AY221061GF108991081071004501999999KA1240M+02091MA1999999092281MD1999999+0021MW1021REMSYN100AAXX  02004 83344 21496 81403 10160 20154 39228 40214 70252 887// 333 10209 29090 55014 58002 60011;
0201833440999992005080212004-14950-040883FM-12+0840SBQV V0201401N004610042019N0040001N1+01581+01481102181ADDAA124006191AY161061AY251061GF108991081071004501999999KA1240N+01311MA1999999092301MD1999999-0111MW1021REMSYN088AAXX  02124 83344 21496 81409 10158 20148 39230 40218 70265 887// 333 20131 59011 60064;
0182833440999992005080218004-14950-040883FM-12+0840SBQV V0201401N005110042019N0200001N1+02081+01261101881ADDAA106999999AY151061AY221061GF105991051021004501001001MA1999999092091MD1999999-0061MW1021REMSYN082AAXX  02184 83344 21498 51410 10208 20126 39209 40188 70252 85200 333 59006 69921;
0168833440999992005080300004-14950-040883FM-12+0840SBQV V0201401N003110075019N0200001N1+01641+01511102161ADDGF106991061051008001001001KA1240M+02221MA1999999092281MD1999999+0001REMSYN088AAXX  03004 83344 32598 61406 10164 20151 39228 40216 86500 333 10222 29085 55059 58000;
0201833440999992005080312004-14950-040883FM-12+0840SBQV V0201401N003610450019N0100001N1+01701+01481102231ADDAA124000891AY161061AY251061GF108991041071004501021999KA1240N+01271MA1999999092361MD1999999+0061MW1021REMSYN088AAXX  03124 83344 21497 81407 10170 20148 39236 40223 70265 8472/ 333 20127 58006 69974;
0182833440999992005080318004-14950-040883FM-12+0840SBQV V0200901N005110021019N0100001N1+01901+01551101931ADDAA106999999AY161061AY251061GF108991081071002501999999MA1999999092121MD1999999-0031MW1201REMSYN082AAXX  03184 83344 21397 80910 10190 20155 39212 40193 72065 887// 333 59003 69921;
0213833440999992005080400004-14950-040883FM-12+0840SBQV V0201401N003110021019N0010001N1+01661+01561102061ADDAA106999999AY151061AY221061GF106991061071002501001001KA1240M+02031MA1999999092241MD1999999-0041MW1501REMSYN100AAXX  04004 83344 21394 61406 10166 20156 39224 40206 75052 86700 333 10203 29089 55023 59004 69911;
0201833440999992005080412004-14950-040883FM-12+0840SBQV V0200901N003610042019N0200001N1+01741+01391102341ADDAA124001091AY151061AY221061GF106991061041004501001001KA1240N+01331MA1999999092481MD1999999+0121MW1011REMSYN088AAXX  04124 83344 21498 60907 10174 20139 39248 40234 70152 86400 333 20133 58012 69994;
0182833440999992005080418004-14950-040883FM-12+0840SBQV V0200901N003110042019N0200001N1+01841+01661102061ADDAA106999999AY151061AY221061GF108991081071004501999999MA1999999092241MD1999999+0121MW1521REMSYN082AAXX  04184 83344 21498 80906 10184 20166 39224 40206 75252 887// 333 58012 69921;
0213833440999992005080500004-14950-040883FM-12+0840SBQV V0201401N003112200019N0040001N1+01601+01541102251ADDAA106003091AY161061AY221061GF104991041041004501001001KA1240M+02071MA1999999092381MD1999999+0141MW1521REMSYN100AAXX  05004 83344 21496 41406 10160 20154 39238 40225 75262 84400 333 10207 29090 55044 58014 60031;
0201833440999992005080512004-14950-040883FM-12+0840SBQV V0201401N003610042019N0200001N1+01821+01451102331ADDAA124003091AY151061AY221061GF106991061061004501001001KA1240N+01251MA1999999092471MD1999999-0011MW1021REMSYN088AAXX  05124 83344 21498 61407 10182 20145 39247 40233 70252 86600 333 20125 59001 60034;
0137833440999992005080518004-14950-040883FM-12+0840SBQV V0201401N002610042019N0200001N1+02091+01491102031ADDGF106991061031004501001001MA1999999092231MD1999999-0011REMSYN070AAXX  05184 83344 32498 61405 10209 20149 39223 40203 86300 333 59001;
0168833440999992005080600004-14950-040883FM-12+0840SBQV V0209999C000012200019N0100001N1+01631+01511102151ADDGF102991021021999999001001KA1240M+02171MA1999999092321MD1999999-0061REMSYN088AAXX  06004 83344 32997 20000 10163 20151 39232 40215 82200 333 10217 29083 55059 59006;
0201833440999992005080612004-14950-040883FM-12+0840SBQV V0201401N004610042019N0200001N1+01741+01501102281ADDAA124002091AY151061AY221061GF107991071071004501001001KA1240N+01391MA1999999092431MD1999999-0041MW1201REMSYN088AAXX  06124 83344 21498 71409 10174 20150 39243 40228 72052 87700 333 20139 59004 60024;
0137833440999992005080618004-14950-040883FM-12+0840SBQV V0201401N003110450019N0200001N1+02091+01451101881ADDGF105991031011008001081001MA1999999092131MD1999999-0101REMSYN070AAXX  06184 83344 32598 51406 10209 20145 39213 40188 83180 333 59010;
0149833440999992005080700004-14950-040880FM-12+0840SBQV V0209999C000012200019N0100001N1+01321+01181102201ADDGF100991001001999999001001MA1999999092301MD1999999-0021REMSYN082AAXX  07004 83344 32997 00000 10132 20118 39230 40220 333 10225 29084 55072 59002;
0143833440999992005080712004-14950-040880FM-12+0840SBQV V0201401N003612200019N0200001N1+01821+01391102311ADDGF104991021011004501081001MA1999999092491MD1999999-0031REMSYN076AAXX  07124 83344 32498 41407 10182 20139 39249 40231 82180 333 20113 59003;
0137833440999992005080718004-14950-040880FM-12+0840SBQV V0201401N003112200019N0200001N1+02111+01511101841ADDGF104991041011004501001001MA1999999092041MD1999999-0091REMSYN070AAXX  07184 83344 32498 41406 10211 20151 39204 40184 84100 333 59009;
0178833440999992005080800004-14950-040883FM-12+0840SBQV V0200901N000512200019N0040001N1+01391+01301102031ADDGA1001+999999999GF100991001001999999001001KA1240M+02211MA1999999092211MD1999999-0091REMSYN082AAXX  08004 83344 32996 00901 10139 20130 39221 40203 333 10221 29079 55072 59009;
0156833440999992005080812004-14950-040883FM-12+0840SBQV V0200901N002610042019N0200001N1+01921+01471102121ADDGF106991061021004501001001KA1240N+01251MA1999999092311MD1999999-0091REMSYN076AAXX  08124 83344 32498 60905 10192 20147 39231 40212 86200 333 20125 59009;
0137833440999992005080818004-14950-040883FM-12+0840SBQV V0201401N003110450019N0200001N1+02161+01541101651ADDGF106991041041004501051001MA1999999091951MD1999999-0091REMSYN070AAXX  08184 83344 32498 61406 10216 20154 39195 40165 84450 333 59009;
0213833440999992005080900004-14950-040883FM-12+0840SBQV V0200901N002610042019N0100001N1+01551+01431101951ADDAA106999999AY151061AY221061GF106991061071004501001001KA1240M+02311MA1999999092151MD1999999-0061MW1201REMSYN100AAXX  09004 83344 21497 60905 10155 20143 39215 40195 72052 86700 333 10231 29082 55046 59006 69921;
0201833440999992005080912004-14950-040883FM-12+0840SBQV V0201401N002110042019N0200001N1+01751+01521102171ADDAA124000891AY161061AY251061GF107991071071004501001001KA1240N+01291MA1999999092311MD1999999+0001MW1031REMSYN088AAXX  09124 83344 21498 71404 10175 20152 39231 40217 70365 87700 333 20129 58000 69984;
0182833440999992005080918004-14950-040883FM-12+0840SBQV V0200901N003610075019N0200001N1+02091+01601101691ADDAA106999999AY161061AY221061GF105991051061008001001001MA1999999091941MD1999999-0011MW1031REMSYN082AAXX  09184 83344 21598 50907 10209 20160 39194 40169 70362 85600 333 59001 69921;
0168833440999992005081000004-14950-040883FM-12+0840SBQV V0201401N000510042019N0040001N1+01521+01441102021ADDGF108991081071004501999999KA1240M+02191MA1999999092171MD1999999+0021REMSYN088AAXX  10004 83344 32496 81401 10152 20144 39217 40202 887// 333 10219 29088 55040 58002;
0192833440999992005081012004-14950-040883FM-12+0840SBQV V0200501N003112200019N0200001N1+01991+01541102011ADDAA124000091GF106991041061008001001011KA1240N+01251MA1999999092211MD1999999-0101REMSYN082AAXX  10124 83344 22598 60506 10199 20154 39221 40201 84601 333 20125 59010 69924;EQDQ01  00002PRCP24
0137833440999992005081018004-14950-040883FM-12+0840SBQV V0201401N003110450019N0200001N1+02211+01721101671ADDGF106991041071004501081001MA1999999091941MD1999999+0001REMSYN070AAXX  10184 83344 32498 61406 10221 20172 39194 40167 84780 333 58000;
0142833440999992005081100004-14950-040883FM-12+0840SBQV V0200901N003119999999N0100001N1+01801+01741101891ADDKA1240M+02371MA1999999092151MD1999999-0021REMSYN088AAXX  11004 83344 32/97 /0906 10180 20174 39215 40189 8//// 333 10237 29086 55044 59002;
0142833440999992005081112004-14950-040883FM-12+0840SBQV V0200501N003610450019N0200001N1+02001+01601101971ADDGF106991021021004501051001KA1240N+01451MA1999999092231REMSYN076AAXX  11124 83344 32498 60507 10200 20160 39223 40197 82250 333 20145 58700;
0137833440999992005081118004-14950-040883FM-12+0840SBQV V0200901N003110450019N0200001N1+02511+01561101591ADDGF107991031021004501051091MA1999999091951MD1999999+0011REMSYN070AAXX  11184 83344 32498 70906 10251 20156 39195 40159 83259 333 58001;
0178833440999992005081200004-14950-040883FM-12+0840SBQV V0200901N003112200019N0100001N1+01761+01491101881ADDGA1001+999999999GF100991001001999999001001KA1240M+02571MA1999999092121MD1999999-0031REMSYN082AAXX  12004 83344 32997 00906 10176 20149 39212 40188 333 10257 29076 55074 59003;
0156833440999992005081212004-14950-040883FM-12+0840SBQV V0200501N003110042019N0100001N1+01961+01591101931ADDGF108991081071004501999999KA1240N+01371MA1999999092171MD1999999-0061REMSYN076AAXX  12124 83344 32497 80506 10196 20159 39217 40193 887// 333 20137 59006;
0137833440999992005081218004-14950-040883FM-12+0840SBQV V0201401N003110450019N0200001N1+02361+01851101491ADDGF106991041021008001011051MA1999999091801MD1999999-0151REMSYN070AAXX  12184 83344 32598 61406 10236 20185 39180 40149 84215 333 59015;
0168833440999992005081300004-14950-040883FM-12+0840SBQV V0200901N003110042019N0100001N1+01861+01711101821ADDGF106991061071004501001001KA1240M+02491MA1999999092091MD1999999-0031REMSYN088AAXX  13004 83344 32497 60906 10186 20171 39209 40182 86700 333 10249 29084 55076 59003;
0143833440999992005081312004-14950-040880FM-12+0840SBQV V0200901N002610042019N0200001N1+02031+01521101831ADDGF106991061041004501001001MA1999999092131MD1999999-0041REMSYN076AAXX  13124 83344 32498 60905 10203 20152 39213 40183 86400 333 20143 59004;
0137833440999992005081318004-14950-040880FM-12+0840SBQV V0200901N002610450019N0200001N1+02371+01541101511ADDGF106991021041004501091001MA1999999091851MD1999999+0051REMSYN070AAXX  13184 83344 32498 60905 10237 20154 39185 40151 82490 333 58005;
0155833440999992005081400004-14950-040880FM-12+0840SBQV V0200901N001512200019N0040001N1+01641+01481101741ADDGF102991021001012501031001MA1999999092001MD1999999-0091REMSYN088AAXX  14004 83344 32696 20903 10164 20148 39200 40174 82030 333 10247 29066 55078 59009;
0143833440999992005081412004-14950-040880FM-12+0840SBQV V0201401N003610042019N0200001N1+02011+01481101971ADDGF106991061021004501001001MA1999999092191MD1999999+0061REMSYN076AAXX  14124 83344 32498 61407 10201 20148 39219 40197 86200 333 20143 58006;
0137833440999992005081418004-14950-040880FM-12+0840SBQV V0201401N003610450019N0200001N1+02371+01351101591ADDGF105991031021004501051001MA1999999091931MD1999999+0081REMSYN070AAXX  14184 83344 32498 51407 10237 20135 39193 40159 83250 333 58008;
0149833440999992005081500004-14950-040880FM-12+0840SBQV V0201401N001512200019N0100001N1+01601+01291101921ADDGF100991001001999999001001MA1999999092151MD1999999+0151REMSYN082AAXX  15004 83344 32997 01403 10160 20129 39215 40192 333 10245 29072 55092 58015;
0143833440999992005081512004-14950-040880FM-12+0840SBQV V0200901N003110042019N0200001N1+01761+01471102171ADDGF108991081071004501999999MA1999999092341MD1999999+0151REMSYN076AAXX  15124 83344 32498 80906 10176 20147 39234 40217 887// 333 20131 58015;
0137833440999992005081518004-14950-040880FM-12+0840SBQV V0200901N002612200019N0200001N1+02371+01491101781ADDGF102991021011004501001001MA1999999092101MD1999999+0171REMSYN070AAXX  15184 83344 32498 20905 10237 20149 39210 40178 82100 333 58017;
0168833440999992005081600004-14950-040883FM-12+0840SBQV V0200901N001512200019N0200001N1+01801+01671102091ADDGF104991021011004501041001KA1240M+02431MA1999999092301MD1999999+0151REMSYN088AAXX  16004 83344 32498 40903 10180 20167 39230 40209 82140 333 10243 29081 55082 58015;
0201833440999992005081612004-14950-040883FM-12+0840SBQV V0200901N004110042019N0200001N1+01861+01601102151ADDAA124001091AY151061AY221061GF108991081071004501999999KA1240N+01531MA1999999092371MD1999999+0031MW1021REMSYN088AAXX  16124 83344 21498 80908 10186 20160 39237 40215 70252 887// 333 20153 58003 69994;
0137833440999992005081618004-14950-040883FM-12+0840SBQV V0201401N004610042019N0200001N1+02191+01601101801ADDGF106991061061004501001001MA1999999092101MD1999999+0001REMSYN070AAXX  16184 83344 32498 61409 10219 20160 39210 40180 86600 333 58000;
0213833440999992005081700004-14950-040883FM-12+0840SBQV V0200901N002112200019N0040001N1+01641+01601102101ADDAA106000391AY151061AY221061GF104991041061004501001001KA1240M+02251MA1999999092291MD1999999-0011MW1011REMSYN100AAXX  17004 83344 21496 40904 10164 20160 39229 40210 70152 84600 333 10225 29088 55043 59001 69931;
0201833440999992005081712004-14950-040883FM-12+0840SBQV V0201401N002110042019N0040001N1+01821+01671102081ADDAA124000591AY151061AY221061GF108991081071004501999999KA1240N+01421MA1999999092271MD1999999-0101MW1501REMSYN088AAXX  17124 83344 21496 81404 10182 20167 39227 40208 75052 887// 333 20142 59010 69964;
0182833440999992005081718004-14950-040883FM-12+0840SBQV V0201401N002610042019N0200001N1+02571+01731101581ADDAA106000391AY151061AY221061GF106991061041004501001001MA1999999091971MD1999999-0131MW1021REMSYN082AAXX  17184 83344 21498 61405 10257 20173 39197 40158 70252 86400 333 59013 69931;
0168833440999992005081800004-14950-040883FM-12+0840SBQV V0201401N002110021019N0040001N1+01781+01681101961ADDGF108991081071002501999999KA1240M+02471MA1999999092161MD1999999-0111REMSYN088AAXX  18004 83344 32396 81404 10178 20168 39216 40196 887// 333 10247 29085 55051 59011;
0201833440999992005081812004-14950-040883FM-12+0840SBQV V0200901N004110042019N0200001N1+01921+01591102051ADDAA124001091AY151061AY221061GF106991061071004501001001KA1240N+01491MA1999999092281MD1999999+0011MW1031REMSYN088AAXX  18124 83344 21498 60908 10192 20159 39228 40205 70352 86700 333 20149 58001 60014;
0137833440999992005081818004-14950-040883FM-12+0840SBQV V0201401N003610450019N0200001N1+02191+01611101711ADDGF106991041061002501041001MA1999999092021MD1999999+0051REMSYN070AAXX  18184 83344 32398 61407 10219 20161 39202 40171 84640 333 58005;
0168833440999992005081900004-14950-040883FM-12+0840SBQV V0201401N002110042019N0100001N1+01701+01601101941ADDGF108991081071004501999999KA1240M+02351MA1999999092161MD1999999-0021REMSYN088AAXX  19004 83344 32497 81404 10170 20160 39216 40194 887// 333 10235 29085 55047 59002;
0201833440999992005081912004-14950-040883FM-12+0840SBQV V0201401N002110042019N0100001N1+01741+01571102181ADDAA124000591AY151061AY221061GF108991081071004501999999KA1240N+01191MA1999999092351MD1999999+0071MW1521REMSYN088AAXX  19124 83344 21497 81404 10174 20157 39235 40218 75252 887// 333 20119 58007 69954;
0182833440999992005081918004-14950-040883FM-12+0840SBQV V0200901N005112200019N0200001N1+02271+01281102101ADDAA106999999AY151061AY221061GF104991021011004501031001MA1999999092081MD1999999+0061MW1011REMSYN082AAXX  19184 83344 21498 40910 10227 20128 39208 40210 70152 82130 333 58006 69921;
0168833440999992005082000004-14950-040883FM-12+0840SBQV V0200901N001510042019N0040001N1+01761+01641102101ADDGF106991061071004501001001KA1240M+02351MA1999999092291MD1999999+0131REMSYN088AAXX  20004 83344 32496 60903 10176 20164 39229 40210 86700 333 10235 29079 55053 58013;
0173833440999992005082012004-14950-040883FM-12+0840SBQV V0200901N002110042019N0200001N1+01781+01451102161ADDAA124000021GF106991061071004501001001KA1240N+01031MA1999999092351MD1999999+0001REMSYN082AAXX  20124 83344 22498 60904 10178 20145 39235 40216 86700 333 20103 58000 69924;
0137833440999992005082018004-14950-040883FM-12+0840SBQV V0200901N003610042019N0200001N1+01981+01531101761ADDGF107991071071004501001001MA1999999092081MD1999999+0001REMSYN070AAXX  20184 83344 32498 70907 10198 20153 39208 40176 87700 333 58000;
0200833440999992005082100004-14950-040880FM-12+0840SBQV V0200501N001510042019N0100001N1+01601+01501102071ADDAA106000591AY151061AY221061GF108991081071004501999999MA1999999092251MD1999999-0041MW1031REMSYN100AAXX  21004 83344 21497 80503 10160 20150 39225 40207 70352 887// 333 10217 29086 55042 59004 69941;
0188833440999992005082112004-14950-040880FM-12+0840SBQV V0201401N003110021019N0040001N1+01701+01591102141ADDAA124001091AY151061AY221061GF108991081071002501999999MA1999999092281MD1999999-0071MW1021REMSYN088AAXX  21124 83344 21396 81406 10170 20159 39228 40214 70252 887// 333 20121 59007 60014;
0137833440999992005082118004-14950-040880FM-12+0840SBQV V0201401N004610042019N0200001N1+02131+01481101691ADDGF106991061061004501001001MA1999999091941MD1999999-0141REMSYN070AAXX  21184 83344 32498 61409 10213 20148 39194 40169 86600 333 59014;
0213833440999992005082200004-14950-040883FM-12+0840SBQV V0201401N003612200019N0100001N1+01681+01521101961ADDAA106999999AY151061AY221061GF102991021031004501001001KA1240M+02211MA1999999092151MD1999999-0101MW1021REMSYN100AAXX  22004 83344 21497 21407 10168 20152 39215 40196 70252 82300 333 10221 29085 55047 59010 69911;
0201833440999992005082212004-14950-040883FM-12+0840SBQV V0201401N004610042019N0200001N1+01651+01511102171ADDAA124001091AY151061AY221061GF108991081071004501999999KA1240N+01391MA1999999092311MD1999999+0031MW1021REMSYN088AAXX  22124 83344 21498 81409 10165 20151 39231 40217 70252 887// 333 20139 58003 60014;
0137833440999992005082218004-14950-040883FM-12+0840SBQV V0201401N004610042019N0200001N1+01941+01401101771ADDGF106991061071004501001001MA1999999091991MD1999999+0051REMSYN070AAXX  22184 83344 32498 61409 10194 20140 39199 40177 86700 333 58005;
0178833440999992005082300004-14950-040883FM-12+0840SBQV V0201801N001512200019N0040001N1+01481+01331102071ADDGA1001+999999999GF100991001001999999001001KA1240M+02111MA1999999092181MD1999999+0031REMSYN082AAXX  23004 83344 32996 01803 10148 20133 39218 40207 333 10211 29086 55039 58003;
0201833440999992005082312004-14950-040883FM-12+0840SBQV V0201401N001510021019N0040001N1+01701+01531102171ADDAA124000391AY151061AY221061GF108991081071002501999999KA1240N+01131MA1999999092291MD1999999-0021MW1501REMSYN088AAXX  23124 83344 21396 81403 10170 20153 39229 40217 75052 887// 333 20113 59002 69934;
0137833440999992005082318004-14950-040883FM-12+0840SBQV V0200901N003110042019N0200001N1+02131+01641101811ADDGF108991081071004501999999MA1999999092011MD1999999+0021REMSYN070AAXX  23184 83344 32498 80906 10213 20164 39201 40181 887// 333 58002;
0213833440999992005082400004-14950-040883FM-12+0840SBQV V0200901N002610042019N0040001N1+01741+01681102001ADDAA106000891AY151061AY221061GF108991081071004501001001KA1240M+02251MA1999999092181MD1999999+0001MW1021REMSYN100AAXX  24004 83344 21496 80905 10174 20168 39218 40200 70252 88700 333 10225 29089 55015 58000 69981;
0201833440999992005082412004-14950-040883FM-12+0840SBQV V0200901N002610021019N0100001N1+01801+01651102081ADDAA124002091AY151061AY221061GF108991081071002501001001KA1240N+01471MA1999999092271MD1999999-0021MW1201REMSYN088AAXX  24124 83344 21397 80905 10180 20165 39227 40208 72052 88700 333 20147 59002 60024;
0137833440999992005082418004-14950-040883FM-12+0840SBQV V0201401N003110075019N0200001N1+02051+01451101871ADDGF105991051041008001081001MA1999999092121MD1999999+0111REMSYN070AAXX  24184 83344 32598 51406 10205 20145 39212 40187 85480 333 58011;
0178833440999992005082500004-14950-040883FM-12+0840SBQV V0200901N003112200019N0100001N1+01581+01351101971ADDGA1001+999999999GF100991001001999999001001KA1240M+02171MA1999999092151MD1999999-0031REMSYN082AAXX  25004 83344 32997 00906 10158 20135 39215 40197 333 10217 29083 55026 59003;
0201833440999992005082512004-14950-040883FM-12+0840SBQV V0200501N003612200019N0200001N1+01661+01411101961ADDAA124000021AY151061AY221061GF104991041031004501001001KA1240N+00951MA1999999092101MD1999999-0171MW1011REMSYN088AAXX  25124 83344 21498 40507 10166 20141 39210 40196 70152 84300 333 20095 59017 69914;
0156833440999992005082518004-14950-040883FM-12+0840SBQV V0200901N003112200019N0200001N1+02491+01301101381ADDGF102991999001008001081001MA1999999091721MD1999999-0401REMSYN070AAXX  25184 83344 32598 20906 10249 20130 39172 40138 83080 333 59040;EQDQ01+000032SCOTLC
0178833440999992005082600004-14950-040883FM-12+0840SBQV V0200901N001512200019N0040001N1+01461+01281101801ADDGA1001+999999999GF100991001001999999001001KA1240M+02591MA1999999091941MD1999999-0211REMSYN082AAXX  26004 83344 32996 00903 10146 20128 39194 40180 333 10259 29078 55090 59021;
0156833440999992005082612004-14950-040883FM-12+0840SBQV V0200901N004610450019N0200001N1+01921+01271101981ADDGF106991031021004501051001KA1240N+00861MA1999999092161MD1999999+0061REMSYN076AAXX  26124 83344 32498 60909 10192 20127 39216 40198 83250 333 20086 58006;
0137833440999992005082618004-14950-040883FM-12+0840SBQV V0200901N003610450019N0200001N1+02291+01241101731ADDGF106991031031004501051001MA1999999091921MD1999999+0201REMSYN070AAXX  26184 83344 32498 60907 10229 20124 39192 40173 83350 333 58020;
0178833440999992005082700004-14950-040883FM-12+0840SBQV V0200901N001512200019N0100001N1+01621+01491101921ADDGA1001+999999999GF100991001001999999001001KA1240M+02431MA1999999092131MD1999999+0191REMSYN082AAXX  27004 83344 32997 00903 10162 20149 39213 40192 333 10243 29076 55080 58019;
0156833440999992005082712004-14950-040883FM-12+0840SBQV V0200901N005112200019N0200001N1+02111+01241101941ADDGF104991041011008001001001KA1240N+01001MA1999999092181MD1999999+0021REMSYN076AAXX  27124 83344 32598 40910 10211 20124 39218 40194 84100 333 20100 58002;
0137833440999992005082718004-14950-040883FM-12+0840SBQV V0200501N003610075019N0200001N1+02451+01171101611ADDGF106991061011008001001001MA1999999091881MD1999999-0041REMSYN070AAXX  27184 83344 32598 60507 10245 20117 39188 40161 86100 333 59004;
0178833440999992005082800004-14950-040883FM-12+0840SBQV V0200901N002112200019N0040001N1+01741+01561101871ADDGA1001+999999999GF100991001001999999001001KA1240M+02511MA1999999092141MD1999999+0011REMSYN082AAXX  28004 83344 32996 00904 10174 20156 39214 40187 333 10251 29070 55105 58001;
0156833440999992005082812004-14950-040883FM-12+0840SBQV V0200501N001510042019N0200001N1+01881+01591101941ADDGF108991081061004501999999KA1240N+01431MA1999999092161MD1999999+0021REMSYN076AAXX  28124 83344 32498 80503 10188 20159 39216 40194 886// 333 20143 58002;
0137833440999992005082818004-14950-040883FM-12+0840SBQV V0200501N002610450019N0200001N1+02391+01561101351ADDGF106991041041004501031001MA1999999091711MD1999999-0171REMSYN070AAXX  28184 83344 32498 60505 10239 20156 39171 40135 84430 333 59017;
0178833440999992005082900004-14950-040883FM-12+0840SBQV V0200901N001512200019N0040001N1+01641+01511101671ADDGA1001+999999999GF100991001001999999001001KA1240M+02511MA1999999091901MD1999999-0241REMSYN082AAXX  29004 83344 32996 00903 10164 20151 39190 40167 333 10251 29082 55054 59024;
0156833440999992005082912004-14950-040883FM-12+0840SBQV V0200501N002612200019N0200001N1+02121+01441101741ADDGF104991041021004501001001KA1240N+01201MA1999999092031MD1999999-0131REMSYN076AAXX  29124 83344 32498 40505 10212 20144 39203 40174 84200 333 20120 59013;
0137833440999992005082918004-14950-040883FM-12+0840SBQV V0203601N003112200019N0200001N1+02771+01161101211ADDGF103991031021004501001001MA1999999091601MD1999999-0111REMSYN070AAXX  29184 83344 32498 33606 10277 20116 39160 40121 83200 333 59011;
0178833440999992005083000004-14950-040883FM-12+0840SBQV V0200501N003112200019N0100001N1+01821+01641101481ADDGA1001+999999999GF100991001001999999001001KA1240M+02871MA1999999091811MD1999999-0091REMSYN082AAXX  30004 83344 32997 00506 10182 20164 39181 40148 333 10287 29070 55096 59009;
0156833440999992005083012004-14950-040883FM-12+0840SBQV V0200501N004111050019N0200001N1+02191+01561101711ADDGF106991041011008001001051KA1240N+01491MA1999999092041MD1999999+0011REMSYN076AAXX  30124 83344 32598 60508 10219 20156 39204 40171 84105 333 20149 58001;
0137833440999992005083018004-14950-040883FM-12+0840SBQV V0200901N003110075019N0200001N1+02751+01611101241ADDGF105991051011008001001001MA1999999091711MD1999999+0111REMSYN070AAXX  30184 83344 32598 50906 10275 20161 39171 40124 85100 333 58011;
0178833440999992005083100004-14950-040883FM-12+0840SBQV V0200901N002112200019N0100001N1+01861+01561101651ADDGA1001+999999999GF100991001001999999001001KA1240M+02811MA1999999091981MD1999999+0011REMSYN082AAXX  31004 83344 32997 00904 10186 20156 39198 40165 333 10281 29074 55102 58001;
0156833440999992005083112004-14950-040883FM-12+0840SBQV V0200901N002112200019N0200001N1+02051+01621101791ADDGF103991031041004501001001KA1240N+01431MA1999999092091MD1999999+0051REMSYN076AAXX  31124 83344 32498 30904 10205 20162 39209 40179 83400 333 20143 58005;
0137833440999992005083118004-14950-040883FM-12+0840SBQV V0200901N003612200019N0200001N1+02471+01441101311ADDGF103991031021004501001001MA1999999091711MD1999999+0001REMSYN070AAXX  31184 83344 32498 30907 10247 20144 39171 40131 83200 333 58000;
0178833440999992005090100004-14950-040883FM-12+0905SBQV V0200901N002112200019N0040001N1+01761+01471101531ADDGA1001+999999999GF100991001001999999001001KA1240M+02651MA1999999091841MD1999999-0141REMSYN082AAXX  01004 83344 32996 00904 10176 20147 39184 40153 333 10265 29074 55093 59014;
0156833440999992005090112004-14950-040883FM-12+0905SBQV V0200501N003112200019N0200001N1+02051+01361101751ADDGF102991021011004501001001KA1240N+01151MA1999999092041MD1999999-0051REMSYN076AAXX  01124 83344 32498 20506 10205 20136 39204 40175 82100 333 20115 59005;
0137833440999992005090118004-14950-040883FM-12+0905SBQV V0200901N004112200019N0200001N1+02551+01481101361ADDGF102991021011004501001001MA1999999091681MD1999999-0031REMSYN070AAXX  01184 83344 32498 20908 10255 20148 39168 40136 82100 333 59003;
0178833440999992005090200004-14950-040883FM-12+0905SBQV V0200901N003112200019N0100001N1+01721+01541101601ADDGA1001+999999999GF100991001001999999001001KA1240M+02171MA1999999091901MD1999999+0061REMSYN082AAXX  02004 83344 32997 00906 10172 20154 39190 40160 333 10217 29074 55102 58006;
0156833440999992005090212004-14950-040883FM-12+0905SBQV V0200501N003110075019N0200001N1+02191+01441101771ADDGF105991051051008001001001KA1240N+01291MA1999999092071MD1999999+0031REMSYN076AAXX  02124 83344 32598 50506 10219 20144 39207 40177 85500 333 20129 58003;
0137833440999992005090218004-14950-040883FM-12+0905SBQV V0201401N003112200019N0200001N1+02651+01481101341ADDGF106991021011008001001061MA1999999091721MD1999999+0041REMSYN070AAXX  02184 83344 32598 61406 10265 20148 39172 40134 82106 333 58004;
0178833440999992005090300004-14950-040883FM-12+0905SBQV V0200501N001512200019N0100001N1+01861+01531101561ADDGA1001+999999999GF100991001001999999001001KA1240M+02691MA1999999091921MD1999999+0021REMSYN082AAXX  03004 83344 32997 00503 10186 20153 39192 40156 333 10269 29068 55088 58002;
0156833440999992005090312004-14950-040883FM-12+0905SBQV V0200501N003112200019N0200001N1+02111+01431101801ADDGF103991031011004501001001KA1240N+01351MA1999999092121MD1999999+0051REMSYN076AAXX  03124 83344 32498 30506 10211 20143 39212 40180 83100 333 20135 58005;
0114833440999992005090315004-14950-040883FM-15+0905SBQV V0201101N00411009001CN0112651N1+02601+01101999999ADDGA1075+009001999GF107991999999999999999999MA1102201999999REMMET045SBQV 031500Z 11008KT 9999 BKN030 26/11 Q1022;
0114833440999992005090316004-14950-040883FM-15+0905SBQV V0200401N005112200019N0112651N1+02601+01401999999ADDGA1025+009001999GF102991999999999999999999MA1102101999999REMMET045SBQV 031600Z 04010KT 9999 FEW030 26/14 Q1021;
0137833440999992005090318004-14950-040883FM-12+0905SBQV V0200501N004112200019N0200001N1+02481+01301101371ADDGF102991021011004501001001MA1999999091751MD1999999+0031REMSYN070AAXX  03184 83344 32498 20508 10248 20130 39175 40137 82100 333 58003;
0156833440999992005090412004-14950-040883FM-12+0905SBQV V0200901N003610042019N0200001N1+01841+01431101941ADDGF108991081071004501999999KA1240N+01391MA1999999092161MD1999999+0041REMSYN076AAXX  04124 83344 32498 80907 10184 20143 39216 40194 887// 333 20139 58004;
0137833440999992005090418004-14950-040883FM-12+0905SBQV V0201401N004110042019N0200001N1+02051+01721101591ADDGF106991061071004501001001MA1999999091851MD1999999+0101REMSYN070AAXX  04184 83344 32498 61408 10205 20172 39185 40159 86700 333 58010;
0192833440999992005090512004-14950-040883FM-12+0905SBQV V0200501N003610075019N0200001N1+02131+01461101741ADDAA124000091GF105991051011008001001001KA1240N+01251MA1999999092031MD1999999-0131REMSYN082AAXX  05124 83344 22598 50507 10213 20146 39203 40174 85100 333 20125 59013 69924;EQDQ01  00002PRCP24
0137833440999992005090518004-14950-040883FM-12+0905SBQV V0200901N005110075019N0200001N1+02371+01561101391ADDGF105991051011008001001001MA1999999091731MD1999999-0121REMSYN070AAXX  05184 83344 32598 50910 10237 20156 39173 40139 85100 333 59012;
0178833440999992005090600004-14950-040883FM-12+0905SBQV V0200501N004112200019N0100001N1+01721+01611101701ADDGA1001+999999999GF100991001001999999001001KA1240M+02691MA1999999092011MD1999999-0071REMSYN082AAXX  06004 83344 32997 00508 10172 20161 39201 40170 333 10269 29078 55091 59007;
0156833440999992005090612004-14950-040883FM-12+0905SBQV V0200501N003110042019N0200001N1+01921+01491101821ADDGF108991081071004501999999KA1240N+01411MA1999999092051MD1999999+0021REMSYN076AAXX  06124 83344 32498 80506 10192 20149 39205 40182 887// 333 20141 58002;
0137833440999992005090618004-14950-040883FM-12+0905SBQV V0201401N001512200019N0200001N1+02551+01451101331ADDGF104991021011004501081091MA1999999091731MD1999999+0001REMSYN070AAXX  06184 83344 32498 41403 10255 20145 39173 40133 82189 333 58000;
0178833440999992005090700004-14950-040883FM-12+0905SBQV V0209999C000012200019N0040001N1+01641+01411101651ADDGA1001+999999999GF100991001001999999001001KA1240M+02731MA1999999091901MD1999999-0111REMSYN082AAXX  07004 83344 32996 01800 10164 20141 39190 40165 333 10273 29060 55060 59011;
0156833440999992005090712004-14950-040883FM-12+0905SBQV V0200901N003110042019N0200001N1+02211+01511101851ADDGF105991051021004501001001KA1240N+01371MA1999999092121MD1999999+0071REMSYN076AAXX  07124 83344 32498 50906 10221 20151 39212 40185 85200 333 20137 58007;
0137833440999992005090718004-14950-040883FM-12+0905SBQV V0201401N004112200019N0200001N1+02641+01481101421ADDGF104991041021004501001001MA1999999091811MD1999999+0081REMSYN070AAXX  07184 83344 32498 41408 10264 20148 39181 40142 84200 333 58008;
0178833440999992005090800004-14950-040883FM-12+0905SBQV V0201401N000512200019N0100001N1+01791+01521101741ADDGA1001+999999999GF100991001001999999001001KA1240M+02721MA1999999092061MD1999999+0161REMSYN082AAXX  08004 83344 32997 01401 10179 20152 39206 40174 333 10272 29071 55102 58016;
0156833440999992005090812004-14950-040883FM-12+0905SBQV V0200501N004110450019N0200001N1+02161+01521101951ADDGF107991031051008001011001KA1240N+01431MA1999999092241MD1999999+0121REMSYN076AAXX  08124 83344 32598 70508 10216 20152 39224 40195 83510 333 20143 58012;
0137833440999992005090818004-14950-040883FM-12+0905SBQV V0200901N005711050019N0200001N1+02531+01431101651ADDGF107991041031008001001061MA1999999092001MD1999999+0191REMSYN070AAXX  08184 83344 32598 70911 10253 20143 39200 40165 84306 333 58019;
0142833440999992005090900004-14950-040883FM-12+0905SBQV V0200901N002119999999N0100001N1+01741+01501102011ADDKA1240M+02651MA1999999092291MD1999999+0231REMSYN088AAXX  09004 83344 32/97 /0904 10174 20150 39229 40201 8//// 333 10265 29073 55085 58023;
0156833440999992005090912004-14950-040883FM-12+0905SBQV V0201401N006210042019N0200001N1+01881+01391102231ADDGF106991061061004501001001KA1240N+01301MA1999999092431MD1999999+0191REMSYN076AAXX  09124 83344 32498 61412 10188 20139 39243 40223 86600 333 20130 58019;
0137833440999992005090918004-14950-040883FM-12+0905SBQV V0200901N005112200019N0200001N1+02371+01351101861ADDGF104991021011004501031001MA1999999092131MD1999999-0071REMSYN070AAXX  09184 83344 32498 40910 10237 20135 39213 40186 82130 333 59007;
0178833440999992005091000004-14950-040883FM-12+0905SBQV V0200901N003112200019N0040001N1+01641+01401102201ADDGA1001+999999999GF100991001001999999001001KA1240M+02451MA1999999092381MD1999999+0091REMSYN082AAXX  10004 83344 32996 00906 10164 20140 39238 40220 333 10245 29074 55066 58009;
0201833440999992005091012004-14950-040883FM-12+0905SBQV V0200901N002110021019N0040001N1+01781+01681102271ADDAA124002091AY151061AY221061GF108991081071002501999999KA1240N+01291MA1999999092421MD1999999-0011MW1501REMSYN088AAXX  10124 83344 21396 80904 10178 20168 39242 40227 75052 887// 333 20129 59001 60024;
0201833440999992005091112004-14950-040883FM-12+0905SBQV V0201401N004610042019N0200001N1+02001+01481102131ADDAA124002091AY151061AY221061GF105991051021004501001001KA1240N+01291MA1999999092341MD1999999-0081MW1011REMSYN088AAXX  11124 83344 21498 51409 10200 20148 39234 40213 70152 85200 333 20129 59008 60024;
0137833440999992005091118004-14950-040883FM-12+0905SBQV V0201401N003610042019N0200001N1+02141+01611101801ADDGF106991061041004501001001MA1999999092041MD1999999-0101REMSYN070AAXX  11184 83344 32498 61407 10214 20161 39204 40180 86400 333 59010;
0201833440999992005091212004-14950-040883FM-12+0905SBQV V0200901N003610042019N0100001N1+01921+01731102151ADDAA124002091AY161061AY221061GF108991081071004501999999KA1240N+01491MA1999999092371MD1999999+0031MW1501REMSYN088AAXX  12124 83344 21497 80907 10192 20173 39237 40215 75062 887// 333 20149 58003 60024;
0137833440999992005091218004-14950-040883FM-12+0840SBQV V0201401N003612200019N0200001N1+02401+01701101681ADDGF104991041041004501001001MA1999999092011MD1999999-0031REMSYN070AAXX  12184 83344 32498 41407 10240 20170 39201 40168 84400 333 59003;
0178833440999992005091300004-14950-040883FM-12+0840SBQV V0200901N001512200019N0040001N1+01781+01651101891ADDGA1001+999999999GF100991001001999999001001KA1240M+02451MA1999999092141MD1999999-0071REMSYN082AAXX  13004 83344 32996 00903 10178 20165 39214 40189 333 10245 29085 55041 59007;
0156833440999992005091312004-14950-040883FM-12+0840SBQV V0200901N003112200019N0200001N1+02101+01391101881ADDGF104991041021004501001001KA1240N+01401MA1999999092171MD1999999-0201REMSYN076AAXX  13124 83344 32498 40906 10210 20139 39217 40188 84200 333 20140 59020;
0137833440999992005091318004-14950-040883FM-12+0840SBQV V0201801N004112200019N0200001N1+02391+01451101501ADDGF102991021011004501001001MA1999999091851MD1999999-0161REMSYN070AAXX  13184 83344 32498 21808 10239 20145 39185 40150 82100 333 59016;
0178833440999992005091400004-14950-040883FM-12+0840SBQV V0201401N001012200019N0100001N1+01541+01321101831ADDGA1001+999999999GF100991001001999999001001KA1240M+02531MA1999999092061MD1999999-0081REMSYN082AAXX  14004 83344 32997 01402 10154 20132 39206 40183 333 10253 29074 55099 59008;
0156833440999992005091412004-14950-040883FM-12+0840SBQV V0201401N005110075019N0200001N1+02071+01241102091ADDGF106991061011008001001001KA1240N+01151MA1999999092301MD1999999+0131REMSYN076AAXX  14124 83344 32598 61410 10207 20124 39230 40209 86100 333 20115 58013;
0137833440999992005091418004-14950-040883FM-12+0840SBQV V0201401N005711050019N0200001N1+02331+01251101611ADDGF106991041011008001001051MA1999999091931MD1999999+0081REMSYN070AAXX  14184 83344 32598 61411 10233 20125 39193 40161 84105 333 58008;
0178833440999992005091500004-14950-040883FM-12+0840SBQV V0200901N003112200019N0100001N1+01741+01471101981ADDGA1001+999999999GF100991001001999999001001KA1240M+02431MA1999999092241MD1999999+0181REMSYN082AAXX  15004 83344 32997 00906 10174 20147 39224 40198 333 10243 29069 55102 58018;
0156833440999992005091512004-14950-040883FM-12+0840SBQV V0200901N002610450019N0200001N1+01881+01451102261ADDGF106991031041004501091001KA1240N+01121MA1999999092451MD1999999+0151REMSYN076AAXX  15124 83344 32498 60905 10188 20145 39245 40226 83490 333 20112 58015;
0137833440999992005091518004-14950-040883FM-12+0840SBQV V0201401N005110450019N0200001N1+02231+01431101881ADDGF106991031041004501091001MA1999999092091MD1999999-0161REMSYN070AAXX  15184 83344 32498 61410 10223 20143 39209 40188 83490 333 59016;
0168833440999992005091600004-14950-040883FM-12+0840SBQV V0201401N003112200019N0100001N1+01641+01511102041ADDGF103991021011008001081001KA1240M+02341MA1999999092241MD1999999+0001REMSYN088AAXX  16004 83344 32597 31406 10164 20151 39224 40204 82180 333 10234 29080 55048 58000;
0156833440999992005091612004-14950-040883FM-12+0840SBQV V0200901N004110450019N0200001N1+02151+01361102081ADDGF105991031021004501081001KA1240N+01311MA1999999092331MD1999999-0121REMSYN076AAXX  16124 83344 32498 50908 10215 20136 39233 40208 83280 333 20131 59012;
0137833440999992005091618004-14950-040883FM-12+0840SBQV V0200901N005112200019N0200001N1+02501+01591101571ADDGF103991031011004501001001MA1999999091911MD1999999-0181REMSYN070AAXX  16184 83344 32498 30910 10250 20159 39191 40157 83100 333 59018;
0178833440999992005091700004-14950-040883FM-12+0840SBQV V0200901N002612200019N0100001N1+01761+01631101861ADDGA1001+999999999GF100991001001999999001001KA1240M+02571MA1999999092151MD1999999-0091REMSYN082AAXX  17004 83344 32997 00905 10176 20163 39215 40186 333 10257 29076 55096 59009;
0156833440999992005091712004-14950-040883FM-12+0840SBQV V0200901N002110450019N0200001N1+02231+01551101811ADDGF106991031041008001081001KA1240N+01491MA1999999092131MD1999999-0201REMSYN076AAXX  17124 83344 32598 60904 10223 20155 39213 40181 83480 333 20149 59020;
0147833440999992005091718004-14950-040883FM-12+0840SBQV V0201401N003112200019N0200001N1+02491+01621101451ADDGA1001+999999999GF100991001001999999001001MA1999999091821MD1999999-0091REMSYN064AAXX  17184 83344 32598 01406 10249 20162 39182 40145 333 59009;
0156833440999992005091812004-14950-040883FM-12+0840SBQV V0201401N006711050019N0200001N1+02001+01541101931ADDGF105991021011004501091021KA1240N+01491MA1999999092191MD1999999+0061REMSYN076AAXX  18124 83344 32498 51413 10200 20154 39219 40193 82192 333 20149 58006;
0156833440999992005091818004-14950-040883FM-12+0840SBQV V0200901N004610450019N0200001N1+02511+01481101052ADDGF106991021011004501071021MA1999999091891MD1999999+0071REMSYN070AAXX  18184 83344 32498 60909 10251 20148 39189 40105 82172 333 58007;EQDQ01+101053APOSLP
0168833440999992005091900004-14950-040883FM-12+0840SBQV V0201401N003110120019N0040001N1+01941+01751101831ADDGF106991061001012501091001KA1240M+02611MA1999999092131MD1999999+0241REMSYN088AAXX  19004 83344 32696 61406 10194 20175 39213 40183 86090 333 10261 29077 55093 58024;
0156833440999992005091912004-14950-040883FM-12+0840SBQV V0201401N002610042019N0100001N1+01841+01691101961ADDGF108991081071004501999999KA1240N+01571MA1999999092221MD1999999+0031REMSYN076AAXX  19124 83344 32497 81405 10184 20169 39222 40196 887// 333 20157 58003;
0137833440999992005091918004-14950-040883FM-12+0840SBQV V0200901N005111050019N0200001N1+02571+01831101401ADDGF106991041021004501001091MA1999999091821MD1999999-0071REMSYN070AAXX  19184 83344 32498 60910 10257 20183 39182 40140 84209 333 59007;
0168833440999992005092000004-14950-040883FM-12+0840SBQV V0200501N001512200019N0100001N1+01841+01711101851ADDGF102991021001022501081001KA1240M+02691MA1999999092101MD1999999-0031REMSYN088AAXX  20004 83344 32897 20503 10184 20171 39210 40185 82080 333 10269 29085 55040 59003;
0156833440999992005092012004-14950-040883FM-12+0840SBQV V0203601N003110075019N0200001N1+02071+01601101651ADDGF106991061051008001001001KA1240N+01391MA1999999091961MD1999999-0261REMSYN076AAXX  20124 83344 32598 63606 10207 20160 39196 40165 86500 333 20139 59026;
0137833440999992005092018004-14950-040883FM-12+0840SBQV V0201401N003119999999N0200001N1+03071+01931100951ADDGF107991001001999999001071MA1999999091481MD1999999-0341REMSYN070AAXX  20184 83344 32998 71406 10307 20193 39148 40095 80007 333 59034;
0168833440999992005092100004-14950-040883FM-12+0840SBQV V0200501N001010042019N0100001N1+02071+01741101331ADDGF106991061061004501001001KA1240M+03111MA1999999091711MD1999999-0391REMSYN088AAXX  21004 83344 32497 60502 10207 20174 39171 40133 86600 333 10311 29073 55079 59039;
0156833440999992005092112004-14950-040883FM-12+0840SBQV V0203201N002610120019N0200001N1+02371+01761101251ADDGF107991071001012501051001KA1240N+01681MA1999999091701MD1999999-0261REMSYN076AAXX  21124 83344 32698 73205 10237 20176 39170 40125 87050 333 20168 59026;
0137833440999992005092118004-14950-040883FM-12+0840SBQV V0203601N002119999999N0200001N1+03031+01591100651ADDGF108991041001999999051011MA1999999091271MD1999999-0211REMSYN070AAXX  21184 83344 32998 83604 10303 20159 39127 40065 84051 333 59021;
0156833440999992005092212004-14950-040883FM-12+0840SBQV V0201401N003119999999N0200001N1+01961+01761101431ADDGF108991081071999999999999KA1240N+01691MA1999999091781MD1999999+0081REMSYN076AAXX  22124 83344 32998 81406 10196 20176 39178 40143 887// 333 20169 58008;
0137833440999992005092218004-14950-040883FM-12+0840SBQV V0201401N004610042019N0200001N1+02031+01781101131ADDGF108991081071004501999999MA1999999091531MD1999999+0261REMSYN070AAXX  22184 83344 32498 81409 10203 20178 39153 40113 887// 333 58026;
0168833440999992005092300004-14950-040883FM-12+0840SBQV V0201401N001510042019N0100001N1+01881+01691101921ADDGF108991081071004501999999KA1240M+02411MA1999999091741MD1999999+0201REMSYN088AAXX  23004 83344 32497 81403 10188 20169 39174 40192 887// 333 10241 29087 55006 58020;
0156833440999992005092312004-14950-040883FM-12+0840SBQV V0201401N003110042019N0200001N1+02111+01601101581ADDGF108991081071004501999999KA1240N+01551MA1999999091921MD1999999+0141REMSYN076AAXX  23124 83344 32498 81406 10211 20160 39192 40158 887// 333 20155 58014;
0137833440999992005092318004-14950-040883FM-12+0840SBQV V0201401N003111050019N0200001N1+02341+01851101181ADDGF107991031081008001001061MA1999999091591MD1999999+0061REMSYN070AAXX  23184 83344 32598 71406 10234 20185 39159 40118 83806 333 58006;
0168833440999992005092400004-14950-040883FM-12+0840SBQV V0201401N000512200019N0040001N1+01901+01751101531ADDGF102991021001012501031001KA1240M+02511MA1999999091871MD1999999+0131REMSYN088AAXX  24004 83344 32696 21401 10190 20175 39187 40153 82030 333 10251 29082 55012 58013;
0156833440999992005092412004-14950-040883FM-12+0840SBQV V0203601N001510042019N0200001N1+02231+01671101521ADDGF108991081071004501999999KA1240N+01531MA1999999091881MD1999999-0041REMSYN076AAXX  24124 83344 32498 83603 10223 20167 39188 40152 887// 333 20153 59004;
0137833440999992005092418004-14950-040883FM-12+0840SBQV V0200901N003110042019N0200001N1+02631+01731100991ADDGF108991081071004501999999MA1999999091481MD1999999-0111REMSYN070AAXX  24184 83344 32498 80906 10263 20173 39148 40099 887// 333 59011;
0178833440999992005092500004-14950-040883FM-12+0840SBQV V0200901N003112200019N0040001N1+01841+01781101401ADDGA1001+999999999GF100991001001999999001001KA1240M+02851MA1999999091771MD1999999-0101REMSYN082AAXX  25004 83344 32996 00906 10184 20178 39177 40140 333 10285 29080 55022 59010;
0156833440999992005092512004-14950-040883FM-12+0840SBQV V0200501N003610042019N0040001N1+02301+01611101561ADDGF107991051041004501051001KA1240N+01601MA1999999091921MD1999999+0041REMSYN076AAXX  25124 83344 32496 70507 10230 20161 39192 40156 85450 333 20160 58004;
0137833440999992005092518004-14950-040883FM-12+0840SBQV V0200501N004110450019N0200001N1+02731+01781101081ADDGF106991031021004501051071MA1999999091581MD1999999+0101REMSYN070AAXX  25184 83344 32498 60508 10273 20178 39158 40108 83257 333 58010;
0156833440999992005092612004-14950-040883FM-12+0840SBQV V0200501N001510042019N0200001N1+02171+01661101721ADDGF108991081071004501999999KA1240N+01471MA1999999092061MD1999999+0141REMSYN076AAXX  26124 83344 32498 80503 10217 20166 39206 40172 887// 333 20147 58014;
0137833440999992005092618004-14950-040883FM-12+0840SBQV V0200501N004110042019N0200001N1+02831+01331101201ADDGF106991061021004501001001MA1999999091691MD1999999+0111REMSYN070AAXX  26184 83344 32498 60508 10283 20133 39169 40120 86200 333 58011;
0178833440999992005092700004-14950-040883FM-12+0840SBQV V0200501N002112200019N0100001N1+01941+01681101611ADDGA1001+999999999GF100991001001999999001001KA1240M+02931MA1999999091961MD1999999+0201REMSYN082AAXX  27004 83344 32997 00504 10194 20168 39196 40161 333 10293 29070 55080 58020;
0156833440999992005092712004-14950-040883FM-12+0840SBQV V0200501N003110450019N0200001N1+02351+01571101751ADDGF108991041061004501011061KA1240N+01381MA1999999092131MD1999999+0071REMSYN076AAXX  27124 83344 32498 80506 10235 20157 39213 40175 84616 333 20138 58007;
0137833440999992005092718004-14950-040883FM-12+0840SBQV V0201401N003110042019N0200001N1+02731+01421101441ADDGF106991061071004501001001MA1999999091851MD1999999+0161REMSYN070AAXX  27184 83344 32498 61406 10273 20142 39185 40144 86700 333 58016;
0168833440999992005092800004-14950-040883FM-12+0840SBQV V0200901N001510042019N0100001N1+02031+01721101701ADDGF108991081031004501999999KA1240M+02791MA1999999092111MD1999999+0151REMSYN088AAXX  28004 83344 32497 80903 10203 20172 39211 40170 883// 333 10279 29068 55076 58015;
0201833440999992005092812004-14950-040883FM-12+0840SBQV V0201401N004110021019N0010001N1+01851+01721101911ADDAA124002091AY151061AY221061GF108991081071002501999999KA1240N+01551MA1999999092201MD1999999+0071MW1511REMSYN088AAXX  28124 83344 21394 81408 10185 20172 39220 40191 75152 887// 333 20155 58007 60024;
0182833440999992005092818004-14950-040883FM-12+0840SBQV V0201401N005110042019N0200001N1+02221+01841101461ADDAA106999999AY151061AY221061GF107991071071004501001001MA1999999091811MD1999999-0041MW1021REMSYN082AAXX  28184 83344 21498 71410 10222 20184 39181 40146 70252 87700 333 59004 69911;
0213833440999992005092900004-14950-040883FM-12+0840SBQV V0201401N003610021019N0040001N1+01841+01781101791ADDAA106999999AY151061AY221061GF108991081071002501999999KA1240M+02291MA1999999092051MD1999999-0061MW1501REMSYN100AAXX  29004 83344 21396 81407 10184 20178 39205 40179 75052 887// 333 10229 29091 55017 59006 69901;
0201833440999992005092912004-14950-040883FM-12+0840SBQV V0201401N003110021019N0100001N1+01781+01651101961ADDAA124003091AY151061AY221061GF108991081071002501999999KA1240N+01431MA1999999092181MD1999999-0021MW1201REMSYN088AAXX  29124 83344 21397 81406 10178 20165 39218 40196 72052 887// 333 20143 59002 60034;
0137833440999992005092918004-14950-040883FM-12+0840SBQV V0201401N003110021019N0100001N1+02111+01641101531ADDGF108991081071002501999999MA1999999091841MD1999999+0031REMSYN070AAXX  29184 83344 32397 81406 10211 20164 39184 40153 887// 333 58003;
0213833440999992005093000004-14950-040883FM-12+0840SBQV V0201801N004110021019N0040001N1+01761+01731101841ADDAA106000891AY151061AY221061GF108991081071002501999999KA1240M+02171MA1999999092051MD1999999+0001MW1501REMSYN100AAXX  30004 83344 21396 81808 10176 20173 39205 40184 75052 887// 333 10217 29091 55016 58000 69981;
0201833440999992005093012004-14950-040883FM-12+0840SBQV V0201401N005110042019N0200001N1+01921+01591101921ADDAA124002091AY161061AY221061GF106991061061004501001001KA1240N+01471MA1999999092161MD1999999-0021MW1011REMSYN088AAXX  30124 83344 21498 61410 10192 20159 39216 40192 70162 86600 333 20147 59002 60024;
0137833440999992005093018004-14950-040883FM-12+0840SBQV V0201401N004112200019N0200001N1+02211+01761101461ADDGF104991021011004501081001MA1999999091791MD1999999-0051REMSYN070AAXX  30184 83344 32498 41408 10221 20176 39179 40146 82180 333 59005;
0168833440999992005100100004-14950-040883FM-12+0840SBQV V0201401N003110021019N0040001N1+01841+01711101751ADDGF108991081071002501999999KA1240M+02271MA1999999092041MD1999999-0011REMSYN088AAXX  01004 83344 32396 81406 10184 20171 39204 40175 887// 333 10227 29085 55019 59001;
0156833440999992005100112004-14950-040883FM-12+0840SBQV V0201401N003110042019N0200001N1+02021+01621101821ADDGF108991081071004501999999KA1240N+01471MA1999999092121MD1999999-0041REMSYN076AAXX  01124 83344 32498 81406 10202 20162 39212 40182 887// 333 20147 59004;
0137833440999992005100118004-14950-040883FM-12+0840SBQV V0201401N003112200019N0200001N1+02571+01531101281ADDGF102991021011008001001001MA1999999091731MD1999999-0061REMSYN070AAXX  01184 83344 32598 21406 10257 20153 39173 40128 82100 333 59006;
0178833440999992005100200004-14950-040883FM-12+0840SBQV V0201401N001012200019N0100001N1+01921+01491101581ADDGA1001+999999999GF100991001001999999001001KA1240M+02631MA1999999091901MD1999999-0141REMSYN082AAXX  02004 83344 32997 01402 10192 20149 39190 40158 333 10263 29071 55081 59014;
0156833440999992005100212004-14950-040883FM-12+0840SBQV V0200901N002610075019N0200001N1+02051+01521101671ADDGF106991061041008001001001KA1240N+01491MA1999999092001MD1999999-0121REMSYN076AAXX  02124 83344 32598 60905 10205 20152 39200 40167 86400 333 20149 59012;
0137833440999992005100218004-14950-040883FM-12+0840SBQV V0201401N004112200019N0200001N1+02551+01421101141ADDGF102991021011004501001001MA1999999091581MD1999999-0151REMSYN070AAXX  02184 83344 32498 21408 10255 20142 39158 40114 82100 333 59015;
0178833440999992005100300004-14950-040883FM-12+0840SBQV V0200901N002112200019N0100001N1+01781+01521101481ADDGA1001+999999999GF100991001001999999001001KA1240M+02631MA1999999091791MD1999999-0111REMSYN082AAXX  03004 83344 32997 00904 10178 20152 39179 40148 333 10263 29072 55083 59011;
0156833440999992005100312004-14950-040883FM-12+0840SBQV V0200901N003112200019N0200001N1+02091+01421101711ADDGF102991021011004501001001KA1240N+01321MA1999999092021MD1999999+0021REMSYN076AAXX  03124 83344 32498 20906 10209 20142 39202 40171 82100 333 20132 58002;
0137833440999992005100318004-14950-040883FM-12+0840SBQV V0201401N004610450019N0200001N1+02471+01411101271ADDGF105991021011004501071001MA1999999091641MD1999999+0061REMSYN070AAXX  03184 83344 32498 51409 10247 20141 39164 40127 82170 333 58006;
0178833440999992005100400004-14950-040883FM-12+0840SBQV V0200901N003112200019N0040001N1+01781+01411101481ADDGA1001+999999999GF100991001001999999001001KA1240M+02611MA1999999091811MD1999999+0021REMSYN082AAXX  04004 83344 32996 00906 10178 20141 39181 40148 333 10261 29069 55099 58002;
0156833440999992005100412004-14950-040883FM-12+0840SBQV V0201401N003110042019N0100001N1+02001+01601101651ADDGF108991081071004501999999KA1240N+01471MA1999999091951MD1999999-0071REMSYN076AAXX  04124 83344 32497 81406 10200 20160 39195 40165 887// 333 20147 59007;
0137833440999992005100418004-14950-040883FM-12+0840SBQV V0200901N003610042019N0200001N1+02551+01831101141ADDGF105991051041004501001001MA1999999091601MD1999999-0041REMSYN070AAXX  04184 83344 32498 50907 10255 20183 39160 40114 85400 333 59004;
0168833440999992005100500004-14950-040883FM-12+0840SBQV V0201401N002110042019N0040001N1+01951+01811101551ADDGF108991081071004501999999KA1240M+02651MA1999999091871MD1999999+0061REMSYN088AAXX  05004 83344 32496 81404 10195 20181 39187 40155 887// 333 10265 29082 55034 58006;
0156833440999992005100512004-14950-040883FM-12+0840SBQV V0200501N004110075019N0200001N1+02431+01491101581ADDGF106991061011008001001001KA1240N+01591MA1999999091971MD1999999+0021REMSYN076AAXX  05124 83344 32598 60508 10243 20149 39197 40158 86100 333 20159 58002;
0137833440999992005100518004-14950-040883FM-12+0840SBQV V0200501N003610075019N0200001N1+02791+01441101171ADDGF106991061011008001001001MA1999999091701MD1999999+0101REMSYN070AAXX  05184 83344 32598 60507 10279 20144 39170 40117 86100 333 58010;
0178833440999992005100600004-14950-040883FM-12+0840SBQV V0200901N002112200019N0100001N1+01921+01731101591ADDGA1001+999999999GF100991001001999999001001KA1240M+02911MA1999999091981MD1999999+0111REMSYN082AAXX  06004 83344 32997 00904 10192 20173 39198 40159 333 10291 29069 55101 58011;
0156833440999992005100612004-14950-040883FM-12+0840SBQV V0200501N005112200019N0200001N1+02391+01501101821ADDGF104991021001004501081011KA1240N+01371MA1999999092191MD1999999+0221REMSYN076AAXX  06124 83344 32498 40510 10239 20150 39219 40182 82081 333 20137 58022;
0137833440999992005100618004-14950-040883FM-12+0840SBQV V0200501N004112200019N0200001N1+02751+01541101361ADDGF102991021011004501001001MA1999999091841MD1999999+0141REMSYN070AAXX  06184 83344 32498 20508 10275 20154 39184 40136 82100 333 58014;
0178833440999992005100700004-14950-040883FM-12+0840SBQV V0200901N003112200019N0040001N1+01901+01751101701ADDGA1001+999999999GF100991001001999999001001KA1240M+03011MA1999999092081MD1999999+0101REMSYN082AAXX  07004 83344 32996 00906 10190 20175 39208 40170 333 10301 29072 55109 58010;
0156833440999992005100712004-14950-040883FM-12+0840SBQV V0200901N002610042019N0200001N1+02401+01441101951ADDGF105991051021004501001001KA1240N+01011MA1999999092311MD1999999+0121REMSYN076AAXX  07124 83344 32498 50905 10240 20144 39231 40195 85200 333 20101 58012;
0137833440999992005100718004-14950-040883FM-12+0840SBQV V0200901N004612200019N0200001N1+02701+01261101731ADDGF103991031011004501001001MA1999999092041MD1999999+0201REMSYN070AAXX  07184 83344 32498 30909 10270 20126 39204 40173 83100 333 58020;
0178833440999992005100800004-14950-040883FM-12+0840SBQV V0200901N002112200019N0100001N1+01821+01691101861ADDGA1001+999999999GF100991001001999999001001KA1240M+02751MA1999999092211MD1999999+0131REMSYN082AAXX  08004 83344 32997 00904 10182 20169 39221 40186 333 10275 29070 55107 58013;
0156833440999992005100812004-14950-040883FM-12+0840SBQV V0200901N003610075019N0200001N1+02111+01291102121ADDGF106991061021008001001001KA1240N+01771MA1999999092381MD1999999+0071REMSYN076AAXX  08124 83344 32598 60907 10211 20129 39238 40212 86200 333 20177 58007;
0137833440999992005100818004-14950-040883FM-12+0840SBQV V0200901N003110075019N0200001N1+02611+01411101441ADDGF105991051021008001001001MA1999999091891MD1999999-0151REMSYN070AAXX  08184 83344 32598 50906 10261 20141 39189 40144 85200 333 59015;
0168833440999992005100900004-14950-040883FM-12+0840SBQV V0201401N002610075019N0100001N1+02051+01641101731ADDGF108991081021008001001001KA1240M+02731MA1999999092091MD1999999-0121REMSYN088AAXX  09004 83344 32597 81405 10205 20164 39209 40173 88200 333 10273 29066 55101 59012;
0156833440999992005100912004-14950-040883FM-12+0840SBQV V0200901N003110450019N0200001N1+02231+01431101351ADDGF106991041011004501091001KA1240N+01431MA1999999092221MD1999999-0161REMSYN076AAXX  09124 83344 32498 60906 10223 20143 39222 40135 84190 333 20143 59016;
0156833440999992005100918004-14950-040883FM-12+0840SBQV V0201401N003112200019N0200001N1+02591+01431102242ADDGF102991021011004501001001MA1999999091761MD1999999-0131REMSYN070AAXX  09184 83344 32498 21406 10259 20143 39176 40224 82100 333 59013;EQDQ01+102243APOSLP
0156833440999992005101012004-14950-040883FM-12+0840SBQV V0200901N003612200019N0200001N1+02321+01531101641ADDGF102991021011004501001001KA1240N+01371MA1999999092011MD1999999-0211REMSYN076AAXX  10124 83344 32498 20907 10232 20153 39201 40164 82100 333 20137 59021;
0137833440999992005101018004-14950-040883FM-12+0840SBQV V0201401N004112200019N0200001N1+02711+01261101221ADDGF103991031021004501001001MA1999999091631MD1999999-0131REMSYN070AAXX  10184 83344 32498 31408 10271 20126 39163 40122 83200 333 59013;
0178833440999992005101100004-14950-040883FM-12+0840SBQV V0200901N001012200019N0100001N1+01821+01791101531ADDGA1001+999999999GF100991001001999999001001KA1240M+02811MA1999999091891MD1999999-0061REMSYN082AAXX  11004 83344 32997 00902 10182 20179 39189 40153 333 10281 29074 55103 59006;
0156833440999992005101112004-14950-040883FM-12+0840SBQV V0200901N004610450019N0200001N1+02251+01431101581ADDGF106991031011008001081001KA1240N+01691MA1999999091941MD1999999-0071REMSYN076AAXX  11124 83344 32598 60909 10225 20143 39194 40158 83180 333 20169 59007;
0137833440999992005101118004-14950-040883FM-12+0840SBQV V0201401N004610450019N0200001N1+02631+01301101281ADDGF106991021011008001081001MA1999999091711MD1999999+0081REMSYN070AAXX  11184 83344 32598 61409 10263 20130 39171 40128 82180 333 58008;
0178833440999992005101200004-14950-040883FM-12+0840SBQV V0200901N002612200019N0100001N1+01841+01581101451ADDGA1001+999999999GF100991001001999999001001KA1240M+02751MA1999999091821MD1999999-0071REMSYN082AAXX  12004 83344 32997 00905 10184 20158 39182 40145 333 10275 29068 55106 59007;
0156833440999992005101212004-14950-040883FM-12+0840SBQV V0200501N003110450019N0200001N1+02271+01521101691ADDGF106991041041004501091001KA1240N+01491MA1999999092051MD1999999+0111REMSYN076AAXX  12124 83344 32498 60506 10227 20152 39205 40169 84490 333 20149 58011;
0137833440999992005101218004-14950-040883FM-12+0840SBQV V0201401N001512200019N0200001N1+02591+01551101151ADDGF104991021011004501011001MA1999999091611MD1999999-0101REMSYN070AAXX  12184 83344 32498 41403 10259 20155 39161 40115 82110 333 59010;
0178833440999992005101300004-14950-040883FM-12+0840SBQV V0200901N001512200019N0040001N1+01881+01621101491ADDGA1001+999999999GF100991001001999999001001KA1240M+02771MA1999999091871MD1999999+0051REMSYN082AAXX  13004 83344 32996 00903 10188 20162 39187 40149 333 10277 29071 55081 58005;
0156833440999992005101312004-14950-040883FM-12+0840SBQV V0200501N004112200019N0200001N1+02381+01561101481ADDGF104991041021004501001001KA1240N+01321MA1999999091891MD1999999-0161REMSYN076AAXX  13124 83344 32498 40508 10238 20156 39189 40148 84200 333 20132 59016;
0137833440999992005101318004-14950-040883FM-12+0840SBQV V0200501N004110042019N0200001N1+02631+01431101231ADDGF106991061041004501001001MA1999999091661MD1999999+0051REMSYN070AAXX  13184 83344 32498 60508 10263 20143 39166 40123 86400 333 58005;
0178833440999992005101400004-14950-040883FM-12+0840SBQV V0200901N004612200019N0200001N1+01901+01551101381ADDGA1001+999999999GF100991001001999999001001KA1240M+02851MA1999999091801MD1999999-0071REMSYN082AAXX  14004 83344 32998 00909 10190 20155 39180 40138 333 10285 29067 55060 59007;
0156833440999992005101412004-14950-040883FM-12+0840SBQV V0200501N004612200019N0200001N1+02271+01541101111ADDGF104991041021004501001001KA1240N+01721MA1999999091541MD1999999-0351REMSYN076AAXX  14124 83344 32498 40509 10227 20154 39154 40111 84200 333 20172 59035;
0137833440999992005101418004-14950-040883FM-12+0840SBQV V0200501N002112200019N0200001N1+02891+01221101101ADDGF104991041011004501001001MA1999999091601MD1999999-0061REMSYN070AAXX  14184 83344 32498 40504 10289 20122 39160 40110 84100 333 59006;
0178833440999992005101500004-14950-040883FM-12+0840SBQV V0200501N005112200019N0100001N1+01981+01721101431ADDGA1001+999999999GF100991001001999999001001KA1240M+03051MA1999999091821MD1999999+0021REMSYN082AAXX  15004 83344 32997 00510 10198 20172 39182 40143 333 10305 29067 55108 58002;
0166833440999992005101512004-14950-040883FM-12+0840SBQV V0203601N005112200019N0200001N1+02491+01401101461ADDGA1001+999999999GF100991001001999999001001KA1240N+01371MA1999999091911MD1999999+0371REMSYN070AAXX  15124 83344 32998 03610 10249 20140 39191 40146 333 20137 58037;
0147833440999992005101518004-14950-040883FM-12+0840SBQV V0201401N003612200019N0200001N1+02971+01161100951ADDGA1001+999999999GF100991001001999999001001MA1999999091531MD1999999-0071REMSYN064AAXX  15184 83344 32998 01407 10297 20116 39153 40095 333 59007;
0178833440999992005101600004-14950-040883FM-12+0840SBQV V0200501N003112200019N0040001N1+01921+01621102021ADDGA1001+999999999GF100991001001999999001001KA1240M+03131MA1999999091841MD1999999+0021REMSYN082AAXX  16004 83344 32996 00506 10192 20162 39184 40202 333 10313 29062 55101 58002;
0156833440999992005101612004-14950-040883FM-12+0840SBQV V0200901N003112200019N0200001N1+02341+01161101641ADDGF102991021011004501001001KA1240N+01161MA1999999092031MD1999999+0121REMSYN076AAXX  16124 83344 32498 20906 10234 20116 39203 40164 82100 333 20116 58012;
0137833440999992005101618004-14950-040883FM-12+0840SBQV V0200901N004112200019N0200001N1+02701+01341101351ADDGF103991001001999999001011MA1999999091731MD1999999+0201REMSYN070AAXX  16184 83344 32998 30908 10270 20134 39173 40135 80001 333 58020;
0178833440999992005101700004-14950-040883FM-12+0840SBQV V0200901N002612200019N0100001N1+01681+01331101541ADDGA1001+999999999GF100991001001999999001001KA1240M+02731MA1999999091881MD1999999+0041REMSYN082AAXX  17004 83344 32997 00905 10168 20133 39188 40154 333 10273 29063 55110 58004;
0156833440999992005101712004-14950-040883FM-12+0840SBQV V0200901N003110075019N0200001N1+02471+01321101591ADDGF106991061011008001001001KA1240N+01111MA1999999091951MD1999999+0081REMSYN076AAXX  17124 83344 32598 60906 10247 20132 39195 40159 86100 333 20111 58008;
0137833440999992005101718004-14950-040883FM-12+0840SBQV V0200501N004112200019N0200001N1+02931+01171101091ADDGF102991021011008001001001MA1999999091551MD1999999-0181REMSYN070AAXX  17184 83344 32598 20508 10293 20117 39155 40109 82100 333 59018;
0149833440999992005101800004-14950-040880FM-12+0840SBQV V0200501N003112200019N0040001N1+01921+01621101301ADDGF100991001001999999001001MA1999999091751MD1999999-0131REMSYN082AAXX  18004 83344 32996 00506 10192 20162 39175 40130 333 10297 29062 55109 59013;
0156833440999992005101812004-14950-040883FM-12+0840SBQV V0200501N003612200019N0200001N1+02511+01501101471ADDGF102991021011004501001001KA1240N+01311MA1999999091881MD1999999-0341REMSYN076AAXX  18124 83344 32498 20507 10251 20150 39188 40147 82100 333 20131 59034;
0137833440999992005101818004-14950-040883FM-12+0840SBQV V0200501N001512200019N0200001N1+03051+00981101081ADDGF104991021011012501081091MA1999999091481MD1999999-0071REMSYN070AAXX  18184 83344 32698 40503 10305 20098 39148 40108 82189 333 59007;
0168833440999992005101900004-14950-040883FM-12+0840SBQV V0200501N002612200019N0100001N1+02051+01381101241ADDGF103991001001999999001081KA1240M+03171MA1999999091731MD1999999-0021REMSYN088AAXX  19004 83344 32997 30505 10205 20138 39173 40124 80008 333 10317 29054 55112 59002;
0175833440999992005101912004-14950-040883FM-12+0840SBQV V0202001N046322200019N0200001N1+02271+01041101621ADDGF102991021011004501001001KA1240N+01391MA1999999092011MD1999999+0131REMSYN076AAXX  19124 83344 32498 22090 10227 20104 39201 40162 82100 333 20139 58013;EQDQ01+004633WOSPD 
0137833440999992005101918004-14950-040883FM-12+0840SBQV V0201401N004611050019N0200001N1+02801+01461101271ADDGF105991031021004501001091MA1999999091741MD1999999+0261REMSYN070AAXX  19184 83344 32498 51409 10280 20146 39174 40127 83209 333 58026;
0178833440999992005102000004-14950-040883FM-12+0840SBQV V0200901N005112200019N0100001N1+01961+01741101621ADDGA1001+999999999GF100991001001999999001001KA1240M+02871MA1999999092011MD1999999+0281REMSYN082AAXX  20004 83344 32997 00910 10196 20174 39201 40162 333 10287 29071 55102 58028;
0156833440999992005102012004-14950-040883FM-12+0840SBQV V0200901N006210075019N0200001N1+02171+01351101781ADDGF106991061021008001001001KA1240N+01371MA1999999092121MD1999999+0111REMSYN076AAXX  20124 83344 32598 60912 10217 20135 39212 40178 86200 333 20137 58011;
0137833440999992005102018004-14950-040883FM-12+0840SBQV V0200901N005110075019N0200001N1+02551+01161101351ADDGF105991051021008001001001MA1999999091771MD1999999+0031REMSYN070AAXX  20184 83344 32598 50910 10255 20116 39177 40135 85200 333 58003;
0178833440999992005102100004-14950-040883FM-12+0840SBQV V0200901N003112200019N0100001N1+01741+01311101631ADDGA1001+999999999GF100991001001999999001001KA1240M+02791MA1999999091951MD1999999-0061REMSYN082AAXX  21004 83344 32997 00906 10174 20131 39195 40163 333 10279 29064 55102 59006;
0156833440999992005102112004-14950-040883FM-12+0840SBQV V0200901N005112200019N0200001N1+02251+01241101731ADDGF104991041041004501001001KA1240N+01051MA1999999092051MD1999999-0071REMSYN076AAXX  21124 83344 32498 40910 10225 20124 39205 40173 84400 333 20105 59007;
0137833440999992005102118004-14950-040883FM-12+0840SBQV V0201401N005110450019N0200001N1+02551+01161101351ADDGF107991021041004501031001MA1999999091681MD1999999-0091REMSYN070AAXX  21184 83344 32498 71410 10255 20116 39168 40135 82430 333 59009;
0178833440999992005102200004-14950-040883FM-12+0840SBQV V0200901N001512200019N0040001N1+01781+01591101461ADDGA1001+999999999GF100991001001999999001001KA1240M+02731MA1999999091811MD1999999-0141REMSYN082AAXX  22004 83344 32996 00903 10178 20159 39181 40146 333 10273 29066 55095 59014;
0156833440999992005102212004-14950-040883FM-12+0840SBQV V0200501N003112200019N0200001N1+02431+01371101571ADDGF106991031011008001001041KA1240N+01061MA1999999091951MD1999999-0101REMSYN076AAXX  22124 83344 32598 60506 10243 20137 39195 40157 83104 333 20106 59010;
0137833440999992005102218004-14950-040883FM-12+0840SBQV V0200901N003612200019N0200001N1+02671+01621101121ADDGF106991041011008001001041MA1999999091521MD1999999-0161REMSYN070AAXX  22184 83344 32598 60907 10267 20162 39152 40112 84104 333 59016;
0178833440999992005102300004-14950-040883FM-12+0840SBQV V0201401N002612200019N0100001N1+01921+01851101351ADDGA1001+999999999GF100991001001999999001001KA1240M+03091MA1999999091771MD1999999-0041REMSYN082AAXX  23004 83344 32997 01405 10192 20185 39177 40135 333 10309 29074 55107 59004;
0156833440999992005102312004-14950-040883FM-12+0840SBQV V0200501N004112200019N0200001N1+02381+01581101401ADDGF104991021001012501081091KA1240N+01631MA1999999091821MD1999999-0131REMSYN076AAXX  23124 83344 32698 40508 10238 20158 39182 40140 82089 333 20163 59013;
0137833440999992005102318004-14950-040883FM-12+0840SBQV V0200901N004111050019N0200001N1+02961+01381100901ADDGF105991021011004501001091MA1999999091441MD1999999-0081REMSYN070AAXX  23184 83344 32498 50908 10296 20138 39144 40090 82109 333 59008;
0178833440999992005102400004-14950-040883FM-12+0840SBQV V0200501N000512200019N0100001N1+02051+01661101351ADDGA1001+999999999GF100991001001999999001001KA1240M+03111MA1999999091791MD1999999+0021REMSYN082AAXX  24004 83344 32997 00501 10205 20166 39179 40135 333 10311 29064 55107 58002;
0156833440999992005102412004-14950-040883FM-12+0840SBQV V0200501N003612200019N0200001N1+02391+01361101521ADDGF104991021001004501081011KA1240N+01571MA1999999091951MD1999999+0131REMSYN076AAXX  24124 83344 32498 40507 10239 20136 39195 40152 82081 333 20157 58013;
0137833440999992005102418004-14950-040883FM-12+0840SBQV V0200501N005112200019N0200001N1+02751+01141101241ADDGF104991011001012501081011MA1999999091671MD1999999+0231REMSYN070AAXX  24184 83344 32698 40510 10275 20114 39167 40124 81081 333 58023;
0178833440999992005102500004-14950-040883FM-12+0840SBQV V0200501N002612200019N0040001N1+01881+01531101441ADDGA1001+999999999GF100991001001999999001001KA1240M+02931MA1999999091851MD1999999-0061REMSYN082AAXX  25004 83344 32996 00505 10188 20153 39185 40144 333 10293 29063 55107 59006;
0156833440999992005102512004-14950-040883FM-12+0840SBQV V0200501N005112200019N0200001N1+02331+01501101551ADDGF104991041021004501001001KA1240N+01181MA1999999091931MD1999999-0021REMSYN076AAXX  25124 83344 32498 40510 10233 20150 39193 40155 84200 333 20118 59002;
0137833440999992005102518004-14950-040883FM-12+0840SBQV V0201401N005112200019N0200001N1+02691+01091101261ADDGF102991021011004501001001MA1999999091631MD1999999-0041REMSYN070AAXX  25184 83344 32498 21410 10269 20109 39163 40126 82100 333 59004;
0178833440999992005102600004-14950-040883FM-12+0840SBQV V0200901N002112200019N0100001N1+01901+01251101321ADDGA1001+999999999GF100991001001999999001001KA1240M+02811MA1999999091721MD1999999-0131REMSYN082AAXX  26004 83344 32997 00904 10190 20125 39172 40132 333 10281 29057 55110 59013;
0166833440999992005102612004-14950-040883FM-12+0840SBQV V0200501N003112200019N0200001N1+02411+01071101451ADDGA1001+999999999GF100991001001999999001001KA1240N+01401MA1999999091861MD1999999-0071REMSYN070AAXX  26124 83344 32998 00506 10241 20107 39186 40145 333 20140 59007;
0137833440999992005102618004-14950-040883FM-12+0840SBQV V0201401N002612200019N0200001N1+03051+01281100921ADDGF102991011011008001001011MA1999999091421MD1999999-0211REMSYN070AAXX  26184 83344 32598 21405 10305 20128 39142 40092 81101 333 59021;
0178833440999992005102700004-14950-040883FM-12+0840SBQV V0200501N003112200019N0100001N1+02011+01581101141ADDGA1001+999999999GF100991001001999999001001KA1240M+03091MA1999999091601MD1999999-0121REMSYN082AAXX  27004 83344 32997 00506 10201 20158 39160 40114 333 10309 29058 55113 59012;
0156833440999992005102712004-14950-040883FM-12+0840SBQV V0200501N003612200019N0200001N1+02491+01571101311ADDGF101991011011004501001001KA1240N+01551MA1999999091771MD1999999-0091REMSYN076AAXX  27124 83344 32498 10507 10249 20157 39177 40131 81100 333 20155 59009;
0147833440999992005102718004-14950-040883FM-12+0840SBQV V0201401N004612200019N0200001N1+03031+01261100801ADDGA1001+999999999GF100991001001999999001001MA1999999091391MD1999999-0031REMSYN064AAXX  27184 83344 32998 01409 10303 20126 39139 40080 333 59003;
0178833440999992005102800004-14950-040883FM-12+0840SBQV V0200901N002612200019N0040001N1+02151+01911101121ADDGA1001+999999999GF100991001001999999001001KA1240M+03191MA1999999091621MD1999999+0021REMSYN082AAXX  28004 83344 32996 00905 10215 20191 39162 40112 333 10319 29066 55110 58002;
0156833440999992005102812004-14950-040883FM-12+0840SBQV V0200501N003610042019N0200001N1+02501+01721101201ADDGF105991051021004501001001KA1240N+01851MA1999999091671MD1999999-0101REMSYN076AAXX  28124 83344 32498 50507 10250 20172 39167 40120 85200 333 20185 59010;
0137833440999992005102818004-14950-040883FM-12+0840SBQV V0200501N003112200019N0200001N1+03001+01491100621ADDGF103991031011004501001001MA1999999091251MD1999999-0141REMSYN070AAXX  28184 83344 32498 30506 10300 20149 39125 40062 83100 333 59014;
0178833440999992005102900004-14950-040883FM-12+0840SBQV V0200501N004112200019N0100001N1+02211+01691100861ADDGA1001+999999999GF100991001001999999001001KA1240M+03111MA1999999091401MD1999999-0221REMSYN082AAXX  29004 83344 32997 00508 10221 20169 39140 40086 333 10311 29061 55100 59022;
0156833440999992005102912004-14950-040883FM-12+0840SBQV V0203601N003112200019N0200001N1+02811+01601101061ADDGF103991001001999999001051KA1240N+02051MA1999999091651MD1999999-0021REMSYN076AAXX  29124 83344 32998 33606 10281 20160 39165 40106 80005 333 20205 59002;
0137833440999992005102918004-14950-040883FM-12+0840SBQV V0209999C000010450019N0200001N1+03311+01641100491ADDGF106991041091004501011001MA1999999091211MD1999999-0041REMSYN070AAXX  29184 83344 32498 60000 10331 20164 39121 40049 84910 333 59004;
0178833440999992005103000004-14950-040883FM-12+0840SBQV V0209999C000012200019N0100001N1+02371+01951100801ADDGA1001+999999999GF100991001001999999001001KA1240M+03431MA1999999091451MD1999999+0051REMSYN082AAXX  30004 83344 32697 00000 10237 20195 39145 40080 333 10343 29060 55076 58005;
0156833440999992005103012004-14950-040883FM-12+0840SBQV V0201401N002610042019N0100001N1+02191+01991101331ADDGF108991081071004501999999KA1240N+01921MA1999999091811MD1999999+0161REMSYN076AAXX  30124 83344 32497 81405 10219 20199 39181 40133 887// 333 20192 58016;
0137833440999992005103018004-14950-040883FM-12+0840SBQV V0200901N004110450019N0100001N1+02761+01921100961ADDGF106991021011004501051001MA1999999091521MD1999999+0311REMSYN070AAXX  30184 83344 32497 60908 10276 20192 39152 40096 82150 333 58031;
0178833440999992005103100004-14950-040883FM-12+0840SBQV V0200901N003112200019N0100001N1+02171+01881101261ADDGA1001+999999999GF100991001001999999001001KA1240M+02791MA1999999091711MD1999999+0261REMSYN082AAXX  31004 83344 32997 00906 10217 20188 39171 40126 333 10279 29079 55013 58026;
0156833440999992005103112004-14950-040883FM-12+0840SBQV V0200501N001010042019N0100001N1+02351+01641101491ADDGF108991081071004501999999KA1240N+01871MA1999999091941MD1999999+0131REMSYN076AAXX  31124 83344 32497 80502 10235 20164 39194 40149 887// 333 20187 58013;
0137833440999992005103118004-14950-040883FM-12+0840SBQV V0203601N002610042019N0200001N1+02321+01811101211ADDGF108991051071004501051001MA1999999091621MD1999999+0101REMSYN070AAXX  31184 83344 32498 83605 10232 20181 39162 40121 85750 333 58010;
0178833440999992005110100004-14950-040883FM-12+0840SBQV V0203601N001512200019N0040001N1+01891+01681101471ADDGA1001+999999999GF100991001001999999001001KA1240M+02491MA1999999091851MD1999999+0141REMSYN082AAXX  01004 83344 32996 03603 10189 20168 39185 40147 333 10249 29079 55000 58014;
0156833440999992005110112004-14950-040883FM-12+0840SBQV V0201401N001510042019N0200001N1+02251+01801101661ADDGF108991081071004501999999KA1240N+01701MA1999999092011MD1999999+0071REMSYN076AAXX  01124 83344 32498 81403 10225 20180 39201 40166 887// 333 20170 58007;
0178833440999992005110200004-14950-040883FM-12+0840SBQV V0200901N002612200019N0100001N1+02031+01831101571ADDGA1001+999999999GF100991001001999999001001KA1240M+02971MA1999999091961MD1999999+0111REMSYN082AAXX  02004 83344 32997 00905 10203 20183 39196 40157 333 10297 29076 55036 58011;
0156833440999992005110212004-14950-040883FM-12+0840SBQV V0200501N004110450019N0200001N1+02531+01461101651ADDGF106991021011004501071001KA1240N+01751MA1999999092101MD1999999+0091REMSYN076AAXX  02124 83344 32498 60508 10253 20146 39210 40165 82170 333 20175 58009;
0137833440999992005110218004-14950-040883FM-12+0840SBQV V0200501N003110450019N0200001N1+02871+01641101231ADDGF107991021011004501021001MA1999999091721MD1999999+0131REMSYN070AAXX  02184 83344 32498 70506 10287 20164 39172 40123 82120 333 58013;
0178833440999992005110300004-14950-040883FM-12+0840SBQV V0200901N002112200019N0040001N1+02061+01311101561ADDGA1001+999999999GF100991001001999999001001KA1240M+02991MA1999999092021MD1999999+0061REMSYN082AAXX  03004 83344 32996 00904 10206 20131 39202 40156 333 10299 29055 55098 58006;
0156833440999992005110312004-14950-040883FM-12+0840SBQV V0200901N003612200019N0200001N1+02291+01461101751ADDGF103991031011004501001001KA1240N+01351MA1999999092131MD1999999+0031REMSYN076AAXX  03124 83344 32498 30907 10229 20146 39213 40175 83100 333 20135 58003;
0137833440999992005110318004-14950-040883FM-12+0840SBQV V0200901N004612200019N0200001N1+02971+01121101281ADDGF102991021011004501001001MA1999999091751MD1999999+0031REMSYN070AAXX  03184 83344 32498 20909 10297 20112 39175 40128 82100 333 58003;
0156833440999992005110412004-14950-040883FM-12+0840SBQV V0200501N004610075019N0200001N1+02451+01361101551ADDGF107991071021008001001001KA1240N+01471MA1999999092011MD1999999-0121REMSYN076AAXX  04124 83344 32598 70509 10245 20136 39201 40155 87200 333 20147 59012;
0137833440999992005110418004-14950-040883FM-12+0840SBQV V0200901N004112200019N0200001N1+02891+01141101121ADDGF105991021011008001001011MA1999999091601MD1999999-0151REMSYN070AAXX  04184 83344 32598 50908 10289 20114 39160 40112 82101 333 59015;
0178833440999992005110500004-14950-040883FM-12+0840SBQV V0200901N003112200019N0100001N1+01881+01551101491ADDGA1001+999999999GF100991001001999999001001KA1240M+03011MA1999999091901MD1999999-0061REMSYN082AAXX  05004 83344 32997 00906 10188 20155 39190 40149 333 10301 29062 55086 59006;
0156833440999992005110512004-14950-040883FM-12+0840SBQV V0200501N004612200019N0200001N1+02471+01381101511ADDGF102991021011004501001001KA1240N+01301MA1999999091921MD1999999-0091REMSYN076AAXX  05124 83344 32498 20509 10247 20138 39192 40151 82100 333 20130 59009;
0137833440999992005110518004-14950-040883FM-12+0840SBQV V0200901N003610450019N0200001N1+02531+01711101281ADDGF106991031041004501071001MA1999999091631MD1999999+0031REMSYN070AAXX  05184 83344 32498 60907 10253 20171 39163 40128 83470 333 58003;
0178833440999992005110600004-14950-040883FM-12+0840SBQV V0200901N002612200019N0040001N1+01901+01741101371ADDGA1001+999999999GF100991001001999999001001KA1240M+02831MA1999999091811MD1999999-0091REMSYN082AAXX  06004 83344 32996 00905 10190 20174 39181 40137 333 10283 29071 55083 59009;
0156833440999992005110612004-14950-040883FM-12+0840SBQV V0200501N005112200019N0200001N1+02491+01301101611ADDGF102991021011004501001001KA1240N+01401MA1999999091931MD1999999+0011REMSYN076AAXX  06124 83344 32498 20510 10249 20130 39193 40161 82100 333 20140 58001;
0137833440999992005110618004-14950-040883FM-12+0840SBQV V0201401N004612200019N0200001N1+02871+01291101151ADDGF102991021011004501001001MA1999999091611MD1999999-0021REMSYN070AAXX  06184 83344 32498 21409 10287 20129 39161 40115 82100 333 59002;
0178833440999992005110700004-14950-040883FM-12+0840SBQV V0200501N003112200019N0100001N1+01941+01361101361ADDGA1001+999999999GF100991001001999999001001KA1240M+02971MA1999999091801MD1999999-0011REMSYN082AAXX  07004 83344 32997 00506 10194 20136 39180 40136 333 10297 29056 55119 59001;
0137833440999992005110718004-14950-040883FM-12+0840SBQV V0200501N003112200019N0200001N1+02871+01441101091ADDGF103991031011008001001001MA1999999091541MD1999999-0071REMSYN070AAXX  07184 83344 32598 30506 10287 20144 39154 40109 83100 333 59007;
0156833440999992005110812004-14950-040883FM-12+0840SBQV V0200501N003112200019N0200001N1+02451+01271101281ADDGF105991021001012501081011KA1240N+01501MA1999999091731MD1999999-0151REMSYN076AAXX  08124 83344 32698 50506 10245 20127 39173 40128 82081 333 20150 59015;
0137833440999992005110818004-14950-040883FM-12+0840SBQV V0201401N003110450019N0200001N1+02791+01251101071ADDGF106991021061004501031011MA1999999091541MD1999999+0001REMSYN070AAXX  08184 83344 32498 61406 10279 20125 39154 40107 82631 333 58000;
0178833440999992005110900004-14950-040883FM-12+0840SBQV V0200901N002112200019N0040001N1+02091+01561101191ADDGA1001+999999999GF100991001001999999001001KA1240M+02971MA1999999091661MD1999999-0091REMSYN082AAXX  09004 83344 32996 00904 10209 20156 39166 40119 333 10297 29057 55110 59009;
0156833440999992005110912004-14950-040883FM-12+0840SBQV V0201401N003110042019N0200001N1+02401+01581101391ADDGF106991061021004501001001KA1240N+01581MA1999999091851MD1999999+0121REMSYN076AAXX  09124 83344 32498 61406 10240 20158 39185 40139 86200 333 20158 58012;
0137833440999992005110918004-14950-040883FM-12+0840SBQV V0201401N003112200019N0200001N1+02811+01391100971ADDGF104991041021004501001001MA1999999091461MD1999999-0081REMSYN070AAXX  09184 83344 32498 41406 10281 20139 39146 40097 84200 333 59008;
0168833440999992005111000004-14950-040883FM-12+0840SBQV V0200901N002112200019N0100001N1+02071+01761101201ADDGF102991021021004501001001KA1240M+03011MA1999999091681MD1999999+0021REMSYN088AAXX  10004 83344 32497 20904 10207 20176 39168 40120 82200 333 10301 29067 55085 58002;
0156833440999992005111012004-14950-040883FM-12+0840SBQV V0200901N003110042019N0200001N1+02231+01671101381ADDGF108991051071004501021999KA1240N+01721MA1999999091801MD1999999-0051REMSYN076AAXX  10124 83344 32498 80906 10223 20167 39180 40138 8572/ 333 20172 59005;
0137833440999992005111018004-14950-040883FM-12+0840SBQV V0201401N004610450019N0200001N1+02591+01801100961ADDGF106991021021004501031091MA1999999091441MD1999999-0021REMSYN070AAXX  10184 83344 32498 61409 10259 20180 39144 40096 82239 333 59002;
0168833440999992005111100004-14950-040883FM-12+0840SBQV V0201401N004110021019N0040001N1+01861+01711101361ADDGF108991081071002501999999KA1240M+02771MA1999999091741MD1999999+0061REMSYN088AAXX  11004 83344 32396 81408 10186 20171 39174 40136 887// 333 10277 29079 55048 58006;
0156833440999992005111112004-14950-040883FM-12+0840SBQV V0201401N003110042019N0200001N1+01901+01551101391ADDGF108991081071004501999999KA1240N+01511MA1999999091711MD1999999-0091REMSYN076AAXX  11124 83344 32498 81406 10190 20155 39171 40139 887// 333 20151 59009;
0137833440999992005111118004-14950-040883FM-12+0840SBQV V0201401N003110042019N0200001N1+02171+01741101031ADDGF108991081071004501999999MA1999999091421MD1999999-0021REMSYN070AAXX  11184 83344 32498 81406 10217 20174 39142 40103 887// 333 59002;
0168833440999992005111200004-14950-040883FM-12+0840SBQV V0201401N003110042019N0040001N1+01921+01701101281ADDGF108991081071004501999999KA1240M+02251MA1999999091631MD1999999-0111REMSYN088AAXX  12004 83344 32496 81406 10192 20170 39163 40128 887// 333 10225 29083 55002 59011;
0201833440999992005111212004-14950-040883FM-12+0840SBQV V0200901N001510021019N0100001N1+01881+01731101271ADDAA124004191AY161061AY251061GF108991081071002501999999KA1240N+01661MA1999999091601MD1999999-0111MW1211REMSYN088AAXX  12124 83344 21397 80903 10188 20173 39160 40127 72165 887// 333 20166 59011 60044;
0182833440999992005111218004-14950-040883FM-12+0840SBQV V0200501N001510021019N0100001N1+02031+01811101051ADDAA106999999AY151061AY221061GF108991081071002501999999MA1999999091381MD1999999-0041MW1021REMSYN082AAXX  12184 83344 21397 80503 10203 20181 39138 40105 70252 887// 333 59004 69911;
0232833440999992005111300004-14950-040883FM-12+0840SBQV V0201401N001510021019N0040001N1+01861+01741101221ADDAA106999999AY151061AY221061GF108991081071002501999999KA1240M+99999MA1999999091541MD1999999-0091MW1021REMSYN100AAXX  13004 83344 21396 81403 10186 20174 39154 40122 70252 887// 333 10180 29091 55000 59009 69911;EQDQ01 +01802ATMX  
0201833440999992005111312004-14950-040883FM-12+0840SBQV V0201401N002610021019N0040001N1+01781+01681101461ADDAA124010991AY161061AY251061GF108991081071002501999999KA1240N+01671MA1999999091731MD1999999+0131MW1501REMSYN088AAXX  13124 83344 21396 81405 10178 20168 39173 40146 75065 887// 333 20167 58013 60114;
0213833440999992005111400004-14950-040883FM-12+0840SBQV V0201401N003110021019N0010001N1+01741+01681101391ADDAA106002091AY161061AY251061GF108991081071002501999999KA1240M+02011MA1999999091651MD1999999+0111MW1501REMSYN100AAXX  14004 83344 21394 81406 10174 20168 39165 40139 75065 887// 333 10201 29095 55000 58011 60021;
0173833440999992005111412004-14950-040883FM-12+0840SBQV V0201401N005110042019N0200001N1+01901+01711101451ADDAA124002091GF108991081071004501999999KA1240N+01651MA1999999091721MD1999999-0011REMSYN082AAXX  14124 83344 22498 81410 10190 20171 39172 40145 887// 333 20165 59001 60024;
0137833440999992005111418004-14950-040883FM-12+0840SBQV V0200901N002110042019N0200001N1+02031+01781101151ADDGF108991081071004501999999MA1999999091471MD1999999-0071REMSYN070AAXX  14184 83344 32498 80904 10203 20178 39147 40115 887// 333 59007;
0213833440999992005111500004-14950-040883FM-12+0840SBQV V0201801N002110042019N0040001N1+01861+01791101401ADDAA106006191AY161061AY221061GF108991081071004501999999KA1240M+02111MA1999999091721MD1999999+0071MW1521REMSYN100AAXX  15004 83344 21496 81804 10186 20179 39172 40140 75262 887// 333 10211 29092 55000 58007 60061;
0201833440999992005111512004-14950-040883FM-12+0840SBQV V0201401N004110021019N0040001N1+01941+01861101431ADDAA124006191AY151061AY221061GF108991081071002501999999KA1240N+01781MA1999999091751MD1999999+0031MW1501REMSYN088AAXX  15124 83344 21396 81408 10194 20186 39175 40143 75052 887// 333 20178 58003 60064;
0137833440999992005111518004-14950-040883FM-12+0840SBQV V0201401N003110450019N0200001N1+02441+01901101061ADDGF107991041071004501051001MA1999999091491MD1999999+0021REMSYN070AAXX  15184 83344 32498 71406 10244 20190 39149 40106 84750 333 58002;
0168833440999992005111600004-14950-040883FM-12+0840SBQV V0201401N002610042019N0040001N1+01901+01821101401ADDGF108991081071004501999999KA1240M+02491MA1999999091721MD1999999+0001REMSYN088AAXX  16004 83344 32496 81405 10190 20182 39172 40140 887// 333 10249 29089 55011 58000;
0201833440999992005111612004-14950-040883FM-12+0840SBQV V0203601N002610042019N0100001N1+01891+01711101581ADDAA124004191AY161061AY251061GF108991081071004501999999KA1240N+01841MA1999999091881MD1999999+0131MW1021REMSYN088AAXX  16124 83344 21497 83605 10189 20171 39188 40158 70265 887// 333 20184 58013 60044;
0182833440999992005111618004-14950-040883FM-12+0840SBQV V0203601N001510021019N0200001N1+02241+01781101151ADDAA106003091AY161061AY251061GF108991081071002501999999MA1999999091551MD1999999+0061MW1021REMSYN082AAXX  16184 83344 21398 83603 10224 20178 39155 40115 70265 887// 333 58006 60031;
0232833440999992005111700004-14950-040883FM-12+0840SBQV V0200901N001510021019N0040001N1+01881+01741101281ADDAA106000091AY151061AY221061GF108991081071002501999999KA1240M+02341MA1999999091611MD1999999-0111MW1021REMSYN100AAXX  17004 83344 21396 80903 10188 20174 39161 40128 70252 887// 333 10234 29088 55000 59011 69911;EQDQ01  00002PRCP06
0173833440999992005111712004-14950-040883FM-12+0840SBQV V0203601N004112200019N0200001N1+02431+01671101231ADDAA124003091GF106991041001012501081011KA1240N+01701MA1999999091661MD1999999-0221REMSYN082AAXX  17124 83344 22698 63608 10243 20167 39166 40123 84081 333 20170 59022 60034;
0137833440999992005111718004-14950-040883FM-12+0840SBQV V0200501N001510042019N0200001N1+02931+01571100721ADDGF106991061041004501001001MA1999999091251MD1999999-0301REMSYN070AAXX  17184 83344 32498 60503 10293 20157 39125 40072 86400 333 59030;
0168833440999992005111800004-14950-040883FM-12+0840SBQV V0200501N003112200019N0040001N1+02071+01801100981ADDGF104991041001012501071001KA1240M+03011MA1999999091451MD1999999-0161REMSYN088AAXX  18004 83344 32696 40506 10207 20180 39145 40098 84070 333 10301 29069 55096 59016;
0156833440999992005111812004-14950-040883FM-12+0840SBQV V0200501N003110042019N0200001N1+02161+01741101221ADDGF108991081071004501999999KA1240N+01681MA1999999091631MD1999999-0031REMSYN076AAXX  18124 83344 32498 80506 10216 20174 39163 40122 887// 333 20168 59003;
0137833440999992005111818004-14950-040883FM-12+0840SBQV V0200501N003612200019N0200001N1+02871+01681100731ADDGF104991041021004501001001MA1999999091311MD1999999+0061REMSYN070AAXX  18184 83344 32498 40507 10287 20168 39131 40073 84200 333 58006;
0178833440999992005111900004-14950-040883FM-12+0840SBQV V0200501N002612200019N0100001N1+02111+01881101061ADDGA1001+999999999GF100991001001999999001001KA1240M+02911MA1999999091511MD1999999+0061REMSYN082AAXX  19004 83344 32997 00505 10211 20188 39151 40106 333 10291 29075 55083 58006;
0156833440999992005111912004-14950-040883FM-12+0840SBQV V0200501N003611050019N0200001N1+02331+01211101321ADDGF106991031011008001001021KA1240N+01691MA1999999091781MD1999999+0151REMSYN076AAXX  19124 83344 32598 60507 10233 20121 39178 40132 83102 333 20169 58015;
0137833440999992005111918004-14950-040883FM-12+0840SBQV V0200501N003112200019N0200001N1+03011+01101100891ADDGF102991021011008001001001MA1999999091431MD1999999+0121REMSYN070AAXX  19184 83344 32598 20506 10301 20110 39143 40089 82100 333 58012;
0178833440999992005112000004-14950-040883FM-12+0840SBQV V0200901N001512200019N0100001N1+02191+01761101111ADDGA1001+999999999GF100991001001999999001001KA1240M+03071MA1999999091591MD1999999+0081REMSYN082AAXX  20004 83344 32997 00903 10219 20176 39159 40111 333 10307 29063 55115 58008;
0156833440999992005112012004-14950-040883FM-12+0840SBQV V0200501N002112200019N0200001N1+02371+01661101281ADDGF102991021001012501031001KA1240N+01621MA1999999091761MD1999999-0021REMSYN076AAXX  20124 83344 32698 20504 10237 20166 39176 40128 82030 333 20162 59002;
0137833440999992005112018004-14950-040883FM-12+0840SBQV V0203601N001012200019N0200001N1+03051+01371100721ADDGF103991031021004501001001MA1999999091321MD1999999-0111REMSYN070AAXX  20184 83344 32498 33602 10305 20137 39132 40072 83200 333 59011;
0156833440999992005112112004-14950-040883FM-12+0840SBQV V0201401N002610450019N0200001N1+02371+01711101121ADDGF105991031021004501051001KA1240N+01881MA1999999091601MD1999999-0161REMSYN076AAXX  21124 83344 32498 51405 10237 20171 39160 40112 83250 333 20188 59016;
0137833440999992005112118004-14950-040883FM-12+0840SBQV V0201401N005710450019N0200001N1+02651+01691100781ADDGF106991031041004501021001MA1999999091311MD1999999-0011REMSYN070AAXX  21184 83344 32498 61411 10265 20169 39131 40078 83420 333 59001;
0168833440999992005112200004-14950-040883FM-12+0840SBQV V0201401N003610120019N0040001N1+02071+01841101181ADDGF107991071001012501091001KA1240M+02911MA1999999091641MD1999999+0051REMSYN088AAXX  22004 83344 32696 71407 10207 20184 39164 40118 87090 333 10291 29074 55060 58005;
0156833440999992005112212004-14950-040883FM-12+0840SBQV V0200501N003110042019N0200001N1+02271+01711101241ADDGF108991081071004501999999KA1240N+01951MA1999999091671MD1999999+0071REMSYN076AAXX  22124 83344 32498 80506 10227 20171 39167 40124 887// 333 20195 58007;
0168833440999992005112300004-14950-040883FM-12+0840SBQV V0200901N001510042019N0100001N1+02091+01911101131ADDGF108991081071004501999999KA1240M+02911MA1999999091571MD1999999-0071REMSYN088AAXX  23004 83344 32497 80903 10209 20191 39157 40113 887// 333 10291 29075 55013 59007;
0156833440999992005112312004-14950-040883FM-12+0840SBQV V0200501N002110042019N0200001N1+02071+01661101351ADDGF108991081071004501999999KA1240N+02001MA1999999091751MD1999999+0081REMSYN076AAXX  23124 83344 32498 80504 10207 20166 39175 40135 887// 333 20200 58008;
0137833440999992005112318004-14950-040883FM-12+0840SBQV V0201401N002610042019N0200001N1+02081+01931101091ADDGF108991081071004501999999MA1999999091491MD1999999+0181REMSYN070AAXX  23184 83344 32498 81405 10208 20193 39149 40109 887// 333 58018;
0213833440999992005112400004-14950-040883FM-12+0840SBQV V0200901N001512200019N0040001N1+01961+01771101321ADDAA106000591AY151061AY221061GF104991041011004501001001KA1240M+02341MA1999999091681MD1999999+0111MW1011REMSYN100AAXX  24004 83344 21496 40903 10196 20177 39168 40132 70152 84100 333 10234 29087 55000 58011 69941;
0201833440999992005112412004-14950-040883FM-12+0840SBQV V0200501N001510042019N0100001N1+02061+01941101381ADDAA124002091AY151061AY221061GF108991081071004501999999KA1240N+01971MA1999999091741MD1999999+0011MW1031REMSYN088AAXX  24124 83344 21497 80503 10206 20194 39174 40138 70352 887// 333 20197 58001 60024;
0182833440999992005112418004-14950-040883FM-12+0840SBQV V0200501N000510021019N0040001N1+02091+02011101111ADDAA106003091AY161061AY251061GF108991081071002501999999MA1999999091511MD1999999+0021MW1621REMSYN082AAXX  24184 83344 21396 80501 10209 20201 39151 40111 76265 887// 333 58002 60031;
0213833440999992005112500004-14950-040883FM-12+0840SBQV V0200901N002110021019N0040001N1+01881+01801101361ADDAA106007191AY161061AY251061GF108991081071002501999999KA1240M+02321MA1999999091701MD1999999+0021MW1501REMSYN100AAXX  25004 83344 21396 80904 10188 20180 39170 40136 75065 887// 333 10232 29095 55000 58002 60071;
0201833440999992005112512004-14950-040883FM-12+0840SBQV V0203601N003110450019N0200001N1+02091+01861101301ADDAA124015091AY161061AY251061GF108991041071004501021999KA1240N+01881MA1999999091661MD1999999-0081MW1021REMSYN088AAXX  25124 83344 21498 83606 10209 20186 39166 40130 70265 8472/ 333 20188 59008 60154;
0182833440999992005112518004-14950-040883FM-12+0840SBQV V0203601N003110450019N0200001N1+02291+01921100911ADDAA106001091AY151061AY221061GF108991041071004501011999MA1999999091351MD1999999-0161MW1201REMSYN082AAXX  25184 83344 21498 83606 10229 20192 39135 40091 72052 8471/ 333 59016 60011;
0213833440999992005112600004-14950-040883FM-12+0840SBQV V0200901N005110021019N0040001N1+01961+01771101131ADDAA106000591AY151061AY221061GF108991081071002501999999KA1240M+02371MA1999999091511MD1999999-0191MW1021REMSYN100AAXX  26004 83344 21396 80910 10196 20177 39151 40113 70252 887// 333 10237 29086 55012 59019 69941;
0201833440999992005112612004-14950-040883FM-12+0840SBQV V0203601N003110042019N0100001N1+01921+01701101151ADDAA124002091AY161061AY221061GF108991081071004501999999KA1240N+01801MA1999999091511MD1999999-0151MW1521REMSYN088AAXX  26124 83344 21497 83606 10192 20170 39151 40115 75262 887// 333 20180 59015 60024;
0182833440999992005112618004-14950-040883FM-12+0840SBQV V0203601N003610042019N0200001N1+02371+01711100671ADDAA106001091AY151061AY221061GF108991081071004501999999MA1999999091151MD1999999-0201MW1021REMSYN082AAXX  26184 83344 21498 83607 10237 20171 39115 40067 70252 887// 333 59020 60011;
0168833440999992005112700004-14950-040883FM-12+0840SBQV V0203201N001512200019N0040001N1+02011+01781101001ADDGF104991041001012501071001KA1240M+02491MA1999999091371MD1999999-0141REMSYN088AAXX  27004 83344 32696 43203 10201 20178 39137 40100 84070 333 10249 29082 55005 59014;
0182833440999992005112718004-14950-040883FM-12+0840SBQV V0201401N001510042019N0100001N1+02091+02031100731ADDAA106023991AY181061AY261061GF108991081071004501999999MA1999999091191MD1999999+0041MW1031REMSYN082AAXX  27184 83344 21497 81403 10209 20203 39119 40073 70386 887// 333 58004 60241;
0213833440999992005112800004-14950-040883FM-12+0840SBQV V0200501N001510021019N0040001N1+01961+01881100991ADDAA106006191AY161061AY251061GF108991081071002501999999KA1240M+02311MA1999999091401MD1999999+0031MW1511REMSYN100AAXX  28004 83344 21396 80503 10196 20188 39140 40099 75165 887// 333 10231 29094 55000 58003 60061;
0201833440999992005112812004-14950-040883FM-12+0840SBQV V0200501N003110021019N0040001N1+02091+01951101171ADDAA124039991AY161061AY251061GF108991081071002501999999KA1240N+01901MA1999999091561MD1999999+0131MW1201REMSYN088AAXX  28124 83344 21396 80506 10209 20195 39156 40117 72065 887// 333 20190 58013 60404;
0182833440999992005112818004-14950-040883FM-12+0840SBQV V0200501N003110021019N0040001N1+02051+01831100961ADDAA106001091AY151061AY221061GF108991081071002501999999MA1999999091341MD1999999+0151MW1021REMSYN082AAXX  28184 83344 21396 80506 10205 20183 39134 40096 70252 887// 333 58015 60011;
0213833440999992005112900004-14950-040883FM-12+0840SBQV V0200501N003110021019N0010001N1+01901+01821101341ADDAA106003091AY161061AY251061GF108991081071002501999999KA1240M+02331MA1999999091701MD1999999+0301MW1201REMSYN100AAXX  29004 83344 21394 80506 10190 20182 39170 40134 72065 887// 333 10233 29093 55000 58030 60031;
0201833440999992005112912004-14950-040883FM-12+0840SBQV V0200901N003110042019N0100001N1+02001+01851101531ADDAA124005191AY161061AY221061GF108991081071004501999999KA1240N+02001MA1999999091851MD1999999+0291MW1521REMSYN088AAXX  29124 83344 21497 80906 10200 20185 39185 40153 75262 887// 333 20200 58029 60054;
0182833440999992005112918004-14950-040883FM-12+0840SBQV V0200901N003610042019N0100001N1+02231+01781101251ADDAA106002091AY161061AY221061GF108991081071004501999999MA1999999091651MD1999999+0311MW1521REMSYN082AAXX  29184 83344 21497 80907 10223 20178 39165 40125 75262 887// 333 58031 60021;
0213833440999992005113000004-14950-040883FM-12+0840SBQV V0200901N002112200019N0100001N1+01941+01681101561ADDAA106001091AY151061AY221061GF103991031071004501001001KA1240M+02491MA1999999091881MD1999999+0181MW1031REMSYN100AAXX  30004 83344 21497 30904 10194 20168 39188 40156 70352 83700 333 10249 29084 55014 58018 60011;
0201833440999992005113012004-14950-040883FM-12+0840SBQV V0200501N004110042019N0200001N1+02201+01801101501ADDAA124004191AY151061AY221061GF108991081071004501999999KA1240N+01861MA1999999091861MD1999999-0011MW1031REMSYN088AAXX  30124 83344 21498 80508 10220 20180 39186 40150 70352 887// 333 20186 59001 60044;
0182833440999992005113018004-14950-040883FM-12+0840SBQV V0200501N002610021019N0100001N1+02171+02091101201ADDAA106006191AY161061AY251061GF108991081071002501999999MA1999999091571MD1999999-0081MW1501REMSYN082AAXX  30184 83344 21397 80505 10217 20209 39157 40120 75065 887// 333 59008 60061;
0213833440999992005120100004-14950-040883FM-12+0840SBQV V0200901N003612200019N0100001N1+02091+02011101281ADDAA106006191AY161061AY251061GF103991031001004501051001KA1240M+02691MA1999999091711MD1999999-0171MW1021REMSYN100AAXX  01004 83344 21497 30907 10209 20201 39171 40128 70265 83050 333 10269 29091 55027 59017 60061;
0201833440999992005120112004-14950-040883FM-12+0840SBQV V0200501N001510075019N0200001N1+02251+01711101371ADDAA124011991AY151061AY221061GF106991061021008001001001KA1240N+01801MA1999999091791MD1999999-0071MW1031REMSYN088AAXX  01124 83344 21598 60503 10225 20171 39179 40137 70352 86200 333 20180 59007 60124;
0137833440999992005120118004-14950-040883FM-12+0840SBQV V0201401N001512200019N0200001N1+02771+01531100881ADDGF104991041011004501001001MA1999999091421MD1999999-0151REMSYN070AAXX  01184 83344 32498 41403 10277 20153 39142 40088 84100 333 59015;
0178833440999992005120200004-14950-040883FM-12+0840SBQV V0200501N000512200019N0100001N1+01881+01681101091ADDGA1001+999999999GF100991001001999999001001KA1240M+02891MA1999999091491MD1999999-0221REMSYN082AAXX  02004 83344 32997 00501 10188 20168 39149 40109 333 10289 29074 55104 59022;
0156833440999992005120212004-14950-040883FM-12+0840SBQV V0200901N001010450019N0200001N1+02331+01721101081ADDGF105991031011004501091001KA1240N+01701MA1999999091511MD1999999-0281REMSYN076AAXX  02124 83344 32498 50902 10233 20172 39151 40108 83190 333 20170 59028;
0137833440999992005120218004-14950-040883FM-12+0840SBQV V0203601N001512200019N0200001N1+02971+01681100571ADDGF102991021011004501001001MA1999999091161MD1999999-0261REMSYN070AAXX  02184 83344 32498 23603 10297 20168 39116 40057 82100 333 59026;
0213833440999992005120300004-14950-040883FM-12+0840SBQV V0203601N001512200019N0040001N1+02131+01951100811ADDAA106004191AY161061AY221061GF104991041001012501031001KA1240M+03051MA1999999091321MD1999999-0171MW1011REMSYN100AAXX  03004 83344 21696 43603 10213 20195 39132 40081 70162 84030 333 10305 29074 55092 59017 60041;
0173833440999992005120312004-14950-040883FM-12+0840SBQV V0202301N002110042019N0100001N1+02101+02031101061ADDAA124004191GF108991081071004501999999KA1240N+02001MA1999999091491MD1999999-0021REMSYN082AAXX  03124 83344 22497 82304 10210 20203 39149 40106 887// 333 20200 59002 60044;
0137833440999992005120318004-14950-040883FM-12+0840SBQV V0203201N001510042019N0200001N1+02641+01761100671ADDGF108991061071004501051001MA1999999091211MD1999999+0051REMSYN070AAXX  03184 83344 32498 83203 10264 20176 39121 40067 86750 333 58005;
0213833440999992005120400004-14950-040883FM-12+0840SBQV V0201401N003610021019N0040001N1+01961+01881101131ADDAA106002091AY161061AY251061GF108991081071002501999999KA1240M+02671MA1999999091531MD1999999+0211MW1501REMSYN100AAXX  04004 83344 21396 81407 10196 20188 39153 40113 75065 887// 333 10267 29088 55000 58021 60021;
0201833440999992005120412004-14950-040883FM-12+0840SBQV V0201401N003610042019N0100001N1+01741+01501101661ADDAA124002091AY151061AY221061GF108991081071004501999999KA1240N+01601MA1999999091681MD1999999+0191MW1021REMSYN088AAXX  04124 83344 21497 81407 10174 20150 39168 40166 70252 887// 333 20160 58019 60024;
0137833440999992005120418004-14950-040883FM-12+0840SBQV V0201401N002610042019N0100001N1+02171+01721100991ADDGF108991081071004501999999MA1999999091361MD1999999+0151REMSYN070AAXX  04184 83344 32497 81405 10217 20172 39136 40099 887// 333 58015;
0168833440999992005120500004-14950-040883FM-12+0840SBQV V0201401N003110042019N0100001N1+01821+01671101211ADDGF108991081071004501999999KA1240M+02251MA1999999091501MD1999999-0031REMSYN088AAXX  05004 83344 32497 81406 10182 20167 39150 40121 887// 333 10225 29086 55003 59003;
0156833440999992005120512004-14950-040883FM-12+0840SBQV V0200501N003110042019N0200001N1+01921+01531101271ADDGF108991081071004501999999KA1240N+01601MA1999999091581MD1999999-0101REMSYN076AAXX  05124 83344 32498 80506 10192 20153 39158 40127 887// 333 20160 59010;
0137833440999992005120518004-14950-040883FM-12+0840SBQV V0201401N000510042019N0200001N1+02371+01731100831ADDGF108991081071004501999999MA1999999091241MD1999999-0121REMSYN070AAXX  05184 83344 32498 81401 10237 20173 39124 40083 887// 333 59012;
0168833440999992005120600004-14950-040883FM-12+0840SBQV V0200501N002112200019N0040001N1+02001+01741100921ADDGF104991041041004501001001KA1240M+02431MA1999999091301MD1999999-0201REMSYN088AAXX  06004 83344 32496 40504 10200 20174 39130 40092 84400 333 10243 29078 55001 59020;
0156833440999992005120612004-14950-040883FM-12+0840SBQV V0203601N002610450019N0200001N1+02231+01821100841ADDGF108991041051008001011999KA1240N+01891MA1999999091291MD1999999-0291REMSYN076AAXX  06124 83344 32598 83605 10223 20182 39129 40084 8451/ 333 20189 59029;
0137833440999992005120618004-14950-040883FM-12+0840SBQV V0203601N003110075019N0200001N1+02511+01911100441ADDGF107991051031008001021001MA1999999090961MD1999999-0281REMSYN070AAXX  06184 83344 32598 73606 10251 20191 39096 40044 85320 333 59028;
0137833440999992005120718004-14950-040883FM-12+0840SBQV V0203601N002611050019N0200001N1+02611+02011100391ADDGF106991021041008001041061MA1999999090981MD1999999+0081REMSYN070AAXX  07184 83344 32598 63605 10261 20201 39098 40039 82446 333 58008;
0168833440999992005120800004-14950-040883FM-12+0840SBQV V0203601N002610042019N0100001N1+02111+01931100731ADDGF108991081071004501999999KA1240M+02671MA1999999091211MD1999999+0091REMSYN088AAXX  08004 83344 32497 83605 10211 20193 39121 40073 887// 333 10267 29086 55024 58009;
0156833440999992005120812004-14950-040883FM-12+0840SBQV V0203601N003110042019N0200001N1+02291+02001101061ADDGF108991081071004501999999KA1240N+02181MA1999999091531MD1999999+0271REMSYN076AAXX  08124 83344 32498 83606 10229 20200 39153 40106 887// 333 20218 58027;
0182833440999992005120818004-14950-040883FM-12+0840SBQV V0202701N001510042019N0100001N1+02001+01931101061ADDAA106004191AY151061AY221061GF108991081071004501999999MA1999999091491MD1999999+0511MW1621REMSYN082AAXX  08184 83344 21497 82703 10200 20193 39149 40106 76252 887// 333 58051 60041;
0232833440999992005120900004-14950-040883FM-12+0840SBQV V0200901N001510042019N0040001N1+03962+01881101281ADDAA106004191AY151061AY221061GF108991081071004501999999KA1240M+99999MA1999999091711MD1999999+0501MW1621REMSYN100AAXX  09004 83344 21496 80903 10396 20188 39171 40128 76252 887// 333 10253 29093 55000 58050 60041;EQDQ01 +02532ATMX  
0201833440999992005120912004-14950-040883FM-12+0840SBQV V0200501N002610021019N0040001N1+02051+01971101451ADDAA124009991AY151061AY221061GF108991081071002501999999KA1240N+02021MA1999999091801MD1999999+0271MW1621REMSYN088AAXX  09124 83344 21396 80505 10205 20197 39180 40145 76252 887// 333 20202 58027 60104;
0182833440999992005120918004-14950-040883FM-12+0840SBQV V0203601N002110042019N0200001N1+02301+02051101061ADDAA106002091AY161061AY251061GF107991051071004501051001MA1999999091511MD1999999+0021MW1021REMSYN082AAXX  09184 83344 21498 73604 10230 20205 39151 40106 70265 85750 333 58002 60021;
0213833440999992005121000004-14950-040883FM-12+0840SBQV V0209999C000010042019N0040001N1+01961+01931101391ADDAA106007991AY161061AY251061GF108991081071004501999999KA1240M+02491MA1999999091751MD1999999+0041MW1021REMSYN100AAXX  10004 83344 21496 80000 10196 20193 39175 40139 70265 887// 333 10249 29095 55001 58004 60081;
0201833440999992005121012004-14950-040883FM-12+0840SBQV V0200501N002110075019N0200001N1+02411+01821101281ADDAA124009991AY151061AY221061GF105991051011008001001001KA1240N+02001MA1999999091731MD1999999-0071MW1031REMSYN088AAXX  10124 83344 21598 50504 10241 20182 39173 40128 70352 85100 333 20200 59007 60104;
0137833440999992005121018004-14950-040883FM-12+0840SBQV V0201401N002110075019N0200001N1+02661+01791100861ADDGF106991061021008001001001MA1999999091381MD1999999-0131REMSYN070AAXX  10184 83344 32598 61404 10266 20179 39138 40086 86200 333 59013;
0168833440999992005121100004-14950-040883FM-12+0840SBQV V0200901N001512200019N0100001N1+01941+01681101121ADDGF104991041001012501031001KA1240M+02811MA1999999091561MD1999999-0191REMSYN088AAXX  11004 83344 32697 40903 10194 20168 39156 40112 84030 333 10281 29075 55098 59019;
0156833440999992005121112004-14950-040883FM-12+0840SBQV V0200501N003610450019N0200001N1+02251+01731101121ADDGF106991041041004501081001KA1240N+01881MA1999999091551MD1999999-0181REMSYN076AAXX  11124 83344 32498 60507 10225 20173 39155 40112 84480 333 20188 59018;
0137833440999992005121118004-14950-040883FM-12+0840SBQV V0200501N001510450019N0200001N1+02651+01751100691ADDGF106991041041004501071001MA1999999091231MD1999999-0151REMSYN070AAXX  11184 83344 32498 60503 10265 20175 39123 40069 84470 333 59015;
0168833440999992005121200004-14950-040883FM-12+0840SBQV V0200501N001512200019N0100001N1+02011+01901101011ADDGF102991021001012501051001KA1240M+02751MA1999999091481MD1999999+0081REMSYN088AAXX  12004 83344 32697 20503 10201 20190 39148 40101 82050 333 10275 29080 55056 58008;
0156833440999992005121212004-14950-040883FM-12+0840SBQV V0200501N003110450019N0200001N1+02331+01791101111ADDGF106991041041004501051001KA1240N+01861MA1999999091651MD1999999+0101REMSYN076AAXX  12124 83344 32498 60506 10233 20179 39165 40111 84450 333 20186 58010;
0137833440999992005121218004-14950-040883FM-12+0840SBQV V0201401N003110450019N0200001N1+02671+01921100761ADDGF106991031041004501051091MA1999999091291MD1999999+0061REMSYN070AAXX  12184 83344 32498 61406 10267 20192 39129 40076 83459 333 58006;
0168833440999992005121300004-14950-040883FM-12+0840SBQV V0200901N002610450019N0100001N1+01941+01791101081ADDGF106991041041008001031001KA1240M+02851MA1999999091531MD1999999+0051REMSYN088AAXX  13004 83344 32597 60905 10194 20179 39153 40108 84430 333 10285 29079 55085 58005;
0156833440999992005121312004-14950-040883FM-12+0840SBQV V0203601N003110042019N0200001N1+02231+01731101221ADDGF108991081071004501999999KA1240N+01701MA1999999091631MD1999999-0021REMSYN076AAXX  13124 83344 32498 83606 10223 20173 39163 40122 887// 333 20170 59002;
0137833440999992005121318004-14950-040883FM-12+0840SBQV V0200501N001010450019N0200001N1+02551+01731100861ADDGF108991041071004501061061MA1999999091331MD1999999+0041REMSYN070AAXX  13184 83344 32498 80502 10255 20173 39133 40086 84766 333 58004;
0213833440999992005121400004-14950-040883FM-12+0840SBQV V0200501N002610021019N0040001N1+02011+01761101161ADDAA106000591AY151061AY221061GF108991081071002501999999KA1240M+02671MA1999999091571MD1999999+0041MW1021REMSYN100AAXX  14004 83344 21396 80505 10201 20176 39157 40116 70252 887// 333 10267 29077 55023 58004 69941;
0201833440999992005121412004-14950-040883FM-12+0840SBQV V0203601N003110042019N0200001N1+02191+01841101221ADDAA124002091AY151061AY221061GF108991081071004501999999KA1240N+02001MA1999999091631MD1999999+0001MW1011REMSYN088AAXX  14124 83344 21498 83606 10219 20184 39163 40122 70152 887// 333 20200 58000 60024;
0182833440999992005121418004-14950-040883FM-12+0840SBQV V0203601N001510450019N0200001N1+02571+01801100771ADDAA106001091AY161061AY221061GF106991021041004501091001MA1999999091301MD1999999-0031MW1011REMSYN082AAXX  14184 83344 21498 63603 10257 20180 39130 40077 70162 82490 333 59003 60011;
0168833440999992005121500004-14950-040883FM-12+0840SBQV V0200901N001010450019N0040001N1+02111+01881101031ADDGF107991021041004501031001KA1240M+02631MA1999999091481MD1999999-0091REMSYN088AAXX  15004 83344 32496 70902 10211 20188 39148 40103 82430 333 10263 29079 55010 59009;
0137833440999992005121518004-14950-040883FM-12+0840SBQV V0203601N004110450019N0200001N1+02671+01871100761ADDGF107991031071004501051011MA1999999091341MD1999999+0041REMSYN070AAXX  15184 83344 32498 73608 10267 20187 39134 40076 83751 333 58004;
0168833440999992005121600004-14950-040883FM-12+0840SBQV V0200501N001510042019N0100001N1+02111+01981101121ADDGF105991051071004501001001KA1240M+02771MA1999999091551MD1999999+0071REMSYN088AAXX  16004 83344 32497 50503 10211 20198 39155 40112 85700 333 10277 29081 55034 58007;
0156833440999992005121612004-14950-040883FM-12+0840SBQV V0200501N003112200019N0200001N1+02451+01861101211ADDGF106991031021008001001061KA1240N+02011MA1999999091681MD1999999+0141REMSYN076AAXX  16124 83344 32598 60506 10245 20186 39168 40121 83206 333 20201 58014;
0137833440999992005121618004-14950-040883FM-12+0840SBQV V0200501N001510042019N0200001N1+02581+01821100911ADDGF108991081071004501999999MA1999999091451MD1999999+0111REMSYN070AAXX  16184 83344 32498 80503 10258 20182 39145 40091 887// 333 58011;
0168833440999992005121700004-14950-040883FM-12+0840SBQV V0200901N000510120019N0040001N1+02091+01891101181ADDGF107991071001012501091001KA1240M+02631MA1999999091651MD1999999+0101REMSYN088AAXX  17004 83344 32696 70901 10209 20189 39165 40118 87090 333 10263 29078 55018 58010;
0137833440999992005121718004-14950-040883FM-12+0840SBQV V0201401N004112200019N0200001N1+02731+01951101131ADDGF104991021011004501091001MA1999999091661MD1999999+0211REMSYN070AAXX  17184 83344 32498 41408 10273 20195 39166 40113 82190 333 58021;
0168833440999992005121800004-14950-040883FM-12+0840SBQV V0200501N000512200019N0100001N1+02001+01811101381ADDGF105991021001012501051091KA1240M+02851MA1999999091801MD1999999+0151REMSYN088AAXX  18004 83344 32697 50501 10200 20181 39180 40138 82059 333 10285 29076 55078 58015;
0156833440999992005121812004-14950-040883FM-12+0840SBQV V0200901N002112200019N0200001N1+02411+01751101471ADDGF106991031011008001001041KA1240N+01701MA1999999091901MD1999999+0011REMSYN076AAXX  18124 83344 32598 60904 10241 20175 39190 40147 83104 333 20170 58001;
0137833440999992005121818004-14950-040883FM-12+0840SBQV V0200501N004110042019N0200001N1+02531+01911100891ADDGF106991061061004501001001MA1999999091671MD1999999+0011REMSYN070AAXX  18184 83344 32498 60508 10253 20191 39167 40089 86600 333 58001;
0178833440999992005121900004-14950-040883FM-12+0840SBQV V0201401N000512200019N0100001N1+02011+01901101331ADDGA1001+999999999GF100991001001999999001001KA1240M+02731MA1999999091771MD1999999-0031REMSYN082AAXX  19004 83344 32997 01401 10201 20190 39177 40133 333 10273 29081 55067 59003;
0156833440999992005121912004-14950-040883FM-12+0840SBQV V0201401N001510075019N0200001N1+02371+01801101491ADDGF106991061021008001001001KA1240N+01701MA1999999091921MD1999999+0021REMSYN076AAXX  19124 83344 32598 61403 10237 20180 39192 40149 86200 333 20170 58002;
0137833440999992005121918004-14950-040883FM-12+0840SBQV V0200901N003110075019N0200001N1+02791+01511101141ADDGF106991061011008001001001MA1999999091641MD1999999-0031REMSYN070AAXX  19184 83344 32598 60906 10279 20151 39164 40114 86100 333 59003;
0178833440999992005122000004-14950-040883FM-12+0840SBQV V0200901N002112200019N0100001N1+02031+01851101361ADDGA1001+999999999GF100991001001999999001001KA1240M+02851MA1999999091801MD1999999+0031REMSYN082AAXX  20004 83344 32997 00904 10203 20185 39180 40136 333 10285 29074 55109 58003;
0137833440999992005122018004-14950-040883FM-12+0840SBQV V0200901N004610450019N0200001N1+02631+01431101281ADDGF105991031041004501071001MA1999999091711MD1999999-0201REMSYN070AAXX  20184 83344 32498 50909 10263 20143 39171 40128 83470 333 59020;
0178833440999992005122100004-14950-040883FM-12+0840SBQV V0200901N002112200019N0040001N1+01941+01641101421ADDGA1001+999999999GF100991001001999999001001KA1240M+02791MA1999999091841MD1999999+0041REMSYN082AAXX  21004 83344 32996 00904 10194 20164 39184 40142 333 10279 29070 55103 58004;
0175833440999992005122112004-14950-040883FM-12+0840SBQV V0200501N002612200019N0200001N1+02201+01631101541ADDGF104991021011004501081001KA1240N+99999MA1999999091921MD1999999-0091REMSYN076AAXX  21124 83344 32498 40505 10220 20163 39192 40154 82180 333 20227 59009;EQDQ01 +02272ATMN  
0137833440999992005122118004-14950-040883FM-12+0840SBQV V0201401N003612200019N0200001N1+02691+01671101181ADDGF104991041021004501001001MA1999999091621MD1999999-0091REMSYN070AAXX  21184 83344 32498 41407 10269 20167 39162 40118 84200 333 59009;
0178833440999992005122200004-14950-040883FM-12+0840SBQV V0200901N000512200019N0040001N1+02071+01761101381ADDGA1001+999999999GF100991001001999999001001KA1240M+02871MA1999999091781MD1999999-0061REMSYN082AAXX  22004 83344 32996 00901 10207 20176 39178 40138 333 10287 29062 55105 59006;
0156833440999992005122212004-14950-040883FM-12+0840SBQV V0200901N003112200019N0200001N1+02421+01461101481ADDGF104991021011008001001051KA1240N+01601MA1999999091931MD1999999+0011REMSYN076AAXX  22124 83344 32598 40906 10242 20146 39193 40148 82105 333 20160 58001;
0137833440999992005122218004-14950-040883FM-12+0840SBQV V0201401N003612200019N0200001N1+02591+01611101231ADDGF104991041011008001001001MA1999999091661MD1999999+0041REMSYN070AAXX  22184 83344 32598 41407 10259 20161 39166 40123 84100 333 58004;
0178833440999992005122300004-14950-040883FM-12+0840SBQV V0200901N003112200019N0200001N1+02011+01681101361ADDGA1001+999999999GF100991001001999999001001KA1240M+02731MA1999999091801MD1999999-0021REMSYN082AAXX  23004 83344 32998 00906 10201 20168 39180 40136 333 10273 29068 55118 59002;
0156833440999992005122312004-14950-040883FM-12+0840SBQV V0200901N003110042019N0200001N1+02151+01661101571ADDGF108991081071004501999999KA1240N+01601MA1999999091951MD1999999+0021REMSYN076AAXX  23124 83344 32498 80906 10215 20166 39195 40157 887// 333 20160 58002;
0137833440999992005122318004-14950-040883FM-12+0840SBQV V0200501N002610042019N0200001N1+02411+01601101251ADDGF106991051071004501081001MA1999999091641MD1999999-0021REMSYN070AAXX  23184 83344 32498 60505 10241 20160 39164 40125 85780 333 59002;
0178833440999992005122400004-14950-040883FM-12+0840SBQV V0200901N001512200019N0040001N1+01961+01701101321ADDGA1001+999999999GF100991001001999999001001KA1240M+02651MA1999999091701MD1999999-0101REMSYN082AAXX  24004 83344 32996 00903 10196 20170 39170 40132 333 10265 29076 55049 59010;
0201833440999992005122412004-14950-040883FM-12+0840SBQV V0200501N002110042019N0200001N1+02311+01751101501ADDAA124003091AY161061AY251061GF106991061021004501001001KA1240N+01701MA1999999091881MD1999999-0071MW1021REMSYN088AAXX  24124 83344 21498 60504 10231 20175 39188 40150 70265 86200 333 20170 59007 60034;
0137833440999992005122418004-14950-040883FM-12+0840SBQV V0201401N003610450019N0200001N1+02711+01661101021ADDGF107991041021004501051001MA1999999091491MD1999999-0151REMSYN070AAXX  24184 83344 32498 71407 10271 20166 39149 40102 84250 333 59015;
0168833440999992005122500004-14950-040883FM-12+0840SBQV V0200901N001010120019N0100001N1+01901+01751101231ADDGF105991051001012501051001KA1240M+02791MA1999999091641MD1999999-0061REMSYN088AAXX  25004 83344 32697 50902 10190 20175 39164 40123 85050 333 10279 29076 55105 59006;
0156833440999992005122512004-14950-040883FM-12+0840SBQV V0200501N002110075019N0200001N1+02351+01721101351ADDGF106991061011008001001001KA1240N+01601MA1999999091771MD1999999-0111REMSYN076AAXX  25124 83344 32598 60504 10235 20172 39177 40135 86100 333 20160 59011;
0137833440999992005122518004-14950-040883FM-12+0840SBQV V0201401N004110450019N0200001N1+02751+01731100951ADDGF106991041021008001081001MA1999999091431MD1999999-0061REMSYN070AAXX  25184 83344 32598 61408 10275 20173 39143 40095 84280 333 59006;
0178833440999992005122600004-14950-040883FM-12+0840SBQV V0200901N002112200019N0100001N1+02191+01871101121ADDGA1001+999999999GF100991001001999999001001KA1240M+02811MA1999999091581MD1999999-0061REMSYN082AAXX  26004 83344 32997 00904 10219 20187 39158 40112 333 10281 29074 55083 59006;
0156833440999992005122612004-14950-040883FM-12+0840SBQV V0200901N003111050019N0200001N1+02351+01601101341ADDGF105991011011004501071011KA1240N+01681MA1999999091781MD1999999+0011REMSYN076AAXX  26124 83344 32498 50906 10235 20160 39178 40134 81171 333 20168 58001;
0182833440999992005122618004-14950-040883FM-12+0840SBQV V0201401N002610450019N0200001N1+02271+02031101051ADDAA106000891AY161061AY221061GF106991021011004501051011MA1999999091451MD1999999+0021MW1021REMSYN082AAXX  26184 83344 21498 61405 10227 20203 39145 40105 70262 82151 333 58002 69981;
0178833440999992005122700004-14950-040883FM-12+0840SBQV V0200901N003612200019N0040001N1+02001+01801101161ADDGA1001+999999999GF100991001001999999001001KA1240M+02671MA1999999091601MD1999999+0021REMSYN082AAXX  27004 83344 32996 00907 10200 20180 39160 40116 333 10267 29080 55077 58002;
0173833440999992005122712004-14950-040883FM-12+0840SBQV V0200901N004610042019N0200001N1+02131+01641101371ADDAA124000891GF107991071071004501001001KA1240N+01701MA1999999091721MD1999999-0061REMSYN082AAXX  27124 83344 22498 70909 10213 20164 39172 40137 87700 333 20170 59006 69984;
0137833440999992005122718004-14950-040883FM-12+0840SBQV V0201401N003110042019N0200001N1+02591+01801100861ADDGF106991061041004501001001MA1999999091311MD1999999-0141REMSYN070AAXX  27184 83344 32498 61406 10259 20180 39131 40086 86400 333 59014;
0178833440999992005122800004-14950-040883FM-12+0840SBQV V0201401N001512200019N0100001N1+01901+01771101171ADDGA1001+999999999GF100991001001999999001001KA1240M+02691MA1999999091551MD1999999-0051REMSYN082AAXX  28004 83344 32997 01403 10190 20177 39155 40117 333 10269 29080 55033 59005;
0156833440999992005122812004-14950-040883FM-12+0840SBQV V0200901N003110450019N0200001N1+02251+01691101291ADDGF108991041031008001021999KA1240N+01821MA1999999091671MD1999999-0051REMSYN076AAXX  28124 83344 32598 80906 10225 20169 39167 40129 8432/ 333 20182 59005;
0137833440999992005122818004-14950-040883FM-12+0840SBQV V0201801N003110450019N0200001N1+02541+01681100951ADDGF107991031021008001021001MA1999999091411MD1999999+0101REMSYN070AAXX  28184 83344 32598 71806 10254 20168 39141 40095 83220 333 58010;
0168833440999992005122900004-14950-040883FM-12+0840SBQV V0200901N001510450019N0100001N1+01981+01781101231ADDGF108991041071004501021999KA1240M+02691MA1999999091641MD1999999+0091REMSYN088AAXX  29004 83344 32497 80903 10198 20178 39164 40123 8472/ 333 10269 29076 55026 58009;
0156833440999992005122912004-14950-040883FM-12+0840SBQV V0200501N003110042019N0100001N1+02141+01801101321ADDGF108991081071004501999999KA1240N+01731MA1999999091701MD1999999+0031REMSYN076AAXX  29124 83344 32497 80506 10214 20180 39170 40132 887// 333 20173 58003;
0182833440999992005122918004-14950-040883FM-12+0840SBQV V0200901N002610042019N0200001N1+02151+01951101101ADDAA106003091AY161061AY221061GF107991071061004501001001MA1999999091481MD1999999+0071MW1011REMSYN082AAXX  29184 83344 21498 70905 10215 20195 39148 40110 70162 87600 333 58007 60031;
0168833440999992005123000004-14950-040883FM-12+0840SBQV V0200901N001512200019N0040001N1+01961+01771101351ADDGF104991041001012501071001KA1240M+02411MA1999999091731MD1999999+0091REMSYN088AAXX  30004 83344 32696 40903 10196 20177 39173 40135 84070 333 10241 29087 55013 58009;
0201833440999992005123012004-14950-040883FM-12+0840SBQV V0201401N000510042019N0100001N1+01981+01861101601ADDAA124005191AY161061AY221061GF108991081071004501999999KA1240N+01881MA1999999091921MD1999999+0221MW1021REMSYN088AAXX  30124 83344 21497 81401 10198 20186 39192 40160 70262 887// 333 20188 58022 60054;
0137833440999992005123018004-14950-040883FM-12+0840SBQV V0201401N003110042019N0100001N1+02111+01881101351ADDGF108991081071004501999999MA1999999091711MD1999999+0231REMSYN070AAXX  30184 83344 32497 81406 10211 20188 39171 40135 887// 333 58023;
0201833440999992005123112004-14950-040883FM-12+0840SBQV V0200901N003610021019N0040001N1+02031+01921101511ADDAA124002091AY161061AY251061GF108991081071002501999999KA1240N+01721MA1999999091841MD1999999-0081MW1201REMSYN088AAXX  31124 83344 21396 80907 10203 20192 39184 40151 72065 887// 333 20172 59008 60024;
0137833440999992005123118004-14950-040883FM-12+0840SBQV V0201401N002610042019N0200001N1+02391+01751101231ADDGF107991051071004501061001MA1999999091621MD1999999-0091REMSYN070AAXX  31184 83344 32498 71405 10239 20175 39162 40123 85760 333 59009;
