0198833980999992005010100004-15667-038933FM-12+000599999V0200501N003110450019N0010001N1+02681+02281101411ADDAA106000091GF105991031011008001041001KA1240M+03081MA1999999101361MD1999999-0011REMSYN088AAXX  01004 83398 32594 50506 10268 20228 30136 40141 83140 333 10308 29/// 55114 59001;EQDQ01  00002PRCP06
0186833980999992005010112004-15667-038933FM-12+000599999V0200501N003110450019N0040001N1+02861+02231101441ADDAA106000091GF107991041051008001021011KA1240N+02201MA1999999101391MD1999999-0191REMSYN076AAXX  01124 83398 32596 70506 10286 20223 30139 40144 84521 333 20220 59019;EQDQ01  00002PRCP06
0198833980999992005010200004-15667-038933FM-12+000599999V0203601N003110450019N0010001N1+02701+02411101491ADDAA106000091GF106991041051008001021001KA1240M+03081MA1999999101441MD1999999+0081REMSYN088AAXX  02004 83398 32594 63606 10270 20241 30144 40149 84520 333 10308 29/// 55081 58008;EQDQ01  00002PRCP06
0190833980999992005010212004-15667-038933FM-12+000599999V0200501N001010450019N0040001N1+02621+02411101651ADDAY161061AY221061GF106991041051008001021001KA1240N+02361MA1999999101591MD1999999+0201MW1601REMSYN088AAXX  02124 83398 21596 60502 10262 20241 30159 40165 76062 84520 333 20236 58020 60254;
0190833980999992005010312004-15667-038933FM-12+000599999V0202301N001510042019N0040001N1+02381+02261101721ADDAY161061AY221061GF108991051051004501021999KA1240N+02261MA1999999101661MD1999999+0071MW1601REMSYN088AAXX  03124 83398 21496 82303 10238 20226 30166 40172 76062 8552/ 333 20226 58007 60234;
0221833980999992005010400004-15667-038933FM-12+000599999V0209999C000012200019N0010001N1+02321+02201101651ADDAY161061AY221061GF104991999051004501021999KA1240M+02651MA1999999101591MD1999999-0071MW1021REMSYN100AAXX  04004 83398 21494 40000 10232 20220 30159 40165 70262 8552/ 333 10265 29/// 55000 59007 60141;EQDQ01+000052SCOTLC
0202833980999992005010500004-15667-038933FM-12+000599999V0200501N002610042019N0010001N1+02481+02231101471ADDAY151061AY221061GF108991051051004501021999KA1240M+02941MA1999999101421MD1999999-0171MW1501REMSYN100AAXX  05004 83398 21494 80505 10248 20223 30142 40147 75052 8552/ 333 10294 29/// 55056 59017 60051;
0190833980999992005010512004-15667-038933FM-12+000599999V0200501N001011050019N0040001N1+02781+02231101571ADDAY151061AY221061GF105991021021004501041011KA1240N+02091MA1999999101521MD1999999-0061MW1011REMSYN088AAXX  05124 83398 21496 50502 10278 20223 30152 40157 70152 82241 333 20209 59006 60054;
0198833980999992005010600004-15667-038933FM-12+000599999V0200501N002110450019N0010001N1+02641+02161101431ADDAA106000091GF106991041051008001021001KA1240M+02991MA1999999101381MD1999999-0041REMSYN088AAXX  06004 83398 32594 60504 10264 20216 30138 40143 84520 333 10299 29/// 55110 59004;EQDQ01  00002PRCP06
0190833980999992005010612004-15667-038933FM-12+000599999V0209999C000010042019N0040001N1+02481+02271101571ADDAY151061AY221061GF108991051051004501021999KA1240N+02201MA1999999101521MD1999999+0001MW1501REMSYN088AAXX  06124 83398 21496 80000 10248 20227 30152 40157 75052 8552/ 333 20220 58000 60024;
0202833980999992005010700004-15667-038933FM-12+000599999V0200501N002110450019N0010001N1+02921+02371101491ADDAY151061AY221061GF105991031021004501041001KA1240M+02951MA1999999101441MD1999999+0061MW1011REMSYN100AAXX  07004 83398 21494 50504 10292 20237 30144 40149 70152 83240 333 10295 29/// 55087 58006 69911;
0190833980999992005010712004-15667-038933FM-12+000599999V0203601N001010450019N0040001N1+02761+02401101551ADDAY151061AY221061GF105991031051004501041001KA1240N+02221MA1999999101501MD1999999-0021MW1501REMSYN088AAXX  07124 83398 21496 53602 10276 20240 30150 40155 75052 83540 333 20222 59002 60014;
0202833980999992005010800004-15667-038933FM-12+000599999V0200501N001512200019N0010001N1+02661+02181101441ADDAY151061AY221061GF104991021021004501041001KA1240M+03051MA1999999101391MD1999999-0051MW1011REMSYN100AAXX  08004 83398 21494 40503 10266 20218 30139 40144 70152 82240 333 10305 29/// 55077 59005 69911;
0162833980999992005010812004-15667-038933FM-12+000599999V0200501N004610450019N0040001N1+02871+02431101491ADDGF105991031021004501041001KA1240N+02221MA1999999101441MD1999999-0061REMSYN082AAXX  08124 83398 22496 50509 10287 20243 30144 40149 83240 333 20222 59006 69914;
0186833980999992005010912004-15670-038950FM-12+000599999V0203601N003110450019N0040001N1+02921+02341101421ADDAA106000091GF106991031051008001041001KA1240N+02251MA1999999101371MD1999999-0071REMSYN076AAXX  09124 83398 32596 63606 10292 20234 30137 40142 83540 333 20225 59007;EQDQ01  00002PRCP06
0198833980999992005011100004-15667-038933FM-12+000599999V0203601N003110450019N0010001N1+02681+02451101121ADDAA106000091GF106991031051008001021001KA1240M+03121MA1999999101071MD1999999-0111REMSYN088AAXX  11004 83398 32594 63606 10268 20245 30107 40112 83520 333 10312 29/// 55107 59011;EQDQ01  00002PRCP06
0186833980999992005011112004-15667-038933FM-12+000599999V0200501N004110450019N0040001N1+02941+02311101301ADDAA106000091GF106991041051008001021001KA1240N+02301MA1999999101251MD1999999-0011REMSYN076AAXX  11124 83398 32596 60508 10294 20231 30125 40130 84520 333 20230 59001;EQDQ01  00002PRCP06
0198833980999992005011200004-15667-038933FM-12+000599999V0203601N003112200019N0010001N1+02691+02451101151ADDAA106000091GF103991031011008001001001KA1240M+03071MA1999999101101MD1999999+0031REMSYN088AAXX  12004 83398 32594 33606 10269 20245 30110 40115 83100 333 10307 29/// 55110 58003;EQDQ01  00002PRCP06
0186833980999992005011212004-15667-038933FM-12+000599999V0203601N004110075019N0040001N1+02941+02311101201ADDAA106000091GF107991051051008001021001KA1240N+02341MA1999999101151MD1999999-0101REMSYN076AAXX  12124 83398 32596 73608 10294 20231 30115 40120 85520 333 20234 59010;EQDQ01  00002PRCP06
0198833980999992005011300004-15667-038933FM-12+000599999V0203601N001510450019N0010001N1+02681+02411101091ADDAA106000091GF106991041051008001021001KA1240M+03071MA1999999101041MD1999999-0061REMSYN088AAXX  13004 83398 32594 63603 10268 20241 30104 40109 84520 333 10307 29/// 55099 59006;EQDQ01  00002PRCP06
0190833980999992005011312004-15667-038933FM-12+000599999V0202701N001010075019N0040001N1+02581+02331101171ADDAY161061AY221061GF108991061051008001021999KA1240N+02381MA1999999101121MD1999999-0031MW1021REMSYN088AAXX  13124 83398 21596 82702 10258 20233 30112 40117 70262 8652/ 333 20238 59003 60094;
0202833980999992005011400004-15667-038933FM-12+000599999V0203601N002110450019N0010001N1+02421+02281101081ADDAY191061AY261061GF108991041071008001021999KA1240M+02661MA1999999101031MD1999999-0011MW1601REMSYN100AAXX  14004 83398 21594 83604 10242 20228 30103 40108 76096 8472/ 333 10266 29/// 55010 59001 60271;
0190833980999992005011412004-15667-038933FM-12+000599999V0203601N002110075019N0040001N1+02601+02441101091ADDAY191061AY261061GF108991051071008001021999KA1240N+02241MA1999999101041MD1999999-0081MW1021REMSYN088AAXX  14124 83398 21596 83604 10260 20244 30104 40109 70296 8572/ 333 20224 59008 60354;
0198833980999992005011500004-15667-038933FM-12+000599999V0203601N001010450019N0010001N1+02601+02481101131ADDAA106000091GF106991041051008001021001KA1240M+02871MA1999999101081MD1999999+0051REMSYN088AAXX  15004 83398 32594 63602 10260 20248 30108 40113 84520 333 10287 29/// 55017 58005;EQDQ01  00002PRCP06
0190833980999992005011512004-15667-038933FM-12+000599999V0203601N001010075019N0040001N1+02401+02281101281ADDAY191061AY261061GF108991081071008001999999KA1240N+02361MA1999999101231MD1999999+0191MW1621REMSYN088AAXX  15124 83398 21596 83602 10240 20228 30123 40128 76296 887// 333 20236 58019 60054;
0162833980999992005011612004-15667-038933FM-12+000599999V0200501N003610450019N0040001N1+02851+02411101221ADDGF106991041051004501041001KA1240N+02301MA1999999101171MD1999999-0061REMSYN082AAXX  16124 83398 22496 60507 10285 20241 30117 40122 84540 333 20230 59006 60114;
0198833980999992005011700004-15670-038950FM-12+000599999V0200501N003110450019N0010001N1+02581+02421100961ADDAA106000091GF106991041051008001021001KA1240M+02981MA1999999100911MD1999999-0221REMSYN088AAXX  17004 83398 32594 60506 10258 20242 30091 40096 84520 333 10298 29/// 55108 59022;EQDQ01  00002PRCP06
0186833980999992005011712004-15670-038950FM-12+000599999V0203601N003110450019N0040001N1+02841+02261101181ADDAA106000091GF106991041051008001021001KA1240N+02201MA1999999101131MD1999999-0041REMSYN076AAXX  17124 83398 32596 63606 10284 20226 30113 40118 84520 333 20220 59004;EQDQ01  00002PRCP06
0198833980999992005011800004-15667-038933FM-12+000599999V0203601N002110450019N0010001N1+02601+02351101181ADDAA106000091GF106991041051008001021001KA1240M+03011MA1999999101131MD1999999+0221REMSYN088AAXX  18004 83398 32594 63604 10260 20235 30113 40118 84520 333 10301 29/// 55104 58022;EQDQ01  00002PRCP06
0186833980999992005011812004-15667-038933FM-12+000599999V0203601N003110450019N0040001N1+02841+02261101181ADDAA106000091GF106991041051008001021001KA1240N+02201MA1999999101131MD1999999-0041REMSYN076AAXX  18124 83398 32596 63606 10284 20226 30113 40118 84520 333 20220 59004;EQDQ01  00002PRCP06
0198833980999992005011900004-15667-038933FM-12+000599999V0209999C000010450019N0010001N1+02541+02291101321ADDAA106000091GF105991021051008001041001KA1240M+03001MA1999999101261MD1999999+0131REMSYN088AAXX  19004 83398 32594 50000 10254 20229 30126 40132 82540 333 10300 29/// 55035 58013;EQDQ01  00002PRCP06
0186833980999992005011912004-15667-038933FM-12+000599999V0200501N003110450019N0040001N1+02871+02341101331ADDAA106000091GF105991031021008001041001KA1240N+02211MA1999999101281MD1999999+0151REMSYN076AAXX  19124 83398 32596 50506 10287 20234 30128 40133 83240 333 20221 58015;EQDQ01  00002PRCP06
0198833980999992005012000004-15667-038933FM-12+000599999V0200501N001512200019N0010001N1+02601+02351101181ADDAA106000091GF104991031021008001041001KA1240M+02991MA1999999101131MD1999999-0131REMSYN088AAXX  20004 83398 32594 40503 10260 20235 30113 40118 83240 333 10299 29/// 55109 59013;EQDQ01  00002PRCP06
0186833980999992005012012004-15667-038933FM-12+000599999V0203601N002110450019N0040001N1+02841+02221101321ADDAA106000091GF105991021021008001041001KA1240N+02241MA1999999101271MD1999999-0011REMSYN076AAXX  20124 83398 32596 53604 10284 20222 30127 40132 82240 333 20224 59001;EQDQ01  00002PRCP06
0198833980999992005012100004-15667-038933FM-12+000599999V0203601N002110450019N0010001N1+02641+02421101201ADDAA106000091GF105991031051008001021001KA1240M+03061MA1999999101151MD1999999+0021REMSYN088AAXX  21004 83398 32594 53604 10264 20242 30115 40120 83520 333 10306 29/// 55094 58002;EQDQ01  00002PRCP06
0186833980999992005012112004-15667-038933FM-12+000599999V0203601N002110450019N0040001N1+02841+02351101431ADDAA106000091GF106991031051008001021001KA1240N+02441MA1999999101381MD1999999+0111REMSYN076AAXX  21124 83398 32596 63604 10284 20235 30138 40143 83520 333 20244 58011;EQDQ01  00002PRCP06
0198833980999992005012200004-15667-038933FM-12+000599999V0203601N001012200019N0010001N1+02661+02431101321ADDAA106000091GF104991021011008001041001KA1240M+03061MA1999999101271MD1999999+0121REMSYN088AAXX  22004 83398 32594 43602 10266 20243 30127 40132 82140 333 10306 29/// 55110 58012;EQDQ01  00002PRCP06
0186833980999992005012212004-15667-038933FM-12+000599999V0200501N002110450019N0040001N1+02961+02351101491ADDAA106000091GF106991041051008001021001KA1240N+02341MA1999999101441MD1999999+0061REMSYN076AAXX  22124 83398 32596 60504 10296 20235 30144 40149 84520 333 20234 58006;EQDQ01  00002PRCP06
0186833980999992005012312004-15670-038950FM-12+000599999V0209999C000010450019N0010001N1+02901+02171101351ADDAA106000091GF106991041021008001041001KA1240N+02181MA1999999101301MD1999999-0141REMSYN076AAXX  23124 83398 32594 60000 10290 20217 30130 40135 84240 333 20218 59014;EQDQ01  00002PRCP06
0186833980999992005012412004-15670-038950FM-12+000599999V0203601N001010450019N0040001N1+02941+02261101281ADDAA106000091GF105991031011008001041001KA1240N+02261MA1999999101171MD1999999-0131REMSYN076AAXX  24124 83398 32596 53602 10294 20226 30117 40128 83140 333 20226 59013;EQDQ01  00002PRCP06
0186833980999992005012512004-15667-038933FM-12+000599999V0209999C000010450019N0040001N1+02941+02311101141ADDAA106000091GF106991041051008001021001KA1240N+02301MA1999999101091MD1999999-0081REMSYN076AAXX  25124 83398 32596 60000 10294 20231 30109 40114 84520 333 20230 59008;EQDQ01  00002PRCP06
0198833980999992005012600004-15667-038933FM-12+000599999V0203601N001012200019N0010001N1+02681+02461101041ADDAA106000091GF103991031011008001001001KA1240M+03161MA1999999100991MD1999999-0031REMSYN088AAXX  26004 83398 32594 33602 10268 20246 30099 40104 83100 333 10316 29/// 55111 59003;EQDQ01  00002PRCP06
0186833980999992005012612004-15667-038933FM-12+000599999V0200501N004612200019N0040001N1+02991+02311101311ADDAA106000091GF104991021021008001041001KA1240N+02391MA1999999101261MD1999999+0171REMSYN076AAXX  26124 83398 32596 40509 10299 20231 30126 40131 82240 333 20239 58017;EQDQ01  00002PRCP06
0198833980999992005012700004-15667-038933FM-12+000599999V0203601N001012200019N0010001N1+02701+02411101201ADDAA106000091GF102991021011008001001001KA1240M+03221MA1999999101151MD1999999+0161REMSYN088AAXX  27004 83398 32594 23602 10270 20241 30115 40120 82100 333 10322 29/// 55114 58016;EQDQ01  00002PRCP06
0190833980999992005012712004-15667-038933FM-12+000599999V0203601N003110450019N0040001N1+03021+02531101391ADDAY151061AY221061GF106991041051008001021001KA1240N+02361MA1999999101341MD1999999+0081MW1021REMSYN088AAXX  27124 83398 21596 63606 10302 20253 30134 40139 70252 84520 333 20236 58008 69914;
0198833980999992005012800004-15667-038933FM-12+000599999V0201801N003110450019N0010001N1+02561+02401101431ADDAA106000091GF106991041051008001021001KA1240M+03231MA1999999101381MD1999999+0231REMSYN088AAXX  28004 83398 32594 61806 10256 20240 30138 40143 84520 333 10323 29/// 55062 58023;EQDQ01  00002PRCP06
0186833980999992005012812004-15667-038933FM-12+000599999V0201801N002110075019N0040001N1+02741+02411101421ADDAA106000091GF108991051051008001021999KA1240N+02411MA1999999101371MD1999999+0031REMSYN076AAXX  28124 83398 32596 81804 10274 20241 30137 40142 8552/ 333 20241 58003;EQDQ01  00002PRCP06
0202833980999992005012900004-15667-038933FM-12+000599999V0201801N003110075019N0010001N1+02421+02301101261ADDAY191061AY261061GF108991051071008001021999KA1240M+03001MA1999999101211MD1999999-0171MW1611REMSYN100AAXX  29004 83398 21594 81806 10242 20230 30121 40126 76196 8572/ 333 10300 29/// 55006 59017 60141;
0190833980999992005012912004-15667-038933FM-12+000599999V0201801N003110450019N0040001N1+02521+02361101161ADDAY191061AY261061GF108991041071008001021999KA1240N+02341MA1999999101111MD1999999-0101MW1521REMSYN088AAXX  29124 83398 21596 81806 10252 20236 30111 40116 75296 8472/ 333 20234 59010 60194;
0190833980999992005013012004-15670-038950FM-12+000599999V0200901N002110075019N0040001N1+02561+02361101111ADDAY191061AY261061GF108991061051008001021999KA1240N+02301MA1999999101061MD1999999-0051MW1021REMSYN088AAXX  30124 83398 21596 80904 10256 20236 30106 40111 70296 8652/ 333 20230 59005 60054;
0202833980999992005013100004-15667-038933FM-12+000599999V0209999C000010450019N0010001N1+02511+02351101061ADDAY151061AY221061GF106991041051004501021001KA1240M+02901MA1999999101011MD1999999-0061MW1501REMSYN100AAXX  31004 83398 21494 60000 10251 20235 30101 40106 75052 84520 333 10290 29/// 55006 59006 69931;
0190833980999992005013112004-15667-038933FM-12+000599999V0202701N002110450019N0040001N1+02801+02311101171ADDAY161061AY221061GF107991041051008001021001KA1240N+02321MA1999999101121MD1999999+0061MW1021REMSYN088AAXX  31124 83398 21596 72704 10280 20231 30112 40117 70262 84520 333 20232 58006 60014;
0198833980999992005020100004-15667-038933FM-12+000599999V0203601N004110450019N0010001N1+02641+02541101071ADDAA106000091GF105991031051008001021001KA1240M+03071MA1999999101021MD1999999+0011REMSYN088AAXX  01004 83398 32594 53608 10264 20254 30102 40107 83520 333 10307 29/// 55064 58001;EQDQ01  00002PRCP06
0175833980999992005020112004-15667-038933FM-12+000599999V0203601N004110450019N0040001N1+02801+02561999999ADDAY161061AY221061GF106991041051008001021001KA1240N+02321MD1999999-0101MW1021REMSYN088AAXX  01124 83398 21596 63608 10280 20256 3//// 4//// 70262 84520 333 20232 59010 60094;
0198833980999992005020200004-15667-038933FM-12+000599999V0203601N002110450019N0010001N1+02701+02561101131ADDAA106000091GF105991031051008001021001KA1240M+03081MA1999999101081MD1999999+0061REMSYN088AAXX  02004 83398 32594 53604 10270 20256 30108 40113 83520 333 10308 29/// 55104 58006;EQDQ01  00002PRCP06
0186833980999992005020212004-15667-038933FM-12+000599999V0203601N002110450019N0040001N1+02901+02341101281ADDAA106000091GF105991031021008001041001KA1240N+02401MA1999999101231MD1999999+0211REMSYN076AAXX  02124 83398 32596 53604 10290 20234 30123 40128 83240 333 20240 58021;EQDQ01  00002PRCP06
0198833980999992005020300004-15667-038933FM-12+000599999V0209999C000012200019N0010001N1+02481+02291101301ADDAA106000091GF104991041011008001001001KA1240M+03041MA1999999101251MD1999999+0171REMSYN088AAXX  03004 83398 32594 40000 10248 20229 30125 40130 84100 333 10304 29/// 55105 58017;EQDQ01  00002PRCP06
0186833980999992005020312004-15667-038933FM-12+000599999V0200901N003110450019N0040001N1+02921+02361101481ADDAA106000091GF106991041051008001021001KA1240N+02211MA1999999101431MD1999999+0201REMSYN076AAXX  03124 83398 32596 60906 10292 20236 30143 40148 84520 333 20221 58020;EQDQ01  00002PRCP06
0198833980999992005020400004-15667-038933FM-12+000599999V0201401N001010450019N0010001N1+02701+02481101501ADDAA106000091GF105991031051008001021001KA1240M+03071MA1999999101451MD1999999+0221REMSYN088AAXX  04004 83398 32594 51402 10270 20248 30145 40150 83520 333 10307 29/// 55108 58022;EQDQ01  00002PRCP06
0190833980999992005020412004-15667-038933FM-12+000599999V0203601N001010450019N0040001N1+02741+02261101691ADDAY161061AY221061GF106991041051008001021001KA1240N+02201MA1999999101631MD1999999+0201MW1021REMSYN088AAXX  04124 83398 21596 63602 10274 20226 30163 40169 70262 84520 333 20220 58020 60074;
0214833980999992005020500004-15667-038933FM-12+000599999V0200501N001012200019N0010001N1+02701+02501101591ADDAA106000091GF104991999011008001001001KA1240M+03041MA1999999101541MD1999999+0091REMSYN088AAXX  05004 83398 32594 40502 10270 20250 30154 40159 83100 333 10304 29/// 55075 58009;EQDQ01+000032SCOTLCQ02  00002PRCP06
0186833980999992005020512004-15667-038933FM-12+000599999V0209999C000010450019N0040001N1+02781+02131101641ADDAA106000091GF106991041051008001021001KA1240N+02241MA1999999101581MD1999999-0051REMSYN076AAXX  05124 83398 32596 60000 10278 20213 30158 40164 84520 333 20224 59005;EQDQ01  00002PRCP06
0198833980999992005020600004-15670-038950FM-12+000599999V0209999C000010450019N0010001N1+02601+02351101571ADDAA106000091GF105991031051008001021001KA1240M+03071MA1999999101521MD1999999-0021REMSYN088AAXX  06004 83398 32594 50000 10260 20235 30152 40157 83520 333 10307 29/// 55102 59002;EQDQ01  00002PRCP06
0186833980999992005020612004-15670-038950FM-12+000599999V0209999C000010450019N0040001N1+02741+02241101551ADDAA106000091GF106991041051008001021001KA1240N+02301MA1999999101501MD1999999-0081REMSYN076AAXX  06124 83398 32596 60000 10274 20224 30150 40155 84520 333 20230 59008;EQDQ01  00002PRCP06
0190833980999992005020712004-15667-038933FM-12+000599999V0201801N004110075019N0040001N1+02561+02191101501ADDAY161061AY221061GF108991051051008001021999KA1240N+02241MA1999999101451MD1999999-0051MW1021REMSYN088AAXX  07124 83398 21596 81808 10256 20219 30145 40150 70262 8552/ 333 20224 59005 69994;
0198833980999992005020800004-15667-038933FM-12+000599999V0201801N002112200019N0010001N1+02361+02171101461ADDAA106000091GF104991041051008001001001KA1240M+02981MA1999999101411MD1999999-0091REMSYN088AAXX  08004 83398 32594 41804 10236 20217 30141 40146 84500 333 10298 29/// 55007 59009;EQDQ01  00002PRCP06
0186833980999992005020812004-15667-038933FM-12+000599999V0201801N004110075019N0040001N1+02641+02231101501ADDAA106000091GF108991051051008001021999KA1240N+02201MA1999999101451MD1999999+0001REMSYN076AAXX  08124 83398 32596 81808 10264 20223 30145 40150 8552/ 333 20220 58000;EQDQ01  00002PRCP06
0186833980999992005020912004-15667-038933FM-12+000599999V0201801N002110450019N0040001N1+02761+02121101501ADDAA106000091GF105991031051008001041001KA1240N+02221MA1999999101451MD1999999+0001REMSYN076AAXX  09124 83398 32596 51804 10276 20212 30145 40150 83540 333 20222 58000;EQDQ01  00002PRCP06
0198833980999992005021000004-15667-038933FM-12+000599999V0201801N001512200019N0010001N1+02441+02211101291ADDAA106000091GF104991021021008001041001KA1240M+03061MA1999999101241MD1999999-0321REMSYN088AAXX  10004 83398 32594 41803 10244 20221 30124 40129 82240 333 10306 29/// 55086 59032;EQDQ01  00002PRCP06
0190833980999992005021012004-15667-038933FM-12+000599999V0201801N002110075019N0040001N1+02581+02191101251ADDAY161061AY221061GF107991051051008001021001KA1240N+02201MA1999999101201MD1999999-0251MW1021REMSYN088AAXX  10124 83398 21596 71804 10258 20219 30120 40125 70262 85520 333 20220 59025 60074;
0198833980999992005021100004-15667-038933FM-12+000599999V0209999C000012200019N0010001N1+02441+02251101141ADDAA106000091GF104991041051008001001001KA1240M+03061MA1999999101091MD1999999-0151REMSYN088AAXX  11004 83398 32594 40000 10244 20225 30109 40114 84500 333 10306 29/// 55083 59015;EQDQ01  00002PRCP06
0186833980999992005021112004-15667-038933FM-12+000599999V0202301N002110075019N0040001N1+02721+02301101191ADDAA106000091GF107991051051008001021001KA1240N+02181MA1999999101141MD1999999-0061REMSYN076AAXX  11124 83398 32596 72304 10272 20230 30114 40119 85520 333 20218 59006;EQDQ01  00002PRCP06
0198833980999992005021200004-15667-038933FM-12+000599999V0203601N002110450019N0010001N1+02701+02481101021ADDAA106000091GF105991031051008001021001KA1240M+03041MA1999999100971MD1999999-0121REMSYN088AAXX  12004 83398 32594 53604 10270 20248 30097 40102 83520 333 10304 29/// 55091 59012;EQDQ01  00002PRCP06
0186833980999992005021212004-15667-038933FM-12+000599999V0203601N004110075019N0040001N1+02981+02331101101ADDAA106000091GF106991051051008001021001KA1240N+02461MA1999999101051MD1999999-0091REMSYN076AAXX  12124 83398 32596 63608 10298 20233 30105 40110 85520 333 20246 59009;EQDQ01  00002PRCP06
0198833980999992005021300004-15670-038950FM-12+000599999V0203601N001010075019N0010001N1+02741+02541101001ADDAA106000091GF108991051051008001021999KA1240M+03141MA1999999100951MD1999999-0021REMSYN088AAXX  13004 83398 32594 83602 10274 20254 30095 40100 8552/ 333 10314 29/// 55075 59002;EQDQ01  00002PRCP06
0190833980999992005021312004-15670-038950FM-12+000599999V0202701N001010075019N0040001N1+02541+02351101211ADDAY191061AY261061GF108991061051008001021999KA1240N+02301MA1999999101161MD1999999+0111MW1021REMSYN088AAXX  13124 83398 21596 82702 10254 20235 30116 40121 70296 8652/ 333 20230 58011 60084;
0202833980999992005021400004-15667-038933FM-12+000599999V0203601N003110450019N0010001N1+02601+02501101051ADDAY191061AY261061GF108991041071008001021999KA1240M+02861MA1999999101001MD1999999+0051MW1601REMSYN100AAXX  14004 83398 21594 83606 10260 20250 30100 40105 76096 8472/ 333 10286 29/// 55002 58005 60031;
0190833980999992005021412004-15667-038933FM-12+000599999V0203601N004110075019N0040001N1+02621+02411101071ADDAY191061AY261061GF108991051051008001021999KA1240N+02361MA1999999101021MD1999999-0141MW1021REMSYN088AAXX  14124 83398 21596 83608 10262 20241 30102 40107 70296 8552/ 333 20236 59014 60094;
0202833980999992005021500004-15667-038933FM-12+000599999V0203601N000510450019N0010001N1+02641+02521100901ADDAY151061AY221061GF106991041051004501021001KA1240M+02931MA1999999100851MD1999999-0151MW1011REMSYN100AAXX  15004 83398 21494 63601 10264 20252 30085 40090 70152 84520 333 10293 29/// 55005 59015 69911;
0190833980999992005021512004-15667-038933FM-12+000599999V0203601N004110450019N0040001N1+02901+02221100851ADDAY151061AY221061GF106991041051008001021001KA1240N+02361MA1999999100801MD1999999-0221MW1021REMSYN088AAXX  15124 83398 21596 63608 10290 20222 30080 40085 70252 84520 333 20236 59022 69924;
0202833980999992005021600004-15667-038933FM-12+000599999V0203601N001010075019N0010001N1+02641+02501100861ADDAY151061AY221061GF108991051051008001021999KA1240M+03011MA1999999100811MD1999999-0041MW1501REMSYN100AAXX  16004 83398 21594 83602 10264 20250 30081 40086 75052 8552/ 333 10301 29/// 55084 59004 69911;
0190833980999992005021612004-15667-038933FM-12+000599999V0209999C000010042019N0040001N1+02581+02441101131ADDAY191061AY261061GF108991051051004501021999KA1240N+02421MA1999999101081MD1999999+0281MW1021REMSYN088AAXX  16124 83398 21496 80000 10258 20244 30108 40113 70296 8552/ 333 20242 58028 60234;
0202833980999992005021700004-15667-038933FM-12+000599999V0203601N001010075019N0010001N1+02461+02371101221ADDAY191061AY261061GF108991061051008001021999KA1240M+02781MA1999999101171MD1999999+0281MW1021REMSYN100AAXX  17004 83398 21594 83602 10246 20237 30117 40122 70296 8652/ 333 10278 29/// 55002 58028 60071;
0190833980999992005021712004-15667-038933FM-12+000599999V0202701N001010450019N0040001N1+02621+02461101431ADDAY161061AY221061GF108991041051008001021999KA1240N+02301MA1999999101381MD1999999+0301MW1021REMSYN088AAXX  17124 83398 21596 82702 10262 20246 30138 40143 70262 8452/ 333 20230 58030 60184;
0198833980999992005021800004-15667-038933FM-12+000599999V0200501N002110075019N0010001N1+02661+02541101481ADDAA106000091GF108991051051008001021999KA1240M+03021MA1999999101431MD1999999+0261REMSYN088AAXX  18004 83398 32594 80504 10266 20254 30143 40148 8552/ 333 10302 29/// 55043 58026;EQDQ01  00002PRCP06
0186833980999992005021812004-15667-038933FM-12+000599999V0203601N002110450019N0040001N1+02841+02311101571ADDAA106000091GF106991041051008001021001KA1240N+02321MA1999999101521MD1999999+0141REMSYN076AAXX  18124 83398 32596 63604 10284 20231 30152 40157 84520 333 20232 58014;EQDQ01  00002PRCP06
0198833980999992005021900004-15667-038933FM-12+000599999V0203601N001010450019N0010001N1+02601+02441101461ADDAA106000091GF106991041051008001021001KA1240M+03021MA1999999101411MD1999999-0021REMSYN088AAXX  19004 83398 32594 63602 10260 20244 30141 40146 84520 333 10302 29/// 55089 59002;EQDQ01  00002PRCP06
0186833980999992005021912004-15667-038933FM-12+000599999V0200501N002110450019N0040001N1+02841+02291101541ADDAA106000091GF106991041051008001021001KA1240N+02241MA1999999101491MD1999999-0031REMSYN076AAXX  19124 83398 32596 60504 10284 20229 30149 40154 84520 333 20224 59003;EQDQ01  00002PRCP06
0198833980999992005022000004-15670-038950FM-12+000599999V0200501N002110450019N0010001N1+02701+02501101331ADDAA106000091GF106991041051008001021001KA1240M+03041MA1999999101281MD1999999-0131REMSYN088AAXX  20004 83398 32594 60504 10270 20250 30128 40133 84520 333 10304 29/// 55101 59013;EQDQ01  00002PRCP06
0186833980999992005022012004-15670-038950FM-12+000599999V0203601N002110075019N0040001N1+02741+02321101231ADDAA106000091GF106991051051008001021001KA1240N+02401MA1999999101181MD1999999-0311REMSYN076AAXX  20124 83398 32596 63604 10274 20232 30118 40123 85520 333 20240 59031;EQDQ01  00002PRCP06
0202833980999992005022100004-15667-038933FM-12+000599999V0209999C000010075019N0010001N1+02541+02441101131ADDAY191061AY261061GF108991061071008001021999KA1240M+02981MA1999999101081MD1999999-0201MW1511REMSYN100AAXX  21004 83398 21594 80000 10254 20244 30108 40113 75196 8672/ 333 10298 29/// 55024 59020 60131;
0190833980999992005022112004-15667-038933FM-12+000599999V0202701N002110075019N0040001N1+02401+02311101111ADDAY191061AY261061GF108991051051008001021999KA1240N+01981MA1999999101061MD1999999-0121MW1021REMSYN088AAXX  21124 83398 21596 82704 10240 20231 30106 40111 70296 8552/ 333 20198 59012 60634;
0198833980999992005022200004-15667-038933FM-12+000599999V0209999C000010450019N0010001N1+02441+02371101051ADDAA106000091GF106991041051008001021001KA1240M+02921MA1999999101001MD1999999-0081REMSYN088AAXX  22004 83398 32594 60000 10244 20237 30100 40105 84520 333 10292 29/// 55021 59008;EQDQ01  00002PRCP06
0186833980999992005022212004-15667-038933FM-12+000599999V0209999C000010450019N0040001N1+02781+02301101251ADDAA106000091GF106991041051008001021001KA1240N+02201MA1999999101201MD1999999+0141REMSYN076AAXX  22124 83398 32596 60000 10278 20230 30120 40125 84520 333 20220 58014;EQDQ01  00002PRCP06
0198833980999992005022300004-15667-038933FM-12+000599999V0200501N001010450019N0010001N1+02621+02421101381ADDAA106000091GF105991021011008001041001KA1240M+03011MA1999999101331MD1999999+0331REMSYN088AAXX  23004 83398 32594 50502 10262 20242 30133 40138 82140 333 10301 29/// 55090 58033;EQDQ01  00002PRCP06
0186833980999992005022312004-15667-038933FM-12+000599999V0209999C000010450019N0040001N1+02821+02381101491ADDAA106000091GF106991041051008001021001KA1240N+02301MA1999999101441MD1999999+0241REMSYN076AAXX  23124 83398 32596 60000 10282 20238 30144 40149 84520 333 20230 58024;EQDQ01  00002PRCP06
0198833980999992005022400004-15667-038933FM-12+000599999V0203601N001010450019N0010001N1+02641+02421101491ADDAA106000091GF106991041051008001021001KA1240M+03021MA1999999101441MD1999999+0111REMSYN088AAXX  24004 83398 32594 63602 10264 20242 30144 40149 84520 333 10302 29/// 55102 58011;EQDQ01  00002PRCP06
0190833980999992005022412004-15667-038933FM-12+000599999V0200501N002110450019N0040001N1+02901+02411101631ADDAY161061AY221061GF106991041051008001021001KA1240N+02401MA1999999101571MD1999999+0131MW1021REMSYN088AAXX  24124 83398 21596 60504 10290 20241 30157 40163 70262 84520 333 20240 58013 69954;
0198833980999992005022500004-15667-038933FM-12+000599999V0209999C000010450019N0010001N1+02681+02461101461ADDAA106000091GF106991031011008001041011KA1240M+03121MA1999999101411MD1999999-0031REMSYN088AAXX  25004 83398 32594 60000 10268 20246 30141 40146 83141 333 10312 29/// 55077 59003;EQDQ01  00002PRCP06
0190833980999992005022512004-15667-038933FM-12+000599999V0203601N002110450019N0040001N1+02901+02501101501ADDAY161061AY221061GF106991041051008001021001KA1240N+02421MA1999999101451MD1999999-0121MW1021REMSYN088AAXX  25124 83398 21596 63604 10290 20250 30145 40150 70262 84520 333 20242 59012 60024;
0198833980999992005022600004-15667-038933FM-12+000599999V0200501N002110450019N0010001N1+02681+02481101221ADDAA106000091GF106991041051008001021001KA1240M+03041MA1999999101171MD1999999-0241REMSYN088AAXX  26004 83398 32594 60504 10268 20248 30117 40122 84520 333 10304 29/// 55103 59024;EQDQ01  00002PRCP06
0186833980999992005022612004-15667-038933FM-12+000599999V0209999C000010075019N0040001N1+02841+02401101321ADDAA106000091GF107991051051008001021001KA1240N+02341MA1999999101271MD1999999-0181REMSYN076AAXX  26124 83398 32596 70000 10284 20240 30127 40132 85520 333 20234 59018;EQDQ01  00002PRCP06
0186833980999992005022712004-15670-038950FM-12+000599999V0203601N003119999999N0040001N1+03021+02391101291ADDAA106000091GF105991999021008001041021KA1240N+02421MA1999999101241MD1999999-0031REMSYN076AAXX  27124 83398 32596 53606 10302 20239 30124 40129 80242 333 20242 59003;EQDQ01  00002PRCP06
0198833980999992005022800004-15667-038933FM-12+000599999V0203601N001010450019N0010001N1+02681+02461101251ADDAA106000091GF106991041051008001021001KA1240M+03091MA1999999101201MD1999999+0041REMSYN088AAXX  28004 83398 32594 63602 10268 20246 30120 40125 84520 333 10309 29/// 55104 58004;EQDQ01  00002PRCP06
0186833980999992005022812004-15667-038933FM-12+000599999V0200501N002110075019N0040001N1+02881+02321101461ADDAA106000091GF106991051051008001021001KA1240N+02401MA1999999101411MD1999999+0171REMSYN076AAXX  28124 83398 32596 60504 10288 20232 30141 40146 85520 333 20240 58017;EQDQ01  00002PRCP06
0198833980999992005030100004-15667-038933FM-12+000599999V0203601N002110450019N0010001N1+02661+02441101271ADDAA106000091GF106991041051008001021001KA1240M+03151MA1999999101221MD1999999+0021REMSYN088AAXX  01004 83398 32594 63604 10266 20244 30122 40127 84520 333 10315 29/// 55092 58002;EQDQ01  00002PRCP06
0186833980999992005030112004-15667-038933FM-12+000599999V0203601N002110450019N0040001N1+02941+02381101331ADDAA106000091GF106991041051008001021011KA1240N+02341MA1999999101281MD1999999-0131REMSYN076AAXX  01124 83398 32596 63604 10294 20238 30128 40133 84521 333 20234 59013;EQDQ01  00002PRCP06
0198833980999992005030200004-15667-038933FM-12+000599999V0209999C000010075019N0010001N1+02641+02481101201ADDAA106000091GF106991051051008001021001KA1240M+03121MA1999999101151MD1999999-0071REMSYN088AAXX  02004 83398 32594 60000 10264 20248 30115 40120 85520 333 10312 29/// 55091 59007;EQDQ01  00002PRCP06
0186833980999992005030212004-15667-038933FM-12+000599999V0202701N001010075019N0040001N1+02861+02441101421ADDAA106000091GF107991051051008001021001KA1240N+02381MA1999999101371MD1999999+0091REMSYN076AAXX  02124 83398 32596 72702 10286 20244 30137 40142 85520 333 20238 58009;EQDQ01  00002PRCP06
0198833980999992005030300004-15667-038933FM-12+000599999V0201801N002110075019N0010001N1+02621+02481101461ADDAA106000091GF106991051051008001021001KA1240M+03131MA1999999101411MD1999999+0261REMSYN088AAXX  03004 83398 32594 61804 10262 20248 30141 40146 85520 333 10313 29/// 55078 58026;EQDQ01  00002PRCP06
0190833980999992005030312004-15667-038933FM-12+000599999V0201801N001010075019N0040001N1+02741+02451101561ADDAY161061AY221061GF107991051051008001021001KA1240N+02301MA1999999101511MD1999999+0141MW1021REMSYN088AAXX  03124 83398 21596 71802 10274 20245 30151 40156 70262 85520 333 20230 58014 60014;
0198833980999992005030400004-15667-038933FM-12+000599999V0209999C000012200019N0010001N1+02661+02461101561ADDAA106000091GF103991031011008001001001KA1240M+03061MA1999999101511MD1999999+0101REMSYN088AAXX  04004 83398 32594 30000 10266 20246 30151 40156 83100 333 10306 29/// 55093 58010;EQDQ01  00002PRCP06
0190833980999992005030412004-15667-038933FM-12+000599999V0203601N001010075019N0040001N1+02861+02461101561ADDAY161061AY221061GF107991051051008001021001KA1240N+02321MA1999999101511MD1999999+0001MW1021REMSYN088AAXX  04124 83398 21596 73602 10286 20246 30151 40156 70262 85520 333 20232 58000 60044;
0198833980999992005030500004-15667-038933FM-12+000599999V0209999C000010075019N0010001N1+02441+02301101541ADDAA106000091GF106991051051008001021001KA1240M+03101MA1999999101491MD1999999-0021REMSYN088AAXX  05004 83398 32594 60000 10244 20230 30149 40154 85520 333 10310 29/// 55102 59002;EQDQ01  00002PRCP06
0186833980999992005030512004-15667-038933FM-12+000599999V0200501N001010450019N0040001N1+02901+02341101681ADDAA106000091GF106991031051008001021011KA1240N+02141MA1999999101621MD1999999+0111REMSYN076AAXX  05124 83398 32596 60502 10290 20234 30162 40168 83521 333 20214 58011;EQDQ01  00002PRCP06
0198833980999992005030600004-15670-038950FM-12+000599999V0200501N002112200019N0010001N1+02641+02391101551ADDAA106000091GF103991031011008001001001KA1240M+03031MA1999999101501MD1999999+0011REMSYN088AAXX  06004 83398 32594 30504 10264 20239 30150 40155 83100 333 10303 29/// 55104 58001;EQDQ01  00002PRCP06
0190833980999992005030612004-15670-038950FM-12+000599999V0201401N002110075019N0040001N1+02821+02401101521ADDAY161061AY221061GF107991051051008001021001KA1240N+02361MA1999999101471MD1999999-0151MW1021REMSYN088AAXX  06124 83398 21596 71404 10282 20240 30147 40152 70262 85520 333 20236 59015 60084;
0186833980999992005030712004-15667-038933FM-12+000599999V0203601N001010075019N0040001N1+02821+02441101431ADDAA106000091GF107991051051008001021001KA1240N+02401MA1999999101381MD1999999-0091REMSYN076AAXX  07124 83398 32596 73602 10282 20244 30138 40143 85520 333 20240 59009;EQDQ01  00002PRCP06
0198833980999992005030800004-15667-038933FM-12+000599999V0209999C000012200019N0010001N1+02621+02421101491ADDAA106000091GF103991031011008001001001KA1240M+03061MA1999999101441MD1999999+0101REMSYN088AAXX  08004 83398 32594 30000 10262 20242 30144 40149 83100 333 10306 29/// 55021 58010;EQDQ01  00002PRCP06
0186833980999992005030812004-15667-038933FM-12+000599999V0201401N002110450019N0040001N1+02941+02331101511ADDAA106000091GF106991031051008001021041KA1240N+02321MA1999999101461MD1999999+0081REMSYN076AAXX  08124 83398 32596 61404 10294 20233 30146 40151 83524 333 20232 58008;EQDQ01  00002PRCP06
0198833980999992005030900004-15667-038933FM-12+000599999V0209999C000012200019N0040001N1+02721+02501101381ADDAA106000091GF103991031011008001001001KA1240M+03101MA1999999101331MD1999999-0111REMSYN088AAXX  09004 83398 32596 30000 10272 20250 30133 40138 83100 333 10310 29/// 55082 59011;EQDQ01  00002PRCP06
0190833980999992005030912004-15667-038933FM-12+000599999V0202701N001010075019N0040001N1+02641+02441101351ADDAY161061AY221061GF108991061051008001021999KA1240N+02321MA1999999101301MD1999999-0161MW1021REMSYN088AAXX  09124 83398 21596 82702 10264 20244 30130 40135 70262 8652/ 333 20232 59016 60114;
0198833980999992005031000004-15667-038933FM-12+000599999V0200501N001012200019N0010001N1+02681+02521101211ADDAA106000091GF102991021011008001001001KA1240M+03041MA1999999101161MD1999999-0171REMSYN088AAXX  10004 83398 32594 20502 10268 20252 30116 40121 82100 333 10304 29/// 55052 59017;EQDQ01  00002PRCP06
0198833980999992005031100004-15667-038933FM-12+000599999V0203601N002112200019N0010001N1+02721+02521101351ADDAA106000091GF102991021011008001001001KA1240M+03131MA1999999101301MD1999999+0141REMSYN088AAXX  11004 83398 32594 23604 10272 20252 30130 40135 82100 333 10313 29/// 55105 58014;EQDQ01  00002PRCP06
0186833980999992005031112004-15667-038933FM-12+000599999V0203601N003110450019N0040001N1+02981+02371101451ADDAA106000091GF106991041051008001021011KA1240N+02301MA1999999101401MD1999999+0001REMSYN076AAXX  11124 83398 32596 63606 10298 20237 30140 40145 84521 333 20230 58000;EQDQ01  00002PRCP06
0198833980999992005031200004-15667-038933FM-12+000599999V0203601N001010450019N0010001N1+02701+99999101361ADDAA106000091GF106991041051008001021001KA1240M+03101MA1999999101311MD1999999+0011REMSYN088AAXX  12004 83398 32594 63602 10270 29248 30131 40136 84520 333 10310 29/// 55107 58001;EQDQ01  00002PRCP06
0186833980999992005031212004-15667-038933FM-12+000599999V0203601N001010450019N0040001N1+02921+02361101321ADDAA106000091GF106991041051008001021001KA1240N+02401MA1999999101271MD1999999-0131REMSYN076AAXX  12124 83398 32596 63602 10292 20236 30127 40132 84520 333 20240 59013;EQDQ01  00002PRCP06
0198833980999992005031300004-15670-038950FM-12+000599999V0209999C000010450019N0010001N1+02701+02461101201ADDAA106000091GF105991031051008001021001KA1240M+03191MA1999999101151MD1999999-0161REMSYN088AAXX  13004 83398 32594 50000 10270 20246 30115 40120 83520 333 10319 29/// 55063 59016;EQDQ01  00002PRCP06
0186833980999992005031312004-15670-038950FM-12+000599999V0200501N004110450019N0040001N1+02941+02471101331ADDAA106000091GF105991031051008001041001KA1240N+02481MA1999999101281MD1999999+0011REMSYN076AAXX  13124 83398 32596 50508 10294 20247 30128 40133 83540 333 20248 58001;EQDQ01  00002PRCP06
0198833980999992005031400004-15670-038950FM-12+000599999V0200501N002112200019N0010001N1+02721+02521101211ADDAA106000091GF102991021011008001001001KA1240M+03161MA1999999101151MD1999999+0001REMSYN088AAXX  14004 83398 32594 20504 10272 20252 30115 40121 82100 333 10316 29/// 55098 58000;EQDQ01  00002PRCP06
0190833980999992005031412004-15670-038950FM-12+000599999V0209999C000010450019N0040001N1+02981+02491101351ADDAY151061AY221061GF106991041051008001021001KA1240N+02401MA1999999101301MD1999999+0021MW1021REMSYN088AAXX  14124 83398 21596 60000 10298 20249 30130 40135 70252 84520 333 20240 58002 69924;
0198833980999992005031500004-15667-038933FM-12+000599999V0203601N001012200019N0010001N1+02641+02421101221ADDAA106000091GF101991011011008001001001KA1240M+03101MA1999999101171MD1999999+0021REMSYN088AAXX  15004 83398 32594 13602 10264 20242 30117 40122 81100 333 10310 29/// 55102 58002;EQDQ01  00002PRCP06
0190833980999992005031512004-15667-038933FM-12+000599999V0209999C000010075019N0040001N1+02721+02481101361ADDAY151061AY221061GF107991051051008001021001KA1240N+02321MA1999999101311MD1999999+0011MW1021REMSYN088AAXX  15124 83398 21596 70000 10272 20248 30131 40136 70252 85520 333 20232 58001 69914;
0198833980999992005031600004-15667-038933FM-12+000599999V0200501N001010450019N0010001N1+02741+02581101381ADDAA106000091GF106991041051008001021001KA1240M+03111MA1999999101331MD1999999+0161REMSYN088AAXX  16004 83398 32594 60502 10274 20258 30133 40138 84520 333 10311 29/// 55083 58016;EQDQ01  00002PRCP06
0190833980999992005031612004-15667-038933FM-12+000599999V0200501N002110075019N0040001N1+02961+02511101531ADDAY161061AY221061GF106991051051008001021001KA1240N+02301MA1999999101481MD1999999+0171MW1021REMSYN088AAXX  16124 83398 21596 60504 10296 20251 30148 40153 70262 85520 333 20230 58017 60044;
0198833980999992005031700004-15667-038933FM-12+000599999V0200901N001010450019N0010001N1+02721+02501101461ADDAA106000091GF106991031051008001041001KA1240M+03101MA1999999101411MD1999999+0081REMSYN088AAXX  17004 83398 32594 60902 10272 20250 30141 40146 83540 333 10310 29/// 55075 58008;EQDQ01  00002PRCP06
0186833980999992005031712004-15667-038933FM-12+000599999V0209999C000010075019N0040001N1+02701+02481101481ADDAA106000091GF106991051051008001021001KA1240N+02321MA1999999101431MD1999999-0051REMSYN076AAXX  17124 83398 32596 60000 10270 20248 30143 40148 85520 333 20232 59005;EQDQ01  00002PRCP06
0198833980999992005031800004-15667-038933FM-12+000599999V0209999C000010450019N0010001N1+02601+02401101321ADDAA106000091GF106991041051008001041001KA1240M+03111MA1999999101271MD1999999-0141REMSYN088AAXX  18004 83398 32594 60000 10260 20240 30127 40132 84540 333 10311 29/// 55068 59014;EQDQ01  00002PRCP06
0186833980999992005031812004-15667-038933FM-12+000599999V0203601N002110450019N0040001N1+02961+02351101401ADDAA106000091GF106991031051008001041001KA1240N+02301MA1999999101351MD1999999-0081REMSYN076AAXX  18124 83398 32596 63604 10296 20235 30135 40140 83540 333 20230 59008;EQDQ01  00002PRCP06
0198833980999992005031900004-15667-038933FM-12+000599999V0200501N001012200019N0010001N1+02741+02471101261ADDAA106000091GF104991041011008001001001KA1240M+03111MA1999999101211MD1999999-0061REMSYN088AAXX  19004 83398 32594 40502 10274 20247 30121 40126 84100 333 10311 29/// 55102 59006;EQDQ01  00002PRCP06
0190833980999992005031912004-15667-038933FM-12+000599999V0200501N001010450019N0040001N1+02961+02351101391ADDAY151061AY221061GF106991041051008001021001KA1240N+02241MA1999999101341MD1999999-0011MW1021REMSYN088AAXX  19124 83398 21596 60502 10296 20235 30134 40139 70252 84520 333 20224 59001 69924;
0198833980999992005032000004-15670-038950FM-12+000599999V0203601N002112200019N0010001N1+02701+02431101291ADDAA106000091GF103991011011008001041001KA1240M+03201MA1999999101241MD1999999+0031REMSYN088AAXX  20004 83398 32594 33604 10270 20243 30124 40129 81140 333 10320 29/// 55100 58003;EQDQ01  00002PRCP06
0186833980999992005032012004-15670-038950FM-12+000599999V0203601N002110450019N0040001N1+02961+02401101461ADDAA106000091GF106991041051008001021001KA1240N+02261MA1999999101411MD1999999+0071REMSYN076AAXX  20124 83398 32596 63604 10296 20240 30141 40146 84520 333 20226 58007;EQDQ01  00002PRCP06
0198833980999992005032100004-15667-038933FM-12+000599999V0209999C000010075019N0010001N1+02721+02481101361ADDAA106000091GF106991051051008001021001KA1240M+03161MA1999999101311MD1999999+0071REMSYN088AAXX  21004 83398 32594 60000 10272 20248 30131 40136 85520 333 10316 29/// 55097 58007;EQDQ01  00002PRCP06
0186833980999992005032112004-15667-038933FM-12+000599999V0200501N001010450019N0040001N1+02901+02271101551ADDAA106000091GF106991041051008001021001KA1240N+02301MA1999999101501MD1999999+0091REMSYN076AAXX  21124 83398 32596 60502 10290 20227 30150 40155 84520 333 20230 58009;EQDQ01  00002PRCP06
0198833980999992005032200004-15667-038933FM-12+000599999V0209999C000010450019N0010001N1+02601+02461101481ADDAA106000091GF105991031011008001041001KA1240M+03191MA1999999101431MD1999999+0121REMSYN088AAXX  22004 83398 32594 50000 10260 20246 30143 40148 83140 333 10319 29/// 55073 58012;EQDQ01  00002PRCP06
0190833980999992005032212004-15667-038933FM-12+000599999V0209999C000010075019N0040001N1+02821+02421101661ADDAY161061AY221061GF107991051051008001021001KA1240N+02221MA1999999101601MD1999999+0101MW1021REMSYN088AAXX  22124 83398 21596 70000 10282 20242 30160 40166 70262 85520 333 20222 58010 60094;
0198833980999992005032300004-15667-038933FM-12+000599999V0209999C000010450019N0010001N1+02621+02461101591ADDAA106000091GF106991041051008001021001KA1240M+03061MA1999999101541MD1999999+0111REMSYN088AAXX  23004 83398 32594 60000 10262 20246 30154 40159 84520 333 10306 29/// 55084 58011;EQDQ01  00002PRCP06
0190833980999992005032312004-15667-038933FM-12+000599999V0209999C000010450019N0040001N1+02701+02461101761ADDAY161061AY221061GF106991041051008001021001KA1240N+02301MA1999999101711MD1999999+0111MW1021REMSYN088AAXX  23124 83398 21596 60000 10270 20246 30171 40176 70262 84520 333 20230 58011 60054;
0190833980999992005032412004-15667-038933FM-12+000599999V0209999C000010450019N0040001N1+02741+02471101681ADDAY161061AY221061GF106991041051008001021001KA1240N+02321MA1999999101621MD1999999-0091MW1021REMSYN088AAXX  24124 83398 21596 60000 10274 20247 30162 40168 70262 84520 333 20232 59009 60074;
0198833980999992005032500004-15667-038933FM-12+000599999V0209999C000012200019N0010001N1+02481+02381101481ADDAA106000091GF103991031011008001001001KA1240M+03051MA1999999101431MD1999999-0131REMSYN088AAXX  25004 83398 32594 30000 10248 20238 30143 40148 83100 333 10305 29/// 55048 59013;EQDQ01  00002PRCP06
0186833980999992005032512004-15667-038933FM-12+000599999V0209999C000010450019N0040001N1+02801+02271101531ADDAA106000091GF106991041051008001021001KA1240N+02171MA1999999101481MD1999999-0141REMSYN076AAXX  25124 83398 32596 60000 10280 20227 30148 40153 84520 333 20217 59014;EQDQ01  00002PRCP06
0198833980999992005032600004-15667-038933FM-12+000599999V0209999C000012200019N0010001N1+02641+02371101331ADDAA106000091GF103991031001008001041001KA1240M+03101MA1999999101281MD1999999-0151REMSYN088AAXX  26004 83398 32594 30000 10264 20237 30128 40133 83040 333 10310 29/// 55086 59015;EQDQ01  00002PRCP06
0190833980999992005032612004-15667-038933FM-12+000599999V0200901N002110075019N0040001N1+02341+02291101411ADDAY161061AY221061GF108991081071008001999999KA1240N+02301MA1999999101361MD1999999-0121MW1031REMSYN088AAXX  26124 83398 21596 80904 10234 20229 30136 40141 70362 887// 333 20230 59012 60364;
0202833980999992005032700004-15670-038950FM-12+000599999V0209999C000010450019N0010001N1+02481+02391101281ADDAY161061AY221061GF105991031051008001041001KA1240M+02861MA1999999101231MD1999999-0051MW1021REMSYN100AAXX  27004 83398 21594 50000 10248 20239 30123 40128 70262 83540 333 10286 29/// 55023 59005 60051;
0190833980999992005032712004-15670-038950FM-12+000599999V0202301N001010075019N0040001N1+02561+02361101391ADDAY161061AY221061GF108991051051008001021999KA1240N+02261MA1999999101341MD1999999-0021MW1021REMSYN088AAXX  27124 83398 21596 82302 10256 20236 30134 40139 70262 8552/ 333 20226 59002 60704;
0198833980999992005032800004-15670-038950FM-12+000599999V0201801N001010450019N0010001N1+02501+02401101341ADDAA106000091GF106991041051008001021001KA1240M+03021MA1999999101291MD1999999+0061REMSYN088AAXX  28004 83398 32594 61802 10250 20240 30129 40134 84520 333 10302 29/// 55052 58006;EQDQ01  00002PRCP06
0190833980999992005032812004-15670-038950FM-12+000599999V0209999C000010450019N0040001N1+02661+02371101411ADDAY161061AY221061GF106991041051008001021001KA1240N+02241MA1999999101361MD1999999+0021MW1021REMSYN088AAXX  28124 83398 21596 60000 10266 20237 30136 40141 70262 84520 333 20224 58002 60114;
0202833980999992005032900004-15667-038933FM-12+000599999V0209999C000010450019N0010001N1+02401+02311101401ADDAY161061AY221061GF108991041071008001021999KA1240M+02981MA1999999101351MD1999999+0061MW1521REMSYN100AAXX  29004 83398 21594 80000 10240 20231 30135 40140 75262 8472/ 333 10298 29/// 55056 58006 60121;
0190833980999992005032912004-15667-038933FM-12+000599999V0201801N002110075019N0040001N1+02561+02311101531ADDAY161061AY221061GF107991051051008001021001KA1240N+02201MA1999999101481MD1999999+0121MW1021REMSYN088AAXX  29124 83398 21596 71804 10256 20231 30148 40153 70262 85520 333 20220 58012 60284;
0202833980999992005033000004-15667-038933FM-12+000599999V0209999C000012200019N0010001N1+02441+02351101501ADDAY151061AY221061GF104991021051008001041001KA1240M+02901MA1999999101451MD1999999+0011MW1021REMSYN100AAXX  30004 83398 21594 40000 10244 20235 30145 40150 70252 82540 333 10290 29/// 55044 58001 69921;
0198833980999992005033100004-15667-038933FM-12+000599999V0209999C000010450019N0010001N1+02541+02441101441ADDAA106000091GF106991041051008001021001KA1240M+03051MA1999999101391MD1999999-0061REMSYN088AAXX  31004 83398 32594 60000 10254 20244 30139 40144 84520 333 10305 29/// 55084 59006;EQDQ01  00002PRCP06
0190833980999992005033112004-15667-038933FM-12+000599999V0201801N002110075019N0040001N1+02621+02421101561ADDAY161061AY221061GF107991051051008001021001KA1240N+02361MA1999999101511MD1999999-0011MW1021REMSYN088AAXX  31124 83398 21596 71804 10262 20242 30151 40156 70262 85520 333 20236 59001 60094;
0202833980999992005040100004-15667-038933FM-12+000599999V0209999C000010075019N0010001N1+02501+02411101491ADDAY151061AY221061GF105991051051008001001001KA1240M+02981MA1999999101441MD1999999+0051MW1021REMSYN100AAXX  01004 83398 21594 50000 10250 20241 30144 40149 70252 85500 333 10298 29/// 55053 58005 69951;
0190833980999992005040112004-15667-038933FM-12+000599999V0202301N001010075019N0040001N1+02401+02371101691ADDAY161061AY221061GF108991051071008001021999KA1240N+02301MA1999999101631MD1999999+0121MW1621REMSYN088AAXX  01124 83398 21596 82302 10240 20237 30163 40169 76262 8572/ 333 20230 58012 60304;
0202833980999992005040200004-15667-038933FM-12+000599999V0200901N001010450019N0010001N1+02721+02301101541ADDAY161061AY221061GF106991041051008001021001KA1240M+03081MA1999999101491MD1999999+0051MW1021REMSYN100AAXX  02004 83398 21594 60902 10272 20230 30149 40154 70262 84520 333 10308 29/// 55031 58005 60021;
0190833980999992005040212004-15667-038933FM-12+000599999V0201401N002110450019N0040001N1+02901+02461101681ADDAY161061AY221061GF106991041051008001021001KA1240N+02261MA1999999101621MD1999999-0011MW1021REMSYN088AAXX  02124 83398 21596 61404 10290 20246 30162 40168 70262 84520 333 20226 59001 60124;
0198833980999992005040300004-15670-038950FM-12+000599999V0209999C000012200019N0010001N1+02461+02371101661ADDAA106000091GF102991021011008001001001KA1240M+03121MA1999999101611MD1999999+0121REMSYN088AAXX  03004 83398 32594 20000 10246 20237 30161 40166 82100 333 10312 29/// 55086 58012;EQDQ01  00002PRCP06
0186833980999992005040312004-15670-038950FM-12+000599999V0209999C000010450019N0040001N1+02801+02441101721ADDAA106000091GF105991031021008001041001KA1240N+02241MA1999999101661MD1999999+0041REMSYN076AAXX  03124 83398 32596 50000 10280 20244 30166 40172 83240 333 20224 58004;EQDQ01  00002PRCP06
0198833980999992005040400004-15667-038933FM-12+000599999V0209999C000010450019N0010001N1+02621+02461101621ADDAA106000091GF106991041051008001021001KA1240M+03111MA1999999101561MD1999999-0061REMSYN088AAXX  04004 83398 32594 60000 10262 20246 30156 40162 84520 333 10311 29/// 55087 59006;EQDQ01  00002PRCP06
0190833980999992005040412004-15667-038933FM-12+000599999V0209999C000010450019N0040001N1+02621+02521101851ADDAY161061AY221061GF108991041071008001021999KA1240N+02381MA1999999101791MD1999999+0131MW1601REMSYN088AAXX  04124 83398 21596 80000 10262 20252 30179 40185 76062 8472/ 333 20238 58013 60084;
0202833980999992005040500004-15667-038933FM-12+000599999V0209999C000010450019N0010001N1+02541+02491101751ADDAY161061AY221061GF106991041051008001021001KA1240M+02821MA1999999101691MD1999999+0131MW1021REMSYN100AAXX  05004 83398 21594 60000 10254 20249 30169 40175 70262 84520 333 10282 29/// 55002 58013 60081;
0190833980999992005040512004-15667-038933FM-12+000599999V0200901N002110450019N0040001N1+02921+02291101831ADDAY161061AY221061GF106991041051008001021001KA1240N+02281MA1999999101771MD1999999-0021MW1021REMSYN088AAXX  05124 83398 21596 60904 10292 20229 30177 40183 70262 84520 333 20228 59002 60194;
0198833980999992005040600004-15667-038933FM-12+000599999V0209999C000012200019N0010001N1+02541+02401101771ADDAA106000091GF101991011011008001001001KA1240M+03091MA1999999101711MD1999999+0021REMSYN088AAXX  06004 83398 32594 10000 10254 20240 30171 40177 81100 333 10309 29/// 55089 58002;EQDQ01  00002PRCP06
0186833980999992005040612004-15667-038933FM-12+000599999V0200901N002110075019N0040001N1+02961+02401101801ADDAA106000091GF107991051051008001021001KA1240N+02401MA1999999101741MD1999999-0031REMSYN076AAXX  06124 83398 32596 70904 10296 20240 30174 40180 85520 333 20240 59003;EQDQ01  00002PRCP06
0202833980999992005040700004-15667-038933FM-12+000599999V0209999C000010450019N0010001N1+02601+02461101721ADDAY151061AY221061GF106991041051008001021001KA1240M+03141MA1999999101661MD1999999-0051MW1021REMSYN100AAXX  07004 83398 21594 60000 10260 20246 30166 40172 70252 84520 333 10314 29/// 55048 59005 69911;
0190833980999992005040712004-15667-038933FM-12+000599999V0201401N003110450019N0040001N1+02941+02261101731ADDAY161061AY221061GF105991031051008001021001KA1240N+02381MA1999999101671MD1999999-0071MW1021REMSYN088AAXX  07124 83398 21596 51406 10294 20226 30167 40173 70262 83520 333 20238 59007 60014;
0198833980999992005040800004-15667-038933FM-12+000599999V0201401N001012200019N0010001N1+02521+02311101701ADDAA106000091GF101991011011008001001001KA1240M+03071MA1999999101641MD1999999-0021REMSYN088AAXX  08004 83398 32594 11402 10252 20231 30164 40170 81100 333 10307 29/// 55086 59002;EQDQ01  00002PRCP06
0186833980999992005040812004-15667-038933FM-12+000599999V0202301N001010075019N0040001N1+02761+02381101751ADDAA106000091GF106991061021008001001001KA1240N+01981MA1999999101691MD1999999+0021REMSYN076AAXX  08124 83398 32596 62302 10276 20238 30169 40175 86200 333 20198 58002;EQDQ01  00002PRCP06
0198833980999992005040900004-15667-038933FM-12+000599999V0209999C000012200019N0010001N1+02481+02381101641ADDAA106000091GF102991021011008001001001KA1240M+03061MA1999999101571MD1999999-0071REMSYN088AAXX  09004 83398 32594 20000 10248 20238 30157 40164 82100 333 10306 29/// 55088 59007;EQDQ01  00002PRCP06
0190833980999992005040912004-15667-038933FM-12+000599999V0202301N002110075019N0040001N1+02681+02391101681ADDAY161061AY221061GF107991051051008001021001KA1240N+01981MA1999999101621MD1999999-0071MW1021REMSYN088AAXX  09124 83398 21596 72304 10268 20239 30162 40168 70262 85520 333 20198 59007 60064;
0202833980999992005041000004-15667-038933FM-12+000599999V0201801N001012200019N0010001N1+02481+02381101561ADDAY161061AY221061GF101991011011008001001001KA1240M+03061MA1999999101511MD1999999-0061MW1021REMSYN100AAXX  10004 83398 21594 11802 10248 20238 30151 40156 70262 81100 333 10306 29/// 55078 59006 60041;
0190833980999992005041012004-15667-038933FM-12+000599999V0200901N003110075019N0040001N1+02561+02351101721ADDAY161061AY221061GF108991051051008001021999KA1240N+02241MA1999999101661MD1999999+0041MW1021REMSYN088AAXX  10124 83398 21596 80906 10256 20235 30166 40172 70262 8552/ 333 20224 58004 60194;
0202833980999992005041100004-15667-038933FM-12+000599999V0200901N003110075019N0010001N1+02541+02451101651ADDAY161061AY221061GF108991051071008001021999KA1240M+03071MA1999999101591MD1999999+0081MW1601REMSYN100AAXX  11004 83398 21594 80906 10254 20245 30159 40165 76062 8572/ 333 10307 29/// 55045 58008 60041;
0190833980999992005041112004-15667-038933FM-12+000599999V0201801N003110450019N0040001N1+02481+02391101621ADDAY161061AY221061GF108991041071008001021999KA1240N+02321MA1999999101561MD1999999-0101MW1531REMSYN088AAXX  11124 83398 21596 81806 10248 20239 30156 40162 75362 8472/ 333 20232 59010 60164;
0202833980999992005041200004-15667-038933FM-12+000599999V0209999C000010075019N0010001N1+02421+02371101541ADDAY161061AY221061GF105991051051008001001001KA1240M+02981MA1999999101491MD1999999-0101MW1021REMSYN100AAXX  12004 83398 21594 50000 10242 20237 30149 40154 70262 85500 333 10298 29/// 55017 59010 60021;
0190833980999992005041212004-15667-038933FM-12+000599999V0201801N002110075019N0040001N1+02841+02401101691ADDAY121061AY261061GF105991051051008001001001KA1240N+02241MA1999999101631MD1999999+0071MW1021REMSYN088AAXX  12124 83398 21596 51804 10284 20240 30163 40169 70226 85500 333 20224 58007 60064;
0198833980999992005041300004-15667-038933FM-12+000599999V0201801N001010450019N0010001N1+02501+02361101641ADDAA106000091GF106991041051008001021001KA1240M+03041MA1999999101581MD1999999+0091REMSYN088AAXX  13004 83398 32594 61802 10250 20236 30158 40164 84520 333 10304 29/// 55080 58009;EQDQ01  00002PRCP06
0190833980999992005041312004-15667-038933FM-12+000599999V0201801N002110450019N0040001N1+02681+02391101691ADDAY161061AY221061GF106991041051008001021001KA1240N+02241MA1999999101631MD1999999+0001MW1021REMSYN088AAXX  13124 83398 21596 61804 10268 20239 30163 40169 70262 84520 333 20224 58000 60034;
0202833980999992005041400004-15667-038933FM-12+000599999V0201801N002110450019N0010001N1+02461+02371101541ADDAY161061AY221061GF106991031071008001021001KA1240M+03031MA1999999101491MD1999999-0091MW1521REMSYN100AAXX  14004 83398 21594 61804 10246 20237 30149 40154 75262 83720 333 10303 29/// 55073 59009 60011;
0190833980999992005041412004-15667-038933FM-12+000599999V0201401N001010075019N0040001N1+02621+02231101661ADDAY161061AY221061GF107991051051008001021001KA1240N+02301MA1999999101601MD1999999-0031MW1501REMSYN088AAXX  14124 83398 21596 71402 10262 20223 30160 40166 75062 85520 333 20230 59003 60074;
0202833980999992005041500004-15667-038933FM-12+000599999V0209999C000010450019N0010001N1+02381+02281101541ADDAY161061AY221061GF106991041051008001021001KA1240M+03021MA1999999101491MD1999999+0001MW1021REMSYN100AAXX  15004 83398 21594 60000 10238 20228 30149 40154 70262 84520 333 10302 29/// 55071 58000 60031;
0190833980999992005041512004-15667-038933FM-12+000599999V0209999C000010075019N0040001N1+02661+02331101681ADDAY161061AY221061GF107991051051008001021001KA1240N+02221MA1999999101621MD1999999+0021MW1021REMSYN088AAXX  15124 83398 21596 70000 10266 20233 30162 40168 70262 85520 333 20222 58002 60124;
0202833980999992005041600004-15667-038933FM-12+000599999V0200901N003110075019N0010001N1+02521+02361101671ADDAY151061AY221061GF107991051051008001021001KA1240M+02481MA1999999101611MD1999999+0121MW1021REMSYN100AAXX  16004 83398 21594 70906 10252 20236 30161 40167 70252 85520 333 10248 29/// 55054 58012 69961;
0190833980999992005041612004-15667-038933FM-12+000599999V0201801N002110075019N0040001N1+02521+02331101661ADDAY161061AY221061GF107991051051008001021001KA1240N+02221MA1999999101601MD1999999-0021MW1021REMSYN088AAXX  16124 83398 21596 71804 10252 20233 30160 40166 70262 85520 333 20222 59002 60034;
0198833980999992005041700004-15670-038950FM-12+000599999V0201401N002110450019N0010001N1+02661+02311101591ADDAA106000091GF106991041051008001021001KA1240M+03021MA1999999101541MD1999999-0071REMSYN088AAXX  17004 83398 32594 61404 10266 20231 30154 40159 84520 333 10302 29/// 55063 59007;EQDQ01  00002PRCP06
0186833980999992005041712004-15670-038950FM-12+000599999V0209999C000010450019N0040001N1+02841+02421101611ADDAA106000091GF106991041051008001021001KA1240N+02201MA1999999101551MD1999999-0051REMSYN076AAXX  17124 83398 32596 60000 10284 20242 30155 40161 84520 333 20220 59005;EQDQ01  00002PRCP06
0202833980999992005041800004-15667-038933FM-12+000599999V0209999C000010450019N0010001N1+02501+02411101551ADDAY161061AY221061GF108991041071008001021999KA1240M+02981MA1999999101501MD1999999-0041MW1501REMSYN100AAXX  18004 83398 21594 80000 10250 20241 30150 40155 75062 8472/ 333 10298 29/// 55062 59004 60071;
0190833980999992005041812004-15667-038933FM-12+000599999V0209999C000010075019N0040001N1+02561+02421101531ADDAY161061AY221061GF108991051051008001021999KA1240N+02241MA1999999101481MD1999999-0071MW1021REMSYN088AAXX  18124 83398 21596 80000 10256 20242 30148 40153 70262 8552/ 333 20224 59007 60084;
0202833980999992005041900004-15667-038933FM-12+000599999V0209999C000010450019N0010001N1+02461+02361101481ADDAY151061AY221061GF107991041051008001021001KA1240M+02971MA1999999101431MD1999999-0071MW1021REMSYN100AAXX  19004 83398 21594 70000 10246 20236 30143 40148 70252 84520 333 10297 29/// 55053 59007 69911;
0190833980999992005041912004-15667-038933FM-12+000599999V0209999C000010450019N0040001N1+02321+02241101661ADDAY161061AY221061GF108991041071008001021999KA1240N+02241MA1999999101601MD1999999+0121MW1601REMSYN088AAXX  19124 83398 21596 80000 10232 20224 30160 40166 76062 8472/ 333 20224 58012 60084;
0202833980999992005042000004-15667-038933FM-12+000599999V0209999C000010450019N0010001N1+02421+02371101491ADDAY151061AY221061GF107991031071008001021001KA1240M+02901MA1999999101441MD1999999+0011MW1511REMSYN100AAXX  20004 83398 21594 70000 10242 20237 30144 40149 75152 83720 333 10290 29/// 55041 58001 69921;
0162833980999992005042006004-15667-038933FM-12+000599999V0202401N999992200019N0200001N1+02721+02301101211ADDAA106000021GF103991031051004501001001MD1999999+0271REMSYN064AAXX  20064 83398 32470 32470 10272 20230 40121 83500 333 58027;EQDQ01+003603WOSPD Q020003603WOSPD 
0190833980999992005042012004-15667-038933FM-12+000599999V0202301N001010450019N0040001N1+02661+02371101641ADDAY161061AY221061GF106991041051008001021001KA1240N+02201MA1999999101581MD1999999-0021MW1021REMSYN088AAXX  20124 83398 21596 62302 10266 20237 30158 40164 70262 84520 333 20220 59002 60024;
0198833980999992005042100004-15667-038933FM-12+000599999V0203601N003110450019N0010001N1+02621+02351101591ADDAA106000091GF107991041051008001021001KA1240M+03001MA1999999101541MD1999999+0101REMSYN088AAXX  21004 83398 32594 73606 10262 20235 30154 40159 84520 333 10300 29/// 55077 58010;EQDQ01  00002PRCP06
0190833980999992005042112004-15667-038933FM-12+000599999V0201801N002110075019N0040001N1+02581+02421101621ADDAY161061AY221061GF108991051051008001021999KA1240N+02261MA1999999101561MD1999999-0021MW1021REMSYN088AAXX  21124 83398 21596 81804 10258 20242 30156 40162 70262 8552/ 333 20226 59002 60024;
0202833980999992005042200004-15667-038933FM-12+000599999V0209999C000010075019N0010001N1+02281+02111101451ADDAY161061AY221061GF108991051051008001021999KA1240M+02981MA1999999101401MD1999999-0151MW1021REMSYN100AAXX  22004 83398 21594 80000 10228 20211 30140 40145 70262 8552/ 333 10298 29/// 55021 59015 60021;
0162833980999992005042212004-15667-038933FM-12+000599999V0209999C000010075019N0040001N1+02721+02321101471ADDGF105991051051008001001001KA1240N+02081MA1999999101421MD1999999-0141REMSYN082AAXX  22124 83398 22596 50000 10272 20232 30142 40147 85500 333 20208 59014 60024;
0198833980999992005042300004-15667-038933FM-12+000599999V0209999C000010075019N0010001N1+02401+02231101441ADDAA106000091GF105991051011008001001001KA1240M+03001MA1999999101391MD1999999-0011REMSYN088AAXX  23004 83398 32594 50000 10240 20223 30139 40144 85100 333 10300 29/// 55081 59001;EQDQ01  00002PRCP06
0186833980999992005042312004-15667-038933FM-12+000599999V0209999C000010450019N0040001N1+02781+02321101481ADDAA106000091GF106991041051008001021001KA1240N+02141MA1999999101431MD1999999+0011REMSYN076AAXX  23124 83398 32596 60000 10278 20232 30143 40148 84520 333 20214 58001;EQDQ01  00002PRCP06
0198833980999992005042400004-15670-038950FM-12+000599999V0209999C000010075019N0010001N1+02701+02281101411ADDAA106000091GF107991051051008001021081KA1240M+03011MA1999999101361MD1999999-0031REMSYN088AAXX  24004 83398 32594 70000 10270 20228 30136 40141 85528 333 10301 29/// 55061 59003;EQDQ01  00002PRCP06
0190833980999992005042412004-15670-038950FM-12+000599999V0202301N001010450019N0040001N1+02741+02401101591ADDAY161061AY221061GF106991041051008001021001KA1240N+02241MA1999999101541MD1999999+0111MW1021REMSYN088AAXX  24124 83398 21596 62302 10274 20240 30154 40159 70262 84520 333 20224 58011 69944;
0198833980999992005042500004-15667-038933FM-12+000599999V0209999C000010075019N0010001N1+02501+02341101421ADDAA106000091GF106991061051008001001001KA1240M+03041MA1999999101371MD1999999+0011REMSYN088AAXX  25004 83398 32594 60000 10250 20234 30137 40142 86500 333 10304 29/// 55081 58001;EQDQ01  00002PRCP06
0190833980999992005042512004-15667-038933FM-12+000599999V0202701N001010450019N0040001N1+02701+02351101531ADDAY151061AY221061GF106991041051008001021001KA1240N+02171MA1999999101481MD1999999-0061MW1021REMSYN088AAXX  25124 83398 21596 62702 10270 20235 30148 40153 70252 84520 333 20217 59006 69914;
0198833980999992005042600004-15667-038933FM-12+000599999V0209999C000010450019N0010001N1+02521+02381101351ADDAA106000091GF105991031051008001041001KA1240M+03001MA1999999101301MD1999999-0071REMSYN088AAXX  26004 83398 32594 50000 10252 20238 30130 40135 83540 333 10300 29/// 55068 59007;EQDQ01  00002PRCP06
0186833980999992005042612004-15667-038933FM-12+000599999V0202301N001010450019N0040001N1+02741+02341101371ADDAA106000091GF105991021021008001041001KA1240N+02201MA1999999101321MD1999999-0161REMSYN076AAXX  26124 83398 32596 52302 10274 20234 30132 40137 82240 333 20220 59016;EQDQ01  00002PRCP06
0198833980999992005042700004-15667-038933FM-12+000599999V0203601N001010450019N0010001N1+02641+02421101241ADDAA106000091GF105991021011008001041001KA1240M+03061MA1999999101191MD1999999-0111REMSYN088AAXX  27004 83398 32594 53602 10264 20242 30119 40124 82140 333 10306 29/// 55082 59011;EQDQ01  00002PRCP06
0190833980999992005042712004-15667-038933FM-12+000599999V0201801N002110075019N0040001N1+02381+02331101541ADDAY161061AY221061GF108991051071008001021999KA1240N+02301MA1999999101491MD1999999+0171MW1621REMSYN088AAXX  27124 83398 21596 81804 10238 20233 30149 40154 76262 8572/ 333 20230 58017 60114;
0221833980999992005042800004-15667-038933FM-12+000599999V0201801N002110120019N0010001N1+02241+02191101571ADDAY161061AY221061GF108991999081008001021999KA1240M+02681MA1999999101521MD1999999+0331MW1021REMSYN100AAXX  28004 83398 21594 81804 10224 20219 30152 40157 70262 8882/ 333 10268 29/// 55002 58033 60041;EQDQ01+000082SCOTLC
0190833980999992005042812004-15667-038933FM-12+000599999V0201801N003110075019N0040001N1+02481+02151101681ADDAY151061AY221061GF107991051051008001021001KA1240N+02101MA1999999101621MD1999999+0131MW1501REMSYN088AAXX  28124 83398 21596 71806 10248 20215 30162 40168 75052 85520 333 20210 58013 60044;
0202833980999992005042900004-15667-038933FM-12+000599999V0209999C000010042019N0010001N1+02381+02091101631ADDAY151061AY221061GF108991051071004501021999KA1240M+02681MA1999999101571MD1999999+0051MW1501REMSYN100AAXX  29004 83398 21494 80000 10238 20209 30157 40163 75052 8572/ 333 10268 29/// 55024 58005 69961;
0190833980999992005042912004-15667-038933FM-12+000599999V0201801N002110075019N0040001N1+02341+02311101791ADDAY161061AY221061GF108991051071008001021999KA1240N+02081MA1999999101731MD1999999+0111MW1631REMSYN088AAXX  29124 83398 21596 81804 10234 20231 30173 40179 76362 8572/ 333 20208 58011 61314;
0190833980999992005043012004-15667-038933FM-12+000599999V0202301N002110450019N0040001N1+02621+02371101631ADDAY161061AY221061GF106991041051008001021001KA1240N+02301MA1999999101571MD1999999-0161MW1021REMSYN088AAXX  30124 83398 21596 62304 10262 20237 30157 40163 70262 84520 333 20230 59016 60124;
0185833980999992005050100004-15670-038950FM-12+000599999V0209999C000010450019N0010001N1+02361+02331101521ADDAA106000091GF105991031051008001021001MA1999999101471MD1999999-0171REMSYN088AAXX  01004 83398 32594 50000 10236 20233 30147 40152 83520 333 10296 29/// 55045 59017;EQDQ01  00002PRCP06
0173833980999992005050112004-15670-038950FM-12+000599999V0201801N004110075019N0040001N1+02541+02251101641ADDAA106000091GF108991051051008001021999MA1999999101581MD1999999+0011REMSYN076AAXX  01124 83398 32596 81808 10254 20225 30158 40164 8552/ 333 20226 58001;EQDQ01  00002PRCP06
0185833980999992005050200004-15670-038950FM-12+000599999V0202301N001010450019N0010001N1+02281+02251101641ADDAA106000091GF107991041051008001021001MA1999999101581MD1999999+0111REMSYN088AAXX  02004 83398 32594 72302 10228 20225 30158 40164 84520 333 10272 29/// 55015 58011;EQDQ01  00002PRCP06
0198833980999992005050300004-15667-038933FM-12+000599999V0201801N003110450019N0010001N1+02141+02091101831ADDAA106000091GF106991041051008001021001KA1240M+02791MA1999999101771MD1999999+0191REMSYN088AAXX  03004 83398 32594 61806 10214 20209 30177 40183 84520 333 10279 29/// 55018 58019;EQDQ01  00002PRCP06
0186833980999992005050312004-15667-038933FM-12+000599999V0201801N003110450019N0040001N1+02421+02131101921ADDAA106000091GF106991041051008001021001KA1240N+01901MA1999999101861MD1999999+0131REMSYN076AAXX  03124 83398 32596 61806 10242 20213 30186 40192 84520 333 20190 58013;EQDQ01  00002PRCP06
0198833980999992005050400004-15667-038933FM-12+000599999V0201801N002110450019N0010001N1+02161+02111101931ADDAA106000091GF105991031051008001021001KA1240M+02851MA1999999101871MD1999999+0101REMSYN088AAXX  04004 83398 32594 51804 10216 20211 30187 40193 83520 333 10285 29/// 55059 58010;EQDQ01  00002PRCP06
0190833980999992005050412004-15667-038933FM-12+000599999V0203601N003110450019N0040001N1+02271+02001102041ADDAY151061AY221061GF107991041051004501021001KA1240N+01941MA1999999101981MD1999999+0121MW1021REMSYN088AAXX  04124 83398 21496 73606 10227 20200 30198 40204 70252 84520 333 20194 58012 69934;
0198833980999992005050500004-15667-038933FM-12+000599999V0209999C000012200019N0010001N1+02141+02091102001ADDAA106000091GF103991031011008001001001KA1240M+02761MA1999999101941MD1999999+0071REMSYN088AAXX  05004 83398 32594 30000 10214 20209 30194 40200 83100 333 10276 29/// 55021 58007;EQDQ01  00002PRCP06
0190833980999992005050512004-15667-038933FM-12+000599999V0201801N004110450019N0040001N1+02361+01931102001ADDAY151061AY221061GF106991041051008001021001KA1240N+01861MA1999999101941MD1999999-0041MW1021REMSYN088AAXX  05124 83398 21596 61808 10236 20193 30194 40200 70252 84520 333 20186 59004 69914;
0198833980999992005050600004-15667-038933FM-12+000599999V0209999C000012200019N0010001N1+02121+02001101841ADDAA106000091GF104991031011008001041001KA1240M+02721MA1999999101781MD1999999-0161REMSYN088AAXX  06004 83398 32594 40000 10212 20200 30178 40184 83140 333 10272 29/// 55036 59016;EQDQ01  00002PRCP06
0186833980999992005050612004-15667-038933FM-12+000599999V0201801N003110450019N0040001N1+02441+02131101931ADDAA106000091GF106991041051008001021001KA1240N+01921MA1999999101871MD1999999+0071REMSYN076AAXX  06124 83398 32596 61806 10244 20213 30187 40193 84520 333 20192 58007;EQDQ01  00002PRCP06
0198833980999992005050700004-15667-038933FM-12+000599999V0201801N001012200019N0010001N1+02241+02191101801ADDAA106000091GF102991021011008001001001KA1240M+02861MA1999999101741MD1999999-0041REMSYN088AAXX  07004 83398 32594 21802 10224 20219 30174 40180 82100 333 10286 29/// 55036 59004;EQDQ01  00002PRCP06
0190833980999992005050712004-15667-038933FM-12+000599999V0201801N001010450019N0040001N1+02521+02211101881ADDAY161061AY221061GF106991031051008001041001KA1240N+02021MA1999999101821MD1999999-0051MW1021REMSYN088AAXX  07124 83398 21596 61802 10252 20221 30182 40188 70262 83540 333 20202 59005 69964;
0185833980999992005050800004-15670-038950FM-12+000599999V0209999C000012200019N0010001N1+02281+02231101811ADDAA106000091GF101991011011008001001001MA1999999101751MD1999999+0011REMSYN088AAXX  08004 83398 32594 10000 10228 20223 30175 40181 81100 333 10294 29/// 55080 58001;EQDQ01  00002PRCP06
0173833980999992005050812004-15670-038950FM-12+000599999V0201401N004110450019N0040001N1+02641+02271101831ADDAA106000091GF105991031011008001041001MA1999999101771MD1999999-0051REMSYN076AAXX  08124 83398 32596 51408 10264 20227 30177 40183 83140 333 20206 59005;EQDQ01  00002PRCP06
0198833980999992005050900004-15667-038933FM-12+000599999V0209999C000010075019N0010001N1+02421+02321101851ADDAA106000091GF108991061051008001021999KA1240M+02991MA1999999101791MD1999999+0041REMSYN088AAXX  09004 83398 32594 80000 10242 20232 30179 40185 8652/ 333 10299 29/// 55085 58004;EQDQ01  00002PRCP06
0190833980999992005050912004-15667-038933FM-12+000599999V0201801N003110075019N0040001N1+02661+02521101881ADDAY191061AY261061GF106991051051008001021001KA1240N+02221MA1999999101821MD1999999+0051MW1021REMSYN088AAXX  09124 83398 21596 61806 10266 20252 30182 40188 70296 85520 333 20222 58005 60044;
0198833980999992005051000004-15667-038933FM-12+000599999V0201801N002110450019N0010001N1+02381+02331101881ADDAA106000091GF105991031051008001021001KA1240M+02981MA1999999101821MD1999999+0031REMSYN088AAXX  10004 83398 32594 51804 10238 20233 30182 40188 83520 333 10298 29/// 55078 58003;EQDQ01  00002PRCP06
0190833980999992005051012004-15667-038933FM-12+000599999V0209999C000010450019N0040001N1+02441+02351101881ADDAY151061AY221061GF106991041051008001021001KA1240N+02201MA1999999101821MD1999999+0001MW1021REMSYN088AAXX  10124 83398 21596 60000 10244 20235 30182 40188 70252 84520 333 20220 58000 69934;
0202833980999992005051100004-15667-038933FM-12+000599999V0201401N002110450019N0010001N1+02381+02281101781ADDAY161061AY221061GF108991041071008001021999KA1240M+02981MA1999999101721MD1999999-0101MW1611REMSYN100AAXX  11004 83398 21594 81404 10238 20228 30172 40178 76162 8472/ 333 10298 29/// 55059 59010 60021;
0190833980999992005051112004-15667-038933FM-12+000599999V0201801N002110450019N0040001N1+02601+02391101861ADDAY161061AY221061GF106991041051008001021001KA1240N+02241MA1999999101801MD1999999-0021MW1021REMSYN088AAXX  11124 83398 21596 61804 10260 20239 30180 40186 70262 84520 333 20224 59002 60054;
0162833980999992005051312004-15667-038933FM-12+000599999V0200901N003110450019N0040001N1+02801+02181101841ADDGF105991031051008001021001KA1240N+02081MA1999999101781MD1999999-0031REMSYN082AAXX  13124 83398 22596 50906 10280 20218 30178 40184 83520 333 20208 59003 60024;
0167833980999992005051318004-15667-038933FM-12+000599999V0201801N001010450019N0040001N1+02841+02191101571ADDAA106000091GF106991031051008001041001MA1999999101521MD1999999+0001REMSYN070AAXX  13184 83398 32596 61802 10284 20219 30152 40157 83540 333 58000;EQDQ01  00002PRCP06
0198833980999992005051400004-15667-038933FM-12+000599999V0200901N003112200019N0010001N1+02541+02171101741ADDAA106000091GF104991021051008001041001KA1240M+02971MA1999999101681MD1999999-0061REMSYN088AAXX  14004 83398 32594 40906 10254 20217 30168 40174 82540 333 10297 29/// 55080 59006;EQDQ01  00002PRCP06
0177833980999992005051512004-15670-038950FM-12+000599999V0201401N004110450019N0040001N1+02801+02311101651ADDAY151061AY221061GF106991041051008001021001MA1999999101591MD1999999-0121MW1021REMSYN088AAXX  15124 83398 21596 61408 10280 20231 30159 40165 70252 84520 333 20218 59012 69944;
0171833980999992005051518004-15670-038950FM-12+000599999V0201401N002110450019N0040001N1+02821+02201101531ADDAY161061AY221061GF106991041051008001021001MA1999999101481MD1999999+0001MW1021REMSYN082AAXX  15184 83398 21596 61404 10282 20220 30148 40153 70262 84520 333 58000 60011;
0198833980999992005051600004-15667-038933FM-12+000599999V0209999C000012200019N0010001N1+02401+02261101631ADDAA106000091GF103991031011008001001001KA1240M+02951MA1999999101571MD1999999-0041REMSYN088AAXX  16004 83398 32594 30000 10240 20226 30157 40163 83100 333 10295 29/// 55076 59004;EQDQ01  00002PRCP06
0190833980999992005051712004-15667-038933FM-12+000599999V0201801N003110450019N0040001N1+02501+02341101571ADDAY161061AY221061GF106991041051008001021001KA1240N+02141MA1999999101521MD1999999-0101MW1021REMSYN088AAXX  17124 83398 21596 61806 10250 20234 30152 40157 70262 84520 333 20214 59010 60124;
0171833980999992005051718004-15667-038933FM-12+000599999V0201401N002110450019N0040001N1+02781+02251101241ADDAY151061AY221061GF106991041051008001021011MA1999999101191MD1999999+0001MW1021REMSYN082AAXX  17184 83398 21596 61404 10278 20225 30119 40124 70252 84521 333 58000 69991;
0198833980999992005051800004-15667-038933FM-12+000599999V0209999C000010075019N0010001N1+02401+02311101491ADDAA106000091GF108991051051008001021999KA1240M+02861MA1999999101441MD1999999-0121REMSYN088AAXX  18004 83398 32594 80000 10240 20231 30144 40149 8552/ 333 10286 29/// 55053 59012;EQDQ01  00002PRCP06
0186833980999992005051912004-15667-038933FM-12+000599999V0209999C000010450019N0040001N1+02561+02251101451ADDAA106000091GF105991031051008001041001KA1240N+01981MA1999999101391MD1999999-0061REMSYN076AAXX  19124 83398 32596 50000 10256 20225 30139 40145 83540 333 20198 59006;EQDQ01  00002PRCP06
0167833980999992005051918004-15667-038933FM-12+000599999V0200501N003110450019N0040001N1+02761+02041101111ADDAA106000091GF106991041051008001021001MA1999999101061MD1999999+0001REMSYN070AAXX  19184 83398 32596 60506 10276 20204 30106 40111 84520 333 58000;EQDQ01  00002PRCP06
0198833980999992005052000004-15667-038933FM-12+000599999V0209999C000012200019N0010001N1+02281+02161101381ADDAA106000091GF101991011011008001001001KA1240M+02791MA1999999101331MD1999999+0021REMSYN088AAXX  20004 83398 32594 10000 10228 20216 30133 40138 81100 333 10279 29/// 55058 58002;EQDQ01  00002PRCP06
0186833980999992005052112004-15667-038933FM-12+000599999V0203601N002110450019N0040001N1+02701+02281101521ADDAA106000091GF105991021011008001041001KA1240N+01941MA1999999101471MD1999999+0021REMSYN076AAXX  21124 83398 32596 53604 10270 20228 30147 40152 82140 333 20194 58002;EQDQ01  00002PRCP06
0167833980999992005052118004-15667-038933FM-12+000599999V0203601N004110450019N0040001N1+02821+02331101141ADDAA106000091GF106991041021008001041001MA1999999101091MD1999999+0001REMSYN070AAXX  21184 83398 32596 63608 10282 20233 30109 40114 84240 333 58000;EQDQ01  00002PRCP06
0185833980999992005052200004-15670-038950FM-12+000599999V0203601N003112200019N0010001N1+02581+02381101291ADDAA106000091GF102991021011008001001001MA1999999101241MD1999999-0061REMSYN088AAXX  22004 83398 32594 23606 10258 20238 30124 40129 82100 333 10297 29/// 55082 59006;EQDQ01  00002PRCP06
0173833980999992005052312004-15670-038950FM-12+000599999V0203601N004110024019N0040001N1+02821+02331101271ADDAA106000091GF109991091999999999999999MA1999999101221MD1999999-0071REMSYN076AAXX  23124 83398 32596 93608 10282 20233 30122 40127 85520 333 20238 59007;EQDQ01  00002PRCP06
0167833980999992005052318004-15670-038950FM-12+000599999V0203601N004110450019N0040001N1+02841+02401101031ADDAA106000091GF108991041051008001021001MA1999999100981MD1999999-0211REMSYN070AAXX  23184 83398 32596 83608 10284 20240 30098 40103 84520 333 59021;EQDQ01  00002PRCP06
0198833980999992005052400004-15667-038933FM-12+000599999V0201801N002110075019N0010001N1+02601+02461101331ADDAA106000091GF108991051051008001021999KA1240M+03041MA1999999101281MD1999999+0091REMSYN088AAXX  24004 83398 32594 81804 10260 20246 30128 40133 8552/ 333 10304 29/// 55068 58009;EQDQ01  00002PRCP06
0186833980999992005052512004-15667-038933FM-12+000599999V0200501N001010450019N0040001N1+02701+02431101511ADDAA106000091GF106991041051008001021001KA1240N+02201MA1999999101461MD1999999-0021REMSYN076AAXX  25124 83398 32596 60502 10270 20243 30146 40151 84520 333 20220 59002;EQDQ01  00002PRCP06
0167833980999992005052518004-15667-038933FM-12+000599999V0203601N004110075019N0200001N1+02841+02351101231ADDAA106000091GF108991051051008001021999MA1999999101181MD1999999+0001REMSYN070AAXX  25184 83398 32598 83608 10284 20235 30118 40123 8552/ 333 58000;EQDQ01  00002PRCP06
0198833980999992005052600004-15667-038933FM-12+000599999V0203601N002610450019N0010001N1+02651+02451101451ADDAA106000091GF106991041051008001021001KA1240M+03001MA1999999101401MD1999999+0071REMSYN088AAXX  26004 83398 32594 63605 10265 20245 30140 40145 84520 333 10300 29/// 55066 58007;EQDQ01  00002PRCP06
0190833980999992005052712004-15667-038933FM-12+000599999V0201801N002110075019N0040001N1+02441+02341102011ADDAY191061AY261061GF108991051051008001021999KA1240N+02161MA1999999101951MD1999999+0331MW1021REMSYN088AAXX  27124 83398 21596 81804 10244 20234 30195 40201 70296 8552/ 333 20216 58033 60484;
0171833980999992005052718004-15667-038933FM-12+000599999V0201801N005110075019N0040001N1+02501+02171101831ADDAY161061AY221061GF108991051051008001021999MA1999999101771MD1999999+0001MW1021REMSYN082AAXX  27184 83398 21596 81810 10250 20217 30177 40183 70262 8552/ 333 58000 60171;
0198833980999992005052800004-15667-038933FM-12+000599999V0201801N002610075019N0010001N1+02441+02071101991ADDAA106000091GF107991051051008001021001KA1240M+02701MA1999999101931MD1999999+0271REMSYN088AAXX  28004 83398 32594 71805 10244 20207 30193 40199 85520 333 10270 29/// 55016 58027;EQDQ01  00002PRCP06
0177833980999992005052912004-15670-038950FM-12+000599999V0201801N002110450019N0040001N1+02481+02291101991ADDAY191061AY261061GF106991041051008001021001MA1999999101931MD1999999-0021MW1021REMSYN088AAXX  29124 83398 21596 61804 10248 20229 30193 40199 70296 84520 333 20212 59002 60374;
0167833980999992005052918004-15670-038950FM-12+000599999V0201401N002110450019N0040001N1+02701+02281101671ADDAA106000091GF106991041051008001021001MA1999999101711MD1999999+0001REMSYN070AAXX  29184 83398 32596 61404 10270 20228 30171 40167 84520 333 58000;EQDQ01  00002PRCP06
0202833980999992005053000004-15667-038933FM-12+000599999V0201401N001010450019N0010001N1+02401+02331101921ADDAY191061AY261061GF106991041051008001021001KA1240M+02841MA1999999101861MD1999999+0021MW1021REMSYN100AAXX  30004 83398 21594 61402 10240 20233 30186 40192 70296 84520 333 10284 29/// 55064 58002 60031;
0190833980999992005053112004-15667-038933FM-12+000599999V0200901N003110450019N0040001N1+02421+02191102001ADDAY191061AY261061GF106991041051008001021001KA1240N+01981MA1999999101941MD1999999-0111MW1021REMSYN088AAXX  31124 83398 21596 60906 10242 20219 30194 40200 70296 84520 333 20198 59011 60624;
0171833980999992005053118004-15667-038933FM-12+000599999V0200901N003110450019N0040001N1+03281+02151101851ADDAY161061AY221061GF108991031071008001021999MA1999999101791MD1999999+0001MW1021REMSYN082AAXX  31184 83398 21596 80906 10328 20215 30179 40185 70262 8372/ 333 58000 60151;
0202833980999992005060100004-15667-038933FM-12+000599999V0209999C000010450019N0010001N1+02281+02221102001ADDAY161061AY221061GF108991041071008001021999KA1240M+02721MA1999999101941MD1999999+0141MW1611REMSYN100AAXX  01004 83398 21594 80000 10228 20222 30194 40200 76162 8472/ 333 10272 29/// 55016 58014 60051;
0190833980999992005060112004-15667-038933FM-12+000599999V0200901N003110450019N0040001N1+02761+01971102041ADDAY161061AY221061GF105991031051008001021001KA1240N+01981MA1999999101981MD1999999+0041MW1021REMSYN088AAXX  01124 83398 21596 50906 10276 20197 30198 40204 70262 83520 333 20198 58004 60254;
0171833980999992005060118004-15667-038933FM-12+000599999V0209999C000010450019N0040001N1+02581+02251101761ADDAY161061AY221061GF105991031051008001021001MA1999999101701MD1999999-0091MW1021REMSYN082AAXX  01184 83398 21596 50000 10258 20225 30170 40176 70262 83520 333 59009 60021;
0198833980999992005060200004-15667-038933FM-12+000599999V0201801N002110450019N0010001N1+02261+02181101941ADDAA106000091GF105991041051008001021001KA1240M+02891MA1999999101881MD1999999-0061REMSYN088AAXX  02004 83398 32594 51804 10226 20218 30188 40194 84520 333 10289 29/// 55070 59006;EQDQ01  00002PRCP06
0190833980999992005060312004-15667-038933FM-12+000599999V0209999C000010075019N0040001N1+02381+02241102001ADDAY161061AY221061GF108991051051008001021999KA1240N+02021MA1999999101941MD1999999+0001MW1021REMSYN088AAXX  03124 83398 21596 80000 10238 20224 30194 40200 70262 8552/ 333 20202 58000 60254;
0167833980999992005060318004-15667-038933FM-12+000599999V0201401N003110075019N0040001N1+02661+01921101801ADDAA106000091GF108991051051008001021999MA1999999101741MD1999999+0001REMSYN070AAXX  03184 83398 32596 81406 10266 20192 30174 40180 8552/ 333 58000;EQDQ01  00002PRCP06
0202833980999992005060400004-15667-038933FM-12+000599999V0200901N003610042019N0010001N1+02381+02191102051ADDAY151061AY221061GF108991051051004501021999KA1240M+02781MA1999999101991MD1999999+0001MW1501REMSYN100AAXX  04004 83398 21494 80907 10238 20219 30199 40205 75052 8552/ 333 10278 29/// 55009 58000 69921;
0190833980999992005060512004-15667-038933FM-12+000599999V0201801N002110075019N0040001N1+02381+02211102091ADDAY161061AY221061GF108991051051008001021999KA1240N+01961MA1999999102031MD1999999+0001MW1021REMSYN088AAXX  05124 83398 21596 81804 10238 20221 30203 40209 70262 8552/ 333 20196 58000 60074;
0171833980999992005060518004-15667-038933FM-12+000599999V0201401N002110450019N0040001N1+02481+02151101841ADDAY161061AY221061GF108991041071008001021999MA1999999101781MD1999999+0001MW1611REMSYN082AAXX  05184 83398 21596 81404 10248 20215 30178 40184 76162 8472/ 333 58000 60051;
0190833980999992005060712004-15667-038933FM-12+000599999V0201801N003110450019N0040001N1+02361+02191101861ADDAY161061AY221061GF106991041051008001021001KA1240N+01981MA1999999101801MD1999999+0001MW1021REMSYN088AAXX  07124 83398 21596 61806 10236 20219 30180 40186 70262 84520 333 20198 58000 60254;
0167833980999992005060718004-15667-038933FM-12+000599999V0201801N005110450019N0040001N1+02601+02101101681ADDAA106000091GF106991041051008001021001MA1999999101621MD1999999+0001REMSYN070AAXX  07184 83398 32596 61810 10260 20210 30162 40168 84520 333 58000;EQDQ01  00002PRCP06
0198833980999992005060800004-15667-038933FM-12+000599999V0201801N002610075019N0010001N1+02181+02101101821ADDAA106000091GF108991051051008001021999KA1240M+02761MA1999999101761MD1999999+0001REMSYN088AAXX  08004 83398 32594 81805 10218 20210 30176 40182 8552/ 333 10276 29/// 55056 58000;EQDQ01  00002PRCP06
0190833980999992005060912004-15667-038933FM-12+000599999V0201801N002110075019N0040001N1+02241+02161102121ADDAY191061AY261061GF108991051071008001021999KA1240N+01921MA1999999102061MD1999999+0001MW1631REMSYN088AAXX  09124 83398 21596 81804 10224 20216 30206 40212 76396 8572/ 333 20192 58000 60734;
0171833980999992005060918004-15667-038933FM-12+000599999V0201401N003110075019N0040001N1+02521+02211101811ADDAY161061AY221061GF106991051051008001021001MA1999999101751MD1999999+0001MW1021REMSYN082AAXX  09184 83398 21596 61406 10252 20221 30175 40181 70262 85520 333 58000 60051;
0202833980999992005061000004-15667-038933FM-12+000599999V0201801N002110075019N0010001N1+02161+02111102031ADDAY161061AY221061GF108991051071008001021999KA1240M+02741MA1999999101971MD1999999+0001MW1621REMSYN100AAXX  10004 83398 21594 81804 10216 20211 30197 40203 76262 8572/ 333 10274 29092 55042 58000 60121;
0190833980999992005061112004-15667-038933FM-12+000599999V0201801N002610042019N0040001N1+02181+02081101991ADDAY161061AY221061GF108991051051004501021999KA1240N+02001MA1999999101931MD1999999+0001MW1021REMSYN088AAXX  11124 83398 21496 81805 10218 20208 30193 40199 70262 8552/ 333 20200 58000 60774;
0171833980999992005061118004-15667-038933FM-12+000599999V0200901N002110450019N0040001N1+02681+01991101721ADDAY161061AY221061GF108991041051008001021999MA1999999101621MD1999999+0001MW1021REMSYN082AAXX  11184 83398 21596 80904 10268 20199 30162 40172 70262 8452/ 333 58000 60031;
0202833980999992005061200004-15670-038950FM-12+000599999V0200501N001010450019N0010001N1+02381+01821101901ADDAY161061AY221061GF106991041051008001021001KA1240M+02681MA1999999101841MD1999999+0001MW1021REMSYN100AAXX  12004 83398 21594 60502 10238 20182 30184 40190 70262 84520 333 10268 29077 55000 58000 60021;
0190833980999992005061312004-15667-038933FM-12+000599999V0201801N002110450019N0040001N1+02361+02191101971ADDAY161061AY221061GF106991041071008001021001KA1240N+01801MA1999999101911MD1999999+0001MW1601REMSYN088AAXX  13124 83398 21596 61804 10236 20219 30191 40197 76062 84720 333 20180 58000 60114;
0171833980999992005061318004-15667-038933FM-12+000599999V0201801N001010075019N0040001N1+02401+02231101731ADDAY161061AY221061GF108991051071008001021999MA1999999101671MD1999999+0001MW1611REMSYN082AAXX  13184 83398 21596 81802 10240 20223 30167 40173 76162 8572/ 333 58000 60031;
0202833980999992005061400004-15667-038933FM-12+000599999V0200901N002610042019N0010001N1+02201+02151102011ADDAY161061AY221061GF108991051071004501021999KA1240M+02621MA1999999101951MD1999999+0001MW1601REMSYN100AAXX  14004 83398 21494 80905 10220 20215 30195 40201 76062 8572/ 333 10262 29094 55011 58000 60331;
0190833980999992005061512004-15667-038933FM-12+000599999V0202301N002610450019N0040001N1+02411+02311102051ADDAY161061AY221061GF107991041051004501021001KA1240N+02061MA1999999101991MD1999999+0001MW1021REMSYN088AAXX  15124 83398 21496 72305 10241 20231 30199 40205 70262 84520 333 20206 58000 60514;
0171833980999992005061518004-15667-038933FM-12+000599999V0200901N003110450019N0040001N1+02641+02141101791ADDAY161061AY221061GF106991041051008001021001MA1999999101731MD1999999+0001MW1021REMSYN082AAXX  15184 83398 21596 60906 10264 20214 30173 40179 70262 84520 333 58000 60021;
0198833980999992005061600004-15667-038933FM-12+000599999V0209999C000010450019N0010001N1+02241+02191101941ADDAA106000091GF106991041051008001021001KA1240M+02791MA1999999101881MD1999999+0001REMSYN088AAXX  16004 83398 32594 60000 10224 20219 30188 40194 84520 333 10279 29088 55069 58000;EQDQ01  00002PRCP06
0190833980999992005061712004-15667-038933FM-12+000599999V0202301N002610450019N0040001N1+02331+02081101811ADDAY151061AY221061GF105991031021004501041001KA1240N+01871MA1999999101751MD1999999+0001MW1011REMSYN088AAXX  17124 83398 21496 52305 10233 20208 30175 40181 70152 83240 333 20187 58000 60024;
0167833980999992005061718004-15667-038933FM-12+000599999V0200501N001512200019N0040001N1+02601+01921101521ADDAA106000091GF104991021021008001041001MA1999999101471MD1999999+0001REMSYN070AAXX  17184 83398 32596 40503 10260 20192 30147 40152 82240 333 58000;EQDQ01  00002PRCP06
0198833980999992005061800004-15667-038933FM-12+000599999V0209999C000012200019N0010001N1+02081+01961101741ADDAA106000091GF102991021021008001001001KA1240M+02801MA1999999101681MD1999999+0001REMSYN088AAXX  18004 83398 32594 20000 10208 20196 30168 40174 82200 333 10280 29085 55096 58000;EQDQ01  00002PRCP06
0186833980999992005061912004-15670-038950FM-12+000599999V0203601N002110450019N0040001N1+02641+02071101681ADDAA106000091GF106991041051008001021001KA1240N+01881MA1999999101621MD1999999+0001REMSYN076AAXX  19124 83398 32596 63604 10264 20207 30162 40168 84520 333 20188 58000;EQDQ01  00002PRCP06
0167833980999992005061918004-15670-038950FM-12+000599999V0203601N003110450019N0040001N1+02721+02191101821ADDAA106000091GF106991031051008001041011MA1999999101761MD1999999+0001REMSYN070AAXX  19184 83398 32596 63606 10272 20219 30176 40182 83541 333 58000;EQDQ01  00002PRCP06
0198833980999992005062000004-15670-038950FM-12+000599999V0203601N002110450019N0010001N1+02521+02361101611ADDAA106000091GF106991041051008001021001KA1240M+03011MA1999999101551MD1999999+0001REMSYN088AAXX  20004 83398 32594 63604 10252 20236 30155 40161 84520 333 10301 29078 55060 58000;EQDQ01  00002PRCP06
0186833980999992005062112004-15667-038933FM-12+000599999V0203601N003110450019N0040001N1+02741+02341101761ADDAA106000091GF106991031011008001041001KA1240N+02101MA1999999101701MD1999999+0001REMSYN076AAXX  21124 83398 32596 63606 10274 20234 30170 40176 83140 333 20210 58000;EQDQ01  00002PRCP06
0167833980999992005062118004-15667-038933FM-12+000599999V0203601N000512200019N0040001N1+02791+02311101461ADDAA106000091GF103991021021008001041001MA1999999101411MD1999999+0001REMSYN070AAXX  21184 83398 32596 33601 10279 20231 30141 40146 82240 333 58000;EQDQ01  00002PRCP06
0198833980999992005062200004-15667-038933FM-12+000599999V0209999C000010450019N0010001N1+02561+02351101781ADDAA106000091GF105991031011008001041001KA1240M+02971MA1999999101721MD1999999+0001REMSYN088AAXX  22004 83398 32594 50000 10256 20235 30172 40178 83140 333 10297 29083 55061 58000;EQDQ01  00002PRCP06
0190833980999992005062312004-15667-038933FM-12+000599999V0201801N003110450019N0040001N1+02241+02031102111ADDAY161061AY221061GF106991041051008001021001KA1240N+01921MA1999999102051MD1999999+0001MW1021REMSYN088AAXX  23124 83398 21596 61806 10224 20203 30205 40211 70262 84520 333 20192 58000 60164;
0167833980999992005062318004-15667-038933FM-12+000599999V0201801N004110075019N0040001N1+02481+01961101871ADDAA106000091GF107991051051008001021001MA1999999101811MD1999999+0001REMSYN070AAXX  23184 83398 32596 71808 10248 20196 30181 40187 85520 333 58000;EQDQ01  00002PRCP06
0198833980999992005062400004-15667-038933FM-12+000599999V0201801N002110450019N0010001N1+02101+02021102031ADDAA106000091GF106991041051008001021001KA1240M+02701MA1999999101971MD1999999+0001REMSYN088AAXX  24004 83398 32594 61804 10210 20202 30197 40203 84520 333 10270 29085 55045 58000;EQDQ01  00002PRCP06
0186833980999992005062512004-15667-038933FM-12+000599999V0201801N004110450019N0040001N1+02301+02011101931ADDAA106000091GF106991041051008001021001KA1240N+01901MA1999999101871MD1999999+0001REMSYN076AAXX  25124 83398 32596 61808 10230 20201 30187 40193 84520 333 20190 58000;EQDQ01  00002PRCP06
0167833980999992005062518004-15667-038933FM-12+000599999V0201801N003110075019N0040001N1+02281+02011101771ADDAA106000091GF108991051051008001021999MA1999999101711MD1999999+0001REMSYN070AAXX  25184 83398 32596 81806 10228 20201 30171 40177 8552/ 333 58000;EQDQ01  00002PRCP06
0202833980999992005062600004-15670-038950FM-12+000599999V0201801N003110450019N0010001N1+02141+02091101931ADDAY161061AY221061GF108991041071008001021999KA1240M+02681MA1999999101861MD1999999+0001MW1521REMSYN100AAXX  26004 83398 21594 81806 10214 20209 30186 40193 75262 8472/ 333 10268 29089 55010 58000 60021;
0190833980999992005062712004-15667-038933FM-12+000599999V0209999C000010075019N0040001N1+02191+02131101981ADDAY161061AY221061GF108991051071008001021999KA1240N+01981MA1999999101921MD1999999+0001MW1631REMSYN088AAXX  27124 83398 21596 80000 10219 20213 30192 40198 76362 8572/ 333 20198 58000 61624;
0171833980999992005062718004-15667-038933FM-12+000599999V0200901N002112200019N0040001N1+02601+02231101761ADDAY161061AY221061GF104991031051008001021001MA1999999101701MD1999999+0001MW1021REMSYN082AAXX  27184 83398 21596 40904 10260 20223 30170 40176 70262 83520 333 58000 60041;
0198833980999992005062800004-15667-038933FM-12+000599999V0200501N001010450019N0010001N1+02401+02301101971ADDAA106000091GF105991031051008001021001KA1240M+02781MA1999999101911MD1999999+0001REMSYN088AAXX  28004 83398 32594 50502 10240 20230 30191 40197 83520 333 10278 29090 55026 58000;EQDQ01  00002PRCP06
0186833980999992005062912004-15667-038933FM-12+000599999V0201801N002110450019N0040001N1+02381+02071102141ADDAA106000091GF105991031051008001041001KA1240N+01801MA1999999102081MD1999999+0001REMSYN076AAXX  29124 83398 32596 51804 10238 20207 30208 40214 83540 333 20180 58000;EQDQ01  00002PRCP06
0167833980999992005062918004-15667-038933FM-12+000599999V0200901N003112200019N0040001N1+02641+01901101871ADDAA106000091GF104991021021008001041001MA1999999101811MD1999999+0001REMSYN070AAXX  29184 83398 32596 40906 10264 20190 30181 40187 82240 333 58000;EQDQ01  00002PRCP06
0198833980999992005063000004-15667-038933FM-12+000599999V0200501N002112200019N0010001N1+02361+02171101991ADDAA106000091GF103991031011008001001001KA1240M+02781MA1999999101931MD1999999+0001REMSYN088AAXX  30004 83398 32594 30504 10236 20217 30193 40199 83100 333 10278 29079 55054 58000;EQDQ01  00002PRCP06
0186833980999992005070112004-15667-038933FM-12+000599999V0201801N002110450019N0040001N1+02261+02031102041ADDAA106000091GF105991031021008001041001KA1240N+01621MA1999999101981MD1999999+0001REMSYN076AAXX  01124 83398 32596 51804 10226 20203 30198 40204 83240 333 20162 58000;EQDQ01  00002PRCP06
0167833980999992005070118004-15667-038933FM-12+000599999V0200901N003110450019N0040001N1+02621+01911101811ADDAA106000091GF106991041021008001041001MA1999999101751MD1999999+0001REMSYN070AAXX  01184 83398 32596 60906 10262 20191 30175 40181 84240 333 58000;EQDQ01  00002PRCP06
0198833980999992005070200004-15667-038950FM-12+000599999V0209999C000012200019N0010001N1+02041+01961102071ADDAA106000091GF103991031011008001001001KA1240M+02791MA1999999102011MD1999999+0001REMSYN088AAXX  02004 83398 32594 30000 10204 20196 30201 40207 83100 333 10279 29082 55058 58000;EQDQ01  00002PRCP06
0173833980999992005070312004-15670-038950FM-12+000599999V0209999C000010450019N0040001N1+02381+02171102201ADDAA106000091GF105991031051008001041001MA1999999102141MD1999999+0001REMSYN076AAXX  03124 83398 32596 50000 10238 20217 30214 40220 83540 333 20180 58000;EQDQ01  00002PRCP06
0171833980999992005070318004-15670-038950FM-12+000599999V0203601N001010075019N0040001N1+02361+02051101971ADDAY161061AY221061GF108991051051008001021999MA1999999101911MD1999999+0001MW1601REMSYN082AAXX  03184 83398 21596 83602 10236 20205 30191 40197 76062 8552/ 333 58000 60101;
0202833980999992005070400004-15667-038950FM-12+000599999V0209999C000010450019N0010001N1+02161+02081102081ADDAY161061AY221061GF106991041051008001021001KA1240M+02781MA1999999102021MD1999999+0001MW1021REMSYN100AAXX  04004 83398 21594 60000 10216 20208 30202 40208 70262 84520 333 10278 29088 55034 58000 60031;
0186833980999992005070512004-15667-038950FM-12+000599999V0202301N002110450019N0040001N1+02301+02071102011ADDAA106000091GF105991031021008001041001KA1240N+01741MA1999999101951MD1999999+0001REMSYN076AAXX  05124 83398 32596 52304 10230 20207 30195 40201 83240 333 20174 58000;EQDQ01  00002PRCP06
0167833980999992005070518004-15667-038950FM-12+000599999V0200901N003110450019N0040001N1+02581+02041101791ADDAA106000091GF105991031051008001041001MA1999999101731MD1999999+0001REMSYN070AAXX  05184 83398 32596 50906 10258 20204 30173 40179 83540 333 58000;EQDQ01  00002PRCP06
0190833980999992005070712004-15667-038950FM-12+000599999V0201801N003610450019N0040001N1+02281+02071102201ADDAY151061AY221061GF106991041051004501021001KA1240N+01921MA1999999102141MD1999999+0001MW1021REMSYN088AAXX  07124 83398 21496 61807 10228 20207 30214 40220 70252 84520 333 20192 58000 69924;
0167833980999992005070718004-15667-038950FM-12+000599999V0201801N003110075019N0040001N1+02241+02071102021ADDAA106000091GF108991051051008001021999MA1999999101961MD1999999+0001REMSYN070AAXX  07184 83398 32596 81806 10224 20207 30196 40202 8552/ 333 58000;EQDQ01  00002PRCP06
0190833980999992005070912004-15667-038950FM-12+000599999V0201801N007210450019N0040001N1+02081+01661102431ADDAY161061AY221061GF106991031051008001041001KA1240N+01681MA1999999102371MD1999999+0001MW1021REMSYN088AAXX  09124 83398 21596 61814 10208 20166 30237 40243 70262 83540 333 20168 58000 60104;
0167833980999992005070918004-15667-038950FM-12+000599999V0201801N007210075019N0040001N1+02321+01741102231ADDAA106000091GF106991051051008001021001MA1999999102171MD1999999+0001REMSYN070AAXX  09184 83398 32596 61814 10232 20174 30217 40223 85520 333 58000;EQDQ01  00002PRCP06
0185833980999992005071000004-15670-038950FM-12+000599999V0201801N003110450019N0010001N1+02281+02221102361ADDAA106000091GF105991031051008001021001MA1999999102301MD1999999+0001REMSYN088AAXX  10004 83398 32594 51806 10228 20222 30230 40236 83520 333 10254 29080 55055 58000;EQDQ01  00002PRCP06
0190833980999992005071112004-15667-038950FM-12+000599999V0200901N003110075019N0040001N1+02041+01891102371ADDAY161061AY221061GF108991051071008001021999KA1240N+01641MA1999999102311MD1999999+0001MW1631REMSYN088AAXX  11124 83398 21596 80906 10204 20189 30231 40237 76362 8572/ 333 20164 58000 60124;
0171833980999992005071118004-15667-038950FM-12+000599999V0200901N003110075019N0040001N1+02301+02011102181ADDAY161061AY221061GF108991051051008001021999MA1999999102121MD1999999+0001MW1021REMSYN082AAXX  11184 83398 21596 80906 10230 20201 30212 40218 70262 8552/ 333 58000 60221;
0202833980999992005071200004-15667-038950FM-12+000599999V0201801N003110450019N0010001N1+02241+02071102331ADDAY161061AY221061GF106991041051008001021001KA1240M+02461MA1999999102271MD1999999+0001MW1021REMSYN100AAXX  12004 83398 21594 61806 10224 20207 30227 40233 70262 84520 333 10246 29088 55000 58000 60031;
0167833980999992005071318004-15667-038950FM-12+000599999V0202301N006710450019N0040001N1+02441+01831101961ADDAA106000091GF105991031021008001041001MA1999999101901MD1999999+0001REMSYN070AAXX  13184 83398 32596 52313 10244 20183 30190 40196 83240 333 58000;EQDQ01  00002PRCP06
0198833980999992005071400004-15667-038950FM-12+000599999V0201801N001010450019N0010001N1+02341+02261102171ADDAA106000091GF105991031051008001021001KA1240M+02681MA1999999102111MD1999999+0001REMSYN088AAXX  14004 83398 32594 51802 10234 20226 30211 40217 83520 333 10268 29085 55055 58000;EQDQ01  00002PRCP06
0190833980999992005071412004-15667-038950FM-12+000599999V0201801N003110450019N0040001N1+02021+01831102181ADDAY161061AY221061GF106991041051008001021001KA1240N+01721MA1999999102121MD1999999-0041MW1021REMSYN088AAXX  14124 83398 21596 61806 10202 20183 30212 40218 70262 84520 333 20172 59004 60044;
0171833980999992005071418004-15667-038950FM-12+000599999V0201801N002110450019N0040001N1+02161+01931102021ADDAY151061AY221061GF106991041051004501021001MA1999999101961MD1999999+0061MW1021REMSYN082AAXX  14184 83398 21496 61804 10216 20193 30196 40202 70252 84520 333 58006 60011;
0198833980999992005071500004-15667-038950FM-12+000599999V0209999C000010450019N0010001N1+02081+01951102151ADDAA106000091GF106991041051008001021001KA1240M+02391MA1999999102091MD1999999-0021REMSYN088AAXX  15004 83398 32594 60000 10208 20195 30209 40215 84520 333 10239 29090 55016 59002;EQDQ01  00002PRCP06
0190833980999992005071512004-15667-038950FM-12+000599999V0201401N002110450019N0040001N1+02361+01731102231ADDAY161061AY221061GF106991041051008001021001KA1240N+01821MA1999999102111MD1999999+0051MW1021REMSYN088AAXX  15124 83398 21596 61404 10236 20173 30211 40223 70262 84520 333 20182 58005 60044;
0167833980999992005071518004-15667-038950FM-12+000599999V0201401N004110450019N0040001N1+02441+01611102011ADDAA106000091GF105991031051008001021001MA1999999101951MD1999999+0001REMSYN070AAXX  15184 83398 32596 51408 10244 20161 30195 40201 83520 333 59000;EQDQ01  00002PRCP06
0198833980999992005071600004-15667-038950FM-12+000599999V0201801N003110450019N0010001N1+02001+01851102141ADDAA106000091GF105991031051008001031001KA1240M+02641MA1999999102081MD1999999-0011REMSYN088AAXX  16004 83398 32594 51806 10200 20185 30208 40214 83530 333 10264 29078 55067 59001;EQDQ01  00002PRCP06
0186833980999992005071612004-15667-038950FM-12+000599999V0202301N002610450019N0040001N1+02071+01961102181ADDAA106000091GF106991031021008001041001KA1240N+01771MA1999999102121MD1999999-0051REMSYN076AAXX  16124 83398 32596 62305 10207 20196 30212 40218 83240 333 20177 59005;EQDQ01  00002PRCP06
0183833980999992005071618004-15667-038950FM-12+000599999V0200901N003119999999N0040001N1+02441+01831101911ADDAA106000091GF106991999051008001021001MA1999999101851MD1999999-0101REMSYN070AAXX  16184 83398 32596 60906 10244 20183 30185 40191 88520 333 59010;EQDQ01+000082SCOTLCQ02  00002PRCP06
0185833980999992005071700004-15670-038950FM-12+000599999V0209999C000012200019N0010001N1+01941+01811102001ADDAA106000091GF103991031011008001001001MA1999999101941MD1999999-0141REMSYN088AAXX  17004 83398 32594 30000 10194 20181 30194 40200 83100 333 10270 29083 55070 59014;EQDQ01  00002PRCP06
0173833980999992005071712004-15670-038950FM-12+000599999V0209999C000010450019N0040001N1+02301+02031102071ADDAA106000091GF105991031021008001041001MA1999999102011MD1999999-0111REMSYN076AAXX  17124 83398 32596 50000 10230 20203 30201 40207 83240 333 20158 59011;EQDQ01  00002PRCP06
0167833980999992005071718004-15670-038950FM-12+000599999V0200501N003110450019N0040001N1+02521+02021101821ADDAA106000091GF106991031021008001041011MA1999999101761MD1999999-0091REMSYN070AAXX  17184 83398 32596 60506 10252 20202 30176 40182 83241 333 59009;EQDQ01  00002PRCP06
0198833980999992005071800004-15667-038950FM-12+000599999V0209999C000012200019N0010001N1+02001+01851101841ADDAA106000091GF102991021011008001001001KA1240M+02691MA1999999101781MD1999999-0161REMSYN088AAXX  18004 83398 32594 20000 10200 20185 30178 40184 82100 333 10269 29084 55080 59016;EQDQ01  00002PRCP06
0186833980999992005071812004-15667-038950FM-12+000599999V0209999C000010450019N0040001N1+02351+02041101851ADDAA106000091GF105991031021008001041001KA1240N+01751MA1999999101791MD1999999-0221REMSYN076AAXX  18124 83398 32596 50000 10235 20204 30179 40185 83240 333 20175 59022;EQDQ01  00002PRCP06
0167833980999992005071818004-15667-038950FM-12+000599999V0200501N003110450019N0040001N1+02621+01961101691ADDAA106000091GF105991031021008001041001MA1999999101541MD1999999-0221REMSYN070AAXX  18184 83398 32596 50506 10262 20196 30154 40169 83240 333 59022;EQDQ01  00002PRCP06
0198833980999992005071900004-15667-038950FM-12+000599999V0209999C000012200019N0010001N1+02141+01971101711ADDAA106000091GF103991021021008001041001KA1240M+02801MA1999999101651MD1999999-0131REMSYN088AAXX  19004 83398 32594 30000 10214 20197 30165 40171 82240 333 10280 29083 55071 59013;EQDQ01  00002PRCP06
0186833980999992005071912004-15667-038950FM-12+000599999V0209999C000012200019N0040001N1+02341+01951101921ADDAA106000091GF103991031021008001041001KA1240N+01601MA1999999101861MD1999999+0071REMSYN076AAXX  19124 83398 32596 30000 10234 20195 30186 40192 83240 333 20160 58007;EQDQ01  00002PRCP06
0137833980999992005071918004-15667-038950FM-12+000599999V0200901N002111050019N0040001N1+02601+02401101701ADDGF105991021021008001041011MA1999999101641MD1999999+0101REMSYN070AAXX  19184 83398 32596 50904 10260 20240 30164 40170 82241 333 58010;
0201833980999992005072012004-15667-038950FM-12+000599999V0201801N002110450019N0040001N1+02121+01971102131ADDAA124002091AY161061AY221061GF108991041071008001021999KA1240N+01961MA1999999102071MD1999999+0211MW1521REMSYN088AAXX  20124 83398 21596 81804 10212 20197 30207 40213 75262 8472/ 333 20196 58021 60024;
0182833980999992005072018004-15667-038950FM-12+000599999V0201801N002110075019N0040001N1+02401+02211101861ADDAA106000391AY151061AY221061GF108991051051008001021999MA1999999101801MD1999999+0161MW1021REMSYN082AAXX  20184 83398 21596 81804 10240 20221 30180 40186 70252 8552/ 333 58016 69931;
0213833980999992005072100004-15667-038950FM-12+000599999V0201801N001510042019N0010001N1+02191+02041102011ADDAA106001091AY151061AY221061GF108991051051004501021999KA1240M+02541MA1999999101951MD1999999+0081MW1021REMSYN100AAXX  21004 83398 21494 81803 10219 20204 30195 40201 70252 8552/ 333 10254 29091 55000 58008 60011;
0201833980999992005072112004-15667-038950FM-12+000599999V0201801N002110075019N0040001N1+02161+01991102191ADDAA124009991AY161061AY221061GF108991051071008001021999KA1240N+02001MA1999999102131MD1999999+0061MW1601REMSYN088AAXX  21124 83398 21596 81804 10216 20199 30213 40219 76062 8572/ 333 20200 58006 60104;
0182833980999992005072118004-15667-038950FM-12+000599999V0201801N003110075019N0040001N1+02361+02291102001ADDAA106004191AY121061AY261061GF108991051051008001021999MA1999999101941MD1999999+0141MW1021REMSYN082AAXX  21184 83398 21596 81806 10236 20229 30194 40200 70226 8552/ 333 58014 60041;
0213833980999992005072200004-15667-038950FM-12+000599999V0201801N004110042019N0010001N1+02131+02131101961ADDAA106000391AY151061AY221061GF106991051051004501021999KA1240M+02481MA1999999102011MD1999999-0061MW1021REMSYN100AAXX  22004 83398 21494 61808 10213 20213 30201 40196 70252 8552/ 333 10248 29090 55002 59006 69931;
0201833980999992005072212004-15667-038950FM-12+000599999V0201801N002110450019N0040001N1+02141+01901102311ADDAA124009991AY161061AY221061GF108991041071008001021999KA1240N+01881MA1999999102251MD1999999+0121MW1631REMSYN088AAXX  22124 83398 21596 81804 10214 20190 30225 40231 76362 8472/ 333 20188 58012 60104;
0182833980999992005072218004-15667-038950FM-12+000599999V0202301N005710450019N0040001N1+02511+02141101991ADDAA106999999AY151061AY221061GF105991031051008001041001MA1999999101931MD1999999-0011MW1011REMSYN082AAXX  22184 83398 21596 52311 10251 20214 30193 40199 70152 83540 333 59001 69921;
0168833980999992005072300004-15667-038950FM-12+000599999V0209999C000010042019N0010001N1+02191+02051102161ADDGF108991051051004501021999KA1240M+02651MA1999999102101MD1999999+0031REMSYN088AAXX  23004 83398 32494 80000 10219 20205 30210 40216 8552/ 333 10265 29088 55048 58003;
0201833980999992005072312004-15667-038950FM-12+000599999V0201801N002110450019N0040001N1+02381+02031102191ADDAA124006191AY161061AY221061GF106991041051008001021001KA1240N+01961MA1999999102131MD1999999-0121MW1021REMSYN088AAXX  23124 83398 21596 61804 10238 20203 30213 40219 70262 84520 333 20196 59012 60064;
0137833980999992005072318004-15667-038950FM-12+000599999V0201401N003110450019N0040001N1+02581+02291101941ADDGF106991041051008001021001MA1999999101881MD1999999-0051REMSYN070AAXX  23184 83398 32596 61406 10258 20229 30188 40194 84520 333 59005;
0155833980999992005072400004-15670-038950FM-12+000599999V0201401N003110075019N0010001N1+02181+02011102121ADDGF107991051051008001021001MA1999999102061MD1999999-0041REMSYN088AAXX  24004 83398 32594 71406 10218 20201 30206 40212 85520 333 10269 29085 55073 59004;
0188833980999992005072412004-15670-038950FM-12+000599999V0200901N003110450019N0040001N1+02561+02171102281ADDAA124006191AY161061AY221061GF106991041051008001041001MA1999999102221MD1999999+0091MW1021REMSYN088AAXX  24124 83398 21596 60906 10256 20217 30222 40228 70262 84540 333 20200 58009 60064;
0137833980999992005072418004-15670-038950FM-12+000599999V0200901N002110450019N0040001N1+02601+02441102061ADDGF105991031021008001041001MA1999999102001MD1999999+0121REMSYN070AAXX  24184 83398 32596 50904 10260 20244 30200 40206 83240 333 58012;
0200833980999992005072500004-15670-038950FM-12+000599999V0209999C000012200019N0010001N1+02201+02061102211ADDAA106025991AY151061AY221061GF104991021021008001041001MA1999999102151MD1999999+0091MW1021REMSYN100AAXX  25004 83398 21594 40000 10220 20206 30215 40221 70252 82240 333 10272 29089 55080 58009 60261;
0201833980999992005072512004-15667-038950FM-12+000599999V0209999C000010450019N0040001N1+02281+02091102211ADDAA124004191AY151061AY221061GF105991031021004501041001KA1240N+01851MA1999999102151MD1999999-0071MW1011REMSYN088AAXX  25124 83398 21496 50000 10228 20209 30215 40221 70152 83240 333 20185 59007 60044;
0182833980999992005072518004-15667-038950FM-12+000599999V0200901N002110450019N0040001N1+02571+02411102021ADDAA106000891AY151061AY221061GF107991041021008001041001MA1999999101961MD1999999-0041MW1021REMSYN082AAXX  25184 83398 21596 70904 10257 20241 30196 40202 70252 84240 333 59004 69971;
0168833980999992005072600004-15667-038950FM-12+000599999V0209999C000012200019N0010001N1+02051+01881102221ADDGF103991021011008001041001KA1240M+02661MA1999999102161MD1999999+0011REMSYN088AAXX  26004 83398 32594 30000 10205 20188 30216 40222 82140 333 10266 29090 55056 58001;
0173833980999992005072612004-15667-038950FM-12+000599999V0201801N002110450019N0040001N1+02321+01941102241ADDAA124000891GF105991031021008001041001KA1240N+01781MA1999999102181MD1999999+0031REMSYN082AAXX  26124 83398 22596 51804 10232 20194 30218 40224 83240 333 20178 58003 69974;
0137833980999992005072618004-15667-038950FM-12+000599999V0200901N002110450019N0040001N1+02561+02171101921ADDGF105991031021008001041011MA1999999101861MD1999999-0101REMSYN070AAXX  26184 83398 32596 50904 10256 20217 30186 40192 83241 333 59010;
0168833980999992005072700004-15667-038950FM-12+000599999V0209999C000012200019N0010001N1+02171+02031102211ADDGF103991021011008001041001KA1240M+02661MA1999999102151MD1999999-0011REMSYN088AAXX  27004 83398 32594 30000 10217 20203 30215 40221 82140 333 10266 29086 55080 59001;
0156833980999992005072712004-15667-038950FM-12+000599999V0201801N002110075019N0040001N1+02161+01801102321ADDGF107991071051008001001001KA1240N+01881MA1999999102261MD1999999+0081REMSYN076AAXX  27124 83398 32596 71804 10216 20180 30226 40232 87500 333 20188 58008;
0137833980999992005072718004-15667-038950FM-12+000599999V0200901N003112200019N0040001N1+02641+02251102041ADDGF102991011011008001041001MA1999999101981MD1999999+0121REMSYN070AAXX  27184 83398 32596 20906 10264 20225 30198 40204 81140 333 58012;
0168833980999992005072800004-15667-038950FM-12+000599999V0209999C000012200019N0010001N1+02091+01961102201ADDGF103991021011008001041001KA1240M+02751MA1999999102141MD1999999-0011REMSYN088AAXX  28004 83398 32594 30000 10209 20196 30214 40220 82140 333 10275 29087 55064 59001;
0201833980999992005072812004-15667-038950FM-12+000599999V0201801N002110075019N0040001N1+02141+02001102331ADDAA124003091AY151061AY221061GF108991051051008001041001KA1240N+01981MA1999999102271MD1999999+0011MW1021REMSYN088AAXX  28124 83398 21596 81804 10214 20200 30227 40233 70252 85540 333 20198 58001 60034;
0137833980999992005072818004-15667-038950FM-12+000599999V0200901N003110450019N0040001N1+02581+02311102081ADDGF106991041051008001021001MA1999999102021MD1999999+0041REMSYN070AAXX  28184 83398 32596 60906 10258 20231 30202 40208 84520 333 58004;
0168833980999992005072900004-15667-038950FM-12+000599999V0201801N002110450019N0010001N1+02161+02021102251ADDGF106991041051008001021001KA1240M+02701MA1999999102191MD1999999+0051REMSYN088AAXX  29004 83398 32594 61804 10216 20202 30219 40225 84520 333 10270 29090 55058 58005;
0182833980999992005072918004-15667-038950FM-12+000599999V0200501N002110075019N0040001N1+02381+02151102101ADDAA106000591AY151061AY221061GF108991051051008001021001MA1999999102041MD1999999+0021MW1021REMSYN082AAXX  29184 83398 21596 80504 10238 20215 30204 40210 70252 85520 333 58002 69941;
0213833980999992005073000004-15667-038950FM-12+000599999V0209999C000010075019N0010001N1+02001+01871102261ADDAA106016091AY161061AY221061GF108991051051008001021001KA1240M+02631MA1999999102201MD1999999+0011MW1021REMSYN100AAXX  30004 83398 21594 80000 10200 20187 30220 40226 70262 85520 333 10263 29090 55023 58001 60161;
0188833980999992005073012004-15670-038950FM-12+000599999V0201401N002110075019N0040001N1+02221+01901102291ADDAA124019191AY161061AY221061GF107991051051008001021001MA1999999102231MD1999999+0001MW1021REMSYN088AAXX  30124 83398 21596 71404 10222 20190 30223 40229 70262 85520 333 20192 58000 60194;
0137833980999992005073018004-15670-038950FM-12+000599999V0200901N003110450019N0040001N1+02561+02171102041ADDGF106991041051008001021001MA1999999101981MD1999999-0061REMSYN070AAXX  30184 83398 32596 60906 10256 20217 30198 40204 84520 333 59006;
0155833980999992005073100004-15670-038950FM-12+000599999V0209999C000012200019N0010001N1+02071+01901102271ADDGF104991031021008001041001MA1999999102211MD1999999+0011REMSYN088AAXX  31004 83398 32594 40000 10207 20190 30221 40227 83240 333 10270 29082 55066 58001;
0143833980999992005073112004-15670-038950FM-12+000599999V0201801N002112200019N0010001N1+02261+01981102281ADDGF104991031021008001041001MA1999999102221MD1999999-0011REMSYN076AAXX  31124 83398 32594 41804 10226 20198 30222 40228 83240 333 20177 59001;
0137833980999992005073118004-15667-038950FM-12+000599999V0201801N002612200019N0010001N1+02561+02271102021ADDGF104991031011008001041001MA1999999101961MD1999999-0021REMSYN070AAXX  31184 83398 32594 41805 10256 20227 30196 40202 83140 333 59002;
0168833980999992005080100004-15667-038950FM-12+000599999V0201801N004110075019N0010001N1+02201+02031102141ADDGF107991051051008001021001KA1240M+02691MA1999999102081MD1999999-0131REMSYN088AAXX  01004 83398 32594 71808 10220 20203 30208 40214 85520 333 10269 29086 55078 59013;
0201833980999992005080112004-15667-038950FM-12+000599999V0200901N002110450019N0040001N1+02341+02071102331ADDAA124007191AY161061AY221061GF108991041051008001021001KA1240N+01901MA1999999102271MD1999999+0051MW1021REMSYN088AAXX  01124 83398 21596 80904 10234 20207 30227 40233 70262 84520 333 20190 58005 60074;
0137833980999992005080118004-15667-038950FM-12+000599999V0201401N002110450019N0040001N1+02601+02291102101ADDGF106991041051008001021001MA1999999102041MD1999999+0081REMSYN070AAXX  01184 83398 32596 61404 10260 20229 30204 40210 84520 333 58008;
0168833980999992005080200004-15667-038950FM-12+000599999V0209999C000010075019N0010001N1+02121+01951102181ADDGF108991051051008001021001KA1240M+02641MA1999999102121MD1999999+0041REMSYN088AAXX  02004 83398 32594 80000 10212 20195 30212 40218 85520 333 10264 29087 55030 58004;
0201833980999992005080212004-15667-038950FM-12+000599999V0201801N002110450019N0040001N1+02181+02011102231ADDAA124005191AY161061AY221061GF106991031071008001021001KA1240N+01861MA1999999102171MD1999999-0101MW1621REMSYN088AAXX  02124 83398 21596 61804 10218 20201 30217 40223 76262 83720 333 20186 59010 60054;
0137833980999992005080218004-15667-038950FM-12+000599999V0201401N003110450019N0040001N1+02541+02211102061ADDGF106991041051008001021001MA1999999102001MD1999999-0041REMSYN070AAXX  02184 83398 32596 61406 10254 20221 30200 40206 84520 333 59004;
0168833980999992005080300004-15667-038950FM-12+000599999V0209999C000010450019N0010001N1+02161+02011102181ADDGF106991041051008001041001KA1240M+02691MA1999999102121MD1999999+0001REMSYN088AAXX  03004 83398 32594 60000 10216 20201 30212 40218 84540 333 10269 29089 55068 58000;
0201833980999992005080312004-15667-038950FM-12+000599999V0202301N002110450019N0040001N1+02101+01951102211ADDAA124002091AY161061AY221061GF106991041051008001021001KA1240N+01801MA1999999102151MD1999999-0041MW1021REMSYN088AAXX  03124 83398 21596 62304 10210 20195 30215 40221 70262 84520 333 20180 59004 60024;
0137833980999992005080318004-15667-038950FM-12+000599999V0201401N004110450019N0040001N1+02601+02291102011ADDGF106991041051008001021001MA1999999101951MD1999999-0051REMSYN070AAXX  03184 83398 32596 61408 10260 20229 30195 40201 84520 333 59005;
0201833980999992005080412004-15667-038950FM-12+000599999V0201401N003110075019N0040001N1+02381+02131102401ADDAA124004191AY161061AY221061GF107991051051008001021001KA1240N+01881MA1999999102341MD1999999+0191MW1021REMSYN088AAXX  04124 83398 21596 71406 10238 20213 30234 40240 70262 85520 333 20188 58019 60044;
0182833980999992005080418004-15667-038950FM-12+000599999V0209999C000010450019N0040001N1+02441+02091102191ADDAA106000391AY151061AY221061GF108991041051008001021001MA1999999102131MD1999999+0181MW1021REMSYN082AAXX  04184 83398 21596 80000 10244 20209 30213 40219 70252 84520 333 58018 69931;
0168833980999992005080500004-15667-038950FM-12+000599999V0201801N001012200019N0010001N1+01961+01811102271ADDGF103991021021008001041001KA1240M+02591MA1999999102211MD1999999+0101REMSYN088AAXX  05004 83398 32594 31802 10196 20181 30221 40227 82240 333 10259 29087 55035 58010;
0201833980999992005080512004-15667-038950FM-12+000599999V0201401N003110075019N0040001N1+02141+01991102391ADDAA124003091AY161061AY221061GF108991051071008001021999KA1240N+01781MA1999999102331MD1999999-0011MW1631REMSYN088AAXX  05124 83398 21596 81406 10214 20199 30233 40239 76362 8572/ 333 20178 59001 60034;
0182833980999992005080518004-15667-038950FM-12+000599999V0201401N001010450019N0040001N1+02221+02051102231ADDAA106001091AY161061AY221061GF108991041071008001021999MA1999999102171MD1999999+0041MW1521REMSYN082AAXX  05184 83398 21596 81402 10222 20205 30217 40223 75262 8472/ 333 58004 60011;
0213833980999992005080600004-15667-038950FM-12+000599999V0200901N004110075019N0010001N1+02361+01991102231ADDAA106002091AY151061AY221061GF108991051051008001021001KA1240M+02621MA1999999102171MD1999999-0041MW1021REMSYN100AAXX  06004 83398 21594 80908 10236 20199 30217 40223 70252 85520 333 10262 29085 55041 59004 60021;
0201833980999992005080612004-15667-038950FM-12+000599999V0201801N001010075019N0040001N1+02461+02031102331ADDAA124004191AY161061AY221061GF107991051051008001021001KA1240N+02081MA1999999102271MD1999999-0061MW1021REMSYN088AAXX  06124 83398 21596 71802 10246 20203 30227 40233 70262 85520 333 20208 59006 60044;
0137833980999992005080618004-15667-038950FM-12+000599999V0200901N002110450019N0040001N1+02341+01811102091ADDGF106991041051008001021001MA1999999102031MD1999999-0141REMSYN070AAXX  06184 83398 32596 60904 10234 20181 30203 40209 84520 333 59014;
0155833980999992005080700004-15670-038950FM-12+000599999V0201801N001012200019N0010001N1+02141+01991102221ADDGF104991031051008001041001MA1999999102161MD1999999-0011REMSYN088AAXX  07004 83398 32594 41802 10214 20199 30216 40222 83540 333 10270 29083 55047 59001;
0143833980999992005080712004-15670-038950FM-12+000599999V0201801N002112200019N0040001N1+02211+02001102231ADDGF104991021021008001041001MA1999999102171MD1999999-0101REMSYN076AAXX  07124 83398 32596 41804 10221 20200 30217 40223 82240 333 20173 59010;
0137833980999992005080718004-15670-038950FM-12+000599999V0200901N002610450019N0040001N1+02481+02111101981ADDGF105991031021008001041001MA1999999101921MD1999999+0081REMSYN070AAXX  07184 83398 32596 50905 10248 20211 30192 40198 83240 333 58008;
0213833980999992005080800004-15667-038950FM-12+000599999V0209999C000010075019N0010001N1+02151+02051102171ADDAA106999999AY151061AY221061GF108991051051008001041001KA1240M+02691MA1999999102111MD1999999-0011MW1021REMSYN100AAXX  08004 83398 21594 80000 10215 20205 30211 40217 70252 85540 333 10269 29090 55071 59001 69921;
0201833980999992005080812004-15667-038950FM-12+000599999V0209999C000010450019N0040001N1+02311+02101102111ADDAA124000391AY151061AY221061GF106991041051008001041001KA1240N+01821MA1999999102051MD1999999-0121MW1011REMSYN088AAXX  08124 83398 21596 60000 10231 20210 30205 40211 70152 84540 333 20182 59012 69934;
0182833980999992005080818004-15667-038950FM-12+000599999V0200901N002112200019N0040001N1+02511+02161101901ADDAA106001091AY151061AY221061GF103991021011008001041001MA1999999101841MD1999999-0081MW1011REMSYN082AAXX  08184 83398 21596 30904 10251 20216 30184 40190 70152 82140 333 59008 60011;
0213833980999992005080900004-15667-038950FM-12+000599999V0209999C000010075019N0010001N1+02101+02021102081ADDAA106001091AY151061AY221061GF108991051051008001021001KA1240M+02671MA1999999102021MD1999999+0091MW1021REMSYN100AAXX  09004 83398 21594 80000 10210 20202 30202 40208 70252 85520 333 10267 29090 55063 58009 60011;
0201833980999992005080912004-15667-038950FM-12+000599999V0202701N001510075019N0040001N1+02071+02001102151ADDAA124013091AY161061AY221061GF108991051071008001021001KA1240N+01981MA1999999102091MD1999999+0041MW1021REMSYN088AAXX  09124 83398 21596 82703 10207 20200 30209 40215 70262 85720 333 20198 58004 60134;
0182833980999992005080918004-15667-038950FM-12+000599999V0201801N002610075019N0040001N1+02341+02171101871ADDAA106007991AY151061AY221061GF107991051021008001051001MA1999999101811MD1999999+0241MW1021REMSYN082AAXX  09184 83398 21596 71805 10234 20217 30181 40187 70252 85250 333 58024 60081;
0213833980999992005081000004-15667-038950FM-12+000599999V0202301N000510450019N0010001N1+02011+01981102021ADDAA106004191AY151061AY221061GF105991031051008001041001KA1240M+02401MA1999999101961MD1999999-0061MW1021REMSYN100AAXX  10004 83398 21594 52301 10201 20198 30196 40202 70252 83540 333 10240 29096 55003 59006 60041;
0201833980999992005081012004-15667-038950FM-12+000599999V0202301N001510075019N0040001N1+02151+02081102101ADDAA124020191AY151061AY221061GF108991051051008001021001KA1240N+01941MA1999999102041MD1999999-0051MW1021REMSYN088AAXX  10124 83398 21596 82303 10215 20208 30204 40210 70252 85520 333 20194 59005 60204;
0182833980999992005081018004-15667-038950FM-12+000599999V0203601N001010075019N0040001N1+02471+02261102301ADDAA106003091AY151061AY221061GF107991051051008001021001MA1999999102241MD1999999+0431MW1011REMSYN082AAXX  10184 83398 21596 73602 10247 20226 30224 40230 70152 85520 333 58043 60031;
0168833980999992005081100004-15667-038950FM-12+000599999V0209999C000010075019N0010001N1+02161+02141102061ADDGF108991051051008001021001KA1240M+02551MA1999999102001MD1999999+0041REMSYN088AAXX  11004 83398 32594 80000 10216 20214 30200 40206 85520 333 10255 29095 55005 58004;
0201833980999992005081112004-15667-038950FM-12+000599999V0209999C000010075019N0040001N1+02281+02181102151ADDAA124018091AY161061AY221061GF107991051051008001021001KA1240N+02041MA1999999102091MD1999999+0131MW1021REMSYN088AAXX  11124 83398 21596 70000 10228 20218 30209 40215 70262 85520 333 20204 58013 60184;
0182833980999992005081118004-15667-038950FM-12+000599999V0200501N006210075019N0040001N1+02541+02211101901ADDAA106999999AY151061AY221061GF107991051051008001041001MA1999999101841MD1999999-0401MW1011REMSYN082AAXX  11184 83398 21596 70512 10254 20221 30184 40190 70152 85540 333 59040 69911;
0168833980999992005081200004-15667-038950FM-12+000599999V0200501N002110075019N0010001N1+02341+02091102111ADDGF108991051051008001021001KA1240M+02631MA1999999102051MD1999999+0051REMSYN088AAXX  12004 83398 32594 80504 10234 20209 30205 40211 85520 333 10263 29087 55046 58005;
0220833980999992005081212004-15667-038950FM-12+000599999V0209999C000010450019N0040001N1+02391+02061102001ADDAA124000091AY151061AY221061GF107991041051008001041001KA1240N+02011MA1999999101941MD1999999-0151MW1011REMSYN088AAXX  12124 83398 21596 70000 10239 20206 30194 40200 70152 84540 333 20201 59015 69914;EQDQ01  00002PRCP24
0137833980999992005081218004-15667-038950FM-12+000599999V0200501N002610450019N0040001N1+02521+02131101771ADDGF105991031021008001041001MA1999999101711MD1999999-0131REMSYN070AAXX  12184 83398 32596 50505 10252 20213 30171 40177 83240 333 59013;
0168833980999992005081300004-15667-038950FM-12+000599999V0200501N002610075019N0010001N1+02401+02051101941ADDGF108991051051008001021001KA1240M+02701MA1999999101881MD1999999-0171REMSYN088AAXX  13004 83398 32594 80505 10240 20205 30188 40194 85520 333 10270 29081 55073 59017;
0143833980999992005081312004-15670-038950FM-12+000599999V0209999C000010450019N0040001N1+02381+02211101941ADDGF106991041021008001041001MA1999999101881MD1999999-0061REMSYN076AAXX  13124 83398 32596 60000 10238 20221 30188 40194 84240 333 20186 59006;
0182833980999992005081318004-15670-038950FM-12+000599999V0200501N004610450019N0040001N1+02751+02181101691ADDAA106001091AY151061AY221061GF106991031021008001041011MA1999999101631MD1999999-0081MW1021REMSYN082AAXX  13184 83398 21596 60509 10275 20218 30163 40169 70252 83241 333 59008 60011;
0155833980999992005081400004-15670-038950FM-12+000599999V0209999C000010450019N0010001N1+02361+02111101861ADDGF105991031021008001041001MA1999999101801MD1999999-0081REMSYN088AAXX  14004 83398 32594 50000 10236 20211 30180 40186 83240 333 10268 29085 55063 59008;
0188833980999992005081412004-15670-038950FM-12+000599999V0201401N002110450019N0040001N1+02381+02191102011ADDAA124001091AY151061AY221061GF106991041021008001041001MA1999999101951MD1999999-0071MW1011REMSYN088AAXX  14124 83398 21596 61404 10238 20219 30195 40201 70152 84240 333 20198 59007 60014;
0137833980999992005081418004-15670-038950FM-12+000599999V0200901N003112200019N0040001N1+02591+01911101811ADDGF103991021011008001041001MA1999999101751MD1999999+0121REMSYN070AAXX  14184 83398 32596 30906 10259 20191 30175 40181 82140 333 58012;
0155833980999992005081500004-15670-038950FM-12+000599999V0209999C000012200019N0010001N1+02121+02001102081ADDGF102991011011008001041001MA1999999102021MD1999999+0221REMSYN088AAXX  15004 83398 32594 20000 10212 20200 30202 40208 81140 333 10270 29085 55073 58022;
0143833980999992005081512004-15670-038950FM-12+000599999V0209999C000010075019N0040001N1+02501+02151102251ADDGF107991051051008001041001MA1999999102191MD1999999+0391REMSYN076AAXX  15124 83398 32596 70000 10250 20215 30219 40225 85540 333 20182 58039;
0182833980999992005081518004-15670-038950FM-12+000599999V0200501N002110075019N0040001N1+02441+02131102011ADDAA106000591AY151061AY221061GF107991051051008001041001MA1999999101951MD1999999+0201MW1021REMSYN082AAXX  15184 83398 21596 70504 10244 20213 30195 40201 70252 85540 333 58020 69951;
0213833980999992005081600004-15667-038950FM-12+000599999V0209999C000010075019N0010001N1+02121+02041102221ADDAA106007991AY161061AY221061GF108991051051008001021999KA1240M+02611MA1999999102161MD1999999+0141MW1621REMSYN100AAXX  16004 83398 21594 80000 10212 20204 30216 40222 76262 8552/ 333 10261 29089 55025 58014 60081;
0201833980999992005081612004-15667-038950FM-12+000599999V0200501N002112200019N0040001N1+02591+02091102261ADDAA124017091AY161061AY221061GF104991021011008001041001KA1240N+01981MA1999999102201MD1999999+0011MW1011REMSYN088AAXX  16124 83398 21596 40504 10259 20209 30220 40226 70162 82140 333 20198 58001 60174;
0182833980999992005081618004-15667-038950FM-12+000599999V0209999C000010075019N0040001N1+02311+02081101961ADDAA106003091AY151061AY221061GF108991051051008001021001MA1999999101901MD1999999-0051MW1021REMSYN082AAXX  16184 83398 21596 80000 10231 20208 30190 40196 70252 85520 333 59005 60031;
0213833980999992005081700004-15667-038950FM-12+000599999V0209999C000010075019N0010001N1+02171+02071102171ADDAA106999999AY151061AY221061GF108991051051008001021001KA1240M+02661MA1999999102111MD1999999+0051MW1021REMSYN100AAXX  17004 83398 21594 80000 10217 20207 30211 40217 70252 85520 333 10266 29087 55044 58005 69921;
0201833980999992005081712004-15667-038950FM-12+000599999V0200901N003610450019N0040001N1+02541+02211102191ADDAA124005191AY151061AY221061GF106991041051008001041001KA1240N+02011MA1999999102131MD1999999-0071MW1021REMSYN088AAXX  17124 83398 21596 60907 10254 20221 30213 40219 70252 84540 333 20201 59007 60054;
0182833980999992005081718004-15667-038950FM-12+000599999V0200501N003610450019N0040001N1+02431+02201101901ADDAA106999999AY151061AY221061GF107991041051008001041001MA1999999101841MD1999999-0061MW1021REMSYN082AAXX  17184 83398 21596 70507 10243 20220 30184 40190 70252 84540 333 59006 69911;
0213833980999992005081800004-15667-038950FM-12+000599999V0200501N006210075019N0010001N1+02371+01941102101ADDAA106999999AY151061AY221061GF108991051051008001021001KA1240M+02721MA1999999102041MD1999999-0071MW1021REMSYN100AAXX  18004 83398 21594 80512 10237 20194 30204 40210 70252 85520 333 10272 29081 55078 59007 69921;
0201833980999992005081812004-15667-038950FM-12+000599999V0200501N002610075019N0040001N1+02491+02041102141ADDAA124000591AY151061AY221061GF108991051051008001041001KA1240N+02011MA1999999102081MD1999999-0051MW1021REMSYN088AAXX  18124 83398 21596 80505 10249 20204 30208 40214 70252 85540 333 20201 59005 69964;
0137833980999992005081818004-15667-038950FM-12+000599999V0200901N002610075019N0040001N1+02481+02131101921ADDGF106991051051008001041001MA1999999101861MD1999999+0021REMSYN070AAXX  18184 83398 32596 60905 10248 20213 30186 40192 85540 333 58002;
0213833980999992005081900004-15667-038950FM-12+000599999V0209999C000010075019N0010001N1+02151+02081102131ADDAA106000591AY151061AY221061GF108991051051008001021001KA1240M+02691MA1999999102071MD1999999+0031MW1021REMSYN100AAXX  19004 83398 21594 80000 10215 20208 30207 40213 70252 85520 333 10269 29087 55050 58003 69961;
0201833980999992005081912004-15667-038950FM-12+000599999V0209999C000010450019N0040001N1+02481+02231102211ADDAA124011991AY161061AY221061GF106991041051008001041001KA1240N+02031MA1999999102151MD1999999+0071MW1021REMSYN088AAXX  19124 83398 21596 60000 10248 20223 30215 40221 70262 84540 333 20203 58007 60124;
0137833980999992005081918004-15667-038950FM-12+000599999V0200501N004110450019N0040001N1+02591+01881102071ADDGF105991031021008001041001MA1999999102011MD1999999+0151REMSYN070AAXX  19184 83398 32596 50508 10259 20188 30201 40207 83240 333 58015;
0168833980999992005082000004-15667-038950FM-12+000599999V0200901N001010450019N0010001N1+02371+01981102191ADDGF105991031051008001041001KA1240M+02691MA1999999102131MD1999999+0061REMSYN088AAXX  20004 83398 32594 50902 10237 20198 30213 40219 83540 333 10269 29077 55070 58006;
0201833980999992005082012004-15667-038950FM-12+000599999V0202301N001510075019N0040001N1+02231+02081102261ADDAA124005191AY161061AY221061GF108991051051008001041001KA1240N+01921MA1999999102201MD1999999+0051MW1021REMSYN088AAXX  20124 83398 21596 82303 10223 20208 30220 40226 70262 85540 333 20192 58005 60054;
0182833980999992005082018004-15667-038950FM-12+000599999V0200901N002110075019N0040001N1+02491+02021101971ADDAA106000391AY151061AY221061GF108991051051008001041001MA1999999101911MD1999999+0101MW1021REMSYN082AAXX  20184 83398 21596 80904 10249 20202 30191 40197 70252 85540 333 58010 69931;
0155833980999992005082100004-15670-038950FM-12+000599999V0201801N002110075019N0010001N1+02111+01991102271ADDGF108991051051008001041001MA1999999102211MD1999999+0081REMSYN088AAXX  21004 83398 32594 81804 10211 20199 30221 40227 85540 333 10264 29088 55042 58008;
0188833980999992005082112004-15670-038950FM-12+000599999V0209999C000010450019N0040001N1+02201+02101102121ADDAA124004191AY151061AY221061GF105991041051008001041001MA1999999102061MD1999999-0141MW1021REMSYN088AAXX  21124 83398 21596 50000 10220 20210 30206 40212 70252 84540 333 20194 59014 60044;
0137833980999992005082118004-15670-038950FM-12+000599999V0200501N004110450019N0040001N1+02581+02041101861ADDGF106991041051008001041001MA1999999101801MD1999999-0111REMSYN070AAXX  21184 83398 32596 60508 10258 20204 30180 40186 84540 333 59011;
0213833980999992005082200004-15667-038950FM-12+000599999V0201401N001510075019N0010001N1+02201+02081102081ADDAA106005191AY151061AY221061GF108991051051008001021001KA1240M+02691MA1999999102021MD1999999-0191MW1021REMSYN100AAXX  22004 83398 21594 81403 10220 20208 30202 40208 70252 85520 333 10269 29088 55063 59019 60051;
0201833980999992005082212004-15667-038950FM-12+000599999V0200901N002610450019N0040001N1+02541+01931102171ADDAA124009991AY151061AY221061GF105991031021008001041001KA1240N+01991MA1999999102111MD1999999+0051MW1021REMSYN088AAXX  22124 83398 21596 50905 10254 20193 30211 40217 70252 83240 333 20199 58005 60104;
0137833980999992005082218004-15667-038950FM-12+000599999V0200501N003110450019N0040001N1+02591+01881101941ADDGF105991031021008001041001MA1999999101881MD1999999+0081REMSYN070AAXX  22184 83398 32596 50506 10259 20188 30188 40194 83240 333 58008;
0213833980999992005082300004-15667-038950FM-12+000599999V0201401N001510075019N0010001N1+02271+02101102111ADDAA106001091AY151061AY221061GF107991051051008001041001KA1240M+02721MA1999999102051MD1999999+0031MW1021REMSYN100AAXX  23004 83398 21594 71403 10227 20210 30205 40211 70252 85540 333 10272 29078 55088 58003 69991;
0201833980999992005082312004-15667-038950FM-12+000599999V0201801N002610075019N0040001N1+02271+02131102171ADDAA124002091AY151061AY221061GF108991051051008001021001KA1240N+01991MA1999999102111MD1999999+0001MW1021REMSYN088AAXX  23124 83398 21596 81805 10227 20213 30211 40217 70252 85520 333 20199 58000 60024;
0182833980999992005082318004-15667-038950FM-12+000599999V0200501N002110075019N0040001N1+02311+02211101921ADDAA106006191AY161061AY221061GF108991051051008001021001MA1999999101861MD1999999-0021MW1021REMSYN082AAXX  23184 83398 21596 80504 10231 20221 30186 40192 70262 85520 333 59002 60061;
0168833980999992005082400004-15667-038950FM-12+000599999V0200501N002112200019N0010001N1+02341+01951102091ADDGF103991021021008001041001KA1240M+02491MA1999999102031MD1999999-0021REMSYN088AAXX  24004 83398 32594 30504 10234 20195 30203 40209 82240 333 10249 29086 55011 59002;
0201833980999992005082412004-15667-038950FM-12+000599999V0209999C000010075019N0040001N1+02341+02111102131ADDAA124006191AY151061AY221061GF107991051051008001041001KA1240N+01881MA1999999102071MD1999999-0041MW1021REMSYN088AAXX  24124 83398 21596 70000 10234 20211 30207 40213 70252 85540 333 20188 59004 60064;
0137833980999992005082418004-15667-038950FM-12+000599999V0200901N003112200019N0040001N1+02611+02131101931ADDGF103991021011008001041001MA1999999101871MD1999999+0011REMSYN070AAXX  24184 83398 32596 30906 10261 20213 30187 40193 82140 333 58001;
0168833980999992005082500004-15667-038950FM-12+000599999V0209999C000012200019N0010001N1+02301+02091102041ADDGF103991021011008001041001KA1240M+02701MA1999999101981MD1999999-0051REMSYN088AAXX  25004 83398 32594 30000 10230 20209 30198 40204 82140 333 10270 29084 55074 59005;
0156833980999992005082512004-15667-038950FM-12+000599999V0209999C000012200019N0040001N1+02371+02161101961ADDGF104991021021008001041001KA1240N+01751MA1999999101901MD1999999-0171REMSYN076AAXX  25124 83398 32596 40000 10237 20216 30190 40196 82240 333 20175 59017;
0137833980999992005082518004-15667-038950FM-12+000599999V0203601N004112200019N0040001N1+02621+01911101621ADDGF102991011011008001041001MA1999999101561MD1999999-0311REMSYN070AAXX  25184 83398 32596 23608 10262 20191 30156 40162 81140 333 59031;
0168833980999992005082600004-15667-038950FM-12+000599999V0209999C000012200019N0010001N1+01981+01901101861ADDGF102991011011008001041001KA1240M+02691MA1999999101801MD1999999-0181REMSYN088AAXX  26004 83398 32594 20000 10198 20190 30180 40186 81140 333 10269 29086 55087 59018;
0201833980999992005082612004-15667-038950FM-12+000599999V0202701N001010075019N0040001N1+02121+02041102051ADDAA124002091AY151061AY221061GF107991051051008001021001KA1240N+01721MA1999999101991MD1999999+0091MW1021REMSYN088AAXX  26124 83398 21596 72702 10212 20204 30199 40205 70252 85520 333 20172 58009 60024;
0137833980999992005082618004-15667-038950FM-12+000599999V0201401N001010075019N0040001N1+02641+02181101881ADDGF107991051051008001021041MA1999999101821MD1999999+0261REMSYN070AAXX  26184 83398 32596 71402 10264 20218 30182 40188 85524 333 58026;
0168833980999992005082700004-15667-038950FM-12+000599999V0209999C000012200019N0010001N1+02041+01971102001ADDGF102991011011008001041001KA1240M+02741MA1999999101941MD1999999+0141REMSYN088AAXX  27004 83398 32594 20000 10204 20197 30194 40200 81140 333 10274 29091 55044 58014;
0156833980999992005082712004-15667-038950FM-12+000599999V0209999C000012200019N0040001N1+02411+02181102081ADDGF103991021021008001041001KA1240N+01751MA1999999102021MD1999999+0031REMSYN076AAXX  27124 83398 32596 30000 10241 20218 30202 40208 82240 333 20175 58003;
0137833980999992005082718004-15667-038950FM-12+000599999V0203601N003110075019N0040001N1+02531+02141101791ADDGF108991051051008001041001MA1999999101731MD1999999-0091REMSYN070AAXX  27184 83398 32596 83606 10253 20214 30173 40179 85540 333 59009;
0168833980999992005082800004-15667-038950FM-12+000599999V0209999C000012200019N0010001N1+02201+01881102081ADDGF104991021021008001041001KA1240M+02721MA1999999102021MD1999999+0141REMSYN088AAXX  28004 83398 32594 40000 10220 20188 30202 40208 82240 333 10272 29088 55075 58014;
0201833980999992005082812004-15667-038950FM-12+000599999V0200901N004110075019N0040001N1+02471+02041102031ADDAA124011991AY161061AY221061GF108991051051008001021001KA1240N+02041MA1999999101971MD1999999-0051MW1021REMSYN088AAXX  28124 83398 21596 80908 10247 20204 30197 40203 70262 85520 333 20204 59005 60124;
0137833980999992005082818004-15667-038950FM-12+000599999V0200501N002112200019N0040001N1+02591+02001101671ADDGF104991021021008001041001MA1999999101611MD1999999-0121REMSYN070AAXX  28184 83398 32596 40504 10259 20200 30161 40167 82240 333 59012;
0168833980999992005082900004-15667-038950FM-12+000599999V0200501N001012200019N0010001N1+02311+02021101781ADDGF103991021021008001041001KA1240M+02691MA1999999101721MD1999999-0301REMSYN088AAXX  29004 83398 32594 30502 10231 20202 30172 40178 82240 333 10269 29079 55055 59030;
0156833980999992005082912004-15667-038950FM-12+000599999V0209999C000012200019N0040001N1+02391+02221101921ADDGF104991021021008001041001KA1240N+01731MA1999999101861MD1999999-0111REMSYN076AAXX  29124 83398 32596 40000 10239 20222 30186 40192 82240 333 20173 59011;
0137833980999992005082918004-15667-038950FM-12+000599999V0200501N004610450019N0040001N1+02591+02301101551ADDGF105991031051008001041001MA1999999101501MD1999999-0111REMSYN070AAXX  29184 83398 32596 50509 10259 20230 30150 40155 83540 333 59011;
0168833980999992005083000004-15667-038950FM-12+000599999V0200501N002110450019N0010001N1+02431+02241101761ADDGF105991031051008001041001KA1240M+02741MA1999999101701MD1999999-0021REMSYN088AAXX  30004 83398 32594 50504 10243 20224 30170 40176 83540 333 10274 29088 55082 59002;
0201833980999992005083012004-15667-038950FM-12+000599999V0203601N004610075019N0040001N1+02401+02281101901ADDAA124004191AY161061AY221061GF108991051051008001021001KA1240N+02251MA1999999101841MD1999999-0021MW1021REMSYN088AAXX  30124 83398 21596 83609 10240 20228 30184 40190 70262 85520 333 20225 59002 60044;
0137833980999992005083018004-15667-038950FM-12+000599999V0200501N007712200019N0040001N1+02631+02241101631ADDGF104991031021008001041001MA1999999101571MD1999999+0071REMSYN070AAXX  30184 83398 32596 40515 10263 20224 30157 40163 83240 333 58007;
0168833980999992005083100004-15667-038950FM-12+000599999V0200501N002110075019N0010001N1+02481+02211101841ADDGF108991051051008001041001KA1240M+02731MA1999999101781MD1999999+0081REMSYN088AAXX  31004 83398 32594 80504 10248 20221 30178 40184 85540 333 10273 29086 55031 58008;
0156833980999992005083112004-15667-038950FM-12+000599999V0200501N002112200019N0040001N1+02741+02301101881ADDGF104991021011008001041001KA1240N+02321MA1999999101821MD1999999-0021REMSYN076AAXX  31124 83398 32596 40504 10274 20230 30182 40188 82140 333 20232 59002;
0182833980999992005083118004-15667-038950FM-12+000599999V0200501N004110450019N0040001N1+02591+02201101681ADDAA106002091AY151061AY221061GF105991031051008001041001MA1999999101621MD1999999+0051MW1021REMSYN082AAXX  31184 83398 21596 50508 10259 20220 30162 40168 70252 83540 333 58005 60021;
0170833980999992005090100004-15667-038933FM-12+000599999V0209999C000019999999N0010001N1+02301+02231101771ADDGA1031+012001021GF105991999999008001999999KA1240M+02781MA1999999101711REMSYN088AAXX  01004 83398 32594 50000 10230 20223 30171 40177 333 83240 10278 29087 55051 59007;
0201833980999992005090112004-15667-038933FM-12+000599999V0203601N004110450019N0040001N1+02561+02211101921ADDAA124007991AY161061AY221061GF106991041051008001041001KA1240N+02101MA1999999101861MD1999999+0041MW1021REMSYN088AAXX  01124 83398 21596 63608 10256 20221 30186 40192 70262 84540 333 20210 58004 60084;
0137833980999992005090118004-15667-038933FM-12+000599999V0200501N004612200019N0040001N1+02581+02191101641ADDGF102991011011008001041001MA1999999101581MD1999999-0041REMSYN070AAXX  01184 83398 32596 20509 10258 20219 30158 40164 81140 333 59004;
0168833980999992005090200004-15667-038933FM-12+000599999V0200501N001012200019N0010001N1+02421+02131101771ADDGF104991021021008001041001KA1240M+02681MA1999999101711MD1999999+0001REMSYN088AAXX  02004 83398 32594 40502 10242 20213 30171 40177 82240 333 10268 29082 55085 58000;
0156833980999992005090212004-15667-038933FM-12+000599999V0203601N002110075019N0040001N1+02301+02111101911ADDGF107991051051008001021001KA1240N+01901MA1999999101851MD1999999-0011REMSYN076AAXX  02124 83398 32596 73604 10230 20211 30185 40191 85520 333 20190 59001;
0137833980999992005090218004-15667-038933FM-12+000599999V0200901N004612200019N0040001N1+02591+02221101651ADDGF103991021011008001041001MA1999999101591MD1999999+0011REMSYN070AAXX  02184 83398 32596 30909 10259 20222 30159 40165 82140 333 58001;
0168833980999992005090300004-15667-038933FM-12+000599999V0203601N002112200019N0010001N1+02421+02191101821ADDGF104991021021008001041001KA1240M+02691MA1999999101761MD1999999+0051REMSYN088AAXX  03004 83398 32594 43604 10242 20219 30176 40182 82240 333 10269 29086 55019 58005;
0201833980999992005090312004-15667-038933FM-12+000599999V0202301N001010075019N0040001N1+02241+02151101951ADDAA124006191AY161061AY221061GF108991051071008001021999KA1240N+02081MA1999999101891MD1999999+0041MW1601REMSYN088AAXX  03124 83398 21596 82302 10224 20215 30189 40195 76062 8572/ 333 20208 58004 60064;
0182833980999992005090318004-15667-038933FM-12+000599999V0201401N003110075019N0040001N1+02541+02231101741ADDAA106000591AY151061AY221061GF108991051051008001021999MA1999999101681MD1999999+0071MW1511REMSYN082AAXX  03184 83398 21596 81406 10254 20223 30168 40174 75152 8552/ 333 58007 69951;
0201833980999992005090412004-15667-038933FM-12+000599999V0200901N005110450019N0040001N1+02601+02081102041ADDAA124000891AY151061AY221061GF106991041051008001041001KA1240N+02031MA1999999101981MD1999999+0091MW1021REMSYN088AAXX  04124 83398 21596 60910 10260 20208 30198 40204 70252 84540 333 20203 58009 69984;
0137833980999992005090418004-15667-038933FM-12+000599999V0200501N003110450019N0040001N1+02621+02121101691ADDGF105991031021008001041001MA1999999101631MD1999999-0051REMSYN070AAXX  04184 83398 32596 50506 10262 20212 30163 40169 83240 333 59005;
0201833980999992005090512004-15667-038933FM-12+000599999V0209999C000010450019N0040001N1+02221+02191101891ADDAA124067191AY161061AY221061GF108991041071008001021999KA1240N+02001MA1999999101831MD1999999-0151MW1601REMSYN088AAXX  05124 83398 21596 80000 10222 20219 30183 40189 76062 8472/ 333 20200 59015 60674;
0182833980999992005090518004-15667-038933FM-12+000599999V0200501N004110075019N0040001N1+02641+02161101781ADDAA106999999AY151061AY221061GF107991051051008001021001MA1999999101721MD1999999+0091MW1021REMSYN082AAXX  05184 83398 21596 70508 10264 20216 30172 40178 70252 85520 333 58009 69911;
0168833980999992005090600004-15667-038933FM-12+000599999V0200501N003110450019N0010001N1+02441+02151101921ADDGF106991041051008001041001KA1240M+02721MA1999999101861MD1999999+0021REMSYN088AAXX  06004 83398 32594 60506 10244 20215 30186 40192 84540 333 10272 29085 55038 58002;
0201833980999992005090612004-15667-038933FM-12+000599999V0200501N002110450019N0040001N1+02441+02271101851ADDAA124000391AY151061AY221061GF106991041051008001021001KA1240N+02001MA1999999101791MD1999999-0041MW1021REMSYN088AAXX  06124 83398 21596 60504 10244 20227 30179 40185 70252 84520 333 20200 59004 69934;
0137833980999992005090618004-15667-038933FM-12+000599999V0200501N003110450019N0040001N1+02661+02181101561ADDGF106991041051008001021001MA1999999101511MD1999999-0211REMSYN070AAXX  06184 83398 32596 60506 10266 20218 30151 40156 84520 333 59021;
0168833980999992005090700004-15667-038933FM-12+000599999V0200501N002612200019N0010001N1+02421+02151101801ADDGF104991021021008001041001KA1240M+02761MA1999999101741MD1999999-0121REMSYN088AAXX  07004 83398 32594 40505 10242 20215 30174 40180 82240 333 10276 29084 55077 59012;
0156833980999992005090712004-15667-038933FM-12+000599999V0209999C000010450019N0040001N1+02581+02371101991ADDGF106991041051008001021001KA1240N+01981MA1999999101931MD1999999+0141REMSYN076AAXX  07124 83398 32596 60000 10258 20237 30193 40199 84520 333 20198 58014;
0137833980999992005090718004-15667-038933FM-12+000599999V0200501N004110450019N0040001N1+02701+02261101701ADDGF106991041051008001041001MA1999999101641MD1999999+0131REMSYN070AAXX  07184 83398 32596 60508 10270 20226 30164 40170 84540 333 58013;
0168833980999992005090800004-15667-038933FM-12+000599999V0200501N002110450019N0010001N1+02491+02281101941ADDGF105991031051008001041001KA1240M+02781MA1999999101881MD1999999+0141REMSYN088AAXX  08004 83398 32594 50504 10249 20228 30188 40194 83540 333 10278 29085 55080 58014;
0156833980999992005090812004-15667-038933FM-12+000599999V0200501N002110450019N0040001N1+02641+02181102131ADDGF106991041051008001021001KA1240N+02221MA1999999102071MD1999999+0141REMSYN076AAXX  08124 83398 32596 60504 10264 20218 30207 40213 84520 333 20222 58014;
0137833980999992005090818004-15667-038933FM-12+000599999V0200501N003110450019N0040001N1+02661+02111101971ADDGF106991041051008001041001MA1999999101911MD1999999+0271REMSYN070AAXX  08184 83398 32596 60506 10266 20211 30191 40197 84540 333 58027;
0168833980999992005090900004-15667-038933FM-12+000599999V0200501N002612200019N0010001N1+02431+02121102211ADDGF103991021021008001041001KA1240M+02761MA1999999102151MD1999999+0271REMSYN088AAXX  09004 83398 32594 30505 10243 20212 30215 40221 82240 333 10276 29079 55078 58027;
0156833980999992005090912004-15667-038933FM-12+000599999V0200901N003110450019N0040001N1+02331+02021102301ADDGF105991031051008001041001KA1240N+01971MA1999999102241MD1999999-0171REMSYN076AAXX  09124 83398 32596 50906 10233 20202 30224 40230 83540 333 20197 59017;
0137833980999992005090918004-15667-038933FM-12+000599999V0200501N003110450019N0040001N1+02641+02091102081ADDGF106991041051008001041001MA1999999102021MD1999999+0111REMSYN070AAXX  09184 83398 32596 60506 10264 20209 30202 40208 84540 333 58011;
0168833980999992005091000004-15667-038933FM-12+000599999V0209999C000010450019N0010001N1+02411+02161102251ADDGF106991041051008001041001KA1240M+02791MA1999999102191MD1999999+0041REMSYN088AAXX  10004 83398 32594 60000 10241 20216 30219 40225 84540 333 10279 29082 55077 58004;
0201833980999992005091012004-15667-038933FM-12+000599999V0201401N006210075019N0040001N1+02561+02081102351ADDAA124010991AY161061AY221061GF108991051051008001021999KA1240N+02101MA1999999102291MD1999999+0051MW1021REMSYN088AAXX  10124 83398 21596 81412 10256 20208 30229 40235 70262 8552/ 333 20210 58005 60114;
0182833980999992005091018004-15667-038933FM-12+000599999V0200901N002110075019N0040001N1+02601+02061102081ADDAA106999999AY151061AY221061GF106991051051008001021001MA1999999102021MD1999999+0001MW1021REMSYN082AAXX  10184 83398 21596 60904 10260 20206 30202 40208 70252 85520 333 58000 69911;
0201833980999992005091112004-15667-038933FM-12+000599999V0200901N003110075019N0040001N1+02421+02151102271ADDAA124000391AY151061AY221061GF108991051051008001021999KA1240N+02221MA1999999102211MD1999999-0081MW1021REMSYN088AAXX  11124 83398 21596 80906 10242 20215 30221 40227 70252 8552/ 333 20222 59008 69934;
0137833980999992005091118004-15667-038933FM-12+000599999V0200901N004110075019N0040001N1+02521+02111101931ADDGF108991051051008001021999MA1999999101871MD1999999-0151REMSYN070AAXX  11184 83398 32596 80908 10252 20211 30187 40193 8552/ 333 59015;
0173833980999992005091212004-15667-038933FM-12+000599999V0200901N004110450019N0040001N1+02521+02171102241ADDAA124002091GF106991041051008001041001KA1240N+02121MA1999999102181MD1999999-0031REMSYN082AAXX  12124 83398 22596 60908 10252 20217 30218 40224 84540 333 20212 59003 60024;
0137833980999992005091218004-15667-038950FM-12+000599999V0200501N004112200019N0040001N1+02621+02101101891ADDGF104991021021008001041001MA1999999101831MD1999999-0041REMSYN070AAXX  12184 83398 32596 40508 10262 20210 30183 40189 82240 333 59004;
0168833980999992005091300004-15667-038950FM-12+000599999V0200501N000510450019N0010001N1+02361+02031102041ADDGF105991031021008001041001KA1240M+02721MA1999999101981MD1999999-0061REMSYN088AAXX  13004 83398 32594 50501 10236 20203 30198 40204 83240 333 10272 29080 55062 59006;
0220833980999992005091312004-15667-038950FM-12+000599999V0200901N002110450019N0040001N1+02601+02121102051ADDAA124000091AY151061AY221061GF106991041051008001041001KA1240N+01941MA1999999101991MD1999999-0191MW1021REMSYN088AAXX  13124 83398 21596 60904 10260 20212 30199 40205 70252 84540 333 20194 59019 69914;EQDQ01  00002PRCP24
0137833980999992005091318004-15667-038950FM-12+000599999V0200501N002110450019N0040001N1+02661+02141101711ADDGF106991031021008001041001MA1999999101651MD1999999-0181REMSYN070AAXX  13184 83398 32596 60504 10266 20214 30165 40171 83240 333 59018;
0168833980999992005091400004-15667-038950FM-12+000599999V0209999C000010450019N0010001N1+02151+02031102001ADDGF105991031051008001041001KA1240M+02741MA1999999101941MD1999999-0041REMSYN088AAXX  14004 83398 32594 50000 10215 20203 30194 40200 83540 333 10274 29084 55082 59004;
0156833980999992005091412004-15667-038950FM-12+000599999V0201401N002610450019N0040001N1+02511+02221102141ADDGF106991041051008001041001KA1240N+01801MA1999999102081MD1999999+0091REMSYN076AAXX  14124 83398 32596 61405 10251 20222 30208 40214 84540 333 20180 58009;
0137833980999992005091418004-15667-038950FM-12+000599999V0200501N005112200019N0040001N1+02651+01941101861ADDGF103991021011008001041001MA1999999101801MD1999999+0151REMSYN070AAXX  14184 83398 32596 30510 10265 20194 30180 40186 82140 333 58015;
0168833980999992005091500004-15667-038950FM-12+000599999V0209999C000012200019N0010001N1+02141+02041102111ADDGF102991011011008001041001KA1240M+02741MA1999999102051MD1999999+0111REMSYN088AAXX  15004 83398 32594 20000 10214 20204 30205 40211 81140 333 10274 29084 55090 58011;
0156833980999992005091512004-15667-038950FM-12+000599999V0200901N002110450019N0040001N1+02581+02121102321ADDGF106991031051008001041011KA1240N+01881MA1999999102261MD1999999+0181REMSYN076AAXX  15124 83398 32596 60904 10258 20212 30226 40232 83541 333 20188 58018;
0137833980999992005091518004-15667-038950FM-12+000599999V0201401N003112200019N0040001N1+02651+02061101971ADDGF103991011011008001041011MA1999999101911MD1999999+0111REMSYN070AAXX  15184 83398 32596 31406 10265 20206 30191 40197 81141 333 58011;
0168833980999992005091600004-15667-038950FM-12+000599999V0209999C000012200019N0010001N1+02141+02061102111ADDGF104991021021008001041011KA1240M+02741MA1999999102051MD1999999+0001REMSYN088AAXX  16004 83398 32594 40000 10214 20206 30205 40211 82241 333 10274 29084 55089 58000;
0201833980999992005091612004-15667-038950FM-12+000599999V0209999C000010075019N0040001N1+02241+02171102201ADDAA124005191AY161061AY221061GF108991051051008001021999KA1240N+01981MA1999999102141MD1999999-0121MW1521REMSYN088AAXX  16124 83398 21596 80000 10224 20217 30214 40220 75262 8552/ 333 20198 59012 60054;
0137833980999992005091618004-15667-038950FM-12+000599999V0200501N001012200019N0040001N1+02591+02111101821ADDGF104991021021008001041011MA1999999101761MD1999999-0151REMSYN070AAXX  16184 83398 32596 40502 10259 20211 30176 40182 82241 333 59015;
0168833980999992005091700004-15667-038950FM-12+000599999V0209999C000012200019N0010001N1+02201+02101101971ADDGF103991021021008001041001KA1240M+02701MA1999999101911MD1999999-0141REMSYN088AAXX  17004 83398 32594 30000 10220 20210 30191 40197 82240 333 10270 29090 55052 59014;
0156833980999992005091712004-15667-038950FM-12+000599999V0200501N000510450019N0040001N1+02481+02291101951ADDGF106991041051008001041001KA1240N+01901MA1999999101891MD1999999-0251REMSYN076AAXX  17124 83398 32596 60501 10248 20229 30189 40195 84540 333 20190 59025;
0137833980999992005091718004-15667-038950FM-12+000599999V0200501N002112200019N0040001N1+02621+02121102061ADDGF102991021011008001041001MA1999999102001MD1999999+0241REMSYN070AAXX  17184 83398 32596 20504 10262 20212 30200 40206 82140 333 58024;
0220833980999992005091812004-15667-038950FM-12+000599999V0202301N000510450019N0040001N1+02541+02311102041ADDAA124000091AY151061AY221061GF106991041051008001041001KA1240N+01931MA1999999101981MD1999999+0091MW1021REMSYN088AAXX  18124 83398 21596 62301 10254 20231 30198 40204 70252 84540 333 20193 58009 69914;EQDQ01  00002PRCP24
0182833980999992005091818004-15667-038950FM-12+000599999V0201801N004110075019N0040001N1+02371+02231101771ADDAA106999999AY151061AY221061GF108991051051008001021001MA1999999101711MD1999999-0211MW1021REMSYN082AAXX  18184 83398 21596 81808 10237 20223 30171 40177 70252 85520 333 59021 69911;
0213833980999992005091900004-15667-038950FM-12+000599999V0201401N001010075019N0010001N1+02251+02201102001ADDAA106005191AY161061AY221061GF108991051051008001021001KA1240M+02811MA1999999101941MD1999999-0271MW1021REMSYN100AAXX  19004 83398 21594 81402 10225 20220 30194 40200 70262 85520 333 10281 29093 55047 59027 60051;
0173833980999992005091912004-15667-038950FM-12+000599999V0200901N003110075019N0040001N1+02321+02201102041ADDAA124005191GF108991051051008001021999KA1240N+02121MA1999999101981MD1999999+0001REMSYN082AAXX  19124 83398 22596 80906 10232 20220 30198 40204 8552/ 333 20212 58000 60054;
0137833980999992005091918004-15667-038950FM-12+000599999V0200901N003110450019N0040001N1+02581+02171101711ADDGF106991041051008001021001MA1999999101651MD1999999-0061REMSYN070AAXX  19184 83398 32596 60906 10258 20217 30165 40171 84520 333 59006;
0168833980999992005092000004-15667-038950FM-12+000599999V0200501N000510450019N0010001N1+02401+02131101911ADDGF106991041051008001021001KA1240M+02691MA1999999101851MD1999999-0091REMSYN088AAXX  20004 83398 32594 60501 10240 20213 30185 40191 84520 333 10269 29085 55018 59009;
0220833980999992005092012004-15667-038950FM-12+000599999V0209999C000010075019N0040001N1+02481+02321101781ADDAA124000091AY151061AY221061GF108991051051008001021999KA1240N+02161MA1999999101721MD1999999-0161MW1021REMSYN088AAXX  20124 83398 21596 80000 10248 20232 30172 40178 70252 8552/ 333 20216 59016 69914;EQDQ01  00002PRCP24
0137833980999992005092018004-15667-038950FM-12+000599999V0200501N003110450019N0040001N1+02641+02071101361ADDGF106991031051008001041011MA1999999101311MD1999999-0241REMSYN070AAXX  20184 83398 32596 60506 10264 20207 30131 40136 83541 333 59024;
0168833980999992005092100004-15667-038950FM-12+000599999V0203601N002610450019N0010001N1+02481+02251101941ADDGF106991041051008001041001KA1240M+02761MA1999999101881MD1999999+0031REMSYN088AAXX  21004 83398 32594 63605 10248 20225 30188 40194 84540 333 10276 29084 55038 58003;
0156833980999992005092112004-15667-038950FM-12+000599999V0203601N003110075019N0040001N1+02721+02321101361ADDGF108991051051008001021999KA1240N+02261MA1999999101311MD1999999-0411REMSYN076AAXX  21124 83398 32596 83606 10272 20232 30131 40136 8552/ 333 20226 59041;
0137833980999992005092118004-15667-038950FM-12+000599999V0200501N004110450019N0040001N1+02741+02381101051ADDGF106991041051008001041001MA1999999101001MD1999999-0311REMSYN070AAXX  21184 83398 32596 60508 10274 20238 30100 40105 84540 333 59031;
0168833980999992005092200004-15667-038950FM-12+000599999V0201801N002610075019N0010001N1+02441+02391101361ADDGF108991051051008001021001KA1240M+02831MA1999999101311MD1999999-0571REMSYN088AAXX  22004 83398 32594 81805 10244 20239 30131 40136 85520 333 10283 29089 55019 59057;
0201833980999992005092212004-15667-038950FM-12+000599999V0201801N003110075019N0040001N1+02381+02211101521ADDAA124000891AY161061AY221061GF108991051051008001021999KA1240N+02141MA1999999101471MD1999999+0161MW1021REMSYN088AAXX  22124 83398 21596 81806 10238 20221 30147 40152 70262 8552/ 333 20214 58016 69974;
0137833980999992005092218004-15667-038950FM-12+000599999V0201801N004110075019N0040001N1+02601+02251101291ADDGF108991051051008001021999MA1999999101241MD1999999+0241REMSYN070AAXX  22184 83398 32596 81808 10260 20225 30124 40129 8552/ 333 58024;
0168833980999992005092300004-15667-038950FM-12+000599999V0201801N001010075019N0010001N1+02341+02201101591ADDGF108991051051008001021001KA1240M+02651MA1999999101541MD1999999+0231REMSYN088AAXX  23004 83398 32594 81802 10234 20220 30154 40159 85520 333 10265 29089 55000 58023;
0156833980999992005092312004-15667-038950FM-12+000599999V0201801N003110075019N0040001N1+02441+02271101631ADDGF108991051051008001021999KA1240N+02001MA1999999101571MD1999999+0101REMSYN076AAXX  23124 83398 32596 81806 10244 20227 30157 40163 8552/ 333 20200 58010;
0137833980999992005092318004-15667-038950FM-12+000599999V0201801N001010075019N0040001N1+02521+02251101431ADDGF108991051051008001021999MA1999999101381MD1999999+0141REMSYN070AAXX  23184 83398 32596 81802 10252 20225 30138 40143 8552/ 333 58014;
0168833980999992005092400004-15667-038950FM-12+000599999V0209999C000010450019N0010001N1+02181+02111101631ADDGF106991041051008001041001KA1240M+02711MA1999999101571MD1999999+0031REMSYN088AAXX  24004 83398 32594 60000 10218 20211 30157 40163 84540 333 10271 29092 55015 58003;
0156833980999992005092412004-15667-038950FM-12+000599999V0203601N001010075019N0040001N1+02561+02381101671ADDGF108991051051008001021999KA1240N+01981MA1999999101611MD1999999+0041REMSYN076AAXX  24124 83398 32596 83602 10256 20238 30161 40167 8552/ 333 20198 58004;
0137833980999992005092418004-15667-038950FM-12+000599999V0200501N003110075019N0040001N1+02721+02411101351ADDGF108991051051008001021999MA1999999101301MD1999999-0081REMSYN070AAXX  24184 83398 32596 80506 10272 20241 30130 40135 8552/ 333 59008;
0168833980999992005092500004-15667-038950FM-12+000599999V0203601N002110450019N0010001N1+02501+02361101561ADDGF106991041051008001021001KA1240M+02821MA1999999101511MD1999999-0061REMSYN088AAXX  25004 83398 32594 63604 10250 20236 30151 40156 84520 333 10282 29089 55065 59006;
0201833980999992005092512004-15667-038950FM-12+000599999V0200501N002110075019N0040001N1+02701+02461101731ADDAA124001091AY161061AY221061GF108991051051008001021999KA1240N+02161MA1999999101671MD1999999+0061MW1021REMSYN088AAXX  25124 83398 21596 80504 10270 20246 30167 40173 70262 8552/ 333 20216 58006 60014;
0137833980999992005092518004-15667-038950FM-12+000599999V0200501N005110450019N0040001N1+02761+02381101441ADDGF106991041051008001021001MA1999999101391MD1999999+0091REMSYN070AAXX  25184 83398 32596 60510 10276 20238 30139 40144 84520 333 58009;
0156833980999992005092612004-15667-038950FM-12+000599999V0203601N004110450019N0040001N1+02741+02341101861ADDGF106991041051008001021001KA1240N+02361MA1999999101801MD1999999+0131REMSYN076AAXX  26124 83398 32596 63608 10274 20234 30180 40186 84520 333 20236 58013;
0137833980999992005092618004-15667-038950FM-12+000599999V0203601N004110450019N0040001N1+02751+02391101561ADDGF105991031021008001041001MA1999999101511MD1999999+0121REMSYN070AAXX  26184 83398 32596 53608 10275 20239 30151 40156 83240 333 58012;
0168833980999992005092700004-15667-038950FM-12+000599999V0203601N002110450019N0010001N1+02521+02311101741ADDGF106991041051008001041001KA1240M+02881MA1999999101731MD1999999+0211REMSYN088AAXX  27004 83398 32594 63604 10252 20231 30173 40174 84540 333 10288 29084 55087 58021;
0220833980999992005092712004-15667-038950FM-12+000599999V0203601N005110075019N0040001N1+02741+02381101941ADDAA124000091AY151061AY221061GF107991051051008001021001KA1240N+02361MA1999999101881MD1999999+0081MW1021REMSYN088AAXX  27124 83398 21596 73610 10274 20238 30188 40194 70252 85520 333 20236 58008 69914;EQDQ01  00002PRCP24
0137833980999992005092718004-15667-038950FM-12+000599999V0203601N002612200019N0040001N1+02741+02401101661ADDGF104991021011008001021001MA1999999101601MD1999999+0091REMSYN070AAXX  27184 83398 32596 43605 10274 20240 30160 40166 82120 333 58009;
0213833980999992005092800004-15667-038950FM-12+000599999V0201801N002610075019N0010001N1+02371+02321102071ADDAA106000891AY151061AY221061GF108991051051008001021999KA1240M+02891MA1999999102011MD1999999+0281MW1621REMSYN100AAXX  28004 83398 21594 81805 10237 20232 30201 40207 76252 8552/ 333 10289 29089 55068 58028 69981;
0201833980999992005092812004-15667-038950FM-12+000599999V0202301N001010075019N0040001N1+02381+02211101961ADDAA124024991AY161061AY221061GF108991051051008001021999KA1240N+02101MA1999999101901MD1999999+0021MW1021REMSYN088AAXX  28124 83398 21596 82302 10238 20221 30190 40196 70262 8552/ 333 20210 58002 60254;
0137833980999992005092818004-15667-038950FM-12+000599999V0200501N002110075019N0040001N1+02571+02361101621ADDGF108991051051008001021999MA1999999101561MD1999999-0041REMSYN070AAXX  28184 83398 32596 80504 10257 20236 30156 40162 8552/ 333 59004;
0168833980999992005092900004-15667-038950FM-12+000599999V0201801N002610075019N0010001N1+02271+02251101971ADDGF108991051051008001021999KA1240M+02761MA1999999101911MD1999999-0091REMSYN088AAXX  29004 83398 32594 81805 10227 20225 30191 40197 8552/ 333 10276 29094 55001 59009;
0201833980999992005092912004-15667-038950FM-12+000599999V0201801N003110075019N0040001N1+02121+02091102011ADDAA124003091AY161061AY221061GF108991051071008001021999KA1240N+01981MA1999999101951MD1999999+0051MW1531REMSYN088AAXX  29124 83398 21596 81806 10212 20209 30195 40201 75362 8572/ 333 20198 58005 60034;
0182833980999992005092918004-15667-038950FM-12+000599999V0202301N002110075019N0040001N1+02461+02281101591ADDAA106999999AY151061AY221061GF107991051051008001021001MA1999999101541MD1999999-0021MW1021REMSYN082AAXX  29184 83398 21596 72304 10246 20228 30154 40159 70252 85520 333 59002 69921;
0213833980999992005093000004-15667-038950FM-12+000599999V0202301N002110075019N0010001N1+02171+02171101861ADDAA106007991AY161061AY221061GF108991051051008001021999KA1240M+02511MA1999999101801MD1999999-0111MW1021REMSYN100AAXX  30004 83398 21594 82304 10217 20217 30180 40186 70262 8552/ 333 10251 29097 55000 59011 60081;
0201833980999992005093012004-15667-038950FM-12+000599999V0201401N003110075019N0040001N1+02281+02261101991ADDAA124011991AY161061AY221061GF108991051071008001021999KA1240N+02081MA1999999101931MD1999999-0021MW1521REMSYN088AAXX  30124 83398 21596 81406 10228 20226 30193 40199 75262 8572/ 333 20208 59002 60124;
0182833980999992005093018004-15667-038950FM-12+000599999V0200501N002112200019N0040001N1+02521+02291101631ADDAA106001091AY151061AY221061GF104991021021008001041001MA1999999101571MD1999999+0031MW1021REMSYN082AAXX  30184 83398 21596 40504 10252 20229 30157 40163 70252 82240 333 58003 60011;
0168833980999992005100100004-15667-038950FM-12+000599999V0201401N001010450019N0010001N1+02221+02221101891ADDGF106991041051008001041001KA1240M+02571MA1999999101831MD1999999+0031REMSYN088AAXX  01004 83398 32594 61402 10222 20222 30183 40189 84540 333 10257 29097 55044 58003;
0201833980999992005100112004-15667-038950FM-12+000599999V0202301N002610075019N0040001N1+02501+02321101951ADDAA124009991AY161061AY221061GF107991051051008001021001KA1240N+02021MA1999999101881MD1999999-0051MW1021REMSYN088AAXX  01124 83398 21596 72305 10250 20232 30188 40195 70262 85520 333 20202 59005 60104;
0137833980999992005100118004-15667-038950FM-12+000599999V0201401N003112200019N0040001N1+02591+02221101571ADDGF104991021021008001041011MA1999999101521MD1999999-0051REMSYN070AAXX  01184 83398 32596 41406 10259 20222 30152 40157 82241 333 59005;
0168833980999992005100200004-15667-038950FM-12+000599999V0200901N001512200019N0010001N1+02381+02191101831ADDGF104991021021008001041001KA1240M+02731MA1999999101771MD1999999-0061REMSYN088AAXX  02004 83398 32594 40903 10238 20219 30177 40183 82240 333 10273 29087 55092 59006;
0156833980999992005100212004-15667-038950FM-12+000599999V0200501N002612200019N0040001N1+02611+02201101811ADDGF104991021011008001041001KA1240N+01961MA1999999101751MD1999999+0231REMSYN076AAXX  02124 83398 32596 40505 10261 20220 30175 40181 82140 333 20196 58023;
0137833980999992005100218004-15667-038950FM-12+000599999V0200901N006212200019N0040001N1+02651+02131101441ADDGF102991011011008001041001MA1999999101381MD1999999+0141REMSYN070AAXX  02184 83398 32596 20912 10265 20213 30138 40144 81140 333 58014;
0168833980999992005100300004-15667-038950FM-12+000599999V0209999C000012200019N0010001N1+02201+02081101791ADDGF102991011011008001041001KA1240M+02761MA1999999101731MD1999999-0041REMSYN088AAXX  03004 83398 32594 20000 10220 20208 30173 40179 81140 333 10276 29084 55102 59004;
0156833980999992005100312004-15667-038950FM-12+000599999V0200901N002110450019N0040001N1+02541+02151101831ADDGF106991041051008001041001KA1240N+01761MA1999999101771MD1999999+0021REMSYN076AAXX  03124 83398 32596 60904 10254 20215 30177 40183 84540 333 20176 58002;
0137833980999992005100318004-15667-038950FM-12+000599999V0200901N002110450019N0040001N1+02681+02131101471ADDGF106991031051008001041011MA1999999101421MD1999999+0041REMSYN070AAXX  03184 83398 32596 60904 10268 20213 30142 40147 83541 333 58004;
0168833980999992005100400004-15667-038950FM-12+000599999V0209999C000010450019N0010001N1+02221+02151101701ADDGF105991031021008001041001KA1240M+02821MA1999999101641MD1999999-0091REMSYN088AAXX  04004 83398 32594 50000 10222 20215 30164 40170 83240 333 10282 29086 55108 59009;
0201833980999992005100412004-15667-038950FM-12+000599999V0209999C000010075019N0040001N1+02461+02321101841ADDAA124009991AY161061AY221061GF107991051051008001021001KA1240N+02001MA1999999101781MD1999999-0091MW1021REMSYN088AAXX  04124 83398 21596 70000 10246 20232 30178 40184 70262 85520 333 20200 59009 60104;
0137833980999992005100418004-15667-038950FM-12+000599999V0200901N005110450019N0040001N1+02621+02251101491ADDGF106991041051008001021001MA1999999101441MD1999999+0021REMSYN070AAXX  04184 83398 32596 60910 10262 20225 30144 40149 84520 333 58002;
0168833980999992005100500004-15667-038950FM-12+000599999V0209999C000010450019N0010001N1+02291+02291101721ADDGF106991041051008001021001KA1240M+02731MA1999999101661MD1999999+0021REMSYN088AAXX  05004 83398 32594 60000 10229 20229 30166 40172 84520 333 10273 29093 55059 58002;
0201833980999992005100512004-15667-038950FM-12+000599999V0203601N002110450019N0040001N1+02661+02411101791ADDAA124002091AY161061AY221061GF106991041051008001021001KA1240N+02261MA1999999101731MD1999999+0051MW1021REMSYN088AAXX  05124 83398 21596 63604 10266 20241 30173 40179 70262 84520 333 20226 58005 60024;
0182833980999992005100518004-15667-038950FM-12+000599999V0203601N005110450019N0040001N1+02781+02421101611ADDAA106002091AY161061AY221061GF106991041051008001041001MA1999999101551MD1999999+0111MW1021REMSYN082AAXX  05184 83398 21596 63610 10278 20242 30155 40161 70262 84540 333 58011 60021;
0168833980999992005100600004-15667-038950FM-12+000599999V0203601N004110450019N0010001N1+02541+02441101851ADDGF106991041051008001021001KA1240M+02881MA1999999101791MD1999999+0131REMSYN088AAXX  06004 83398 32594 63608 10254 20244 30179 40185 84520 333 10288 29089 55093 58013;
0201833980999992005100612004-15667-038950FM-12+000599999V0200501N002110450019N0040001N1+02541+02441102011ADDAA124002091AY161061AY221061GF106991041051008001021001KA1240N+02261MA1999999101951MD1999999+0221MW1021REMSYN088AAXX  06124 83398 21596 60504 10254 20244 30195 40201 70262 84520 333 20226 58022 60024;
0182833980999992005100618004-15667-038950FM-12+000599999V0200501N003110450019N0040001N1+02721+02451101811ADDAA106005191AY161061AY221061GF106991041051008001021001MA1999999101751MD1999999+0201MW1021REMSYN082AAXX  06184 83398 21596 60506 10272 20245 30175 40181 70262 84520 333 58020 60051;
0168833980999992005100700004-15667-038950FM-12+000599999V0200501N002110450019N0010001N1+02481+02341101971ADDGF106991041051008001021001KA1240M+02861MA1999999101911MD1999999+0121REMSYN088AAXX  07004 83398 32594 60504 10248 20234 30191 40197 84520 333 10286 29091 55050 58012;
0173833980999992005100712004-15667-038950FM-12+000599999V0200501N003110450019N0040001N1+02741+02341102161ADDAA124005191GF105991031051008001041001KA1240N+02221MA1999999102101MD1999999+0151REMSYN082AAXX  07124 83398 22596 50506 10274 20234 30210 40216 83540 333 20222 58015 60054;
0137833980999992005100718004-15667-038950FM-12+000599999V0200901N005110450019N0040001N1+02761+02341101941ADDGF105991031021008001041011MA1999999101881MD1999999+0131REMSYN070AAXX  07184 83398 32596 50910 10276 20234 30188 40194 83241 333 58013;
0168833980999992005100800004-15667-038950FM-12+000599999V0200901N002110450019N0010001N1+02521+02251102141ADDGF105991031011008001041001KA1240M+02871MA1999999102081MD1999999+0171REMSYN088AAXX  08004 83398 32594 50904 10252 20225 30208 40214 83140 333 10287 29082 55100 58017;
0201833980999992005100812004-15667-038950FM-12+000599999V0200901N003110450019N0040001N1+02701+02331102181ADDAA124000591AY151061AY221061GF106991041051008001021001KA1240N+02021MA1999999102121MD1999999+0021MW1021REMSYN088AAXX  08124 83398 21596 60906 10270 20233 30212 40218 70252 84520 333 20202 58002 69944;
0182833980999992005100818004-15667-038950FM-12+000599999V0200901N001010075019N0040001N1+02341+02271101871ADDAA106008991AY161061AY221061GF108991051071008001021999MA1999999101811MD1999999-0071MW1601REMSYN082AAXX  08184 83398 21596 80902 10234 20227 30181 40187 76062 8572/ 333 59007 60091;
0168833980999992005100900004-15667-038950FM-12+000599999V0200901N003110075019N0010001N1+02421+02211101631ADDGF108991051051008001021999KA1240M+02781MA1999999101571MD1999999-0511REMSYN088AAXX  09004 83398 32594 80906 10242 20221 30157 40163 8552/ 333 10278 29088 55048 59051;
0201833980999992005100912004-15667-038950FM-12+000599999V0200901N002110450019N0040001N1+02661+02221102081ADDAA124008991AY151061AY221061GF106991041051008001041001KA1240N+01921MA1999999102021MD1999999-0101MW1021REMSYN088AAXX  09124 83398 21596 60904 10266 20222 30202 40208 70252 84540 333 20192 59010 60094;
0137833980999992005100918004-15667-038950FM-12+000599999V0200901N002612200019N0040001N1+02701+02221101631ADDGF103991021011008001041001MA1999999101571MD1999999-0241REMSYN070AAXX  09184 83398 32596 30905 10270 20222 30157 40163 82140 333 59024;
0168833980999992005101000004-15667-038950FM-12+000599999V0200501N001510450019N0010001N1+02461+02191101821ADDGF106991041051008001041001KA1240M+02761MA1999999101761MD1999999+0191REMSYN088AAXX  10004 83398 32594 60503 10246 20219 30176 40182 84540 333 10276 29081 55107 58019;
0201833980999992005101012004-15667-038950FM-12+000599999V0202301N001010450019N0040001N1+02321+02291101891ADDAA124006191AY161061AY221061GF106991041051008001021001KA1240N+02021MA1999999101831MD1999999-0191MW1501REMSYN088AAXX  10124 83398 21596 62302 10232 20229 30183 40189 75062 84520 333 20202 59019 60064;
0137833980999992005101018004-15667-038950FM-12+000599999V0200501N004112200019N0010001N1+02671+02191101591ADDGF104991021011008001041001MA1999999101541MD1999999-0031REMSYN070AAXX  10184 83398 32594 40508 10267 20219 30154 40159 82140 333 59003;
0168833980999992005101100004-15667-038950FM-12+000599999V0200501N001010450019N0010001N1+02461+02191101821ADDGF106991041051008001021001KA1240M+02791MA1999999101761MD1999999+0001REMSYN088AAXX  11004 83398 32594 60502 10246 20219 30176 40182 84520 333 10279 29086 55085 58000;
0156833980999992005101112004-15667-038950FM-12+000599999V0200901N002110450019N0040001N1+02721+02411101811ADDGF106991041051008001021001KA1240N+01981MA1999999101751MD1999999-0081REMSYN076AAXX  11124 83398 32596 60904 10272 20241 30175 40181 84520 333 20198 59008;
0137833980999992005101118004-15667-038950FM-12+000599999V0200901N004112200019N0040001N1+02691+02271101471ADDGF103991021011008001041001MA1999999101421MD1999999-0121REMSYN070AAXX  11184 83398 32596 30908 10269 20227 30142 40147 82140 333 59012;
0168833980999992005101200004-15667-038950FM-12+000599999V0203601N002112200019N0010001N1+02461+02231101721ADDGF103991021011008001041001KA1240M+02821MA1999999101661MD1999999-0101REMSYN088AAXX  12004 83398 32594 33604 10246 20223 30166 40172 82140 333 10282 29084 55092 59010;
0201833980999992005101212004-15667-038950FM-12+000599999V0202301N001010075019N0040001N1+02441+02301101871ADDAA124002091AY161061AY221061GF107991051051008001021001KA1240N+02101MA1999999101811MD1999999+0061MW1501REMSYN088AAXX  12124 83398 21596 72302 10244 20230 30181 40187 75062 85520 333 20210 58006 60024;
0137833980999992005101218004-15667-038950FM-12+000599999V0200901N004112200019N0040001N1+02721+02321101481ADDGF104991021011008001041001MA1999999101431MD1999999+0011REMSYN070AAXX  12184 83398 32596 40908 10272 20232 30143 40148 82140 333 58001;
0168833980999992005101300004-15667-038950FM-12+000599999V0200501N002112200019N0010001N1+02481+02231101731ADDGF104991021021008001041001KA1240M+02821MA1999999101671MD1999999+0011REMSYN088AAXX  13004 83398 32594 40504 10248 20223 30167 40173 82240 333 10282 29086 55082 58001;
0156833980999992005101312004-15667-038950FM-12+000599999V0203601N006210075019N0040001N1+02661+02411101841ADDGF107991051051008001021001KA1240N+02101MA1999999101781MD1999999-0031REMSYN076AAXX  13124 83398 32596 73612 10266 20241 30178 40184 85520 333 20210 59003;
0137833980999992005101318004-15667-038950FM-12+000599999V0200501N005112200019N0040001N1+02781+02561101531ADDGF103991021021008001041001MA1999999101481MD1999999-0051REMSYN070AAXX  13184 83398 32596 30510 10278 20256 30148 40153 82240 333 59005;
0168833980999992005101400004-15667-038950FM-12+000599999V0200501N002110450019N0010001N1+02501+02251101751ADDGF106991041051008001021001KA1240M+02871MA1999999101691MD1999999+0021REMSYN088AAXX  14004 83398 32594 60504 10250 20225 30169 40175 84520 333 10287 29084 55086 58002;
0156833980999992005101412004-15667-038950FM-12+000599999V0200501N003110450019N0040001N1+02741+02431101841ADDGF106991041051008001021001KA1240N+02021MA1999999101781MD1999999+0001REMSYN076AAXX  14124 83398 32596 60506 10274 20243 30178 40184 84520 333 20202 58000;
0137833980999992005101418004-15667-038950FM-12+000599999V0200501N007212200019N0040001N1+02771+02411101481ADDGF103991021021008001041001MA1999999101431MD1999999+0051REMSYN070AAXX  14184 83398 32596 30514 10277 20241 30143 40148 82240 333 58005;
0168833980999992005101500004-15667-038950FM-12+000599999V0200501N004612200019N0010001N1+02481+02321101701ADDGF103991021021008001041001KA1240M+02931MA1999999101641MD1999999-0051REMSYN088AAXX  15004 83398 32594 30509 10248 20232 30164 40170 82240 333 10293 29087 55092 59005;
0156833980999992005101512004-15667-038950FM-12+000599999V0203601N003110450019N0040001N1+02761+02441101721ADDGF106991041051008001021001KA1240N+02121MA1999999101661MD1999999-0121REMSYN076AAXX  15124 83398 32596 63606 10276 20244 30166 40172 84520 333 20212 59012;
0137833980999992005101518004-15667-038950FM-12+000599999V0203601N005110450019N0040001N1+02801+02341101471ADDGF105991031021008001041011MA1999999101421MD1999999+0001REMSYN070AAXX  15184 83398 32596 53610 10280 20234 30142 40147 83241 333 58000;
0168833980999992005101600004-15667-038950FM-12+000599999V0203601N001012200019N0010001N1+02441+02231101691ADDGF104991021011008001041001KA1240M+02921MA1999999101631MD1999999-0011REMSYN088AAXX  16004 83398 32594 43602 10244 20223 30163 40169 82140 333 10292 29084 55100 59001;
0156833980999992005101612004-15667-038950FM-12+000599999V0200501N003110450019N0040001N1+02741+02301101831ADDGF106991031021008001041011KA1240N+01981MA1999999101771MD1999999+0111REMSYN076AAXX  16124 83398 32596 60506 10274 20230 30177 40183 83241 333 20198 58011;
0137833980999992005101618004-15667-038950FM-12+000599999V0200501N004110450019N0040001N1+02741+02281101541ADDGF105991021021008001041001MA1999999101491MD1999999+0071REMSYN070AAXX  16184 83398 32596 50508 10274 20228 30149 40154 82240 333 58007;
0168833980999992005101700004-15667-038950FM-12+000599999V0200501N002112200019N0010001N1+02521+02291101711ADDGF103991031011008001001001KA1240M+02871MA1999999101651MD1999999+0021REMSYN088AAXX  17004 83398 32594 30504 10252 20229 30165 40171 83100 333 10287 29082 55101 58002;
0156833980999992005101712004-15667-038950FM-12+000599999V0203601N002110450019N0040001N1+02681+02411101761ADDGF106991041051008001021001KA1240N+02001MA1999999101701MD1999999-0071REMSYN076AAXX  17124 83398 32596 63604 10268 20241 30170 40176 84520 333 20200 59007;
0137833980999992005101718004-15667-038950FM-12+000599999V0203601N006210450019N0040001N1+02781+02461101391ADDGF105991031051008001041001MA1999999101341MD1999999-0151REMSYN070AAXX  17184 83398 32596 53612 10278 20246 30134 40139 83540 333 59015;
0155833980999992005101800004-15670-038950FM-12+000599999V0203601N002112200019N0010001N1+02501+02401101621ADDGF104991021021008001041001MA1999999101561MD1999999-0091REMSYN088AAXX  18004 83398 32594 43604 10250 20240 30156 40162 82240 333 10293 29089 55101 59009;
0156833980999992005101812004-15667-038950FM-12+000599999V0203601N003110450019N0040001N1+02781+02521101691ADDGF106991041051008001021001KA1240N+02081MA1999999101631MD1999999-0071REMSYN076AAXX  18124 83398 32596 63606 10278 20252 30163 40169 84520 333 20208 59007;
0137833980999992005101818004-15667-038950FM-12+000599999V0203601N005110450019N0040001N1+02821+02421101431ADDGF106991031021008001041011MA1999999101381MD1999999-0061REMSYN070AAXX  18184 83398 32596 63610 10282 20242 30138 40143 83241 333 59006;
0168833980999992005101900004-15667-038950FM-12+000599999V0203601N001512200019N0010001N1+02491+02401101591ADDGF103991021011008001041001KA1240M+02921MA1999999101541MD1999999-0021REMSYN088AAXX  19004 83398 32594 33603 10249 20240 30154 40159 82140 333 10292 29089 55103 59002;
0156833980999992005101912004-15667-038950FM-12+000599999V0200501N005110450019N0040001N1+02761+02501101871ADDGF106991041051008001021001KA1240N+02001MA1999999101811MD1999999+0181REMSYN076AAXX  19124 83398 32596 60510 10276 20250 30181 40187 84520 333 20200 58018;
0137833980999992005101918004-15667-038950FM-12+000599999V0200501N004110450019N0040001N1+02841+02401101651ADDGF106991031021008001041011MA1999999101591MD1999999+0311REMSYN070AAXX  19184 83398 32596 60508 10284 20240 30159 40165 83241 333 58031;
0168833980999992005102000004-15667-038950FM-12+000599999V0200501N002112200019N0010001N1+02541+02381101951ADDGF103991011011008001041011KA1240M+02921MA1999999101891MD1999999+0351REMSYN088AAXX  20004 83398 32594 30504 10254 20238 30189 40195 81141 333 10292 29086 55090 58035;
0156833980999992005102012004-15667-038950FM-12+000599999V0200901N003110450019N0040001N1+02801+02421101971ADDGF106991041051008001021001KA1240N+02021MA1999999101911MD1999999+0101REMSYN076AAXX  20124 83398 32596 60906 10280 20242 30191 40197 84520 333 20202 58010;
0137833980999992005102018004-15667-038950FM-12+000599999V0200501N004110450019N0040001N1+02781+02251101721ADDGF105991031021008001041001MA1999999101661MD1999999+0071REMSYN070AAXX  20184 83398 32596 50508 10278 20225 30166 40172 83240 333 58007;
0168833980999992005102100004-15667-038950FM-12+000599999V0200501N003612200019N0010001N1+02511+02241101841ADDGF103991021021008001041001KA1240M+02921MA1999999101781MD1999999-0111REMSYN088AAXX  21004 83398 32594 30507 10251 20224 30178 40184 82240 333 10292 29081 55100 59011;
0201833980999992005102112004-15667-038950FM-12+000599999V0200501N004110450019N0040001N1+02741+02361101901ADDAA124006191AY161061AY221061GF106991041051008001021001KA1240N+01981MA1999999101841MD1999999-0071MW1021REMSYN088AAXX  21124 83398 21596 60508 10274 20236 30184 40190 70262 84520 333 20198 59007 60064;
0137833980999992005102118004-15667-038950FM-12+000599999V0200501N003110450019N0040001N1+02721+02411101601ADDGF106991041051008001021001MA1999999101541MD1999999-0121REMSYN070AAXX  21184 83398 32596 60506 10272 20241 30154 40160 84520 333 59012;
0168833980999992005102200004-15667-038950FM-12+000599999V0200501N002110450019N0010001N1+02511+02331101711ADDGF105991031051008001041001KA1240M+02861MA1999999101651MD1999999-0131REMSYN088AAXX  22004 83398 32594 50504 10251 20233 30165 40171 83540 333 10286 29086 55101 59013;
0156833980999992005102212004-15667-038950FM-12+000599999V0200501N004110075019N0040001N1+02611+02511101751ADDGF107991051041008001021011KA1240N+02201MA1999999101691MD1999999-0151REMSYN076AAXX  22124 83398 32596 70508 10261 20251 30169 40175 85421 333 20220 59015;
0137833980999992005102218004-15667-038950FM-12+000599999V0203601N002110075019N0040001N1+02721+02501101521ADDGF107991051041008001021001MA1999999101471MD1999999-0071REMSYN070AAXX  22184 83398 32596 73604 10272 20250 30147 40152 85420 333 59007;
0168833980999992005102300004-15667-038950FM-12+000599999V0200501N004610450019N0010001N1+02541+02401101581ADDGF105991031051008001021001KA1240M+02851MA1999999101531MD1999999-0121REMSYN088AAXX  23004 83398 32594 50509 10254 20240 30153 40158 83520 333 10285 29092 55008 59012;
0156833980999992005102312004-15667-038950FM-12+000599999V0200501N005110450019N0040001N1+02811+02531101661ADDGF106991031051008001021011KA1240N+02201MA1999999101601MD1999999-0051REMSYN076AAXX  23124 83398 32596 60510 10281 20253 30160 40166 83521 333 20220 59005;
0137833980999992005102318004-15667-038950FM-12+000599999V0203601N001512200019N0040001N1+02641+02411101351ADDGF104991021021008001041011MA1999999101301MD1999999-0171REMSYN070AAXX  23184 83398 32596 43603 10264 20241 30130 40135 82241 333 59017;
0168833980999992005102400004-15667-038950FM-12+000599999V0203601N003112200019N0010001N1+02501+02381101621ADDGF103991021021008001041001KA1240M+02941MA1999999101561MD1999999+0031REMSYN088AAXX  24004 83398 32594 33606 10250 20238 30156 40162 82240 333 10294 29090 55109 58003;
0156833980999992005102412004-15667-038950FM-12+000599999V0200501N002110450019N0040001N1+02701+02461101781ADDGF106991041051008001021001KA1240N+02041MA1999999101721MD1999999+0121REMSYN076AAXX  24124 83398 32596 60504 10270 20246 30172 40178 84520 333 20204 58012;
0137833980999992005102418004-15667-038950FM-12+000599999V0200501N003112200019N0040001N1+02791+02511101521ADDGF103991011011008001041011MA1999999101471MD1999999+0171REMSYN070AAXX  24184 83398 32596 30506 10279 20251 30147 40152 81141 333 58017;
0168833980999992005102500004-15667-038950FM-12+000599999V0200501N002112200019N0010001N1+02531+02391101731ADDGF103991021021008001041001KA1240M+02931MA1999999101671MD1999999+0111REMSYN088AAXX  25004 83398 32594 30504 10253 20239 30167 40173 82240 333 10293 29089 55101 58011;
0156833980999992005102512004-15667-038950FM-12+000599999V0203601N003110450019N0040001N1+02821+02481101741ADDGF105991031051008001021001KA1240N+01981MA1999999101681MD1999999-0041REMSYN076AAXX  25124 83398 32596 53606 10282 20248 30168 40174 83520 333 20198 59004;
0137833980999992005102518004-15667-038950FM-12+000599999V0200501N004112200019N0040001N1+02821+02461101441ADDGF103991011011008001041011MA1999999101391MD1999999-0081REMSYN070AAXX  25184 83398 32596 30508 10282 20246 30139 40144 81141 333 59008;
0168833980999992005102600004-15667-038950FM-12+000599999V0200501N001012200019N0010001N1+02501+02321101591ADDGF101991011011008001041001KA1240M+02951MA1999999101541MD1999999+0131REMSYN088AAXX  26004 83398 32594 10502 10250 20232 30154 40159 81140 333 10295 29086 55106 58013;
0156833980999992005102612004-15667-038950FM-12+000599999V0200501N002110450019N0040001N1+02741+02451101641ADDGF106991031051008001041001KA1240N+01941MA1999999101581MD1999999-0101REMSYN076AAXX  26124 83398 32596 60504 10274 20245 30158 40164 83540 333 20194 59010;
0137833980999992005102618004-15667-038950FM-12+000599999V0200501N003112200019N0040001N1+02811+02551101261ADDGF102991011011008001041011MA1999999101211MD1999999-0181REMSYN070AAXX  26184 83398 32596 20506 10281 20255 30121 40126 81141 333 59018;
0168833980999992005102700004-15667-038950FM-12+000599999V0200501N003112200019N0010001N1+02541+02471101441ADDGF104991021021008001041001KA1240M+02931MA1999999101391MD1999999-0151REMSYN088AAXX  27004 83398 32594 40506 10254 20247 30139 40144 82240 333 10293 29091 55112 59015;
0156833980999992005102712004-15667-038950FM-12+000599999V0200501N003110450019N0040001N1+02881+02581101541ADDGF105991031051008001041001KA1240N+02001MA1999999101491MD1999999-0071REMSYN076AAXX  27124 83398 32596 50506 10288 20258 30149 40154 83540 333 20200 59007;
0137833980999992005102718004-15667-038950FM-12+000599999V0200501N005111050019N0040001N1+02741+02631101191ADDGF105991021021008001041011MA1999999101141MD1999999-0071REMSYN070AAXX  27184 83398 32596 50510 10274 20263 30114 40119 82241 333 59007;
0168833980999992005102800004-15667-038950FM-12+000599999V0200501N004112200019N0010001N1+02571+02521101401ADDGF104991021021008001041001KA1240M+02951MA1999999101351MD1999999-0041REMSYN088AAXX  28004 83398 32594 40508 10257 20252 30135 40140 82240 333 10295 29093 55096 59004;
0156833980999992005102812004-15667-038950FM-12+000599999V0203601N004110450019N0040001N1+02861+02701101431ADDGF106991031051008001041001KA1240N+02361MA1999999101381MD1999999-0111REMSYN076AAXX  28124 83398 32596 63608 10286 20270 30138 40143 83540 333 20236 59011;
0137833980999992005102818004-15667-038950FM-12+000599999V0203601N006212200019N0040001N1+02821+02621101081ADDGF103991021021008001041001MA1999999101031MD1999999-0111REMSYN070AAXX  28184 83398 32596 33612 10282 20262 30103 40108 82240 333 59011;
0168833980999992005102900004-15667-038950FM-12+000599999V0203601N005112200019N0010001N1+02581+02551101201ADDGF104991021021008001041001KA1240M+03001MA1999999101151MD1999999-0201REMSYN088AAXX  29004 83398 32594 43610 10258 20255 30115 40120 82240 333 10300 29094 55108 59020;
0156833980999992005102912004-15667-038950FM-12+000599999V0203601N003110450019N0040001N1+02741+02521101341ADDGF107991041051008001021001KA1240N+02301MA1999999101291MD1999999-0091REMSYN076AAXX  29124 83398 32596 73606 10274 20252 30129 40134 84520 333 20230 59009;
0137833980999992005102918004-15667-038950FM-12+000599999V0203601N005110450019N0040001N1+02821+02751100941ADDGF107991041051008001021001MA1999999100891MD1999999-0141REMSYN070AAXX  29184 83398 32596 73610 10282 20275 30089 40094 84520 333 59014;
0168833980999992005103000004-15667-038950FM-12+000599999V0203601N001010450019N0010001N1+02581+02581101171ADDGF105991031051008001021001KA1240M+02981MA1999999101121MD1999999-0031REMSYN088AAXX  30004 83398 32594 53602 10258 20258 30112 40117 83520 333 10298 29096 55068 59003;
0156833980999992005103012004-15667-038950FM-12+000599999V0202301N002110075019N0040001N1+02721+02521101531ADDGF108991051051008001021999KA1240N+02391MA1999999101481MD1999999+0191REMSYN076AAXX  30124 83398 32596 82304 10272 20252 30148 40153 8552/ 333 20239 58019;
0137833980999992005103018004-15667-038950FM-12+000599999V0203601N006210450019N0040001N1+02831+02671101181ADDGF107991041051008001021011MA1999999101131MD1999999+0241REMSYN070AAXX  30184 83398 32596 73612 10283 20267 30113 40118 84521 333 58024;
0168833980999992005103100004-15667-038950FM-12+000599999V0203601N004110450019N0010001N1+02591+02591101511ADDGF105991031051008001021001KA1240M+03071MA1999999101461MD1999999+0341REMSYN088AAXX  31004 83398 32594 53608 10259 20259 30146 40151 83520 333 10307 29095 55000 58034;
0201833980999992005103112004-15667-038950FM-12+000599999V0200501N001010075019N0040001N1+02721+02601101581ADDAA124000591AY161061AY221061GF107991051051008001021001KA1240N+02261MA1999999101531MD1999999+0051MW1021REMSYN088AAXX  31124 83398 21596 70502 10272 20260 30153 40158 70262 85520 333 20226 58005 69954;
0182833980999992005103118004-15667-038950FM-12+000599999V0203601N005110450019N0040001N1+02881+02741101341ADDAA106999999AY151061AY221061GF106991041051008001021011MA1999999101291MD1999999+0161MW1021REMSYN082AAXX  31184 83398 21596 63610 10288 20274 30129 40134 70252 84521 333 58016 69921;
0187833980999992005110100004-15667-038950FM-12+000599999V0203601N002110450019N0010001N1+02581+02561101531ADDGF106991041051008001021001KA1240M+99999MA1999999101481MD1999999+0021REMSYN088AAXX  01004 83398 32594 63604 10258 20256 30148 40153 84520 333 10250 29096 55030 58002;EQDQ01 +02502ATMX  
0201833980999992005110112004-15667-038950FM-12+000599999V0202701N000510075019N0040001N1+02631+02561101711ADDAA124001091AY151061AY221061GF108991051051008001021999KA1240N+02411MA1999999101651MD1999999+0121MW1021REMSYN088AAXX  01124 83398 21596 82701 10263 20256 30165 40171 70252 8552/ 333 20241 58012 69994;
0168833980999992005110200004-15667-038950FM-12+000599999V0203601N002612200019N0010001N1+02571+02501101721ADDGF103991021021008001041001KA1240M+02931MA1999999101661MD1999999+0181REMSYN088AAXX  02004 83398 32594 33605 10257 20250 30166 40172 82240 333 10293 29095 55032 58018;
0182833980999992005110212004-15667-038950FM-12+000599999V0203601N003119999999N0040001N1+02861+02681101851ADDGA1031+012001051GF106991999999008001999999KA1240N+02481MA1999999101791MD1999999+0141REMSYN086AAXX  02124 83398 22596 63606 10286 20268 30179 40185 333 83540 333 20248 58014 69954;
0137833980999992005110218004-15667-038950FM-12+000599999V0203601N004111050019N0040001N1+02901+02621101571ADDGF105991021051008001041011MA1999999101521MD1999999+0161REMSYN070AAXX  02184 83398 32596 53608 10290 20262 30152 40157 82541 333 58016;
0168833980999992005110300004-15667-038950FM-12+000599999V0200501N001012200019N0010001N1+02541+02491101871ADDGF103991021021008001041001KA1240M+03011MA1999999101811MD1999999+0151REMSYN088AAXX  03004 83398 32594 30502 10254 20249 30181 40187 82240 333 10301 29092 55117 58015;
0156833980999992005110312004-15667-038950FM-12+000599999V0200501N003110450019N0040001N1+02781+02361102061ADDGF106991031051008001041001KA1240N+02021MA1999999102001MD1999999+0111REMSYN076AAXX  03124 83398 32596 60506 10278 20236 30200 40206 83540 333 20202 58011;
0137833980999992005110318004-15667-038950FM-12+000599999V0200501N005110450019N0040001N1+02841+02701101621ADDGF105991031051008001041011MA1999999101561MD1999999+0041REMSYN070AAXX  03184 83398 32596 50510 10284 20270 30156 40162 83541 333 58004;
0168833980999992005110400004-15667-038950FM-12+000599999V0200501N002110450019N0010001N1+02581+02531101851ADDGF106991041051008001021001KA1240M+02961MA1999999101791MD1999999-0021REMSYN088AAXX  04004 83398 32594 60504 10258 20253 30179 40185 84520 333 10296 29091 55105 59002;
0201833980999992005110412004-15667-038950FM-12+000599999V0203601N003110450019N0040001N1+02861+02541101821ADDAA124002091AY161061AY221061GF106991031051008001041001KA1240N+02301MA1999999101761MD1999999-0141MW1021REMSYN088AAXX  04124 83398 21596 63606 10286 20254 30176 40182 70262 83540 333 20230 59014 60024;
0137833980999992005110418004-15667-038950FM-12+000599999V0203601N002112200019N0040001N1+02841+02461101511ADDGF104991031021008001041001MA1999999101461MD1999999-0101REMSYN070AAXX  04184 83398 32596 43604 10284 20246 30146 40151 83240 333 59010;
0168833980999992005110500004-15667-038950FM-12+000599999V0200501N002112200019N0010001N1+02521+02361101651ADDGF103991021021008001041001KA1240M+02951MA1999999101591MD1999999-0201REMSYN088AAXX  05004 83398 32594 30504 10252 20236 30159 40165 82240 333 10295 29086 55119 59020;
0156833980999992005110512004-15667-038950FM-12+000599999V0200501N004110450019N0040001N1+02801+02481101711ADDGF106991041051008001041001KA1240N+01941MA1999999101651MD1999999-0111REMSYN076AAXX  05124 83398 32596 60508 10280 20248 30165 40171 84540 333 20194 59011;
0182833980999992005110518004-15667-038950FM-12+000599999V0200501N003110450019N0040001N1+02741+02541101421ADDAA106000391AY151061AY221061GF105991031051008001041011MA1999999101371MD1999999-0091MW1021REMSYN082AAXX  05184 83398 21596 50506 10274 20254 30137 40142 70252 83541 333 59009 69931;
0168833980999992005110600004-15667-038950FM-12+000599999V0203601N001010450019N0010001N1+02541+02451101581ADDGF105991031051008001021001KA1240M+02901MA1999999101531MD1999999-0061REMSYN088AAXX  06004 83398 32594 53602 10254 20245 30153 40158 83520 333 10290 29091 55081 59006;
0201833980999992005110612004-15667-038950FM-12+000599999V0203601N005110450019N0040001N1+02801+02481101741ADDAA124003091AY161061AY221061GF106991041051008001021001KA1240N+02081MA1999999101691MD1999999+0041MW1021REMSYN088AAXX  06124 83398 21596 63610 10280 20248 30169 40174 70262 84520 333 20208 58004 60034;
0137833980999992005110618004-15667-038950FM-12+000599999V0203601N005112200019N0040001N1+02901+02561101411ADDGF104991021021008001041001MA1999999101361MD1999999-0011REMSYN070AAXX  06184 83398 32596 43610 10290 20256 30136 40141 82240 333 59001;
0168833980999992005110700004-15667-038950FM-12+000599999V0200501N002112200019N0010001N1+02801+02441101581ADDGF103991031011008001001001KA1240M+03021MA1999999101531MD1999999+0001REMSYN088AAXX  07004 83398 32594 30504 10280 20244 30153 40158 83100 333 10302 29088 55104 58000;
0137833980999992005110718004-15667-038950FM-12+000599999V0203601N003110450019N0040001N1+02801+02681101391ADDGF105991031021008001041001MA1999999101341MD1999999-0021REMSYN070AAXX  07184 83398 32596 53606 10280 20268 30134 40139 83240 333 59002;
0156833980999992005110812004-15667-038950FM-12+000599999V0203601N002110450019N0040001N1+02781+02521101521ADDGF106991031051008001041001KA1240N+01981MA1999999101471MD1999999-0081REMSYN076AAXX  08124 83398 32596 63604 10278 20252 30147 40152 83540 333 20198 59008;
0137833980999992005110818004-15667-038950FM-12+000599999V0200501N005110450019N0040001N1+02881+02501101351ADDGF106991031021008001041011MA1999999101301MD1999999-0041REMSYN070AAXX  08184 83398 32596 60510 10288 20250 30130 40135 83241 333 59004;
0168833980999992005110900004-15667-038950FM-12+000599999V0200501N003112200019N0010001N1+02601+02421101461ADDGF104991041051008001001001KA1240M+02991MA1999999101411MD1999999-0061REMSYN088AAXX  09004 83398 32594 40506 10260 20242 30141 40146 84500 333 10299 29087 55108 59006;
0201833980999992005110912004-15667-038950FM-12+000599999V0203601N002110450019N0040001N1+02861+02521101611ADDAA124000591AY151061AY221061GF105991031051008001021001KA1240N+02101MA1999999101551MD1999999+0081MW1021REMSYN088AAXX  09124 83398 21596 53604 10286 20252 30155 40161 70252 83520 333 20210 58008 69964;
0137833980999992005110918004-15667-038950FM-12+000599999V0203601N004110450019N0040001N1+02861+02461101321ADDGF105991031021008001041011MA1999999101271MD1999999-0031REMSYN070AAXX  09184 83398 32596 53608 10286 20246 30127 40132 83241 333 59003;
0168833980999992005111000004-15667-038950FM-12+000599999V0201801N002110450019N0010001N1+02641+02411101551ADDGF106991041051008001021001KA1240M+03021MA1999999101501MD1999999+0091REMSYN088AAXX  10004 83398 32594 61804 10264 20241 30150 40155 84520 333 10302 29084 55104 58009;
0201833980999992005111012004-15667-038950FM-12+000599999V0202301N001010075019N0040001N1+02621+02481101651ADDAA124003091AY161061AY221061GF107991051051008001021001KA1240N+02201MA1999999101591MD1999999+0041MW1021REMSYN088AAXX  10124 83398 21596 72302 10262 20248 30159 40165 70262 85520 333 20220 58004 60034;
0182833980999992005111018004-15667-038950FM-12+000599999V0201801N003110450019N0040001N1+02401+02371101271ADDAA106005191AY161061AY221061GF108991041071008001021999MA1999999101221MD1999999-0051MW1611REMSYN082AAXX  10184 83398 21596 81806 10240 20237 30122 40127 76162 8472/ 333 59005 60051;
0213833980999992005111100004-15667-038950FM-12+000599999V0201801N002110075019N0010001N1+02221+02191101461ADDAA106000591AY151061AY221061GF107991051051008001021001KA1240M+02861MA1999999101411MD1999999-0091MW1021REMSYN100AAXX  11004 83398 21594 71804 10222 20219 30141 40146 70252 85520 333 10286 29097 55009 59009 69941;
0201833980999992005111112004-15667-038950FM-12+000599999V0201801N003110075019N0040001N1+02261+02241101451ADDAA124014091AY161061AY221061GF108991051071008001021999KA1240N+02101MA1999999101401MD1999999-0191MW1611REMSYN088AAXX  11124 83398 21596 81806 10226 20224 30140 40145 76162 8572/ 333 20210 59019 60144;
0182833980999992005111118004-15667-038950FM-12+000599999V0201801N003110075019N0040001N1+02381+02361101181ADDAA106014091AY161061AY281061GF108991051071008001021999MA1999999101131MD1999999-0091MW1521REMSYN082AAXX  11184 83398 21596 81806 10238 20236 30113 40118 75268 8572/ 333 59009 60141;
0213833980999992005111200004-15667-038950FM-12+000599999V0201801N002110075019N0010001N1+02241+02211101411ADDAA106999999AY151061AY221061GF108991051051008001021999KA1240M+02481MA1999999101361MD1999999-0051MW1021REMSYN100AAXX  12004 83398 21594 81804 10224 20221 30136 40141 70252 8552/ 333 10248 29099 55000 59005 69911;
0173833980999992005111212004-15667-038950FM-12+000599999V0202301N004110075019N0040001N1+02421+02281101301ADDAA124014091GF107991051051008001021001KA1240N+02001MA1999999101251MD1999999-0151REMSYN082AAXX  12124 83398 22596 72308 10242 20228 30125 40130 85520 333 20200 59015 60144;
0137833980999992005111218004-15667-038950FM-12+000599999V0202301N002110075019N0040001N1+02661+02351101011ADDGF108991051051008001021999MA1999999100961MD1999999-0151REMSYN070AAXX  12184 83398 32596 82304 10266 20235 30096 40101 8552/ 333 59015;
0168833980999992005111300004-15667-038950FM-12+000599999V0201801N004110075019N0010001N1+02201+02181101301ADDGF108991051051008001021999KA1240M+02821MA1999999101251MD1999999-0111REMSYN088AAXX  13004 83398 32594 81808 10220 20218 30125 40130 8552/ 333 10282 29093 55008 59011;
0201833980999992005111312004-15667-038950FM-12+000599999V0202301N003110450019N0040001N1+02241+02221101491ADDAA124003091AY161061AY221061GF108991041071008001021999KA1240N+02061MA1999999101441MD1999999-0191MW1501REMSYN088AAXX  13124 83398 21596 82306 10224 20222 30144 40149 75062 8472/ 333 20206 59019 60034;
0168833980999992005111400004-15667-038950FM-12+000599999V0201801N002110075019N0010001N1+02201+02201101461ADDGF108991051051008001021999KA1240M+02491MA1999999101411MD1999999+0161REMSYN088AAXX  14004 83398 32594 81804 10220 20220 30141 40146 8552/ 333 10249 29098 55000 58016;
0201833980999992005111412004-15667-038950FM-12+000599999V0202301N001010075019N0040001N1+02321+02291101451ADDAA124006191AY161061AY221061GF108991051051008001021999KA1240N+02101MA1999999101401MD1999999-0041MW1021REMSYN088AAXX  14124 83398 21596 82302 10232 20229 30140 40145 70262 8552/ 333 20210 59004 60064;
0182833980999992005111418004-15667-038950FM-12+000599999V0201401N003110075019N0040001N1+02431+02371101161ADDAA106000591AY151061AY221061GF108991051051008001021999MA1999999101111MD1999999-0091MW1021REMSYN082AAXX  14184 83398 21596 81406 10243 20237 30111 40116 70252 8552/ 333 59009 69951;
0213833980999992005111500004-15667-038950FM-12+000599999V0201401N001010075019N0010001N1+02241+02171101431ADDAA106007991AY161061AY221061GF108991051071008001021999KA1240M+02771MA1999999101381MD1999999-0031MW1611REMSYN100AAXX  15004 83398 21594 81402 10224 20217 30138 40143 76162 8572/ 333 10277 29097 55008 59003 60081;
0201833980999992005111512004-15667-038950FM-12+000599999V0201801N002110075019N0040001N1+02461+02431101411ADDAA124010991AY161061AY221061GF108991051071008001021999KA1240N+02101MA1999999101361MD1999999-0041MW1631REMSYN088AAXX  15124 83398 21596 81804 10246 20243 30136 40141 76362 8572/ 333 20210 59004 60114;
0182833980999992005111518004-15667-038950FM-12+000599999V0200501N003610075019N0040001N1+02361+02221101331ADDAA106006191AY161061AY221061GF108991051071008001021999MA1999999101281MD1999999+0171MW1511REMSYN082AAXX  15184 83398 21596 80507 10236 20222 30128 40133 75162 8572/ 333 58017 60061;
0213833980999992005111600004-15667-038950FM-12+000599999V0203601N002110075019N0010001N1+02301+02141101591ADDAA106001091AY151061AY221061GF108991051051008001021999KA1240M+02651MA1999999101541MD1999999+0161MW1021REMSYN100AAXX  16004 83398 21594 83604 10230 20214 30154 40159 70252 8552/ 333 10265 29093 55000 58016 60011;
0201833980999992005111612004-15667-038950FM-12+000599999V0200501N001010450019N0040001N1+02761+02361101541ADDAA124007991AY161061AY221061GF106991041051008001021001KA1240N+02121MA1999999101491MD1999999+0131MW1021REMSYN088AAXX  16124 83398 21596 60502 10276 20236 30149 40154 70262 84520 333 20212 58013 60084;
0137833980999992005111618004-15667-038950FM-12+000599999V0200501N001010075019N0040001N1+02551+02221101341ADDGF108991051051008001021999MA1999999101291MD1999999+0011REMSYN070AAXX  16184 83398 32596 80502 10255 20222 30129 40134 8552/ 333 58001;
0232833980999992005111700004-15667-038950FM-12+000599999V0209999C000010075019N0010001N1+02361+02281101421ADDAA106000091AY151061AY221061GF108991051051008001021999KA1240M+02901MA1999999101371MD1999999-0171MW1021REMSYN100AAXX  17004 83398 21594 80000 10236 20228 30137 40142 70252 8552/ 333 10290 29088 55028 59017 69921;EQDQ01  00002PRCP06
0192833980999992005111712004-15667-038950FM-12+000599999V0203601N005110450019N0040001N1+02821+02361101411ADDAA124000091GF106991041051008001021001KA1240N+02161MA1999999101361MD1999999-0131REMSYN082AAXX  17124 83398 22596 63610 10282 20236 30136 40141 84520 333 20216 59013 69924;EQDQ01  00002PRCP24
0137833980999992005111718004-15667-038950FM-12+000599999V0203601N005112200019N0040001N1+02821+02311101101ADDGF103991021021008001041001MA1999999101051MD1999999-0241REMSYN070AAXX  17184 83398 32596 33610 10282 20231 30105 40110 82240 333 59024;
0168833980999992005111800004-15667-038950FM-12+000599999V0203601N004110450019N0010001N1+02581+02331101211ADDGF107991041051008001021001KA1240M+02951MA1999999101161MD1999999-0211REMSYN088AAXX  18004 83398 32594 73608 10258 20233 30116 40121 84520 333 10295 29081 55104 59021;
0156833980999992005111812004-15667-038950FM-12+000599999V0203601N003110450019N0040001N1+02861+02281101371ADDGF106991041051008001041001KA1240N+02201MA1999999101321MD1999999-0041REMSYN076AAXX  18124 83398 32596 63606 10286 20228 30132 40137 84540 333 20220 59004;
0137833980999992005111818004-15667-038950FM-12+000599999V0200501N007210450019N0040001N1+02841+02261101181ADDGF105991031021008001041001MA1999999101131MD1999999+0081REMSYN070AAXX  18184 83398 32596 50514 10284 20226 30113 40118 83240 333 58008;
0168833980999992005111900004-15667-038950FM-12+000599999V0200501N002110450019N0010001N1+02561+02251101371ADDGF107991041051008001041001KA1240M+02961MA1999999101321MD1999999+0161REMSYN088AAXX  19004 83398 32594 70504 10256 20225 30132 40137 84540 333 10296 29077 55112 58016;
0156833980999992005111912004-15667-038950FM-12+000599999V0203601N003110450019N0040001N1+02881+02351101471ADDGF106991031021008001041011KA1240N+02501MA1999999101421MD1999999+0101REMSYN076AAXX  19124 83398 32596 63606 10288 20235 30142 40147 83241 333 20250 58010;
0137833980999992005111918004-15667-038950FM-12+000599999V0203601N006212200019N0040001N1+02841+02331101211ADDGF102991011011008001041001MA1999999101161MD1999999+0031REMSYN070AAXX  19184 83398 32596 23612 10284 20233 30116 40121 81140 333 58003;
0168833980999992005112000004-15667-038950FM-12+000599999V0203601N003112200019N0010001N1+02541+02231101441ADDGF104991021021008001041001KA1240M+02981MA1999999101391MD1999999+0071REMSYN088AAXX  20004 83398 32594 43606 10254 20223 30139 40144 82240 333 10298 29078 55117 58007;
0156833980999992005112012004-15667-038950FM-12+000599999V0203601N006710450019N0040001N1+02861+02371101491ADDGF106991041051008001041001KA1240N+02141MA1999999101441MD1999999+0021REMSYN076AAXX  20124 83398 32596 63613 10286 20237 30144 40149 84540 333 20214 58002;
0137833980999992005112018004-15667-038950FM-12+000599999V0203601N006212200019N0040001N1+02841+02291101031ADDGF102991021001008001041001MA1999999100981MD1999999-0181REMSYN070AAXX  20184 83398 32596 23612 10284 20229 30098 40103 82040 333 59018;
0168833980999992005112100004-15667-038950FM-12+000599999V0203601N002112200019N0010001N1+02551+02301101151ADDGF102991011011008001041001KA1240M+03011MA1999999101101MD1999999-0291REMSYN088AAXX  21004 83398 32594 23604 10255 20230 30110 40115 81140 333 10301 29080 55108 59029;
0156833980999992005112112004-15667-038950FM-12+000599999V0203601N002110450019N0040001N1+02801+02341101291ADDGF107991041051008001021001KA1240N+02141MA1999999101241MD1999999-0201REMSYN076AAXX  21124 83398 32596 73604 10280 20234 30124 40129 84520 333 20214 59020;
0137833980999992005112118004-15667-038950FM-12+000599999V0203601N003110450019N0040001N1+02761+02381101121ADDGF107991041051008001021001MA1999999101071MD1999999+0091REMSYN070AAXX  21184 83398 32596 73606 10276 20238 30107 40112 84520 333 58009;
0168833980999992005112200004-15667-038950FM-12+000599999V0201401N002110450019N0010001N1+02481+02381101391ADDGF107991041051008001021001KA1240M+03021MA1999999101341MD1999999+0241REMSYN088AAXX  22004 83398 32594 71404 10248 20238 30134 40139 84520 333 10302 29086 55019 58024;
0201833980999992005112212004-15667-038950FM-12+000599999V0201801N003110075019N0040001N1+02541+02401101381ADDAA124000391AY151061AY221061GF108991051051008001021999KA1240N+02261MA1999999101331MD1999999+0091MW1021REMSYN088AAXX  22124 83398 21596 81806 10254 20240 30133 40138 70252 8552/ 333 20226 58009 69934;
0137833980999992005112218004-15667-038950FM-12+000599999V0201401N003110075019N0040001N1+02701+02331101131ADDGF108991051051008001021999MA1999999101081MD1999999+0011REMSYN070AAXX  22184 83398 32596 81406 10270 20233 30108 40113 8552/ 333 58001;
0168833980999992005112300004-15667-038950FM-12+000599999V0209999C000010450019N0010001N1+02381+02221101281ADDGF106991041051008001021001KA1240M+02941MA1999999101231MD1999999-0111REMSYN088AAXX  23004 83398 32594 60000 10238 20222 30123 40128 84520 333 10294 29089 55006 59011;
0201833980999992005112312004-15667-038950FM-12+000599999V0209999C000010075019N0040001N1+02581+02511101401ADDAA124000591AY161061AY221061GF108991051051008001021999KA1240N+02221MA1999999101351MD1999999+0021MW1021REMSYN088AAXX  23124 83398 21596 80000 10258 20251 30135 40140 70262 8552/ 333 20222 58002 69954;
0182833980999992005112318004-15667-038950FM-12+000599999V0209999C000010450019N0040001N1+02401+02311101291ADDAA106007991AY161061AY221061GF108991041071008001021999MA1999999101241MD1999999+0161MW1611REMSYN082AAXX  23184 83398 21596 80000 10240 20231 30124 40129 76162 8472/ 333 58016 60081;
0213833980999992005112400004-15667-038950FM-12+000599999V0200501N002110075019N0010001N1+02441+02351101431ADDAA106002091AY161061AY221061GF108991051071008001021999KA1240M+02801MA1999999101381MD1999999+0131MW1511REMSYN100AAXX  24004 83398 21594 80504 10244 20235 30138 40143 75162 8572/ 333 10280 29095 55000 58013 60021;
0201833980999992005112412004-15667-038950FM-12+000599999V0200501N002110075019N0040001N1+02201+02171101621ADDAA124073991AY161061AY221061GF108991051071008001021999KA1240N+02121MA1999999101561MD1999999+0211MW1631REMSYN088AAXX  24124 83398 21596 80504 10220 20217 30156 40162 76362 8572/ 333 20212 58021 60744;
0182833980999992005112418004-15667-038950FM-12+000599999V0209999C000010075019N0040001N1+02221+02151101451ADDAA106011991AY161061AY281061GF108991051071008001021999MA1999999101401MD1999999+0161MW1631REMSYN082AAXX  24184 83398 21596 80000 10222 20215 30140 40145 76368 8572/ 333 58016 60121;
0213833980999992005112500004-15667-038950FM-12+000599999V0209999C000010075019N0010001N1+02131+02131101471ADDAA106007991AY161061AY221061GF108991051071008001021999KA1240M+02501MA1999999101421MD1999999+0041MW1611REMSYN100AAXX  25004 83398 21594 80000 10213 20213 30142 40147 76162 8572/ 333 10250 29099 55000 58004 60081;
0201833980999992005112512004-15667-038950FM-12+000599999V0200501N002110075019N0040001N1+02341+02221101411ADDAA124024991AY161061AY221061GF108991051051008001021999KA1240N+02041MA1999999101361MD1999999-0201MW1021REMSYN088AAXX  25124 83398 21596 80504 10234 20222 30136 40141 70262 8552/ 333 20204 59020 60254;
0182833980999992005112518004-15667-038950FM-12+000599999V0203601N002110450019N0040001N1+02241+02211101201ADDAA106004191AY161061AY221061GF108991041071008001021999MA1999999101151MD1999999-0251MW1601REMSYN082AAXX  25184 83398 21596 83604 10224 20221 30115 40120 76062 8472/ 333 59025 60041;
0168833980999992005112600004-15667-038950FM-12+000599999V0209999C000010075019N0010001N1+02161+02081101311ADDGF108991051051008001021999KA1240M+02451MA1999999101261MD1999999-0161REMSYN088AAXX  26004 83398 32594 80000 10216 20208 30126 40131 8552/ 333 10245 29095 55000 59016;
0173833980999992005112612004-15667-038950FM-12+000599999V0203601N004110075019N0040001N1+02681+02371101161ADDAA124004191GF108991051051008001021999KA1240N+02121MA1999999101111MD1999999-0251REMSYN082AAXX  26124 83398 22596 83608 10268 20237 30111 40116 8552/ 333 20212 59025 60044;
0182833980999992005112618004-15667-038950FM-12+000599999V0203601N002110075019N0040001N1+02421+02301100891ADDAA106004191AY161061AY221061GF108991051051008001021999MA1999999100841MD1999999-0311MW1021REMSYN082AAXX  26184 83398 21596 83604 10242 20230 30084 40089 70262 8552/ 333 59031 60041;
0168833980999992005112700004-15667-038950FM-12+000599999V0209999C000010075019N0010001N1+02341+01001101101ADDGF108991051051008001021999KA1240M+02761MA1999999101051MD1999999-0261REMSYN088AAXX  27004 83398 32594 80000 10234 20100 30105 40110 8552/ 333 10276 29091 55007 59026;
0182833980999992005112718004-15667-038950FM-12+000599999V0203601N002110450019N0040001N1+02541+02541100831ADDAA106004191AY161061AY221061GF108991041051008001021999MA1999999100831MD1999999-0011MW1021REMSYN082AAXX  27184 83398 21596 83604 10254 20254 30083 40083 70262 8452/ 333 59001 60041;
0213833980999992005112800004-15667-038950FM-12+000599999V0209999C000010450019N0010001N1+02301+02301101101ADDAA106007991AY161061AY221061GF108991041071008001021999KA1240M+02651MA1999999101051MD1999999+0051MW1601REMSYN100AAXX  28004 83398 21594 80000 10230 20230 30105 40110 76062 8472/ 333 10265 29099 55000 58005 60081;
0201833980999992005112812004-15667-038950FM-12+000599999V0200501N003110075019N0040001N1+02501+02311101321ADDAA124054191AY161061AY221061GF108991051051008001021999KA1240N+02161MA1999999101271MD1999999+0161MW1011REMSYN088AAXX  28124 83398 21596 80506 10250 20231 30127 40132 70162 8552/ 333 20216 58016 60544;
0182833980999992005112818004-15667-038950FM-12+000599999V0203601N002110075019N0040001N1+02581+02441101181ADDAA106018091AY161061AY221061GF108991051051008001021999MA1999999101131MD1999999+0081MW1021REMSYN082AAXX  28184 83398 21596 83604 10258 20244 30113 40118 70262 8552/ 333 58008 60181;
0213833980999992005112900004-15667-038950FM-12+000599999V0200501N002110075019N0010001N1+02521+02381101521ADDAA106005191AY161061AY221061GF108991051071008001021999KA1240M+02681MA1999999101471MD1999999+0421MW1611REMSYN100AAXX  29004 83398 21594 80504 10252 20238 30147 40152 76162 8572/ 333 10268 29091 55000 58042 60051;
0201833980999992005112912004-15667-038950FM-12+000599999V0200901N003110075019N0040001N1+02741+02431101571ADDAA124023191AY151061AY221061GF108991051051008001021999KA1240N+02281MA1999999101521MD1999999+0251MW1021REMSYN088AAXX  29124 83398 21596 80906 10274 20243 30152 40157 70252 8552/ 333 20228 58025 60234;
0201833980999992005112918004-15667-038950FM-12+000599999V0200501N002610075019N0010001N1+02671+02381101451ADDAA106000091AY151061AY221061GF108991051051008001021999MA1999999101401MD1999999+0271MW1021REMSYN082AAXX  29184 83398 21594 80505 10267 20238 30140 40145 70252 8552/ 333 58027 69911;EQDQ01  00002PRCP06
0168833980999992005113000004-15667-038950FM-12+000599999V0209999C000010450019N0010001N1+02491+02311101581ADDGF107991041051008001021001KA1240M+02821MA1999999101531MD1999999+0061REMSYN088AAXX  30004 83398 32594 70000 10249 20231 30153 40158 84520 333 10282 29087 55000 58006;
0201833980999992005113012004-15667-038950FM-12+000599999V0200501N002110075019N0040001N1+02621+02481101621ADDAA124005191AY161061AY221061GF108991051051008001021999KA1240N+02221MA1999999101561MD1999999+0041MW1501REMSYN088AAXX  30124 83398 21596 80504 10262 20248 30156 40162 75062 8552/ 333 20222 58004 60054;
0137833980999992005113018004-15667-038950FM-12+000599999V0203601N002110450019N0040001N1+02871+02471101351ADDGF106991041051008001041001MA1999999101301MD1999999-0101REMSYN070AAXX  30184 83398 32596 63604 10287 20247 30130 40135 84540 333 59010;
0213833980999992005120100004-15667-038950FM-12+000599999V0200501N001012200019N0010001N1+02541+02381101501ADDAA106000891AY151061AY221061GF104991021021008001041001KA1240M+02911MA1999999101451MD1999999-0081MW1021REMSYN100AAXX  01004 83398 21594 40502 10254 20238 30145 40150 70252 82240 333 10291 29088 55040 59008 69981;
0173833980999992005120112004-15667-038950FM-12+000599999V0203601N002110450019N0040001N1+02801+02401101461ADDAA124000891GF106991041051008001021001KA1240N+02241MA1999999101411MD1999999-0151REMSYN082AAXX  01124 83398 22596 63604 10280 20240 30141 40146 84520 333 20224 59015 69984;
0137833980999992005120118004-15667-038950FM-12+000599999V0200501N006212200019N0040001N1+02831+02321101171ADDGF102991011011008001041001MA1999999101121MD1999999-0181REMSYN070AAXX  01184 83398 32596 20512 10283 20232 30112 40117 81140 333 59018;
0168833980999992005120200004-15667-038950FM-12+000599999V0200501N000510450019N0010001N1+02581+02331101251ADDGF106991041051008001041001KA1240M+02921MA1999999101201MD1999999-0251REMSYN088AAXX  02004 83398 32594 60501 10258 20233 30120 40125 84540 333 10292 29081 55114 59025;
0156833980999992005120212004-15667-038950FM-12+000599999V0209999C000010075019N0040001N1+02681+02481101151ADDGF107991051051008001021001KA1240N+02361MA1999999101101MD1999999-0311REMSYN076AAXX  02124 83398 32596 70000 10268 20248 30110 40115 85520 333 20236 59031;
0137833980999992005120218004-15667-038950FM-12+000599999V0203601N004612200019N0040001N1+02841+02351100841ADDGF103991011011008001041011MA1999999100791MD1999999-0331REMSYN070AAXX  02184 83398 32596 33609 10284 20235 30079 40084 81141 333 59033;
0168833980999992005120300004-15667-038950FM-12+000599999V0203601N003612200019N0010001N1+02551+02371101011ADDGF103991021011008001041001KA1240M+02971MA1999999100961MD1999999-0241REMSYN088AAXX  03004 83398 32594 33607 10255 20237 30096 40101 82140 333 10297 29086 55083 59024;
0156833980999992005120312004-15667-038950FM-12+000599999V0202701N003110450019N0040001N1+02781+02341101081ADDGF107991041051008001021001KA1240N+02291MA1999999101031MD1999999-0071REMSYN076AAXX  03124 83398 32596 72706 10278 20234 30103 40108 84520 333 20229 59007;
0137833980999992005120318004-15667-038950FM-12+000599999V0200501N002110075019N0040001N1+02731+02381100811ADDGF108991051051008001021999MA1999999100761MD1999999-0031REMSYN070AAXX  03184 83398 32596 80504 10273 20238 30076 40081 8552/ 333 59003;
0213833980999992005120400004-15667-038950FM-12+000599999V0201801N007210075019N0010001N1+02311+02141101391ADDAA106013091AY191061AY261061GF108991051071008001021999KA1240M+02991MA1999999101341MD1999999+0381MW1021REMSYN100AAXX  04004 83398 21594 81814 10231 20214 30134 40139 70296 8572/ 333 10299 29085 55011 58038 60131;
0201833980999992005120412004-15667-038950FM-12+000599999V0201801N004110075019N0040001N1+02371+02001101441ADDAA124013091AY151061AY221061GF108991051051008001021999KA1240N+02091MA1999999101391MD1999999+0361MW1021REMSYN088AAXX  04124 83398 21596 81808 10237 20200 30139 40144 70252 8552/ 333 20209 58036 60134;
0137833980999992005120418004-15667-038950FM-12+000599999V0201401N007210075019N0040001N1+02581+01771101201ADDGF108991051051008001021999MA1999999101151MD1999999+0391REMSYN070AAXX  04184 83398 32596 81414 10258 20177 30115 40120 8552/ 333 58039;
0168833980999992005120500004-15667-038950FM-12+000599999V0201801N001010450019N0010001N1+02241+01901101351ADDGF107991041051008001021001KA1240M+02801MA1999999101301MD1999999-0041REMSYN088AAXX  05004 83398 32594 71802 10224 20190 30130 40135 84520 333 10280 29078 55006 59004;
0156833980999992005120512004-15667-038950FM-12+000599999V0201401N003110450019N0040001N1+02681+01991101341ADDGF107991041051008001021001KA1240N+02101MA1999999101291MD1999999-0101REMSYN076AAXX  05124 83398 32596 71406 10268 20199 30129 40134 84520 333 20210 59010;
0137833980999992005120518004-15667-038950FM-12+000599999V0200901N003110075019N0040001N1+02581+01991101041ADDGF108991051051008001021999MA1999999100991MD1999999-0161REMSYN070AAXX  05184 83398 32596 80906 10258 20199 30099 40104 8552/ 333 59016;
0168833980999992005120600004-15667-038950FM-12+000599999V0200901N001010075019N0010001N1+02481+02051101031ADDGF108991051051008001021999KA1240M+02781MA1999999100981MD1999999-0321REMSYN088AAXX  06004 83398 32594 80902 10248 20205 30098 40103 8552/ 333 10278 29073 55029 59032;
0156833980999992005120612004-15667-038950FM-12+000599999V0203601N002110450019N0040001N1+02761+02301100931ADDGF107991041051008001021001KA1240N+02081MA1999999100881MD1999999-0411REMSYN076AAXX  06124 83398 32596 73604 10276 20230 30088 40093 84520 333 20208 59041;
0137833980999992005120618004-15667-038950FM-12+000599999V0203601N005110450019N0040001N1+02781+02321100551ADDGF106991041051008001021001MA1999999100501MD1999999-0491REMSYN070AAXX  06184 83398 32596 63610 10278 20232 30050 40055 84520 333 59049;
0137833980999992005120718004-15667-038950FM-12+000599999V0203601N004110450019N0040001N1+02961+02491101511ADDGF107991041051008001021001MA1999999101461MD1999999-0041REMSYN070AAXX  07184 83398 32596 73608 10296 20249 30146 40151 84520 333 59004;
0168833980999992005120800004-15667-038950FM-12+000599999V0203601N001012200019N0010001N1+02641+02541100861ADDGF102991011011008001041001KA1240M+03161MA1999999100811MD1999999+0081REMSYN088AAXX  08004 83398 32594 23602 10264 20254 30081 40086 81140 333 10316 29086 55038 58008;
0201833980999992005120812004-15667-038950FM-12+000599999V0201801N004110075019N0040001N1+02421+02391101231ADDAA124031091AY191061AY261061GF108991051051008001021999KA1240N+02301MA1999999101181MD1999999+0361MW1501REMSYN088AAXX  08124 83398 21596 81808 10242 20239 30118 40123 75096 8552/ 333 20230 58036 60314;
0182833980999992005120818004-15667-038950FM-12+000599999V0201401N002110075019N0040001N1+02561+02471101151ADDAA106002091AY191061AY261061GF108991051051008001021999MA1999999101101MD1999999+0641MW1021REMSYN082AAXX  08184 83398 21596 81404 10256 20247 30110 40115 70296 8552/ 333 58064 60021;
0213833980999992005120900004-15667-038950FM-12+000599999V0201801N001510075019N0010001N1+02441+02421101441ADDAA106001091AY151061AY221061GF108991051071008001021999KA1240M+02741MA1999999101391MD1999999+0581MW1511REMSYN100AAXX  09004 83398 21594 81803 10244 20242 30139 40144 75152 8572/ 333 10274 29098 55001 58058 69991;
0201833980999992005120912004-15667-038950FM-12+000599999V0209999C000010450019N0040001N1+02441+02391101551ADDAA124016091AY191061AY261061GF108991041071008001021999KA1240N+02241MA1999999101501MD1999999+0321MW1601REMSYN088AAXX  09124 83398 21596 80000 10244 20239 30150 40155 76096 8472/ 333 20224 58032 60164;
0182833980999992005120918004-15667-038950FM-12+000599999V0200501N003110075019N0040001N1+02681+02521101301ADDAA106010991AY161061AY221061GF108991051071008001021999MA1999999101351MD1999999+0151MW1021REMSYN082AAXX  09184 83398 21596 80506 10268 20252 30135 40130 70262 8572/ 333 58015 60111;
0168833980999992005121000004-15667-038950FM-12+000599999V0200501N001010075019N0010001N1+02571+02471101471ADDGF108991051051008001021999KA1240M+02781MA1999999101421MD1999999+0031REMSYN088AAXX  10004 83398 32594 80502 10257 20247 30142 40147 8552/ 333 10278 29094 55001 58003;
0173833980999992005121012004-15667-038950FM-12+000599999V0203601N001010450019N0040001N1+02781+02361101441ADDAA124011991GF106991041051008001021001KA1240N+02221MA1999999101391MD1999999-0111REMSYN082AAXX  10124 83398 22596 63602 10278 20236 30139 40144 84520 333 20222 59011 60124;
0137833980999992005121018004-15667-038950FM-12+000599999V0200501N003110450019N0040001N1+02821+02601102111ADDGF106991041051008001021001MA1999999101161MD1999999-0091REMSYN070AAXX  10184 83398 32596 60506 10282 20260 30116 40211 84520 333 59009;
0203833980999992005121100004-15667-038950FM-12+000599999V0203601N002110450019N0010001N1+02561+02421101222ADDGF105991021051008001041001KA1240M+99999MA1999999101171MD1999999-0251REMSYN088AAXX  11004 83398 32594 53604 10256 20242 30117 40122 82540 333 10250 29088 55080 59025;EQDQ01+101223APOSLPQ02 +02502ATMX  
0156833980999992005121112004-15667-038950FM-12+000599999V0200501N002110450019N0040001N1+02841+02381101261ADDGF106991041051008001021001KA1240N+02241MA1999999101211MD1999999-0181REMSYN076AAXX  11124 83398 32596 60504 10284 20238 30121 40126 84520 333 20224 59018;
0137833980999992005121118004-15667-038950FM-12+000599999V0200501N004110450019N0040001N1+02841+02351101021ADDGF105991031021008001041001MA1999999100971MD1999999-0191REMSYN070AAXX  11184 83398 32596 50508 10284 20235 30097 40102 83240 333 59019;
0168833980999992005121200004-15667-038950FM-12+000599999V0200501N003112200019N0010001N1+02601+02311101251ADDGF103991031021008001001001KA1240M+02961MA1999999101201MD1999999-0071REMSYN088AAXX  12004 83398 32594 30506 10260 20231 30120 40125 83200 333 10296 29080 55111 59007;
0220833980999992005121212004-15667-038950FM-12+000599999V0203601N006210450019N0040001N1+02841+02401101351ADDAA124000091AY161061AY221061GF106991041051008001021001KA1240N+02241MA1999999101291MD1999999+0081MW1021REMSYN088AAXX  12124 83398 21596 63612 10284 20240 30129 40135 70262 84520 333 20224 58008 69924;EQDQ01  00002PRCP24
0137833980999992005121218004-15667-038950FM-12+000599999V0200501N004110450019N0040001N1+02761+02321101111ADDGF106991041051008001021001MA1999999101061MD1999999+0091REMSYN070AAXX  12184 83398 32596 60508 10276 20232 30106 40111 84520 333 58009;
0168833980999992005121300004-15667-038950FM-12+000599999V0209999C000010075019N0010001N1+02581+02421101281ADDGF108991051051008001021999KA1240M+02981MA1999999101231MD1999999+0031REMSYN088AAXX  13004 83398 32594 80000 10258 20242 30123 40128 8552/ 333 10298 29084 55056 58003;
0201833980999992005121312004-15667-038950FM-12+000599999V0200501N004110075019N0040001N1+02841+02401101341ADDAA124000591AY161061AY221061GF108991051051008001021999KA1240N+02321MA1999999101291MD1999999+0001MW1021REMSYN088AAXX  13124 83398 21596 80508 10284 20240 30129 40134 70262 8552/ 333 20232 58000 69944;
0137833980999992005121318004-15667-038950FM-12+000599999V0200501N002610450019N0040001N1+02841+02381101101ADDGF106991031021008001041011MA1999999101051MD1999999-0011REMSYN070AAXX  13184 83398 32596 60505 10284 20238 30105 40110 83241 333 59001;
0168833980999992005121400004-15667-038950FM-12+000599999V0200901N002110450019N0010001N1+02661+02391101291ADDGF107991041051008001021001KA1240M+02951MA1999999101231MD1999999+0001REMSYN088AAXX  14004 83398 32594 70904 10266 20239 30123 40129 84520 333 10295 29081 55033 58000;
0201833980999992005121412004-15667-038950FM-12+000599999V0209999C000010075019N0040001N1+02481+02431101311ADDAA124008991AY161061AY221061GF108991051071008001021999KA1240N+02241MA1999999101261MD1999999-0031MW1621REMSYN088AAXX  14124 83398 21596 80000 10248 20243 30126 40131 76262 8572/ 333 20224 59003 60094;
0137833980999992005121418004-15667-038950FM-12+000599999V0200501N002110450019N0040001N1+02791+02281101041ADDGF107991041051008001021001MA1999999100991MD1999999-0061REMSYN070AAXX  14184 83398 32596 70504 10279 20228 30099 40104 84520 333 59006;
0168833980999992005121500004-15667-038950FM-12+000599999V0200501N002110450019N0010001N1+02581+02351101201ADDGF107991041051008001021001KA1240M+02871MA1999999101151MD1999999-0081REMSYN088AAXX  15004 83398 32594 70504 10258 20235 30115 40120 84520 333 10287 29086 55013 59008;
0182833980999992005121518004-15667-038950FM-12+000599999V0203601N004110450019N0040001N1+02761+02401101061ADDAA106000391AY151061AY211061GF107991041051008001021001MA1999999101011MD1999999+0021MW1021REMSYN082AAXX  15184 83398 21596 73608 10276 20240 30101 40106 70251 84520 333 58002 69931;
0168833980999992005121600004-15667-038950FM-12+000599999V0209999C000010450019N0010001N1+02581+02441101341ADDGF105991031051008001021001KA1240M+02961MA1999999101291MD1999999+0061REMSYN088AAXX  16004 83398 32594 50000 10258 20244 30129 40134 83520 333 10296 29087 55018 58006;
0173833980999992005121612004-15667-038950FM-12+000599999V0203601N003110450019N0040001N1+02881+02521101341ADDAA124000391GF106991041051008001021001KA1240N+02321MA1999999101291MD1999999+0181REMSYN082AAXX  16124 83398 22596 63606 10288 20252 30129 40134 84520 333 20232 58018 69934;
0137833980999992005121618004-15667-038950FM-12+000599999V0200501N004110450019N0040001N1+02881+02441101191ADDGF105991031021008001041001MA1999999101141MD1999999+0131REMSYN070AAXX  16184 83398 32596 50508 10288 20244 30114 40119 83240 333 58013;
0168833980999992005121700004-15667-038950FM-12+000599999V0203601N002110075019N0010001N1+02591+02381101421ADDGF108991051051008001021999KA1240M+03011MA1999999101371MD1999999+0081REMSYN088AAXX  17004 83398 32594 83604 10259 20238 30137 40142 8552/ 333 10301 29084 55047 58008;
0137833980999992005121718004-15667-038950FM-12+000599999V0203601N001010450019N0040001N1+02841+02381101401ADDGF106991031041008001021001MA1999999101351MD1999999+0211REMSYN070AAXX  17184 83398 32596 63602 10284 20238 30135 40140 83420 333 58021;
0168833980999992005121800004-15667-038950FM-12+000599999V0200501N001012200019N0010001N1+02571+02361101591ADDGF104991021021008001041001KA1240M+03011MA1999999101541MD1999999+0171REMSYN088AAXX  18004 83398 32594 40502 10257 20236 30154 40159 82240 333 10301 29083 55085 58017;
0156833980999992005121812004-15667-038950FM-12+000599999V0200501N004110450019N0040001N1+02821+02441101661ADDGF106991031051008001021011KA1240N+02201MA1999999101601MD1999999+0051REMSYN076AAXX  18124 83398 32596 60508 10282 20244 30160 40166 83521 333 20220 58005;
0137833980999992005121818004-15667-038950FM-12+000599999V0200501N003610450019N0040001N1+02821+02331101461ADDGF107991041051008001021001MA1999999101411MD1999999+0061REMSYN070AAXX  18184 83398 32596 70507 10282 20233 30141 40146 84520 333 58006;
0168833980999992005121900004-15667-038950FM-12+000599999V0203601N002112200019N0010001N1+02601+02401101581ADDGF104991021051008001041001KA1240M+03001MA1999999101531MD1999999-0011REMSYN088AAXX  19004 83398 32594 43604 10260 20240 30153 40158 82540 333 10300 29083 55069 59001;
0156833980999992005121912004-15667-038950FM-12+000599999V0200501N002110450019N0040001N1+02881+02521101651ADDGF106991041051008001041001KA1240N+02241MA1999999101591MD1999999-0011REMSYN076AAXX  19124 83398 32596 60504 10288 20252 30159 40165 84540 333 20224 59001;
0137833980999992005121918004-15667-038950FM-12+000599999V0200501N005110450019N0040001N1+02901+02431101411ADDGF105991031021008001041001MA1999999101361MD1999999-0051REMSYN070AAXX  19184 83398 32596 50510 10290 20243 30136 40141 83240 333 59005;
0168833980999992005122000004-15667-038950FM-12+000599999V0203601N002112200019N0010001N1+02661+02351101561ADDGF104991031021008001041001KA1240M+03021MA1999999101511MD1999999-0021REMSYN088AAXX  20004 83398 32594 43604 10266 20235 30151 40156 83240 333 10302 29081 55108 59002;
0137833980999992005122018004-15667-038950FM-12+000599999V0203601N003112200019N0040001N1+02901+02371101501ADDGF104991031011008001041001MA1999999101451MD1999999+0091REMSYN070AAXX  20184 83398 32596 43606 10290 20237 30145 40150 83140 333 58009;
0168833980999992005122100004-15667-038950FM-12+000599999V0209999C000012200019N0010001N1+02521+02341101611ADDGF103991031011008001001001KA1240M+03011MA1999999101551MD1999999+0041REMSYN088AAXX  21004 83398 32594 30000 10252 20234 30155 40161 83100 333 10301 29080 55119 58004;
0156833980999992005122112004-15667-038950FM-12+000599999V0200501N004110450019N0040001N1+02861+02391101681ADDGF106991041051008001041001KA1240N+02101MA1999999101621MD1999999-0041REMSYN076AAXX  21124 83398 32596 60508 10286 20239 30162 40168 84540 333 20210 59004;
0137833980999992005122118004-15667-038950FM-12+000599999V0200501N002110450019N0040001N1+02921+02271101421ADDGF105991031021008001041001MA1999999101371MD1999999-0081REMSYN070AAXX  21184 83398 32596 50504 10292 20227 30137 40142 83240 333 59008;
0168833980999992005122200004-15667-038950FM-12+000599999V0209999C000012200019N0010001N1+02621+02251101591ADDGF104991021011008001041001KA1240M+03011MA1999999101541MD1999999-0011REMSYN088AAXX  22004 83398 32594 40000 10262 20225 30154 40159 82140 333 10301 29076 55111 59001;
0156833980999992005122212004-15667-038950FM-12+000599999V0203601N002110075019N0040001N1+02861+02371101661ADDGF105991051051008001001001KA1240N+02021MA1999999101611MD1999999-0011REMSYN076AAXX  22124 83398 32596 53604 10286 20237 30161 40166 85500 333 20202 59001;
0137833980999992005122218004-15667-038950FM-12+000599999V0200501N005112200019N0040001N1+02901+02171101421ADDGF103991031021008001001001MA1999999101371MD1999999+0001REMSYN070AAXX  22184 83398 32596 30510 10290 20217 30137 40142 83200 333 58000;
0168833980999992005122300004-15667-038950FM-12+000599999V0200501N004112200019N0010001N1+02641+02251101591ADDGF103991021021008001041001KA1240M+03011MA1999999101541MD1999999+0001REMSYN088AAXX  23004 83398 32594 30508 10264 20225 30154 40159 82240 333 10301 29075 55108 58000;
0201833980999992005122312004-15667-038950FM-12+000599999V0209999C000010450019N0040001N1+02801+02421101641ADDAA124004191AY161061AY221061GF105991041051008001041001KA1240N+02241MA1999999101581MD1999999-0031MW1021REMSYN088AAXX  23124 83398 21596 50000 10280 20242 30158 40164 70262 84540 333 20224 59003 60044;
0137833980999992005122318004-15667-038950FM-12+000599999V0200901N005110075019N0040001N1+02881+02301101381ADDGF106991051051008001041011MA1999999101331MD1999999-0041REMSYN070AAXX  23184 83398 32596 60910 10288 20230 30133 40138 85541 333 59004;
0168833980999992005122400004-15667-038950FM-12+000599999V0200501N002112200019N0010001N1+02611+02261101501ADDGF104991021021008001041001KA1240M+02991MA1999999101451MD1999999-0091REMSYN088AAXX  24004 83398 32594 40504 10261 20226 30145 40150 82240 333 10299 29078 55084 59009;
0201833980999992005122412004-15667-038950FM-12+000599999V0209999C000010450019N0040001N1+02481+02411101631ADDAA124033091AY161061AY221061GF108991041071008001021999KA1240N+02201MA1999999101571MD1999999-0011MW1511REMSYN088AAXX  24124 83398 21596 80000 10248 20241 30157 40163 75162 8472/ 333 20220 59001 60334;
0137833980999992005122418004-15667-038950FM-12+000599999V0203601N003110450019N0040001N1+02841+02381101321ADDGF105991031051008001041001MA1999999101271MD1999999-0061REMSYN070AAXX  24184 83398 32596 53606 10284 20238 30127 40132 83540 333 59006;
0168833980999992005122500004-15667-038950FM-12+000599999V0200501N002112200019N0010001N1+02621+02411101371ADDGF103991031011008001001001KA1240M+02941MA1999999101221MD1999999-0131REMSYN088AAXX  25004 83398 32594 30504 10262 20241 30122 40137 83100 333 10294 29087 55074 59013;
0156833980999992005122512004-15667-038950FM-12+000599999V0200501N003110450019N0040001N1+02821+02461101461ADDGF105991031051008001041001KA1240N+02101MA1999999101411MD1999999-0161REMSYN076AAXX  25124 83398 32596 50506 10282 20246 30141 40146 83540 333 20210 59016;
0137833980999992005122518004-15667-038950FM-12+000599999V0200501N003610450019N0040001N1+02901+02371101151ADDGF105991031021008001041001MA1999999101101MD1999999-0171REMSYN070AAXX  25184 83398 32596 50507 10290 20237 30110 40115 83240 333 59017;
0168833980999992005122600004-15667-038950FM-12+000599999V0203601N003112200019N0010001N1+02621+02531101411ADDGF103991031011008001001001KA1240M+02991MA1999999101361MD1999999+0041REMSYN088AAXX  26004 83398 32594 33606 10262 20253 30136 40141 83100 333 10299 29086 55116 58004;
0220833980999992005122612004-15667-038950FM-12+000599999V0200501N004110450019N0040001N1+02781+02621101481ADDAA124000091AY151061AY221061GF106991041051008001021001KA1240N+02201MA1999999101431MD1999999+0021MW1021REMSYN088AAXX  26124 83398 21596 60508 10278 20262 30143 40148 70252 84520 333 20220 58002 69924;EQDQ01  00002PRCP24
0137833980999992005122618004-15667-038950FM-12+000599999V0200501N002110450019N0040001N1+02781+02521101301ADDGF107991041051008001021001MA1999999101251MD1999999+0151REMSYN070AAXX  26184 83398 32596 70504 10278 20252 30125 40130 84520 333 58015;
0168833980999992005122700004-15667-038950FM-12+000599999V0200501N001010450019N0010001N1+02641+02331101351ADDGF106991041051008001021001KA1240M+02981MA1999999101301MD1999999-0061REMSYN088AAXX  27004 83398 32594 60502 10264 20233 30130 40135 84520 333 10298 29086 55070 59006;
0201833980999992005122712004-15667-038950FM-12+000599999V0202301N002110450019N0040001N1+02561+02381101401ADDAA124004191AY161061AY221061GF107991041051008001021011KA1240N+02201MA1999999101351MD1999999-0081MW1021REMSYN088AAXX  27124 83398 21596 72304 10256 20238 30135 40140 70262 84521 333 20220 59008 60044;
0137833980999992005122718004-15667-038950FM-12+000599999V0200501N002111050019N0040001N1+02791+02351101151ADDGF105991021051008001021011MA1999999101101MD1999999-0151REMSYN070AAXX  27184 83398 32596 50504 10279 20235 30110 40115 82521 333 59015;
0168833980999992005122800004-15667-038950FM-12+000599999V0209999C000010450019N0010001N1+02421+02321101331ADDGF106991041051008001021001KA1240M+02941MA1999999101281MD1999999-0021REMSYN088AAXX  28004 83398 32594 60000 10242 20232 30128 40133 84520 333 10294 29089 55062 59002;
0217833980999992005122812004-15667-038950FM-12+000599999V0201801N001010024019N0040001N1+02581+02421101371ADDAA124002091AY161061AY221061GA1091+999999999GF109991091999999999999999KA1240N+02141MA1999999101321MD1999999-0031MW1021REMSYN088AAXX  28124 83398 21596 91802 10258 20242 30132 40137 70262 84521 333 20214 59003 60024;
0137833980999992005122818004-15667-038950FM-12+000599999V0209999C000010075019N0040001N1+02581+02331101271ADDGF108991051051008001021999MA1999999101221MD1999999+0121REMSYN070AAXX  28184 83398 32596 80000 10258 20233 30122 40127 8552/ 333 58012;
0232833980999992005122900004-15667-038950FM-12+000599999V0209999C000010075019N0010001N1+02521+02381101441ADDAA106000091AY151061AY221061GF108991051051008001021999KA1240M+02941MA1999999101391MD1999999+0111MW1021REMSYN100AAXX  29004 83398 21594 80000 10252 20238 30139 40144 70252 8552/ 333 10294 29090 55048 58011 69911;EQDQ01  00002PRCP06
0201833980999992005122912004-15667-038950FM-12+000599999V0209999C000010075019N0040001N1+02401+02241101481ADDAA124050091AY191061AY261061GF108991051051008001021999KA1240N+02121MA1999999101431MD1999999+0111MW1021REMSYN088AAXX  29124 83398 21596 80000 10240 20224 30143 40148 70296 8552/ 333 20212 58011 60504;
0137833980999992005122918004-15667-038950FM-12+000599999V0209999C000010075019N0040001N1+02641+02181101291ADDGF108991051051008001021999MA1999999101241MD1999999+0021REMSYN070AAXX  29184 83398 32596 80000 10264 20218 30124 40129 8552/ 333 58002;
0168833980999992005123000004-15667-038950FM-12+000599999V0209999C000010450019N0010001N1+02441+02351101491ADDGF107991041051008001021001KA1240M+02821MA1999999101441MD1999999+0051REMSYN088AAXX  30004 83398 32594 70000 10244 20235 30144 40149 84520 333 10282 29089 55004 58005;
0201833980999992005123012004-15667-038950FM-12+000599999V0202301N001010075019N0040001N1+02531+02411101641ADDAA124000891AY151061AY221061GF108991051051008001021999KA1240N+02271MA1999999101581MD1999999+0151MW1021REMSYN088AAXX  30124 83398 21596 82302 10253 20241 30158 40164 70252 8552/ 333 20227 58015 69974;
0137833980999992005123018004-15667-038950FM-12+000599999V0200901N004110075019N0040001N1+02781+02401101441ADDGF108991051051008001021999MA1999999101391MD1999999+0151REMSYN070AAXX  30184 83398 32596 80908 10278 20240 30139 40144 8552/ 333 58015;
0201833980999992005123112004-15667-038950FM-12+000599999V0200501N003110450019N0040001N1+02841+02381101481ADDAA124001091AY151061AY221061GF107991041051008001021001KA1240N+02291MA1999999101431MD1999999-0151MW1021REMSYN088AAXX  31124 83398 21596 70506 10284 20238 30143 40148 70252 84520 333 20229 59015 60014;
0182833980999992005123118004-15667-038950FM-12+000599999V0209999C000010075019N0040001N1+02591+02381101401ADDAA106002091AY161061AY221061GF108991051051008001021999MA1999999101351MD1999999-0041MW1021REMSYN082AAXX  31184 83398 21596 80000 10259 20238 30135 40140 70262 8552/ 333 59004 60021;
