0208834980999992005010100004-17733-039250FM-12+000399999V0209999C000012200019N0020001N1+02521+02231101471ADDAA106000091GA1001+999999999GF100991001001999999001001KA1240M+03071MA1999999101421MD1999999+0041REMSYN082AAXX  01004 83498 32995 00000 10252 20223 30142 40147 333 10307 29074 55108 58004;EQDQ01  00002PRCP06
0186834980999992005010112004-17733-039250FM-12+000399999V0200501N003611050019N0020001N1+02971+02231101451ADDAA106000091GF106991041021008001001081KA1240N+02311MA1999999101401MD1999999-0111REMSYN076AAXX  01124 83498 32595 60507 10297 20223 30140 40145 84208 333 20231 59011;EQDQ01  00002PRCP06
0167834980999992005010118004-17733-039250FM-12+000399999V0200501N004112200019N0020001N1+03031+02241101261ADDAA106000091GF104991001001999999001021MA1999999101211MD1999999-0041REMSYN070AAXX  01184 83498 32995 40508 10303 20224 30121 40126 80002 333 59004;EQDQ01  00002PRCP06
0198834980999992005010200004-17733-039250FM-12+000399999V0200501N002112200019N0020001N1+02631+02391101491ADDAA106000091GF103991011021008001001081KA1240M+03091MA1999999101441MD1999999+0021REMSYN088AAXX  02004 83498 32595 30504 10263 20239 30144 40149 81208 333 10309 29075 55099 58002;EQDQ01  00002PRCP06
0186834980999992005010212004-17733-039250FM-12+000399999V0200501N002610450019N0020001N1+02821+02291101711ADDAA106000091GF108991041051008001031999KA1240N+02301MA1999999101661MD1999999+0261REMSYN076AAXX  02124 83498 32595 80505 10282 20229 30166 40171 8453/ 333 20230 58026;EQDQ01  00002PRCP06
0167834980999992005010218004-17733-039250FM-12+000399999V0200901N003610450019N0020001N1+02841+02261101551ADDAA106000091GF108991021051008001031011MA1999999101501MD1999999+0291REMSYN070AAXX  02184 83498 32595 80907 10284 20226 30150 40155 82531 333 58029;EQDQ01  00002PRCP06
0186834980999992005010312004-17733-039250FM-12+000399999V0200901N003110450019N0020001N1+02831+02221101741ADDAA106000091GF107991041021008001031091KA1240N+02431MA1999999101691MD1999999+0031REMSYN076AAXX  03124 83498 32595 70906 10283 20222 30169 40174 84239 333 20243 58003;EQDQ01  00002PRCP06
0167834980999992005010318004-17733-039250FM-12+000399999V0200901N003110075019N0020001N1+02861+02231101571ADDAA106000091GF106991051041008001031091MA1999999101521MD1999999+0021REMSYN070AAXX  03184 83498 32595 60906 10286 20223 30152 40157 85439 333 58002;EQDQ01  00002PRCP06
0198834980999992005010400004-17733-039250FM-12+000399999V0200501N000510450019N0020001N1+02531+02311101651ADDAA106000091GF106991031041008001031001KA1240M+02991MA1999999101601MD1999999-0051REMSYN088AAXX  04004 83498 32595 60501 10253 20231 30160 40165 83430 333 10299 29079 55029 59005;EQDQ01  00002PRCP06
0171834980999992005010418004-17733-039250FM-12+000399999V0200501N003611050019N0020001N1+02891+02251101381ADDAY121061AY211061GF106991031021008001001081MA1999999101331MD1999999-0191MW1031REMSYN082AAXX  04184 83498 21595 60507 10289 20225 30133 40138 70321 83208 333 59019 60011;
0208834980999992005010500004-17733-039250FM-12+000399999V0200501N002112200019N0020001N1+02531+02191101551ADDAA106000091GA1001+999999999GF100991001001999999001001KA1240M+02951MA1999999101501MD1999999-0101REMSYN082AAXX  05004 83498 32995 00504 10253 20219 30150 40155 333 10295 29080 55059 59010;EQDQ01  00002PRCP06
0162834980999992005010512004-17733-039250FM-12+000399999V0200501N004610075019N0020001N1+02861+02311101611ADDGF106991051021008001001011KA1240N+02281MA1999999101561MD1999999-0071REMSYN082AAXX  05124 83498 22595 60509 10286 20231 30156 40161 85201 333 20228 59007 60014;
0167834980999992005010518004-17733-039250FM-12+000399999V0200501N004111050019N0020001N1+02971+02101101381ADDAA106000091GF105991011011008001001021MA1999999101331MD1999999+0001REMSYN070AAXX  05184 83498 32595 50508 10297 20210 30133 40138 81102 333 58000;EQDQ01  00002PRCP06
0198834980999992005010600004-17733-039250FM-12+000399999V0200501N002112200019N0020001N1+02531+02191101451ADDAA106000091GF103991011011008001001021KA1240M+03011MA1999999101401MD1999999-0101REMSYN088AAXX  06004 83498 32595 30504 10253 20219 30140 40145 81102 333 10301 29074 55096 59010;EQDQ01  00002PRCP06
0190834980999992005010612004-17733-039250FM-12+000399999V0200501N003111050019N0020001N1+02791+02211101561ADDAY121061AY211061GF106991041021008001001021KA1240N+02351MA1999999101511MD1999999-0051MW1031REMSYN088AAXX  06124 83498 21595 60506 10279 20221 30151 40156 70321 84202 333 20235 59005 60044;
0167834980999992005010618004-17733-039250FM-12+000399999V0200501N003112200019N0020001N1+02931+02121101371ADDAA106000091GF103991011011008001001021MA1999999101321MD1999999-0011REMSYN070AAXX  06184 83498 32595 30506 10293 20212 30132 40137 81102 333 59001;EQDQ01  00002PRCP06
0208834980999992005010700004-17733-039250FM-12+000399999V0200501N000512200019N0020001N1+02491+02271101541ADDAA106000091GA1001+999999999GF100991001001999999001001KA1240M+03011MA1999999101491MD1999999+0091REMSYN082AAXX  07004 83498 32995 00501 10249 20227 30149 40154 333 10301 29077 55097 58009;EQDQ01  00002PRCP06
0186834980999992005010712004-17733-039250FM-12+000399999V0200501N002612200019N0020001N1+02801+02251101551ADDAA106000091GF106991041021008001001011KA1240N+02281MA1999999101501MD1999999-0011REMSYN076AAXX  07124 83498 32595 60505 10280 20225 30150 40155 84201 333 20228 59001;EQDQ01  00002PRCP06
0167834980999992005010718004-17733-039250FM-12+000399999V0200501N004111050019N0020001N1+02971+02091101351ADDAA106000091GF106991011011008001001021MA1999999101301MD1999999-0021REMSYN070AAXX  07184 83498 32595 60508 10297 20209 30130 40135 81102 333 59002;EQDQ01  00002PRCP06
0198834980999992005010800004-17733-039250FM-12+000399999V0200501N001512200019N0020001N1+02521+02311101511ADDAA106000091GF104991021001012501021011KA1240M+03031MA1999999101461MD1999999-0031REMSYN088AAXX  08004 83498 32695 40503 10252 20231 30146 40151 82021 333 10303 29077 55088 59003;EQDQ01  00002PRCP06
0190834980999992005010812004-17733-039250FM-12+000399999V0200501N002110450019N0020001N1+02801+02421101521ADDAY121061AY211061GF107991041051008001041001KA1240N+02401MA1999999101471MD1999999-0031MW1031REMSYN088AAXX  08124 83498 21595 70504 10280 20242 30147 40152 70321 84540 333 20240 59003 69934;
0167834980999992005010818004-17733-039250FM-12+000399999V0200501N004612200019N0020001N1+02951+02161101221ADDAA106000091GF102991011011008001001011MA1999999101171MD1999999-0131REMSYN070AAXX  08184 83498 32595 20509 10295 20216 30117 40122 81101 333 59013;EQDQ01  00002PRCP06
0173834980999992005010912004-17730-039250FM-12+000399999V0200501N004110075019N0020001N1+02911+02341101391ADDAA106000091GF106991061041008001001001MA1999999101341MD1999999-0131REMSYN076AAXX  09124 83498 32595 60508 10291 20234 30134 40139 86400 333 20228 59013;EQDQ01  00002PRCP06
0167834980999992005010918004-17730-039250FM-12+000399999V0200501N004112200019N0020001N1+02951+02331101061ADDAA106000091GF102991011011008001001051MA1999999101011MD1999999-0161REMSYN070AAXX  09184 83498 32595 20508 10295 20233 30101 40106 81105 333 59016;EQDQ01  00002PRCP06
0186834980999992005011012004-17733-039250FM-12+000399999V0200501N005112200019N0020001N1+02971+02401101301ADDAA106000091GF103991031021008001001001KA1240N+02351MA1999999101251MD1999999-0091REMSYN076AAXX  10124 83498 32595 30510 10297 20240 30125 40130 83200 333 20235 59009;EQDQ01  00002PRCP06
0183834980999992005011018004-17733-039250FM-12+000399999V0200501N005112200019N0020001N1+03021+02361100991ADDAA106000091GF102991001001999999001051MA1999999100941MD1999999-0071REMSYN070AAXX  10184 83498 32795 20510 10302 20236 30094 40099 80005 333 59007;EQDQ01+017502SCOLCBQ02  00002PRCP06
0208834980999992005011100004-17733-039250FM-12+000399999V0200501N004112200019N0020001N1+02611+02421101051ADDAA106000091GA1001+999999999GF100991001001999999001001KA1240M+03131MA1999999101001MD1999999-0121REMSYN082AAXX  11004 83498 32995 00508 10261 20242 30100 40105 333 10313 29080 55113 59012;EQDQ01  00002PRCP06
0186834980999992005011112004-17733-039250FM-12+000399999V0203601N003110450019N0020001N1+02851+02291101261ADDAA106000091GF106991031021008001041011KA1240N+02531MA1999999101211MD1999999-0041REMSYN076AAXX  11124 83498 32595 63606 10285 20229 30121 40126 83241 333 20253 59004;EQDQ01  00002PRCP06
0183834980999992005011118004-17733-039250FM-12+000399999V0200501N005719999999N0020001N1+03001+02371100921ADDAA106000091GF105991001001999999001081MA1999999100871MD1999999-0071REMSYN070AAXX  11184 83498 32795 50511 10300 20237 30087 40092 80008 333 59007;EQDQ01+017502SCOLCBQ02  00002PRCP06
0208834980999992005011200004-17733-039250FM-12+000399999V0200501N003112200019N0020001N1+02631+02391101111ADDAA106000091GA1001+999999999GF100991001001999999001001KA1240M+03131MA1999999101401MD1999999-0061REMSYN082AAXX  12004 83498 32995 00506 10263 20239 30140 40111 333 10313 29078 55089 59006;EQDQ01  00002PRCP06
0186834980999992005011212004-17733-039250FM-12+000399999V0203601N005111050019N0020001N1+02911+02271101041ADDAA106000091GF106991041021008001001021KA1240N+02511MA1999999100991MD1999999-0221REMSYN076AAXX  12124 83498 32595 63610 10291 20227 30099 40104 84202 333 20251 59022;EQDQ01  00002PRCP06
0167834980999992005011218004-17733-039250FM-12+000399999V0200501N007712200019N0020001N1+02971+02381100731ADDAA106000091GF104991011011008001001021MA1999999100681MD1999999-0191REMSYN070AAXX  12184 83498 32595 40515 10297 20238 30068 40073 81102 333 59019;EQDQ01  00002PRCP06
0202834980999992005011300004-17733-039250FM-12+000399999V0203601N002610450019N0020001N1+02381+02211101091ADDAY161061AY291061GF108991041071008001021999KA1240M+03131MA1999999101041MD1999999-0021MW1211REMSYN100AAXX  13004 83498 21595 83605 10238 20221 30104 40109 72169 8472/ 333 10313 29080 55070 59002 69981;
0190834980999992005011312004-17733-039250FM-12+000399999V0203201N001010450019N0020001N1+02501+02401101181ADDAY161061AY261061GF108991031071008001021999KA1240N+02281MA1999999101131MD1999999-0141MW1211REMSYN088AAXX  13124 83498 21595 83202 10250 20240 30113 40118 72166 8372/ 333 20228 59014 60044;
0171834980999992005011318004-17733-039250FM-12+000399999V0203601N004110075019N0020001N1+02651+02271100931ADDAY121061AY211061GF108991051051008001021999MA1999999100881MD1999999+0201MW1031REMSYN082AAXX  13184 83498 21595 83608 10265 20227 30088 40093 70321 8552/ 333 58020 60021;
0202834980999992005011400004-17733-039250FM-12+000399999V0203201N003110450019N0020001N1+02401+02231101021ADDAY161061AY261061GF108991031071008001021999KA1240M+02691MA1999999100971MD1999999-0071MW1211REMSYN100AAXX  14004 83498 21595 83206 10240 20223 30097 40102 72166 8372/ 333 10269 29089 55000 59007 60111;
0190834980999992005011412004-17733-039250FM-12+000399999V0203601N002110450019N0020001N1+02661+02431101111ADDAY161061AY261061GF107991041051008001021001KA1240N+02351MA1999999101061MD1999999-0071MW1211REMSYN088AAXX  14124 83498 21595 73604 10266 20243 30106 40111 72166 84520 333 20235 59007 60134;
0148834980999992005011418004-17733-039250FM-12+000399999V0200501N004110450019N0020001N1+02931+02361100871ADDAA106000021GF106991031021008001021021MA1999999100821MD1999999-0061REMSYN070AAXX  14184 83498 32595 60508 10293 20236 30082 40087 83222 333 59006;
0198834980999992005011500004-17733-039250FM-12+000399999V0200501N003110450019N0020001N1+02591+02421101131ADDAA106000091GF107991031051008001021001KA1240M+02991MA1999999101081MD1999999+0111REMSYN088AAXX  15004 83498 32595 70506 10259 20242 30108 40113 83520 333 10299 29085 55021 58011;EQDQ01  00002PRCP06
0186834980999992005011512004-17733-039250FM-12+000399999V0200501N005110450019N0020001N1+02771+02341101191ADDAA106000091GF105991021011008001041001KA1240N+02511MA1999999101141MD1999999+0081REMSYN076AAXX  15124 83498 32595 50510 10277 20234 30114 40119 82140 333 20251 58008;EQDQ01  00002PRCP06
0167834980999992005011518004-17733-039250FM-12+000399999V0200501N006712200019N0020001N1+02811+02361100911ADDAA106000091GF104991021011008001001011MA1999999100861MD1999999+0041REMSYN070AAXX  15184 83498 32595 40513 10281 20236 30086 40091 82101 333 58004;EQDQ01  00002PRCP06
0186834980999992005011612004-17733-039250FM-12+000399999V0200501N006210075019N0020001N1+02891+02411101121ADDAA106000091GF106991051021008001001051KA1240N+02401MA1999999101071MD1999999-0071REMSYN076AAXX  16124 83498 32595 60512 10289 20241 30107 40112 85205 333 20240 59007;EQDQ01  00002PRCP06
0167834980999992005011618004-17733-039250FM-12+000399999V0200501N007712200019N0020001N1+02931+02341100851ADDAA106000091GF105991031011008001001011MA1999999100801MD1999999-0061REMSYN070AAXX  16184 83498 32595 50515 10293 20234 30080 40085 83101 333 59006;EQDQ01  00002PRCP06
0185834980999992005011700004-17730-039250FM-12+000399999V0200501N004112200019N0020001N1+02591+02421100891ADDAA106000091GF101991011011008001001001MA1999999100841MD1999999-0191REMSYN088AAXX  17004 83498 32595 10508 10259 20242 30084 40089 81100 333 10301 29085 55098 59019;EQDQ01  00002PRCP06
0173834980999992005011712004-17730-039250FM-12+000399999V0200501N004112200019N0020001N1+02871+02231101151ADDAA106000091GF104991021011008001001081MA1999999101101MD1999999+0031REMSYN076AAXX  17124 83498 32595 40508 10287 20223 30110 40115 82108 333 20243 58003;EQDQ01  00002PRCP06
0167834980999992005011718004-17730-039250FM-12+000399999V0200501N005119999999N0020001N1+02831+02271100961ADDAA106000091GF105991001001999999001081MA1999999100911MD1999999+0111REMSYN070AAXX  17184 83498 32795 50510 10283 20227 30091 40096 80008 333 58011;EQDQ01  00002PRCP06
0198834980999992005011800004-17733-039250FM-12+000399999V0200501N002110075019N0020001N1+02551+02361101221ADDAA106000091GF108991051051008001021999KA1240M+03051MA1999999101171MD1999999+0331REMSYN088AAXX  18004 83498 32595 80504 10255 20236 30117 40122 8552/ 333 10305 29080 55086 58033;EQDQ01  00002PRCP06
0186834980999992005011812004-17733-039250FM-12+000399999V0200501N003111050019N0020001N1+02831+02311101211ADDAA106000091GF106991041021008001001091KA1240N+02381MA1999999101161MD1999999+0061REMSYN076AAXX  18124 83498 32595 60506 10283 20231 30116 40121 84209 333 20238 58006;EQDQ01  00002PRCP06
0167834980999992005011818004-17733-039250FM-12+000399999V0200501N003611050019N0020001N1+02931+02391100971ADDAA106000091GF107991021011008001001081MA1999999100921MD1999999+0011REMSYN070AAXX  18184 83498 32595 70507 10293 20239 30092 40097 82108 333 58001;EQDQ01  00002PRCP06
0198834980999992005011900004-17733-039250FM-12+000399999V0200501N003119999999N0020001N1+02591+02331101171ADDAA106000091GF106991051001012501031081KA1240M+03071MA1999999101121MD1999999-0051REMSYN088AAXX  19004 83498 32695 60506 10259 20233 30112 40117 85038 333 10307 29080 55059 59005;EQDQ01  00002PRCP06
0186834980999992005011912004-17733-039250FM-12+000399999V0203601N003610075019N0020001N1+02861+02371101211ADDAA106000091GF105991051021008001001001KA1240N+02381MA1999999101161MD1999999+0001REMSYN076AAXX  19124 83498 32595 53607 10286 20237 30116 40121 85200 333 20238 58000;EQDQ01  00002PRCP06
0167834980999992005011918004-17733-039250FM-12+000399999V0200501N004112200019N0020001N1+03061+02301101021ADDAA106000091GF104991021011008001001011MA1999999100971MD1999999+0051REMSYN070AAXX  19184 83498 32595 40508 10306 20230 30097 40102 82101 333 58005;EQDQ01  00002PRCP06
0198834980999992005012000004-17733-039250FM-12+000399999V0203601N003112200019N0020001N1+02601+02331101281ADDAA106000091GF102991011011008001001011KA1240M+03091MA1999999101231MD1999999+0111REMSYN088AAXX  20004 83498 32595 23606 10260 20233 30123 40128 81101 333 10309 29077 55086 58011;EQDQ01  00002PRCP06
0186834980999992005012012004-17733-039250FM-12+000399999V0203601N003112200019N0020001N1+02871+02311101321ADDAA106000091GF106991041021008001001011KA1240N+02391MA1999999101271MD1999999+0111REMSYN076AAXX  20124 83498 32595 63606 10287 20231 30127 40132 84201 333 20239 58011;EQDQ01  00002PRCP06
0199834980999992005012018004-17733-039250FM-12+000399999V0200501N005711050019N0020001N1+03081+02351100631ADDAA106000091GF106991011021008001001021MA1999999999999MD1999999-0051REMSYN070AAXX  20184 83498 32595 60511 10308 20235 39619 40063 81202 333 59005;EQDQ01+096193APOSP Q02  00002PRCP06Q03 096193APOSP 
0198834980999992005012100004-17733-039250FM-12+000399999V0200501N025719999999N0020001N1+02591+02401101111ADDAA106000091GF105991001001999999001011KA1240M+03131MA1999999101061MD1999999-0171REMSYN088AAXX  21004 83498 32995 50550 10259 20240 30106 40111 80001 333 10313 29079 55101 59017;EQDQ01  00002PRCP06
0186834980999992005012112004-17733-039250FM-12+000399999V0203601N004112200019N0020001N1+02981+02251101341ADDAA106000091GF104991021011008001001011KA1240N+02401MA1999999101291MD1999999+0021REMSYN076AAXX  21124 83498 32595 43608 10298 20225 30129 40134 82101 333 20240 58002;EQDQ01  00002PRCP06
0167834980999992005012118004-17733-039250FM-12+000399999V0203601N005112200019N0020001N1+03081+02351101111ADDAA106000091GF101991011011008001001001MA1999999101081MD1999999+0161REMSYN070AAXX  21184 83498 32595 13610 10308 20235 30108 40111 81100 333 58016;EQDQ01  00002PRCP06
0208834980999992005012200004-17733-039250FM-12+000399999V0200501N002612200019N0020001N1+02611+02441101331ADDAA106000091GA1001+999999999GF100991001001999999001001KA1240M+03251MA1999999101281MD1999999+0221REMSYN082AAXX  22004 83498 32995 00505 10261 20244 30128 40133 333 10325 29078 55111 58022;EQDQ01  00002PRCP06
0186834980999992005012212004-17733-039250FM-12+000399999V0200501N004110075019N0020001N1+02951+02541101451ADDAA106000091GF106991061021008001001001KA1240N+02431MA1999999101401MD1999999+0111REMSYN076AAXX  22124 83498 32595 60508 10295 20254 30140 40145 86200 333 20243 58011;EQDQ01  00002PRCP06
0167834980999992005012218004-17733-039250FM-12+000399999V0200501N004112200019N0020001N1+03081+02521101141ADDAA106000091GF101991011011008001001001MA1999999101091MD1999999+0011REMSYN070AAXX  22184 83498 32595 10508 10308 20252 30109 40114 81100 333 58001;EQDQ01  00002PRCP06
0173834980999992005012312004-17730-039250FM-12+000399999V0203601N001012200019N0020001N1+02981+02201101341ADDAA106000091GF103991021011008001001011MA1999999101291MD1999999-0111REMSYN076AAXX  23124 83498 32595 33602 10298 20220 30129 40134 82101 333 20224 59011;EQDQ01  00002PRCP06
0167834980999992005012318004-17730-039250FM-12+000399999V0200501N003612200019N0020001N1+03081+02291101051ADDAA106000091GF101991011011008001001001MA1999999101001MD1999999-0091REMSYN070AAXX  23184 83498 32595 10507 10308 20229 30100 40105 81100 333 59009;EQDQ01  00002PRCP06
0173834980999992005012412004-17730-039250FM-12+000399999V0203201N001510450019N0020001N1+02921+02411101321ADDAA106000091GF105991031021008001031001MA1999999101271MD1999999-0021REMSYN076AAXX  24124 83498 32595 53203 10292 20241 30127 40132 83230 333 20240 59002;EQDQ01  00002PRCP06
0167834980999992005012418004-17730-039250FM-12+000399999V0200901N003612200019N0020001N1+03091+02291100921ADDAA106000091GF102991011021008001001081MA1999999100871MD1999999-0131REMSYN070AAXX  24184 83498 32595 20907 10309 20229 30087 40092 81208 333 59013;EQDQ01  00002PRCP06
0186834980999992005012512004-17733-039250FM-12+000399999V0203201N002610450019N0020001N1+02981+02491101091ADDAA106000091GF105991021011008001041001KA1240N+02451MA1999999101041MD1999999-0231REMSYN076AAXX  25124 83498 32595 53205 10298 20249 30104 40109 82140 333 20245 59023;EQDQ01  00002PRCP06
0167834980999992005012518004-17733-039250FM-12+000399999V0200501N004112200019N0020001N1+03201+02461100731ADDAA106000091GF103991011011008001001011MA1999999100681MD1999999-0191REMSYN070AAXX  25184 83498 32595 30508 10320 20246 30068 40073 81101 333 59019;EQDQ01  00002PRCP06
0208834980999992005012600004-17733-039250FM-12+000399999V0200501N002112200019N0020001N1+02761+02521101001ADDAA106000091GA1001+999999999GF100991001001999999001001KA1240M+03351MA1999999100951MD1999999-0021REMSYN082AAXX  26004 83498 32995 00504 10276 20252 30095 40100 333 10335 29078 55105 59002;EQDQ01  00002PRCP06
0186834980999992005012612004-17733-039250FM-12+000399999V0200501N004612200019N0020001N1+03111+02491101081ADDAA106000091GF102991001001999999001011KA1240N+02531MA1999999101031MD1999999-0011REMSYN076AAXX  26124 83498 32995 20509 10311 20249 30103 40108 80001 333 20253 59001;EQDQ01  00002PRCP06
0167834980999992005012618004-17733-039250FM-12+000399999V0200501N006712200019N0020001N1+03071+02501100871ADDAA106000091GF103991021031008001001021MA1999999100821MD1999999+0141REMSYN070AAXX  26184 83498 32595 30513 10307 20250 30082 40087 82302 333 58014;EQDQ01  00002PRCP06
0198834980999992005012700004-17733-039250FM-12+000399999V0201801N001511050019N0020001N1+02751+02521101341ADDAA106000091GF106991041051008001001081KA1240M+03251MA1999999101291MD1999999+0341REMSYN088AAXX  27004 83498 32595 61803 10275 20252 30129 40134 84508 333 10325 29079 55112 58034;EQDQ01  00002PRCP06
0190834980999992005012712004-17733-039250FM-12+000399999V0201401N001010075019N0020001N1+02481+02301101571ADDAY181061AY261061GF108991081071008001999999KA1240N+02351MA1999999101521MD1999999+0491MW1921REMSYN088AAXX  27124 83498 21595 81402 10248 20230 30152 40157 79286 887// 333 20235 58049 60904;
0171834980999992005012718004-17733-039250FM-12+000399999V0201401N004110075019N0020001N1+02761+02541101391ADDAY161061AY261061GF108991061071008001021999MA1999999101341MD1999999+0521MW1921REMSYN082AAXX  27184 83498 21595 81408 10276 20254 30134 40139 79266 8672/ 333 58052 60251;
0179834980999992005012800004-17733-039250FM-12+000399999V0201401N004110450019N0020001N1+02661+02461101631ADDAA106000021GF108991041061008001051999KA1240M+02791MA1999999101581MD1999999+0291REMSYN088AAXX  28004 83498 32595 81408 10266 20246 30158 40163 8465/ 333 10279 29089 55000 58029;
0190834980999992005012812004-17733-039250FM-12+000399999V0201801N006710075019N0020001N1+02771+02401101541ADDAY161061AY261061GF106991051051008001001081KA1240N+02521MA1999999101491MD1999999-0031MW1211REMSYN088AAXX  28124 83498 21595 61813 10277 20240 30149 40154 72166 85508 333 20252 59003 60284;
0171834980999992005012818004-17733-039250FM-12+000399999V0201801N006710450019N0020001N1+02831+02361101271ADDAY161061AY261061GF106991041051008001021081MA1999999101221MD1999999-0121MW1211REMSYN082AAXX  28184 83498 21595 61813 10283 20236 30122 40127 72166 84528 333 59012 69991;
0179834980999992005012900004-17733-039250FM-12+000399999V0201401N003610075019N0020001N1+02601+02311101351ADDAA106000021GF108991051051008001021999KA1240M+02851MA1999999101301MD1999999-0281REMSYN088AAXX  29004 83498 32595 81407 10260 20231 30130 40135 8552/ 333 10285 29081 55036 59028;
0190834980999992005012912004-17733-039250FM-12+000399999V0201801N003110450019N0020001N1+02741+02431101271ADDAY161061AY261061GF108991041051008001021999KA1240N+02451MA1999999101221MD1999999-0271MW1211REMSYN088AAXX  29124 83498 21595 81806 10274 20243 30122 40127 72166 8452/ 333 20245 59027 60014;
0171834980999992005012918004-17733-039250FM-12+000399999V0201801N003110450019N0020001N1+02661+02481101051ADDAY161061AY261061GF108991031061008001021999MA1999999101001MD1999999-0221MW1211REMSYN082AAXX  29184 83498 21595 81806 10266 20248 30100 40105 72166 8362/ 333 59022 60011;
0177834980999992005013012004-17730-039250FM-12+000399999V0202701N001010075019N0020001N1+02631+02441101091ADDAY121061AY211061GF107991051051008001011001MA1999999101041MD1999999-0181MW1031REMSYN088AAXX  30124 83498 21595 72702 10263 20244 30104 40109 70321 85510 333 20236 59018 60274;
0198834980999992005013100004-17733-039250FM-12+000399999V0203601N002110450019N0020001N1+02481+02381101091ADDAA106000091GF106991041051008001021001KA1240M+02981MA1999999101041MD1999999-0031REMSYN088AAXX  31004 83498 32595 63604 10248 20238 30104 40109 84520 333 10298 29088 55010 59003;EQDQ01  00002PRCP06
0190834980999992005013112004-17733-039250FM-12+000399999V0203601N002610450019N0020001N1+02781+02501101181ADDAY161061AY221061GF107991041021008001051001KA1240N+02301MA1999999101131MD1999999+0091MW1211REMSYN088AAXX  31124 83498 21595 73605 10278 20250 30113 40118 72162 84250 333 20230 58009 60024;
0148834980999992005013118004-17733-039250FM-12+000399999V0203601N003110450019N0020001N1+02881+02501100831ADDAA106000021GF107991021011008001041011MA1999999100781MD1999999-0101REMSYN070AAXX  31184 83498 32595 73606 10288 20250 30078 40083 82141 333 59010;
0198834980999992005020100004-17733-039250FM-12+000399999V0203601N002110450019N0020001N1+02701+02431101091ADDAA106000091GF106991021011008001041001KA1240M+03031MA1999999101041MD1999999+0001REMSYN088AAXX  01004 83498 32595 63604 10270 20243 30104 40109 82140 333 10303 29084 55014 58000;EQDQ01  00002PRCP06
0190834980999992005020112004-17733-039250FM-12+000399999V0203601N004110450019N0020001N1+02821+02421101041ADDAY161061AY221061GF106991031051008001021081KA1240N+02411MA1999999100991MD1999999-0141MW1211REMSYN088AAXX  01124 83498 21595 63608 10282 20242 30099 40104 72162 83528 333 20241 59014 60054;
0148834980999992005020118004-17733-039250FM-12+000399999V0200501N005110450019N0020001N1+02921+02471100871ADDAA106000021GF106991041051008001021081MA1999999100821MD1999999+0041REMSYN070AAXX  01184 83498 32595 60510 10292 20247 30082 40087 84528 333 58004;
0202834980999992005020200004-17733-039250FM-12+000399999V0202301N001510450019N0020001N1+02281+02201101201ADDAY161061AY261061GF108991021071008001021999KA1240M+03091MA1999999101151MD1999999+0111MW1211REMSYN100AAXX  02004 83498 21595 82303 10228 20220 30115 40120 72166 8272/ 333 10309 29087 55034 58011 60701;
0190834980999992005020212004-17733-039250FM-12+000399999V0200501N003110450019N0020001N1+02801+02541101351ADDAY161061AY261061GF108991041051008001011999KA1240N+02221MA1999999101301MD1999999+0311MW1211REMSYN088AAXX  02124 83498 21595 80506 10280 20254 30130 40135 72166 8451/ 333 20222 58031 60294;
0148834980999992005020218004-17733-039250FM-12+000399999V0200501N002112200019N0020001N1+02961+01161101261ADDAA106000021GF107991031011008001001011MA1999999101211MD1999999+0341REMSYN070AAXX  02184 83498 32595 70504 10296 20116 30121 40126 83101 333 58034;
0198834980999992005020300004-17733-039250FM-12+000399999V0200501N001512200019N0020001N1+02541+02311101381ADDAA106000091GF101991011011008001001001KA1240M+03031MA1999999101331MD1999999+0181REMSYN088AAXX  03004 83498 32595 10503 10254 20231 30133 40138 81100 333 10303 29084 55012 58018;EQDQ01  00002PRCP06
0186834980999992005020312004-17733-039250FM-12+000399999V0200501N003610075019N0020001N1+02891+02411101571ADDAA106000091GF106991061021008001001001KA1240N+02351MA1999999101521MD1999999+0221REMSYN076AAXX  03124 83498 32595 60507 10289 20241 30152 40157 86200 333 20235 58022;EQDQ01  00002PRCP06
0167834980999992005020318004-17733-039250FM-12+000399999V0200901N002612200019N0020001N1+03011+02391101371ADDAA106000091GF102991021011008001001001MA1999999101321MD1999999+0161REMSYN070AAXX  03184 83498 32595 20905 10301 20239 30132 40137 82100 333 58016;EQDQ01  00002PRCP06
0208834980999992005020400004-17733-039250FM-12+000399999V0200901N001012200019N0020001N1+02501+02291101541ADDAA106000091GA1001+999999999GF100991001001999999001001KA1240M+03111MA1999999101491MD1999999+0161REMSYN082AAXX  04004 83498 32995 00902 10250 20229 30149 40154 333 10311 29080 55097 58016;EQDQ01  00002PRCP06
0186834980999992005020412004-17733-039250FM-12+000399999V0201401N001510450019N0020001N1+02901+02481101661ADDAA106000091GF106991041021008001041001KA1240N+02301MA1999999101611MD1999999+0091REMSYN076AAXX  04124 83498 32595 61403 10290 20248 30161 40166 84240 333 20230 58009;EQDQ01  00002PRCP06
0167834980999992005020418004-17733-039250FM-12+000399999V0200901N002112200019N0020001N1+03001+02321101451ADDAA106000091GF102991021011008001001001MA1999999101401MD1999999+0081REMSYN070AAXX  04184 83498 32595 20904 10300 20232 30140 40145 82100 333 58008;EQDQ01  00002PRCP06
0208834980999992005020500004-17733-039250FM-12+000399999V0200901N001012200019N0020001N1+02581+02371101651ADDAA106000091GA1001+999999999GF100991001001999999001001KA1240M+03031MA1999999101601MD1999999+0111REMSYN082AAXX  05004 83498 32995 00902 10258 20237 30160 40165 333 10303 29080 55107 58011;EQDQ01  00002PRCP06
0186834980999992005020512004-17733-039250FM-12+000399999V0202701N000510075019N0020001N1+02931+02501101621ADDAA106000091GF106991061021008001001001KA1240N+02361MA1999999101571MD1999999+0001REMSYN076AAXX  05124 83498 32595 62701 10293 20250 30157 40162 86200 333 20236 59000;EQDQ01  00002PRCP06
0167834980999992005020518004-17733-039250FM-12+000399999V0201401N003112200019N0020001N1+02971+02511101391ADDAA106000091GF103991021021008001001081MA1999999101341MD1999999-0061REMSYN070AAXX  05184 83498 32595 31406 10297 20251 30134 40139 82208 333 59006;EQDQ01  00002PRCP06
0185834980999992005020600004-17730-039250FM-12+000399999V0201801N002612200019N0020001N1+02721+02431101611ADDAA106000091GF103991999011008001001001MA1999999101561MD1999999-0041REMSYN088AAXX  06004 83498 32595 31805 10272 20243 30156 40161 82100 333 10303 29081 55106 59004;EQDQ01  00002PRCP06
0177834980999992005020612004-17730-039250FM-12+000399999V0202301N001510450019N0020001N1+02561+02351101581ADDAY161061AY221061GF106991041021008001031001MA1999999101531MD1999999-0041MW1211REMSYN088AAXX  06124 83498 21595 62303 10256 20235 30153 40158 72162 84230 333 20235 59004 60054;
0148834980999992005020618004-17730-039250FM-12+000399999V0201401N003612200019N0020001N1+02861+02371101301ADDAA106000021GF104991021011008001041001MA1999999101251MD1999999-0091REMSYN070AAXX  06184 83498 32595 41407 10286 20237 30125 40130 82140 333 59009;
0186834980999992005020712004-17733-039250FM-12+000399999V0202301N005110450019N0020001N1+02611+02351101561ADDAA106000091GF107991041051008001021001KA1240N+02331MA1999999101511MD1999999-0021REMSYN076AAXX  07124 83498 32595 72310 10261 20235 30151 40156 84520 333 20233 59002;EQDQ01  00002PRCP06
0171834980999992005020718004-17733-039250FM-12+000399999V0201801N005110450019N0020001N1+02671+02461101441ADDAY161061AY261061GF108991031051008001021999MA1999999101391MD1999999+0141MW1211REMSYN082AAXX  07184 83498 21595 81810 10267 20246 30139 40144 72166 8352/ 333 58014 60271;
0179834980999992005020800004-17733-039250FM-12+000399999V0201801N004610450019N0020001N1+02611+02141101571ADDAA106000021GF108991021051008001021999KA1240M+02831MA1999999101521MD1999999-0041REMSYN088AAXX  08004 83498 32595 81809 10261 20214 30152 40157 8252/ 333 10283 29082 55000 59004;
0162834980999992005020812004-17733-039250FM-12+000399999V0201801N004110450019N0020001N1+02721+01981101601ADDGF105991031011008001041001KA1240N+02251MA1999999101551MD1999999+0041REMSYN082AAXX  08124 83498 22595 51808 10272 20198 30155 40160 83140 333 20225 58004 60274;
0167834980999992005020818004-17733-039250FM-12+000399999V0201801N003610450019N0020001N1+02761+02021101501ADDAA106000091GF107991041011008001051001MA1999999101451MD1999999+0061REMSYN070AAXX  08184 83498 32595 71807 10276 20202 30145 40150 84150 333 58006;EQDQ01  00002PRCP06
0190834980999992005020912004-17733-039250FM-12+000399999V0201801N006210450019N0020001N1+02641+02231101571ADDAY161061AY221061GF106991031051008001031081KA1240N+02181MA1999999101521MD1999999-0031MW1211REMSYN088AAXX  09124 83498 21595 61812 10264 20223 30152 40157 72162 83538 333 20218 59003 69984;
0148834980999992005020918004-17733-039250FM-12+000399999V0201801N005110450019N0020001N1+02731+02431101241ADDAA106000021GF106991041051008001031081MA1999999101191MD1999999-0261REMSYN070AAXX  09184 83498 32595 61810 10273 20243 30119 40124 84538 333 59026;
0198834980999992005021000004-17733-039250FM-12+000399999V0201401N005110450019N0020001N1+02541+02351101421ADDAA106000091GF108991041051008001021999KA1240M+02831MA1999999101371MD1999999-0301REMSYN088AAXX  10004 83498 32595 81410 10254 20235 30137 40142 8452/ 333 10283 29085 55063 59030;EQDQ01  00002PRCP06
0190834980999992005021012004-17733-039250FM-12+000399999V0202301N001012200019N0020001N1+02541+02231101311ADDAY161061AY211061GF102991021011008001001001KA1240N+02151MA1999999101261MD1999999-0261MW1211REMSYN088AAXX  10124 83498 21595 22302 10254 20223 30126 40131 72161 82100 333 20215 59026 60194;
0148834980999992005021018004-17733-039250FM-12+000399999V0201401N003110450019N0020001N1+02781+02161101111ADDAA106000021GF108991041051008001011999MA1999999101061MD1999999-0131REMSYN070AAXX  10184 83498 32595 81406 10278 20216 30106 40111 8451/ 333 59013;
0198834980999992005021100004-17733-039250FM-12+000399999V0201401N001012200019N0020001N1+02541+02131101151ADDAA106000091GF101991011011008001001001KA1240M+02831MA1999999101101MD1999999-0271REMSYN088AAXX  11004 83498 32595 11402 10254 20213 30110 40115 81100 333 10283 29077 55058 59027;EQDQ01  00002PRCP06
0186834980999992005021112004-17733-039250FM-12+000399999V0202301N001012200019N0020001N1+02711+02391101211ADDAA106000091GF104991041021008001001001KA1240N+02101MA1999999101161MD1999999-0101REMSYN076AAXX  11124 83498 32595 42302 10271 20239 30116 40121 84200 333 20210 59010;EQDQ01  00002PRCP06
0167834980999992005021118004-17733-039250FM-12+000399999V0200901N003112200019N0020001N1+02891+02441100841ADDAA106000091GF102991021011008001001001MA1999999100791MD1999999-0271REMSYN070AAXX  11184 83498 32595 20906 10289 20244 30079 40084 82100 333 59027;EQDQ01  00002PRCP06
0198834980999992005021200004-17733-039250FM-12+000399999V0200501N001512200019N0020001N1+02611+02391101001ADDAA106000091GF102991021011008001001001KA1240M+02971MA1999999100951MD1999999-0151REMSYN088AAXX  12004 83498 32595 20503 10261 20239 30095 40100 82100 333 10297 29084 55099 59015;EQDQ01  00002PRCP06
0190834980999992005021212004-17733-039250FM-12+000399999V0201401N001010450019N0020001N1+02541+02361101061ADDAY161061AY221061GF107991041051008001031001KA1240N+02301MA1999999101011MD1999999-0151MW1211REMSYN088AAXX  12124 83498 21595 71402 10254 20236 30101 40106 72162 84530 333 20230 59015 60054;
0171834980999992005021218004-17733-039250FM-12+000399999V0200501N001010450019N0020001N1+02741+02521100751ADDAY161061AY261061GF106991031051008001041001MA1999999100701MD1999999-0091MW1211REMSYN082AAXX  12184 83498 21595 60502 10274 20252 30070 40075 72166 83540 333 59009 60051;
0189834980999992005021300004-17730-039250FM-12+000399999V0200501N001010075019N0020001N1+02601+02401101031ADDAY161061AY291061GF108991051071008001021999MA1999999100981MD1999999+0031MW1921REMSYN100AAXX  13004 83498 21595 80502 10260 20240 30098 40103 79269 8572/ 333 10309 29089 55033 58003 60061;
0177834980999992005021312004-17730-039250FM-12+000399999V0203601N003110075019N0020001N1+02561+02381101131ADDAY161061AY261061GF108991051061008001011999MA1999999101081MD1999999+0071MW1211REMSYN088AAXX  13124 83498 21595 83606 10256 20238 30108 40113 72166 8561/ 333 20230 58007 60384;
0148834980999992005021318004-17730-039250FM-12+000399999V0200301N002610450019N0200001N1+02801+02461100761ADDAA106000021GF108991041061008001021999MA1999999100711MD1999999+0011REMSYN070AAXX  13184 83498 32598 80305 10280 20246 30071 40076 8462/ 333 58001;
0202834980999992005021400004-17733-039250FM-12+000399999V0203601N003110075019N0020001N1+02581+02381101081ADDAY161061AY221061GF108991051061008001021999KA1240M+02911MA1999999101031MD1999999+0051MW1921REMSYN100AAXX  14004 83498 21595 83606 10258 20238 30103 40108 79262 8562/ 333 10291 29088 55011 58005 60141;
0162834980999992005021412004-17733-039250FM-12+000399999V0203601N005110450019N0020001N1+02731+02601100911ADDGF106991041051008001041001KA1240N+02501MA1999999100861MD1999999-0221REMSYN082AAXX  14124 83498 22595 63610 10273 20260 30086 40091 84540 333 20250 59022 60144;
0171834980999992005021418004-17733-039250FM-12+000399999V0203601N004110450019N0020001N1+02611+02571100671ADDAY121061AY211061GF108991031071008001021999MA1999999100621MD1999999-0091MW1031REMSYN082AAXX  14184 83498 21595 83608 10261 20257 30062 40067 70321 8372/ 333 59009 69961;
0202834980999992005021500004-17733-039250FM-12+000399999V0203601N004112200019N0020001N1+02591+02511100771ADDAY121061AY211061GF104991041001008001051001KA1240M+03031MA1999999100721MD1999999-0311MW1031REMSYN100AAXX  15004 83498 21595 43608 10259 20251 30072 40077 70321 84050 333 10303 29096 55028 59031 60021;
0162834980999992005021512004-17733-039250FM-12+000399999V0202301N001010450019N0020001N1+02791+02521100771ADDGF106991041051008001041001KA1240N+02481MA1999999100721MD1999999-0141REMSYN082AAXX  15124 83498 22595 62302 10279 20252 30072 40077 84540 333 20248 59014 60024;
0171834980999992005021518004-17733-039250FM-12+000399999V0200501N002610450019N0020001N1+02611+02551100601ADDAY191061AY261061GF108991031071008001021999MA1999999100551MD1999999-0071MW1211REMSYN082AAXX  15184 83498 21595 80505 10261 20255 30055 40060 72196 8372/ 333 59007 60051;
0202834980999992005021600004-17733-039250FM-12+000399999V0200501N001510450019N0020001N1+02651+02551100841ADDAY121061AY211061GF106991031051008001051001KA1240M+02991MA1999999100791MD1999999+0071MW1031REMSYN100AAXX  16004 83498 21595 60503 10265 20255 30079 40084 70321 83550 333 10299 29093 55040 58007 69941;
0162834980999992005021612004-17733-039250FM-12+000399999V0203201N002610450019N0020001N1+02861+02481101001ADDGF105991031011008001041001KA1240N+02491MA1999999100951MD1999999+0231REMSYN082AAXX  16124 83498 22595 53205 10286 20248 30095 40100 83140 333 20249 58023 60064;
0171834980999992005021618004-17733-039250FM-12+000399999V0203601N002110450019N0020001N1+02701+02421100881ADDAY161061AY221061GF108991041061008001021999MA1999999100831MD1999999+0281MW1211REMSYN082AAXX  16184 83498 21595 83604 10270 20242 30083 40088 72162 8462/ 333 58028 60021;
0179834980999992005021700004-17733-039250FM-12+000399999V0203601N004110450019N0020001N1+02561+02351101131ADDAA106000021GF108991041061008001011999KA1240M+03011MA1999999101081MD1999999+0291REMSYN088AAXX  17004 83498 32595 83608 10256 20235 30108 40113 8461/ 333 10301 29085 55027 58029;
0162834980999992005021712004-17733-039250FM-12+000399999V0203601N002610450019N0020001N1+02821+02441101451ADDGF108991031061008001011999KA1240N+02351MA1999999101401MD1999999+0451REMSYN082AAXX  17124 83498 22595 83605 10282 20244 30140 40145 8361/ 333 20235 58045 60024;
0167834980999992005021718004-17733-039250FM-12+000399999V0200501N002110450019N0020001N1+02841+02561101331ADDAA106000091GF108991031061008001011999MA1999999101281MD1999999+0451REMSYN070AAXX  17184 83498 32595 80504 10284 20256 30128 40133 8361/ 333 58045;EQDQ01  00002PRCP06
0198834980999992005021800004-17733-039250FM-12+000399999V0200501N001510450019N0020001N1+02701+02431101561ADDAA106000091GF108991041061008001021999KA1240M+03091MA1999999101511MD1999999+0431REMSYN088AAXX  18004 83498 32595 80503 10270 20243 30151 40156 8462/ 333 10309 29084 55034 58043;EQDQ01  00002PRCP06
0186834980999992005021812004-17733-039250FM-12+000399999V0200501N003110450019N0020001N1+02811+02661101601ADDAA106000091GF105991041051008001011001KA1240N+02561MA1999999101551MD1999999+0151REMSYN076AAXX  18124 83498 32595 50506 10281 20266 30155 40160 84510 333 20256 58015;EQDQ01  00002PRCP06
0167834980999992005021818004-17733-039250FM-12+000399999V0200501N003110450019N0020001N1+02911+02621101341ADDAA106000091GF106991011011008001041081MA1999999101291MD1999999+0011REMSYN070AAXX  18184 83498 32595 60506 10291 20262 30129 40134 81148 333 58001;EQDQ01  00002PRCP06
0198834980999992005021900004-17733-039250FM-12+000399999V0200501N000519999999N0020001N1+02551+02351101511ADDAA106000091GF105991051001012501031001KA1240M+03051MA1999999101461MD1999999-0051REMSYN088AAXX  19004 83498 32695 50501 10255 20235 30146 40151 85030 333 10305 29089 55057 59005;EQDQ01  00002PRCP06
0186834980999992005021912004-17733-039250FM-12+000399999V0200501N002610450019N0020001N1+02871+02481101511ADDAA106000091GF106991041021008001041001KA1240N+02381MA1999999101461MD1999999-0091REMSYN076AAXX  19124 83498 32595 60505 10287 20248 30146 40151 84240 333 20238 59009;EQDQ01  00002PRCP06
0167834980999992005021918004-17733-039250FM-12+000399999V0200501N003110450019N0020001N1+02901+02601101151ADDAA106000091GF107991031031008001041001MA1999999101101MD1999999-0191REMSYN070AAXX  19184 83498 32595 70506 10290 20260 30110 40115 83340 333 59019;EQDQ01  00002PRCP06
0185834980999992005022000004-17730-039250FM-12+000399999V0209999C000010075019N0020001N1+02631+02551101351ADDAA106000091GF108991061061008001021999MA1999999101301MD1999999-0161REMSYN088AAXX  20004 83498 32595 80000 10263 20255 30130 40135 8662/ 333 10311 29089 55071 59016;EQDQ01  00002PRCP06
0177834980999992005022012004-17730-039250FM-12+000399999V0203601N002610450019N0020001N1+02561+02351101361ADDAY161061AY221061GF108991041061008001021999MA1999999101311MD1999999-0151MW1211REMSYN088AAXX  20124 83498 21595 83605 10256 20235 30131 40136 72162 8462/ 333 20238 59015 60064;
0171834980999992005022018004-17730-039250FM-12+000399999V0203601N003610450019N0020001N1+02441+02231100991ADDAY161061AY291061GF108991041071008001021999MA1999999100941MD1999999-0161MW1921REMSYN082AAXX  20184 83498 21595 83607 10244 20223 30094 40099 79269 8472/ 333 59016 60141;
0202834980999992005022100004-17733-039250FM-12+000399999V0203201N001010075019N0020001N1+02301+02161101161ADDAY191061AY291061GF108991051071008001021999KA1240M+02911MA1999999101111MD1999999-0191MW1921REMSYN100AAXX  21004 83498 21595 83202 10230 20216 30111 40116 79299 8572/ 333 10291 29088 55000 59019 60731;
0190834980999992005022112004-17733-039250FM-12+000399999V0201801N004110450019N0020001N1+02661+02591101081ADDAY161061AY291061GF108991041061008001011999KA1240N+02201MA1999999101031MD1999999-0281MW1211REMSYN088AAXX  21124 83498 21595 81808 10266 20259 30103 40108 72169 8461/ 333 20220 59028 60884;
0148834980999992005022118004-17733-039250FM-12+000399999V0201401N003110075019N0020001N1+02801+02481100931ADDAA106000021GF105991051021008001001001MA1999999100881MD1999999-0061REMSYN070AAXX  21184 83498 32595 51406 10280 20248 30088 40093 85200 333 59006;
0202834980999992005022200004-17733-039250FM-12+000399999V0201401N002110075019N0020001N1+02561+02351101181ADDAY161061AY221061GF105991051051008001001001KA1240M+02861MA1999999101131MD1999999+0021MW1211REMSYN100AAXX  22004 83498 21595 51404 10256 20235 30113 40118 72162 85500 333 10286 29089 55054 58002 60031;
0162834980999992005022212004-17733-039250FM-12+000399999V0202701N000512200019N0020001N1+02731+02391101291ADDGF103991031011008001001001KA1240N+02281MA1999999101241MD1999999+0211REMSYN082AAXX  22124 83498 22595 32701 10273 20239 30124 40129 83100 333 20228 58021 60034;
0167834980999992005022218004-17733-039250FM-12+000399999V0201401N001512200019N0020001N1+02931+02391101091ADDAA106000091GF102991021011008001001001MA1999999101041MD1999999+0161REMSYN070AAXX  22184 83498 32595 21403 10293 20239 30104 40109 82100 333 58016;EQDQ01  00002PRCP06
0208834980999992005022300004-17733-039250FM-12+000399999V0200901N001512200019N0020001N1+02501+02361101371ADDAA106000091GA1001+999999999GF100991001001999999001001KA1240M+02991MA1999999101321MD1999999+0191REMSYN082AAXX  23004 83498 32995 00903 10250 20236 30132 40137 333 10299 29085 55105 58019;EQDQ01  00002PRCP06
0186834980999992005022312004-17733-039250FM-12+000399999V0200501N001512200019N0020001N1+02831+02461101471ADDAA106000091GF106991041021008001001011KA1240N+02281MA1999999101421MD1999999+0181REMSYN076AAXX  23124 83498 32595 60503 10283 20246 30142 40147 84201 333 20228 58018;EQDQ01  00002PRCP06
0167834980999992005022318004-17733-039250FM-12+000399999V0200501N002111050019N0020001N1+02991+02531101241ADDAA106000091GF106991011011008001001081MA1999999101191MD1999999+0151REMSYN070AAXX  23184 83498 32595 60504 10299 20253 30119 40124 81108 333 58015;EQDQ01  00002PRCP06
0214834980999992005022400004-17733-039250FM-12+000399999V0200501N001519999999N0020001N1+02631+02501101511ADDAA106000091GF105991001001999999001081KA1240M+03071MA1999999101461MD1999999+0141REMSYN088AAXX  24004 83498 32795 50503 10263 20250 30146 40151 80008 333 10307 29086 55079 58014;EQDQ01+017502SCOLCBQ02  00002PRCP06
0186834980999992005022412004-17733-039250FM-12+000399999V0203201N002112200019N0020001N1+02881+02641101651ADDAA106000091GF106991041021008001001011KA1240N+02431MA1999999101601MD1999999+0181REMSYN076AAXX  24124 83498 32595 63204 10288 20264 30160 40165 84201 333 20243 58018;EQDQ01  00002PRCP06
0167834980999992005022418004-17733-039250FM-12+000399999V0200501N002612200019N0020001N1+03061+02521101381ADDAA106000091GF102991021011008001001001MA1999999101331MD1999999+0141REMSYN070AAXX  24184 83498 32595 20505 10306 20252 30133 40138 82100 333 58014;EQDQ01  00002PRCP06
0198834980999992005022500004-17733-039250FM-12+000399999V0200501N001512200019N0020001N1+02661+02441101481ADDAA106000091GF103991031011008001001001KA1240M+03151MA1999999101431MD1999999-0031REMSYN088AAXX  25004 83498 32595 30503 10266 20244 30143 40148 83100 333 10315 29084 55096 59003;EQDQ01  00002PRCP06
0186834980999992005022512004-17733-039250FM-12+000399999V0203601N002112200019N0020001N1+02921+02541101451ADDAA106000091GF106991031011008001001011KA1240N+02411MA1999999101401MD1999999-0201REMSYN076AAXX  25124 83498 32595 63604 10292 20254 30140 40145 83101 333 20241 59020;EQDQ01  00002PRCP06
0167834980999992005022518004-17733-039250FM-12+000399999V0200501N004111050019N0020001N1+03081+02491101071ADDAA106000091GF105991021011008001001021MA1999999101021MD1999999-0311REMSYN070AAXX  25184 83498 32595 50508 10308 20249 30102 40107 82102 333 59031;EQDQ01  00002PRCP06
0198834980999992005022600004-17733-039250FM-12+000399999V0203601N003612200019N0020001N1+02701+02481101201ADDAA106000091GF101991011011008001001001KA1240M+03201MA1999999101151MD1999999-0281REMSYN088AAXX  26004 83498 32595 13607 10270 20248 30115 40120 81100 333 10320 29082 55096 59028;EQDQ01  00002PRCP06
0186834980999992005022612004-17733-039250FM-12+000399999V0203601N004112200019N0020001N1+02921+02501101151ADDAA106000091GF105991021011008001001011KA1240N+02461MA1999999101101MD1999999-0301REMSYN076AAXX  26124 83498 32595 53608 10292 20250 30110 40115 82101 333 20246 59030;EQDQ01  00002PRCP06
0173834980999992005022712004-17730-039250FM-12+000399999V0203601N003110450019N0020001N1+02901+02521101211ADDAA106000091GF107991031011008001041081MA1999999101161MD1999999+0061REMSYN076AAXX  27124 83498 32595 73606 10290 20252 30116 40121 83148 333 20247 58006;EQDQ01  00002PRCP06
0167834980999992005022718004-17730-039250FM-12+000399999V0203601N005110450019N0020001N1+02881+02541100871ADDAA106000091GF108991021011008001041021MA1999999100821MD1999999-0011REMSYN070AAXX  27184 83498 32595 83610 10288 20254 30082 40087 82142 333 59001;EQDQ01  00002PRCP06
0198834980999992005022800004-17733-039250FM-12+000399999V0203601N005111050019N0020001N1+02701+02481101231ADDAA106000091GF106991031051008001001081KA1240M+03101MA1999999101181MD1999999+0091REMSYN088AAXX  28004 83498 32595 63610 10270 20248 30118 40123 83508 333 10310 29084 55018 58009;EQDQ01  00002PRCP06
0186834980999992005022812004-17733-039250FM-12+000399999V0203601N004110450019N0020001N1+02911+02561101371ADDAA106000091GF107991021061008001071001KA1240N+02581MA1999999101321MD1999999+0161REMSYN076AAXX  28124 83498 32595 73608 10291 20256 30132 40137 82670 333 20258 58016;EQDQ01  00002PRCP06
0167834980999992005022818004-17733-039250FM-12+000399999V0200501N005112200019N0020001N1+02951+02541101011ADDAA106000091GF104991041041008001001001MA1999999100961MD1999999+0141REMSYN070AAXX  28184 83498 32595 40510 10295 20254 30096 40101 84400 333 58014;EQDQ01  00002PRCP06
0210834980999992005030100004-17733-039250FM-12+000399999V0203201N001010450019N0020001N1+02661+02371101211ADDAA106000091GF106991041051008001011001KA1240M+03071MA1999999101161MD1999999-0021MW1131REMSYN094AAXX  01004 83498 31595 63202 10266 20237 30116 40121 713// 84510 333 10307 29082 55020 59002;EQDQ01  00002PRCP06
0186834980999992005030112004-17733-039250FM-12+000399999V0203601N004611050019N0020001N1+02911+02391101251ADDAA106000091GF106991021021008001001081KA1240N+02491MA1999999101201MD1999999-0121REMSYN076AAXX  01124 83498 32595 63609 10291 20239 30120 40125 82208 333 20249 59012;EQDQ01  00002PRCP06
0186834980999992005030200004-17733-039250FM-12+000399999V0202301N002610075019N0020001N1+02631+02551101281ADDGF108991051061008001021061KA1240M+03181MA1999999101231MD1999999+0071MW1211REMSYN100AAXX  02004 83498 21595 82305 10263 20255 30123 40128 721// 85626 333 10318 29086 55038 58007 69931;
0190834980999992005030212004-17733-039250FM-12+000399999V0201801N001510075019N0020001N1+02791+02461101451ADDAY121061AY211061GF107991051051008001011001KA1240N+01551MA1999999101401MD1999999+0201MW1031REMSYN088AAXX  02124 83498 21595 71803 10279 20246 30140 40145 70321 85510 333 20155 58020 60094;
0167834980999992005030218004-17733-039250FM-12+000399999V0201801N004610450019N0020001N1+02971+02561101231ADDAA106000091GF107991041051008001041001MA1999999101181MD1999999+0311REMSYN070AAXX  02184 83498 32595 71809 10297 20256 30118 40123 84540 333 58031;EQDQ01  00002PRCP06
0202834980999992005030300004-17733-039250FM-12+000399999V0201401N005110450019N0020001N1+02731+02521101531ADDAY121061AY211061GF108991031051008001021999KA1240M+03011MA1999999101481MD1999999+0251MW1031REMSYN100AAXX  03004 83498 21595 81410 10273 20252 30148 40153 70321 8352/ 333 10301 29085 55030 58025 60011;
0190834980999992005030312004-17733-039250FM-12+000399999V0201401N002610075019N0020001N1+02771+02561101641ADDAY121061AY211061GF108991051051008001021999KA1240N+02481MA1999999101591MD1999999+0191MW1031REMSYN088AAXX  03124 83498 21595 81405 10277 20256 30159 40164 70321 8552/ 333 20248 58019 60134;
0198834980999992005030400004-17733-039250FM-12+000399999V0200901N002112200019N0020001N1+02651+02521101591ADDAA106000091GF103991031061008001001001KA1240M+02951MA1999999101541MD1999999+0061REMSYN088AAXX  04004 83498 32595 30904 10265 20252 30154 40159 83600 333 10295 29091 55040 58006;EQDQ01  00002PRCP06
0186834980999992005030412004-17733-039250FM-12+000399999V0203601N001510075019N0020001N1+02801+02521101561ADDAA106000091GF106991061021008001001001KA1240N+02381MA1999999101511MD1999999-0081REMSYN076AAXX  04124 83498 32595 63603 10280 20252 30151 40156 86200 333 20238 59008;EQDQ01  00002PRCP06
0167834980999992005030418004-17733-039250FM-12+000399999V0203601N004110450019N0020001N1+03181+02391101261ADDAA106000091GF105991021011008001041001MA1999999101211MD1999999-0151REMSYN070AAXX  04184 83498 32595 53608 10318 20239 30121 40126 82140 333 59015;EQDQ01  00002PRCP06
0208834980999992005030500004-17733-039250FM-12+000399999V0200501N001012200019N0020001N1+02661+02441101541ADDAA106000091GA1001+999999999GF100991001001999999001001KA1240M+03101MA1999999101491MD1999999-0051REMSYN082AAXX  05004 83498 32995 00502 10266 20244 30149 40154 333 10310 29081 55089 59005;EQDQ01  00002PRCP06
0186834980999992005030512004-17733-039250FM-12+000399999V0200501N002110450019N0020001N1+02861+02421101661ADDAA106000091GF106991031011008001041001KA1240N+02301MA1999999101611MD1999999+0101REMSYN076AAXX  05124 83498 32595 60504 10286 20242 30161 40166 83140 333 20230 58010;EQDQ01  00002PRCP06
0167834980999992005030518004-17733-039250FM-12+000399999V0200501N002611050019N0020001N1+03001+02371101361ADDAA106000091GF105991021011008001031011MA1999999101311MD1999999+0101REMSYN070AAXX  05184 83498 32595 50505 10300 20237 30131 40136 82131 333 58010;EQDQ01  00002PRCP06
0198834980999992005030600004-17730-039250FM-12+000399999V0200501N001512200019N0020001N1+02701+02481101581ADDAA106000091GF101991011011008001001001KA1240M+03071MA1999999101531MD1999999+0041REMSYN088AAXX  06004 83498 32595 10503 10270 20248 30153 40158 81100 333 10307 29080 55072 58004;EQDQ01  00002PRCP06
0186834980999992005030612004-17730-039250FM-12+000399999V0200501N003110450019N0020001N1+02961+02491101531ADDAA106000091GF106991021011008001041011KA1240N+02471MA1999999101481MD1999999-0131REMSYN076AAXX  06124 83498 32595 60506 10296 20249 30148 40153 82141 333 20247 59013;EQDQ01  00002PRCP06
0167834980999992005030618004-17730-039250FM-12+000399999V0200501N003612200019N0020001N1+03081+02471101161ADDAA106000091GF103991021011008001001011MA1999999101111MD1999999-0201REMSYN070AAXX  06184 83498 32595 30507 10308 20247 30111 40116 82101 333 59020;EQDQ01  00002PRCP06
0198834980999992005030700004-17733-039250FM-12+000399999V0200501N001510450019N0020001N1+02661+02391101471ADDAA106000091GF106991031051008001031001KA1240M+03071MA1999999101421MD1999999-0111REMSYN088AAXX  07004 83498 32595 60503 10266 20239 30142 40147 83530 333 10307 29079 55043 59011;EQDQ01  00002PRCP06
0190834980999992005030712004-17733-039250FM-12+000399999V0202301N000510450019N0020001N1+02641+02501101481ADDAY161061AY221061GF108991031061008001011999KA1240N+02401MA1999999101431MD1999999-0051MW1211REMSYN088AAXX  07124 83498 21595 82301 10264 20250 30143 40148 72162 8361/ 333 20240 59005 60024;
0171834980999992005030718004-17733-039250FM-12+000399999V0201801N001510450019N0020001N1+02521+02381101281ADDAY161061AY261061GF108991041051008001011999MA1999999101231MD1999999+0121MW1651REMSYN082AAXX  07184 83498 21595 81803 10252 20238 30123 40128 76566 8451/ 333 58012 60511;
0179834980999992005030800004-17733-039250FM-12+000399999V0201401N000510450019N0020001N1+02601+02461101571ADDAA106000021GF108991031071008001011999KA1240M+02851MA1999999101521MD1999999+0101REMSYN088AAXX  08004 83498 32595 81401 10260 20246 30152 40157 8371/ 333 10285 29092 55000 58010;
0162834980999992005030812004-17733-039250FM-12+000399999V0203601N000510075019N0020001N1+02701+02541101511ADDGF107991051051008001011001KA1240N+02431MA1999999101461MD1999999+0031REMSYN082AAXX  08124 83498 22595 73601 10270 20254 30146 40151 85510 333 20243 58003 60514;
0167834980999992005030818004-17733-039250FM-12+000399999V0201401N001511050019N0020001N1+02871+02621101211ADDAA106000091GF106991021021008001001081MA1999999101161MD1999999-0071REMSYN070AAXX  08184 83498 32595 61403 10287 20262 30116 40121 82208 333 59007;EQDQ01  00002PRCP06
0208834980999992005030900004-17733-039250FM-12+000399999V0200901N001512200019N0020001N1+02671+02521101401ADDAA106000091GA1001+999999999GF100991001001999999001001KA1240M+02991MA1999999101351MD1999999-0171REMSYN082AAXX  09004 83498 32995 00903 10267 20252 30135 40140 333 10299 29091 55026 59017;EQDQ01  00002PRCP06
0186834980999992005030912004-17733-039250FM-12+000399999V0202301N001010075019N0020001N1+02811+02601101361ADDAA106000091GF105991051021008001001001KA1240N+02401MA1999999101311MD1999999-0151REMSYN076AAXX  09124 83498 32595 52302 10281 20260 30131 40136 85200 333 20240 59015;EQDQ01  00002PRCP06
0167834980999992005030918004-17733-039250FM-12+000399999V0201401N001512200019N0020001N1+02861+02701101001ADDAA106000091GF104991031021008001041001MA1999999100951MD1999999-0211REMSYN070AAXX  09184 83498 32595 41403 10286 20270 30095 40100 83240 333 59021;EQDQ01  00002PRCP06
0208834980999992005031000004-17733-039250FM-12+000399999V0200901N001012200019N0020001N1+02541+02491101191ADDAA106000091GA1001+999999999GF100991001001999999001001KA1240M+03051MA1999999101141MD1999999-0211REMSYN082AAXX  10004 83498 32995 00902 10254 20249 30114 40119 333 10305 29094 55087 59021;EQDQ01  00002PRCP06
0186834980999992005031012004-17733-039250FM-12+000399999V0203201N002612200019N0020001N1+02871+02581101391ADDAA106000091GF104991041021008001001001KA1240N+02401MA1999999101341MD1999999+0031REMSYN076AAXX  10124 83498 32595 43205 10287 20258 30134 40139 84200 333 20240 58003;EQDQ01  00002PRCP06
0167834980999992005031018004-17733-039250FM-12+000399999V0200501N004112200019N0020001N1+03111+02561101021ADDAA106000091GF102991021011008001001001MA1999999100971MD1999999+0021REMSYN070AAXX  10184 83498 32595 20508 10311 20256 30097 40102 82100 333 58002;EQDQ01  00002PRCP06
0208834980999992005031100004-17733-039250FM-12+000399999V0200501N002612200019N0020001N1+02671+02541101311ADDAA106000091GA1001+999999999GF100991001001999999001001KA1240M+03211MA1999999101261MD1999999+0121REMSYN082AAXX  11004 83498 32995 00505 10267 20254 30126 40131 333 10321 29086 55104 58012;EQDQ01  00002PRCP06
0186834980999992005031112004-17733-039250FM-12+000399999V0203601N004112200019N0020001N1+02951+02561101421ADDAA106000091GF103991031011008001001001KA1240N+02481MA1999999101371MD1999999+0031REMSYN076AAXX  11124 83498 32595 33608 10295 20256 30137 40142 83100 333 20248 58003;EQDQ01  00002PRCP06
0167834980999992005031118004-17733-039250FM-12+000399999V0200501N005112200019N0020001N1+03031+02571101071ADDAA106000091GF103991001001999999001051MA1999999101021MD1999999+0051REMSYN070AAXX  11184 83498 32595 30510 10303 20257 30102 40107 80005 333 58005;EQDQ01  00002PRCP06
0202834980999992005031200004-17733-039250FM-12+000399999V0202701N000510450019N0020001N1+02591+02531101321ADDAY121061AY211061GF105991041061008001011001KA1240M+03181MA1999999101271MD1999999-0011MW1031REMSYN100AAXX  12004 83498 21595 52701 10259 20253 30127 40132 70321 84610 333 10318 29088 55089 59001 69921;
0162834980999992005031212004-17733-039250FM-12+000399999V0203601N003610450019N0020001N1+02861+02541101231ADDGF108991041051008001051999KA1240N+02451MA1999999101181MD1999999-0191REMSYN082AAXX  12124 83498 22595 83607 10286 20254 30118 40123 8455/ 333 20245 59019 69924;
0167834980999992005031218004-17733-039250FM-12+000399999V0200501N004112200019N0020001N1+03081+02541100961ADDAA106000091GF104991021011008001001011MA1999999100911MD1999999-0111REMSYN070AAXX  12184 83498 32595 40508 10308 20254 30091 40096 82101 333 59011;EQDQ01  00002PRCP06
0198834980999992005031300004-17730-039250FM-12+000399999V0200501N003112200019N0020001N1+02701+02481101301ADDAA106000091GF102991999011008001001001KA1240M+03121MA1999999101251MD1999999-0021REMSYN088AAXX  13004 83498 32595 20506 10270 20248 30125 40130 81100 333 10312 29083 55045 59002;EQDQ01  00002PRCP06
0190834980999992005031312004-17730-039250FM-12+000399999V0203201N001010450019N0020001N1+02581+02511101361ADDAY161061AY261061GF108991031071008001021999KA1240N+02411MA1999999101311MD1999999+0131MW1211REMSYN088AAXX  13124 83498 21595 83202 10258 20251 30131 40136 72166 8372/ 333 20241 58013 60574;
0171834980999992005031318004-17730-039250FM-12+000399999V0200501N003612200019N0020001N1+02991+02761101001ADDAY121061AY211061GF104991021021008001041001MA1999999100951MD1999999+0041MW1011REMSYN082AAXX  13184 83498 21595 40507 10299 20276 30095 40100 70121 82240 333 58004 60021;
0192834980999992005031400004-17730-039250FM-12+000399999V0200501N002612200019N0020001N1+02651+02571101221ADDAA106000091GF100991001001999999001001KA1240M+03091MA1999999101171MD1999999-0081REMSYN082AAXX  14004 83498 32995 00505 10265 20257 30117 40122 333 10309 29094 55061 59008;EQDQ01  00002PRCP06
0162834980999992005031412004-17730-039250FM-12+000399999V0200501N002610450019N0020001N1+02801+02521101331ADDGF106991041021008001031001KA1240N+02431MA1999999101281MD1999999-0031REMSYN082AAXX  14124 83498 22595 60505 10280 20252 30128 40133 84230 333 20243 59003 60024;
0167834980999992005031418004-17733-039250FM-12+000399999V0203601N004112200019N0020001N1+03021+02441101031ADDAA106000091GF102991021011008001001001MA1999999100981MD1999999+0031REMSYN070AAXX  14184 83498 32595 23608 10302 20244 30098 40103 82100 333 58003;EQDQ01  00002PRCP06
0208834980999992005031500004-17733-039250FM-12+000399999V0200501N002612200019N0020001N1+02681+02461101241ADDAA106000091GA1001+999999999GF100991001001999999001001KA1240M+03101MA1999999101191MD1999999+0021REMSYN082AAXX  15004 83498 32995 00505 10268 20246 30119 40124 333 10310 29083 55100 58002;EQDQ01  00002PRCP06
0186834980999992005031512004-17733-039250FM-12+000399999V0203601N001510450019N0020001N1+02781+02601101391ADDAA106000091GF106991041051008001031001KA1240N+02531MA1999999101341MD1999999+0061REMSYN076AAXX  15124 83498 32595 63603 10278 20260 30134 40139 84530 333 20253 58006;EQDQ01  00002PRCP06
0167834980999992005031518004-17733-039250FM-12+000399999V0200501N005112200019N0020001N1+03011+02551101151ADDAA106000091GF103991031011008001001001MA1999999101101MD1999999+0121REMSYN070AAXX  15184 83498 32595 30510 10301 20255 30110 40115 83100 333 58012;EQDQ01  00002PRCP06
0198834980999992005031600004-17733-039250FM-12+000399999V0200501N001512200019N0020001N1+02661+02501101431ADDAA106000091GF102991021011008001001001KA1240M+03131MA1999999101381MD1999999+0191REMSYN088AAXX  16004 83498 32595 20503 10266 20250 30138 40143 82100 333 10313 29087 55092 58019;EQDQ01  00002PRCP06
0190834980999992005031612004-17733-039250FM-12+000399999V0203601N001512200019N0020001N1+02831+02641101571ADDAY161061AY261061GF104991011021008001041001KA1240N+02431MA1999999101521MD1999999+0181MW1211REMSYN088AAXX  16124 83498 21595 43603 10283 20264 30152 40157 72166 81240 333 20243 58018 60034;
0198834980999992005031700004-17733-039250FM-12+000399999V0200501N000512200019N0020001N1+02601+02461101531ADDAA106000091GF102991021011008001001001KA1240M+03091MA1999999101481MD1999999+0101REMSYN088AAXX  17004 83498 32595 20501 10260 20246 30148 40153 82100 333 10309 29088 55077 58010;EQDQ01  00002PRCP06
0186834980999992005031712004-17733-039250FM-12+000399999V0200501N002112200019N0020001N1+02931+02501101481ADDAA106000091GF105991041021008001001011KA1240N+02391MA1999999101431MD1999999-0091REMSYN076AAXX  17124 83498 32595 50504 10293 20250 30143 40148 84201 333 20239 59009;EQDQ01  00002PRCP06
0167834980999992005031718004-17733-039250FM-12+000399999V0200501N003612200019N0020001N1+03031+02551101121ADDAA106000091GF104991021011008001001021MA1999999101071MD1999999-0201REMSYN070AAXX  17184 83498 32595 40507 10303 20255 30107 40112 82102 333 59020;EQDQ01  00002PRCP06
0198834980999992005031800004-17733-039250FM-12+000399999V0200501N001012200019N0020001N1+02511+02401101301ADDAA106000091GF101991001001999999001021KA1240M+03131MA1999999101251MD1999999-0231REMSYN088AAXX  18004 83498 32995 10502 10251 20240 30125 40130 80002 333 10313 29085 55105 59023;EQDQ01  00002PRCP06
0186834980999992005031812004-17733-039250FM-12+000399999V0203601N001512200019N0020001N1+02811+02521101401ADDAA106000091GF103991031021008001001001KA1240N+02331MA1999999101351MD1999999-0081REMSYN076AAXX  18124 83498 32595 33603 10281 20252 30135 40140 83200 333 20233 59008;EQDQ01  00002PRCP06
0167834980999992005031818004-17733-039250FM-12+000399999V0200501N003612200019N0020001N1+03051+02521101101ADDAA106000091GF101991011011008001001001MA1999999101051MD1999999-0021REMSYN070AAXX  18184 83498 32595 10507 10305 20252 30105 40110 81100 333 59002;EQDQ01  00002PRCP06
0208834980999992005031900004-17733-039250FM-12+000399999V0200501N000512200019N0020001N1+02531+02421101231ADDAA106000091GA1001+999999999GF100991001001999999001001KA1240M+03161MA1999999101181MD1999999-0071REMSYN082AAXX  19004 83498 32995 00501 10253 20242 30118 40123 333 10316 29087 55103 59007;EQDQ01  00002PRCP06
0186834980999992005031912004-17733-039250FM-12+000399999V0203201N001512200019N0020001N1+02941+02601101371ADDAA106000091GF105991031011008001001011KA1240N+02351MA1999999101321MD1999999-0031REMSYN076AAXX  19124 83498 32595 53203 10294 20260 30132 40137 83101 333 20235 59003;EQDQ01  00002PRCP06
0183834980999992005031918004-17733-039250FM-12+000399999V0200501N002612200019N0020001N1+03161+02371101081ADDAA106000091GF102991999011008001001001MA1999999101031MD1999999-0021REMSYN070AAXX  19184 83498 32595 20505 10316 20237 30103 40108 81100 333 59002;EQDQ01+000012SCOTLCQ02  00002PRCP06
0198834980999992005032000004-17730-039250FM-12+000399999V0200501N001010450019N0020001N1+02661+02441101341ADDAA106000091GF105991021011008001051001KA1240M+03201MA1999999101291MD1999999+0111REMSYN088AAXX  20004 83498 32595 50502 10266 20244 30129 40134 82150 333 10320 29080 55097 58011;EQDQ01  00002PRCP06
0186834980999992005032012004-17730-039250FM-12+000399999V0200501N002111050019N0020001N1+02911+02561101491ADDAA106000091GF106991041021008001001021KA1240N+02381MA1999999101441MD1999999+0121REMSYN076AAXX  20124 83498 32595 60504 10291 20256 30144 40149 84202 333 20238 58012;EQDQ01  00002PRCP06
0167834980999992005032018004-17730-039250FM-12+000399999V0200501N003611050019N0020001N1+03051+02551101161ADDAA106000091GF105991011011008001001021MA1999999101111MD1999999+0081REMSYN070AAXX  20184 83498 32595 50507 10305 20255 30111 40116 81102 333 58008;EQDQ01  00002PRCP06
0198834980999992005032100004-17733-039250FM-12+000399999V0200501N001519999999N0020001N1+02581+02491101401ADDAA106000091GF106991001001999999001021KA1240M+03131MA1999999101351MD1999999+0061REMSYN088AAXX  21004 83498 32995 60503 10258 20249 30135 40140 80002 333 10313 29087 55088 58006;EQDQ01  00002PRCP06
0190834980999992005032112004-17733-039250FM-12+000399999V0200501N000510450019N0020001N1+02731+02631101621ADDAY161061AY261061GF106991041051008001041001KA1240N+02401MA1999999101571MD1999999+0131MW1211REMSYN088AAXX  21124 83498 21595 60501 10273 20263 30157 40162 72166 84540 333 20240 58013 60064;
0148834980999992005032118004-17733-039250FM-12+000399999V0200901N003610450019N0020001N1+02951+02521101361ADDAA106000021GF105991041021008001021001MA1999999101311MD1999999+0201REMSYN070AAXX  21184 83498 32595 50907 10295 20252 30131 40136 84220 333 58020;
0198834980999992005032200004-17733-039250FM-12+000399999V0200901N001012200019N0020001N1+02531+02421101541ADDAA106000091GF101991011011008001001001KA1240M+03061MA1999999101491MD1999999+0141REMSYN088AAXX  22004 83498 32595 10902 10253 20242 30149 40154 81100 333 10306 29090 55071 58014;EQDQ01  00002PRCP06
0190834980999992005032212004-17733-039250FM-12+000399999V0200901N002110450019N0020001N1+02891+02521101691ADDAY161061AY221061GF105991031051008001031021KA1240N+02431MA1999999101641MD1999999+0071MW1211REMSYN088AAXX  22124 83498 21595 50904 10289 20252 30164 40169 72162 83532 333 20243 58007 60024;
0148834980999992005032218004-17733-039250FM-12+000399999V0200901N002611050019N0020001N1+02931+02581101441ADDAA106000021GF105991041021008001001051MA1999999101391MD1999999+0081REMSYN070AAXX  22184 83498 32595 50905 10293 20258 30139 40144 84205 333 58008;
0198834980999992005032300004-17733-039250FM-12+000399999V0200501N000512200019N0020001N1+02591+02421101701ADDAA106000091GF101991011011008001001001KA1240M+03101MA1999999101651MD1999999+0161REMSYN088AAXX  23004 83498 32595 10501 10259 20242 30165 40170 81100 333 10310 29086 55077 58016;EQDQ01  00002PRCP06
0186834980999992005032312004-17733-039250FM-12+000399999V0200501N001512200019N0020001N1+02851+02501101821ADDAA106000091GF103991031051008001001001KA1240N+02401MA1999999101771MD1999999+0131REMSYN076AAXX  23124 83498 32595 30503 10285 20250 30177 40182 83500 333 20240 58013;EQDQ01  00002PRCP06
0167834980999992005032318004-17733-039250FM-12+000399999V0201401N003112200019N0020001N1+02951+02641101511ADDAA106000091GF104991041011008001001001MA1999999101461MD1999999+0071REMSYN070AAXX  23184 83498 32595 41406 10295 20264 30146 40151 84100 333 58007;EQDQ01  00002PRCP06
0190834980999992005032412004-17733-039250FM-12+000399999V0200901N000510075019N0020001N1+02791+02481101701ADDAY161061AY221061GF106991061041008001001001KA1240N+02401MA1999999101651MD1999999-0121MW1211REMSYN088AAXX  24124 83498 21595 60901 10279 20248 30165 40170 72162 86400 333 20240 59012 60014;
0148834980999992005032418004-17733-039250FM-12+000399999V0200901N002612200019N0020001N1+02951+02561101351ADDAA106000021GF103991021011008001001011MA1999999101301MD1999999-0161REMSYN070AAXX  24184 83498 32595 30905 10295 20256 30130 40135 82101 333 59016;
0208834980999992005032500004-17733-039250FM-12+000399999V0200901N001512200019N0020001N1+02481+02321101501ADDAA106000091GA1001+999999999GF100991001001999999001001KA1240M+03091MA1999999101451MD1999999-0151REMSYN082AAXX  25004 83498 32995 00903 10248 20232 30145 40150 333 10309 29087 55077 59015;EQDQ01  00002PRCP06
0186834980999992005032512004-17733-039250FM-12+000399999V0202301N000510450019N0020001N1+02731+02541101561ADDAA106000091GF106991041051008001011001KA1240N+02301MA1999999101511MD1999999-0141REMSYN076AAXX  25124 83498 32595 62301 10273 20254 30151 40156 84510 333 20230 59014;EQDQ01  00002PRCP06
0167834980999992005032518004-17733-039250FM-12+000399999V0201401N003112200019N0020001N1+02951+02541101201ADDAA106000091GF103991011021008001031091MA1999999101151MD1999999-0151REMSYN070AAXX  25184 83498 32595 31406 10295 20254 30115 40120 81239 333 59015;EQDQ01  00002PRCP06
0198834980999992005032600004-17733-039250FM-12+000399999V0200901N001512200019N0020001N1+02551+02381101361ADDAA106000091GF102991001001999999001041KA1240M+03041MA1999999101311MD1999999-0141REMSYN088AAXX  26004 83498 32795 20903 10255 20238 30131 40136 80004 333 10304 29088 55074 59014;EQDQ01  00002PRCP06
0190834980999992005032612004-17733-039250FM-12+000399999V0202701N001010450019N0020001N1+02481+02431101391ADDAY161061AY221061GF107991041051008001021001KA1240N+02411MA1999999101341MD1999999-0171MW1211REMSYN088AAXX  26124 83498 21595 72702 10248 20243 30134 40139 72162 84520 333 20241 59017 60194;
0171834980999992005032618004-17733-039250FM-12+000399999V0203601N001510450019N0020001N1+02531+02431101211ADDAY161061AY261061GF108991031051008001021999MA1999999101161MD1999999+0011MW1211REMSYN082AAXX  26184 83498 21595 83603 10253 20243 30116 40121 72166 8352/ 333 58001 60181;
0202834980999992005032700004-17730-039250FM-12+000399999V0200901N003110075019N0020001N1+02481+02341101401ADDAY161061AY261061GF108991051061008001021999KA1240M+02761MA1999999101351MD1999999+0041MW1211REMSYN100AAXX  27004 83498 21595 80906 10248 20234 30135 40140 72166 8562/ 333 10276 29094 55000 58004 69921;
0162834980999992005032712004-17730-039250FM-12+000399999V0200901N003110450019N0020001N1+02481+02301101501ADDGF108991031071008001021999KA1240N+02281MA1999999101451MD1999999+0111REMSYN082AAXX  27124 83498 22595 80906 10248 20230 30145 40150 8372/ 333 20228 58011 60184;
0171834980999992005032718004-17730-039250FM-12+000399999V0201401N002110450019N0020001N1+02671+02271101271ADDAY161061AY221061GF106991011021008001021021MA1999999101221MD1999999+0061MW1211REMSYN082AAXX  27184 83498 21595 61404 10267 20227 30122 40127 72162 81222 333 58006 60041;
0179834980999992005032800004-17730-039250FM-12+000399999V0200901N001510450019N0020001N1+02551+02361101491ADDAA106000021GF107991041051008001051001KA1240M+02731MA1999999101441MD1999999+0091REMSYN088AAXX  28004 83498 32595 70903 10255 20236 30144 40149 84550 333 10273 29088 55014 58009;
0162834980999992005032812004-17730-039250FM-12+000399999V0201401N002110450019N0020001N1+02771+02501101501ADDGF106991041021008001031051KA1240N+02531MA1999999101451MD1999999+0001REMSYN082AAXX  28124 83498 22595 61404 10277 20250 30145 40150 84235 333 20253 58000 60044;
0167834980999992005032818004-17730-039250FM-12+000399999V0200901N002110450019N0020001N1+02641+02461101251ADDAA106000091GF107991031051008001021001MA1999999101201MD1999999-0021REMSYN070AAXX  28184 83498 32595 70904 10264 20246 30120 40125 83520 333 59002;EQDQ01  00002PRCP06
0198834980999992005032900004-17733-039250FM-12+000399999V0200901N002110450019N0020001N1+02631+02411101451ADDAA106000091GF106991031051008001051001KA1240M+02901MA1999999101401MD1999999-0041REMSYN088AAXX  29004 83498 32595 60904 10263 20241 30140 40145 83550 333 10290 29088 55044 59004;EQDQ01  00002PRCP06
0190834980999992005032912004-17733-039250FM-12+000399999V0201801N002110450019N0020001N1+02591+02401101561ADDAY121061AY211061GF107991041051008001011001KA1240N+02301MA1999999101511MD1999999+0061MW1031REMSYN088AAXX  29124 83498 21595 71804 10259 20240 30151 40156 70321 84510 333 20230 58006 60104;
0171834980999992005032918004-17733-039250FM-12+000399999V0201401N002110450019N0020001N1+02661+02431101301ADDAY161061AY261061GF105991021051008001011051MA1999999101251MD1999999+0051MW1211REMSYN082AAXX  29184 83498 21595 51404 10266 20243 30125 40130 72166 82515 333 58005 60031;
0179834980999992005033000004-17733-039250FM-12+000399999V0201401N001512200019N0020001N1+02571+02401101541ADDAA106000021GF102991021041008001001001KA1240M+02851MA1999999101491MD1999999+0091REMSYN088AAXX  30004 83498 32595 21403 10257 20240 30149 40154 82400 333 10285 29090 55015 58009;
0167834980999992005033018004-17733-039250FM-12+000399999V0201401N002610450019N0020001N1+02891+02501101281ADDAA106000091GF105991031041008001021011MA1999999101231MD1999999-0021REMSYN070AAXX  30184 83498 32595 51405 10289 20250 30123 40128 83421 333 59002;EQDQ01  00002PRCP06
0208834980999992005033100004-17733-039250FM-12+000399999V0201401N001512200019N0020001N1+02631+02411101501ADDAA106000091GA1001+999999999GF100991001001999999001001KA1240M+02951MA1999999101451MD1999999-0041REMSYN082AAXX  31004 83498 32995 01403 10263 20241 30145 40150 333 10295 29086 55101 59004;EQDQ01  00002PRCP06
0186834980999992005033112004-17733-039250FM-12+000399999V0201401N003110450019N0020001N1+02941+02451101601ADDAA106000091GF106991041051008001041001KA1240N+02551MA1999999101551MD1999999+0021REMSYN076AAXX  31124 83498 32595 61406 10294 20245 30155 40160 84540 333 20255 58002;EQDQ01  00002PRCP06
0198834980999992005040100004-17733-039250FM-12+000399999V0200901N001512200019N0020001N1+02611+02441101531ADDAA106000091GF101991011021008001001001KA1240M+02991MA1999999101481MD1999999+0031REMSYN088AAXX  01004 83498 32595 10903 10261 20244 30148 40153 81200 333 10299 29086 55059 58003;EQDQ01  00002PRCP06
0190834980999992005040112004-17733-039250FM-12+000399999V0201401N002610450019N0020001N1+02931+02561101731ADDAY161061AY221061GF106991041021008001021001KA1240N+02471MA1999999101681MD1999999+0131MW1211REMSYN088AAXX  01124 83498 21595 61405 10293 20256 30168 40173 72162 84220 333 20247 58013 60014;
0148834980999992005040118004-17733-039250FM-12+000399999V0201401N004110075019N0020001N1+02951+02541101521ADDAA106000021GF106991061021008001001001MA1999999101471MD1999999+0131REMSYN070AAXX  01184 83498 32595 61408 10295 20254 30147 40152 86200 333 58013;
0208834980999992005040200004-17733-039250FM-12+000399999V0200901N001512200019N0020001N1+02651+02461101661ADDAA106000091GA1001+999999999GF100991001001999999001001KA1240M+03051MA1999999101611MD1999999+0131REMSYN082AAXX  02004 83498 32995 00903 10265 20246 30161 40166 333 10305 29086 55086 58013;EQDQ01  00002PRCP06
0186834980999992005040212004-17733-039250FM-12+000399999V0201401N002112200019N0020001N1+02901+02481101761ADDAA106000091GF103991031011008001001001KA1240N+02521MA1999999101711MD1999999+0031REMSYN076AAXX  02124 83498 32595 31404 10290 20248 30171 40176 83100 333 20252 58003;EQDQ01  00002PRCP06
0167834980999992005040218004-17733-039250FM-12+000399999V0201401N002110075019N0020001N1+02871+02561101511ADDAA106000091GF105991051021008001001001MA1999999101461MD1999999-0011REMSYN070AAXX  02184 83498 32595 51404 10287 20256 30146 40151 85200 333 59001;EQDQ01  00002PRCP06
0185834980999992005040300004-17730-039250FM-12+000399999V0201401N001512200019N0020001N1+02631+02461101681ADDAA106000091GF101991011011008001001001MA1999999101631MD1999999+0021REMSYN088AAXX  03004 83498 32595 11403 10263 20246 30163 40168 81100 333 10298 29086 55099 58002;EQDQ01  00002PRCP06
0177834980999992005040312004-17730-039250FM-12+000399999V0203601N002612200019N0020001N1+02911+02561101741ADDAY161061AY221061GF104991031021008001021001MA1999999101691MD1999999-0021MW1211REMSYN088AAXX  03124 83498 21595 43605 10291 20256 30169 40174 72162 83220 333 20238 59002 60034;
0148834980999992005040318004-17730-039250FM-12+000399999V0203001N025712200019N0020001N1+03011+02641101411ADDAA106000021GF103991031021008001001001MA1999999101361MD1999999-0101REMSYN070AAXX  03184 83498 32595 33050 10301 20264 30136 40141 83200 333 59010;
0208834980999992005040400004-17733-039250FM-12+000399999V0200501N001012200019N0020001N1+02531+02421101621ADDAA106000091GA1001+999999999GF100991001001999999001001KA1240M+03111MA1999999101571MD1999999-0061REMSYN082AAXX  04004 83498 32995 00502 10253 20242 30157 40162 333 10311 29088 55079 59006;EQDQ01  00002PRCP06
0186834980999992005040412004-17733-039250FM-12+000399999V0203601N001012200019N0020001N1+02841+02621101811ADDAA106000091GF104991041021008001001001KA1240N+02401MA1999999101761MD1999999+0071REMSYN076AAXX  04124 83498 32595 43602 10284 20262 30176 40181 84200 333 20240 58007;EQDQ01  00002PRCP06
0167834980999992005040418004-17733-039250FM-12+000399999V0200501N004610075019N0020001N1+02951+02661101481ADDAA106000091GF106991061021008001001001MA1999999101431MD1999999+0071REMSYN070AAXX  04184 83498 32595 60509 10295 20266 30143 40148 86200 333 58007;EQDQ01  00002PRCP06
0208834980999992005040500004-17733-039250FM-12+000399999V0209999C000012200019N0020001N1+02461+02371101631ADDAA106000091GA1001+999999999GF100991001001999999001001KA1240M+03171MA1999999101581MD1999999+0021REMSYN082AAXX  05004 83498 32995 00000 10246 20237 30158 40163 333 10317 29091 55091 58002;EQDQ01  00002PRCP06
0186834980999992005040512004-17733-039250FM-12+000399999V0200501N002610075019N0020001N1+02911+02581101811ADDAA106000091GF106991051041008001021001KA1240N+02331MA1999999101761MD1999999+0001REMSYN076AAXX  05124 83498 32595 60505 10291 20258 30176 40181 85420 333 20233 58000;EQDQ01  00002PRCP06
0167834980999992005040518004-17733-039250FM-12+000399999V0200501N003612200019N0020001N1+03021+02531101521ADDAA106000091GF102991011011008001001081MA1999999101471MD1999999+0041REMSYN070AAXX  05184 83498 32595 20507 10302 20253 30147 40152 81108 333 58004;EQDQ01  00002PRCP06
0208834980999992005040600004-17733-039250FM-12+000399999V0200501N000512200019N0020001N1+02511+02341101821ADDAA106000091GA1001+999999999GF100991001001999999001001KA1240M+03111MA1999999101771MD1999999+0181REMSYN082AAXX  06004 83498 32995 00501 10251 20234 30177 40182 333 10311 29085 55099 58018;EQDQ01  00002PRCP06
0186834980999992005040612004-17733-039250FM-12+000399999V0201401N002610450019N0020001N1+02901+02601101881ADDAA106000091GF106991041051008001041001KA1240N+02361MA1999999101831MD1999999+0071REMSYN076AAXX  06124 83498 32595 61405 10290 20260 30183 40188 84540 333 20236 58007;EQDQ01  00002PRCP06
0167834980999992005040618004-17733-039250FM-12+000399999V0201401N002112200019N0020001N1+03071+02541101641ADDAA106000091GF104991031021008001021001MA1999999101591MD1999999+0121REMSYN070AAXX  06184 83498 32595 41404 10307 20254 30159 40164 83220 333 58012;EQDQ01  00002PRCP06
0208834980999992005040700004-17733-039250FM-12+000399999V0200901N001512200019N0020001N1+02591+02401101741ADDAA106000091GA1001+999999999GF100991001001999999001001KA1240M+03071MA1999999101691MD1999999-0081REMSYN082AAXX  07004 83498 32995 00903 10259 20240 30169 40174 333 10307 29085 55100 59008;EQDQ01  00002PRCP06
0186834980999992005040712004-17733-039250FM-12+000399999V0201401N002610075019N0020001N1+02911+02481101781ADDAA106000091GF106991051041008001031001KA1240N+02391MA1999999101731MD1999999-0101REMSYN076AAXX  07124 83498 32595 61405 10291 20248 30173 40178 85430 333 20239 59010;EQDQ01  00002PRCP06
0167834980999992005040718004-17733-039250FM-12+000399999V0200901N003112200019N0020001N1+02951+02521101471ADDAA106000091GF103991031021008001001001MA1999999101421MD1999999-0171REMSYN070AAXX  07184 83498 32595 30906 10295 20252 30142 40147 83200 333 59017;EQDQ01  00002PRCP06
0208834980999992005040800004-17733-039250FM-12+000399999V0200501N001012200019N0020001N1+02461+02191101731ADDAA106000091GA1001+999999999GF100991001001999999001001KA1240M+03071MA1999999101681MD1999999-0011REMSYN082AAXX  08004 83498 32995 00502 10246 20219 30168 40173 333 10307 29082 55102 59001;EQDQ01  00002PRCP06
0186834980999992005040812004-17733-039250FM-12+000399999V0203201N001010075019N0020001N1+02751+02431101771ADDAA106000091GF105991051021008001001001KA1240N+02161MA1999999101721MD1999999-0011REMSYN076AAXX  08124 83498 32595 53202 10275 20243 30172 40177 85200 333 20216 59001;EQDQ01  00002PRCP06
0167834980999992005040818004-17733-039250FM-12+000399999V0201401N002612200019N0020001N1+02871+02501101431ADDAA106000091GF102991021021008001001001MA1999999101381MD1999999-0041REMSYN070AAXX  08184 83498 32595 21405 10287 20250 30138 40143 82200 333 59004;EQDQ01  00002PRCP06
0208834980999992005040900004-17733-039250FM-12+000399999V0200901N001512200019N0020001N1+02531+02341101601ADDAA106000091GA1001+999999999GF100991001001999999001001KA1240M+03031MA1999999101551MD1999999-0131REMSYN082AAXX  09004 83498 32995 00903 10253 20234 30155 40160 333 10303 29086 55099 59013;EQDQ01  00002PRCP06
0209834980999992005040912004-17733-039250FM-12+000399999V0202701N001010075019N0020001N1+02721+02601101711ADDAY161061AY221061GF107991999051008001001001KA1240N+02381MA1999999101661MD1999999-0061MW1211REMSYN088AAXX  09124 83498 21595 72702 10272 20260 30166 40171 72162 86500 333 20238 59006 60014;EQDQ01+000062SCOTLC
0148834980999992005040918004-17733-039250FM-12+000399999V0200501N003110075019N0020001N1+03011+02531101361ADDAA106000021GF105991051021008001001001MA1999999101311MD1999999-0071REMSYN070AAXX  09184 83498 32595 50506 10301 20253 30131 40136 85200 333 59007;
0208834980999992005041000004-17733-039250FM-12+000399999V0200501N001012200019N0020001N1+02521+02361101651ADDAA106000091GA1001+999999999GF100991001001999999001001KA1240M+03131MA1999999101601MD1999999+0051REMSYN082AAXX  10004 83498 32995 00502 10252 20236 30160 40165 333 10313 29088 55076 58005;EQDQ01  00002PRCP06
0190834980999992005041012004-17733-039250FM-12+000399999V0200901N001512200019N0020001N1+02811+02381101761ADDAY121061AY211061GF104991031021008001041001KA1240N+02351MA1999999101711MD1999999+0051MW1031REMSYN088AAXX  10124 83498 21595 40903 10281 20238 30171 40176 70321 83240 333 20235 58005 69924;
0167834980999992005041018004-17733-039250FM-12+000399999V0200901N002610450019N0020001N1+02881+02621101461ADDAA106000091GF105991041021008001021001MA1999999101411MD1999999+0101REMSYN070AAXX  10184 83498 32595 50905 10288 20262 30141 40146 84220 333 58010;EQDQ01  00002PRCP06
0208834980999992005041100004-17733-039250FM-12+000399999V0201401N001512200019N0020001N1+02651+02311101621ADDAA106000091GA1001+999999999GF100991001001999999001001KA1240M+03051MA1999999101571MD1999999-0031REMSYN082AAXX  11004 83498 32995 01403 10265 20231 30157 40162 333 10305 29082 55085 59003;EQDQ01  00002PRCP06
0186834980999992005041112004-17733-039250FM-12+000399999V0202701N001510450019N0020001N1+02611+02421101671ADDAA106000091GF107991041051008001021001KA1240N+02321MA1999999101621MD1999999-0091REMSYN076AAXX  11124 83498 32595 72703 10261 20242 30162 40167 84520 333 20232 59009;EQDQ01  00002PRCP06
0171834980999992005041118004-17733-039250FM-12+000399999V0200901N002610450019N0020001N1+02851+02481101391ADDAY161061AY221061GF106991031051008001021011MA1999999101341MD1999999-0071MW1211REMSYN082AAXX  11184 83498 21595 60905 10285 20248 30134 40139 72162 83521 333 59007 69931;
0179834980999992005041200004-17733-039250FM-12+000399999V0200901N001012200019N0020001N1+02631+02411101551ADDAA106000021GF103991031061008001001001KA1240M+03001MA1999999101501MD1999999-0071REMSYN088AAXX  12004 83498 32595 30902 10263 20241 30150 40155 83600 333 10300 29087 55015 59007;
0190834980999992005041212004-17733-039250FM-12+000399999V0202301N001510450019N0020001N1+02691+02501101691ADDAY121061AY211061GF106991041051008001041001KA1240N+02391MA1999999101641MD1999999+0021MW1031REMSYN088AAXX  12124 83498 21595 62303 10269 20250 30164 40169 70321 84540 333 20239 58002 60014;
0167834980999992005041218004-17733-039250FM-12+000399999V0201401N002610450019N0020001N1+02891+02541101481ADDAA106000091GF106991031021008001021091MA1999999101431MD1999999+0091REMSYN070AAXX  12184 83498 32595 61405 10289 20254 30143 40148 83229 333 58009;EQDQ01  00002PRCP06
0198834980999992005041300004-17733-039250FM-12+000399999V0209999C000012200019N0020001N1+02521+02401101671ADDAA106000091GF101991011011008001001001KA1240M+02951MA1999999101621MD1999999-0121REMSYN088AAXX  13004 83498 32595 10000 10252 20240 30162 40167 81100 333 10295 29090 55047 59012;EQDQ01  00002PRCP06
0186834980999992005041312004-17733-039250FM-12+000399999V0201401N002110450019N0020001N1+02891+02411101711ADDAA106000091GF106991041041008001031091KA1240N+02321MA1999999101661MD1999999+0021REMSYN076AAXX  13124 83498 32595 61404 10289 20241 30166 40171 84439 333 20232 58002;EQDQ01  00002PRCP06
0171834980999992005041318004-17733-039250FM-12+000399999V0201401N002112200019N0020001N1+02851+02461101461ADDAY161061AY221061GF105991041021008001001081MA1999999101411MD1999999-0021MW1211REMSYN082AAXX  13184 83498 21595 51404 10285 20246 30141 40146 72162 84208 333 59002 69961;
0179834980999992005041400004-17733-039250FM-12+000399999V0200901N002610450019N0020001N1+02691+02391101621ADDAA106000021GF107991041061008001011001KA1240M+03031MA1999999101571MD1999999-0051REMSYN088AAXX  14004 83498 32595 70905 10269 20239 30157 40162 84610 333 10303 29081 55090 59005;
0190834980999992005041412004-17733-039250FM-12+000399999V0201401N001512200019N0020001N1+02751+02401101761ADDAY121061AY211061GF104991021021008001041001KA1240N+02351MA1999999101711MD1999999+0051MW1011REMSYN088AAXX  14124 83498 21595 41403 10275 20240 30171 40176 70121 82240 333 20235 58005 60014;
0167834980999992005041418004-17733-039250FM-12+000399999V0201401N003110450019N0020001N1+02931+02541101421ADDAA106000091GF105991041021008001021081MA1999999101371MD1999999-0041REMSYN070AAXX  14184 83498 32595 51406 10293 20254 30137 40142 84228 333 59004;EQDQ01  00002PRCP06
0202834980999992005041500004-17733-039250FM-12+000399999V0201401N001012200019N0020001N1+02361+02261101641ADDAY121061AY211061GF101991011011008001001001KA1240M+02991MA1999999101591MD1999999+0021MW1011REMSYN100AAXX  15004 83498 21595 11402 10236 20226 30159 40164 70121 81100 333 10299 29088 55073 58002 69921;
0162834980999992005041512004-17733-039250FM-12+000399999V0202701N001010450019N0020001N1+02781+02461101711ADDGF105991031041008001021001KA1240N+02221MA1999999101661MD1999999-0051REMSYN082AAXX  15124 83498 22595 52702 10278 20246 30166 40171 83420 333 20222 59005 69924;
0167834980999992005041518004-17733-039250FM-12+000399999V0200901N001510450019N0020001N1+02931+02361101501ADDAA106000091GF106991041051008001041001MA1999999101451MD1999999+0081REMSYN070AAXX  15184 83498 32595 60903 10293 20236 30145 40150 84540 333 58008;EQDQ01  00002PRCP06
0208834980999992005041600004-17733-039250FM-12+000399999V0200901N000512200019N0020001N1+02441+02301101691ADDAA106000091GA1001+999999999GF100991001001999999001001KA1240M+03001MA1999999101641MD1999999+0051REMSYN082AAXX  16004 83498 32995 00901 10244 20230 30164 40169 333 10300 29085 55053 58005;EQDQ01  00002PRCP06
0186834980999992005041612004-17733-039250FM-12+000399999V0203201N000512200019N0020001N1+02751+02471101681ADDAA106000091GF104991041021008001001001KA1240N+02281MA1999999101631MD1999999-0031REMSYN076AAXX  16124 83498 32595 43201 10275 20247 30163 40168 84200 333 20228 59003;EQDQ01  00002PRCP06
0167834980999992005041618004-17733-039250FM-12+000399999V0200501N002610450019N0020001N1+02871+02481101401ADDAA106000091GF106991041051008001021001MA1999999101351MD1999999-0101REMSYN070AAXX  16184 83498 32595 60505 10287 20248 30135 40140 84520 333 59010;EQDQ01  00002PRCP06
0185834980999992005041700004-17730-039250FM-12+000399999V0200501N001010075019N0020001N1+02591+02331101651ADDAA106000091GF107991051051008001011001MA1999999101601MD1999999+0041REMSYN088AAXX  17004 83498 32595 70502 10259 20233 30160 40165 85510 333 10304 29084 55047 58004;EQDQ01  00002PRCP06
0173834980999992005041712004-17730-039250FM-12+000399999V0200901N001510075019N0020001N1+02641+02421101681ADDAA106000091GF108991051051008001021999MA1999999101631MD1999999+0001REMSYN076AAXX  17124 83498 32595 80903 10264 20242 30163 40168 8552/ 333 20228 58000;EQDQ01  00002PRCP06
0167834980999992005041718004-17730-039250FM-12+000399999V0202301N001010075019N0020001N1+02751+02341101431ADDAA106000091GF108991051051008001021999MA1999999101321MD1999999+0031REMSYN070AAXX  17184 83498 32595 82302 10275 20234 30132 40143 8552/ 333 58003;EQDQ01  00002PRCP06
0198834980999992005041800004-17733-039250FM-12+000399999V0200901N000510450019N0020001N1+02511+02341101541ADDAA106000091GF106991031051008001051001KA1240M+02791MA1999999101491MD1999999-0111REMSYN088AAXX  18004 83498 32595 60901 10251 20234 30149 40154 83550 333 10279 29087 55007 59011;EQDQ01  00002PRCP06
0186834980999992005041812004-17733-039250FM-12+000399999V0201401N001510450019N0020001N1+02851+02421101531ADDAA106000091GF106991041051008001041001KA1240N+02341MA1999999101481MD1999999-0151REMSYN076AAXX  18124 83498 32595 61403 10285 20242 30148 40153 84540 333 20234 59015;EQDQ01  00002PRCP06
0171834980999992005041818004-17733-039250FM-12+000399999V0200901N002610450019N0020001N1+02871+02391101261ADDAY161061AY221061GF105991031021008001021011MA1999999101211MD1999999-0171MW1211REMSYN082AAXX  18184 83498 21595 50905 10287 20239 30121 40126 72162 83221 333 59017 69931;
0189834980999992005041900004-17733-039250FM-12+000399999V0201401N001012200019N0020001N1+02591+02291101511ADDAA106000021GA1001+999999999GF100991001001999999001001KA1240M+02951MA1999999101461MD1999999-0031REMSYN082AAXX  19004 83498 32995 01402 10259 20229 30146 40151 333 10295 29081 55064 59003;
0190834980999992005041912004-17733-039250FM-12+000399999V0203201N000510450019N0020001N1+02531+02381101671ADDAY161061AY261061GF107991031051008001021001KA1240N+02291MA1999999101621MD1999999+0141MW1211REMSYN088AAXX  19124 83498 21595 73201 10253 20238 30162 40167 72166 83520 333 20229 58014 60034;
0171834980999992005041918004-17733-039250FM-12+000399999V0200901N003111050019N0020001N1+02831+02481101311ADDAY161061AY261061GF105991021021008001021011MA1999999101261MD1999999+0051MW1211REMSYN082AAXX  19184 83498 21595 50906 10283 20248 30126 40131 72166 82221 333 58005 60021;
0179834980999992005042000004-17733-039250FM-12+000399999V0200901N001012200019N0020001N1+02531+02231101531ADDAA106000021GF102991021021008001001001KA1240M+02981MA1999999101481MD1999999+0021REMSYN088AAXX  20004 83498 32595 20902 10253 20223 30148 40153 82200 333 10298 29086 55029 58002;
0190834980999992005042012004-17733-039250FM-12+000399999V0202301N001012200019N0020001N1+02671+02411101651ADDAY121061AY211061GF104991021021008001021001KA1240N+02331MA1999999101601MD1999999-0021MW1021REMSYN088AAXX  20124 83498 21595 42302 10267 20241 30160 40165 70221 82220 333 20233 59002 60174;
0167834980999992005042018004-17733-039250FM-12+000399999V0202301N001010450019N0020001N1+02731+02521101401ADDAA106000091GF107991031051008001041021MA1999999101351MD1999999+0091REMSYN070AAXX  20184 83498 32595 72302 10273 20252 30135 40140 83542 333 58009;EQDQ01  00002PRCP06
0198834980999992005042100004-17733-039250FM-12+000399999V0200501N001019999999N0020001N1+02441+02341101581ADDAA106000091GF107991001001999999001041KA1240M+02901MA1999999101531MD1999999+0051REMSYN088AAXX  21004 83498 32995 70502 10244 20234 30153 40158 80004 333 10290 29091 55037 58005;EQDQ01  00002PRCP06
0190834980999992005042112004-17733-039250FM-12+000399999V0200501N003110450019N0020001N1+02451+02341101641ADDAY161061AY261061GF107991041051008001021001KA1240N+02331MA1999999101591MD1999999-0011MW1211REMSYN088AAXX  21124 83498 21595 70506 10245 20234 30159 40164 72166 84520 333 20233 59001 60104;
0148834980999992005042118004-17733-039250FM-12+000399999V0200501N002610450019N0020001N1+02851+02501101281ADDAA106000021GF106991031051008001021081MA1999999101231MD1999999-0121REMSYN070AAXX  21184 83498 32595 60505 10285 20250 30123 40128 83528 333 59012;
0198834980999992005042200004-17733-039250FM-12+000399999V0209999C000012200019N0020001N1+02421+02371101411ADDAA106000091GF103991021021008001031001KA1240M+02971MA1999999101361MD1999999-0171REMSYN088AAXX  22004 83498 32595 30000 10242 20237 30136 40141 82230 333 10297 29093 55019 59017;EQDQ01  00002PRCP06
0186834980999992005042212004-17733-039250FM-12+000399999V0203201N002612200019N0020001N1+02871+02581101451ADDAA106000091GF103991031011008001001001KA1240N+02211MA1999999101401MD1999999-0191REMSYN076AAXX  22124 83498 32595 33205 10287 20258 30140 40145 83100 333 20221 59019;EQDQ01  00002PRCP06
0167834980999992005042218004-17733-039250FM-12+000399999V0200501N003612200019N0020001N1+02951+02541101121ADDAA106000091GF104991021051008001021001MA1999999101071MD1999999-0161REMSYN070AAXX  22184 83498 32595 40507 10295 20254 30107 40112 82520 333 59016;EQDQ01  00002PRCP06
0208834980999992005042300004-17733-039250FM-12+000399999V0200501N001512200019N0020001N1+02421+02351101461ADDAA106000091GA1001+999999999GF100991001001999999001001KA1240M+03091MA1999999101411MD1999999+0051REMSYN082AAXX  23004 83498 32995 00503 10242 20235 30141 40146 333 10309 29089 55090 58005;EQDQ01  00002PRCP06
0186834980999992005042312004-17733-039250FM-12+000399999V0202301N002610450019N0020001N1+02731+02521101551ADDAA106000091GF106991041051008001021081KA1240N+02331MA1999999101501MD1999999+0101REMSYN076AAXX  23124 83498 32595 62305 10273 20252 30150 40155 84528 333 20233 58010;EQDQ01  00002PRCP06
0171834980999992005042318004-17733-039250FM-12+000399999V0201801N002110450019N0020001N1+02631+02461101281ADDAY161061AY221061GF107991031051008001021081MA1999999101231MD1999999+0161MW1211REMSYN082AAXX  23184 83498 21595 71804 10263 20246 30123 40128 72162 83528 333 58016 60161;
0166834980999992005042400004-17730-039250FM-12+000399999V0200901N000512200019N0020001N1+02501+02401101451ADDAA106000021GF105991011011008001001081MA1999999101401MD1999999-0011REMSYN088AAXX  24004 83498 32595 50901 10250 20240 30140 40145 81108 333 10296 29092 55028 59001;
0177834980999992005042412004-17730-039250FM-12+000399999V0202301N002112200019N0020001N1+02711+02481101641ADDAY121061AY211061GF104991021021008001001021MA1999999101591MD1999999+0091MW1031REMSYN088AAXX  24124 83498 21595 42304 10271 20248 30159 40164 70321 82202 333 20230 58009 60164;
0167834980999992005042418004-17730-039250FM-12+000399999V0201401N003112200019N0020001N1+02871+02561101271ADDAA106000091GF104991021011008001001041MA1999999101221MD1999999-0011REMSYN070AAXX  24184 83498 32595 41406 10287 20256 30122 40127 82104 333 59001;EQDQ01  00002PRCP06
0198834980999992005042500004-17733-039250FM-12+000399999V0201401N000512200019N0020001N1+02501+02411101431ADDAA106000091GF101991011011008001001001KA1240M+02951MA1999999101381MD1999999-0021REMSYN088AAXX  25004 83498 32595 11401 10250 20241 30138 40143 81100 333 10295 29091 55075 59002;EQDQ01  00002PRCP06
0186834980999992005042512004-17733-039250FM-12+000399999V0202701N001511050019N0020001N1+02771+02481101551ADDAA106000091GF106991041021008001001021KA1240N+02331MA1999999101501MD1999999-0091REMSYN076AAXX  25124 83498 32595 62703 10277 20248 30150 40155 84202 333 20233 59009;EQDQ01  00002PRCP06
0171834980999992005042518004-17733-039250FM-12+000399999V0201401N002111050019N0020001N1+02871+02521101171ADDAY161061AY221061GF107991031021008001001071MA1999999101121MD1999999-0101MW1581REMSYN082AAXX  25184 83498 21595 71404 10287 20252 30112 40117 75862 83207 333 59010 69911;
0179834980999992005042600004-17733-039250FM-12+000399999V0209999C000011050019N0020001N1+02381+02331101321ADDAA106000021GF107991031001017501011071KA1240M+02961MA1999999101271MD1999999-0111REMSYN088AAXX  26004 83498 32795 70000 10238 20233 30127 40132 83017 333 10296 29090 55048 59011;
0162834980999992005042612004-17733-039250FM-12+000399999V0203601N004612200019N0020001N1+02821+02461101311ADDGF102991011011008001001011KA1240N+02221MA1999999101261MD1999999-0241REMSYN082AAXX  26124 83498 22595 23609 10282 20246 30126 40131 81101 333 20222 59024 69914;
0167834980999992005042618004-17733-039250FM-12+000399999V0200501N003112200019N0020001N1+03131+02671100971ADDAA106000091GF104991021041008001001011MA1999999100921MD1999999-0201REMSYN070AAXX  26184 83498 32595 40506 10313 20267 30092 40097 82401 333 59020;EQDQ01  00002PRCP06
0198834980999992005042700004-17733-039250FM-12+000399999V0201801N006710075019N0020001N1+02671+02461101361ADDAA106000091GF108991051051008001021999KA1240M+03291MA1999999101311MD1999999+0041REMSYN088AAXX  27004 83498 32595 81813 10267 20246 30131 40136 8552/ 333 10329 29084 55094 58004;EQDQ01  00002PRCP06
0190834980999992005042712004-17733-039250FM-12+000399999V0201801N004110450019N0020001N1+02511+02341101591ADDAY161061AY221061GF108991041071008001021999KA1240N+02381MA1999999101541MD1999999+0281MW1211REMSYN088AAXX  27124 83498 21595 81808 10251 20234 30154 40159 72162 8472/ 333 20238 58028 60014;
0171834980999992005042718004-17733-039250FM-12+000399999V0202701N003610075019N0020001N1+02401+02301101441ADDAY161061AY261061GF108991051071008001021999MA1999999101391MD1999999+0471MW1211REMSYN082AAXX  27184 83498 21595 82707 10240 20230 30139 40144 72166 8572/ 333 58047 60021;
0186834980999992005042800004-17733-039250FM-12+000399999V0202301N002610450019N0020001N1+02201+02151101671ADDGF108991031071008001021999KA1240M+02691MA1999999101621MD1999999+0311MW1211REMSYN100AAXX  28004 83498 21595 82305 10220 20215 30162 40167 721// 8372/ 333 10269 29095 55000 58031 69921;
0190834980999992005042812004-17733-039250FM-12+000399999V0202301N002610075019N0020001N1+02391+02281101781ADDAY121061AY211061GF107991051051008001011001KA1240N+02071MA1999999101731MD1999999+0191MW1031REMSYN088AAXX  28124 83498 21595 72305 10239 20228 30173 40178 70321 85510 333 20207 58019 60034;
0171834980999992005042818004-17733-039250FM-12+000399999V0201801N002610450019N0020001N1+02621+02391101491ADDAY161061AY261061GF106991031051008001021001MA1999999101441MD1999999+0051MW1211REMSYN082AAXX  28184 83498 21595 61805 10262 20239 30144 40149 72166 83520 333 58005 60011;
0189834980999992005042900004-17733-039250FM-12+000399999V0201401N002110012019N0020001N1+02611+02291101731ADDAA106000021GA1091+999999999GF109991091999999999999999KA1240M+02651MA1999999101681MD1999999+0061REMSYN082AAXX  29004 83498 32/95 91404 10261 20229 30168 40173 333 10265 29087 55003 58006;
0162834980999992005042912004-17733-039250FM-12+000399999V0202701N000511050019N0020001N1+02661+02411101841ADDGF106991041041008001001021KA1240N+02331MA1999999101791MD1999999+0061REMSYN082AAXX  29124 83498 22595 62701 10266 20241 30179 40184 84402 333 20233 58006 60014;
0167834980999992005042918004-17733-039250FM-12+000399999V0201401N001510450019N0020001N1+02771+02441101601ADDAA106000091GF107991021011008001031001MA1999999101551MD1999999+0111REMSYN070AAXX  29184 83498 32595 71403 10277 20244 30155 40160 82130 333 58011;EQDQ01  00002PRCP06
0186834980999992005043012004-17733-039250FM-12+000399999V0201401N001510450019N0020001N1+02761+02521101631ADDAA106000091GF107991041051008001041001KA1240N+02191MA1999999101581MD1999999-0211REMSYN076AAXX  30124 83498 32595 71403 10276 20252 30158 40163 84540 333 20219 59021;EQDQ01  00002PRCP06
0171834980999992005043018004-17733-039250FM-12+000399999V0200901N001010450019N0020001N1+02771+02561101371ADDAY161061AY221061GF107991041051008001021001MA1999999101321MD1999999+0251MW1211REMSYN082AAXX  30184 83498 21595 70902 10277 20256 30132 40137 72162 84520 333 58025 69931;
0189834980999992005050100004-17730-039250FM-12+000399999V0203601N000510450019N0020001N1+02521+02471101581ADDAY161061AY261061GF108991031071008001021999MA1999999101531MD1999999-0111MW1211REMSYN100AAXX  01004 83498 21595 83601 10252 20247 30153 40158 72166 8372/ 333 10285 29093 55024 59011 60021;
0177834980999992005050112004-17730-039250FM-12+000399999V0201801N004110450019N0020001N1+02501+02291101701ADDAY161061AY261061GF108991041071008001021999MA1999999101651MD1999999-0071MW1211REMSYN088AAXX  01124 83498 21595 81808 10250 20229 30165 40170 72166 8472/ 333 20227 59007 60244;
0148834980999992005050118004-17730-039250FM-12+000399999V0201801N005710450019N0020001N1+02521+02211101521ADDAA106000021GF108991031051008001021999MA1999999101471MD1999999+0151REMSYN070AAXX  01184 83498 32595 81811 10252 20221 30147 40152 8352/ 333 58015;
0185834980999992005050200004-17730-039250FM-12+000399999V0201801N007212200019N0020001N1+02511+02091101711ADDAA106000091GF102991021061008001001001MA1999999101661MD1999999+0131REMSYN088AAXX  02004 83498 32595 21814 10251 20209 30166 40171 82600 333 10263 29082 55001 58013;EQDQ01  00002PRCP06
0167834980999992005050218004-17733-039250FM-12+000399999V0201801N005110450019N0020001N1+02491+02111101671ADDAA106000091GF107991041051008001011001MA1999999101621MD1999999+0151REMSYN070AAXX  02184 83498 32595 71810 10249 20211 30162 40167 84510 333 58015;EQDQ01  00002PRCP06
0202834980999992005050300004-17733-039250FM-12+000399999V0201801N002610450019N0020001N1+02361+02131101871ADDAY121061AY211061GF105991031051008001011001KA1240M+02591MA1999999101821MD1999999+0161MW1031REMSYN100AAXX  03004 83498 21595 51805 10236 20213 30182 40187 70321 83510 333 10259 29085 55000 58016 69921;
0190834980999992005050312004-17733-039250FM-12+000399999V0202301N003110450019N0020001N1+02401+02151102011ADDAY161061AY261061GF106991031051008001021081KA1240N+01921MA1999999101961MD1999999+0131MW1211REMSYN088AAXX  03124 83498 21595 62306 10240 20215 30196 40201 72166 83528 333 20192 58013 60024;
0148834980999992005050318004-17733-039250FM-12+000399999V0201801N003610450019N0020001N1+02471+02131101761ADDAA106000021GF106991041051008001021001MA1999999101711MD1999999+0091REMSYN070AAXX  03184 83498 32595 61807 10247 20213 30171 40176 84520 333 58009;
0198834980999992005050400004-17733-039250FM-12+000399999V0201801N003110075019N0020001N1+02161+02081102031ADDAA106000091GF108991051051008001021999KA1240M+02611MA1999999101981MD1999999+0151REMSYN088AAXX  04004 83498 32595 81806 10216 20208 30198 40203 8552/ 333 10261 29090 55040 58015;EQDQ01  00002PRCP06
0190834980999992005050412004-17733-039250FM-12+000399999V0201801N005710450019N0020001N1+02451+02211102091ADDAY121061AY211061GF106991041051008001041001KA1240N+02041MA1999999102041MD1999999+0081MW1031REMSYN088AAXX  04124 83498 21595 61811 10245 20221 30204 40209 70321 84540 333 20204 58008 60184;
0171834980999992005050418004-17733-039250FM-12+000399999V0202301N004110450019N0020001N1+02421+02111101911ADDAY161061AY261061GF106991021051008001021001MA1999999101861MD1999999+0151MW1211REMSYN082AAXX  04184 83498 21595 62308 10242 20211 30186 40191 72166 82520 333 58015 69961;
0202834980999992005050500004-17733-039250FM-12+000399999V0201801N001510450019N0020001N1+02201+02061102091ADDAY161061AY261061GF108991041061008001021999KA1240M+02611MA1999999102041MD1999999+0061MW1211REMSYN100AAXX  05004 83498 21595 81803 10220 20206 30204 40209 72166 8462/ 333 10261 29089 55022 58006 69951;
0162834980999992005050512004-17733-039250FM-12+000399999V0202301N003110450019N0020001N1+02371+02151102041ADDGF105991031021008001031001KA1240N+01831MA1999999101991MD1999999-0051REMSYN082AAXX  05124 83498 22595 52306 10237 20215 30199 40204 83230 333 20183 59005 60014;
0171834980999992005050518004-17733-039250FM-12+000399999V0201801N003110450019N0020001N1+02521+02211101721ADDAY161061AY221061GF107991031071008001021001MA1999999101671MD1999999-0191MW1211REMSYN082AAXX  05184 83498 21595 71806 10252 20221 30167 40172 72162 83720 333 59019 60031;
0198834980999992005050600004-17733-039250FM-12+000399999V0201801N003112200019N0020001N1+02381+02151101861ADDAA106000021GF102991999061008001001001KA1240M+02631MA1999999101811MD1999999-0231REMSYN088AAXX  06004 83498 32595 21806 10238 20215 30181 40186 83600 333 10263 29086 55054 59023;EQDQ01+000032SCOTLC
0190834980999992005050612004-17733-039250FM-12+000399999V0202301N002610075019N0020001N1+02421+02281101971ADDAY121061AY211061GF107991051051008001011001KA1240N+02121MA1999999101921MD1999999-0071MW1031REMSYN088AAXX  06124 83498 21595 72305 10242 20228 30192 40197 70321 85510 333 20212 59007 60074;
0167834980999992005050618004-17733-039250FM-12+000399999V0201801N003110450019N0020001N1+02541+02311101571ADDAA106000091GF106991041051008001011081MA1999999101521MD1999999-0151REMSYN070AAXX  06184 83498 32595 61806 10254 20231 30152 40157 84518 333 59015;EQDQ01  00002PRCP06
0202834980999992005050700004-17733-039250FM-12+000399999V0201801N003610450019N0020001N1+02341+02291101761ADDAY161061AY261061GF108991031071008001021999KA1240M+02711MA1999999101711MD1999999-0101MW1631REMSYN100AAXX  07004 83498 21595 81807 10234 20229 30171 40176 76366 8372/ 333 10271 29093 55039 59010 60441;
0190834980999992005050712004-17733-039250FM-12+000399999V0202701N001510450019N0020001N1+02381+02291101921ADDAY161061AY261061GF107991031061008001021001KA1240N+02191MA1999999101871MD1999999-0051MW1211REMSYN088AAXX  07124 83498 21595 72703 10238 20229 30187 40192 72166 83620 333 20219 59005 61024;
0185834980999992005050800004-17730-039250FM-12+000399999V0201401N000512200019N0020001N1+02321+02291101891ADDAA106000091GF102991021021008001001001MA1999999101841MD1999999+0131REMSYN088AAXX  08004 83498 32595 21401 10232 20229 30184 40189 82200 333 10275 29094 55049 58013;EQDQ01  00002PRCP06
0149834980999992005050812004-17730-039250FM-12+000399999V0202301N003110075019N0020001N1+02431+02261101951ADDGF108991061051008001021999MA1999999101901MD1999999+0031REMSYN082AAXX  08124 83498 22595 82306 10243 20226 30190 40195 8652/ 333 20215 58003 69924;
0208834980999992005050900004-17733-039250FM-12+000399999V0201401N002612200019N0020001N1+02501+02341101921ADDAA106000091GA1001+999999999GF100991001001999999001001KA1240M+02751MA1999999101871MD1999999+0031REMSYN082AAXX  09004 83498 32995 01405 10250 20234 30187 40192 333 10275 29091 55036 58003;EQDQ01  00002PRCP06
0190834980999992005050912004-17733-039250FM-12+000399999V0202301N002110450019N0020001N1+02461+02371101981ADDAY161061AY261061GF107991041071008001021001KA1240N+02411MA1999999101931MD1999999+0031MW1211REMSYN088AAXX  09124 83498 21595 72304 10246 20237 30193 40198 72166 84720 333 20241 58003 60034;
0171834980999992005050918004-17733-039250FM-12+000399999V0201801N003111050019N0020001N1+02731+02471101721ADDAY161061AY261061GF106991041021008001001021MA1999999101671MD1999999+0021MW1211REMSYN082AAXX  09184 83498 21595 61806 10273 20247 30167 40172 72166 84202 333 58002 60031;
0179834980999992005051000004-17733-039250FM-12+000399999V0200901N001512200019N0020001N1+02461+02391101961ADDAA106000021GF102991021051008001001001KA1240M+02771MA1999999101911MD1999999+0041REMSYN088AAXX  10004 83498 32595 20903 10246 20239 30191 40196 82500 333 10277 29093 55032 58004;
0190834980999992005051012004-17733-039250FM-12+000399999V0201801N001512200019N0020001N1+02751+02521101951ADDAY121061AY211061GF104991021021008001041001KA1240N+02301MA1999999101901MD1999999-0031MW1031REMSYN088AAXX  10124 83498 21595 41803 10275 20252 30190 40195 70321 82240 333 20230 59003 60064;
0167834980999992005051018004-17733-039250FM-12+000399999V0201401N001512200019N0020001N1+02711+02391101681ADDAA106000091GF106991031021008001001041MA1999999101631MD1999999-0041REMSYN070AAXX  10184 83498 32595 61403 10271 20239 30163 40168 83204 333 59004;EQDQ01  00002PRCP06
0198834980999992005051100004-17733-039250FM-12+000399999V0201401N003110450019N0020001N1+02441+02301101891ADDAA106000091GF108991031071008001021999KA1240M+02831MA1999999101841MD1999999-0071REMSYN088AAXX  11004 83498 32595 81406 10244 20230 30184 40189 8372/ 333 10283 29089 55039 59007;EQDQ01  00002PRCP06
0190834980999992005051112004-17733-039250FM-12+000399999V0202701N001510450019N0020001N1+02571+02421101931ADDAY161061AY261061GF107991031051008001021001KA1240N+02331MA1999999101881MD1999999-0021MW1211REMSYN088AAXX  11124 83498 21595 72703 10257 20242 30188 40193 72166 83520 333 20233 59002 60084;
0148834980999992005051118004-17733-039250FM-12+000399999V0200901N003110450019N0020001N1+02751+02401101631ADDAA106000021GF106991021021008001011081MA1999999101581MD1999999-0051REMSYN070AAXX  11184 83498 32595 60906 10275 20240 30158 40163 82218 333 59005;
0190834980999992005051212004-17733-039250FM-12+000399999V0201401N002610450019N0020001N1+02631+02411101981ADDAY121061AY211061GF106991041051008001041001KA1240N+02431MA1999999101931MD1999999+0051MW1031REMSYN088AAXX  12124 83498 21595 61405 10263 20241 30193 40198 70321 84540 333 20243 58005 69944;
0167834980999992005051218004-17733-039250FM-12+000399999V0201401N001511050019N0020001N1+02791+02501101691ADDAA106000091GF106991041021008001001051MA1999999101641MD1999999+0061REMSYN070AAXX  12184 83498 32595 61403 10279 20250 30164 40169 84205 333 58006;EQDQ01  00002PRCP06
0208834980999992005051300004-17733-039250FM-12+000399999V0201401N001512200019N0020001N1+02481+02341101891ADDAA106000091GA1001+999999999GF100991001001999999001001KA1240M+02851MA1999999101841MD1999999+0071REMSYN082AAXX  13004 83498 32995 01403 10248 20234 30184 40189 333 10285 29089 55048 58007;EQDQ01  00002PRCP06
0190834980999992005051312004-17733-039250FM-12+000399999V0201401N002110450019N0020001N1+02631+02441101921ADDAY161061AY221061GF106991041051008001021001KA1240N+02331MA1999999101871MD1999999-0061MW1211REMSYN088AAXX  13124 83498 21595 61404 10263 20244 30187 40192 72162 84520 333 20233 59006 60024;
0171834980999992005051318004-17733-039250FM-12+000399999V0201401N002111050019N0020001N1+02831+02461101661ADDAY161061AY261061GF106991041021008001001051MA1999999101611MD1999999-0031MW1211REMSYN082AAXX  13184 83498 21595 61404 10283 20246 30161 40166 72166 84205 333 59003 60021;
0179834980999992005051400004-17733-039250FM-12+000399999V0200901N002112200019N0020001N1+02511+02341101821ADDAA106000021GF102991021021008001001001KA1240M+02871MA1999999101771MD1999999-0071REMSYN088AAXX  14004 83498 32595 20904 10251 20234 30177 40182 82200 333 10287 29088 55058 59007;
0162834980999992005051412004-17733-039250FM-12+000399999V0201401N002612200019N0020001N1+02731+02541101861ADDGF104991041021008001001001KA1240N+02461MA1999999101811MD1999999-0061REMSYN082AAXX  14124 83498 22595 41405 10273 20254 30181 40186 84200 333 20246 59006 60024;
0167834980999992005051418004-17733-039250FM-12+000399999V0201401N002112200019N0020001N1+02731+02431101591ADDAA106000091GF104991041021008001001001MA1999999101541MD1999999-0071REMSYN070AAXX  14184 83498 32595 41404 10273 20243 30154 40159 84200 333 59007;EQDQ01  00002PRCP06
0185834980999992005051500004-17730-039250FM-12+000399999V0201401N000510450019N0020001N1+02421+02331101711ADDAA106000091GF106991021071008001011001MA1999999101661MD1999999-0111REMSYN088AAXX  15004 83498 32595 61401 10242 20233 30166 40171 82710 333 10289 29091 55080 59011;EQDQ01  00002PRCP06
0149834980999992005051512004-17730-039250FM-12+000399999V0201401N002610075019N0020001N1+02731+02431101721ADDGF106991061051008001001001MA1999999101671MD1999999-0141REMSYN082AAXX  15124 83498 22595 61405 10273 20243 30167 40172 86500 333 20236 59014 60024;
0171834980999992005051518004-17730-039250FM-12+000399999V0201401N003111050019N0020001N1+02591+02401101491ADDAY161061AY261061GF105991031051008001001051MA1999999101441MD1999999-0101MW1211REMSYN082AAXX  15184 83498 21595 51406 10259 20240 30144 40149 72166 83505 333 59010 60061;
0189834980999992005051600004-17733-039250FM-12+000399999V0200901N000512200019N0020001N1+02401+02351101681ADDAA106000021GA1001+999999999GF100991001001999999001001KA1240M+02851MA1999999101631MD1999999-0031REMSYN082AAXX  16004 83498 32995 00901 10240 20235 30163 40168 333 10285 29092 55072 59003;
0190834980999992005051612004-17733-039250FM-12+000399999V0201401N001510450019N0020001N1+02511+02401101751ADDAY161061AY261061GF106991031071008001011001KA1240N+02251MA1999999101701MD1999999+0031MW1611REMSYN088AAXX  16124 83498 21595 61403 10251 20240 30170 40175 76166 83710 333 20225 58003 60244;
0171834980999992005051618004-17733-039250FM-12+000399999V0200501N002110450019N0020001N1+02731+02431101411ADDAY161061AY261061GF106991041051008001011001MA1999999101361MD1999999-0081MW1211REMSYN082AAXX  16184 83498 21595 60504 10273 20243 30136 40141 72166 84510 333 59008 60051;
0202834980999992005051700004-17733-039250FM-12+000399999V0200501N000512200019N0020001N1+02321+02291101571ADDAY121061AY211061GF104991021051008001041001KA1240M+02791MA1999999101521MD1999999-0111MW1031REMSYN100AAXX  17004 83498 21595 40501 10232 20229 30152 40157 70321 82540 333 10279 29094 55016 59011 60071;
0190834980999992005051712004-17733-039250FM-12+000399999V0202301N001510450019N0020001N1+02531+02401101671ADDAY161061AY261061GF106991041051008001021001KA1240N+02261MA1999999101621MD1999999-0081MW1511REMSYN088AAXX  17124 83498 21595 62303 10253 20240 30162 40167 75166 84520 333 20226 59008 60154;
0171834980999992005051718004-17733-039250FM-12+000399999V0200901N001510450019N0020001N1+02711+02451101281ADDAY161061AY261061GF106991021051008001021021MA1999999101231MD1999999-0131MW1211REMSYN082AAXX  17184 83498 21595 60903 10271 20245 30123 40128 72166 82522 333 59013 69921;
0189834980999992005051800004-17733-039250FM-12+000399999V0200901N000512200019N0020001N1+02301+02251101471ADDAA106000021GA1001+999999999GF100991001001999999001001KA1240M+02811MA1999999101421MD1999999-0101REMSYN082AAXX  18004 83498 32995 00901 10230 20225 30142 40147 333 10281 29093 55013 59010;
0190834980999992005051812004-17733-039250FM-12+000399999V0202301N000512200019N0020001N1+02551+02361101531ADDAY121061AY211061GF103991031021008001001001KA1240N+02191MA1999999101481MD1999999-0141MW1031REMSYN088AAXX  18124 83498 21595 32301 10255 20236 30148 40153 70321 83200 333 20219 59014 69934;
0167834980999992005051818004-17733-039250FM-12+000399999V0200901N002112200019N0020001N1+02721+02391101141ADDAA106000091GF104991041021008001001001MA1999999101091MD1999999-0141REMSYN070AAXX  18184 83498 32595 40904 10272 20239 30109 40114 84200 333 59014;EQDQ01  00002PRCP06
0208834980999992005051900004-17733-039250FM-12+000399999V0200901N001012200019N0020001N1+02221+02201101331ADDAA106000091GA1001+999999999GF100991001001999999001001KA1240M+02841MA1999999101281MD1999999-0141REMSYN082AAXX  19004 83498 32995 00902 10222 20220 30128 40133 333 10284 29092 55062 59014;EQDQ01  00002PRCP06
0186834980999992005051912004-17733-039250FM-12+000399999V0203601N001512200019N0020001N1+02591+02351101411ADDAA106000091GF103991021021008001001011KA1240N+02031MA1999999101361MD1999999-0121REMSYN076AAXX  19124 83498 32595 33603 10259 20235 30136 40141 82201 333 20203 59012;EQDQ01  00002PRCP06
0167834980999992005051918004-17733-039250FM-12+000399999V0200501N002612200019N0020001N1+02871+02421101091ADDAA106000091GF103991021021008001001081MA1999999101041MD1999999-0051REMSYN070AAXX  19184 83498 32595 30505 10287 20242 30104 40109 82208 333 59005;EQDQ01  00002PRCP06
0208834980999992005052000004-17733-039250FM-12+000399999V0200501N001012200019N0020001N1+02321+02291101331ADDAA106000091GA1001+999999999GF100991001001999999001001KA1240M+02991MA1999999101281MD1999999+0001REMSYN082AAXX  20004 83498 32995 00502 10232 20229 30128 40133 333 10299 29090 55067 58000;EQDQ01  00002PRCP06
0202834980999992005052012004-17733-039250FM-12+000399999V0203601N004112200019N0020001N1+02731+02431101491ADDAA106000091GF102991001001999999001021KA1240N+02091MA1999999101441MD1999999+0081REMSYN076AAXX  20124 83498 32795 23608 10273 20243 30144 40149 80002 333 20209 58008;EQDQ01+017502SCOLCBQ02  00002PRCP06
0167834980999992005052018004-17733-039250FM-12+000399999V0200501N003112200019N0020001N1+02851+02381101061ADDAA106000091GF102991011011008001001021MA1999999101011MD1999999-0031REMSYN070AAXX  20184 83498 32595 20506 10285 20238 30101 40106 81102 333 59003;EQDQ01  00002PRCP06
0208834980999992005052100004-17733-039250FM-12+000399999V0200501N000512200019N0020001N1+02321+02241101331ADDAA106000091GA1001+999999999GF100991001001999999001001KA1240M+03011MA1999999101281MD1999999+0001REMSYN082AAXX  21004 83498 32995 00501 10232 20224 30128 40133 333 10301 29088 55087 58000;EQDQ01  00002PRCP06
0186834980999992005052112004-17733-039250FM-12+000399999V0203601N003111050019N0020001N1+02661+02331101471ADDAA106000091GF106991011011008001001071KA1240N+02121MA1999999101421MD1999999-0021REMSYN076AAXX  21124 83498 32595 63606 10266 20233 30142 40147 81107 333 20212 59002;EQDQ01  00002PRCP06
0167834980999992005052118004-17733-039250FM-12+000399999V0200501N002619999999N0020001N1+02891+02411101081ADDAA106000091GF105991001001999999001011MA1999999101031MD1999999+0021REMSYN070AAXX  21184 83498 32995 50505 10289 20241 30103 40108 80001 333 58002;EQDQ01  00002PRCP06
0185834980999992005052200004-17730-039250FM-12+000399999V0200501N002112200019N0020001N1+02461+02321101191ADDAA106000091GF103991001001999999001011MA1999999101141MD1999999-0141REMSYN088AAXX  22004 83498 32995 30504 10246 20232 30114 40119 80001 333 10306 29086 55066 59014;EQDQ01  00002PRCP06
0173834980999992005052212004-17730-039250FM-12+000399999V0203601N004619999999N0020001N1+02771+02421101211ADDAA106000091GF105991001001999999001021MA1999999101161MD1999999-0261REMSYN076AAXX  22124 83498 32995 53609 10277 20242 30116 40121 80002 333 20230 59026;EQDQ01  00002PRCP06
0167834980999992005052218004-17730-039250FM-12+000399999V0200501N004119999999N0020001N1+02941+02581100861ADDAA106000091GF106991001001999999001081MA1999999100811MD1999999-0221REMSYN070AAXX  22184 83498 32995 60508 10294 20258 30081 40086 80008 333 59022;EQDQ01  00002PRCP06
0185834980999992005052300004-17730-039250FM-12+000399999V0200501N002112200019N0020001N1+02571+02471101161ADDAA106000091GF104991001001999999001021MA1999999101111MD1999999-0031REMSYN088AAXX  23004 83498 32995 40504 10257 20247 30111 40116 80002 333 10315 29089 55034 59003;EQDQ01  00002PRCP06
0173834980999992005052312004-17730-039250FM-12+000399999V0202301N002110450019N0020001N1+02641+02481101321ADDAA106000091GF106991031051008001021011MA1999999101271MD1999999+0111REMSYN076AAXX  23124 83498 32595 62304 10264 20248 30127 40132 83521 333 20235 58011;EQDQ01  00002PRCP06
0167834980999992005052318004-17730-039250FM-12+000399999V0202301N005710450019N0020001N1+02521+02361101181ADDAA106000091GF107991041051008001021001MA1999999101131MD1999999+0321REMSYN070AAXX  23184 83498 32595 72311 10252 20236 30113 40118 84520 333 58032;EQDQ01  00002PRCP06
0198834980999992005052400004-17733-039250FM-12+000399999V0201801N004110075019N0020001N1+02501+02311101391ADDAA106000091GF108991051051008001021999KA1240M+02871MA1999999101341MD1999999+0231REMSYN088AAXX  24004 83498 32595 81808 10250 20231 30134 40139 8552/ 333 10287 29090 55000 58023;EQDQ01  00002PRCP06
0186834980999992005052412004-17733-039250FM-12+000399999V0202301N001510075019N0020001N1+02501+02311101531ADDAA106000091GF107991051061008001011001KA1240N+02261MA1999999101481MD1999999+0211REMSYN076AAXX  24124 83498 32595 72303 10250 20231 30148 40153 85610 333 20226 58021;EQDQ01  00002PRCP06
0167834980999992005052418004-17733-039250FM-12+000399999V0202701N001510075019N0020001N1+02831+02541101171ADDAA106000091GF107991051051008001011001MA1999999101121MD1999999-0011REMSYN070AAXX  24184 83498 32595 72703 10283 20254 30112 40117 85510 333 59001;EQDQ01  00002PRCP06
0198834980999992005052500004-17733-039250FM-12+000399999V0200901N001012200019N0020001N1+02381+02291101291ADDAA106000091GF104991001001999999001071KA1240M+02931MA1999999101241MD1999999-0101REMSYN088AAXX  25004 83498 32995 40902 10238 20229 30124 40129 80007 333 10293 29091 55000 59010;EQDQ01  00002PRCP06
0186834980999992005052512004-17733-039250FM-12+000399999V0203601N004111050019N0020001N1+02671+02461101381ADDAA106000091GF107991031021008001001081KA1240N+02321MA1999999101331MD1999999-0151REMSYN076AAXX  25124 83498 32595 73608 10267 20246 30133 40138 83208 333 20232 59015;EQDQ01  00002PRCP06
0167834980999992005052518004-17733-039250FM-12+000399999V0200501N005711050019N0020001N1+02871+02541101071ADDAA106000091GF106991011011008001001081MA1999999101021MD1999999-0101REMSYN070AAXX  25184 83498 32595 60511 10287 20254 30102 40107 81108 333 59010;EQDQ01  00002PRCP06
0198834980999992005052600004-17733-039250FM-12+000399999V0203601N003619999999N0020001N1+02631+02461101291ADDAA106000091GF106991001001999999001081KA1240M+03011MA1999999101241MD1999999+0001REMSYN088AAXX  26004 83498 32995 63607 10263 20246 30124 40129 80008 333 10301 29089 55000 58000;EQDQ01  00002PRCP06
0186834980999992005052612004-17733-039250FM-12+000399999V0202301N002610075019N0020001N1+02631+02461101681ADDAA106000091GF108991051051008001021999KA1240N+02431MA1999999101631MD1999999+0301REMSYN076AAXX  26124 83498 32595 82305 10263 20246 30163 40168 8552/ 333 20243 58030;EQDQ01  00002PRCP06
0167834980999992005052618004-17733-039250FM-12+000399999V0202301N005110450019N0020001N1+02751+02401101581ADDAA106000091GF106991011011008001021001MA1999999101531MD1999999+0511REMSYN070AAXX  26184 83498 32595 62310 10275 20240 30153 40158 81120 333 58051;EQDQ01  00002PRCP06
0198834980999992005052700004-17733-039250FM-12+000399999V0201801N005710450019N0020001N1+02571+02331101931ADDAA106000091GF106991041051008001011001KA1240M+02951MA1999999101881MD1999999+0641REMSYN088AAXX  27004 83498 32595 61811 10257 20233 30188 40193 84510 333 10295 29086 55019 58064;EQDQ01  00002PRCP06
0186834980999992005052712004-17733-039250FM-12+000399999V0201801N003110450019N0020001N1+02611+02231102141ADDAA106000091GF108991011011008001021081KA1240N+02531MA1999999102091MD1999999+0461REMSYN076AAXX  27124 83498 32595 81806 10261 20223 30209 40214 81128 333 20253 58046;EQDQ01  00002PRCP06
0167834980999992005052718004-17733-039250FM-12+000399999V0201801N005110450019N0020001N1+02611+02171101991ADDAA106000091GF106991031051008001021081MA1999999101941MD1999999+0411REMSYN070AAXX  27184 83498 32595 61810 10261 20217 30194 40199 83528 333 58041;EQDQ01  00002PRCP06
0202834980999992005052800004-17733-039250FM-12+000399999V0201801N005112200019N0020001N1+02511+02211102121ADDAY121061AY211061GF104991041061008001001001KA1240M+02761MA1999999102071MD1999999+0191MW1031REMSYN100AAXX  28004 83498 21595 41810 10251 20221 30207 40212 70321 84600 333 10276 29081 55002 58019 69921;
0190834980999992005052812004-17733-039250FM-12+000399999V0201801N006210450019N0020001N1+02411+02231102071ADDAY161061AY261061GF108991031071008001021999KA1240N+02281MA1999999102021MD1999999-0071MW1211REMSYN088AAXX  28124 83498 21595 81812 10241 20223 30202 40207 72166 8372/ 333 20228 59007 69964;
0171834980999992005052818004-17733-039250FM-12+000399999V0201801N006210450019N0020001N1+02321+02241101861ADDAY161061AY261061GF108991041071008001021999MA1999999101811MD1999999-0131MW1211REMSYN082AAXX  28184 83498 21595 81812 10232 20224 30181 40186 72166 8472/ 333 59013 60281;
0189834980999992005052900004-17730-039250FM-12+000399999V0201801N002610450019N0020001N1+02201+02121102021ADDAY161061AY261061GF108991041071008001021999MA1999999101971MD1999999+0101MW1631REMSYN100AAXX  29004 83498 21595 81805 10220 20212 30197 40202 76366 8472/ 333 10256 29094 55000 58010 60351;
0177834980999992005052912004-17730-039250FM-12+000399999V0202301N001010450019N0020001N1+02501+02401102031ADDAY161061AY261061GF107991031051008001021001MA1999999101981MD1999999-0041MW1211REMSYN088AAXX  29124 83498 21595 72302 10250 20240 30198 40203 72166 83520 333 20217 59004 60954;
0171834980999992005052918004-17730-039250FM-12+000399999V0201801N001010450019N0020001N1+02381+02331101881ADDAY161061AY261061GF107991021051008001021001MA1999999101831MD1999999+0021MW1211REMSYN082AAXX  29184 83498 21595 71802 10238 20233 30183 40188 72166 82520 333 58002 60111;
0179834980999992005053000004-17733-039250FM-12+000399999V0200901N001510075019N0020001N1+02461+02301102041ADDAA106000021GF108991051051008001021999KA1240M+02601MA1999999101991MD1999999+0021REMSYN088AAXX  30004 83498 32595 80903 10246 20230 30199 40204 8552/ 333 10260 29093 55000 58002;
0190834980999992005053012004-17733-039250FM-12+000399999V0200501N001510450019N0020001N1+02591+02401102221ADDAY161061AY261061GF106991041061008001011001KA1240N+02301MA1999999102171MD1999999+0191MW1211REMSYN088AAXX  30124 83498 21595 60503 10259 20240 30217 40222 72166 84610 333 20230 58019 60234;
0148834980999992005053018004-17733-039250FM-12+000399999V0201401N003111050019N0020001N1+02721+02391101981ADDAA106000021GF105991041051008001001051MA1999999101931MD1999999+0101REMSYN070AAXX  30184 83498 32595 51406 10272 20239 30193 40198 84505 333 58010;
0198834980999992005053100004-17733-039250FM-12+000399999V0201401N001510450019N0020001N1+02421+02321102121ADDAA106000091GF108991031071008001021999KA1240M+02821MA1999999102071MD1999999+0081REMSYN088AAXX  31004 83498 32595 81403 10242 20232 30207 40212 8372/ 333 10282 29090 55027 58008;EQDQ01  00002PRCP06
0162834980999992005053112004-17733-039250FM-12+000399999V0201401N003110450019N0020001N1+02671+02371102151ADDGF106991031051008001021021KA1240N+02351MA1999999102101MD1999999-0071REMSYN082AAXX  31124 83498 22595 61406 10267 20237 30210 40215 83522 333 20235 59007 60014;
0167834980999992005053118004-17733-039250FM-12+000399999V0201401N003610450019N0020001N1+02731+02391101951ADDAA106000091GF105991041021008001021001MA1999999101901MD1999999-0031REMSYN070AAXX  31184 83498 32595 51407 10273 20239 30190 40195 84220 333 59003;EQDQ01  00002PRCP06
0198834980999992005060100004-17733-039250FM-12+000399999V0201401N002612200019N0020001N1+02511+02211102131ADDAA106000091GF103991031061008001001001KA1240M+02811MA1999999102081MD1999999+0011REMSYN088AAXX  01004 83498 32595 31405 10251 20221 30208 40213 83600 333 10281 29084 55033 58001;EQDQ01  00002PRCP06
0186834980999992005060112004-17733-039250FM-12+000399999V0201401N002610450019N0020001N1+02611+02351102151ADDAA106000091GF107991031071008001011001KA1240N+02361MA1999999102101MD1999999+0001REMSYN076AAXX  01124 83498 32595 71405 10261 20235 30210 40215 83710 333 20236 58000;EQDQ01  00002PRCP06
0171834980999992005060118004-17733-039250FM-12+000399999V0201401N002610450019N0020001N1+02571+02311101861ADDAY161061AY221061GF106991031051008001011001MA1999999101811MD1999999-0091MW1211REMSYN082AAXX  01184 83498 21595 61405 10257 20231 30181 40186 72162 83510 333 59009 60011;
0189834980999992005060200004-17733-039250FM-12+000399999V0201401N001012200019N0020001N1+02421+02281102061ADDAA106000021GA1001+999999999GF100991001001999999001001KA1240M+02751MA1999999102011MD1999999-0071REMSYN082AAXX  02004 83498 32995 01402 10242 20228 30201 40206 333 10275 29089 55022 59007;
0190834980999992005060212004-17733-039250FM-12+000399999V0200901N002610450019N0020001N1+02521+02271102131ADDAY161061AY261061GF106991031051008001021011KA1240N+02251MA1999999102081MD1999999-0021MW1211REMSYN088AAXX  02124 83498 21595 60905 10252 20227 30208 40213 72166 83521 333 20225 59002 60104;
0148834980999992005060218004-17733-039250FM-12+000399999V0201401N002611050019N0020001N1+02581+02331101801ADDAA106000021GF106991041051008001001021MA1999999101751MD1999999-0061REMSYN070AAXX  02184 83498 32595 61405 10258 20233 30175 40180 84502 333 59006;
0198834980999992005060300004-17733-039250FM-12+000399999V0201401N003110075019N0020001N1+02471+02231102001ADDAA106000091GF108991051051008001021999KA1240M+02751MA1999999101951MD1999999-0061REMSYN088AAXX  03004 83498 32595 81406 10247 20223 30195 40200 8552/ 333 10275 29087 55045 59006;EQDQ01  00002PRCP06
0190834980999992005060312004-17733-039250FM-12+000399999V0202301N001510450019N0020001N1+02341+02271102121ADDAY161061AY261061GF108991021071008001021999KA1240N+02191MA1999999102071MD1999999-0011MW1211REMSYN088AAXX  03124 83498 21595 82303 10234 20227 30207 40212 72166 8272/ 333 20219 59001 60064;
0171834980999992005060318004-17733-039250FM-12+000399999V0200901N003110450019N0020001N1+02531+02291101931ADDAY161061AY261061GF108991041071008001021999MA1999999101881MD1999999+0131MW1501REMSYN082AAXX  03184 83498 21595 80906 10253 20229 30188 40193 75066 8472/ 333 58013 69981;
0202834980999992005060400004-17733-039250FM-12+000399999V0200901N001512200019N0020001N1+02331+02181102111ADDAY121061AY211061GF102991021061008001001001KA1240M+02651MA1999999102061MD1999999+0111MW1011REMSYN100AAXX  04004 83498 21595 20903 10233 20218 30206 40211 70121 82600 333 10265 29092 55000 58011 60031;
0177834980999992005060412004-17730-039250FM-12+000399999V0200901N001010450019N0020001N1+02481+02321102161ADDAY161061AY261061GF106991041071008001021001MA1999999102111MD1999999+0041MW1211REMSYN088AAXX  04124 83498 21595 60902 10248 20232 30211 40216 72166 84720 333 20220 58004 60064;
0171834980999992005060418004-17730-039250FM-12+000399999V0201401N004110075019N0020001N1+02561+02351102001ADDAY161061AY261061GF107991051051008001021001MA1999999101951MD1999999+0071MW1211REMSYN082AAXX  04184 83498 21595 71408 10256 20235 30195 40120 72166 85520 333 58007 60011;
0183834980999992005060500004-17730-039250FM-12+000399999V0200901N001512200019N0020001N1+02341+02111102151ADDAY121061AY211061GF100991001001999999001001MA1999999102101MD1999999+0041MW1001REMSYN094AAXX  05004 83498 21995 00903 10234 20211 30210 40215 70021 333 10270 29088 55028 58004 69991;
0162834980999992005060512004-17733-039250FM-12+000399999V0201401N002610450019N0020001N1+02631+02391102201ADDGF105991031021008001041001KA1240N+02001MA1999999102151MD1999999+0041REMSYN082AAXX  05124 83498 22595 51405 10263 20239 30215 40220 83240 333 20200 58004 60024;
0167834980999992005060518004-17733-039250FM-12+000399999V0201401N003612200019N0020001N1+02571+02271101951ADDAA106000091GF104991021021008001001051MA1999999101901MD1999999-0051REMSYN070AAXX  05184 83498 32595 41407 10257 20227 30190 40195 82205 333 59005;EQDQ01  00002PRCP06
0190834980999992005060612004-17733-039250FM-12+000399999V0202301N002110075019N0020001N1+02381+02281102021ADDAY161061AY261061GF106991061051008001001001KA1240N+02071MA1999999101971MD1999999-0181MW1211REMSYN088AAXX  06124 83498 21595 62304 10238 20228 30197 40202 72166 86500 333 20207 59018 60024;
0171834980999992005060618004-17733-039250FM-12+000399999V0201801N003110450019N0020001N1+02381+02281101751ADDAY161061AY261061GF107991041051008001021001MA1999999101701MD1999999-0201MW1211REMSYN082AAXX  06184 83498 21595 71806 10238 20228 30170 40175 72166 84520 333 59020 69961;
0179834980999992005060700004-17733-039250FM-12+000399999V0202301N000512200019N0020001N1+02201+02151101961ADDAA106000021GF103991031061008001001001KA1240M+02651MA1999999101951MD1999999-0171REMSYN088AAXX  07004 83498 32595 32301 10220 20215 30195 40196 83600 333 10265 29096 55033 59017;
0190834980999992005060712004-17733-039250FM-12+000399999V0202301N002112200019N0020001N1+02421+02301101991ADDAY121061AY211061GF103991031021008001001001KA1240N+01921MA1999999101941MD1999999-0031MW1031REMSYN088AAXX  07124 83498 21595 32304 10242 20230 30194 40199 70321 83200 333 20192 59003 60014;
0167834980999992005060718004-17733-039250FM-12+000399999V0202301N003112200019N0020001N1+02471+02271101761ADDAA106000091GF103991021041008001021001MA1999999101711MD1999999+0011REMSYN070AAXX  07184 83498 32595 32306 10247 20227 30171 40176 82420 333 58001;EQDQ01  00002PRCP06
0208834980999992005060800004-17733-039250FM-12+000399999V0201801N001012200019N0020001N1+02241+02161101921ADDAA106000091GA1001+999999999GF100991001001999999001001KA1240M+02651MA1999999101871MD1999999-0041REMSYN082AAXX  08004 83498 32995 01802 10224 20216 30187 40192 333 10265 29093 55054 59004;EQDQ01  00002PRCP06
0190834980999992005060812004-17733-039250FM-12+000399999V0202701N001010450019N0020001N1+02401+02261102121ADDAY161061AY221061GF106991031021008001021051KA1240N+02071MA1999999102071MD1999999+0131MW1211REMSYN088AAXX  08124 83498 21595 62702 10240 20226 30207 40212 72162 83225 333 20207 58013 60024;
0148834980999992005060818004-17733-039250FM-12+000399999V0201401N002112200019N0020001N1+02641+02311101911ADDAA106000021GF103991011011008001001081MA1999999101861MD1999999+0151REMSYN070AAXX  08184 83498 32595 31404 10264 20231 30186 40191 81108 333 58015;
0208834980999992005060900004-17733-039250FM-12+000399999V0201401N001512200019N0020001N1+02361+02191102111ADDAA106000091GA1001+999999999GF100991001001999999001001KA1240M+02741MA1999999102061MD1999999+0191REMSYN082AAXX  09004 83498 32995 01403 10236 20219 30206 40211 333 10274 29088 55062 58019;EQDQ01  00002PRCP06
0186834980999992005060912004-17733-039250FM-12+000399999V0201401N001510450019N0020001N1+02481+02291102171ADDAA106000091GF106991041051008001041001KA1240N+01851MA1999999102121MD1999999+0041REMSYN076AAXX  09124 83498 32595 61403 10248 20229 30212 40217 84540 333 20185 58004;EQDQ01  00002PRCP06
0167834980999992005060918004-17733-039250FM-12+000399999V0201401N003110450019N0020001N1+02501+02291101911ADDAA106000091GF105991031021008001021001MA1999999101861MD1999999+0001REMSYN070AAXX  09184 83498 32595 51406 10250 20229 30186 40191 83220 333 58000;EQDQ01  00002PRCP06
0208834980999992005061000004-17733-039250FM-12+000399999V0201401N002112200019N0020001N1+02421+02231102101ADDAA106000091GA1001+999999999GF100991001001999999001001KA1240M+02651MA1999999102051MD1999999-0011REMSYN082AAXX  10004 83498 32995 01404 10242 20223 30205 40210 333 10265 29089 55035 59001;EQDQ01  00002PRCP06
0186834980999992005061012004-17733-039250FM-12+000399999V0203201N001012200019N0020001N1+02461+02211102131ADDAA106000091GF104991041021008001001001KA1240N+02001MA1999999102081MD1999999-0041REMSYN076AAXX  10124 83498 32595 43202 10246 20221 30208 40213 84200 333 20200 59004;EQDQ01  00002PRCP06
0167834980999992005061018004-17733-039250FM-12+000399999V0201401N002110075019N0020001N1+02631+02411101881ADDAA106000091GF107991071041008001001001MA1999999101831MD1999999-0031REMSYN070AAXX  10184 83498 32595 71404 10263 20241 30183 40188 87400 333 59003;EQDQ01  00002PRCP06
0208834980999992005061100004-17733-039250FM-12+000399999V0201401N002112200019N0020001N1+02401+02151102001ADDAA106000091GA1001+999999999GF100991001001999999001001KA1240M+02741MA1999999101951MD1999999-0101REMSYN082AAXX  11004 83498 32995 01404 10240 20215 30195 40200 333 10274 29087 55057 59010;EQDQ01  00002PRCP06
0190834980999992005061112004-17733-039250FM-12+000399999V0202701N002110450019N0020001N1+02221+02171102091ADDAY161061AY261061GF107991031071008001011001KA1240N+02091MA1999999102041MD1999999-0041MW1211REMSYN088AAXX  11124 83498 21595 72704 10222 20217 30204 40209 72166 83710 333 20209 59004 60064;
0171834980999992005061118004-17733-039250FM-12+000399999V0209999C000010450019N0020001N1+02351+02181101821ADDAY161061AY261061GF108991031051008001021999MA1999999101771MD1999999-0061MW1211REMSYN082AAXX  11184 83498 21595 80000 10235 20218 30177 40182 72166 8352/ 333 59006 60171;
0202834980999992005061200004-17733-039250FM-12+000399999V0202701N00101045001CN0020001N1+02101+02051102011ADDAY121061AY211061GF105991031051008001011001KA1240M+02431MA1999999101961MD1999999+0011MW1031REMSYN100AAXX  12004 83498 21595 52702 10210 20205 30196 40201 70321 83510 333 10243 29096 55000 58001 69921;
0177834980999992005061212004-17730-039250FM-12+000399999V0203201N001510075019N0020001N1+02341+02221102101ADDAY161061AY261061GF108991051071008001021999MA1999999102051MD1999999+0011MW1211REMSYN088AAXX  12124 83498 21595 83203 10234 20222 30205 40210 72166 8572/ 333 20204 58001 60204;
0171834980999992005061218004-17730-039250FM-12+000399999V0201401N002112200019N0020001N1+02531+02251101741ADDAY161061AY261061GF104991031051008001021001MA1999999101691MD1999999-0081MW1211REMSYN082AAXX  12184 83498 21595 41404 10253 20225 30169 40174 72166 83520 333 59008 60121;
0202834980999992005061300004-17733-039250FM-12+000399999V0201401N001012200019N0020001N1+02301+02251101961ADDAY121061AY211061GF102991021061008001001001KA1240M+02601MA1999999101911MD1999999-0051MW1011REMSYN100AAXX  13004 83498 21595 21402 10230 20225 30191 40196 70121 82600 333 10260 29093 55022 59005 69941;
0190834980999992005061312004-17733-039250FM-12+000399999V0202301N000510450019N0020001N1+02531+02341102041ADDAY121061AY211061GF106991041051008001041001KA1240N+02021MA1999999101991MD1999999-0061MW1031REMSYN088AAXX  13124 83498 21595 62301 10253 20234 30199 40204 70321 84540 333 20202 59006 60134;
0183834980999992005061318004-17733-039250FM-12+000399999V0200901N002112200019N0020001N1+02631+02371101811ADDAA106000091GF104991999021008001021001MA1999999101761MD1999999+0071REMSYN070AAXX  13184 83498 32595 40904 10263 20237 30176 40181 85220 333 58007;EQDQ01+000052SCOTLCQ02  00002PRCP06
0202834980999992005061400004-17733-039250FM-12+000399999V0209999C000010450019N0020001N1+02241+02191101961ADDAY121061AY211061GF106991021071008001011001KA1240M+02691MA1999999101911MD1999999+0001MW1031REMSYN100AAXX  14004 83498 21595 60000 10224 20219 30191 40196 70321 82710 333 10269 29093 55019 58000 69961;
0190834980999992005061412004-17733-039250FM-12+000399999V0202301N001012200019N0020001N1+02421+02251102081ADDAY161061AY261061GF103991021021008001031001KA1240N+02071MA1999999102031MD1999999+0041MW1211REMSYN088AAXX  14124 83498 21595 32302 10242 20225 30203 40208 72166 82230 333 20207 58004 60044;
0148834980999992005061418004-17733-039250FM-12+000399999V0200901N001010450019N0020001N1+02611+02311101891ADDAA106000021GF106991041051008001021001MA1999999101841MD1999999+0081REMSYN070AAXX  14184 83498 32595 60902 10261 20231 30184 40189 84520 333 58008;
0202834980999992005061500004-17733-039250FM-12+000399999V0200901N001012200019N0020001N1+02421+02251102071ADDAY121061AY211061GF104991041051008001001001KA1240M+02711MA1999999102021MD1999999+0111MW1031REMSYN100AAXX  15004 83498 21595 40902 10242 20225 30202 40207 70321 84500 333 10271 29089 55027 58011 60021;
0190834980999992005061512004-17733-039250FM-12+000399999V0201401N001010450019N0020001N1+02381+02241102121ADDAY161061AY261061GF107991031071008001011001KA1240N+02141MA1999999102071MD1999999+0031MW1211REMSYN088AAXX  15124 83498 21595 71402 10238 20224 30207 40212 72166 83710 333 20214 58003 60114;
0148834980999992005061518004-17733-039250FM-12+000399999V0200901N003610450019N0020001N1+02651+02271101881ADDAA106000021GF106991031021008001031051MA1999999101831MD1999999-0011REMSYN070AAXX  15184 83498 32595 60907 10265 20227 30183 40188 83235 333 59001;
0198834980999992005061600004-17733-039250FM-12+000399999V0200501N001012200019N0020001N1+02361+02221102021ADDAA106000091GF103991031051008001001001KA1240M+02721MA1999999101971MD1999999-0051REMSYN088AAXX  16004 83498 32595 30502 10236 20222 30197 40202 83500 333 10272 29089 55011 59005;EQDQ01  00002PRCP06
0186834980999992005061612004-17733-039250FM-12+000399999V0201401N001510075019N0020001N1+02521+02211102021ADDAA106000091GF105991051021008001001001KA1240N+02041MA1999999101971MD1999999-0101REMSYN076AAXX  16124 83498 32595 51403 10252 20221 30197 40202 85200 333 20204 59010;EQDQ01  00002PRCP06
0167834980999992005061618004-17733-039250FM-12+000399999V0201401N002112200019N0020001N1+02631+02311101741ADDAA106000091GF104991031021008001021001MA1999999101691MD1999999-0141REMSYN070AAXX  16184 83498 32595 41404 10263 20231 30169 40174 83220 333 59014;EQDQ01  00002PRCP06
0208834980999992005061700004-17733-039250FM-12+000399999V0201401N000512200019N0020001N1+02121+02071101871ADDAA106000091GA1001+999999999GF100991001001999999001001KA1240M+02711MA1999999101821MD1999999-0151REMSYN082AAXX  17004 83498 32995 01401 10212 20207 30182 40187 333 10271 29090 55063 59015;EQDQ01  00002PRCP06
0186834980999992005061712004-17733-039250FM-12+000399999V0202301N001512200019N0020001N1+02401+02231101871ADDAA106000091GF101991011011008001001001KA1240N+02431MA1999999101821MD1999999-0151REMSYN076AAXX  17124 83498 32595 12303 10240 20223 30182 40187 81100 333 20243 59015;EQDQ01  00002PRCP06
0167834980999992005061718004-17733-039250FM-12+000399999V0200501N003112200019N0020001N1+02671+02271101471ADDAA106000091GF103991031021008001001001MA1999999101421MD1999999-0271REMSYN070AAXX  17184 83498 32595 30506 10267 20227 30142 40147 83200 333 59027;EQDQ01  00002PRCP06
0208834980999992005061800004-17733-039250FM-12+000399999V0200501N001012200019N0020001N1+02161+02131101661ADDAA106000091GA1001+999999999GF100991001001999999001001KA1240M+02831MA1999999101611MD1999999-0211REMSYN082AAXX  18004 83498 32995 00502 10216 20213 30161 40166 333 10283 29091 55068 59021;EQDQ01  00002PRCP06
0186834980999992005061812004-17733-039250FM-12+000399999V0203601N003111050019N0020001N1+02401+02211101671ADDAA106000091GF106991021021008001001021KA1240N+01931MA1999999101621MD1999999-0201REMSYN076AAXX  18124 83498 32595 63606 10240 20221 30162 40167 82202 333 20193 59020;EQDQ01  00002PRCP06
0167834980999992005061818004-17733-039250FM-12+000399999V0200501N004111050019N0020001N1+02761+02361101321ADDAA106000091GF106991021021008001001021MA1999999101271MD1999999-0151REMSYN070AAXX  18184 83498 32595 60508 10276 20236 30127 40132 82202 333 59015;EQDQ01  00002PRCP06
0185834980999992005061900004-17730-039250FM-12+000399999V0200501N002119999999N0020001N1+02421+02151101501ADDAA106000091GF106991001001999999001021MA1999999101451MD1999999-0161REMSYN088AAXX  19004 83498 32995 60504 10242 20215 30145 40150 80002 333 10283 29085 55006 59016;EQDQ01  00002PRCP06
0173834980999992005061912004-17730-039250FM-12+000399999V0203601N003112200019N0020001N1+02481+02341101551ADDAA106000091GF105991021011008001001011MA1999999101501MD1999999-0121REMSYN076AAXX  19124 83498 32595 53606 10248 20234 30150 40155 82101 333 20203 59012;EQDQ01  00002PRCP06
0167834980999992005061918004-17730-039250FM-12+000399999V0201401N001510450019N0020001N1+02721+02431101311ADDAA106000091GF107991031011008001051001MA1999999101261MD1999999-0011REMSYN070AAXX  19184 83498 32595 71403 10272 20243 30126 40131 83150 333 59001;EQDQ01  00002PRCP06
0185834980999992005062000004-17730-039250FM-12+000399999V0203601N001012200019N0020001N1+02341+02261101531ADDAA106000091GF103991011011008001001011MA1999999101481MD1999999+0031REMSYN088AAXX  20004 83498 32595 33602 10234 20226 30148 40153 81101 333 10294 29091 55019 58003;EQDQ01  00002PRCP06
0173834980999992005062012004-17730-039250FM-12+000399999V0203201N001519999999N0020001N1+02651+02461101641ADDAA106000091GF107991999011008001001001MA1999999101591MD1999999+0091REMSYN076AAXX  20124 83498 32595 73203 10265 20246 30159 40164 81100 333 20219 58009;EQDQ01  00002PRCP06
0167834980999992005062018004-17730-039250FM-12+000399999V0200501N003112200019N0020001N1+02911+02561101321ADDAA106000091GF102991021011008001001001MA1999999101271MD1999999+0011REMSYN070AAXX  20184 83498 32595 20506 10291 20256 30127 40132 82100 333 58001;EQDQ01  00002PRCP06
0198834980999992005062100004-17733-039250FM-12+000399999V0200501N002119999999N0020001N1+02471+02391101521ADDAA106000091GF105991031001012501031081KA1240M+03091MA1999999101471MD1999999-0011REMSYN088AAXX  21004 83498 32695 50504 10247 20239 30147 40152 83038 333 10309 29091 55076 59001;EQDQ01  00002PRCP06
0186834980999992005062112004-17733-039250FM-12+000399999V0203201N001510075019N0020001N1+02531+02361101801ADDAA106000091GF107991051021008001001021KA1240N+02301MA1999999101751MD1999999+0161REMSYN076AAXX  21124 83498 32595 73203 10253 20236 30175 40180 85202 333 20230 58016;EQDQ01  00002PRCP06
0167834980999992005062118004-17733-039250FM-12+000399999V0201401N003110450019N0020001N1+02551+02381101581ADDAA106000091GF106991031051008001021001MA1999999101531MD1999999+0261REMSYN070AAXX  21184 83498 32595 61406 10255 20238 30153 40158 83520 333 58026;EQDQ01  00002PRCP06
0202834980999992005062200004-17733-039250FM-12+000399999V0201801N002610075019N0020001N1+02381+02241101901ADDAY121061AY211061GF108991051051008001021999KA1240M+02751MA1999999101851MD1999999+0381MW1031REMSYN100AAXX  22004 83498 21595 81805 10238 20224 30185 40190 70321 8552/ 333 10275 29092 55002 58038 60011;
0190834980999992005062212004-17733-039250FM-12+000399999V0201801N005110450019N0020001N1+02361+02311102161ADDAY161061AY261061GF108991041061008001021999KA1240N+02101MA1999999102111MD1999999+0361MW1211REMSYN088AAXX  22124 83498 21595 81810 10236 20231 30211 40216 72166 8462/ 333 20210 58036 60074;
0171834980999992005062218004-17733-039250FM-12+000399999V0201801N005710450019N0020001N1+02201+02151101981ADDAY161061AY261061GF108991031071008001021999MA1999999101931MD1999999+0401MW1611REMSYN082AAXX  22184 83498 21595 81811 10220 20215 30193 40198 76166 8372/ 333 58040 60041;
0202834980999992005062300004-17733-039250FM-12+000399999V0201401N005110450019N0020001N1+02421+02251102311ADDAY161061AY221061GF107991041051008001051001KA1240M+02511MA1999999102261MD1999999+0411MW1211REMSYN100AAXX  23004 83498 21595 71410 10242 20225 30226 40231 72162 84550 333 10251 29094 55001 58041 69921;
0190834980999992005062312004-17733-039250FM-12+000399999V0202301N002610450019N0020001N1+02101+02031102261ADDAY161061AY261061GF107991031071008001011001KA1240N+01951MA1999999102211MD1999999+0101MW1211REMSYN088AAXX  23124 83498 21595 72305 10210 20203 30221 40226 72166 83710 333 20195 58010 60104;
0171834980999992005062318004-17733-039250FM-12+000399999V0201801N001010450019N0020001N1+02301+02201102001ADDAY161061AY261061GF107991031071008001011001MA1999999101951MD1999999+0021MW1211REMSYN082AAXX  23184 83498 21595 71802 10230 20220 30195 40200 72166 83710 333 58002 60031;
0202834980999992005062400004-17733-039250FM-12+000399999V0201801N003110450019N0020001N1+02221+02101102091ADDAY121061AY211061GF106991041051008001011001KA1240M+02541MA1999999102041MD1999999-0221MW1031REMSYN100AAXX  24004 83498 21595 61806 10222 20210 30204 40209 70321 84510 333 10254 29094 55008 59022 60011;
0162834980999992005062412004-17733-039250FM-12+000399999V0202301N003610450019N0020001N1+02031+01971102071ADDGF108991031061008001021999KA1240N+01871MA1999999102021MD1999999-0191REMSYN082AAXX  24124 83498 22595 82307 10203 20197 30202 40207 8362/ 333 20187 59019 60044;
0167834980999992005062418004-17733-039250FM-12+000399999V0201801N005710450019N0020001N1+02301+02111101801ADDAA106000091GF108991031051008001021999MA1999999101751MD1999999-0201REMSYN070AAXX  24184 83498 32595 81811 10230 20211 30175 40180 8352/ 333 59020;EQDQ01  00002PRCP06
0202834980999992005062500004-17733-039250FM-12+000399999V0201801N003610450019N0020001N1+02181+02151101981ADDAY161061AY261061GF108991031071008001021999KA1240M+02391MA1999999101931MD1999999+0111MW1211REMSYN100AAXX  25004 83498 21595 81807 10218 20215 30193 40198 72166 8372/ 333 10239 29096 55000 58011 60021;
0190834980999992005062512004-17733-039250FM-12+000399999V0201801N004110450019N0020001N1+02361+02201102011ADDAY161061AY261061GF107991041051008001011001KA1240N+01981MA1999999101961MD1999999-0061MW1211REMSYN088AAXX  25124 83498 21595 71808 10236 20220 30196 40201 72166 84510 333 20198 59006 60034;
0148834980999992005062518004-17733-039250FM-12+000399999V0201801N004110450019N0020001N1+02501+02211101781ADDAA106000021GF107991031051008001041001MA1999999101731MD1999999-0021REMSYN070AAXX  25184 83498 32595 71808 10250 20221 30173 40178 83540 333 59002;
0185834980999992005062600004-17730-039250FM-12+000399999V0201801N003112200019N0020001N1+02561+02081102031ADDAA106000091GF104991041021008001001001MA1999999101981MD1999999+0051REMSYN088AAXX  26004 83498 32595 41806 10256 20208 30198 40203 84200 333 10257 29082 55006 58005;EQDQ01  00002PRCP06
0173834980999992005062612004-17730-039250FM-12+000399999V0201401N003112200019N0020001N1+02511+02111102041ADDAA106000091GF104991021021008001041001MA1999999101991MD1999999+0031REMSYN076AAXX  26124 83498 32595 41406 10251 20211 30199 40204 82240 333 20190 58003;EQDQ01  00002PRCP06
0167834980999992005062618004-17730-039250FM-12+000399999V0201401N002610450019N0020001N1+02481+02131101861ADDAA106000091GF108991031051008001021999MA1999999101811MD1999999+0081REMSYN070AAXX  26184 83498 32595 81405 10248 20213 30181 40186 8352/ 333 58008;EQDQ01  00002PRCP06
0198834980999992005062700004-17733-039250FM-12+000399999V0200901N001510450019N0020001N1+02421+02231102021ADDAA106000091GF108991041061008001021999KA1240M+02581MA1999999101971MD1999999-0011REMSYN088AAXX  27004 83498 32595 80903 10242 20223 30197 40202 8462/ 333 10258 29085 55019 59001;EQDQ01  00002PRCP06
0186834980999992005062712004-17733-039250FM-12+000399999V0200901N003110450019N0020001N1+02571+02271102001ADDAA106000091GF106991031051008001021081KA1240N+02221MA1999999101951MD1999999-0041REMSYN076AAXX  27124 83498 32595 60906 10257 20227 30195 40200 83528 333 20222 59004;EQDQ01  00002PRCP06
0167834980999992005062718004-17733-039250FM-12+000399999V0201401N001510450019N0020001N1+02511+02271101801ADDAA106000091GF106991031051008001021081MA1999999101751MD1999999-0061REMSYN070AAXX  27184 83498 32595 61403 10251 20227 30175 40180 83528 333 59006;EQDQ01  00002PRCP06
0198834980999992005062800004-17733-039250FM-12+000399999V0203201N001510450019N0020001N1+02241+02191102051ADDAA106000091GF108991031071008001021999KA1240M+02651MA1999999102001MD1999999+0031REMSYN088AAXX  28004 83498 32595 83203 10224 20219 30200 40205 8372/ 333 10265 29089 55000 58003;EQDQ01  00002PRCP06
0190834980999992005062812004-17733-039250FM-12+000399999V0203601N001010450019N0020001N1+02201+02081102321ADDAY161061AY221061GF108991041071008001021999KA1240N+02001MA1999999102271MD1999999+0321MW1601REMSYN088AAXX  28124 83498 21595 83602 10220 20208 30227 40232 76062 8472/ 333 20200 58032 60134;
0171834980999992005062818004-17733-039250FM-12+000399999V0201401N001510450019N0020001N1+02581+02331102051ADDAY161061AY261061GF107991031051008001041001MA1999999102001MD1999999+0251MW1211REMSYN082AAXX  28184 83498 21595 71403 10258 20233 30200 40205 72166 83540 333 58025 69911;
0179834980999992005062900004-17733-039250FM-12+000399999V0201401N001012200019N0020001N1+02241+02161102281ADDAA106000021GF102991021011008001001001KA1240M+02651MA1999999102231MD1999999+0231REMSYN088AAXX  29004 83498 32595 21402 10224 20216 30223 40228 82100 333 10265 29092 55017 58023;
0190834980999992005062912004-17733-039250FM-12+000399999V0200901N001510450019N0020001N1+02361+02261102221ADDAY161061AY261061GF106991031051008001041011KA1240N+01991MA1999999102171MD1999999-0101MW1211REMSYN088AAXX  29124 83498 21595 60903 10236 20226 30217 40222 72166 83541 333 20199 59010 60024;
0148834980999992005062918004-17733-039250FM-12+000399999V0200901N002111050019N0020001N1+02671+02331101881ADDAA106000021GF106991021011008001001021MA1999999101831MD1999999-0171REMSYN070AAXX  29184 83498 32595 60904 10267 20233 30183 40188 82102 333 59017;
0198834980999992005063000004-17733-039250FM-12+000399999V0209999C000010075019N0020001N1+02261+02211102051ADDAA106000091GF108991051051008001021999KA1240M+02711MA1999999102001MD1999999-0231REMSYN088AAXX  30004 83498 32595 80000 10226 20221 30200 40205 8552/ 333 10271 29093 55045 59023;EQDQ01  00002PRCP06
0186834980999992005063012004-17733-039250FM-12+000399999V0203201N000512200019N0020001N1+02341+02171102271ADDAA106000091GF105991031021008001001081KA1240N+01931MA1999999102221MD1999999+0051REMSYN076AAXX  30124 83498 32595 53201 10234 20217 30222 40227 83208 333 20193 58005;EQDQ01  00002PRCP06
0167834980999992005063018004-17733-039250FM-12+000399999V0201401N001512200019N0020001N1+02631+02181101871ADDAA106000091GF104991011021008001001081MA1999999101821MD1999999-0011REMSYN070AAXX  30184 83498 32595 41403 10263 20218 30182 40187 81208 333 59001;EQDQ01  00002PRCP06
0192834980999992005070100004-17733-039250FM-12+000399999V0200901N000512200019N0020001N1+01981+01951101941ADDAA106000091GF100991001001999999001001KA1240M+02701MA1999999101891MD1999999-0111REMSYN082AAXX  01004 83498 32995 00901 10198 20195 30189 40194 333 10270 29093 55022 59011;EQDQ01  00002PRCP06
0190834980999992005070112004-17733-039250FM-12+000399999V0202301N001012200019N0020001N1+02201+02031102081ADDAY161061AY211061GF102991021011008001001001KA1240N+01741MA1999999102031MD1999999-0191MW1211REMSYN088AAXX  01124 83498 21595 22302 10220 20203 30203 40208 72161 82100 333 20174 59019 69924;
0148834980999992005070118004-17733-039250FM-12+000399999V0200901N002112200019N0020001N1+02601+02191101851ADDAA106000021GF103991031011008001001001MA1999999101801MD1999999-0021REMSYN070AAXX  01184 83498 32595 30904 10260 20219 30180 40185 83100 333 59002;
0198834980999992005070200004-17733-039250FM-12+000399999V0200901N000512200019N0020001N1+02141+01991102121ADDAA106000091GF101991011011008001001001KA1240M+02671MA1999999102071MD1999999+0181REMSYN088AAXX  02004 83498 32595 10901 10214 20199 30207 40212 81100 333 10267 29088 55083 58018;EQDQ01  00002PRCP06
0202834980999992005070212004-17733-039250FM-12+000399999V0202301N001519999999N0020001N1+02301+02131102291ADDAA106000091GF105991001001999999001081KA1240N+01771MA1999999102241MD1999999+0211REMSYN076AAXX  02124 83498 32795 52303 10230 20213 30224 40229 80008 333 20177 58021;EQDQ01+017502SCOLCBQ02  00002PRCP06
0167834980999992005070218004-17733-039250FM-12+000399999V0201401N002111050019N0020001N1+02541+02271101951ADDAA106000091GF106991021011008001001081MA1999999101901MD1999999+0101REMSYN070AAXX  02184 83498 32595 61404 10254 20227 30190 40195 82108 333 58010;EQDQ01  00002PRCP06
0179834980999992005070300004-17730-039250FM-12+000399999V0200901N001012200019N0020001N1+02061+02031102151ADDAA106000091GF100991001001999999001001MA1999999102101MD1999999+0031REMSYN082AAXX  03004 83498 32995 00902 10206 20203 30210 40215 333 10265 29093 55042 58003;EQDQ01  00002PRCP06
0177834980999992005070312004-17730-039250FM-12+000399999V0203601N001512200019N0020001N1+02401+02171102221ADDAY161061AY221061GF102991021021008001001001MA1999999102171MD1999999-0071MW1211REMSYN088AAXX  03124 83498 21595 23603 10240 20217 30217 40222 72162 82200 333 20192 59007 69964;
0148834980999992005070318004-17730-039250FM-12+000399999V0201401N002612200019N0020001N1+02631+02371101941ADDAA106000021GF104991041021008001001001MA1999999101891MD1999999-0011REMSYN070AAXX  03184 83498 32595 41405 10263 20237 30189 40194 84200 333 59001;
0192834980999992005070400004-17733-039250FM-12+000399999V0200501N000512200019N0020001N1+02061+02031102081ADDAA106000091GF100991001001999999001001KA1240M+02671MA1999999102031MD1999999-0071REMSYN082AAXX  04004 83498 32995 00501 10206 20203 30203 40208 333 10267 29092 55065 59007;EQDQ01  00002PRCP06
0190834980999992005070412004-17733-039250FM-12+000399999V0203201N001012200019N0020001N1+02241+02101102081ADDAY161061AY211061GF102991021011008001001001KA1240N+01841MA1999999102031MD1999999-0141MW1211REMSYN088AAXX  04124 83498 21595 23202 10224 20210 30203 40208 72161 82100 333 20184 59014 69964;
0148834980999992005070418004-17733-039250FM-12+000399999V0200901N003112200019N0020001N1+02661+02161101831ADDAA106000021GF103991031011008001001001MA1999999101781MD1999999-0111REMSYN070AAXX  04184 83498 32595 30906 10266 20216 30178 40183 83100 333 59011;
0198834980999992005070500004-17733-039250FM-12+000399999V0200501N000512200019N0020001N1+02121+02041101921ADDAA106000091GF101991011011008001001001KA1240M+02711MA1999999101871MD1999999-0161REMSYN088AAXX  05004 83498 32595 10501 10212 20204 30187 40192 81100 333 10271 29089 55059 59016;EQDQ01  00002PRCP06
0186834980999992005070512004-17733-039250FM-12+000399999V0203201N001012200019N0020001N1+02331+02131102021ADDAA106000091GF102991021041008001001001KA1240N+01821MA1999999101971MD1999999-0131REMSYN076AAXX  05124 83498 32595 23202 10233 20213 30197 40202 82400 333 20182 59013;EQDQ01  00002PRCP06
0167834980999992005070518004-17733-039250FM-12+000399999V0200501N004112200019N0020001N1+02651+02201101661ADDAA106000091GF103991031021008001001001MA1999999101611MD1999999-0171REMSYN070AAXX  05184 83498 32595 30508 10265 20220 30161 40166 83200 333 59017;EQDQ01  00002PRCP06
0180834980999992005070612004-17733-039250FM-12+000399999V0203601N001512200019N0020001N1+02381+02191102121ADDAA106000091GF100991001001999999001001KA1240N+01891MA1999999102071MD1999999+0101REMSYN070AAXX  06124 83498 32995 03603 10238 20219 30207 40212 333 20189 58010;EQDQ01  00002PRCP06
0167834980999992005070618004-17733-039250FM-12+000399999V0200901N001519999999N0020001N1+02511+02291101931ADDAA106000091GF105991051001012501031001MA1999999101881MD1999999+0271REMSYN070AAXX  06184 83498 32695 50903 10251 20229 30188 40193 85030 333 58027;EQDQ01  00002PRCP06
0192834980999992005070700004-17733-039250FM-12+000399999V0200901N000512200019N0020001N1+02121+02051102201ADDAA106000091GF100991001001999999001001KA1240M+02751MA1999999102151MD1999999+0281REMSYN082AAXX  07004 83498 32995 00901 10212 20205 30215 40220 333 10275 29092 55038 58028;EQDQ01  00002PRCP06
0186834980999992005070712004-17733-039250FM-12+000399999V0202301N001510075019N0020001N1+02101+01951102261ADDAA106000091GF108991051051008001011999KA1240N+01751MA1999999102211MD1999999+0141REMSYN076AAXX  07124 83498 32595 82303 10210 20195 30221 40226 8551/ 333 20175 58014;EQDQ01  00002PRCP06
0167834980999992005070718004-17733-039250FM-12+000399999V0201401N002112200019N0020001N1+02561+02291102081ADDAA106000091GF104991041021008001001001MA1999999102031MD1999999+0151REMSYN070AAXX  07184 83498 32595 41404 10256 20229 30203 40208 84200 333 58015;EQDQ01  00002PRCP06
0190834980999992005070812004-17733-039250FM-12+000399999V0201801N008210075019N0020001N1+02061+01891102491ADDAY161061AY261061GF108991051071008001021999KA1240N+01971MA1999999102441MD1999999+0231MW1211REMSYN088AAXX  08124 83498 21595 81816 10206 20189 30244 40249 72166 8572/ 333 20197 58023 60114;
0171834980999992005070818004-17733-039250FM-12+000399999V0201801N005710450019N0020001N1+02091+01911102391ADDAY121061AY211061GF108991031071008001021999MA1999999102341MD1999999+0311MW1031REMSYN082AAXX  08184 83498 21595 81811 10209 20191 30234 40239 70321 8372/ 333 58031 60031;
0202834980999992005070900004-17733-039250FM-12+000399999V0201801N006210075019N0020001N1+02141+01841102551ADDAY121061AY211061GF108991051051008001021999KA1240M+02401MA1999999102501MD1999999+0131MW1031REMSYN100AAXX  09004 83498 21595 81812 10214 20184 30250 40255 70321 8552/ 333 10240 29087 55000 58013 60021;
0190834980999992005070912004-17733-039250FM-12+000399999V0202301N005110450019N0020001N1+01831+01691102651ADDAY161061AY261061GF106991031071008001021001KA1240N+01691MA1999999102601MD1999999+0161MW1211REMSYN088AAXX  09124 83498 21595 62310 10183 20169 30260 40265 72166 83720 333 20169 58016 60124;
0148834980999992005070918004-17733-039250FM-12+000399999V0202301N004110075019N0020001N1+02051+01891102391ADDAA106000021GF107991051071008001021001MA1999999102341MD1999999+0001REMSYN070AAXX  09184 83498 32595 72308 10205 20189 30234 40239 85720 333 58000;
0189834980999992005071000004-17730-039250FM-12+000399999V0202301N003610450019N0020001N1+01901+01851102421ADDAY161061AY221061GF108991041071008001021999MA1999999102371MD1999999-0131MW1211REMSYN100AAXX  10004 83498 21595 82307 10190 20185 30237 40242 72162 8472/ 333 10229 29094 55015 59013 60011;
0177834980999992005071012004-17730-039250FM-12+000399999V0202301N001510450019N0020001N1+02061+01911102401ADDAY161061AY261061GF108991041061008001021999MA1999999102351MD1999999-0251MW1601REMSYN088AAXX  10124 83498 21595 82303 10206 20191 30235 40240 76066 8462/ 333 20170 59025 60154;
0171834980999992005071018004-17730-039250FM-12+000399999V0200901N002110450019N0020001N1+02401+02091102181ADDAY161061AY261061GF106991021011008001051001MA1999999102131MD1999999-0211MW1211REMSYN082AAXX  10184 83498 21595 60904 10240 20209 30213 40218 72166 82150 333 59021 60041;
0202834980999992005071100004-17733-039250FM-12+000399999V0200901N001010450019N0020001N1+02201+02101102371ADDAY161061AY261061GF105991041051008001011001KA1240M+02801MA1999999102321MD1999999-0051MW1211REMSYN100AAXX  11004 83498 21595 50902 10220 20210 30232 40237 72166 84510 333 10280 29090 55005 59005 69971;
0162834980999992005071112004-17733-039250FM-12+000399999V0200901N003110450019N0020001N1+02441+02011102421ADDGF107991041051008001011001KA1240N+02001MA1999999102371MD1999999+0021REMSYN082AAXX  11124 83498 22595 70906 10244 20201 30237 40242 84510 333 20200 58002 60054;
0167834980999992005071118004-17733-039250FM-12+000399999V0200901N005110450019N0020001N1+02401+01991102231ADDAA106000091GF106991031051008001011001MA1999999102181MD1999999+0051REMSYN070AAXX  11184 83498 32595 60910 10240 20199 30218 40223 83510 333 58005;EQDQ01  00002PRCP06
0198834980999992005071200004-17733-039250FM-12+000399999V0200901N001510075019N0020001N1+02281+01771102381ADDAA106000091GF107991051061008001011001KA1240M+02581MA1999999102331MD1999999+0011REMSYN088AAXX  12004 83498 32595 70903 10228 20177 30233 40238 85610 333 10258 29075 55005 58001;EQDQ01  00002PRCP06
0186834980999992005071212004-17733-039250FM-12+000399999V0202301N001510450019N0020001N1+02121+01931102471ADDAA106000091GF107991021051008001021001KA1240N+01721MA1999999102421MD1999999+0051REMSYN076AAXX  12124 83498 32595 72303 10212 20193 30242 40247 82520 333 20172 58005;EQDQ01  00002PRCP06
0184834980999992005071218004-17733-039250FM-12+000399999V0201801N004110450019N0020001N1+02421+02051102171ADDAY161061AY221061GF105991041051008001021001MA1999999102121MD1999999-0061REMSYN082AAXX  12184 83498 21595 51808 10242 20205 30212 40217 76662 84520 333 59006 69921;EQDQ01+000662PRSWM1
0202834980999992005071300004-17733-039250FM-12+000399999V0201401N003112200019N0020001N1+02201+01971102281ADDAY121061AY211061GF103991031051008001001001KA1240M+02511MA1999999102231MD1999999-0101MW1031REMSYN100AAXX  13004 83498 21595 31406 10220 20197 30223 40228 70321 83500 333 10251 29086 55048 59010 69961;
0162834980999992005071312004-17733-039250FM-12+000399999V0202301N001512200019N0020001N1+02121+01971102351ADDGF103991031011008001001001KA1240N+01731MA1999999102301MD1999999-0121REMSYN082AAXX  13124 83498 22595 32303 10212 20197 30230 40235 83100 333 20173 59012 69984;
0167834980999992005071318004-17733-039250FM-12+000399999V0201801N002610450019N0020001N1+02401+02111102091ADDAA106000091GF106991021021008001041001MA1999999102041MD1999999-0081REMSYN070AAXX  13184 83498 32595 61805 10240 20211 30204 40209 82240 333 59008;EQDQ01  00002PRCP06
0198834980999992005071400004-17733-039250FM-12+000399999V0201801N001512200019N0020001N1+02161+02081102211ADDAA106000091GF101991011011008001001001KA1240M+02471MA1999999102161MD1999999-0071REMSYN088AAXX  14004 83498 32595 11803 10216 20208 30216 40221 81100 333 10247 29091 55069 59007;EQDQ01  00002PRCP06
0190834980999992005071412004-17733-039250FM-12+000399999V0202301N001012200019N0020001N1+02141+01971102221ADDAY121061AY211061GF104991021021008001041001KA1240N+01651MA1999999102171MD1999999-0131MW1031REMSYN088AAXX  14124 83498 21595 42302 10214 20197 30217 40222 70321 82240 333 20165 59013 60044;
0171834980999992005071418004-17733-039250FM-12+000399999V0201801N005110075019N0020001N1+02261+02111102021ADDAY161061AY221061GF107991071071008001001001MA1999999101971MD1999999-0071MW1211REMSYN082AAXX  14184 83498 21595 71810 10226 20211 30197 40202 72162 87700 333 59007 69911;
0179834980999992005071500004-17733-039250FM-12+000399999V0201401N003110450019N0020001N1+02281+02001102221ADDAA106000021GF106991041051008001041001KA1240M+02501MA1999999102171MD1999999+0011REMSYN088AAXX  15004 83498 32595 61406 10228 20200 30217 40222 84540 333 10250 29087 55047 58001;
0162834980999992005071512004-17733-039250FM-12+000399999V0201401N003610450019N0020001N1+02451+01831102311ADDGF105991021011008001031001KA1240N+02121MA1999999102261MD1999999+0091REMSYN082AAXX  15124 83498 22595 51407 10245 20183 30226 40231 82130 333 20212 58009 69914;
0167834980999992005071518004-17733-039250FM-12+000399999V0201401N002610450019N0020001N1+02441+02011102061ADDAA106000091GF105991021021008001031001MA1999999102011MD1999999+0041REMSYN070AAXX  15184 83498 32595 51405 10244 20201 30201 40206 82230 333 58004;EQDQ01  00002PRCP06
0198834980999992005071600004-17733-039250FM-12+000399999V0201401N001512200019N0020001N1+02061+01851102211ADDAA106000091GF101991011011008001001001KA1240M+02511MA1999999102161MD1999999-0011REMSYN088AAXX  16004 83498 32595 11403 10206 20185 30216 40221 81100 333 10251 29081 55078 59001;EQDQ01  00002PRCP06
0186834980999992005071612004-17733-039250FM-12+000399999V0202701N001010450019N0020001N1+02141+02001102201ADDAA106000091GF105991021011008001051001KA1240N+01851MA1999999102151MD1999999-0111REMSYN076AAXX  16124 83498 32595 52702 10214 20200 30215 40220 82150 333 20185 59011;EQDQ01  00002PRCP06
0167834980999992005071618004-17733-039250FM-12+000399999V0200501N002112200019N0020001N1+02421+02051101811ADDAA106000091GF102991021011008001001001MA1999999101761MD1999999-0251REMSYN070AAXX  16184 83498 32595 20504 10242 20205 30176 40181 82100 333 59025;EQDQ01  00002PRCP06
0179834980999992005071700004-17730-039250FM-12+000399999V0209999C000012200019N0020001N1+01901+01821102051ADDAA106000091GF100991001001999999001001MA1999999102001MD1999999-0161REMSYN082AAXX  17004 83498 32995 00000 10190 20182 30200 40205 333 10253 29090 55038 59016;EQDQ01  00002PRCP06
0173834980999992005071712004-17730-039250FM-12+000399999V0203601N002612200019N0020001N1+02421+02111101981ADDAA106000091GF101991011011008001001001MA1999999101931MD1999999-0221REMSYN076AAXX  17124 83498 32595 13605 10242 20211 30193 40198 81100 333 20157 59022;EQDQ01  00002PRCP06
0167834980999992005071718004-17730-039250FM-12+000399999V0200501N004612200019N0020001N1+02591+02061101561ADDAA106000091GF102991021021008001001001MA1999999101511MD1999999-0251REMSYN070AAXX  17184 83498 32595 20509 10259 20206 30151 40156 82200 333 59025;EQDQ01  00002PRCP06
0192834980999992005071800004-17733-039250FM-12+000399999V0200901N002112200019N0020001N1+02181+02011101711ADDAA106000091GF100991001001999999001001KA1240M+02731MA1999999101681MD1999999-0321REMSYN082AAXX  18004 83498 32995 00904 10218 20201 30168 40171 333 10273 29085 55085 59032;EQDQ01  00002PRCP06
0186834980999992005071812004-17733-039250FM-12+000399999V0203601N004112200019N0020001N1+02441+02091101741ADDAA106000091GF102991021011008001001001KA1240N+01871MA1999999101691MD1999999-0241REMSYN076AAXX  18124 83498 32595 23608 10244 20209 30169 40174 82100 333 20187 59024;EQDQ01  00002PRCP06
0167834980999992005071818004-17733-039250FM-12+000399999V0200501N005712200019N0020001N1+02651+02161101381ADDAA106000091GF102991001001999999001011MA1999999101331MD1999999-0181REMSYN070AAXX  18184 83498 32995 20511 10265 20216 30133 40138 80001 333 59018;EQDQ01  00002PRCP06
0192834980999992005071900004-17733-039250FM-12+000399999V0200501N001012200019N0020001N1+02201+02121101731ADDAA106000091GF100991001001999999001001KA1240M+02791MA1999999101681MD1999999+0001REMSYN082AAXX  19004 83498 32995 00502 10220 20212 30168 40173 333 10279 29087 55074 58000;EQDQ01  00002PRCP06
0186834980999992005071912004-17733-039250FM-12+000399999V0203601N001512200019N0020001N1+02361+02131101931ADDAA106000091GF102991021011008001001001KA1240N+01801MA1999999101881MD1999999+0191REMSYN076AAXX  19124 83498 32595 23603 10236 20213 30188 40193 82100 333 20180 58019;EQDQ01  00002PRCP06
0137834980999992005071918004-17733-039250FM-12+000399999V0200901N003112200019N0020001N1+02621+02141101751ADDGF102991021001008001001011MA1999999101701MD1999999+0371REMSYN070AAXX  19184 83498 32595 20906 10262 20214 30170 40175 82001 333 58037;
0168834980999992005072000004-17733-039250FM-12+000399999V0201401N001012200019N0020001N1+02261+02121102071ADDGF102991021011008001001001KA1240M+02831MA1999999102021MD1999999+0341REMSYN088AAXX  20004 83498 32595 21402 10226 20212 30202 40207 82100 333 10283 29086 55089 58034;
0156834980999992005072012004-17733-039250FM-12+000399999V0201801N003610450019N0020001N1+02441+02151102221ADDGF106991041051008001011001KA1240N+01991MA1999999102171MD1999999+0291REMSYN076AAXX  20124 83498 32595 61807 10244 20215 30217 40222 84510 333 20199 58029;
0137834980999992005072018004-17733-039250FM-12+000399999V0201801N005110450019N0020001N1+02471+02171101941ADDGF106991041051008001021001MA1999999101891MD1999999+0191REMSYN070AAXX  20184 83498 32595 61810 10247 20217 30189 40194 84520 333 58019;
0168834980999992005072100004-17733-039250FM-12+000399999V0201801N003610450019N0020001N1+02281+02111102201ADDGF106991041051008001011001KA1240M+02531MA1999999102151MD1999999+0131REMSYN088AAXX  21004 83498 32595 61807 10228 20211 30215 40220 84510 333 10253 29087 55013 58013;
0201834980999992005072112004-17733-039250FM-12+000399999V0201801N003110075019N0020001N1+02401+02151102221ADDAA124001091AY161061AY221061GF107991051051008001021001KA1240N+02041MA1999999102171MD1999999+0001MW1211REMSYN088AAXX  21124 83498 21595 71806 10240 20215 30217 40222 72162 85520 333 20204 58000 69994;
0182834980999992005072118004-17733-039250FM-12+000399999V0201401N003610075019N0020001N1+02371+02191102021ADDAA106002091AY161061AY261061GF106991061051008001001001MA1999999101971MD1999999+0081MW1211REMSYN082AAXX  21184 83498 21595 61407 10237 20219 30197 40202 72166 86500 333 58008 60021;
0213834980999992005072200004-17733-039250FM-12+000399999V0201401N000510075019N0020001N1+02221+02141102201ADDAA106999999AY121061AY211061GF107991051051008001011001KA1240M+02571MA1999999102151MD1999999+0031MW1031REMSYN100AAXX  22004 83498 21595 71401 10222 20214 30215 40220 70321 85510 333 10257 29091 55028 58003 69911;
0201834980999992005072212004-17733-039250FM-12+000399999V0202301N001010450019N0020001N1+02301+02161102291ADDAA124007991AY161061AY261061GF106991041051008001011001KA1240N+01981MA1999999102241MD1999999+0071MW1211REMSYN088AAXX  22124 83498 21595 62302 10230 20216 30224 40229 72166 84510 333 20198 58007 60084;
0137834980999992005072218004-17733-039250FM-12+000399999V0201401N001510450019N0020001N1+02381+02131102091ADDGF107991031051008001041001MA1999999102051MD1999999+0081REMSYN070AAXX  22184 83498 32595 71403 10238 20213 30205 40209 83540 333 58008;
0168834980999992005072300004-17733-039250FM-12+000399999V0200901N001012200019N0020001N1+02241+02141102231ADDGF102991021021008001001001KA1240M+02651MA1999999102181MD1999999+0001REMSYN088AAXX  23004 83498 32595 20902 10224 20214 30218 40223 82200 333 10265 29092 55042 58000;
0156834980999992005072312004-17733-039250FM-12+000399999V0200901N002112200019N0020001N1+02511+02151102251ADDGF104991031051008001041001KA1240N+01991MA1999999102201MD1999999-0041REMSYN076AAXX  23124 83498 32595 40904 10251 20215 30220 40225 83540 333 20199 59004;
0137834980999992005072318004-17733-039250FM-12+000399999V0201401N002112200019N0020001N1+02531+02191102001ADDGF104991041021008001001001MA1999999101951MD1999999-0101REMSYN070AAXX  23184 83498 32595 41404 10253 20219 30195 40200 84200 333 59010;
0155834980999992005072400004-17730-039250FM-12+000399999V0200901N001512200019N0020001N1+02241+02031102201ADDGF102991021011008001001001MA1999999102151MD1999999-0031REMSYN088AAXX  24004 83498 32595 20903 10224 20203 30215 40220 82100 333 10262 29085 55081 59003;
0143834980999992005072412004-17730-039250FM-12+000399999V0203601N001510450019N0020001N1+02261+02091102331ADDGF105991031041008001011011MA1999999102281MD1999999+0081REMSYN076AAXX  24124 83498 32595 53603 10226 20209 30228 40233 83411 333 20184 58008;
0137834980999992005072418004-17730-039250FM-12+000399999V0200901N004110450019N0020001N1+02551+02251102081ADDGF106991041051008001021001MA1999999102031MD1999999+0081REMSYN070AAXX  24184 83498 32595 60908 10255 20225 30203 40208 84520 333 58008;
0200834980999992005072500004-17730-039250FM-12+000399999V0200501N001010450019N0020001N1+02141+02051102291ADDAA106001091AY121061AY211061GF106991041051008001011001MA1999999102241MD1999999+0091MW1031REMSYN100AAXX  25004 83498 21595 60502 10214 20205 30224 40229 70321 84510 333 10267 29091 55041 58009 60011;
0173834980999992005072512004-17733-039250FM-12+000399999V0202701N001011050019N0020001N1+02261+02031102271ADDAA124001091GF106991021011008001001021KA1240N+01841MA1999999102221MD1999999-0061REMSYN082AAXX  25124 83498 22595 62702 10226 20203 30222 40227 82102 333 20184 59006 60014;
0137834980999992005072518004-17733-039250FM-12+000399999V0200901N002112200019N0020001N1+02581+02271101911ADDGF106991031011008001001011MA1999999101861MD1999999-0171REMSYN070AAXX  25184 83498 32595 60904 10258 20227 30186 40191 83101 333 59017;
0168834980999992005072600004-17733-039250FM-12+000399999V0200501N001512200019N0020001N1+02061+01981102251ADDGF104991011011008001001011KA1240M+02631MA1999999102201MD1999999-0041REMSYN088AAXX  26004 83498 32595 40503 10206 20198 30220 40225 81101 333 10263 29090 55043 59004;
0156834980999992005072612004-17733-039250FM-12+000399999V0203601N001512200019N0020001N1+02241+02151102201ADDGF104991041021008001001001KA1240N+01771MA1999999102151MD1999999-0071REMSYN076AAXX  26124 83498 32595 43603 10224 20215 30215 40220 84200 333 20177 59007;
0137834980999992005072618004-17733-039250FM-12+000399999V0200901N002612200019N0020001N1+02651+02201101981ADDGF102991021021008001001001MA1999999101931MD1999999+0071REMSYN070AAXX  26184 83498 32595 20905 10265 20220 30193 40198 82200 333 58007;
0168834980999992005072700004-17733-039250FM-12+000399999V0209999C000012200019N0020001N1+02281+02161102221ADDGF103991031011008001001001KA1240M+02771MA1999999102171MD1999999-0031REMSYN088AAXX  27004 83498 32595 30000 10228 20216 30217 40222 83100 333 10277 29078 55083 59003;
0156834980999992005072712004-17733-039250FM-12+000399999V0202301N002611050019N0020001N1+02351+02171102341ADDGF106991041011008001001081KA1240N+01981MA1999999102291MD1999999+0141REMSYN076AAXX  27124 83498 32595 62305 10235 20217 30229 40234 84108 333 20198 58014;
0137834980999992005072718004-17733-039250FM-12+000399999V0201801N002610450019N0020001N1+02541+02191102091ADDGF105991031041008001011011MA1999999102041MD1999999+0111REMSYN070AAXX  27184 83498 32595 51805 10254 20219 30204 40209 83411 333 58011;
0162834980999992005072800004-17733-039250FM-12+000399999V0201801N001512200019N0020001N1+02201+02121102251ADDGF100991001001999999001001KA1240M+02651MA1999999102201MD1999999+0031REMSYN082AAXX  28004 83498 32995 01803 10220 20212 30220 40225 333 10265 29090 55061 58003;
0156834980999992005072812004-17733-039250FM-12+000399999V0202701N001010450019N0020001N1+02201+01971102321ADDGF106991021011008001051001KA1240N+01901MA1999999102271MD1999999-0021REMSYN076AAXX  28124 83498 32595 62702 10220 20197 30227 40232 82150 333 20190 59002;
0137834980999992005072818004-17733-039250FM-12+000399999V0200901N002110450019N0020001N1+02401+02091102121ADDGF108991041051008001011999MA1999999102071MD1999999+0031REMSYN070AAXX  28184 83498 32595 80904 10240 20209 30207 40212 8451/ 333 58003;
0168834980999992005072900004-17733-039250FM-12+000399999V0200501N001012200019N0020001N1+02321+02181102301ADDGF102991021011008001001001KA1240M+02571MA1999999102251MD1999999+0051REMSYN088AAXX  29004 83498 32595 20502 10232 20218 30225 40230 82100 333 10257 29088 55018 58005;
0192834980999992005072912004-17733-039250FM-12+000399999V0200501N001510450019N0020001N1+02431+02211102331ADDAA124000091GF106991041051008001041001KA1240N+02021MA1999999102281MD1999999+0011REMSYN082AAXX  29124 83498 22595 60503 10243 20221 30228 40233 84540 333 20202 58001 69924;EQDQ01  00002PRCP24
0137834980999992005072918004-17733-039250FM-12+000399999V0200901N002610450019N0020001N1+02511+02111102081ADDGF106991041051008001021001MA1999999102031MD1999999-0041REMSYN070AAXX  29184 83498 32595 60905 10251 20211 30203 40208 84520 333 59004;
0162834980999992005073000004-17733-039250FM-12+000399999V0200501N000512200019N0020001N1+02071+02011102301ADDGF100991001001999999001001KA1240M+02681MA1999999102251MD1999999+0001REMSYN082AAXX  30004 83498 32995 00501 10207 20201 30225 40230 333 10268 29090 55019 58000;
0143834980999992005073012004-17730-039250FM-12+000399999V0200501N000511050019N0020001N1+02381+02131102351ADDGF106991041041008001001021MA1999999102301MD1999999+0021REMSYN076AAXX  30124 83498 32595 60501 10238 20213 30230 40235 84402 333 20184 58002;
0137834980999992005073018004-17730-039250FM-12+000399999V0200901N002610075019N0020001N1+02571+02061102081ADDGF106991061021008001001001MA1999999102011MD1999999-0021REMSYN070AAXX  30184 83498 32595 60905 10257 20206 30201 40208 86200 333 59002;
0149834980999992005073100004-17730-039250FM-12+000399999V0200901N002112200019N0020001N1+02181+01861102321ADDGF100991001001999999001001MA1999999102271MD1999999+0021REMSYN082AAXX  31004 83498 32995 00904 10218 20186 30227 40232 333 10268 29081 55060 58002;
0143834980999992005073112004-17730-039250FM-12+000399999V0200901N002110075019N0020001N1+02421+02111102351ADDGF105991051021008001001001MA1999999102301MD1999999+0001REMSYN076AAXX  31124 83498 32595 50904 10242 20211 30230 40235 85200 333 20210 58000;
0137834980999992005073118004-17733-039250FM-12+000399999V0200501N003112200019N0020001N1+02601+02101102091ADDGF104991041011008001001001MA1999999102041MD1999999+0031REMSYN070AAXX  31184 83498 32595 40506 10260 20210 30204 40209 84100 333 58003;
0168834980999992005080100004-17733-039250FM-12+000399999V0200901N002612200019N0020001N1+02341+02221102281ADDGF101991011011008001001001KA1240M+02601MA1999999102231MD1999999-0041REMSYN088AAXX  01004 83498 32595 10905 10234 20222 30223 40228 81100 333 10260 29086 55085 59004;
0156834980999992005080112004-17733-039250FM-12+000399999V0201401N002612200019N0020001N1+02511+02031102411ADDGF103991031021008001001001KA1240N+01971MA1999999102361MD1999999+0061REMSYN076AAXX  01124 83498 32595 31405 10251 20203 30236 40241 83200 333 20197 58006;
0137834980999992005080118004-17733-039250FM-12+000399999V0200901N002112200019N0020001N1+02531+01861102151ADDGF103991021021008001001081MA1999999102011MD1999999+0061REMSYN070AAXX  01184 83498 32595 30904 10253 20186 30201 40215 82208 333 58006;
0178834980999992005080200004-17733-039250FM-12+000399999V0200901N001512200019N0020001N1+02241+01941102281ADDGA1001+999999999GF100991001001999999001001KA1240M+02631MA1999999102231MD1999999+0001REMSYN082AAXX  02004 83498 32995 00903 10224 20194 30223 40228 333 10263 29077 55089 58000;
0201834980999992005080212004-17733-039250FM-12+000399999V0202701N002610075019N0020001N1+02021+01941102341ADDAA124002091AY161061AY221061GF107991071071008001001001KA1240N+01821MA1999999102291MD1999999-0071MW1211REMSYN088AAXX  02124 83498 21595 72705 10202 20194 30229 40234 72162 87700 333 20182 59007 60024;
0182834980999992005080218004-17733-039250FM-12+000399999V0201401N001510450019N0020001N1+02501+02001102101ADDAA106000591AY161061AY261061GF107991011011008001071001MA1999999102051MD1999999-0051MW1211REMSYN082AAXX  02184 83498 21595 71403 10250 20200 30205 40210 72166 81170 333 59005 69961;
0213834980999992005080300004-17733-039250FM-12+000399999V0200901N001012200019N0020001N1+02201+01901102291ADDAA106999999AY121061AY211061GF102991021061008001001001KA1240M+02531MA1999999102241MD1999999+0011MW1011REMSYN100AAXX  03004 83498 21595 20902 10220 20190 30224 40229 70121 82600 333 10253 29084 55003 58001 69911;
0201834980999992005080312004-17733-039250FM-12+000399999V0200901N002112200019N0020001N1+02401+02111102331ADDAA124004191AY161061AY261061GF104991021011008001041001KA1240N+01821MA1999999102281MD1999999-0011MW1211REMSYN088AAXX  03124 83498 21595 40904 10240 20211 30228 40233 72166 82140 333 20182 59001 60044;
0182834980999992005080318004-17733-039250FM-12+000399999V0200901N003111050019N0020001N1+02481+02111102101ADDAA106002091AY161061AY261061GF105991011011008001051011MA1999999102051MD1999999+0001MW1211REMSYN082AAXX  03184 83498 21595 50906 10248 20211 30205 40210 72166 81151 333 58000 60021;
0168834980999992005080400004-17733-039250FM-12+000399999V0200901N001510450019N0020001N1+02321+02151102251ADDGF106991041051008001031001KA1240M+02631MA1999999102201MD1999999-0041REMSYN088AAXX  04004 83498 32595 60903 10232 20215 30220 40225 84530 333 10263 29086 55025 59004;
0201834980999992005080412004-17733-039250FM-12+000399999V0201401N002612200019N0020001N1+02481+02031102491ADDAA124002091AY121061AY211061GF103991031021008001001001KA1240N+01891MA1999999102441MD1999999+0161MW1031REMSYN088AAXX  04124 83498 21595 31405 10248 20203 30244 40249 70321 83200 333 20189 58016 60024;
0137834980999992005080418004-17733-039250FM-12+000399999V0200901N002612200019N0020001N1+02581+01971102241ADDGF102991021021008001001001MA1999999102191MD1999999+0141REMSYN070AAXX  04184 83498 32595 20905 10258 20197 30219 40224 82200 333 58014;
0168834980999992005080500004-17733-039250FM-12+000399999V0201401N003112200019N0020001N1+02301+01981102411ADDGF102991021051008001001001KA1240M+02671MA1999999102361MD1999999+0161REMSYN088AAXX  05004 83498 32595 21406 10230 20198 30236 40241 82500 333 10267 29077 55079 58016;
0201834980999992005080512004-17733-039250FM-12+000399999V0201401N003110075019N0020001N1+02321+02131102461ADDAA124004191AY161061AY221061GF108991051071008001021999KA1240N+02051MA1999999102411MD1999999-0031MW1211REMSYN088AAXX  05124 83498 21595 81406 10232 20213 30241 40246 72162 8572/ 333 20205 59003 60044;
0182834980999992005080518004-17733-039250FM-12+000399999V0200901N003110450019N0020001N1+02201+02121102231ADDAA106011991AY161061AY251061GF108991041071008001021999MA1999999102181MD1999999-0011MW1211REMSYN082AAXX  05184 83498 21595 80906 10220 20212 30218 40223 72165 8472/ 333 59001 60121;
0213834980999992005080600004-17733-039250FM-12+000399999V0200901N001510450019N0020001N1+02321+02001102361ADDAA106000591AY121061AY211061GF107991041061008001011001KA1240M+02351MA1999999102311MD1999999-0051MW1031REMSYN100AAXX  06004 83498 21595 70903 10232 20200 30231 40236 70321 84610 333 10235 29078 55000 59005 69961;
0201834980999992005080612004-17733-039250FM-12+000399999V0200501N001010450019N0020001N1+02541+02111102361ADDAA124013091AY161061AY261061GF106991021011008001051001KA1240N+02061MA1999999102311MD1999999-0101MW1211REMSYN088AAXX  06124 83498 21595 60502 10254 20211 30231 40236 72166 82150 333 20206 59010 60134;
0137834980999992005080618004-17733-039250FM-12+000399999V0200901N002610450019N0020001N1+02581+02171102101ADDGF105991031011008001051001MA1999999102051MD1999999-0131REMSYN070AAXX  06184 83498 32595 50905 10258 20217 30205 40210 83150 333 59013;
0155834980999992005080700004-17730-039250FM-12+000399999V0200901N001012200019N0020001N1+02241+02101102361ADDGF104991011011008001051001MA1999999102311MD1999999+0001REMSYN088AAXX  07004 83498 32595 40902 10224 20210 30231 40236 81150 333 10269 29085 55013 58000;
0188834980999992005080712004-17730-039250FM-12+000399999V0203601N001510450019N0020001N1+02421+02071102311ADDAA124000021AY121061AY211061GF106991041051008001041001MA1999999102261MD1999999-0051MW1031REMSYN088AAXX  07124 83498 21595 63603 10242 20207 30226 40231 70321 84540 333 20189 59005 69924;
0137834980999992005080718004-17730-039250FM-12+000399999V0201401N002110450019N0020001N1+02511+02001102031ADDGF106991031021008001041001MA1999999101981MD1999999-0071REMSYN070AAXX  07184 83498 32595 61404 10251 20200 30198 40203 83240 333 59007;
0213834980999992005080800004-17733-039250FM-12+000399999V0200901N001510450019N0020001N1+02041+01891102211ADDAA106001091AY161061AY261061GF108991021071008001021999KA1240M+02651MA1999999102161MD1999999-0151MW1211REMSYN100AAXX  08004 83498 21595 80903 10204 20189 30216 40221 72166 8272/ 333 10265 29084 55056 59015 60011;
0201834980999992005080812004-17733-039250FM-12+000399999V0200901N002110450019N0020001N1+02511+02171102201ADDAA124001091AY161061AY261061GF106991031041008001021001KA1240N+01971MA1999999102151MD1999999-0111MW1211REMSYN088AAXX  08124 83498 21595 60904 10251 20217 30215 40220 72166 83420 333 20197 59011 60014;
0137834980999992005080818004-17733-039250FM-12+000399999V0200901N003610450019N0020001N1+02601+01991101921ADDGF106991021051008001031001MA1999999101871MD1999999-0111REMSYN070AAXX  08184 83498 32595 60907 10260 20199 30187 40192 82530 333 59011;
0168834980999992005080900004-17733-039250FM-12+000399999V0203601N001510075019N0020001N1+02241+02101102131ADDGF107991051051008001021001KA1240M+02771MA1999999102081MD1999999+0001REMSYN088AAXX  09004 83498 32595 73603 10224 20210 30208 40213 85520 333 10277 29084 55045 58000;
0201834980999992005080912004-17733-039250FM-12+000399999V0202301N001010075019N0020001N1+02281+02071102181ADDAA124000021AY161061AY221061GF105991051051008001041001KA1240N+01901MA1999999102131MD1999999-0021MW1211REMSYN088AAXX  09124 83498 21595 52302 10228 20207 30213 40218 72162 85540 333 20190 59002 69914;
0137834980999992005080918004-17733-039250FM-12+000399999V0200501N003110450019N0020001N1+02601+02031101861ADDGF105991031051008001041001MA1999999101811MD1999999-0061REMSYN070AAXX  09184 83498 32595 50506 10260 20203 30181 40186 83540 333 59006;
0168834980999992005081000004-17733-039250FM-12+000399999V0200501N000510450019N0020001N1+02261+02121102501ADDGF106991041051008001011001KA1240M+02701MA1999999102001MD1999999-0081REMSYN088AAXX  10004 83498 32595 60501 10226 20212 30200 40250 84510 333 10270 29086 55030 59008;
0156834980999992005081012004-17733-039250FM-12+000399999V0203601N004610450019N0020001N1+02391+02111102111ADDGF107991041051008001041001KA1240N+01961MA1999999102061MD1999999-0071REMSYN076AAXX  10124 83498 32595 73609 10239 20211 30206 40211 84540 333 20196 59007;
0137834980999992005081018004-17733-039250FM-12+000399999V0200501N003110450019N0020001N1+02571+02191101861ADDGF107991041051008001041001MA1999999101811MD1999999+0001REMSYN070AAXX  10184 83498 32595 70506 10257 20219 30181 40186 84540 333 58000;
0213834980999992005081100004-17733-039250FM-12+000399999V0209999C000010450019N0020001N1+02221+02141102061ADDAA106001091AY161061AY221061GF108991031071008001021999KA1240M+02651MA1999999102011MD1999999+0011MW1211REMSYN100AAXX  11004 83498 21595 80000 10222 20214 30201 40206 72162 8372/ 333 10265 29089 55012 58001 60011;
0201834980999992005081112004-17733-039250FM-12+000399999V0200501N002610450019N0020001N1+02461+02251102131ADDAA124005191AY161061AY261061GF106991021021008001021001KA1240N+02131MA1999999102081MD1999999+0021MW1211REMSYN088AAXX  11124 83498 21595 60505 10246 20225 30208 40213 72166 82220 333 20213 58002 60054;
0137834980999992005081118004-17733-039250FM-12+000399999V0200501N003111050019N0020001N1+02591+02231101881ADDGF106991031051008001001021MA1999999101831MD1999999+0021REMSYN070AAXX  11184 83498 32595 60506 10259 20223 30183 40188 83502 333 58002;
0223834980999992005081200004-17733-039250FM-12+000399999V0200501N001512200019N0020001N1+02201+02081102011ADDAA106001091AY121061AY211061GA1001+999999999GF100991001001999999001001KA1240M+02711MA1999999101961MD1999999-0051MW1001REMSYN094AAXX  12004 83498 21595 00503 10220 20208 30196 40201 70021 333 10271 29089 55038 59005 60011;
0201834980999992005081212004-17733-039250FM-12+000399999V0203601N001010450019N0020001N1+02401+02171101991ADDAA124003091AY161061AY261061GF106991031051008001011001KA1240N+02071MA1999999101941MD1999999-0141MW1211REMSYN088AAXX  12124 83498 21595 63602 10240 20217 30194 40199 72166 83510 333 20207 59014 60034;
0137834980999992005081218004-17733-039250FM-12+000399999V0203601N002610450019N0020001N1+02601+02191101731ADDGF106991021051008001031001MA1999999101681MD1999999-0151REMSYN070AAXX  12184 83498 32595 63605 10260 20219 30168 40173 82530 333 59015;
0168834980999992005081300004-17733-039250FM-12+000399999V0200501N001512200019N0020001N1+02341+02151101931ADDGF103991021011008001001011KA1240M+02691MA1999999101881MD1999999-0081REMSYN088AAXX  13004 83498 32595 30503 10234 20215 30188 40193 82101 333 10269 29086 55030 59008;
0143834980999992005081312004-17730-039250FM-12+000399999V0203201N001511050019N0020001N1+02421+02191101981ADDGF105991031021008001001021MA1999999101931MD1999999-0011REMSYN076AAXX  13124 83498 32595 53203 10242 20219 30193 40198 83202 333 20199 59001;
0137834980999992005081318004-17730-039250FM-12+000399999V0200501N002612200019N0020001N1+02651+02161101671ADDGF103991021021008001001081MA1999999101621MD1999999-0061REMSYN070AAXX  13184 83498 32595 30505 10265 20216 30162 40167 82208 333 59006;
0155834980999992005081400004-17730-039250FM-12+000399999V0200501N000512200019N0020001N1+02141+02091101921ADDGF103991031021008001001001MA1999999101871MD1999999-0011REMSYN088AAXX  14004 83498 32595 30501 10214 20209 30187 40192 83200 333 10274 29089 55065 59001;
0143834980999992005081412004-17730-039250FM-12+000399999V0200501N000510075019N0020001N1+02461+02171102041ADDGF105991051021008001001001MA1999999101191MD1999999+0061REMSYN076AAXX  14124 83498 32595 50501 10246 20217 30119 40204 85200 333 20189 58006;
0137834980999992005081418004-17730-039250FM-12+000399999V0201401N002611050019N0020001N1+02611+02231101901ADDGF105991041021008001001091MA1999999101851MD1999999-0071REMSYN070AAXX  14184 83498 32595 51405 10261 20223 30185 40190 84209 333 59007;
0155834980999992005081500004-17730-039250FM-12+000399999V0200901N001512200019N0020001N1+02301+02111102101ADDGF102991021001008001031001MA1999999102051MD1999999+0181REMSYN088AAXX  15004 83498 32595 20903 10230 20211 30205 40210 82030 333 10268 29086 55094 58018;
0143834980999992005081512004-17730-039250FM-12+000399999V0200901N001510450019N0020001N1+02361+02131102271ADDGF107991041051008001011001MA1999999102221MD1999999+0231REMSYN076AAXX  15124 83498 32595 70903 10236 20213 30222 40227 84510 333 20216 58023;
0182834980999992005081518004-17730-039250FM-12+000399999V0200901N002110075019N0020001N1+02461+02171102051ADDAA106000591AY161061AY221061GF108991051051008001011999MA1999999102001MD1999999+0151MW1211REMSYN082AAXX  15184 83498 21595 80904 10246 20217 30200 40205 72162 8551/ 333 58015 69961;
0213834980999992005081600004-17733-039250FM-12+000399999V0200501N001010450019N0020001N1+02221+02051102281ADDAA106007191AY161061AY261061GF108991041061008001021999KA1240M+02591MA1999999102231MD1999999+0181MW1211REMSYN100AAXX  16004 83498 21595 80502 10222 20205 30223 40228 72166 8462/ 333 10259 29088 55005 58018 60071;
0173834980999992005081612004-17733-039250FM-12+000399999V0200901N002610075019N0020001N1+02401+02151102311ADDAA124007991GF107991051051008001011001KA1240N+02111MA1999999102261MD1999999+0041REMSYN082AAXX  16124 83498 22595 70905 10240 20215 30226 40231 85510 333 20211 58004 60084;
0137834980999992005081618004-17733-039250FM-12+000399999V0200901N003112200019N0020001N1+02481+02231102011ADDGF104991021041008001041001MA1999999101961MD1999999-0041REMSYN070AAXX  16184 83498 32595 40906 10248 20223 30196 40201 82440 333 59004;
0213834980999992005081700004-17733-039250FM-12+000399999V0200901N004110450019N0020001N1+02161+02041102211ADDAA106002091AY161061AY261061GF106991041051008001021001KA1240M+02601MA1999999102161MD1999999-0071MW1211REMSYN100AAXX  17004 83498 21595 60908 10216 20204 30216 40221 72166 84520 333 10260 29089 55059 59007 60021;
0201834980999992005081712004-17733-039250FM-12+000399999V0200901N004610450019N0020001N1+02551+02171102211ADDAA124011991AY161061AY261061GF106991041051008001021001KA1240N+02041MA1999999102161MD1999999-0101MW1211REMSYN088AAXX  17124 83498 21595 60909 10255 20217 30216 40221 72166 84520 333 20204 59010 60124;
0137834980999992005081718004-17733-039250FM-12+000399999V0200901N004110075019N0020001N1+02501+02171101941ADDGF106991051051008001001051MA1999999101891MD1999999-0071REMSYN070AAXX  17184 83498 32595 60908 10250 20217 30189 40194 85505 333 59007;
0213834980999992005081800004-17733-039250FM-12+000399999V0200501N002110450019N0020001N1+02101+02021102181ADDAA106003091AY161061AY261061GF108991031071008001021999KA1240M+02661MA1999999102131MD1999999-0031MW1211REMSYN100AAXX  18004 83498 21595 80504 10210 20202 30213 40218 72166 8372/ 333 10266 29088 55063 59003 60031;
0201834980999992005081812004-17733-039250FM-12+000399999V0200501N002610450019N0020001N1+02361+02131102161ADDAA124004191AY161061AY261061GF106991031051008001031001KA1240N+02001MA1999999102111MD1999999-0051MW1211REMSYN088AAXX  18124 83498 21595 60505 10236 20213 30211 40216 72166 83530 333 20200 59005 60044;
0137834980999992005081818004-17733-039250FM-12+000399999V0200501N003110450019N0020001N1+02601+02161101871ADDGF105991021011008001031001MA1999999101821MD1999999-0071REMSYN070AAXX  18184 83498 32595 50506 10260 20216 30182 40187 82130 333 59007;
0168834980999992005081900004-17733-039250FM-12+000399999V0200501N001012200019N0020001N1+02281+02111102191ADDGF104991041051008001001001KA1240M+02721MA1999999102141MD1999999+0011REMSYN088AAXX  19004 83498 32595 40502 10228 20211 30214 40219 84500 333 10272 29086 55065 58001;
0201834980999992005081912004-17733-039250FM-12+000399999V0202301N001010450019N0020001N1+02471+02071102251ADDAA124013091AY121061AY211061GF106991041051008001041001KA1240N+02051MA1999999102201MD1999999+0091MW1031REMSYN088AAXX  19124 83498 21595 62302 10247 20207 30220 40225 70321 84540 333 20205 58009 60134;
0182834980999992005081918004-17733-039250FM-12+000399999V0200901N001510450019N0020001N1+02221+02081102121ADDAA106000891AY161061AY261061GF107991041051008001041001MA1999999102071MD1999999+0251MW1211REMSYN082AAXX  19184 83498 21595 70903 10222 20208 30207 40212 72166 84540 333 58025 69981;
0168834980999992005082000004-17733-039250FM-12+000399999V0201401N001012200019N0020001N1+02081+01871102291ADDGF103991031051008001001001KA1240M+02671MA1999999102241MD1999999+0101REMSYN088AAXX  20004 83498 32595 31402 10208 20187 30224 40229 83500 333 10267 29087 55045 58010;
0173834980999992005082012004-17733-039250FM-12+000399999V0201801N000510450019N0020001N1+02361+02011102331ADDAA124000891GF106991031051008001041001KA1240N+01841MA1999999102281MD1999999+0081REMSYN082AAXX  20124 83498 22595 61801 10236 20201 30228 40233 83540 333 20184 58008 69974;
0182834980999992005082018004-17733-039250FM-12+000399999V0201401N002610450019N0020001N1+02481+02051102031ADDAA106002091AY161061AY221061GF106991041051008001021081MA1999999101981MD1999999-0091MW1211REMSYN082AAXX  20184 83498 21595 61405 10248 20205 30198 40203 72162 84528 333 59009 60021;
0155834980999992005082100004-17730-039250FM-12+000399999V0201401N001512200019N0020001N1+02301+02031102251ADDGF102991021021008001001001MA1999999102201MD1999999-0041REMSYN088AAXX  21004 83498 32595 21403 10230 20203 30220 40225 82200 333 10253 29082 55036 59004;
0160834980999992005082112004-17730-039250FM-12+000399999V0200901N003110450019N0020001N1+02541+02291102181ADDAA124002091GF106991041021008001031001MA1999999102131MD1999999-0151REMSYN082AAXX  21124 83498 22595 60906 10254 20229 30213 40218 84230 333 20212 59015 60024;
0137834980999992005082118004-17730-039250FM-12+000399999V0200901N004110450019N0020001N1+02681+02281101831ADDGF105991021011008001031001MA1999999101781MD1999999-0201REMSYN070AAXX  21184 83498 32595 50908 10268 20228 30178 40183 82130 333 59020;
0168834980999992005082200004-17733-039250FM-12+000399999V0200901N001512200019N0020001N1+02301+02131102131ADDGF102991021011008001001001KA1240M+02641MA1999999102081MD1999999-0121REMSYN088AAXX  22004 83498 32595 20903 10230 20213 30208 40213 82100 333 10264 29086 55052 59012;
0220834980999992005082212004-17733-039250FM-12+000399999V0200901N004612200019N0020001N1+02551+02041102261ADDAA124000091AY121061AY211061GF102991021011008001001001KA1240N+02151MA1999999102211MD1999999+0081MW1011REMSYN088AAXX  22124 83498 21595 20909 10255 20204 30221 40226 70121 82100 333 20215 58008 69914;EQDQ01  00002PRCP24
0137834980999992005082218004-17733-039250FM-12+000399999V0200901N002612200019N0020001N1+02551+01881101981ADDGF103991031011008001001001MA1999999101931MD1999999+0151REMSYN070AAXX  22184 83498 32595 30905 10255 20188 30193 40198 83100 333 58015;
0168834980999992005082300004-17733-039250FM-12+000399999V0200901N001012200019N0020001N1+02181+01821102181ADDGF102991021041008001001001KA1240M+02691MA1999999102131MD1999999+0051REMSYN088AAXX  23004 83498 32595 20902 10218 20182 30213 40218 82400 333 10269 29075 55099 58005;
0201834980999992005082312004-17733-039250FM-12+000399999V0200501N000510450019N0020001N1+02241+02101102221ADDAA124005191AY161061AY261061GF108991021071008001021999KA1240N+02021MA1999999102171MD1999999-0041MW1211REMSYN088AAXX  23124 83498 21595 80501 10224 20210 30217 40222 72166 8272/ 333 20202 59004 60054;
0182834980999992005082318004-17733-039250FM-12+000399999V0200501N001510450019N0020001N1+02341+02111101961ADDAA106003091AY161061AY261061GF108991021071008001021999MA1999999101911MD1999999-0021MW1211REMSYN082AAXX  23184 83498 21595 80503 10234 20211 30191 40196 72166 8272/ 333 59002 60031;
0213834980999992005082400004-17733-039250FM-12+000399999V0200901N001010075019N0020001N1+02221+02011102131ADDAA106002091AY121061AY211061GF107991051051008001011001KA1240M+02451MA1999999102081MD1999999-0051MW1031REMSYN100AAXX  24004 83498 21595 70902 10222 20201 30208 40213 70321 85510 333 10245 29089 55000 59005 60021;
0173834980999992005082412004-17733-039250FM-12+000399999V0200901N002110450019N0020001N1+02481+02091102151ADDAA124004191GF106991041051008001031001KA1240N+01761MA1999999102101MD1999999-0071REMSYN082AAXX  24124 83498 22595 60904 10248 20209 30210 40215 84530 333 20176 59007 60044;
0137834980999992005082418004-17733-039250FM-12+000399999V0200901N003112200019N0020001N1+02601+02191101911ADDGF103991031011008001001001MA1999999101861MD1999999-0051REMSYN070AAXX  24184 83498 32595 30906 10260 20219 30186 40191 83100 333 59005;
0178834980999992005082500004-17733-039250FM-12+000399999V0200501N000512200019N0020001N1+02101+01951102031ADDGA1001+999999999GF100991001001999999001001KA1240M+02661MA1999999101981MD1999999-0101REMSYN082AAXX  25004 83498 32995 00501 10210 20195 30198 40203 333 10266 29085 55050 59010;
0156834980999992005082512004-17733-039250FM-12+000399999V0203601N003612200019N0020001N1+02531+02131101881ADDGF103991031011008001001001KA1240N+01781MA1999999101831MD1999999-0271REMSYN076AAXX  25124 83498 32595 33607 10253 20213 30183 40188 83100 333 20178 59027;
0156834980999992005082518004-17733-039250FM-12+000399999V0200501N004112200019N0020001N1+02651+02181101571ADDGF102991001001999999001041MA1999999101521MD1999999-0341REMSYN070AAXX  25184 83498 32795 20508 10265 20218 30152 40157 80004 333 59034;EQDQ01+017502SCOLCB
0178834980999992005082600004-17733-039250FM-12+000399999V0200501N000512200019N0020001N1+01961+01891101811ADDGA1001+999999999GF100991001001999999001001KA1240M+02741MA1999999101761MD1999999-0221REMSYN082AAXX  26004 83498 32995 00501 10196 20189 30176 40181 333 10274 29087 55095 59022;
0156834980999992005082612004-17733-039250FM-12+000399999V0202701N001012200019N0020001N1+02301+01941102051ADDGF102991011011008001001011KA1240N+01651MA1999999102001MD1999999+0171REMSYN076AAXX  26124 83498 32595 22702 10230 20194 30200 40205 81101 333 20165 58017;
0137834980999992005082618004-17733-039250FM-12+000399999V0200901N002610450019N0020001N1+02601+02191101851ADDGF106991031011008001051001MA1999999101801MD1999999+0281REMSYN070AAXX  26184 83498 32595 60905 10260 20219 30180 40185 83150 333 58028;
0168834980999992005082700004-17733-039250FM-12+000399999V0200501N001012200019N0020001N1+02161+02021102031ADDGF102991021011008001001001KA1240M+02741MA1999999101981MD1999999+0221REMSYN088AAXX  27004 83498 32595 20502 10216 20202 30198 40203 82100 333 10274 29086 55062 58022;
0156834980999992005082712004-17733-039250FM-12+000399999V0200501N001010450019N0020001N1+02401+02151102051ADDGF106991041051008001041001KA1240N+01771MA1999999102001MD1999999+0001REMSYN076AAXX  27124 83498 32595 60502 10240 20215 30200 40205 84540 333 20177 58000;
0137834980999992005082718004-17733-039250FM-12+000399999V0200501N003112200019N0020001N1+02591+02171101801ADDGF103991031021008001001001MA1999999101751MD1999999-0051REMSYN070AAXX  27184 83498 32595 30506 10259 20217 30175 40180 83200 333 59005;
0178834980999992005082800004-17733-039250FM-12+000399999V0200501N000512200019N0020001N1+02221+02081102031ADDGA1001+999999999GF100991001001999999001001KA1240M+02671MA1999999101981MD1999999+0001REMSYN082AAXX  28004 83498 32995 00501 10222 20208 30198 40203 333 10267 29090 55044 58000;
0201834980999992005082812004-17733-039250FM-12+000399999V0203601N002610450019N0020001N1+02281+02091102061ADDAA124004191AY161061AY221061GF107991041051008001011001KA1240N+02001MA1999999102011MD1999999+0011MW1211REMSYN088AAXX  28124 83498 21595 73605 10228 20209 30201 40206 72162 84510 333 20200 58001 60044;
0137834980999992005082818004-17733-039250FM-12+000399999V0203601N003110450019N0020001N1+02601+02171101741ADDGF105991021011008001041001MA1999999101691MD1999999-0061REMSYN070AAXX  28184 83498 32595 53606 10260 20217 30169 40174 82140 333 59006;
0168834980999992005082900004-17733-039250FM-12+000399999V0200501N001012200019N0020001N1+02101+01951101751ADDGF101991011011008001001001KA1240M+02601MA1999999101701MD1999999-0281REMSYN088AAXX  29004 83498 32595 10502 10210 20195 30170 40175 81100 333 10260 29087 55039 59028;
0156834980999992005082912004-17733-039250FM-12+000399999V0203601N003612200019N0020001N1+02531+02271101831ADDGF102991021011008001001001KA1240N+01751MA1999999101781MD1999999-0231REMSYN076AAXX  29124 83498 32595 23607 10253 20227 30178 40183 82100 333 20175 59023;
0137834980999992005082918004-17733-039250FM-12+000399999V0200501N005112200019N0020001N1+02621+02231101351ADDGF104991041021008001001001MA1999999101301MD1999999-0391REMSYN070AAXX  29184 83498 32595 40510 10262 20223 30130 40135 84200 333 59039;
0168834980999992005083000004-17733-039250FM-12+000399999V0200501N003612200019N0020001N1+02381+02241101701ADDGF102991021021008001001001KA1240M+02791MA1999999101651MD1999999-0051REMSYN088AAXX  30004 83498 32595 20507 10238 20224 30165 40170 82200 333 10279 29087 55076 59005;
0201834980999992005083012004-17733-039250FM-12+000399999V0203601N003110450019N0020001N1+02381+02171101851ADDAA124001091AY161061AY221061GF108991041061008001011999KA1240N+02201MA1999999101801MD1999999+0021MW1601REMSYN088AAXX  30124 83498 21595 83606 10238 20217 30180 40185 76062 8461/ 333 20220 58002 60014;
0182834980999992005083018004-17733-039250FM-12+000399999V0203601N004110450019N0020001N1+02641+02181101481ADDAA106000591AY161061AY261061GF107991031021008001051001MA1999999101431MD1999999+0131MW1211REMSYN082AAXX  30184 83498 21595 73608 10264 20218 30143 40148 72166 83250 333 58013 69961;
0168834980999992005083100004-17733-039250FM-12+000399999V0203601N003112200019N0020001N1+02401+02111101751ADDGF101991011011008001001001KA1240M+02701MA1999999101701MD1999999+0051REMSYN088AAXX  31004 83498 32595 13606 10240 20211 30170 40175 81100 333 10270 29084 55000 58005;
0173834980999992005083112004-17733-039250FM-12+000399999V0200501N003110450019N0020001N1+02581+02271101901ADDAA124000591GF106991041051008001041001KA1240N+02171MA1999999101851MD1999999+0051REMSYN082AAXX  31124 83498 22595 60506 10258 20227 30185 40190 84540 333 20217 58005 69964;
0182834980999992005083118004-17733-039250FM-12+000399999V0200501N004610450019N0020001N1+02611+02251101571ADDAA106002091AY121061AY211061GF106991041051008001041001MA1999999101521MD1999999+0091MW1031REMSYN082AAXX  31184 83498 21595 60509 10261 20225 30152 40157 70321 84540 333 58009 60021;
0170834980999992005090100004-17733-039250FM-12+000399999V0200501N001512200019N0020001N1+02261+02091101731ADDGA1011+000151011GF101991999999008001999999KA1240M+02651MA1999999101681REMSYN088AAXX  01004 83498 32595 10503 10226 20209 30168 40173 333 81100 10265 29089 55003 59002;
0173834980999992005090112004-17733-039250FM-12+000399999V0200501N003110450019N0020001N1+02501+02211101931ADDAA124002091GF106991031051008001031001KA1240N+01901MA1999999101881MD1999999+0031REMSYN082AAXX  01124 83498 22595 60506 10250 20221 30188 40193 83530 333 20190 58003 60024;
0137834980999992005090118004-17733-039250FM-12+000399999V0200901N004112200019N0020001N1+02681+02261101571ADDGF104991021011008001031001MA1999999101521MD1999999+0001REMSYN070AAXX  01184 83498 32595 40908 10268 20226 30152 40157 82130 333 58000;
0178834980999992005090200004-17733-039250FM-12+000399999V0200901N001512200019N0020001N1+02141+01991101751ADDGA1001+999999999GF100991001001999999001001KA1240M+02751MA1999999101701MD1999999+0021REMSYN082AAXX  02004 83498 32995 00903 10214 20199 30170 40175 333 10275 29086 55084 58002;
0156834980999992005090212004-17733-039250FM-12+000399999V0200501N001510450019N0020001N1+02441+02211101921ADDGF106991041051008001041001KA1240N+01851MA1999999101871MD1999999-0011REMSYN076AAXX  02124 83498 32595 60503 10244 20221 30187 40192 84540 333 20185 59001;
0137834980999992005090218004-17733-039250FM-12+000399999V0200501N003112200019N0020001N1+02671+02181101611ADDGF102991021011008001001001MA1999999101561MD1999999+0041REMSYN070AAXX  02184 83498 32595 20506 10267 20218 30156 40161 82100 333 58004;
0178834980999992005090300004-17733-039250FM-12+000399999V0200501N001012200019N0020001N1+02181+02011101801ADDGA1001+999999999GF100991001001999999001001KA1240M+02751MA1999999101751MD1999999+0051REMSYN082AAXX  03004 83498 32995 00502 10218 20201 30175 40180 333 10275 29086 55046 58005;
0156834980999992005090312004-17733-039250FM-12+000399999V0200501N003110450019N0020001N1+02381+02131101981ADDGF106991041051008001011001KA1240N+01881MA1999999101931MD1999999+0061REMSYN076AAXX  03124 83498 32595 60506 10238 20213 30193 40198 84510 333 20188 58006;
0137834980999992005090318004-17733-039250FM-12+000399999V0200501N002610450019N0020001N1+02681+02161101691ADDGF105991031011008001031001MA1999999101641MD1999999+0081REMSYN070AAXX  03184 83498 32595 50505 10268 20216 30164 40169 83130 333 58008;
0156834980999992005090412004-17733-039250FM-12+000399999V0200901N003612200019N0020001N1+02571+02191102071ADDGF103991031021008001001001KA1240N+02021MA1999999102021MD1999999+0091REMSYN076AAXX  04124 83498 32595 30907 10257 20219 30202 40207 83200 333 20202 58009;
0137834980999992005090418004-17733-039250FM-12+000399999V0200901N003112200019N0020001N1+02511+02111101741ADDGF104991031051008001041001MA1999999101691MD1999999+0051REMSYN070AAXX  04184 83498 32595 40906 10251 20211 30169 40174 83540 333 58005;
0201834980999992005090512004-17733-039250FM-12+000399999V0203601N002110450019N0020001N1+02381+02171101931ADDAA124007991AY161061AY261061GF108991041061008001011999KA1240N+02001MA1999999101881MD1999999-0141MW1211REMSYN088AAXX  05124 83498 21595 83604 10238 20217 30188 40193 72166 8461/ 333 20200 59014 60084;
0137834980999992005090518004-17733-039250FM-12+000399999V0200501N002610450019N0020001N1+02521+02231101681ADDGF106991041051008001011001MA1999999101631MD1999999-0061REMSYN070AAXX  05184 83498 32595 60505 10252 20223 30163 40168 84510 333 59006;
0168834980999992005090600004-17733-039250FM-12+000399999V0200501N002112200019N0020001N1+02381+02131101811ADDGF101991011011008001001001KA1240M+02671MA1999999101761MD1999999-0091REMSYN088AAXX  06004 83498 32595 10504 10238 20213 30176 40181 81100 333 10267 29086 55006 59009;
0156834980999992005090612004-17733-039250FM-12+000399999V0203601N004610450019N0020001N1+02531+02111101811ADDGF105991041051008001041001KA1240N+01991MA1999999101761MD1999999-0121REMSYN076AAXX  06124 83498 32595 53609 10253 20211 30176 40181 84540 333 20199 59012;
0137834980999992005090618004-17733-039250FM-12+000399999V0200501N005112200019N0020001N1+02671+02291101541ADDGF103991011011008001001011MA1999999101491MD1999999-0141REMSYN070AAXX  06184 83498 32595 30510 10267 20229 30149 40154 81101 333 59014;
0178834980999992005090700004-17733-039250FM-12+000399999V0200501N003112200019N0020001N1+02361+02091101731ADDGA1001+999999999GF100991001001999999001001KA1240M+02811MA1999999101681MD1999999-0081REMSYN082AAXX  07004 83498 32995 00506 10236 20209 30168 40173 333 10281 29082 55088 59008;
0156834980999992005090712004-17733-039250FM-12+000399999V0203601N003110450019N0020001N1+02581+02231101941ADDGF105991031021008001031001KA1240N+01971MA1999999101891MD1999999+0131REMSYN076AAXX  07124 83498 32595 53606 10258 20223 30189 40194 83230 333 20197 58013;
0137834980999992005090718004-17733-039250FM-12+000399999V0200501N003610450019N0020001N1+02661+02161101731ADDGF106991021011008001031021MA1999999101681MD1999999-0191REMSYN070AAXX  07184 83498 32595 60507 10266 20216 30168 40173 82132 333 59019;
0168834980999992005090800004-17733-039250FM-12+000399999V0200501N001512200019N0020001N1+02341+02151102001ADDGF102991021011008001001001KA1240M+02831MA1999999101951MD1999999+0271REMSYN088AAXX  08004 83498 32595 20503 10234 20215 30195 40200 82100 333 10283 29083 55045 58027;
0156834980999992005090812004-17733-039250FM-12+000399999V0200901N001510450019N0020001N1+02501+02271102151ADDGF107991031051008001011081KA1240N+02071MA1999999102101MD1999999+0211REMSYN076AAXX  08124 83498 32595 70903 10250 20227 30210 40215 83518 333 20207 58021;
0137834980999992005090818004-17733-039250FM-12+000399999V0200901N002111050019N0020001N1+02651+02271102011ADDGF108991031051008001001081MA1999999101961MD1999999+0281REMSYN070AAXX  08184 83498 32595 80904 10265 20227 30196 40201 83508 333 58028;
0168834980999992005090900004-17733-039250FM-12+000399999V0200901N000512200019N0020001N1+02181+02101102261ADDGF102991021021008001001001KA1240M+02761MA1999999102211MD1999999+0261REMSYN088AAXX  09004 83498 32595 20901 10218 20210 30221 40226 82200 333 10276 29089 55002 58026;
0156834980999992005090912004-17733-039250FM-12+000399999V0202301N001512200019N0020001N1+02441+02131102381ADDGF104991021041008001041001KA1240N+02021MA1999999102331MD1999999+0231REMSYN076AAXX  09124 83498 32595 42303 10244 20213 30233 40238 82440 333 20202 58023;
0137834980999992005090918004-17733-039250FM-12+000399999V0200901N004110450019N0020001N1+02461+02131102141ADDGF107991041051008001041001MA1999999102091MD1999999+0131REMSYN070AAXX  09184 83498 32595 70908 10246 20213 30209 40214 84540 333 58013;
0213834980999992005091000004-17733-039250FM-12+000399999V0200901N004110075019N0020001N1+02351+01981102361ADDAA106003091AY121061AY211061GF107991051051008001011001KA1240M+02731MA1999999102311MD1999999+0101MW1031REMSYN100AAXX  10004 83498 21595 70908 10235 20198 30231 40236 70321 85510 333 10273 29081 55051 58010 60031;
0173834980999992005091012004-17733-039250FM-12+000399999V0201401N004110450019N0020001N1+02501+02211102401ADDAA124003091GF108991041051008001011999KA1240N+02161MA1999999102351MD1999999+0021REMSYN082AAXX  10124 83498 22595 81408 10250 20221 30235 40240 8451/ 333 20216 58002 60034;
0137834980999992005091018004-17733-039250FM-12+000399999V0200901N002610450019N0020001N1+02561+02291102131ADDGF108991031051008001011999MA1999999102081MD1999999-0011REMSYN070AAXX  10184 83498 32595 80905 10256 20229 30208 40213 8351/ 333 59001;
0156834980999992005091112004-17733-039250FM-12+000399999V0200901N002612200019N0020001N1+02551+01911102301ADDGF103991031021008001001001KA1240N+02081MA1999999102251MD1999999-0101REMSYN076AAXX  11124 83498 32595 30905 10255 20191 30225 40230 83200 333 20208 59010;
0137834980999992005091118004-17733-039250FM-12+000399999V0200901N003110450019N0020001N1+02531+01891101961ADDGF106991021021008001021001MA1999999101911MD1999999-0171REMSYN070AAXX  11184 83498 32595 60906 10253 20189 30191 40196 82220 333 59017;
0156834980999992005091212004-17733-039250FM-12+000399999V0200501N004610450019N0020001N1+02651+02091102201ADDGF105991041051008001041001KA1240N+02051MA1999999102151MD1999999-0101REMSYN076AAXX  12124 83498 32595 50509 10265 20209 30215 40220 84540 333 20205 59010;
0137834980999992005091218004-17733-039250FM-12+000399999V0200501N005112200019N0020001N1+02631+02101101871ADDGF105991031021008001001081MA1999999101821MD1999999-0091REMSYN070AAXX  12184 83498 32595 50510 10263 20210 30182 40187 83208 333 59009;
0178834980999992005091300004-17733-039250FM-12+000399999V0200501N001512200019N0020001N1+02101+01861102021ADDGA1001+999999999GF100991001001999999001001KA1240M+02771MA1999999101971MD1999999-0141REMSYN082AAXX  13004 83498 32995 00503 10210 20186 30197 40202 333 10277 29079 55075 59014;
0156834980999992005091312004-17733-039250FM-12+000399999V0202701N001512200019N0020001N1+02481+02091102071ADDGF104991041011008001001001KA1240N+01801MA1999999102021MD1999999-0131REMSYN076AAXX  13124 83498 32595 42703 10248 20209 30202 40207 84100 333 20180 59013;
0156834980999992005091318004-17733-039250FM-12+000399999V0200901N003112200019N0020001N1+02721+02241101172ADDGF102991021011008001001001MA1999999101691MD1999999-0131REMSYN070AAXX  13184 83498 32595 20906 10272 20224 30169 40117 82100 333 59013;EQDQ01+101173APOSLP
0178834980999992005091400004-17733-039250FM-12+000399999V0200901N001512200019N0020001N1+02201+01971101991ADDGA1001+999999999GF100991001001999999001001KA1240M+02751MA1999999101941MD1999999-0031REMSYN082AAXX  14004 83498 32995 00903 10220 20197 30194 40199 333 10275 29082 55083 59003;
0156834980999992005091412004-17733-039250FM-12+000399999V0200501N001011050019N0020001N1+02461+02011102151ADDGF105991021021008001031081KA1240N+01871MA1999999102101MD1999999+0081REMSYN076AAXX  14124 83498 32595 50502 10246 20201 30210 40215 82238 333 20187 58008;
0137834980999992005091418004-17733-039250FM-12+000399999V0200901N002110120019N0020001N1+02571+01991101841ADDGF107991071001012501021001MA1999999101791MD1999999+0101REMSYN070AAXX  14184 83498 32695 70904 10257 20199 30179 40184 87020 333 58010;
0168834980999992005091500004-17733-039250FM-12+000399999V0201401N001510150019N0020001N1+02471+02031102201ADDGF106991061001017501031001KA1240M+02771MA1999999102151MD1999999+0211REMSYN088AAXX  15004 83498 32795 61403 10247 20203 30215 40220 86030 333 10277 29076 55036 58021;
0201834980999992005091512004-17733-039250FM-12+000399999V0203201N001010450019N0020001N1+02481+02291102341ADDAA124000591AY161061AY261061GF105991031051008001041001KA1240N+02021MA1999999102291MD1999999+0191MW1211REMSYN088AAXX  15124 83498 21595 53202 10248 20229 30229 40234 72166 83540 333 20202 58019 69964;
0137834980999992005091518004-17733-039250FM-12+000399999V0200501N003612200019N0020001N1+02651+02211101921ADDGF103991021011008001001011MA1999999101871MD1999999+0081REMSYN070AAXX  15184 83498 32595 30507 10265 20221 30187 40192 82101 333 58008;
0178834980999992005091600004-17733-039250FM-12+000399999V0200501N001012200019N0020001N1+02121+01861102141ADDGA1001+999999999GF100991001001999999001001KA1240M+02731MA1999999102091MD1999999-0061REMSYN082AAXX  16004 83498 32995 00502 10212 20186 30209 40214 333 10273 29083 55066 59006;
0156834980999992005091612004-17733-039250FM-12+000399999V0200501N003112200019N0020001N1+02621+02291102231ADDGF104991041021008001001001KA1240N+01851MA1999999102181MD1999999-0111REMSYN076AAXX  16124 83498 32595 40506 10262 20229 30218 40223 84200 333 20185 59011;
0137834980999992005091618004-17733-039250FM-12+000399999V0200501N003612200019N0020001N1+02701+02281101791ADDGF103991031011008001001001MA1999999101741MD1999999-0131REMSYN070AAXX  16184 83498 32595 30507 10270 20228 30174 40179 83100 333 59013;
0178834980999992005091700004-17733-039250FM-12+000399999V0200501N001512200019N0020001N1+02221+02051101941ADDGA1001+999999999GF100991001001999999001001KA1240M+02751MA1999999101891MD1999999-0201REMSYN082AAXX  17004 83498 32995 00503 10222 20205 30189 40194 333 10275 29085 55058 59020;
0156834980999992005091712004-17733-039250FM-12+000399999V0203601N002110075019N0020001N1+02531+02131101901ADDGF106991061021008001001001KA1240N+01971MA1999999101851MD1999999-0331REMSYN076AAXX  17124 83498 32595 63604 10253 20213 30185 40190 86200 333 20197 59033;
0137834980999992005091718004-17733-039250FM-12+000399999V0200901N002612200019N0020001N1+02631+02271101611ADDGF103991031021008001001001MA1999999101561MD1999999-0181REMSYN070AAXX  17184 83498 32595 30905 10263 20227 30156 40161 83200 333 59018;
0156834980999992005091812004-17733-039250FM-12+000399999V0201401N004610450019N0020001N1+02401+02301102071ADDGF107991041051008001051001KA1240N+02351MA1999999102021MD1999999+0171REMSYN076AAXX  18124 83498 32595 71409 10240 20230 30202 40207 84550 333 20235 58017;
0137834980999992005091818004-17733-039250FM-12+000399999V0201401N004110450019N0020001N1+02521+02111101761ADDGF107991041051008001021001MA1999999101711MD1999999+0151REMSYN070AAXX  18184 83498 32595 71408 10252 20211 30171 40176 84520 333 58015;
0156834980999992005091912004-17733-039250FM-12+000399999V0201401N002610450019N0020001N1+02461+02091102001ADDGF108991041051008001011999KA1240N+02151MA1999999101191MD1999999-0071REMSYN076AAXX  19124 83498 32595 81405 10246 20209 30119 40200 8451/ 333 20215 59007;
0137834980999992005091918004-17733-039250FM-12+000399999V0200901N002110450019N0020001N1+02561+02081101761ADDGF108991031061008001011999MA1999999101711MD1999999+0001REMSYN070AAXX  19184 83498 32595 80904 10256 20208 30171 40176 8361/ 333 58000;
0168834980999992005092000004-17733-039250FM-12+000399999V0200501N001510075019N0020001N1+02361+02151101891ADDGF108991051061008001011999KA1240M+02651MA1999999101841MD1999999-0141REMSYN088AAXX  20004 83498 32595 80503 10236 20215 30184 40189 8561/ 333 10265 29082 55009 59014;
0156834980999992005092012004-17733-039250FM-12+000399999V0203601N003110450019N0020001N1+02661+02141101691ADDGF107991031051008001021001KA1240N+02301MA1999999101641MD1999999-0311REMSYN076AAXX  20124 83498 32595 73606 10266 20214 30164 40169 83520 333 20230 59031;
0137834980999992005092018004-17733-039250FM-12+000399999V0200501N005111050019N0020001N1+02631+02211101281ADDGF107991041021008001001081MA1999999101231MD1999999-0481REMSYN070AAXX  20184 83498 32595 70510 10263 20221 30123 40128 84208 333 59048;
0168834980999992005092100004-17733-039250FM-12+000399999V0200501N004610075019N0020001N1+02461+02271101351ADDGF108991051051008001021999KA1240M+02711MA1999999101301MD1999999-0541REMSYN088AAXX  21004 83498 32595 80509 10246 20227 30130 40135 8552/ 333 10271 29082 55002 59054;
0156834980999992005092112004-17733-039250FM-12+000399999V0202701N001010075019N0020001N1+02631+02331101401ADDGF108991051051008001021999KA1240N+02221MA1999999101351MD1999999-0291REMSYN076AAXX  21124 83498 32595 82702 10263 20233 30135 40140 8552/ 333 20222 59029;
0137834980999992005092118004-17733-039250FM-12+000399999V0201801N005110450019N0020001N1+02371+02091101181ADDGF108991041051008001021999MA1999999101131MD1999999-0101REMSYN070AAXX  21184 83498 32595 81810 10237 20209 30113 40118 8452/ 333 59010;
0168834980999992005092200004-17733-039250FM-12+000399999V0201801N003110075019N0020001N1+02391+02111101511ADDGF108991051051008001021999KA1240M+02711MA1999999101461MD1999999+0161REMSYN088AAXX  22004 83498 32595 81806 10239 20211 30146 40151 8552/ 333 10271 29085 55004 58016;
0156834980999992005092212004-17733-039250FM-12+000399999V0201801N004110450019N0020001N1+02521+02211101561ADDGF106991041021008001031001KA1240N+02041MA1999999101511MD1999999+0161REMSYN076AAXX  22124 83498 32595 61808 10252 20221 30151 40156 84230 333 20204 58016;
0137834980999992005092218004-17733-039250FM-12+000399999V0201801N005110450019N0020001N1+02581+02211101371ADDGF107991031021008001031011MA1999999101321MD1999999+0191REMSYN070AAXX  22184 83498 32595 71810 10258 20221 30132 40137 83231 333 58019;
0168834980999992005092300004-17733-039250FM-12+000399999V0201801N003112200019N0020001N1+02401+02131101651ADDGF102991021011008001001001KA1240M+02621MA1999999101601MD1999999+0141REMSYN088AAXX  23004 83498 32595 21806 10240 20213 30160 40165 82100 333 10262 29083 55015 58014;
0192834980999992005092312004-17733-039250FM-12+000399999V0202301N001010450019N0020001N1+02501+02131101671ADDAA124000091GF106991041051008001041001KA1240N+01971MA1999999101621MD1999999+0111REMSYN082AAXX  23124 83498 22595 62302 10250 20213 30162 40167 84540 333 20197 58011 69924;EQDQ01  00002PRCP24
0137834980999992005092318004-17733-039250FM-12+000399999V0201401N002110450019N0020001N1+02561+02211101431ADDGF107991041051008001011001MA1999999101381MD1999999+0061REMSYN070AAXX  23184 83498 32595 71404 10256 20221 30138 40143 84510 333 58006;
0168834980999992005092400004-17733-039250FM-12+000399999V0209999C000010450019N0020001N1+02261+02091101581ADDGF105991031061008001011001KA1240M+02651MA1999999101531MD1999999-0071REMSYN088AAXX  24004 83498 32595 50000 10226 20209 30153 40158 83610 333 10265 29085 55011 59007;
0156834980999992005092412004-17733-039250FM-12+000399999V0209999C000010450019N0020001N1+02461+02171101591ADDGF107991031011008001011081KA1240N+02021MA1999999101541MD1999999-0081REMSYN076AAXX  24124 83498 32595 70000 10246 20217 30154 40159 83118 333 20202 59008;
0137834980999992005092418004-17733-039250FM-12+000399999V0200901N003110450019N0020001N1+02711+02221101221ADDGF106991021051008001011081MA1999999101171MD1999999-0211REMSYN070AAXX  24184 83498 32595 60906 10271 20222 30117 40122 82518 333 59021;
0178834980999992005092500004-17733-039250FM-12+000399999V0200901N001512200019N0020001N1+02421+02231101541ADDGA1001+999999999GF100991001001999999001001KA1240M+02791MA1999999101491MD1999999-0041REMSYN082AAXX  25004 83498 32995 00903 10242 20223 30149 40154 333 10279 29084 55015 59004;
0156834980999992005092512004-17733-039250FM-12+000399999V0203601N003110450019N0020001N1+02641+02141101681ADDGF108991041051008001051999KA1240N+02241MA1999999101631MD1999999+0091REMSYN076AAXX  25124 83498 32595 83606 10264 20214 30163 40168 8455/ 333 20224 58009;
0137834980999992005092518004-17733-039250FM-12+000399999V0200501N004610450019N0020001N1+02701+02171101331ADDGF107991031021008001051011MA1999999101281MD1999999+0111REMSYN070AAXX  25184 83498 32595 70509 10270 20217 30128 40133 83251 333 58011;
0156834980999992005092612004-17733-039250FM-12+000399999V0200501N005110450019N0020001N1+02751+02261101801ADDGF106991021021008001041011KA1240N+02251MA1999999101751MD1999999+0121REMSYN076AAXX  26124 83498 32595 60510 10275 20226 30175 40180 82241 333 20225 58012;
0137834980999992005092618004-17733-039250FM-12+000399999V0200501N005112200019N0020001N1+02771+02361101521ADDGF104991021011008001001011MA1999999101471MD1999999+0191REMSYN070AAXX  26184 83498 32595 40510 10277 20236 30147 40152 82101 333 58019;
0168834980999992005092700004-17733-039250FM-12+000399999V0200501N003112200019N0020001N1+02461+02151101731ADDGF104991021011008001001011KA1240M+02891MA1999999101681MD1999999+0091REMSYN088AAXX  27004 83498 32595 40506 10246 20215 30168 40173 82101 333 10289 29080 55072 58009;
0201834980999992005092712004-17733-039250FM-12+000399999V0203201N003110450019N0020001N1+02501+02191102001ADDAA124003091AY161061AY221061GF108991041061008001021999KA1240N+02301MA1999999101951MD1999999+0201MW1921REMSYN088AAXX  27124 83498 21595 83206 10250 20219 30195 40200 79262 8462/ 333 20230 58020 60034;
0182834980999992005092718004-17733-039250FM-12+000399999V0201801N004610450019N0020001N1+02301+02161101871ADDAA106043991AY161061AY261061GF108991041071008001021999MA1999999101821MD1999999+0351MW1921REMSYN082AAXX  27184 83498 21595 81809 10230 20216 30182 40187 79266 8472/ 333 58035 60441;
0213834980999992005092800004-17733-039250FM-12+000399999V0201801N005110450019N0020001N1+02361+02111102081ADDAA106005191AY161061AY261061GF108991041071008001021999KA1240M+02531MA1999999102031MD1999999+0351MW1211REMSYN100AAXX  28004 83498 21595 81810 10236 20211 30203 40208 72166 8472/ 333 10253 29087 55000 58035 60051;
0201834980999992005092812004-17733-039250FM-12+000399999V0201801N006710075019N0020001N1+02241+02161102071ADDAA124055191AY161061AY261061GF108991051071008001021999KA1240N+02121MA1999999102021MD1999999+0071MW1211REMSYN088AAXX  28124 83498 21595 81813 10224 20216 30202 40207 72166 8572/ 333 20212 58007 60554;
0182834980999992005092818004-17733-039250FM-12+000399999V0201801N007210450019N0020001N1+02241+02161101771ADDAA106004191AY161061AY261061GF108991031071008001021999MA1999999101721MD1999999-0101MW1211REMSYN082AAXX  28184 83498 21595 81814 10224 20216 30172 40177 72166 8372/ 333 59010 60041;
0213834980999992005092900004-17733-039250FM-12+000399999V0201801N006210450019N0020001N1+02181+02111102041ADDAA106005191AY161061AY261061GF108991031071008001021999KA1240M+02371MA1999999101991MD1999999-0041MW1211REMSYN100AAXX  29004 83498 21595 81812 10218 20211 30199 40204 72166 8372/ 333 10237 29096 55000 59004 60051;
0201834980999992005092912004-17733-039250FM-12+000399999V0201801N004110075019N0020001N1+02301+02131101981ADDAA124016091AY161061AY261061GF108991051071008001021999KA1240N+02061MA1999999101931MD1999999-0091MW1921REMSYN088AAXX  29124 83498 21595 81808 10230 20213 30193 40198 79266 8572/ 333 20206 59009 60164;
0182834980999992005092918004-17733-039250FM-12+000399999V0201801N005110450019N0020001N1+02421+02131101711ADDAA106002091AY161061AY261061GF108991041071008001021999MA1999999101661MD1999999-0061MW1921REMSYN082AAXX  29184 83498 21595 81810 10242 20213 30166 40171 79266 8472/ 333 59006 60021;
0213834980999992005093000004-17733-039250FM-12+000399999V0201801N003610075019N0020001N1+02201+02031101931ADDAA106010991AY161061AY261061GF108991081071008001999999KA1240M+02501MA1999999101881MD1999999-0111MW1921REMSYN100AAXX  30004 83498 21595 81807 10220 20203 30188 40193 79266 887// 333 10250 29088 55000 59011 60111;
0201834980999992005093012004-17733-039250FM-12+000399999V0201401N005110450019N0020001N1+02461+02131102031ADDAA124020191AY121061AY211061GF107991031071008001011001KA1240N+02071MA1999999101981MD1999999+0051MW1031REMSYN088AAXX  30124 83498 21595 71410 10246 20213 30198 40203 70321 83710 333 20207 58005 60204;
0182834980999992005093018004-17733-039250FM-12+000399999V0201401N004110450019N0020001N1+02441+02031101721ADDAA106000591AY121061AY211061GF105991041051008001041001MA1999999101671MD1999999+0011MW1031REMSYN082AAXX  30184 83498 21595 51408 10244 20203 30167 40172 70321 84540 333 58001 69961;
0178834980999992005100100004-17733-039250FM-12+000399999V0201401N002612200019N0020001N1+02301+02071101971ADDGA1001+999999999GF100991001001999999001001KA1240M+02551MA1999999101921MD1999999+0041REMSYN082AAXX  01004 83498 32995 01405 10230 20207 30192 40197 333 10255 29084 55050 58004;
0173834980999992005100112004-17733-039250FM-12+000399999V0202701N001512200019N0020001N1+02461+02091101971ADDAA124000591GF104991021011008001001011KA1240N+02201MA1999999101921MD1999999-0061REMSYN082AAXX  01124 83498 22595 42703 10246 20209 30192 40197 82101 333 20220 59006 69964;
0137834980999992005100118004-17733-039250FM-12+000399999V0200901N003112200019N0020001N1+02581+02081101611ADDGF103991031011008001001001MA1999999101561MD1999999-0111REMSYN070AAXX  01184 83498 32595 30906 10258 20208 30156 40161 83100 333 59011;
0168834980999992005100200004-17733-039250FM-12+000399999V0200901N001512200019N0020001N1+02261+02121101881ADDGF102991011011008001001011KA1240M+02641MA1999999101831MD1999999-0091REMSYN088AAXX  02004 83498 32595 20903 10226 20212 30183 40188 81101 333 10264 29084 55100 59009;
0156834980999992005100212004-17733-039250FM-12+000399999V0202301N001010450019N0020001N1+02481+02051101861ADDGF105991041021008001041001KA1240N+01801MA1999999101811MD1999999-0111REMSYN076AAXX  02124 83498 32595 52302 10248 20205 30181 40186 84240 333 20180 59011;
0137834980999992005100218004-17733-039250FM-12+000399999V0201401N002612200019N0020001N1+02601+01991101501ADDGF103991011011008001001011MA1999999101451MD1999999-0111REMSYN070AAXX  02184 83498 32595 31405 10260 20199 30145 40150 81101 333 59011;
0201834980999992005100312004-17733-039250FM-12+000399999V0202701N001510450019N0020001N1+02301+01961101891ADDAA124002091AY161061AY221061GF106991031021008001031011KA1240N+01851MA1999999101841MD1999999+0031MW1211REMSYN088AAXX  03124 83498 21595 62703 10230 20196 30184 40189 72162 83231 333 20185 58003 60024;
0137834980999992005100318004-17733-039250FM-12+000399999V0201401N001512200019N0020001N1+02641+01981101571ADDGF104991021011008001001011MA1999999101521MD1999999+0071REMSYN070AAXX  03184 83498 32595 41403 10264 20198 30152 40157 82101 333 58007;
0168834980999992005100400004-17733-039250FM-12+000399999V0200901N001012200019N0020001N1+02361+02131101731ADDGF101991011011008001001001KA1240M+02701MA1999999101681MD1999999-0051REMSYN088AAXX  04004 83498 32595 10902 10236 20213 30168 40173 81100 333 10270 29080 55061 59005;
0156834980999992005100412004-17733-039250FM-12+000399999V0201801N001010075019N0020001N1+02501+02111101771ADDGF105991051021008001001001KA1240N+01951MA1999999101721MD1999999-0121REMSYN076AAXX  04124 83498 32595 51802 10250 20211 30172 40177 85200 333 20195 59012;
0137834980999992005100418004-17733-039250FM-12+000399999V0200901N004112200019N0020001N1+02661+02161101501ADDGF103991031011008001001001MA1999999101451MD1999999-0071REMSYN070AAXX  04184 83498 32595 30908 10266 20216 30145 40150 83100 333 59007;
0213834980999992005100500004-17733-039250FM-12+000399999V0200501N002610450019N0020001N1+02441+02211101761ADDAA106001091AY161061AY221061GF106991041051008001011001KA1240M+02801MA1999999101711MD1999999+0031MW1211REMSYN100AAXX  05004 83498 21595 60505 10244 20221 30171 40176 72162 84510 333 10280 29082 55063 58003 60011;
0201834980999992005100512004-17733-039250FM-12+000399999V0200501N005110450019N0020001N1+02761+02341101801ADDAA124004191AY121061AY211061GF105991041021008001041001KA1240N+02261MA1999999101751MD1999999+0031MW1031REMSYN088AAXX  05124 83498 21595 50510 10276 20234 30175 40180 70321 84240 333 20226 58003 60044;
0137834980999992005100518004-17733-039250FM-12+000399999V0200501N005110450019N0020001N1+02711+02331101571ADDGF105991041021008001041001MA1999999101521MD1999999+0071REMSYN070AAXX  05184 83498 32595 50510 10271 20233 30152 40157 84240 333 58007;
0178834980999992005100600004-17733-039250FM-12+000399999V0200501N003612200019N0020001N1+02461+02301101821ADDGA1001+999999999GF100991001001999999001001KA1240M+02851MA1999999101771MD1999999+0061REMSYN082AAXX  06004 83498 32995 00507 10246 20230 30177 40182 333 10285 29085 55071 58006;
0156834980999992005100612004-17733-039250FM-12+000399999V0200501N004610450019N0020001N1+02751+02301102021ADDGF106991031021008001041011KA1240N+02271MA1999999101971MD1999999+0221REMSYN076AAXX  06124 83498 32595 60509 10275 20230 30197 40202 83241 333 20227 58022;
0137834980999992005100618004-17733-039250FM-12+000399999V0200501N005712200019N0020001N1+02771+02241101771ADDGF103991021011008001001011MA1999999101721MD1999999+0201REMSYN070AAXX  06184 83498 32595 30511 10277 20224 30172 40177 82101 333 58020;
0178834980999992005100700004-17733-039250FM-12+000399999V0200501N002112200019N0020001N1+02441+02191101991ADDGA1001+999999999GF100991001001999999001001KA1240M+02891MA1999999101941MD1999999+0171REMSYN082AAXX  07004 83498 32995 00504 10244 20219 30194 40199 333 10289 29081 55073 58017;
0156834980999992005100712004-17733-039250FM-12+000399999V0200501N001010450019N0020001N1+02641+02161102201ADDGF106991041051008001011001KA1240N+02101MA1999999102151MD1999999+0181REMSYN076AAXX  07124 83498 32595 60502 10264 20216 30215 40220 84510 333 20210 58018;
0137834980999992005100718004-17733-039250FM-12+000399999V0200501N002612200019N0020001N1+02781+02271102001ADDGF103991031011008001001001MA1999999101951MD1999999+0231REMSYN070AAXX  07184 83498 32595 30505 10278 20227 30195 40200 83100 333 58023;
0168834980999992005100800004-17733-039250FM-12+000399999V0200501N002112200019N0020001N1+02401+02111102191ADDGF103991031021008001001001KA1240M+02891MA1999999102141MD1999999+0201REMSYN088AAXX  08004 83498 32595 30504 10240 20211 30214 40219 83200 333 10289 29079 55082 58020;
0201834980999992005100812004-17733-039250FM-12+000399999V0200901N004110450019N0020001N1+02651+02181102231ADDAA124001091AY121061AY211061GF106991041051008001041001KA1240N+02221MA1999999102181MD1999999+0021MW1031REMSYN088AAXX  08124 83498 21595 60908 10265 20218 30218 40223 70321 84540 333 20222 58002 60014;
0182834980999992005100818004-17733-039250FM-12+000399999V0200901N004612200019N0020001N1+02591+02171101901ADDAA106999999AY161061AY261061GF106991041021008001001011MA1999999101851MD1999999-0101MW1211REMSYN082AAXX  08184 83498 21595 60909 10259 20217 30185 40190 72166 84201 333 59010 69921;
0213834980999992005100900004-17733-039250FM-12+000399999V0200901N001010075019N0020001N1+02321+02091102061ADDAA106002091AY161061AY261061GF108991051051008001021999KA1240M+02731MA1999999102011MD1999999-0131MW1211REMSYN100AAXX  09004 83498 21595 80902 10232 20209 30201 40206 72166 8552/ 333 10273 29082 55043 59013 60021;
0173834980999992005100912004-17733-039250FM-12+000399999V0200501N001010075019N0020001N1+02631+02121102011ADDAA124002091GF105991051021008001001001KA1240N+01981MA1999999101961MD1999999-0221REMSYN082AAXX  09124 83498 22595 50502 10263 20212 30196 40201 85200 333 20198 59022 60024;
0137834980999992005100918004-17733-039250FM-12+000399999V0200901N003612200019N0020001N1+02751+02071101591ADDGF102991011021008001001011MA1999999101541MD1999999-0311REMSYN070AAXX  09184 83498 32595 20907 10275 20207 30154 40159 81201 333 59031;
0178834980999992005101000004-17733-039250FM-12+000399999V0200501N001512200019N0020001N1+02341+02201101831ADDGA1001+999999999GF100991001001999999001001KA1240M+02861MA1999999101781MD1999999-0231REMSYN082AAXX  10004 83498 32995 00503 10234 20220 30178 40183 333 10286 29082 55094 59023;
0156834980999992005101012004-17733-039250FM-12+000399999V0200501N003610075019N0020001N1+02621+02141101891ADDGF105991051021008001001001KA1240N+01971MA1999999101841MD1999999-0121REMSYN076AAXX  10124 83498 32595 50507 10262 20214 30184 40189 85200 333 20197 59012;
0137834980999992005101018004-17733-039250FM-12+000399999V0200501N004112200019N0020001N1+02761+02121101591ADDGF105991031011008001001011MA1999999101541MD1999999+0001REMSYN070AAXX  10184 83498 32595 50508 10276 20212 30154 40159 83101 333 58000;
0168834980999992005101100004-17733-039250FM-12+000399999V0200501N001512200019N0020001N1+02361+02071101851ADDGF102991021011008001001001KA1240M+02881MA1999999101801MD1999999+0021REMSYN088AAXX  11004 83498 32595 20503 10236 20207 30180 40185 82100 333 10288 29078 55095 58002;
0156834980999992005101112004-17733-039250FM-12+000399999V0200501N002612200019N0020001N1+02711+02151101841ADDGF104991041021008001001001KA1240N+02051MA1999999101791MD1999999-0051REMSYN076AAXX  11124 83498 32595 40505 10271 20215 30179 40184 84200 333 20205 59005;
0137834980999992005101118004-17733-039250FM-12+000399999V0200901N002612200019N0020001N1+02731+02151101491ADDGF103991031021008001001001MA1999999101441MD1999999-0101REMSYN070AAXX  11184 83498 32595 30905 10273 20215 30144 40149 83200 333 59010;
0168834980999992005101200004-17733-039250FM-12+000399999V0200501N001012200019N0020001N1+02341+02111101681ADDGF103991031021008001001001KA1240M+02871MA1999999101631MD1999999-0171REMSYN088AAXX  12004 83498 32595 30502 10234 20211 30163 40168 83200 333 10287 29079 55103 59017;
0201834980999992005101212004-17733-039250FM-12+000399999V0203201N002610075019N0020001N1+02461+02151101871ADDAA124006191AY161061AY221061GF106991051051008001021001KA1240N+02071MA1999999101821MD1999999+0031MW1211REMSYN088AAXX  12124 83498 21595 63205 10246 20215 30182 40187 72162 85520 333 20207 58003 60064;
0137834980999992005101218004-17733-039250FM-12+000399999V0200501N004112200019N0020001N1+02771+02231101421ADDGF101991011021008001001001MA1999999101371MD1999999-0071REMSYN070AAXX  12184 83498 32595 10508 10277 20223 30137 40142 81200 333 59007;
0168834980999992005101300004-17733-039250FM-12+000399999V0200501N001012200019N0020001N1+02301+02111101731ADDGF102991021011008001001001KA1240M+02841MA1999999101681MD1999999+0051REMSYN088AAXX  13004 83498 32595 20502 10230 20211 30168 40173 82100 333 10284 29084 55075 58005;
0201834980999992005101312004-17733-039250FM-12+000399999V0203201N003610075019N0020001N1+02361+02131101921ADDAA124015091AY161061AY221061GF108991051071008001021999KA1240N+02061MA1999999101181MD1999999+0051MW1921REMSYN088AAXX  13124 83498 21595 83207 10236 20213 30118 40192 79262 8572/ 333 20206 58005 60154;
0182834980999992005101318004-17733-039250FM-12+000399999V0203601N004110450019N0020001N1+02701+02131101471ADDAA106001091AY161061AY261061GF106991041021008001031001MA1999999101421MD1999999+0051MW1211REMSYN082AAXX  13184 83498 21595 63608 10270 20213 30142 40147 72166 84230 333 58005 60011;
0168834980999992005101400004-17733-039250FM-12+000399999V0203601N004112200019N0020001N1+02461+02131101701ADDGF101991011011008001001001KA1240M+02801MA1999999101651MD1999999-0031REMSYN088AAXX  14004 83498 32595 13608 10246 20213 30165 40170 81100 333 10280 29080 55037 59003;
0173834980999992005101412004-17733-039250FM-12+000399999V0203601N003612200019N0020001N1+02791+02271101821ADDAA124001091GF103991031021008001001001KA1240N+02081MA1999999101771MD1999999-0101REMSYN082AAXX  14124 83498 22595 33607 10279 20227 30177 40182 83200 333 20208 59010 60014;
0137834980999992005101418004-17733-039250FM-12+000399999V0203601N004112200019N0020001N1+02831+02291101391ADDGF102991021011008001001001MA1999999101341MD1999999-0081REMSYN070AAXX  14184 83498 32595 23608 10283 20229 30134 40139 82100 333 59008;
0168834980999992005101500004-17733-039250FM-12+000399999V0203601N004112200019N0020001N1+02481+02191101541ADDGF101991011011008001001001KA1240M+02911MA1999999101491MD1999999-0161REMSYN088AAXX  15004 83498 32595 13608 10248 20219 30149 40154 81100 333 10291 29079 55099 59016;
0156834980999992005101512004-17733-039250FM-12+000399999V0203601N004112200019N0020001N1+02761+02121101691ADDGF104991041021008001001001KA1240N+02101MA1999999101641MD1999999-0131REMSYN076AAXX  15124 83498 32595 43608 10276 20212 30164 40169 84200 333 20210 59013;
0137834980999992005101518004-17733-039250FM-12+000399999V0203601N005112200019N0020001N1+02841+02221101411ADDGF103991031011008001001001MA1999999101361MD1999999+0021REMSYN070AAXX  15184 83498 32595 33610 10284 20222 30136 40141 83100 333 58002;
0178834980999992005101600004-17733-039250FM-12+000399999V0203601N003112200019N0020001N1+02501+02211101681ADDGA1001+999999999GF100991001001999999001001KA1240M+02901MA1999999101631MD1999999+0141REMSYN082AAXX  16004 83498 32995 03606 10250 20221 30163 40168 333 10290 29076 55087 58014;
0156834980999992005101612004-17733-039250FM-12+000399999V0200501N001512200019N0020001N1+02731+02261101901ADDGF105991041021008001001011KA1240N+02071MA1999999101851MD1999999+0211REMSYN076AAXX  16124 83498 32595 50503 10273 20226 30185 40190 84201 333 20207 58021;
0156834980999992005101618004-17733-039250FM-12+000399999V0200501N003112200019N0020001N1+02791+02041101531ADDGF102991001001999999001041MA1999999101481MD1999999+0121REMSYN070AAXX  16184 83498 32795 20506 10279 20204 30148 40153 80004 333 58012;EQDQ01+017502SCOLCB
0178834980999992005101700004-17733-039250FM-12+000399999V0200501N002112200019N0020001N1+02301+02111101731ADDGA1001+999999999GF100991001001999999001001KA1240M+02931MA1999999101681MD1999999+0051REMSYN082AAXX  17004 83498 32995 00504 10230 20211 30168 40173 333 10293 29080 55000 58005;
0156834980999992005101712004-17733-039250FM-12+000399999V0203601N004112200019N0020001N1+02701+02131101751ADDGF104991041021008001001001KA1240N+01901MA1999999101701MD1999999-0151REMSYN076AAXX  17124 83498 32595 43608 10270 20213 30170 40175 84200 333 20190 59015;
0137834980999992005101718004-17733-039250FM-12+000399999V0203601N004612200019N0020001N1+02801+02151101221ADDGF102991021011008001001001MA1999999101271MD1999999-0211REMSYN070AAXX  17184 83498 32595 23609 10280 20215 30127 40122 82100 333 59021;
0155834980999992005101800004-17730-039250FM-12+000399999V0203601N002612200019N0020001N1+02361+02071101541ADDGF103991031011008001001001MA1999999101491MD1999999-0191REMSYN088AAXX  18004 83498 32595 33605 10236 20207 30149 40154 83100 333 10285 29077 55106 59019;
0156834980999992005101812004-17733-039250FM-12+000399999V0203601N005110450019N0020001N1+02711+02201101541ADDGF105991041021008001041001KA1240N+02151MA1999999101491MD1999999-0211REMSYN076AAXX  18124 83498 32595 53610 10271 20220 30149 40154 84240 333 20215 59021;
0156834980999992005101818004-17733-039250FM-12+000399999V0200501N007212200019N0020001N1+02831+02201101171ADDGF101991001001999999001041MA1999999101121MD1999999-0151REMSYN070AAXX  18184 83498 32795 10514 10283 20220 30112 40117 80004 333 59015;EQDQ01+017502SCOLCB
0178834980999992005101900004-17733-039250FM-12+000399999V0200501N004612200019N0020001N1+02461+02171101441ADDGA1001+999999999GF100991001001999999001001KA1240M+02931MA1999999101391MD1999999-0101REMSYN082AAXX  19004 83498 32995 00509 10246 20217 30139 40144 333 10293 29078 55105 59010;
0156834980999992005101912004-17733-039250FM-12+000399999V0201801N001510450019N0020001N1+02641+02141101931ADDGF106991041051008001011001KA1240N+02101MA1999999101881MD1999999+0391REMSYN076AAXX  19124 83498 32595 61803 10264 20214 30188 40193 84510 333 20210 58039;
0137834980999992005101918004-17733-039250FM-12+000399999V0200901N002612200019N0020001N1+02841+02221101691ADDGF102991021011008001001001MA1999999101641MD1999999+0521REMSYN070AAXX  19184 83498 32595 20905 10284 20222 30164 40169 82100 333 58052;
0168834980999992005102000004-17733-039250FM-12+000399999V0209999C000010450019N0020001N1+02501+02071102001ADDGF106991031021008001031001KA1240M+02971MA1999999101951MD1999999+0561REMSYN088AAXX  20004 83498 32595 60000 10250 20207 30195 40200 83230 333 10297 29074 55082 58056;
0156834980999992005102012004-17733-039250FM-12+000399999V0202701N000510450019N0020001N1+02591+02211102011ADDGF105991031021008001041001KA1240N+02141MA1999999101961MD1999999+0081REMSYN076AAXX  20124 83498 32595 52701 10259 20221 30196 40201 83240 333 20214 58008;
0137834980999992005102018004-17733-039250FM-12+000399999V0200901N003112200019N0020001N1+02731+02151101711ADDGF103991031011008001001001MA1999999101661MD1999999+0021REMSYN070AAXX  20184 83498 32595 30906 10273 20215 30166 40171 83100 333 58002;
0168834980999992005102100004-17733-039250FM-12+000399999V0200901N001012200019N0020001N1+02241+02031101881ADDGF101991011011008001001001KA1240M+02891MA1999999101831MD1999999-0121REMSYN088AAXX  21004 83498 32595 10902 10224 20203 30183 40188 81100 333 10289 29082 55098 59012;
0156834980999992005102112004-17733-039250FM-12+000399999V0200501N002112200019N0020001N1+02681+02111101941ADDGF104991041021008001001001KA1240N+01981MA1999999101891MD1999999-0071REMSYN076AAXX  21124 83498 32595 40504 10268 20211 30189 40194 84200 333 20198 59007;
0137834980999992005102118004-17733-039250FM-12+000399999V0200501N002610450019N0020001N1+02801+02181101621ADDGF105991021011008001041001MA1999999101571MD1999999-0091REMSYN070AAXX  21184 83498 32595 50505 10280 20218 30157 40162 82140 333 59009;
0168834980999992005102200004-17733-039250FM-12+000399999V0200501N001512200019N0020001N1+02361+02071101701ADDGF101991011011008001001001KA1240M+02861MA1999999101651MD1999999-0181REMSYN088AAXX  22004 83498 32595 10503 10236 20207 30165 40170 81100 333 10286 29077 55097 59018;
0156834980999992005102212004-17733-039250FM-12+000399999V0200501N003112200019N0020001N1+02791+02181101761ADDGF105991041021008001001011KA1240N+02021MA1999999101711MD1999999-0181REMSYN076AAXX  22124 83498 32595 50506 10279 20218 30171 40176 84201 333 20202 59018;
0137834980999992005102218004-17733-039250FM-12+000399999V0200501N004110075019N0020001N1+02701+02201101491ADDGF108991061051008001021999MA1999999101441MD1999999-0131REMSYN070AAXX  22184 83498 32595 80508 10270 20220 30144 40149 8652/ 333 59013;
0168834980999992005102300004-17733-039250FM-12+000399999V0200501N003110450019N0020001N1+02481+02231101581ADDGF106991041051008001011001KA1240M+02871MA1999999101531MD1999999-0121REMSYN088AAXX  23004 83498 32595 60506 10248 20223 30153 40158 84510 333 10287 29079 55041 59012;
0156834980999992005102312004-17733-039250FM-12+000399999V0203601N005110450019N0020001N1+02741+02141101641ADDGF106991041021008001041001KA1240N+02281MA1999999101591MD1999999-0121REMSYN076AAXX  23124 83498 32595 63610 10274 20214 30159 40164 84240 333 20228 59012;
0137834980999992005102318004-17733-039250FM-12+000399999V0200501N005712200019N0020001N1+02801+02181101331ADDGF103991021011008001001091MA1999999101281MD1999999-0161REMSYN070AAXX  23184 83498 32595 30511 10280 20218 30128 40133 82109 333 59016;
0178834980999992005102400004-17733-039250FM-12+000399999V0203601N003112200019N0020001N1+02461+02251101641ADDGA1001+999999999GF100991001001999999001001KA1240M+02931MA1999999101591MD1999999+0061REMSYN082AAXX  24004 83498 32995 03606 10246 20225 30159 40164 333 10293 29079 55083 58006;
0156834980999992005102412004-17733-039250FM-12+000399999V0200501N004112200019N0020001N1+02791+02091101801ADDGF104991031021008001001011KA1240N+02171MA1999999101751MD1999999+0161REMSYN076AAXX  24124 83498 32595 40508 10279 20209 30175 40180 83201 333 20217 58016;
0137834980999992005102418004-17733-039250FM-12+000399999V0200501N004111050019N0020001N1+02711+02081101481ADDGF106991031021008001001021MA1999999101431MD1999999+0151REMSYN070AAXX  24184 83498 32595 60508 10271 20208 30143 40148 83202 333 58015;
0178834980999992005102500004-17733-039250FM-12+000399999V0200501N001012200019N0020001N1+02341+02171101661ADDGA1001+999999999GF100991001001999999001001KA1240M+02951MA1999999101611MD1999999+0021REMSYN082AAXX  25004 83498 32995 00502 10234 20217 30161 40166 333 10295 29079 55076 58002;
0156834980999992005102512004-17733-039250FM-12+000399999V0200501N004110075019N0020001N1+02761+02091101801ADDGF105991051021008001001001KA1240N+01971MA1999999101751MD1999999+0001REMSYN076AAXX  25124 83498 32595 50508 10276 20209 30175 40180 85200 333 20197 58000;
0137834980999992005102518004-17733-039250FM-12+000399999V0200501N003612200019N0020001N1+02801+02081101381ADDGF104991021011008001001091MA1999999101331MD1999999-0101REMSYN070AAXX  25184 83498 32595 40507 10280 20208 30133 40138 82109 333 59010;
0178834980999992005102600004-17733-039250FM-12+000399999V0200501N002112200019N0020001N1+02421+02131101621ADDGA1001+999999999GF100991001001999999001001KA1240M+02951MA1999999101571MD1999999-0041REMSYN082AAXX  26004 83498 32995 00504 10242 20213 30157 40162 333 10295 29075 55096 59004;
0156834980999992005102612004-17733-039250FM-12+000399999V0203201N003112200019N0020001N1+02751+02341101601ADDGF104991041021008001001001KA1240N+02051MA1999999101551MD1999999-0201REMSYN076AAXX  26124 83498 32595 43206 10275 20234 30155 40160 84200 333 20205 59020;
0137834980999992005102618004-17733-039250FM-12+000399999V0200501N006212200019N0020001N1+02831+02311101201ADDGF101991011011008001001001MA1999999101151MD1999999-0181REMSYN070AAXX  26184 83498 32595 10512 10283 20231 30115 40120 81100 333 59018;
0168834980999992005102700004-17733-039250FM-12+000399999V0200501N003112200019N0020001N1+02511+02291101401ADDGF102991021011008001001001KA1240M+02971MA1999999101351MD1999999-0221REMSYN088AAXX  27004 83498 32595 20506 10251 20229 30135 40140 82100 333 10297 29082 55097 59022;
0156834980999992005102712004-17733-039250FM-12+000399999V0203601N003612200019N0020001N1+02881+02031101531ADDGF104991041021008001001001KA1240N+02161MA1999999101481MD1999999-0071REMSYN076AAXX  27124 83498 32595 43607 10288 20203 30148 40153 84200 333 20216 59007;
0137834980999992005102718004-17733-039250FM-12+000399999V0200501N004112200019N0020001N1+02921+02191101231ADDGF103991021011008001001091MA1999999101181MD1999999+0031REMSYN070AAXX  27184 83498 32595 30508 10292 20219 30118 40123 82109 333 58003;
0168834980999992005102800004-17733-039250FM-12+000399999V0203601N004112200019N0020001N1+02561+02291101371ADDGF102991021011008001001001KA1240M+03071MA1999999101321MD1999999-0031REMSYN088AAXX  28004 83498 32595 23608 10256 20229 30132 40137 82100 333 10307 29074 55090 59003;
0156834980999992005102812004-17733-039250FM-12+000399999V0200501N005710450019N0020001N1+02871+02391101351ADDGF105991031021008001041001KA1240N+02361MA1999999101281MD1999999-0201REMSYN076AAXX  28124 83498 32595 50511 10287 20239 30128 40135 83240 333 20236 59020;
0137834980999992005102818004-17733-039250FM-12+000399999V0200501N006712200019N0020001N1+02831+02361100931ADDGF102991011011008001001011MA1999999100881MD1999999-0301REMSYN070AAXX  28184 83498 32595 20513 10283 20236 30088 40093 81101 333 59030;
0168834980999992005102900004-17733-039250FM-12+000399999V0200501N004612200019N0020001N1+02561+02401101111ADDGF103991031011008001001001KA1240M+02991MA1999999101061MD1999999-0261REMSYN088AAXX  29004 83498 32595 30509 10256 20240 30106 40111 83100 333 10299 29084 55079 59026;
0156834980999992005102912004-17733-039250FM-12+000399999V0203601N004610450019N0020001N1+02911+02301101221ADDGF106991021021008001021001KA1240N+02281MA1999999101171MD1999999-0111REMSYN076AAXX  29124 83498 32595 63609 10291 20230 30117 40122 82220 333 20228 59011;
0137834980999992005102918004-17733-039250FM-12+000399999V0200501N005719999999N0020001N1+02871+02391100871ADDGF107991001001999999001081MA1999999100821MD1999999-0061REMSYN070AAXX  29184 83498 32995 70511 10287 20239 30082 40087 80008 333 59006;
0168834980999992005103000004-17733-039250FM-12+000399999V0203601N004611050019N0020001N1+02551+02331101141ADDGF107991041001012501021081KA1240M+03131MA1999999101091MD1999999+0031REMSYN088AAXX  30004 83498 32695 73609 10255 20233 30109 40114 84028 333 10313 29080 55039 58003;
0220834980999992005103012004-17733-039250FM-12+000399999V0202701N002110450019N0020001N1+02711+02371101521ADDAA124000091AY121061AY211061GF106991041051008001011001KA1240N+02361MA1999999101471MD1999999+0301MW1031REMSYN088AAXX  30124 83498 21595 62704 10271 20237 30147 40152 70321 84510 333 20236 58030 69924;EQDQ01  00002PRCP24
0137834980999992005103018004-17733-039250FM-12+000399999V0201801N003110075019N0020001N1+02691+02481101281ADDGF108991051051008001021999MA1999999101231MD1999999+0411REMSYN070AAXX  30184 83498 32595 81806 10269 20248 30123 40128 8552/ 333 58041;
0168834980999992005103100004-17733-039250FM-12+000399999V0201401N003110450019N0020001N1+02571+02401101551ADDGF107991041051008001011001KA1240M+02791MA1999999101501MD1999999+0411REMSYN088AAXX  31004 83498 32595 71406 10257 20240 30150 40155 84510 333 10279 29088 55000 58041;
0201834980999992005103112004-17733-039250FM-12+000399999V0202301N000510450019N0020001N1+02561+02191101551ADDAA124004191AY161061AY221061GF108991041051008001011999KA1240N+02261MA1999999101501MD1999999+0031MW1911REMSYN088AAXX  31124 83498 21595 82301 10256 20219 30150 40155 79162 8451/ 333 20226 58003 60044;
0182834980999992005103118004-17733-039250FM-12+000399999V0200501N001510450019N0020001N1+02661+02221101321ADDAA106010991AY161061AY261061GF108991031061008001021999MA1999999101271MD1999999+0041MW1921REMSYN082AAXX  31184 83498 21595 80503 10266 20222 30127 40132 79266 8362/ 333 58004 60111;
0168834980999992005110100004-17733-039250FM-12+000399999V0203601N002110450019N0020001N1+02581+02191101581ADDGF108991041051008001011999KA1240M+02731MA1999999101531MD1999999+0031REMSYN088AAXX  01004 83498 32595 83604 10258 20219 30153 40158 8451/ 333 10273 29079 55000 58003;
0173834980999992005110112004-17733-039250FM-12+000399999V0202701N002610075019N0020001N1+02701+02371101631ADDAA124010991GF108991051051008001021999KA1240N+02401MA1999999101581MD1999999+0081REMSYN082AAXX  01124 83498 22595 82705 10270 20237 30158 40163 8552/ 333 20240 58008 60114;
0168834980999992005110200004-17733-039250FM-12+000399999V0200501N001510075019N0020001N1+02511+02411101731ADDGF108991051051008001021999KA1240M+02791MA1999999101681MD1999999+0131REMSYN088AAXX  02004 83498 32595 80503 10251 20241 30168 40173 8552/ 333 10279 29092 55000 58013;
0173834980999992005110212004-17733-039250FM-12+000399999V0203601N005112200019N0020001N1+02841+02191101821ADDAA124000891GF104991021011008001001011KA1240N+02321MA1999999101771MD1999999+0191REMSYN082AAXX  02124 83498 22595 43610 10284 20219 30177 40182 82101 333 20232 58019 69984;
0178834980999992005110300004-17733-039250FM-12+000399999V0200501N001512200019N0020001N1+02401+02111101911ADDGA1001+999999999GF100991001001999999001001KA1240M+02951MA1999999101861MD1999999+0181REMSYN082AAXX  03004 83498 32995 00503 10240 20211 30186 40191 333 10295 29076 55082 58018;
0156834980999992005110312004-17733-039250FM-12+000399999V0200501N003110450019N0020001N1+02851+02421101911ADDGF105991031021008001041001KA1240N+02091MA1999999101861MD1999999+0091REMSYN076AAXX  03124 83498 32595 50506 10285 20242 30186 40191 83240 333 20209 58009;
0137834980999992005110318004-17733-039250FM-12+000399999V0200501N004612200019N0020001N1+02851+02331101631ADDGF101991011011008001001001MA1999999101581MD1999999+0021REMSYN070AAXX  03184 83498 32595 10509 10285 20233 30158 40163 81100 333 58002;
0168834980999992005110400004-17733-039250FM-12+000399999V0200501N001010075019N0020001N1+02461+02301101851ADDGF108991061051008001021999KA1240M+02991MA1999999101801MD1999999-0061REMSYN088AAXX  04004 83498 32595 80502 10246 20230 30180 40185 8652/ 333 10299 29084 55090 59006;
0156834980999992005110412004-17733-039250FM-12+000399999V0200501N003612200019N0020001N1+02801+02221101751ADDGF104991041021008001001001KA1240N+02261MA1999999101701MD1999999-0161REMSYN076AAXX  04124 83498 32595 40507 10280 20222 30170 40175 84200 333 20226 59016;
0137834980999992005110418004-17733-039250FM-12+000399999V0200501N004112200019N0020001N1+02861+02311101471ADDGF103991031011008001001001MA1999999101421MD1999999-0161REMSYN070AAXX  04184 83498 32595 30508 10286 20231 30142 40147 83100 333 59016;
0178834980999992005110500004-17733-039250FM-12+000399999V0200501N002612200019N0020001N1+02461+02251101751ADDGA1001+999999999GF100991001001999999001001KA1240M+02951MA1999999101701MD1999999-0101REMSYN082AAXX  05004 83498 32995 00505 10246 20225 30170 40175 333 10295 29080 55098 59010;
0156834980999992005110512004-17733-039250FM-12+000399999V0200501N005112200019N0020001N1+02791+02211101721ADDGF104991041021008001001001KA1240N+02221MA1999999101671MD1999999-0031REMSYN076AAXX  05124 83498 32595 40510 10279 20221 30167 40172 84200 333 20222 59003;
0137834980999992005110518004-17733-039250FM-12+000399999V0200501N003610450019N0020001N1+02381+02261101551ADDGF108991031071008001021999MA1999999101501MD1999999+0081REMSYN070AAXX  05184 83498 32595 80507 10238 20226 30150 40155 8372/ 333 58008;
0223834980999992005110600004-17733-039250FM-12+000399999V0200501N002112200019N0020001N1+02441+02271101601ADDAA106000591AY121061AY211061GA1001+999999999GF100991001001999999001001KA1240M+02951MA1999999101551MD1999999-0151MW1001REMSYN094AAXX  06004 83498 21595 00504 10244 20227 30155 40160 70021 333 10295 29086 55073 59015 69941;
0173834980999992005110612004-17733-039250FM-12+000399999V0203601N004112200019N0020001N1+02821+02201101711ADDAA124000591GF104991041021008001001001KA1240N+02121MA1999999101161MD1999999-0011REMSYN082AAXX  06124 83498 22595 43608 10282 20220 30116 40171 84200 333 20212 59001 69944;
0137834980999992005110618004-17733-039250FM-12+000399999V0200501N005112200019N0020001N1+02901+02221101431ADDGF102991011011008001001091MA1999999101381MD1999999-0121REMSYN070AAXX  06184 83498 32595 20510 10290 20222 30138 40143 81109 333 59012;
0178834980999992005110700004-17733-039250FM-12+000399999V0200501N003612200019N0020001N1+02541+02211101531ADDGA1001+999999999GF100991001001999999001001KA1240M+03071MA1999999101481MD1999999-0071REMSYN082AAXX  07004 83498 32995 00507 10254 20221 30148 40153 333 10307 29075 55098 59007;
0137834980999992005110718004-17733-039250FM-12+000399999V0200501N005112200019N0020001N1+02891+02321101311ADDGF103991011011008001001021MA1999999101261MD1999999-0121REMSYN070AAXX  07184 83498 32595 30510 10289 20232 30126 40131 81102 333 59012;
0156834980999992005110812004-17733-039250FM-12+000399999V0203601N003110450019N0020001N1+02821+02201101551ADDGF106991031021008001031011KA1240N+02101MA1999999101501MD1999999-0101REMSYN076AAXX  08124 83498 32595 63606 10282 20220 30150 40155 83231 333 20210 59010;
0137834980999992005110818004-17733-039250FM-12+000399999V0200501N004110450019N0020001N1+02921+02241101351ADDGF106991021011008001041011MA1999999101301MD1999999+0041REMSYN070AAXX  08184 83498 32595 60508 10292 20224 30130 40135 82141 333 58004;
0168834980999992005110900004-17733-039250FM-12+000399999V0200501N001510450019N0020001N1+02521+02331101571ADDGF106991031021008001051001KA1240M+03051MA1999999101521MD1999999+0121REMSYN088AAXX  09004 83498 32595 60503 10252 20233 30152 40157 83250 333 10305 29078 55078 58012;
0156834980999992005110912004-17733-039250FM-12+000399999V0202301N001510450019N0020001N1+02721+02371101611ADDGF106991041051008001041001KA1240N+02151MA1999999101561MD1999999+0061REMSYN076AAXX  09124 83498 32595 62303 10272 20237 30156 40161 84540 333 20215 58006;
0137834980999992005110918004-17733-039250FM-12+000399999V0201801N006210075019N0020001N1+02481+02231101401ADDGF108991051051008001021999MA1999999101351MD1999999+0051REMSYN070AAXX  09184 83498 32595 81812 10248 20223 30135 40140 8552/ 333 58005;
0213834980999992005111000004-17733-039250FM-12+000399999V0201801N002610075019N0020001N1+02321+02201101611ADDAA106001091AY161061AY261061GF108991061061008001021999KA1240M+02831MA1999999101561MD1999999+0041MW1211REMSYN100AAXX  10004 83498 21595 81805 10232 20220 30156 40161 72166 8662/ 333 10283 29088 55016 58004 60011;
0201834980999992005111012004-17733-039250FM-12+000399999V0201401N004110450019N0020001N1+02581+02311101661ADDAA124013091AY161061AY261061GF108991041061008001011999KA1240N+02201MA1999999101611MD1999999+0051MW1211REMSYN088AAXX  10124 83498 21595 81408 10258 20231 30161 40166 72166 8461/ 333 20220 58005 60134;
0137834980999992005111018004-17733-039250FM-12+000399999V0201401N003610450019N0020001N1+02501+02211101401ADDGF108991031051008001011999MA1999999101351MD1999999+0001REMSYN070AAXX  10184 83498 32595 81407 10250 20221 30135 40140 8351/ 333 58000;
0168834980999992005111100004-17733-039250FM-12+000399999V0201401N002610450019N0020001N1+02481+02231101631ADDGF108991041051008001011999KA1240M+02611MA1999999101581MD1999999+0021REMSYN088AAXX  11004 83498 32595 81405 10248 20223 30158 40163 8451/ 333 10261 29085 55000 58002;
0201834980999992005111112004-17733-039250FM-12+000399999V0202301N002110075019N0020001N1+02101+02051101541ADDAA124000021AY121061AY211061GF108991051061008001021999KA1240N+01961MA1999999101491MD1999999-0121MW1031REMSYN088AAXX  11124 83498 21595 82304 10210 20205 30149 40154 70321 8562/ 333 20196 59012 69914;
0137834980999992005111118004-17733-039250FM-12+000399999V0202301N003110075019N0020001N1+02191+02111101291ADDGF108991051051008001021999MA1999999101241MD1999999-0111REMSYN070AAXX  11184 83498 32595 82306 10219 20211 30124 40129 8552/ 333 59011;
0213834980999992005111200004-17733-039250FM-12+000399999V0202301N001510450019N0020001N1+02111+02051101501ADDAA106003091AY161061AY261061GF108991031071008001021999KA1240M+02511MA1999999101451MD1999999-0131MW1211REMSYN100AAXX  12004 83498 21595 82303 10211 20205 30145 40150 72166 8372/ 333 10251 29097 55000 59013 60031;
0201834980999992005111212004-17733-039250FM-12+000399999V0201401N004610075019N0020001N1+02301+02161101401ADDAA124034091AY161061AY261061GF108991051071008001021999KA1240N+01921MA1999999101351MD1999999-0141MW1921REMSYN088AAXX  12124 83498 21595 81409 10230 20216 30135 40140 79266 8572/ 333 20192 59014 60344;
0182834980999992005111218004-17733-039250FM-12+000399999V0201801N005110075019N0020001N1+02201+02121101201ADDAA106011991AY161061AY261061GF108991081071008001999999MA1999999101151MD1999999-0091MW1921REMSYN082AAXX  12184 83498 21595 81810 10220 20212 30115 40120 79266 887// 333 59009 60121;
0213834980999992005111300004-17733-039250FM-12+000399999V0201401N004110075019N0020001N1+02241+02121101391ADDAA106009991AY161061AY261061GF108991051071008001021999KA1240M+02351MA1999999101341MD1999999-0111MW1921REMSYN100AAXX  13004 83498 21595 81408 10224 20212 30134 40139 79266 8572/ 333 10235 29093 55000 59011 60101;
0201834980999992005111312004-17733-039250FM-12+000399999V0200901N001010450019N0020001N1+02331+02071101581ADDAA124033091AY161061AY261061GF108991031071008001021999KA1240N+01961MA1999999101531MD1999999+0181MW1211REMSYN088AAXX  13124 83498 21595 80902 10233 20207 30153 40158 72166 8372/ 333 20196 58018 60334;
0213834980999992005111400004-17733-039250FM-12+000399999V0201401N001510450019N0020001N1+02201+02121101501ADDAA106004191AY161061AY261061GF108991031071008001021999KA1240M+02551MA1999999101451MD1999999+0111MW1611REMSYN100AAXX  14004 83498 21595 81403 10220 20212 30145 40150 76166 8372/ 333 10255 29090 55000 58011 60041;
0173834980999992005111412004-17733-039250FM-12+000399999V0201401N004110450019N0020001N1+02651+02331101421ADDAA124005191GF106991031051008001021001KA1240N+02181MA1999999101371MD1999999-0161REMSYN082AAXX  14124 83498 22595 61408 10265 20233 30137 40142 83520 333 20218 59016 60054;
0137834980999992005111418004-17733-039250FM-12+000399999V0201401N003110450019N0020001N1+02601+02371101241ADDGF107991031051008001021001MA1999999101191MD1999999-0091REMSYN070AAXX  14184 83498 32595 71406 10260 20237 30119 40124 83520 333 59009;
0168834980999992005111500004-17733-039250FM-12+000399999V0201401N003110120019N0020001N1+02501+02291101461ADDGF106991061001012501021001KA1240M+02711MA1999999101411MD1999999-0041REMSYN088AAXX  15004 83498 32695 61406 10250 20229 30141 40146 86020 333 10271 29086 55007 59004;
0201834980999992005111512004-17733-039250FM-12+000399999V0201401N004110450019N0020001N1+02581+02311101571ADDAA124004191AY161061AY221061GF108991041061008001021999KA1240N+02281MA1999999101521MD1999999+0151MW1911REMSYN088AAXX  15124 83498 21595 81408 10258 20231 30152 40157 79162 8462/ 333 20228 58015 60044;
0182834980999992005111518004-17733-039250FM-12+000399999V0201401N002610450019N0020001N1+02601+02331101421ADDAA106005191AY161061AY261061GF108991031061008001021999MA1999999101371MD1999999+0181MW1911REMSYN082AAXX  15184 83498 21595 81405 10260 20233 30137 40142 79166 8362/ 333 58018 60051;
0213834980999992005111600004-17733-039250FM-12+000399999V0200501N001510450019N0020001N1+02341+02151101611ADDAA106002091AY161061AY261061GF108991031071008001021999KA1240M+02671MA1999999101561MD1999999+0151MW1911REMSYN100AAXX  16004 83498 21595 80503 10234 20215 30156 40161 79166 8372/ 333 10267 29087 55000 58015 60021;
0201834980999992005111612004-17733-039250FM-12+000399999V0203601N004110450019N0020001N1+02651+02271101491ADDAA124007991AY121061AY211061GF106991041051008001041001KA1240N+02121MA1999999101441MD1999999-0071MW1031REMSYN088AAXX  16124 83498 21595 63608 10265 20227 30144 40149 70321 84540 333 20212 59007 60084;
0137834980999992005111618004-17733-039250FM-12+000399999V0200501N005112200019N0020001N1+02791+02251101211ADDGF103991011031008001041001MA1999999101161MD1999999-0211REMSYN070AAXX  16184 83498 32595 30510 10279 20225 30116 40121 81340 333 59021;
0168834980999992005111700004-17733-039250FM-12+000399999V0200501N003112200019N0020001N1+02481+02291101341ADDGF104991021031008001041001KA1240M+02931MA1999999101291MD1999999-0271REMSYN088AAXX  17004 83498 32595 40506 10248 20229 30129 40134 82340 333 10293 29083 55056 59027;
0156834980999992005111712004-17733-039250FM-12+000399999V0203601N004112200019N0020001N1+02781+02251101391ADDGF104991041021008001001001KA1240N+02151MA1999999101341MD1999999-0111REMSYN076AAXX  17124 83498 32595 43608 10278 20225 30134 40139 84200 333 20215 59011;
0137834980999992005111718004-17733-039250FM-12+000399999V0203601N005110450019N0020001N1+02861+02311100901ADDGF106991031011008001041001MA1999999100851MD1999999-0311REMSYN070AAXX  17184 83498 32595 63610 10286 20231 30085 40090 83140 333 59031;
0168834980999992005111800004-17733-039250FM-12+000399999V0203601N003610450019N0020001N1+02561+02351101121ADDGF106991021011008001041001KA1240M+02951MA1999999101071MD1999999-0221REMSYN088AAXX  18004 83498 32595 63607 10256 20235 30107 40112 82140 333 10295 29080 55089 59022;
0201834980999992005111812004-17733-039250FM-12+000399999V0200501N005710450019N0020001N1+02771+02401101331ADDAA124000391AY121061AY211061GF106991041051008001041001KA1240N+02401MA1999999101281MD1999999-0061MW1031REMSYN088AAXX  18124 83498 21595 60511 10277 20240 30128 40133 70321 84540 333 20240 59006 69934;
0156834980999992005111818004-17733-039250FM-12+000399999V0200501N005712200019N0020001N1+02831+02291101051ADDGF102991001001999999001021MA1999999101001MD1999999+0151REMSYN070AAXX  18184 83498 32595 20511 10283 20229 30100 40105 80002 333 58015;EQDQ01+008002SCOLCB
0187834980999992005111900004-17733-039250FM-12+000399999V0200501N003112200019N0020001N1+02531+02341101341ADDGF103991001001999999001021KA1240M+02931MA1999999101291MD1999999+0221REMSYN088AAXX  19004 83498 32795 30506 10253 20234 30129 40134 80002 333 10293 29084 55052 58022;EQDQ01+017502SCOLCB
0156834980999992005111912004-17733-039250FM-12+000399999V0203601N004610450019N0020001N1+02821+02201101421ADDGF106991031011008001051001KA1240N+02371MA1999999101381MD1999999+0101REMSYN076AAXX  19124 83498 32595 63609 10282 20220 30138 40142 83150 333 20237 58010;
0137834980999992005111918004-17733-039250FM-12+000399999V0203601N005110450019N0020001N1+02861+02311101151ADDGF106991021021008001051001MA1999999101101MD1999999+0101REMSYN070AAXX  19184 83498 32595 63610 10286 20231 30110 40115 82250 333 58010;
0168834980999992005112000004-17733-039250FM-12+000399999V0200501N003112200019N0020001N1+02541+02211101371ADDGF101991011011008001001001KA1240M+02951MA1999999101321MD1999999+0031REMSYN088AAXX  20004 83498 32595 10506 10254 20221 30132 40137 81100 333 10295 29076 55060 58003;
0156834980999992005112012004-17733-039250FM-12+000399999V0203601N005710450019N0020001N1+02811+02361101351ADDGF105991031021008001031001KA1240N+02301MA1999999101301MD1999999-0081REMSYN076AAXX  20124 83498 32595 53611 10281 20236 30130 40135 83230 333 20230 59008;
0156834980999992005112018004-17733-039250FM-12+000399999V0200501N005712200019N0020001N1+02891+02371100961ADDGF101991001001999999001011MA1999999100911MD1999999-0191REMSYN070AAXX  20184 83498 32795 10511 10289 20237 30091 40096 80001 333 59019;EQDQ01+017502SCOLCB
0190834980999992005112100004-17733-039250FM-12+000399999V0200501N003112200019N0020001N1+02551+02351101121ADDGA1001+999999999GF100991001001999999001001KA1240M+02991MA1999999101071MD1999999-0251MW1131REMSYN088AAXX  21004 83498 31995 00506 10255 20235 30107 40112 713// 333 10299 29082 55066 59025;
0201834980999992005112112004-17733-039250FM-12+000399999V0202301N000510450019N0020001N1+02401+02191101401ADDAA124043991AY161061AY221061GF108991041071008001021999KA1240N+02261MA1999999101351MD1999999+0051MW1921REMSYN088AAXX  21124 83498 21595 82301 10240 20219 30135 40140 79262 8472/ 333 20226 58005 60444;
0182834980999992005112118004-17733-039250FM-12+000399999V0201401N002110450019N0020001N1+02361+02131101241ADDAA106014091AY161061AY261061GF108991031071008001021999MA1999999101191MD1999999+0281MW1921REMSYN082AAXX  21184 83498 21595 81404 10236 20213 30119 40124 79266 8372/ 333 58028 60141;
0213834980999992005112200004-17733-039250FM-12+000399999V0201401N001010450019N0020001N1+02301+02141101451ADDAA106000891AY161061AY261061GF108991021071008001021999KA1240M+02551MA1999999101401MD1999999+0331MW1211REMSYN100AAXX  22004 83498 21595 81402 10230 20214 30140 40145 72166 8272/ 333 10255 29089 55000 58033 69971;
0201834980999992005112212004-17733-039250FM-12+000399999V0201401N001510075019N0020001N1+02461+02321101421ADDAA124015091AY121061AY211061GF108991051051008001021999KA1240N+02141MA1999999101371MD1999999+0021MW1031REMSYN088AAXX  22124 83498 21595 81403 10246 20232 30137 40142 70321 8552/ 333 20214 58002 60154;
0137834980999992005112218004-17733-039250FM-12+000399999V0201401N001010075019N0020001N1+02501+02311101191ADDGF108991051051008001021999MA1999999101141MD1999999-0051REMSYN070AAXX  22184 83498 32595 81402 10250 20231 30114 40119 8552/ 333 59005;
0232834980999992005112300004-17733-039250FM-12+000399999V0200901N000510075019N0020001N1+02341+02221101341ADDAA106000091AY121061AY211061GF108991051061008001021999KA1240M+02591MA1999999101291MD1999999-0111MW1031REMSYN100AAXX  23004 83498 21595 80901 10234 20222 30129 40134 70321 8562/ 333 10259 29092 55000 59011 69921;EQDQ01  00002PRCP06
0201834980999992005112312004-17733-039250FM-12+000399999V0200501N001510450019N0020001N1+02361+02131101451ADDAA124018091AY161061AY261061GF108991041071008001021999KA1240N+01971MA1999999101401MD1999999+0031MW1921REMSYN088AAXX  23124 83498 21595 80503 10236 20213 30140 40145 79266 8472/ 333 20197 58003 60184;
0182834980999992005112318004-17733-039250FM-12+000399999V0200501N001010075019N0020001N1+02301+02111101301ADDAA106022191AY161061AY261061GF108991081071008001999999MA1999999101251MD1999999+0111MW1921REMSYN082AAXX  23184 83498 21595 80502 10230 20211 30125 40130 79266 887// 333 58011 60221;
0213834980999992005112400004-17733-039250FM-12+000399999V0200501N003610075019N0020001N1+02201+02121101531ADDAA106017091AY161061AY261061GF108991081071008001999999KA1240M+02491MA1999999101481MD1999999+0191MW1921REMSYN100AAXX  24004 83498 21595 80507 10220 20212 30148 40153 79266 887// 333 10249 29092 55000 58019 60171;
0201834980999992005112412004-17733-039250FM-12+000399999V0203601N004110075019N0020001N1+02361+02191101531ADDAA124063091AY161061AY261061GF108991051061008001021999KA1240N+02071MA1999999101481MD1999999+0081MW1211REMSYN088AAXX  24124 83498 21595 83608 10236 20219 30148 40153 72166 8562/ 333 20207 58008 60634;
0182834980999992005112418004-17733-039250FM-12+000399999V0203601N002110075019N0020001N1+02321+02201101391ADDAA106006191AY161061AY261061GF108991051051008001021999MA1999999101341MD1999999+0091MW1211REMSYN082AAXX  24184 83498 21595 83604 10232 20220 30134 40139 72166 8552/ 333 58009 60061;
0168834980999992005112500004-17733-039250FM-12+000399999V0203601N001512200019N0020001N1+02181+02131101441ADDGF103991031061008001001001KA1240M+02411MA1999999101391MD1999999-0091REMSYN088AAXX  25004 83498 32595 33603 10218 20213 30139 40144 83600 333 10241 29094 55000 59009;
0173834980999992005112512004-17733-039250FM-12+000399999V0203601N003610450019N0020001N1+02561+02351101301ADDAA124006191GF108991041051008001011999KA1240N+01941MA1999999101251MD1999999-0231REMSYN082AAXX  25124 83498 22595 83607 10256 20235 30125 40130 8451/ 333 20194 59023 60064;
0137834980999992005112518004-17733-039250FM-12+000399999V0203601N004110450019N0020001N1+02621+02351101011ADDGF107991031051008001051001MA1999999100961MD1999999-0381REMSYN070AAXX  25184 83498 32595 73608 10262 20235 30096 40101 83550 333 59038;
0156834980999992005112612004-17733-039250FM-12+000399999V0203601N003110075019N0020001N1+02591+02291101091ADDGF108991051051008001021999KA1240N+02201MA1999999101041MD1999999-0211REMSYN076AAXX  26124 83498 32595 83606 10259 20229 30104 40109 8552/ 333 20220 59021;
0182834980999992005112618004-17733-039250FM-12+000399999V0203601N004110075019N0020001N1+02501+02341100701ADDAA106001091AY121061AY211061GF108991051051008001021999MA1999999100651MD1999999-0311MW1031REMSYN082AAXX  26184 83498 21595 83608 10250 20234 30065 40070 70321 8552/ 333 59031 60011;
0213834980999992005112700004-17733-039250FM-12+000399999V0203601N002610450019N0020001N1+02381+02331101031ADDAA106000891AY161061AY261061GF108991031071008001021999KA1240M+02671MA1999999100981MD1999999-0081MW1211REMSYN100AAXX  27004 83498 21595 83605 10238 20233 30098 40103 72166 8372/ 333 10267 29092 55000 59008 69971;
0182834980999992005112718004-17733-039250FM-12+000399999V0201801N002110075019N0020001N1+02361+02191101011ADDAA106013091AY161061AY261061GF108991081071008001999999MA1999999100961MD1999999+0311MW1911REMSYN082AAXX  27184 83498 21595 81804 10236 20219 30096 40101 79166 887// 333 58031 60131;
0213834980999992005112800004-17733-039250FM-12+000399999V0201401N003110450019N0020001N1+02281+02011101231ADDAA106005191AY161061AY261061GF108991041071008001021999KA1240M+02411MA1999999101181MD1999999+0201MW1911REMSYN100AAXX  28004 83498 21595 81406 10228 20201 30118 40123 79166 8472/ 333 10241 29088 55000 58020 60051;
0201834980999992005112812004-17733-039250FM-12+000399999V0201801N002610075019N0020001N1+02321+02291101331ADDAA124071191AY161061AY261061GF108991051071008001021999KA1240N+02151MA1999999101281MD1999999+0101MW1631REMSYN088AAXX  28124 83498 21595 81805 10232 20229 30128 40133 76366 8572/ 333 20215 58010 60714;
0182834980999992005112818004-17733-039250FM-12+000399999V0200501N001510450019N0020001N1+02341+02271101231ADDAA106026991AY161061AY261061GF108991021071008001021999MA1999999101181MD1999999+0221MW1211REMSYN082AAXX  28184 83498 21595 80503 10234 20227 30118 40123 72166 8272/ 333 58022 60271;
0213834980999992005112900004-17733-039250FM-12+000399999V0200501N004110450019N0020001N1+02381+02291101501ADDAA106013091AY161061AY261061GF108991031071008001021999KA1240M+02391MA1999999101451MD1999999+0271MW1211REMSYN100AAXX  29004 83498 21595 80508 10238 20229 30145 40150 72166 8372/ 333 10239 29096 55000 58027 60131;
0201834980999992005112912004-17733-039250FM-12+000399999V0200501N002110450019N0020001N1+02581+02331101641ADDAA124045091AY161061AY261061GF108991041061008001021999KA1240N+02161MA1999999101591MD1999999+0311MW1211REMSYN088AAXX  29124 83498 21595 80504 10258 20233 30159 40164 72166 8462/ 333 20216 58031 60454;
0137834980999992005112918004-17733-039250FM-12+000399999V0200501N002610450019N0020001N1+02641+02331101501ADDGF108991031051008001041999MA1999999101451MD1999999+0271REMSYN070AAXX  29184 83498 32595 80505 10264 20233 30145 40150 8354/ 333 58027;
0168834980999992005113000004-17733-039250FM-12+000399999V0200501N001510450019N0020001N1+02481+02231101701ADDGF108991031051008001011999KA1240M+02771MA1999999101651MD1999999+0201REMSYN088AAXX  30004 83498 32595 80503 10248 20223 30165 40170 8351/ 333 10277 29085 55000 58020;
0201834980999992005113012004-17733-039250FM-12+000399999V0200501N003610450019N0020001N1+02771+02441101651ADDAA124000391AY121061AY211061GF106991041051008001041001KA1240N+02171MA1999999101601MD1999999+0011MW1031REMSYN088AAXX  30124 83498 21595 60507 10277 20244 30160 40165 70321 84540 333 20217 58001 69934;
0137834980999992005113018004-17733-039250FM-12+000399999V0200501N004110450019N0020001N1+02831+02481101361ADDGF105991031021008001041001MA1999999101311MD1999999-0141REMSYN070AAXX  30184 83498 32595 50508 10283 20248 30131 40136 83240 333 59014;
0178834980999992005120100004-17733-039250FM-12+000399999V0200501N001012200019N0020001N1+02461+02361101501ADDGA1001+999999999GF100991001001999999001001KA1240M+02911MA1999999101451MD1999999-0201REMSYN082AAXX  01004 83498 32995 00502 10246 20236 30145 40150 333 10291 29088 55057 59020;
0156834980999992005120112004-17733-039250FM-12+000399999V0200501N002112200019N0020001N1+02781+02341101471ADDGF104991041021008001001001KA1240N+02251MA1999999101421MD1999999-0181REMSYN076AAXX  01124 83498 32595 40504 10278 20234 30142 40147 84200 333 20225 59018;
0137834980999992005120118004-17733-039250FM-12+000399999V0200901N003112200019N0020001N1+02841+02381101141ADDGF102991021011008001001001MA1999999101091MD1999999-0221REMSYN070AAXX  01184 83498 32595 20906 10284 20238 30109 40114 82100 333 59022;
0178834980999992005120200004-17733-039250FM-12+000399999V0200501N001512200019N0020001N1+02481+02231101281ADDGA1001+999999999GF100991001001999999001001KA1240M+02931MA1999999101231MD1999999-0221REMSYN082AAXX  02004 83498 32995 00503 10248 20223 30123 40128 333 10293 29081 55083 59022;
0156834980999992005120212004-17733-039250FM-12+000399999V0203601N002112200019N0020001N1+02811+02441101091ADDGF103991031021008001001001KA1240N+02281MA1999999101041MD1999999-0331REMSYN076AAXX  02124 83498 32595 33604 10281 20244 30104 40109 83200 333 20228 59033;
0156834980999992005120218004-17733-039250FM-12+000399999V0200501N004612200019N0020001N1+02881+02501100751ADDGF103991001001999999001041MA1999999100701MD1999999-0391REMSYN070AAXX  02184 83498 32795 30509 10288 20250 30070 40075 80004 333 59039;EQDQ01+017502SCOLCB
0180834980999992005120300004-17733-039250FM-12+000399999V0200501N004110450019N0020001N1+02551+02441100921ADDGF108991021011008001021999KA1240M+02991MA1999999100871MD1999999-0361MW1131REMSYN094AAXX  03004 83498 31595 80508 10255 20244 30087 40092 713// 8212/ 333 10299 29087 55078 59036;
0201834980999992005120312004-17733-039250FM-12+000399999V0202701N001010450019N0020001N1+02741+02321101081ADDAA124005191AY161061AY221061GF107991041051008001041001KA1240N+02301MA1999999101031MD1999999-0011MW1211REMSYN088AAXX  03124 83498 21595 72702 10274 20232 30103 40108 72162 84540 333 20230 59001 60054;
0182834980999992005120318004-17733-039250FM-12+000399999V0201801N009310450019N0020001N1+02461+02251101111ADDAA106008991AY161061AY261061GF108991041071008001021999MA1999999101061MD1999999+0361MW1211REMSYN082AAXX  03184 83498 21595 81818 10246 20225 30106 40111 72166 8472/ 333 58036 60091;
0168834980999992005120400004-17733-039250FM-12+000399999V0201401N006210450019N0020001N1+02441+02271101471ADDGF108991041061008001021999KA1240M+02831MA1999999101421MD1999999+0551REMSYN088AAXX  04004 83498 32595 81412 10244 20227 30142 40147 8462/ 333 10283 29086 55002 58055;
0173834980999992005120412004-17733-039250FM-12+000399999V0201401N003112200019N0020001N1+02591+01991101531ADDAA124008991GF104991031021008001041001KA1240N+02281MA1999999101481MD1999999+0451REMSYN082AAXX  04124 83498 22595 41406 10259 20199 30148 40153 83240 333 20228 58045 60094;
0137834980999992005120418004-17733-039250FM-12+000399999V0201401N003610450019N0020001N1+02511+01841101271ADDGF105991041051008001041001MA1999999101221MD1999999+0161REMSYN070AAXX  04184 83498 32595 51407 10251 20184 30122 40127 84540 333 58016;
0178834980999992005120500004-17733-039250FM-12+000399999V0201401N001512200019N0020001N1+02361+01731101401ADDGA1001+999999999GF100991001001999999001001KA1240M+02641MA1999999101351MD1999999-0071REMSYN082AAXX  05004 83498 32995 01403 10236 20173 30135 40140 333 10264 29068 55051 59007;
0156834980999992005120512004-17733-039250FM-12+000399999V0201401N002112200019N0020001N1+02601+02331101351ADDGF104991041021008001001001KA1240N+01821MA1999999101301MD1999999-0181REMSYN076AAXX  05124 83498 32595 41404 10260 20233 30130 40135 84200 333 20182 59018;
0137834980999992005120518004-17733-039250FM-12+000399999V0200901N002610450019N0020001N1+02681+02351101001ADDGF107991021011008001041011MA1999999100951MD1999999-0271REMSYN070AAXX  05184 83498 32595 70905 10268 20235 30095 40100 82141 333 59027;
0168834980999992005120600004-17733-039250FM-12+000399999V0200501N001510450019N0020001N1+02361+02131101071ADDGF106991021011008001051001KA1240M+02751MA1999999101021MD1999999-0331REMSYN088AAXX  06004 83498 32595 60503 10236 20213 30102 40107 82150 333 10275 29085 55062 59033;
0156834980999992005120612004-17733-039250FM-12+000399999V0203601N002112200019N0020001N1+02811+02271100871ADDGF104991021011008001041001KA1240N+02041MA1999999100821MD1999999-0481REMSYN076AAXX  06124 83498 32595 43604 10281 20227 30082 40087 82140 333 20204 59048;
0137834980999992005120618004-17733-039250FM-12+000399999V0200501N004610450019N0020001N1+02791+02381100451ADDGF106991031051008001041001MA1999999100401MD1999999-0551REMSYN070AAXX  06184 83498 32595 60509 10279 20238 30040 40045 83540 333 59055;
0137834980999992005120718004-17733-039250FM-12+000399999V0203601N003110450019N0020001N1+03021+02261100471ADDGF107991021011008001041021MA1999999100421MD1999999+0021REMSYN070AAXX  07184 83498 32595 73606 10302 20226 30042 40047 82142 333 58002;
0213834980999992005120800004-17733-039250FM-12+000399999V0201801N005110075019N0020001N1+02421+02251100871ADDAA106034091AY191061AY291061GF108991081071008001999999KA1240M+03121MA1999999100821MD1999999+0231MW1921REMSYN100AAXX  08004 83498 21595 81810 10242 20225 30082 40087 79299 887// 333 10312 29078 55/// 58023 60341;
0201834980999992005120812004-17733-039250FM-12+000399999V0201801N003610450019N0020001N1+02361+02311101331ADDAA124071191AY161061AY261061GF108991041071008001021999KA1240N+02281MA1999999101281MD1999999+0601MW1211REMSYN088AAXX  08124 83498 21595 81807 10236 20231 30128 40133 72166 8472/ 333 20228 58060 60714;
0182834980999992005120818004-17733-039250FM-12+000399999V0201801N003110450019N0020001N1+02321+02271101231ADDAA106004191AY161061AY261061GF108991041071008001021999MA1999999101181MD1999999+0761MW1211REMSYN082AAXX  08184 83498 21595 81806 10232 20227 30118 40123 72166 8472/ 333 58076 60041;
0213834980999992005120900004-17733-039250FM-12+000399999V0201801N003610450019N0020001N1+02401+02311101511ADDAA106001091AY161061AY261061GF108991031071008001021999KA1240M+02441MA1999999101461MD1999999+0641MW1211REMSYN100AAXX  09004 83498 21595 81807 10240 20231 30146 40151 72166 8372/ 333 10244 29096 55000 58064 69991;
0201834980999992005120912004-17733-039250FM-12+000399999V0202701N001010450019N0020001N1+02381+02131101551ADDAA124007991AY161061AY261061GF108991041071008001011999KA1240N+02201MA1999999101501MD1999999+0221MW1211REMSYN088AAXX  09124 83498 21595 82702 10238 20213 30150 40155 72166 8471/ 333 20220 58022 60084;
0182834980999992005120918004-17733-039250FM-12+000399999V0203601N001010450019N0020001N1+02561+02311101311ADDAA106000021AY161061AY261061GF107991031061008001011001MA1999999101261MD1999999+0081MW1211REMSYN082AAXX  09184 83498 21595 73602 10256 20231 30126 40131 72166 83610 333 58008 69911;
0173834980999992005121012004-17733-039250FM-12+000399999V0200501N003110450019N0020001N1+02731+02471101401ADDAA124000021GF107991041051008001011001KA1240N+02291MA1999999101351MD1999999-0151REMSYN082AAXX  10124 83498 22595 70506 10273 20247 30135 40140 84510 333 20229 59015 69914;
0137834980999992005121018004-17733-039250FM-12+000399999V0200501N004110450019N0020001N1+02871+02481101171ADDGF106991041051008001041001MA1999999101121MD1999999-0141REMSYN070AAXX  10184 83498 32595 60508 10287 20248 30112 40117 84540 333 59014;
0168834980999992005121100004-17733-039250FM-12+000399999V0200501N003110450019N0020001N1+02531+02341101261ADDGF105991031051008001041001KA1240M+02921MA1999999101211MD1999999-0251REMSYN088AAXX  11004 83498 32595 50506 10253 20234 30121 40126 83540 333 10292 29087 55026 59025;
0201834980999992005121112004-17733-039250FM-12+000399999V0200501N003610450019N0020001N1+02841+02291101221ADDAA124000021AY161061AY261061GF105991031021008001041001KA1240N+02301MA1999999101171MD1999999-0181MW1211REMSYN088AAXX  11124 83498 21595 50507 10284 20229 30117 40122 72166 83240 333 20230 59018 69914;
0137834980999992005121118004-17733-039250FM-12+000399999V0203601N004112200019N0020001N1+02981+02331101021ADDGF102991021011008001001001MA1999999100971MD1999999-0121REMSYN070AAXX  11184 83498 32595 23608 10298 20233 30097 40102 82100 333 59012;
0168834980999992005121200004-17733-039250FM-12+000399999V0203601N001510450019N0020001N1+02561+02291101261ADDGF105991011011008001051001KA1240M+02951MA1999999101211MD1999999+0001REMSYN088AAXX  12004 83498 32595 53603 10256 20229 30121 40126 81150 333 10295 29078 55079 58000;
0156834980999992005121212004-17733-039250FM-12+000399999V0203201N001010450019N0020001N1+02541+02211101391ADDGF108991041051008001011999KA1240N+02221MA1999999101341MD1999999+0171REMSYN076AAXX  12124 83498 32595 83202 10254 20221 30134 40139 8451/ 333 20222 58017;
0137834980999992005121218004-17733-039250FM-12+000399999V0200501N002610450019N0020001N1+02841+02221101091ADDGF108991021011008001051011MA1999999101041MD1999999+0071REMSYN070AAXX  12184 83498 32595 80505 10284 20222 30104 40109 82151 333 58007;
0213834980999992005121300004-17733-039250FM-12+000399999V0200501N001010450019N0020001N1+02521+02361101431ADDAA106000391AY161061AY221061GF108991041051008001011999KA1240M+02911MA1999999101381MD1999999+0171MW1911REMSYN100AAXX  13004 83498 21595 80502 10252 20236 30138 40143 79162 8451/ 333 10291 29083 55009 58017 69931;
0201834980999992005121312004-17733-039250FM-12+000399999V0203201N001510450019N0020001N1+02381+02241101381ADDAA124007191AY161061AY261061GF108991021071008001011999KA1240N+02201MA1999999101331MD1999999-0011MW1911REMSYN088AAXX  13124 83498 21595 83203 10238 20224 30133 40138 79166 8271/ 333 20220 59001 60074;
0137834980999992005121318004-17733-039250FM-12+000399999V0201401N002110450019N0020001N1+02681+02261101161ADDGF108991041051008001011999MA1999999101111MD1999999+0071REMSYN070AAXX  13184 83498 32595 81404 10268 20226 30111 40116 8451/ 333 58007;
0168834980999992005121400004-17733-039250FM-12+000399999V0200901N001010450019N0020001N1+02521+02361101311ADDGF108991041051008001011999KA1240M+02811MA1999999101261MD1999999-0121REMSYN088AAXX  14004 83498 32595 80902 10252 20236 30126 40131 8451/ 333 10281 29088 55000 59012;
0201834980999992005121412004-17733-039250FM-12+000399999V0203201N001010450019N0020001N1+02521+02211101291ADDAA124007991AY161061AY221061GF108991041061008001011999KA1240N+02121MA1999999101241MD1999999-0091MW1211REMSYN088AAXX  14124 83498 21595 83202 10252 20221 30124 40129 72162 8461/ 333 20212 59009 60084;
0182834980999992005121418004-17733-039250FM-12+000399999V0200501N001010450019N0020001N1+02641+02311101151ADDAA106000021AY161061AY261061GF108991031071008001011999MA1999999101101MD1999999-0011MW1911REMSYN082AAXX  14184 83498 21595 80502 10264 20231 30110 40115 79166 8371/ 333 59001 69911;
0168834980999992005121500004-17733-039250FM-12+000399999V0203601N001510450019N0020001N1+02481+02231101191ADDGF107991031061008001011001KA1240M+02751MA1999999101141MD1999999-0121REMSYN088AAXX  15004 83498 32595 73603 10248 20223 30114 40119 83610 333 10275 29084 55000 59012;
0137834980999992005121518004-17733-039250FM-12+000399999V0203601N002110450019N0020001N1+02681+02281101081ADDGF108991031051008001011071MA1999999101031MD1999999-0071REMSYN070AAXX  15184 83498 32595 83604 10268 20228 30103 40108 83517 333 59007;
0213834980999992005121600004-17733-039250FM-12+000399999V0203201N003110075019N0020001N1+02381+02281101391ADDAA106000891AY191061AY291061GF108991051071008001021999KA1240M+02711MA1999999101341MD1999999+0201MW1951REMSYN100AAXX  16004 83498 21595 83206 10238 20228 30134 40139 79599 8572/ 333 10271 29086 55000 58020 69971;
0201834980999992005121612004-17733-039250FM-12+000399999V0203601N004110450019N0020001N1+02861+02311101321ADDAA124003091AY161061AY261061GF108991041021008001011999KA1240N+02231MA1999999101271MD1999999+0151MW1211REMSYN088AAXX  16124 83498 21595 83608 10286 20231 30127 40132 72166 8421/ 333 20223 58015 60034;
0137834980999992005121618004-17733-039250FM-12+000399999V0203601N004610450019N0020001N1+02961+02331101231ADDGF108991041051008001011999MA1999999101181MD1999999+0151REMSYN070AAXX  16184 83498 32595 83609 10296 20233 30118 40123 8451/ 333 58015;
0168834980999992005121700004-17733-039250FM-12+000399999V0203601N002110450019N0020001N1+02601+02331101371ADDGF108991031051008001011999KA1240M+02971MA1999999101321MD1999999-0021REMSYN088AAXX  17004 83498 32595 83604 10260 20233 30132 40137 8351/ 333 10297 29075 55017 59002;
0137834980999992005121718004-17733-039250FM-12+000399999V0203601N004610450019N0020001N1+03001+02321101381ADDGF108991021011008001051011MA1999999101331MD1999999+0151REMSYN070AAXX  17184 83498 32595 83609 10300 20232 30133 40138 82151 333 58015;
0168834980999992005121800004-17733-039250FM-12+000399999V0209999C000011050019N0020001N1+02581+02311101561ADDGF106991031011008001001021KA1240M+03071MA1999999101511MD1999999+0191REMSYN088AAXX  18004 83498 32595 63600 10258 20231 30151 40156 83102 333 10307 29078 55018 58019;
0156834980999992005121812004-17733-039250FM-12+000399999V0200501N003610450019N0020001N1+02801+02251101601ADDGF106991021011008001041011KA1240N+02281MA1999999101551MD1999999-0011REMSYN076AAXX  18124 83498 32595 60507 10280 20225 30155 40160 82141 333 20228 59001;
0137834980999992005121818004-17733-039250FM-12+000399999V0200501N004612200019N0020001N1+03041+02281101331ADDGF104991011011008001001011MA1999999101281MD1999999-0051REMSYN070AAXX  18184 83498 32595 40509 10304 20228 30128 40133 81101 333 59005;
0168834980999992005121900004-17733-039250FM-12+000399999V0200501N001012200019N0020001N1+02601+02191101551ADDGF104991021011008001041001KA1240M+02921MA1999999101501MD1999999-0011REMSYN088AAXX  19004 83498 32595 40502 10260 20219 30150 40155 82140 333 10292 29073 55016 59001;
0156834980999992005121912004-17733-039250FM-12+000399999V0200501N003110450019N0020001N1+02841+02221101551ADDGF108991021051008001041011KA1240N+02251MA1999999101501MD1999999-0051REMSYN076AAXX  19124 83498 32595 80506 10284 20222 30150 40155 82541 333 20225 59005;
0137834980999992005121918004-17733-039250FM-12+000399999V0200501N005112200019N0020001N1+02961+02311101321ADDGF104991021011008001051011MA1999999101271MD1999999-0011REMSYN070AAXX  19184 83498 32595 40510 10296 20231 30127 40132 82151 333 59001;
0168834980999992005122000004-17733-039250FM-12+000399999V0200501N001512200019N0020001N1+02541+02351101561ADDGF103991031011008001001001KA1240M+03021MA1999999101511MD1999999+0011REMSYN088AAXX  20004 83498 32595 30503 10254 20235 30151 40156 83100 333 10302 29079 55054 58001;
0137834980999992005122018004-17733-039250FM-12+000399999V0200501N004112200019N0020001N1+02981+02331101421ADDGF103991031011008001001001MA1999999101371MD1999999+0101REMSYN070AAXX  20184 83498 32595 30508 10298 20233 30137 40142 83100 333 58010;
0178834980999992005122100004-17733-039250FM-12+000399999V0200501N001012200019N0020001N1+02541+02331101561ADDGA1001+999999999GF100991001001999999001001KA1240M+02961MA1999999101511MD1999999+0001REMSYN082AAXX  21004 83498 32995 00502 10254 20233 30151 40156 333 10296 29080 55084 58000;
0156834980999992005122112004-17733-039250FM-12+000399999V0200501N003612200019N0020001N1+02861+02231101681ADDGF104991021011008001001011KA1240N+02171MA1999999101631MD1999999+0011REMSYN076AAXX  21124 83498 32595 40507 10286 20223 30163 40168 82101 333 20217 58001;
0137834980999992005122118004-17733-039250FM-12+000399999V0200501N003112200019N0020001N1+03001+02321101431ADDGF101991011011008001001001MA1999999101381MD1999999+0011REMSYN070AAXX  21184 83498 32595 10506 10300 20232 30138 40143 81100 333 58001;
0178834980999992005122200004-17733-039250FM-12+000399999V0200501N001012200019N0020001N1+02501+02211101651ADDGA1001+999999999GF100991001001999999001001KA1240M+03041MA1999999101601MD1999999+0091REMSYN082AAXX  22004 83498 32995 00502 10250 20221 30160 40165 333 10304 29076 55090 58009;
0156834980999992005122212004-17733-039250FM-12+000399999V0200901N001010450019N0020001N1+02741+02171101681ADDGF106991041021008001041001KA1240N+02081MA1999999101631MD1999999+0001REMSYN076AAXX  22124 83498 32595 60902 10274 20217 30163 40168 84240 333 20208 58000;
0137834980999992005122218004-17733-039250FM-12+000399999V0200901N003110450019N0020001N1+02961+02311101481ADDGF106991021011008001041021MA1999999101431MD1999999+0051REMSYN070AAXX  22184 83498 32595 60906 10296 20231 30143 40148 82142 333 58005;
0168834980999992005122300004-17733-039250FM-12+000399999V0200501N002112200019N0020001N1+02581+02351101661ADDGF102991021011008001001001KA1240M+03031MA1999999101611MD1999999+0011REMSYN088AAXX  23004 83498 32595 20504 10258 20235 30161 40166 82100 333 10303 29078 55072 58001;
0201834980999992005122312004-17733-039250FM-12+000399999V0200501N003110450019N0020001N1+02821+02291101741ADDAA124000591AY161061AY221061GF106991021011008001041011KA1240N+02201MA1999999101691MD1999999+0061MW1211REMSYN088AAXX  23124 83498 21595 60506 10282 20229 30169 40174 72162 82141 333 20220 58006 69944;
0137834980999992005122318004-17733-039250FM-12+000399999V0200501N004110450019N0020001N1+02961+02311101421ADDGF107991031021008001041011MA1999999101371MD1999999-0061REMSYN070AAXX  23184 83498 32595 70508 10296 20231 30137 40142 83241 333 59006;
0168834980999992005122400004-17733-039250FM-12+000399999V0200501N001012200019N0020001N1+02561+02351101611ADDGF103991031011008001001001KA1240M+02971MA1999999101561MD1999999-0101REMSYN088AAXX  24004 83498 32595 30502 10256 20235 30156 40161 83100 333 10297 29079 55058 59010;
0201834980999992005122412004-17733-039250FM-12+000399999V0200901N001510450019N0020001N1+02741+02241101621ADDAA124009991AY161061AY221061GF107991031021008001041011KA1240N+02141MA1999999101571MD1999999-0121MW1211REMSYN088AAXX  24124 83498 21595 70903 10274 20224 30157 40162 72162 83241 333 20214 59012 60104;
0137834980999992005122418004-17733-039250FM-12+000399999V0200901N002612200019N0020001N1+02961+02311101231ADDGF102991021011008001001001MA1999999101181MD1999999-0191REMSYN070AAXX  24184 83498 32595 20905 10296 20231 30118 40123 82100 333 59019;
0178834980999992005122500004-17733-039250FM-12+000399999V0200501N001512200019N0020001N1+02481+02321101341ADDGA1001+999999999GF100991001001999999001001KA1240M+02991MA1999999101291MD1999999-0221REMSYN082AAXX  25004 83498 32995 00503 10248 20232 30129 40134 333 10299 29081 55058 59022;
0156834980999992005122512004-17733-039250FM-12+000399999V0200501N002610075019N0020001N1+02841+02221101501ADDGF105991051021008001001001KA1240N+02201MA1999999101451MD1999999-0121REMSYN076AAXX  25124 83498 32595 50505 10284 20222 30145 40150 85200 333 20220 59012;
0137834980999992005122518004-17733-039250FM-12+000399999V0200501N003612200019N0020001N1+02941+02211101131ADDGF102991021011008001001001MA1999999101081MD1999999-0101REMSYN070AAXX  25184 83498 32595 20507 10294 20221 30108 40113 82100 333 59010;
0168834980999992005122600004-17733-039250FM-12+000399999V0200501N001012200019N0020001N1+02481+02271101431ADDGF101991011011008001001001KA1240M+03051MA1999999101381MD1999999+0091REMSYN088AAXX  26004 83498 32595 10502 10248 20227 30138 40143 81100 333 10305 29075 55085 58009;
0156834980999992005122612004-17733-039250FM-12+000399999V0202701N001010450019N0020001N1+02741+02281101551ADDGF106991031021008001051011KA1240N+02171MA1999999101501MD1999999+0051REMSYN076AAXX  26124 83498 32595 62702 10274 20228 30150 40155 83251 333 20217 58005;
0182834980999992005122618004-17733-039250FM-12+000399999V0201801N004110450019N0020001N1+02681+02161101341ADDAA106008991AY161061AY221061GF107991041061008001011001MA1999999101291MD1999999+0211MW1211REMSYN082AAXX  26184 83498 21595 71808 10268 20216 30129 40134 72162 84610 333 58021 60091;
0168834980999992005122700004-17733-039250FM-12+000399999V0201801N001010075019N0020001N1+02561+02191101531ADDGF105991051061008001001001KA1240M+02811MA1999999101481MD1999999+0101REMSYN088AAXX  27004 83498 32595 51802 10256 20219 30148 40153 85600 333 10281 29077 55017 58010;
0201834980999992005122712004-17733-039250FM-12+000399999V0202301N001510450019N0020001N1+02481+02171101431ADDAA124030091AY161061AY221061GF106991021011008001051001KA1240N+02151MA1999999101381MD1999999-0121MW1211REMSYN088AAXX  27124 83498 21595 62303 10248 20217 30138 40143 72162 82150 333 20215 59012 60304;
0182834980999992005122718004-17733-039250FM-12+000399999V0201401N001510450019N0020001N1+02421+02111101201ADDAA106013091AY161061AY261061GF108991041061008001021999MA1999999101151MD1999999-0141MW1211REMSYN082AAXX  27184 83498 21595 81403 10242 20211 30115 40120 72166 8462/ 333 59014 60131;
0213834980999992005122800004-17733-039250FM-12+000399999V0209999C000010450019N0020001N1+02361+02121101431ADDAA106000891AY161061AY261061GF108991031061008001021999KA1240M+02691MA1999999101381MD1999999-0101MW1611REMSYN100AAXX  28004 83498 21595 80000 10236 20212 30138 40143 76166 8362/ 333 10269 29085 55001 59010 69981;
0201834980999992005122812004-17733-039250FM-12+000399999V0202301N000510450019N0020001N1+02521+02231101391ADDAA124015091AY161061AY261061GF108991041061008001021999KA1240N+02201MA1999999101341MD1999999-0041MW1211REMSYN088AAXX  28124 83498 21595 82301 10252 20223 30134 40139 72166 8462/ 333 20220 59004 60154;
0182834980999992005122818004-17733-039250FM-12+000399999V0201401N002610450019N0020001N1+02641+02231101311ADDAA106018091AY161061AY261061GF108991031061008001021999MA1999999101261MD1999999+0111MW1211REMSYN082AAXX  28184 83498 21595 81405 10264 20223 30126 40131 72166 8362/ 333 58011 60181;
0168834980999992005122900004-17733-039250FM-12+000399999V0201401N001010450019N0020001N1+02541+02211101501ADDGF107991031051008001021001KA1240M+02781MA1999999101451MD1999999+0071REMSYN088AAXX  29004 83498 32595 71402 10254 20221 30145 40150 83520 333 10278 29082 55000 58007;
0201834980999992005122912004-17733-039250FM-12+000399999V0200501N001510075019N0020001N1+02361+02141101551ADDAA124035191AY191061AY261061GF108991051071008001021999KA1240N+02071MA1999999101501MD1999999+0161MW1921REMSYN088AAXX  29124 83498 21595 80503 10236 20214 30150 40155 79296 8572/ 333 20207 58016 60354;
0137834980999992005122918004-17733-039250FM-12+000399999V0200901N002110450019N0020001N1+02541+02171101351ADDGF108991041051008001011999MA1999999101301MD1999999+0041REMSYN070AAXX  29184 83498 32595 80904 10254 20217 30130 40135 8451/ 333 58004;
0213834980999992005123000004-17733-039250FM-12+000399999V0201401N002610450019N0020001N1+02401+02211101571ADDAA106002091AY161061AY221061GF106991031051008001011001KA1240M+02771MA1999999101521MD1999999+0071MW1211REMSYN100AAXX  30004 83498 21595 61405 10240 20221 30152 40157 72162 83510 333 10277 29088 55000 58007 60021;
0201834980999992005123012004-17733-039250FM-12+000399999V0200501N000510450019N0020001N1+02481+02091101651ADDAA124015091AY161061AY261061GF108991041051008001011999KA1240N+02171MA1999999101601MD1999999+0101MW1211REMSYN088AAXX  30124 83498 21595 80501 10248 20209 30160 40165 72166 8451/ 333 20217 58010 60154;
0137834980999992005123018004-17733-039250FM-12+000399999V0200901N002110450019N0020001N1+02661+02181101491ADDGF108991031051008001011999MA1999999101441MD1999999+0141REMSYN070AAXX  30184 83498 32595 80904 10266 20218 30144 40149 8351/ 333 58014;
0156834980999992005123112004-17733-039250FM-12+000399999V0200901N002610450019N0020001N1+02821+02271101541ADDGF108991031021008001041999KA1240N+02301MA1999999101491MD1999999-0111REMSYN076AAXX  31124 83498 32595 80905 10282 20227 30149 40154 8324/ 333 20230 59011;
0137834980999992005123118004-17733-039250FM-12+000399999V0200501N003110450019N0020001N1+02961+02031101391ADDGF108991021011008001041011MA1999999101341MD1999999-0101REMSYN070AAXX  31184 83498 32595 80506 10296 20203 30134 40139 82141 333 59010;
