0072832880999992014010109154-13262-043408FM-16+044399999V0201901N001519999999Y999999999+02201+02001999999ADDMA1101401999990REMMET045SPECI SBLP 010915Z 19003KT CAVOK 22/20 Q1014=
0072832880999992014010110004-13262-043408FM-15+044399999V0209999C000019999999Y999999999+02501+01901999999ADDMA1101401999990REMMET045METAR SBLP 011000Z 00000KT CAVOK 25/19 Q1014=
0072832880999992014010111004-13262-043408FM-15+044399999V0209999C000019999999Y999999999+02801+01901999999ADDMA1101501999990REMMET045METAR SBLP 011100Z 00000KT CAVOK 28/19 Q1015=
0111832880999992014010112004-13267-043417FM-12+044199999V0200901N0005122000199020000199+02821+02111101121ADDAA101999990AZ101061AZ201061GF100991999999999999999999KA1120N+02241MA1999990096301MD1909990-0041REMSYN004BUFR
0072832880999992014010112004-13262-043408FM-15+044399999V0201301N002119999999Y999999999+03001+02001999999ADDMA1101501999990REMMET045METAR SBLP 011200Z 13004KT CAVOK 30/20 Q1015=
0072832880999992014010113004-13262-043408FM-15+044399999V0201201N001519999999Y999999999+03201+01901999999ADDMA1101501999990REMMET045METAR SBLP 011300Z 12003KT CAVOK 32/19 Q1015=
0072832880999992014010114004-13262-043408FM-15+044399999V0201101N002119999999Y999999999+03301+01901999999ADDMA1101401999990REMMET045METAR SBLP 011400Z 11004KT CAVOK 33/19 Q1014=
0142832880999992014010115004-13262-043408FM-15+044399999V0202001N001519999999N009999199+03301+01701999999ADDGA1021+009141991GE19MSL   +99999+99999GF199999021990009141991991MA1101301999990REMMET051METAR SBLP 011500Z 20003KT 9999 FEW030 33/17 Q1013=
0142832880999992014010116004-13262-043408FM-15+044399999V0200901N003119999999N009999199+03401+01901999999ADDGA1021+009141991GE19MSL   +99999+99999GF199999021990009141991991MA1101301999990REMMET051METAR SBLP 011600Z 09006KT 9999 FEW030 34/19 Q1013=
0142832880999992014010117004-13262-043408FM-15+044399999V0202401N003119999999N009999199+03401+01801999999ADDGA1021+009141991GE19MSL   +99999+99999GF199999021990009141991991MA1101201999990REMMET051METAR SBLP 011700Z 24006KT 9999 FEW030 34/18 Q1012=
0136832880999992014010118004-13267-043417FM-12+044199999V0201401N0005100800199020000199+03291+01871100691ADDAA101999990AZ101061AZ201061GA1051+008001081GE19MSL   +99999+99999GF105991051990008001991991MA1999990095881MD1909990-0081REMSYN004BUFR
0142832880999992014010118004-13262-043408FM-15+044399999V0202101N003119999999N009999199+03401+01601999999ADDGA1021+009141991GE19MSL   +99999+99999GF199999021990009141991991MA1101101999990REMMET051METAR SBLP 011800Z 21006KT 9999 FEW030 34/16 Q1011=
0142832880999992014010119004-13262-043408FM-15+044399999V0201801N003119999999N009999199+03401+01501999999ADDGA1021+009141991GE19MSL   +99999+99999GF199999021990009141991991MA1101001999990REMMET051METAR SBLP 011900Z 18006KT 9999 FEW030 34/15 Q1010=
0142832880999992014010120004-13262-043408FM-15+044399999V0201801N004119999999N009999199+03301+01601999999ADDGA1021+009141991GE19MSL   +99999+99999GF199999021990009141991991MA1101001999990REMMET051METAR SBLP 012000Z 18008KT 9999 FEW030 33/16 Q1010=
0072832880999992014010121004-13262-043408FM-15+044399999V0201601N002119999999Y999999999+03201+01601999999ADDMA1101001999990REMMET045METAR SBLP 012100Z 16004KT CAVOK 32/16 Q1010=
0072832880999992014010209154-13262-043408FM-16+044399999V0209999C000019999999Y999999999+02001+01801999999ADDMA1101201999990REMMET045SPECI SBLP 020915Z 00000KT CAVOK 20/18 Q1012=
0072832880999992014010210004-13262-043408FM-15+044399999V0201801N002119999999Y999999999+02301+01701999999ADDMA1101301999990REMMET045METAR SBLP 021000Z 18004KT CAVOK 23/17 Q1013=
0072832880999992014010211004-13262-043408FM-15+044399999V0209999C000019999999Y999999999+02601+01701999999ADDMA1101301999990REMMET045METAR SBLP 021100Z 00000KT CAVOK 26/17 Q1013=
0149832880999992014010212004-13267-043417FM-12+044199999V0201801N0010199999999020000199+02771+01871101021ADDAA101999990AZ101061AZ201061GA1011+012501031GE19MSL   +99999+99999GF101991011990012501991991KA1120N+02081MA1999990096181MD1909990-0121REMSYN004BUFR
0072832880999992014010212004-13262-043408FM-15+044399999V0201401N002619999999Y999999999+03001+01701999999ADDMA1101401999990REMMET045METAR SBLP 021200Z 14005KT CAVOK 30/17 Q1014=
0072832880999992014010213004-13262-043408FM-15+044399999V0201001N003119999999Y999999999+03101+01801999999ADDMA1101401999990REMMET045METAR SBLP 021300Z 10006KT CAVOK 31/18 Q1014=
0072832880999992014010214004-13262-043408FM-15+044399999V0201701N001519999999Y999999999+03201+01701999999ADDMA1101301999990REMMET045METAR SBLP 021400Z 17003KT CAVOK 32/17 Q1013=
0142832880999992014010215004-13262-043408FM-15+044399999V0202401N002119999999N009999199+03301+01701999999ADDGA1021+009141991GE19MSL   +99999+99999GF199999021990009141991991MA1101201999990REMMET051METAR SBLP 021500Z 24004KT 9999 FEW030 33/17 Q1012=
0142832880999992014010216004-13262-043408FM-15+044399999V0202101N002119999999N009999199+03201+01801999999ADDGA1021+009141991GE19MSL   +99999+99999GF199999021990009141991991MA1101201999990REMMET051METAR SBLP 021600Z 21004KT 9999 FEW030 32/18 Q1012=
0142832880999992014010217004-13262-043408FM-15+044399999V0202101N003619999999N009999199+03201+01701999999ADDGA1021+009141991GE19MSL   +99999+99999GF199999021990009141991991MA1101101999990REMMET051METAR SBLP 021700Z 21007KT 9999 FEW030 32/17 Q1011=
0098832880999992014010218004-13267-043417FM-12+044199999V0201801N0010122000199020000199+03221+01691100661ADDAA101999990AZ101061AZ201061GF100991999999999999999999MA1999990095841MD1909990-0041REMSYN004BUFR
0142832880999992014010218004-13262-043408FM-15+044399999V0202001N005119999999N009999199+03201+01501999999ADDGA1021+009141991GE19MSL   +99999+99999GF199999021990009141991991MA1101001999990REMMET051METAR SBLP 021800Z 20010KT 9999 FEW030 32/15 Q1010=
0142832880999992014010219004-13262-043408FM-15+044399999V0202201N004619999999N009999199+03201+01401999999ADDGA1021+009141991GE19MSL   +99999+99999GF199999021990009141991991MA1101001999990REMMET051METAR SBLP 021900Z 22009KT 9999 FEW030 32/14 Q1010=
0142832880999992014010220004-13262-043408FM-15+044399999V0201801N003619999999N009999199+03201+01601999999ADDGA1021+009141991GE19MSL   +99999+99999GF199999021990009141991991MA1100901999990REMMET051METAR SBLP 022000Z 18007KT 9999 FEW030 32/16 Q1009=
0072832880999992014010221004-13262-043408FM-15+044399999V0201801N002619999999Y999999999+03001+01701999999ADDMA1101001999990REMMET045METAR SBLP 022100Z 18005KT CAVOK 30/17 Q1010=
0072832880999992014010309154-13262-043408FM-16+044399999V0202101N002119999999Y999999999+02101+01901999999ADDMA1101301999990REMMET045SPECI SBLP 030915Z 21004KT CAVOK 21/19 Q1013=
0072832880999992014010310004-13262-043408FM-15+044399999V0202101N001519999999Y999999999+02201+01801999999ADDMA1101301999990REMMET045METAR SBLP 031000Z 21003KT CAVOK 22/18 Q1013=
0072832880999992014010311004-13262-043408FM-15+044399999V0201301N002119999999Y999999999+02601+01901999999ADDMA1101401999990REMMET045METAR SBLP 031100Z 13004KT CAVOK 26/19 Q1014=
0111832880999992014010312004-13267-043417FM-12+044199999V0200501N0010122000199020000199+02741+01771101041ADDAA101999990AZ101061AZ201061GF100991999999999999999999KA1120N+02141MA1999990096201MD1909990+0021REMSYN004BUFR
0072832880999992014010312004-13262-043408FM-15+044399999V0201101N002619999999Y999999999+02701+01701999999ADDMA1101401999990REMMET045METAR SBLP 031200Z 11005KT CAVOK 27/17 Q1014=
0072832880999992014010313004-13262-043408FM-15+044399999V0200101N003119999999Y999999999+02801+01701999999ADDMA1101401999990REMMET045METAR SBLP 031300Z 01006KT CAVOK 28/17 Q1014=
0072832880999992014010314004-13262-043408FM-15+044399999V0202601N002619999999Y999999999+02901+01801999999ADDMA1101401999990REMMET045METAR SBLP 031400Z 26005KT CAVOK 29/18 Q1014=
0142832880999992014010316004-13262-043408FM-15+044399999V0202401N002119999999N009999199+03201+01901999999ADDGA1021+009141991GE19MSL   +99999+99999GF199999021990009141991991MA1101301999990REMMET051METAR SBLP 031600Z 24004KT 9999 FEW030 32/19 Q1013=
0142832880999992014010317004-13262-043408FM-15+044399999V0202701N001019999999N009999199+03301+01801999999ADDGA1021+009141991GE19MSL   +99999+99999GF199999021990009141991991MA1101201999990REMMET051METAR SBLP 031700Z 27002KT 9999 FEW030 33/18 Q1012=
0098832880999992014010318004-13267-043417FM-12+044199999V0202301N0010122000199020000199+03151+02081100791ADDAA101999990AZ101061AZ201061GF100991999999999999999999MA1999990095961MD1909990+0121REMSYN004BUFR
0142832880999992014010318004-13262-043408FM-15+044399999V0202501N002119999999N009999199+03301+01801999999ADDGA1021+009141991GE19MSL   +99999+99999GF199999021990009141991991MA1101101999990REMMET051METAR SBLP 031800Z 25004KT 9999 FEW030 33/18 Q1011=
0142832880999992014010319004-13262-043408FM-15+044399999V0201901N001019999999N009999199+03301+01801999999ADDGA1021+009141991GE19MSL   +99999+99999GF199999021990009141991991MA1101101999990REMMET051METAR SBLP 031900Z 19002KT 9999 FEW030 33/18 Q1011=
0142832880999992014010320004-13262-043408FM-15+044399999V0201801N003119999999N009999199+03301+01801999999ADDGA1021+009141991GE19MSL   +99999+99999GF199999021990009141991991MA1101101999990REMMET051METAR SBLP 032000Z 18006KT 9999 FEW030 33/18 Q1011=
0072832880999992014010321004-13262-043408FM-15+044399999V0201901N002119999999Y999999999+03201+02001999999ADDMA1101101999990REMMET045METAR SBLP 032100Z 19004KT CAVOK 32/20 Q1011=
0098832880999992014010400004-13267-043417FM-12+044199999V0201801N0010122000199002000199+02821+01981100971ADDAA101999990AZ101061AZ201061GF100991999999999999999999MA1999990096151MD1909990+0251REMSYN004BUFR
0111832880999992014010412004-13267-043417FM-12+044199999V0200901N0010122000199020000199+02771+01951101221ADDAA101999990AZ101061AZ201061GF100991999999999999999999KA1120N+02421MA1999990096391MD1909990+0191REMSYN004BUFR
0136832880999992014010418004-13267-043417FM-12+044199999V0202301N0010199999999020000199+03221+02081100941ADDAA101999990AZ101061AZ201061GA1011+008001081GE19MSL   +99999+99999GF101991011990008001991991MA1999990096111MD1909990+0151REMSYN004BUFR
0111832880999992014010512004-13267-043417FM-12+044199999V0200901N0026122000199020000199+02791+01971101271ADDAA101999990AZ101061AZ201061GF100991999999999999999999KA1120N+02161MA1999990096441MD1909990+0051REMSYN004BUFR
0136832880999992014010518004-13267-043417FM-12+044199999V0202301N0015100800199020000199+03121+02001101001ADDAA101999990AZ101061AZ201061GA1051+008001081GE19MSL   +99999+99999GF105991051990008001991991MA1999990096161MD1909990+0051REMSYN004BUFR
0072832880999992014010609154-13262-043408FM-16+044399999V0201201N002119999999Y999999999+02001+01801999999ADDMA1101501999990REMMET045SPECI SBLP 060915Z 12004KT CAVOK 20/18 Q1015=
0072832880999992014010610004-13262-043408FM-15+044399999V0201501N001019999999Y999999999+02301+01801999999ADDMA1101601999990REMMET045METAR SBLP 061000Z 15002KT CAVOK 23/18 Q1016=
0072832880999992014010611004-13262-043408FM-15+044399999V0201301N002119999999Y999999999+02701+02101999999ADDMA1101601999990REMMET045METAR SBLP 061100Z 13004KT CAVOK 27/21 Q1016=
0111832880999992014010612004-13267-043417FM-12+044199999V0200901N0015122000199020000199+02671+02011101291ADDAA101999990AZ101061AZ201061GF100991999999999999999999KA1120N+02061MA1999990096411MD1909990-0031REMSYN004BUFR
0072832880999992014010612004-13262-043408FM-15+044399999V0201201N002119999999Y999999999+02901+01901999999ADDMA1101601999990REMMET045METAR SBLP 061200Z 12004KT CAVOK 29/19 Q1016=
0142832880999992014010613004-13262-043408FM-15+044399999V0201701N002119999999N009999199+03001+01901999999ADDGA1021+009141991GE19MSL   +99999+99999GF199999021990009141991991MA1101601999990REMMET051METAR SBLP 061300Z 17004KT 9999 FEW030 30/19 Q1016=
0142832880999992014010614004-13262-043408FM-15+044399999V0209999C000019999999N009999199+03001+01801999999ADDGA1021+009141991GE19MSL   +99999+99999GF199999021990009141991991MA1101601999990REMMET051METAR SBLP 061400Z 00000KT 9999 FEW030 30/18 Q1016=
0142832880999992014010615004-13262-043408FM-15+044399999V0201501N001019999999N009999199+03201+01901999999ADDGA1041+009141991GE19MSL   +99999+99999GF199999041990009141991991MA1101501999990REMMET051METAR SBLP 061500Z 15002KT 9999 SCT030 32/19 Q1015=
0142832880999992014010616004-13262-043408FM-15+044399999V0202101N002119999999N009999199+02901+01801999999ADDGA1041+009141991GE19MSL   +99999+99999GF199999041990009141991991MA1101501999990REMMET051METAR SBLP 061600Z 21004KT 9999 SCT030 29/18 Q1015=
0142832880999992014010617004-13262-043408FM-15+044399999V0202201N002619999999N009999199+03001+01901999999ADDGA1041+009141991GE19MSL   +99999+99999GF199999041990009141991991MA1101401999990REMMET051METAR SBLP 061700Z 22005KT 9999 SCT030 30/19 Q1014=
0136832880999992014010618004-13267-043417FM-12+044199999V0201801N0010199999999020000199+03171+01981100921ADDAA101999990AZ101061AZ201061GA1041+008001081GE19MSL   +99999+99999GF104991041990008001991991MA1999990096081MD1909990-0081REMSYN004BUFR
0142832880999992014010618004-13262-043408FM-15+044399999V0202101N002619999999N009999199+03101+01901999999ADDGA1041+009141991GE19MSL   +99999+99999GF199999041990009141991991MA1101301999990REMMET051METAR SBLP 061800Z 21005KT 9999 SCT030 31/19 Q1013=
0142832880999992014010619004-13262-043408FM-15+044399999V0202101N002119999999N009999199+03201+01801999999ADDGA1041+009141991GE19MSL   +99999+99999GF199999041990009141991991MA1101201999990REMMET051METAR SBLP 061900Z 21004KT 9999 SCT030 32/18 Q1012=
0142832880999992014010620004-13262-043408FM-15+044399999V0201901N004619999999N009999199+03101+01901999999ADDGA1021+009141991GE19MSL   +99999+99999GF199999021990009141991991MA1101201999990REMMET051METAR SBLP 062000Z 19009KT 9999 FEW030 31/19 Q1012=
0142832880999992014010621004-13262-043408FM-15+044399999V0201801N003119999999N009999199+03001+01801999999ADDGA1021+009141991GE19MSL   +99999+99999GF199999021990009141991991MA1101301999990REMMET051METAR SBLP 062100Z 18006KT 9999 FEW030 30/18 Q1013=
0098832880999992014010700004-13267-043417FM-12+044199999V0201401N0015122000199002000199+02591+01911101041ADDAA101999990AZ101061AZ201061GF100991999999999999999999MA1999990096171MD1909990-0041REMSYN004BUFR
0072832880999992014010709154-13262-043408FM-16+044399999V0202101N002119999999Y999999999+02101+01801999999ADDMA1101501999990REMMET045SPECI SBLP 070915Z 21004KT CAVOK 21/18 Q1015=
0072832880999992014010710004-13262-043408FM-15+044399999V0201601N003119999999Y999999999+02101+01801999999ADDMA1101601999990REMMET045METAR SBLP 071000Z 16006KT CAVOK 21/18 Q1016=
0072832880999992014010711004-13262-043408FM-15+044399999V0201301N003619999999Y999999999+02401+01901999999ADDMA1101601999990REMMET045METAR SBLP 071100Z 13007KT CAVOK 24/19 Q1016=
0111832880999992014010712004-13267-043417FM-12+044199999V0201401N0005122000199020000199+02651+01921101251ADDAA101999990AZ101061AZ201061GF100991999999999999999999KA1120N+02041MA1999990096371MD1909990-0041REMSYN004BUFR
0072832880999992014010712004-13262-043408FM-15+044399999V0201101N002619999999Y999999999+02601+01901999999ADDMA1101601999990REMMET045METAR SBLP 071200Z 11005KT CAVOK 26/19 Q1016=
0142832880999992014010713004-13262-043408FM-15+044399999V0201001N002119999999N009999199+02701+01901999999ADDGA1021+009141991GE19MSL   +99999+99999GF199999021990009141991991MA1101601999990REMMET051METAR SBLP 071300Z 10004KT 9999 FEW030 27/19 Q1016=
0142832880999992014010714004-13262-043408FM-15+044399999V0201501N003619999999N009999199+02901+01901999999ADDGA1021+009141991GE19MSL   +99999+99999GF199999021990009141991991MA1101501999990REMMET051METAR SBLP 071400Z 15007KT 9999 FEW030 29/19 Q1015=
0142832880999992014010715004-13262-043408FM-15+044399999V0209999C000019999999N009999199+02901+01701999999ADDGA1041+009141991GE19MSL   +99999+99999GF199999041990009141991991MA1101501999990REMMET051METAR SBLP 071500Z 00000KT 9999 SCT030 29/17 Q1015=
0142832880999992014010716004-13262-043408FM-15+044399999V0201801N004119999999N009999199+03201+01501999999ADDGA1041+009141991GE19MSL   +99999+99999GF199999041990009141991991MA1101401999990REMMET051METAR SBLP 071600Z 18008KT 9999 SCT030 32/15 Q1014=
0142832880999992014010717004-13262-043408FM-15+044399999V0202401N003619999999N009999199+03301+01301999999ADDGA1021+009141991GE19MSL   +99999+99999GF199999021990009141991991MA1101301999990REMMET051METAR SBLP 071700Z 24007KT 9999 FEW030 33/13 Q1013=
0136832880999992014010718004-13267-043417FM-12+044199999V0201401N0015199999999020000199+03121+01761100901ADDAA101999990AZ101061AZ201061GA1021+008001081GE19MSL   +99999+99999GF102991021990008001991991MA1999990096041MD1909990-0041REMSYN004BUFR
0142832880999992014010718004-13262-043408FM-15+044399999V0202201N005119999999N009999199+03301+01501999999ADDGA1021+009141991GE19MSL   +99999+99999GF199999021990009141991991MA1101201999990REMMET051METAR SBLP 071800Z 22010KT 9999 FEW030 33/15 Q1012=
0142832880999992014010719004-13262-043408FM-15+044399999V0202101N004619999999N009999199+03301+01501999999ADDGA1021+009141991GE19MSL   +99999+99999GF199999021990009141991991MA1101201999990REMMET051METAR SBLP 071900Z 21009KT 9999 FEW030 33/15 Q1012=
0142832880999992014010720004-13262-043408FM-15+044399999V0201901N005719999999N009999199+03201+01501999999ADDGA1021+009141991GE19MSL   +99999+99999GF199999021990009141991991MA1101301999990REMMET051METAR SBLP 072000Z 19011KT 9999 FEW030 32/15 Q1013=
0142832880999992014010721004-13262-043408FM-15+044399999V0202101N003119999999N009999199+03101+01401999999ADDGA1021+009141991GE19MSL   +99999+99999GF199999021990009141991991MA1101201999990REMMET051METAR SBLP 072100Z 21006KT 9999 FEW030 31/14 Q1012=
0136832880999992014010800004-13267-043417FM-12+044199999V0203601N0000199999999002000199+02541+01821100951ADDAA101999990AZ101061AZ201061GA1021+008001081GE19MSL   +99999+99999GF102991021990008001991991MA1999990096091MD1909990-0081REMSYN004BUFR
0072832880999992014010809154-13262-043408FM-16+044399999V0202101N002119999999Y999999999+02001+01801999999ADDMA1101401999990REMMET045SPECI SBLP 080915Z 21004KT CAVOK 20/18 Q1014=
0072832880999992014010810004-13262-043408FM-15+044399999V0201801N002619999999Y999999999+02301+01901999999ADDMA1101501999990REMMET045METAR SBLP 081000Z 18005KT CAVOK 23/19 Q1015=
0072832880999992014010811004-13262-043408FM-15+044399999V0201901N002119999999Y999999999+02601+01801999999ADDMA1101501999990REMMET045METAR SBLP 081100Z 19004KT CAVOK 26/18 Q1015=
0111832880999992014010812004-13267-043417FM-12+044199999V0201801N0010122000199020000199+02601+01921101211ADDAA101999990AZ101061AZ201061GF100991999999999999999999KA1120N+02081MA1999990096341MD1909990-0031REMSYN004BUFR
0072832880999992014010812004-13262-043408FM-15+044399999V0201501N002119999999Y999999999+02801+01801999999ADDMA1101601999990REMMET045METAR SBLP 081200Z 15004KT CAVOK 28/18 Q1016=
0142832880999992014010813004-13262-043408FM-15+044399999V0201401N002619999999N009999199+02901+01801999999ADDGA1021+009141991GE19MSL   +99999+99999GF199999021990009141991991MA1101601999990REMMET051METAR SBLP 081300Z 14005KT 9999 FEW030 29/18 Q1016=
0142832880999992014010814004-13262-043408FM-15+044399999V0201901N001519999999N009999199+03101+01801999999ADDGA1021+009141991GE19MSL   +99999+99999GF199999021990009141991991MA1101501999990REMMET051METAR SBLP 081400Z 19003KT 9999 FEW030 31/18 Q1015=
0142832880999992014010815004-13262-043408FM-15+044399999V0201801N003119999999N009999199+03101+02001999999ADDGA1041+009141991GE19MSL   +99999+99999GF199999041990009141991991MA1101501999990REMMET051METAR SBLP 081500Z 18006KT 9999 SCT030 31/20 Q1015=
0142832880999992014010816004-13262-043408FM-15+044399999V0202701N004119999999N009999199+03001+01901999999ADDGA1041+009141991GE19MSL   +99999+99999GF199999041990009141991991MA1101401999990REMMET051METAR SBLP 081600Z 27008KT 9999 SCT030 30/19 Q1014=
0142832880999992014010817004-13262-043408FM-15+044399999V0202501N003619999999N009999199+03101+01901999999ADDGA1041+009141991GE19MSL   +99999+99999GF199999041990009141991991MA1101301999990REMMET051METAR SBLP 081700Z 25007KT 9999 SCT030 31/19 Q1013=
0136832880999992014010818004-13267-043417FM-12+044199999V0202301N0010199999999020000199+03071+02001100921ADDAA101999990AZ101061AZ201061GA1041+008001081GE19MSL   +99999+99999GF104991041990008001991991MA1999990096061MD1909990+0021REMSYN004BUFR
0142832880999992014010818004-13262-043408FM-15+044399999V0202301N003610091419N009999199+03001+01801999999ADDGA1071+009141991GE19MSL   +99999+99999GF199999071990009141991991MA1101201999990REMMET051METAR SBLP 081800Z 23007KT 9999 BKN030 30/18 Q1012=
0142832880999992014010819004-13262-043408FM-15+044399999V0202101N002110091419N009999199+03101+01901999999ADDGA1071+009141991GE19MSL   +99999+99999GF199999071990009141991991MA1101201999990REMMET051METAR SBLP 081900Z 21004KT 9999 BKN030 31/19 Q1012=
0142832880999992014010820004-13262-043408FM-15+044399999V0201601N005119999999N009999199+02901+01801999999ADDGA1041+009141991GE19MSL   +99999+99999GF199999041990009141991991MA1101201999990REMMET051METAR SBLP 082000Z 16010KT 9999 SCT030 29/18 Q1012=
0142832880999992014010821004-13262-043408FM-15+044399999V0202201N005119999999N009999199+02901+01801999999ADDGA1021+009141991GE19MSL   +99999+99999GF199999021990009141991991MA1101201999990REMMET051METAR SBLP 082100Z 22010KT 9999 FEW030 29/18 Q1012=
0098832880999992014010900004-13267-043417FM-12+044199999V0201801N0015122000199002000199+02621+01841100931ADDAA101999990AZ101061AZ201061GF100991999999999999999999MA1999990096071MD1909990-0021REMSYN004BUFR
0072832880999992014010909154-13262-043408FM-16+044399999V0201601N001519999999Y999999999+02001+01801999999ADDMA1101401999990REMMET045SPECI SBLP 090915Z 16003KT CAVOK 20/18 Q1014=
0072832880999992014010910004-13262-043408FM-15+044399999V0201801N003119999999Y999999999+02201+01901999999ADDMA1101401999990REMMET045METAR SBLP 091000Z 18006KT CAVOK 22/19 Q1014=
0072832880999992014010911004-13262-043408FM-15+044399999V0201801N002619999999Y999999999+02401+01901999999ADDMA1101501999990REMMET045METAR SBLP 091100Z 18005KT CAVOK 24/19 Q1015=
0111832880999992014010912004-13267-043417FM-12+044199999V0201801N0010122000199020000199+02571+02041101171ADDAA101999990AZ101061AZ201061GF100991999999999999999999KA1120N+02061MA1999990096301MD1909990-0041REMSYN004BUFR
0072832880999992014010912004-13262-043408FM-15+044399999V0209999C000019999999Y999999999+02601+02001999999ADDMA1101501999990REMMET045METAR SBLP 091200Z 00000KT CAVOK 26/20 Q1015=
0142832880999992014010913004-13262-043408FM-15+044399999V0200701N001519999999N009999199+02701+01901999999ADDGA1021+009141991GE19MSL   +99999+99999GF199999021990009141991991MA1101501999990REMMET051METAR SBLP 091300Z 07003KT 9999 FEW030 27/19 Q1015=
0142832880999992014010914004-13262-043408FM-15+044399999V0202201N002619999999N009999199+02801+02001999999ADDGA1041+009141991GE19MSL   +99999+99999GF199999041990009141991991MA1101401999990REMMET051METAR SBLP 091400Z 22005KT 9999 SCT030 28/20 Q1014=
0142832880999992014010915004-13262-043408FM-15+044399999V0202701N002619999999N009999199+02901+02001999999ADDGA1041+009141991GE19MSL   +99999+99999GF199999041990009141991991MA1101401999990REMMET051METAR SBLP 091500Z 27005KT 9999 SCT030 29/20 Q1014=
0142832880999992014010916004-13262-043408FM-15+044399999V0202501N002119999999N009999199+03101+01901999999ADDGA1041+009141991GE19MSL   +99999+99999GF199999041990009141991991MA1101301999990REMMET051METAR SBLP 091600Z 25004KT 9999 SCT030 31/19 Q1013=
0142832880999992014010917004-13262-043408FM-15+044399999V0202101N002619999999N009999199+03201+01901999999ADDGA1041+009141991GE19MSL   +99999+99999GF199999041990009141991991MA1101201999990REMMET051METAR SBLP 091700Z 21005KT 9999 SCT030 32/19 Q1012=
0152832880999992014010918004-13267-043417FM-12+044199999V0202301N0005199999999020000199+03091+02081100711ADDAA101999990AZ101061AZ201061GA1021+004501081GA2991+999991051GE19MSL   +99999+99999GF104991021990004501991991MA1999990095881MD1909990-0181REMSYN004BUFR
0142832880999992014010918004-13262-043408FM-15+044399999V0202401N003119999999N009999199+03301+01901999999ADDGA1041+009141991GE19MSL   +99999+99999GF199999041990009141991991MA1101101999990REMMET051METAR SBLP 091800Z 24006KT 9999 SCT030 33/19 Q1011=
0142832880999992014010919004-13262-043408FM-15+044399999V0202601N002619999999N009999199+03301+01901999999ADDGA1041+009141991GE19MSL   +99999+99999GF199999041990009141991991MA1101001999990REMMET051METAR SBLP 091900Z 26005KT 9999 SCT030 33/19 Q1010=
0176832880999992014010920004-13262-043408FM-15+044399999V0202001N005119999999N009999199+03101+02001999999ADDGA1041+009141991GA2021+012191091GE19MSL   +99999+99999GF199999041990009141991991MA1101001999990MW1171REMMET063METAR SBLP 092000Z 20010KT 9999 TS SCT030 FEW040CB 31/20 Q1010=
0142832880999992014010921004-13262-043408FM-15+044399999V0200901N003119999999N009999199+02801+02101999999ADDGA1041+009141991GE19MSL   +99999+99999GF199999041990009141991991MA1101101999990REMMET051METAR SBLP 092100Z 09006KT 9999 SCT030 28/21 Q1011=
0152832880999992014011000004-13267-043417FM-12+044199999V0202301N0010199999999002000199+02591+02011100971ADDAA101999990AZ101061AZ201061GA1021+008001081GA2991+999991051GE19MSL   +99999+99999GF103991021990008001991991MA1999990096111MD1909990+0041REMSYN004BUFR
0072832880999992014011009154-13262-043408FM-16+044399999V0202201N001519999999Y999999999+02101+01901999999ADDMA1101401999990REMMET045SPECI SBLP 100915Z 22003KT CAVOK 21/19 Q1014=
0072832880999992014011010004-13262-043408FM-15+044399999V0202001N001519999999Y999999999+02301+01901999999ADDMA1101501999990REMMET045METAR SBLP 101000Z 20003KT CAVOK 23/19 Q1015=
0072832880999992014011011004-13262-043408FM-15+044399999V0201901N002119999999Y999999999+02501+01901999999ADDMA1101501999990REMMET045METAR SBLP 101100Z 19004KT CAVOK 25/19 Q1015=
0181832880999992014011012004-13267-043417FM-12+044199999V0201801N0010199999999020000199+02591+02091101231ADDAA101999990AZ101061AZ201061GA1011+008001081GA2991+999991021GA3991+999991031GE19MSL   +99999+99999GF105991011990008001991991KA1120N+02121MA1999990096351MD1909990+0051REMSYN004BUFR
0072832880999992014011012004-13262-043408FM-15+044399999V0201201N001519999999Y999999999+02801+01901999999ADDMA1101501999990REMMET045METAR SBLP 101200Z 12003KT CAVOK 28/19 Q1015=
0072832880999992014011013004-13262-043408FM-15+044399999V0201001N003119999999Y999999999+03001+02001999999ADDMA1101501999990REMMET045METAR SBLP 101300Z 10006KT CAVOK 30/20 Q1015=
0142832880999992014011014004-13262-043408FM-15+044399999V0201201N002119999999N009999199+03101+02001999999ADDGA1021+009141991GE19MSL   +99999+99999GF199999021990009141991991MA1101501999990REMMET051METAR SBLP 101400Z 12004KT 9999 FEW030 31/20 Q1015=
0142832880999992014011015004-13262-043408FM-15+044399999V0201301N001519999999N009999199+03301+01801999999ADDGA1041+009141991GE19MSL   +99999+99999GF199999041990009141991991MA1101401999990REMMET051METAR SBLP 101500Z 13003KT 9999 SCT030 33/18 Q1014=
0142832880999992014011016004-13262-043408FM-15+044399999V0200601N004119999999N009999199+03001+02001999999ADDGA1041+009141991GE19MSL   +99999+99999GF199999041990009141991991MA1101401999990REMMET051METAR SBLP 101600Z 06008KT 9999 SCT030 30/20 Q1014=
0142832880999992014011017004-13262-043408FM-15+044399999V0203501N002619999999N009999199+03101+01901999999ADDGA1041+009141991GE19MSL   +99999+99999GF199999041990009141991991MA1101201999990REMMET051METAR SBLP 101700Z 35005KT 9999 SCT030 31/19 Q1012=
0152832880999992014011018004-13267-043417FM-12+044199999V0203601N0005199999999020000199+03191+02141100811ADDAA101999990AZ101061AZ201061GA1031+008001081GA2991+999991021GE19MSL   +99999+99999GF104991031990008001991991MA1999990095961MD1909990+0081REMSYN004BUFR
0142832880999992014011018004-13262-043408FM-15+044399999V0203601N004119999999N009999199+03201+01901999999ADDGA1041+009141991GE19MSL   +99999+99999GF199999041990009141991991MA1101101999990REMMET051METAR SBLP 101800Z 36008KT 9999 SCT030 32/19 Q1011=
0142832880999992014011019004-13262-043408FM-15+044399999V0203601N003610091419N009999199+03101+02001999999ADDGA1071+009141991GE19MSL   +99999+99999GF199999071990009141991991MA1101101999990REMMET051METAR SBLP 101900Z 36007KT 9999 BKN030 31/20 Q1011=
0165832880999992014011020004-13262-043408FM-15+044399999V0201501N004110091419N009999199+02801+02001999999ADDGA1071+009141991GA2041+030481991GE19MSL   +99999+99999GF199999071990009141991991MA1101101999990REMMET058METAR SBLP 102000Z 15008KT 9999 BKN030 SCT100 28/20 Q1011=
0165832880999992014011021004-13262-043408FM-15+044399999V0201201N002610304819N009999199+02801+02101999999ADDGA1041+009141991GA2071+030481991GE19MSL   +99999+99999GF199999041990009141991991MA1101101999990REMMET058METAR SBLP 102100Z 12005KT 9999 SCT030 BKN100 28/21 Q1011=
0136832880999992014011100004-13267-043417FM-12+044199999V0203601N0000199999999002000199+02501+02161100961ADDAA101999990AZ101061AZ201061GA1991+025001021GE19MSL   +99999+99999GF102991990990025001991991MA1999990096091MD1909990-0021REMSYN004BUFR
0181832880999992014011112004-13267-043417FM-12+044199999V0200501N0010199999999020000199+02721+02131101341ADDAA101999990AZ101061AZ201061GA1021+008001081GA2991+999991021GA3991+999991031GE19MSL   +99999+99999GF105991021990008001991991KA1120N+02241MA1999990096461MD1909990+0111REMSYN004BUFR
0168832880999992014011118004-13267-043417FM-12+044199999V0202301N0010199999999020000199+03191+02171100951ADDAA101999990AZ101061AZ201061GA1041+008001081GA2991+999991021GA3991+999991051GE19MSL   +99999+99999GF106991041990008001991991MA1999990096131MD1909990+0171REMSYN004BUFR
0181832880999992014011212004-13267-043417FM-12+044199999V0200901N0005199999999020000199+02721+01911101431ADDAA101999990AZ101061AZ201061GA1011+008001081GA2991+999991031GA3991+999991001GE19MSL   +99999+99999GF104991011990008001991991KA1120N+02141MA1999990096571MD1909990+0111REMSYN004BUFR
0152832880999992014011218004-13267-043417FM-12+044199999V0201801N0010199999999020000199+03171+02181101051ADDAA101999990AZ101061AZ201061GA1021+008001081GA2991+999991021GE19MSL   +99999+99999GF104991021990008001991991MA1999990096221MD1909990+0091REMSYN004BUFR
0072832880999992014011309154-13262-043408FM-16+044399999V0209999C000019999999Y999999999+02101+01801999999ADDMA1101801999990REMMET045SPECI SBLP 130915Z 00000KT CAVOK 21/18 Q1018=
0072832880999992014011310004-13262-043408FM-15+044399999V0201901N001519999999Y999999999+02201+01901999999ADDMA1101801999990REMMET045METAR SBLP 131000Z 19003KT CAVOK 22/19 Q1018=
0072832880999992014011311004-13262-043408FM-15+044399999V0201301N001519999999Y999999999+02601+02001999999ADDMA1101901999990REMMET045METAR SBLP 131100Z 13003KT CAVOK 26/20 Q1019=
0181832880999992014011312004-13267-043417FM-12+044199999V0200501N0015199999999020000199+02691+01981101551ADDAA101999990AZ101061AZ201061GA1031+008001081GA2991+999991001GA3991+999991051GE19MSL   +99999+99999GF106991031990008001991991KA1120N+02141MA1999990096681MD1909990+0111REMSYN004BUFR
0165832880999992014011312004-13262-043408FM-15+044399999V0200901N00211030481CN009999199+02701+02001999999ADDGA1021+009141991GA2041+030481991GE19MSL   +99999+99999GF199999021990009141991991MA1101901999990REMMET058METAR SBLP 131200Z 09004KT 9999 FEW030 SCT100 27/20 Q1019=
0165832880999992014011313004-13262-043408FM-15+044399999V0201201N001510304819N009999199+02801+02001999999ADDGA1021+009141991GA2071+030481991GE19MSL   +99999+99999GF199999021990009141991991MA1101901999990REMMET058METAR SBLP 131300Z 12003KT 9999 FEW030 BKN100 28/20 Q1019=
0165832880999992014011314004-13262-043408FM-15+044399999V0201201N002610304819N009999199+02901+02101999999ADDGA1021+009141991GA2071+030481991GE19MSL   +99999+99999GF199999021990009141991991MA1101901999990REMMET058METAR SBLP 131400Z 12005KT 9999 FEW030 BKN100 29/21 Q1019=
0165832880999992014011315004-13262-043408FM-15+044399999V0201301N00211030481CN009999199+03101+02101999999ADDGA1041+009141991GA2041+030481991GE19MSL   +99999+99999GF199999041990009141991991MA1101801999990REMMET058METAR SBLP 131500Z 13004KT 9999 SCT030 SCT100 31/21 Q1018=
0165832880999992014011316004-13262-043408FM-15+044399999V0201901N00311030481CN009999199+03401+02001999999ADDGA1041+009141991GA2041+030481991GE19MSL   +99999+99999GF199999041990009141991991MA1101701999990REMMET058METAR SBLP 131600Z 19006KT 9999 SCT030 SCT100 34/20 Q1017=
0165832880999992014011317004-13262-043408FM-15+044399999V0201501N00261030481CN009999199+03201+01701999999ADDGA1021+009141991GA2041+030481991GE19MSL   +99999+99999GF199999021990009141991991MA1101601999990REMMET058METAR SBLP 131700Z 15005KT 9999 FEW030 SCT100 32/17 Q1016=
0152832880999992014011318004-13267-043417FM-12+044199999V0203201N0005199999999020000199+03091+02151101211ADDAA101999990AZ101061AZ201061GA1041+004501081GA2991+999991051GE19MSL   +99999+99999GF107991041990004501991991MA1999990096361MD1909990+0141REMSYN004BUFR
0165832880999992014011318004-13262-043408FM-15+044399999V0201201N001510304819N009999199+03301+01901999999ADDGA1021+009141991GA2071+030481991GE19MSL   +99999+99999GF199999021990009141991991MA1101601999990REMMET058METAR SBLP 131800Z 12003KT 9999 FEW030 BKN100 33/19 Q1016=
0165832880999992014011319004-13262-043408FM-15+044399999V0209999C000010304819N009999199+03301+01801999999ADDGA1041+009141991GA2071+030481991GE19MSL   +99999+99999GF199999041990009141991991MA1101501999990REMMET058METAR SBLP 131900Z 00000KT 9999 SCT030 BKN100 33/18 Q1015=
0165832880999992014011320004-13262-043408FM-15+044399999V0201001N003610304819N009999199+03201+01901999999ADDGA1041+009141991GA2071+030481991GE19MSL   +99999+99999GF199999041990009141991991MA1101501999990REMMET058METAR SBLP 132000Z 10007KT 9999 SCT030 BKN100 32/19 Q1015=
0165832880999992014011321004-13262-043408FM-15+044399999V0200901N00311030481CN009999199+03101+01901999999ADDGA1021+009141991GA2041+030481991GE19MSL   +99999+99999GF199999021990009141991991MA1101601999990REMMET058METAR SBLP 132100Z 09006KT 9999 FEW030 SCT100 31/19 Q1016=
0136832880999992014011400004-13267-043417FM-12+044199999V0201401N0010199999999002000199+02651+01841101251ADDAA101999990AZ101061AZ201061GA1021+012501051GE19MSL   +99999+99999GF102991021990012501991991MA1999990096401MD1909990-0031REMSYN004BUFR
0142832880999992014011409154-13262-043408FM-16+044399999V0201401N002119999999N009999199+02101+01901999999ADDGA1021+006101991GE19MSL   +99999+99999GF199999021990006101991991MA1101801999990REMMET051SPECI SBLP 140915Z 14004KT 9999 FEW020 21/19 Q1018=
0072832880999992014011410004-13262-043408FM-15+044399999V0202001N001519999999Y999999999+02201+01901999999ADDMA1101801999990REMMET045METAR SBLP 141000Z 20003KT CAVOK 22/19 Q1018=
0072832880999992014011411004-13262-043408FM-15+044399999V0201801N003119999999Y999999999+02501+01901999999ADDMA1101801999990REMMET045METAR SBLP 141100Z 18006KT CAVOK 25/19 Q1018=
0149832880999992014011412004-13267-043417FM-12+044199999V0201801N0010199999999020000199+02591+02001101511ADDAA101999990AZ101061AZ201061GA1991+025001001GE19MSL   +99999+99999GF103991990990025001991991KA1120N+02141MA1999990096651MD1909990-0031REMSYN004BUFR
0072832880999992014011412004-13262-043408FM-15+044399999V0201901N003619999999Y999999999+02801+01901999999ADDMA1101901999990REMMET045METAR SBLP 141200Z 19007KT CAVOK 28/19 Q1019=
0142832880999992014011413004-13262-043408FM-15+044399999V0202001N005119999999N009999199+02901+01901999999ADDGA1021+009141991GE19MSL   +99999+99999GF199999021990009141991991MA1101901999990REMMET051METAR SBLP 141300Z 20010KT 9999 FEW030 29/19 Q1019=
0142832880999992014011414004-13262-043408FM-15+044399999V0201901N002119999999N009999199+03201+01701999999ADDGA1021+009141991GE19MSL   +99999+99999GF199999021990009141991991MA1101801999990REMMET051METAR SBLP 141400Z 19004KT 9999 FEW030 32/17 Q1018=
0142832880999992014011415004-13262-043408FM-15+044399999V0202501N003119999999N009999199+03201+01901999999ADDGA1041+009141991GE19MSL   +99999+99999GF199999041990009141991991MA1101801999990REMMET051METAR SBLP 141500Z 25006KT 9999 SCT030 32/19 Q1018=
0142832880999992014011416004-13262-043408FM-15+044399999V0209999C000019999999N009999199+03001+02001999999ADDGA1041+009141991GE19MSL   +99999+99999GF199999041990009141991991MA1101701999990REMMET051METAR SBLP 141600Z 00000KT 9999 SCT030 30/20 Q1017=
0142832880999992014011417004-13262-043408FM-15+044399999V0200801N003119999999N009999199+03001+02001999999ADDGA1041+009141991GE19MSL   +99999+99999GF199999041990009141991991MA1101601999990REMMET051METAR SBLP 141700Z 08006KT 9999 SCT030 30/20 Q1016=
0136832880999992014011418004-13267-043417FM-12+044199999V0201801N0005199999999020000199+03201+02191101111ADDAA101999990AZ101061AZ201061GA1031+008001081GE19MSL   +99999+99999GF103991031990008001991991MA1999990096261MD1909990-0101REMSYN004BUFR
0142832880999992014011418004-13262-043408FM-15+044399999V0202001N003619999999N009999199+03101+02101999999ADDGA1041+009141991GE19MSL   +99999+99999GF199999041990009141991991MA1101401999990REMMET051METAR SBLP 141800Z 20007KT 9999 SCT030 31/21 Q1014=
0142832880999992014011419004-13262-043408FM-15+044399999V0209999C000019999999N009999199+03201+02001999999ADDGA1041+009141991GE19MSL   +99999+99999GF199999041990009141991991MA1101401999990REMMET051METAR SBLP 141900Z 00000KT 9999 SCT030 32/20 Q1014=
0165832880999992014011420004-13262-043408FM-15+044399999V0201901N00261030481CN009999199+03101+02001999999ADDGA1041+009141991GA2041+030481991GE19MSL   +99999+99999GF199999041990009141991991MA1101301999990REMMET058METAR SBLP 142000Z 19005KT 9999 SCT030 SCT100 31/20 Q1013=
0165832880999992014011421004-13262-043408FM-15+044399999V0201501N00211030481CN009999199+03001+01901999999ADDGA1021+009141991GA2041+030481991GE19MSL   +99999+99999GF199999021990009141991991MA1101301999990REMMET058METAR SBLP 142100Z 15004KT 9999 FEW030 SCT100 30/19 Q1013=
0168832880999992014011500004-13267-043417FM-12+044199999V0201801N0015199999999002000199+02691+01541101121ADDAA101999990AZ101061AZ201061GA1011+008001081GA2991+999991021GA3991+999991031GE19MSL   +99999+99999GF104991011990008001991991MA1999990096261MD1909990-0141REMSYN004BUFR
0165832880999992014011509154-13262-043408FM-16+044399999V0209999C00001030481CN009999199+02201+02001999999ADDGA1021+006101991GA2041+030481991GE19MSL   +99999+99999GF199999021990006101991991MA1101501999990REMMET058SPECI SBLP 150915Z 00000KT 9999 FEW020 SCT100 22/20 Q1015=
0072832880999992014011510004-13262-043408FM-15+044399999V0201801N002619999999Y999999999+02201+02001999999ADDMA1101601999990REMMET045METAR SBLP 151000Z 18005KT CAVOK 22/20 Q1016=
0165832880999992014011511004-13262-043408FM-15+044399999V0201601N00211030481CN009999199+02401+02101999999ADDGA1021+006101991GA2041+030481991GE19MSL   +99999+99999GF199999021990006101991991MA1101601999990REMMET058METAR SBLP 151100Z 16004KT 9999 FEW020 SCT100 24/21 Q1016=
0165832880999992014011512004-13267-043417FM-12+044199999V0203601N0000199999999020000199+02541+02111101361ADDAA101999990AZ101061AZ201061GA1031+008001081GA2991+999991051GE19MSL   +99999+99999GF105991031990008001991991KA1120N+02241MA1999990096461MD1909990-0191REMSYN004BUFR
0165832880999992014011512004-13262-043408FM-15+044399999V0201901N00211030481CN009999199+02501+02101999999ADDGA1021+009141991GA2041+030481991GE19MSL   +99999+99999GF199999021990009141991991MA1101701999990REMMET058METAR SBLP 151200Z 19004KT 9999 FEW030 SCT100 25/21 Q1017=
0165832880999992014011513004-13262-043408FM-15+044399999V0200601N00311030481CN009999199+02701+02101999999ADDGA1041+009141991GA2041+030481991GE19MSL   +99999+99999GF199999041990009141991991MA1101701999990REMMET058METAR SBLP 151300Z 06006KT 9999 SCT030 SCT100 27/21 Q1017=
0165832880999992014011514004-13262-043408FM-15+044399999V0200901N003610304819N009999199+02701+02101999999ADDGA1041+009141991GA2071+030481991GE19MSL   +99999+99999GF199999041990009141991991MA1101701999990REMMET058METAR SBLP 151400Z 09007KT 9999 SCT030 BKN100 27/21 Q1017=
0165832880999992014011515004-13262-043408FM-15+044399999V0201701N003110304819N009999199+02801+02101999999ADDGA1041+009141991GA2071+030481991GE19MSL   +99999+99999GF199999041990009141991991MA1101601999990REMMET058METAR SBLP 151500Z 17006KT 9999 SCT030 BKN100 28/21 Q1016=
0165832880999992014011516004-13262-043408FM-15+044399999V0201301N002610304819N009999199+03101+02001999999ADDGA1041+009141991GA2071+030481991GE19MSL   +99999+99999GF199999041990009141991991MA1101601999990REMMET058METAR SBLP 151600Z 13005KT 9999 SCT030 BKN100 31/20 Q1016=
0165832880999992014011517004-13262-043408FM-15+044399999V0201401N003110304819N009999199+03001+02101999999ADDGA1021+009141991GA2071+030481991GE19MSL   +99999+99999GF199999021990009141991991MA1101501999990REMMET058METAR SBLP 151700Z 14006KT 9999 FEW030 BKN100 30/21 Q1015=
0152832880999992014011518004-13267-043417FM-12+044199999V0201401N0010199999999020000199+03001+02201101031ADDAA101999990AZ101061AZ201061GA1031+008001061GA2991+999991031GE19MSL   +99999+99999GF106991031990008001991991MA1999990096191MD1909990-0071REMSYN004BUFR
0165832880999992014011518004-13262-043408FM-15+044399999V0201201N00361030481CN009999199+03001+02201999999ADDGA1021+009141991GA2041+030481991GE19MSL   +99999+99999GF199999021990009141991991MA1101401999990REMMET058METAR SBLP 151800Z 12007KT 9999 FEW030 SCT100 30/22 Q1014=
0165832880999992014011519004-13262-043408FM-15+044399999V0201801N00311030481CN009999199+03201+02101999999ADDGA1021+009141991GA2041+030481991GE19MSL   +99999+99999GF199999021990009141991991MA1101401999990REMMET058METAR SBLP 151900Z 18006KT 9999 FEW030 SCT100 32/21 Q1014=
0142832880999992014011520004-13262-043408FM-15+044399999V0201501N003119999999N009999199+03201+02001999999ADDGA1021+009141991GE19MSL   +99999+99999GF199999021990009141991991MA1101301999990REMMET051METAR SBLP 152000Z 15006KT 9999 FEW030 32/20 Q1013=
0142832880999992014011521004-13262-043408FM-15+044399999V0201101N002619999999N009999199+03101+01901999999ADDGA1021+009141991GE19MSL   +99999+99999GF199999021990009141991991MA1101301999990REMMET051METAR SBLP 152100Z 11005KT 9999 FEW030 31/19 Q1013=
0136832880999992014011600004-13267-043417FM-12+044199999V0201401N0015199999999002000199+02591+02131101101ADDAA101999990AZ101061AZ201061GA1021+008001081GE19MSL   +99999+99999GF102991021990008001991991MA1999990096231MD1909990-0031REMSYN004BUFR
0165832880999992014011609154-13262-043408FM-16+044399999V0209999C00001030481CN009999199+02201+02101999999ADDGA1021+006101991GA2041+030481991GE19MSL   +99999+99999GF199999021990006101991991MA1101501999990REMMET058SPECI SBLP 160915Z 00000KT 9999 FEW020 SCT100 22/21 Q1015=
0165832880999992014011610004-13262-043408FM-15+044399999V0202201N00151030481CN009999199+02301+02001999999ADDGA1021+006101991GA2041+030481991GE19MSL   +99999+99999GF199999021990006101991991MA1101601999990REMMET058METAR SBLP 161000Z 22003KT 9999 FEW020 SCT100 23/20 Q1016=
0142832880999992014011611004-13262-043408FM-15+044399999V0209999C000019999999N009999199+02601+02001999999ADDGA1021+009141991GE19MSL   +99999+99999GF199999021990009141991991MA1101601999990REMMET051METAR SBLP 161100Z 00000KT 9999 FEW030 26/20 Q1016=
0181832880999992014011612004-13267-043417FM-12+044199999V0200901N0010199999999020000199+02721+02221101301ADDAA101999990AZ101061AZ201061GA1011+008001081GA2991+999991001GA3991+999991031GE19MSL   +99999+99999GF103991011990008001991991KA1120N+02221MA1999990096431MD1909990-0051REMSYN004BUFR
0072832880999992014011612004-13262-043408FM-15+044399999V0201501N002619999999Y999999999+02901+02101999999ADDMA1101601999990REMMET045METAR SBLP 161200Z 15005KT CAVOK 29/21 Q1016=
0142832880999992014011613004-13262-043408FM-15+044399999V0201001N003119999999N009999199+03101+02001999999ADDGA1021+009141991GE19MSL   +99999+99999GF199999021990009141991991MA1101701999990REMMET051METAR SBLP 161300Z 10006KT 9999 FEW030 31/20 Q1017=
0142832880999992014011614004-13262-043408FM-15+044399999V0202001N001519999999N009999199+03201+01901999999ADDGA1021+009141991GE19MSL   +99999+99999GF199999021990009141991991MA1101601999990REMMET051METAR SBLP 161400Z 20003KT 9999 FEW030 32/19 Q1016=
0165832880999992014011615004-13262-043408FM-15+044399999V0202801N00261030481CN009999199+03201+02001999999ADDGA1041+009141991GA2041+030481991GE19MSL   +99999+99999GF199999041990009141991991MA1101601999990REMMET058METAR SBLP 161500Z 28005KT 9999 SCT030 SCT100 32/20 Q1016=
0142832880999992014011616004-13262-043408FM-15+044399999V0209999C000010091419N009999199+03101+02001999999ADDGA1071+009141991GE19MSL   +99999+99999GF199999071990009141991991MA1101501999990REMMET051METAR SBLP 161600Z 00000KT 9999 BKN030 31/20 Q1015=
0142832880999992014011617004-13262-043408FM-15+044399999V0202201N002610091419N009999199+03101+02001999999ADDGA1071+009141991GE19MSL   +99999+99999GF199999071990009141991991MA1101401999990REMMET051METAR SBLP 161700Z 22005KT 9999 BKN030 31/20 Q1014=
0152832880999992014011618004-13267-043417FM-12+044199999V0201801N0010199999999020000199+03121+02261100941ADDAA101999990AZ101061AZ201061GA1021+008001081GA2991+999991021GE19MSL   +99999+99999GF105991021990008001991991MA1999990096101MD1909990-0091REMSYN004BUFR
0165832880999992014011618004-13262-043408FM-15+044399999V0202501N00261030481CN009999199+03101+02001999999ADDGA1041+009141991GA2041+030481991GE19MSL   +99999+99999GF199999041990009141991991MA1101301999990REMMET058METAR SBLP 161800Z 25005KT 9999 SCT030 SCT100 31/20 Q1013=
0165832880999992014011619004-13262-043408FM-15+044399999V0202601N00151030481CN009999199+03201+02101999999ADDGA1041+009141991GA2041+030481991GE19MSL   +99999+99999GF199999041990009141991991MA1101201999990REMMET058METAR SBLP 161900Z 26003KT 9999 SCT030 SCT100 32/21 Q1012=
0165832880999992014011620004-13262-043408FM-15+044399999V0209999C00001030481CN009999199+03201+02001999999ADDGA1021+009141991GA2041+030481991GE19MSL   +99999+99999GF199999021990009141991991MA1101201999990REMMET058METAR SBLP 162000Z 00000KT 9999 FEW030 SCT100 32/20 Q1012=
0142832880999992014011621004-13262-043408FM-15+044399999V0201501N003119999999N009999199+03101+02001999999ADDGA1021+009141991GE19MSL   +99999+99999GF199999021990009141991991MA1101201999990REMMET051METAR SBLP 162100Z 15006KT 9999 FEW030 31/20 Q1012=
0136832880999992014011700004-13267-043417FM-12+044199999V0201801N0010199999999002000199+02891+02221100931ADDAA101999990AZ101061AZ201061GA1991+025001021GE19MSL   +99999+99999GF102991990990025001991991MA1999990096111MD1909990-0121REMSYN004BUFR
0072832880999992014011709154-13262-043408FM-16+044399999V0209999C000019999999Y999999999+02101+01901999999ADDMA1101501999990REMMET045SPECI SBLP 170915Z 00000KT CAVOK 21/19 Q1015=
0072832880999992014011710004-13262-043408FM-15+044399999V0209999C000019999999Y999999999+02401+01901999999ADDMA1101501999990REMMET045METAR SBLP 171000Z 00000KT CAVOK 24/19 Q1015=
0072832880999992014011711004-13262-043408FM-15+044399999V0200901N003619999999Y999999999+02701+02001999999ADDMA1101601999990REMMET045METAR SBLP 171100Z 09007KT CAVOK 27/20 Q1016=
0111832880999992014011712004-13267-043417FM-12+044199999V0200901N0015122000199020000199+02851+02011101211ADDAA101999990AZ101061AZ201061GF100991999999999999999999KA1120N+02171MA1999990096401MD1909990-0031REMSYN004BUFR
0072832880999992014011712004-13262-043408FM-15+044399999V0201201N003119999999Y999999999+02901+02001999999ADDMA1101601999990REMMET045METAR SBLP 171200Z 12006KT CAVOK 29/20 Q1016=
0072832880999992014011713004-13262-043408FM-15+044399999V0200901N003619999999Y999999999+03001+02001999999ADDMA1101601999990REMMET045METAR SBLP 171300Z 09007KT CAVOK 30/20 Q1016=
0142832880999992014011714004-13262-043408FM-15+044399999V0209999C000019999999N009999199+03101+02001999999ADDGA1021+009141991GE19MSL   +99999+99999GF199999021990009141991991MA1101601999990REMMET051METAR SBLP 171400Z 00000KT 9999 FEW030 31/20 Q1016=
0142832880999992014011715004-13262-043408FM-15+044399999V0202101N002119999999N009999199+03201+02001999999ADDGA1021+009141991GE19MSL   +99999+99999GF199999021990009141991991MA1101501999990REMMET051METAR SBLP 171500Z 21004KT 9999 FEW030 32/20 Q1015=
0142832880999992014011716004-13262-043408FM-15+044399999V0202601N002619999999N009999199+03501+02301999999ADDGA1041+009141991GE19MSL   +99999+99999GF199999041990009141991991MA1101501999990REMMET051METAR SBLP 171600Z 26005KT 9999 SCT030 35/23 Q1015=
0142832880999992014011717004-13262-043408FM-15+044399999V0202501N002619999999N009999199+03501+01901999999ADDGA1041+009141991GE19MSL   +99999+99999GF199999041990009141991991MA1101301999990REMMET051METAR SBLP 171700Z 25005KT 9999 SCT030 35/19 Q1013=
0152832880999992014011718004-13267-043417FM-12+044199999V0203601N0000199999999020000199+03341+01981100861ADDAA101999990AZ101061AZ201061GA1041+008001081GA2991+999991051GE19MSL   +99999+99999GF104991041990008001991991MA1999990096061MD1909990-0041REMSYN004BUFR
0142832880999992014011718004-13262-043408FM-15+044399999V0202101N003619999999N009999199+03601+02001999999ADDGA1041+009141991GE19MSL   +99999+99999GF199999041990009141991991MA1101201999990REMMET051METAR SBLP 171800Z 21007KT 9999 SCT030 36/20 Q1012=
0142832880999992014011719004-13262-043408FM-15+044399999V0202701N002619999999N009999199+03601+01901999999ADDGA1021+009141991GE19MSL   +99999+99999GF199999021990009141991991MA1101201999990REMMET051METAR SBLP 171900Z 27005KT 9999 FEW030 36/19 Q1012=
0142832880999992014011720004-13262-043408FM-15+044399999V0202101N002119999999N009999199+03501+01701999999ADDGA1021+009141991GE19MSL   +99999+99999GF199999021990009141991991MA1101201999990REMMET051METAR SBLP 172000Z 21004KT 9999 FEW030 35/17 Q1012=
0142832880999992014011721004-13262-043408FM-15+044399999V0202001N003119999999N009999199+03401+01801999999ADDGA1021+009141991GE19MSL   +99999+99999GF199999021990009141991991MA1101201999990REMMET051METAR SBLP 172100Z 20006KT 9999 FEW030 34/18 Q1012=
0136832880999992014011800004-13267-043417FM-12+044199999V0203601N0000100800199002000199+02891+02041101071ADDAA101999990AZ101061AZ201061GA1051+008001081GE19MSL   +99999+99999GF105991051990008001991991MA1999990096261MD1909990+0151REMSYN004BUFR
0149832880999992014011812004-13267-043417FM-12+044199999V0201801N0010199999999020000199+02621+02081101191ADDAA101999990AZ101061AZ201061GA1991+025001001GE19MSL   +99999+99999GF104991990990025001991991KA1120N+02301MA1999990096331MD1909990-0071REMSYN004BUFR
0152832880999992014011818004-13267-043417FM-12+044199999V0202301N0005199999999020000199+03371+02061100781ADDAA101999990AZ101061AZ201061GA1021+008001081GA2991+999991021GE19MSL   +99999+99999GF104991021990008001991991MA1999990096001MD1909990-0061REMSYN004BUFR
0165832880999992014011912004-13267-043417FM-12+044199999V0202301N0010199999999020000199+02721+02181101121ADDAA101999990AZ101061AZ201061GA1021+012501031GA2991+999991021GE19MSL   +99999+99999GF104991021990012501991991KA1120N+02311MA1999990096291MD1909990-0041REMSYN004BUFR
0168832880999992014011918004-13267-043417FM-12+044199999V0201401N0010199999999020000199+03341+02061100721ADDAA101999990AZ101061AZ201061GA1031+004501081GA2991+999991021GA3991+999991051GE19MSL   +99999+99999GF106991031990004501991991MA1999990095931MD1909990-0071REMSYN004BUFR
0165832880999992014012009154-13262-043408FM-16+044399999V0201901N002610304819N009999199+02401+02201999999ADDGA1021+009141991GA2071+030481991GE19MSL   +99999+99999GF199999021990009141991991MA1101301999990REMMET058SPECI SBLP 200915Z 19005KT 9999 FEW030 BKN100 24/22 Q1013=
0165832880999992014012010004-13262-043408FM-15+044399999V0202101N004110304819N009999199+02401+02201999999ADDGA1021+009141991GA2071+030481991GE19MSL   +99999+99999GF199999021990009141991991MA1101401999990REMMET058METAR SBLP 201000Z 21008KT 9999 FEW030 BKN100 24/22 Q1014=
0165832880999992014012011004-13262-043408FM-15+044399999V0202001N00151030481CN009999199+02501+02201999999ADDGA1021+009141991GA2041+030481991GE19MSL   +99999+99999GF199999021990009141991991MA1101401999990REMMET058METAR SBLP 201100Z 20003KT 9999 FEW030 SCT100 25/22 Q1014=
0149832880999992014012012004-13267-043417FM-12+044199999V0201801N0005199999999020000199+02671+02251101121ADDAA101999990AZ101061AZ201061GA1991+025001021GE19MSL   +99999+99999GF106991990990025001991991KA1120N+02321MA1999990096271MD1909990-0021REMSYN004BUFR
0142832880999992014012012004-13262-043408FM-15+044399999V0202701N002119999999N009999199+02801+02201999999ADDGA1021+009141991GE19MSL   +99999+99999GF199999021990009141991991MA1101501999990REMMET051METAR SBLP 201200Z 27004KT 9999 FEW030 28/22 Q1015=
0142832880999992014012013004-13262-043408FM-15+044399999V0201201N001519999999N009999199+03101+02101999999ADDGA1021+009141991GE19MSL   +99999+99999GF199999021990009141991991MA1101501999990REMMET051METAR SBLP 201300Z 12003KT 9999 FEW030 31/21 Q1015=
0165832880999992014012014004-13262-043408FM-15+044399999V0209999C00001030481CN009999199+03201+02101999999ADDGA1021+009141991GA2041+030481991GE19MSL   +99999+99999GF199999021990009141991991MA1101401999990REMMET058METAR SBLP 201400Z 00000KT 9999 FEW030 SCT100 32/21 Q1014=
0165832880999992014012015004-13262-043408FM-15+044399999V0201601N001510304819N009999199+03201+02101999999ADDGA1041+009141991GA2071+030481991GE19MSL   +99999+99999GF199999041990009141991991MA1101401999990REMMET058METAR SBLP 201500Z 16003KT 9999 SCT030 BKN100 32/21 Q1014=
0165832880999992014012016004-13262-043408FM-15+044399999V0201301N002110304819N009999199+03201+02101999999ADDGA1041+009141991GA2071+030481991GE19MSL   +99999+99999GF199999041990009141991991MA1101301999990REMMET058METAR SBLP 201600Z 13004KT 9999 SCT030 BKN100 32/21 Q1013=
0165832880999992014012017004-13262-043408FM-15+044399999V0202001N00311030481CN009999199+03101+02101999999ADDGA1041+009141991GA2041+030481991GE19MSL   +99999+99999GF199999041990009141991991MA1101201999990REMMET058METAR SBLP 201700Z 20006KT 9999 SCT030 SCT100 31/21 Q1012=
0168832880999992014012018004-13267-043417FM-12+044199999V0202301N0005100450199020000199+03171+02271100761ADDAA101999990AZ101061AZ201061GA1081+004501061GA2991+999991101GA3991+999991101GE19MSL   +99999+99999GF108991081990004501991991MA1999990095951MD1909990+0021REMSYN004BUFR
0165832880999992014012018004-13262-043408FM-15+044399999V0209999C00001030481CN009999199+03101+02101999999ADDGA1041+009141991GA2041+030481991GE19MSL   +99999+99999GF199999041990009141991991MA1101201999990REMMET058METAR SBLP 201800Z 00000KT 9999 SCT030 SCT100 31/21 Q1012=
0165832880999992014012019004-13262-043408FM-15+044399999V0209999C000010304819N009999199+03101+02101999999ADDGA1041+009141991GA2071+030481991GE19MSL   +99999+99999GF199999041990009141991991MA1101101999990REMMET058METAR SBLP 201900Z 00000KT 9999 SCT030 BKN100 31/21 Q1011=
0198832880999992014012020004-13262-043408FM-15+044399999V0201301N00211009141CN008000199+02501+02301999999ADDGA1021+006101991GA2041+009141991GA3071+030481991GE19MSL   +99999+99999GF199999021990006101991991MA1101101999990MW1611REMMET069METAR SBLP 202000Z 13004KT 8000 -RA FEW020 SCT030 BKN100 25/23 Q1011=
0188832880999992014012021004-13262-043408FM-15+044399999V0202101N00261009141CN009999199+02401+02101999999ADDGA1021+006101991GA2041+009141991GA3071+030481991GE19MSL   +99999+99999GF199999021990006101991991MA1101201999990REMMET065METAR SBLP 202100Z 21005KT 9999 FEW020 SCT030 BKN100 24/21 Q1012=
0174832880999992014012100004-13267-043417FM-12+044199999V0202301N0005100800199002000199+02421+02201101071ADDAA106005031AY161061AY211061GA1081+008001061GA2991+999991101GA3991+999991101GE19MSL   +99999+99999GF108991081990008001991991MA1999990096191MD1909990+0091MW1131REMSYN004BUFR
0165832880999992014012109154-13262-043408FM-16+044399999V0201801N001510304819N009999199+02301+02201999999ADDGA1021+006101991GA2071+030481991GE19MSL   +99999+99999GF199999021990006101991991MA1101501999990REMMET058SPECI SBLP 210915Z 18003KT 9999 FEW020 BKN100 23/22 Q1015=
0165832880999992014012110004-13262-043408FM-15+044399999V0201501N002110304819N009999199+02301+02201999999ADDGA1021+006101991GA2071+030481991GE19MSL   +99999+99999GF199999021990006101991991MA1101501999990REMMET058METAR SBLP 211000Z 15004KT 9999 FEW020 BKN100 23/22 Q1015=
0165832880999992014012111004-13262-043408FM-15+044399999V0209999C00001030481CN009999199+02601+02201999999ADDGA1021+006101991GA2041+030481991GE19MSL   +99999+99999GF199999021990006101991991MA1101601999990REMMET058METAR SBLP 211100Z 00000KT 9999 FEW020 SCT100 26/22 Q1016=
0155832880999992014012112004-13267-043417FM-12+044199999V0201401N0005101250199020000199+02751+02361101241ADDAA124009031AY161061AY261061GA1071+012501031GE19MSL   +99999+99999GF107991071990012501991991KA1120N+02271MA1999990096361MD1909990+0091MW1011REMSYN004BUFR
0165832880999992014012112004-13262-043408FM-15+044399999V0200701N00261030481CN009999199+02801+02201999999ADDGA1021+006101991GA2041+030481991GE19MSL   +99999+99999GF199999021990006101991991MA1101601999990REMMET058METAR SBLP 211200Z 07005KT 9999 FEW020 SCT100 28/22 Q1016=
0165832880999992014012113004-13262-043408FM-15+044399999V0200501N00151030481CN009999199+02801+02201999999ADDGA1021+006101991GA2041+030481991GE19MSL   +99999+99999GF199999021990006101991991MA1101601999990REMMET058METAR SBLP 211300Z 05003KT 9999 FEW020 SCT100 28/22 Q1016=
0165832880999992014012114004-13262-043408FM-15+044399999V0201201N003110304819N009999199+02801+02201999999ADDGA1021+009141991GA2071+030481991GE19MSL   +99999+99999GF199999021990009141991991MA1101601999990REMMET058METAR SBLP 211400Z 12006KT 9999 FEW030 BKN100 28/22 Q1016=
0165832880999992014012115004-13262-043408FM-15+044399999V0201201N002610304819N009999199+02901+02301999999ADDGA1021+009141991GA2071+030481991GE19MSL   +99999+99999GF199999021990009141991991MA1101601999990REMMET058METAR SBLP 211500Z 12005KT 9999 FEW030 BKN100 29/23 Q1016=
0165832880999992014012116004-13262-043408FM-15+044399999V0201301N002610304819N009999199+03201+02401999999ADDGA1041+009141991GA2071+030481991GE19MSL   +99999+99999GF199999041990009141991991MA1101501999990REMMET058METAR SBLP 211600Z 13005KT 9999 SCT030 BKN100 32/24 Q1015=
0165832880999992014012117004-13262-043408FM-15+044399999V0200901N003110304819N009999199+03301+02001999999ADDGA1041+009141991GA2071+030481991GE19MSL   +99999+99999GF199999041990009141991991MA1101301999990REMMET058METAR SBLP 211700Z 09006KT 9999 SCT030 BKN100 33/20 Q1013=
0152832880999992014012118004-13267-043417FM-12+044199999V0201401N0010199999999020000199+03121+02181100911ADDAA101999990AZ101061AZ201061GA1031+004501081GA2991+999991051GE19MSL   +99999+99999GF106991031990004501991991MA1999990096091MD1909990+0141REMSYN004BUFR
0165832880999992014012118004-13262-043408FM-15+044399999V0201801N002110304819N009999199+03301+02101999999ADDGA1021+009141991GA2071+030481991GE19MSL   +99999+99999GF199999021990009141991991MA1101301999990REMMET058METAR SBLP 211800Z 18004KT 9999 FEW030 BKN100 33/21 Q1013=
0165832880999992014012119004-13262-043408FM-15+044399999V0201701N002110304819N009999199+03201+02101999999ADDGA1021+009141991GA2071+030481991GE19MSL   +99999+99999GF199999021990009141991991MA1101201999990REMMET058METAR SBLP 211900Z 17004KT 9999 FEW030 BKN100 32/21 Q1012=
0165832880999992014012120004-13262-043408FM-15+044399999V0201701N00211030481CN009999199+03101+02101999999ADDGA1021+009141991GA2041+030481991GE19MSL   +99999+99999GF199999021990009141991991MA1101101999990REMMET058METAR SBLP 212000Z 17004KT 9999 FEW030 SCT100 31/21 Q1011=
0165832880999992014012121004-13262-043408FM-15+044399999V0209999C00001030481CN009999199+03001+02101999999ADDGA1021+009141991GA2041+030481991GE19MSL   +99999+99999GF199999021990009141991991MA1101101999990REMMET058METAR SBLP 212100Z 00000KT 9999 FEW030 SCT100 30/21 Q1011=
0098832880999992014012200004-13267-043417FM-12+044199999V0201401N0005122000199002000199+02721+02231101121ADDAA101999990AZ101061AZ201061GF100991999999999999999999MA1999990096271MD1909990+0081REMSYN004BUFR
0165832880999992014012209154-13262-043408FM-16+044399999V0202101N00151030481CN009999199+02301+02101999999ADDGA1021+006101991GA2041+030481991GE19MSL   +99999+99999GF199999021990006101991991MA1101501999990REMMET058SPECI SBLP 220915Z 21003KT 9999 FEW020 SCT100 23/21 Q1015=
0165832880999992014012210004-13262-043408FM-15+044399999V0202001N00261030481CN009999199+02401+02101999999ADDGA1021+006101991GA2041+030481991GE19MSL   +99999+99999GF199999021990006101991991MA1101601999990REMMET058METAR SBLP 221000Z 20005KT 9999 FEW020 SCT100 24/21 Q1016=
0165832880999992014012211004-13262-043408FM-15+044399999V0209999C00001030481CN009999199+02701+02001999999ADDGA1021+009141991GA2041+030481991GE19MSL   +99999+99999GF199999021990009141991991MA1101601999990REMMET058METAR SBLP 221100Z 00000KT 9999 FEW030 SCT100 27/20 Q1016=
0181832880999992014012212004-13267-043417FM-12+044199999V0201801N0010199999999020000199+02701+02071101281ADDAA101999990AZ101061AZ201061GA1011+008001081GA2991+999991021GA3991+999991031GE19MSL   +99999+99999GF104991011990008001991991KA1120N+02321MA1999990096431MD1909990+0071REMSYN004BUFR
0142832880999992014012212004-13262-043408FM-15+044399999V0201601N003119999999N009999199+02901+02001999999ADDGA1021+009141991GE19MSL   +99999+99999GF199999021990009141991991MA1101601999990REMMET051METAR SBLP 221200Z 16006KT 9999 FEW030 29/20 Q1016=
0142832880999992014012213004-13262-043408FM-15+044399999V0201701N003619999999N009999199+03101+02001999999ADDGA1021+009141991GE19MSL   +99999+99999GF199999021990009141991991MA1101601999990REMMET051METAR SBLP 221300Z 17007KT 9999 FEW030 31/20 Q1016=
0142832880999992014012214004-13262-043408FM-15+044399999V0201401N002119999999N009999199+03101+02001999999ADDGA1021+009141991GE19MSL   +99999+99999GF199999021990009141991991MA1101601999990REMMET051METAR SBLP 221400Z 14004KT 9999 FEW030 31/20 Q1016=
0165832880999992014012215004-13262-043408FM-15+044399999V0202201N00151030481CN009999199+03301+02001999999ADDGA1041+009141991GA2041+030481991GE19MSL   +99999+99999GF199999041990009141991991MA1101501999990REMMET058METAR SBLP 221500Z 22003KT 9999 SCT030 SCT100 33/20 Q1015=
0165832880999992014012216004-13262-043408FM-15+044399999V0201801N004610304819N009999199+03201+02101999999ADDGA1041+009141991GA2071+030481991GE19MSL   +99999+99999GF199999041990009141991991MA1101501999990REMMET058METAR SBLP 221600Z 18009KT 9999 SCT030 BKN100 32/21 Q1015=
0165832880999992014012217004-13262-043408FM-15+044399999V0202501N003110304819N009999199+03201+01901999999ADDGA1041+009141991GA2071+030481991GE19MSL   +99999+99999GF199999041990009141991991MA1101401999990REMMET058METAR SBLP 221700Z 25006KT 9999 SCT030 BKN100 32/19 Q1014=
0152832880999992014012218004-13267-043417FM-12+044199999V0202701N0010199999999020000199+03271+01961100921ADDAA101999990AZ101061AZ201061GA1021+008001081GA2991+999991001GE19MSL   +99999+99999GF105991021990008001991991MA1999990096121MD1909990+0031REMSYN004BUFR
0165832880999992014012218004-13262-043408FM-15+044399999V0202701N00361030481CN009999199+03301+01701999999ADDGA1041+009141991GA2041+030481991GE19MSL   +99999+99999GF199999041990009141991991MA1101301999990REMMET058METAR SBLP 221800Z 27007KT 9999 SCT030 SCT100 33/17 Q1013=
0165832880999992014012219004-13262-043408FM-15+044399999V0202401N00311030481CN009999199+03301+01801999999ADDGA1021+009141991GA2041+030481991GE19MSL   +99999+99999GF199999021990009141991991MA1101201999990REMMET058METAR SBLP 221900Z 24006KT 9999 FEW030 SCT100 33/18 Q1012=
0142832880999992014012220004-13262-043408FM-15+044399999V0202101N002619999999N009999199+03301+01901999999ADDGA1021+009141991GE19MSL   +99999+99999GF199999021990009141991991MA1101101999990REMMET051METAR SBLP 222000Z 21005KT 9999 FEW030 33/19 Q1011=
0174832880999992014012300004-13267-043417FM-12+044199999V0201401N0021100800199002000199+02721+02011101141ADDAA101999990AY121061AY211061GA1051+008001071GA2991+999991101GA3991+999991051GE19MSL   +99999+99999GF108991051990008001991991MA1999990096291MD1909990+0021MW1171REMSYN004BUFR
0165832880999992014012309154-13262-043408FM-16+044399999V0201901N00211030481CN009999199+02201+02101999999ADDGA1021+009141991GA2041+030481991GE19MSL   +99999+99999GF199999021990009141991991MA1101501999990REMMET058SPECI SBLP 230915Z 19004KT 9999 FEW030 SCT100 22/21 Q1015=
0165832880999992014012310004-13262-043408FM-15+044399999V0201801N00311030481CN009999199+02301+02101999999ADDGA1021+009141991GA2041+030481991GE19MSL   +99999+99999GF199999021990009141991991MA1101601999990REMMET058METAR SBLP 231000Z 18006KT 9999 FEW030 SCT100 23/21 Q1016=
0165832880999992014012311004-13262-043408FM-15+044399999V0201901N00361030481CN009999199+02401+02101999999ADDGA1021+009141991GA2041+030481991GE19MSL   +99999+99999GF199999021990009141991991MA1101601999990REMMET058METAR SBLP 231100Z 19007KT 9999 FEW030 SCT100 24/21 Q1016=
0181832880999992014012312004-13267-043417FM-12+044199999V0201401N0010199999999020000199+02471+02151101291ADDAA101999990AZ101061AZ201061GA1031+008001081GA2991+999991001GA3991+999991051GE19MSL   +99999+99999GF106991031990008001991991KA1120N+02301MA1999990096411MD1909990-0021REMSYN004BUFR
0165832880999992014012312004-13262-043408FM-15+044399999V0201301N002110304819N009999199+02601+02101999999ADDGA1021+009141991GA2071+030481991GE19MSL   +99999+99999GF199999021990009141991991MA1101601999990REMMET058METAR SBLP 231200Z 13004KT 9999 FEW030 BKN100 26/21 Q1016=
0165832880999992014012313004-13262-043408FM-15+044399999V0201501N00361030481CN009999199+02901+02101999999ADDGA1021+009141991GA2041+030481991GE19MSL   +99999+99999GF199999021990009141991991MA1101601999990REMMET058METAR SBLP 231300Z 15007KT 9999 FEW030 SCT100 29/21 Q1016=
0165832880999992014012314004-13262-043408FM-15+044399999V0200301N00261030481CN009999199+03001+02101999999ADDGA1021+009141991GA2041+030481991GE19MSL   +99999+99999GF199999021990009141991991MA1101601999990REMMET058METAR SBLP 231400Z 03005KT 9999 FEW030 SCT100 30/21 Q1016=
0165832880999992014012315004-13262-043408FM-15+044399999V0201701N00151030481CN009999199+03101+02101999999ADDGA1041+009141991GA2041+030481991GE19MSL   +99999+99999GF199999041990009141991991MA1101501999990REMMET058METAR SBLP 231500Z 17003KT 9999 SCT030 SCT100 31/21 Q1015=
0165832880999992014012316004-13262-043408FM-15+044399999V0201001N00211030481CN009999199+03401+02001999999ADDGA1041+009141991GA2041+030481991GE19MSL   +99999+99999GF199999041990009141991991MA1101401999990REMMET058METAR SBLP 231600Z 10004KT 9999 SCT030 SCT100 34/20 Q1014=
0165832880999992014012317004-13262-043408FM-15+044399999V0201201N001510091419N009999199+03301+02001999999ADDGA1071+009141991GA2041+030481991GE19MSL   +99999+99999GF199999071990009141991991MA1101301999990REMMET058METAR SBLP 231700Z 12003KT 9999 BKN030 SCT100 33/20 Q1013=
0199832880999992014012317304-13262-043408FM-16+044399999V0201201N004110091419N009999199+03401+02001999999ADDGA1071+009141991GA2021+012191091GA3071+030481991GE19MSL   +99999+99999GF199999071990009141991991MA1101201999990MW1171REMMET070SPECI SBLP 231730Z 12008KT 9999 TS BKN030 FEW040CB BKN100 34/20 Q1012=
0174832880999992014012318004-13267-043417FM-12+044199999V0201401N0015100450199020000199+02621+02191100911ADDAA106001031AY191061AY261061GA1081+004501071GA2991+999991101GA3991+999991101GE19MSL   +99999+99999GF108991081990004501991991MA1999990096051MD1909990-0071MW1611REMSYN004BUFR
0207832880999992014012318004-13262-043408FM-15+044399999V0201301N006210091419N009000199+03001+01901999999ADDGA1071+009141991GA2021+012191091GA3071+030481991GE19MSL   +99999+99999GF199999071990009141991991MA1101301999990MW1951REMMET078METAR SBLP 231800Z 13012KT 9000 -TSRA BKN030 FEW040CB BKN100 30/19      Q1013=
0170832880999992014012319004-13262-043408FM-15+044399999V0201201N001510304819N009999199+02701+02401999999ADDGA1041+009141991GA2071+030481991GE19MSL   +99999+99999GF199999041990009141991991MA1101201999990REMMET063METAR SBLP 231900Z 12003KT 9999 SCT030 BKN100 27/24 Q1012 RETS=
0188832880999992014012320004-13262-043408FM-15+044399999V0200101N00461009141CN009999199+02601+02101999999ADDGA1021+006101991GA2041+009141991GA3071+030481991GE19MSL   +99999+99999GF199999021990006101991991MA1101201999990REMMET065METAR SBLP 232000Z 01009KT 9999 FEW020 SCT030 BKN100 26/21 Q1012=
0188832880999992014012321004-13262-043408FM-15+044399999V0203501N00211009141CN009999199+02601+02101999999ADDGA1021+006101991GA2041+009141991GA3071+030481991GE19MSL   +99999+99999GF199999021990006101991991MA1101201999990REMMET065METAR SBLP 232100Z 35004KT 9999 FEW020 SCT030 BKN100 26/21 Q1012=
0158832880999992014012400004-13267-043417FM-12+044199999V0201401N0021100800199002000199+02471+02291101111ADDAA106001031AY161061AY261061GA1061+008001071GA2991+999991041GE19MSL   +99999+99999GF106991061990008001991991MA1999990096221MD1909990-0071MW1011REMSYN004BUFR
0142832880999992014012409154-13262-043408FM-16+044399999V0202401N001519999999N009999199+02301+02201999999ADDGA1021+006101991GE19MSL   +99999+99999GF199999021990006101991991MA1101301999990REMMET051SPECI SBLP 240915Z 24003KT 9999 FEW020 23/22 Q1013=
0142832880999992014012410004-13262-043408FM-15+044399999V0202001N002119999999N009999199+02301+02201999999ADDGA1021+006101991GE19MSL   +99999+99999GF199999021990006101991991MA1101401999990REMMET051METAR SBLP 241000Z 20004KT 9999 FEW020 23/22 Q1014=
0142832880999992014012411004-13262-043408FM-15+044399999V0202101N002119999999N009999199+02601+02101999999ADDGA1021+009141991GE19MSL   +99999+99999GF199999021990009141991991MA1101401999990REMMET051METAR SBLP 241100Z 21004KT 9999 FEW030 26/21 Q1014=
0149832880999992014012412004-13267-043417FM-12+044199999V0201801N0010199999999020000199+02521+02121101131ADDAA124003031AZ101061AZ201061GA1991+025001021GE19MSL   +99999+99999GF105991990990025001991991KA1120N+02241MA1999990096241MD1909990-0171REMSYN004BUFR
0142832880999992014012412004-13262-043408FM-15+044399999V0201201N002619999999N009999199+02701+02001999999ADDGA1021+009141991GE19MSL   +99999+99999GF199999021990009141991991MA1101401999990REMMET051METAR SBLP 241200Z 12005KT 9999 FEW030 27/20 Q1014=
0165832880999992014012413004-13262-043408FM-15+044399999V0201301N00311030481CN009999199+02901+01901999999ADDGA1021+009141991GA2041+030481991GE19MSL   +99999+99999GF199999021990009141991991MA1101501999990REMMET058METAR SBLP 241300Z 13006KT 9999 FEW030 SCT100 29/19 Q1015=
0165832880999992014012414004-13262-043408FM-15+044399999V0201901N00261030481CN009999199+03101+02001999999ADDGA1021+009141991GA2041+030481991GE19MSL   +99999+99999GF199999021990009141991991MA1101401999990REMMET058METAR SBLP 241400Z 19005KT 9999 FEW030 SCT100 31/20 Q1014=
0165832880999992014012415004-13262-043408FM-15+044399999V0201901N003110304819N009999199+03101+01801999999ADDGA1021+009141991GA2071+030481991GE19MSL   +99999+99999GF199999021990009141991991MA1101401999990REMMET058METAR SBLP 241500Z 19006KT 9999 FEW030 BKN100 31/18 Q1014=
0165832880999992014012416004-13262-043408FM-15+044399999V0200901N003610304819N009999199+03001+01901999999ADDGA1021+009141991GA2071+030481991GE19MSL   +99999+99999GF199999021990009141991991MA1101301999990REMMET058METAR SBLP 241600Z 09007KT 9999 FEW030 BKN100 30/19 Q1013=
0165832880999992014012417004-13262-043408FM-15+044399999V0201201N003110304819N009999199+03001+01801999999ADDGA1021+009141991GA2071+030481991GE19MSL   +99999+99999GF199999021990009141991991MA1101201999990REMMET058METAR SBLP 241700Z 12006KT 9999 FEW030 BKN100 30/18 Q1012=
0152832880999992014012418004-13267-043417FM-12+044199999V0201801N0010199999999020000199+03121+01861100811ADDAA101999990AZ101061AZ201061GA1021+008001081GA2991+999991021GE19MSL   +99999+99999GF105991021990008001991991MA1999990095981MD1909990-0071REMSYN004BUFR
0165832880999992014012418004-13262-043408FM-15+044399999V0201601N002610304819N009999199+03201+01801999999ADDGA1021+009141991GA2071+030481991GE19MSL   +99999+99999GF199999021990009141991991MA1101101999990REMMET058METAR SBLP 241800Z 16005KT 9999 FEW030 BKN100 32/18 Q1011=
0165832880999992014012419004-13262-043408FM-15+044399999V0200601N00211030481CN009999199+03201+01801999999ADDGA1041+009141991GA2041+030481991GE19MSL   +99999+99999GF199999041990009141991991MA1101101999990REMMET058METAR SBLP 241900Z 06004KT 9999 SCT030 SCT100 32/18 Q1011=
0165832880999992014012420004-13262-043408FM-15+044399999V0201301N00211030481CN009999199+03101+01801999999ADDGA1021+009141991GA2041+030481991GE19MSL   +99999+99999GF199999021990009141991991MA1101101999990REMMET058METAR SBLP 242000Z 13004KT 9999 FEW030 SCT100 31/18 Q1011=
0165832880999992014012421004-13262-043408FM-15+044399999V0201101N00261030481CN009999199+03001+01801999999ADDGA1021+009141991GA2041+030481991GE19MSL   +99999+99999GF199999021990009141991991MA1101101999990REMMET058METAR SBLP 242100Z 11005KT 9999 FEW030 SCT100 30/18 Q1011=
0098832880999992014012500004-13267-043417FM-12+044199999V0201401N0010122000199002000199+02501+01831100851ADDAA101999990AZ101061AZ201061GF100991999999999999999999MA1999990095971MD1909990-0251REMSYN004BUFR
0165832880999992014012512004-13267-043417FM-12+044199999V0200501N0005199999999020000199+02591+01781101151ADDAA101999990AZ101061AZ201061GA1021+012501051GA2991+999991001GE19MSL   +99999+99999GF104991021990012501991991KA1120N+01961MA1999990096271MD1909990+0031REMSYN004BUFR
0168832880999992014012518004-13267-043417FM-12+044199999V0203201N0005199999999020000199+03321+01861100671ADDAA101999990AZ101061AZ201061GA1021+008001081GA2991+999991001GA3991+999991051GE19MSL   +99999+99999GF106991021990008001991991MA1999990095861MD1909990-0121REMSYN004BUFR
0171832880999992014012612004-13267-043417FM-12+044199999V0200901N0010199999999020000199+02701+01921101181ADDAA124000631AY151061AY251061GA1021+008001081GA2991+999991021GE19MSL   +99999+99999GF105991021990008001991991KA1120N+02181MA1999990096351MD1909990+0081MW1011REMSYN004BUFR
0152832880999992014012618004-13267-043417FM-12+044199999V0203601N0005199999999020000199+03201+01681100941ADDAA101999990AZ101061AZ201061GA1021+008001081GA2991+999991021GE19MSL   +99999+99999GF108991021990008001991991MA1999990096131MD1909990+0271REMSYN004BUFR
0142832880999992014012709154-13262-043408FM-16+044399999V0202101N001519999999N009999199+02001+01801999999ADDGA1021+009141991GE19MSL   +99999+99999GF199999021990009141991991MA1101601999990REMMET051SPECI SBLP 270915Z 21003KT 9999 FEW030 20/18 Q1016=
0072832880999992014012710004-13262-043408FM-15+044399999V0209999C000019999999Y999999999+02201+01801999999ADDMA1101601999990REMMET045METAR SBLP 271000Z 00000KT CAVOK 22/18 Q1016=
0072832880999992014012711004-13262-043408FM-15+044399999V0201401N001519999999Y999999999+02401+01701999999ADDMA1101701999990REMMET045METAR SBLP 271100Z 14003KT CAVOK 24/17 Q1017=
0149832880999992014012712004-13267-043417FM-12+044199999V0200901N0015199999999020000199+02751+01661101311ADDAA101999990AZ101061AZ201061GA1031+025001001GE19MSL   +99999+99999GF103991031990025001991991KA1120N+02061MA1999990096451MD1909990+0101REMSYN004BUFR
0072832880999992014012712004-13262-043408FM-15+044399999V0200901N002619999999Y999999999+02701+01501999999ADDMA1101701999990REMMET045METAR SBLP 271200Z 09005KT CAVOK 27/15 Q1017=
0072832880999992014012713004-13262-043408FM-15+044399999V0201201N004619999999Y999999999+02901+01601999999ADDMA1101701999990REMMET045METAR SBLP 271300Z 12009KT CAVOK 29/16 Q1017=
0142832880999992014012714004-13262-043408FM-15+044399999V0200801N006219999999N009999199+03001+01601999999ADDGA1021+009141991GE19MSL   +99999+99999GF199999021990009141991991MA1101701999990REMMET051METAR SBLP 271400Z 08012KT 9999 FEW030 30/16 Q1017=
0142832880999992014012715004-13262-043408FM-15+044399999V0200801N003619999999N009999199+03101+01601999999ADDGA1021+009141991GE19MSL   +99999+99999GF199999021990009141991991MA1101601999990REMMET051METAR SBLP 271500Z 08007KT 9999 FEW030 31/16 Q1016=
0142832880999992014012716004-13262-043408FM-15+044399999V0201801N003119999999N009999199+03301+01601999999ADDGA1021+009141991GE19MSL   +99999+99999GF199999021990009141991991MA1101501999990REMMET051METAR SBLP 271600Z 18006KT 9999 FEW030 33/16 Q1015=
0142832880999992014012717004-13262-043408FM-15+044399999V0202201N001519999999N009999199+03501+01601999999ADDGA1041+009141991GE19MSL   +99999+99999GF199999041990009141991991MA1101401999990REMMET051METAR SBLP 271700Z 22003KT 9999 SCT030 35/16 Q1014=
0168832880999992014012718004-13267-043417FM-12+044199999V0201401N0010199999999020000199+03291+01761100921ADDAA101999990AZ101061AZ201061GA1031+008001061GA2991+999991021GA3991+999991051GE19MSL   +99999+99999GF107991031990008001991991MA1999990096101MD1909990-0031REMSYN004BUFR
0165832880999992014012718004-13262-043408FM-15+044399999V0201201N00311030481CN009999199+03401+01601999999ADDGA1041+009141991GA2041+030481991GE19MSL   +99999+99999GF199999041990009141991991MA1101301999990REMMET058METAR SBLP 271800Z 12006KT 9999 SCT030 SCT100 34/16 Q1013=
0165832880999992014012719004-13262-043408FM-15+044399999V0202601N002110304819N009999199+03201+01601999999ADDGA1041+009141991GA2071+030481991GE19MSL   +99999+99999GF199999041990009141991991MA1101201999990REMMET058METAR SBLP 271900Z 26004KT 9999 SCT030 BKN100 32/16 Q1012=
0165832880999992014012720004-13262-043408FM-15+044399999V0202301N00211030481CN009999199+02901+01601999999ADDGA1041+009141991GA2041+030481991GE19MSL   +99999+99999GF199999041990009141991991MA1101201999990REMMET058METAR SBLP 272000Z 23004KT 9999 SCT030 SCT100 29/16 Q1012=
0165832880999992014012721004-13262-043408FM-15+044399999V0200301N003610304819N009999199+02801+01701999999ADDGA1041+009141991GA2071+030481991GE19MSL   +99999+99999GF199999041990009141991991MA1101201999990REMMET058METAR SBLP 272100Z 03007KT 9999 SCT030 BKN100 28/17 Q1012=
0136832880999992014012800004-13267-043417FM-12+044199999V0201401N0015199999999002000199+02571+01981101141ADDAA101999990AZ101061AZ201061GA1041+008001081GE19MSL   +99999+99999GF104991041990008001991991MA1999990096291MD1909990+0041REMSYN004BUFR
0072832880999992014012809154-13262-043408FM-16+044399999V0202001N003119999999Y999999999+02001+01701999999ADDMA1101501999990REMMET045SPECI SBLP 280915Z 20006KT CAVOK 20/17 Q1015=
0072832880999992014012810004-13262-043408FM-15+044399999V0202201N002619999999Y999999999+02201+01701999999ADDMA1101601999990REMMET045METAR SBLP 281000Z 22005KT CAVOK 22/17 Q1016=
0072832880999992014012811004-13262-043408FM-15+044399999V0202101N003119999999Y999999999+02601+01701999999ADDMA1101701999990REMMET045METAR SBLP 281100Z 21006KT CAVOK 26/17 Q1017=
0111832880999992014012812004-13267-043417FM-12+044199999V0201801N0010122000199020000199+02601+01771101351ADDAA101999990AZ101061AZ201061GF100991999999999999999999KA1120N+02041MA1999990096471MD1909990+0021REMSYN004BUFR
0072832880999992014012812004-13262-043408FM-15+044399999V0201701N002619999999Y999999999+02801+01501999999ADDMA1101701999990REMMET045METAR SBLP 281200Z 17005KT CAVOK 28/15 Q1017=
0072832880999992014012813004-13262-043408FM-15+044399999V0201801N003119999999Y999999999+03001+01501999999ADDMA1101701999990REMMET045METAR SBLP 281300Z 18006KT CAVOK 30/15 Q1017=
0072832880999992014012814004-13262-043408FM-15+044399999V0201901N004119999999Y999999999+03101+01401999999ADDMA1101601999990REMMET045METAR SBLP 281400Z 19008KT CAVOK 31/14 Q1016=
0142832880999992014012815004-13262-043408FM-15+044399999V0201801N003619999999N009999199+03201+01401999999ADDGA1021+009141991GE19MSL   +99999+99999GF199999021990009141991991MA1101601999990REMMET051METAR SBLP 281500Z 18007KT 9999 FEW030 32/14 Q1016=
0142832880999992014012816004-13262-043408FM-15+044399999V0201601N003619999999N009999199+03401+01501999999ADDGA1021+009141991GE19MSL   +99999+99999GF199999021990009141991991MA1101501999990REMMET051METAR SBLP 281600Z 16007KT 9999 FEW030 34/15 Q1015=
0142832880999992014012817004-13262-043408FM-15+044399999V0201301N002619999999N009999199+03401+01601999999ADDGA1021+009141991GE19MSL   +99999+99999GF199999021990009141991991MA1101401999990REMMET051METAR SBLP 281700Z 13005KT 9999 FEW030 34/16 Q1014=
0152832880999992014012818004-13267-043417FM-12+044199999V0201401N0010199999999020000199+03271+01861100971ADDAA101999990AZ101061AZ201061GA1031+008001081GA2991+999991021GE19MSL   +99999+99999GF104991031990008001991991MA1999990096121MD1909990+0021REMSYN004BUFR
0142832880999992014012818004-13262-043408FM-15+044399999V0201801N005119999999N009999199+03501+01701999999ADDGA1041+009141991GE19MSL   +99999+99999GF199999041990009141991991MA1101301999990REMMET051METAR SBLP 281800Z 18010KT 9999 SCT030 35/17 Q1013=
0142832880999992014012819004-13262-043408FM-15+044399999V0201801N006219999999N009999199+03501+01701999999ADDGA1021+009141991GE19MSL   +99999+99999GF199999021990009141991991MA1101201999990REMMET051METAR SBLP 281900Z 18012KT 9999 FEW030 35/17 Q1012=
0142832880999992014012820004-13262-043408FM-15+044399999V0202001N004119999999N009999199+03401+01601999999ADDGA1021+009141991GE19MSL   +99999+99999GF199999021990009141991991MA1101201999990REMMET051METAR SBLP 282000Z 20008KT 9999 FEW030 34/16 Q1012=
0142832880999992014012821004-13262-043408FM-15+044399999V0201801N003619999999N009999199+03301+01601999999ADDGA1021+009141991GE19MSL   +99999+99999GF199999021990009141991991MA1101201999990REMMET051METAR SBLP 282100Z 18007KT 9999 FEW030 33/16 Q1012=
0136832880999992014012900004-13267-043417FM-12+044199999V0201801N0010199999999002000199+02621+01941101161ADDAA101999990AZ101061AZ201061GA1011+008001081GE19MSL   +99999+99999GF101991011990008001991991MA1999990096291MD1909990+0001REMSYN004BUFR
0142832880999992014012909154-13262-043408FM-16+044399999V0201301N002119999999N009999199+02001+01601999999ADDGA1021+006101991GE19MSL   +99999+99999GF199999021990006101991991MA1101601999990REMMET051SPECI SBLP 290915Z 13004KT 9999 FEW020 20/16 Q1016=
0142832880999992014012910004-13262-043408FM-15+044399999V0202201N003119999999N009999199+02001+01701999999ADDGA1021+006101991GE19MSL   +99999+99999GF199999021990006101991991MA1101601999990REMMET051METAR SBLP 291000Z 22006KT 9999 FEW020 20/17 Q1016=
0142832880999992014012911004-13262-043408FM-15+044399999V0202401N003619999999N009999199+02401+01701999999ADDGA1021+009141991GE19MSL   +99999+99999GF199999021990009141991991MA1101701999990REMMET051METAR SBLP 291100Z 24007KT 9999 FEW030 24/17 Q1017=
0181832880999992014012912004-13267-043417FM-12+044199999V0201401N0005199999999020000199+02551+01731101381ADDAA101999990AZ101061AZ201061GA1021+008001081GA2991+999991001GA3991+999991051GE19MSL   +99999+99999GF106991021990008001991991KA1120N+02021MA1999990096501MD1909990+0081REMSYN004BUFR
0072832880999992014012912004-13262-043408FM-15+044399999V0201901N002619999999Y999999999+02701+01601999999ADDMA1101701999990REMMET045METAR SBLP 291200Z 19005KT CAVOK 27/16 Q1017=
0072832880999992014012913004-13262-043408FM-15+044399999V0201901N003619999999Y999999999+02901+01501999999ADDMA1101701999990REMMET045METAR SBLP 291300Z 19007KT CAVOK 29/15 Q1017=
0142832880999992014012914004-13262-043408FM-15+044399999V0201801N004119999999N009999199+03001+01501999999ADDGA1021+009141991GE19MSL   +99999+99999GF199999021990009141991991MA1101701999990REMMET051METAR SBLP 291400Z 18008KT 9999 FEW030 30/15 Q1017=
0142832880999992014012915004-13262-043408FM-15+044399999V0202601N002119999999N009999199+03101+01501999999ADDGA1021+009141991GE19MSL   +99999+99999GF199999021990009141991991MA1101601999990REMMET051METAR SBLP 291500Z 26004KT 9999 FEW030 31/15 Q1016=
0142832880999992014012916004-13262-043408FM-15+044399999V0201801N002119999999N009999199+03201+01601999999ADDGA1021+009141991GE19MSL   +99999+99999GF199999021990009141991991MA1101501999990REMMET051METAR SBLP 291600Z 18004KT 9999 FEW030 32/16 Q1015=
0142832880999992014012917004-13262-043408FM-15+044399999V0201501N002619999999N009999199+03301+01601999999ADDGA1021+009141991GE19MSL   +99999+99999GF199999021990009141991991MA1101301999990REMMET051METAR SBLP 291700Z 15005KT 9999 FEW030 33/16 Q1013=
0168832880999992014012918004-13267-043417FM-12+044199999V0200901N0005199999999020000199+03241+01871100901ADDAA101999990AZ101061AZ201061GA1021+008001081GA2991+999991001GA3991+999991031GE19MSL   +99999+99999GF106991021990008001991991MA1999990096061MD1909990-0061REMSYN004BUFR
0142832880999992014012918004-13262-043408FM-15+044399999V0201601N002119999999N009999199+03401+01701999999ADDGA1021+009141991GE19MSL   +99999+99999GF199999021990009141991991MA1101201999990REMMET051METAR SBLP 291800Z 16004KT 9999 FEW030 34/17 Q1012=
0142832880999992014012919004-13262-043408FM-15+044399999V0202101N003119999999N009999199+03401+01701999999ADDGA1041+009141991GE19MSL   +99999+99999GF199999041990009141991991MA1101201999990REMMET051METAR SBLP 291900Z 21006KT 9999 SCT030 34/17 Q1012=
0142832880999992014012920004-13262-043408FM-15+044399999V0201801N002619999999N009999199+03401+01801999999ADDGA1041+009141991GE19MSL   +99999+99999GF199999041990009141991991MA1101201999990REMMET051METAR SBLP 292000Z 18005KT 9999 SCT030 34/18 Q1012=
0165832880999992014012921004-13262-043408FM-15+044399999V0201201N00361030481CN009999199+03201+01801999999ADDGA1021+009141991GA2041+030481991GE19MSL   +99999+99999GF199999021990009141991991MA1101201999990REMMET058METAR SBLP 292100Z 12007KT 9999 FEW030 SCT100 32/18 Q1012=
0136832880999992014013000004-13267-043417FM-12+044199999V0201401N0015100800199002000199+02691+02011101061ADDAA101999990AZ101061AZ201061GA1051+008001081GE19MSL   +99999+99999GF105991051990008001991991MA1999990096191MD1909990-0101REMSYN004BUFR
0142832880999992014013009154-13262-043408FM-16+044399999V0201801N003119999999N009999199+02201+01901999999ADDGA1021+009141991GE19MSL   +99999+99999GF199999021990009141991991MA1101501999990REMMET051SPECI SBLP 300915Z 18006KT 9999 FEW030 22/19 Q1015=
0142832880999992014013010004-13262-043408FM-15+044399999V0201801N002619999999N009999199+02301+01801999999ADDGA1021+009141991GE19MSL   +99999+99999GF199999021990009141991991MA1101601999990REMMET051METAR SBLP 301000Z 18005KT 9999 FEW030 23/18 Q1016=
0142832880999992014013011004-13262-043408FM-15+044399999V0201801N005119999999N009999199+02601+01701999999ADDGA1021+009141991GE19MSL   +99999+99999GF199999021990009141991991MA1101701999990REMMET051METAR SBLP 301100Z 18010KT 9999 FEW030 26/17 Q1017=
0181832880999992014013012004-13267-043417FM-12+044199999V0201801N0015199999999020000199+02701+01891101351ADDAA101999990AZ101061AZ201061GA1011+008001081GA2991+999991021GA3991+999991031GE19MSL   +99999+99999GF105991011990008001991991KA1120N+02201MA1999990096491MD1909990-0011REMSYN004BUFR
0142832880999992014013012004-13262-043408FM-15+044399999V0201701N002619999999N009999199+02901+01701999999ADDGA1021+009141991GE19MSL   +99999+99999GF199999021990009141991991MA1101701999990REMMET051METAR SBLP 301200Z 17005KT 9999 FEW030 29/17 Q1017=
0142832880999992014013013004-13262-043408FM-15+044399999V0201201N003119999999N009999199+03001+01901999999ADDGA1021+009141991GE19MSL   +99999+99999GF199999021990009141991991MA1101701999990REMMET051METAR SBLP 301300Z 12006KT 9999 FEW030 30/19 Q1017=
0142832880999992014013014004-13262-043408FM-15+044399999V0201501N005119999999N009999199+03101+01901999999ADDGA1041+009141991GE19MSL   +99999+99999GF199999041990009141991991MA1101601999990REMMET051METAR SBLP 301400Z 15010KT 9999 SCT030 31/19 Q1016=
0142832880999992014013015004-13262-043408FM-15+044399999V0201201N006219999999N009999199+03201+01901999999ADDGA1041+009141991GE19MSL   +99999+99999GF199999041990009141991991MA1101601999990REMMET051METAR SBLP 301500Z 12012KT 9999 SCT030 32/19 Q1016=
0142832880999992014013016004-13262-043408FM-15+044399999V0201801N002119999999N009999199+03301+01901999999ADDGA1041+009141991GE19MSL   +99999+99999GF199999041990009141991991MA1101501999990REMMET051METAR SBLP 301600Z 18004KT 9999 SCT030 33/19 Q1015=
0165832880999992014013017004-13262-043408FM-15+044399999V0201701N00261030481CN009999199+03201+01901999999ADDGA1041+009141991GA2041+030481991GE19MSL   +99999+99999GF199999041990009141991991MA1101401999990REMMET058METAR SBLP 301700Z 17005KT 9999 SCT030 SCT100 32/19 Q1014=
0152832880999992014013018004-13267-043417FM-12+044199999V0201801N0015199999999020000199+03221+02081100911ADDAA101999990AZ101061AZ201061GA1041+008001081GA2991+999991021GE19MSL   +99999+99999GF108991041990008001991991MA1999990096101MD1909990+0041REMSYN004BUFR
0165832880999992014013018004-13262-043408FM-15+044399999V0202101N00511030481CN009999199+03301+02001999999ADDGA1041+009141991GA2041+030481991GE19MSL   +99999+99999GF199999041990009141991991MA1101301999990REMMET058METAR SBLP 301800Z 21010KT 9999 SCT030 SCT100 33/20 Q1013=
0165832880999992014013019004-13262-043408FM-15+044399999V0201601N00461030481CN009999199+03401+01901999999ADDGA1041+009141991GA2041+030481991GE19MSL   +99999+99999GF199999041990009141991991MA1101201999990REMMET058METAR SBLP 301900Z 16009KT 9999 SCT030 SCT100 34/19 Q1012=
0165832880999992014013020004-13262-043408FM-15+044399999V0201901N00361030481CN009999199+03201+01701999999ADDGA1041+009141991GA2041+030481991GE19MSL   +99999+99999GF199999041990009141991991MA1101201999990REMMET058METAR SBLP 302000Z 19007KT 9999 SCT030 SCT100 32/17 Q1012=
0165832880999992014013021004-13262-043408FM-15+044399999V0201501N00411030481CN009999199+03101+01801999999ADDGA1021+009141991GA2041+030481991GE19MSL   +99999+99999GF199999021990009141991991MA1101301999990REMMET058METAR SBLP 302100Z 15008KT 9999 FEW030 SCT100 31/18 Q1013=
0168832880999992014013100004-13267-043417FM-12+044199999V0201801N0010199999999002000199+02791+02051101041ADDAA101999990AZ101061AZ201061GA1041+008001061GA2991+999991101GA3991+999991041GE19MSL   +99999+99999GF108991041990008001991991MA1999990096211MD1909990-0081REMSYN004BUFR
0072832880999992014013109154-13262-043408FM-16+044399999V0201801N003119999999Y999999999+02101+01801999999ADDMA1101501999990REMMET045SPECI SBLP 310915Z 18006KT CAVOK 21/18 Q1015=
0072832880999992014013110004-13262-043408FM-15+044399999V0201801N003119999999Y999999999+02201+01701999999ADDMA1101601999990REMMET045METAR SBLP 311000Z 18006KT CAVOK 22/17 Q1016=
0072832880999992014013111004-13262-043408FM-15+044399999V0201701N003619999999Y999999999+02501+01801999999ADDMA1101601999990REMMET045METAR SBLP 311100Z 17007KT CAVOK 25/18 Q1016=
0181832880999992014013112004-13267-043417FM-12+044199999V0203601N0000199999999020000199+02521+01801101341ADDAA101999990AZ101061AZ201061GA1021+008001081GA2991+999991001GA3991+999991031GE19MSL   +99999+99999GF106991021990008001991991KA1120N+02101MA1999990096481MD1909990-0011REMSYN004BUFR
0142832880999992014013112004-13262-043408FM-15+044399999V0201901N002619999999N009999199+02601+01601999999ADDGA1021+009141991GE19MSL   +99999+99999GF199999021990009141991991MA1101701999990REMMET051METAR SBLP 311200Z 19005KT 9999 FEW030 26/16 Q1017=
0142832880999992014013113004-13262-043408FM-15+044399999V0201901N002619999999N009999199+02801+01401999999ADDGA1021+009141991GE19MSL   +99999+99999GF199999021990009141991991MA1101701999990REMMET051METAR SBLP 311300Z 19005KT 9999 FEW030 28/14 Q1017=
0142832880999992014013114004-13262-043408FM-15+044399999V0201601N003119999999N009999199+02901+01501999999ADDGA1021+009141991GE19MSL   +99999+99999GF199999021990009141991991MA1101601999990REMMET051METAR SBLP 311400Z 16006KT 9999 FEW030 29/15 Q1016=
0142832880999992014013115004-13262-043408FM-15+044399999V0201201N003619999999N009999199+03201+01401999999ADDGA1021+009141991GE19MSL   +99999+99999GF199999021990009141991991MA1101501999990REMMET051METAR SBLP 311500Z 12007KT 9999 FEW030 32/14 Q1015=
0142832880999992014013116004-13262-043408FM-15+044399999V0201901N003119999999N009999199+03301+01501999999ADDGA1021+009141991GE19MSL   +99999+99999GF199999021990009141991991MA1101401999990REMMET051METAR SBLP 311600Z 19006KT 9999 FEW030 33/15 Q1014=
0142832880999992014013117004-13262-043408FM-15+044399999V0201901N004119999999N009999199+03401+01401999999ADDGA1021+009141991GE19MSL   +99999+99999GF199999021990009141991991MA1101301999990REMMET051METAR SBLP 311700Z 19008KT 9999 FEW030 34/14 Q1013=
0168832880999992014013118004-13267-043417FM-12+044199999V0202301N0015199999999020000199+03341+01541100881ADDAA101999990AZ101061AZ201061GA1031+008001081GA2991+999991001GA3991+999991051GE19MSL   +99999+99999GF106991031990008001991991MA1999990096071MD1909990-0031REMSYN004BUFR
0142832880999992014013118004-13262-043408FM-15+044399999V0201701N004119999999N009999199+03501+01301999999ADDGA1021+009141991GE19MSL   +99999+99999GF199999021990009141991991MA1101301999990REMMET051METAR SBLP 311800Z 17008KT 9999 FEW030 35/13 Q1013=
0142832880999992014013119004-13262-043408FM-15+044399999V0201601N004619999999N009999199+03501+01401999999ADDGA1021+009141991GE19MSL   +99999+99999GF199999021990009141991991MA1101201999990REMMET051METAR SBLP 311900Z 16009KT 9999 FEW030 35/14 Q1012=
0142832880999992014013120004-13262-043408FM-15+044399999V0201501N006219999999N009999199+03401+01401999999ADDGA1021+009141991GE19MSL   +99999+99999GF199999021990009141991991MA1101201999990REMMET051METAR SBLP 312000Z 15012KT 9999 FEW030 34/14 Q1012=
0142832880999992014013121004-13262-043408FM-15+044399999V0201801N005119999999N009999199+03201+01401999999ADDGA1021+009141991GE19MSL   +99999+99999GF199999021990009141991991MA1101301999990REMMET051METAR SBLP 312100Z 18010KT 9999 FEW030 32/14 Q1013=
0098832880999992014020100004-13267-043417FM-12+044199999V0201401N0015122000199002000199+02641+01641101101ADDAA101999990AZ101061AZ201061GF100991999999999999999999MA1999990096231MD1909990+0021REMSYN004BUFR
0111832880999992014020112004-13267-043417FM-12+044199999V0203601N0000122000199020000199+02621+01861101231ADDAA101999990AZ101061AZ201061GF100991999999999999999999KA1120N+02061MA1999990096361MD1909990-0121REMSYN004BUFR
0136832880999992014020118004-13267-043417FM-12+044199999V0201401N0021199999999020000199+03321+01781100751ADDAA101999990AZ101061AZ201061GA1021+008001081GE19MSL   +99999+99999GF102991021990008001991991MA1999990095941MD1909990-0131REMSYN004BUFR
0149832880999992014020212004-13267-043417FM-12+044199999V0201801N0010199999999002000199+02701+01991101161ADDAA101999990AZ101061AZ201061GA1991+025001021GE19MSL   +99999+99999GF104991990990025001991991KA1120N+02121MA1999990096311MD1909990-0051REMSYN004BUFR
0152832880999992014020218004-13267-043417FM-12+044199999V0201801N0015199999999020000199+03491+01681100691ADDAA101999990AZ101061AZ201061GA1021+008001081GA2991+999991001GE19MSL   +99999+99999GF104991021990008001991991MA1999990095901MD1909990-0041REMSYN004BUFR
0072832880999992014020309154-13262-043408FM-16+044399999V0202001N001519999999Y999999999+02101+01501999999ADDMA1101301999990REMMET045SPECI SBLP 030915Z 20003KT CAVOK 21/15 Q1013=
0072832880999992014020310004-13262-043408FM-15+044399999V0202201N003119999999Y999999999+02101+01701999999ADDMA1101401999990REMMET045METAR SBLP 031000Z 22006KT CAVOK 21/17 Q1014=
0072832880999992014020311004-13262-043408FM-15+044399999V0202101N003119999999Y999999999+02501+01701999999ADDMA1101401999990REMMET045METAR SBLP 031100Z 21006KT CAVOK 25/17 Q1014=
0165832880999992014020312004-13267-043417FM-12+044199999V0200901N0010199999999020000199+02741+01781101011ADDAA101999990AZ101061AZ201061GA1031+012501051GA2991+999991001GE19MSL   +99999+99999GF105991031990012501991991KA1120N+02091MA1999990096191MD1909990-0121REMSYN004BUFR
0072832880999992014020312004-13262-043408FM-15+044399999V0201801N003619999999Y999999999+02901+01501999999ADDMA1101401999990REMMET045METAR SBLP 031200Z 18007KT CAVOK 29/15 Q1014=
0072832880999992014020313004-13262-043408FM-15+044399999V0201501N003119999999Y999999999+03101+01501999999ADDMA1101301999990REMMET045METAR SBLP 031300Z 15006KT CAVOK 31/15 Q1013=
0072832880999992014020314004-13262-043408FM-15+044399999V0201601N003619999999Y999999999+03201+01501999999ADDMA1101301999990REMMET045METAR SBLP 031400Z 16007KT CAVOK 32/15 Q1013=
0072832880999992014020315004-13262-043408FM-15+044399999V0202001N003119999999Y999999999+03401+01401999999ADDMA1101301999990REMMET045METAR SBLP 031500Z 20006KT CAVOK 34/14 Q1013=
0072832880999992014020316004-13262-043408FM-15+044399999V0201801N003119999999Y999999999+03401+01401999999ADDMA1101201999990REMMET045METAR SBLP 031600Z 18006KT CAVOK 34/14 Q1012=
0152832880999992014020318004-13267-043417FM-12+044199999V0200901N0010199999999020000199+03451+01551100641ADDAA101999990AZ101061AZ201061GA1041+012501051GA2991+999991001GE19MSL   +99999+99999GF106991041990012501991991MA1999990095851MD1909990-0051REMSYN004BUFR
0072832880999992014020318004-13262-043408FM-15+044399999V0200901N003119999999Y999999999+03601+01401999999ADDMA1101001999990REMMET045METAR SBLP 031800Z 09006KT CAVOK 36/14 Q1010=
0072832880999992014020319004-13262-043408FM-15+044399999V0201201N005119999999Y999999999+03501+01401999999ADDMA1100901999990REMMET045METAR SBLP 031900Z 12010KT CAVOK 35/14 Q1009=
0072832880999992014020320004-13262-043408FM-15+044399999V0201201N003119999999Y999999999+03401+01501999999ADDMA1100901999990REMMET045METAR SBLP 032000Z 12006KT CAVOK 34/15 Q1009=
0072832880999992014020321004-13262-043408FM-15+044399999V0201801N002119999999Y999999999+03401+01501999999ADDMA1100901999990REMMET045METAR SBLP 032100Z 18004KT CAVOK 34/15 Q1009=
0072832880999992014020409154-13262-043408FM-16+044399999V0209999C000019999999Y999999999+02101+01801999999ADDMA1101401999990REMMET045SPECI SBLP 040915Z 00000KT CAVOK 21/18 Q1014=
0072832880999992014020410004-13262-043408FM-15+044399999V0209999C000019999999Y999999999+02301+01801999999ADDMA1101401999990REMMET045METAR SBLP 041000Z 00000KT CAVOK 23/18 Q1014=
0072832880999992014020411004-13262-043408FM-15+044399999V0201801N003119999999Y999999999+02601+01701999999ADDMA1101501999990REMMET045METAR SBLP 041100Z 18006KT CAVOK 26/17 Q1015=
0111832880999992014020412004-13267-043417FM-12+044199999V0201401N0015122000199020000199+02721+01791101121ADDAA101999990AZ101061AZ201061GF100991999999999999999999KA1120N+02121MA1999990096291MD1909990+0101REMSYN004BUFR
0072832880999992014020412004-13262-043408FM-15+044399999V0201801N003119999999Y999999999+02801+01701999999ADDMA1101501999990REMMET045METAR SBLP 041200Z 18006KT CAVOK 28/17 Q1015=
0072832880999992014020413004-13262-043408FM-15+044399999V0201201N003119999999Y999999999+03101+01501999999ADDMA1101401999990REMMET045METAR SBLP 041300Z 12006KT CAVOK 31/15 Q1014=
0142832880999992014020414004-13262-043408FM-15+044399999V0200901N003119999999N009999199+03401+01301999999ADDGA1021+009141991GE19MSL   +99999+99999GF199999021990009141991991MA1101401999990REMMET051METAR SBLP 041400Z 09006KT 9999 FEW030 34/13 Q1014=
0142832880999992014020415004-13262-043408FM-15+044399999V0200901N003119999999N009999199+03501+01301999999ADDGA1021+009141991GE19MSL   +99999+99999GF199999021990009141991991MA1101301999990REMMET051METAR SBLP 041500Z 09006KT 9999 FEW030 35/13 Q1013=
0142832880999992014020416004-13262-043408FM-15+044399999V0200901N005119999999N009999199+03701+01401999999ADDGA1041+009141991GE19MSL   +99999+99999GF199999041990009141991991MA1101201999990REMMET051METAR SBLP 041600Z 09010KT 9999 SCT030 37/14 Q1012=
0142832880999992014020417004-13262-043408FM-15+044399999V0201801N004619999999N009999199+03601+01501999999ADDGA1041+009141991GE19MSL   +99999+99999GF199999041990009141991991MA1101101999990REMMET051METAR SBLP 041700Z 18009KT 9999 SCT030 36/15 Q1011=
0152832880999992014020418004-13267-043417FM-12+044199999V0201401N0021100800199020000199+03391+02001100701ADDAA101999990AZ101061AZ201061GA1061+008001081GA2991+999991001GE19MSL   +99999+99999GF108991061990008001991991MA1999990095891MD1909990+0041REMSYN004BUFR
0165832880999992014020418004-13262-043408FM-15+044399999V0201401N003610091419N009999199+03501+01601999999ADDGA1071+009141991GA2041+030481991GE19MSL   +99999+99999GF199999071990009141991991MA1101101999990REMMET058METAR SBLP 041800Z 14007KT 9999 BKN030 SCT100 35/16 Q1011=
0165832880999992014020419004-13262-043408FM-15+044399999V0200901N005110304819N009999199+03501+01801999999ADDGA1041+009141991GA2071+030481991GE19MSL   +99999+99999GF199999041990009141991991MA1101001999990REMMET058METAR SBLP 041900Z 09010KT 9999 SCT030 BKN100 35/18 Q1010=
0165832880999992014020420004-13262-043408FM-15+044399999V0201201N003110304819N009999199+03401+01801999999ADDGA1041+009141991GA2071+030481991GE19MSL   +99999+99999GF199999041990009141991991MA1101001999990REMMET058METAR SBLP 042000Z 12006KT 9999 SCT030 BKN100 34/18 Q1010=
0165832880999992014020421004-13262-043408FM-15+044399999V0201101N003610304819N009999199+03201+01801999999ADDGA1041+009141991GA2071+030481991GE19MSL   +99999+99999GF199999041990009141991991MA1101101999990REMMET058METAR SBLP 042100Z 11007KT 9999 SCT030 BKN100 32/18 Q1011=
0072832880999992014020509154-13262-043408FM-16+044399999V0201901N003119999999Y999999999+02301+02001999999ADDMA1101301999990REMMET045SPECI SBLP 050915Z 19006KT CAVOK 23/20 Q1013=
0072832880999992014020510004-13262-043408FM-15+044399999V0202001N004619999999Y999999999+02401+02001999999ADDMA1101401999990REMMET045METAR SBLP 051000Z 20009KT CAVOK 24/20 Q1014=
0072832880999992014020511004-13262-043408FM-15+044399999V0201701N003119999999Y999999999+02401+02001999999ADDMA1101501999990REMMET045METAR SBLP 051100Z 17006KT CAVOK 24/20 Q1015=
0165832880999992014020512004-13267-043417FM-12+044199999V0201801N0015199999999020000199+02801+02011101161ADDAA101999990AZ101061AZ201061GA1011+008001081GA2991+999991031GE19MSL   +99999+99999GF103991011990008001991991KA1120N+02301MA1999990096331MD1909990+0041REMSYN004BUFR
0142832880999992014020512004-13262-043408FM-15+044399999V0201301N002119999999N009999199+03001+01901999999ADDGA1021+009141991GE19MSL   +99999+99999GF199999021990009141991991MA1101501999990REMMET051METAR SBLP 051200Z 13004KT 9999 FEW030 30/19 Q1015=
0165832880999992014020513004-13262-043408FM-15+044399999V0201801N00361030481CN009999199+03101+01901999999ADDGA1021+009141991GA2041+030481991GE19MSL   +99999+99999GF199999021990009141991991MA1101501999990REMMET058METAR SBLP 051300Z 18007KT 9999 FEW030 SCT100 31/19 Q1015=
0165832880999992014020514004-13262-043408FM-15+044399999V0201501N00151030481CN009999199+03201+01901999999ADDGA1041+009141991GA2041+030481991GE19MSL   +99999+99999GF199999041990009141991991MA1101501999990REMMET058METAR SBLP 051400Z 15003KT 9999 SCT030 SCT100 32/19 Q1015=
0165832880999992014020515004-13262-043408FM-15+044399999V0201001N00411030481CN009999199+03301+01801999999ADDGA1041+009141991GA2041+030481991GE19MSL   +99999+99999GF199999041990009141991991MA1101401999990REMMET058METAR SBLP 051500Z 10008KT 9999 SCT030 SCT100 33/18 Q1014=
0142832880999992014020516004-13262-043408FM-15+044399999V0200901N003110091419N009999199+03301+01801999999ADDGA1071+009141991GE19MSL   +99999+99999GF199999071990009141991991MA1101301999990REMMET051METAR SBLP 051600Z 09006KT 9999 BKN030 33/18 Q1013=
0142832880999992014020517004-13262-043408FM-15+044399999V0200901N003110091419N009999199+03401+01801999999ADDGA1071+009141991GE19MSL   +99999+99999GF199999071990009141991991MA1101201999990REMMET051METAR SBLP 051700Z 09006KT 9999 BKN030 34/18 Q1012=
0136832880999992014020518004-13267-043417FM-12+044199999V0202301N0015199999999020000199+03251+01981100771ADDAA101999990AZ101061AZ201061GA1031+008001081GE19MSL   +99999+99999GF103991031990008001991991MA1999990095961MD1909990+0071REMSYN004BUFR
0142832880999992014020518004-13262-043408FM-15+044399999V0200901N003119999999N009999199+03601+01801999999ADDGA1041+009141991GE19MSL   +99999+99999GF199999041990009141991991MA1101101999990REMMET051METAR SBLP 051800Z 09006KT 9999 SCT030 36/18 Q1011=
0142832880999992014020519004-13262-043408FM-15+044399999V0200901N003119999999N009999199+03601+01801999999ADDGA1041+009141991GE19MSL   +99999+99999GF199999041990009141991991MA1101101999990REMMET051METAR SBLP 051900Z 09006KT 9999 SCT030 36/18 Q1011=
0142832880999992014020520004-13262-043408FM-15+044399999V0200901N004119999999N009999199+03501+01801999999ADDGA1041+009141991GE19MSL   +99999+99999GF199999041990009141991991MA1101101999990REMMET051METAR SBLP 052000Z 09008KT 9999 SCT030 35/18 Q1011=
0142832880999992014020521004-13262-043408FM-15+044399999V0209999C000019999999N009999199+03301+01901999999ADDGA1041+009141991GE19MSL   +99999+99999GF199999041990009141991991MA1101101999990REMMET051METAR SBLP 052100Z 00000KT 9999 SCT030 33/19 Q1011=
0072832880999992014020609154-13262-043408FM-16+044399999V0201801N003119999999Y999999999+02101+01801999999ADDMA1101501999990REMMET045SPECI SBLP 060915Z 18006KT CAVOK 21/18 Q1015=
0072832880999992014020610004-13262-043408FM-15+044399999V0201801N003119999999Y999999999+02401+01801999999ADDMA1101501999990REMMET045METAR SBLP 061000Z 18006KT CAVOK 24/18 Q1015=
0072832880999992014020611004-13262-043408FM-15+044399999V0201801N003119999999Y999999999+02701+01701999999ADDMA1101601999990REMMET045METAR SBLP 061100Z 18006KT CAVOK 27/17 Q1016=
0149832880999992014020612004-13267-043417FM-12+044199999V0201401N0010199999999020000199+02671+01781101271ADDAA124003031AZ101061AZ201061GA1021+008001081GE19MSL   +99999+99999GF102991021990008001991991KA1120N+02141MA1999990096401MD1909990+0071REMSYN004BUFR
0142832880999992014020612004-13262-043408FM-15+044399999V0201201N003119999999N009999199+03001+01601999999ADDGA1021+009141991GE19MSL   +99999+99999GF199999021990009141991991MA1101601999990REMMET051METAR SBLP 061200Z 12006KT 9999 FEW030 30/16 Q1016=
0142832880999992014020613004-13262-043408FM-15+044399999V0201201N003119999999N009999199+03101+01501999999ADDGA1021+009141991GE19MSL   +99999+99999GF199999021990009141991991MA1101501999990REMMET051METAR SBLP 061300Z 12006KT 9999 FEW030 31/15 Q1015=
0142832880999992014020614004-13262-043408FM-15+044399999V0201201N003119999999N009999199+03201+01601999999ADDGA1041+009141991GE19MSL   +99999+99999GF199999041990009141991991MA1101501999990REMMET051METAR SBLP 061400Z 12006KT 9999 SCT030 32/16 Q1015=
0142832880999992014020615004-13262-043408FM-15+044399999V0200901N003119999999N009999199+03201+01601999999ADDGA1041+009141991GE19MSL   +99999+99999GF199999041990009141991991MA1101401999990REMMET051METAR SBLP 061500Z 09006KT 9999 SCT030 32/16 Q1014=
0142832880999992014020616004-13262-043408FM-15+044399999V0201501N002110091419N009999199+03301+01601999999ADDGA1071+009141991GE19MSL   +99999+99999GF199999071990009141991991MA1101301999990REMMET051METAR SBLP 061600Z 15004KT 9999 BKN030 33/16 Q1013=
0142832880999992014020617004-13262-043408FM-15+044399999V0201801N003610091419N009999199+03401+01601999999ADDGA1071+009141991GE19MSL   +99999+99999GF199999071990009141991991MA1101201999990REMMET051METAR SBLP 061700Z 18007KT 9999 BKN030 34/16 Q1012=
0136832880999992014020618004-13267-043417FM-12+044199999V0201401N0010100450199020000199+03371+01861100791ADDAA101999990AZ101061AZ201061GA1061+004501061GE19MSL   +99999+99999GF106991061990004501991991MA1999990095981MD1909990+0021REMSYN004BUFR
0142832880999992014020618004-13262-043408FM-15+044399999V0201001N004610091419N009999199+03501+01601999999ADDGA1071+009141991GE19MSL   +99999+99999GF199999071990009141991991MA1101101999990REMMET051METAR SBLP 061800Z 10009KT 9999 BKN030 35/16 Q1011=
0142832880999992014020619004-13262-043408FM-15+044399999V0200901N005119999999N009999199+03401+01601999999ADDGA1041+009141991GE19MSL   +99999+99999GF199999041990009141991991MA1101101999990REMMET051METAR SBLP 061900Z 09010KT 9999 SCT030 34/16 Q1011=
0165832880999992014020620004-13262-043408FM-15+044399999V0201201N00311030481CN009999199+03301+01601999999ADDGA1041+009141991GA2041+030481991GE19MSL   +99999+99999GF199999041990009141991991MA1101101999990REMMET058METAR SBLP 062000Z 12006KT 9999 SCT030 SCT100 33/16 Q1011=
0165832880999992014020621004-13262-043408FM-15+044399999V0201301N00311030481CN009999199+03101+01601999999ADDGA1021+009141991GA2041+030481991GE19MSL   +99999+99999GF199999021990009141991991MA1101201999990REMMET058METAR SBLP 062100Z 13006KT 9999 FEW030 SCT100 31/16 Q1012=
0072832880999992014020709154-13262-043408FM-16+044399999V0209999C000019999999Y999999999+02101+01801999999ADDMA1101501999990REMMET045SPECI SBLP 070915Z 00000KT CAVOK 21/18 Q1015=
0072832880999992014020710004-13262-043408FM-15+044399999V0209999C000019999999Y999999999+02401+01701999999ADDMA1101601999990REMMET045METAR SBLP 071000Z 00000KT CAVOK 24/17 Q1016=
0072832880999992014020711004-13262-043408FM-15+044399999V0209999C000019999999Y999999999+02701+01701999999ADDMA1101601999990REMMET045METAR SBLP 071100Z 00000KT CAVOK 27/17 Q1016=
0149832880999992014020712004-13267-043417FM-12+044199999V0201401N0021199999999020000199+02721+01821101281ADDAA101999990AZ101061AZ201061GA1991+025001001GE19MSL   +99999+99999GF102991990990025001991991KA1120N+02191MA1999990096441MD1909990+0041REMSYN004BUFR
0072832880999992014020712004-13262-043408FM-15+044399999V0200901N003119999999Y999999999+02901+01601999999ADDMA1101701999990REMMET045METAR SBLP 071200Z 09006KT CAVOK 29/16 Q1017=
0072832880999992014020713004-13262-043408FM-15+044399999V0200901N003119999999Y999999999+03101+01501999999ADDMA1101601999990REMMET045METAR SBLP 071300Z 09006KT CAVOK 31/15 Q1016=
0072832880999992014020714004-13262-043408FM-15+044399999V0200901N003119999999Y999999999+03301+01501999999ADDMA1101601999990REMMET045METAR SBLP 071400Z 09006KT CAVOK 33/15 Q1016=
0142832880999992014020715004-13262-043408FM-15+044399999V0201201N003119999999N009999199+03301+01401999999ADDGA1021+009141991GE19MSL   +99999+99999GF199999021990009141991991MA1101501999990REMMET051METAR SBLP 071500Z 12006KT 9999 FEW030 33/14 Q1015=
0142832880999992014020716004-13262-043408FM-15+044399999V0201801N006219999999N009999199+03501+01401999999ADDGA1021+009141991GE19MSL   +99999+99999GF199999021990009141991991MA1101401999990REMMET051METAR SBLP 071600Z 18012KT 9999 FEW030 35/14 Q1014=
0142832880999992014020717004-13262-043408FM-15+044399999V0201401N003119999999N009999199+03601+01101999999ADDGA1041+009141991GE19MSL   +99999+99999GF199999041990009141991991MA1101301999990REMMET051METAR SBLP 071700Z 14006KT 9999 SCT030 36/11 Q1013=
0136832880999992014020718004-13267-043417FM-12+044199999V0200901N0021100800199020000199+03371+01791100821ADDAA101999990AZ101061AZ201061GA1051+008001081GE19MSL   +99999+99999GF105991051990008001991991MA1999990096031MD1909990+0051REMSYN004BUFR
0142832880999992014020718004-13262-043408FM-15+044399999V0200801N003619999999N009999199+03501+01101999999ADDGA1041+009141991GE19MSL   +99999+99999GF199999041990009141991991MA1101201999990REMMET051METAR SBLP 071800Z 08007KT 9999 SCT030 35/11 Q1012=
0165832880999992014020719004-13262-043408FM-15+044399999V0209999C00001030481CN009999199+03601+01301999999ADDGA1041+009141991GA2041+030481991GE19MSL   +99999+99999GF199999041990009141991991MA1101201999990REMMET058METAR SBLP 071900Z 00000KT 9999 SCT030 SCT100 36/13 Q1012=
0165832880999992014020720004-13262-043408FM-15+044399999V0202001N00261030481CN009999199+03501+01301999999ADDGA1021+009141991GA2041+030481991GE19MSL   +99999+99999GF199999021990009141991991MA1101201999990REMMET058METAR SBLP 072000Z 20005KT 9999 FEW030 SCT100 35/13 Q1012=
0165832880999992014020721004-13262-043408FM-15+044399999V0201401N00311030481CN009999199+03501+01401999999ADDGA1041+009141991GA2041+030481991GE19MSL   +99999+99999GF199999041990009141991991MA1101201999990REMMET058METAR SBLP 072100Z 14006KT 9999 SCT030 SCT100 35/14 Q1012=
0165832880999992014020812004-13267-043417FM-12+044199999V0201801N0010199999999020000199+02821+01921101281ADDAA101999990AZ101061AZ201061GA1021+012501031GA2991+999991001GE19MSL   +99999+99999GF103991021990012501991991KA1120N+02301MA1999990096451MD1909990+0011REMSYN004BUFR
0152832880999992014020818004-13267-043417FM-12+044199999V0201801N0010199999999020000199+03351+01851100821ADDAA101999990AZ101061AZ201061GA1031+008001081GA2991+999991001GE19MSL   +99999+99999GF105991031990008001991991MA1999990096031MD1909990+0001REMSYN004BUFR
0149832880999992014020912004-13267-043417FM-12+044199999V0200901N0015199999999020000199+02821+01901101261ADDAA101999990AZ101061AZ201061GA1011+008001081GE19MSL   +99999+99999GF101991011990008001991991KA1120N+02311MA1999990096431MD1909990-0021REMSYN004BUFR
0152832880999992014020918004-13267-043417FM-12+044199999V0201401N0015100800199020000199+03351+01891100851ADDAA101999990AZ101061AZ201061GA1051+008001061GA2991+999991031GE19MSL   +99999+99999GF106991051990008001991991MA1999990096051MD1909990+0021REMSYN004BUFR
0072832880999992014021009154-13262-043408FM-16+044399999V0201001N001519999999Y999999999+02201+01601999999ADDMA1101501999990REMMET045SPECI SBLP 100915Z 10003KT CAVOK 22/16 Q1015=
0072832880999992014021010004-13262-043408FM-15+044399999V0200901N003619999999Y999999999+02401+01601999999ADDMA1101501999990REMMET045METAR SBLP 101000Z 09007KT CAVOK 24/16 Q1015=
0072832880999992014021011004-13262-043408FM-15+044399999V0200801N005119999999Y999999999+02801+01601999999ADDMA1101601999990REMMET045METAR SBLP 101100Z 08010KT CAVOK 28/16 Q1016=
0149832880999992014021012004-13267-043417FM-12+044199999V0200901N0026199999999020000199+02741+01671101261ADDAA101999990AZ101061AZ201061GA1991+025001001GE19MSL   +99999+99999GF103991990990025001991991KA1120N+02261MA1999990096431MD1909990+0001REMSYN004BUFR
0072832880999992014021012004-13262-043408FM-15+044399999V0200901N003619999999Y999999999+03001+01501999999ADDMA1101601999990REMMET045METAR SBLP 101200Z 09007KT CAVOK 30/15 Q1016=
0072832880999992014021013004-13262-043408FM-15+044399999V0201001N003119999999Y999999999+03101+01501999999ADDMA1101601999990REMMET045METAR SBLP 101300Z 10006KT CAVOK 31/15 Q1016=
0072832880999992014021014004-13262-043408FM-15+044399999V0201301N004119999999Y999999999+03201+01501999999ADDMA1101501999990REMMET045METAR SBLP 101400Z 13008KT CAVOK 32/15 Q1015=
0142832880999992014021015004-13262-043408FM-15+044399999V0200401N003119999999N009999199+03401+01401999999ADDGA1021+009141991GE19MSL   +99999+99999GF199999021990009141991991MA1101401999990REMMET051METAR SBLP 101500Z 04006KT 9999 FEW030 34/14 Q1014=
0142832880999992014021016004-13262-043408FM-15+044399999V0209999C000019999999N009999199+03501+01401999999ADDGA1021+009141991GE19MSL   +99999+99999GF199999021990009141991991MA1101301999990REMMET051METAR SBLP 101600Z 00000KT 9999 FEW030 35/14 Q1013=
0142832880999992014021017004-13262-043408FM-15+044399999V0202101N001519999999N009999199+03501+01601999999ADDGA1041+009141991GE19MSL   +99999+99999GF199999041990009141991991MA1101201999990REMMET051METAR SBLP 101700Z 21003KT 9999 SCT030 35/16 Q1012=
0155832880999992014021018004-13267-043417FM-12+044199999V0201401N0021199999999020000199+99999+01941100721ADDAA101999990AZ101061AZ201061GA1031+008001081GE19MSL   +99999+99999GF103991031990008001991991MA1999990095951MD1909990-0101REMSYN004BUFREQDQ0125    3ATOT  
0142832880999992014021018004-13262-043408FM-15+044399999V0201201N002619999999N009999199+03501+01601999999ADDGA1041+009141991GE19MSL   +99999+99999GF199999041990009141991991MA1101201999990REMMET051METAR SBLP 101800Z 12005KT 9999 SCT030 35/16 Q1012=
0142832880999992014021019004-13262-043408FM-15+044399999V0201401N003119999999N009999199+03601+01501999999ADDGA1041+009141991GE19MSL   +99999+99999GF199999041990009141991991MA1101101999990REMMET051METAR SBLP 101900Z 14006KT 9999 SCT030 36/15 Q1011=
0142832880999992014021020004-13262-043408FM-15+044399999V0200701N003119999999N009999199+03601+01501999999ADDGA1041+009141991GE19MSL   +99999+99999GF199999041990009141991991MA1101101999990REMMET051METAR SBLP 102000Z 07006KT 9999 SCT030 36/15 Q1011=
0142832880999992014021021004-13262-043408FM-15+044399999V0201501N002119999999N009999199+03401+02001999999ADDGA1041+009141991GE19MSL   +99999+99999GF199999041990009141991991MA1101101999990REMMET051METAR SBLP 102100Z 15004KT 9999 SCT030 34/20 Q1011=
0142832880999992014021109154-13262-043408FM-16+044399999V0202301N001519999999N009999199+02301+01801999999ADDGA1021+006101991GE19MSL   +99999+99999GF199999021990006101991991MA1101401999990REMMET051SPECI SBLP 110915Z 23003KT 9999 FEW020 23/18 Q1014=
0142832880999992014021110004-13262-043408FM-15+044399999V0202101N002119999999N009999199+02401+01801999999ADDGA1021+006101991GE19MSL   +99999+99999GF199999021990006101991991MA1101401999990REMMET051METAR SBLP 111000Z 21004KT 9999 FEW020 24/18 Q1014=
0072832880999992014021111004-13262-043408FM-15+044399999V0201701N002619999999Y999999999+02701+01801999999ADDMA1101501999990REMMET045METAR SBLP 111100Z 17005KT CAVOK 27/18 Q1015=
0072832880999992014021112004-13262-043408FM-15+044399999V0201301N003119999999Y999999999+02801+01701999999ADDMA1101501999990REMMET045METAR SBLP 111200Z 13006KT CAVOK 28/17 Q1015=
0072832880999992014021113004-13262-043408FM-15+044399999V0201201N002619999999Y999999999+03101+01601999999ADDMA1101501999990REMMET045METAR SBLP 111300Z 12005KT CAVOK 31/16 Q1015=
0072832880999992014021114004-13262-043408FM-15+044399999V0200901N002619999999Y999999999+03201+01601999999ADDMA1101501999990REMMET045METAR SBLP 111400Z 09005KT CAVOK 32/16 Q1015=
0165832880999992014021115004-13262-043408FM-15+044399999V0201001N00211030481CN009999199+03301+01601999999ADDGA1021+009141991GA2041+030481991GE19MSL   +99999+99999GF199999021990009141991991MA1101401999990REMMET058METAR SBLP 111500Z 10004KT 9999 FEW030 SCT100 33/16 Q1014=
0165832880999992014021116004-13262-043408FM-15+044399999V0201301N00511030481CN009999199+03401+01701999999ADDGA1021+009141991GA2041+030481991GE19MSL   +99999+99999GF199999021990009141991991MA1101301999990REMMET058METAR SBLP 111600Z 13010KT 9999 FEW030 SCT100 34/17 Q1013=
0165832880999992014021117004-13262-043408FM-15+044399999V0201401N00311030481CN009999199+03501+01801999999ADDGA1021+009141991GA2041+030481991GE19MSL   +99999+99999GF199999021990009141991991MA1101201999990REMMET058METAR SBLP 111700Z 14006KT 9999 FEW030 SCT100 35/18 Q1012=
0168832880999992014021118004-13267-043417FM-12+044199999V0200901N0010199999999020000199+03321+01931100761ADDAA101999990AZ101061AZ201061GA1021+008001081GA2991+999991101GA3991+999991041GE19MSL   +99999+99999GF108991021990008001991991MA1999990095971MD1909990+0021REMSYN004BUFR
0165832880999992014021118004-13262-043408FM-15+044399999V0201801N00211030481CN009999199+03401+01901999999ADDGA1041+009141991GA2041+030481991GE19MSL   +99999+99999GF199999041990009141991991MA1101101999990REMMET058METAR SBLP 111800Z 18004KT 9999 SCT030 SCT100 34/19 Q1011=
0165832880999992014021119004-13262-043408FM-15+044399999V0201201N002110304819N009999199+03401+01801999999ADDGA1021+009141991GA2071+030481991GE19MSL   +99999+99999GF199999021990009141991991MA1101001999990REMMET058METAR SBLP 111900Z 12004KT 9999 FEW030 BKN100 34/18 Q1010=
0165832880999992014021120004-13262-043408FM-15+044399999V0201501N00151030481CN009999199+03301+01701999999ADDGA1021+009141991GA2041+030481991GE19MSL   +99999+99999GF199999021990009141991991MA1101001999990REMMET058METAR SBLP 112000Z 15003KT 9999 FEW030 SCT100 33/17 Q1010=
0165832880999992014021121004-13262-043408FM-15+044399999V0201501N00211030481CN009999199+03201+01901999999ADDGA1021+009141991GA2041+030481991GE19MSL   +99999+99999GF199999021990009141991991MA1101001999990REMMET058METAR SBLP 112100Z 15004KT 9999 FEW030 SCT100 32/19 Q1010=
0142832880999992014021209154-13262-043408FM-16+044399999V0202001N001519999999N009999199+02201+01801999999ADDGA1021+006101991GE19MSL   +99999+99999GF199999021990006101991991MA1101301999990REMMET051SPECI SBLP 120915Z 20003KT 9999 FEW020 22/18 Q1013=
0142832880999992014021210004-13262-043408FM-15+044399999V0202201N002119999999N009999199+02301+01901999999ADDGA1021+006101991GE19MSL   +99999+99999GF199999021990006101991991MA1101401999990REMMET051METAR SBLP 121000Z 22004KT 9999 FEW020 23/19 Q1014=
0072832880999992014021211004-13262-043408FM-15+044399999V0201901N001519999999Y999999999+02601+01901999999ADDMA1101401999990REMMET045METAR SBLP 121100Z 19003KT CAVOK 26/19 Q1014=
0165832880999992014021212004-13267-043417FM-12+044199999V0203601N0000199999999020000199+02741+01981101131ADDAA101999990AZ101061AZ201061GA1031+012501051GA2991+999991001GE19MSL   +99999+99999GF105991031990012501991991KA1120N+02271MA1999990096301MD1909990-0031REMSYN004BUFR
0072832880999992014021212004-13262-043408FM-15+044399999V0201501N003119999999Y999999999+02901+01801999999ADDMA1101501999990REMMET045METAR SBLP 121200Z 15006KT CAVOK 29/18 Q1015=
0072832880999992014021213004-13262-043408FM-15+044399999V0201401N003619999999Y999999999+03101+01801999999ADDMA1101401999990REMMET045METAR SBLP 121300Z 14007KT CAVOK 31/18 Q1014=
0142832880999992014021214004-13262-043408FM-15+044399999V0202001N003119999999N009999199+03301+01701999999ADDGA1021+009141991GE19MSL   +99999+99999GF199999021990009141991991MA1101401999990REMMET051METAR SBLP 121400Z 20006KT 9999 FEW030 33/17 Q1014=
0142832880999992014021215004-13262-043408FM-15+044399999V0202001N003119999999N009999199+03401+01601999999ADDGA1021+009141991GE19MSL   +99999+99999GF199999021990009141991991MA1101301999990REMMET051METAR SBLP 121500Z 20006KT 9999 FEW030 34/16 Q1013=
0165832880999992014021216004-13262-043408FM-15+044399999V0202701N00211030481CN009999199+03301+02001999999ADDGA1041+009141991GA2041+030481991GE19MSL   +99999+99999GF199999041990009141991991MA1101201999990REMMET058METAR SBLP 121600Z 27004KT 9999 SCT030 SCT100 33/20 Q1012=
0165832880999992014021217004-13262-043408FM-15+044399999V0202901N00311030481CN009999199+03401+01701999999ADDGA1041+009141991GA2041+030481991GE19MSL   +99999+99999GF199999041990009141991991MA1101101999990REMMET058METAR SBLP 121700Z 29006KT 9999 SCT030 SCT100 34/17 Q1011=
0168832880999992014021218004-13267-043417FM-12+044199999V0203201N0005199999999020000199+03551+02151100591ADDAA101999990AZ101061AZ201061GA1031+008001081GA2991+999991001GA3991+999991051GE19MSL   +99999+99999GF107991031990008001991991MA1999990095821MD1909990-0151REMSYN004BUFR
0142832880999992014021218004-13262-043408FM-15+044399999V0209999C000019999999N009999199+03501+01701999999ADDGA1041+009141991GE19MSL   +99999+99999GF199999041990009141991991MA1101001999990REMMET051METAR SBLP 121800Z 00000KT 9999 SCT030 35/17 Q1010=
0142832880999992014021219004-13262-043408FM-15+044399999V0201401N001010091419N009999199+03401+01701999999ADDGA1071+009141991GE19MSL   +99999+99999GF199999071990009141991991MA1100901999990REMMET051METAR SBLP 121900Z 14002KT 9999 BKN030 34/17 Q1009=
0142832880999992014021220004-13262-043408FM-15+044399999V0201201N003119999999N009999199+03401+01601999999ADDGA1041+009141991GE19MSL   +99999+99999GF199999041990009141991991MA1100901999990REMMET051METAR SBLP 122000Z 12006KT 9999 SCT030 34/16 Q1009=
0165832880999992014021221004-13262-043408FM-15+044399999V0202701N002110304819N009999199+03301+01901999999ADDGA1041+006101991GA2071+030481991GE19MSL   +99999+99999GF199999041990006101991991MA1100901999990REMMET058METAR SBLP 122100Z 27004KT 9999 SCT020 BKN100 33/19 Q1009=
0142832880999992014021309154-13262-043408FM-16+044399999V0202001N001519999999N009999199+02201+01701999999ADDGA1021+006101991GE19MSL   +99999+99999GF199999021990006101991991MA1101201999990REMMET051SPECI SBLP 130915Z 20003KT 9999 FEW020 22/17 Q1012=
0072832880999992014021310004-13262-043408FM-15+044399999V0201801N001519999999Y999999999+02301+01601999999ADDMA1101301999990REMMET045METAR SBLP 131000Z 18003KT CAVOK 23/16 Q1013=
0072832880999992014021311004-13262-043408FM-15+044399999V0201201N002119999999Y999999999+02501+01701999999ADDMA1101401999990REMMET045METAR SBLP 131100Z 12004KT CAVOK 25/17 Q1014=
0149832880999992014021312004-13267-043417FM-12+044199999V0200901N0021199999999020000199+02801+01921100971ADDAA101999990AZ101061AZ201061GA1991+025001001GE19MSL   +99999+99999GF101991990990025001991991KA1120N+02221MA1999990096161MD1909990-0141REMSYN004BUFR
0072832880999992014021312004-13262-043408FM-15+044399999V0201501N003619999999Y999999999+03001+01701999999ADDMA1101401999990REMMET045METAR SBLP 131200Z 15007KT CAVOK 30/17 Q1014=
0072832880999992014021313004-13262-043408FM-15+044399999V0201501N002619999999Y999999999+03201+01701999999ADDMA1101401999990REMMET045METAR SBLP 131300Z 15005KT CAVOK 32/17 Q1014=
0142832880999992014021314004-13262-043408FM-15+044399999V0201401N001519999999N009999199+03301+01601999999ADDGA1021+009141991GE19MSL   +99999+99999GF199999021990009141991991MA1101301999990REMMET051METAR SBLP 131400Z 14003KT 9999 FEW030 33/16 Q1013=
0142832880999992014021315004-13262-043408FM-15+044399999V0201701N004119999999N009999199+03401+01601999999ADDGA1021+009141991GE19MSL   +99999+99999GF199999021990009141991991MA1101201999990REMMET051METAR SBLP 131500Z 17008KT 9999 FEW030 34/16 Q1012=
0142832880999992014021316004-13262-043408FM-15+044399999V0202401N003119999999N009999199+03501+01601999999ADDGA1041+009141991GE19MSL   +99999+99999GF199999041990009141991991MA1101101999990REMMET051METAR SBLP 131600Z 24006KT 9999 SCT030 35/16 Q1011=
0142832880999992014021317004-13262-043408FM-15+044399999V0209999C000019999999N009999199+03501+01301999999ADDGA1041+009141991GE19MSL   +99999+99999GF199999041990009141991991MA1101001999990REMMET051METAR SBLP 131700Z 00000KT 9999 SCT030 35/13 Q1010=
0136832880999992014021318004-13267-043417FM-12+044199999V0202301N0021199999999020000199+03541+01891100471ADDAA101999990AZ101061AZ201061GA1041+008001081GE19MSL   +99999+99999GF104991041990008001991991MA1999990095691MD1909990-0131REMSYN004BUFR
0142832880999992014021318004-13262-043408FM-15+044399999V0202101N003119999999N009999199+03601+01801999999ADDGA1041+009141991GE19MSL   +99999+99999GF199999041990009141991991MA1100901999990REMMET051METAR SBLP 131800Z 21006KT 9999 SCT030 36/18 Q1009=
0142832880999992014021319004-13262-043408FM-15+044399999V0202301N001519999999N009999199+03601+01601999999ADDGA1041+009141991GE19MSL   +99999+99999GF199999041990009141991991MA1100801999990REMMET051METAR SBLP 131900Z 23003KT 9999 SCT030 36/16 Q1008=
0142832880999992014021320004-13262-043408FM-15+044399999V0202201N002619999999N009999199+03601+01301999999ADDGA1041+009141991GE19MSL   +99999+99999GF199999041990009141991991MA1100801999990REMMET051METAR SBLP 132000Z 22005KT 9999 SCT030 36/13 Q1008=
0142832880999992014021321004-13262-043408FM-15+044399999V0201801N004119999999N009999199+03401+01601999999ADDGA1021+009141991GE19MSL   +99999+99999GF199999021990009141991991MA1100901999990REMMET051METAR SBLP 132100Z 18008KT 9999 FEW030 34/16 Q1009=
0165832880999992014021409154-13262-043408FM-16+044399999V0209999C000010304819N009999199+02401+01701999999ADDGA1021+006101991GA2071+030481991GE19MSL   +99999+99999GF199999021990006101991991MA1101301999990REMMET058SPECI SBLP 140915Z 00000KT 9999 FEW020 BKN100 24/17 Q1013=
0165832880999992014021410004-13262-043408FM-15+044399999V0209999C000010304819N009999199+02401+01701999999ADDGA1021+009141991GA2071+030481991GE19MSL   +99999+99999GF199999021990009141991991MA1101301999990REMMET058METAR SBLP 141000Z 00000KT 9999 FEW030 BKN100 24/17 Q1013=
0165832880999992014021411004-13262-043408FM-15+044399999V0201401N00151030481CN009999199+02701+01801999999ADDGA1021+009141991GA2041+030481991GE19MSL   +99999+99999GF199999021990009141991991MA1101401999990REMMET058METAR SBLP 141100Z 14003KT 9999 FEW030 SCT100 27/18 Q1014=
0181832880999992014021412004-13267-043417FM-12+044199999V0200901N0015199999999020000199+02941+01951101121ADDAA101999990AZ101061AZ201061GA1011+008001081GA2991+999991001GA3991+999991031GE19MSL   +99999+99999GF104991011990008001991991KA1120N+02421MA1999990096241MD1909990+0081REMSYN004BUFR
0142832880999992014021412004-13262-043408FM-15+044399999V0209999C000019999999N009999199+03101+01701999999ADDGA1021+009141991GE19MSL   +99999+99999GF199999021990009141991991MA1101401999990REMMET051METAR SBLP 141200Z 00000KT 9999 FEW030 31/17 Q1014=
0142832880999992014021413004-13262-043408FM-15+044399999V0200301N003619999999N009999199+03201+01701999999ADDGA1021+009141991GE19MSL   +99999+99999GF199999021990009141991991MA1101401999990REMMET051METAR SBLP 141300Z 03007KT 9999 FEW030 32/17 Q1014=
0142832880999992014021414004-13262-043408FM-15+044399999V0200301N002619999999N009999199+03301+01801999999ADDGA1021+009141991GE19MSL   +99999+99999GF199999021990009141991991MA1101401999990REMMET051METAR SBLP 141400Z 03005KT 9999 FEW030 33/18 Q1014=
0142832880999992014021415004-13262-043408FM-15+044399999V0203301N003119999999N009999199+03401+01801999999ADDGA1041+009141991GE19MSL   +99999+99999GF199999041990009141991991MA1101301999990REMMET051METAR SBLP 141500Z 33006KT 9999 SCT030 34/18 Q1013=
0142832880999992014021416004-13262-043408FM-15+044399999V0202701N002119999999N009999199+03501+01701999999ADDGA1041+009141991GE19MSL   +99999+99999GF199999041990009141991991MA1101201999990REMMET051METAR SBLP 141600Z 27004KT 9999 SCT030 35/17 Q1012=
0142832880999992014021417004-13262-043408FM-15+044399999V0202101N001519999999N009999199+03601+01701999999ADDGA1041+009141991GE19MSL   +99999+99999GF199999041990009141991991MA1101101999990REMMET051METAR SBLP 141700Z 21003KT 9999 SCT030 36/17 Q1011=
0168832880999992014021418004-13267-043417FM-12+044199999V0200901N0010199999999020000199+03491+02091100611ADDAA101999990AZ101061AZ201061GA1031+008001061GA2991+999991001GA3991+999991031GE19MSL   +99999+99999GF105991031990008001991991MA1999990095851MD1909990+0161REMSYN004BUFR
0142832880999992014021418004-13262-043408FM-15+044399999V0201001N001510091419N009999199+03601+01801999999ADDGA1071+009141991GE19MSL   +99999+99999GF199999071990009141991991MA1101001999990REMMET051METAR SBLP 141800Z 10003KT 9999 BKN030 36/18 Q1010=
0142832880999992014021419004-13262-043408FM-15+044399999V0201501N001019999999N009999199+03601+01801999999ADDGA1041+009141991GE19MSL   +99999+99999GF199999041990009141991991MA1101001999990REMMET051METAR SBLP 141900Z 15002KT 9999 SCT030 36/18 Q1010=
0165832880999992014021420004-13262-043408FM-15+044399999V0202401N00101030481CN009999199+03401+02301999999ADDGA1041+009141991GA2041+030481991GE19MSL   +99999+99999GF199999041990009141991991MA1101001999990REMMET058METAR SBLP 142000Z 24002KT 9999 SCT030 SCT100 34/23 Q1010=
0142832880999992014021421004-13262-043408FM-15+044399999V0202901N001019999999N009999199+03301+01901999999ADDGA1021+009141991GE19MSL   +99999+99999GF199999021990009141991991MA1101001999990REMMET051METAR SBLP 142100Z 29002KT 9999 FEW030 33/19 Q1010=
0168832880999992014021518004-13267-043417FM-12+044199999V0202301N0005199999999020000199+03371+02261100651ADDAA101999990AZ101061AZ201061GA1031+008001081GA2991+999991021GA3991+999991031GE19MSL   +99999+99999GF107991031990008001991991MA1999990095881MD1909990+0031REMSYN004BUFR
0171832880999992014021612004-13267-043417FM-12+044199999V0200501N0015199999999020000199+02241+02121101311ADDAA124005031AY161061AY251061GA1041+008001081GA2991+999991001GE19MSL   +99999+99999GF108991041990008001991991KA1120N+02131MA1999990096381MD1909990+0031MW1021REMSYN004BUFR
0152832880999992014021618004-13267-043417FM-12+044199999V0203601N0005199999999020000199+03091+02301100821ADDAA101999990AZ101061AZ201061GA1041+008001061GA2991+999991041GE19MSL   +99999+99999GF106991041990008001991991MA1999990095991MD1909990+0111REMSYN004BUFR
0165832880999992014021709154-13262-043408FM-16+044399999V0209999C00001030481CN009999199+02301+02101999999ADDGA1041+009141991GA2041+030481991GE19MSL   +99999+99999GF199999041990009141991991MA1101401999990REMMET058SPECI SBLP 170915Z 00000KT 9999 SCT030 SCT100 23/21 Q1014=
0165832880999992014021710004-13262-043408FM-15+044399999V0209999C000010091419N009999199+02301+02201999999ADDGA1071+009141991GA2041+030481991GE19MSL   +99999+99999GF199999071990009141991991MA1101401999990REMMET058METAR SBLP 171000Z 00000KT 9999 BKN030 SCT100 23/22 Q1014=
0165832880999992014021711004-13262-043408FM-15+044399999V0202101N001510091419N009999199+02501+02201999999ADDGA1071+009141991GA2041+030481991GE19MSL   +99999+99999GF199999071990009141991991MA1101501999990REMMET058METAR SBLP 171100Z 21003KT 9999 BKN030 SCT100 25/22 Q1015=
0171832880999992014021712004-13267-043417FM-12+044199999V0202701N0005199999999020000199+02571+02281101211ADDAA124000431AY151061AY251061GA1031+008001081GA2991+999991031GE19MSL   +99999+99999GF106991031990008001991991KA1120N+02221MA1999990096321MD1909990-0061MW1031REMSYN004BUFR
0142832880999992014021712004-13262-043408FM-15+044399999V0209999C000010091419N009999199+02601+02201999999ADDGA1071+009141991GE19MSL   +99999+99999GF199999071990009141991991MA1101501999990REMMET051METAR SBLP 171200Z 00000KT 9999 BKN030 26/22 Q1015=
0165832880999992014021713004-13262-043408FM-15+044399999V0201901N002610091419N009999199+02601+02201999999ADDGA1071+009141991GA2041+030481991GE19MSL   +99999+99999GF199999071990009141991991MA1101501999990REMMET058METAR SBLP 171300Z 19005KT 9999 BKN030 SCT100 26/22 Q1015=
0165832880999992014021714004-13262-043408FM-15+044399999V0202001N002610091419N009999199+02701+02101999999ADDGA1071+009141991GA2041+030481991GE19MSL   +99999+99999GF199999071990009141991991MA1101501999990REMMET058METAR SBLP 171400Z 20005KT 9999 BKN030 SCT100 27/21 Q1015=
0165832880999992014021715004-13262-043408FM-15+044399999V0202101N003110091419N009999199+02801+02101999999ADDGA1071+009141991GA2041+030481991GE19MSL   +99999+99999GF199999071990009141991991MA1101401999990REMMET058METAR SBLP 171500Z 21006KT 9999 BKN030 SCT100 28/21 Q1014=
0165832880999992014021716004-13262-043408FM-15+044399999V0209999C00001030481CN009999199+03101+02001999999ADDGA1041+009141991GA2041+030481991GE19MSL   +99999+99999GF199999041990009141991991MA1101301999990REMMET058METAR SBLP 171600Z 00000KT 9999 SCT030 SCT100 31/20 Q1013=
0165832880999992014021717004-13262-043408FM-15+044399999V0202801N00311030481CN009999199+03201+01901999999ADDGA1041+009141991GA2041+030481991GE19MSL   +99999+99999GF199999041990009141991991MA1101201999990REMMET058METAR SBLP 171700Z 28006KT 9999 SCT030 SCT100 32/19 Q1012=
0168832880999992014021718004-13267-043417FM-12+044199999V0202701N0015199999999020000199+02901+02261100781ADDAA101999990AZ101061AZ201061GA1041+008001061GA2991+999991101GA3991+999991031GE19MSL   +99999+99999GF108991041990008001991991MA1999990095921MD1909990-0071REMSYN004BUFR
0165832880999992014021718004-13262-043408FM-15+044399999V0202701N001510304819N009999199+02901+02301999999ADDGA1041+009141991GA2071+030481991GE19MSL   +99999+99999GF199999041990009141991991MA1101101999990REMMET058METAR SBLP 171800Z 27003KT 9999 SCT030 BKN100 29/23 Q1011=
0188832880999992014021719004-13262-043408FM-15+044399999V0203301N00211030481CN009999199+03001+02001999999ADDGA1041+009141991GA2041+030481991GA3071+030481991GE19MSL   +99999+99999GF199999041990009141991991MA1101001999990REMMET065METAR SBLP 171900Z 33004KT 9999 SCT030 BKN100 SCT100 30/20 Q1010=
0165832880999992014021720004-13262-043408FM-15+044399999V0203001N002110304819N009999199+02901+01901999999ADDGA1041+009141991GA2071+030481991GE19MSL   +99999+99999GF199999041990009141991991MA1101001999990REMMET058METAR SBLP 172000Z 30004KT 9999 SCT030 BKN100 29/19 Q1010=
0165832880999992014021721004-13262-043408FM-15+044399999V0203001N001010304819N009999199+02801+01901999999ADDGA1021+009141991GA2071+030481991GE19MSL   +99999+99999GF199999021990009141991991MA1101001999990REMMET058METAR SBLP 172100Z 30002KT 9999 FEW030 BKN100 28/19 Q1010=
0165832880999992014021809154-13262-043408FM-16+044399999V0201201N00151030481CN009999199+02301+02001999999ADDGA1021+006101991GA2041+030481991GE19MSL   +99999+99999GF199999021990006101991991MA1101301999990REMMET058SPECI SBLP 180915Z 12003KT 9999 FEW020 SCT100 23/20 Q1013=
0165832880999992014021810004-13262-043408FM-15+044399999V0200501N002110304819N009999199+02301+02001999999ADDGA1021+006101991GA2071+030481991GE19MSL   +99999+99999GF199999021990006101991991MA1101301999990REMMET058METAR SBLP 181000Z 05004KT 9999 FEW020 BKN100 23/20 Q1013=
0165832880999992014021811004-13262-043408FM-15+044399999V0209999C000010304819N009999199+02401+02101999999ADDGA1021+006101991GA2071+030481991GE19MSL   +99999+99999GF199999021990006101991991MA1101401999990REMMET058METAR SBLP 181100Z 00000KT 9999 FEW020 BKN100 24/21 Q1014=
0181832880999992014021812004-13267-043417FM-12+044199999V0203601N0000100800199020000199+02391+02131101141ADDAA101999990AZ101061AZ201061GA1081+008001061GA2991+999991101GA3991+999991101GE19MSL   +99999+99999GF108991081990008001991991KA1120N+02201MA1999990096251MD1909990-0071REMSYN004BUFR
0165832880999992014021812004-13262-043408FM-15+044399999V0201201N001510304819N009999199+02601+02001999999ADDGA1021+006101991GA2071+030481991GE19MSL   +99999+99999GF199999021990006101991991MA1101501999990REMMET058METAR SBLP 181200Z 12003KT 9999 FEW020 BKN100 26/20 Q1015=
0165832880999992014021813004-13262-043408FM-15+044399999V0203001N002610304819N009999199+02701+02101999999ADDGA1041+007621991GA2071+030481991GE19MSL   +99999+99999GF199999041990007621991991MA1101501999990REMMET058METAR SBLP 181300Z 30005KT 9999 SCT025 BKN100 27/21 Q1015=
0165832880999992014021814004-13262-043408FM-15+044399999V0203301N00311030481CN009999199+02901+02101999999ADDGA1041+009141991GA2041+030481991GE19MSL   +99999+99999GF199999041990009141991991MA1101401999990REMMET058METAR SBLP 181400Z 33006KT 9999 SCT030 SCT100 29/21 Q1014=
0165832880999992014021815004-13262-043408FM-15+044399999V0202901N002610304819N009999199+02901+02101999999ADDGA1041+009141991GA2071+030481991GE19MSL   +99999+99999GF199999041990009141991991MA1101401999990REMMET058METAR SBLP 181500Z 29005KT 9999 SCT030 BKN100 29/21 Q1014=
0188832880999992014021816004-13262-043408FM-15+044399999V0203301N00361009141CN009999199+02801+02001999999ADDGA1021+006101991GA2041+009141991GA3071+030481991GE19MSL   +99999+99999GF199999021990006101991991MA1101301999990REMMET065METAR SBLP 181600Z 33007KT 9999 FEW020 SCT030 BKN100 28/20 Q1013=
0198832880999992014021817004-13262-043408FM-15+044399999V0202201N00261006101CN008000199+02401+02201999999ADDGA1041+005181991GA2041+006101991GA3071+030481991GE19MSL   +99999+99999GF199999041990005181991991MA1101201999990MW1611REMMET069METAR SBLP 181700Z 22005KT 8000 -RA SCT017 SCT020 BKN100 24/22 Q1012=
0174832880999992014021818004-13267-043417FM-12+044199999V0201801N0010100800199020000199+02371+02111100981ADDAA106006031AY161061AY261061GA1081+008001071GA2991+999991101GA3991+999991101GE19MSL   +99999+99999GF108991081990008001991991MA1999990096081MD1909990+0161MW1601REMSYN004BUFR
0198832880999992014021818004-13262-043408FM-15+044399999V0202201N00151009141CN008000199+02301+02201999999ADDGA1041+005181991GA2041+009141991GA3071+030481991GE19MSL   +99999+99999GF199999041990005181991991MA1101201999990MW1611REMMET069METAR SBLP 181800Z 22003KT 8000 -RA SCT017 SCT030 BKN100 23/22 Q1012=
0188832880999992014021819004-13262-043408FM-15+044399999V0201301N00151009141CN009999199+02501+02201999999ADDGA1021+006101991GA2041+009141991GA3071+030481991GE19MSL   +99999+99999GF199999021990006101991991MA1101101999990REMMET065METAR SBLP 181900Z 13003KT 9999 FEW020 SCT030 BKN100 25/22 Q1011=
0188832880999992014021820004-13262-043408FM-15+044399999V0209999C00001009141CN009999199+02501+02201999999ADDGA1021+006101991GA2041+009141991GA3071+030481991GE19MSL   +99999+99999GF199999021990006101991991MA1101101999990REMMET065METAR SBLP 182000Z 00000KT 9999 FEW020 SCT030 BKN100 25/22 Q1011=
0165832880999992014021821004-13262-043408FM-15+044399999V0209999C000010304819N009999199+02501+02201999999ADDGA1041+009141991GA2071+030481991GE19MSL   +99999+99999GF199999041990009141991991MA1101101999990REMMET058METAR SBLP 182100Z 00000KT 9999 SCT030 BKN100 25/22 Q1011=
0188832880999992014021909154-13262-043408FM-16+044399999V0203601N00151009141CN009999199+02101+02101999999ADDGA1021+006101991GA2041+009141991GA3071+030481991GE19MSL   +99999+99999GF199999021990006101991991MA1101401999990REMMET065SPECI SBLP 190915Z 36003KT 9999 FEW020 SCT030 BKN100 21/21 Q1014=
0191832880999992014021910004-13262-043408FM-15+044399999V0209999C00001009141CN009999199+02201+02101999999ADDGA1021+006101991GA2041+009141081GA3071+030481991GE19MSL   +99999+99999GF199999021990006101991991MA1101401999990REMMET068METAR SBLP 191000Z 00000KT 9999 FEW020 SCT030TCU BKN100 22/21 Q1014=
0188832880999992014021911004-13262-043408FM-15+044399999V0209999C00001009141CN009999199+02301+02101999999ADDGA1041+006101991GA2041+009141991GA3071+030481991GE19MSL   +99999+99999GF199999041990006101991991MA1101501999990REMMET065METAR SBLP 191100Z 00000KT 9999 SCT020 SCT030 BKN100 23/21 Q1015=
0187832880999992014021912004-13267-043417FM-12+044199999V0202301N0015199999999020000199+02341+02221101221ADDAA124009031AY161061AY261061GA1031+004501061GA2991+999991021GA3991+999991051GE19MSL   +99999+99999GF108991031990004501991991KA1120N+02121MA1999990096301MD1909990+0051MW1031REMSYN004BUFR
0188832880999992014021912004-13262-043408FM-15+044399999V0201801N00151009141CN009999199+02401+02201999999ADDGA1021+006101991GA2041+009141991GA3071+030481991GE19MSL   +99999+99999GF199999021990006101991991MA1101501999990REMMET065METAR SBLP 191200Z 18003KT 9999 FEW020 SCT030 BKN100 24/22 Q1015=
0188832880999992014021913004-13262-043408FM-15+044399999V0202701N00261009141CN009999199+02501+02201999999ADDGA1041+006101991GA2041+009141991GA3071+030481991GE19MSL   +99999+99999GF199999041990006101991991MA1101601999990REMMET065METAR SBLP 191300Z 27005KT 9999 SCT020 SCT030 BKN100 25/22 Q1016=
0188832880999992014021914004-13262-043408FM-15+044399999V0201901N00411009141CN009999199+02601+02101999999ADDGA1021+006101991GA2041+009141991GA3071+030481991GE19MSL   +99999+99999GF199999021990006101991991MA1101501999990REMMET065METAR SBLP 191400Z 19008KT 9999 FEW020 SCT030 BKN100 26/21 Q1015=
0188832880999992014021915004-13262-043408FM-15+044399999V0209999C00001009141CN009999199+02701+02001999999ADDGA1041+006101991GA2041+009141991GA3071+030481991GE19MSL   +99999+99999GF199999041990006101991991MA1101501999990REMMET065METAR SBLP 191500Z 00000KT 9999 SCT020 SCT030 BKN100 27/20 Q1015=
0188832880999992014021916004-13262-043408FM-15+044399999V0203501N00211009141CN009999199+02501+02101999999ADDGA1041+006101991GA2041+009141991GA3071+030481991GE19MSL   +99999+99999GF199999041990006101991991MA1101401999990REMMET065METAR SBLP 191600Z 35004KT 9999 SCT020 SCT030 BKN100 25/21 Q1014=
0165832880999992014021917004-13262-043408FM-15+044399999V0203001N001010304819N009999199+02901+02101999999ADDGA1041+009141991GA2071+030481991GE19MSL   +99999+99999GF199999041990009141991991MA1101301999990REMMET058METAR SBLP 191700Z 30002KT 9999 SCT030 BKN100 29/21 Q1013=
0152832880999992014021918004-13267-043417FM-12+044199999V0201401N0021100800199020000199+03021+02161100831ADDAA101999990AZ101061AZ201061GA1051+008001081GA2991+999991001GE19MSL   +99999+99999GF107991051990008001991991MA1999990095971MD1909990-0111REMSYN004BUFR
0188832880999992014021918004-13262-043408FM-15+044399999V0209999C00001009141CN009999199+03001+01901999999ADDGA1021+006101991GA2041+009141991GA3071+030481991GE19MSL   +99999+99999GF199999021990006101991991MA1101201999990REMMET065METAR SBLP 191800Z 00000KT 9999 FEW020 SCT030 BKN100 30/19 Q1012=
0188832880999992014021919004-13262-043408FM-15+044399999V0201301N00311009141CN009999199+02601+02001999999ADDGA1041+006101991GA2041+009141991GA3071+030481991GE19MSL   +99999+99999GF199999041990006101991991MA1101201999990REMMET065METAR SBLP 191900Z 13006KT 9999 SCT020 SCT030 BKN100 26/20 Q1012=
0175832880999992014021920004-13262-043408FM-15+044399999V0201801N001510304819N009000199+02401+02201999999ADDGA1041+006101991GA2071+030481991GE19MSL   +99999+99999GF199999041990006101991991MA1101201999990MW1611REMMET062METAR SBLP 192000Z 18003KT 9000 -RA SCT020 BKN100 24/22 Q1012=
0175832880999992014021921004-13262-043408FM-15+044399999V0200801N001510304819N009000199+02301+02101999999ADDGA1041+006101991GA2081+030481991GE19MSL   +99999+99999GF199999041990006101991991MA1101301999990MW1611REMMET062METAR SBLP 192100Z 08003KT 9000 -RA SCT020 OVC100 23/21 Q1013=
0188832880999992014022009154-13262-043408FM-16+044399999V0209999C00001006101CN009999199+02201+02101999999ADDGA1041+003051991GA2041+006101991GA3071+030481991GE19MSL   +99999+99999GF199999041990003051991991MA1101501999990REMMET065SPECI SBLP 200915Z 00000KT 9999 SCT010 SCT020 BKN100 22/21 Q1015=
0188832880999992014022010004-13262-043408FM-15+044399999V0202001N00211009141CN009999199+02201+02101999999ADDGA1041+006101991GA2041+009141991GA3071+030481991GE19MSL   +99999+99999GF199999041990006101991991MA1101501999990REMMET065METAR SBLP 201000Z 20004KT 9999 SCT020 SCT030 BKN100 22/21 Q1015=
0188832880999992014022011004-13262-043408FM-15+044399999V0209999C00001009141CN009999199+02301+02201999999ADDGA1041+006101991GA2041+009141991GA3071+030481991GE19MSL   +99999+99999GF199999041990006101991991MA1101501999990REMMET065METAR SBLP 201100Z 00000KT 9999 SCT020 SCT030 BKN100 23/22 Q1015=
0165832880999992014022012004-13267-043417FM-12+044199999V0202301N0005199999999020000199+02521+02241101301ADDAA124003031AZ101061AZ201061GA1021+008001061GA2991+999991031GE19MSL   +99999+99999GF106991021990008001991991KA1120N+02181MA1999990096381MD1909990+0081REMSYN004BUFR
0165832880999992014022012004-13262-043408FM-15+044399999V0201601N001510304819N009999199+02701+02101999999ADDGA1041+009141991GA2071+030481991GE19MSL   +99999+99999GF199999041990009141991991MA1101601999990REMMET058METAR SBLP 201200Z 16003KT 9999 SCT030 BKN100 27/21 Q1016=
0165832880999992014022013004-13262-043408FM-15+044399999V0202401N001510304819N009999199+02701+02101999999ADDGA1041+009141991GA2071+030481991GE19MSL   +99999+99999GF199999041990009141991991MA1101601999990REMMET058METAR SBLP 201300Z 24003KT 9999 SCT030 BKN100 27/21 Q1016=
0165832880999992014022014004-13262-043408FM-15+044399999V0201401N001510304819N009999199+02801+02001999999ADDGA1041+009141991GA2071+030481991GE19MSL   +99999+99999GF199999041990009141991991MA1101601999990REMMET058METAR SBLP 201400Z 14003KT 9999 SCT030 BKN100 28/20 Q1016=
0165832880999992014022015004-13262-043408FM-15+044399999V0209999C000010304819N009999199+02901+02001999999ADDGA1041+009141991GA2071+030481991GE19MSL   +99999+99999GF199999041990009141991991MA1101601999990REMMET058METAR SBLP 201500Z 00000KT 9999 SCT030 BKN100 29/20 Q1016=
0165832880999992014022016004-13262-043408FM-15+044399999V0202101N002110304819N009999199+03001+02201999999ADDGA1041+009141991GA2071+030481991GE19MSL   +99999+99999GF199999041990009141991991MA1101501999990REMMET058METAR SBLP 201600Z 21004KT 9999 SCT030 BKN100 30/22 Q1015=
0165832880999992014022017004-13262-043408FM-15+044399999V0202201N003110304819N009999199+03101+02101999999ADDGA1041+009141991GA2071+030481991GE19MSL   +99999+99999GF199999041990009141991991MA1101301999990REMMET058METAR SBLP 201700Z 22006KT 9999 SCT030 BKN100 31/21 Q1013=
0152832880999992014022018004-13267-043417FM-12+044199999V0202301N0010199999999020000199+03171+02091100891ADDAA101999990AZ101061AZ201061GA1031+008001081GA2991+999991031GE19MSL   +99999+99999GF105991031990008001991991MA1999990096051MD1909990+0081REMSYN004BUFR
0165832880999992014022018004-13262-043408FM-15+044399999V0202001N00461030481CN009999199+03201+01701999999ADDGA1041+009141991GA2041+030481991GE19MSL   +99999+99999GF199999041990009141991991MA1101201999990REMMET058METAR SBLP 201800Z 20009KT 9999 SCT030 SCT100 32/17 Q1012=
0165832880999992014022019004-13262-043408FM-15+044399999V0201901N00411030481CN009999199+03301+02001999999ADDGA1041+009141991GA2041+030481991GE19MSL   +99999+99999GF199999041990009141991991MA1101201999990REMMET058METAR SBLP 201900Z 19008KT 9999 SCT030 SCT100 33/20 Q1012=
0165832880999992014022020004-13262-043408FM-15+044399999V0201701N00361030481CN009999199+03301+01801999999ADDGA1041+009141991GA2041+030481991GE19MSL   +99999+99999GF199999041990009141991991MA1101101999990REMMET058METAR SBLP 202000Z 17007KT 9999 SCT030 SCT100 33/18 Q1011=
0165832880999992014022021004-13262-043408FM-15+044399999V0200701N003110304819N009999199+03001+02001999999ADDGA1041+009141991GA2071+030481991GE19MSL   +99999+99999GF199999041990009141991991MA1101201999990REMMET058METAR SBLP 202100Z 07006KT 9999 SCT030 BKN100 30/20 Q1012=
0165832880999992014022109154-13262-043408FM-16+044399999V0209999C00001030481CN009999199+02201+02101999999ADDGA1021+006101991GA2041+030481991GE19MSL   +99999+99999GF199999021990006101991991MA1101501999990REMMET058SPECI SBLP 210915Z 00000KT 9999 FEW020 SCT100 22/21 Q1015=
0165832880999992014022110004-13262-043408FM-15+044399999V0209999C00001030481CN009999199+02301+02201999999ADDGA1021+006101991GA2041+030481991GE19MSL   +99999+99999GF199999021990006101991991MA1101501999990REMMET058METAR SBLP 211000Z 00000KT 9999 FEW020 SCT100 23/22 Q1015=
0072832880999992014022111004-13262-043408FM-15+044399999V0201201N002119999999Y999999999+02601+02101999999ADDMA1101601999990REMMET045METAR SBLP 211100Z 12004KT CAVOK 26/21 Q1016=
0165832880999992014022112004-13267-043417FM-12+044199999V0200901N0015199999999020000199+02721+02041101331ADDAA101999990AZ101061AZ201061GA1021+008001081GA2991+999991031GE19MSL   +99999+99999GF103991021990008001991991KA1120N+02221MA1999990096451MD1909990+0071REMSYN004BUFR
0142832880999992014022112004-13262-043408FM-15+044399999V0200901N003119999999N009999199+02901+01901999999ADDGA1021+009141991GE19MSL   +99999+99999GF199999021990009141991991MA1101701999990REMMET051METAR SBLP 211200Z 09006KT 9999 FEW030 29/19 Q1017=
0142832880999992014022113004-13262-043408FM-15+044399999V0201001N002119999999N009999199+02901+01901999999ADDGA1041+009141991GE19MSL   +99999+99999GF199999041990009141991991MA1101701999990REMMET051METAR SBLP 211300Z 10004KT 9999 SCT030 29/19 Q1017=
0165832880999992014022114004-13262-043408FM-15+044399999V0209999C00001009141CN009999199+03001+02001999999ADDGA1041+006101991GA2041+009141991GE19MSL   +99999+99999GF199999041990006101991991MA1101601999990REMMET058METAR SBLP 211400Z 00000KT 9999 SCT020 SCT030 30/20 Q1016=
0165832880999992014022115004-13262-043408FM-15+044399999V0200901N003110091419N009999199+03201+01901999999ADDGA1041+006101991GA2071+009141991GE19MSL   +99999+99999GF199999041990006101991991MA1101501999990REMMET058METAR SBLP 211500Z 09006KT 9999 SCT020 BKN030 32/19 Q1015=
0165832880999992014022116004-13262-043408FM-15+044399999V0209999C00001030481CN009999199+03101+01901999999ADDGA1041+009141991GA2041+030481991GE19MSL   +99999+99999GF199999041990009141991991MA1101401999990REMMET058METAR SBLP 211600Z 00000KT 9999 SCT030 SCT100 31/19 Q1014=
0165832880999992014022117004-13262-043408FM-15+044399999V0209999C00001030481CN009999199+03201+01901999999ADDGA1041+009141991GA2041+030481991GE19MSL   +99999+99999GF199999041990009141991991MA1101301999990REMMET058METAR SBLP 211700Z 00000KT 9999 SCT030 SCT100 32/19 Q1013=
0168832880999992014022118004-13267-043417FM-12+044199999V0201401N0010199999999020000199+03241+02171100821ADDAA101999990AZ101061AZ201061GA1031+008001081GA2991+999991021GA3991+999991031GE19MSL   +99999+99999GF106991031990008001991991MA1999990096011MD1909990-0041REMSYN004BUFR
0165832880999992014022118004-13262-043408FM-15+044399999V0209999C00001030481CN009999199+03301+01901999999ADDGA1041+009141991GA2041+030481991GE19MSL   +99999+99999GF199999041990009141991991MA1101201999990REMMET058METAR SBLP 211800Z 00000KT 9999 SCT030 SCT100 33/19 Q1012=
0165832880999992014022119004-13262-043408FM-15+044399999V0200501N00511030481CN009999199+03301+01801999999ADDGA1041+009141991GA2041+030481991GE19MSL   +99999+99999GF199999041990009141991991MA1101101999990REMMET058METAR SBLP 211900Z 05010KT 9999 SCT030 SCT100 33/18 Q1011=
0165832880999992014022120004-13262-043408FM-15+044399999V0200601N00311030481CN009999199+03201+01801999999ADDGA1021+009141991GA2041+030481991GE19MSL   +99999+99999GF199999021990009141991991MA1101101999990REMMET058METAR SBLP 212000Z 06006KT 9999 FEW030 SCT100 32/18 Q1011=
0165832880999992014022121004-13262-043408FM-15+044399999V0200801N00261030481CN009999199+03101+01901999999ADDGA1021+009141991GA2041+030481991GE19MSL   +99999+99999GF199999021990009141991991MA1101101999990REMMET058METAR SBLP 212100Z 08005KT 9999 FEW030 SCT100 31/19 Q1011=
0149832880999992014022212004-13267-043417FM-12+044199999V0201401N0015199999999020000199+02741+01951101241ADDAA101999990AZ101061AZ201061GA1991+025001001GE19MSL   +99999+99999GF103991990990025001991991KA1120N+02311MA1999990096411MD1909990-0041REMSYN004BUFR
0152832880999992014022218004-13267-043417FM-12+044199999V0200901N0021199999999020000199+03321+02001100921ADDAA101999990AZ101061AZ201061GA1011+008001081GA2991+999991001GE19MSL   +99999+99999GF107991011990008001991991MA1999990096111MD1909990+0101REMSYN004BUFR
0165832880999992014022312004-13267-043417FM-12+044199999V0200901N0010199999999020000199+02801+01931101201ADDAA101999990AZ101061AZ201061GA1011+008001081GA2991+999991021GE19MSL   +99999+99999GF103991011990008001991991KA1120N+02221MA1999990096371MD1909990-0041REMSYN004BUFR
0152832880999992014022318004-13267-043417FM-12+044199999V0202301N0005199999999020000199+03421+02191100781ADDAA101999990AZ101061AZ201061GA1031+008001081GA2991+999991021GE19MSL   +99999+99999GF104991031990008001991991MA1999990096011MD1909990-0101REMSYN004BUFR
0072832880999992014022409154-13262-043408FM-16+044399999V0201201N001519999999Y999999999+02201+01901999999ADDMA1101401999990REMMET045SPECI SBLP 240915Z 12003KT CAVOK 22/19 Q1014=
0072832880999992014022410004-13262-043408FM-15+044399999V0201401N002119999999Y999999999+02201+02001999999ADDMA1101501999990REMMET045METAR SBLP 241000Z 14004KT CAVOK 22/20 Q1015=
0072832880999992014022411004-13262-043408FM-15+044399999V0201701N002619999999Y999999999+02601+02101999999ADDMA1101601999990REMMET045METAR SBLP 241100Z 17005KT CAVOK 26/21 Q1016=
0149832880999992014022412004-13267-043417FM-12+044199999V0201401N0015199999999020000199+02721+02051101201ADDAA124010031AZ101061AZ201061GA1011+017501031GE19MSL   +99999+99999GF101991011990017501991991KA1120N+02171MA1999990096321MD1909990-0051REMSYN004BUFR
0072832880999992014022412004-13262-043408FM-15+044399999V0201401N002119999999Y999999999+02901+02001999999ADDMA1101601999990REMMET045METAR SBLP 241200Z 14004KT CAVOK 29/20 Q1016=
0142832880999992014022413004-13262-043408FM-15+044399999V0201301N001519999999N009999199+03001+02001999999ADDGA1021+009141991GE19MSL   +99999+99999GF199999021990009141991991MA1101601999990REMMET051METAR SBLP 241300Z 13003KT 9999 FEW030 30/20 Q1016=
0142832880999992014022414004-13262-043408FM-15+044399999V0201201N002119999999N009999199+03201+02001999999ADDGA1021+009141991GE19MSL   +99999+99999GF199999021990009141991991MA1101501999990REMMET051METAR SBLP 241400Z 12004KT 9999 FEW030 32/20 Q1015=
0142832880999992014022415004-13262-043408FM-15+044399999V0200601N002619999999N009999199+03301+01801999999ADDGA1041+009141991GE19MSL   +99999+99999GF199999041990009141991991MA1101401999990REMMET051METAR SBLP 241500Z 06005KT 9999 SCT030 33/18 Q1014=
0142832880999992014022416004-13262-043408FM-15+044399999V0201201N001010091419N009999199+03301+01901999999ADDGA1071+009141991GE19MSL   +99999+99999GF199999071990009141991991MA1101301999990REMMET051METAR SBLP 241600Z 12002KT 9999 BKN030 33/19 Q1013=
0165832880999992014022417004-13262-043408FM-15+044399999V0201501N00151009141CN009999199+03401+01901999999ADDGA1021+006101991GA2041+009141991GE19MSL   +99999+99999GF199999021990006101991991MA1101201999990REMMET058METAR SBLP 241700Z 15003KT 9999 FEW020 SCT030 34/19 Q1012=
0136832880999992014022418004-13267-043417FM-12+044199999V0201401N0010199999999020000199+03271+02231100761ADDAA101999990AZ101061AZ201061GA1041+008001081GE19MSL   +99999+99999GF104991041990008001991991MA1999990095951MD1909990-0061REMSYN004BUFR
0165832880999992014022418004-13262-043408FM-15+044399999V0209999C00001009141CN009999199+03301+02001999999ADDGA1021+006101991GA2041+009141991GE19MSL   +99999+99999GF199999021990006101991991MA1101101999990REMMET058METAR SBLP 241800Z 00000KT 9999 FEW020 SCT030 33/20 Q1011=
0142832880999992014022419004-13262-043408FM-15+044399999V0209999C000019999999N009999199+03301+02001999999ADDGA1041+009141991GE19MSL   +99999+99999GF199999041990009141991991MA1101101999990REMMET051METAR SBLP 241900Z 00000KT 9999 SCT030 33/20 Q1011=
0176832880999992014022420004-13262-043408FM-15+044399999V0203601N002119999999N009999199+03201+02101999999ADDGA1021+006101991GA2021+012191091GE19MSL   +99999+99999GF199999021990006101991991MA1101001999990MW1171REMMET063METAR SBLP 242000Z 36004KT 9999 TS FEW020 FEW040CB 32/21 Q1010=
0170832880999992014022421004-13262-043408FM-15+044399999V0209999C00001009141CN009999199+03101+02201999999ADDGA1021+006101991GA2041+009141991GE19MSL   +99999+99999GF199999021990006101991991MA1101101999990REMMET063METAR SBLP 242100Z 00000KT 9999 FEW020 SCT030 31/22 Q1011 RETS=
0142832880999992014022509154-13262-043408FM-16+044399999V0201201N001519999999N009999199+02101+01901999999ADDGA1021+009141991GE19MSL   +99999+99999GF199999021990009141991991MA1101401999990REMMET051SPECI SBLP 250915Z 12003KT 9999 FEW030 21/19 Q1014=
0165832880999992014022510004-13262-043408FM-15+044399999V0201901N00151030481CN009999199+02301+01901999999ADDGA1021+009141991GA2041+030481991GE19MSL   +99999+99999GF199999021990009141991991MA1101501999990REMMET058METAR SBLP 251000Z 19003KT 9999 FEW030 SCT100 23/19 Q1015=
0165832880999992014022511004-13262-043408FM-15+044399999V0202001N00261030481CN009999199+02501+02001999999ADDGA1021+009141991GA2041+030481991GE19MSL   +99999+99999GF199999021990009141991991MA1101601999990REMMET058METAR SBLP 251100Z 20005KT 9999 FEW030 SCT100 25/20 Q1016=
0149832880999992014022512004-13267-043417FM-12+044199999V0200901N0015199999999020000199+02821+02101101211ADDAA101999990AZ101061AZ201061GA1991+025001001GE19MSL   +99999+99999GF101991990990025001991991KA1120N+02161MA1999990096371MD1909990+0051REMSYN004BUFR
0142832880999992014022512004-13262-043408FM-15+044399999V0201301N003619999999N009999199+02801+01901999999ADDGA1021+009141991GE19MSL   +99999+99999GF199999021990009141991991MA1101601999990REMMET051METAR SBLP 251200Z 13007KT 9999 FEW030 28/19 Q1016=
0142832880999992014022513004-13262-043408FM-15+044399999V0200901N004119999999N009999199+02901+01801999999ADDGA1021+009141991GE19MSL   +99999+99999GF199999021990009141991991MA1101601999990REMMET051METAR SBLP 251300Z 09008KT 9999 FEW030 29/18 Q1016=
0142832880999992014022514004-13262-043408FM-15+044399999V0202201N002119999999N009999199+02901+02001999999ADDGA1021+009141991GE19MSL   +99999+99999GF199999021990009141991991MA1101501999990REMMET051METAR SBLP 251400Z 22004KT 9999 FEW030 29/20 Q1015=
0165832880999992014022515004-13262-043408FM-15+044399999V0202101N00151030481CN009999199+03101+02001999999ADDGA1021+009141991GA2041+030481991GE19MSL   +99999+99999GF199999021990009141991991MA1101401999990REMMET058METAR SBLP 251500Z 21003KT 9999 FEW030 SCT100 31/20 Q1014=
0165832880999992014022516004-13262-043408FM-15+044399999V0200101N00211030481CN009999199+03301+01901999999ADDGA1041+009141991GA2041+030481991GE19MSL   +99999+99999GF199999041990009141991991MA1101301999990REMMET058METAR SBLP 251600Z 01004KT 9999 SCT030 SCT100 33/19 Q1013=
0142832880999992014022517004-13262-043408FM-15+044399999V0202101N003119999999N009999199+03401+01801999999ADDGA1041+009141991GE19MSL   +99999+99999GF199999041990009141991991MA1101201999990REMMET051METAR SBLP 251700Z 21006KT 9999 SCT030 34/18 Q1012=
0136832880999992014022518004-13267-043417FM-12+044199999V0202301N0021199999999020000199+03371+02261100721ADDAA101999990AZ101061AZ201061GA1031+008001081GE19MSL   +99999+99999GF103991031990008001991991MA1999990095911MD1909990-0041REMSYN004BUFR
0142832880999992014022518004-13262-043408FM-15+044399999V0201901N002619999999N009999199+03401+01701999999ADDGA1041+009141991GE19MSL   +99999+99999GF199999041990009141991991MA1101101999990REMMET051METAR SBLP 251800Z 19005KT 9999 SCT030 34/17 Q1011=
0176832880999992014022519004-13262-043408FM-15+044399999V0201201N006219999999N009999199+03501+01901999999ADDGA1041+009141991GA2021+012191091GE19MSL   +99999+99999GF199999041990009141991991MA1101001999990MW1171REMMET063METAR SBLP 251900Z 12012KT 9999 TS SCT030 FEW040CB 35/19 Q1010=
0193832880999992014022520004-13262-043408FM-15+044399999V0200601N00311009141CN009999199+02502+02101999999ADDGA1021+006101991GA2041+009141991GA3071+030481991GE19MSL   +99999+99999GF199999021990006101991991MA1101101999990REMMET070METAR SBLP 252000Z 06006KT 9999 FEW020 SCT030 BKN100 25/21 Q1011 RETS=
0165832880999992014022521004-13262-043408FM-15+044399999V0209999C000010304819N009999199+02601+02301999999ADDGA1021+009141991GA2071+030481991GE19MSL   +99999+99999GF199999021990009141991991MA1101101999990REMMET058METAR SBLP 252100Z 00000KT 9999 FEW030 BKN100 26/23 Q1011=
0165832880999992014022609154-13262-043408FM-16+044399999V0201901N00211030481CN009999199+02101+01901999999ADDGA1021+006101991GA2041+030481991GE19MSL   +99999+99999GF199999021990006101991991MA1101401999990REMMET058SPECI SBLP 260915Z 19004KT 9999 FEW020 SCT100 21/19 Q1014=
0165832880999992014022610004-13262-043408FM-15+044399999V0201501N00361030481CN009999199+02201+01901999999ADDGA1021+009141991GA2041+030481991GE19MSL   +99999+99999GF199999021990009141991991MA1101401999990REMMET058METAR SBLP 261000Z 15007KT 9999 FEW030 SCT100 22/19 Q1014=
0072832880999992014022611004-13262-043408FM-15+044399999V0201701N003119999999Y999999999+02401+02001999999ADDMA1101501999990REMMET045METAR SBLP 261100Z 17006KT CAVOK 24/20 Q1015=
0181832880999992014022612004-13267-043417FM-12+044199999V0200901N0015199999999020000199+02621+02021101121ADDAA124006031AZ101061AZ201061GA1011+008001081GA2991+999991001GA3991+999991031GE19MSL   +99999+99999GF104991011990008001991991KA1120N+02141MA1999990096341MD1909990-0031REMSYN004BUFR
0072832880999992014022612004-13262-043408FM-15+044399999V0201301N003619999999Y999999999+02801+01801999999ADDMA1101501999990REMMET045METAR SBLP 261200Z 13007KT CAVOK 28/18 Q1015=
0072832880999992014022613004-13262-043408FM-15+044399999V0201201N003119999999Y999999999+03001+01701999999ADDMA1101501999990REMMET045METAR SBLP 261300Z 12006KT CAVOK 30/17 Q1015=
0142832880999992014022614004-13262-043408FM-15+044399999V0201301N002119999999N009999199+03001+01701999999ADDGA1021+009141991GE19MSL   +99999+99999GF199999021990009141991991MA1101501999990REMMET051METAR SBLP 261400Z 13004KT 9999 FEW030 30/17 Q1015=
0142832880999992014022615004-13262-043408FM-15+044399999V0200301N003119999999N009999199+03101+01801999999ADDGA1021+009141991GE19MSL   +99999+99999GF199999021990009141991991MA1101401999990REMMET051METAR SBLP 261500Z 03006KT 9999 FEW030 31/18 Q1014=
0142832880999992014022616004-13262-043408FM-15+044399999V0200501N002119999999N009999199+03201+01701999999ADDGA1021+009141991GE19MSL   +99999+99999GF199999021990009141991991MA1101201999990REMMET051METAR SBLP 261600Z 05004KT 9999 FEW030 32/17 Q1012=
0142832880999992014022617004-13262-043408FM-15+044399999V0200601N004119999999N009999199+03301+01701999999ADDGA1041+009141991GE19MSL   +99999+99999GF199999041990009141991991MA1101101999990REMMET051METAR SBLP 261700Z 06008KT 9999 SCT030 33/17 Q1011=
0152832880999992014022618004-13267-043417FM-12+044199999V0200901N0005199999999020000199+03221+02051100731ADDAA101999990AZ101061AZ201061GA1031+008001081GA2991+999991001GE19MSL   +99999+99999GF104991031990008001991991MA1999990095901MD1909990-0011REMSYN004BUFR
0142832880999992014022618004-13262-043408FM-15+044399999V0201001N003119999999N009999199+03301+01701999999ADDGA1041+009141991GE19MSL   +99999+99999GF199999041990009141991991MA1101101999990REMMET051METAR SBLP 261800Z 10006KT 9999 SCT030 33/17 Q1011=
0142832880999992014022619004-13262-043408FM-15+044399999V0200601N002619999999N009999199+03301+01601999999ADDGA1021+009141991GE19MSL   +99999+99999GF199999021990009141991991MA1101001999990REMMET051METAR SBLP 261900Z 06005KT 9999 FEW030 33/16 Q1010=
0142832880999992014022620004-13262-043408FM-15+044399999V0203601N002119999999N009999199+03301+01701999999ADDGA1021+009141991GE19MSL   +99999+99999GF199999021990009141991991MA1101001999990REMMET051METAR SBLP 262000Z 36004KT 9999 FEW030 33/17 Q1010=
0142832880999992014022621004-13262-043408FM-15+044399999V0203501N002619999999N009999199+03101+01801999999ADDGA1021+009141991GE19MSL   +99999+99999GF199999021990009141991991MA1101001999990REMMET051METAR SBLP 262100Z 35005KT 9999 FEW030 31/18 Q1010=
0165832880999992014022709154-13262-043408FM-16+044399999V0201301N00211030481CN009999199+02201+01801999999ADDGA1021+009141991GA2041+030481991GE19MSL   +99999+99999GF199999021990009141991991MA1101301999990REMMET058SPECI SBLP 270915Z 13004KT 9999 FEW030 SCT100 22/18 Q1013=
0142832880999992014022710004-13262-043408FM-15+044399999V0201601N002119999999N009999199+02301+01801999999ADDGA1021+009141991GE19MSL   +99999+99999GF199999021990009141991991MA1101301999990REMMET051METAR SBLP 271000Z 16004KT 9999 FEW030 23/18 Q1013=
0165832880999992014022711004-13262-043408FM-15+044399999V0201401N00211030481CN009999199+02701+01901999999ADDGA1021+009141991GA2041+030481991GE19MSL   +99999+99999GF199999021990009141991991MA1101401999990REMMET058METAR SBLP 271100Z 14004KT 9999 FEW030 SCT100 27/19 Q1014=
0165832880999992014022712004-13267-043417FM-12+044199999V0200501N0010199999999020000199+02821+02031101131ADDAA101999990AZ101061AZ201061GA1021+012501031GA2991+999991001GE19MSL   +99999+99999GF104991021990012501991991KA1120N+02221MA1999990096301MD1909990-0041REMSYN004BUFR
0072832880999992014022712004-13262-043408FM-15+044399999V0201201N002619999999Y999999999+02801+01801999999ADDMA1101401999990REMMET045METAR SBLP 271200Z 12005KT CAVOK 28/18 Q1014=
0072832880999992014022713004-13262-043408FM-15+044399999V0203601N001519999999Y999999999+02901+01801999999ADDMA1101401999990REMMET045METAR SBLP 271300Z 36003KT CAVOK 29/18 Q1014=
0165832880999992014022714004-13262-043408FM-15+044399999V0201501N00151030481CN009999199+03101+01701999999ADDGA1021+009141991GA2041+030481991GE19MSL   +99999+99999GF199999021990009141991991MA1101401999990REMMET058METAR SBLP 271400Z 15003KT 9999 FEW030 SCT100 31/17 Q1014=
0142832880999992014022715004-13262-043408FM-15+044399999V0209999C000019999999N009999199+03201+01801999999ADDGA1021+009141991GE19MSL   +99999+99999GF199999021990009141991991MA1101401999990REMMET051METAR SBLP 271500Z 00000KT 9999 FEW030 32/18 Q1014=
0142832880999992014022716004-13262-043408FM-15+044399999V0202301N002119999999N009999199+03301+01901999999ADDGA1021+009141991GE19MSL   +99999+99999GF199999021990009141991991MA1101201999990REMMET051METAR SBLP 271600Z 23004KT 9999 FEW030 33/19 Q1012=
0142832880999992014022717004-13262-043408FM-15+044399999V0202801N001519999999N009999199+03501+01701999999ADDGA1021+009141991GE19MSL   +99999+99999GF199999021990009141991991MA1101101999990REMMET051METAR SBLP 271700Z 28003KT 9999 FEW030 35/17 Q1011=
0168832880999992014022718004-13267-043417FM-12+044199999V0203601N0000199999999020000199+03441+02211100641ADDAA101999990AZ101061AZ201061GA1031+008001081GA2991+999991001GA3991+999991031GE19MSL   +99999+99999GF106991031990008001991991MA1999990095851MD1909990-0051REMSYN004BUFR
0142832880999992014022718004-13262-043408FM-15+044399999V0202301N001519999999N009999199+03401+01402999999ADDGA1021+009141991GE19MSL   +99999+99999GF199999021990009141991991MA1101001999990REMMET051METAR SBLP 271800Z 23003KT 9999 FEW030 34/14 Q1010=
0142832880999992014022719004-13262-043408FM-15+044399999V0203201N002119999999N009999199+03401+01801999999ADDGA1021+009141991GE19MSL   +99999+99999GF199999021990009141991991MA1101001999990REMMET051METAR SBLP 271900Z 32004KT 9999 FEW030 34/18 Q1010=
0165832880999992014022720004-13262-043408FM-15+044399999V0203301N00311030481CN009999199+03301+02001999999ADDGA1021+009141991GA2041+030481991GE19MSL   +99999+99999GF199999021990009141991991MA1101001999990REMMET058METAR SBLP 272000Z 33006KT 9999 FEW030 SCT100 33/20 Q1010=
0165832880999992014022721004-13262-043408FM-15+044399999V0203601N00261030481CN009999199+03201+02201999999ADDGA1021+009141991GA2041+030481991GE19MSL   +99999+99999GF199999021990009141991991MA1101001999990REMMET058METAR SBLP 272100Z 36005KT 9999 FEW030 SCT100 32/22 Q1010=
0165832880999992014022809154-13262-043408FM-16+044399999V0209999C00001030481CN009999199+02501+02001999999ADDGA1041+009141991GA2041+030481991GE19MSL   +99999+99999GF199999041990009141991991MA1101301999990REMMET058SPECI SBLP 280915Z 00000KT 9999 SCT030 SCT100 25/20 Q1013=
0142832880999992014022810004-13262-043408FM-15+044399999V0209999C000019999999N009999199+02501+02001999999ADDGA1021+009141991GE19MSL   +99999+99999GF199999021990009141991991MA1101401999990REMMET051METAR SBLP 281000Z 00000KT 9999 FEW030 25/20 Q1014=
0142832880999992014022811004-13262-043408FM-15+044399999V0202201N001519999999N009999199+02601+02101999999ADDGA1021+009141991GE19MSL   +99999+99999GF199999021990009141991991MA1101401999990REMMET051METAR SBLP 281100Z 22003KT 9999 FEW030 26/21 Q1014=
0149832880999992014022812004-13267-043417FM-12+044199999V0203601N0021199999999020000199+02821+02151101091ADDAA101999990AZ101061AZ201061GA1021+017501031GE19MSL   +99999+99999GF102991021990017501991991KA1120N+02441MA1999990096261MD1909990-0041REMSYN004BUFR
0165832880999992014022812004-13262-043408FM-15+044399999V0209999C00001030481CN009999199+02801+01901999999ADDGA1041+009141991GA2041+030481991GE19MSL   +99999+99999GF199999041990009141991991MA1101501999990REMMET058METAR SBLP 281200Z 00000KT 9999 SCT030 SCT100 28/19 Q1015=
0165832880999992014022813004-13262-043408FM-15+044399999V0203001N00311030481CN009999199+02901+01901999999ADDGA1041+009141991GA2041+030481991GE19MSL   +99999+99999GF199999041990009141991991MA1101501999990REMMET058METAR SBLP 281300Z 30006KT 9999 SCT030 SCT100 29/19 Q1015=
0142832880999992014022814004-13262-043408FM-15+044399999V0203001N002619999999N009999199+03201+01901999999ADDGA1021+009141991GE19MSL   +99999+99999GF199999021990009141991991MA1101401999990REMMET051METAR SBLP 281400Z 30005KT 9999 FEW030 32/19 Q1014=
0142832880999992014022815004-13262-043408FM-15+044399999V0203501N003119999999N009999199+03201+01801999999ADDGA1041+009141991GE19MSL   +99999+99999GF199999041990009141991991MA1101401999990REMMET051METAR SBLP 281500Z 35006KT 9999 SCT030 32/18 Q1014=
0142832880999992014022816004-13262-043408FM-15+044399999V0203201N002119999999N009999199+03401+01901999999ADDGA1021+009141991GE19MSL   +99999+99999GF199999021990009141991991MA1101201999990REMMET051METAR SBLP 281600Z 32004KT 9999 FEW030 34/19 Q1012=
0176832880999992014022817004-13262-043408FM-15+044399999V0203601N002619999999N009999199+03501+02001999999ADDGA1041+009141991GA2021+012191091GE19MSL   +99999+99999GF199999041990009141991991MA1101001999990MW1171REMMET063METAR SBLP 281700Z 36005KT 9999 TS SCT030 FEW040CB 35/20 Q1010=
0168832880999992014022818004-13267-043417FM-12+044199999V0202701N0021199999999020000199+03141+02271100631ADDAA101999990AZ101061AZ201061GA1021+008001081GA2991+999991001GA3991+999991031GE19MSL   +99999+99999GF108991021990008001991991MA1999990095831MD1909990-0021REMSYN004BUFR
0193832880999992014022818004-13262-043408FM-15+044399999V0203001N00311009141CN009999199+03101+02401999999ADDGA1021+006101991GA2041+009141991GA3071+030481991GE19MSL   +99999+99999GF199999021990006101991991MA1101001999990REMMET070METAR SBLP 281800Z 30006KT 9999 FEW020 SCT030 BKN100 31/24 Q1010 RETS=
0165832880999992014022819004-13262-043408FM-15+044399999V0202401N002110304819N009999199+03201+02001999999ADDGA1041+006101991GA2071+030481991GE19MSL   +99999+99999GF199999041990006101991991MA1101001999990REMMET058METAR SBLP 281900Z 24004KT 9999 SCT020 BKN100 32/20 Q1010=
0165832880999992014022820004-13262-043408FM-15+044399999V0200901N004110304819N009999199+03001+02001999999ADDGA1021+006101991GA2071+030481991GE19MSL   +99999+99999GF199999021990006101991991MA1101101999990REMMET058METAR SBLP 282000Z 09008KT 9999 FEW020 BKN100 30/20 Q1011=
0188832880999992014022821004-13262-043408FM-15+044399999V0200601N00151009141CN009999199+02701+01901999999ADDGA1021+006101991GA2041+009141991GA3071+030481991GE19MSL   +99999+99999GF199999021990006101991991MA1101201999990REMMET065METAR SBLP 282100Z 06003KT 9999 FEW020 SCT030 BKN100 27/19 Q1012=
0181832880999992014030112004-13267-043417FM-12+044199999V0201801N0005199999999020000199+02571+02051101291ADDAA101999990AZ101061AZ201061GA1011+008001081GA2991+999991001GA3991+999991031GE19MSL   +99999+99999GF103991011990008001991991KA1120N+02121MA1999990096371MD1909990+0111REMSYN004BUFR
0187832880999992014030212004-13267-043417FM-12+044199999V0203601N0000100800199020000199+02341+02231101191ADDAA124002031AY151061AY251061GA1081+008001061GA2991+999991101GA3991+999991101GE19MSL   +99999+99999GF108991081990008001991991KA1120N+02241MA1999990096301MD1909990-0071MW1021REMSYN004BUFR
0152832880999992014030218004-13267-043417FM-12+044199999V0203201N0005199999999020000199+03241+02361100521ADDAA101999990AZ101061AZ201061GA1031+008001081GA2991+999991051GE19MSL   +99999+99999GF106991031990008001991991MA1999990095741MD1909990-0101REMSYN004BUFR
0165832880999992014030309154-13262-043408FM-16+044399999V0202101N001510304819N009999199+02301+02201999999ADDGA1041+006101991GA2071+030481991GE19MSL   +99999+99999GF199999041990006101991991MA1101201999990REMMET058SPECI SBLP 030915Z 21003KT 9999 SCT020 BKN100 23/22 Q1012=
0165832880999992014030310004-13262-043408FM-15+044399999V0209999C000010304819N009999199+02301+02201999999ADDGA1041+006101991GA2071+030481991GE19MSL   +99999+99999GF199999041990006101991991MA1101301999990REMMET058METAR SBLP 031000Z 00000KT 9999 SCT020 BKN100 23/22 Q1013=
0165832880999992014030311004-13262-043408FM-15+044399999V0201801N00151030481CN009999199+02601+02301999999ADDGA1021+006101991GA2041+030481991GE19MSL   +99999+99999GF199999021990006101991991MA1101401999990REMMET058METAR SBLP 031100Z 18003KT 9999 FEW020 SCT100 26/23 Q1014=
0187832880999992014030312004-13267-043417FM-12+044199999V0200901N0010199999999020000199+02651+02141101231ADDAA124005031AY161061AY261061GA1031+004501061GA2991+999991021GA3991+999991031GE19MSL   +99999+99999GF106991031990004501991991KA1120N+02251MA1999990096341MD1909990+0041MW1011REMSYN004BUFR
0165832880999992014030312004-13262-043408FM-15+044399999V0201601N00261030481CN009999199+02801+02101999999ADDGA1021+009141991GA2041+030481991GE19MSL   +99999+99999GF199999021990009141991991MA1101401999990REMMET058METAR SBLP 031200Z 16005KT 9999 FEW030 SCT100 28/21 Q1014=
0142832880999992014030313004-13262-043408FM-15+044399999V0201201N003119999999N009999199+02801+01901999999ADDGA1021+009141991GE19MSL   +99999+99999GF199999021990009141991991MA1101401999990REMMET051METAR SBLP 031300Z 12006KT 9999 FEW030 28/19 Q1014=
0142832880999992014030314004-13262-043408FM-15+044399999V0201401N005119999999N009999199+03101+01901999999ADDGA1021+009141991GE19MSL   +99999+99999GF199999021990009141991991MA1101401999990REMMET051METAR SBLP 031400Z 14010KT 9999 FEW030 31/19 Q1014=
0142832880999992014030315004-13262-043408FM-15+044399999V0202001N001519999999N009999199+03101+01801999999ADDGA1021+009141991GE19MSL   +99999+99999GF199999021990009141991991MA1101301999990REMMET051METAR SBLP 031500Z 20003KT 9999 FEW030 31/18 Q1013=
0142832880999992014030316004-13262-043408FM-15+044399999V0203101N001519999999N009999199+03201+01801999999ADDGA1021+009141991GE19MSL   +99999+99999GF199999021990009141991991MA1101201999990REMMET051METAR SBLP 031600Z 31003KT 9999 FEW030 32/18 Q1012=
0142832880999992014030317004-13262-043408FM-15+044399999V0209999C000019999999N009999199+03201+01901999999ADDGA1041+009141991GE19MSL   +99999+99999GF199999041990009141991991MA1101101999990REMMET051METAR SBLP 031700Z 00000KT 9999 SCT030 32/19 Q1011=
0168832880999992014030318004-13267-043417FM-12+044199999V0201401N0010199999999020000199+03241+02281100601ADDAA101999990AZ101061AZ201061GA1031+004501081GA2991+999991001GA3991+999991031GE19MSL   +99999+99999GF106991031990004501991991MA1999990095801MD1909990+0061REMSYN004BUFR
0142832880999992014030318004-13262-043408FM-15+044399999V0209999C000019999999N009999199+03201+01901999999ADDGA1041+009141991GE19MSL   +99999+99999GF199999041990009141991991MA1101001999990REMMET051METAR SBLP 031800Z 00000KT 9999 SCT030 32/19 Q1010=
0142832880999992014030319004-13262-043408FM-15+044399999V0209999C000019999999N009999199+03301+01901999999ADDGA1041+009141991GE19MSL   +99999+99999GF199999041990009141991991MA1100901999990REMMET051METAR SBLP 031900Z 00000KT 9999 SCT030 33/19 Q1009=
0142832880999992014030320004-13262-043408FM-15+044399999V0201801N001519999999N009999199+03201+01801999999ADDGA1021+009141991GE19MSL   +99999+99999GF199999021990009141991991MA1100901999990REMMET051METAR SBLP 032000Z 18003KT 9999 FEW030 32/18 Q1009=
0142832880999992014030321004-13262-043408FM-15+044399999V0209999C000019999999N009999199+03101+02001999999ADDGA1021+009141991GE19MSL   +99999+99999GF199999021990009141991991MA1100901999990REMMET051METAR SBLP 032100Z 00000KT 9999 FEW030 31/20 Q1009=
0072832880999992014030409154-13262-043408FM-16+044399999V0201601N001519999999Y999999999+02201+01901999999ADDMA1101301999990REMMET045SPECI SBLP 040915Z 16003KT CAVOK 22/19 Q1013=
0072832880999992014030410004-13262-043408FM-15+044399999V0201501N001519999999Y999999999+02301+02001999999ADDMA1101401999990REMMET045METAR SBLP 041000Z 15003KT CAVOK 23/20 Q1014=
0072832880999992014030411004-13262-043408FM-15+044399999V0200901N001519999999Y999999999+02701+02001999999ADDMA1101501999990REMMET045METAR SBLP 041100Z 09003KT CAVOK 27/20 Q1015=
0149832880999992014030412004-13267-043417FM-12+044199999V0200901N0010199999999020000199+02721+02201101211ADDAA101999990AZ101061AZ201061GA1991+025001021GE19MSL   +99999+99999GF104991990990025001991991KA1120N+02221MA1999990096371MD1909990+0031REMSYN004BUFR
0142832880999992014030412004-13262-043408FM-15+044399999V0209999C000019999999N009999199+02801+02001999999ADDGA1021+009141991GE19MSL   +99999+99999GF199999021990009141991991MA1101501999990REMMET051METAR SBLP 041200Z 00000KT 9999 FEW030 28/20 Q1015=
0142832880999992014030413004-13262-043408FM-15+044399999V0200901N001519999999N009999199+02801+02001999999ADDGA1041+009141991GE19MSL   +99999+99999GF199999041990009141991991MA1101601999990REMMET051METAR SBLP 041300Z 09003KT 9999 SCT030 28/20 Q1016=
0142832880999992014030414004-13262-043408FM-15+044399999V0200501N002119999999N009999199+03101+02001999999ADDGA1041+009141991GE19MSL   +99999+99999GF199999041990009141991991MA1101501999990REMMET051METAR SBLP 041400Z 05004KT 9999 SCT030 31/20 Q1015=
0142832880999992014030415004-13262-043408FM-15+044399999V0200201N004610091419N009999199+03101+02001999999ADDGA1071+009141991GE19MSL   +99999+99999GF199999071990009141991991MA1101501999990REMMET051METAR SBLP 041500Z 02009KT 9999 BKN030 31/20 Q1015=
0142832880999992014030416004-13262-043408FM-15+044399999V0203501N001510091419N009999199+03201+01901999999ADDGA1071+009141991GE19MSL   +99999+99999GF199999071990009141991991MA1101401999990REMMET051METAR SBLP 041600Z 35003KT 9999 BKN030 32/19 Q1014=
0191832880999992014030417004-13262-043408FM-15+044399999V0202301N00211009141CN009999199+02901+02201999999ADDGA1021+006101991GA2041+009141991GA3021+012191081GE19MSL   +99999+99999GF199999021990006101991991MA1101301999990REMMET068METAR SBLP 041700Z 23004KT 9999 FEW020 SCT030 FEW040TCU 29/22 Q1013=
0158832880999992014030418004-13267-043417FM-12+044199999V0201801N0010199999999020000199+02901+02281100891ADDAA106000631AY151061AY221061GA1031+008001061GA2991+999991001GE19MSL   +99999+99999GF105991031990008001991991MA1999990096031MD1909990+0231MW1011REMSYN004BUFR
0165832880999992014030418004-13262-043408FM-15+044399999V0202301N00311030481CN009999199+02901+02201999999ADDGA1021+006101991GA2041+030481991GE19MSL   +99999+99999GF199999021990006101991991MA1101201999990REMMET058METAR SBLP 041800Z 23006KT 9999 FEW020 SCT100 29/22 Q1012=
0165832880999992014030419004-13262-043408FM-15+044399999V0202101N00311030481CN009999199+03001+02101999999ADDGA1021+009141991GA2041+030481991GE19MSL   +99999+99999GF199999021990009141991991MA1101101999990REMMET058METAR SBLP 041900Z 21006KT 9999 FEW030 SCT100 30/21 Q1011=
0165832880999992014030420004-13262-043408FM-15+044399999V0202501N00151030481CN009999199+03201+01901999999ADDGA1021+009141991GA2041+030481991GE19MSL   +99999+99999GF199999021990009141991991MA1101101999990REMMET058METAR SBLP 042000Z 25003KT 9999 FEW030 SCT100 32/19 Q1011=
0142832880999992014030421004-13262-043408FM-15+044399999V0209999C000019999999N009999199+03101+02001999999ADDGA1021+009141991GE19MSL   +99999+99999GF199999021990009141991991MA1101101999990REMMET051METAR SBLP 042100Z 00000KT 9999 FEW030 31/20 Q1011=
0188832880999992014030509154-13262-043408FM-16+044399999V0209999C00001009141CN009999199+02301+02201999999ADDGA1021+006101991GA2041+009141991GA3071+030481991GE19MSL   +99999+99999GF199999021990006101991991MA1101501999990REMMET065SPECI SBLP 050915Z 00000KT 9999 FEW020 SCT030 BKN100 23/22 Q1015=
0188832880999992014030510004-13262-043408FM-15+044399999V0209999C00001009141CN009999199+02401+02101999999ADDGA1021+006101991GA2041+009141991GA3071+030481991GE19MSL   +99999+99999GF199999021990006101991991MA1101501999990REMMET065METAR SBLP 051000Z 00000KT 9999 FEW020 SCT030 BKN100 24/21 Q1015=
0188832880999992014030511004-13262-043408FM-15+044399999V0200901N00211009141CN009999199+02401+02101999999ADDGA1021+006101991GA2041+009141991GA3071+030481991GE19MSL   +99999+99999GF199999021990006101991991MA1101601999990REMMET065METAR SBLP 051100Z 09004KT 9999 FEW020 SCT030 BKN100 24/21 Q1016=
0187832880999992014030512004-13267-043417FM-12+044199999V0203601N0000199999999020000199+02601+02261101431ADDAA124026031AY161061AY261061GA1041+008001061GA2991+999991001GA3991+999991031GE19MSL   +99999+99999GF107991041990008001991991KA1120N+02261MA1999990096551MD1909990+0181MW1011REMSYN004BUFR
0165832880999992014030512004-13262-043408FM-15+044399999V0209999C000010304819N009999199+02601+02101999999ADDGA1041+009141991GA2071+030481991GE19MSL   +99999+99999GF199999041990009141991991MA1101701999990REMMET058METAR SBLP 051200Z 00000KT 9999 SCT030 BKN100 26/21 Q1017=
0165832880999992014030513004-13262-043408FM-15+044399999V0201401N002610091419N009999199+02701+02101999999ADDGA1071+009141991GA2041+030481991GE19MSL   +99999+99999GF199999071990009141991991MA1101701999990REMMET058METAR SBLP 051300Z 14005KT 9999 BKN030 SCT100 27/21 Q1017=
0165832880999992014030514004-13262-043408FM-15+044399999V0201701N00261030481CN009999199+02901+02101999999ADDGA1041+009141991GA2041+030481991GE19MSL   +99999+99999GF199999041990009141991991MA1101601999990REMMET058METAR SBLP 051400Z 17005KT 9999 SCT030 SCT100 29/21 Q1016=
0165832880999992014030515004-13262-043408FM-15+044399999V0200301N00151030481CN009999199+03101+02101999999ADDGA1041+009141991GA2041+030481991GE19MSL   +99999+99999GF199999041990009141991991MA1101501999990REMMET058METAR SBLP 051500Z 03003KT 9999 SCT030 SCT100 31/21 Q1015=
0165832880999992014030516004-13262-043408FM-15+044399999V0201501N00311030481CN009999199+03301+02101999999ADDGA1041+009141991GA2041+030481991GE19MSL   +99999+99999GF199999041990009141991991MA1101501999990REMMET058METAR SBLP 051600Z 15006KT 9999 SCT030 SCT100 33/21 Q1015=
0142832880999992014030517004-13262-043408FM-15+044399999V0201201N002610091419N009999199+03201+02101999999ADDGA1071+009141991GE19MSL   +99999+99999GF199999071990009141991991MA1101301999990REMMET051METAR SBLP 051700Z 12005KT 9999 BKN030 32/21 Q1013=
0152832880999992014030518004-13267-043417FM-12+044199999V0203601N0000199999999020000199+03191+02261100911ADDAA101999990AZ101061AZ201061GA1031+008001061GA2991+999991031GE19MSL   +99999+99999GF106991031990008001991991MA1999990096071MD1909990+0041REMSYN004BUFR
0142832880999992014030518004-13262-043408FM-15+044399999V0200101N003110091419N009999199+03301+02001999999ADDGA1071+009141991GE19MSL   +99999+99999GF199999071990009141991991MA1101301999990REMMET051METAR SBLP 051800Z 01006KT 9999 BKN030 33/20 Q1013=
0142832880999992014030519004-13262-043408FM-15+044399999V0203001N002119999999N009999199+03101+02101999999ADDGA1041+009141991GE19MSL   +99999+99999GF199999041990009141991991MA1101201999990REMMET051METAR SBLP 051900Z 30004KT 9999 SCT030 31/21 Q1012=
0142832880999992014030520004-13262-043408FM-15+044399999V0202901N003119999999N009999199+03001+02001999999ADDGA1041+009141991GE19MSL   +99999+99999GF199999041990009141991991MA1101101999990REMMET051METAR SBLP 052000Z 29006KT 9999 SCT030 30/20 Q1011=
0142832880999992014030521004-13262-043408FM-15+044399999V0209999C000019999999N009999199+03001+02001999999ADDGA1041+009141991GE19MSL   +99999+99999GF199999041990009141991991MA1101101999990REMMET051METAR SBLP 052100Z 00000KT 9999 SCT030 30/20 Q1011=
0072832880999992014030609154-13262-043408FM-16+044399999V0201801N002119999999Y999999999+02101+01801999999ADDMA1101401999990REMMET045SPECI SBLP 060915Z 18004KT CAVOK 21/18 Q1014=
0072832880999992014030610004-13262-043408FM-15+044399999V0209999C000019999999Y999999999+02201+01901999999ADDMA1101401999990REMMET045METAR SBLP 061000Z 00000KT CAVOK 22/19 Q1014=
0072832880999992014030611004-13262-043408FM-15+044399999V0201301N002619999999Y999999999+02601+02001999999ADDMA1101501999990REMMET045METAR SBLP 061100Z 13005KT CAVOK 26/20 Q1015=
0149832880999992014030612004-13267-043417FM-12+044199999V0201401N0015199999999020000199+02751+02071101171ADDAA124000331AZ101061AZ201061GA1991+025001001GE19MSL   +99999+99999GF102991990990025001991991KA1120N+02141MA1999990096331MD1909990-0221REMSYN004BUFR
0072832880999992014030612004-13262-043408FM-15+044399999V0201201N002119999999Y999999999+02901+01901999999ADDMA1101501999990REMMET045METAR SBLP 061200Z 12004KT CAVOK 29/19 Q1015=
0142832880999992014030613004-13262-043408FM-15+044399999V0201301N003119999999N009999199+03001+01901999999ADDGA1021+009141991GE19MSL   +99999+99999GF199999021990009141991991MA1101501999990REMMET051METAR SBLP 061300Z 13006KT 9999 FEW030 30/19 Q1015=
0142832880999992014030614004-13262-043408FM-15+044399999V0209999C000019999999N009999199+03101+01801999999ADDGA1021+009141991GE19MSL   +99999+99999GF199999021990009141991991MA1101501999990REMMET051METAR SBLP 061400Z 00000KT 9999 FEW030 31/18 Q1015=
0142832880999992014030615004-13262-043408FM-15+044399999V0201001N002119999999N009999199+03201+01801999999ADDGA1021+009141991GE19MSL   +99999+99999GF199999021990009141991991MA1101401999990REMMET051METAR SBLP 061500Z 10004KT 9999 FEW030 32/18 Q1014=
0142832880999992014030616004-13262-043408FM-15+044399999V0202801N001519999999N009999199+03101+01901999999ADDGA1041+009141991GE19MSL   +99999+99999GF199999041990009141991991MA1101301999990REMMET051METAR SBLP 061600Z 28003KT 9999 SCT030 31/19 Q1013=
0142832880999992014030617004-13262-043408FM-15+044399999V0203001N003619999999N009999199+03101+01901999999ADDGA1041+009141991GE19MSL   +99999+99999GF199999041990009141991991MA1101201999990REMMET051METAR SBLP 061700Z 30007KT 9999 SCT030 31/19 Q1012=
0152832880999992014030618004-13267-043417FM-12+044199999V0203601N0000199999999020000199+03251+02301100731ADDAA101999990AZ101061AZ201061GA1011+008001081GA2991+999991001GE19MSL   +99999+99999GF103991011990008001991991MA1999990095921MD1909990-0151REMSYN004BUFR
0142832880999992014030618004-13262-043408FM-15+044399999V0202401N002119999999N009999199+03201+01901999999ADDGA1021+009141991GE19MSL   +99999+99999GF199999021990009141991991MA1101101999990REMMET051METAR SBLP 061800Z 24004KT 9999 FEW030 32/19 Q1011=
0165832880999992014030619004-13262-043408FM-15+044399999V0209999C00001030481CN009999199+03101+01901999999ADDGA1021+009141991GA2041+030481991GE19MSL   +99999+99999GF199999021990009141991991MA1101101999990REMMET058METAR SBLP 061900Z 00000KT 9999 FEW030 SCT100 31/19 Q1011=
0165832880999992014030620004-13262-043408FM-15+044399999V0203601N00261030481CN009999199+03101+01801999999ADDGA1021+009141991GA2041+030481991GE19MSL   +99999+99999GF199999021990009141991991MA1101101999990REMMET058METAR SBLP 062000Z 36005KT 9999 FEW030 SCT100 31/18 Q1011=
0165832880999992014030621004-13262-043408FM-15+044399999V0209999C000010304819N009999199+03101+01901999999ADDGA1021+009141991GA2071+030481991GE19MSL   +99999+99999GF199999021990009141991991MA1101101999990REMMET058METAR SBLP 062100Z 00000KT 9999 FEW030 BKN100 31/19 Q1011=
0165832880999992014030709154-13262-043408FM-16+044399999V0209999C00001030481CN009999199+02301+02101999999ADDGA1021+009141991GA2041+030481991GE19MSL   +99999+99999GF199999021990009141991991MA1101301999990REMMET058SPECI SBLP 070915Z 00000KT 9999 FEW030 SCT100 23/21 Q1013=
0165832880999992014030710004-13262-043408FM-15+044399999V0209999C00001030481CN009999199+02301+02101999999ADDGA1021+009141991GA2041+030481991GE19MSL   +99999+99999GF199999021990009141991991MA1101401999990REMMET058METAR SBLP 071000Z 00000KT 9999 FEW030 SCT100 23/21 Q1014=
0165832880999992014030711004-13262-043408FM-15+044399999V0203001N001510304819N009999199+02501+02101999999ADDGA1021+009141991GA2071+030481991GE19MSL   +99999+99999GF199999021990009141991991MA1101401999990REMMET058METAR SBLP 071100Z 30003KT 9999 FEW030 BKN100 25/21 Q1014=
0149832880999992014030712004-13267-043417FM-12+044199999V0203601N0005199999999020000199+02621+02171101111ADDAA101999990AZ101061AZ201061GA1991+025001021GE19MSL   +99999+99999GF104991990990025001991991KA1120N+02241MA1999990096271MD1909990-0061REMSYN004BUFR
0072832880999992014030712004-13262-043408FM-15+044399999V0203101N001519999999Y999999999+02701+02001999999ADDMA1101501999990REMMET045METAR SBLP 071200Z 31003KT CAVOK 27/20 Q1015=
0072832880999992014030713004-13262-043408FM-15+044399999V0203501N003619999999Y999999999+03001+01801999999ADDMA1101401999990REMMET045METAR SBLP 071300Z 35007KT CAVOK 30/18 Q1014=
0165832880999992014030714004-13262-043408FM-15+044399999V0203401N00411030481CN009999199+03201+01901999999ADDGA1021+009141991GA2041+030481991GE19MSL   +99999+99999GF199999021990009141991991MA1101401999990REMMET058METAR SBLP 071400Z 34008KT 9999 FEW030 SCT100 32/19 Q1014=
0165832880999992014030715004-13262-043408FM-15+044399999V0203101N00211030481CN009999199+03201+01801999999ADDGA1021+009141991GA2041+030481991GE19MSL   +99999+99999GF199999021990009141991991MA1101301999990REMMET058METAR SBLP 071500Z 31004KT 9999 FEW030 SCT100 32/18 Q1013=
0165832880999992014030716004-13262-043408FM-15+044399999V0200801N00361030481CN009999199+03401+01901999999ADDGA1041+009141991GA2041+030481991GE19MSL   +99999+99999GF199999041990009141991991MA1101201999990REMMET058METAR SBLP 071600Z 08007KT 9999 SCT030 SCT100 34/19 Q1012=
0165832880999992014030717004-13262-043408FM-15+044399999V0203501N00461030481CN009999199+03401+01801999999ADDGA1021+009141991GA2041+030481991GE19MSL   +99999+99999GF199999021990009141991991MA1101101999990REMMET058METAR SBLP 071700Z 35009KT 9999 FEW030 SCT100 34/18 Q1011=
0152832880999992014030718004-13267-043417FM-12+044199999V0203601N0015199999999020000199+03351+02241100701ADDAA101999990AZ101061AZ201061GA1031+008001081GA2991+999991021GE19MSL   +99999+99999GF105991031990008001991991MA1999990095891MD1909990-0031REMSYN004BUFR
0142832880999992014030718004-13262-043408FM-15+044399999V0200301N003619999999N009999199+03501+01801999999ADDGA1021+009141991GE19MSL   +99999+99999GF199999021990009141991991MA1101001999990REMMET051METAR SBLP 071800Z 03007KT 9999 FEW030 35/18 Q1010=
0142832880999992014030719004-13262-043408FM-15+044399999V0200301N004119999999N009999199+03501+01701999999ADDGA1021+009141991GE19MSL   +99999+99999GF199999021990009141991991MA1101001999990REMMET051METAR SBLP 071900Z 03008KT 9999 FEW030 35/17 Q1010=
0142832880999992014030720004-13262-043408FM-15+044399999V0200101N003619999999N009999199+03401+01701999999ADDGA1021+009141991GE19MSL   +99999+99999GF199999021990009141991991MA1101001999990REMMET051METAR SBLP 072000Z 01007KT 9999 FEW030 34/17 Q1010=
0142832880999992014030721004-13262-043408FM-15+044399999V0200301N003119999999N009999199+03201+01801999999ADDGA1021+009141991GE19MSL   +99999+99999GF199999021990009141991991MA1101001999990REMMET051METAR SBLP 072100Z 03006KT 9999 FEW030 32/18 Q1010=
0181832880999992014030812004-13267-043417FM-12+044199999V0203201N0005199999999020000199+02701+02291101271ADDAA101999990AZ101061AZ201061GA1041+008001061GA2991+999991101GA3991+999991031GE19MSL   +99999+99999GF108991041990008001991991KA1120N+02321MA1999990096441MD1909990+0171REMSYN004BUFR
0168832880999992014030818004-13267-043417FM-12+044199999V0203201N0010199999999020000199+03341+02351100681ADDAA101999990AZ101061AZ201061GA1031+008001081GA2991+999991021GA3991+999991051GE19MSL   +99999+99999GF106991031990008001991991MA1999990095891MD1909990+0001REMSYN004BUFR
0171832880999992014030912004-13267-043417FM-12+044199999V0201401N0021100450199020000199+02271+02181101401ADDAA124002031AY121061AZ101999GA1051+004501061GA2991+999991001GE19MSL   +99999+99999GF108991051990004501991991KA1120N+02241MA1999990096501MD1909990+0061MW1601REMSYN004BUFR
0152832880999992014030918004-13267-043417FM-12+044199999V0201401N0026199999999020000199+03071+02271100851ADDAA101999990AZ101061AZ201061GA1031+008001081GA2991+999991031GE19MSL   +99999+99999GF107991031990008001991991MA1999990096041MD1909990+0151REMSYN004BUFR
0198832880999992014031009154-13262-043408FM-16+044399999V0202001N00261009141CN008000199+02201+02101999999ADDGA1041+006101991GA2041+009141991GA3071+030481991GE19MSL   +99999+99999GF199999041990006101991991MA1101501999990MW1611REMMET069SPECI SBLP 100915Z 20005KT 8000 -RA SCT020 SCT030 BKN100 22/21 Q1015=
0188832880999992014031010004-13262-043408FM-15+044399999V0200901N00151009141CN009999199+02201+02201999999ADDGA1041+006101991GA2041+009141991GA3071+030481991GE19MSL   +99999+99999GF199999041990006101991991MA1101601999990REMMET065METAR SBLP 101000Z 09003KT 9999 SCT020 SCT030 BKN100 22/22 Q1016=
0199832880999992014031011004-13262-043408FM-15+044399999V0209999C000010051819N008000199+02301+02201999999ADDGA1071+005181991GA2041+007011991GA3071+028351991GE19MSL   +99999+99999GF199999071990005181991991MA1101701999990MW1161REMMET070METAR SBLP 101100Z 00000KT 8000 VCSH BKN017 SCT023 BKN093 23/22 Q1017=
0187832880999992014031012004-13267-043417FM-12+044199999V0203601N0010100450199020000199+02341+02261101381ADDAA124041031AY161061AY251061GA1081+004501061GA2991+999991101GA3991+999991101GE19MSL   +99999+99999GF108991081990004501991991KA1120N+02081MA1999990096481MD1909990-0021MW1021REMSYN004BUFR
0188832880999992014031012004-13262-043408FM-15+044399999V0209999C00001009141CN009999199+02401+02201999999ADDGA1041+005181991GA2041+009141991GA3071+027431991GE19MSL   +99999+99999GF199999041990005181991991MA1101701999990REMMET065METAR SBLP 101200Z 00000KT 9999 SCT017 SCT030 BKN090 24/22 Q1017=
0165832880999992014031013004-13262-043408FM-15+044399999V0202701N002610304819N009999199+02501+02301999999ADDGA1041+009141991GA2071+030481991GE19MSL   +99999+99999GF199999041990009141991991MA1101701999990REMMET058METAR SBLP 101300Z 27005KT 9999 SCT030 BKN100 25/23 Q1017=
0165832880999992014031014004-13262-043408FM-15+044399999V0202201N001510091419N009999199+02701+02301999999ADDGA1071+009141991GA2041+030481991GE19MSL   +99999+99999GF199999071990009141991991MA1101601999990REMMET058METAR SBLP 101400Z 22003KT 9999 BKN030 SCT100 27/23 Q1016=
0165832880999992014031015004-13262-043408FM-15+044399999V0203501N00411030481CN009999199+02801+02201999999ADDGA1041+009141991GA2041+030481991GE19MSL   +99999+99999GF199999041990009141991991MA1101601999990REMMET058METAR SBLP 101500Z 35008KT 9999 SCT030 SCT100 28/22 Q1016=
0176832880999992014031016004-13262-043408FM-15+044399999V0200301N001519999999N009999199+03101+02201999999ADDGA1041+009141991GA2021+012191091GE19MSL   +99999+99999GF199999041990009141991991MA1101401999990MW1171REMMET063METAR SBLP 101600Z 03003KT 9999 TS SCT030 FEW040CB 31/22 Q1014=
0232832880999992014031017004-13262-043408FM-15+044399999V0202401N00311009141CN009999199+02901+02201999999ADDGA1021+006101991GA2041+009141991GA3021+012191091GA4071+030481991GE19MSL   +99999+99999GF199999021990006101991991MA1101301999990MW1171REMMET087METAR SBLP 101700Z 24006KT 9999 TS FEW020 SCT030 FEW040CB BKN100 29/22      Q1013 RETS=
0174832880999992014031018004-13267-043417FM-12+044199999V0203601N0000199999999020000199+02671+02391100781ADDAA106003031AY121061AZ101999GA1011+008001081GA2991+999991001GA3991+999991031GE19MSL   +99999+99999GF105991011990008001991991MA1999990095971MD1909990-0071MW1601REMSYN004BUFR
0180832880999992014031018004-13262-043408FM-15+044399999V0209999C00001030481CN009999199+02801+02301999999ADDGA1021+006101991GA2041+030481991GE19MSL   +99999+99999GF199999021990006101991991MA1101201999990MW1611REMMET067METAR SBLP 101800Z 00000KT 9999 -RA FEW020 SCT100 28/23 Q1012 RETS=
0165832880999992014031019004-13262-043408FM-15+044399999V0202501N00211030481CN009999199+03001+02201999999ADDGA1021+009141991GA2041+030481991GE19MSL   +99999+99999GF199999021990009141991991MA1101101999990REMMET058METAR SBLP 101900Z 25004KT 9999 FEW030 SCT100 30/22 Q1011=
0165832880999992014031020004-13262-043408FM-15+044399999V0202401N00151030481CN009999199+02901+02201999999ADDGA1021+009141991GA2041+030481991GE19MSL   +99999+99999GF199999021990009141991991MA1101201999990REMMET058METAR SBLP 102000Z 24003KT 9999 FEW030 SCT100 29/22 Q1012=
0165832880999992014031021004-13262-043408FM-15+044399999V0202201N001510304819N009999199+02801+02201999999ADDGA1041+006101991GA2071+030481991GE19MSL   +99999+99999GF199999041990006101991991MA1101201999990REMMET058METAR SBLP 102100Z 22003KT 9999 SCT020 BKN100 28/22 Q1012=
0165832880999992014031109154-13262-043408FM-16+044399999V0201901N00211006101CN009999199+02201+02101999999ADDGA1041+002131991GA2041+006101991GE19MSL   +99999+99999GF199999041990002131991991MA1101401999990REMMET058SPECI SBLP 110915Z 19004KT 9999 SCT007 SCT020 22/21 Q1014=
0165832880999992014031110004-13262-043408FM-15+044399999V0202101N00261006101CN009999199+02201+02201999999ADDGA1041+002131991GA2041+006101991GE19MSL   +99999+99999GF199999041990002131991991MA1101501999990REMMET058METAR SBLP 111000Z 21005KT 9999 SCT007 SCT020 22/22 Q1015=
0165832880999992014031111004-13262-043408FM-15+044399999V0202401N00211006101CN009999199+02301+02201999999ADDGA1021+002131991GA2041+006101991GE19MSL   +99999+99999GF199999021990002131991991MA1101601999990REMMET058METAR SBLP 111100Z 24004KT 9999 FEW007 SCT020 23/22 Q1016=
0181832880999992014031112004-13267-043417FM-12+044199999V0201401N0010199999999020000199+02471+02261101331ADDAA124007031AZ101061AZ201061GA1031+004501081GA2991+999991001GA3991+999991051GE19MSL   +99999+99999GF106991031990004501991991KA1120N+02151MA1999990096411MD1909990-0071REMSYN004BUFR
0142832880999992014031112004-13262-043408FM-15+044399999V0202101N002619999999N009999199+02601+02201999999ADDGA1021+006101991GE19MSL   +99999+99999GF199999021990006101991991MA1101601999990REMMET051METAR SBLP 111200Z 21005KT 9999 FEW020 26/22 Q1016=
0165832880999992014031113004-13262-043408FM-15+044399999V0201701N00411030481CN009999199+02901+02101999999ADDGA1021+009141991GA2041+030481991GE19MSL   +99999+99999GF199999021990009141991991MA1101601999990REMMET058METAR SBLP 111300Z 17008KT 9999 FEW030 SCT100 29/21 Q1016=
0165832880999992014031114004-13262-043408FM-15+044399999V0202101N00211030481CN009999199+03001+02101999999ADDGA1021+009141991GA2041+030481991GE19MSL   +99999+99999GF199999021990009141991991MA1101601999990REMMET058METAR SBLP 111400Z 21004KT 9999 FEW030 SCT100 30/21 Q1016=
0165832880999992014031115004-13262-043408FM-15+044399999V0201801N00361030481CN009999199+03201+02001999999ADDGA1021+009141991GA2041+030481991GE19MSL   +99999+99999GF199999021990009141991991MA1101501999990REMMET058METAR SBLP 111500Z 18007KT 9999 FEW030 SCT100 32/20 Q1015=
0165832880999992014031116004-13262-043408FM-15+044399999V0201601N00461030481CN009999199+03101+02001999999ADDGA1021+009141991GA2041+030481991GE19MSL   +99999+99999GF199999021990009141991991MA1101401999990REMMET058METAR SBLP 111600Z 16009KT 9999 FEW030 SCT100 31/20 Q1014=
0165832880999992014031117004-13262-043408FM-15+044399999V0202101N002610304819N009999199+03101+02101999999ADDGA1021+009141991GA2071+030481991GE19MSL   +99999+99999GF199999021990009141991991MA1101301999990REMMET058METAR SBLP 111700Z 21005KT 9999 FEW030 BKN100 31/21 Q1013=
0152832880999992014031118004-13267-043417FM-12+044199999V0202301N0010199999999020000199+02991+02311100901ADDAA101999990AZ101061AZ201061GA1041+004501061GA2991+999991031GE19MSL   +99999+99999GF106991041990004501991991MA1999990096041MD1909990+0071REMSYN004BUFR
0165832880999992014031118004-13262-043408FM-15+044399999V0202401N002610304819N009999199+03001+02201999999ADDGA1021+009141991GA2071+030481991GE19MSL   +99999+99999GF199999021990009141991991MA1101201999990REMMET058METAR SBLP 111800Z 24005KT 9999 FEW030 BKN100 30/22 Q1012=
0165832880999992014031119004-13262-043408FM-15+044399999V0202101N002610304819N009999199+03101+02101999999ADDGA1021+009141991GA2071+030481991GE19MSL   +99999+99999GF199999021990009141991991MA1101201999990REMMET058METAR SBLP 111900Z 21005KT 9999 FEW030 BKN100 31/21 Q1012=
0165832880999992014031120004-13262-043408FM-15+044399999V0201401N004110304819N009999199+03101+01901999999ADDGA1021+009141991GA2071+030481991GE19MSL   +99999+99999GF199999021990009141991991MA1101101999990REMMET058METAR SBLP 112000Z 14008KT 9999 FEW030 BKN100 31/19 Q1011=
0165832880999992014031121004-13262-043408FM-15+044399999V0201601N004110304819N009999199+03001+01901999999ADDGA1021+009141991GA2071+030481991GE19MSL   +99999+99999GF199999021990009141991991MA1101101999990REMMET058METAR SBLP 112100Z 16008KT 9999 FEW030 BKN100 30/19 Q1011=
0072832880999992014031209154-13262-043408FM-16+044399999V0209999C000019999999Y999999999+02001+01901999999ADDMA1101501999990REMMET045SPECI SBLP 120915Z 00000KT CAVOK 20/19 Q1015=
0072832880999992014031210004-13262-043408FM-15+044399999V0202101N001519999999Y999999999+02201+02001999999ADDMA1101601999990REMMET045METAR SBLP 121000Z 21003KT CAVOK 22/20 Q1016=
0072832880999992014031211004-13262-043408FM-15+044399999V0201901N001519999999Y999999999+02601+02001999999ADDMA1101701999990REMMET045METAR SBLP 121100Z 19003KT CAVOK 26/20 Q1017=
0111832880999992014031212004-13267-043417FM-12+044199999V0200901N0010122000199020000199+02701+02111101341ADDAA101999990AZ101061AZ201061GF100991999999999999999999KA1120N+02101MA1999990096481MD1909990+0071REMSYN004BUFR
0072832880999992014031212004-13262-043408FM-15+044399999V0200901N002619999999Y999999999+02801+01801999999ADDMA1101701999990REMMET045METAR SBLP 121200Z 09005KT CAVOK 28/18 Q1017=
0072832880999992014031213004-13262-043408FM-15+044399999V0201501N002119999999Y999999999+03001+01901999999ADDMA1101701999990REMMET045METAR SBLP 121300Z 15004KT CAVOK 30/19 Q1017=
0072832880999992014031214004-13262-043408FM-15+044399999V0200601N002119999999Y999999999+03101+01901999999ADDMA1101601999990REMMET045METAR SBLP 121400Z 06004KT CAVOK 31/19 Q1016=
0142832880999992014031215004-13262-043408FM-15+044399999V0201101N003119999999N009999199+03201+01801999999ADDGA1021+009141991GE19MSL   +99999+99999GF199999021990009141991991MA1101601999990REMMET051METAR SBLP 121500Z 11006KT 9999 FEW030 32/18 Q1016=
0142832880999992014031216004-13262-043408FM-15+044399999V0201701N005119999999N009999199+03401+01501999999ADDGA1021+009141991GE19MSL   +99999+99999GF199999021990009141991991MA1101401999990REMMET051METAR SBLP 121600Z 17010KT 9999 FEW030 34/15 Q1014=
0142832880999992014031217004-13262-043408FM-15+044399999V0201601N003619999999N009999199+03401+01701999999ADDGA1021+009141991GE19MSL   +99999+99999GF199999021990009141991991MA1101301999990REMMET051METAR SBLP 121700Z 16007KT 9999 FEW030 34/17 Q1013=
0136832880999992014031218004-13267-043417FM-12+044199999V0201801N0010199999999020000199+03251+02051100861ADDAA101999990AZ101061AZ201061GA1021+008001081GE19MSL   +99999+99999GF102991021990008001991991MA1999990096031MD1909990-0011REMSYN004BUFR
0142832880999992014031218004-13262-043408FM-15+044399999V0201701N003119999999N009999199+03401+01401999999ADDGA1021+009141991GE19MSL   +99999+99999GF199999021990009141991991MA1101201999990REMMET051METAR SBLP 121800Z 17006KT 9999 FEW030 34/14 Q1012=
0142832880999992014031219004-13262-043408FM-15+044399999V0201901N002619999999N009999199+03501+01202999999ADDGA1021+009141991GE19MSL   +99999+99999GF199999021990009141991991MA1101201999990REMMET051METAR SBLP 121900Z 19005KT 9999 FEW030 35/12 Q1012=
0142832880999992014031220004-13262-043408FM-15+044399999V0202101N003119999999N009999199+03401+01401999999ADDGA1021+009141991GE19MSL   +99999+99999GF199999021990009141991991MA1101201999990REMMET051METAR SBLP 122000Z 21006KT 9999 FEW030 34/14 Q1012=
0142832880999992014031221004-13262-043408FM-15+044399999V0202201N002619999999N009999199+03201+01601999999ADDGA1021+009141991GE19MSL   +99999+99999GF199999021990009141991991MA1101201999990REMMET051METAR SBLP 122100Z 22005KT 9999 FEW030 32/16 Q1012=
0072832880999992014031309154-13262-043408FM-16+044399999V0202001N003119999999Y999999999+02101+01801999999ADDMA1101501999990REMMET045SPECI SBLP 130915Z 20006KT CAVOK 21/18 Q1015=
0072832880999992014031310004-13262-043408FM-15+044399999V0201801N003119999999Y999999999+02201+02101999999ADDMA1101601999990REMMET045METAR SBLP 131000Z 18006KT CAVOK 22/21 Q1016=
0072832880999992014031311004-13262-043408FM-15+044399999V0201901N003619999999Y999999999+02601+01901999999ADDMA1101701999990REMMET045METAR SBLP 131100Z 19007KT CAVOK 26/19 Q1017=
0149832880999992014031312004-13267-043417FM-12+044199999V0200901N0005199999999020000199+02691+02021101371ADDAA101999990AZ101061AZ201061GA1991+025001001GE19MSL   +99999+99999GF101991990990025001991991KA1120N+02061MA1999990096511MD1909990-0031REMSYN004BUFR
0072832880999992014031312004-13262-043408FM-15+044399999V0201401N002119999999Y999999999+02901+01901999999ADDMA1101701999990REMMET045METAR SBLP 131200Z 14004KT CAVOK 29/19 Q1017=
0142832880999992014031313004-13262-043408FM-15+044399999V0202101N003119999999N009999199+02901+02001999999ADDGA1021+009141991GE19MSL   +99999+99999GF199999021990009141991991MA1101701999990REMMET051METAR SBLP 131300Z 21006KT 9999 FEW030 29/20 Q1017=
0142832880999992014031314004-13262-043408FM-15+044399999V0201901N002619999999N009999199+03001+01901999999ADDGA1021+009141991GE19MSL   +99999+99999GF199999021990009141991991MA1101701999990REMMET051METAR SBLP 131400Z 19005KT 9999 FEW030 30/19 Q1017=
0142832880999992014031315004-13262-043408FM-15+044399999V0202401N001519999999N009999199+03101+02001999999ADDGA1021+009141991GE19MSL   +99999+99999GF199999021990009141991991MA1101601999990REMMET051METAR SBLP 131500Z 24003KT 9999 FEW030 31/20 Q1016=
0142832880999992014031316004-13262-043408FM-15+044399999V0202301N003619999999N009999199+03201+01901999999ADDGA1021+009141991GE19MSL   +99999+99999GF199999021990009141991991MA1101501999990REMMET051METAR SBLP 131600Z 23007KT 9999 FEW030 32/19 Q1015=
0142832880999992014031317004-13262-043408FM-15+044399999V0201801N004119999999N009999199+03301+02001999999ADDGA1021+009141991GE19MSL   +99999+99999GF199999021990009141991991MA1101401999990REMMET051METAR SBLP 131700Z 18008KT 9999 FEW030 33/20 Q1014=
0136832880999992014031318004-13267-043417FM-12+044199999V0201801N0010199999999020000199+03221+02111100851ADDAA101999990AZ101061AZ201061GA1021+008001081GE19MSL   +99999+99999GF102991021990008001991991MA1999990096021MD1909990-0011REMSYN004BUFR
0142832880999992014031318004-13262-043408FM-15+044399999V0201801N002119999999N009999199+03401+01601999999ADDGA1021+009141991GE19MSL   +99999+99999GF199999021990009141991991MA1101301999990REMMET051METAR SBLP 131800Z 18004KT 9999 FEW030 34/16 Q1013=
0142832880999992014031319004-13262-043408FM-15+044399999V0201601N003119999999N009999199+03401+01701999999ADDGA1021+009141991GE19MSL   +99999+99999GF199999021990009141991991MA1101301999990REMMET051METAR SBLP 131900Z 16006KT 9999 FEW030 34/17 Q1013=
0142832880999992014031320004-13262-043408FM-15+044399999V0201601N005119999999N009999199+03401+01601999999ADDGA1021+009141991GE19MSL   +99999+99999GF199999021990009141991991MA1101201999990REMMET051METAR SBLP 132000Z 16010KT 9999 FEW030 34/16 Q1012=
0072832880999992014031321004-13262-043408FM-15+044399999V0202001N002619999999Y999999999+03201+01801999999ADDMA1101201999990REMMET045METAR SBLP 132100Z 20005KT CAVOK 32/18 Q1012=
0072832880999992014031409154-13262-043408FM-16+044399999V0201501N002119999999Y999999999+02101+01801999999ADDMA1101501999990REMMET045SPECI SBLP 140915Z 15004KT CAVOK 21/18 Q1015=
0072832880999992014031410004-13262-043408FM-15+044399999V0201601N002119999999Y999999999+02201+01901999999ADDMA1101501999990REMMET045METAR SBLP 141000Z 16004KT CAVOK 22/19 Q1015=
0072832880999992014031411004-13262-043408FM-15+044399999V0201901N002619999999Y999999999+02601+02001999999ADDMA1101601999990REMMET045METAR SBLP 141100Z 19005KT CAVOK 26/20 Q1016=
0149832880999992014031412004-13267-043417FM-12+044199999V0201401N0005199999999020000199+02701+02021101251ADDAA101999990AZ101061AZ201061GA1011+025001031GE19MSL   +99999+99999GF101991011990025001991991KA1120N+02101MA1999990096411MD1909990-0101REMSYN004BUFR
0072832880999992014031412004-13262-043408FM-15+044399999V0201401N002119999999Y999999999+02901+01901999999ADDMA1101601999990REMMET045METAR SBLP 141200Z 14004KT CAVOK 29/19 Q1016=
0072832880999992014031413004-13262-043408FM-15+044399999V0201001N002619999999Y999999999+03001+01801999999ADDMA1101601999990REMMET045METAR SBLP 141300Z 10005KT CAVOK 30/18 Q1016=
0142832880999992014031414004-13262-043408FM-15+044399999V0202001N002119999999N009999199+03001+01901999999ADDGA1021+009141991GE19MSL   +99999+99999GF199999021990009141991991MA1101601999990REMMET051METAR SBLP 141400Z 20004KT 9999 FEW030 30/19 Q1016=
0142832880999992014031415004-13262-043408FM-15+044399999V0200501N001519999999N009999199+03201+01801999999ADDGA1021+009141991GE19MSL   +99999+99999GF199999021990009141991991MA1101501999990REMMET051METAR SBLP 141500Z 05003KT 9999 FEW030 32/18 Q1015=
0142832880999992014031416004-13262-043408FM-15+044399999V0200801N001519999999N009999199+03301+01801999999ADDGA1021+009141991GE19MSL   +99999+99999GF199999021990009141991991MA1101301999990REMMET051METAR SBLP 141600Z 08003KT 9999 FEW030 33/18 Q1013=
0142832880999992014031417004-13262-043408FM-15+044399999V0201101N004119999999N009999199+03301+01801999999ADDGA1021+009141991GE19MSL   +99999+99999GF199999021990009141991991MA1101201999990REMMET051METAR SBLP 141700Z 11008KT 9999 FEW030 33/18 Q1012=
0168832880999992014031418004-13267-043417FM-12+044199999V0201401N0010199999999020000199+03291+01871100801ADDAA101999990AZ101061AZ201061GA1031+008001081GA2991+999991021GA3991+999991031GE19MSL   +99999+99999GF105991031990008001991991MA1999990095991MD1909990-0031REMSYN004BUFR
0142832880999992014031418004-13262-043408FM-15+044399999V0201101N004119999999N009999199+03201+01701999999ADDGA1041+009141991GE19MSL   +99999+99999GF199999041990009141991991MA1101201999990REMMET051METAR SBLP 141800Z 11008KT 9999 SCT030 32/17 Q1012=
0142832880999992014031419004-13262-043408FM-15+044399999V0209999C000019999999N009999199+03401+01501999999ADDGA1041+009141991GE19MSL   +99999+99999GF199999041990009141991991MA1101101999990REMMET051METAR SBLP 141900Z 00000KT 9999 SCT030 34/15 Q1011=
0142832880999992014031420004-13262-043408FM-15+044399999V0201301N004119999999N009999199+03301+01701999999ADDGA1041+009141991GE19MSL   +99999+99999GF199999041990009141991991MA1101101999990REMMET051METAR SBLP 142000Z 13008KT 9999 SCT030 33/17 Q1011=
0142832880999992014031421004-13262-043408FM-15+044399999V0201801N003119999999N009999199+03101+01701999999ADDGA1021+009141991GE19MSL   +99999+99999GF199999021990009141991991MA1101101999990REMMET051METAR SBLP 142100Z 18006KT 9999 FEW030 31/17 Q1011=
0111832880999992014031512004-13267-043417FM-12+044199999V0202701N0010122000199020000199+02521+01931101271ADDAA101999990AZ101061AZ201061GF100991999999999999999999KA1120N+02101MA1999990096401MD1909990-0011REMSYN004BUFR
0136832880999992014031518004-13267-043417FM-12+044199999V0202701N0021199999999020000199+03321+02101100831ADDAA101999990AZ101061AZ201061GA1021+008001081GE19MSL   +99999+99999GF102991021990008001991991MA1999990096001MD1909990+0031REMSYN004BUFR
0149832880999992014031612004-13267-043417FM-12+044199999V0200901N0021199999999020000199+02701+02041101161ADDAA101999990AZ101061AZ201061GA1991+025001021GE19MSL   +99999+99999GF105991990990025001991991KA1120N+02221MA1999990096311MD1909990-0091REMSYN004BUFR
0168832880999992014031618004-13267-043417FM-12+044199999V0202301N0015199999999020000199+03221+02111100771ADDAA101999990AZ101061AZ201061GA1031+008001061GA2991+999991021GA3991+999991031GE19MSL   +99999+99999GF106991031990008001991991MA1999990095961MD1909990-0061REMSYN004BUFR
0165832880999992014031709154-13262-043408FM-16+044399999V0209999C00001030481CN009999199+02301+01801999999ADDGA1021+006101991GA2041+030481991GE19MSL   +99999+99999GF199999021990006101991991MA1101401999990REMMET058SPECI SBLP 170915Z 00000KT 9999 FEW020 SCT100 23/18 Q1014=
0165832880999992014031710004-13262-043408FM-15+044399999V0209999C00001030481CN009999199+02301+01901999999ADDGA1021+009141991GA2041+030481991GE19MSL   +99999+99999GF199999021990009141991991MA1101401999990REMMET058METAR SBLP 171000Z 00000KT 9999 FEW030 SCT100 23/19 Q1014=
0165832880999992014031711004-13262-043408FM-15+044399999V0201101N002110304819N009999199+02501+01901999999ADDGA1021+009141991GA2071+030481991GE19MSL   +99999+99999GF199999021990009141991991MA1101501999990REMMET058METAR SBLP 171100Z 11004KT 9999 FEW030 BKN100 25/19 Q1015=
0165832880999992014031712004-13267-043417FM-12+044199999V0201401N0005199999999020000199+02721+02131101241ADDAA101999990AZ101061AZ201061GA1031+008001061GA2991+999991031GE19MSL   +99999+99999GF106991031990008001991991KA1120N+02301MA1999990096401MD1909990+0091REMSYN004BUFR
0165832880999992014031712004-13262-043408FM-15+044399999V0209999C000010304819N009999199+02701+02001999999ADDGA1021+009141991GA2071+030481991GE19MSL   +99999+99999GF199999021990009141991991MA1101601999990REMMET058METAR SBLP 171200Z 00000KT 9999 FEW030 BKN100 27/20 Q1016=
0165832880999992014031713004-13262-043408FM-15+044399999V0200701N003110304819N009999199+02801+02001999999ADDGA1021+009141991GA2071+030481991GE19MSL   +99999+99999GF199999021990009141991991MA1101601999990REMMET058METAR SBLP 171300Z 07006KT 9999 FEW030 BKN100 28/20 Q1016=
0165832880999992014031714004-13262-043408FM-15+044399999V0200801N00211030481CN009999199+03001+01901999999ADDGA1021+009141991GA2041+030481991GE19MSL   +99999+99999GF199999021990009141991991MA1101601999990REMMET058METAR SBLP 171400Z 08004KT 9999 FEW030 SCT100 30/19 Q1016=
0165832880999992014031715004-13262-043408FM-15+044399999V0200901N00311030481CN009999199+03101+02001999999ADDGA1021+009141991GA2041+030481991GE19MSL   +99999+99999GF199999021990009141991991MA1101501999990REMMET058METAR SBLP 171500Z 09006KT 9999 FEW030 SCT100 31/20 Q1015=
0165832880999992014031716004-13262-043408FM-15+044399999V0202101N00361030481CN009999199+03201+01901999999ADDGA1021+009141991GA2041+030481991GE19MSL   +99999+99999GF199999021990009141991991MA1101301999990REMMET058METAR SBLP 171600Z 21007KT 9999 FEW030 SCT100 32/19 Q1013=
0165832880999992014031717004-13262-043408FM-15+044399999V0200901N00261030481CN009999199+03301+01801999999ADDGA1041+009141991GA2041+030481991GE19MSL   +99999+99999GF199999041990009141991991MA1101201999990REMMET058METAR SBLP 171700Z 09005KT 9999 SCT030 SCT100 33/18 Q1012=
0168832880999992014031718004-13267-043417FM-12+044199999V0201801N0005199999999020000199+03291+02121100771ADDAA101999990AZ101061AZ201061GA1031+008001061GA2991+999991021GA3991+999991031GE19MSL   +99999+99999GF107991031990008001991991MA1999990095981MD1909990+0021REMSYN004BUFR
0165832880999992014031718004-13262-043408FM-15+044399999V0202201N00211030481CN009999199+03501+01901999999ADDGA1041+009141991GA2041+030481991GE19MSL   +99999+99999GF199999041990009141991991MA1101201999990REMMET058METAR SBLP 171800Z 22004KT 9999 SCT030 SCT100 35/19 Q1012=
0165832880999992014031719004-13262-043408FM-15+044399999V0202101N00411030481CN009999199+03501+01801999999ADDGA1021+009141991GA2041+030481991GE19MSL   +99999+99999GF199999021990009141991991MA1101101999990REMMET058METAR SBLP 171900Z 21008KT 9999 FEW030 SCT100 35/18 Q1011=
0165832880999992014031720004-13262-043408FM-15+044399999V0202001N00311030481CN009999199+03401+01701999999ADDGA1021+009141991GA2041+030481991GE19MSL   +99999+99999GF199999021990009141991991MA1101101999990REMMET058METAR SBLP 172000Z 20006KT 9999 FEW030 SCT100 34/17 Q1011=
0165832880999992014031721004-13262-043408FM-15+044399999V0201801N00411030481CN009999199+03101+01701999999ADDGA1021+009141991GA2041+030481991GE19MSL   +99999+99999GF199999021990009141991991MA1101201999990REMMET058METAR SBLP 172100Z 18008KT 9999 FEW030 SCT100 31/17 Q1012=
0165832880999992014031809154-13262-043408FM-16+044399999V0201601N001510304819N009999199+02201+01801999999ADDGA1021+006101991GA2071+030481991GE19MSL   +99999+99999GF199999021990006101991991MA1101501999990REMMET058SPECI SBLP 180915Z 16003KT 9999 FEW020 BKN100 22/18 Q1015=
0165832880999992014031810004-13262-043408FM-15+044399999V0201701N00151030481CN009999199+02401+01901999999ADDGA1021+009141991GA2041+030481991GE19MSL   +99999+99999GF199999021990009141991991MA1101501999990REMMET058METAR SBLP 181000Z 17003KT 9999 FEW030 SCT100 24/19 Q1015=
0072832880999992014031811004-13262-043408FM-15+044399999V0201501N002119999999Y999999999+02701+01901999999ADDMA1101601999990REMMET045METAR SBLP 181100Z 15004KT CAVOK 27/19 Q1016=
0149832880999992014031812004-13267-043417FM-12+044199999V0201801N0026199999999020000199+02841+02141101251ADDAA101999990AZ101061AZ201061GA1991+025001001GE19MSL   +99999+99999GF101991990990025001991991KA1120N+02291MA1999990096421MD1909990+0021REMSYN004BUFR
0072832880999992014031812004-13262-043408FM-15+044399999V0201601N004119999999Y999999999+02801+02001999999ADDMA1101601999990REMMET045METAR SBLP 181200Z 16008KT CAVOK 28/20 Q1016=
0072832880999992014031813004-13262-043408FM-15+044399999V0201601N004119999999Y999999999+03001+02001999999ADDMA1101601999990REMMET045METAR SBLP 181300Z 16008KT CAVOK 30/20 Q1016=
0142832880999992014031814004-13262-043408FM-15+044399999V0202001N004119999999N009999199+03101+02001999999ADDGA1021+009141991GE19MSL   +99999+99999GF199999021990009141991991MA1101601999990REMMET051METAR SBLP 181400Z 20008KT 9999 FEW030 31/20 Q1016=
0142832880999992014031815004-13262-043408FM-15+044399999V0202101N004119999999N009999199+03201+01901999999ADDGA1021+009141991GE19MSL   +99999+99999GF199999021990009141991991MA1101501999990REMMET051METAR SBLP 181500Z 21008KT 9999 FEW030 32/19 Q1015=
0142832880999992014031816004-13262-043408FM-15+044399999V0202401N002619999999N009999199+03401+01801999999ADDGA1041+009141991GE19MSL   +99999+99999GF199999041990009141991991MA1101401999990REMMET051METAR SBLP 181600Z 24005KT 9999 SCT030 34/18 Q1014=
0142832880999992014031817004-13262-043408FM-15+044399999V0201801N005119999999N009999199+03501+01701999999ADDGA1041+009141991GE19MSL   +99999+99999GF199999041990009141991991MA1101301999990REMMET051METAR SBLP 181700Z 18010KT 9999 SCT030 35/17 Q1013=
0136832880999992014031818004-13267-043417FM-12+044199999V0202301N0021199999999020000199+03471+02071100761ADDAA101999990AZ101061AZ201061GA1011+008001081GE19MSL   +99999+99999GF101991011990008001991991MA1999990095981MD1909990+0001REMSYN004BUFR
0142832880999992014031818004-13262-043408FM-15+044399999V0202101N003619999999N009999199+03501+01601999999ADDGA1041+009141991GE19MSL   +99999+99999GF199999041990009141991991MA1101201999990REMMET051METAR SBLP 181800Z 21007KT 9999 SCT030 35/16 Q1012=
0142832880999992014031819004-13262-043408FM-15+044399999V0202001N004119999999N009999199+03601+01601999999ADDGA1041+009141991GE19MSL   +99999+99999GF199999041990009141991991MA1101101999990REMMET051METAR SBLP 181900Z 20008KT 9999 SCT030 36/16 Q1011=
0142832880999992014031820004-13262-043408FM-15+044399999V0202001N004119999999N009999199+03401+01801999999ADDGA1041+009141991GE19MSL   +99999+99999GF199999041990009141991991MA1101101999990REMMET051METAR SBLP 182000Z 20008KT 9999 SCT030 34/18 Q1011=
0142832880999992014031821004-13262-043408FM-15+044399999V0201701N003619999999N009999199+03301+01901999999ADDGA1021+009141991GE19MSL   +99999+99999GF199999021990009141991991MA1101101999990REMMET051METAR SBLP 182100Z 17007KT 9999 FEW030 33/19 Q1011=
0142832880999992014031909154-13262-043408FM-16+044399999V0202101N002119999999N009999199+02301+01901999999ADDGA1021+006101991GE19MSL   +99999+99999GF199999021990006101991991MA1101401999990REMMET051SPECI SBLP 190915Z 21004KT 9999 FEW020 23/19 Q1014=
0142832880999992014031910004-13262-043408FM-15+044399999V0201901N001519999999N009999199+02401+02001999999ADDGA1021+006101991GE19MSL   +99999+99999GF199999021990006101991991MA1101501999990REMMET051METAR SBLP 191000Z 19003KT 9999 FEW020 24/20 Q1015=
0142832880999992014031911004-13262-043408FM-15+044399999V0201801N003119999999N009999199+02701+02001999999ADDGA1021+009141991GE19MSL   +99999+99999GF199999021990009141991991MA1101601999990REMMET051METAR SBLP 191100Z 18006KT 9999 FEW030 27/20 Q1016=
0149832880999992014031912004-13267-043417FM-12+044199999V0200901N0015199999999020000199+02791+02071101231ADDAA101999990AZ101061AZ201061GA1991+025001001GE19MSL   +99999+99999GF103991990990025001991991KA1120N+02301MA1999990096411MD1909990-0011REMSYN004BUFR
0142832880999992014031912004-13262-043408FM-15+044399999V0201301N003619999999N009999199+02901+02001999999ADDGA1021+009141991GE19MSL   +99999+99999GF199999021990009141991991MA1101701999990REMMET051METAR SBLP 191200Z 13007KT 9999 FEW030 29/20 Q1017=
0142832880999992014031913004-13262-043408FM-15+044399999V0201101N002619999999N009999199+03101+02001999999ADDGA1021+009141991GE19MSL   +99999+99999GF199999021990009141991991MA1101601999990REMMET051METAR SBLP 191300Z 11005KT 9999 FEW030 31/20 Q1016=
0142832880999992014031914004-13262-043408FM-15+044399999V0201301N004119999999N009999199+03201+02001999999ADDGA1021+009141991GE19MSL   +99999+99999GF199999021990009141991991MA1101501999990REMMET051METAR SBLP 191400Z 13008KT 9999 FEW030 32/20 Q1015=
0142832880999992014031915004-13262-043408FM-15+044399999V0201201N003619999999N009999199+03301+01801999999ADDGA1041+009141991GE19MSL   +99999+99999GF199999041990009141991991MA1101401999990REMMET051METAR SBLP 191500Z 12007KT 9999 SCT030 33/18 Q1014=
0142832880999992014031916004-13262-043408FM-15+044399999V0202701N002619999999N009999199+03301+01901999999ADDGA1041+009141991GE19MSL   +99999+99999GF199999041990009141991991MA1101301999990REMMET051METAR SBLP 191600Z 27005KT 9999 SCT030 33/19 Q1013=
0142832880999992014031917004-13262-043408FM-15+044399999V0202801N003619999999N009999199+03401+01801999999ADDGA1041+009141991GE19MSL   +99999+99999GF199999041990009141991991MA1101201999990REMMET051METAR SBLP 191700Z 28007KT 9999 SCT030 34/18 Q1012=
0152832880999992014031918004-13267-043417FM-12+044199999V0202301N0015199999999020000199+03451+02331100691ADDAA101999990AZ101061AZ201061GA1031+008001081GA2991+999991021GE19MSL   +99999+99999GF105991031990008001991991MA1999990095901MD1909990-0081REMSYN004BUFR
0142832880999992014031918004-13262-043408FM-15+044399999V0202601N003119999999N009999199+03401+01801999999ADDGA1041+009141991GE19MSL   +99999+99999GF199999041990009141991991MA1101101999990REMMET051METAR SBLP 191800Z 26006KT 9999 SCT030 34/18 Q1011=
0142832880999992014031919004-13262-043408FM-15+044399999V0202201N003119999999N009999199+03401+01801999999ADDGA1021+009141991GE19MSL   +99999+99999GF199999021990009141991991MA1101001999990REMMET051METAR SBLP 191900Z 22006KT 9999 FEW030 34/18 Q1010=
0142832880999992014031920004-13262-043408FM-15+044399999V0202101N004119999999N009999199+03401+01801999999ADDGA1021+009141991GE19MSL   +99999+99999GF199999021990009141991991MA1100901999990REMMET051METAR SBLP 192000Z 21008KT 9999 FEW030 34/18 Q1009=
0165832880999992014031921004-13262-043408FM-15+044399999V0201801N00261030481CN009999199+03201+01801999999ADDGA1021+009141991GA2041+030481991GE19MSL   +99999+99999GF199999021990009141991991MA1101001999990REMMET058METAR SBLP 192100Z 18005KT 9999 FEW030 SCT100 32/18 Q1010=
0165832880999992014032009154-13262-043408FM-16+044399999V0209999C00001030481CN009999199+02201+02001999999ADDGA1021+009141991GA2041+030481991GE19MSL   +99999+99999GF199999021990009141991991MA1101401999990REMMET058SPECI SBLP 200915Z 00000KT 9999 FEW030 SCT100 22/20 Q1014=
0072832880999992014032010004-13262-043408FM-15+044399999V0209999C000019999999Y999999999+02401+02001999999ADDMA1101401999990REMMET045METAR SBLP 201000Z 00000KT CAVOK 24/20 Q1014=
0072832880999992014032011004-13262-043408FM-15+044399999V0209999C000019999999Y999999999+02601+01901999999ADDMA1101501999990REMMET045METAR SBLP 201100Z 00000KT CAVOK 26/19 Q1015=
0111832880999992014032012004-13267-043417FM-12+044199999V0203601N0000122000199020000199+02801+02161101101ADDAA101999990AZ101061AZ201061GF100991999999999999999999KA1120N+02321MA1999990096291MD1909990-0121REMSYN004BUFR
0072832880999992014032012004-13262-043408FM-15+044399999V0201201N001519999999Y999999999+02901+01901999999ADDMA1101501999990REMMET045METAR SBLP 201200Z 12003KT CAVOK 29/19 Q1015=
0142832880999992014032013004-13262-043408FM-15+044399999V0209999C000019999999N009999199+03001+01901999999ADDGA1021+009141991GE19MSL   +99999+99999GF199999021990009141991991MA1101501999990REMMET051METAR SBLP 201300Z 00000KT 9999 FEW030 30/19 Q1015=
0142832880999992014032014004-13262-043408FM-15+044399999V0201901N002119999999N009999199+03101+01901999999ADDGA1021+009141991GE19MSL   +99999+99999GF199999021990009141991991MA1101501999990REMMET051METAR SBLP 201400Z 19004KT 9999 FEW030 31/19 Q1015=
0142832880999992014032015004-13262-043408FM-15+044399999V0209999C000019999999N009999199+03301+01801999999ADDGA1021+009141991GE19MSL   +99999+99999GF199999021990009141991991MA1101401999990REMMET051METAR SBLP 201500Z 00000KT 9999 FEW030 33/18 Q1014=
0142832880999992014032016004-13262-043408FM-15+044399999V0202601N003119999999N009999199+03401+01901999999ADDGA1041+009141991GE19MSL   +99999+99999GF199999041990009141991991MA1101201999990REMMET051METAR SBLP 201600Z 26006KT 9999 SCT030 34/19 Q1012=
0142832880999992014032017004-13262-043408FM-15+044399999V0202701N003119999999N009999199+03501+01801999999ADDGA1041+009141991GE19MSL   +99999+99999GF199999041990009141991991MA1101101999990REMMET051METAR SBLP 201700Z 27006KT 9999 SCT030 35/18 Q1011=
0136832880999992014032018004-13267-043417FM-12+044199999V0203601N0000199999999020000199+03541+02311100561ADDAA101999990AZ101061AZ201061GA1021+008001081GE19MSL   +99999+99999GF102991021990008001991991MA1999990095801MD1909990-0101REMSYN004BUFR
0142832880999992014032018004-13262-043408FM-15+044399999V0202501N001519999999N009999199+03601+01801999999ADDGA1041+009141991GE19MSL   +99999+99999GF199999041990009141991991MA1101001999990REMMET051METAR SBLP 201800Z 25003KT 9999 SCT030 36/18 Q1010=
0142832880999992014032019004-13262-043408FM-15+044399999V0202201N002119999999N009999199+03601+01701999999ADDGA1041+009141991GE19MSL   +99999+99999GF199999041990009141991991MA1100901999990REMMET051METAR SBLP 201900Z 22004KT 9999 SCT030 36/17 Q1009=
0142832880999992014032020004-13262-043408FM-15+044399999V0202301N002119999999N009999199+03601+01801999999ADDGA1041+009141991GE19MSL   +99999+99999GF199999041990009141991991MA1100901999990REMMET051METAR SBLP 202000Z 23004KT 9999 SCT030 36/18 Q1009=
0142832880999992014032021004-13262-043408FM-15+044399999V0201701N002619999999N009999199+03201+01901999999ADDGA1021+009141991GE19MSL   +99999+99999GF199999021990009141991991MA1100901999990REMMET051METAR SBLP 202100Z 17005KT 9999 FEW030 32/19 Q1009=
0142832880999992014032109154-13262-043408FM-16+044399999V0201101N002619999999N009999199+02301+02101999999ADDGA1021+009141991GE19MSL   +99999+99999GF199999021990009141991991MA1101301999990REMMET051SPECI SBLP 210915Z 11005KT 9999 FEW030 23/21 Q1013=
0142832880999992014032110004-13262-043408FM-15+044399999V0209999C000019999999N009999199+02501+02101999999ADDGA1021+009141991GE19MSL   +99999+99999GF199999021990009141991991MA1101401999990REMMET051METAR SBLP 211000Z 00000KT 9999 FEW030 25/21 Q1014=
0072832880999992014032111004-13262-043408FM-15+044399999V0202401N002619999999Y999999999+02801+02101999999ADDMA1101501999990REMMET045METAR SBLP 211100Z 24005KT CAVOK 28/21 Q1015=
0111832880999992014032112004-13267-043417FM-12+044199999V0203601N0010122000199020000199+02971+02281101141ADDAA101999990AZ101061AZ201061GF100991999999999999999999KA1120N+02321MA1999990096341MD1909990+0051REMSYN004BUFR
0072832880999992014032112004-13262-043408FM-15+044399999V0202701N001519999999Y999999999+03001+02101999999ADDMA1101601999990REMMET045METAR SBLP 211200Z 27003KT CAVOK 30/21 Q1016=
0072832880999992014032113004-13262-043408FM-15+044399999V0209999C000019999999Y999999999+03201+02001999999ADDMA1101501999990REMMET045METAR SBLP 211300Z 00000KT CAVOK 32/20 Q1015=
0142832880999992014032114004-13262-043408FM-15+044399999V0202401N001519999999N009999199+03301+02101999999ADDGA1021+009141991GE19MSL   +99999+99999GF199999021990009141991991MA1101501999990REMMET051METAR SBLP 211400Z 24003KT 9999 FEW030 33/21 Q1015=
0142832880999992014032115004-13262-043408FM-15+044399999V0202901N002619999999N009999199+03501+02001999999ADDGA1021+009141991GE19MSL   +99999+99999GF199999021990009141991991MA1101401999990REMMET051METAR SBLP 211500Z 29005KT 9999 FEW030 35/20 Q1014=
0142832880999992014032116004-13262-043408FM-15+044399999V0203101N002619999999N009999199+03501+01901999999ADDGA1041+009141991GE19MSL   +99999+99999GF199999041990009141991991MA1101301999990REMMET051METAR SBLP 211600Z 31005KT 9999 SCT030 35/19 Q1013=
0142832880999992014032117004-13262-043408FM-15+044399999V0202201N002119999999N009999199+03601+01801999999ADDGA1041+009141991GE19MSL   +99999+99999GF199999041990009141991991MA1101101999990REMMET051METAR SBLP 211700Z 22004KT 9999 SCT030 36/18 Q1011=
0136832880999992014032118004-13267-043417FM-12+044199999V0202301N0026199999999020000199+03671+02401100611ADDAA101999990AZ101061AZ201061GA1021+008001081GE19MSL   +99999+99999GF102991021990008001991991MA1999990095881MD1909990+0081REMSYN004BUFR
0142832880999992014032118004-13262-043408FM-15+044399999V0200301N001519999999N009999199+03701+01801999999ADDGA1041+009141991GE19MSL   +99999+99999GF199999041990009141991991MA1101101999990REMMET051METAR SBLP 211800Z 03003KT 9999 SCT030 37/18 Q1011=
0142832880999992014032119004-13262-043408FM-15+044399999V0202101N002119999999N009999199+03701+01801999999ADDGA1041+009141991GE19MSL   +99999+99999GF199999041990009141991991MA1101001999990REMMET051METAR SBLP 211900Z 21004KT 9999 SCT030 37/18 Q1010=
0142832880999992014032120004-13262-043408FM-15+044399999V0202101N003619999999N009999199+03701+02001999999ADDGA1041+009141991GE19MSL   +99999+99999GF199999041990009141991991MA1101001999990REMMET051METAR SBLP 212000Z 21007KT 9999 SCT030 37/20 Q1010=
0142832880999992014032121004-13262-043408FM-15+044399999V0202201N002619999999N009999199+03501+01801999999ADDGA1021+009141991GE19MSL   +99999+99999GF199999021990009141991991MA1101001999990REMMET051METAR SBLP 212100Z 22005KT 9999 FEW030 35/18 Q1010=
0149832880999992014032212004-13267-043417FM-12+044199999V0203601N0000199999999020000199+02901+02331101221ADDAA101999990AZ101061AZ201061GA1991+025001021GE19MSL   +99999+99999GF102991990990025001991991KA1120N+02301MA1999990096431MD1909990+0091REMSYN004BUFR
0136832880999992014032218004-13267-043417FM-12+044199999V0202701N0015199999999020000199+03671+02431100581ADDAA101999990AZ101061AZ201061GA1041+008001081GE19MSL   +99999+99999GF104991041990008001991991MA1999990095851MD1909990-0031REMSYN004BUFR
0165832880999992014032312004-13267-043417FM-12+044199999V0200501N0005199999999020000199+02971+02291101021ADDAA101999990AZ101061AZ201061GA1031+012501051GA2991+999991021GE19MSL   +99999+99999GF105991031990012501991991KA1120N+02401MA1999990096241MD1909990-0191REMSYN004BUFR
0168832880999992014032318004-13267-043417FM-12+044199999V0203601N0000199999999020000199+03621+02241100491ADDAA101999990AZ101061AZ201061GA1031+004501081GA2991+999991021GA3991+999991051GE19MSL   +99999+99999GF106991031990004501991991MA1999990095771MD1909990-0081REMSYN004BUFR
0165832880999992014032409154-13262-043408FM-16+044399999V0200301N00261030481CN009999199+02401+02001999999ADDGA1021+009141991GA2041+030481991GE19MSL   +99999+99999GF199999021990009141991991MA1101401999990REMMET058SPECI SBLP 240915Z 03005KT 9999 FEW030 SCT100 24/20 Q1014=
0072832880999992014032410004-13262-043408FM-15+044399999V0200601N002119999999Y999999999+02501+02101999999ADDMA1101501999990REMMET045METAR SBLP 241000Z 06004KT CAVOK 25/21 Q1015=
0072832880999992014032411004-13262-043408FM-15+044399999V0201001N001019999999Y999999999+02801+02101999999ADDMA1101601999990REMMET045METAR SBLP 241100Z 10002KT CAVOK 28/21 Q1016=
0149832880999992014032412004-13267-043417FM-12+044199999V0200501N0015199999999020000199+02841+02191101221ADDAA101999990AZ101061AZ201061GA1991+025001001GE19MSL   +99999+99999GF107991990990025001991991KA1120N+02411MA1999990096411MD1909990+0171REMSYN004BUFR
0165832880999992014032412004-13262-043408FM-15+044399999V0200901N00101030481CN009999199+02901+02001999999ADDGA1021+009141991GA2041+030481991GE19MSL   +99999+99999GF199999021990009141991991MA1101601999990REMMET058METAR SBLP 241200Z 09002KT 9999 FEW030 SCT100 29/20 Q1016=
0142832880999992014032413004-13262-043408FM-15+044399999V0201501N003119999999N009999199+03001+01901999999ADDGA1021+009141991GE19MSL   +99999+99999GF199999021990009141991991MA1101601999990REMMET051METAR SBLP 241300Z 15006KT 9999 FEW030 30/19 Q1016=
0142832880999992014032414004-13262-043408FM-15+044399999V0200901N002119999999N009999199+03101+01901999999ADDGA1021+009141991GE19MSL   +99999+99999GF199999021990009141991991MA1101501999990REMMET051METAR SBLP 241400Z 09004KT 9999 FEW030 31/19 Q1015=
0142832880999992014032415004-13262-043408FM-15+044399999V0200501N002619999999N009999199+03201+02101999999ADDGA1041+009141991GE19MSL   +99999+99999GF199999041990009141991991MA1101401999990REMMET051METAR SBLP 241500Z 05005KT 9999 SCT030 32/21 Q1014=
0142832880999992014032416004-13262-043408FM-15+044399999V0202101N001519999999N009999199+03201+02001999999ADDGA1041+009141991GE19MSL   +99999+99999GF199999041990009141991991MA1101301999990REMMET051METAR SBLP 241600Z 21003KT 9999 SCT030 32/20 Q1013=
0142832880999992014032417004-13262-043408FM-15+044399999V0202501N003119999999N009999199+03301+01901999999ADDGA1041+009141991GE19MSL   +99999+99999GF199999041990009141991991MA1101201999990REMMET051METAR SBLP 241700Z 25006KT 9999 SCT030 33/19 Q1012=
0152832880999992014032418004-13267-043417FM-12+044199999V0202701N0015199999999020000199+03451+02361100761ADDAA101999990AZ101061AZ201061GA1021+008001081GA2991+999991001GE19MSL   +99999+99999GF104991021990008001991991MA1999990095991MD1909990+0221REMSYN004BUFR
0142832880999992014032418004-13262-043408FM-15+044399999V0202801N002619999999N009999199+03401+02001999999ADDGA1041+009141991GE19MSL   +99999+99999GF199999041990009141991991MA1101201999990REMMET051METAR SBLP 241800Z 28005KT 9999 SCT030 34/20 Q1012=
0142832880999992014032419004-13262-043408FM-15+044399999V0202401N002119999999N009999199+03401+01901999999ADDGA1041+009141991GE19MSL   +99999+99999GF199999041990009141991991MA1101101999990REMMET051METAR SBLP 241900Z 24004KT 9999 SCT030 34/19 Q1011=
0165832880999992014032421004-13262-043408FM-15+044399999V0202101N00261030481CN009999199+03001+02001999999ADDGA1041+009141991GA2041+030481991GE19MSL   +99999+99999GF199999041990009141991991MA1101201999990REMMET058METAR SBLP 242100Z 21005KT 9999 SCT030 SCT100 30/20 Q1012=
0098832880999992014032500004-13267-043417FM-12+044199999V0202301N0021122000199002000199+02671+02181101041ADDAA101999990AZ101061AZ201061GF100991999999999999999999MA1999990096211MD1909990+0151REMSYN004BUFR
0072832880999992014032509154-13262-043408FM-16+044399999V0202201N002119999999Y999999999+02201+02101999999ADDMA1101601999990REMMET045SPECI SBLP 250915Z 22004KT CAVOK 22/21 Q1016=
0072832880999992014032510004-13262-043408FM-15+044399999V0202101N002619999999Y999999999+02301+02101999999ADDMA1101601999990REMMET045METAR SBLP 251000Z 21005KT CAVOK 23/21 Q1016=
0072832880999992014032511004-13262-043408FM-15+044399999V0201701N003119999999Y999999999+02601+02101999999ADDMA1101701999990REMMET045METAR SBLP 251100Z 17006KT CAVOK 26/21 Q1017=
0149832880999992014032512004-13267-043417FM-12+044199999V0201801N0010199999999020000199+02801+02091101321ADDAA101999990AZ101061AZ201061GA1991+025001001GE19MSL   +99999+99999GF102991990990025001991991KA1120N+02261MA1999990096471MD1909990+0061REMSYN004BUFR
0142832880999992014032512004-13262-043408FM-15+044399999V0201501N002619999999N009999199+02801+02001999999ADDGA1021+009141991GE19MSL   +99999+99999GF199999021990009141991991MA1101701999990REMMET051METAR SBLP 251200Z 15005KT 9999 FEW030 28/20 Q1017=
0142832880999992014032513004-13262-043408FM-15+044399999V0200301N004119999999N009999199+03001+02001999999ADDGA1021+009141991GE19MSL   +99999+99999GF199999021990009141991991MA1101701999990REMMET051METAR SBLP 251300Z 03008KT 9999 FEW030 30/20 Q1017=
0142832880999992014032514004-13262-043408FM-15+044399999V0200601N002119999999N009999199+03201+02001999999ADDGA1041+009141991GE19MSL   +99999+99999GF199999041990009141991991MA1101601999990REMMET051METAR SBLP 251400Z 06004KT 9999 SCT030 32/20 Q1016=
0142832880999992014032515004-13262-043408FM-15+044399999V0202101N002119999999N009999199+03201+02001999999ADDGA1041+009141991GE19MSL   +99999+99999GF199999041990009141991991MA1101501999990REMMET051METAR SBLP 251500Z 21004KT 9999 SCT030 32/20 Q1015=
0142832880999992014032516004-13262-043408FM-15+044399999V0202101N002619999999N009999199+03401+01901999999ADDGA1041+009141991GE19MSL   +99999+99999GF199999041990009141991991MA1101401999990REMMET051METAR SBLP 251600Z 21005KT 9999 SCT030 34/19 Q1014=
0142832880999992014032517004-13262-043408FM-15+044399999V0201001N003619999999N009999199+03401+01801999999ADDGA1041+009141991GE19MSL   +99999+99999GF199999041990009141991991MA1101301999990REMMET051METAR SBLP 251700Z 10007KT 9999 SCT030 34/18 Q1013=
0136832880999992014032518004-13267-043417FM-12+044199999V0202301N0010199999999020000199+03451+01981100801ADDAA101999990AZ101061AZ201061GA1041+008001081GE19MSL   +99999+99999GF104991041990008001991991MA1999990096001MD1909990+0011REMSYN004BUFR
0142832880999992014032518004-13262-043408FM-15+044399999V0202101N001519999999N009999199+03501+01801999999ADDGA1041+009141991GE19MSL   +99999+99999GF199999041990009141991991MA1101201999990REMMET051METAR SBLP 251800Z 21003KT 9999 SCT030 35/18 Q1012=
0142832880999992014032519004-13262-043408FM-15+044399999V0201801N003119999999N009999199+03601+01801999999ADDGA1041+009141991GE19MSL   +99999+99999GF199999041990009141991991MA1101101999990REMMET051METAR SBLP 251900Z 18006KT 9999 SCT030 36/18 Q1011=
0142832880999992014032520004-13262-043408FM-15+044399999V0202401N002619999999N009999199+03501+01701999999ADDGA1021+009141991GE19MSL   +99999+99999GF199999021990009141991991MA1101101999990REMMET051METAR SBLP 252000Z 24005KT 9999 FEW030 35/17 Q1011=
0142832880999992014032521004-13262-043408FM-15+044399999V0201901N003119999999N009999199+03301+01701999999ADDGA1021+009141991GE19MSL   +99999+99999GF199999021990009141991991MA1101101999990REMMET051METAR SBLP 252100Z 19006KT 9999 FEW030 33/17 Q1011=
0136832880999992014032600004-13267-043417FM-12+044199999V0203601N0000199999999002000199+02801+02041100981ADDAA101999990AZ101061AZ201061GA1021+008001081GE19MSL   +99999+99999GF102991021990008001991991MA1999990096161MD1909990-0051REMSYN004BUFR
0142832880999992014032609154-13262-043408FM-16+044399999V0209999C000019999999N009999199+02301+02001999999ADDGA1021+009141991GE19MSL   +99999+99999GF199999021990009141991991MA1101601999990REMMET051SPECI SBLP 260915Z 00000KT 9999 FEW030 23/20 Q1016=
0072832880999992014032610004-13262-043408FM-15+044399999V0209999C000019999999Y999999999+02501+02101999999ADDMA1101601999990REMMET045METAR SBLP 261000Z 00000KT CAVOK 25/21 Q1016=
0072832880999992014032611004-13262-043408FM-15+044399999V0202501N001519999999Y999999999+02601+02101999999ADDMA1101701999990REMMET045METAR SBLP 261100Z 25003KT CAVOK 26/21 Q1017=
0181832880999992014032612004-13267-043417FM-12+044199999V0203601N0000199999999020000199+02801+02121101321ADDAA101999990AZ101061AZ201061GA1021+008001081GA2991+999991001GA3991+999991031GE19MSL   +99999+99999GF105991021990008001991991KA1120N+02421MA1999990096481MD1909990+0011REMSYN004BUFR
0142832880999992014032612004-13262-043408FM-15+044399999V0202201N002119999999N009999199+02801+02001999999ADDGA1021+009141991GE19MSL   +99999+99999GF199999021990009141991991MA1101701999990REMMET051METAR SBLP 261200Z 22004KT 9999 FEW030 28/20 Q1017=
0142832880999992014032613004-13262-043408FM-15+044399999V0200501N001519999999N009999199+02901+02001999999ADDGA1021+009141991GE19MSL   +99999+99999GF199999021990009141991991MA1101701999990REMMET051METAR SBLP 261300Z 05003KT 9999 FEW030 29/20 Q1017=
0142832880999992014032614004-13262-043408FM-15+044399999V0202701N002119999999N009999199+03101+02101999999ADDGA1021+009141991GE19MSL   +99999+99999GF199999021990009141991991MA1101701999990REMMET051METAR SBLP 261400Z 27004KT 9999 FEW030 31/21 Q1017=
0142832880999992014032615004-13262-043408FM-15+044399999V0202201N002119999999N009999199+03201+02001999999ADDGA1041+009141991GE19MSL   +99999+99999GF199999041990009141991991MA1101501999990REMMET051METAR SBLP 261500Z 22004KT 9999 SCT030 32/20 Q1015=
0165832880999992014032616004-13262-043408FM-15+044399999V0202701N001010091419N009999199+03401+01901999999ADDGA1021+006101991GA2071+009141991GE19MSL   +99999+99999GF199999021990006101991991MA1101401999990REMMET058METAR SBLP 261600Z 27002KT 9999 FEW020 BKN030 34/19 Q1014=
0179832880999992014032617004-13262-043408FM-15+044399999V0201801N007719999999N009999199+02602+02101999999ADDGA1041+009141991GA2021+012191091GE19MSL   +99999+99999GF199999041990009141991991MA1101401999990MW1951REMMET066METAR SBLP 261700Z 18015KT 9999 -TSRA SCT030 FEW040CB 26/21 Q1014=
0152832880999992014032618004-13267-043417FM-12+044199999V0202301N0010199999999020000199+02821+02081100911ADDAA101999990AZ101061AZ201061GA1041+004501061GA2991+999991031GE19MSL   +99999+99999GF107991041990004501991991MA1999990096061MD1909990+0061REMSYN004BUFR
0180832880999992014032618004-13262-043408FM-15+044399999V0202301N003110304819N009999199+02801+02101999999ADDGA1041+006101991GA2071+030481991GE19MSL   +99999+99999GF199999041990006101991991MA1101201999990MW1611REMMET067METAR SBLP 261800Z 23006KT 9999 -RA SCT020 BKN100 28/21 Q1012 RETS=
0165832880999992014032619004-13262-043408FM-15+044399999V0202401N002110304819N009999199+02901+01901999999ADDGA1021+005181991GA2071+030481991GE19MSL   +99999+99999GF199999021990005181991991MA1101201999990REMMET058METAR SBLP 261900Z 24004KT 9999 FEW017 BKN100 29/19 Q1012=
0142832880999992014032620004-13262-043408FM-15+044399999V0202301N002619999999N009999199+02901+02101999999ADDGA1041+009141991GE19MSL   +99999+99999GF199999041990009141991991MA1101201999990REMMET051METAR SBLP 262000Z 23005KT 9999 SCT030 29/21 Q1012=
0142832880999992014032621004-13262-043408FM-15+044399999V0203301N002119999999N009999199+02801+02001999999ADDGA1041+009141991GE19MSL   +99999+99999GF199999041990009141991991MA1101301999990REMMET051METAR SBLP 262100Z 33004KT 9999 SCT030 28/20 Q1013=
0136832880999992014032700004-13267-043417FM-12+044199999V0201401N0010199999999002000199+02621+02021101161ADDAA101999990AZ101061AZ201061GA1041+008001081GE19MSL   +99999+99999GF104991041990008001991991MA1999990096311MD1909990+0151REMSYN004BUFR
0188832880999992014032709154-13262-043408FM-16+044399999V0209999C00001006101CN009999199+02401+02301999999ADDGA1021+002131991GA2041+006101991GA3071+030481991GE19MSL   +99999+99999GF199999021990002131991991MA1101501999990REMMET065SPECI SBLP 270915Z 00000KT 9999 FEW007 SCT020 BKN100 24/23 Q1015=
0188832880999992014032710004-13262-043408FM-15+044399999V0201501N00151006101CN009999199+02401+02301999999ADDGA1021+002131991GA2041+006101991GA3071+030481991GE19MSL   +99999+99999GF199999021990002131991991MA1101601999990REMMET065METAR SBLP 271000Z 15003KT 9999 FEW007 SCT020 BKN100 24/23 Q1016=
0165832880999992014032711004-13262-043408FM-15+044399999V0202201N001510304819N009999199+02501+02301999999ADDGA1041+006101991GA2071+030481991GE19MSL   +99999+99999GF199999041990006101991991MA1101601999990REMMET058METAR SBLP 271100Z 22003KT 9999 SCT020 BKN100 25/23 Q1016=
0149832880999992014032712004-13267-043417FM-12+044199999V0201801N0015199999999020000199+02351+02291101351ADDAA124003031AZ101061AZ201061GA1041+008001061GE19MSL   +99999+99999GF104991041990008001991991KA1120N+02321MA1999990096451MD1909990-0031REMSYN004BUFR
0165832880999992014032712004-13262-043408FM-15+044399999V0201201N00151030481CN009999199+02601+02301999999ADDGA1021+006101991GA2041+030481991GE19MSL   +99999+99999GF199999021990006101991991MA1101601999990REMMET058METAR SBLP 271200Z 12003KT 9999 FEW020 SCT100 26/23 Q1016=
0142832880999992014032713004-13262-043408FM-15+044399999V0201501N002619999999N009999199+02901+02201999999ADDGA1041+009141991GE19MSL   +99999+99999GF199999041990009141991991MA1101601999990REMMET051METAR SBLP 271300Z 15005KT 9999 SCT030 29/22 Q1016=
0142832880999992014032714004-13262-043408FM-15+044399999V0202401N001519999999N009999199+03001+02301999999ADDGA1041+009141991GE19MSL   +99999+99999GF199999041990009141991991MA1101601999990REMMET051METAR SBLP 271400Z 24003KT 9999 SCT030 30/23 Q1016=
0142832880999992014032715004-13262-043408FM-15+044399999V0202101N001519999999N009999199+03101+02101999999ADDGA1041+009141991GE19MSL   +99999+99999GF199999041990009141991991MA1101401999990REMMET051METAR SBLP 271500Z 21003KT 9999 SCT030 31/21 Q1014=
0142832880999992014032716004-13262-043408FM-15+044399999V0202101N002119999999N009999199+03101+02201999999ADDGA1041+009141991GE19MSL   +99999+99999GF199999041990009141991991MA1101301999990REMMET051METAR SBLP 271600Z 21004KT 9999 SCT030 31/22 Q1013=
0165832880999992014032717004-13262-043408FM-15+044399999V0200901N003610070119N009999199+02801+02201999999ADDGA1071+007011991GA2041+030481991GE19MSL   +99999+99999GF199999071990007011991991MA1101201999990REMMET058METAR SBLP 271700Z 09007KT 9999 BKN023 SCT100 28/22 Q1012=
0174832880999992014032718004-13267-043417FM-12+044199999V0201801N0031199999999020000199+02271+02111100911ADDAA106006031AY121061AZ101999GA1041+004501061GA2991+999991021GA3991+999991051GE19MSL   +99999+99999GF108991041990004501991991MA1999990095991MD1909990-0071MW1811REMSYN004BUFR
0201832880999992014032718004-13262-043408FM-15+044399999V0202701N007710304819N004000199+02201+02101999999ADDGA1041+006101991GA2021+009141091GA3071+030481991GE19MSL   +99999+99999GF199999041990006101991991MA1101201999990MW1951REMMET072METAR SBLP 271800Z 27015KT 4000 TSRA SCT020 FEW030CB BKN100 22/21 Q1012=
0193832880999992014032719004-13262-043408FM-15+044399999V0201401N00211009141CN009999199+02401+02201999999ADDGA1021+006101991GA2041+009141991GA3071+030481991GE19MSL   +99999+99999GF199999021990006101991991MA1101201999990REMMET070METAR SBLP 271900Z 14004KT 9999 FEW020 SCT030 BKN100 24/22 Q1012 RETS=
0165832880999992014032720004-13262-043408FM-15+044399999V0201401N003110304819N009999199+02401+02201999999ADDGA1041+009141991GA2071+030481991GE19MSL   +99999+99999GF199999041990009141991991MA1101201999990REMMET058METAR SBLP 272000Z 14006KT 9999 SCT030 BKN100 24/22 Q1012=
0165832880999992014032721004-13262-043408FM-15+044399999V0209999C000010304819N009999199+02301+02201999999ADDGA1041+009141991GA2071+030481991GE19MSL   +99999+99999GF199999041990009141991991MA1101301999990REMMET058METAR SBLP 272100Z 00000KT 9999 SCT030 BKN100 23/22 Q1013=
0142832880999992014032800004-13267-043417FM-12+044199999V0203601N0000199999999002000199+02401+02211101141ADDAA106000831AY181061AY281061GA1991+025001001GE19MSL   +99999+99999GF103991990990025001991991MA1999990096241MD1909990-0071MW1021REMSYN004BUFR
0165832880999992014032809154-13262-043408FM-16+044399999V0201901N002610304819N009999199+02301+02101999999ADDGA1021+009141991GA2071+030481991GE19MSL   +99999+99999GF199999021990009141991991MA1101401999990REMMET058SPECI SBLP 280915Z 19005KT 9999 FEW030 BKN100 23/21 Q1014=
0165832880999992014032810004-13262-043408FM-15+044399999V0202001N00261030481CN009999199+02301+02201999999ADDGA1021+009141991GA2041+030481991GE19MSL   +99999+99999GF199999021990009141991991MA1101501999990REMMET058METAR SBLP 281000Z 20005KT 9999 FEW030 SCT100 23/22 Q1015=
0072832880999992014032811004-13262-043408FM-15+044399999V0201801N003119999999Y999999999+02401+02201999999ADDMA1101601999990REMMET045METAR SBLP 281100Z 18006KT CAVOK 24/22 Q1016=
0181832880999992014032812004-13267-043417FM-12+044199999V0201401N0010199999999020000199+02671+02231101271ADDAA124007031AZ101061AZ201061GA1011+008001081GA2991+999991001GA3991+999991031GE19MSL   +99999+99999GF104991011990008001991991KA1120N+02221MA1999990096381MD1909990-0071REMSYN004BUFR
0142832880999992014032812004-13262-043408FM-15+044399999V0201301N002619999999N009999199+02701+02101999999ADDGA1021+009141991GE19MSL   +99999+99999GF199999021990009141991991MA1101601999990REMMET051METAR SBLP 281200Z 13005KT 9999 FEW030 27/21 Q1016=
0142832880999992014032813004-13262-043408FM-15+044399999V0200401N002119999999N009999199+03001+02101999999ADDGA1021+009141991GE19MSL   +99999+99999GF199999021990009141991991MA1101601999990REMMET051METAR SBLP 281300Z 04004KT 9999 FEW030 30/21 Q1016=
0142832880999992014032814004-13262-043408FM-15+044399999V0200901N002119999999N009999199+03101+02001999999ADDGA1041+009141991GE19MSL   +99999+99999GF199999041990009141991991MA1101501999990REMMET051METAR SBLP 281400Z 09004KT 9999 SCT030 31/20 Q1015=
0142832880999992014032815004-13262-043408FM-15+044399999V0202401N001510091419N009999199+03101+02101999999ADDGA1071+009141991GE19MSL   +99999+99999GF199999071990009141991991MA1101401999990REMMET051METAR SBLP 281500Z 24003KT 9999 BKN030 31/21 Q1014=
0142832880999992014032816004-13262-043408FM-15+044399999V0200201N001510091419N009999199+03301+01901999999ADDGA1071+009141991GE19MSL   +99999+99999GF199999071990009141991991MA1101301999990REMMET051METAR SBLP 281600Z 02003KT 9999 BKN030 33/19 Q1013=
0191832880999992014032817004-13262-043408FM-15+044399999V0201701N004119999999N009999199+03401+01901999999ADDGA1041+009141991GA2021+012191081GA3041+030481991GE19MSL   +99999+99999GF199999041990009141991991MA1101101999990REMMET068METAR SBLP 281700Z 17008KT 9999 SCT030 FEW040TCU SCT100 34/19 Q1011=
0168832880999992014032818004-13267-043417FM-12+044199999V0200901N0021199999999020000199+02542+02151100881ADDAA101999990AZ101061AZ201061GA1041+008001061GA2991+999991101GA3991+999991051GE19MSL   +99999+99999GF108991041990008001991991MA1999990095981MD1909990-0011REMSYN004BUFR
0199832880999992014032818004-13262-043408FM-15+044399999V0201001N006210091419N009999199+02602+02101999999ADDGA1071+009141991GA2021+012191091GA3071+030481991GE19MSL   +99999+99999GF199999071990009141991991MA1101101999990MW1171REMMET070METAR SBLP 281800Z 10012KT 9999 TS BKN030 FEW040CB BKN100 26/21 Q1011=
0199832880999992014032819004-13262-043408FM-15+044399999V0202301N003110304819N009999199+02601+02101999999ADDGA1041+009141991GA2021+012191091GA3071+030481991GE19MSL   +99999+99999GF199999041990009141991991MA1101101999990MW1171REMMET070METAR SBLP 281900Z 23006KT 9999 TS SCT030 FEW040CB BKN100 26/21 Q1011=
0170832880999992014032820004-13262-043408FM-15+044399999V0201701N00151030481CN009999199+02601+02201999999ADDGA1021+009141991GA2041+030481991GE19MSL   +99999+99999GF199999021990009141991991MA1101001999990REMMET063METAR SBLP 282000Z 17003KT 9999 FEW030 SCT100 26/22 Q1010 RETS=
0165832880999992014032821004-13262-043408FM-15+044399999V0201201N002110304819N009999199+02601+02201999999ADDGA1041+009141991GA2071+030481991GE19MSL   +99999+99999GF199999041990009141991991MA1101101999990REMMET058METAR SBLP 282100Z 12004KT 9999 SCT030 BKN100 26/22 Q1011=
0158832880999992014032900004-13267-043417FM-12+044199999V0203601N0010199999999002000199+02401+02201101081ADDAA106000431AY151061AY221061GA1041+008001061GA2991+999991051GE19MSL   +99999+99999GF106991041990008001991991MA1999990096201MD1909990-0041MW1131REMSYN004BUFR
0165832880999992014032912004-13267-043417FM-12+044199999V0203601N0000199999999020000199+02501+02281101321ADDAA124000431AZ101061AZ201061GA1041+004501081GA2991+999991031GE19MSL   +99999+99999GF107991041990004501991991KA1120N+02261MA1999990096421MD1909990+0041REMSYN004BUFR
0152832880999992014032918004-13267-043417FM-12+044199999V0203601N0000199999999020000199+03271+02231100701ADDAA101999990AZ101061AZ201061GA1041+004501081GA2991+999991051GE19MSL   +99999+99999GF106991041990004501991991MA1999990095891MD1909990-0091REMSYN004BUFR
0181832880999992014033012004-13267-043417FM-12+044199999V0201401N0015100450199020000199+02401+02171101521ADDAA101999990AZ101061AZ201061GA1061+004501061GA2991+999991021GA3991+999991051GE19MSL   +99999+99999GF108991061990004501991991KA1120N+02211MA1999990096591MD1909990+0171REMSYN004BUFR
0174832880999992014033018004-13267-043417FM-12+044199999V0202701N0021199999999020000199+03041+02231101031ADDAA106000531AY151061AY251061GA1041+008001081GA2991+999991001GA3991+999991051GE19MSL   +99999+99999GF107991041990008001991991MA1999990096161MD1909990+0271MW1021REMSYN004BUFR
0142832880999992014033109154-13262-043408FM-16+044399999V0201701N002119999999N009999199+02301+02201999999ADDGA1021+002131991GE19MSL   +99999+99999GF199999021990002131991991MA1101601999990REMMET051SPECI SBLP 310915Z 17004KT 9999 FEW007 23/22 Q1016=
0072832880999992014033110004-13262-043408FM-15+044399999V0201501N002619999999Y999999999+02301+02201999999ADDMA1101601999990REMMET045METAR SBLP 311000Z 15005KT CAVOK 23/22 Q1016=
0072832880999992014033111004-13262-043408FM-15+044399999V0201901N003119999999Y999999999+02601+02201999999ADDMA1101701999990REMMET045METAR SBLP 311100Z 19006KT CAVOK 26/22 Q1017=
0149832880999992014033112004-13267-043417FM-12+044199999V0201801N0015199999999020000199+02691+02161101411ADDAA124002031AZ101061AZ201061GA1011+012501031GE19MSL   +99999+99999GF101991011990012501991991KA1120N+02201MA1999990096511MD1909990-0081REMSYN004BUFR
0072832880999992014033112004-13262-043408FM-15+044399999V0201301N002619999999Y999999999+02801+02101999999ADDMA1101701999990REMMET045METAR SBLP 311200Z 13005KT CAVOK 28/21 Q1017=
0142832880999992014033113004-13262-043408FM-15+044399999V0209999C000019999999N009999199+03001+02001999999ADDGA1021+009141991GE19MSL   +99999+99999GF199999021990009141991991MA1101701999990REMMET051METAR SBLP 311300Z 00000KT 9999 FEW030 30/20 Q1017=
0142832880999992014033114004-13262-043408FM-15+044399999V0209999C000019999999N009999199+03201+02001999999ADDGA1041+009141991GE19MSL   +99999+99999GF199999041990009141991991MA1101601999990REMMET051METAR SBLP 311400Z 00000KT 9999 SCT030 32/20 Q1016=
0142832880999992014033115004-13262-043408FM-15+044399999V0201401N002619999999N009999199+03101+02001999999ADDGA1041+009141991GE19MSL   +99999+99999GF199999041990009141991991MA1101601999990REMMET051METAR SBLP 311500Z 14005KT 9999 SCT030 31/20 Q1016=
0142832880999992014033116004-13262-043408FM-15+044399999V0201401N002119999999N009999199+03301+01901999999ADDGA1041+009141991GE19MSL   +99999+99999GF199999041990009141991991MA1101501999990REMMET051METAR SBLP 311600Z 14004KT 9999 SCT030 33/19 Q1015=
0142832880999992014033117004-13262-043408FM-15+044399999V0201501N002110091419N009999199+03301+01901999999ADDGA1071+009141991GE19MSL   +99999+99999GF199999071990009141991991MA1101401999990REMMET051METAR SBLP 311700Z 15004KT 9999 BKN030 33/19 Q1014=
0136832880999992014033118004-13267-043417FM-12+044199999V0202301N0005199999999020000199+03221+02261100781ADDAA101999990AZ101061AZ201061GA1031+008001081GE19MSL   +99999+99999GF103991031990008001991991MA1999990095951MD1909990-0211REMSYN004BUFR
0142832880999992014033118004-13262-043408FM-15+044399999V0202701N002119999999N009999199+03401+01801999999ADDGA1041+009141991GE19MSL   +99999+99999GF199999041990009141991991MA1101301999990REMMET051METAR SBLP 311800Z 27004KT 9999 SCT030 34/18 Q1013=
0142832880999992014033119004-13262-043408FM-15+044399999V0202301N002619999999N009999199+03401+01901999999ADDGA1021+009141991GE19MSL   +99999+99999GF199999021990009141991991MA1101201999990REMMET051METAR SBLP 311900Z 23005KT 9999 FEW030 34/19 Q1012=
0142832880999992014033120004-13262-043408FM-15+044399999V0201501N001019999999N009999199+03501+01701999999ADDGA1021+009141991GE19MSL   +99999+99999GF199999021990009141991991MA1101201999990REMMET051METAR SBLP 312000Z 15002KT 9999 FEW030 35/17 Q1012=
0142832880999992014033121004-13262-043408FM-15+044399999V0201501N002619999999N009999199+03201+01801999999ADDGA1021+009141991GE19MSL   +99999+99999GF199999021990009141991991MA1101201999990REMMET051METAR SBLP 312100Z 15005KT 9999 FEW030 32/18 Q1012=
0098832880999992014040100004-13267-043417FM-12+044199999V0201801N0010122000199002000199+02791+02221101041ADDAA101999990AZ101061AZ201061GF100991999999999999999999MA1999990096211MD1909990+0091REMSYN004BUFR
0072832880999992014040109154-13262-043408FM-16+044399999V0202201N001519999999Y999999999+02201+02101999999ADDMA1101501999990REMMET045SPECI SBLP 010915Z 22003KT CAVOK 22/21 Q1015=
0072832880999992014040110004-13262-043408FM-15+044399999V0202201N001519999999Y999999999+02201+02101999999ADDMA1101601999990REMMET045METAR SBLP 011000Z 22003KT CAVOK 22/21 Q1016=
0072832880999992014040111004-13262-043408FM-15+044399999V0209999C000019999999Y999999999+02501+02001999999ADDMA1101601999990REMMET045METAR SBLP 011100Z 00000KT CAVOK 25/20 Q1016=
0149832880999992014040112004-13267-043417FM-12+044199999V0201801N0010199999999020000199+02791+02071101301ADDAA101999990AZ101061AZ201061GA1021+025001001GE19MSL   +99999+99999GF102991021990025001991991KA1120N+02241MA1999990096461MD1909990+0251REMSYN004BUFR
0072832880999992014040112004-13262-043408FM-15+044399999V0201301N002619999999Y999999999+02801+02001999999ADDMA1101701999990REMMET045METAR SBLP 011200Z 13005KT CAVOK 28/20 Q1017=
0072832880999992014040113004-13262-043408FM-15+044399999V0201301N002119999999Y999999999+03001+02001999999ADDMA1101701999990REMMET045METAR SBLP 011300Z 13004KT CAVOK 30/20 Q1017=
0142832880999992014040114004-13262-043408FM-15+044399999V0209999C000019999999N009999199+03101+02001999999ADDGA1021+009141991GE19MSL   +99999+99999GF199999021990009141991991MA1101601999990REMMET051METAR SBLP 011400Z 00000KT 9999 FEW030 31/20 Q1016=
0142832880999992014040115004-13262-043408FM-15+044399999V0201501N004119999999N009999199+03301+02001999999ADDGA1021+009141991GE19MSL   +99999+99999GF199999021990009141991991MA1101501999990REMMET051METAR SBLP 011500Z 15008KT 9999 FEW030 33/20 Q1015=
0142832880999992014040116004-13262-043408FM-15+044399999V0201901N004119999999N009999199+03401+01801999999ADDGA1021+009141991GE19MSL   +99999+99999GF199999021990009141991991MA1101401999990REMMET051METAR SBLP 011600Z 19008KT 9999 FEW030 34/18 Q1014=
0142832880999992014040117004-13262-043408FM-15+044399999V0201801N003119999999N009999199+03501+01601999999ADDGA1021+009141991GE19MSL   +99999+99999GF199999021990009141991991MA1101301999990REMMET051METAR SBLP 011700Z 18006KT 9999 FEW030 35/16 Q1013=
0152832880999992014040118004-13267-043417FM-12+044199999V0202301N0010199999999020000199+03471+02001100851ADDAA101999990AZ101061AZ201061GA1021+008001081GA2991+999991021GE19MSL   +99999+99999GF104991021990008001991991MA1999990096051MD1909990+0101REMSYN004BUFR
0142832880999992014040118004-13262-043408FM-15+044399999V0201301N003619999999N009999199+03601+01701999999ADDGA1021+009141991GE19MSL   +99999+99999GF199999021990009141991991MA1101201999990REMMET051METAR SBLP 011800Z 13007KT 9999 FEW030 36/17 Q1012=
0142832880999992014040119004-13262-043408FM-15+044399999V0201801N002619999999N009999199+03601+01601999999ADDGA1021+009141991GE19MSL   +99999+99999GF199999021990009141991991MA1101101999990REMMET051METAR SBLP 011900Z 18005KT 9999 FEW030 36/16 Q1011=
0142832880999992014040120004-13262-043408FM-15+044399999V0201601N003119999999N009999199+03501+01701999999ADDGA1021+009141991GE19MSL   +99999+99999GF199999021990009141991991MA1101101999990REMMET051METAR SBLP 012000Z 16006KT 9999 FEW030 35/17 Q1011=
0142832880999992014040121004-13262-043408FM-15+044399999V0202401N001519999999N009999199+03301+01801999999ADDGA1021+009141991GE19MSL   +99999+99999GF199999021990009141991991MA1101201999990REMMET051METAR SBLP 012100Z 24003KT 9999 FEW030 33/18 Q1012=
0098832880999992014040200004-13267-043417FM-12+044199999V0201401N0010122000199002000199+02941+02041100971ADDAA101999990AZ101061AZ201061GF100991999999999999999999MA1999990096171MD1909990-0041REMSYN004BUFR
0072832880999992014040209154-13262-043408FM-16+044399999V0201601N001519999999Y999999999+02101+02001999999ADDMA1101401999990REMMET045SPECI SBLP 020915Z 16003KT CAVOK 21/20 Q1014=
0072832880999992014040210004-13262-043408FM-15+044399999V0209999C000019999999Y999999999+02201+02001999999ADDMA1101401999990REMMET045METAR SBLP 021000Z 00000KT CAVOK 22/20 Q1014=
0072832880999992014040211004-13262-043408FM-15+044399999V0201601N002119999999Y999999999+02601+02101999999ADDMA1101501999990REMMET045METAR SBLP 021100Z 16004KT CAVOK 26/21 Q1015=
0111832880999992014040212004-13267-043417FM-12+044199999V0202701N0021122000199020000199+02901+02071101141ADDAA101999990AZ101061AZ201061GF100991999999999999999999KA1120N+02561MA1999990096341MD1909990-0121REMSYN004BUFR
0072832880999992014040212004-13262-043408FM-15+044399999V0209999C000019999999Y999999999+02901+02001999999ADDMA1101501999990REMMET045METAR SBLP 021200Z 00000KT CAVOK 29/20 Q1015=
0142832880999992014040213004-13262-043408FM-15+044399999V0209999C000019999999N009999199+03001+02001999999ADDGA1021+009141991GE19MSL   +99999+99999GF199999021990009141991991MA1101501999990REMMET051METAR SBLP 021300Z 00000KT 9999 FEW030 30/20 Q1015=
0142832880999992014040214004-13262-043408FM-15+044399999V0202401N001519999999N009999199+03101+02001999999ADDGA1041+009141991GE19MSL   +99999+99999GF199999041990009141991991MA1101501999990REMMET051METAR SBLP 021400Z 24003KT 9999 SCT030 31/20 Q1015=
0142832880999992014040215004-13262-043408FM-15+044399999V0202101N002119999999N009999199+03101+02001999999ADDGA1021+009141991GE19MSL   +99999+99999GF199999021990009141991991MA1101401999990REMMET051METAR SBLP 021500Z 21004KT 9999 FEW030 31/20 Q1014=
0142832880999992014040216004-13262-043408FM-15+044399999V0202001N004119999999N009999199+03501+01901999999ADDGA1021+009141991GE19MSL   +99999+99999GF199999021990009141991991MA1101301999990REMMET051METAR SBLP 021600Z 20008KT 9999 FEW030 35/19 Q1013=
0142832880999992014040217004-13262-043408FM-15+044399999V0202701N004619999999N009999199+03501+01801999999ADDGA1021+009141991GE19MSL   +99999+99999GF199999021990009141991991MA1101201999990REMMET051METAR SBLP 021700Z 27009KT 9999 FEW030 35/18 Q1012=
0136832880999992014040218004-13267-043417FM-12+044199999V0202701N0015199999999020000199+03521+02111100681ADDAA101999990AZ101061AZ201061GA1022+008001061GE19MSL   +99999+99999GF101992022990008001991991MA1999990095901MD1909990-0151REMSYN004BUFR
0142832880999992014040218004-13262-043408FM-15+044399999V0202001N003119999999N009999199+03601+02201999999ADDGA1021+009141991GE19MSL   +99999+99999GF199999021990009141991991MA1101101999990REMMET051METAR SBLP 021800Z 20006KT 9999 FEW030 36/22 Q1011=
0142832880999992014040219004-13262-043408FM-15+044399999V0202101N002119999999N009999199+03601+01801999999ADDGA1021+009141991GE19MSL   +99999+99999GF199999021990009141991991MA1101001999990REMMET051METAR SBLP 021900Z 21004KT 9999 FEW030 36/18 Q1010=
0142832880999992014040220004-13262-043408FM-15+044399999V0209999C000019999999N009999199+03501+01801999999ADDGA1021+009141991GE19MSL   +99999+99999GF199999021990009141991991MA1101001999990REMMET051METAR SBLP 022000Z 00000KT 9999 FEW030 35/18 Q1010=
0142832880999992014040221004-13262-043408FM-15+044399999V0209999C000019999999N009999199+03301+01901999999ADDGA1021+009141991GE19MSL   +99999+99999GF199999021990009141991991MA1101001999990REMMET051METAR SBLP 022100Z 00000KT 9999 FEW030 33/19 Q1010=
0136832880999992014040300004-13267-043417FM-12+044199999V0202301N0015199999999002000199+03021+02071100821ADDAA101999990AZ101061AZ201061GA1021+008001061GE19MSL   +99999+99999GF102991021990008001991991MA1999990096041MD1909990-0131REMSYN004BUFR
0142832880999992014040309154-13262-043408FM-16+044399999V0201801N001519999999N009999199+02401+02101999999ADDGA1021+006101991GE19MSL   +99999+99999GF199999021990006101991991MA1101301999990REMMET051SPECI SBLP 030915Z 18003KT 9999 FEW020 24/21 Q1013=
0142832880999992014040310004-13262-043408FM-15+044399999V0209999C000019999999N009999199+02401+02201999999ADDGA1041+006101991GE19MSL   +99999+99999GF199999041990006101991991MA1101401999990REMMET051METAR SBLP 031000Z 00000KT 9999 SCT020 24/22 Q1014=
0142832880999992014040311004-13262-043408FM-15+044399999V0209999C000019999999N009999199+02701+02201999999ADDGA1021+009141991GE19MSL   +99999+99999GF199999021990009141991991MA1101501999990REMMET051METAR SBLP 031100Z 00000KT 9999 FEW030 27/22 Q1015=
0165832880999992014040312004-13267-043417FM-12+044199999V0203601N0000199999999020000199+02801+02211101101ADDAA101999990AZ101061AZ201061GA1011+008001081GA2991+999991031GE19MSL   +99999+99999GF102991011990008001991991KA1120N+02381MA1999990096291MD1909990-0051REMSYN004BUFR
0072832880999992014040312004-13262-043408FM-15+044399999V0200301N001519999999Y999999999+02901+02001999999ADDMA1101501999990REMMET045METAR SBLP 031200Z 03003KT CAVOK 29/20 Q1015=
0142832880999992014040313004-13262-043408FM-15+044399999V0201001N001519999999N009999199+03201+02001999999ADDGA1021+009141991GE19MSL   +99999+99999GF199999021990009141991991MA1101501999990REMMET051METAR SBLP 031300Z 10003KT 9999 FEW030 32/20 Q1015=
0142832880999992014040314004-13262-043408FM-15+044399999V0202701N003619999999N009999199+03101+02101999999ADDGA1041+009141991GE19MSL   +99999+99999GF199999041990009141991991MA1101501999990REMMET051METAR SBLP 031400Z 27007KT 9999 SCT030 31/21 Q1015=
0142832880999992014040315004-13262-043408FM-15+044399999V0202501N001519999999N009999199+03401+01901999999ADDGA1041+009141991GE19MSL   +99999+99999GF199999041990009141991991MA1101401999990REMMET051METAR SBLP 031500Z 25003KT 9999 SCT030 34/19 Q1014=
0142832880999992014040316004-13262-043408FM-15+044399999V0202701N003610091419N009999199+03301+02001999999ADDGA1071+009141991GE19MSL   +99999+99999GF199999071990009141991991MA1101301999990REMMET051METAR SBLP 031600Z 27007KT 9999 BKN030 33/20 Q1013=
0142832880999992014040317004-13262-043408FM-15+044399999V0203101N002119999999N009999199+03401+02001999999ADDGA1041+009141991GE19MSL   +99999+99999GF199999041990009141991991MA1101101999990REMMET051METAR SBLP 031700Z 31004KT 9999 SCT030 34/20 Q1011=
0152832880999992014040318004-13267-043417FM-12+044199999V0201801N0010199999999020000199+03451+02021100671ADDAA101999990AZ101061AZ201061GA1031+008001081GA2991+999991001GE19MSL   +99999+99999GF104991031990008001991991MA1999990095871MD1909990-0031REMSYN004BUFR
0142832880999992014040318004-13262-043408FM-15+044399999V0202501N003119999999N009999199+03401+01801999999ADDGA1041+009141991GE19MSL   +99999+99999GF199999041990009141991991MA1101001999990REMMET051METAR SBLP 031800Z 25006KT 9999 SCT030 34/18 Q1010=
0142832880999992014040319004-13262-043408FM-15+044399999V0203001N003119999999N009999199+03401+02001999999ADDGA1041+009141991GE19MSL   +99999+99999GF199999041990009141991991MA1101001999990REMMET051METAR SBLP 031900Z 30006KT 9999 SCT030 34/20 Q1010=
0142832880999992014040320004-13262-043408FM-15+044399999V0202301N002119999999N009999199+03401+02001999999ADDGA1021+009141991GE19MSL   +99999+99999GF199999021990009141991991MA1101001999990REMMET051METAR SBLP 032000Z 23004KT 9999 FEW030 34/20 Q1010=
0165832880999992014040321004-13262-043408FM-15+044399999V0209999C00001030481CN009999199+03101+02101999999ADDGA1021+009141991GA2041+030481991GE19MSL   +99999+99999GF199999021990009141991991MA1101001999990REMMET058METAR SBLP 032100Z 00000KT 9999 FEW030 SCT100 31/21 Q1010=
0142832880999992014040400004-13267-043417FM-12+044199999V0202301N0015199999999002000199+02921+02281100881ADDAA101999990AY111061AY211061GA1031+008001091GE19MSL   +99999+99999GF103991031990008001991991MA1999990096081MD1909990+0041MW1131REMSYN004BUFR
0165832880999992014040409154-13262-043408FM-16+044399999V0209999C00001030481CN009999199+02201+02201999999ADDGA1021+006101991GA2041+030481991GE19MSL   +99999+99999GF199999021990006101991991MA1101501999990REMMET058SPECI SBLP 040915Z 00000KT 9999 FEW020 SCT100 22/22 Q1015=
0165832880999992014040410004-13262-043408FM-15+044399999V0209999C000010304819N009999199+02301+02201999999ADDGA1021+006101991GA2071+030481991GE19MSL   +99999+99999GF199999021990006101991991MA1101601999990REMMET058METAR SBLP 041000Z 00000KT 9999 FEW020 BKN100 23/22 Q1016=
0165832880999992014040411004-13262-043408FM-15+044399999V0203001N001510304819N009999199+02401+02201999999ADDGA1021+009141991GA2071+030481991GE19MSL   +99999+99999GF199999021990009141991991MA1101601999990REMMET058METAR SBLP 041100Z 30003KT 9999 FEW030 BKN100 24/22 Q1016=
0155832880999992014040412004-13267-043417FM-12+044199999V0200501N0005199999999020000199+02571+02281101341ADDAA124024031AY161061AY261061GA1031+012501031GE19MSL   +99999+99999GF103991031990012501991991KA1120N+02231MA1999990096491MD1909990+0201MW1011REMSYN004BUFR
0165832880999992014040412004-13262-043408FM-15+044399999V0209999C00001030481CN009999199+02701+02201999999ADDGA1021+009141991GA2041+030481991GE19MSL   +99999+99999GF199999021990009141991991MA1101701999990REMMET058METAR SBLP 041200Z 00000KT 9999 FEW030 SCT100 27/22 Q1017=
0142832880999992014040413004-13262-043408FM-15+044399999V0209999C000019999999N009999199+02801+02101999999ADDGA1021+009141991GE19MSL   +99999+99999GF199999021990009141991991MA1101701999990REMMET051METAR SBLP 041300Z 00000KT 9999 FEW030 28/21 Q1017=
0142832880999992014040414004-13262-043408FM-15+044399999V0209999C000019999999N009999199+02901+02101999999ADDGA1021+009141991GE19MSL   +99999+99999GF199999021990009141991991MA1101701999990REMMET051METAR SBLP 041400Z 00000KT 9999 FEW030 29/21 Q1017=
0142832880999992014040415004-13262-043408FM-15+044399999V0209999C000019999999N009999199+03101+02101999999ADDGA1041+009141991GE19MSL   +99999+99999GF199999041990009141991991MA1101601999990REMMET051METAR SBLP 041500Z 00000KT 9999 SCT030 31/21 Q1016=
0142832880999992014040416004-13262-043408FM-15+044399999V0203301N001519999999N009999199+03301+02101999999ADDGA1041+009141991GE19MSL   +99999+99999GF199999041990009141991991MA1101501999990REMMET051METAR SBLP 041600Z 33003KT 9999 SCT030 33/21 Q1015=
0142832880999992014040417004-13262-043408FM-15+044399999V0200101N002119999999N009999199+03401+01801999999ADDGA1021+009141991GE19MSL   +99999+99999GF199999021990009141991991MA1101401999990REMMET051METAR SBLP 041700Z 01004KT 9999 FEW030 34/18 Q1014=
0168832880999992014040418004-13267-043417FM-12+044199999V0202701N0015199999999020000199+03321+02291100891ADDAA101999990AZ101061AZ201061GA1021+008001081GA2991+999991021GA3991+999991031GE19MSL   +99999+99999GF104991021990008001991991MA1999990096071MD1909990+0201REMSYN004BUFR
0142832880999992014040418004-13262-043408FM-15+044399999V0209999C000019999999N009999199+03401+01901999999ADDGA1021+009141991GE19MSL   +99999+99999GF199999021990009141991991MA1101301999990REMMET051METAR SBLP 041800Z 00000KT 9999 FEW030 34/19 Q1013=
0142832880999992014040419004-13262-043408FM-15+044399999V0200401N001519999999N009999199+03501+01901999999ADDGA1021+009141991GE19MSL   +99999+99999GF199999021990009141991991MA1101201999990REMMET051METAR SBLP 041900Z 04003KT 9999 FEW030 35/19 Q1012=
0165832880999992014040420004-13262-043408FM-15+044399999V0209999C00001030481CN009999199+03501+01801999999ADDGA1021+009141991GA2041+030481991GE19MSL   +99999+99999GF199999021990009141991991MA1101201999990REMMET058METAR SBLP 042000Z 00000KT 9999 FEW030 SCT100 35/18 Q1012=
0165832880999992014040421004-13262-043408FM-15+044399999V0201801N00151030481CN009999199+03201+02001999999ADDGA1021+009141991GA2041+030481991GE19MSL   +99999+99999GF199999021990009141991991MA1101301999990REMMET058METAR SBLP 042100Z 18003KT 9999 FEW030 SCT100 32/20 Q1013=
0098832880999992014040500004-13267-043417FM-12+044199999V0203601N0000122000199002000199+02721+02201101181ADDAA101999990AZ101061AZ201061GF100991999999999999999999MA1999990096321MD1909990+0241REMSYN004BUFR
0155832880999992014040512004-13267-043417FM-12+044199999V0202301N0010101750199020000199+02591+02351101331ADDAA124006031AY161061AY261061GA1051+017501031GE19MSL   +99999+99999GF105991051990017501991991KA1120N+02371MA1999990096461MD1909990-0031MW1021REMSYN004BUFR
0152832880999992014040518004-13267-043417FM-12+044199999V0200501N0015100800199020000199+02691+02311101041ADDAA101999990AZ101061AZ201061GA1051+008001061GA2991+999991001GE19MSL   +99999+99999GF107991051990008001991991MA1999990096171MD1909990+0101REMSYN004BUFR
0181832880999992014040612004-13267-043417FM-12+044199999V0201801N0005100800199020000199+02471+02241101491ADDAA101999990AZ101061AZ201061GA1081+008001061GA2991+999991101GA3991+999991101GE19MSL   +99999+99999GF108991081990008001991991KA1120N+02421MA1999990096591MD1909990+0131REMSYN004BUFR
0152832880999992014040618004-13267-043417FM-12+044199999V0202301N0005199999999020000199+03071+02201101041ADDAA101999990AZ101061AZ201061GA1021+008001081GA2991+999991031GE19MSL   +99999+99999GF104991021990008001991991MA1999990096201MD1909990+0031REMSYN004BUFR
0165832880999992014040709154-13262-043408FM-16+044399999V0203301N001510304819N009999199+02401+02201999999ADDGA1021+006101991GA2071+030481991GE19MSL   +99999+99999GF199999021990006101991991MA1101501999990REMMET058SPECI SBLP 070915Z 33003KT 9999 FEW020 BKN100 24/22 Q1015=
0165832880999992014040710004-13262-043408FM-15+044399999V0202101N00151030481CN009999199+02401+02301999999ADDGA1021+006101991GA2041+030481991GE19MSL   +99999+99999GF199999021990006101991991MA1101601999990REMMET058METAR SBLP 071000Z 21003KT 9999 FEW020 SCT100 24/23 Q1016=
0165832880999992014040711004-13262-043408FM-15+044399999V0209999C000010304819N009999199+02501+02301999999ADDGA1021+006101991GA2071+030481991GE19MSL   +99999+99999GF199999021990006101991991MA1101701999990REMMET058METAR SBLP 071100Z 00000KT 9999 FEW020 BKN100 25/23 Q1017=
0165832880999992014040712004-13267-043417FM-12+044199999V0200501N0005199999999020000199+02691+02291101391ADDAA101999990AZ101061AZ201061GA1031+004501081GA2991+999991051GE19MSL   +99999+99999GF105991031990004501991991KA1120N+02321MA1999990096511MD1909990-0081REMSYN004BUFR
0165832880999992014040712004-13262-043408FM-15+044399999V0200901N00261030481CN009999199+02801+02201999999ADDGA1021+009141991GA2041+030481991GE19MSL   +99999+99999GF199999021990009141991991MA1101701999990REMMET058METAR SBLP 071200Z 09005KT 9999 FEW030 SCT100 28/22 Q1017=
0142832880999992014040713004-13262-043408FM-15+044399999V0203601N002119999999N009999199+03001+02201999999ADDGA1041+009141991GE19MSL   +99999+99999GF199999041990009141991991MA1101701999990REMMET051METAR SBLP 071300Z 36004KT 9999 SCT030 30/22 Q1017=
0142832880999992014040714004-13262-043408FM-15+044399999V0200301N001510091419N009999199+03001+02201999999ADDGA1071+009141991GE19MSL   +99999+99999GF199999071990009141991991MA1101701999990REMMET051METAR SBLP 071400Z 03003KT 9999 BKN030 30/22 Q1017=
0142832880999992014040715004-13262-043408FM-15+044399999V0203401N004110091419N009999199+03201+02201999999ADDGA1071+009141991GE19MSL   +99999+99999GF199999071990009141991991MA1101501999990REMMET051METAR SBLP 071500Z 34008KT 9999 BKN030 32/22 Q1015=
0142832880999992014040716004-13262-043408FM-15+044399999V0203301N004110091419N009999199+03201+02201999999ADDGA1071+009141991GE19MSL   +99999+99999GF199999071990009141991991MA1101401999990REMMET051METAR SBLP 071600Z 33008KT 9999 BKN030 32/22 Q1014=
0142832880999992014040717004-13262-043408FM-15+044399999V0200201N002619999999N009999199+03301+02101999999ADDGA1041+009141991GE19MSL   +99999+99999GF199999041990009141991991MA1101301999990REMMET051METAR SBLP 071700Z 02005KT 9999 SCT030 33/21 Q1013=
0152832880999992014040718004-13267-043417FM-12+044199999V0203201N0005199999999020000199+03221+02171100911ADDAA101999990AZ101061AZ201061GA1031+008001061GA2991+999991051GE19MSL   +99999+99999GF106991031990008001991991MA1999990096091MD1909990-0111REMSYN004BUFR
0142832880999992014040718004-13262-043408FM-15+044399999V0203601N003110091419N009999199+03401+02001999999ADDGA1071+009141991GE19MSL   +99999+99999GF199999071990009141991991MA1101201999990REMMET051METAR SBLP 071800Z 36006KT 9999 BKN030 34/20 Q1012=
0142832880999992014040719004-13262-043408FM-15+044399999V0202401N001019999999N009999199+03101+02101999999ADDGA1041+009141991GE19MSL   +99999+99999GF199999041990009141991991MA1101201999990REMMET051METAR SBLP 071900Z 24002KT 9999 SCT030 31/21 Q1012=
0142832880999992014040720004-13262-043408FM-15+044399999V0200901N004619999999N009999199+03001+02201999999ADDGA1041+009141991GE19MSL   +99999+99999GF199999041990009141991991MA1101301999990REMMET051METAR SBLP 072000Z 09009KT 9999 SCT030 30/22 Q1013=
0142832880999992014040721004-13262-043408FM-15+044399999V0201001N002119999999N009999199+02801+02101999999ADDGA1021+009141991GE19MSL   +99999+99999GF199999021990009141991991MA1101301999990REMMET051METAR SBLP 072100Z 10004KT 9999 FEW030 28/21 Q1013=
0152832880999992014040800004-13267-043417FM-12+044199999V0201801N0010199999999002000199+02591+02301101131ADDAA101999990AZ101061AZ201061GA1031+008001061GA2991+999991031GE19MSL   +99999+99999GF105991031990008001991991MA1999990096271MD1909990-0021REMSYN004BUFR
0165832880999992014040809154-13262-043408FM-16+044399999V0201901N00151030481CN009999199+02401+02301999999ADDGA1021+006101991GA2041+030481991GE19MSL   +99999+99999GF199999021990006101991991MA1101401999990REMMET058SPECI SBLP 080915Z 19003KT 9999 FEW020 SCT100 24/23 Q1014=
0142832880999992014040810004-13262-043408FM-15+044399999V0209999C000019999999N009999199+02401+02301999999ADDGA1021+006101991GE19MSL   +99999+99999GF199999021990006101991991MA1101501999990REMMET051METAR SBLP 081000Z 00000KT 9999 FEW020 24/23 Q1015=
0072832880999992014040811004-13262-043408FM-15+044399999V0209999C000019999999Y999999999+02601+02301999999ADDMA1101501999990REMMET045METAR SBLP 081100Z 00000KT CAVOK 26/23 Q1015=
0149832880999992014040812004-13267-043417FM-12+044199999V0203601N0021199999999020000199+02751+02361101241ADDAA101999990AZ101061AZ201061GA1021+017501031GE19MSL   +99999+99999GF102991021990017501991991KA1120N+02391MA1999990096391MD1909990-0121REMSYN004BUFR
0142832880999992014040812004-13262-043408FM-15+044399999V0200301N003119999999N009999199+02801+02401999999ADDGA1021+009141991GE19MSL   +99999+99999GF199999021990009141991991MA1101601999990REMMET051METAR SBLP 081200Z 03006KT 9999 FEW030 28/24 Q1016=
0142832880999992014040813004-13262-043408FM-15+044399999V0200301N003119999999N009999199+03101+02201999999ADDGA1021+009141991GE19MSL   +99999+99999GF199999021990009141991991MA1101601999990REMMET051METAR SBLP 081300Z 03006KT 9999 FEW030 31/22 Q1016=
0165832880999992014040814004-13262-043408FM-15+044399999V0201201N001010091419N009999199+03101+02101999999ADDGA1071+009141991GA2041+030481991GE19MSL   +99999+99999GF199999071990009141991991MA1101501999990REMMET058METAR SBLP 081400Z 12002KT 9999 BKN030 SCT100 31/21 Q1015=
0165832880999992014040815004-13262-043408FM-15+044399999V0202901N00411030481CN009999199+03101+02301999999ADDGA1041+009141991GA2041+030481991GE19MSL   +99999+99999GF199999041990009141991991MA1101401999990REMMET058METAR SBLP 081500Z 29008KT 9999 SCT030 SCT100 31/23 Q1014=
0142832880999992014040816004-13262-043408FM-15+044399999V0203101N003119999999N009999199+03201+02201999999ADDGA1041+009141991GE19MSL   +99999+99999GF199999041990009141991991MA1101301999990REMMET051METAR SBLP 081600Z 31006KT 9999 SCT030 32/22 Q1013=
0165832880999992014040817004-13262-043408FM-15+044399999V0202301N00361030481CN009999199+03001+02201999999ADDGA1041+009141991GA2041+030481991GE19MSL   +99999+99999GF199999041990009141991991MA1101301999990REMMET058METAR SBLP 081700Z 23007KT 9999 SCT030 SCT100 30/22 Q1013=
0136832880999992014040818004-13267-043417FM-12+044199999V0203601N0026199999999020000199+03091+02221100811ADDAA101999990AZ101061AZ201061GA1041+008001081GE19MSL   +99999+99999GF104991041990008001991991MA1999990095991MD1909990-0101REMSYN004BUFR
0165832880999992014040818004-13262-043408FM-15+044399999V0203601N00411030481CN009999199+03001+02201999999ADDGA1041+009141991GA2041+030481991GE19MSL   +99999+99999GF199999041990009141991991MA1101201999990REMMET058METAR SBLP 081800Z 36008KT 9999 SCT030 SCT100 30/22 Q1012=
0165832880999992014040819004-13262-043408FM-15+044399999V0203101N001510304819N009999199+03101+02301999999ADDGA1041+009141991GA2071+030481991GE19MSL   +99999+99999GF199999041990009141991991MA1101201999990REMMET058METAR SBLP 081900Z 31003KT 9999 SCT030 BKN100 31/23 Q1012=
0165832880999992014040820004-13262-043408FM-15+044399999V0203601N002610304819N009999199+02901+02101999999ADDGA1021+009141991GA2071+030481991GE19MSL   +99999+99999GF199999021990009141991991MA1101201999990REMMET058METAR SBLP 082000Z 36005KT 9999 FEW030 BKN100 29/21 Q1012=
0165832880999992014040821004-13262-043408FM-15+044399999V0200201N002110304819N009999199+02801+02201999999ADDGA1021+009141991GA2071+030481991GE19MSL   +99999+99999GF199999021990009141991991MA1101301999990REMMET058METAR SBLP 082100Z 02004KT 9999 FEW030 BKN100 28/22 Q1013=
0136832880999992014040900004-13267-043417FM-12+044199999V0202701N0015199999999002000199+02691+02311101091ADDAA101999990AZ101061AZ201061GA1021+017501031GE19MSL   +99999+99999GF102991021990017501991991MA1999990096251MD1909990-0021REMSYN004BUFR
0072832880999992014040909154-13262-043408FM-16+044399999V0203101N001519999999Y999999999+02301+02001999999ADDMA1101501999990REMMET045SPECI SBLP 090915Z 31003KT CAVOK 23/20 Q1015=
0142832880999992014040910004-13262-043408FM-15+044399999V0203301N002119999999N009999199+02401+02101999999ADDGA1021+009141991GE19MSL   +99999+99999GF199999021990009141991991MA1101601999990REMMET051METAR SBLP 091000Z 33004KT 9999 FEW030 24/21 Q1016=
0072832880999992014040911004-13262-043408FM-15+044399999V0202801N002619999999Y999999999+02601+02201999999ADDMA1101601999990REMMET045METAR SBLP 091100Z 28005KT CAVOK 26/22 Q1016=
0165832880999992014040912004-13267-043417FM-12+044199999V0202701N0010199999999020000199+02701+02291101321ADDAA101999990AZ101061AZ201061GA1011+008001081GA2991+999991031GE19MSL   +99999+99999GF104991011990008001991991KA1120N+02261MA1999990096461MD1909990+0071REMSYN004BUFR
0142832880999992014040912004-13262-043408FM-15+044399999V0203201N002119999999N009999199+02901+02201999999ADDGA1021+009141991GE19MSL   +99999+99999GF199999021990009141991991MA1101701999990REMMET051METAR SBLP 091200Z 32004KT 9999 FEW030 29/22 Q1017=
0142832880999992014040913004-13262-043408FM-15+044399999V0203401N004119999999N009999199+03101+02301999999ADDGA1021+009141991GE19MSL   +99999+99999GF199999021990009141991991MA1101701999990REMMET051METAR SBLP 091300Z 34008KT 9999 FEW030 31/23 Q1017=
0142832880999992014040914004-13262-043408FM-15+044399999V0203301N001519999999N009999199+03301+02201999999ADDGA1021+009141991GE19MSL   +99999+99999GF199999021990009141991991MA1101601999990REMMET051METAR SBLP 091400Z 33003KT 9999 FEW030 33/22 Q1016=
0142832880999992014040915004-13262-043408FM-15+044399999V0202401N002619999999N009999199+03301+02001999999ADDGA1041+009141991GE19MSL   +99999+99999GF199999041990009141991991MA1101701999990REMMET051METAR SBLP 091500Z 24005KT 9999 SCT030 33/20 Q1017=
0142832880999992014040916004-13262-043408FM-15+044399999V0202701N003119999999N009999199+03301+01901999999ADDGA1041+009141991GE19MSL   +99999+99999GF199999041990009141991991MA1101301999990REMMET051METAR SBLP 091600Z 27006KT 9999 SCT030 33/19 Q1013=
0142832880999992014040917004-13262-043408FM-15+044399999V0200201N003619999999N009999199+03301+02201999999ADDGA1041+009141991GE19MSL   +99999+99999GF199999041990009141991991MA1101201999990REMMET051METAR SBLP 091700Z 02007KT 9999 SCT030 33/22 Q1012=
0152832880999992014040918004-13267-043417FM-12+044199999V0200501N0015199999999020000199+03221+02371100711ADDAA101999990AZ101061AZ201061GA1021+008001081GA2991+999991031GE19MSL   +99999+99999GF104991021990008001991991MA1999990095901MD1909990-0091REMSYN004BUFR
0142832880999992014040918004-13262-043408FM-15+044399999V0200701N002619999999N009999199+03301+02201999999ADDGA1021+009141991GE19MSL   +99999+99999GF199999021990009141991991MA1101101999990REMMET051METAR SBLP 091800Z 07005KT 9999 FEW030 33/22 Q1011=
0142832880999992014040919004-13262-043408FM-15+044399999V0200601N003119999999N009999199+03301+02201999999ADDGA1021+009141991GE19MSL   +99999+99999GF199999021990009141991991MA1101001999990REMMET051METAR SBLP 091900Z 06006KT 9999 FEW030 33/22 Q1010=
0142832880999992014040920004-13262-043408FM-15+044399999V0200401N001019999999N009999199+03301+02101999999ADDGA1021+009141991GE19MSL   +99999+99999GF199999021990009141991991MA1101101999990REMMET051METAR SBLP 092000Z 04002KT 9999 FEW030 33/21 Q1011=
0142832880999992014040921004-13262-043408FM-15+044399999V0200601N003119999999N009999199+03001+02101999999ADDGA1021+009141991GE19MSL   +99999+99999GF199999021990009141991991MA1101101999990REMMET051METAR SBLP 092100Z 06006KT 9999 FEW030 30/21 Q1011=
0136832880999992014041000004-13267-043417FM-12+044199999V0203601N0010199999999002000199+02601+02261100981ADDAA101999990AZ101061AZ201061GA1991+025001021GE19MSL   +99999+99999GF102991990990025001991991MA1999990096131MD1909990-0121REMSYN004BUFR
0188832880999992014041009154-13262-043408FM-16+044399999V0201701N00211009141CN009999199+02101+02001999999ADDGA1041+006101991GA2041+009141991GA3071+030481991GE19MSL   +99999+99999GF199999041990006101991991MA1101501999990REMMET065SPECI SBLP 100915Z 17004KT 9999 SCT020 SCT030 BKN100 21/20 Q1015=
0188832880999992014041010004-13262-043408FM-15+044399999V0200701N00151009141CN009999199+02101+02101999999ADDGA1021+006101991GA2041+009141991GA3071+030481991GE19MSL   +99999+99999GF199999021990006101991991MA1101501999990REMMET065METAR SBLP 101000Z 07003KT 9999 FEW020 SCT030 BKN100 21/21 Q1015=
0165832880999992014041011004-13262-043408FM-15+044399999V0203601N002110304819N009999199+02201+02101999999ADDGA1041+009141991GA2071+030481991GE19MSL   +99999+99999GF199999041990009141991991MA1101601999990REMMET058METAR SBLP 101100Z 36004KT 9999 SCT030 BKN100 22/21 Q1016=
0155832880999992014041012004-13267-043417FM-12+044199999V0203601N0026199999999020000199+02521+02231101281ADDAA124000931AY151061AY251061GA1021+017501031GE19MSL   +99999+99999GF102991021990017501991991KA1120N+02151MA1999990096391MD1909990-0071MW1021REMSYN004BUFR
0165832880999992014041012004-13262-043408FM-15+044399999V0200101N00461030481CN009999199+02501+02201999999ADDGA1021+009141991GA2041+030481991GE19MSL   +99999+99999GF199999021990009141991991MA1101601999990REMMET058METAR SBLP 101200Z 01009KT 9999 FEW030 SCT100 25/22 Q1016=
0165832880999992014041013004-13262-043408FM-15+044399999V0200201N00361030481CN009999199+02601+02201999999ADDGA1021+009141991GA2041+030481991GE19MSL   +99999+99999GF199999021990009141991991MA1101701999990REMMET058METAR SBLP 101300Z 02007KT 9999 FEW030 SCT100 26/22 Q1017=
0165832880999992014041014004-13262-043408FM-15+044399999V0203401N00511030481CN009999199+02701+02201999999ADDGA1021+009141991GA2041+030481991GE19MSL   +99999+99999GF199999021990009141991991MA1101701999990REMMET058METAR SBLP 101400Z 34010KT 9999 FEW030 SCT100 27/22 Q1017=
0142832880999992014041015004-13262-043408FM-15+044399999V0203301N004119999999N009999199+02901+02101999999ADDGA1021+009141991GE19MSL   +99999+99999GF199999021990009141991991MA1101601999990REMMET051METAR SBLP 101500Z 33008KT 9999 FEW030 29/21 Q1016=
0142832880999992014041016004-13262-043408FM-15+044399999V0203301N003119999999N009999199+03101+02301999999ADDGA1041+009141991GE19MSL   +99999+99999GF199999041990009141991991MA1101401999990REMMET051METAR SBLP 101600Z 33006KT 9999 SCT030 31/23 Q1014=
0142832880999992014041017004-13262-043408FM-15+044399999V0203401N003119999999N009999199+03201+02101999999ADDGA1021+009141991GE19MSL   +99999+99999GF199999021990009141991991MA1101301999990REMMET051METAR SBLP 101700Z 34006KT 9999 FEW030 32/21 Q1013=
0136832880999992014041018004-13267-043417FM-12+044199999V0203601N0026199999999020000199+03101+02201100871ADDAA101999990AZ101061AZ201061GA1991+025001001GE19MSL   +99999+99999GF104991990990025001991991MA1999990096041MD1909990+0141REMSYN004BUFR
0142832880999992014041018004-13262-043408FM-15+044399999V0203401N003619999999N009999199+03201+02201999999ADDGA1021+009141991GE19MSL   +99999+99999GF199999021990009141991991MA1101201999990REMMET051METAR SBLP 101800Z 34007KT 9999 FEW030 32/22 Q1012=
0142832880999992014041019004-13262-043408FM-15+044399999V0200301N003119999999N009999199+03101+02101999999ADDGA1021+009141991GE19MSL   +99999+99999GF199999021990009141991991MA1101201999990REMMET051METAR SBLP 101900Z 03006KT 9999 FEW030 31/21 Q1012=
0142832880999992014041020004-13262-043408FM-15+044399999V0200301N003119999999N009999199+03001+02101999999ADDGA1021+009141991GE19MSL   +99999+99999GF199999021990009141991991MA1101301999990REMMET051METAR SBLP 102000Z 03006KT 9999 FEW030 30/21 Q1013=
0142832880999992014041021004-13262-043408FM-15+044399999V0200301N002619999999N009999199+02901+02001999999ADDGA1021+009141991GE19MSL   +99999+99999GF199999021990009141991991MA1101301999990REMMET051METAR SBLP 102100Z 03005KT 9999 FEW030 29/20 Q1013=
0152832880999992014041100004-13267-043417FM-12+044199999V0203601N0015199999999002000199+02541+02211101221ADDAA101999990AZ101061AZ201061GA1011+017501031GA2991+999991001GE19MSL   +99999+99999GF101991011990017501991991MA1999990096341MD1909990+0211REMSYN004BUFR
0072832880999992014041109154-13262-043408FM-16+044399999V0209999C000019999999Y999999999+02101+02101999999ADDMA1101601999990REMMET045SPECI SBLP 110915Z 00000KT CAVOK 21/21 Q1016=
0072832880999992014041110004-13262-043408FM-15+044399999V0209999C000019999999Y999999999+02301+02101999999ADDMA1101701999990REMMET045METAR SBLP 111000Z 00000KT CAVOK 23/21 Q1017=
0072832880999992014041111004-13262-043408FM-15+044399999V0200701N001519999999Y999999999+02501+02201999999ADDMA1101701999990REMMET045METAR SBLP 111100Z 07003KT CAVOK 25/22 Q1017=
0149832880999992014041112004-13267-043417FM-12+044199999V0203201N0010100800199020000199+02651+02241101411ADDAA101999990AZ101061AZ201061GA1051+008001081GE19MSL   +99999+99999GF105991051990008001991991KA1120N+02161MA1999990096531MD1909990+0141REMSYN004BUFR
0142832880999992014041112004-13262-043408FM-15+044399999V0203401N001519999999N009999199+02701+02201999999ADDGA1041+009141991GE19MSL   +99999+99999GF199999041990009141991991MA1101801999990REMMET051METAR SBLP 111200Z 34003KT 9999 SCT030 27/22 Q1018=
0142832880999992014041113004-13262-043408FM-15+044399999V0209999C000010091419N009999199+02801+02101999999ADDGA1071+009141991GE19MSL   +99999+99999GF199999071990009141991991MA1101801999990REMMET051METAR SBLP 111300Z 00000KT 9999 BKN030 28/21 Q1018=
0142832880999992014041114004-13262-043408FM-15+044399999V0203601N002110091419N009999199+02801+02101999999ADDGA1071+009141991GE19MSL   +99999+99999GF199999071990009141991991MA1101701999990REMMET051METAR SBLP 111400Z 36004KT 9999 BKN030 28/21 Q1017=
0142832880999992014041115004-13262-043408FM-15+044399999V0209999C000019999999N009999199+02901+02101999999ADDGA1041+009141991GE19MSL   +99999+99999GF199999041990009141991991MA1101601999990REMMET051METAR SBLP 111500Z 00000KT 9999 SCT030 29/21 Q1016=
0142832880999992014041116004-13262-043408FM-15+044399999V0203501N003110091419N009999199+03301+02001999999ADDGA1071+009141991GE19MSL   +99999+99999GF199999071990009141991991MA1101401999990REMMET051METAR SBLP 111600Z 35006KT 9999 BKN030 33/20 Q1014=
0142832880999992014041117004-13262-043408FM-15+044399999V0203601N003119999999N009999199+03301+02001999999ADDGA1041+009141991GE19MSL   +99999+99999GF199999041990009141991991MA1101301999990REMMET051METAR SBLP 111700Z 36006KT 9999 SCT030 33/20 Q1013=
0136832880999992014041118004-13267-043417FM-12+044199999V0203601N0010100800199020000199+03291+02241100871ADDAA101999990AZ101061AZ201061GA1051+008001081GE19MSL   +99999+99999GF105991051990008001991991MA1999990096051MD1909990+0011REMSYN004BUFR
0142832880999992014041118004-13262-043408FM-15+044399999V0203401N002619999999N009999199+03401+02001999999ADDGA1041+009141991GE19MSL   +99999+99999GF199999041990009141991991MA1101201999990REMMET051METAR SBLP 111800Z 34005KT 9999 SCT030 34/20 Q1012=
0165832880999992014041119004-13262-043408FM-15+044399999V0201401N003110091419N009999199+03301+02001999999ADDGA1021+006101991GA2071+009141991GE19MSL   +99999+99999GF199999021990006101991991MA1101201999990REMMET058METAR SBLP 111900Z 14006KT 9999 FEW020 BKN030 33/20 Q1012=
0165832880999992014041120004-13262-043408FM-15+044399999V0200801N00311009141CN009999199+03001+02201999999ADDGA1021+006101991GA2041+009141991GE19MSL   +99999+99999GF199999021990006101991991MA1101201999990REMMET058METAR SBLP 112000Z 08006KT 9999 FEW020 SCT030 30/22 Q1012=
0142832880999992014041121004-13262-043408FM-15+044399999V0201001N002619999999N009999199+02801+02201999999ADDGA1021+009141991GE19MSL   +99999+99999GF199999021990009141991991MA1101201999990REMMET051METAR SBLP 112100Z 10005KT 9999 FEW030 28/22 Q1012=
0136832880999992014041200004-13267-043417FM-12+044199999V0201401N0005101250199002000199+02621+02241101111ADDAA101999990AZ101061AZ201061GA1051+012501051GE19MSL   +99999+99999GF105991051990012501991991MA1999990096241MD1909990-0101REMSYN004BUFR
0181832880999992014041212004-13267-043417FM-12+044199999V0203601N0000199999999020000199+02801+02041101411ADDAA101999990AZ101061AZ201061GA1011+008001081GA2991+999991021GA3991+999991031GE19MSL   +99999+99999GF104991011990008001991991KA1120N+02381MA1999990096551MD1909990+0021REMSYN004BUFR
0152832880999992014041218004-13267-043417FM-12+044199999V0201801N0005199999999020000199+03321+02071100971ADDAA101999990AZ101061AZ201061GA1021+008001081GA2991+999991021GE19MSL   +99999+99999GF104991021990008001991991MA1999990096161MD1909990+0111REMSYN004BUFR
0111832880999992014041312004-13267-043417FM-12+044199999V0203601N0000122000199020000199+02791+01991101391ADDAA101999990AZ101061AZ201061GF100991999999999999999999KA1120N+02401MA1999990096551MD1909990+0001REMSYN004BUFR
0136832880999992014041318004-13267-043417FM-12+044199999V0202301N0010100800199020000199+03371+01941100761ADDAA101999990AZ101061AZ201061GA1061+008001081GE19MSL   +99999+99999GF106991061990008001991991MA1999990095951MD1909990+0211REMSYN004BUFR
0142832880999992014041409154-13262-043408FM-16+044399999V0200701N001519999999N009999199+02401+01901999999ADDGA1021+009141991GE19MSL   +99999+99999GF199999021990009141991991MA1101401999990REMMET051SPECI SBLP 140915Z 07003KT 9999 FEW030 24/19 Q1014=
0142832880999992014041410004-13262-043408FM-15+044399999V0201001N001519999999N009999199+02401+02101999999ADDGA1021+009141991GE19MSL   +99999+99999GF199999021990009141991991MA1101501999990REMMET051METAR SBLP 141000Z 10003KT 9999 FEW030 24/21 Q1015=
0142832880999992014041411004-13262-043408FM-15+044399999V0200701N003619999999N009999199+02701+02001999999ADDGA1021+009141991GE19MSL   +99999+99999GF199999021990009141991991MA1101501999990REMMET051METAR SBLP 141100Z 07007KT 9999 FEW030 27/20 Q1015=
0149832880999992014041412004-13267-043417FM-12+044199999V0201801N0015199999999020000199+03001+02051101041ADDAA101999990AZ101061AZ201061GA1011+008001081GE19MSL   +99999+99999GF101991011990008001991991KA1120N+02451MA1999990096251MD1909990-0301REMSYN004BUFR
0072832880999992014041412004-13262-043408FM-15+044399999V0201001N002619999999Y999999999+03001+02001999999ADDMA1101601999990REMMET045METAR SBLP 141200Z 10005KT CAVOK 30/20 Q1016=
0072832880999992014041413004-13262-043408FM-15+044399999V0200601N002119999999Y999999999+03201+01901999999ADDMA1101601999990REMMET045METAR SBLP 141300Z 06004KT CAVOK 32/19 Q1016=
0142832880999992014041414004-13262-043408FM-15+044399999V0209999C000019999999N009999199+03301+02001999999ADDGA1021+009141991GE19MSL   +99999+99999GF199999021990009141991991MA1101501999990REMMET051METAR SBLP 141400Z 00000KT 9999 FEW030 33/20 Q1015=
0142832880999992014041415004-13262-043408FM-15+044399999V0201201N002619999999N009999199+03401+02001999999ADDGA1041+009141991GE19MSL   +99999+99999GF199999041990009141991991MA1101401999990REMMET051METAR SBLP 141500Z 12005KT 9999 SCT030 34/20 Q1014=
0142832880999992014041416004-13262-043408FM-15+044399999V0202601N001519999999N009999199+03501+01801999999ADDGA1041+009141991GE19MSL   +99999+99999GF199999041990009141991991MA1101201999990REMMET051METAR SBLP 141600Z 26003KT 9999 SCT030 35/18 Q1012=
0142832880999992014041417004-13262-043408FM-15+044399999V0200301N002119999999N009999199+03501+01701999999ADDGA1041+009141991GE19MSL   +99999+99999GF199999041990009141991991MA1101101999990REMMET051METAR SBLP 141700Z 03004KT 9999 SCT030 35/17 Q1011=
0136832880999992014041418004-13267-043417FM-12+044199999V0202301N0021199999999020000199+03441+02141100651ADDAA101999990AZ101061AZ201061GA1021+008001081GE19MSL   +99999+99999GF102991021990008001991991MA1999990095881MD1909990-0071REMSYN004BUFR
0142832880999992014041418004-13262-043408FM-15+044399999V0201201N001019999999N009999199+03601+01701999999ADDGA1021+009141991GE19MSL   +99999+99999GF199999021990009141991991MA1101001999990REMMET051METAR SBLP 141800Z 12002KT 9999 FEW030 36/17 Q1010=
0142832880999992014041419004-13262-043408FM-15+044399999V0200601N002119999999N009999199+03501+01901999999ADDGA1021+009141991GE19MSL   +99999+99999GF199999021990009141991991MA1101001999990REMMET051METAR SBLP 141900Z 06004KT 9999 FEW030 35/19 Q1010=
0142832880999992014041420004-13262-043408FM-15+044399999V0201601N005119999999N009999199+03301+01901999999ADDGA1021+009141991GE19MSL   +99999+99999GF199999021990009141991991MA1101101999990REMMET051METAR SBLP 142000Z 16010KT 9999 FEW030 33/19 Q1011=
0165832880999992014041421004-13262-043408FM-15+044399999V0201001N00361030481CN009999199+03001+02001999999ADDGA1021+009141991GA2041+030481991GE19MSL   +99999+99999GF199999021990009141991991MA1101101999990REMMET058METAR SBLP 142100Z 10007KT 9999 FEW030 SCT100 30/20 Q1011=
0152832880999992014041500004-13267-043417FM-12+044199999V0202701N0015101750199002000199+02871+02281100991ADDAA101999990AZ101061AZ201061GA1061+017501031GA2991+999991001GE19MSL   +99999+99999GF108991061990017501991991MA1999990096101MD1909990-0111REMSYN004BUFR
0165832880999992014041509154-13262-043408FM-16+044399999V0200701N00151030481CN009999199+02301+02101999999ADDGA1021+009141991GA2041+030481991GE19MSL   +99999+99999GF199999021990009141991991MA1101401999990REMMET058SPECI SBLP 150915Z 07003KT 9999 FEW030 SCT100 23/21 Q1014=
0165832880999992014041510004-13262-043408FM-15+044399999V0200901N00151030481CN009999199+02501+02101999999ADDGA1021+009141991GA2041+030481991GE19MSL   +99999+99999GF199999021990009141991991MA1101501999990REMMET058METAR SBLP 151000Z 09003KT 9999 FEW030 SCT100 25/21 Q1015=
0072832880999992014041511004-13262-043408FM-15+044399999V0200901N001519999999Y999999999+02701+02101999999ADDMA1101501999990REMMET045METAR SBLP 151100Z 09003KT CAVOK 27/21 Q1015=
0187832880999992014041512004-13267-043417FM-12+044199999V0200901N0010199999999020000199+02901+02131101181ADDAA124001031AY161061AY261061GA1011+008001081GA2991+999991001GA3991+999991031GE19MSL   +99999+99999GF103991011990008001991991KA1120N+02361MA1999990096371MD1909990+0121MW1011REMSYN004BUFR
0072832880999992014041512004-13262-043408FM-15+044399999V0200901N003119999999Y999999999+02901+02001999999ADDMA1101601999990REMMET045METAR SBLP 151200Z 09006KT CAVOK 29/20 Q1016=
0142832880999992014041513004-13262-043408FM-15+044399999V0200601N003119999999N009999199+03001+02001999999ADDGA1021+009141991GE19MSL   +99999+99999GF199999021990009141991991MA1101601999990REMMET051METAR SBLP 151300Z 06006KT 9999 FEW030 30/20 Q1016=
0142832880999992014041514004-13262-043408FM-15+044399999V0209999C000019999999N009999199+03001+02001999999ADDGA1021+009141991GE19MSL   +99999+99999GF199999021990009141991991MA1101501999990REMMET051METAR SBLP 151400Z 00000KT 9999 FEW030 30/20 Q1015=
0142832880999992014041515004-13262-043408FM-15+044399999V0209999C000019999999N009999199+03101+02001999999ADDGA1041+009141991GE19MSL   +99999+99999GF199999041990009141991991MA1101401999990REMMET051METAR SBLP 151500Z 00000KT 9999 SCT030 31/20 Q1014=
0142832880999992014041516004-13262-043408FM-15+044399999V0200901N001510091419N009999199+03301+02001999999ADDGA1071+009141991GE19MSL   +99999+99999GF199999071990009141991991MA1101201999990REMMET051METAR SBLP 151600Z 09003KT 9999 BKN030 33/20 Q1012=
0142832880999992014041517004-13262-043408FM-15+044399999V0201201N003110091419N009999199+03401+01901999999ADDGA1071+009141991GE19MSL   +99999+99999GF199999071990009141991991MA1101101999990REMMET051METAR SBLP 151700Z 12006KT 9999 BKN030 34/19 Q1011=
0136832880999992014041518004-13267-043417FM-12+044199999V0201401N0010199999999020000199+03351+02071100671ADDAA101999990AZ101061AZ201061GA1041+008001081GE19MSL   +99999+99999GF104991041990008001991991MA1999990095861MD1909990-0021REMSYN004BUFR
0142832880999992014041518004-13262-043408FM-15+044399999V0201601N003619999999N009999199+03401+01901999999ADDGA1041+009141991GE19MSL   +99999+99999GF199999041990009141991991MA1101001999990REMMET051METAR SBLP 151800Z 16007KT 9999 SCT030 34/19 Q1010=
0142832880999992014041519004-13262-043408FM-15+044399999V0201301N003619999999N009999199+03501+01801999999ADDGA1041+009141991GE19MSL   +99999+99999GF199999041990009141991991MA1101001999990REMMET051METAR SBLP 151900Z 13007KT 9999 SCT030 35/18 Q1010=
0142832880999992014041520004-13262-043408FM-15+044399999V0201501N003619999999N009999199+03401+01801999999ADDGA1041+009141991GE19MSL   +99999+99999GF199999041990009141991991MA1101001999990REMMET051METAR SBLP 152000Z 15007KT 9999 SCT030 34/18 Q1010=
0142832880999992014041521004-13262-043408FM-15+044399999V0201701N002119999999N009999199+03201+01801999999ADDGA1021+009141991GE19MSL   +99999+99999GF199999021990009141991991MA1101001999990REMMET051METAR SBLP 152100Z 17004KT 9999 FEW030 32/18 Q1010=
0136832880999992014041600004-13267-043417FM-12+044199999V0200901N0010100800199002000199+02821+01951100861ADDAA101999990AZ101061AZ201061GA1051+008001061GE19MSL   +99999+99999GF105991051990008001991991MA1999990096061MD1909990-0041REMSYN004BUFR
0072832880999992014041609154-13262-043408FM-16+044399999V0200901N002619999999Y999999999+02301+01701999999ADDMA1101401999990REMMET045SPECI SBLP 160915Z 09005KT CAVOK 23/17 Q1014=
0072832880999992014041610004-13262-043408FM-15+044399999V0201501N002119999999Y999999999+02301+01801999999ADDMA1101501999990REMMET045METAR SBLP 161000Z 15004KT CAVOK 23/18 Q1015=
0072832880999992014041611004-13262-043408FM-15+044399999V0202301N002119999999Y999999999+02601+01901999999ADDMA1101501999990REMMET045METAR SBLP 161100Z 23004KT CAVOK 26/19 Q1015=
0149832880999992014041612004-13267-043417FM-12+044199999V0203601N0000199999999020000199+02771+01951101231ADDAA101999990AZ101061AZ201061GA1021+025001021GE19MSL   +99999+99999GF102991021990025001991991KA1120N+02221MA1999990096401MD1909990+0031REMSYN004BUFR
0072832880999992014041612004-13262-043408FM-15+044399999V0201201N003119999999Y999999999+02801+01801999999ADDMA1101601999990REMMET045METAR SBLP 161200Z 12006KT CAVOK 28/18 Q1016=
0072832880999992014041613004-13262-043408FM-15+044399999V0200301N002619999999Y999999999+03101+01601999999ADDMA1101601999990REMMET045METAR SBLP 161300Z 03005KT CAVOK 31/16 Q1016=
0142832880999992014041614004-13262-043408FM-15+044399999V0201401N002619999999N009999199+03201+01701999999ADDGA1021+009141991GE19MSL   +99999+99999GF199999021990009141991991MA1101501999990REMMET051METAR SBLP 161400Z 14005KT 9999 FEW030 32/17 Q1015=
0142832880999992014041615004-13262-043408FM-15+044399999V0202401N002119999999N009999199+03301+01601999999ADDGA1021+009141991GE19MSL   +99999+99999GF199999021990009141991991MA1101401999990REMMET051METAR SBLP 161500Z 24004KT 9999 FEW030 33/16 Q1014=
0142832880999992014041616004-13262-043408FM-15+044399999V0201401N005119999999N009999199+03301+01601999999ADDGA1021+009141991GE19MSL   +99999+99999GF199999021990009141991991MA1101301999990REMMET051METAR SBLP 161600Z 14010KT 9999 FEW030 33/16 Q1013=
0142832880999992014041617004-13262-043408FM-15+044399999V0201101N004119999999N009999199+03401+01601999999ADDGA1021+009141991GE19MSL   +99999+99999GF199999021990009141991991MA1101201999990REMMET051METAR SBLP 161700Z 11008KT 9999 FEW030 34/16 Q1012=
0168832880999992014041618004-13267-043417FM-12+044199999V0202301N0005199999999020000199+03421+01881100721ADDAA101999990AZ101061AZ201061GA1031+008001081GA2991+999991001GA3991+999991051GE19MSL   +99999+99999GF106991031990008001991991MA1999990095931MD1909990+0071REMSYN004BUFR
0142832880999992014041618004-13262-043408FM-15+044399999V0202201N001519999999N009999199+03401+01601999999ADDGA1021+009141991GE19MSL   +99999+99999GF199999021990009141991991MA1101101999990REMMET051METAR SBLP 161800Z 22003KT 9999 FEW030 34/16 Q1011=
0142832880999992014041619004-13262-043408FM-15+044399999V0202301N001519999999N009999199+03401+01601999999ADDGA1021+009141991GE19MSL   +99999+99999GF199999021990009141991991MA1101101999990REMMET051METAR SBLP 161900Z 23003KT 9999 FEW030 34/16 Q1011=
0142832880999992014041620004-13262-043408FM-15+044399999V0209999C000019999999N009999199+03301+01701999999ADDGA1021+009141991GE19MSL   +99999+99999GF199999021990009141991991MA1101101999990REMMET051METAR SBLP 162000Z 00000KT 9999 FEW030 33/17 Q1011=
0142832880999992014041621004-13262-043408FM-15+044399999V0209999C000019999999N009999199+03201+01801999999ADDGA1021+009141991GE19MSL   +99999+99999GF199999021990009141991991MA1101101999990REMMET051METAR SBLP 162100Z 00000KT 9999 FEW030 32/18 Q1011=
0072832880999992014041709154-13262-043408FM-16+044399999V0202201N001019999999Y999999999+02101+01701999999ADDMA1101401999990REMMET045SPECI SBLP 170915Z 22002KT CAVOK 21/17 Q1014=
0072832880999992014041710004-13262-043408FM-15+044399999V0209999C000019999999Y999999999+02101+01701999999ADDMA1101401999990REMMET045METAR SBLP 171000Z 00000KT CAVOK 21/17 Q1014=
0072832880999992014041711004-13262-043408FM-15+044399999V0201501N001019999999Y999999999+02601+01701999999ADDMA1101501999990REMMET045METAR SBLP 171100Z 15002KT CAVOK 26/17 Q1015=
0111832880999992014041712004-13267-043417FM-12+044199999V0200501N0015122000199020000199+02901+01871101191ADDAA101999990AZ101061AZ201061GF100991999999999999999999KA1120N+02131MA1999990096381MD1909990-0021REMSYN004BUFR
0072832880999992014041712004-13262-043408FM-15+044399999V0203601N001519999999Y999999999+02901+01601999999ADDMA1101601999990REMMET045METAR SBLP 171200Z 36003KT CAVOK 29/16 Q1016=
0072832880999992014041713004-13262-043408FM-15+044399999V0201601N003619999999Y999999999+03101+01601999999ADDMA1101601999990REMMET045METAR SBLP 171300Z 16007KT CAVOK 31/16 Q1016=
0142832880999992014041714004-13262-043408FM-15+044399999V0201301N002119999999N009999199+03201+01601999999ADDGA1021+009141991GE19MSL   +99999+99999GF199999021990009141991991MA1101501999990REMMET051METAR SBLP 171400Z 13004KT 9999 FEW030 32/16 Q1015=
0142832880999992014041715004-13262-043408FM-15+044399999V0200601N001519999999N009999199+03201+01701999999ADDGA1021+009141991GE19MSL   +99999+99999GF199999021990009141991991MA1101401999990REMMET051METAR SBLP 171500Z 06003KT 9999 FEW030 32/17 Q1014=
0142832880999992014041716004-13262-043408FM-15+044399999V0201901N003119999999N009999199+03401+01501999999ADDGA1041+009141991GE19MSL   +99999+99999GF199999041990009141991991MA1101301999990REMMET051METAR SBLP 171600Z 19006KT 9999 SCT030 34/15 Q1013=
0142832880999992014041717004-13262-043408FM-15+044399999V0201701N003619999999N009999199+03401+01201999999ADDGA1041+009141991GE19MSL   +99999+99999GF199999041990009141991991MA1101201999990REMMET051METAR SBLP 171700Z 17007KT 9999 SCT030 34/12 Q1012=
0136832880999992014041718004-13267-043417FM-12+044199999V0201401N0015199999999020000199+03371+01831100751ADDAA101999990AZ101061AZ201061GA1021+008001081GE19MSL   +99999+99999GF102991021990008001991991MA1999990095931MD1909990+0001REMSYN004BUFR
0142832880999992014041718004-13262-043408FM-15+044399999V0201801N002619999999N009999199+03501+01401999999ADDGA1041+009141991GE19MSL   +99999+99999GF199999041990009141991991MA1101101999990REMMET051METAR SBLP 171800Z 18005KT 9999 SCT030 35/14 Q1011=
0142832880999992014041719004-13262-043408FM-15+044399999V0202101N003619999999N009999199+03501+01301999999ADDGA1021+009141991GE19MSL   +99999+99999GF199999021990009141991991MA1101101999990REMMET051METAR SBLP 171900Z 21007KT 9999 FEW030 35/13 Q1011=
0142832880999992014041720004-13262-043408FM-15+044399999V0201701N003119999999N009999199+03401+01301999999ADDGA1021+009141991GE19MSL   +99999+99999GF199999021990009141991991MA1101101999990REMMET051METAR SBLP 172000Z 17006KT 9999 FEW030 34/13 Q1011=
0142832880999992014041721004-13262-043408FM-15+044399999V0201401N002119999999N009999199+03201+01401999999ADDGA1021+009141991GE19MSL   +99999+99999GF199999021990009141991991MA1101101999990REMMET051METAR SBLP 172100Z 14004KT 9999 FEW030 32/14 Q1011=
0072832880999992014041809154-13262-043408FM-16+044399999V0209999C000019999999Y999999999+02001+01501999999ADDMA1101401999990REMMET045SPECI SBLP 180915Z 00000KT CAVOK 20/15 Q1014=
0072832880999992014041810004-13262-043408FM-15+044399999V0201201N001019999999Y999999999+02101+01501999999ADDMA1101401999990REMMET045METAR SBLP 181000Z 12002KT CAVOK 21/15 Q1014=
0072832880999992014041811004-13262-043408FM-15+044399999V0209999C000019999999Y999999999+02601+01501999999ADDMA1101501999990REMMET045METAR SBLP 181100Z 00000KT CAVOK 26/15 Q1015=
0149832880999992014041812004-13267-043417FM-12+044199999V0203601N0000199999999020000199+02891+01611101141ADDAA101999990AZ101061AZ201061GA1991+025001001GE19MSL   +99999+99999GF102991990990025001991991KA1120N+02101MA1999990096311MD1909990-0071REMSYN004BUFR
0072832880999992014041812004-13262-043408FM-15+044399999V0201301N001019999999Y999999999+02901+01501999999ADDMA1101501999990REMMET045METAR SBLP 181200Z 13002KT CAVOK 29/15 Q1015=
0072832880999992014041813004-13262-043408FM-15+044399999V0200701N003619999999Y999999999+03101+01601999999ADDMA1101501999990REMMET045METAR SBLP 181300Z 07007KT CAVOK 31/16 Q1015=
0142832880999992014041814004-13262-043408FM-15+044399999V0201201N003119999999N009999199+03301+01501999999ADDGA1021+009141991GE19MSL   +99999+99999GF199999021990009141991991MA1101401999990REMMET051METAR SBLP 181400Z 12006KT 9999 FEW030 33/15 Q1014=
0142832880999992014041815004-13262-043408FM-15+044399999V0201101N002619999999N009999199+03401+01201999999ADDGA1021+009141991GE19MSL   +99999+99999GF199999021990009141991991MA1101301999990REMMET051METAR SBLP 181500Z 11005KT 9999 FEW030 34/12 Q1013=
0142832880999992014041816004-13262-043408FM-15+044399999V0200501N004119999999N009999199+03301+01401999999ADDGA1021+009141991GE19MSL   +99999+99999GF199999021990009141991991MA1101201999990REMMET051METAR SBLP 181600Z 05008KT 9999 FEW030 33/14 Q1012=
0142832880999992014041817004-13262-043408FM-15+044399999V0200201N001519999999N009999199+03401+01401999999ADDGA1041+009141991GE19MSL   +99999+99999GF199999041990009141991991MA1101101999990REMMET051METAR SBLP 181700Z 02003KT 9999 SCT030 34/14 Q1011=
0152832880999992014041818004-13267-043417FM-12+044199999V0200501N0010199999999020000199+03371+01831100711ADDAA101999990AZ101061AZ201061GA1031+008001081GA2991+999991001GE19MSL   +99999+99999GF104991031990008001991991MA1999990095901MD1909990-0031REMSYN004BUFR
0142832880999992014041818004-13262-043408FM-15+044399999V0200201N003119999999N009999199+03501+01401999999ADDGA1041+009141991GE19MSL   +99999+99999GF199999041990009141991991MA1101101999990REMMET051METAR SBLP 181800Z 02006KT 9999 SCT030 35/14 Q1011=
0142832880999992014041819004-13262-043408FM-15+044399999V0209999C000019999999N009999199+03401+01401999999ADDGA1041+009141991GE19MSL   +99999+99999GF199999041990009141991991MA1101101999990REMMET051METAR SBLP 181900Z 00000KT 9999 SCT030 34/14 Q1011=
0142832880999992014041820004-13262-043408FM-15+044399999V0200201N003119999999N009999199+03401+01301999999ADDGA1021+009141991GE19MSL   +99999+99999GF199999021990009141991991MA1101101999990REMMET051METAR SBLP 182000Z 02006KT 9999 FEW030 34/13 Q1011=
0142832880999992014041821004-13262-043408FM-15+044399999V0203101N001519999999N009999199+03201+01501999999ADDGA1021+009141991GE19MSL   +99999+99999GF199999021990009141991991MA1101101999990REMMET051METAR SBLP 182100Z 31003KT 9999 FEW030 32/15 Q1011=
0149832880999992014041912004-13267-043417FM-12+044199999V0200501N0010199999999020000199+02851+02091101291ADDAA101999990AZ101061AZ201061GA1031+012501031GE19MSL   +99999+99999GF103991031990012501991991KA1120N+02321MA1999990096471MD1909990+0161REMSYN004BUFR
0152832880999992014041918004-13267-043417FM-12+044199999V0202301N0015199999999020000199+03451+01861100831ADDAA101999990AZ101061AZ201061GA1031+008001081GA2991+999991031GE19MSL   +99999+99999GF105991031990008001991991MA1999990096041MD1909990+0141REMSYN004BUFR
0149832880999992014042012004-13267-043417FM-12+044199999V0200901N0021199999999020000199+02901+01961101351ADDAA101999990AZ101061AZ201061GA1021+017501031GE19MSL   +99999+99999GF102991021990017501991991KA1120N+02231MA1999990096541MD1909990+0071REMSYN004BUFR
0136832880999992014042018004-13267-043417FM-12+044199999V0203601N0000199999999020000199+03541+01891100811ADDAA101999990AZ101061AZ201061GA1011+008001081GE19MSL   +99999+99999GF101991011990008001991991MA1999990096021MD1909990-0021REMSYN004BUFR
0072832880999992014042109154-13262-043408FM-16+044399999V0209999C000019999999Y999999999+02201+01701999999ADDMA1101401999990REMMET045SPECI SBLP 210915Z 00000KT CAVOK 22/17 Q1014=
0072832880999992014042110004-13262-043408FM-15+044399999V0203601N001019999999Y999999999+02201+01701999999ADDMA1101501999990REMMET045METAR SBLP 211000Z 36002KT CAVOK 22/17 Q1015=
0072832880999992014042111004-13262-043408FM-15+044399999V0209999C000019999999Y999999999+02601+01601999999ADDMA1101601999990REMMET045METAR SBLP 211100Z 00000KT CAVOK 26/16 Q1016=
0149832880999992014042112004-13267-043417FM-12+044199999V0200901N0005199999999020000199+02891+01741101241ADDAA101999990AZ101061AZ201061GA1991+025001001GE19MSL   +99999+99999GF104991990990025001991991KA1120N+02201MA1999990096431MD1909990-0111REMSYN004BUFR
0072832880999992014042112004-13262-043408FM-15+044399999V0209999C000019999999Y999999999+02901+01401999999ADDMA1101601999990REMMET045METAR SBLP 211200Z 00000KT CAVOK 29/14 Q1016=
0072832880999992014042113004-13262-043408FM-15+044399999V0200601N003119999999Y999999999+03201+01401999999ADDMA1101601999990REMMET045METAR SBLP 211300Z 06006KT CAVOK 32/14 Q1016=
0142832880999992014042114004-13262-043408FM-15+044399999V0202801N002619999999N009999199+03201+01501999999ADDGA1041+009141991GE19MSL   +99999+99999GF199999041990009141991991MA1101601999990REMMET051METAR SBLP 211400Z 28005KT 9999 SCT030 32/15 Q1016=
0142832880999992014042115004-13262-043408FM-15+044399999V0200601N001019999999N009999199+03401+01401999999ADDGA1041+009141991GE19MSL   +99999+99999GF199999041990009141991991MA1101401999990REMMET051METAR SBLP 211500Z 06002KT 9999 SCT030 34/14 Q1014=
0142832880999992014042116004-13262-043408FM-15+044399999V0202101N003119999999N009999199+03401+01501999999ADDGA1041+009141991GE19MSL   +99999+99999GF199999041990009141991991MA1101301999990REMMET051METAR SBLP 211600Z 21006KT 9999 SCT030 34/15 Q1013=
0142832880999992014042117004-13262-043408FM-15+044399999V0202201N002119999999N009999199+03401+01501999999ADDGA1041+009141991GE19MSL   +99999+99999GF199999041990009141991991MA1101201999990REMMET051METAR SBLP 211700Z 22004KT 9999 SCT030 34/15 Q1012=
0152832880999992014042118004-13267-043417FM-12+044199999V0202301N0010199999999020000199+03521+01701100711ADDAA101999990AZ101061AZ201061GA1021+008001081GA2991+999991021GE19MSL   +99999+99999GF103991021990008001991991MA1999990095921MD1909990-0101REMSYN004BUFR
0142832880999992014042118004-13262-043408FM-15+044399999V0201901N001519999999N009999199+03501+01501999999ADDGA1041+009141991GE19MSL   +99999+99999GF199999041990009141991991MA1101101999990REMMET051METAR SBLP 211800Z 19003KT 9999 SCT030 35/15 Q1011=
0142832880999992014042119004-13262-043408FM-15+044399999V0201401N002119999999N009999199+03501+01501999999ADDGA1021+009141991GE19MSL   +99999+99999GF199999021990009141991991MA1101101999990REMMET051METAR SBLP 211900Z 14004KT 9999 FEW030 35/15 Q1011=
0142832880999992014042120004-13262-043408FM-15+044399999V0202201N002619999999N009999199+03401+01601999999ADDGA1021+009141991GE19MSL   +99999+99999GF199999021990009141991991MA1101101999990REMMET051METAR SBLP 212000Z 22005KT 9999 FEW030 34/16 Q1011=
0072832880999992014042121004-13262-043408FM-15+044399999V0209999C000019999999Y999999999+03201+01801999999ADDMA1101101999990REMMET045METAR SBLP 212100Z 00000KT CAVOK 32/18 Q1011=
0142832880999992014042209154-13262-043408FM-16+044399999V0209999C000019999999N009999199+02201+01701999999ADDGA1021+007011991GE19MSL   +99999+99999GF199999021990007011991991MA1101401999990REMMET051SPECI SBLP 220915Z 00000KT 9999 FEW023 22/17 Q1014=
0142832880999992014042210004-13262-043408FM-15+044399999V0209999C000019999999N009999199+02301+01701999999ADDGA1021+007011991GE19MSL   +99999+99999GF199999021990007011991991MA1101501999990REMMET051METAR SBLP 221000Z 00000KT 9999 FEW023 23/17 Q1015=
0072832880999992014042211004-13262-043408FM-15+044399999V0200801N003619999999Y999999999+02601+01601999999ADDMA1101601999990REMMET045METAR SBLP 221100Z 08007KT CAVOK 26/16 Q1016=
0165832880999992014042212004-13267-043417FM-12+044199999V0200501N0010199999999020000199+02821+01771101231ADDAA101999990AZ101061AZ201061GA1021+012501051GA2991+999991001GE19MSL   +99999+99999GF103991021990012501991991KA1120N+02201MA1999990096411MD1909990-0021REMSYN004BUFR
0165832880999992014042212004-13262-043408FM-15+044399999V0200801N00461030481CN009999199+02901+01601999999ADDGA1021+009141991GA2041+030481991GE19MSL   +99999+99999GF199999021990009141991991MA1101601999990REMMET058METAR SBLP 221200Z 08009KT 9999 FEW030 SCT100 29/16 Q1016=
0165832880999992014042213004-13262-043408FM-15+044399999V0200901N00461030481CN009999199+03001+01601999999ADDGA1021+009141991GA2041+030481991GE19MSL   +99999+99999GF199999021990009141991991MA1101601999990REMMET058METAR SBLP 221300Z 09009KT 9999 FEW030 SCT100 30/16 Q1016=
0165832880999992014042214004-13262-043408FM-15+044399999V0201101N00211030481CN009999199+03101+01601999999ADDGA1021+009141991GA2041+030481991GE19MSL   +99999+99999GF199999021990009141991991MA1101501999990REMMET058METAR SBLP 221400Z 11004KT 9999 FEW030 SCT100 31/16 Q1015=
0142832880999992014042215004-13262-043408FM-15+044399999V0201301N001519999999N009999199+03201+01601999999ADDGA1021+009141991GE19MSL   +99999+99999GF199999021990009141991991MA1101401999990REMMET051METAR SBLP 221500Z 13003KT 9999 FEW030 32/16 Q1014=
0142832880999992014042216004-13262-043408FM-15+044399999V0202101N002619999999N009999199+03501+01401999999ADDGA1021+009141991GE19MSL   +99999+99999GF199999021990009141991991MA1101301999990REMMET051METAR SBLP 221600Z 21005KT 9999 FEW030 35/14 Q1013=
0142832880999992014042217004-13262-043408FM-15+044399999V0202501N001519999999N009999199+03501+01401999999ADDGA1041+009141991GE19MSL   +99999+99999GF199999041990009141991991MA1101201999990REMMET051METAR SBLP 221700Z 25003KT 9999 SCT030 35/14 Q1012=
0136832880999992014042218004-13267-043417FM-12+044199999V0202301N0005100800199020000199+03441+01731100731ADDAA101999990AZ101061AZ201061GA1051+008001081GE19MSL   +99999+99999GF105991051990008001991991MA1999990095951MD1909990+0031REMSYN004BUFR
0142832880999992014042218004-13262-043408FM-15+044399999V0202601N003119999999N009999199+03501+01601999999ADDGA1041+009141991GE19MSL   +99999+99999GF199999041990009141991991MA1101101999990REMMET051METAR SBLP 221800Z 26006KT 9999 SCT030 35/16 Q1011=
0142832880999992014042219004-13262-043408FM-15+044399999V0203001N001519999999N009999199+03501+01501999999ADDGA1041+009141991GE19MSL   +99999+99999GF199999041990009141991991MA1101101999990REMMET051METAR SBLP 221900Z 30003KT 9999 SCT030 35/15 Q1011=
0142832880999992014042220004-13262-043408FM-15+044399999V0202301N002119999999N009999199+03501+01401999999ADDGA1021+009141991GE19MSL   +99999+99999GF199999021990009141991991MA1101101999990REMMET051METAR SBLP 222000Z 23004KT 9999 FEW030 35/14 Q1011=
0142832880999992014042221004-13262-043408FM-15+044399999V0209999C000019999999N009999199+03301+01601999999ADDGA1021+009141991GE19MSL   +99999+99999GF199999021990009141991991MA1101101999990REMMET051METAR SBLP 222100Z 00000KT 9999 FEW030 33/16 Q1011=
0072832880999992014042309154-13262-043408FM-16+044399999V0209999C000019999999Y999999999+02101+01801999999ADDMA1101501999990REMMET045SPECI SBLP 230915Z 00000KT CAVOK 21/18 Q1015=
0072832880999992014042310004-13262-043408FM-15+044399999V0209999C000019999999Y999999999+02201+01801999999ADDMA1101501999990REMMET045METAR SBLP 231000Z 00000KT CAVOK 22/18 Q1015=
0072832880999992014042311004-13262-043408FM-15+044399999V0209999C000019999999Y999999999+02501+01901999999ADDMA1101601999990REMMET045METAR SBLP 231100Z 00000KT CAVOK 25/19 Q1016=
0149832880999992014042312004-13267-043417FM-12+044199999V0200901N0010199999999020000199+02821+01801101231ADDAA101999990AZ101061AZ201061GA1991+025001001GE19MSL   +99999+99999GF102991990990025001991991KA1120N+02191MA1999990096411MD1909990+0011REMSYN004BUFR
0072832880999992014042312004-13262-043408FM-15+044399999V0200701N002119999999Y999999999+02901+01501999999ADDMA1101601999990REMMET045METAR SBLP 231200Z 07004KT CAVOK 29/15 Q1016=
0072832880999992014042313004-13262-043408FM-15+044399999V0202701N002119999999Y999999999+03101+01501999999ADDMA1101601999990REMMET045METAR SBLP 231300Z 27004KT CAVOK 31/15 Q1016=
0072832880999992014042314004-13262-043408FM-15+044399999V0202601N003119999999Y999999999+03201+01601999999ADDMA1101601999990REMMET045METAR SBLP 231400Z 26006KT CAVOK 32/16 Q1016=
0142832880999992014042315004-13262-043408FM-15+044399999V0201001N002619999999N009999199+03401+01401999999ADDGA1021+009141991GE19MSL   +99999+99999GF199999021990009141991991MA1101501999990REMMET051METAR SBLP 231500Z 10005KT 9999 FEW030 34/14 Q1015=
0142832880999992014042316004-13262-043408FM-15+044399999V0201101N001519999999N009999199+03501+01401999999ADDGA1021+009141991GE19MSL   +99999+99999GF199999021990009141991991MA1101401999990REMMET051METAR SBLP 231600Z 11003KT 9999 FEW030 35/14 Q1014=
0142832880999992014042317004-13262-043408FM-15+044399999V0202401N002619999999N009999199+03401+01501999999ADDGA1021+009141991GE19MSL   +99999+99999GF199999021990009141991991MA1101301999990REMMET051METAR SBLP 231700Z 24005KT 9999 FEW030 34/15 Q1013=
0136832880999992014042318004-13267-043417FM-12+044199999V0202301N0015199999999020000199+03351+01891100831ADDAA101999990AZ101061AZ201061GA1991+025001001GE19MSL   +99999+99999GF106991990990025001991991MA1999990096021MD1909990+0071REMSYN004BUFR
0165832880999992014042318004-13262-043408FM-15+044399999V0202201N00211030481CN009999199+03401+01501999999ADDGA1021+009141991GA2041+030481991GE19MSL   +99999+99999GF199999021990009141991991MA1101201999990REMMET058METAR SBLP 231800Z 22004KT 9999 FEW030 SCT100 34/15 Q1012=
0142832880999992014042319004-13262-043408FM-15+044399999V0202401N003619999999N009999199+03501+01501999999ADDGA1021+009141991GE19MSL   +99999+99999GF199999021990009141991991MA1101201999990REMMET051METAR SBLP 231900Z 24007KT 9999 FEW030 35/15 Q1012=
0142832880999992014042320004-13262-043408FM-15+044399999V0202701N001519999999N009999199+03401+01701999999ADDGA1021+009141991GE19MSL   +99999+99999GF199999021990009141991991MA1101201999990REMMET051METAR SBLP 232000Z 27003KT 9999 FEW030 34/17 Q1012=
0142832880999992014042321004-13262-043408FM-15+044399999V0209999C000019999999N009999199+03201+01601999999ADDGA1021+009141991GE19MSL   +99999+99999GF199999021990009141991991MA1101201999990REMMET051METAR SBLP 232100Z 00000KT 9999 FEW030 32/16 Q1012=
0072832880999992014042409154-13262-043408FM-16+044399999V0209999C000019999999Y999999999+02201+01801999999ADDMA1101401999990REMMET045SPECI SBLP 240915Z 00000KT CAVOK 22/18 Q1014=
0072832880999992014042410004-13262-043408FM-15+044399999V0209999C000019999999Y999999999+02201+01801999999ADDMA1101501999990REMMET045METAR SBLP 241000Z 00000KT CAVOK 22/18 Q1015=
0072832880999992014042411004-13262-043408FM-15+044399999V0209999C000019999999Y999999999+02501+01801999999ADDMA1101601999990REMMET045METAR SBLP 241100Z 00000KT CAVOK 25/18 Q1016=
0149832880999992014042412004-13267-043417FM-12+044199999V0200501N0005199999999020000199+02891+01831101201ADDAA101999990AZ101061AZ201061GA1991+025001021GE19MSL   +99999+99999GF104991990990025001991991KA1120N+02201MA1999990096391MD1909990-0021REMSYN004BUFR
0072832880999992014042412004-13262-043408FM-15+044399999V0209999C000019999999Y999999999+02901+01701999999ADDMA1101601999990REMMET045METAR SBLP 241200Z 00000KT CAVOK 29/17 Q1016=
0072832880999992014042413004-13262-043408FM-15+044399999V0209999C000019999999Y999999999+03101+01601999999ADDMA1101601999990REMMET045METAR SBLP 241300Z 00000KT CAVOK 31/16 Q1016=
0142832880999992014042414004-13262-043408FM-15+044399999V0209999C000019999999N009999199+03301+01601999999ADDGA1021+009141991GE19MSL   +99999+99999GF199999021990009141991991MA1101501999990REMMET051METAR SBLP 241400Z 00000KT 9999 FEW030 33/16 Q1015=
0142832880999992014042415004-13262-043408FM-15+044399999V0202701N002619999999N009999199+03401+01601999999ADDGA1021+009141991GE19MSL   +99999+99999GF199999021990009141991991MA1101401999990REMMET051METAR SBLP 241500Z 27005KT 9999 FEW030 34/16 Q1014=
0165832880999992014042416004-13262-043408FM-15+044399999V0202701N00151030481CN009999199+03501+01501999999ADDGA1041+009141991GA2041+030481991GE19MSL   +99999+99999GF199999041990009141991991MA1101301999990REMMET058METAR SBLP 241600Z 27003KT 9999 SCT030 SCT100 35/15 Q1013=
0142832880999992014042417004-13262-043408FM-15+044399999V0209999C000019999999N009999199+03501+01401999999ADDGA1041+009141991GE19MSL   +99999+99999GF199999041990009141991991MA1101201999990REMMET051METAR SBLP 241700Z 00000KT 9999 SCT030 35/14 Q1012=
0152832880999992014042418004-13267-043417FM-12+044199999V0202701N0010199999999020000199+03571+01751100721ADDAA101999990AZ101061AZ201061GA1021+008001081GA2991+999991001GE19MSL   +99999+99999GF104991021990008001991991MA1999990095941MD1909990-0081REMSYN004BUFR
0142832880999992014042418004-13262-043408FM-15+044399999V0202501N001519999999N009999199+03501+01301999999ADDGA1021+009141991GE19MSL   +99999+99999GF199999021990009141991991MA1101101999990REMMET051METAR SBLP 241800Z 25003KT 9999 FEW030 35/13 Q1011=
0165832880999992014042419004-13262-043408FM-15+044399999V0209999C00001030481CN009999199+03501+01501999999ADDGA1021+009141991GA2041+030481991GE19MSL   +99999+99999GF199999021990009141991991MA1101101999990REMMET058METAR SBLP 241900Z 00000KT 9999 FEW030 SCT100 35/15 Q1011=
0142832880999992014042420004-13262-043408FM-15+044399999V0202201N002119999999N009999199+03401+01601999999ADDGA1021+009141991GE19MSL   +99999+99999GF199999021990009141991991MA1101101999990REMMET051METAR SBLP 242000Z 22004KT 9999 FEW030 34/16 Q1011=
0142832880999992014042421004-13262-043408FM-15+044399999V0209999C000019999999N009999199+03101+01601999999ADDGA1021+009141991GE19MSL   +99999+99999GF199999021990009141991991MA1101101999990REMMET051METAR SBLP 242100Z 00000KT 9999 FEW030 31/16 Q1011=
0072832880999992014042509154-13262-043408FM-16+044399999V0209999C000019999999Y999999999+02201+01801999999ADDMA1101201999990REMMET045SPECI SBLP 250915Z 00000KT CAVOK 22/18 Q1012=
0072832880999992014042510004-13262-043408FM-15+044399999V0209999C000019999999Y999999999+02401+01901999999ADDMA1101301999990REMMET045METAR SBLP 251000Z 00000KT CAVOK 24/19 Q1013=
0072832880999992014042511004-13262-043408FM-15+044399999V0201901N002119999999Y999999999+02501+01701999999ADDMA1101401999990REMMET045METAR SBLP 251100Z 19004KT CAVOK 25/17 Q1014=
0111832880999992014042512004-13267-043417FM-12+044199999V0202301N0015122000199020000199+02751+01911101041ADDAA101999990AZ101061AZ201061GF100991999999999999999999KA1120N+02101MA1999990096221MD1909990-0171REMSYN004BUFR
0072832880999992014042512004-13262-043408FM-15+044399999V0202101N004619999999Y999999999+02701+01901999999ADDMA1101401999990REMMET045METAR SBLP 251200Z 21009KT CAVOK 27/19 Q1014=
0072832880999992014042513004-13262-043408FM-15+044399999V0202301N003119999999Y999999999+02901+01801999999ADDMA1101401999990REMMET045METAR SBLP 251300Z 23006KT CAVOK 29/18 Q1014=
0142832880999992014042514004-13262-043408FM-15+044399999V0209999C000019999999N009999199+03101+01801999999ADDGA1021+009141991GE19MSL   +99999+99999GF199999021990009141991991MA1101301999990REMMET051METAR SBLP 251400Z 00000KT 9999 FEW030 31/18 Q1013=
0142832880999992014042515004-13262-043408FM-15+044399999V0209999C000019999999N009999199+03401+01501999999ADDGA1021+009141991GE19MSL   +99999+99999GF199999021990009141991991MA1101201999990REMMET051METAR SBLP 251500Z 00000KT 9999 FEW030 34/15 Q1012=
0142832880999992014042516004-13262-043408FM-15+044399999V0209999C000019999999N009999199+03501+01301999999ADDGA1021+009141991GE19MSL   +99999+99999GF199999021990009141991991MA1101101999990REMMET051METAR SBLP 251600Z 00000KT 9999 FEW030 35/13 Q1011=
0142832880999992014042517004-13262-043408FM-15+044399999V0202501N002619999999N009999199+03701+01201999999ADDGA1021+009141991GE19MSL   +99999+99999GF199999021990009141991991MA1101001999990REMMET051METAR SBLP 251700Z 25005KT 9999 FEW030 37/12 Q1010=
0136832880999992014042518004-13267-043417FM-12+044199999V0202301N0010100800199020000199+03491+01531100511ADDAA101999990AZ101061AZ201061GA1051+008001081GE19MSL   +99999+99999GF105991051990008001991991MA1999990095741MD1909990-0201REMSYN004BUFR
0142832880999992014042518004-13262-043408FM-15+044399999V0202401N002119999999N009999199+03501+01301999999ADDGA1041+009141991GE19MSL   +99999+99999GF199999041990009141991991MA1100901999990REMMET051METAR SBLP 251800Z 24004KT 9999 SCT030 35/13 Q1009=
0142832880999992014042519004-13262-043408FM-15+044399999V0202201N001519999999N009999199+03501+01401999999ADDGA1021+009141991GE19MSL   +99999+99999GF199999021990009141991991MA1100901999990REMMET051METAR SBLP 251900Z 22003KT 9999 FEW030 35/14 Q1009=
0142832880999992014042520004-13262-043408FM-15+044399999V0202401N001019999999N009999199+03501+01501999999ADDGA1021+009141991GE19MSL   +99999+99999GF199999021990009141991991MA1100901999990REMMET051METAR SBLP 252000Z 24002KT 9999 FEW030 35/15 Q1009=
0142832880999992014042521004-13262-043408FM-15+044399999V0202401N001019999999N009999199+03301+01501999999ADDGA1021+009141991GE19MSL   +99999+99999GF199999021990009141991991MA1100901999990REMMET051METAR SBLP 252100Z 24002KT 9999 FEW030 33/15 Q1009=
0149832880999992014042612004-13267-043417FM-12+044199999V0200501N0026199999999020000199+03041+01941101061ADDAA101999990AZ101061AZ201061GA1991+025001011GE19MSL   +99999+99999GF101991990990025001991991KA1120N+02441MA1999990096261MD1909990+0021REMSYN004BUFR
0152832880999992014042618004-13267-043417FM-12+044199999V0203201N0021199999999020000199+03241+02131100601ADDAA101999990AZ101061AZ201061GA1031+008001081GA2991+999991001GE19MSL   +99999+99999GF107991031990008001991991MA1999990095811MD1909990+0071REMSYN004BUFR
0149832880999992014042712004-13267-043417FM-12+044199999V0201401N0021100800199020000199+02521+02171101451ADDAA124008031AZ101061AZ201061GA1061+008001081GE19MSL   +99999+99999GF106991061990008001991991KA1120N+02201MA1999990096531MD1909990+0271REMSYN004BUFR
0136832880999992014042718004-13267-043417FM-12+044199999V0201401N0015199999999020000199+03041+02031101031ADDAA101999990AZ101061AZ201061GA1041+008001081GE19MSL   +99999+99999GF104991041990008001991991MA1999990096161MD1909990+0351REMSYN004BUFR
0072832880999992014042809154-13262-043408FM-16+044399999V0201501N001519999999Y999999999+02001+01801999999ADDMA1101701999990REMMET045SPECI SBLP 280915Z 15003KT CAVOK 20/18 Q1017=
0072832880999992014042810004-13262-043408FM-15+044399999V0201801N001019999999Y999999999+02001+01801999999ADDMA1101801999990REMMET045METAR SBLP 281000Z 18002KT CAVOK 20/18 Q1018=
0072832880999992014042811004-13262-043408FM-15+044399999V0202101N003119999999Y999999999+02301+02001999999ADDMA1101901999990REMMET045METAR SBLP 281100Z 21006KT CAVOK 23/20 Q1019=
0149832880999992014042812004-13267-043417FM-12+044199999V0201401N0026199999999020000199+02501+01821101621ADDAA101999990AZ101061AZ201061GA1991+025001011GE19MSL   +99999+99999GF101991990990025001991991KA1120N+02121MA1999990096711MD1909990+0181REMSYN004BUFR
0072832880999992014042812004-13262-043408FM-15+044399999V0201701N004119999999Y999999999+02601+01801999999ADDMA1101901999990REMMET045METAR SBLP 281200Z 17008KT CAVOK 26/18 Q1019=
0142832880999992014042813004-13262-043408FM-15+044399999V0201301N003619999999N009999199+02801+01701999999ADDGA1021+009141991GE19MSL   +99999+99999GF199999021990009141991991MA1101901999990REMMET051METAR SBLP 281300Z 13007KT 9999 FEW030 28/17 Q1019=
0142832880999992014042814004-13262-043408FM-15+044399999V0201401N005119999999N009999199+03001+01601999999ADDGA1041+009141991GE19MSL   +99999+99999GF199999041990009141991991MA1101901999990REMMET051METAR SBLP 281400Z 14010KT 9999 SCT030 30/16 Q1019=
0142832880999992014042815004-13262-043408FM-15+044399999V0201501N005719999999N009999199+03101+01401999999ADDGA1041+009141991GE19MSL   +99999+99999GF199999041990009141991991MA1101801999990REMMET051METAR SBLP 281500Z 15011KT 9999 SCT030 31/14 Q1018=
0142832880999992014042816004-13262-043408FM-15+044399999V0200801N004119999999N009999199+03001+01401999999ADDGA1041+009141991GE19MSL   +99999+99999GF199999041990009141991991MA1101701999990REMMET051METAR SBLP 281600Z 08008KT 9999 SCT030 30/14 Q1017=
0142832880999992014042817004-13262-043408FM-15+044399999V0201101N001519999999N009999199+03101+01401999999ADDGA1041+009141991GE19MSL   +99999+99999GF199999041990009141991991MA1101601999990REMMET051METAR SBLP 281700Z 11003KT 9999 SCT030 31/14 Q1016=
0136832880999992014042818004-13267-043417FM-12+044199999V0200901N0026199999999020000199+03091+01561101201ADDAA101999990AZ101061AZ201061GA1021+008001081GE19MSL   +99999+99999GF102991021990008001991991MA1999990096351MD1909990+0191REMSYN004BUFR
0142832880999992014042818004-13262-043408FM-15+044399999V0201501N002619999999N009999199+03101+01401999999ADDGA1041+009141991GE19MSL   +99999+99999GF199999041990009141991991MA1101501999990REMMET051METAR SBLP 281800Z 15005KT 9999 SCT030 31/14 Q1015=
0142832880999992014042819004-13262-043408FM-15+044399999V0201401N006219999999N009999199+03001+01401999999ADDGA1041+009141991GE19MSL   +99999+99999GF199999041990009141991991MA1101501999990REMMET051METAR SBLP 281900Z 14012KT 9999 SCT030 30/14 Q1015=
0142832880999992014042820004-13262-043408FM-15+044399999V0201201N005119999999N009999199+03001+01401999999ADDGA1021+009141991GE19MSL   +99999+99999GF199999021990009141991991MA1101501999990REMMET051METAR SBLP 282000Z 12010KT 9999 FEW030 30/14 Q1015=
0142832880999992014042821004-13262-043408FM-15+044399999V0201501N003119999999N009999199+02801+01401999999ADDGA1021+009141991GE19MSL   +99999+99999GF199999021990009141991991MA1101601999990REMMET051METAR SBLP 282100Z 15006KT 9999 FEW030 28/14 Q1016=
0098832880999992014042900004-13267-043417FM-12+044199999V0201401N0021122000199002000199+02301+01401101401ADDAA101999990AZ101061AZ201061GF100991999999999999999999MA1999990096481MD1909990+0111REMSYN004BUFR
0072832880999992014042909154-13262-043408FM-16+044399999V0201901N002619999999Y999999999+01801+01401999999ADDMA1101801999990REMMET045SPECI SBLP 290915Z 19005KT CAVOK 18/14 Q1018=
0072832880999992014042910004-13262-043408FM-15+044399999V0201701N003119999999Y999999999+01901+01501999999ADDMA1101801999990REMMET045METAR SBLP 291000Z 17006KT CAVOK 19/15 Q1018=
0072832880999992014042911004-13262-043408FM-15+044399999V0201401N004119999999Y999999999+02101+01501999999ADDMA1101901999990REMMET045METAR SBLP 291100Z 14008KT CAVOK 21/15 Q1019=
0149832880999992014042912004-13267-043417FM-12+044199999V0201401N0021199999999020000199+02321+01371101711ADDAA101999990AZ101061AZ201061GA1991+025001021GE19MSL   +99999+99999GF104991990990025001991991KA1120N+01821MA1999990096751MD1909990+0041REMSYN004BUFR
0072832880999992014042912004-13262-043408FM-15+044399999V0201501N003619999999Y999999999+02401+01401999999ADDMA1102001999990REMMET045METAR SBLP 291200Z 15007KT CAVOK 24/14 Q1020=
0072832880999992014042913004-13262-043408FM-15+044399999V0201601N002619999999Y999999999+02601+01501999999ADDMA1102001999990REMMET045METAR SBLP 291300Z 16005KT CAVOK 26/15 Q1020=
0142832880999992014042914004-13262-043408FM-15+044399999V0201101N002619999999N009999199+02801+01401999999ADDGA1021+009141991GE19MSL   +99999+99999GF199999021990009141991991MA1101901999990REMMET051METAR SBLP 291400Z 11005KT 9999 FEW030 28/14 Q1019=
0142832880999992014042915004-13262-043408FM-15+044399999V0201501N002119999999N009999199+02901+01201999999ADDGA1021+009141991GE19MSL   +99999+99999GF199999021990009141991991MA1101801999990REMMET051METAR SBLP 291500Z 15004KT 9999 FEW030 29/12 Q1018=
0142832880999992014042916004-13262-043408FM-15+044399999V0201301N003119999999N009999199+02901+01301999999ADDGA1021+009141991GE19MSL   +99999+99999GF199999021990009141991991MA1101701999990REMMET051METAR SBLP 291600Z 13006KT 9999 FEW030 29/13 Q1017=
0142832880999992014042917004-13262-043408FM-15+044399999V0201601N001519999999N009999199+02901+01301999999ADDGA1021+009141991GE19MSL   +99999+99999GF199999021990009141991991MA1101601999990REMMET051METAR SBLP 291700Z 16003KT 9999 FEW030 29/13 Q1016=
0152832880999992014042918004-13267-043417FM-12+044199999V0200901N0015199999999020000199+02971+01391101241ADDAA101999990AZ101061AZ201061GA1021+008001081GA2991+999991021GE19MSL   +99999+99999GF106991021990008001991991MA1999990096331MD1909990-0021REMSYN004BUFR
0142832880999992014042918004-13262-043408FM-15+044399999V0200901N002619999999N009999199+03001+01301999999ADDGA1021+009141991GE19MSL   +99999+99999GF199999021990009141991991MA1101501999990REMMET051METAR SBLP 291800Z 09005KT 9999 FEW030 30/13 Q1015=
0142832880999992014042919004-13262-043408FM-15+044399999V0201601N004119999999N009999199+02901+01301999999ADDGA1021+009141991GE19MSL   +99999+99999GF199999021990009141991991MA1101501999990REMMET051METAR SBLP 291900Z 16008KT 9999 FEW030 29/13 Q1015=
0142832880999992014042920004-13262-043408FM-15+044399999V0201501N003619999999N009999199+02901+01401999999ADDGA1021+009141991GE19MSL   +99999+99999GF199999021990009141991991MA1101601999990REMMET051METAR SBLP 292000Z 15007KT 9999 FEW030 29/14 Q1016=
0072832880999992014042921004-13262-043408FM-15+044399999V0201301N002619999999Y999999999+02701+01501999999ADDMA1101601999990REMMET045METAR SBLP 292100Z 13005KT CAVOK 27/15 Q1016=
0152832880999992014043000004-13267-043417FM-12+044199999V0201401N0010199999999002000199+02321+01541101441ADDAA101999990AZ101061AZ201061GA1011+008001081GA2991+999991031GE19MSL   +99999+99999GF102991011990008001991991MA1999990096501MD1909990+0021REMSYN004BUFR
0072832880999992014043009154-13262-043408FM-16+044399999V0209999C000019999999Y999999999+01701+01601999999ADDMA1101601999990REMMET045SPECI SBLP 300915Z 00000KT CAVOK 17/16 Q1016=
0072832880999992014043010004-13262-043408FM-15+044399999V0209999C000019999999Y999999999+01901+01601999999ADDMA1101601999990REMMET045METAR SBLP 301000Z 00000KT CAVOK 19/16 Q1016=
0072832880999992014043011004-13262-043408FM-15+044399999V0201801N004619999999Y999999999+02101+01501999999ADDMA1101701999990REMMET045METAR SBLP 301100Z 18009KT CAVOK 21/15 Q1017=
0111832880999992014043012004-13267-043417FM-12+044199999V0200901N0010122000199020000199+02371+01571101421ADDAA101999990AZ101061AZ201061GF100991999999999999999999KA1120N+01801MA1999990096491MD1909990-0261REMSYN004BUFR
0072832880999992014043012004-13262-043408FM-15+044399999V0201601N002619999999Y999999999+02401+01501999999ADDMA1101701999990REMMET045METAR SBLP 301200Z 16005KT CAVOK 24/15 Q1017=
0142832880999992014043013004-13262-043408FM-15+044399999V0201601N004119999999N009999199+02601+01501999999ADDGA1021+009141991GE19MSL   +99999+99999GF199999021990009141991991MA1101701999990REMMET051METAR SBLP 301300Z 16008KT 9999 FEW030 26/15 Q1017=
0142832880999992014043014004-13262-043408FM-15+044399999V0201501N002119999999N009999199+02701+01501999999ADDGA1021+009141991GE19MSL   +99999+99999GF199999021990009141991991MA1101601999990REMMET051METAR SBLP 301400Z 15004KT 9999 FEW030 27/15 Q1016=
0142832880999992014043015004-13262-043408FM-15+044399999V0202101N002119999999N009999199+02801+01401999999ADDGA1041+009141991GE19MSL   +99999+99999GF199999041990009141991991MA1101501999990REMMET051METAR SBLP 301500Z 21004KT 9999 SCT030 28/14 Q1015=
0142832880999992014043016004-13262-043408FM-15+044399999V0201001N002619999999N009999199+03001+01201999999ADDGA1041+009141991GE19MSL   +99999+99999GF199999041990009141991991MA1101401999990REMMET051METAR SBLP 301600Z 10005KT 9999 SCT030 30/12 Q1014=
0142832880999992014043017004-13262-043408FM-15+044399999V0200801N003619999999N009999199+03101+01201999999ADDGA1041+009141991GE19MSL   +99999+99999GF199999041990009141991991MA1101401999990REMMET051METAR SBLP 301700Z 08007KT 9999 SCT030 31/12 Q1014=
0136832880999992014043018004-13267-043417FM-12+044199999V0200901N0015199999999020000199+02991+01441101031ADDAA101999990AZ101061AZ201061GA1031+008001081GE19MSL   +99999+99999GF103991031990008001991991MA1999990096141MD1909990-0191REMSYN004BUFR
0142832880999992014043018004-13262-043408FM-15+044399999V0200701N005119999999N009999199+03101+01301999999ADDGA1021+009141991GE19MSL   +99999+99999GF199999021990009141991991MA1101301999990REMMET051METAR SBLP 301800Z 07010KT 9999 FEW030 31/13 Q1013=
0142832880999992014043019004-13262-043408FM-15+044399999V0201101N004619999999N009999199+03001+01401999999ADDGA1021+009141991GE19MSL   +99999+99999GF199999021990009141991991MA1101301999990REMMET051METAR SBLP 301900Z 11009KT 9999 FEW030 30/14 Q1013=
0142832880999992014043020004-13262-043408FM-15+044399999V0200901N002619999999N009999199+03001+01301999999ADDGA1021+009141991GE19MSL   +99999+99999GF199999021990009141991991MA1101301999990REMMET051METAR SBLP 302000Z 09005KT 9999 FEW030 30/13 Q1013=
0142832880999992014043021004-13262-043408FM-15+044399999V0200501N002119999999N009999199+02801+01401999999ADDGA1021+009141991GE19MSL   +99999+99999GF199999021990009141991991MA1101301999990REMMET051METAR SBLP 302100Z 05004KT 9999 FEW030 28/14 Q1013=
0136832880999992014050100004-13267-043417FM-12+044199999V0201801N0005199999999002000199+02471+01641101161ADDAA101999990AZ101061AZ201061GA1991+025001001GE19MSL   +99999+99999GF102991990990025001991991MA1999990096251MD1909990-0251REMSYN004BUFR
0072832880999992014050109154-13262-043408FM-16+044399999V0209999C000019999999Y999999999+01701+01501999999ADDMA1101501999990REMMET045SPECI SBLP 010915Z 00000KT CAVOK 17/15 Q1015=
0072832880999992014050110004-13262-043408FM-15+044399999V0201801N001519999999Y999999999+01801+01501999999ADDMA1101601999990REMMET045METAR SBLP 011000Z 18003KT CAVOK 18/15 Q1016=
0072832880999992014050111004-13262-043408FM-15+044399999V0201501N002119999999Y999999999+02201+01401999999ADDMA1101701999990REMMET045METAR SBLP 011100Z 15004KT CAVOK 22/14 Q1017=
0111832880999992014050112004-13267-043417FM-12+044199999V0201401N0005122000199020000199+02471+01621101411ADDAA101999990AZ101061AZ201061GF100991999999999999999999KA1120N+01741MA1999990096511MD1909990+0021REMSYN004BUFR
0072832880999992014050112004-13262-043408FM-15+044399999V0201001N003119999999Y999999999+02601+01601999999ADDMA1101701999990REMMET045METAR SBLP 011200Z 10006KT CAVOK 26/16 Q1017=
0072832880999992014050113004-13262-043408FM-15+044399999V0202101N001519999999Y999999999+02801+01501999999ADDMA1101701999990REMMET045METAR SBLP 011300Z 21003KT CAVOK 28/15 Q1017=
0142832880999992014050115004-13262-043408FM-15+044399999V0202101N001019999999N009999199+03101+01501999999ADDGA1041+009141991GE19MSL   +99999+99999GF199999041990009141991991MA1101501999990REMMET051METAR SBLP 011500Z 21002KT 9999 SCT030 31/15 Q1015=
0142832880999992014050116004-13262-043408FM-15+044399999V0201401N004619999999N009999199+03101+01401999999ADDGA1041+009141991GE19MSL   +99999+99999GF199999041990009141991991MA1101401999990REMMET051METAR SBLP 011600Z 14009KT 9999 SCT030 31/14 Q1014=
0142832880999992014050117004-13262-043408FM-15+044399999V0209999C000019999999N009999199+03201+01501999999ADDGA1041+009141991GE19MSL   +99999+99999GF199999041990009141991991MA1101301999990REMMET051METAR SBLP 011700Z 00000KT 9999 SCT030 32/15 Q1013=
0136832880999992014050118004-13267-043417FM-12+044199999V0202301N0005100800199020000199+03241+01631100851ADDAA101999990AZ101061AZ201061GA1051+008001081GE19MSL   +99999+99999GF105991051990008001991991MA1999990095991MD1909990-0151REMSYN004BUFR
0142832880999992014050118004-13262-043408FM-15+044399999V0209999C000019999999N009999199+03301+01601999999ADDGA1041+009141991GE19MSL   +99999+99999GF199999041990009141991991MA1101201999990REMMET051METAR SBLP 011800Z 00000KT 9999 SCT030 33/16 Q1012=
0142832880999992014050119004-13262-043408FM-15+044399999V0201401N002119999999N009999199+03201+01501999999ADDGA1041+009141991GE19MSL   +99999+99999GF199999041990009141991991MA1101201999990REMMET051METAR SBLP 011900Z 14004KT 9999 SCT030 32/15 Q1012=
0142832880999992014050120004-13262-043408FM-15+044399999V0200601N002119999999N009999199+03101+01501999999ADDGA1041+009141991GE19MSL   +99999+99999GF199999041990009141991991MA1101201999990REMMET051METAR SBLP 012000Z 06004KT 9999 SCT030 31/15 Q1012=
0142832880999992014050121004-13262-043408FM-15+044399999V0203101N001519999999N009999199+03001+01601999999ADDGA1021+009141991GE19MSL   +99999+99999GF199999021990009141991991MA1101201999990REMMET051METAR SBLP 012100Z 31003KT 9999 FEW030 30/16 Q1012=
0072832880999992014050209154-13262-043408FM-16+044399999V0209999C000019999999Y999999999+02001+01701999999ADDMA1101601999990REMMET045SPECI SBLP 020915Z 00000KT CAVOK 20/17 Q1016=
0072832880999992014050210004-13262-043408FM-15+044399999V0209999C000019999999Y999999999+02001+01801999999ADDMA1101601999990REMMET045METAR SBLP 021000Z 00000KT CAVOK 20/18 Q1016=
0072832880999992014050211004-13262-043408FM-15+044399999V0201801N002619999999Y999999999+02301+01801999999ADDMA1101701999990REMMET045METAR SBLP 021100Z 18005KT CAVOK 23/18 Q1017=
0149832880999992014050212004-13267-043417FM-12+044199999V0202301N0010199999999020000199+02541+01741101401ADDAA101999990AZ101061AZ201061GA1021+025001021GE19MSL   +99999+99999GF102991021990025001991991KA1120N+02021MA1999990096531MD1909990+0021REMSYN004BUFR
0072832880999992014050212004-13262-043408FM-15+044399999V0202301N002119999999Y999999999+02701+01801999999ADDMA1101701999990REMMET045METAR SBLP 021200Z 23004KT CAVOK 27/18 Q1017=
0142832880999992014050213004-13262-043408FM-15+044399999V0209999C000019999999N009999199+03001+01701999999ADDGA1021+009141991GE19MSL   +99999+99999GF199999021990009141991991MA1101701999990REMMET051METAR SBLP 021300Z 00000KT 9999 FEW030 30/17 Q1017=
0142832880999992014050214004-13262-043408FM-15+044399999V0200901N002619999999N009999199+03201+01501999999ADDGA1021+009141991GE19MSL   +99999+99999GF199999021990009141991991MA1101701999990REMMET051METAR SBLP 021400Z 09005KT 9999 FEW030 32/15 Q1017=
0142832880999992014050215004-13262-043408FM-15+044399999V0200701N002119999999N009999199+03301+01401999999ADDGA1021+009141991GE19MSL   +99999+99999GF199999021990009141991991MA1101501999990REMMET051METAR SBLP 021500Z 07004KT 9999 FEW030 33/14 Q1015=
0142832880999992014050216004-13262-043408FM-15+044399999V0201201N002119999999N009999199+03201+01401999999ADDGA1021+009141991GE19MSL   +99999+99999GF199999021990009141991991MA1101401999990REMMET051METAR SBLP 021600Z 12004KT 9999 FEW030 32/14 Q1014=
0142832880999992014050217004-13262-043408FM-15+044399999V0202501N003619999999N009999199+03301+01501999999ADDGA1041+009141991GE19MSL   +99999+99999GF199999041990009141991991MA1101401999990REMMET051METAR SBLP 021700Z 25007KT 9999 SCT030 33/15 Q1014=
0168832880999992014050218004-13267-043417FM-12+044199999V0203201N0010199999999020000199+03391+01721100901ADDAA101999990AZ101061AZ201061GA1031+008001081GA2991+999991051GA3991+999991021GE19MSL   +99999+99999GF106991031990008001991991MA1999990096091MD1909990+0101REMSYN004BUFR
0142832880999992014050218004-13262-043408FM-15+044399999V0202701N004119999999N009999199+03301+01501999999ADDGA1041+009141991GE19MSL   +99999+99999GF199999041990009141991991MA1101301999990REMMET051METAR SBLP 021800Z 27008KT 9999 SCT030 33/15 Q1013=
0142832880999992014050219004-13262-043408FM-15+044399999V0202201N001510091419N009999199+03301+01501999999ADDGA1071+009141991GE19MSL   +99999+99999GF199999071990009141991991MA1101301999990REMMET051METAR SBLP 021900Z 22003KT 9999 BKN030 33/15 Q1013=
0142832880999992014050220004-13262-043408FM-15+044399999V0200901N001519999999N009999199+03301+01401999999ADDGA1021+009141991GE19MSL   +99999+99999GF199999021990009141991991MA1101301999990REMMET051METAR SBLP 022000Z 09003KT 9999 FEW030 33/14 Q1013=
0072832880999992014050221004-13262-043408FM-15+044399999V0209999C000019999999Y999999999+02901+01601999999ADDMA1101401999990REMMET045METAR SBLP 022100Z 00000KT CAVOK 29/16 Q1014=
0136832880999992014050300004-13267-043417FM-12+044199999V0201401N0015100800199002000199+02791+01951101221ADDAA101999990AZ101061AZ201061GA1051+008001081GE19MSL   +99999+99999GF105991051990008001991991MA1999990096371MD1909990+0061REMSYN004BUFR
0149832880999992014050312004-13267-043417FM-12+044199999V0200901N0010199999999020000199+02721+01771101451ADDAA101999990AZ101061AZ201061GA1991+025001021GE19MSL   +99999+99999GF102991990990025001991991KA1120N+02101MA1999990096601MD1909990+0071REMSYN004BUFR
0152832880999992014050318004-13267-043417FM-12+044199999V0203601N0000100800199020000199+02991+01921101141ADDAA101999990AZ101061AZ201061GA1061+008001081GA2991+999991001GE19MSL   +99999+99999GF106991061990008001991991MA1999990096241MD1909990+0151REMSYN004BUFR
0149832880999992014050412004-13267-043417FM-12+044199999V0201401N0021199999999020000199+02521+01631101701ADDAA101999990AZ101061AZ201061GA1021+017501031GE19MSL   +99999+99999GF102991021990017501991991KA1120N+01941MA1999990096791MD1909990+0191REMSYN004BUFR
0136832880999992014050418004-13267-043417FM-12+044199999V0201401N0021199999999020000199+03171+01601101111ADDAA101999990AZ101061AZ201061GA1021+008001081GE19MSL   +99999+99999GF102991021990008001991991MA1999990096261MD1909990+0021REMSYN004BUFR
0165832880999992014050509154-13262-043408FM-16+044399999V0209999C00001030481CN009999199+02201+01801999999ADDGA1021+006101991GA2041+030481991GE19MSL   +99999+99999GF199999021990006101991991MA1101701999990REMMET058SPECI SBLP 050915Z 00000KT 9999 FEW020 SCT100 22/18 Q1017=
0165832880999992014050510004-13262-043408FM-15+044399999V0202001N00151030481CN009999199+02301+01801999999ADDGA1021+009141991GA2041+030481991GE19MSL   +99999+99999GF199999021990009141991991MA1101701999990REMMET058METAR SBLP 051000Z 20003KT 9999 FEW030 SCT100 23/18 Q1017=
0142832880999992014050511004-13262-043408FM-15+044399999V0201601N002119999999N009999199+02501+01801999999ADDGA1021+009141991GE19MSL   +99999+99999GF199999021990009141991991MA1101801999990REMMET051METAR SBLP 051100Z 16004KT 9999 FEW030 25/18 Q1018=
0111832880999992014050512004-13267-043417FM-12+044199999V0202301N0010122000199020000199+02541+01741101531ADDAA101999990AZ101061AZ201061GF100991999999999999999999KA1120N+02241MA1999990096641MD1909990-0151REMSYN004BUFR
0072832880999992014050512004-13262-043408FM-15+044399999V0202301N002619999999Y999999999+02601+01801999999ADDMA1101801999990REMMET045METAR SBLP 051200Z 23005KT CAVOK 26/18 Q1018=
0142832880999992014050513004-13262-043408FM-15+044399999V0202601N003619999999N009999199+02901+01701999999ADDGA1021+009141991GE19MSL   +99999+99999GF199999021990009141991991MA1101801999990REMMET051METAR SBLP 051300Z 26007KT 9999 FEW030 29/17 Q1018=
0142832880999992014050514004-13262-043408FM-15+044399999V0201301N003619999999N009999199+03101+01601999999ADDGA1021+009141991GE19MSL   +99999+99999GF199999021990009141991991MA1101701999990REMMET051METAR SBLP 051400Z 13007KT 9999 FEW030 31/16 Q1017=
0142832880999992014050515004-13262-043408FM-15+044399999V0202101N001019999999N009999199+03301+01601999999ADDGA1041+009141991GE19MSL   +99999+99999GF199999041990009141991991MA1101601999990REMMET051METAR SBLP 051500Z 21002KT 9999 SCT030 33/16 Q1016=
0142832880999992014050516004-13262-043408FM-15+044399999V0209999C000019999999N009999199+03201+01601999999ADDGA1041+009141991GE19MSL   +99999+99999GF199999041990009141991991MA1101501999990REMMET051METAR SBLP 051600Z 00000KT 9999 SCT030 32/16 Q1015=
0142832880999992014050517004-13262-043408FM-15+044399999V0201501N004119999999N009999199+03301+01501999999ADDGA1041+009141991GE19MSL   +99999+99999GF199999041990009141991991MA1101401999990REMMET051METAR SBLP 051700Z 15008KT 9999 SCT030 33/15 Q1014=
0136832880999992014050518004-13267-043417FM-12+044199999V0200901N0015199999999020000199+03221+01581100961ADDAA101999990AZ101061AZ201061GA1041+008001081GE19MSL   +99999+99999GF104991041990008001991991MA1999990096121MD1909990-0141REMSYN004BUFR
0142832880999992014050518004-13262-043408FM-15+044399999V0200801N004119999999N009999199+03301+01501999999ADDGA1041+009141991GE19MSL   +99999+99999GF199999041990009141991991MA1101301999990REMMET051METAR SBLP 051800Z 08008KT 9999 SCT030 33/15 Q1013=
0142832880999992014050519004-13262-043408FM-15+044399999V0201701N003619999999N009999199+03301+01501999999ADDGA1041+009141991GE19MSL   +99999+99999GF199999041990009141991991MA1101301999990REMMET051METAR SBLP 051900Z 17007KT 9999 SCT030 33/15 Q1013=
0142832880999992014050520004-13262-043408FM-15+044399999V0201201N005119999999N009999199+03201+01501999999ADDGA1021+009141991GE19MSL   +99999+99999GF199999021990009141991991MA1101301999990REMMET051METAR SBLP 052000Z 12010KT 9999 FEW030 32/15 Q1013=
0142832880999992014050521004-13262-043408FM-15+044399999V0201201N005119999999N009999199+03001+01501999999ADDGA1021+009141991GE19MSL   +99999+99999GF199999021990009141991991MA1101401999990REMMET051METAR SBLP 052100Z 12010KT 9999 FEW030 30/15 Q1014=
0098832880999992014050600004-13267-043417FM-12+044199999V0200901N0005122000199002000199+02521+01351101231ADDAA101999990AZ101061AZ201061GF100991999999999999999999MA1999990096351MD1909990-0121REMSYN004BUFR
0072832880999992014050609154-13262-043408FM-16+044399999V0202101N002119999999Y999999999+02001+01601999999ADDMA1101701999990REMMET045SPECI SBLP 060915Z 21004KT CAVOK 20/16 Q1017=
0072832880999992014050610004-13262-043408FM-15+044399999V0201801N001519999999Y999999999+02001+01601999999ADDMA1101801999990REMMET045METAR SBLP 061000Z 18003KT CAVOK 20/16 Q1018=
0072832880999992014050611004-13262-043408FM-15+044399999V0209999C000019999999Y999999999+02401+01701999999ADDMA1101801999990REMMET045METAR SBLP 061100Z 00000KT CAVOK 24/17 Q1018=
0149832880999992014050612004-13267-043417FM-12+044199999V0201401N0010199999999020000199+02701+01511101531ADDAA101999990AZ101061AZ201061GA1991+025001001GE19MSL   +99999+99999GF102991990990025001991991KA1120N+01921MA1999990096641MD1909990+0001REMSYN004BUFR
0072832880999992014050612004-13262-043408FM-15+044399999V0201201N003119999999Y999999999+02801+01601999999ADDMA1101901999990REMMET045METAR SBLP 061200Z 12006KT CAVOK 28/16 Q1019=
0072832880999992014050613004-13262-043408FM-15+044399999V0201101N003619999999Y999999999+03001+01501999999ADDMA1101801999990REMMET045METAR SBLP 061300Z 11007KT CAVOK 30/15 Q1018=
0142832880999992014050616004-13262-043408FM-15+044399999V0201001N003619999999N009999199+03401+01501999999ADDGA1041+009141991GE19MSL   +99999+99999GF199999041990009141991991MA1101501999990REMMET051METAR SBLP 061600Z 10007KT 9999 SCT030 34/15 Q1015=
0142832880999992014050617004-13262-043408FM-15+044399999V0200901N003619999999N009999199+03401+01601999999ADDGA1041+009141991GE19MSL   +99999+99999GF199999041990009141991991MA1101401999990REMMET051METAR SBLP 061700Z 09007KT 9999 SCT030 34/16 Q1014=
0136832880999992014050618004-13267-043417FM-12+044199999V0200501N0005199999999020000199+03371+01481101011ADDAA101999990AZ101061AZ201061GA1041+008001081GE19MSL   +99999+99999GF104991041990008001991991MA1999990096171MD1909990+0051REMSYN004BUFR
0161832880999992014050618004-13262-043408FM-15+044399999V0201501N004619999999N009999199+99999+02101999999ADDGA1041+009141991GE19MSL   +99999+99999GF199999041990009141991991MA1101401999990REMMET051METAR SBLP 061800Z 15009KT 9999 SCT030 25/21 Q1014=EQDQ0125    3ATOT  
0142832880999992014050619004-13262-043408FM-15+044399999V0200601N001519999999N009999199+03301+01501999999ADDGA1041+009141991GE19MSL   +99999+99999GF199999041990009141991991MA1101301999990REMMET051METAR SBLP 061900Z 06003KT 9999 SCT030 33/15 Q1013=
0142832880999992014050620004-13262-043408FM-15+044399999V0200801N002119999999N009999199+03301+01501999999ADDGA1041+009141991GE19MSL   +99999+99999GF199999041990009141991991MA1101401999990REMMET051METAR SBLP 062000Z 08004KT 9999 SCT030 33/15 Q1014=
0142832880999992014050621004-13262-043408FM-15+044399999V0201201N003619999999N009999199+03101+01501999999ADDGA1041+009141991GE19MSL   +99999+99999GF199999041990009141991991MA1101401999990REMMET051METAR SBLP 062100Z 12007KT 9999 SCT030 31/15 Q1014=
0098832880999992014050700004-13267-043417FM-12+044199999V0200901N0015122000199002000199+02621+01791101261ADDAA101999990AZ101061AZ201061GF100991999999999999999999MA1999990096411MD1909990+0061REMSYN004BUFR
0165832880999992014050709154-13262-043408FM-16+044399999V0209999C000010304819N009999199+02201+01901999999ADDGA1021+009141991GA2071+030481991GE19MSL   +99999+99999GF199999021990009141991991MA1101801999990REMMET058SPECI SBLP 070915Z 00000KT 9999 FEW030 BKN100 22/19 Q1018=
0165832880999992014050710004-13262-043408FM-15+044399999V0209999C000010304819N009999199+02301+02001999999ADDGA1021+009141991GA2071+030481991GE19MSL   +99999+99999GF199999021990009141991991MA1101801999990REMMET058METAR SBLP 071000Z 00000KT 9999 FEW030 BKN100 23/20 Q1018=
0142832880999992014050711004-13262-043408FM-15+044399999V0201701N002619999999N009999199+02601+02001999999ADDGA1021+009141991GE19MSL   +99999+99999GF199999021990009141991991MA1101901999990REMMET051METAR SBLP 071100Z 17005KT 9999 FEW030 26/20 Q1019=
0149832880999992014050712004-13267-043417FM-12+044199999V0202301N0010199999999020000199+02641+01991101571ADDAA101999990AZ101061AZ201061GA1021+012501031GE19MSL   +99999+99999GF102991021990012501991991KA1120N+02221MA1999990096681MD1909990+0041REMSYN004BUFR
0142832880999992014050712004-13262-043408FM-15+044399999V0202401N001519999999N009999199+02801+02001999999ADDGA1021+009141991GE19MSL   +99999+99999GF199999021990009141991991MA1101901999990REMMET051METAR SBLP 071200Z 24003KT 9999 FEW030 28/20 Q1019=
0142832880999992014050713004-13262-043408FM-15+044399999V0202501N003119999999N009999199+03001+02001999999ADDGA1021+009141991GE19MSL   +99999+99999GF199999021990009141991991MA1101901999990REMMET051METAR SBLP 071300Z 25006KT 9999 FEW030 30/20 Q1019=
0175832880999992014050715004-13262-043408FM-15+044399999V0201601N004110304819N009999199+02801+02201999999ADDGA1041+006101991GA2071+030481991GE19MSL   +99999+99999GF199999041990006101991991MA1101801999990MW1611REMMET062METAR SBLP 071500Z 16008KT 9999 -RA SCT020 BKN100 28/22 Q1018=
0165832880999992014050716004-13262-043408FM-15+044399999V0209999C000010304819N009999199+02901+02401999999ADDGA1041+009141991GA2071+030481991GE19MSL   +99999+99999GF199999041990009141991991MA1101701999990REMMET058METAR SBLP 071600Z 00000KT 9999 SCT030 BKN100 29/24 Q1017=
0165832880999992014050717004-13262-043408FM-15+044399999V0201501N001510304819N009999199+02901+02001999999ADDGA1041+009141991GA2071+030481991GE19MSL   +99999+99999GF199999041990009141991991MA1101601999990REMMET058METAR SBLP 071700Z 15003KT 9999 SCT030 BKN100 29/20 Q1016=
0174832880999992014050718004-13267-043417FM-12+044199999V0201801N0010100450199020000199+02791+01971101311ADDAA106000531AY151061AY251061GA1081+004501061GA2991+999991101GA3991+999991101GE19MSL   +99999+99999GF108991081990004501991991MA1999990096411MD1909990+0241MW1021REMSYN004BUFR
0165832880999992014050718004-13262-043408FM-15+044399999V0201801N004610304819N009999199+02501+02101999999ADDGA1041+009141991GA2071+030481991GE19MSL   +99999+99999GF199999041990009141991991MA1101601999990REMMET058METAR SBLP 071800Z 18009KT 9999 SCT030 BKN100 25/21 Q1016=
0188832880999992014050719004-13262-043408FM-15+044399999V0200901N00511009141CN009999199+02501+02101999999ADDGA1021+006101991GA2041+009141991GA3071+030481991GE19MSL   +99999+99999GF199999021990006101991991MA1101601999990REMMET065METAR SBLP 071900Z 09010KT 9999 FEW020 SCT030 BKN100 25/21 Q1016=
0188832880999992014050720004-13262-043408FM-15+044399999V0200901N00261009141CN009999199+02801+02301999999ADDGA1021+006101991GA2041+009141991GA3071+030481991GE19MSL   +99999+99999GF199999021990006101991991MA1101601999990REMMET065METAR SBLP 072000Z 09005KT 9999 FEW020 SCT030 BKN100 28/23 Q1016=
0188832880999992014050721004-13262-043408FM-15+044399999V0200901N00511009141CN009999199+02501+02201999999ADDGA1041+006101991GA2041+009141991GA3071+030481991GE19MSL   +99999+99999GF199999041990006101991991MA1101701999990REMMET065METAR SBLP 072100Z 09010KT 9999 SCT020 SCT030 BKN100 25/22 Q1017=
0168832880999992014050800004-13267-043417FM-12+044199999V0203201N0015100800199002000199+02291+02091101521ADDAA101999990AZ101061AZ201061GA1081+008001061GA2991+999991101GA3991+999991101GE19MSL   +99999+99999GF108991081990008001991991MA1999990096611MD1909990+0201REMSYN004BUFR
0072832880999992014050809154-13262-043408FM-16+044399999V0209999C000019999999Y999999999+02101+02001999999ADDMA1101701999990REMMET045SPECI SBLP 080915Z 00000KT CAVOK 21/20 Q1017=
0072832880999992014050810004-13262-043408FM-15+044399999V0209999C000019999999Y999999999+02201+02001999999ADDMA1101801999990REMMET045METAR SBLP 081000Z 00000KT CAVOK 22/20 Q1018=
0072832880999992014050811004-13262-043408FM-15+044399999V0202201N001019999999Y999999999+02501+02001999999ADDMA1101801999990REMMET045METAR SBLP 081100Z 22002KT CAVOK 25/20 Q1018=
0111832880999992014050812004-13267-043417FM-12+044199999V0203601N0000122000199020000199+02621+02011101521ADDAA124000531AZ101061AZ201061GF100991999999999999999999KA1120N+02181MA1999990096601MD1909990-0081REMSYN004BUFR
0142832880999992014050812004-13262-043408FM-15+044399999V0202401N002119999999N009999199+02801+02001999999ADDGA1021+009141991GE19MSL   +99999+99999GF199999021990009141991991MA1101801999990REMMET051METAR SBLP 081200Z 24004KT 9999 FEW030 28/20 Q1018=
0142832880999992014050813004-13262-043408FM-15+044399999V0209999C000019999999N009999199+02901+01901999999ADDGA1041+009141991GE19MSL   +99999+99999GF199999041990009141991991MA1101801999990REMMET051METAR SBLP 081300Z 00000KT 9999 SCT030 29/19 Q1018=
0142832880999992014050814004-13262-043408FM-15+044399999V0202101N003119999999N009999199+03001+01801999999ADDGA1041+009141991GE19MSL   +99999+99999GF199999041990009141991991MA1101701999990REMMET051METAR SBLP 081400Z 21006KT 9999 SCT030 30/18 Q1017=
0142832880999992014050815004-13262-043408FM-15+044399999V0201701N003610091419N009999199+03101+01801999999ADDGA1071+009141991GE19MSL   +99999+99999GF199999071990009141991991MA1101601999990REMMET051METAR SBLP 081500Z 17007KT 9999 BKN030 31/18 Q1016=
0142832880999992014050816004-13262-043408FM-15+044399999V0201101N003110091419N009999199+03201+01801999999ADDGA1071+009141991GE19MSL   +99999+99999GF199999071990009141991991MA1101401999990REMMET051METAR SBLP 081600Z 11006KT 9999 BKN030 32/18 Q1014=
0142832880999992014050817004-13262-043408FM-15+044399999V0201301N004110091419N009999199+03101+01801999999ADDGA1071+009141991GE19MSL   +99999+99999GF199999071990009141991991MA1101301999990REMMET051METAR SBLP 081700Z 13008KT 9999 BKN030 31/18 Q1013=
0136832880999992014050818004-13267-043417FM-12+044199999V0201401N0015100800199020000199+03251+01761100921ADDAA101999990AZ101061AZ201061GA1051+008001061GE19MSL   +99999+99999GF105991051990008001991991MA1999990096081MD1909990-0331REMSYN004BUFR
0142832880999992014050818004-13262-043408FM-15+044399999V0200901N004119999999N009999199+03301+01701999999ADDGA1041+009141991GE19MSL   +99999+99999GF199999041990009141991991MA1101301999990REMMET051METAR SBLP 081800Z 09008KT 9999 SCT030 33/17 Q1013=
0165832880999992014050819004-13262-043408FM-15+044399999V0200501N00261030481CN009999199+03201+01801999999ADDGA1041+009141991GA2041+030481991GE19MSL   +99999+99999GF199999041990009141991991MA1101201999990REMMET058METAR SBLP 081900Z 05005KT 9999 SCT030 SCT100 32/18 Q1012=
0165832880999992014050820004-13262-043408FM-15+044399999V0209999C00001030481CN009999199+03201+01701999999ADDGA1021+009141991GA2041+030481991GE19MSL   +99999+99999GF199999021990009141991991MA1101301999990REMMET058METAR SBLP 082000Z 00000KT 9999 FEW030 SCT100 32/17 Q1013=
0165832880999992014050821004-13262-043408FM-15+044399999V0209999C00001030481CN009999199+03001+01601999999ADDGA1021+009141991GA2041+030481991GE19MSL   +99999+99999GF199999021990009141991991MA1101301999990REMMET058METAR SBLP 082100Z 00000KT 9999 FEW030 SCT100 30/16 Q1013=
0136832880999992014050900004-13267-043417FM-12+044199999V0200901N0015199999999002000199+02591+01881101111ADDAA101999990AZ101061AZ201061GA1021+008001081GE19MSL   +99999+99999GF103991021990008001991991MA1999990096241MD1909990-0371REMSYN004BUFR
0072832880999992014050909154-13262-043408FM-16+044399999V0209999C000019999999Y999999999+02101+02001999999ADDMA1101401999990REMMET045SPECI SBLP 090915Z 00000KT CAVOK 21/20 Q1014=
0072832880999992014050910004-13262-043408FM-15+044399999V0209999C000019999999Y999999999+02101+01801999999ADDMA1101501999990REMMET045METAR SBLP 091000Z 00000KT CAVOK 21/18 Q1015=
0072832880999992014050911004-13262-043408FM-15+044399999V0202301N001019999999Y999999999+02401+01701999999ADDMA1101501999990REMMET045METAR SBLP 091100Z 23002KT CAVOK 24/17 Q1015=
0165832880999992014050912004-13267-043417FM-12+044199999V0201801N0005199999999020000199+02601+01751101261ADDAA101999990AZ101061AZ201061GA1011+008001081GA2991+999991031GE19MSL   +99999+99999GF104991011990008001991991KA1120N+02161MA1999990096381MD1909990-0221REMSYN004BUFR
0072832880999992014050912004-13262-043408FM-15+044399999V0209999C000019999999Y999999999+02701+01701999999ADDMA1101601999990REMMET045METAR SBLP 091200Z 00000KT CAVOK 27/17 Q1016=
0072832880999992014050913004-13262-043408FM-15+044399999V0209999C000019999999Y999999999+02901+01601999999ADDMA1101501999990REMMET045METAR SBLP 091300Z 00000KT CAVOK 29/16 Q1015=
0142832880999992014050914004-13262-043408FM-15+044399999V0203001N002619999999N009999199+03101+01601999999ADDGA1021+009141991GE19MSL   +99999+99999GF199999021990009141991991MA1101401999990REMMET051METAR SBLP 091400Z 30005KT 9999 FEW030 31/16 Q1014=
0142832880999992014050915004-13262-043408FM-15+044399999V0202701N002119999999N009999199+03201+01501999999ADDGA1021+009141991GE19MSL   +99999+99999GF199999021990009141991991MA1101301999990REMMET051METAR SBLP 091500Z 27004KT 9999 FEW030 32/15 Q1013=
0142832880999992014050916004-13262-043408FM-15+044399999V0209999C000019999999N009999199+03201+01601999999ADDGA1021+009141991GE19MSL   +99999+99999GF199999021990009141991991MA1101201999990REMMET051METAR SBLP 091600Z 00000KT 9999 FEW030 32/16 Q1012=
0142832880999992014050917004-13262-043408FM-15+044399999V0209999C000019999999N009999199+03301+01601999999ADDGA1041+009141991GE19MSL   +99999+99999GF199999041990009141991991MA1101101999990REMMET051METAR SBLP 091700Z 00000KT 9999 SCT030 33/16 Q1011=
0152832880999992014050918004-13267-043417FM-12+044199999V0202701N0010199999999020000199+03321+01651100661ADDAA101999990AZ101061AZ201061GA1041+008001061GA2991+999991031GE19MSL   +99999+99999GF105991041990008001991991MA1999990095861MD1909990-0221REMSYN004BUFR
0165832880999992014050918004-13262-043408FM-15+044399999V0202501N00211030481CN009999199+03301+01601999999ADDGA1041+009141991GA2041+030481991GE19MSL   +99999+99999GF199999041990009141991991MA1101001999990REMMET058METAR SBLP 091800Z 25004KT 9999 SCT030 SCT100 33/16 Q1010=
0165832880999992014050919004-13262-043408FM-15+044399999V0202401N00211030481CN009999199+03201+01601999999ADDGA1041+009141991GA2041+030481991GE19MSL   +99999+99999GF199999041990009141991991MA1101001999990REMMET058METAR SBLP 091900Z 24004KT 9999 SCT030 SCT100 32/16 Q1010=
0165832880999992014050920004-13262-043408FM-15+044399999V0202101N00261030481CN009999199+03101+01701999999ADDGA1041+009141991GA2041+030481991GE19MSL   +99999+99999GF199999041990009141991991MA1101101999990REMMET058METAR SBLP 092000Z 21005KT 9999 SCT030 SCT100 31/17 Q1011=
0165832880999992014050921004-13262-043408FM-15+044399999V0209999C00001030481CN009999199+03001+01501999999ADDGA1041+009141991GA2041+030481991GE19MSL   +99999+99999GF199999041990009141991991MA1101101999990REMMET058METAR SBLP 092100Z 00000KT 9999 SCT030 SCT100 30/15 Q1011=
0174832880999992014051000004-13267-043417FM-12+044199999V0201801N0015100800199002000199+02721+02131100921ADDAA106002031AY161061AY221061GA1081+008001061GA2991+999991101GA3991+999991101GE19MSL   +99999+99999GF108991081990008001991991MA1999990096081MD1909990-0161MW1031REMSYN004BUFR
0171832880999992014051012004-13267-043417FM-12+044199999V0203601N0000199999999020000199+02391+01291101291ADDAA124004031AY161061AY261061GA1041+008001061GA2991+999991031GE19MSL   +99999+99999GF107991041990008001991991KA1120N+02241MA1999990096411MD1909990+0031MW1011REMSYN004BUFR
0168832880999992014051018004-13267-043417FM-12+044199999V0203601N0000100800199020000199+03041+01981100811ADDAA101999990AZ101061AZ201061GA1081+008001061GA2991+999991101GA3991+999991101GE19MSL   +99999+99999GF108991081990008001991991MA1999990096001MD1909990+0141REMSYN004BUFR
0149832880999992014051112004-13267-043417FM-12+044199999V0200901N0021101750199020000199+02721+01391101381ADDAA101999990AZ101061AZ201061GA1071+017501031GE19MSL   +99999+99999GF107991071990017501991991KA1120N+02361MA1999990096521MD1909990+0111REMSYN004BUFR
0136832880999992014051118004-13267-043417FM-12+044199999V0201401N0021100800199020000199+03091+01801100991ADDAA101999990AZ101061AZ201061GA1061+008001081GE19MSL   +99999+99999GF106991061990008001991991MA1999990096171MD1909990+0171REMSYN004BUFR
0165832880999992014051209154-13262-043408FM-16+044399999V0202201N00211030481CN009999199+02001+01601999999ADDGA1021+006101991GA2041+030481991GE19MSL   +99999+99999GF199999021990006101991991MA1101701999990REMMET058SPECI SBLP 120915Z 22004KT 9999 FEW020 SCT100 20/16 Q1017=
0165832880999992014051210004-13262-043408FM-15+044399999V0202401N00151030481CN009999199+02001+01701999999ADDGA1021+009141991GA2041+030481991GE19MSL   +99999+99999GF199999021990009141991991MA1101701999990REMMET058METAR SBLP 121000Z 24003KT 9999 FEW030 SCT100 20/17 Q1017=
0142832880999992014051211004-13262-043408FM-15+044399999V0201701N004119999999N009999199+02301+01601999999ADDGA1021+009141991GE19MSL   +99999+99999GF199999021990009141991991MA1101801999990REMMET051METAR SBLP 121100Z 17008KT 9999 FEW030 23/16 Q1018=
0165832880999992014051212004-13267-043417FM-12+044199999V0201401N0015199999999020000199+02501+01481101541ADDAA101999990AZ101061AZ201061GA1011+008001081GA2991+999991031GE19MSL   +99999+99999GF103991011990008001991991KA1120N+02081MA1999990096631MD1909990+0111REMSYN004BUFR
0072832880999992014051212004-13262-043408FM-15+044399999V0201101N004119999999Y999999999+02701+01501999999ADDMA1101801999990REMMET045METAR SBLP 121200Z 11008KT CAVOK 27/15 Q1018=
0072832880999992014051213004-13262-043408FM-15+044399999V0200901N003619999999Y999999999+02801+01501999999ADDMA1101801999990REMMET045METAR SBLP 121300Z 09007KT CAVOK 28/15 Q1018=
0142832880999992014051214004-13262-043408FM-15+044399999V0201001N003119999999N009999199+03001+01501999999ADDGA1021+009141991GE19MSL   +99999+99999GF199999021990009141991991MA1101701999990REMMET051METAR SBLP 121400Z 10006KT 9999 FEW030 30/15 Q1017=
0142832880999992014051215004-13262-043408FM-15+044399999V0201501N003619999999N009999199+03101+01401999999ADDGA1021+009141991GE19MSL   +99999+99999GF199999021990009141991991MA1101601999990REMMET051METAR SBLP 121500Z 15007KT 9999 FEW030 31/14 Q1016=
0142832880999992014051216004-13262-043408FM-15+044399999V0202001N004119999999N009999199+03201+01301999999ADDGA1021+009141991GE19MSL   +99999+99999GF199999021990009141991991MA1101501999990REMMET051METAR SBLP 121600Z 20008KT 9999 FEW030 32/13 Q1015=
0142832880999992014051217004-13262-043408FM-15+044399999V0201901N003619999999N009999199+03201+01401999999ADDGA1021+009141991GE19MSL   +99999+99999GF199999021990009141991991MA1101401999990REMMET051METAR SBLP 121700Z 19007KT 9999 FEW030 32/14 Q1014=
0136832880999992014051218004-13267-043417FM-12+044199999V0201801N0010199999999020000199+03101+01381101051ADDAA101999990AZ101061AZ201061GA1021+008001081GE19MSL   +99999+99999GF102991021990008001991991MA1999990096181MD1909990+0011REMSYN004BUFR
0142832880999992014051218004-13262-043408FM-15+044399999V0201601N004619999999N009999199+03201+01401999999ADDGA1021+009141991GE19MSL   +99999+99999GF199999021990009141991991MA1101301999990REMMET051METAR SBLP 121800Z 16009KT 9999 FEW030 32/14 Q1013=
0142832880999992014051219004-13262-043408FM-15+044399999V0202001N005119999999N009999199+03201+01401999999ADDGA1021+009141991GE19MSL   +99999+99999GF199999021990009141991991MA1101401999990REMMET051METAR SBLP 121900Z 20010KT 9999 FEW030 32/14 Q1014=
0142832880999992014051220004-13262-043408FM-15+044399999V0209999C000019999999N009999199+03001+01401999999ADDGA1021+009141991GE19MSL   +99999+99999GF199999021990009141991991MA1101401999990REMMET051METAR SBLP 122000Z 00000KT 9999 FEW030 30/14 Q1014=
0142832880999992014051221004-13262-043408FM-15+044399999V0209999C000019999999N009999199+02801+01401999999ADDGA1021+009141991GE19MSL   +99999+99999GF199999021990009141991991MA1101501999990REMMET051METAR SBLP 122100Z 00000KT 9999 FEW030 28/14 Q1015=
0098832880999992014051300004-13267-043417FM-12+044199999V0201401N0021122000199002000199+02421+01471101301ADDAA101999990AZ101061AZ201061GF100991999999999999999999MA1999990096401MD1909990-0081REMSYN004BUFR
0072832880999992014051309154-13262-043408FM-16+044399999V0202101N003119999999Y999999999+01701+01301999999ADDMA1101701999990REMMET045SPECI SBLP 130915Z 21006KT CAVOK 17/13 Q1017=
0072832880999992014051310004-13262-043408FM-15+044399999V0209999C000019999999Y999999999+01801+01401999999ADDMA1101801999990REMMET045METAR SBLP 131000Z 00000KT CAVOK 18/14 Q1018=
0072832880999992014051311004-13262-043408FM-15+044399999V0202101N003119999999Y999999999+02101+01401999999ADDMA1101801999990REMMET045METAR SBLP 131100Z 21006KT CAVOK 21/14 Q1018=
0111832880999992014051312004-13267-043417FM-12+044199999V0201801N0010122000199020000199+02321+01321101571ADDAA101999990AZ101061AZ201061GF100991999999999999999999KA1120N+01801MA1999990096641MD1909990+0011REMSYN004BUFR
0072832880999992014051312004-13262-043408FM-15+044399999V0201801N003619999999Y999999999+02401+01301999999ADDMA1101901999990REMMET045METAR SBLP 131200Z 18007KT CAVOK 24/13 Q1019=
0072832880999992014051313004-13262-043408FM-15+044399999V0201401N002119999999Y999999999+02701+01301999999ADDMA1101901999990REMMET045METAR SBLP 131300Z 14004KT CAVOK 27/13 Q1019=
0072832880999992014051314004-13262-043408FM-15+044399999V0202001N002119999999Y999999999+02801+01301999999ADDMA1101801999990REMMET045METAR SBLP 131400Z 20004KT CAVOK 28/13 Q1018=
0072832880999992014051315004-13262-043408FM-15+044399999V0201801N003119999999Y999999999+03001+01201999999ADDMA1101701999990REMMET045METAR SBLP 131500Z 18006KT CAVOK 30/12 Q1017=
0072832880999992014051316004-13262-043408FM-15+044399999V0202101N005119999999Y999999999+03001+01301999999ADDMA1101601999990REMMET045METAR SBLP 131600Z 21010KT CAVOK 30/13 Q1016=
0142832880999992014051317004-13262-043408FM-15+044399999V0202301N002119999999N009999199+03001+01201999999ADDGA1021+009141991GE19MSL   +99999+99999GF199999021990009141991991MA1101401999990REMMET051METAR SBLP 131700Z 23004KT 9999 FEW030 30/12 Q1014=
0098832880999992014051318004-13267-043417FM-12+044199999V0202301N0015122000199020000199+03071+01121101151ADDAA101999990AZ101061AZ201061GF100991999999999999999999MA1999990096261MD1909990+0081REMSYN004BUFR
0072832880999992014051318004-13262-043408FM-15+044399999V0201901N003119999999Y999999999+03101+01101999999ADDMA1101401999990REMMET045METAR SBLP 131800Z 19006KT CAVOK 31/11 Q1014=
0072832880999992014051320004-13262-043408FM-15+044399999V0202101N002119999999Y999999999+03001+01101999999ADDMA1101301999990REMMET045METAR SBLP 132000Z 21004KT CAVOK 30/11 Q1013=
0072832880999992014051321004-13262-043408FM-15+044399999V0201801N001519999999Y999999999+02901+01401999999ADDMA1101401999990REMMET045METAR SBLP 132100Z 18003KT CAVOK 29/14 Q1014=
0098832880999992014051400004-13267-043417FM-12+044199999V0201401N0015122000199002000199+02491+01181101271ADDAA101999990AZ101061AZ201061GF100991999999999999999999MA1999990096351MD1909990-0051REMSYN004BUFR
0072832880999992014051409154-13262-043408FM-16+044399999V0201801N001519999999Y999999999+01701+01301999999ADDMA1101601999990REMMET045SPECI SBLP 140915Z 18003KT CAVOK 17/13 Q1016=
0072832880999992014051410004-13262-043408FM-15+044399999V0202301N001019999999Y999999999+01701+01401999999ADDMA1101701999990REMMET045METAR SBLP 141000Z 23002KT CAVOK 17/14 Q1017=
0072832880999992014051411004-13262-043408FM-15+044399999V0202001N002619999999Y999999999+02101+01301999999ADDMA1101801999990REMMET045METAR SBLP 141100Z 20005KT CAVOK 21/13 Q1018=
0111832880999992014051412004-13267-043417FM-12+044199999V0202301N0015122000199020000199+02301+01291101581ADDAA101999990AZ101061AZ201061GF100991999999999999999999KA1120N+01721MA1999990096651MD1909990+0011REMSYN004BUFR
0072832880999992014051412004-13262-043408FM-15+044399999V0201501N001519999999Y999999999+02401+01401999999ADDMA1101901999990REMMET045METAR SBLP 141200Z 15003KT CAVOK 24/14 Q1019=
0072832880999992014051413004-13262-043408FM-15+044399999V0200901N001019999999Y999999999+02801+01401999999ADDMA1101901999990REMMET045METAR SBLP 141300Z 09002KT CAVOK 28/14 Q1019=
0072832880999992014051414004-13262-043408FM-15+044399999V0202501N002119999999Y999999999+03001+01201999999ADDMA1101801999990REMMET045METAR SBLP 141400Z 25004KT CAVOK 30/12 Q1018=
0072832880999992014051415004-13262-043408FM-15+044399999V0200701N003119999999Y999999999+03101+01201999999ADDMA1101701999990REMMET045METAR SBLP 141500Z 07006KT CAVOK 31/12 Q1017=
0072832880999992014051416004-13262-043408FM-15+044399999V0202701N004119999999Y999999999+03001+01301999999ADDMA1101601999990REMMET045METAR SBLP 141600Z 27008KT CAVOK 30/13 Q1016=
0072832880999992014051417004-13262-043408FM-15+044399999V0209999C000019999999Y999999999+03101+01401999999ADDMA1101401999990REMMET045METAR SBLP 141700Z 00000KT CAVOK 31/14 Q1014=
0098832880999992014051418004-13267-043417FM-12+044199999V0202301N0026122000199020000199+03191+01351101051ADDAA101999990AZ101061AZ201061GF100991999999999999999999MA1999990096161MD1909990-0101REMSYN004BUFR
0072832880999992014051418004-13262-043408FM-15+044399999V0202401N002119999999Y999999999+03201+01401999999ADDMA1101301999990REMMET045METAR SBLP 141800Z 24004KT CAVOK 32/14 Q1013=
0072832880999992014051419004-13262-043408FM-15+044399999V0202501N001519999999Y999999999+03101+01301999999ADDMA1101301999990REMMET045METAR SBLP 141900Z 25003KT CAVOK 31/13 Q1013=
0072832880999992014051420004-13262-043408FM-15+044399999V0209999C000019999999Y999999999+03101+01301999999ADDMA1101301999990REMMET045METAR SBLP 142000Z 00000KT CAVOK 31/13 Q1013=
0072832880999992014051421004-13262-043408FM-15+044399999V0209999C000019999999Y999999999+02901+01201999999ADDMA1101401999990REMMET045METAR SBLP 142100Z 00000KT CAVOK 29/12 Q1014=
0098832880999992014051500004-13267-043417FM-12+044199999V0201801N0021122000199002000199+02641+01281101261ADDAA101999990AZ101061AZ201061GF100991999999999999999999MA1999990096361MD1909990+0011REMSYN004BUFR
0072832880999992014051509154-13262-043408FM-16+044399999V0202201N002119999999Y999999999+01801+01401999999ADDMA1101601999990REMMET045SPECI SBLP 150915Z 22004KT CAVOK 18/14 Q1016=
0072832880999992014051510004-13262-043408FM-15+044399999V0209999C000019999999Y999999999+01801+01501999999ADDMA1101701999990REMMET045METAR SBLP 151000Z 00000KT CAVOK 18/15 Q1017=
0072832880999992014051511004-13262-043408FM-15+044399999V0202001N002119999999Y999999999+02201+01601999999ADDMA1101801999990REMMET045METAR SBLP 151100Z 20004KT CAVOK 22/16 Q1018=
0149832880999992014051512004-13267-043417FM-12+044199999V0201801N0010199999999020000199+02571+01541101501ADDAA101999990AZ101061AZ201061GA1991+025001021GE19MSL   +99999+99999GF102991990990025001991991KA1120N+01841MA1999990096611MD1909990-0041REMSYN004BUFR
0072832880999992014051512004-13262-043408FM-15+044399999V0202201N002619999999Y999999999+02601+01501999999ADDMA1101801999990REMMET045METAR SBLP 151200Z 22005KT CAVOK 26/15 Q1018=
0072832880999992014051513004-13262-043408FM-15+044399999V0202501N003119999999Y999999999+02801+01501999999ADDMA1101801999990REMMET045METAR SBLP 151300Z 25006KT CAVOK 28/15 Q1018=
0072832880999992014051514004-13262-043408FM-15+044399999V0202601N001519999999Y999999999+03101+01501999999ADDMA1101701999990REMMET045METAR SBLP 151400Z 26003KT CAVOK 31/15 Q1017=
0072832880999992014051515004-13262-043408FM-15+044399999V0202501N003619999999Y999999999+03201+01501999999ADDMA1101601999990REMMET045METAR SBLP 151500Z 25007KT CAVOK 32/15 Q1016=
0142832880999992014051516004-13262-043408FM-15+044399999V0202401N002619999999N009999199+03201+01501999999ADDGA1021+009141991GE19MSL   +99999+99999GF199999021990009141991991MA1101401999990REMMET051METAR SBLP 151600Z 24005KT 9999 FEW030 32/15 Q1014=
0142832880999992014051517004-13262-043408FM-15+044399999V0202901N001519999999N009999199+03301+01501999999ADDGA1021+009141991GE19MSL   +99999+99999GF199999021990009141991991MA1101301999990REMMET051METAR SBLP 151700Z 29003KT 9999 FEW030 33/15 Q1013=
0152832880999992014051518004-13267-043417FM-12+044199999V0202701N0015199999999020000199+03371+01531100891ADDAA101999990AZ101061AZ201061GA1021+008001081GA2991+999991021GE19MSL   +99999+99999GF103991021990008001991991MA1999990096051MD1909990-0111REMSYN004BUFR
0142832880999992014051518004-13262-043408FM-15+044399999V0202301N002119999999N009999199+03301+01501999999ADDGA1021+009141991GE19MSL   +99999+99999GF199999021990009141991991MA1101201999990REMMET051METAR SBLP 151800Z 23004KT 9999 FEW030 33/15 Q1012=
0142832880999992014051519004-13262-043408FM-15+044399999V0202601N002619999999N009999199+03301+01401999999ADDGA1021+009141991GE19MSL   +99999+99999GF199999021990009141991991MA1101201999990REMMET051METAR SBLP 151900Z 26005KT 9999 FEW030 33/14 Q1012=
0142832880999992014051520004-13262-043408FM-15+044399999V0209999C000019999999N009999199+03301+01401999999ADDGA1041+009141991GE19MSL   +99999+99999GF199999041990009141991991MA1101201999990REMMET051METAR SBLP 152000Z 00000KT 9999 SCT030 33/14 Q1012=
0142832880999992014051521004-13262-043408FM-15+044399999V0209999C000019999999N009999199+03101+01301999999ADDGA1021+009141991GE19MSL   +99999+99999GF199999021990009141991991MA1101201999990REMMET051METAR SBLP 152100Z 00000KT 9999 FEW030 31/13 Q1012=
0136832880999992014051600004-13267-043417FM-12+044199999V0201801N0015199999999002000199+02821+01451101151ADDAA101999990AZ101061AZ201061GA1031+008001061GE19MSL   +99999+99999GF103991031990008001991991MA1999990096301MD1909990-0061REMSYN004BUFR
0072832880999992014051609154-13262-043408FM-16+044399999V0202201N002119999999Y999999999+02001+01601999999ADDMA1101401999990REMMET045SPECI SBLP 160915Z 22004KT CAVOK 20/16 Q1014=
0072832880999992014051610004-13262-043408FM-15+044399999V0202101N001019999999Y999999999+02001+01601999999ADDMA1101501999990REMMET045METAR SBLP 161000Z 21002KT CAVOK 20/16 Q1015=
0072832880999992014051611004-13262-043408FM-15+044399999V0202101N002119999999Y999999999+02401+01801999999ADDMA1101501999990REMMET045METAR SBLP 161100Z 21004KT CAVOK 24/18 Q1015=
0111832880999992014051612004-13267-043417FM-12+044199999V0201801N0005122000199020000199+02621+01771101341ADDAA101999990AZ101061AZ201061GF100991999999999999999999KA1120N+02021MA1999990096481MD1909990-0131REMSYN004BUFR
0072832880999992014051612004-13262-043408FM-15+044399999V0202701N002619999999Y999999999+02601+01801999999ADDMA1101601999990REMMET045METAR SBLP 161200Z 27005KT CAVOK 26/18 Q1016=
0072832880999992014051613004-13262-043408FM-15+044399999V0202901N002119999999Y999999999+03001+01901999999ADDMA1101501999990REMMET045METAR SBLP 161300Z 29004KT CAVOK 30/19 Q1015=
0142832880999992014051614004-13262-043408FM-15+044399999V0201901N002619999999N009999199+03201+01801999999ADDGA1021+009141991GE19MSL   +99999+99999GF199999021990009141991991MA1101401999990REMMET051METAR SBLP 161400Z 19005KT 9999 FEW030 32/18 Q1014=
0142832880999992014051615004-13262-043408FM-15+044399999V0202601N003119999999N009999199+03301+01601999999ADDGA1041+009141991GE19MSL   +99999+99999GF199999041990009141991991MA1101301999990REMMET051METAR SBLP 161500Z 26006KT 9999 SCT030 33/16 Q1013=
0142832880999992014051616004-13262-043408FM-15+044399999V0202601N003119999999N009999199+03301+01801999999ADDGA1041+009141991GE19MSL   +99999+99999GF199999041990009141991991MA1101201999990REMMET051METAR SBLP 161600Z 26006KT 9999 SCT030 33/18 Q1012=
0142832880999992014051617004-13262-043408FM-15+044399999V0202201N004619999999N009999199+03301+01701999999ADDGA1041+009141991GE19MSL   +99999+99999GF199999041990009141991991MA1101101999990REMMET051METAR SBLP 161700Z 22009KT 9999 SCT030 33/17 Q1011=
0136832880999992014051618004-13267-043417FM-12+044199999V0203601N0000199999999020000199+03421+01651100671ADDAA101999990AZ101061AZ201061GA1041+008001081GE19MSL   +99999+99999GF104991041990008001991991MA1999990095891MD1909990-0161REMSYN004BUFR
0142832880999992014051618004-13262-043408FM-15+044399999V0202101N003119999999N009999199+03401+01701999999ADDGA1041+009141991GE19MSL   +99999+99999GF199999041990009141991991MA1101101999990REMMET051METAR SBLP 161800Z 21006KT 9999 SCT030 34/17 Q1011=
0142832880999992014051619004-13262-043408FM-15+044399999V0202301N003119999999N009999199+03401+01701999999ADDGA1041+009141991GE19MSL   +99999+99999GF199999041990009141991991MA1101001999990REMMET051METAR SBLP 161900Z 23006KT 9999 SCT030 34/17 Q1010=
0142832880999992014051620004-13262-043408FM-15+044399999V0202201N001519999999N009999199+03301+01701999999ADDGA1021+009141991GE19MSL   +99999+99999GF199999021990009141991991MA1101001999990REMMET051METAR SBLP 162000Z 22003KT 9999 FEW030 33/17 Q1010=
0142832880999992014051621004-13262-043408FM-15+044399999V0209999C000019999999N009999199+03201+01601999999ADDGA1041+009141991GE19MSL   +99999+99999GF199999041990009141991991MA1101101999990REMMET051METAR SBLP 162100Z 00000KT 9999 SCT030 32/16 Q1011=
0136832880999992014051700004-13267-043417FM-12+044199999V0203601N0000199999999002000199+02921+01831100961ADDAA101999990AZ101061AZ201061GA1041+008001061GE19MSL   +99999+99999GF104991041990008001991991MA1999990096141MD1909990-0161REMSYN004BUFR
0149832880999992014051712004-13267-043417FM-12+044199999V0200901N0015199999999020000199+02741+01951101221ADDAA101999990AZ101061AZ201061GA1011+017501031GE19MSL   +99999+99999GF101991011990017501991991KA1120N+02271MA1999990096371MD1909990-0111REMSYN004BUFR
0136832880999992014051718004-13267-043417FM-12+044199999V0201801N0041199999999020000199+03141+01731100891ADDAA101999990AZ101061AZ201061GA1041+008001081GE19MSL   +99999+99999GF104991041990008001991991MA1999990096011MD1909990+0121REMSYN004BUFR
0165832880999992014051812004-13267-043417FM-12+044199999V0201801N0005199999999020000199+02621+01981101291ADDAA101999990AZ101061AZ201061GA1011+008001081GA2991+999991031GE19MSL   +99999+99999GF104991011990008001991991KA1120N+02301MA1999990096441MD1909990+0071REMSYN004BUFR
0152832880999992014051818004-13267-043417FM-12+044199999V0201401N0005199999999020000199+03421+01651100851ADDAA101999990AZ101061AZ201061GA1031+008001081GA2991+999991021GE19MSL   +99999+99999GF105991031990008001991991MA1999990096051MD1909990+0041REMSYN004BUFR
0072832880999992014051909154-13262-043408FM-16+044399999V0202301N001019999999Y999999999+02101+01701999999ADDMA1101501999990REMMET045SPECI SBLP 190915Z 23002KT CAVOK 21/17 Q1015=
0072832880999992014051910004-13262-043408FM-15+044399999V0209999C000019999999Y999999999+02001+01701999999ADDMA1101601999990REMMET045METAR SBLP 191000Z 00000KT CAVOK 20/17 Q1016=
0072832880999992014051911004-13262-043408FM-15+044399999V0202101N002119999999Y999999999+02401+01801999999ADDMA1101701999990REMMET045METAR SBLP 191100Z 21004KT CAVOK 24/18 Q1017=
0149832880999992014051912004-13267-043417FM-12+044199999V0201801N0010199999999020000199+02641+01811101431ADDAA101999990AZ101061AZ201061GA1031+025001021GE19MSL   +99999+99999GF103991031990025001991991KA1120N+02101MA1999990096571MD1909990+0131REMSYN004BUFR
0072832880999992014051912004-13262-043408FM-15+044399999V0209999C000019999999Y999999999+02701+01801999999ADDMA1101701999990REMMET045METAR SBLP 191200Z 00000KT CAVOK 27/18 Q1017=
0072832880999992014051913004-13262-043408FM-15+044399999V0202501N003619999999Y999999999+03001+01701999999ADDMA1101601999990REMMET045METAR SBLP 191300Z 25007KT CAVOK 30/17 Q1016=
0142832880999992014051914004-13262-043408FM-15+044399999V0202701N002619999999N009999199+03101+01701999999ADDGA1021+009141991GE19MSL   +99999+99999GF199999021990009141991991MA1101601999990REMMET051METAR SBLP 191400Z 27005KT 9999 FEW030 31/17 Q1016=
0142832880999992014051915004-13262-043408FM-15+044399999V0202401N003619999999N009999199+03201+01701999999ADDGA1021+009141991GE19MSL   +99999+99999GF199999021990009141991991MA1101501999990REMMET051METAR SBLP 191500Z 24007KT 9999 FEW030 32/17 Q1015=
0142832880999992014051916004-13262-043408FM-15+044399999V0202501N003619999999N009999199+03301+01701999999ADDGA1021+009141991GE19MSL   +99999+99999GF199999021990009141991991MA1101401999990REMMET051METAR SBLP 191600Z 25007KT 9999 FEW030 33/17 Q1014=
0142832880999992014051917004-13262-043408FM-15+044399999V0201801N002119999999N009999199+03501+01501999999ADDGA1021+009141991GE19MSL   +99999+99999GF199999021990009141991991MA1101301999990REMMET051METAR SBLP 191700Z 18004KT 9999 FEW030 35/15 Q1013=
0168832880999992014051918004-13267-043417FM-12+044199999V0202301N0010199999999020000199+03391+01501100821ADDAA101999990AZ101061AZ201061GA1021+008001081GA2991+999991051GA3991+999991021GE19MSL   +99999+99999GF106991021990008001991991MA1999990096041MD1909990-0011REMSYN004BUFR
0142832880999992014051918004-13262-043408FM-15+044399999V0201501N002619999999N009999199+03501+01501999999ADDGA1021+009141991GE19MSL   +99999+99999GF199999021990009141991991MA1101201999990REMMET051METAR SBLP 191800Z 15005KT 9999 FEW030 35/15 Q1012=
0142832880999992014051919004-13262-043408FM-15+044399999V0201701N004619999999N009999199+03501+01401999999ADDGA1021+009141991GE19MSL   +99999+99999GF199999021990009141991991MA1101201999990REMMET051METAR SBLP 191900Z 17009KT 9999 FEW030 35/14 Q1012=
0142832880999992014051920004-13262-043408FM-15+044399999V0202201N002619999999N009999199+03301+01501999999ADDGA1021+009141991GE19MSL   +99999+99999GF199999021990009141991991MA1101301999990REMMET051METAR SBLP 192000Z 22005KT 9999 FEW030 33/15 Q1013=
0072832880999992014051921004-13262-043408FM-15+044399999V0209999C000019999999Y999999999+03101+01501999999ADDMA1101301999990REMMET045METAR SBLP 192100Z 00000KT CAVOK 31/15 Q1013=
0098832880999992014052000004-13267-043417FM-12+044199999V0201801N0005122000199002000199+02771+01601101141ADDAA101999990AZ101061AZ201061GF100991999999999999999999MA1999990096291MD1909990+0041REMSYN004BUFR
0072832880999992014052009154-13262-043408FM-16+044399999V0209999C000019999999Y999999999+02101+01701999999ADDMA1101501999990REMMET045SPECI SBLP 200915Z 00000KT CAVOK 21/17 Q1015=
0072832880999992014052010004-13262-043408FM-15+044399999V0209999C000019999999Y999999999+02101+01701999999ADDMA1101601999990REMMET045METAR SBLP 201000Z 00000KT CAVOK 21/17 Q1016=
0072832880999992014052011004-13262-043408FM-15+044399999V0202601N001519999999Y999999999+02401+01801999999ADDMA1101701999990REMMET045METAR SBLP 201100Z 26003KT CAVOK 24/18 Q1017=
0111832880999992014052012004-13267-043417FM-12+044199999V0201401N0015122000199020000199+02621+01781101361ADDAA101999990AZ101061AZ201061GF100991999999999999999999KA1120N+02091MA1999990096501MD1909990-0071REMSYN004BUFR
0072832880999992014052012004-13262-043408FM-15+044399999V0200701N002119999999Y999999999+02701+01701999999ADDMA1101701999990REMMET045METAR SBLP 201200Z 07004KT CAVOK 27/17 Q1017=
0142832880999992014052013004-13262-043408FM-15+044399999V0200901N002619999999N009999199+03001+01601999999ADDGA1021+009141991GE19MSL   +99999+99999GF199999021990009141991991MA1101701999990REMMET051METAR SBLP 201300Z 09005KT 9999 FEW030 30/16 Q1017=
0142832880999992014052014004-13262-043408FM-15+044399999V0201501N001019999999N009999199+03201+01501999999ADDGA1021+009141991GE19MSL   +99999+99999GF199999021990009141991991MA1101701999990REMMET051METAR SBLP 201400Z 15002KT 9999 FEW030 32/15 Q1017=
0142832880999992014052015004-13262-043408FM-15+044399999V0202401N003119999999N009999199+03401+01401999999ADDGA1021+009141991GE19MSL   +99999+99999GF199999021990009141991991MA1101501999990REMMET051METAR SBLP 201500Z 24006KT 9999 FEW030 34/14 Q1015=
0142832880999992014052016004-13262-043408FM-15+044399999V0201801N002619999999N009999199+03401+01301999999ADDGA1021+009141991GE19MSL   +99999+99999GF199999021990009141991991MA1101401999990REMMET051METAR SBLP 201600Z 18005KT 9999 FEW030 34/13 Q1014=
0142832880999992014052017004-13262-043408FM-15+044399999V0201801N003119999999N009999199+03501+01001999999ADDGA1021+009141991GE19MSL   +99999+99999GF199999021990009141991991MA1101301999990REMMET051METAR SBLP 201700Z 18006KT 9999 FEW030 35/10 Q1013=
0098832880999992014052018004-13267-043417FM-12+044199999V0201801N0026122000199020000199+03441+01271100931ADDAA101999990AZ101061AZ201061GF100991999999999999999999MA1999990096111MD1909990+0071REMSYN004BUFR
0142832880999992014052018004-13262-043408FM-15+044399999V0201901N003619999999N009999199+03201+01701999999ADDGA1021+009141991GE19MSL   +99999+99999GF199999021990009141991991MA1101301999990REMMET051METAR SBLP 201800Z 19007KT 9999 FEW030 32/17 Q1013=
0142832880999992014052019004-13262-043408FM-15+044399999V0202401N004119999999N009999199+03501+01101999999ADDGA1021+009141991GE19MSL   +99999+99999GF199999021990009141991991MA1101301999990REMMET051METAR SBLP 201900Z 24008KT 9999 FEW030 35/11 Q1013=
0142832880999992014052020004-13262-043408FM-15+044399999V0201801N002619999999N009999199+03501+00901999999ADDGA1021+009141991GE19MSL   +99999+99999GF199999021990009141991991MA1101301999990REMMET051METAR SBLP 202000Z 18005KT 9999 FEW030 35/09 Q1013=
0072832880999992014052021004-13262-043408FM-15+044399999V0201901N002119999999Y999999999+03101+01001999999ADDMA1101301999990REMMET045METAR SBLP 202100Z 19004KT CAVOK 31/10 Q1013=
0098832880999992014052100004-13267-043417FM-12+044199999V0201401N0015122000199002000199+02591+01191101211ADDAA101999990AZ101061AZ201061GF100991999999999999999999MA1999990096341MD1909990+0051REMSYN004BUFR
0072832880999992014052109154-13262-043408FM-16+044399999V0209999C000019999999Y999999999+02201+01701999999ADDMA1101501999990REMMET045SPECI SBLP 210915Z 00000KT CAVOK 22/17 Q1015=
0072832880999992014052110004-13262-043408FM-15+044399999V0209999C000019999999Y999999999+02301+01801999999ADDMA1101601999990REMMET045METAR SBLP 211000Z 00000KT CAVOK 23/18 Q1016=
0072832880999992014052111004-13262-043408FM-15+044399999V0209999C000019999999Y999999999+02401+01701999999ADDMA1101701999990REMMET045METAR SBLP 211100Z 00000KT CAVOK 24/17 Q1017=
0149832880999992014052112004-13267-043417FM-12+044199999V0201801N0010199999999020000199+02601+01631101381ADDAA101999990AZ101061AZ201061GA1991+025001021GE19MSL   +99999+99999GF104991990990025001991991KA1120N+02001MA1999990096501MD1909990+0001REMSYN004BUFR
0072832880999992014052112004-13262-043408FM-15+044399999V0202101N001519999999Y999999999+02701+01801999999ADDMA1101701999990REMMET045METAR SBLP 211200Z 21003KT CAVOK 27/18 Q1017=
0072832880999992014052113004-13262-043408FM-15+044399999V0209999C000019999999Y999999999+03001+01801999999ADDMA1101701999990REMMET045METAR SBLP 211300Z 00000KT CAVOK 30/18 Q1017=
0165832880999992014052114004-13262-043408FM-15+044399999V0201801N00261030481CN009999199+03101+01701999999ADDGA1021+009141991GA2041+030481991GE19MSL   +99999+99999GF199999021990009141991991MA1101601999990REMMET058METAR SBLP 211400Z 18005KT 9999 FEW030 SCT100 31/17 Q1016=
0165832880999992014052115004-13262-043408FM-15+044399999V0209999C00001030481CN009999199+03401+01601999999ADDGA1021+009141991GA2041+030481991GE19MSL   +99999+99999GF199999021990009141991991MA1101501999990REMMET058METAR SBLP 211500Z 00000KT 9999 FEW030 SCT100 34/16 Q1015=
0165832880999992014052116004-13262-043408FM-15+044399999V0202101N00311030481CN009999199+03401+01301999999ADDGA1021+009141991GA2041+030481991GE19MSL   +99999+99999GF199999021990009141991991MA1101401999990REMMET058METAR SBLP 211600Z 21006KT 9999 FEW030 SCT100 34/13 Q1014=
0142832880999992014052117004-13262-043408FM-15+044399999V0202101N002119999999N009999199+03401+01301999999ADDGA1021+009141991GE19MSL   +99999+99999GF199999021990009141991991MA1101301999990REMMET051METAR SBLP 211700Z 21004KT 9999 FEW030 34/13 Q1013=
0152832880999992014052118004-13267-043417FM-12+044199999V0201801N0015199999999020000199+03351+01411100821ADDAA101999990AZ101061AZ201061GA1021+008001081GA2991+999991021GE19MSL   +99999+99999GF104991021990008001991991MA1999990096001MD1909990-0111REMSYN004BUFR
0142832880999992014052118004-13262-043408FM-15+044399999V0201401N002619999999N009999199+03501+01301999999ADDGA1021+009141991GE19MSL   +99999+99999GF199999021990009141991991MA1101201999990REMMET051METAR SBLP 211800Z 14005KT 9999 FEW030 35/13 Q1012=
0142832880999992014052119004-13262-043408FM-15+044399999V0201001N003119999999N009999199+03301+01401999999ADDGA1021+009141991GE19MSL   +99999+99999GF199999021990009141991991MA1101201999990REMMET051METAR SBLP 211900Z 10006KT 9999 FEW030 33/14 Q1012=
0142832880999992014052120004-13262-043408FM-15+044399999V0201101N002119999999N009999199+03301+01201999999ADDGA1021+009141991GE19MSL   +99999+99999GF199999021990009141991991MA1101201999990REMMET051METAR SBLP 212000Z 11004KT 9999 FEW030 33/12 Q1012=
0142832880999992014052121004-13262-043408FM-15+044399999V0201201N003119999999N009999199+03101+01401999999ADDGA1021+009141991GE19MSL   +99999+99999GF199999021990009141991991MA1101201999990REMMET051METAR SBLP 212100Z 12006KT 9999 FEW030 31/14 Q1012=
0098832880999992014052200004-13267-043417FM-12+044199999V0201801N0010122000199002000199+02621+01591101131ADDAA101999990AZ101061AZ201061GF100991999999999999999999MA1999990096261MD1909990-0081REMSYN004BUFR
0072832880999992014052209154-13262-043408FM-16+044399999V0202201N002119999999Y999999999+02001+01601999999ADDMA1101601999990REMMET045SPECI SBLP 220915Z 22004KT CAVOK 20/16 Q1016=
0072832880999992014052210004-13262-043408FM-15+044399999V0202101N001519999999Y999999999+02001+01601999999ADDMA1101601999990REMMET045METAR SBLP 221000Z 21003KT CAVOK 20/16 Q1016=
0072832880999992014052211004-13262-043408FM-15+044399999V0202001N001019999999Y999999999+02301+01801999999ADDMA1101701999990REMMET045METAR SBLP 221100Z 20002KT CAVOK 23/18 Q1017=
0111832880999992014052212004-13267-043417FM-12+044199999V0200901N0021122000199020000199+02691+01651101371ADDAA101999990AZ101061AZ201061GF100991999999999999999999KA1120N+02041MA1999990096511MD1909990+0011REMSYN004BUFR
0072832880999992014052212004-13262-043408FM-15+044399999V0201801N003119999999Y999999999+02601+01701999999ADDMA1101701999990REMMET045METAR SBLP 221200Z 18006KT CAVOK 26/17 Q1017=
0072832880999992014052213004-13262-043408FM-15+044399999V0201701N002119999999Y999999999+03001+01501999999ADDMA1101701999990REMMET045METAR SBLP 221300Z 17004KT CAVOK 30/15 Q1017=
0072832880999992014052214004-13262-043408FM-15+044399999V0201501N001519999999Y999999999+03301+01401999999ADDMA1101601999990REMMET045METAR SBLP 221400Z 15003KT CAVOK 33/14 Q1016=
0072832880999992014052215004-13262-043408FM-15+044399999V0202201N003119999999Y999999999+03401+01401999999ADDMA1101501999990REMMET045METAR SBLP 221500Z 22006KT CAVOK 34/14 Q1015=
0072832880999992014052216004-13262-043408FM-15+044399999V0209999C000019999999Y999999999+03501+01601999999ADDMA1101401999990REMMET045METAR SBLP 221600Z 00000KT CAVOK 35/16 Q1014=
0142832880999992014052217004-13262-043408FM-15+044399999V0202501N001519999999N009999199+03601+01601999999ADDGA1021+009141991GE19MSL   +99999+99999GF199999021990009141991991MA1101301999990REMMET051METAR SBLP 221700Z 25003KT 9999 FEW030 36/16 Q1013=
0136832880999992014052218004-13267-043417FM-12+044199999V0202301N0010199999999020000199+03471+01411100871ADDAA101999990AZ101061AZ201061GA1021+008001081GE19MSL   +99999+99999GF102991021990008001991991MA1999990096061MD1909990+0061REMSYN004BUFR
0142832880999992014052218004-13262-043408FM-15+044399999V0202501N002119999999N009999199+03701+01601999999ADDGA1021+009141991GE19MSL   +99999+99999GF199999021990009141991991MA1101201999990REMMET051METAR SBLP 221800Z 25004KT 9999 FEW030 37/16 Q1012=
0142832880999992014052219004-13262-043408FM-15+044399999V0202501N002619999999N009999199+03501+01101999999ADDGA1021+009141991GE19MSL   +99999+99999GF199999021990009141991991MA1101201999990REMMET051METAR SBLP 221900Z 25005KT 9999 FEW030 35/11 Q1012=
0142832880999992014052220004-13262-043408FM-15+044399999V0202401N002619999999N009999199+03501+01601999999ADDGA1021+009141991GE19MSL   +99999+99999GF199999021990009141991991MA1101201999990REMMET051METAR SBLP 222000Z 24005KT 9999 FEW030 35/16 Q1012=
0142832880999992014052221004-13262-043408FM-15+044399999V0202101N001510091419N009999199+03301+01801999999ADDGA1071+009141991GE19MSL   +99999+99999GF199999071990009141991991MA1101201999990REMMET051METAR SBLP 222100Z 21003KT 9999 BKN030 33/18 Q1012=
0136832880999992014052300004-13267-043417FM-12+044199999V0203601N0000199999999002000199+02921+01391100991ADDAA101999990AZ101061AZ201061GA1021+008001081GE19MSL   +99999+99999GF102991021990008001991991MA1999990096171MD1909990-0091REMSYN004BUFR
0072832880999992014052309154-13262-043408FM-16+044399999V0209999C000019999999Y999999999+02301+01901999999ADDMA1101601999990REMMET045SPECI SBLP 230915Z 00000KT CAVOK 23/19 Q1016=
0072832880999992014052310004-13262-043408FM-15+044399999V0209999C000019999999Y999999999+02301+01701999999ADDMA1101601999990REMMET045METAR SBLP 231000Z 00000KT CAVOK 23/17 Q1016=
0072832880999992014052311004-13262-043408FM-15+044399999V0209999C000019999999Y999999999+02601+01901999999ADDMA1101701999990REMMET045METAR SBLP 231100Z 00000KT CAVOK 26/19 Q1017=
0149832880999992014052312004-13267-043417FM-12+044199999V0203201N0010199999999020000199+02891+01871101351ADDAA101999990AZ101061AZ201061GA1011+008001081GE19MSL   +99999+99999GF101991011990008001991991KA1120N+02241MA1999990096531MD1909990+0021REMSYN004BUFR
0072832880999992014052312004-13262-043408FM-15+044399999V0209999C000019999999Y999999999+03001+01901999999ADDMA1101701999990REMMET045METAR SBLP 231200Z 00000KT CAVOK 30/19 Q1017=
0072832880999992014052313004-13262-043408FM-15+044399999V0209999C000019999999Y999999999+03201+01901999999ADDMA1101701999990REMMET045METAR SBLP 231300Z 00000KT CAVOK 32/19 Q1017=
0142832880999992014052314004-13262-043408FM-15+044399999V0200801N002619999999N009999199+03301+01701999999ADDGA1021+009141991GE19MSL   +99999+99999GF199999021990009141991991MA1101601999990REMMET051METAR SBLP 231400Z 08005KT 9999 FEW030 33/17 Q1016=
0142832880999992014052315004-13262-043408FM-15+044399999V0203101N002619999999N009999199+03301+02001999999ADDGA1021+009141991GE19MSL   +99999+99999GF199999021990009141991991MA1101501999990REMMET051METAR SBLP 231500Z 31005KT 9999 FEW030 33/20 Q1015=
0142832880999992014052316004-13262-043408FM-15+044399999V0202701N003619999999N009999199+03501+01601999999ADDGA1021+009141991GE19MSL   +99999+99999GF199999021990009141991991MA1101401999990REMMET051METAR SBLP 231600Z 27007KT 9999 FEW030 35/16 Q1014=
0142832880999992014052317004-13262-043408FM-15+044399999V0203301N003119999999N009999199+03601+01501999999ADDGA1021+009141991GE19MSL   +99999+99999GF199999021990009141991991MA1101301999990REMMET051METAR SBLP 231700Z 33006KT 9999 FEW030 36/15 Q1013=
0098832880999992014052318004-13267-043417FM-12+044199999V0202301N0021122000199020000199+03471+01571100861ADDAA101999990AZ101061AZ201061GF100991999999999999999999MA1999990096081MD1909990+0021REMSYN004BUFR
0142832880999992014052318004-13262-043408FM-15+044399999V0203101N002619999999N009999199+03601+01501999999ADDGA1021+009141991GE19MSL   +99999+99999GF199999021990009141991991MA1101201999990REMMET051METAR SBLP 231800Z 31005KT 9999 FEW030 36/15 Q1012=
0142832880999992014052319004-13262-043408FM-15+044399999V0202601N003119999999N009999199+03501+01501999999ADDGA1021+009141991GE19MSL   +99999+99999GF199999021990009141991991MA1101201999990REMMET051METAR SBLP 231900Z 26006KT 9999 FEW030 35/15 Q1012=
0142832880999992014052320004-13262-043408FM-15+044399999V0202401N002619999999N009999199+03501+01401999999ADDGA1021+009141991GE19MSL   +99999+99999GF199999021990009141991991MA1101201999990REMMET051METAR SBLP 232000Z 24005KT 9999 FEW030 35/14 Q1012=
0142832880999992014052321004-13262-043408FM-15+044399999V0202501N001519999999N009999199+03201+01601999999ADDGA1021+009141991GE19MSL   +99999+99999GF199999021990009141991991MA1101201999990REMMET051METAR SBLP 232100Z 25003KT 9999 FEW030 32/16 Q1012=
0098832880999992014052400004-13267-043417FM-12+044199999V0201801N0015122000199002000199+02941+01791100941ADDAA101999990AZ101061AZ201061GF100991999999999999999999MA1999990096141MD1909990-0031REMSYN004BUFR
0111832880999992014052412004-13267-043417FM-12+044199999V0203601N0021122000199020000199+02801+01751101291ADDAA101999990AZ101061AZ201061GF100991999999999999999999KA1120N+02261MA1999990096471MD1909990-0061REMSYN004BUFR
0136832880999992014052418004-13267-043417FM-12+044199999V0202701N0015199999999020000199+03591+01671100731ADDAA101999990AZ101061AZ201061GA1031+008001081GE19MSL   +99999+99999GF103991031990008001991991MA1999990095961MD1909990-0121REMSYN004BUFR
0149832880999992014052512004-13267-043417FM-12+044199999V0200501N0021199999999020000199+02921+01891101331ADDAA101999990AZ101061AZ201061GA1011+008001081GE19MSL   +99999+99999GF101991011990008001991991KA1120N+02271MA1999990096521MD1909990+0051REMSYN004BUFR
0136832880999992014052518004-13267-043417FM-12+044199999V0200901N0010100800199020000199+03421+01471100791ADDAA101999990AZ101061AZ201061GA1051+008001081GE19MSL   +99999+99999GF105991051990008001991991MA1999990096021MD1909990+0061REMSYN004BUFR
0072832880999992014052609154-13262-043408FM-16+044399999V0202001N001019999999Y999999999+02201+01601999999ADDMA1101701999990REMMET045SPECI SBLP 260915Z 20002KT CAVOK 22/16 Q1017=
0072832880999992014052610004-13262-043408FM-15+044399999V0209999C000019999999Y999999999+02201+01601999999ADDMA1101801999990REMMET045METAR SBLP 261000Z 00000KT CAVOK 22/16 Q1018=
0072832880999992014052611004-13262-043408FM-15+044399999V0201801N001519999999Y999999999+02501+01601999999ADDMA1101801999990REMMET045METAR SBLP 261100Z 18003KT CAVOK 25/16 Q1018=
0111832880999992014052612004-13267-043417FM-12+044199999V0200901N0021122000199020000199+02801+01751101511ADDAA101999990AZ101061AZ201061GF100991999999999999999999KA1120N+02161MA1999990096671MD1909990+0151REMSYN004BUFR
0072832880999992014052612004-13262-043408FM-15+044399999V0201701N003119999999Y999999999+02801+01801999999ADDMA1101901999990REMMET045METAR SBLP 261200Z 17006KT CAVOK 28/18 Q1019=
0072832880999992014052613004-13262-043408FM-15+044399999V0201301N004119999999Y999999999+03101+01701999999ADDMA1101801999990REMMET045METAR SBLP 261300Z 13008KT CAVOK 31/17 Q1018=
0142832880999992014052614004-13262-043408FM-15+044399999V0201501N003119999999N009999199+03301+01701999999ADDGA1021+009141991GE19MSL   +99999+99999GF199999021990009141991991MA1101801999990REMMET051METAR SBLP 261400Z 15006KT 9999 FEW030 33/17 Q1018=
0142832880999992014052615004-13262-043408FM-15+044399999V0202701N003119999999N009999199+03401+01601999999ADDGA1021+009141991GE19MSL   +99999+99999GF199999021990009141991991MA1101601999990REMMET051METAR SBLP 261500Z 27006KT 9999 FEW030 34/16 Q1016=
0142832880999992014052616004-13262-043408FM-15+044399999V0202101N002619999999N009999199+03601+01801999999ADDGA1021+009141991GE19MSL   +99999+99999GF199999021990009141991991MA1101501999990REMMET051METAR SBLP 261600Z 21005KT 9999 FEW030 36/18 Q1015=
0142832880999992014052617004-13262-043408FM-15+044399999V0201801N001519999999N009999199+03601+01701999999ADDGA1041+009141991GE19MSL   +99999+99999GF199999041990009141991991MA1101401999990REMMET051METAR SBLP 261700Z 18003KT 9999 SCT030 36/17 Q1014=
0098832880999992014052618004-13267-043417FM-12+044199999V0201801N0015122000199020000199+03491+01771100891ADDAA101999990AZ101061AZ201061GF100991999999999999999999MA1999990096111MD1909990+0091REMSYN004BUFR
0142832880999992014052618004-13262-043408FM-15+044399999V0209999C000019999999N009999199+03601+01701999999ADDGA1041+009141991GE19MSL   +99999+99999GF199999041990009141991991MA1101301999990REMMET051METAR SBLP 261800Z 00000KT 9999 SCT030 36/17 Q1013=
0142832880999992014052619004-13262-043408FM-15+044399999V0209999C000019999999N009999199+03501+01701999999ADDGA1041+009141991GE19MSL   +99999+99999GF199999041990009141991991MA1101301999990REMMET051METAR SBLP 261900Z 00000KT 9999 SCT030 35/17 Q1013=
0142832880999992014052620004-13262-043408FM-15+044399999V0202801N002119999999N009999199+03501+01701999999ADDGA1041+009141991GE19MSL   +99999+99999GF199999041990009141991991MA1101301999990REMMET051METAR SBLP 262000Z 28004KT 9999 SCT030 35/17 Q1013=
0142832880999992014052621004-13262-043408FM-15+044399999V0209999C000019999999N009999199+03301+01801999999ADDGA1041+009141991GE19MSL   +99999+99999GF199999041990009141991991MA1101301999990REMMET051METAR SBLP 262100Z 00000KT 9999 SCT030 33/18 Q1013=
0136832880999992014052700004-13267-043417FM-12+044199999V0200501N0015199999999002000199+03021+01691101211ADDAA101999990AZ101061AZ201061GA1011+008001081GE19MSL   +99999+99999GF101991011990008001991991MA1999990096401MD1909990-0031REMSYN004BUFR
0142832880999992014052709154-13262-043408FM-16+044399999V0209999C000019999999N009999199+02201+01701999999ADDGA1021+009141991GE19MSL   +99999+99999GF199999021990009141991991MA1101701999990REMMET051SPECI SBLP 270915Z 00000KT 9999 FEW030 22/17 Q1017=
0072832880999992014052710004-13262-043408FM-15+044399999V0209999C000019999999Y999999999+02201+01601999999ADDMA1101701999990REMMET045METAR SBLP 271000Z 00000KT CAVOK 22/16 Q1017=
0072832880999992014052711004-13262-043408FM-15+044399999V0200901N001519999999Y999999999+02601+01701999999ADDMA1101701999990REMMET045METAR SBLP 271100Z 09003KT CAVOK 26/17 Q1017=
0149832880999992014052712004-13267-043417FM-12+044199999V0203601N0010199999999020000199+02821+01751101421ADDAA101999990AZ101061AZ201061GA1991+025001001GE19MSL   +99999+99999GF104991990990025001991991KA1120N+02281MA1999990096601MD1909990-0071REMSYN004BUFR
0072832880999992014052712004-13262-043408FM-15+044399999V0200401N001519999999Y999999999+02901+01701999999ADDMA1101801999990REMMET045METAR SBLP 271200Z 04003KT CAVOK 29/17 Q1018=
0072832880999992014052713004-13262-043408FM-15+044399999V0209999C000019999999Y999999999+03101+01801999999ADDMA1101801999990REMMET045METAR SBLP 271300Z 00000KT CAVOK 31/18 Q1018=
0142832880999992014052714004-13262-043408FM-15+044399999V0203201N001019999999N009999199+03201+01601999999ADDGA1021+009141991GE19MSL   +99999+99999GF199999021990009141991991MA1101701999990REMMET051METAR SBLP 271400Z 32002KT 9999 FEW030 32/16 Q1017=
0142832880999992014052715004-13262-043408FM-15+044399999V0209999C000019999999N009999199+03301+01601999999ADDGA1021+009141991GE19MSL   +99999+99999GF199999021990009141991991MA1101601999990REMMET051METAR SBLP 271500Z 00000KT 9999 FEW030 33/16 Q1016=
0142832880999992014052716004-13262-043408FM-15+044399999V0202801N002619999999N009999199+03401+02001999999ADDGA1041+009141991GE19MSL   +99999+99999GF199999041990009141991991MA1101501999990REMMET051METAR SBLP 271600Z 28005KT 9999 SCT030 34/20 Q1015=
0142832880999992014052717004-13262-043408FM-15+044399999V0203101N003119999999N009999199+03501+02001999999ADDGA1041+009141991GE19MSL   +99999+99999GF199999041990009141991991MA1101301999990REMMET051METAR SBLP 271700Z 31006KT 9999 SCT030 35/20 Q1013=
0136832880999992014052718004-13267-043417FM-12+044199999V0202701N0010199999999020000199+03421+01611100871ADDAA101999990AZ101061AZ201061GA1031+008001081GE19MSL   +99999+99999GF103991031990008001991991MA1999990096061MD1909990-0051REMSYN004BUFR
0142832880999992014052718004-13262-043408FM-15+044399999V0203101N003119999999N009999199+03601+01701999999ADDGA1041+009141991GE19MSL   +99999+99999GF199999041990009141991991MA1101201999990REMMET051METAR SBLP 271800Z 31006KT 9999 SCT030 36/17 Q1012=
0142832880999992014052719004-13262-043408FM-15+044399999V0203301N002119999999N009999199+03601+01801999999ADDGA1041+009141991GE19MSL   +99999+99999GF199999041990009141991991MA1101201999990REMMET051METAR SBLP 271900Z 33004KT 9999 SCT030 36/18 Q1012=
0142832880999992014052720004-13262-043408FM-15+044399999V0209999C000019999999N009999199+03501+02201999999ADDGA1041+009141991GE19MSL   +99999+99999GF199999041990009141991991MA1101201999990REMMET051METAR SBLP 272000Z 00000KT 9999 SCT030 35/22 Q1012=
0142832880999992014052721004-13262-043408FM-15+044399999V0209999C000019999999N009999199+03201+01701999999ADDGA1021+009141991GE19MSL   +99999+99999GF199999021990009141991991MA1101201999990REMMET051METAR SBLP 272100Z 00000KT 9999 FEW030 32/17 Q1012=
0072832880999992014052809154-13262-043408FM-16+044399999V0201001N002119999999Y999999999+02201+01401999999ADDMA1101401999990REMMET045SPECI SBLP 280915Z 10004KT CAVOK 22/14 Q1014=
0072832880999992014052810004-13262-043408FM-15+044399999V0200801N003119999999Y999999999+02301+01601999999ADDMA1101501999990REMMET045METAR SBLP 281000Z 08006KT CAVOK 23/16 Q1015=
0072832880999992014052811004-13262-043408FM-15+044399999V0200901N002619999999Y999999999+02601+01701999999ADDMA1101601999990REMMET045METAR SBLP 281100Z 09005KT CAVOK 26/17 Q1016=
0111832880999992014052812004-13267-043417FM-12+044199999V0203601N0000122000199020000199+02791+01631101251ADDAA101999990AZ101061AZ201061GF100991999999999999999999KA1120N+02241MA1999990096421MD1909990-0181REMSYN004BUFR
0072832880999992014052812004-13262-043408FM-15+044399999V0201001N003119999999Y999999999+02901+01601999999ADDMA1101601999990REMMET045METAR SBLP 281200Z 10006KT CAVOK 29/16 Q1016=
0072832880999992014052813004-13262-043408FM-15+044399999V0201201N003619999999Y999999999+03201+01501999999ADDMA1101601999990REMMET045METAR SBLP 281300Z 12007KT CAVOK 32/15 Q1016=
0072832880999992014052814004-13262-043408FM-15+044399999V0203301N002119999999Y999999999+03301+01601999999ADDMA1101501999990REMMET045METAR SBLP 281400Z 33004KT CAVOK 33/16 Q1015=
0142832880999992014052815004-13262-043408FM-15+044399999V0201801N001019999999N009999199+03401+01501999999ADDGA1021+009141991GE19MSL   +99999+99999GF199999021990009141991991MA1101401999990REMMET051METAR SBLP 281500Z 18002KT 9999 FEW030 34/15 Q1014=
0142832880999992014052816004-13262-043408FM-15+044399999V0203001N002119999999N009999199+03501+01601999999ADDGA1021+009141991GE19MSL   +99999+99999GF199999021990009141991991MA1101301999990REMMET051METAR SBLP 281600Z 30004KT 9999 FEW030 35/16 Q1013=
0142832880999992014052817004-13262-043408FM-15+044399999V0209999C000019999999N009999199+03501+01501999999ADDGA1021+009141991GE19MSL   +99999+99999GF199999021990009141991991MA1101201999990REMMET051METAR SBLP 281700Z 00000KT 9999 FEW030 35/15 Q1012=
0136832880999992014052818004-13267-043417FM-12+044199999V0203601N0000199999999020000199+03541+01621100731ADDAA101999990AZ101061AZ201061GA1031+008001081GE19MSL   +99999+99999GF103991031990008001991991MA1999990095941MD1909990-0121REMSYN004BUFR
0142832880999992014052818004-13262-043408FM-15+044399999V0203001N002119999999N009999199+03601+01401999999ADDGA1021+009141991GE19MSL   +99999+99999GF199999021990009141991991MA1101101999990REMMET051METAR SBLP 281800Z 30004KT 9999 FEW030 36/14 Q1011=
0142832880999992014052819004-13262-043408FM-15+044399999V0203101N001519999999N009999199+03501+01501999999ADDGA1021+009141991GE19MSL   +99999+99999GF199999021990009141991991MA1101101999990REMMET051METAR SBLP 281900Z 31003KT 9999 FEW030 35/15 Q1011=
0142832880999992014052820004-13262-043408FM-15+044399999V0202701N001019999999N009999199+03501+01601999999ADDGA1021+009141991GE19MSL   +99999+99999GF199999021990009141991991MA1101101999990REMMET051METAR SBLP 282000Z 27002KT 9999 FEW030 35/16 Q1011=
0142832880999992014052821004-13262-043408FM-15+044399999V0209999C000019999999N009999199+03201+01601999999ADDGA1021+009141991GE19MSL   +99999+99999GF199999021990009141991991MA1101101999990REMMET051METAR SBLP 282100Z 00000KT 9999 FEW030 32/16 Q1011=
0072832880999992014052909154-13262-043408FM-16+044399999V0209999C000019999999Y999999999+02201+01601999999ADDMA1101401999990REMMET045SPECI SBLP 290915Z 00000KT CAVOK 22/16 Q1014=
0072832880999992014052910004-13262-043408FM-15+044399999V0209999C000019999999Y999999999+02201+01601999999ADDMA1101501999990REMMET045METAR SBLP 291000Z 00000KT CAVOK 22/16 Q1015=
0072832880999992014052911004-13262-043408FM-15+044399999V0209999C000019999999Y999999999+02401+01701999999ADDMA1101501999990REMMET045METAR SBLP 291100Z 00000KT CAVOK 24/17 Q1015=
0111832880999992014052912004-13267-043417FM-12+044199999V0200901N0021122000199020000199+02741+01671101221ADDAA101999990AZ101061AZ201061GF100991999999999999999999KA1120N+02221MA1999990096401MD1909990+0021REMSYN004BUFR
0072832880999992014052912004-13262-043408FM-15+044399999V0201501N002119999999Y999999999+02801+01701999999ADDMA1101601999990REMMET045METAR SBLP 291200Z 15004KT CAVOK 28/17 Q1016=
0072832880999992014052913004-13262-043408FM-15+044399999V0200901N003119999999Y999999999+03101+01501999999ADDMA1101601999990REMMET045METAR SBLP 291300Z 09006KT CAVOK 31/15 Q1016=
0072832880999992014052914004-13262-043408FM-15+044399999V0201201N004119999999Y999999999+03201+01701999999ADDMA1101501999990REMMET045METAR SBLP 291400Z 12008KT CAVOK 32/17 Q1015=
0142832880999992014052916004-13262-043408FM-15+044399999V0200601N001519999999N009999199+03401+01701999999ADDGA1021+009141991GE19MSL   +99999+99999GF199999021990009141991991MA1101301999990REMMET051METAR SBLP 291600Z 06003KT 9999 FEW030 34/17 Q1013=
0142832880999992014052917004-13262-043408FM-15+044399999V0200401N003119999999N009999199+03501+01601999999ADDGA1041+009141991GE19MSL   +99999+99999GF199999041990009141991991MA1101201999990REMMET051METAR SBLP 291700Z 04006KT 9999 SCT030 35/16 Q1012=
0136832880999992014052918004-13267-043417FM-12+044199999V0203601N0000199999999020000199+03491+01681100731ADDAA101999990AZ101061AZ201061GA1011+025001081GE19MSL   +99999+99999GF101991011990025001991991MA1999990095951MD1909990+0011REMSYN004BUFR
0142832880999992014052918004-13262-043408FM-15+044399999V0200301N003119999999N009999199+03501+01501999999ADDGA1041+009141991GE19MSL   +99999+99999GF199999041990009141991991MA1101101999990REMMET051METAR SBLP 291800Z 03006KT 9999 SCT030 35/15 Q1011=
0142832880999992014052919004-13262-043408FM-15+044399999V0201101N002619999999N009999199+03601+01401999999ADDGA1021+009141991GE19MSL   +99999+99999GF199999021990009141991991MA1101101999990REMMET051METAR SBLP 291900Z 11005KT 9999 FEW030 36/14 Q1011=
0142832880999992014052920004-13262-043408FM-15+044399999V0203001N001019999999N009999199+03501+01501999999ADDGA1021+009141991GE19MSL   +99999+99999GF199999021990009141991991MA1101101999990REMMET051METAR SBLP 292000Z 30002KT 9999 FEW030 35/15 Q1011=
0142832880999992014052921004-13262-043408FM-15+044399999V0202501N002619999999N009999199+03201+01501999999ADDGA1041+009141991GE19MSL   +99999+99999GF199999041990009141991991MA1101101999990REMMET051METAR SBLP 292100Z 25005KT 9999 SCT030 32/15 Q1011=
0136832880999992014053000004-13267-043417FM-12+044199999V0201801N0021199999999002000199+02901+01591100961ADDAA101999990AZ101061AZ201061GA1021+008001081GE19MSL   +99999+99999GF102991021990008001991991MA1999990096151MD1909990-0061REMSYN004BUFR
0142832880999992014053009154-13262-043408FM-16+044399999V0202401N001519999999N009999199+02301+01701999999ADDGA1021+009141991GE19MSL   +99999+99999GF199999021990009141991991MA1101601999990REMMET051SPECI SBLP 300915Z 24003KT 9999 FEW030 23/17 Q1016=
0165832880999992014053010004-13262-043408FM-15+044399999V0202201N00261030481CN009999199+02301+01701999999ADDGA1021+009141991GA2041+030481991GE19MSL   +99999+99999GF199999021990009141991991MA1101701999990REMMET058METAR SBLP 301000Z 22005KT 9999 FEW030 SCT100 23/17 Q1017=
0165832880999992014053011004-13262-043408FM-15+044399999V0202301N00151030481CN009999199+02401+01801999999ADDGA1021+009141991GA2041+030481991GE19MSL   +99999+99999GF199999021990009141991991MA1101701999990REMMET058METAR SBLP 301100Z 23003KT 9999 FEW030 SCT100 24/18 Q1017=
0149832880999992014053012004-13267-043417FM-12+044199999V0203601N0000100800199020000199+02571+01811101421ADDAA101999990AZ101061AZ201061GA1051+008001061GE19MSL   +99999+99999GF105991051990008001991991KA1120N+02281MA1999990096541MD1909990+0171REMSYN004BUFR
0165832880999992014053012004-13262-043408FM-15+044399999V0202001N001010304819N009999199+02601+01801999999ADDGA1021+009141991GA2071+030481991GE19MSL   +99999+99999GF199999021990009141991991MA1101801999990REMMET058METAR SBLP 301200Z 20002KT 9999 FEW030 BKN100 26/18 Q1018=
0165832880999992014053013004-13262-043408FM-15+044399999V0209999C000010304819N009999199+02801+01801999999ADDGA1021+009141991GA2071+030481991GE19MSL   +99999+99999GF199999021990009141991991MA1101801999990REMMET058METAR SBLP 301300Z 00000KT 9999 FEW030 BKN100 28/18 Q1018=
0165832880999992014053014004-13262-043408FM-15+044399999V0201201N00101030481CN009999199+03101+01701999999ADDGA1021+009141991GA2041+030481991GE19MSL   +99999+99999GF199999021990009141991991MA1101701999990REMMET058METAR SBLP 301400Z 12002KT 9999 FEW030 SCT100 31/17 Q1017=
0142832880999992014053015004-13262-043408FM-15+044399999V0202401N002619999999N009999199+03201+01701999999ADDGA1041+009141991GE19MSL   +99999+99999GF199999041990009141991991MA1101601999990REMMET051METAR SBLP 301500Z 24005KT 9999 SCT030 32/17 Q1016=
0142832880999992014053016004-13262-043408FM-15+044399999V0209999C000019999999N009999199+03201+01701999999ADDGA1041+009141991GE19MSL   +99999+99999GF199999041990009141991991MA1101501999990REMMET051METAR SBLP 301600Z 00000KT 9999 SCT030 32/17 Q1015=
0142832880999992014053017004-13262-043408FM-15+044399999V0209999C000019999999N009999199+03401+02101999999ADDGA1041+009141991GE19MSL   +99999+99999GF199999041990009141991991MA1101401999990REMMET051METAR SBLP 301700Z 00000KT 9999 SCT030 34/21 Q1014=
0136832880999992014053018004-13267-043417FM-12+044199999V0200901N0010199999999020000199+03201+01641100991ADDAA101999990AZ101061AZ201061GA1031+008001081GE19MSL   +99999+99999GF103991031990008001991991MA1999990096171MD1909990-0221REMSYN004BUFR
0142832880999992014053018004-13262-043408FM-15+044399999V0202101N002110091419N009999199+03601+01701999999ADDGA1071+009141991GE19MSL   +99999+99999GF199999071990009141991991MA1101401999990REMMET051METAR SBLP 301800Z 21004KT 9999 BKN030 36/17 Q1014=
0142832880999992014053019004-13262-043408FM-15+044399999V0202301N002619999999N009999199+03501+01701999999ADDGA1041+009141991GE19MSL   +99999+99999GF199999041990009141991991MA1101301999990REMMET051METAR SBLP 301900Z 23005KT 9999 SCT030 35/17 Q1013=
0142832880999992014053020004-13262-043408FM-15+044399999V0201901N002619999999N009999199+03301+02201999999ADDGA1041+009141991GE19MSL   +99999+99999GF199999041990009141991991MA1101301999990REMMET051METAR SBLP 302000Z 19005KT 9999 SCT030 33/22 Q1013=
0142832880999992014053021004-13262-043408FM-15+044399999V0202101N002619999999N009999199+03001+01801999999ADDGA1021+009141991GE19MSL   +99999+99999GF199999021990009141991991MA1101401999990REMMET051METAR SBLP 302100Z 21005KT 9999 FEW030 30/18 Q1014=
0098832880999992014053100004-13267-043417FM-12+044199999V0201401N0015122000199002000199+02621+01711101231ADDAA101999990AZ101061AZ201061GF100991999999999999999999MA1999990096351MD1909990-0201REMSYN004BUFR
0111832880999992014053112004-13267-043417FM-12+044199999V0201401N0015122000199020000199+02471+01511101601ADDAA101999990AZ101061AZ201061GF100991999999999999999999KA1120N+02021MA1999990096701MD1909990+0131REMSYN004BUFR
0168832880999992014053118004-13267-043417FM-12+044199999V0201401N0005199999999020000199+03191+01411101031ADDAA101999990AZ101061AZ201061GA1031+008001081GA2991+999991051GA3991+999991021GE19MSL   +99999+99999GF106991031990008001991991MA1999990096171MD1909990+0001REMSYN004BUFR
0149832880999992014060112004-13267-043417FM-12+044199999V0203601N0005199999999020000199+02591+01591101441ADDAA101999990AZ101061AZ201061GA1011+008001081GE19MSL   +99999+99999GF101991011990008001991991KA1120N+01971MA1999990096551MD1909990-0151REMSYN004BUFR
0136832880999992014060118004-13267-043417FM-12+044199999V0202301N0026199999999020000199+03321+00991100821ADDAA101999990AZ101061AZ201061GA1011+008001081GE19MSL   +99999+99999GF101991011990008001991991MA1999990096031MD1909990-0141REMSYN004BUFR
0072832880999992014060209154-13262-043408FM-16+044399999V0209999C000019999999Y999999999+01901+01301999999ADDMA1101301999990REMMET045SPECI SBLP 020915Z 00000KT CAVOK 19/13 Q1013=
0072832880999992014060210004-13262-043408FM-15+044399999V0201701N001019999999Y999999999+01901+01401999999ADDMA1101301999990REMMET045METAR SBLP 021000Z 17002KT CAVOK 19/14 Q1013=
0072832880999992014060211004-13262-043408FM-15+044399999V0209999C000019999999Y999999999+02301+01401999999ADDMA1101401999990REMMET045METAR SBLP 021100Z 00000KT CAVOK 23/14 Q1014=
0111832880999992014060212004-13267-043417FM-12+044199999V0200501N0010122000199020000199+02591+01311101381ADDAA101999990AZ101061AZ201061GF100991999999999999999999KA1120N+01941MA1999990096501MD1909990-0051REMSYN004BUFR
0072832880999992014060212004-13262-043408FM-15+044399999V0201101N002119999999Y999999999+02701+01301999999ADDMA1101401999990REMMET045METAR SBLP 021200Z 11004KT CAVOK 27/13 Q1014=
0072832880999992014060213004-13262-043408FM-15+044399999V0200801N002119999999Y999999999+03001+01301999999ADDMA1101401999990REMMET045METAR SBLP 021300Z 08004KT CAVOK 30/13 Q1014=
0142832880999992014060214004-13262-043408FM-15+044399999V0203601N002119999999N009999199+03101+01301999999ADDGA1021+009141991GE19MSL   +99999+99999GF199999021990009141991991MA1101401999990REMMET051METAR SBLP 021400Z 36004KT 9999 FEW030 31/13 Q1014=
0142832880999992014060215004-13262-043408FM-15+044399999V0200701N002119999999N009999199+03201+01401999999ADDGA1021+009141991GE19MSL   +99999+99999GF199999021990009141991991MA1101201999990REMMET051METAR SBLP 021500Z 07004KT 9999 FEW030 32/14 Q1012=
0142832880999992014060216004-13262-043408FM-15+044399999V0202401N002119999999N009999199+03301+01301999999ADDGA1021+009141991GE19MSL   +99999+99999GF199999021990009141991991MA1101101999990REMMET051METAR SBLP 021600Z 24004KT 9999 FEW030 33/13 Q1011=
0142832880999992014060217004-13262-043408FM-15+044399999V0202801N004119999999N009999199+03301+01201999999ADDGA1041+009141991GE19MSL   +99999+99999GF199999041990009141991991MA1101101999990REMMET051METAR SBLP 021700Z 28008KT 9999 SCT030 33/12 Q1011=
0152832880999992014060218004-13267-043417FM-12+044199999V0202301N0005199999999020000199+03291+01351100721ADDAA101999990AZ101061AZ201061GA1021+008001081GA2991+999991001GE19MSL   +99999+99999GF103991021990008001991991MA1999990095861MD1909990-0171REMSYN004BUFR
0142832880999992014060218004-13262-043408FM-15+044399999V0200101N003119999999N009999199+03401+01101999999ADDGA1041+009141991GE19MSL   +99999+99999GF199999041990009141991991MA1101001999990REMMET051METAR SBLP 021800Z 01006KT 9999 SCT030 34/11 Q1010=
0142832880999992014060219004-13262-043408FM-15+044399999V0202501N001519999999N009999199+03301+01101999999ADDGA1041+009141991GE19MSL   +99999+99999GF199999041990009141991991MA1101001999990REMMET051METAR SBLP 021900Z 25003KT 9999 SCT030 33/11 Q1010=
0142832880999992014060220004-13262-043408FM-15+044399999V0202401N001019999999N009999199+03301+01001999999ADDGA1021+009141991GE19MSL   +99999+99999GF199999021990009141991991MA1101001999990REMMET051METAR SBLP 022000Z 24002KT 9999 FEW030 33/10 Q1010=
0142832880999992014060221004-13262-043408FM-15+044399999V0209999C000019999999N009999199+03001+01201999999ADDGA1021+009141991GE19MSL   +99999+99999GF199999021990009141991991MA1101101999990REMMET051METAR SBLP 022100Z 00000KT 9999 FEW030 30/12 Q1011=
0136832880999992014060300004-13267-043417FM-12+044199999V0203601N0005199999999002000199+02701+01641100971ADDAA101999990AZ101061AZ201061GA1031+008001081GE19MSL   +99999+99999GF103991031990008001991991MA1999990096121MD1909990-0041REMSYN004BUFR
0165832880999992014060309154-13262-043408FM-16+044399999V0200601N001510304819N009999199+02201+01601999999ADDGA1041+009141991GA2071+030481991GE19MSL   +99999+99999GF199999041990009141991991MA1101301999990REMMET058SPECI SBLP 030915Z 06003KT 9999 SCT030 BKN100 22/16 Q1013=
0165832880999992014060310004-13262-043408FM-15+044399999V0200501N00211030481CN009999199+02301+01601999999ADDGA1021+009141991GA2041+030481991GE19MSL   +99999+99999GF199999021990009141991991MA1101301999990REMMET058METAR SBLP 031000Z 05004KT 9999 FEW030 SCT100 23/16 Q1013=
0142832880999992014060311004-13262-043408FM-15+044399999V0200501N002619999999N009999199+02601+01701999999ADDGA1021+009141991GE19MSL   +99999+99999GF199999021990009141991991MA1101401999990REMMET051METAR SBLP 031100Z 05005KT 9999 FEW030 26/17 Q1014=
0149832880999992014060312004-13267-043417FM-12+044199999V0203201N0015199999999020000199+02791+01731101111ADDAA101999990AZ101061AZ201061GA1011+008001081GE19MSL   +99999+99999GF101991011990008001991991KA1120N+02191MA1999990096271MD1909990-0231REMSYN004BUFR
0142832880999992014060312004-13262-043408FM-15+044399999V0200801N003119999999N009999199+02901+01501999999ADDGA1021+009141991GE19MSL   +99999+99999GF199999021990009141991991MA1101401999990REMMET051METAR SBLP 031200Z 08006KT 9999 FEW030 29/15 Q1014=
0142832880999992014060313004-13262-043408FM-15+044399999V0200601N003119999999N009999199+03201+01501999999ADDGA1021+009141991GE19MSL   +99999+99999GF199999021990009141991991MA1101401999990REMMET051METAR SBLP 031300Z 06006KT 9999 FEW030 32/15 Q1014=
0142832880999992014060314004-13262-043408FM-15+044399999V0200501N002619999999N009999199+03301+01501999999ADDGA1021+009141991GE19MSL   +99999+99999GF199999021990009141991991MA1101401999990REMMET051METAR SBLP 031400Z 05005KT 9999 FEW030 33/15 Q1014=
0142832880999992014060315004-13262-043408FM-15+044399999V0200801N003619999999N009999199+03301+01301999999ADDGA1041+009141991GE19MSL   +99999+99999GF199999041990009141991991MA1101301999990REMMET051METAR SBLP 031500Z 08007KT 9999 SCT030 33/13 Q1013=
0142832880999992014060316004-13262-043408FM-15+044399999V0200801N002119999999N009999199+03301+01301999999ADDGA1041+009141991GE19MSL   +99999+99999GF199999041990009141991991MA1101201999990REMMET051METAR SBLP 031600Z 08004KT 9999 SCT030 33/13 Q1012=
0142832880999992014060317004-13262-043408FM-15+044399999V0209999C000019999999N009999199+03301+01501999999ADDGA1041+009141991GE19MSL   +99999+99999GF199999041990009141991991MA1101101999990REMMET051METAR SBLP 031700Z 00000KT 9999 SCT030 33/15 Q1011=
0136832880999992014060318004-13267-043417FM-12+044199999V0201801N0015100800199020000199+03221+01241100661ADDAA101999990AZ101061AZ201061GA1071+008001081GE19MSL   +99999+99999GF107991071990008001991991MA1999990095841MD1909990-0021REMSYN004BUFR
0142832880999992014060318004-13262-043408FM-15+044399999V0202701N002110091419N009999199+03401+01601999999ADDGA1071+009141991GE19MSL   +99999+99999GF199999071990009141991991MA1101101999990REMMET051METAR SBLP 031800Z 27004KT 9999 BKN030 34/16 Q1011=
0142832880999992014060319004-13262-043408FM-15+044399999V0202901N002119999999N009999199+03501+01601999999ADDGA1041+009141991GE19MSL   +99999+99999GF199999041990009141991991MA1101001999990REMMET051METAR SBLP 031900Z 29004KT 9999 SCT030 35/16 Q1010=
0142832880999992014060320004-13262-043408FM-15+044399999V0209999C000019999999N009999199+03401+01601999999ADDGA1021+009141991GE19MSL   +99999+99999GF199999021990009141991991MA1101001999990REMMET051METAR SBLP 032000Z 00000KT 9999 FEW030 34/16 Q1010=
0142832880999992014060321004-13262-043408FM-15+044399999V0209999C000019999999N009999199+03101+01601999999ADDGA1021+009141991GE19MSL   +99999+99999GF199999021990009141991991MA1101101999990REMMET051METAR SBLP 032100Z 00000KT 9999 FEW030 31/16 Q1011=
0136832880999992014060400004-13267-043417FM-12+044199999V0203601N0000199999999002000199+02821+01741100861ADDAA101999990AZ101061AZ201061GA1011+008001081GE19MSL   +99999+99999GF101991011990008001991991MA1999990096051MD1909990-0071REMSYN004BUFR
0142832880999992014060409154-13262-043408FM-16+044399999V0209999C000019999999N009999199+02201+01901999999ADDGA1041+009141991GE19MSL   +99999+99999GF199999041990009141991991MA1101401999990REMMET051SPECI SBLP 040915Z 00000KT 9999 SCT030 22/19 Q1014=
0142832880999992014060410004-13262-043408FM-15+044399999V0202901N002119999999N009999199+02301+01901999999ADDGA1041+009141991GE19MSL   +99999+99999GF199999041990009141991991MA1101501999990REMMET051METAR SBLP 041000Z 29004KT 9999 SCT030 23/19 Q1015=
0142832880999992014060411004-13262-043408FM-15+044399999V0202701N002619999999N009999199+02401+01901999999ADDGA1041+009141991GE19MSL   +99999+99999GF199999041990009141991991MA1101501999990REMMET051METAR SBLP 041100Z 27005KT 9999 SCT030 24/19 Q1015=
0149832880999992014060412004-13267-043417FM-12+044199999V0201401N0015199999999020000199+02501+01801101261ADDAA101999990AZ101061AZ201061GA1021+008001081GE19MSL   +99999+99999GF102991021990008001991991KA1120N+02201MA1999990096391MD1909990+0121REMSYN004BUFR
0165832880999992014060412004-13262-043408FM-15+044399999V0202601N00211030481CN009999199+02601+01901999999ADDGA1021+009141991GA2041+030481991GE19MSL   +99999+99999GF199999021990009141991991MA1101601999990REMMET058METAR SBLP 041200Z 26004KT 9999 FEW030 SCT100 26/19 Q1016=
0165832880999992014060413004-13262-043408FM-15+044399999V0202501N00211030481CN009999199+02901+01601999999ADDGA1021+009141991GA2041+030481991GE19MSL   +99999+99999GF199999021990009141991991MA1101601999990REMMET058METAR SBLP 041300Z 25004KT 9999 FEW030 SCT100 29/16 Q1016=
0165832880999992014060414004-13262-043408FM-15+044399999V0203201N00151030481CN009999199+03101+01901999999ADDGA1021+009141991GA2041+030481991GE19MSL   +99999+99999GF199999021990009141991991MA1101601999990REMMET058METAR SBLP 041400Z 32003KT 9999 FEW030 SCT100 31/19 Q1016=
0165832880999992014060415004-13262-043408FM-15+044399999V0202801N00261030481CN009999199+03201+01801999999ADDGA1021+009141991GA2041+030481991GE19MSL   +99999+99999GF199999021990009141991991MA1101501999990REMMET058METAR SBLP 041500Z 28005KT 9999 FEW030 SCT100 32/18 Q1015=
0142832880999992014060416004-13262-043408FM-15+044399999V0203301N002119999999N009999199+03301+01501999999ADDGA1041+009141991GE19MSL   +99999+99999GF199999041990009141991991MA1101401999990REMMET051METAR SBLP 041600Z 33004KT 9999 SCT030 33/15 Q1014=
0142832880999992014060417004-13262-043408FM-15+044399999V0203501N002119999999N009999199+03401+01601999999ADDGA1041+009141991GE19MSL   +99999+99999GF199999041990009141991991MA1101301999990REMMET051METAR SBLP 041700Z 35004KT 9999 SCT030 34/16 Q1013=
0136832880999992014060418004-13267-043417FM-12+044199999V0201801N0015199999999020000199+03341+01671100741ADDAA101999990AZ101061AZ201061GA1011+008001081GE19MSL   +99999+99999GF101991011990008001991991MA1999990095931MD1909990+0091REMSYN004BUFR
0142832880999992014060418004-13262-043408FM-15+044399999V0202501N001019999999N009999199+03401+01601999999ADDGA1041+009141991GE19MSL   +99999+99999GF199999041990009141991991MA1101201999990REMMET051METAR SBLP 041800Z 25002KT 9999 SCT030 34/16 Q1012=
0142832880999992014060419004-13262-043408FM-15+044399999V0202701N002119999999N009999199+03401+01601999999ADDGA1041+009141991GE19MSL   +99999+99999GF199999041990009141991991MA1101201999990REMMET051METAR SBLP 041900Z 27004KT 9999 SCT030 34/16 Q1012=
0142832880999992014060420004-13262-043408FM-15+044399999V0202701N001519999999N009999199+03301+01601999999ADDGA1041+009141991GE19MSL   +99999+99999GF199999041990009141991991MA1101201999990REMMET051METAR SBLP 042000Z 27003KT 9999 SCT030 33/16 Q1012=
0142832880999992014060421004-13262-043408FM-15+044399999V0202101N003119999999N009999199+03001+01701999999ADDGA1021+009141991GE19MSL   +99999+99999GF199999021990009141991991MA1101301999990REMMET051METAR SBLP 042100Z 21006KT 9999 FEW030 30/17 Q1013=
0098832880999992014060500004-13267-043417FM-12+044199999V0201401N0015122000199002000199+02591+01801101131ADDAA101999990AZ101061AZ201061GF100991999999999999999999MA1999990096251MD1909990+0201REMSYN004BUFR
0072832880999992014060509154-13262-043408FM-16+044399999V0209999C000019999999Y999999999+01901+01701999999ADDMA1101501999990REMMET045SPECI SBLP 050915Z 00000KT CAVOK 19/17 Q1015=
0072832880999992014060510004-13262-043408FM-15+044399999V0202701N001019999999Y999999999+02001+01801999999ADDMA1101601999990REMMET045METAR SBLP 051000Z 27002KT CAVOK 20/18 Q1016=
0072832880999992014060511004-13262-043408FM-15+044399999V0202301N001519999999Y999999999+02401+01701999999ADDMA1101601999990REMMET045METAR SBLP 051100Z 23003KT CAVOK 24/17 Q1016=
0111832880999992014060512004-13267-043417FM-12+044199999V0201401N0005122000199020000199+02651+01711101331ADDAA101999990AZ101061AZ201061GF100991999999999999999999KA1120N+01991MA1999990096451MD1909990+0061REMSYN004BUFR
0072832880999992014060512004-13262-043408FM-15+044399999V0202101N001019999999Y999999999+02801+01701999999ADDMA1101701999990REMMET045METAR SBLP 051200Z 21002KT CAVOK 28/17 Q1017=
0142832880999992014060513004-13262-043408FM-15+044399999V0209999C000019999999N009999199+03001+01601999999ADDGA1021+009141991GE19MSL   +99999+99999GF199999021990009141991991MA1101601999990REMMET051METAR SBLP 051300Z 00000KT 9999 FEW030 30/16 Q1016=
0142832880999992014060514004-13262-043408FM-15+044399999V0202401N001019999999N009999199+03201+01601999999ADDGA1021+009141991GE19MSL   +99999+99999GF199999021990009141991991MA1101601999990REMMET051METAR SBLP 051400Z 24002KT 9999 FEW030 32/16 Q1016=
0142832880999992014060515004-13262-043408FM-15+044399999V0201401N001519999999N009999199+03301+01601999999ADDGA1021+009141991GE19MSL   +99999+99999GF199999021990009141991991MA1101501999990REMMET051METAR SBLP 051500Z 14003KT 9999 FEW030 33/16 Q1015=
0142832880999992014060516004-13262-043408FM-15+044399999V0203001N003119999999N009999199+03501+01601999999ADDGA1041+009141991GE19MSL   +99999+99999GF199999041990009141991991MA1101301999990REMMET051METAR SBLP 051600Z 30006KT 9999 SCT030 35/16 Q1013=
0142832880999992014060517004-13262-043408FM-15+044399999V0202901N002119999999N009999199+03401+01501999999ADDGA1041+009141991GE19MSL   +99999+99999GF199999041990009141991991MA1101301999990REMMET051METAR SBLP 051700Z 29004KT 9999 SCT030 34/15 Q1013=
0136832880999992014060518004-13267-043417FM-12+044199999V0201401N0010199999999020000199+03321+01581100951ADDAA101999990AZ101061AZ201061GA1041+008001081GE19MSL   +99999+99999GF104991041990008001991991MA1999990096131MD1909990+0201REMSYN004BUFR
0142832880999992014060518004-13262-043408FM-15+044399999V0202101N003119999999N009999199+03501+01501999999ADDGA1041+009141991GE19MSL   +99999+99999GF199999041990009141991991MA1101201999990REMMET051METAR SBLP 051800Z 21006KT 9999 SCT030 35/15 Q1012=
0142832880999992014060519004-13262-043408FM-15+044399999V0202901N003119999999N009999199+03501+01401999999ADDGA1041+009141991GE19MSL   +99999+99999GF199999041990009141991991MA1101201999990REMMET051METAR SBLP 051900Z 29006KT 9999 SCT030 35/14 Q1012=
0142832880999992014060520004-13262-043408FM-15+044399999V0201801N003119999999N009999199+03401+01201999999ADDGA1041+009141991GE19MSL   +99999+99999GF199999041990009141991991MA1101201999990REMMET051METAR SBLP 052000Z 18006KT 9999 SCT030 34/12 Q1012=
0142832880999992014060521004-13262-043408FM-15+044399999V0201901N002119999999N009999199+03101+01401999999ADDGA1021+009141991GE19MSL   +99999+99999GF199999021990009141991991MA1101201999990REMMET051METAR SBLP 052100Z 19004KT 9999 FEW030 31/14 Q1012=
0098832880999992014060600004-13267-043417FM-12+044199999V0202301N0015122000199002000199+02741+01511101081ADDAA101999990AZ101061AZ201061GF100991999999999999999999MA1999990096241MD1909990-0011REMSYN004BUFR
0072832880999992014060609154-13262-043408FM-16+044399999V0202901N001519999999Y999999999+02001+01601999999ADDMA1101401999990REMMET045SPECI SBLP 060915Z 29003KT CAVOK 20/16 Q1014=
0072832880999992014060610004-13262-043408FM-15+044399999V0209999C000019999999Y999999999+02101+01601999999ADDMA1101501999990REMMET045METAR SBLP 061000Z 00000KT CAVOK 21/16 Q1015=
0072832880999992014060611004-13262-043408FM-15+044399999V0209999C000019999999Y999999999+02301+01701999999ADDMA1101501999990REMMET045METAR SBLP 061100Z 00000KT CAVOK 23/17 Q1015=
0111832880999992014060612004-13267-043417FM-12+044199999V0200501N0015122000199020000199+02641+01601101311ADDAA101999990AZ101061AZ201061GF100991999999999999999999KA1120N+02041MA1999990096451MD1909990+0001REMSYN004BUFR
0072832880999992014060612004-13262-043408FM-15+044399999V0201701N002619999999Y999999999+02701+01601999999ADDMA1101601999990REMMET045METAR SBLP 061200Z 17005KT CAVOK 27/16 Q1016=
0072832880999992014060613004-13262-043408FM-15+044399999V0201501N002119999999Y999999999+02901+01501999999ADDMA1101601999990REMMET045METAR SBLP 061300Z 15004KT CAVOK 29/15 Q1016=
0072832880999992014060614004-13262-043408FM-15+044399999V0200901N001519999999Y999999999+03101+01401999999ADDMA1101501999990REMMET045METAR SBLP 061400Z 09003KT CAVOK 31/14 Q1015=
0142832880999992014060615004-13262-043408FM-15+044399999V0202001N003119999999N009999199+03301+01301999999ADDGA1021+009141991GE19MSL   +99999+99999GF199999021990009141991991MA1101401999990REMMET051METAR SBLP 061500Z 20006KT 9999 FEW030 33/13 Q1014=
0142832880999992014060616004-13262-043408FM-15+044399999V0209999C000019999999N009999199+03401+01201999999ADDGA1021+009141991GE19MSL   +99999+99999GF199999021990009141991991MA1101301999990REMMET051METAR SBLP 061600Z 00000KT 9999 FEW030 34/12 Q1013=
0142832880999992014060617004-13262-043408FM-15+044399999V0202301N001019999999N009999199+03401+01301999999ADDGA1021+009141991GE19MSL   +99999+99999GF199999021990009141991991MA1101201999990REMMET051METAR SBLP 061700Z 23002KT 9999 FEW030 34/13 Q1012=
0136832880999992014060618004-13267-043417FM-12+044199999V0201401N0015199999999020000199+03341+01351100791ADDAA101999990AZ101061AZ201061GA1041+008001081GE19MSL   +99999+99999GF104991041990008001991991MA1999990095981MD1909990-0151REMSYN004BUFR
0142832880999992014060618004-13262-043408FM-15+044399999V0202501N002619999999N009999199+03401+01201999999ADDGA1041+009141991GE19MSL   +99999+99999GF199999041990009141991991MA1101101999990REMMET051METAR SBLP 061800Z 25005KT 9999 SCT030 34/12 Q1011=
0142832880999992014060619004-13262-043408FM-15+044399999V0209999C000010091419N009999199+03301+01101999999ADDGA1071+009141991GE19MSL   +99999+99999GF199999071990009141991991MA1101101999990REMMET051METAR SBLP 061900Z 00000KT 9999 BKN030 33/11 Q1011=
0142832880999992014060620004-13262-043408FM-15+044399999V0202101N002110091419N009999199+03301+01101999999ADDGA1071+009141991GE19MSL   +99999+99999GF199999071990009141991991MA1101201999990REMMET051METAR SBLP 062000Z 21004KT 9999 BKN030 33/11 Q1012=
0142832880999992014060621004-13262-043408FM-15+044399999V0209999C000019999999N009999199+03101+01201999999ADDGA1041+009141991GE19MSL   +99999+99999GF199999041990009141991991MA1101201999990REMMET051METAR SBLP 062100Z 00000KT 9999 SCT030 31/12 Q1012=
0152832880999992014060700004-13267-043417FM-12+044199999V0203601N0000199999999002000199+02751+01431101021ADDAA101999990AZ101061AZ201061GA1021+008001081GA2991+999991051GE19MSL   +99999+99999GF104991021990008001991991MA1999990096181MD1909990-0061REMSYN004BUFR
0111832880999992014060712004-13267-043417FM-12+044199999V0201401N0015122000199020000199+02601+01481101261ADDAA101999990AZ101061AZ201061GF100991999999999999999999KA1120N+01971MA1999990096411MD1909990-0041REMSYN004BUFR
0136832880999992014060718004-13267-043417FM-12+044199999V0201401N0026199999999020000199+03271+01131100811ADDAA101999990AZ101061AZ201061GA1011+008001081GE19MSL   +99999+99999GF101991011990008001991991MA1999990095981MD1909990+0001REMSYN004BUFR
0111832880999992014060812004-13267-043417FM-12+044199999V0200901N0015122000199020000199+02591+01171101451ADDAA101999990AZ101061AZ201061GF100991999999999999999999KA1120N+01861MA1999990096561MD1909990+0151REMSYN004BUFR
0098832880999992014060818004-13267-043417FM-12+044199999V0200901N0005122000199020000199+03201+00961100961ADDAA101999990AZ101061AZ201061GF100991999999999999999999MA1999990096111MD1909990+0131REMSYN004BUFR
0165832880999992014060909154-13262-043408FM-16+044399999V0209999C00001030481CN009999199+01901+01601999999ADDGA1021+009141991GA2041+030481991GE19MSL   +99999+99999GF199999021990009141991991MA1101801999990REMMET058SPECI SBLP 090915Z 00000KT 9999 FEW030 SCT100 19/16 Q1018=
0142832880999992014060910004-13262-043408FM-15+044399999V0203001N001519999999N009999199+02001+01701999999ADDGA1021+009141991GE19MSL   +99999+99999GF199999021990009141991991MA1101901999990REMMET051METAR SBLP 091000Z 30003KT 9999 FEW030 20/17 Q1019=
0142832880999992014060911004-13262-043408FM-15+044399999V0209999C000019999999N009999199+02301+01601999999ADDGA1021+009141991GE19MSL   +99999+99999GF199999021990009141991991MA1101901999990REMMET051METAR SBLP 091100Z 00000KT 9999 FEW030 23/16 Q1019=
0111832880999992014060912004-13267-043417FM-12+044199999V0201401N0015122000199020000199+02471+01631101721ADDAA101999990AZ101061AZ201061GF100991999999999999999999KA1120N+01931MA1999990096801MD1909990+0241REMSYN004BUFR
0142832880999992014060912004-13262-043408FM-15+044399999V0209999C000019999999N009999199+02601+01701999999ADDGA1021+009141991GE19MSL   +99999+99999GF199999021990009141991991MA1102001999990REMMET051METAR SBLP 091200Z 00000KT 9999 FEW030 26/17 Q1020=
0142832880999992014060913004-13262-043408FM-15+044399999V0201901N002119999999N009999199+02901+01801999999ADDGA1021+009141991GE19MSL   +99999+99999GF199999021990009141991991MA1102001999990REMMET051METAR SBLP 091300Z 19004KT 9999 FEW030 29/18 Q1020=
0142832880999992014060914004-13262-043408FM-15+044399999V0202101N002619999999N009999199+03101+01501999999ADDGA1021+009141991GE19MSL   +99999+99999GF199999021990009141991991MA1101901999990REMMET051METAR SBLP 091400Z 21005KT 9999 FEW030 31/15 Q1019=
0142832880999992014060915004-13262-043408FM-15+044399999V0209999C000019999999N009999199+03301+01401999999ADDGA1041+009141991GE19MSL   +99999+99999GF199999041990009141991991MA1101801999990REMMET051METAR SBLP 091500Z 00000KT 9999 SCT030 33/14 Q1018=
0142832880999992014060916004-13262-043408FM-15+044399999V0202801N001519999999N009999199+03301+01201999999ADDGA1041+009141991GE19MSL   +99999+99999GF199999041990009141991991MA1101701999990REMMET051METAR SBLP 091600Z 28003KT 9999 SCT030 33/12 Q1017=
0142832880999992014060917004-13262-043408FM-15+044399999V0202701N003119999999N009999199+03301+01201999999ADDGA1041+009141991GE19MSL   +99999+99999GF199999041990009141991991MA1101601999990REMMET051METAR SBLP 091700Z 27006KT 9999 SCT030 33/12 Q1016=
0142832880999992014060918004-13262-043408FM-15+044399999V0202201N003619999999N009999199+03501+01001999999ADDGA1021+009141991GE19MSL   +99999+99999GF199999021990009141991991MA1101501999990REMMET051METAR SBLP 091800Z 22007KT 9999 FEW030 35/10 Q1015=
0142832880999992014060919004-13262-043408FM-15+044399999V0202501N003119999999N009999199+03401+00801999999ADDGA1021+009141991GE19MSL   +99999+99999GF199999021990009141991991MA1101501999990REMMET051METAR SBLP 091900Z 25006KT 9999 FEW030 34/08 Q1015=
0142832880999992014060920004-13262-043408FM-15+044399999V0202401N004119999999N009999199+03301+00901999999ADDGA1021+009141991GE19MSL   +99999+99999GF199999021990009141991991MA1101501999990REMMET051METAR SBLP 092000Z 24008KT 9999 FEW030 33/09 Q1015=
0072832880999992014060921004-13262-043408FM-15+044399999V0202201N004619999999Y999999999+03001+01301999999ADDMA1101601999990REMMET045METAR SBLP 092100Z 22009KT CAVOK 30/13 Q1016=
0072832880999992014061009154-13262-043408FM-16+044399999V0203001N002119999999Y999999999+01901+01501999999ADDMA1101901999990REMMET045SPECI SBLP 100915Z 30004KT CAVOK 19/15 Q1019=
0072832880999992014061010004-13262-043408FM-15+044399999V0202901N001019999999Y999999999+02001+01601999999ADDMA1101901999990REMMET045METAR SBLP 101000Z 29002KT CAVOK 20/16 Q1019=
0072832880999992014061011004-13262-043408FM-15+044399999V0202501N001519999999Y999999999+02201+01401999999ADDMA1102001999990REMMET045METAR SBLP 101100Z 25003KT CAVOK 22/14 Q1020=
0072832880999992014061012004-13262-043408FM-15+044399999V0203001N002619999999Y999999999+02601+01601999999ADDMA1102001999990REMMET045METAR SBLP 101200Z 30005KT CAVOK 26/16 Q1020=
0072832880999992014061013004-13262-043408FM-15+044399999V0202301N003119999999Y999999999+02901+01501999999ADDMA1102001999990REMMET045METAR SBLP 101300Z 23006KT CAVOK 29/15 Q1020=
0072832880999992014061014004-13262-043408FM-15+044399999V0202001N001519999999Y999999999+03001+01501999999ADDMA1101901999990REMMET045METAR SBLP 101400Z 20003KT CAVOK 30/15 Q1019=
0142832880999992014061015004-13262-043408FM-15+044399999V0202101N003119999999N009999199+03301+01301999999ADDGA1021+009141991GE19MSL   +99999+99999GF199999021990009141991991MA1101801999990REMMET051METAR SBLP 101500Z 21006KT 9999 FEW030 33/13 Q1018=
0142832880999992014061016004-13262-043408FM-15+044399999V0201901N001519999999N009999199+03301+01201999999ADDGA1021+009141991GE19MSL   +99999+99999GF199999021990009141991991MA1101601999990REMMET051METAR SBLP 101600Z 19003KT 9999 FEW030 33/12 Q1016=
0142832880999992014061017004-13262-043408FM-15+044399999V0201901N002619999999N009999199+03401+01901999999ADDGA1041+009141991GE19MSL   +99999+99999GF199999041990009141991991MA1101501999990REMMET051METAR SBLP 101700Z 19005KT 9999 SCT030 34/19 Q1015=
0142832880999992014061018004-13262-043408FM-15+044399999V0202201N002619999999N009999199+03501+01601999999ADDGA1041+009141991GE19MSL   +99999+99999GF199999041990009141991991MA1101501999990REMMET051METAR SBLP 101800Z 22005KT 9999 SCT030 35/16 Q1015=
0142832880999992014061019004-13262-043408FM-15+044399999V0202101N003619999999N009999199+03501+01601999999ADDGA1021+009141991GE19MSL   +99999+99999GF199999021990009141991991MA1101501999990REMMET051METAR SBLP 101900Z 21007KT 9999 FEW030 35/16 Q1015=
0142832880999992014061020004-13262-043408FM-15+044399999V0202101N003119999999N009999199+03201+01601999999ADDGA1021+009141991GE19MSL   +99999+99999GF199999021990009141991991MA1101501999990REMMET051METAR SBLP 102000Z 21006KT 9999 FEW030 32/16 Q1015=
0142832880999992014061021004-13262-043408FM-15+044399999V0202201N005119999999N009999199+03001+01501999999ADDGA1021+009141991GE19MSL   +99999+99999GF199999021990009141991991MA1101601999990REMMET051METAR SBLP 102100Z 22010KT 9999 FEW030 30/15 Q1016=
0072832880999992014061109154-13262-043408FM-16+044399999V0209999C000019999999Y999999999+01901+01601999999ADDMA1101901999990REMMET045SPECI SBLP 110915Z 00000KT CAVOK 19/16 Q1019=
0072832880999992014061110004-13262-043408FM-15+044399999V0209999C000019999999Y999999999+02001+01601999999ADDMA1102001999990REMMET045METAR SBLP 111000Z 00000KT CAVOK 20/16 Q1020=
0072832880999992014061111004-13262-043408FM-15+044399999V0202701N002119999999Y999999999+02301+01601999999ADDMA1102001999990REMMET045METAR SBLP 111100Z 27004KT CAVOK 23/16 Q1020=
0142832880999992014061112004-13262-043408FM-15+044399999V0201901N002619999999N009999199+02501+01401999999ADDGA1021+009141991GE19MSL   +99999+99999GF199999021990009141991991MA1102101999990REMMET051METAR SBLP 111200Z 19005KT 9999 FEW030 25/14 Q1021=
0142832880999992014061113004-13262-043408FM-15+044399999V0202301N003619999999N009999199+02901+01601999999ADDGA1021+009141991GE19MSL   +99999+99999GF199999021990009141991991MA1102001999990REMMET051METAR SBLP 111300Z 23007KT 9999 FEW030 29/16 Q1020=
0142832880999992014061114004-13262-043408FM-15+044399999V0202201N004119999999N009999199+03001+01601999999ADDGA1021+009141991GE19MSL   +99999+99999GF199999021990009141991991MA1102001999990REMMET051METAR SBLP 111400Z 22008KT 9999 FEW030 30/16 Q1020=
0142832880999992014061115004-13262-043408FM-15+044399999V0202301N003119999999N009999199+03101+01701999999ADDGA1021+009141991GE19MSL   +99999+99999GF199999021990009141991991MA1101901999990REMMET051METAR SBLP 111500Z 23006KT 9999 FEW030 31/17 Q1019=
0142832880999992014061116004-13262-043408FM-15+044399999V0202101N003119999999N009999199+03201+01201999999ADDGA1021+009141991GE19MSL   +99999+99999GF199999021990009141991991MA1101801999990REMMET051METAR SBLP 111600Z 21006KT 9999 FEW030 32/12 Q1018=
0142832880999992014061117004-13262-043408FM-15+044399999V0202601N005119999999N009999199+03201+01401999999ADDGA1021+009141991GE19MSL   +99999+99999GF199999021990009141991991MA1101701999990REMMET051METAR SBLP 111700Z 26010KT 9999 FEW030 32/14 Q1017=
0142832880999992014061118004-13262-043408FM-15+044399999V0202201N003619999999N009999199+03301+01301999999ADDGA1021+009141991GE19MSL   +99999+99999GF199999021990009141991991MA1101601999990REMMET051METAR SBLP 111800Z 22007KT 9999 FEW030 33/13 Q1016=
0142832880999992014061119004-13262-043408FM-15+044399999V0202101N006219999999N009999199+03301+01401999999ADDGA1021+009141991GE19MSL   +99999+99999GF199999021990009141991991MA1101601999990REMMET051METAR SBLP 111900Z 21012KT 9999 FEW030 33/14 Q1016=
0072832880999992014061120004-13262-043408FM-15+044399999V0202401N003119999999Y999999999+03201+01401999999ADDMA1101601999990REMMET045METAR SBLP 112000Z 24006KT CAVOK 32/14 Q1016=
0072832880999992014061121004-13262-043408FM-15+044399999V0202301N005119999999Y999999999+02901+01401999999ADDMA1101701999990REMMET045METAR SBLP 112100Z 23010KT CAVOK 29/14 Q1017=
0072832880999992014061209154-13262-043408FM-16+044399999V0202701N001519999999Y999999999+01901+01601999999ADDMA1101901999990REMMET045SPECI SBLP 120915Z 27003KT CAVOK 19/16 Q1019=
0072832880999992014061210004-13262-043408FM-15+044399999V0209999C000019999999Y999999999+01901+01601999999ADDMA1101901999990REMMET045METAR SBLP 121000Z 00000KT CAVOK 19/16 Q1019=
0072832880999992014061211004-13262-043408FM-15+044399999V0202801N001519999999Y999999999+02201+01701999999ADDMA1102001999990REMMET045METAR SBLP 121100Z 28003KT CAVOK 22/17 Q1020=
0072832880999992014061212004-13262-043408FM-15+044399999V0202401N003619999999Y999999999+02601+01601999999ADDMA1102101999990REMMET045METAR SBLP 121200Z 24007KT CAVOK 26/16 Q1021=
0142832880999992014061213004-13262-043408FM-15+044399999V0202201N003119999999N009999199+02801+01401999999ADDGA1021+009141991GE19MSL   +99999+99999GF199999021990009141991991MA1102101999990REMMET051METAR SBLP 121300Z 22006KT 9999 FEW030 28/14 Q1021=
0142832880999992014061214004-13262-043408FM-15+044399999V0202601N003619999999N009999199+03001+01401999999ADDGA1021+009141991GE19MSL   +99999+99999GF199999021990009141991991MA1102001999990REMMET051METAR SBLP 121400Z 26007KT 9999 FEW030 30/14 Q1020=
0142832880999992014061216004-13262-043408FM-15+044399999V0201601N001519999999N009999199+03201+01201999999ADDGA1021+009141991GE19MSL   +99999+99999GF199999021990009141991991MA1101801999990REMMET051METAR SBLP 121600Z 16003KT 9999 FEW030 32/12 Q1018=
0142832880999992014061217004-13262-043408FM-15+044399999V0201701N002119999999N009999199+03301+01801999999ADDGA1021+009141991GE19MSL   +99999+99999GF199999021990009141991991MA1101701999990REMMET051METAR SBLP 121700Z 17004KT 9999 FEW030 33/18 Q1017=
0142832880999992014061218004-13262-043408FM-15+044399999V0202301N003619999999N009999199+03301+01801999999ADDGA1021+009141991GE19MSL   +99999+99999GF199999021990009141991991MA1101601999990REMMET051METAR SBLP 121800Z 23007KT 9999 FEW030 33/18 Q1016=
0142832880999992014061219004-13262-043408FM-15+044399999V0202501N002119999999N009999199+03401+01801999999ADDGA1021+009141991GE19MSL   +99999+99999GF199999021990009141991991MA1101601999990REMMET051METAR SBLP 121900Z 25004KT 9999 FEW030 34/18 Q1016=
0142832880999992014061221004-13262-043408FM-15+044399999V0209999C000019999999N009999199+03101+01401999999ADDGA1021+009141991GE19MSL   +99999+99999GF199999021990009141991991MA1101601999990REMMET051METAR SBLP 122100Z 00000KT 9999 FEW030 31/14 Q1016=
0072832880999992014061309154-13262-043408FM-16+044399999V0202701N002119999999Y999999999+02201+01701999999ADDMA1101901999990REMMET045SPECI SBLP 130915Z 27004KT CAVOK 22/17 Q1019=
0072832880999992014061310004-13262-043408FM-15+044399999V0202401N003119999999Y999999999+02301+01701999999ADDMA1101901999990REMMET045METAR SBLP 131000Z 24006KT CAVOK 23/17 Q1019=
0072832880999992014061311004-13262-043408FM-15+044399999V0202501N006219999999Y999999999+02501+01801999999ADDMA1102001999990REMMET045METAR SBLP 131100Z 25012KT CAVOK 25/18 Q1020=
0142832880999992014061312004-13262-043408FM-15+044399999V0202201N004619999999N009999199+02701+01601999999ADDGA1021+009141991GE19MSL   +99999+99999GF199999021990009141991991MA1102101999990REMMET051METAR SBLP 131200Z 22009KT 9999 FEW030 27/16 Q1021=
0142832880999992014061313004-13262-043408FM-15+044399999V0202501N003619999999N009999199+02901+01501999999ADDGA1041+009141991GE19MSL   +99999+99999GF199999041990009141991991MA1102101999990REMMET051METAR SBLP 131300Z 25007KT 9999 SCT030 29/15 Q1021=
0142832880999992014061314004-13262-043408FM-15+044399999V0202101N006710091419N009999199+03001+01601999999ADDGA1071+009141991GE19MSL   +99999+99999GF199999071990009141991991MA1102101999990REMMET051METAR SBLP 131400Z 21013KT 9999 BKN030 30/16 Q1021=
0142832880999992014061315004-13262-043408FM-15+044399999V0202301N005710091419N009999199+03101+01601999999ADDGA1071+009141991GE19MSL   +99999+99999GF199999071990009141991991MA1102001999990REMMET051METAR SBLP 131500Z 23011KT 9999 BKN030 31/16 Q1020=
0142832880999992014061316004-13262-043408FM-15+044399999V0202401N006219999999N009999199+03101+01601999999ADDGA1041+009141991GE19MSL   +99999+99999GF199999041990009141991991MA1101901999990REMMET051METAR SBLP 131600Z 24012KT 9999 SCT030 31/16 Q1019=
0142832880999992014061317004-13262-043408FM-15+044399999V0202701N002610091419N009999199+03101+01901999999ADDGA1071+009141991GE19MSL   +99999+99999GF199999071990009141991991MA1101801999990REMMET051METAR SBLP 131700Z 27005KT 9999 BKN030 31/19 Q1018=
0142832880999992014061318004-13262-043408FM-15+044399999V0202701N004610091419N009999199+03101+01701999999ADDGA1071+009141991GE19MSL   +99999+99999GF199999071990009141991991MA1101701999990REMMET051METAR SBLP 131800Z 27009KT 9999 BKN030 31/17 Q1017=
0165832880999992014061319004-13262-043408FM-15+044399999V0202601N00461030481CN009999199+03201+01701999999ADDGA1041+009141991GA2041+030481991GE19MSL   +99999+99999GF199999041990009141991991MA1101701999990REMMET058METAR SBLP 131900Z 26009KT 9999 SCT030 SCT100 32/17 Q1017=
0165832880999992014061320004-13262-043408FM-15+044399999V0202301N00511030481CN009999199+03001+01801999999ADDGA1041+009141991GA2041+030481991GE19MSL   +99999+99999GF199999041990009141991991MA1101701999990REMMET058METAR SBLP 132000Z 23010KT 9999 SCT030 SCT100 30/18 Q1017=
0142832880999992014061609154-13262-043408FM-16+044399999V0202901N001519999999N009999199+01901+01801999999ADDGA1021+009141991GE19MSL   +99999+99999GF199999021990009141991991MA1101901999990REMMET051SPECI SBLP 160915Z 29003KT 9999 FEW030 19/18 Q1019=
0142832880999992014061610004-13262-043408FM-15+044399999V0203101N002119999999N009999199+02001+01701999999ADDGA1021+009141991GE19MSL   +99999+99999GF199999021990009141991991MA1101901999990REMMET051METAR SBLP 161000Z 31004KT 9999 FEW030 20/17 Q1019=
0142832880999992014061611004-13262-043408FM-15+044399999V0202701N005119999999N009999199+02301+01801999999ADDGA1021+009141991GE19MSL   +99999+99999GF199999021990009141991991MA1102001999990REMMET051METAR SBLP 161100Z 27010KT 9999 FEW030 23/18 Q1020=
0142832880999992014061612004-13262-043408FM-15+044399999V0202501N003619999999N009999199+02701+01701999999ADDGA1021+009141991GE19MSL   +99999+99999GF199999021990009141991991MA1102001999990REMMET051METAR SBLP 161200Z 25007KT 9999 FEW030 27/17 Q1020=
0142832880999992014061613004-13262-043408FM-15+044399999V0202101N004119999999N009999199+02901+01701999999ADDGA1041+009141991GE19MSL   +99999+99999GF199999041990009141991991MA1102001999990REMMET051METAR SBLP 161300Z 21008KT 9999 SCT030 29/17 Q1020=
0142832880999992014061614004-13262-043408FM-15+044399999V0202401N001519999999N009999199+03001+01701999999ADDGA1041+009141991GE19MSL   +99999+99999GF199999041990009141991991MA1102001999990REMMET051METAR SBLP 161400Z 24003KT 9999 SCT030 30/17 Q1020=
0142832880999992014061615004-13262-043408FM-15+044399999V0202101N003610091419N009999199+03101+01601999999ADDGA1071+009141991GE19MSL   +99999+99999GF199999071990009141991991MA1101901999990REMMET051METAR SBLP 161500Z 21007KT 9999 BKN030 31/16 Q1019=
0142832880999992014061616004-13262-043408FM-15+044399999V0202101N003110091419N009999199+03201+01501999999ADDGA1071+009141991GE19MSL   +99999+99999GF199999071990009141991991MA1101801999990REMMET051METAR SBLP 161600Z 21006KT 9999 BKN030 32/15 Q1018=
0142832880999992014061617004-13262-043408FM-15+044399999V0202301N005110091419N009999199+03301+01501999999ADDGA1071+009141991GE19MSL   +99999+99999GF199999071990009141991991MA1101701999990REMMET051METAR SBLP 161700Z 23010KT 9999 BKN030 33/15 Q1017=
0142832880999992014061618004-13262-043408FM-15+044399999V0202401N006210091419N009999199+03201+01401999999ADDGA1071+009141991GE19MSL   +99999+99999GF199999071990009141991991MA1101601999990REMMET051METAR SBLP 161800Z 24012KT 9999 BKN030 32/14 Q1016=
0142832880999992014061619004-13262-043408FM-15+044399999V0202501N003610091419N009999199+03201+01401999999ADDGA1071+009141991GE19MSL   +99999+99999GF199999071990009141991991MA1101601999990REMMET051METAR SBLP 161900Z 25007KT 9999 BKN030 32/14 Q1016=
0142832880999992014061620004-13262-043408FM-15+044399999V0202401N003119999999N009999199+03001+01501999999ADDGA1041+009141991GE19MSL   +99999+99999GF199999041990009141991991MA1101701999990REMMET051METAR SBLP 162000Z 24006KT 9999 SCT030 30/15 Q1017=
0142832880999992014061621004-13262-043408FM-15+044399999V0202301N003619999999N009999199+03001+01501999999ADDGA1041+009141991GE19MSL   +99999+99999GF199999041990009141991991MA1101701999990REMMET051METAR SBLP 162100Z 23007KT 9999 SCT030 30/15 Q1017=
0142832880999992014061709154-13262-043408FM-16+044399999V0202901N001519999999N009999199+01901+01701999999ADDGA1021+006101991GE19MSL   +99999+99999GF199999021990006101991991MA1102001999990REMMET051SPECI SBLP 170915Z 29003KT 9999 FEW020 19/17 Q1020=
0142832880999992014061710004-13262-043408FM-15+044399999V0202901N001019999999N009999199+02001+01701999999ADDGA1021+006101991GE19MSL   +99999+99999GF199999021990006101991991MA1102001999990REMMET051METAR SBLP 171000Z 29002KT 9999 FEW020 20/17 Q1020=
0142832880999992014061711004-13262-043408FM-15+044399999V0203001N003119999999N009999199+02301+01701999999ADDGA1021+009141991GE19MSL   +99999+99999GF199999021990009141991991MA1102101999990REMMET051METAR SBLP 171100Z 30006KT 9999 FEW030 23/17 Q1021=
0146832880999992014061712004-13262-043408FM-15+044399999V0202301N002619999999N009999199+02601+01601999999ADDGA1021+009141991GE19MSL   +99999+99999GF199999021990009141991991REMMET051METAR SBLP 171200Z 23005KT 9999 FEW030 26/16 Q1016=EQDQ011016  3APOA  
0142832880999992014061713004-13262-043408FM-15+044399999V0202401N002619999999N009999199+02801+01401999999ADDGA1021+009141991GE19MSL   +99999+99999GF199999021990009141991991MA1102101999990REMMET051METAR SBLP 171300Z 24005KT 9999 FEW030 28/14 Q1021=
0142832880999992014061714004-13262-043408FM-15+044399999V0202301N003119999999N009999199+03001+01201999999ADDGA1021+009141991GE19MSL   +99999+99999GF199999021990009141991991MA1102001999990REMMET051METAR SBLP 171400Z 23006KT 9999 FEW030 30/12 Q1020=
0072832880999992014061715004-13262-043408FM-15+044399999V0201901N002619999999Y999999999+03101+01201999999ADDMA1101901999990REMMET045METAR SBLP 171500Z 19005KT CAVOK 31/12 Q1019=
0072832880999992014061716004-13262-043408FM-15+044399999V0209999C000019999999Y999999999+03201+01101999999ADDMA1101801999990REMMET045METAR SBLP 171600Z 00000KT CAVOK 32/11 Q1018=
0142832880999992014061717004-13262-043408FM-15+044399999V0209999C000019999999N009999199+03401+01601999999ADDGA1021+009141991GE19MSL   +99999+99999GF199999021990009141991991MA1101701999990REMMET051METAR SBLP 171700Z 00000KT 9999 FEW030 34/16 Q1017=
0142832880999992014061718004-13262-043408FM-15+044399999V0209999C000019999999N009999199+03401+01601999999ADDGA1021+009141991GE19MSL   +99999+99999GF199999021990009141991991MA1101701999990REMMET051METAR SBLP 171800Z 00000KT 9999 FEW030 34/16 Q1017=
0142832880999992014061719004-13262-043408FM-15+044399999V0209999C000010091419N009999199+03301+01701999999ADDGA1071+009141991GE19MSL   +99999+99999GF199999071990009141991991MA1101601999990REMMET051METAR SBLP 171900Z 00000KT 9999 BKN030 33/17 Q1016=
0142832880999992014061720004-13262-043408FM-15+044399999V0202601N002610091419N009999199+03201+01401999999ADDGA1071+009141991GE19MSL   +99999+99999GF199999071990009141991991MA1101701999990REMMET051METAR SBLP 172000Z 26005KT 9999 BKN030 32/14 Q1017=
0142832880999992014061721004-13262-043408FM-15+044399999V0209999C000019999999N009999199+03001+01801999999ADDGA1041+009141991GE19MSL   +99999+99999GF199999041990009141991991MA1101701999990REMMET051METAR SBLP 172100Z 00000KT 9999 SCT030 30/18 Q1017=
0072832880999992014061809154-13262-043408FM-16+044399999V0209999C000019999999Y999999999+02001+01601999999ADDMA1102001999990REMMET045SPECI SBLP 180915Z 00000KT CAVOK 20/16 Q1020=
0072832880999992014061810004-13262-043408FM-15+044399999V0209999C000019999999Y999999999+02201+01601999999ADDMA1102001999990REMMET045METAR SBLP 181000Z 00000KT CAVOK 22/16 Q1020=
0165832880999992014061811004-13262-043408FM-15+044399999V0202601N00211030481CN009999199+02301+01501999999ADDGA1021+009141991GA2041+030481991GE19MSL   +99999+99999GF199999021990009141991991MA1102101999990REMMET058METAR SBLP 181100Z 26004KT 9999 FEW030 SCT100 23/15 Q1021=
0072832880999992014061812004-13262-043408FM-15+044399999V0202401N001519999999Y999999999+02601+01401999999ADDMA1102101999990REMMET045METAR SBLP 181200Z 24003KT CAVOK 26/14 Q1021=
0142832880999992014061813004-13262-043408FM-15+044399999V0202401N003619999999N009999199+02801+01501999999ADDGA1021+009141991GE19MSL   +99999+99999GF199999021990009141991991MA1102101999990REMMET051METAR SBLP 181300Z 24007KT 9999 FEW030 28/15 Q1021=
0165832880999992014061814004-13262-043408FM-15+044399999V0202201N00361030481CN009999199+02801+01501999999ADDGA1021+009141991GA2041+030481991GE19MSL   +99999+99999GF199999021990009141991991MA1102101999990REMMET058METAR SBLP 181400Z 22007KT 9999 FEW030 SCT100 28/15 Q1021=
0165832880999992014061815004-13262-043408FM-15+044399999V0202001N002110304819N009999199+03101+01401999999ADDGA1021+009141991GA2071+030481991GE19MSL   +99999+99999GF199999021990009141991991MA1102001999990REMMET058METAR SBLP 181500Z 20004KT 9999 FEW030 BKN100 31/14 Q1020=
0165832880999992014061816004-13262-043408FM-15+044399999V0202501N002610304819N009999199+03101+01201999999ADDGA1021+009141991GA2071+030481991GE19MSL   +99999+99999GF199999021990009141991991MA1101901999990REMMET058METAR SBLP 181600Z 25005KT 9999 FEW030 BKN100 31/12 Q1019=
0165832880999992014061817004-13262-043408FM-15+044399999V0202101N003110304819N009999199+03201+01301999999ADDGA1021+009141991GA2071+030481991GE19MSL   +99999+99999GF199999021990009141991991MA1101801999990REMMET058METAR SBLP 181700Z 21006KT 9999 FEW030 BKN100 32/13 Q1018=
0165832880999992014061818004-13262-043408FM-15+044399999V0202101N003110304819N009999199+03201+01301999999ADDGA1021+009141991GA2071+030481991GE19MSL   +99999+99999GF199999021990009141991991MA1101801999990REMMET058METAR SBLP 181800Z 21006KT 9999 FEW030 BKN100 32/13 Q1018=
0165832880999992014061819004-13262-043408FM-15+044399999V0202401N003610304819N009999199+03201+01101999999ADDGA1021+009141991GA2071+030481991GE19MSL   +99999+99999GF199999021990009141991991MA1101701999990REMMET058METAR SBLP 181900Z 24007KT 9999 FEW030 BKN100 32/11 Q1017=
0165832880999992014061820004-13262-043408FM-15+044399999V0202601N004110304819N009999199+03101+01101999999ADDGA1021+009141991GA2071+030481991GE19MSL   +99999+99999GF199999021990009141991991MA1101801999990REMMET058METAR SBLP 182000Z 26008KT 9999 FEW030 BKN100 31/11 Q1018=
0165832880999992014061821004-13262-043408FM-15+044399999V0202701N00311030481CN009999199+02701+01201999999ADDGA1021+009141991GA2041+030481991GE19MSL   +99999+99999GF199999021990009141991991MA1101801999990REMMET058METAR SBLP 182100Z 27006KT 9999 FEW030 SCT100 27/12 Q1018=
0072832880999992014061909154-13262-043408FM-16+044399999V0203101N001519999999Y999999999+01701+01401999999ADDMA1102001999990REMMET045SPECI SBLP 190915Z 31003KT CAVOK 17/14 Q1020=
0072832880999992014061910004-13262-043408FM-15+044399999V0203401N002119999999Y999999999+01801+01401999999ADDMA1102001999990REMMET045METAR SBLP 191000Z 34004KT CAVOK 18/14 Q1020=
0072832880999992014061911004-13262-043408FM-15+044399999V0203001N001019999999Y999999999+02001+01501999999ADDMA1102101999990REMMET045METAR SBLP 191100Z 30002KT CAVOK 20/15 Q1021=
0072832880999992014061912004-13262-043408FM-15+044399999V0209999C000019999999Y999999999+02301+01501999999ADDMA1102201999990REMMET045METAR SBLP 191200Z 00000KT CAVOK 23/15 Q1022=
0072832880999992014061913004-13262-043408FM-15+044399999V0209999C000019999999Y999999999+02601+01501999999ADDMA1102101999990REMMET045METAR SBLP 191300Z 00000KT CAVOK 26/15 Q1021=
0072832880999992014061914004-13262-043408FM-15+044399999V0203201N003119999999Y999999999+02901+01401999999ADDMA1102101999990REMMET045METAR SBLP 191400Z 32006KT CAVOK 29/14 Q1021=
0072832880999992014061915004-13262-043408FM-15+044399999V0203501N003619999999Y999999999+03001+01301999999ADDMA1102001999990REMMET045METAR SBLP 191500Z 35007KT CAVOK 30/13 Q1020=
0072832880999992014061916004-13262-043408FM-15+044399999V0202801N002119999999Y999999999+03201+01201999999ADDMA1101901999990REMMET045METAR SBLP 191600Z 28004KT CAVOK 32/12 Q1019=
0072832880999992014061917004-13262-043408FM-15+044399999V0203101N002619999999Y999999999+03301+01101999999ADDMA1101801999990REMMET045METAR SBLP 191700Z 31005KT CAVOK 33/11 Q1018=
0165832880999992014061918004-13262-043408FM-15+044399999V0203001N00211030481CN009999199+03301+01301999999ADDGA1021+009141991GA2041+030481991GE19MSL   +99999+99999GF199999021990009141991991MA1101701999990REMMET058METAR SBLP 191800Z 30004KT 9999 FEW030 SCT100 33/13 Q1017=
0165832880999992014061919004-13262-043408FM-15+044399999V0203101N00261030481CN009999199+03201+01401999999ADDGA1021+009141991GA2041+030481991GE19MSL   +99999+99999GF199999021990009141991991MA1101701999990REMMET058METAR SBLP 191900Z 31005KT 9999 FEW030 SCT100 32/14 Q1017=
0165832880999992014061920004-13262-043408FM-15+044399999V0203301N00211030481CN009999199+03001+01301999999ADDGA1021+009141991GA2041+030481991GE19MSL   +99999+99999GF199999021990009141991991MA1101701999990REMMET058METAR SBLP 192000Z 33004KT 9999 FEW030 SCT100 30/13 Q1017=
0165832880999992014061921004-13262-043408FM-15+044399999V0202901N002110304819N009999199+02901+01701999999ADDGA1041+009141991GA2071+030481991GE19MSL   +99999+99999GF199999041990009141991991MA1101701999990REMMET058METAR SBLP 192100Z 29004KT 9999 SCT030 BKN100 29/17 Q1017=
0165832880999992014062009154-13262-043408FM-16+044399999V0209999C00001030481CN009999199+01901+01501999999ADDGA1021+009141991GA2041+030481991GE19MSL   +99999+99999GF199999021990009141991991MA1101801999990REMMET058SPECI SBLP 200915Z 00000KT 9999 FEW030 SCT100 19/15 Q1018=
0165832880999992014062010004-13262-043408FM-15+044399999V0209999C00001030481CN009999199+02001+01601999999ADDGA1021+009141991GA2041+030481991GE19MSL   +99999+99999GF199999021990009141991991MA1101901999990REMMET058METAR SBLP 201000Z 00000KT 9999 FEW030 SCT100 20/16 Q1019=
0165832880999992014062011004-13262-043408FM-15+044399999V0203101N00151030481CN009999199+02001+01501999999ADDGA1021+009141991GA2041+030481991GE19MSL   +99999+99999GF199999021990009141991991MA1102001999990REMMET058METAR SBLP 201100Z 31003KT 9999 FEW030 SCT100 20/15 Q1020=
0165832880999992014062012004-13262-043408FM-15+044399999V0202801N002110304819N009999199+02301+01501999999ADDGA1021+009141991GA2071+030481991GE19MSL   +99999+99999GF199999021990009141991991MA1102001999990REMMET058METAR SBLP 201200Z 28004KT 9999 FEW030 BKN100 23/15 Q1020=
0165832880999992014062013004-13262-043408FM-15+044399999V0209999C000010304819N009999199+02601+01701999999ADDGA1021+009141991GA2071+030481991GE19MSL   +99999+99999GF199999021990009141991991MA1102001999990REMMET058METAR SBLP 201300Z 00000KT 9999 FEW030 BKN100 26/17 Q1020=
0165832880999992014062014004-13262-043408FM-15+044399999V0209999C00001030481CN009999199+02801+01501999999ADDGA1021+009141991GA2041+030481991GE19MSL   +99999+99999GF199999021990009141991991MA1102001999990REMMET058METAR SBLP 201400Z 00000KT 9999 FEW030 SCT100 28/15 Q1020=
0072832880999992014062015004-13262-043408FM-15+044399999V0202401N002619999999Y999999999+03001+01501999999ADDMA1101901999990REMMET045METAR SBLP 201500Z 24005KT CAVOK 30/15 Q1019=
0072832880999992014062016004-13262-043408FM-15+044399999V0202401N001519999999Y999999999+03101+01401999999ADDMA1101801999990REMMET045METAR SBLP 201600Z 24003KT CAVOK 31/14 Q1018=
0142832880999992014062017004-13262-043408FM-15+044399999V0202501N002119999999N009999199+03301+01301999999ADDGA1021+009141991GE19MSL   +99999+99999GF199999021990009141991991MA1101701999990REMMET051METAR SBLP 201700Z 25004KT 9999 FEW030 33/13 Q1017=
0142832880999992014062018004-13262-043408FM-15+044399999V0202201N005119999999N009999199+03301+01301999999ADDGA1021+009141991GE19MSL   +99999+99999GF199999021990009141991991MA1101601999990REMMET051METAR SBLP 201800Z 22010KT 9999 FEW030 33/13 Q1016=
0142832880999992014062019004-13262-043408FM-15+044399999V0202501N003619999999N009999199+03301+01201999999ADDGA1021+009141991GE19MSL   +99999+99999GF199999021990009141991991MA1101601999990REMMET051METAR SBLP 201900Z 25007KT 9999 FEW030 33/12 Q1016=
0142832880999992014062020004-13262-043408FM-15+044399999V0202601N003119999999N009999199+03101+01201999999ADDGA1021+009141991GE19MSL   +99999+99999GF199999021990009141991991MA1101601999990REMMET051METAR SBLP 202000Z 26006KT 9999 FEW030 31/12 Q1016=
0142832880999992014062021004-13262-043408FM-15+044399999V0202701N002619999999N009999199+02901+01301999999ADDGA1021+009141991GE19MSL   +99999+99999GF199999021990009141991991MA1101601999990REMMET051METAR SBLP 202100Z 27005KT 9999 FEW030 29/13 Q1016=
0188832880999992014062309154-13262-043408FM-16+044399999V0202701N00261009141CN009999199+02101+01501999999ADDGA1041+006101991GA2041+009141991GA3071+030481991GE19MSL   +99999+99999GF199999041990006101991991MA1102201999990REMMET065SPECI SBLP 230915Z 27005KT 9999 SCT020 SCT030 BKN100 21/15 Q1022=
0165832880999992014062310004-13262-043408FM-15+044399999V0202801N003110304819N009999199+02101+01401999999ADDGA1041+009141991GA2071+030481991GE19MSL   +99999+99999GF199999041990009141991991MA1102201999990REMMET058METAR SBLP 231000Z 28006KT 9999 SCT030 BKN100 21/14 Q1022=
0165832880999992014062311004-13262-043408FM-15+044399999V0202601N00411030481CN009999199+02301+01301999999ADDGA1021+009141991GA2041+030481991GE19MSL   +99999+99999GF199999021990009141991991MA1102301999990REMMET058METAR SBLP 231100Z 26008KT 9999 FEW030 SCT100 23/13 Q1023=
0142832880999992014062312004-13262-043408FM-15+044399999V0202501N005119999999N009999199+02501+01501999999ADDGA1021+009141991GE19MSL   +99999+99999GF199999021990009141991991MA1102301999990REMMET051METAR SBLP 231200Z 25010KT 9999 FEW030 25/15 Q1023=
0142832880999992014062313004-13262-043408FM-15+044399999V0201901N003119999999N009999199+02701+01501999999ADDGA1021+009141991GE19MSL   +99999+99999GF199999021990009141991991MA1102301999990REMMET051METAR SBLP 231300Z 19006KT 9999 FEW030 27/15 Q1023=
0142832880999992014062314004-13262-043408FM-15+044399999V0201901N003119999999N009999199+02901+01501999999ADDGA1041+009141991GE19MSL   +99999+99999GF199999041990009141991991MA1102201999990REMMET051METAR SBLP 231400Z 19006KT 9999 SCT030 29/15 Q1022=
0142832880999992014062315004-13262-043408FM-15+044399999V0201501N003119999999N009999199+02801+01401999999ADDGA1041+009141991GE19MSL   +99999+99999GF199999041990009141991991MA1102101999990REMMET051METAR SBLP 231500Z 15006KT 9999 SCT030 28/14 Q1021=
0142832880999992014062316004-13262-043408FM-15+044399999V0202401N004119999999N009999199+03101+01301999999ADDGA1021+009141991GE19MSL   +99999+99999GF199999021990009141991991MA1101901999990REMMET051METAR SBLP 231600Z 24008KT 9999 FEW030 31/13 Q1019=
0142832880999992014062317004-13262-043408FM-15+044399999V0201301N003619999999N009999199+03201+01301999999ADDGA1021+009141991GE19MSL   +99999+99999GF199999021990009141991991MA1101801999990REMMET051METAR SBLP 231700Z 13007KT 9999 FEW030 32/13 Q1018=
0142832880999992014062318004-13262-043408FM-15+044399999V0201501N004619999999N009999199+03201+01201999999ADDGA1021+009141991GE19MSL   +99999+99999GF199999021990009141991991MA1101701999990REMMET051METAR SBLP 231800Z 15009KT 9999 FEW030 32/12 Q1017=
0142832880999992014062319004-13262-043408FM-15+044399999V0201801N003119999999N009999199+03201+01201999999ADDGA1021+009141991GE19MSL   +99999+99999GF199999021990009141991991MA1101701999990REMMET051METAR SBLP 231900Z 18006KT 9999 FEW030 32/12 Q1017=
0142832880999992014062320004-13262-043408FM-15+044399999V0201501N004119999999N009999199+03301+01101999999ADDGA1041+009141991GE19MSL   +99999+99999GF199999041990009141991991MA1101701999990REMMET051METAR SBLP 232000Z 15008KT 9999 SCT030 33/11 Q1017=
0142832880999992014062321004-13262-043408FM-15+044399999V0202101N003610091419N009999199+03001+01201999999ADDGA1071+009141991GE19MSL   +99999+99999GF199999071990009141991991MA1101801999990REMMET051METAR SBLP 232100Z 21007KT 9999 BKN030 30/12 Q1018=
0072832880999992014062409154-13262-043408FM-16+044399999V0202101N002119999999Y999999999+01801+01401999999ADDMA1102101999990REMMET045SPECI SBLP 240915Z 21004KT CAVOK 18/14 Q1021=
0072832880999992014062410004-13262-043408FM-15+044399999V0202401N001519999999Y999999999+01801+01401999999ADDMA1102201999990REMMET045METAR SBLP 241000Z 24003KT CAVOK 18/14 Q1022=
0072832880999992014062411004-13262-043408FM-15+044399999V0201601N003119999999Y999999999+02101+01501999999ADDMA1102201999990REMMET045METAR SBLP 241100Z 16006KT CAVOK 21/15 Q1022=
0072832880999992014062412004-13262-043408FM-15+044399999V0201701N002619999999Y999999999+02401+01501999999ADDMA1102301999990REMMET045METAR SBLP 241200Z 17005KT CAVOK 24/15 Q1023=
0072832880999992014062413004-13262-043408FM-15+044399999V0201401N004619999999Y999999999+02701+01401999999ADDMA1102301999990REMMET045METAR SBLP 241300Z 14009KT CAVOK 27/14 Q1023=
0072832880999992014062414004-13262-043408FM-15+044399999V0202601N001019999999Y999999999+02801+01301999999ADDMA1102201999990REMMET045METAR SBLP 241400Z 26002KT CAVOK 28/13 Q1022=
0142832880999992014062415004-13262-043408FM-15+044399999V0201201N001519999999N009999199+03001+01301999999ADDGA1021+009141991GE19MSL   +99999+99999GF199999021990009141991991MA1102001999990REMMET051METAR SBLP 241500Z 12003KT 9999 FEW030 30/13 Q1020=
0142832880999992014062416004-13262-043408FM-15+044399999V0203001N001519999999N009999199+03001+01201999999ADDGA1021+009141991GE19MSL   +99999+99999GF199999021990009141991991MA1101901999990REMMET051METAR SBLP 241600Z 30003KT 9999 FEW030 30/12 Q1019=
0142832880999992014062417004-13262-043408FM-15+044399999V0202501N002619999999N009999199+03201+01001999999ADDGA1021+009141991GE19MSL   +99999+99999GF199999021990009141991991MA1101701999990REMMET051METAR SBLP 241700Z 25005KT 9999 FEW030 32/10 Q1017=
0142832880999992014062418004-13262-043408FM-15+044399999V0202401N002119999999N009999199+03301+00901999999ADDGA1021+009141991GE19MSL   +99999+99999GF199999021990009141991991MA1101601999990REMMET051METAR SBLP 241800Z 24004KT 9999 FEW030 33/09 Q1016=
0142832880999992014062419004-13262-043408FM-15+044399999V0209999C000019999999N009999199+03201+01702999999ADDGA1021+009141991GE19MSL   +99999+99999GF199999021990009141991991MA1101601999990REMMET051METAR SBLP 241900Z 00000KT 9999 FEW030 32/17 Q1016=
0142832880999992014062420004-13262-043408FM-15+044399999V0209999C000019999999N009999199+03201+01701999999ADDGA1021+009141991GE19MSL   +99999+99999GF199999021990009141991991MA1101601999990REMMET051METAR SBLP 242000Z 00000KT 9999 FEW030 32/17 Q1016=
0072832880999992014062421004-13262-043408FM-15+044399999V0202101N002119999999Y999999999+03101+01801999999ADDMA1101601999990REMMET045METAR SBLP 242100Z 21004KT CAVOK 31/18 Q1016=
0072832880999992014062509154-13262-043408FM-16+044399999V0209999C000019999999Y999999999+01701+01301999999ADDMA1101801999990REMMET045SPECI SBLP 250915Z 00000KT CAVOK 17/13 Q1018=
0072832880999992014062510004-13262-043408FM-15+044399999V0209999C000019999999Y999999999+01801+01301999999ADDMA1101801999990REMMET045METAR SBLP 251000Z 00000KT CAVOK 18/13 Q1018=
0072832880999992014062511004-13262-043408FM-15+044399999V0209999C000019999999Y999999999+01901+01501999999ADDMA1101901999990REMMET045METAR SBLP 251100Z 00000KT CAVOK 19/15 Q1019=
0072832880999992014062512004-13262-043408FM-15+044399999V0209999C000019999999Y999999999+02301+01501999999ADDMA1102001999990REMMET045METAR SBLP 251200Z 00000KT CAVOK 23/15 Q1020=
0072832880999992014062513004-13262-043408FM-15+044399999V0200901N001519999999Y999999999+02501+01401999999ADDMA1101901999990REMMET045METAR SBLP 251300Z 09003KT CAVOK 25/14 Q1019=
0142832880999992014062514004-13262-043408FM-15+044399999V0201601N003119999999N009999199+02701+01401999999ADDGA1021+009141991GE19MSL   +99999+99999GF199999021990009141991991MA1101801999990REMMET051METAR SBLP 251400Z 16006KT 9999 FEW030 27/14 Q1018=
0142832880999992014062515004-13262-043408FM-15+044399999V0202101N003619999999N009999199+02801+01301999999ADDGA1041+009141991GE19MSL   +99999+99999GF199999041990009141991991MA1101701999990REMMET051METAR SBLP 251500Z 21007KT 9999 SCT030 28/13 Q1017=
0142832880999992014062516004-13262-043408FM-15+044399999V0201801N001519999999N009999199+03101+01101999999ADDGA1041+009141991GE19MSL   +99999+99999GF199999041990009141991991MA1101601999990REMMET051METAR SBLP 251600Z 18003KT 9999 SCT030 31/11 Q1016=
0142832880999992014062517004-13262-043408FM-15+044399999V0201901N002619999999N009999199+03201+01001999999ADDGA1021+009141991GE19MSL   +99999+99999GF199999021990009141991991MA1101401999990REMMET051METAR SBLP 251700Z 19005KT 9999 FEW030 32/10 Q1014=
0142832880999992014062518004-13262-043408FM-15+044399999V0201501N002119999999N009999199+03301+01001999999ADDGA1021+009141991GE19MSL   +99999+99999GF199999021990009141991991MA1101401999990REMMET051METAR SBLP 251800Z 15004KT 9999 FEW030 33/10 Q1014=
0072832880999992014062519004-13262-043408FM-15+044399999V0202101N003119999999Y999999999+03201+01101999999ADDMA1101301999990REMMET045METAR SBLP 251900Z 21006KT CAVOK 32/11 Q1013=
0072832880999992014062520004-13262-043408FM-15+044399999V0201901N003619999999Y999999999+03201+01001999999ADDMA1101301999990REMMET045METAR SBLP 252000Z 19007KT CAVOK 32/10 Q1013=
0072832880999992014062521004-13262-043408FM-15+044399999V0202101N001519999999Y999999999+02901+01301999999ADDMA1101401999990REMMET045METAR SBLP 252100Z 21003KT CAVOK 29/13 Q1014=
0072832880999992014062609154-13262-043408FM-16+044399999V0202101N001519999999Y999999999+01701+01501999999ADDMA1101701999990REMMET045SPECI SBLP 260915Z 21003KT CAVOK 17/15 Q1017=
0072832880999992014062610004-13262-043408FM-15+044399999V0202501N002119999999Y999999999+01701+01401999999ADDMA1101801999990REMMET045METAR SBLP 261000Z 25004KT CAVOK 17/14 Q1018=
0072832880999992014062611004-13262-043408FM-15+044399999V0202201N002619999999Y999999999+02001+01501999999ADDMA1101901999990REMMET045METAR SBLP 261100Z 22005KT CAVOK 20/15 Q1019=
0072832880999992014062612004-13262-043408FM-15+044399999V0201901N001519999999Y999999999+02401+01501999999ADDMA1101901999990REMMET045METAR SBLP 261200Z 19003KT CAVOK 24/15 Q1019=
0142832880999992014062613004-13262-043408FM-15+044399999V0200901N003119999999N009999199+02701+01301999999ADDGA1021+009141991GE19MSL   +99999+99999GF199999021990009141991991MA1101901999990REMMET051METAR SBLP 261300Z 09006KT 9999 FEW030 27/13 Q1019=
0142832880999992014062614004-13262-043408FM-15+044399999V0201301N003619999999N009999199+03001+01201999999ADDGA1021+009141991GE19MSL   +99999+99999GF199999021990009141991991MA1101801999990REMMET051METAR SBLP 261400Z 13007KT 9999 FEW030 30/12 Q1018=
0142832880999992014062615004-13262-043408FM-15+044399999V0201701N003119999999N009999199+03101+01101999999ADDGA1021+009141991GE19MSL   +99999+99999GF199999021990009141991991MA1101701999990REMMET051METAR SBLP 261500Z 17006KT 9999 FEW030 31/11 Q1017=
0142832880999992014062616004-13262-043408FM-15+044399999V0209999C000019999999N009999199+03201+01101999999ADDGA1021+009141991GE19MSL   +99999+99999GF199999021990009141991991MA1101601999990REMMET051METAR SBLP 261600Z 00000KT 9999 FEW030 32/11 Q1016=
0142832880999992014062617004-13262-043408FM-15+044399999V0202501N002619999999N009999199+03201+01201999999ADDGA1021+009141991GE19MSL   +99999+99999GF199999021990009141991991MA1101501999990REMMET051METAR SBLP 261700Z 25005KT 9999 FEW030 32/12 Q1015=
0072832880999992014062618004-13262-043408FM-15+044399999V0201501N002619999999Y999999999+03401+01401999999ADDMA1101401999990REMMET045METAR SBLP 261800Z 15005KT CAVOK 34/14 Q1014=
0072832880999992014062619004-13262-043408FM-15+044399999V0201801N002119999999Y999999999+03301+01401999999ADDMA1101401999990REMMET045METAR SBLP 261900Z 18004KT CAVOK 33/14 Q1014=
0072832880999992014062620004-13262-043408FM-15+044399999V0202301N001519999999Y999999999+03301+01201999999ADDMA1101401999990REMMET045METAR SBLP 262000Z 23003KT CAVOK 33/12 Q1014=
0072832880999992014062621004-13262-043408FM-15+044399999V0209999C000019999999Y999999999+03001+01501999999ADDMA1101401999990REMMET045METAR SBLP 262100Z 00000KT CAVOK 30/15 Q1014=
0072832880999992014062709154-13262-043408FM-16+044399999V0202301N001519999999Y999999999+01701+01301999999ADDMA1101701999990REMMET045SPECI SBLP 270915Z 23003KT CAVOK 17/13 Q1017=
0072832880999992014062710004-13262-043408FM-15+044399999V0209999C000019999999Y999999999+01801+01101999999ADDMA1101801999990REMMET045METAR SBLP 271000Z 00000KT CAVOK 18/11 Q1018=
0072832880999992014062711004-13262-043408FM-15+044399999V0201901N002119999999Y999999999+01901+01401999999ADDMA1101901999990REMMET045METAR SBLP 271100Z 19004KT CAVOK 19/14 Q1019=
0072832880999992014062712004-13262-043408FM-15+044399999V0202101N002119999999Y999999999+02401+01501999999ADDMA1101901999990REMMET045METAR SBLP 271200Z 21004KT CAVOK 24/15 Q1019=
0142832880999992014062713004-13262-043408FM-15+044399999V0201301N003119999999N009999199+02701+01401999999ADDGA1021+009141991GE19MSL   +99999+99999GF199999021990009141991991MA1101901999990REMMET051METAR SBLP 271300Z 13006KT 9999 FEW030 27/14 Q1019=
0142832880999992014062714004-13262-043408FM-15+044399999V0201801N001519999999N009999199+02801+01401999999ADDGA1021+009141991GE19MSL   +99999+99999GF199999021990009141991991MA1101901999990REMMET051METAR SBLP 271400Z 18003KT 9999 FEW030 28/14 Q1019=
0142832880999992014062715004-13262-043408FM-15+044399999V0201801N004119999999N009999199+03001+01401999999ADDGA1021+009141991GE19MSL   +99999+99999GF199999021990009141991991MA1101801999990REMMET051METAR SBLP 271500Z 18008KT 9999 FEW030 30/14 Q1018=
0142832880999992014062716004-13262-043408FM-15+044399999V0203001N003119999999N009999199+03201+01301999999ADDGA1021+009141991GE19MSL   +99999+99999GF199999021990009141991991MA1101701999990REMMET051METAR SBLP 271600Z 30006KT 9999 FEW030 32/13 Q1017=
0072832880999992014062717004-13262-043408FM-15+044399999V0202701N002619999999Y999999999+03301+01301999999ADDMA1101601999990REMMET045METAR SBLP 271700Z 27005KT CAVOK 33/13 Q1016=
0072832880999992014062718004-13262-043408FM-15+044399999V0201901N001519999999Y999999999+03301+01001999999ADDMA1101501999990REMMET045METAR SBLP 271800Z 19003KT CAVOK 33/10 Q1015=
0072832880999992014062719004-13262-043408FM-15+044399999V0202101N001019999999Y999999999+03301+01101999999ADDMA1101501999990REMMET045METAR SBLP 271900Z 21002KT CAVOK 33/11 Q1015=
0072832880999992014062720004-13262-043408FM-15+044399999V0202601N002119999999Y999999999+03201+01201999999ADDMA1101501999990REMMET045METAR SBLP 272000Z 26004KT CAVOK 32/12 Q1015=
0072832880999992014062721004-13262-043408FM-15+044399999V0209999C000019999999Y999999999+03001+01301999999ADDMA1101601999990REMMET045METAR SBLP 272100Z 00000KT CAVOK 30/13 Q1016=
0111832880999992014062912004-13267-043417FM-12+044199999V0201401N0015122000199020000199+02671+01681101611ADDAA101999990AZ101061AZ201061GF100991999999999999999999KA1120N+01921MA1999990096731MD1909990-0091REMSYN004BUFR
0072832880999992014063009154-13262-043408FM-16+044399999V0209999C000019999999Y999999999+01901+01601999999ADDMA1101701999990REMMET045SPECI SBLP 300915Z 00000KT CAVOK 19/16 Q1017=
0072832880999992014063010004-13262-043408FM-15+044399999V0209999C000019999999Y999999999+02001+01601999999ADDMA1101701999990REMMET045METAR SBLP 301000Z 00000KT CAVOK 20/16 Q1017=
0072832880999992014063011004-13262-043408FM-15+044399999V0209999C000019999999Y999999999+02201+01701999999ADDMA1101801999990REMMET045METAR SBLP 301100Z 00000KT CAVOK 22/17 Q1018=
0072832880999992014063012004-13262-043408FM-15+044399999V0201501N001519999999Y999999999+02401+01701999999ADDMA1101901999990REMMET045METAR SBLP 301200Z 15003KT CAVOK 24/17 Q1019=
0072832880999992014063013004-13262-043408FM-15+044399999V0201101N001519999999Y999999999+02701+01601999999ADDMA1101901999990REMMET045METAR SBLP 301300Z 11003KT CAVOK 27/16 Q1019=
0142832880999992014063014004-13262-043408FM-15+044399999V0203301N001519999999N009999199+03101+01801999999ADDGA1021+009141991GE19MSL   +99999+99999GF199999021990009141991991MA1101801999990REMMET051METAR SBLP 301400Z 33003KT 9999 FEW030 31/18 Q1018=
0142832880999992014063015004-13262-043408FM-15+044399999V0209999C000019999999N009999199+03201+01801999999ADDGA1021+009141991GE19MSL   +99999+99999GF199999021990009141991991MA1101701999990REMMET051METAR SBLP 301500Z 00000KT 9999 FEW030 32/18 Q1017=
0142832880999992014063016004-13262-043408FM-15+044399999V0202701N001019999999N009999199+03301+01401999999ADDGA1041+009141991GE19MSL   +99999+99999GF199999041990009141991991MA1101601999990REMMET051METAR SBLP 301600Z 27002KT 9999 SCT030 33/14 Q1016=
0142832880999992014063017004-13262-043408FM-15+044399999V0200401N002619999999N009999199+03301+00901999999ADDGA1041+009141991GE19MSL   +99999+99999GF199999041990009141991991MA1101501999990REMMET051METAR SBLP 301700Z 04005KT 9999 SCT030 33/09 Q1015=
0142832880999992014063018004-13262-043408FM-15+044399999V0202601N002119999999N009999199+03401+00901999999ADDGA1021+009141991GE19MSL   +99999+99999GF199999021990009141991991MA1101401999990REMMET051METAR SBLP 301800Z 26004KT 9999 FEW030 34/09 Q1014=
0142832880999992014063019004-13262-043408FM-15+044399999V0202201N002619999999N009999199+03301+01001999999ADDGA1021+009141991GE19MSL   +99999+99999GF199999021990009141991991MA1101401999990REMMET051METAR SBLP 301900Z 22005KT 9999 FEW030 33/10 Q1014=
0142832880999992014063020004-13262-043408FM-15+044399999V0202801N002119999999N009999199+03301+01101999999ADDGA1021+009141991GE19MSL   +99999+99999GF199999021990009141991991MA1101401999990REMMET051METAR SBLP 302000Z 28004KT 9999 FEW030 33/11 Q1014=
0142832880999992014063021004-13262-043408FM-15+044399999V0202301N001519999999N009999199+03001+01101999999ADDGA1021+009141991GE19MSL   +99999+99999GF199999021990009141991991MA1101401999990REMMET051METAR SBLP 302100Z 23003KT 9999 FEW030 30/11 Q1014=
0072832880999992014070109154-13262-043408FM-16+044399999V0209999C000019999999Y999999999+01801+01301999999ADDMA1101601999990REMMET045SPECI SBLP 010915Z 00000KT CAVOK 18/13 Q1016=
0072832880999992014070110004-13262-043408FM-15+044399999V0209999C000019999999Y999999999+01901+01401999999ADDMA1101701999990REMMET045METAR SBLP 011000Z 00000KT CAVOK 19/14 Q1017=
0072832880999992014070111004-13262-043408FM-15+044399999V0202701N001519999999Y999999999+02101+01401999999ADDMA1101701999990REMMET045METAR SBLP 011100Z 27003KT CAVOK 21/14 Q1017=
0072832880999992014070112004-13262-043408FM-15+044399999V0201901N001019999999Y999999999+02501+01401999999ADDMA1101801999990REMMET045METAR SBLP 011200Z 19002KT CAVOK 25/14 Q1018=
0072832880999992014070113004-13262-043408FM-15+044399999V0202701N002119999999Y999999999+02901+01401999999ADDMA1101801999990REMMET045METAR SBLP 011300Z 27004KT CAVOK 29/14 Q1018=
0072832880999992014070114004-13262-043408FM-15+044399999V0201001N003619999999Y999999999+03101+01201999999ADDMA1101701999990REMMET045METAR SBLP 011400Z 10007KT CAVOK 31/12 Q1017=
0142832880999992014070115004-13262-043408FM-15+044399999V0202101N003119999999N009999199+03301+01101999999ADDGA1021+009141991GE19MSL   +99999+99999GF199999021990009141991991MA1101601999990REMMET051METAR SBLP 011500Z 21006KT 9999 FEW030 33/11 Q1016=
0142832880999992014070116004-13262-043408FM-15+044399999V0202101N002619999999N009999199+03201+01001999999ADDGA1021+009141991GE19MSL   +99999+99999GF199999021990009141991991MA1101601999990REMMET051METAR SBLP 011600Z 21005KT 9999 FEW030 32/10 Q1016=
0142832880999992014070117004-13262-043408FM-15+044399999V0202701N002619999999N009999199+03301+01001999999ADDGA1021+009141991GE19MSL   +99999+99999GF199999021990009141991991MA1101401999990REMMET051METAR SBLP 011700Z 27005KT 9999 FEW030 33/10 Q1014=
0142832880999992014070118004-13262-043408FM-15+044399999V0202701N004119999999N009999199+03301+01101999999ADDGA1021+009141991GE19MSL   +99999+99999GF199999021990009141991991MA1101401999990REMMET051METAR SBLP 011800Z 27008KT 9999 FEW030 33/11 Q1014=
0142832880999992014070119004-13262-043408FM-15+044399999V0202301N003619999999N009999199+03401+01101999999ADDGA1021+009141991GE19MSL   +99999+99999GF199999021990009141991991MA1101301999990REMMET051METAR SBLP 011900Z 23007KT 9999 FEW030 34/11 Q1013=
0142832880999992014070120004-13262-043408FM-15+044399999V0202701N002619999999N009999199+03201+01001999999ADDGA1021+009141991GE19MSL   +99999+99999GF199999021990009141991991MA1101301999990REMMET051METAR SBLP 012000Z 27005KT 9999 FEW030 32/10 Q1013=
0072832880999992014070121004-13262-043408FM-15+044399999V0209999C000019999999Y999999999+03101+01101999999ADDMA1101401999990REMMET045METAR SBLP 012100Z 00000KT CAVOK 31/11 Q1014=
0072832880999992014070209154-13262-043408FM-16+044399999V0202401N001519999999Y999999999+01901+01301999999ADDMA1101801999990REMMET045SPECI SBLP 020915Z 24003KT CAVOK 19/13 Q1018=
0072832880999992014070210004-13262-043408FM-15+044399999V0209999C000019999999Y999999999+02001+01301999999ADDMA1101801999990REMMET045METAR SBLP 021000Z 00000KT CAVOK 20/13 Q1018=
0072832880999992014070211004-13262-043408FM-15+044399999V0202101N002119999999Y999999999+02101+01401999999ADDMA1101901999990REMMET045METAR SBLP 021100Z 21004KT CAVOK 21/14 Q1019=
0072832880999992014070212004-13262-043408FM-15+044399999V0202801N002119999999Y999999999+02501+01401999999ADDMA1101901999990REMMET045METAR SBLP 021200Z 28004KT CAVOK 25/14 Q1019=
0072832880999992014070213004-13262-043408FM-15+044399999V0202701N001519999999Y999999999+02701+01301999999ADDMA1101901999990REMMET045METAR SBLP 021300Z 27003KT CAVOK 27/13 Q1019=
0072832880999992014070214004-13262-043408FM-15+044399999V0201301N004119999999Y999999999+03001+01201999999ADDMA1101901999990REMMET045METAR SBLP 021400Z 13008KT CAVOK 30/12 Q1019=
0142832880999992014070215004-13262-043408FM-15+044399999V0201901N004119999999N009999199+03201+01101999999ADDGA1021+009141991GE19MSL   +99999+99999GF199999021990009141991991MA1101801999990REMMET051METAR SBLP 021500Z 19008KT 9999 FEW030 32/11 Q1018=
0142832880999992014070216004-13262-043408FM-15+044399999V0201901N001519999999N009999199+03401+00901999999ADDGA1021+009141991GE19MSL   +99999+99999GF199999021990009141991991MA1101701999990REMMET051METAR SBLP 021600Z 19003KT 9999 FEW030 34/09 Q1017=
0142832880999992014070217004-13262-043408FM-15+044399999V0202101N005119999999N009999199+03401+01101999999ADDGA1021+009141991GE19MSL   +99999+99999GF199999021990009141991991MA1101601999990REMMET051METAR SBLP 021700Z 21010KT 9999 FEW030 34/11 Q1016=
0142832880999992014070218004-13262-043408FM-15+044399999V0202201N003619999999N009999199+03501+00801999999ADDGA1021+009141991GE19MSL   +99999+99999GF199999021990009141991991MA1101501999990REMMET051METAR SBLP 021800Z 22007KT 9999 FEW030 35/08 Q1015=
0142832880999992014070219004-13262-043408FM-15+044399999V0202301N006219999999N009999199+03401+00701999999ADDGA1021+009141991GE19MSL   +99999+99999GF199999021990009141991991MA1101501999990REMMET051METAR SBLP 021900Z 23012KT 9999 FEW030 34/07 Q1015=
0072832880999992014070220004-13262-043408FM-15+044399999V0201801N003619999999Y999999999+03301+00701999999ADDMA1101501999990REMMET045METAR SBLP 022000Z 18007KT CAVOK 33/07 Q1015=
0072832880999992014070221004-13262-043408FM-15+044399999V0202401N003119999999Y999999999+03101+00801999999ADDMA1101501999990REMMET045METAR SBLP 022100Z 24006KT CAVOK 31/08 Q1015=
0072832880999992014070309154-13262-043408FM-16+044399999V0209999C000019999999Y999999999+01801+01201999999ADDMA1101901999990REMMET045SPECI SBLP 030915Z 00000KT CAVOK 18/12 Q1019=
0072832880999992014070310004-13262-043408FM-15+044399999V0209999C000019999999Y999999999+01901+01301999999ADDMA1102001999990REMMET045METAR SBLP 031000Z 00000KT CAVOK 19/13 Q1020=
0072832880999992014070311004-13262-043408FM-15+044399999V0200301N001519999999Y999999999+02201+01201999999ADDMA1102001999990REMMET045METAR SBLP 031100Z 03003KT CAVOK 22/12 Q1020=
0072832880999992014070312004-13262-043408FM-15+044399999V0201201N003619999999Y999999999+02701+01301999999ADDMA1102101999990REMMET045METAR SBLP 031200Z 12007KT CAVOK 27/13 Q1021=
0072832880999992014070313004-13262-043408FM-15+044399999V0201101N005119999999Y999999999+03001+01101999999ADDMA1102101999990REMMET045METAR SBLP 031300Z 11010KT CAVOK 30/11 Q1021=
0072832880999992014070314004-13262-043408FM-15+044399999V0200901N004619999999Y999999999+03201+00901999999ADDMA1102001999990REMMET045METAR SBLP 031400Z 09009KT CAVOK 32/09 Q1020=
0072832880999992014070315004-13262-043408FM-15+044399999V0201801N005119999999Y999999999+03301+00901999999ADDMA1101901999990REMMET045METAR SBLP 031500Z 18010KT CAVOK 33/09 Q1019=
0072832880999992014070316004-13262-043408FM-15+044399999V0202801N002119999999Y999999999+03301+00901999999ADDMA1101801999990REMMET045METAR SBLP 031600Z 28004KT CAVOK 33/09 Q1018=
0142832880999992014070317004-13262-043408FM-15+044399999V0201901N004619999999N009999199+03501+01101999999ADDGA1021+009141991GE19MSL   +99999+99999GF199999021990009141991991MA1101701999990REMMET051METAR SBLP 031700Z 19009KT 9999 FEW030 35/11 Q1017=
0142832880999992014070318004-13262-043408FM-15+044399999V0202801N002119999999N009999199+03501+00701999999ADDGA1021+009141991GE19MSL   +99999+99999GF199999021990009141991991MA1101701999990REMMET051METAR SBLP 031800Z 28004KT 9999 FEW030 35/07 Q1017=
0072832880999992014070319004-13262-043408FM-15+044399999V0201801N002619999999Y999999999+03401+00901999999ADDMA1101701999990REMMET045METAR SBLP 031900Z 18005KT CAVOK 34/09 Q1017=
0072832880999992014070320004-13262-043408FM-15+044399999V0201901N002619999999Y999999999+03401+01301999999ADDMA1101701999990REMMET045METAR SBLP 032000Z 19005KT CAVOK 34/13 Q1017=
0072832880999992014070321004-13262-043408FM-15+044399999V0201901N002619999999Y999999999+03001+00701999999ADDMA1101801999990REMMET045METAR SBLP 032100Z 19005KT CAVOK 30/07 Q1018=
0072832880999992014070409154-13262-043408FM-16+044399999V0202301N002119999999Y999999999+01701+01201999999ADDMA1102001999990REMMET045SPECI SBLP 040915Z 23004KT CAVOK 17/12 Q1020=
0072832880999992014070410004-13262-043408FM-15+044399999V0209999C000019999999Y999999999+01801+01201999999ADDMA1102001999990REMMET045METAR SBLP 041000Z 00000KT CAVOK 18/12 Q1020=
0072832880999992014070411004-13262-043408FM-15+044399999V0209999C000019999999Y999999999+01901+01301999999ADDMA1102101999990REMMET045METAR SBLP 041100Z 00000KT CAVOK 19/13 Q1021=
0072832880999992014070412004-13262-043408FM-15+044399999V0202601N001519999999Y999999999+02301+01401999999ADDMA1102101999990REMMET045METAR SBLP 041200Z 26003KT CAVOK 23/14 Q1021=
0072832880999992014070413004-13262-043408FM-15+044399999V0201301N002119999999Y999999999+02701+01301999999ADDMA1102101999990REMMET045METAR SBLP 041300Z 13004KT CAVOK 27/13 Q1021=
0142832880999992014070414004-13262-043408FM-15+044399999V0202101N003119999999N009999199+02801+01301999999ADDGA1021+009141991GE19MSL   +99999+99999GF199999021990009141991991MA1102101999990REMMET051METAR SBLP 041400Z 21006KT 9999 FEW030 28/13 Q1021=
0142832880999992014070415004-13262-043408FM-15+044399999V0202601N003119999999N009999199+02901+01301999999ADDGA1021+009141991GE19MSL   +99999+99999GF199999021990009141991991MA1102001999990REMMET051METAR SBLP 041500Z 26006KT 9999 FEW030 29/13 Q1020=
0142832880999992014070416004-13262-043408FM-15+044399999V0203301N003119999999N009999199+03101+01201999999ADDGA1021+009141991GE19MSL   +99999+99999GF199999021990009141991991MA1101901999990REMMET051METAR SBLP 041600Z 33006KT 9999 FEW030 31/12 Q1019=
0142832880999992014070417004-13262-043408FM-15+044399999V0200401N002619999999N009999199+03201+01101999999ADDGA1021+009141991GE19MSL   +99999+99999GF199999021990009141991991MA1101801999990REMMET051METAR SBLP 041700Z 04005KT 9999 FEW030 32/11 Q1018=
0142832880999992014070418004-13262-043408FM-15+044399999V0202401N001019999999N009999199+03301+01001999999ADDGA1021+009141991GE19MSL   +99999+99999GF199999021990009141991991MA1101701999990REMMET051METAR SBLP 041800Z 24002KT 9999 FEW030 33/10 Q1017=
0142832880999992014070419004-13262-043408FM-15+044399999V0201601N002119999999N009999199+03401+00801999999ADDGA1021+009141991GE19MSL   +99999+99999GF199999021990009141991991MA1101701999990REMMET051METAR SBLP 041900Z 16004KT 9999 FEW030 34/08 Q1017=
0142832880999992014070420004-13262-043408FM-15+044399999V0202201N002619999999N009999199+03301+00801999999ADDGA1021+009141991GE19MSL   +99999+99999GF199999021990009141991991MA1101701999990REMMET051METAR SBLP 042000Z 22005KT 9999 FEW030 33/08 Q1017=
0072832880999992014070421004-13262-043408FM-15+044399999V0202101N003119999999Y999999999+03001+00901999999ADDMA1101701999990REMMET045METAR SBLP 042100Z 21006KT CAVOK 30/09 Q1017=
0072832880999992014070709154-13262-043408FM-16+044399999V0209999C000019999999Y999999999+01801+01301999999ADDMA1102101999990REMMET045SPECI SBLP 070915Z 00000KT CAVOK 18/13 Q1021=
0072832880999992014070710004-13262-043408FM-15+044399999V0209999C000019999999Y999999999+01701+01401999999ADDMA1102201999990REMMET045METAR SBLP 071000Z 00000KT CAVOK 17/14 Q1022=
0072832880999992014070711004-13262-043408FM-15+044399999V0202401N001519999999Y999999999+02001+01501999999ADDMA1102301999990REMMET045METAR SBLP 071100Z 24003KT CAVOK 20/15 Q1023=
0072832880999992014070712004-13262-043408FM-15+044399999V0202101N002619999999Y999999999+02401+01401999999ADDMA1102401999990REMMET045METAR SBLP 071200Z 21005KT CAVOK 24/14 Q1024=
0142832880999992014070716004-13262-043408FM-15+044399999V0201901N002619999999N009999199+03101+00901999999ADDGA1021+009141991GE19MSL   +99999+99999GF199999021990009141991991MA1102001999990REMMET051METAR SBLP 071600Z 19005KT 9999 FEW030 31/09 Q1020=
0142832880999992014070718004-13262-043408FM-15+044399999V0201801N004119999999N009999199+03301+01601999999ADDGA1041+009141991GE19MSL   +99999+99999GF199999041990009141991991MA1101801999990REMMET051METAR SBLP 071800Z 18008KT 9999 SCT030 33/16 Q1018=
0142832880999992014070719004-13262-043408FM-15+044399999V0201701N003619999999N009999199+03201+01801999999ADDGA1041+009141991GE19MSL   +99999+99999GF199999041990009141991991MA1101801999990REMMET051METAR SBLP 071900Z 17007KT 9999 SCT030 32/18 Q1018=
0142832880999992014070720004-13262-043408FM-15+044399999V0201701N004119999999N009999199+03001+01901999999ADDGA1041+009141991GE19MSL   +99999+99999GF199999041990009141991991MA1101801999990REMMET051METAR SBLP 072000Z 17008KT 9999 SCT030 30/19 Q1018=
0142832880999992014070721004-13262-043408FM-15+044399999V0201701N002619999999N009999199+02901+01701999999ADDGA1021+009141991GE19MSL   +99999+99999GF199999021990009141991991MA1101901999990REMMET051METAR SBLP 072100Z 17005KT 9999 FEW030 29/17 Q1019=
0072832880999992014070809154-13262-043408FM-16+044399999V0202201N001519999999Y999999999+01801+01401999999ADDMA1102101999990REMMET045SPECI SBLP 080915Z 22003KT CAVOK 18/14 Q1021=
0072832880999992014070810004-13262-043408FM-15+044399999V0202101N002119999999Y999999999+01801+01601999999ADDMA1102101999990REMMET045METAR SBLP 081000Z 21004KT CAVOK 18/16 Q1021=
0072832880999992014070811004-13262-043408FM-15+044399999V0202101N002619999999Y999999999+02201+01601999999ADDMA1102201999990REMMET045METAR SBLP 081100Z 21005KT CAVOK 22/16 Q1022=
0142832880999992014070812004-13262-043408FM-15+044399999V0201801N003119999999N009999199+02301+01601999999ADDGA1021+009141991GE19MSL   +99999+99999GF199999021990009141991991MA1102301999990REMMET051METAR SBLP 081200Z 18006KT 9999 FEW030 23/16 Q1023=
0142832880999992014070813004-13262-043408FM-15+044399999V0201801N003619999999N009999199+02801+01401999999ADDGA1021+009141991GE19MSL   +99999+99999GF199999021990009141991991MA1102301999990REMMET051METAR SBLP 081300Z 18007KT 9999 FEW030 28/14 Q1023=
0142832880999992014070814004-13262-043408FM-15+044399999V0201901N001519999999N009999199+02901+01401999999ADDGA1021+009141991GE19MSL   +99999+99999GF199999021990009141991991MA1102201999990REMMET051METAR SBLP 081400Z 19003KT 9999 FEW030 29/14 Q1022=
0142832880999992014070815004-13262-043408FM-15+044399999V0201201N003119999999N009999199+03101+01301999999ADDGA1021+009141991GE19MSL   +99999+99999GF199999021990009141991991MA1102101999990REMMET051METAR SBLP 081500Z 12006KT 9999 FEW030 31/13 Q1021=
0142832880999992014070816004-13262-043408FM-15+044399999V0209999C000019999999N009999199+03101+01301999999ADDGA1021+009141991GE19MSL   +99999+99999GF199999021990009141991991MA1101901999990REMMET051METAR SBLP 081600Z 00000KT 9999 FEW030 31/13 Q1019=
0142832880999992014070817004-13262-043408FM-15+044399999V0209999C000019999999N009999199+03101+01201999999ADDGA1041+009141991GE19MSL   +99999+99999GF199999041990009141991991MA1101801999990REMMET051METAR SBLP 081700Z 00000KT 9999 SCT030 31/12 Q1018=
0142832880999992014070818004-13262-043408FM-15+044399999V0201501N001519999999N009999199+03301+02202999999ADDGA1041+009141991GE19MSL   +99999+99999GF199999041990009141991991MA1101701999990REMMET051METAR SBLP 081800Z 15003KT 9999 SCT030 33/22 Q1017=
0142832880999992014070819004-13262-043408FM-15+044399999V0209999C000019999999N009999199+03201+02101999999ADDGA1021+009141991GE19MSL   +99999+99999GF199999021990009141991991MA1101601999990REMMET051METAR SBLP 081900Z 00000KT 9999 FEW030 32/21 Q1016=
0142832880999992014070820004-13262-043408FM-15+044399999V0202701N002610091419N009999199+03301+02402999999ADDGA1071+009141991GE19MSL   +99999+99999GF199999071990009141991991MA1101701999990REMMET051METAR SBLP 082000Z 27005KT 9999 BKN030 33/24 Q1017=
0142832880999992014070821004-13262-043408FM-15+044399999V0202701N002610091419N009999199+03101+02401999999ADDGA1071+009141991GE19MSL   +99999+99999GF199999071990009141991991MA1101701999990REMMET051METAR SBLP 082100Z 27005KT 9999 BKN030 31/24 Q1017=
0072832880999992014070909154-13262-043408FM-16+044399999V0209999C000019999999Y999999999+01901+01601999999ADDMA1102001999990REMMET045SPECI SBLP 090915Z 00000KT CAVOK 19/16 Q1020=
0072832880999992014070910004-13262-043408FM-15+044399999V0209999C000019999999Y999999999+02001+01501999999ADDMA1102001999990REMMET045METAR SBLP 091000Z 00000KT CAVOK 20/15 Q1020=
0072832880999992014070911004-13262-043408FM-15+044399999V0209999C000019999999Y999999999+02101+01601999999ADDMA1102101999990REMMET045METAR SBLP 091100Z 00000KT CAVOK 21/16 Q1021=
0072832880999992014070912004-13262-043408FM-15+044399999V0209999C000019999999Y999999999+02501+01601999999ADDMA1102101999990REMMET045METAR SBLP 091200Z 00000KT CAVOK 25/16 Q1021=
0072832880999992014070913004-13262-043408FM-15+044399999V0209999C000019999999Y999999999+02801+01601999999ADDMA1102101999990REMMET045METAR SBLP 091300Z 00000KT CAVOK 28/16 Q1021=
0142832880999992014070914004-13262-043408FM-15+044399999V0202801N002119999999N009999199+03001+01601999999ADDGA1021+009141991GE19MSL   +99999+99999GF199999021990009141991991MA1102001999990REMMET051METAR SBLP 091400Z 28004KT 9999 FEW030 30/16 Q1020=
0142832880999992014070915004-13262-043408FM-15+044399999V0203101N002619999999N009999199+03101+01401999999ADDGA1021+009141991GE19MSL   +99999+99999GF199999021990009141991991MA1101901999990REMMET051METAR SBLP 091500Z 31005KT 9999 FEW030 31/14 Q1019=
0142832880999992014070916004-13262-043408FM-15+044399999V0203201N004119999999N009999199+03101+01401999999ADDGA1021+009141991GE19MSL   +99999+99999GF199999021990009141991991MA1101701999990REMMET051METAR SBLP 091600Z 32008KT 9999 FEW030 31/14 Q1017=
0142832880999992014070917004-13262-043408FM-15+044399999V0202701N003619999999N009999199+03301+01301999999ADDGA1021+009141991GE19MSL   +99999+99999GF199999021990009141991991MA1101601999990REMMET051METAR SBLP 091700Z 27007KT 9999 FEW030 33/13 Q1016=
0142832880999992014070918004-13262-043408FM-15+044399999V0202901N003119999999N009999199+03301+01101999999ADDGA1021+009141991GE19MSL   +99999+99999GF199999021990009141991991MA1101501999990REMMET051METAR SBLP 091800Z 29006KT 9999 FEW030 33/11 Q1015=
0142832880999992014070919004-13262-043408FM-15+044399999V0202701N003619999999N009999199+03301+01101999999ADDGA1021+009141991GE19MSL   +99999+99999GF199999021990009141991991MA1101501999990REMMET051METAR SBLP 091900Z 27007KT 9999 FEW030 33/11 Q1015=
0072832880999992014070920004-13262-043408FM-15+044399999V0203001N003119999999Y999999999+03201+01001999999ADDMA1101501999990REMMET045METAR SBLP 092000Z 30006KT CAVOK 32/10 Q1015=
0072832880999992014070921004-13262-043408FM-15+044399999V0202101N003119999999Y999999999+03001+01001999999ADDMA1101601999990REMMET045METAR SBLP 092100Z 21006KT CAVOK 30/10 Q1016=
0072832880999992014071009154-13262-043408FM-16+044399999V0209999C000019999999Y999999999+01801+01301999999ADDMA1101901999990REMMET045SPECI SBLP 100915Z 00000KT CAVOK 18/13 Q1019=
0072832880999992014071010004-13262-043408FM-15+044399999V0209999C000019999999Y999999999+01901+01301999999ADDMA1101901999990REMMET045METAR SBLP 101000Z 00000KT CAVOK 19/13 Q1019=
0072832880999992014071011004-13262-043408FM-15+044399999V0202201N001519999999Y999999999+02101+01501999999ADDMA1102001999990REMMET045METAR SBLP 101100Z 22003KT CAVOK 21/15 Q1020=
0072832880999992014071012004-13262-043408FM-15+044399999V0202701N002119999999Y999999999+02501+01501999999ADDMA1102001999990REMMET045METAR SBLP 101200Z 27004KT CAVOK 25/15 Q1020=
0072832880999992014071013004-13262-043408FM-15+044399999V0200701N002619999999Y999999999+02801+01401999999ADDMA1102001999990REMMET045METAR SBLP 101300Z 07005KT CAVOK 28/14 Q1020=
0072832880999992014071014004-13262-043408FM-15+044399999V0200901N003119999999Y999999999+03001+01401999999ADDMA1101901999990REMMET045METAR SBLP 101400Z 09006KT CAVOK 30/14 Q1019=
0142832880999992014071015004-13262-043408FM-15+044399999V0209999C000019999999N009999199+03001+01401999999ADDGA1021+009141991GE19MSL   +99999+99999GF199999021990009141991991MA1101801999990REMMET051METAR SBLP 101500Z 00000KT 9999 FEW030 30/14 Q1018=
0072832880999992014071016004-13262-043408FM-15+044399999V0209999C000019999999Y999999999+03101+01201999999ADDMA1101701999990REMMET045METAR SBLP 101600Z 00000KT CAVOK 31/12 Q1017=
0142832880999992014071017004-13262-043408FM-15+044399999V0201901N006219999999N009999199+03001+01101999999ADDGA1021+009141991GE19MSL   +99999+99999GF199999021990009141991991MA1101601999990REMMET051METAR SBLP 101700Z 19012KT 9999 FEW030 30/11 Q1016=
0142832880999992014071018004-13262-043408FM-15+044399999V0202301N004119999999N009999199+03101+01201999999ADDGA1041+009141991GE19MSL   +99999+99999GF199999041990009141991991MA1101501999990REMMET051METAR SBLP 101800Z 23008KT 9999 SCT030 31/12 Q1015=
0142832880999992014071019004-13262-043408FM-15+044399999V0202401N004119999999N009999199+03101+01201999999ADDGA1041+009141991GE19MSL   +99999+99999GF199999041990009141991991MA1101501999990REMMET051METAR SBLP 101900Z 24008KT 9999 SCT030 31/12 Q1015=
0142832880999992014071020004-13262-043408FM-15+044399999V0202101N003119999999N009999199+03101+01201999999ADDGA1021+009141991GE19MSL   +99999+99999GF199999021990009141991991MA1101501999990REMMET051METAR SBLP 102000Z 21006KT 9999 FEW030 31/12 Q1015=
0072832880999992014071021004-13262-043408FM-15+044399999V0202101N001519999999Y999999999+02801+01301999999ADDMA1101601999990REMMET045METAR SBLP 102100Z 21003KT CAVOK 28/13 Q1016=
0072832880999992014071109154-13262-043408FM-16+044399999V0202101N001519999999Y999999999+01801+01201999999ADDMA1101701999990REMMET045SPECI SBLP 110915Z 21003KT CAVOK 18/12 Q1017=
0072832880999992014071110004-13262-043408FM-15+044399999V0202101N001519999999Y999999999+01801+01201999999ADDMA1101801999990REMMET045METAR SBLP 111000Z 21003KT CAVOK 18/12 Q1018=
0072832880999992014071111004-13262-043408FM-15+044399999V0202101N001519999999Y999999999+02001+01301999999ADDMA1101801999990REMMET045METAR SBLP 111100Z 21003KT CAVOK 20/13 Q1018=
0072832880999992014071112004-13262-043408FM-15+044399999V0202601N001519999999Y999999999+02401+01401999999ADDMA1101901999990REMMET045METAR SBLP 111200Z 26003KT CAVOK 24/14 Q1019=
0072832880999992014071113004-13262-043408FM-15+044399999V0209999C000019999999Y999999999+02701+01301999999ADDMA1101901999990REMMET045METAR SBLP 111300Z 00000KT CAVOK 27/13 Q1019=
0142832880999992014071114004-13262-043408FM-15+044399999V0202401N002119999999N009999199+02901+01301999999ADDGA1021+009141991GE19MSL   +99999+99999GF199999021990009141991991MA1101801999990REMMET051METAR SBLP 111400Z 24004KT 9999 FEW030 29/13 Q1018=
0142832880999992014071115004-13262-043408FM-15+044399999V0202801N001519999999N009999199+03001+01201999999ADDGA1021+009141991GE19MSL   +99999+99999GF199999021990009141991991MA1101701999990REMMET051METAR SBLP 111500Z 28003KT 9999 FEW030 30/12 Q1017=
0142832880999992014071116004-13262-043408FM-15+044399999V0202701N003619999999N009999199+03201+01201999999ADDGA1021+009141991GE19MSL   +99999+99999GF199999021990009141991991MA1101601999990REMMET051METAR SBLP 111600Z 27007KT 9999 FEW030 32/12 Q1016=
0142832880999992014071117004-13262-043408FM-15+044399999V0201301N003119999999N009999199+03301+01001999999ADDGA1021+009141991GE19MSL   +99999+99999GF199999021990009141991991MA1101501999990REMMET051METAR SBLP 111700Z 13006KT 9999 FEW030 33/10 Q1015=
0142832880999992014071118004-13262-043408FM-15+044399999V0201801N004119999999N009999199+03401+01001999999ADDGA1041+009141991GE19MSL   +99999+99999GF199999041990009141991991MA1101401999990REMMET051METAR SBLP 111800Z 18008KT 9999 SCT030 34/10 Q1014=
0142832880999992014071119004-13262-043408FM-15+044399999V0201901N005719999999N009999199+03301+01001999999ADDGA1021+009141991GE19MSL   +99999+99999GF199999021990009141991991MA1101401999990REMMET051METAR SBLP 111900Z 19011KT 9999 FEW030 33/10 Q1014=
0142832880999992014071120004-13262-043408FM-15+044399999V0201601N003119999999N009999199+03201+01001999999ADDGA1021+009141991GE19MSL   +99999+99999GF199999021990009141991991MA1101401999990REMMET051METAR SBLP 112000Z 16006KT 9999 FEW030 32/10 Q1014=
0142832880999992014071121004-13262-043408FM-15+044399999V0202401N004119999999N009999199+03001+01101999999ADDGA1021+009141991GE19MSL   +99999+99999GF199999021990009141991991MA1101501999990REMMET051METAR SBLP 112100Z 24008KT 9999 FEW030 30/11 Q1015=
0072832880999992014071409154-13262-043408FM-16+044399999V0201901N003619999999Y999999999+02001+01501999999ADDMA1102101999990REMMET045SPECI SBLP 140915Z 19007KT CAVOK 20/15 Q1021=
0072832880999992014071410004-13262-043408FM-15+044399999V0201801N004119999999Y999999999+02001+01401999999ADDMA1102101999990REMMET045METAR SBLP 141000Z 18008KT CAVOK 20/14 Q1021=
0072832880999992014071411004-13262-043408FM-15+044399999V0201701N003619999999Y999999999+02101+01401999999ADDMA1102201999990REMMET045METAR SBLP 141100Z 17007KT CAVOK 21/14 Q1022=
0072832880999992014071412004-13262-043408FM-15+044399999V0201901N004619999999Y999999999+02301+01401999999ADDMA1102301999990REMMET045METAR SBLP 141200Z 19009KT CAVOK 23/14 Q1023=
0072832880999992014071413004-13262-043408FM-15+044399999V0201501N003619999999Y999999999+02601+01401999999ADDMA1102301999990REMMET045METAR SBLP 141300Z 15007KT CAVOK 26/14 Q1023=
0072832880999992014071414004-13262-043408FM-15+044399999V0201301N003119999999Y999999999+02801+01301999999ADDMA1102201999990REMMET045METAR SBLP 141400Z 13006KT CAVOK 28/13 Q1022=
0072832880999992014071415004-13262-043408FM-15+044399999V0201601N004119999999Y999999999+02901+01301999999ADDMA1102201999990REMMET045METAR SBLP 141500Z 16008KT CAVOK 29/13 Q1022=
0072832880999992014071416004-13262-043408FM-15+044399999V0200901N002619999999Y999999999+02801+01301999999ADDMA1102001999990REMMET045METAR SBLP 141600Z 09005KT CAVOK 28/13 Q1020=
0142832880999992014071417004-13262-043408FM-15+044399999V0200901N004119999999N009999199+03001+01201999999ADDGA1021+009141991GE19MSL   +99999+99999GF199999021990009141991991MA1101901999990REMMET051METAR SBLP 141700Z 09008KT 9999 FEW030 30/12 Q1019=
0142832880999992014071418004-13262-043408FM-15+044399999V0200901N004619999999N009999199+03101+01301999999ADDGA1021+009141991GE19MSL   +99999+99999GF199999021990009141991991MA1101801999990REMMET051METAR SBLP 141800Z 09009KT 9999 FEW030 31/13 Q1018=
0142832880999992014071419004-13262-043408FM-15+044399999V0201301N004619999999N009999199+02901+01301999999ADDGA1041+009141991GE19MSL   +99999+99999GF199999041990009141991991MA1101801999990REMMET051METAR SBLP 141900Z 13009KT 9999 SCT030 29/13 Q1018=
0142832880999992014071420004-13262-043408FM-15+044399999V0201501N002619999999N009999199+02901+01201999999ADDGA1041+009141991GE19MSL   +99999+99999GF199999041990009141991991MA1101801999990REMMET051METAR SBLP 142000Z 15005KT 9999 SCT030 29/12 Q1018=
0165832880999992014071421004-13262-043408FM-15+044399999V0201201N00571030481CN009999199+02701+01301999999ADDGA1021+009141991GA2041+030481991GE19MSL   +99999+99999GF199999021990009141991991MA1101901999990REMMET058METAR SBLP 142100Z 12011KT 9999 FEW030 SCT100 27/13 Q1019=
0072832880999992014071509154-13262-043408FM-16+044399999V0202801N001019999999Y999999999+01701+01501999999ADDMA1102101999990REMMET045SPECI SBLP 150915Z 28002KT CAVOK 17/15 Q1021=
0072832880999992014071510004-13262-043408FM-15+044399999V0209999C000019999999Y999999999+01701+01401999999ADDMA1102101999990REMMET045METAR SBLP 151000Z 00000KT CAVOK 17/14 Q1021=
0072832880999992014071511004-13262-043408FM-15+044399999V0202701N002119999999Y999999999+01901+01501999999ADDMA1102201999990REMMET045METAR SBLP 151100Z 27004KT CAVOK 19/15 Q1022=
0072832880999992014071512004-13262-043408FM-15+044399999V0202101N001019999999Y999999999+02301+01301999999ADDMA1102301999990REMMET045METAR SBLP 151200Z 21002KT CAVOK 23/13 Q1023=
0072832880999992014071513004-13262-043408FM-15+044399999V0202001N002119999999Y999999999+02601+01301999999ADDMA1102201999990REMMET045METAR SBLP 151300Z 20004KT CAVOK 26/13 Q1022=
0072832880999992014071514004-13262-043408FM-15+044399999V0209999C000019999999Y999999999+02801+01301999999ADDMA1102201999990REMMET045METAR SBLP 151400Z 00000KT CAVOK 28/13 Q1022=
0142832880999992014071515004-13262-043408FM-15+044399999V0202901N001519999999N009999199+03001+01201999999ADDGA1021+009141991GE19MSL   +99999+99999GF199999021990009141991991MA1102101999990REMMET051METAR SBLP 151500Z 29003KT 9999 FEW030 30/12 Q1021=
0142832880999992014071516004-13262-043408FM-15+044399999V0202301N002119999999N009999199+03001+01401999999ADDGA1021+009141991GE19MSL   +99999+99999GF199999021990009141991991MA1102001999990REMMET051METAR SBLP 151600Z 23004KT 9999 FEW030 30/14 Q1020=
0142832880999992014071517004-13262-043408FM-15+044399999V0201901N002619999999N009999199+03201+01301999999ADDGA1021+009141991GE19MSL   +99999+99999GF199999021990009141991991MA1102001999990REMMET051METAR SBLP 151700Z 19005KT 9999 FEW030 32/13 Q1020=
0142832880999992014071518004-13262-043408FM-15+044399999V0201701N004119999999N009999199+03301+01201999999ADDGA1021+009141991GE19MSL   +99999+99999GF199999021990009141991991MA1101801999990REMMET051METAR SBLP 151800Z 17008KT 9999 FEW030 33/12 Q1018=
0142832880999992014071519004-13262-043408FM-15+044399999V0201401N003619999999N009999199+03301+01201999999ADDGA1041+009141991GE19MSL   +99999+99999GF199999041990009141991991MA1101801999990REMMET051METAR SBLP 151900Z 14007KT 9999 SCT030 33/12 Q1018=
0142832880999992014071520004-13262-043408FM-15+044399999V0201601N003619999999N009999199+03101+01201999999ADDGA1021+009141991GE19MSL   +99999+99999GF199999021990009141991991MA1101801999990REMMET051METAR SBLP 152000Z 16007KT 9999 FEW030 31/12 Q1018=
0142832880999992014071521004-13262-043408FM-15+044399999V0201501N004619999999N009999199+02901+01201999999ADDGA1021+009141991GE19MSL   +99999+99999GF199999021990009141991991MA1101801999990REMMET051METAR SBLP 152100Z 15009KT 9999 FEW030 29/12 Q1018=
0072832880999992014071609154-13262-043408FM-16+044399999V0202301N001519999999Y999999999+01901+01501999999ADDMA1102101999990REMMET045SPECI SBLP 160915Z 23003KT CAVOK 19/15 Q1021=
0072832880999992014071610004-13262-043408FM-15+044399999V0202301N001519999999Y999999999+01801+01501999999ADDMA1102201999990REMMET045METAR SBLP 161000Z 23003KT CAVOK 18/15 Q1022=
0072832880999992014071611004-13262-043408FM-15+044399999V0202101N002119999999Y999999999+02001+01601999999ADDMA1102201999990REMMET045METAR SBLP 161100Z 21004KT CAVOK 20/16 Q1022=
0072832880999992014071612004-13262-043408FM-15+044399999V0201801N003619999999Y999999999+02401+01501999999ADDMA1102301999990REMMET045METAR SBLP 161200Z 18007KT CAVOK 24/15 Q1023=
0142832880999992014071613004-13262-043408FM-15+044399999V0201801N003619999999N009999199+02601+01501999999ADDGA1021+009141991GE19MSL   +99999+99999GF199999021990009141991991MA1102301999990REMMET051METAR SBLP 161300Z 18007KT 9999 FEW030 26/15 Q1023=
0142832880999992014071614004-13262-043408FM-15+044399999V0201801N001519999999N009999199+02701+01501999999ADDGA1021+009141991GE19MSL   +99999+99999GF199999021990009141991991MA1102301999990REMMET051METAR SBLP 161400Z 18003KT 9999 FEW030 27/15 Q1023=
0142832880999992014071615004-13262-043408FM-15+044399999V0202901N003119999999N009999199+02901+01501999999ADDGA1041+009141991GE19MSL   +99999+99999GF199999041990009141991991MA1102201999990REMMET051METAR SBLP 161500Z 29006KT 9999 SCT030 29/15 Q1022=
0142832880999992014071616004-13262-043408FM-15+044399999V0203001N001019999999N009999199+03001+01501999999ADDGA1041+009141991GE19MSL   +99999+99999GF199999041990009141991991MA1102101999990REMMET051METAR SBLP 161600Z 30002KT 9999 SCT030 30/15 Q1021=
0142832880999992014071617004-13262-043408FM-15+044399999V0203001N001519999999N009999199+03201+01301999999ADDGA1041+009141991GE19MSL   +99999+99999GF199999041990009141991991MA1101901999990REMMET051METAR SBLP 161700Z 30003KT 9999 SCT030 32/13 Q1019=
0142832880999992014071618004-13262-043408FM-15+044399999V0202301N002119999999N009999199+03201+01201999999ADDGA1041+009141991GE19MSL   +99999+99999GF199999041990009141991991MA1101901999990REMMET051METAR SBLP 161800Z 23004KT 9999 SCT030 32/12 Q1019=
0142832880999992014071619004-13262-043408FM-15+044399999V0209999C000019999999N009999199+03301+01101999999ADDGA1041+009141991GE19MSL   +99999+99999GF199999041990009141991991MA1101801999990REMMET051METAR SBLP 161900Z 00000KT 9999 SCT030 33/11 Q1018=
0142832880999992014071620004-13262-043408FM-15+044399999V0202501N002119999999N009999199+03301+01301999999ADDGA1041+009141991GE19MSL   +99999+99999GF199999041990009141991991MA1101801999990REMMET051METAR SBLP 162000Z 25004KT 9999 SCT030 33/13 Q1018=
0142832880999992014071621004-13262-043408FM-15+044399999V0202601N002619999999N009999199+02901+01301999999ADDGA1021+009141991GE19MSL   +99999+99999GF199999021990009141991991MA1101901999990REMMET051METAR SBLP 162100Z 26005KT 9999 FEW030 29/13 Q1019=
0072832880999992014071709154-13262-043408FM-16+044399999V0201901N001519999999Y999999999+01801+01501999999ADDMA1102201999990REMMET045SPECI SBLP 170915Z 19003KT CAVOK 18/15 Q1022=
0072832880999992014071710004-13262-043408FM-15+044399999V0202101N002119999999Y999999999+01801+01501999999ADDMA1102201999990REMMET045METAR SBLP 171000Z 21004KT CAVOK 18/15 Q1022=
0072832880999992014071711004-13262-043408FM-15+044399999V0202201N002619999999Y999999999+02101+01601999999ADDMA1102301999990REMMET045METAR SBLP 171100Z 22005KT CAVOK 21/16 Q1023=
0072832880999992014071712004-13262-043408FM-15+044399999V0201201N002619999999Y999999999+02501+01601999999ADDMA1102301999990REMMET045METAR SBLP 171200Z 12005KT CAVOK 25/16 Q1023=
0072832880999992014071713004-13262-043408FM-15+044399999V0201001N003119999999Y999999999+02701+01501999999ADDMA1102301999990REMMET045METAR SBLP 171300Z 10006KT CAVOK 27/15 Q1023=
0072832880999992014071714004-13262-043408FM-15+044399999V0201601N001519999999Y999999999+03001+01501999999ADDMA1102301999990REMMET045METAR SBLP 171400Z 16003KT CAVOK 30/15 Q1023=
0142832880999992014071715004-13262-043408FM-15+044399999V0202001N004619999999N009999199+03101+01401999999ADDGA1021+009141991GE19MSL   +99999+99999GF199999021990009141991991MA1102201999990REMMET051METAR SBLP 171500Z 20009KT 9999 FEW030 31/14 Q1022=
0165832880999992014071716004-13262-043408FM-15+044399999V0202901N00211030481CN009999199+03101+01301999999ADDGA1021+009141991GA2041+030481991GE19MSL   +99999+99999GF199999021990009141991991MA1102101999990REMMET058METAR SBLP 171600Z 29004KT 9999 FEW030 SCT100 31/13 Q1021=
0165832880999992014071717004-13262-043408FM-15+044399999V0202901N00311030481CN009999199+03201+01301999999ADDGA1021+009141991GA2041+030481991GE19MSL   +99999+99999GF199999021990009141991991MA1101901999990REMMET058METAR SBLP 171700Z 29006KT 9999 FEW030 SCT100 32/13 Q1019=
0142832880999992014071718004-13262-043408FM-15+044399999V0202701N004119999999N009999199+03301+01301999999ADDGA1041+009141991GE19MSL   +99999+99999GF199999041990009141991991MA1101901999990REMMET051METAR SBLP 171800Z 27008KT 9999 SCT030 33/13 Q1019=
0142832880999992014071719004-13262-043408FM-15+044399999V0202701N003119999999N009999199+03201+01301999999ADDGA1041+009141991GE19MSL   +99999+99999GF199999041990009141991991MA1101901999990REMMET051METAR SBLP 171900Z 27006KT 9999 SCT030 32/13 Q1019=
0142832880999992014071720004-13262-043408FM-15+044399999V0202401N003119999999N009999199+03101+01601999999ADDGA1021+009141991GE19MSL   +99999+99999GF199999021990009141991991MA1101901999990REMMET051METAR SBLP 172000Z 24006KT 9999 FEW030 31/16 Q1019=
0142832880999992014071721004-13262-043408FM-15+044399999V0202701N001519999999N009999199+02901+01301999999ADDGA1041+009141991GE19MSL   +99999+99999GF199999041990009141991991MA1101901999990REMMET051METAR SBLP 172100Z 27003KT 9999 SCT030 29/13 Q1019=
0072832880999992014071809154-13262-043408FM-16+044399999V0202901N001019999999Y999999999+01801+01401999999ADDMA1102001999990REMMET045SPECI SBLP 180915Z 29002KT CAVOK 18/14 Q1020=
0072832880999992014071810004-13262-043408FM-15+044399999V0209999C000019999999Y999999999+01901+01301999999ADDMA1102001999990REMMET045METAR SBLP 181000Z 00000KT CAVOK 19/13 Q1020=
0072832880999992014071811004-13262-043408FM-15+044399999V0203001N001019999999Y999999999+02001+01401999999ADDMA1102101999990REMMET045METAR SBLP 181100Z 30002KT CAVOK 20/14 Q1021=
0072832880999992014071812004-13262-043408FM-15+044399999V0209999C000019999999Y999999999+02501+01401999999ADDMA1102201999990REMMET045METAR SBLP 181200Z 00000KT CAVOK 25/14 Q1022=
0072832880999992014071813004-13262-043408FM-15+044399999V0201801N001019999999Y999999999+02701+01301999999ADDMA1102201999990REMMET045METAR SBLP 181300Z 18002KT CAVOK 27/13 Q1022=
0072832880999992014071814004-13262-043408FM-15+044399999V0209999C000019999999Y999999999+02901+01201999999ADDMA1102201999990REMMET045METAR SBLP 181400Z 00000KT CAVOK 29/12 Q1022=
0072832880999992014071815004-13262-043408FM-15+044399999V0201201N001519999999Y999999999+03201+01201999999ADDMA1102101999990REMMET045METAR SBLP 181500Z 12003KT CAVOK 32/12 Q1021=
0142832880999992014071816004-13262-043408FM-15+044399999V0201601N002619999999N009999199+03301+01101999999ADDGA1021+009141991GE19MSL   +99999+99999GF199999021990009141991991MA1102001999990REMMET051METAR SBLP 181600Z 16005KT 9999 FEW030 33/11 Q1020=
0142832880999992014071817004-13262-043408FM-15+044399999V0202401N003119999999N009999199+03301+01201999999ADDGA1021+009141991GE19MSL   +99999+99999GF199999021990009141991991MA1101901999990REMMET051METAR SBLP 181700Z 24006KT 9999 FEW030 33/12 Q1019=
0142832880999992014071818004-13262-043408FM-15+044399999V0202901N004619999999N009999199+03301+01101999999ADDGA1021+009141991GE19MSL   +99999+99999GF199999021990009141991991MA1101801999990REMMET051METAR SBLP 181800Z 29009KT 9999 FEW030 33/11 Q1018=
0142832880999992014071819004-13262-043408FM-15+044399999V0202801N004119999999N009999199+03201+01201999999ADDGA1021+009141991GE19MSL   +99999+99999GF199999021990009141991991MA1101801999990REMMET051METAR SBLP 181900Z 28008KT 9999 FEW030 32/12 Q1018=
0142832880999992014071820004-13262-043408FM-15+044399999V0202501N002119999999N009999199+03101+01301999999ADDGA1021+009141991GE19MSL   +99999+99999GF199999021990009141991991MA1101801999990REMMET051METAR SBLP 182000Z 25004KT 9999 FEW030 31/13 Q1018=
0142832880999992014071821004-13262-043408FM-15+044399999V0202001N003119999999N009999199+03001+01201999999ADDGA1021+009141991GE19MSL   +99999+99999GF199999021990009141991991MA1101801999990REMMET051METAR SBLP 182100Z 20006KT 9999 FEW030 30/12 Q1018=
0072832880999992014072109154-13262-043408FM-16+044399999V0209999C000019999999Y999999999+01901+01401999999ADDMA1102001999990REMMET045SPECI SBLP 210915Z 00000KT CAVOK 19/14 Q1020=
0072832880999992014072110004-13262-043408FM-15+044399999V0209999C000019999999Y999999999+02001+01401999999ADDMA1102001999990REMMET045METAR SBLP 211000Z 00000KT CAVOK 20/14 Q1020=
0142832880999992014072111004-13262-043408FM-15+044399999V0202101N002119999999N009999199+02201+01501999999ADDGA1021+009141991GE19MSL   +99999+99999GF199999021990009141991991MA1102101999990REMMET051METAR SBLP 211100Z 21004KT 9999 FEW030 22/15 Q1021=
0072832880999992014072112004-13262-043408FM-15+044399999V0201101N002619999999Y999999999+02601+01501999999ADDMA1102101999990REMMET045METAR SBLP 211200Z 11005KT CAVOK 26/15 Q1021=
0072832880999992014072113004-13262-043408FM-15+044399999V0209999C000019999999Y999999999+02701+01501999999ADDMA1102101999990REMMET045METAR SBLP 211300Z 00000KT CAVOK 27/15 Q1021=
0072832880999992014072114004-13262-043408FM-15+044399999V0201801N001519999999Y999999999+03001+01501999999ADDMA1102101999990REMMET045METAR SBLP 211400Z 18003KT CAVOK 30/15 Q1021=
0142832880999992014072115004-13262-043408FM-15+044399999V0201201N004119999999N009999199+03101+01401999999ADDGA1021+009141991GE19MSL   +99999+99999GF199999021990009141991991MA1102001999990REMMET051METAR SBLP 211500Z 12008KT 9999 FEW030 31/14 Q1020=
0142832880999992014072116004-13262-043408FM-15+044399999V0201001N005119999999N009999199+03301+01401999999ADDGA1021+009141991GE19MSL   +99999+99999GF199999021990009141991991MA1101801999990REMMET051METAR SBLP 211600Z 10010KT 9999 FEW030 33/14 Q1018=
0142832880999992014072117004-13262-043408FM-15+044399999V0202701N003119999999N009999199+03301+01201999999ADDGA1041+009141991GE19MSL   +99999+99999GF199999041990009141991991MA1101701999990REMMET051METAR SBLP 211700Z 27006KT 9999 SCT030 33/12 Q1017=
0142832880999992014072118004-13262-043408FM-15+044399999V0202001N002119999999N009999199+03301+01201999999ADDGA1041+009141991GE19MSL   +99999+99999GF199999041990009141991991MA1101601999990REMMET051METAR SBLP 211800Z 20004KT 9999 SCT030 33/12 Q1016=
0142832880999992014072119004-13262-043408FM-15+044399999V0202401N002610091419N009999199+03301+01001999999ADDGA1071+009141991GE19MSL   +99999+99999GF199999071990009141991991MA1101601999990REMMET051METAR SBLP 211900Z 24005KT 9999 BKN030 33/10 Q1016=
0142832880999992014072120004-13262-043408FM-15+044399999V0202101N002119999999N009999199+03201+01001999999ADDGA1041+009141991GE19MSL   +99999+99999GF199999041990009141991991MA1101701999990REMMET051METAR SBLP 212000Z 21004KT 9999 SCT030 32/10 Q1017=
0142832880999992014072121004-13262-043408FM-15+044399999V0202301N003119999999N009999199+03001+01001999999ADDGA1021+009141991GE19MSL   +99999+99999GF199999021990009141991991MA1101701999990REMMET051METAR SBLP 212100Z 23006KT 9999 FEW030 30/10 Q1017=
0072832880999992014072209154-13262-043408FM-16+044399999V0202101N002119999999Y999999999+01901+01501999999ADDMA1102001999990REMMET045SPECI SBLP 220915Z 21004KT CAVOK 19/15 Q1020=
0072832880999992014072210004-13262-043408FM-15+044399999V0209999C000019999999Y999999999+02001+01501999999ADDMA1102101999990REMMET045METAR SBLP 221000Z 00000KT CAVOK 20/15 Q1021=
0072832880999992014072211004-13262-043408FM-15+044399999V0201801N002619999999Y999999999+02201+01501999999ADDMA1102201999990REMMET045METAR SBLP 221100Z 18005KT CAVOK 22/15 Q1022=
0142832880999992014072212004-13262-043408FM-15+044399999V0200901N002619999999N009999199+02501+01501999999ADDGA1021+009141991GE19MSL   +99999+99999GF199999021990009141991991MA1102301999990REMMET051METAR SBLP 221200Z 09005KT 9999 FEW030 25/15 Q1023=
0142832880999992014072213004-13262-043408FM-15+044399999V0201501N002119999999N009999199+02801+01501999999ADDGA1021+009141991GE19MSL   +99999+99999GF199999021990009141991991MA1102201999990REMMET051METAR SBLP 221300Z 15004KT 9999 FEW030 28/15 Q1022=
0142832880999992014072214004-13262-043408FM-15+044399999V0201201N003119999999N009999199+02901+01601999999ADDGA1041+009141991GE19MSL   +99999+99999GF199999041990009141991991MA1102201999990REMMET051METAR SBLP 221400Z 12006KT 9999 SCT030 29/16 Q1022=
0142832880999992014072215004-13262-043408FM-15+044399999V0200801N004619999999N009999199+03001+01401999999ADDGA1041+009141991GE19MSL   +99999+99999GF199999041990009141991991MA1102101999990REMMET051METAR SBLP 221500Z 08009KT 9999 SCT030 30/14 Q1021=
0142832880999992014072216004-13262-043408FM-15+044399999V0201201N004110091419N009999199+03101+01501999999ADDGA1071+009141991GE19MSL   +99999+99999GF199999071990009141991991MA1102001999990REMMET051METAR SBLP 221600Z 12008KT 9999 BKN030 31/15 Q1020=
0142832880999992014072217004-13262-043408FM-15+044399999V0201101N003110091419N009999199+03101+01401999999ADDGA1071+009141991GE19MSL   +99999+99999GF199999071990009141991991MA1101801999990REMMET051METAR SBLP 221700Z 11006KT 9999 BKN030 31/14 Q1018=
0142832880999992014072218004-13262-043408FM-15+044399999V0200701N004110091419N009999199+03101+01401999999ADDGA1071+009141991GE19MSL   +99999+99999GF199999071990009141991991MA1101801999990REMMET051METAR SBLP 221800Z 07008KT 9999 BKN030 31/14 Q1018=
0142832880999992014072219004-13262-043408FM-15+044399999V0200901N005110091419N009999199+03001+01401999999ADDGA1071+009141991GE19MSL   +99999+99999GF199999071990009141991991MA1101801999990REMMET051METAR SBLP 221900Z 09010KT 9999 BKN030 30/14 Q1018=
0142832880999992014072220004-13262-043408FM-15+044399999V0201301N005110091419N009999199+03101+01401999999ADDGA1071+009141991GE19MSL   +99999+99999GF199999071990009141991991MA1101801999990REMMET051METAR SBLP 222000Z 13010KT 9999 BKN030 31/14 Q1018=
0165832880999992014072221004-13262-043408FM-15+044399999V0201301N00511030481CN009999199+02901+01401999999ADDGA1021+009141991GA2041+030481991GE19MSL   +99999+99999GF199999021990009141991991MA1101801999990REMMET058METAR SBLP 222100Z 13010KT 9999 FEW030 SCT100 29/14 Q1018=
0072832880999992014072309154-13262-043408FM-16+044399999V0202101N001519999999Y999999999+01801+01501999999ADDMA1102101999990REMMET045SPECI SBLP 230915Z 21003KT CAVOK 18/15 Q1021=
0072832880999992014072310004-13262-043408FM-15+044399999V0202001N002119999999Y999999999+01801+01401999999ADDMA1102201999990REMMET045METAR SBLP 231000Z 20004KT CAVOK 18/14 Q1022=
0072832880999992014072311004-13262-043408FM-15+044399999V0201901N002619999999Y999999999+02101+01601999999ADDMA1102201999990REMMET045METAR SBLP 231100Z 19005KT CAVOK 21/16 Q1022=
0072832880999992014072312004-13262-043408FM-15+044399999V0201201N002119999999Y999999999+02501+01501999999ADDMA1102301999990REMMET045METAR SBLP 231200Z 12004KT CAVOK 25/15 Q1023=
0142832880999992014072313004-13262-043408FM-15+044399999V0200701N004119999999N009999199+02701+01501999999ADDGA1021+009141991GE19MSL   +99999+99999GF199999021990009141991991MA1102301999990REMMET051METAR SBLP 231300Z 07008KT 9999 FEW030 27/15 Q1023=
0142832880999992014072314004-13262-043408FM-15+044399999V0201301N005119999999N009999199+02901+01401999999ADDGA1021+009141991GE19MSL   +99999+99999GF199999021990009141991991MA1102201999990REMMET051METAR SBLP 231400Z 13010KT 9999 FEW030 29/14 Q1022=
0142832880999992014072315004-13262-043408FM-15+044399999V0200901N005719999999N009999199+03001+01501999999ADDGA1021+009141991GE19MSL   +99999+99999GF199999021990009141991991MA1102101999990REMMET051METAR SBLP 231500Z 09011KT 9999 FEW030 30/15 Q1021=
0142832880999992014072316004-13262-043408FM-15+044399999V0201801N003119999999N009999199+03201+01401999999ADDGA1041+009141991GE19MSL   +99999+99999GF199999041990009141991991MA1101901999990REMMET051METAR SBLP 231600Z 18006KT 9999 SCT030 32/14 Q1019=
0142832880999992014072317004-13262-043408FM-15+044399999V0201701N002619999999N009999199+03101+01301999999ADDGA1041+009141991GE19MSL   +99999+99999GF199999041990009141991991MA1101801999990REMMET051METAR SBLP 231700Z 17005KT 9999 SCT030 31/13 Q1018=
0142832880999992014072318004-13262-043408FM-15+044399999V0209999C000019999999N009999199+03201+01301999999ADDGA1041+009141991GE19MSL   +99999+99999GF199999041990009141991991MA1101701999990REMMET051METAR SBLP 231800Z 00000KT 9999 SCT030 32/13 Q1017=
0142832880999992014072319004-13262-043408FM-15+044399999V0209999C000019999999N009999199+03201+01401999999ADDGA1041+009141991GE19MSL   +99999+99999GF199999041990009141991991MA1101601999990REMMET051METAR SBLP 231900Z 00000KT 9999 SCT030 32/14 Q1016=
0142832880999992014072320004-13262-043408FM-15+044399999V0202301N002619999999N009999199+03001+01301999999ADDGA1041+009141991GE19MSL   +99999+99999GF199999041990009141991991MA1101601999990REMMET051METAR SBLP 232000Z 23005KT 9999 SCT030 30/13 Q1016=
0142832880999992014072321004-13262-043408FM-15+044399999V0202101N002119999999N009999199+03001+01401999999ADDGA1041+009141991GE19MSL   +99999+99999GF199999041990009141991991MA1101601999990REMMET051METAR SBLP 232100Z 21004KT 9999 SCT030 30/14 Q1016=
0072832880999992014072409154-13262-043408FM-16+044399999V0201801N001019999999Y999999999+01801+01501999999ADDMA1101901999990REMMET045SPECI SBLP 240915Z 18002KT CAVOK 18/15 Q1019=
0072832880999992014072410004-13262-043408FM-15+044399999V0209999C000019999999Y999999999+01801+01401999999ADDMA1102001999990REMMET045METAR SBLP 241000Z 00000KT CAVOK 18/14 Q1020=
0072832880999992014072411004-13262-043408FM-15+044399999V0202501N001019999999Y999999999+02201+01501999999ADDMA1102001999990REMMET045METAR SBLP 241100Z 25002KT CAVOK 22/15 Q1020=
0072832880999992014072412004-13262-043408FM-15+044399999V0202101N001519999999Y999999999+02501+01401999999ADDMA1102101999990REMMET045METAR SBLP 241200Z 21003KT CAVOK 25/14 Q1021=
0072832880999992014072413004-13262-043408FM-15+044399999V0202101N001519999999Y999999999+02801+01501999999ADDMA1102001999990REMMET045METAR SBLP 241300Z 21003KT CAVOK 28/15 Q1020=
0091832880999992014072414004-13262-043408FM-15+044399999V0200901N003619999999Y999999999+02801+99999999999ADDMA1102001999990REMMET045METAR SBLP 241400Z 09007KT CAVOK 28/07 Q1020=EQDQ017     3ATOD  
0142832880999992014072415004-13262-043408FM-15+044399999V0201501N003119999999N009999199+03101+01701999999ADDGA1021+009141991GE19MSL   +99999+99999GF199999021990009141991991MA1101801999990REMMET051METAR SBLP 241500Z 15006KT 9999 FEW030 31/17 Q1018=
0142832880999992014072416004-13262-043408FM-15+044399999V0201101N003619999999N009999199+03201+01401999999ADDGA1021+009141991GE19MSL   +99999+99999GF199999021990009141991991MA1101701999990REMMET051METAR SBLP 241600Z 11007KT 9999 FEW030 32/14 Q1017=
0142832880999992014072417004-13262-043408FM-15+044399999V0200801N004119999999N009999199+03201+01301999999ADDGA1021+009141991GE19MSL   +99999+99999GF199999021990009141991991MA1101601999990REMMET051METAR SBLP 241700Z 08008KT 9999 FEW030 32/13 Q1016=
0142832880999992014072418004-13262-043408FM-15+044399999V0209999C000019999999N009999199+03201+01301999999ADDGA1021+009141991GE19MSL   +99999+99999GF199999021990009141991991MA1101501999990REMMET051METAR SBLP 241800Z 00000KT 9999 FEW030 32/13 Q1015=
0142832880999992014072419004-13262-043408FM-15+044399999V0200901N003619999999N009999199+03301+01201999999ADDGA1041+009141991GE19MSL   +99999+99999GF199999041990009141991991MA1101401999990REMMET051METAR SBLP 241900Z 09007KT 9999 SCT030 33/12 Q1014=
0142832880999992014072420004-13262-043408FM-15+044399999V0201601N002119999999N009999199+03301+01301999999ADDGA1041+009141991GE19MSL   +99999+99999GF199999041990009141991991MA1101501999990REMMET051METAR SBLP 242000Z 16004KT 9999 SCT030 33/13 Q1015=
0165832880999992014072421004-13262-043408FM-15+044399999V0200901N00261030481CN009999199+03101+01301999999ADDGA1021+009141991GA2041+030481991GE19MSL   +99999+99999GF199999021990009141991991MA1101601999990REMMET058METAR SBLP 242100Z 09005KT 9999 FEW030 SCT100 31/13 Q1016=
0072832880999992014072509154-13262-043408FM-16+044399999V0209999C000019999999Y999999999+01801+01401999999ADDMA1101801999990REMMET045SPECI SBLP 250915Z 00000KT CAVOK 18/14 Q1018=
0072832880999992014072510004-13262-043408FM-15+044399999V0209999C000019999999Y999999999+01801+01401999999ADDMA1101801999990REMMET045METAR SBLP 251000Z 00000KT CAVOK 18/14 Q1018=
0072832880999992014072511004-13262-043408FM-15+044399999V0209999C000019999999Y999999999+02301+01501999999ADDMA1101901999990REMMET045METAR SBLP 251100Z 00000KT CAVOK 23/15 Q1019=
0072832880999992014072512004-13262-043408FM-15+044399999V0201301N001019999999Y999999999+02601+01501999999ADDMA1102001999990REMMET045METAR SBLP 251200Z 13002KT CAVOK 26/15 Q1020=
0072832880999992014072513004-13262-043408FM-15+044399999V0201201N002119999999Y999999999+02901+01601999999ADDMA1102001999990REMMET045METAR SBLP 251300Z 12004KT CAVOK 29/16 Q1020=
0072832880999992014072514004-13262-043408FM-15+044399999V0200501N001019999999Y999999999+02901+01501999999ADDMA1101901999990REMMET045METAR SBLP 251400Z 05002KT CAVOK 29/15 Q1019=
0072832880999992014072515004-13262-043408FM-15+044399999V0200301N003619999999Y999999999+03502+01401999999ADDMA1101801999990REMMET045METAR SBLP 251500Z 03007KT CAVOK 35/14 Q1018=
0142832880999992014072516004-13262-043408FM-15+044399999V0203201N003119999999N009999199+03401+01301999999ADDGA1021+009141991GE19MSL   +99999+99999GF199999021990009141991991MA1101701999990REMMET051METAR SBLP 251600Z 32006KT 9999 FEW030 34/13 Q1017=
0142832880999992014072517004-13262-043408FM-15+044399999V0200601N002619999999N009999199+03401+01401999999ADDGA1021+009141991GE19MSL   +99999+99999GF199999021990009141991991MA1101501999990REMMET051METAR SBLP 251700Z 06005KT 9999 FEW030 34/14 Q1015=
0142832880999992014072518004-13262-043408FM-15+044399999V0202301N003119999999N009999199+03401+01301999999ADDGA1021+009141991GE19MSL   +99999+99999GF199999021990009141991991MA1101401999990REMMET051METAR SBLP 251800Z 23006KT 9999 FEW030 34/13 Q1014=
0142832880999992014072519004-13262-043408FM-15+044399999V0203001N001019999999N009999199+03301+01201999999ADDGA1041+009141991GE19MSL   +99999+99999GF199999041990009141991991MA1101401999990REMMET051METAR SBLP 251900Z 30002KT 9999 SCT030 33/12 Q1014=
0142832880999992014072520004-13262-043408FM-15+044399999V0202701N002619999999N009999199+03301+01201999999ADDGA1021+009141991GE19MSL   +99999+99999GF199999021990009141991991MA1101401999990REMMET051METAR SBLP 252000Z 27005KT 9999 FEW030 33/12 Q1014=
0142832880999992014072521004-13262-043408FM-15+044399999V0202201N002119999999N009999199+03201+01301999999ADDGA1021+009141991GE19MSL   +99999+99999GF199999021990009141991991MA1101501999990REMMET051METAR SBLP 252100Z 22004KT 9999 FEW030 32/13 Q1015=
0072832880999992014072809154-13262-043408FM-16+044399999V0202401N003619999999Y999999999+02001+01601999999ADDMA1102101999990REMMET045SPECI SBLP 280915Z 24007KT CAVOK 20/16 Q1021=
0072832880999992014072810004-13262-043408FM-15+044399999V0201901N003119999999Y999999999+02001+01601999999ADDMA1102201999990REMMET045METAR SBLP 281000Z 19006KT CAVOK 20/16 Q1022=
0072832880999992014072811004-13262-043408FM-15+044399999V0202101N003119999999Y999999999+02201+01701999999ADDMA1102201999990REMMET045METAR SBLP 281100Z 21006KT CAVOK 22/17 Q1022=
0072832880999992014072812004-13262-043408FM-15+044399999V0201601N002119999999Y999999999+02501+01701999999ADDMA1102201999990REMMET045METAR SBLP 281200Z 16004KT CAVOK 25/17 Q1022=
0072832880999992014072813004-13262-043408FM-15+044399999V0201501N002619999999Y999999999+02701+01701999999ADDMA1102201999990REMMET045METAR SBLP 281300Z 15005KT CAVOK 27/17 Q1022=
0165832880999992014072814004-13262-043408FM-15+044399999V0201601N00151030481CN009999199+03001+01601999999ADDGA1021+009141991GA2041+030481991GE19MSL   +99999+99999GF199999021990009141991991MA1102201999990REMMET058METAR SBLP 281400Z 16003KT 9999 FEW030 SCT100 30/16 Q1022=
0165832880999992014072815004-13262-043408FM-15+044399999V0202401N00151030481CN009999199+03101+01601999999ADDGA1021+009141991GA2041+030481991GE19MSL   +99999+99999GF199999021990009141991991MA1102101999990REMMET058METAR SBLP 281500Z 24003KT 9999 FEW030 SCT100 31/16 Q1021=
0142832880999992014072816004-13262-043408FM-15+044399999V0209999C000019999999N009999199+03301+01601999999ADDGA1041+009141991GE19MSL   +99999+99999GF199999041990009141991991MA1102001999990REMMET051METAR SBLP 281600Z 00000KT 9999 SCT030 33/16 Q1020=
0142832880999992014072817004-13262-043408FM-15+044399999V0202801N002619999999N009999199+03301+01601999999ADDGA1041+009141991GE19MSL   +99999+99999GF199999041990009141991991MA1101801999990REMMET051METAR SBLP 281700Z 28005KT 9999 SCT030 33/16 Q1018=
0165832880999992014072818004-13262-043408FM-15+044399999V0202601N00411030481CN009999199+03301+01501999999ADDGA1041+009141991GA2041+030481991GE19MSL   +99999+99999GF199999041990009141991991MA1101801999990REMMET058METAR SBLP 281800Z 26008KT 9999 SCT030 SCT100 33/15 Q1018=
0165832880999992014072819004-13262-043408FM-15+044399999V0202701N00511030481CN009999199+03301+01501999999ADDGA1041+009141991GA2041+030481991GE19MSL   +99999+99999GF199999041990009141991991MA1101801999990REMMET058METAR SBLP 281900Z 27010KT 9999 SCT030 SCT100 33/15 Q1018=
0165832880999992014072820004-13262-043408FM-15+044399999V0202401N00411030481CN009999199+03201+01401999999ADDGA1041+009141991GA2041+030481991GE19MSL   +99999+99999GF199999041990009141991991MA1101801999990REMMET058METAR SBLP 282000Z 24008KT 9999 SCT030 SCT100 32/14 Q1018=
0142832880999992014072821004-13262-043408FM-15+044399999V0202701N004119999999N009999199+03001+01301999999ADDGA1021+009141991GE19MSL   +99999+99999GF199999021990009141991991MA1101901999990REMMET051METAR SBLP 282100Z 27008KT 9999 FEW030 30/13 Q1019=
0142832880999992014072909154-13262-043408FM-16+044399999V0209999C000019999999N009999199+02101+01601999999ADDGA1021+009141991GE19MSL   +99999+99999GF199999021990009141991991MA1102101999990REMMET051SPECI SBLP 290915Z 00000KT 9999 FEW030 21/16 Q1021=
0142832880999992014072910004-13262-043408FM-15+044399999V0203001N001019999999N009999199+02101+01601999999ADDGA1021+009141991GE19MSL   +99999+99999GF199999021990009141991991MA1102201999990REMMET051METAR SBLP 291000Z 30002KT 9999 FEW030 21/16 Q1022=
0142832880999992014072911004-13262-043408FM-15+044399999V0202501N002619999999N009999199+02401+01601999999ADDGA1021+009141991GE19MSL   +99999+99999GF199999021990009141991991MA1102301999990REMMET051METAR SBLP 291100Z 25005KT 9999 FEW030 24/16 Q1023=
0142832880999992014072912004-13262-043408FM-15+044399999V0202501N005119999999N009999199+02701+01401999999ADDGA1021+009141991GE19MSL   +99999+99999GF199999021990009141991991MA1102301999990REMMET051METAR SBLP 291200Z 25010KT 9999 FEW030 27/14 Q1023=
0142832880999992014072913004-13262-043408FM-15+044399999V0202301N007719999999N009999199+02801+01501999999ADDGA1041+009141991GE19MSL   +99999+99999GF199999041990009141991991MA1102301999990REMMET051METAR SBLP 291300Z 23015KT 9999 SCT030 28/15 Q1023=
0142832880999992014072914004-13262-043408FM-15+044399999V0202401N003119999999N009999199+02901+01501999999ADDGA1041+009141991GE19MSL   +99999+99999GF199999041990009141991991MA1102201999990REMMET051METAR SBLP 291400Z 24006KT 9999 SCT030 29/15 Q1022=
0142832880999992014072915004-13262-043408FM-15+044399999V0202701N005119999999N009999199+03001+01501999999ADDGA1041+009141991GE19MSL   +99999+99999GF199999041990009141991991MA1102201999990REMMET051METAR SBLP 291500Z 27010KT 9999 SCT030 30/15 Q1022=
0142832880999992014072916004-13262-043408FM-15+044399999V0201201N007719999999N009999199+03101+01501999999ADDGA1041+009141991GE19MSL   +99999+99999GF199999041990009141991991MA1102101999990REMMET051METAR SBLP 291600Z 12015KT 9999 SCT030 31/15 Q1021=
0142832880999992014072917004-13262-043408FM-15+044399999V0201701N005110091419N009999199+03101+01501999999ADDGA1071+009141991GE19MSL   +99999+99999GF199999071990009141991991MA1102001999990REMMET051METAR SBLP 291700Z 17010KT 9999 BKN030 31/15 Q1020=
0142832880999992014072918004-13262-043408FM-15+044399999V0201801N008210091419N009999199+03101+01401999999ADDGA1071+009141991GE19MSL   +99999+99999GF199999071990009141991991MA1101901999990REMMET051METAR SBLP 291800Z 18016KT 9999 BKN030 31/14 Q1019=
0142832880999992014072920004-13262-043408FM-15+044399999V0202401N006719999999N009999199+03001+01301999999ADDGA1021+009141991GE19MSL   +99999+99999GF199999021990009141991991MA1101901999990REMMET051METAR SBLP 292000Z 24013KT 9999 FEW030 30/13 Q1019=
0142832880999992014072921004-13262-043408FM-15+044399999V0201501N006219999999N009999199+02701+01401999999ADDGA1021+009141991GE19MSL   +99999+99999GF199999021990009141991991MA1102001999990REMMET051METAR SBLP 292100Z 15012KT 9999 FEW030 27/14 Q1020=
0165832880999992014073009154-13262-043408FM-16+044399999V0201601N00261030481CN009999199+02001+01501999999ADDGA1041+009141991GA2041+030481991GE19MSL   +99999+99999GF199999041990009141991991MA1102201999990REMMET058SPECI SBLP 300915Z 16005KT 9999 SCT030 SCT100 20/15 Q1022=
0165832880999992014073010004-13262-043408FM-15+044399999V0201701N00311030481CN009999199+02101+01501999999ADDGA1041+009141991GA2041+030481991GE19MSL   +99999+99999GF199999041990009141991991MA1102201999990REMMET058METAR SBLP 301000Z 17006KT 9999 SCT030 SCT100 21/15 Q1022=
0142832880999992014073011004-13262-043408FM-15+044399999V0201601N005110091419N009999199+02201+01501999999ADDGA1071+009141991GE19MSL   +99999+99999GF199999071990009141991991MA1102301999990REMMET051METAR SBLP 301100Z 16010KT 9999 BKN030 22/15 Q1023=
0142832880999992014073012004-13262-043408FM-15+044399999V0201401N007710070119N009999199+02301+01401999999ADDGA1071+007011991GE19MSL   +99999+99999GF199999071990007011991991MA1102301999990REMMET051METAR SBLP 301200Z 14015KT 9999 BKN023 23/14 Q1023=
0142832880999992014073013004-13262-043408FM-15+044399999V0201201N008210091419N009999199+02501+01401999999ADDGA1071+009141991GE19MSL   +99999+99999GF199999071990009141991991MA1102301999990REMMET051METAR SBLP 301300Z 12016KT 9999 BKN030 25/14 Q1023=
0142832880999992014073014004-13262-043408FM-15+044399999V0200901N005719999999N009999199+02601+01401999999ADDGA1041+009141991GE19MSL   +99999+99999GF199999041990009141991991MA1102301999990REMMET051METAR SBLP 301400Z 09011KT 9999 SCT030 26/14 Q1023=
0142832880999992014073015004-13262-043408FM-15+044399999V0201501N004619999999N009999199+02701+01301999999ADDGA1041+009141991GE19MSL   +99999+99999GF199999041990009141991991MA1102201999990REMMET051METAR SBLP 301500Z 15009KT 9999 SCT030 27/13 Q1022=
0142832880999992014073016004-13262-043408FM-15+044399999V0202101N003619999999N009999199+03001+01601999999ADDGA1041+009141991GE19MSL   +99999+99999GF199999041990009141991991MA1102101999990REMMET051METAR SBLP 301600Z 21007KT 9999 SCT030 30/16 Q1021=
0142832880999992014073017004-13262-043408FM-15+044399999V0202701N007719999999N009999199+03001+01301999999ADDGA1041+009141991GE19MSL   +99999+99999GF199999041990009141991991MA1102001999990REMMET051METAR SBLP 301700Z 27015KT 9999 SCT030 30/13 Q1020=
0142832880999992014073018004-13262-043408FM-15+044399999V0202201N007719999999N009999199+03001+01601999999ADDGA1041+009141991GE19MSL   +99999+99999GF199999041990009141991991MA1101901999990REMMET051METAR SBLP 301800Z 22015KT 9999 SCT030 30/16 Q1019=
0142832880999992014073020004-13262-043408FM-15+044399999V0202401N005119999999N009999199+02901+01401999999ADDGA1041+009141991GE19MSL   +99999+99999GF199999041990009141991991MA1101801999990REMMET051METAR SBLP 302000Z 24010KT 9999 SCT030 29/14 Q1018=
0142832880999992014073021004-13262-043408FM-15+044399999V0202501N005119999999N009999199+02701+01401999999ADDGA1021+009141991GE19MSL   +99999+99999GF199999021990009141991991MA1101901999990REMMET051METAR SBLP 302100Z 25010KT 9999 FEW030 27/14 Q1019=
0072832880999992014073109154-13262-043408FM-16+044399999V0202501N002619999999Y999999999+02101+01401999999ADDMA1102101999990REMMET045SPECI SBLP 310915Z 25005KT CAVOK 21/14 Q1021=
0072832880999992014073110004-13262-043408FM-15+044399999V0202701N002119999999Y999999999+02001+01301999999ADDMA1102101999990REMMET045METAR SBLP 311000Z 27004KT CAVOK 20/13 Q1021=
0072832880999992014073112004-13262-043408FM-15+044399999V0202701N004119999999Y999999999+02401+01301999999ADDMA1102201999990REMMET045METAR SBLP 311200Z 27008KT CAVOK 24/13 Q1022=
0142832880999992014073113004-13262-043408FM-15+044399999V0202701N002619999999N009999199+02601+01301999999ADDGA1021+009141991GE19MSL   +99999+99999GF199999021990009141991991MA1102201999990REMMET051METAR SBLP 311300Z 27005KT 9999 FEW030 26/13 Q1022=
0142832880999992014073114004-13262-043408FM-15+044399999V0202401N002619999999N009999199+02701+01401999999ADDGA1021+009141991GE19MSL   +99999+99999GF199999021990009141991991MA1102101999990REMMET051METAR SBLP 311400Z 24005KT 9999 FEW030 27/14 Q1021=
0142832880999992014073115004-13262-043408FM-15+044399999V0202401N003119999999N009999199+02801+01401999999ADDGA1021+009141991GE19MSL   +99999+99999GF199999021990009141991991MA1102001999990REMMET051METAR SBLP 311500Z 24006KT 9999 FEW030 28/14 Q1020=
0142832880999992014073117004-13262-043408FM-15+044399999V0200601N006219999999N009999199+03201+01401999999ADDGA1041+009141991GE19MSL   +99999+99999GF199999041990009141991991MA1101701999990REMMET051METAR SBLP 311700Z 06012KT 9999 SCT030 32/14 Q1017=
0142832880999992014073118004-13262-043408FM-15+044399999V0200601N003610091419N009999199+03101+01501999999ADDGA1071+009141991GE19MSL   +99999+99999GF199999071990009141991991MA1101701999990REMMET051METAR SBLP 311800Z 06007KT 9999 BKN030 31/15 Q1017=
0142832880999992014073119004-13262-043408FM-15+044399999V0200701N003110091419N009999199+03101+01301999999ADDGA1071+009141991GE19MSL   +99999+99999GF199999071990009141991991MA1101601999990REMMET051METAR SBLP 311900Z 07006KT 9999 BKN030 31/13 Q1016=
0142832880999992014073120004-13262-043408FM-15+044399999V0200901N005119999999N009999199+03101+01301999999ADDGA1021+009141991GE19MSL   +99999+99999GF199999021990009141991991MA1101601999990REMMET051METAR SBLP 312000Z 09010KT 9999 FEW030 31/13 Q1016=
0142832880999992014073121004-13262-043408FM-15+044399999V0201001N003119999999N009999199+02901+01301999999ADDGA1021+009141991GE19MSL   +99999+99999GF199999021990009141991991MA1101701999990REMMET051METAR SBLP 312100Z 10006KT 9999 FEW030 29/13 Q1017=
0142832880999992014080110004-13262-043408FM-15+044399999V0209999C000019999999N009999199+01901+01401999999ADDGA1021+009141991GE19MSL   +99999+99999GF199999021990009141991991MA1102001999990REMMET051METAR SBLP 011000Z 00000KT 9999 FEW030 19/14 Q1020=
0142832880999992014080112004-13262-043408FM-15+044399999V0202301N001019999999N009999199+02501+01401999999ADDGA1021+009141991GE19MSL   +99999+99999GF199999021990009141991991MA1102101999990REMMET051METAR SBLP 011200Z 23002KT 9999 FEW030 25/14 Q1021=
0146832880999992014080113004-13262-043408FM-15+044399999V0202201N002119999999N009999199+02801+01501999999ADDGA1021+009141991GE19MSL   +99999+99999GF199999021990009141991991REMMET051METAR SBLP 011300Z 22004KT 9999 FEW030 28/15 Q1014=EQDQ011014  3APOA  
0142832880999992014080114004-13262-043408FM-15+044399999V0202201N002619999999N009999199+02901+01401999999ADDGA1021+009141991GE19MSL   +99999+99999GF199999021990009141991991MA1102101999990REMMET051METAR SBLP 011400Z 22005KT 9999 FEW030 29/14 Q1021=
0142832880999992014080116004-13262-043408FM-15+044399999V0200401N003619999999N009999199+03101+01401999999ADDGA1041+009141991GE19MSL   +99999+99999GF199999041990009141991991MA1101801999990REMMET051METAR SBLP 011600Z 04007KT 9999 SCT030 31/14 Q1018=
0165832880999992014080119004-13262-043408FM-15+044399999V0209999C000010091419N009999199+03101+01101999999ADDGA1071+009141991GA2041+030481991GE19MSL   +99999+99999GF199999071990009141991991MA1101601999990REMMET058METAR SBLP 011900Z 00000KT 9999 BKN030 SCT100 31/11 Q1016=
0165832880999992014080409154-13262-043408FM-16+044399999V0209999C00001030481CN009999199+02001+01301999999ADDGA1021+009141991GA2041+030481991GE19MSL   +99999+99999GF199999021990009141991991MA1101801999990REMMET058SPECI SBLP 040915Z 00000KT 9999 FEW030 SCT100 20/13 Q1018=
0165832880999992014080410004-13262-043408FM-15+044399999V0209999C000010304819N009999199+02001+01201999999ADDGA1021+009141991GA2071+030481991GE19MSL   +99999+99999GF199999021990009141991991MA1101801999990REMMET058METAR SBLP 041000Z 00000KT 9999 FEW030 BKN100 20/12 Q1018=
0165832880999992014080411004-13262-043408FM-15+044399999V0200901N00151030481CN009999199+02401+01401999999ADDGA1021+009141991GA2041+030481991GE19MSL   +99999+99999GF199999021990009141991991MA1101901999990REMMET058METAR SBLP 041100Z 09003KT 9999 FEW030 SCT100 24/14 Q1019=
0072832880999992014080412004-13262-043408FM-15+044399999V0200901N002119999999Y999999999+02601+01401999999ADDMA1101901999990REMMET045METAR SBLP 041200Z 09004KT CAVOK 26/14 Q1019=
0072832880999992014080413004-13262-043408FM-15+044399999V0200801N004119999999Y999999999+02901+01401999999ADDMA1101901999990REMMET045METAR SBLP 041300Z 08008KT CAVOK 29/14 Q1019=
0072832880999992014080414004-13262-043408FM-15+044399999V0203601N002119999999Y999999999+03101+01301999999ADDMA1101801999990REMMET045METAR SBLP 041400Z 36004KT CAVOK 31/13 Q1018=
0165832880999992014080415004-13262-043408FM-15+044399999V0201801N00211030481CN009999199+03201+01101999999ADDGA1021+009141991GA2041+030481991GE19MSL   +99999+99999GF199999021990009141991991MA1101801999990REMMET058METAR SBLP 041500Z 18004KT 9999 FEW030 SCT100 32/11 Q1018=
0142832880999992014080416004-13262-043408FM-15+044399999V0203201N001519999999N009999199+03401+00801999999ADDGA1041+009141991GE19MSL   +99999+99999GF199999041990009141991991MA1101601999990REMMET051METAR SBLP 041600Z 32003KT 9999 SCT030 34/08 Q1016=
0142832880999992014080417004-13262-043408FM-15+044399999V0202901N002119999999N009999199+03501+00601999999ADDGA1041+009141991GE19MSL   +99999+99999GF199999041990009141991991MA1101601999990REMMET051METAR SBLP 041700Z 29004KT 9999 SCT030 35/06 Q1016=
0142832880999992014080418004-13262-043408FM-15+044399999V0203001N004119999999N009999199+03601+00701999999ADDGA1041+009141991GE19MSL   +99999+99999GF199999041990009141991991MA1101501999990REMMET051METAR SBLP 041800Z 30008KT 9999 SCT030 36/07 Q1015=
0142832880999992014080419004-13262-043408FM-15+044399999V0203601N002119999999N009999199+03501+00801999999ADDGA1041+009141991GE19MSL   +99999+99999GF199999041990009141991991MA1101501999990REMMET051METAR SBLP 041900Z 36004KT 9999 SCT030 35/08 Q1015=
0142832880999992014080420004-13262-043408FM-15+044399999V0203201N002119999999N009999199+03501+00801999999ADDGA1041+009141991GE19MSL   +99999+99999GF199999041990009141991991MA1101601999990REMMET051METAR SBLP 042000Z 32004KT 9999 SCT030 35/08 Q1016=
0142832880999992014080421004-13262-043408FM-15+044399999V0203201N001019999999N009999199+03201+00901999999ADDGA1021+009141991GE19MSL   +99999+99999GF199999021990009141991991MA1101601999990REMMET051METAR SBLP 042100Z 32002KT 9999 FEW030 32/09 Q1016=
0072832880999992014080509154-13262-043408FM-16+044399999V0209999C000019999999Y999999999+01901+01101999999ADDMA1101801999990REMMET045SPECI SBLP 050915Z 00000KT CAVOK 19/11 Q1018=
0072832880999992014080510004-13262-043408FM-15+044399999V0209999C000019999999Y999999999+01901+01101999999ADDMA1101801999990REMMET045METAR SBLP 051000Z 00000KT CAVOK 19/11 Q1018=
0072832880999992014080511004-13262-043408FM-15+044399999V0209999C000019999999Y999999999+02401+01201999999ADDMA1101901999990REMMET045METAR SBLP 051100Z 00000KT CAVOK 24/12 Q1019=
0072832880999992014080512004-13262-043408FM-15+044399999V0201801N001019999999Y999999999+02701+01301999999ADDMA1102001999990REMMET045METAR SBLP 051200Z 18002KT CAVOK 27/13 Q1020=
0073832880999992014080513004-13262-043408FM-15+044399999V0203601N001019999999Y999999999+02901+01501999999REMMET045METAR SBLP 051300Z 36002KT CAVOK 29/15 Q1009=EQDQ011009  3APOA  
0072832880999992014080514004-13262-043408FM-15+044399999V0201201N001019999999Y999999999+03101+01401999999ADDMA1101901999990REMMET045METAR SBLP 051400Z 12002KT CAVOK 31/14 Q1019=
0142832880999992014080515004-13262-043408FM-15+044399999V0203301N001019999999N009999199+03301+01401999999ADDGA1021+009141991GE19MSL   +99999+99999GF199999021990009141991991MA1101801999990REMMET051METAR SBLP 051500Z 33002KT 9999 FEW030 33/14 Q1018=
0142832880999992014080516004-13262-043408FM-15+044399999V0201901N003119999999N009999199+03301+00602999999ADDGA1021+009141991GE19MSL   +99999+99999GF199999021990009141991991MA1101701999990REMMET051METAR SBLP 051600Z 19006KT 9999 FEW030 33/06 Q1017=
0142832880999992014080517004-13262-043408FM-15+044399999V0201501N005119999999N009999199+03301+00901999999ADDGA1041+009141991GE19MSL   +99999+99999GF199999041990009141991991MA1101601999990REMMET051METAR SBLP 051700Z 15010KT 9999 SCT030 33/09 Q1016=
0165832880999992014080518004-13262-043408FM-15+044399999V0202101N00361030481CN009999199+03401+00801999999ADDGA1041+009141991GA2041+030481991GE19MSL   +99999+99999GF199999041990009141991991MA1101501999990REMMET058METAR SBLP 051800Z 21007KT 9999 SCT030 SCT100 34/08 Q1015=
0165832880999992014080519004-13262-043408FM-15+044399999V0201401N00511030481CN009999199+03401+00901999999ADDGA1041+009141991GA2041+030481991GE19MSL   +99999+99999GF199999041990009141991991MA1101501999990REMMET058METAR SBLP 051900Z 14010KT 9999 SCT030 SCT100 34/09 Q1015=
0165832880999992014080520004-13262-043408FM-15+044399999V0201601N005710304819N009999199+03201+01001999999ADDGA1041+009141991GA2071+030481991GE19MSL   +99999+99999GF199999041990009141991991MA1101601999990REMMET058METAR SBLP 052000Z 16011KT 9999 SCT030 BKN100 32/10 Q1016=
0165832880999992014080521004-13262-043408FM-15+044399999V0201901N00211030481CN009999199+03101+01001999999ADDGA1021+009141991GA2041+030481991GE19MSL   +99999+99999GF199999021990009141991991MA1101601999990REMMET058METAR SBLP 052100Z 19004KT 9999 FEW030 SCT100 31/10 Q1016=
0072832880999992014080609154-13262-043408FM-16+044399999V0202701N004119999999Y999999999+02301+01401999999ADDMA1101901999990REMMET045SPECI SBLP 060915Z 27008KT CAVOK 23/14 Q1019=
0072832880999992014080610004-13262-043408FM-15+044399999V0202601N007719999999Y999999999+02301+01301999999ADDMA1102001999990REMMET045METAR SBLP 061000Z 26015KT CAVOK 23/13 Q1020=
0072832880999992014080611004-13262-043408FM-15+044399999V0202701N008819999999Y999999999+02501+01401999999ADDMA1102101999990REMMET045METAR SBLP 061100Z 27017KT CAVOK 25/14 Q1021=
0072832880999992014080612004-13262-043408FM-15+044399999V0202701N007719999999Y999999999+02701+01301999999ADDMA1102201999990REMMET045METAR SBLP 061200Z 27015KT CAVOK 27/13 Q1022=
0142832880999992014080613004-13262-043408FM-15+044399999V0202301N004119999999N009999199+02801+01301999999ADDGA1021+009141991GE19MSL   +99999+99999GF199999021990009141991991MA1102201999990REMMET051METAR SBLP 061300Z 23008KT 9999 FEW030 28/13 Q1022=
0142832880999992014080614004-13262-043408FM-15+044399999V0202501N006719999999N009999199+03001+01301999999ADDGA1041+009141991GE19MSL   +99999+99999GF199999041990009141991991MA1102101999990REMMET051METAR SBLP 061400Z 25013KT 9999 SCT030 30/13 Q1021=
0142832880999992014080615004-13262-043408FM-15+044399999V0202501N005119999999N009999199+03001+01601999999ADDGA1041+009141991GE19MSL   +99999+99999GF199999041990009141991991MA1101901999990REMMET051METAR SBLP 061500Z 25010KT 9999 SCT030 30/16 Q1019=
0142832880999992014080616004-13262-043408FM-15+044399999V0201201N007719999999N009999199+03001+01201999999ADDGA1041+009141991GE19MSL   +99999+99999GF199999041990009141991991MA1101901999990REMMET051METAR SBLP 061600Z 12015KT 9999 SCT030 30/12 Q1019=
0142832880999992014080617004-13262-043408FM-15+044399999V0200801N005119999999N009999199+03101+01101999999ADDGA1041+009141991GE19MSL   +99999+99999GF199999041990009141991991MA1101801999990REMMET051METAR SBLP 061700Z 08010KT 9999 SCT030 31/11 Q1018=
0142832880999992014080618004-13262-043408FM-15+044399999V0202501N007210091419N009999199+03101+01401999999ADDGA1071+009141991GE19MSL   +99999+99999GF199999071990009141991991MA1101701999990REMMET051METAR SBLP 061800Z 25014KT 9999 BKN030 31/14 Q1017=
0142832880999992014080619004-13262-043408FM-15+044399999V0202501N004119999999N009999199+03101+01401999999ADDGA1041+009141991GE19MSL   +99999+99999GF199999041990009141991991MA1101701999990REMMET051METAR SBLP 061900Z 25008KT 9999 SCT030 31/14 Q1017=
0142832880999992014080620004-13262-043408FM-15+044399999V0202401N004119999999N009999199+03001+01501999999ADDGA1021+009141991GE19MSL   +99999+99999GF199999021990009141991991MA1101801999990REMMET051METAR SBLP 062000Z 24008KT 9999 FEW030 30/15 Q1018=
0142832880999992014080621004-13262-043408FM-15+044399999V0202401N005119999999N009999199+02701+01501999999ADDGA1021+009141991GE19MSL   +99999+99999GF199999021990009141991991MA1101801999990REMMET051METAR SBLP 062100Z 24010KT 9999 FEW030 27/15 Q1018=
0072832880999992014080709154-13262-043408FM-16+044399999V0203101N002119999999Y999999999+01701+01301999999ADDMA1102201999990REMMET045SPECI SBLP 070915Z 31004KT CAVOK 17/13 Q1022=
0072832880999992014080710004-13262-043408FM-15+044399999V0203201N001519999999Y999999999+01701+01201999999ADDMA1102201999990REMMET045METAR SBLP 071000Z 32003KT CAVOK 17/12 Q1022=
0072832880999992014080711004-13262-043408FM-15+044399999V0202801N003619999999Y999999999+02001+01201999999ADDMA1102301999990REMMET045METAR SBLP 071100Z 28007KT CAVOK 20/12 Q1023=
0072832880999992014080712004-13262-043408FM-15+044399999V0202801N004119999999Y999999999+02301+01101999999ADDMA1102401999990REMMET045METAR SBLP 071200Z 28008KT CAVOK 23/11 Q1024=
0072832880999992014080713004-13262-043408FM-15+044399999V0203101N004119999999Y999999999+02401+01201999999ADDMA1102301999990REMMET045METAR SBLP 071300Z 31008KT CAVOK 24/12 Q1023=
0072832880999992014080714004-13262-043408FM-15+044399999V0203001N004119999999Y999999999+02701+01101999999ADDMA1102301999990REMMET045METAR SBLP 071400Z 30008KT CAVOK 27/11 Q1023=
0072832880999992014080715004-13262-043408FM-15+044399999V0202701N001019999999Y999999999+02801+01101999999ADDMA1102301999990REMMET045METAR SBLP 071500Z 27002KT CAVOK 28/11 Q1023=
0072832880999992014080716004-13262-043408FM-15+044399999V0200701N002119999999Y999999999+02801+01101999999ADDMA1102001999990REMMET045METAR SBLP 071600Z 07004KT CAVOK 28/11 Q1020=
0072832880999992014080717004-13262-043408FM-15+044399999V0209999C000019999999Y999999999+03101+01201999999ADDMA1101901999990REMMET045METAR SBLP 071700Z 00000KT CAVOK 31/12 Q1019=
0072832880999992014080718004-13262-043408FM-15+044399999V0202701N002119999999Y999999999+03101+01101999999ADDMA1101801999990REMMET045METAR SBLP 071800Z 27004KT CAVOK 31/11 Q1018=
0142832880999992014080719004-13262-043408FM-15+044399999V0202801N002119999999N009999199+03101+01101999999ADDGA1021+009141991GE19MSL   +99999+99999GF199999021990009141991991MA1101801999990REMMET051METAR SBLP 071900Z 28004KT 9999 FEW030 31/11 Q1018=
0072832880999992014080720004-13262-043408FM-15+044399999V0203301N001019999999Y999999999+03101+01301999999ADDMA1101801999990REMMET045METAR SBLP 072000Z 33002KT CAVOK 31/13 Q1018=
0072832880999992014080721004-13262-043408FM-15+044399999V0209999C000019999999Y999999999+02801+01001999999ADDMA1101901999990REMMET045METAR SBLP 072100Z 00000KT CAVOK 28/10 Q1019=
0072832880999992014080809154-13262-043408FM-16+044399999V0203301N001519999999Y999999999+01501+01201999999ADDMA1102001999990REMMET045SPECI SBLP 080915Z 33003KT CAVOK 15/12 Q1020=
0072832880999992014080810004-13262-043408FM-15+044399999V0203201N001519999999Y999999999+01601+01201999999ADDMA1102001999990REMMET045METAR SBLP 081000Z 32003KT CAVOK 16/12 Q1020=
0072832880999992014080811004-13262-043408FM-15+044399999V0203001N003119999999Y999999999+02001+01301999999ADDMA1102101999990REMMET045METAR SBLP 081100Z 30006KT CAVOK 20/13 Q1021=
0072832880999992014080812004-13262-043408FM-15+044399999V0203101N002119999999Y999999999+02301+01201999999ADDMA1102201999990REMMET045METAR SBLP 081200Z 31004KT CAVOK 23/12 Q1022=
0072832880999992014080813004-13262-043408FM-15+044399999V0203001N003119999999Y999999999+02501+01201999999ADDMA1102201999990REMMET045METAR SBLP 081300Z 30006KT CAVOK 25/12 Q1022=
0072832880999992014080814004-13262-043408FM-15+044399999V0201201N001019999999Y999999999+02801+01301999999ADDMA1102101999990REMMET045METAR SBLP 081400Z 12002KT CAVOK 28/13 Q1021=
0072832880999992014080815004-13262-043408FM-15+044399999V0202301N002619999999Y999999999+02901+01201999999ADDMA1102001999990REMMET045METAR SBLP 081500Z 23005KT CAVOK 29/12 Q1020=
0072832880999992014080816004-13262-043408FM-15+044399999V0202101N002619999999Y999999999+03001+01201999999ADDMA1101901999990REMMET045METAR SBLP 081600Z 21005KT CAVOK 30/12 Q1019=
0072832880999992014080817004-13262-043408FM-15+044399999V0201501N002619999999Y999999999+03101+01101999999ADDMA1101701999990REMMET045METAR SBLP 081700Z 15005KT CAVOK 31/11 Q1017=
0072832880999992014080818004-13262-043408FM-15+044399999V0203401N002619999999Y999999999+03201+01501999999ADDMA1101601999990REMMET045METAR SBLP 081800Z 34005KT CAVOK 32/15 Q1016=
0072832880999992014080819004-13262-043408FM-15+044399999V0203401N002619999999Y999999999+03201+01101999999ADDMA1101601999990REMMET045METAR SBLP 081900Z 34005KT CAVOK 32/11 Q1016=
0072832880999992014080820004-13262-043408FM-15+044399999V0203201N002619999999Y999999999+03201+01301999999ADDMA1101601999990REMMET045METAR SBLP 082000Z 32005KT CAVOK 32/13 Q1016=
0072832880999992014080821004-13262-043408FM-15+044399999V0202101N001519999999Y999999999+02901+01101999999ADDMA1101601999990REMMET045METAR SBLP 082100Z 21003KT CAVOK 29/11 Q1016=
0072832880999992014081109154-13262-043408FM-16+044399999V0209999C000019999999Y999999999+01801+01201999999ADDMA1101901999990REMMET045SPECI SBLP 110915Z 00000KT CAVOK 18/12 Q1019=
0072832880999992014081110004-13262-043408FM-15+044399999V0202101N001519999999Y999999999+01801+01301999999ADDMA1102001999990REMMET045METAR SBLP 111000Z 21003KT CAVOK 18/13 Q1020=
0072832880999992014081111004-13262-043408FM-15+044399999V0209999C000019999999Y999999999+02101+01301999999ADDMA1102001999990REMMET045METAR SBLP 111100Z 00000KT CAVOK 21/13 Q1020=
0072832880999992014081112004-13262-043408FM-15+044399999V0201201N003619999999Y999999999+02401+01301999999ADDMA1102101999990REMMET045METAR SBLP 111200Z 12007KT CAVOK 24/13 Q1021=
0072832880999992014081113004-13262-043408FM-15+044399999V0201401N002119999999Y999999999+02501+01301999999ADDMA1102101999990REMMET045METAR SBLP 111300Z 14004KT CAVOK 25/13 Q1021=
0072832880999992014081114004-13262-043408FM-15+044399999V0201501N002119999999Y999999999+02801+01301999999ADDMA1102101999990REMMET045METAR SBLP 111400Z 15004KT CAVOK 28/13 Q1021=
0142832880999992014081115004-13262-043408FM-15+044399999V0209999C000019999999N009999199+02901+01201999999ADDGA1021+009141991GE19MSL   +99999+99999GF199999021990009141991991MA1102001999990REMMET051METAR SBLP 111500Z 00000KT 9999 FEW030 29/12 Q1020=
0142832880999992014081116004-13262-043408FM-15+044399999V0203001N002119999999N009999199+03101+01201999999ADDGA1021+009141991GE19MSL   +99999+99999GF199999021990009141991991MA1101801999990REMMET051METAR SBLP 111600Z 30004KT 9999 FEW030 31/12 Q1018=
0142832880999992014081117004-13262-043408FM-15+044399999V0203201N004119999999N009999199+03301+01101999999ADDGA1021+009141991GE19MSL   +99999+99999GF199999021990009141991991MA1101701999990REMMET051METAR SBLP 111700Z 32008KT 9999 FEW030 33/11 Q1017=
0142832880999992014081118004-13262-043408FM-15+044399999V0203301N002619999999N009999199+03201+01001999999ADDGA1021+009141991GE19MSL   +99999+99999GF199999021990009141991991MA1101601999990REMMET051METAR SBLP 111800Z 33005KT 9999 FEW030 32/10 Q1016=
0142832880999992014081119004-13262-043408FM-15+044399999V0202701N003119999999N009999199+03301+01001999999ADDGA1021+009141991GE19MSL   +99999+99999GF199999021990009141991991MA1101601999990REMMET051METAR SBLP 111900Z 27006KT 9999 FEW030 33/10 Q1016=
0142832880999992014081120004-13262-043408FM-15+044399999V0203001N004119999999N009999199+03201+01101999999ADDGA1021+009141991GE19MSL   +99999+99999GF199999021990009141991991MA1101601999990REMMET051METAR SBLP 112000Z 30008KT 9999 FEW030 32/11 Q1016=
0142832880999992014081121004-13262-043408FM-15+044399999V0203001N003619999999N009999199+02901+01001999999ADDGA1021+009141991GE19MSL   +99999+99999GF199999021990009141991991MA1101601999990REMMET051METAR SBLP 112100Z 30007KT 9999 FEW030 29/10 Q1016=
0072832880999992014081209154-13262-043408FM-16+044399999V0209999C000019999999Y999999999+01801+01301999999ADDMA1101901999990REMMET045SPECI SBLP 120915Z 00000KT CAVOK 18/13 Q1019=
0072832880999992014081210004-13262-043408FM-15+044399999V0209999C000019999999Y999999999+01801+01301999999ADDMA1102001999990REMMET045METAR SBLP 121000Z 00000KT CAVOK 18/13 Q1020=
0072832880999992014081211004-13262-043408FM-15+044399999V0202401N001019999999Y999999999+02201+01301999999ADDMA1102101999990REMMET045METAR SBLP 121100Z 24002KT CAVOK 22/13 Q1021=
0072832880999992014081212004-13262-043408FM-15+044399999V0202201N001519999999Y999999999+02501+01301999999ADDMA1102201999990REMMET045METAR SBLP 121200Z 22003KT CAVOK 25/13 Q1022=
0072832880999992014081213004-13262-043408FM-15+044399999V0202701N001519999999Y999999999+02701+01201999999ADDMA1102101999990REMMET045METAR SBLP 121300Z 27003KT CAVOK 27/12 Q1021=
0072832880999992014081214004-13262-043408FM-15+044399999V0202801N001519999999Y999999999+02901+01201999999ADDMA1102101999990REMMET045METAR SBLP 121400Z 28003KT CAVOK 29/12 Q1021=
0072832880999992014081215004-13262-043408FM-15+044399999V0203201N004119999999Y999999999+03001+01201999999ADDMA1101901999990REMMET045METAR SBLP 121500Z 32008KT CAVOK 30/12 Q1019=
0072832880999992014081216004-13262-043408FM-15+044399999V0201501N004119999999Y999999999+03001+01001999999ADDMA1101801999990REMMET045METAR SBLP 121600Z 15008KT CAVOK 30/10 Q1018=
0072832880999992014081217004-13262-043408FM-15+044399999V0202101N003119999999Y999999999+03101+01001999999ADDMA1101701999990REMMET045METAR SBLP 121700Z 21006KT CAVOK 31/10 Q1017=
0072832880999992014081218004-13262-043408FM-15+044399999V0201701N007219999999Y999999999+03201+00901999999ADDMA1101601999990REMMET045METAR SBLP 121800Z 17014KT CAVOK 32/09 Q1016=
0072832880999992014081219004-13262-043408FM-15+044399999V0201501N004119999999Y999999999+03201+00801999999ADDMA1101601999990REMMET045METAR SBLP 121900Z 15008KT CAVOK 32/08 Q1016=
0072832880999992014081220004-13262-043408FM-15+044399999V0201901N004619999999Y999999999+03101+00901999999ADDMA1101601999990REMMET045METAR SBLP 122000Z 19009KT CAVOK 31/09 Q1016=
0072832880999992014081221004-13262-043408FM-15+044399999V0202101N002119999999Y999999999+02901+00901999999ADDMA1101601999990REMMET045METAR SBLP 122100Z 21004KT CAVOK 29/09 Q1016=
0072832880999992014081309154-13262-043408FM-16+044399999V0209999C000019999999Y999999999+01701+01201999999ADDMA1101801999990REMMET045SPECI SBLP 130915Z 00000KT CAVOK 17/12 Q1018=
0072832880999992014081310004-13262-043408FM-15+044399999V0209999C000019999999Y999999999+01801+01201999999ADDMA1101801999990REMMET045METAR SBLP 131000Z 00000KT CAVOK 18/12 Q1018=
0072832880999992014081311004-13262-043408FM-15+044399999V0209999C000019999999Y999999999+02001+01201999999ADDMA1101901999990REMMET045METAR SBLP 131100Z 00000KT CAVOK 20/12 Q1019=
0072832880999992014081312004-13262-043408FM-15+044399999V0201401N003119999999Y999999999+02501+01201999999ADDMA1102001999990REMMET045METAR SBLP 131200Z 14006KT CAVOK 25/12 Q1020=
0072832880999992014081313004-13262-043408FM-15+044399999V0209999C000019999999Y999999999+02701+01201999999ADDMA1102001999990REMMET045METAR SBLP 131300Z 00000KT CAVOK 27/12 Q1020=
0072832880999992014081314004-13262-043408FM-15+044399999V0209999C000019999999Y999999999+02901+01101999999ADDMA1101901999990REMMET045METAR SBLP 131400Z 00000KT CAVOK 29/11 Q1019=
0072832880999992014081315004-13262-043408FM-15+044399999V0202301N001519999999Y999999999+03001+00901999999ADDMA1101801999990REMMET045METAR SBLP 131500Z 23003KT CAVOK 30/09 Q1018=
0072832880999992014081316004-13262-043408FM-15+044399999V0203001N002119999999Y999999999+03201+01001999999ADDMA1101701999990REMMET045METAR SBLP 131600Z 30004KT CAVOK 32/10 Q1017=
0072832880999992014081317004-13262-043408FM-15+044399999V0200201N004119999999Y999999999+03301+00901999999ADDMA1101601999990REMMET045METAR SBLP 131700Z 02008KT CAVOK 33/09 Q1016=
0072832880999992014081318004-13262-043408FM-15+044399999V0203501N004119999999Y999999999+03301+00801999999ADDMA1101501999990REMMET045METAR SBLP 131800Z 35008KT CAVOK 33/08 Q1015=
0072832880999992014081319004-13262-043408FM-15+044399999V0202701N001019999999Y999999999+03301+00901999999ADDMA1101501999990REMMET045METAR SBLP 131900Z 27002KT CAVOK 33/09 Q1015=
0072832880999992014081320004-13262-043408FM-15+044399999V0203201N002619999999Y999999999+03201+00701999999ADDMA1101501999990REMMET045METAR SBLP 132000Z 32005KT CAVOK 32/07 Q1015=
0072832880999992014081321004-13262-043408FM-15+044399999V0203301N002119999999Y999999999+02901+00701999999ADDMA1101601999990REMMET045METAR SBLP 132100Z 33004KT CAVOK 29/07 Q1016=
0072832880999992014081409154-13262-043408FM-16+044399999V0202301N002119999999Y999999999+01701+01101999999ADDMA1101801999990REMMET045SPECI SBLP 140915Z 23004KT CAVOK 17/11 Q1018=
0072832880999992014081410004-13262-043408FM-15+044399999V0209999C000019999999Y999999999+01801+01001999999ADDMA1101801999990REMMET045METAR SBLP 141000Z 00000KT CAVOK 18/10 Q1018=
0072832880999992014081411004-13262-043408FM-15+044399999V0209999C000019999999Y999999999+02101+01201999999ADDMA1101901999990REMMET045METAR SBLP 141100Z 00000KT CAVOK 21/12 Q1019=
0072832880999992014081412004-13262-043408FM-15+044399999V0203201N001519999999Y999999999+02601+01201999999ADDMA1101901999990REMMET045METAR SBLP 141200Z 32003KT CAVOK 26/12 Q1019=
0072832880999992014081413004-13262-043408FM-15+044399999V0203301N001019999999Y999999999+02801+01201999999ADDMA1101901999990REMMET045METAR SBLP 141300Z 33002KT CAVOK 28/12 Q1019=
0072832880999992014081414004-13262-043408FM-15+044399999V0202501N006219999999Y999999999+03201+00901999999ADDMA1101901999990REMMET045METAR SBLP 141400Z 25012KT CAVOK 32/09 Q1019=
0072832880999992014081415004-13262-043408FM-15+044399999V0202501N005119999999Y999999999+03201+00901999999ADDMA1101901999990REMMET045METAR SBLP 141500Z 25010KT CAVOK 32/09 Q1019=
0142832880999992014081416004-13262-043408FM-15+044399999V0200801N004119999999N009999199+03301+01001999999ADDGA1021+009141991GE19MSL   +99999+99999GF199999021990009141991991MA1101801999990REMMET051METAR SBLP 141600Z 08008KT 9999 FEW030 33/10 Q1018=
0142832880999992014081417004-13262-043408FM-15+044399999V0201201N005119999999N009999199+03301+00901999999ADDGA1021+009141991GE19MSL   +99999+99999GF199999021990009141991991MA1101701999990REMMET051METAR SBLP 141700Z 12010KT 9999 FEW030 33/09 Q1017=
0142832880999992014081418004-13262-043408FM-15+044399999V0201201N003119999999N009999199+03301+01001999999ADDGA1021+009141991GE19MSL   +99999+99999GF199999021990009141991991MA1101601999990REMMET051METAR SBLP 141800Z 12006KT 9999 FEW030 33/10 Q1016=
0142832880999992014081419004-13262-043408FM-15+044399999V0200901N005119999999N009999199+03301+01001999999ADDGA1021+009141991GE19MSL   +99999+99999GF199999021990009141991991MA1101601999990REMMET051METAR SBLP 141900Z 09010KT 9999 FEW030 33/10 Q1016=
0165832880999992014081420004-13262-043408FM-15+044399999V0200801N00311030481CN009999199+03201+01001999999ADDGA1021+009141991GA2041+030481991GE19MSL   +99999+99999GF199999021990009141991991MA1101601999990REMMET058METAR SBLP 142000Z 08006KT 9999 FEW030 SCT100 32/10 Q1016=
0165832880999992014081421004-13262-043408FM-15+044399999V0201201N00721030481CN009999199+03101+01101999999ADDGA1021+009141991GA2041+030481991GE19MSL   +99999+99999GF199999021990009141991991MA1101601999990REMMET058METAR SBLP 142100Z 12014KT 9999 FEW030 SCT100 31/11 Q1016=
0072832880999992014081509154-13262-043408FM-16+044399999V0201901N002119999999Y999999999+02001+01301999999ADDMA1102101999990REMMET045SPECI SBLP 150915Z 19004KT CAVOK 20/13 Q1021=
0072832880999992014081510004-13262-043408FM-15+044399999V0201901N002619999999Y999999999+02101+01301999999ADDMA1102201999990REMMET045METAR SBLP 151000Z 19005KT CAVOK 21/13 Q1022=
0072832880999992014081511004-13262-043408FM-15+044399999V0201401N007219999999Y999999999+02301+01201999999ADDMA1102201999990REMMET045METAR SBLP 151100Z 14014KT CAVOK 23/12 Q1022=
0072832880999992014081512004-13262-043408FM-15+044399999V0201601N006219999999Y999999999+02501+01101999999ADDMA1102301999990REMMET045METAR SBLP 151200Z 16012KT CAVOK 25/11 Q1023=
0072832880999992014081513004-13262-043408FM-15+044399999V0201501N004619999999Y999999999+02701+01101999999ADDMA1102301999990REMMET045METAR SBLP 151300Z 15009KT CAVOK 27/11 Q1023=
0142832880999992014081514004-13262-043408FM-15+044399999V0201301N003619999999N009999199+02901+01001999999ADDGA1021+009141991GE19MSL   +99999+99999GF199999021990009141991991MA1102201999990REMMET051METAR SBLP 151400Z 13007KT 9999 FEW030 29/10 Q1022=
0142832880999992014081515004-13262-043408FM-15+044399999V0201701N003619999999N009999199+03001+01001999999ADDGA1021+009141991GE19MSL   +99999+99999GF199999021990009141991991MA1102201999990REMMET051METAR SBLP 151500Z 17007KT 9999 FEW030 30/10 Q1022=
0142832880999992014081516004-13262-043408FM-15+044399999V0202701N002619999999N009999199+03201+01001999999ADDGA1041+009141991GE19MSL   +99999+99999GF199999041990009141991991MA1102001999990REMMET051METAR SBLP 151600Z 27005KT 9999 SCT030 32/10 Q1020=
0142832880999992014081517004-13262-043408FM-15+044399999V0201801N002119999999N009999199+03301+01001999999ADDGA1041+009141991GE19MSL   +99999+99999GF199999041990009141991991MA1101901999990REMMET051METAR SBLP 151700Z 18004KT 9999 SCT030 33/10 Q1019=
0142832880999992014081518004-13262-043408FM-15+044399999V0202301N004119999999N009999199+03401+01101999999ADDGA1041+009141991GE19MSL   +99999+99999GF199999041990009141991991MA1101901999990REMMET051METAR SBLP 151800Z 23008KT 9999 SCT030 34/11 Q1019=
0142832880999992014081519004-13262-043408FM-15+044399999V0202101N005119999999N009999199+03201+01001999999ADDGA1041+009141991GE19MSL   +99999+99999GF199999041990009141991991MA1101901999990REMMET051METAR SBLP 151900Z 21010KT 9999 SCT030 32/10 Q1019=
0142832880999992014081520004-13262-043408FM-15+044399999V0202401N003619999999N009999199+03101+00901999999ADDGA1021+009141991GE19MSL   +99999+99999GF199999021990009141991991MA1101901999990REMMET051METAR SBLP 152000Z 24007KT 9999 FEW030 31/09 Q1019=
0142832880999992014081521004-13262-043408FM-15+044399999V0202501N005119999999N009999199+03001+01001999999ADDGA1041+009141991GE19MSL   +99999+99999GF199999041990009141991991MA1101901999990REMMET051METAR SBLP 152100Z 25010KT 9999 SCT030 30/10 Q1019=
0072832880999992014081809154-13262-043408FM-16+044399999V0209999C000019999999Y999999999+01701+01201999999ADDMA1102001999990REMMET045SPECI SBLP 180915Z 00000KT CAVOK 17/12 Q1020=
0072832880999992014081810004-13262-043408FM-15+044399999V0209999C000019999999Y999999999+01601+01201999999ADDMA1102001999990REMMET045METAR SBLP 181000Z 00000KT CAVOK 16/12 Q1020=
0072832880999992014081811004-13262-043408FM-15+044399999V0209999C000019999999Y999999999+02001+01301999999ADDMA1102101999990REMMET045METAR SBLP 181100Z 00000KT CAVOK 20/13 Q1021=
0072832880999992014081812004-13262-043408FM-15+044399999V0209999C000019999999Y999999999+02401+01201999999ADDMA1102101999990REMMET045METAR SBLP 181200Z 00000KT CAVOK 24/12 Q1021=
0072832880999992014081813004-13262-043408FM-15+044399999V0201301N004119999999Y999999999+02701+01201999999ADDMA1102101999990REMMET045METAR SBLP 181300Z 13008KT CAVOK 27/12 Q1021=
0142832880999992014081814004-13262-043408FM-15+044399999V0200401N004619999999N009999199+02801+01201999999ADDGA1021+009141991GE19MSL   +99999+99999GF199999021990009141991991MA1102001999990REMMET051METAR SBLP 181400Z 04009KT 9999 FEW030 28/12 Q1020=
0142832880999992014081815004-13262-043408FM-15+044399999V0200301N002619999999N009999199+02901+01101999999ADDGA1021+009141991GE19MSL   +99999+99999GF199999021990009141991991MA1101901999990REMMET051METAR SBLP 181500Z 03005KT 9999 FEW030 29/11 Q1019=
0142832880999992014081816004-13262-043408FM-15+044399999V0202601N001019999999N009999199+03201+00901999999ADDGA1021+009141991GE19MSL   +99999+99999GF199999021990009141991991MA1101801999990REMMET051METAR SBLP 181600Z 26002KT 9999 FEW030 32/09 Q1018=
0142832880999992014081817004-13262-043408FM-15+044399999V0202801N002119999999N009999199+03301+01501999999ADDGA1021+009141991GE19MSL   +99999+99999GF199999021990009141991991MA1101601999990REMMET051METAR SBLP 181700Z 28004KT 9999 FEW030 33/15 Q1016=
0142832880999992014081818004-13262-043408FM-15+044399999V0202101N002619999999N009999199+03101+01101999999ADDGA1021+009141991GE19MSL   +99999+99999GF199999021990009141991991MA1101601999990REMMET051METAR SBLP 181800Z 21005KT 9999 FEW030 31/11 Q1016=
0142832880999992014081819004-13262-043408FM-15+044399999V0202701N003619999999N009999199+03201+00901999999ADDGA1021+009141991GE19MSL   +99999+99999GF199999021990009141991991MA1101501999990REMMET051METAR SBLP 181900Z 27007KT 9999 FEW030 32/09 Q1015=
0142832880999992014081820004-13262-043408FM-15+044399999V0202601N004119999999N009999199+03201+01201999999ADDGA1021+009141991GE19MSL   +99999+99999GF199999021990009141991991MA1101501999990REMMET051METAR SBLP 182000Z 26008KT 9999 FEW030 32/12 Q1015=
0142832880999992014081821004-13262-043408FM-15+044399999V0202801N002119999999N009999199+02901+00701999999ADDGA1021+009141991GE19MSL   +99999+99999GF199999021990009141991991MA1101501999990REMMET051METAR SBLP 182100Z 28004KT 9999 FEW030 29/07 Q1015=
0072832880999992014081909154-13262-043408FM-16+044399999V0209999C000019999999Y999999999+01701+01301999999ADDMA1101801999990REMMET045SPECI SBLP 190915Z 00000KT CAVOK 17/13 Q1018=
0072832880999992014081910004-13262-043408FM-15+044399999V0209999C000019999999Y999999999+01701+01301999999ADDMA1101901999990REMMET045METAR SBLP 191000Z 00000KT CAVOK 17/13 Q1019=
0072832880999992014081911004-13262-043408FM-15+044399999V0203001N001019999999Y999999999+02201+01401999999ADDMA1102001999990REMMET045METAR SBLP 191100Z 30002KT CAVOK 22/14 Q1020=
0072832880999992014081912004-13262-043408FM-15+044399999V0203201N001519999999Y999999999+02601+01301999999ADDMA1102001999990REMMET045METAR SBLP 191200Z 32003KT CAVOK 26/13 Q1020=
0072832880999992014081913004-13262-043408FM-15+044399999V0202401N002119999999Y999999999+02801+01301999999ADDMA1102001999990REMMET045METAR SBLP 191300Z 24004KT CAVOK 28/13 Q1020=
0072832880999992014081914004-13262-043408FM-15+044399999V0202601N004119999999Y999999999+03101+01101999999ADDMA1101901999990REMMET045METAR SBLP 191400Z 26008KT CAVOK 31/11 Q1019=
0072832880999992014081915004-13262-043408FM-15+044399999V0202801N006719999999Y999999999+03201+01001999999ADDMA1101801999990REMMET045METAR SBLP 191500Z 28013KT CAVOK 32/10 Q1018=
0072832880999992014081916004-13262-043408FM-15+044399999V0203601N002619999999Y999999999+03201+00901999999ADDMA1101701999990REMMET045METAR SBLP 191600Z 36005KT CAVOK 32/09 Q1017=
0072832880999992014081917004-13262-043408FM-15+044399999V0200901N002619999999Y999999999+03201+00901999999ADDMA1101601999990REMMET045METAR SBLP 191700Z 09005KT CAVOK 32/09 Q1016=
0072832880999992014081918004-13262-043408FM-15+044399999V0209999C000019999999Y999999999+03301+00801999999ADDMA1101501999990REMMET045METAR SBLP 191800Z 00000KT CAVOK 33/08 Q1015=
0072832880999992014081919004-13262-043408FM-15+044399999V0201301N006219999999Y999999999+03301+00801999999ADDMA1101501999990REMMET045METAR SBLP 191900Z 13012KT CAVOK 33/08 Q1015=
0142832880999992014081920004-13262-043408FM-15+044399999V0201301N003119999999N009999199+03201+00801999999ADDGA1021+009141991GE19MSL   +99999+99999GF199999021990009141991991MA1101501999990REMMET051METAR SBLP 192000Z 13006KT 9999 FEW030 32/08 Q1015=
0072832880999992014081921004-13262-043408FM-15+044399999V0201401N004119999999Y999999999+03101+00801999999ADDMA1101601999990REMMET045METAR SBLP 192100Z 14008KT CAVOK 31/08 Q1016=
0072832880999992014082009154-13262-043408FM-16+044399999V0209999C000019999999Y999999999+01901+01401999999ADDMA1101901999990REMMET045SPECI SBLP 200915Z 00000KT CAVOK 19/14 Q1019=
0072832880999992014082010004-13262-043408FM-15+044399999V0209999C000019999999Y999999999+01901+01401999999ADDMA1101901999990REMMET045METAR SBLP 201000Z 00000KT CAVOK 19/14 Q1019=
0072832880999992014082010004-13262-043408FM-16+044399999V0209999C000019999999Y999999999+01901+01401999999ADDMA1101901999990REMMET045SPECI SBLP 201000Z 00000KT CAVOK 19/14 Q1019=
0072832880999992014082011004-13262-043408FM-15+044399999V0209999C000019999999Y999999999+02201+01501999999ADDMA1102001999990REMMET045METAR SBLP 201100Z 00000KT CAVOK 22/15 Q1020=
0142832880999992014082012004-13262-043408FM-15+044399999V0200901N005719999999N009999199+02501+01501999999ADDGA1021+009141991GE19MSL   +99999+99999GF199999021990009141991991MA1102101999990REMMET051METAR SBLP 201200Z 09011KT 9999 FEW030 25/15 Q1021=
0142832880999992014082013004-13262-043408FM-15+044399999V0201301N001519999999N009999199+02601+01401999999ADDGA1021+009141991GE19MSL   +99999+99999GF199999021990009141991991MA1102101999990REMMET051METAR SBLP 201300Z 13003KT 9999 FEW030 26/14 Q1021=
0142832880999992014082014004-13262-043408FM-15+044399999V0201101N003619999999N009999199+02901+01401999999ADDGA1041+009141991GE19MSL   +99999+99999GF199999041990009141991991MA1102001999990REMMET051METAR SBLP 201400Z 11007KT 9999 SCT030 29/14 Q1020=
0142832880999992014082015004-13262-043408FM-15+044399999V0209999C000019999999N009999199+02901+01301999999ADDGA1041+009141991GE19MSL   +99999+99999GF199999041990009141991991MA1101901999990REMMET051METAR SBLP 201500Z 00000KT 9999 SCT030 29/13 Q1019=
0142832880999992014082016004-13262-043408FM-15+044399999V0202401N003119999999N009999199+03201+01201999999ADDGA1041+009141991GE19MSL   +99999+99999GF199999041990009141991991MA1101801999990REMMET051METAR SBLP 201600Z 24006KT 9999 SCT030 32/12 Q1018=
0142832880999992014082017004-13262-043408FM-15+044399999V0202701N005110091419N009999199+03201+01001999999ADDGA1071+009141991GE19MSL   +99999+99999GF199999071990009141991991MA1101601999990REMMET051METAR SBLP 201700Z 27010KT 9999 BKN030 32/10 Q1016=
0142832880999992014082018004-13262-043408FM-15+044399999V0202301N002619999999N009999199+03301+00901999999ADDGA1041+009141991GE19MSL   +99999+99999GF199999041990009141991991MA1101601999990REMMET051METAR SBLP 201800Z 23005KT 9999 SCT030 33/09 Q1016=
0142832880999992014082019004-13262-043408FM-15+044399999V0202301N002619999999N009999199+03201+00901999999ADDGA1041+009141991GE19MSL   +99999+99999GF199999041990009141991991MA1101601999990REMMET051METAR SBLP 201900Z 23005KT 9999 SCT030 32/09 Q1016=
0142832880999992014082020004-13262-043408FM-15+044399999V0202501N004119999999N009999199+03101+01001999999ADDGA1041+009141991GE19MSL   +99999+99999GF199999041990009141991991MA1101601999990REMMET051METAR SBLP 202000Z 25008KT 9999 SCT030 31/10 Q1016=
0142832880999992014082021004-13262-043408FM-15+044399999V0202701N003119999999N009999199+03001+01001999999ADDGA1021+009141991GE19MSL   +99999+99999GF199999021990009141991991MA1101701999990REMMET051METAR SBLP 202100Z 27006KT 9999 FEW030 30/10 Q1017=
0072832880999992014082109154-13262-043408FM-16+044399999V0202701N001519999999Y999999999+01801+01301999999ADDMA1102001999990REMMET045SPECI SBLP 210915Z 27003KT CAVOK 18/13 Q1020=
0072832880999992014082110004-13262-043408FM-15+044399999V0202501N002119999999Y999999999+01901+01401999999ADDMA1102101999990REMMET045METAR SBLP 211000Z 25004KT CAVOK 19/14 Q1021=
0072832880999992014082111004-13262-043408FM-15+044399999V0202401N004119999999Y999999999+02401+01401999999ADDMA1102201999990REMMET045METAR SBLP 211100Z 24008KT CAVOK 24/14 Q1022=
0072832880999992014082112004-13262-043408FM-15+044399999V0202401N004119999999Y999999999+02601+01201999999ADDMA1102201999990REMMET045METAR SBLP 211200Z 24008KT CAVOK 26/12 Q1022=
0142832880999992014082113004-13262-043408FM-15+044399999V0201101N003119999999N009999199+02801+01201999999ADDGA1021+009141991GE19MSL   +99999+99999GF199999021990009141991991MA1102201999990REMMET051METAR SBLP 211300Z 11006KT 9999 FEW030 28/12 Q1022=
0142832880999992014082114004-13262-043408FM-15+044399999V0200901N004119999999N009999199+02901+01101999999ADDGA1021+009141991GE19MSL   +99999+99999GF199999021990009141991991MA1102101999990REMMET051METAR SBLP 211400Z 09008KT 9999 FEW030 29/11 Q1021=
0142832880999992014082115004-13262-043408FM-15+044399999V0201001N004119999999N009999199+02901+01001999999ADDGA1021+009141991GE19MSL   +99999+99999GF199999021990009141991991MA1102001999990REMMET051METAR SBLP 211500Z 10008KT 9999 FEW030 29/10 Q1020=
0142832880999992014082116004-13262-043408FM-15+044399999V0201401N004119999999N009999199+03001+01001999999ADDGA1041+009141991GE19MSL   +99999+99999GF199999041990009141991991MA1101901999990REMMET051METAR SBLP 211600Z 14008KT 9999 SCT030 30/10 Q1019=
0142832880999992014082117004-13262-043408FM-15+044399999V0200401N005119999999N009999199+03101+00801999999ADDGA1041+009141991GE19MSL   +99999+99999GF199999041990009141991991MA1101801999990REMMET051METAR SBLP 211700Z 04010KT 9999 SCT030 31/08 Q1018=
0142832880999992014082118004-13262-043408FM-15+044399999V0200901N005119999999N009999199+03101+00901999999ADDGA1041+009141991GE19MSL   +99999+99999GF199999041990009141991991MA1101701999990REMMET051METAR SBLP 211800Z 09010KT 9999 SCT030 31/09 Q1017=
0142832880999992014082119004-13262-043408FM-15+044399999V0200901N005719999999N009999199+03101+00901999999ADDGA1041+009141991GE19MSL   +99999+99999GF199999041990009141991991MA1101701999990REMMET051METAR SBLP 211900Z 09011KT 9999 SCT030 31/09 Q1017=
0142832880999992014082120004-13262-043408FM-15+044399999V0200901N004119999999N009999199+03001+00901999999ADDGA1041+009141991GE19MSL   +99999+99999GF199999041990009141991991MA1101701999990REMMET051METAR SBLP 212000Z 09008KT 9999 SCT030 30/09 Q1017=
0165832880999992014082121004-13262-043408FM-15+044399999V0200901N00511030481CN009999199+02901+00901999999ADDGA1021+009141991GA2041+030481991GE19MSL   +99999+99999GF199999021990009141991991MA1101701999990REMMET058METAR SBLP 212100Z 09010KT 9999 FEW030 SCT100 29/09 Q1017=
0072832880999992014082209154-13262-043408FM-16+044399999V0202201N001519999999Y999999999+01701+01101999999ADDMA1101901999990REMMET045SPECI SBLP 220915Z 22003KT CAVOK 17/11 Q1019=
0072832880999992014082210004-13262-043408FM-15+044399999V0209999C000019999999Y999999999+01801+01201999999ADDMA1102001999990REMMET045METAR SBLP 221000Z 00000KT CAVOK 18/12 Q1020=
0072832880999992014082211004-13262-043408FM-15+044399999V0209999C000019999999Y999999999+02101+01201999999ADDMA1102101999990REMMET045METAR SBLP 221100Z 00000KT CAVOK 21/12 Q1021=
0072832880999992014082212004-13262-043408FM-15+044399999V0209999C000019999999Y999999999+02501+01201999999ADDMA1102101999990REMMET045METAR SBLP 221200Z 00000KT CAVOK 25/12 Q1021=
0142832880999992014082213004-13262-043408FM-15+044399999V0200801N001519999999N009999199+02701+01101999999ADDGA1021+009141991GE19MSL   +99999+99999GF199999021990009141991991MA1102101999990REMMET051METAR SBLP 221300Z 08003KT 9999 FEW030 27/11 Q1021=
0142832880999992014082214004-13262-043408FM-15+044399999V0201101N004119999999N009999199+02901+01101999999ADDGA1021+009141991GE19MSL   +99999+99999GF199999021990009141991991MA1102001999990REMMET051METAR SBLP 221400Z 11008KT 9999 FEW030 29/11 Q1020=
0142832880999992014082215004-13262-043408FM-15+044399999V0201501N002119999999N009999199+03101+01001999999ADDGA1021+009141991GE19MSL   +99999+99999GF199999021990009141991991MA1101901999990REMMET051METAR SBLP 221500Z 15004KT 9999 FEW030 31/10 Q1019=
0072832880999992014082216004-13262-043408FM-15+044399999V0202301N003619999999Y999999999+03301+00701999999ADDMA1101701999990REMMET045METAR SBLP 221600Z 23007KT CAVOK 33/07 Q1017=
0072832880999992014082217004-13262-043408FM-15+044399999V0209999C000019999999Y999999999+03301+00801999999ADDMA1101601999990REMMET045METAR SBLP 221700Z 00000KT CAVOK 33/08 Q1016=
0072832880999992014082218004-13262-043408FM-15+044399999V0201601N002119999999Y999999999+03401+00801999999ADDMA1101501999990REMMET045METAR SBLP 221800Z 16004KT CAVOK 34/08 Q1015=
0072832880999992014082219004-13262-043408FM-15+044399999V0209999C000019999999Y999999999+03201+00701999999ADDMA1101501999990REMMET045METAR SBLP 221900Z 00000KT CAVOK 32/07 Q1015=
0072832880999992014082220004-13262-043408FM-15+044399999V0201201N004119999999Y999999999+03201+00801999999ADDMA1101501999990REMMET045METAR SBLP 222000Z 12008KT CAVOK 32/08 Q1015=
0072832880999992014082221004-13262-043408FM-15+044399999V0201301N001519999999Y999999999+03001+00801999999ADDMA1101501999990REMMET045METAR SBLP 222100Z 13003KT CAVOK 30/08 Q1015=
0072832880999992014082509154-13262-043408FM-16+044399999V0209999C000019999999Y999999999+01801+01201999999ADDMA1101701999990REMMET045SPECI SBLP 250915Z 00000KT CAVOK 18/12 Q1017=
0072832880999992014082510004-13262-043408FM-15+044399999V0201801N001019999999Y999999999+01901+01201999999ADDMA1101801999990REMMET045METAR SBLP 251000Z 18002KT CAVOK 19/12 Q1018=
0072832880999992014082511004-13262-043408FM-15+044399999V0201401N001019999999Y999999999+02301+01201999999ADDMA1101901999990REMMET045METAR SBLP 251100Z 14002KT CAVOK 23/12 Q1019=
0072832880999992014082512004-13262-043408FM-15+044399999V0201701N002619999999Y999999999+02601+01201999999ADDMA1101901999990REMMET045METAR SBLP 251200Z 17005KT CAVOK 26/12 Q1019=
0072832880999992014082513004-13262-043408FM-15+044399999V0209999C000019999999Y999999999+02701+01201999999ADDMA1101901999990REMMET045METAR SBLP 251300Z 00000KT CAVOK 27/12 Q1019=
0072832880999992014082514004-13262-043408FM-15+044399999V0201501N003119999999Y999999999+03001+01201999999ADDMA1101801999990REMMET045METAR SBLP 251400Z 15006KT CAVOK 30/12 Q1018=
0072832880999992014082515004-13262-043408FM-15+044399999V0201001N003619999999Y999999999+03101+01101999999ADDMA1101701999990REMMET045METAR SBLP 251500Z 10007KT CAVOK 31/11 Q1017=
0072832880999992014082516004-13262-043408FM-15+044399999V0201301N004119999999Y999999999+03401+01101999999ADDMA1101601999990REMMET045METAR SBLP 251600Z 13008KT CAVOK 34/11 Q1016=
0072832880999992014082517004-13262-043408FM-15+044399999V0200301N002119999999Y999999999+03501+01101999999ADDMA1101401999990REMMET045METAR SBLP 251700Z 03004KT CAVOK 35/11 Q1014=
0072832880999992014082518004-13262-043408FM-15+044399999V0200901N003119999999Y999999999+03601+01101999999ADDMA1101301999990REMMET045METAR SBLP 251800Z 09006KT CAVOK 36/11 Q1013=
0072832880999992014082519004-13262-043408FM-15+044399999V0201801N002619999999Y999999999+03501+01001999999ADDMA1101301999990REMMET045METAR SBLP 251900Z 18005KT CAVOK 35/10 Q1013=
0072832880999992014082520004-13262-043408FM-15+044399999V0202001N004619999999Y999999999+03501+01001999999ADDMA1101301999990REMMET045METAR SBLP 252000Z 20009KT CAVOK 35/10 Q1013=
0072832880999992014082521004-13262-043408FM-15+044399999V0202001N002619999999Y999999999+03201+01001999999ADDMA1101301999990REMMET045METAR SBLP 252100Z 20005KT CAVOK 32/10 Q1013=
0072832880999992014082609154-13262-043408FM-16+044399999V0202101N001519999999Y999999999+02001+01301999999ADDMA1101601999990REMMET045SPECI SBLP 260915Z 21003KT CAVOK 20/13 Q1016=
0072832880999992014082610004-13262-043408FM-15+044399999V0209999C000019999999Y999999999+02001+01501999999ADDMA1101701999990REMMET045METAR SBLP 261000Z 00000KT CAVOK 20/15 Q1017=
0072832880999992014082611004-13262-043408FM-15+044399999V0209999C000019999999Y999999999+02301+01401999999ADDMA1101801999990REMMET045METAR SBLP 261100Z 00000KT CAVOK 23/14 Q1018=
0072832880999992014082612004-13262-043408FM-15+044399999V0200501N002619999999Y999999999+02701+01401999999ADDMA1101801999990REMMET045METAR SBLP 261200Z 05005KT CAVOK 27/14 Q1018=
0072832880999992014082613004-13262-043408FM-15+044399999V0201201N003619999999Y999999999+02901+01401999999ADDMA1101801999990REMMET045METAR SBLP 261300Z 12007KT CAVOK 29/14 Q1018=
0072832880999992014082614004-13262-043408FM-15+044399999V0209999C000019999999Y999999999+03101+01401999999ADDMA1101701999990REMMET045METAR SBLP 261400Z 00000KT CAVOK 31/14 Q1017=
0072832880999992014082615004-13262-043408FM-15+044399999V0200401N002119999999Y999999999+03301+01401999999ADDMA1101601999990REMMET045METAR SBLP 261500Z 04004KT CAVOK 33/14 Q1016=
0142832880999992014082616004-13262-043408FM-15+044399999V0200801N003119999999N009999199+03501+01401999999ADDGA1021+009141991GE19MSL   +99999+99999GF199999021990009141991991MA1101401999990REMMET051METAR SBLP 261600Z 08006KT 9999 FEW030 35/14 Q1014=
0142832880999992014082617004-13262-043408FM-15+044399999V0202601N003619999999N009999199+03601+01301999999ADDGA1021+009141991GE19MSL   +99999+99999GF199999021990009141991991MA1101301999990REMMET051METAR SBLP 261700Z 26007KT 9999 FEW030 36/13 Q1013=
0142832880999992014082618004-13262-043408FM-15+044399999V0201401N005119999999N009999199+03701+01101999999ADDGA1021+009141991GE19MSL   +99999+99999GF199999021990009141991991MA1101201999990REMMET051METAR SBLP 261800Z 14010KT 9999 FEW030 37/11 Q1012=
0142832880999992014082619004-13262-043408FM-15+044399999V0201601N005719999999N009999199+03701+01101999999ADDGA1021+009141991GE19MSL   +99999+99999GF199999021990009141991991MA1101201999990REMMET051METAR SBLP 261900Z 16011KT 9999 FEW030 37/11 Q1012=
0142832880999992014082620004-13262-043408FM-15+044399999V0201701N004119999999N009999199+03501+01001999999ADDGA1021+009141991GE19MSL   +99999+99999GF199999021990009141991991MA1101201999990REMMET051METAR SBLP 262000Z 17008KT 9999 FEW030 35/10 Q1012=
0142832880999992014082621004-13262-043408FM-15+044399999V0201701N004619999999N009999199+03301+01001999999ADDGA1021+009141991GE19MSL   +99999+99999GF199999021990009141991991MA1101301999990REMMET051METAR SBLP 262100Z 17009KT 9999 FEW030 33/10 Q1013=
0072832880999992014082709154-13262-043408FM-16+044399999V0209999C000019999999Y999999999+02001+01401999999ADDMA1101501999990REMMET045SPECI SBLP 270915Z 00000KT CAVOK 20/14 Q1015=
0072832880999992014082710004-13262-043408FM-15+044399999V0209999C000019999999Y999999999+02101+01401999999ADDMA1101601999990REMMET045METAR SBLP 271000Z 00000KT CAVOK 21/14 Q1016=
0072832880999992014082711004-13262-043408FM-15+044399999V0200601N002119999999Y999999999+02401+01301999999ADDMA1101701999990REMMET045METAR SBLP 271100Z 06004KT CAVOK 24/13 Q1017=
0072832880999992014082712004-13262-043408FM-15+044399999V0201301N002119999999Y999999999+02701+01301999999ADDMA1101701999990REMMET045METAR SBLP 271200Z 13004KT CAVOK 27/13 Q1017=
0072832880999992014082713004-13262-043408FM-15+044399999V0201801N001519999999Y999999999+02901+01301999999ADDMA1101701999990REMMET045METAR SBLP 271300Z 18003KT CAVOK 29/13 Q1017=
0072832880999992014082714004-13262-043408FM-15+044399999V0201801N003119999999Y999999999+03101+01201999999ADDMA1101601999990REMMET045METAR SBLP 271400Z 18006KT CAVOK 31/12 Q1016=
0072832880999992014082715004-13262-043408FM-15+044399999V0202101N002619999999Y999999999+03201+01101999999ADDMA1101501999990REMMET045METAR SBLP 271500Z 21005KT CAVOK 32/11 Q1015=
0072832880999992014082716004-13262-043408FM-15+044399999V0202101N003119999999Y999999999+03401+01001999999ADDMA1101401999990REMMET045METAR SBLP 271600Z 21006KT CAVOK 34/10 Q1014=
0072832880999992014082717004-13262-043408FM-15+044399999V0202101N005119999999Y999999999+03501+00801999999ADDMA1101301999990REMMET045METAR SBLP 271700Z 21010KT CAVOK 35/08 Q1013=
0072832880999992014082718004-13262-043408FM-15+044399999V0201901N004619999999Y999999999+03501+00701999999ADDMA1101201999990REMMET045METAR SBLP 271800Z 19009KT CAVOK 35/07 Q1012=
0072832880999992014082719004-13262-043408FM-15+044399999V0201701N001519999999Y999999999+03401+00701999999ADDMA1101201999990REMMET045METAR SBLP 271900Z 17003KT CAVOK 34/07 Q1012=
0072832880999992014082720004-13262-043408FM-15+044399999V0202101N002619999999Y999999999+03401+00701999999ADDMA1101201999990REMMET045METAR SBLP 272000Z 21005KT CAVOK 34/07 Q1012=
0072832880999992014082721004-13262-043408FM-15+044399999V0201801N002619999999Y999999999+03201+00801999999ADDMA1101201999990REMMET045METAR SBLP 272100Z 18005KT CAVOK 32/08 Q1012=
0072832880999992014082809154-13262-043408FM-16+044399999V0209999C000019999999Y999999999+01901+01201999999ADDMA1101501999990REMMET045SPECI SBLP 280915Z 00000KT CAVOK 19/12 Q1015=
0072832880999992014082810004-13262-043408FM-15+044399999V0209999C000019999999Y999999999+02101+01001999999ADDMA1101601999990REMMET045METAR SBLP 281000Z 00000KT CAVOK 21/10 Q1016=
0072832880999992014082811004-13262-043408FM-15+044399999V0209999C000019999999Y999999999+02301+01201999999ADDMA1101601999990REMMET045METAR SBLP 281100Z 00000KT CAVOK 23/12 Q1016=
0072832880999992014082812004-13262-043408FM-15+044399999V0200901N001019999999Y999999999+02801+01701999999ADDMA1101701999990REMMET045METAR SBLP 281200Z 09002KT CAVOK 28/17 Q1017=
0072832880999992014082813004-13262-043408FM-15+044399999V0209999C000019999999Y999999999+03001+01201999999ADDMA1101701999990REMMET045METAR SBLP 281300Z 00000KT CAVOK 30/12 Q1017=
0072832880999992014082814004-13262-043408FM-15+044399999V0209999C000019999999Y999999999+03201+01201999999ADDMA1101601999990REMMET045METAR SBLP 281400Z 00000KT CAVOK 32/12 Q1016=
0072832880999992014082815004-13262-043408FM-15+044399999V0209999C000019999999Y999999999+03301+01101999999ADDMA1101501999990REMMET045METAR SBLP 281500Z 00000KT CAVOK 33/11 Q1015=
0072832880999992014082816004-13262-043408FM-15+044399999V0202801N002619999999Y999999999+03501+01001999999ADDMA1101401999990REMMET045METAR SBLP 281600Z 28005KT CAVOK 35/10 Q1014=
0072832880999992014082817004-13262-043408FM-15+044399999V0201701N003119999999Y999999999+03601+00701999999ADDMA1101301999990REMMET045METAR SBLP 281700Z 17006KT CAVOK 36/07 Q1013=
0072832880999992014082818004-13262-043408FM-15+044399999V0202201N004119999999Y999999999+03601+00701999999ADDMA1101201999990REMMET045METAR SBLP 281800Z 22008KT CAVOK 36/07 Q1012=
0072832880999992014082819004-13262-043408FM-15+044399999V0202101N004119999999Y999999999+03701+00701999999ADDMA1101201999990REMMET045METAR SBLP 281900Z 21008KT CAVOK 37/07 Q1012=
0072832880999992014082820004-13262-043408FM-15+044399999V0201801N003119999999Y999999999+03601+00601999999ADDMA1101201999990REMMET045METAR SBLP 282000Z 18006KT CAVOK 36/06 Q1012=
0072832880999992014082821004-13262-043408FM-15+044399999V0202201N001519999999Y999999999+03301+00601999999ADDMA1101301999990REMMET045METAR SBLP 282100Z 22003KT CAVOK 33/06 Q1013=
0072832880999992014082909154-13262-043408FM-16+044399999V0209999C000019999999Y999999999+02001+01001999999ADDMA1101601999990REMMET045SPECI SBLP 290915Z 00000KT CAVOK 20/10 Q1016=
0072832880999992014082910004-13262-043408FM-15+044399999V0202201N001519999999Y999999999+02101+01101999999ADDMA1101701999990REMMET045METAR SBLP 291000Z 22003KT CAVOK 21/11 Q1017=
0072832880999992014082911004-13262-043408FM-15+044399999V0209999C000019999999Y999999999+02401+01201999999ADDMA1101801999990REMMET045METAR SBLP 291100Z 00000KT CAVOK 24/12 Q1018=
0072832880999992014082912004-13262-043408FM-15+044399999V0209999C000019999999Y999999999+02801+01301999999ADDMA1101801999990REMMET045METAR SBLP 291200Z 00000KT CAVOK 28/13 Q1018=
0072832880999992014082913004-13262-043408FM-15+044399999V0209999C000019999999Y999999999+03101+01201999999ADDMA1101701999990REMMET045METAR SBLP 291300Z 00000KT CAVOK 31/12 Q1017=
0072832880999992014082914004-13262-043408FM-15+044399999V0200901N002619999999Y999999999+03401+01101999999ADDMA1101701999990REMMET045METAR SBLP 291400Z 09005KT CAVOK 34/11 Q1017=
0072832880999992014082915004-13262-043408FM-15+044399999V0209999C000019999999Y999999999+03501+00801999999ADDMA1101501999990REMMET045METAR SBLP 291500Z 00000KT CAVOK 35/08 Q1015=
0142832880999992014082916004-13262-043408FM-15+044399999V0202601N003119999999N009999199+03701+00801999999ADDGA1021+009141991GE19MSL   +99999+99999GF199999021990009141991991MA1101401999990REMMET051METAR SBLP 291600Z 26006KT 9999 FEW030 37/08 Q1014=
0142832880999992014082917004-13262-043408FM-15+044399999V0202201N004119999999N009999199+03801+00601999999ADDGA1021+009141991GE19MSL   +99999+99999GF199999021990009141991991MA1101301999990REMMET051METAR SBLP 291700Z 22008KT 9999 FEW030 38/06 Q1013=
0142832880999992014082918004-13262-043408FM-15+044399999V0202101N005119999999N009999199+03801+00701999999ADDGA1021+009141991GE19MSL   +99999+99999GF199999021990009141991991MA1101201999990REMMET051METAR SBLP 291800Z 21010KT 9999 FEW030 38/07 Q1012=
0142832880999992014082919004-13262-043408FM-15+044399999V0201501N002119999999N009999199+03701+00701999999ADDGA1021+009141991GE19MSL   +99999+99999GF199999021990009141991991MA1101201999990REMMET051METAR SBLP 291900Z 15004KT 9999 FEW030 37/07 Q1012=
0142832880999992014082920004-13262-043408FM-15+044399999V0202101N002619999999N009999199+03701+00701999999ADDGA1021+009141991GE19MSL   +99999+99999GF199999021990009141991991MA1101301999990REMMET051METAR SBLP 292000Z 21005KT 9999 FEW030 37/07 Q1013=
0142832880999992014082921004-13262-043408FM-15+044399999V0202101N003119999999N009999199+03501+00701999999ADDGA1021+009141991GE19MSL   +99999+99999GF199999021990009141991991MA1101301999990REMMET051METAR SBLP 292100Z 21006KT 9999 FEW030 35/07 Q1013=
0072832880999992014090109154-13262-043408FM-16+044399999V0209999C000019999999Y999999999+02001+01301999999ADDMA1101601999990REMMET045SPECI SBLP 010915Z 00000KT CAVOK 20/13 Q1016=
0072832880999992014090110004-13262-043408FM-15+044399999V0200901N001519999999Y999999999+02001+01301999999ADDMA1101701999990REMMET045METAR SBLP 011000Z 09003KT CAVOK 20/13 Q1017=
0072832880999992014090111004-13262-043408FM-15+044399999V0200701N002619999999Y999999999+02501+01401999999ADDMA1101801999990REMMET045METAR SBLP 011100Z 07005KT CAVOK 25/14 Q1018=
0072832880999992014090112004-13262-043408FM-15+044399999V0200601N003119999999Y999999999+02901+01301999999ADDMA1101801999990REMMET045METAR SBLP 011200Z 06006KT CAVOK 29/13 Q1018=
0072832880999992014090113004-13262-043408FM-15+044399999V0200301N004119999999Y999999999+03101+01401999999ADDMA1101801999990REMMET045METAR SBLP 011300Z 03008KT CAVOK 31/14 Q1018=
0072832880999992014090114004-13262-043408FM-15+044399999V0201401N002119999999Y999999999+03301+01101999999ADDMA1101701999990REMMET045METAR SBLP 011400Z 14004KT CAVOK 33/11 Q1017=
0072832880999992014090115004-13262-043408FM-15+044399999V0200401N002119999999Y999999999+03401+00801999999ADDMA1101601999990REMMET045METAR SBLP 011500Z 04004KT CAVOK 34/08 Q1016=
0072832880999992014090116004-13262-043408FM-15+044399999V0201401N001019999999Y999999999+03501+00401999999ADDMA1101401999990REMMET045METAR SBLP 011600Z 14002KT CAVOK 35/04 Q1014=
0072832880999992014090117004-13262-043408FM-15+044399999V0201801N003119999999Y999999999+03601+00401999999ADDMA1101301999990REMMET045METAR SBLP 011700Z 18006KT CAVOK 36/04 Q1013=
0072832880999992014090118004-13262-043408FM-15+044399999V0201501N002119999999Y999999999+03601+00401999999ADDMA1101201999990REMMET045METAR SBLP 011800Z 15004KT CAVOK 36/04 Q1012=
0072832880999992014090119004-13262-043408FM-15+044399999V0202801N003119999999Y999999999+03601+00401999999ADDMA1101101999990REMMET045METAR SBLP 011900Z 28006KT CAVOK 36/04 Q1011=
0072832880999992014090120004-13262-043408FM-15+044399999V0209999C000019999999Y999999999+03601+00301999999ADDMA1101101999990REMMET045METAR SBLP 012000Z 00000KT CAVOK 36/03 Q1011=
0072832880999992014090121004-13262-043408FM-15+044399999V0209999C000019999999Y999999999+03401+00401999999ADDMA1101201999990REMMET045METAR SBLP 012100Z 00000KT CAVOK 34/04 Q1012=
0072832880999992014090209154-13262-043408FM-16+044399999V0200901N001019999999Y999999999+02101+00701999999ADDMA1101501999990REMMET045SPECI SBLP 020915Z 09002KT CAVOK 21/07 Q1015=
0072832880999992014090210004-13262-043408FM-15+044399999V0200701N001019999999Y999999999+02201+00801999999ADDMA1101501999990REMMET045METAR SBLP 021000Z 07002KT CAVOK 22/08 Q1015=
0072832880999992014090211004-13262-043408FM-15+044399999V0200601N001519999999Y999999999+02401+01001999999ADDMA1101601999990REMMET045METAR SBLP 021100Z 06003KT CAVOK 24/10 Q1016=
0072832880999992014090212004-13262-043408FM-15+044399999V0209999C000019999999Y999999999+02801+01001999999ADDMA1101701999990REMMET045METAR SBLP 021200Z 00000KT CAVOK 28/10 Q1017=
0072832880999992014090213004-13262-043408FM-15+044399999V0200601N005119999999Y999999999+03201+00901999999ADDMA1101601999990REMMET045METAR SBLP 021300Z 06010KT CAVOK 32/09 Q1016=
0072832880999992014090214004-13262-043408FM-15+044399999V0200301N001519999999Y999999999+03401+00901999999ADDMA1101601999990REMMET045METAR SBLP 021400Z 03003KT CAVOK 34/09 Q1016=
0072832880999992014090215004-13262-043408FM-15+044399999V0203001N002119999999Y999999999+03501+00801999999ADDMA1101501999990REMMET045METAR SBLP 021500Z 30004KT CAVOK 35/08 Q1015=
0072832880999992014090216004-13262-043408FM-15+044399999V0209999C000019999999Y999999999+03601+00601999999ADDMA1101301999990REMMET045METAR SBLP 021600Z 00000KT CAVOK 36/06 Q1013=
0072832880999992014090217004-13262-043408FM-15+044399999V0200101N004119999999Y999999999+03701+00801999999ADDMA1101201999990REMMET045METAR SBLP 021700Z 01008KT CAVOK 37/08 Q1012=
0072832880999992014090218004-13262-043408FM-15+044399999V0203401N002119999999Y999999999+03701+00701999999ADDMA1101101999990REMMET045METAR SBLP 021800Z 34004KT CAVOK 37/07 Q1011=
0072832880999992014090219004-13262-043408FM-15+044399999V0202701N003619999999Y999999999+03801+00701999999ADDMA1101101999990REMMET045METAR SBLP 021900Z 27007KT CAVOK 38/07 Q1011=
0072832880999992014090220004-13262-043408FM-15+044399999V0202101N001519999999Y999999999+03701+00601999999ADDMA1101101999990REMMET045METAR SBLP 022000Z 21003KT CAVOK 37/06 Q1011=
0072832880999992014090221004-13262-043408FM-15+044399999V0202201N001519999999Y999999999+03401+00901999999ADDMA1101101999990REMMET045METAR SBLP 022100Z 22003KT CAVOK 34/09 Q1011=
0072832880999992014090309154-13262-043408FM-16+044399999V0201701N001519999999Y999999999+02101+01001999999ADDMA1101301999990REMMET045SPECI SBLP 030915Z 17003KT CAVOK 21/10 Q1013=
0072832880999992014090310004-13262-043408FM-15+044399999V0209999C000019999999Y999999999+02201+00901999999ADDMA1101401999990REMMET045METAR SBLP 031000Z 00000KT CAVOK 22/09 Q1014=
0165832880999992014090311004-13262-043408FM-15+044399999V0201201N00151030481CN009999199+02601+00801999999ADDGA1021+009141991GA2041+030481991GE19MSL   +99999+99999GF199999021990009141991991MA1101501999990REMMET058METAR SBLP 031100Z 12003KT 9999 FEW030 SCT100 26/08 Q1015=
0165832880999992014090312004-13262-043408FM-15+044399999V0203001N001010304819N009999199+02801+00701999999ADDGA1021+009141991GA2071+030481991GE19MSL   +99999+99999GF199999021990009141991991MA1101501999990REMMET058METAR SBLP 031200Z 30002KT 9999 FEW030 BKN100 28/07 Q1015=
0165832880999992014090313004-13262-043408FM-15+044399999V0203301N00211030481CN009999199+02801+00701999999ADDGA1021+009141991GA2041+030481991GE19MSL   +99999+99999GF199999021990009141991991MA1101501999990REMMET058METAR SBLP 031300Z 33004KT 9999 FEW030 SCT100 28/07 Q1015=
0165832880999992014090314004-13262-043408FM-15+044399999V0200101N00411030481CN009999199+03401+00601999999ADDGA1021+009141991GA2041+030481991GE19MSL   +99999+99999GF199999021990009141991991MA1101401999990REMMET058METAR SBLP 031400Z 01008KT 9999 FEW030 SCT100 34/06 Q1014=
0072832880999992014090315004-13262-043408FM-15+044399999V0203401N004119999999Y999999999+03601+00801999999ADDMA1101301999990REMMET045METAR SBLP 031500Z 34008KT CAVOK 36/08 Q1013=
0142832880999992014090316004-13262-043408FM-15+044399999V0203301N001519999999N009999199+03701+00501999999ADDGA1021+009141991GE19MSL   +99999+99999GF199999021990009141991991MA1101201999990REMMET051METAR SBLP 031600Z 33003KT 9999 FEW030 37/05 Q1012=
0142832880999992014090317004-13262-043408FM-15+044399999V0202801N003119999999N009999199+03801+00601999999ADDGA1021+009141991GE19MSL   +99999+99999GF199999021990009141991991MA1101101999990REMMET051METAR SBLP 031700Z 28006KT 9999 FEW030 38/06 Q1011=
0142832880999992014090318004-13262-043408FM-15+044399999V0203501N001519999999N009999199+03801+00601999999ADDGA1021+009141991GE19MSL   +99999+99999GF199999021990009141991991MA1101001999990REMMET051METAR SBLP 031800Z 35003KT 9999 FEW030 38/06 Q1010=
0142832880999992014090319004-13262-043408FM-15+044399999V0201801N002119999999N009999199+03801+00701999999ADDGA1041+009141991GE19MSL   +99999+99999GF199999041990009141991991MA1101001999990REMMET051METAR SBLP 031900Z 18004KT 9999 SCT030 38/07 Q1010=
0142832880999992014090320004-13262-043408FM-15+044399999V0209999C000019999999N009999199+03701+00701999999ADDGA1021+009141991GE19MSL   +99999+99999GF199999021990009141991991MA1101001999990REMMET051METAR SBLP 032000Z 00000KT 9999 FEW030 37/07 Q1010=
0072832880999992014090321004-13262-043408FM-15+044399999V0209999C000019999999Y999999999+03501+00801999999ADDMA1101101999990REMMET045METAR SBLP 032100Z 00000KT CAVOK 35/08 Q1011=
0072832880999992014090409154-13262-043408FM-16+044399999V0201801N001519999999Y999999999+02301+01501999999ADDMA1101501999990REMMET045SPECI SBLP 040915Z 18003KT CAVOK 23/15 Q1015=
0072832880999992014090410004-13262-043408FM-15+044399999V0202101N001519999999Y999999999+02401+01501999999ADDMA1101601999990REMMET045METAR SBLP 041000Z 21003KT CAVOK 24/15 Q1016=
0072832880999992014090411004-13262-043408FM-15+044399999V0201801N003119999999Y999999999+02701+01501999999ADDMA1101601999990REMMET045METAR SBLP 041100Z 18006KT CAVOK 27/15 Q1016=
0072832880999992014090412004-13262-043408FM-15+044399999V0201701N004119999999Y999999999+03001+01501999999ADDMA1101601999990REMMET045METAR SBLP 041200Z 17008KT CAVOK 30/15 Q1016=
0072832880999992014090413004-13262-043408FM-15+044399999V0201801N001519999999Y999999999+03301+01501999999ADDMA1101601999990REMMET045METAR SBLP 041300Z 18003KT CAVOK 33/15 Q1016=
0072832880999992014090414004-13262-043408FM-15+044399999V0202201N003619999999Y999999999+03401+01401999999ADDMA1101501999990REMMET045METAR SBLP 041400Z 22007KT CAVOK 34/14 Q1015=
0072832880999992014090415004-13262-043408FM-15+044399999V0201901N001519999999Y999999999+03501+01401999999ADDMA1101401999990REMMET045METAR SBLP 041500Z 19003KT CAVOK 35/14 Q1014=
0142832880999992014090416004-13262-043408FM-15+044399999V0202901N002619999999N009999199+03701+01301999999ADDGA1021+009141991GE19MSL   +99999+99999GF199999021990009141991991MA1101201999990REMMET051METAR SBLP 041600Z 29005KT 9999 FEW030 37/13 Q1012=
0142832880999992014090417004-13262-043408FM-15+044399999V0201601N001519999999N009999199+03701+01201999999ADDGA1041+009141991GE19MSL   +99999+99999GF199999041990009141991991MA1101101999990REMMET051METAR SBLP 041700Z 16003KT 9999 SCT030 37/12 Q1011=
0142832880999992014090418004-13262-043408FM-15+044399999V0202701N002119999999N009999199+03701+01201999999ADDGA1041+009141991GE19MSL   +99999+99999GF199999041990009141991991MA1101101999990REMMET051METAR SBLP 041800Z 27004KT 9999 SCT030 37/12 Q1011=
0142832880999992014090419004-13262-043408FM-15+044399999V0201501N001019999999N009999199+03801+01201999999ADDGA1041+009141991GE19MSL   +99999+99999GF199999041990009141991991MA1101001999990REMMET051METAR SBLP 041900Z 15002KT 9999 SCT030 38/12 Q1010=
0142832880999992014090420004-13262-043408FM-15+044399999V0202701N001519999999N009999199+03601+01101999999ADDGA1021+009141991GE19MSL   +99999+99999GF199999021990009141991991MA1101001999990REMMET051METAR SBLP 042000Z 27003KT 9999 FEW030 36/11 Q1010=
0142832880999992014090421004-13262-043408FM-15+044399999V0200101N001519999999N009999199+03501+01001999999ADDGA1021+009141991GE19MSL   +99999+99999GF199999021990009141991991MA1101101999990REMMET051METAR SBLP 042100Z 01003KT 9999 FEW030 35/10 Q1011=
0072832880999992014090509154-13262-043408FM-16+044399999V0201601N003119999999Y999999999+02601+01801999999ADDMA1101601999990REMMET045SPECI SBLP 050915Z 16006KT CAVOK 26/18 Q1016=
0072832880999992014090510004-13262-043408FM-15+044399999V0201701N003119999999Y999999999+02601+01801999999ADDMA1101601999990REMMET045METAR SBLP 051000Z 17006KT CAVOK 26/18 Q1016=
0072832880999992014090511004-13262-043408FM-15+044399999V0201501N005119999999Y999999999+02701+01801999999ADDMA1101701999990REMMET045METAR SBLP 051100Z 15010KT CAVOK 27/18 Q1017=
0072832880999992014090512004-13262-043408FM-15+044399999V0201201N004119999999Y999999999+03001+01801999999ADDMA1101801999990REMMET045METAR SBLP 051200Z 12008KT CAVOK 30/18 Q1018=
0165832880999992014090513004-13262-043408FM-15+044399999V0201501N00461030481CN009999199+03101+01801999999ADDGA1021+009141991GA2041+030481991GE19MSL   +99999+99999GF199999021990009141991991MA1101801999990REMMET058METAR SBLP 051300Z 15009KT 9999 FEW030 SCT100 31/18 Q1018=
0165832880999992014090514004-13262-043408FM-15+044399999V0201201N003110304819N009999199+03201+01701999999ADDGA1021+009141991GA2071+030481991GE19MSL   +99999+99999GF199999021990009141991991MA1101801999990REMMET058METAR SBLP 051400Z 12006KT 9999 FEW030 BKN100 32/17 Q1018=
0165832880999992014090515004-13262-043408FM-15+044399999V0201601N006710304819N009999199+03101+01701999999ADDGA1041+009141991GA2071+030481991GE19MSL   +99999+99999GF199999041990009141991991MA1101701999990REMMET058METAR SBLP 051500Z 16013KT 9999 SCT030 BKN100 31/17 Q1017=
0142832880999992014090516004-13262-043408FM-15+044399999V0201501N006219999999N009999199+03301+01701999999ADDGA1041+009141991GE19MSL   +99999+99999GF199999041990009141991991MA1101601999990REMMET051METAR SBLP 051600Z 15012KT 9999 SCT030 33/17 Q1016=
0142832880999992014090517004-13262-043408FM-15+044399999V0201501N002119999999N009999199+03201+01601999999ADDGA1041+009141991GE19MSL   +99999+99999GF199999041990009141991991MA1101501999990REMMET051METAR SBLP 051700Z 15004KT 9999 SCT030 32/16 Q1015=
0142832880999992014090518004-13262-043408FM-15+044399999V0201001N003110091419N009999199+03201+01601999999ADDGA1071+009141991GE19MSL   +99999+99999GF199999071990009141991991MA1101401999990REMMET051METAR SBLP 051800Z 10006KT 9999 BKN030 32/16 Q1014=
0142832880999992014090519004-13262-043408FM-15+044399999V0201401N005110091419N009999199+03201+01501999999ADDGA1071+009141991GE19MSL   +99999+99999GF199999071990009141991991MA1101401999990REMMET051METAR SBLP 051900Z 14010KT 9999 BKN030 32/15 Q1014=
0142832880999992014090520004-13262-043408FM-15+044399999V0201201N004119999999N009999199+03101+01501999999ADDGA1021+009141991GE19MSL   +99999+99999GF199999021990009141991991MA1101501999990REMMET051METAR SBLP 052000Z 12008KT 9999 FEW030 31/15 Q1015=
0072832880999992014090521004-13262-043408FM-15+044399999V0201201N006219999999Y999999999+03001+01501999999ADDMA1101501999990REMMET045METAR SBLP 052100Z 12012KT CAVOK 30/15 Q1015=
0072832880999992014090809154-13262-043408FM-16+044399999V0202101N002119999999Y999999999+01601+01101999999ADDMA1101901999990REMMET045SPECI SBLP 080915Z 21004KT CAVOK 16/11 Q1019=
0072832880999992014090810004-13262-043408FM-15+044399999V0202201N002119999999Y999999999+01701+01001999999ADDMA1102101999990REMMET045METAR SBLP 081000Z 22004KT CAVOK 17/10 Q1021=
0072832880999992014090811004-13262-043408FM-15+044399999V0201901N003119999999Y999999999+02101+01101999999ADDMA1102201999990REMMET045METAR SBLP 081100Z 19006KT CAVOK 21/11 Q1022=
0072832880999992014090812004-13262-043408FM-15+044399999V0201601N004119999999Y999999999+02501+01101999999ADDMA1102201999990REMMET045METAR SBLP 081200Z 16008KT CAVOK 25/11 Q1022=
0072832880999992014090813004-13262-043408FM-15+044399999V0201501N002119999999Y999999999+02601+01101999999ADDMA1102201999990REMMET045METAR SBLP 081300Z 15004KT CAVOK 26/11 Q1022=
0072832880999992014090814004-13262-043408FM-15+044399999V0201701N001519999999Y999999999+02701+01001999999ADDMA1102101999990REMMET045METAR SBLP 081400Z 17003KT CAVOK 27/10 Q1021=
0072832880999992014090815004-13262-043408FM-15+044399999V0200601N002119999999Y999999999+03001+00901999999ADDMA1102001999990REMMET045METAR SBLP 081500Z 06004KT CAVOK 30/09 Q1020=
0072832880999992014090816004-13262-043408FM-15+044399999V0209999C000019999999Y999999999+03001+00901999999ADDMA1101801999990REMMET045METAR SBLP 081600Z 00000KT CAVOK 30/09 Q1018=
0072832880999992014090817004-13262-043408FM-15+044399999V0201501N003119999999Y999999999+03101+00901999999ADDMA1101701999990REMMET045METAR SBLP 081700Z 15006KT CAVOK 31/09 Q1017=
0072832880999992014090818004-13262-043408FM-15+044399999V0200401N002619999999Y999999999+03201+00801999999ADDMA1101601999990REMMET045METAR SBLP 081800Z 04005KT CAVOK 32/08 Q1016=
0072832880999992014090819004-13262-043408FM-15+044399999V0209999C000019999999Y999999999+03201+00701999999ADDMA1101501999990REMMET045METAR SBLP 081900Z 00000KT CAVOK 32/07 Q1015=
0142832880999992014090820004-13262-043408FM-15+044399999V0209999C000019999999N009999199+03301+00801999999ADDGA1021+009141991GE19MSL   +99999+99999GF199999021990009141991991MA1101601999990REMMET051METAR SBLP 082000Z 00000KT 9999 FEW030 33/08 Q1016=
0142832880999992014090821004-13262-043408FM-15+044399999V0209999C000019999999N009999199+03101+00801999999ADDGA1021+009141991GE19MSL   +99999+99999GF199999021990009141991991MA1101601999990REMMET051METAR SBLP 082100Z 00000KT 9999 FEW030 31/08 Q1016=
0072832880999992014090909154-13262-043408FM-16+044399999V0201701N001019999999Y999999999+01801+01301999999ADDMA1101901999990REMMET045SPECI SBLP 090915Z 17002KT CAVOK 18/13 Q1019=
0072832880999992014090910004-13262-043408FM-15+044399999V0201701N001519999999Y999999999+02001+01301999999ADDMA1101901999990REMMET045METAR SBLP 091000Z 17003KT CAVOK 20/13 Q1019=
0072832880999992014090911004-13262-043408FM-15+044399999V0201501N002119999999Y999999999+02301+01201999999ADDMA1102001999990REMMET045METAR SBLP 091100Z 15004KT CAVOK 23/12 Q1020=
0072832880999992014090912004-13262-043408FM-15+044399999V0201401N001519999999Y999999999+02501+01301999999ADDMA1102001999990REMMET045METAR SBLP 091200Z 14003KT CAVOK 25/13 Q1020=
0072832880999992014090913004-13262-043408FM-15+044399999V0201701N004119999999Y999999999+02801+01201999999ADDMA1102001999990REMMET045METAR SBLP 091300Z 17008KT CAVOK 28/12 Q1020=
0072832880999992014090914004-13262-043408FM-15+044399999V0201601N004119999999Y999999999+03001+01201999999ADDMA1101901999990REMMET045METAR SBLP 091400Z 16008KT CAVOK 30/12 Q1019=
0072832880999992014090915004-13262-043408FM-15+044399999V0209999C000019999999Y999999999+03201+01101999999ADDMA1101801999990REMMET045METAR SBLP 091500Z 00000KT CAVOK 32/11 Q1018=
0142832880999992014090916004-13262-043408FM-15+044399999V0202701N001519999999N009999199+03301+01101999999ADDGA1021+009141991GE19MSL   +99999+99999GF199999021990009141991991MA1101701999990REMMET051METAR SBLP 091600Z 27003KT 9999 FEW030 33/11 Q1017=
0142832880999992014090917004-13262-043408FM-15+044399999V0209999C000019999999N009999199+03301+01101999999ADDGA1041+009141991GE19MSL   +99999+99999GF199999041990009141991991MA1101501999990REMMET051METAR SBLP 091700Z 00000KT 9999 SCT030 33/11 Q1015=
0142832880999992014090918004-13262-043408FM-15+044399999V0201401N003619999999N009999199+03401+00901999999ADDGA1041+009141991GE19MSL   +99999+99999GF199999041990009141991991MA1101401999990REMMET051METAR SBLP 091800Z 14007KT 9999 SCT030 34/09 Q1014=
0142832880999992014090919004-13262-043408FM-15+044399999V0209999C000019999999N009999199+03301+00801999999ADDGA1021+009141991GE19MSL   +99999+99999GF199999021990009141991991MA1101301999990REMMET051METAR SBLP 091900Z 00000KT 9999 FEW030 33/08 Q1013=
0142832880999992014090920004-13262-043408FM-15+044399999V0202101N003619999999N009999199+03301+00901999999ADDGA1021+009141991GE19MSL   +99999+99999GF199999021990009141991991MA1101401999990REMMET051METAR SBLP 092000Z 21007KT 9999 FEW030 33/09 Q1014=
0142832880999992014090921004-13262-043408FM-15+044399999V0201901N004619999999N009999199+03101+00901999999ADDGA1021+009141991GE19MSL   +99999+99999GF199999021990009141991991MA1101401999990REMMET051METAR SBLP 092100Z 19009KT 9999 FEW030 31/09 Q1014=
0072832880999992014091009154-13262-043408FM-16+044399999V0209999C000019999999Y999999999+01901+01301999999ADDMA1101701999990REMMET045SPECI SBLP 100915Z 00000KT CAVOK 19/13 Q1017=
0072832880999992014091010004-13262-043408FM-15+044399999V0209999C000019999999Y999999999+02001+01401999999ADDMA1101801999990REMMET045METAR SBLP 101000Z 00000KT CAVOK 20/14 Q1018=
0072832880999992014091011004-13262-043408FM-15+044399999V0202101N001519999999Y999999999+02301+01501999999ADDMA1101801999990REMMET045METAR SBLP 101100Z 21003KT CAVOK 23/15 Q1018=
0072832880999992014091012004-13262-043408FM-15+044399999V0200901N003619999999Y999999999+02701+01401999999ADDMA1101901999990REMMET045METAR SBLP 101200Z 09007KT CAVOK 27/14 Q1019=
0072832880999992014091013004-13262-043408FM-15+044399999V0201601N002119999999Y999999999+02901+01401999999ADDMA1101901999990REMMET045METAR SBLP 101300Z 16004KT CAVOK 29/14 Q1019=
0142832880999992014091014004-13262-043408FM-15+044399999V0209999C000019999999N009999199+03101+01301999999ADDGA1021+009141991GE19MSL   +99999+99999GF199999021990009141991991MA1101801999990REMMET051METAR SBLP 101400Z 00000KT 9999 FEW030 31/13 Q1018=
0142832880999992014091015004-13262-043408FM-15+044399999V0201101N004119999999N009999199+03201+01201999999ADDGA1021+009141991GE19MSL   +99999+99999GF199999021990009141991991MA1101701999990REMMET051METAR SBLP 101500Z 11008KT 9999 FEW030 32/12 Q1017=
0142832880999992014091016004-13262-043408FM-15+044399999V0209999C000019999999N009999199+03301+01201999999ADDGA1041+009141991GE19MSL   +99999+99999GF199999041990009141991991MA1101501999990REMMET051METAR SBLP 101600Z 00000KT 9999 SCT030 33/12 Q1015=
0142832880999992014091017004-13262-043408FM-15+044399999V0200901N004119999999N009999199+03301+01101999999ADDGA1041+009141991GE19MSL   +99999+99999GF199999041990009141991991MA1101401999990REMMET051METAR SBLP 101700Z 09008KT 9999 SCT030 33/11 Q1014=
0142832880999992014091018004-13262-043408FM-15+044399999V0201501N002619999999N009999199+03401+01001999999ADDGA1041+009141991GE19MSL   +99999+99999GF199999041990009141991991MA1101301999990REMMET051METAR SBLP 101800Z 15005KT 9999 SCT030 34/10 Q1013=
0142832880999992014091019004-13262-043408FM-15+044399999V0209999C000019999999N009999199+03301+01001999999ADDGA1041+009141991GE19MSL   +99999+99999GF199999041990009141991991MA1101301999990REMMET051METAR SBLP 101900Z 00000KT 9999 SCT030 33/10 Q1013=
0142832880999992014091020004-13262-043408FM-15+044399999V0201001N002619999999N009999199+03401+01001999999ADDGA1041+009141991GE19MSL   +99999+99999GF199999041990009141991991MA1101301999990REMMET051METAR SBLP 102000Z 10005KT 9999 SCT030 34/10 Q1013=
0142832880999992014091021004-13262-043408FM-15+044399999V0201601N003119999999N009999199+03201+01001999999ADDGA1041+009141991GE19MSL   +99999+99999GF199999041990009141991991MA1101401999990REMMET051METAR SBLP 102100Z 16006KT 9999 SCT030 32/10 Q1014=
0072832880999992014091109154-13262-043408FM-16+044399999V0201601N001019999999Y999999999+02001+01401999999ADDMA1101701999990REMMET045SPECI SBLP 110915Z 16002KT CAVOK 20/14 Q1017=
0072832880999992014091110004-13262-043408FM-15+044399999V0202101N001019999999Y999999999+02001+01401999999ADDMA1101701999990REMMET045METAR SBLP 111000Z 21002KT CAVOK 20/14 Q1017=
0072832880999992014091111004-13262-043408FM-15+044399999V0201501N002119999999Y999999999+02401+01401999999ADDMA1101801999990REMMET045METAR SBLP 111100Z 15004KT CAVOK 24/14 Q1018=
0072832880999992014091112004-13262-043408FM-15+044399999V0200801N002119999999Y999999999+02701+01401999999ADDMA1101801999990REMMET045METAR SBLP 111200Z 08004KT CAVOK 27/14 Q1018=
0072832880999992014091113004-13262-043408FM-15+044399999V0200801N002619999999Y999999999+02801+01401999999ADDMA1101801999990REMMET045METAR SBLP 111300Z 08005KT CAVOK 28/14 Q1018=
0072832880999992014091114004-13262-043408FM-15+044399999V0200801N002119999999Y999999999+03001+01301999999ADDMA1101701999990REMMET045METAR SBLP 111400Z 08004KT CAVOK 30/13 Q1017=
0142832880999992014091115004-13262-043408FM-15+044399999V0201701N001019999999N009999199+03101+01201999999ADDGA1021+009141991GE19MSL   +99999+99999GF199999021990009141991991MA1101601999990REMMET051METAR SBLP 111500Z 17002KT 9999 FEW030 31/12 Q1016=
0142832880999992014091116004-13262-043408FM-15+044399999V0202101N002119999999N009999199+03401+01101999999ADDGA1021+009141991GE19MSL   +99999+99999GF199999021990009141991991MA1101501999990REMMET051METAR SBLP 111600Z 21004KT 9999 FEW030 34/11 Q1015=
0142832880999992014091117004-13262-043408FM-15+044399999V0201701N003119999999N009999199+03401+01001999999ADDGA1041+009141991GE19MSL   +99999+99999GF199999041990009141991991MA1101401999990REMMET051METAR SBLP 111700Z 17006KT 9999 SCT030 34/10 Q1014=
0142832880999992014091118004-13262-043408FM-15+044399999V0202401N003119999999N009999199+03501+01001999999ADDGA1041+009141991GE19MSL   +99999+99999GF199999041990009141991991MA1101301999990REMMET051METAR SBLP 111800Z 24006KT 9999 SCT030 35/10 Q1013=
0142832880999992014091119004-13262-043408FM-15+044399999V0201801N002619999999N009999199+03501+01001999999ADDGA1021+009141991GE19MSL   +99999+99999GF199999021990009141991991MA1101201999990REMMET051METAR SBLP 111900Z 18005KT 9999 FEW030 35/10 Q1012=
0142832880999992014091120004-13262-043408FM-15+044399999V0202201N003619999999N009999199+03501+01001999999ADDGA1021+009141991GE19MSL   +99999+99999GF199999021990009141991991MA1101201999990REMMET051METAR SBLP 112000Z 22007KT 9999 FEW030 35/10 Q1012=
0142832880999992014091121004-13262-043408FM-15+044399999V0201801N005119999999N009999199+03201+01101999999ADDGA1021+009141991GE19MSL   +99999+99999GF199999021990009141991991MA1101201999990REMMET051METAR SBLP 112100Z 18010KT 9999 FEW030 32/11 Q1012=
0072832880999992014091209154-13262-043408FM-16+044399999V0209999C000019999999Y999999999+02001+01401999999ADDMA1101601999990REMMET045SPECI SBLP 120915Z 00000KT CAVOK 20/14 Q1016=
0072832880999992014091210004-13262-043408FM-15+044399999V0201401N002119999999Y999999999+02201+01501999999ADDMA1101601999990REMMET045METAR SBLP 121000Z 14004KT CAVOK 22/15 Q1016=
0072832880999992014091211004-13262-043408FM-15+044399999V0200901N003119999999Y999999999+02501+01401999999ADDMA1101701999990REMMET045METAR SBLP 121100Z 09006KT CAVOK 25/14 Q1017=
0072832880999992014091212004-13262-043408FM-15+044399999V0201001N001519999999Y999999999+02801+01401999999ADDMA1101701999990REMMET045METAR SBLP 121200Z 10003KT CAVOK 28/14 Q1017=
0072832880999992014091213004-13262-043408FM-15+044399999V0209999C000019999999Y999999999+03001+01401999999ADDMA1101701999990REMMET045METAR SBLP 121300Z 00000KT CAVOK 30/14 Q1017=
0072832880999992014091214004-13262-043408FM-15+044399999V0201101N004119999999Y999999999+03201+01401999999ADDMA1101601999990REMMET045METAR SBLP 121400Z 11008KT CAVOK 32/14 Q1016=
0142832880999992014091215004-13262-043408FM-15+044399999V0202101N002619999999N009999199+03301+01201999999ADDGA1021+009141991GE19MSL   +99999+99999GF199999021990009141991991MA1101501999990REMMET051METAR SBLP 121500Z 21005KT 9999 FEW030 33/12 Q1015=
0142832880999992014091216004-13262-043408FM-15+044399999V0200301N002619999999N009999199+03301+01201999999ADDGA1021+009141991GE19MSL   +99999+99999GF199999021990009141991991MA1101401999990REMMET051METAR SBLP 121600Z 03005KT 9999 FEW030 33/12 Q1014=
0142832880999992014091217004-13262-043408FM-15+044399999V0202601N003119999999N009999199+03401+01201999999ADDGA1041+009141991GE19MSL   +99999+99999GF199999041990009141991991MA1101301999990REMMET051METAR SBLP 121700Z 26006KT 9999 SCT030 34/12 Q1013=
0142832880999992014091218004-13262-043408FM-15+044399999V0202401N002619999999N009999199+03501+01101999999ADDGA1041+009141991GE19MSL   +99999+99999GF199999041990009141991991MA1101201999990REMMET051METAR SBLP 121800Z 24005KT 9999 SCT030 35/11 Q1012=
0142832880999992014091219004-13262-043408FM-15+044399999V0209999C000019999999N009999199+03401+01101999999ADDGA1041+009141991GE19MSL   +99999+99999GF199999041990009141991991MA1101201999990REMMET051METAR SBLP 121900Z 00000KT 9999 SCT030 34/11 Q1012=
0142832880999992014091220004-13262-043408FM-15+044399999V0202401N001519999999N009999199+03401+01101999999ADDGA1041+009141991GE19MSL   +99999+99999GF199999041990009141991991MA1101201999990REMMET051METAR SBLP 122000Z 24003KT 9999 SCT030 34/11 Q1012=
0142832880999992014091221004-13262-043408FM-15+044399999V0202301N001019999999N009999199+03301+01201999999ADDGA1021+009141991GE19MSL   +99999+99999GF199999021990009141991991MA1101201999990REMMET051METAR SBLP 122100Z 23002KT 9999 FEW030 33/12 Q1012=
0072832880999992014091509154-13262-043408FM-16+044399999V0209999C000019999999Y999999999+01901+01301999999ADDMA1101701999990REMMET045SPECI SBLP 150915Z 00000KT CAVOK 19/13 Q1017=
0072832880999992014091510004-13262-043408FM-15+044399999V0202101N001019999999Y999999999+02001+01401999999ADDMA1101801999990REMMET045METAR SBLP 151000Z 21002KT CAVOK 20/14 Q1018=
0072832880999992014091511004-13262-043408FM-15+044399999V0201701N002619999999Y999999999+02401+01401999999ADDMA1101901999990REMMET045METAR SBLP 151100Z 17005KT CAVOK 24/14 Q1019=
0072832880999992014091512004-13262-043408FM-15+044399999V0201001N002119999999Y999999999+02601+01401999999ADDMA1101901999990REMMET045METAR SBLP 151200Z 10004KT CAVOK 26/14 Q1019=
0072832880999992014091513004-13262-043408FM-15+044399999V0209999C000019999999Y999999999+02801+01301999999ADDMA1101901999990REMMET045METAR SBLP 151300Z 00000KT CAVOK 28/13 Q1019=
0072832880999992014091514004-13262-043408FM-15+044399999V0200801N002619999999Y999999999+03001+01201999999ADDMA1101801999990REMMET045METAR SBLP 151400Z 08005KT CAVOK 30/12 Q1018=
0072832880999992014091515004-13262-043408FM-15+044399999V0201901N004119999999Y999999999+03101+01101999999ADDMA1101701999990REMMET045METAR SBLP 151500Z 19008KT CAVOK 31/11 Q1017=
0072832880999992014091516004-13262-043408FM-15+044399999V0203001N002119999999Y999999999+03301+01101999999ADDMA1101601999990REMMET045METAR SBLP 151600Z 30004KT CAVOK 33/11 Q1016=
0072832880999992014091517004-13262-043408FM-15+044399999V0209999C000019999999Y999999999+03301+01001999999ADDMA1101501999990REMMET045METAR SBLP 151700Z 00000KT CAVOK 33/10 Q1015=
0072832880999992014091518004-13262-043408FM-15+044399999V0202301N003619999999Y999999999+03401+01001999999ADDMA1101401999990REMMET045METAR SBLP 151800Z 23007KT CAVOK 34/10 Q1014=
0072832880999992014091519004-13262-043408FM-15+044399999V0203001N003119999999Y999999999+03401+00901999999ADDMA1101301999990REMMET045METAR SBLP 151900Z 30006KT CAVOK 34/09 Q1013=
0072832880999992014091520004-13262-043408FM-15+044399999V0202401N002619999999Y999999999+03301+00901999999ADDMA1101301999990REMMET045METAR SBLP 152000Z 24005KT CAVOK 33/09 Q1013=
0072832880999992014091521004-13262-043408FM-15+044399999V0202201N001519999999Y999999999+03201+00901999999ADDMA1101301999990REMMET045METAR SBLP 152100Z 22003KT CAVOK 32/09 Q1013=
0072832880999992014091609154-13262-043408FM-16+044399999V0209999C000019999999Y999999999+01901+01301999999ADDMA1101501999990REMMET045SPECI SBLP 160915Z 00000KT CAVOK 19/13 Q1015=
0072832880999992014091610004-13262-043408FM-15+044399999V0202201N001519999999Y999999999+02101+01201999999ADDMA1101601999990REMMET045METAR SBLP 161000Z 22003KT CAVOK 21/12 Q1016=
0072832880999992014091611004-13262-043408FM-15+044399999V0201801N002119999999Y999999999+02401+01101999999ADDMA1101701999990REMMET045METAR SBLP 161100Z 18004KT CAVOK 24/11 Q1017=
0072832880999992014091612004-13262-043408FM-15+044399999V0209999C000019999999Y999999999+02801+01101999999ADDMA1101701999990REMMET045METAR SBLP 161200Z 00000KT CAVOK 28/11 Q1017=
0072832880999992014091613004-13262-043408FM-15+044399999V0200801N002619999999Y999999999+03101+01001999999ADDMA1101701999990REMMET045METAR SBLP 161300Z 08005KT CAVOK 31/10 Q1017=
0072832880999992014091614004-13262-043408FM-15+044399999V0200701N002119999999Y999999999+03401+01001999999ADDMA1101601999990REMMET045METAR SBLP 161400Z 07004KT CAVOK 34/10 Q1016=
0072832880999992014091615004-13262-043408FM-15+044399999V0200301N001519999999Y999999999+03401+00901999999ADDMA1101401999990REMMET045METAR SBLP 161500Z 03003KT CAVOK 34/09 Q1014=
0072832880999992014091616004-13262-043408FM-15+044399999V0203201N002619999999Y999999999+03501+00901999999ADDMA1101301999990REMMET045METAR SBLP 161600Z 32005KT CAVOK 35/09 Q1013=
0072832880999992014091617004-13262-043408FM-15+044399999V0202401N003619999999Y999999999+03501+00701999999ADDMA1101201999990REMMET045METAR SBLP 161700Z 24007KT CAVOK 35/07 Q1012=
0072832880999992014091618004-13262-043408FM-15+044399999V0202601N001519999999Y999999999+03601+00701999999ADDMA1101101999990REMMET045METAR SBLP 161800Z 26003KT CAVOK 36/07 Q1011=
0072832880999992014091619004-13262-043408FM-15+044399999V0209999C000019999999Y999999999+03601+00701999999ADDMA1101201999990REMMET045METAR SBLP 161900Z 00000KT CAVOK 36/07 Q1012=
0072832880999992014091620004-13262-043408FM-15+044399999V0202501N003119999999Y999999999+03501+00701999999ADDMA1101201999990REMMET045METAR SBLP 162000Z 25006KT CAVOK 35/07 Q1012=
0072832880999992014091621004-13262-043408FM-15+044399999V0209999C000019999999Y999999999+03301+00701999999ADDMA1101201999990REMMET045METAR SBLP 162100Z 00000KT CAVOK 33/07 Q1012=
0072832880999992014091709154-13262-043408FM-16+044399999V0209999C000019999999Y999999999+02001+01301999999ADDMA1101401999990REMMET045SPECI SBLP 170915Z 00000KT CAVOK 20/13 Q1014=
0072832880999992014091710004-13262-043408FM-15+044399999V0209999C000019999999Y999999999+02101+01201999999ADDMA1101501999990REMMET045METAR SBLP 171000Z 00000KT CAVOK 21/12 Q1015=
0072832880999992014091711004-13262-043408FM-15+044399999V0209999C000019999999Y999999999+02501+01301999999ADDMA1101601999990REMMET045METAR SBLP 171100Z 00000KT CAVOK 25/13 Q1016=
0072832880999992014091712004-13262-043408FM-15+044399999V0202601N001019999999Y999999999+02901+01201999999ADDMA1101601999990REMMET045METAR SBLP 171200Z 26002KT CAVOK 29/12 Q1016=
0072832880999992014091713004-13262-043408FM-15+044399999V0209999C000019999999Y999999999+03301+01101999999ADDMA1101601999990REMMET045METAR SBLP 171300Z 00000KT CAVOK 33/11 Q1016=
0072832880999992014091714004-13262-043408FM-15+044399999V0200501N001519999999Y999999999+03501+01101999999ADDMA1101501999990REMMET045METAR SBLP 171400Z 05003KT CAVOK 35/11 Q1015=
0072832880999992014091715004-13262-043408FM-15+044399999V0202401N003119999999Y999999999+03601+01001999999ADDMA1101401999990REMMET045METAR SBLP 171500Z 24006KT CAVOK 36/10 Q1014=
0142832880999992014091716004-13262-043408FM-15+044399999V0202001N005119999999N009999199+03701+01001999999ADDGA1021+009141991GE19MSL   +99999+99999GF199999021990009141991991MA1101301999990REMMET051METAR SBLP 171600Z 20010KT 9999 FEW030 37/10 Q1013=
0142832880999992014091717004-13262-043408FM-15+044399999V0202101N007719999999N009999199+03701+01001999999ADDGA1021+009141991GE19MSL   +99999+99999GF199999021990009141991991MA1101201999990REMMET051METAR SBLP 171700Z 21015KT 9999 FEW030 37/10 Q1012=
0142832880999992014091718004-13262-043408FM-15+044399999V0201401N005119999999N009999199+03701+01101999999ADDGA1021+009141991GE19MSL   +99999+99999GF199999021990009141991991MA1101101999990REMMET051METAR SBLP 171800Z 14010KT 9999 FEW030 37/11 Q1011=
0142832880999992014091719004-13262-043408FM-15+044399999V0201501N005119999999N009999199+03701+00701999999ADDGA1021+009141991GE19MSL   +99999+99999GF199999021990009141991991MA1101101999990REMMET051METAR SBLP 171900Z 15010KT 9999 FEW030 37/07 Q1011=
0072832880999992014091720004-13262-043408FM-15+044399999V0201401N006219999999Y999999999+03601+00801999999ADDMA1101101999990REMMET045METAR SBLP 172000Z 14012KT CAVOK 36/08 Q1011=
0072832880999992014091721004-13262-043408FM-15+044399999V0201501N005119999999Y999999999+03401+00901999999ADDMA1101201999990REMMET045METAR SBLP 172100Z 15010KT CAVOK 34/09 Q1012=
0072832880999992014091809154-13262-043408FM-16+044399999V0209999C000019999999Y999999999+02101+01301999999ADDMA1101701999990REMMET045SPECI SBLP 180915Z 00000KT CAVOK 21/13 Q1017=
0072832880999992014091810004-13262-043408FM-15+044399999V0201301N002619999999Y999999999+02301+01401999999ADDMA1101801999990REMMET045METAR SBLP 181000Z 13005KT CAVOK 23/14 Q1018=
0072832880999992014091811004-13262-043408FM-15+044399999V0201401N003619999999Y999999999+02601+01401999999ADDMA1101901999990REMMET045METAR SBLP 181100Z 14007KT CAVOK 26/14 Q1019=
0072832880999992014091812004-13262-043408FM-15+044399999V0201801N005119999999Y999999999+02701+01201999999ADDMA1101901999990REMMET045METAR SBLP 181200Z 18010KT CAVOK 27/12 Q1019=
0072832880999992014091813004-13262-043408FM-15+044399999V0201401N006219999999Y999999999+02901+01201999999ADDMA1101801999990REMMET045METAR SBLP 181300Z 14012KT CAVOK 29/12 Q1018=
0072832880999992014091814004-13262-043408FM-15+044399999V0200901N003119999999Y999999999+03101+01001999999ADDMA1101801999990REMMET045METAR SBLP 181400Z 09006KT CAVOK 31/10 Q1018=
0072832880999992014091815004-13262-043408FM-15+044399999V0202001N003619999999Y999999999+03301+00901999999ADDMA1101601999990REMMET045METAR SBLP 181500Z 20007KT CAVOK 33/09 Q1016=
0072832880999992014091816004-13262-043408FM-15+044399999V0202601N005119999999Y999999999+03401+00501999999ADDMA1101401999990REMMET045METAR SBLP 181600Z 26010KT CAVOK 34/05 Q1014=
0072832880999992014091817004-13262-043408FM-15+044399999V0201701N004119999999Y999999999+03501+00401999999ADDMA1101301999990REMMET045METAR SBLP 181700Z 17008KT CAVOK 35/04 Q1013=
0072832880999992014091818004-13262-043408FM-15+044399999V0201901N004119999999Y999999999+03501+00401999999ADDMA1101201999990REMMET045METAR SBLP 181800Z 19008KT CAVOK 35/04 Q1012=
0072832880999992014091819004-13262-043408FM-15+044399999V0201901N005119999999Y999999999+03501+00301999999ADDMA1101201999990REMMET045METAR SBLP 181900Z 19010KT CAVOK 35/03 Q1012=
0072832880999992014091820004-13262-043408FM-15+044399999V0201901N005119999999Y999999999+03401+00401999999ADDMA1101201999990REMMET045METAR SBLP 182000Z 19010KT CAVOK 34/04 Q1012=
0072832880999992014091821004-13262-043408FM-15+044399999V0202001N004119999999Y999999999+03201+00601999999ADDMA1101301999990REMMET045METAR SBLP 182100Z 20008KT CAVOK 32/06 Q1013=
0072832880999992014091909154-13262-043408FM-16+044399999V0209999C000019999999Y999999999+01801+01101999999ADDMA1101701999990REMMET045SPECI SBLP 190915Z 00000KT CAVOK 18/11 Q1017=
0072832880999992014091910004-13262-043408FM-15+044399999V0209999C000019999999Y999999999+02101+01001999999ADDMA1101701999990REMMET045METAR SBLP 191000Z 00000KT CAVOK 21/10 Q1017=
0072832880999992014091911004-13262-043408FM-15+044399999V0201401N004119999999Y999999999+02501+01201999999ADDMA1101801999990REMMET045METAR SBLP 191100Z 14008KT CAVOK 25/12 Q1018=
0072832880999992014091912004-13262-043408FM-15+044399999V0201501N003119999999Y999999999+02601+01201999999ADDMA1101801999990REMMET045METAR SBLP 191200Z 15006KT CAVOK 26/12 Q1018=
0072832880999992014091913004-13262-043408FM-15+044399999V0209999C000019999999Y999999999+02801+01101999999ADDMA1101801999990REMMET045METAR SBLP 191300Z 00000KT CAVOK 28/11 Q1018=
0072832880999992014091914004-13262-043408FM-15+044399999V0201201N002619999999Y999999999+03101+01001999999ADDMA1101601999990REMMET045METAR SBLP 191400Z 12005KT CAVOK 31/10 Q1016=
0072832880999992014091915004-13262-043408FM-15+044399999V0201601N001019999999Y999999999+03101+00901999999ADDMA1101601999990REMMET045METAR SBLP 191500Z 16002KT CAVOK 31/09 Q1016=
0072832880999992014091916004-13262-043408FM-15+044399999V0201601N002619999999Y999999999+03301+01001999999ADDMA1101401999990REMMET045METAR SBLP 191600Z 16005KT CAVOK 33/10 Q1014=
0072832880999992014091917004-13262-043408FM-15+044399999V0202101N001519999999Y999999999+03401+00901999999ADDMA1101301999990REMMET045METAR SBLP 191700Z 21003KT CAVOK 34/09 Q1013=
0072832880999992014091918004-13262-043408FM-15+044399999V0202201N002619999999Y999999999+03401+00901999999ADDMA1101201999990REMMET045METAR SBLP 191800Z 22005KT CAVOK 34/09 Q1012=
0072832880999992014091919004-13262-043408FM-15+044399999V0201701N001519999999Y999999999+03501+00901999999ADDMA1101201999990REMMET045METAR SBLP 191900Z 17003KT CAVOK 35/09 Q1012=
0072832880999992014091920004-13262-043408FM-15+044399999V0200201N001519999999Y999999999+03401+00901999999ADDMA1101201999990REMMET045METAR SBLP 192000Z 02003KT CAVOK 34/09 Q1012=
0072832880999992014091921004-13262-043408FM-15+044399999V0200801N001519999999Y999999999+03301+00801999999ADDMA1101201999990REMMET045METAR SBLP 192100Z 08003KT CAVOK 33/08 Q1012=
0072832880999992014092209154-13262-043408FM-16+044399999V0200101N002119999999Y999999999+02501+01301999999ADDMA1101301999990REMMET045SPECI SBLP 220915Z 01004KT CAVOK 25/13 Q1013=
0072832880999992014092210004-13262-043408FM-15+044399999V0200501N002119999999Y999999999+02701+01301999999ADDMA1101401999990REMMET045METAR SBLP 221000Z 05004KT CAVOK 27/13 Q1014=
0072832880999992014092211004-13262-043408FM-15+044399999V0200101N002619999999Y999999999+03001+01201999999ADDMA1101401999990REMMET045METAR SBLP 221100Z 01005KT CAVOK 30/12 Q1014=
0072832880999992014092212004-13262-043408FM-15+044399999V0200401N002119999999Y999999999+03301+01201999999ADDMA1101501999990REMMET045METAR SBLP 221200Z 04004KT CAVOK 33/12 Q1015=
0072832880999992014092213004-13262-043408FM-15+044399999V0200201N003619999999Y999999999+03501+01201999999ADDMA1101501999990REMMET045METAR SBLP 221300Z 02007KT CAVOK 35/12 Q1015=
0072832880999992014092214004-13262-043408FM-15+044399999V0200101N004119999999Y999999999+03601+01201999999ADDMA1101401999990REMMET045METAR SBLP 221400Z 01008KT CAVOK 36/12 Q1014=
0072832880999992014092215004-13262-043408FM-15+044399999V0200101N003619999999Y999999999+03701+01101999999ADDMA1101301999990REMMET045METAR SBLP 221500Z 01007KT CAVOK 37/11 Q1013=
0142832880999992014092216004-13262-043408FM-15+044399999V0200701N002119999999N009999199+03801+00901999999ADDGA1021+009141991GE19MSL   +99999+99999GF199999021990009141991991MA1101201999990REMMET051METAR SBLP 221600Z 07004KT 9999 FEW030 38/09 Q1012=
0142832880999992014092217004-13262-043408FM-15+044399999V0209999C000019999999N009999199+03801+00801999999ADDGA1021+009141991GE19MSL   +99999+99999GF199999021990009141991991MA1101001999990REMMET051METAR SBLP 221700Z 00000KT 9999 FEW030 38/08 Q1010=
0142832880999992014092218004-13262-043408FM-15+044399999V0201301N001019999999N009999199+03801+00801999999ADDGA1021+009141991GE19MSL   +99999+99999GF199999021990009141991991MA1101001999990REMMET051METAR SBLP 221800Z 13002KT 9999 FEW030 38/08 Q1010=
0142832880999992014092219004-13262-043408FM-15+044399999V0202701N002119999999N009999199+03901+00801999999ADDGA1041+009141991GE19MSL   +99999+99999GF199999041990009141991991MA1100901999990REMMET051METAR SBLP 221900Z 27004KT 9999 SCT030 39/08 Q1009=
0142832880999992014092220004-13262-043408FM-15+044399999V0202801N001019999999N009999199+03801+00801999999ADDGA1041+009141991GE19MSL   +99999+99999GF199999041990009141991991MA1100901999990REMMET051METAR SBLP 222000Z 28002KT 9999 SCT030 38/08 Q1009=
0142832880999992014092221004-13262-043408FM-15+044399999V0209999C000019999999N009999199+03601+00801999999ADDGA1041+009141991GE19MSL   +99999+99999GF199999041990009141991991MA1101001999990REMMET051METAR SBLP 222100Z 00000KT 9999 SCT030 36/08 Q1010=
0072832880999992014092309154-13262-043408FM-16+044399999V0201901N001019999999Y999999999+02301+01701999999ADDMA1101701999990REMMET045SPECI SBLP 230915Z 19002KT CAVOK 23/17 Q1017=
0072832880999992014092310004-13262-043408FM-15+044399999V0202101N001519999999Y999999999+02401+01701999999ADDMA1101801999990REMMET045METAR SBLP 231000Z 21003KT CAVOK 24/17 Q1018=
0072832880999992014092311004-13262-043408FM-15+044399999V0202001N002619999999Y999999999+02601+01701999999ADDMA1101801999990REMMET045METAR SBLP 231100Z 20005KT CAVOK 26/17 Q1018=
0072832880999992014092312004-13262-043408FM-15+044399999V0201701N004119999999Y999999999+02701+01601999999ADDMA1101801999990REMMET045METAR SBLP 231200Z 17008KT CAVOK 27/16 Q1018=
0072832880999992014092313004-13262-043408FM-15+044399999V0201601N002119999999Y999999999+03001+01601999999ADDMA1101801999990REMMET045METAR SBLP 231300Z 16004KT CAVOK 30/16 Q1018=
0072832880999992014092314004-13262-043408FM-15+044399999V0202501N002619999999Y999999999+03201+01501999999ADDMA1101701999990REMMET045METAR SBLP 231400Z 25005KT CAVOK 32/15 Q1017=
0142832880999992014092315004-13262-043408FM-15+044399999V0202101N001519999999N009999199+03301+01501999999ADDGA1021+009141991GE19MSL   +99999+99999GF199999021990009141991991MA1101601999990REMMET051METAR SBLP 231500Z 21003KT 9999 FEW030 33/15 Q1016=
0142832880999992014092316004-13262-043408FM-15+044399999V0202401N002119999999N009999199+03401+01501999999ADDGA1021+009141991GE19MSL   +99999+99999GF199999021990009141991991MA1101501999990REMMET051METAR SBLP 231600Z 24004KT 9999 FEW030 34/15 Q1015=
0142832880999992014092317004-13262-043408FM-15+044399999V0201501N005119999999N009999199+03501+01501999999ADDGA1021+009141991GE19MSL   +99999+99999GF199999021990009141991991MA1101401999990REMMET051METAR SBLP 231700Z 15010KT 9999 FEW030 35/15 Q1014=
0142832880999992014092318004-13262-043408FM-15+044399999V0201201N004619999999N009999199+03501+01501999999ADDGA1041+009141991GE19MSL   +99999+99999GF199999041990009141991991MA1101301999990REMMET051METAR SBLP 231800Z 12009KT 9999 SCT030 35/15 Q1013=
0142832880999992014092319004-13262-043408FM-15+044399999V0201401N002619999999N009999199+03401+01501999999ADDGA1041+009141991GE19MSL   +99999+99999GF199999041990009141991991MA1101201999990REMMET051METAR SBLP 231900Z 14005KT 9999 SCT030 34/15 Q1012=
0142832880999992014092320004-13262-043408FM-15+044399999V0201701N003619999999N009999199+03401+01501999999ADDGA1041+009141991GE19MSL   +99999+99999GF199999041990009141991991MA1101201999990REMMET051METAR SBLP 232000Z 17007KT 9999 SCT030 34/15 Q1012=
0142832880999992014092321004-13262-043408FM-15+044399999V0200701N003110091419N009999199+03201+01601999999ADDGA1071+009141991GE19MSL   +99999+99999GF199999071990009141991991MA1101301999990REMMET051METAR SBLP 232100Z 07006KT 9999 BKN030 32/16 Q1013=
0072832880999992014092409154-13262-043408FM-16+044399999V0209999C000019999999Y999999999+02201+01601999999ADDMA1101801999990REMMET045SPECI SBLP 240915Z 00000KT CAVOK 22/16 Q1018=
0072832880999992014092410004-13262-043408FM-15+044399999V0202101N001519999999Y999999999+02301+01601999999ADDMA1101901999990REMMET045METAR SBLP 241000Z 21003KT CAVOK 23/16 Q1019=
0072832880999992014092411004-13262-043408FM-15+044399999V0201201N003119999999Y999999999+02601+01601999999ADDMA1101901999990REMMET045METAR SBLP 241100Z 12006KT CAVOK 26/16 Q1019=
0072832880999992014092412004-13262-043408FM-15+044399999V0201401N005119999999Y999999999+02901+01601999999ADDMA1101901999990REMMET045METAR SBLP 241200Z 14010KT CAVOK 29/16 Q1019=
0072832880999992014092413004-13262-043408FM-15+044399999V0201201N004119999999Y999999999+03001+01601999999ADDMA1101901999990REMMET045METAR SBLP 241300Z 12008KT CAVOK 30/16 Q1019=
0142832880999992014092414004-13262-043408FM-15+044399999V0201101N003619999999N009999199+03201+01501999999ADDGA1021+009141991GE19MSL   +99999+99999GF199999021990009141991991MA1101801999990REMMET051METAR SBLP 241400Z 11007KT 9999 FEW030 32/15 Q1018=
0142832880999992014092415004-13262-043408FM-15+044399999V0201301N004619999999N009999199+03401+01301999999ADDGA1021+009141991GE19MSL   +99999+99999GF199999021990009141991991MA1101701999990REMMET051METAR SBLP 241500Z 13009KT 9999 FEW030 34/13 Q1017=
0142832880999992014092416004-13262-043408FM-15+044399999V0202501N001519999999N009999199+03401+01401999999ADDGA1041+009141991GE19MSL   +99999+99999GF199999041990009141991991MA1101501999990REMMET051METAR SBLP 241600Z 25003KT 9999 SCT030 34/14 Q1015=
0142832880999992014092417004-13262-043408FM-15+044399999V0202101N001519999999N009999199+03301+01301999999ADDGA1041+009141991GE19MSL   +99999+99999GF199999041990009141991991MA1101401999990REMMET051METAR SBLP 241700Z 21003KT 9999 SCT030 33/13 Q1014=
0142832880999992014092418004-13262-043408FM-15+044399999V0203101N001019999999N009999199+03501+01301999999ADDGA1041+009141991GE19MSL   +99999+99999GF199999041990009141991991MA1101401999990REMMET051METAR SBLP 241800Z 31002KT 9999 SCT030 35/13 Q1014=
0142832880999992014092419004-13262-043408FM-15+044399999V0202501N001519999999N009999199+03401+01101999999ADDGA1041+009141991GE19MSL   +99999+99999GF199999041990009141991991MA1101301999990REMMET051METAR SBLP 241900Z 25003KT 9999 SCT030 34/11 Q1013=
0142832880999992014092420004-13262-043408FM-15+044399999V0202101N004119999999N009999199+03501+01101999999ADDGA1021+009141991GE19MSL   +99999+99999GF199999021990009141991991MA1101301999990REMMET051METAR SBLP 242000Z 21008KT 9999 FEW030 35/11 Q1013=
0142832880999992014092421004-13262-043408FM-15+044399999V0202201N003119999999N009999199+03401+01001999999ADDGA1021+009141991GE19MSL   +99999+99999GF199999021990009141991991MA1101301999990REMMET051METAR SBLP 242100Z 22006KT 9999 FEW030 34/10 Q1013=
0072832880999992014092509154-13262-043408FM-16+044399999V0209999C000019999999Y999999999+02101+01601999999ADDMA1101701999990REMMET045SPECI SBLP 250915Z 00000KT CAVOK 21/16 Q1017=
0072832880999992014092510004-13262-043408FM-15+044399999V0209999C000019999999Y999999999+02301+01601999999ADDMA1101801999990REMMET045METAR SBLP 251000Z 00000KT CAVOK 23/16 Q1018=
0072832880999992014092511004-13262-043408FM-15+044399999V0201701N002119999999Y999999999+02601+01601999999ADDMA1101801999990REMMET045METAR SBLP 251100Z 17004KT CAVOK 26/16 Q1018=
0072832880999992014092512004-13262-043408FM-15+044399999V0201601N003119999999Y999999999+02901+01601999999ADDMA1101801999990REMMET045METAR SBLP 251200Z 16006KT CAVOK 29/16 Q1018=
0072832880999992014092513004-13262-043408FM-15+044399999V0201601N004119999999Y999999999+03101+01501999999ADDMA1101801999990REMMET045METAR SBLP 251300Z 16008KT CAVOK 31/15 Q1018=
0142832880999992014092514004-13262-043408FM-15+044399999V0201801N003119999999N009999199+03201+01501999999ADDGA1021+009141991GE19MSL   +99999+99999GF199999021990009141991991MA1101801999990REMMET051METAR SBLP 251400Z 18006KT 9999 FEW030 32/15 Q1018=
0142832880999992014092515004-13262-043408FM-15+044399999V0203001N002119999999N009999199+03401+01401999999ADDGA1021+009141991GE19MSL   +99999+99999GF199999021990009141991991MA1101601999990REMMET051METAR SBLP 251500Z 30004KT 9999 FEW030 34/14 Q1016=
0142832880999992014092516004-13262-043408FM-15+044399999V0201801N002619999999N009999199+03501+01201999999ADDGA1021+009141991GE19MSL   +99999+99999GF199999021990009141991991MA1101501999990REMMET051METAR SBLP 251600Z 18005KT 9999 FEW030 35/12 Q1015=
0142832880999992014092517004-13262-043408FM-15+044399999V0202901N003619999999N009999199+03601+01101999999ADDGA1041+009141991GE19MSL   +99999+99999GF199999041990009141991991MA1101301999990REMMET051METAR SBLP 251700Z 29007KT 9999 SCT030 36/11 Q1013=
0142832880999992014092518004-13262-043408FM-15+044399999V0201801N003119999999N009999199+03501+01001999999ADDGA1041+009141991GE19MSL   +99999+99999GF199999041990009141991991MA1101301999990REMMET051METAR SBLP 251800Z 18006KT 9999 SCT030 35/10 Q1013=
0142832880999992014092519004-13262-043408FM-15+044399999V0202101N002119999999N009999199+03501+01001999999ADDGA1021+009141991GE19MSL   +99999+99999GF199999021990009141991991MA1101201999990REMMET051METAR SBLP 251900Z 21004KT 9999 FEW030 35/10 Q1012=
0142832880999992014092520004-13262-043408FM-15+044399999V0202801N002619999999N009999199+03501+00901999999ADDGA1021+009141991GE19MSL   +99999+99999GF199999021990009141991991MA1101201999990REMMET051METAR SBLP 252000Z 28005KT 9999 FEW030 35/09 Q1012=
0142832880999992014092521004-13262-043408FM-15+044399999V0202201N002119999999N009999199+03301+01001999999ADDGA1021+009141991GE19MSL   +99999+99999GF199999021990009141991991MA1101201999990REMMET051METAR SBLP 252100Z 22004KT 9999 FEW030 33/10 Q1012=
0072832880999992014092609154-13262-043408FM-16+044399999V0201601N003119999999Y999999999+02301+01501999999ADDMA1101601999990REMMET045SPECI SBLP 260915Z 16006KT CAVOK 23/15 Q1016=
0072832880999992014092610004-13262-043408FM-15+044399999V0201501N003619999999Y999999999+02301+01601999999ADDMA1101701999990REMMET045METAR SBLP 261000Z 15007KT CAVOK 23/16 Q1017=
0072832880999992014092611004-13262-043408FM-15+044399999V0200901N004119999999Y999999999+02601+01601999999ADDMA1101701999990REMMET045METAR SBLP 261100Z 09008KT CAVOK 26/16 Q1017=
0072832880999992014092612004-13262-043408FM-15+044399999V0200801N003619999999Y999999999+02901+01501999999ADDMA1101701999990REMMET045METAR SBLP 261200Z 08007KT CAVOK 29/15 Q1017=
0072832880999992014092613004-13262-043408FM-15+044399999V0200901N003119999999Y999999999+03101+01501999999ADDMA1101701999990REMMET045METAR SBLP 261300Z 09006KT CAVOK 31/15 Q1017=
0072832880999992014092614004-13262-043408FM-15+044399999V0200201N003619999999Y999999999+03301+01501999999ADDMA1101601999990REMMET045METAR SBLP 261400Z 02007KT CAVOK 33/15 Q1016=
0142832880999992014092615004-13262-043408FM-15+044399999V0201001N003119999999N009999199+03501+01201999999ADDGA1021+009141991GE19MSL   +99999+99999GF199999021990009141991991MA1101501999990REMMET051METAR SBLP 261500Z 10006KT 9999 FEW030 35/12 Q1015=
0142832880999992014092616004-13262-043408FM-15+044399999V0202001N002119999999N009999199+03501+01201999999ADDGA1021+009141991GE19MSL   +99999+99999GF199999021990009141991991MA1101301999990REMMET051METAR SBLP 261600Z 20004KT 9999 FEW030 35/12 Q1013=
0142832880999992014092617004-13262-043408FM-15+044399999V0202701N004119999999N009999199+03601+01301999999ADDGA1041+009141991GE19MSL   +99999+99999GF199999041990009141991991MA1101201999990REMMET051METAR SBLP 261700Z 27008KT 9999 SCT030 36/13 Q1012=
0142832880999992014092618004-13262-043408FM-15+044399999V0202701N003119999999N009999199+03601+01201999999ADDGA1041+009141991GE19MSL   +99999+99999GF199999041990009141991991MA1101101999990REMMET051METAR SBLP 261800Z 27006KT 9999 SCT030 36/12 Q1011=
0142832880999992014092619004-13262-043408FM-15+044399999V0202601N003119999999N009999199+03601+01101999999ADDGA1041+009141991GE19MSL   +99999+99999GF199999041990009141991991MA1101101999990REMMET051METAR SBLP 261900Z 26006KT 9999 SCT030 36/11 Q1011=
0142832880999992014092620004-13262-043408FM-15+044399999V0202701N003119999999N009999199+03501+01201999999ADDGA1021+009141991GE19MSL   +99999+99999GF199999021990009141991991MA1101101999990REMMET051METAR SBLP 262000Z 27006KT 9999 FEW030 35/12 Q1011=
0142832880999992014092621004-13262-043408FM-15+044399999V0202601N003119999999N009999199+03401+01201999999ADDGA1021+009141991GE19MSL   +99999+99999GF199999021990009141991991MA1101201999990REMMET051METAR SBLP 262100Z 26006KT 9999 FEW030 34/12 Q1012=
0072832880999992014092909154-13262-043408FM-16+044399999V0201801N001019999999Y999999999+02301+01401999999ADDMA1101601999990REMMET045SPECI SBLP 290915Z 18002KT CAVOK 23/14 Q1016=
0072832880999992014092910004-13262-043408FM-15+044399999V0201801N002119999999Y999999999+02501+01501999999ADDMA1101701999990REMMET045METAR SBLP 291000Z 18004KT CAVOK 25/15 Q1017=
0072832880999992014092911004-13262-043408FM-15+044399999V0201401N002619999999Y999999999+02801+01601999999ADDMA1101701999990REMMET045METAR SBLP 291100Z 14005KT CAVOK 28/16 Q1017=
0072832880999992014092912004-13262-043408FM-15+044399999V0209999C000019999999Y999999999+03001+01501999999ADDMA1101701999990REMMET045METAR SBLP 291200Z 00000KT CAVOK 30/15 Q1017=
0072832880999992014092913004-13262-043408FM-15+044399999V0201701N001019999999Y999999999+03101+01501999999ADDMA1101701999990REMMET045METAR SBLP 291300Z 17002KT CAVOK 31/15 Q1017=
0142832880999992014092914004-13262-043408FM-15+044399999V0201201N001519999999N009999199+03301+01401999999ADDGA1021+009141991GE19MSL   +99999+99999GF199999021990009141991991MA1101601999990REMMET051METAR SBLP 291400Z 12003KT 9999 FEW030 33/14 Q1016=
0142832880999992014092915004-13262-043408FM-15+044399999V0200601N002119999999N009999199+03501+01301999999ADDGA1021+009141991GE19MSL   +99999+99999GF199999021990009141991991MA1101501999990REMMET051METAR SBLP 291500Z 06004KT 9999 FEW030 35/13 Q1015=
0142832880999992014092916004-13262-043408FM-15+044399999V0203301N003619999999N009999199+03501+01101999999ADDGA1041+009141991GE19MSL   +99999+99999GF199999041990009141991991MA1101401999990REMMET051METAR SBLP 291600Z 33007KT 9999 SCT030 35/11 Q1014=
0142832880999992014092917004-13262-043408FM-15+044399999V0202801N004619999999N009999199+03701+01101999999ADDGA1041+009141991GE19MSL   +99999+99999GF199999041990009141991991MA1101201999990REMMET051METAR SBLP 291700Z 28009KT 9999 SCT030 37/11 Q1012=
0142832880999992014092918004-13262-043408FM-15+044399999V0202501N002619999999N009999199+03601+01101999999ADDGA1021+009141991GE19MSL   +99999+99999GF199999021990009141991991MA1101201999990REMMET051METAR SBLP 291800Z 25005KT 9999 FEW030 36/11 Q1012=
0142832880999992014092919004-13262-043408FM-15+044399999V0202301N004119999999N009999199+03701+01101999999ADDGA1021+009141991GE19MSL   +99999+99999GF199999021990009141991991MA1101101999990REMMET051METAR SBLP 291900Z 23008KT 9999 FEW030 37/11 Q1011=
0142832880999992014092920004-13262-043408FM-15+044399999V0202101N002119999999N009999199+03601+01101999999ADDGA1021+009141991GE19MSL   +99999+99999GF199999021990009141991991MA1101101999990REMMET051METAR SBLP 292000Z 21004KT 9999 FEW030 36/11 Q1011=
0142832880999992014092921004-13262-043408FM-15+044399999V0202401N001519999999N009999199+03501+01201999999ADDGA1021+009141991GE19MSL   +99999+99999GF199999021990009141991991MA1101201999990REMMET051METAR SBLP 292100Z 24003KT 9999 FEW030 35/12 Q1012=
0072832880999992014093009154-13262-043408FM-16+044399999V0209999C000019999999Y999999999+02301+01301999999ADDMA1101601999990REMMET045SPECI SBLP 300915Z 00000KT CAVOK 23/13 Q1016=
0072832880999992014093010004-13262-043408FM-15+044399999V0209999C000019999999Y999999999+02501+01401999999ADDMA1101601999990REMMET045METAR SBLP 301000Z 00000KT CAVOK 25/14 Q1016=
0072832880999992014093011004-13262-043408FM-15+044399999V0200301N001519999999Y999999999+02801+01401999999ADDMA1101701999990REMMET045METAR SBLP 301100Z 03003KT CAVOK 28/14 Q1017=
0072832880999992014093012004-13262-043408FM-15+044399999V0200201N003119999999Y999999999+03001+01401999999ADDMA1101801999990REMMET045METAR SBLP 301200Z 02006KT CAVOK 30/14 Q1018=
0072832880999992014093013004-13262-043408FM-15+044399999V0202601N002119999999Y999999999+03201+01401999999ADDMA1101701999990REMMET045METAR SBLP 301300Z 26004KT CAVOK 32/14 Q1017=
0072832880999992014093014004-13262-043408FM-15+044399999V0202701N001519999999Y999999999+03401+01201999999ADDMA1101601999990REMMET045METAR SBLP 301400Z 27003KT CAVOK 34/12 Q1016=
0072832880999992014093015004-13262-043408FM-15+044399999V0203301N002119999999Y999999999+03601+01301999999ADDMA1101501999990REMMET045METAR SBLP 301500Z 33004KT CAVOK 36/13 Q1015=
0142832880999992014093016004-13262-043408FM-15+044399999V0202701N001019999999N009999199+03601+01301999999ADDGA1041+009141991GE19MSL   +99999+99999GF199999041990009141991991MA1101401999990REMMET051METAR SBLP 301600Z 27002KT 9999 SCT030 36/13 Q1014=
0142832880999992014093017004-13262-043408FM-15+044399999V0200601N001019999999N009999199+03701+01301999999ADDGA1041+009141991GE19MSL   +99999+99999GF199999041990009141991991MA1101201999990REMMET051METAR SBLP 301700Z 06002KT 9999 SCT030 37/13 Q1012=
0142832880999992014093018004-13262-043408FM-15+044399999V0202301N002119999999N009999199+03701+01201999999ADDGA1041+009141991GE19MSL   +99999+99999GF199999041990009141991991MA1101101999990REMMET051METAR SBLP 301800Z 23004KT 9999 SCT030 37/12 Q1011=
0146832880999992014093019004-13262-043408FM-15+044399999V0202701N002119999999N009999199+03701+01201999999ADDGA1041+009141991GE19MSL   +99999+99999GF199999041990009141991991REMMET051METAR SBLP 301900Z 27004KT 9999 SCT030 37/12 Q1003=EQDQ011003  3APOA  
0142832880999992014093020004-13262-043408FM-15+044399999V0203301N003119999999N009999199+03701+01201999999ADDGA1021+009141991GE19MSL   +99999+99999GF199999021990009141991991MA1101101999990REMMET051METAR SBLP 302000Z 33006KT 9999 FEW030 37/12 Q1011=
0142832880999992014093021004-13262-043408FM-15+044399999V0209999C000019999999N009999199+03501+01201999999ADDGA1021+009141991GE19MSL   +99999+99999GF199999021990009141991991MA1101101999990REMMET051METAR SBLP 302100Z 00000KT 9999 FEW030 35/12 Q1011=
0072832880999992014100109154-13262-043408FM-16+044399999V0202401N001019999999Y999999999+02501+01601999999ADDMA1101401999990REMMET045SPECI SBLP 010915Z 24002KT CAVOK 25/16 Q1014=
0072832880999992014100110004-13262-043408FM-15+044399999V0209999C000019999999Y999999999+02601+01501999999ADDMA1101501999990REMMET045METAR SBLP 011000Z 00000KT CAVOK 26/15 Q1015=
0142832880999992014100111004-13262-043408FM-15+044399999V0202701N003119999999N009999199+02901+01401999999ADDGA1021+009141991GE19MSL   +99999+99999GF199999021990009141991991MA1101601999990REMMET051METAR SBLP 011100Z 27006KT 9999 FEW030 29/14 Q1016=
0142832880999992014100112004-13262-043408FM-15+044399999V0202501N002119999999N009999199+03101+01401999999ADDGA1021+009141991GE19MSL   +99999+99999GF199999021990009141991991MA1101601999990REMMET051METAR SBLP 011200Z 25004KT 9999 FEW030 31/14 Q1016=
0142832880999992014100113004-13262-043408FM-15+044399999V0201901N001019999999N009999199+03201+01501999999ADDGA1021+009141991GE19MSL   +99999+99999GF199999021990009141991991MA1101601999990REMMET051METAR SBLP 011300Z 19002KT 9999 FEW030 32/15 Q1016=
0142832880999992014100114004-13262-043408FM-15+044399999V0202401N002119999999N009999199+03501+01401999999ADDGA1021+009141991GE19MSL   +99999+99999GF199999021990009141991991MA1101501999990REMMET051METAR SBLP 011400Z 24004KT 9999 FEW030 35/14 Q1015=
0142832880999992014100115004-13262-043408FM-15+044399999V0202901N004119999999N009999199+03701+01401999999ADDGA1021+009141991GE19MSL   +99999+99999GF199999021990009141991991MA1101401999990REMMET051METAR SBLP 011500Z 29008KT 9999 FEW030 37/14 Q1014=
0142832880999992014100116004-13262-043408FM-15+044399999V0202901N005719999999N009999199+03701+01401999999ADDGA1021+009141991GE19MSL   +99999+99999GF199999021990009141991991MA1101301999990REMMET051METAR SBLP 011600Z 29011KT 9999 FEW030 37/14 Q1013=
0142832880999992014100117004-13262-043408FM-15+044399999V0202701N003119999999N009999199+03801+01401999999ADDGA1041+009141991GE19MSL   +99999+99999GF199999041990009141991991MA1101101999990REMMET051METAR SBLP 011700Z 27006KT 9999 SCT030 38/14 Q1011=
0142832880999992014100118004-13262-043408FM-15+044399999V0202101N003619999999N009999199+03901+01401999999ADDGA1041+009141991GE19MSL   +99999+99999GF199999041990009141991991MA1101001999990REMMET051METAR SBLP 011800Z 21007KT 9999 SCT030 39/14 Q1010=
0142832880999992014100119004-13262-043408FM-15+044399999V0201801N004119999999N009999199+03801+01201999999ADDGA1041+009141991GE19MSL   +99999+99999GF199999041990009141991991MA1101001999990REMMET051METAR SBLP 011900Z 18008KT 9999 SCT030 38/12 Q1010=
0142832880999992014100120004-13262-043408FM-15+044399999V0201901N003619999999N009999199+03801+01401999999ADDGA1041+009141991GE19MSL   +99999+99999GF199999041990009141991991MA1101001999990REMMET051METAR SBLP 012000Z 19007KT 9999 SCT030 38/14 Q1010=
0142832880999992014100121004-13262-043408FM-15+044399999V0201801N003619999999N009999199+03601+01401999999ADDGA1021+009141991GE19MSL   +99999+99999GF199999021990009141991991MA1101001999990REMMET051METAR SBLP 012100Z 18007KT 9999 FEW030 36/14 Q1010=
0165832880999992014100209154-13262-043408FM-16+044399999V0203001N00151030481CN009999199+02701+01601999999ADDGA1021+009141991GA2041+030481991GE19MSL   +99999+99999GF199999021990009141991991MA1101501999990REMMET058SPECI SBLP 020915Z 30003KT 9999 FEW030 SCT100 27/16 Q1015=
0142832880999992014100210004-13262-043408FM-15+044399999V0203301N002119999999N009999199+02901+01501999999ADDGA1021+009141991GE19MSL   +99999+99999GF199999021990009141991991MA1101501999990REMMET051METAR SBLP 021000Z 33004KT 9999 FEW030 29/15 Q1015=
0072832880999992014100211004-13262-043408FM-15+044399999V0200101N005119999999Y999999999+03001+01501999999ADDMA1101501999990REMMET045METAR SBLP 021100Z 01010KT CAVOK 30/15 Q1015=
0072832880999992014100212004-13262-043408FM-15+044399999V0203001N003619999999Y999999999+03201+01601999999ADDMA1101501999990REMMET045METAR SBLP 021200Z 30007KT CAVOK 32/16 Q1015=
0165832880999992014100213004-13262-043408FM-15+044399999V0200101N00311030481CN009999199+03401+01601999999ADDGA1021+009141991GA2041+030481991GE19MSL   +99999+99999GF199999021990009141991991MA1101601999990REMMET058METAR SBLP 021300Z 01006KT 9999 FEW030 SCT100 34/16 Q1016=
0142832880999992014100214004-13262-043408FM-15+044399999V0202401N001519999999N009999199+03501+01501999999ADDGA1021+009141991GE19MSL   +99999+99999GF199999021990009141991991MA1101501999990REMMET051METAR SBLP 021400Z 24003KT 9999 FEW030 35/15 Q1015=
0142832880999992014100215004-13262-043408FM-15+044399999V0203001N001510091419N009999199+03401+01501999999ADDGA1071+009141991GE19MSL   +99999+99999GF199999071990009141991991MA1101401999990REMMET051METAR SBLP 021500Z 30003KT 9999 BKN030 34/15 Q1014=
0165832880999992014100216004-13262-043408FM-15+044399999V0202101N001510091419N009999199+03401+01501999999ADDGA1071+009141991GA2041+030481991GE19MSL   +99999+99999GF199999071990009141991991MA1101301999990REMMET058METAR SBLP 021600Z 21003KT 9999 BKN030 SCT100 34/15 Q1013=
0142832880999992014100217004-13262-043408FM-15+044399999V0202601N004110091419N009999199+03401+01501999999ADDGA1071+009141991GE19MSL   +99999+99999GF199999071990009141991991MA1101201999990REMMET051METAR SBLP 021700Z 26008KT 9999 BKN030 34/15 Q1012=
0165832880999992014100218004-13262-043408FM-15+044399999V0202401N00261030481CN009999199+03501+01501999999ADDGA1041+009141991GA2041+030481991GE19MSL   +99999+99999GF199999041990009141991991MA1101201999990REMMET058METAR SBLP 021800Z 24005KT 9999 SCT030 SCT100 35/15 Q1012=
0165832880999992014100219004-13262-043408FM-15+044399999V0202301N00511030481CN009999199+03401+01501999999ADDGA1041+009141991GA2041+030481991GE19MSL   +99999+99999GF199999041990009141991991MA1101201999990REMMET058METAR SBLP 021900Z 23010KT 9999 SCT030 SCT100 34/15 Q1012=
0142832880999992014100220004-13262-043408FM-15+044399999V0202501N004119999999N009999199+03401+01601999999ADDGA1041+009141991GE19MSL   +99999+99999GF199999041990009141991991MA1101201999990REMMET051METAR SBLP 022000Z 25008KT 9999 SCT030 34/16 Q1012=
0142832880999992014100221004-13262-043408FM-15+044399999V0202501N002119999999N009999199+03301+01601999999ADDGA1041+009141991GE19MSL   +99999+99999GF199999041990009141991991MA1101201999990REMMET051METAR SBLP 022100Z 25004KT 9999 SCT030 33/16 Q1012=
0165832880999992014100309154-13262-043408FM-16+044399999V0202101N00511009141CN009999199+02501+01701999999ADDGA1021+006101991GA2041+009141991GE19MSL   +99999+99999GF199999021990006101991991MA1101701999990REMMET058SPECI SBLP 030915Z 21010KT 9999 FEW020 SCT030 25/17 Q1017=
0165832880999992014100310004-13262-043408FM-15+044399999V0202301N00511009141CN009999199+02501+01701999999ADDGA1021+006101991GA2041+009141991GE19MSL   +99999+99999GF199999021990006101991991MA1101801999990REMMET058METAR SBLP 031000Z 23010KT 9999 FEW020 SCT030 25/17 Q1018=
0142832880999992014100311004-13262-043408FM-15+044399999V0202101N010310091419N009999199+02601+01701999999ADDGA1071+009141991GE19MSL   +99999+99999GF199999071990009141991991MA1101901999990REMMET051METAR SBLP 031100Z 21020KT 9999 BKN030 26/17 Q1019=
0188832880999992014100312004-13262-043408FM-15+044399999V0202301N00511009141CN009999199+02601+01601999999ADDGA1021+006101991GA2041+009141991GA3071+030481991GE19MSL   +99999+99999GF199999021990006101991991MA1101901999990REMMET065METAR SBLP 031200Z 23010KT 9999 FEW020 SCT030 BKN100 26/16 Q1019=
0188832880999992014100313004-13262-043408FM-15+044399999V0202201N00511009141CN009999199+02701+01701999999ADDGA1041+006101991GA2041+009141991GA3071+030481991GE19MSL   +99999+99999GF199999041990006101991991MA1101901999990REMMET065METAR SBLP 031300Z 22010KT 9999 SCT020 SCT030 BKN100 27/17 Q1019=
0188832880999992014100314004-13262-043408FM-15+044399999V0202101N00411009141CN009999199+02901+01601999999ADDGA1041+006101991GA2041+009141991GA3071+030481991GE19MSL   +99999+99999GF199999041990006101991991MA1101801999990REMMET065METAR SBLP 031400Z 21008KT 9999 SCT020 SCT030 BKN100 29/16 Q1018=
0142832880999992014100315004-13262-043408FM-15+044399999V0202101N005119999999N009999199+02901+01601999999ADDGA1041+009141991GE19MSL   +99999+99999GF199999041990009141991991MA1101801999990REMMET051METAR SBLP 031500Z 21010KT 9999 SCT030 29/16 Q1018=
0142832880999992014100316004-13262-043408FM-15+044399999V0201501N007719999999N009999199+03101+01601999999ADDGA1041+009141991GE19MSL   +99999+99999GF199999041990009141991991MA1101601999990REMMET051METAR SBLP 031600Z 15015KT 9999 SCT030 31/16 Q1016=
0142832880999992014100317004-13262-043408FM-15+044399999V0201401N006719999999N009999199+03201+01501999999ADDGA1021+009141991GE19MSL   +99999+99999GF199999021990009141991991MA1101601999990REMMET051METAR SBLP 031700Z 14013KT 9999 FEW030 32/15 Q1016=
0142832880999992014100318004-13262-043408FM-15+044399999V0201301N006719999999N009999199+03201+01501999999ADDGA1021+009141991GE19MSL   +99999+99999GF199999021990009141991991MA1101501999990REMMET051METAR SBLP 031800Z 13013KT 9999 FEW030 32/15 Q1015=
0142832880999992014100319004-13262-043408FM-15+044399999V0201501N008219999999N009999199+03101+01401999999ADDGA1041+009141991GE19MSL   +99999+99999GF199999041990009141991991MA1101501999990REMMET051METAR SBLP 031900Z 15016KT 9999 SCT030 31/14 Q1015=
0142832880999992014100320004-13262-043408FM-15+044399999V0201301N007719999999N009999199+03001+01501999999ADDGA1041+009141991GE19MSL   +99999+99999GF199999041990009141991991MA1101501999990REMMET051METAR SBLP 032000Z 13015KT 9999 SCT030 30/15 Q1015=
0142832880999992014100321004-13262-043408FM-15+044399999V0201401N005119999999N009999199+02801+01501999999ADDGA1021+009141991GE19MSL   +99999+99999GF199999021990009141991991MA1101601999990REMMET051METAR SBLP 032100Z 14010KT 9999 FEW030 28/15 Q1016=
0072832880999992014100609154-13262-043408FM-16+044399999V0202001N002119999999Y999999999+01901+01101999999ADDMA1102001999990REMMET045SPECI SBLP 060915Z 20004KT CAVOK 19/11 Q1020=
0072832880999992014100610004-13262-043408FM-15+044399999V0201801N003119999999Y999999999+02001+01101999999ADDMA1102001999990REMMET045METAR SBLP 061000Z 18006KT CAVOK 20/11 Q1020=
0072832880999992014100611004-13262-043408FM-15+044399999V0201601N004619999999Y999999999+02201+01001999999ADDMA1102201999990REMMET045METAR SBLP 061100Z 16009KT CAVOK 22/10 Q1022=
0072832880999992014100612004-13262-043408FM-15+044399999V0200901N003619999999Y999999999+02401+01001999999ADDMA1102201999990REMMET045METAR SBLP 061200Z 09007KT CAVOK 24/10 Q1022=
0072832880999992014100613004-13262-043408FM-15+044399999V0202001N003119999999Y999999999+02601+00901999999ADDMA1102101999990REMMET045METAR SBLP 061300Z 20006KT CAVOK 26/09 Q1021=
0072832880999992014100614004-13262-043408FM-15+044399999V0201201N004119999999Y999999999+02801+00801999999ADDMA1102101999990REMMET045METAR SBLP 061400Z 12008KT CAVOK 28/08 Q1021=
0072832880999992014100615004-13262-043408FM-15+044399999V0201101N004619999999Y999999999+03001+00701999999ADDMA1101901999990REMMET045METAR SBLP 061500Z 11009KT CAVOK 30/07 Q1019=
0072832880999992014100616004-13262-043408FM-15+044399999V0202201N004119999999Y999999999+03001+00701999999ADDMA1101801999990REMMET045METAR SBLP 061600Z 22008KT CAVOK 30/07 Q1018=
0072832880999992014100617004-13262-043408FM-15+044399999V0202701N002119999999Y999999999+03101+00601999999ADDMA1101601999990REMMET045METAR SBLP 061700Z 27004KT CAVOK 31/06 Q1016=
0072832880999992014100618004-13262-043408FM-15+044399999V0202601N003119999999Y999999999+03201+00601999999ADDMA1101601999990REMMET045METAR SBLP 061800Z 26006KT CAVOK 32/06 Q1016=
0072832880999992014100619004-13262-043408FM-15+044399999V0202401N004119999999Y999999999+03201+00501999999ADDMA1101501999990REMMET045METAR SBLP 061900Z 24008KT CAVOK 32/05 Q1015=
0072832880999992014100620004-13262-043408FM-15+044399999V0202501N002119999999Y999999999+03101+00501999999ADDMA1101501999990REMMET045METAR SBLP 062000Z 25004KT CAVOK 31/05 Q1015=
0072832880999992014100621004-13262-043408FM-15+044399999V0202601N002119999999Y999999999+03001+00501999999ADDMA1101601999990REMMET045METAR SBLP 062100Z 26004KT CAVOK 30/05 Q1016=
0072832880999992014100709154-13262-043408FM-16+044399999V0202401N002619999999Y999999999+01901+01201999999ADDMA1101901999990REMMET045SPECI SBLP 070915Z 24005KT CAVOK 19/12 Q1019=
0072832880999992014100710004-13262-043408FM-15+044399999V0202501N002119999999Y999999999+02001+01201999999ADDMA1101901999990REMMET045METAR SBLP 071000Z 25004KT CAVOK 20/12 Q1019=
0072832880999992014100711004-13262-043408FM-15+044399999V0202001N002119999999Y999999999+02301+01201999999ADDMA1102001999990REMMET045METAR SBLP 071100Z 20004KT CAVOK 23/12 Q1020=
0072832880999992014100712004-13262-043408FM-15+044399999V0201801N002619999999Y999999999+02501+01201999999ADDMA1102001999990REMMET045METAR SBLP 071200Z 18005KT CAVOK 25/12 Q1020=
0072832880999992014100713004-13262-043408FM-15+044399999V0201901N003119999999Y999999999+02701+01201999999ADDMA1102001999990REMMET045METAR SBLP 071300Z 19006KT CAVOK 27/12 Q1020=
0142832880999992014100714004-13262-043408FM-15+044399999V0201601N001519999999N009999199+02801+01201999999ADDGA1021+009141991GE19MSL   +99999+99999GF199999021990009141991991MA1101901999990REMMET051METAR SBLP 071400Z 16003KT 9999 FEW030 28/12 Q1019=
0142832880999992014100715004-13262-043408FM-15+044399999V0200201N001019999999N009999199+02901+01101999999ADDGA1021+009141991GE19MSL   +99999+99999GF199999021990009141991991MA1101801999990REMMET051METAR SBLP 071500Z 02002KT 9999 FEW030 29/11 Q1018=
0142832880999992014100716004-13262-043408FM-15+044399999V0202101N002119999999N009999199+03001+01101999999ADDGA1021+009141991GE19MSL   +99999+99999GF199999021990009141991991MA1101701999990REMMET051METAR SBLP 071600Z 21004KT 9999 FEW030 30/11 Q1017=
0142832880999992014100717004-13262-043408FM-15+044399999V0203001N001519999999N009999199+03301+01001999999ADDGA1021+009141991GE19MSL   +99999+99999GF199999021990009141991991MA1101601999990REMMET051METAR SBLP 071700Z 30003KT 9999 FEW030 33/10 Q1016=
0142832880999992014100718004-13262-043408FM-15+044399999V0203201N002619999999N009999199+03301+00901999999ADDGA1041+009141991GE19MSL   +99999+99999GF199999041990009141991991MA1101501999990REMMET051METAR SBLP 071800Z 32005KT 9999 SCT030 33/09 Q1015=
0142832880999992014100719004-13262-043408FM-15+044399999V0202701N002119999999N009999199+03201+00901999999ADDGA1041+009141991GE19MSL   +99999+99999GF199999041990009141991991MA1101401999990REMMET051METAR SBLP 071900Z 27004KT 9999 SCT030 32/09 Q1014=
0142832880999992014100720004-13262-043408FM-15+044399999V0202801N001519999999N009999199+03201+00701999999ADDGA1021+009141991GE19MSL   +99999+99999GF199999021990009141991991MA1101401999990REMMET051METAR SBLP 072000Z 28003KT 9999 FEW030 32/07 Q1014=
0142832880999992014100721004-13262-043408FM-15+044399999V0202201N002619999999N009999199+03101+00901999999ADDGA1021+009141991GE19MSL   +99999+99999GF199999021990009141991991MA1101501999990REMMET051METAR SBLP 072100Z 22005KT 9999 FEW030 31/09 Q1015=
0072832880999992014100809154-13262-043408FM-16+044399999V0201301N002619999999Y999999999+02101+01101999999ADDMA1101601999990REMMET045SPECI SBLP 080915Z 13005KT CAVOK 21/11 Q1016=
0072832880999992014100810004-13262-043408FM-15+044399999V0201801N003119999999Y999999999+02201+01101999999ADDMA1101701999990REMMET045METAR SBLP 081000Z 18006KT CAVOK 22/11 Q1017=
0072832880999992014100811004-13262-043408FM-15+044399999V0201301N002619999999Y999999999+02501+01201999999ADDMA1101701999990REMMET045METAR SBLP 081100Z 13005KT CAVOK 25/12 Q1017=
0072832880999992014100812004-13262-043408FM-15+044399999V0201401N002119999999Y999999999+02701+01201999999ADDMA1101801999990REMMET045METAR SBLP 081200Z 14004KT CAVOK 27/12 Q1018=
0072832880999992014100813004-13262-043408FM-15+044399999V0200601N002119999999Y999999999+03101+01301999999ADDMA1101701999990REMMET045METAR SBLP 081300Z 06004KT CAVOK 31/13 Q1017=
0072832880999992014100814004-13262-043408FM-15+044399999V0201001N004619999999Y999999999+03101+01301999999ADDMA1101701999990REMMET045METAR SBLP 081400Z 10009KT CAVOK 31/13 Q1017=
0142832880999992014100815004-13262-043408FM-15+044399999V0201201N002119999999N009999199+03201+01201999999ADDGA1021+009141991GE19MSL   +99999+99999GF199999021990009141991991MA1101501999990REMMET051METAR SBLP 081500Z 12004KT 9999 FEW030 32/12 Q1015=
0142832880999992014100816004-13262-043408FM-15+044399999V0201601N001519999999N009999199+03301+01001999999ADDGA1041+009141991GE19MSL   +99999+99999GF199999041990009141991991MA1101401999990REMMET051METAR SBLP 081600Z 16003KT 9999 SCT030 33/10 Q1014=
0142832880999992014100817004-13262-043408FM-15+044399999V0202401N001019999999N009999199+03301+00901999999ADDGA1041+009141991GE19MSL   +99999+99999GF199999041990009141991991MA1101201999990REMMET051METAR SBLP 081700Z 24002KT 9999 SCT030 33/09 Q1012=
0142832880999992014100818004-13262-043408FM-15+044399999V0201601N002119999999N009999199+03401+00901999999ADDGA1041+009141991GE19MSL   +99999+99999GF199999041990009141991991MA1101101999990REMMET051METAR SBLP 081800Z 16004KT 9999 SCT030 34/09 Q1011=
0142832880999992014100819004-13262-043408FM-15+044399999V0202601N002610091419N009999199+03501+00901999999ADDGA1071+009141991GE19MSL   +99999+99999GF199999071990009141991991MA1101101999990REMMET051METAR SBLP 081900Z 26005KT 9999 BKN030 35/09 Q1011=
0142832880999992014100820004-13262-043408FM-15+044399999V0202301N003119999999N009999199+03501+00801999999ADDGA1041+009141991GE19MSL   +99999+99999GF199999041990009141991991MA1101101999990REMMET051METAR SBLP 082000Z 23006KT 9999 SCT030 35/08 Q1011=
0142832880999992014100821004-13262-043408FM-15+044399999V0202601N003119999999N009999199+03201+00901999999ADDGA1041+009141991GE19MSL   +99999+99999GF199999041990009141991991MA1101201999990REMMET051METAR SBLP 082100Z 26006KT 9999 SCT030 32/09 Q1012=
0072832880999992014100909154-13262-043408FM-16+044399999V0202201N002119999999Y999999999+02201+01401999999ADDMA1101501999990REMMET045SPECI SBLP 090915Z 22004KT CAVOK 22/14 Q1015=
0072832880999992014100910004-13262-043408FM-15+044399999V0202201N002619999999Y999999999+02401+01501999999ADDMA1101501999990REMMET045METAR SBLP 091000Z 22005KT CAVOK 24/15 Q1015=
0072832880999992014100911004-13262-043408FM-15+044399999V0202101N002119999999Y999999999+02601+01501999999ADDMA1101601999990REMMET045METAR SBLP 091100Z 21004KT CAVOK 26/15 Q1016=
0072832880999992014100912004-13262-043408FM-15+044399999V0201601N004119999999Y999999999+02801+01501999999ADDMA1101701999990REMMET045METAR SBLP 091200Z 16008KT CAVOK 28/15 Q1017=
0072832880999992014100913004-13262-043408FM-15+044399999V0201801N005119999999Y999999999+03001+01401999999ADDMA1101601999990REMMET045METAR SBLP 091300Z 18010KT CAVOK 30/14 Q1016=
0072832880999992014100914004-13262-043408FM-15+044399999V0202101N002119999999Y999999999+03201+01401999999ADDMA1101501999990REMMET045METAR SBLP 091400Z 21004KT CAVOK 32/14 Q1015=
0142832880999992014100915004-13262-043408FM-15+044399999V0201901N002619999999N009999199+03301+01301999999ADDGA1021+009141991GE19MSL   +99999+99999GF199999021990009141991991MA1101401999990REMMET051METAR SBLP 091500Z 19005KT 9999 FEW030 33/13 Q1014=
0142832880999992014100916004-13262-043408FM-15+044399999V0202401N002119999999N009999199+03401+01301999999ADDGA1021+009141991GE19MSL   +99999+99999GF199999021990009141991991MA1101301999990REMMET051METAR SBLP 091600Z 24004KT 9999 FEW030 34/13 Q1013=
0142832880999992014100917004-13262-043408FM-15+044399999V0202101N002619999999N009999199+03401+01101999999ADDGA1041+009141991GE19MSL   +99999+99999GF199999041990009141991991MA1101101999990REMMET051METAR SBLP 091700Z 21005KT 9999 SCT030 34/11 Q1011=
0142832880999992014100918004-13262-043408FM-15+044399999V0201801N003119999999N009999199+03501+01101999999ADDGA1041+009141991GE19MSL   +99999+99999GF199999041990009141991991MA1101101999990REMMET051METAR SBLP 091800Z 18006KT 9999 SCT030 35/11 Q1011=
0142832880999992014100919004-13262-043408FM-15+044399999V0201701N004610091419N009999199+03501+01001999999ADDGA1071+009141991GE19MSL   +99999+99999GF199999071990009141991991MA1101001999990REMMET051METAR SBLP 091900Z 17009KT 9999 BKN030 35/10 Q1010=
0142832880999992014100920004-13262-043408FM-15+044399999V0201501N002610091419N009999199+03401+01101999999ADDGA1071+009141991GE19MSL   +99999+99999GF199999071990009141991991MA1101101999990REMMET051METAR SBLP 092000Z 15005KT 9999 BKN030 34/11 Q1011=
0142832880999992014100921004-13262-043408FM-15+044399999V0201601N005110091419N009999199+03301+01101999999ADDGA1071+009141991GE19MSL   +99999+99999GF199999071990009141991991MA1101101999990REMMET051METAR SBLP 092100Z 16010KT 9999 BKN030 33/11 Q1011=
0072832880999992014101009154-13262-043408FM-16+044399999V0201901N001519999999Y999999999+02201+01501999999ADDMA1101601999990REMMET045SPECI SBLP 100915Z 19003KT CAVOK 22/15 Q1016=
0072832880999992014101010004-13262-043408FM-15+044399999V0209999C000019999999Y999999999+02301+01501999999ADDMA1101601999990REMMET045METAR SBLP 101000Z 00000KT CAVOK 23/15 Q1016=
0072832880999992014101011004-13262-043408FM-15+044399999V0200801N006219999999Y999999999+02601+01601999999ADDMA1101701999990REMMET045METAR SBLP 101100Z 08012KT CAVOK 26/16 Q1017=
0072832880999992014101012004-13262-043408FM-15+044399999V0200701N004619999999Y999999999+02801+01501999999ADDMA1101701999990REMMET045METAR SBLP 101200Z 07009KT CAVOK 28/15 Q1017=
0072832880999992014101013004-13262-043408FM-15+044399999V0201101N004119999999Y999999999+03101+01501999999ADDMA1101701999990REMMET045METAR SBLP 101300Z 11008KT CAVOK 31/15 Q1017=
0072832880999992014101014004-13262-043408FM-15+044399999V0201201N004619999999Y999999999+03301+01401999999ADDMA1101601999990REMMET045METAR SBLP 101400Z 12009KT CAVOK 33/14 Q1016=
0142832880999992014101015004-13262-043408FM-15+044399999V0201001N005119999999N009999199+03401+01301999999ADDGA1021+009141991GE19MSL   +99999+99999GF199999021990009141991991MA1101501999990REMMET051METAR SBLP 101500Z 10010KT 9999 FEW030 34/13 Q1015=
0142832880999992014101016004-13262-043408FM-15+044399999V0200601N001519999999N009999199+03501+01201999999ADDGA1021+009141991GE19MSL   +99999+99999GF199999021990009141991991MA1101401999990REMMET051METAR SBLP 101600Z 06003KT 9999 FEW030 35/12 Q1014=
0142832880999992014101017004-13262-043408FM-15+044399999V0200801N002619999999N009999199+03501+01101999999ADDGA1041+009141991GE19MSL   +99999+99999GF199999041990009141991991MA1101201999990REMMET051METAR SBLP 101700Z 08005KT 9999 SCT030 35/11 Q1012=
0136832880999992014101018004-13267-043417FM-12+044199999V0201401N0010100800199020000199+03521+01341100801ADDAA101999990AZ101061AZ201061GA1051+008001081GE19MSL   +99999+99999GF105991051990008001991991MA1999990096011MD1909990+0111REMSYN004BUFR
0142832880999992014101018004-13262-043408FM-15+044399999V0201701N002110091419N009999199+03501+01101999999ADDGA1071+009141991GE19MSL   +99999+99999GF199999071990009141991991MA1101201999990REMMET051METAR SBLP 101800Z 17004KT 9999 BKN030 35/11 Q1012=
0142832880999992014101019004-13262-043408FM-15+044399999V0201501N002610091419N009999199+03501+01001999999ADDGA1071+009141991GE19MSL   +99999+99999GF199999071990009141991991MA1101201999990REMMET051METAR SBLP 101900Z 15005KT 9999 BKN030 35/10 Q1012=
0165832880999992014101020004-13262-043408FM-15+044399999V0201801N00461030481CN009999199+03401+01101999999ADDGA1041+009141991GA2041+030481991GE19MSL   +99999+99999GF199999041990009141991991MA1101201999990REMMET058METAR SBLP 102000Z 18009KT 9999 SCT030 SCT100 34/11 Q1012=
0165832880999992014101021004-13262-043408FM-15+044399999V0201301N00671030481CN009999199+03201+01201999999ADDGA1021+009141991GA2041+030481991GE19MSL   +99999+99999GF199999021990009141991991MA1101201999990REMMET058METAR SBLP 102100Z 13013KT 9999 FEW030 SCT100 32/12 Q1012=
0072832880999992014101309154-13262-043408FM-16+044399999V0209999C000019999999Y999999999+02401+01601999999ADDMA1101701999990REMMET045SPECI SBLP 130915Z 00000KT CAVOK 24/16 Q1017=
0072832880999992014101310004-13262-043408FM-15+044399999V0201301N002619999999Y999999999+02601+01601999999ADDMA1101801999990REMMET045METAR SBLP 131000Z 13005KT CAVOK 26/16 Q1018=
0072832880999992014101311004-13262-043408FM-15+044399999V0201101N005119999999Y999999999+02801+01501999999ADDMA1101901999990REMMET045METAR SBLP 131100Z 11010KT CAVOK 28/15 Q1019=
0072832880999992014101312004-13262-043408FM-15+044399999V0201001N005119999999Y999999999+03001+01401999999ADDMA1101901999990REMMET045METAR SBLP 131200Z 10010KT CAVOK 30/14 Q1019=
0072832880999992014101313004-13262-043408FM-15+044399999V0200701N005719999999Y999999999+03101+01301999999ADDMA1101901999990REMMET045METAR SBLP 131300Z 07011KT CAVOK 31/13 Q1019=
0165832880999992014101314004-13262-043408FM-15+044399999V0200901N00571030481CN009999199+03201+01301999999ADDGA1021+009141991GA2041+030481991GE19MSL   +99999+99999GF199999021990009141991991MA1101801999990REMMET058METAR SBLP 131400Z 09011KT 9999 FEW030 SCT100 32/13 Q1018=
0165832880999992014101315004-13262-043408FM-15+044399999V0200901N00571030481CN009999199+03401+01201999999ADDGA1021+009141991GA2041+030481991GE19MSL   +99999+99999GF199999021990009141991991MA1101701999990REMMET058METAR SBLP 131500Z 09011KT 9999 FEW030 SCT100 34/12 Q1017=
0142832880999992014101316004-13262-043408FM-15+044399999V0201301N002119999999N009999199+03501+00801999999ADDGA1021+009141991GE19MSL   +99999+99999GF199999021990009141991991MA1101601999990REMMET051METAR SBLP 131600Z 13004KT 9999 FEW030 35/08 Q1016=
0142832880999992014101317004-13262-043408FM-15+044399999V0200901N003119999999N009999199+03601+00601999999ADDGA1021+009141991GE19MSL   +99999+99999GF199999021990009141991991MA1101401999990REMMET051METAR SBLP 131700Z 09006KT 9999 FEW030 36/06 Q1014=
0142832880999992014101318004-13262-043408FM-15+044399999V0200601N006219999999N009999199+03601+00501999999ADDGA1021+009141991GE19MSL   +99999+99999GF199999021990009141991991MA1101401999990REMMET051METAR SBLP 131800Z 06012KT 9999 FEW030 36/05 Q1014=
0072832880999992014101319004-13262-043408FM-15+044399999V0200901N005119999999Y999999999+03601+00601999999ADDMA1101301999990REMMET045METAR SBLP 131900Z 09010KT CAVOK 36/06 Q1013=
0072832880999992014101320004-13262-043408FM-15+044399999V0200601N006719999999Y999999999+03501+00601999999ADDMA1101301999990REMMET045METAR SBLP 132000Z 06013KT CAVOK 35/06 Q1013=
0072832880999992014101321004-13262-043408FM-15+044399999V0200401N003119999999Y999999999+03401+00701999999ADDMA1101401999990REMMET045METAR SBLP 132100Z 04006KT CAVOK 34/07 Q1014=
0165832880999992014101409154-13262-043408FM-16+044399999V0200701N00261030481CN009999199+02301+01401999999ADDGA1021+009141991GA2041+030481991GE19MSL   +99999+99999GF199999021990009141991991MA1101701999990REMMET058SPECI SBLP 140915Z 07005KT 9999 FEW030 SCT100 23/14 Q1017=
0142832880999992014101410004-13262-043408FM-15+044399999V0200601N002619999999N009999199+02501+01401999999ADDGA1021+009141991GE19MSL   +99999+99999GF199999021990009141991991MA1101801999990REMMET051METAR SBLP 141000Z 06005KT 9999 FEW030 25/14 Q1018=
0072832880999992014101412004-13262-043408FM-15+044399999V0200701N004619999999Y999999999+03001+01201999999ADDMA1101901999990REMMET045METAR SBLP 141200Z 07009KT CAVOK 30/12 Q1019=
0072832880999992014101413004-13262-043408FM-15+044399999V0200601N006219999999Y999999999+03201+01101999999ADDMA1101901999990REMMET045METAR SBLP 141300Z 06012KT CAVOK 32/11 Q1019=
0072832880999992014101414004-13262-043408FM-15+044399999V0200901N005119999999Y999999999+03401+00901999999ADDMA1102101999990REMMET045METAR SBLP 141400Z 09010KT CAVOK 34/09 Q1021=
0072832880999992014101415004-13262-043408FM-15+044399999V0200701N004619999999Y999999999+03501+00701999999ADDMA1101701999990REMMET045METAR SBLP 141500Z 07009KT CAVOK 35/07 Q1017=
0072832880999992014101416004-13262-043408FM-15+044399999V0201201N006219999999Y999999999+03601+00101999999ADDMA1101501999990REMMET045METAR SBLP 141600Z 12012KT CAVOK 36/01 Q1015=
0072832880999992014101417004-13262-043408FM-15+044399999V0200801N005719999999Y999999999+03701+00101999999ADDMA1101401999990REMMET045METAR SBLP 141700Z 08011KT CAVOK 37/01 Q1014=
0072832880999992014101418004-13262-043408FM-15+044399999V0200901N006719999999Y999999999+03701+00001999999ADDMA1101401999990REMMET045METAR SBLP 141800Z 09013KT CAVOK 37/00 Q1014=
0072832880999992014101419004-13262-043408FM-15+044399999V0200701N003619999999Y999999999+03701+00201999999ADDMA1101301999990REMMET045METAR SBLP 141900Z 07007KT CAVOK 37/02 Q1013=
0072832880999992014101420004-13262-043408FM-15+044399999V0200901N004119999999Y999999999+03601+00201999999ADDMA1101301999990REMMET045METAR SBLP 142000Z 09008KT CAVOK 36/02 Q1013=
0072832880999992014101421004-13262-043408FM-15+044399999V0209999C000019999999Y999999999+03501+00201999999ADDMA1101401999990REMMET045METAR SBLP 142100Z 00000KT CAVOK 35/02 Q1014=
0072832880999992014101509154-13262-043408FM-16+044399999V0209999C000019999999Y999999999+02201+01101999999ADDMA1101601999990REMMET045SPECI SBLP 150915Z 00000KT CAVOK 22/11 Q1016=
0072832880999992014101510004-13262-043408FM-15+044399999V0200201N002119999999Y999999999+02501+01101999999ADDMA1101601999990REMMET045METAR SBLP 151000Z 02004KT CAVOK 25/11 Q1016=
0072832880999992014101511004-13262-043408FM-15+044399999V0200301N002619999999Y999999999+02701+01101999999ADDMA1101701999990REMMET045METAR SBLP 151100Z 03005KT CAVOK 27/11 Q1017=
0072832880999992014101512004-13262-043408FM-15+044399999V0200501N002619999999Y999999999+03101+00901999999ADDMA1101701999990REMMET045METAR SBLP 151200Z 05005KT CAVOK 31/09 Q1017=
0072832880999992014101513004-13262-043408FM-15+044399999V0201201N002119999999Y999999999+03301+00801999999ADDMA1101701999990REMMET045METAR SBLP 151300Z 12004KT CAVOK 33/08 Q1017=
0072832880999992014101514004-13262-043408FM-15+044399999V0209999C000019999999Y999999999+03501+00701999999ADDMA1101601999990REMMET045METAR SBLP 151400Z 00000KT CAVOK 35/07 Q1016=
0072832880999992014101515004-13262-043408FM-15+044399999V0209999C000019999999Y999999999+03701+00401999999ADDMA1101501999990REMMET045METAR SBLP 151500Z 00000KT CAVOK 37/04 Q1015=
0072832880999992014101516004-13262-043408FM-15+044399999V0201601N005119999999Y999999999+03801+00201999999ADDMA1101401999990REMMET045METAR SBLP 151600Z 16010KT CAVOK 38/02 Q1014=
0072832880999992014101517004-13262-043408FM-15+044399999V0202601N002619999999Y999999999+03801+00101999999ADDMA1101301999990REMMET045METAR SBLP 151700Z 26005KT CAVOK 38/01 Q1013=
0072832880999992014101518004-13262-043408FM-15+044399999V0202101N005119999999Y999999999+04101+00401999999ADDMA1101201999990REMMET045METAR SBLP 151800Z 21010KT CAVOK 41/04 Q1012=
0072832880999992014101519004-13262-043408FM-15+044399999V0201801N005119999999Y999999999+03901+00101999999ADDMA1101201999990REMMET045METAR SBLP 151900Z 18010KT CAVOK 39/01 Q1012=
0072832880999992014101520004-13262-043408FM-15+044399999V0201901N004119999999Y999999999+03701+00001999999ADDMA1101301999990REMMET045METAR SBLP 152000Z 19008KT CAVOK 37/00 Q1013=
0073832880999992014101521004-13262-043408FM-15+044399999V0202101N005119999999Y999999999+03501-00101999999ADDMA1101401999990REMMET046METAR SBLP 152100Z 21010KT CAVOK 35/M01 Q1014=
0072832880999992014101609154-13262-043408FM-16+044399999V0200901N001519999999Y999999999+02201+00801999999ADDMA1101701999990REMMET045SPECI SBLP 160915Z 09003KT CAVOK 22/08 Q1017=
0142832880999992014101610004-13262-043408FM-15+044399999V0201001N002119999999N009999199+02401+00901999999ADDGA1021+009141991GE19MSL   +99999+99999GF199999021990009141991991MA1101701999990REMMET051METAR SBLP 161000Z 10004KT 9999 FEW030 24/09 Q1017=
0072832880999992014101611004-13262-043408FM-15+044399999V0200701N003619999999Y999999999+02801+00901999999ADDMA1101801999990REMMET045METAR SBLP 161100Z 07007KT CAVOK 28/09 Q1018=
0072832880999992014101612004-13262-043408FM-15+044399999V0200801N003119999999Y999999999+03001+00801999999ADDMA1101801999990REMMET045METAR SBLP 161200Z 08006KT CAVOK 30/08 Q1018=
0072832880999992014101613004-13262-043408FM-15+044399999V0200901N004119999999Y999999999+03201+00501999999ADDMA1101801999990REMMET045METAR SBLP 161300Z 09008KT CAVOK 32/05 Q1018=
0072832880999992014101614004-13262-043408FM-15+044399999V0201301N004119999999Y999999999+03401+00301999999ADDMA1101701999990REMMET045METAR SBLP 161400Z 13008KT CAVOK 34/03 Q1017=
0072832880999992014101615004-13262-043408FM-15+044399999V0201001N005119999999Y999999999+03501+00201999999ADDMA1101601999990REMMET045METAR SBLP 161500Z 10010KT CAVOK 35/02 Q1016=
0072832880999992014101616004-13262-043408FM-15+044399999V0202101N006219999999Y999999999+03601+00401999999ADDMA1101501999990REMMET045METAR SBLP 161600Z 21012KT CAVOK 36/04 Q1015=
0072832880999992014101617004-13262-043408FM-15+044399999V0201901N003119999999Y999999999+03601+00301999999ADDMA1101401999990REMMET045METAR SBLP 161700Z 19006KT CAVOK 36/03 Q1014=
0072832880999992014101618004-13262-043408FM-15+044399999V0202201N006219999999Y999999999+03701+00301999999ADDMA1101301999990REMMET045METAR SBLP 161800Z 22012KT CAVOK 37/03 Q1013=
0072832880999992014101619004-13262-043408FM-15+044399999V0202001N005119999999Y999999999+03601+00401999999ADDMA1101201999990REMMET045METAR SBLP 161900Z 20010KT CAVOK 36/04 Q1012=
0072832880999992014101620004-13262-043408FM-15+044399999V0201801N002619999999Y999999999+03601+00401999999ADDMA1101201999990REMMET045METAR SBLP 162000Z 18005KT CAVOK 36/04 Q1012=
0072832880999992014101621004-13262-043408FM-15+044399999V0202001N004119999999Y999999999+03401+00501999999ADDMA1101301999990REMMET045METAR SBLP 162100Z 20008KT CAVOK 34/05 Q1013=
0072832880999992014101709154-13262-043408FM-16+044399999V0201801N001519999999Y999999999+02201+01101999999ADDMA1101801999990REMMET045SPECI SBLP 170915Z 18003KT CAVOK 22/11 Q1018=
0072832880999992014101710004-13262-043408FM-15+044399999V0200701N003619999999Y999999999+02501+01201999999ADDMA1101801999990REMMET045METAR SBLP 171000Z 07007KT CAVOK 25/12 Q1018=
0072832880999992014101711004-13262-043408FM-15+044399999V0201401N003119999999Y999999999+02701+01201999999ADDMA1101801999990REMMET045METAR SBLP 171100Z 14006KT CAVOK 27/12 Q1018=
0072832880999992014101713004-13262-043408FM-15+044399999V0201401N001519999999Y999999999+03001+01101999999ADDMA1101701999990REMMET045METAR SBLP 171300Z 14003KT CAVOK 30/11 Q1017=
0072832880999992014101714004-13262-043408FM-15+044399999V0209999C000019999999Y999999999+03201+01001999999ADDMA1101601999990REMMET045METAR SBLP 171400Z 00000KT CAVOK 32/10 Q1016=
0072832880999992014101715004-13262-043408FM-15+044399999V0202201N003619999999Y999999999+03401+00701999999ADDMA1101501999990REMMET045METAR SBLP 171500Z 22007KT CAVOK 34/07 Q1015=
0072832880999992014101716004-13262-043408FM-15+044399999V0200701N004619999999Y999999999+03501+00601999999ADDMA1101301999990REMMET045METAR SBLP 171600Z 07009KT CAVOK 35/06 Q1013=
0072832880999992014101717004-13262-043408FM-15+044399999V0202001N001519999999Y999999999+03601+00501999999ADDMA1101201999990REMMET045METAR SBLP 171700Z 20003KT CAVOK 36/05 Q1012=
0072832880999992014101718004-13262-043408FM-15+044399999V0200901N002119999999Y999999999+03701+00401999999ADDMA1101101999990REMMET045METAR SBLP 171800Z 09004KT CAVOK 37/04 Q1011=
0072832880999992014101719004-13262-043408FM-15+044399999V0200601N001519999999Y999999999+03701+00401999999ADDMA1101101999990REMMET045METAR SBLP 171900Z 06003KT CAVOK 37/04 Q1011=
0072832880999992014101720004-13262-043408FM-15+044399999V0203301N002619999999Y999999999+03601+00701999999ADDMA1101101999990REMMET045METAR SBLP 172000Z 33005KT CAVOK 36/07 Q1011=
0072832880999992014101721004-13262-043408FM-15+044399999V0200301N003619999999Y999999999+03401+00701999999ADDMA1101101999990REMMET045METAR SBLP 172100Z 03007KT CAVOK 34/07 Q1011=
0072832880999992014102009154-13262-043408FM-16+044399999V0209999C000019999999Y999999999+02701+01301999999ADDMA1101301999990REMMET045SPECI SBLP 200915Z 00000KT CAVOK 27/13 Q1013=
0072832880999992014102010004-13262-043408FM-15+044399999V0203401N001519999999Y999999999+02901+01501999999ADDMA1101401999990REMMET045METAR SBLP 201000Z 34003KT CAVOK 29/15 Q1014=
0072832880999992014102011004-13262-043408FM-15+044399999V0203301N002119999999Y999999999+03001+01701999999ADDMA1101401999990REMMET045METAR SBLP 201100Z 33004KT CAVOK 30/17 Q1014=
0072832880999992014102012004-13262-043408FM-15+044399999V0200101N002619999999Y999999999+03201+01601999999ADDMA1101401999990REMMET045METAR SBLP 201200Z 01005KT CAVOK 32/16 Q1014=
0072832880999992014102013004-13262-043408FM-15+044399999V0203501N005119999999Y999999999+03401+01501999999ADDMA1101401999990REMMET045METAR SBLP 201300Z 35010KT CAVOK 34/15 Q1014=
0072832880999992014102014004-13262-043408FM-15+044399999V0200201N004119999999Y999999999+03501+01501999999ADDMA1101301999990REMMET045METAR SBLP 201400Z 02008KT CAVOK 35/15 Q1013=
0142832880999992014102015004-13262-043408FM-15+044399999V0200301N003119999999N009999199+03601+01501999999ADDGA1021+009141991GE19MSL   +99999+99999GF199999021990009141991991MA1101201999990REMMET051METAR SBLP 201500Z 03006KT 9999 FEW030 36/15 Q1012=
0142832880999992014102016004-13262-043408FM-15+044399999V0209999C000019999999N009999199+03801+01401999999ADDGA1041+009141991GE19MSL   +99999+99999GF199999041990009141991991MA1101001999990REMMET051METAR SBLP 201600Z 00000KT 9999 SCT030 38/14 Q1010=
0142832880999992014102017004-13262-043408FM-15+044399999V0209999C000019999999N009999199+03801+01301999999ADDGA1041+009141991GE19MSL   +99999+99999GF199999041990009141991991MA1100901999990REMMET051METAR SBLP 201700Z 00000KT 9999 SCT030 38/13 Q1009=
0142832880999992014102018004-13262-043408FM-15+044399999V0209999C000019999999N009999199+03801+01301999999ADDGA1041+009141991GE19MSL   +99999+99999GF199999041990009141991991MA1100801999990REMMET051METAR SBLP 201800Z 00000KT 9999 SCT030 38/13 Q1008=
0142832880999992014102019004-13262-043408FM-15+044399999V0209999C000019999999N009999199+03901+01301999999ADDGA1041+009141991GE19MSL   +99999+99999GF199999041990009141991991MA1100701999990REMMET051METAR SBLP 201900Z 00000KT 9999 SCT030 39/13 Q1007=
0142832880999992014102020004-13262-043408FM-15+044399999V0209999C000019999999N009999199+03801+01201999999ADDGA1041+009141991GE19MSL   +99999+99999GF199999041990009141991991MA1100701999990REMMET051METAR SBLP 202000Z 00000KT 9999 SCT030 38/12 Q1007=
0142832880999992014102109154-13262-043408FM-16+044399999V0209999C000019999999N009999199+02801+01501999999ADDGA1041+009141991GE19MSL   +99999+99999GF199999041990009141991991MA1101201999990REMMET051SPECI SBLP 210915Z 00000KT 9999 SCT030 28/15 Q1012=
0142832880999992014102110004-13262-043408FM-15+044399999V0209999C000019999999N009999199+02901+01501999999ADDGA1041+009141991GE19MSL   +99999+99999GF199999041990009141991991MA1101301999990REMMET051METAR SBLP 211000Z 00000KT 9999 SCT030 29/15 Q1013=
0165832880999992014102111004-13262-043408FM-15+044399999V0202101N00101030481CN009999199+03001+01601999999ADDGA1021+009141991GA2041+030481991GE19MSL   +99999+99999GF199999021990009141991991MA1101401999990REMMET058METAR SBLP 211100Z 21002KT 9999 FEW030 SCT100 30/16 Q1014=
0165832880999992014102112004-13262-043408FM-15+044399999V0202401N00311009141CN009999199+02701+01801999999ADDGA1021+006101991GA2041+009141991GE19MSL   +99999+99999GF199999021990006101991991MA1101601999990REMMET058METAR SBLP 211200Z 24006KT 9999 FEW020 SCT030 27/18 Q1016=
0165832880999992014102113004-13262-043408FM-15+044399999V0202101N01031030481CN009999199+02801+01801999999ADDGA1021+006101991GA2041+030481991GE19MSL   +99999+99999GF199999021990006101991991MA1101601999990REMMET058METAR SBLP 211300Z 21020KT 9999 FEW020 SCT100 28/18 Q1016=
0165832880999992014102114004-13262-043408FM-15+044399999V0201901N00931009141CN009999199+02801+01901999999ADDGA1021+006101991GA2041+009141991GE19MSL   +99999+99999GF199999021990006101991991MA1101601999990REMMET058METAR SBLP 211400Z 19018KT 9999 FEW020 SCT030 28/19 Q1016=
0142832880999992014102115004-13262-043408FM-15+044399999V0202101N006219999999N009999199+03101+01801999999ADDGA1041+009141991GE19MSL   +99999+99999GF199999041990009141991991MA1101501999990REMMET051METAR SBLP 211500Z 21012KT 9999 SCT030 31/18 Q1015=
0142832880999992014102116004-13262-043408FM-15+044399999V0201101N006219999999N009999199+03401+01701999999ADDGA1041+009141991GE19MSL   +99999+99999GF199999041990009141991991MA1101301999990REMMET051METAR SBLP 211600Z 11012KT 9999 SCT030 34/17 Q1013=
0165832880999992014102117004-13262-043408FM-15+044399999V0201201N00311030481CN009999199+03501+01801999999ADDGA1021+009141991GA2041+030481991GE19MSL   +99999+99999GF199999021990009141991991MA1101201999990REMMET058METAR SBLP 211700Z 12006KT 9999 FEW030 SCT100 35/18 Q1012=
0165832880999992014102118004-13262-043408FM-15+044399999V0201501N00511030481CN009999199+03601+01601999999ADDGA1021+009141991GA2041+030481991GE19MSL   +99999+99999GF199999021990009141991991MA1101101999990REMMET058METAR SBLP 211800Z 15010KT 9999 FEW030 SCT100 36/16 Q1011=
0165832880999992014102119004-13262-043408FM-15+044399999V0202001N00511030481CN009999199+03501+01601999999ADDGA1021+009141991GA2041+030481991GE19MSL   +99999+99999GF199999021990009141991991MA1101101999990REMMET058METAR SBLP 211900Z 20010KT 9999 FEW030 SCT100 35/16 Q1011=
0165832880999992014102120004-13262-043408FM-15+044399999V0201801N00511030481CN009999199+03401+01501999999ADDGA1021+009141991GA2041+030481991GE19MSL   +99999+99999GF199999021990009141991991MA1101101999990REMMET058METAR SBLP 212000Z 18010KT 9999 FEW030 SCT100 34/15 Q1011=
0142832880999992014102121004-13262-043408FM-15+044399999V0201301N004119999999N009999199+03301+01401999999ADDGA1021+009141991GE19MSL   +99999+99999GF199999021990009141991991MA1101101999990REMMET051METAR SBLP 212100Z 13008KT 9999 FEW030 33/14 Q1011=
0072832880999992014102209154-13262-043408FM-16+044399999V0202001N002619999999Y999999999+02401+01701999999ADDMA1101501999990REMMET045SPECI SBLP 220915Z 20005KT CAVOK 24/17 Q1015=
0072832880999992014102210004-13262-043408FM-15+044399999V0201701N002119999999Y999999999+02601+01701999999ADDMA1101601999990REMMET045METAR SBLP 221000Z 17004KT CAVOK 26/17 Q1016=
0142832880999992014102211004-13262-043408FM-15+044399999V0201201N003119999999N009999199+02901+01701999999ADDGA1021+009141991GE19MSL   +99999+99999GF199999021990009141991991MA1101701999990REMMET051METAR SBLP 221100Z 12006KT 9999 FEW030 29/17 Q1017=
0142832880999992014102212004-13262-043408FM-15+044399999V0201001N004119999999N009999199+03101+01501999999ADDGA1021+009141991GE19MSL   +99999+99999GF199999021990009141991991MA1101701999990REMMET051METAR SBLP 221200Z 10008KT 9999 FEW030 31/15 Q1017=
0142832880999992014102213004-13262-043408FM-15+044399999V0201201N003119999999N009999199+03201+01601999999ADDGA1041+009141991GE19MSL   +99999+99999GF199999041990009141991991MA1101701999990REMMET051METAR SBLP 221300Z 12006KT 9999 SCT030 32/16 Q1017=
0142832880999992014102214004-13262-043408FM-15+044399999V0201601N003619999999N009999199+03401+01401999999ADDGA1041+009141991GE19MSL   +99999+99999GF199999041990009141991991MA1101701999990REMMET051METAR SBLP 221400Z 16007KT 9999 SCT030 34/14 Q1017=
0142832880999992014102215004-13262-043408FM-15+044399999V0201301N003119999999N009999199+03401+01601999999ADDGA1041+009141991GE19MSL   +99999+99999GF199999041990009141991991MA1101601999990REMMET051METAR SBLP 221500Z 13006KT 9999 SCT030 34/16 Q1016=
0165832880999992014102216004-13262-043408FM-15+044399999V0201701N00101009141CN009999199+03401+01401999999ADDGA1021+006101991GA2041+009141991GE19MSL   +99999+99999GF199999021990006101991991MA1101401999990REMMET058METAR SBLP 221600Z 17002KT 9999 FEW020 SCT030 34/14 Q1014=
0142832880999992014102217004-13262-043408FM-15+044399999V0201801N003119999999N009999199+03401+01301999999ADDGA1041+009141991GE19MSL   +99999+99999GF199999041990009141991991MA1101301999990REMMET051METAR SBLP 221700Z 18006KT 9999 SCT030 34/13 Q1013=
0165832880999992014102218004-13262-043408FM-15+044399999V0201401N00361009141CN009999199+03401+01101999999ADDGA1021+006101991GA2041+009141991GE19MSL   +99999+99999GF199999021990006101991991MA1101201999990REMMET058METAR SBLP 221800Z 14007KT 9999 FEW020 SCT030 34/11 Q1012=
0142832880999992014102219004-13262-043408FM-15+044399999V0201801N003619999999N009999199+03401+01201999999ADDGA1041+009141991GE19MSL   +99999+99999GF199999041990009141991991MA1101201999990REMMET051METAR SBLP 221900Z 18007KT 9999 SCT030 34/12 Q1012=
0142832880999992014102220004-13262-043408FM-15+044399999V0202001N004119999999N009999199+03401+01201999999ADDGA1041+009141991GE19MSL   +99999+99999GF199999041990009141991991MA1101201999990REMMET051METAR SBLP 222000Z 20008KT 9999 SCT030 34/12 Q1012=
0142832880999992014102221004-13262-043408FM-15+044399999V0202101N003619999999N009999199+03201+01101999999ADDGA1021+009141991GE19MSL   +99999+99999GF199999021990009141991991MA1101301999990REMMET051METAR SBLP 222100Z 21007KT 9999 FEW030 32/11 Q1013=
0072832880999992014102309154-13262-043408FM-16+044399999V0202301N001519999999Y999999999+02201+01601999999ADDMA1101701999990REMMET045SPECI SBLP 230915Z 23003KT CAVOK 22/16 Q1017=
0072832880999992014102310004-13262-043408FM-15+044399999V0201901N003619999999Y999999999+02501+01601999999ADDMA1101801999990REMMET045METAR SBLP 231000Z 19007KT CAVOK 25/16 Q1018=
0142832880999992014102311004-13262-043408FM-15+044399999V0201501N003619999999N009999199+02701+01601999999ADDGA1021+009141991GE19MSL   +99999+99999GF199999021990009141991991MA1101801999990REMMET051METAR SBLP 231100Z 15007KT 9999 FEW030 27/16 Q1018=
0142832880999992014102312004-13262-043408FM-15+044399999V0201601N004119999999N009999199+02801+01601999999ADDGA1021+009141991GE19MSL   +99999+99999GF199999021990009141991991MA1101801999990REMMET051METAR SBLP 231200Z 16008KT 9999 FEW030 28/16 Q1018=
0142832880999992014102313004-13262-043408FM-15+044399999V0201701N003619999999N009999199+03101+01501999999ADDGA1021+009141991GE19MSL   +99999+99999GF199999021990009141991991MA1101801999990REMMET051METAR SBLP 231300Z 17007KT 9999 FEW030 31/15 Q1018=
0142832880999992014102314004-13262-043408FM-15+044399999V0201301N005119999999N009999199+03201+01501999999ADDGA1021+009141991GE19MSL   +99999+99999GF199999021990009141991991MA1101701999990REMMET051METAR SBLP 231400Z 13010KT 9999 FEW030 32/15 Q1017=
0142832880999992014102315004-13262-043408FM-15+044399999V0201701N003619999999N009999199+03201+01501999999ADDGA1041+009141991GE19MSL   +99999+99999GF199999041990009141991991MA1101601999990REMMET051METAR SBLP 231500Z 17007KT 9999 SCT030 32/15 Q1016=
0142832880999992014102316004-13262-043408FM-15+044399999V0201501N005119999999N009999199+03501+01401999999ADDGA1041+009141991GE19MSL   +99999+99999GF199999041990009141991991MA1101401999990REMMET051METAR SBLP 231600Z 15010KT 9999 SCT030 35/14 Q1014=
0142832880999992014102317004-13262-043408FM-15+044399999V0201301N005119999999N009999199+03501+01401999999ADDGA1041+009141991GE19MSL   +99999+99999GF199999041990009141991991MA1101301999990REMMET051METAR SBLP 231700Z 13010KT 9999 SCT030 35/14 Q1013=
0142832880999992014102318004-13262-043408FM-15+044399999V0201701N004119999999N009999199+03701+01301999999ADDGA1041+009141991GE19MSL   +99999+99999GF199999041990009141991991MA1101201999990REMMET051METAR SBLP 231800Z 17008KT 9999 SCT030 37/13 Q1012=
0142832880999992014102319004-13262-043408FM-15+044399999V0201801N003119999999N009999199+03601+01301999999ADDGA1021+009141991GE19MSL   +99999+99999GF199999021990009141991991MA1101201999990REMMET051METAR SBLP 231900Z 18006KT 9999 FEW030 36/13 Q1012=
0142832880999992014102320004-13262-043408FM-15+044399999V0201601N004119999999N009999199+03501+01401999999ADDGA1021+009141991GE19MSL   +99999+99999GF199999021990009141991991MA1101201999990REMMET051METAR SBLP 232000Z 16008KT 9999 FEW030 35/14 Q1012=
0142832880999992014102321004-13262-043408FM-15+044399999V0201701N005119999999N009999199+03301+01501999999ADDGA1021+009141991GE19MSL   +99999+99999GF199999021990009141991991MA1101201999990REMMET051METAR SBLP 232100Z 17010KT 9999 FEW030 33/15 Q1012=
0072832880999992014102409154-13262-043408FM-16+044399999V0209999C000019999999Y999999999+02001+01701999999ADDMA1101501999990REMMET045SPECI SBLP 240915Z 00000KT CAVOK 20/17 Q1015=
0072832880999992014102410004-13262-043408FM-15+044399999V0201901N002119999999Y999999999+02401+01601999999ADDMA1101601999990REMMET045METAR SBLP 241000Z 19004KT CAVOK 24/16 Q1016=
0072832880999992014102411004-13262-043408FM-15+044399999V0201201N003119999999Y999999999+02801+01401999999ADDMA1101701999990REMMET045METAR SBLP 241100Z 12006KT CAVOK 28/14 Q1017=
0072832880999992014102412004-13262-043408FM-15+044399999V0201101N003619999999Y999999999+03001+01301999999ADDMA1101701999990REMMET045METAR SBLP 241200Z 11007KT CAVOK 30/13 Q1017=
0072832880999992014102413004-13262-043408FM-15+044399999V0201201N003119999999Y999999999+03201+01201999999ADDMA1101701999990REMMET045METAR SBLP 241300Z 12006KT CAVOK 32/12 Q1017=
0142832880999992014102414004-13262-043408FM-15+044399999V0200601N003119999999N009999199+03301+01201999999ADDGA1021+009141991GE19MSL   +99999+99999GF199999021990009141991991MA1101601999990REMMET051METAR SBLP 241400Z 06006KT 9999 FEW030 33/12 Q1016=
0142832880999992014102415004-13262-043408FM-15+044399999V0201201N005119999999N009999199+03501+01301999999ADDGA1021+009141991GE19MSL   +99999+99999GF199999021990009141991991MA1101501999990REMMET051METAR SBLP 241500Z 12010KT 9999 FEW030 35/13 Q1015=
0142832880999992014102416004-13262-043408FM-15+044399999V0201701N003619999999N009999199+03401+01101999999ADDGA1021+009141991GE19MSL   +99999+99999GF199999021990009141991991MA1101301999990REMMET051METAR SBLP 241600Z 17007KT 9999 FEW030 34/11 Q1013=
0142832880999992014102417004-13262-043408FM-15+044399999V0200901N002119999999N009999199+03501+00901999999ADDGA1021+009141991GE19MSL   +99999+99999GF199999021990009141991991MA1101201999990REMMET051METAR SBLP 241700Z 09004KT 9999 FEW030 35/09 Q1012=
0142832880999992014102418004-13262-043408FM-15+044399999V0201701N002119999999N009999199+03601+01001999999ADDGA1021+009141991GE19MSL   +99999+99999GF199999021990009141991991MA1101101999990REMMET051METAR SBLP 241800Z 17004KT 9999 FEW030 36/10 Q1011=
0142832880999992014102419004-13262-043408FM-15+044399999V0201401N002619999999N009999199+03601+01001999999ADDGA1021+009141991GE19MSL   +99999+99999GF199999021990009141991991MA1101001999990REMMET051METAR SBLP 241900Z 14005KT 9999 FEW030 36/10 Q1010=
0142832880999992014102420004-13262-043408FM-15+044399999V0200901N004119999999N009999199+03501+00901999999ADDGA1041+009141991GE19MSL   +99999+99999GF199999041990009141991991MA1101001999990REMMET051METAR SBLP 242000Z 09008KT 9999 SCT030 35/09 Q1010=
0142832880999992014102421004-13262-043408FM-15+044399999V0201001N003119999999N009999199+03401+00801999999ADDGA1021+009141991GE19MSL   +99999+99999GF199999021990009141991991MA1101001999990REMMET051METAR SBLP 242100Z 10006KT 9999 FEW030 34/08 Q1010=
0142832880999992014102709154-13262-043408FM-16+044399999V0202401N004119999999N009999199+02301+02001999999ADDGA1021+006101991GE19MSL   +99999+99999GF199999021990006101991991MA1101601999990REMMET051SPECI SBLP 270915Z 24008KT 9999 FEW020 23/20 Q1016=
0142832880999992014102710004-13262-043408FM-15+044399999V0202401N005119999999N009999199+02401+02001999999ADDGA1021+006101991GE19MSL   +99999+99999GF199999021990006101991991MA1101601999990REMMET051METAR SBLP 271000Z 24010KT 9999 FEW020 24/20 Q1016=
0165832880999992014102711004-13262-043408FM-15+044399999V0202501N00511030481CN009999199+02501+02001999999ADDGA1041+009141991GA2041+030481991GE19MSL   +99999+99999GF199999041990009141991991MA1101601999990REMMET058METAR SBLP 271100Z 25010KT 9999 SCT030 SCT100 25/20 Q1016=
0165832880999992014102712004-13262-043408FM-15+044399999V0202601N004110304819N009999199+02601+02001999999ADDGA1021+009141991GA2071+030481991GE19MSL   +99999+99999GF199999021990009141991991MA1101601999990REMMET058METAR SBLP 271200Z 26008KT 9999 FEW030 BKN100 26/20 Q1016=
0165832880999992014102713004-13262-043408FM-15+044399999V0202401N002610304819N009999199+02901+01901999999ADDGA1041+009141991GA2071+030481991GE19MSL   +99999+99999GF199999041990009141991991MA1101601999990REMMET058METAR SBLP 271300Z 24005KT 9999 SCT030 BKN100 29/19 Q1016=
0165832880999992014102714004-13262-043408FM-15+044399999V0202401N002110304819N009999199+03001+01801999999ADDGA1041+009141991GA2071+030481991GE19MSL   +99999+99999GF199999041990009141991991MA1101501999990REMMET058METAR SBLP 271400Z 24004KT 9999 SCT030 BKN100 30/18 Q1015=
0165832880999992014102715004-13262-043408FM-15+044399999V0202801N003610304819N009999199+03001+01901999999ADDGA1021+009141991GA2071+030481991GE19MSL   +99999+99999GF199999021990009141991991MA1101401999990REMMET058METAR SBLP 271500Z 28007KT 9999 FEW030 BKN100 30/19 Q1014=
0165832880999992014102716004-13262-043408FM-15+044399999V0202101N004610304819N009999199+03201+01801999999ADDGA1021+009141991GA2071+030481991GE19MSL   +99999+99999GF199999021990009141991991MA1101301999990REMMET058METAR SBLP 271600Z 21009KT 9999 FEW030 BKN100 32/18 Q1013=
0165832880999992014102717004-13262-043408FM-15+044399999V0202201N005110304819N009999199+03201+01701999999ADDGA1021+009141991GA2071+030481991GE19MSL   +99999+99999GF199999021990009141991991MA1101201999990REMMET058METAR SBLP 271700Z 22010KT 9999 FEW030 BKN100 32/17 Q1012=
0165832880999992014102718004-13262-043408FM-15+044399999V0202301N004110304819N009999199+03301+01801999999ADDGA1021+009141991GA2071+030481991GE19MSL   +99999+99999GF199999021990009141991991MA1101201999990REMMET058METAR SBLP 271800Z 23008KT 9999 FEW030 BKN100 33/18 Q1012=
0165832880999992014102719004-13262-043408FM-15+044399999V0202201N006210304819N009999199+03201+01801999999ADDGA1021+009141991GA2071+030481991GE19MSL   +99999+99999GF199999021990009141991991MA1101201999990REMMET058METAR SBLP 271900Z 22012KT 9999 FEW030 BKN100 32/18 Q1012=
0165832880999992014102720004-13262-043408FM-15+044399999V0202001N004110304819N009999199+03101+01801999999ADDGA1021+009141991GA2071+030481991GE19MSL   +99999+99999GF199999021990009141991991MA1101201999990REMMET058METAR SBLP 272000Z 20008KT 9999 FEW030 BKN100 31/18 Q1012=
0165832880999992014102721004-13262-043408FM-15+044399999V0201901N005110304819N009999199+02901+01901999999ADDGA1021+009141991GA2071+030481991GE19MSL   +99999+99999GF199999021990009141991991MA1101301999990REMMET058METAR SBLP 272100Z 19010KT 9999 FEW030 BKN100 29/19 Q1013=
0165832880999992014102809154-13262-043408FM-16+044399999V0201801N00151030481CN009999199+02401+01801999999ADDGA1021+009141991GA2041+030481991GE19MSL   +99999+99999GF199999021990009141991991MA1101401999990REMMET058SPECI SBLP 280915Z 18003KT 9999 FEW030 SCT100 24/18 Q1014=
0142832880999992014102810004-13262-043408FM-15+044399999V0202201N001519999999N009999199+02501+01801999999ADDGA1021+009141991GE19MSL   +99999+99999GF199999021990009141991991MA1101501999990REMMET051METAR SBLP 281000Z 22003KT 9999 FEW030 25/18 Q1015=
0142832880999992014102811004-13262-043408FM-15+044399999V0200701N001519999999N009999199+02901+01801999999ADDGA1021+009141991GE19MSL   +99999+99999GF199999021990009141991991MA1101501999990REMMET051METAR SBLP 281100Z 07003KT 9999 FEW030 29/18 Q1015=
0165832880999992014102812004-13262-043408FM-15+044399999V0203001N00211030481CN009999199+03101+01701999999ADDGA1021+009141991GA2041+030481991GE19MSL   +99999+99999GF199999021990009141991991MA1101501999990REMMET058METAR SBLP 281200Z 30004KT 9999 FEW030 SCT100 31/17 Q1015=
0165832880999992014102813004-13262-043408FM-15+044399999V0202401N00151030481CN009999199+03301+01701999999ADDGA1021+009141991GA2041+030481991GE19MSL   +99999+99999GF199999021990009141991991MA1101501999990REMMET058METAR SBLP 281300Z 24003KT 9999 FEW030 SCT100 33/17 Q1015=
0165832880999992014102814004-13262-043408FM-15+044399999V0203001N002610304819N009999199+03301+01701999999ADDGA1021+009141991GA2071+030481991GE19MSL   +99999+99999GF199999021990009141991991MA1101401999990REMMET058METAR SBLP 281400Z 30005KT 9999 FEW030 BKN100 33/17 Q1014=
0165832880999992014102815004-13262-043408FM-15+044399999V0203301N00311030481CN009999199+03501+01501999999ADDGA1021+009141991GA2041+030481991GE19MSL   +99999+99999GF199999021990009141991991MA1101301999990REMMET058METAR SBLP 281500Z 33006KT 9999 FEW030 SCT100 35/15 Q1013=
0142832880999992014102816004-13262-043408FM-15+044399999V0203301N003119999999N009999199+03501+01501999999ADDGA1041+009141991GE19MSL   +99999+99999GF199999041990009141991991MA1101201999990REMMET051METAR SBLP 281600Z 33006KT 9999 SCT030 35/15 Q1012=
0142832880999992014102817004-13262-043408FM-15+044399999V0203201N003119999999N009999199+03601+01501999999ADDGA1041+009141991GE19MSL   +99999+99999GF199999041990009141991991MA1101001999990REMMET051METAR SBLP 281700Z 32006KT 9999 SCT030 36/15 Q1010=
0142832880999992014102818004-13262-043408FM-15+044399999V0200201N002119999999N009999199+03601+01601999999ADDGA1041+009141991GE19MSL   +99999+99999GF199999041990009141991991MA1100901999990REMMET051METAR SBLP 281800Z 02004KT 9999 SCT030 36/16 Q1009=
0142832880999992014102819004-13262-043408FM-15+044399999V0203001N003619999999N009999199+03601+01501999999ADDGA1041+009141991GE19MSL   +99999+99999GF199999041990009141991991MA1100801999990REMMET051METAR SBLP 281900Z 30007KT 9999 SCT030 36/15 Q1008=
0165832880999992014102820004-13262-043408FM-15+044399999V0201701N00211030481CN009999199+03201+01701999999ADDGA1021+006101991GA2041+030481991GE19MSL   +99999+99999GF199999021990006101991991MA1100901999990REMMET058METAR SBLP 282000Z 17004KT 9999 FEW020 SCT100 32/17 Q1009=
0165832880999992014102821004-13262-043408FM-15+044399999V0201301N003110304819N009999199+03101+01701999999ADDGA1021+006101991GA2071+030481991GE19MSL   +99999+99999GF199999021990006101991991MA1100901999990REMMET058METAR SBLP 282100Z 13006KT 9999 FEW020 BKN100 31/17 Q1009=
0165832880999992014102909154-13262-043408FM-16+044399999V0201201N003110304819N009999199+02201+02101999999ADDGA1041+007011999GA2071+030481999GE19MSL   +99999+99999GF199999041999007011999999MA1101401999999REMMET058SPECI SBLP 290915Z 12006KT 9999 SCT023 BKN100 22/21 Q1014=
0188832880999992014102910004-13262-043408FM-15+044399999V0201401N00211007011CN009999199+02301+02201999999ADDGA1021+002131999GA2041+007011999GA3071+030481999GE19MSL   +99999+99999GF199999021999002131999999MA1101401999999REMMET065METAR SBLP 291000Z 14004KT 9999 FEW007 SCT023 BKN100 23/22 Q1014=
0188832880999992014102911004-13262-043408FM-15+044399999V0202001N00211006101CN009999199+02301+02101999999ADDGA1021+002131999GA2041+006101999GA3071+030481999GE19MSL   +99999+99999GF199999021999002131999999MA1101501999999REMMET065METAR SBLP 291100Z 20004KT 9999 FEW007 SCT020 BKN100 23/21 Q1015=
0188832880999992014102912004-13262-043408FM-15+044399999V0202001N00151006101CN009999199+02401+02201999999ADDGA1021+002131999GA2041+006101999GA3071+030481999GE19MSL   +99999+99999GF199999021999002131999999MA1101601999999REMMET065METAR SBLP 291200Z 20003KT 9999 FEW007 SCT020 BKN100 24/22 Q1016=
0188832880999992014102913004-13262-043408FM-15+044399999V0202101N00261006101CN009999199+02401+02201999999ADDGA1021+002131999GA2041+006101999GA3071+030481999GE19MSL   +99999+99999GF199999021999002131999999MA1101601999999REMMET065METAR SBLP 291300Z 21005KT 9999 FEW007 SCT020 BKN100 24/22 Q1016=
0165832880999992014102914004-13262-043408FM-15+044399999V0202001N002110304819N009999199+02401+02101999999ADDGA1041+006101999GA2071+030481999GE19MSL   +99999+99999GF199999041999006101999999MA1101701999999REMMET058METAR SBLP 291400Z 20004KT 9999 SCT020 BKN100 24/21 Q1017=
0165832880999992014102915004-13262-043408FM-15+044399999V0202101N003610304819N009999199+02401+02201999999ADDGA1041+006101999GA2071+030481999GE19MSL   +99999+99999GF199999041999006101999999MA1101601999999REMMET058METAR SBLP 291500Z 21007KT 9999 SCT020 BKN100 24/22 Q1016=
0201832880999992014102916004-13262-043408FM-15+044399999V0201901N001510213419N005000199+02301+02201999999ADDGA1041+006101999GA2021+012191091GA3081+021341999GE19MSL   +99999+99999GF199999041999006101999999MA1101501999999MW1951REMMET072METAR SBLP 291600Z 19003KT 5000 TSRA SCT020 FEW040CB OVC070 23/22 Q1015=
0182832880999992014102917004-13262-043408FM-15+044399999V0201801N001010213419N008000199+02201+02101999999ADDGA1041+006101999GA2081+021341999GE19MSL   +99999+99999GF199999041999006101999999MA1101401999999MW1611REMMET069METAR SBLP 291700Z 18002KT 8000 -RA SCT020 OVC070 22/21 Q1014 RETSRA=
0175832880999992014102919004-13262-043408FM-15+044399999V0201601N001510274319N009999199+02201+02101999999ADDGA1041+006101999GA2081+027431999GE19MSL   +99999+99999GF199999041999006101999999MA1101401999999MW1611REMMET062METAR SBLP 291900Z 16003KT 9999 -RA SCT020 OVC090 22/21 Q1014=
0198832880999992014102920004-13262-043408FM-15+044399999V0201401N00151006101CN009999199+02201+02101999999ADDGA1021+002131999GA2041+006101999GA3081+027431999GE19MSL   +99999+99999GF199999021999002131999999MA1101401999999MW1611REMMET069METAR SBLP 292000Z 14003KT 9999 -RA FEW007 SCT020 OVC090 22/21 Q1014=
0175832880999992014102921004-13262-043408FM-15+044399999V0200801N001510274319N009999199+02201+02101999999ADDGA1021+006101999GA2081+027431999GE19MSL   +99999+99999GF199999021999006101999999MA1101401999999MW1611REMMET062METAR SBLP 292100Z 08003KT 9999 -RA FEW020 OVC090 22/21 Q1014=
0165832880999992014103009154-13262-043408FM-16+044399999V0209999C000010304819N009999199+02201+02101999999ADDGA1021+009141999GA2071+030481999GE19MSL   +99999+99999GF199999021999009141999999MA1101501999999REMMET058SPECI SBLP 300915Z 00000KT 9999 FEW030 BKN100 22/21 Q1015=
0165832880999992014103010004-13262-043408FM-15+044399999V0209999C000010304819N009999199+02201+02101999999ADDGA1021+006101999GA2071+030481999GE19MSL   +99999+99999GF199999021999006101999999MA1101501999999REMMET058METAR SBLP 301000Z 00000KT 9999 FEW020 BKN100 22/21 Q1015=
0165832880999992014103011004-13262-043408FM-15+044399999V0203301N001010304819N009999199+02301+02101999999ADDGA1021+006101999GA2071+030481999GE19MSL   +99999+99999GF199999021999006101999999MA1101601999999REMMET058METAR SBLP 301100Z 33002KT 9999 FEW020 BKN100 23/21 Q1016=
0165832880999992014103012004-13262-043408FM-15+044399999V0209999C000010304819N009999199+02501+02101999999ADDGA1021+002131999GA2071+030481999GE19MSL   +99999+99999GF199999021999002131999999MA1101601999999REMMET058METAR SBLP 301200Z 00000KT 9999 FEW007 BKN100 25/21 Q1016=
0165832880999992014103013004-13262-043408FM-15+044399999V0203601N00151030481CN009999199+02501+02101999999ADDGA1021+009141999GA2041+030481999GE19MSL   +99999+99999GF199999021999009141999999MA1101601999999REMMET058METAR SBLP 301300Z 36003KT 9999 FEW030 SCT100 25/21 Q1016=
0165832880999992014103014004-13262-043408FM-15+044399999V0200601N00261030481CN009999199+02901+01901999999ADDGA1021+009141999GA2041+030481999GE19MSL   +99999+99999GF199999021999009141999999MA1101601999999REMMET058METAR SBLP 301400Z 06005KT 9999 FEW030 SCT100 29/19 Q1016=
0165832880999992014103015004-13262-043408FM-15+044399999V0200901N00311030481CN009999199+02901+01801999999ADDGA1021+009141999GA2041+030481999GE19MSL   +99999+99999GF199999021999009141999999MA1101501999999REMMET058METAR SBLP 301500Z 09006KT 9999 FEW030 SCT100 29/18 Q1015=
0165832880999992014103016004-13262-043408FM-15+044399999V0200301N00461030481CN009999199+03201+01901999999ADDGA1021+009141999GA2041+030481999GE19MSL   +99999+99999GF199999021999009141999999MA1101401999999REMMET058METAR SBLP 301600Z 03009KT 9999 FEW030 SCT100 32/19 Q1014=
0165832880999992014103017004-13262-043408FM-15+044399999V0200801N00311030481CN009999199+03301+01801999999ADDGA1041+009141999GA2041+030481999GE19MSL   +99999+99999GF199999041999009141999999MA1101401999999REMMET058METAR SBLP 301700Z 08006KT 9999 SCT030 SCT100 33/18 Q1014=
0142832880999992014103018004-13262-043408FM-15+044399999V0200701N006219999999N009999199+03301+01901999999ADDGA1021+009141999GE19MSL   +99999+99999GF199999021999009141999999MA1101201999999REMMET051METAR SBLP 301800Z 07012KT 9999 FEW030 33/19 Q1012=
0142832880999992014103019004-13262-043408FM-15+044399999V0200501N003119999999N009999199+03301+01801999999ADDGA1021+009141999GE19MSL   +99999+99999GF199999021999009141999999MA1101101999999REMMET051METAR SBLP 301900Z 05006KT 9999 FEW030 33/18 Q1011=
0142832880999992014103020004-13262-043408FM-15+044399999V0200901N004119999999N009999199+03101+01801999999ADDGA1021+009141999GE19MSL   +99999+99999GF199999021999009141999999MA1101101999999REMMET051METAR SBLP 302000Z 09008KT 9999 FEW030 31/18 Q1011=
0072832880999992014103021004-13262-043408FM-15+044399999V0200801N003619999999Y999999999+02901+01801999999ADDMA1101201999999REMMET045METAR SBLP 302100Z 08007KT CAVOK 29/18 Q1012=
0072832880999992014103109154-13262-043408FM-16+044399999V0201401N002619999999Y999999999+02401+01901999999ADDMA1101501999999REMMET045SPECI SBLP 310915Z 14005KT CAVOK 24/19 Q1015=
0072832880999992014103110004-13262-043408FM-15+044399999V0201201N001519999999Y999999999+02601+01901999999ADDMA1101501999999REMMET045METAR SBLP 311000Z 12003KT CAVOK 26/19 Q1015=
0072832880999992014103111004-13262-043408FM-15+044399999V0200601N003619999999Y999999999+02901+01901999999ADDMA1101601999999REMMET045METAR SBLP 311100Z 06007KT CAVOK 29/19 Q1016=
0072832880999992014103112004-13262-043408FM-15+044399999V0209999C000019999999Y999999999+03001+01801999999ADDMA1101601999999REMMET045METAR SBLP 311200Z 00000KT CAVOK 30/18 Q1016=
0142832880999992014103113004-13262-043408FM-15+044399999V0209999C000019999999N009999199+03101+01701999999ADDGA1021+009141999GE19MSL   +99999+99999GF199999021999009141999999MA1101601999999REMMET051METAR SBLP 311300Z 00000KT 9999 FEW030 31/17 Q1016=
0142832880999992014103114004-13262-043408FM-15+044399999V0200801N001510091419N009999199+03201+01701999999ADDGA1071+009141999GE19MSL   +99999+99999GF199999071999009141999999MA1101501999999REMMET051METAR SBLP 311400Z 08003KT 9999 BKN030 32/17 Q1015=
0142832880999992014103115004-13262-043408FM-15+044399999V0200301N002110091419N009999199+03201+01701999999ADDGA1071+009141999GE19MSL   +99999+99999GF199999071999009141999999MA1101401999999REMMET051METAR SBLP 311500Z 03004KT 9999 BKN030 32/17 Q1014=
0165832880999992014103116004-13262-043408FM-15+044399999V0200301N005710091419N009999199+03201+01701999999ADDGA1071+009141999GA2041+030481999GE19MSL   +99999+99999GF199999071999009141999999MA1101301999999REMMET058METAR SBLP 311600Z 03011KT 9999 BKN030 SCT100 32/17 Q1013=
0165832880999992014103117004-13262-043408FM-15+044399999V0201001N00211030481CN009999199+03201+01701999999ADDGA1041+009141999GA2041+030481999GE19MSL   +99999+99999GF199999041999009141999999MA1101201999999REMMET058METAR SBLP 311700Z 10004KT 9999 SCT030 SCT100 32/17 Q1012=
0165832880999992014103118004-13262-043408FM-15+044399999V0202101N005110304819N009999199+03201+01701999999ADDGA1041+009141999GA2071+030481999GE19MSL   +99999+99999GF199999041999009141999999MA1101101999999REMMET058METAR SBLP 311800Z 21010KT 9999 SCT030 BKN100 32/17 Q1011=
0165832880999992014103119004-13262-043408FM-15+044399999V0202001N004110304819N009999199+03301+02101999999ADDGA1041+009141999GA2071+030481999GE19MSL   +99999+99999GF199999041999009141999999MA1101101999999REMMET058METAR SBLP 311900Z 20008KT 9999 SCT030 BKN100 33/21 Q1011=
0165832880999992014103120004-13262-043408FM-15+044399999V0202201N003110304819N009999199+03101+01801999999ADDGA1021+009141999GA2071+030481999GE19MSL   +99999+99999GF199999021999009141999999MA1101101999999REMMET058METAR SBLP 312000Z 22006KT 9999 FEW030 BKN100 31/18 Q1011=
0165832880999992014103121004-13262-043408FM-15+044399999V0209999C00001030481CN009999199+03001+01901999999ADDGA1021+009141999GA2041+030481999GE19MSL   +99999+99999GF199999021999009141999999MA1101201999999REMMET058METAR SBLP 312100Z 00000KT 9999 FEW030 SCT100 30/19 Q1012=
0072832880999992014110309154-13262-043408FM-16+044399999V0201401N002619999999Y999999999+02301+01801999999ADDMA1101301999999REMMET045SPECI SBLP 030915Z 14005KT CAVOK 23/18 Q1013=
0072832880999992014110310004-13262-043408FM-15+044399999V0201301N003119999999Y999999999+02501+01801999999ADDMA1101401999999REMMET045METAR SBLP 031000Z 13006KT CAVOK 25/18 Q1014=
0072832880999992014110311004-13262-043408FM-15+044399999V0200901N003619999999Y999999999+02701+01801999999ADDMA1101401999999REMMET045METAR SBLP 031100Z 09007KT CAVOK 27/18 Q1014=
0072832880999992014110312004-13262-043408FM-15+044399999V0201101N002119999999Y999999999+02901+01801999999ADDMA1101501999999REMMET045METAR SBLP 031200Z 11004KT CAVOK 29/18 Q1015=
0142832880999992014110313004-13262-043408FM-15+044399999V0200601N002619999999N009999199+03201+01701999999ADDGA1021+009141999GE19MSL   +99999+99999GF199999021999009141999999MA1101401999999REMMET051METAR SBLP 031300Z 06005KT 9999 FEW030 32/17 Q1014=
0142832880999992014110314004-13262-043408FM-15+044399999V0201501N001519999999N009999199+03301+01601999999ADDGA1041+009141999GE19MSL   +99999+99999GF199999041999009141999999MA1101301999999REMMET051METAR SBLP 031400Z 15003KT 9999 SCT030 33/16 Q1013=
0142832880999992014110315004-13262-043408FM-15+044399999V0201301N003619999999N009999199+03401+01601999999ADDGA1041+009141999GE19MSL   +99999+99999GF199999041999009141999999MA1101201999999REMMET051METAR SBLP 031500Z 13007KT 9999 SCT030 34/16 Q1012=
0142832880999992014110316004-13262-043408FM-15+044399999V0202701N002119999999N009999199+03501+01601999999ADDGA1041+009141999GE19MSL   +99999+99999GF199999041999009141999999MA1101101999999REMMET051METAR SBLP 031600Z 27004KT 9999 SCT030 35/16 Q1011=
0142832880999992014110317004-13262-043408FM-15+044399999V0202001N002619999999N009999199+03501+01401999999ADDGA1041+009141999GE19MSL   +99999+99999GF199999041999009141999999MA1101001999999REMMET051METAR SBLP 031700Z 20005KT 9999 SCT030 35/14 Q1010=
0142832880999992014110318004-13262-043408FM-15+044399999V0201601N003119999999N009999199+03501+01401999999ADDGA1041+009141999GE19MSL   +99999+99999GF199999041999009141999999MA1100901999999REMMET051METAR SBLP 031800Z 16006KT 9999 SCT030 35/14 Q1009=
0142832880999992014110319004-13262-043408FM-15+044399999V0201501N002119999999N009999199+03501+01401999999ADDGA1041+009141999GE19MSL   +99999+99999GF199999041999009141999999MA1100801999999REMMET051METAR SBLP 031900Z 15004KT 9999 SCT030 35/14 Q1008=
0142832880999992014110320004-13262-043408FM-15+044399999V0201701N005119999999N009999199+03501+01401999999ADDGA1021+009141999GE19MSL   +99999+99999GF199999021999009141999999MA1100801999999REMMET051METAR SBLP 032000Z 17010KT 9999 FEW030 35/14 Q1008=
0142832880999992014110321004-13262-043408FM-15+044399999V0201501N006219999999N009999199+03301+01401999999ADDGA1021+009141999GE19MSL   +99999+99999GF199999021999009141999999MA1100901999999REMMET051METAR SBLP 032100Z 15012KT 9999 FEW030 33/14 Q1009=
0142832880999992014110409154-13262-043408FM-16+044399999V0201601N001519999999N009999199+02401+01801999999ADDGA1021+009141999GE19MSL   +99999+99999GF199999021999009141999999MA1101401999999REMMET051SPECI SBLP 040915Z 16003KT 9999 FEW030 24/18 Q1014=
0142832880999992014110410004-13262-043408FM-15+044399999V0201401N002619999999N009999199+02501+01701999999ADDGA1021+009141999GE19MSL   +99999+99999GF199999021999009141999999MA1101501999999REMMET051METAR SBLP 041000Z 14005KT 9999 FEW030 25/17 Q1015=
0142832880999992014110411004-13262-043408FM-15+044399999V0200701N003119999999N009999199+02701+01701999999ADDGA1021+009141999GE19MSL   +99999+99999GF199999021999009141999999MA1101601999999REMMET051METAR SBLP 041100Z 07006KT 9999 FEW030 27/17 Q1016=
0142832880999992014110412004-13262-043408FM-15+044399999V0200101N002119999999N009999199+02901+01701999999ADDGA1021+009141999GE19MSL   +99999+99999GF199999021999009141999999MA1101601999999REMMET051METAR SBLP 041200Z 01004KT 9999 FEW030 29/17 Q1016=
0142832880999992014110413004-13262-043408FM-15+044399999V0201601N001519999999N009999199+03001+01601999999ADDGA1021+009141999GE19MSL   +99999+99999GF199999021999009141999999MA1101601999999REMMET051METAR SBLP 041300Z 16003KT 9999 FEW030 30/16 Q1016=
0142832880999992014110414004-13262-043408FM-15+044399999V0202801N002619999999N009999199+03201+01701999999ADDGA1041+009141999GE19MSL   +99999+99999GF199999041999009141999999MA1101501999999REMMET051METAR SBLP 041400Z 28005KT 9999 SCT030 32/17 Q1015=
0142832880999992014110415004-13262-043408FM-15+044399999V0200301N003119999999N009999199+03301+01701999999ADDGA1041+009141999GE19MSL   +99999+99999GF199999041999009141999999MA1101401999999REMMET051METAR SBLP 041500Z 03006KT 9999 SCT030 33/17 Q1014=
0142832880999992014110416004-13262-043408FM-15+044399999V0200101N003610091419N009999199+03301+01701999999ADDGA1071+009141999GE19MSL   +99999+99999GF199999071999009141999999MA1101201999999REMMET051METAR SBLP 041600Z 01007KT 9999 BKN030 33/17 Q1012=
0142832880999992014110417004-13262-043408FM-15+044399999V0202201N004610091419N009999199+03401+01601999999ADDGA1071+009141999GE19MSL   +99999+99999GF199999071999009141999999MA1101101999999REMMET051METAR SBLP 041700Z 22009KT 9999 BKN030 34/16 Q1011=
0142832880999992014110418004-13262-043408FM-15+044399999V0202201N005119999999N009999199+03501+01601999999ADDGA1041+009141999GE19MSL   +99999+99999GF199999041999009141999999MA1101001999999REMMET051METAR SBLP 041800Z 22010KT 9999 SCT030 35/16 Q1010=
0142832880999992014110419004-13262-043408FM-15+044399999V0202001N002619999999N009999199+03501+01601999999ADDGA1021+009141999GE19MSL   +99999+99999GF199999021999009141999999MA1100901999999REMMET051METAR SBLP 041900Z 20005KT 9999 FEW030 35/16 Q1009=
0142832880999992014110420004-13262-043408FM-15+044399999V0202301N003619999999N009999199+03401+01501999999ADDGA1021+009141999GE19MSL   +99999+99999GF199999021999009141999999MA1100801999999REMMET051METAR SBLP 042000Z 23007KT 9999 FEW030 34/15 Q1008=
0142832880999992014110421004-13262-043408FM-15+044399999V0201701N003619999999N009999199+03401+01401999999ADDGA1021+009141999GE19MSL   +99999+99999GF199999021999009141999999MA1100901999999REMMET051METAR SBLP 042100Z 17007KT 9999 FEW030 34/14 Q1009=
0072832880999992014110509154-13262-043408FM-16+044399999V0201001N002619999999Y999999999+02501+01501999999ADDMA1101401999999REMMET045SPECI SBLP 050915Z 10005KT CAVOK 25/15 Q1014=
0072832880999992014110510004-13262-043408FM-15+044399999V0200701N001519999999Y999999999+02701+01601999999ADDMA1101501999999REMMET045METAR SBLP 051000Z 07003KT CAVOK 27/16 Q1015=
0072832880999992014110511004-13262-043408FM-15+044399999V0200601N003119999999Y999999999+02901+01601999999ADDMA1101601999999REMMET045METAR SBLP 051100Z 06006KT CAVOK 29/16 Q1016=
0072832880999992014110512004-13262-043408FM-15+044399999V0200301N002119999999Y999999999+03001+01501999999ADDMA1101601999999REMMET045METAR SBLP 051200Z 03004KT CAVOK 30/15 Q1016=
0142832880999992014110513004-13262-043408FM-15+044399999V0201601N001519999999N009999199+03101+01501999999ADDGA1021+009141999GE19MSL   +99999+99999GF199999021999009141999999MA1101601999999REMMET051METAR SBLP 051300Z 16003KT 9999 FEW030 31/15 Q1016=
0142832880999992014110514004-13262-043408FM-15+044399999V0203001N002619999999N009999199+03301+01601999999ADDGA1021+009141999GE19MSL   +99999+99999GF199999021999009141999999MA1101601999999REMMET051METAR SBLP 051400Z 30005KT 9999 FEW030 33/16 Q1016=
0142832880999992014110515004-13262-043408FM-15+044399999V0202301N004119999999N009999199+03301+01501999999ADDGA1041+009141999GE19MSL   +99999+99999GF199999041999009141999999MA1101501999999REMMET051METAR SBLP 051500Z 23008KT 9999 SCT030 33/15 Q1015=
0142832880999992014110516004-13262-043408FM-15+044399999V0201501N004119999999N009999199+03401+01501999999ADDGA1041+009141999GE19MSL   +99999+99999GF199999041999009141999999MA1101301999999REMMET051METAR SBLP 051600Z 15008KT 9999 SCT030 34/15 Q1013=
0142832880999992014110517004-13262-043408FM-15+044399999V0202501N006219999999N009999199+03501+01501999999ADDGA1041+009141999GE19MSL   +99999+99999GF199999041999009141999999MA1101201999999REMMET051METAR SBLP 051700Z 25012KT 9999 SCT030 35/15 Q1012=
0142832880999992014110518004-13262-043408FM-15+044399999V0202101N002619999999N009999199+03601+01401999999ADDGA1041+009141999GE19MSL   +99999+99999GF199999041999009141999999MA1101101999999REMMET051METAR SBLP 051800Z 21005KT 9999 SCT030 36/14 Q1011=
0142832880999992014110519004-13262-043408FM-15+044399999V0201601N003119999999N009999199+03601+01301999999ADDGA1021+009141999GE19MSL   +99999+99999GF199999021999009141999999MA1101101999999REMMET051METAR SBLP 051900Z 16006KT 9999 FEW030 36/13 Q1011=
0142832880999992014110520004-13262-043408FM-15+044399999V0201801N003619999999N009999199+03601+01301999999ADDGA1021+009141999GE19MSL   +99999+99999GF199999021999009141999999MA1101001999999REMMET051METAR SBLP 052000Z 18007KT 9999 FEW030 36/13 Q1010=
0072832880999992014110521004-13262-043408FM-15+044399999V0201601N001019999999Y999999999+03501+01201999999ADDMA1101101999999REMMET045METAR SBLP 052100Z 16002KT CAVOK 35/12 Q1011=
0072832880999992014110609154-13262-043408FM-16+044399999V0209999C000019999999Y999999999+02401+01701999999ADDMA1101501999999REMMET045SPECI SBLP 060915Z 00000KT CAVOK 24/17 Q1015=
0072832880999992014110610004-13262-043408FM-15+044399999V0209999C000019999999Y999999999+02601+01701999999ADDMA1101601999999REMMET045METAR SBLP 061000Z 00000KT CAVOK 26/17 Q1016=
0072832880999992014110611004-13262-043408FM-15+044399999V0201501N002119999999Y999999999+02701+01801999999ADDMA1101701999999REMMET045METAR SBLP 061100Z 15004KT CAVOK 27/18 Q1017=
0165832880999992014110612004-13262-043408FM-15+044399999V0201401N00211030481CN009999199+02901+01801999999ADDGA1021+009141999GA2041+030481999GE19MSL   +99999+99999GF199999021999009141999999MA1101701999999REMMET058METAR SBLP 061200Z 14004KT 9999 FEW030 SCT100 29/18 Q1017=
0165832880999992014110613004-13262-043408FM-15+044399999V0200601N002110304819N009999199+03001+01701999999ADDGA1021+009141999GA2071+030481999GE19MSL   +99999+99999GF199999021999009141999999MA1101701999999REMMET058METAR SBLP 061300Z 06004KT 9999 FEW030 BKN100 30/17 Q1017=
0165832880999992014110614004-13262-043408FM-15+044399999V0201001N001510304819N009999199+03101+01701999999ADDGA1021+009141999GA2071+030481999GE19MSL   +99999+99999GF199999021999009141999999MA1101701999999REMMET058METAR SBLP 061400Z 10003KT 9999 FEW030 BKN100 31/17 Q1017=
0165832880999992014110615004-13262-043408FM-15+044399999V0201801N00261030481CN009999199+03201+01701999999ADDGA1021+009141999GA2041+030481999GE19MSL   +99999+99999GF199999021999009141999999MA1101601999999REMMET058METAR SBLP 061500Z 18005KT 9999 FEW030 SCT100 32/17 Q1016=
0165832880999992014110616004-13262-043408FM-15+044399999V0201901N00361030481CN009999199+03401+01701999999ADDGA1021+009141999GA2041+030481999GE19MSL   +99999+99999GF199999021999009141999999MA1101501999999REMMET058METAR SBLP 061600Z 19007KT 9999 FEW030 SCT100 34/17 Q1015=
0165832880999992014110617004-13262-043408FM-15+044399999V0209999C00001030481CN009999199+03401+01601999999ADDGA1021+009141999GA2041+030481999GE19MSL   +99999+99999GF199999021999009141999999MA1101401999999REMMET058METAR SBLP 061700Z 00000KT 9999 FEW030 SCT100 34/16 Q1014=
0165832880999992014110618004-13262-043408FM-15+044399999V0201701N00151030481CN009999199+03401+01501999999ADDGA1021+009141999GA2041+030481999GE19MSL   +99999+99999GF199999021999009141999999MA1101301999999REMMET058METAR SBLP 061800Z 17003KT 9999 FEW030 SCT100 34/15 Q1013=
0165832880999992014110619004-13262-043408FM-15+044399999V0202501N00211030481CN009999199+03401+01501999999ADDGA1021+009141999GA2041+030481999GE19MSL   +99999+99999GF199999021999009141999999MA1101201999999REMMET058METAR SBLP 061900Z 25004KT 9999 FEW030 SCT100 34/15 Q1012=
0165832880999992014110620004-13262-043408FM-15+044399999V0202601N00151030481CN009999199+03401+01601999999ADDGA1021+009141999GA2041+030481999GE19MSL   +99999+99999GF199999021999009141999999MA1101201999999REMMET058METAR SBLP 062000Z 26003KT 9999 FEW030 SCT100 34/16 Q1012=
0165832880999992014110621004-13262-043408FM-15+044399999V0209999C00001030481CN009999199+03301+01601999999ADDGA1021+009141999GA2041+030481999GE19MSL   +99999+99999GF199999021999009141999999MA1101201999999REMMET058METAR SBLP 062100Z 00000KT 9999 FEW030 SCT100 33/16 Q1012=
0072832880999992014110709154-13262-043408FM-16+044399999V0200901N003119999999Y999999999+02401+01701999999ADDMA1101401999999REMMET045SPECI SBLP 070915Z 09006KT CAVOK 24/17 Q1014=
0072832880999992014110710004-13262-043408FM-15+044399999V0200901N003119999999Y999999999+02701+01701999999ADDMA1101501999999REMMET045METAR SBLP 071000Z 09006KT CAVOK 27/17 Q1015=
0072832880999992014110711004-13262-043408FM-15+044399999V0200901N004119999999Y999999999+03001+01701999999ADDMA1101501999999REMMET045METAR SBLP 071100Z 09008KT CAVOK 30/17 Q1015=
0072832880999992014110712004-13262-043408FM-15+044399999V0201301N005119999999Y999999999+03001+01801999999ADDMA1101501999999REMMET045METAR SBLP 071200Z 13010KT CAVOK 30/18 Q1015=
0142832880999992014110713004-13262-043408FM-15+044399999V0200801N005719999999N009999199+03201+01701999999ADDGA1021+009141999GE19MSL   +99999+99999GF199999021999009141999999MA1101501999999REMMET051METAR SBLP 071300Z 08011KT 9999 FEW030 32/17 Q1015=
0142832880999992014110714004-13262-043408FM-15+044399999V0202501N001519999999N009999199+03301+01701999999ADDGA1021+009141999GE19MSL   +99999+99999GF199999021999009141999999MA1101401999999REMMET051METAR SBLP 071400Z 25003KT 9999 FEW030 33/17 Q1014=
0142832880999992014110715004-13262-043408FM-15+044399999V0201801N004119999999N009999199+03401+01601999999ADDGA1021+009141999GE19MSL   +99999+99999GF199999021999009141999999MA1101201999999REMMET051METAR SBLP 071500Z 18008KT 9999 FEW030 34/16 Q1012=
0142832880999992014110716004-13262-043408FM-15+044399999V0201101N003119999999N009999199+03501+01501999999ADDGA1021+009141999GE19MSL   +99999+99999GF199999021999009141999999MA1101101999999REMMET051METAR SBLP 071600Z 11006KT 9999 FEW030 35/15 Q1011=
0142832880999992014110717004-13262-043408FM-15+044399999V0209999C000019999999N009999199+03601+01401999999ADDGA1041+009141999GE19MSL   +99999+99999GF199999041999009141999999MA1101001999999REMMET051METAR SBLP 071700Z 00000KT 9999 SCT030 36/14 Q1010=
0142832880999992014110718004-13262-043408FM-15+044399999V0202001N005719999999N009999199+03701+01401999999ADDGA1041+009141999GE19MSL   +99999+99999GF199999041999009141999999MA1100801999999REMMET051METAR SBLP 071800Z 20011KT 9999 SCT030 37/14 Q1008=
0142832880999992014110719004-13262-043408FM-15+044399999V0201701N003119999999N009999199+03601+01401999999ADDGA1041+009141999GE19MSL   +99999+99999GF199999041999009141999999MA1100801999999REMMET051METAR SBLP 071900Z 17006KT 9999 SCT030 36/14 Q1008=
0142832880999992014110720004-13262-043408FM-15+044399999V0201301N003119999999N009999199+03601+01401999999ADDGA1041+009141999GE19MSL   +99999+99999GF199999041999009141999999MA1100901999999REMMET051METAR SBLP 072000Z 13006KT 9999 SCT030 36/14 Q1009=
0142832880999992014110721004-13262-043408FM-15+044399999V0201801N003119999999N009999199+03501+01401999999ADDGA1021+009141999GE19MSL   +99999+99999GF199999021999009141999999MA1100901999999REMMET051METAR SBLP 072100Z 18006KT 9999 FEW030 35/14 Q1009=
0165832880999992014111009154-13262-043408FM-16+044399999V0209999C000010304819N009999199+02401+02101999999ADDGA1041+004571999GA2071+030481999GE19MSL   +99999+99999GF199999041999004571999999MA1101201999999REMMET058SPECI SBLP 100915Z 00000KT 9999 SCT015 BKN100 24/21 Q1012=
0165832880999992014111010004-13262-043408FM-15+044399999V0209999C000010304819N009999199+02501+02101999999ADDGA1021+006101999GA2071+030481999GE19MSL   +99999+99999GF199999021999006101999999MA1101201999999REMMET058METAR SBLP 101000Z 00000KT 9999 FEW020 BKN100 25/21 Q1012=
0165832880999992014111011004-13262-043408FM-15+044399999V0209999C00001030481CN009999199+02701+02101999999ADDGA1021+006101999GA2041+030481999GE19MSL   +99999+99999GF199999021999006101999999MA1101301999999REMMET058METAR SBLP 101100Z 00000KT 9999 FEW020 SCT100 27/21 Q1013=
0165832880999992014111012004-13262-043408FM-15+044399999V0201801N00151030481CN009999199+02601+02301999999ADDGA1021+009141999GA2041+030481999GE19MSL   +99999+99999GF199999021999009141999999MA1101301999999REMMET058METAR SBLP 101200Z 18003KT 9999 FEW030 SCT100 26/23 Q1013=
0165832880999992014111013004-13262-043408FM-15+044399999V0202801N00151030481CN009999199+02901+02101999999ADDGA1021+009141999GA2041+030481999GE19MSL   +99999+99999GF199999021999009141999999MA1101301999999REMMET058METAR SBLP 101300Z 28003KT 9999 FEW030 SCT100 29/21 Q1013=
0165832880999992014111014004-13262-043408FM-15+044399999V0202601N00261030481CN009999199+03101+02101999999ADDGA1021+009141999GA2041+030481999GE19MSL   +99999+99999GF199999021999009141999999MA1101201999999REMMET058METAR SBLP 101400Z 26005KT 9999 FEW030 SCT100 31/21 Q1012=
0165832880999992014111015004-13262-043408FM-15+044399999V0202101N00211030481CN009999199+03201+02001999999ADDGA1021+009141999GA2041+030481999GE19MSL   +99999+99999GF199999021999009141999999MA1101201999999REMMET058METAR SBLP 101500Z 21004KT 9999 FEW030 SCT100 32/20 Q1012=
0165832880999992014111016004-13262-043408FM-15+044399999V0202101N008210304819N009999199+03201+01901999999ADDGA1041+009141999GA2071+030481999GE19MSL   +99999+99999GF199999041999009141999999MA1101101999999REMMET058METAR SBLP 101600Z 21016KT 9999 SCT030 BKN100 32/19 Q1011=
0165832880999992014111017004-13262-043408FM-15+044399999V0202101N00411030481CN009999199+03201+01901999999ADDGA1021+009141999GA2041+030481999GE19MSL   +99999+99999GF199999021999009141999999MA1101001999999REMMET058METAR SBLP 101700Z 21008KT 9999 FEW030 SCT100 32/19 Q1010=
0191832880999992014111018004-13262-043408FM-15+044399999V0202201N00411030481CN009999199+03201+01901999999ADDGA1021+009141999GA2021+012191081GA3041+030481999GE19MSL   +99999+99999GF199999021999009141999999MA1101001999999REMMET068METAR SBLP 101800Z 22008KT 9999 FEW030 FEW040TCU SCT100 32/19 Q1010=
0165832880999992014111019004-13262-043408FM-15+044399999V0202401N003110304819N009999199+03101+02001999999ADDGA1041+009141999GA2071+030481999GE19MSL   +99999+99999GF199999041999009141999999MA1101101999999REMMET058METAR SBLP 101900Z 24006KT 9999 SCT030 BKN100 31/20 Q1011=
0165832880999992014111020004-13262-043408FM-15+044399999V0202101N001510304819N009999199+03001+01801999999ADDGA1021+009141999GA2071+030481999GE19MSL   +99999+99999GF199999021999009141999999MA1101101999999REMMET058METAR SBLP 102000Z 21003KT 9999 FEW030 BKN100 30/18 Q1011=
0165832880999992014111021004-13262-043408FM-15+044399999V0201201N004610304819N009999199+02801+02001999999ADDGA1021+008231999GA2071+030481999GE19MSL   +99999+99999GF199999021999008231999999MA1101201999999REMMET058METAR SBLP 102100Z 12009KT 9999 FEW027 BKN100 28/20 Q1012=
0165832880999992014111109154-13262-043408FM-16+044399999V0209999C000010304819N009999199+02301+02101999999ADDGA1021+004571999GA2071+030481999GE19MSL   +99999+99999GF199999021999004571999999MA1101301999999REMMET058SPECI SBLP 110915Z 00000KT 9999 FEW015 BKN100 23/21 Q1013=
0165832880999992014111110004-13262-043408FM-15+044399999V0209999C000010304819N009999199+02401+02101999999ADDGA1021+006101999GA2071+030481999GE19MSL   +99999+99999GF199999021999006101999999MA1101301999999REMMET058METAR SBLP 111000Z 00000KT 9999 FEW020 BKN100 24/21 Q1013=
0165832880999992014111111004-13262-043408FM-15+044399999V0209999C000010304819N009999199+02601+02101999999ADDGA1021+006101999GA2071+030481999GE19MSL   +99999+99999GF199999021999006101999999MA1101301999999REMMET058METAR SBLP 111100Z 00000KT 9999 FEW020 BKN100 26/21 Q1013=
0072832880999992014111112004-13262-043408FM-15+044399999V0202701N001019999999Y999999999+02701+02101999999ADDMA1101301999999REMMET045METAR SBLP 111200Z 27002KT CAVOK 27/21 Q1013=
0072832880999992014111113004-13262-043408FM-15+044399999V0201801N001019999999Y999999999+03001+02101999999ADDMA1101201999999REMMET045METAR SBLP 111300Z 18002KT CAVOK 30/21 Q1012=
0142832880999992014111114004-13262-043408FM-15+044399999V0209999C000019999999N009999199+03201+02001999999ADDGA1021+009141999GE19MSL   +99999+99999GF199999021999009141999999MA1101101999999REMMET051METAR SBLP 111400Z 00000KT 9999 FEW030 32/20 Q1011=
0142832880999992014111115004-13262-043408FM-15+044399999V0209999C000019999999N009999199+03401+01901999999ADDGA1021+009141999GE19MSL   +99999+99999GF199999021999009141999999MA1101001999999REMMET051METAR SBLP 111500Z 00000KT 9999 FEW030 34/19 Q1010=
0142832880999992014111116004-13262-043408FM-15+044399999V0201501N002119999999N009999199+03501+01801999999ADDGA1041+009141999GE19MSL   +99999+99999GF199999041999009141999999MA1100901999999REMMET051METAR SBLP 111600Z 15004KT 9999 SCT030 35/18 Q1009=
0142832880999992014111117004-13262-043408FM-15+044399999V0202301N003119999999N009999199+03701+01701999999ADDGA1041+009141999GE19MSL   +99999+99999GF199999041999009141999999MA1100801999999REMMET051METAR SBLP 111700Z 23006KT 9999 SCT030 37/17 Q1008=
0142832880999992014111118004-13262-043408FM-15+044399999V0202301N002619999999N009999199+03701+01701999999ADDGA1041+009141999GE19MSL   +99999+99999GF199999041999009141999999MA1100801999999REMMET051METAR SBLP 111800Z 23005KT 9999 SCT030 37/17 Q1008=
0142832880999992014111119004-13262-043408FM-15+044399999V0201401N001519999999N009999199+03501+01701999999ADDGA1041+009141999GE19MSL   +99999+99999GF199999041999009141999999MA1100701999999REMMET051METAR SBLP 111900Z 14003KT 9999 SCT030 35/17 Q1007=
0142832880999992014111120004-13262-043408FM-15+044399999V0201901N001019999999N009999199+03501+01701999999ADDGA1021+009141999GE19MSL   +99999+99999GF199999021999009141999999MA1100701999999REMMET051METAR SBLP 112000Z 19002KT 9999 FEW030 35/17 Q1007=
0072832880999992014111211154-13262-043408FM-16+044399999V0200301N001019999999Y999999999+02501+02301999999ADDMA1101301999999REMMET045SPECI SBLP 121115Z 03002KT CAVOK 25/23 Q1013=
0165832880999992014111212004-13262-043408FM-15+044399999V0209999C000010304819N009999199+02601+02301999999ADDGA1021+009141999GA2071+030481999GE19MSL   +99999+99999GF199999021999009141999999MA1101301999999REMMET058METAR SBLP 121200Z 00000KT 9999 FEW030 BKN100 26/23 Q1013=
0165832880999992014111213004-13262-043408FM-15+044399999V0201001N001010304819N009999199+02701+02101999999ADDGA1021+006101999GA2071+030481999GE19MSL   +99999+99999GF199999021999006101999999MA1101401999999REMMET058METAR SBLP 121300Z 10002KT 9999 FEW020 BKN100 27/21 Q1014=
0188832880999992014111214004-13262-043408FM-15+044399999V0200401N00621009141CN009999199+03001+02101999999ADDGA1021+006101999GA2041+009141999GA3071+030481999GE19MSL   +99999+99999GF199999021999006101999999MA1101301999999REMMET065METAR SBLP 121400Z 04012KT 9999 FEW020 SCT030 BKN100 30/21 Q1013=
0188832880999992014111215004-13262-043408FM-15+044399999V0200301N00211009141CN009999199+02701+02001999999ADDGA1041+006101999GA2041+009141999GA3071+030481999GE19MSL   +99999+99999GF199999041999006101999999MA1101301999999REMMET065METAR SBLP 121500Z 03004KT 9999 SCT020 SCT030 BKN100 27/20 Q1013=
0165832880999992014111216154-13262-043408FM-16+044399999V0200301N001510304819N009999199+02801+02001999999ADDGA1021+006101999GA2071+030481999GE19MSL   +99999+99999GF199999021999006101999999MA1101101999999REMMET058SPECI SBLP 121615Z 03003KT 9999 FEW020 BKN100 28/20 Q1011=
0165832880999992014111217004-13262-043408FM-15+044399999V0201001N001510304819N009999199+02901+02001999999ADDGA1021+006101999GA2071+030481999GE19MSL   +99999+99999GF199999021999006101999999MA1100901999999REMMET058METAR SBLP 121700Z 10003KT 9999 FEW020 BKN100 29/20 Q1009=
0072832880999992014111218004-13262-043408FM-15+044399999V0202801N001019999999Y999999999+02901+02001999999ADDMA1100801999999REMMET045METAR SBLP 121800Z 28002KT CAVOK 29/20 Q1008=
0072832880999992014111219004-13262-043408FM-15+044399999V0202701N001519999999Y999999999+03001+02001999999ADDMA1100801999999REMMET045METAR SBLP 121900Z 27003KT CAVOK 30/20 Q1008=
0072832880999992014111220004-13262-043408FM-15+044399999V0209999N999999999999Y999999999+03101+02101999999ADDMA1100801999999REMMET045METAR SBLP 122000Z /////KT CAVOK 31/21 Q1008=
0165832880999992014111311154-13262-043408FM-16+044399999V0209999N999990304819N009999199+02401+02101999999ADDGA1021+006101999GA2071+030481999GE19MSL   +99999+99999GF199999021999006101999999MA1101301999999REMMET058SPECI SBLP 131115Z /////KT 9999 FEW020 BKN100 24/21 Q1013=
0165832880999992014111312004-13262-043408FM-15+044399999V0209999N99999030481CN009999199+02501+02201999999ADDGA1021+009141999GA2041+030481999GE19MSL   +99999+99999GF199999021999009141999999MA1101301999999REMMET058METAR SBLP 131200Z /////KT 9999 FEW030 SCT100 25/22 Q1013=
0165832880999992014111313004-13262-043408FM-15+044399999V0209999N99999030481CN009999199+02701+02101999999ADDGA1021+009141999GA2041+030481999GE19MSL   +99999+99999GF199999021999009141999999MA1101301999999REMMET058METAR SBLP 131300Z /////KT 9999 FEW030 SCT100 27/21 Q1013=
0165832880999992014111314004-13262-043408FM-15+044399999V0209999N999990304819N009999199+02801+02201999999ADDGA1021+009141999GA2071+030481999GE19MSL   +99999+99999GF199999021999009141999999MA1101301999999REMMET058METAR SBLP 131400Z /////KT 9999 FEW030 BKN100 28/22 Q1013=
0165832880999992014111315004-13262-043408FM-15+044399999V0209999N999990304819N009999199+02901+02101999999ADDGA1021+009141999GA2071+030481999GE19MSL   +99999+99999GF199999021999009141999999MA1101201999999REMMET058METAR SBLP 131500Z /////KT 9999 FEW030 BKN100 29/21 Q1012=
0165832880999992014111316154-13262-043408FM-16+044399999V0209999N99999030481CN009999199+03001+02101999999ADDGA1021+009141999GA2041+030481999GE19MSL   +99999+99999GF199999021999009141999999MA1101001999999REMMET058SPECI SBLP 131615Z /////KT 9999 FEW030 SCT100 30/21 Q1010=
0142832880999992014111317004-13262-043408FM-15+044399999V0209999N999999999999N009999199+03301+02001999999ADDGA1041+009141999GE19MSL   +99999+99999GF199999041999009141999999MA1100801999999REMMET051METAR SBLP 131700Z /////KT 9999 SCT030 33/20 Q1008=
0168832880999992014111318004-13262-043408FM-15+044399999V0209999N999999999999N009999199+03401+01901999999ADDGA1041+009141999GA2021+012191081GE19MSL   +99999+99999GF199999041999009141999999MA1100801999999REMMET061METAR SBLP 131800Z /////KT 9999 SCT030 FEW040TCU 34/19 Q1008=
0176832880999992014111319004-13262-043408FM-15+044399999V0209999N999999999999N009999199+02602+02001999999ADDGA1021+006101999GA2021+012191091GE19MSL   +99999+99999GF199999021999006101999999MA1100801999999MW1171REMMET063METAR SBLP 131900Z /////KT 9999 TS FEW020 FEW040CB 26/20 Q1008=
0207832880999992014111320004-13262-043408FM-15+044399999V0209999N999990304819N009999199+02501+02101999999ADDGA1021+006101999GA2021+012191091GA3071+030481999GE19MSL   +99999+99999GF199999021999006101999999MA1100801999999MW1951REMMET078METAR SBLP 132000Z /////KT 9999 -TSRA FEW020 FEW040CB BKN100 25/21      Q1008=
0165832880999992014111411154-13262-043408FM-16+044399999V0209999N99999030481CN009999199+02601+02301999999ADDGA1021+006101999GA2041+030481999GE19MSL   +99999+99999GF199999021999006101999999MA1101401999999REMMET058SPECI SBLP 141115Z /////KT 9999 FEW020 SCT100 26/23 Q1014=
0192832880999992014111412004-13262-043408FM-15+044399999V0209999N99999009141CN009999199+02701+02201999999ADDGA1041+006101999GA2041+009141999GA3071+030481999GE19MSL   +99999+99999GF199999041999006101999999MA1101401999999REMMET069METAR COR SBLP 141200Z /////KT 9999 SCT020 SCT030 BKN100 27/22 Q1014=
0188832880999992014111413004-13262-043408FM-15+044399999V0209999N99999009141CN009999199+02801+02201999999ADDGA1041+006101999GA2041+009141999GA3071+030481999GE19MSL   +99999+99999GF199999041999006101999999MA1101401999999REMMET065METAR SBLP 141300Z /////KT 9999 SCT020 SCT030 BKN100 28/22 Q1014=
0219832880999992014111414004-13262-043408FM-15+044399999V0209999N99999009141CN009999199+02901+02101999999ADDGA1021+006101999GA2041+009141999GA3021+012191081GA4071+030481999GE19MSL   +99999+99999GF199999021999006101999999MA1101301999999REMMET080METAR SBLP 141400Z /////KT 9999 FEW020 SCT030 FEW040TCU BKN100 29/21      Q1013=
0180832880999992014111415004-13262-043408FM-15+044399999V0209999N999999999999N009999199+03101+02301999999ADDGA1041+009141999GA2021+012191091GE19MSL   +99999+99999GF199999041999009141999999MA1101201999999MW1171REMMET067METAR COR SBLP 141500Z /////KT 9999 TS SCT030 FEW040CB 31/23 Q1012=
0199832880999992014111416154-13262-043408FM-16+044399999V0209999N999990091419N009999199+02801+02201999999ADDGA1021+006101999GA2071+009141999GA3021+012191091GE19MSL   +99999+99999GF199999021999006101999999MA1101101999999MW1171REMMET070SPECI SBLP 141615Z /////KT 9999 TS FEW020 BKN030 FEW040CB 28/22 Q1011=
0176832880999992014111417004-13262-043408FM-15+044399999V0209999N999999999999N009999199+02901+02201999999ADDGA1041+009141999GA2021+012191091GE19MSL   +99999+99999GF199999041999009141999999MA1101001999999MW1171REMMET063METAR SBLP 141700Z /////KT 9999 TS SCT030 FEW040CB 29/22 Q1010=
0199832880999992014111418004-13262-043408FM-15+044399999V0209999N99999030481CN009999199+02701+02601999999ADDGA1021+006101999GA2021+012191091GA3041+030481999GE19MSL   +99999+99999GF199999021999006101999999MA1101001999999MW1171REMMET070METAR SBLP 141800Z /////KT 9999 TS FEW020 FEW040CB SCT100 27/26 Q1010=
0165832880999992014111419004-13262-043408FM-15+044399999V0209999N999990304819N009999199+02801+02201999999ADDGA1041+006101999GA2071+030481999GE19MSL   +99999+99999GF199999041999006101999999MA1101001999999REMMET058METAR SBLP 141900Z /////KT 9999 SCT020 BKN100 28/22 Q1010=
0165832880999992014111420004-13262-043408FM-15+044399999V0209999N999990304819N009999199+02701+02301999999ADDGA1021+006101999GA2071+030481999GE19MSL   +99999+99999GF199999021999006101999999MA1101001999999REMMET058METAR SBLP 142000Z /////KT 9999 FEW020 BKN100 27/23 Q1010=
0175832880999992014111711154-13262-043408FM-16+044399999V0209999N999990274319N009999199+02201+02201999999ADDGA1041+006101999GA2081+027431999GE19MSL   +99999+99999GF199999041999006101999999MA1101501999999MW1611REMMET062SPECI SBLP 171115Z /////KT 9999 -RA SCT020 OVC090 22/22 Q1015=
0175832880999992014111712004-13262-043408FM-15+044399999V0209999N999990274319N009999199+02301+02201999999ADDGA1041+006101999GA2081+027431999GE19MSL   +99999+99999GF199999041999006101999999MA1101501999999MW1611REMMET062METAR SBLP 171200Z /////KT 9999 -RA SCT020 OVC090 23/22 Q1015=
0175832880999992014111713004-13262-043408FM-15+044399999V0209999N999990274319N009999199+02401+02201999999ADDGA1041+006101999GA2081+027431999GE19MSL   +99999+99999GF199999041999006101999999MA1101501999999MW1611REMMET062METAR SBLP 171300Z /////KT 9999 -RA SCT020 OVC090 24/22 Q1015=
0165832880999992014111714004-13262-043408FM-15+044399999V0209999N999990304819N009999199+02501+02201999999ADDGA1041+006101999GA2071+030481999GE19MSL   +99999+99999GF199999041999006101999999MA1101501999999REMMET058METAR SBLP 171400Z /////KT 9999 SCT020 BKN100 25/22 Q1015=
0175832880999992014111715004-13262-043408FM-15+044399999V0209999N999990274319N009999199+02601+02201999999ADDGA1041+006101999GA2081+027431999GE19MSL   +99999+99999GF199999041999006101999999MA1101401999999MW1611REMMET062METAR SBLP 171500Z /////KT 9999 -RA SCT020 OVC090 26/22 Q1014=
0165832880999992014111716154-13262-043408FM-16+044399999V0209999N999990304819N009999199+02401+02301999999ADDGA1041+006101999GA2071+030481999GE19MSL   +99999+99999GF199999041999006101999999MA1101301999999REMMET058SPECI SBLP 171615Z /////KT 9999 SCT020 BKN100 24/23 Q1013=
0165832880999992014111717004-13262-043408FM-15+044399999V0209999N999990304819N009999199+02401+02201999999ADDGA1041+006101999GA2071+030481999GE19MSL   +99999+99999GF199999041999006101999999MA1101301999999REMMET058METAR SBLP 171700Z /////KT 9999 SCT020 BKN100 24/22 Q1013=
0165832880999992014111718004-13262-043408FM-15+044399999V0209999N999990304819N009999199+02601+02301999999ADDGA1041+006101999GA2071+030481999GE19MSL   +99999+99999GF199999041999006101999999MA1101201999999REMMET058METAR SBLP 171800Z /////KT 9999 SCT020 BKN100 26/23 Q1012=
0165832880999992014111719004-13262-043408FM-15+044399999V0209999N999990304819N009999199+02601+02201999999ADDGA1041+006101999GA2071+030481999GE19MSL   +99999+99999GF199999041999006101999999MA1101201999999REMMET058METAR SBLP 171900Z /////KT 9999 SCT020 BKN100 26/22 Q1012=
0165832880999992014111720004-13262-043408FM-15+044399999V0209999N999990061019N009999199+02501+02201999999ADDGA1071+006101999GA2071+030481999GE19MSL   +99999+99999GF199999071999006101999999MA1101201999999REMMET058METAR SBLP 172000Z /////KT 9999 BKN020 BKN100 25/22 Q1012=
0165832880999992014111811154-13262-043408FM-16+044399999V0209999N999990304819N009999199+02301+01901999999ADDGA1041+006101999GA2071+030481999GE19MSL   +99999+99999GF199999041999006101999999MA1101601999999REMMET058SPECI SBLP 181115Z /////KT 9999 SCT020 BKN100 23/19 Q1016=
0165832880999992014111812004-13262-043408FM-15+044399999V0209999N999990304819N009999199+02501+01901999999ADDGA1041+006101999GA2071+030481999GE19MSL   +99999+99999GF199999041999006101999999MA1101601999999REMMET058METAR SBLP 181200Z /////KT 9999 SCT020 BKN100 25/19 Q1016=
0165832880999992014111813004-13262-043408FM-15+044399999V0209999N999990061019N009999199+02601+01801999999ADDGA1071+006101999GA2071+030481999GE19MSL   +99999+99999GF199999071999006101999999MA1101601999999REMMET058METAR SBLP 181300Z /////KT 9999 BKN020 BKN100 26/18 Q1016=
0165832880999992014111814004-13262-043408FM-15+044399999V0209999N999990061019N009999199+02701+01801999999ADDGA1071+006101999GA2071+030481999GE19MSL   +99999+99999GF199999071999006101999999MA1101501999999REMMET058METAR SBLP 181400Z /////KT 9999 BKN020 BKN100 27/18 Q1015=
0165832880999992014111815004-13262-043408FM-15+044399999V0209999N999990061019N009999199+02601+01901999999ADDGA1071+006101999GA2071+030481999GE19MSL   +99999+99999GF199999071999006101999999MA1101501999999REMMET058METAR SBLP 181500Z /////KT 9999 BKN020 BKN100 26/19 Q1015=
0165832880999992014111816154-13262-043408FM-16+044399999V0209999N999990061019N009999199+02501+02001999999ADDGA1071+006101999GA2071+030481999GE19MSL   +99999+99999GF199999071999006101999999MA1101301999999REMMET058SPECI SBLP 181615Z /////KT 9999 BKN020 BKN100 25/20 Q1013=
0165832880999992014111817004-13262-043408FM-15+044399999V0209999N999990061019N009999199+02601+01901999999ADDGA1071+006101999GA2071+030481999GE19MSL   +99999+99999GF199999071999006101999999MA1101301999999REMMET058METAR SBLP 181700Z /////KT 9999 BKN020 BKN100 26/19 Q1013=
0165832880999992014111818004-13262-043408FM-15+044399999V0209999N999990061019N009999199+02601+02001999999ADDGA1071+006101999GA2071+030481999GE19MSL   +99999+99999GF199999071999006101999999MA1101201999999REMMET058METAR SBLP 181800Z /////KT 9999 BKN020 BKN100 26/20 Q1012=
0165832880999992014111819004-13262-043408FM-15+044399999V0209999N999990304819N009999199+02601+02001999999ADDGA1041+006101999GA2071+030481999GE19MSL   +99999+99999GF199999041999006101999999MA1101201999999REMMET058METAR SBLP 181900Z /////KT 9999 SCT020 BKN100 26/20 Q1012=
0165832880999992014111820004-13262-043408FM-15+044399999V0209999N999990304819N009999199+02601+02001999999ADDGA1041+006101999GA2071+030481999GE19MSL   +99999+99999GF199999041999006101999999MA1101201999999REMMET058METAR SBLP 182000Z /////KT 9999 SCT020 BKN100 26/20 Q1012=
0165832880999992014111911154-13262-043408FM-16+044399999V0209999N999990304819N009999199+02401+01901999999ADDGA1021+009141999GA2071+030481999GE19MSL   +99999+99999GF199999021999009141999999MA1101701999999REMMET058SPECI SBLP 191115Z /////KT 9999 FEW030 BKN100 24/19 Q1017=
0165832880999992014111912004-13262-043408FM-15+044399999V0209999N999990304819N009999199+02601+01901999999ADDGA1021+006101999GA2071+030481999GE19MSL   +99999+99999GF199999021999006101999999MA1101701999999REMMET058METAR SBLP 191200Z /////KT 9999 FEW020 BKN100 26/19 Q1017=
0165832880999992014111913004-13262-043408FM-15+044399999V0209999N999990304819N009999199+02801+01801999999ADDGA1021+006101999GA2071+030481999GE19MSL   +99999+99999GF199999021999006101999999MA1101701999999REMMET058METAR SBLP 191300Z /////KT 9999 FEW020 BKN100 28/18 Q1017=
0165832880999992014111914004-13262-043408FM-15+044399999V0209999N999990304819N009999199+02801+02001999999ADDGA1041+006101999GA2071+030481999GE19MSL   +99999+99999GF199999041999006101999999MA1101601999999REMMET058METAR SBLP 191400Z /////KT 9999 SCT020 BKN100 28/20 Q1016=
0165832880999992014111915004-13262-043408FM-15+044399999V0209999N999990304819N009999199+02901+01901999999ADDGA1021+006101999GA2071+030481999GE19MSL   +99999+99999GF199999021999006101999999MA1101501999999REMMET058METAR SBLP 191500Z /////KT 9999 FEW020 BKN100 29/19 Q1015=
0188832880999992014111916154-13262-043408FM-16+044399999V0209999N99999009141CN009999199+03001+01901999999ADDGA1021+006101999GA2041+009141999GA3071+030481999GE19MSL   +99999+99999GF199999021999006101999999MA1101401999999REMMET065SPECI SBLP 191615Z /////KT 9999 FEW020 SCT030 BKN100 30/19 Q1014=
0165832880999992014111917004-13262-043408FM-15+044399999V0209999N99999009141CN009999199+03001+02001999999ADDGA1021+006101999GA2041+009141999GE19MSL   +99999+99999GF199999021999006101999999MA1101301999999REMMET058METAR SBLP 191700Z /////KT 9999 FEW020 SCT030 30/20 Q1013=
0191832880999992014111918004-13262-043408FM-15+044399999V0209999N99999030481CN009999199+03101+01901999999ADDGA1021+006101999GA2021+012191081GA3041+030481999GE19MSL   +99999+99999GF199999021999006101999999MA1101201999999REMMET068METAR SBLP 191800Z /////KT 9999 FEW020 FEW040TCU SCT100 31/19 Q1012=
0142832880999992014111919004-13262-043408FM-15+044399999V0209999N999990091419N009999199+03101+02001999999ADDGA1071+009141999GE19MSL   +99999+99999GF199999071999009141999999MA1101201999999REMMET051METAR SBLP 191900Z /////KT 9999 BKN030 31/20 Q1012=
0142832880999992014111920004-13262-043408FM-15+044399999V0209999N999990091419N009999199+02901+01901999999ADDGA1071+009141999GE19MSL   +99999+99999GF199999071999009141999999MA1101201999999REMMET051METAR SBLP 192000Z /////KT 9999 BKN030 29/19 Q1012=
0142832880999992014112011154-13262-043408FM-16+044399999V0209999N999999999999N009999199+02801+02001999999ADDGA1021+009141999GE19MSL   +99999+99999GF199999021999009141999999MA1101601999999REMMET051SPECI SBLP 201115Z /////KT 9999 FEW030 28/20 Q1016=
0072832880999992014112012004-13262-043408FM-15+044399999V0209999N999999999999Y999999999+02901+01901999999ADDMA1101601999999REMMET045METAR SBLP 201200Z /////KT CAVOK 29/19 Q1016=
0142832880999992014112013004-13262-043408FM-15+044399999V0209999N999999999999N009999199+03001+01801999999ADDGA1021+009141999GE19MSL   +99999+99999GF199999021999009141999999MA1101601999999REMMET051METAR SBLP 201300Z /////KT 9999 FEW030 30/18 Q1016=
0142832880999992014112014004-13262-043408FM-15+044399999V0209999N999999999999N009999199+03101+01901999999ADDGA1041+009141999GE19MSL   +99999+99999GF199999041999009141999999MA1101601999999REMMET051METAR SBLP 201400Z /////KT 9999 SCT030 31/19 Q1016=
0142832880999992014112015004-13262-043408FM-15+044399999V0209999N999999999999N009999199+03101+01801999999ADDGA1041+009141999GE19MSL   +99999+99999GF199999041999009141999999MA1101401999999REMMET051METAR SBLP 201500Z /////KT 9999 SCT030 31/18 Q1014=
0165832880999992014112016154-13262-043408FM-16+044399999V0209999N99999030481CN009999199+03201+01901999999ADDGA1041+009141999GA2041+030481999GE19MSL   +99999+99999GF199999041999009141999999MA1101401999999REMMET058SPECI SBLP 201615Z /////KT 9999 SCT030 SCT100 32/19 Q1014=
0207832880999992014112017004-13262-043408FM-15+044399999V0209999N999990304819N009999199+03201+01801999999ADDGA1041+009141999GA2021+012191091GA3071+030481999GE19MSL   +99999+99999GF199999041999009141999999MA1101301999999MW1951REMMET078METAR SBLP 201700Z /////KT 9999 -TSRA SCT030 FEW040CB BKN100 32/18      Q1013=
0202832880999992014112018004-13262-043408FM-15+044399999V0209999N99999030481CN009999199+03001+02101999999ADDGA1021+009141999GA2021+012191081GA3041+030481999GE19MSL   +99999+99999GF199999021999009141999999MA1101201999999REMMET079METAR SBLP 201800Z /////KT 9999 FEW030 FEW040TCU SCT100 30/21 Q1012      R ETS=
0165832880999992014112019004-13262-043408FM-15+044399999V0209999N99999030481CN009999199+02901+02101999999ADDGA1021+009141999GA2041+030481999GE19MSL   +99999+99999GF199999021999009141999999MA1101201999999REMMET058METAR SBLP 201900Z /////KT 9999 FEW030 SCT100 29/21 Q1012=
0168832880999992014112020004-13262-043408FM-15+044399999V0209999N999999999999N009999199+02901+02001999999ADDGA1021+009141999GA2021+012191081GE19MSL   +99999+99999GF199999021999009141999999MA1101201999999REMMET061METAR SBLP 202000Z /////KT 9999 FEW030 FEW040TCU 29/20 Q1012=
0072832880999992014112111154-13262-043408FM-15+044399999V0209999N999999999999Y999999999+02801+02001999999ADDMA1101601999999REMMET045METAR SBLP 211115Z /////KT CAVOK 28/20 Q1016=
0072832880999992014112111154-13262-043408FM-16+044399999V0209999N999999999999Y999999999+02801+02001999999ADDMA1101601999999REMMET045SPECI SBLP 211115Z /////KT CAVOK 28/20 Q1016=
0072832880999992014112112004-13262-043408FM-15+044399999V0209999N999999999999Y999999999+02901+02001999999ADDMA1101601999999REMMET045METAR SBLP 211200Z /////KT CAVOK 29/20 Q1016=
0072832880999992014112113004-13262-043408FM-15+044399999V0209999N999999999999Y999999999+03001+02001999999ADDMA1101601999999REMMET045METAR SBLP 211300Z /////KT CAVOK 30/20 Q1016=
0142832880999992014112114004-13262-043408FM-15+044399999V0209999N999999999999N009999199+03101+02001999999ADDGA1021+006101999GE19MSL   +99999+99999GF199999021999006101999999MA1101501999999REMMET051METAR SBLP 211400Z /////KT 9999 FEW020 31/20 Q1015=
0142832880999992014112115004-13262-043408FM-15+044399999V0209999N999999999999N009999199+03301+01901999999ADDGA1041+009141999GE19MSL   +99999+99999GF199999041999009141999999MA1101401999999REMMET051METAR SBLP 211500Z /////KT 9999 SCT030 33/19 Q1014=
0168832880999992014112116154-13262-043408FM-16+044399999V0209999N999990091419N009999199+03301+01901999999ADDGA1071+009141999GA2021+012191081GE19MSL   +99999+99999GF199999071999009141999999MA1101301999999REMMET061SPECI SBLP 211615Z /////KT 9999 BKN030 FEW040TCU 33/19 Q1013=
0168832880999992014112117004-13262-043408FM-15+044399999V0209999N999990091419N009999199+03001+02101999999ADDGA1071+009141999GA2021+012191081GE19MSL   +99999+99999GF199999071999009141999999MA1101201999999REMMET061METAR SBLP 211700Z /////KT 9999 BKN030 FEW040TCU 30/21 Q1012=
0207832880999992014112117254-13262-043408FM-16+044399999V0209999N999999999999N009999199+03201+02101999999ADDGA1041+009141999GA2021+012191081GA3021+012191091GE19MSL   +99999+99999GF199999041999009141999999MA1101201999999MW1171REMMET078SPECI SBLP 211725Z /////KT 9999 TS SCT030 FEW040TCU FEW040CB 32/21      Q1012=
0193832880999992014112118004-13262-043408FM-15+044399999V0209999N999990304819N009999199+02901+02201999999ADDGA1021+009141999GA2021+012191091GA3071+030481999GE19MSL   +99999+99999GF199999021999009141999999MW1951REMMET079METAR SBLP 211800Z /////KT 9999 -TSRA FEW030 FEW040CB BKN100 29/22      Q1 012=
0191832880999992014112119004-13262-043408FM-15+044399999V0209999N999990304819N009999199+03001+02201999999ADDGA1021+009141999GA2021+012191081GA3071+030481999GE19MSL   +99999+99999GF199999021999009141999999MA1101101999999REMMET068METAR SBLP 211900Z /////KT 9999 FEW030 FEW040TCU BKN100 30/22 Q1011=
0165832880999992014112120004-13262-043408FM-15+044399999V0209999N999990304819N009999199+03201+02201999999ADDGA1021+009141999GA2071+030481999GE19MSL   +99999+99999GF199999021999009141999999MA1101101999999REMMET058METAR SBLP 212000Z /////KT 9999 FEW030 BKN100 32/22 Q1011=
0072832880999992014112411154-13262-043408FM-16+044399999V0209999N999999999999Y999999999+02701+02201999999ADDMA1101201999999REMMET045SPECI SBLP 241115Z /////KT CAVOK 27/22 Q1012=
0142832880999992014112412004-13262-043408FM-15+044399999V0209999N999999999999N009999199+02901+02101999999ADDGA1021+009141999GE19MSL   +99999+99999GF199999021999009141999999MA1101702999999REMMET051METAR SBLP 241200Z /////KT 9999 FEW030 29/21 Q1017=
0142832880999992014112413004-13262-043408FM-15+044399999V0209999N999999999999N009999199+03101+02001999999ADDGA1021+009141999GE19MSL   +99999+99999GF199999021999009141999999MA1101701999999REMMET051METAR SBLP 241300Z /////KT 9999 FEW030 31/20 Q1017=
0142832880999992014112414004-13262-043408FM-15+044399999V0209999N999999999999N009999199+03101+01801999999ADDGA1021+009141999GE19MSL   +99999+99999GF199999021999009141999999MA1101601999999REMMET051METAR SBLP 241400Z /////KT 9999 FEW030 31/18 Q1016=
0142832880999992014112415004-13262-043408FM-15+044399999V0209999N999999999999N009999199+03301+02001999999ADDGA1021+009141999GE19MSL   +99999+99999GF199999021999009141999999MA1101501999999REMMET051METAR SBLP 241500Z /////KT 9999 FEW030 33/20 Q1015=
0142832880999992014112416154-13262-043408FM-16+044399999V0209999N999999999999N009999199+03301+01901999999ADDGA1021+009141999GE19MSL   +99999+99999GF199999021999009141999999MA1101401999999REMMET051SPECI SBLP 241615Z /////KT 9999 FEW030 33/19 Q1014=
0142832880999992014112417004-13262-043408FM-15+044399999V0209999N999999999999N009999199+03301+02001999999ADDGA1021+009141999GE19MSL   +99999+99999GF199999021999009141999999MA1101301999999REMMET051METAR SBLP 241700Z /////KT 9999 FEW030 33/20 Q1013=
0142832880999992014112418004-13262-043408FM-15+044399999V0209999N999999999999N009999199+03301+01901999999ADDGA1021+009141999GE19MSL   +99999+99999GF199999021999009141999999MA1101201999999REMMET051METAR SBLP 241800Z /////KT 9999 FEW030 33/19 Q1012=
0142832880999992014112419004-13262-043408FM-15+044399999V0209999N999999999999N009999199+03301+01901999999ADDGA1021+009141999GE19MSL   +99999+99999GF199999021999009141999999MA1101101999999REMMET051METAR SBLP 241900Z /////KT 9999 FEW030 33/19 Q1011=
0142832880999992014112420004-13262-043408FM-15+044399999V0209999N999999999999N009999199+03101+02001999999ADDGA1021+009141999GE19MSL   +99999+99999GF199999021999009141999999MA1101101999999REMMET051METAR SBLP 242000Z /////KT 9999 FEW030 31/20 Q1011=
0072832880999992014112511154-13262-043408FM-16+044399999V0209999N999999999999Y999999999+03001+01801999999ADDMA1101501999999REMMET045SPECI SBLP 251115Z /////KT CAVOK 30/18 Q1015=
0072832880999992014112512004-13262-043408FM-15+044399999V0209999N999999999999Y999999999+03101+01901999999ADDMA1101501999999REMMET045METAR SBLP 251200Z /////KT CAVOK 31/19 Q1015=
0072832880999992014112513004-13262-043408FM-15+044399999V0209999N999999999999Y999999999+03201+01801999999ADDMA1101401999999REMMET045METAR SBLP 251300Z /////KT CAVOK 32/18 Q1014=
0142832880999992014112514004-13262-043408FM-15+044399999V0209999N999999999999N009999199+03301+01901999999ADDGA1021+009141999GE19MSL   +99999+99999GF199999021999009141999999MA1101401999999REMMET051METAR SBLP 251400Z /////KT 9999 FEW030 33/19 Q1014=
0142832880999992014112515004-13262-043408FM-15+044399999V0209999N999999999999N009999199+03401+01801999999ADDGA1021+009141999GE19MSL   +99999+99999GF199999021999009141999999MA1101301999999REMMET051METAR SBLP 251500Z /////KT 9999 FEW030 34/18 Q1013=
0142832880999992014112516154-13262-043408FM-16+044399999V0209999N999999999999N009999199+03401+01801999999ADDGA1041+009141999GE19MSL   +99999+99999GF199999041999009141999999MA1101101999999REMMET051SPECI SBLP 251615Z /////KT 9999 SCT030 34/18 Q1011=
0142832880999992014112517004-13262-043408FM-15+044399999V0209999N999999999999N009999199+03501+01801999999ADDGA1041+009141999GE19MSL   +99999+99999GF199999041999009141999999MA1101001999999REMMET051METAR SBLP 251700Z /////KT 9999 SCT030 35/18 Q1010=
0142832880999992014112518004-13262-043408FM-15+044399999V0209999N999999999999N009999199+03601+01801999999ADDGA1041+009141999GE19MSL   +99999+99999GF199999041999009141999999MA1100901999999REMMET051METAR SBLP 251800Z /////KT 9999 SCT030 36/18 Q1009=
0142832880999992014112519004-13262-043408FM-15+044399999V0209999N999999999999N009999199+03501+01701999999ADDGA1041+009141999GE19MSL   +99999+99999GF199999041999009141999999MA1100801999999REMMET051METAR SBLP 251900Z /////KT 9999 SCT030 35/17 Q1008=
0142832880999992014112520004-13262-043408FM-15+044399999V0209999N999999999999N009999199+03401+01801999999ADDGA1041+009141999GE19MSL   +99999+99999GF199999041999009141999999MA1100801999999REMMET051METAR SBLP 252000Z /////KT 9999 SCT030 34/18 Q1008=
0072832880999992014112611154-13262-043408FM-16+044399999V0209999N999999999999Y999999999+02801+01901999999ADDMA1101401999999REMMET045SPECI SBLP 261115Z /////KT CAVOK 28/19 Q1014=
0072832880999992014112612004-13262-043408FM-15+044399999V0209999N999999999999Y999999999+03001+01801999999ADDMA1101401999999REMMET045METAR SBLP 261200Z /////KT CAVOK 30/18 Q1014=
0072832880999992014112613004-13262-043408FM-15+044399999V0209999N999999999999Y999999999+03001+01801999999ADDMA1101501999999REMMET045METAR SBLP 261300Z /////KT CAVOK 30/18 Q1015=
0142832880999992014112614004-13262-043408FM-15+044399999V0209999N999999999999N009999199+03101+01901999999ADDGA1021+009141999GE19MSL   +99999+99999GF199999021999009141999999MA1101401999999REMMET051METAR SBLP 261400Z /////KT 9999 FEW030 31/19 Q1014=
0146832880999992014112615004-13262-043408FM-15+044399999V0209999N999999999999N009999199+03101+01801999999ADDGA1021+009141999GE19MSL   +99999+99999GF199999021999009141999999MA1101301999999REMMET055METAR COR SBLP 261500Z /////KT 9999 FEW030 31/18 Q1013=
0142832880999992014112616154-13262-043408FM-16+044399999V0209999N999999999999N009999199+03201+01901999999ADDGA1041+009141999GE19MSL   +99999+99999GF199999041999009141999999MA1101201999999REMMET051SPECI SBLP 261615Z /////KT 9999 SCT030 32/19 Q1012=
0142832880999992014112617004-13262-043408FM-15+044399999V0209999N999999999999N009999199+03301+01901999999ADDGA1041+009141999GE19MSL   +99999+99999GF199999041999009141999999MA1101101999999REMMET051METAR SBLP 261700Z /////KT 9999 SCT030 33/19 Q1011=
0142832880999992014112618004-13262-043408FM-15+044399999V0209999N999999999999N009999199+03301+01801999999ADDGA1041+009141999GE19MSL   +99999+99999GF199999041999009141999999MA1101101999999REMMET051METAR SBLP 261800Z /////KT 9999 SCT030 33/18 Q1011=
0142832880999992014112619004-13262-043408FM-15+044399999V0209999N999999999999N009999199+03401+01801999999ADDGA1021+009141999GE19MSL   +99999+99999GF199999021999009141999999MA1101001999999REMMET051METAR SBLP 261900Z /////KT 9999 FEW030 34/18 Q1010=
0142832880999992014112620004-13262-043408FM-15+044399999V0209999N999999999999N009999199+03201+02001999999ADDGA1021+009141999GE19MSL   +99999+99999GF199999021999009141999999MA1101001999999REMMET051METAR SBLP 262000Z /////KT 9999 FEW030 32/20 Q1010=
0072832880999992014112711154-13262-043408FM-16+044399999V0209999N999999999999Y999999999+02701+01701999999ADDMA1101501999999REMMET045SPECI SBLP 271115Z /////KT CAVOK 27/17 Q1015=
0072832880999992014112712004-13262-043408FM-15+044399999V0209999N999999999999Y999999999+02801+01701999999ADDMA1101501999999REMMET045METAR SBLP 271200Z /////KT CAVOK 28/17 Q1015=
0072832880999992014112713004-13262-043408FM-15+044399999V0209999N999999999999Y999999999+03101+01901999999ADDMA1101501999999REMMET045METAR SBLP 271300Z /////KT CAVOK 31/19 Q1015=
0142832880999992014112714004-13262-043408FM-15+044399999V0209999N999999999999N009999199+03101+01901999999ADDGA1021+009141999GE19MSL   +99999+99999GF199999021999009141999999MA1101401999999REMMET051METAR SBLP 271400Z /////KT 9999 FEW030 31/19 Q1014=
0142832880999992014112715004-13262-043408FM-15+044399999V0209999N999999999999N009999199+03201+01901999999ADDGA1021+009141999GE19MSL   +99999+99999GF199999021999009141999999MA1101401999999REMMET051METAR SBLP 271500Z /////KT 9999 FEW030 32/19 Q1014=
0142832880999992014112716154-13262-043408FM-16+044399999V0209999N999999999999N009999199+03401+01801999999ADDGA1021+009141999GE19MSL   +99999+99999GF199999021999009141999999MA1101201999999REMMET051SPECI SBLP 271615Z /////KT 9999 FEW030 34/18 Q1012=
0142832880999992014112717004-13262-043408FM-15+044399999V0209999N999999999999N009999199+03401+01801999999ADDGA1021+009141999GE19MSL   +99999+99999GF199999021999009141999999MA1101101999999REMMET051METAR SBLP 271700Z /////KT 9999 FEW030 34/18 Q1011=
0142832880999992014112718004-13262-043408FM-15+044399999V0209999N999999999999N009999199+03401+01701999999ADDGA1041+009141999GE19MSL   +99999+99999GF199999041999009141999999MA1101101999999REMMET051METAR SBLP 271800Z /////KT 9999 SCT030 34/17 Q1011=
0142832880999992014112719004-13262-043408FM-15+044399999V0209999N999999999999N009999199+03501+01701999999ADDGA1041+009141999GE19MSL   +99999+99999GF199999041999009141999999MA1101001999999REMMET051METAR SBLP 271900Z /////KT 9999 SCT030 35/17 Q1010=
0142832880999992014112720004-13262-043408FM-15+044399999V0209999N999999999999N009999199+03401+01701999999ADDGA1021+009141999GE19MSL   +99999+99999GF199999021999009141999999MA1101001999999REMMET051METAR SBLP 272000Z /////KT 9999 FEW030 34/17 Q1010=
0072832880999992014112811154-13262-043408FM-16+044399999V0209999N999999999999Y999999999+02901+01901999999ADDMA1101501999999REMMET045SPECI SBLP 281115Z /////KT CAVOK 29/19 Q1015=
0072832880999992014112812004-13262-043408FM-15+044399999V0209999N999999999999Y999999999+03001+01701999999ADDMA1101501999999REMMET045METAR SBLP 281200Z /////KT CAVOK 30/17 Q1015=
0072832880999992014112813004-13262-043408FM-15+044399999V0209999N999999999999Y999999999+03201+01801999999ADDMA1101501999999REMMET045METAR SBLP 281300Z /////KT CAVOK 32/18 Q1015=
0072832880999992014112814004-13262-043408FM-15+044399999V0209999N999999999999Y999999999+03301+01901999999ADDMA1101501999999REMMET045METAR SBLP 281400Z /////KT CAVOK 33/19 Q1015=
0142832880999992014112815004-13262-043408FM-15+044399999V0209999N999999999999N009999199+03301+01701999999ADDGA1021+009141999GE19MSL   +99999+99999GF199999021999009141999999MA1101401999999REMMET051METAR SBLP 281500Z /////KT 9999 FEW030 33/17 Q1014=
0142832880999992014112816154-13262-043408FM-16+044399999V0209999N999999999999N009999199+03501+01701999999ADDGA1021+009141999GE19MSL   +99999+99999GF199999021999009141999999MA1101301999999REMMET051SPECI SBLP 281615Z /////KT 9999 FEW030 35/17 Q1013=
0142832880999992014112817004-13262-043408FM-15+044399999V0209999N999999999999N009999199+03501+01601999999ADDGA1021+009141999GE19MSL   +99999+99999GF199999021999009141999999MA1101201999999REMMET051METAR SBLP 281700Z /////KT 9999 FEW030 35/16 Q1012=
0142832880999992014112818004-13262-043408FM-15+044399999V0209999N999999999999N009999199+03501+01701999999ADDGA1021+009141999GE19MSL   +99999+99999GF199999021999009141999999MA1101101999999REMMET051METAR SBLP 281800Z /////KT 9999 FEW030 35/17 Q1011=
0142832880999992014112819004-13262-043408FM-15+044399999V0209999N999999999999N009999199+03501+01601999999ADDGA1021+009141999GE19MSL   +99999+99999GF199999021999009141999999MA1101101999999REMMET051METAR SBLP 281900Z /////KT 9999 FEW030 35/16 Q1011=
0072832880999992014112820004-13262-043408FM-15+044399999V0209999N999999999999Y999999999+03401+01701999999ADDMA1101101999999REMMET045METAR SBLP 282000Z /////KT CAVOK 34/17 Q1011=
0165832880999992014120111154-13262-043408FM-16+044399999V0209999N99999030481CN009999199+02501+01601999999ADDGA1021+009141999GA2041+030481999GE19MSL   +99999+99999GF199999021999009141999999MA1101701999999REMMET058SPECI SBLP 011115Z /////KT 9999 FEW030 SCT100 25/16 Q1017=
0165832880999992014120112004-13262-043408FM-15+044399999V0209999N99999030481CN009999199+02701+01601999999ADDGA1021+009141999GA2041+030481999GE19MSL   +99999+99999GF199999021999009141999999MA1101701999999REMMET058METAR SBLP 011200Z /////KT 9999 FEW030 SCT100 27/16 Q1017=
0165832880999992014120113004-13262-043408FM-15+044399999V0209999N99999030481CN009999199+02701+01501999999ADDGA1021+009141999GA2041+030481999GE19MSL   +99999+99999GF199999021999009141999999MA1101701999999REMMET058METAR SBLP 011300Z /////KT 9999 FEW030 SCT100 27/15 Q1017=
0142832880999992014120114004-13262-043408FM-15+044399999V0209999N999999999999N009999199+03001+01501999999ADDGA1021+009141999GE19MSL   +99999+99999GF199999021999009141999999MA1101601999999REMMET051METAR SBLP 011400Z /////KT 9999 FEW030 30/15 Q1016=
0165832880999992014120115004-13262-043408FM-15+044399999V0209999N99999030481CN009999199+03101+01601999999ADDGA1021+009141999GA2041+030481999GE19MSL   +99999+99999GF199999021999009141999999MA1101501999999REMMET058METAR SBLP 011500Z /////KT 9999 FEW030 SCT100 31/16 Q1015=
0165832880999992014120116154-13262-043408FM-16+044399999V0209999N99999030481CN009999199+03201+01701999999ADDGA1021+009141999GA2041+030481999GE19MSL   +99999+99999GF199999021999009141999999MA1101401999999REMMET058SPECI SBLP 011615Z /////KT 9999 FEW030 SCT100 32/17 Q1014=
0165832880999992014120117004-13262-043408FM-15+044399999V0209999N99999030481CN009999199+03301+01601999999ADDGA1021+009141999GA2041+030481999GE19MSL   +99999+99999GF199999021999009141999999MA1101401999999REMMET058METAR SBLP 011700Z /////KT 9999 FEW030 SCT100 33/16 Q1014=
0165832880999992014120118004-13262-043408FM-15+044399999V0209999N99999030481CN009999199+03301+01701999999ADDGA1021+009141999GA2041+030481999GE19MSL   +99999+99999GF199999021999009141999999MA1101301999999REMMET058METAR SBLP 011800Z /////KT 9999 FEW030 SCT100 33/17 Q1013=
0165832880999992014120119004-13262-043408FM-15+044399999V0209999N99999030481CN009999199+03201+01301999999ADDGA1021+009141999GA2041+030481999GE19MSL   +99999+99999GF199999021999009141999999MA1101201999999REMMET058METAR SBLP 011900Z /////KT 9999 FEW030 SCT100 32/13 Q1012=
0165832880999992014120120004-13262-043408FM-15+044399999V0209999N999990304819N009999199+03101+01301999999ADDGA1021+009141999GA2071+030481999GE19MSL   +99999+99999GF199999021999009141999999MA1101201999999REMMET058METAR SBLP 012000Z /////KT 9999 FEW030 BKN100 31/13 Q1012=
0165832880999992014120211154-13262-043408FM-16+044399999V0209999N999990304819N009999199+02601+01901999999ADDGA1021+006101999GA2071+030481999GE19MSL   +99999+99999GF199999021999006101999999MA1101601999999REMMET058SPECI SBLP 021115Z /////KT 9999 FEW020 BKN100 26/19 Q1016=
0165832880999992014120212004-13262-043408FM-15+044399999V0209999N999990304819N009999199+02701+01901999999ADDGA1021+006101999GA2071+030481999GE19MSL   +99999+99999GF199999021999006101999999MA1101601999999REMMET058METAR SBLP 021200Z /////KT 9999 FEW020 BKN100 27/19 Q1016=
0165832880999992014120213004-13262-043408FM-15+044399999V0209999N999990304819N009999199+02601+01801999999ADDGA1021+006101999GA2071+030481999GE19MSL   +99999+99999GF199999021999006101999999MA1101701999999REMMET058METAR SBLP 021300Z /////KT 9999 FEW020 BKN100 26/18 Q1017=
0165832880999992014120214004-13262-043408FM-15+044399999V0209999N999990304819N009999199+02701+01901999999ADDGA1021+006101999GA2071+030481999GE19MSL   +99999+99999GF199999021999006101999999MA1101601999999REMMET058METAR SBLP 021400Z /////KT 9999 FEW020 BKN100 27/19 Q1016=
0165832880999992014120215004-13262-043408FM-15+044399999V0209999N999990304819N009999199+02801+01701999999ADDGA1021+006101999GA2071+030481999GE19MSL   +99999+99999GF199999021999006101999999MA1101601999999REMMET058METAR SBLP 021500Z /////KT 9999 FEW020 BKN100 28/17 Q1016=
0165832880999992014120216154-13262-043408FM-16+044399999V0209999N999990304819N009999199+02801+01801999999ADDGA1021+006101999GA2071+030481999GE19MSL   +99999+99999GF199999021999006101999999MA1101501999999REMMET058SPECI SBLP 021615Z /////KT 9999 FEW020 BKN100 28/18 Q1015=
0165832880999992014120217004-13262-043408FM-15+044399999V0209999N999990304819N009999199+02801+01801999999ADDGA1021+006101999GA2071+030481999GE19MSL   +99999+99999GF199999021999006101999999MA1101401999999REMMET058METAR SBLP 021700Z /////KT 9999 FEW020 BKN100 28/18 Q1014=
0165832880999992014120218004-13262-043408FM-15+044399999V0209999N999990304819N009999199+02701+01801999999ADDGA1041+006101999GA2071+030481999GE19MSL   +99999+99999GF199999041999006101999999MA1101401999999REMMET058METAR SBLP 021800Z /////KT 9999 SCT020 BKN100 27/18 Q1014=
0165832880999992014120219004-13262-043408FM-15+044399999V0209999N999990304819N009999199+02701+01801999999ADDGA1041+006101999GA2071+030481999GE19MSL   +99999+99999GF199999041999006101999999MA1101301999999REMMET058METAR SBLP 021900Z /////KT 9999 SCT020 BKN100 27/18 Q1013=
0165832880999992014120220004-13262-043408FM-15+044399999V0209999N999990304819N009999199+02501+01801999999ADDGA1021+006101999GA2071+030481999GE19MSL   +99999+99999GF199999021999006101999999MA1101301999999REMMET058METAR SBLP 022000Z /////KT 9999 FEW020 BKN100 25/18 Q1013=
0072832880999992014120311154-13262-043408FM-16+044399999V0209999N999999999999Y999999999+02601+01901999999ADDMA1101601999999REMMET045SPECI SBLP 031115Z /////KT CAVOK 26/19 Q1016=
0072832880999992014120312004-13262-043408FM-15+044399999V0209999N999999999999Y999999999+02801+01801999999ADDMA1101601999999REMMET045METAR SBLP 031200Z /////KT CAVOK 28/18 Q1016=
0072832880999992014120313004-13262-043408FM-15+044399999V0209999N999999999999Y999999999+03001+01801999999ADDMA1101501999999REMMET045METAR SBLP 031300Z /////KT CAVOK 30/18 Q1015=
0072832880999992014120314004-13262-043408FM-15+044399999V0209999N999999999999Y999999999+03001+01801999999ADDMA1101501999999REMMET045METAR SBLP 031400Z /////KT CAVOK 30/18 Q1015=
0072832880999992014120315004-13262-043408FM-15+044399999V0209999N999999999999Y999999999+03201+01701999999ADDMA1101401999999REMMET045METAR SBLP 031500Z /////KT CAVOK 32/17 Q1014=
0142832880999992014120316154-13262-043408FM-16+044399999V0209999N999999999999N009999199+03301+01601999999ADDGA1021+009141999GE19MSL   +99999+99999GF199999021999009141999999MA1101301999999REMMET051SPECI SBLP 031615Z /////KT 9999 FEW030 33/16 Q1013=
0142832880999992014120317004-13262-043408FM-15+044399999V0209999N999999999999N009999199+03401+01301999999ADDGA1021+009141999GE19MSL   +99999+99999GF199999021999009141999999MA1101201999999REMMET051METAR SBLP 031700Z /////KT 9999 FEW030 34/13 Q1012=
0142832880999992014120318004-13262-043408FM-15+044399999V0209999N999999999999N009999199+03401+01401999999ADDGA1021+009141999GE19MSL   +99999+99999GF199999021999009141999999MA1101101999999REMMET051METAR SBLP 031800Z /////KT 9999 FEW030 34/14 Q1011=
0142832880999992014120319004-13262-043408FM-15+044399999V0209999N999999999999N009999199+03401+01601999999ADDGA1021+009141999GE19MSL   +99999+99999GF199999021999009141999999MA1101001999999REMMET051METAR SBLP 031900Z /////KT 9999 FEW030 34/16 Q1010=
0142832880999992014120320004-13262-043408FM-15+044399999V0209999N999999999999N009999199+03401+01401999999ADDGA1021+009141999GE19MSL   +99999+99999GF199999021999009141999999MA1101001999999REMMET051METAR SBLP 032000Z /////KT 9999 FEW030 34/14 Q1010=
0072832880999992014120411154-13262-043408FM-16+044399999V0209999N999999999999Y999999999+02801+01801999999ADDMA1101401999999REMMET045SPECI SBLP 041115Z /////KT CAVOK 28/18 Q1014=
0072832880999992014120412004-13262-043408FM-15+044399999V0209999N999999999999Y999999999+03001+01801999999ADDMA1101401999999REMMET045METAR SBLP 041200Z /////KT CAVOK 30/18 Q1014=
0072832880999992014120413004-13262-043408FM-15+044399999V0209999N999999999999Y999999999+03101+01801999999ADDMA1101401999999REMMET045METAR SBLP 041300Z /////KT CAVOK 31/18 Q1014=
0142832880999992014120414004-13262-043408FM-15+044399999V0209999N999999999999N009999199+03201+01701999999ADDGA1021+009141999GE19MSL   +99999+99999GF199999021999009141999999MA1101401999999REMMET051METAR SBLP 041400Z /////KT 9999 FEW030 32/17 Q1014=
0142832880999992014120415004-13262-043408FM-15+044399999V0209999N999999999999N009999199+03301+01701999999ADDGA1041+009141999GE19MSL   +99999+99999GF199999041999009141999999MA1101301999999REMMET051METAR SBLP 041500Z /////KT 9999 SCT030 33/17 Q1013=
0142832880999992014120416154-13262-043408FM-16+044399999V0209999N999999999999N009999199+03401+01701999999ADDGA1041+009141999GE19MSL   +99999+99999GF199999041999009141999999MA1101201999999REMMET051SPECI SBLP 041615Z /////KT 9999 SCT030 34/17 Q1012=
0142832880999992014120417004-13262-043408FM-15+044399999V0209999N999999999999N009999199+03501+01601999999ADDGA1041+009141999GE19MSL   +99999+99999GF199999041999009141999999MA1101101999999REMMET051METAR SBLP 041700Z /////KT 9999 SCT030 35/16 Q1011=
0142832880999992014120418004-13262-043408FM-15+044399999V0209999N999999999999N009999199+03501+01601999999ADDGA1041+009141999GE19MSL   +99999+99999GF199999041999009141999999MA1101001999999REMMET051METAR SBLP 041800Z /////KT 9999 SCT030 35/16 Q1010=
0142832880999992014120419004-13262-043408FM-15+044399999V0209999N999999999999N009999199+03601+01501999999ADDGA1021+009141999GE19MSL   +99999+99999GF199999021999009141999999MA1101001999999REMMET051METAR SBLP 041900Z /////KT 9999 FEW030 36/15 Q1010=
0142832880999992014120420004-13262-043408FM-15+044399999V0209999N999999999999N009999199+03401+01301999999ADDGA1021+009141999GE19MSL   +99999+99999GF199999021999009141999999MA1101001999999REMMET051METAR SBLP 042000Z /////KT 9999 FEW030 34/13 Q1010=
0072832880999992014120511154-13262-043408FM-16+044399999V0209999N999999999999Y999999999+03001+01701999999ADDMA1101401999999REMMET045SPECI SBLP 051115Z /////KT CAVOK 30/17 Q1014=
0072832880999992014120512004-13262-043408FM-15+044399999V0209999N999999999999Y999999999+03101+01701999999ADDMA1101401999999REMMET045METAR SBLP 051200Z /////KT CAVOK 31/17 Q1014=
0072832880999992014120513004-13262-043408FM-15+044399999V0200901N001519999999Y999999999+03301+01701999999ADDMA1101401999999REMMET045METAR SBLP 051300Z 09003KT CAVOK 33/17 Q1014=
0142832880999992014120514004-13262-043408FM-15+044399999V0200101N002119999999N009999199+03301+01601999999ADDGA1021+009141999GE19MSL   +99999+99999GF199999021999009141999999MA1101401999999REMMET051METAR SBLP 051400Z 01004KT 9999 FEW030 33/16 Q1014=
0142832880999992014120515004-13262-043408FM-15+044399999V0202201N002619999999N009999199+03401+01501999999ADDGA1021+009141999GE19MSL   +99999+99999GF199999021999009141999999MA1101301999999REMMET051METAR SBLP 051500Z 22005KT 9999 FEW030 34/15 Q1013=
0142832880999992014120516154-13262-043408FM-16+044399999V0202701N003119999999N009999199+03501+01501999999ADDGA1021+009141999GE19MSL   +99999+99999GF199999021999009141999999MA1101101999999REMMET051SPECI SBLP 051615Z 27006KT 9999 FEW030 35/15 Q1011=
0142832880999992014120517004-13262-043408FM-15+044399999V0202701N002619999999N009999199+03501+01501999999ADDGA1021+009141999GE19MSL   +99999+99999GF199999021999009141999999MA1101101999999REMMET051METAR SBLP 051700Z 27005KT 9999 FEW030 35/15 Q1011=
0142832880999992014120518004-13262-043408FM-15+044399999V0202101N003619999999N009999199+03601+01401999999ADDGA1021+009141999GE19MSL   +99999+99999GF199999021999009141999999MA1101001999999REMMET051METAR SBLP 051800Z 21007KT 9999 FEW030 36/14 Q1010=
0142832880999992014120519004-13262-043408FM-15+044399999V0201801N001019999999N009999199+03501+01501999999ADDGA1021+009141999GE19MSL   +99999+99999GF199999021999009141999999MA1100901999999REMMET051METAR SBLP 051900Z 18002KT 9999 FEW030 35/15 Q1009=
0142832880999992014120520004-13262-043408FM-15+044399999V0209999C000019999999N009999199+03601+01501999999ADDGA1021+009141999GE19MSL   +99999+99999GF199999021999009141999999MA1100901999999REMMET051METAR SBLP 052000Z 00000KT 9999 FEW030 36/15 Q1009=
0165832880999992014120811154-13262-043408FM-16+044399999V0202201N002110091419N009999199+02301+02201999999ADDGA1041+006101999GA2071+009141999GE19MSL   +99999+99999GF199999041999006101999999MA1101701999999REMMET058SPECI SBLP 081115Z 22004KT 9999 SCT020 BKN030 23/22 Q1017=
0165832880999992014120812004-13262-043408FM-15+044399999V0202401N002610061019N009999199+02401+02201999999ADDGA1071+006101999GA2071+030481999GE19MSL   +99999+99999GF199999071999006101999999MA1101801999999REMMET058METAR SBLP 081200Z 24005KT 9999 BKN020 BKN100 24/22 Q1018=
0165832880999992014120813004-13262-043408FM-15+044399999V0202201N002110304819N009999199+02501+02201999999ADDGA1041+006101999GA2071+030481999GE19MSL   +99999+99999GF199999041999006101999999MA1101801999999REMMET058METAR SBLP 081300Z 22004KT 9999 SCT020 BKN100 25/22 Q1018=
0165832880999992014120814004-13262-043408FM-15+044399999V0202401N002110304819N009999199+02601+02201999999ADDGA1041+006101999GA2071+030481999GE19MSL   +99999+99999GF199999041999006101999999MA1101701999999REMMET058METAR SBLP 081400Z 24004KT 9999 SCT020 BKN100 26/22 Q1017=
0165832880999992014120815004-13262-043408FM-15+044399999V0202101N001510304819N009999199+02601+02301999999ADDGA1021+006101999GA2071+030481999GE19MSL   +99999+99999GF199999021999006101999999MA1101701999999REMMET058METAR SBLP 081500Z 21003KT 9999 FEW020 BKN100 26/23 Q1017=
0165832880999992014120816154-13262-043408FM-16+044399999V0202001N001510304819N009999199+02801+02301999999ADDGA1021+009141999GA2071+030481999GE19MSL   +99999+99999GF199999021999009141999999MA1101601999999REMMET058SPECI SBLP 081615Z 20003KT 9999 FEW030 BKN100 28/23 Q1016=
0165832880999992014120817004-13262-043408FM-15+044399999V0201001N002610304819N009999199+02801+02201999999ADDGA1021+009141999GA2071+030481999GE19MSL   +99999+99999GF199999021999009141999999MA1101501999999REMMET058METAR SBLP 081700Z 10005KT 9999 FEW030 BKN100 28/22 Q1015=
0165832880999992014120818004-13262-043408FM-15+044399999V0201301N002610304819N009999199+02901+02201999999ADDGA1021+009141999GA2071+030481999GE19MSL   +99999+99999GF199999021999009141999999MA1101401999999REMMET058METAR SBLP 081800Z 13005KT 9999 FEW030 BKN100 29/22 Q1014=
0165832880999992014120819004-13262-043408FM-15+044399999V0202101N001510304819N009999199+02901+02201999999ADDGA1021+009141999GA2071+030481999GE19MSL   +99999+99999GF199999021999009141999999MA1101401999999REMMET058METAR SBLP 081900Z 21003KT 9999 FEW030 BKN100 29/22 Q1014=
0165832880999992014120820004-13262-043408FM-15+044399999V0202001N002610304819N009999199+02801+02201999999ADDGA1021+009141999GA2071+030481999GE19MSL   +99999+99999GF199999021999009141999999MA1101301999999REMMET058METAR SBLP 082000Z 20005KT 9999 FEW030 BKN100 28/22 Q1013=
0165832880999992014120911154-13262-043408FM-16+044399999V0201701N002610304819N009999199+02501+02101999999ADDGA1021+006101999GA2071+030481999GE19MSL   +99999+99999GF199999021999006101999999MA1101501999999REMMET058SPECI SBLP 091115Z 17005KT 9999 FEW020 BKN100 25/21 Q1015=
0165832880999992014120912004-13262-043408FM-15+044399999V0201601N003110304819N009999199+02601+02101999999ADDGA1021+009141999GA2071+030481999GE19MSL   +99999+99999GF199999021999009141999999MA1101501999999REMMET058METAR SBLP 091200Z 16006KT 9999 FEW030 BKN100 26/21 Q1015=
0165832880999992014120913004-13262-043408FM-15+044399999V0201101N002110304819N009999199+02801+02101999999ADDGA1021+009141999GA2071+030481999GE19MSL   +99999+99999GF199999021999009141999999MA1101601999999REMMET058METAR SBLP 091300Z 11004KT 9999 FEW030 BKN100 28/21 Q1016=
0165832880999992014120914004-13262-043408FM-15+044399999V0201001N00261030481CN009999199+03001+02001999999ADDGA1041+009141999GA2041+030481999GE19MSL   +99999+99999GF199999041999009141999999MA1101601999999REMMET058METAR SBLP 091400Z 10005KT 9999 SCT030 SCT100 30/20 Q1016=
0165832880999992014120915004-13262-043408FM-15+044399999V0201301N00311030481CN009999199+03101+02001999999ADDGA1041+009141999GA2041+030481999GE19MSL   +99999+99999GF199999041999009141999999MA1101501999999REMMET058METAR SBLP 091500Z 13006KT 9999 SCT030 SCT100 31/20 Q1015=
0165832880999992014120916154-13262-043408FM-16+044399999V0201601N002610304819N009999199+03101+02101999999ADDGA1041+009141999GA2071+030481999GE19MSL   +99999+99999GF199999041999009141999999MA1101401999999REMMET058SPECI SBLP 091615Z 16005KT 9999 SCT030 BKN100 31/21 Q1014=
0165832880999992014120917004-13262-043408FM-15+044399999V0201401N002110304819N009999199+03201+01901999999ADDGA1021+009141999GA2071+030481999GE19MSL   +99999+99999GF199999021999009141999999MA1101301999999REMMET058METAR SBLP 091700Z 14004KT 9999 FEW030 BKN100 32/19 Q1013=
0165832880999992014120918004-13262-043408FM-15+044399999V0201201N00411030481CN009999199+03101+02001999999ADDGA1021+009141999GA2041+030481999GE19MSL   +99999+99999GF199999021999009141999999MA1101201999999REMMET058METAR SBLP 091800Z 12008KT 9999 FEW030 SCT100 31/20 Q1012=
0165832880999992014120919004-13262-043408FM-15+044399999V0201301N00211030481CN009999199+03201+01901999999ADDGA1021+009141999GA2041+030481999GE19MSL   +99999+99999GF199999021999009141999999MA1101101999999REMMET058METAR SBLP 091900Z 13004KT 9999 FEW030 SCT100 32/19 Q1011=
0165832880999992014120920004-13262-043408FM-15+044399999V0201001N00101030481CN009999199+03201+01701999999ADDGA1021+009141999GA2041+030481999GE19MSL   +99999+99999GF199999021999009141999999MA1101101999999REMMET058METAR SBLP 092000Z 10002KT 9999 FEW030 SCT100 32/17 Q1011=
0165832880999992014121011154-13262-043408FM-16+044399999V0209999C000010304819N009999199+02401+02001999999ADDGA1021+006101999GA2071+030481999GE19MSL   +99999+99999GF199999021999006101999999MA1101501999999REMMET058SPECI SBLP 101115Z 00000KT 9999 FEW020 BKN100 24/20 Q1015=
0165832880999992014121012004-13262-043408FM-15+044399999V0201401N002610304819N009999199+02701+02001999999ADDGA1021+006101999GA2071+030481999GE19MSL   +99999+99999GF199999021999006101999999MA1101601999999REMMET058METAR SBLP 101200Z 14005KT 9999 FEW020 BKN100 27/20 Q1016=
0165832880999992014121013004-13262-043408FM-15+044399999V0201201N002610304819N009999199+02901+01901999999ADDGA1021+009141999GA2071+030481999GE19MSL   +99999+99999GF199999021999009141999999MA1101601999999REMMET058METAR SBLP 101300Z 12005KT 9999 FEW030 BKN100 29/19 Q1016=
0165832880999992014121014004-13262-043408FM-15+044399999V0201301N004110304819N009999199+03001+01901999999ADDGA1021+009141999GA2071+030481999GE19MSL   +99999+99999GF199999021999009141999999MA1101501999999REMMET058METAR SBLP 101400Z 13008KT 9999 FEW030 BKN100 30/19 Q1015=
0165832880999992014121015004-13262-043408FM-15+044399999V0200601N00151030481CN009999199+03001+01901999999ADDGA1021+009141999GA2041+030481999GE19MSL   +99999+99999GF199999021999009141999999MA1101501999999REMMET058METAR SBLP 101500Z 06003KT 9999 FEW030 SCT100 30/19 Q1015=
0165832880999992014121016154-13262-043408FM-16+044399999V0201401N00211030481CN009999199+03101+01901999999ADDGA1041+009141999GA2041+030481999GE19MSL   +99999+99999GF199999041999009141999999MA1101401999999REMMET058SPECI SBLP 101615Z 14004KT 9999 SCT030 SCT100 31/19 Q1014=
0142832880999992014121017004-13262-043408FM-15+044399999V0201201N001519999999N009999199+03101+01701999999ADDGA1021+009141999GE19MSL   +99999+99999GF199999021999009141999999MA1101301999999REMMET051METAR SBLP 101700Z 12003KT 9999 FEW030 31/17 Q1013=
0142832880999992014121018004-13262-043408FM-15+044399999V0209999C000019999999N009999199+03101+01901999999ADDGA1021+009141999GE19MSL   +99999+99999GF199999021999009141999999MA1101201999999REMMET051METAR SBLP 101800Z 00000KT 9999 FEW030 31/19 Q1012=
0142832880999992014121019004-13262-043408FM-15+044399999V0200901N002619999999N009999199+03101+01701999999ADDGA1021+009141999GE19MSL   +99999+99999GF199999021999009141999999MA1101201999999REMMET051METAR SBLP 101900Z 09005KT 9999 FEW030 31/17 Q1012=
0165832880999992014121111154-13262-043408FM-16+044399999V0201601N003610304819N009999199+02701+01901999999ADDGA1021+009141999GA2071+030481999GE19MSL   +99999+99999GF199999021999009141999999MA1101501999999REMMET058SPECI SBLP 111115Z 16007KT 9999 FEW030 BKN100 27/19 Q1015=
0165832880999992014121112004-13262-043408FM-15+044399999V0201101N00461030481CN009999199+02901+02001999999ADDGA1021+009141999GA2041+030481999GE19MSL   +99999+99999GF199999021999009141999999MA1101601999999REMMET058METAR SBLP 111200Z 11009KT 9999 FEW030 SCT100 29/20 Q1016=
0165832880999992014121113004-13262-043408FM-15+044399999V0200901N003610304819N009999199+02901+01801999999ADDGA1021+009141999GA2071+030481999GE19MSL   +99999+99999GF199999021999009141999999MA1101601999999REMMET058METAR SBLP 111300Z 09007KT 9999 FEW030 BKN100 29/18 Q1016=
0165832880999992014121114004-13262-043408FM-15+044399999V0200901N00411030481CN009999199+03001+01901999999ADDGA1021+009141999GA2041+030481999GE19MSL   +99999+99999GF199999021999009141999999MA1101601999999REMMET058METAR SBLP 111400Z 09008KT 9999 FEW030 SCT100 30/19 Q1016=
0165832880999992014121115004-13262-043408FM-15+044399999V0200701N00211030481CN009999199+03101+02001999999ADDGA1021+009141999GA2041+030481999GE19MSL   +99999+99999GF199999021999009141999999MA1101501999999REMMET058METAR SBLP 111500Z 07004KT 9999 FEW030 SCT100 31/20 Q1015=
0165832880999992014121116154-13262-043408FM-16+044399999V0200801N00461030481CN009999199+03201+01801999999ADDGA1021+009141999GA2041+030481999GE19MSL   +99999+99999GF199999021999009141999999MA1101401999999REMMET058SPECI SBLP 111615Z 08009KT 9999 FEW030 SCT100 32/18 Q1014=
0142832880999992014121117004-13262-043408FM-15+044399999V0200901N004119999999N009999199+03301+01901999999ADDGA1021+009141999GE19MSL   +99999+99999GF199999021999009141999999MA1101301999999REMMET051METAR SBLP 111700Z 09008KT 9999 FEW030 33/19 Q1013=
0142832880999992014121118004-13262-043408FM-15+044399999V0200801N002119999999N009999199+03201+01801999999ADDGA1021+009141999GE19MSL   +99999+99999GF199999021999009141999999MA1101101999999REMMET051METAR SBLP 111800Z 08004KT 9999 FEW030 32/18 Q1011=
0142832880999992014121119004-13262-043408FM-15+044399999V0200601N001019999999N009999199+03301+01901999999ADDGA1021+009141999GE19MSL   +99999+99999GF199999021999009141999999MA1101101999999REMMET051METAR SBLP 111900Z 06002KT 9999 FEW030 33/19 Q1011=
0142832880999992014121120004-13262-043408FM-15+044399999V0200301N001519999999N009999199+03301+01901999999ADDGA1021+009141999GE19MSL   +99999+99999GF199999021999009141999999MA1101101999999REMMET051METAR SBLP 112000Z 03003KT 9999 FEW030 33/19 Q1011=
0072832880999992014121211154-13262-043408FM-16+044399999V0201201N002619999999Y999999999+02901+01901999999ADDMA1101501999999REMMET045SPECI SBLP 121115Z 12005KT CAVOK 29/19 Q1015=
0072832880999992014121212004-13262-043408FM-15+044399999V0201101N003619999999Y999999999+03101+01901999999ADDMA1101501999999REMMET045METAR SBLP 121200Z 11007KT CAVOK 31/19 Q1015=
0165832880999992014121213004-13262-043408FM-15+044399999V0201001N00411030481CN009999199+03201+01901999999ADDGA1021+009141999GA2041+030481999GE19MSL   +99999+99999GF199999021999009141999999MA1101601999999REMMET058METAR SBLP 121300Z 10008KT 9999 FEW030 SCT100 32/19 Q1016=
0165832880999992014121214004-13262-043408FM-15+044399999V0201401N002610304819N009999199+03201+01801999999ADDGA1021+009141999GA2071+030481999GE19MSL   +99999+99999GF199999021999009141999999MA1101501999999REMMET058METAR SBLP 121400Z 14005KT 9999 FEW030 BKN100 32/18 Q1015=
0165832880999992014121215004-13262-043408FM-15+044399999V0201501N003110304819N009999199+03401+01901999999ADDGA1021+009141999GA2071+030481999GE19MSL   +99999+99999GF199999021999009141999999MA1101401999999REMMET058METAR SBLP 121500Z 15006KT 9999 FEW030 BKN100 34/19 Q1014=
0142832880999992014121216154-13262-043408FM-16+044399999V0201801N002119999999N009999199+03401+02001999999ADDGA1021+009141999GE19MSL   +99999+99999GF199999021999009141999999MA1101301999999REMMET051SPECI SBLP 121615Z 18004KT 9999 FEW030 34/20 Q1013=
0142832880999992014121217004-13262-043408FM-15+044399999V0209999C000019999999N009999199+03501+01901999999ADDGA1041+009141999GE19MSL   +99999+99999GF199999041999009141999999MA1101201999999REMMET051METAR SBLP 121700Z 00000KT 9999 SCT030 35/19 Q1012=
0165832880999992014121218004-13262-043408FM-15+044399999V0200601N004110091419N009999199+03301+02001999999ADDGA1071+009141999GA2041+030481999GE19MSL   +99999+99999GF199999071999009141999999MA1101101999999REMMET058METAR SBLP 121800Z 06008KT 9999 BKN030 SCT100 33/20 Q1011=
0199832880999992014121218304-13262-043408FM-16+044399999V0201501N003110091419N009999199+02901+02001999999ADDGA1071+009141999GA2021+012191091GA3041+030481999GE19MSL   +99999+99999GF199999071999009141999999MA1101101999999MW1171REMMET070SPECI SBLP 121830Z 15006KT 9999 TS BKN030 FEW040CB SCT100 29/20 Q1011=
0199832880999992014121219004-13262-043408FM-15+044399999V0201901N004610304819N009999199+02701+02201999999ADDGA1041+009141999GA2021+012191091GA3071+030481999GE19MSL   +99999+99999GF199999041999009141999999MA1101101999999MW1171REMMET070METAR SBLP 121900Z 19009KT 9999 TS SCT030 FEW040CB BKN100 27/22 Q1011=
0207832880999992014121220004-13262-043408FM-15+044399999V0201701N00151030481CN009000199+02901+02001999999ADDGA1021+009141999GA2021+012191091GA3041+030481999GE19MSL   +99999+99999GF199999021999009141999999MA1101101999999MW1951REMMET078METAR SBLP 122000Z 17003KT 9000 -TSRA FEW030 FEW040CB SCT100 29/20      Q1011=
0165832880999992014121511154-13262-043408FM-16+044399999V0200301N003110304819N009999199+02301+02201999999ADDGA1021+006101999GA2071+030481999GE19MSL   +99999+99999GF199999021999006101999999MA1101501999999REMMET058SPECI SBLP 151115Z 03006KT 9999 FEW020 BKN100 23/22 Q1015=
0165832880999992014121512004-13262-043408FM-15+044399999V0200101N00361030481CN009999199+02501+02301999999ADDGA1021+009141999GA2041+030481999GE19MSL   +99999+99999GF199999021999009141999999MA1101601999999REMMET058METAR SBLP 151200Z 01007KT 9999 FEW030 SCT100 25/23 Q1016=
0165832880999992014121513004-13262-043408FM-15+044399999V0203401N005110304819N009999199+02801+02201999999ADDGA1021+009141999GA2071+030481999GE19MSL   +99999+99999GF199999021999009141999999MA1101601999999REMMET058METAR SBLP 151300Z 34010KT 9999 FEW030 BKN100 28/22 Q1016=
0165832880999992014121514004-13262-043408FM-15+044399999V0203301N002610304819N009999199+02801+02201999999ADDGA1021+009141999GA2071+030481999GE19MSL   +99999+99999GF199999021999009141999999MA1101501999999REMMET058METAR SBLP 151400Z 33005KT 9999 FEW030 BKN100 28/22 Q1015=
0165832880999992014121515004-13262-043408FM-15+044399999V0203501N00461030481CN009999199+03001+02101999999ADDGA1021+009141999GA2041+030481999GE19MSL   +99999+99999GF199999021999009141999999MA1101501999999REMMET058METAR SBLP 151500Z 35009KT 9999 FEW030 SCT100 30/21 Q1015=
0142832880999992014121516154-13262-043408FM-16+044399999V0200201N004119999999N009999199+03101+02101999999ADDGA1041+009141999GE19MSL   +99999+99999GF199999041999009141999999MA1101401999999REMMET051SPECI SBLP 151615Z 02008KT 9999 SCT030 31/21 Q1014=
0142832880999992014121517004-13262-043408FM-15+044399999V0200101N003619999999N009999199+03101+02201999999ADDGA1041+009141999GE19MSL   +99999+99999GF199999041999009141999999MA1101301999999REMMET051METAR SBLP 151700Z 01007KT 9999 SCT030 31/22 Q1013=
0165832880999992014121518004-13262-043408FM-15+044399999V0203501N00261030481CN009999199+03201+02101999999ADDGA1021+009141999GA2041+030481999GE19MSL   +99999+99999GF199999021999009141999999MA1101201999999REMMET058METAR SBLP 151800Z 35005KT 9999 FEW030 SCT100 32/21 Q1012=
0165832880999992014121519004-13262-043408FM-15+044399999V0202501N002110304819N009999199+03001+02101999999ADDGA1041+009141999GA2071+030481999GE19MSL   +99999+99999GF199999041999009141999999MA1101201999999REMMET058METAR SBLP 151900Z 25004KT 9999 SCT030 BKN100 30/21 Q1012=
0165832880999992014121520004-13262-043408FM-15+044399999V0202201N007710091419N009999199+02501+02201999999ADDGA1071+009141999GA2071+030481999GE19MSL   +99999+99999GF199999071999009141999999MA1101301999999REMMET058METAR SBLP 152000Z 22015KT 9999 BKN030 BKN100 25/22 Q1013=
0165832880999992014121611154-13262-043408FM-16+044399999V0200301N00261030481CN009999199+02501+02201999999ADDGA1021+009141999GA2041+030481999GE19MSL   +99999+99999GF199999021999009141999999MA1101601999999REMMET058SPECI SBLP 161115Z 03005KT 9999 FEW030 SCT100 25/22 Q1016=
0142832880999992014121612004-13262-043408FM-15+044399999V0203401N002119999999N009999199+02701+02101999999ADDGA1021+009141999GE19MSL   +99999+99999GF199999021999009141999999MA1101701999999REMMET051METAR SBLP 161200Z 34004KT 9999 FEW030 27/21 Q1017=
0142832880999992014121613004-13262-043408FM-15+044399999V0203501N003619999999N009999199+02801+02101999999ADDGA1021+009141999GE19MSL   +99999+99999GF199999021999009141999999MA1101601999999REMMET051METAR SBLP 161300Z 35007KT 9999 FEW030 28/21 Q1016=
0142832880999992014121614004-13262-043408FM-15+044399999V0203201N002619999999N009999199+02901+02101999999ADDGA1021+009141999GE19MSL   +99999+99999GF199999021999009141999999MA1101601999999REMMET051METAR SBLP 161400Z 32005KT 9999 FEW030 29/21 Q1016=
0142832880999992014121615004-13262-043408FM-15+044399999V0203401N003619999999N009999199+03101+02001999999ADDGA1021+009141999GE19MSL   +99999+99999GF199999021999009141999999MA1101501999999REMMET051METAR SBLP 161500Z 34007KT 9999 FEW030 31/20 Q1015=
0142832880999992014121616154-13262-043408FM-16+044399999V0200301N004119999999N009999199+03201+02201999999ADDGA1041+009141999GE19MSL   +99999+99999GF199999041999009141999999MA1101301999999REMMET051SPECI SBLP 161615Z 03008KT 9999 SCT030 32/22 Q1013=
0142832880999992014121617004-13262-043408FM-15+044399999V0203001N003119999999N009999199+03201+02101999999ADDGA1041+009141999GE19MSL   +99999+99999GF199999041999009141999999MA1101301999999REMMET051METAR SBLP 161700Z 30006KT 9999 SCT030 32/21 Q1013=
0142832880999992014121618004-13262-043408FM-15+044399999V0200301N002119999999N009999199+03201+02001999999ADDGA1021+009141999GE19MSL   +99999+99999GF199999021999009141999999MA1101201999999REMMET051METAR SBLP 161800Z 03004KT 9999 FEW030 32/20 Q1012=
0142832880999992014121619004-13262-043408FM-15+044399999V0202801N002119999999N009999199+03301+02001999999ADDGA1021+009141999GE19MSL   +99999+99999GF199999021999009141999999MA1101101999999REMMET051METAR SBLP 161900Z 28004KT 9999 FEW030 33/20 Q1011=
0165832880999992014121620004-13262-043408FM-15+044399999V0201801N00151030481CN009999199+03101+02001999999ADDGA1021+009141999GA2041+030481999GE19MSL   +99999+99999GF199999021999009141999999MA1101101999999REMMET058METAR SBLP 162000Z 18003KT 9999 FEW030 SCT100 31/20 Q1011=
0165832880999992014121711154-13262-043408FM-16+044399999V0202801N001510304819N009999199+02501+02201999999ADDGA1021+006101999GA2071+030481999GE19MSL   +99999+99999GF199999021999006101999999MA1101501999999REMMET058SPECI SBLP 171115Z 28003KT 9999 FEW020 BKN100 25/22 Q1015=
0165832880999992014121712004-13262-043408FM-15+044399999V0201001N002110304819N009999199+02601+02301999999ADDGA1021+006101999GA2071+030481999GE19MSL   +99999+99999GF199999021999006101999999MA1101501999999REMMET058METAR SBLP 171200Z 10004KT 9999 FEW020 BKN100 26/23 Q1015=
0188832880999992014121713004-13262-043408FM-15+044399999V0201801N00211009141CN009999199+02901+02301999999ADDGA1021+006101999GA2041+009141999GA3071+030481999GE19MSL   +99999+99999GF199999021999006101999999MA1101501999999REMMET065METAR SBLP 171300Z 18004KT 9999 FEW020 SCT030 BKN100 29/23 Q1015=
0165832880999992014121714004-13262-043408FM-15+044399999V0203401N001010091419N009999199+02901+02201999999ADDGA1071+009141999GA2041+030481999GE19MSL   +99999+99999GF199999071999009141999999MA1101401999999REMMET058METAR SBLP 171400Z 34002KT 9999 BKN030 SCT100 29/22 Q1014=
0165832880999992014121715004-13262-043408FM-15+044399999V0203501N001510091419N009999199+03001+02201999999ADDGA1071+009141999GA2041+030481999GE19MSL   +99999+99999GF199999071999009141999999MA1101301999999REMMET058METAR SBLP 171500Z 35003KT 9999 BKN030 SCT100 30/22 Q1013=
0175832880999992014121716154-13262-043408FM-16+044399999V0200901N005110304819N008000199+02701+02201999999ADDGA1041+006101999GA2071+030481999GE19MSL   +99999+99999GF199999041999006101999999MA1101201999999MW1611REMMET062SPECI SBLP 171615Z 09010KT 8000 -RA SCT020 BKN100 27/22 Q1012=
0174832880999992014121717004-13262-043408FM-15+044399999V0200301N005110061019N007000199+02501+02301999999ADDGA1071+006101999GA2071+027431999GE19MSL   +99999+99999GF199999071999006101999999MA1101201999999MW1631REMMET061METAR SBLP 171700Z 03010KT 7000 RA BKN020 BKN090 25/23 Q1012=
0170832880999992014121718004-13262-043408FM-15+044399999V0200401N00361030481CN009999199+02501+02301999999ADDGA1021+006101999GA2041+030481999GE19MSL   +99999+99999GF199999021999006101999999MA1101101999999REMMET063METAR SBLP 171800Z 04007KT 9999 FEW020 SCT100 25/23 Q1011 RERA=
0165832880999992014121719004-13262-043408FM-15+044399999V0200301N00511030481CN009999199+02701+02401999999ADDGA1021+003051999GA2041+030481999GE19MSL   +99999+99999GF199999021999003051999999MA1101101999999REMMET058METAR SBLP 171900Z 03010KT 9999 FEW010 SCT100 27/24 Q1011=
0142832880999992014121720004-13262-043408FM-15+044399999V0200501N003119999999N009999199+02701+02401999999ADDGA1021+006101999GE19MSL   +99999+99999GF199999021999006101999999MA1101001999999REMMET051METAR SBLP 172000Z 05006KT 9999 FEW020 27/24 Q1010=
0165832880999992014121811154-13262-043408FM-16+044399999V0200301N001510304819N009999199+02501+02201999999ADDGA1041+006101999GA2071+030481999GE19MSL   +99999+99999GF199999041999006101999999MA1101401999999REMMET058SPECI SBLP 181115Z 03003KT 9999 SCT020 BKN100 25/22 Q1014=
0165832880999992014121812004-13262-043408FM-15+044399999V0200301N00261030481CN009999199+02501+02201999999ADDGA1021+006101999GA2041+030481999GE19MSL   +99999+99999GF199999021999006101999999MA1101501999999REMMET058METAR SBLP 181200Z 03005KT 9999 FEW020 SCT100 25/22 Q1015=
0188832880999992014121813004-13262-043408FM-15+044399999V0203001N00101009141CN009999199+02701+02101999999ADDGA1021+006101999GA2041+009141999GA3071+030481999GE19MSL   +99999+99999GF199999021999006101999999MA1101401999999REMMET065METAR SBLP 181300Z 30002KT 9999 FEW020 SCT030 BKN100 27/21 Q1014=
0165832880999992014121814004-13262-043408FM-15+044399999V0202901N00261030481CN009999199+02901+02301999999ADDGA1041+009141999GA2041+030481999GE19MSL   +99999+99999GF199999041999009141999999MA1101401999999REMMET058METAR SBLP 181400Z 29005KT 9999 SCT030 SCT100 29/23 Q1014=
0142832880999992014121815004-13262-043408FM-15+044399999V0203101N003619999999N009999199+03001+02201999999ADDGA1041+009141999GE19MSL   +99999+99999GF199999041999009141999999MA1101301999999REMMET051METAR SBLP 181500Z 31007KT 9999 SCT030 30/22 Q1013=
0142832880999992014121816154-13262-043408FM-16+044399999V0202501N001019999999N009999199+03101+02201999999ADDGA1041+009141999GE19MSL   +99999+99999GF199999041999009141999999MA1101201999999REMMET051SPECI SBLP 181615Z 25002KT 9999 SCT030 31/22 Q1012=
0142832880999992014121817004-13262-043408FM-15+044399999V0200201N002119999999N009999199+03201+02201999999ADDGA1041+009141999GE19MSL   +99999+99999GF199999041999009141999999MA1101101999999REMMET051METAR SBLP 181700Z 02004KT 9999 SCT030 32/22 Q1011=
0142832880999992014121818004-13262-043408FM-15+044399999V0202101N002619999999N009999199+03301+02001999999ADDGA1041+009141999GE19MSL   +99999+99999GF199999041999009141999999MA1101001999999REMMET051METAR SBLP 181800Z 21005KT 9999 SCT030 33/20 Q1010=
0142832880999992014121819004-13262-043408FM-15+044399999V0209999C000019999999N009999199+03301+02001999999ADDGA1021+009141999GE19MSL   +99999+99999GF199999021999009141999999MA1100901999999REMMET051METAR SBLP 181900Z 00000KT 9999 FEW030 33/20 Q1009=
0142832880999992014121820004-13262-043408FM-15+044399999V0201501N002619999999N009999199+03201+02001999999ADDGA1021+009141999GE19MSL   +99999+99999GF199999021999009141999999MA1100901999999REMMET051METAR SBLP 182000Z 15005KT 9999 FEW030 32/20 Q1009=
0142832880999992014121911154-13262-043408FM-16+044399999V0200201N003119999999N009999199+02701+02301999999ADDGA1021+009141999GE19MSL   +99999+99999GF199999021999009141999999MA1101301999999REMMET051SPECI SBLP 191115Z 02006KT 9999 FEW030 27/23 Q1013=
0142832880999992014121912004-13262-043408FM-15+044399999V0203601N002119999999N009999199+02701+02201999999ADDGA1021+009141999GE19MSL   +99999+99999GF199999021999009141999999MA1101401999999REMMET051METAR SBLP 191200Z 36004KT 9999 FEW030 27/22 Q1014=
0142832880999992014121913004-13262-043408FM-15+044399999V0203501N005119999999N009999199+02901+02101999999ADDGA1041+009141999GE19MSL   +99999+99999GF199999041999009141999999MA1101401999999REMMET051METAR SBLP 191300Z 35010KT 9999 SCT030 29/21 Q1014=
0142832880999992014121914004-13262-043408FM-15+044399999V0203601N004119999999N009999199+03001+02201999999ADDGA1041+009141999GE19MSL   +99999+99999GF199999041999009141999999MA1101401999999REMMET051METAR SBLP 191400Z 36008KT 9999 SCT030 30/22 Q1014=
0142832880999992014121915004-13262-043408FM-15+044399999V0203301N004119999999N009999199+03201+02201999999ADDGA1041+009141999GE19MSL   +99999+99999GF199999041999009141999999MA1101301999999REMMET051METAR SBLP 191500Z 33008KT 9999 SCT030 32/22 Q1013=
0142832880999992014121916154-13262-043408FM-16+044399999V0200201N004119999999N009999199+03301+02201999999ADDGA1041+009141999GE19MSL   +99999+99999GF199999041999009141999999MA1101101999999REMMET051SPECI SBLP 191615Z 02008KT 9999 SCT030 33/22 Q1011=
0142832880999992014121917004-13262-043408FM-15+044399999V0200201N003119999999N009999199+03301+02101999999ADDGA1041+009141999GE19MSL   +99999+99999GF199999041999009141999999MA1101001999999REMMET051METAR SBLP 191700Z 02006KT 9999 SCT030 33/21 Q1010=
0142832880999992014121918004-13262-043408FM-15+044399999V0203301N002119999999N009999199+03301+02201999999ADDGA1041+009141999GE19MSL   +99999+99999GF199999041999009141999999MA1100901999999REMMET051METAR SBLP 191800Z 33004KT 9999 SCT030 33/22 Q1009=
0142832880999992014121919004-13262-043408FM-15+044399999V0203301N002619999999N009999199+03301+02101999999ADDGA1021+009141999GE19MSL   +99999+99999GF199999021999009141999999MA1100901999999REMMET051METAR SBLP 191900Z 33005KT 9999 FEW030 33/21 Q1009=
0142832880999992014121920004-13262-043408FM-15+044399999V0203501N003119999999N009999199+03301+02101999999ADDGA1021+009141999GE19MSL   +99999+99999GF199999021999009141999999MA1100901999999REMMET051METAR SBLP 192000Z 35006KT 9999 FEW030 33/21 Q1009=
0142832880999992014122211154-13262-043408FM-16+044399999V0201801N003619999999N009999199+02701+02301999999ADDGA1021+009141999GE19MSL   +99999+99999GF199999021999009141999999MA1101601999999REMMET051SPECI SBLP 221115Z 18007KT 9999 FEW030 27/23 Q1016=
0142832880999992014122212004-13262-043408FM-15+044399999V0201901N003119999999N009999199+02701+02201999999ADDGA1021+009141999GE19MSL   +99999+99999GF199999021999009141999999MA1101601999999REMMET051METAR SBLP 221200Z 19006KT 9999 FEW030 27/22 Q1016=
0142832880999992014122213004-13262-043408FM-15+044399999V0201901N003119999999N009999199+02901+02101999999ADDGA1021+009141999GE19MSL   +99999+99999GF199999021999009141999999MA1101601999999REMMET051METAR SBLP 221300Z 19006KT 9999 FEW030 29/21 Q1016=
0142832880999992014122214004-13262-043408FM-15+044399999V0202701N001519999999N009999199+03101+02101999999ADDGA1021+009141999GE19MSL   +99999+99999GF199999021999009141999999MA1101601999999REMMET051METAR SBLP 221400Z 27003KT 9999 FEW030 31/21 Q1016=
0142832880999992014122215004-13262-043408FM-15+044399999V0202301N003619999999N009999199+03101+02101999999ADDGA1041+009141999GE19MSL   +99999+99999GF199999041999009141999999MA1101501999999REMMET051METAR SBLP 221500Z 23007KT 9999 SCT030 31/21 Q1015=
0142832880999992014122216154-13262-043408FM-16+044399999V0202201N001019999999N009999199+03201+02101999999ADDGA1041+009141999GE19MSL   +99999+99999GF199999041999009141999999MA1101401999999REMMET051SPECI SBLP 221615Z 22002KT 9999 SCT030 32/21 Q1014=
0142832880999992014122217004-13262-043408FM-15+044399999V0201101N002119999999N009999199+03301+02101999999ADDGA1041+009141999GE19MSL   +99999+99999GF199999041999009141999999MA1101301999999REMMET051METAR SBLP 221700Z 11004KT 9999 SCT030 33/21 Q1013=
0142832880999992014122218004-13262-043408FM-15+044399999V0201501N002119999999N009999199+03301+02201999999ADDGA1041+009141999GE19MSL   +99999+99999GF199999041999009141999999MA1101201999999REMMET051METAR SBLP 221800Z 15004KT 9999 SCT030 33/22 Q1012=
0176832880999992014122219004-13262-043408FM-15+044399999V0202301N003619999999N009999199+03201+02101999999ADDGA1041+009141999GA2021+012191091GE19MSL   +99999+99999GF199999041999009141999999MA1101101999999MW1171REMMET063METAR SBLP 221900Z 23007KT 9999 TS SCT030 FEW040CB 32/21 Q1011=
0179832880999992014122220004-13262-043408FM-15+044399999V0202301N002619999999N009000199+02601+02301999999ADDGA1041+009141999GA2021+012191091GE19MSL   +99999+99999GF199999041999009141999999MA1101101999999MW1951REMMET066METAR SBLP 222000Z 23005KT 9000 -TSRA SCT030 FEW040CB 26/23 Q1011=
0072832880999992014122311154-13262-043408FM-16+044399999V0200801N001019999999Y999999999+02901+02201999999ADDMA1101501999999REMMET045SPECI SBLP 231115Z 08002KT CAVOK 29/22 Q1015=
0142832880999992014122312004-13262-043408FM-15+044399999V0200901N002619999999N009999199+02901+02001999999ADDGA1021+009141999GE19MSL   +99999+99999GF199999021999009141999999MA1101601999999REMMET051METAR SBLP 231200Z 09005KT 9999 FEW030 29/20 Q1016=
0142832880999992014122313004-13262-043408FM-15+044399999V0200701N003119999999N009999199+03101+02101999999ADDGA1021+009141999GE19MSL   +99999+99999GF199999021999009141999999MA1101601999999REMMET051METAR SBLP 231300Z 07006KT 9999 FEW030 31/21 Q1016=
0165832880999992014122314004-13262-043408FM-15+044399999V0200801N00411030481CN009999199+03201+02101999999ADDGA1021+009141999GA2041+030481999GE19MSL   +99999+99999GF199999021999009141999999MA1101501999999REMMET058METAR SBLP 231400Z 08008KT 9999 FEW030 SCT100 32/21 Q1015=
0142832880999992014122315004-13262-043408FM-15+044399999V0209999C000019999999N009999199+03201+02001999999ADDGA1021+009141999GE19MSL   +99999+99999GF199999021999009141999999MA1101501999999REMMET051METAR SBLP 231500Z 00000KT 9999 FEW030 32/20 Q1015=
0142832880999992014122316154-13262-043408FM-16+044399999V0201901N002619999999N009999199+03301+01701999999ADDGA1041+009141999GE19MSL   +99999+99999GF199999041999009141999999MA1101301999999REMMET051SPECI SBLP 231615Z 19005KT 9999 SCT030 33/17 Q1013=
0142832880999992014122317004-13262-043408FM-15+044399999V0202301N002619999999N009999199+03301+02001999999ADDGA1041+009141999GE19MSL   +99999+99999GF199999041999009141999999MA1101301999999REMMET051METAR SBLP 231700Z 23005KT 9999 SCT030 33/20 Q1013=
0142832880999992014122318004-13262-043408FM-15+044399999V0201801N003619999999N009999199+03301+02101999999ADDGA1021+009141999GE19MSL   +99999+99999GF199999021999009141999999MA1101201999999REMMET051METAR SBLP 231800Z 18007KT 9999 FEW030 33/21 Q1012=
0142832880999992014122319004-13262-043408FM-15+044399999V0201801N001519999999N009999199+03301+02001999999ADDGA1021+009141999GE19MSL   +99999+99999GF199999021999009141999999MA1101101999999REMMET051METAR SBLP 231900Z 18003KT 9999 FEW030 33/20 Q1011=
0142832880999992014122320004-13262-043408FM-15+044399999V0202401N001019999999N009999199+03201+02001999999ADDGA1021+009141999GE19MSL   +99999+99999GF199999021999009141999999MA1101101999999REMMET051METAR SBLP 232000Z 24002KT 9999 FEW030 32/20 Q1011=
0072832880999992014122411154-13262-043408FM-16+044399999V0201101N003619999999Y999999999+02901+01901999999ADDMA1101501999999REMMET045SPECI SBLP 241115Z 11007KT CAVOK 29/19 Q1015=
0072832880999992014122412004-13262-043408FM-15+044399999V0200901N003119999999Y999999999+02901+02001999999ADDMA1101501999999REMMET045METAR SBLP 241200Z 09006KT CAVOK 29/20 Q1015=
0142832880999992014122413004-13262-043408FM-15+044399999V0200901N006219999999N009999199+03101+02001999999ADDGA1021+009141999GE19MSL   +99999+99999GF199999021999009141999999MA1101501999999REMMET051METAR SBLP 241300Z 09012KT 9999 FEW030 31/20 Q1015=
0142832880999992014122414004-13262-043408FM-15+044399999V0200701N003619999999N009999199+03101+02101999999ADDGA1041+009141999GE19MSL   +99999+99999GF199999041999009141999999MA1101401999999REMMET051METAR SBLP 241400Z 07007KT 9999 SCT030 31/21 Q1014=
0142832880999992014122415004-13262-043408FM-15+044399999V0200901N004119999999N009999199+03201+02001999999ADDGA1041+009141999GE19MSL   +99999+99999GF199999041999009141999999MA1101401999999REMMET051METAR SBLP 241500Z 09008KT 9999 SCT030 32/20 Q1014=
0142832880999992014122416154-13262-043408FM-16+044399999V0200601N004110091419N009999199+03301+01901999999ADDGA1071+009141999GE19MSL   +99999+99999GF199999071999009141999999MA1101301999999REMMET051SPECI SBLP 241615Z 06008KT 9999 BKN030 33/19 Q1013=
0142832880999992014122417004-13262-043408FM-15+044399999V0201501N002119999999N009999199+03201+01901999999ADDGA1041+009141999GE19MSL   +99999+99999GF199999041999009141999999MA1101301999999REMMET051METAR SBLP 241700Z 15004KT 9999 SCT030 32/19 Q1013=
0142832880999992014122418004-13262-043408FM-15+044399999V0201701N003110091419N009999199+03301+01901999999ADDGA1071+009141999GE19MSL   +99999+99999GF199999071999009141999999MA1101201999999REMMET051METAR SBLP 241800Z 17006KT 9999 BKN030 33/19 Q1012=
0142832880999992014122419004-13262-043408FM-15+044399999V0202001N003619999999N009999199+03201+02101999999ADDGA1041+009141999GE19MSL   +99999+99999GF199999041999009141999999MA1101201999999REMMET051METAR SBLP 241900Z 20007KT 9999 SCT030 32/21 Q1012=
0165832880999992014122420004-13262-043408FM-15+044399999V0201301N006710091419N009999199+03001+02101999999ADDGA1071+009141999GA2041+030481999GE19MSL   +99999+99999GF199999071999009141999999MA1101201999999REMMET058METAR SBLP 242000Z 13013KT 9999 BKN030 SCT100 30/21 Q1012=
0072832880999992014122511154-13262-043408FM-16+044399999V0201501N001519999999Y999999999+02801+02101999999ADDMA1101701999999REMMET045SPECI SBLP 251115Z 15003KT CAVOK 28/21 Q1017=
0142832880999992014122512004-13262-043408FM-15+044399999V0201301N003119999999N009999199+02901+02001999999ADDGA1021+009141999GE19MSL   +99999+99999GF199999021999009141999999MA1101701999999REMMET051METAR SBLP 251200Z 13006KT 9999 FEW030 29/20 Q1017=
0142832880999992014122513004-13262-043408FM-15+044399999V0200601N003119999999N009999199+03001+02001999999ADDGA1021+009141999GE19MSL   +99999+99999GF199999021999009141999999MA1101701999999REMMET051METAR SBLP 251300Z 06006KT 9999 FEW030 30/20 Q1017=
0142832880999992014122514004-13262-043408FM-15+044399999V0201801N002119999999N009999199+03101+02001999999ADDGA1021+009141999GE19MSL   +99999+99999GF199999021999009141999999MA1101701999999REMMET051METAR SBLP 251400Z 18004KT 9999 FEW030 31/20 Q1017=
0142832880999992014122515004-13262-043408FM-15+044399999V0202301N001019999999N009999199+03101+01901999999ADDGA1021+009141999GE19MSL   +99999+99999GF199999021999009141999999MA1101701999999REMMET051METAR SBLP 251500Z 23002KT 9999 FEW030 31/19 Q1017=
0142832880999992014122516154-13262-043408FM-16+044399999V0201601N001519999999N009999199+03301+02001999999ADDGA1041+009141999GE19MSL   +99999+99999GF199999041999009141999999MA1101601999999REMMET051SPECI SBLP 251615Z 16003KT 9999 SCT030 33/20 Q1016=
0142832880999992014122517004-13262-043408FM-15+044399999V0202101N001519999999N009999199+03301+02001999999ADDGA1041+009141999GE19MSL   +99999+99999GF199999041999009141999999MA1101501999999REMMET051METAR SBLP 251700Z 21003KT 9999 SCT030 33/20 Q1015=
0142832880999992014122518004-13262-043408FM-15+044399999V0209999C000019999999N009999199+03301+01701999999ADDGA1021+009141999GE19MSL   +99999+99999GF199999021999009141999999MA1101401999999REMMET051METAR SBLP 251800Z 00000KT 9999 FEW030 33/17 Q1014=
0142832880999992014122519004-13262-043408FM-15+044399999V0201401N002119999999N009999199+03401+01801999999ADDGA1021+009141999GE19MSL   +99999+99999GF199999021999009141999999MA1101401999999REMMET051METAR SBLP 251900Z 14004KT 9999 FEW030 34/18 Q1014=
0142832880999992014122520004-13262-043408FM-15+044399999V0209999C000019999999N009999199+03301+01801999999ADDGA1021+009141999GE19MSL   +99999+99999GF199999021999009141999999MA1101401999999REMMET051METAR SBLP 252000Z 00000KT 9999 FEW030 33/18 Q1014=
0072832880999992014122611154-13262-043408FM-16+044399999V0201901N002119999999Y999999999+02701+02001999999ADDMA1101901999999REMMET045SPECI SBLP 261115Z 19004KT CAVOK 27/20 Q1019=
0142832880999992014122612004-13262-043408FM-15+044399999V0202101N001019999999N009999199+02901+02001999999ADDGA1021+009141999GE19MSL   +99999+99999GF199999021999009141999999MA1101901999999REMMET051METAR SBLP 261200Z 21002KT 9999 FEW030 29/20 Q1019=
0142832880999992014122613004-13262-043408FM-15+044399999V0201801N003119999999N009999199+02901+02001999999ADDGA1041+009141999GE19MSL   +99999+99999GF199999041999009141999999MA1101901999999REMMET051METAR SBLP 261300Z 18006KT 9999 SCT030 29/20 Q1019=
0142832880999992014122614004-13262-043408FM-15+044399999V0200701N002619999999N009999199+03101+01801999999ADDGA1041+009141999GE19MSL   +99999+99999GF199999041999009141999999MA1101901999999REMMET051METAR SBLP 261400Z 07005KT 9999 SCT030 31/18 Q1019=
0142832880999992014122615004-13262-043408FM-15+044399999V0201301N005119999999N009999199+03001+02001999999ADDGA1041+009141999GE19MSL   +99999+99999GF199999041999009141999999MA1101801999999REMMET051METAR SBLP 261500Z 13010KT 9999 SCT030 30/20 Q1018=
0142832880999992014122616154-13262-043408FM-16+044399999V0201501N006219999999N009999199+03301+01701999999ADDGA1041+009141999GE19MSL   +99999+99999GF199999041999009141999999MA1101701999999REMMET051SPECI SBLP 261615Z 15012KT 9999 SCT030 33/17 Q1017=
0142832880999992014122617004-13262-043408FM-15+044399999V0201601N004619999999N009999199+03201+01701999999ADDGA1041+009141999GE19MSL   +99999+99999GF199999041999009141999999MA1101701999999REMMET051METAR SBLP 261700Z 16009KT 9999 SCT030 32/17 Q1017=
0142832880999992014122618004-13262-043408FM-15+044399999V0201501N004119999999N009999199+03301+01701999999ADDGA1041+009141999GE19MSL   +99999+99999GF199999041999009141999999MA1101601999999REMMET051METAR SBLP 261800Z 15008KT 9999 SCT030 33/17 Q1016=
0142832880999992014122619004-13262-043408FM-15+044399999V0202001N002119999999N009999199+03301+01701999999ADDGA1041+009141999GE19MSL   +99999+99999GF199999041999009141999999MA1101601999999REMMET051METAR SBLP 261900Z 20004KT 9999 SCT030 33/17 Q1016=
0142832880999992014122620004-13262-043408FM-15+044399999V0201701N004119999999N009999199+03201+01801999999ADDGA1021+009141999GE19MSL   +99999+99999GF199999021999009141999999MA1101601999999REMMET051METAR SBLP 262000Z 17008KT 9999 FEW030 32/18 Q1016=
0072832880999992014122911154-13262-043408FM-16+044399999V0203601N001519999999Y999999999+02801+02001999999ADDMA1101601999999REMMET045SPECI SBLP 291115Z 36003KT CAVOK 28/20 Q1016=
0072832880999992014122912004-13262-043408FM-15+044399999V0203601N002119999999Y999999999+03101+02101999999ADDMA1101601999999REMMET045METAR SBLP 291200Z 36004KT CAVOK 31/21 Q1016=
0142832880999992014122913004-13262-043408FM-15+044399999V0200201N002619999999N009999199+03101+02101999999ADDGA1021+009141999GE19MSL   +99999+99999GF199999021999009141999999MA1101601999999REMMET051METAR SBLP 291300Z 02005KT 9999 FEW030 31/21 Q1016=
0142832880999992014122914004-13262-043408FM-15+044399999V0203601N001519999999N009999199+03201+02101999999ADDGA1021+009141999GE19MSL   +99999+99999GF199999021999009141999999MA1101601999999REMMET051METAR SBLP 291400Z 36003KT 9999 FEW030 32/21 Q1016=
0142832880999992014122915004-13262-043408FM-15+044399999V0202701N001019999999N009999199+03301+01901999999ADDGA1021+009141999GE19MSL   +99999+99999GF199999021999009141999999MA1101501999999REMMET051METAR SBLP 291500Z 27002KT 9999 FEW030 33/19 Q1015=
0142832880999992014122916154-13262-043408FM-16+044399999V0203201N001519999999N009999199+03401+02001999999ADDGA1021+009141999GE19MSL   +99999+99999GF199999021999009141999999MA1101401999999REMMET051SPECI SBLP 291615Z 32003KT 9999 FEW030 34/20 Q1014=
0142832880999992014122917004-13262-043408FM-15+044399999V0202801N003119999999N009999199+03401+01801999999ADDGA1021+009141999GE19MSL   +99999+99999GF199999021999009141999999MA1101301999999REMMET051METAR SBLP 291700Z 28006KT 9999 FEW030 34/18 Q1013=
0142832880999992014122918004-13262-043408FM-15+044399999V0202101N003619999999N009999199+03501+01801999999ADDGA1021+009141999GE19MSL   +99999+99999GF199999021999009141999999MA1101201999999REMMET051METAR SBLP 291800Z 21007KT 9999 FEW030 35/18 Q1012=
0142832880999992014122919004-13262-043408FM-15+044399999V0201801N001519999999N009999199+03501+01701999999ADDGA1021+009141999GE19MSL   +99999+99999GF199999021999009141999999MA1101201999999REMMET051METAR SBLP 291900Z 18003KT 9999 FEW030 35/17 Q1012=
0142832880999992014122920004-13262-043408FM-15+044399999V0202001N001519999999N009999199+03501+01601999999ADDGA1021+009141999GE19MSL   +99999+99999GF199999021999009141999999MA1101201999999REMMET051METAR SBLP 292000Z 20003KT 9999 FEW030 35/16 Q1012=
0072832880999992014123011154-13262-043408FM-16+044399999V0209999C000019999999Y999999999+02801+01901999999ADDMA1101601999999REMMET045SPECI SBLP 301115Z 00000KT CAVOK 28/19 Q1016=
0072832880999992014123012004-13262-043408FM-15+044399999V0200301N001519999999Y999999999+03001+02001999999ADDMA1101601999999REMMET045METAR SBLP 301200Z 03003KT CAVOK 30/20 Q1016=
0072832880999992014123013004-13262-043408FM-15+044399999V0200301N001019999999Y999999999+03201+02201999999ADDMA1101601999999REMMET045METAR SBLP 301300Z 03002KT CAVOK 32/22 Q1016=
0142832880999992014123014004-13262-043408FM-15+044399999V0202901N003119999999N009999199+03301+02101999999ADDGA1021+009141999GE19MSL   +99999+99999GF199999021999009141999999MA1101501999999REMMET051METAR SBLP 301400Z 29006KT 9999 FEW030 33/21 Q1015=
0142832880999992014123015004-13262-043408FM-15+044399999V0203301N003619999999N009999199+03401+02001999999ADDGA1021+009141999GE19MSL   +99999+99999GF199999021999009141999999MA1101501999999REMMET051METAR SBLP 301500Z 33007KT 9999 FEW030 34/20 Q1015=
0142832880999992014123016154-13262-043408FM-16+044399999V0200101N003619999999N009999199+03501+01901999999ADDGA1041+009141999GE19MSL   +99999+99999GF199999041999009141999999MA1101401999999REMMET051SPECI SBLP 301615Z 01007KT 9999 SCT030 35/19 Q1014=
0142832880999992014123017004-13262-043408FM-15+044399999V0201401N002619999999N009999199+03501+01901999999ADDGA1041+009141999GE19MSL   +99999+99999GF199999041999009141999999MA1101301999999REMMET051METAR SBLP 301700Z 14005KT 9999 SCT030 35/19 Q1013=
0142832880999992014123018004-13262-043408FM-15+044399999V0202701N002619999999N009999199+03601+01801999999ADDGA1021+009141999GE19MSL   +99999+99999GF199999021999009141999999MA1101101999999REMMET051METAR SBLP 301800Z 27005KT 9999 FEW030 36/18 Q1011=
0142832880999992014123019004-13262-043408FM-15+044399999V0201501N001519999999N009999199+03601+01701999999ADDGA1021+009141999GE19MSL   +99999+99999GF199999021999009141999999MA1101101999999REMMET051METAR SBLP 301900Z 15003KT 9999 FEW030 36/17 Q1011=
0142832880999992014123020004-13262-043408FM-15+044399999V0202301N002119999999N009999199+03501+01701999999ADDGA1021+009141999GE19MSL   +99999+99999GF199999021999009141999999MA1101101999999REMMET051METAR SBLP 302000Z 23004KT 9999 FEW030 35/17 Q1011=
0072832880999992014123111154-13262-043408FM-16+044399999V0209999C000019999999Y999999999+02701+02101999999ADDMA1101601999999REMMET045SPECI SBLP 311115Z 00000KT CAVOK 27/21 Q1016=
0072832880999992014123112004-13262-043408FM-15+044399999V0200601N002619999999Y999999999+02901+02101999999ADDMA1101701999999REMMET045METAR SBLP 311200Z 06005KT CAVOK 29/21 Q1017=
0072832880999992014123113004-13262-043408FM-15+044399999V0209999C000019999999Y999999999+03101+02101999999ADDMA1101601999999REMMET045METAR SBLP 311300Z 00000KT CAVOK 31/21 Q1016=
0142832880999992014123114004-13262-043408FM-15+044399999V0200101N002619999999N009999199+03201+02001999999ADDGA1021+009141999GE19MSL   +99999+99999GF199999021999009141999999MA1101601999999REMMET051METAR SBLP 311400Z 01005KT 9999 FEW030 32/20 Q1016=
0142832880999992014123115004-13262-043408FM-15+044399999V0202301N001519999999N009999199+03301+02001999999ADDGA1021+009141999GE19MSL   +99999+99999GF199999021999009141999999MA1101501999999REMMET051METAR SBLP 311500Z 23003KT 9999 FEW030 33/20 Q1015=
0142832880999992014123116154-13262-043408FM-16+044399999V0209999C000019999999N009999199+03301+02001999999ADDGA1021+009141999GE19MSL   +99999+99999GF199999021999009141999999MA1101401999999REMMET051SPECI SBLP 311615Z 00000KT 9999 FEW030 33/20 Q1014=
0142832880999992014123117004-13262-043408FM-15+044399999V0202301N002119999999N009999199+03401+02001999999ADDGA1021+009141999GE19MSL   +99999+99999GF199999021999009141999999MA1101301999999REMMET051METAR SBLP 311700Z 23004KT 9999 FEW030 34/20 Q1013=
0142832880999992014123118004-13262-043408FM-15+044399999V0201501N001519999999N009999199+03401+01901999999ADDGA1021+009141999GE19MSL   +99999+99999GF199999021999009141999999MA1101201999999REMMET051METAR SBLP 311800Z 15003KT 9999 FEW030 34/19 Q1012=
0142832880999992014123119004-13262-043408FM-15+044399999V0209999C000019999999N009999199+03501+01701999999ADDGA1021+009141999GE19MSL   +99999+99999GF199999021999009141999999MA1101201999999REMMET051METAR SBLP 311900Z 00000KT 9999 FEW030 35/17 Q1012=
0142832880999992014123120004-13262-043408FM-15+044399999V0209999C000019999999N009999199+03401+01801999999ADDGA1021+009141999GE19MSL   +99999+99999GF199999021999009141999999MA1101201999999REMMET051METAR SBLP 312000Z 00000KT 9999 FEW030 34/18 Q1012=
