0168821980999992009010100004-01717-045400FM-12+004499999V0200901N001512200019N0002001N1+02721+02341100971ADDGF103991031021004501061001KA1240M+03301MA1999999100461MD1999999+0061REMSYN088AAXX  01004 82198 32492 30903 10272 20234 30046 40097 83260 333 10330 29072 55043 58006;
0184821980999992009010112004-01717-045400FM-12+004499999V0200701N003110450019N0005001N1+02871+02381101121ADDAY111061AY221061GF108991041051004501031011KA1240N+02301MA1999999100611MD1999999-0081MW1041REMSYN082AAXX  01124 82198 31493 80706 10287 20238 30061 40112 70412 84531 333 20230 59008;
0182821980999992009010118004-01717-045400FM-12+004499999V0200901N005710450019N0005001N1+02901+02321100861ADDAA106006191AY161061AY221061GF107991041051004501011061MA1999999100351MD1999999+0011MW1041REMSYN082AAXX  01184 82198 21493 70911 10290 20232 30035 40086 70462 84516 333 58001 60061;
0168821980999992009010200004-01717-045400FM-12+004499999V0200901N003112200019N0002001N1+02681+02411101051ADDGF103991021011004501011001KA1240M+03131MA1999999100541MD1999999+0081REMSYN088AAXX  02004 82198 32492 30906 10268 20241 30054 40105 82110 333 10313 29080 55022 58008;
0201821980999992009010212004-01717-045400FM-12+004499999V0200901N002610450019N0005001N1+03021+02311101131ADDAA124006191AY111061AY221061GF106991031021004501061001KA1240N+02281MA1999999100621MD1999999+0011MW1041REMSYN088AAXX  02124 82198 21493 60905 10302 20231 30062 40113 70412 83260 333 20228 58001 60064;
0165821980999992009010218004-01717-045400FM-12+004499999V0200901N003112200019N0010001N1+03231+02121100861ADDAY111061AY221061GF105991031021004501001011MA1999999100351MD1999999+0001MW1041REMSYN076AAXX  02184 82198 31494 50906 10323 20212 30035 40086 70412 83201 333 58000;
0178821980999992009010300004-01717-045400FM-12+004499999V0200701N003612200019N0002001N1+02711+02351100941ADDGA1001+999999999GF100991001001999999001001KA1240M+03451MA1999999100431MD1999999-0111REMSYN082AAXX  03004 82198 32992 00707 10271 20235 30043 40094 333 10345 29070 55103 59011;
0184821980999992009010312004-01717-045400FM-12+004499999V0203601N005712200019N0010001N1+02861+02281101031ADDAY111061AY221061GF106991041021004501001011KA1240N+02231MA1999999100521MD1999999-0101MW1041REMSYN082AAXX  03124 82198 31494 63611 10286 20228 30052 40103 70412 84201 333 20223 59010;
0165821980999992009010318004-01717-045400FM-12+004499999V0200501N005110042019N0010001N1+03141+02131100891ADDAY121061AY221061GF106991061021004501001001MA1999999100381MD1999999+0031MW1041REMSYN076AAXX  03184 82198 31494 60510 10314 20213 30038 40089 70422 86200 333 58003;
0178821980999992009010400004-01717-045400FM-12+004499999V0200701N003112200019N0002001N1+02691+02331100891ADDGA1001+999999999GF100991001001999999001001KA1240M+03271MA1999999100381MD1999999-0051REMSYN082AAXX  04004 82198 32992 00706 10269 20233 30038 40089 333 10327 29072 55102 59005;
0184821980999992009010412004-01717-045400FM-12+004499999V0200701N004112200019N0010001N1+02931+02251101041ADDAY111061AY221061GF106991031021004501001041KA1240N+02221MA1999999100531MD1999999+0011MW1041REMSYN082AAXX  04124 82198 31494 60708 10293 20225 30053 40104 70412 83204 333 20222 58001;
0165821980999992009010418004-01717-045400FM-12+004499999V0200901N007210042019N0010001N1+03301+02051100731ADDAY121061AY221061GF105991051021004501001001MA1999999100221MD1999999-0161MW1041REMSYN076AAXX  04184 82198 31494 50914 10330 20205 30022 40073 70422 85200 333 59016;
0178821980999992009010500004-01717-045400FM-12+004499999V0200701N002612200019N0002001N1+02691+02231100961ADDGA1001+999999999GF100991001001999999001001KA1240M+03421MA1999999100451MD1999999+0071REMSYN082AAXX  05004 82198 32992 00705 10269 20223 30045 40096 333 10342 29069 55107 58007;
0156821980999992009010512004-01717-045400FM-12+004499999V0200701N003110450019N0010001N1+02911+02501101091ADDGF106991041021004501061001KA1240N+02311MA1999999100581MD1999999+0051REMSYN076AAXX  05124 82198 32494 60706 10291 20250 30058 40109 84260 333 20231 58005;
0137821980999992009010518004-01717-045400FM-12+004499999V0200901N004610450019N0010001N1+03291+02151100801ADDGF106991041021004501011011MA1999999100291MD1999999+0071REMSYN070AAXX  05184 82198 32494 60909 10329 20215 30029 40080 84211 333 58007;
0156821980999992009010612004-01717-045400FM-12+004499999V0200901N003610450019N0010001N1+03041+02411100991ADDGF106991041021004501041001KA1240N+02261MA1999999100481MD1999999-0101REMSYN076AAXX  06124 82198 32494 60907 10304 20241 30048 40099 84240 333 20226 59010;
0165821980999992009010618004-01717-045400FM-12+004499999V0200501N005112200019N0010001N1+03141+02351100741ADDAY121061AY221061GF104991031021004501001011MA1999999100231MD1999999-0061MW1041REMSYN076AAXX  06184 82198 31494 40510 10314 20235 30023 40074 70422 83201 333 59006;
0168821980999992009010700004-01717-045400FM-12+004499999V0200701N002612200019N0010001N1+02731+02431100951ADDGF102991021011004501001001KA1240M+03301MA1999999100441MD1999999+0031REMSYN088AAXX  07004 82198 32494 20705 10273 20243 30044 40095 82100 333 10330 29075 55098 58003;
0184821980999992009010712004-01717-045400FM-12+004499999V0200901N003110042019N0010001N1+02871+02461101041ADDAY121061AY221061GF107991051021004501041001KA1240N+02271MA1999999100531MD1999999+0051MW1041REMSYN082AAXX  07124 82198 31494 70906 10287 20246 30053 40104 70422 85240 333 20227 58005;
0165821980999992009010718004-01717-045400FM-12+004499999V0200901N005110450019N0010001N1+03141+02271100751ADDAY121061AY221061GF106991041021004501041001MA1999999100251MD1999999+0021MW1041REMSYN076AAXX  07184 82198 31494 60910 10314 20227 30025 40075 70422 84240 333 58002;
0168821980999992009010800004-01717-045400FM-12+004499999V0200701N002110450019N0010001N1+02701+02331100841ADDGF106991031021004501061021KA1240M+03381MA1999999100331MD1999999-0111REMSYN088AAXX  08004 82198 32494 60704 10270 20233 30033 40084 83262 333 10338 29074 55041 59011;
0184821980999992009010812004-01717-045400FM-12+004499999V0200901N003110450019N0010001N1+02951+02331101121ADDAY121061AY221061GF106991041021004501071001KA1240N+02161MA1999999100611MD1999999+0081MW1041REMSYN082AAXX  08124 82198 31494 60906 10295 20233 30061 40112 70422 84270 333 20216 58008;
0165821980999992009010818004-01717-045400FM-12+004499999V0200701N004610450019N0010001N1+03071+02291100771ADDAY121061AY221061GF106991031031004501041001MA1999999100261MD1999999+0011MW1041REMSYN076AAXX  08184 82198 31494 60709 10307 20229 30026 40077 70422 83340 333 58001;
0168821980999992009010900004-01717-045400FM-12+004499999V0200701N002610450019N0010001N1+02721+02391101041ADDGF107991041051004501041001KA1240M+03281MA1999999100531MD1999999+0201REMSYN088AAXX  09004 82198 32494 70705 10272 20239 30053 40104 84540 333 10328 29074 55063 58020;
0156821980999992009010912004-01717-045400FM-12+004499999V0200501N002110042019N0010001N1+02891+02461101221ADDGF106991051021004501061001KA1240N+02231MA1999999100711MD1999999+0101REMSYN076AAXX  09124 82198 32494 60504 10289 20246 30071 40122 85260 333 20223 58010;
0182821980999992009010918004-01717-045400FM-12+004499999V0200501N004610450019N0010001N1+02811+02291101021ADDAA106001091AY161061AY221061GF106991041031004501041001MA1999999100511MD1999999+0261MW1041REMSYN082AAXX  09184 82198 21494 60509 10281 20229 30051 40102 70462 84340 333 58026 60011;
0232821980999992009011000004-01717-045400FM-12+004499999V0200701N004110450019N0010001N1+02651+02441101161ADDAA106000091AY151061AY221061GF106991031031004501041001KA1240M+03181MA1999999100651MD1999999+0121MW1021REMSYN100AAXX  10004 82198 21494 60708 10265 20244 30065 40116 70252 83340 333 10318 29081 55037 58012 69911;EQDQ01  00002PRCP06
0173821980999992009011012004-01717-045400FM-12+004499999V0200501N003610042019N0010001N1+02821+02331101271ADDAA124001091GF106991051021004501061001KA1240N+02081MA1999999100761MD1999999+0051REMSYN082AAXX  10124 82198 22494 60507 10282 20233 30076 40127 85260 333 20208 58005 60014;
0182821980999992009011018004-01717-045400FM-12+004499999V0200701N004610042019N0010001N1+02811+02291100991ADDAA106000591AY151061AY221061GF107991051051004501041001MA1999999100481MD1999999-0031MW1151REMSYN082AAXX  10184 82198 21494 70709 10281 20229 30048 40099 71552 85540 333 59003 69951;
0168821980999992009011100004-01717-045400FM-12+004499999V0200701N003610450019N0002001N1+02701+02391101151ADDGF107991041031004501031001KA1240M+03061MA1999999100641MD1999999-0011REMSYN088AAXX  11004 82198 32492 70707 10270 20239 30064 40115 84330 333 10306 29079 55040 59001;
0173821980999992009011112004-01717-045400FM-12+004499999V0200901N004110042019N0010001N1+02961+02401101171ADDAA124000591GF107991051051004501041001KA1240N+02171MA1999999100661MD1999999-0101REMSYN082AAXX  11124 82198 22494 70908 10296 20240 30066 40117 85540 333 20217 59010 69954;
0182821980999992009011118004-01717-045400FM-12+004499999V0200701N002110450019N0005001N1+02251+02161100971ADDAA106023991AY191061AY261061GF108991041051004501021999MA1999999100461MD1999999-0021MW1631REMSYN082AAXX  11184 82198 21493 80704 10225 20216 30046 40097 76396 8452/ 333 59002 60241;
0137821980999992009011218004-01717-045400FM-12+004499999V0200501N005710450019N0010001N1+03071+02291100871ADDGF105991041021004501061001MA1999999100361MD1999999-0101REMSYN070AAXX  12184 82198 32494 50511 10307 20229 30036 40087 84260 333 59010;
0168821980999992009011300004-01717-045400FM-12+004499999V0200701N004112200019N0002001N1+02691+02351101061ADDGF103991021031004501061001KA1240M+03161MA1999999100551MD1999999-0041REMSYN088AAXX  13004 82198 32492 30708 10269 20235 30055 40106 82360 333 10316 29078 55077 59004;
0156821980999992009011412004-01717-045400FM-12+004499999V0200501N004610450019N0010001N1+02901+02341101171ADDGF106991041021004501051001KA1240N+02301MA1999999100661MD1999999+0041REMSYN076AAXX  14124 82198 32494 60509 10290 20234 30066 40117 84250 333 20230 58004;
0182821980999992009011418004-01717-045400FM-12+004499999V0200501N004110042019N0005001N1+02781+02441100901ADDAA106000021AY151061AY221061GF108991051031004501011001MA1999999100391MD1999999+0001MW1501REMSYN082AAXX  14184 82198 21493 80508 10278 20244 30039 40090 75052 85310 333 58000 69921;
0168821980999992009011500004-01717-045400FM-12+004499999V0200501N005112200019N0002001N1+02721+02371101181ADDGF102991021011004501001001KA1240M+03201MA1999999100671MD1999999+0081REMSYN088AAXX  15004 82198 32492 20510 10272 20237 30067 40118 82100 333 10320 29079 55068 58008;
0156821980999992009011512004-01717-045400FM-12+004499999V0200501N004610450019N0010001N1+02801+02341101191ADDGF107991041031004501061001KA1240N+02281MA1999999100681MD1999999+0021REMSYN076AAXX  15124 82198 32494 70509 10280 20234 30068 40119 84360 333 20228 58002;
0182821980999992009011518004-01717-045400FM-12+004499999V0203601N005110450019N0010001N1+02871+02271100921ADDAA106004191AY161061AY221061GF107991041051004501061041MA1999999100411MD1999999+0021MW1021REMSYN082AAXX  15184 82198 21494 73610 10287 20227 30041 40092 70262 84564 333 58002 60041;
0213821980999992009011600004-01717-045400FM-12+004499999V0200501N003112200019N0002001N1+02601+02391101111ADDAA106000891AY161061AY201061GF102991021011004501001001KA1240M+03101MA1999999100601MD1999999-0071MW1011REMSYN100AAXX  16004 82198 21492 20506 10260 20239 30060 40111 70160 82100 333 10310 29081 55016 59007 69971;
0201821980999992009011612004-01717-045400FM-12+004499999V0200901N002110450019N0005001N1+02921+02501101211ADDAA124004191AY111061AY221061GF106991031021004501031011KA1240N+02201MA1999999100701MD1999999+0021MW1031REMSYN088AAXX  16124 82198 21493 60904 10292 20250 30070 40121 70312 83231 333 20220 58002 60044;
0182821980999992009011618004-01717-045400FM-12+004499999V0200501N003610450019N0005001N1+02631+02391100951ADDAA106007991AY161061AY221061GF107991031071004501061041MA1999999100441MD1999999+0031MW1021REMSYN082AAXX  16184 82198 21493 70507 10263 20239 30044 40095 70262 83764 333 58003 60081;
0178821980999992009011700004-01717-045400FM-12+004499999V0200701N003112200019N0002001N1+02631+02371101021ADDGA1001+999999999GF100991001001999999001001KA1240M+03131MA1999999100511MD1999999-0091REMSYN082AAXX  17004 82198 32992 00706 10263 20237 30051 40102 333 10313 29085 55026 59009;
0173821980999992009011712004-01717-045400FM-12+004499999V0200701N002110450019N0010001N1+02861+02461101201ADDAA124007991GF106991041031004501061061KA1240N+02101MA1999999100691MD1999999-0011REMSYN082AAXX  17124 82198 22494 60704 10286 20246 30069 40120 84366 333 20210 59001 60084;
0137821980999992009011718004-01717-045400FM-12+004499999V0200501N005110450019N0010001N1+03081+02291100931ADDGF105991031021004501031061MA1999999100421MD1999999-0021REMSYN070AAXX  17184 82198 32494 50510 10308 20229 30042 40093 83236 333 59002;
0168821980999992009011800004-01717-045400FM-12+004499999V0200501N002612200019N0002001N1+02651+02351101121ADDGF103991021011004501061001KA1240M+03161MA1999999100611MD1999999+0101REMSYN088AAXX  18004 82198 32492 30505 10265 20235 30061 40112 82160 333 10316 29078 55071 58010;
0156821980999992009011812004-01717-045400FM-12+004499999V0200701N002110450019N0010001N1+02801+02481101191ADDGF105991031021004501041041KA1240N+02131MA1999999100681MD1999999-0011REMSYN076AAXX  18124 82198 32494 50704 10280 20248 30068 40119 83244 333 20213 59001;
0182821980999992009011818004-01717-045400FM-12+004499999V0201101N005710450019N0010001N1+02371+02261101071ADDAA106021191AY161061AY221061GF108991041031004501011001MA1999999100561MD1999999+0141MW1031REMSYN082AAXX  18184 82198 21494 81111 10237 20226 30056 40107 70362 84310 333 58014 60211;
0178821980999992009011900004-01717-045400FM-12+004499999V0200901N002112200019N0002001N1+02491+02241101211ADDGA1001+999999999GF100991001001999999001001KA1240M+03051MA1999999100701MD1999999+0091REMSYN082AAXX  19004 82198 32992 00904 10249 20224 30070 40121 333 10305 29089 55021 58009;
0201821980999992009011912004-01717-045400FM-12+004499999V0201101N004610042019N0005001N1+02441+02191101361ADDAA124023191AY191061AY261061GF108991061031004501021001KA1240N+01981MA1999999100841MD1999999+0161MW1621REMSYN088AAXX  19124 82198 21493 81109 10244 20219 30084 40136 76296 86320 333 20198 58016 60234;
0182821980999992009011918004-01717-045400FM-12+004499999V0200501N002610042019N0010001N1+02791+02541100961ADDAA106003091AY161061AY221061GF108991061031004501021001MA1999999100451MD1999999-0111MW1151REMSYN082AAXX  19184 82198 21494 80505 10279 20254 30045 40096 71562 86320 333 59011 60031;
0168821980999992009012000004-01717-045400FM-12+004499999V0200501N002112200019N0002001N1+02591+02441101101ADDGF102991021011004501001001KA1240M+02841MA1999999100591MD1999999-0111REMSYN088AAXX  20004 82198 32492 20504 10259 20244 30059 40110 82100 333 10284 29088 55000 59011;
0173821980999992009012012004-01717-045400FM-12+004499999V0200501N003110042019N0010001N1+02791+02441101221ADDAA124003091GF108991051051004501011999KA1240N+02131MA1999999100711MD1999999-0131REMSYN082AAXX  20124 82198 22494 80506 10279 20244 30071 40122 8551/ 333 20213 59013 60034;
0137821980999992009012018004-01717-045400FM-12+004499999V0200501N003610450019N0010001N1+02861+02441100971ADDGF107991041031004501041001MA1999999100461MD1999999+0011REMSYN070AAXX  20184 82198 32494 70507 10286 20244 30046 40097 84340 333 58001;
0213821980999992009012100004-01717-045400FM-12+004499999V0200201N002110042019N0010001N1+02341+02171101261ADDAA106035191AY161061AY221061GF108991051051004501021999KA1240M+03141MA1999999100751MD1999999+0161MW1631REMSYN100AAXX  21004 82198 21494 80204 10234 20217 30075 40126 76362 8552/ 333 10314 29085 55013 58016 60351;
0201821980999992009012112004-01717-045400FM-12+004499999V0200701N002610042019N0010001N1+02561+02471101361ADDAA124055191AY161061AY221061GF108991051051004501041999KA1240N+01971MA1999999100851MD1999999+0141MW1021REMSYN088AAXX  21124 82198 21494 80705 10256 20247 30085 40136 70262 8554/ 333 20197 58014 60554;
0182821980999992009012118004-01717-045400FM-12+004499999V0200501N002610450019N0010001N1+02701+02371101031ADDAA106000391AY151061AY221061GF107991041071004501011001MA1999999100521MD1999999+0061MW1021REMSYN082AAXX  21184 82198 21494 70505 10270 20237 30052 40103 70252 84710 333 58006 69931;
0168821980999992009012200004-01717-045400FM-12+004499999V0200701N000510450019N0002001N1+02581+02311101281ADDGF106991031031004501041001KA1240M+02851MA1999999100771MD1999999+0021REMSYN088AAXX  22004 82198 32492 60701 10258 20231 30077 40128 83340 333 10285 29087 55014 58002;
0201821980999992009012212004-01717-045400FM-12+004499999V0200701N002110042019N0010001N1+02381+02311101461ADDAA124022191AY161061AY221061GF108991061051004501011999KA1240N+02001MA1999999100941MD1999999+0091MW1531REMSYN088AAXX  22124 82198 21494 80704 10238 20231 30094 40146 75362 8651/ 333 20200 58009 60224;
0137821980999992009012218004-01717-045400FM-12+004499999V0200701N002110042019N0010001N1+02561+02331101051ADDGF108991061071004501011999MA1999999100531MD1999999+0011REMSYN070AAXX  22184 82198 32494 80704 10256 20233 30053 40105 8671/ 333 58001;
0168821980999992009012300004-01717-045400FM-12+004499999V0201101N002110450019N0002001N1+02501+02321101221ADDGF106991041051004501041001KA1240M+02731MA1999999100701MD1999999-0071REMSYN088AAXX  23004 82198 32492 61104 10250 20232 30070 40122 84540 333 10273 29091 55000 59007;
0156821980999992009012312004-01717-045400FM-12+004499999V0201401N003110450019N0010001N1+02801+02461101251ADDGF106991031021004501041021KA1240N+02031MA1999999100741MD1999999-0201REMSYN076AAXX  23124 82198 32494 61406 10280 20246 30074 40125 83242 333 20203 59020;
0137821980999992009012318004-01717-045400FM-12+004499999V0200501N006210042019N0010001N1+02621+02411100961ADDGF108991051031004501051999MA1999999100441MD1999999-0091REMSYN070AAXX  23184 82198 32494 80512 10262 20241 30044 40096 8535/ 333 59009;
0201821980999992009012412004-01717-045400FM-12+004499999V0201101N002110042019N0010001N1+02391+02211101201ADDAA124000891AY151061AY221061GF108991051051004501041999KA1240N+01911MA1999999100681MD1999999-0061MW1021REMSYN088AAXX  24124 82198 21494 81104 10239 20221 30068 40120 70252 8554/ 333 20191 59006 69984;
0137821980999992009012418004-01717-045400FM-12+004499999V0200201N001510042019N0010001N1+02721+02321100871ADDGF108991051031004501041999MA1999999100361MD1999999-0081REMSYN070AAXX  24184 82198 32494 80203 10272 20232 30036 40087 8534/ 333 59008;
0201821980999992009012612004-01717-045400FM-12+004499999V0200901N002610450019N0010001N1+02751+02401101131ADDAA124000591AY151061AY221061GF106991041021004501031001KA1240N+02101MA1999999100621MD1999999-0031MW1021REMSYN088AAXX  26124 82198 21494 60905 10275 20240 30062 40113 70252 84230 333 20210 59003 69944;
0137821980999992009012618004-01717-045400FM-12+004499999V0200501N004610450019N0010001N1+03021+02361100851ADDGF105991031021004501041001MA1999999100341MD1999999+0001REMSYN070AAXX  26184 82198 32494 50509 10302 20236 30034 40085 83240 333 58000;
0168821980999992009012700004-01717-045400FM-12+004499999V0200701N002110450019N0002001N1+02631+02411101061ADDGF105991031021004501061001KA1240M+03161MA1999999100551MD1999999-0021REMSYN088AAXX  27004 82198 32492 50704 10263 20241 30055 40106 83260 333 10316 29082 55066 59002;
0184821980999992009012712004-01717-045400FM-12+004499999V0200901N005112200019N0010001N1+02881+02301101141ADDAY111061AY221061GF104991041021004501001001KA1240N+02161MA1999999100631MD1999999+0011MW1041REMSYN082AAXX  27124 82198 31494 40910 10288 20230 30063 40114 70412 84200 333 20216 58001;
0137821980999992009012718004-01717-045400FM-12+004499999V0200901N006210042019N0010001N1+03241+02361100911ADDGF105991051021004501001001MA1999999100401MD1999999+0061REMSYN070AAXX  27184 82198 32494 50912 10324 20236 30040 40091 85200 333 58006;
0178821980999992009012800004-01717-045400FM-12+004499999V0200701N002612200019N0002001N1+02681+02431101061ADDGA1001+999999999GF100991001001999999001001KA1240M+03341MA1999999100551MD1999999+0001REMSYN082AAXX  28004 82198 32992 00705 10268 20243 30055 40106 333 10334 29076 55103 58000;
0156821980999992009012812004-01717-045400FM-12+004499999V0200701N005110450019N0010001N1+02871+02381101101ADDGF106991031021004501061011KA1240N+02201MA1999999100591MD1999999-0041REMSYN076AAXX  28124 82198 32494 60710 10287 20238 30059 40110 83261 333 20220 59004;
0137821980999992009012818004-01717-045400FM-12+004499999V0200901N005110450019N0010001N1+03151+02351100861ADDGF106991031021004501061011MA1999999100351MD1999999-0051REMSYN070AAXX  28184 82198 32494 60910 10315 20235 30035 40086 83261 333 59005;
0178821980999992009012900004-01717-045400FM-12+004499999V0200701N003112200019N0002001N1+02661+02411101081ADDGA1001+999999999GF100991001001999999001001KA1240M+03241MA1999999100571MD1999999+0021REMSYN082AAXX  29004 82198 32992 00706 10266 20241 30057 40108 333 10324 29078 55099 58002;
0156821980999992009012912004-01717-045400FM-12+004499999V0200501N003110450019N0010001N1+02851+02401101151ADDGF106991031021004501061001KA1240N+02211MA1999999100641MD1999999+0051REMSYN076AAXX  29124 82198 32494 60506 10285 20240 30064 40115 83260 333 20221 58005;
0137821980999992009012918004-01717-045400FM-12+004499999V0203601N004610450019N0010001N1+02981+02421100901ADDGF106991031021004501041061MA1999999100391MD1999999+0041REMSYN070AAXX  29184 82198 32494 63609 10298 20242 30039 40090 83246 333 58004;
0196821980999992009013000004-01717-045400FM-12+004499999V0200901N002612200019N0002001N1+02681+02411101141ADDAY111061AY221061GF103991011021004501061001KA1240M+03201MA1999999100631MD1999999+0061MW1131REMSYN094AAXX  30004 82198 31492 30905 10268 20241 30063 40114 71312 81260 333 10320 29080 55088 58006;
0156821980999992009013012004-01717-045400FM-12+004499999V0200501N003110450019N0005001N1+02781+02401101181ADDGF107991041031004501041061KA1240N+02201MA1999999100671MD1999999+0031REMSYN076AAXX  30124 82198 32493 70506 10278 20240 30067 40118 84346 333 20220 58003;
0182821980999992009013018004-01717-045400FM-12+004499999V0200701N000510042019N0005001N1+02411+02331100951ADDAA106026991AY191061AY261061GF108991061031004501021001MA1999999100441MD1999999+0051MW1631REMSYN082AAXX  30184 82198 21493 80701 10241 20233 30044 40095 76396 86320 333 58005 60271;
0213821980999992009013100004-01717-045400FM-12+004499999V0200901N002612200019N0002001N1+02461+02411101141ADDAA106003091AY161061AY211061GF103991031011004501001001KA1240M+02901MA1999999100631MD1999999+0001MW1011REMSYN100AAXX  31004 82198 21492 30905 10246 20241 30063 40114 70161 83100 333 10290 29092 55008 58000 60031;
0201821980999992009013112004-01717-045400FM-12+004499999V0203501N001010450019N0010001N1+02401+02351101251ADDAA124050091AY161061AY221061GF108991041051004501011001KA1240N+01891MA1999999100731MD1999999+0061MW1031REMSYN088AAXX  31124 82198 21494 83502 10240 20235 30073 40125 70362 84510 333 20189 58006 60504;
0137821980999992009013118004-01717-045400FM-12+004499999V0203601N004610450019N0010001N1+02921+02341100951ADDGF107991031031004501041061MA1999999100441MD1999999+0001REMSYN070AAXX  31184 82198 32494 73609 10292 20234 30044 40095 83346 333 58000;
0168821980999992009020100004-01717-045400FM-12+004499999V0200501N002612200019N0002001N1+02611+02401101091ADDGF103991011021004501011001KA1240M+03061MA1999999100581MD1999999-0051REMSYN088AAXX  01004 82198 32492 30505 10261 20240 30058 40109 81210 333 10306 29086 55029 59005;
0201821980999992009020112004-01717-045400FM-12+004499999V0201801N000510450019N0010001N1+02591+02441101201ADDAA124007191AY161061AY221061GF107991041031004501021001KA1240N+02041MA1999999100691MD1999999-0041MW1521REMSYN088AAXX  01124 82198 21494 71801 10259 20244 30069 40120 75262 84320 333 20204 59004 60074;
0182821980999992009020118004-01717-045400FM-12+004499999V0200501N003110450019N0010001N1+02861+02391100921ADDAA106002091AY161061AY221061GF107991041071004501061011MA1999999100411MD1999999-0031MW1021REMSYN082AAXX  01184 82198 21494 70506 10286 20239 30041 40092 70262 84761 333 59003 60021;
0213821980999992009020200004-01717-045400FM-12+004499999V0203501N003110450019N0002001N1+02481+02381101141ADDAA106017091AY161061AY221061GF106991031031004501061001KA1240M+03041MA1999999100631MD1999999+0051MW1021REMSYN100AAXX  02004 82198 21492 63506 10248 20238 30063 40114 70262 83360 333 10304 29089 55033 58005 60171;
0201821980999992009020212004-01717-045400FM-12+004499999V0202301N001010450019N0010001N1+02591+02331101201ADDAA124020191AY161061AY241061GF107991031071004501031041KA1240N+02011MA1999999100691MD1999999+0001MW1021REMSYN088AAXX  02124 82198 21494 72302 10259 20233 30069 40120 70264 83734 333 20201 58000 60204;
0165821980999992009020218004-01717-045400FM-12+004499999V0203601N005110450019N0010001N1+02831+02291100791ADDAY121061AY221061GF107991031031004501041001MA1999999100281MD1999999-0131MW1171REMSYN076AAXX  02184 82198 31494 73610 10283 20229 30028 40079 71722 83340 333 59013;
0232821980999992009020300004-01717-045400FM-12+004499999V0200901N001010450019N0002001N1+02561+02441101071ADDAA106000091AY151061AY221061GF106991031051004501061001KA1240M+03201MA1999999100561MD1999999-0071MW1021REMSYN100AAXX  03004 82198 21492 60902 10256 20244 30056 40107 70252 83560 333 10320 29086 55036 59007 69921;EQDQ01  00002PRCP06
0201821980999992009020312004-01717-045400FM-12+004499999V0201101N001010450019N0010001N1+02461+02411101231ADDAA124023191AY161061AY251061GF108991041051004501081999KA1240N+01951MA1999999100711MD1999999+0021MW1021REMSYN088AAXX  03124 82198 21494 81102 10246 20241 30071 40123 70265 8458/ 333 20195 58002 60234;
0182821980999992009020318004-01717-045400FM-12+004499999V0200201N001010450019N0010001N1+02511+02411100991ADDAA106023191AY191061AY261061GF108991031031004501041999MA1999999100471MD1999999+0191MW1511REMSYN082AAXX  03184 82198 21494 80202 10251 20241 30047 40099 75196 8334/ 333 58019 60231;
0213821980999992009020400004-01717-045400FM-12+004499999V0200501N002610042019N0010001N1+02461+02411101231ADDAA106005191AY161061AY221061GF107991051051004501021001KA1240M+02831MA1999999100711MD1999999+0151MW1021REMSYN100AAXX  04004 82198 21494 70505 10246 20241 30071 40123 70262 85520 333 10283 29095 55000 58015 60051;
0201821980999992009020412004-01717-045400FM-12+004499999V0201801N002110042019N0010001N1+02581+02441101321ADDAA124027991AY151061AY221061GF107991051051004501031001KA1240N+02041MA1999999100801MD1999999+0091MW1021REMSYN088AAXX  04124 82198 21494 71804 10258 20244 30080 40132 70252 85530 333 20204 58009 60284;
0182821980999992009020418004-01717-045400FM-12+004499999V0201101N002110450019N0010001N1+02541+02451101061ADDAA106039191AY191061AY261061GF108991041051004501021999MA1999999100541MD1999999+0071MW1631REMSYN082AAXX  04184 82198 21494 81104 10254 20245 30054 40106 76396 8452/ 333 58007 60391;
0213821980999992009020500004-01717-045400FM-12+004499999V0201801N002110042019N0002001N1+02441+02371101241ADDAA106002091AY161061AY221061GF108991051051004501021999KA1240M+02871MA1999999100721MD1999999+0011MW1021REMSYN100AAXX  05004 82198 21492 81804 10244 20237 30072 40124 70262 8552/ 333 10287 29095 55005 58001 60021;
0201821980999992009020512004-01717-045400FM-12+004499999V0200501N002110042019N0010001N1+02771+02461101271ADDAA124040991AY151061AY221061GF107991051091004501031001KA1240N+02091MA1999999100751MD1999999-0051MW1021REMSYN088AAXX  05124 82198 21494 70504 10277 20246 30075 40127 70252 85930 333 20209 59005 60414;
0137821980999992009020518004-01717-045400FM-12+004499999V0200701N004610450019N0010001N1+03041+02181100871ADDGF105991031021004501061001MA1999999100361MD1999999-0181REMSYN070AAXX  05184 82198 32494 50709 10304 20218 30036 40087 83260 333 59018;
0168821980999992009020600004-01717-045400FM-12+004499999V0200701N002112200019N0002001N1+02601+02271101151ADDGF104991011011004501041001KA1240M+03121MA1999999100631MD1999999-0091REMSYN088AAXX  06004 82198 32492 40704 10260 20227 30063 40115 81140 333 10312 29077 55076 59009;
0156821980999992009020612004-01717-045400FM-12+004499999V0200701N003610042019N0010001N1+02871+02391101241ADDGF107991051021004501061001KA1240N+02121MA1999999100731MD1999999-0051REMSYN076AAXX  06124 82198 32494 70707 10287 20239 30073 40124 85260 333 20212 59005;
0182821980999992009020618004-01717-045400FM-12+004499999V0200701N002610450019N0010001N1+02841+02421100951ADDAA106003091AY161061AY221061GF106991031031004501041001MA1999999100431MD1999999+0071MW1021REMSYN082AAXX  06184 82198 21494 60705 10284 20242 30043 40095 70262 83340 333 58007 60031;
0168821980999992009020700004-01717-045400FM-12+004499999V0200701N003110450019N0002001N1+02661+02431101151ADDGF107991041031004501061001KA1240M+03041MA1999999100641MD1999999+0011REMSYN088AAXX  07004 82198 32492 70706 10266 20243 30064 40115 84360 333 10304 29082 55055 58001;
0173821980999992009020712004-01717-045400FM-12+004499999V0200701N003610042019N0010001N1+02891+02371101251ADDAA124003091GF106991051021004501061001KA1240N+02201MA1999999100741MD1999999+0011REMSYN082AAXX  07124 82198 22494 60707 10289 20237 30074 40125 85260 333 20220 58001 60034;
0137821980999992009020718004-01717-045400FM-12+004499999V0200701N003612200019N0010001N1+03111+02291100951ADDGF104991041021004501001001MA1999999100441MD1999999+0011REMSYN070AAXX  07184 82198 32494 40707 10311 20229 30044 40095 84200 333 58001;
0168821980999992009020800004-01717-045400FM-12+004499999V0200701N002112200019N0002001N1+02641+02411101121ADDGF102991021021004501001001KA1240M+03301MA1999999100601MD1999999-0041REMSYN088AAXX  08004 82198 32492 20704 10264 20241 30060 40112 82200 333 10330 29078 55093 59004;
0137821980999992009020818004-01717-045400FM-12+004499999V0200501N004610450019N0010001N1+03231+02431100831ADDGF105991041021004501061001MA1999999100321MD1999999-0121REMSYN070AAXX  08184 82198 32494 50509 10323 20243 30032 40083 84260 333 59012;
0187821980999992009020900004-01717-045400FM-12+004499999V0209999C036022200019N0002001N1+02701+02391101011ADDGF103991031001012501061001KA1240M+03351MA1999999100501MD1999999-0101REMSYN088AAXX  09004 82198 32692 30070 10270 20239 30050 40101 83060 333 10335 29076 55101 59010;EQDQ01+003603WOSPD 
0156821980999992009020912004-01717-045400FM-12+004499999V0200701N002110450019N0010001N1+02881+02461101161ADDGF105991041021004501041001KA1240N+02221MA1999999100651MD1999999+0011REMSYN076AAXX  09124 82198 32494 50704 10288 20246 30065 40116 84240 333 20222 58001;
0137821980999992009020918004-01717-045400FM-12+004499999V0200501N005710450019N0010001N1+03021+02391100871ADDGF105991031021004501041021MA1999999100361MD1999999+0041REMSYN070AAXX  09184 82198 32494 50511 10302 20239 30036 40087 83242 333 58004;
0168821980999992009021000004-01717-045400FM-12+004499999V0200701N002612200019N0002001N1+02691+02371100991ADDGF102991021021004501001001KA1240M+03171MA1999999100481MD1999999-0021REMSYN088AAXX  10004 82198 32492 20705 10269 20237 30048 40099 82200 333 10317 29078 55093 59002;
0156821980999992009021012004-01717-045400FM-12+004499999V0200501N003610450019N0010001N1+02861+02351101201ADDGF106991031021004501061001KA1240N+02221MA1999999100691MD1999999+0041REMSYN076AAXX  10124 82198 32494 60507 10286 20235 30069 40120 83260 333 20222 58004;
0137821980999992009021018004-01717-045400FM-12+004499999V0200501N005710450019N0010001N1+03001+02321100881ADDGF106991041021004501061001MA1999999100371MD1999999+0011REMSYN070AAXX  10184 82198 32494 60511 10300 20232 30037 40088 84260 333 58001;
0201821980999992009021112004-01717-045400FM-12+004499999V0200501N000510450019N0005001N1+02741+02501101251ADDAA124018091AY151061AY221061GF108991041031004501061001KA1240N+02041MA1999999100741MD1999999+0051MW1021REMSYN088AAXX  11124 82198 21493 80501 10274 20250 30074 40125 70252 84360 333 20204 58005 60184;
0182821980999992009021118004-01717-045400FM-12+004499999V0200501N001510450019N0010001N1+02621+02421100981ADDAA106017091AY191061AY261061GF107991041051004501011061MA1999999100471MD1999999+0101MW1021REMSYN082AAXX  11184 82198 21494 70503 10262 20242 30047 40098 70296 84516 333 58010 60171;
0213821980999992009021200004-01717-045400FM-12+004499999V0200501N002110450019N0002001N1+02511+02431101091ADDAA106001091AY161061AY221061GF106991031051004501031041KA1240M+02781MA1999999100581MD1999999-0061MW1021REMSYN100AAXX  12004 82198 21492 60504 10251 20243 30058 40109 70262 83534 333 10278 29092 55002 59006 60011;
0201821980999992009021212004-01717-045400FM-12+004499999V0201801N002110450019N0005001N1+02661+02441101151ADDAA124021191AY161061AY241061GF106991031021004501061061KA1240N+02031MA1999999100641MD1999999-0101MW1211REMSYN088AAXX  12124 82198 21493 61804 10266 20244 30064 40115 72164 83266 333 20203 59010 60214;
0182821980999992009021218004-01717-045400FM-12+004499999V0200901N003610450019N0005001N1+02601+02421100891ADDAA106007991AY191061AY221061GF107991031031004501061001MA1999999100381MD1999999-0091MW1631REMSYN082AAXX  12184 82198 21493 70907 10260 20242 30038 40089 76392 83360 333 59009 60081;
0213821980999992009021300004-01717-045400FM-12+004499999V0200701N003112200019N0002001N1+02621+02421100871ADDAA106002091AY161061AY211061GF102991021021004501001001KA1240M+02981MA1999999100361MD1999999-0221MW1011REMSYN100AAXX  13004 82198 21492 20706 10262 20242 30036 40087 70161 82200 333 10298 29089 55033 59022 60021;
0201821980999992009021312004-01717-045400FM-12+004499999V0200201N003110450019N0010001N1+02681+02431100981ADDAA124011991AY161061AY221061GF107991031031004501031041KA1240N+02071MA1999999100471MD1999999-0171MW1091REMSYN088AAXX  13124 82198 21494 70206 10268 20243 30047 40098 70962 83334 333 20207 59017 60124;
0201821980999992009021412004-01717-045400FM-12+004499999V0201101N001510450019N0010001N1+02831+02441100951ADDAA124003091AY111061AY221061GF107991031021004501041061KA1240N+02131MA1999999100441MD1999999-0031MW1281REMSYN088AAXX  14124 82198 21494 71103 10283 20244 30044 40095 72812 83246 333 20213 59003 60034;
0182821980999992009021418004-01717-045400FM-12+004499999V0200901N002110450019N0010001N1+02541+02381100691ADDAA106014091AY161061AY221061GF108991041031004501021001MA1999999100181MD1999999+0081MW1021REMSYN082AAXX  14184 82198 21494 80904 10254 20238 30018 40069 70262 84320 333 58008 60141;
0173821980999992009021512004-01717-045400FM-12+004499999V0200701N003610450019N0010001N1+02821+02481100961ADDAA124014091GF106991031021004501031041KA1240N+02101MA1999999100451MD1999999+0011REMSYN082AAXX  15124 82198 22494 60707 10282 20248 30045 40096 83234 333 20210 58001 60144;
0137821980999992009021518004-01717-045400FM-12+004499999V0200701N004610450019N0010001N1+02911+02271100671ADDGF106991041021004501061001MA1999999100161MD1999999-0021REMSYN070AAXX  15184 82198 32494 60709 10291 20227 30016 40067 84260 333 59002;
0213821980999992009021600004-01717-045400FM-12+004499999V0200701N001510450019N0002001N1+02481+02391100921ADDAA106001091AY161061AY221061GF107991031071004501021001KA1240M+03111MA1999999100411MD1999999+0071MW1031REMSYN100AAXX  16004 82198 21492 70703 10248 20239 30041 40092 70362 83720 333 10311 29085 55047 58007 60011;
0173821980999992009021612004-01717-045400FM-12+004499999V0200701N001010450019N0010001N1+02681+02451101061ADDAA124001091GF107991041051004501061011KA1240N+02151MA1999999100551MD1999999+0101REMSYN082AAXX  16124 82198 22494 70702 10268 20245 30055 40106 84561 333 20215 58010 60014;
0182821980999992009021618004-01717-045400FM-12+004499999V0200701N003110042019N0002001N1+02371+02331100881ADDAA106040991AY191061AY261061GF108991081001004501021999MA1999999100371MD1999999+0211MW1631REMSYN082AAXX  16184 82198 21492 80706 10237 20233 30037 40088 76396 8802/ 333 58021 60411;
0213821980999992009021700004-01717-045400FM-12+004499999V0209999C000010450019N0001001N1+02381+02311101001ADDAA106010991AY161061AY221061GF108991041071004501021999KA1240M+02891MA1999999100491MD1999999+0081MW1021REMSYN100AAXX  17004 82198 21491 80000 10238 20231 30049 40100 70262 8472/ 333 10289 29094 55008 58008 60111;
0201821980999992009021712004-01717-045400FM-12+004499999V0201401N001010042019N0010001N1+02411+02331101191ADDAA124061091AY161061AY221061GF108991051051004501021999KA1240N+01951MA1999999100671MD1999999+0121MW1021REMSYN088AAXX  17124 82198 21494 81402 10241 20233 30067 40119 70262 8552/ 333 20195 58012 60614;
0182821980999992009021718004-01717-045400FM-12+004499999V0200501N005110450019N0010001N1+02501+02401100861ADDAA106004191AY151061AY221061GF108991041051004501021999MA1999999100341MD1999999-0041MW1631REMSYN082AAXX  17184 82198 21494 80510 10250 20240 30034 40086 76352 8452/ 333 59004 60041;
0213821980999992009021800004-01717-045400FM-12+004499999V0200501N000510450019N0002001N1+02491+02411100971ADDAA106010991AY161061AY221061GF108991031051004501071999KA1240M+03031MA1999999100451MD1999999-0041MW1021REMSYN100AAXX  18004 82198 21492 80501 10249 20241 30045 40097 70262 8357/ 333 10303 29096 55021 59004 60111;
0173821980999992009021812004-01717-045400FM-12+004499999V0200901N002110450019N0010001N1+02611+02251101091ADDAA124014091GF106991011011004501061001KA1240N+02001MA1999999100571MD1999999-0101REMSYN082AAXX  18124 82198 22494 60904 10261 20225 30057 40109 81160 333 20200 59010 60144;
0137821980999992009021818004-01717-045400FM-12+004499999V0200501N005110450019N0010001N1+02811+02341100811ADDGF107991041031004501041001MA1999999100301MD1999999-0041REMSYN070AAXX  18184 82198 32494 70510 10281 20234 30030 40081 84340 333 59004;
0201821980999992009021912004-01717-045400FM-12+004499999V0203601N001010042019N0010001N1+02581+02421101181ADDAA124005191AY161061AY221061GF108991051071004501021999KA1240N+02011MA1999999100661MD1999999+0091MW1021REMSYN088AAXX  19124 82198 21494 83602 10258 20242 30066 40118 70262 8572/ 333 20201 58009 60054;
0182821980999992009021918004-01717-045400FM-12+004499999V0200201N003610450019N0010001N1+02861+02211100851ADDAA106002091AY161061AY221061GF107991031031004501041021MA1999999100331MD1999999+0031MW1021REMSYN082AAXX  19184 82198 21494 70207 10286 20221 30033 40085 70262 83342 333 58003 60021;
0213821980999992009022000004-01717-045400FM-12+004499999V0200701N002110450019N0002001N1+02481+02381101001ADDAA106004191AY161061AY221061GF107991041051004501041001KA1240M+02971MA1999999100481MD1999999-0091MW1021REMSYN100AAXX  20004 82198 21492 70704 10248 20238 30048 40100 70262 84540 333 10297 29087 55021 59009 60041;
0137821980999992009022018004-01717-045400FM-12+004499999V0200501N005710450019N0010001N1+02831+02381100641ADDGF106991041021004501061011MA1999999100131MD1999999-0201REMSYN070AAXX  20184 82198 32494 60511 10283 20238 30013 40064 84261 333 59020;
0213821980999992009022100004-01717-045400FM-12+004499999V0200701N002110450019N0002001N1+02621+02371100941ADDAA106000391AY151061AY221061GF107991031031004501041001KA1240M+03031MA1999999100431MD1999999-0051MW1021REMSYN100AAXX  21004 82198 21492 70704 10262 20237 30043 40094 70252 83340 333 10303 29082 55064 59005 69931;
0173821980999992009022112004-01717-045400FM-12+004499999V0200501N003610450019N0010001N1+02831+02381101021ADDAA124000391GF106991041021004501061001KA1240N+02181MA1999999100511MD1999999+0041REMSYN082AAXX  21124 82198 22494 60507 10283 20238 30051 40102 84260 333 20218 58004 69934;
0137821980999992009022118004-01717-045400FM-12+004499999V0200501N005110450019N0010001N1+02911+02321100701ADDGF105991031021004501041001MA1999999100191MD1999999+0131REMSYN070AAXX  21184 82198 32494 50510 10291 20232 30019 40070 83240 333 58013;
0213821980999992009022200004-01717-045400FM-12+004499999V0200901N002110450019N0002001N1+02541+02451100991ADDAA106002091AY161061AY221061GF106991031031004501041001KA1240M+03051MA1999999100471MD1999999+0041MW1021REMSYN100AAXX  22004 82198 21492 60904 10254 20245 30047 40099 70262 83340 333 10305 29084 55066 58004 60021;
0201821980999992009022212004-01717-045400FM-12+004499999V0200701N001010042019N0002001N1+02471+02391101221ADDAA124043991AY161061AY221061GF108991061051004501021999KA1240N+02061MA1999999100701MD1999999+0191MW1531REMSYN088AAXX  22124 82198 21492 80702 10247 20239 30070 40122 75362 8652/ 333 20206 58019 60444;
0182821980999992009022218004-01717-045400FM-12+004499999V0200501N003110042019N0010001N1+02811+02311100951ADDAA106009991AY161061AY221061GF108991051051004501061999MA1999999100441MD1999999+0251MW1021REMSYN082AAXX  22184 82198 21494 80506 10281 20231 30044 40095 70262 8556/ 333 58025 60101;
0201821980999992009022312004-01717-045400FM-12+004499999V0201401N001510450019N0010001N1+02441+02171101221ADDAA124042991AY161061AY221061GF107991041071004501041001KA1240N+02041MA1999999100701MD1999999+0001MW1531REMSYN088AAXX  23124 82198 21494 71403 10244 20217 30070 40122 75362 84740 333 20204 58000 60434;
0182821980999992009022318004-01717-045400FM-12+004499999V0200501N002110042019N0010001N1+02431+02331100981ADDAA106027991AY161061AY221061GF108991051051004501021001MA1999999100461MD1999999+0021MW1631REMSYN082AAXX  23184 82198 21494 80504 10243 20233 30046 40098 76362 85520 333 58002 60281;
0201821980999992009022412004-01717-045400FM-12+004499999V0201801N002110450019N0010001N1+02561+02361101061ADDAA124027991AY151061AY221061GF107991041031004501011001KA1240N+02111MA1999999100551MD1999999-0151MW1021REMSYN088AAXX  24124 82198 21494 71804 10256 20236 30055 40106 70252 84310 333 20211 59015 60284;
0182821980999992009022418004-01717-045400FM-12+004499999V0200901N003610450019N0005001N1+02521+02341100781ADDAA106007191AY121061AY221061GF107991041031004501021001MA1999999100271MD1999999-0191MW1631REMSYN082AAXX  24184 82198 21493 70907 10252 20234 30027 40078 76322 84320 333 59019 60071;
0168821980999992009022500004-01717-045400FM-12+004499999V0200901N000510450019N0001001N1+02451+02301100941ADDGF107991041071004501061001KA1240M+02931MA1999999100431MD1999999-0101REMSYN088AAXX  25004 82198 32491 70901 10245 20230 30043 40094 84760 333 10293 29092 55020 59010;
0173821980999992009022512004-01717-045400FM-12+004499999V0201401N001510450019N0010001N1+02641+02501101011ADDAA124007191GF106991031051004501041061KA1240N+01961MA1999999100501MD1999999-0051REMSYN082AAXX  25124 82198 22494 61403 10264 20250 30050 40101 83546 333 20196 59005 60074;
0182821980999992009022518004-01717-045400FM-12+004499999V0203601N005110042019N0005001N1+02691+02351100671ADDAA106018091AY191061AY261061GF108991061031004501021001MA1999999100161MD1999999-0111MW1151REMSYN082AAXX  25184 82198 21493 83610 10269 20235 30016 40067 71596 86320 333 59011 60181;
0213821980999992009022600004-01717-045400FM-12+004499999V0200701N002610450019N0001001N1+02541+02441100951ADDAA106005191AY161061AY221061GF107991041011004501061001KA1240M+03011MA1999999100441MD1999999+0011MW1021REMSYN100AAXX  26004 82198 21491 70705 10254 20244 30044 40095 70262 84160 333 10301 29092 55027 58001 60051;
0201821980999992009022612004-01717-045400FM-12+004499999V0200901N001510450019N0005001N1+02521+02451101021ADDAA124034091AY161061AY221061GF108991041031004501061001KA1240N+02061MA1999999100511MD1999999+0011MW1611REMSYN088AAXX  26124 82198 21493 80903 10252 20245 30051 40102 76162 84360 333 20206 58001 60344;
0201821980999992009022712004-01717-045400FM-12+004499999V0203501N001510450019N0010001N1+02481+02391101101ADDAA124013091AY161061AY221061GF107991041051004501011001KA1240N+01941MA1999999100591MD1999999+0081MW1021REMSYN088AAXX  27124 82198 21494 73503 10248 20239 30059 40110 70262 84510 333 20194 58008 60134;
0165821980999992009022718004-01717-045400FM-12+004499999V0203601N003610450019N0010001N1+02901+02301100841ADDAY121061AY221061GF107991041031004501031041MA1999999100331MD1999999-0011MW1151REMSYN076AAXX  27184 82198 31494 73607 10290 20230 30033 40084 71522 84334 333 59001;
0213821980999992009022800004-01717-045400FM-12+004499999V0200201N002110042019N0002001N1+02481+02361101141ADDAA106007991AY161061AY221061GF108991061011004501021999KA1240M+03051MA1999999100631MD1999999+0081MW1601REMSYN100AAXX  28004 82198 21492 80204 10248 20236 30063 40114 76062 8612/ 333 10305 29088 55038 58008 60081;
0201821980999992009022812004-01717-045400FM-12+004499999V0202901N001510450019N0010001N1+02531+02361101171ADDAA124034091AY161061AY221061GF106991031051004501061041KA1240N+01891MA1999999100661MD1999999+0071MW1041REMSYN088AAXX  28124 82198 21494 62903 10253 20236 30066 40117 70462 83564 333 20189 58007 60344;
0137821980999992009022818004-01717-045400FM-12+004499999V0203601N004610450019N0010001N1+02751+02401100891ADDGF107991041071004501061001MA1999999100381MD1999999+0051REMSYN070AAXX  28184 82198 32494 73609 10275 20240 30038 40089 84760 333 58005;
0168821980999992009030100004-01717-045400FM-12+004499999V0201101N001512200019N0002001N1+02491+02241101131ADDGF103991021021004501061001KA1240M+03131MA1999999100621MD1999999-0011REMSYN088AAXX  01004 82198 32492 31103 10249 20224 30062 40113 82260 333 10313 29088 55057 59001;
0156821980999992009030112004-01717-045400FM-12+004499999V0200701N003110450019N0010001N1+02761+02381101221ADDGF107991031051004501061011KA1240N+02101MA1999999100711MD1999999+0051REMSYN076AAXX  01124 82198 32494 70706 10276 20238 30071 40122 83561 333 20210 58005;
0182821980999992009030118004-01717-045400FM-12+004499999V0200501N003610450019N0010001N1+02611+02441100931ADDAA106009991AY191061AY261061GF107991031031004501061041MA1999999100421MD1999999+0041MW1211REMSYN082AAXX  01184 82198 21494 70507 10261 20244 30042 40093 72196 83364 333 58004 60101;
0213821980999992009030200004-01717-045400FM-12+004499999V0201101N003110450019N0001001N1+02441+02371101151ADDAA106013091AY161061AY221061GF106991031071004501021001KA1240M+02931MA1999999100641MD1999999+0021MW1621REMSYN100AAXX  02004 82198 21491 61106 10244 20237 30064 40115 76262 83720 333 10293 29091 55007 58002 60131;
0201821980999992009030212004-01717-045400FM-12+004499999V0200501N001510450019N0010001N1+02541+02381101211ADDAA124029091AY161061AY221061GF107991031071004501041061KA1240N+02311MA1999999100701MD1999999-0011MW1621REMSYN088AAXX  02124 82198 21494 70503 10254 20238 30070 40121 76262 83746 333 20231 59001 60294;
0213821980999992009030300004-01717-045400FM-12+004499999V0201101N002610450019N0002001N1+02511+02451101151ADDAA106018091AY161061AY221061GF106991031021004501061011KA1240M+02811MA1999999100641MD1999999+0001MW1011REMSYN100AAXX  03004 82198 21492 61105 10251 20245 30064 40115 70162 83261 333 10281 29095 55003 58000 60181;
0201821980999992009030312004-01717-045400FM-12+004499999V0201401N002110450019N0010001N1+02501+02411101291ADDAA124067191AY161061AY221061GF108991041071004501021999KA1240N+02231MA1999999100771MD1999999+0071MW1021REMSYN088AAXX  03124 82198 21494 81404 10250 20241 30077 40129 70262 8472/ 333 20223 58007 60674;
0182821980999992009030318004-01717-045400FM-12+004499999V0203601N002110450019N0010001N1+02621+02481100921ADDAA106007191AY161061AY221061GF107991041051004501041001MA1999999100411MD1999999-0041MW1211REMSYN082AAXX  03184 82198 21494 73604 10262 20248 30041 40092 72162 84540 333 59004 60071;
0213821980999992009030400004-01717-045400FM-12+004499999V0200501N001510450019N0002001N1+02461+02371101121ADDAA106000591AY121061AY221061GF105991021031004501041001KA1240M+02781MA1999999100601MD1999999-0041MW1201REMSYN100AAXX  04004 82198 21492 50503 10246 20237 30060 40112 72022 82340 333 10278 29094 55015 59004 69961;
0201821980999992009030412004-01717-045400FM-12+004499999V0200901N003610042019N0010001N1+02581+02381101171ADDAA124009991AY161061AY221061GF108991051051004501021999KA1240N+02261MA1999999100651MD1999999-0121MW1021REMSYN088AAXX  04124 82198 21494 80907 10258 20238 30065 40117 70262 8552/ 333 20226 59012 60104;
0182821980999992009030418004-01717-045400FM-12+004499999V0203601N003110042019N0010001N1+02721+02371100881ADDAA106000891AY151061AY221061GF108991051071004501041999MA1999999100361MD1999999-0051MW1021REMSYN082AAXX  04184 82198 21494 83606 10272 20237 30036 40088 70252 8574/ 333 59005 69971;
0213821980999992009030500004-01717-045400FM-12+004499999V0200201N003112200019N0002001N1+02621+02241101051ADDAA106001091AY161061AY221061GF103991031001004501061001KA1240M+02771MA1999999100531MD1999999-0071MW1011REMSYN100AAXX  05004 82198 21492 30206 10262 20224 30053 40105 70162 83060 333 10277 29084 55006 59007 60011;
0201821980999992009030512004-01717-045400FM-12+004499999V0200701N001010042019N0005001N1+02261+02211101381ADDAA124137991AY161061AY221061GF108991061071004501021999KA1240N+02161MA1999999100861MD1999999+0211MW1631REMSYN088AAXX  05124 82198 21493 80702 10226 20221 30086 40138 76362 8672/ 333 20216 58021 61384;
0182821980999992009030518004-01717-045400FM-12+004499999V0203201N002110042019N0010001N1+02421+02351100871ADDAA106016091AY161061AY221061GF108991051041004501041001MA1999999100351MD1999999-0011MW1521REMSYN082AAXX  05184 82198 21494 83204 10242 20235 30035 40087 75262 85440 333 59001 60161;
0168821980999992009030600004-01717-045400FM-12+004499999V0200501N000510450019N0002001N1+02381+02221101061ADDGF107991041051004501041001KA1240M+02591MA1999999100541MD1999999+0011REMSYN088AAXX  06004 82198 32492 70501 10238 20222 30054 40106 84540 333 10259 29094 55014 58001;
0201821980999992009030612004-01717-045400FM-12+004499999V0200201N001510450019N0010001N1+02441+02341101281ADDAA124051191AY161061AY221061GF107991031031004501061001KA1240N+02171MA1999999100761MD1999999-0101MW1021REMSYN088AAXX  06124 82198 21494 70203 10244 20234 30076 40128 70262 83360 333 20217 59010 60514;
0137821980999992009030618004-01717-045400FM-12+004499999V0200201N003610450019N0010001N1+02941+02331100891ADDGF105991031021004501061001MA1999999100381MD1999999+0031REMSYN070AAXX  06184 82198 32494 50207 10294 20233 30038 40089 83260 333 58003;
0168821980999992009030700004-01717-045400FM-12+004499999V0200501N001510450019N0002001N1+02561+02401101251ADDGF107991031021004501031001KA1240M+03121MA1999999100741MD1999999+0201REMSYN088AAXX  07004 82198 32492 70503 10256 20240 30074 40125 83230 333 10312 29086 55059 58020;
0184821980999992009030712004-01717-045400FM-12+004499999V0203601N000510450019N0010001N1+02661+02461101161ADDAY141061AY221061GF106991031021004501041091KA1240N+02271MA1999999100651MD1999999-0111MW1011REMSYN082AAXX  07124 82198 31494 63601 10266 20246 30065 40116 70142 83249 333 20227 59011;
0137821980999992009030718004-01717-045400FM-12+004499999V0203601N003610450019N0010001N1+02711+02431100901ADDGF106991031031004501041001MA1999999100391MD1999999-0011REMSYN070AAXX  07184 82198 32494 63607 10271 20243 30039 40090 83340 333 59001;
0156821980999992009030812004-01717-045400FM-12+004499999V0200501N003110042019N0010001N1+02791+02441101141ADDGF106991051021004501041001KA1240N+02231MA1999999100631MD1999999-0021REMSYN076AAXX  08124 82198 32494 60506 10279 20244 30063 40114 85240 333 20223 59002;
0182821980999992009030818004-01717-045400FM-12+004499999V0202301N001510042019N0010001N1+02481+02431100811ADDAA106033091AY161061AY221061GF108991051051004501021999MA1999999100301MD1999999-0091MW1631REMSYN082AAXX  08184 82198 21494 82303 10248 20243 30030 40081 76362 8552/ 333 59009 60331;
0213821980999992009030900004-01717-045400FM-12+004499999V0200501N001510450019N0002001N1+02561+02441100991ADDAA106010991AY161061AY221061GF107991021071004501011001KA1240M+02991MA1999999100471MD1999999-0191MW1021REMSYN100AAXX  09004 82198 21492 70503 10256 20244 30047 40099 70262 82710 333 10299 29091 55027 59019 60111;
0137821980999992009030918004-01717-045400FM-12+004499999V0203601N005710450019N0010001N1+02961+02401100771ADDGF105991041021004501041001MA1999999100261MD1999999-0041REMSYN070AAXX  09184 82198 32494 53611 10296 20240 30026 40077 84240 333 59004;
0213821980999992009031000004-01717-045400FM-12+004499999V0200901N002110450019N0010001N1+02601+02421101121ADDAA106000591AY151061AY221061GF105991041021004501061001KA1240M+03221MA1999999100611MD1999999+0141MW1021REMSYN100AAXX  10004 82198 21494 50904 10260 20242 30061 40112 70252 84260 333 10322 29083 55081 58014 69961;
0173821980999992009031012004-01717-045400FM-12+004499999V0201101N001010450019N0010001N1+02721+02521101171ADDAA124000591GF107991031051004501061011KA1240N+02331MA1999999100661MD1999999+0041REMSYN082AAXX  10124 82198 22494 71102 10272 20252 30066 40117 83561 333 20233 58004 69964;
0182821980999992009031018004-01717-045400FM-12+004499999V0200501N002610450019N0005001N1+02441+02391100861ADDAA106009991AY191061AY261061GF107991031031004501021011MA1999999100351MD1999999+0091MW1631REMSYN082AAXX  10184 82198 21493 70505 10244 20239 30035 40086 76396 83321 333 58009 60101;
0213821980999992009031100004-01717-045400FM-12+004499999V0201101N001510450019N0002001N1+02531+02411100991ADDAA106001091AY161061AY221061GF107991031021004501011061KA1240M+03041MA1999999100481MD1999999+0381MW1021REMSYN100AAXX  11004 82198 21492 71103 10253 20241 30048 40099 70262 83216 333 10304 29094 55021 58038 60011;
0201821980999992009031112004-01717-045400FM-12+004499999V0200701N001512200019N0010001N1+02941+02561101081ADDAA124010991AY161061AY221061GF106991041021004501001041KA1240N+02391MA1999999100571MD1999999-0091MW1011REMSYN088AAXX  11124 82198 21494 60703 10294 20256 30057 40108 70162 84204 333 20239 59009 60114;
0182821980999992009031118004-01717-045400FM-12+004499999V0203601N004610450019N0010001N1+02771+02461100711ADDAA106013091AY161061AY221061GF107991041071004501011061MA1999999100201MD1999999-0151MW1031REMSYN082AAXX  11184 82198 21494 73609 10277 20246 30020 40071 70362 84716 333 59015 60131;
0201821980999992009031212004-01717-045400FM-12+004499999V0209999C000010450019N0005001N1+02531+02431101191ADDAA124040991AY191061AY261061GF108991041031004501021999KA1240N+02291MA1999999100681MD1999999+0111MW1021REMSYN088AAXX  12124 82198 21493 80000 10253 20243 30068 40119 70296 8432/ 333 20229 58011 60414;
0182821980999992009031218004-01717-045400FM-12+004499999V0200701N001510450019N0010001N1+02781+02441100861ADDAA106001091AY161061AY221061GF107991041071004501011091MA1999999100351MD1999999+0151MW1011REMSYN082AAXX  12184 82198 21494 70703 10278 20244 30035 40086 70162 84719 333 58015 60011;
0168821980999992009031300004-01717-045400FM-12+004499999V0200701N003110450019N0002001N1+02591+02441100971ADDGF106991031021004501011061KA1240M+02881MA1999999100461MD1999999-0031REMSYN088AAXX  13004 82198 32492 60706 10259 20244 30046 40097 83216 333 10288 29090 55025 59003;
0201821980999992009031312004-01717-045400FM-12+004499999V0203601N003110450019N0010001N1+02861+02351101021ADDAA124005191AY161061AY221061GF105991031051004501061041KA1240N+02311MA1999999100511MD1999999-0171MW1011REMSYN088AAXX  13124 82198 21494 53606 10286 20235 30051 40102 70162 83564 333 20231 59017 60054;
0137821980999992009031318004-01717-045400FM-12+004499999V0203601N004612200019N0010001N1+03021+02361100721ADDGF105991031021004501001011MA1999999100211MD1999999-0141REMSYN070AAXX  13184 82198 32494 53609 10302 20236 30021 40072 83201 333 59014;
0168821980999992009031400004-01717-045400FM-12+004499999V0203601N003112200019N0002001N1+02671+02311101021ADDGF104991031021004501031001KA1240M+03101MA1999999100511MD1999999+0051REMSYN088AAXX  14004 82198 32492 43606 10267 20231 30051 40102 83230 333 10310 29078 55089 58005;
0201821980999992009031412004-01717-045400FM-12+004499999V0203601N002110042019N0005001N1+02641+02441101251ADDAA124004191AY161061AY221061GF108991051031004501061011KA1240N+02451MA1999999100741MD1999999+0231MW1031REMSYN088AAXX  14124 82198 21493 83604 10264 20244 30074 40125 70362 85361 333 20245 58023 60044;
0137821980999992009031418004-01717-045400FM-12+004499999V0203601N004610450019N0010001N1+02901+02341100961ADDGF107991041071004501061041MA1999999100451MD1999999+0241REMSYN070AAXX  14184 82198 32494 73609 10290 20234 30045 40096 84764 333 58024;
0196821980999992009031500004-01717-045400FM-12+004499999V0203601N002112200019N0002001N1+02561+02291101161ADDAY111061AY211061GF103991021051004501061001KA1240M+02981MA1999999100651MD1999999+0141MW1131REMSYN094AAXX  15004 82198 31492 33604 10256 20229 30065 40116 71311 82560 333 10298 29083 55002 58014;
0156821980999992009031512004-01717-045400FM-12+004499999V0203601N003110450019N0010001N1+02841+02401101241ADDGF106991031051004501061011KA1240N+02391MA1999999100731MD1999999-0011REMSYN076AAXX  15124 82198 32494 63606 10284 20240 30073 40124 83561 333 20239 59001;
0137821980999992009031518004-01717-045400FM-12+004499999V0203601N005710450019N0005001N1+02921+02431100971ADDGF107991041051004501061011MA1999999100461MD1999999+0011REMSYN070AAXX  15184 82198 32493 73611 10292 20243 30046 40097 84561 333 58001;
0213821980999992009031600004-01717-045400FM-12+004499999V0200501N003110042019N0002001N1+02431+02371101221ADDAA106014091AY191061AY261061GF108991051071004501021999KA1240M+03141MA1999999100701MD1999999+0051MW1031REMSYN100AAXX  16004 82198 21492 80506 10243 20237 30070 40122 70396 8572/ 333 10314 29087 55066 58005 60141;
0201821980999992009031612004-01717-045400FM-12+004499999V0203601N003110450019N0010001N1+02491+02241101261ADDAA124068191AY161061AY221061GF107991031051004501011011KA1240N+02271MA1999999100741MD1999999+0011MW1621REMSYN088AAXX  16124 82198 21494 73606 10249 20224 30074 40126 76262 83511 333 20227 58001 60684;
0182821980999992009031618004-01717-045400FM-12+004499999V0203601N003110450019N0010001N1+02471+02381100961ADDAA106104991AY161061AY221061GF108991041031004501021999MA1999999100451MD1999999-0011MW1031REMSYN082AAXX  16184 82198 21494 83606 10247 20238 30045 40096 70362 8432/ 333 59001 61051;
0201821980999992009031712004-01717-045400FM-12+004499999V0202701N002610042019N0010001N1+02371+02311101351ADDAA124111091AY151061AY221061GF108991061051004501021999KA1240N+02231MA1999999100831MD1999999+0091MW1631REMSYN088AAXX  17124 82198 21494 82705 10237 20231 30083 40135 76352 8652/ 333 20223 58009 61114;
0182821980999992009031718004-01717-045400FM-12+004499999V0203601N006710450019N0010001N1+02451+02301101001ADDAA106008991AY161061AY251061GF108991031081004501051001MA1999999100481MD1999999+0031MW1201REMSYN082AAXX  17184 82198 21494 83613 10245 20230 30048 40100 72065 83850 333 58003 60091;
0173821980999992009031812004-01717-045400FM-12+004499999V0201401N003610450019N0010001N1+02621+02351101191ADDAA124008991GF106991031021004501061001KA1240N+02181MA1999999100671MD1999999-0161REMSYN082AAXX  18124 82198 22494 61407 10262 20235 30067 40119 83260 333 20218 59016 60094;
0165821980999992009031818004-01717-045400FM-12+004499999V0203601N004110450019N0010001N1+02691+02391100951ADDAY121061AY221061GF107991041051004501041001MA1999999100431MD1999999-0051MW1151REMSYN076AAXX  18184 82198 31494 73608 10269 20239 30043 40095 71522 84540 333 59005;
0156821980999992009031912004-01717-045400FM-12+004499999V0200501N002110042019N0010001N1+02901+02411101051ADDGF105991051021004501001001KA1240N+02311MA1999999100541MD1999999-0131REMSYN076AAXX  19124 82198 32494 50504 10290 20241 30054 40105 85200 333 20231 59013;
0182821980999992009031918004-01717-045400FM-12+004499999V0203601N004610450019N0010001N1+02901+02481100761ADDAA106000391AY121061AY221061GF105991041021004501061001MA1999999100251MD1999999-0181MW1201REMSYN082AAXX  19184 82198 21494 53609 10290 20248 30025 40076 72022 84260 333 59018 69931;
0173821980999992009032012004-01717-045400FM-12+004499999V0200701N004110042019N0010001N1+02921+02451101091ADDAA124000391GF107991051021004501061001KA1240N+02331MA1999999100581MD1999999+0041REMSYN082AAXX  20124 82198 22494 70708 10292 20245 30058 40109 85260 333 20233 58004 69934;
0182821980999992009032018004-01717-045400FM-12+004499999V0203601N003110042019N0010001N1+02701+02461100771ADDAA106006191AY161061AY221061GF107991051051004501071001MA1999999100261MD1999999+0011MW1521REMSYN082AAXX  20184 82198 21494 73606 10270 20246 30026 40077 75262 85570 333 58001 60061;
0196821980999992009032100004-01717-045400FM-12+004499999V0200501N002612200019N0002001N1+02561+02441100961ADDAY121061AY211061GF103991031001012501061001KA1240M+03031MA1999999100441MD1999999-0021MW1131REMSYN094AAXX  21004 82198 31692 30505 10256 20244 30044 40096 71321 83060 333 10303 29087 55032 59002;
0173821980999992009032112004-01717-045400FM-12+004499999V0200501N003110042019N0010001N1+02911+02411101041ADDAA124006191GF106991051021004501061001KA1240N+02371MA1999999100531MD1999999-0051REMSYN082AAXX  21124 82198 22494 60506 10291 20241 30053 40104 85260 333 20237 59005 60064;
0182821980999992009032118004-01717-045400FM-12+004499999V0200701N004110450019N0010001N1+02951+02431100701ADDAA106000391AY151061AY221061GF106991031021004501041001MA1999999100191MD1999999-0071MW1021REMSYN082AAXX  21184 82198 21494 60708 10295 20243 30019 40070 70252 83240 333 59007 69931;
0201821980999992009032212004-01717-045400FM-12+004499999V0203601N005110450019N0010001N1+02721+02451101061ADDAA124002091AY161061AY221061GF107991041061004501031001KA1240N+02341MA1999999100551MD1999999+0021MW1021REMSYN088AAXX  22124 82198 21494 73610 10272 20245 30055 40106 70262 84630 333 20234 58002 60024;
0182821980999992009032218004-01717-045400FM-12+004499999V0200201N002110042019N0010001N1+02621+02481100711ADDAA106009991AY161061AY221061GF108991051051004501021999MA1999999100191MD1999999+0001MW1151REMSYN082AAXX  22184 82198 21494 80204 10262 20248 30019 40071 71562 8552/ 333 58000 60101;
0187821980999992009032300004-01717-045400FM-12+004499999V0200501N002119999999N0002001N1+02561+02441100891ADDGF105991999031004501051041KA1240M+03021MA1999999100371MD1999999-0081REMSYN088AAXX  23004 82198 32492 50504 10256 20244 30037 40089 88354 333 10302 29091 55025 59008;EQDQ01+000082SCOTLC
0201821980999992009032312004-01717-045400FM-12+004499999V0200501N002610450019N0010001N1+02601+02391100971ADDAA124045091AY161061AY221061GF106991021021004501061001KA1240N+02211MA1999999100451MD1999999-0101MW1021REMSYN088AAXX  23124 82198 21494 60505 10260 20239 30045 40097 70262 82260 333 20221 59010 60454;
0201821980999992009032318004-01717-045400FM-12+004499999V0200201N004110042019N0010001N1+02821+02461100711ADDAA106000091AY151061AY221061GF108991051071004501021999MA1999999100201MD1999999+0011MW1151REMSYN082AAXX  23184 82198 21494 80208 10282 20246 30020 40071 71552 8572/ 333 58001 69921;EQDQ01  00002PRCP06
0201821980999992009032412004-01717-045400FM-12+004499999V0200501N003110450019N0010001N1+02471+02351101031ADDAA124021191AY161061AY221061GF107991041031004501011041KA1240N+02231MA1999999100521MD1999999+0071MW1171REMSYN088AAXX  24124 82198 21494 70506 10247 20235 30052 40103 71762 84314 333 20223 58007 60214;
0182821980999992009032418004-01717-045400FM-12+004499999V0203601N002110450019N0005001N1+02621+02461100731ADDAA106007191AY161061AY221061GF108991041031004501011999MA1999999100221MD1999999+0021MW1031REMSYN082AAXX  24184 82198 21493 83604 10262 20246 30022 40073 70362 8431/ 333 58002 60071;
0201821980999992009032512004-01717-045400FM-12+004499999V0209999C000012200019N0010001N1+02601+02461101041ADDAA124015091AY161061AY221061GF106991041051004501001011KA1240N+02291MA1999999100531MD1999999+0011MW1111REMSYN088AAXX  25124 82198 21494 60000 10260 20246 30053 40104 71162 84501 333 20229 58001 60154;
0182821980999992009032518004-01717-045400FM-12+004499999V0203601N001510450019N0010001N1+02611+02481100711ADDAA106004191AY161061AY221061GF107991041071004501041041MA1999999100201MD1999999-0021MW1031REMSYN082AAXX  25184 82198 21494 73603 10261 20248 30020 40071 70362 84744 333 59002 60041;
0213821980999992009032600004-01717-045400FM-12+004499999V0203601N001012200019N0002001N1+02511+02431100971ADDAA106004191AY161061AY221061GF104991021011004501061001KA1240M+03071MA1999999100461MD1999999+0031MW1011REMSYN100AAXX  26004 82198 21492 43602 10251 20243 30046 40097 70162 82160 333 10307 29094 55037 58003 60041;
0201821980999992009032612004-01717-045400FM-12+004499999V0209999C000010450019N0010001N1+02611+02531100981ADDAA124007191AY141061AY221061GF107991041071004501011061KA1240N+02331MA1999999100471MD1999999-0061MW1031REMSYN088AAXX  26124 82198 21494 70000 10261 20253 30047 40098 70342 84716 333 20233 59006 60074;
0182821980999992009032618004-01717-045400FM-12+004499999V0209999C000010042019N0005001N1+02591+02501100781ADDAA106023191AY161061AY221061GF108991061031004501021999MA1999999100271MD1999999+0071MW1031REMSYN082AAXX  26184 82198 21493 80000 10259 20250 30027 40078 70362 8632/ 333 58007 60231;
0213821980999992009032700004-01717-045400FM-12+004499999V0209999C000012200019N0002001N1+02471+02331100991ADDAA106000891AY151061AY291061GF103991021021004501061001KA1240M+02941MA1999999100481MD1999999+0021MW1011REMSYN100AAXX  27004 82198 21492 30000 10247 20233 30048 40099 70159 82260 333 10294 29096 55006 58002 69971;
0201821980999992009032712004-01717-045400FM-12+004499999V0201401N001510450019N0005001N1+02621+02521101151ADDAA124023191AY141061AY221061GF107991041071004501011061KA1240N+02251MA1999999100641MD1999999+0171MW1031REMSYN088AAXX  27124 82198 21493 71403 10262 20252 30064 40115 70342 84716 333 20225 58017 60234;
0182821980999992009032718004-01717-045400FM-12+004499999V0200901N002110450019N0010001N1+02541+02451100821ADDAA106007191AY161061AY221061GF107991041071004501041061MA1999999100311MD1999999+0041MW1171REMSYN082AAXX  27184 82198 21494 70904 10254 20245 30031 40082 71762 84746 333 58004 60071;
0196821980999992009032800004-01717-045400FM-12+004499999V0202901N001010450019N0002001N1+02551+02461101051ADDAY121061AY221061GF106991041071004501061001KA1240M+03051MA1999999100541MD1999999+0061MW1131REMSYN094AAXX  28004 82198 31492 62902 10255 20246 30054 40105 71322 84760 333 10305 29093 55031 58006;
0201821980999992009032812004-01717-045400FM-12+004499999V0209999C000010042019N0005001N1+02441+02391101211ADDAA124019191AY161061AY241061GF108991061031004501021999KA1240N+02251MA1999999100691MD1999999+0051MW1031REMSYN088AAXX  28124 82198 21493 80000 10244 20239 30069 40121 70364 8632/ 333 20225 58005 60194;
0198821980999992009032818004-01717-045400FM-12+004499999V0203601N001510003019N0005001N1+02571+02481101011ADDAA106001091AY161061AY221061GA1091+999999999GF109991091999999999999999MA1999999100491MD1999999+0181MW1021REMSYN082AAXX  28184 82198 21493 93603 10257 20248 30049 40101 70262 84724 333 58018 60011;
0201821980999992009032912004-01717-045400FM-12+004499999V0201401N001510450019N0010001N1+02691+02331101001ADDAA124001091AY141061AY221061GF106991041021004501041061KA1240N+02291MA1999999100481MD1999999-0211MW1011REMSYN088AAXX  29124 82198 21494 61403 10269 20233 30048 40100 70142 84246 333 20229 59021 60014;
0137821980999992009032918004-01717-045400FM-12+004499999V0203601N004110450019N0010001N1+03091+02221100841ADDGF106991031021004501031061MA1999999100231MD1999999-0261REMSYN070AAXX  29184 82198 32494 63608 10309 20222 30023 40084 83236 333 59026;
0196821980999992009033000004-01717-045400FM-12+004499999V0200501N001512200019N0002001N1+02601+02421100981ADDAY121061AY201061GF102991021011004501001001KA1240M+03131MA1999999100461MD1999999-0201MW1131REMSYN094AAXX  30004 82198 31492 20503 10260 20242 30046 40098 71320 82100 333 10313 29082 55086 59020;
0156821980999992009033012004-01717-045400FM-12+004499999V0200501N002112200019N0010001N1+02901+02621101121ADDGF105991031021004501001061KA1240N+02291MA1999999100611MD1999999+0131REMSYN076AAXX  30124 82198 32494 50504 10290 20262 30061 40112 83206 333 20229 58013;
0201821980999992009033018004-01717-045400FM-12+004499999V0203601N005110450019N0010001N1+03071+02371100681ADDAA106000091AY151061AY221061GF106991031021004501061061MA1999999100171MD1999999-0061MW1031REMSYN082AAXX  30184 82198 21494 63610 10307 20237 30017 40068 70352 83266 333 59006 69911;EQDQ01  00002PRCP06
0196821980999992009033100004-01717-045400FM-12+004499999V0203601N002612200019N0002001N1+02681+02451100911ADDAY121061AY211061GF103991021011004501061001KA1240M+03221MA1999999100401MD1999999-0061MW1131REMSYN094AAXX  31004 82198 31492 33605 10268 20245 30040 40091 71321 82160 333 10322 29082 55074 59006;
0201821980999992009033112004-01717-045400FM-12+004499999V0200501N000510042019N0010001N1+02421+02351101231ADDAA124071991AY161061AY221061GF108991051051004501021999KA1240N+02251MA1999999100711MD1999999+0101MW1211REMSYN088AAXX  31124 82198 21494 80501 10242 20235 30071 40123 72162 8552/ 333 20225 58010 60724;
0182821980999992009033118004-01717-045400FM-12+004499999V0200201N002110450019N0010001N1+02711+02301100931ADDAA106000021AY151061AY221061GF107991031031004501041001MA1999999100421MD1999999+0251MW1021REMSYN082AAXX  31184 82198 21494 70204 10271 20230 30042 40093 70252 83340 333 58025 69921;
0168821980999992009040100004-01717-045400FM-12+004499999V0202901N001510450019N0002001N1+02571+02291101171ADDGF107991031051004501041001KA1240M+02801MA1999999100661MD1999999+0261REMSYN088AAXX  01004 82198 32492 72903 10257 20229 30066 40117 83540 333 10280 29086 55000 58026;
0201821980999992009040112004-01717-045400FM-12+004499999V0200901N002110090019N0010001N1+02621+02421101151ADDAA124000391AY151061AY221061GF108991061081004501041001KA1240N+02261MA1999999100641MD1999999+0071MW1021REMSYN088AAXX  01124 82198 21494 80904 10262 20242 30064 40115 70252 86840 333 20226 58007 69934;
0137821980999992009040118004-01717-045400FM-12+004499999V0200201N002110450019N0010001N1+02881+02281100841ADDGF107991031021004501061001MA1999999100331MD1999999-0091REMSYN070AAXX  01184 82198 32494 70204 10288 20228 30033 40084 83260 333 59009;
0168821980999992009040200004-01717-045400FM-12+004499999V0200701N001510450019N0002001N1+02601+02391101041ADDGF106991021021004501061001KA1240M+03021MA1999999100531MD1999999-0131REMSYN088AAXX  02004 82198 32492 60703 10260 20239 30053 40104 82260 333 10302 29084 55009 59013;
0201821980999992009040212004-01717-045400FM-12+004499999V0200901N002110450019N0010001N1+02891+02391101191ADDAA124009991AY161061AY251061GF107991031021004501061001KA1240N+02311MA1999999100681MD1999999+0041MW1021REMSYN088AAXX  02124 82198 21494 70904 10289 20239 30068 40119 70265 83260 333 20231 58004 60104;
0201821980999992009040218004-01717-045400FM-12+004499999V0203201N003110450019N0010001N1+02851+02351100811ADDAA106000091AY191061AY251061GF107991041031004501021001MA1999999100801MD1999999-0031MW1021REMSYN082AAXX  02184 82198 21494 73206 10285 20235 30080 40081 70295 84320 333 59003 69911;EQDQ01  00002PRCP06
0213821980999992009040300004-01717-045400FM-12+004499999V0200501N000510042019N0002001N1+02501+02401101071ADDAA106000591AY151061AY221061GF108991051051004501021999KA1240M+03131MA1999999100561MD1999999+0031MW1531REMSYN100AAXX  03004 82198 21492 80501 10250 20240 30056 40107 75352 8552/ 333 10313 29084 55038 58003 69951;
0201821980999992009040312004-01717-045400FM-12+004499999V0203201N002110450019N0010001N1+02721+02471101161ADDAA124000891AY151061AY221061GF106991031021004501041021KA1240N+02251MA1999999100641MD1999999-0041MW1021REMSYN088AAXX  03124 82198 21494 63204 10272 20247 30064 40116 70252 83242 333 20225 59004 69974;
0182821980999992009040318004-01717-045400FM-12+004499999V0202301N002110042019N0010001N1+02591+02401100831ADDAA106006191AY161061AY221061GF107991051051004501041001MA1999999100311MD1999999+0011MW1021REMSYN082AAXX  03184 82198 21494 72304 10259 20240 30031 40083 70262 85540 333 58001 60061;
0201821980999992009040412004-01717-045400FM-12+004499999V0202901N001010450019N0010001N1+02511+02431101251ADDAA124054191AY161061AY221061GF107991041031004501041001KA1240N+02171MA1999999100731MD1999999-0091MW1611REMSYN088AAXX  04124 82198 21494 72902 10251 20243 30073 40125 76162 84340 333 20217 59009 60544;
0182821980999992009040418004-01717-045400FM-12+004499999V0203501N002110042019N0010001N1+02401+02351100991ADDAA106010991AY161061AY221061GF108991051051004501021999MA1999999100471MD1999999+0161MW1631REMSYN082AAXX  04184 82198 21494 83504 10240 20235 30047 40099 76362 8552/ 333 58016 60111;
0213821980999992009040500004-01717-045400FM-12+004499999V0203201N001510450019N0002001N1+02391+02331101261ADDAA106000891AY151061AY221061GF107991031051004501071001KA1240M+02961MA1999999100741MD1999999+0231MW1021REMSYN100AAXX  05004 82198 21492 73203 10239 20233 30074 40126 70252 83570 333 10296 29097 55014 58023 69981;
0201821980999992009040512004-01717-045400FM-12+004499999V0201401N002110450019N0010001N1+02501+02401101301ADDAA124051191AY161061AY221061GF106991041021004501061001KA1240N+02181MA1999999100781MD1999999+0051MW1021REMSYN088AAXX  05124 82198 21494 61404 10250 20240 30078 40130 70262 84260 333 20218 58005 60514;
0137821980999992009040518004-01717-045400FM-12+004499999V0200501N001510450019N0010001N1+02811+02461100951ADDGF107991041031004501041001MA1999999100441MD1999999-0031REMSYN070AAXX  05184 82198 32494 70503 10281 20246 30044 40095 84340 333 59003;
0168821980999992009040600004-01717-045400FM-12+004499999V0200201N001010450019N0002001N1+02531+02431101121ADDGF106991031081004501041001KA1240M+03071MA1999999100691MD1999999-0051REMSYN088AAXX  06004 82198 32492 60202 10253 20243 30069 40112 83840 333 10307 29092 55024 59005;
0156821980999992009040612004-01717-045400FM-12+004499999V0200501N004610450019N0010001N1+02891+02541101311ADDGF106991041021004501061001KA1240N+02301MA1999999100801MD1999999+0021REMSYN076AAXX  06124 82198 32494 60509 10289 20254 30080 40131 84260 333 20230 58002;
0182821980999992009040618004-01717-045400FM-12+004499999V0200501N003610042019N0010001N1+02601+02441101031ADDAA106002091AY191061AY261061GF108991051051004501021001MA1999999100511MD1999999+0071MW1631REMSYN082AAXX  06184 82198 21494 80507 10260 20244 30051 40103 76396 85520 333 58007 60021;
0213821980999992009040700004-01717-045400FM-12+004499999V0200901N001510450019N0002001N1+02561+02381101181ADDAA106001091AY161061AY221061GF105991021011004501041001KA1240M+03061MA1999999100661MD1999999-0031MW1021REMSYN100AAXX  07004 82198 21492 50903 10256 20238 30066 40118 70262 82140 333 10306 29088 55060 59003 60011;
0173821980999992009040712004-01717-045400FM-12+004499999V0200501N003110450019N0010001N1+02901+02481101251ADDAA124003091GF105991041021004501061001KA1240N+02371MA1999999100741MD1999999-0061REMSYN082AAXX  07124 82198 22494 50506 10290 20248 30074 40125 84260 333 20237 59006 60034;
0137821980999992009040718004-01717-045400FM-12+004499999V0203601N004610042019N0010001N1+02981+02321100971ADDGF105991051021004501001001MA1999999100451MD1999999-0061REMSYN070AAXX  07184 82198 32494 53609 10298 20232 30045 40097 85200 333 59006;
0168821980999992009040800004-01717-045400FM-12+004499999V0200501N002612200019N0002001N1+02631+02371101111ADDGF105991021011004501001061KA1240M+03081MA1999999100601MD1999999-0061REMSYN088AAXX  08004 82198 32492 50505 10263 20237 30060 40111 82106 333 10308 29081 55092 59006;
0184821980999992009040812004-01717-045400FM-12+004499999V0200501N002610042019N0010001N1+02931+02461101211ADDAY111061AY221061GF105991051021004501001001KA1240N+02451MA1999999100701MD1999999-0041MW1051REMSYN082AAXX  08124 82198 31494 50505 10293 20246 30070 40121 70512 85200 333 20245 59004;
0182821980999992009040818004-01717-045400FM-12+004499999V0203601N005710450019N0005001N1+02851+02291100931ADDAA106002091AY191061AY261061GF107991041031004501061011MA1999999100411MD1999999-0041MW1171REMSYN082AAXX  08184 82198 21493 73611 10285 20229 30041 40093 71796 84361 333 59004 60021;
0213821980999992009040900004-01717-045400FM-12+004499999V0200501N001510450019N0002001N1+02621+02481101151ADDAA106000591AY161061AY221061GF106991031021004501061011KA1240M+03161MA1999999100641MD1999999+0041MW1021REMSYN100AAXX  09004 82198 21492 60503 10262 20248 30064 40115 70262 83261 333 10316 29084 55063 58004 69951;
0201821980999992009040912004-01717-045400FM-12+004499999V0203601N002110450019N0010001N1+02801+02461101231ADDAA124003091AY161061AY221061GF107991041071004501061001KA1240N+02331MA1999999100721MD1999999+0021MW1281REMSYN088AAXX  09124 82198 21494 73604 10280 20246 30072 40123 72862 84760 333 20233 58002 60034;
0182821980999992009040918004-01717-045400FM-12+004499999V0203601N001510450019N0005001N1+02481+02391100981ADDAA106000591AY191061AY261061GF108991041031004501061999MA1999999100461MD1999999+0051MW1171REMSYN082AAXX  09184 82198 21493 83603 10248 20239 30046 40098 71796 8436/ 333 58005 69951;
0213821980999992009041000004-01717-045400FM-12+004499999V0200501N001510042019N0002001N1+02391+02371101281ADDAA106005191AY161061AY221061GF108991061031004501021999KA1240M+03031MA1999999100761MD1999999+0121MW1621REMSYN100AAXX  10004 82198 21492 80503 10239 20237 30076 40128 76262 8632/ 333 10303 29093 55010 58012 60051;
0201821980999992009041012004-01717-045400FM-12+004499999V0203601N004610450019N0010001N1+02481+02431101421ADDAA124050091AY161061AY221061GF108991041031004501011999KA1240N+02331MA1999999100901MD1999999+0181MW1021REMSYN088AAXX  10124 82198 21494 83609 10248 20243 30090 40142 70262 8431/ 333 20233 58018 60504;
0182821980999992009041018004-01717-045400FM-12+004499999V0203601N004110450019N0010001N1+02671+02251101071ADDAA106001091AY161061AY221061GF108991041031004501061011MA1999999100551MD1999999+0091MW1021REMSYN082AAXX  10184 82198 21494 83608 10267 20225 30055 40107 70262 84361 333 58009 60011;
0213821980999992009041100004-01717-045400FM-12+004499999V0203601N002610042019N0002001N1+02411+02351101261ADDAA106004191AY121061AY221061GF108991051031004501021999KA1240M+02711MA1999999100741MD1999999-0021MW1631REMSYN100AAXX  11004 82198 21492 83605 10241 20235 30074 40126 76322 8532/ 333 10271 29093 55000 59002 60041;
0201821980999992009041112004-01717-045400FM-12+004499999V0203201N002110450019N0002001N1+02471+02331101231ADDAA124095091AY191061AY261061GF108991041051004501021999KA1240N+02251MA1999999100711MD1999999-0191MW1021REMSYN088AAXX  11124 82198 21492 83204 10247 20233 30071 40123 70296 8452/ 333 20225 59019 60954;
0182821980999992009041118004-01717-045400FM-12+004499999V0203201N001010042019N0005001N1+02571+02421100971ADDAA106015091AY191061AY261061GF108991051031004501061999MA1999999100451MD1999999-0101MW1211REMSYN082AAXX  11184 82198 21493 83202 10257 20242 30045 40097 72196 8536/ 333 59010 60151;
0213821980999992009041200004-01717-045400FM-12+004499999V0203201N001010450019N0002001N1+02331+02231101171ADDAA106002091AY161061AY221061GF108991041051004501061999KA1240M+02841MA1999999100651MD1999999-0091MW1021REMSYN100AAXX  12004 82198 21492 83202 10233 20223 30065 40117 70262 8456/ 333 10284 29094 55006 59009 60021;
0201821980999992009041212004-01717-045400FM-12+004499999V0203201N003110450019N0005001N1+02391+02371101351ADDAA124075991AY161061AY241061GF108991041051004501021999KA1240N+02191MA1999999100831MD1999999+0121MW1021REMSYN088AAXX  12124 82198 21493 83206 10239 20237 30083 40135 70264 8452/ 333 20219 58012 60764;
0137821980999992009041218004-01717-045400FM-12+004499999V0203601N005110450019N0010001N1+02781+02321101081ADDGF107991041071004501061011MA1999999100561MD1999999+0111REMSYN070AAXX  12184 82198 32494 73610 10278 20232 30056 40108 84761 333 58011;
0184821980999992009041300004-01717-045400FM-12+004499999V0203201N001510003019N0002001N1+02481+02341101361ADDGA1091+999999999GF109991091999999999999999KA1240M+02871MA1999999100841MD1999999+0191REMSYN088AAXX  13004 82198 32/92 93203 10248 20234 30084 40136 8//// 333 10287 29090 55008 58019;
0201821980999992009041312004-01717-045400FM-12+004499999V0201401N001510450019N0010001N1+02511+02311101391ADDAA124000591AY161061AY221061GF107991041031004501061011KA1240N+02231MA1999999100871MD1999999+0041MW1011REMSYN088AAXX  13124 82198 21494 71403 10251 20231 30087 40139 70162 84361 333 20223 58004 69954;
0137821980999992009041318004-01717-045400FM-12+004499999V0201401N001010450019N0020001N1+02881+02321101021ADDGF106991031011004501011061MA1999999100501MD1999999-0061REMSYN070AAXX  13184 82198 32495 61402 10288 20232 30050 40102 83116 333 59006;
0156821980999992009041412004-01717-045400FM-12+004499999V0200201N003110450019N0010001N1+02851+02561101421ADDGF105991041021004501061001KA1240N+02261MA1999999100911MD1999999+0041REMSYN076AAXX  14124 82198 32494 50206 10285 20256 30091 40142 84260 333 20226 58004;
0137821980999992009041418004-01717-045400FM-12+004499999V0200201N004610042019N0010001N1+02781+02381101141ADDGF107991051051004501041001MA1999999100631MD1999999+0131REMSYN070AAXX  14184 82198 32494 70209 10278 20238 30063 40114 85540 333 58013;
0213821980999992009041500004-01717-045400FM-12+004499999V0200701N002610450019N0002001N1+02471+02341101291ADDAA106000591AY151061AY221061GF106991031051004501061001KA1240M+03101MA1999999100771MD1999999+0051MW1021REMSYN100AAXX  15004 82198 21492 60705 10247 20234 30077 40129 70252 83560 333 10310 29087 55051 58005 69941;
0201821980999992009041512004-01717-045400FM-12+004499999V0200701N002110450019N0010001N1+02811+02461101431ADDAA124001091AY151061AY221061GF106991031021004501041001KA1240N+02311MA1999999100911MD1999999+0001MW1021REMSYN088AAXX  15124 82198 21494 60704 10281 20246 30091 40143 70252 83240 333 20231 58000 60014;
0165821980999992009041518004-01717-045400FM-12+004499999V0201401N004610042019N0010001N1+02761+02421101091ADDAY121061AY221061GF107991051051004501041001MA1999999100571MD1999999-0061MW1171REMSYN076AAXX  15184 82198 31494 71409 10276 20242 30057 40109 71722 85540 333 59006;
0213821980999992009041600004-01717-045400FM-12+004499999V0203501N000510450019N0002001N1+02521+02451101311ADDAA106017091AY161061AY221061GF107991031051004501041001KA1240M+03131MA1999999100791MD1999999+0021MW1021REMSYN100AAXX  16004 82198 21492 73501 10252 20245 30079 40131 70262 83540 333 10313 29089 55049 58002 60171;
0201821980999992009041612004-01717-045400FM-12+004499999V0200901N003110450019N0005001N1+02451+02391101501ADDAA124021191AY161061AY251061GF108991041051004501021999KA1240N+02241MA1999999100981MD1999999+0071MW1161REMSYN088AAXX  16124 82198 21493 80906 10245 20239 30098 40150 71665 8452/ 333 20224 58007 60214;
0182821980999992009041618004-01717-045400FM-12+004499999V0200701N004110450019N0010001N1+02761+02481101091ADDAA106001091AY161061AY221061GF106991041021004501061001MA1999999100571MD1999999+0001MW1021REMSYN082AAXX  16184 82198 21494 60708 10276 20248 30057 40109 70262 84260 333 58000 60011;
0213821980999992009041700004-01717-045400FM-12+004499999V0200501N002112200019N0002001N1+02541+02451101291ADDAA106002091AY161061AY221061GF103991031001012501061001KA1240M+03081MA1999999100771MD1999999-0021MW1021REMSYN100AAXX  17004 82198 21692 30504 10254 20245 30077 40129 70262 83060 333 10308 29093 55030 59002 60021;
0201821980999992009041712004-01717-045400FM-12+004499999V0200701N002110450019N0010001N1+02561+02421101341ADDAA124015091AY161061AY221061GF107991031011004501061001KA1240N+02281MA1999999100821MD1999999-0161MW1211REMSYN088AAXX  17124 82198 21494 70704 10256 20242 30082 40134 72162 83160 333 20228 59016 60154;
0201821980999992009041812004-01717-045400FM-12+004499999V0200701N003610450019N0010001N1+02721+02521101301ADDAA124005191AY151061AY221061GF107991041051004501061001KA1240N+02311MA1999999100781MD1999999-0041MW1151REMSYN088AAXX  18124 82198 21494 70707 10272 20252 30078 40130 71552 84560 333 20231 59004 60054;
0182821980999992009041818004-01717-045400FM-12+004499999V0200201N001510450019N0010001N1+02691+02431100951ADDAA106005191AY161061AY221061GF107991041031004501041001MA1999999100431MD1999999-0101MW1021REMSYN082AAXX  18184 82198 21494 70203 10269 20243 30043 40095 70262 84340 333 59010 60051;
0213821980999992009041900004-01717-045400FM-12+004499999V0200701N002110450019N0002001N1+02461+02411101151ADDAA106004191AY161061AY221061GF108991031051004501021999KA1240M+02891MA1999999100631MD1999999-0151MW1021REMSYN100AAXX  19004 82198 21492 80704 10246 20241 30063 40115 70262 8352/ 333 10289 29092 55008 59015 60041;
0201821980999992009041912004-01717-045400FM-12+004499999V0203601N001010450019N0010001N1+02541+02451101361ADDAA124016091AY161061AY251061GF108991041071004501021999KA1240N+02221MA1999999100841MD1999999+0061MW1631REMSYN088AAXX  19124 82198 21494 83602 10254 20245 30084 40136 76365 8472/ 333 20222 58006 60164;
0182821980999992009041918004-01717-045400FM-12+004499999V0200201N002110450019N0010001N1+02561+02381101081ADDAA106013091AY161061AY221061GF108991031031004501041001MA1999999100561MD1999999+0131MW1531REMSYN082AAXX  19184 82198 21494 80204 10256 20238 30056 40108 75362 83340 333 58013 60131;
0168821980999992009042000004-01717-045400FM-12+004499999V0200201N001510450019N0002001N1+02511+02381101261ADDGF105991031051004501041001KA1240M+02831MA1999999100741MD1999999+0111REMSYN088AAXX  20004 82198 32492 50203 10251 20238 30074 40126 83540 333 10283 29093 55000 58011;
0201821980999992009042012004-01717-045400FM-12+004499999V0200901N002610042019N0010001N1+02881+02541101391ADDAA124015091AY161061AY221061GF107991051021004501061001KA1240N+02301MA1999999100871MD1999999+0031MW1021REMSYN088AAXX  20124 82198 21494 70905 10288 20254 30087 40139 70262 85260 333 20230 58003 60154;
0182821980999992009042018004-01717-045400FM-12+004499999V0200201N002110450019N0010001N1+02781+02521101031ADDAA106003091AY161061AY221061GF108991041031004501071999MA1999999100511MD1999999-0051MW1021REMSYN082AAXX  20184 82198 21494 80204 10278 20252 30051 40103 70262 8437/ 333 59005 60031;
0213821980999992009042100004-01717-045400FM-12+004499999V0200701N001010042019N0002001N1+02581+02451101341ADDAA106007191AY161061AY221061GF107991051051004501041001KA1240M+02941MA1999999100821MD1999999+0081MW1021REMSYN100AAXX  21004 82198 21492 70702 10258 20245 30082 40134 70262 85540 333 10294 29090 55021 58008 60071;
0201821980999992009042112004-01717-045400FM-12+004499999V0202001N000510450019N0010001N1+02621+02511101391ADDAA124017091AY161061AY241061GF107991041051004501061001KA1240N+02331MA1999999100871MD1999999+0001MW1021REMSYN088AAXX  21124 82198 21494 72001 10262 20251 30087 40139 70264 84560 333 20233 58000 60174;
0137821980999992009042118004-01717-045400FM-12+004499999V0203601N005110450019N0010001N1+03001+02341101001ADDGF105991031021004501041001MA1999999100481MD1999999-0031REMSYN070AAXX  21184 82198 32494 53610 10300 20234 30048 40100 83240 333 59003;
0213821980999992009042200004-01717-045400FM-12+004499999V0203601N002110042019N0001001N1+02601+02421101231ADDAA106002091AY121061AY221061GF108991061071004501061999KA1240M+03111MA1999999100721MD1999999-0101MW1621REMSYN100AAXX  22004 82198 21491 83604 10260 20242 30072 40123 76222 8676/ 333 10311 29086 55072 59010 60021;
0201821980999992009042212004-01717-045400FM-12+004499999V0201601N001010042019N0005001N1+02461+02411101371ADDAA124063091AY161061AY221061GF108991061071004501061999KA1240N+02231MA1999999100851MD1999999-0021MW1021REMSYN088AAXX  22124 82198 21493 81602 10246 20241 30085 40137 70262 8676/ 333 20223 59002 60634;
0182821980999992009042218004-01717-045400FM-12+004499999V0200501N002610042019N0010001N1+02501+02411101021ADDAA106002091AY161061AY221061GF108991051051004501011999MA1999999100501MD1999999+0021MW1021REMSYN082AAXX  22184 82198 21494 80505 10250 20241 30050 40102 70262 8551/ 333 58002 60021;
0173821980999992009042312004-01717-045400FM-12+004499999V0203201N001010450019N0010001N1+02591+02441101201ADDAA124002091GF107991041051004501031041KA1240N+02261MA1999999100681MD1999999-0171REMSYN082AAXX  23124 82198 22494 73202 10259 20244 30068 40120 84534 333 20226 59017 60024;
0165821980999992009042318004-01717-045400FM-12+004499999V0203501N004110042019N0005001N1+02571+02441100911ADDAY191061AY251061GF108991051031004501021999MA1999999100391MD1999999-0111MW1151REMSYN076AAXX  23184 82198 31493 83508 10257 20244 30039 40091 71595 8532/ 333 59011;
0213821980999992009042400004-01717-045400FM-12+004499999V0203501N001010042019N0002001N1+02461+02411101121ADDAA106004191AY161061AY221061GF108991061071004501061999KA1240M+03031MA1999999100611MD1999999-0101MW1021REMSYN100AAXX  24004 82198 21492 83502 10246 20241 30061 40112 70262 8676/ 333 10303 29094 55024 59010 60041;
0173821980999992009042412004-01717-045400FM-12+004499999V0203201N002110450019N0010001N1+02561+02401101291ADDAA124004191GF106991031051004501031011KA1240N+02261MA1999999100771MD1999999+0091REMSYN082AAXX  24124 82198 22494 63204 10256 20240 30077 40129 83531 333 20226 58009 60044;
0137821980999992009042418004-01717-045400FM-12+004499999V0203601N005710450019N0010001N1+02911+02271100961ADDGF106991031071004501061011MA1999999100441MD1999999+0051REMSYN070AAXX  24184 82198 32494 63611 10291 20227 30044 40096 83761 333 58005;
0168821980999992009042500004-01717-045400FM-12+004499999V0201801N002110450019N0002001N1+02541+02381101171ADDGF105991041011004501061001KA1240M+03001MA1999999100661MD1999999+0051REMSYN088AAXX  25004 82198 32492 51804 10254 20238 30066 40117 84160 333 10300 29086 55031 58005;
0156821980999992009042512004-01717-045400FM-12+004499999V0203201N001010450019N0010001N1+02631+02441101321ADDGF107991031061004501031011KA1240N+02251MA1999999100801MD1999999+0031REMSYN076AAXX  25124 82198 32494 73202 10263 20244 30080 40132 83631 333 20225 58003;
0165821980999992009042518004-01717-045400FM-12+004499999V0203601N002110450019N0010001N1+02791+02421101021ADDAY161061AY221061GF107991031051004501011011MA1999999100501MD1999999+0061MW1151REMSYN076AAXX  25184 82198 31494 73604 10279 20242 30050 40102 71562 83511 333 58006;
0173821980999992009042612004-01717-045400FM-12+004499999V0202301N000510450019N0010001N1+02621+02411101301ADDAA124003091GF107991041021004501061041KA1240N+02291MA1999999100781MD1999999-0021REMSYN082AAXX  26124 82198 22494 72301 10262 20241 30078 40130 84264 333 20229 59002 60034;
0137821980999992009042618004-01717-045400FM-12+004499999V0203601N003610450019N0010001N1+02881+02481100991ADDGF106991031021004501041061MA1999999100471MD1999999-0031REMSYN070AAXX  26184 82198 32494 63607 10288 20248 30047 40099 83246 333 59003;
0213821980999992009042700004-01717-045400FM-12+004499999V0200501N001510450019N0002001N1+02531+02451101241ADDAA106011991AY111061AY221061GF106991031071004501021001KA1240M+03191MA1999999100721MD1999999-0011MW1621REMSYN100AAXX  27004 82198 21492 60503 10253 20245 30072 40124 76212 83720 333 10319 29090 55065 59001 60121;
0201821980999992009042712004-01717-045400FM-12+004499999V0203201N001010042019N0005001N1+02451+02281101271ADDAA124015091AY161061AY221061GF108991061031004501011999KA1240N+02331MA1999999100751MD1999999-0031MW1031REMSYN088AAXX  27124 82198 21493 83202 10245 20228 30075 40127 70362 8631/ 333 20233 59003 60154;
0182821980999992009042718004-01717-045400FM-12+004499999V0202901N001010042019N0005001N1+02441+02411101021ADDAA106011991AY161061AY221061GF108991061031004501021999MA1999999100501MD1999999+0031MW1021REMSYN082AAXX  27184 82198 21493 82902 10244 20241 30050 40102 70262 8632/ 333 58003 60121;
0201821980999992009042812004-01717-045400FM-12+004499999V0202301N001010042019N0005001N1+02391+02351101341ADDAA124027991AY161061AY251061GF108991051051004501021999KA1240N+02271MA1999999100821MD1999999+0071MW1531REMSYN088AAXX  28124 82198 21493 82302 10239 20235 30082 40134 75365 8552/ 333 20227 58007 60284;
0182821980999992009042818004-01717-045400FM-12+004499999V0203201N002610450019N0010001N1+02861+02441100961ADDAA106003091AY161061AY221061GF106991041021004501041001MA1999999100451MD1999999-0051MW1021REMSYN082AAXX  28184 82198 21494 63205 10286 20244 30045 40096 70262 84240 333 59005 60031;
0168821980999992009042900004-01717-045400FM-12+004499999V0200201N001512200019N0002001N1+02451+02361101151ADDGF103991031001012501061001KA1240M+02961MA1999999100631MD1999999-0111REMSYN088AAXX  29004 82198 32692 30203 10245 20236 30063 40115 83060 333 10296 29091 55031 59011;
0173821980999992009042912004-01717-045400FM-12+004499999V0200901N000510450019N0010001N1+02661+02541101291ADDAA124003091GF107991041031004501061001KA1240N+02281MA1999999100771MD1999999-0051REMSYN082AAXX  29124 82198 22494 70901 10266 20254 30077 40129 84360 333 20228 59005 60034;
0182821980999992009042918004-01717-045400FM-12+004499999V0203601N004110042019N0010001N1+02861+02421100891ADDAA106001091AY161061AY221061GF108991051071004501021999MA1999999100371MD1999999-0081MW1151REMSYN082AAXX  29184 82198 21494 83608 10286 20242 30037 40089 71562 8572/ 333 59008 60011;
0213821980999992009043000004-01717-045400FM-12+004499999V0203601N002610450019N0002001N1+02561+02441101151ADDAA106004191AY161061AY221061GF107991031051004501041001KA1240M+03051MA1999999100631MD1999999+0001MW1021REMSYN100AAXX  30004 82198 21492 73605 10256 20244 30063 40115 70262 83540 333 10305 29089 55024 58000 60041;
0201821980999992009043012004-01717-045400FM-12+004499999V0200501N002110450019N0010001N1+02411+02351101401ADDAA124174091AY161061AY251061GF108991031051004501021999KA1240N+02221MA1999999100881MD1999999+0111MW1631REMSYN088AAXX  30124 82198 21494 80504 10241 20235 30088 40140 76365 8352/ 333 20222 58011 61744;
0182821980999992009043018004-01717-045400FM-12+004499999V0200901N001010042019N0010001N1+02561+02441101071ADDAA106007191AY161061AY221061GF108991051041004501011999MA1999999100551MD1999999+0181MW1021REMSYN082AAXX  30184 82198 21494 80902 10256 20244 30055 40107 70262 8541/ 333 58018 60071;
0213821980999992009050100004-01717-045400FM-12+004499999V0200701N001010042019N0002001N1+02431+02391101231ADDAA106002091AY161061AY251061GF108991051051004501021999KA1240M+02811MA1999999100711MD1999999+0081MW1531REMSYN100AAXX  01004 82198 21492 80702 10243 20239 30071 40123 75365 8552/ 333 10281 29096 55000 58008 60021;
0201821980999992009050112004-01717-045400FM-12+004499999V0200901N001010090019N0010001N1+02641+02481101261ADDAA124009991AY161061AY221061GF108991051081004501041001KA1240N+02261MA1999999100741MD1999999-0141MW1021REMSYN088AAXX  01124 82198 21494 80902 10264 20248 30074 40126 70262 85840 333 20226 59014 60104;
0182821980999992009050118004-01717-045400FM-12+004499999V0203501N000510450019N0010001N1+02581+02511101001ADDAA106006191AY161061AY221061GF108991041051004501071999MA1999999100481MD1999999-0071MW1631REMSYN082AAXX  01184 82198 21494 83501 10258 20251 30048 40100 76362 8457/ 333 59007 60061;
0213821980999992009050200004-01717-045400FM-12+004499999V0203601N001010450019N0002001N1+02461+02411101121ADDAA106007991AY161061AY251061GF108991031051004501021999KA1240M+02991MA1999999100601MD1999999-0111MW1531REMSYN100AAXX  02004 82198 21492 83602 10246 20241 30060 40112 75365 8352/ 333 10299 29095 55005 59011 60081;
0201821980999992009050212004-01717-045400FM-12+004499999V0200501N000510042019N0010001N1+02441+02371101331ADDAA124144091AY161061AY221061GF108991051051004501021999KA1240N+02191MA1999999100811MD1999999+0071MW1621REMSYN088AAXX  02124 82198 21494 80501 10244 20237 30081 40133 76262 8552/ 333 20219 58007 61444;
0182821980999992009050218004-01717-045400FM-12+004499999V0203501N002110450019N0010001N1+02521+02451101001ADDAA106010991AY161061AY221061GF108991041031004501041999MA1999999100481MD1999999+0001MW1211REMSYN082AAXX  02184 82198 21494 83504 10252 20245 30048 40100 72162 8434/ 333 58000 60111;
0213821980999992009050300004-01717-045400FM-12+004499999V0202301N003110042019N0002001N1+02291+02241101411ADDAA106082091AY161061AY221061GF108991061051004501021999KA1240M+02781MA1999999100891MD1999999+0391MW1631REMSYN100AAXX  03004 82198 21492 82306 10229 20224 30089 40141 76362 8652/ 333 10278 29097 55000 58039 60821;
0201821980999992009050312004-01717-045400FM-12+004499999V0201801N002110450019N0010001N1+02341+02271101401ADDAA124117191AY161061AY251061GF108991031031004501081999KA1240N+02061MA1999999100881MD1999999+0071MW1021REMSYN088AAXX  03124 82198 21494 81804 10234 20227 30088 40140 70265 8338/ 333 20206 58007 61174;
0137821980999992009050318004-01717-045400FM-12+004499999V0200501N001010450019N0010001N1+02661+02391101061ADDGF108991021031004501011001MA1999999100541MD1999999+0061REMSYN070AAXX  03184 82198 32494 80502 10266 20239 30054 40106 82310 333 58006;
0168821980999992009050400004-01717-045400FM-12+004499999V0203601N001510450019N0002001N1+02441+02321101241ADDGF106991031021004501041001KA1240M+02811MA1999999100721MD1999999-0171REMSYN088AAXX  04004 82198 32492 63603 10244 20232 30072 40124 83240 333 10281 29092 55000 59017;
0156821980999992009050412004-01717-045400FM-12+004499999V0200901N000510450019N0010001N1+02661+02351101321ADDGF107991031021004501061001KA1240N+02231MA1999999100801MD1999999-0081REMSYN076AAXX  04124 82198 32494 70901 10266 20235 30080 40132 83260 333 20223 59008;
0201821980999992009050418004-01717-045400FM-12+004499999V0203501N004110450019N0010001N1+02751+02361101001ADDAA106000091AY151061AY221061GF106991041021004501041001MA1999999100481MD1999999-0061MW1021REMSYN082AAXX  04184 82198 21494 63508 10275 20236 30048 40100 70252 84240 333 59006 69921;EQDQ01  00002PRCP06
0168821980999992009050500004-01717-045400FM-12+004499999V0202501N001010450019N0002001N1+02501+02341101251ADDGF108991031031004501081001KA1240M+03121MA1999999100731MD1999999+0011REMSYN088AAXX  05004 82198 32492 82502 10250 20234 30073 40125 83380 333 10312 29086 55037 58001;
0220821980999992009050512004-01717-045400FM-12+004499999V0203601N002110450019N0010001N1+02601+02351101401ADDAA124000091AY191061AY221061GF106991031011004501031041KA1240N+02241MA1999999100881MD1999999+0081MW1031REMSYN088AAXX  05124 82198 21494 63604 10260 20235 30088 40140 70392 83134 333 20224 58008 69924;EQDQ01  00002PRCP24
0182821980999992009050518004-01717-045400FM-12+004499999V0201101N003110450019N0005001N1+02601+02311101141ADDAA106000891AY191061AY261061GF108991041051004501021999MA1999999100621MD1999999+0141MW1031REMSYN082AAXX  05184 82198 21493 81106 10260 20231 30062 40114 70396 8452/ 333 58014 69981;
0232821980999992009050600004-01717-045400FM-12+004499999V0202001N001510450019N0002001N1+02401+02301101321ADDAA106000091AY161061AY221061GF107991031051004501031011KA1240M+03051MA1999999100841MD1999999+0111MW1011REMSYN100AAXX  06004 82198 21492 72003 10240 20230 30084 40132 70162 83531 333 10305 29090 55006 58011 69921;EQDQ01  00002PRCP06
0201821980999992009050612004-01717-045400FM-12+004499999V0200701N002610450019N0010001N1+02761+02501101381ADDAA124001091AY141061AY221061GF108991041051004501061011KA1240N+02281MA1999999100861MD1999999-0021MW1011REMSYN088AAXX  06124 82198 21494 80705 10276 20250 30086 40138 70142 84561 333 20228 59002 60014;
0182821980999992009050618004-01717-045400FM-12+004499999V0203601N002110450019N0010001N1+02711+02391101041ADDAA106009991AY191061AY261061GF107991031031004501041061MA1999999100521MD1999999-0101MW1171REMSYN082AAXX  06184 82198 21494 73604 10271 20239 30052 40104 71796 83346 333 59010 60101;
0207821980999992009050712004-01717-045400FM-12+004499999V0200501N002110450019N0005001N1+02391+02371101411ADDAA124011091AY191061AY261061GF108991031071004501021999KA1240N+02201MA1999999100891MD1999999+0031MW1621REMSYN094AAXX  07124 82198 21493 80504 10239 20237 30089 40141 76296 8372/ 333 20220 58003 60114 10112;
0182821980999992009050718004-01717-045400FM-12+004499999V0200201N001510450019N0010001N1+02741+02381101011ADDAA106002091AY161061AY221061GF106991031021004501041061MA1999999100491MD1999999-0031MW1011REMSYN082AAXX  07184 82198 21494 60203 10274 20238 30049 40101 70162 83246 333 59003 60021;
0168821980999992009050800004-01717-045400FM-12+004499999V0200201N000512200019N0005001N1+02531+02381101221ADDGF103991011011004501031011KA1240M+02781MA1999999100701MD1999999-0101REMSYN088AAXX  08004 82198 32493 30201 10253 20238 30070 40122 81131 333 10278 29091 55009 59010;
0201821980999992009050812004-01717-045400FM-12+004499999V0203601N002110042019N0005001N1+02581+02361101421ADDAA124003091AY121061AY211061GF108991051051004501021999KA1240N+02231MA1999999100901MD1999999+0011MW1621REMSYN088AAXX  08124 82198 21493 83604 10258 20236 30090 40142 76221 8552/ 333 20223 58001 60034;
0182821980999992009050818004-01717-045400FM-12+004499999V0203601N003110450019N0005001N1+02691+02351101051ADDAA106000591AY161061AY221061GF108991041031004501011061MA1999999100531MD1999999+0041MW1021REMSYN082AAXX  08184 82198 21493 83606 10269 20235 30053 40105 70262 84316 333 58004 69961;
0213821980999992009050900004-01717-045400FM-12+004499999V0203201N002110042019N0002001N1+02451+02331101351ADDAA106007991AY161061AY221061GF108991061031004501011999KA1240M+03001MA1999999100831MD1999999+0131MW1611REMSYN100AAXX  09004 82198 21492 83204 10245 20233 30083 40135 76162 8631/ 333 10300 29092 55020 58013 60081;
0201821980999992009050912004-01717-045400FM-12+004499999V0200901N001010450019N0005001N1+02471+02351101331ADDAA124015091AY161061AY221061GF108991041031004501011999KA1240N+02171MA1999999100811MD1999999-0091MW1281REMSYN088AAXX  09124 82198 21493 80902 10247 20235 30081 40133 72862 8431/ 333 20217 59009 60154;
0182821980999992009050918004-01717-045400FM-12+004499999V0209999C000010450019N0005001N1+02831+02481101041ADDAA106000891AY161061AY221061GF108991031071004501031041MA1999999100521MD1999999-0011MW1021REMSYN082AAXX  09184 82198 21493 80000 10283 20248 30052 40104 70262 83734 333 59001 69971;
0168821980999992009051000004-01717-045400FM-12+004499999V0200501N001510450019N0002001N1+02491+02311101231ADDGF107991041011004501031041KA1240M+02961MA1999999100721MD1999999-0111REMSYN088AAXX  10004 82198 32492 70503 10249 20231 30072 40123 84134 333 10296 29092 55006 59011;
0173821980999992009051012004-01717-045400FM-12+004499999V0200501N002612200019N0020001N1+02831+02381101251ADDAA124000891GF102991011011004501001061KA1240N+02291MA1999999100731MD1999999-0081REMSYN082AAXX  10124 82198 22495 20505 10283 20238 30073 40125 81106 333 20229 59008 69974;
0137821980999992009051018004-01717-045400FM-12+004499999V0203601N005112200019N0020001N1+02981+02281100951ADDGF103991011021004501041011MA1999999100431MD1999999-0091REMSYN070AAXX  10184 82198 32495 33610 10298 20228 30043 40095 81241 333 59009;
0196821980999992009051100004-01717-045400FM-12+004499999V0203501N002112200019N0005001N1+02551+02421101101ADDAY121061AY201061GF103991011021004501061061KA1240M+03181MA1999999100591MD1999999-0131MW1131REMSYN094AAXX  11004 82198 31493 33504 10255 20242 30059 40110 71320 81266 333 10318 29081 55097 59013;
0184821980999992009051112004-01717-045400FM-12+004499999V0203501N002110450019N0020001N1+02751+02541101241ADDAY141061AY221061GF106991031021004501041061KA1240N+02211MA1999999100721MD1999999-0011MW1031REMSYN082AAXX  11124 82198 31495 63504 10275 20254 30072 40124 70342 83246 333 20221 59001;
0137821980999992009051118004-01717-045400FM-12+004499999V0200501N002610450019N0010001N1+02921+02431100901ADDGF107991041071004501011041MA1999999100391MD1999999-0041REMSYN070AAXX  11184 82198 32494 70505 10292 20243 30039 40090 84714 333 59004;
0213821980999992009051200004-01717-045400FM-12+004499999V0202001N001510450019N0002001N1+02541+02441101171ADDAA106000891AY161061AY221061GF108991031011004501021999KA1240M+03191MA1999999100661MD1999999+0071MW1021REMSYN100AAXX  12004 82198 21492 82003 10254 20244 30066 40117 70262 8312/ 333 10319 29087 55056 58007 69971;
0201821980999992009051212004-01717-045400FM-12+004499999V0202701N001010042019N0010001N1+02641+02481101231ADDAA124008991AY161061AY221061GF106991051021004501041001KA1240N+02181MA1999999100711MD1999999-0011MW1201REMSYN088AAXX  12124 82198 21494 62702 10264 20248 30071 40123 72062 85240 333 20218 59001 60094;
0137821980999992009051218004-01717-045400FM-12+004499999V0200201N001510450019N0010001N1+02711+02431100941ADDGF108991041051004501071001MA1999999100431MD1999999+0041REMSYN070AAXX  12184 82198 32494 80203 10271 20243 30043 40094 84570 333 58004;
0168821980999992009051300004-01717-045400FM-12+004499999V0200201N001512200019N0002001N1+02581+02441101091ADDGF103991031001004501061001KA1240M+03041MA1999999100581MD1999999-0081REMSYN088AAXX  13004 82198 32492 30203 10258 20244 30058 40109 83060 333 10304 29090 55024 59008;
0201821980999992009051312004-01717-045400FM-12+004499999V0200201N000510042019N0010001N1+02451+02371101231ADDAA124010991AY161061AY251061GF108991051051004501021999KA1240N+02261MA1999999100711MD1999999+0001MW1211REMSYN088AAXX  13124 82198 21494 80201 10245 20237 30071 40123 72165 8552/ 333 20226 58000 60114;
0182821980999992009051318004-01717-045400FM-12+004499999V0201401N001010450019N0010001N1+02621+02481100901ADDAA106008991AY161061AY221061GF108991041051004501021999MA1999999100381MD1999999-0051MW1161REMSYN082AAXX  13184 82198 21494 81402 10262 20248 30038 40090 71662 8452/ 333 59005 60091;
0213821980999992009051400004-01717-045400FM-12+004499999V0200901N000512200019N0002001N1+02441+02411101121ADDAA106039991AY161061AY221061GF103991031001012501041001KA1240M+03011MA1999999100601MD1999999+0021MW1021REMSYN100AAXX  14004 82198 21692 30901 10244 20241 30060 40112 70262 83040 333 10301 29096 55014 58002 60401;
0201821980999992009051412004-01717-045400FM-12+004499999V0203201N002110042019N0010001N1+02461+02411101251ADDAA124053191AY161061AY251061GF108991061051004501081999KA1240N+02261MA1999999100731MD1999999+0021MW1021REMSYN088AAXX  14124 82198 21494 83204 10246 20241 30073 40125 70265 8658/ 333 20226 58002 60534;
0182821980999992009051418004-01717-045400FM-12+004499999V0201501N001010042019N0010001N1+02471+02411101081ADDAA106007991AY161061AY221061GF108991061091004501021999MA1999999100561MD1999999+0181MW1631REMSYN082AAXX  14184 82198 21494 81502 10247 20241 30056 40108 76362 8692/ 333 58018 60081;
0213821980999992009051500004-01717-045400FM-12+004499999V0202701N001510450019N0002001N1+02391+02351101161ADDAA106002091AY161061AY221061GF106991031051004501041001KA1240M+02701MA1999999100641MD1999999+0041MW1021REMSYN100AAXX  15004 82198 21492 62703 10239 20235 30064 40116 70262 83540 333 10270 29097 55000 58004 60021;
0173821980999992009051512004-01717-045400FM-12+004499999V0202301N001010042019N0200001N1+02441+02391101191ADDAA124010991GF108991051051004501011001KA1240N+02091MA1999999100671MD1999999-0061REMSYN082AAXX  15124 82198 22498 82302 10244 20239 30067 40119 85510 333 20209 59006 60114;
0137821980999992009051518004-01717-045400FM-12+004499999V0200501N003110450019N0010001N1+02751+02341100961ADDGF107991031021004501041001MA1999999100451MD1999999-0111REMSYN070AAXX  15184 82198 32494 70506 10275 20234 30045 40096 83240 333 59011;
0213821980999992009051600004-01717-045400FM-12+004499999V0203601N000510042019N0002001N1+02431+02351101051ADDAA106005191AY161061AY221061GF108991051051004501021999KA1240M+03051MA1999999100531MD1999999-0111MW1021REMSYN100AAXX  16004 82198 21492 83601 10243 20235 30053 40105 70262 8552/ 333 10305 29092 55044 59011 60051;
0173821980999992009051612004-01717-045400FM-12+004499999V0201801N001010450019N0010001N1+02541+02471101181ADDAA124005191GF106991031021004501041001KA1240N+02221MA1999999100671MD1999999+0001REMSYN082AAXX  16124 82198 22494 61802 10254 20247 30067 40118 83240 333 20222 58000 60054;
0137821980999992009051618004-01717-045400FM-12+004499999V0200501N002110450019N0010001N1+02701+02461100861ADDGF107991041031004501061001MA1999999100351MD1999999-0101REMSYN070AAXX  16184 82198 32494 70504 10270 20246 30035 40086 84360 333 59010;
0168821980999992009051700004-01717-045400FM-12+004499999V0200201N000512200019N0002001N1+02541+02401101101ADDGF103991031001012501061001KA1240M+03131MA1999999100581MD1999999+0051REMSYN088AAXX  17004 82198 32692 30201 10254 20240 30058 40110 83060 333 10313 29092 55042 58005;
0156821980999992009051712004-01717-045400FM-12+004499999V0200501N003110450019N0010001N1+02861+02371101231ADDGF105991041021004501061001KA1240N+02291MA1999999100711MD1999999+0041REMSYN076AAXX  17124 82198 32494 50506 10286 20237 30071 40123 84260 333 20229 58004;
0182821980999992009051718004-01717-045400FM-12+004499999V0201401N001510450019N0010001N1+02501+02471100961ADDAA106025991AY191061AY261061GF107991041031004501051001MA1999999100441MD1999999+0091MW1021REMSYN082AAXX  17184 82198 21494 71403 10250 20247 30044 40096 70296 84350 333 58009 60261;
0213821980999992009051800004-01717-045400FM-12+004499999V0200701N001512200019N0002001N1+02441+02411101141ADDAA106004191AY161061AY221061GF104991031021004501041001KA1240M+03071MA1999999100621MD1999999+0041MW1021REMSYN100AAXX  18004 82198 21492 40703 10244 20241 30062 40114 70262 83240 333 10307 29092 55054 58004 60041;
0173821980999992009051812004-01717-045400FM-12+004499999V0200501N001510450019N0010001N1+02781+02541101311ADDAA124030091GF106991041021004501041001KA1240N+02211MA1999999100791MD1999999+0081REMSYN082AAXX  18124 82198 22494 60503 10278 20254 30079 40131 84240 333 20221 58008 60304;
0182821980999992009051818004-01717-045400FM-12+004499999V0200201N001010042019N0010001N1+02501+02471101051ADDAA106023191AY191061AY261061GF108991051051004501021999MA1999999100531MD1999999+0091MW1211REMSYN082AAXX  18184 82198 21494 80202 10250 20247 30053 40105 72196 8552/ 333 58009 60231;
0201821980999992009051912004-01717-045400FM-12+004499999V0200701N004110450019N0010001N1+02771+02561101321ADDAA124023191AY141061AY221061GF106991031021004501061041KA1240N+02291MA1999999100801MD1999999+0011MW1031REMSYN088AAXX  19124 82198 21494 60708 10277 20256 30080 40132 70342 83264 333 20229 58001 60234;
0182821980999992009051918004-01717-045400FM-12+004499999V0203601N001510450019N0005001N1+02781+02561101041ADDAA106007191AY161061AY221061GF107991031071004501061041MA1999999100521MD1999999-0011MW1031REMSYN082AAXX  19184 82198 21493 73603 10278 20256 30052 40104 70362 83764 333 59001 60071;
0213821980999992009052000004-01717-045400FM-12+004499999V0200501N002110450019N0001001N1+02521+02401101291ADDAA106007991AY161061AY221061GF108991031011004501021999KA1240M+02971MA1999999100771MD1999999+0001MW1031REMSYN100AAXX  20004 82198 21491 80504 10252 20240 30077 40129 70362 8312/ 333 10297 29090 55023 58000 60081;
0201821980999992009052012004-01717-045400FM-12+004499999V0201401N001010450019N0005001N1+02491+02371101301ADDAA124016091AY141061AY261061GF108991041051004501021011KA1240N+02231MA1999999100781MD1999999-0021MW1021REMSYN088AAXX  20124 82198 21493 81402 10249 20237 30078 40130 70246 84521 333 20223 59002 60164;
0165821980999992009052018004-01717-045400FM-12+004499999V0203601N004610450019N0010001N1+02811+02341101071ADDAY191061AY221061GF107991031031004501011061MA1999999100551MD1999999+0031MW1011REMSYN076AAXX  20184 82198 31494 73609 10281 20234 30055 40107 70192 83316 333 58003;
0173821980999992009052112004-01717-045400FM-12+004499999V0200901N001510450019N0010001N1+02731+02461101281ADDAA124003091GF107991041071004501061041KA1240N+02251MA1999999100761MD1999999-0021REMSYN082AAXX  21124 82198 22494 70903 10273 20246 30076 40128 84764 333 20225 59002 60034;
0182821980999992009052118004-01717-045400FM-12+004499999V0201801N002110450019N0005001N1+02791+02461101071ADDAA106002091AY161061AY221061GF108991041071004501021001MA1999999100551MD1999999+0001MW1031REMSYN082AAXX  21184 82198 21493 81804 10279 20246 30055 40107 70362 84720 333 58000 60021;
0196821980999992009052200004-01717-045400FM-12+004499999V0209999C000010450019N0002001N1+02531+02411101261ADDAY121061AY221061GF105991031021004501061001KA1240M+02981MA1999999100741MD1999999+0021MW1131REMSYN094AAXX  22004 82198 31492 50000 10253 20241 30074 40126 71322 83260 333 10298 29090 55013 58002;
0173821980999992009052212004-01717-045400FM-12+004499999V0201401N002110450019N0010001N1+02821+02541101261ADDAA124002091GF106991031021004501041061KA1240N+02261MA1999999100741MD1999999-0261REMSYN082AAXX  22124 82198 22494 61404 10282 20254 30074 40126 83246 333 20226 59026 60024;
0182821980999992009052218004-01717-045400FM-12+004499999V0200901N002110450019N0010001N1+02661+02431100981ADDAA106004191AY161061AY221061GF107991031071004501011011MA1999999100461MD1999999-0091MW1021REMSYN082AAXX  22184 82198 21494 70904 10266 20243 30046 40098 70262 83711 333 59009 60041;
0184821980999992009052300004-01717-045400FM-12+004499999V0200901N002110001519N0001001N1+02511+02411101261ADDGA1091+999999999GF109991091999999999999999KA1240M+02991MA1999999100741MD1999999+0001REMSYN088AAXX  23004 82198 32/91 90904 10251 20241 30074 40126 8//// 333 10299 29090 55023 58000;
0201821980999992009052312004-01717-045400FM-12+004499999V0201401N004610450019N0005001N1+02511+02381101361ADDAA124008991AY161061AY221061GF108991041051004501021999KA1240N+02231MA1999999100841MD1999999+0101MW1031REMSYN088AAXX  23124 82198 21493 81409 10251 20238 30084 40136 70362 8452/ 333 20223 58010 60094;
0182821980999992009052318004-01717-045400FM-12+004499999V0200901N002610450019N0010001N1+02771+02421101111ADDAA106002091AY161061AY221061GF107991031051004501061011MA1999999100591MD1999999+0131MW1011REMSYN082AAXX  23184 82198 21494 70905 10277 20242 30059 40111 70162 83561 333 58013 60021;
0213821980999992009052400004-01717-045400FM-12+004499999V0203201N001510042019N0002001N1+02451+02351101301ADDAA106000591AY161061AY221061GF108991061021004501061999KA1240M+02811MA1999999100781MD1999999+0041MW1131REMSYN100AAXX  24004 82198 21492 83203 10245 20235 30078 40130 71362 8626/ 333 10281 29092 55007 58004 69961;
0201821980999992009052412004-01717-045400FM-12+004499999V0201401N001010450019N0010001N1+02601+02511101341ADDAA124006191AY161061AY221061GF108991041031004501021999KA1240N+02311MA1999999100821MD1999999-0021MW1281REMSYN088AAXX  24124 82198 21494 81402 10260 20251 30082 40134 72862 8432/ 333 20231 59002 60064;
0182821980999992009052418004-01717-045400FM-12+004499999V0200501N002110450019N0005001N1+02441+02391101021ADDAA106008991AY191061AY261061GF108991041051004501021011MA1999999100501MD1999999-0091MW1021REMSYN082AAXX  24184 82198 21493 80504 10244 20239 30050 40102 70296 84521 333 59009 60091;
0213821980999992009052500004-01717-045400FM-12+004499999V0202501N001510450019N0002001N1+02441+02391101281ADDAA106000891AY161061AY221061GF108991021011004501021999KA1240M+03021MA1999999100761MD1999999-0021MW1501REMSYN100AAXX  25004 82198 21492 82503 10244 20239 30076 40128 75062 8212/ 333 10302 29096 55015 59002 69981;
0201821980999992009052512004-01717-045400FM-12+004499999V0200701N000510450019N0005001N1+02511+02311101271ADDAA124009991AY141061AY261061GF108991041071004501061999KA1240N+02201MA1999999100751MD1999999-0071MW1021REMSYN088AAXX  25124 82198 21493 80701 10251 20231 30075 40127 70246 8476/ 333 20220 59007 60104;
0165821980999992009052518004-01717-045400FM-12+004499999V0203601N004110450019N0010001N1+02741+02431101041ADDAY191061AY221061GF108991041031004501021999MA1999999100521MD1999999+0021MW1021REMSYN076AAXX  25184 82198 31494 83608 10274 20243 30052 40104 70292 8432/ 333 58002;
0213821980999992009052600004-01717-045400FM-12+004499999V0202301N001010450019N0002001N1+02331+02231101361ADDAA106000591AY161061AY221061GF106991031021004501061001KA1240M+02981MA1999999100841MD1999999+0081MW1011REMSYN100AAXX  26004 82198 21492 62302 10233 20223 30084 40136 70162 83260 333 10298 29091 55009 58008 69961;
0173821980999992009052612004-01717-045400FM-12+004499999V0203601N000510450019N0010001N1+02501+02451101351ADDAA124000591GF107991021011004501071001KA1240N+02211MA1999999100831MD1999999+0081REMSYN082AAXX  26124 82198 22494 73601 10250 20245 30083 40135 82170 333 20221 58008 69964;
0137821980999992009052618004-01717-045400FM-12+004499999V0201501N003610450019N0010001N1+03031+02441100981ADDGF106991031021004501061001MA1999999100471MD1999999-0051REMSYN070AAXX  26184 82198 32494 61507 10303 20244 30047 40098 83260 333 59005;
0196821980999992009052700004-01717-045400FM-12+004499999V0201401N003610450019N0002001N1+02561+02441101181ADDAY101061AY221061GF106991031011004501071001KA1240M+03171MA1999999100661MD1999999-0181MW1131REMSYN094AAXX  27004 82198 31492 61407 10256 20244 30066 40118 71302 83170 333 10317 29088 55047 59018;
0156821980999992009052712004-01717-045400FM-12+004499999V0200501N002610450019N0010001N1+02821+02521101251ADDGF106991031021004501031001KA1240N+02261MA1999999100741MD1999999-0091REMSYN076AAXX  27124 82198 32494 60505 10282 20252 30074 40125 83230 333 20226 59009;
0137821980999992009052718004-01717-045400FM-12+004499999V0200701N003610450019N0010001N1+02781+02401100891ADDGF107991031031004501041001MA1999999100381MD1999999-0091REMSYN070AAXX  27184 82198 32494 70707 10278 20240 30038 40089 83340 333 59009;
0168821980999992009052800004-01717-045400FM-12+004499999V0200501N001510450019N0002001N1+02621+02481101161ADDGF106991031031004501041001KA1240M+03251MA1999999100641MD1999999-0021REMSYN088AAXX  28004 82198 32492 60503 10262 20248 30064 40116 83340 333 10325 29087 55057 59002;
0156821980999992009052812004-01717-045400FM-12+004499999V0202701N001010450019N0010001N1+02691+02461101261ADDGF105991031021004501061001KA1240N+02311MA1999999100751MD1999999+0011REMSYN076AAXX  28124 82198 32494 52702 10269 20246 30075 40126 83260 333 20231 58001;
0137821980999992009052818004-01717-045400FM-12+004499999V0200501N003110450019N0010001N1+02821+02541100911ADDGF106991021021004501041001MA1999999100401MD1999999+0021REMSYN070AAXX  28184 82198 32494 60506 10282 20254 30040 40091 82240 333 58002;
0168821980999992009052900004-01717-045400FM-12+004499999V0203201N000510450019N0002001N1+02651+02481101181ADDGF106991031011004501041001KA1240M+03321MA1999999100661MD1999999+0021REMSYN088AAXX  29004 82198 32492 63201 10265 20248 30066 40118 83140 333 10332 29089 55055 58002;
0156821980999992009052912004-01717-045400FM-12+004499999V0200901N000510090019N0010001N1+02641+02481101281ADDGF108991061081004501061001KA1240N+02311MA1999999100761MD1999999+0011REMSYN076AAXX  29124 82198 32494 80901 10264 20248 30076 40128 86860 333 20231 58001;
0182821980999992009052918004-01717-045400FM-12+004499999V0200501N001510450019N0010001N1+02461+02361101061ADDAA106025991AY191061AY261061GF108991031071004501021001MA1999999100541MD1999999+0141MW1211REMSYN082AAXX  29184 82198 21494 80503 10246 20236 30054 40106 72196 83720 333 58014 60261;
0168821980999992009053000004-01717-045400FM-12+004499999V0202701N001510450019N0002001N1+02481+02431101271ADDGF106991031031004501041001KA1240M+02961MA1999999100751MD1999999+0091REMSYN088AAXX  30004 82198 32492 62703 10248 20243 30075 40127 83340 333 10296 29095 55004 58009;
0201821980999992009053012004-01717-045400FM-12+004499999V0201601N002110042019N0010001N1+02421+02331101351ADDAA124049091AY161061AY221061GF108991051051004501041999KA1240N+02171MA1999999100831MD1999999+0071MW1021REMSYN088AAXX  30124 82198 21494 81604 10242 20233 30083 40135 70262 8554/ 333 20217 58007 60494;
0182821980999992009053018004-01717-045400FM-12+004499999V0201101N001010450019N0010001N1+02481+02411101071ADDAA106005191AY161061AY221061GF108991041051004501021999MA1999999100551MD1999999+0011MW1631REMSYN082AAXX  30184 82198 21494 81102 10248 20241 30055 40107 76362 8452/ 333 58001 60051;
0168821980999992009053100004-01717-045400FM-12+004499999V0209999C000010450019N0002001N1+02481+02411101271ADDGF107991031081004501041001KA1240M+02861MA1999999100751MD1999999+0001REMSYN088AAXX  31004 82198 32492 70000 10248 20241 30075 40127 83840 333 10286 29096 55000 58000;
0185821980999992009053112004-01717-045400FM-12+004499999V0203601N000510450019N0010001N1+02801+02421101351ADDAA124000491GF105991041021004501061001KA1240N+02211MA1999999100831MD1999999-0011REMSYN094AAXX  31124 82198 22494 53601 10280 20242 30083 40135 84260 333 20221 58000 59001 69944 10004;
0182821980999992009053118004-01717-045400FM-12+004499999V0200901N002110450019N0010001N1+02511+02431101061ADDAA106018091AY161061AY221061GF107991021031004501021001MA1999999100541MD1999999-0011MW1021REMSYN082AAXX  31184 82198 21494 70904 10251 20243 30054 40106 70262 82320 333 59001 60181;
0168821980999992009060100004-01717-045400FM-12+004499999V0203501N001010450019N0002001N1+02461+02411101291ADDGF107991031031004501041001KA1240M+03141MA1999999100771MD1999999+0021REMSYN088AAXX  01004 82198 32492 73502 10246 20241 30077 40129 83340 333 10314 29092 55046 58002;
0173821980999992009060112004-01717-045400FM-12+004499999V0200901N000510450019N0010001N1+02781+02421101361ADDAA124018091GF105991031021004501061001KA1240N+02221MA1999999100841MD1999999+0011REMSYN082AAXX  01124 82198 22494 50901 10278 20242 30084 40136 83260 333 20222 58001 60184;
0182821980999992009060118004-01717-045400FM-12+004499999V0203601N001510450019N0010001N1+02621+02481101081ADDAA106000591AY121061AY221061GF108991041031004501041001MA1999999100561MD1999999+0021MW1531REMSYN082AAXX  01184 82198 21494 83603 10262 20248 30056 40108 75322 84340 333 58002 69951;
0213821980999992009060200004-01717-045400FM-12+004499999V0200901N002112200019N0002001N1+02461+02411101251ADDAA106000591AY151061AY221061GF104991031021004501061001KA1240M+03151MA1999999100731MD1999999-0041MW1021REMSYN100AAXX  02004 82198 21492 40904 10246 20241 30073 40125 70252 83260 333 10315 29092 55038 59004 69951;
0173821980999992009060212004-01717-045400FM-12+004499999V0203501N001510450019N0010001N1+02561+02491101321ADDAA124001091GF106991041071004501061011KA1240N+02291MA1999999100801MD1999999-0041REMSYN082AAXX  02124 82198 22494 63503 10256 20249 30080 40132 84761 333 20229 59004 60014;
0165821980999992009060218004-01717-045400FM-12+004499999V0203601N004110450019N0010001N1+02791+02421101031ADDAY191061AY221061GF107991041031004501061001MA1999999100511MD1999999-0051MW1151REMSYN076AAXX  02184 82198 31494 73608 10279 20242 30051 40103 71592 84360 333 59005;
0168821980999992009060300004-01717-045400FM-12+004499999V0203601N002110450019N0005001N1+02591+02441101361ADDGF106991031021004501031061KA1240M+03181MA1999999100841MD1999999+0111REMSYN088AAXX  03004 82198 32493 63604 10259 20244 30084 40136 83236 333 10318 29089 55046 58011;
0165821980999992009060418004-01717-045400FM-12+004499999V0203601N003610450019N0010001N1+02921+02471101071ADDAY121061AY221061GF106991031021004501041041MA1999999100551MD1999999+0001MW1161REMSYN076AAXX  04184 82198 31494 63607 10292 20247 30055 40107 71622 83244 333 58000;
0168821980999992009060500004-01717-045400FM-12+004499999V0200501N002612200019N0005001N1+02631+02401101361ADDGF103991021011004501001061KA1240M+03151MA1999999100841MD1999999+0041REMSYN088AAXX  05004 82198 32493 30505 10263 20240 30084 40136 82106 333 10315 29086 55076 58004;
0156821980999992009060512004-01717-045400FM-12+004499999V0200701N003610450019N0010001N1+02921+02501101291ADDGF106991031021004501031011KA1240N+02391MA1999999100771MD1999999-0121REMSYN076AAXX  05124 82198 32494 60707 10292 20250 30077 40129 83231 333 20239 59012;
0182821980999992009060518004-01717-045400FM-12+004499999V0200901N005710450019N0010001N1+02931+02461101011ADDAA106001091AY161061AY221061GF106991031071004501041041MA1999999100491MD1999999-0061MW1031REMSYN082AAXX  05184 82198 21494 60911 10293 20246 30049 40101 70362 83744 333 59006 60011;
0213821980999992009060600004-01717-045400FM-12+004499999V0200901N001510450019N0005001N1+02571+02501101261ADDAA106000891AY161061AY221061GF107991031071004501031041KA1240M+03191MA1999999100741MD1999999-0101MW1131REMSYN100AAXX  06004 82198 21493 70903 10257 20250 30074 40126 71362 83734 333 10319 29086 55071 59010 69971;
0213821980999992009060800004-01717-045400FM-12+004499999V0201601N001510450019N0005001N1+02491+02261101221ADDAA106002091AY161061AY221061GF107991041051004501031061KA1240M+03011MA1999999100701MD1999999-0041MW1031REMSYN100AAXX  08004 82198 21493 71603 10249 20226 30070 40122 70362 84536 333 10301 29087 55016 59004 60021;
0173821980999992009060812004-01717-045400FM-12+004499999V0209999C000010450019N0010001N1+02741+02521101281ADDAA124003091GF107991041051004501061011KA1240N+02271MA1999999100761MD1999999+0041REMSYN082AAXX  08124 82198 22494 70000 10274 20252 30076 40128 84561 333 20227 58004 60034;
0137821980999992009060818004-01717-045400FM-12+004499999V0201401N003610450019N0010001N1+03041+02281100951ADDGF106991031021004501031041MA1999999100431MD1999999-0031REMSYN070AAXX  08184 82198 32494 61407 10304 20228 30043 40095 83234 333 59003;
0168821980999992009060900004-01717-045400FM-12+004499999V0200701N002110450019N0005001N1+02701+02391101181ADDGF107991041051004501031001KA1240M+03161MA1999999100671MD1999999-0031REMSYN088AAXX  09004 82198 32493 70704 10270 20239 30067 40118 84530 333 10316 29080 55030 59003;
0201821980999992009060912004-01717-045400FM-12+004499999V0201401N004612200019N0010001N1+02821+02241101271ADDAA124007991AY161061AY221061GF103991031001012501061001KA1240N+02211MA1999999100761MD1999999+0001MW1011REMSYN088AAXX  09124 82198 21694 31409 10282 20224 30076 40127 70162 83060 333 20221 58000 60084;
0137821980999992009060918004-01717-045400FM-12+004499999V0200901N006210450019N0010001N1+02871+02181101061ADDGF106991041031004501061001MA1999999100551MD1999999+0121REMSYN070AAXX  09184 82198 32494 60912 10287 20218 30055 40106 84360 333 58012;
0213821980999992009061000004-01717-045400FM-12+004499999V0202701N001510450019N0002001N1+02491+02321101351ADDAA106000591AY151061AY221061GF108991041051004501031001KA1240M+03171MA1999999100831MD1999999+0161MW1021REMSYN100AAXX  10004 82198 21492 82703 10249 20232 30083 40135 70252 84530 333 10317 29080 55076 58016 69961;
0201821980999992009061012004-01717-045400FM-12+004499999V0200901N002110042019N0010001N1+02381+02311101431ADDAA124043991AY161061AY221061GF108991051051004501061001KA1240N+02161MA1999999100911MD1999999+0151MW1021REMSYN088AAXX  10124 82198 21494 80904 10238 20231 30091 40143 70262 85560 333 20216 58015 60444;
0182821980999992009061018004-01717-045400FM-12+004499999V0200901N001510450019N0010001N1+02801+02341101151ADDAA106006191AY191061AY261061GF107991031031004501041001MA1999999100631MD1999999+0081MW1021REMSYN082AAXX  10184 82198 21494 70903 10280 20234 30063 40115 70296 83340 333 58008 60061;
0168821980999992009061100004-01717-045400FM-12+004499999V0201101N002610450019N0002001N1+02601+02371101251ADDGF107991041031004501061001KA1240M+03051MA1999999100731MD1999999-0101REMSYN088AAXX  11004 82198 32492 71105 10260 20237 30073 40125 84360 333 10305 29086 55016 59010;
0201821980999992009061112004-01717-045400FM-12+004499999V0201101N004110042019N0010001N1+02521+02401101451ADDAA124007191AY151061AY221061GF107991051051004501041001KA1240N+02261MA1999999100931MD1999999+0021MW1211REMSYN088AAXX  11124 82198 21494 71108 10252 20240 30093 40145 72152 85540 333 20226 58002 60074;
0182821980999992009061118004-01717-045400FM-12+004499999V0200901N004610042019N0010001N1+02431+02331101251ADDAA106029091AY161061AY221061GF108991051051004501021999MA1999999100731MD1999999+0101MW1631REMSYN082AAXX  11184 82198 21494 80909 10243 20233 30073 40125 76362 8552/ 333 58010 60291;
0213821980999992009061200004-01717-045400FM-12+004499999V0201101N002610450019N0002001N1+02401+02331101361ADDAA106004191AY161061AY221061GF106991031051004501041001KA1240M+02871MA1999999100841MD1999999+0111MW1131REMSYN100AAXX  12004 82198 21492 61105 10240 20233 30084 40136 71362 83540 333 10287 29095 55007 58011 60041;
0207821980999992009061212004-01717-045400FM-12+004499999V0200701N001010450019N0010001N1+02341+02261101531ADDAA124064091AY191061AY261061GF108991031071004501021999KA1240N+02131MA1999999101011MD1999999+0081MW1211REMSYN094AAXX  12124 82198 21494 80702 10234 20226 30101 40153 72196 8372/ 333 20213 58008 60644 10640;
0182821980999992009061218004-01717-045400FM-12+004499999V0203601N002110450019N0010001N1+02871+02481101241ADDAA106000391AY151061AY221061GF106991041021004501061001MA1999999100721MD1999999-0011MW1021REMSYN082AAXX  12184 82198 21494 63604 10287 20248 30072 40124 70252 84260 333 59001 69931;
0168821980999992009061300004-01717-045400FM-12+004499999V0200901N002112200019N0002001N1+02561+02441101371ADDGF103991031001012501061001KA1240M+03021MA1999999100851MD1999999+0011REMSYN088AAXX  13004 82198 32692 30904 10256 20244 30085 40137 83060 333 10302 29090 55022 58001;
0173821980999992009061312004-01717-045400FM-12+004499999V0200901N001510450019N0010001N1+02771+02501101401ADDAA124000391GF105991021011004501061001KA1240N+02181MA1999999100881MD1999999-0131REMSYN082AAXX  13124 82198 22494 50903 10277 20250 30088 40140 82160 333 20218 59013 69934;
0137821980999992009061318004-01717-045400FM-12+004499999V0200201N003110042019N0010001N1+03151+02391101071ADDGF105991051021004501001001MA1999999100761MD1999999-0161REMSYN070AAXX  13184 82198 32494 50206 10315 20239 30076 40107 85200 333 59016;
0213821980999992009061400004-01717-045400FM-12+004499999V0200201N001512200019N0002001N1+02541+02381101221ADDAA106011991AY161061AY221061GF103991031001012501061001KA1240M+03231MA1999999100701MD1999999-0151MW1011REMSYN100AAXX  14004 82198 21692 30203 10254 20238 30070 40122 70162 83060 333 10323 29083 55092 59015 60121;
0173821980999992009061412004-01717-045400FM-12+004499999V0200501N002610450019N0010001N1+02901+02521101301ADDAA124011991GF105991041011004501041001KA1240N+02281MA1999999100781MD1999999-0101REMSYN082AAXX  14124 82198 22494 50505 10290 20252 30078 40130 84140 333 20228 59010 60124;
0182821980999992009061418004-01717-045400FM-12+004499999V0200501N001510450019N0010001N1+02501+02451101051ADDAA106014091AY161061AY251061GF106991031031004501041001MA1999999100531MD1999999-0031MW1621REMSYN082AAXX  14184 82198 21494 60503 10250 20245 30053 40105 76265 83340 333 59003 60141;
0213821980999992009061500004-01717-045400FM-12+004499999V0200901N001010042019N0002001N1+02481+02431101271ADDAA106031091AY161061AY221061GF107991051051004501021001KA1240M+03061MA1999999100751MD1999999+0051MW1131REMSYN100AAXX  15004 82198 21492 70902 10248 20243 30075 40127 71362 85520 333 10306 29093 55042 58005 60311;
0201821980999992009061512004-01717-045400FM-12+004499999V0200501N001510042019N0010001N1+02461+02321101311ADDAA124047091AY161061AY221061GF108991051041004501041999KA1240N+02171MA1999999100791MD1999999+0011MW1021REMSYN088AAXX  15124 82198 21494 80503 10246 20232 30079 40131 70262 8544/ 333 20217 58001 60474;
0137821980999992009061518004-01717-045400FM-12+004499999V0201401N003610450019N0010001N1+02981+02331100971ADDGF106991031021004501041001MA1999999100461MD1999999-0071REMSYN070AAXX  15184 82198 32494 61407 10298 20233 30046 40097 83240 333 59007;
0168821980999992009061600004-01717-045400FM-12+004499999V0203601N001510450019N0002001N1+02561+02381101311ADDGF106991041021004501061001KA1240M+03061MA1999999100791MD1999999+0041REMSYN088AAXX  16004 82198 32492 63603 10256 20238 30079 40131 84260 333 10306 29085 55021 58004;
0201821980999992009061612004-01717-045400FM-12+004499999V0201801N001510450019N0005001N1+02501+02401101401ADDAA124003091AY161061AY221061GF107991041071004501011061KA1240N+02261MA1999999100881MD1999999+0091MW1021REMSYN088AAXX  16124 82198 21493 71803 10250 20240 30088 40140 70262 84716 333 20226 58009 60034;
0137821980999992009061618004-01717-045400FM-12+004499999V0201101N002610450019N0010001N1+03151+02271101121ADDGF106991031021004501011061MA1999999100601MD1999999+0141REMSYN070AAXX  16184 82198 32494 61105 10315 20227 30060 40112 83216 333 58014;
0168821980999992009061700004-01717-045400FM-12+004499999V0203501N002610450019N0002001N1+02621+02421101401ADDGF105991031021004501061001KA1240M+03241MA1999999100881MD1999999+0091REMSYN088AAXX  17004 82198 32492 53505 10262 20242 30088 40140 83260 333 10324 29082 55048 58009;
0156821980999992009061712004-01717-045400FM-12+004499999V0202001N000510450019N0005001N1+02531+02431101411ADDGF107991031021004501011061KA1240N+02291MA1999999100891MD1999999+0011REMSYN076AAXX  17124 82198 32493 72001 10253 20243 30089 40141 83216 333 20229 58001;
0137821980999992009061718004-01717-045400FM-12+004499999V0200901N000510450019N0010001N1+02901+02461101171ADDGF108991041031004501011999MA1999999100651MD1999999+0051REMSYN070AAXX  17184 82198 32494 80901 10290 20246 30065 40117 8431/ 333 58005;
0213821980999992009061800004-01717-045400FM-12+004499999V0203601N002610450019N0002001N1+02491+02311101341ADDAA106000591AY151061AY221061GF106991031021004501061001KA1240M+03001MA1999999100821MD1999999-0061MW1011REMSYN100AAXX  18004 82198 21492 63605 10249 20231 30082 40134 70152 83260 333 10300 29091 55001 59006 69941;
0173821980999992009061812004-01717-045400FM-12+004499999V0201101N001010450019N0010001N1+02731+02481101291ADDAA124000591GF106991031021004501031041KA1240N+02251MA1999999100771MD1999999-0121REMSYN082AAXX  18124 82198 22494 61102 10273 20248 30077 40129 83234 333 20225 59012 69944;
0182821980999992009061818004-01717-045400FM-12+004499999V0200501N003110450019N0010001N1+02861+02441101001ADDAA106002091AY161061AY221061GF106991031051004501061011MA1999999100481MD1999999-0171MW1021REMSYN082AAXX  18184 82198 21494 60506 10286 20244 30048 40100 70262 83561 333 59017 60021;
0213821980999992009061900004-01717-045400FM-12+004499999V0202701N000512200019N0002001N1+02471+02301101261ADDAA106000591AY161061AY221061GF103991031021004501001001KA1240M+03241MA1999999100741MD1999999-0081MW1011REMSYN100AAXX  19004 82198 21492 32701 10247 20230 30074 40126 70162 83200 333 10324 29088 55063 59008 69941;
0173821980999992009061912004-01717-045400FM-12+004499999V0200701N002610450019N0010001N1+02561+02441101281ADDAA124007191GF106991031051004501031041KA1240N+02271MA1999999100761MD1999999-0011REMSYN082AAXX  19124 82198 22494 60705 10256 20244 30076 40128 83534 333 20227 59001 60074;
0182821980999992009061918004-01717-045400FM-12+004499999V0201601N001510450019N0010001N1+02621+02441101011ADDAA106003091AY161061AY221061GF106991031071004501061011MA1999999100491MD1999999+0011MW1021REMSYN082AAXX  19184 82198 21494 61603 10262 20244 30049 40101 70262 83761 333 58001 60031;
0178821980999992009062000004-01717-045400FM-12+004499999V0200501N002612200019N0005001N1+02621+02421101211ADDGA1001+999999999GF100991001001999999001001KA1240M+03181MA1999999100691MD1999999-0051REMSYN082AAXX  20004 82198 32993 00505 10262 20242 30069 40121 333 10318 29090 55049 59005;
0173821980999992009062012004-01717-045400FM-12+004499999V0200701N003110042019N0010001N1+02881+02481101241ADDAA124003091GF106991061021004501001001KA1240N+02391MA1999999100721MD1999999-0041REMSYN082AAXX  20124 82198 22494 60706 10288 20248 30072 40124 86200 333 20239 59004 60034;
0182821980999992009062018004-01717-045400FM-12+004499999V0200701N006710042019N0010001N1+02931+02481100941ADDAA106000591AY151061AY221061GF105991051021004501001001MA1999999100431MD1999999-0061MW1011REMSYN082AAXX  20184 82198 21494 50713 10293 20248 30043 40094 70152 85200 333 59006 69951;
0178821980999992009062100004-01717-045400FM-12+004499999V0200701N002612200019N0005001N1+02631+02391101121ADDGA1001+999999999GF100991001001999999001001KA1240M+03231MA1999999100611MD1999999-0091REMSYN082AAXX  21004 82198 32993 00705 10263 20239 30061 40112 333 10323 29083 55089 59009;
0201821980999992009062112004-01717-045400FM-12+004499999V0200901N004110450019N0010001N1+02701+02331101201ADDAA124001091AY151061AY221061GF106991041021004501061001KA1240N+02331MA1999999100681MD1999999-0041MW1031REMSYN088AAXX  21124 82198 21494 60908 10270 20233 30068 40120 70352 84260 333 20233 59004 60014;
0137821980999992009062118004-01717-045400FM-12+004499999V0201101N003110042019N0020001N1+03111+02181100951ADDGF105991051021004501001001MA1999999100441MD1999999+0011REMSYN070AAXX  21184 82198 32495 51106 10311 20218 30044 40095 85200 333 58001;
0201821980999992009062212004-01717-045400FM-12+004499999V0200901N003610042019N0020001N1+02681+02451101171ADDAA124002091AY161061AY211061GF105991051021004501001001KA1240N+02391MA1999999100651MD1999999-0031MW1031REMSYN088AAXX  22124 82198 21495 50907 10268 20245 30065 40117 70361 85200 333 20239 59003 60024;
0182821980999992009062218004-01717-045400FM-12+004499999V0200501N001010450019N0020001N1+02671+02371100901ADDAA106006191AY161061AY221061GF106991031021004501061041MA1999999100381MD1999999-0061MW1031REMSYN082AAXX  22184 82198 21495 60502 10267 20237 30038 40090 70362 83264 333 59006 60061;
0178821980999992009062300004-01717-045400FM-12+004499999V0200501N001512200019N0002001N1+02601+02441101181ADDGA1001+999999999GF100991001001999999001001KA1240M+03181MA1999999100661MD1999999+0051REMSYN082AAXX  23004 82198 32992 00503 10260 20244 30066 40118 333 10318 29089 55047 58005;
0201821980999992009062312004-01717-045400FM-12+004499999V0201101N002110450019N0010001N1+02421+02321101271ADDAA124011991AY161061AY221061GF108991021031004501041001KA1240N+02181MA1999999100751MD1999999+0101MW1021REMSYN088AAXX  23124 82198 21494 81104 10242 20232 30075 40127 70262 82340 333 20218 58010 60124;
0182821980999992009062318004-01717-045400FM-12+004499999V0200901N002610450019N0010001N1+02441+02391101091ADDAA106003091AY161061AY221061GF108991031051004501021999MA1999999100571MD1999999+0191MW1521REMSYN082AAXX  23184 82198 21494 80905 10244 20239 30057 40109 75262 8352/ 333 58019 60031;
0168821980999992009062400004-01717-045400FM-12+004499999V0201101N004610450019N0002001N1+02451+02341101271ADDGF108991041051004501071999KA1240M+02691MA1999999100751MD1999999+0091REMSYN088AAXX  24004 82198 32492 81109 10245 20234 30075 40127 8457/ 333 10269 29095 55000 58009;
0201821980999992009062412004-01717-045400FM-12+004499999V0200901N003612200019N0020001N1+02831+02311101361ADDAA124004191AY151061AY221061GF103991011011004501061001KA1240N+02211MA1999999100841MD1999999+0091MW1021REMSYN088AAXX  24124 82198 21495 30907 10283 20231 30084 40136 70252 81160 333 20221 58009 60044;
0137821980999992009062418004-01717-045400FM-12+004499999V0200901N005110450019N0020001N1+03121+02221101141ADDGF105991031021004501061001MA1999999100631MD1999999+0061REMSYN070AAXX  24184 82198 32495 50910 10312 20222 30063 40114 83260 333 58006;
0196821980999992009062500004-01717-045400FM-12+004499999V0200501N004112200019N0002001N1+02621+02371101271ADDAY121061AY211061GF103991021031004501061001KA1240M+03201MA1999999100761MD1999999+0011MW1131REMSYN094AAXX  25004 82198 31492 30508 10262 20237 30076 40127 71321 82360 333 10320 29076 55096 58001;
0220821980999992009062512004-01717-045400FM-12+004499999V0200501N001510450019N0010001N1+02501+02311101521ADDAA124000091AY151061AY221061GF108991031051004501021999KA1240N+02131MA1999999101001MD1999999+0161MW1021REMSYN088AAXX  25124 82198 21494 80503 10250 20231 30100 40152 70252 8352/ 333 20213 58016 69924;EQDQ01  00002PRCP24
0182821980999992009062518004-01717-045400FM-12+004499999V0201401N002110450019N0020001N1+02581+02371101271ADDAA106006191AY161061AY251061GF108991031031004501041001MA1999999100751MD1999999+0121MW1021REMSYN082AAXX  25184 82198 21495 81404 10258 20237 30075 40127 70265 83340 333 58012 60061;
0168821980999992009062600004-01717-045400FM-12+004499999V0200901N001510450019N0002001N1+02521+02341101351ADDGF107991041031004501071001KA1240M+02721MA1999999100831MD1999999+0071REMSYN088AAXX  26004 82198 32492 70903 10252 20234 30083 40135 84370 333 10272 29089 55000 58007;
0173821980999992009062612004-01717-045400FM-12+004499999V0200501N003112200019N0020001N1+02831+02401101511ADDAA124006191GF104991041011004501001001KA1240N+02211MA1999999100991MD1999999-0011REMSYN082AAXX  26124 82198 22495 40506 10283 20240 30099 40151 84100 333 20221 59001 60064;
0137821980999992009062618004-01717-045400FM-12+004499999V0201101N002112200019N0020001N1+03001+02221101261ADDGF104991041021004501001001MA1999999100751MD1999999+0001REMSYN070AAXX  26184 82198 32495 41104 10300 20222 30075 40126 84200 333 58000;
0178821980999992009062700004-01717-045400FM-12+004499999V0200701N002112200019N0002001N1+02561+02361101461ADDGA1001+999999999GF100991001001999999001001KA1240M+03251MA1999999100941MD1999999+0111REMSYN082AAXX  27004 82198 32992 00704 10256 20236 30094 40146 333 10325 29080 55092 58011;
0156821980999992009062712004-01717-045400FM-12+004499999V0200701N003112200019N0020001N1+02851+02381101561ADDGF103991031011004501001001KA1240N+02191MA1999999101041MD1999999+0051REMSYN076AAXX  27124 82198 32495 30706 10285 20238 30104 40156 83100 333 20219 58005;
0178821980999992009062800004-01717-045400FM-12+004499999V0200501N002112200019N0002001N1+02581+02401101501ADDGA1001+999999999GF100991001001999999001001KA1240M+03121MA1999999100981MD1999999+0041REMSYN082AAXX  28004 82198 32992 00504 10258 20240 30098 40150 333 10312 29084 55087 58004;
0173821980999992009062812004-01717-045400FM-12+004499999V0200701N003112200019N0020001N1+02841+02461101501ADDAA124001091GF103991031011004501001001KA1240N+02261MA1999999100981MD1999999-0061REMSYN082AAXX  28124 82198 22495 30706 10284 20246 30098 40150 83100 333 20226 59006 60014;
0137821980999992009062818004-01717-045400FM-12+004499999V0203601N005710450019N0010001N1+02941+02471101171ADDGF107991031031004501041001MA1999999100661MD1999999-0211REMSYN070AAXX  28184 82198 32494 73611 10294 20247 30066 40117 83340 333 59021;
0213821980999992009062900004-01717-045400FM-12+004499999V0200901N001512200019N0002001N1+02441+02251101371ADDAA106006191AY161061AY221061GF102991021001012501061001KA1240M+03221MA1999999100851MD1999999-0131MW1021REMSYN100AAXX  29004 82198 21692 20903 10244 20225 30085 40137 70262 82060 333 10322 29086 55071 59013 60061;
0173821980999992009062912004-01717-045400FM-12+004499999V0200701N002110042019N0010001N1+02811+02561101321ADDAA124006191GF107991051021004501041001KA1240N+02111MA1999999100801MD1999999-0181REMSYN082AAXX  29124 82198 22494 70704 10281 20256 30080 40132 85240 333 20211 59018 60064;
0182821980999992009062918004-01717-045400FM-12+004499999V0200701N004610042019N0010001N1+02871+02421101061ADDAA106014091AY161061AY221061GF106991051021004501061001MA1999999100541MD1999999-0121MW1021REMSYN082AAXX  29184 82198 21494 60709 10287 20242 30054 40106 70262 85260 333 59012 60141;
0196821980999992009063000004-01717-045400FM-12+004499999V0200701N001512200019N0002001N1+02521+02341101251ADDAY121061AY211061GF102991021011004501001001KA1240M+03011MA1999999100731MD1999999-0121MW1131REMSYN094AAXX  30004 82198 31492 20703 10252 20234 30073 40125 71321 82100 333 10301 29086 55050 59012;
0173821980999992009063012004-01717-045400FM-12+004499999V0200701N002612200019N0010001N1+02741+02501101291ADDAA124014091GF105991031021004501001011KA1240N+02391MA1999999100771MD1999999-0031REMSYN082AAXX  30124 82198 22494 50705 10274 20250 30077 40129 83201 333 20239 59003 60144;
0182821980999992009063018004-01717-045400FM-12+004499999V0201101N006210042019N0010001N1+03041+02051100981ADDAA106008991AY161061AY221061GF105991051021004501001001MA1999999100461MD1999999-0081MW1021REMSYN082AAXX  30184 82198 21494 51112 10304 20205 30046 40098 70262 85200 333 59008 60091;
0168821980999992009070100004-01717-045400FM-12+004499999V0200501N002612200019N0002001N1+02571+02391101191ADDGF103991031001022501001011KA1240M+03071MA1999999100671MD1999999-0061REMSYN088AAXX  01004 82198 32892 30505 10257 20239 30067 40119 83001 333 10307 29080 55050 59006;
0173821980999992009070112004-01717-045400FM-12+004499999V0200701N002610042019N0020001N1+02871+02401101261ADDAA124008991GF105991051021004501001001KA1240N+02311MA1999999100741MD1999999-0031REMSYN082AAXX  01124 82198 22495 50705 10287 20240 30074 40126 85200 333 20231 59003 60094;
0201821980999992009070118004-01717-045400FM-12+004499999V0200701N001510450019N0020001N1+02791+02461101071ADDAA106000091AY151061AY221061GF106991041021004501061001MA1999999100551MD1999999+0061MW1031REMSYN082AAXX  01184 82198 21495 60703 10279 20246 30055 40107 70352 84260 333 58006 69911;EQDQ01  00002PRCP06
0168821980999992009070200004-01717-045400FM-12+004499999V0200701N002112200019N0005001N1+02541+02381101291ADDGF101991011011004501001001KA1240M+03021MA1999999100771MD1999999+0101REMSYN088AAXX  02004 82198 32493 10704 10254 20238 30077 40129 81100 333 10302 29086 55025 58010;
0201821980999992009070212004-01717-045400FM-12+004499999V0200701N002610042019N0020001N1+02831+02501101241ADDAA124000591AY141061AY221061GF105991051021004501001001KA1240N+02311MA1999999100721MD1999999-0021MW1031REMSYN088AAXX  02124 82198 21495 50705 10283 20250 30072 40124 70342 85200 333 20231 59002 69944;
0182821980999992009070218004-01717-045400FM-12+004499999V0200901N003610450019N0020001N1+02961+02331101101ADDAA106005191AY161061AY221061GF105991031021004501031041MA1999999100581MD1999999+0031MW1021REMSYN082AAXX  02184 82198 21495 50907 10296 20233 30058 40110 70262 83234 333 58003 60051;
0178821980999992009070300004-01717-045400FM-12+004499999V0200501N001512200019N0005001N1+02571+02401101281ADDGA1001+999999999GF100991001001999999001001KA1240M+03081MA1999999100761MD1999999-0011REMSYN082AAXX  03004 82198 32993 00503 10257 20240 30076 40128 333 10308 29083 55076 59001;
0173821980999992009070312004-01717-045400FM-12+004499999V0200501N002612200019N0020001N1+02881+02461101321ADDAA124005191GF104991041021004501001001KA1240N+02371MA1999999100801MD1999999+0081REMSYN082AAXX  03124 82198 22495 40505 10288 20246 30080 40132 84200 333 20237 58008 60054;
0182821980999992009070318004-01717-045400FM-12+004499999V0200901N003110042019N0020001N1+03081+02401101041ADDAA106003091AY161061AY221061GF105991051021004501001001MA1999999100521MD1999999-0061MW1021REMSYN082AAXX  03184 82198 21495 50906 10308 20240 30052 40104 70262 85200 333 59006 60031;
0168821980999992009070400004-01717-045400FM-12+004499999V0200701N002112200019N0005001N1+02601+02391101161ADDGF102991021021004501001001KA1240M+03211MA1999999100651MD1999999-0111REMSYN088AAXX  04004 82198 32493 20704 10260 20239 30065 40116 82200 333 10321 29080 55089 59011;
0173821980999992009070412004-01717-045400FM-12+004499999V0200901N002610450019N0020001N1+02841+02441101281ADDAA124003091GF105991031021004501031011KA1240N+02391MA1999999100761MD1999999-0041REMSYN082AAXX  04124 82198 22495 50905 10284 20244 30076 40128 83231 333 20239 59004 60034;
0182821980999992009070418004-01717-045400FM-12+004499999V0200701N003110450019N0020001N1+02881+02391101081ADDAA106002091AY161061AY221061GF105991031021004501041041MA1999999100561MD1999999+0041MW1151REMSYN082AAXX  04184 82198 21495 50706 10288 20239 30056 40108 71562 83244 333 58004 60021;
0168821980999992009070500004-01717-045400FM-12+004499999V0200501N002612200019N0002001N1+02511+02331101241ADDGF102991011001017501031041KA1240M+03141MA1999999100721MD1999999+0071REMSYN088AAXX  05004 82198 32792 20505 10251 20233 30072 40124 81034 333 10314 29083 55073 58007;
0201821980999992009070512004-01717-045400FM-12+004499999V0200701N002112200019N0020001N1+02681+02391101391ADDAA124002091AY151061AY221061GF104991021021004501031001KA1240N+02291MA1999999100871MD1999999+0111MW1151REMSYN088AAXX  05124 82198 21495 40704 10268 20239 30087 40139 71552 82230 333 20229 58011 60024;
0137821980999992009070518004-01717-045400FM-12+004499999V0200501N003610450019N0020001N1+02781+02251101181ADDGF105991031021004501031011MA1999999100661MD1999999+0101REMSYN070AAXX  05184 82198 32495 50507 10278 20225 30066 40118 83231 333 58010;
0168821980999992009070600004-01717-045400FM-12+004499999V0200501N002112200019N0002001N1+02581+02311101321ADDGF104991011011004501031041KA1240M+03131MA1999999100801MD1999999+0081REMSYN088AAXX  06004 82198 32492 40504 10258 20231 30080 40132 81134 333 10313 29082 55063 58008;
0156821980999992009070612004-01717-045400FM-12+004499999V0200701N003112200019N0020001N1+02801+02501101381ADDGF102991011011004501001011KA1240N+02291MA1999999100861MD1999999-0011REMSYN076AAXX  06124 82198 32495 20706 10280 20250 30086 40138 81101 333 20229 59001;
0182821980999992009070618004-01717-045400FM-12+004499999V0200901N005110450019N0010001N1+02611+02251101191ADDAA106007991AY191061AY261061GF107991041071004501061001MA1999999100671MD1999999+0011MW1171REMSYN082AAXX  06184 82198 21494 70910 10261 20225 30067 40119 71796 84760 333 58001 60081;
0168821980999992009070700004-01717-045400FM-12+004499999V0200701N003112200019N0002001N1+02481+02291101341ADDGF104991021021004501041041KA1240M+03061MA1999999100821MD1999999+0021REMSYN088AAXX  07004 82198 32492 40706 10248 20229 30082 40134 82244 333 10306 29086 55036 58002;
0201821980999992009070712004-01717-045400FM-12+004499999V0200501N002112200019N0020001N1+02621+02411101441ADDAA124019191AY161061AY221061GF104991011011004501061001KA1240N+02141MA1999999100921MD1999999+0061MW1021REMSYN088AAXX  07124 82198 21495 40504 10262 20241 30092 40144 70262 81160 333 20214 58006 60194;
0182821980999992009070718004-01717-045400FM-12+004499999V0200501N001510450019N0010001N1+02561+02361101181ADDAA106002091AY161061AY221061GF107991031031004501061001MA1999999100661MD1999999-0011MW1021REMSYN082AAXX  07184 82198 21494 70503 10256 20236 30066 40118 70262 83360 333 59001 60021;
0168821980999992009070800004-01717-045400FM-12+004499999V0200501N001510450019N0002001N1+02561+02381101331ADDGF107991041031004501041001KA1240M+02981MA1999999100811MD1999999-0011REMSYN088AAXX  08004 82198 32492 70503 10256 20238 30081 40133 84340 333 10298 29089 55033 59001;
0201821980999992009070812004-01717-045400FM-12+004499999V0201101N003610450019N0020001N1+02701+02391101361ADDAA124005191AY161061AY221061GF106991031021004501061001KA1240N+02241MA1999999100841MD1999999-0081MW1021REMSYN088AAXX  08124 82198 21495 61107 10270 20239 30084 40136 70262 83260 333 20224 59008 60054;
0182821980999992009070818004-01717-045400FM-12+004499999V0201401N002110450019N0010001N1+02701+02391101151ADDAA106002091AY161061AY221061GF105991031021004501021001MA1999999100631MD1999999-0031MW1631REMSYN082AAXX  08184 82198 21494 51404 10270 20239 30063 40115 76362 83220 333 59003 60021;
0168821980999992009070900004-01717-045400FM-12+004499999V0200701N002112200019N0002001N1+02521+02311101321ADDGF102991021001012501061001KA1240M+03031MA1999999100801MD1999999-0011REMSYN088AAXX  09004 82198 32692 20704 10252 20231 30080 40132 82060 333 10303 29086 55073 59001;
0173821980999992009070912004-01717-045400FM-12+004499999V0200701N002610450019N0020001N1+02811+02441101381ADDAA124002091GF107991041021004501061001KA1240N+02161MA1999999100861MD1999999+0021REMSYN082AAXX  09124 82198 22495 70705 10281 20244 30086 40138 84260 333 20216 58002 60024;
0182821980999992009070918004-01717-045400FM-12+004499999V0200901N003610042019N0010001N1+03021+02261101071ADDAA106000891AY151061AY221061GF106991051021004501061001MA1999999100551MD1999999-0081MW1021REMSYN082AAXX  09184 82198 21494 60907 10302 20226 30055 40107 70252 85260 333 59008 69981;
0168821980999992009071000004-01717-045400FM-12+004499999V0200501N002112200019N0002001N1+02521+02311101281ADDGF102991021001012501061001KA1240M+03071MA1999999100761MD1999999-0041REMSYN088AAXX  10004 82198 32692 20504 10252 20231 30076 40128 82060 333 10307 29080 55057 59004;
0173821980999992009071012004-01717-045400FM-12+004499999V0200901N002610042019N0020001N1+02821+02481101301ADDAA124000891GF105991051021004501001001KA1240N+02121MA1999999100781MD1999999-0081REMSYN082AAXX  10124 82198 22495 50905 10282 20248 30078 40130 85200 333 20212 59008 69984;
0137821980999992009071018004-01717-045400FM-12+004499999V0200501N002110042019N0020001N1+03161+02391101041ADDGF106991061021004501001001MA1999999100531MD1999999-0021REMSYN070AAXX  10184 82198 32495 60504 10316 20239 30053 40104 86200 333 59002;
0178821980999992009071100004-01717-045400FM-12+004499999V0200701N001512200019N0002001N1+02581+02371101191ADDGA1001+999999999GF100991001001999999001001KA1240M+03221MA1999999100681MD1999999-0081REMSYN082AAXX  11004 82198 32992 00703 10258 20237 30068 40119 333 10322 29080 55081 59008;
0156821980999992009071112004-01717-045400FM-12+004499999V0200701N003112200019N0020001N1+02851+02441101341ADDGF103991031011004501001001KA1240N+02271MA1999999100831MD1999999+0051REMSYN076AAXX  11124 82198 32495 30706 10285 20244 30083 40134 83100 333 20227 58005;
0182821980999992009071118004-01717-045400FM-12+004499999V0200501N002110042019N0010001N1+02571+02331101241ADDAA106007991AY161061AY221061GF108991051051004501021001MA1999999100721MD1999999+0191MW1161REMSYN082AAXX  11184 82198 21494 80504 10257 20233 30072 40124 71662 85520 333 58019 60081;
0232821980999992009071200004-01717-045400FM-12+004499999V0201101N001510450019N0002001N1+02481+02381101321ADDAA106000091AY151061AY221061GF107991031041004501061001KA1240M+03161MA1999999100801MD1999999+0121MW1011REMSYN100AAXX  12004 82198 21492 71103 10248 20238 30080 40132 70152 83460 333 10316 29088 55046 58012 69911;EQDQ01  00002PRCP06
0173821980999992009071212004-01717-045400FM-12+004499999V0200701N003112200019N0020001N1+02871+02461101431ADDAA124007991GF104991041011004501001001KA1240N+02261MA1999999100911MD1999999+0081REMSYN082AAXX  12124 82198 22495 40706 10287 20246 30091 40143 84100 333 20226 58008 60084;
0182821980999992009071218004-01717-045400FM-12+004499999V0200701N003610042019N0020001N1+03071+02321101101ADDAA106001091AY161061AY221061GF105991051021004501001001MA1999999100581MD1999999-0141MW1021REMSYN082AAXX  12184 82198 21495 50707 10307 20232 30058 40110 70262 85200 333 59014 60011;
0168821980999992009071300004-01717-045400FM-12+004499999V0200501N001512200019N0002001N1+02581+02421101461ADDGF103991031001012501061001KA1240M+03171MA1999999100941MD1999999+0041REMSYN088AAXX  13004 82198 32692 30503 10258 20242 30094 40146 83060 333 10317 29081 55098 58004;
0173821980999992009071312004-01717-045400FM-12+004499999V0200701N003610450019N0020001N1+02881+02541101391ADDAA124001091GF106991041021004501041001KA1240N+02301MA1999999100871MD1999999-0041REMSYN082AAXX  13124 82198 22495 60707 10288 20254 30087 40139 84240 333 20230 59004 60014;
0137821980999992009071318004-01717-045400FM-12+004499999V0200901N003610450019N0020001N1+03101+02391101141ADDGF105991041021004501061001MA1999999100631MD1999999+0051REMSYN070AAXX  13184 82198 32495 50907 10310 20239 30063 40114 84260 333 58005;
0178821980999992009071400004-01717-045400FM-12+004499999V0200501N002112200019N0002001N1+02601+02391101371ADDGA1001+999999999GF100991001001999999001001KA1240M+03171MA1999999100861MD1999999+0021REMSYN082AAXX  14004 82198 32992 00504 10260 20239 30086 40137 333 10317 29081 55078 58002;
0156821980999992009071412004-01717-045400FM-12+004499999V0200701N004610042019N0010001N1+02941+02491101551ADDGF106991051021004501041001KA1240N+02311MA1999999101031MD1999999+0161REMSYN076AAXX  14124 82198 32494 60709 10294 20249 30103 40155 85240 333 20231 58016;
0182821980999992009071418004-01717-045400FM-12+004499999V0200701N002112200019N0020001N1+03021+02551101281ADDAA106007991AY191061AY261061GF104991041021004501001001MA1999999100761MD1999999+0131MW1021REMSYN082AAXX  14184 82198 21495 40704 10302 20255 30076 40128 70296 84200 333 58013 60081;
0178821980999992009071500004-01717-045400FM-12+004499999V0200701N002112200019N0002001N1+02561+02361101361ADDGA1001+999999999GF100991001001999999001001KA1240M+03151MA1999999100841MD1999999-0021REMSYN082AAXX  15004 82198 32992 00704 10256 20236 30084 40136 333 10315 29083 55073 59002;
0173821980999992009071512004-01717-045400FM-12+004499999V0200701N004110450019N0010001N1+02801+02461101471ADDAA124007991GF108991041051004501021999KA1240N+02341MA1999999100951MD1999999-0081REMSYN082AAXX  15124 82198 22494 80708 10280 20246 30095 40147 8452/ 333 20234 59008 60084;
0182821980999992009071518004-01717-045400FM-12+004499999V0200501N005110450019N0010001N1+02681+02331101191ADDAA106022191AY161061AY221061GF107991031031004501071001MA1999999100671MD1999999-0091MW1151REMSYN082AAXX  15184 82198 21494 70510 10268 20233 30067 40119 71562 83370 333 59009 60221;
0223821980999992009071600004-01717-045400FM-12+004499999V0200701N002112200019N0002001N1+02511+02361101291ADDAA106000591AY151061AY221061GA1001+999999999GF100991001001999999001001KA1240M+02971MA1999999100771MD1999999-0071MW1001REMSYN094AAXX  16004 82198 21992 00704 10251 20236 30077 40129 70052 333 10297 29086 55048 59007 69951;
0173821980999992009071612004-01717-045400FM-12+004499999V0201101N005112200019N0020001N1+02801+02311101411ADDAA124022191GF103991031021004501001001KA1240N+02091MA1999999100891MD1999999-0061REMSYN082AAXX  16124 82198 22495 31110 10280 20231 30089 40141 83200 333 20209 59006 60224;
0137821980999992009071618004-01717-045400FM-12+004499999V0201101N005112200019N0002001N1+03121+02251101131ADDGF104991041021004501001001MA1999999100611MD1999999-0061REMSYN070AAXX  16184 82198 32492 41110 10312 20225 30061 40113 84200 333 59006;
0178821980999992009071700004-01717-045400FM-12+004499999V0200901N002612200019N0002001N1+02581+02351101361ADDGA1001+999999999GF100991001001999999001001KA1240M+03171MA1999999100841MD1999999+0071REMSYN082AAXX  17004 82198 32992 00905 10258 20235 30084 40136 333 10317 29077 55098 58007;
0156821980999992009071712004-01717-045400FM-12+004499999V0200701N003110042019N0010001N1+02871+02521101401ADDGF107991051021004501061001KA1240N+02331MA1999999100881MD1999999-0011REMSYN076AAXX  17124 82198 32494 70706 10287 20252 30088 40140 85260 333 20233 59001;
0182821980999992009071718004-01717-045400FM-12+004499999V0200701N004610450019N0020001N1+02921+02451101251ADDAA106007191AY161061AY221061GF107991041031004501041001MA1999999100731MD1999999+0121MW1021REMSYN082AAXX  17184 82198 21495 70709 10292 20245 30073 40125 70262 84340 333 58012 60071;
0196821980999992009071800004-01717-045400FM-12+004499999V0201401N002110450019N0002001N1+02461+02261101481ADDAY121061AY221061GF107991041031004501061001KA1240M+03001MA1999999100961MD1999999+0121MW1131REMSYN094AAXX  18004 82198 31492 71404 10246 20226 30096 40148 71322 84360 333 10300 29084 55017 58012;
0201821980999992009071812004-01717-045400FM-12+004499999V0200701N003110450019N0020001N1+02861+02441101501ADDAA124007991AY161061AY221061GF105991031021004501061001KA1240N+02131MA1999999100981MD1999999+0101MW1021REMSYN088AAXX  18124 82198 21495 50706 10286 20244 30098 40150 70262 83260 333 20213 58010 60084;
0137821980999992009071818004-01717-045400FM-12+004499999V0200701N004110450019N0020001N1+03071+02321101121ADDGF105991041021004501061001MA1999999100601MD1999999-0131REMSYN070AAXX  18184 82198 32495 50708 10307 20232 30060 40112 84260 333 59013;
0223821980999992009071900004-01717-045400FM-12+004499999V0200501N002112200019N0002001N1+02571+02381101391ADDAA106001091AY161061AY221061GA1001+999999999GF100991001001999999001001KA1240M+03131MA1999999100871MD1999999-0091MW1001REMSYN094AAXX  19004 82198 21992 00504 10257 20238 30087 40139 70062 333 10313 29080 55089 59009 60011;
0173821980999992009071912004-01717-045400FM-12+004499999V0200701N004112200019N0020001N1+02891+02441101401ADDAA124001091GF105991041021004501001011KA1240N+02301MA1999999100881MD1999999-0101REMSYN082AAXX  19124 82198 22495 50708 10289 20244 30088 40140 84201 333 20230 59010 60014;
0137821980999992009071918004-01717-045400FM-12+004499999V0200701N004112200019N0020001N1+03221+02371101061ADDGF105991031021004501001011MA1999999100571MD1999999-0031REMSYN070AAXX  19184 82198 32495 50708 10322 20237 30057 40106 83201 333 59003;
0168821980999992009072000004-01717-045400FM-12+004499999V0200501N002612200019N0002001N1+02581+02381101341ADDGF103991031001012501061001KA1240M+03261MA1999999100821MD1999999-0051REMSYN088AAXX  20004 82198 32692 30505 10258 20238 30082 40134 83060 333 10326 29079 55095 59005;
0156821980999992009072012004-01717-045400FM-12+004499999V0200701N004112200019N0020001N1+02891+02461101381ADDGF103991031011004501001001KA1240N+02271MA1999999100871MD1999999-0011REMSYN076AAXX  20124 82198 32495 30708 10289 20246 30087 40138 83100 333 20227 59001;
0137821980999992009072018004-01717-045400FM-12+004499999V0203601N004112200019N0020001N1+03061+02351101061ADDGF103991031021004501001001MA1999999100541MD1999999-0031REMSYN070AAXX  20184 82198 32495 33608 10306 20235 30054 40106 83200 333 59003;
0178821980999992009072100004-01717-045400FM-12+004499999V0200701N003112200019N0002001N1+02491+02251101221ADDGA1001+999999999GF100991001001999999001001KA1240M+03241MA1999999100701MD1999999-0121REMSYN082AAXX  21004 82198 32992 00706 10249 20225 30070 40122 333 10324 29080 55102 59012;
0156821980999992009072112004-01717-045400FM-12+004499999V0200701N004612200019N0020001N1+02811+02341101241ADDGF104991041011004501001001KA1240N+02181MA1999999100731MD1999999+0141REMSYN076AAXX  21124 82198 32495 40709 10281 20234 30073 40124 84100 333 20218 58014;
0137821980999992009072118004-01717-045400FM-12+004499999V0200701N003610042019N0020001N1+03221+02371100911ADDGF105991051021004501001001MA1999999100401MD1999999-0141REMSYN070AAXX  21184 82198 32495 50707 10322 20237 30040 40091 85200 333 59014;
0178821980999992009072200004-01717-045400FM-12+004499999V0200501N003112200019N0002001N1+02601+02351101171ADDGA1001+999999999GF100991001001999999001001KA1240M+03281MA1999999100661MD1999999-0041REMSYN082AAXX  22004 82198 32992 00506 10260 20235 30066 40117 333 10328 29077 55093 59004;
0201821980999992009072212004-01717-045400FM-12+004499999V0200701N003610450019N0010001N1+02591+02461101361ADDAA124006191AY161061AY251061GF106991031051004501021001KA1240N+02281MA1999999100841MD1999999+0111MW1631REMSYN088AAXX  22124 82198 21494 60707 10259 20246 30084 40136 76365 83520 333 20228 58011 60064;
0137821980999992009072218004-01717-045400FM-12+004499999V0200701N005110042019N0010001N1+02991+02331101061ADDGF105991051021004501001001MA1999999100541MD1999999+0141REMSYN070AAXX  22184 82198 32494 50710 10299 20233 30054 40106 85200 333 58014;
0178821980999992009072300004-01717-045400FM-12+004499999V0200501N002612200019N0002001N1+02601+02291101271ADDGA1001+999999999GF100991001001999999001001KA1240M+03081MA1999999100751MD1999999+0091REMSYN082AAXX  23004 82198 32992 00505 10260 20229 30075 40127 333 10308 29082 55083 58009;
0156821980999992009072312004-01717-045400FM-12+004499999V0200501N003110042019N0020001N1+02801+02441101371ADDGF106991061021004501001001KA1240N+02371MA1999999100861MD1999999+0021REMSYN076AAXX  23124 82198 32495 60506 10280 20244 30086 40137 86200 333 20237 58002;
0182821980999992009072318004-01717-045400FM-12+004499999V0200201N004610450019N0020001N1+02891+02351101031ADDAA106001091AY161061AY221061GF105991041021004501061001MA1999999100511MD1999999-0021MW1021REMSYN082AAXX  23184 82198 21495 50209 10289 20235 30051 40103 70262 84260 333 59002 60011;
0178821980999992009072400004-01717-045400FM-12+004499999V0200501N002612200019N0002001N1+02591+02331101181ADDGA1001+999999999GF100991001001999999001001KA1240M+03021MA1999999100661MD1999999-0091REMSYN082AAXX  24004 82198 32992 00505 10259 20233 30066 40118 333 10302 29082 55075 59009;
0201821980999992009072412004-01717-045400FM-12+004499999V0201401N001512200019N0020001N1+02601+02401999999ADDAA124009991AY161061AY221061GF104991041021004501001001KA1240N+02231MA1999999100841MD1999999-0021MW1021REMSYN088AAXX  24124 82198 21495 41403 10260 20240 30084 44010 70262 84200 333 20223 59002 60104;
0182821980999992009072418004-01717-045400FM-12+004499999V0200701N004110450019N0020001N1+02951+02311101071ADDAA106006191AY161061AY251061GF106991041021004501061001MA1999999100551MD1999999+0041MW1021REMSYN082AAXX  24184 82198 21495 60708 10295 20231 30055 40107 70265 84260 333 58004 60061;
0223821980999992009072500004-01717-045400FM-12+004499999V0200501N002112200019N0002001N1+02451+02321101271ADDAA106007191AY161061AY221061GA1001+999999999GF100991001001999999001001KA1240M+03041MA1999999100751MD1999999+0091MW1001REMSYN094AAXX  25004 82198 21992 00504 10245 20232 30075 40127 70062 333 10304 29086 55050 58009 60071;
0173821980999992009072512004-01717-045400FM-12+004499999V0200701N005110042019N0020001N1+02811+02341101381ADDAA124010991GF105991051021004501001001KA1240N+02261MA1999999100861MD1999999+0041REMSYN082AAXX  25124 82198 22495 50710 10281 20234 30086 40138 85200 333 20226 58004 60114;
0137821980999992009072518004-01717-045400FM-12+004499999V0200901N004112200019N0020001N1+03081+02131101151ADDGF103991031021004501001001MA1999999100641MD1999999+0091REMSYN070AAXX  25184 82198 32495 30908 10308 20213 30064 40115 83200 333 58009;
0178821980999992009072600004-01717-045400FM-12+004499999V0200701N002112200019N0002001N1+02561+02331101291ADDGA1001+999999999GF100991001001999999001001KA1240M+03141MA1999999100781MD1999999+0031REMSYN082AAXX  26004 82198 32992 00704 10256 20233 30078 40129 333 10314 29077 55101 58003;
0156821980999992009072612004-01717-045400FM-12+004499999V0200701N003112200019N0020001N1+02891+02501101351ADDGF103991031011004501001001KA1240N+02271MA1999999100841MD1999999-0021REMSYN076AAXX  26124 82198 32495 30706 10289 20250 30084 40135 83100 333 20227 59002;
0137821980999992009072618004-01717-045400FM-12+004499999V0200901N003112200019N0020001N1+03191+02281101171ADDGF104991041021004501001001MA1999999100661MD1999999+0021REMSYN070AAXX  26184 82198 32495 40906 10319 20228 30066 40117 84200 333 58002;
0178821980999992009072700004-01717-045400FM-12+004499999V0200701N002612200019N0002001N1+02601+02351101361ADDGA1001+999999999GF100991001001999999001001KA1240M+03231MA1999999100851MD1999999+0071REMSYN082AAXX  27004 82198 32992 00705 10260 20235 30085 40136 333 10323 29078 55099 58007;
0156821980999992009072712004-01717-045400FM-12+004499999V0200501N002612200019N0020001N1+02891+02521101481ADDGF104991041011004501001001KA1240N+02231MA1999999100961MD1999999+0121REMSYN076AAXX  27124 82198 32495 40505 10289 20252 30096 40148 84100 333 20223 58012;
0137821980999992009072718004-01717-045400FM-12+004499999V0200201N003110042019N0020001N1+03021+02261101141ADDGF105991051021004501001001MA1999999100631MD1999999-0031REMSYN070AAXX  27184 82198 32495 50206 10302 20226 30063 40114 85200 333 59003;
0168821980999992009072800004-01717-045400FM-12+004499999V0200501N002112200019N0002001N1+02621+02411101351ADDGF103991031011004501001001KA1240M+03221MA1999999100841MD1999999-0011REMSYN088AAXX  28004 82198 32492 30504 10262 20241 30084 40135 83100 333 10322 29080 55094 59001;
0173821980999992009072912004-01717-045400FM-12+004499999V0200501N002612200019N0020001N1+02841+02461101391ADDAA124004191GF104991041021004501001001KA1240N+02311MA1999999100881MD1999999+0041REMSYN082AAXX  29124 82198 22495 40505 10284 20246 30088 40139 84200 333 20231 58004 60044;
0182821980999992009072918004-01717-045400FM-12+004499999V0200501N003110042019N0020001N1+02961+02471101081ADDAA106000891AY151061AY221061GF105991051021004501001001MA1999999100561MD1999999-0011MW1021REMSYN082AAXX  29184 82198 21495 50506 10296 20247 30056 40108 70252 85200 333 59001 69971;
0168821980999992009073000004-01717-045400FM-12+004499999V0200701N002112200019N0002001N1+02581+02441101351ADDGF102991021001012501061001KA1240M+03041MA1999999100831MD1999999+0001REMSYN088AAXX  30004 82198 32692 20704 10258 20244 30083 40135 82060 333 10304 29085 55078 58000;
0173821980999992009073012004-01717-045400FM-12+004499999V0200201N003610042019N0020001N1+02861+02441101371ADDAA124000891GF105991051021004501001001KA1240N+02301MA1999999100861MD1999999-0021REMSYN082AAXX  30124 82198 22495 50207 10286 20244 30086 40137 85200 333 20230 59002 69974;
0156821980999992009073112004-01717-045400FM-12+004499999V0200701N003610042019N0020001N1+02881+02391101441ADDGF105991051021004501001001KA1240N+02311MA1999999100921MD1999999+0061REMSYN076AAXX  31124 82198 32495 50707 10288 20239 30092 40144 85200 333 20231 58006;
0137821980999992009073118004-01717-045400FM-12+004499999V0200701N004612200019N0020001N1+03061+02271101151ADDGF103991031021004501001001MA1999999100641MD1999999+0041REMSYN070AAXX  31184 82198 32495 30709 10306 20227 30064 40115 83200 333 58004;
0168821980999992009080100004-01717-045400FM-12+004499999V0200701N002112200019N0002001N1+02561+02361101421ADDGF102991021001012501061001KA1240M+03181MA1999999100901MD1999999+0061REMSYN088AAXX  01004 82198 32692 20704 10256 20236 30090 40142 82060 333 10318 29079 55096 58006;
0156821980999992009080112004-01717-045400FM-12+004499999V0200901N003610042019N0020001N1+02811+02381101451ADDGF106991061021004501001001KA1240N+02301MA1999999100931MD1999999+0011REMSYN076AAXX  01124 82198 32495 60907 10281 20238 30093 40145 86200 333 20230 58001;
0137821980999992009080118004-01717-045400FM-12+004499999V0200701N005112200019N0020001N1+03101+02261101131ADDGF104991041021004501001001MA1999999100621MD1999999-0021REMSYN070AAXX  01184 82198 32495 40710 10310 20226 30062 40113 84200 333 59002;
0178821980999992009080200004-01717-045400FM-12+004499999V0200501N002112200019N0002001N1+02581+02371101341ADDGA1001+999999999GF100991001001999999001001KA1240M+03171MA1999999100821MD1999999-0081REMSYN082AAXX  02004 82198 32992 00504 10258 20237 30082 40134 333 10317 29079 55091 59008;
0137821980999992009080218004-01717-045400FM-12+004499999V0200901N004610042019N0020001N1+03081+02291101141ADDGF105991051021004501001001MA1999999100631MD1999999+0011REMSYN070AAXX  02184 82198 32495 50909 10308 20229 30063 40114 85200 333 58001;
0178821980999992009080300004-01717-045400FM-12+004499999V0200501N002612200019N0002001N1+02581+02381101421ADDGA1001+999999999GF100991001001999999001001KA1240M+03231MA1999999100901MD1999999+0081REMSYN082AAXX  03004 82198 32992 00505 10258 20238 30090 40142 333 10323 29080 55092 58008;
0156821980999992009080312004-01717-045400FM-12+004499999V0200701N003112200019N0020001N1+02971+02581101471ADDGF103991021011004501061001KA1240N+02261MA1999999100951MD1999999+0011REMSYN076AAXX  03124 82198 32495 30706 10297 20258 30095 40147 82160 333 20226 58001;
0182821980999992009080318004-01717-045400FM-12+004499999V0201401N002110450019N0010001N1+02521+02431101191ADDAA106006191AY161061AY221061GF106991041031004501041001MA1999999100671MD1999999+0041MW1211REMSYN082AAXX  03184 82198 21494 61404 10252 20243 30067 40119 72162 84340 333 58004 60061;
0213821980999992009080400004-01717-045400FM-12+004499999V0200501N002110450019N0002001N1+02521+02381101381ADDAA106000891AY151061AY221061GF105991021011004501031001KA1240M+03121MA1999999100861MD1999999-0041MW1021REMSYN100AAXX  04004 82198 21492 50504 10252 20238 30086 40138 70252 82130 333 10312 29090 55053 59004 69971;
0173821980999992009080412004-01717-045400FM-12+004499999V0200701N005710042019N0020001N1+02901+02431101371ADDAA124007191GF105991051021004501001001KA1240N+02301MA1999999100861MD1999999-0091REMSYN082AAXX  04124 82198 22495 50711 10290 20243 30086 40137 85200 333 20230 59009 60074;
0137821980999992009080418004-01717-045400FM-12+004499999V0200901N005112200019N0020001N1+03101+02291101011ADDGF104991041021004501001001MA1999999100501MD1999999-0111REMSYN070AAXX  04184 82198 32495 40910 10310 20229 30050 40101 84200 333 59011;
0178821980999992009080500004-01717-045400FM-12+004499999V0200701N003112200019N0002001N1+02541+02311101271ADDGA1001+999999999GF100991001001999999001001KA1240M+03181MA1999999100761MD1999999-0101REMSYN082AAXX  05004 82198 32992 00706 10254 20231 30076 40127 333 10318 29078 55095 59010;
0156821980999992009080512004-01717-045400FM-12+004499999V0200701N003110450019N0020001N1+02721+02441101391ADDGF106991041021004501061001KA1240N+02261MA1999999100871MD1999999+0011REMSYN076AAXX  05124 82198 32495 60706 10272 20244 30087 40139 84260 333 20226 58001;
0182821980999992009080518004-01717-045400FM-12+004499999V0200701N004610042019N0020001N1+03061+02301101031ADDAA106001091AY161061AY221061GF105991051021004501001001MA1999999100521MD1999999-0041MW1021REMSYN082AAXX  05184 82198 21495 50709 10306 20230 30052 40103 70262 85200 333 59004 60011;
0168821980999992009080600004-01717-045400FM-12+004499999V0200701N003112200019N0002001N1+02561+02351101291ADDGF102991011021004501061001KA1240M+03131MA1999999100771MD1999999+0011REMSYN088AAXX  06004 82198 32492 20706 10256 20235 30077 40129 81260 333 10313 29080 55076 58001;
0173821980999992009080612004-01717-045400FM-12+004499999V0200701N004610042019N0020001N1+02881+02321101331ADDAA124001091GF106991061011004501001001KA1240N+02231MA1999999100821MD1999999-0051REMSYN082AAXX  06124 82198 22495 60709 10288 20232 30082 40133 86100 333 20223 59005 60014;
0137821980999992009080618004-01717-045400FM-12+004499999V0200901N005112200019N0020001N1+03061+02221101061ADDGF103991031021004501001001MA1999999100551MD1999999+0031REMSYN070AAXX  06184 82198 32495 30910 10306 20222 30055 40106 83200 333 58003;
0178821980999992009080700004-01717-045400FM-12+004499999V0200701N003112200019N0002001N1+02581+02331101321ADDGA1001+999999999GF100991001001999999001001KA1240M+03191MA1999999100811MD1999999+0041REMSYN082AAXX  07004 82198 32992 00706 10258 20233 30081 40132 333 10319 29076 55094 58004;
0156821980999992009080712004-01717-045400FM-12+004499999V0200701N004110042019N0020001N1+02901+02431101441ADDGF105991051011004501001001KA1240N+02311MA1999999100921MD1999999+0101REMSYN076AAXX  07124 82198 32495 50708 10290 20243 30092 40144 85100 333 20231 58010;
0137821980999992009080718004-01717-045400FM-12+004499999V0201101N003612200019N0020001N1+03141+02181101081ADDGF104991041021004501001001MA1999999100571MD1999999+0021REMSYN070AAXX  07184 82198 32495 41107 10314 20218 30057 40108 84200 333 58002;
0178821980999992009080800004-01717-045400FM-12+004499999V0200201N001512200019N0002001N1+02621+02371101281ADDGA1001+999999999GF100991001001999999001001KA1240M+03201MA1999999100761MD1999999-0051REMSYN082AAXX  08004 82198 32992 00203 10262 20237 30076 40128 333 10320 29076 55093 59005;
0201821980999992009080812004-01717-045400FM-12+004499999V0200901N002110450019N0010001N1+02431+02351101501ADDAA124002091AY161061AY221061GF107991031031004501041001KA1240N+02181MA1999999100981MD1999999+0061MW1521REMSYN088AAXX  08124 82198 21494 70904 10243 20235 30098 40150 75262 83340 333 20218 58006 60024;
0182821980999992009080818004-01717-045400FM-12+004499999V0200901N005112200019N0020001N1+02841+02381101181ADDAA106007991AY161061AY221061GF104991031021004501041001MA1999999100661MD1999999+0091MW1011REMSYN082AAXX  08184 82198 21495 40910 10284 20238 30066 40118 70162 83240 333 58009 60081;
0168821980999992009080900004-01717-045400FM-12+004499999V0200701N001512200019N0002001N1+02521+02271101401ADDGF102991021001012501061001KA1240M+02941MA1999999100881MD1999999+0121REMSYN088AAXX  09004 82198 32692 20703 10252 20227 30088 40140 82060 333 10294 29086 55033 58012;
0173821980999992009080912004-01717-045400FM-12+004499999V0200701N004110042019N0020001N1+02861+02371101481ADDAA124007991GF105991051011004501001001KA1240N+02281MA1999999100961MD1999999-0021REMSYN082AAXX  09124 82198 22495 50708 10286 20237 30096 40148 85100 333 20228 59002 60084;
0137821980999992009080918004-01717-045400FM-12+004499999V0200901N004112200019N0020001N1+03041+02231101221ADDGF103991031021004501001001MA1999999100711MD1999999+0051REMSYN070AAXX  09184 82198 32495 30908 10304 20223 30071 40122 83200 333 58005;
0178821980999992009081000004-01717-045400FM-12+004499999V0200501N001512200019N0002001N1+02541+02311101441ADDGA1001+999999999GF100991001001999999001001KA1240M+03161MA1999999100931MD1999999+0051REMSYN082AAXX  10004 82198 32992 00503 10254 20231 30093 40144 333 10316 29078 55097 58005;
0156821980999992009081012004-01717-045400FM-12+004499999V0200701N002110042019N0020001N1+02881+02411101461ADDGF105991051021004501001001KA1240N+02241MA1999999100941MD1999999-0021REMSYN076AAXX  10124 82198 32495 50704 10288 20241 30094 40146 85200 333 20224 59002;
0137821980999992009081018004-01717-045400FM-12+004499999V0201401N001512200019N0020001N1+03251+02331101111ADDGF104991041021004501001001MA1999999100601MD1999999-0111REMSYN070AAXX  10184 82198 32495 41403 10325 20233 30060 40111 84200 333 59011;
0178821980999992009081100004-01717-045400FM-12+004499999V0200701N002112200019N0002001N1+02621+02411101371ADDGA1001+999999999GF100991001001999999001001KA1240M+03391MA1999999100861MD1999999-0071REMSYN082AAXX  11004 82198 32992 00704 10262 20241 30086 40137 333 10339 29078 55087 59007;
0156821980999992009081112004-01717-045400FM-12+004499999V0200501N003110042019N0020001N1+02921+02431101431ADDGF106991061021004501001001KA1240N+02361MA1999999100911MD1999999-0031REMSYN076AAXX  11124 82198 32495 60506 10292 20243 30091 40143 86200 333 20236 59003;
0137821980999992009081118004-01717-045400FM-12+004499999V0200701N003110042019N0020001N1+02971+02371101121ADDGF105991051021004501001001MA1999999100601MD1999999+0001REMSYN070AAXX  11184 82198 32495 50706 10297 20237 30060 40112 85200 333 58000;
0178821980999992009081200004-01717-045400FM-12+004499999V0200701N003112200019N0002001N1+02601+02391101351ADDGA1001+999999999GF100991001001999999001001KA1240M+03201MA1999999100831MD1999999-0031REMSYN082AAXX  12004 82198 32992 00706 10260 20239 30083 40135 333 10320 29080 55083 59003;
0156821980999992009081212004-01717-045400FM-12+004499999V0200701N005110042019N0020001N1+02941+02401101491ADDGF106991051021004501061001KA1240N+02361MA1999999100971MD1999999+0061REMSYN076AAXX  12124 82198 32495 60710 10294 20240 30097 40149 85260 333 20236 58006;
0182821980999992009081218004-01717-045400FM-12+004499999V0200701N002110042019N0010001N1+02971+02491101191ADDAA106000891AY151061AY221061GF106991051021004501061001MA1999999100671MD1999999+0071MW1021REMSYN082AAXX  12184 82198 21494 60704 10297 20249 30067 40119 70252 85260 333 58007 69981;
0178821980999992009081300004-01717-045400FM-12+004499999V0200701N002612200019N0002001N1+02581+02401101381ADDGA1001+999999999GF100991001001999999001001KA1240M+03171MA1999999100861MD1999999+0031REMSYN082AAXX  13004 82198 32992 00705 10258 20240 30086 40138 333 10317 29082 55068 58003;
0173821980999992009081312004-01717-045400FM-12+004499999V0200701N003110042019N0010001N1+02891+02441101461ADDAA124000891GF106991061021004501001001KA1240N+02141MA1999999100941MD1999999-0031REMSYN082AAXX  13124 82198 22494 60706 10289 20244 30094 40146 86200 333 20214 59003 69984;
0137821980999992009081318004-01717-045400FM-12+004499999V0200901N004610042019N0020001N1+03121+02301101081ADDGF105991051021004501001001MA1999999100571MD1999999-0101REMSYN070AAXX  13184 82198 32495 50909 10312 20230 30057 40108 85200 333 59010;
0178821980999992009081400004-01717-045400FM-12+004499999V0200501N002112200019N0002001N1+02601+02391101261ADDGA1001+999999999GF100991001001999999001001KA1240M+03191MA1999999100751MD1999999-0111REMSYN082AAXX  14004 82198 32992 00504 10260 20239 30075 40126 333 10319 29079 55092 59011;
0156821980999992009081412004-01717-045400FM-12+004499999V0200701N003612200019N0020001N1+02861+02371101361ADDGF104991041011004501001001KA1240N+02321MA1999999100841MD1999999-0101REMSYN076AAXX  14124 82198 32495 40707 10286 20237 30084 40136 84100 333 20232 59010;
0165821980999992009081418004-01717-045400FM-12+004499999V0203601N003610042019N0020001N1+03071+02221100991ADDAY121061AY221061GF105991051021004501001001MA1999999100481MD1999999-0091MW1151REMSYN076AAXX  14184 82198 31495 53607 10307 20222 30048 40099 71522 85200 333 59009;
0178821980999992009081500004-01717-045400FM-12+004499999V0200701N002612200019N0002001N1+02611+02331101151ADDGA1001+999999999GF100991001001999999001001KA1240M+03271MA1999999100641MD1999999-0111REMSYN082AAXX  15004 82198 32992 00705 10261 20233 30064 40115 333 10327 29077 55091 59011;
0156821980999992009081512004-01717-045400FM-12+004499999V0200501N003612200019N0020001N1+02841+02421101231ADDGF104991041021004501001001KA1240N+02321MA1999999100721MD1999999-0121REMSYN076AAXX  15124 82198 32495 40507 10284 20242 30072 40123 84200 333 20232 59012;
0182821980999992009081518004-01717-045400FM-12+004499999V0200701N004610042019N0020001N1+03041+02361100901ADDAA106011991AY161061AY221061GF105991051021004501001001MA1999999100391MD1999999-0091MW1211REMSYN082AAXX  15184 82198 21495 50709 10304 20236 30039 40090 72162 85200 333 59009 60121;
0178821980999992009081600004-01717-045400FM-12+004499999V0200501N002112200019N0002001N1+02571+02391101141ADDGA1001+999999999GF100991001001999999001001KA1240M+03121MA1999999100631MD1999999-0011REMSYN082AAXX  16004 82198 32992 00504 10257 20239 30063 40114 333 10312 29080 55084 59001;
0173821980999992009081612004-01717-045400FM-12+004499999V0200701N004110450019N0020001N1+02851+02381101211ADDAA124011991GF105991031021004501061001KA1240N+02291MA1999999100701MD1999999-0021REMSYN082AAXX  16124 82198 22495 50708 10285 20238 30070 40121 83260 333 20229 59002 60124;
0137821980999992009081618004-01717-045400FM-12+004499999V0201101N004112200019N0020001N1+03161+02261100871ADDGF104991041021004501001001MA1999999100361MD1999999-0031REMSYN070AAXX  16184 82198 32495 41108 10316 20226 30036 40087 84200 333 59003;
0178821980999992009081700004-01717-045400FM-12+004499999V0200501N003112200019N0002001N1+02621+02331101151ADDGA1001+999999999GF100991001001999999001001KA1240M+03211MA1999999100641MD1999999+0011REMSYN082AAXX  17004 82198 32992 00506 10262 20233 30064 40115 333 10321 29076 55101 58001;
0156821980999992009081712004-01717-045400FM-12+004499999V0200701N004110450019N0010001N1+02741+02471101241ADDGF106991031021004501061001KA1240N+02271MA1999999100721MD1999999+0021REMSYN076AAXX  17124 82198 32494 60708 10274 20247 30072 40124 83260 333 20227 58002;
0137821980999992009081718004-01717-045400FM-12+004499999V0200901N004112200019N0020001N1+03201+02271100931ADDGF104991031021004501001011MA1999999100421MD1999999+0061REMSYN070AAXX  17184 82198 32495 40908 10320 20227 30042 40093 83201 333 58006;
0178821980999992009081800004-01717-045400FM-12+004499999V0200501N003612200019N0002001N1+02591+02331101161ADDGA1001+999999999GF100991001001999999001001KA1240M+03271MA1999999100651MD1999999+0011REMSYN082AAXX  18004 82198 32992 00507 10259 20233 30065 40116 333 10327 29078 55099 58001;
0156821980999992009081812004-01717-045400FM-12+004499999V0200701N005110042019N0020001N1+02951+02421101241ADDGF106991061021004501001001KA1240N+02281MA1999999100731MD1999999+0011REMSYN076AAXX  18124 82198 32495 60710 10295 20242 30073 40124 86200 333 20228 58001;
0137821980999992009081818004-01717-045400FM-12+004499999V0200701N004612200019N0020001N1+03101+02341100971ADDGF104991041021004501001001MA1999999100461MD1999999+0041REMSYN070AAXX  18184 82198 32495 40709 10310 20234 30046 40097 84200 333 58004;
0178821980999992009081900004-01717-045400FM-12+004499999V0200501N003612200019N0002001N1+02561+02311101171ADDGA1001+999999999GF100991001001999999001001KA1240M+03181MA1999999100661MD1999999+0011REMSYN082AAXX  19004 82198 32992 00507 10256 20231 30066 40117 333 10318 29077 55085 58001;
0156821980999992009081912004-01717-045400FM-12+004499999V0200501N005710042019N0020001N1+02911+02321101191ADDGF106991061021004501001001KA1240N+02311MA1999999100681MD1999999-0051REMSYN076AAXX  19124 82198 32495 60511 10291 20232 30068 40119 86200 333 20231 59005;
0137821980999992009081918004-01717-045400FM-12+004499999V0200501N003612200019N0020001N1+03171+02331100941ADDGF103991031021004501001001MA1999999100431MD1999999-0031REMSYN070AAXX  19184 82198 32495 30507 10317 20233 30043 40094 83200 333 59003;
0178821980999992009082000004-01717-045400FM-12+004499999V0200501N002612200019N0002001N1+02561+02331101151ADDGA1001+999999999GF100991001001999999001001KA1240M+03281MA1999999100641MD1999999-0021REMSYN082AAXX  20004 82198 32992 00505 10256 20233 30064 40115 333 10328 29076 55099 59002;
0156821980999992009082012004-01717-045400FM-12+004499999V0200501N004110042019N0020001N1+02801+02311101251ADDGF106991061021004501001001KA1240N+02261MA1999999100731MD1999999+0051REMSYN076AAXX  20124 82198 32495 60508 10280 20231 30073 40125 86200 333 20226 58005;
0137821980999992009082018004-01717-045400FM-12+004499999V0203601N004610042019N0020001N1+03081+02321100961ADDGF105991051021004501001001MA1999999100451MD1999999+0021REMSYN070AAXX  20184 82198 32495 53609 10308 20232 30045 40096 85200 333 58002;
0178821980999992009082100004-01717-045400FM-12+004499999V0200501N003112200019N0002001N1+02591+02371101151ADDGA1001+999999999GF100991001001999999001001KA1240M+03281MA1999999100641MD1999999+0001REMSYN082AAXX  21004 82198 32992 00506 10259 20237 30064 40115 333 10328 29079 55097 58000;
0156821980999992009082112004-01717-045400FM-12+004499999V0200701N003610042019N0020001N1+02891+02391101251ADDGF106991061021004501001001KA1240N+02291MA1999999100741MD1999999+0011REMSYN076AAXX  21124 82198 32495 60707 10289 20239 30074 40125 86200 333 20229 58001;
0137821980999992009082118004-01717-045400FM-12+004499999V0200701N003612200019N0020001N1+03191+02441100871ADDGF104991041021004501001001MA1999999100361MD1999999-0091REMSYN070AAXX  21184 82198 32495 40707 10319 20244 30036 40087 84200 333 59009;
0178821980999992009082200004-01717-045400FM-12+004499999V0200501N003612200019N0002001N1+02621+02371101071ADDGA1001+999999999GF100991001001999999001001KA1240M+03241MA1999999100561MD1999999-0081REMSYN082AAXX  22004 82198 32992 00507 10262 20237 30056 40107 333 10324 29078 55086 59008;
0156821980999992009082212004-01717-045400FM-12+004499999V0200701N004610450019N0020001N1+02911+02431101131ADDGF105991041021004501061001KA1240N+02351MA1999999100621MD1999999-0121REMSYN076AAXX  22124 82198 32495 50709 10291 20243 30062 40113 84260 333 20235 59012;
0137821980999992009082218004-01717-045400FM-12+004499999V0200501N003612200019N0010001N1+03061+02451100861ADDGF104991041021004501001001MA1999999100351MD1999999-0011REMSYN070AAXX  22184 82198 32494 40507 10306 20245 30035 40086 84200 333 59001;
0178821980999992009082300004-01717-045400FM-12+004499999V0200501N003112200019N0002001N1+02631+02331101091ADDGA1001+999999999GF100991001001999999001001KA1240M+03161MA1999999100581MD1999999+0021REMSYN082AAXX  23004 82198 32992 00506 10263 20233 30058 40109 333 10316 29078 55071 58002;
0156821980999992009082312004-01717-045400FM-12+004499999V0200701N005110450019N0020001N1+02831+02361101221ADDGF106991041021004501061001KA1240N+02361MA1999999100711MD1999999+0111REMSYN076AAXX  23124 82198 32495 60710 10283 20236 30071 40122 84260 333 20236 58011;
0201821980999992009082318004-01717-045400FM-12+004499999V0200701N005110450019N0020001N1+03061+02331100971ADDAA106000091AY151061AY221061GF105991031021004501061001MA1999999100461MD1999999+0111MW1021REMSYN082AAXX  23184 82198 21495 50710 10306 20233 30046 40097 70252 83260 333 58011 69921;EQDQ01  00002PRCP06
0192821980999992009082412004-01717-045400FM-12+004499999V0200701N005710042019N0010001N1+02851+02481101221ADDAA124000091GF106991061021004501001001KA1240N+02391MA1999999100711MD1999999+0011REMSYN082AAXX  24124 82198 22494 60711 10285 20248 30071 40122 86200 333 20239 58001 69924;EQDQ01  00002PRCP24
0137821980999992009082418004-01717-045400FM-12+004499999V0200701N004610042019N0020001N1+03121+02281101021ADDGF105991051021004501001001MA1999999100511MD1999999+0051REMSYN070AAXX  24184 82198 32495 50709 10312 20228 30051 40102 85200 333 58005;
0168821980999992009082500004-01717-045400FM-12+004499999V0200501N002112200019N0002001N1+02521+02271101181ADDGF103991031021004501001001KA1240M+03211MA1999999100671MD1999999+0031REMSYN088AAXX  25004 82198 32492 30504 10252 20227 30067 40118 83200 333 10321 29078 55089 58003;
0156821980999992009082512004-01717-045400FM-12+004499999V0200501N004110450019N0010001N1+02811+02341101271ADDGF106991031021004501061001KA1240N+02321MA1999999100751MD1999999+0031REMSYN076AAXX  25124 82198 32494 60508 10281 20234 30075 40127 83260 333 20232 58003;
0182821980999992009082518004-01717-045400FM-12+004499999V0203601N004610450019N0020001N1+02961+02331101001ADDAA106000391AY151061AY221061GF106991031021004501061001MA1999999100491MD1999999-0021MW1021REMSYN082AAXX  25184 82198 21495 63609 10296 20233 30049 40100 70252 83260 333 59002 69931;
0178821980999992009082600004-01717-045400FM-12+004499999V0200701N003112200019N0002001N1+02571+02351101171ADDGA1001+999999999GF100991001001999999001001KA1240M+03231MA1999999100661MD1999999-0011REMSYN082AAXX  26004 82198 32992 00706 10257 20235 30066 40117 333 10323 29079 55089 59001;
0173821980999992009082612004-01717-045400FM-12+004499999V0200501N004610450019N0020001N1+02811+02361101241ADDAA124000391GF106991031051004501061001KA1240N+02341MA1999999100721MD1999999-0031REMSYN082AAXX  26124 82198 22495 60509 10281 20236 30072 40124 83560 333 20234 59003 69934;
0137821980999992009082618004-01717-045400FM-12+004499999V0200701N003112200019N0020001N1+03201+02411101011ADDGF104991031021004501001011MA1999999100501MD1999999+0011REMSYN070AAXX  26184 82198 32495 40706 10320 20241 30050 40101 83201 333 58001;
0196821980999992009082700004-01717-045400FM-12+004499999V0200701N003112200019N0002001N1+02621+02411101341ADDAY121061AY211061GF102991011001017501031011KA1240M+03261MA1999999100821MD1999999+0161MW1131REMSYN094AAXX  27004 82198 31792 20706 10262 20241 30082 40134 71321 81031 333 10326 29079 55092 58016;
0156821980999992009082712004-01717-045400FM-12+004499999V0200501N004610450019N0020001N1+02861+02461101461ADDGF106991041021004501061001KA1240N+02431MA1999999100941MD1999999+0021REMSYN076AAXX  27124 82198 32495 60509 10286 20246 30094 40146 84260 333 20243 58002;
0137821980999992009082718004-01717-045400FM-12+004499999V0200501N005710450019N0020001N1+03101+02311101211ADDGF105991041021004501061001MA1999999100701MD1999999+0201REMSYN070AAXX  27184 82198 32495 50511 10310 20231 30070 40121 84260 333 58020;
0168821980999992009082800004-01717-045400FM-12+004499999V0200501N002612200019N0002001N1+02571+02351101431ADDGF101991011001022501001011KA1240M+03181MA1999999100911MD1999999+0091REMSYN088AAXX  28004 82198 32892 10505 10257 20235 30091 40143 81001 333 10318 29078 55086 58009;
0156821980999992009082812004-01717-045400FM-12+004499999V0200501N002610450019N0020001N1+02811+02291101441ADDGF106991041021004501061001KA1240N+02341MA1999999100921MD1999999-0021REMSYN076AAXX  28124 82198 32495 60505 10281 20229 30092 40144 84260 333 20234 59002;
0137821980999992009082818004-01717-045400FM-12+004499999V0203601N003610042019N0020001N1+03001+02371101191ADDGF105991051021004501001001MA1999999100681MD1999999-0021REMSYN070AAXX  28184 82198 32495 53607 10300 20237 30068 40119 85200 333 59002;
0168821980999992009082900004-01717-045400FM-12+004499999V0200501N002612200019N0002001N1+02581+02331101361ADDGF101991011011004501001001KA1240M+03181MA1999999100841MD1999999-0071REMSYN088AAXX  29004 82198 32492 10505 10258 20233 30084 40136 81100 333 10318 29079 55091 59007;
0156821980999992009082912004-01717-045400FM-12+004499999V0200701N003610042019N0020001N1+02831+02361101341ADDGF105991051021004501001001KA1240N+02311MA1999999100821MD1999999-0101REMSYN076AAXX  29124 82198 32495 50707 10283 20236 30082 40134 85200 333 20231 59010;
0137821980999992009082918004-01717-045400FM-12+004499999V0200501N004610042019N0020001N1+03161+02391101031ADDGF105991051021004501001001MA1999999100521MD1999999-0161REMSYN070AAXX  29184 82198 32495 50509 10316 20239 30052 40103 85200 333 59016;
0168821980999992009083000004-01717-045400FM-12+004499999V0200501N002112200019N0002001N1+02601+02371101171ADDGF102991021001022501001011KA1240M+03331MA1999999100661MD1999999-0181REMSYN088AAXX  30004 82198 32892 20504 10260 20237 30066 40117 82001 333 10333 29079 55090 59018;
0156821980999992009083012004-01717-045400FM-12+004499999V0200501N004610042019N0020001N1+02831+02361101331ADDGF105991051021004501001001KA1240N+02421MA1999999100811MD1999999-0011REMSYN076AAXX  30124 82198 32495 50509 10283 20236 30081 40133 85200 333 20242 59001;
0137821980999992009083018004-01717-045400FM-12+004499999V0200501N004612200019N0020001N1+03171+02301100971ADDGF104991041021004501001001MA1999999100461MD1999999-0061REMSYN070AAXX  30184 82198 32495 40509 10317 20230 30046 40097 84200 333 59006;
0168821980999992009083100004-01717-045400FM-12+004499999V0200501N002112200019N0002001N1+02591+02351101111ADDGF101991011001022501001011KA1240M+03261MA1999999100601MD1999999-0061REMSYN088AAXX  31004 82198 32892 10504 10259 20235 30060 40111 81001 333 10326 29077 55103 59006;
0156821980999992009083112004-01717-045400FM-12+004499999V0200701N006212200019N0020001N1+02881+02301101361ADDGF105991031021004501001011KA1240N+02371MA1999999100841MD1999999+0031REMSYN076AAXX  31124 82198 32495 50712 10288 20230 30084 40136 83201 333 20237 58003;
0137821980999992009083118004-01717-045400FM-12+004499999V0200701N004610042019N0020001N1+03091+02171101091ADDGF105991051021004501001001MA1999999100581MD1999999+0121REMSYN070AAXX  31184 82198 32495 50709 10309 20217 30058 40109 85200 333 58012;
0178821980999992009090100004-01717-045400FM-12+004499999V0200501N001512200019N0002001N1+02541+02311101231ADDGA1001+999999999GF100991001001999999001001KA1240M+03271MA1999999100721MD1999999+0121REMSYN082AAXX  01004 82198 32992 00503 10254 20231 30072 40123 333 10327 29076 55095 58012;
0156821980999992009090112004-01717-045400FM-12+004499999V0203601N004110042019N0020001N1+02881+02351101471ADDGF105991051021004501001001KA1240N+02411MA1999999100951MD1999999+0111REMSYN076AAXX  01124 82198 32495 53608 10288 20235 30095 40147 85200 333 20241 58011;
0182821980999992009090118004-01717-045400FM-12+004499999V0200701N005110450019N0010001N1+03081+02341101211ADDAA106001091AY161061AY221061GF105991031021004501061001MA1999999100701MD1999999+0121MW1021REMSYN082AAXX  01184 82198 21494 50710 10308 20234 30070 40121 70262 83260 333 58012 60011;
0178821980999992009090200004-01717-045400FM-12+004499999V0200701N002612200019N0002001N1+02601+02371101351ADDGA1001+999999999GF100991001001999999001001KA1240M+03271MA1999999100831MD1999999+0111REMSYN082AAXX  02004 82198 32992 00705 10260 20237 30083 40135 333 10327 29078 55094 58011;
0156821980999992009090212004-01717-045400FM-12+004499999V0200701N004610450019N0010001N1+02851+02341101421ADDGF105991031021004501061001KA1240N+02311MA1999999100901MD1999999-0051REMSYN076AAXX  02124 82198 32494 50709 10285 20234 30090 40142 83260 333 20231 59005;
0137821980999992009090218004-01717-045400FM-12+004499999V0200701N004610042019N0010001N1+03211+02351101131ADDGF105991051021004501001001MA1999999100621MD1999999-0081REMSYN070AAXX  02184 82198 32494 50709 10321 20235 30062 40113 85200 333 59008;
0178821980999992009090300004-01717-045400FM-12+004499999V0200501N003612200019N0002001N1+02601+02351101331ADDGA1001+999999999GF100991001001999999001001KA1240M+03331MA1999999100811MD1999999-0021REMSYN082AAXX  03004 82198 32992 00507 10260 20235 30081 40133 333 10333 29077 55102 59002;
0184821980999992009090312004-01717-045400FM-12+004499999V0200701N006710042019N0010001N1+02881+02321101481ADDAY141061AY221061GF106991061021004501001001KA1240N+02381MA1999999100961MD1999999+0061MW1041REMSYN082AAXX  03124 82198 31494 60713 10288 20232 30096 40148 70442 86200 333 20238 58006;
0165821980999992009090318004-01717-045400FM-12+004499999V0200701N004610042019N0010001N1+03151+02271101231ADDAY121061AY221061GF106991061021004501001001MA1999999100721MD1999999+0101MW1041REMSYN076AAXX  03184 82198 31494 60709 10315 20227 30072 40123 70422 86200 333 58010;
0178821980999992009090400004-01717-045400FM-12+004499999V0200501N002112200019N0002001N1+02591+02351101381ADDGA1001+999999999GF100991001001999999001001KA1240M+03251MA1999999100861MD1999999+0051REMSYN082AAXX  04004 82198 32992 00504 10259 20235 30086 40138 333 10325 29076 55095 58005;
0184821980999992009090412004-01717-045400FM-12+004499999V0200701N003610042019N0010001N1+02871+02291101431ADDAY141061AY221061GF106991061021004501001001KA1240N+02311MA1999999100911MD1999999-0051MW1041REMSYN082AAXX  04124 82198 31494 60707 10287 20229 30091 40143 70442 86200 333 20231 59005;
0184821980999992009090418004-01717-045400FM-12+004499999V0200701N004112200019N0010001N1+03291+02031101191ADDAY121061AY221061GF104991999021004501001001MA1999999100681MD1999999-0041MW1041REMSYN076AAXX  04184 82198 31494 40708 10329 20203 30068 40119 70422 85200 333 59004;EQDQ01+000052SCOTLC
0178821980999992009090500004-01717-045400FM-12+004499999V0200501N003612200019N0002001N1+02571+02311101351ADDGA1001+999999999GF100991001001999999001001KA1240M+03381MA1999999100831MD1999999-0031REMSYN082AAXX  05004 82198 32992 00507 10257 20231 30083 40135 333 10338 29073 55100 59003;
0184821980999992009090512004-01717-045400FM-12+004499999V0200501N005110042019N0010001N1+02861+02391101331ADDAY141061AY221061GF105991051021004501001001KA1240N+02291MA1999999100821MD1999999-0091MW1041REMSYN082AAXX  05124 82198 31494 50510 10286 20239 30082 40133 70442 85200 333 20229 59009;
0165821980999992009090518004-01717-045400FM-12+004499999V0200501N004612200019N0010001N1+03261+02381101171ADDAY121061AY221061GF104991041021004501001001MA1999999100661MD1999999-0021MW1041REMSYN076AAXX  05184 82198 31494 40509 10326 20238 30066 40117 70422 84200 333 59002;
0178821980999992009090600004-01717-045400FM-12+004499999V0200501N002612200019N0002001N1+02591+02331101421ADDGA1001+999999999GF100991001001999999001001KA1240M+03371MA1999999100911MD1999999+0031REMSYN082AAXX  06004 82198 32992 00505 10259 20233 30091 40142 333 10337 29076 55096 58003;
0184821980999992009090612004-01717-045400FM-12+004499999V0200501N005110450019N0010001N1+02841+02331101481ADDAY141061AY221061GF106991041021004501061001KA1240N+02391MA1999999100971MD1999999+0151MW1041REMSYN082AAXX  06124 82198 31494 60510 10284 20233 30097 40148 70442 84260 333 20239 58015;
0165821980999992009090618004-01717-045400FM-12+004499999V0200701N004610042019N0010001N1+03171+02271101331ADDAY121061AY221061GF105991051021004501001001MA1999999100811MD1999999+0151MW1041REMSYN076AAXX  06184 82198 31494 50709 10317 20227 30081 40133 70422 85200 333 58015;
0168821980999992009090700004-01717-045400FM-12+004499999V0200501N002612200019N0002001N1+02601+02271101371ADDGF101991011011004501001001KA1240M+03211MA1999999100861MD1999999-0051REMSYN088AAXX  07004 82198 32492 10505 10260 20227 30086 40137 81100 333 10321 29074 55094 59005;
0184821980999992009090712004-01717-045400FM-12+004499999V0200501N006710450019N0010001N1+02831+02221101451ADDAY141061AY221061GF106991041021004501061001KA1240N+02371MA1999999100931MD1999999-0041MW1041REMSYN082AAXX  07124 82198 31494 60513 10283 20222 30093 40145 70442 84260 333 20237 59004;
0165821980999992009090718004-01717-045400FM-12+004499999V0200901N008210042019N0010001N1+03041+02411101101ADDAY121061AY221061GF105991051021004501001001MA1999999100591MD1999999-0221MW1041REMSYN076AAXX  07184 82198 31494 50916 10304 20241 30059 40110 70422 85200 333 59022;
0184821980999992009090812004-01717-045400FM-12+004499999V0200501N006210042019N0010001N1+02891+02201101261ADDAY141061AY221061GF106991061021004501001001KA1240N+02361MA1999999100751MD1999999-0181MW1041REMSYN082AAXX  08124 82198 31494 60512 10289 20220 30075 40126 70442 86200 333 20236 59018;
0165821980999992009090818004-01717-045400FM-12+004499999V0200701N004110042019N0010001N1+03141+02001101011ADDAY141061AY221061GF106991061021004501001001MA1999999100501MD1999999-0091MW1041REMSYN076AAXX  08184 82198 31494 60708 10314 20200 30050 40101 70442 86200 333 59009;
0178821980999992009090900004-01717-045400FM-12+004499999V0200501N002612200019N0002001N1+02541+02231101171ADDGA1001+999999999GF100991001001999999001001KA1240M+03291MA1999999100661MD1999999-0041REMSYN082AAXX  09004 82198 32992 00505 10254 20223 30066 40117 333 10329 29072 55104 59004;
0184821980999992009090912004-01717-045400FM-12+004499999V0200501N003610450019N0010001N1+02821+02331101341ADDAY141061AY221061GF106991031021004501061001KA1240N+02291MA1999999100821MD1999999+0071MW1041REMSYN082AAXX  09124 82198 31494 60507 10282 20233 30082 40134 70442 83260 333 20229 58007;
0165821980999992009090918004-01717-045400FM-12+004499999V0200701N005110042019N0010001N1+03201+02241101051ADDAY121061AY221061GF105991051021004501001001MA1999999100541MD1999999+0041MW1041REMSYN076AAXX  09184 82198 31494 50710 10320 20224 30054 40105 70422 85200 333 58004;
0178821980999992009091000004-01717-045400FM-12+004499999V0200501N003112200019N0002001N1+02601+02351101161ADDGA1001+999999999GF100991001001999999001001KA1240M+03291MA1999999100651MD1999999-0011REMSYN082AAXX  10004 82198 32992 00506 10260 20235 30065 40116 333 10329 29076 55100 59001;
0184821980999992009091012004-01717-045400FM-12+004499999V0200501N005110450019N0010001N1+02881+02351101401ADDAY141061AY221061GF106991041021004501061001KA1240N+02331MA1999999100881MD1999999+0061MW1041REMSYN082AAXX  10124 82198 31494 60510 10288 20235 30088 40140 70442 84260 333 20233 58006;
0165821980999992009091018004-01717-045400FM-12+004499999V0200901N005710042019N0010001N1+03181+02311101141ADDAY121061AY221061GF105991051021004501001001MA1999999100631MD1999999+0091MW1041REMSYN076AAXX  10184 82198 31494 50911 10318 20231 30063 40114 70422 85200 333 58009;
0178821980999992009091100004-01717-045400FM-12+004499999V0200501N003112200019N0002001N1+02611+02331101371ADDGA1001+999999999GF100991001001999999001001KA1240M+03311MA1999999100851MD1999999+0201REMSYN082AAXX  11004 82198 32992 00506 10261 20233 30085 40137 333 10331 29076 55101 58020;
0184821980999992009091112004-01717-045400FM-12+004499999V0200701N004610042019N0010001N1+02991+02401101491ADDAY141061AY221061GF105991051021004501001001KA1240N+02301MA1999999100971MD1999999+0091MW1041REMSYN082AAXX  11124 82198 31494 50709 10299 20240 30097 40149 70442 85200 333 20230 58009;
0178821980999992009091200004-01717-045400FM-12+004499999V0200501N002612200019N0002001N1+02591+02331101341ADDGA1001+999999999GF100991001001999999001001KA1240M+03311MA1999999100821MD1999999-0031REMSYN082AAXX  12004 82198 32992 00505 10259 20233 30082 40134 333 10331 29074 55103 59003;
0184821980999992009091212004-01717-045400FM-12+004499999V0200501N005110042019N0010001N1+02921+02411101411ADDAY141061AY221061GF105991051021004501001001KA1240N+02371MA1999999100891MD1999999-0081MW1041REMSYN082AAXX  12124 82198 31494 50510 10292 20241 30089 40141 70442 85200 333 20237 59008;
0165821980999992009091218004-01717-045400FM-12+004499999V0200701N003612200019N0010001N1+03281+02321101031ADDAY121061AY221061GF103991031021004501001001MA1999999100521MD1999999-0111MW1041REMSYN076AAXX  12184 82198 31494 30707 10328 20232 30052 40103 70422 83200 333 59011;
0178821980999992009091300004-01717-045400FM-12+004499999V0200501N003112200019N0002001N1+02591+02351101251ADDGA1001+999999999GF100991001001999999001001KA1240M+03371MA1999999100741MD1999999-0081REMSYN082AAXX  13004 82198 32992 00506 10259 20235 30074 40125 333 10337 29076 55103 59008;
0184821980999992009091312004-01717-045400FM-12+004499999V0200501N005710450019N0010001N1+02841+02381101421ADDAY141061AY221061GF106991041021004501061001KA1240N+02411MA1999999100901MD1999999+0011MW1041REMSYN082AAXX  13124 82198 31494 60511 10284 20238 30090 40142 70442 84260 333 20241 58001;
0165821980999992009091318004-01717-045400FM-12+004499999V0200701N005712200019N0010001N1+03141+02351101161ADDAY121061AY221061GF104991041021004501001001MA1999999100651MD1999999+0131MW1041REMSYN076AAXX  13184 82198 31494 40711 10314 20235 30065 40116 70422 84200 333 58013;
0178821980999992009091400004-01717-045400FM-12+004499999V0200501N003112200019N0002001N1+02601+02351101381ADDGA1001+999999999GF100991001001999999001001KA1240M+03301MA1999999100861MD1999999+0121REMSYN082AAXX  14004 82198 32992 00506 10260 20235 30086 40138 333 10330 29078 55104 58012;
0184821980999992009091412004-01717-045400FM-12+004499999V0200501N003610450019N0010001N1+02881+02321101481ADDAY111061AY221061GF106991041021004501061001KA1240N+02401MA1999999100961MD1999999+0061MW1041REMSYN082AAXX  14124 82198 31494 60507 10288 20232 30096 40148 70412 84260 333 20240 58006;
0165821980999992009091418004-01717-045400FM-12+004499999V0200701N004610450019N0010001N1+03181+02311101201ADDAY121061AY221061GF105991031021004501061001MA1999999100691MD1999999+0041MW1041REMSYN076AAXX  14184 82198 31494 50709 10318 20231 30069 40120 70422 83260 333 58004;
0178821980999992009091500004-01717-045400FM-12+004499999V0200501N003112200019N0002001N1+02621+02391101441ADDGA1001+999999999GF100991001001999999001001KA1240M+03361MA1999999100921MD1999999+0061REMSYN082AAXX  15004 82198 32992 00506 10262 20239 30092 40144 333 10336 29076 55103 58006;
0184821980999992009091512004-01717-045400FM-12+004499999V0200701N005110450019N0010001N1+02931+02341101451ADDAY111061AY221061GF106991031021004501061001KA1240N+02431MA1999999100931MD1999999-0031MW1041REMSYN082AAXX  15124 82198 31494 60710 10293 20234 30093 40145 70412 83260 333 20243 59003;
0165821980999992009091518004-01717-045400FM-12+004499999V0200501N005712200019N0010001N1+03171+02411101141ADDAY121061AY221061GF104991041021004501001001MA1999999100631MD1999999-0061MW1041REMSYN076AAXX  15184 82198 31494 40511 10317 20241 30063 40114 70422 84200 333 59006;
0184821980999992009091612004-01717-045400FM-12+004499999V0200501N006210450019N0010001N1+02881+02351101381ADDAY141061AY221061GF106991041021004501061001KA1240N+02441MA1999999100861MD1999999-0071MW1041REMSYN082AAXX  16124 82198 31494 60512 10288 20235 30086 40138 70442 84260 333 20244 59007;
0165821980999992009091618004-01717-045400FM-12+004499999V0200701N005710450019N0010001N1+03121+02331101071ADDAY121061AY221061GF105991031021004501061001MA1999999100561MD1999999-0071MW1041REMSYN076AAXX  16184 82198 31494 50711 10312 20233 30056 40107 70422 83260 333 59007;
0184821980999992009091712004-01717-045400FM-12+004499999V0200701N006210450019N0010001N1+02891+02251101281ADDAY111061AY221061GF106991041021004501061001KA1240N+02421MA1999999100771MD1999999-0091MW1041REMSYN082AAXX  17124 82198 31494 60712 10289 20225 30077 40128 70412 84260 333 20242 59009;
0165821980999992009091718004-01717-045400FM-12+004499999V0203601N002110450019N0010001N1+03001+02391101081ADDAY121061AY221061GF106991041021004501061001MA1999999100561MD1999999+0001MW1041REMSYN076AAXX  17184 82198 31494 63604 10300 20239 30056 40108 70422 84260 333 58000;
0178821980999992009091800004-01717-045400FM-12+004499999V0200501N002112200019N0002001N1+02611+02391101201ADDGA1001+999999999GF100991001001999999001001KA1240M+03151MA1999999100691MD1999999+0011REMSYN082AAXX  18004 82198 32992 00504 10261 20239 30069 40120 333 10315 29080 55050 58001;
0184821980999992009091812004-01717-045400FM-12+004499999V0200701N003110450019N0010001N1+02811+02421101251ADDAY141061AY221061GF107991041051004501061001KA1240N+02371MA1999999100741MD1999999-0031MW1041REMSYN082AAXX  18124 82198 31494 70706 10281 20242 30074 40125 70442 84560 333 20237 59003;
0165821980999992009091818004-01717-045400FM-12+004499999V0200501N003610450019N0010001N1+03081+02351100971ADDAY121061AY221061GF107991031021004501011001MA1999999100461MD1999999-0101MW1041REMSYN076AAXX  18184 82198 31494 70507 10308 20235 30046 40097 70422 83210 333 59010;
0178821980999992009091900004-01717-045400FM-12+004499999V0203601N002612200019N0002001N1+02611+02331101211ADDGA1001+999999999GF100991001001999999001001KA1240M+03211MA1999999100701MD1999999+0011REMSYN082AAXX  19004 82198 32992 03605 10261 20233 30070 40121 333 10321 29079 55023 58001;
0184821980999992009091912004-01717-045400FM-12+004499999V0200501N004610450019N0005001N1+02781+02341101391ADDAY141061AY221061GF107991031051004501061001KA1240N+02411MA1999999100871MD1999999+0131MW1041REMSYN082AAXX  19124 82198 31493 70509 10278 20234 30087 40139 70442 83560 333 20241 58013;
0165821980999992009091918004-01717-045400FM-12+004499999V0200701N005710042019N0010001N1+03121+02331101181ADDAY121061AY221061GF105991051021004501001001MA1999999100671MD1999999+0211MW1041REMSYN076AAXX  19184 82198 31494 50711 10312 20233 30067 40118 70422 85200 333 58021;
0178821980999992009092000004-01717-045400FM-12+004499999V0200501N002612200019N0002001N1+02591+02311101351ADDGA1001+999999999GF100991001001999999001001KA1240M+03211MA1999999100831MD1999999+0131REMSYN082AAXX  20004 82198 32992 00505 10259 20231 30083 40135 333 10321 29077 55046 58013;
0184821980999992009092012004-01717-045400FM-12+004499999V0200501N005110450019N0010001N1+02801+02311101391ADDAY111061AY221061GF107991041051004501061001KA1240N+02471MA1999999100871MD1999999+0001MW1041REMSYN082AAXX  20124 82198 31494 70510 10280 20231 30087 40139 70412 84560 333 20247 58000;
0165821980999992009092018004-01717-045400FM-12+004499999V0200501N004610450019N0010001N1+02951+02321101161ADDAY121061AY221061GF107991041071004501061001MA1999999100651MD1999999-0021MW1041REMSYN076AAXX  20184 82198 31494 70509 10295 20232 30065 40116 70422 84760 333 59002;
0178821980999992009092100004-01717-045400FM-12+004499999V0200501N002112200019N0002001N1+02541+02251101271ADDGA1001+999999999GF100991001001999999001001KA1240M+03151MA1999999100751MD1999999-0081REMSYN082AAXX  21004 82198 32992 00504 10254 20225 30075 40127 333 10315 29078 55048 59008;
0184821980999992009092112004-01717-045400FM-12+004499999V0203601N006710042019N0010001N1+02871+02111101381ADDAY111061AY221061GF105991051021004501001001KA1240N+02351MA1999999100861MD1999999+0001MW1041REMSYN082AAXX  21124 82198 31494 53613 10287 20211 30086 40138 70412 85200 333 20235 58000;
0165821980999992009092118004-01717-045400FM-12+004499999V0200701N005712200019N0010001N1+03181+02041101051ADDAY121061AY211061GF102991021021004501001001MA1999999100541MD1999999-0111MW1041REMSYN076AAXX  21184 82198 31494 20711 10318 20204 30054 40105 70421 82200 333 59011;
0178821980999992009092200004-01717-045400FM-12+004499999V0200501N002112200019N0002001N1+02581+02251101111ADDGA1001+999999999GF100991001001999999001001KA1240M+03251MA1999999100601MD1999999-0151REMSYN082AAXX  22004 82198 32992 00504 10258 20225 30060 40111 333 10325 29070 55105 59015;
0156821980999992009092212004-01717-045400FM-12+004499999V0200501N001510450019N0020001N1+02841+02381101151ADDGF105991031021004501061001KA1240N+02421MA1999999100641MD1999999-0221REMSYN076AAXX  22124 82198 32495 50503 10284 20238 30064 40115 83260 333 20242 59022;
0137821980999992009092218004-01717-045400FM-12+004499999V0203601N004112200019N0020001N1+02971+02321100981ADDGF104991041021004501001001MA1999999100471MD1999999-0071REMSYN070AAXX  22184 82198 32495 43608 10297 20232 30047 40098 84200 333 59007;
0178821980999992009092300004-01717-045400FM-12+004499999V0203601N003112200019N0002001N1+02591+02351101071ADDGA1001+999999999GF100991001001999999001001KA1240M+03251MA1999999100561MD1999999-0041REMSYN082AAXX  23004 82198 32992 03606 10259 20235 30056 40107 333 10325 29079 55088 59004;
0184821980999992009092312004-01717-045400FM-12+004499999V0200701N005112200019N0010001N1+02881+02301101171ADDAY111061AY221061GF104991041021004501001001KA1240N+02371MA1999999100661MD1999999+0021MW1041REMSYN082AAXX  23124 82198 31494 40710 10288 20230 30066 40117 70412 84200 333 20237 58002;
0165821980999992009092318004-01717-045400FM-12+004499999V0200701N005112200019N0010001N1+03201+02301100921ADDAY121061AY221061GF104991041021004501001001MA1999999100411MD1999999-0061MW1041REMSYN076AAXX  23184 82198 31494 40710 10320 20230 30041 40092 70422 84200 333 59006;
0178821980999992009092400004-01717-045400FM-12+004499999V0200501N003112200019N0002001N1+02621+02391101131ADDGA1001+999999999GF100991001001999999001001KA1240M+03291MA1999999100621MD1999999+0061REMSYN082AAXX  24004 82198 32992 00506 10262 20239 30062 40113 333 10329 29076 55084 58006;
0184821980999992009092412004-01717-045400FM-12+004499999V0200701N004610450019N0010001N1+02901+02341101241ADDAY141061AY221061GF106991041021004501061001KA1240N+02421MA1999999100731MD1999999+0071MW1041REMSYN082AAXX  24124 82198 31494 60709 10290 20234 30073 40124 70442 84260 333 20242 58007;
0165821980999992009092418004-01717-045400FM-12+004499999V0200701N005110042019N0010001N1+03091+02191101031ADDAY121061AY221061GF106991061021004501001001MA1999999100521MD1999999+0111MW1041REMSYN076AAXX  24184 82198 31494 60710 10309 20219 30052 40103 70422 86200 333 58011;
0168821980999992009092500004-01717-045400FM-12+004499999V0200501N003112200019N0002001N1+02601+02271101221ADDGF101991011011004501001001KA1240M+03341MA1999999100711MD1999999+0091REMSYN088AAXX  25004 82198 32492 10506 10260 20227 30071 40122 81100 333 10334 29074 55090 58009;
0184821980999992009092512004-01717-045400FM-12+004499999V0200501N002612200019N0010001N1+02821+02381101211ADDAY141061AY221061GF106991041021004501001011KA1240N+02321MA1999999100691MD1999999-0041MW1041REMSYN082AAXX  25124 82198 31494 60505 10282 20238 30069 40121 70442 84201 333 20232 59004;
0165821980999992009092518004-01717-045400FM-12+004499999V0200501N003610042019N0010001N1+03101+02121101011ADDAY121061AY221061GF106991061021004501001001MA1999999100501MD1999999-0021MW1041REMSYN076AAXX  25184 82198 31494 60507 10310 20212 30050 40101 70422 86200 333 59002;
0168821980999992009092600004-01717-045400FM-12+004499999V0200501N002612200019N0002001N1+02601+02271101161ADDGF101991011011004501001001KA1240M+03361MA1999999100651MD1999999-0061REMSYN088AAXX  26004 82198 32492 10505 10260 20227 30065 40116 81100 333 10336 29074 55095 59006;
0184821980999992009092612004-01717-045400FM-12+004499999V0200701N004610450019N0010001N1+02891+02111101331ADDAY141061AY221061GF108991041051004501061001KA1240N+02411MA1999999100811MD1999999+0121MW1041REMSYN082AAXX  26124 82198 31494 80709 10289 20211 30081 40133 70442 84560 333 20241 58012;
0165821980999992009092618004-01717-045400FM-12+004499999V0200701N006710450019N0010001N1+03071+02031101051ADDAY121061AY221061GF106991041021004501061001MA1999999100541MD1999999+0041MW1041REMSYN076AAXX  26184 82198 31494 60713 10307 20203 30054 40105 70422 84260 333 58004;
0178821980999992009092700004-01717-045400FM-12+004499999V0200501N002612200019N0002001N1+02581+02231101161ADDGA1001+999999999GF100991001001999999001001KA1240M+03201MA1999999100651MD1999999+0001REMSYN082AAXX  27004 82198 32992 00505 10258 20223 30065 40116 333 10320 29071 55075 58000;
0184821980999992009092712004-01717-045400FM-12+004499999V0200701N006710450019N0010001N1+02921+02291101391ADDAY111061AY221061GF106991041021004501061001KA1240N+02411MA1999999100871MD1999999+0061MW1041REMSYN082AAXX  27124 82198 31494 60713 10292 20229 30087 40139 70412 84260 333 20241 58006;
0165821980999992009092718004-01717-045400FM-12+004499999V0200701N004112200019N0010001N1+03251+01991101111ADDAY121061AY221061GF103991031021004501001001MA1999999100601MD1999999+0041MW1041REMSYN076AAXX  27184 82198 31494 30708 10325 20199 30060 40111 70422 83200 333 58004;
0178821980999992009092800004-01717-045400FM-12+004499999V0200501N002112200019N0002001N1+02591+02291101331ADDGA1001+999999999GF100991001001999999001001KA1240M+03341MA1999999100811MD1999999+0161REMSYN082AAXX  28004 82198 32992 00504 10259 20229 30081 40133 333 10334 29071 55106 58016;
0184821980999992009092812004-01717-045400FM-12+004499999V0200501N003610042019N0010001N1+02931+02221101481ADDAY111061AY221061GF106991061021004501001001KA1240N+02421MA1999999100971MD1999999+0101MW1041REMSYN082AAXX  28124 82198 31494 60507 10293 20222 30097 40148 70412 86200 333 20242 58010;
0165821980999992009092818004-01717-045400FM-12+004499999V0200701N005112200019N0010001N1+03251+02091101081ADDAY121061AY211061GF102991011021004501001011MA1999999100571MD1999999-0031MW1041REMSYN076AAXX  28184 82198 31494 20710 10325 20209 30057 40108 70421 81201 333 59003;
0178821980999992009092900004-01717-045400FM-12+004499999V0200501N002612200019N0002001N1+02611+02311101301ADDGA1001+999999999GF100991001001999999001001KA1240M+03331MA1999999100791MD1999999-0021REMSYN082AAXX  29004 82198 32992 00505 10261 20231 30079 40130 333 10333 29072 55015 59002;
0184821980999992009092912004-01717-045400FM-12+004499999V0200501N004610450019N0010001N1+02951+02291101391ADDAY111061AY221061GF106991041021004501061001KA1240N+02411MA1999999100881MD1999999-0091MW1041REMSYN082AAXX  29124 82198 31494 60509 10295 20229 30088 40139 70412 84260 333 20241 59009;
0165821980999992009092918004-01717-045400FM-12+004499999V0200701N005712200019N0010001N1+03261+02211101151ADDAY121061AY221061GF104991041021004501001001MA1999999100641MD1999999+0071MW1041REMSYN076AAXX  29184 82198 31494 40711 10326 20221 30064 40115 70422 84200 333 58007;
0168821980999992009093000004-01717-045400FM-12+004499999V0200501N002612200019N0002001N1+02661+02331101291ADDGF102991011011004501001011KA1240M+03351MA1999999100781MD1999999-0011REMSYN088AAXX  30004 82198 32492 20505 10266 20233 30078 40129 81101 333 10335 29071 55101 59001;
0184821980999992009093012004-01717-045400FM-12+004499999V0203601N005110450019N0010001N1+02931+02321101451ADDAY111061AY221061GF107991041051004501061001KA1240N+02471MA1999999100931MD1999999+0051MW1041REMSYN082AAXX  30124 82198 31494 73610 10293 20232 30093 40145 70412 84560 333 20247 58005;
0165821980999992009093018004-01717-045400FM-12+004499999V0200501N004110450019N0010001N1+03171+02301101201ADDAY121061AY221061GF106991041021004501061001MA1999999100691MD1999999+0051MW1041REMSYN076AAXX  30184 82198 31494 60508 10317 20230 30069 40120 70422 84260 333 58005;
0178821980999992009100100004-01717-045400FM-12+004499999V0200701N003112200019N0002001N1+02621+02271101351ADDGA1001+999999999GF100991001001999999001001KA1240M+03251MA1999999100841MD1999999+0061REMSYN082AAXX  01004 82198 32992 00706 10262 20227 30084 40135 333 10325 29073 55084 58006;
0184821980999992009100112004-01717-045400FM-12+004499999V0200201N003610042019N0010001N1+02891+02351101481ADDAY111061AY221061GF105991051021004501001001KA1240N+02291MA1999999100971MD1999999+0041MW1041REMSYN082AAXX  01124 82198 31494 50207 10289 20235 30097 40148 70412 85200 333 20229 58004;
0165821980999992009100118004-01717-045400FM-12+004499999V0200501N004112200019N0010001N1+03221+02171101101ADDAY121061AY221061GF103991031011004501001001MA1999999100591MD1999999-0101MW1041REMSYN076AAXX  01184 82198 31494 30508 10322 20217 30059 40110 70422 83100 333 59010;
0168821980999992009100200004-01717-045400FM-12+004499999V0200501N003112200019N0002001N1+02601+02311101381ADDGF102991021021004501001001KA1240M+03361MA1999999100871MD1999999+0031REMSYN088AAXX  02004 82198 32492 20506 10260 20231 30087 40138 82200 333 10336 29074 55098 58003;
0156821980999992009100212004-01717-045400FM-12+004499999V0203601N004610042019N0020001N1+02931+02201101391ADDGF105991051021004501001001KA1240N+02391MA1999999100881MD1999999-0091REMSYN076AAXX  02124 82198 32495 53609 10293 20220 30088 40139 85200 333 20239 59009;
0137821980999992009100218004-01717-045400FM-12+004499999V0209999C000010042019N0020001N1+03201+02241101131ADDGF105991051021004501001001MA1999999100621MD1999999+0031REMSYN070AAXX  02184 82198 32495 50000 10320 20224 30062 40113 85200 333 58003;
0168821980999992009100300004-01717-045400FM-12+004499999V0209999C000012200019N0002001N1+02621+02141101331ADDGF103991031001017501031001KA1240M+03311MA1999999100821MD1999999-0051REMSYN088AAXX  03004 82198 32792 30000 10262 20214 30082 40133 83030 333 10331 29068 55101 59005;
0184821980999992009100312004-01717-045400FM-12+004499999V0209999C000012200019N0010001N1+03021+02271101361ADDAY111061AY221061GF104991041021004501001001KA1240N+02371MA1999999100851MD1999999-0031MW1041REMSYN082AAXX  03124 82198 31494 40000 10302 20227 30085 40136 70412 84200 333 20237 59003;
0165821980999992009100318004-01717-045400FM-12+004499999V0209999C000012200019N0010001N1+03291+02121101061ADDAY121061AY221061GF103991031021004501001001MA1999999100551MD1999999-0071MW1041REMSYN076AAXX  03184 82198 31494 30000 10329 20212 30055 40106 70422 83200 333 59007;
0178821980999992009100400004-01717-045400FM-12+004499999V0209999C000012200019N0002001N1+02611+02291101171ADDGA1001+999999999GF100991001001999999001001KA1240M+03431MA1999999100661MD1999999-0161REMSYN082AAXX  04004 82198 32992 00000 10261 20229 30066 40117 333 10343 29076 55098 59016;
0184821980999992009100412004-01717-045400FM-12+004499999V0209999C000010450019N0010001N1+02961+02271101251ADDAY111061AY221061GF106991041021004501061001KA1240N+02391MA1999999100741MD1999999-0111MW1041REMSYN082AAXX  04124 82198 31494 60000 10296 20227 30074 40125 70412 84260 333 20239 59011;
0165821980999992009100418004-01717-045400FM-12+004499999V0209999C000010042019N0010001N1+03181+02221101001ADDAY121061AY221061GF106991061021004501001001MA1999999100491MD1999999-0061MW1041REMSYN076AAXX  04184 82198 31494 60000 10318 20222 30049 40100 70422 86200 333 59006;
0168821980999992009100500004-01717-045400FM-12+004499999V0209999C000010450019N0002001N1+02621+02311101191ADDGF106991041021004501011061KA1240M+03311MA1999999100681MD1999999+0021REMSYN088AAXX  05004 82198 32492 60000 10262 20231 30068 40119 84216 333 10331 29073 55081 58002;
0184821980999992009100512004-01717-045400FM-12+004499999V0209999C000010450019N0010001N1+02891+02151101271ADDAY111061AY221061GF107991041051004501061001KA1240N+02411MA1999999100761MD1999999+0021MW1041REMSYN082AAXX  05124 82198 31494 70000 10289 20215 30076 40127 70412 84560 333 20241 58002;
0165821980999992009100518004-01717-045400FM-12+004499999V0209999C000010450019N0010001N1+03001+02271101061ADDAY121061AY221061GF107991041051004501061001MA1999999100551MD1999999+0061MW1151REMSYN076AAXX  05184 82198 31494 70000 10300 20227 30055 40106 71522 84560 333 58006;
0156821980999992009100612004-01717-045400FM-12+004499999V0209999C000010450019N0100001N1+02871+02291101321ADDGF106991041021004501061001KA1240N+02401MA1999999100801MD1999999+0041REMSYN076AAXX  06124 82198 32497 60000 10287 20229 30080 40132 84260 333 20240 58004;
0165821980999992009100618004-01717-045400FM-12+004499999V0209999C000010042019N0010001N1+03111+02261101141ADDAY121061AY221061GF105991051021004501001001MA1999999100631MD1999999+0081MW1041REMSYN076AAXX  06184 82198 31494 50000 10311 20226 30063 40114 70422 85200 333 58008;
0156821980999992009100712004-01717-045400FM-12+004499999V0209999C000010042019N0020001N1+02731+02411101301ADDGF106991061021004501001001KA1240N+02361MA1999999100781MD1999999-0021REMSYN076AAXX  07124 82198 32495 60000 10273 20241 30078 40130 86200 333 20236 59002;
0165821980999992009100718004-01717-045400FM-12+004499999V0209999C000010042019N0010001N1+03231+02151101221ADDAY121061AY221061GF105991051021004501001001MA1999999100711MD1999999+0081MW1041REMSYN076AAXX  07184 82198 31494 50000 10323 20215 30071 40122 70422 85200 333 58008;
0178821980999992009100800004-01717-045400FM-12+004499999V0209999C000012200019N0002001N1+02611+02231101331ADDGA1001+999999999GF100991001001999999001001KA1240M+03361MA1999999100811MD1999999+0031REMSYN082AAXX  08004 82198 32992 00000 10261 20223 30081 40133 333 10336 29074 55105 58003;
0184821980999992009100812004-01717-045400FM-12+004499999V0209999C000010042019N0010001N1+02901+02271101381ADDAY111061AY221061GF106991061021004501001001KA1240N+02371MA1999999100871MD1999999+0091MW1041REMSYN082AAXX  08124 82198 31494 60000 10290 20227 30087 40138 70412 86200 333 20237 58009;
0137821980999992009100818004-01717-045400FM-12+004499999V0209999C000012200019N0010001N1+03251+02031101081ADDGF103991021021004501001011MA1999999100571MD1999999-0141REMSYN070AAXX  08184 82198 32494 30000 10325 20203 30057 40108 82201 333 59014;
0178821980999992009100900004-01717-045400FM-12+004499999V0209999C000012200019N0002001N1+02601+02251101301ADDGA1001+999999999GF100991001001999999001001KA1240M+03361MA1999999100791MD1999999-0021REMSYN082AAXX  09004 82198 32992 00000 10260 20225 30079 40130 333 10336 29070 55105 59002;
0156821980999992009100912004-01717-045400FM-12+004499999V0209999C000012200019N0010001N1+02891+02251101251ADDGF105991041021004501001011KA1240N+02331MA1999999100741MD1999999-0131REMSYN076AAXX  09124 82198 32494 50000 10289 20225 30074 40125 84201 333 20233 59013;
0137821980999992009100918004-01717-045400FM-12+004499999V0209999C000012200019N0010001N1+03101+02291100971ADDGF102991021021004501001001MA1999999100461MD1999999-0111REMSYN070AAXX  09184 82198 32494 20000 10310 20229 30046 40097 82200 333 59011;
0178821980999992009101000004-01717-045400FM-12+004499999V0209999C000012200019N0002001N1+02581+02271101131ADDGA1001+999999999GF100991001001999999001001KA1240M+03261MA1999999100621MD1999999-0171REMSYN082AAXX  10004 82198 32992 00000 10258 20227 30062 40113 333 10326 29076 55104 59017;
0156821980999992009101012004-01717-045400FM-12+004499999V0209999C000012200019N0010001N1+02921+02361101241ADDGF104991031021004501001011KA1240N+02331MA1999999100731MD1999999-0011REMSYN076AAXX  10124 82198 32494 40000 10292 20236 30073 40124 83201 333 20233 59001;
0137821980999992009101018004-01717-045400FM-12+004499999V0209999C000012200019N0010001N1+03081+02371100891ADDGF104991041021004501001001MA1999999100381MD1999999-0081REMSYN070AAXX  10184 82198 32494 40000 10308 20237 30038 40089 84200 333 59008;
0178821980999992009101100004-01717-045400FM-12+004499999V0209999C000012200019N0002001N1+02591+02291101051ADDGA1001+999999999GF100991001001999999001001KA1240M+03281MA1999999100541MD1999999-0081REMSYN082AAXX  11004 82198 32992 00000 10259 20229 30054 40105 333 10328 29076 55092 59008;
0184821980999992009101112004-01717-045400FM-12+004499999V0209999C000010450019N0010001N1+02911+02341101151ADDAY111061AY221061GF107991041051004501061001KA1240N+02421MA1999999100641MD1999999-0091MW1041REMSYN082AAXX  11124 82198 31494 70000 10291 20234 30064 40115 70412 84560 333 20242 59009;
0165821980999992009101118004-01717-045400FM-12+004499999V0209999C000010450019N0010001N1+03041+02311100911ADDAY121061AY221061GF106991041021004501061001MA1999999100401MD1999999+0021MW1041REMSYN076AAXX  11184 82198 31494 60000 10304 20231 30040 40091 70422 84260 333 58002;
0213821980999992009101200004-01717-045400FM-12+004499999V0209999C000012200019N0002001N1+02511+02271101041ADDAA106001091AY151061AY211061GF102991011021004501061001KA1240M+03171MA1999999100631MD1999999-0011MW1011REMSYN100AAXX  12004 82198 21492 20000 10251 20227 30063 40104 70151 81260 333 10317 29078 55062 59001 60011;
0220821980999992009101212004-01717-045400FM-12+004499999V0209999C000010450019N0010001N1+02871+02151101231ADDAA124000091AY111061AY221061GF106991041021004501061001KA1240N+02341MA1999999100711MD1999999+0071MW1041REMSYN088AAXX  12124 82198 21494 60000 10287 20215 30071 40123 70412 84260 333 20234 58007 69914;EQDQ01  00002PRCP24
0165821980999992009101218004-01717-045400FM-12+004499999V0209999C000010450019N0010001N1+03111+02901100951ADDAY121061AY221061GF107991041021004501011041MA1999999100441MD1999999+0041MW1041REMSYN076AAXX  12184 82198 31494 70000 10311 20290 30044 40095 70422 84214 333 58004;
0178821980999992009101300004-01717-045400FM-12+004499999V0209999C000012200019N0002001N1+02511+02211101061ADDGA1001+999999999GF100991001001999999001001KA1240M+03281MA1999999100551MD1999999+0021REMSYN082AAXX  13004 82198 32992 00000 10251 20221 30055 40106 333 10328 29073 55053 58002;
0156821980999992009101312004-01717-045400FM-12+004499999V0200701N003110042019N0020001N1+02971+02301101271ADDGF106991051021004501001011KA1240N+02271MA1999999100761MD1999999+0051REMSYN076AAXX  13124 82198 32495 60706 10297 20230 30076 40127 85201 333 20227 58005;
0137821980999992009101318004-01717-045400FM-12+004499999V0200701N003110450019N0020001N1+03081+02211100821ADDGF105991031021004501041001MA1999999100311MD1999999-0131REMSYN070AAXX  13184 82198 32495 50706 10308 20221 30031 40082 83240 333 59013;
0178821980999992009101400004-01717-045400FM-12+004499999V0200501N002612200019N0002001N1+02601+02291101041ADDGA1001+999999999GF100991001001999999001001KA1240M+03381MA1999999100531MD1999999-0021REMSYN082AAXX  14004 82198 32992 00505 10260 20229 30053 40104 333 10338 29073 55102 59002;
0156821980999992009101412004-01717-045400FM-12+004499999V0200701N005110042019N0020001N1+02971+02301101081ADDGF107991071021004501001001KA1240N+02301MA1999999100571MD1999999-0191REMSYN076AAXX  14124 82198 32495 70710 10297 20230 30057 40108 87200 333 20230 59019;
0137821980999992009101418004-01717-045400FM-12+004499999V0203601N005710042019N0020001N1+03001+02321100781ADDGF105991051021004501001001MA1999999100271MD1999999-0041REMSYN070AAXX  14184 82198 32495 53611 10300 20232 30027 40078 85200 333 59004;
0178821980999992009101500004-01717-045400FM-12+004499999V0200201N004112200019N0002001N1+02581+02211100991ADDGA1001+999999999GF100991001001999999001001KA1240M+03301MA1999999100481MD1999999-0051REMSYN082AAXX  15004 82198 32992 00208 10258 20221 30048 40099 333 10330 29075 55095 59005;
0156821980999992009101512004-01717-045400FM-12+004499999V0200501N004611050019N0020001N1+03021+02311101021ADDGF106991041021004501001021KA1240N+02341MA1999999100511MD1999999-0061REMSYN076AAXX  15124 82198 32495 60509 10302 20231 30051 40102 84202 333 20234 59006;
0137821980999992009101518004-01717-045400FM-12+004499999V0200701N006210450019N0020001N1+03221+02141100801ADDGF105991041021004501061001MA1999999100291MD1999999+0021REMSYN070AAXX  15184 82198 32495 50712 10322 20214 30029 40080 84260 333 58002;
0168821980999992009101600004-01717-045400FM-12+004499999V0200201N003112200019N0002001N1+02621+02271100981ADDGF102991021011004501001001KA1240M+03351MA1999999100471MD1999999-0011REMSYN088AAXX  16004 82198 32492 20206 10262 20227 30047 40098 82100 333 10335 29070 55104 59001;
0156821980999992009101612004-01717-045400FM-12+004499999V0200501N004110042019N0020001N1+03031+02341101211ADDGF105991051021004501001001KA1240N+02361MA1999999100701MD1999999+0191REMSYN076AAXX  16124 82198 32495 50508 10303 20234 30070 40121 85200 333 20236 58019;
0137821980999992009101618004-01717-045400FM-12+004499999V0200501N004110042019N0020001N1+03251+02221100911ADDGF105991051021004501001001MA1999999100401MD1999999+0111REMSYN070AAXX  16184 82198 32495 50508 10325 20222 30040 40091 85200 333 58011;
0178821980999992009101700004-01717-045400FM-12+004499999V0200201N002112200019N0002001N1+02641+02351101091ADDGA1001+999999999GF100991001001999999001001KA1240M+03351MA1999999100581MD1999999+0111REMSYN082AAXX  17004 82198 32992 00204 10264 20235 30058 40109 333 10335 29072 55102 58011;
0184821980999992009101712004-01717-045400FM-12+004499999V0200201N003110042019N0020001N1+03001+02321101311ADDAY111061AY221061GF105991051021004501001001KA1240N+02361MA1999999100801MD1999999+0101MW1041REMSYN082AAXX  17124 82198 31495 50206 10300 20232 30080 40131 70412 85200 333 20236 58010;
0165821980999992009101718004-01717-045400FM-12+004499999V0200201N003112200019N0010001N1+03121+02251101001ADDAY121061AY221061GF104991041021004501001001MA1999999100491MD1999999+0091MW1041REMSYN076AAXX  17184 82198 31494 40206 10312 20225 30049 40100 70422 84200 333 58009;
0178821980999992009101800004-01717-045400FM-12+004499999V0200201N002112200019N0002001N1+02621+02311101161ADDGA1001+999999999GF100991001001999999001001KA1240M+03251MA1999999100651MD1999999+0071REMSYN082AAXX  18004 82198 32992 00204 10262 20231 30065 40116 333 10325 29073 55081 58007;
0156821980999992009101812004-01717-045400FM-12+004499999V0200201N003612200019N0020001N1+02921+02321101111ADDGF104991041021004501001001KA1240N+02341MA1999999100601MD1999999-0201REMSYN076AAXX  18124 82198 32495 40207 10292 20232 30060 40111 84200 333 20234 59020;
0137821980999992009101818004-01717-045400FM-12+004499999V0200501N004610450019N0020001N1+03161+02361100901ADDGF105991041021004501061001MA1999999100391MD1999999-0101REMSYN070AAXX  18184 82198 32495 50509 10316 20236 30039 40090 84260 333 59010;
0178821980999992009101900004-01717-045400FM-12+004499999V0200501N002612200019N0002001N1+02641+02331100981ADDGA1001+999999999GF100991001001999999001001KA1240M+03201MA1999999100471MD1999999-0181REMSYN082AAXX  19004 82198 32992 00505 10264 20233 30047 40098 333 10320 29074 55079 59018;
0184821980999992009101912004-01717-045400FM-12+004499999V0200201N003110042019N0010001N1+02971+02351101141ADDAY111061AY221061GF106991061021004501001001KA1240N+02361MA1999999100631MD1999999+0031MW1041REMSYN082AAXX  19124 82198 31494 60206 10297 20235 30063 40114 70412 86200 333 20236 58003;
0165821980999992009101918004-01717-045400FM-12+004499999V0200201N004110450019N0010001N1+03141+02181100821ADDAY121061AY221061GF105991041021004501061001MA1999999100311MD1999999-0081MW1041REMSYN076AAXX  19184 82198 31494 50208 10314 20218 30031 40082 70422 84260 333 59008;
0178821980999992009102000004-01717-045400FM-12+004499999V0200501N002612200019N0002001N1+02621+02311100971ADDGA1001+999999999GF100991001001999999001001KA1240M+03281MA1999999100461MD1999999-0011REMSYN082AAXX  20004 82198 32992 00505 10262 20231 30046 40097 333 10328 29074 55086 59001;
0184821980999992009102012004-01717-045400FM-12+004499999V0200501N004610042019N0010001N1+03021+02241101151ADDAY111061AY221061GF105991051021004501001001KA1240N+02451MA1999999100641MD1999999+0011MW1041REMSYN082AAXX  20124 82198 31494 50509 10302 20224 30064 40115 70412 85200 333 20245 58001;
0165821980999992009102018004-01717-045400FM-12+004499999V0200501N003612200019N0010001N1+03311+02261100911ADDAY121061AY221061GF105991031021004501001041MA1999999100401MD1999999+0091MW1041REMSYN076AAXX  20184 82198 31494 50507 10331 20226 30040 40091 70422 83204 333 58009;
0178821980999992009102100004-01717-045400FM-12+004499999V0200701N003112200019N0002001N1+02591+02291100961ADDGA1001+999999999GF100991001001999999001001KA1240M+03421MA1999999100451MD1999999-0011REMSYN082AAXX  21004 82198 32992 00706 10259 20229 30045 40096 333 10342 29072 55108 59001;
0184821980999992009102112004-01717-045400FM-12+004499999V0200501N004610042019N0010001N1+03021+02181101251ADDAY111061AY221061GF105991051021004501001001KA1240N+02331MA1999999100741MD1999999+0101MW1041REMSYN082AAXX  21124 82198 31494 50509 10302 20218 30074 40125 70412 85200 333 20233 58010;
0165821980999992009102118004-01717-045400FM-12+004499999V0200501N004112200019N0010001N1+03141+02271100911ADDAY121061AY211061GF103991021021004501001011MA1999999100401MD1999999+0001MW1041REMSYN076AAXX  21184 82198 31494 30508 10314 20227 30040 40091 70421 82201 333 58000;
0178821980999992009102200004-01717-045400FM-12+004499999V0200501N002612200019N0002001N1+02551+02271101021ADDGA1001+999999999GF100991001001999999001001KA1240M+03301MA1999999100511MD1999999+0061REMSYN082AAXX  22004 82198 32992 00505 10255 20227 30051 40102 333 10330 29071 55108 58006;
0184821980999992009102212004-01717-045400FM-12+004499999V0200701N004610042019N0010001N1+02871+02151101001ADDAY111061AY221061GF105991051021004501001001KA1240N+02331MA1999999100491MD1999999-0251MW1041REMSYN082AAXX  22124 82198 31494 50709 10287 20215 30049 40100 70412 85200 333 20233 59025;
0165821980999992009102218004-01717-045400FM-12+004499999V0203601N004610450019N0010001N1+03041+02181100901ADDAY121061AY221061GF107991041021004501031001MA1999999100381MD1999999-0021MW1041REMSYN076AAXX  22184 82198 31494 73609 10304 20218 30038 40090 70422 84230 333 59002;
0178821980999992009102300004-01717-045400FM-12+004499999V0203601N003612200019N0002001N1+02641+02201101131ADDGA1001+999999999GF100991001001999999001001KA1240M+03211MA1999999100621MD1999999+0111REMSYN082AAXX  23004 82198 32992 03607 10264 20220 30062 40113 333 10321 29070 55103 58011;
0184821980999992009102312004-01717-045400FM-12+004499999V0203601N003610450019N0010001N1+02851+02131101151ADDAY111061AY221061GF106991041021004501061001KA1240N+02431MA1999999100641MD1999999+0151MW1041REMSYN082AAXX  23124 82198 31494 63607 10285 20213 30064 40115 70412 84260 333 20243 58015;
0165821980999992009102318004-01717-045400FM-12+004499999V0200501N003610450019N0010001N1+03121+02191100921ADDAY121061AY221061GF107991041021004501031001MA1999999100411MD1999999+0031MW1041REMSYN076AAXX  23184 82198 31494 70507 10312 20219 30041 40092 70422 84230 333 58003;
0168821980999992009102400004-01717-045400FM-12+004499999V0200501N001512200019N0002001N1+02631+02271101111ADDGF102991021021004501001001KA1240M+03161MA1999999100601MD1999999-0021REMSYN088AAXX  24004 82198 32492 20503 10263 20227 30060 40111 82200 333 10316 29072 55074 59002;
0184821980999992009102412004-01717-045400FM-12+004499999V0200501N005110042019N0010001N1+03011+02241101151ADDAY111061AY221061GF105991051021004501001001KA1240N+02391MA1999999100641MD1999999+0001MW1041REMSYN082AAXX  24124 82198 31494 50510 10301 20224 30064 40115 70412 85200 333 20239 58000;
0165821980999992009102418004-01717-045400FM-12+004499999V0203601N004612200019N0010001N1+03121+02081100911ADDAY111061AY201061GF103991031021004501001001MA1999999100401MD1999999-0011MW1041REMSYN076AAXX  24184 82198 31494 33609 10312 20208 30040 40091 70410 83200 333 59001;
0178821980999992009102500004-01717-045400FM-12+004499999V0200501N002112200019N0002001N1+02611+02251101081ADDGA1001+999999999GF100991001001999999001001KA1240M+03271MA1999999100571MD1999999-0031REMSYN082AAXX  25004 82198 32992 00504 10261 20225 30057 40108 333 10327 29070 55108 59003;
0203821980999992009102512004-01717-045400FM-12+004499999V0203601N004619999999N0010001N1+02861+02371101101ADDAY111061AY221061GF106991999021004501001001KA1240N+02331MA1999999100591MD1999999-0051MW1041REMSYN082AAXX  25124 82198 31494 63609 10286 20237 30059 40110 70412 83200 333 20233 59005;EQDQ01+000032SCOTLC
0165821980999992009102518004-01717-045400FM-12+004499999V0203601N004112200019N0010001N1+03171+02301100821ADDAY101061AY211061GF102991021021004501001001MA1999999100311MD1999999-0091MW1041REMSYN076AAXX  25184 82198 31494 23608 10317 20230 30031 40082 70401 82200 333 59009;
0178821980999992009102600004-01717-045400FM-12+004499999V0200501N002612200019N0002001N1+02631+02331101031ADDGA1001+999999999GF100991001001999999001001KA1240M+03341MA1999999100521MD1999999-0051REMSYN082AAXX  26004 82198 32992 00505 10263 20233 30052 40103 333 10334 29076 55106 59005;
0184821980999992009102612004-01717-045400FM-12+004499999V0203601N002612200019N0010001N1+02961+02351101111ADDAY101061AY211061GF103991031021004501001001KA1240N+02311MA1999999100601MD1999999+0011MW1041REMSYN082AAXX  26124 82198 31494 33605 10296 20235 30060 40111 70401 83200 333 20231 58001;
0165821980999992009102618004-01717-045400FM-12+004499999V0203601N007212200019N0010001N1+03081+02351100851ADDAY111061AY211061GF103991031021004501001001MA1999999100341MD1999999+0031MW1041REMSYN076AAXX  26184 82198 31494 33614 10308 20235 30034 40085 70411 83200 333 58003;
0206821980999992009102700004-01717-045400FM-12+004499999V0200501N003612200019N0002001N1+02651+02331101051ADDAY191061AY201061GA1001+999999999GF100991001001999999001001KA1240M+03361MA1999999100541MD1999999+0021MW1001REMSYN088AAXX  27004 82198 31992 00507 10265 20233 30054 40105 70090 333 10336 29076 55101 58002;
0156821980999992009102712004-01717-045400FM-12+004499999V0200701N004112200019N0010001N1+03001+02391101101ADDGF105991041021004501001011KA1240N+02301MA1999999100591MD1999999-0011REMSYN076AAXX  27124 82198 32494 50708 10300 20239 30059 40110 84201 333 20230 59001;
0137821980999992009102718004-01717-045400FM-12+004499999V0200501N005112200019N0010001N1+03281+02291100791ADDGF104991041021004501001001MA1999999100281MD1999999-0061REMSYN070AAXX  27184 82198 32494 40510 10328 20229 30028 40079 84200 333 59006;
0168821980999992009102800004-01717-045400FM-12+004499999V0200501N002112200019N0002001N1+02641+02331101051ADDGF102991021011004501001001KA1240M+03381MA1999999100541MD1999999+0001REMSYN088AAXX  28004 82198 32492 20504 10264 20233 30054 40105 82100 333 10338 29073 55098 58000;
0184821980999992009102812004-01717-045400FM-12+004499999V0200701N004110042019N0010001N1+02961+02231101131ADDAY121061AY211061GF106991061021004501001001KA1240N+02361MA1999999100621MD1999999+0031MW1041REMSYN082AAXX  28124 82198 31494 60708 10296 20223 30062 40113 70421 86200 333 20236 58003;
0165821980999992009102818004-01717-045400FM-12+004499999V0200501N004110450019N0010001N1+03021+02341100791ADDAY121061AY221061GF106991021021004501071001MA1999999100281MD1999999+0001MW1041REMSYN076AAXX  28184 82198 31494 60508 10302 20234 30028 40079 70422 82270 333 58000;
0178821980999992009102900004-01717-045400FM-12+004499999V0200501N002612200019N0002001N1+02631+02331100871ADDGA1001+999999999GF100991001001999999001001KA1240M+03141MA1999999100361MD1999999-0181REMSYN082AAXX  29004 82198 32992 00505 10263 20233 30036 40087 333 10314 29075 55055 59018;
0156821980999992009102912004-01717-045400FM-12+004499999V0200501N005710450019N0020001N1+03041+02281101081ADDGF105991041021004501061001KA1240N+02371MA1999999100571MD1999999-0051REMSYN076AAXX  29124 82198 32495 50511 10304 20228 30057 40108 84260 333 20237 59005;
0137821980999992009102918004-01717-045400FM-12+004499999V0200701N003610450019N0020001N1+03101+02231100781ADDGF106991041021004501061001MA1999999100271MD1999999-0011REMSYN070AAXX  29184 82198 32495 60707 10310 20223 30027 40078 84260 333 59001;
0168821980999992009103000004-01717-045400FM-12+004499999V0200501N003112200019N0002001N1+02601+02271100861ADDGF102991021001012501061001KA1240M+03281MA1999999100351MD1999999-0011REMSYN088AAXX  30004 82198 32692 20506 10260 20227 30035 40086 82060 333 10328 29072 55074 59001;
0156821980999992009103012004-01717-045400FM-12+004499999V0200201N004110450019N0020001N1+02891+02281100911ADDGF106991041021004501061001KA1240N+02311MA1999999100401MD1999999-0171REMSYN076AAXX  30124 82198 32495 60208 10289 20228 30040 40091 84260 333 20231 59017;
0137821980999992009103018004-01717-045400FM-12+004499999V0200501N003110450019N0020001N1+03231+02141100641ADDGF106991041021004501041001MA1999999100131MD1999999-0141REMSYN070AAXX  30184 82198 32495 60506 10323 20214 30013 40064 84240 333 59014;
0168821980999992009103100004-01717-045400FM-12+004499999V0200701N002112200019N0002001N1+02601+02311100891ADDGF102991021001012501061001KA1240M+03361MA1999999100381MD1999999+0031REMSYN088AAXX  31004 82198 32692 20704 10260 20231 30038 40089 82060 333 10336 29073 55085 58003;
0156821980999992009103112004-01717-045400FM-12+004499999V0200701N004610450019N0010001N1+03041+02201101041ADDGF106991031021004501061011KA1240N+02281MA1999999100531MD1999999+0131REMSYN076AAXX  31124 82198 32494 60709 10304 20220 30053 40104 83261 333 20228 58013;
0137821980999992009103118004-01717-045400FM-12+004499999V0200901N005710450019N0020001N1+03151+02101100651ADDGF107991041021004501061001MA1999999100141MD1999999+0011REMSYN070AAXX  31184 82198 32495 70911 10315 20210 30014 40065 84260 333 58001;
0168821980999992009110100004-01717-045400FM-12+004499999V0200501N002112200019N0002001N1+02541+02231100761ADDGF103991031001012501061001KA1240M+03421MA1999999100251MD1999999-0131REMSYN088AAXX  01004 82198 32692 30504 10254 20223 30025 40076 83060 333 10342 29070 55078 59013;
0184821980999992009110112004-01717-045400FM-12+004499999V0200701N005710042019N0010001N1+03081+02211101121ADDAY121061AY211061GF105991051021004501001001KA1240N+02281MA1999999100611MD1999999+0081MW1041REMSYN082AAXX  01124 82198 31494 50711 10308 20221 30061 40112 70421 85200 333 20228 58008;
0165821980999992009110118004-01717-045400FM-12+004499999V0200701N004112200019N0010001N1+03221+02231100731ADDAY121061AY221061GF104991041021004501001001MA1999999100221MD1999999+0081MW1041REMSYN076AAXX  01184 82198 31494 40708 10322 20223 30022 40073 70422 84200 333 58008;
0168821980999992009110200004-01717-045400FM-12+004499999V0200501N003112200019N0002001N1+02621+02311100981ADDGF104991041001012501061001KA1240M+03401MA1999999100471MD1999999+0221REMSYN088AAXX  02004 82198 32692 40506 10262 20231 30047 40098 84060 333 10340 29071 55100 58022;
0184821980999992009110212004-01717-045400FM-12+004499999V0200701N004110042019N0010001N1+02961+02331101161ADDAY121061AY221061GF107991051031004501041001KA1240N+02321MA1999999100651MD1999999+0041MW1041REMSYN082AAXX  02124 82198 31494 70708 10296 20233 30065 40116 70422 85340 333 20232 58004;
0165821980999992009110218004-01717-045400FM-12+004499999V0200701N005710450019N0010001N1+03201+02301100851ADDAY121061AY211061GF105991031021004501061001MA1999999100341MD1999999+0121MW1041REMSYN076AAXX  02184 82198 31494 50711 10320 20230 30034 40085 70421 83260 333 58012;
0168821980999992009110300004-01717-045400FM-12+004499999V0200701N002112200019N0002001N1+02621+02331101081ADDGF102991021001012501061001KA1240M+03341MA1999999100571MD1999999+0101REMSYN088AAXX  03004 82198 32692 20704 10262 20233 30057 40108 82060 333 10334 29074 55052 58010;
0184821980999992009110312004-01717-045400FM-12+004499999V0200501N005110450019N0010001N1+02851+02251101101ADDAY151061AY211061GF107991041051004501061001KA1240N+02421MA1999999100591MD1999999-0061MW1041REMSYN082AAXX  03124 82198 31494 70510 10285 20225 30059 40110 70451 84560 333 20242 59006;
0165821980999992009110318004-01717-045400FM-12+004499999V0200501N004610042019N0010001N1+03051+02141100821ADDAY121061AY221061GF108991051051004501061999MA1999999100311MD1999999-0031MW1041REMSYN076AAXX  03184 82198 31494 80509 10305 20214 30031 40082 70422 8556/ 333 59003;
0168821980999992009110400004-01717-045400FM-12+004499999V0200501N002611050019N0002001N1+02651+02291101001ADDGF105991021011004501011011KA1240M+03351MA1999999100491MD1999999-0081REMSYN088AAXX  04004 82198 32492 50505 10265 20229 30049 40100 82111 333 10335 29074 55041 59008;
0184821980999992009110412004-01717-045400FM-12+004499999V0200701N006212200019N0010001N1+03031+02111101161ADDAY101061AY211061GF104991041021004501001001KA1240N+02491MA1999999100651MD1999999+0061MW1041REMSYN082AAXX  04124 82198 31494 40712 10303 20211 30065 40116 70401 84200 333 20249 58006;
0165821980999992009110418004-01717-045400FM-12+004499999V0200501N006212200019N0010001N1+03291+01991100981ADDAY121061AY201061GF103991021021004501001011MA1999999100471MD1999999+0161MW1041REMSYN076AAXX  04184 82198 31494 30512 10329 20199 30047 40098 70420 82201 333 58016;
0168821980999992009110500004-01717-045400FM-12+004499999V0200501N002612200019N0002001N1+02631+02291101161ADDGF102991011011004501001011KA1240M+03381MA1999999100651MD1999999+0161REMSYN088AAXX  05004 82198 32492 20505 10263 20229 30065 40116 81101 333 10338 29068 55105 58016;
0184821980999992009110512004-01717-045400FM-12+004499999V0200501N003612200019N0010001N1+02991+02241101351ADDAY101061AY221061GF106991041021004501001041KA1240N+02371MA1999999100841MD1999999+0191MW1041REMSYN082AAXX  05124 82198 31494 60507 10299 20224 30084 40135 70402 84204 333 20237 58019;
0178821980999992009110600004-01717-045400FM-12+004499999V0200501N003112200019N0002001N1+02611+02231101171ADDGA1001+999999999GF100991001001999999001001KA1240M+03351MA1999999100661MD1999999+0011REMSYN082AAXX  06004 82198 32992 00506 10261 20223 30066 40117 333 10335 29070 55105 58001;
0184821980999992009110612004-01717-045400FM-12+004499999V0200501N007710042019N0010001N1+02981+02201101131ADDAY101061AY211061GF105991051021004501001001KA1240N+02411MA1999999100621MD1999999-0221MW1041REMSYN082AAXX  06124 82198 31494 50515 10298 20220 30062 40113 70401 85200 333 20241 59022;
0165821980999992009110618004-01717-045400FM-12+004499999V0200701N006710450019N0010001N1+03081+02191100821ADDAY121061AY221061GF106991041021004501031001MA1999999100311MD1999999-0271MW1041REMSYN076AAXX  06184 82198 31494 60713 10308 20219 30031 40082 70422 84230 333 59027;
0178821980999992009110700004-01717-045400FM-12+004499999V0200501N002112200019N0002001N1+02641+02411101031ADDGA1001+999999999GF100991001001999999001001KA1240M+03231MA1999999100521MD1999999-0141REMSYN082AAXX  07004 82198 32992 00504 10264 20241 30052 40103 333 10323 29074 55091 59014;
0184821980999992009110712004-01717-045400FM-12+004499999V0200501N006210042019N0010001N1+03051+02221101041ADDAY101061AY211061GF105991051021004501001001KA1240N+02451MA1999999100531MD1999999-0091MW1041REMSYN082AAXX  07124 82198 31494 50512 10305 20222 30053 40104 70401 85200 333 20245 59009;
0165821980999992009110718004-01717-045400FM-12+004499999V0200701N005112200019N0010001N1+03301+02241100821ADDAY121061AY211061GF103991031021004501001001MA1999999100311MD1999999+0001MW1041REMSYN076AAXX  07184 82198 31494 30710 10330 20224 30031 40082 70421 83200 333 58000;
0178821980999992009110800004-01717-045400FM-12+004499999V0200501N002112200019N0002001N1+02621+02351100901ADDGA1001+999999999GF100991001001999999001001KA1240M+03401MA1999999100391MD1999999-0131REMSYN082AAXX  08004 82198 32992 00504 10262 20235 30039 40090 333 10340 29072 55108 59013;
0184821980999992009110812004-01717-045400FM-12+004499999V0200501N004612200019N0010001N1+03001+02321101071ADDAY101061AY211061GF106991041021004501001041KA1240N+02491MA1999999100561MD1999999+0031MW1041REMSYN082AAXX  08124 82198 31494 60509 10300 20232 30056 40107 70401 84204 333 20249 58003;
0178821980999992009110900004-01717-045400FM-12+004499999V0200501N002612200019N0002001N1+02651+02311100981ADDGA1001+999999999GF100991001001999999001001KA1240M+03331MA1999999100471MD1999999+0081REMSYN082AAXX  09004 82198 32992 00505 10265 20231 30047 40098 333 10333 29073 55106 58008;
0184821980999992009110912004-01717-045400FM-12+004499999V0203601N004610450019N0010001N1+02871+02271101091ADDAY101061AY211061GF106991031021004501061041KA1240N+02551MA1999999100581MD1999999+0021MW1041REMSYN082AAXX  09124 82198 31494 63609 10287 20227 30058 40109 70401 83264 333 20255 58002;
0165821980999992009110918004-01717-045400FM-12+004499999V0200501N005110450019N0010001N1+03111+02261100881ADDAY121061AY221061GF105991031021004501061001MA1999999100371MD1999999+0091MW1041REMSYN076AAXX  09184 82198 31494 50510 10311 20226 30037 40088 70422 83260 333 58009;
0178821980999992009111000004-01717-045400FM-12+004499999V0200501N002612200019N0002001N1+02631+02371100981ADDGA1001+999999999GF100991001001999999001001KA1240M+03211MA1999999100471MD1999999+0001REMSYN082AAXX  10004 82198 32992 00505 10263 20237 30047 40098 333 10321 29077 55090 58000;
0156821980999992009111012004-01717-045400FM-12+004499999V0200701N004610042019N0010001N1+02991+02351101051ADDGF105991051021004501001001KA1240N+02361MA1999999100541MD1999999-0041REMSYN076AAXX  10124 82198 32494 50709 10299 20235 30054 40105 85200 333 20236 59004;
0137821980999992009111018004-01717-045400FM-12+004499999V0200701N004112200019N0010001N1+03321+02291100801ADDGF104991041021004501001001MA1999999100281MD1999999-0081REMSYN070AAXX  10184 82198 32494 40708 10332 20229 30028 40080 84200 333 59008;
0178821980999992009111100004-01717-045400FM-12+004499999V0200501N002112200019N0002001N1+02641+02391101051ADDGA1001+999999999GF100991001001999999001001KA1240M+03461MA1999999100541MD1999999+0071REMSYN082AAXX  11004 82198 32992 00504 10264 20239 30054 40105 333 10346 29074 55110 58007;
0184821980999992009111112004-01717-045400FM-12+004499999V0200701N004110042019N0020001N1+03051+02301100981ADDAY121061AY211061GF105991051021004501001001KA1240N+02361MA1999999100471MD1999999-0071MW1041REMSYN082AAXX  11124 82198 31495 50708 10305 20230 30047 40098 70421 85200 333 20236 59007;
0165821980999992009111118004-01717-045400FM-12+004499999V0200701N004110450019N0010001N1+03221+02231100691ADDAY121061AY221061GF105991031021004501061001MA1999999100181MD1999999-0111MW1041REMSYN076AAXX  11184 82198 31494 50708 10322 20223 30018 40069 70422 83260 333 59011;
0178821980999992009111200004-01717-045400FM-12+004499999V0200501N002612200019N0002001N1+02641+02351100891ADDGA1001+999999999GF100991001001999999001001KA1240M+03361MA1999999100381MD1999999-0161REMSYN082AAXX  12004 82198 32992 00505 10264 20235 30038 40089 333 10336 29072 55073 59016;
0156821980999992009111212004-01717-045400FM-12+004499999V0200701N004112200019N0020001N1+03001+02311100871ADDGF102991021011004501001001KA1240N+02371MA1999999100361MD1999999-0111REMSYN076AAXX  12124 82198 32495 20708 10300 20231 30036 40087 82100 333 20237 59011;
0165821980999992009111218004-01717-045400FM-12+004499999V0200701N003110042019N0010001N1+03211+02331100591ADDAY121061AY211061GF105991051021004501001001MA1999999100081MD1999999-0101MW1041REMSYN076AAXX  12184 82198 31494 50706 10321 20233 30008 40059 70421 85200 333 59010;
0178821980999992009111300004-01717-045400FM-12+004499999V0200501N003612200019N0002001N1+02661+02391100721ADDGA1001+999999999GF100991001001999999001001KA1240M+03361MA1999999100211MD1999999-0171REMSYN082AAXX  13004 82198 32992 00507 10266 20239 30021 40072 333 10336 29073 55084 59017;
0184821980999992009111312004-01717-045400FM-12+004499999V0200501N005110042019N0010001N1+02921+02291100971ADDAY121061AY211061GF106991061021004501001001KA1240N+02431MA1999999100461MD1999999+0101MW1041REMSYN082AAXX  13124 82198 31494 60510 10292 20229 30046 40097 70421 86200 333 20243 58010;
0165821980999992009111318004-01717-045400FM-12+004499999V0200501N004110450019N0010001N1+02941+02361100721ADDAY121061AY221061GF105991041021004501061001MA1999999100211MD1999999+0131MW1041REMSYN076AAXX  13184 82198 31494 50508 10294 20236 30021 40072 70422 84260 333 58013;
0178821980999992009111400004-01717-045400FM-12+004499999V0200501N002612200019N0002001N1+02601+02331100921ADDGA1001+999999999GF100991001001999999001001KA1240M+03181MA1999999100411MD1999999+0201REMSYN082AAXX  14004 82198 32992 00505 10260 20233 30041 40092 333 10318 29078 55052 58020;
0156821980999992009111412004-01717-045400FM-12+004499999V0200701N006710042019N0020001N1+03031+02161101091ADDGF106991051021004501061001KA1240N+02261MA1999999100581MD1999999+0121REMSYN076AAXX  14124 82198 32495 60713 10303 20216 30058 40109 85260 333 20226 58012;
0156821980999992009111418004-01717-045400FM-12+004499999V0200701N006712200019N0010001N1+03181+02101100891ADDGF102991999021004501001001MA1999999100381MD1999999+0171REMSYN070AAXX  14184 82198 32494 20713 10318 20210 30038 40089 83200 333 58017;EQDQ01+000032SCOTLC
0178821980999992009111500004-01717-045400FM-12+004499999V0200501N002112200019N0002001N1+02581+02231101121ADDGA1001+999999999GF100991001001999999001001KA1240M+03321MA1999999100611MD1999999+0201REMSYN082AAXX  15004 82198 32992 00504 10258 20223 30061 40112 333 10332 29069 55110 58020;
0184821980999992009111512004-01717-045400FM-12+004499999V0200501N003610450019N0010001N1+02961+02261101171ADDAY121061AY211061GF106991041021004501061001KA1240N+02261MA1999999100661MD1999999+0081MW1041REMSYN082AAXX  15124 82198 31494 60507 10296 20226 30066 40117 70421 84260 333 20226 58008;
0165821980999992009111518004-01717-045400FM-12+004499999V0203601N004112200019N0010001N1+03121+02191100821ADDAY121061AY221061GF103991021011004501061001MA1999999100311MD1999999-0071MW1041REMSYN076AAXX  15184 82198 31494 33608 10312 20219 30031 40082 70422 82160 333 59007;
0178821980999992009111600004-01717-045400FM-12+004499999V0200501N003112200019N0002001N1+02621+02371100981ADDGA1001+999999999GF100991001001999999001001KA1240M+03401MA1999999100471MD1999999-0141REMSYN082AAXX  16004 82198 32992 00506 10262 20237 30047 40098 333 10340 29074 55107 59014;
0156821980999992009111612004-01717-045400FM-12+004499999V0200201N003110042019N0020001N1+02971+02401101171ADDGF107991051021004501061001KA1240N+02361MA1999999100661MD1999999+0001REMSYN076AAXX  16124 82198 32495 70206 10297 20240 30066 40117 85260 333 20236 58000;
0165821980999992009111618004-01717-045400FM-12+004499999V0200201N005110450019N0010001N1+03001+02291100851ADDAY121061AY221061GF106991041021004501061001MA1999999100341MD1999999+0031MW1041REMSYN076AAXX  16184 82198 31494 60210 10300 20229 30034 40085 70422 84260 333 58003;
0178821980999992009111700004-01717-045400FM-12+004499999V0200501N002112200019N0002001N1+02641+02331101071ADDGA1001+999999999GF100991001001999999001001KA1240M+03221MA1999999100561MD1999999+0091REMSYN082AAXX  17004 82198 32992 00504 10264 20233 30056 40107 333 10322 29076 55080 58009;
0184821980999992009111712004-01717-045400FM-12+004499999V0200501N004110450019N0010001N1+03021+02311101001ADDAY101061AY211061GF106991031021004501031091KA1240N+02411MA1999999100491MD1999999-0171MW1041REMSYN082AAXX  17124 82198 31494 60508 10302 20231 30049 40100 70401 83239 333 20241 59017;
0165821980999992009111718004-01717-045400FM-12+004499999V0203601N005112200019N0010001N1+03221+02181100831ADDAY121061AY211061GF103991031021004501001001MA1999999100321MD1999999-0021MW1041REMSYN076AAXX  17184 82198 31494 33610 10322 20218 30032 40083 70421 83200 333 59002;
0178821980999992009111800004-01717-045400FM-12+004499999V0200501N003112200019N0002001N1+02651+02271101041ADDGA1001+999999999GF100991001001999999001001KA1240M+03411MA1999999100531MD1999999-0031REMSYN082AAXX  18004 82198 32992 00506 10265 20227 30053 40104 333 10341 29071 55098 59003;
0156821980999992009111812004-01717-045400FM-12+004499999V0200501N003610042019N0020001N1+03021+02241101161ADDGF105991051021004501001001KA1240N+02451MA1999999100651MD1999999+0161REMSYN076AAXX  18124 82198 32495 50507 10302 20224 30065 40116 85200 333 20245 58016;
0137821980999992009111818004-01717-045400FM-12+004499999V0200901N006210042019N0020001N1+03091+02031100871ADDGF105991051021004501001001MA1999999100361MD1999999+0041REMSYN070AAXX  18184 82198 32495 50912 10309 20203 30036 40087 85200 333 58004;
0178821980999992009111900004-01717-045400FM-12+004499999V0200501N002612200019N0002001N1+02611+02231101071ADDGA1001+999999999GF100991001001999999001001KA1240M+03341MA1999999100561MD1999999+0031REMSYN082AAXX  19004 82198 32992 00505 10261 20223 30056 40107 333 10334 29070 55082 58003;
0156821980999992009111912004-01717-045400FM-12+004499999V0200701N005710042019N0020001N1+02981+02261101191ADDGF106991061021004501001001KA1240N+02391MA1999999100681MD1999999+0031REMSYN076AAXX  19124 82198 32495 60711 10298 20226 30068 40119 86200 333 20239 58003;
0137821980999992009111918004-01717-045400FM-12+004499999V0200501N003612200019N0020001N1+03281+02271100881ADDGF105991031021004501001011MA1999999100371MD1999999+0011REMSYN070AAXX  19184 82198 32495 50507 10328 20227 30037 40088 83201 333 58001;
0178821980999992009112000004-01717-045400FM-12+004499999V0200501N002112200019N0002001N1+02651+02271101021ADDGA1001+999999999GF100991001001999999001001KA1240M+03381MA1999999100511MD1999999-0051REMSYN082AAXX  20004 82198 32992 00504 10265 20227 30051 40102 333 10338 29071 55103 59005;
0184821980999992009112012004-01717-045400FM-12+004499999V0200501N004610450019N0010001N1+02901+02341101181ADDAY101061AY221061GF107991041071004501061001KA1240N+02481MA1999999100671MD1999999-0011MW1041REMSYN082AAXX  20124 82198 31494 70509 10290 20234 30067 40118 70402 84760 333 20248 59001;
0165821980999992009112018004-01717-045400FM-12+004499999V0200701N006712200019N0010001N1+03171+01991100921ADDAY121061AY211061GF103991031021004501001001MA1999999100411MD1999999+0041MW1041REMSYN076AAXX  20184 82198 31494 30713 10317 20199 30041 40092 70421 83200 333 58004;
0178821980999992009112100004-01717-045400FM-12+004499999V0200501N003612200019N0002001N1+02561+02211101071ADDGA1001+999999999GF100991001001999999001001KA1240M+03231MA1999999100561MD1999999+0051REMSYN082AAXX  21004 82198 32992 00507 10256 20221 30056 40107 333 10323 29071 55073 58005;
0156821980999992009112112004-01717-045400FM-12+004499999V0200701N007212200019N0020001N1+03041+02121101251ADDGF105991031021004501001011KA1240N+02421MA1999999100741MD1999999+0071REMSYN076AAXX  21124 82198 32495 50714 10304 20212 30074 40125 83201 333 20242 58007;
0137821980999992009112118004-01717-045400FM-12+004499999V0200701N006212200019N0020001N1+03241+01891100991ADDGF103991031011004501001001MA1999999100481MD1999999+0071REMSYN070AAXX  21184 82198 32495 30712 10324 20189 30048 40099 83100 333 58007;
0178821980999992009112200004-01717-045400FM-12+004499999V0200501N002112200019N0002001N1+02601+02271101171ADDGA1001+999999999GF100991001001999999001001KA1240M+03371MA1999999100661MD1999999+0101REMSYN082AAXX  22004 82198 32992 00504 10260 20227 30066 40117 333 10337 29067 55110 58010;
0156821980999992009112212004-01717-045400FM-12+004499999V0200501N006210450019N0020001N1+02981+02121101151ADDGF106991041021004501061001KA1240N+02351MA1999999100641MD1999999-0101REMSYN076AAXX  22124 82198 32495 60512 10298 20212 30064 40115 84260 333 20235 59010;
0165821980999992009112218004-01717-045400FM-12+004499999V0200701N007212200019N0010001N1+03241+02191100891ADDAY121061AY211061GF103991031021004501001001MA1999999100381MD1999999-0101MW1041REMSYN076AAXX  22184 82198 31494 30714 10324 20219 30038 40089 70421 83200 333 59010;
0184821980999992009112312004-01717-045400FM-12+004499999V0200701N005110042019N0010001N1+02961+02351101111ADDAY101061AY211061GF106991061021004501001001KA1240N+02431MA1999999100601MD1999999-0041MW1041REMSYN082AAXX  23124 82198 31494 60710 10296 20235 30060 40111 70401 86200 333 20243 59004;
0137821980999992009112318004-01717-045400FM-12+004499999V0200501N003612200019N0020001N1+03171+02241100811ADDGF104991041021004501001001MA1999999100301MD1999999-0081REMSYN070AAXX  23184 82198 32495 40507 10317 20224 30030 40081 84200 333 59008;
0168821980999992009112400004-01717-045400FM-12+004499999V0200501N002112200019N0002001N1+02601+02231100981ADDGF101991011011004501001001KA1240M+03401MA1999999100471MD1999999-0091REMSYN088AAXX  24004 82198 32492 10504 10260 20223 30047 40098 81100 333 10340 29072 55107 59009;
0156821980999992009112412004-01717-045400FM-12+004499999V0200501N003610042019N0020001N1+02951+02241101041ADDGF105991051021004501001001KA1240N+02341MA1999999100531MD1999999-0071REMSYN076AAXX  24124 82198 32495 50507 10295 20224 30053 40104 85200 333 20234 59007;
0137821980999992009112418004-01717-045400FM-12+004499999V0200701N005112200019N0020001N1+03221+02201100781ADDGF103991031021004501001001MA1999999100271MD1999999-0031REMSYN070AAXX  24184 82198 32495 30710 10322 20220 30027 40078 83200 333 59003;
0178821980999992009112500004-01717-045400FM-12+004499999V0200501N002112200019N0002001N1+02601+02251100991ADDGA1001+999999999GF100991001001999999001001KA1240M+03341MA1999999100481MD1999999+0011REMSYN082AAXX  25004 82198 32992 00504 10260 20225 30048 40099 333 10334 29071 55101 58001;
0156821980999992009112512004-01717-045400FM-12+004499999V0200501N003110450019N0020001N1+03001+02191101101ADDGF107991041021004501061001KA1240N+02301MA1999999100591MD1999999+0061REMSYN076AAXX  25124 82198 32495 70506 10300 20219 30059 40110 84260 333 20230 58006;
0182821980999992009112518004-01717-045400FM-12+004499999V0200701N004610042019N0010001N1+02921+02291100911ADDAA106000021AY121061AY221061GF107991051031004501061001MA1999999100401MD1999999+0131MW1201REMSYN082AAXX  25184 82198 21494 70709 10292 20229 30040 40091 72022 85360 333 58013 69911;
0178821980999992009112600004-01717-045400FM-12+004499999V0200501N002612200019N0002001N1+02601+02311101121ADDGA1001+999999999GF100991001001999999001001KA1240M+03161MA1999999100611MD1999999+0131REMSYN082AAXX  26004 82198 32992 00505 10260 20231 30061 40112 333 10316 29075 55049 58013;
0173821980999992009112612004-01717-045400FM-12+004499999V0200501N004610042019N0010001N1+03021+02211101271ADDAA124000021GF106991061021004501001001KA1240N+02331MA1999999100761MD1999999+0171REMSYN082AAXX  26124 82198 22494 60509 10302 20221 30076 40127 86200 333 20233 58017 69914;
0165821980999992009112618004-01717-045400FM-12+004499999V0200501N004610042019N0010001N1+03251+02191101021ADDAY121061AY221061GF105991051021004501001001MA1999999100511MD1999999+0111MW1041REMSYN076AAXX  26184 82198 31494 50509 10325 20219 30051 40102 70422 85200 333 58011;
0178821980999992009112700004-01717-045400FM-12+004499999V0200501N002112200019N0002001N1+02601+02291101111ADDGA1001+999999999GF100991001001999999001001KA1240M+03271MA1999999100601MD1999999-0011REMSYN082AAXX  27004 82198 32992 00504 10260 20229 30060 40111 333 10327 29070 55087 59001;
0156821980999992009112712004-01717-045400FM-12+004499999V0200701N006712200019N0020001N1+03041+02261101131ADDGF105991041021004501001011KA1240N+02281MA1999999100621MD1999999-0141REMSYN076AAXX  27124 82198 32495 50713 10304 20226 30062 40113 84201 333 20228 59014;
0165821980999992009112718004-01717-045400FM-12+004499999V0200701N006712200019N0020001N1+03221+02081100861ADDAY121061AY211061GF104991031021004501001011MA1999999100351MD1999999-0161MW1041REMSYN076AAXX  27184 82198 31495 40713 10322 20208 30035 40086 70421 83201 333 59016;
0168821980999992009112800004-01717-045400FM-12+004499999V0200501N002112200019N0002001N1+02621+02311101011ADDGF102991021001012501061001KA1240M+03401MA1999999100501MD1999999-0101REMSYN088AAXX  28004 82198 32692 20504 10262 20231 30050 40101 82060 333 10340 29070 55109 59010;
0156821980999992009112812004-01717-045400FM-12+004499999V0200501N005110450019N0020001N1+03071+02371101081ADDGF105991031021004501061001KA1240N+02321MA1999999100571MD1999999-0051REMSYN076AAXX  28124 82198 32495 50510 10307 20237 30057 40108 83260 333 20232 59005;
0137821980999992009112818004-01717-045400FM-12+004499999V0200701N005110450019N0010001N1+03221+02291100791ADDGF106991031021004501051011MA1999999100281MD1999999-0071REMSYN070AAXX  28184 82198 32494 60710 10322 20229 30028 40079 83251 333 59007;
0168821980999992009112900004-01717-045400FM-12+004499999V0200501N002612200019N0002001N1+02661+02411100971ADDGF102991021001012501061001KA1240M+03381MA1999999100461MD1999999-0041REMSYN088AAXX  29004 82198 32692 20505 10266 20241 30046 40097 82060 333 10338 29074 55095 59004;
0156821980999992009112912004-01717-045400FM-12+004499999V0200701N006712200019N0020001N1+03121+02331101051ADDGF105991041021004501001011KA1240N+02361MA1999999100541MD1999999-0051REMSYN076AAXX  29124 82198 32495 50713 10312 20233 30054 40105 84201 333 20236 59005;
0165821980999992009112918004-01717-045400FM-12+004499999V0200701N006212200019N0010001N1+03241+02221100761ADDAY121061AY211061GF104991041021004501001001MA1999999100251MD1999999-0031MW1041REMSYN076AAXX  29184 82198 31494 40712 10324 20222 30025 40076 70421 84200 333 59003;
0178821980999992009113000004-01717-045400FM-12+004499999V0200501N004112200019N0002001N1+02681+02341100961ADDGA1001+999999999GF100991001001999999001001KA1240M+03441MA1999999100451MD1999999-0011REMSYN082AAXX  30004 82198 32992 00508 10268 20234 30045 40096 333 10344 29072 55104 59001;
0184821980999992009113012004-01717-045400FM-12+004499999V0200701N005712200019N0010001N1+03121+02461101081ADDAY121061AY211061GF104991041011004501001001KA1240N+02351MA1999999100571MD1999999+0031MW1041REMSYN082AAXX  30124 82198 31494 40711 10312 20246 30057 40108 70421 84100 333 20235 58003;
0165821980999992009113018004-01717-045400FM-12+004499999V0200501N005112200019N0010001N1+03321+02201100821ADDAY121061AY221061GF103991031021004501001001MA1999999100311MD1999999+0061MW1041REMSYN076AAXX  30184 82198 31494 30510 10332 20220 30031 40082 70422 83200 333 58006;
0178821980999992009120100004-01717-045400FM-12+004499999V0200501N002612200019N0002001N1+02661+02371101041ADDGA1001+999999999GF100991001001999999001001KA1240M+03451MA1999999100531MD1999999+0081REMSYN082AAXX  01004 82198 32992 00505 10266 20237 30053 40104 333 10345 29072 55100 58008;
0184821980999992009120112004-01717-045400FM-12+004499999V0200501N006210450019N0010001N1+02951+02321101051ADDAY101061AY211061GF106991031021004501061001KA1240N+02481MA1999999100541MD1999999-0031MW1041REMSYN082AAXX  01124 82198 31494 60512 10295 20232 30054 40105 70401 83260 333 20248 59003;
0165821980999992009120118004-01717-045400FM-12+004499999V0200701N004610450019N0010001N1+03181+02311100761ADDAY121061AY221061GF107991031021004501011061MA1999999100251MD1999999-0061MW1041REMSYN076AAXX  01184 82198 31494 70709 10318 20231 30025 40076 70422 83216 333 59006;
0168821980999992009120200004-01717-045400FM-12+004499999V0200501N003110450019N0002001N1+02681+02391100941ADDGF106991031011004501011001KA1240M+03371MA1999999100431MD1999999-0101REMSYN088AAXX  02004 82198 32492 60506 10268 20239 30043 40094 83110 333 10337 29074 55065 59010;
0156821980999992009120212004-01717-045400FM-12+004499999V0200701N004612200019N0020001N1+02981+02251101081ADDGF106991041021004501001041KA1240N+02441MA1999999100571MD1999999+0031REMSYN076AAXX  02124 82198 32495 60709 10298 20225 30057 40108 84204 333 20244 58003;
0137821980999992009120218004-01717-045400FM-12+004499999V0200701N005110450019N0020001N1+03261+02241100851ADDGF106991031021004501011061MA1999999100341MD1999999+0091REMSYN070AAXX  02184 82198 32495 60710 10326 20224 30034 40085 83216 333 58009;
0168821980999992009120300004-01717-045400FM-12+004499999V0200501N002110150019N0002001N1+02691+02291101021ADDGF105991051001017501011001KA1240M+03401MA1999999100511MD1999999+0081REMSYN088AAXX  03004 82198 32792 50504 10269 20229 30051 40102 85010 333 10340 29072 55093 58008;
0184821980999992009120312004-01717-045400FM-12+004499999V0200701N004110450019N0010001N1+02911+02341101121ADDAY101061AY221061GF106991031021004501061011KA1240N+02431MA1999999100611MD1999999+0041MW1041REMSYN082AAXX  03124 82198 31494 60708 10291 20234 30061 40112 70402 83261 333 20243 58004;
0165821980999992009120318004-01717-045400FM-12+004499999V0200501N004610450019N0010001N1+03181+02161100851ADDAY121061AY221061GF106991031021004501031091MA1999999100341MD1999999+0041MW1041REMSYN076AAXX  03184 82198 31494 60509 10318 20216 30034 40085 70422 83239 333 58004;
0178821980999992009120400004-01717-045400FM-12+004499999V0200501N003112200019N0002001N1+02661+02331101021ADDGA1001+999999999GF100991001001999999001001KA1240M+03411MA1999999100511MD1999999+0001REMSYN082AAXX  04004 82198 32992 00506 10266 20233 30051 40102 333 10341 29073 55092 58000;
0137821980999992009120418004-01717-045400FM-12+004499999V0203601N005110450019N0020001N1+03221+02201100771ADDGF106991031021004501011061MA1999999100261MD1999999-0081REMSYN070AAXX  04184 82198 32495 63610 10322 20220 30026 40077 83216 333 59008;
0168821980999992009120500004-01717-045400FM-12+004499999V0203601N003112200019N0002001N1+02661+02411100941ADDGF102991011021004501001041KA1240M+03401MA1999999100431MD1999999-0081REMSYN088AAXX  05004 82198 32492 23606 10266 20241 30043 40094 81204 333 10340 29074 55089 59008;
0156821980999992009120512004-01717-045400FM-12+004499999V0200701N006710450019N0020001N1+03021+02291101031ADDGF106991031021004501031011KA1240N+02461MA1999999100521MD1999999+0001REMSYN076AAXX  05124 82198 32495 60713 10302 20229 30052 40103 83231 333 20246 58000;
0137821980999992009120518004-01717-045400FM-12+004499999V0200701N004610450019N0020001N1+03321+02151100791ADDGF106991031021004501031091MA1999999100281MD1999999+0021REMSYN070AAXX  05184 82198 32495 60709 10332 20215 30028 40079 83239 333 58002;
0178821980999992009120600004-01717-045400FM-12+004499999V0200501N002112200019N0002001N1+02711+02351100971ADDGA1001+999999999GF100991001001999999001001KA1240M+03411MA1999999100461MD1999999+0031REMSYN082AAXX  06004 82198 32992 00504 10271 20235 30046 40097 333 10341 29070 55079 58003;
0184821980999992009120612004-01717-045400FM-12+004499999V0200501N005110450019N0010001N1+03021+02261101061ADDAY141061AY211061GF106991041021004501061001KA1240N+02521MA1999999100551MD1999999+0031MW1041REMSYN082AAXX  06124 82198 31494 60510 10302 20226 30055 40106 70441 84260 333 20252 58003;
0165821980999992009120618004-01717-045400FM-12+004499999V0200701N005110450019N0010001N1+03081+02291100821ADDAY121061AY221061GF107991041021004501061001MA1999999100311MD1999999+0031MW1041REMSYN076AAXX  06184 82198 31494 70710 10308 20229 30031 40082 70422 84260 333 58003;
0178821980999992009120700004-01717-045400FM-12+004499999V0200501N002112200019N0002001N1+02691+02291101041ADDGA1001+999999999GF100991001001999999001001KA1240M+03431MA1999999100531MD1999999+0071REMSYN082AAXX  07004 82198 32992 00504 10269 20229 30053 40104 333 10343 29074 55077 58007;
0184821980999992009120712004-01717-045400FM-12+004499999V0200701N005110450019N0010001N1+02951+02421101101ADDAY141061AY211061GF106991031021004501061001KA1240N+02471MA1999999100591MD1999999-0041MW1041REMSYN082AAXX  07124 82198 31494 60710 10295 20242 30059 40110 70441 83260 333 20247 59004;
0165821980999992009120718004-01717-045400FM-12+004499999V0200501N005110450019N0010001N1+03281+02431100771ADDAY121061AY221061GF106991031021004501011041MA1999999100261MD1999999-0051MW1041REMSYN076AAXX  07184 82198 31494 60510 10328 20243 30026 40077 70422 83214 333 59005;
0178821980999992009120800004-01717-045400FM-12+004499999V0203601N003612200019N0002001N1+02701+02351100961ADDGA1001+999999999GF100991001001999999001001KA1240M+03421MA1999999100451MD1999999-0081REMSYN082AAXX  08004 82198 32992 03607 10270 20235 30045 40096 333 10342 29074 55087 59008;
0184821980999992009120812004-01717-045400FM-12+004499999V0200701N004110042019N0010001N1+02931+02411101141ADDAY121061AY221061GF107991051051004501031001KA1240N+02421MA1999999100611MD1999999+0041MW1041REMSYN082AAXX  08124 82198 31494 70708 10293 20241 30061 40114 70422 85530 333 20242 58004;
0165821980999992009120818004-01717-045400FM-12+004499999V0200701N005110450019N0010001N1+03151+02181100821ADDAY121061AY211061GF105991031021004501031001MA1999999100311MD1999999+0051MW1041REMSYN076AAXX  08184 82198 31494 50710 10315 20218 30031 40082 70421 83230 333 58005;
0168821980999992009120900004-01717-045400FM-12+004499999V0200201N002112200019N0002001N1+02641+02411101031ADDGF103991031001012501061001KA1240M+03201MA1999999100521MD1999999+0071REMSYN088AAXX  09004 82198 32692 30204 10264 20241 30052 40103 83060 333 10320 29076 55032 58007;
0156821980999992009120912004-01717-045400FM-12+004499999V0200501N004110450019N0010001N1+02981+02281101101ADDGF105991041021004501031001KA1240N+02381MA1999999100591MD1999999-0041REMSYN076AAXX  09124 82198 32494 50508 10298 20228 30059 40110 84230 333 20238 59004;
0165821980999992009120918004-01717-045400FM-12+004499999V0200701N005110450019N0010001N1+03251+02221100831ADDAY121061AY221061GF105991031021004501031001MA1999999100321MD1999999+0011MW1041REMSYN076AAXX  09184 82198 31494 50710 10325 20222 30032 40083 70422 83230 333 58001;
0178821980999992009121000004-01717-045400FM-12+004499999V0200201N003112200019N0002001N1+02621+02311100971ADDGA1001+999999999GF100991001001999999001001KA1240M+03371MA1999999100461MD1999999-0061REMSYN082AAXX  10004 82198 32992 00206 10262 20231 30046 40097 333 10337 29072 55094 59006;
0156821980999992009121012004-01717-045400FM-12+004499999V0200701N004610042019N0020001N1+02941+02291101091ADDGF106991061021004501001001KA1240N+02381MA1999999100581MD1999999-0111REMSYN076AAXX  10124 82198 32495 60709 10294 20229 30058 40109 86200 333 20238 59011;
0165821980999992009121018004-01717-045400FM-12+004499999V0200701N005712200019N0010001N1+03251+02131100861ADDAY121061AY221061GF104991031021004501061001MA1999999100351MD1999999+0031MW1041REMSYN076AAXX  10184 82198 31494 40711 10325 20213 30035 40086 70422 83260 333 58003;
0178821980999992009121100004-01717-045400FM-12+004499999V0200501N002612200019N0002001N1+02671+02391101041ADDGA1001+999999999GF100991001001999999001001KA1240M+03431MA1999999100531MD1999999+0071REMSYN082AAXX  11004 82198 32992 00505 10267 20239 30053 40104 333 10343 29072 55091 58007;
0184821980999992009121112004-01717-045400FM-12+004499999V0200501N005110450019N0010001N1+02971+02331101181ADDAY121061AY211061GF107991041021004501061001KA1240N+02401MA1999999100671MD1999999+0091MW1041REMSYN082AAXX  11124 82198 31494 70510 10297 20233 30067 40118 70421 84260 333 20240 58009;
0165821980999992009121118004-01717-045400FM-12+004499999V0200501N004610450019N0010001N1+03221+02231100891ADDAY121061AY221061GF105991031021004501061021MA1999999100381MD1999999+0031MW1041REMSYN076AAXX  11184 82198 31494 50509 10322 20223 30038 40089 70422 83262 333 58003;
0178821980999992009121200004-01717-045400FM-12+004499999V0200501N003112200019N0002001N1+02681+02391101081ADDGA1001+999999999GF100991001001999999001001KA1240M+03301MA1999999100571MD1999999+0041REMSYN082AAXX  12004 82198 32992 00506 10268 20239 30057 40108 333 10330 29073 55061 58004;
0156821980999992009121212004-01717-045400FM-12+004499999V0200201N003610450019N0010001N1+02931+02321101251ADDGF107991041031004501061001KA1240N+02411MA1999999100741MD1999999+0071REMSYN076AAXX  12124 82198 32494 70207 10293 20232 30074 40125 84360 333 20241 58007;
0165821980999992009121218004-01717-045400FM-12+004499999V0200201N003610042019N0010001N1+02881+02281101021ADDAY121061AY221061GF108991051031004501041999MA1999999100511MD1999999+0131MW1041REMSYN076AAXX  12184 82198 31494 80207 10288 20228 30051 40102 70422 8534/ 333 58013;
0178821980999992009121300004-01717-045400FM-12+004499999V0200501N002112200019N0002001N1+02651+02391101081ADDGA1001+999999999GF100991001001999999001001KA1240M+03171MA1999999100571MD1999999+0001REMSYN082AAXX  13004 82198 32992 00504 10265 20239 30057 40108 333 10317 29078 55019 58000;
0156821980999992009121312004-01717-045400FM-12+004499999V0200501N005710450019N0020001N1+03021+02341101131ADDGF107991041031004501031001KA1240N+02401MA1999999100621MD1999999-0121REMSYN076AAXX  13124 82198 32495 70511 10302 20234 30062 40113 84330 333 20240 59012;
0137821980999992009121318004-01717-045400FM-12+004499999V0200201N005110450019N0020001N1+02931+02321100881ADDGF105991031021004501061001MA1999999100371MD1999999-0171REMSYN070AAXX  13184 82198 32495 50210 10293 20232 30037 40088 83260 333 59017;
0168821980999992009121400004-01717-045400FM-12+004499999V0200501N003110450019N0002001N1+02701+02331101021ADDGF106991031021004501061001KA1240M+03341MA1999999100511MD1999999-0061REMSYN088AAXX  14004 82198 32492 60506 10270 20233 30051 40102 83260 333 10334 29074 55085 59006;
0156821980999992009121412004-01717-045400FM-12+004499999V0200201N003610042019N0020001N1+02891+02371101021ADDGF105991051021004501001001KA1240N+02361MA1999999100511MD1999999-0111REMSYN076AAXX  14124 82198 32495 50207 10289 20237 30051 40102 85200 333 20236 59011;
0165821980999992009121418004-01717-045400FM-12+004499999V0200201N003610450019N0010001N1+02981+02301100771ADDAY121061AY221061GF106991041021004501061001MA1999999100261MD1999999-0111MW1041REMSYN076AAXX  14184 82198 31494 60207 10298 20230 30026 40077 70422 84260 333 59011;
0168821980999992009121500004-01717-045400FM-12+004499999V0200501N002610450019N0002001N1+02681+02391100971ADDGF105991021011004501061001KA1240M+03251MA1999999100461MD1999999-0051REMSYN088AAXX  15004 82198 32492 50505 10268 20239 30046 40097 82160 333 10325 29077 55064 59005;
0184821980999992009121512004-01717-045400FM-12+004499999V0200501N005710450019N0010001N1+02971+02341101001ADDAY111061AY221061GF107991041021004501061001KA1240N+02491MA1999999100491MD1999999-0021MW1041REMSYN082AAXX  15124 82198 31494 70511 10297 20234 30049 40100 70412 84260 333 20249 59002;
0165821980999992009121518004-01717-045400FM-12+004499999V0200501N005711050019N0010001N1+03281+02291100711ADDAY121061AY221061GF105991031021004501001091MA1999999100201MD1999999-0061MW1041REMSYN076AAXX  15184 82198 31494 50511 10328 20229 30020 40071 70422 83209 333 59006;
0178821980999992009121600004-01717-045400FM-12+004499999V0200501N002612200019N0002001N1+02691+02211100931ADDGA1001+999999999GF100991001001999999001001KA1240M+03371MA1999999100421MD1999999-0041REMSYN082AAXX  16004 82198 32992 00505 10269 20221 30042 40093 333 10337 29070 55089 59004;
0184821980999992009121612004-01717-045400FM-12+004499999V0200501N002610450019N0010001N1+03031+02271101131ADDAY111061AY221061GF107991031021004501061091KA1240N+02501MA1999999100621MD1999999+0131MW1041REMSYN082AAXX  16124 82198 31494 70505 10303 20227 30062 40113 70412 83269 333 20250 58013;
0165821980999992009121618004-01717-045400FM-12+004499999V0200701N006710450019N0010001N1+03201+02151100811ADDAY121061AY221061GF106991031021004501031041MA1999999100301MD1999999+0101MW1041REMSYN076AAXX  16184 82198 31494 60713 10320 20215 30030 40081 70422 83234 333 58010;
0178821980999992009121700004-01717-045400FM-12+004499999V0200501N002612200019N0002001N1+02671+02171100991ADDGA1001+999999999GF100991001001999999001001KA1240M+03311MA1999999100481MD1999999+0061REMSYN082AAXX  17004 82198 32992 00505 10267 20217 30048 40099 333 10331 29068 55036 58006;
0156821980999992009121712004-01717-045400FM-12+004499999V0200701N008210042019N0020001N1+03001+02221101101ADDGF106991061021004501001001KA1240N+02481MA1999999100591MD1999999-0031REMSYN076AAXX  17124 82198 32495 60716 10300 20222 30059 40110 86200 333 20248 59003;
0137821980999992009121718004-01717-045400FM-12+004499999V0200701N006212200019N0020001N1+03261+02151100821ADDGF106991041021004501001061MA1999999100311MD1999999+0011REMSYN070AAXX  17184 82198 32495 60712 10326 20215 30031 40082 84206 333 58001;
0178821980999992009121800004-01717-045400FM-12+004499999V0200501N002612200019N0002001N1+02671+02271100921ADDGA1001+999999999GF100991001001999999001001KA1240M+03371MA1999999100411MD1999999-0071REMSYN082AAXX  18004 82198 32992 00505 10267 20227 30041 40092 333 10337 29070 55096 59007;
0156821980999992009121812004-01717-045400FM-12+004499999V0200701N005710450019N0020001N1+03041+02281101071ADDGF106991041021004501061001KA1240N+02511MA1999999100561MD1999999-0031REMSYN076AAXX  18124 82198 32495 60711 10304 20228 30056 40107 84260 333 20251 59003;
0182821980999992009121818004-01717-045400FM-12+004499999V0200501N006210450019N0020001N1+03111+02341100901ADDAA106003091AY161061AY221061GF106991031021004501061041MA1999999100391MD1999999+0081MW1021REMSYN082AAXX  18184 82198 21495 60512 10311 20234 30039 40090 70262 83264 333 58008 60031;
0173821980999992009121912004-01717-045400FM-12+004499999V0200701N007710450019N0020001N1+03021+02241101121ADDAA124003091GF105991031021004501031001KA1240N+02481MA1999999100611MD1999999+0051REMSYN082AAXX  19124 82198 22495 50715 10302 20224 30061 40112 83230 333 20248 58005 60034;
0137821980999992009121918004-01717-045400FM-12+004499999V0200501N006212200019N0020001N1+03251+02241100911ADDGF104991031021004501001011MA1999999100401MD1999999+0011REMSYN070AAXX  19184 82198 32495 40512 10325 20224 30040 40091 83201 333 58001;
0168821980999992009122000004-01717-045400FM-12+004499999V0200501N003110042019N0002001N1+02771+02381101091ADDGF105991051021004501001001KA1240M+03401MA1999999100591MD1999999+0021REMSYN088AAXX  20004 82198 32492 50506 10277 20238 30059 40109 85200 333 10340 29069 55092 58002;
0156821980999992009122012004-01717-045400FM-12+004499999V0200501N003110450019N0020001N1+03011+02291101131ADDGF105991031021004501031041KA1240N+02561MA1999999100621MD1999999+0011REMSYN076AAXX  20124 82198 32495 50506 10301 20229 30062 40113 83234 333 20256 58001;
0137821980999992009122018004-01717-045400FM-12+004499999V0200701N004612200019N0020001N1+03281+02201100921ADDGF106991041021004501001011MA1999999100411MD1999999+0011REMSYN070AAXX  20184 82198 32495 60709 10328 20220 30041 40092 84201 333 58001;
0178821980999992009122100004-01717-045400FM-12+004499999V0200701N002112200019N0002001N1+02711+02371101031ADDGA1001+999999999GF100991001001999999001001KA1240M+03401MA1999999100521MD1999999-0061REMSYN082AAXX  21004 82198 32492 00704 10271 20237 30052 40103 333 10340 29071 55089 59006;
0184821980999992009122112004-01717-045400FM-12+004499999V0201101N002610450019N0010001N1+02821+02291101251ADDAY101061AY211061GF106991031021004501061011KA1240N+02481MA1999999100741MD1999999+0121MW1041REMSYN082AAXX  21124 82198 31494 61105 10282 20229 30074 40125 70401 83261 333 20248 58012;
0165821980999992009122118004-01717-045400FM-12+004499999V0200501N005110450019N0010001N1+03291+02061100991ADDAY121061AY221061GF106991031021004501011041MA1999999100481MD1999999+0071MW1041REMSYN076AAXX  21184 82198 31494 60510 10329 20206 30048 40099 70422 83214 333 58007;
0196821980999992009122200004-01717-045400FM-12+004499999V0200501N002112200019N0002001N1+02701+02351101241ADDAY101061AY211061GF103991031021004501001001KA1240M+03341MA1999999100731MD1999999+0211MW1131REMSYN094AAXX  22004 82198 31492 30504 10270 20235 30073 40124 71301 83200 333 10334 29072 55066 58021;
0156821980999992009122212004-01717-045400FM-12+004499999V0200701N003610042019N0010001N1+02941+02451101391ADDGF107991051031004501061001KA1240N+02281MA1999999100881MD1999999+0141REMSYN076AAXX  22124 82198 32494 70707 10294 20245 30088 40139 85360 333 20228 58014;
0137821980999992009122218004-01717-045400FM-12+004499999V0200501N005110450019N0010001N1+03231+02261101051ADDGF105991031021004501061001MA1999999100541MD1999999+0061REMSYN070AAXX  22184 82198 32494 50510 10323 20226 30054 40105 83260 333 58006;
0178821980999992009122300004-01717-045400FM-12+004499999V0200501N002112200019N0002001N1+02701+02411101281ADDGA1001+999999999GF100991001001999999001001KA1240M+03351MA1999999100771MD1999999+0041REMSYN082AAXX  23004 82198 32992 00504 10270 20241 30077 40128 333 10335 29063 55063 58004;
0184821980999992009122312004-01717-045400FM-12+004499999V0201101N001510450019N0010001N1+02881+02441101421ADDAY121061AY211061GF106991041021004501061001KA1240N+02321MA1999999100911MD1999999+0031MW1041REMSYN082AAXX  23124 82198 31494 61103 10288 20244 30091 40142 70421 84260 333 20232 58003;
0165821980999992009122318004-01717-045400FM-12+004499999V0203601N003610450019N0010001N1+03021+02361101091ADDAY121061AY221061GF106991041021004501041001MA1999999100581MD1999999+0041MW1041REMSYN076AAXX  23184 82198 31494 63607 10302 20236 30058 40109 70422 84240 333 58004;
0168821980999992009122400004-01717-045400FM-12+004499999V0200501N002112200019N0002001N1+02641+02351101241ADDGF102991021011004501001001KA1240M+03371MA1999999100731MD1999999-0041REMSYN088AAXX  24004 82198 32492 20504 10264 20235 30073 40124 82100 333 10337 29078 55044 59004;
0156821980999992009122412004-01717-045400FM-12+004499999V0200201N004112200019N0020001N1+03031+02291101251ADDGF104991041021004501001001KA1240N+02341MA1999999100741MD1999999-0171REMSYN076AAXX  24124 82198 32495 40208 10303 20229 30074 40125 84200 333 20234 59017;
0137821980999992009122418004-01717-045400FM-12+004499999V0200501N005112200019N0020001N1+03221+02321101061ADDGF103991031021004501001001MA1999999100551MD1999999-0031REMSYN070AAXX  24184 82198 32495 30510 10322 20232 30055 40106 83200 333 59003;
0168821980999992009122500004-01717-045400FM-12+004499999V0200501N001512200019N0002001N1+02651+02391101181ADDGF102991021011004501001001KA1240M+03341MA1999999100671MD1999999-0061REMSYN088AAXX  25004 82198 32492 20503 10265 20239 30067 40118 82100 333 10334 29074 55110 59006;
0156821980999992009122512004-01717-045400FM-12+004499999V0200701N002612200019N0020001N1+03061+02301101221ADDGF104991031021004501001011KA1240N+02361MA1999999100711MD1999999-0031REMSYN076AAXX  25124 82198 32495 40705 10306 20230 30071 40122 83201 333 20236 59003;
0137821980999992009122518004-01717-045400FM-12+004499999V0200201N005112200019N0020001N1+03191+02251100951ADDGF104991031021004501061001MA1999999100441MD1999999-0111REMSYN070AAXX  25184 82198 32495 40210 10319 20225 30044 40095 83260 333 59011;
0168821980999992009122600004-01717-045400FM-12+004499999V0200501N002112200019N0002001N1+02691+02451101081ADDGF102991021011004501001001KA1240M+03331MA1999999100571MD1999999-0101REMSYN088AAXX  26004 82198 32492 20504 10269 20245 30057 40108 82100 333 10333 29074 55101 59010;
0156821980999992009122612004-01717-045400FM-12+004499999V0200501N002610042019N0020001N1+02921+02451101151ADDGF105991051021004501001001KA1240N+02361MA1999999100641MD1999999-0071REMSYN076AAXX  26124 82198 32495 50505 10292 20245 30064 40115 85200 333 20236 59007;
0182821980999992009122618004-01717-045400FM-12+004499999V0203601N005112200019N0020001N1+03171+02411100841ADDAA106002091AY161061AY221061GF103991021021004501001011MA1999999100331MD1999999-0111MW1021REMSYN082AAXX  26184 82198 21495 33610 10317 20241 30033 40084 70262 82201 333 59011 60021;
0168821980999992009122700004-01717-045400FM-12+004499999V0200501N002612200019N0002001N1+02701+02451100981ADDGF102991021021004501001001KA1240M+03351MA1999999100471MD1999999-0101REMSYN088AAXX  27004 82198 32492 20505 10270 20245 30047 40098 82200 333 10335 29078 55095 59010;
0173821980999992009122712004-01717-045400FM-12+004499999V0200701N004612200019N0020001N1+03181+02331101091ADDAA124002091GF105991041021004501001011KA1240N+02381MA1999999100581MD1999999-0061REMSYN082AAXX  27124 82198 22495 50709 10318 20233 30058 40109 84201 333 20238 59006 60024;
0137821980999992009122718004-01717-045400FM-12+004499999V0200701N007212200019N0020001N1+03281+02161100851ADDGF103991031021004501001001MA1999999100341MD1999999+0011REMSYN070AAXX  27184 82198 32495 30714 10328 20216 30034 40085 83200 333 58001;
0168821980999992009122800004-01717-045400FM-12+004499999V0200501N002112200019N0002001N1+02701+02391101031ADDGF102991021001004501061001KA1240M+03361MA1999999100521MD1999999+0051REMSYN088AAXX  28004 82198 32492 20504 10270 20239 30052 40103 82060 333 10336 29070 55101 58005;
0156821980999992009122812004-01717-045400FM-12+004499999V0200501N003610450019N0020001N1+02991+02401101161ADDGF105991041021004501061001KA1240N+02371MA1999999100651MD1999999+0071REMSYN076AAXX  28124 82198 32495 50507 10299 20240 30065 40116 84260 333 20237 58007;
0182821980999992009122818004-01717-045400FM-12+004499999V0200201N003610450019N0010001N1+03041+02381100891ADDAA106002091AY161061AY221061GF106991031021004501011001MA1999999100381MD1999999+0041MW1041REMSYN082AAXX  28184 82198 21494 60207 10304 20238 30038 40089 70462 83210 333 58004 60021;
0168821980999992009122900004-01717-045400FM-12+004499999V0200201N002112200019N0002001N1+02701+02391101081ADDGF104991041001012501041001KA1240M+03421MA1999999100571MD1999999+0051REMSYN088AAXX  29004 82198 32692 40204 10270 20239 30057 40108 84040 333 10342 29076 55063 58005;
0201821980999992009122912004-01717-045400FM-12+004499999V0200701N003610450019N0010001N1+02941+02431101061ADDAA124002091AY101061AY211061GF107991041021004501061041KA1240N+02461MA1999999100551MD1999999-0101MW1041REMSYN088AAXX  29124 82198 21494 70707 10294 20243 30055 40106 70401 84264 333 20246 59010 60024;
0165821980999992009122918004-01717-045400FM-12+004499999V0203601N005110450019N0010001N1+03021+02461100821ADDAY121061AY221061GF107991041021004501061041MA1999999100311MD1999999-0071MW1041REMSYN076AAXX  29184 82198 31494 73610 10302 20246 30031 40082 70422 84264 333 59007;
0168821980999992009123000004-01717-045400FM-12+004499999V0200501N004110450019N0002001N1+02721+02391100991ADDGF105991031021004501011001KA1240M+03241MA1999999100481MD1999999-0091REMSYN088AAXX  30004 82198 32492 50508 10272 20239 30048 40099 83210 333 10324 29078 55059 59009;
0184821980999992009123012004-01717-045400FM-12+004499999V0200201N002110450019N0010001N1+02901+02371101141ADDAY101061AY211061GF107991041021004501031041KA1240N+02601MA1999999100631MD1999999+0081MW1041REMSYN082AAXX  30124 82198 31494 70204 10290 20237 30063 40114 70401 84234 333 20260 58008;
0165821980999992009123018004-01717-045400FM-12+004499999V0203601N005110450019N0010001N1+03021+02311100881ADDAY121061AY221061GF107991041021004501061061MA1999999100371MD1999999+0061MW1041REMSYN076AAXX  30184 82198 31494 73610 10302 20231 30037 40088 70422 84266 333 58006;
0213821980999992009123100004-01717-045400FM-12+004499999V0200701N002110450019N0002001N1+02661+02481101221ADDAA106000891AY161061AY221061GF108991031071004501061999KA1240M+03431MA1999999100711MD1999999+0231MW1291REMSYN100AAXX  31004 82198 21492 80704 10266 20248 30071 40122 72962 8376/ 333 10343 29080 55066 58023 69971;
