0178823920999992009010100004-03700-040350FM-12+008399999V0200501N005112200019N0040001N1+02901+02171100911ADDGA1001+999999999GF100991001001999999001001KA1240M+03661MA1999999099901MD1999999+0041REMSYN082AAXX  01004 82392 32996 00510 10290 20217 39990 40091 333 10366 29056 55095 58004;
0156823920999992009010112004-03700-040350FM-12+008399999V0200901N001010450019N0500001N1+02881+02101101131ADDGF107991041051004501031001KA1240N+02441MA1999999100121MD1999999+0061REMSYN076AAXX  01124 82392 32499 70902 10288 20210 30012 40113 84530 333 20244 58006;
0182823920999992009010118004-03700-040350FM-12+008399999V0201801N002610450019N0500001N1+03101+02231100721ADDAA106001091AY161061AY261061GF108991031051004501021999MA1999999099701MD1999999+0041MW1021REMSYN082AAXX  01184 82392 21499 81805 10310 20223 39970 40072 70266 8352/ 333 58004 60011;
0178823920999992009010200004-03700-040350FM-12+008399999V0200501N002112200019N0040001N1+02721+02241100971ADDGA1001+999999999GF100991001001999999001001KA1240M+03721MA1999999099951MD1999999+0051REMSYN082AAXX  02004 82392 32996 00504 10272 20224 39995 40097 333 10372 29068 55077 58005;
0173823920999992009010212004-03700-040350FM-12+008399999V0200501N001010450019N0500001N1+02941+02161101141ADDAA124001091GF106991031021004501031001KA1240N+02341MA1999999100121MD1999999+0001REMSYN082AAXX  02124 82392 22499 60502 10294 20216 30012 40114 83230 333 20234 58000 60014;
0137823920999992009010218004-03700-040350FM-12+008399999V0200501N004110450019N0500001N1+03621+02001100691ADDGF105991041021004501031001MA1999999099681MD1999999-0021REMSYN070AAXX  02184 82392 32499 50508 10362 20200 39968 40069 84230 333 59002;
0178823920999992009010300004-03700-040350FM-12+008399999V0200501N005112200019N0040001N1+02761+02161100881ADDGA1001+999999999GF100991001001999999001001KA1240M+03721MA1999999099871MD1999999-0081REMSYN082AAXX  03004 82392 32996 00510 10276 20216 39987 40088 333 10372 29060 55086 59008;
0156823920999992009010312004-03700-040350FM-12+008399999V0203601N002110042019N0500001N1+02861+02091101071ADDGF106991061021004501001001KA1240N+02311MA1999999100051MD1999999-0071REMSYN076AAXX  03124 82392 32499 63604 10286 20209 30005 40107 86200 333 20231 59007;
0137823920999992009010318004-03700-040350FM-12+008399999V0203601N003110042019N0500001N1+03541+01801100601ADDGF105991051021004501001001MA1999999099601MD1999999-0081REMSYN070AAXX  03184 82392 32499 53606 10354 20180 39960 40060 85200 333 59008;
0168823920999992009010400004-03700-040350FM-12+008399999V0200501N004112200019N0040001N1+02731+02121100921ADDGF102991021001008001011001KA1240M+03641MA1999999099901MD1999999+0031REMSYN088AAXX  04004 82392 32596 20508 10273 20212 39990 40092 82010 333 10364 29059 55088 58003;
0156823920999992009010412004-03700-040350FM-12+008399999V0200901N001012200019N0500001N1+02901+02041101071ADDGF103991031021004501001001KA1240N+02241MA1999999100051MD1999999+0001REMSYN076AAXX  04124 82392 32499 30902 10290 20204 30005 40107 83200 333 20224 58000;
0137823920999992009010418004-03700-040350FM-12+008399999V0200501N002612200019N0500001N1+03641+01851100561ADDGF104991041021004501001001MA1999999099561MD1999999-0041REMSYN070AAXX  04184 82392 32499 40505 10364 20185 39956 40056 84200 333 59004;
0178823920999992009010500004-03700-040350FM-12+008399999V0200501N003112200019N0040001N1+02801+02151100891ADDGA1001+999999999GF100991001001999999001001KA1240M+03721MA1999999099881MD1999999-0021REMSYN082AAXX  05004 82392 32996 00506 10280 20215 39988 40089 333 10372 29058 55097 59002;
0156823920999992009010512004-03700-040350FM-12+008399999V0200501N002112200019N0500001N1+02901+02021101111ADDGF104991041021004501001001KA1240N+02201MA1999999100101MD1999999+0051REMSYN076AAXX  05124 82392 32499 40504 10290 20202 30010 40111 84200 333 20220 58005;
0137823920999992009010518004-03700-040350FM-12+008399999V0200501N002110450019N0500001N1+03641+01801100601ADDGF106991041041004501031001MA1999999099601MD1999999+0041REMSYN070AAXX  05184 82392 32499 60504 10364 20180 39960 40060 84430 333 58004;
0168823920999992009010600004-03700-040350FM-12+008399999V0203601N001012200019N0040001N1+02861+02011100911ADDGF102991021001008001031001KA1240M+03761MA1999999099901MD1999999+0021REMSYN088AAXX  06004 82392 32596 23602 10286 20201 39990 40091 82030 333 10376 29053 55103 58002;
0156823920999992009010612004-03700-040350FM-12+008399999V0200901N004112200019N0500001N1+02961+02051100961ADDGF104991031021004501001011KA1240N+02201MA1999999099951MD1999999-0051REMSYN076AAXX  06124 82392 32499 40908 10296 20205 39995 40096 83201 333 20220 59005;
0137823920999992009010618004-03700-040350FM-12+008399999V0200901N001512200019N0500001N1+03711+01621100401ADDGF104991041021004501001001MA1999999099401MD1999999-0201REMSYN070AAXX  06184 82392 32499 40903 10371 20162 39940 40040 84200 333 59020;
0168823920999992009010700004-03700-040350FM-12+008399999V0200501N002612200019N0040001N1+02791+01981100901ADDGF101991011001008001031001KA1240M+03821MA1999999099881MD1999999-0021REMSYN088AAXX  07004 82392 32596 10505 10279 20198 39988 40090 81030 333 10382 29052 55100 59002;
0156823920999992009010712004-03700-040350FM-12+008399999V0200501N002112200019N0500001N1+02861+02061101021ADDGF103991031021004501001001KA1240N+02301MA1999999100001MD1999999+0051REMSYN076AAXX  07124 82392 32499 30504 10286 20206 30000 40102 83200 333 20230 58005;
0137823920999992009010718004-03700-040350FM-12+008399999V0200501N001010450019N0500001N1+03501+01771100601ADDGF106991041021004501031001MA1999999099601MD1999999+0201REMSYN070AAXX  07184 82392 32499 60502 10350 20177 39960 40060 84230 333 58020;
0168823920999992009010800004-03700-040350FM-12+008399999V0203601N001510450019N0040001N1+02891+01871100811ADDGF106991021011004501011071KA1240M+03741MA1999999099791MD1999999-0091REMSYN088AAXX  08004 82392 32496 63603 10289 20187 39979 40081 82117 333 10374 29052 55046 59009;
0156823920999992009010812004-03700-040350FM-12+008399999V0209999C000010042019N0500001N1+02771+02111101091ADDGF107991051041004501031001KA1240N+02451MA1999999100071MD1999999+0071REMSYN076AAXX  08124 82392 32499 71800 10277 20211 30007 40109 85430 333 20245 58007;
0182823920999992009010818004-03700-040350FM-12+008399999V0200901N000510450019N0500001N1+03541+01931100601ADDAA106002091AY161061AY231061GF105991041041004501031001MA1999999099601MD1999999+0001MW1021REMSYN082AAXX  08184 82392 21499 50901 10354 20193 39960 40060 70263 84430 333 58000 60021;
0168823920999992009010900004-03700-040350FM-12+008399999V0200501N004112200019N0040001N1+02781+02161100971ADDGF103991031001004501031001KA1240M+03641MA1999999099951MD1999999+0161REMSYN088AAXX  09004 82392 32496 30508 10278 20216 39995 40097 83030 333 10364 29061 55074 58016;
0173823920999992009010912004-03700-040350FM-12+008399999V0200901N003112200019N0500001N1+02901+02041101221ADDAA124002091GF104991041021004501001001KA1240N+02321MA1999999100201MD1999999+0131REMSYN082AAXX  09124 82392 22499 40906 10290 20204 30020 40122 84200 333 20232 58013 60024;
0156823920999992009010918004-03700-040350FM-12+008399999V0200501N000519999999N0500001N1+03481+01841100771ADDGF106991999021004501001001MA1999999099761MD1999999+0161REMSYN070AAXX  09184 82392 32499 60501 10348 20184 39976 40077 84200 333 58016;EQDQ01+000042SCOTLC
0178823920999992009011000004-03700-040350FM-12+008399999V0200501N003112200019N0040001N1+02781+02181101121ADDGA1001+999999999GF100991001001999999001001KA1240M+03621MA1999999100101MD1999999+0051REMSYN082AAXX  10004 82392 32996 00506 10278 20218 30010 40112 333 10362 29060 55075 58005;
0137823920999992009011018004-03700-040350FM-12+008399999V0200501N001010042019N0500001N1+03401+02041100881ADDGF106991051021004501031001MA1999999099871MD1999999+0111REMSYN070AAXX  10184 82392 32499 60502 10340 20204 39987 40088 85230 333 58011;
0168823920999992009011100004-03700-040350FM-12+008399999V0200501N005710450019N0040001N1+02801+02201101121ADDGF106991031041004501031001KA1240M+03581MA1999999100101MD1999999+0001REMSYN088AAXX  11004 82392 32496 60511 10280 20220 30010 40112 83430 333 10358 29064 55054 58000;
0156823920999992009011112004-03700-040350FM-12+008399999V0200501N003110450019N0500001N1+02961+01991101181ADDGF106991041021004501011011KA1240N+02471MA1999999100171MD1999999-0111REMSYN076AAXX  11124 82392 32499 60506 10296 20199 30017 40118 84211 333 20247 59011;
0137823920999992009011118004-03700-040350FM-12+008399999V0200501N000512200019N0500001N1+03661+01621100601ADDGF105991031021004501001011MA1999999099601MD1999999-0271REMSYN070AAXX  11184 82392 32499 50501 10366 20162 39960 40060 83201 333 59027;
0156823920999992009011212004-03700-040350FM-12+008399999V0200501N001512200019N0500001N1+02941+02001101091ADDGF104991031021004501011001KA1240N+02341MA1999999100081MD1999999-0091REMSYN076AAXX  12124 82392 32499 40503 10294 20200 30008 40109 83210 333 20234 59009;
0137823920999992009011218004-03700-040350FM-12+008399999V0200501N002612200019N0500001N1+03621+01871100621ADDGF103991031021004501001001MA1999999099621MD1999999+0021REMSYN070AAXX  12184 82392 32499 30505 10362 20187 39962 40062 83200 333 58002;
0168823920999992009011300004-03700-040350FM-12+008399999V0203601N003112200019N0040001N1+02701+02171100981ADDGF103991021001008001031011KA1240M+03771MA1999999099961MD1999999+0021REMSYN088AAXX  13004 82392 32596 33606 10270 20217 39996 40098 82031 333 10377 29060 55093 58002;
0156823920999992009011312004-03700-040350FM-12+008399999V0200901N002110450019N0500001N1+02921+02061101121ADDGF105991031021004501031001KA1240N+02311MA1999999100101MD1999999+0021REMSYN076AAXX  13124 82392 32499 50904 10292 20206 30010 40112 83230 333 20231 58002;
0137823920999992009011318004-03700-040350FM-12+008399999V0209999C000010450019N0500001N1+03591+01721100731ADDGF105991031021004501031001MA1999999099721MD1999999+0101REMSYN070AAXX  13184 82392 32499 51800 10359 20172 39972 40073 83230 333 58010;
0168823920999992009011400004-03700-040350FM-12+008399999V0200501N001512200019N0040001N1+02741+02051100971ADDGF102991021001008001031001KA1240M+03661MA1999999099951MD1999999-0011REMSYN088AAXX  14004 82392 32596 20503 10274 20205 39995 40097 82030 333 10366 29056 55084 59001;
0156823920999992009011412004-03700-040350FM-12+008399999V0200501N003110450019N0500001N1+02861+02011101141ADDGF106991041041004501031001KA1240N+02401MA1999999100121MD1999999+0021REMSYN076AAXX  14124 82392 32499 60506 10286 20201 30012 40114 84430 333 20240 58002;
0137823920999992009011418004-03700-040350FM-12+008399999V0203601N001012200019N0500001N1+03401+02071100741ADDGF104991041021004501001001MA1999999099731MD1999999+0011REMSYN070AAXX  14184 82392 32499 43602 10340 20207 39973 40074 84200 333 58001;
0168823920999992009011500004-03700-040350FM-12+008399999V0203601N005110450019N0040001N1+02711+02191101001ADDGF105991031041004501031001KA1240M+03521MA1999999099981MD1999999+0031REMSYN088AAXX  15004 82392 32496 53610 10271 20219 39998 40100 83430 333 10352 29063 55054 58003;
0156823920999992009011512004-03700-040350FM-12+008399999V0200901N000510450019N0500001N1+02891+02101101231ADDGF106991031021004501031001KA1240N+02561MA1999999100211MD1999999+0091REMSYN076AAXX  15124 82392 32499 60901 10289 20210 30021 40123 83230 333 20256 58009;
0137823920999992009011518004-03700-040350FM-12+008399999V0203601N001510450019N0500001N1+03261+02081100731ADDGF107991041061004501031001MA1999999099721MD1999999-0011REMSYN070AAXX  15184 82392 32499 73603 10326 20208 39972 40073 84630 333 59001;
0168823920999992009011600004-03700-040350FM-12+008399999V0200501N004612200019N0040001N1+02701+02221101061ADDGF102991021001004501031001KA1240M+03481MA1999999100041MD1999999+0061REMSYN088AAXX  16004 82392 32496 20509 10270 20222 30004 40106 82030 333 10348 29066 55074 58006;
0156823920999992009011612004-03700-040350FM-12+008399999V0200901N001010450019N0500001N1+02801+02201101251ADDGF107991041051004501031001KA1240N+02441MA1999999100231MD1999999+0021REMSYN076AAXX  16124 82392 32499 70902 10280 20220 30023 40125 84530 333 20244 58002;
0156823920999992009011618004-03700-040350FM-12+008399999V0200901N001519999999N0500001N1+03611+01641100711ADDGF106991999011004501001001MA1999999099701MD1999999-0021REMSYN070AAXX  16184 82392 32499 60903 10361 20164 39970 40071 82100 333 59002;EQDQ01+000022SCOTLC
0178823920999992009011700004-03700-040350FM-12+008399999V0200501N002112200019N0040001N1+02781+02181101071ADDGA1001+999999999GF100991001001999999001001KA1240M+03721MA1999999100051MD1999999+0011REMSYN082AAXX  17004 82392 32996 00504 10278 20218 30005 40107 333 10372 29060 55060 58001;
0156823920999992009011712004-03700-040350FM-12+008399999V0209999C000010450019N0500001N1+02911+02271101171ADDGF106991031041004501031001KA1240N+02261MA1999999100161MD1999999-0071REMSYN076AAXX  17124 82392 32499 61800 10291 20227 30016 40117 83430 333 20226 59007;
0137823920999992009011718004-03700-040350FM-12+008399999V0203601N001510450019N0500001N1+03361+01851100791ADDGF106991031021004501031011MA1999999099781MD1999999+0081REMSYN070AAXX  17184 82392 32499 63603 10336 20185 39978 40079 83231 333 58008;
0168823920999992009011800004-03700-040350FM-12+008399999V0203601N003110450019N0040001N1+02821+02221101011ADDGF107991031061004501021011KA1240M+03541MA1999999100001MD1999999-0051REMSYN088AAXX  18004 82392 32496 73606 10282 20222 30000 40101 83621 333 10354 29062 55063 59005;
0201823920999992009011812004-03700-040350FM-12+008399999V0202301N002110450019N0500001N1+02381+02151101221ADDAA124006191AY161061AY221061GF108991041071004501021999KA1240N+02311MA1999999100201MD1999999+0041MW1021REMSYN088AAXX  18124 82392 21499 82304 10238 20215 30020 40122 70262 8472/ 333 20231 58004 60064;
0182823920999992009011818004-03700-040350FM-12+008399999V0200501N001010450019N0500001N1+02921+02321100921ADDAA106000891AY151061AY221061GF108991031051004501011999MA1999999099901MD1999999+0121MW1021REMSYN082AAXX  18184 82392 21499 80502 10292 20232 39990 40092 70252 8351/ 333 58012 69981;
0178823920999992009011900004-03700-040350FM-12+008399999V0200501N002112200019N0040001N1+02661+02391101161ADDGA1001+999999999GF100991001001999999001001KA1240M+02981MA1999999100131MD1999999+0131REMSYN082AAXX  19004 82392 32996 00504 10266 20239 30013 40116 333 10298 29082 55002 58013;
0173823920999992009011912004-03700-040350FM-12+008399999V0200501N003112200019N0500001N1+02801+02201101281ADDAA124000891GF103991031021004501001001KA1240N+02321MA1999999100261MD1999999+0061REMSYN082AAXX  19124 82392 22499 30506 10280 20220 30026 40128 83200 333 20232 58006 69984;
0137823920999992009011918004-03700-040350FM-12+008399999V0200501N004610450019N0500001N1+03201+02061100921ADDGF105991031021004501031001MA1999999099901MD1999999+0001REMSYN070AAXX  19184 82392 32499 50509 10320 20206 39990 40092 83230 333 58000;
0168823920999992009012000004-03700-040350FM-12+008399999V0203601N003110450019N0040001N1+02661+02331101091ADDGF105991031021004501031001KA1240M+03461MA1999999100071MD1999999-0061REMSYN088AAXX  20004 82392 32496 53606 10266 20233 30007 40109 83230 333 10346 29071 55069 59006;
0175823920999992009012012004-03700-040350FM-12+008399999V0200901N000510042019N0500001N1+02901+02041101121ADDGF106991999041004501001001KA1240N+02401MA1999999100101MD1999999-0161REMSYN076AAXX  20124 82392 32499 60901 10290 20204 30010 40112 85400 333 20240 59016;EQDQ01+000052SCOTLC
0182823920999992009012018004-03700-040350FM-12+008399999V0203601N001010075019N0500001N1+02891+02341100761ADDAA106001091AY151061AY251061GF107991061061008001021001MA1999999099741MD1999999-0161MW1021REMSYN082AAXX  20184 82392 21599 73602 10289 20234 39974 40076 70255 86620 333 59016 60011;
0168823920999992009012100004-03700-040350FM-12+008399999V0203601N000510450019N0040001N1+02631+02251101171ADDGF107991021021004501021001KA1240M+03371MA1999999100151MD1999999+0081REMSYN088AAXX  21004 82392 32496 73601 10263 20225 30015 40117 82220 333 10337 29073 55057 58008;
0192823920999992009012112004-03700-040350FM-12+008399999V0200501N002110042019N0500001N1+02781+02181101221ADDAA124000091GF106991051041004501031001KA1240N+02301MA1999999100201MD1999999+0101REMSYN082AAXX  21124 82392 22499 60504 10278 20218 30020 40122 85430 333 20230 58010 69914;EQDQ01  00002PRCP24
0182823920999992009012118004-03700-040350FM-12+008399999V0200501N001010450019N0500001N1+02441+02271101031ADDAA106021191AY161061AY261061GF108991041061004501021071MA1999999100001MD1999999+0261MW1631REMSYN082AAXX  21184 82392 21499 80502 10244 20227 30000 40103 76366 84627 333 58026 60211;
0168823920999992009012200004-03700-040350FM-12+008399999V0203601N001510450019N0040001N1+02391+02301101351ADDGF108991041021004501021999KA1240M+03041MA1999999100331MD1999999+0181REMSYN088AAXX  22004 82392 32496 83603 10239 20230 30033 40135 8422/ 333 10304 29087 55027 58018;
0173823920999992009012212004-03700-040350FM-12+008399999V0201801N000510450019N0500001N1+02641+02231101311ADDAA124021191GF106991021021004501031011KA1240N+02271MA1999999100281MD1999999+0081REMSYN082AAXX  22124 82392 22499 61801 10264 20223 30028 40131 82231 333 20227 58008 60214;
0182823920999992009012218004-03700-040350FM-12+008399999V0209999C000010042019N0500001N1+02461+02341100961ADDAA106011991AY101061AY221061GF108991061061004501021999MA1999999099931MD1999999-0071MW1951REMSYN082AAXX  22184 82392 21499 80500 10246 20234 39993 40096 79502 8662/ 333 59007 60121;
0213823920999992009012300004-03700-040350FM-12+008399999V0209999C000010450019N0040001N1+02321+02241101231ADDAA106011991AY161061AY261061GF108991031061004501021999KA1240M+03421MA1999999100201MD1999999-0131MW1021REMSYN100AAXX  23004 82392 21496 80000 10232 20224 30020 40123 70266 8362/ 333 10342 29090 55046 59013 60121;
0173823920999992009012312004-03700-040350FM-12+008399999V0202301N001010450019N0500001N1+02601+02231101251ADDAA124023991GF106991031041004501031001KA1240N+02301MA1999999100221MD1999999-0061REMSYN082AAXX  23124 82392 22499 62302 10260 20223 30022 40125 83430 333 20230 59006 60244;
0182823920999992009012318004-03700-040350FM-12+008399999V0209999C000010450019N0500001N1+03231+02131100751ADDAA106002091AY101061AY221061GF106991041061004501031001MA1999999099731MD1999999-0201MW1611REMSYN082AAXX  23184 82392 21499 63200 10323 20213 39973 40075 76102 84630 333 59020 60021;
0213823920999992009012400004-03700-040350FM-12+008399999V0209999C000010450019N0040001N1+02301+02161101131ADDAA106072991AY161061AY261061GF108991041071004501021001KA1240M+03301MA1999999100101MD1999999-0101MW1511REMSYN100AAXX  24004 82392 21496 80000 10230 20216 30010 40113 75166 84720 333 10330 29079 55071 59010 60731;
0173823920999992009012412004-03700-040350FM-12+008399999V0200501N001012200019N0500001N1+02641+02411101081ADDAA124074991GF104991041021004501001001KA1240N+02281MA1999999100051MD1999999-0171REMSYN082AAXX  24124 82392 22499 40502 10264 20241 30005 40108 84200 333 20228 59017 60754;
0182823920999992009012418004-03700-040350FM-12+008399999V0200501N001510450019N0200001N1+02401+02311100781ADDAA106039191AY121061AY261061GF107991041051004501031001MA1999999099751MD1999999+0021MW1211REMSYN082AAXX  24184 82392 21498 70503 10240 20231 39975 40078 72126 84530 333 58002 60391;
0168823920999992009012500004-03700-040350FM-12+008399999V0200501N002112200019N0040001N1+02541+02331100961ADDGF102991021001004501031001KA1240M+03261MA1999999099941MD1999999-0161REMSYN088AAXX  25004 82392 32496 20504 10254 20233 39994 40096 82030 333 10326 29090 55057 59016;
0201823920999992009012512004-03700-040350FM-12+008399999V0203601N001010042019N0100001N1+02371+02331101101ADDAA124040991AY161061AY261061GF108991081061004501999999KA1240N+02351MA1999999100071MD1999999+0021MW1511REMSYN088AAXX  25124 82392 21497 83602 10237 20233 30007 40110 75166 886// 333 20235 58002 60414;
0182823920999992009012518004-03700-040350FM-12+008399999V0203601N001010042019N0100001N1+02431+02301100921ADDAA106001091AY151061AY251061GF108991061061004501021999MA1999999099891MD1999999+0141MW1201REMSYN082AAXX  25184 82392 21497 83602 10243 20230 39989 40092 72055 8662/ 333 58014 60011;
0168823920999992009012600004-03700-040350FM-12+008399999V0201801N000510450019N0040001N1+02401+02311101091ADDGF106991041061004501021001KA1240M+02631MA1999999100061MD1999999+0121REMSYN088AAXX  26004 82392 32496 61801 10240 20231 30006 40109 84620 333 10263 29095 55000 58012;
0173823920999992009012612004-03700-040350FM-12+008399999V0200901N000510450019N0500001N1+02721+02341101151ADDAA124001091GF106991041021004501031001KA1240N+02281MA1999999100131MD1999999+0061REMSYN082AAXX  26124 82392 22499 60901 10272 20234 30013 40115 84230 333 20228 58006 60014;
0182823920999992009012618004-03700-040350FM-12+008399999V0200501N004610450019N0500001N1+03071+02471100781ADDAA106000891AY121061AY221061GF108991031071004501021001MA1999999099761MD1999999-0131MW1511REMSYN082AAXX  26184 82392 21499 80509 10307 20247 39976 40078 75122 83720 333 59013 69971;
0213823920999992009012700004-03700-040350FM-12+008399999V0203601N002112200019N0040001N1+02591+02141100991ADDAA106000591AY161061AY261061GF103991031021004501001001KA1240M+03381MA1999999099971MD1999999-0091MW1021REMSYN100AAXX  27004 82392 21496 33604 10259 20214 39997 40099 70266 83200 333 10338 29076 55069 59009 69941;
0173823920999992009012712004-03700-040350FM-12+008399999V0201401N002110450019N0500001N1+02761+02161101171ADDAA124001091GF106991041021004501031001KA1240N+02181MA1999999100151MD1999999-0021REMSYN082AAXX  27124 82392 22499 61404 10276 20216 30015 40117 84230 333 20218 59002 60014;
0137823920999992009012718004-03700-040350FM-12+008399999V0200901N001512200019N0500001N1+03381+01871100831ADDGF104991021021004501031001MA1999999099811MD1999999+0051REMSYN070AAXX  27184 82392 32499 40903 10338 20187 39981 40083 82230 333 58005;
0178823920999992009012800004-03700-040350FM-12+008399999V0203601N002612200019N0040001N1+02691+02131101031ADDGA1001+999999999GF100991001001999999001001KA1240M+03441MA1999999100011MD1999999+0041REMSYN082AAXX  28004 82392 32996 03605 10269 20213 30001 40103 333 10344 29063 55112 58004;
0156823920999992009012812004-03700-040350FM-12+008399999V0200901N004110450019N0500001N1+02881+02131101121ADDGF106991041021004501031001KA1240N+02201MA1999999100101MD1999999-0051REMSYN076AAXX  28124 82392 32499 60908 10288 20213 30010 40112 84230 333 20220 59005;
0137823920999992009012818004-03700-040350FM-12+008399999V0200501N002612200019N0500001N1+03301+02051100761ADDGF104991041021004501001001MA1999999099741MD1999999-0071REMSYN070AAXX  28184 82392 32499 40505 10330 20205 39974 40076 84200 333 59007;
0178823920999992009012900004-03700-040350FM-12+008399999V0203601N002112200019N0040001N1+02671+02201101061ADDGA1001+999999999GF100991001001999999001001KA1240M+03401MA1999999100041MD1999999+0031REMSYN082AAXX  29004 82392 32996 03604 10267 20220 30004 40106 333 10340 29066 55095 58003;
0156823920999992009012912004-03700-040350FM-12+008399999V0200901N001010042019N0500001N1+02791+02341101141ADDGF106991051041004501031001KA1240N+02311MA1999999100121MD1999999+0011REMSYN076AAXX  29124 82392 32499 60902 10279 20234 30012 40114 85430 333 20231 58001;
0182823920999992009012918004-03700-040350FM-12+008399999V0203601N001010042019N0500001N1+02451+02321100911ADDAA106002091AY161061AY261061GF108991061061004501021999MA1999999099881MD1999999+0141MW1021REMSYN082AAXX  29184 82392 21499 83602 10245 20232 39988 40091 70266 8662/ 333 58014 60021;
0178823920999992009013000004-03700-040350FM-12+008399999V0203601N002112200019N0040001N1+02481+02301101061ADDGA1001+999999999GF100991001001999999001001KA1240M+03221MA1999999100041MD1999999+0001REMSYN082AAXX  30004 82392 32996 03604 10248 20230 30004 40106 333 10322 29087 55039 58000;
0173823920999992009013012004-03700-040350FM-12+008399999V0200901N000510450019N0500001N1+02641+02311101171ADDAA124002091GF105991021021004501031001KA1240N+02381MA1999999100151MD1999999+0031REMSYN082AAXX  30124 82392 22499 50901 10264 20231 30015 40117 82230 333 20238 58003 60024;
0182823920999992009013018004-03700-040350FM-12+008399999V0203601N002610042019N0500001N1+02691+02301100871ADDAA106000591AY151061AY251061GF107991071061004501001001MA1999999099851MD1999999-0031MW1021REMSYN082AAXX  30184 82392 21499 73605 10269 20230 39985 40087 70255 87600 333 59003 69951;
0168823920999992009013100004-03700-040350FM-12+008399999V0203601N003112200019N0040001N1+02601+02391101141ADDGF103991031001004501031001KA1240M+03081MA1999999100121MD1999999+0081REMSYN088AAXX  31004 82392 32496 33606 10260 20239 30012 40114 83030 333 10308 29084 55027 58008;
0173823920999992009013112004-03700-040350FM-12+008399999V0200501N001010042019N0500001N1+02631+02331101201ADDAA124000591GF107991051061004501031011KA1240N+02281MA1999999100181MD1999999+0031REMSYN082AAXX  31124 82392 22499 70502 10263 20233 30018 40120 85631 333 20228 58003 69954;
0182823920999992009013118004-03700-040350FM-12+008399999V0203601N001510450019N0500001N1+02771+02361100821ADDAA106006191AY101061AY221061GF106991041061004501031001MA1999999099801MD1999999-0051MW1211REMSYN082AAXX  31184 82392 21499 63603 10277 20236 39980 40082 72102 84630 333 59005 60061;
0168823920999992009020100004-03700-040350FM-12+008399999V0203601N001010450019N0500001N1+02551+02351101111ADDGF106991041061004501031001KA1240M+03311MA1999999100091MD1999999-0031REMSYN088AAXX  01004 82392 32499 63602 10255 20235 30009 40111 84630 333 10331 29084 55070 59003;
0173823920999992009020112004-03700-040350FM-12+008399999V0200901N001010450019N0500001N1+02761+02121101141ADDAA124006191GF105991041041004501031001KA1240N+02331MA1999999100121MD1999999-0061REMSYN082AAXX  01124 82392 22499 50902 10276 20212 30012 40114 84430 333 20233 59006 60064;
0137823920999992009020118004-03700-040350FM-12+008399999V0200501N001010450019N0500001N1+02461+02281100871ADDGF108991041071004501021999MA1999999099841MD1999999+0041REMSYN070AAXX  01184 82392 32499 80502 10246 20228 39984 40087 8472/ 333 58004;
0213823920999992009020200004-03700-040350FM-12+008399999V0200501N000510450019N0040001N1+02481+02341101071ADDAA106000391AY151061AY221061GF108991031061004501021999KA1240M+03261MA1999999100051MD1999999-0041MW1021REMSYN100AAXX  02004 82392 21496 80501 10248 20234 30005 40107 70252 8362/ 333 10326 29086 55063 59004 69931;
0173823920999992009020212004-03700-040350FM-12+008399999V0200901N000512200019N0500001N1+02781+02181101121ADDAA124000391GF104991041021004501001001KA1240N+02341MA1999999100101MD1999999-0021REMSYN082AAXX  02124 82392 22499 40901 10278 20218 30010 40112 84200 333 20234 59002 69934;
0137823920999992009020218004-03700-040350FM-12+008399999V0200501N002110450019N0500001N1+02821+02221100761ADDGF108991031061004501021999MA1999999099741MD1999999-0101REMSYN070AAXX  02184 82392 32499 80504 10282 20222 39974 40076 8362/ 333 59010;
0213823920999992009020300004-03700-040350FM-12+008399999V0200501N000510450019N0040001N1+02481+02431101061ADDAA106016091AY161061AY261061GF108991031061004501021999KA1240M+03241MA1999999100041MD1999999-0011MW1021REMSYN100AAXX  03004 82392 21496 80501 10248 20243 30004 40106 70266 8362/ 333 10324 29084 55060 59001 60161;
0173823920999992009020312004-03700-040350FM-12+008399999V0200901N002610450019N0500001N1+02721+02391101181ADDAA124016091GF107991031051004501031001KA1240N+02301MA1999999100161MD1999999+0061REMSYN082AAXX  03124 82392 22499 70905 10272 20239 30016 40118 83530 333 20230 58006 60164;
0137823920999992009020318004-03700-040350FM-12+008399999V0203201N000510042019N0500001N1+02961+02381100861ADDGF108991081061004501999999MA1999999099841MD1999999+0101REMSYN070AAXX  03184 82392 32499 83201 10296 20238 39984 40086 886// 333 58010;
0232823920999992009020400004-03700-040350FM-12+008399999V0203601N000510042019N0040001N1+02571+02371101201ADDAA106000091AY151061AY251061GF108991051061004501031001KA1240M+02571MA1999999100171MD1999999+0131MW1021REMSYN100AAXX  04004 82392 21496 83601 10257 20237 30017 40120 70255 85630 333 10257 29082 55046 58013 69921;EQDQ01  00002PRCP06
0201823920999992009020412004-03700-040350FM-12+008399999V0203601N000510450019N0500001N1+02621+02351101351ADDAA124000591AY151061AY251061GF105991041041004501031001KA1240N+02181MA1999999100331MD1999999+0171MW1021REMSYN088AAXX  04124 82392 21499 53601 10262 20235 30033 40135 70255 84430 333 20218 58017 69954;
0137823920999992009020418004-03700-040350FM-12+008399999V0209999C000010450019N0500001N1+02861+02441100971ADDGF108991031051004501021999MA1999999099951MD1999999+0111REMSYN070AAXX  04184 82392 32499 80000 10286 20244 39995 40097 8352/ 333 58011;
0168823920999992009020500004-03700-040350FM-12+008399999V0203601N000510450019N0500001N1+02601+02391101151ADDGF105991031051004501011001KA1240M+02991MA1999999100131MD1999999-0041REMSYN088AAXX  05004 82392 32499 53601 10260 20239 30013 40115 83510 333 10299 29085 55027 59004;
0156823920999992009020512004-03700-040350FM-12+008399999V0200901N000512200019N0500001N1+02711+02241101261ADDGF104991041021004501001001KA1240N+02251MA1999999100241MD1999999-0091REMSYN076AAXX  05124 82392 32499 40901 10271 20224 30024 40126 84200 333 20225 59009;
0137823920999992009020518004-03700-040350FM-12+008399999V0200901N000510450019N0500001N1+03191+02061100841ADDGF105991041021004501031001MA1999999099821MD1999999-0131REMSYN070AAXX  05184 82392 32499 50901 10319 20206 39982 40084 84230 333 59013;
0213823920999992009020600004-03700-040350FM-12+008399999V0200501N002112200019N0040001N1+02661+02241101121ADDAA106000591AY121061AY261061GF102991021001004501031001KA1240M+03261MA1999999100101MD1999999-0031MW1031REMSYN100AAXX  06004 82392 21496 20504 10266 20224 30010 40112 70326 82030 333 10326 29070 55097 59003 69961;
0173823920999992009020612004-03700-040350FM-12+008399999V0200501N001512200019N0500001N1+02701+02151101271ADDAA124000591GF104991041021004501001001KA1240N+02281MA1999999100251MD1999999+0011REMSYN082AAXX  06124 82392 22499 40503 10270 20215 30025 40127 84200 333 20228 58001 69964;
0137823920999992009020618004-03700-040350FM-12+008399999V0203601N001010450019N0500001N1+03231+02221100871ADDGF106991031061004501031001MA1999999099851MD1999999+0031REMSYN070AAXX  06184 82392 32499 63602 10323 20222 39985 40087 83630 333 58003;
0178823920999992009020700004-03700-040350FM-12+008399999V0200501N002112200019N0040001N1+02621+02371101121ADDGA1001+999999999GF100991001001999999001001KA1240M+03321MA1999999100101MD1999999+0001REMSYN082AAXX  07004 82392 32996 00504 10262 20237 30010 40112 333 10332 29075 55089 58000;
0156823920999992009020712004-03700-040350FM-12+008399999V0200901N002112200019N0500001N1+02781+02301101281ADDGF103991011011004501031001KA1240N+02301MA1999999100261MD1999999+0011REMSYN076AAXX  07124 82392 32499 30904 10278 20230 30026 40128 81130 333 20230 58001;
0137823920999992009020718004-03700-040350FM-12+008399999V0200501N002612200019N0500001N1+03261+02081100921ADDGF104991041021004501001001MA1999999099901MD1999999+0051REMSYN070AAXX  07184 82392 32499 40505 10326 20208 39990 40092 84200 333 58005;
0178823920999992009020800004-03700-040350FM-12+008399999V0200501N003112200019N0040001N1+02561+02311101071ADDGA1001+999999999GF100991001001999999001001KA1240M+03301MA1999999100051MD1999999-0051REMSYN082AAXX  08004 82392 32996 00506 10256 20231 30005 40107 333 10330 29074 55091 59005;
0156823920999992009020812004-03700-040350FM-12+008399999V0201401N002110450019N0500001N1+02711+02321101191ADDGF106991041041004501031001KA1240N+02231MA1999999100171MD1999999-0091REMSYN076AAXX  08124 82392 32499 61404 10271 20232 30017 40119 84430 333 20223 59009;
0137823920999992009020818004-03700-040350FM-12+008399999V0201401N001012200019N0500001N1+03271+01931100761ADDGF104991031021004501031001MA1999999099741MD1999999-0161REMSYN070AAXX  08184 82392 32499 41402 10327 20193 39974 40076 83230 333 59016;
0168823920999992009020900004-03700-040350FM-12+008399999V0203601N001012200019N0040001N1+02711+02191100961ADDGF101991011001008001011001KA1240M+03381MA1999999099941MD1999999-0111REMSYN088AAXX  09004 82392 32596 13602 10271 20219 39994 40096 81010 333 10338 29068 55107 59011;
0156823920999992009020912004-03700-040350FM-12+008399999V0200901N004112200019N0500001N1+02841+02151101121ADDGF104991031021004501031001KA1240N+02141MA1999999100101MD1999999-0071REMSYN076AAXX  09124 82392 32499 40908 10284 20215 30010 40112 83230 333 20214 59007;
0137823920999992009020918004-03700-040350FM-12+008399999V0200901N002112200019N0500001N1+03261+02081100761ADDGF103991031021004501001001MA1999999099741MD1999999+0001REMSYN070AAXX  09184 82392 32499 30904 10326 20208 39974 40076 83200 333 58000;
0168823920999992009021000004-03700-040350FM-12+008399999V0203601N001512200019N0040001N1+02641+02231100931ADDGF102991011001008001011011KA1240M+03361MA1999999099911MD1999999-0031REMSYN088AAXX  10004 82392 32596 23603 10264 20223 39991 40093 81011 333 10336 29068 55106 59003;
0156823920999992009021012004-03700-040350FM-12+008399999V0201401N001010450019N0500001N1+02741+02171101161ADDGF106991041051004501031001KA1240N+02241MA1999999100141MD1999999+0041REMSYN076AAXX  10124 82392 32499 61402 10274 20217 30014 40116 84530 333 20224 58004;
0137823920999992009021018004-03700-040350FM-12+008399999V0200901N002110450019N0500001N1+03351+02111100721ADDGF106991041061004501031011MA1999999099701MD1999999-0041REMSYN070AAXX  10184 82392 32499 60904 10335 20211 39970 40072 84631 333 59004;
0168823920999992009021100004-03700-040350FM-12+008399999V0200501N000510450019N0040001N1+02681+02241101011ADDGF106991031021004501031001KA1240M+03441MA1999999099991MD1999999+0081REMSYN088AAXX  11004 82392 32496 60501 10268 20224 39999 40101 83230 333 10344 29068 55085 58008;
0156823920999992009021112004-03700-040350FM-12+008399999V0200901N002110042019N0500001N1+02841+02121101121ADDGF105991051021004501001001KA1240N+02321MA1999999100101MD1999999-0041REMSYN076AAXX  11124 82392 32499 50904 10284 20212 30010 40112 85200 333 20232 59004;
0137823920999992009021118004-03700-040350FM-12+008399999V0200901N003112200019N0500001N1+03301+02021100771ADDGF102991021011004501001001MA1999999099751MD1999999+0051REMSYN070AAXX  11184 82392 32499 20906 10330 20202 39975 40077 82100 333 58005;
0232823920999992009021200004-03700-040350FM-12+008399999V0203601N000510450019N0040001N1+02391+02301100991ADDAA106000091AY151061AY251061GF107991031011004501011001KA1240M+03401MA1999999099971MD1999999-0021MW1021REMSYN100AAXX  12004 82392 21496 73601 10239 20230 39997 40099 70255 83110 333 10340 29075 55085 59002 69921;EQDQ01  00002PRCP06
0192823920999992009021212004-03700-040350FM-12+008399999V0200501N001010450019N0040001N1+02801+02361101091ADDAA124000091GF106991041041004501031001KA1240N+02351MA1999999100071MD1999999-0031REMSYN082AAXX  12124 82392 22496 60502 10280 20236 30007 40109 84430 333 20235 59003 69924;EQDQ01  00002PRCP24
0137823920999992009021218004-03700-040350FM-12+008399999V0200501N002110450019N0500001N1+02991+02321100631ADDGF106991041041004501011011MA1999999099621MD1999999-0131REMSYN070AAXX  12184 82392 32499 60504 10299 20232 39962 40063 84411 333 59013;
0168823920999992009021300004-03700-040350FM-12+008399999V0200501N004112200019N0040001N1+02661+02391100861ADDGF103991031001008001031001KA1240M+03301MA1999999099841MD1999999-0131REMSYN088AAXX  13004 82392 32596 30508 10266 20239 39984 40086 83030 333 10330 29078 55089 59013;
0156823920999992009021312004-03700-040350FM-12+008399999V0200501N003112200019N0500001N1+02801+02201100901ADDGF104991031021004501031001KA1240N+02401MA1999999099881MD1999999-0191REMSYN076AAXX  13124 82392 32499 40506 10280 20220 39988 40090 83230 333 20240 59019;
0182823920999992009021318004-03700-040350FM-12+008399999V0202301N000510042019N0500001N1+02491+02361100641ADDAA106007191AY161061AY261061GF108991061061004501021999MA1999999099621MD1999999+0001MW1511REMSYN082AAXX  13184 82392 21499 82301 10249 20236 39962 40064 75166 8662/ 333 58000 60071;
0173823920999992009021412004-03700-040350FM-12+008399999V0201401N000510450019N0500001N1+02771+02341100981ADDAA124007191GF106991041041004501031001KA1240N+02311MA1999999099961MD1999999+0081REMSYN082AAXX  14124 82392 22499 61401 10277 20234 39996 40098 84430 333 20231 58008 60074;
0182823920999992009021418004-03700-040350FM-12+008399999V0200501N001010450019N0500001N1+03021+02291100571ADDAA106002091AY161061AY261061GF105991031021004501011011MA1999999099561MD1999999-0061MW1021REMSYN082AAXX  14184 82392 21499 50502 10302 20229 39956 40057 70266 83211 333 59006 60021;
0168823920999992009021500004-03700-040350FM-12+008399999V0209999C000012200019N0040001N1+02451+02321100831ADDGF102991021021004501001001KA1240M+03131MA1999999099811MD1999999+0041REMSYN088AAXX  15004 82392 32496 20000 10245 20232 39981 40083 82200 333 10313 29086 55080 58004;
0173823920999992009021512004-03700-040350FM-12+008399999V0200901N002110450019N0500001N1+02781+02131100931ADDAA124002091GF107991031041004501031001KA1240N+02301MA1999999099911MD1999999-0051REMSYN082AAXX  15124 82392 22499 70904 10278 20213 39991 40093 83430 333 20230 59005 60024;
0182823920999992009021518004-03700-040350FM-12+008399999V0202301N001010450019N0500001N1+02481+02251100681ADDAA106004191AY121061AY261061GF108991031071004501021999MA1999999099651MD1999999+0091MW1211REMSYN082AAXX  15184 82392 21499 82302 10248 20225 39965 40068 72126 8372/ 333 58009 60041;
0223823920999992009021600004-03700-040350FM-12+008399999V0200501N001012200019N0040001N1+02481+02231100841ADDAA106005191AY161061AY261061GA1001+999999999GF100991001001999999001001KA1240M+03301MA1999999099821MD1999999+0011MW1021REMSYN094AAXX  16004 82392 21996 00502 10248 20223 39982 40084 70266 333 10330 29082 55066 58001 60051;
0173823920999992009021612004-03700-040350FM-12+008399999V0201401N002610450019N0500001N1+02761+02161100951ADDAA124007991GF106991031041004501031001KA1240N+02201MA1999999099931MD1999999+0021REMSYN082AAXX  16124 82392 22499 61405 10276 20216 39993 40095 83430 333 20220 58002 60084;
0182823920999992009021618004-03700-040350FM-12+008399999V0203601N003110450019N0500001N1+02961+02051100671ADDAA106000391AY121061AY251061GF106991041021004501031001MA1999999099651MD1999999+0001MW1021REMSYN082AAXX  16184 82392 21499 63606 10296 20205 39965 40067 70225 84230 333 58000 69931;
0213823920999992009021700004-03700-040350FM-12+008399999V0209999C000010450019N0040001N1+02411+02331100921ADDAA106003091AY161061AY261061GF106991031021004501021001KA1240M+03171MA1999999099901MD1999999+0081MW1021REMSYN100AAXX  17004 82392 21496 60000 10241 20233 39990 40092 70266 83220 333 10317 29080 55079 58008 60031;
0173823920999992009021712004-03700-040350FM-12+008399999V0203201N000510450019N0500001N1+02701+02151101021ADDAA124003091GF106991041041004501031001KA1240N+02281MA1999999100001MD1999999+0071REMSYN082AAXX  17124 82392 22499 63201 10270 20215 30000 40102 84430 333 20228 58007 60034;
0182823920999992009021718004-03700-040350FM-12+008399999V0203601N000510450019N0200001N1+02501+02401100781ADDAA106005191AY161061AY261061GF108991041061004501021999MA1999999099751MD1999999+0101MW1631REMSYN082AAXX  17184 82392 21498 83601 10250 20240 39975 40078 76366 8462/ 333 58010 60051;
0213823920999992009021800004-03700-040350FM-12+008399999V0209999C000010450019N0040001N1+02431+02351100891ADDAA106000021AY151061AY251061GF108991031041004501021999KA1240M+03101MA1999999099861MD1999999-0041MW1021REMSYN100AAXX  18004 82392 21496 80000 10243 20235 39986 40089 70255 8342/ 333 10310 29089 55041 59004 69911;
0173823920999992009021812004-03700-040350FM-12+008399999V0200501N001010450019N0500001N1+02661+02241101081ADDAA124005191GF107991031051004501011001KA1240N+02301MA1999999100051MD1999999+0051REMSYN082AAXX  18124 82392 22499 70502 10266 20224 30005 40108 83510 333 20230 58005 60054;
0182823920999992009021818004-03700-040350FM-12+008399999V0202301N000510450019N0500001N1+02361+02221100831ADDAA106015091AY161061AY221061GF108991041071004501021999MA1999999099801MD1999999+0051MW1021REMSYN082AAXX  18184 82392 21499 82301 10236 20222 39980 40083 70262 8472/ 333 58005 60151;
0213823920999992009021900004-03700-040350FM-12+008399999V0209999C000010450019N0040001N1+02381+02331100951ADDAA106001091AY161061AY261061GF108991031051004501021999KA1240M+03001MA1999999099921MD1999999+0061MW1021REMSYN100AAXX  19004 82392 21496 80000 10238 20233 39992 40095 70266 8352/ 333 10300 29091 55017 58006 60011;
0173823920999992009021912004-03700-040350FM-12+008399999V0201401N000510450019N0500001N1+02631+02371101081ADDAA124017091GF106991041041004501011001KA1240N+02151MA1999999100051MD1999999+0001REMSYN082AAXX  19124 82392 22499 61401 10263 20237 30005 40108 84410 333 20215 58000 60174;
0137823920999992009021918004-03700-040350FM-12+008399999V0203601N001510450019N0500001N1+03071+02351100681ADDGF106991031061004501011001MA1999999099661MD1999999-0141REMSYN070AAXX  19184 82392 32499 63603 10307 20235 39966 40068 83610 333 59014;
0178823920999992009022000004-03700-040350FM-12+008399999V0200501N002112200019N0040001N1+02521+02381100951ADDGA1001+999999999GF100991001001999999001001KA1240M+03241MA1999999099931MD1999999+0011REMSYN082AAXX  20004 82392 32996 00504 10252 20238 39993 40095 333 10324 29084 55071 58001;
0156823920999992009022012004-03700-040350FM-12+008399999V0200501N000512200019N0500001N1+02741+02241100941ADDGF103991031021004501001001KA1240N+02301MA1999999099921MD1999999-0131REMSYN076AAXX  20124 82392 32499 30501 10274 20224 39992 40094 83200 333 20230 59013;
0137823920999992009022018004-03700-040350FM-12+008399999V0203601N003110042019N0500001N1+02811+02381100581ADDGF107991051061004501011001MA1999999099571MD1999999-0091REMSYN070AAXX  20184 82392 32499 73606 10281 20238 39957 40058 85610 333 59009;
0213823920999992009022100004-03700-040350FM-12+008399999V0200501N001012200019N0040001N1+02501+02361100871ADDAA106007191AY161061AY221061GF102991021001004501031001KA1240M+03241MA1999999099851MD1999999-0081MW1021REMSYN100AAXX  21004 82392 21496 20502 10250 20236 39985 40087 70262 82030 333 10324 29084 55063 59008 60071;
0173823920999992009022112004-03700-040350FM-12+008399999V0200501N003110450019N0500001N1+02621+02271100951ADDAA124007191GF106991041041004501031001KA1240N+02311MA1999999099931MD1999999+0011REMSYN082AAXX  21124 82392 22499 60506 10262 20227 39993 40095 84430 333 20231 58001 60074;
0182823920999992009022118004-03700-040350FM-12+008399999V0203601N003610450019N0500001N1+02521+02231100681ADDAA106005191AY161061AY261061GF108991031051004501021999MA1999999099651MD1999999+0081MW1021REMSYN082AAXX  21184 82392 21499 83607 10252 20223 39965 40068 70266 8352/ 333 58008 60051;
0213823920999992009022200004-03700-040350FM-12+008399999V0200501N001010450019N0040001N1+02401+02261100931ADDAA106002091AY161061AY261061GF106991041051004501031001KA1240M+03101MA1999999099901MD1999999+0051MW1021REMSYN100AAXX  22004 82392 21496 60502 10240 20226 39990 40093 70266 84530 333 10310 29087 55047 58005 60021;
0173823920999992009022212004-03700-040350FM-12+008399999V0201801N001010450019N0500001N1+02541+02401101081ADDAA124007191GF108991041061004501021999KA1240N+02281MA1999999100051MD1999999+0121REMSYN082AAXX  22124 82392 22499 81802 10254 20240 30005 40108 8462/ 333 20228 58012 60074;
0182823920999992009022218004-03700-040350FM-12+008399999V0200501N000510450019N0500001N1+02421+02251100891ADDAA106007991AY161061AY261061GF108991031071004501021999MA1999999099861MD1999999+0211MW1021REMSYN082AAXX  22184 82392 21499 80501 10242 20225 39986 40089 70266 8372/ 333 58021 60081;
0213823920999992009022300004-03700-040350FM-12+008399999V0209999C000010450019N0040001N1+02321+02271101061ADDAA106024991AY161061AY261061GF108991041061004501021999KA1240M+02981MA1999999100031MD1999999+0131MW1021REMSYN100AAXX  23004 82392 21496 80000 10232 20227 30003 40106 70266 8462/ 333 10298 29094 55019 58013 60251;
0173823920999992009022312004-03700-040350FM-12+008399999V0200501N001010450019N0500001N1+02461+02301101191ADDAA124034091GF108991041051004501021999KA1240N+02301MA1999999100161MD1999999+0111REMSYN082AAXX  23124 82392 22499 80502 10246 20230 30016 40119 8452/ 333 20230 58011 60344;
0182823920999992009022318004-03700-040350FM-12+008399999V0200501N004110450019N0500001N1+02361+02261100951ADDAA106009991AY161061AY261061GF108991031071004501021999MA1999999099921MD1999999+0061MW1031REMSYN082AAXX  23184 82392 21499 80508 10236 20226 39992 40095 70366 8372/ 333 58006 60101;
0213823920999992009022400004-03700-040350FM-12+008399999V0209999C000010042019N0040001N1+02301+02251101011ADDAA106001091AY161061AY261061GF107991051071004501021001KA1240M+02631MA1999999099981MD1999999-0051MW1021REMSYN100AAXX  24004 82392 21496 70000 10230 20225 39998 40101 70266 85720 333 10263 29095 55000 59005 60011;
0173823920999992009022412004-03700-040350FM-12+008399999V0201801N001012200019N0500001N1+02521+02311100991ADDAA124010991GF104991011011004501031001KA1240N+02121MA1999999099961MD1999999-0201REMSYN082AAXX  24124 82392 22499 41802 10252 20231 39996 40099 81130 333 20212 59020 60114;
0137823920999992009022418004-03700-040350FM-12+008399999V0200501N001011050019N0500001N1+03121+02191100601ADDGF105991031021004501001021MA1999999099591MD1999999-0331REMSYN070AAXX  24184 82392 32499 50502 10312 20219 39959 40060 83202 333 59033;
0168823920999992009022500004-03700-040350FM-12+008399999V0203601N001012200019N0040001N1+02571+02331100781ADDGF102991011021004501011001KA1240M+03221MA1999999099761MD1999999-0221REMSYN088AAXX  25004 82392 32496 23602 10257 20233 39976 40078 81210 333 10322 29080 55094 59022;
0201823920999992009022512004-03700-040350FM-12+008399999V0209999C000010450019N0500001N1+02581+02441101021ADDAA124000021AY121061AY221061GF108991041051004501021999KA1240N+02381MA1999999100001MD1999999+0041MW1501REMSYN088AAXX  25124 82392 21499 80000 10258 20244 30000 40102 75022 8452/ 333 20238 58004 69924;
0182823920999992009022518004-03700-040350FM-12+008399999V0209999C000010450019N0200001N1+02261+02161100811ADDAA106023191AY161061AY261061GF108991031071004501021999MA1999999099781MD1999999+0191MW1021REMSYN082AAXX  25184 82392 21498 80000 10226 20216 39978 40081 70266 8372/ 333 58019 60231;
0168823920999992009022600004-03700-040350FM-12+008399999V0209999C000010450019N0040001N1+02311+02291101001ADDGF108991041071004501021999KA1240M+02921MA1999999099971MD1999999+0211REMSYN088AAXX  26004 82392 32496 80000 10231 20229 39997 40100 8472/ 333 10292 29096 55009 58021;
0173823920999992009022612004-03700-040350FM-12+008399999V0202701N000510042019N0500001N1+02451+02371100981ADDAA124023191GF108991051061004501021999KA1240N+02181MA1999999099951MD1999999-0051REMSYN082AAXX  26124 82392 22499 82701 10245 20237 39995 40098 8562/ 333 20218 59005 60234;
0182823920999992009022618004-03700-040350FM-12+008399999V0203601N001010450019N0500001N1+02911+02541100561ADDAA106003091AY161061AY261061GF106991041061004501021001MA1999999099551MD1999999-0231MW1021REMSYN082AAXX  26184 82392 21499 63602 10291 20254 39955 40056 70266 84620 333 59023 60031;
0168823920999992009022700004-03700-040350FM-12+008399999V0203601N002112200019N0040001N1+02501+02431100881ADDGF103991031001004501031001KA1240M+03261MA1999999099851MD1999999-0121REMSYN088AAXX  27004 82392 32496 33604 10250 20243 39985 40088 83030 333 10326 29092 55045 59012;
0173823920999992009022712004-03700-040350FM-12+008399999V0200901N001010450019N0500001N1+02641+02291101021ADDAA124003091GF107991041051004501031001KA1240N+02321MA1999999100001MD1999999+0051REMSYN082AAXX  27124 82392 22499 70902 10264 20229 30000 40102 84530 333 20232 58005 60034;
0182823920999992009022718004-03700-040350FM-12+008399999V0200501N002110042019N0500001N1+02561+02361100751ADDAA106000891AY101061AY221061GF108991061061004501031999MA1999999099721MD1999999+0171MW1211REMSYN082AAXX  27184 82392 21499 80504 10256 20236 39972 40075 72102 8663/ 333 58017 69981;
0213823920999992009022800004-03700-040350FM-12+008399999V0200501N003110450019N0040001N1+02441+02301101011ADDAA106000391AY161061AY221061GF106991041041004501031001KA1240M+03221MA1999999099981MD1999999+0131MW1031REMSYN100AAXX  28004 82392 21496 60506 10244 20230 39998 40101 70362 84430 333 10322 29088 55054 58013 69931;
0173823920999992009022812004-03700-040350FM-12+008399999V0200901N000510450019N0500001N1+02671+02351101111ADDAA124001091GF106991041061004501031001KA1240N+02241MA1999999100091MD1999999+0091REMSYN082AAXX  28124 82392 22499 60901 10267 20235 30009 40111 84630 333 20224 58009 60014;
0182823920999992009022818004-03700-040350FM-12+008399999V0209999C000010450019N0500001N1+02671+02391100771ADDAA106001091AY161061AY261061GF106991041061004501011021MA1999999099741MD1999999+0021MW1201REMSYN082AAXX  28184 82392 21499 60000 10267 20239 39974 40077 72066 84612 333 58002 60011;
0213823920999992009030100004-03700-040350FM-12+008399999V0209999C000010450019N0040001N1+02291+02251101131ADDAA106006191AY161061AY261061GF108991031061004501021999KA1240M+03161MA1999999100101MD1999999+0121MW1021REMSYN100AAXX  01004 82392 21496 80000 10229 20225 30010 40113 70266 8362/ 333 10316 29090 55054 58012 60061;
0201823920999992009030112004-03700-040350FM-12+008399999V0201401N000510042019N0500001N1+02591+02401101241ADDAA124010991AY161061AY261061GF107991051061004501021001KA1240N+02211MA1999999100211MD1999999+0121MW1021REMSYN088AAXX  01124 82392 21499 71401 10259 20240 30021 40124 70266 85620 333 20221 58012 60114;
0182823920999992009030118004-03700-040350FM-12+008399999V0203601N001010042019N0500001N1+02581+02401100971ADDAA106002091AY161061AY261061GF107991051061004501011001MA1999999099941MD1999999+0201MW1021REMSYN082AAXX  01184 82392 21499 73602 10258 20240 39994 40097 70266 85610 333 58020 60021;
0168823920999992009030200004-03700-040350FM-12+008399999V0200501N001010042019N0040001N1+02401+02331101051ADDGF108991051061004501021999KA1240M+02721MA1999999100021MD1999999-0051REMSYN088AAXX  02004 82392 32496 80502 10240 20233 30002 40105 8562/ 333 10272 29093 55020 59005;
0173823920999992009030212004-03700-040350FM-12+008399999V0200901N001012200019N0500001N1+02661+02291101131ADDAA124002091GF104991041021004501001001KA1240N+02241MA1999999100101MD1999999-0111REMSYN082AAXX  02124 82392 22499 40902 10266 20229 30010 40113 84200 333 20224 59011 60024;
0213823920999992009030300004-03700-040350FM-12+008399999V0209999C000010450019N0040001N1+02401+02371101131ADDAA106004191AY161061AY261061GF106991031061004501011001KA1240M+03101MA1999999100101MD1999999+0081MW1021REMSYN100AAXX  03004 82392 21496 60000 10240 20237 30010 40113 70266 83610 333 10310 29091 55056 58008 60041;
0201823920999992009030312004-03700-040350FM-12+008399999V0200501N001010450019N0500001N1+02601+02331101201ADDAA124007991AY161061AY261061GF107991041051004501031001KA1240N+02161MA1999999100171MD1999999+0071MW1021REMSYN088AAXX  03124 82392 21499 70502 10260 20233 30017 40120 70266 84530 333 20216 58007 60084;
0182823920999992009030318004-03700-040350FM-12+008399999V0201401N001010042019N0500001N1+02511+02421100891ADDAA106007191AY161061AY261061GF108991081071004501999999MA1999999099861MD1999999+0051MW1211REMSYN082AAXX  03184 82392 21499 81402 10251 20242 39986 40089 72166 887// 333 58005 60071;
0213823920999992009030400004-03700-040350FM-12+008399999V0200901N000510450019N0040001N1+02461+02361101111ADDAA106000391AY151061AY251061GF106991031061004501011001KA1240M+03121MA1999999100081MD1999999-0021MW1021REMSYN100AAXX  04004 82392 21496 60901 10246 20236 30008 40111 70255 83610 333 10312 29092 55032 59002 69931;
0173823920999992009030412004-03700-040350FM-12+008399999V0200901N002610450019N0500001N1+02701+02281101071ADDAA124007191GF107991041051004501031001KA1240N+02301MA1999999100051MD1999999-0121REMSYN082AAXX  04124 82392 22499 70905 10270 20228 30005 40107 84530 333 20230 59012 60074;
0182823920999992009030418004-03700-040350FM-12+008399999V0200901N001010450019N0500001N1+02521+02231100861ADDAA106000891AY151061AY251061GF108991031071004501011001MA1999999099831MD1999999-0031MW1021REMSYN082AAXX  04184 82392 21499 80902 10252 20223 39983 40086 70255 83710 333 59003 69971;
0213823920999992009030500004-03700-040350FM-12+008399999V0209999C000010450019N0040001N1+02411+02331101091ADDAA106001091AY151061AY251061GF108991041051004501011999KA1240M+03141MA1999999100071MD1999999-0011MW1021REMSYN100AAXX  05004 82392 21496 80000 10241 20233 30007 40109 70255 8451/ 333 10314 29088 55048 59001 60011;
0173823920999992009030512004-03700-040350FM-12+008399999V0200501N000510042019N0500001N1+02481+02301101191ADDAA124002091GF108991061051004501011999KA1240N+02321MA1999999100161MD1999999+0111REMSYN082AAXX  05124 82392 22499 80501 10248 20230 30016 40119 8651/ 333 20232 58011 60024;
0137823920999992009030518004-03700-040350FM-12+008399999V0203601N001510450019N0500001N1+02671+02371100831ADDGF108991031061004501011999MA1999999099801MD1999999-0031REMSYN070AAXX  05184 82392 32499 83603 10267 20237 39980 40083 8361/ 333 59003;
0168823920999992009030600004-03700-040350FM-12+008399999V0203601N003110450019N0040001N1+02441+02301101131ADDGF107991031051004501011001KA1240M+02861MA1999999100101MD1999999+0031REMSYN088AAXX  06004 82392 32496 73606 10244 20230 30010 40113 83510 333 10286 29090 55008 58003;
0156823920999992009030612004-03700-040350FM-12+008399999V0203201N001010450019N0500001N1+02561+02311101201ADDGF108991031071004501021999KA1240N+02301MA1999999100171MD1999999+0011REMSYN076AAXX  06124 82392 32499 83202 10256 20231 30017 40120 8372/ 333 20230 58001;
0182823920999992009030618004-03700-040350FM-12+008399999V0209999C000011050019N0500001N1+02831+02311100851ADDAA106001091AY161061AY261061GF105991021091004501001021MA1999999099831MD1999999+0031MW1021REMSYN082AAXX  06184 82392 21499 50000 10283 20231 39983 40085 70266 82902 333 58003 60011;
0213823920999992009030700004-03700-040350FM-12+008399999V0203601N001010450019N0040001N1+02401+02261101071ADDAA106018091AY161061AY261061GF108991031061004501021999KA1240M+02921MA1999999100041MD1999999-0061MW1021REMSYN100AAXX  07004 82392 21496 83602 10240 20226 30004 40107 70266 8362/ 333 10292 29086 55022 59006 60181;
0173823920999992009030712004-03700-040350FM-12+008399999V0201801N001010450019N0500001N1+02561+02291101201ADDAA124020191GF107991031051004501031001KA1240N+02261MA1999999100171MD1999999+0001REMSYN082AAXX  07124 82392 22499 71802 10256 20229 30017 40120 83530 333 20226 58000 60204;
0201823920999992009030718004-03700-040350FM-12+008399999V0203601N003110450019N0500001N1+02801+02201100861ADDAA106000091AY151061AY221061GF107991031061004501031001MA1999999099831MD1999999+0001MW1031REMSYN082AAXX  07184 82392 21499 73606 10280 20220 39983 40086 70352 83630 333 58000 69911;EQDQ01  00002PRCP06
0213823920999992009030800004-03700-040350FM-12+008399999V0203601N000510450019N0040001N1+02341+02271101071ADDAA106020191AY151061AY261061GF106991041041004501031001KA1240M+03181MA1999999100041MD1999999+0001MW1031REMSYN100AAXX  08004 82392 21496 63601 10234 20227 30004 40107 70356 84430 333 10318 29087 55064 58000 60201;
0173823920999992009030812004-03700-040350FM-12+008399999V0203601N000510450019N0500001N1+02561+02381101221ADDAA124020191GF106991031041004501031001KA1240N+02231MA1999999100191MD1999999+0021REMSYN082AAXX  08124 82392 22499 63601 10256 20238 30019 40122 83430 333 20223 58002 60204;
0182823920999992009030818004-03700-040350FM-12+008399999V0202701N000510042019N0500001N1+02731+02381100881ADDAA106004191AY161061AY261061GF107991051061004501031001MA1999999099851MD1999999+0021MW1021REMSYN082AAXX  08184 82392 21499 72701 10273 20238 39985 40088 70266 85630 333 58002 60041;
0213823920999992009030900004-03700-040350FM-12+008399999V0202701N000512200019N0040001N1+02361+02291100951ADDAA106007991AY161061AY261061GF104991021021004501031001KA1240M+02901MA1999999099921MD1999999-0121MW1021REMSYN100AAXX  09004 82392 21496 42701 10236 20229 39992 40095 70266 82230 333 10290 29091 55030 59012 60081;
0173823920999992009030912004-03700-040350FM-12+008399999V0200501N002110450019N0500001N1+02541+02251101111ADDAA124011991GF108991041051004501021999KA1240N+02201MA1999999100081MD1999999-0111REMSYN082AAXX  09124 82392 22499 80504 10254 20225 30008 40111 8452/ 333 20220 59011 60124;
0137823920999992009030918004-03700-040350FM-12+008399999V0200501N001510450019N0500001N1+03021+02181100721ADDGF105991031021004501031001MA1999999099701MD1999999-0151REMSYN070AAXX  09184 82392 32499 50503 10302 20218 39970 40072 83230 333 59015;
0168823920999992009031000004-03700-040350FM-12+008399999V0203601N000510450019N0040001N1+02511+02341101011ADDGF108991041021004501031999KA1240M+03121MA1999999099981MD1999999+0061REMSYN088AAXX  10004 82392 32496 83601 10251 20234 39998 40101 8423/ 333 10312 29081 55047 58006;
0156823920999992009031012004-03700-040350FM-12+008399999V0203601N002110450019N0500001N1+02741+02321101121ADDGF106991041041004501031001KA1240N+02301MA1999999100101MD1999999+0021REMSYN076AAXX  10124 82392 32499 63604 10274 20232 30010 40112 84430 333 20230 58002;
0137823920999992009031018004-03700-040350FM-12+008399999V0202701N000510450019N0500001N1+03221+02201100651ADDGF105991031041004501031001MA1999999099641MD1999999-0061REMSYN070AAXX  10184 82392 32499 52701 10322 20220 39964 40065 83430 333 59006;
0168823920999992009031100004-03700-040350FM-12+008399999V0203601N001010450019N0500001N1+02511+02311100951ADDGF108991031021004501011999KA1240M+03281MA1999999099931MD1999999-0051REMSYN088AAXX  11004 82392 32499 83602 10251 20231 39993 40095 8321/ 333 10328 29077 55078 59005;
0156823920999992009031112004-03700-040350FM-12+008399999V0200901N001010450019N0500001N1+02701+02241101071ADDGF106991041021004501031001KA1240N+02401MA1999999100051MD1999999-0051REMSYN076AAXX  11124 82392 32499 60902 10270 20224 30005 40107 84230 333 20240 59005;
0182823920999992009031118004-03700-040350FM-12+008399999V0200501N002110450019N0500001N1+02541+02111100751ADDAA106008991AY161061AY221061GF107991041051004501031001MA1999999099721MD1999999+0081MW1021REMSYN082AAXX  11184 82392 21499 70504 10254 20211 39972 40075 70262 84530 333 58008 60091;
0168823920999992009031200004-03700-040350FM-12+008399999V0203601N000512200019N0040001N1+02371+02331100981ADDGF102991011021004501011001KA1240M+03111MA1999999099951MD1999999+0021REMSYN088AAXX  12004 82392 32496 23601 10237 20233 39995 40098 81210 333 10311 29086 55039 58002;
0173823920999992009031212004-03700-040350FM-12+008399999V0201401N000510450019N0500001N1+02691+02371101071ADDAA124008991GF107991041041004501031001KA1240N+02291MA1999999100041MD1999999-0011REMSYN082AAXX  12124 82392 22499 71401 10269 20237 30004 40107 84430 333 20229 59001 60094;
0182823920999992009031218004-03700-040350FM-12+008399999V0200501N000519999999N0500001N1+02671+02391100811ADDAA106014091AY161061AY261061GF108991051001004501011999MA1999999099781MD1999999+0061MW1021REMSYN082AAXX  12184 82392 21499 80501 10267 20239 39978 40081 70266 8501/ 333 58006 60141;
0168823920999992009031300004-03700-040350FM-12+008399999V0203601N001010450019N0500001N1+02441+02231100921ADDGF107991031051004501011001KA1240M+03121MA1999999099901MD1999999-0051REMSYN088AAXX  13004 82392 32499 73602 10244 20223 39990 40092 83510 333 10312 29086 55035 59005;
0201823920999992009031312004-03700-040350FM-12+008399999V0200501N002612200019N0500001N1+02721+02301100921ADDAA124014091AY161061AY261061GF103991031021004501001001KA1240N+02301MA1999999099901MD1999999-0141MW1021REMSYN088AAXX  13124 82392 21499 30505 10272 20230 39990 40092 70266 83200 333 20230 59014 60144;
0137823920999992009031318004-03700-040350FM-12+008399999V0200501N001010450019N0500001N1+02961+02401100591ADDGF106991041061004501011001MA1999999099581MD1999999-0201REMSYN070AAXX  13184 82392 32499 60502 10296 20240 39958 40059 84610 333 59020;
0168823920999992009031400004-03700-040350FM-12+008399999V0200501N002110450019N0040001N1+02541+02331100881ADDGF106991041041004501031001KA1240M+03201MA1999999099861MD1999999-0041REMSYN088AAXX  14004 82392 32496 60504 10254 20233 39986 40088 84430 333 10320 29082 55068 59004;
0156823920999992009031412004-03700-040350FM-12+008399999V0203601N000510450019N0500001N1+02811+02381101141ADDGF105991031021004501031001KA1240N+02411MA1999999100121MD1999999+0221REMSYN076AAXX  14124 82392 32499 53601 10281 20238 30012 40114 83230 333 20241 58022;
0137823920999992009031418004-03700-040350FM-12+008399999V0200501N004110450019N0500001N1+02871+02461100731ADDGF106991041061004501011001MA1999999099711MD1999999+0131REMSYN070AAXX  14184 82392 32499 60508 10287 20246 39971 40073 84610 333 58013;
0213823920999992009031500004-03700-040350FM-12+008399999V0202701N000510450019N0040001N1+02391+02341101221ADDAA106000591AY151061AY251061GF108991041061004501011999KA1240M+03291MA1999999100201MD1999999+0341MW1021REMSYN100AAXX  15004 82392 21496 82701 10239 20234 30020 40122 70255 8461/ 333 10329 29086 55073 58034 69951;
0201823920999992009031512004-03700-040350FM-12+008399999V0201801N000512200019N0500001N1+02581+02211101231ADDAA124004191AY161061AY221061GF104991021021004501031001KA1240N+02261MA1999999100201MD1999999+0081MW1021REMSYN088AAXX  15124 82392 21499 41801 10258 20221 30020 40123 70262 82230 333 20226 58008 60044;
0182823920999992009031518004-03700-040350FM-12+008399999V0200501N005710450019N0200001N1+02361+02261100801ADDAA106008991AY121061AY221061GF108991031091004501021999MA1999999099771MD1999999+0061MW1651REMSYN082AAXX  15184 82392 21498 80511 10236 20226 39977 40080 76522 8392/ 333 58006 60091;
0213823920999992009031600004-03700-040350FM-12+008399999V0201801N001010450019N0040001N1+02401+02371101131ADDAA106019191AY161061AY261061GF108991041071004501021999KA1240M+03221MA1999999100101MD1999999-0101MW1031REMSYN100AAXX  16004 82392 21496 81802 10240 20237 30010 40113 70366 8472/ 333 10322 29092 55066 59010 60191;
0201823920999992009031612004-03700-040350FM-12+008399999V0200501N002610450019N0500001N1+02541+02401101181ADDAA124030091AY161061AY261061GF108991031071004501021999KA1240N+02321MA1999999100151MD1999999-0051MW1031REMSYN088AAXX  16124 82392 21499 80505 10254 20240 30015 40118 70366 8372/ 333 20232 59005 60304;
0182823920999992009031618004-03700-040350FM-12+008399999V0200501N003110450019N0500001N1+02741+02321100911ADDAA106003091AY161061AY221061GF106991041041004501031001MA1999999099881MD1999999+0111MW1021REMSYN082AAXX  16184 82392 21499 60506 10274 20232 39988 40091 70262 84430 333 58011 60031;
0213823920999992009031700004-03700-040350FM-12+008399999V0209999C000010450019N0040001N1+02431+02411101121ADDAA106003091AY161061AY261061GF108991041041004501021999KA1240M+02961MA1999999100091MD1999999-0011MW1021REMSYN100AAXX  17004 82392 21496 80000 10243 20241 30009 40112 70266 8442/ 333 10296 29092 55041 59001 60031;
0201823920999992009031712004-03700-040350FM-12+008399999V0200501N000510450019N0500001N1+02541+02251101241ADDAA124007191AY161061AY261061GF107991031051004501031001KA1240N+02281MA1999999100211MD1999999+0061MW1021REMSYN088AAXX  17124 82392 21499 70501 10254 20225 30021 40124 70266 83530 333 20228 58006 60074;
0182823920999992009031718004-03700-040350FM-12+008399999V0200901N000510042019N0500001N1+02461+02361100931ADDAA106007191AY161061AY261061GF108991051051004501021999MA1999999099901MD1999999+0021MW1201REMSYN082AAXX  17184 82392 21499 80901 10246 20236 39990 40093 72066 8552/ 333 58002 60071;
0213823920999992009031800004-03700-040350FM-12+008399999V0209999C000010450019N0040001N1+02361+02261101231ADDAA106000021AY101061AY221061GF108991041051004501021999KA1240M+02861MA1999999100201MD1999999+0111MW1201REMSYN100AAXX  18004 82392 21496 80000 10236 20226 30020 40123 72002 8452/ 333 10286 29092 55007 58011 69911;
0201823920999992009031812004-03700-040350FM-12+008399999V0202301N001010450019N0500001N1+02541+02401101241ADDAA124007191AY151061AY251061GF106991041041004501031001KA1240N+02251MA1999999100211MD1999999+0001MW1021REMSYN088AAXX  18124 82392 21499 62302 10254 20240 30021 40124 70255 84430 333 20225 58000 60074;
0137823920999992009031818004-03700-040350FM-12+008399999V0200501N003112200019N0500001N1+03101+02201100771ADDGF104991041021004501001001MA1999999099751MD1999999-0151REMSYN070AAXX  18184 82392 32499 40506 10310 20220 39975 40077 84200 333 59015;
0223823920999992009031900004-03700-040350FM-12+008399999V0200501N001012200019N0040001N1+02381+02241101081ADDAA106010991AY161061AY261061GA1001+999999999GF100991001001999999001001KA1240M+03181MA1999999100051MD1999999-0151MW1021REMSYN094AAXX  19004 82392 21496 00502 10238 20224 30005 40108 70266 333 10318 29084 55078 59015 60111;
0173823920999992009031912004-03700-040350FM-12+008399999V0201401N000510042019N0500001N1+02701+02391101091ADDAA124010991GF106991061041004501001001KA1240N+02201MA1999999100061MD1999999-0151REMSYN082AAXX  19124 82392 22499 61401 10270 20239 30006 40109 86400 333 20220 59015 60114;
0201823920999992009031918004-03700-040350FM-12+008399999V0203601N000510042019N0500001N1+02711+02391100731ADDAA106002091AY101061AY221061GF107991999031004501001001MA1999999099701MD1999999-0051MW1211REMSYN082AAXX  19184 82392 21499 73601 10271 20239 39970 40073 72102 85300 333 59005 60021;EQDQ01+000052SCOTLC
0178823920999992009032000004-03700-040350FM-12+008399999V0200501N000512200019N0040001N1+02421+02211100921ADDGA1001+999999999GF100991001001999999001001KA1240M+03181MA1999999099901MD1999999-0151REMSYN082AAXX  20004 82392 32996 00501 10242 20221 39990 40092 333 10318 29085 55064 59015;
0173823920999992009032012004-03700-040350FM-12+008399999V0200901N001010450019N0500001N1+02641+02291101071ADDAA124002091GF106991041051004501031001KA1240N+02321MA1999999100041MD1999999-0021REMSYN082AAXX  20124 82392 22499 60902 10264 20229 30004 40107 84530 333 20232 59002 60024;
0137823920999992009032018004-03700-040350FM-12+008399999V0203601N000510450019N0500001N1+02841+02351100741ADDGF106991031061004501021021MA1999999099721MD1999999+0021REMSYN070AAXX  20184 82392 32499 63601 10284 20235 39972 40074 83622 333 58002;
0178823920999992009032100004-03700-040350FM-12+008399999V0200501N002612200019N0040001N1+02481+02271100901ADDGA1001+999999999GF100991001001999999001001KA1240M+03141MA1999999099881MD1999999-0021REMSYN082AAXX  21004 82392 32996 00505 10248 20227 39988 40090 333 10314 29083 55059 59002;
0156823920999992009032112004-03700-040350FM-12+008399999V0201801N001512200019N0500001N1+02601+02331101071ADDGF104991041021004501001001KA1240N+02201MA1999999100041MD1999999+0001REMSYN076AAXX  21124 82392 32499 41803 10260 20233 30004 40107 84200 333 20220 58000;
0137823920999992009032118004-03700-040350FM-12+008399999V0200501N003110450019N0500001N1+02981+02121100671ADDGF107991031051004501011001MA1999999099651MD1999999-0071REMSYN070AAXX  21184 82392 32499 70506 10298 20212 39965 40067 83510 333 59007;
0213823920999992009032200004-03700-040350FM-12+008399999V0203601N001010450019N0040001N1+02461+02321100931ADDAA106003091AY161061AY261061GF108991041071004501021999KA1240M+03161MA1999999099901MD1999999+0021MW1021REMSYN100AAXX  22004 82392 21496 83602 10246 20232 39990 40093 70266 8472/ 333 10316 29082 55047 58002 60031;
0173823920999992009032212004-03700-040350FM-12+008399999V0201401N000510042019N0500001N1+02631+02441100981ADDAA124003091GF107991061051004501071001KA1240N+02251MA1999999099961MD1999999-0081REMSYN082AAXX  22124 82392 22499 71401 10263 20244 39996 40098 86570 333 20225 59008 60034;
0182823920999992009032218004-03700-040350FM-12+008399999V0209999C000010450019N0500001N1+02571+02401100961ADDAA106001091AY161061AY261061GF107991041051004501071001MA1999999099951MD1999999-0061MW1021REMSYN082AAXX  22184 82392 21499 71400 10257 20240 39995 40096 70266 84570 333 59006 69991;
0213823920999992009032300004-03700-040350FM-12+008399999V0203601N001010450019N0040001N1+02441+02351100911ADDAA106000591AY161061AY261061GF108991041051004501021999KA1240M+02971MA1999999099881MD1999999-0021MW1021REMSYN100AAXX  23004 82392 21496 83602 10244 20235 39988 40091 70266 8452/ 333 10297 29092 55020 59002 69941;
0173823920999992009032312004-03700-040350FM-12+008399999V0200501N002610450019N0500001N1+02661+02371100971ADDAA124001091GF106991041041004501031001KA1240N+02371MA1999999099951MD1999999-0011REMSYN082AAXX  23124 82392 22499 60505 10266 20237 39995 40097 84430 333 20237 59001 60014;
0182823920999992009032318004-03700-040350FM-12+008399999V0200501N003110450019N0200001N1+02461+02321100781ADDAA106014091AY161061AY251061GF108991041061004501021999MA1999999099751MD1999999+0151MW1611REMSYN082AAXX  23184 82392 21498 80506 10246 20232 39975 40078 76165 8462/ 333 58015 60141;
0213823920999992009032400004-03700-040350FM-12+008399999V0209999C000010450019N0040001N1+02391+02351100941ADDAA106007191AY161061AY261061GF106991031041004501021001KA1240M+03001MA1999999099911MD1999999+0031MW1021REMSYN100AAXX  24004 82392 21496 60000 10239 20235 39991 40094 70266 83420 333 10300 29093 55029 58003 60071;
0201823920999992009032412004-03700-040350FM-12+008399999V0202301N000510450019N0500001N1+02601+02331101031ADDAA124022191AY161061AY261061GF106991031041004501031001KA1240N+02301MA1999999100001MD1999999+0051MW1021REMSYN088AAXX  24124 82392 21499 62301 10260 20233 30000 40103 70266 83430 333 20230 58005 60224;
0201823920999992009032418004-03700-040350FM-12+008399999V0203601N001510450019N0500001N1+02691+02431100641ADDAA106000091AY151061AY251061GF107991041051004501011001MA1999999099621MD1999999-0121MW1021REMSYN082AAXX  24184 82392 21499 73603 10269 20243 39962 40064 70255 84510 333 59012 69921;EQDQ01  00002PRCP06
0213823920999992009032500004-03700-040350FM-12+008399999V0209999C000010450019N0040001N1+02371+02331100941ADDAA106006191AY161061AY261061GF108991041051004501021999KA1240M+03091MA1999999099911MD1999999+0001MW1021REMSYN100AAXX  25004 82392 21496 80000 10237 20233 39991 40094 70266 8452/ 333 10309 29091 55040 58000 60061;
0173823920999992009032512004-03700-040350FM-12+008399999V0200501N003112200019N0500001N1+02801+02181100961ADDAA124006191GF103991031021004501001001KA1240N+02261MA1999999099941MD1999999-0061REMSYN082AAXX  25124 82392 22499 30506 10280 20218 39994 40096 83200 333 20226 59006 60064;
0217823920999992009032518004-03700-040350FM-12+008399999V0200501N001519999999N0500001N1+03001+02171100561ADDAA106000091AY151061AY221061GF105991999031004501001001MA1999999099551MD1999999-0071MW1021REMSYN082AAXX  25184 82392 21499 50503 10300 20217 39955 40056 70252 84300 333 59007 69911;EQDQ01+000042SCOTLCQ02  00002PRCP06
0213823920999992009032600004-03700-040350FM-12+008399999V0200501N000510450019N0040001N1+02431+02341100891ADDAA106019191AY161061AY261061GF105991031051004501011001KA1240M+03181MA1999999099871MD1999999-0041MW1021REMSYN100AAXX  26004 82392 21496 50501 10243 20234 39987 40089 70266 83510 333 10318 29080 55071 59004 60191;
0173823920999992009032612004-03700-040350FM-12+008399999V0209999C000010450019N0500001N1+02691+02501101031ADDAA124020191GF106991041061004501031001KA1240N+02311MA1999999100011MD1999999+0071REMSYN082AAXX  26124 82392 22499 60000 10269 20250 30001 40103 84630 333 20231 58007 60204;
0182823920999992009032618004-03700-040350FM-12+008399999V0200501N000510042019N0200001N1+02441+02371100801ADDAA106022191AY161061AY261061GF108991081061004501999999MA1999999099771MD1999999+0221MW1291REMSYN082AAXX  26184 82392 21498 80501 10244 20237 39977 40080 72966 886// 333 58022 60221;
0223823920999992009032700004-03700-040350FM-12+008399999V0200501N000512200019N0040001N1+02381+02241100901ADDAA106001091AY161061AY261061GA1001+999999999GF100991001001999999001001KA1240M+03101MA1999999099871MD1999999+0001MW1021REMSYN094AAXX  27004 82392 21996 00501 10238 20224 39987 40090 70266 333 10310 29092 55036 58000 60011;
0173823920999992009032712004-03700-040350FM-12+008399999V0209999C000012200019N0500001N1+02621+02411101081ADDAA124023191GF103991031021004501001001KA1240N+02241MA1999999100051MD1999999+0041REMSYN082AAXX  27124 82392 22499 30000 10262 20241 30005 40108 83200 333 20224 58004 60234;
0182823920999992009032718004-03700-040350FM-12+008399999V0202301N000510042019N0500001N1+02531+02151100851ADDAA106015091AY161061AY261061GF107991051071004501031001MA1999999099821MD1999999+0051MW1021REMSYN082AAXX  27184 82392 21499 72301 10253 20215 39982 40085 70266 85730 333 58005 60151;
0168823920999992009032800004-03700-040350FM-12+008399999V0200501N001012200019N0040001N1+02441+02341100951ADDGF104991021011004501031001KA1240M+03021MA1999999099921MD1999999+0051REMSYN088AAXX  28004 82392 32496 40502 10244 20234 39992 40095 82130 333 10302 29093 55063 58005;
0173823920999992009032812004-03700-040350FM-12+008399999V0209999C000010042019N0500001N1+02731+02401101091ADDAA124015091GF107991051061004501031001KA1240N+02331MA1999999100071MD1999999+0021REMSYN082AAXX  28124 82392 22499 70000 10273 20240 30007 40109 85630 333 20233 58002 60154;
0137823920999992009032818004-03700-040350FM-12+008399999V0200501N001510042019N0500001N1+02471+02381100881ADDGF107991051061004501031001MA1999999099851MD1999999+0031REMSYN070AAXX  28184 82392 32499 70503 10247 20238 39985 40088 85630 333 58003;
0168823920999992009032900004-03700-040350FM-12+008399999V0209999C000010450019N0040001N1+02411+02321101071ADDGF108991031061004501021999KA1240M+02941MA1999999100051MD1999999+0131REMSYN088AAXX  29004 82392 32496 80000 10241 20232 30005 40107 8362/ 333 10294 29091 55016 58013;
0156823920999992009032912004-03700-040350FM-12+008399999V0202301N001010450019N0500001N1+02541+02381101051ADDGF107991031051004501011001KA1240N+02301MA1999999100021MD1999999-0051REMSYN076AAXX  29124 82392 32499 72302 10254 20238 30002 40105 83510 333 20230 59005;
0137823920999992009032918004-03700-040350FM-12+008399999V0200501N002112200019N0500001N1+03081+02401100671ADDGF104991041021004501001001MA1999999099651MD1999999-0201REMSYN070AAXX  29184 82392 32499 40504 10308 20240 39965 40067 84200 333 59020;
0213823920999992009033000004-03700-040350FM-12+008399999V0200501N001012200019N0040001N1+02401+02231100961ADDAA106001091AY161061AY221061GF103991031021004501001001KA1240M+03201MA1999999099931MD1999999-0021MW1031REMSYN100AAXX  30004 82392 21496 30502 10240 20223 39993 40096 70362 83200 333 10320 29084 55064 59002 60011;
0173823920999992009033012004-03700-040350FM-12+008399999V0201801N001010450019N0500001N1+02601+02191101131ADDAA124001091GF106991041041004501031001KA1240N+02301MA1999999100101MD1999999+0081REMSYN082AAXX  30124 82392 22499 61802 10260 20219 30010 40113 84430 333 20230 58008 60014;
0137823920999992009033018004-03700-040350FM-12+008399999V0200501N003110450019N0500001N1+02841+01961100721ADDGF106991031051004501031001MA1999999099701MD1999999+0051REMSYN070AAXX  30184 82392 32499 60506 10284 20196 39970 40072 83530 333 58005;
0213823920999992009033100004-03700-040350FM-12+008399999V0200501N001012200019N0040001N1+02381+02331100951ADDAA106050091AY161061AY261061GF102991011061004501011001KA1240M+02941MA1999999099921MD1999999-0011MW1021REMSYN100AAXX  31004 82392 21496 20502 10238 20233 39992 40095 70266 81610 333 10294 29083 55019 59001 60501;
0173823920999992009033112004-03700-040350FM-12+008399999V0201801N001012200019N0500001N1+02601+02211101081ADDAA124050091GF104991041021004501001001KA1240N+02141MA1999999100051MD1999999-0051REMSYN082AAXX  31124 82392 22499 41802 10260 20221 30005 40108 84200 333 20214 59005 60504;
0182823920999992009033118004-03700-040350FM-12+008399999V0203601N001010450019N0500001N1+02511+02361100791ADDAA106005191AY101061AY221061GF107991041061004501021001MA1999999099761MD1999999+0061MW1211REMSYN082AAXX  31184 82392 21499 73602 10251 20236 39976 40079 72102 84620 333 58006 60051;
0168823920999992009040100004-03700-040350FM-12+008399999V0209999C000010450019N0040001N1+02461+02391101011ADDGF108991031061004501021999KA1240M+03201MA1999999099981MD1999999+0061REMSYN088AAXX  01004 82392 32496 80000 10246 20239 39998 40101 8362/ 333 10320 29090 55065 58006;
0201823920999992009040112004-03700-040350FM-12+008399999V0203201N000512200019N0500001N1+02601+02441101131ADDAA124021191AY161061AY261061GF104991041021004501001001KA1240N+02301MA1999999100101MD1999999+0051MW1021REMSYN088AAXX  01124 82392 21499 43201 10260 20244 30010 40113 70266 84200 333 20230 58005 60214;
0182823920999992009040118004-03700-040350FM-12+008399999V0201401N002610450019N0500001N1+02501+02411100831ADDAA106001091AY121061AY261061GF107991041061004501011001MA1999999099801MD1999999+0041MW1021REMSYN082AAXX  01184 82392 21499 71405 10250 20241 39980 40083 70226 84610 333 58004 60011;
0213823920999992009040200004-03700-040350FM-12+008399999V0209999C000010042019N0040001N1+02371+02331101101ADDAA106002091AY151061AY251061GF108991051061004501021999KA1240M+03001MA1999999100071MD1999999+0091MW1021REMSYN100AAXX  02004 82392 21496 80000 10237 20233 30007 40110 70255 8562/ 333 10300 29095 55049 58009 60021;
0173823920999992009040212004-03700-040350FM-12+008399999V0209999C000010042019N0500001N1+02611+02371101111ADDAA124003091GF105991051041004501001001KA1240N+02321MA1999999100081MD1999999-0021REMSYN082AAXX  02124 82392 22499 50000 10261 20237 30008 40111 85400 333 20232 59002 60034;
0168823920999992009040300004-03700-040350FM-12+008399999V0200501N001012200019N0040001N1+02401+02261101031ADDGF102991021001999999031001KA1240M+03201MA1999999100001MD1999999-0071REMSYN088AAXX  03004 82392 32996 20502 10240 20226 30000 40103 82030 333 10320 29082 55094 59007;
0156823920999992009040312004-03700-040350FM-12+008399999V0200501N003112200019N0500001N1+02701+02281101051ADDGF104991031021004501031001KA1240N+02281MA1999999100031MD1999999-0051REMSYN076AAXX  03124 82392 32499 40506 10270 20228 30003 40105 83230 333 20228 59005;
0182823920999992009040318004-03700-040350FM-12+008399999V0209999C000010450019N0500001N1+02511+02431100731ADDAA106011991AY161061AY261061GF106991031061004501031001MA1999999099701MD1999999+0131MW1211REMSYN082AAXX  03184 82392 21499 60000 10251 20243 39970 40073 72166 83630 333 58013 60121;
0168823920999992009040400004-03700-040350FM-12+008399999V0200501N001010450019N0040001N1+02481+02191100961ADDGF106991031041004501031001KA1240M+03061MA1999999099941MD1999999-0061REMSYN088AAXX  04004 82392 32496 60502 10248 20219 39994 40096 83430 333 10306 29085 55063 59006;
0201823920999992009040412004-03700-040350FM-12+008399999V0201801N002110450019N0500001N1+02641+02371101061ADDAA124014091AY161061AY261061GF106991031051004501011001KA1240N+02301MA1999999100041MD1999999+0011MW1031REMSYN088AAXX  04124 82392 21499 61804 10264 20237 30004 40106 70366 83510 333 20230 58001 60144;
0182823920999992009040418004-03700-040350FM-12+008399999V0203201N001010450019N0500001N1+02581+02421100931ADDAA106015091AY161061AY221061GF108991041071004501011999MA1999999099901MD1999999+0201MW1031REMSYN082AAXX  04184 82392 21499 83202 10258 20242 39990 40093 70362 8471/ 333 58020 60151;
0213823920999992009040500004-03700-040350FM-12+008399999V0209999C000010450019N0040001N1+02261+02161101051ADDAA106008991AY161061AY261061GF108991031061004501021999KA1240M+02901MA1999999100021MD1999999+0081MW1021REMSYN100AAXX  05004 82392 21496 80000 10226 20216 30002 40105 70266 8362/ 333 10290 29091 55031 58008 60091;
0173823920999992009040512004-03700-040350FM-12+008399999V0202701N000510042019N0500001N1+02591+02401101221ADDAA124023991GF106991061041004501001001KA1240N+02191MA1999999100191MD1999999+0151REMSYN082AAXX  05124 82392 22499 62701 10259 20240 30019 40122 86400 333 20219 58015 60244;
0137823920999992009040518004-03700-040350FM-12+008399999V0209999C000012200019N0500001N1+03091+02231100811ADDGF104991021021004501001011MA1999999099791MD1999999-0111REMSYN070AAXX  05184 82392 32499 40500 10309 20223 39979 40081 82201 333 59011;
0168823920999992009040600004-03700-040350FM-12+008399999V0200501N000512200019N0040001N1+02491+02341101101ADDGF102991021001008001031001KA1240M+03231MA1999999100071MD1999999+0051REMSYN088AAXX  06004 82392 32596 20501 10249 20234 30007 40110 82030 333 10323 29083 55093 58005;
0156823920999992009040612004-03700-040350FM-12+008399999V0201801N002112200019N0500001N1+02561+02351101281ADDGF104991041021004501001001KA1240N+02281MA1999999100251MD1999999+0061REMSYN076AAXX  06124 82392 32499 41804 10256 20235 30025 40128 84200 333 20228 58006;
0182823920999992009040618004-03700-040350FM-12+008399999V0203601N003110450019N0500001N1+02921+02061100921ADDAA106001091AY161061AY221061GF107991041041004501031001MA1999999099901MD1999999+0111MW1031REMSYN082AAXX  06184 82392 21499 73606 10292 20206 39990 40092 70362 84430 333 58011 60011;
0168823920999992009040700004-03700-040350FM-12+008399999V0209999C000010450019N0040001N1+02391+02261101191ADDGF106991021041004501031001KA1240M+03081MA1999999100161MD1999999+0091REMSYN088AAXX  07004 82392 32496 60000 10239 20226 30016 40119 82430 333 10308 29083 55041 58009;
0173823920999992009040712004-03700-040350FM-12+008399999V0201801N001010450019N0500001N1+02621+02211101311ADDAA124001091GF107991041041004501031001KA1240N+02281MA1999999100281MD1999999+0031REMSYN082AAXX  07124 82392 22499 71802 10262 20221 30028 40131 84430 333 20228 58003 60014;
0202823920999992009040718004-03700-040350FM-12+008399999V0203601N001010042019N0500001N1+02661+02411100931ADDAA106000091AY151061AY251061GF106991051061004501031001MD1999999+0001MW1021REMSYN082AAXX  07184 82392 21499 63602 10266 20241 39920 40093 70255 85630 333 58000 69911;EQDQ01+099203APOSP Q02  00002PRCP06
0213823920999992009040800004-03700-040350FM-12+008399999V0200901N001012200019N0040001N1+02411+02371101111ADDAA106000891AY161061AY261061GF103991021021004501001011KA1240M+03161MA1999999100081MD1999999-0081MW1021REMSYN100AAXX  08004 82392 21496 30902 10241 20237 30008 40111 70266 82201 333 10316 29090 55065 59008 69971;
0173823920999992009040812004-03700-040350FM-12+008399999V0200501N001012200019N0500001N1+02761+02041101151ADDAA124000891GF102991021011004501001001KA1240N+02301MA1999999100131MD1999999-0151REMSYN082AAXX  08124 82392 22499 20502 10276 20204 30013 40115 82100 333 20230 59015 69984;
0182823920999992009040818004-03700-040350FM-12+008399999V0202701N000510450019N0500001N1+02321+02181100871ADDAA106016091AY161061AY221061GF108991031071004501021999MA1999999099841MD1999999-0061MW1211REMSYN082AAXX  08184 82392 21499 82701 10232 20218 39984 40087 72162 8372/ 333 59006 60161;
0213823920999992009040900004-03700-040350FM-12+008399999V0209999C000010042019N0040001N1+02411+02391101111ADDAA106031091AY161061AY261061GF108991081061004501999999KA1240M+03141MA1999999100091MD1999999+0011MW1971REMSYN100AAXX  09004 82392 21496 80000 10241 20239 30009 40111 79766 886// 333 10314 29090 55058 58001 60311;
0220823920999992009040912004-03700-040350FM-12+008399999V0202301N000510042019N0500001N1+02531+02441101171ADDAA124020191AY161061AY261061GF107991051041004501031001KA1240N+99999MA1999999100151MD1999999+0031MW1021REMSYN088AAXX  09124 82392 21499 72301 10253 20244 30015 40117 70266 85430 333 20299 58003 60204;EQDQ01 +02992ATMN  
0182823920999992009040918004-03700-040350FM-12+008399999V0200501N000510450019N0500001N1+02871+02371100791ADDAA106002091AY161061AY261061GF106991041061004501031001MA1999999099771MD1999999-0071MW1021REMSYN082AAXX  09184 82392 21499 60501 10287 20237 39977 40079 70266 84630 333 59007 60021;
0213823920999992009041000004-03700-040350FM-12+008399999V0209999C000010450019N0040001N1+02341+02171101131ADDAA106003091AY161061AY261061GF108991041061004501021999KA1240M+02981MA1999999100101MD1999999+0011MW1031REMSYN100AAXX  10004 82392 21496 80000 10234 20217 30010 40113 70366 8462/ 333 10298 29087 55024 58001 60031;
0173823920999992009041012004-03700-040350FM-12+008399999V0203601N003110042019N0500001N1+02441+02281101311ADDAA124005191GF107991051051004501011001KA1240N+02281MA1999999100281MD1999999+0131REMSYN082AAXX  10124 82392 22499 73606 10244 20228 30028 40131 85510 333 20228 58013 60054;
0137823920999992009041018004-03700-040350FM-12+008399999V0202701N001010042019N0500001N1+02641+02441100931ADDGF107991061061004501031001MA1999999099901MD1999999+0131REMSYN070AAXX  10184 82392 32499 72702 10264 20244 39990 40093 86630 333 58013;
0213823920999992009041100004-03700-040350FM-12+008399999V0200501N001010450019N0040001N1+02421+02391101251ADDAA106007191AY161061AY221061GF108991041061004501021999KA1240M+03041MA1999999100231MD1999999+0131MW1511REMSYN100AAXX  11004 82392 21496 80502 10242 20239 30023 40125 75162 8462/ 333 10304 29094 55040 58013 60071;
0201823920999992009041112004-03700-040350FM-12+008399999V0202701N000510042019N0500001N1+02481+02411101271ADDAA124010991AY161061AY261061GF107991051061004501011001KA1240N+02241MA1999999100241MD1999999-0041MW1021REMSYN088AAXX  11124 82392 21499 72701 10248 20241 30024 40127 70266 85610 333 20224 59004 60114;
0182823920999992009041118004-03700-040350FM-12+008399999V0200901N002110042019N0500001N1+02991+02461100791ADDAA106000021AY101061AY221061GF107991061061004501001011MA1999999099771MD1999999-0131MW1511REMSYN082AAXX  11184 82392 21499 70904 10299 20246 39977 40079 75102 86601 333 59013 69911;
0213823920999992009041200004-03700-040350FM-12+008399999V0200501N001010042019N0040001N1+02471+02391101061ADDAA106002091AY161061AY261061GF107991051061004501011001KA1240M+03121MA1999999100031MD1999999-0201MW1021REMSYN100AAXX  12004 82392 21496 70502 10247 20239 30003 40106 70266 85610 333 10312 29090 55044 59020 60021;
0173823920999992009041212004-03700-040350FM-12+008399999V0201801N002110450019N0500001N1+02501+02321101191ADDAA124002091GF107991031041004501021001KA1240N+02241MA1999999100161MD1999999-0081REMSYN082AAXX  12124 82392 22499 71804 10250 20232 30016 40119 83420 333 20224 59008 60024;
0137823920999992009041218004-03700-040350FM-12+008399999V0203601N004110450019N0500001N1+02821+02221100821ADDGF106991041051004501031001MA1999999099801MD1999999+0031REMSYN070AAXX  12184 82392 32499 63608 10282 20222 39980 40082 84530 333 58003;
0213823920999992009041300004-03700-040350FM-12+008399999V0203601N000510450019N0040001N1+02381+02261101231ADDAA106006191AY161061AY261061GF108991041061004501021999KA1240M+03061MA1999999100201MD1999999+0171MW1031REMSYN100AAXX  13004 82392 21496 83601 10238 20226 30020 40123 70366 8462/ 333 10306 29086 55042 58017 60061;
0201823920999992009041312004-03700-040350FM-12+008399999V0201401N000510450019N0500001N1+02481+02381101341ADDAA124006191AY161061AY261061GF108991041061004501021999KA1240N+02281MA1999999100311MD1999999+0151MW1021REMSYN088AAXX  13124 82392 21499 81401 10248 20238 30031 40134 70266 8462/ 333 20228 58015 60064;
0137823920999992009041318004-03700-040350FM-12+008399999V0200501N003110450019N0500001N1+02781+02361100981ADDGF108991031071004501021999MA1999999099951MD1999999+0151REMSYN070AAXX  13184 82392 32499 80506 10278 20236 39995 40098 8372/ 333 58015;
0168823920999992009041400004-03700-040350FM-12+008399999V0209999C000010042019N0040001N1+02451+02411101341ADDGF106991051061004501031001KA1240M+02941MA1999999100311MD1999999+0111REMSYN088AAXX  14004 82392 32496 60000 10245 20241 30031 40134 85630 333 10294 29092 55001 58011;
0137823920999992009041418004-03700-040350FM-12+008399999V0200501N000512200019N0500001N1+03131+02231100961ADDGF104991031021004501001011MA1999999099941MD1999999-0011REMSYN070AAXX  14184 82392 32499 40501 10313 20223 39994 40096 83201 333 59001;
0168823920999992009041500004-03700-040350FM-12+008399999V0203601N000512200019N0040001N1+02531+02351101251ADDGF102991011021004501011001KA1240M+03221MA1999999100231MD1999999-0081REMSYN088AAXX  15004 82392 32496 23601 10253 20235 30023 40125 81210 333 10322 29080 55082 59008;
0156823920999992009041512004-03700-040350FM-12+008399999V0200501N000510450019N0500001N1+02701+02331101381ADDGF107991041051004501031001KA1240N+02361MA1999999100361MD1999999+0011REMSYN076AAXX  15124 82392 32499 70501 10270 20233 30036 40138 84530 333 20236 58001;
0182823920999992009041518004-03700-040350FM-12+008399999V0200901N001010042019N0500001N1+02721+02301101061ADDAA106001091AY161061AY221061GF107991051021004501031001MA1999999100031MD1999999+0091MW1021REMSYN082AAXX  15184 82392 21499 70902 10272 20230 30003 40106 70262 85230 333 58009 60011;
0168823920999992009041600004-03700-040350FM-12+008399999V0209999C000010450019N0040001N1+02441+02321101211ADDGF106991031021004501021001KA1240M+03061MA1999999100191MD1999999-0041REMSYN088AAXX  16004 82392 32496 60000 10244 20232 30019 40121 83220 333 10306 29086 55037 59004;
0173823920999992009041612004-03700-040350FM-12+008399999V0200901N000510042019N0500001N1+02831+02381101391ADDAA124001091GF106991061041004501001001KA1240N+02231MA1999999100371MD1999999+0011REMSYN082AAXX  16124 82392 22499 60901 10283 20238 30037 40139 86400 333 20223 58001 60014;
0182823920999992009041618004-03700-040350FM-12+008399999V0200901N001010042019N0500001N1+02661+02371101021ADDAA106003091AY161061AY261061GF107991051061004501011001MA1999999099991MD1999999-0041MW1021REMSYN082AAXX  16184 82392 21499 70902 10266 20237 39999 40102 70266 85610 333 59004 60031;
0168823920999992009041700004-03700-040350FM-12+008399999V0200501N003112200019N0500001N1+02481+02271101271ADDGF101991011001004501051001KA1240M+03001MA1999999100251MD1999999+0061REMSYN088AAXX  17004 82392 32499 10506 10248 20227 30025 40127 81050 333 10300 29084 55065 58006;
0201823920999992009041712004-03700-040350FM-12+008399999V0200501N000510450019N0500001N1+02461+02361101331ADDAA124004191AY161061AY261061GF108991041071004501021999KA1240N+02281MA1999999100301MD1999999-0071MW1021REMSYN088AAXX  17124 82392 21499 80501 10246 20236 30030 40133 70266 8472/ 333 20228 59007 60044;
0137823920999992009041718004-03700-040350FM-12+008399999V0209999C000010042019N0500001N1+02661+02371101011ADDGF108991051071004501021999MA1999999099981MD1999999-0011REMSYN070AAXX  17184 82392 32499 80000 10266 20237 39998 40101 8572/ 333 59001;
0168823920999992009041800004-03700-040350FM-12+008399999V0200501N001010450019N0040001N1+02421+02391101131ADDGF106991031041004501031001KA1240M+02721MA1999999100101MD1999999-0151REMSYN088AAXX  18004 82392 32496 60502 10242 20239 30010 40113 83430 333 10272 29094 55000 59015;
0156823920999992009041812004-03700-040350FM-12+008399999V0202301N002110450019N0500001N1+02661+02241101161ADDGF105991031041004501031001KA1240N+02241MA1999999100131MD1999999-0171REMSYN076AAXX  18124 82392 32499 52304 10266 20224 30013 40116 83430 333 20224 59017;
0137823920999992009041818004-03700-040350FM-12+008399999V0200501N003110450019N0500001N1+03021+02181100801ADDGF106991041021004501031001MA1999999099781MD1999999-0201REMSYN070AAXX  18184 82392 32499 60506 10302 20218 39978 40080 84230 333 59020;
0168823920999992009041900004-03700-040350FM-12+008399999V0200501N000512200019N0040001N1+02461+02321101071ADDGF102991021001004501031001KA1240M+03101MA1999999100051MD1999999-0051REMSYN088AAXX  19004 82392 32496 20501 10246 20232 30005 40107 82030 333 10310 29081 55062 59005;
0156823920999992009041912004-03700-040350FM-12+008399999V0200901N000510450019N0500001N1+02711+02321101131ADDGF106991041041004501031001KA1240N+02221MA1999999100111MD1999999-0021REMSYN076AAXX  19124 82392 32499 60901 10271 20232 30011 40113 84430 333 20222 59002;
0137823920999992009041918004-03700-040350FM-12+008399999V0200501N000510042019N0500001N1+02981+02171100811ADDGF107991061061004501031001MA1999999099791MD1999999+0011REMSYN070AAXX  19184 82392 32499 70501 10298 20217 39979 40081 86630 333 58001;
0213823920999992009042000004-03700-040350FM-12+008399999V0203601N001010450019N0040001N1+02411+02331101241ADDAA106004191AY161061AY261061GF108991031041004501021999KA1240M+03141MA1999999100221MD1999999+0171MW1021REMSYN100AAXX  20004 82392 21496 83602 10241 20233 30022 40124 70266 8342/ 333 10314 29083 55066 58017 60041;
0220823920999992009042012004-03700-040350FM-12+008399999V0201401N000510042019N0200001N1+02481+02381101331ADDAA124007991AY161061AY261061GF108991999061004501021001KA1240N+02361MA1999999100301MD1999999+0191MW1021REMSYN088AAXX  20124 82392 21498 81401 10248 20238 30030 40133 70266 88620 333 20236 58019 60084;EQDQ01+000082SCOTLC
0137823920999992009042018004-03700-040350FM-12+008399999V0201801N002610450019N0500001N1+02681+02111100941ADDGF106991041021004501031001MA1999999099921MD1999999+0131REMSYN070AAXX  20184 82392 32499 61805 10268 20211 39992 40094 84230 333 58013;
0232823920999992009042100004-03700-040350FM-12+008399999V0209999C000010450019N0040001N1+02551+02471101251ADDAA106000091AY151061AY251061GF108991031041004501021999KA1240M+02961MA1999999100221MD1999999+0001MW1021REMSYN100AAXX  21004 82392 21496 80000 10255 20247 30022 40125 70255 8342/ 333 10296 29089 55022 58000 69911;EQDQ01  00002PRCP06
0201823920999992009042112004-03700-040350FM-12+008399999V0201801N001012200019N0500001N1+02521+02341101291ADDAA124009991AY151061AY261061GF104991041021004501001001KA1240N+02301MA1999999100261MD1999999-0041MW1021REMSYN088AAXX  21124 82392 21499 41802 10252 20234 30026 40129 70256 84200 333 20230 59004 60104;
0137823920999992009042118004-03700-040350FM-12+008399999V0203601N001010450019N0500001N1+02861+02461100821ADDGF106991041061004501011001MA1999999099811MD1999999-0111REMSYN070AAXX  21184 82392 32499 63602 10286 20246 39981 40082 84610 333 59011;
0213823920999992009042200004-03700-040350FM-12+008399999V0209999C000010042019N0040001N1+02271+02231101311ADDAA106081091AY161061AY261061GF108991081061004501999999KA1240M+03141MA1999999100281MD1999999+0061MW1201REMSYN100AAXX  22004 82392 21496 80000 10227 20223 30028 40131 72066 886// 333 10314 29091 55062 58006 60811;
0201823920999992009042212004-03700-040350FM-12+008399999V0202701N000510450019N0500001N1+02521+02421101231ADDAA124089991AY161061AY261061GF108991031061004501021999KA1240N+02241MA1999999100201MD1999999-0061MW1021REMSYN088AAXX  22124 82392 21499 82701 10252 20242 30020 40123 70266 8362/ 333 20224 59006 60904;
0137823920999992009042218004-03700-040350FM-12+008399999V0203201N001510450019N0500001N1+03081+02191100751ADDGF105991031021004501031001MA1999999099731MD1999999-0081REMSYN070AAXX  22184 82392 32499 53203 10308 20219 39973 40075 83230 333 59008;
0156823920999992009042312004-03700-040350FM-12+008399999V0209999C000010450019N0500001N1+02591+02391101111ADDGF106991031021004501011001KA1240N+02401MA1999999100081MD1999999-0121REMSYN076AAXX  23124 82392 32499 60000 10259 20239 30008 40111 83210 333 20240 59012;
0137823920999992009042318004-03700-040350FM-12+008399999V0200901N000510450019N0500001N1+03021+02361100671ADDGF106991021061004501031011MA1999999099651MD1999999-0081REMSYN070AAXX  23184 82392 32499 60901 10302 20236 39965 40067 82631 333 59008;
0168823920999992009042400004-03700-040350FM-12+008399999V0200501N002612200019N0040001N1+02421+02281101031ADDGF102991021001004501031001KA1240M+03121MA1999999100001MD1999999-0061REMSYN088AAXX  24004 82392 32496 20505 10242 20228 30000 40103 82030 333 10312 29085 55066 59006;
0156823920999992009042412004-03700-040350FM-12+008399999V0201801N001010450019N0500001N1+02661+02241101131ADDGF106991041041004501031001KA1240N+02381MA1999999100101MD1999999+0021REMSYN076AAXX  24124 82392 32499 61802 10266 20224 30010 40113 84430 333 20238 58002;
0137823920999992009042418004-03700-040350FM-12+008399999V0201801N000510042019N0500001N1+02891+02431100681ADDGF107991051071004501011001MA1999999099661MD1999999+0011REMSYN070AAXX  24184 82392 32499 71801 10289 20243 39966 40068 85710 333 58001;
0213823920999992009042500004-03700-040350FM-12+008399999V0209999C000010450019N0040001N1+02441+02371101021ADDAA106022191AY161061AY261061GF108991041061004501021999KA1240M+03201MA1999999100001MD1999999+0001MW1031REMSYN100AAXX  25004 82392 21496 80000 10244 20237 30000 40102 70366 8462/ 333 10320 29086 55060 58000 60221;
0201823920999992009042512004-03700-040350FM-12+008399999V0209999C000010450019N0500001N1+02431+02301101361ADDAA124029091AY161061AY261061GF108991041051004501011999KA1240N+02321MA1999999100331MD1999999+0231MW1021REMSYN088AAXX  25124 82392 21499 80000 10243 20230 30033 40136 70266 8451/ 333 20232 58023 60294;
0137823920999992009042518004-03700-040350FM-12+008399999V0200501N001010450019N0500001N1+02811+02461100941ADDGF107991041051004501011001MA1999999099921MD1999999+0221REMSYN070AAXX  25184 82392 32499 70502 10281 20246 39992 40094 84510 333 58022;
0168823920999992009042600004-03700-040350FM-12+008399999V0209999C000010450019N0040001N1+02431+02351101261ADDGF106991031051004501011001KA1240M+02881MA1999999100231MD1999999+0231REMSYN088AAXX  26004 82392 32496 60000 10243 20235 30023 40126 83510 333 10288 29091 55010 58023;
0156823920999992009042612004-03700-040350FM-12+008399999V0200901N002612200019N0500001N1+02701+02131101221ADDGF103991031021004501001001KA1240N+02301MA1999999100201MD1999999-0131REMSYN076AAXX  26124 82392 32499 30905 10270 20213 30020 40122 83200 333 20230 59013;
0137823920999992009042618004-03700-040350FM-12+008399999V0200501N000510450019N0500001N1+02981+02151100881ADDGF105991031021004501031001MA1999999099861MD1999999-0061REMSYN070AAXX  26184 82392 32499 50501 10298 20215 39986 40088 83230 333 59006;
0178823920999992009042700004-03700-040350FM-12+008399999V0200501N004112200019N0040001N1+02521+02381101081ADDGA1001+999999999GF100991001001999999001001KA1240M+03161MA1999999100061MD1999999-0171REMSYN082AAXX  27004 82392 32996 00508 10252 20238 30006 40108 333 10316 29079 55086 59017;
0156823920999992009042712004-03700-040350FM-12+008399999V0200501N000510450019N0500001N1+02741+02321101161ADDGF106991041021004501031001KA1240N+02381MA1999999100141MD1999999-0061REMSYN076AAXX  27124 82392 32499 60501 10274 20232 30014 40116 84230 333 20238 59006;
0182823920999992009042718004-03700-040350FM-12+008399999V0200501N002110450019N0200001N1+02461+02361100941ADDAA106007991AY151061AY261061GF108991041061004501021999MA1999999099941MD1999999+0081MW1021REMSYN082AAXX  27184 82392 21498 80504 10246 20236 39994 40094 70256 8462/ 333 58008 60081;
0213823920999992009042800004-03700-040350FM-12+008399999V0209999C000010450019N0040001N1+02341+02291101161ADDAA106004191AY151061AY251061GF108991041051004501021999KA1240M+03001MA1999999100131MD1999999+0071MW1201REMSYN100AAXX  28004 82392 21496 80000 10234 20229 30013 40116 72055 8452/ 333 10300 29092 55029 58007 60041;
0201823920999992009042812004-03700-040350FM-12+008399999V0200901N001012200019N0500001N1+02641+02371101231ADDAA124011991AY161061AY261061GF104991041021004501001001KA1240N+02301MA1999999100201MD1999999+0061MW1021REMSYN088AAXX  28124 82392 21499 40902 10264 20237 30020 40123 70266 84200 333 20230 58006 60124;
0137823920999992009042818004-03700-040350FM-12+008399999V0203601N001010450019N0500001N1+03061+02271100761ADDGF105991031021004501031001MA1999999099741MD1999999-0201REMSYN070AAXX  28184 82392 32499 53602 10306 20227 39974 40076 83230 333 59020;
0213823920999992009042900004-03700-040350FM-12+008399999V0209999C000010450019N0040001N1+02461+02391101121ADDAA106002091AY151061AY251061GF108991041061004501021999KA1240M+03101MA1999999100101MD1999999-0031MW1021REMSYN100AAXX  29004 82392 21496 80000 10246 20239 30010 40112 70255 8462/ 333 10310 29085 55077 59003 60021;
0173823920999992009042912004-03700-040350FM-12+008399999V0201801N002110450019N0500001N1+02701+02281101251ADDAA124002091GF106991031021008001031001KA1240N+02281MA1999999100231MD1999999+0031REMSYN082AAXX  29124 82392 22599 61804 10270 20228 30023 40125 83230 333 20228 58003 60024;
0137823920999992009042918004-03700-040350FM-12+008399999V0203601N003112200019N0500001N1+03041+02281100761ADDGF104991041021004501001001MA1999999099741MD1999999+0001REMSYN070AAXX  29184 82392 32499 43606 10304 20228 39974 40076 84200 333 58000;
0213823920999992009043000004-03700-040350FM-12+008399999V0200501N001010042019N0040001N1+02471+02451101121ADDAA106001091AY161061AY261061GF107991051061004501031001KA1240M+03181MA1999999100101MD1999999+0001MW1021REMSYN100AAXX  30004 82392 21496 70502 10247 20245 30010 40112 70266 85630 333 10318 29085 55071 58000 60011;
0201823920999992009043012004-03700-040350FM-12+008399999V0201801N000510042019N0500001N1+02391+02301101331ADDAA124034091AY161061AY261061GF107991051051004501011001KA1240N+02101MA1999999100031MD1999999+0071MW1021REMSYN088AAXX  30124 82392 21499 71801 10239 20230 30003 40133 70266 85510 333 20210 58007 60344;
0182823920999992009043018004-03700-040350FM-12+008399999V0209999C000010042019N0500001N1+02491+02381101021ADDAA106000591AY151061AY251061GF108991081051004501999999MA1999999099991MD1999999+0251MW1021REMSYN082AAXX  30184 82392 21499 80000 10249 20238 39999 40102 70255 885// 333 58025 69951;
0213823920999992009050100004-03700-040350FM-12+008399999V0209999C000010450019N0040001N1+02461+02361101251ADDAA106000591AY151061AY251061GF108991041071004501021999KA1240M+02981MA1999999100221MD1999999+0121MW1031REMSYN100AAXX  01004 82392 21496 80000 10246 20236 30022 40125 70355 8472/ 333 10298 29094 55018 58012 69961;
0173823920999992009050112004-03700-040350FM-12+008399999V0202301N001010450019N0500001N1+02621+02351101231ADDAA124001091GF106991041041004501031001KA1240N+02301MA1999999100201MD1999999-0101REMSYN082AAXX  01124 82392 22499 62302 10262 20235 30020 40123 84430 333 20230 59010 60014;
0137823920999992009050118004-03700-040350FM-12+008399999V0203601N000512200019N0500001N1+03131+02381100771ADDGF104991021021004501031001MA1999999099751MD1999999-0241REMSYN070AAXX  01184 82392 32499 43601 10313 20238 39975 40077 82230 333 59024;
0213823920999992009050200004-03700-040350FM-12+008399999V0200501N000510450019N0040001N1+02481+02361101061ADDAA106000021AY121061AY221061GF107991041061004501011001KA1240M+03201MA1999999100041MD1999999-0181MW1501REMSYN100AAXX  02004 82392 21496 70501 10248 20236 30004 40106 75022 84610 333 10320 29084 55068 59018 69921;
0173823920999992009050212004-03700-040350FM-12+008399999V0201801N000510450019N0500001N1+02581+02231101171ADDAA124000021GF106991031021004501031001KA1240N+02341MA1999999100141MD1999999-0061REMSYN082AAXX  02124 82392 22499 61801 10258 20223 30014 40117 83230 333 20234 59006 69924;
0137823920999992009050218004-03700-040350FM-12+008399999V0200501N001010450019N0500001N1+02641+02371100891ADDGF108991031071004501021999MA1999999099861MD1999999+0111REMSYN070AAXX  02184 82392 32499 80502 10264 20237 39986 40089 8372/ 333 58011;
0220823920999992009050312004-03700-040350FM-12+008399999V0201801N000519999999N0200001N1+02311+02271101381ADDAA124034091AY161061AY261061GF105991999051004501999999KA1240N+02271MA1999999100351MD1999999+0211MW1531REMSYN088AAXX  03124 82392 21498 51801 10231 20227 30035 40138 75366 885// 333 20227 58021 60344;EQDQ01+000082SCOTLC
0182823920999992009050318004-03700-040350FM-12+008399999V0209999C000010450019N0500001N1+02581+02291101041ADDAA106003091AY151061AY251061GF108991041051004501011999MA1999999100011MD1999999+0151MW1021REMSYN082AAXX  03184 82392 21499 80000 10258 20229 30001 40104 70255 8451/ 333 58015 60031;
0168823920999992009050400004-03700-040350FM-12+008399999V0209999C000010450019N0040001N1+02431+02391101291ADDGF108991041051004501011999KA1240M+02641MA1999999100261MD1999999+0061REMSYN088AAXX  04004 82392 32496 80000 10243 20239 30026 40129 8451/ 333 10264 29094 55000 58006;
0201823920999992009050412004-03700-040350FM-12+008399999V0202301N002110450019N0500001N1+02401+02351101181ADDAA124004191AY161061AY261061GF108991041071004501021999KA1240N+02281MA1999999100151MD1999999-0201MW1021REMSYN088AAXX  04124 82392 21499 82304 10240 20235 30015 40118 70266 8472/ 333 20228 59020 60044;
0137823920999992009050418004-03700-040350FM-12+008399999V0203201N000510042019N0500001N1+02821+02271100881ADDGF107991051051004501031001MA1999999099861MD1999999-0151REMSYN070AAXX  04184 82392 32499 73201 10282 20227 39986 40088 85530 333 59015;
0213823920999992009050500004-03700-040350FM-12+008399999V0200501N000510450019N0040001N1+02361+02291101241ADDAA106004191AY161061AY261061GF108991041061004501011999KA1240M+02881MA1999999100211MD1999999-0051MW1021REMSYN100AAXX  05004 82392 21496 80501 10236 20229 30021 40124 70266 8461/ 333 10288 29090 55006 59005 60041;
0201823920999992009050512004-03700-040350FM-12+008399999V0202301N001010450019N0500001N1+02581+02171101361ADDAA124005191AY151061AY251061GF105991041041004501031001KA1240N+02281MA1999999100331MD1999999+0181MW1021REMSYN088AAXX  05124 82392 21499 52302 10258 20217 30033 40136 70255 84430 333 20228 58018 60054;
0137823920999992009050518004-03700-040350FM-12+008399999V0200901N002610042019N0500001N1+03091+02341101011ADDGF107991051071004501031001MA1999999099991MD1999999+0131REMSYN070AAXX  05184 82392 32499 70905 10309 20234 39999 40101 85730 333 58013;
0213823920999992009050600004-03700-040350FM-12+008399999V0209999C000010450019N0040001N1+02311+02271101331ADDAA106008991AY161061AY261061GF108991031051004501011999KA1240M+03101MA1999999100301MD1999999+0091MW1021REMSYN100AAXX  06004 82392 21496 80000 10231 20227 30030 40133 70266 8351/ 333 10310 29084 55056 58009 60091;
0173823920999992009050612004-03700-040350FM-12+008399999V0200901N000510450019N0500001N1+02561+02291101431ADDAA124008991GF107991041051004501031001KA1240N+02201MA1999999100401MD1999999+0071REMSYN082AAXX  06124 82392 22499 70901 10256 20229 30040 40143 84530 333 20220 58007 60094;
0137823920999992009050618004-03700-040350FM-12+008399999V0203601N000512200019N0500001N1+03041+02181100971ADDGF104991041021004501001001MA1999999099951MD1999999-0041REMSYN070AAXX  06184 82392 32499 43601 10304 20218 39995 40097 84200 333 59004;
0201823920999992009050712004-03700-040350FM-12+008399999V0201801N000510450019N0500001N1+02611+02351101341ADDAA124013091AY151061AY251061GF106991041041004501031001KA1240N+02301MA1999999100311MD1999999-0091MW1021REMSYN088AAXX  07124 82392 21499 61801 10261 20235 30031 40134 70255 84430 333 20230 59009 60134;
0182823920999992009050718004-03700-040350FM-12+008399999V0209999C000010042019N0500001N1+02931+02451100831ADDAA106000391AY101061AY221061GF105991051041004501001001MA1999999099811MD1999999-0141MW1211REMSYN082AAXX  07184 82392 21499 50000 10293 20245 39981 40083 72102 85400 333 59014 69931;
0168823920999992009050800004-03700-040350FM-12+008399999V0203601N001010450019N0040001N1+02581+02311101121ADDGF106991041051004501031001KA1240M+03231MA1999999100101MD1999999-0121REMSYN088AAXX  08004 82392 32496 63602 10258 20231 30010 40112 84530 333 10323 29082 55089 59012;
0201823920999992009050812004-03700-040350FM-12+008399999V0202701N001010450019N0500001N1+02741+02321101251ADDAA124003091AY161061AY261061GF105991031021004501031001KA1240N+02341MA1999999100231MD1999999-0081MW1021REMSYN088AAXX  08124 82392 21499 52702 10274 20232 30023 40125 70266 83230 333 20234 59008 60034;
0182823920999992009050818004-03700-040350FM-12+008399999V0203601N001010042019N0500001N1+02631+02441100931ADDAA106006191AY161061AY261061GF107991061061004501031001MA1999999099901MD1999999+0091MW1021REMSYN082AAXX  08184 82392 21499 73602 10263 20244 39990 40093 70266 86630 333 58009 60061;
0213823920999992009050900004-03700-040350FM-12+008399999V0200501N000512200019N0040001N1+02381+02261101271ADDAA106016091AY161061AY261061GF104991041041004501001001KA1240M+03081MA1999999100251MD1999999+0151MW1031REMSYN100AAXX  09004 82392 21496 40501 10238 20226 30025 40127 70366 84400 333 10308 29088 55060 58015 60161;
0173823920999992009050912004-03700-040350FM-12+008399999V0209999C000010450019N0500001N1+02531+02381101341ADDAA124022191GF107991041041004501031001KA1240N+02181MA1999999100311MD1999999+0081REMSYN082AAXX  09124 82392 22499 70000 10253 20238 30031 40134 84430 333 20218 58008 60224;
0137823920999992009050918004-03700-040350FM-12+008399999V0203201N000510450019N0500001N1+02971+02421100901ADDGF106991031071004501031011MA1999999099881MD1999999-0021REMSYN070AAXX  09184 82392 32499 63201 10297 20242 39988 40090 83731 333 59002;
0213823920999992009051000004-03700-040350FM-12+008399999V0209999C000012200019N0040001N1+02361+02311101221ADDAA106006191AY161061AY261061GF104991021021004501031001KA1240M+03061MA1999999100191MD1999999-0061MW1021REMSYN100AAXX  10004 82392 21496 40000 10236 20231 30019 40122 70266 82230 333 10306 29089 55051 59006 60061;
0173823920999992009051012004-03700-040350FM-12+008399999V0201801N001010450019N0040001N1+02481+02131101181ADDAA124006191GF106991041041004501031001KA1240N+02141MA1999999100151MD1999999-0161REMSYN082AAXX  10124 82392 22496 61802 10248 20213 30015 40118 84430 333 20214 59016 60064;
0137823920999992009051018004-03700-040350FM-12+008399999V0203201N000512200019N0500001N1+03101+02181100821ADDGF104991041021004501001001MA1999999099801MD1999999-0081REMSYN070AAXX  10184 82392 32499 43201 10310 20218 39980 40082 84200 333 59008;
0168823920999992009051100004-03700-040350FM-12+008399999V0200501N001010450019N0040001N1+02521+02321101071ADDGF108991041071004501021999KA1240M+03181MA1999999100041MD1999999-0151REMSYN088AAXX  11004 82392 32496 80502 10252 20232 30004 40107 8472/ 333 10318 29080 55080 59015;
0201823920999992009051112004-03700-040350FM-12+008399999V0202301N002110450019N0500001N1+02421+02281101231ADDAA124019191AY161061AY261061GF108991041061004501021999KA1240N+02281MA1999999100201MD1999999+0051MW1021REMSYN088AAXX  11124 82392 21499 82304 10242 20228 30020 40123 70266 8462/ 333 20228 58005 60194;
0182823920999992009051118004-03700-040350FM-12+008399999V0200501N000510450019N0500001N1+02421+02331100971ADDAA106003091AY161061AY261061GF108991041061004501021999MA1999999099941MD1999999+0141MW1021REMSYN082AAXX  11184 82392 21499 80501 10242 20233 39994 40097 70266 8462/ 333 58014 60031;
0168823920999992009051200004-03700-040350FM-12+008399999V0209999C000010042019N0040001N1+02331+02291101101ADDGF108991081061004501999999KA1240M+02741MA1999999100071MD1999999+0031REMSYN088AAXX  12004 82392 32496 80000 10233 20229 30007 40110 886// 333 10274 29095 55009 58003;
0173823920999992009051212004-03700-040350FM-12+008399999V0202301N001012200019N0500001N1+02521+02171101221ADDAA124003091GF103991031021004501001001KA1240N+02181MA1999999100191MD1999999-0011REMSYN082AAXX  12124 82392 22499 32302 10252 20217 30019 40122 83200 333 20218 59001 60034;
0137823920999992009051218004-03700-040350FM-12+008399999V0200501N000512200019N0500001N1+03071+02371100781ADDGF104991031021004501001021MA1999999099761MD1999999-0181REMSYN070AAXX  12184 82392 32499 40501 10307 20237 39976 40078 83202 333 59018;
0168823920999992009051300004-03700-040350FM-12+008399999V0200501N000512200019N0040001N1+02431+02341101101ADDGF102991011021004501031001KA1240M+03161MA1999999100011MD1999999+0001REMSYN088AAXX  13004 82392 32496 20501 10243 20234 30001 40110 81230 333 10316 29084 55085 58000;
0175823920999992009051312004-03700-040350FM-12+008399999V0203201N000519999999N0500001N1+02701+02261101121ADDGF105991999021004501001001KA1240N+02321MA1999999100101MD1999999-0091REMSYN076AAXX  13124 82392 32499 53201 10270 20226 30010 40112 83200 333 20232 59009;EQDQ01+000032SCOTLC
0201823920999992009051318004-03700-040350FM-12+008399999V0202301N001019999999N0500001N1+02441+02271100861ADDAA106013091AY161061AY221061GF106991999051004501001001MA1999999099831MD1999999+0071MW1021REMSYN082AAXX  13184 82392 21499 62302 10244 20227 39983 40086 70262 84500 333 58007 60131;EQDQ01+000042SCOTLC
0168823920999992009051400004-03700-040350FM-12+008399999V0209999C000010450019N0040001N1+02381+02351101131ADDGF107991041051004501031001KA1240M+03101MA1999999100101MD1999999+0031REMSYN088AAXX  14004 82392 32496 70000 10238 20235 30010 40113 84530 333 10310 29091 55053 58003;
0173823920999992009051412004-03700-040350FM-12+008399999V0202301N000512200019N0500001N1+02611+02351101131ADDAA124013091GF105991031021004501001011KA1240N+02191MA1999999100101MD1999999+0001REMSYN082AAXX  14124 82392 22499 52301 10261 20235 30010 40113 83201 333 20219 58000 60134;
0137823920999992009051418004-03700-040350FM-12+008399999V0201801N001510450019N0500001N1+02561+02461100771ADDGF106991031061004501031021MA1999999099751MD1999999-0081REMSYN070AAXX  14184 82392 32499 61803 10256 20246 39975 40077 83632 333 59008;
0168823920999992009051500004-03700-040350FM-12+008399999V0200501N001012200019N0040001N1+02421+02211101031ADDGF104991041021004501001001KA1240M+03141MA1999999100001MD1999999-0101REMSYN088AAXX  15004 82392 32496 40502 10242 20221 30000 40103 84200 333 10314 29085 55078 59010;
0156823920999992009051512004-03700-040350FM-12+008399999V0202301N001010450019N0500001N1+02621+02211101171ADDGF106991041041004501031001KA1240N+02321MA1999999100101MD1999999+0001REMSYN076AAXX  15124 82392 32499 62302 10262 20221 30010 40117 84430 333 20232 58000;
0156823920999992009051518004-03700-040350FM-12+008399999V0203201N000510042019N0500001N1+02961+02451100681ADDGF107991999031004501001001MA1999999099661MD1999999-0091REMSYN070AAXX  15184 82392 32499 73201 10296 20245 39966 40068 85300 333 59009;EQDQ01+000052SCOTLC
0213823920999992009051600004-03700-040350FM-12+008399999V0203201N000510450019N0040001N1+02401+02261101031ADDAA106005191AY161061AY261061GF108991041071004501021999KA1240M+03101MA1999999100001MD1999999+0001MW1021REMSYN100AAXX  16004 82392 21496 83201 10240 20226 30000 40103 70266 8472/ 333 10310 29084 55052 58000 60051;
0173823920999992009051612004-03700-040350FM-12+008399999V0202301N000510042019N0500001N1+02541+02331101101ADDAA124005191GF107991051061004501031001KA1240N+02321MA1999999100071MD1999999-0031REMSYN082AAXX  16124 82392 22499 72301 10254 20233 30007 40110 85630 333 20232 59003 60054;
0137823920999992009051618004-03700-040350FM-12+008399999V0200901N002612200019N0200001N1+03081+02161100741ADDGF103991031021004501001001MA1999999099721MD1999999+0061REMSYN070AAXX  16184 82392 32498 30905 10308 20216 39972 40074 83200 333 58006;
0168823920999992009051700004-03700-040350FM-12+008399999V0200501N002112200019N0040001N1+02501+02231101031ADDGF102991021001004501031001KA1240M+03201MA1999999100001MD1999999+0001REMSYN088AAXX  17004 82392 32496 20504 10250 20223 30000 40103 82030 333 10320 29078 55061 58000;
0156823920999992009051712004-03700-040350FM-12+008399999V0203601N000510450019N0500001N1+02771+02481101141ADDGF106991041041004501031001KA1240N+02331MA1999999100121MD1999999+0051REMSYN076AAXX  17124 82392 32499 63601 10277 20248 30012 40114 84430 333 20233 58005;
0137823920999992009051718004-03700-040350FM-12+008399999V0203601N001010042019N0500001N1+02671+02431100851ADDGF107991051061004501091001MA1999999099821MD1999999+0101REMSYN070AAXX  17184 82392 32499 73602 10267 20243 39982 40085 85690 333 58010;
0168823920999992009051800004-03700-040350FM-12+008399999V0209999C000010450019N0040001N1+02491+02451101141ADDGF107991031021004501021001KA1240M+03141MA1999999100121MD1999999+0121REMSYN088AAXX  18004 82392 32496 70000 10249 20245 30012 40114 83220 333 10314 29091 55054 58012;
0156823920999992009051812004-03700-040350FM-12+008399999V0202301N001010450019N0500001N1+02641+02231101271ADDGF105991041041004501031001KA1240N+02241MA1999999100251MD1999999+0131REMSYN076AAXX  18124 82392 32499 52302 10264 20223 30025 40127 84430 333 20224 58013;
0137823920999992009051818004-03700-040350FM-12+008399999V0200501N003110450019N0500001N1+02921+02061100921ADDGF107991031051004501011001MA1999999099901MD1999999+0091REMSYN070AAXX  18184 82392 32499 70506 10292 20206 39990 40092 83510 333 58009;
0168823920999992009051900004-03700-040350FM-12+008399999V0200901N000510450019N0040001N1+02511+02431101201ADDGF106991041041004501011001KA1240M+03021MA1999999100181MD1999999+0061REMSYN088AAXX  19004 82392 32496 60901 10251 20243 30018 40120 84410 333 10302 29082 55039 58006;
0201823920999992009051912004-03700-040350FM-12+008399999V0201801N001010450019N0500001N1+02681+02111101311ADDAA124000891AY121061AY251061GF106991041021004501031001KA1240N+02301MA1999999100281MD1999999+0031MW1021REMSYN088AAXX  19124 82392 21499 61802 10268 20211 30028 40131 70225 84230 333 20230 58003 69974;
0137823920999992009051918004-03700-040350FM-12+008399999V0200501N001010450019N0500001N1+02871+02321100941ADDGF107991021021004501011001MA1999999099921MD1999999+0021REMSYN070AAXX  19184 82392 32499 70502 10287 20232 39992 40094 82210 333 58002;
0168823920999992009052000004-03700-040350FM-12+008399999V0209999C000011050019N0040001N1+02511+02431101161ADDGF106991031021004501001031KA1240M+03041MA1999999100141MD1999999-0041REMSYN088AAXX  20004 82392 32496 60000 10251 20243 30014 40116 83203 333 10304 29083 55030 59004;
0156823920999992009052012004-03700-040350FM-12+008399999V0202301N001012200019N0500001N1+02601+02101101181ADDGF103991031021004501001001KA1240N+02141MA1999999100161MD1999999-0121REMSYN076AAXX  20124 82392 32499 32302 10260 20210 30016 40118 83200 333 20214 59012;
0137823920999992009052018004-03700-040350FM-12+008399999V0202301N001010450019N0500001N1+03081+02161100891ADDGF106991041041004501031001MA1999999099871MD1999999-0051REMSYN070AAXX  20184 82392 32499 62302 10308 20216 39987 40089 84430 333 59005;
0168823920999992009052100004-03700-040350FM-12+008399999V0200501N000510450019N0500001N1+02401+02371101171ADDGF108991041041004501021999KA1240M+03141MA1999999100141MD1999999+0001REMSYN088AAXX  21004 82392 32499 80501 10240 20237 30014 40117 8442/ 333 10314 29012 55075 58000;
0201823920999992009052112004-03700-040350FM-12+008399999V0209999C000010450019N0500001N1+02461+02251101321ADDAA124029091AY161061AY261061GF107991041041004501031001KA1240N+02221MA1999999100291MD1999999+0131MW1021REMSYN088AAXX  21124 82392 21499 70000 10246 20225 30029 40132 70266 84430 333 20222 58013 60294;
0182823920999992009052118004-03700-040350FM-12+008399999V0200501N001010042019N0500001N1+02391+02281101031ADDAA106023991AY101061AY221061GF108991051061004501011999MA1999999100001MD1999999+0131MW1651REMSYN082AAXX  21184 82392 21499 80502 10239 20228 30000 40103 76502 8561/ 333 58013 60241;
0213823920999992009052200004-03700-040350FM-12+008399999V0200501N000510450019N0040001N1+02381+02261101181ADDAA106000891AY161061AY251061GF108991031071004501021999KA1240M+03041MA1999999100151MD1999999+0011MW1021REMSYN100AAXX  22004 82392 21496 80501 10238 20226 30015 40118 70265 8372/ 333 10304 29092 55019 58001 69981;
0173823920999992009052212004-03700-040350FM-12+008399999V0202301N001510450019N0500001N1+02581+02441101251ADDAA124024991GF106991031041004501031001KA1240N+02201MA1999999100231MD1999999-0061REMSYN082AAXX  22124 82392 22499 62303 10258 20244 30023 40125 83430 333 20220 59006 60254;
0182823920999992009052218004-03700-040350FM-12+008399999V0201801N001010450019N0500001N1+02571+02421100951ADDAA106015091AY161061AY261061GF106991041071004501031001MA1999999099921MD1999999-0081MW1021REMSYN082AAXX  22184 82392 21499 61802 10257 20242 39992 40095 70266 84730 333 59008 60151;
0213823920999992009052300004-03700-040350FM-12+008399999V0209999C000010450019N0040001N1+02421+02281101181ADDAA106007991AY161061AY261061GF108991031071004501021999KA1240M+02821MA1999999100151MD1999999+0001MW1021REMSYN100AAXX  23004 82392 21496 80000 10242 20228 30015 40118 70266 8372/ 333 10282 29094 55044 58000 60081;
0173823920999992009052312004-03700-040350FM-12+008399999V0200901N000510042019N0500001N1+02591+02401101401ADDAA124023191GF108991061061004501011999KA1240N+02331MA1999999100371MD1999999+0141REMSYN082AAXX  23124 82392 22499 80901 10259 20240 30037 40140 8661/ 333 20233 58014 60234;
0172823920999992009052318004-03700-040350FM-12+008399999V0202301N999990042019N0500001N1+02731+02501101041ADDGF107991061061004501031001MA1999999100021MD1999999+0101REMSYN070AAXX  23184 82392 32499 72392 10273 20250 30002 40104 86630 333 58010;EQDQ01+004733WOSPD Q020004733WOSPD 
0232823920999992009052400004-03700-040350FM-12+008399999V0209999C000010042019N0040001N1+02431+02391101301ADDAA106004191AY161061AY261061GF108991999041004501041021KA1240M+02841MA1999999100271MD1999999+0121MW1021REMSYN100AAXX  24004 82392 21496 80000 10243 20239 30027 40130 70266 88442 333 10284 29093 55003 58012 60041;EQDQ01+000082SCOTLC
0220823920999992009052412004-03700-040350FM-12+008399999V0202301N001019999999N0040001N1+02601+02441101231ADDAA124005191AY161061AY251061GF106991999021004501001001KA1240N+02301MA1999999100201MD1999999-0171MW1021REMSYN088AAXX  24124 82392 21496 62302 10260 20244 30020 40123 70265 83200 333 20230 59017 60054;EQDQ01+000032SCOTLC
0137823920999992009052418004-03700-040350FM-12+008399999V0201401N001010450019N0500001N1+02981+02061100881ADDGF106991031021004501031001MA1999999099861MD1999999-0161REMSYN070AAXX  24184 82392 32499 61402 10298 20206 39986 40088 83230 333 59016;
0201823920999992009052512004-03700-040350FM-12+008399999V0201401N000510450019N0500001N1+02521+02381101181ADDAA124011991AY161061AY261061GF108991031071004501021999KA1240N+02341MA1999999100151MD1999999-0051MW1021REMSYN088AAXX  25124 82392 21499 81401 10252 20238 30015 40118 70266 8372/ 333 20234 59005 60124;
0182823920999992009052518004-03700-040350FM-12+008399999V0203201N001010042019N0500001N1+02681+02261100931ADDAA106000891AY151061AY221061GF107991051021004501031001MA1999999099901MD1999999+0041MW1021REMSYN082AAXX  25184 82392 21499 73202 10268 20226 39990 40093 70252 85230 333 58004 69971;
0213823920999992009052600004-03700-040350FM-12+008399999V0201401N000510042019N0040001N1+02391+02331101221ADDAA106007991AY161061AY261061GF108991081061004501999999KA1240M+02881MA1999999100191MD1999999+0091MW1631REMSYN100AAXX  26004 82392 21496 81401 10239 20233 30019 40122 76366 886// 333 10288 29091 55011 58009 60081;
0201823920999992009052612004-03700-040350FM-12+008399999V0202301N000510450019N0200001N1+02381+02291101331ADDAA124014091AY161061AY261061GF108991041061004501021999KA1240N+02121MA1999999100301MD1999999+0151MW1021REMSYN088AAXX  26124 82392 21498 82301 10238 20229 30030 40133 70266 8462/ 333 20212 58015 60144;
0137823920999992009052618004-03700-040350FM-12+008399999V0200501N000510042019N0500001N1+02811+02241100981ADDGF107991061061004501031001MA1999999099951MD1999999+0051REMSYN070AAXX  26184 82392 32499 70501 10281 20224 39995 40098 86630 333 58005;
0213823920999992009052700004-03700-040350FM-12+008399999V0209999C000010042019N0040001N1+02271+02231101141ADDAA106007991AY161061AY261061GF107991071061004501001001KA1240M+02741MA1999999100111MD1999999-0081MW1211REMSYN100AAXX  27004 82392 21496 70000 10227 20223 30011 40114 72166 87600 333 10274 29092 55019 59008 60081;
0173823920999992009052712004-03700-040350FM-12+008399999V0202301N000512200019N0500001N1+02521+02341101231ADDAA124007991GF103991031011004501001001KA1240N+02141MA1999999100201MD1999999-0101REMSYN082AAXX  27124 82392 22499 32301 10252 20234 30020 40123 83100 333 20214 59010 60084;
0137823920999992009052718004-03700-040350FM-12+008399999V0200901N002610450019N0500001N1+02841+02221100891ADDGF107991041041004501031001MA1999999099861MD1999999-0091REMSYN070AAXX  27184 82392 32499 70905 10284 20222 39986 40089 84430 333 59009;
0213823920999992009052800004-03700-040350FM-12+008399999V0209999C000010042019N0040001N1+02371+02331101171ADDAA106003091AY161061AY261061GF108991081061004501999999KA1240M+03101MA1999999100141MD1999999+0031MW1021REMSYN100AAXX  28004 82392 21496 80000 10237 20233 30014 40117 70266 886// 333 10310 29088 55055 58003 60031;
0192823920999992009052812004-03700-040350FM-12+008399999V0209999C000019999999N0500001N1+02671+02391101231ADDAA124003091GF106991999061004501031001KA1240N+02241MA1999999100231MD1999999+0031REMSYN082AAXX  28124 82392 22499 60000 10267 20239 30023 40123 87630 333 20224 58003 60034;EQDQ01+000072SCOTLC
0137823920999992009052818004-03700-040350FM-12+008399999V0201401N000510042019N0500001N1+03061+02381100891ADDGF106991061041004501001001MA1999999099871MD1999999+0011REMSYN070AAXX  28184 82392 32499 61401 10306 20238 39987 40089 86400 333 58001;
0213823920999992009052900004-03700-040350FM-12+008399999V0200501N000510450019N0040001N1+02461+02361101151ADDAA106013091AY161061AY221061GF108991041071004501021999KA1240M+03181MA1999999100131MD1999999-0011MW1021REMSYN100AAXX  29004 82392 21496 80501 10246 20236 30013 40115 70262 8472/ 333 10318 29085 55074 59001 60131;
0173823920999992009052912004-03700-040350FM-12+008399999V0201401N000510450019N0500001N1+02701+02131101171ADDAA124013091GF105991031021004501031001KA1240N+02301MA1999999100151MD1999999-0071REMSYN082AAXX  29124 82392 22499 51401 10270 20213 30015 40117 83230 333 20230 59007 60134;
0137823920999992009052918004-03700-040350FM-12+008399999V0201401N000511050019N0500001N1+02961+02331100881ADDGF105991021021004501031071MA1999999099861MD1999999-0011REMSYN070AAXX  29184 82392 32499 51401 10296 20233 39986 40088 82237 333 59001;
0168823920999992009053000004-03700-040350FM-12+008399999V0200501N000510450019N0040001N1+02501+02401101131ADDGF105991031021004501031001KA1240M+03121MA1999999100111MD1999999-0061REMSYN088AAXX  30004 82392 32496 50501 10250 20240 30011 40113 83230 333 10312 29082 55063 59006;
0156823920999992009053012004-03700-040350FM-12+008399999V0201401N002612200019N0500001N1+02521+02341101191ADDGF103991031021004501001001KA1240N+02201MA1999999100171MD1999999+0011REMSYN076AAXX  30124 82392 32499 31405 10252 20234 30017 40119 83200 333 20220 58001;
0137823920999992009053018004-03700-040350FM-12+008399999V0200901N002112200019N0500001N1+03001+02001100921ADDGF103991031021004501001001MA1999999099901MD1999999+0041REMSYN070AAXX  30184 82392 32499 30904 10300 20200 39990 40092 83200 333 58004;
0168823920999992009053100004-03700-040350FM-12+008399999V0203601N001012200019N0040001N1+02421+02281101171ADDGF104991021011004501031001KA1240M+03121MA1999999100151MD1999999+0041REMSYN088AAXX  31004 82392 32496 43602 10242 20228 30015 40117 82130 333 10312 29082 55065 58004;
0156823920999992009053112004-03700-040350FM-12+008399999V0202301N000510450019N0500001N1+02621+02411101301ADDGF106991041041004501031001KA1240N+02171MA1999999100271MD1999999+0101REMSYN076AAXX  31124 82392 32499 62301 10262 20241 30027 40130 84430 333 20217 58010;
0137823920999992009053118004-03700-040350FM-12+008399999V0209999C000010450019N0500001N1+03031+02261100911ADDGF106991031021004501031021MA1999999099891MD1999999-0011REMSYN070AAXX  31184 82392 32499 60000 10303 20226 39989 40091 83232 333 59001;
0213823920999992009060100004-03700-040350FM-12+008399999V0203601N000510450019N0040001N1+02511+02471101131ADDAA106018091AY161061AY261061GF106991031051004501031001KA1240M+03181MA1999999100111MD1999999-0041MW1021REMSYN100AAXX  01004 82392 21496 63601 10251 20247 30011 40113 70266 83530 333 10318 29086 55070 59004 60181;
0173823920999992009060112004-03700-040350FM-12+008399999V0201401N002112200019N0500001N1+02661+02431101261ADDAA124018091GF102991021011004501001001KA1240N+02311MA1999999100241MD1999999-0031REMSYN082AAXX  01124 82392 22499 21404 10266 20243 30024 40126 82100 333 20231 59003 60184;
0137823920999992009060118004-03700-040350FM-12+008399999V0200501N000512200019N0500001N1+03121+02191100901ADDGF101991011011004501001001MA1999999099881MD1999999-0011REMSYN070AAXX  01184 82392 32499 10501 10312 20219 39988 40090 81100 333 59001;
0168823920999992009060200004-03700-040350FM-12+008399999V0200501N001512200019N0040001N1+02521+02401101201ADDGF102991021021004501001001KA1240M+03221MA1999999100181MD1999999+0071REMSYN088AAXX  02004 82392 32496 20503 10252 20240 30018 40120 82200 333 10322 29082 55099 58007;
0156823920999992009060212004-03700-040350FM-12+008399999V0201401N001012200019N0500001N1+02581+02171101221ADDGF104991041041004501001001KA1240N+02201MA1999999100201MD1999999-0041REMSYN076AAXX  02124 82392 32499 41402 10258 20217 30020 40122 84400 333 20220 59004;
0137823920999992009060218004-03700-040350FM-12+008399999V0203601N001011050019N0500001N1+02991+02371100911ADDGF105991021021004501031021MA1999999099891MD1999999+0011REMSYN070AAXX  02184 82392 32499 53602 10299 20237 39989 40091 82232 333 58001;
0213823920999992009060300004-03700-040350FM-12+008399999V0209999C000010042019N0040001N1+02331+02291101391ADDAA106011991AY161061AY261061GF108991081051004501999999KA1240M+03081MA1999999100361MD1999999+0181MW1511REMSYN100AAXX  03004 82392 21496 80000 10233 20229 30036 40139 75166 885// 333 10308 29083 55066 58018 60121;
0201823920999992009060312004-03700-040350FM-12+008399999V0201401N000510450019N0500001N1+02621+02271101371ADDAA124013091AY161061AY251061GF106991041041004501031001KA1240N+02241MA1999999100341MD1999999+0141MW1021REMSYN088AAXX  03124 82392 21499 61401 10262 20227 30034 40137 70265 84430 333 20224 58014 60134;
0137823920999992009060318004-03700-040350FM-12+008399999V0200501N002112200019N0500001N1+02961+01961100921ADDGF103991031021004501001001MA1999999099901MD1999999+0011REMSYN070AAXX  03184 82392 32499 30504 10296 20196 39990 40092 83200 333 58001;
0232823920999992009060400004-03700-040350FM-12+008399999V0200501N000512200019N0040001N1+02411+02351101311ADDAA106000091AY151061AY251061GF104991011021004501031071KA1240M+03101MA1999999100281MD1999999-0081MW1021REMSYN100AAXX  04004 82392 21496 40501 10241 20235 30028 40131 70255 81237 333 10310 29082 55070 59008 69911;EQDQ01  00002PRCP06
0201823920999992009060412004-03700-040350FM-12+008399999V0209999C000010450019N0500001N1+02711+02451101431ADDAA124008991AY161061AY261061GF106991041061004501031001KA1240N+02261MA1999999100411MD1999999+0071MW1021REMSYN088AAXX  04124 82392 21499 60000 10271 20245 30041 40143 70266 84630 333 20226 58007 60094;
0182823920999992009060418004-03700-040350FM-12+008399999V0200901N000511050019N0500001N1+02701+02451101031ADDAA106008991AY161061AY261061GF106991041071004501001021MA1999999100001MD1999999+0101MW1211REMSYN082AAXX  04184 82392 21499 60901 10270 20245 30000 40103 72166 84702 333 58010 60091;
0168823920999992009060500004-03700-040350FM-12+008399999V0200501N000510450019N0040001N1+02421+02281101401ADDGF108991041071004501021999KA1240M+03101MA1999999100381MD1999999+0101REMSYN088AAXX  05004 82392 32496 80501 10242 20228 30038 40140 8472/ 333 10310 29089 55069 58010;
0173823920999992009060512004-03700-040350FM-12+008399999V0200501N002612200019N0500001N1+02641+02371101381ADDAA124007991GF104991041021004501001001KA1240N+02201MA1999999100341MD1999999-0061REMSYN082AAXX  05124 82392 22499 40505 10264 20237 30034 40138 84200 333 20220 59006 60084;
0137823920999992009060518004-03700-040350FM-12+008399999V0200901N001012200019N0500001N1+02981+02341101021ADDGF104991021021004501031001MA1999999100001MD1999999+0001REMSYN070AAXX  05184 82392 32499 40902 10298 20234 30000 40102 82230 333 58000;
0168823920999992009060600004-03700-040350FM-12+008399999V0200501N001010450019N0040001N1+02481+02361101321ADDGF107991041051004501031001KA1240M+03081MA1999999100301MD1999999-0081REMSYN088AAXX  06004 82392 32496 70502 10248 20236 30030 40132 84530 333 10308 29085 55091 59008;
0220823920999992009060612004-03700-040350FM-12+008399999V0202301N001010450019N0500001N1+02611+02421101361ADDAA124000091AY151061AY251061GF106991041041004501031001KA1240N+02231MA1999999100341MD1999999-0011MW1021REMSYN088AAXX  06124 82392 21499 62302 10261 20242 30034 40136 70255 84430 333 20223 59001 69914;EQDQ01  00002PRCP24
0201823920999992009060618004-03700-040350FM-12+008399999V0201401N001010450019N0500001N1+02961+02351100931ADDAA106000091AY151061AY251061GF106991041071004501011001MA1999999099911MD1999999-0091MW1021REMSYN082AAXX  06184 82392 21499 61402 10296 20235 39991 40093 70255 84710 333 59009 69921;EQDQ01  00002PRCP06
0232823920999992009060700004-03700-040350FM-12+008399999V0209999C000010450019N0040001N1+02481+02411101191ADDAA106001091AY161061AY261061GF108991031071004501011999KA1240M+03061MA1999999098172MD1999999-0131MW1021REMSYN100AAXX  07004 82392 21496 80000 10248 20241 39817 40119 70266 8371/ 333 10306 29088 55068 59013 60011;EQDQ01+098173APOSP 
0173823920999992009060712004-03700-040350FM-12+008399999V0201401N001010042019N0500001N1+02641+02141101181ADDAA124001091GF105991051021004501001001KA1240N+02321MA1999999100161MD1999999-0181REMSYN082AAXX  07124 82392 22499 51402 10264 20214 30016 40118 85200 333 20232 59018 60014;
0137823920999992009060718004-03700-040350FM-12+008399999V0200901N002612200019N0500001N1+03001+01911100941ADDGF102991021011004501001001MA1999999099921MD1999999+0011REMSYN070AAXX  07184 82392 32499 20905 10300 20191 39992 40094 82100 333 58001;
0168823920999992009060800004-03700-040350FM-12+008399999V0201401N000512200019N0040001N1+02481+02361101161ADDGF102991021001004501031001KA1240M+03081MA1999999100141MD1999999-0031REMSYN088AAXX  08004 82392 32496 21401 10248 20236 30014 40116 82030 333 10308 29078 55069 59003;
0156823920999992009060812004-03700-040350FM-12+008399999V0201401N002612200019N0500001N1+02601+02331101231ADDGF102991021011004501001001KA1240N+02001MA1999999100201MD1999999+0041REMSYN076AAXX  08124 82392 32499 21405 10260 20233 30020 40123 82100 333 20200 58004;
0137823920999992009060818004-03700-040350FM-12+008399999V0201401N002112200019N0500001N1+03021+01861100921ADDGF103991021011004501031001MA1999999099901MD1999999-0021REMSYN070AAXX  08184 82392 32499 31404 10302 20186 39990 40092 82130 333 59002;
0168823920999992009060900004-03700-040350FM-12+008399999V0209999C000012200019N0040001N1+02431+02301101161ADDGF102991021021004501001001KA1240M+03081MA1999999100131MD1999999-0011REMSYN088AAXX  09004 82392 32496 20000 10243 20230 30013 40116 82200 333 10308 29080 55098 59001;
0156823920999992009060912004-03700-040350FM-12+008399999V0201801N002112200019N0500001N1+02561+02351101381ADDGF104991021021004501031001KA1240N+02201MA1999999100351MD1999999+0151REMSYN076AAXX  09124 82392 32499 41804 10256 20235 30035 40138 82230 333 20220 58015;
0137823920999992009060918004-03700-040350FM-12+008399999V0201401N000510450019N0500001N1+02991+02241101051ADDGF107991031051004501031001MA1999999100031MD1999999+0131REMSYN070AAXX  09184 82392 32499 71401 10299 20224 30003 40105 83530 333 58013;
0213823920999992009061000004-03700-040350FM-12+008399999V0209999C000010042019N0040001N1+02451+02371101441ADDAA106001091AY151061AY251061GF108991081051004501999999KA1240M+03071MA1999999100411MD1999999+0281MW1511REMSYN100AAXX  10004 82392 21496 80000 10245 20237 30041 40144 75155 885// 333 10307 29086 55057 58028 69991;
0201823920999992009061012004-03700-040350FM-12+008399999V0200901N001512200019N0500001N1+02641+02371101381ADDAA124002091AY151061AY251061GF103991021011004501031001KA1240N+02201MA1999999100351MD1999999+0001MW1021REMSYN088AAXX  10124 82392 21499 30903 10264 20237 30035 40138 70255 82130 333 20220 58000 60024;
0137823920999992009061018004-03700-040350FM-12+008399999V0200501N003110450019N0500001N1+02801+02001101091ADDGF106991041041004501031001MA1999999100061MD1999999+0031REMSYN070AAXX  10184 82392 32499 60506 10280 20200 30006 40109 84430 333 58003;
0168823920999992009061100004-03700-040350FM-12+008399999V0209999C000012200019N0040001N1+02331+02261101391ADDGF102991011011008001011001KA1240M+03001MA1999999100361MD1999999-0051REMSYN088AAXX  11004 82392 32596 20000 10233 20226 30036 40139 81110 333 10300 29084 55058 59005;
0156823920999992009061112004-03700-040350FM-12+008399999V0209999C000010450019N0500001N1+02631+02421101491ADDGF106991041041004501031001KA1240N+02171MA1999999100461MD1999999+0011REMSYN076AAXX  11124 82392 32499 60000 10263 20242 30046 40149 84430 333 20217 58001;
0137823920999992009061118004-03700-040350FM-12+008399999V0203201N000510042019N0500001N1+02631+02391101251ADDGF107991061051004501031001MA1999999100221MD1999999+0161REMSYN070AAXX  11184 82392 32499 73201 10263 20239 30022 40125 86530 333 58016;
0168823920999992009061200004-03700-040350FM-12+008399999V0200501N000512200019N0040001N1+02361+02261101281ADDGF101991011001004501031001KA1240M+02821MA1999999100251MD1999999-0111REMSYN088AAXX  12004 82392 32496 10501 10236 20226 30025 40128 81030 333 10282 29090 55024 59011;
0156823920999992009061212004-03700-040350FM-12+008399999V0202301N002112200019N0500001N1+02541+02361101441ADDGF104991031021004501031001KA1240N+02201MA1999999100411MD1999999-0051REMSYN076AAXX  12124 82392 32499 42304 10254 20236 30041 40144 83230 333 20220 59005;
0137823920999992009061218004-03700-040350FM-12+008399999V0201801N001012200019N0500001N1+02951+02331101141ADDGF102991021021004501001001MA1999999100121MD1999999-0101REMSYN070AAXX  12184 82392 32499 21802 10295 20233 30012 40114 82200 333 59010;
0213823920999992009061300004-03700-040350FM-12+008399999V0200501N001012200019N0040001N1+02461+02361101291ADDAA106003091AY161061AY221061GF103991031041004501001001KA1240M+03081MA1999999100261MD1999999+0011MW1021REMSYN100AAXX  13004 82392 21496 30502 10246 20236 30026 40129 70262 83400 333 10308 29087 55070 58001 60031;
0192823920999992009061312004-03700-040350FM-12+008399999V0202301N000512200019N0500001N1+02501+02361101331ADDAA124003091GF102991999011004501001001KA1240N+02191MA1999999100301MD1999999-0111REMSYN082AAXX  13124 82392 22499 22301 10250 20236 30030 40133 81100 333 20219 59011 60034;EQDQ01+000012SCOTLC
0156823920999992009061318004-03700-040350FM-12+008399999V0201801N002112200019N0500001N1+03081+01851101021ADDGF102991999011004501001001MA1999999100001MD1999999-0121REMSYN070AAXX  13184 82392 32499 21804 10308 20185 30000 40102 81100 333 59012;EQDQ01+000012SCOTLC
0168823920999992009061400004-03700-040350FM-12+008399999V0200501N003112200019N0040001N1+02441+02231101181ADDGF102991021001004501031001KA1240M+03201MA1999999100151MD1999999-0111REMSYN088AAXX  14004 82392 32496 20506 10244 20223 30015 40118 82030 333 10320 29079 55092 59011;
0156823920999992009061412004-03700-040350FM-12+008399999V0201801N000512200019N0500001N1+02671+02391101231ADDGF103991031021004501001001KA1240N+02211MA1999999100211MD1999999-0091REMSYN076AAXX  14124 82392 32499 31801 10267 20239 30021 40123 83200 333 20221 59009;
0137823920999992009061418004-03700-040350FM-12+008399999V0201401N000510450019N0500001N1+03091+02311100891ADDGF105991041061004501031001MA1999999099871MD1999999-0131REMSYN070AAXX  14184 82392 32499 51401 10309 20231 39987 40089 84630 333 59013;
0213823920999992009061500004-03700-040350FM-12+008399999V0209999C000010450019N0040001N1+02351+02291101181ADDAA106007191AY101061AY221061GF108991041061004501021999KA1240M+03181MA1999999100151MD1999999+0001MW1211REMSYN100AAXX  15004 82392 21496 80000 10235 20229 30015 40118 72102 8462/ 333 10318 29085 55089 58000 60071;
0173823920999992009061512004-03700-040350FM-12+008399999V0200901N002610450019N0500001N1+02501+02291101281ADDAA124007191GF106991031041004501031001KA1240N+02201MA1999999100251MD1999999+0041REMSYN082AAXX  15124 82392 22499 60905 10250 20229 30025 40128 83430 333 20220 58004 60074;
0137823920999992009061518004-03700-040350FM-12+008399999V0200901N001512200019N0500001N1+02961+02051101021ADDGF103991031021004501001001MA1999999100001MD1999999-0131REMSYN070AAXX  15184 82392 32499 30903 10296 20205 30000 40102 83200 333 59013;
0168823920999992009061600004-03700-040350FM-12+008399999V0209999C000010450019N0040001N1+02421+02191101281ADDGF106991031021004501031001KA1240M+03041MA1999999100251MD1999999+0101REMSYN088AAXX  16004 82392 32496 60000 10242 20219 30025 40128 83230 333 10304 29080 55060 58010;
0156823920999992009061612004-03700-040350FM-12+008399999V0202401N001510450019N0500001N1+02481+02271101321ADDGF106991041021004501031001KA1240N+02001MA1999999100301MD1999999+0051REMSYN076AAXX  16124 82392 32499 62403 10248 20227 30030 40132 84230 333 20200 58005;
0137823920999992009061618004-03700-040350FM-12+008399999V0201401N000510450019N0500001N1+02911+02191101021ADDGF107991031051004501031001MA1999999099991MD1999999-0011REMSYN070AAXX  16184 82392 32499 71401 10291 20219 39999 40102 83530 333 59001;
0168823920999992009061700004-03700-040350FM-12+008399999V0201401N000510450019N0040001N1+02591+02271101271ADDGF105991021051004501031001KA1240M+03011MA1999999100241MD1999999-0011REMSYN088AAXX  17004 82392 32496 51401 10259 20227 30024 40127 82530 333 10301 29079 55040 59001;
0156823920999992009061712004-03700-040350FM-12+008399999V0201801N002610042019N0500001N1+02541+02401101371ADDGF107991051041004501031001KA1240N+02201MA1999999100351MD1999999+0051REMSYN076AAXX  17124 82392 32499 71805 10254 20240 30035 40137 85430 333 20220 58005;
0137823920999992009061718004-03700-040350FM-12+008399999V0202301N001012200019N0500001N1+03081+02191101061ADDGF104991031021004501031001MA1999999100041MD1999999+0051REMSYN070AAXX  17184 82392 32499 42302 10308 20219 30004 40106 83230 333 58005;
0168823920999992009061800004-03700-040350FM-12+008399999V0200501N001010042019N0040001N1+02481+02301101291ADDGF107991051051004501031001KA1240M+03141MA1999999100261MD1999999+0021REMSYN088AAXX  18004 82392 32496 70502 10248 20230 30026 40129 85530 333 10314 29083 55053 58002;
0156823920999992009061812004-03700-040350FM-12+008399999V0201801N000510042019N0500001N1+02541+02291101321ADDGF106991061021004501001001KA1240N+02241MA1999999100291MD1999999-0061REMSYN076AAXX  18124 82392 32499 61801 10254 20229 30029 40132 86200 333 20224 59006;
0137823920999992009061818004-03700-040350FM-12+008399999V0209999C000012200019N0500001N1+03031+02231100961ADDGF103991031021004501001001MA1999999099941MD1999999-0101REMSYN070AAXX  18184 82392 32499 30000 10303 20223 39994 40096 83200 333 59010;
0178823920999992009061900004-03700-040350FM-12+008399999V0200501N001512200019N0040001N1+02481+02361101231ADDGA1001+999999999GF100991001001999999001001KA1240M+03161MA1999999100201MD1999999-0061REMSYN082AAXX  19004 82392 32496 00503 10248 20236 30020 40123 333 10316 29084 55093 59006;
0156823920999992009061912004-03700-040350FM-12+008399999V0202301N001010450019N0500001N1+02481+02341101351ADDGF106991041051004501031001KA1240N+02101MA1999999100321MD1999999+0031REMSYN076AAXX  19124 82392 32499 62302 10248 20234 30032 40135 84530 333 20210 58003;
0137823920999992009061918004-03700-040350FM-12+008399999V0209999C000012200019N0500001N1+02961+02261100971ADDGF104991021041004501031001MA1999999099951MD1999999+0011REMSYN070AAXX  19184 82392 32499 40000 10296 20226 39995 40097 82430 333 58001;
0168823920999992009062000004-03700-040350FM-12+008399999V0200501N001012200019N0040001N1+02501+02291101231ADDGF102991021001999999031001KA1240M+03101MA1999999100201MD1999999+0001REMSYN088AAXX  20004 82392 32996 20502 10250 20229 30020 40123 82030 333 10310 29067 55084 58000;
0201823920999992009062012004-03700-040350FM-12+008399999V0201801N000512200019N0500001N1+02631+02371101321ADDAA124000591AY161061AY261061GF104991021021004501011011KA1240N+02151MA1999999100301MD1999999-0021MW1021REMSYN088AAXX  20124 82392 21499 41801 10263 20237 30030 40132 70266 82211 333 20215 59002 69944;
0137823920999992009062018004-03700-040350FM-12+008399999V0200901N001012200019N0500001N1+03001+02241101011ADDGF102991011021004501001011MA1999999099991MD1999999+0041REMSYN070AAXX  20184 82392 32499 20902 10300 20224 39999 40101 81201 333 58004;
0178823920999992009062100004-03700-040350FM-12+008399999V0200901N000512200019N0040001N1+02401+02191101201ADDGA1001+999999999GF100991001001999999001001KA1240M+03061MA1999999100171MD1999999-0031REMSYN082AAXX  21004 82392 32996 00901 10240 20219 30017 40120 333 10306 29081 55097 59003;
0156823920999992009062112004-03700-040350FM-12+008399999V0201801N002112200019N0500001N1+02541+02251101231ADDGF102991021011004501001001KA1240N+02121MA1999999100201MD1999999-0101REMSYN076AAXX  21124 82392 32499 21804 10254 20225 30020 40123 82100 333 20212 59010;
0137823920999992009062118004-03700-040350FM-12+008399999V0200901N001012200019N0500001N1+02981+02121100961ADDGF104991041041004501001001MA1999999099941MD1999999-0051REMSYN070AAXX  21184 82392 32499 40902 10298 20212 39994 40096 84400 333 59005;
0168823920999992009062200004-03700-040350FM-12+008399999V0200901N000512200019N0040001N1+02561+02191101141ADDGF102991021001008001031001KA1240M+03061MA1999999100121MD1999999-0051REMSYN088AAXX  22004 82392 32596 20901 10256 20219 30012 40114 82030 333 10306 29076 55085 59005;
0156823920999992009062212004-03700-040350FM-12+008399999V0200901N002112200019N0500001N1+02721+02151101171ADDGF101991011011004501001001KA1240N+02061MA1999999100151MD1999999-0051REMSYN076AAXX  22124 82392 32499 10904 10272 20215 30015 40117 81100 333 20206 59005;
0137823920999992009062218004-03700-040350FM-12+008399999V0200501N002610450019N0500001N1+02941+02081100921ADDGF107991041041004501031001MA1999999099901MD1999999-0041REMSYN070AAXX  22184 82392 32499 70505 10294 20208 39990 40092 84430 333 59004;
0168823920999992009062300004-03700-040350FM-12+008399999V0201401N000512200019N0040001N1+02511+02231101071ADDGF104991021021004501031001KA1240M+03041MA1999999100051MD1999999-0071REMSYN088AAXX  23004 82392 32496 41401 10251 20223 30005 40107 82230 333 10304 29075 55083 59007;
0201823920999992009062312004-03700-040350FM-12+008399999V0200901N001510042019N0500001N1+02421+02211101321ADDAA124007991AY161061AY261061GF107991051041004501031001KA1240N+02201MA1999999100301MD1999999+0151MW1021REMSYN088AAXX  23124 82392 21499 70903 10242 20221 30030 40132 70266 85430 333 20220 58015 60084;
0137823920999992009062318004-03700-040350FM-12+008399999V0200501N001510450019N0500001N1+02631+02371101151ADDGF108991041061004501021999MA1999999100121MD1999999+0221REMSYN070AAXX  23184 82392 32499 80503 10263 20237 30012 40115 8462/ 333 58022;
0168823920999992009062400004-03700-040350FM-12+008399999V0209999C000012200019N0040001N1+02261+02211101241ADDGF104991021021004501031001KA1240M+02781MA1999999100211MD1999999+0161REMSYN088AAXX  24004 82392 32496 40000 10226 20221 30021 40124 82230 333 10278 29092 55007 58016;
0156823920999992009062412004-03700-040350FM-12+008399999V0209999C000010450019N0500001N1+02321+02201101371ADDGF108991031071004501021999KA1240N+02021MA1999999100341MD1999999+0041REMSYN076AAXX  24124 82392 32499 80000 10232 20220 30034 40137 8372/ 333 20202 58004;
0137823920999992009062418004-03700-040350FM-12+008399999V0200901N000510042019N0500001N1+02781+02061101121ADDGF106991051041004501031001MA1999999100091MD1999999-0031REMSYN070AAXX  24184 82392 32499 60901 10278 20206 30009 40112 85430 333 59003;
0168823920999992009062500004-03700-040350FM-12+008399999V0209999C000010450019N0040001N1+02511+02361101301ADDGF108991041051004501061999KA1240M+02881MA1999999100271MD1999999+0061REMSYN088AAXX  25004 82392 32496 80000 10251 20236 30027 40130 8456/ 333 10288 29085 55024 58006;
0201823920999992009062512004-03700-040350FM-12+008399999V0209999C000010042019N0500001N1+02281+02201101631ADDAA124016091AY161061AY261061GF108991061061004501031999KA1240N+02171MA1999999100591MD1999999+0251MW1021REMSYN088AAXX  25124 82392 21499 83600 10228 20220 30059 40163 70266 8663/ 333 20217 58025 60164;
0137823920999992009062518004-03700-040350FM-12+008399999V0203601N000510450019N0500001N1+02861+02281101151ADDGF107991021021004501031001MA1999999100131MD1999999+0041REMSYN070AAXX  25184 82392 32499 73601 10286 20228 30013 40115 82230 333 58004;
0168823920999992009062600004-03700-040350FM-12+008399999V0200501N003112200019N0040001N1+02401+02231101411ADDGF101991011001008001031001KA1240M+02981MA1999999100381MD1999999+0111REMSYN088AAXX  26004 82392 32596 10506 10240 20223 30038 40141 81030 333 10298 29086 55030 58011;
0156823920999992009062612004-03700-040350FM-12+008399999V0201801N001012200019N0500001N1+02521+02361101581ADDGF103991011011004501031001KA1240N+02201MA1999999100541MD1999999-0051REMSYN076AAXX  26124 82392 32499 31802 10252 20236 30054 40158 81130 333 20220 59005;
0137823920999992009062618004-03700-040350FM-12+008399999V0200901N000512200019N0500001N1+03001+02141101221ADDGF102991021021004501001001MA1999999100201MD1999999+0071REMSYN070AAXX  26184 82392 32499 20901 10300 20214 30020 40122 82200 333 58007;
0178823920999992009062700004-03700-040350FM-12+008399999V0200501N001012200019N0040001N1+02381+02261101451ADDGA1001+999999999GF100991001001999999001001KA1240M+03081MA1999999100421MD1999999+0041REMSYN082AAXX  27004 82392 32996 00502 10238 20226 30042 40145 333 10308 29084 55100 58004;
0156823920999992009062712004-03700-040350FM-12+008399999V0202301N001012200019N0500001N1+02501+02361101591ADDGF104991041021004501001001KA1240N+02021MA1999999100551MD1999999+0011REMSYN076AAXX  27124 82392 32499 42302 10250 20236 30055 40159 84200 333 20202 58001;
0168823920999992009062800004-03700-040350FM-12+008399999V0203601N000510450019N0040001N1+02501+02321101431ADDGF106991041041004501031001KA1240M+03121MA1999999100401MD1999999-0021REMSYN088AAXX  28004 82392 32496 63601 10250 20232 30040 40143 84430 333 10312 29081 55100 59002;
0156823920999992009062812004-03700-040350FM-12+008399999V0201801N001012200019N0500001N1+02591+02231101591ADDGF104991041021004501001001KA1240N+02041MA1999999100551MD1999999+0001REMSYN076AAXX  28124 82392 32499 41802 10259 20223 30055 40159 84200 333 20204 58000;
0137823920999992009062818004-03700-040350FM-12+008399999V0201401N000512200019N0500001N1+02831+02311101201ADDGF104991031041004501031001MA1999999100171MD1999999-0141REMSYN070AAXX  28184 82392 32499 41401 10283 20231 30017 40120 83430 333 59014;
0168823920999992009062900004-03700-040350FM-12+008399999V0209999C000012200019N0040001N1+02391+02301101351ADDGF102991011021008001031001KA1240M+03041MA1999999100321MD1999999-0081REMSYN088AAXX  29004 82392 32596 20000 10239 20230 30032 40135 81230 333 10304 29085 55085 59008;
0156823920999992009062912004-03700-040350FM-12+008399999V0200501N000512200019N0500001N1+02601+02331101381ADDGF103991031021004501001001KA1240N+02101MA1999999100351MD1999999-0201REMSYN076AAXX  29124 82392 32499 30501 10260 20233 30035 40138 83200 333 20210 59020;
0137823920999992009062918004-03700-040350FM-12+008399999V0200501N002612200019N0500001N1+02961+01811101061ADDGF101991011011004501001001MA1999999100041MD1999999-0131REMSYN070AAXX  29184 82392 32499 10505 10296 20181 30004 40106 81100 333 59013;
0178823920999992009063000004-03700-040350FM-12+008399999V0200501N000512200019N0040001N1+02331+02221101291ADDGA1001+999999999GF100991001001999999001001KA1240M+03041MA1999999100261MD1999999-0061REMSYN082AAXX  30004 82392 32996 00501 10233 20222 30026 40129 333 10304 29080 55085 59006;
0156823920999992009063012004-03700-040350FM-12+008399999V0201801N001512200019N0500001N1+02581+02311101331ADDGF101991011011004501001001KA1240N+02011MA1999999100301MD1999999-0051REMSYN076AAXX  30124 82392 32499 11803 10258 20231 30030 40133 81100 333 20201 59005;
0137823920999992009063018004-03700-040350FM-12+008399999V0201401N001010042019N0500001N1+03101+02181100971ADDGF105991051021004501001001MA1999999099951MD1999999-0091REMSYN070AAXX  30184 82392 32499 51402 10310 20218 39995 40097 85200 333 59009;
0168823920999992009070100004-03700-040350FM-12+008399999V0203601N000512200019N0040001N1+02401+02231101191ADDGF101991011001008001011001KA1240M+03161MA1999999100161MD1999999-0101REMSYN088AAXX  01004 82392 32596 13601 10240 20223 30016 40119 81010 333 10316 29081 55101 59010;
0156823920999992009070112004-03700-040350FM-12+008399999V0202301N000512200019N0500001N1+02561+02291101331ADDGF102991021011004501001001KA1240N+02061MA1999999100301MD1999999+0001REMSYN076AAXX  01124 82392 32499 22301 10256 20229 30030 40133 82100 333 20206 58000;
0168823920999992009070200004-03700-040350FM-12+008399999V0209999C000012200019N0040001N1+02371+02211101241ADDGF101991011001008001011001KA1240M+03111MA1999999100211MD1999999+0051REMSYN088AAXX  02004 82392 32596 10000 10237 20221 30021 40124 81010 333 10311 29088 55105 58005;
0156823920999992009070212004-03700-040350FM-12+008399999V0201801N001510450019N0500001N1+02511+02331101311ADDGF105991021021004501031001KA1240N+02051MA1999999100281MD1999999-0021REMSYN076AAXX  02124 82392 32499 51803 10251 20233 30028 40131 82230 333 20205 59002;
0178823920999992009070300004-03700-040350FM-12+008399999V0200901N000512200019N0040001N1+02321+02251101271ADDGA1001+999999999GF100991001001999999001001KA1240M+03101MA1999999100241MD1999999+0031REMSYN082AAXX  03004 82392 32996 00901 10232 20225 30024 40127 333 10310 29094 55089 58003;
0220823920999992009070312004-03700-040350FM-12+008399999V0202301N000512200019N0500001N1+02501+02251101361ADDAA124000091AY151061AY251061GF104991011011004501031001KA1240N+02081MA1999999100331MD1999999+0051MW1021REMSYN088AAXX  03124 82392 21499 42301 10250 20225 30033 40136 70255 81130 333 20208 58005 69924;EQDQ01  00002PRCP24
0156823920999992009070412004-03700-040350FM-12+008399999V0200901N001010450019N0500001N1+02681+02221101371ADDGF106991021021004501031001KA1240N+02171MA1999999100341MD1999999+0011REMSYN076AAXX  04124 82392 32499 60902 10268 20222 30034 40137 82230 333 20217 58001;
0168823920999992009070500004-03700-040350FM-12+008399999V0209999C000010450019N0040001N1+02471+02051101291ADDGF106991031041004501031001KA1240M+03061MA1999999100271MD1999999+0061REMSYN088AAXX  05004 82392 32496 60000 10247 20205 30027 40129 83430 333 10306 29077 55059 58006;
0201823920999992009070512004-03700-040350FM-12+008399999V0201801N000510450019N0500001N1+02371+02241101461ADDAA124002091AY161061AY261061GF106991041041004501031001KA1240N+02141MA1999999100431MD1999999+0091MW1021REMSYN088AAXX  05124 82392 21499 61801 10237 20224 30043 40146 70266 84430 333 20214 58009 60024;
0168823920999992009070600004-03700-040350FM-12+008399999V0209999C000010450019N0040001N1+02341+02071101341ADDGF106991031041004501031001KA1240M+03131MA1999999100311MD1999999+0041REMSYN088AAXX  06004 82392 32496 60000 10234 20207 30031 40134 83430 333 10313 29087 55038 58004;
0175823920999992009070612004-03700-040350FM-12+008399999V0200901N001019999999N0500001N1+02501+02211101471ADDGF107991999021004501001001KA1240N+02221MA1999999100441MD1999999+0011REMSYN076AAXX  06124 82392 32499 70902 10250 20221 30044 40147 84200 333 20222 58001;EQDQ01+000042SCOTLC
0168823920999992009070700004-03700-040350FM-12+008399999V0209999C000010450019N0040001N1+02311+02241101391ADDGF108991031041004501031999KA1240M+02781MA1999999100361MD1999999+0051REMSYN088AAXX  07004 82392 32496 80000 10231 20224 30036 40139 8343/ 333 10278 29091 55015 58005;
0201823920999992009070712004-03700-040350FM-12+008399999V0201401N002610450019N0500001N1+02531+02331101421ADDAA124000891AY161061AY261061GF106991031041004501031001KA1240N+02281MA1999999100391MD1999999-0051MW1021REMSYN088AAXX  07124 82392 21499 61405 10253 20233 30039 40142 70266 83430 333 20228 59005 69974;
0213823920999992009070800004-03700-040350FM-12+008399999V0209999C000010042019N0040001N1+02341+02241101421ADDAA106001091AY161061AY261061GF108991081051004501999999KA1240M+02941MA1999999100391MD1999999+0031MW1021REMSYN100AAXX  08004 82392 21496 80000 10234 20224 30039 40142 70266 885// 333 10294 29092 55036 58003 60011;
0192823920999992009070812004-03700-040350FM-12+008399999V0201401N001019999999N0500001N1+02631+02121101431ADDAA124001091GF106991999021004501001001KA1240N+02231MA1999999100401MD1999999+0011REMSYN082AAXX  08124 82392 22499 61402 10263 20212 30040 40143 83200 333 20223 58001 60014;EQDQ01+000032SCOTLC
0168823920999992009070900004-03700-040350FM-12+008399999V0200901N000512200019N0040001N1+02391+01971101351ADDGF101991011011004501001001KA1240M+03091MA1999999100321MD1999999-0071REMSYN088AAXX  09004 82392 32496 10901 10239 20197 30032 40135 81100 333 10309 29076 55085 59007;
0156823920999992009070912004-03700-040350FM-12+008399999V0201801N000512200019N0500001N1+02491+02071101451ADDGF102991011021004501031001KA1240N+01861MA1999999100421MD1999999+0021REMSYN076AAXX  09124 82392 32499 21801 10249 20207 30042 40145 81230 333 20186 58002;
0168823920999992009071000004-03700-040350FM-12+008399999V0209999C000012200019N0040001N1+02271+02011101231ADDGF102991011021004501031001KA1240M+03151MA1999999100201MD1999999-0121REMSYN088AAXX  10004 82392 32496 20000 10227 20201 30020 40123 81230 333 10315 29082 55097 59012;
0175823920999992009071012004-03700-040350FM-12+008399999V0203201N000512200019N0500001N1+02561+02171101321ADDGF102991999011004501001001KA1240N+01961MA1999999100291MD1999999-0131REMSYN076AAXX  10124 82392 32499 23201 10256 20217 30029 40132 83100 333 20196 59013;EQDQ01+000032SCOTLC
0168823920999992009071100004-03700-040350FM-12+008399999V0200901N000510450019N0040001N1+02521+02211101211ADDGF108991041041004501021999KA1240M+03091MA1999999100181MD1999999-0021REMSYN088AAXX  11004 82392 32496 80901 10252 20221 30018 40121 8442/ 333 10309 29082 55066 59002;
0201823920999992009071112004-03700-040350FM-12+008399999V0209999C000010042019N0500001N1+02441+02231101401ADDAA124008991AY161061AY261061GF107991051051004501031001KA1240N+01941MA1999999100371MD1999999+0081MW1021REMSYN088AAXX  11124 82392 21499 70000 10244 20223 30037 40140 70266 85530 333 20194 58008 60094;
0168823920999992009071200004-03700-040350FM-12+008399999V0200501N001010450019N0040001N1+02411+02261101281ADDGF107991041041004501031001KA1240M+03201MA1999999100251MD1999999+0071REMSYN088AAXX  12004 82392 32496 70502 10241 20226 30025 40128 84430 333 10320 29090 55067 58007;
0220823920999992009071212004-03700-040350FM-12+008399999V0209999C000010042019N0500001N1+02591+02281101491ADDAA124000091AY151061AY251061GF107991051051004501031001KA1240N+02291MA1999999100451MD1999999+0081MW1021REMSYN088AAXX  12124 82392 21499 70000 10259 20228 30045 40149 70255 85530 333 20229 58008 69924;EQDQ01  00002PRCP24
0223823920999992009071300004-03700-040350FM-12+008399999V0209999C000012200019N0040001N1+02311+02201101331ADDAA106002091AY161061AY261061GA1001+999999999GF100991001001999999001001KA1240M+02941MA1999999100301MD1999999+0051MW1021REMSYN094AAXX  13004 82392 21996 00000 10231 20220 30030 40133 70266 333 10294 29090 55028 58005 60021;
0173823920999992009071312004-03700-040350FM-12+008399999V0200901N000510450019N0500001N1+02521+02251101461ADDAA124002091GF106991041041004501031001KA1240N+02031MA1999999100431MD1999999-0021REMSYN082AAXX  13124 82392 22499 60901 10252 20225 30043 40146 84430 333 20203 59002 60024;
0178823920999992009071400004-03700-040350FM-12+008399999V0200901N000512200019N0040001N1+02311+02151101411ADDGA1001+999999999GF100991001001999999001001KA1240M+03201MA1999999100321MD1999999+0081REMSYN082AAXX  14004 82392 32996 00901 10231 20215 30032 40141 333 10320 29088 55096 58008;
0156823920999992009071412004-03700-040350FM-12+008399999V0201401N000510450019N0500001N1+02681+02201101681ADDGF106991011011004501031001KA1240N+02081MA1999999100641MD1999999+0211REMSYN076AAXX  14124 82392 32499 61401 10268 20220 30064 40168 81130 333 20208 58021;
0168823920999992009071500004-03700-040350FM-12+008399999V0200501N001012200019N0040001N1+02541+02231101341ADDGF102991011011004501031001KA1240M+03391MA1999999100321MD1999999-0061REMSYN088AAXX  15004 82392 32496 20502 10254 20223 30032 40134 81130 333 10339 29080 55103 59006;
0156823920999992009071512004-03700-040350FM-12+008399999V0201401N000510450019N0500001N1+02591+02191101521ADDGF106991031021004501031001KA1240N+02131MA1999999100491MD1999999-0151REMSYN076AAXX  15124 82392 32499 61401 10259 20219 30049 40152 83230 333 20213 59015;
0178823920999992009071600004-03700-040350FM-12+008399999V0200501N000512200019N0040001N1+02411+02231101351ADDGA1001+999999999GF100991001001999999001001KA1240M+03731MA1999999100321MD1999999+0061REMSYN082AAXX  16004 82392 32996 00501 10241 20223 30032 40135 333 10373 29085 55098 58006;
0156823920999992009071612004-03700-040350FM-12+008399999V0201401N000510450019N0500001N1+02611+02211101471ADDGF106991031021004501031001KA1240N+02041MA1999999100441MD1999999-0051REMSYN076AAXX  16124 82392 32499 61401 10261 20221 30044 40147 83230 333 20204 59005;
0168823920999992009071700004-03700-040350FM-12+008399999V0200901N000510450019N0040001N1+02561+02151101351ADDGF107991031041004501031001KA1240M+03301MA1999999100331MD1999999+0011REMSYN088AAXX  17004 82392 32496 70901 10256 20215 30033 40135 83430 333 10330 29078 55092 58001;
0201823920999992009071712004-03700-040350FM-12+008399999V0201401N000510450019N0500001N1+02501+02271101561ADDAA124009991AY161061AY261061GF107991041051004501031001KA1240N+02271MA1999999100521MD1999999+0081MW1021REMSYN088AAXX  17124 82392 21499 71401 10250 20227 30052 40156 70266 84530 333 20227 58008 60104;
0168823920999992009071800004-03700-040350FM-12+008399999V0203601N000512200019N0040001N1+02311+02161101451ADDGF104991021021004501031001KA1240M+02841MA1999999100421MD1999999+0091REMSYN088AAXX  18004 82392 32496 43601 10231 20216 30042 40145 82230 333 10284 29090 55000 58009;
0156823920999992009071812004-03700-040350FM-12+008399999V0200901N001010450019N0500001N1+02631+02271101511ADDGF106991041041004501031001KA1240N+02121MA1999999100471MD1999999-0051REMSYN076AAXX  18124 82392 32499 60902 10263 20227 30047 40151 84430 333 20212 59005;
0168823920999992009071900004-03700-040350FM-12+008399999V0209999C000010450019N0040001N1+02501+02291101381ADDGF107991041041004501031001KA1240M+02971MA1999999100361MD1999999-0061REMSYN088AAXX  19004 82392 32496 70000 10250 20229 30036 40138 84430 333 10297 29085 55018 59006;
0156823920999992009071912004-03700-040350FM-12+008399999V0200901N001010450019N0500001N1+02631+02231101431ADDGF105991021021004501031001KA1240N+02181MA1999999100411MD1999999-0061REMSYN076AAXX  19124 82392 32499 50902 10263 20223 30041 40143 82230 333 20218 59006;
0213823920999992009072000004-03700-040350FM-12+008399999V0203601N001010450019N0040001N1+02521+02231101291ADDAA106000591AY161061AY261061GF105991031021004501031001KA1240M+03161MA1999999100271MD1999999-0091MW1021REMSYN100AAXX  20004 82392 21496 53602 10252 20223 30027 40129 70266 83230 333 10316 29082 55075 59009 69961;
0173823920999992009072012004-03700-040350FM-12+008399999V0201401N000510450019N0500001N1+02581+02231101431ADDAA124000591GF106991031041008001031001KA1240N+02251MA1999999100411MD1999999+0001REMSYN082AAXX  20124 82392 22599 61401 10258 20223 30041 40143 83430 333 20225 58000 69964;
0178823920999992009072100004-03700-040350FM-12+008399999V0203601N001012200019N0040001N1+02491+02291101211ADDGA1001+999999999GF100991001001999999001001KA1240M+03301MA1999999100181MD1999999-0091REMSYN082AAXX  21004 82392 32996 03602 10249 20229 30018 40121 333 10330 29086 55090 59009;
0156823920999992009072112004-03700-040350FM-12+008399999V0200901N000510075019N0500001N1+02711+02131101351ADDGF106991061021008001001001KA1240N+02161MA1999999100331MD1999999-0081REMSYN076AAXX  21124 82392 32599 60901 10271 20213 30033 40135 86200 333 20216 59008;
0168823920999992009072200004-03700-040350FM-12+008399999V0200501N000510450019N0040001N1+02511+02191101241ADDGF107991041051004501021001KA1240M+03341MA1999999100221MD1999999+0041REMSYN088AAXX  22004 82392 32496 70501 10251 20219 30022 40124 84520 333 10334 29079 55103 58004;
0156823920999992009072212004-03700-040350FM-12+008399999V0201401N000510450019N0500001N1+02671+02201101391ADDGF106991041021004501031001KA1240N+02291MA1999999100371MD1999999+0041REMSYN076AAXX  22124 82392 32499 61401 10267 20220 30037 40139 84230 333 20229 58004;
0213823920999992009072300004-03700-040350FM-12+008399999V0203601N000512200019N0040001N1+02411+02261101241ADDAA106002091AY161061AY261061GF102991021001004501031001KA1240M+03001MA1999999100211MD1999999-0011MW1021REMSYN100AAXX  23004 82392 21496 23601 10241 20226 30021 40124 70266 82030 333 10300 29086 55047 59001 60021;
0201823920999992009072312004-03700-040350FM-12+008399999V0200901N000510042019N0200001N1+02311+02241101451ADDAA124010991AY161061AY261061GF108991081061004501999999KA1240N+02031MA1999999100421MD1999999+0051MW1631REMSYN088AAXX  23124 82392 21498 80901 10231 20224 30042 40145 76366 886// 333 20203 58005 60114;
0213823920999992009072400004-03700-040350FM-12+008399999V0209999C000010042019N0040001N1+02281+02211101291ADDAA106002091AY161061AY261061GF108991051061004501021999KA1240M+02541MA1999999100261MD1999999+0051MW1021REMSYN100AAXX  24004 82392 21496 80000 10228 20221 30026 40129 70266 8562/ 333 10254 29096 55000 58005 60021;
0201823920999992009072412004-03700-040350FM-12+008399999V0201401N000510042019N0500001N1+02511+02311101411ADDAA124003091AY161061AY261061GF107991051041004501031001KA1240N+02131MA1999999100381MD1999999-0041MW1021REMSYN088AAXX  24124 82392 21499 71401 10251 20231 30038 40141 70266 85430 333 20213 59004 60034;
0178823920999992009072500004-03700-040350FM-12+008399999V0209999C000012200019N0040001N1+02311+02091101301ADDGA1001+999999999GF100991001001999999001001KA1240M+03141MA1999999100271MD1999999+0011REMSYN082AAXX  25004 82392 32996 00000 10231 20209 30027 40130 333 10314 29087 55086 58001;
0156823920999992009072512004-03700-040350FM-12+008399999V0200901N000512200019N0500001N1+02541+02191101491ADDGF103991031021004501001001KA1240N+01891MA1999999100451MD1999999+0071REMSYN076AAXX  25124 82392 32499 30901 10254 20219 30045 40149 83200 333 20189 58007;
0178823920999992009072600004-03700-040350FM-12+008399999V0200901N002612200019N0040001N1+02231+01941101301ADDGA1001+999999999GF100991001001999999001001KA1240M+03181MA1999999100271MD1999999+0001REMSYN082AAXX  26004 82392 32996 00905 10223 20194 30027 40130 333 10318 29082 55104 58000;
0156823920999992009072612004-03700-040350FM-12+008399999V0201401N000512200019N0500001N1+02591+02101101511ADDGF101991011011004501001001KA1240N+01901MA1999999100471MD1999999+0021REMSYN076AAXX  26124 82392 32499 11401 10259 20210 30047 40151 81100 333 20190 58002;
0178823920999992009072700004-03700-040350FM-12+008399999V0209999C000012200019N0040001N1+02471+02111101281ADDGA1001+999999999GF100991001001999999001001KA1240M+03311MA1999999100251MD1999999-0021REMSYN082AAXX  27004 82392 32996 01400 10247 20211 30025 40128 333 10331 29078 55107 59002;
0156823920999992009072712004-03700-040350FM-12+008399999V0201401N000512200019N0500001N1+02521+02211101491ADDGF104991041021004501001001KA1240N+02031MA1999999100451MD1999999-0021REMSYN076AAXX  27124 82392 32499 41401 10252 20221 30045 40149 84200 333 20203 59002;
0168823920999992009072800004-03700-040350FM-12+008399999V0203601N000512200019N0040001N1+02471+02151101311ADDGF101991011001008001031001KA1240M+03321MA1999999100281MD1999999+0031REMSYN088AAXX  28004 82392 32596 13601 10247 20215 30028 40131 81030 333 10332 29082 55109 58003;
0156823920999992009072812004-03700-040350FM-12+008399999V0201401N000510042019N0500001N1+02611+02141101451ADDGF106991061021004501001001KA1240N+01971MA1999999100421MD1999999-0031REMSYN076AAXX  28124 82392 32499 61401 10261 20214 30042 40145 86200 333 20197 59003;
0178823920999992009072900004-03700-040350FM-12+008399999V0203601N000512200019N0040001N1+02391+02051101301ADDGA1001+999999999GF100991001001999999001001KA1240M+03241MA1999999100271MD1999999-0011REMSYN082AAXX  29004 82392 32996 03601 10239 20205 30027 40130 333 10324 29079 55097 59001;
0175823920999992009072912004-03700-040350FM-12+008399999V0201401N000519999999N0500001N1+02531+02171101491ADDGF105991999021004501001001KA1240N+01961MA1999999100451MD1999999+0031REMSYN076AAXX  29124 82392 32499 51401 10253 20217 30045 40149 83200 333 20196 58003;EQDQ01+000032SCOTLC
0168823920999992009073000004-03700-040350FM-12+008399999V0200501N000519999999N0040001N1+02441+02051101281ADDGF106991061001008001031001KA1240M+03271MA1999999100251MD1999999-0021REMSYN088AAXX  30004 82392 32596 60501 10244 20205 30025 40128 86030 333 10327 29079 55099 59002;
0156823920999992009073012004-03700-040350FM-12+008399999V0201401N000512200019N0500001N1+02571+02191101561ADDGF104991041031004501001001KA1240N+02071MA1999999100521MD1999999+0071REMSYN076AAXX  30124 82392 32499 41401 10257 20219 30052 40156 84300 333 20207 58007;
0175823920999992009073112004-03700-040350FM-12+008399999V0201401N000519999999N0500001N1+02661+02331101551ADDGF105991999021004501001001KA1240N+01961MA1999999100521MD1999999+0001REMSYN076AAXX  31124 82392 32499 51401 10266 20233 30052 40155 84200 333 20196 58000;EQDQ01+000042SCOTLC
0178823920999992009080100004-03700-040350FM-12+008399999V0203601N000512200019N0040001N1+02371+02131101311ADDGA1001+999999999GF100991001001999999001001KA1240M+03311MA1999999100281MD1999999-0061REMSYN082AAXX  01004 82392 32996 03601 10237 20213 30028 40131 333 10331 29085 55105 59006;
0156823920999992009080112004-03700-040350FM-12+008399999V0200501N000512200019N0500001N1+02611+02161101601ADDGF104991041021004501001001KA1240N+01921MA1999999100561MD1999999+0041REMSYN076AAXX  01124 82392 32499 40501 10261 20216 30056 40160 84200 333 20192 58004;
0137823920999992009080118004-03700-040350FM-12+008399999V0200501N001512200019N0500001N1+03231+01671101031ADDGF102991021011004501001001MA1999999100011MD1999999-0141REMSYN070AAXX  01184 82392 32499 20503 10323 20167 30001 40103 82100 333 59014;
0178823920999992009080200004-03700-040350FM-12+008399999V0203601N000512200019N0040001N1+02311+02251101281ADDGA1001+999999999GF100991001001999999001001KA1240M+03311MA1999999100251MD1999999-0031REMSYN082AAXX  02004 82392 32996 03601 10231 20225 30025 40128 333 10331 29077 55106 59003;
0156823920999992009080212004-03700-040350FM-12+008399999V0201801N001012200019N0500001N1+02581+02031101571ADDGF102991021011004501001001KA1240N+01821MA1999999100531MD1999999-0031REMSYN076AAXX  02124 82392 32499 21802 10258 20203 30053 40157 82100 333 20182 59003;
0137823920999992009080218004-03700-040350FM-12+008399999V0200901N002110450019N0500001N1+02901+02041101171ADDGF108991031051004501011999MA1999999100151MD1999999+0141REMSYN070AAXX  02184 82392 32499 80904 10290 20204 30015 40117 8351/ 333 58014;
0168823920999992009080300004-03700-040350FM-12+008399999V0203601N001010450019N0040001N1+02581+02231101351ADDGF106991041021004501031001KA1240M+03141MA1999999100331MD1999999+0081REMSYN088AAXX  03004 82392 32496 63602 10258 20223 30033 40135 84230 333 10314 29073 55062 58008;
0156823920999992009080312004-03700-040350FM-12+008399999V0201801N001512200019N0500001N1+02601+02191101571ADDGF102991021011004501001001KA1240N+02021MA1999999100541MD1999999+0011REMSYN076AAXX  03124 82392 32499 21803 10260 20219 30054 40157 82100 333 20202 58001;
0137823920999992009080318004-03700-040350FM-12+008399999V0201401N002612200019N0500001N1+03301+01761101181ADDGF103991031021004501001001MA1999999100161MD1999999+0011REMSYN070AAXX  03184 82392 32499 31405 10330 20176 30016 40118 83200 333 58001;
0178823920999992009080400004-03700-040350FM-12+008399999V0203601N001012200019N0040001N1+02411+02031101391ADDGA1001+999999999GF100991001001999999001001KA1240M+03391MA1999999100361MD1999999+0031REMSYN082AAXX  04004 82392 32996 03602 10241 20203 30036 40139 333 10339 29069 55103 58003;
0156823920999992009080412004-03700-040350FM-12+008399999V0202301N001012200019N0500001N1+02681+02111101461ADDGF101991011011004501001001KA1240N+01861MA1999999100431MD1999999-0111REMSYN076AAXX  04124 82392 32499 12302 10268 20211 30043 40146 81100 333 20186 59011;
0137823920999992009080418004-03700-040350FM-12+008399999V0200901N001012200019N0500001N1+03341+01801101001ADDGF102991021011004501001001MA1999999099981MD1999999-0181REMSYN070AAXX  04184 82392 32499 20902 10334 20180 39998 40100 82100 333 59018;
0168823920999992009080500004-03700-040350FM-12+008399999V0200501N000512200019N0040001N1+02491+02211101331ADDGF102991021001008001031001KA1240M+03461MA1999999100311MD1999999-0051REMSYN088AAXX  05004 82392 32596 20501 10249 20221 30031 40133 82030 333 10346 29070 55101 59005;
0156823920999992009080512004-03700-040350FM-12+008399999V0200901N003112200019N0500001N1+02751+02151101421ADDGF102991021011004501001001KA1240N+02001MA1999999100401MD1999999-0031REMSYN076AAXX  05124 82392 32499 20906 10275 20215 30040 40142 82100 333 20200 59003;
0137823920999992009080518004-03700-040350FM-12+008399999V0200901N004112200019N0500001N1+03241+01931101081ADDGF104991041021004501001001MA1999999100061MD1999999+0081REMSYN070AAXX  05184 82392 32499 40908 10324 20193 30006 40108 84200 333 58008;
0168823920999992009080600004-03700-040350FM-12+008399999V0203601N001012200019N0040001N1+02511+02151101281ADDGF101991011001008001031001KA1240M+03381MA1999999100261MD1999999-0051REMSYN088AAXX  06004 82392 32596 13602 10251 20215 30026 40128 81030 333 10338 29069 55096 59005;
0156823920999992009080612004-03700-040350FM-12+008399999V0200901N000510042019N0500001N1+02371+02171101471ADDGF107991061051004501031001KA1240N+02101MA1999999100441MD1999999+0041REMSYN076AAXX  06124 82392 32499 70901 10237 20217 30044 40147 86530 333 20210 58004;
0137823920999992009080618004-03700-040350FM-12+008399999V0200901N001512200019N0500001N1+03271+01661101051ADDGF103991031011004501001001MA1999999100031MD1999999-0031REMSYN070AAXX  06184 82392 32499 30903 10327 20166 30003 40105 83100 333 59003;
0178823920999992009080700004-03700-040350FM-12+008399999V0203601N001012200019N0040001N1+02281+02231101331ADDGA1001+999999999GF100991001001999999001001KA1240M+03341MA1999999100301MD1999999+0041REMSYN082AAXX  07004 82392 32996 03602 10228 20223 30030 40133 333 10334 29080 55086 58004;
0156823920999992009080712004-03700-040350FM-12+008399999V0201801N002112200019N0500001N1+02681+02201101471ADDGF101991011011004501001001KA1240N+01981MA1999999100441MD1999999+0001REMSYN076AAXX  07124 82392 32499 11804 10268 20220 30044 40147 81100 333 20198 58000;
0137823920999992009080718004-03700-040350FM-12+008399999V0200901N002112200019N0500001N1+03401+01891101021ADDGF104991041021004501001001MA1999999100001MD1999999-0031REMSYN070AAXX  07184 82392 32499 40904 10340 20189 30000 40102 84200 333 59003;
0168823920999992009080800004-03700-040350FM-12+008399999V0203601N000512200019N0040001N1+02481+02361101321ADDGF102991021001008001031001KA1240M+03421MA1999999100301MD1999999+0001REMSYN088AAXX  08004 82392 32596 23601 10248 20236 30030 40132 82030 333 10342 29076 55105 58000;
0201823920999992009080812004-03700-040350FM-12+008399999V0200901N003112200019N0500001N1+02641+02071101531ADDAA124007191AY161061AY261061GF104991041051004501001001KA1240N+02211MA1999999100501MD1999999+0061MW1021REMSYN088AAXX  08124 82392 21499 40906 10264 20207 30050 40153 70266 84500 333 20221 58006 60074;
0137823920999992009080818004-03700-040350FM-12+008399999V0201401N002612200019N0500001N1+03221+01951101221ADDGF101991011011004501001001MA1999999100201MD1999999+0201REMSYN070AAXX  08184 82392 32499 11405 10322 20195 30020 40122 81100 333 58020;
0178823920999992009080900004-03700-040350FM-12+008399999V0200501N001012200019N0040001N1+02381+02011101381ADDGA1001+999999999GF100991001001999999001001KA1240M+03261MA1999999100351MD1999999+0051REMSYN082AAXX  09004 82392 32996 00502 10238 20201 30035 40138 333 10326 29069 55100 58005;
0156823920999992009080912004-03700-040350FM-12+008399999V0201401N000512200019N0500001N1+02661+02001101521ADDGF101991011011008001001001KA1240N+01911MA1999999100481MD1999999-0021REMSYN076AAXX  09124 82392 32599 11401 10266 20200 30048 40152 81100 333 20191 59002;
0137823920999992009080918004-03700-040350FM-12+008399999V0200901N000510042019N0500001N1+03211+01771101091ADDGF105991051021004501001001MA1999999100071MD1999999-0131REMSYN070AAXX  09184 82392 32499 50901 10321 20177 30007 40109 85200 333 59013;
0168823920999992009081000004-03700-040350FM-12+008399999V0209999C000012200019N0040001N1+02391+02051101371ADDGF101991011001008001031001KA1240M+03361MA1999999100341MD1999999-0011REMSYN088AAXX  10004 82392 32596 10000 10239 20205 30034 40137 81030 333 10336 29068 55103 59001;
0156823920999992009081012004-03700-040350FM-12+008399999V0201801N001012200019N0500001N1+02681+02261101491ADDGF103991031021004501001001KA1240N+02121MA1999999100461MD1999999-0031REMSYN076AAXX  10124 82392 32499 31802 10268 20226 30046 40149 83200 333 20212 59003;
0137823920999992009081018004-03700-040350FM-12+008399999V0200901N001012200019N0500001N1+03301+02021101091ADDGF104991041021004501001001MA1999999100071MD1999999+0001REMSYN070AAXX  10184 82392 32499 40902 10330 20202 30007 40109 84200 333 58000;
0156823920999992009081112004-03700-040350FM-12+008399999V0200901N003112200019N0500001N1+02701+02111101481ADDGF102991021011004501001001KA1240N+01981MA1999999100451MD1999999+0001REMSYN076AAXX  11124 82392 32499 20906 10270 20211 30045 40148 82100 333 20198 58000;
0137823920999992009081118004-03700-040350FM-12+008399999V0202301N000510450019N0500001N1+03471+01921101011ADDGF106991041061004501031001MA1999999099991MD1999999-0081REMSYN070AAXX  11184 82392 32499 62301 10347 20192 39999 40101 84630 333 59008;
0213823920999992009081200004-03700-040350FM-12+008399999V0203601N001010450019N0040001N1+02491+02291101301ADDAA106003091AY161061AY261061GF107991041061004501031001KA1240M+03501MA1999999100281MD1999999-0031MW1021REMSYN100AAXX  12004 82392 21496 73602 10249 20229 30028 40130 70266 84630 333 10350 29072 55080 59003 60031;
0173823920999992009081212004-03700-040350FM-12+008399999V0200901N002612200019N0500001N1+02661+02181101571ADDAA124003091GF104991041041004501001001KA1240N+02211MA1999999100541MD1999999+0091REMSYN082AAXX  12124 82392 22499 40905 10266 20218 30054 40157 84400 333 20221 58009 60034;
0137823920999992009081218004-03700-040350FM-12+008399999V0200501N002112200019N0500001N1+03301+01951101121ADDGF104991021011004501031001MA1999999100101MD1999999+0011REMSYN070AAXX  12184 82392 32499 40504 10330 20195 30010 40112 82130 333 58001;
0178823920999992009081300004-03700-040350FM-12+008399999V0200901N000512200019N0040001N1+02541+01981101341ADDGA1001+999999999GF100991001001999999001001KA1240M+03401MA1999999100321MD1999999+0041REMSYN082AAXX  13004 82392 32996 00901 10254 20198 30032 40134 333 10340 29066 55087 58004;
0156823920999992009081312004-03700-040350FM-12+008399999V0201801N000512200019N0500001N1+02641+01951101551ADDGF102991021021004501001001KA1240N+02091MA1999999100521MD1999999-0021REMSYN076AAXX  13124 82392 32499 21801 10264 20195 30052 40155 82200 333 20209 59002;
0156823920999992009081318004-03700-040350FM-12+008399999V0201401N001012200019N0500001N1+03411+01651100961ADDGF102991999021004501001001MA1999999099941MD1999999-0161REMSYN070AAXX  13184 82392 32499 21402 10341 20165 39994 40096 83200 333 59016;EQDQ01+000032SCOTLC
0178823920999992009081400004-03700-040350FM-12+008399999V0201801N000512200019N0040001N1+02721+02171101201ADDGA1001+999999999GF100991001001999999001001KA1240M+03481MA1999999100181MD1999999-0141REMSYN082AAXX  14004 82392 32996 01801 10272 20217 30018 40120 333 10348 29061 55096 59014;
0156823920999992009081412004-03700-040350FM-12+008399999V0201401N002612200019N0500001N1+02701+02111101371ADDGF101991011011004501001001KA1240N+01901MA1999999100351MD1999999-0171REMSYN076AAXX  14124 82392 32499 11405 10270 20211 30035 40137 81100 333 20190 59017;
0137823920999992009081418004-03700-040350FM-12+008399999V0200901N001010450019N0500001N1+03111+01851100961ADDGF107991031061004501031001MA1999999099941MD1999999+0001REMSYN070AAXX  14184 82392 32499 70902 10311 20185 39994 40096 83630 333 58000;
0178823920999992009081500004-03700-040350FM-12+008399999V0201401N001012200019N0040001N1+02481+02271101121ADDGA1001+999999999GF100991001001999999001001KA1240M+03181MA1999999100101MD1999999-0081REMSYN082AAXX  15004 82392 32996 01402 10248 20227 30010 40112 333 10318 29073 55052 59008;
0156823920999992009081512004-03700-040350FM-12+008399999V0200901N001012200019N0500001N1+02691+02111101331ADDGF103991031021004501001001KA1240N+02031MA1999999100311MD1999999-0041REMSYN076AAXX  15124 82392 32499 30902 10269 20211 30031 40133 83200 333 20203 59004;
0137823920999992009081518004-03700-040350FM-12+008399999V0200901N001012200019N0500001N1+03241+01711100811ADDGF104991041021004501001001MA1999999099791MD1999999-0151REMSYN070AAXX  15184 82392 32499 40902 10324 20171 39979 40081 84200 333 59015;
0178823920999992009081600004-03700-040350FM-12+008399999V0203601N000512200019N0040001N1+02461+01811101081ADDGA1001+999999999GF100991001001999999001001KA1240M+03401MA1999999100061MD1999999-0041REMSYN082AAXX  16004 82392 32996 03601 10246 20181 30006 40108 333 10340 29061 55098 59004;
0156823920999992009081612004-03700-040350FM-12+008399999V0200901N001012200019N0500001N1+02621+02051101331ADDGF101991011011004501001001KA1240N+01971MA1999999100301MD1999999-0011REMSYN076AAXX  16124 82392 32499 10902 10262 20205 30030 40133 81100 333 20197 59001;
0137823920999992009081618004-03700-040350FM-12+008399999V0200501N004612200019N0500001N1+03401+01811100921ADDGF102991021011004501001001MA1999999099901MD1999999+0111REMSYN070AAXX  16184 82392 32499 20509 10340 20181 39990 40092 82100 333 58011;
0178823920999992009081700004-03700-040350FM-12+008399999V0200501N004112200019N0040001N1+02681+02041101071ADDGA1001+999999999GF100991001001999999001001KA1240M+03441MA1999999100051MD1999999-0011REMSYN082AAXX  17004 82392 32996 00508 10268 20204 30005 40107 333 10344 29062 55103 59001;
0166823920999992009081712004-03700-040350FM-12+008399999V0201801N003112200019N0500001N1+02721+02081101321ADDGA1001+999999999GF100991001001999999001001KA1240N+01901MA1999999100301MD1999999+0001REMSYN070AAXX  17124 82392 32999 01806 10272 20208 30030 40132 333 20190 58000;
0147823920999992009081718004-03700-040350FM-12+008399999V0201401N002112200019N0500001N1+03441+01671100891ADDGA1001+999999999GF100991001001999999001001MA1999999099871MD1999999-0031REMSYN064AAXX  17184 82392 32999 01404 10344 20167 39987 40089 333 59003;
0178823920999992009081800004-03700-040350FM-12+008399999V0203601N000512200019N0040001N1+02571+02081101171ADDGA1001+999999999GF100991001001999999001001KA1240M+03501MA1999999100151MD1999999+0011REMSYN082AAXX  18004 82392 32996 03601 10257 20208 30015 40117 333 10350 29063 55106 58001;
0156823920999992009081812004-03700-040350FM-12+008399999V0200501N005112200019N0500001N1+02781+02061101321ADDGF101991011011004501001001KA1240N+01841MA1999999100301MD1999999+0001REMSYN076AAXX  18124 82392 32499 10510 10278 20206 30030 40132 81100 333 20184 58000;
0137823920999992009081818004-03700-040350FM-12+008399999V0203201N000512200019N0500001N1+03371+01751100831ADDGF102991021011004501001001MA1999999099811MD1999999-0061REMSYN070AAXX  18184 82392 32499 23201 10337 20175 39981 40083 82100 333 59006;
0178823920999992009081900004-03700-040350FM-12+008399999V0203601N000512200019N0040001N1+02541+01981101121ADDGA1001+999999999GF100991001001999999001001KA1240M+03461MA1999999100101MD1999999-0051REMSYN082AAXX  19004 82392 32996 03601 10254 20198 30010 40112 333 10346 29063 55105 59005;
0156823920999992009081912004-03700-040350FM-12+008399999V0200501N001012200019N0500001N1+02701+02131101301ADDGF104991021021004501031001KA1240N+01901MA1999999100281MD1999999-0021REMSYN076AAXX  19124 82392 32499 40502 10270 20213 30028 40130 82230 333 20190 59002;
0137823920999992009081918004-03700-040350FM-12+008399999V0200901N001512200019N0500001N1+03461+01981100821ADDGF102991021011004501001001MA1999999099801MD1999999-0011REMSYN070AAXX  19184 82392 32499 20903 10346 20198 39980 40082 82100 333 59001;
0178823920999992009082000004-03700-040350FM-12+008399999V0200501N001012200019N0040001N1+02511+02071101111ADDGA1001+999999999GF100991001001999999001001KA1240M+03521MA1999999100091MD1999999-0011REMSYN082AAXX  20004 82392 32996 00502 10251 20207 30009 40111 333 10352 29066 55097 59001;
0156823920999992009082012004-03700-040350FM-12+008399999V0200901N000510042019N0500001N1+02591+02101101231ADDGF106991051041004501031001KA1240N+01921MA1999999100211MD1999999-0071REMSYN076AAXX  20124 82392 32499 60901 10259 20210 30021 40123 85430 333 20192 59007;
0137823920999992009082018004-03700-040350FM-12+008399999V0201401N001012200019N0500001N1+03411+01981100801ADDGF104991041021004501001001MA1999999099781MD1999999-0021REMSYN070AAXX  20184 82392 32499 41402 10341 20198 39978 40080 84200 333 59002;
0178823920999992009082100004-03700-040350FM-12+008399999V0200501N005112200019N0040001N1+02541+02331101121ADDGA1001+999999999GF100991001001999999001001KA1240M+03541MA1999999100101MD1999999+0011REMSYN082AAXX  21004 82392 32996 00510 10254 20233 30010 40112 333 10354 29073 55101 58001;
0156823920999992009082112004-03700-040350FM-12+008399999V0202301N001010450019N0500001N1+02761+02141101321ADDGF106991041041004501031001KA1240N+02211MA1999999100301MD1999999+0091REMSYN076AAXX  21124 82392 32499 62302 10276 20214 30030 40132 84430 333 20221 58009;
0137823920999992009082118004-03700-040350FM-12+008399999V0200501N002112200019N0500001N1+03191+02061100701ADDGF104991041021004501001001MA1999999099681MD1999999-0101REMSYN070AAXX  21184 82392 32499 40504 10319 20206 39968 40070 84200 333 59010;
0178823920999992009082200004-03700-040350FM-12+008399999V0200501N004112200019N0040001N1+02621+02251100961ADDGA1001+999999999GF100991001001999999001001KA1240M+03581MA1999999099941MD1999999-0061REMSYN082AAXX  22004 82392 32996 00508 10262 20225 39994 40096 333 10358 29070 55096 59006;
0156823920999992009082212004-03700-040350FM-12+008399999V0200501N004612200019N0500001N1+02801+02141101071ADDGF104991021011004501031001KA1240N+02141MA1999999100051MD1999999-0251REMSYN076AAXX  22124 82392 32499 40509 10280 20214 30005 40107 82130 333 20214 59025;
0137823920999992009082218004-03700-040350FM-12+008399999V0200901N003112200019N0500001N1+03581+02011100701ADDGF103991031021004501001001MA1999999099681MD1999999+0001REMSYN070AAXX  22184 82392 32499 30906 10358 20201 39968 40070 83200 333 58000;
0178823920999992009082300004-03700-040350FM-12+008399999V0200501N004112200019N0040001N1+02541+02041100991ADDGA1001+999999999GF100991001001999999001001KA1240M+03661MA1999999099971MD1999999+0031REMSYN082AAXX  23004 82392 32996 00508 10254 20204 39997 40099 333 10366 29064 55108 58003;
0156823920999992009082312004-03700-040350FM-12+008399999V0200901N002112200019N0500001N1+02831+02171101201ADDGF104991041021004501001001KA1240N+02311MA1999999100181MD1999999+0131REMSYN076AAXX  23124 82392 32499 40904 10283 20217 30018 40120 84200 333 20231 58013;
0137823920999992009082318004-03700-040350FM-12+008399999V0201401N002612200019N0500001N1+03341+01711100791ADDGF104991041021004501001001MA1999999099771MD1999999+0091REMSYN070AAXX  23184 82392 32499 41405 10334 20171 39977 40079 84200 333 58009;
0178823920999992009082400004-03700-040350FM-12+008399999V0203601N001012200019N0040001N1+02521+02111101151ADDGA1001+999999999GF100991001001999999001001KA1240M+03511MA1999999100131MD1999999+0161REMSYN082AAXX  24004 82392 32996 03602 10252 20211 30013 40115 333 10351 29062 55102 58016;
0156823920999992009082412004-03700-040350FM-12+008399999V0200901N004112200019N0500001N1+02741+02121101281ADDGF104991041021004501001001KA1240N+02021MA1999999100261MD1999999+0121REMSYN076AAXX  24124 82392 32499 40908 10274 20212 30026 40128 84200 333 20202 58012;
0137823920999992009082418004-03700-040350FM-12+008399999V0200501N005112200019N0500001N1+03201+02031100941ADDGF104991041021004501001001MA1999999099921MD1999999+0151REMSYN070AAXX  24184 82392 32499 40510 10320 20203 39992 40094 84200 333 58015;
0168823920999992009082500004-03700-040350FM-12+008399999V0203601N001010450019N0040001N1+02541+02041101161ADDGF105991021021004501031001KA1240M+03321MA1999999100141MD1999999+0011REMSYN088AAXX  25004 82392 32496 53602 10254 20204 30014 40116 82230 333 10332 29067 55079 58001;
0156823920999992009082512004-03700-040350FM-12+008399999V0201801N002110450019N0500001N1+02621+02031101301ADDGF106991041021004501031001KA1240N+01901MA1999999100281MD1999999+0021REMSYN076AAXX  25124 82392 32499 61804 10262 20203 30028 40130 84230 333 20190 58002;
0137823920999992009082518004-03700-040350FM-12+008399999V0200901N000512200019N0500001N1+03501+01771100811ADDGF104991041021004501001001MA1999999099791MD1999999-0131REMSYN070AAXX  25184 82392 32499 40901 10350 20177 39979 40081 84200 333 59013;
0168823920999992009082600004-03700-040350FM-12+008399999V0203601N001012200019N0040001N1+02871+02101101161ADDGF101991011001008001031001KA1240M+03601MA1999999100141MD1999999+0001REMSYN088AAXX  26004 82392 32596 13602 10287 20210 30014 40116 81030 333 10360 29064 55094 58000;
0201823920999992009082612004-03700-040350FM-12+008399999V0202301N001010450019N0200001N1+02381+02261101411ADDAA124000591AY101061AY251061GF108991031061004501021999KA1240N+02201MA1999999100381MD1999999+0101MW1021REMSYN088AAXX  26124 82392 21498 82302 10238 20226 30038 40141 70205 8362/ 333 20220 58010 69944;
0182823920999992009082618004-03700-040350FM-12+008399999V0202301N000510450019N0500001N1+02661+02021101171ADDAA106001091AY161061AY251061GF108991041051004501011999MA1999999100141MD1999999+0351MW1021REMSYN082AAXX  26184 82392 21499 82301 10266 20202 30014 40117 70265 8451/ 333 58035 60011;
0213823920999992009082700004-03700-040350FM-12+008399999V0209999C000010042019N0040001N1+02251+02231101391ADDAA106007191AY161061AY261061GF106991051051004501011001KA1240M+02961MA1999999100361MD1999999+0221MW1021REMSYN100AAXX  27004 82392 21496 60000 10225 20223 30036 40139 70266 85510 333 10296 29089 55005 58022 60071;
0173823920999992009082712004-03700-040350FM-12+008399999V0201801N000512200019N0500001N1+02541+02211101601ADDAA124008991GF104991021021004501031001KA1240N+02171MA1999999100561MD1999999+0181REMSYN082AAXX  27124 82392 22499 41801 10254 20221 30056 40160 82230 333 20217 58018 60094;
0137823920999992009082718004-03700-040350FM-12+008399999V0201401N000510450019N0500001N1+03381+01791101101ADDGF105991031021004501031001MA1999999100081MD1999999-0061REMSYN070AAXX  27184 82392 32499 51401 10338 20179 30008 40110 83230 333 59006;
0178823920999992009082800004-03700-040350FM-12+008399999V0200501N003112200019N0040001N1+02581+02171101361ADDGA1001+999999999GF100991001001999999001001KA1240M+03441MA1999999100341MD1999999-0021REMSYN082AAXX  28004 82392 32996 00506 10258 20217 30034 40136 333 10344 29069 55096 59002;
0156823920999992009082812004-03700-040350FM-12+008399999V0201401N001510450019N0500001N1+02681+02091101481ADDGF106991041021004501031001KA1240N+02121MA1999999100461MD1999999-0101REMSYN076AAXX  28124 82392 32499 61403 10268 20209 30046 40148 84230 333 20212 59010;
0137823920999992009082818004-03700-040350FM-12+008399999V0200901N001512200019N0500001N1+03441+01801100951ADDGF104991031021004501011001MA1999999099931MD1999999-0151REMSYN070AAXX  28184 82392 32499 40903 10344 20180 39993 40095 83210 333 59015;
0178823920999992009082900004-03700-040350FM-12+008399999V0200501N004112200019N0040001N1+02581+02211101261ADDGA1001+999999999GF100991001001999999001001KA1240M+03541MA1999999100241MD1999999-0101REMSYN082AAXX  29004 82392 32996 00508 10258 20221 30024 40126 333 10354 29067 55081 59010;
0156823920999992009082912004-03700-040350FM-12+008399999V0201401N001010042019N0500001N1+02691+02171101481ADDGF107991061041004501031001KA1240N+02211MA1999999100451MD1999999-0011REMSYN076AAXX  29124 82392 32499 71402 10269 20217 30045 40148 86430 333 20221 59001;
0137823920999992009082918004-03700-040350FM-12+008399999V0201401N001012200019N0500001N1+03461+01691100911ADDGF104991041021004501001001MA1999999099901MD1999999-0031REMSYN070AAXX  29184 82392 32499 41402 10346 20169 39990 40091 84200 333 59003;
0178823920999992009083000004-03700-040350FM-12+008399999V0203601N001012200019N0040001N1+02611+02121101121ADDGA1001+999999999GF100991001001999999001001KA1240M+03541MA1999999100101MD1999999-0141REMSYN082AAXX  30004 82392 32996 03602 10261 20212 30010 40112 333 10354 29064 55086 59014;
0156823920999992009083012004-03700-040350FM-12+008399999V0200901N002612200019N0500001N1+02721+02081101401ADDGF104991041021004501001001KA1240N+02091MA1999999100381MD1999999-0071REMSYN076AAXX  30124 82392 32499 40905 10272 20208 30038 40140 84200 333 20209 59007;
0137823920999992009083018004-03700-040350FM-12+008399999V0201401N002112200019N0500001N1+03501+01681100921ADDGF102991021011004501001001MA1999999099901MD1999999+0001REMSYN070AAXX  30184 82392 32499 21404 10350 20168 39990 40092 82100 333 58000;
0178823920999992009083100004-03700-040350FM-12+008399999V0203601N004112200019N0040001N1+02701+02111101121ADDGA1001+999999999GF100991001001999999001001KA1240M+03571MA1999999100101MD1999999+0001REMSYN082AAXX  31004 82392 32996 03608 10270 20211 30010 40112 333 10357 29060 55100 58000;
0156823920999992009083112004-03700-040350FM-12+008399999V0200901N004612200019N0500001N1+02841+01961101461ADDGF101991011011004501001001KA1240N+02031MA1999999100441MD1999999+0061REMSYN076AAXX  31124 82392 32499 10909 10284 20196 30044 40146 81100 333 20203 58006;
0137823920999992009083118004-03700-040350FM-12+008399999V0200901N002112200019N0500001N1+03501+01681101001ADDGF101991011011004501001001MA1999999099981MD1999999+0081REMSYN070AAXX  31184 82392 32499 10904 10350 20168 39998 40100 81100 333 58008;
0178823920999992009090100004-03700-040350FM-12+008399999V0203601N000512200019N0040001N1+02611+01881101291ADDGA1001+999999999GF100991001001999999001001KA1240M+03561MA1999999100271MD1999999+0171REMSYN082AAXX  01004 82392 32996 03601 10261 20188 30027 40129 333 10356 29055 55110 58017;
0156823920999992009090112004-03700-040350FM-12+008399999V0200901N003112200019N0500001N1+02721+02081101481ADDGF104991031011004501001011KA1240N+01901MA1999999100451MD1999999+0011REMSYN076AAXX  01124 82392 32499 40906 10272 20208 30045 40148 83101 333 20190 58001;
0137823920999992009090118004-03700-040350FM-12+008399999V0200901N000512200019N0500001N1+03551+01701101961ADDGF102991021011004501001001MA1999999099941MD1999999-0041REMSYN070AAXX  01184 82392 32499 20901 10355 20170 39994 40196 82100 333 59004;
0178823920999992009090200004-03700-040350FM-12+008399999V0203601N000512200019N0040001N1+02791+01921101361ADDGA1001+999999999GF100991001001999999001001KA1240M+03641MA1999999100341MD1999999+0071REMSYN082AAXX  02004 82392 32996 03601 10279 20192 30034 40136 333 10364 29058 55107 58007;
0156823920999992009090212004-03700-040350FM-12+008399999V0200901N002612200019N0500001N1+02801+01921101531ADDGF104991041021004501001001KA1240N+01901MA1999999100501MD1999999+0051REMSYN076AAXX  02124 82392 32499 40905 10280 20192 30050 40153 84200 333 20190 58005;
0137823920999992009090218004-03700-040350FM-12+008399999V0200901N002112200019N0500001N1+03481+01751101041ADDGF101991011011004501001001MA1999999100021MD1999999+0081REMSYN070AAXX  02184 82392 32499 10904 10348 20175 30002 40104 81100 333 58008;
0178823920999992009090300004-03700-040350FM-12+008399999V0203601N001012200019N0040001N1+02611+01981101311ADDGA1001+999999999GF100991001001999999001001KA1240M+03561MA1999999100291MD1999999-0051REMSYN082AAXX  03004 82392 32996 03602 10261 20198 30029 40131 333 10356 29058 55104 59005;
0156823920999992009090312004-03700-040350FM-12+008399999V0200901N001510042019N0500001N1+02831+01931101561ADDGF106991061021004501001001KA1240N+02011MA1999999100531MD1999999+0031REMSYN076AAXX  03124 82392 32499 60903 10283 20193 30053 40156 86200 333 20201 58003;
0137823920999992009090318004-03700-040350FM-12+008399999V0200901N003112200019N0500001N1+03341+01581101091ADDGF104991041021004501001001MA1999999100071MD1999999+0021REMSYN070AAXX  03184 82392 32499 40906 10334 20158 30007 40109 84200 333 58002;
0178823920999992009090400004-03700-040350FM-12+008399999V0200501N002612200019N0040001N1+02661+02021101401ADDGA1001+999999999GF100991001001999999001001KA1240M+03521MA1999999100381MD1999999+0091REMSYN082AAXX  04004 82392 32996 00505 10266 20202 30038 40140 333 10352 29058 55097 58009;
0156823920999992009090412004-03700-040350FM-12+008399999V0200901N002612200019N0500001N1+02741+01891101531ADDGF102991021011004501001001KA1240N+01991MA1999999100501MD1999999-0031REMSYN076AAXX  04124 82392 32499 20905 10274 20189 30050 40153 82100 333 20199 59003;
0137823920999992009090418004-03700-040350FM-12+008399999V0200901N001012200019N0500001N1+03501+01581101011ADDGF103991031011004501001001MA1999999099991MD1999999-0011REMSYN070AAXX  04184 82392 32499 30902 10350 20158 39999 40101 83100 333 59001;
0178823920999992009090500004-03700-040350FM-12+008399999V0200501N004112200019N0040001N1+02621+02251101371ADDGA1001+999999999GF100991001001999999001001KA1240M+03601MA1999999100351MD1999999-0031REMSYN082AAXX  05004 82392 32996 00508 10262 20225 30035 40137 333 10360 29063 55103 59003;
0156823920999992009090512004-03700-040350FM-12+008399999V0201401N002112200019N0500001N1+02801+01951101491ADDGF103991031021004501001001KA1240N+02141MA1999999100461MD1999999-0041REMSYN076AAXX  05124 82392 32499 31404 10280 20195 30046 40149 83200 333 20214 59004;
0137823920999992009090518004-03700-040350FM-12+008399999V0201401N001512200019N0500001N1+03621+01741100991ADDGF101991011011004501001001MA1999999099981MD1999999-0011REMSYN070AAXX  05184 82392 32499 11403 10362 20174 39998 40099 81100 333 59001;
0178823920999992009090600004-03700-040350FM-12+008399999V0200501N003112200019N0040001N1+02641+02231101371ADDGA1001+999999999GF100991001001999999001001KA1240M+03721MA1999999100351MD1999999+0001REMSYN082AAXX  06004 82392 32996 00506 10264 20223 30035 40137 333 10372 29062 55103 58000;
0156823920999992009090612004-03700-040350FM-12+008399999V0200901N001010042019N0500001N1+02741+02001101581ADDGF106991061021004501001001KA1240N+02201MA1999999100551MD1999999+0091REMSYN076AAXX  06124 82392 32499 60902 10274 20200 30055 40158 86200 333 20220 58009;
0137823920999992009090618004-03700-040350FM-12+008399999V0200901N002612200019N0500001N1+03521+01701101011ADDGF102991021011004501001001MA1999999100001MD1999999+0021REMSYN070AAXX  06184 82392 32499 20905 10352 20170 30000 40101 82100 333 58002;
0178823920999992009090700004-03700-040350FM-12+008399999V0203601N001012200019N0040001N1+02551+01991101411ADDGA1001+999999999GF100991001001999999001001KA1240M+03601MA1999999100391MD1999999+0041REMSYN082AAXX  07004 82392 32996 03602 10255 20199 30039 40141 333 10360 29060 55096 58004;
0156823920999992009090712004-03700-040350FM-12+008399999V0201401N001512200019N0500001N1+02721+01931101561ADDGF104991041021004501001001KA1240N+01931MA1999999100531MD1999999-0021REMSYN076AAXX  07124 82392 32499 41403 10272 20193 30053 40156 84200 333 20193 59002;
0137823920999992009090718004-03700-040350FM-12+008399999V0200501N004612200019N0500001N1+03481+01711100961ADDGF103991021011004501001011MA1999999099941MD1999999-0061REMSYN070AAXX  07184 82392 32499 30509 10348 20171 39994 40096 82101 333 59006;
0178823920999992009090800004-03700-040350FM-12+008399999V0200501N000512200019N0040001N1+02561+02041101271ADDGA1001+999999999GF100991001001999999001001KA1240M+03581MA1999999100251MD1999999-0141REMSYN082AAXX  08004 82392 32996 00501 10256 20204 30025 40127 333 10358 29061 55101 59014;
0156823920999992009090812004-03700-040350FM-12+008399999V0201401N003110450019N0500001N1+02621+01981101301ADDGF106991041041004501031001KA1240N+01801MA1999999100281MD1999999-0251REMSYN076AAXX  08124 82392 32499 61406 10262 20198 30028 40130 84430 333 20180 59025;
0137823920999992009090818004-03700-040350FM-12+008399999V0200901N002112200019N0500001N1+03551+01681100741ADDGF102991021011004501001001MA1999999099721MD1999999-0221REMSYN070AAXX  08184 82392 32499 20904 10355 20168 39972 40074 82100 333 59022;
0178823920999992009090900004-03700-040350FM-12+008399999V0203601N000512200019N0040001N1+02591+01961101131ADDGA1001+999999999GF100991001001999999001001KA1240M+03621MA1999999100111MD1999999-0141REMSYN082AAXX  09004 82392 32996 03601 10259 20196 30011 40113 333 10362 29059 55098 59014;
0156823920999992009090912004-03700-040350FM-12+008399999V0201401N002612200019N0500001N1+02841+01961101381ADDGF104991041021004501001001KA1240N+01991MA1999999100361MD1999999+0081REMSYN076AAXX  09124 82392 32499 41405 10284 20196 30036 40138 84200 333 20199 58008;
0137823920999992009090918004-03700-040350FM-12+008399999V0201401N003112200019N0500001N1+03461+01641100931ADDGF104991041021004501001001MA1999999099911MD1999999+0191REMSYN070AAXX  09184 82392 32499 41406 10346 20164 39991 40093 84200 333 58019;
0178823920999992009091000004-03700-040350FM-12+008399999V0203601N001012200019N0040001N1+02571+02121101191ADDGA1001+999999999GF100991001001999999001001KA1240M+03591MA1999999100171MD1999999+0061REMSYN082AAXX  10004 82392 32996 03602 10257 20212 30017 40119 333 10359 29061 55102 58006;
0156823920999992009091012004-03700-040350FM-12+008399999V0200901N003112200019N0500001N1+02951+01841101501ADDGF102991021011004501001001KA1240N+02191MA1999999100481MD1999999+0121REMSYN076AAXX  10124 82392 32499 20906 10295 20184 30048 40150 82100 333 20219 58012;
0137823920999992009091018004-03700-040350FM-12+008399999V0200901N002610042019N0500001N1+03451+01551101041ADDGF105991051021004501001001MA1999999100021MD1999999+0111REMSYN070AAXX  10184 82392 32499 50905 10345 20155 30002 40104 85200 333 58011;
0178823920999992009091100004-03700-040350FM-12+008399999V0203601N005112200019N0040001N1+02641+02071101271ADDGA1001+999999999GF100991001001999999001001KA1240M+03541MA1999999100251MD1999999+0081REMSYN082AAXX  11004 82392 32996 03610 10264 20207 30025 40127 333 10354 29056 55098 58008;
0156823920999992009091112004-03700-040350FM-12+008399999V0200901N001012200019N0500001N1+02901+01961101551ADDGF101991011011004501001001KA1240N+02031MA1999999100521MD1999999+0041REMSYN076AAXX  11124 82392 32499 10902 10290 20196 30052 40155 81100 333 20203 58004;
0137823920999992009091118004-03700-040350FM-12+008399999V0200901N003112200019N0500001N1+03611+01421100921ADDGF102991021011004501001001MA1999999099911MD1999999-0111REMSYN070AAXX  11184 82392 32499 20906 10361 20142 39991 40092 82100 333 59011;
0178823920999992009091200004-03700-040350FM-12+008399999V0200501N004612200019N0040001N1+02721+02151101271ADDGA1001+999999999GF100991001001999999001001KA1240M+03661MA1999999100251MD1999999+0001REMSYN082AAXX  12004 82392 32996 00509 10272 20215 30025 40127 333 10366 29056 55111 58000;
0156823920999992009091212004-03700-040350FM-12+008399999V0201401N001510042019N0500001N1+02841+02011101501ADDGF106991061021004501001001KA1240N+02141MA1999999100471MD1999999-0051REMSYN076AAXX  12124 82392 32499 61403 10284 20201 30047 40150 86200 333 20214 59005;
0137823920999992009091218004-03700-040350FM-12+008399999V0201401N001012200019N0500001N1+03451+01641100861ADDGF104991041021004501001001MA1999999099841MD1999999-0071REMSYN070AAXX  12184 82392 32499 41402 10345 20164 39984 40086 84200 333 59007;
0178823920999992009091300004-03700-040350FM-12+008399999V0203601N001012200019N0040001N1+02661+02091101181ADDGA1001+999999999GF100991001001999999001001KA1240M+03661MA1999999100161MD1999999-0091REMSYN082AAXX  13004 82392 32996 03602 10266 20209 30016 40118 333 10366 29059 55093 59009;
0156823920999992009091312004-03700-040350FM-12+008399999V0201401N002110450019N0500001N1+02801+01921101481ADDGF106991041041004501031001KA1240N+02211MA1999999100451MD1999999-0021REMSYN076AAXX  13124 82392 32499 61404 10280 20192 30045 40148 84430 333 20221 59002;
0137823920999992009091318004-03700-040350FM-12+008399999V0201401N001512200019N0500001N1+03581+01701100961ADDGF104991041021004501001001MA1999999099951MD1999999-0111REMSYN070AAXX  13184 82392 32499 41403 10358 20170 39995 40096 84200 333 59011;
0178823920999992009091400004-03700-040350FM-12+008399999V0200501N004112200019N0040001N1+02681+02131101301ADDGA1001+999999999GF100991001001999999001001KA1240M+03661MA1999999100281MD1999999+0121REMSYN082AAXX  14004 82392 32996 00508 10268 20213 30028 40130 333 10366 29059 55095 58012;
0156823920999992009091412004-03700-040350FM-12+008399999V0200901N004612200019N0500001N1+02821+02021101541ADDGF104991041021004501001001KA1240N+02281MA1999999100511MD1999999+0061REMSYN076AAXX  14124 82392 32499 40909 10282 20202 30051 40154 84200 333 20228 58006;
0137823920999992009091418004-03700-040350FM-12+008399999V0200901N003112200019N0500001N1+03581+01791101011ADDGF103991031021004501001001MA1999999100001MD1999999+0051REMSYN070AAXX  14184 82392 32499 30906 10358 20179 30000 40101 83200 333 58005;
0178823920999992009091500004-03700-040350FM-12+008399999V0203601N003112200019N0040001N1+02631+02161101371ADDGA1001+999999999GF100991001001999999001001KA1240M+03671MA1999999100351MD1999999+0071REMSYN082AAXX  15004 82392 32996 03606 10263 20216 30035 40137 333 10367 29062 55095 58007;
0156823920999992009091512004-03700-040350FM-12+008399999V0200901N002610450019N0500001N1+02821+02071101511ADDGF105991041021004501031001KA1240N+02311MA1999999100481MD1999999-0031REMSYN076AAXX  15124 82392 32499 50905 10282 20207 30048 40151 84230 333 20231 59003;
0137823920999992009091518004-03700-040350FM-12+008399999V0200501N003112200019N0500001N1+03521+01741100971ADDGF104991041021004501001001MA1999999099961MD1999999-0041REMSYN070AAXX  15184 82392 32499 40506 10352 20174 39996 40097 84200 333 59004;
0178823920999992009091600004-03700-040350FM-12+008399999V0203601N001512200019N0040001N1+02611+02141101251ADDGA1001+999999999GF100991001001999999001001KA1240M+03621MA1999999100231MD1999999-0121REMSYN082AAXX  16004 82392 32996 03603 10261 20214 30023 40125 333 10362 29062 55097 59012;
0156823920999992009091612004-03700-040350FM-12+008399999V0200901N004110450019N0500001N1+02901+02041101421ADDGF105991041021004501031001KA1240N+02101MA1999999100401MD1999999-0081REMSYN076AAXX  16124 82392 32499 50908 10290 20204 30040 40142 84230 333 20210 59008;
0137823920999992009091618004-03700-040350FM-12+008399999V0200501N002612200019N0500001N1+03621+01871100841ADDGF104991041021004501001001MA1999999099831MD1999999-0131REMSYN070AAXX  16184 82392 32499 40505 10362 20187 39983 40084 84200 333 59013;
0178823920999992009091700004-03700-040350FM-12+008399999V0200501N001012200019N0040001N1+02611+02181101181ADDGA1001+999999999GF100991001001999999001001KA1240M+03681MA1999999100161MD1999999-0071REMSYN082AAXX  17004 82392 32996 00502 10261 20218 30016 40118 333 10368 29063 55095 59007;
0156823920999992009091712004-03700-040350FM-12+008399999V0200901N003110042019N0500001N1+02931+02051101331ADDGF106991061041004501001001KA1240N+02201MA1999999100311MD1999999-0091REMSYN076AAXX  17124 82392 32499 60906 10293 20205 30031 40133 86400 333 20220 59009;
0137823920999992009091718004-03700-040350FM-12+008399999V0200901N002112200019N0500001N1+03511+01791100821ADDGF102991021011004501001001MA1999999099801MD1999999-0031REMSYN070AAXX  17184 82392 32499 20904 10351 20179 39980 40082 82100 333 59003;
0178823920999992009091800004-03700-040350FM-12+008399999V0200501N003112200019N0040001N1+02641+02051101081ADDGA1001+999999999GF100991001001999999001001KA1240M+03601MA1999999100061MD1999999-0101REMSYN082AAXX  18004 82392 32996 00506 10264 20205 30006 40108 333 10360 29059 55082 59010;
0156823920999992009091812004-03700-040350FM-12+008399999V0200901N003110450019N0500001N1+02741+02101101271ADDGF108991031051004501021999KA1240N+02201MA1999999100251MD1999999-0061REMSYN076AAXX  18124 82392 32499 80906 10274 20210 30025 40127 8352/ 333 20220 59006;
0137823920999992009091818004-03700-040350FM-12+008399999V0200901N002111050019N0500001N1+03371+01911100801ADDGF106991021011004501001021MA1999999099781MD1999999-0031REMSYN070AAXX  18184 82392 32499 60904 10337 20191 39978 40080 82102 333 59003;
0178823920999992009091900004-03700-040350FM-12+008399999V0200501N002612200019N0040001N1+02581+02121101141ADDGA1001+999999999GF100991001001999999001001KA1240M+03481MA1999999100121MD1999999+0061REMSYN082AAXX  19004 82392 32996 00505 10258 20212 30012 40114 333 10348 29066 55059 58006;
0156823920999992009091912004-03700-040350FM-12+008399999V0200501N003112200019N0500001N1+02901+02041101421ADDGF104991041021004501001001KA1240N+02401MA1999999100401MD1999999+0151REMSYN076AAXX  19124 82392 32499 40506 10290 20204 30040 40142 84200 333 20240 58015;
0137823920999992009091918004-03700-040350FM-12+008399999V0200501N004612200019N0500001N1+03681+01641100891ADDGF101991011011004501001001MA1999999099881MD1999999+0101REMSYN070AAXX  19184 82392 32499 10509 10368 20164 39988 40089 81100 333 58010;
0178823920999992009092000004-03700-040350FM-12+008399999V0200501N005112200019N0040001N1+02621+02161101271ADDGA1001+999999999GF100991001001999999001001KA1240M+03781MA1999999100251MD1999999+0131REMSYN082AAXX  20004 82392 32996 00510 10262 20216 30025 40127 333 10378 29060 55095 58013;
0201823920999992009092012004-03700-040350FM-12+008399999V0200901N002610042019N0500001N1+02831+02071101521ADDAA124000391AY101061AY221061GF107991051041004501031001KA1240N+02411MA1999999100491MD1999999+0091MW1211REMSYN088AAXX  20124 82392 21499 70905 10283 20207 30049 40152 72102 85430 333 20241 58009 69934;
0137823920999992009092018004-03700-040350FM-12+008399999V0200501N002112200019N0500001N1+03461+01691100961ADDGF103991031011004501001001MA1999999099951MD1999999+0071REMSYN070AAXX  20184 82392 32499 30504 10346 20169 39995 40096 83100 333 58007;
0178823920999992009092100004-03700-040350FM-12+008399999V0203601N000512200019N0040001N1+02631+01901101321ADDGA1001+999999999GF100991001001999999001001KA1240M+03561MA1999999100301MD1999999+0051REMSYN082AAXX  21004 82392 32996 03601 10263 20190 30030 40132 333 10356 29057 55081 58005;
0156823920999992009092112004-03700-040350FM-12+008399999V0200501N005712200019N0500001N1+02941+02001101351ADDGF101991011011004501001001KA1240N+02121MA1999999100331MD1999999-0161REMSYN076AAXX  21124 82392 32499 10511 10294 20200 30033 40135 81100 333 20212 59016;
0137823920999992009092118004-03700-040350FM-12+008399999V0200901N004612200019N0500001N1+03561+01681100861ADDGF101991011011004501001001MA1999999099851MD1999999-0101REMSYN070AAXX  21184 82392 32499 10909 10356 20168 39985 40086 81100 333 59010;
0178823920999992009092200004-03700-040350FM-12+008399999V0203601N003112200019N0040001N1+02621+02051101061ADDGA1001+999999999GF100991001001999999001001KA1240M+03641MA1999999100041MD1999999-0261REMSYN082AAXX  22004 82392 32996 03606 10262 20205 30004 40106 333 10364 29058 55103 59026;
0156823920999992009092212004-03700-040350FM-12+008399999V0200901N001010450019N0500001N1+02761+01971101171ADDGF106991031041004501031001KA1240N+02011MA1999999100151MD1999999-0181REMSYN076AAXX  22124 82392 32499 60902 10276 20197 30015 40117 83430 333 20201 59018;
0137823920999992009092218004-03700-040350FM-12+008399999V0200501N002612200019N0500001N1+03611+01691100631ADDGF103991031011004501001001MA1999999099691MD1999999-0221REMSYN070AAXX  22184 82392 32499 30505 10361 20169 39969 40063 83100 333 59022;
0178823920999992009092300004-03700-040350FM-12+008399999V0203601N001012200019N0040001N1+02621+01931101031ADDGA1001+999999999GF100991001001999999001001KA1240M+03691MA1999999100011MD1999999-0031REMSYN082AAXX  23004 82392 32996 03602 10262 20193 30001 40103 333 10369 29057 55098 59003;
0156823920999992009092312004-03700-040350FM-12+008399999V0201401N002112200019N0500001N1+02941+02001101221ADDGF102991021011004501001001KA1240N+02101MA1999999100201MD1999999-0051REMSYN076AAXX  23124 82392 32499 21404 10294 20200 30020 40122 82100 333 20210 59005;
0137823920999992009092318004-03700-040350FM-12+008399999V0200901N003112200019N0500001N1+03641+01441100711ADDGF102991021011004501001001MA1999999099701MD1999999+0071REMSYN070AAXX  23184 82392 32499 20906 10364 20144 39970 40071 82100 333 58007;
0178823920999992009092400004-03700-040350FM-12+008399999V0203601N001012200019N0040001N1+02661+01951101061ADDGA1001+999999999GF100991001001999999001001KA1240M+03711MA1999999100041MD1999999+0031REMSYN082AAXX  24004 82392 32996 03602 10266 20195 30004 40106 333 10371 29054 55104 58003;
0156823920999992009092412004-03700-040350FM-12+008399999V0200901N001010042019N0500001N1+02841+01961101301ADDGF106991061041004501001001KA1240N+02041MA1999999100281MD1999999+0081REMSYN076AAXX  24124 82392 32499 60902 10284 20196 30028 40130 86400 333 20204 58008;
0137823920999992009092418004-03700-040350FM-12+008399999V0201801N000512200019N0500001N1+03541+01711100781ADDGF104991041011004501001001MA1999999099771MD1999999+0071REMSYN070AAXX  24184 82392 32499 41801 10354 20171 39977 40078 84100 333 58007;
0178823920999992009092500004-03700-040350FM-12+008399999V0200501N005112200019N0040001N1+02601+02031101121ADDGA1001+999999999GF100991001001999999001001KA1240M+03681MA1999999100101MD1999999-0091REMSYN082AAXX  25004 82392 32996 00510 10260 20203 30010 40112 333 10368 29059 55097 59009;
0178823920999992009092600004-03700-040350FM-12+008399999V0200501N003612200019N0040001N1+02621+02161101121ADDGA1001+999999999GF100991001001999999001001KA1240M+03681MA1999999100101MD1999999+0001REMSYN082AAXX  26004 82392 32996 00507 10262 20216 30010 40112 333 10368 29062 55101 58000;
0156823920999992009092612004-03700-040350FM-12+008399999V0200901N002610042019N0500001N1+02811+01941101491ADDGF107991061041004501031001KA1240N+02281MA1999999100461MD1999999+0161REMSYN076AAXX  26124 82392 32499 70905 10281 20194 30046 40149 86430 333 20228 58016;
0137823920999992009092618004-03700-040350FM-12+008399999V0200901N003112200019N0500001N1+03511+01651100801ADDGF104991041011004501001001MA1999999099791MD1999999+0071REMSYN070AAXX  26184 82392 32499 40906 10351 20165 39979 40080 84100 333 58007;
0178823920999992009092700004-03700-040350FM-12+008399999V0200501N002112200019N0040001N1+02611+01911101191ADDGA1001+999999999GF100991001001999999001001KA1240M+03231MA1999999100171MD1999999+0071REMSYN082AAXX  27004 82392 32996 00504 10261 20191 30017 40119 333 10323 29056 55065 58007;
0156823920999992009092712004-03700-040350FM-12+008399999V0200901N005112200019N0500001N1+02921+02011101371ADDGF104991041021004501001001KA1240N+02001MA1999999100351MD1999999-0111REMSYN076AAXX  27124 82392 32499 40910 10292 20201 30035 40137 84200 333 20200 59011;
0137823920999992009092718004-03700-040350FM-12+008399999V0200901N005710450019N0500001N1+03561+01591100891ADDGF105991041021004501031001MA1999999099881MD1999999+0091REMSYN070AAXX  27184 82392 32499 50911 10356 20159 39988 40089 84230 333 58009;
0178823920999992009092800004-03700-040350FM-12+008399999V0200501N004112200019N0040001N1+02641+01911101271ADDGA1001+999999999GF100991001001999999001001KA1240M+03641MA1999999100251MD1999999+0081REMSYN082AAXX  28004 82392 32996 00508 10264 20191 30025 40127 333 10364 29055 55107 58008;
0156823920999992009092812004-03700-040350FM-12+008399999V0201401N003112200019N0500001N1+03061+01991101451ADDGF102991021011004501001001KA1240N+02181MA1999999100441MD1999999+0091REMSYN076AAXX  28124 82392 32499 21406 10306 20199 30044 40145 82100 333 20218 58009;
0137823920999992009092818004-03700-040350FM-12+008399999V0201401N002112200019N0500001N1+03521+01651100951ADDGF104991041021004501001001MA1999999099941MD1999999+0061REMSYN070AAXX  28184 82392 32499 41404 10352 20165 39994 40095 84200 333 58006;
0178823920999992009092900004-03700-040350FM-12+008399999V0203601N002112200019N0040001N1+02751+02021101221ADDGA1001+999999999GF100991001001999999001001KA1240M+03621MA1999999100211MD1999999-0041REMSYN082AAXX  29004 82392 32496 03604 10275 20202 30021 40122 333 10362 29054 55109 59004;
0156823920999992009092912004-03700-040350FM-12+008399999V0200901N005112200019N0500001N1+03081+02011101411ADDGF102991021011004501001001KA1240N+02091MA1999999100401MD1999999-0041REMSYN076AAXX  29124 82392 32499 20910 10308 20201 30040 40141 82100 333 20209 59004;
0137823920999992009092918004-03700-040350FM-12+008399999V0200901N001512200019N0500001N1+03601+01861100871ADDGF104991041021004501001001MA1999999099861MD1999999-0081REMSYN070AAXX  29184 82392 32499 40903 10360 20186 39986 40087 84200 333 59008;
0178823920999992009093000004-03700-040350FM-12+008399999V0203601N002112200019N0040001N1+02721+02031101271ADDGA1001+999999999GF100991001001999999001001KA1240M+03701MA1999999100261MD1999999+0051REMSYN082AAXX  30004 82392 32996 03604 10272 20203 30026 40127 333 10370 29055 55109 58005;
0156823920999992009093012004-03700-040350FM-12+008399999V0200501N005112200019N0500001N1+03081+01951101461ADDGF101991011011004501001001KA1240N+02101MA1999999100451MD1999999+0051REMSYN076AAXX  30124 82392 32499 10510 10308 20195 30045 40146 81100 333 20210 58005;
0137823920999992009093018004-03700-040350FM-12+008399999V0200901N004612200019N0500001N1+03701+01311100911ADDGF101991011011004501001001MA1999999099901MD1999999+0041REMSYN070AAXX  30184 82392 32499 10909 10370 20131 39990 40091 81100 333 58004;
0178823920999992009100100004-03700-040350FM-12+008399999V0203601N004112200019N0040001N1+02641+01831101281ADDGA1001+999999999GF100991001001999999001001KA1240M+03801MA1999999100271MD1999999+0011REMSYN082AAXX  01004 82392 32996 03608 10264 20183 30027 40128 333 10380 29049 55108 58001;
0156823920999992009100112004-03700-040350FM-12+008399999V0200901N001512200019N0500001N1+02981+01891101541ADDGF102991021011004501001001KA1240N+02061MA1999999100511MD1999999+0061REMSYN076AAXX  01124 82392 32499 20903 10298 20189 30051 40154 82100 333 20206 58006;
0137823920999992009100118004-03700-040350FM-12+008399999V0200901N000512200019N0500001N1+03591+01771100881ADDGF102991021011004501001001MA1999999099871MD1999999-0031REMSYN070AAXX  01184 82392 32499 20901 10359 20177 39987 40088 82100 333 59003;
0178823920999992009100200004-03700-040350FM-12+008399999V0200501N005112200019N0040001N1+02681+01941101271ADDGA1001+999999999GF100991001001999999001001KA1240M+03701MA1999999100251MD1999999-0021REMSYN082AAXX  02004 82392 32996 00510 10268 20194 30025 40127 333 10370 29054 55105 59002;
0137823920999992009100218004-03700-040350FM-12+008399999V0201401N001512200019N0500001N1+03561+01731100821ADDGF104991041021004501001001MA1999999099811MD1999999-0061REMSYN070AAXX  02184 82392 32499 41403 10356 20173 39981 40082 84200 333 59006;
0178823920999992009100300004-03700-040350FM-12+008399999V0200501N004112200019N0040001N1+02621+02031101221ADDGA1001+999999999GF100991001001999999001001KA1240M+03661MA1999999100201MD1999999-0051REMSYN082AAXX  03004 82392 32996 00508 10262 20203 30020 40122 333 10366 29058 55108 59005;
0156823920999992009100312004-03700-040350FM-12+008399999V0200501N005112200019N0500001N1+02961+01991101401ADDGF102991021011004501001001KA1240N+02191MA1999999100381MD1999999+0021REMSYN076AAXX  03124 82392 32499 20510 10296 20199 30038 40140 82100 333 20219 58002;
0137823920999992009100318004-03700-040350FM-12+008399999V0200901N003112200019N0500001N1+03721+01451100861ADDGF101991011011004501001001MA1999999099851MD1999999+0041REMSYN070AAXX  03184 82392 32499 10906 10372 20145 39985 40086 81100 333 58004;
0178823920999992009100400004-03700-040350FM-12+008399999V0200501N005712200019N0040001N1+02581+02101101171ADDGA1001+999999999GF100991001001999999001001KA1240M+03781MA1999999100151MD1999999-0051REMSYN082AAXX  04004 82392 32996 00511 10258 20210 30015 40117 333 10378 29058 55104 59005;
0156823920999992009100412004-03700-040350FM-12+008399999V0201401N000512200019N0500001N1+02921+01921101281ADDGF104991041021004501001001KA1240N+02231MA1999999100261MD1999999-0121REMSYN076AAXX  04124 82392 32499 41401 10292 20192 30026 40128 84200 333 20223 59012;
0137823920999992009100418004-03700-040350FM-12+008399999V0201801N002610450019N0500001N1+03741+01641100641ADDGF105991031011004501011001MA1999999099641MD1999999-0211REMSYN070AAXX  04184 82392 32499 51805 10374 20164 39964 40064 83110 333 59021;
0168823920999992009100500004-03700-040350FM-12+008399999V0200501N002612200019N0040001N1+02551+02061101141ADDGF101991011001008001011001KA1240M+03771MA1999999100121MD1999999-0031REMSYN088AAXX  05004 82392 32596 10505 10255 20206 30012 40114 81010 333 10377 29058 55091 59003;
0156823920999992009100512004-03700-040350FM-12+008399999V0200901N002112200019N0500001N1+02861+01921101321ADDGF101991011011004501001001KA1240N+02181MA1999999100301MD1999999+0041REMSYN076AAXX  05124 82392 32499 10904 10286 20192 30030 40132 81100 333 20218 58004;
0137823920999992009100518004-03700-040350FM-12+008399999V0200901N004112200019N0500001N1+03541+01521100861ADDGF104991041021004501001001MA1999999100851MD1999999+0211REMSYN070AAXX  05184 82392 32499 40908 10354 20152 30085 40086 84200 333 58021;
0178823920999992009100600004-03700-040350FM-12+008399999V0200601N003112200019N0040001N1+02611+02011101251ADDGA1001+999999999GF100991001001999999001001KA1240M+03601MA1999999100231MD1999999+0111REMSYN082AAXX  06004 82392 32996 00606 10261 20201 30023 40125 333 10360 29056 55094 58011;
0156823920999992009100612004-03700-040350FM-12+008399999V0200901N004610450019N0500001N1+02821+01941101421ADDGF106991041041004501031001KA1240N+02201MA1999999100401MD1999999+0101REMSYN076AAXX  06124 82392 32499 60909 10282 20194 30040 40142 84430 333 20220 58010;
0137823920999992009100618004-03700-040350FM-12+008399999V0200501N002112200019N0500001N1+03571+01651100871ADDGF104991031021004501001011MA1999999099861MD1999999+0011REMSYN070AAXX  06184 82392 32499 40504 10357 20165 39986 40087 83201 333 58001;
0178823920999992009100700004-03700-040350FM-12+008399999V0200501N002612200019N0040001N1+02641+02051101271ADDGA1001+999999999GF100991001001999999001001KA1240M+03681MA1999999100251MD1999999+0021REMSYN082AAXX  07004 82392 32996 00505 10264 20205 30025 40127 333 10368 29058 55093 58002;
0156823920999992009100712004-03700-040350FM-12+008399999V0200901N005112200019N0500001N1+02861+01981101371ADDGF103991031021004501001001KA1240N+02101MA1999999100351MD1999999-0051REMSYN076AAXX  07124 82392 32499 30910 10286 20198 30035 40137 83200 333 20210 59005;
0137823920999992009100718004-03700-040350FM-12+008399999V0200501N005112200019N0500001N1+03601+01521100931ADDGF102991021011004501001001MA1999999099921MD1999999+0061REMSYN070AAXX  07184 82392 32499 20510 10360 20152 39992 40093 82100 333 58006;
0178823920999992009100800004-03700-040350FM-12+008399999V0203601N003112200019N0040001N1+02591+02031101291ADDGA1001+999999999GF100991001001999999001001KA1240M+03701MA1999999100271MD1999999+0021REMSYN082AAXX  08004 82392 32996 03606 10259 20203 30027 40129 333 10370 29058 55106 58002;
0156823920999992009100812004-03700-040350FM-12+008399999V0200901N003112200019N0500001N1+02881+01861101461ADDGF104991041021004501001001KA1240N+02171MA1999999100441MD1999999+0091REMSYN076AAXX  08124 82392 32499 40906 10288 20186 30044 40146 84200 333 20217 58009;
0137823920999992009100818004-03700-040350FM-12+008399999V0201801N000512200019N0500001N1+03641+01701100781ADDGF104991041021004501001001MA1999999099771MD1999999-0151REMSYN070AAXX  08184 82392 32499 41801 10364 20170 39977 40078 84200 333 59015;
0178823920999992009100900004-03700-040350FM-12+008399999V0200501N002112200019N0040001N1+02601+02171101171ADDGA1001+999999999GF100991001001999999001001KA1240M+03721MA1999999100151MD1999999-0121REMSYN082AAXX  09004 82392 32996 00504 10260 20217 30015 40117 333 10372 29018 55060 59012;
0156823920999992009100912004-03700-040350FM-12+008399999V0200901N002112200019N0500001N1+02821+01771101251ADDGF102991021011004501001001KA1240N+02001MA1999999100231MD1999999-0211REMSYN076AAXX  09124 82392 32499 20904 10282 20177 30023 40125 82100 333 20200 59021;
0137823920999992009100918004-03700-040350FM-12+008399999V0200501N001512200019N0500001N1+03541+01711100701ADDGF104991041021004501001001MA1999999099691MD1999999-0081REMSYN070AAXX  09184 82392 32499 40503 10354 20171 39969 40070 84200 333 59008;
0168823920999992009101000004-03700-040350FM-12+008399999V0200501N004112200019N0040001N1+02601+02031101151ADDGF104991041021004501001001KA1240M+03741MA1999999100131MD1999999-0021REMSYN088AAXX  10004 82392 32496 40508 10260 20203 30013 40115 84200 333 10374 29057 55105 59002;
0156823920999992009101012004-03700-040350FM-12+008399999V0200901N000510042019N0500001N1+02841+01961101271ADDGF106991051021004501031001KA1240N+02211MA1999999100251MD1999999+0021REMSYN076AAXX  10124 82392 32499 60901 10284 20196 30025 40127 85230 333 20221 58002;
0137823920999992009101018004-03700-040350FM-12+008399999V0200901N000510042019N0500001N1+03361+01891100731ADDGF106991051021004501031001MA1999999099721MD1999999+0031REMSYN070AAXX  10184 82392 32499 60901 10336 20189 39972 40073 85230 333 58003;
0178823920999992009101100004-03700-040350FM-12+008399999V0200501N002612200019N0040001N1+02571+02081101001ADDGA1001+999999999GF100991001001999999001001KA1240M+03461MA1999999099981MD1999999-0151REMSYN082AAXX  11004 82392 32996 00505 10257 20208 39998 40100 333 10346 29053 55056 59015;
0156823920999992009101112004-03700-040350FM-12+008399999V0200501N003110450019N0500001N1+02741+02101101191ADDGF106991041021004501031001KA1240N+02301MA1999999100171MD1999999-0081REMSYN076AAXX  11124 82392 32499 60506 10274 20210 30017 40119 84230 333 20230 59008;
0137823920999992009101118004-03700-040350FM-12+008399999V0203601N002612200019N0500001N1+03381+01791100811ADDGF102991021011004501001001MA1999999099801MD1999999+0081REMSYN070AAXX  11184 82392 32499 23605 10338 20179 39980 40081 82100 333 58008;
0178823920999992009101200004-03700-040350FM-12+008399999V0200501N003112200019N0040001N1+02601+02031101051ADDGA1001+999999999GF100991001001999999001001KA1240M+03481MA1999999100031MD1999999+0051REMSYN082AAXX  12004 82392 32996 00506 10260 20203 30003 40105 333 10348 29062 55075 58005;
0156823920999992009101212004-03700-040350FM-12+008399999V0200501N002112200019N0500001N1+02841+01931101261ADDGF104991041021004501031001KA1240N+02101MA1999999100241MD1999999+0071REMSYN076AAXX  12124 82392 32499 40504 10284 20193 30024 40126 84230 333 20210 58007;
0137823920999992009101218004-03700-040350FM-12+008399999V0200501N004112200019N0500001N1+03561+01531100661ADDGF102991021011004501001001MA1999999099651MD1999999-0151REMSYN070AAXX  12184 82392 32499 20508 10356 20153 39965 40066 82100 333 59015;
0178823920999992009101300004-03700-040350FM-12+008399999V0200501N003112200019N0040001N1+02551+02171101001ADDGA1001+999999999GF100991001001999999001001KA1240M+03661MA1999999099981MD1999999-0051REMSYN082AAXX  13004 82392 32996 00506 10255 20217 39998 40100 333 10366 29062 55097 59005;
0156823920999992009101312004-03700-040350FM-12+008399999V0203601N001010450019N0500001N1+02661+02021101251ADDGF107991031051004501031001KA1240N+02001MA1999999100231MD1999999-0011REMSYN076AAXX  13124 82392 32499 73602 10266 20202 30023 40125 83530 333 20200 59001;
0137823920999992009101318004-03700-040350FM-12+008399999V0203601N000512200019N0500001N1+03401+01611100671ADDGF104991041021004501001001MA1999999099651MD1999999+0001REMSYN070AAXX  13184 82392 32499 43601 10340 20161 39965 40067 84200 333 58000;
0178823920999992009101400004-03700-040350FM-12+008399999V0203601N001012200019N0040001N1+02611+01881101011ADDGA1001+999999999GF100991001001999999001001KA1240M+03541MA1999999099991MD1999999+0011REMSYN082AAXX  14004 82392 32996 03602 10261 20188 39999 40101 333 10354 29059 55075 58001;
0156823920999992009101412004-03700-040350FM-12+008399999V0200501N004612200019N0500001N1+02861+02011101041ADDGF104991041021004501001001KA1240N+02081MA1999999100021MD1999999-0211REMSYN076AAXX  14124 82392 32499 40509 10286 20201 30002 40104 84200 333 20208 59021;
0137823920999992009101418004-03700-040350FM-12+008399999V0200501N005112200019N0500001N1+03661+01401100501ADDGF101991011011004501001001MA1999999099501MD1999999-0151REMSYN070AAXX  14184 82392 32499 10510 10366 20140 39950 40050 81100 333 59015;
0178823920999992009101500004-03700-040350FM-12+008399999V0200501N001512200019N0040001N1+02591+01891100971ADDGA1001+999999999GF100991001001999999001001KA1240M+03731MA1999999099951MD1999999-0041REMSYN082AAXX  15004 82392 32996 00503 10259 20189 39995 40097 333 10373 29054 55103 59004;
0156823920999992009101512004-03700-040350FM-12+008399999V0200901N002110042019N0500001N1+02931+02031101041ADDGF106991061021004501001001KA1240N+02221MA1999999100021MD1999999+0001REMSYN076AAXX  15124 82392 32499 60904 10293 20203 30002 40104 86200 333 20222 58000;
0137823920999992009101518004-03700-040350FM-12+008399999V0200901N004110042019N0500001N1+03671+01641100461ADDGF106991051021004501011001MA1999999099461MD1999999-0041REMSYN070AAXX  15184 82392 32499 60908 10367 20164 39946 40046 85210 333 59004;
0178823920999992009101600004-03700-040350FM-12+008399999V0200501N005112200019N0040001N1+02721+02101100921ADDGA1001+999999999GF100991001001999999001001KA1240M+03721MA1999999099901MD1999999-0051REMSYN082AAXX  16004 82392 32996 00510 10272 20210 39990 40092 333 10372 29056 55103 59005;
0156823920999992009101612004-03700-040350FM-12+008399999V0201401N002612200019N0500001N1+02941+02001101261ADDGF103991021011004501001011KA1240N+02001MA1999999100241MD1999999+0221REMSYN076AAXX  16124 82392 32499 31405 10294 20200 30024 40126 82101 333 20200 58022;
0137823920999992009101618004-03700-040350FM-12+008399999V0201401N000512200019N0500001N1+03591+01571100701ADDGF103991031011004501001001MA1999999099681MD1999999+0221REMSYN070AAXX  16184 82392 32499 31401 10359 20157 39968 40070 83100 333 58022;
0178823920999992009101700004-03700-040350FM-12+008399999V0203601N001012200019N0040001N1+02671+01731100991ADDGA1001+999999999GF100991001001999999001001KA1240M+03721MA1999999099971MD1999999+0071REMSYN082AAXX  17004 82392 32996 03602 10267 20173 39997 40099 333 10372 29050 55110 58007;
0156823920999992009101712004-03700-040350FM-12+008399999V0201401N000510042019N0500001N1+02771+02061101271ADDGF107991051041004501031001KA1240N+02011MA1999999100251MD1999999+0011REMSYN076AAXX  17124 82392 32499 71401 10277 20206 30025 40127 85430 333 20201 58001;
0178823920999992009101800004-03700-040350FM-12+008399999V0203601N002612200019N0040001N1+02631+02181101071ADDGA1001+999999999GF100991001001999999001001KA1240M+03751MA1999999100051MD1999999+0081REMSYN082AAXX  18004 82392 32996 03605 10263 20218 30005 40107 333 10375 29072 55085 58008;
0156823920999992009101812004-03700-040350FM-12+008399999V0200901N002110450019N0500001N1+03031+02091101141ADDGF106991041041004501031001KA1240N+02471MA1999999100121MD1999999-0131REMSYN076AAXX  18124 82392 32499 60904 10303 20209 30012 40114 84430 333 20247 59013;
0156823920999992009101912004-03700-040350FM-12+008399999V0201401N001510042019N0500001N1+02731+01971101211ADDGF108991081041004501999999KA1240N+02171MA1999999100191MD1999999+0071REMSYN076AAXX  19124 82392 32499 81403 10273 20197 30019 40121 884// 333 20217 58007;
0136823920999992009102000004-03700-040350FM-12+008399999V0200501N001512200019N0040001N1+02591+01891999999ADDGA1001+999999999GF100991001001999999001001REMSYN082AAXX  20004 82392 32996 00503 10259 20189 10366 39995 40097 333 29064 55079 58009;
0156823920999992009102012004-03700-040350FM-12+008399999V0200501N000512200019N0500001N1+02791+02001101191ADDGF104991041021004501001001KA1240N+01991MA1999999100171MD1999999-0021REMSYN076AAXX  20124 82392 32499 40501 10279 20200 30017 40119 84200 333 20199 59002;
0178823920999992009102100004-03700-040350FM-12+008399999V0203601N004112200019N0040001N1+02541+01981101031ADDGA1001+999999999GF100991001001999999001001KA1240M+03741MA1999999100011MD1999999+0061REMSYN082AAXX  21004 82392 32996 03608 10254 20198 30001 40103 333 10374 29068 55088 58006;
0156823920999992009102112004-03700-040350FM-12+008399999V0200501N001510042019N0500001N1+02751+01891101231ADDGF105991051021004501001001KA1240N+01981MA1999999100211MD1999999+0041REMSYN076AAXX  21124 82392 32499 50503 10275 20189 30021 40123 85200 333 20198 58004;
0178823920999992009102200004-03700-040350FM-12+008399999V0203601N003112200019N0040001N1+02531+02041100991ADDGA1001+999999999GF100991001001999999001001KA1240M+03771MA1999999099971MD1999999-0041REMSYN082AAXX  22004 82392 32996 03606 10253 20204 39997 40099 333 10377 29069 55106 59004;
0156823920999992009102212004-03700-040350FM-12+008399999V0200901N002110042019N0500001N1+02781+01911101031ADDGF107991051041004501031001KA1240N+02071MA1999999100021MD1999999-0191REMSYN076AAXX  22124 82392 32499 70904 10278 20191 30002 40103 85430 333 20207 59019;
0178823920999992009102300004-03700-040350FM-12+008399999V0203601N002612200019N0040001N1+02571+02011101051ADDGA1001+999999999GF100991001001999999001001KA1240M+03831MA1999999100031MD1999999+0061REMSYN082AAXX  23004 82392 32996 03605 10257 20201 30003 40105 333 10383 29067 55083 58006;
0156823920999992009102312004-03700-040350FM-12+008399999V0203601N000510042019N0500001N1+02781+01951101221ADDGF107991061041004501031001KA1240N+02271MA1999999100201MD1999999+0181REMSYN076AAXX  23124 82392 32499 73601 10278 20195 30020 40122 86430 333 20227 58018;
0178823920999992009102400004-03700-040350FM-12+008399999V0203601N002612200019N0040001N1+02631+02001101041ADDGA1001+999999999GF100991001001999999001001KA1240M+03521MA1999999100021MD1999999-0011REMSYN082AAXX  24004 82392 32996 03605 10263 20200 30002 40104 333 10352 29066 55048 59001;
0156823920999992009102412004-03700-040350FM-12+008399999V0200501N002110042019N0500001N1+02921+01921101141ADDGF106991051021004501031001KA1240N+02221MA1999999100121MD1999999-0081REMSYN076AAXX  24124 82392 32499 60504 10292 20192 30012 40114 85230 333 20222 59008;
0178823920999992009102500004-03700-040350FM-12+008399999V0203601N002612200019N0040001N1+02661+02111101011ADDGA1001+999999999GF100991001001999999001001KA1240M+03761MA1999999099991MD1999999-0031REMSYN082AAXX  25004 82392 32996 03605 10266 20211 39999 40101 333 10376 29066 55111 59003;
0156823920999992009102612004-03700-040350FM-12+008399999V0200501N003110450019N0500001N1+02981+02031101121ADDGF107991041041004501031001KA1240N+02301MA1999999100101MD1999999+0011REMSYN076AAXX  26124 82392 32499 70506 10298 20203 30010 40112 84430 333 20230 58001;
0137823920999992009102618004-03700-040350FM-12+008399999V0200501N004110042019N0500001N1+03261+01721100761ADDGF107991051041004501031001MA1999999099751MD1999999+0081REMSYN070AAXX  26184 82392 32499 70508 10326 20172 39975 40076 85430 333 58008;
0168823920999992009102700004-03700-040350FM-12+008399999V0203601N001512200019N0040001N1+02621+02121101071ADDGF104991041001008001031001KA1240M+03821MA1999999100051MD1999999+0101REMSYN088AAXX  27004 82392 32596 43603 10262 20212 30005 40107 84030 333 10382 29062 55012 58010;
0156823920999992009102712004-03700-040350FM-12+008399999V0200501N004610450019N0500001N1+02961+02071101121ADDGF106991041021004501031001KA1240N+02281MA1999999100101MD1999999+0001REMSYN076AAXX  27124 82392 32499 60509 10296 20207 30010 40112 84230 333 20228 58000;
0156823920999992009102718004-03700-040350FM-12+008399999V0200501N002110075019N0500001N1+03291+01711100691ADDGF107991999041008001001001MA1999999099681MD1999999-0071REMSYN070AAXX  27184 82392 32599 70504 10329 20171 39968 40069 85400 333 59007;EQDQ01+000052SCOTLC
0178823920999992009102800004-03700-040350FM-12+008399999V0200501N002112200019N0040001N1+02581+02011100981ADDGA1001+999999999GF100991001001999999001001KA1240M+03471MA1999999099961MD1999999-0091REMSYN082AAXX  28004 82392 32996 00504 10258 20201 39996 40098 333 10347 29062 55076 59009;
0156823920999992009102812004-03700-040350FM-12+008399999V0200901N003110450019N0500001N1+02801+02001101181ADDGF108991031051004501021999KA1240N+02181MA1999999100161MD1999999+0061REMSYN076AAXX  28124 82392 32499 80906 10280 20200 30016 40118 8352/ 333 20218 58006;
0137823920999992009102818004-03700-040350FM-12+008399999V0200501N003112200019N0500001N1+03521+01791100601ADDGF104991041021004501001001MA1999999099601MD1999999-0081REMSYN070AAXX  28184 82392 32499 40506 10352 20179 39960 40060 84200 333 59008;
0156823920999992009102912004-03700-040350FM-12+008399999V0200501N000510042019N0500001N1+02761+01971101131ADDGF107991061051004501031001KA1240N+01941MA1999999090111MD1999999-0051REMSYN076AAXX  29124 82392 32499 70501 10276 20197 39011 40113 86530 333 20194 59005;
0156823920999992009102918004-03700-040350FM-12+008399999V0200501N001012200019N0500001N1+03491+01631100551ADDGF104991041021004501001001MA1999999099542MD1999999-0061REMSYN070AAXX  29184 82392 32499 40502 10349 20163 39954 40055 84200 333 59006;EQDQ01+099543APOSP 
0156823920999992009103012004-03700-040350FM-12+008399999V0200501N002110042019N0500001N1+02821+02001100971ADDGF105991051011004501001001KA1240N+02121MA1999999099951MD1999999-0161REMSYN076AAXX  30124 82392 32499 50504 10282 20200 39995 40097 85100 333 20212 59016;
0137823920999992009103018004-03700-040350FM-12+008399999V0200501N001510450019N0500001N1+03561+01781100381ADDGF106991031021004501011001MA1999999099381MD1999999-0161REMSYN070AAXX  30184 82392 32499 60503 10356 20178 39938 40038 83210 333 59016;
0178823920999992009103100004-03700-040350FM-12+008399999V0200501N004612200019N0040001N1+02621+02051100821ADDGA1001+999999999GF100991001001999999001001KA1240M+03681MA1999999099801MD1999999-0021REMSYN082AAXX  31004 82392 32996 00509 10262 20205 39980 40082 333 10368 29060 55089 59002;
0156823920999992009103112004-03700-040350FM-12+008399999V0200901N003110042019N0500001N1+02881+02031101101ADDGF106991061021004501001001KA1240N+01901MA1999999100081MD1999999+0131REMSYN076AAXX  31124 82392 32499 60906 10288 20203 30008 40110 86200 333 20190 58013;
0137823920999992009103118004-03700-040350FM-12+008399999V0200501N005112200019N0500001N1+03681+01411100441ADDGF103991031011004501001001MA1999999099441MD1999999+0051REMSYN070AAXX  31184 82392 32499 30510 10368 20141 39944 40044 83100 333 58005;
0178823920999992009110100004-03700-040350FM-12+008399999V0200501N005712200019N0040001N1+02641+02031100721ADDGA1001+999999999GF100991001001999999001001KA1240M+03741MA1999999099701MD1999999-0101REMSYN082AAXX  01004 82392 32996 00511 10264 20203 39970 40072 333 10374 29056 55105 59010;
0156823920999992009110112004-03700-040350FM-12+008399999V0200501N001010042019N0500001N1+02931+02211101031ADDGF107991051021004501031001KA1240N+02181MA1999999100011MD1999999-0071REMSYN076AAXX  01124 82392 32499 70502 10293 20221 30001 40103 85230 333 20218 59007;
0137823920999992009110118004-03700-040350FM-12+008399999V0203601N003112200019N0500001N1+03671+01691100471ADDGF104991031021004501011001MA1999999099471MD1999999+0041REMSYN070AAXX  01184 82392 32499 43606 10367 20169 39947 40047 83210 333 58004;
0168823920999992009110200004-03700-040350FM-12+008399999V0203601N002612200019N0040001N1+02611+02071100961ADDGF102991021001008001011001KA1240M+03741MA1999999099941MD1999999+0241REMSYN088AAXX  02004 82392 32596 23605 10261 20207 39994 40096 82010 333 10374 29058 55096 58024;
0156823920999992009110212004-03700-040350FM-12+008399999V0200901N005112200019N0500001N1+03001+02001101131ADDGF101991011011004501001001KA1240N+02071MA1999999100111MD1999999+0101REMSYN076AAXX  02124 82392 32499 10910 10300 20200 30011 40113 81100 333 20207 58010;
0137823920999992009110218004-03700-040350FM-12+008399999V0200901N004112200019N0500001N1+03721+01451100521ADDGF102991021011004501001001MA1999999099521MD1999999+0051REMSYN070AAXX  02184 82392 32499 20908 10372 20145 39952 40052 82100 333 58005;
0168823920999992009110300004-03700-040350FM-12+008399999V0203601N001512200019N0040001N1+02651+01971101001ADDGF102991021001008001011001KA1240M+03791MA1999999099981MD1999999+0041REMSYN088AAXX  03004 82392 32596 23603 10265 20197 39998 40100 82010 333 10379 29053 55106 58004;
0156823920999992009110312004-03700-040350FM-12+008399999V0201401N004110450019N0500001N1+02781+02191101101ADDGF108991041051004501021999KA1240N+02201MA1999999100081MD1999999-0031REMSYN076AAXX  03124 82392 32499 81408 10278 20219 30008 40110 8452/ 333 20220 59003;
0137823920999992009110318004-03700-040350FM-12+008399999V0200901N000510450019N0500001N1+03481+01711100621ADDGF105991031021004501031001MA1999999099611MD1999999+0091REMSYN070AAXX  03184 82392 32499 50901 10348 20171 39961 40062 83230 333 58009;
0178823920999992009110400004-03700-040350FM-12+008399999V0203601N003112200019N0040001N1+02631+01981100971ADDGA1001+999999999GF100991001001999999001001KA1240M+03601MA1999999099951MD1999999-0031REMSYN082AAXX  04004 82392 32996 03606 10263 20198 39995 40097 333 10360 29060 55074 59003;
0156823920999992009110412004-03700-040350FM-12+008399999V0200501N005112200019N0500001N1+02961+02021101141ADDGF102991011011004501001011KA1240N+02001MA1999999100121MD1999999+0041REMSYN076AAXX  04124 82392 32499 20510 10296 20202 30012 40114 81101 333 20200 58004;
0137823920999992009110418004-03700-040350FM-12+008399999V0200501N003112200019N0500001N1+03621+01591100711ADDGF102991021011004501001001MA1999999099701MD1999999+0091REMSYN070AAXX  04184 82392 32499 20506 10362 20159 39970 40071 82100 333 58009;
0168823920999992009110500004-03700-040350FM-12+008399999V0203601N001512200019N0040001N1+02661+02091101121ADDGF101991011001008001011001KA1240M+03691MA1999999100101MD1999999+0151REMSYN088AAXX  05004 82392 32596 13603 10266 20209 30010 40112 81010 333 10369 29057 55108 58015;
0175823920999992009110512004-03700-040350FM-12+008399999V0200901N005110042019N0500001N1+03061+02221101341ADDGF106991999021004501001001KA1240N+02171MA1999999100321MD1999999+0201REMSYN076AAXX  05124 82392 32499 60910 10306 20222 30032 40134 85200 333 20217 58020;EQDQ01+000052SCOTLC
0137823920999992009110518004-03700-040350FM-12+008399999V0200901N003111050019N0500001N1+03691+01601100791ADDGF105991031021004501001021MA1999999099781MD1999999+0081REMSYN070AAXX  05184 82392 32499 50906 10369 20160 39978 40079 83202 333 58008;
0178823920999992009110600004-03700-040350FM-12+008399999V0200501N004612200019N0040001N1+02761+02071101071ADDGA1001+999999999GF100991001001999999001001KA1240M+03781MA1999999100061MD1999999-0041REMSYN082AAXX  06004 82392 32996 00509 10276 20207 30006 40107 333 10378 29056 55082 59004;
0156823920999992009110612004-03700-040350FM-12+008399999V0200901N004110042019N0500001N1+02981+02061101131ADDGF105991051021004501001001KA1240N+02121MA1999999100121MD1999999-0201REMSYN076AAXX  06124 82392 32499 50908 10298 20206 30012 40113 85200 333 20212 59020;
0137823920999992009110618004-03700-040350FM-12+008399999V0200901N001012200019N0500001N1+03641+01551100571ADDGF104991021011004501001011MA1999999099571MD1999999-0211REMSYN070AAXX  06184 82392 32499 40902 10364 20155 39957 40057 82101 333 59021;
0178823920999992009110700004-03700-040350FM-12+008399999V0200501N004612200019N0040001N1+02701+02131100921ADDGA1001+999999999GF100991001001999999001001KA1240M+03761MA1999999099901MD1999999-0161REMSYN082AAXX  07004 82392 32996 00509 10270 20213 39990 40092 333 10376 29057 55106 59016;
0156823920999992009110712004-03700-040350FM-12+008399999V0200501N005110042019N0500001N1+03081+01921101041ADDGF106991061021004501001001KA1240N+02451MA1999999100031MD1999999-0091REMSYN076AAXX  07124 82392 32499 60510 10308 20192 30003 40104 86200 333 20245 59009;
0137823920999992009110718004-03700-040350FM-12+008399999V0200901N001012200019N0500001N1+03591+01671100551ADDGF104991041011004501001001MA1999999099551MD1999999-0021REMSYN070AAXX  07184 82392 32499 40902 10359 20167 39955 40055 84100 333 59002;
0178823920999992009110800004-03700-040350FM-12+008399999V0203601N003112200019N0040001N1+02671+01991100911ADDGA1001+999999999GF100991001001999999001001KA1240M+03711MA1999999099901MD1999999+0001REMSYN082AAXX  08004 82392 32996 03606 10267 20199 39990 40091 333 10371 29054 55110 58000;
0156823920999992009110812004-03700-040350FM-12+008399999V0200901N004110450019N0500001N1+03021+02101101101ADDGF106991031051004501031001KA1240N+02141MA1999999100081MD1999999+0051REMSYN076AAXX  08124 82392 32499 60908 10302 20210 30008 40110 83530 333 20214 58005;
0137823920999992009110818004-03700-040350FM-12+008399999V0200501N004612200019N0500001N1+03661+01621100601ADDGF104991041021004501001001MA1999999099601MD1999999+0051REMSYN070AAXX  08184 82392 32499 40509 10366 20162 39960 40060 84200 333 58005;
0178823920999992009110900004-03700-040350FM-12+008399999V0200501N005112200019N0040001N1+02721+02151100911ADDGA1001+999999999GF100991001001999999001001KA1240M+03781MA1999999099901MD1999999+0001REMSYN082AAXX  09004 82392 32996 00510 10272 20215 39990 40091 333 10378 29058 55100 58000;
0156823920999992009110912004-03700-040350FM-12+008399999V0200501N005112200019N0500001N1+02901+02041101061ADDGF104991041021004501001001KA1240N+02301MA1999999100041MD1999999-0041REMSYN076AAXX  09124 82392 32499 40510 10290 20204 30004 40106 84200 333 20230 59004;
0137823920999992009110918004-03700-040350FM-12+008399999V0200501N005112200019N0500001N1+03701+01651100581ADDGF102991021011004501001001MA1999999099581MD1999999-0021REMSYN070AAXX  09184 82392 32499 20510 10370 20165 39958 40058 82100 333 59002;
0156823920999992009111012004-03700-040350FM-12+008399999V0200501N004112200019N0500001N1+02941+01851101101ADDGF104991041021004501001001KA1240N+02121MA1999999100081MD1999999+0041REMSYN076AAXX  10124 82392 32499 40508 10294 20185 30008 40110 84200 333 20212 58004;
0137823920999992009111018004-03700-040350FM-12+008399999V0200901N002112200019N0500001N1+03571+01791100521ADDGF103991031011004501001001MA1999999099521MD1999999-0061REMSYN070AAXX  10184 82392 32499 30904 10357 20179 39952 40052 83100 333 59006;
0178823920999992009111100004-03700-040350FM-12+008399999V0200501N002112200019N0040001N1+02691+02031100911ADDGA1001+999999999GF100991001001999999001001KA1240M+03741MA1999999099891MD1999999-0061REMSYN082AAXX  11004 82392 32996 00504 10269 20203 39989 40091 333 10374 29055 55101 59006;
0175823920999992009111112004-03700-040350FM-12+008399999V0200501N003619999999N0500001N1+02941+01821100981ADDGF105991999021004501001001KA1240N+02311MA1999999099961MD1999999-0121REMSYN076AAXX  11124 82392 32499 50507 10294 20182 39996 40098 84200 333 20231 59012;EQDQ01+000042SCOTLC
0137823920999992009111118004-03700-040350FM-12+008399999V0200501N002612200019N0500001N1+03561+01681100461ADDGF104991041021004501001001MA1999999099461MD1999999-0061REMSYN070AAXX  11184 82392 32499 40505 10356 20168 39946 40046 84200 333 59006;
0178823920999992009111200004-03700-040350FM-12+008399999V0203601N002612200019N0040001N1+02631+02121100801ADDGA1001+999999999GF100991001001999999001001KA1240M+03701MA1999999099781MD1999999-0111REMSYN082AAXX  12004 82392 32996 03605 10263 20212 39978 40080 333 10370 29058 55099 59011;
0156823920999992009111212004-03700-040350FM-12+008399999V0201401N000512200019N0500001N1+02991+02051100891ADDGF104991021021004501031001KA1240N+02351MA1999999099871MD1999999-0091REMSYN076AAXX  12124 82392 32499 41401 10299 20205 39987 40089 82230 333 20235 59009;
0137823920999992009111218004-03700-040350FM-12+008399999V0200501N001512200019N0500001N1+03441+01801100361ADDGF104991041021004501001001MA1999999099351MD1999999-0111REMSYN070AAXX  12184 82392 32499 40503 10344 20180 39935 40036 84200 333 59011;
0178823920999992009111300004-03700-040350FM-12+008399999V0200501N005712200019N0040001N1+02621+02121100721ADDGA1001+999999999GF100991001001999999001001KA1240M+03661MA1999999099701MD1999999-0061REMSYN082AAXX  13004 82392 32996 00511 10262 20212 39970 40072 333 10366 29061 55078 59006;
0156823920999992009111312004-03700-040350FM-12+008399999V0200901N004110042019N0500001N1+02981+02121100921ADDGF106991051041004501041001KA1240N+02501MA1999999099901MD1999999+0031REMSYN076AAXX  13124 82392 32499 60908 10298 20212 39990 40092 85440 333 20250 58003;
0137823920999992009111318004-03700-040350FM-12+008399999V0200501N003110450019N0500001N1+03331+02441100551ADDGF106991041041004501041001MA1999999099551MD1999999+0201REMSYN070AAXX  13184 82392 32499 60506 10333 20244 39955 40055 84440 333 58020;
0178823920999992009111400004-03700-040350FM-12+008399999V0200501N002612200019N0040001N1+02621+02211100951ADDGA1001+999999999GF100991001001999999001001KA1240M+03561MA1999999099931MD1999999+0231REMSYN082AAXX  14004 82392 32496 00505 10262 20221 39993 40095 333 10356 29065 55035 58023;
0156823920999992009111412004-03700-040350FM-12+008399999V0200501N001512200019N0500001N1+02901+01991101171ADDGF103991031011004501001001KA1240N+02201MA1999999100151MD1999999+0251REMSYN076AAXX  14124 82392 32499 30503 10290 20199 30015 40117 83100 333 20220 58025;
0137823920999992009111418004-03700-040350FM-12+008399999V0200501N002612200019N0500001N1+03461+01451100661ADDGF103991031011004501001001MA1999999099651MD1999999+0101REMSYN070AAXX  14184 82392 32499 30505 10346 20145 39965 40066 83100 333 58010;
0178823920999992009111500004-03700-040350FM-12+008399999V0200501N004112200019N0040001N1+02661+02001101051ADDGA1001+999999999GF100991001001999999001001KA1240M+03601MA1999999100031MD1999999+0101REMSYN082AAXX  15004 82392 32996 00508 10266 20200 30003 40105 333 10360 29056 55106 58010;
0156823920999992009111512004-03700-040350FM-12+008399999V0200901N001510042019N0500001N1+02961+02051101081ADDGF105991051021004501001001KA1240N+02151MA1999999100061MD1999999-0091REMSYN076AAXX  15124 82392 32499 50903 10296 20205 30006 40108 85200 333 20215 59009;
0137823920999992009111518004-03700-040350FM-12+008399999V0200901N001512200019N0500001N1+03631+01651100471ADDGF104991041011004501001001MA1999999099471MD1999999-0181REMSYN070AAXX  15184 82392 32499 40903 10363 20165 39947 40047 84100 333 59018;
0168823920999992009111600004-03700-040350FM-12+008399999V0203601N003112200019N0040001N1+02721+02001100871ADDGF102991021021004501001001KA1240M+02741MA1999999099851MD1999999-0181REMSYN088AAXX  16004 82392 32496 23606 10272 20200 39985 40087 82200 333 10274 29055 55105 59018;
0156823920999992009111612004-03700-040350FM-12+008399999V0200501N002610450019N0500001N1+02981+02031101091ADDGF106991041041004501031001KA1240N+02281MA1999999100081MD1999999+0021REMSYN076AAXX  16124 82392 32499 60505 10298 20203 30008 40109 84430 333 20228 58002;
0137823920999992009111618004-03700-040350FM-12+008399999V0200501N002112200019N0500001N1+03501+01961100591ADDGF104991031011004501001011MA1999999099591MD1999999+0121REMSYN070AAXX  16184 82392 32499 40504 10350 20196 39959 40059 83101 333 58012;
0178823920999992009111700004-03700-040350FM-12+008399999V0200501N002112200019N0040001N1+02631+02141100971ADDGA1001+999999999GF100991001001999999001001KA1240M+03621MA1999999099951MD1999999+0101REMSYN082AAXX  17004 82392 32996 00504 10263 20214 39995 40097 333 10362 29062 55060 58010;
0156823920999992009111712004-03700-040350FM-12+008399999V0203601N000510450019N0500001N1+02861+02011101121ADDGF106991031041004501031001KA1240N+02201MA1999999100101MD1999999+0021REMSYN076AAXX  17124 82392 32499 63601 10286 20201 30010 40112 83430 333 20220 58002;
0137823920999992009111718004-03700-040350FM-12+008399999V0200901N000510450019N0500001N1+03521+01791100621ADDGF106991041041004501031001MA1999999099621MD1999999+0031REMSYN070AAXX  17184 82392 32499 60901 10352 20179 39962 40062 84430 333 58003;
0168823920999992009111800004-03700-040350FM-12+008399999V0200501N002612200019N0040001N1+02651+02091101081ADDGF102991021001008001011001KA1240M+03681MA1999999100061MD1999999+0111REMSYN088AAXX  18004 82392 32596 20505 10265 20209 30006 40108 82010 333 10368 29060 55081 58011;
0156823920999992009111812004-03700-040350FM-12+008399999V0200901N003112200019N0500001N1+02881+02031101181ADDGF105991031021004501001011KA1240N+02301MA1999999100161MD1999999+0061REMSYN076AAXX  18124 82392 32499 50906 10288 20203 30016 40118 83201 333 20230 58006;
0137823920999992009111818004-03700-040350FM-12+008399999V0200501N005110450019N0500001N1+03381+01871100711ADDGF106991041021004501031001MA1999999099701MD1999999+0081REMSYN070AAXX  18184 82392 32499 60510 10338 20187 39970 40071 84230 333 58008;
0168823920999992009111900004-03700-040350FM-12+008399999V0203601N003112200019N0040001N1+02641+02051101061ADDGF102991021001008001031001KA1240M+03461MA1999999100041MD1999999-0021REMSYN088AAXX  19004 82392 32596 23606 10264 20205 30004 40106 82030 333 10346 29060 55064 59002;
0156823920999992009111912004-03700-040350FM-12+008399999V0200901N002610450019N0500001N1+02961+02031101201ADDGF106991041041004501031001KA1240N+02241MA1999999100181MD1999999+0021REMSYN076AAXX  19124 82392 32499 60905 10296 20203 30018 40120 84430 333 20224 58002;
0137823920999992009111918004-03700-040350FM-12+008399999V0200901N002612200019N0500001N1+03411+01911100721ADDGF104991021021004501031001MA1999999099701MD1999999+0001REMSYN070AAXX  19184 82392 32499 40905 10341 20191 39970 40072 82230 333 58000;
0178823920999992009112000004-03700-040350FM-12+008399999V0200501N003112200019N0040001N1+02641+02031101021ADDGA1001+999999999GF100991001001999999001001KA1240M+03581MA1999999100001MD1999999-0041REMSYN082AAXX  20004 82392 32996 00506 10264 20203 30000 40102 333 10358 29059 55097 59004;
0156823920999992009112012004-03700-040350FM-12+008399999V0200501N004612200019N0500001N1+02901+01901101271ADDGF101991011011004501001001KA1240N+02101MA1999999100251MD1999999+0071REMSYN076AAXX  20124 82392 32499 10509 10290 20190 30025 40127 81100 333 20210 58007;
0137823920999992009112018004-03700-040350FM-12+008399999V0200901N002112200019N0500001N1+03571+01501100721ADDGF101991011011004501001001MA1999999099701MD1999999+0001REMSYN070AAXX  20184 82392 32499 10904 10357 20150 39970 40072 81100 333 58000;
0178823920999992009112100004-03700-040350FM-12+008399999V0200501N005112200019N0040001N1+02621+02051101071ADDGA1001+999999999GF100991001001999999001001KA1240M+03701MA1999999100051MD1999999+0051REMSYN082AAXX  21004 82392 32996 00510 10262 20205 30005 40107 333 10370 29056 55110 58005;
0156823920999992009112112004-03700-040350FM-12+008399999V0200901N001512200019N0500001N1+02931+01761101291ADDGF104991041021004501001001KA1240N+02041MA1999999100271MD1999999+0021REMSYN076AAXX  21124 82392 32499 40903 10293 20176 30027 40129 84200 333 20204 58002;
0137823920999992009112118004-03700-040350FM-12+008399999V0200901N003112200019N0500001N1+03561+01481100811ADDGF102991011011004501011001MA1999999099791MD1999999+0091REMSYN070AAXX  21184 82392 32499 20906 10356 20148 39979 40081 81110 333 58009;
0178823920999992009112200004-03700-040350FM-12+008399999V0200501N002612200019N0040001N1+02641+01751101211ADDGA1001+999999999GF100991001001999999001001KA1240M+03641MA1999999100191MD1999999+0141REMSYN082AAXX  22004 82392 32996 00505 10264 20175 30019 40121 333 10364 29049 55111 58014;
0175823920999992009112212004-03700-040350FM-12+008399999V0200901N004110042019N0500001N1+02941+02111101231ADDGF106991999021004501001001KA1240N+02001MA1999999100211MD1999999-0061REMSYN076AAXX  22124 82392 32499 60908 10294 20211 30021 40123 85200 333 20200 59006;EQDQ01+000052SCOTLC
0137823920999992009112218004-03700-040350FM-12+008399999V0200501N003112200019N0500001N1+03641+01441100661ADDGF102991021011004501001001MA1999999099651MD1999999-0141REMSYN070AAXX  22184 82392 32499 20506 10364 20144 39965 40066 82100 333 59014;
0178823920999992009112300004-03700-040350FM-12+008399999V0200501N005112200019N0040001N1+02621+02071101041ADDGA1001+999999999GF100991001001999999001001KA1240M+03741MA1999999100021MD1999999-0171REMSYN082AAXX  23004 82392 32996 00510 10262 20207 30002 40104 333 10374 29058 55107 59017;
0156823920999992009112312004-03700-040350FM-12+008399999V0200901N004612200019N0500001N1+02861+01921101101ADDGF104991041021004501001001KA1240N+02141MA1999999100081MD1999999-0131REMSYN076AAXX  23124 82392 32499 40909 10286 20192 30008 40110 84200 333 20214 59013;
0137823920999992009112318004-03700-040350FM-12+008399999V0200901N002112200019N0500001N1+03661+01271100521ADDGF103991031021004501001001MA1999999099521MD1999999-0131REMSYN070AAXX  23184 82392 32499 30904 10366 20127 39952 40052 83200 333 59013;
0178823920999992009112400004-03700-040350FM-12+008399999V0203601N003112200019N0040001N1+02551+02081100881ADDGA1001+999999999GF100991001001999999001001KA1240M+03711MA1999999099861MD1999999-0161REMSYN082AAXX  24004 82392 32996 03606 10255 20208 39986 40088 333 10371 29058 55108 59016;
0156823920999992009112412004-03700-040350FM-12+008399999V0201401N001010450019N0500001N1+02721+01981101101ADDGF106991041041004501031001KA1240N+02101MA1999999100081MD1999999+0001REMSYN076AAXX  24124 82392 32499 61402 10272 20198 30008 40110 84430 333 20210 58000;
0137823920999992009112418004-03700-040350FM-12+008399999V0200901N001510042019N0500001N1+03731+01871100581ADDGF105991051021004501001001MA1999999099571MD1999999+0051REMSYN070AAXX  24184 82392 32499 50903 10373 20187 39957 40058 85200 333 58005;
0178823920999992009112500004-03700-040350FM-12+008399999V0203601N002112200019N0040001N1+02611+01961100901ADDGA1001+999999999GF100991001001999999001001KA1240M+03581MA1999999099881MD1999999+0021REMSYN082AAXX  25004 82392 32996 03604 10261 20196 39988 40090 333 10358 29060 55049 58002;
0175823920999992009112512004-03700-040350FM-12+008399999V0200901N002619999999N0500001N1+02921+02041101191ADDGF106991999021004501001001KA1240N+02101MA1999999100171MD1999999+0091REMSYN076AAXX  25124 82392 32499 60905 10292 20204 30017 40119 84200 333 20210 58009;EQDQ01+000042SCOTLC
0137823920999992009112518004-03700-040350FM-12+008399999V0200901N004112200019N0500001N1+03521+01741100621ADDGF103991031021004501001001MA1999999099611MD1999999+0041REMSYN070AAXX  25184 82392 32499 30908 10352 20174 39961 40062 83200 333 58004;
0178823920999992009112600004-03700-040350FM-12+008399999V0203601N001512200019N0040001N1+02631+02001101071ADDGA1001+999999999GF100991001001999999001001KA1240M+03631MA1999999100051MD1999999+0171REMSYN082AAXX  26004 82392 32996 03603 10263 20200 30005 40107 333 10363 29058 55090 58017;
0156823920999992009112612004-03700-040350FM-12+008399999V0200901N002612200019N0500001N1+02841+01851101271ADDGF104991041021004501001001KA1240N+02131MA1999999100251MD1999999+0081REMSYN076AAXX  26124 82392 32499 40905 10284 20185 30025 40127 84200 333 20213 58008;
0137823920999992009112618004-03700-040350FM-12+008399999V0200501N002112200019N0500001N1+03661+01341100771ADDGF102991021011004501001001MA1999999099751MD1999999+0141REMSYN070AAXX  26184 82392 32499 20504 10366 20134 39975 40077 82100 333 58014;
0178823920999992009112700004-03700-040350FM-12+008399999V0200501N005112200019N0040001N1+02741+02101101041ADDGA1001+999999999GF100991001001999999001001KA1240M+03741MA1999999100021MD1999999-0031REMSYN082AAXX  27004 82392 32996 00510 10274 20210 30002 40104 333 10374 29054 55110 59003;
0156823920999992009112712004-03700-040350FM-12+008399999V0200901N004112200019N0500001N1+03061+01991101151ADDGF104991041021004501001001KA1240N+02101MA1999999100131MD1999999-0131REMSYN076AAXX  27124 82392 32499 40908 10306 20199 30013 40115 84200 333 20210 59013;
0137823920999992009112718004-03700-040350FM-12+008399999V0200901N005112200019N0500001N1+03511+01741100671ADDGF104991021021004501001011MA1999999099661MD1999999-0091REMSYN070AAXX  27184 82392 32499 40910 10351 20174 39966 40067 82201 333 59009;
0168823920999992009112800004-03700-040350FM-12+008399999V0200501N004112200019N0040001N1+02781+02111101011ADDGF102991021001008001031001KA1240M+03701MA1999999100001MD1999999-0021REMSYN088AAXX  28004 82392 32596 20508 10278 20211 30000 40101 82030 333 10370 29056 55108 59002;
0156823920999992009112812004-03700-040350FM-12+008399999V0200501N005112200019N0500001N1+02961+01961101041ADDGF104991031021004501031001KA1240N+02181MA1999999100031MD1999999-0101REMSYN076AAXX  28124 82392 32499 40510 10296 20196 30003 40104 83230 333 20218 59010;
0137823920999992009112818004-03700-040350FM-12+008399999V0200501N004112200019N0500001N1+03541+01711100581ADDGF104991021021004501031001MA1999999099581MD1999999-0081REMSYN070AAXX  28184 82392 32499 40508 10354 20171 39958 40058 82230 333 59008;
0178823920999992009112900004-03700-040350FM-12+008399999V0200501N003112200019N0040001N1+02761+02141100941ADDGA1001+999999999GF100991001001999999001001KA1240M+03701MA1999999099931MD1999999-0071REMSYN082AAXX  29004 82392 32996 00506 10276 20214 39993 40094 333 10370 29057 55095 59007;
0156823920999992009112912004-03700-040350FM-12+008399999V0200501N003110450019N0500001N1+03031+01971101051ADDGF106991041021004501031001KA1240N+02261MA1999999100041MD1999999+0011REMSYN076AAXX  29124 82392 32499 60506 10303 20197 30004 40105 84230 333 20226 58001;
0137823920999992009112918004-03700-040350FM-12+008399999V0200901N003110042019N0500001N1+03671+01691100501ADDGF105991051021004501001001MA1999999099501MD1999999-0081REMSYN070AAXX  29184 82392 32499 50906 10367 20169 39950 40050 85200 333 59008;
0178823920999992009113000004-03700-040350FM-12+008399999V0203601N003112200019N0040001N1+02761+02071100921ADDGA1001+999999999GF100991001001999999001001KA1240M+03791MA1999999099911MD1999999-0021REMSYN082AAXX  30004 82392 32996 03606 10276 20207 39991 40092 333 10379 29054 55102 59002;
0156823920999992009113012004-03700-040350FM-12+008399999V0200501N004110450019N0500001N1+02901+02071101041ADDGF105991031021004501031001KA1240N+02201MA1999999100021MD1999999-0021REMSYN076AAXX  30124 82392 32499 50508 10290 20207 30002 40104 83230 333 20220 59002;
0137823920999992009113018004-03700-040350FM-12+008399999V0200501N003112200019N0500001N1+03561+01781100491ADDGF104991041021004501001001MA1999999099491MD1999999-0011REMSYN070AAXX  30184 82392 32499 40506 10356 20178 39949 40049 84200 333 59001;
0168823920999992009120100004-03700-040350FM-12+008399999V0203601N002612200019N0040001N1+02681+02111100981ADDGF101991011001008001031001KA1240M+03741MA1999999099961MD1999999+0051REMSYN088AAXX  01004 82392 32596 13605 10268 20211 39996 40098 81030 333 10374 29060 55093 58005;
0156823920999992009120112004-03700-040350FM-12+008399999V0200901N002110450019N0500001N1+02981+02061101051ADDGF106991041021004501031001KA1240N+02391MA1999999100031MD1999999+0011REMSYN076AAXX  01124 82392 32499 60904 10298 20206 30003 40105 84230 333 20239 58001;
0137823920999992009120118004-03700-040350FM-12+008399999V0200501N002610450019N0500001N1+03601+01751100461ADDGF105991041021004501031001MA1999999099461MD1999999-0031REMSYN070AAXX  01184 82392 32499 50505 10360 20175 39946 40046 84230 333 59003;
0168823920999992009120200004-03700-040350FM-12+008399999V0203601N002119999999N0040001N1+02701+02131100901ADDGF106991061001008001031001KA1240M+03701MA1999999099881MD1999999-0081REMSYN088AAXX  02004 82392 32596 63604 10270 20213 39988 40090 86030 333 10370 29058 55070 59008;
0156823920999992009120212004-03700-040350FM-12+008399999V0200501N001510450019N0500001N1+02821+02101101041ADDGF105991041021004501031001KA1240N+02201MA1999999100021MD1999999-0011REMSYN076AAXX  02124 82392 32499 50503 10282 20210 30002 40104 84230 333 20220 59001;
0168823920999992009120300004-03700-040350FM-12+008399999V0203601N001519999999N0040001N1+02731+02021101011ADDGF106991061001008001031001KA1240M+03521MA1999999099991MD1999999+0111REMSYN088AAXX  03004 82392 32596 63603 10273 20202 39999 40101 86030 333 10352 29065 55039 58011;
0156823920999992009120312004-03700-040350FM-12+008399999V0200901N004610450019N0500001N1+03001+02001101111ADDGF106991041021004501031001KA1240N+02141MA1999999100101MD1999999+0081REMSYN076AAXX  03124 82392 32499 60909 10300 20200 30010 40111 84230 333 20214 58008;
0168823920999992009120400004-03700-040350FM-12+008399999V0200501N004112200019N0500001N1+02721+02151100991ADDGF102991021001008001031001KA1240M+03681MA1999999099981MD1999999-0011REMSYN088AAXX  04004 82392 32599 20508 10272 20215 39998 40099 82030 333 10368 29066 55074 59001;
0175823920999992009120412004-03700-040350FM-12+008399999V0200501N003112200019N0500001N1+02901+02041101041ADDGF104991999021004501001001KA1240N+02201MA1999999100041MD1999999-0081REMSYN076AAXX  04124 82392 32499 40506 10290 20204 30004 40104 82200 333 20220 59008;EQDQ01+000022SCOTLC
0168823920999992009120500004-03700-040350FM-12+008399999V0200501N005112200019N0040001N1+02781+02231100941ADDGF103991031001008001031001KA1240M+03621MA1999999099921MD1999999-0061REMSYN088AAXX  05004 82392 32596 30510 10278 20223 39992 40094 83030 333 10362 29051 55056 59006;
0156823920999992009120512004-03700-040350FM-12+008399999V0200501N001010450019N0500001N1+02721+02241101061ADDGF106991041041004501031001KA1240N+02321MA1999999100041MD1999999+0021REMSYN076AAXX  05124 82392 32499 60502 10272 20224 30004 40106 84430 333 20232 58002;
0187823920999992009120600004-03700-040350FM-12+008399999V0200501N003119999999N0040001N1+02801+02311101001ADDGF106991999001008001031001KA1240M+03641MA1999999099981MD1999999+0061REMSYN088AAXX  06004 82392 32596 60506 10280 20231 39998 40100 83030 333 10364 29075 55051 58006;EQDQ01+000032SCOTLC
0173823920999992009120612004-03700-040350FM-12+008399999V0200501N004610450019N0500001N1+03081+02191101051ADDAA124000891GF105991031021004501031001KA1240N+02311MA1999999100041MD1999999+0001REMSYN082AAXX  06124 82392 22499 50509 10308 20219 30004 40105 83230 333 20231 58000 69974;
0168823920999992009120700004-03700-040350FM-12+008399999V0200501N004110450019N0040001N1+02821+02201100961ADDGF106991031041004501031001KA1240M+03761MA1999999099951MD1999999-0031REMSYN088AAXX  07004 82392 32496 60508 10282 20220 39995 40096 83430 333 10376 29066 55099 59003;
0156823920999992009120712004-03700-040350FM-12+008399999V0200901N004610450019N0500001N1+03001+02081101071ADDGF106991031021004501031001KA1240N+02301MA1999999100061MD1999999+0021REMSYN076AAXX  07124 82392 32499 60909 10300 20208 30006 40107 83230 333 20230 58002;
0178823920999992009120800004-03700-040350FM-12+008399999V0203601N003112200019N0040001N1+02881+02031100911ADDGA1001+999999999GF100991001001999999001001KA1240M+03761MA1999999099901MD1999999-0051REMSYN082AAXX  08004 82392 32996 03606 10288 20203 39990 40091 333 10376 29059 55094 59005;
0156823920999992009120812004-03700-040350FM-12+008399999V0200501N003610450019N0500001N1+02941+02161101091ADDGF105991041021004501031001KA1240N+02301MA1999999100081MD1999999+0021REMSYN076AAXX  08124 82392 32499 50507 10294 20216 30008 40109 84230 333 20230 58002;
0178823920999992009120900004-03700-040350FM-12+008399999V0200501N005112200019N0040001N1+02741+02171100921ADDGA1001+999999999GF100991001001999999001001KA1240M+03771MA1999999099901MD1999999+0001REMSYN082AAXX  09004 82392 32996 00510 10274 20217 39990 40092 333 10377 29068 55097 58000;
0156823920999992009120912004-03700-040350FM-12+008399999V0200901N001512200019N0500001N1+02921+02061101121ADDGF104991041021004501001001KA1240N+02181MA1999999100101MD1999999+0031REMSYN076AAXX  09124 82392 32499 40903 10292 20206 30010 40112 84200 333 20218 58003;
0178823920999992009121000004-03700-040350FM-12+008399999V0200501N004612200019N0040001N1+02701+02131101021ADDGA1001+999999999GF100991001001999999001001KA1240M+03741MA1999999100001MD1999999+0101REMSYN082AAXX  10004 82392 32996 00509 10270 20213 30000 40102 333 10374 29067 55112 58010;
0156823920999992009121012004-03700-040350FM-12+008399999V0200501N003110450019N0500001N1+02981+02091101121ADDGF106991031021004501031001KA1240N+02201MA1999999100101MD1999999-0011REMSYN076AAXX  10124 82392 32499 60506 10298 20209 30010 40112 83230 333 20220 59001;
0178823920999992009121100004-03700-040350FM-12+008399999V0200501N004612200019N0040001N1+02701+02221101051ADDGA1001+999999999GF100991001001999999001001KA1240M+03801MA1999999100031MD1999999+0031REMSYN082AAXX  11004 82392 32996 00509 10270 20222 30003 40105 333 10380 29068 55101 58003;
0175823920999992009121112004-03700-040350FM-12+008399999V0200501N002110042019N0500001N1+02741+02101101201ADDGF106991999041004501001001KA1240N+02001MA1999999100181MD1999999+0081REMSYN076AAXX  11124 82392 32499 60504 10274 20210 30018 40120 85400 333 20200 58008;EQDQ01+000052SCOTLC
0168823920999992009121200004-03700-040350FM-12+008399999V0200501N001512200019N0040001N1+02721+02151101071ADDGF103991031001008001031001KA1240M+03461MA1999999100051MD1999999+0021REMSYN088AAXX  12004 82392 32596 30503 10272 20215 30005 40107 83030 333 10346 29070 55023 58002;
0156823920999992009121212004-03700-040350FM-12+008399999V0200501N002610450019N0500001N1+02761+02041101221ADDGF107991031041004501031001KA1240N+02401MA1999999100201MD1999999+0021REMSYN076AAXX  12124 82392 32499 70505 10276 20204 30020 40122 83430 333 20240 58002;
0168823920999992009121300004-03700-040350FM-12+008399999V0200501N003110450019N0040001N1+02621+02161101141ADDGF107991031021004501021001KA1240M+03361MA1999999100121MD1999999+0071REMSYN088AAXX  13004 82392 32496 70506 10262 20216 30012 40114 83220 333 10336 29072 55014 58007;
0156823920999992009121312004-03700-040350FM-12+008399999V0200901N003110450019N0500001N1+02781+02061101161ADDGF106991031021004501031001KA1240N+02501MA1999999100141MD1999999-0061REMSYN076AAXX  13124 82392 32499 60906 10278 20206 30014 40116 83230 333 20250 59006;
0168823920999992009121400004-03700-040350FM-12+008399999V0203601N004112200019N0040001N1+02721+02151101021ADDGF102991021001004501031001KA1240M+03521MA1999999100001MD1999999-0121REMSYN088AAXX  14004 82392 32496 23608 10272 20215 30000 40102 82030 333 10352 29069 55038 59012;
0156823920999992009121412004-03700-040350FM-12+008399999V0200901N001012200019N0500001N1+02821+02151101081ADDGF104991041021004501001001KA1240N+02311MA1999999100061MD1999999-0081REMSYN076AAXX  14124 82392 32499 40902 10282 20215 30006 40108 84200 333 20231 59008;
0178823920999992009121500004-03700-040350FM-12+008399999V0200501N003112200019N0040001N1+02701+02081100921ADDGA1001+999999999GF100991001001999999001001KA1240M+03641MA1999999099901MD1999999-0101REMSYN082AAXX  15004 82392 32996 00506 10270 20208 39990 40092 333 10364 29075 55068 59010;
0156823920999992009121512004-03700-040350FM-12+008399999V0200901N004612200019N0500001N1+02831+01961101081ADDGF103991031021004501001001KA1240N+02201MA1999999100061MD1999999+0001REMSYN076AAXX  15124 82392 32499 30909 10283 20196 30006 40108 83200 333 20220 58000;
0178823920999992009121600004-03700-040350FM-12+008399999V0203601N004612200019N0040001N1+02701+02111100921ADDGA1001+999999999GF100991001001999999001001KA1240M+03741MA1999999099901MD1999999+0001REMSYN082AAXX  16004 82392 32996 03609 10270 20211 39990 40092 333 10374 29066 55106 58000;
0156823920999992009121612004-03700-040350FM-12+008399999V0200901N004612200019N0500001N1+02921+01891101161ADDGF104991031021004501031001KA1240N+02201MA1999999100141MD1999999+0081REMSYN076AAXX  16124 82392 32499 40909 10292 20189 30014 40116 83230 333 20220 58008;
0178823920999992009121700004-03700-040350FM-12+008399999V0200501N004112200019N0040001N1+02801+01921100961ADDGA1001+999999999GF100991001001999999001001KA1240M+03711MA1999999099951MD1999999+0051REMSYN082AAXX  17004 82392 32996 00508 10280 20192 39995 40096 333 10371 29057 55071 58005;
0156823920999992009121712004-03700-040350FM-12+008399999V0200901N005110450019N0500001N1+03001+02221101131ADDGF105991031021004501031001KA1240N+02301MA1999999100121MD1999999-0021REMSYN076AAXX  17124 82392 32499 50910 10300 20222 30012 40113 83230 333 20230 59002;
0178823920999992009121800004-03700-040350FM-12+008399999V0200501N003112200019N0040001N1+02871+02061101011ADDGA1001+999999999GF100991001001999999001001KA1240M+03581MA1999999100001MD1999999+0051REMSYN082AAXX  18004 82392 32996 00506 10287 20206 30000 40101 333 10358 29063 55092 58005;
0201823920999992009121812004-03700-040350FM-12+008399999V0200901N002110450019N0500001N1+02461+02361101281ADDAA124000591AY121061AY221061GF108991041071004501021999KA1240N+02201MA1999999100261MD1999999+0141MW1611REMSYN088AAXX  18124 82392 21499 80904 10246 20236 30026 40128 76122 8472/ 333 20220 58014 69964;
0178823920999992009121900004-03700-040350FM-12+008399999V0200501N003112200019N0040001N1+02821+02101101071ADDGA1001+999999999GF100991001001999999001001KA1240M+03521MA1999999100051MD1999999+0051REMSYN082AAXX  19004 82392 32996 00506 10282 20210 30005 40107 333 10352 29074 55083 58005;
0156823920999992009121912004-03700-040350FM-12+008399999V0200901N005112200019N0500001N1+02981+02151101191ADDGF104991041021004501001001KA1240N+02211MA1999999100181MD1999999-0081REMSYN076AAXX  19124 82392 32499 40910 10298 20215 30018 40119 84200 333 20221 59008;
0178823920999992009122000004-03700-040350FM-12+008399999V0203601N005112200019N0040001N1+02821+02021101031ADDGA1001+999999999GF100991001001999999001001KA1240M+03681MA1999999100021MD1999999-0031REMSYN082AAXX  20004 82392 32996 03610 10282 20202 30002 40103 333 10368 29062 55095 59003;
0156823920999992009122012004-03700-040350FM-12+008399999V0201401N002612200019N0500001N1+03081+01921101161ADDGF103991031021004501031001KA1240N+02281MA1999999100151MD1999999-0031REMSYN076AAXX  20124 82392 32499 31405 10308 20192 30015 40116 83230 333 20228 59003;
0178823920999992009122100004-03700-040350FM-12+008399999V0200501N003112200019N0040001N1+02901+02101101071ADDGA1001+999999999GF100991001001999999001001KA1240M+03761MA1999999100061MD1999999+0041REMSYN082AAXX  21004 82392 32996 00506 10290 20210 30006 40107 333 10376 29058 55106 58004;
0156823920999992009122112004-03700-040350FM-12+008399999V0201401N002112200019N0500001N1+02961+02051101291ADDGF104991031021004501031001KA1240N+02381MA1999999100281MD1999999+0131REMSYN076AAXX  21124 82392 32499 41404 10296 20205 30028 40129 83230 333 20238 58013;
0168823920999992009122200004-03700-040350FM-12+008399999V0200501N002112200019N0040001N1+02841+02041101151ADDGF102991021001008001031001KA1240M+03601MA1999999100141MD1999999+0081REMSYN088AAXX  22004 82392 32596 20504 10284 20204 30014 40115 82030 333 10360 29061 55065 58008;
0156823920999992009122212004-03700-040350FM-12+008399999V0200501N004610450019N0500001N1+02961+02021101321ADDGF106991041021004501031001KA1240N+02321MA1999999100311MD1999999+0031REMSYN076AAXX  22124 82392 32499 60509 10296 20202 30031 40132 84230 333 20232 58003;
0178823920999992009122300004-03700-040350FM-12+008399999V0200501N004112200019N0040001N1+02821+02001101261ADDGA1001+999999999GF100991001001999999001001KA1240M+03681MA1999999100251MD1999999+0111REMSYN082AAXX  23004 82392 32996 00508 10282 20200 30025 40126 333 10368 29060 55060 58011;
0156823920999992009122312004-03700-040350FM-12+008399999V0200901N003610042019N0500001N1+02901+01991101391ADDGF105991051021004501001001KA1240N+02301MA1999999100381MD1999999+0071REMSYN076AAXX  23124 82392 32499 50907 10290 20199 30038 40139 85200 333 20230 58007;
0168823920999992009122400004-03700-040350FM-12+008399999V0203601N005112200019N0040001N1+02721+02001101281ADDGF103991011011008001031001KA1240M+03581MA1999999100261MD1999999+0011REMSYN088AAXX  24004 82392 32596 33610 10272 20200 30026 40128 81130 333 10358 29063 55044 58001;
0156823920999992009122412004-03700-040350FM-12+008399999V0200501N005110450019N0500001N1+02981+01981101231ADDGF105991031041004501031001KA1240N+02251MA1999999100221MD1999999-0161REMSYN076AAXX  24124 82392 32499 50510 10298 20198 30022 40123 83430 333 20225 59016;
0178823920999992009122500004-03700-040350FM-12+008399999V0203601N005112200019N0040001N1+02741+01951101141ADDGA1001+999999999GF100991001001999999001001KA1240M+03741MA1999999100131MD1999999-0131REMSYN082AAXX  25004 82392 32996 03610 10274 20195 30013 40114 333 10374 29060 55099 59013;
0156823920999992009122512004-03700-040350FM-12+008399999V0200501N002110450019N0500001N1+02841+01961101261ADDGF106991041041004501031001KA1240N+02471MA1999999100241MD1999999+0021REMSYN076AAXX  25124 82392 32499 60504 10284 20196 30024 40126 84430 333 20247 58002;
0156823920999992009122612004-03700-040350FM-12+008399999V0202301N000510450019N0500001N1+02861+02011101211ADDGF106991041041004501031001KA1240N+02481MA1999999100201MD1999999-0041REMSYN076AAXX  26124 82392 32499 62301 10286 20201 30020 40121 84430 333 20248 59004;
0168823920999992009122700004-03700-040350FM-12+008399999V0200501N004112200019N0500001N1+02721+02101101121ADDGF103991031001004501031001KA1240M+03641MA1999999100101MD1999999+0081REMSYN088AAXX  27004 82392 32499 30508 10272 20210 30010 40112 83030 333 10364 29066 55056 58008;
0173823920999992009122712004-03700-040350FM-12+008399999V0200501N002610450019N0500001N1+02921+01891101141ADDAA124000591GF106991031021004501031001KA1240N+02441MA1999999100121MD1999999-0081REMSYN082AAXX  27124 82392 22499 60505 10292 20189 30012 40114 83230 333 20244 59008 69964;
0168823920999992009122800004-03700-040350FM-12+008399999V0200501N003612200019N0040001N1+02801+01921101051ADDGF102991021001008001031001KA1240M+03661MA1999999100041MD1999999-0061REMSYN088AAXX  28004 82392 32596 20507 10280 20192 30004 40105 82030 333 10366 29057 55070 59006;
0156823920999992009122812004-03700-040350FM-12+008399999V0200501N005110450019N0500001N1+02941+02051101081ADDGF106991031021004501031001KA1240N+02221MA1999999100071MD1999999-0051REMSYN076AAXX  28124 82392 32499 60510 10294 20205 30007 40108 83230 333 20222 59005;
0156823920999992009122912004-03700-040350FM-12+008399999V0201801N001010450019N0500001N1+02761+01911101071ADDGF108991031051004501021999KA1240N+02301MA1999999100051MD1999999-0021REMSYN076AAXX  29124 82392 32499 81802 10276 20191 30005 40107 8352/ 333 20230 59002;
0168823920999992009123000004-03700-040350FM-12+008399999V0200501N004112200019N0040001N1+02701+02131100921ADDGF103991031001008001031001KA1240M+03481MA1999999099901MD1999999+0001REMSYN088AAXX  30004 82392 32596 30508 10270 20213 39990 40092 83030 333 10348 29067 55019 58000;
0156823920999992009123012004-03700-040350FM-12+008399999V0200901N005110450019N0500001N1+02981+01981101161ADDGF106991031021004501031001KA1240N+02501MA1999999100141MD1999999+0091REMSYN076AAXX  30124 82392 32499 60910 10298 20198 30014 40116 83230 333 20250 58009;
0156823920999992009123112004-03700-040350FM-12+008399999V0203601N002610450019N0500001N1+02861+02011101221ADDGF106991031041004501031001KA1240N+02381MA1999999100201MD1999999+0061REMSYN076AAXX  31124 82392 32499 63605 10286 20201 30020 40122 83430 333 20238 58006;
0123823920999992009123118004-03700-040350FM-12+008399999V0200501N005710450019N0500001N1+03441+01761100761ADDGF106991041021004501031001MA1999999099751REMSYN070AAXX  31184 82392 32499 60511 10344 20176 39975 40076 84230 333 5////;
