0168831820999992009010100004-11300-041867FM-12+074799999V0200901N004110450019N0010001N1+02561+01671100911ADDGF108991011021008001041011KA1240M+03311MA1999999092801MD1999999+0021REMSYN088AAXX  01004 83182 32594 80908 10256 20167 39280 40091 81241 333 10331 29050 55111 58002;
0156831820999992009010112004-11300-041867FM-12+074799999V0201401N003119999999N0100001N1+02551+01871101161ADDGF108991001001999999001011KA1240N+01691MA1999999093031MD1999999-0091REMSYN076AAXX  01124 83182 32997 81406 10255 20187 39303 40116 80001 333 20169 59009;
0137831820999992009010118004-11300-041867FM-12+074799999V0201801N001512200019N0100001N1+03271+01731100631ADDGF108991031021008001001011MA1999999092611MD1999999-0191REMSYN070AAXX  01184 83182 32597 81803 10327 20173 39261 40063 83201 333 59019;
0168831820999992009010200004-11300-041867FM-12+074799999V0200901N003119999999N0010001N1+02641+02031100891ADDGF108991001001999999001011KA1240M+03381MA1999999092821MD1999999+0021REMSYN088AAXX  02004 83182 32994 80906 10264 20203 39282 40089 80001 333 10338 29061 55110 58002;
0156831820999992009010212004-11300-041867FM-12+074799999V0200501N002612200019N0100001N1+02721+01791101051ADDGF108991011021008001001011KA1240N+01861MA1999999093001MD1999999-0031REMSYN076AAXX  02124 83182 32597 80505 10272 20179 39300 40105 81201 333 20186 59003;
0137831820999992009010218004-11300-041867FM-12+074799999V0200901N000510450019N0100001N1+03371+01421100471ADDGF108991021021008001041011MA1999999092501MD1999999-0111REMSYN070AAXX  02184 83182 32597 80901 10337 20142 39250 40047 82241 333 59011;
0213831820999992009010300004-11300-041867FM-12+074799999V0203201N001510042019N0010001N1+02281+02091100961ADDAA106023991AY161061AY221061GF108991061031004501021999KA1240M+03461MA1999999092851MD1999999+0031MW1951REMSYN100AAXX  03004 83182 21494 83203 10228 20209 39285 40096 79562 8632/ 333 10346 29066 55098 58003 60241;
0201831820999992009010312004-11300-041867FM-12+074799999V0201401N002110042019N0100001N1+02511+02061101031ADDAA124025991AY161061AY221061GF108991071051004501011999KA1240N+01931MA1999999092881MD1999999-0121MW1021REMSYN088AAXX  03124 83182 21497 81404 10251 20206 39288 40103 70262 8751/ 333 20193 59012 60264;
0137831820999992009010318004-11300-041867FM-12+074799999V0202701N003110075019N0100001N1+02451+02081100561ADDGF108991071031008001021999MA1999999092581MD1999999+0081REMSYN070AAXX  03184 83182 32597 82706 10245 20208 39258 40056 8732/ 333 58008;
0168831820999992009010400004-11300-041867FM-12+074799999V0201801N003110075019N0010001N1+02231+01891100901ADDGF108991051071008001001011KA1240M+03061MA1999999092761MD1999999-0091REMSYN088AAXX  04004 83182 32594 81806 10223 20189 39276 40090 85701 333 10306 29080 55041 59009;
0156831820999992009010412004-11300-041867FM-12+074799999V0202701N001010450019N0100001N1+02661+02001100941ADDGF108991021011008001041021KA1240N+01751MA1999999092811MD1999999-0071REMSYN076AAXX  04124 83182 32597 82702 10266 20200 39281 40094 82142 333 20175 59007;
0165831820999992009010418004-11300-041867FM-12+074799999V0202301N004110042019N0040001N1+02861+01951100651ADDAY121061AY221061GF108991061031004501021999MA1999999092501MD1999999-0081MW1961REMSYN076AAXX  04184 83182 31496 82308 10286 20195 39250 40065 79622 8632/ 333 59008;
0213831820999992009010500004-11300-041867FM-12+074799999V0201801N001510042019N0010001N1+02131+02051100971ADDAA106030091AY191061AY261061GF108991061071004501021999KA1240M+03201MA1999999092831MD1999999+0071MW1021REMSYN100AAXX  05004 83182 21494 81803 10213 20205 39283 40097 70296 8672/ 333 10320 29079 55058 58007 60301;
0201831820999992009010512004-11300-041867FM-12+074799999V0201801N002110042019N0100001N1+02181+02111101331ADDAA124056991AY161061AY261061GF108991061071004501021999KA1240N+01751MA1999999093071MD1999999+0221MW1021REMSYN088AAXX  05124 83182 21497 81804 10218 20211 39307 40133 70266 8672/ 333 20175 58022 60574;
0182831820999992009010518004-11300-041867FM-12+074799999V0201801N001510450019N0100001N1+02401+01911100911ADDAA106002091AY161061AY221061GF108991031071004501061021MA1999999092681MD1999999+0181MW1021REMSYN082AAXX  05184 83182 21497 81803 10240 20191 39268 40091 70262 83762 333 58018 60021;
0168831820999992009010600004-11300-041867FM-12+074799999V0201401N001510450019N0100001N1+02201+02011101231ADDGF108991021071004501061021KA1240M+02501MA1999999092991MD1999999+0161REMSYN088AAXX  06004 83182 32497 81403 10220 20201 39299 40123 82762 333 10250 29086 55000 58016;
0173831820999992009010612004-11300-041867FM-12+074799999V0200901N003110075019N0100001N1+02611+02171101091ADDAA124002091GF108991051051008001001011KA1240N+01751MA1999999092941MD1999999-0131REMSYN082AAXX  06124 83182 22597 80906 10261 20217 39294 40109 85501 333 20175 59013 60024;
0137831820999992009010618004-11300-041867FM-12+074799999V0200901N004110450019N0100001N1+03011+02061100561ADDGF108991031021008001041011MA1999999092481MD1999999-0201REMSYN070AAXX  06184 83182 32597 80908 10301 20206 39248 40056 83241 333 59020;
0196831820999992009010700004-11300-041867FM-12+074799999V0203601N001010042019N0100001N1+02401+02091100911ADDAY121061AY221061GF108991071031004501021999KA1240M+03051MA1999999092801MD1999999-0191MW1131REMSYN094AAXX  07004 83182 31497 83602 10240 20209 39280 40091 71322 8732/ 333 10305 29075 55100 59019;
0156831820999992009010712004-11300-041867FM-12+074799999V0201401N004110075019N0100001N1+02361+01931101251ADDGF108991081051008001999999KA1240N+01851MA1999999093081MD1999999+0141REMSYN076AAXX  07124 83182 32597 81408 10236 20193 39308 40125 885// 333 20185 58014;
0137831820999992009010718004-11300-041867FM-12+074799999V0202301N003110450019N0100001N1+02461+02051101051ADDGF108991041031008001051011MA1999999092861MD1999999+0381REMSYN070AAXX  07184 83182 32597 82306 10246 20205 39286 40105 84351 333 58038;
0168831820999992009010800004-11300-041867FM-12+074799999V0202301N000510450019N0010001N1+02101+01811101371ADDGF108991021051008001051011KA1240M+02581MA1999999093141MD1999999+0341REMSYN088AAXX  08004 83182 32594 82301 10210 20181 39314 40137 82551 333 10258 29064 55001 58034;
0156831820999992009010812004-11300-041867FM-12+074799999V0200901N005110075019N0100001N1+02381+01931101311ADDGF108991071051008001001011KA1240N+01681MA1999999093081MD1999999+0001REMSYN076AAXX  08124 83182 32597 80910 10238 20193 39308 40131 87501 333 20168 58000;
0137831820999992009010818004-11300-041867FM-12+074799999V0200901N003612200019N0100001N1+02971+02001100881ADDGF108991041021008001001011MA1999999092751MD1999999-0111REMSYN070AAXX  08184 83182 32597 80907 10297 20200 39275 40088 84201 333 59011;
0168831820999992009010900004-11300-041867FM-12+074799999V0200901N002119999999N0100001N1+02311+01751101161ADDGF108991001001999999001011KA1240M+03001MA1999999092981MD1999999-0161REMSYN088AAXX  09004 83182 32997 80904 10231 20175 39298 40116 80001 333 10300 29068 55094 59016;
0156831820999992009010912004-11300-041867FM-12+074799999V0201401N006212200019N0100001N1+02381+01801101521ADDGF102991021021008001001011KA1240N+01561MA1999999093331MD1999999+0251REMSYN076AAXX  09124 83182 32597 21412 10238 20180 39333 40152 82201 333 20156 58025;
0137831820999992009010918004-11300-041867FM-12+074799999V0200901N003612200019N0100001N1+02881+01571101071ADDGF106991041021008001001011MA1999999092921MD1999999+0171REMSYN070AAXX  09184 83182 32597 60907 10288 20157 39292 40107 84201 333 58017;
0168831820999992009011000004-11300-041867FM-12+074799999V0201401N005112200019N0010001N1+02321+01741101411ADDGF108991041001017501051011KA1240M+03031MA1999999093211MD1999999+0231REMSYN088AAXX  10004 83182 32794 81410 10232 20174 39321 40141 84051 333 10303 29064 55112 58023;
0156831820999992009011012004-11300-041867FM-12+074799999V0200901N005110075019N0100001N1+02521+01771101531ADDGF108991071051008001001011KA1240N+01751MA1999999093941MD1999999+0011REMSYN076AAXX  10124 83182 32597 80910 10252 20177 39394 40153 87501 333 20175 58001;
0156831820999992009011018004-11300-041867FM-12+074799999V0200901N004110075019N0100001N1+02961+01541101101ADDGF108991061051008001001011MA1999999092972MD1999999+0051REMSYN070AAXX  10184 83182 32597 80908 10296 20154 39297 40110 86501 333 58005;EQDQ01+092973APOSP 
0168831820999992009011100004-11300-041867FM-12+074799999V0201401N002612200019N0010001N1+02331+01821101381ADDGF108991031001017501031011KA1240M+03011MA1999999093201MD1999999-0011REMSYN088AAXX  11004 83182 32794 81405 10233 20182 39320 40138 83031 333 10301 29063 55086 59001;
0156831820999992009011112004-11300-041867FM-12+074799999V0201401N004110450019N0100001N1+02511+01831101431ADDGF108991021021008001031011KA1240N+01671MA1999999093251MD1999999-0091REMSYN076AAXX  11124 83182 32597 81408 10251 20183 39325 40143 82231 333 20167 59009;
0137831820999992009011118004-11300-041867FM-12+074799999V02099999999990450019N0100001N1+02971+01581101041ADDGF108991021021008001041011MA1999999092921MD1999999-0051REMSYN070AAXX  11184 83182 32597 814// 10297 20158 39292 40104 82241 333 59005;
0168831820999992009011200004-11300-041867FM-12+074799999V0201401N003112200019N0010001N1+02351+01791101181ADDGF108991021001017501041011KA1240M+03011MA1999999093041MD1999999-0161REMSYN088AAXX  12004 83182 32794 81406 10235 20179 39304 40118 82041 333 10301 29063 55111 59016;
0156831820999992009011212004-11300-041867FM-12+074799999V0201401N004110075019N0100001N1+02521+01961101341ADDGF108991071051008001001011KA1240N+01701MA1999999093181MD1999999-0071REMSYN076AAXX  12124 83182 32597 81408 10252 20196 39318 40134 87501 333 20170 59007;
0137831820999992009011218004-11300-041867FM-12+074799999V0201401N003110450019N0100001N1+02761+01971101001ADDGF108991031031008001021999MA1999999093861MD1999999-0061REMSYN070AAXX  12184 83182 32597 81406 10276 20197 39386 40100 8332/ 333 59006;
0213831820999992009011300004-11300-041867FM-12+074799999V0201801N001510042019N0010001N1+02221+02031101311ADDAA106002091AY161061AY261061GF108991051031004501021999KA1240M+02851MA1999999093121MD1999999+0041MW1021REMSYN100AAXX  13004 83182 21494 81803 10222 20203 39312 40131 70266 8532/ 333 10285 29078 55057 58004 60021;
0173831820999992009011312004-11300-041867FM-12+074799999V0201401N006712200019N0100001N1+02451+01751101281ADDAA124002091GF108991041021008001001011KA1240N+01681MA1999999093091MD1999999-0091REMSYN082AAXX  13124 83182 22597 81413 10245 20175 39309 40128 84201 333 20168 59009 60024;
0137831820999992009011318004-11300-041867FM-12+074799999V0201401N003112200019N0100001N1+03011+01421100981ADDGF108991021021008001001011MA1999999092861MD1999999+0001REMSYN070AAXX  13184 83182 32597 81406 10301 20142 39286 40098 82201 333 58000;
0168831820999992009011400004-11300-041867FM-12+074799999V0201401N002619999999N0010001N1+02301+01681101171ADDGF108991001001999999001011KA1240M+03061MA1999999093011MD1999999-0111REMSYN088AAXX  14004 83182 32994 81405 10230 20168 39301 40117 80001 333 10306 29060 55110 59011;
0156831820999992009011412004-11300-041867FM-12+074799999V0201401N005110075019N0100001N1+02561+01731101311ADDGF108991071051008001001011KA1240N+01611MA1999999093151MD1999999-0061REMSYN076AAXX  14124 83182 32597 81410 10256 20173 39315 40131 87501 333 20161 59006;
0137831820999992009011418004-11300-041867FM-12+074799999V0201401N003112200019N0100001N1+03061+01551100891ADDGF108991041021008001001011MA1999999092781MD1999999-0061REMSYN070AAXX  14184 83182 32597 81406 10306 20155 39278 40089 84201 333 59006;
0168831820999992009011500004-11300-041867FM-12+074799999V0201401N004119999999N0010001N1+02411+01891101021ADDGF108991001001999999001011KA1240M+03171MA1999999092901MD1999999+0111REMSYN088AAXX  15004 83182 32994 81408 10241 20189 39290 40102 80001 333 10317 29062 55111 58011;
0156831820999992009011512004-11300-041867FM-12+074799999V0201401N002612200019N0100001N1+02621+01861101271ADDGF108991031021008001001011KA1240N+01611MA1999999093141MD1999999-0011REMSYN076AAXX  15124 83182 32597 81405 10262 20186 39314 40127 83201 333 20161 59001;
0137831820999992009011518004-11300-041867FM-12+074799999V0201801N002612200019N0100001N1+03251+01591100711ADDGF108991031021008001001011MA1999999092671MD1999999-0111REMSYN070AAXX  15184 83182 32597 81805 10325 20159 39267 40071 83201 333 59011;
0168831820999992009011600004-11300-041867FM-12+074799999V0200901N004119999999N0010001N1+02521+01631100921ADDGF108991001001999999001011KA1240M+03131MA1999999092831MD1999999-0071REMSYN088AAXX  16004 83182 32994 80908 10252 20163 39283 40092 80001 333 10313 29054 55108 59007;
0156831820999992009011612004-11300-041867FM-12+074799999V0201401N003119999999N0100001N1+02551+01871101331ADDGF108991001001999999001011KA1240N+01781MA1999999093211MD1999999+0071REMSYN076AAXX  16124 83182 32997 81406 10255 20187 39321 40133 80001 333 20178 58007;
0137831820999992009011618004-11300-041867FM-12+074799999V0201401N002112200019N0100001N1+03191+01741100761ADDGF108991041021008001001011MA1999999092721MD1999999+0051REMSYN070AAXX  16184 83182 32597 81404 10319 20174 39272 40076 84201 333 58005;
0196831820999992009011700004-11300-041867FM-12+074799999V0201401N002612200019N0100001N1+02621+01811101071ADDAY121061AY221061GF108991031031008001001011KA1240M+03251MA1999999092981MD1999999+0151MW1131REMSYN094AAXX  17004 83182 31597 81405 10262 20181 39298 40107 71322 83301 333 10325 29058 55100 58015;
0156831820999992009011712004-11300-041867FM-12+074799999V0201401N003110075019N0100001N1+02651+01891101251ADDGF108991071051008001001011KA1240N+01931MA1999999093161MD1999999-0051REMSYN076AAXX  17124 83182 32597 81406 10265 20189 39316 40125 87501 333 20193 59005;
0137831820999992009011718004-11300-041867FM-12+074799999V0200901N003612200019N0100001N1+03211+01781100801ADDGF108991031021008001001011MA1999999092781MD1999999-0061REMSYN070AAXX  17184 83182 32597 80907 10321 20178 39278 40080 83201 333 59006;
0156831820999992009011812004-11300-041867FM-12+074799999V0201401N003610075019N0100001N1+02501+01821101351ADDGF108991081051008001999999KA1240N+01791MA1999999093211MD1999999+0051REMSYN076AAXX  18124 83182 32597 81407 10250 20182 39321 40135 885// 333 20179 58005;
0137831820999992009011818004-11300-041867FM-12+074799999V0201801N002612200019N0100001N1+03121+01671100861ADDGF108991031021008001001011MA1999999092791MD1999999+0011REMSYN070AAXX  18184 83182 32597 81805 10312 20167 39279 40086 83201 333 58001;
0168831820999992009011900004-11300-041867FM-12+074799999V0201401N002619999999N0010001N1+02381+01871101251ADDGF108991001001999999001011KA1240M+03161MA1999999093101MD1999999+0071REMSYN088AAXX  19004 83182 32994 81405 10238 20187 39310 40125 80001 333 10316 29062 55098 58007;
0156831820999992009011912004-11300-041867FM-12+074799999V0201401N002610450019N0100001N1+02511+01781101371ADDGF108991021021008001041011KA1240N+01611MA1999999093211MD1999999+0001REMSYN076AAXX  19124 83182 32597 81405 10251 20178 39321 40137 82241 333 20161 58000;
0137831820999992009011918004-11300-041867FM-12+074799999V0201401N002610450019N0100001N1+03191+01661100751ADDGF108991041021008001041011MA1999999092691MD1999999-0101REMSYN070AAXX  19184 83182 32597 81405 10319 20166 39269 40075 84241 333 59010;
0168831820999992009012000004-11300-041867FM-12+074799999V0201401N003119999999N0010001N1+02481+01851100991ADDGF108991001001999999001011KA1240M+03271MA1999999092871MD1999999-0231REMSYN088AAXX  20004 83182 32994 81406 10248 20185 39287 40099 80001 333 10327 29056 55107 59023;
0156831820999992009012012004-11300-041867FM-12+074799999V0201401N002112200019N0100001N1+02611+01871101131ADDGF108991021021008001001011KA1240N+01691MA1999999093021MD1999999-0191REMSYN076AAXX  20124 83182 32597 81404 10261 20187 39302 40113 82201 333 20169 59019;
0137831820999992009012018004-11300-041867FM-12+074799999V0202301N001510075019N0100001N1+03201+01711100631ADDGF108991051021008001001011MA1999999092591MD1999999-0101REMSYN070AAXX  20184 83182 32597 82303 10320 20171 39259 40063 85201 333 59010;
0168831820999992009012100004-11300-041867FM-12+074799999V0200901N003110075019N0010001N1+02751+01551101011ADDGF108991081051008001999999KA1240M+03351MA1999999092961MD1999999+0091REMSYN088AAXX  21004 83182 32594 80906 10275 20155 39296 40101 885// 333 10335 29050 55096 58009;
0156831820999992009012112004-11300-041867FM-12+074799999V0201401N002612200019N0100001N1+02641+01901101201ADDGF108991041021008001001011KA1240N+01751MA1999999093141MD1999999+0121REMSYN076AAXX  21124 83182 32597 81405 10264 20190 39314 40120 84201 333 20175 58012;
0182831820999992009012118004-11300-041867FM-12+074799999V0201801N004110042019N0100001N1+02191+01941101091ADDAA106013091AY161061AY221061GF108991061031004501021999MA1999999092861MD1999999+0271MW1611REMSYN082AAXX  21184 83182 21497 81808 10219 20194 39286 40109 76162 8632/ 333 58027 60131;
0213831820999992009012200004-11300-041867FM-12+074799999V0201801N000510075019N0100001N1+02371+02001101211ADDAA106006191AY161061AY221061GF108991061051008001001011KA1240M+03231MA1999999093081MD1999999+0121MW1021REMSYN100AAXX  22004 83182 21597 81801 10237 20200 39308 40121 70262 86501 333 10323 29078 55077 58012 60061;
0201831820999992009012212004-11300-041867FM-12+074799999V0201401N000510075019N0100001N1+02171+01941101451ADDAA124030091AY161061AY261061GF108991061031008001021999KA1240N+01781MA1999999093211MD1999999+0071MW1611REMSYN088AAXX  22124 83182 21597 81401 10217 20194 39321 40145 76166 8632/ 333 20178 58007 60304;
0182831820999992009012218004-11300-041867FM-12+074799999V0202701N000510075019N0100001N1+02311+02031101051ADDAA106033091AY161061AY261061GF108991051071008001031011MA1999999092831MD1999999-0031MW1021REMSYN082AAXX  22184 83182 21597 82701 10231 20203 39283 40105 70266 85731 333 59003 60331;
0168831820999992009012300004-11300-041867FM-12+074799999V0201801N000510075019N0100001N1+02261+02121101241ADDGF108991051071008001001011KA1240M+02691MA1999999093001MD1999999-0081REMSYN088AAXX  23004 83182 32597 81801 10226 20212 39300 40124 85701 333 10269 29089 55023 59008;
0173831820999992009012312004-11300-041867FM-12+074799999V0201801N001510075019N0100001N1+02601+02171100771ADDAA124033091GF108991071051008001001011KA1240N+01731MA1999999093081MD1999999-0131REMSYN082AAXX  23124 83182 22597 81803 10260 20217 39308 40077 87501 333 20173 59013 60334;
0137831820999992009012318004-11300-041867FM-12+074799999V0200501N003110450019N0100001N1+02981+01891100911ADDGF108991021031008001021011MA1999999092801MD1999999-0031REMSYN070AAXX  23184 83182 32597 80506 10298 20189 39280 40091 82321 333 59003;
0213831820999992009012400004-11300-041867FM-12+074799999V0201401N001510042019N0100001N1+02361+01051101121ADDAA106002091AY161061AY221061GF108991051031004501021999KA1240M+03111MA1999999092991MD1999999-0011MW1021REMSYN100AAXX  24004 83182 21497 81403 10236 20105 39299 40112 70262 8532/ 333 10311 29074 55087 59001 60021;
0173831820999992009012412004-11300-041867FM-12+074799999V0201401N004110150019N0100001N1+02491+01881101151ADDAA124002091GF108991051001017501031011KA1240N+01761MA1999999092991MD1999999-0091REMSYN082AAXX  24124 83182 22797 81408 10249 20188 39299 40115 85031 333 20176 59009 60024;
0182831820999992009012418004-11300-041867FM-12+074799999V0201401N001510075019N0100001N1+02811+02091100711ADDAA106009991AY161061AY221061GF108991051051008001031011MA1999999092601MD1999999-0201MW1021REMSYN082AAXX  24184 83182 21597 81403 10281 20209 39260 40071 70262 85531 333 59020 60101;
0168831820999992009012500004-11300-041867FM-12+074799999V0201401N002619999999N0010001N1+02351+01991100911ADDGF108991001001999999001011KA1240M+03011MA1999999092771MD1999999-0221REMSYN088AAXX  25004 83182 32994 81405 10235 20199 39277 40091 80001 333 10301 29074 55091 59022;
0173831820999992009012512004-11300-041867FM-12+074799999V0201401N003110075019N0100001N1+02331+02081101131ADDAA124009991GF108991081051008001999999KA1240N+01831MA1999999092951MD1999999-0041REMSYN082AAXX  25124 83182 22597 81406 10233 20208 39295 40113 885// 333 20183 59004 60104;
0137831820999992009012518004-11300-041867FM-12+074799999V0200501N002610075019N0100001N1+02821+02021100711ADDGF108991051021008001031011MA1999999092601MD1999999+0001REMSYN070AAXX  25184 83182 32597 80505 10282 20202 39260 40071 85231 333 58000;
0196831820999992009012600004-11300-041867FM-12+074799999V0201401N001512200019N0100001N1+02321+01851101031ADDAY121061AY221061GF108991031031008001001011KA1240M+02871MA1999999092851MD1999999+0081MW1131REMSYN094AAXX  26004 83182 31597 81403 10232 20185 39285 40103 71322 83301 333 10287 29074 55058 58008;
0201831820999992009012612004-11300-041867FM-12+074799999V0201401N002610075019N0100001N1+02561+02111101221ADDAA124007991AY161061AY221061GF108991071051008001001011KA1240N+01811MA1999999093071MD1999999+0121MW1021REMSYN088AAXX  26124 83182 21597 81405 10256 20211 39307 40122 70262 87501 333 20181 58012 60084;
0137831820999992009012618004-11300-041867FM-12+074799999V0200901N003110450019N0100001N1+03071+01941100801ADDGF108991041021008001031011MA1999999092721MD1999999+0121REMSYN070AAXX  26184 83182 32597 80906 10307 20194 39272 40080 84231 333 58012;
0168831820999992009012700004-11300-041867FM-12+074799999V0202301N001012200019N0100001N1+02271+02131101071ADDGF108991021021008001001011KA1240M+03111MA1999999092921MD1999999+0071REMSYN088AAXX  27004 83182 32597 82302 10227 20213 39292 40107 82201 333 10311 29078 55083 58007;
0156831820999992009012712004-11300-041867FM-12+074799999V0201401N004112200019N0100001N1+02551+01921101371ADDGF108991041021008001001011KA1240N+01741MA1999999093191MD1999999+0121REMSYN076AAXX  27124 83182 32597 81408 10255 20192 39319 40137 84201 333 20174 58012;
0137831820999992009012718004-11300-041867FM-12+074799999V0200501N003112200019N0100001N1+03081+01781100941ADDGF108991041021008001001011MA1999999092851MD1999999+0131REMSYN070AAXX  27184 83182 32597 80506 10308 20178 39285 40094 84201 333 58013;
0168831820999992009012800004-11300-041867FM-12+074799999V0201401N003119999999N0010001N1+02361+01931100501ADDGF108991001001999999001011KA1240M+03101MA1999999092901MD1999999-0021REMSYN088AAXX  28004 83182 32994 81406 10236 20193 39290 40050 80001 333 10310 29067 55085 59002;
0156831820999992009012812004-11300-041867FM-12+074799999V0201401N005112200019N0100001N1+02511+01681101251ADDGF108991021021008001001011KA1240N+01671MA1999999093101MD1999999-0091REMSYN076AAXX  28124 83182 32597 81410 10251 20168 39310 40125 82201 333 20167 59009;
0137831820999992009012818004-11300-041867FM-12+074799999V0201401N001510075019N0100001N1+03151+01701100851ADDGF108991051021008001001011MA1999999092781MD1999999-0071REMSYN070AAXX  28184 83182 32597 81403 10315 20170 39278 40085 85201 333 59007;
0168831820999992009012900004-11300-041867FM-12+074799999V0201401N003119999999N0010001N1+02451+01491101111ADDGF108991001001999999001011KA1240M+03191MA1999999092981MD1999999+0081REMSYN088AAXX  29004 83182 32994 81406 10245 20149 39298 40111 80001 333 10319 29053 55105 58008;
0156831820999992009012912004-11300-041867FM-12+074799999V0201401N004619999999N0100001N1+02561+01801101261ADDGF108991001001999999001011KA1240N+01651MA1999999093131MD1999999+0031REMSYN076AAXX  29124 83182 32997 81409 10256 20180 39313 40126 80001 333 20165 58003;
0137831820999992009012918004-11300-041867FM-12+074799999V0201401N003112200019N0100001N1+03291+01631100751ADDGF108991031021008001001011MA1999999092711MD1999999-0071REMSYN070AAXX  29184 83182 32597 81406 10329 20163 39271 40075 83201 333 59007;
0168831820999992009013000004-11300-041867FM-12+074799999V0201401N002619999999N0010001N1+02531+01701101041ADDGF108991001001999999001011KA1240M+03331MA1999999092941MD1999999-0041REMSYN088AAXX  30004 83182 32994 81405 10253 20170 39294 40104 80001 333 10333 29055 55108 59004;
0156831820999992009013012004-11300-041867FM-12+074799999V0201401N003112200019N0100001N1+02551+01771101261ADDGF108991021021008001001011KA1240N+01691MA1999999093141MD1999999+0011REMSYN076AAXX  30124 83182 32597 81406 10255 20177 39314 40126 82201 333 20169 58001;
0137831820999992009013018004-11300-041867FM-12+074799999V0201401N002612200019N0100001N1+03291+01491100661ADDGF108991031021008001001011MA1999999092641MD1999999-0071REMSYN070AAXX  30184 83182 32597 81405 10329 20149 39264 40066 83201 333 59007;
0168831820999992009013100004-11300-041867FM-12+074799999V0201401N003619999999N0010001N1+02571+01501100861ADDGF108991001001999999001011KA1240M+03381MA1999999092771MD1999999-0171REMSYN088AAXX  31004 83182 32994 81407 10257 20150 39277 40086 80001 333 10338 29058 55098 59017;
0156831820999992009013112004-11300-041867FM-12+074799999V0201401N002619999999N0100001N1+02521+01741101251ADDGF108991001001999999001011KA1240N+01621MA1999999093131MD1999999-0011REMSYN076AAXX  31124 83182 32997 81405 10252 20174 39313 40125 80001 333 20162 59001;
0137831820999992009013118004-11300-041867FM-12+074799999V0202301N001512200019N0100001N1+03191+01621100691ADDGF108991031021008001001011MA1999999092651MD1999999+0011REMSYN070AAXX  31184 83182 32597 82303 10319 20162 39265 40069 83201 333 58001;
0156831820999992009020112004-11300-041867FM-12+074799999V0201801N001512200019N0100001N1+02641+01951101161ADDGF108991031021008001001011KA1240N+01741MA1999999093061MD1999999-0071REMSYN076AAXX  01124 83182 32597 81803 10264 20195 39306 40116 83201 333 20174 59007;
0137831820999992009020118004-11300-041867FM-12+074799999V0202301N001512200019N0100001N1+03141+01841100691ADDGF108991041021008001001011MA1999999092641MD1999999-0011REMSYN070AAXX  01184 83182 32597 82303 10314 20184 39264 40069 84201 333 59001;
0168831820999992009020200004-11300-041867FM-12+074799999V0201401N001519999999N0010001N1+02551+01691100901ADDGF108991001001999999001011KA1240M+03231MA1999999092831MD1999999-0071REMSYN088AAXX  02004 83182 32994 81403 10255 20169 39283 40090 80001 333 10323 29058 55080 59007;
0156831820999992009020212004-11300-041867FM-12+074799999V0201401N002610075019N0100001N1+02651+01941101181ADDGF108991061021008001001011KA1240N+01761MA1999999093081MD1999999+0021REMSYN076AAXX  02124 83182 32597 81405 10265 20194 39308 40118 86201 333 20176 58002;
0137831820999992009020218004-11300-041867FM-12+074799999V0200501N001510450019N0100001N1+03201+01861100571ADDGF108991041021008001041011MA1999999092551MD1999999-0091REMSYN070AAXX  02184 83182 32597 80503 10320 20186 39255 40057 84241 333 59009;
0213831820999992009020300004-11300-041867FM-12+074799999V0203601N000510042019N0100001N1+02241+02031101011ADDAA106005191AY161061AY221061GF108991061031004501021999KA1240M+03311MA1999999092871MD1999999+0041MW1021REMSYN100AAXX  03004 83182 21497 83601 10224 20203 39287 40101 70262 8632/ 333 10331 29072 55091 58004 60051;
0201831820999992009020312004-11300-041867FM-12+074799999V0200901N004110075019N0100001N1+02551+01921101401ADDAA124007991AY161061AY221061GF108991061051008001031011KA1240N+01791MA1999999093221MD1999999+0141MW1021REMSYN088AAXX  03124 83182 21597 80908 10255 20192 39322 40140 70262 86531 333 20179 58014 60084;
0182831820999992009020318004-11300-041867FM-12+074799999V0202301N003110450019N0100001N1+02521+02191101001ADDAA106007191AY161061AY221061GF108991021031008001031011MA1999999092801MD1999999+0251MW1211REMSYN082AAXX  03184 83182 21597 82306 10252 20219 39280 40100 72162 82331 333 58025 60071;
0213831820999992009020400004-11300-041867FM-12+074799999V0200901N004110042019N0010001N1+02051+01921101371ADDAA106014091AY161061AY261061GF108991071031004501021999KA1240M+02921MA1999999093151MD1999999+0281MW1911REMSYN100AAXX  04004 83182 21494 80908 10205 20192 39315 40137 79166 8732/ 333 10292 29084 55071 58028 60141;
0173831820999992009020412004-11300-041867FM-12+074799999V0201801N003112200019N0100001N1+02481+01961101461ADDAA124021191GF108991041021008001001011KA1240N+01721MA1999999093221MD1999999+0001REMSYN082AAXX  04124 83182 22597 81806 10248 20196 39322 40146 84201 333 20172 58000 60214;
0137831820999992009020418004-11300-041867FM-12+074799999V0201401N001512200019N0100001N1+02981+01861100981ADDGF108991041021008001001011MA1999999092851MD1999999+0051REMSYN070AAXX  04184 83182 32597 81403 10298 20186 39285 40098 84201 333 58005;
0168831820999992009020500004-11300-041867FM-12+074799999V0201401N001510450019N0100001N1+02431+01981101181ADDGF108991031051008001031011KA1240M+03041MA1999999093041MD1999999-0111REMSYN088AAXX  05004 83182 32597 81403 10243 20198 39304 40118 83531 333 10304 29069 55102 59011;
0156831820999992009020512004-11300-041867FM-12+074799999V0201401N003110075019N0100001N1+02521+02001101331ADDGF108991071051008001001011KA1240N+01771MA1999999093191MD1999999-0031REMSYN076AAXX  05124 83182 32597 81406 10252 20200 39319 40133 87501 333 20177 59003;
0137831820999992009020518004-11300-041867FM-12+074799999V0201401N002112200019N0100001N1+03041+01781100841ADDGF108991041021008001001011MA1999999092751MD1999999-0101REMSYN070AAXX  05184 83182 32597 81404 10304 20178 39275 40084 84201 333 59010;
0156831820999992009020612004-11300-041867FM-12+074799999V0201401N003112200019N0100001N1+02541+01861101331ADDGF108991021021008001001011KA1240N+01671MA1999999093191MD1999999+0001REMSYN076AAXX  06124 83182 32597 81406 10254 20186 39319 40133 82201 333 20167 58000;
0137831820999992009020618004-11300-041867FM-12+074799999V0201401N002112200019N0100001N1+03041+01371100941ADDGF108991041021008001001011MA1999999092851MD1999999+0101REMSYN070AAXX  06184 83182 32597 81404 10304 20137 39285 40094 84201 333 58010;
0168831820999992009020700004-11300-041867FM-12+074799999V0200901N002112200019N0010001N1+02401+01801101181ADDGF108991021001017501041011KA1240M+03161MA1999999093041MD1999999-0061REMSYN088AAXX  07004 83182 32794 80904 10240 20180 39304 40118 82041 333 10316 29060 55084 59006;
0156831820999992009020712004-11300-041867FM-12+074799999V0201401N003110075019N0100001N1+02461+01941101431ADDGF108991071051008001001011KA1240N+01671MA1999999093261MD1999999+0071REMSYN076AAXX  07124 83182 32597 81406 10246 20194 39326 40143 87501 333 20167 58007;
0137831820999992009020718004-11300-041867FM-12+074799999V0201801N001512200019N0100001N1+03121+01791100861ADDGF108991031021008001001011MA1999999092791MD1999999-0061REMSYN070AAXX  07184 83182 32597 81803 10312 20179 39279 40086 83201 333 59006;
0168831820999992009020800004-11300-041867FM-12+074799999V0201401N003119999999N0010001N1+02091+01621101081ADDGF108991001001999999001011KA1240M+03021MA1999999092951MD1999999-0091REMSYN088AAXX  08004 83182 32994 81406 10209 20162 39295 40108 80001 333 10302 29058 55098 59009;
0156831820999992009020812004-11300-041867FM-12+074799999V0201401N003110075019N0100001N1+02361+01851101431ADDGF108991081051008001999999KA1240N+01701MA1999999093251MD1999999+0011REMSYN076AAXX  08124 83182 32597 81406 10236 20185 39325 40143 885// 333 20170 58001;
0156831820999992009020818004-11300-041867FM-12+074799999V02099999999999999999N0100001N1+03081+01581100841ADDGF108991999021008001001001MA1999999092771MD1999999-0021REMSYN070AAXX  08184 83182 32597 809// 10308 20158 39277 40084 84200 333 59002;EQDQ01+000042SCOTLC
0178831820999992009020900004-11300-041867FM-12+074799999V0200901N002112200019N0010001N1+02581+01641101091ADDGA1001+999999999GF100991001001999999001001KA1240M+03231MA1999999092951MD1999999+0001REMSYN082AAXX  09004 83182 32994 00904 10258 20164 39295 40109 333 10323 29056 55087 58000;
0156831820999992009020912004-11300-041867FM-12+074799999V0200901N003110075019N0100001N1+02521+01981101221ADDGF108991081051008001999999KA1240N+01801MA1999999093101MD1999999-0101REMSYN076AAXX  09124 83182 32597 80906 10252 20198 39310 40122 885// 333 20180 59010;
0137831820999992009020918004-11300-041867FM-12+074799999V0200501N003110450019N0100001N1+03171+01791100631ADDGF108991031021008001041011MA1999999092611MD1999999-0161REMSYN070AAXX  09184 83182 32597 80506 10317 20179 39261 40063 83241 333 59016;
0196831820999992009021000004-11300-041867FM-12+074799999V0201801N002110450019N0010001N1+02631+01971100901ADDAY121061AY221061GF108991041031008001011011KA1240M+03211MA1999999092831MD1999999-0121MW1131REMSYN094AAXX  10004 83182 31594 81804 10263 20197 39283 40090 71322 84311 333 10321 29062 55085 59012;
0156831820999992009021012004-11300-041867FM-12+074799999V0200901N003112200019N0100001N1+02621+01781101241ADDGF102991011011012501041001KA1240N+01791MA1999999093141MD1999999+0041REMSYN076AAXX  10124 83182 32697 20906 10262 20178 39314 40124 81140 333 20179 58004;
0137831820999992009021018004-11300-041867FM-12+074799999V0201401N002112200019N0100001N1+03221+01771100731ADDGF105991031021008001001011MA1999999092701MD1999999+0091REMSYN070AAXX  10184 83182 32597 51404 10322 20177 39270 40073 83201 333 58009;
0168831820999992009021100004-11300-041867FM-12+074799999V0200901N003619999999N0010001N1+02611+01631101051ADDGF108991001001999999001011KA1240M+03281MA1999999092961MD1999999+0131REMSYN088AAXX  11004 83182 32994 80907 10261 20163 39296 40105 80001 333 10328 29053 55107 58013;
0156831820999992009021112004-11300-041867FM-12+074799999V0201401N003112200019N0100001N1+02501+01771101321ADDGF108991021011012501001011KA1240N+01621MA1999999093201MD1999999+0061REMSYN076AAXX  11124 83182 32697 81406 10250 20177 39320 40132 82101 333 20162 58006;
0137831820999992009021118004-11300-041867FM-12+074799999V0201801N002612200019N0100001N1+03191+01411100771ADDGF108991041021008001001011MA1999999092731MD1999999+0031REMSYN070AAXX  11184 83182 32597 81805 10319 20141 39273 40077 84201 333 58003;
0168831820999992009021200004-11300-041867FM-12+074799999V0200901N002610450019N0100001N1+02551+01491100901ADDGF108991031021008001031011KA1240M+03321MA1999999092791MD1999999-0171REMSYN088AAXX  12004 83182 32597 80905 10255 20149 39279 40090 83231 333 10332 29050 55111 59017;
0156831820999992009021212004-11300-041867FM-12+074799999V0201401N002610075019N0100001N1+02661+01771101271ADDGF105991051021008001001001KA1240N+01701MA1999999093161MD1999999-0041REMSYN076AAXX  12124 83182 32597 51405 10266 20177 39316 40127 85200 333 20170 59004;
0137831820999992009021218004-11300-041867FM-12+074799999V0201801N001512200019N0100001N1+03241+01451100601ADDGF108991041021008001001011MA1999999092571MD1999999-0161REMSYN070AAXX  12184 83182 32597 81803 10324 20145 39257 40060 84201 333 59016;
0168831820999992009021300004-11300-041867FM-12+074799999V0203601N001510075019N0010001N1+02661+01741100701ADDGF108991061051008001001011KA1240M+03361MA1999999092661MD1999999-0131REMSYN088AAXX  13004 83182 32594 83603 10266 20174 39266 40070 86501 333 10336 29052 55106 59013;
0156831820999992009021312004-11300-041867FM-12+074799999V0200501N002612200019N0100001N1+02591+01841100861ADDGF108991031021008001001011KA1240N+01851MA1999999092791MD1999999-0371REMSYN076AAXX  13124 83182 32597 80505 10259 20184 39279 40086 83201 333 20185 59037;
0137831820999992009021318004-11300-041867FM-12+074799999V0200501N001510075019N0100001N1+03261+01601100341ADDGF108991051021008001001011MA1999999092361MD1999999-0211REMSYN070AAXX  13184 83182 32597 80503 10326 20160 39236 40034 85201 333 59021;
0201831820999992009021412004-11300-041867FM-12+074799999V0200501N002610075019N0100001N1+02501+01821101171ADDAA124003091AY161061AY221061GF108991081051008001999999KA1240N+01911MA1999999093041MD1999999+0251MW1021REMSYN088AAXX  14124 83182 21597 80505 10250 20182 39304 40117 70262 885// 333 20191 58025 60034;
0137831820999992009021418004-11300-041867FM-12+074799999V0200901N001510075019N0100001N1+03001+01681100521ADDGF108991061031008001001011MA1999999092471MD1999999+0111REMSYN070AAXX  14184 83182 32597 80903 10300 20168 39247 40052 86301 333 58011;
0168831820999992009021500004-11300-041867FM-12+074799999V0209999C000010075019N0010001N1+02261+01991100631ADDGF108991081051008001999999KA1240M+03251MA1999999092511MD1999999-0061REMSYN088AAXX  15004 83182 32594 83200 10226 20199 39251 40063 885// 333 10325 29070 55065 59006;
0156831820999992009021512004-11300-041867FM-12+074799999V0201401N005110075019N0100001N1+02661+01791101011ADDGF108991071051008001001011KA1240N+01671MA1999999092871MD1999999-0171REMSYN076AAXX  15124 83182 32597 81410 10266 20179 39287 40101 87501 333 20167 59017;
0137831820999992009021518004-11300-041867FM-12+074799999V0201401N002610075019N0100001N1+03001+01611100721ADDGF108991061051008001001011MA1999999092631MD1999999+0161REMSYN070AAXX  15184 83182 32597 81405 10300 20161 39263 40072 86501 333 58016;
0168831820999992009021600004-11300-041867FM-12+074799999V0200901N003119999999N0010001N1+02371+01471100861ADDGF108991001001999999001011KA1240M+03031MA1999999092751MD1999999-0241REMSYN088AAXX  16004 83182 32994 80906 10237 20147 39275 40086 80001 333 10303 29054 55076 59024;
0156831820999992009021612004-11300-041867FM-12+074799999V0200901N004112200019N0100001N1+02461+01581101141ADDGF108991011021008001001011KA1240N+01501MA1999999092981MD1999999+0111REMSYN076AAXX  16124 83182 32597 80908 10246 20158 39298 40114 81201 333 20150 58011;
0137831820999992009021618004-11300-041867FM-12+074799999V0201401N002612200019N0100001N1+03201+00951100841ADDGF108991021021008001001011MA1999999092751MD1999999+0121REMSYN070AAXX  16184 83182 32597 81405 10320 20095 39275 40084 82201 333 58012;
0168831820999992009021700004-11300-041867FM-12+074799999V0200901N002619999999N0010001N1+02381+01211101071ADDGF108991001001999999001011KA1240M+03281MA1999999092921MD1999999+0171REMSYN088AAXX  17004 83182 32994 80905 10238 20121 39292 40107 80001 333 10328 29045 55076 58017;
0156831820999992009021712004-11300-041867FM-12+074799999V0201401N006212200019N0100001N1+02631+01621101151ADDGF108991011011012501001011KA1240N+01571MA1999999093021MD1999999+0041REMSYN076AAXX  17124 83182 32697 81412 10263 20162 39302 40115 81101 333 20157 58004;
0137831820999992009021718004-11300-041867FM-12+074799999V0201401N003110075019N0100001N1+03191+01701100801ADDGF108991051021008001001011MA1999999092741MD1999999-0011REMSYN070AAXX  17184 83182 32597 81406 10319 20170 39274 40080 85201 333 59001;
0196831820999992009021800004-11300-041867FM-12+074799999V0200901N006210075019N0010001N1+02331+01821101011ADDAY121061AY221061GF108991061031008001021999KA1240M+03201MA1999999092891MD1999999-0031MW1131REMSYN094AAXX  18004 83182 31594 80912 10233 20182 39289 40101 71322 8632/ 333 10320 29060 55098 59003;
0201831820999992009021812004-11300-041867FM-12+074799999V0201401N005110075019N0100001N1+02451+01891101211ADDAA124006191AY161061AY221061GF108991071051008001001011KA1240N+01651MA1999999093051MD1999999+0031MW1021REMSYN088AAXX  18124 83182 21597 81410 10245 20189 39305 40121 70262 87501 333 20165 58003 60064;
0137831820999992009021818004-11300-041867FM-12+074799999V0201401N004610450019N0100001N1+02701+01661100991ADDGF108991031021008001061021MA1999999092831MD1999999-0091REMSYN070AAXX  18184 83182 32597 81409 10270 20166 39283 40099 83262 333 59009;
0168831820999992009021900004-11300-041867FM-12+074799999V0201401N003112200019N0100001N1+02241+01801101131ADDGF108991021021008001001011KA1240M+02831MA1999999092941MD1999999+0091REMSYN088AAXX  19004 83182 32597 81406 10224 20180 39294 40113 82201 333 10283 29060 55068 58009;
0156831820999992009021912004-11300-041867FM-12+074799999V0200901N005710450019N0100001N1+02341+01621101301ADDGF108991011021008001011999KA1240N+01631MA1999999093091MD1999999+0041REMSYN076AAXX  19124 83182 32597 80911 10234 20162 39309 40130 8121/ 333 20163 58004;
0137831820999992009021918004-11300-041867FM-12+074799999V0201401N003110450019N0100001N1+02831+01691100931ADDGF108991021021008001011999MA1999999092791MD1999999-0041REMSYN070AAXX  19184 83182 32597 81406 10283 20169 39279 40093 8221/ 333 59004;
0168831820999992009022000004-11300-041867FM-12+074799999V0201401N002610450019N0010001N1+02331+01721101191ADDGF108991031051008001011999KA1240M+02861MA1999999093011MD1999999+0071REMSYN088AAXX  20004 83182 32594 81405 10233 20172 39301 40119 8351/ 333 10286 29063 55020 58007;
0156831820999992009022012004-11300-041867FM-12+074799999V0200901N005710075019N0100001N1+02451+01721101071ADDGF108991071051008001001011KA1240N+01631MA1999999092921MD1999999-0171REMSYN076AAXX  20124 83182 32597 80911 10245 20172 39292 40107 87501 333 20163 59017;
0137831820999992009022018004-11300-041867FM-12+074799999V0201401N002110075019N0100001N1+03121+01601100631ADDGF108991061021008001031011MA1999999092561MD1999999-0231REMSYN070AAXX  20184 83182 32597 81404 10312 20160 39256 40063 86231 333 59023;
0156831820999992009022112004-11300-041867FM-12+074799999V0200901N005110075019N0100001N1+02551+01791101081ADDGF108991081051008001999999KA1240N+01581MA1999999092931MD1999999+0011REMSYN076AAXX  21124 83182 32597 80910 10255 20179 39293 40108 885// 333 20158 58001;
0137831820999992009022118004-11300-041867FM-12+074799999V0200901N003110075019N0100001N1+03131+01571100591ADDGF108991061021008001001011MA1999999092511MD1999999-0061REMSYN070AAXX  21184 83182 32597 80906 10313 20157 39251 40059 86201 333 59006;
0156831820999992009022212004-11300-041867FM-12+074799999V0200901N003110075019N0100001N1+02451+01801101251ADDGF108991081051008001999999KA1240N+01711MA1999999093131MD1999999+0201REMSYN076AAXX  22124 83182 32597 80906 10245 20180 39313 40125 885// 333 20171 58020;
0137831820999992009022218004-11300-041867FM-12+074799999V0200901N004610075019N0100001N1+03091+01721100701ADDGF108991071021008001001011MA1999999092661MD1999999+0151REMSYN070AAXX  22184 83182 32597 80909 10309 20172 39266 40070 87201 333 58015;
0156831820999992009022312004-11300-041867FM-12+074799999V0200901N003110075019N0100001N1+02471+01841101341ADDGF108991061051008001001011KA1240N+01531MA1999999093131MD1999999+0001REMSYN076AAXX  23124 83182 32597 80906 10247 20184 39313 40134 86501 333 20153 58000;
0137831820999992009022318004-11300-041867FM-12+074799999V0200501N003110450019N0100001N1+03071+01671100711ADDGF108991041021008001011011MA1999999092671MD1999999+0011REMSYN070AAXX  23184 83182 32597 80506 10307 20167 39267 40071 84211 333 58001;
0173831820999992009022412004-11300-041867FM-12+074799999V0201401N003110075019N0100001N1+02471+01911101241ADDAA124002091GF108991051051008001031011KA1240N+01571MA1999999093041MD1999999-0091REMSYN082AAXX  24124 83182 22597 81406 10247 20191 39304 40124 85531 333 20157 59009 60024;
0137831820999992009022418004-11300-041867FM-12+074799999V0200501N003110075019N0100001N1+03251+01551100551ADDGF108991051021008001041011MA1999999092491MD1999999-0181REMSYN070AAXX  24184 83182 32597 80506 10325 20155 39249 40055 85241 333 59018;
0156831820999992009022512004-11300-041867FM-12+074799999V0200901N004110075019N0100001N1+02451+01721101201ADDGF108991061051008001001011KA1240N+01591MA1999999093071MD1999999+0031REMSYN076AAXX  25124 83182 32597 80908 10245 20172 39307 40120 86501 333 20159 58003;
0137831820999992009022518004-11300-041867FM-12+074799999V0201401N004112200019N0100001N1+03281+01491100631ADDGF108991041021008001001011MA1999999092611MD1999999+0121REMSYN070AAXX  25184 83182 32597 81408 10328 20149 39261 40063 84201 333 58012;
0168831820999992009022600004-11300-041867FM-12+074799999V0200901N003619999999N0010001N1+02611+01751100991ADDGF108991001001999999001011KA1240M+03341MA1999999092891MD1999999-0011REMSYN088AAXX  26004 83182 32994 80907 10261 20175 39289 40099 80001 333 10334 29054 55103 59001;
0156831820999992009022612004-11300-041867FM-12+074799999V0201401N005110075019N0100001N1+02571+01911100981ADDGF108991071051008001001011KA1240N+01501MA1999999092901MD1999999-0171REMSYN076AAXX  26124 83182 32597 81410 10257 20191 39290 40098 87501 333 20150 59017;
0137831820999992009022618004-11300-041867FM-12+074799999V0201401N005110075019N0100001N1+03211+01471100611ADDGF108991051021008001001011MA1999999092571MD1999999-0041REMSYN070AAXX  26184 83182 32597 81410 10321 20147 39257 40061 85201 333 59004;
0168831820999992009022700004-11300-041867FM-12+074799999V0201401N003119999999N0010001N1+02531+01621100961ADDGF108991001001999999001011KA1240M+03271MA1999999092831MD1999999-0061REMSYN088AAXX  27004 83182 32994 81406 10253 20162 39283 40096 80001 333 10327 29054 55087 59006;
0156831820999992009022712004-11300-041867FM-12+074799999V0200901N005712200019N0100001N1+02631+01651101161ADDGF108991011021008001001011KA1240N+01521MA1999999093061MD1999999+0161REMSYN076AAXX  27124 83182 32597 80911 10263 20165 39306 40116 81201 333 20152 58016;
0137831820999992009022718004-11300-041867FM-12+074799999V0200901N004110075019N0100001N1+03141+01411100751ADDGF106991061021008001001001MA1999999092691MD1999999+0121REMSYN070AAXX  27184 83182 32597 60908 10314 20141 39269 40075 86200 333 58012;
0168831820999992009022800004-11300-041867FM-12+074799999V0201401N003112200019N0010001N1+02481+01621100971ADDGF102991021001017501041001KA1240M+03211MA1999999092871MD1999999+0041REMSYN088AAXX  28004 83182 32794 21406 10248 20162 39287 40097 82040 333 10321 29052 55101 58004;
0156831820999992009022812004-11300-041867FM-12+074799999V0201401N004110450019N0100001N1+02501+01841101221ADDGF108991031021008001011011KA1240N+01691MA1999999093091MD1999999+0031REMSYN076AAXX  28124 83182 32597 81408 10250 20184 39309 40122 83211 333 20169 58003;
0137831820999992009022818004-11300-041867FM-12+074799999V0201401N003610450019N0100001N1+03081+01781100781ADDGF108991041021008001041011MA1999999092721MD1999999+0031REMSYN070AAXX  28184 83182 32597 81407 10308 20178 39272 40078 84241 333 58003;
0168831820999992009030100004-11300-041867FM-12+074799999V0201401N003112200019N0010001N1+02461+01971101101ADDGF108991021001017501031011KA1240M+03191MA1999999092971MD1999999+0101REMSYN088AAXX  01004 83182 32794 81406 10246 20197 39297 40110 82031 333 10319 29065 55062 58010;
0156831820999992009030112004-11300-041867FM-12+074799999V0200901N005710075019N0100001N1+02621+01641101321ADDGF108991081051008001999999KA1240N+01691MA1999999093201MD1999999+0111REMSYN076AAXX  01124 83182 32597 80911 10262 20164 39320 40132 885// 333 20169 58011;
0168831820999992009030200004-11300-041867FM-12+074799999V0200901N005110450019N0010001N1+02541+01811101211ADDGF108991021021008001041011KA1240M+03311MA1999999093111MD1999999+0141REMSYN088AAXX  02004 83182 32594 80910 10254 20181 39311 40121 82241 333 10331 29061 55087 58014;
0156831820999992009030212004-11300-041867FM-12+074799999V0201401N004612200019N0100001N1+02631+01621101241ADDGF108991011011012501001011KA1240N+01621MA1999999093141MD1999999-0061REMSYN076AAXX  02124 83182 32697 81409 10263 20162 39314 40124 81101 333 20162 59006;
0168831820999992009030300004-11300-041867FM-12+074799999V0200901N003119999999N0010001N1+02611+01411100981ADDGF108991001001999999001011KA1240M+03431MA1999999092901MD1999999-0211REMSYN088AAXX  03004 83182 32994 80906 10261 20141 39290 40098 80001 333 10343 29050 55111 59021;
0156831820999992009030312004-11300-041867FM-12+074799999V0201401N004112200019N0100001N1+02641+01631101321ADDGF101991011011012501001001KA1240N+01771MA1999999093211MD1999999+0071REMSYN076AAXX  03124 83182 32697 11408 10264 20163 39321 40132 81100 333 20177 58007;
0168831820999992009030400004-11300-041867FM-12+074799999V0200901N003112200019N0010001N1+02761+01591100941ADDGF108991021021008001001011KA1240M+03451MA1999999092901MD1999999+0001REMSYN088AAXX  04004 83182 32594 80906 10276 20159 39290 40094 82201 333 10345 29051 55111 58000;
0116831820999992009030412004-11300-041867FM-12+074799999V0200901N002119999999N0100001N1+02731+02171999999ADDGF108991999999008001999999REMSYN078AAXX  04124 83182 32597 80904 10273 202172 39309 40113 83201 333 20187 590012;
0168831820999992009030500004-11300-041867FM-12+074799999V0203601N003110450019N0100001N1+02701+01831101001ADDGF108991021051008001041011KA1240M+03541MA1999999092951MD1999999+0051REMSYN088AAXX  05004 83182 32597 83606 10270 20183 39295 40100 82541 333 10354 29/// 55107 58005;
0156831820999992009030512004-11300-041867FM-12+074799999V0200501N002610075019N0100001N1+02731+01911101071ADDGF108991051021008001001011KA1240N+01841MA1999999093021MD1999999-0071REMSYN076AAXX  05124 83182 32597 80505 10273 20191 39302 40107 85201 333 20184 59007;
0168831820999992009030600004-11300-041867FM-12+074799999V0200901N003111050019N0010001N1+02781+01581100961ADDGF108991021001017501041021KA1240M+03501MA1999999092941MD1999999+0011REMSYN088AAXX  06004 83182 32794 80906 10278 20158 39294 40096 82042 333 10350 29/// 55097 58001;
0156831820999992009030612004-11300-041867FM-12+074799999V0200501N002110075019N0100001N1+02601+01961101171ADDGF108991081051008001999999KA1240N+02121MA1999999093111MD1999999+0091REMSYN076AAXX  06124 83182 32597 80504 10260 20196 39311 40117 885// 333 20212 58009;
0196831820999992009030700004-11300-041867FM-12+074799999V0203601N002110450019N0010001N1+02361+02031101011ADDAY121061AY221061GF108991041031008001021999KA1240M+03131MA1999999092891MD1999999-0051MW1131REMSYN094AAXX  07004 83182 31594 83604 10236 20203 39289 40101 71322 8432/ 333 10313 29/// 55023 59005;
0156831820999992009030712004-11300-041867FM-12+074799999V0203201N001510450019N0100001N1+02581+01991101361ADDGF108991041031008001061021KA1240N+01961MA1999999093201MD1999999+0091REMSYN076AAXX  07124 83182 32597 83203 10258 20199 39320 40136 84362 333 20196 58009;
0196831820999992009030800004-11300-041867FM-12+074799999V0203601N001010450019N0010001N1+02591+01691101231ADDAY121061AY221061GF108991031031008001041021KA1240M+03231MA1999999093111MD1999999+0221MW1131REMSYN094AAXX  08004 83182 31594 83602 10259 20169 39311 40123 71322 83342 333 10323 29/// 55035 58022;
0156831820999992009030812004-11300-041867FM-12+074799999V0200901N003110450019N0100001N1+02621+01911101231ADDGF108991031021008001061021KA1240N+01821MA1999999093131MD1999999-0071REMSYN076AAXX  08124 83182 32597 80906 10262 20191 39313 40123 83262 333 20182 59007;
0168831820999992009030900004-11300-041867FM-12+074799999V0200901N003119999999N0010001N1+02581+01581100951ADDGF108991001001999999001021KA1240M+03261MA1999999092871MD1999999-0241REMSYN088AAXX  09004 83182 32994 80906 10258 20158 39287 40095 80002 333 10326 29/// 55043 59024;
0156831820999992009030912004-11300-041867FM-12+074799999V0201401N004112200019N0100001N1+02581+01641101281ADDGF102991011011012501041001KA1240N+01691MA1999999093171MD1999999+0041REMSYN076AAXX  09124 83182 32697 21408 10258 20164 39317 40128 81140 333 20169 58004;
0178831820999992009031000004-11300-041867FM-12+074799999V0200901N003112200019N0010001N1+02601+01171100901ADDGA1001+999999999GF100991001001999999001001KA1240M+03411MA1999999092791MD1999999-0081REMSYN082AAXX  10004 83182 32994 00906 10260 20117 39279 40090 333 10341 29/// 55105 59008;
0156831820999992009031012004-11300-041867FM-12+074799999V0201801N004119999999N0100001N1+02701+01661101201ADDGF108991001001999999001011KA1240N+01771MA1999999093121MD1999999-0051REMSYN076AAXX  10124 83182 32997 81808 10270 20166 39312 40120 80001 333 20177 59005;
0168831820999992009031100004-11300-041867FM-12+074799999V0200901N004112200019N0010001N1+02721+01421100941ADDGF108991011021008001001011KA1240M+03511MA1999999092901MD1999999+0111REMSYN088AAXX  11004 83182 32594 80908 10272 20142 39290 40094 81201 333 10351 29/// 55109 58011;
0156831820999992009031112004-11300-041867FM-12+074799999V0200901N004112200019N0100001N1+02661+01591101281ADDGF101991011011012501001001KA1240N+01791MA1999999093211MD1999999+0091REMSYN076AAXX  11124 83182 32697 10908 10266 20159 39321 40128 81100 333 20179 58009;
0168831820999992009031200004-11300-041867FM-12+074799999V0201401N003112200019N0010001N1+02691+01351100811ADDGF102991021021008001001001KA1240M+03491MA1999999092761MD1999999-0141REMSYN088AAXX  12004 83182 32594 21406 10269 20135 39276 40081 82200 333 10349 29/// 55112 59014;
0156831820999992009031212004-11300-041867FM-12+074799999V0200901N004612200019N0100001N1+02681+01581101151ADDGF108991031021008001001011KA1240N+01781MA1999999093091MD1999999-0141REMSYN076AAXX  12124 83182 32597 80909 10268 20158 39309 40115 83201 333 20178 59014;
0187831820999992009031300004-11300-041867FM-12+074799999V0200901N002119999999N0010001N1+02601+01541100851ADDGF108991999001017501051001KA1240M+03411MA1999999092801MD1999999+0041REMSYN088AAXX  13004 83182 32794 80904 10260 20154 39280 40085 82050 333 10341 29/// 55104 58004;EQDQ01+000022SCOTLC
0156831820999992009031312004-11300-041867FM-12+074799999V0200901N004110450019N0100001N1+02701+01601101091ADDGF108991011011012501041011KA1240N+01871MA1999999093021MD1999999-0071REMSYN076AAXX  13124 83182 32697 80908 10270 20160 39302 40109 81141 333 20187 59007;
0168831820999992009031400004-11300-041867FM-12+074799999V0201401N003112200019N0010001N1+02781+01181100801ADDGF108991041001017501051011KA1240M+03461MA1999999092781MD1999999-0021REMSYN088AAXX  14004 83182 32794 81406 10278 20118 39278 40080 84051 333 10346 29/// 55106 59002;
0156831820999992009031412004-11300-041867FM-12+074799999V0200901N001012200019N0100001N1+02841+01431101051ADDGF102991021021008001001001KA1240N+01821MA1999999093041MD1999999+0021REMSYN076AAXX  14124 83182 32597 20902 10284 20143 39304 40105 82200 333 20182 58002;
0168831820999992009031500004-11300-041867FM-12+074799999V0203201N002610450019N0010001N1+02821+01771100971ADDGF108991041031008001041011KA1240M+03551MA1999999092971MD1999999+0191REMSYN088AAXX  15004 83182 32594 83205 10282 20177 39297 40097 84341 333 10355 29/// 55096 58019;
0201831820999992009031512004-11300-041867FM-12+074799999V0203201N002610450019N0100001N1+02521+02021101031ADDAA124005191AY161061AY221061GF108991021031008001041021KA1240N+01901MA1999999092961MD1999999-0081MW1021REMSYN088AAXX  15124 83182 21597 83205 10252 20202 39296 40103 70262 82342 333 20190 59008 60054;
0168831820999992009031600004-11300-041867FM-12+074799999V0203201N001510450019N0010001N1+02581+01991101061ADDGF108991011021008001041021KA1240M+03251MA1999999092951MD1999999-0021REMSYN088AAXX  16004 83182 32594 83203 10258 20199 39295 40106 81242 333 10325 29/// 55087 59002;
0156831820999992009031612004-11300-041867FM-12+074799999V0200501N002112200019N0100001N1+02901+01751101101ADDGF108991041021008001001011KA1240N+01941MA1999999093061MD1999999+0101REMSYN076AAXX  16124 83182 32597 80504 10290 20175 39306 40110 84201 333 20194 58010;
0213831820999992009031700004-11300-041867FM-12+074799999V0203201N003110450019N0010001N1+02431+01951101111ADDAA106000891AY161061AY221061GF108991031031008001021999KA1240M+03261MA1999999093041MD1999999+0091MW1131REMSYN100AAXX  17004 83182 21594 83206 10243 20195 39304 40111 71362 8332/ 333 10326 29/// 55076 58009 69971;
0213831820999992009031800004-11300-041867FM-12+074799999V0200901N001510450019N0100001N1+02511+01981101191ADDAA106000891AY161061AY221061GF108991031031008001021011KA1240M+03451MA1999999093111MD1999999+0161MW1131REMSYN100AAXX  18004 83182 21597 80903 10251 20198 39311 40119 71362 83321 333 10345 29/// 55/// 58016 69981;
0173831820999992009031812004-11300-041867FM-12+074799999V0200901N005710075019N0100001N1+02661+01821101311ADDAA124000891GF108991061021008001001011KA1240N+01861MA1999999093201MD1999999+0071REMSYN082AAXX  18124 83182 22597 80911 10266 20182 39320 40131 86201 333 20186 58007 69984;
0168831820999992009031900004-11300-041867FM-12+074799999V0200901N002619999999N0010001N1+02601+01511101101ADDGF108991001001999999001011KA1240M+03371MA1999999093031MD1999999-0081REMSYN088AAXX  19004 83182 32994 80905 10260 20151 39303 40110 80001 333 10337 29/// 55100 59008;
0156831820999992009031912004-11300-041867FM-12+074799999V0201401N003112200019N0100001N1+02681+01811101121ADDGF108991021021008001001011KA1240N+01771MA1999999093051MD1999999-0151REMSYN076AAXX  19124 83182 32597 81406 10268 20181 39305 40112 82201 333 20177 59015;
0168831820999992009032000004-11300-041867FM-12+074799999V0201401N001510450019N0010001N1+02661+01531100971ADDGF108991031021008001051011KA1240M+03531MA1999999092911MD1999999-0121REMSYN088AAXX  20004 83182 32594 81403 10266 20153 39291 40097 83251 333 10353 29/// 55098 59012;
0156831820999992009032012004-11300-041867FM-12+074799999V0200901N004610075019N0100001N1+02781+01731101071ADDGF106991061021008001001001KA1240N+01881MA1999999093021MD1999999-0031REMSYN076AAXX  20124 83182 32597 60909 10278 20173 39302 40107 86200 333 20188 59003;
0232831820999992009032100004-11300-041867FM-12+074799999V0203601N002110075019N0010001N1+02781+01731100921ADDAA106000091AY161061AY221061GF108991081051008001999999KA1240M+03371MA1999999092921MD1999999+0011MW1021REMSYN100AAXX  21004 83182 21594 83604 10278 20173 39292 40092 70262 885// 333 10337 29/// 55095 58001 69921;EQDQ01  00002PRCP06
0192831820999992009032112004-11300-041867FM-12+074799999V0200901N003110075019N0100001N1+02801+01871101011ADDAA124000091GF108991061021008001001011KA1240N+01881MA1999999093001MD1999999-0021REMSYN082AAXX  21124 83182 22597 80906 10280 20187 39300 40101 86201 333 20188 59002 69924;EQDQ01  00002PRCP24
0196831820999992009032200004-11300-041867FM-12+074799999V0203201N001010075019N0010001N1+02881+01831100781ADDAY121061AY221061GF108991061031008001021011KA1240M+03581MA1999999092801MD1999999-0121MW1131REMSYN094AAXX  22004 83182 31594 83202 10288 20183 39280 40078 71322 86321 333 10358 29/// 55095 59012;
0156831820999992009032212004-11300-041867FM-12+074799999V0200901N003110075019N0100001N1+02941+01691100901ADDGF108991061021008001001011KA1240N+01981MA1999999092931MD1999999-0071REMSYN076AAXX  22124 83182 32597 80906 10294 20169 39293 40090 86201 333 20198 59007;
0213831820999992009032300004-11300-041867FM-12+074799999V0200501N003110042019N0010001N1+02261+02111100781ADDAA106022191AY161061AY221061GF108991061031004501021999KA1240M+03351MA1999999092721MD1999999-0081MW1961REMSYN100AAXX  23004 83182 21494 80506 10226 20211 39272 40078 79662 8632/ 333 10335 29/// 55056 59008 60221;
0201831820999992009032312004-11300-041867FM-12+074799999V0200901N003110450019N0100001N1+02701+01741101001ADDAA124023191AY161061AY221061GF108991021021008001041011KA1240N+01871MA1999999092861MD1999999-0071MW1021REMSYN088AAXX  23124 83182 21597 80906 10270 20174 39286 40100 70262 82241 333 20187 59007 60234;
0168831820999992009032400004-11300-041867FM-12+074799999V0203201N001510075019N0010001N1+02501+01911100941ADDGF108991081051008001999999KA1240M+03301MA1999999092861MD1999999+0141REMSYN088AAXX  24004 83182 32594 83203 10250 20191 39286 40094 885// 333 10330 29/// 55083 58014;
0156831820999992009032412004-11300-041867FM-12+074799999V0200901N001510075019N0100001N1+02571+01931101041ADDGF108991051051008001011999KA1240N+01841MA1999999092941MD1999999+0081REMSYN076AAXX  24124 83182 32597 80903 10257 20193 39294 40104 8551/ 333 20184 58008;
0168831820999992009032500004-11300-041867FM-12+074799999V0203601N001010075019N0010001N1+02441+02011100931ADDGF108991081051008001999999KA1240M+03131MA1999999092821MD1999999-0041REMSYN088AAXX  25004 83182 32594 83602 10244 20201 39282 40093 885// 333 10313 29/// 55012 59004;
0201831820999992009032512004-11300-041867FM-12+074799999V0200901N003110075019N0100001N1+02601+01631101031ADDAA124000591AY161061AY221061GF108991061031008001001011KA1240N+01941MA1999999092911MD1999999-0031MW1021REMSYN088AAXX  25124 83182 21597 80906 10260 20163 39291 40103 70262 86301 333 20194 59003 69944;
0196831820999992009032600004-11300-041867FM-12+074799999V0202701N001510075019N0010001N1+02581+02061100781ADDAY121061AY221061GF108991061031008001021999KA1240M+03101MA1999999092721MD1999999-0101MW1131REMSYN094AAXX  26004 83182 31594 82703 10258 20206 39272 40078 71322 8632/ 333 10310 29/// 55083 59010;
0201831820999992009032612004-11300-041867FM-12+074799999V0200901N003110450019N0100001N1+02661+01901101021ADDAA124009991AY161061AY221061GF108991041021008001041021KA1240N+01831MA1999999092941MD1999999+0031MW1021REMSYN088AAXX  26124 83182 21597 80906 10266 20190 39294 40102 70262 84242 333 20183 58003 60104;
0213831820999992009032700004-11300-041867FM-12+074799999V0203201N000510075019N0010001N1+02361+02051100931ADDAA106000591AY161061AY261061GF108991061031008001021999KA1240M+03241MA1999999092821MD1999999+0101MW1131REMSYN100AAXX  27004 83182 21594 83201 10236 20205 39282 40093 71366 8632/ 333 10324 29/// 55056 58010 69961;
0173831820999992009032712004-11300-041867FM-12+074799999V0201401N001010075019N0100001N1+02581+02011101211ADDAA124000591GF108991061031008001001011KA1240N+01931MA1999999093061MD1999999+0121REMSYN082AAXX  27124 83182 22597 81402 10258 20201 39306 40121 86301 333 20193 58012 69964;
0213831820999992009032800004-11300-041867FM-12+074799999V0201401N002110075019N0010001N1+02241+01921101011ADDAA106001091AY161061AY221061GF108991061031008001021999KA1240M+03211MA1999999092861MD1999999+0041MW1131REMSYN100AAXX  28004 83182 21594 81404 10224 20192 39286 40101 71362 8632/ 333 10321 29/// 55059 58004 60011;
0173831820999992009032812004-11300-041867FM-12+074799999V0200901N003110075019N0100001N1+02761+02001101091ADDAA124001091GF108991051021008001001011KA1240N+01791MA1999999092961MD1999999-0101REMSYN082AAXX  28124 83182 22597 80906 10276 20200 39296 40109 85201 333 20179 59010 60014;
0213831820999992009032900004-11300-041867FM-12+074799999V0203201N003110042019N0010001N1+02201+02031100921ADDAA106016091AY161061AY221061GF108991061031004501021999KA1240M+03371MA1999999092831MD1999999-0031MW1951REMSYN100AAXX  29004 83182 21494 83206 10220 20203 39283 40092 79562 8632/ 333 10337 29/// 55103 59003 60161;
0173831820999992009032912004-11300-041867FM-12+074799999V0202701N001510075019N0100001N1+02641+01931101121ADDAA124016091GF108991061031008001001011KA1240N+01831MA1999999092961MD1999999+0001REMSYN082AAXX  29124 83182 22597 82703 10264 20193 39296 40112 86301 333 20183 58000 60164;
0168831820999992009033000004-11300-041867FM-12+074799999V0203201N001012200019N0010001N1+02621+01881100901ADDGF108991021021008001001011KA1240M+03341MA1999999092851MD1999999+0021REMSYN088AAXX  30004 83182 32594 83202 10262 20188 39285 40090 82201 333 10334 29/// 55105 58002;
0201831820999992009033012004-11300-041867FM-12+074799999V0201401N001510075019N0100001N1+02231+02041101211ADDAA124049091AY161061AY261061GF108991051071008001021999KA1240N+01711MA1999999093051MD1999999+0091MW1021REMSYN088AAXX  30124 83182 21597 81403 10223 20204 39305 40121 70266 8572/ 333 20171 58009 60494;
0168831820999992009033100004-11300-041867FM-12+074799999V0201401N000510042019N0010001N1+02421+02011100981ADDGF108991061071004501021999KA1240M+02971MA1999999092801MD1999999-0051REMSYN088AAXX  31004 83182 32494 81401 10242 20201 39280 40098 8672/ 333 10297 29/// 55024 59005;
0156831820999992009033112004-11300-041867FM-12+074799999V0201801N003110075019N0100001N1+02601+02121101031ADDGF108991061031008001041021KA1240N+01951MA1999999092911MD1999999-0141REMSYN076AAXX  31124 83182 32597 81806 10260 20212 39291 40103 86342 333 20195 59014;
0185831820999992009040100004-11300-041867FM-12+074799999V0203201N002110042019N0010001N1+02181+02061101071ADDAA106007191GF108991061071004501021999KA1240M+02651MA1999999092921MD1999999+0121REMSYN094AAXX  01004 83182 22494 83204 10218 20206 39292 40107 8672/ 333 10265 29/// 55026 58012 60071;
0173831820999992009040112004-11300-041867FM-12+074799999V0203601N001510075019N0100001N1+02481+01921101301ADDAA124007191GF108991061021008001041011KA1240N+01701MA1999999093111MD1999999+0201REMSYN082AAXX  01124 83182 22597 83603 10248 20192 39311 40130 86241 333 20170 58020 60074;
0168831820999992009040200004-11300-041867FM-12+074799999V0203201N001012200019N0010001N1+02481+02011101151ADDGF108991021001017501041011KA1240M+03031MA1999999093021MD1999999+0101REMSYN088AAXX  02004 83182 32794 83202 10248 20201 39302 40115 82041 333 10303 29/// 55104 58010;
0156831820999992009040212004-11300-041867FM-12+074799999V0200901N001010075019N0100001N1+02461+02031101111ADDGF108991081051008001999999KA1240N+01851MA1999999092971MD1999999-0141REMSYN076AAXX  02124 83182 32597 80902 10246 20203 39297 40111 885// 333 20185 59014;
0168831820999992009040300004-11300-041867FM-12+074799999V0201401N002610450019N0010001N1+02441+01901101011ADDGF108991021051008001051021KA1240M+03161MA1999999092891MD1999999-0131REMSYN088AAXX  03004 83182 32594 81405 10244 20190 39289 40101 82552 333 10316 29/// 55034 59013;
0156831820999992009040312004-11300-041867FM-12+074799999V0201401N001510075019N0100001N1+02531+01841101131ADDGF108991061021008001001021KA1240N+01831MA1999999093001MD1999999+0031REMSYN076AAXX  03124 83182 32597 81403 10253 20184 39300 40113 86202 333 20183 58003;
0213831820999992009040400004-11300-041867FM-12+074799999V0203601N001010450019N0010001N1+02141+01991100981ADDAA106032091AY161061AY221061GF108991031031008001021999KA1240M+03181MA1999999092821MD1999999-0071MW1131REMSYN100AAXX  04004 83182 21594 83602 10214 20199 39282 40098 71362 8332/ 333 10318 29/// 55065 59007 60321;
0201831820999992009040412004-11300-041867FM-12+074799999V0201401N002610042019N0100001N1+02401+01971101301ADDAA124032091AY161061AY221061GF108991061071004501021999KA1240N+01771MA1999999093071MD1999999+0071MW1021REMSYN088AAXX  04124 83182 21497 81405 10240 20197 39307 40130 70262 8672/ 333 20177 58007 60324;
0213831820999992009040500004-11300-041867FM-12+074799999V0201401N001010450019N0010001N1+02201+02061101081ADDAA106004191AY161061AY221061GF108991021051008001041021KA1240M+02731MA1999999092891MD1999999+0071MW1021REMSYN100AAXX  05004 83182 21594 81402 10220 20206 39289 40108 70262 82542 333 10273 29/// 55024 58007 60041;
0173831820999992009040512004-11300-041867FM-12+074799999V0200901N002110075019N0100001N1+02431+01871101301ADDAA124004191GF108991081051008001999999KA1240N+01761MA1999999093091MD1999999+0021REMSYN082AAXX  05124 83182 22597 80904 10243 20187 39309 40130 885// 333 20176 58002 60044;
0196831820999992009040600004-11300-041867FM-12+074799999V0203601N000510450019N0010001N1+02401+02031101271ADDAY121061AY221061GF108991011031008001041021KA1240M+03081MA1999999093101MD1999999+0211MW1131REMSYN094AAXX  06004 83182 31594 83601 10240 20203 39310 40127 71322 81342 333 10308 29/// 55083 58021;
0156831820999992009040612004-11300-041867FM-12+074799999V0201401N001012200019N0100001N1+02581+01741101371ADDGF108991011021008001001011KA1240N+01771MA1999999093231MD1999999+0141REMSYN076AAXX  06124 83182 32597 81402 10258 20174 39323 40137 81201 333 20177 58014;
0213831820999992009040700004-11300-041867FM-12+074799999V0200901N000510042019N0010001N1+02431+02031101111ADDAA106000591AY121061AY221061GF108991061031004501021999KA1240M+03231MA1999999092981MD1999999-0121MW1611REMSYN100AAXX  07004 83182 21494 80901 10243 20203 39298 40111 76122 8632/ 333 10323 29/// 55104 59012 69941;
0173831820999992009040712004-11300-041867FM-12+074799999V0200901N003112200019N0100001N1+02581+01741101351ADDAA124000591GF108991011021008001001011KA1240N+01821MA1999999093211MD1999999-0021REMSYN082AAXX  07124 83182 22597 80906 10258 20174 39321 40135 81201 333 20182 59002 69944;
0168831820999992009040800004-11300-041867FM-12+074799999V0200901N001010450019N0010001N1+02501+01771101231ADDGF108991011021008001041011KA1240M+03201MA1999999093101MD1999999+0121REMSYN088AAXX  08004 83182 32594 80902 10250 20177 39310 40123 81241 333 10320 29/// 55107 58012;
0156831820999992009040812004-11300-041867FM-12+074799999V0201401N002112200019N0100001N1+02641+01801101301ADDGF108991021021008001001011KA1240N+01721MA1999999093181MD1999999-0031REMSYN076AAXX  08124 83182 32597 81404 10264 20180 39318 40130 82201 333 20172 59003;
0168831820999992009040900004-11300-041867FM-12+074799999V0203201N002110450019N0010001N1+02661+01741101051ADDGF108991041021008001041011KA1240M+03261MA1999999092981MD1999999-0121REMSYN088AAXX  09004 83182 32594 83204 10266 20174 39298 40105 84241 333 10326 29/// 55107 59012;
0201831820999992009040912004-11300-041867FM-12+074799999V0203201N001510075019N0100001N1+02441+02071101321ADDAA124032091AY161061AY221061GF108991051031008001061021KA1240N+01871MA1999999093201MD1999999+0021MW1021REMSYN088AAXX  09124 83182 21597 83203 10244 20207 39320 40132 70262 85362 333 20187 58002 60324;
0168831820999992009041000004-11300-041867FM-12+074799999V0200901N000510450019N0010001N1+02261+01981101331ADDGF108991021021008001021999KA1240M+02681MA1999999093141MD1999999+0161REMSYN088AAXX  10004 83182 32594 80901 10226 20198 39314 40133 8222/ 333 10268 29/// 55015 58016;
0156831820999992009041012004-11300-041867FM-12+074799999V0201401N000512200019N0100001N1+02581+01941101281ADDGF108991011021008001001011KA1240N+01761MA1999999093111MD1999999-0091REMSYN076AAXX  10124 83182 32597 81401 10258 20194 39311 40128 81201 333 20176 59009;
0213831820999992009041100004-11300-041867FM-12+074799999V0203601N003110075019N0010001N1+02181+02011101011ADDAA106001091AY161061AY221061GF108991061031008001021999KA1240M+03061MA1999999092861MD1999999-0281MW1131REMSYN100AAXX  11004 83182 21594 83606 10218 20201 39286 40101 71362 8632/ 333 10306 29/// 55049 59028 60011;
0201831820999992009041112004-11300-041867FM-12+074799999V0201401N001510075019N0100001N1+02401+02111101491ADDAA124033091AY161061AY261061GF108991061031008001021999KA1240N+01741MA1999999093251MD1999999+0141MW1021REMSYN088AAXX  11124 83182 21597 81403 10240 20211 39325 40149 70266 8632/ 333 20174 58014 60334;
0196831820999992009041200004-11300-041867FM-12+074799999V0201401N001010450019N0010001N1+02321+02071101451ADDAY121061AY221061GF108991011031008001041011KA1240M+02791MA1999999093251MD1999999+0391MW1131REMSYN094AAXX  12004 83182 31594 81402 10232 20207 39325 40145 71322 81341 333 10279 29/// 55026 58039;
0156831820999992009041212004-11300-041867FM-12+074799999V0200901N005112200019N0100001N1+02531+01921101421ADDGF108991021021008001001011KA1240N+01701MA1999999093241MD1999999-0011REMSYN076AAXX  12124 83182 32597 80910 10253 20192 39324 40142 82201 333 20170 59001;
0168831820999992009041300004-11300-041867FM-12+074799999V0201401N003110450019N0010001N1+02311+01841101361ADDGF108991011021008001051011KA1240M+03031MA1999999093181MD1999999-0071REMSYN088AAXX  13004 83182 32594 81406 10231 20184 39318 40136 81251 333 10303 29/// 55107 59007;
0156831820999992009041312004-11300-041867FM-12+074799999V0200901N002110075019N0100001N1+02361+01781101541ADDGF108991081051008001999999KA1240N+01621MA1999999093331MD1999999+0091REMSYN076AAXX  13124 83182 32597 80904 10236 20178 39333 40154 885// 333 20162 58009;
0168831820999992009041400004-11300-041867FM-12+074799999V0201401N002612200019N0010001N1+02271+01631101561ADDGF108991011051008001001011KA1240M+02871MA1999999093331MD1999999+0151REMSYN088AAXX  14004 83182 32594 81405 10227 20163 39333 40156 81501 333 10287 29/// 55053 58015;
0168831820999992009041500004-11300-041867FM-12+074799999V0201401N003119999999N0010001N1+02361+01591101341ADDGF108991001001999999001011KA1240M+03101MA1999999093161MD1999999-0171REMSYN088AAXX  15004 83182 32994 81406 10236 20159 39316 40134 80001 333 10310 29/// 55103 59017;
0156831820999992009041512004-11300-041867FM-12+074799999V0201401N004110450019N0100001N1+02531+01751101551ADDGF108991031021008001041011KA1240N+01851MA1999999093371MD1999999-0101REMSYN076AAXX  15124 83182 32597 81408 10253 20175 39337 40155 83241 333 20185 59010;
0168831820999992009041600004-11300-041867FM-12+074799999V0200901N001512200019N0010001N1+02481+01801101321ADDGF108991031001017501051011KA1240M+03131MA1999999093181MD1999999+0021REMSYN088AAXX  16004 83182 32794 80903 10248 20180 39318 40132 83051 333 10313 29/// 55086 58002;
0156831820999992009041612004-11300-041867FM-12+074799999V0201401N003612200019N0100001N1+02531+01851101471ADDGF108991031021008001001011KA1240N+01521MA1999999093321MD1999999-0051REMSYN076AAXX  16124 83182 32597 81407 10253 20185 39332 40147 83201 333 20152 59005;
0168831820999992009041700004-11300-041867FM-12+074799999V0201401N002119999999N0010001N1+02361+01781101471ADDGF108991001001999999001011KA1240M+03111MA1999999093301MD1999999-0121REMSYN088AAXX  17004 83182 32994 81404 10236 20178 39330 40147 80001 333 10311 29/// 55100 59012;
0156831820999992009041712004-11300-041867FM-12+074799999V0201401N004610075019N0100001N1+02461+01731101501ADDGF108991061021008001041011KA1240N+01661MA1999999093311MD1999999-0211REMSYN076AAXX  17124 83182 32597 81409 10246 20173 39331 40150 86241 333 20166 59021;
0178831820999992009041800004-11300-041867FM-12+074799999V02099999999992200019N0010001N1+02261+01791101381ADDGA1001+999999999GF100991001001999999001001KA1240M+03031MA1999999093181MD1999999-0121REMSYN082AAXX  18004 83182 32994 014// 10226 20179 39318 40138 333 10303 29/// 55106 59012;
0156831820999992009041812004-11300-041867FM-12+074799999V0201401N004110075019N0100001N1+02421+01721101481ADDGF108991061021008001001021KA1240N+01701MA1999999092371MD1999999-0041REMSYN076AAXX  18124 83182 32597 81408 10242 20172 39237 40148 86202 333 20170 59004;
0168831820999992009041900004-11300-041867FM-12+074799999V0201401N003110075019N0010001N1+02301+01791101311ADDGF108991081051008001999999KA1240M+02861MA1999999093121MD1999999-0061REMSYN088AAXX  19004 83182 32594 81406 10230 20179 39312 40131 885// 333 10286 29/// 55065 59006;
0156831820999992009041912004-11300-041867FM-12+074799999V0201401N006210075019N0100001N1+02361+01841101371ADDGF108991081051008001999999KA1240N+01721MA1999999093171MD1999999-0101REMSYN076AAXX  19124 83182 32597 81412 10236 20184 39317 40137 885// 333 20172 59010;
0168831820999992009042000004-11300-041867FM-12+074799999V0201401N004110075019N0010001N1+02161+01781101411ADDGF108991081051008001999999KA1240M+02721MA1999999093171MD1999999+0051REMSYN088AAXX  20004 83182 32594 81408 10216 20178 39317 40141 885// 333 10272 29/// 55050 58005;
0156831820999992009042012004-11300-041867FM-12+074799999V0201401N003610075019N0100001N1+02381+01801101501ADDGF108991081051008001999999KA1240N+01731MA1999999093261MD1999999+0091REMSYN076AAXX  20124 83182 32597 81407 10238 20180 39326 40150 885// 333 20173 58009;
0168831820999992009042100004-11300-041867FM-12+074799999V0201401N002610075019N0010001N1+02361+01891101531ADDGF108991061051008001001021KA1240M+03021MA1999999093321MD1999999+0151REMSYN088AAXX  21004 83182 32594 81405 10236 20189 39332 40153 86502 333 10302 29/// 55068 58015;
0156831820999992009042112004-11300-041867FM-12+074799999V0201401N005110450019N0100001N1+02501+02031101411ADDGF108991031021008001011011KA1240N+01731MA1999999093251MD1999999-0011REMSYN076AAXX  21124 83182 32597 81410 10250 20203 39325 40141 83211 333 20173 59001;
0168831820999992009042200004-11300-041867FM-12+074799999V0201401N002110075019N0010001N1+02321+01851101521ADDGF108991061051008001011999KA1240M+02981MA1999999093331MD1999999+0011REMSYN088AAXX  22004 83182 32594 81404 10232 20185 39333 40152 8651/ 333 10298 29/// 55050 58001;
0156831820999992009042212004-11300-041867FM-12+074799999V0201401N006210075019N0100001N1+02381+01841101431ADDGF108991081051008001999999KA1240N+01821MA1999999093231MD1999999+0021REMSYN076AAXX  22124 83182 32597 81412 10238 20184 39323 40143 885// 333 20182 58002;
0192831820999992009042312004-11300-041867FM-12+074799999V0201401N004610075019N0100001N1+02461+01901101321ADDAA124000091GF108991051051008001001011KA1240N+01651MA1999999093111MD1999999-0121REMSYN082AAXX  23124 83182 22597 81409 10246 20190 39311 40132 85501 333 20165 59012 69924;EQDQ01  00002PRCP24
0168831820999992009042400004-11300-041867FM-12+074799999V0201401N001510075019N0010001N1+02361+01931101331ADDGF108991081051008001999999KA1240M+02861MA1999999093151MD1999999-0161REMSYN088AAXX  24004 83182 32594 81403 10236 20193 39315 40133 885// 333 10286 29/// 55050 59016;
0156831820999992009042412004-11300-041867FM-12+074799999V0201401N003110450019N0100001N1+02581+01901101391ADDGF108991021021008001051011KA1240N+01811MA1999999093231MD1999999+0121REMSYN076AAXX  24124 83182 32597 81406 10258 20190 39323 40139 82251 333 20181 58012;
0168831820999992009042500004-11300-041867FM-12+074799999V0201401N002110075019N0100001N1+02481+01921101101ADDGF108991081051008001999999KA1240M+03001MA1999999092991MD1999999-0161REMSYN088AAXX  25004 83182 32597 81404 10248 20192 39299 40110 885// 333 10300 29/// 55058 59016;
0156831820999992009042512004-11300-041867FM-12+074799999V0201401N003110450019N0100001N1+02441+01811101291ADDGF108991041021008001051011KA1240N+01731MA1999999093141MD1999999-0091REMSYN076AAXX  25124 83182 32597 81406 10244 20181 39314 40129 84251 333 20173 59009;
0168831820999992009042600004-11300-041867FM-12+074799999V0200501N001010075019N0010001N1+02451+01921101361ADDGF108991081051008001999999KA1240M+03051MA1999999093201MD1999999+0211REMSYN088AAXX  26004 83182 32594 80502 10245 20192 39320 40136 885// 333 10305 29/// 55065 58021;
0156831820999992009042612004-11300-041867FM-12+074799999V0200901N002610450019N0100001N1+02581+01901101351ADDGF108991041021008001051021KA1240N+01771MA1999999093211MD1999999+0071REMSYN076AAXX  26124 83182 32597 80905 10258 20190 39321 40135 84252 333 20177 58007;
0213831820999992009042700004-11300-041867FM-12+074799999V0201401N003110042019N0010001N1+02231+02041101171ADDAA106009991AY161061AY221061GF108991061071004501021999KA1240M+02991MA1999999093011MD1999999-0191MW1021REMSYN100AAXX  27004 83182 21494 81406 10223 20204 39301 40117 70262 8672/ 333 10299 29/// 55042 59019 60101;
0173831820999992009042712004-11300-041867FM-12+074799999V0200901N003112200019N0100001N1+02581+01941101291ADDAA124009991GF108991011011012501001011KA1240N+01751MA1999999093121MD1999999-0091REMSYN082AAXX  27124 83182 22697 80906 10258 20194 39312 40129 81101 333 20175 59009 60104;
0213831820999992009042800004-11300-041867FM-12+074799999V0202301N001010042019N0010001N1+02201+02081101291ADDAA106024991AY161061AY221061GF108991061071004501021999KA1240M+03221MA1999999093121MD1999999+0111MW1611REMSYN100AAXX  28004 83182 21494 82302 10220 20208 39312 40129 76162 8672/ 333 10322 29/// 55098 58011 60251;
0201831820999992009042812004-11300-041867FM-12+074799999V0201401N001510450019N0100001N1+02391+01951101281ADDAA124035191AY161061AY261061GF108991011021008001051021KA1240N+01821MA1999999093071MD1999999-0051MW1021REMSYN088AAXX  28124 83182 21597 81403 10239 20195 39307 40128 70266 81252 333 20182 59005 60354;
0213831820999992009042900004-11300-041867FM-12+074799999V0202301N000510042019N0010001N1+02211+02061101281ADDAA106004191AY161061AY221061GF108991061071004501021999KA1240M+02841MA1999999093071MD1999999-0051MW1021REMSYN100AAXX  29004 83182 21494 82301 10221 20206 39307 40128 70262 8672/ 333 10284 29/// 55022 59005 60041;
0201831820999992009042912004-11300-041867FM-12+074799999V0201401N003110075019N0100001N1+02451+02061101421ADDAA124004191AY161061AY221061GF108991051051008001001011KA1240N+01771MA1999999093221MD1999999+0151MW1021REMSYN088AAXX  29124 83182 21597 81406 10245 20206 39322 40142 70262 85501 333 20177 58015 60044;
0168831820999992009043000004-11300-041867FM-12+074799999V0201401N003112200019N0100001N1+02151+01941101271ADDGF108991031051008001001011KA1240M+02811MA1999999093061MD1999999-0011REMSYN088AAXX  30004 83182 32597 81406 10215 20194 39306 40127 83501 333 10281 29/// 55025 59001;
0156831820999992009043012004-11300-041867FM-12+074799999V0200901N004110075019N0100001N1+02431+01791101471ADDGF106991061021008001001001KA1240N+01601MA1999999093251MD1999999+0031REMSYN076AAXX  30124 83182 32597 60908 10243 20179 39325 40147 86200 333 20160 58003;
0178831820999992009050100004-11300-041867FM-12+074799999V0201401N003112200019N0010001N1+02271+01731101421ADDGA1001+999999999GF100991001001999999001001KA1240M+02941MA1999999093201MD1999999+0141REMSYN082AAXX  01004 83182 32994 01406 10227 20173 39320 40142 333 10294 29/// 55076 58014;
0156831820999992009050112004-11300-041867FM-12+074799999V0201401N00361220001CN0100001N1+02431+01701101451ADDGF108991011011012501001041KA1240N+01591MA1999999093251MD1999999+0001REMSYN076AAXX  01124 83182 32697 81407 10243 20170 39325 40145 81104 333 20159 58000;
0168831820999992009050200004-11300-041867FM-12+074799999V0201401N003110075019N0010001N1+02281+01831101431ADDGF108991081051008001999999KA1240M+02881MA1999999093231MD1999999+0031REMSYN088AAXX  02004 83182 32594 81406 10228 20183 39323 40143 885// 333 10288 29/// 55061 58003;
0156831820999992009050212004-11300-041867FM-12+074799999V0201401N005112200019N0100001N1+02381+01681101361ADDGF108991021001017501031011KA1240N+01591MA1999999093161MD1999999-0011REMSYN076AAXX  02124 83182 32797 81410 10238 20168 39316 40136 82031 333 20159 59001;
0168831820999992009050300004-11300-041867FM-12+074799999V0201401N001510075019N0010001N1+02281+01731101431ADDGF108991081051008001999999KA1240M+02941MA1999999093231MD1999999+0001REMSYN088AAXX  03004 83182 32594 81403 10228 20173 39323 40143 885// 333 10294 29/// 55080 58000;
0156831820999992009050312004-11300-041867FM-12+074799999V0201401N003110075019N0100001N1+02181+01741101431ADDGF108991081051008001999999KA1240N+01731MA1999999093191MD1999999+0031REMSYN076AAXX  03124 83182 32597 81406 10218 20174 39319 40143 885// 333 20173 58003;
0168831820999992009050400004-11300-041867FM-12+074799999V0201401N002610075019N0100001N1+02181+01731101401ADDGF108991051051008001999999KA1240M+02671MA1999999093151MD1999999-0081REMSYN088AAXX  04004 83182 32597 81405 10218 20173 39315 40140 855// 333 10267 29/// 55000 59008;
0156831820999992009050412004-11300-041867FM-12+074799999V0201401N004612200019N0100001N1+02401+01601101471ADDGF108991011021008001001011KA1240N+01651MA1999999093251MD1999999+0061REMSYN076AAXX  04124 83182 32597 81409 10240 20160 39325 40147 81201 333 20165 58006;
0168831820999992009050500004-11300-041867FM-12+074799999V0201401N002610450019N0010001N1+02141+01641101411ADDGF108991011051008001051011KA1240M+02771MA1999999093171MD1999999+0021REMSYN088AAXX  05004 83182 32594 81405 10214 20164 39317 40141 81551 333 10277 29/// 55038 58002;
0156831820999992009050512004-11300-041867FM-12+074799999V0201401N005110450019N0100001N1+02421+01841101621ADDGF107991031021008001051001KA1240N+01591MA1999999093391MD1999999+0141REMSYN076AAXX  05124 83182 32597 71410 10242 20184 39339 40162 83250 333 20159 58014;
0168831820999992009050600004-11300-041867FM-12+074799999V0201401N002612200019N0010001N1+02151+01911101451ADDGF103991011021008001001021KA1240M+02861MA1999999093231MD1999999+0061REMSYN088AAXX  06004 83182 32594 31405 10215 20191 39323 40145 81202 333 10286 29/// 55039 58006;
0156831820999992009050612004-11300-041867FM-12+074799999V0201401N003112200019N0100001N1+02501+01871101501ADDGF108991031021008001001011KA1240N+01731MA1999999093291MD1999999-0101REMSYN076AAXX  06124 83182 32597 81406 10250 20187 39329 40150 83201 333 20173 59010;
0196831820999992009050700004-11300-041867FM-12+074799999V0201401N001510450019N0010001N1+02181+01631101441ADDAY121061AY221061GF108991011031008001041011KA1240M+02931MA1999999093241MD1999999+0011MW1131REMSYN094AAXX  07004 83182 32594 81403 10218 20163 39324 40144 71322 81341 333 10293 29/// 55071 58001;
0156831820999992009050712004-11300-041867FM-12+074799999V0200901N002110450019N0100001N1+02501+01811101441ADDGF108991011021008001041011KA1240N+01621MA1999999093241MD1999999-0651REMSYN076AAXX  07124 83182 32597 80904 10250 20181 39324 40144 81241 333 20162 59065;
0168831820999992009050800004-11300-041867FM-12+074799999V0200901N002110450019N0010001N1+02341+01931101391ADDGF108991011021008001051011KA1240M+03121MA1999999093211MD1999999-0031REMSYN088AAXX  08004 83182 32594 80904 10234 20193 39321 40139 81251 333 10312 29/// 55081 59003;
0156831820999992009050812004-11300-041867FM-12+074799999V0200901N003610450019N0100001N1+02581+01741101481ADDGF108991021021008001041011KA1240N+01741MA1999999093311MD1999999+0071REMSYN076AAXX  08124 83182 32597 80907 10258 20174 39331 40148 82241 333 20174 58007;
0196831820999992009050900004-11300-041867FM-12+074799999V0201401N003610450019N0010001N1+02341+01761101551ADDAY121061AY221061GF108991011031008001041011KA1240M+02981MA1999999093371MD1999999+0161MW1131REMSYN094AAXX  09004 83182 31594 81407 10234 20176 39337 40155 71322 81341 333 10298 29/// 55090 58016;
0156831820999992009050912004-11300-041867FM-12+074799999V0201401N006712200019N0100001N1+02501+01721101411ADDGF108991021021008001001011KA1240N+01701MA1999999093231MD1999999-0081REMSYN076AAXX  09124 83182 32597 81413 10250 20172 39323 40141 82201 333 20170 59008;
0168831820999992009051000004-11300-041867FM-12+074799999V0201401N002612200019N0010001N1+02171+01871101471ADDGF108991021001017501041011KA1240M+02751MA1999999093261MD1999999-0111REMSYN088AAXX  10004 83182 32794 81405 10217 20187 39326 40147 82041 333 10275 29/// 55066 59011;
0156831820999992009051012004-11300-041867FM-12+074799999V02099999999992200019N0100001N1+02431+01681101451ADDGF108991031001017501031011KA1240N+01651MA1999999093231MD1999999+0001REMSYN076AAXX  10124 83182 32797 814// 10243 20168 39323 40145 83031 333 20165 58000;
0168831820999992009051100004-11300-041867FM-12+074799999V0201401N002619999999N0010001N1+02231+01661101371ADDGF108991001001999999001011KA1240M+02961MA1999999093171MD1999999-0091REMSYN088AAXX  11004 83182 32994 81405 10223 20166 39317 40137 80001 333 10296 29/// 55079 59009;
0156831820999992009051112004-11300-041867FM-12+074799999V0201401N005112200019N0100001N1+02441+01661101331ADDGF108991011011012501001011KA1240N+01481MA1999999093141MD1999999-0091REMSYN076AAXX  11124 83182 32697 81410 10244 20166 39314 40133 81101 333 20148 59009;
0168831820999992009051200004-11300-041867FM-12+074799999V0200901N002110450019N0010001N1+02331+01601101191ADDGF108991021051008001051011KA1240M+03071MA1999999093031MD1999999-0141REMSYN088AAXX  12004 83182 32594 80904 10233 20160 39303 40119 82551 333 10307 29/// 55097 59014;
0156831820999992009051212004-11300-041867FM-12+074799999V0200901N004112200019N0100001N1+02461+01581101331ADDGF108991011021008001001011KA1240N+01521MA1999999093151MD1999999+0011REMSYN076AAXX  12124 83182 32597 80908 10246 20158 39315 40133 81201 333 20152 58001;
0168831820999992009051300004-11300-041867FM-12+074799999V0200901N003110075019N0010001N1+02401+01651101271ADDGF108991081051008001999999KA1240M+02831MA1999999093101MD1999999+0071REMSYN088AAXX  13004 83182 32594 80906 10240 20165 39310 40127 885// 333 10283 29/// 55059 58007;
0156831820999992009051312004-11300-041867FM-12+074799999V0201401N005110450019N0100001N1+02501+01621101341ADDGF108991011021008001041011KA1240N+01701MA1999999093181MD1999999+0031REMSYN076AAXX  13124 83182 32597 81410 10250 20162 39318 40134 81241 333 20170 58003;
0168831820999992009051400004-11300-041867FM-12+074799999V0201401N002119999999N0010001N1+02261+01641101271ADDGF108991001001999999001011KA1240M+02961MA1999999093101MD1999999+0001REMSYN088AAXX  14004 83182 32994 81404 10226 20164 39310 40127 80001 333 10296 29/// 55053 58000;
0156831820999992009051412004-11300-041867FM-12+074799999V0201401N004112200019N0100001N1+02491+01811101291ADDGF108991021021008001001011KA1240N+01691MA1999999093121MD1999999-0061REMSYN076AAXX  14124 83182 32597 81408 10249 20181 39312 40129 82201 333 20169 59006;
0168831820999992009051500004-11300-041867FM-12+074799999V0201401N002612200019N0010001N1+02181+01761101221ADDGF108991031051017501001011KA1240M+02991MA1999999093041MD1999999-0061REMSYN088AAXX  15004 83182 32794 81405 10218 20176 39304 40122 83501 333 10299 29/// 55071 59006;
0156831820999992009051512004-11300-041867FM-12+074799999V0200901N002119999999N0100001N1+02581+01991101161ADDGF108991001001999999001021KA1240N+01571MA1999999093001MD1999999+0131REMSYN076AAXX  15124 83182 32997 80904 10258 20199 39300 40116 80002 333 20157 58013;
0196831820999992009051600004-11300-041867FM-12+074799999V0201401N003110075019N0010001N1+02331+01921101001ADDAY121061AY221061GF108991051031008001021011KA1240M+03241MA1999999092861MD1999999-0181MW1131REMSYN094AAXX  16004 83182 31594 81406 10233 20192 39286 40100 71322 85321 333 10324 29/// 55101 59018;
0156831820999992009051612004-11300-041867FM-12+074799999V0200901N002612200019N0100001N1+02461+02071101221ADDGF108991031021008001001011KA1240N+01701MA1999999093051MD1999999+0051REMSYN076AAXX  16124 83182 32597 80905 10246 20207 39305 40122 83201 333 20170 58005;
0168831820999992009051700004-11300-041867FM-12+074799999V0201401N001510075019N0010001N1+02331+01831101201ADDGF108991081051008001999999KA1240M+02981MA1999999093041MD1999999+0181REMSYN088AAXX  17004 83182 32594 81403 10233 20183 39304 40120 885// 333 10298 29/// 55028 58018;
0156831820999992009051712004-11300-041867FM-12+074799999V0201401N006710075019N0100001N1+02661+01711101201ADDGF108991051021008001001011KA1240N+01691MA1999999093071MD1999999+0021REMSYN076AAXX  17124 83182 32597 81413 10266 20171 39307 40120 85201 333 20169 58002;
0168831820999992009051800004-11300-041867FM-12+074799999V0201401N003610075019N0010001N1+02201+01901101481ADDGF108991081051008001999999KA1240M+03011MA1999999093331MD1999999+0291REMSYN088AAXX  18004 83182 32594 81407 10220 20190 39333 40148 885// 333 10301 29/// 55077 58029;
0201831820999992009051812004-11300-041867FM-12+074799999V0201401N005710075019N0100001N1+02421+01931101601ADDAA124001091AY161061AY221061GF108991081051008001999999KA1240N+01751MA1999999093371MD1999999+0301MW1021REMSYN088AAXX  18124 83182 21597 81411 10242 20193 39337 40160 70262 885// 333 20175 58030 60014;
0168831820999992009051900004-11300-041867FM-12+074799999V0201401N003110075019N0010001N1+02061+01661101471ADDGF106991061051008001001001KA1240M+02651MA1999999093231MD1999999-0101REMSYN088AAXX  19004 83182 32594 61406 10206 20166 39323 40147 86500 333 10265 29/// 55059 59010;
0156831820999992009051912004-11300-041867FM-12+074799999V0201401N006710450019N0100001N1+02201+01511101651ADDGF108991011021008001061021KA1240N+01551MA1999999093361MD1999999-0011REMSYN076AAXX  19124 83182 32597 81413 10220 20151 39336 40165 81262 333 20155 59001;
0168831820999992009052000004-11300-041867FM-12+074799999V0201401N001010450019N0010001N1+01901+01531101581ADDGF108991031051008001061021KA1240M+02421MA1999999093261MD1999999+0031REMSYN088AAXX  20004 83182 32594 81402 10190 20153 39326 40158 83562 333 10242 29/// 55001 58003;
0156831820999992009052012004-11300-041867FM-12+074799999V0201401N005110075019N0100001N1+02171+01641101621ADDGF108991051051008001001011KA1240N+01471MA1999999093301MD1999999-0061REMSYN076AAXX  20124 83182 32597 81410 10217 20164 39330 40162 85501 333 20147 59006;
0168831820999992009052100004-11300-041867FM-12+074799999V0201801N002611050019N0010001N1+02021+01361101701ADDGF108991021001017501041021KA1240M+02561MA1999999093391MD1999999+0131REMSYN088AAXX  21004 83182 32794 81805 10202 20136 39339 40170 82042 333 10256 29/// 55018 58013;
0156831820999992009052112004-11300-041867FM-12+074799999V0201801N005112200019N0100001N1+02261+01571101601ADDGF108991021001017501041011KA1240N+01531MA1999999093321MD1999999+0021REMSYN076AAXX  21124 83182 32797 81810 10226 20157 39332 40160 82041 333 20153 58002;
0168831820999992009052200004-11300-041867FM-12+074799999V0201401N001519999999N0010001N1+02181+01591101571ADDGF108991001001999999001021KA1240M+02851MA1999999093311MD1999999-0081REMSYN088AAXX  22004 83182 32994 81403 10218 20159 39331 40157 80002 333 10285 29/// 55076 59008;
0156831820999992009052212004-11300-041867FM-12+074799999V0201401N006710450019N0100001N1+02271+01651101621ADDGF108991041051008001031011KA1240N+01571MA1999999093351MD1999999+0031REMSYN076AAXX  22124 83182 32597 81413 10227 20165 39335 40162 84531 333 20157 58003;
0168831820999992009052300004-11300-041867FM-12+074799999V0201401N003110075019N0010001N1+02101+01641101801ADDGF108991051051008001999999KA1240M+02641MA1999999093501MD1999999+0191REMSYN088AAXX  23004 83182 32594 81406 10210 20164 39350 40180 855// 333 10264 29/// 55072 58019;
0175831820999992009052312004-11300-041867FM-12+074799999V0201401N005719999999N0100001N1+02381+01531101751ADDGF108991999021008001001001KA1240N+01611MA1999999093491MD1999999+0141REMSYN076AAXX  23124 83182 32597 81411 10238 20153 39349 40175 84200 333 20161 58014;EQDQ01+000042SCOTLC
0168831820999992009052400004-11300-041867FM-12+074799999V0201401N002610075019N0010001N1+02141+01761101751ADDGF108991081051008001999999KA1240M+02761MA1999999093491MD1999999-0011REMSYN088AAXX  24004 83182 32594 81405 10214 20176 39349 40175 885// 333 10276 29/// 55085 59001;
0156831820999992009052412004-11300-041867FM-12+074799999V0201401N006710075019N0100001N1+02081+01621101671ADDGF108991081051008001999999KA1240N+01521MA1999999093361MD1999999-0131REMSYN076AAXX  24124 83182 32597 81413 10208 20162 39336 40167 885// 333 20152 59013;
0168831820999992009052500004-11300-041867FM-12+074799999V0200901N003110075019N0010001N1+02081+01661101621ADDGF108991081051008001999999KA1240M+02621MA1999999093321MD1999999-0171REMSYN088AAXX  25004 83182 32594 80906 10208 20166 39332 40162 885// 333 10262 29/// 55018 59017;
0156831820999992009052512004-11300-041867FM-12+074799999V0201401N005112200019N0100001N1+02281+01561101541ADDGF108991031021008001001011KA1240N+01531MA1999999093281MD1999999-0081REMSYN076AAXX  25124 83182 32597 81410 10228 20156 39328 40154 83201 333 20153 59008;
0168831820999992009052600004-11300-041867FM-12+074799999V0201401N002612200019N0010001N1+02041+01501101641ADDGF108991021051008001001011KA1240M+02961MA1999999093351MD1999999+0031REMSYN088AAXX  26004 83182 32594 81405 10204 20150 39335 40164 82501 333 10296 29/// 55090 58003;
0156831820999992009052612004-11300-041867FM-12+074799999V0200901N004112200019N0100001N1+02281+01541101601ADDGF108991011001017501041011KA1240N+01221MA1999999093321MD1999999+0041REMSYN076AAXX  26124 83182 32797 80908 10228 20154 39332 40160 81041 333 20122 58004;
0168831820999992009052700004-11300-041867FM-12+074799999V0201401N002619999999N0010001N1+02081+01401101411ADDGF108991001001999999001011KA1240M+02961MA1999999093161MD1999999-0191REMSYN088AAXX  27004 83182 32994 81405 10208 20140 39316 40141 80001 333 10296 29/// 55092 59019;
0156831820999992009052712004-11300-041867FM-12+074799999V0201401N003119999999N0100001N1+02441+01561101511ADDGF108991001001999999001011KA1240N+01301MA1999999093271MD1999999-0051REMSYN076AAXX  27124 83182 32997 81406 10244 20156 39327 40151 80001 333 20130 59005;
0168831820999992009052800004-11300-041867FM-12+074799999V0201401N002610075019N0010001N1+02401+01561101331ADDGF108991081051008001999999KA1240M+03071MA1999999093151MD1999999-0011REMSYN088AAXX  28004 83182 32594 81405 10240 20156 39315 40133 885// 333 10307 29/// 55074 59001;
0156831820999992009052812004-11300-041867FM-12+074799999V0201401N004610075019N0100001N1+02511+01701101571ADDGF107991071051008001001001KA1240N+01571MA1999999093391MD1999999+0121REMSYN076AAXX  28124 83182 32597 71409 10251 20170 39339 40157 87500 333 20157 58012;
0168831820999992009052900004-11300-041867FM-12+074799999V0201401N003110450019N0010001N1+02301+01791101351ADDGF108991031051008001051011KA1240M+03041MA1999999093171MD1999999+0021REMSYN088AAXX  29004 83182 32594 81406 10230 20179 39317 40135 83551 333 10304 29/// 55094 58002;
0156831820999992009052912004-11300-041867FM-12+074799999V0201401N004110450019N0100001N1+02521+01581101471ADDGF108991031021008001041011KA1240N+01731MA1999999093281MD1999999-0111REMSYN076AAXX  29124 83182 32597 81408 10252 20158 39328 40147 83241 333 20173 59011;
0168831820999992009053000004-11300-041867FM-12+074799999V0200901N002612200019N0010001N1+02231+01611101431ADDGF108991021001017501041011KA1240M+02961MA1999999093251MD1999999+0181REMSYN088AAXX  30004 83182 32794 80905 10223 20161 39325 40143 82041 333 10296 29/// 55083 58018;
0156831820999992009053012004-11300-041867FM-12+074799999V0201401N006710075019N0100001N1+02401+01631101571ADDGF106991061051008001001001KA1240N+01671MA1999999093341MD1999999+0061REMSYN076AAXX  30124 83182 32597 61413 10240 20163 39334 40157 86500 333 20167 58006;
0168831820999992009053100004-11300-041867FM-12+074799999V0201401N002610075019N0010001N1+02141+01721101581ADDGF108991081051008001999999KA1240M+02661MA1999999093341MD1999999+0091REMSYN088AAXX  31004 83182 32594 81405 10214 20172 39334 40158 885// 333 10266 29/// 55045 58009;
0175831820999992009053112004-11300-041867FM-12+074799999V0201401N004119999999N0100001N1+02321+01531101641ADDGF108991999021008001001001KA1240N+01391MA1999999093391MD1999999+0051REMSYN076AAXX  31124 83182 32597 81408 10232 20153 39339 40164 81200 333 20139 58005;EQDQ01+000012SCOTLC
0168831820999992009060100004-11300-041867FM-12+074799999V0200901N003110150019N0010001N1+02281+01461101451ADDGF106991061001017501051001KA1240M+02981MA1999999093211MD1999999-0131REMSYN088AAXX  01004 83182 32794 60906 10228 20146 39321 40145 86050 333 10298 29/// 55106 59013;
0156831820999992009060112004-11300-041867FM-12+074799999V0201401N002619999999N0100001N1+02381+01681101401ADDGF108991001001999999001011KA1240N+01371MA1999999093201MD1999999-0191REMSYN076AAXX  01124 83182 32997 81405 10238 20168 39320 40140 80001 333 20137 59019;
0168831820999992009060200004-11300-041867FM-12+074799999V0203601N002610450019N0010001N1+02431+01731101381ADDGF108991021021008001031011KA1240M+03181MA1999999093201MD1999999-0011REMSYN088AAXX  02004 83182 32594 83605 10243 20173 39320 40138 82231 333 10318 29/// 55103 59001;
0156831820999992009060212004-11300-041867FM-12+074799999V0200501N001012200019N0100001N1+02621+01621101321ADDGF108991021021008001001011KA1240N+01581MA1999999093181MD1999999-0021REMSYN076AAXX  02124 83182 32597 80502 10262 20162 39318 40132 82201 333 20158 59002;
0168831820999992009060300004-11300-041867FM-12+074799999V0201401N002610075019N0010001N1+02401+01821101541ADDGF108991081051008001999999KA1240M+03241MA1999999093381MD1999999+0081REMSYN088AAXX  03004 83182 32594 81405 10240 20182 39338 40154 885// 333 10324 29/// 55101 58008;
0201831820999992009060312004-11300-041867FM-12+074799999V0201401N001510450019N0100001N1+02531+01691101471ADDAA124000591AY161061AY261061GF108991021051008001041011KA1240N+01671MA1999999093301MD1999999+0121MW1021REMSYN088AAXX  03124 83182 21597 81403 10253 20169 39330 40147 70266 82541 333 20167 58012 69944;
0213831820999992009060400004-11300-041867FM-12+074799999V0201401N003110075019N0010001N1+02081+01781101661ADDAA106002091AY161061AY221061GF108991081051008001999999KA1240M+03121MA1999999093431MD1999999+0301MW1611REMSYN100AAXX  04004 83182 21594 81406 10208 20178 39343 40166 76162 885// 333 10312 29/// 55076 58030 60021;
0201831820999992009060412004-11300-041867FM-12+074799999V0200901N004112200019N0100001N1+02361+01641101821ADDAA124002091AY161061AY221061GF108991031021008001001011KA1240N+01631MA1999999093541MD1999999+0241MW1021REMSYN088AAXX  04124 83182 21597 80908 10236 20164 39354 40182 70262 83201 333 20163 58024 60024;
0168831820999992009060500004-11300-041867FM-12+074799999V0201401N002112200019N0010001N1+02081+01741101631ADDGF108991021001017501041011KA1240M+02881MA1999999093361MD1999999-0071REMSYN088AAXX  05004 83182 32794 81404 10208 20174 39336 40163 82041 333 10288 29/// 55094 59007;
0156831820999992009060512004-11300-041867FM-12+074799999V0201401N004612200019N0100001N1+02241+01531101771ADDGF108991041021008001001011KA1240N+01501MA1999999093471MD1999999-0071REMSYN076AAXX  05124 83182 32597 81409 10224 20153 39347 40177 84201 333 20150 59007;
0232831820999992009060600004-11300-041867FM-12+074799999V0201401N003110450019N0010001N1+02061+01821101771ADDAA106000091AY161061AY261061GF108991031021008001061011KA1240M+02741MA1999999093471MD1999999+0111MW1021REMSYN100AAXX  06004 83182 21594 81406 10206 20182 39347 40177 70266 83261 333 10274 29/// 55059 58011 69911;EQDQ01  00002PRCP06
0192831820999992009060612004-11300-041867FM-12+074799999V0201401N005710075019N0100001N1+02281+01811101761ADDAA124000091GF108991081051008001999999KA1240N+01671MA1999999093461MD1999999-0011REMSYN082AAXX  06124 83182 22597 81411 10228 20181 39346 40176 885// 333 20167 59001 69914;EQDQ01  00002PRCP24
0168831820999992009060700004-11300-041867FM-12+074799999V0201401N001512200019N0010001N1+01981+01701101601ADDGF108991021001017501041011KA1240M+02641MA1999999093321MD1999999-0151REMSYN088AAXX  07004 83182 32794 81403 10198 20170 39332 40160 82041 333 10264 29/// 55034 59015;
0156831820999992009060712004-11300-041867FM-12+074799999V0201401N006712200019N0100001N1+02261+01471101621ADDGF108991021021008001001011KA1240N+01361MA1999999093321MD1999999-0141REMSYN076AAXX  07124 83182 32597 81413 10226 20147 39332 40162 82201 333 20136 59014;
0168831820999992009060800004-11300-041867FM-12+074799999V0201401N003119999999N0010001N1+01931+01571101691ADDGF108991001001999999001011KA1240M+02831MA1999999093381MD1999999+0061REMSYN088AAXX  08004 83182 32994 81406 10193 20157 39338 40169 80001 333 10283 29/// 55102 58006;
0156831820999992009060812004-11300-041867FM-12+074799999V0201401N005710075019N0100001N1+02221+01551101611ADDGF108991081051008001999999KA1240N+01261MA1999999093311MD1999999-0011REMSYN076AAXX  08124 83182 32597 81411 10222 20155 39331 40161 885// 333 20126 59001;
0168831820999992009060900004-11300-041867FM-12+074799999V0201401N005110075019N0010001N1+01981+01541101731ADDGF108991081051008001999999KA1240M+02501MA1999999093421MD1999999+0041REMSYN088AAXX  09004 83182 32594 81410 10198 20154 39342 40173 885// 333 10250 29/// 55032 58004;
0156831820999992009060912004-11300-041867FM-12+074799999V0201401N008210075019N0100001N1+02101+01491101831ADDGF108991081051008001999999KA1240N+01501MA1999999093491MD1999999+0181REMSYN076AAXX  09124 83182 32597 81416 10210 20149 39349 40183 885// 333 20150 58018;
0168831820999992009061000004-11300-041867FM-12+074799999V0201401N004610075019N0010001N1+01921+01611101841ADDGF108991081051008001999999KA1240M+02371MA1999999093491MD1999999+0071REMSYN088AAXX  10004 83182 32594 81409 10192 20161 39349 40184 885// 333 10237 29/// 55021 58007;
0156831820999992009061012004-11300-041867FM-12+074799999V0200901N006710450019N0100001N1+02301+01431101831ADDGF108991021021008001041011KA1240N+01291MA1999999093511MD1999999+0021REMSYN076AAXX  10124 83182 32597 80913 10230 20143 39351 40183 82241 333 20129 58002;
0168831820999992009061100004-11300-041867FM-12+074799999V0201401N002110150019N0010001N1+02001+01411101891ADDGF108991051001017501041011KA1240M+02751MA1999999093561MD1999999+0071REMSYN088AAXX  11004 83182 32794 81404 10200 20141 39356 40189 85041 333 10275 29/// 55100 58007;
0156831820999992009061112004-11300-041867FM-12+074799999V0201401N005710075019N0100001N1+02281+01561101891ADDGF108991061021008001041011KA1240N+01411MA1999999093581MD1999999+0071REMSYN076AAXX  11124 83182 32597 81411 10228 20156 39358 40189 86241 333 20141 58007;
0168831820999992009061200004-11300-041867FM-12+074799999V0201401N002612200019N0010001N1+02041+01521101791ADDGF108991011001017501041011KA1240M+02871MA1999999093491MD1999999-0071REMSYN088AAXX  12004 83182 32794 81405 10204 20152 39349 40179 81041 333 10287 29/// 55082 59007;
0156831820999992009061212004-11300-041867FM-12+074799999V0201401N004610075019N0100001N1+02201+01561101941ADDGF107991071051008001001001KA1240N+01361MA1999999093611MD1999999+0031REMSYN076AAXX  12124 83182 32597 71409 10220 20156 39361 40194 87500 333 20136 58003;
0168831820999992009061300004-11300-041867FM-12+074799999V0200901N004119999999N0010001N1+02121+01481101661ADDGF108991001001999999001011KA1240M+02911MA1999999093371MD1999999-0121REMSYN088AAXX  13004 83182 32994 80908 10212 20148 39337 40166 80001 333 10291 29/// 55070 59012;
0156831820999992009061312004-11300-041867FM-12+074799999V0201401N002110150019N0100001N1+02121+01681101621ADDGF108991071001017501051011KA1240N+01181MA1999999093321MD1999999-0291REMSYN076AAXX  13124 83182 32797 81404 10212 20168 39332 40162 87051 333 20118 59029;
0168831820999992009061400004-11300-041867FM-12+074799999V0201401N002110075019N0010001N1+02301+01611101531ADDGF108991051051008001051011KA1240M+03181MA1999999093271MD1999999-0101REMSYN088AAXX  14004 83182 32594 81404 10230 20161 39327 40153 85551 333 10318 29/// 55073 59010;
0156831820999992009061412004-11300-041867FM-12+074799999V0201401N004110075019N0100001N1+02341+01691101591ADDGF107991071021008001001001KA1240N+01411MA1999999093361MD1999999+0041REMSYN076AAXX  14124 83182 32597 71408 10234 20169 39336 40159 87200 333 20141 58004;
0168831820999992009061500004-11300-041867FM-12+074799999V0201401N003119999999N0010001N1+02121+01601101721ADDGF108991001001999999001011KA1240M+02881MA1999999093461MD1999999+0191REMSYN088AAXX  15004 83182 32994 81406 10212 20160 39346 40172 80001 333 10288 29/// 55092 58019;
0156831820999992009061512004-11300-041867FM-12+074799999V0201401N006710075019N0100001N1+02361+01511101641ADDGF108991061051008001001011KA1240N+01441MA1999999093391MD1999999+0031REMSYN076AAXX  15124 83182 32597 81413 10236 20151 39339 40164 86501 333 20144 58003;
0168831820999992009061600004-11300-041867FM-12+074799999V0201401N005110075019N0010001N1+02101+01701101621ADDGF108991061051008001001011KA1240M+02751MA1999999093371MD1999999-0091REMSYN088AAXX  16004 83182 32594 81410 10210 20170 39337 40162 86501 333 10275 29/// 55077 59009;
0156831820999992009061612004-11300-041867FM-12+074799999V0201401N005110075019N0100001N1+02241+01551101761ADDGF108991071051008001001011KA1240N+01641MA1999999093461MD1999999+0071REMSYN076AAXX  16124 83182 32597 81410 10224 20155 39346 40176 87501 333 20164 58007;
0168831820999992009061700004-11300-041867FM-12+074799999V0201401N003110075019N0010001N1+02001+01701101621ADDGF108991061051008001001011KA1240M+02661MA1999999093321MD1999999-0071REMSYN088AAXX  17004 83182 32594 81406 10200 20170 39332 40162 86501 333 10266 29/// 55027 59007;
0156831820999992009061712004-11300-041867FM-12+074799999V0201401N002610075019N0100001N1+02181+01591101711ADDGF106991061021008001001001KA1240N+01321MA1999999093401MD1999999-0061REMSYN076AAXX  17124 83182 32597 61405 10218 20159 39340 40171 86200 333 20132 59006;
0168831820999992009061800004-11300-041867FM-12+074799999V0201401N002119999999N0010001N1+02131+01601101521ADDGF108991001001999999001011KA1240M+02941MA1999999093251MD1999999-0071REMSYN088AAXX  18004 83182 32994 81404 10213 20160 39325 40152 80001 333 10294 29/// 55071 59007;
0156831820999992009061812004-11300-041867FM-12+074799999V0200901N004112200019N0100001N1+02281+01791101581ADDGF108991011011012501001011KA1240N+01281MA1999999093321MD1999999-0081REMSYN076AAXX  18124 83182 32697 80908 10228 20179 39332 40158 81101 333 20128 59008;
0168831820999992009061900004-11300-041867FM-12+074799999V0201401N003119999999N0010001N1+02121+01531101671ADDGF108991001001999999001011KA1240M+03021MA1999999093401MD1999999+0151REMSYN088AAXX  19004 83182 32994 81406 10212 20153 39340 40167 80001 333 10302 29/// 55007 58015;
0156831820999992009061912004-11300-041867FM-12+074799999V0201401N005110075019N0100001N1+02301+01481101841ADDGF106991061021008001001001KA1240N+01331MA1999999093551MD1999999+0231REMSYN076AAXX  19124 83182 32597 61410 10230 20148 39355 40184 86200 333 20133 58023;
0178831820999992009062000004-11300-041867FM-12+074799999V0201401N003112200019N0010001N1+02111+01471101581ADDGA1001+999999999GF100991001001999999001001KA1240M+02951MA1999999093321MD1999999-0081REMSYN082AAXX  20004 83182 32994 01406 10211 20147 39332 40158 333 10295 29/// 55098 59008;
0156831820999992009062012004-11300-041867FM-12+074799999V0201401N006712200019N0100001N1+02241+01321101751ADDGF101991011021008001001001KA1240N+01271MA1999999093471MD1999999-0081REMSYN076AAXX  20124 83182 32597 11413 10224 20132 39347 40175 81200 333 20127 59008;
0178831820999992009062100004-11300-041867FM-12+074799999V0201401N002112200019N0010001N1+02001+01351101731ADDGA1001+999999999GF100991001001999999001001KA1240M+02801MA1999999093421MD1999999+0101REMSYN082AAXX  21004 83182 32994 01404 10200 20135 39342 40173 333 10280 29/// 55104 58010;
0156831820999992009062112004-11300-041867FM-12+074799999V0201401N006712200019N0100001N1+02201+01361101821ADDGF101991011011012501001001KA1240N+01331MA1999999093501MD1999999+0031REMSYN076AAXX  21124 83182 32697 11413 10220 20136 39350 40182 81100 333 20133 58003;
0168831820999992009062200004-11300-041867FM-12+074799999V0200901N003110150019N0010001N1+02111+01431101771ADDGF106991061001017501051001KA1240M+02801MA1999999093471MD1999999+0011REMSYN088AAXX  22004 83182 32794 60906 10211 20143 39347 40177 86050 333 10280 29/// 55100 58001;
0156831820999992009062212004-11300-041867FM-12+074799999V0201401N005110075019N0100001N1+02201+01511101691ADDGF108991081051008001999999KA1240N+01251MA1999999093401MD1999999-0101REMSYN076AAXX  22124 83182 32597 81410 10220 20151 39340 40169 885// 333 20125 59010;
0168831820999992009062300004-11300-041867FM-12+074799999V0201401N003110450019N0010001N1+02001+01601101631ADDGF108991031051008001051011KA1240M+02761MA1999999093331MD1999999-0141REMSYN088AAXX  23004 83182 32594 81406 10200 20160 39333 40163 83551 333 10276 29/// 55077 59014;
0156831820999992009062312004-11300-041867FM-12+074799999V0200901N005112200019N0100001N1+02361+01491101671ADDGF103991031021008001001001KA1240N+01591MA1999999093401MD1999999+0001REMSYN076AAXX  23124 83182 32597 30910 10236 20149 39340 40167 83200 333 20159 58000;
0178831820999992009062400004-11300-041867FM-12+074799999V0201401N003112200019N0010001N1+02161+01571101651ADDGA1001+999999999GF100991001001999999001001KA1240M+02961MA1999999093401MD1999999+0071REMSYN082AAXX  24004 83182 32994 01406 10216 20157 39340 40165 333 10296 29/// 55097 58007;
0156831820999992009062412004-11300-041867FM-12+074799999V0201401N006712200019N0100001N1+02381+01631101641ADDGF108991011011012501001011KA1240N+01401MA1999999093391MD1999999-0011REMSYN076AAXX  24124 83182 32697 81413 10238 20163 39339 40164 81101 333 20140 59001;
0168831820999992009062500004-11300-041867FM-12+074799999V0201401N002119999999N0010001N1+02121+01511101631ADDGF108991001001999999001011KA1240M+02901MA1999999093381MD1999999-0021REMSYN088AAXX  25004 83182 32994 81404 10212 20151 39338 40163 80001 333 10290 29/// 55102 59002;
0156831820999992009062512004-11300-041867FM-12+074799999V0200901N002610075019N0100001N1+02381+01631101781ADDGF107991071051008001001001KA1240N+01381MA1999999093521MD1999999+0131REMSYN076AAXX  25124 83182 32597 70905 10238 20163 39352 40178 87500 333 20138 58013;
0178831820999992009062600004-11300-041867FM-12+074799999V0201401N002612200019N0010001N1+02081+01621101731ADDGA1001+999999999GF100991001001999999001001KA1240M+02821MA1999999093471MD1999999+0091REMSYN082AAXX  26004 83182 32994 01405 10208 20162 39347 40173 333 10282 29/// 55056 58009;
0156831820999992009062612004-11300-041867FM-12+074799999V0201401N004119999999N0100001N1+02401+01441101901ADDGF108991001001999999001011KA1240N+01431MA1999999093631MD1999999+0111REMSYN076AAXX  26124 83182 32997 81408 10240 20144 39363 40190 80001 333 20143 58011;
0168831820999992009062700004-11300-041867FM-12+074799999V0200901N003619999999N0010001N1+02201+01581101781ADDGF108991001001999999001011KA1240M+03001MA1999999093541MD1999999+0071REMSYN088AAXX  27004 83182 32994 80907 10220 20158 39354 40178 80001 333 10300 29/// 55102 58007;
0156831820999992009062712004-11300-041867FM-12+074799999V0200901N005112200019N0100001N1+02381+01421101891ADDGF102991011011012501041001KA1240N+01431MA1999999093651MD1999999+0021REMSYN076AAXX  27124 83182 32697 20910 10238 20142 39365 40189 81140 333 20143 58002;
0168831820999992009062800004-11300-041867FM-12+074799999V0201401N002619999999N0010001N1+02161+01431101851ADDGF108991001001999999001011KA1240M+02981MA1999999093581MD1999999+0041REMSYN088AAXX  28004 83182 32994 81405 10216 20143 39358 40185 80001 333 10298 29/// 55101 58004;
0156831820999992009062812004-11300-041867FM-12+074799999V0201401N005112200019N0100001N1+02281+01491101551ADDGF101991011011012501001001KA1240N+01341MA1999999093561MD1999999-0091REMSYN076AAXX  28124 83182 32697 11410 10228 20149 39356 40155 81100 333 20134 59009;
0178831820999992009062900004-11300-041867FM-12+074799999V0201401N003112200019N0010001N1+02141+01461101621ADDGA1001+999999999GF100991001001999999001001KA1240M+02961MA1999999093351MD1999999-0231REMSYN082AAXX  29004 83182 32994 01406 10214 20146 39335 40162 333 10296 29/// 55092 59023;
0156831820999992009062912004-11300-041867FM-12+074799999V0201401N005110075019N0100001N1+02091+01631101701ADDGF108991081051008001999999KA1240N+01321MA1999999093391MD1999999-0171REMSYN076AAXX  29124 83182 32597 81410 10209 20163 39339 40170 885// 333 20132 59017;
0178831820999992009063000004-11300-041867FM-12+074799999V0200901N002612200019N0010001N1+02081+01301101501ADDGA1001+999999999GF100991001001999999001001KA1240M+02931MA1999999093211MD1999999-0141REMSYN082AAXX  30004 83182 32994 00905 10208 20130 39321 40150 333 10293 29/// 55082 59014;
0156831820999992009063012004-11300-041867FM-12+074799999V0201401N003610075019N0100001N1+02261+01471101681ADDGF106991061021008001001001KA1240N+01341MA1999999093391MD1999999+0001REMSYN076AAXX  30124 83182 32597 61407 10226 20147 39339 40168 86200 333 20134 58000;
0168831820999992009070100004-11300-041867FM-12+074799999V0200901N003612200019N0010001N1+02141+01231101421ADDGF102991021001017501051001KA1240M+02971MA1999999093151MD1999999-0061REMSYN088AAXX  01004 83182 32794 20907 10214 20123 39315 40142 82050 333 10297 29/// 55100 59006;
0156831820999992009070112004-11300-041867FM-12+074799999V0201401N003612200019N0100001N1+02281+01491101571ADDGF101991011011012501001001KA1240N+01181MA1999999093311MD1999999-0081REMSYN076AAXX  01124 83182 32697 11407 10228 20149 39331 40157 81100 333 20118 59008;
0178831820999992009070200004-11300-041867FM-12+074799999V0201401N003112200019N0010001N1+02161+01351101481ADDGA1001+999999999GF100991001001999999001001KA1240M+02971MA1999999093231MD1999999+0081REMSYN082AAXX  02004 83182 32994 01406 10216 20135 39323 40148 333 10297 29/// 55101 58008;
0156831820999992009070212004-11300-041867FM-12+074799999V0200901N003612200019N0100001N1+02361+01511101691ADDGF101991011011012501001001KA1240N+01221MA1999999093441MD1999999+0131REMSYN076AAXX  02124 83182 32697 10907 10236 20151 39344 40169 81100 333 20122 58013;
0178831820999992009070300004-11300-041867FM-12+074799999V0200901N003112200019N0010001N1+02201+01391101471ADDGA1001+999999999GF100991001001999999001001KA1240M+03001MA1999999093251MD1999999+0021REMSYN082AAXX  03004 83182 32994 00906 10220 20139 39325 40147 333 10300 29/// 55093 58002;
0156831820999992009070312004-11300-041867FM-12+074799999V0201401N006212200019N0100001N1+02261+01341101761ADDGF101991011011012501001001KA1240N+01271MA1999999093501MD1999999+0061REMSYN076AAXX  03124 83182 32697 11412 10226 20134 39350 40176 81100 333 20127 58006;
0178831820999992009070400004-11300-041867FM-12+074799999V0200901N003612200019N0010001N1+02121+01511101561ADDGA1001+999999999GF100991001001999999001001KA1240M+02941MA1999999093281MD1999999+0031REMSYN082AAXX  04004 83182 32994 00907 10212 20151 39328 40156 333 10294 29/// 55091 58003;
0156831820999992009070412004-11300-041867FM-12+074799999V0201401N006212200019N0100001N1+02341+01271101731ADDGF102991011011012501001011KA1240N+01241MA1999999093471MD1999999-0031REMSYN076AAXX  04124 83182 32697 21412 10234 20127 39347 40173 81101 333 20124 59003;
0178831820999992009070500004-11300-041867FM-12+074799999V0200901N002612200019N0010001N1+02121+01461101601ADDGA1001+999999999GF100991001001999999001001KA1240M+02921MA1999999093351MD1999999+0071REMSYN082AAXX  05004 83182 32994 00905 10212 20146 39335 40160 333 10292 29/// 55101 58007;
0156831820999992009070512004-11300-041867FM-12+074799999V0201401N005112200019N0100001N1+02301+01321101781ADDGF102991021021008001001001KA1240N+01301MA1999999093501MD1999999+0031REMSYN076AAXX  05124 83182 32597 21410 10230 20132 39350 40178 82200 333 20130 58003;
0178831820999992009070600004-11300-041867FM-12+074799999V0201401N002612200019N0010001N1+02121+01411101661ADDGA1001+999999999GF100991001001999999001001KA1240M+02861MA1999999093391MD1999999+0041REMSYN082AAXX  06004 83182 32994 01405 10212 20141 39339 40166 333 10286 29/// 55096 58004;
0156831820999992009070612004-11300-041867FM-12+074799999V0201401N006712200019N0100001N1+02241+01211101891ADDGF102991021021008001001001KA1240N+01261MA1999999093601MD1999999+0101REMSYN076AAXX  06124 83182 32597 21413 10224 20121 39360 40189 82200 333 20126 58010;
0178831820999992009070700004-11300-041867FM-12+074799999V0201401N002612200019N0010001N1+02041+01261101811ADDGA1001+999999999GF100991001001999999001001KA1240M+02791MA1999999093511MD1999999+0121REMSYN082AAXX  07004 83182 32994 01405 10204 20126 39351 40181 333 10279 29/// 55104 58012;
0156831820999992009070712004-11300-041867FM-12+074799999V0201401N005710075019N0100001N1+02221+01531101821ADDGF108991081051008001999999KA1240N+02241MA1999999093521MD1999999-0081REMSYN076AAXX  07124 83182 32597 81411 10222 20153 39352 40182 885// 333 20224 59008;
0168831820999992009070800004-11300-041867FM-12+074799999V0201401N004112200019N0010001N1+01931+01571101761ADDGF102991021001017501041001KA1240M+02691MA1999999093451MD1999999-0061REMSYN088AAXX  08004 83182 32794 21408 10193 20157 39345 40176 82040 333 10269 29/// 55056 59006;
0236831820999992009070812004-11300-041867FM-12+074799999V0201401N005119999999N0100001N1+02181+01421101811ADDAA124000091AY161061AY221061GF106991999021008001001001KA1240N+01351MA1999999093471MD1999999-0051MW1011REMSYN088AAXX  08124 83182 21597 61410 10218 20142 39347 40181 70162 83200 333 20135 59005 69924;EQDQ01+000032SCOTLCQ02  00002PRCP24
0178831820999992009070900004-11300-041867FM-12+074799999V0201401N002612200019N0010001N1+01921+01531101881ADDGA1001+999999999GF100991001001999999001001KA1240M+02741MA1999999093541MD1999999+0091REMSYN082AAXX  09004 83182 32994 01405 10192 20153 39354 40188 333 10274 29/// 55077 58009;
0201831820999992009070912004-11300-041867FM-12+074799999V0200901N003610075019N0100001N1+02211+01781101841ADDAA124001091AY161061AY221061GF108991081051008001999999KA1240N+01441MA1999999093501MD1999999+0031MW1021REMSYN088AAXX  09124 83182 21597 80907 10221 20178 39350 40184 70262 885// 333 20144 58003 60014;
0168831820999992009071000004-11300-041867FM-12+074799999V0201401N002610450019N0010001N1+02141+01611101651ADDGF106991041051008001051001KA1240M+02741MA1999999093361MD1999999-0181REMSYN088AAXX  10004 83182 32594 61405 10214 20161 39336 40165 84550 333 10274 29/// 55056 59018;
0156831820999992009071012004-11300-041867FM-12+074799999V0200901N006710075019N0100001N1+02251+01651101661ADDGF106991061051008001001001KA1240N+01641MA1999999093391MD1999999-0111REMSYN076AAXX  10124 83182 32597 60913 10225 20165 39339 40166 86500 333 20164 59011;
0168831820999992009071100004-11300-041867FM-12+074799999V0201401N004610075019N0010001N1+02021+01781101571ADDGF108991081051008001999999KA1240M+02761MA1999999093291MD1999999-0071REMSYN088AAXX  11004 83182 32594 81409 10202 20178 39329 40157 885// 333 10276 29/// 55072 59007;
0188831820999992009071112004-11300-041867FM-12+074799999V0200901N004110075019N0010001N1+02241+01691101681ADDAA124000591AY161061AY221061GF108991081051008001999999MA1999999093391MD1999999+0001MW1021REMSYN088AAXX  11124 83182 21594 80908 10224 20169 39339 40168 70262 885// 333 2//// 58000 69944;
0156831820999992009071212004-11300-041867FM-12+074799999V0200901N003612200019N0100001N1+02281+01701101701ADDGF103991031021008001001001KA1240N+01451MA1999999093451MD1999999+0061REMSYN076AAXX  12124 83182 32597 30907 10228 20170 39345 40170 83200 333 20145 58006;
0178831820999992009071300004-11300-041867FM-12+074799999V0200901N003612200019N0010001N1+02111+01541101521ADDGA1001+999999999GF100991001001999999001001KA1240M+03021MA1999999093261MD1999999+0001REMSYN082AAXX  13004 83182 32994 00907 10211 20154 39326 40152 333 10302 29/// 55085 58000;
0156831820999992009071312004-11300-041867FM-12+074799999V0201401N005112200019N0100001N1+02481+01701101731ADDGF102991021021008001001001KA1240N+01271MA1999999093491MD1999999+0041REMSYN076AAXX  13124 83182 32597 21410 10248 20170 39349 40173 82200 333 20127 58004;
0178831820999992009071400004-11300-041867FM-12+074799999V0201401N003112200019N0010001N1+02181+01421101851ADDGA1001+999999999GF100991001001999999001001KA1240M+03101MA1999999093621MD1999999+0361REMSYN082AAXX  14004 83182 32994 01406 10218 20142 39362 40185 333 10310 29/// 55103 58036;
0156831820999992009071412004-11300-041867FM-12+074799999V0200901N003610075019N0100001N1+02281+01561102011ADDGF106991061051008001001001KA1240N+01501MA1999999093661MD1999999+0171REMSYN076AAXX  14124 83182 32597 60907 10228 20156 39366 40201 86500 333 20150 58017;
0178831820999992009071500004-11300-041867FM-12+074799999V0200901N004612200019N0010001N1+02111+01561101861ADDGA1001+999999999GF100991001001999999001001KA1240M+02871MA1999999093571MD1999999-0051REMSYN082AAXX  15004 83182 32994 00909 10211 20156 39357 40186 333 10287 29/// 55083 59005;
0156831820999992009071512004-11300-041867FM-12+074799999V0200901N006212200019N0100001N1+02281+01441101761ADDGF101991011021008001001001KA1240N+01441MA1999999093481MD1999999-0171REMSYN076AAXX  15124 83182 32597 10912 10228 20144 39348 40176 81200 333 20144 59017;
0178831820999992009071600004-11300-041867FM-12+074799999V0201401N004612200019N0010001N1+02081+01541101881ADDGA1001+999999999GF100991001001999999001001KA1240M+02831MA1999999093591MD1999999+0021REMSYN082AAXX  16004 83182 32994 01409 10208 20154 39359 40188 333 10283 29/// 55112 58002;
0156831820999992009071612004-11300-041867FM-12+074799999V0200901N006212200019N0100001N1+02261+01421101881ADDGF103991031021008001001001KA1240N+01461MA1999999093571MD1999999+0091REMSYN076AAXX  16124 83182 32597 30912 10226 20142 39357 40188 83200 333 20146 58009;
0168831820999992009071700004-11300-041867FM-12+074799999V0201401N003610075019N0010001N1+02111+01611101861ADDGF108991081051008001999999KA1240M+02631MA1999999093571MD1999999-0021REMSYN088AAXX  17004 83182 32594 81407 10211 20161 39357 40186 885// 333 10263 29/// 55063 59002;
0156831820999992009071712004-11300-041867FM-12+074799999V0201401N005710075019N0100001N1+02201+01441101991ADDGF108991081051008001999999KA1240N+01491MA1999999093671MD1999999+0101REMSYN076AAXX  17124 83182 32597 81411 10220 20144 39367 40199 885// 333 20149 58010;
0187831820999992009071800004-11300-041867FM-12+074799999V0201401N002612200019N0010001N1+02021+01641101881ADDGF103991999051008001001001KA1240M+02731MA1999999093551MD1999999-0021REMSYN088AAXX  18004 83182 32594 31405 10202 20164 39355 40188 84500 333 10273 29/// 55056 59002;EQDQ01+000042SCOTLC
0156831820999992009071812004-11300-041867FM-12+074799999V0201401N007212200019N0100001N1+02181+01241101901ADDGF102991021021008001001001KA1240N+01321MA1999999093571MD1999999-0101REMSYN076AAXX  18124 83182 32597 21414 10218 20124 39357 40190 82200 333 20132 59010;
0178831820999992009071900004-11300-041867FM-12+074799999V0201401N002612200019N0010001N1+01901+01111101661ADDGA1001+999999999GF100991001001999999001001KA1240M+02831MA1999999093341MD1999999-0211REMSYN082AAXX  19004 83182 32994 01405 10190 20111 39334 40166 333 10283 29/// 55106 59021;
0156831820999992009071912004-11300-041867FM-12+074799999V0201401N003112200019N0100001N1+02281+01381101741ADDGF101991011021008001001001KA1240N+01131MA1999999093431MD1999999-0141REMSYN076AAXX  19124 83182 32597 11406 10228 20138 39343 40174 81200 333 20113 59014;
0178831820999992009072000004-11300-041867FM-12+074799999V0201401N002612200019N0010001N1+02121+01151101541ADDGA1001+999999999GF100991001001999999001001KA1240M+02981MA1999999093281MD1999999-0061REMSYN082AAXX  20004 83182 32994 01405 10212 20115 39328 40154 333 10298 29/// 55104 59006;
0156831820999992009072012004-11300-041867FM-12+074799999V0200901N004112200019N0100001N1+02381+01451101601ADDGF108991011001017501041011KA1240N+01221MA1999999093351MD1999999-0081REMSYN076AAXX  20124 83182 32797 80908 10238 20145 39335 40160 81041 333 20122 59008;
0168831820999992009072100004-11300-041867FM-12+074799999V0201401N003119999999N0010001N1+02221+01531101451ADDGF108991001001999999001011KA1240M+03111MA1999999093231MD1999999-0051REMSYN088AAXX  21004 83182 32994 81406 10222 20153 39323 40145 80001 333 10311 29/// 55097 59005;
0166831820999992009072112004-11300-041867FM-12+074799999V0201401N004612200019N0100001N1+02361+01491101601ADDGA1001+999999999GF100991001001999999001001KA1240N+01401MA1999999093371MD1999999+0021REMSYN070AAXX  21124 83182 32997 01409 10236 20149 39337 40160 333 20140 58002;
0178831820999992009072200004-11300-041867FM-12+074799999V0201401N003612200019N0010001N1+02241+01551101521ADDGA1001+999999999GF100991001001999999001001KA1240M+03101MA1999999093291MD1999999+0061REMSYN082AAXX  22004 83182 32994 01407 10224 20155 39329 40152 333 10310 29/// 55105 58006;
0156831820999992009072212004-11300-041867FM-12+074799999V0201401N005112200019N0100001N1+02441+01421101681ADDGF101991011001017501041001KA1240N+01371MA1999999093451MD1999999+0081REMSYN076AAXX  22124 83182 32797 11410 10244 20142 39345 40168 81040 333 20137 58008;
0168831820999992009072300004-11300-041867FM-12+074799999V0200901N003112200019N0010001N1+02241+01571101411ADDGF103991031001017501051001KA1240M+03171MA1999999093211MD1999999-0081REMSYN088AAXX  23004 83182 32794 30906 10224 20157 39321 40141 83050 333 10317 29/// 55086 59008;
0156831820999992009072312004-11300-041867FM-12+074799999V0201401N005110075019N0100001N1+02241+01691101631ADDGF107991071051008001001001KA1240N+01451MA1999999093381MD1999999-0071REMSYN076AAXX  23124 83182 32597 71410 10224 20169 39338 40163 87500 333 20145 59007;
0178831820999992009072400004-11300-041867FM-12+074799999V0200901N003112200019N0010001N1+02241+01551101441ADDGA1001+999999999GF100991001001999999001001KA1240M+03041MA1999999093201MD1999999-0011REMSYN082AAXX  24004 83182 32994 00906 10224 20155 39320 40144 333 10304 29/// 55077 59001;
0156831820999992009072412004-11300-041867FM-12+074799999V0200901N003612200019N0100001N1+02401+01551101601ADDGF101991011011012501001001KA1240N+01401MA1999999093371MD1999999-0011REMSYN076AAXX  24124 83182 32697 10907 10240 20155 39337 40160 81100 333 20140 59001;
0178831820999992009072500004-11300-041867FM-12+074799999V0200901N003112200019N0010001N1+02201+01251101471ADDGA1001+999999999GF100991001001999999001001KA1240M+03081MA1999999093251MD1999999+0051REMSYN082AAXX  25004 83182 32994 00906 10220 20125 39325 40147 333 10308 29/// 55101 58005;
0156831820999992009072512004-11300-041867FM-12+074799999V0200901N005112200019N0100001N1+02381+01421101761ADDGF102991021021008001001001KA1240N+01401MA1999999093521MD1999999+0151REMSYN076AAXX  25124 83182 32597 20910 10238 20142 39352 40176 82200 333 20140 58015;
0168831820999992009072600004-11300-041867FM-12+074799999V0201401N003119999999N0010001N1+02141+01201101701ADDGF108991001001999999001011KA1240M+02981MA1999999093451MD1999999+0201REMSYN088AAXX  26004 83182 32994 81406 10214 20120 39345 40170 80001 333 10298 29/// 55094 58020;
0156831820999992009072612004-11300-041867FM-12+074799999V0201401N005112200019N0100001N1+02281+01151101861ADDGF101991011021008001001001KA1240N+01221MA1999999093571MD1999999+0051REMSYN076AAXX  26124 83182 32597 11410 10228 20115 39357 40186 81200 333 20122 58005;
0178831820999992009072700004-11300-041867FM-12+074799999V0201401N002612200019N0010001N1+02121+01441101761ADDGA1001+999999999GF100991001001999999001001KA1240M+02981MA1999999093481MD1999999+0031REMSYN082AAXX  27004 83182 32994 01405 10212 20144 39348 40176 333 10298 29/// 55103 58003;
0166831820999992009072712004-11300-041867FM-12+074799999V0201401N004612200019N0100001N1+02301+01461101871ADDGA1001+999999999GF100991001001999999001001KA1240N+01251MA1999999093581MD1999999+0011REMSYN070AAXX  27124 83182 32997 01409 10230 20146 39358 40187 333 20125 58001;
0178831820999992009072800004-11300-041867FM-12+074799999V0201401N003112200019N0010001N1+02161+01271101721ADDGA1001+999999999GF100991001001999999001001KA1240M+03041MA1999999093461MD1999999-0021REMSYN082AAXX  28004 83182 32994 01406 10216 20127 39346 40172 333 10304 29/// 55105 59002;
0156831820999992009072812004-11300-041867FM-12+074799999V0200901N005712200019N0100001N1+02401+01501101721ADDGF102991021021008001001001KA1240N+01411MA1999999093481MD1999999-0101REMSYN076AAXX  28124 83182 32597 20911 10240 20150 39348 40172 82200 333 20141 59010;
0178831820999992009072900004-11300-041867FM-12+074799999V0201401N003612200019N0010001N1+02161+01191101581ADDGA1001+999999999GF100991001001999999001001KA1240M+03001MA1999999093351MD1999999-0111REMSYN082AAXX  29004 83182 32994 01407 10216 20119 39335 40158 333 10300 29/// 55113 59011;
0166831820999992009072912004-11300-041867FM-12+074799999V0201401N003112200019N0100001N1+02221+01271101781ADDGA1001+999999999GF100991001001999999001001KA1240N+01141MA1999999093501MD1999999+0021REMSYN070AAXX  29124 83182 32997 01406 10222 20127 39350 40178 333 20114 58002;
0178831820999992009073000004-11300-041867FM-12+074799999V0200901N004112200019N0010001N1+02261+01441101701ADDGA1001+999999999GF100991001001999999001001KA1240M+03091MA1999999093451MD1999999+0101REMSYN082AAXX  30004 83182 32994 00908 10226 20144 39345 40170 333 10309 29/// 55107 58010;
0156831820999992009073012004-11300-041867FM-12+074799999V0201401N004612200019N0100001N1+02401+01441101811ADDGF102991021021008001001001KA1240N+01421MA1999999093581MD1999999+0021REMSYN076AAXX  30124 83182 32597 21409 10240 20144 39358 40181 82200 333 20142 58002;
0178831820999992009073100004-11300-041867FM-12+074799999V0201401N002612200019N0010001N1+02261+01311101731ADDGA1001+999999999GF100991001001999999001001KA1240M+02991MA1999999093511MD1999999+0061REMSYN082AAXX  31004 83182 32994 01405 10226 20131 39351 40173 333 10299 29/// 55108 58006;
0156831820999992009073112004-11300-041867FM-12+074799999V0200901N006712200019N0100001N1+02331+01311101881ADDGF103991031021008001001001KA1240N+01461MA1999999093631MD1999999+0051REMSYN076AAXX  31124 83182 32597 30913 10233 20131 39363 40188 83200 333 20146 58005;
0168831820999992009080100004-11300-041867FM-12+074799999V0201401N002612200019N0010001N1+02181+01261101781ADDGF102991021001017501041001KA1240M+02781MA1999999093521MD1999999+0011REMSYN088AAXX  01004 83182 32794 21405 10218 20126 39352 40178 82040 333 10278 29/// 55057 58001;
0156831820999992009080112004-11300-041867FM-12+074799999V0201401N004110075019N0100001N1+02341+01691101871ADDGF107991071051008001001001KA1240N+01521MA1999999093601MD1999999-0031REMSYN076AAXX  01124 83182 32597 71408 10234 20169 39360 40187 87500 333 20152 59003;
0168831820999992009080200004-11300-041867FM-12+074799999V0201401N003112200019N0010001N1+02161+01321101741ADDGF108991041001017501041011KA1240M+02871MA1999999093481MD1999999-0041REMSYN088AAXX  02004 83182 32794 81406 10216 20132 39348 40174 84041 333 10287 29/// 55/// 59004;
0156831820999992009080212004-11300-041867FM-12+074799999V0201401N006210075019N0100001N1+02291+01641102041ADDGF107991071051008001001001KA1240N+01441MA1999999093741MD1999999+0181REMSYN076AAXX  02124 83182 32597 71412 10229 20164 39374 40204 87500 333 20144 58018;
0178831820999992009080300004-11300-041867FM-12+074799999V0201401N004112200019N0010001N1+02171+01661101691ADDGA1001+999999999GF100991001001999999001001KA1240M+02921MA1999999093441MD1999999-0041REMSYN082AAXX  03004 83182 32994 01408 10217 20166 39344 40169 333 10292 29/// 55/// 59004;
0156831820999992009080312004-11300-041867FM-12+074799999V0201401N006710075019N0100001N1+02201+01251101991ADDGF106991061021008001001001KA1240N+01411MA1999999093691MD1999999-0051REMSYN076AAXX  03124 83182 32597 61413 10220 20125 39369 40199 86200 333 20141 59005;
0178831820999992009080400004-11300-041867FM-12+074799999V0201401N002612200019N0010001N1+02081+01401101931ADDGA1001+999999999GF100991001001999999001001KA1240M+02931MA1999999093621MD1999999+0181REMSYN082AAXX  04004 83182 32994 01405 10208 20140 39362 40193 333 10293 29/// 55/// 58018;
0156831820999992009080412004-11300-041867FM-12+074799999V0201401N004610075019N0100001N1+02141+01531101471ADDGF108991081051008001999999KA1240N+01351MA1999999093551MD1999999-0141REMSYN076AAXX  04124 83182 32597 81409 10214 20153 39355 40147 885// 333 20135 59014;
0168831820999992009080500004-11300-041867FM-12+074799999V0201401N003112200019N0010001N1+02141+01461101691ADDGF108991021001017501051011KA1240M+02761MA1999999093401MD1999999-0221REMSYN088AAXX  05004 83182 32794 81406 10214 20146 39340 40169 82051 333 10276 29/// 55/// 59022;
0156831820999992009080512004-11300-041867FM-12+074799999V0200901N005112200019N0100001N1+02271+01501101701ADDGF108991011001017501051011KA1240N+01231MA1999999093431MD1999999-0121REMSYN076AAXX  05124 83182 32797 80910 10227 20150 39343 40170 81051 333 20123 59012;
0168831820999992009080600004-11300-041867FM-12+074799999V0200901N001519999999N0010001N1+02081+01431101581ADDGF108991001001999999001011KA1240M+02991MA1999999093321MD1999999-0081REMSYN088AAXX  06004 83182 32994 80903 10208 20143 39332 40158 80001 333 10299 29/// 55/// 59008;
0156831820999992009080612004-11300-041867FM-12+074799999V0201401N005110075019N0100001N1+02261+01371101911ADDGF106991061021008001001001KA1240N+01371MA1999999093601MD1999999+0171REMSYN076AAXX  06124 83182 32597 61410 10226 20137 39360 40191 86200 333 20137 58017;
0168831820999992009080700004-11300-041867FM-12+074799999V0200901N003112200019N0010001N1+02171+01411101641ADDGF108991021001017501041011KA1240M+02871MA1999999093371MD1999999+0051REMSYN088AAXX  07004 83182 32794 80906 10217 20141 39337 40164 82041 333 10287 29/// 55/// 58005;
0156831820999992009080712004-11300-041867FM-12+074799999V0201401N005112200019N0100001N1+02461+01501101771ADDGF108991021021008001001011KA1240N+01481MA1999999093531MD1999999-0071REMSYN076AAXX  07124 83182 32597 81410 10246 20150 39353 40177 82201 333 20148 59007;
0168831820999992009080800004-11300-041867FM-12+074799999V0201401N004610150019N0010001N1+02341+01331101651ADDGF106991061081012501001001KA1240M+03021MA1999999093451MD1999999+0081REMSYN088AAXX  08004 83182 32694 61409 10234 20133 39345 40165 86800 333 10302 29/// 55/// 58008;
0156831820999992009080812004-11300-041867FM-12+074799999V0201401N005110075019N0100001N1+02281+01661101881ADDGF108991081051008001999999KA1240N+01551MA1999999093631MD1999999+0101REMSYN076AAXX  08124 83182 32597 81410 10228 20166 39363 40188 885// 333 20155 58010;
0168831820999992009080900004-11300-041867FM-12+074799999V0201401N003619999999N0010001N1+02001+01621101831ADDGF108991001001999999001011KA1240M+02931MA1999999093531MD1999999+0001REMSYN088AAXX  09004 83182 32994 81407 10200 20162 39353 40183 80001 333 10293 29/// 55/// 58000;
0166831820999992009080912004-11300-041867FM-12+074799999V0201401N005112200019N0100001N1+02291+01501101881ADDGA1001+999999999GF100991001001999999001001KA1240N+01271MA1999999093571MD1999999-0061REMSYN070AAXX  09124 83182 32997 01410 10229 20150 39357 40188 333 20127 59006;
0178831820999992009081000004-11300-041867FM-12+074799999V0201401N002612200019N0010001N1+02151+01581101651ADDGA1001+999999999GF100991001001999999001001KA1240M+02991MA1999999093381MD1999999-0151REMSYN082AAXX  10004 83182 32994 01405 10215 20158 39338 40165 333 10299 29/// 55/// 59015;
0156831820999992009081012004-11300-041867FM-12+074799999V0201401N004112200019N0100001N1+02221+01461101901ADDGF102991021011008001001001KA1240N+01251MA1999999093611MD1999999+0041REMSYN076AAXX  10124 83182 32597 21408 10222 20146 39361 40190 82100 333 20125 58004;
0178831820999992009081100004-11300-041867FM-12+074799999V0200901N003112200019N0010001N1+02191+01131101531ADDGA1001+999999999GF100991001001999999001001KA1240M+03021MA1999999093271MD1999999-0111REMSYN082AAXX  11004 83182 32594 00906 10219 20113 39327 40153 333 10302 29/// 55/// 59011;
0156831820999992009081112004-11300-041867FM-12+074799999V0201401N004612200019N0100001N1+02291+01471101761ADDGF102991021011008001001001KA1240N+01581MA1999999093501MD1999999-0111REMSYN076AAXX  11124 83182 32597 21409 10229 20147 39350 40176 82100 333 20158 59011;
0178831820999992009081200004-11300-041867FM-12+074799999V0201401N003112200019N0010001N1+02281+01151101581ADDGA1001+999999999GF100991001001999999001001KA1240M+02951MA1999999093351MD1999999+0081REMSYN082AAXX  12004 83182 32994 01406 10228 20115 39335 40158 333 10295 29/// 55/// 58008;
0156831820999992009081212004-11300-041867FM-12+074799999V0201401N005712200019N0100001N1+02281+01551101981ADDGF108991011021008001001011KA1240N+01401MA1999999093721MD1999999+0221REMSYN076AAXX  12124 83182 32597 81411 10228 20155 39372 40198 81201 333 20140 58022;
0168831820999992009081300004-11300-041867FM-12+074799999V0200901N003119999999N0010001N1+02121+01041101821ADDGF108991001001999999001011KA1240M+02881MA1999999093541MD1999999+0191REMSYN088AAXX  13004 83182 32994 80906 10212 20104 39354 40182 80001 333 10288 29/// 55/// 58019;
0156831820999992009081312004-11300-041867FM-12+074799999V0201401N006712200019N0100001N1+02201+01311102011ADDGF108991031021008001001011KA1240N+01471MA1999999093691MD1999999-0031REMSYN076AAXX  13124 83182 32597 81413 10220 20131 39369 40201 83201 333 20147 59003;
0168831820999992009081400004-11300-041867FM-12+074799999V0200901N003619999999N0010001N1+02081+01371101721ADDGF108991001001999999001011KA1240M+02911MA1999999093431MD1999999-0111REMSYN088AAXX  14004 83182 32994 80907 10208 20137 39343 40172 80001 333 10291 29/// 55/// 59011;
0156831820999992009081412004-11300-041867FM-12+074799999V0201401N005712200019N0100001N1+02251+01381101771ADDGF108991031021008001001011KA1240N+01291MA1999999093471MD1999999-0221REMSYN076AAXX  14124 83182 32597 81411 10225 20138 39347 40177 83201 333 20129 59022;
0168831820999992009081500004-11300-041867FM-12+074799999V0201401N003119999999N0010001N1+02131+01291101511ADDGF108991001001999999001011KA1240M+02871MA1999999093281MD1999999-0151REMSYN088AAXX  15004 83182 32994 81406 10213 20129 39328 40151 80001 333 10287 29/// 55/// 59015;
0156831820999992009081512004-11300-041867FM-12+074799999V0201401N004119999999N0100001N1+02151+01391101731ADDGF108991001001999999001011KA1240N+01261MA1999999093441MD1999999-0071REMSYN076AAXX  15124 83182 32997 81408 10215 20139 39344 40173 80001 333 20126 59007;
0168831820999992009081600004-11300-041867FM-12+074799999V0200901N007219999999N0010001N1+02131+01491101541ADDGF108991001001999999001011KA1240M+03031MA1999999093261MD1999999-0021REMSYN088AAXX  16004 83182 32994 80914 10213 20149 39326 40154 80001 333 10303 29/// 55/// 59002;
0156831820999992009081612004-11300-041867FM-12+074799999V0201401N004110075019N0100001N1+02021+01621101901ADDGF108991081051008001999999KA1240N+01451MA1999999093571MD1999999+0131REMSYN076AAXX  16124 83182 32597 81408 10202 20162 39357 40190 885// 333 20145 58013;
0168831820999992009081700004-11300-041867FM-12+074799999V0201401N004119999999N0010001N1+02121+01441101581ADDGF108991001001999999001011KA1240M+02831MA1999999093261MD1999999+0001REMSYN088AAXX  17004 83182 32994 81408 10212 20144 39326 40158 80001 333 10283 29/// 55/// 58000;
0156831820999992009081712004-11300-041867FM-12+074799999V0201401N006712200019N0100001N1+02281+01491101711ADDGF103991031021008001001001KA1240N+01351MA1999999093441MD1999999-0131REMSYN076AAXX  17124 83182 32597 31413 10228 20149 39344 40171 83200 333 20135 59013;
0168831820999992009081800004-11300-041867FM-12+074799999V0201401N005110075019N0010001N1+02101+01661101471ADDGF108991071051008001001011KA1240M+02901MA1999999093221MD1999999-0041REMSYN088AAXX  18004 83182 32594 81410 10210 20166 39322 40147 87501 333 10290 29/// 55/// 59004;
0156831820999992009081812004-11300-041867FM-12+074799999V0201401N005712200019N0100001N1+02281+01561101751ADDGF101991011011012501001001KA1240N+01371MA1999999093471MD1999999+0031REMSYN076AAXX  18124 83182 32697 11411 10228 20156 39347 40175 81100 333 20137 58003;
0168831820999992009081900004-11300-041867FM-12+074799999V0200901N003119999999N0010001N1+02281+01491101301ADDGF108991001001999999001011KA1240M+03041MA1999999093091MD1999999-0131REMSYN088AAXX  19004 83182 32994 80906 10228 20149 39309 40130 80001 333 10304 29/// 55/// 59013;
0156831820999992009081912004-11300-041867FM-12+074799999V0201401N003112200019N0100001N1+02471+01731101351ADDGF108991031021008001001011KA1240N+01411MA1999999093171MD1999999-0301REMSYN076AAXX  19124 83182 32597 81406 10247 20173 39317 40135 83201 333 20141 59030;
0168831820999992009082000004-11300-041867FM-12+074799999V0201401N003119999999N0010001N1+02221+01741101191ADDGF108991001001999999001011KA1240M+03081MA1999999093011MD1999999-0081REMSYN088AAXX  20004 83182 32994 81406 10222 20174 39301 40119 80001 333 10308 29/// 55/// 59008;
0156831820999992009082012004-11300-041867FM-12+074799999V0200901N003110450019N0100001N1+02501+01721101401ADDGF108991011011012501041011KA1240N+01511MA1999999093201MD1999999+0031REMSYN076AAXX  20124 83182 32697 80906 10250 20172 39320 40140 81141 333 20151 58003;
0168831820999992009082100004-11300-041867FM-12+074799999V0200901N003112200019N0010001N1+02381+01581101311ADDGF108991021001017501051011KA1240M+03151MA1999999093151MD1999999+0141REMSYN088AAXX  21004 83182 32794 80906 10238 20158 39315 40131 82051 333 10315 29/// 55/// 58014;
0156831820999992009082112004-11300-041867FM-12+074799999V0201401N002610450019N0100001N1+02631+01571101371ADDGF108991011021008001041011KA1240N+01681MA1999999093231MD1999999+0031REMSYN076AAXX  21124 83182 32597 81405 10263 20157 39323 40137 81241 333 20168 58003;
0168831820999992009082200004-11300-041867FM-12+074799999V0200901N004119999999N0010001N1+02481+01171101131ADDGF108991001001999999001011KA1240M+03291MA1999999093021MD1999999-0131REMSYN088AAXX  22004 83182 32994 80908 10248 20117 39302 40113 80001 333 10329 29/// 55/// 59013;
0156831820999992009082212004-11300-041867FM-12+074799999V0201801N003112200019N0100001N1+02531+01751101151ADDGF108991021001017501031011KA1240N+01651MA1999999093021MD1999999-0211REMSYN076AAXX  22124 83182 32797 81806 10253 20175 39302 40115 82031 333 20165 59021;
0168831820999992009082300004-11300-041867FM-12+074799999V0200901N005119999999N0010001N1+02261+01661101431ADDGF108991001001999999001011KA1240M+03251MA1999999093251MD1999999+0231REMSYN088AAXX  23004 83182 32994 80910 10226 20166 39325 40143 80001 333 10325 29/// 55/// 58023;
0156831820999992009082312004-11300-041867FM-12+074799999V0200901N004610075019N0100001N1+02421+01651101541ADDGF106991061021008001001001KA1240N+01711MA1999999093331MD1999999+0311REMSYN076AAXX  23124 83182 32597 60909 10242 20165 39333 40154 86200 333 20171 58031;
0168831820999992009082400004-11300-041867FM-12+074799999V0200901N003110450019N0010001N1+02221+01711101501ADDGF108991031051008001051011KA1240M+02741MA1999999093271MD1999999+0021REMSYN088AAXX  24004 83182 32594 80906 10222 20171 39327 40150 83551 333 10274 29/// 55/// 58002;
0156831820999992009082412004-11300-041867FM-12+074799999V0201401N005110075019N0100001N1+02361+01491101611ADDGF106991061021008001001001KA1240N+01431MA1999999093381MD1999999+0051REMSYN076AAXX  24124 83182 32597 61410 10236 20149 39338 40161 86200 333 20143 58005;
0168831820999992009082500004-11300-041867FM-12+074799999V0201401N002119999999N0010001N1+02161+01271101571ADDGF108991001001999999001011KA1240M+02991MA1999999093331MD1999999+0061REMSYN088AAXX  25004 83182 32994 81404 10216 20127 39333 40157 80001 333 10299 29/// 55/// 58006;
0156831820999992009082512004-11300-041867FM-12+074799999V0201401N006712200019N0100001N1+02401+01291101621ADDGF102991011011012501041001KA1240N+01461MA1999999093391MD1999999+0011REMSYN076AAXX  25124 83182 32697 21413 10240 20129 39339 40162 81140 333 20146 58001;
0168831820999992009082600004-11300-041867FM-12+074799999V0200901N003112200019N0010001N1+02341+01341101331ADDGF108991031021008001001011KA1240M+02891MA1999999093141MD1999999-0191REMSYN088AAXX  26004 83182 32594 80906 10234 20134 39314 40133 83201 333 10289 29/// 55/// 59019;
0156831820999992009082612004-11300-041867FM-12+074799999V0201401N006712200019N0100001N1+02381+01361101681ADDGF102991011011012501041001KA1240N+01571MA1999999093461MD1999999+0071REMSYN076AAXX  26124 83182 32697 21413 10238 20136 39346 40168 81140 333 20157 58007;
0168831820999992009082700004-11300-041867FM-12+074799999V0200901N003119999999N0010001N1+02321+01191101491ADDGF108991001001999999001011KA1240M+03031MA1999999093281MD1999999+0141REMSYN088AAXX  27004 83182 32994 80906 10232 20119 39328 40149 80001 333 10303 29/// 55/// 58014;
0156831820999992009082712004-11300-041867FM-12+074799999V0201401N006210450019N0100001N1+02141+01431101861ADDGF108991021021008001041001KA1240N+01381MA1999999093581MD1999999+0121REMSYN076AAXX  27124 83182 32597 81412 10214 20143 39358 40186 82240 333 20138 58012;
0168831820999992009082800004-11300-041867FM-12+074799999V0200901N003119999999N0100001N1+02271+01621101661ADDGF108991031001008001031011KA1240M+02991MA1999999093391MD1999999+0111REMSYN088AAXX  28004 83182 32597 80906 10227 20162 39339 40166 83031 333 10299 29/// 55/// 58011;
0156831820999992009082812004-11300-041867FM-12+074799999V0201401N005110075019N0100001N1+02321+01531101841ADDGF108991081051008001999999KA1240N+01531MA1999999093591MD1999999+0011REMSYN076AAXX  28124 83182 32597 81410 10232 20153 39359 40184 885// 333 20153 58001;
0168831820999992009082900004-11300-041867FM-12+074799999V0201401N003112200019N0010001N1+02311+01651101541ADDGF108991031001017501031011KA1240M+03061MA1999999093311MD1999999-0081REMSYN088AAXX  29004 83182 32794 81406 10231 20165 39331 40154 83031 333 10306 29/// 55/// 59008;
0156831820999992009082912004-11300-041867FM-12+074799999V0201401N005712200019N0100001N1+02331+01591101721ADDGF108991031021008001001011KA1240N+01501MA1999999093481MD1999999-0111REMSYN076AAXX  29124 83182 32597 81411 10233 20159 39348 40172 83201 333 20150 59011;
0187831820999992009083000004-11300-041867FM-12+074799999V0200901N003119999999N0010001N1+02401+01381101441ADDGF108991001001999999001011KA1240M+03041MA1999999093241MD1999999-0071REMSYN088AAXX  30004 83182 32494 80906 10240 20138 39324 40144 80001 333 10304 29/// 55/// 59007;EQDQ01+004502SCOLCB
0156831820999992009083012004-11300-041867FM-12+074799999V0201401N005110075019N0100001N1+02291+01601101701ADDGF108991071051008001001011KA1240N+01551MA1999999093481MD1999999+0001REMSYN076AAXX  30124 83182 32597 81410 10229 20160 39348 40170 87501 333 20155 58000;
0168831820999992009083100004-11300-041867FM-12+074799999V0200901N003619999999N0010001N1+02221+01511101551ADDGF108991001001999999001011KA1240M+02841MA1999999093311MD1999999+0071REMSYN088AAXX  31004 83182 32994 80907 10222 20151 39331 40155 80001 333 10284 29/// 55/// 58007;
0156831820999992009083112004-11300-041867FM-12+074799999V0200901N005110075019N0100001N1+02241+01531101761ADDGF108991081051008001999999KA1240N+01551MA1999999093461MD1999999-0021REMSYN076AAXX  31124 83182 32597 80910 10224 20153 39346 40176 885// 333 20155 59002;
0168831820999992009090100004-11300-041867FM-12+074799999V0201401N003119999999N0010001N1+02041+01471101731ADDGF108991001001999999001011KA1240M+02831MA1999999093441MD1999999+0131REMSYN088AAXX  01004 83182 32994 81406 10204 20147 39344 40173 80001 333 10283 29/// 55/// 58013;
0156831820999992009090112004-11300-041867FM-12+074799999V0201401N004110075019N0100001N1+02201+01581101941ADDGF108991081051008001999999KA1240N+01501MA1999999093611MD1999999+0151REMSYN076AAXX  01124 83182 32597 81408 10220 20158 39361 40194 885// 333 20150 58015;
0168831820999992009090200004-11300-041867FM-12+074799999V0201401N002119999999N0010001N1+02161+01401101401ADDGF108991001001999999001011KA1240M+02961MA1999999093151MD1999999+0291REMSYN088AAXX  02004 83182 32994 81404 10216 20140 39315 40140 80001 333 10296 29/// 55095 58029;
0156831820999992009090212004-11300-041867FM-12+074799999V0200901N004119999999N0100001N1+02411+01141101731ADDGF108991001001999999001011KA1240N+01291MA1999999093491MD1999999-0161REMSYN076AAXX  02124 83182 32997 80908 10241 20114 39349 40173 80001 333 20129 59016;
0178831820999992009090300004-11300-041867FM-12+074799999V0201401N003112200019N0010001N1+02191+01391101651ADDGA1001+999999999GF100991001001999999001001KA1240M+03101MA1999999093421MD1999999+0271REMSYN082AAXX  03004 83182 32994 01406 10219 20139 39342 40165 333 10310 29/// 55110 58027;
0166831820999992009090312004-11300-041867FM-12+074799999V0201401N005112200019N0100001N1+02541+01361101781ADDGA1001+999999999GF100991001001999999001001KA1240N+01451MA1999999093551MD1999999+0061REMSYN070AAXX  03124 83182 32997 01410 10254 20136 39355 40178 333 20145 58006;
0168831820999992009090400004-11300-041867FM-12+074799999V0200901N004112200019N0010001N1+02501+01291101481ADDGF102991021001017501041001KA1240M+03231MA1999999093331MD1999999-0091REMSYN088AAXX  04004 83182 32794 20908 10250 20129 39333 40148 82040 333 10323 29/// 55110 59009;
0156831820999992009090412004-11300-041867FM-12+074799999V0201401N004112200019N0100001N1+02581+01641101661ADDGF101991011011012501001001KA1240N+01501MA1999999093511MD1999999-0041REMSYN076AAXX  04124 83182 32697 11408 10258 20164 39351 40166 81100 333 20150 59004;
0168831820999992009090500004-11300-041867FM-12+074799999V0200901N003610450019N0010001N1+02591+01261101821ADDGF108991011011012501041011KA1240M+03381MA1999999093241MD1999999-0091REMSYN088AAXX  05004 83182 32694 80907 10259 20126 39324 40182 81141 333 10338 29/// 55109 59009;
0166831820999992009090512004-11300-041867FM-12+074799999V0201401N004112200019N0100001N1+02731+01561101521ADDGA1001+999999999GF100991001001999999001001KA1240N+01681MA1999999093421MD1999999-0091REMSYN070AAXX  05124 83182 32997 01408 10273 20156 39342 40152 333 20168 59009;
0178831820999992009090600004-11300-041867FM-12+074799999V0200901N003612200019N0010001N1+02541+01451101461ADDGA1001+999999999GF100991001001999999001001KA1240M+03471MA1999999093361MD1999999+0121REMSYN082AAXX  06004 83182 32994 00907 10254 20145 39336 40146 333 10347 29/// 55108 58012;
0166831820999992009090612004-11300-041867FM-12+074799999V0200901N004112200019N0100001N1+02531+01621101581ADDGA1001+999999999GF100991001001999999001001KA1240N+01631MA1999999093441MD1999999+0021REMSYN070AAXX  06124 83182 32997 00908 10253 20162 39344 40158 333 20163 58002;
0166831820999992009090712004-11300-041867FM-12+074799999V0200901N005112200019N0100001N1+02591+01561101481ADDGA1001+999999999GF100991001001999999001001KA1240N+01731MA1999999093341MD1999999-0101REMSYN070AAXX  07124 83182 32997 00910 10259 20156 39334 40148 333 20173 59010;
0178831820999992009090800004-11300-041867FM-12+074799999V0200901N004112200019N0010001N1+02441+01451101531ADDGA1001+999999999GF100991001001999999001001KA1240M+03161MA1999999093301MD1999999+0071REMSYN082AAXX  08004 83182 32994 00908 10244 20145 39330 40153 333 10316 29/// 55101 58007;
0156831820999992009090812004-11300-041867FM-12+074799999V0200901N006212200019N0100001N1+02641+01581101461ADDGF108991041021008001001011KA1240N+01661MA1999999093311MD1999999-0031REMSYN076AAXX  08124 83182 32597 80912 10264 20158 39331 40146 84201 333 20166 59003;
0168831820999992009090900004-11300-041867FM-12+074799999V0200901N002110150019N0010001N1+02361+01401101271ADDGF108991061001017501051011KA1240M+03061MA1999999093141MD1999999-0161REMSYN088AAXX  09004 83182 32794 80904 10236 20140 39314 40127 86051 333 10306 29/// 55069 59016;
0156831820999992009090912004-11300-041867FM-12+074799999V0200901N006210075019N0100001N1+02561+01501101601ADDGF108991051021008001001011KA1240N+01761MA1999999093421MD1999999+0111REMSYN076AAXX  09124 83182 32597 80912 10256 20150 39342 40160 85201 333 20176 58011;
0168831820999992009091000004-11300-041867FM-12+074799999V0201401N006219999999N0010001N1+02201+01441101491ADDGF108991001001999999001011KA1240M+03021MA1999999093301MD1999999+0161REMSYN088AAXX  10004 83182 32994 81412 10220 20144 39330 40149 80001 333 10302 29/// 55097 58016;
0156831820999992009091012004-11300-041867FM-12+074799999V0201401N007210075019N0100001N1+02481+01461101821ADDGF105991051021008001001001KA1240N+01481MA1999999093591MD1999999+0171REMSYN076AAXX  10124 83182 32597 51414 10248 20146 39359 40182 85200 333 20148 58017;
0168831820999992009091100004-11300-041867FM-12+074799999V0201401N006212200019N0010001N1+02281+01381101741ADDGF108991031001017501051011KA1240M+03031MA1999999093531MD1999999+0231REMSYN088AAXX  11004 83182 32794 81412 10228 20138 39353 40174 83051 333 10303 29/// 55108 58023;
0156831820999992009091112004-11300-041867FM-12+074799999V0201401N006210075019N0100001N1+02501+01351101981ADDGF106991061021008001001001KA1240N+01621MA1999999093751MD1999999+0161REMSYN076AAXX  11124 83182 32597 61412 10250 20135 39375 40198 86200 333 20162 58016;
0168831820999992009091200004-11300-041867FM-12+074799999V0201401N003112200019N0010001N1+02291+01101101701ADDGF102991021001017501051001KA1240M+03041MA1999999093491MD1999999-0041REMSYN088AAXX  12004 83182 32794 21406 10229 20110 39349 40170 82050 333 10304 29/// 55110 59004;
0168831820999992009091300004-11300-041867FM-12+074799999V0201401N004112200019N0010001N1+02101+01551101671ADDGF108991021001017501051011KA1240M+02741MA1999999093421MD1999999-0071REMSYN088AAXX  13004 83182 32794 81408 10210 20155 39342 40167 82051 333 10274 29/// 55064 59007;
0156831820999992009091312004-11300-041867FM-12+074799999V0201401N004112200019N0100001N1+02441+01331101831ADDGF108991011011012501001011KA1240N+01281MA1999999093561MD1999999+0021REMSYN076AAXX  13124 83182 32697 81408 10244 20133 39356 40183 81101 333 20128 58002;
0168831820999992009091400004-11300-041867FM-12+074799999V0201401N004619999999N0010001N1+02331+01131101711ADDGF108991001001999999001011KA1240M+03161MA1999999093501MD1999999+0081REMSYN088AAXX  14004 83182 32994 81409 10233 20113 39350 40171 80001 333 10316 29/// 55112 58008;
0156831820999992009091412004-11300-041867FM-12+074799999V0200901N005112200019N0100001N1+02401+01411101821ADDGF101991011011012501001001KA1240N+01551MA1999999093591MD1999999+0061REMSYN076AAXX  14124 83182 32697 10910 10240 20141 39359 40182 81100 333 20155 58006;
0178831820999992009091500004-11300-041867FM-12+074799999V0200901N003112200019N0010001N1+02441+01201101481ADDGA1001+999999999GF100991001001999999001001KA1240M+03211MA1999999093291MD1999999-0211REMSYN082AAXX  15004 83182 32994 00906 10244 20120 39329 40148 333 10321 29/// 55106 59021;
0156831820999992009091512004-11300-041867FM-12+074799999V0201401N004112200019N0100001N1+02561+01531101731ADDGF101991011011012501001001KA1240N+01531MA1999999093551MD1999999-0041REMSYN076AAXX  15124 83182 32697 11408 10256 20153 39355 40173 81100 333 20153 59004;
0156831820999992009091612004-11300-041867FM-12+074799999V0200901N006212200019N0100001N1+02601+01451101621ADDGF108991021021008001001011KA1240N+01661MA1999999093471MD1999999-0081REMSYN076AAXX  16124 83182 32597 80912 10260 20145 39347 40162 82201 333 20166 59008;
0168831820999992009091700004-11300-041867FM-12+074799999V0200901N005119999999N0010001N1+02501+01051101331ADDGF108991001001999999001011KA1240M+03331MA1999999093211MD1999999-0011REMSYN088AAXX  17004 83182 32994 80910 10250 20105 39321 40133 80001 333 10333 29/// 55110 59001;
0156831820999992009091712004-11300-041867FM-12+074799999V0200901N004612200019N0100001N1+02561+01381101451ADDGF101991011011012501001001KA1240N+01681MA1999999093321MD1999999-0151REMSYN076AAXX  17124 83182 32697 10909 10256 20138 39332 40145 81100 333 20168 59015;
0178831820999992009091800004-11300-041867FM-12+074799999V02099999999992200019N0010001N1+02541+01361101141ADDGA1001+999999999GF100991001001999999001001KA1240M+03341MA1999999093011MD1999999-0201REMSYN082AAXX  18004 83182 32994 009// 10254 20136 39301 40114 333 10334 29/// 55097 59020;
0166831820999992009091812004-11300-041867FM-12+074799999V02099999999992200019N0100001N1+02561+01641101421ADDGA1001+999999999GF100991001001999999001001KA1240N+01851MA1999999093291MD1999999-0031REMSYN070AAXX  18124 83182 32997 014// 10256 20164 39329 40142 333 20185 59003;
0178831820999992009091900004-11300-041867FM-12+074799999V0200901N003612200019N0010001N1+02561+01381101221ADDGA1001+999999999GF100991001001999999001001KA1240M+03401MA1999999093101MD1999999+0091REMSYN082AAXX  19004 83182 32994 00907 10256 20138 39310 40122 333 10340 29/// 55109 58009;
0166831820999992009091912004-11300-041867FM-12+074799999V0201401N003112200019N0100001N1+02601+01411101481ADDGA1001+999999999GF100991001001999999001001KA1240N+01241MA1999999093361MD1999999+0071REMSYN070AAXX  19124 83182 32997 01406 10260 20141 39336 40148 333 20124 58007;
0178831820999992009092000004-11300-041867FM-12+074799999V0200901N005112200019N0010001N1+02661+01131101161ADDGA1001+999999999GF100991001001999999001001KA1240M+03501MA1999999093081MD1999999-0021REMSYN082AAXX  20004 83182 32994 00910 10266 20113 39308 40116 333 10350 29/// 55104 59002;
0166831820999992009092012004-11300-041867FM-12+074799999V0201401N004112200019N0100001N1+02721+01561101401ADDGA1001+999999999GF100991001001999999001001KA1240N+01281MA1999999093321MD1999999-0041REMSYN070AAXX  20124 83182 32997 01408 10272 20156 39332 40140 333 20128 59004;
0178831820999992009092100004-11300-041867FM-12+074799999V0200901N003112200019N0010001N1+02681+01241101081ADDGA1001+999999999GF100991001001999999001001KA1240M+03491MA1999999093031MD1999999-0051REMSYN082AAXX  21004 83182 32994 00906 10268 20124 39303 40108 333 10349 29/// 55106 59005;
0156831820999992009092112004-11300-041867FM-12+074799999V0200901N003612200019N0100001N1+02841+01531101241ADDGF101991011011012501001001KA1240N+01461MA1999999093191MD1999999-0131REMSYN076AAXX  21124 83182 32697 10907 10284 20153 39319 40124 81100 333 20146 59013;
0178831820999992009092200004-11300-041867FM-12+074799999V0200901N004612200019N0010001N1+02661+01441100981ADDGA1001+999999999GF100991001001999999001001KA1240M+03641MA1999999092951MD1999999-0081REMSYN082AAXX  22004 83182 32994 00909 10266 20144 39295 40098 333 10364 29/// 55110 59008;
0156831820999992009092212004-11300-041867FM-12+074799999V0200901N004110075019N0100001N1+02621+01811101201ADDGF108991071051008001001011KA1240N+01471MA1999999093121MD1999999-0071REMSYN076AAXX  22124 83182 32597 80908 10262 20181 39312 40120 87501 333 20147 59007;
0168831820999992009092300004-11300-041867FM-12+074799999V0200901N003112200019N0010001N1+02561+01501101191ADDGF108991021001017501041011KA1240M+03641MA1999999093091MD1999999+0141REMSYN088AAXX  23004 83182 32794 80906 10256 20150 39309 40119 82041 333 10364 29/// 55098 58014;
0156831820999992009092312004-11300-041867FM-12+074799999V0200901N004112200019N0100001N1+02621+02611101631ADDGF108991011011012501001011KA1240N+01241MA1999999093191MD1999999+0071REMSYN076AAXX  23124 83182 32697 80908 10262 20261 39319 40163 81101 333 20124 58007;
0178831820999992009092400004-11300-041867FM-12+074799999V0200901N004112200019N0010001N1+02651+01051101021ADDGA1001+999999999GF100991001001999999001001KA1240M+03351MA1999999092951MD1999999-0141REMSYN082AAXX  24004 83182 32994 00908 10265 20105 39295 40102 333 10335 29/// 55107 59014;
0166831820999992009092412004-11300-041867FM-12+074799999V0201401N002112200019N0100001N1+02901+01361101061ADDGA1001+999999999GF100991001001999999001001KA1240N+01321MA1999999093051MD1999999-0141REMSYN070AAXX  24124 83182 32997 01404 10290 20136 39305 40106 333 20132 59014;
0168831820999992009092500004-11300-041867FM-12+074799999V0200901N003112200019N0010001N1+02881+01351101051ADDGF108991041001017501051011KA1240M+03621MA1999999093061MD1999999+0011REMSYN088AAXX  25004 83182 32794 80906 10288 20135 39306 40105 84051 333 10362 29/// 55109 58001;
0156831820999992009092512004-11300-041867FM-12+074799999V0201401N002612200019N0100001N1+02931+01711101081ADDGF108991041081008001001011KA1240N+01681MA1999999093091MD1999999+0041REMSYN076AAXX  25124 83182 32597 81405 10293 20171 39309 40108 84801 333 20168 58004;
0168831820999992009092600004-11300-041867FM-12+074799999V0201401N006710450019N0010001N1+02641+01691101161ADDGF108991021051008001051011KA1240M+03591MA1999999093141MD1999999+0081REMSYN088AAXX  26004 83182 32594 81413 10264 20169 39314 40116 82551 333 10359 29/// 55068 58008;
0156831820999992009092612004-11300-041867FM-12+074799999V0201401N005712200019N0100001N1+02651+01521101491ADDGF108991031021008001001011KA1240N+01341MA1999999093391MD1999999+0301REMSYN076AAXX  26124 83182 32597 81411 10265 20152 39339 40149 83201 333 20134 58030;
0168831820999992009092700004-11300-041867FM-12+074799999V0201401N003110075019N0010001N1+02431+01611101431ADDGF108991081051008001999999KA1240M+03081MA1999999093301MD1999999+0161REMSYN088AAXX  27004 83182 32594 81406 10243 20161 39330 40143 885// 333 10308 29/// 55106 58016;
0166831820999992009092712004-11300-041867FM-12+074799999V0201401N005712200019N0100001N1+02511+01391101631ADDGA1001+999999999GF100991001001999999001001KA1240N+01201MA1999999093451MD1999999+0061REMSYN070AAXX  27124 83182 32997 01411 10251 20139 39345 40163 333 20120 58006;
0178831820999992009092800004-11300-041867FM-12+074799999V0200901N003112200019N0010001N1+02531+01111101461ADDGA1001+999999999GF100991001001999999001001KA1240M+03221MA1999999093311MD1999999+0011REMSYN082AAXX  28004 83182 32994 00906 10253 20111 39331 40146 333 10322 29/// 55109 58001;
0166831820999992009092812004-11300-041867FM-12+074799999V0201401N003112200019N0100001N1+02601+01631101741ADDGA1001+999999999GF100991001001999999001001KA1240N+01311MA1999999093581MD1999999+0131REMSYN070AAXX  28124 83182 32997 01406 10260 20163 39358 40174 333 20131 58013;
0178831820999992009092900004-11300-041867FM-12+074799999V0201401N003112200019N0010001N1+02651+00931100761ADDGA1001+999999999GF100991001001999999001001KA1240M+03381MA1999999093301MD1999999-0011REMSYN082AAXX  29004 83182 32994 01406 10265 20093 39330 40076 333 10338 29/// 55107 59001;
0166831820999992009092912004-11300-041867FM-12+074799999V0200901N004112200019N0100001N1+02841+01101101481ADDGA1001+999999999GF100991001001999999001001KA1240N+01221MA1999999093411MD1999999-0171REMSYN070AAXX  29124 83182 32997 00908 10284 20110 39341 40148 333 20122 59017;
0178831820999992009093000004-11300-041867FM-12+074799999V0200901N003112200019N0010001N1+02681+01051101241ADDGA1001+999999999GF100991001001999999001001KA1240M+03561MA1999999093191MD1999999-0111REMSYN082AAXX  30004 83182 32994 00906 10268 20105 39319 40124 333 10356 29/// 55109 59011;
0166831820999992009093012004-11300-041867FM-12+074799999V0200501N003112200019N0100001N1+03141+00961101241ADDGA1001+999999999GF100991001001999999001001KA1240N+01221MA1999999093241MD1999999-0171REMSYN070AAXX  30124 83182 32997 00506 10314 20096 39324 40124 333 20122 59017;
0178831820999992009100100004-11300-041867FM-12+074799999V0200901N004612200019N0010001N1+02681+00681101061ADDGA1001+999999999GF100991001001999999001001KA1240M+03661MA1999999093071MD1999999-0121REMSYN082AAXX  01004 83182 32994 00909 10268 20068 39307 40106 333 10366 29/// 55110 59012;
0156831820999992009100112004-11300-041867FM-12+074799999V0201401N004612200019N0100001N1+02641+01321101521ADDGF101991011011012501001001KA1240N+01301MA1999999093421MD1999999+0181REMSYN076AAXX  01124 83182 32697 11409 10264 20132 39342 40152 81100 333 20130 58018;
0168831820999992009100200004-11300-041867FM-12+074799999V0201401N003610075019N0010001N1+02541+01571100991ADDGF108991081051008001999999KA1240M+03341MA1999999092911MD1999999-0161REMSYN088AAXX  02004 83182 32594 81407 10254 20157 39291 40099 885// 333 10334 29/// 55110 59016;
0156831820999992009100212004-11300-041867FM-12+074799999V0201401N005710075019N0100001N1+02661+01791101451ADDGF106991061021008001001001KA1240N+01521MA1999999093341MD1999999-0081REMSYN076AAXX  02124 83182 32597 61411 10266 20179 39334 40145 86200 333 20152 59008;
0178831820999992009100300004-11300-041867FM-12+074799999V0200901N003612200019N0010001N1+02381+01801101361ADDGA1001+999999999GF100991001001999999001001KA1240M+03181MA1999999093221MD1999999+0311REMSYN082AAXX  03004 83182 32994 00907 10238 20180 39322 40136 333 10318 29/// 55106 58031;
0156831820999992009100312004-11300-041867FM-12+074799999V0201401N004110075019N0100001N1+02681+01701101531ADDGF106991061021008001001001KA1240N+01401MA1999999093391MD1999999+0041REMSYN076AAXX  03124 83182 32597 61408 10268 20170 39339 40153 86200 333 20140 58004;
0178831820999992009100400004-11300-041867FM-12+074799999V0200901N003112200019N0010001N1+02561+01561101371ADDGA1001+999999999GF100991001001999999001001KA1240M+03271MA1999999093261MD1999999+0041REMSYN082AAXX  04004 83182 32994 00906 10256 20156 39326 40137 333 10327 29/// 55110 58004;
0156831820999992009100412004-11300-041867FM-12+074799999V0200901N005110075019N0100001N1+02501+01781101431ADDGF108991071051008001001011KA1240N+01411MA1999999093301MD1999999-0091REMSYN076AAXX  04124 83182 32597 80910 10250 20178 39330 40143 87501 333 20141 59009;
0168831820999992009100500004-11300-041867FM-12+074799999V0200901N004119999999N0010001N1+02541+01391101151ADDGF108991001001999999001011KA1240M+03221MA1999999093021MD1999999-0241REMSYN088AAXX  05004 83182 32994 80908 10254 20139 39302 40115 80001 333 10322 29/// 55110 59024;
0156831820999992009100512004-11300-041867FM-12+074799999V0201401N005712200019N0100001N1+02581+01581101391ADDGF108991011021008001001011KA1240N+01131MA1999999093261MD1999999-0041REMSYN076AAXX  05124 83182 32597 81411 10258 20158 39326 40139 81201 333 20113 59004;
0168831820999992009100600004-11300-041867FM-12+074799999V0201401N005112200019N0010001N1+02481+01481101111ADDGF108991011001017501041011KA1240M+03301MA1999999093001MD1999999-0021REMSYN088AAXX  06004 83182 32794 81410 10248 20148 39300 40111 81041 333 10330 29/// 55108 59002;
0156831820999992009100612004-11300-041867FM-12+074799999V0201401N003612200019N0100001N1+02661+01591101471ADDGF108991011021008001001011KA1240N+01241MA1999999093341MD1999999+0081REMSYN076AAXX  06124 83182 32597 81407 10266 20159 39334 40147 81201 333 20124 58008;
0168831820999992009100700004-11300-041867FM-12+074799999V0200901N002619999999N0010001N1+02621+01461101251ADDGF108991001001999999001011KA1240M+03441MA1999999093161MD1999999+0161REMSYN088AAXX  07004 83182 32994 80905 10262 20146 39316 40125 80001 333 10344 29/// 55101 58016;
0156831820999992009100712004-11300-041867FM-12+074799999V0200901N004612200019N0100001N1+02761+01771101321ADDGF108991041021008001001011KA1240N+01411MA1999999093251MD1999999+0161REMSYN076AAXX  07124 83182 32597 80909 10276 20177 39325 40132 84201 333 20141 58016;
0168831820999992009100800004-11300-041867FM-12+074799999V0200901N004119999999N0010001N1+02641+01421101221ADDGF108991001001999999001011KA1240M+03411MA1999999093151MD1999999-0011REMSYN088AAXX  08004 83182 32994 80908 10264 20142 39315 40122 80001 333 10341 29/// 55110 59001;
0156831820999992009100812004-11300-041867FM-12+074799999V0201401N005112200019N0100001N1+02641+01571101351ADDGF108991011011012501001011KA1240N+01561MA1999999093271MD1999999+0021REMSYN076AAXX  08124 83182 32697 81410 10264 20157 39327 40135 81101 333 20156 58002;
0168831820999992009100900004-11300-041867FM-12+074799999V0200901N003610075019N0010001N1+02781+01491100951ADDGF108991061051008001001011KA1240M+03351MA1999999092931MD1999999-0221REMSYN088AAXX  09004 83182 32594 80907 10278 20149 39293 40095 86501 333 10335 29/// 55091 59022;
0156831820999992009100912004-11300-041867FM-12+074799999V0200501N001510075019N0100001N1+02561+01641101191ADDGF108991081051008001999999KA1240N+01721MA1999999093111MD1999999-0161REMSYN076AAXX  09124 83182 32597 80503 10256 20164 39311 40119 885// 333 20172 59016;
0168831820999992009101000004-11300-041867FM-12+074799999V0201401N002610075019N0010001N1+02281+01811101171ADDGF108991081051008001999999KA1240M+02861MA1999999093011MD1999999+0081REMSYN088AAXX  10004 83182 32594 81405 10228 20181 39301 40117 885// 333 10286 29/// 55005 58008;
0156831820999992009101012004-11300-041867FM-12+074799999V0200501N002610075019N0100001N1+02531+01751101301ADDGF108991081051008001999999KA1240N+01571MA1999999093131MD1999999+0021REMSYN076AAXX  10124 83182 32597 80505 10253 20175 39313 40130 885// 333 20157 58002;
0213831820999992009101100004-11300-041867FM-12+074799999V0201401N003610042019N0010001N1+02201+01991101201ADDAA106004191AY161061AY221061GF108991061071004501021999KA1240M+03141MA1999999093011MD1999999+0001MW1211REMSYN100AAXX  11004 83182 21494 81407 10220 20199 39301 40120 72162 8672/ 333 10314 29/// 55024 58000 60041;
0201831820999992009101112004-11300-041867FM-12+074799999V0200501N002610075019N0100001N1+02541+01911101141ADDAA124004191AY121061AY221061GF108991061031008001021999KA1240N+01411MA1999999092961MD1999999-0171MW1151REMSYN088AAXX  11124 83182 21597 80505 10254 20191 39296 40114 71522 8632/ 333 20141 59017 60044;
0213831820999992009101200004-11300-041867FM-12+074799999V0200901N001510042019N0010001N1+02101+01951101331ADDAA106020191AY161061AY261061GF108991061071004501021999KA1240M+02571MA1999999093121MD1999999+0111MW1021REMSYN100AAXX  12004 83182 21494 80903 10210 20195 39312 40133 70266 8672/ 333 10257 29/// 55009 58011 60201;
0173831820999992009101212004-11300-041867FM-12+074799999V0200901N002610075019N0100001N1+02361+01951101301ADDAA124020191GF108991081051008001999999KA1240N+01441MA1999999093071MD1999999+0111REMSYN082AAXX  12124 83182 22597 80905 10236 20195 39307 40130 885// 333 20144 58011 60204;
0213831820999992009101300004-11300-041867FM-12+074799999V0202701N000510042019N0010001N1+02121+01911101201ADDAA106004191AY161061AY261061GF108991061071004501021999KA1240M+03031MA1999999092981MD1999999-0141MW1021REMSYN100AAXX  13004 83182 21494 82701 10212 20191 39298 40120 70266 8672/ 333 10303 29/// 55039 59014 60041;
0173831820999992009101312004-11300-041867FM-12+074799999V0200501N002110450019N0100001N1+02581+02041101351ADDAA124004191GF108991041021008001041011KA1240N+01441MA1999999093151MD1999999+0081REMSYN082AAXX  13124 83182 22597 80504 10258 20204 39315 40135 84241 333 20144 58008 60044;
0156831820999992009101412004-11300-041867FM-12+074799999V0200901N003112200019N0100001N1+02761+01721101101ADDGF108991011011012501001011KA1240N+01421MA1999999092991MD1999999-0161REMSYN076AAXX  14124 83182 32697 80906 10276 20172 39299 40110 81101 333 20142 59016;
0168831820999992009101500004-11300-041867FM-12+074799999V0200901N004110450019N0010001N1+02521+01631101101ADDGF108991011021008001051011KA1240M+03341MA1999999093031MD1999999+0031REMSYN088AAXX  15004 83182 32594 80908 10252 20163 39303 40110 81251 333 10334 29/// 55078 58003;
0156831820999992009101512004-11300-041867FM-12+074799999V0200901N004112200019N0100001N1+02641+01481101101ADDGF108991011011012501001011KA1240N+01381MA1999999093011MD1999999+0021REMSYN076AAXX  15124 83182 32697 80908 10264 20148 39301 40110 81101 333 20138 58002;
0168831820999992009101600004-11300-041867FM-12+074799999V0200901N004619999999N0010001N1+02501+01421101111ADDGF108991001001999999001011KA1240M+03201MA1999999093001MD1999999-0031REMSYN088AAXX  16004 83182 32994 80909 10250 20142 39300 40111 80001 333 10320 29/// 55108 59003;
0156831820999992009101612004-11300-041867FM-12+074799999V0201401N005112200019N0100001N1+02661+01771101311ADDGF108991031021008001001011KA1240N+01451MA1999999093201MD1999999+0191REMSYN076AAXX  16124 83182 32597 81410 10266 20177 39320 40131 83201 333 20145 58019;
0168831820999992009101700004-11300-041867FM-12+074799999V0200901N003619999999N0010001N1+02671+01511101101ADDGF108991001001999999001011KA1240M+03341MA1999999093031MD1999999+0031REMSYN088AAXX  17004 83182 32994 80907 10267 20151 39303 40110 80001 333 10334 29/// 55104 58003;
0156831820999992009101712004-11300-041867FM-12+074799999V0200901N004610450019N0100001N1+02711+01601101401ADDGF108991011021008001041011KA1240N+01381MA1999999093321MD1999999+0121REMSYN076AAXX  17124 83182 32597 80909 10271 20160 39332 40140 81241 333 20138 58012;
0168831820999992009101800004-11300-041867FM-12+074799999V0200901N003112200019N0010001N1+02541+01361101171ADDGF108991011001017501041011KA1240M+03331MA1999999093071MD1999999+0041REMSYN088AAXX  18004 83182 32794 80906 10254 20136 39307 40117 81041 333 10333 29/// 55110 58004;
0156831820999992009101812004-11300-041867FM-12+074799999V0200901N005119999999N0100001N1+02681+01611101191ADDGF108991001001999999001011KA1240N+01311MA1999999093091MD1999999-0231REMSYN076AAXX  18124 83182 32997 80910 10268 20161 39309 40119 80001 333 20131 59023;
0168831820999992009101900004-11300-041867FM-12+074799999V0200901N005119999999N0010001N1+02551+01401100831ADDGF108991001001999999001011KA1240M+03391MA1999999092761MD1999999-0311REMSYN088AAXX  19004 83182 32994 80910 10255 20140 39276 40083 80001 333 10339 29/// 55111 59031;
0156831820999992009101912004-11300-041867FM-12+074799999V0201401N004610450019N0100001N1+02661+01771101081ADDGF108991031021008001041011KA1240N+01351MA1999999092991MD1999999-0101REMSYN076AAXX  19124 83182 32597 81409 10266 20177 39299 40108 83241 333 20135 59010;
0168831820999992009102000004-11300-041867FM-12+074799999V0200901N005112200019N0010001N1+02501+01461100801ADDGF108991011001017501041011KA1240M+03391MA1999999092741MD1999999-0021REMSYN088AAXX  20004 83182 32794 80910 10250 20146 39274 40080 81041 333 10339 29/// 55107 59002;
0156831820999992009102012004-11300-041867FM-12+074799999V0201401N003112200019N0100001N1+02781+01611101141ADDGF108991011011012501001011KA1240N+01321MA1999999093051MD1999999+0061REMSYN076AAXX  20124 83182 32697 81406 10278 20161 39305 40114 81101 333 20132 58006;
0168831820999992009102100004-11300-041867FM-12+074799999V0200901N004110450019N0010001N1+02731+01511100751ADDGF108991041021008001041011KA1240M+03401MA1999999092741MD1999999+0001REMSYN088AAXX  21004 83182 32594 80908 10273 20151 39274 40075 84241 333 10340 29/// 55106 58000;
0156831820999992009102112004-11300-041867FM-12+074799999V0200501N001512200019N0100001N1+02781+01731100931ADDGF108991011021008001001011KA1240N+01431MA1999999092911MD1999999-0141REMSYN076AAXX  21124 83182 32597 80503 10278 20173 39291 40093 81201 333 20143 59014;
0168831820999992009102200004-11300-041867FM-12+074799999V0200501N002610450019N0010001N1+02861+01481100961ADDGF108991031051008001041011KA1240M+03561MA1999999092961MD1999999+0221REMSYN088AAXX  22004 83182 32594 80505 10286 20148 39296 40096 83541 333 10356 29/// 55110 58022;
0156831820999992009102212004-11300-041867FM-12+074799999V0201401N002612200019N0100001N1+02961+01841100801ADDGF108991011021008001001011KA1240N+01581MA1999999092841MD1999999-0071REMSYN076AAXX  22124 83182 32597 81405 10296 20184 39284 40080 81201 333 20158 59007;
0213831820999992009102300004-11300-041867FM-12+074799999V0201401N000510450019N0010001N1+02741+01731100881ADDAA106000391AY161061AY221061GF108991041031004501061011KA1240M+03561MA1999999092881MD1999999-0081MW1131REMSYN100AAXX  23004 83182 21494 81401 10274 20173 39288 40088 71362 84361 333 10356 29/// 55093 59008 69931;
0173831820999992009102312004-11300-041867FM-12+074799999V0200901N004610450019N0100001N1+02551+01921101041ADDAA124000391GF108991021021008001051011KA1240N+01661MA1999999092971MD1999999+0131REMSYN082AAXX  23124 83182 22597 80909 10255 20192 39297 40104 82251 333 20166 58013 69934;
0232831820999992009102400004-11300-041867FM-12+074799999V0200501N001010075019N0010001N1+02871+01911100681ADDAA106000091AY161061AY221061GF108991051031008001021999KA1240M+03291MA1999999092661MD1999999-0221MW1131REMSYN100AAXX  24004 83182 21594 80502 10287 20191 39266 40068 71362 8532/ 333 10329 29/// 55047 59022 69911;EQDQ01  00002PRCP06
0201831820999992009102412004-11300-041867FM-12+074799999V0200901N002110450019N0100001N1+02201+02031101201ADDAA124084191AY161061AY261061GF108991031071017501021999KA1240N+01451MA1999999093081MD1999999+0031MW1211REMSYN088AAXX  24124 83182 21797 80904 10220 20203 39308 40120 72166 8372/ 333 20145 58003 60844;
0168831820999992009102500004-11300-041867FM-12+074799999V0200501N000510450019N0010001N1+02231+02041101051ADDGF108991031031004501021011KA1240M+02831MA1999999092831MD1999999+0171REMSYN088AAXX  25004 83182 32494 80501 10223 20204 39283 40105 83321 333 10283 29/// 55007 58017;
0201831820999992009102512004-11300-041867FM-12+074799999V0200901N002110450019N0100001N1+02241+01951101051ADDAA124000591AY161061AY221061GF108991021021008001061011KA1240N+01511MA1999999092871MD1999999-0211MW1021REMSYN088AAXX  25124 83182 21597 80904 10224 20195 39287 40105 70262 82261 333 20151 59021 69954;
0196831820999992009102600004-11300-041867FM-12+074799999V0203601N003610450019N0010001N1+02401+02031100971ADDAY121061AY221061GF108991041031008001021999KA1240M+02981MA1999999092831MD1999999+0001MW1131REMSYN094AAXX  26004 83182 31594 83607 10240 20203 39283 40097 71322 8432/ 333 10298 29/// 55060 58000;
0156831820999992009102612004-11300-041867FM-12+074799999V0203601N002110042019N0100001N1+02341+01911101151ADDGF108991061071004501021999KA1240N+01571MA1999999092971MD1999999+0101REMSYN076AAXX  26124 83182 32497 83604 10234 20191 39297 40115 8672/ 333 20157 58010;
0213831820999992009102700004-11300-041867FM-12+074799999V0200501N001010042019N0100001N1+02231+02091101181ADDAA106005191AY161061AY221061GF108991061071004501021999KA1240M+02721MA1999999092891MD1999999+0061MW1021REMSYN100AAXX  27004 83182 21497 80502 10223 20209 39289 40118 70262 8672/ 333 10272 29/// 55009 58006 60051;
0201831820999992009102712004-11300-041867FM-12+074799999V0200901N002110042019N0100001N1+02241+02031101181ADDAA124006191AY121061AY221061GF108991061071004501021999KA1240N+01451MA1999999092961MD1999999-0011MW1601REMSYN088AAXX  27124 83182 21497 80904 10224 20203 39296 40118 76022 8672/ 333 20145 59001 60064;
0213831820999992009102800004-11300-041867FM-12+074799999V0203601N001510042019N0010001N1+02141+02061101221ADDAA106017091AY161061AY261061GF108991061071004501021999KA1240M+02771MA1999999092981MD1999999+0091MW1611REMSYN100AAXX  28004 83182 21494 83603 10214 20206 39298 40122 76166 8672/ 333 10277 29/// 55026 58009 60171;
0201831820999992009102812004-11300-041867FM-12+074799999V0201401N002610450019N0100001N1+02251+01941101281ADDAA124033091AY161061AY261061GF108991021051008001011999KA1240N+01331MA1999999093041MD1999999+0081MW1021REMSYN088AAXX  28124 83182 21597 81405 10225 20194 39304 40128 70266 8251/ 333 20133 58008 60334;
0156831820999992009102912004-11300-041867FM-12+074799999V0200901N005112200019N0100001N1+02441+01641101131ADDGF108991011021008001001011KA1240N+01411MA1999999092951MD1999999-0091REMSYN076AAXX  29124 83182 32597 80910 10244 20164 39295 40113 81201 333 20141 59009;
0168831820999992009103000004-11300-041867FM-12+074799999V0200901N004612200019N0010001N1+02281+01811101131ADDGF108991021001017501041011KA1240M+02771MA1999999092951MD1999999+0131REMSYN088AAXX  30004 83182 32794 80909 10228 20181 39295 40113 82041 333 10277 29/// 55073 58013;
0156831820999992009103012004-11300-041867FM-12+074799999V0200501N003610450019N0100001N1+02441+01861100991ADDGF108991021021008001041011KA1240N+01221MA1999999092831MD1999999-0121REMSYN076AAXX  30124 83182 32597 80507 10244 20186 39283 40099 82241 333 20122 59012;
0168831820999992009103100004-11300-041867FM-12+074799999V0200501N001519999999N0010001N1+02481+01751100831ADDGF108991001001999999001021KA1240M+03051MA1999999092711MD1999999-0241REMSYN088AAXX  31004 83182 32994 80503 10248 20175 39271 40083 80002 333 10305 29/// 55103 59024;
0156831820999992009103112004-11300-041867FM-12+074799999V0200901N002110075019N0100001N1+02581+01771101031ADDGF108991061021008001041011KA1240N+01411MA1999999092931MD1999999+0101REMSYN076AAXX  31124 83182 32597 80904 10258 20177 39293 40103 86241 333 20141 58010;
0168831820999992009110100004-11300-041867FM-12+074799999V0200901N004611050019N0010001N1+02691+01921100771ADDGF108991021051008001001021KA1240M+03131MA1999999092691MD1999999-0021REMSYN088AAXX  01004 83182 32594 80909 10269 20192 39269 40077 82502 333 10313 29/// 55087 59002;
0156831820999992009110112004-11300-041867FM-12+074799999V0200901N003110075019N0100001N1+02531+01901101171ADDGF108991071051008001001011KA1240N+01401MA1999999093041MD1999999+0111REMSYN076AAXX  01124 83182 32597 80906 10253 20190 39304 40117 87501 333 20140 58011;
0168831820999992009110200004-11300-041867FM-12+074799999V0201401N001510150019N0010001N1+02251+01711101291ADDGF108991081001017501021999KA1240M+02971MA1999999093121MD1999999+0431REMSYN088AAXX  02004 83182 32794 81403 10225 20171 39312 40129 8802/ 333 10297 29/// 55101 58043;
0156831820999992009110212004-11300-041867FM-12+074799999V0200901N003619999999N0100001N1+02531+01701101461ADDGF108991001001999999001021KA1240N+01331MA1999999093271MD1999999+0231REMSYN076AAXX  02124 83182 32997 80907 10253 20170 39327 40146 80002 333 20133 58023;
0168831820999992009110300004-11300-041867FM-12+074799999V0200901N003119999999N0010001N1+02301+01631101041ADDGF108991001001999999001041KA1240M+03191MA1999999092891MD1999999-0231REMSYN088AAXX  03004 83182 32994 80906 10230 20163 39289 40104 80004 333 10319 29/// 55104 59023;
0156831820999992009110312004-11300-041867FM-12+074799999V0201401N003612200019N0100001N1+02361+01511101231ADDGF102991021021999999061001KA1240N+01271MA1999999093051MD1999999-0221REMSYN076AAXX  03124 83182 32997 21407 10236 20151 39305 40123 82260 333 20127 59022;
0168831820999992009110400004-11300-041867FM-12+074799999V0200901N004112200019N0010001N1+02241+01321101131ADDGF108991021001017501041011KA1240M+03091MA1999999092941MD1999999+0051REMSYN088AAXX  04004 83182 32794 80908 10224 20132 39294 40113 82041 333 10309 29/// 55111 58005;
0156831820999992009110412004-11300-041867FM-12+074799999V0201401N00411220001CN0100001N1+02391+01581101381ADDGF108991011021008001001041KA1240N+01161MA1999999093161MD1999999+0111REMSYN076AAXX  04124 83182 32597 81408 10239 20158 39316 40138 81204 333 20116 58011;
0168831820999992009110500004-11300-041867FM-12+074799999V0201401N003119999999N0010001N1+02281+01701101301ADDGF108991001001999999001011KA1240M+03021MA1999999093111MD1999999+0171REMSYN088AAXX  05004 83182 32994 81406 10228 20170 39311 40130 80001 333 10302 29/// 55102 58017;
0156831820999992009110512004-11300-041867FM-12+074799999V0200901N004110075019N0100001N1+02461+01731101591ADDGF108991071021008001001011KA1240N+01321MA1999999093371MD1999999+0211REMSYN076AAXX  05124 83182 32597 80908 10246 20173 39337 40159 87201 333 20132 58021;
0168831820999992009110600004-11300-041867FM-12+074799999V0201401N003111050019N0010001N1+02301+01651101401ADDGF108991021001017501041041KA1240M+02961MA1999999093221MD1999999+0111REMSYN088AAXX  06004 83182 32794 81406 10230 20165 39322 40140 82044 333 10296 29/// 55053 58011;
0156831820999992009110612004-11300-041867FM-12+074799999V0200901N004612200019N0100001N1+02501+01621101411ADDGF106991021021008001001011KA1240N+01201MA1999999093231MD1999999-0141REMSYN076AAXX  06124 83182 32597 60909 10250 20162 39323 40141 82201 333 20120 59014;
0168831820999992009110700004-11300-041867FM-12+074799999V0200901N003619999999N0010001N1+02351+01681101061ADDGF108991001001999999001011KA1240M+03141MA1999999092911MD1999999-0311REMSYN088AAXX  07004 83182 32994 80907 10235 20168 39291 40106 80001 333 10314 29/// 55106 59031;
0156831820999992009110712004-11300-041867FM-12+074799999V0200901N004110075019N0100001N1+02481+01651101331ADDGF106991051021008001001011KA1240N+01211MA1999999093151MD1999999-0081REMSYN076AAXX  07124 83182 32597 60908 10248 20165 39315 40133 85201 333 20121 59008;
0168831820999992009110800004-11300-041867FM-12+074799999V0200901N003119999999N0010001N1+02421+01671100971ADDGF108991001001999999001011KA1240M+03261MA1999999092841MD1999999-0071REMSYN088AAXX  08004 83182 32994 80906 10242 20167 39284 40097 80001 333 10326 29/// 55103 59007;
0156831820999992009110812004-11300-041867FM-12+074799999V0200901N003112200019N0100001N1+02611+01691101201ADDGF108991011011012501001011KA1240N+01361MA1999999093071MD1999999-0081REMSYN076AAXX  08124 83182 32697 80906 10261 20169 39307 40120 81101 333 20136 59008;
0168831820999992009110900004-11300-041867FM-12+074799999V0200901N002610075019N0010001N1+02531+01871100881ADDGF108991081051008001999999KA1240M+03201MA1999999092811MD1999999-0031REMSYN088AAXX  09004 83182 32594 80905 10253 20187 39281 40088 885// 333 10320 29/// 55087 59003;
0156831820999992009110912004-11300-041867FM-12+074799999V0200901N003610450019N0100001N1+02781+01911101021ADDGF108991011021008001031011KA1240N+01401MA1999999092951MD1999999-0121REMSYN076AAXX  09124 83182 32597 80907 10278 20191 39295 40102 81231 333 20140 59012;
0178831820999992009111000004-11300-041867FM-12+074799999V0200901N004612200019N0010001N1+02461+01881100861ADDGA1001+999999999GF100991001001999999001001KA1240M+03391MA1999999092791MD1999999-0021REMSYN082AAXX  10004 83182 32994 00909 10246 20188 39279 40086 333 10339 29/// 55111 59002;
0156831820999992009111012004-11300-041867FM-12+074799999V0200901N003610075019N0100001N1+02571+01891101111ADDGF108991051021008001031011KA1240N+01451MA1999999092981MD1999999+0031REMSYN076AAXX  10124 83182 32597 80907 10257 20189 39298 40111 85231 333 20145 58003;
0178831820999992009111100004-11300-041867FM-12+074799999V0201401N005712200019N0010001N1+02381+01661101021ADDGA1001+999999999GF100991001001999999001001KA1240M+03001MA1999999092901MD1999999+0111REMSYN082AAXX  11004 83182 32994 01411 10238 20166 39290 40102 333 10300 29/// 55109 58011;
0156831820999992009111112004-11300-041867FM-12+074799999V0201401N004112200019N0100001N1+02541+01711101131ADDGF103991031021008001001001KA1240N+01291MA1999999092991MD1999999+0011REMSYN076AAXX  11124 83182 32597 31408 10254 20171 39299 40113 83200 333 20129 58001;
0178831820999992009111200004-11300-041867FM-12+074799999V0200901N002612200019N0010001N1+02421+01721100891ADDGA1001+999999999GF100991001001999999001001KA1240M+03161MA1999999092781MD1999999-0121REMSYN082AAXX  12004 83182 32994 00905 10242 20172 39278 40089 333 10316 29/// 55109 59012;
0166831820999992009111212004-11300-041867FM-12+074799999V0201401N004112200019N0100001N1+02601+01601101001ADDGA1001+999999999GF100991001001999999001001KA1240N+01291MA1999999092881MD1999999-0111REMSYN070AAXX  12124 83182 32997 01408 10260 20160 39288 40100 333 20129 59011;
0178831820999992009111300004-11300-041867FM-12+074799999V0200901N003112200019N0010001N1+02271+01501100971ADDGA1001+999999999GF100991001001999999001001KA1240M+03161MA1999999092841MD1999999+0061REMSYN082AAXX  13004 83182 32994 00906 10227 20150 39284 40097 333 10316 29/// 55112 58006;
0166831820999992009111312004-11300-041867FM-12+074799999V0200901N004612200019N0100001N1+02541+01601101071ADDGA1001+999999999GF100991001001999999001001KA1240N+01201MA1999999092921MD1999999+0041REMSYN070AAXX  13124 83182 32997 00909 10254 20160 39292 40107 333 20120 58004;
0178831820999992009111400004-11300-041867FM-12+074799999V0200901N005112200019N0010001N1+02391+01211100931ADDGA1001+999999999GF100991001001999999001001KA1240M+03211MA1999999092801MD1999999-0041REMSYN082AAXX  14004 83182 32994 00910 10239 20121 39280 40093 333 10321 29/// 55112 59004;
0156831820999992009111412004-11300-041867FM-12+074799999V0200901N004112200019N0100001N1+02601+01651101201ADDGF103991031021008001001001KA1240N+01281MA1999999093071MD1999999+0151REMSYN076AAXX  14124 83182 32597 30908 10260 20165 39307 40120 83200 333 20128 58015;
0178831820999992009111500004-11300-041867FM-12+074799999V0201401N003112200019N0010001N1+02541+01571100991ADDGA1001+999999999GF100991001001999999001001KA1240M+03301MA1999999092891MD1999999+0091REMSYN082AAXX  15004 83182 32994 01406 10254 20157 39289 40099 333 10330 29/// 55096 58009;
0156831820999992009111512004-11300-041867FM-12+074799999V0200901N004612200019N0100001N1+02621+01731101151ADDGF103991031021008001001001KA1240N+01481MA1999999093081MD1999999+0011REMSYN076AAXX  15124 83182 32597 30909 10262 20173 39308 40115 83200 333 20148 58001;
0168831820999992009111600004-11300-041867FM-12+074799999V0200901N003119999999N0010001N1+02601+01631100771ADDGF108991001001999999001011KA1240M+03331MA1999999092711MD1999999-0181REMSYN088AAXX  16004 83182 32994 80906 10260 20163 39271 40077 80001 333 10333 29/// 55110 59018;
0156831820999992009111612004-11300-041867FM-12+074799999V0201401N002110450019N0100001N1+02781+01821100921ADDGF108991011021008001041011KA1240N+01361MA1999999092881MD1999999-0201REMSYN076AAXX  16124 83182 32597 81404 10278 20182 39288 40092 81241 333 20136 59020;
0168831820999992009111700004-11300-041867FM-12+074799999V0200901N001510075019N0010001N1+02601+01631100701ADDGF108991051031008001011999KA1240M+03451MA1999999092671MD1999999-0041REMSYN088AAXX  17004 83182 32594 80903 10260 20163 39267 40070 8531/ 333 10345 29/// 55106 59004;
0156831820999992009111712004-11300-041867FM-12+074799999V0203601N003610450019N0100001N1+02861+01781100901ADDGF108991011021008001051011KA1240N+01751MA1999999092861MD1999999-0021REMSYN076AAXX  17124 83182 32597 83607 10286 20178 39286 40090 81251 333 20175 59002;
0196831820999992009111800004-11300-041867FM-12+074799999V0202701N003110075019N0010001N1+02561+01931100941ADDAY121061AY221061GF108991061031008001021999KA1240M+03551MA1999999092901MD1999999+0231MW1131REMSYN094AAXX  18004 83182 31594 82706 10256 20193 39290 40094 71322 8632/ 333 10355 29/// 55082 58023;
0220831820999992009111812004-11300-041867FM-12+074799999V0200901N005710075019N0100001N1+02561+01751101151ADDAA124000091AY161061AY221061GF107991071051008001001001KA1240N+01481MA1999999093041MD1999999+0181MW1031REMSYN088AAXX  18124 83182 21597 70911 10256 20175 39304 40115 70362 87500 333 20148 58018 69924;EQDQ01  00002PRCP24
0178831820999992009111900004-11300-041867FM-12+074799999V0200901N002612200019N0010001N1+02381+01751101071ADDGA1001+999999999GF100991001001999999001001KA1240M+02891MA1999999092931MD1999999+0031REMSYN082AAXX  19004 83182 32994 00905 10238 20175 39293 40107 333 10289 29/// 55051 58003;
0156831820999992009111912004-11300-041867FM-12+074799999V0200901N004610450019N0100001N1+02631+01711101231ADDGF108991041021008001041011KA1240N+01511MA1999999093101MD1999999+0061REMSYN076AAXX  19124 83182 32597 80909 10263 20171 39310 40123 84241 333 20151 58006;
0168831820999992009112000004-11300-041867FM-12+074799999V0201401N003110450019N0010001N1+02301+01751101131ADDGF108991021051008001041011KA1240M+03061MA1999999092991MD1999999+0061REMSYN088AAXX  20004 83182 32594 81406 10230 20175 39299 40113 82541 333 10306 29/// 55071 58006;
0156831820999992009112012004-11300-041867FM-12+074799999V0200901N006712200019N0100001N1+02431+01651101411ADDGF102991021021008001001001KA1240N+01391MA1999999093211MD1999999+0111REMSYN076AAXX  20124 83182 32597 20913 10243 20165 39321 40141 82200 333 20139 58011;
0178831820999992009112100004-11300-041867FM-12+074799999V0201401N002612200019N0010001N1+02391+01421101111ADDGA1001+999999999GF100991001001999999001001KA1240M+03061MA1999999092921MD1999999-0041REMSYN082AAXX  21004 83182 32994 01405 10239 20142 39292 40111 333 10306 29/// 55108 59004;
0156831820999992009112112004-11300-041867FM-12+074799999V0200901N004612200019N0100001N1+02531+01671101451ADDGF103991031021008001001001KA1240N+01271MA1999999093281MD1999999+0071REMSYN076AAXX  21124 83182 32597 30909 10253 20167 39328 40145 83200 333 20127 58007;
0178831820999992009112200004-11300-041867FM-12+074799999V0200901N003112200019N0010001N1+02431+01381101231ADDGA1001+999999999GF100991001001999999001001KA1240M+03251MA1999999093101MD1999999+0151REMSYN082AAXX  22004 83182 32994 00906 10243 20138 39310 40123 333 10325 29/// 55099 58015;
0166831820999992009112212004-11300-041867FM-12+074799999V0200901N005112200019N0100001N1+02581+01461101331ADDGA1001+999999999GF100991001001999999001001KA1240N+01231MA1999999093191MD1999999-0091REMSYN070AAXX  22124 83182 32997 00910 10258 20146 39319 40133 333 20123 59009;
0178831820999992009112300004-11300-041867FM-12+074799999V0200901N003612200019N0010001N1+02451+01041101101ADDGA1001+999999999GF100991001001999999001001KA1240M+03331MA1999999092971MD1999999-0131REMSYN082AAXX  23004 83182 32994 00907 10245 20104 39297 40110 333 10333 29/// 55112 59013;
0166831820999992009112312004-11300-041867FM-12+074799999V0200901N004112200019N0100001N1+02591+01701101101ADDGA1001+999999999GF100991001001999999001001KA1240N+01191MA1999999092971MD1999999-0221REMSYN070AAXX  23124 83182 32997 00908 10259 20170 39297 40110 333 20119 59022;
0178831820999992009112400004-11300-041867FM-12+074799999V0200901N004612200019N0010001N1+02591+01621100791ADDGA1001+999999999GF100991001001999999001001KA1240M+03411MA1999999092731MD1999999-0241REMSYN082AAXX  24004 83182 32994 00909 10259 20162 39273 40079 333 10341 29/// 55112 59024;
0166831820999992009112412004-11300-041867FM-12+074799999V0201401N003612200019N0100001N1+02631+01991100991ADDGA1001+999999999GF100991001001999999001001KA1240N+01391MA1999999092911MD1999999-0061REMSYN070AAXX  24124 83182 32997 01407 10263 20199 39291 40099 333 20139 59006;
0178831820999992009112500004-11300-041867FM-12+074799999V0201401N002612200019N0010001N1+02441+01561100811ADDGA1001+999999999GF100991001001999999001001KA1240M+03341MA1999999092731MD1999999+0001REMSYN082AAXX  25004 83182 32994 01405 10244 20156 39273 40081 333 10334 29/// 55103 58000;
0156831820999992009112512004-11300-041867FM-12+074799999V0200901N002612200019N0100001N1+02631+01841101091ADDGF108991021021008001001011KA1240N+01331MA1999999092981MD1999999+0071REMSYN076AAXX  25124 83182 32597 80905 10263 20184 39298 40109 82201 333 20133 58007;
0168831820999992009112600004-11300-041867FM-12+074799999V0200901N002619999999N0010001N1+02571+01571100891ADDGF108991001001999999001011KA1240M+03321MA1999999092821MD1999999+0091REMSYN088AAXX  26004 83182 32994 80905 10257 20157 39282 40089 80001 333 10332 29/// 55102 58009;
0156831820999992009112612004-11300-041867FM-12+074799999V0200901N004119999999N0100001N1+02531+01701101291ADDGF108991001001999999001011KA1240N+01131MA1999999093171MD1999999+0191REMSYN076AAXX  26124 83182 32997 80908 10253 20170 39317 40129 80001 333 20113 58019;
0168831820999992009112700004-11300-041867FM-12+074799999V0200901N003119999999N0010001N1+02531+01561101011ADDGF108991001001999999001011KA1240M+03371MA1999999092911MD1999999+0091REMSYN088AAXX  27004 83182 32994 80906 10253 20156 39291 40101 80001 333 10337 29/// 55112 58009;
0156831820999992009112712004-11300-041867FM-12+074799999V0200901N003612200019N0100001N1+02531+01621101231ADDGF102991001001999999001011KA1240N+01301MA1999999093111MD1999999-0061REMSYN076AAXX  27124 83182 32997 20907 10253 20162 39311 40123 80001 333 20130 59006;
0178831820999992009112800004-11300-041867FM-12+074799999V0200901N004612200019N0010001N1+02621+01301100961ADDGA1001+999999999GF100991001001999999001001KA1240M+03401MA1999999092881MD1999999-0031REMSYN082AAXX  28004 83182 32994 00909 10262 20130 39288 40096 333 10340 29/// 55110 59003;
0156831820999992009112812004-11300-041867FM-12+074799999V0200901N002112200019N0100001N1+02591+01831101161ADDGF101991011011012501001001KA1240N+01291MA1999999093061MD1999999-0051REMSYN076AAXX  28124 83182 32697 10904 10259 20183 39306 40116 81100 333 20129 59005;
0168831820999992009112900004-11300-041867FM-12+074799999V0200901N002110075019N0010001N1+02691+01621100861ADDGF108991081051008001999999KA1240M+03511MA1999999092801MD1999999-0081REMSYN088AAXX  29004 83182 32594 80904 10269 20162 39280 40086 885// 333 10351 29/// 55099 59008;
0156831820999992009112912004-11300-041867FM-12+074799999V0200901N003612200019N0100001N1+02731+01491101031ADDGF102991021001017501041001KA1240N+01431MA1999999092981MD1999999-0081REMSYN076AAXX  29124 83182 32797 20907 10273 20149 39298 40103 82040 333 20143 59008;
0168831820999992009113000004-11300-041867FM-12+074799999V0200901N004112200019N0010001N1+02651+00891100791ADDGF108991011001017501041011KA1240M+03431MA1999999092761MD1999999-0041REMSYN088AAXX  30004 83182 32794 80908 10265 20089 39276 40079 81041 333 10343 29/// 55113 59004;
0156831820999992009113012004-11300-041867FM-12+074799999V0200901N002612200019N0100001N1+02831+01791100911ADDGF108991011021008001001011KA1240N+01361MA1999999092891MD1999999-0091REMSYN076AAXX  30124 83182 32597 80905 10283 20179 39289 40091 81201 333 20136 59009;
0168831820999992009120100004-11300-041867FM-12+074799999V0201401N002612200019N0010001N1+02631+01471100751ADDGF108991021001017501041011KA1240M+03331MA1999999092741MD1999999-0021REMSYN088AAXX  01004 83182 32794 81405 10263 20147 39274 40075 82041 333 10333 29/// 55045 59002;
0156831820999992009120112004-11300-041867FM-12+074799999V0200901N005110075019N0100001N1+02451+02001101081ADDGF108991081051008001999999KA1240N+01551MA1999999092941MD1999999+0051REMSYN076AAXX  01124 83182 32597 80910 10245 20200 39294 40108 885// 333 20155 58005;
0137831820999992009120118004-11300-041867FM-12+074799999V0203601N001510450019N0100001N1+03051+01461100641ADDGF108991021031008001021999MA1999999092591MD1999999+0061REMSYN070AAXX  01184 83182 32597 83603 10305 20146 39259 40064 8232/ 333 58006;
0213831820999992009120200004-11300-041867FM-12+074799999V0201801N002610042019N0010001N1+02091+01991101041ADDAA106007191AY161061AY261061GF108991051071004501021999KA1240M+03071MA1999999092841MD1999999+0101MW1211REMSYN100AAXX  02004 83182 21494 81805 10209 20199 39284 40104 72166 8572/ 333 10307 29078 55024 58010 60071;
0201831820999992009120212004-11300-041867FM-12+074799999V0200901N003110450019N0100001N1+02331+01921101261ADDAA124007991AY161061AY221061GF108991031071008001021999KA1240N+01411MA1999999092991MD1999999+0051MW1021REMSYN088AAXX  02124 83182 21597 80906 10233 20192 39299 40126 70262 8372/ 333 20141 58005 60084;
0182831820999992009120218004-11300-041867FM-12+074799999V0200901N002610042019N0100001N1+02611+01901100941ADDAA106000391AY121061AY221061GF108991061071004501021999MA1999999092761MD1999999+0171MW1611REMSYN082AAXX  02184 83182 21497 80905 10261 20190 39276 40094 76122 8672/ 333 58017 69931;
0213831820999992009120300004-11300-041867FM-12+074799999V0203201N002610042019N0010001N1+02091+01991101211ADDAA106000591AY161061AY221061GF108991061071004501021999KA1240M+02691MA1999999092971MD1999999+0131MW1021REMSYN100AAXX  03004 83182 21494 83205 10209 20199 39297 40121 70262 8672/ 333 10269 29082 55003 58013 69951;
0173831820999992009120312004-11300-041867FM-12+074799999V0200901N001510450019N0100001N1+02891+01891101241ADDAA124000891GF108991031021008001061011KA1240N+01271MA1999999092991MD1999999+0001REMSYN082AAXX  03124 83182 22597 80903 10289 20189 39299 40124 83261 333 20127 58000 69984;
0182831820999992009120318004-11300-041867FM-12+074799999V0200901N004110075019N0100001N1+02331+02011100951ADDAA106000591AY121061AY221061GF108991061031008001021999MA1999999092721MD1999999-0041MW1601REMSYN082AAXX  03184 83182 21597 80908 10233 20201 39272 40095 76022 8632/ 333 59004 69961;
0213831820999992009120400004-11300-041867FM-12+074799999V0200901N002610450019N0010001N1+02171+01941101041ADDAA106001091AY161061AY261061GF108991031071008001061011KA1240M+02991MA1999999092841MD1999999-0131MW1021REMSYN100AAXX  04004 83182 21594 80905 10217 20194 39284 40104 70266 83761 333 10299 29084 55031 59013 60011;
0201831820999992009120412004-11300-041867FM-12+074799999V0202701N002110042019N0100001N1+02191+02091101211ADDAA124009991AY161061AY261061GF108991061071004501021999KA1240N+01301MA1999999092971MD1999999-0021MW1021REMSYN088AAXX  04124 83182 21497 82704 10219 20209 39297 40121 70266 8672/ 333 20130 59002 60104;
0182831820999992009120418004-11300-041867FM-12+074799999V0203601N002110450019N0100001N1+02851+02081100731ADDAA106003091AY161061AY221061GF108991031031008001041011MA1999999092601MD1999999-0121MW1021REMSYN082AAXX  04184 83182 21597 83604 10285 20208 39260 40073 70262 83341 333 59012 60031;
0213831820999992009120500004-11300-041867FM-12+074799999V0201401N001510042019N0010001N1+02131+01961100991ADDAA106011991AY161061AY261061GF108991061071004501021999KA1240M+02911MA1999999092751MD1999999-0091MW1021REMSYN100AAXX  05004 83182 21494 81403 10213 20196 39275 40099 70266 8672/ 333 10291 29084 55031 59009 60121;
0173831820999992009120512004-11300-041867FM-12+074799999V0200901N001010042019N0100001N1+02311+02041101171ADDAA124014091GF108991051071004501021999KA1240N+01491MA1999999092941MD1999999-0031REMSYN082AAXX  05124 83182 22497 80902 10231 20204 39294 40117 8572/ 333 20149 59003 60144;
0182831820999992009120518004-11300-041867FM-12+074799999V0201801N001510450019N0100001N1+02291+02121100891ADDAA106002091AY161061AY221061GF108991031031004501021999MA1999999092681MD1999999+0081MW1021REMSYN082AAXX  05184 83182 21497 81803 10229 20212 39268 40089 70262 8332/ 333 58008 60021;
0213831820999992009120600004-11300-041867FM-12+074799999V0201801N002610450019N0010001N1+02131+01991101031ADDAA106002091AY161061AY221061GF108991041071004501021999KA1240M+02731MA1999999092811MD1999999+0061MW1021REMSYN100AAXX  06004 83182 21494 81805 10213 20199 39281 40103 70262 8472/ 333 10273 29080 55004 58006 60021;
0173831820999992009120612004-11300-041867FM-12+074799999V0200901N003610075019N0100001N1+02371+01861101291ADDAA124002091GF108991081051008001999999KA1240N+01481MA1999999093061MD1999999+0121REMSYN082AAXX  06124 83182 22597 80907 10237 20186 39306 40129 885// 333 20148 58012 60024;
0137831820999992009120618004-11300-041867FM-12+074799999V0200901N004110075019N0100001N1+02951+01801100811ADDGF108991061051008001001011MA1999999092711MD1999999+0031REMSYN070AAXX  06184 83182 32597 80908 10295 20180 39271 40081 86501 333 58003;
0168831820999992009120700004-11300-041867FM-12+074799999V0201401N002110150019N0010001N1+02431+01801101021ADDGF108991081001017501011999KA1240M+02991MA1999999092871MD1999999+0061REMSYN088AAXX  07004 83182 32794 81404 10243 20180 39287 40102 8801/ 333 10299 29065 55059 58006;
0156831820999992009120712004-11300-041867FM-12+074799999V0200901N004112200019N0100001N1+02571+01791101201ADDGF108991021021008001001011KA1240N+01431MA1999999093071MD1999999+0011REMSYN076AAXX  07124 83182 32597 80908 10257 20179 39307 40120 82201 333 20143 58001;
0137831820999992009120718004-11300-041867FM-12+074799999V0200901N003612200019N0100001N1+03131+01901100831ADDGF108991031021008001001011MA1999999092751MD1999999+0041REMSYN070AAXX  07184 83182 32597 80907 10313 20190 39275 40083 83201 333 58004;
0168831820999992009120800004-11300-041867FM-12+074799999V0200901N001012200019N0010001N1+02491+02081100981ADDGF108991031001017501051011KA1240M+03171MA1999999092881MD1999999+0011REMSYN088AAXX  08004 83182 32794 80902 10249 20208 39288 40098 83051 333 10317 29067 55110 58001;
0156831820999992009120812004-11300-041867FM-12+074799999V0200901N003110075019N0100001N1+02491+01911101221ADDGF108991061021008001041011KA1240N+01391MA1999999093091MD1999999+0021REMSYN076AAXX  08124 83182 32597 80906 10249 20191 39309 40122 86241 333 20139 58002;
0137831820999992009120818004-11300-041867FM-12+074799999V0201401N002612200019N0100001N1+02991+01901100791ADDGF106991031021008001001011MA1999999092711MD1999999-0041REMSYN070AAXX  08184 83182 32597 61405 10299 20190 39271 40079 83201 333 59004;
0168831820999992009120900004-11300-041867FM-12+074799999V0200901N003619999999N0010001N1+02351+02021101041ADDGF108991001001999999001011KA1240M+03051MA1999999092891MD1999999+0011REMSYN088AAXX  09004 83182 32994 80907 10235 20202 39289 40104 80001 333 10305 29072 55108 58001;
0175831820999992009120912004-11300-041867FM-12+074799999V0200901N002619999999N0100001N1+02571+01981101171ADDGF106991001001999999001011KA1240N+01291MA1999999093031MD1999999-0061REMSYN076AAXX  09124 83182 32997 60905 10257 20198 39303 40117 86001 333 20129 59006;EQDQ01+000062SCOTLC
0137831820999992009120918004-11300-041867FM-12+074799999V0200901N002612200019N0100001N1+03421+01361100691ADDGF103991021021008001001011MA1999999092661MD1999999-0051REMSYN070AAXX  09184 83182 32597 30905 10342 20136 39266 40069 82201 333 59005;
0168831820999992009121000004-11300-041867FM-12+074799999V0201401N003119999999N0010001N1+02551+01631100901ADDGF108991001001999999001011KA1240M+03451MA1999999092811MD1999999-0081REMSYN088AAXX  10004 83182 32994 81406 10255 20163 39281 40090 80001 333 10345 29053 55114 59008;
0156831820999992009121012004-11300-041867FM-12+074799999V0201401N002612200019N0100001N1+02481+01831101261ADDGF103991011011008001001041KA1240N+01261MA1999999093071MD1999999+0041REMSYN076AAXX  10124 83182 32597 31405 10248 20183 39307 40126 81104 333 20126 58004;
0137831820999992009121018004-11300-041867FM-12+074799999V0200901N002612200019N0100001N1+03131+01721100801ADDGF102991011011008001001011MA1999999092721MD1999999+0061REMSYN070AAXX  10184 83182 32597 20905 10313 20172 39272 40080 81101 333 58006;
0178831820999992009121100004-11300-041867FM-12+074799999V0200901N002612200019N0010001N1+02521+01691101101ADDGA1001+999999999GF100991001001999999001001KA1240M+03251MA1999999092891MD1999999+0081REMSYN082AAXX  11004 83182 32994 00905 10252 20169 39289 40110 333 10325 29058 55113 58008;
0156831820999992009121112004-11300-041867FM-12+074799999V0200901N003112200019N0100001N1+02451+01771101251ADDGF102991021021008001001001KA1240N+01251MA1999999093121MD1999999+0051REMSYN076AAXX  11124 83182 32597 20906 10245 20177 39312 40125 82200 333 20125 58005;
0137831820999992009121118004-11300-041867FM-12+074799999V0201801N002612200019N0100001N1+03241+02951100841ADDGF103991021021008001001011MA1999999092771MD1999999+0051REMSYN070AAXX  11184 83182 32597 31805 10324 20295 39277 40084 82201 333 58005;
0178831820999992009121200004-11300-041867FM-12+074799999V0200901N003612200019N0010001N1+02541+01361101021ADDGA1001+999999999GF100991001001999999001001KA1240M+03221MA1999999092901MD1999999+0011REMSYN082AAXX  12004 83182 32994 00907 10254 20136 39290 40102 333 10322 29050 55112 58001;
0143831820999992009121212004-11300-041867FM-12+074799999V0200501N003612200019N0100001N1+02581+01691101281ADDGF101991011021008001001001MA1999999093161MD1999999+0041REMSYN076AAXX  12124 83182 32597 10507 10258 20169 39316 40128 81200 333 2//// 58004;
0137831820999992009121218004-11300-041867FM-12+074799999V0203201N001010450019N0100001N1+03231+01491100671ADDGF108991011021008001041011MA1999999092621MD1999999-0151REMSYN070AAXX  12184 83182 32597 83202 10323 20149 39262 40067 81241 333 59015;
0168831820999992009121300004-11300-041867FM-12+074799999V0203601N001010450019N0010001N1+02631+01741100781ADDGF108991011021008001061011KA1240M+03311MA1999999092721MD1999999-0181REMSYN088AAXX  13004 83182 32594 83602 10263 20174 39272 40078 81261 333 10331 29052 55113 59018;
0143831820999992009121312004-11300-041867FM-12+074799999V0203601N001510075019N0100001N1+02721+01901101051ADDGF105991051021008001001001MA1999999093001MD1999999-0161REMSYN076AAXX  13124 83182 32597 53603 10272 20190 39300 40105 85200 333 2//// 59016;
0156831820999992009121318004-11300-041867FM-12+074799999V0203601N002119999999N0100001N1+03321+01701100531ADDGF106991999021008001001001MA1999999092561MD1999999-0061REMSYN070AAXX  13184 83182 32597 63604 10332 20170 39256 40053 84200 333 59006;EQDQ01+000042SCOTLC
0168831820999992009121400004-11300-041867FM-12+074799999V0200901N001010450019N0010001N1+02531+01921100831ADDGF108991021051008001041011KA1240M+03391MA1999999092761MD1999999+0041REMSYN088AAXX  14004 83182 32594 80902 10253 20192 39276 40083 82541 333 10339 29059 55084 58004;
0143831820999992009121412004-11300-041867FM-12+074799999V0200901N001510075019N0100001N1+02691+01931101021ADDGF108991051021008001061011MA1999999092941MD1999999-0061REMSYN076AAXX  14124 83182 32597 80903 10269 20193 39294 40102 85261 333 2//// 59006;
0137831820999992009121418004-11300-041867FM-12+074799999V0200901N002612200019N0100001N1+03321+01611100511ADDGF103991031031008001001001MA1999999092541MD1999999-0021REMSYN070AAXX  14184 83182 32597 30905 10332 20161 39254 40051 83300 333 59002;
0196831820999992009121500004-11300-041867FM-12+074799999V0200901N003112200019N0010001N1+02691+01621100911ADDAY121061AY221061GF108991011031008001001011KA1240M+03271MA1999999092871MD1999999+0111MW1131REMSYN094AAXX  15004 83182 31594 80906 10269 20162 39287 40091 71322 81301 333 10327 29051 55088 58011;
0143831820999992009121512004-11300-041867FM-12+074799999V0200901N005712200019N0100001N1+02511+01621101131ADDGF103991021021008001001011MA1999999093041MD1999999+0101REMSYN076AAXX  15124 83182 32597 30911 10251 20162 39304 40113 82201 333 2//// 58010;
0137831820999992009121518004-11300-041867FM-12+074799999V0200901N004612200019N0100001N1+03261+01281100751ADDGF102991021011012501001001MA1999999092641MD1999999+0101REMSYN070AAXX  15184 83182 32697 20909 10326 20128 39264 40075 82100 333 58010;
0168831820999992009121600004-11300-041867FM-12+074799999V0200901N003112200019N0010001N1+02511+01251100921ADDGF108991041001017501051011KA1240M+03291MA1999999092811MD1999999-0061REMSYN088AAXX  16004 83182 32794 80906 10251 20125 39281 40092 84051 333 10329 29044 55111 59006;
0143831820999992009121612004-11300-041867FM-12+074799999V0200901N005712200019N0100001N1+02501+01731101141ADDGF102991011051008001001011MA1999999093011MD1999999-0031REMSYN076AAXX  16124 83182 32597 20911 10250 20173 39301 40114 81501 333 2//// 59003;
0137831820999992009121618004-11300-041867FM-12+074799999V0200901N002610075019N0100001N1+03021+01361100941ADDGF108991051041008001031011MA1999999092811MD1999999-0171REMSYN070AAXX  16184 83182 32597 80905 10302 20136 39281 40094 85431 333 59017;
0168831820999992009121700004-11300-041867FM-12+074799999V0200901N003119999999N0010001N1+02591+01621100981ADDGF108991001001999999001011KA1240M+03151MA1999999092881MD1999999+0061REMSYN088AAXX  17004 83182 32994 80906 10259 20162 39288 40098 80001 333 10315 29052 55092 58006;
0143831820999992009121712004-11300-041867FM-12+074799999V0200901N005710075019N0100001N1+02591+01951101221ADDGF108991061021008001041011MA1999999093121MD1999999+0111REMSYN076AAXX  17124 83182 32597 80911 10259 20195 39312 40122 86241 333 2//// 58011;
0137831820999992009121718004-11300-041867FM-12+074799999V0200901N005110075019N0100001N1+03181+01451100881ADDGF107991051021008001041001MA1999999092811MD1999999+0001REMSYN070AAXX  17184 83182 32597 70910 10318 20145 39281 40088 85240 333 58000;
0178831820999992009121800004-11300-041867FM-12+074799999V0201401N002112200019N0010001N1+02561+01381100901ADDGA1001+999999999GF100991001001999999001001KA1240M+03261MA1999999092831MD1999999-0051REMSYN082AAXX  18004 83182 32994 01404 10256 20138 39283 40090 333 10326 29050 55093 59005;
0143831820999992009121812004-11300-041867FM-12+074799999V0200901N005712200019N0100001N1+02571+01601101251ADDGF102991011011012501001011MA1999999093131MD1999999-0011REMSYN076AAXX  18124 83182 32697 20911 10257 20160 39313 40125 81101 333 2//// 59001;
0137831820999992009121818004-11300-041867FM-12+074799999V0200501N004112200019N0100001N1+03271+01181100881ADDGF103991021021008001041001MA1999999092831MD1999999+0021REMSYN070AAXX  18184 83182 32597 30508 10327 20118 39283 40088 82240 333 58002;
0178831820999992009121900004-11300-041867FM-12+074799999V0201401N002612200019N0010001N1+02631+01441101051ADDGA1001+999999999GF100991001001999999001001KA1240M+03331MA1999999092961MD1999999+0131REMSYN082AAXX  19004 83182 32994 01405 10263 20144 39296 40105 333 10333 29045 55114 58013;
0143831820999992009121912004-11300-041867FM-12+074799999V0200901N005112200019N0100001N1+02621+01981101321ADDGF102991011021008001001011MA1999999093211MD1999999+0081REMSYN076AAXX  19124 83182 32597 20910 10262 20198 39321 40132 81201 333 2//// 58008;
0137831820999992009121918004-11300-041867FM-12+074799999V0200901N003612200019N0100001N1+03291+01401100871ADDGF108991041021008001001011MA1999999092851MD1999999+0021REMSYN070AAXX  19184 83182 32597 80907 10329 20140 39285 40087 84201 333 58002;
0168831820999992009122000004-11300-041867FM-12+074799999V0200901N003119999999N0010001N1+02641+01581101091ADDGF108991001001999999001011KA1240M+03371MA1999999093021MD1999999+0061REMSYN088AAXX  20004 83182 32994 80906 10264 20158 39302 40109 80001 333 10337 29051 55108 58006;
0143831820999992009122012004-11300-041867FM-12+074799999V0200901N005110450019N0100001N1+02401+01581101411ADDGF108991011021008001011011MA1999999093261MD1999999+0051REMSYN076AAXX  20124 83182 32597 80910 10240 20158 39326 40141 81211 333 2//// 58005;
0137831820999992009122018004-11300-041867FM-12+074799999V0200901N002610450019N0100001N1+03131+01311100971ADDGF108991011021008001041011MA1999999092911MD1999999+0061REMSYN070AAXX  20184 83182 32597 80905 10313 20131 39291 40097 81241 333 58006;
0168831820999992009122100004-11300-041867FM-12+074799999V0200901N003610150019N0010001N1+02531+01511101261ADDGF108991061001017501051011KA1240M+03151MA1999999093111MD1999999+0091REMSYN088AAXX  21004 83182 32794 80907 10253 20151 39311 40126 86051 333 10315 29050 55044 58009;
0143831820999992009122112004-11300-041867FM-12+074799999V0200901N004110450019N0100001N1+02291+01781101481ADDGF108991031031008001041011MA1999999093291MD1999999+0031REMSYN076AAXX  21124 83182 32597 80908 10229 20178 39329 40148 83341 333 2//// 58003;
0137831820999992009122118004-11300-041867FM-12+074799999V0200901N003110450019N0100001N1+03181+01351101071ADDGF108991021021008001041011MA1999999092961MD1999999+0051REMSYN070AAXX  21184 83182 32597 80906 10318 20135 39296 40107 82241 333 58005;
0203831820999992009122200004-11300-041867FM-12+074799999V0200901N003110150019N0010001N1+02551+01771101291ADDGF108991061001017501041011KA1240M+03251MA1999999999999MD1999999+0011REMSYN088AAXX  22004 83182 32794 80906 10255 20177 39112 40129 86041 333 10325 29058 55033 58001;EQDQ01+091123APOSP Q02 091123APOSP 
0143831820999992009122212004-11300-041867FM-12+074799999V0200901N005110450019N0100001N1+02451+01821101431ADDGF108991021021008001011999MA1999999093281MD1999999-0011REMSYN076AAXX  22124 83182 32597 80910 10245 20182 39328 40143 8221/ 333 2//// 59001;
0137831820999992009122218004-11300-041867FM-12+074799999V0200901N005110450019N0100001N1+03051+01101101211ADDGF108991011011012501041011MA1999999093081MD1999999+0121REMSYN070AAXX  22184 83182 32697 80910 10305 20110 39308 40121 81141 333 58012;
0168831820999992009122300004-11300-041867FM-12+074799999V0200901N002610150019N0010001N1+02441+01661101331ADDGF108991081001017501011999KA1240M+03111MA1999999093171MD1999999+0051REMSYN088AAXX  23004 83182 32794 80905 10244 20166 39317 40133 8801/ 333 10311 29056 55022 58005;
0143831820999992009122312004-11300-041867FM-12+074799999V0200901N001510150019N0100001N1+02371+01741101481ADDGF108991081001017501051999MA1999999093291MD1999999+0011REMSYN076AAXX  23124 83182 32797 80903 10237 20174 39329 40148 8805/ 333 2//// 58001;
0137831820999992009122318004-11300-041867FM-12+074799999V0201401N001510450019N0100001N1+03201+01281101071ADDGF108991041031008001031011MA1999999092971MD1999999-0111REMSYN070AAXX  23184 83182 32597 81403 10320 20128 39297 40107 84331 333 59011;
0168831820999992009122400004-11300-041867FM-12+074799999V0200901N002610150019N0010001N1+02711+01481101181ADDGF108991061001017501051021KA1240M+03271MA1999999093061MD1999999-0111REMSYN088AAXX  24004 83182 32794 80905 10271 20148 39306 40118 86052 333 10327 29048 55058 59011;
0143831820999992009122412004-11300-041867FM-12+074799999V0200901N004110450019N0100001N1+02631+01711101251ADDGF108991021021008001031011MA1999999093181MD1999999-0111REMSYN076AAXX  24124 83182 32597 80908 10263 20171 39318 40125 82231 333 2//// 59011;
0165831820999992009122418004-11300-041867FM-12+074799999V0200901N002610075019N0100001N1+03181+01351100981ADDAY121061AY221061GF108991061031008001041011MA1999999092871MD1999999-0101MW1151REMSYN076AAXX  24184 83182 31597 80905 10318 20135 39287 40098 71522 86341 333 59010;
0168831820999992009122500004-11300-041867FM-12+074799999V0200501N001010450019N0010001N1+02581+01721101161ADDGF108991021021008001041011KA1240M+03201MA1999999093061MD1999999+0001REMSYN088AAXX  25004 83182 32594 80502 10258 20172 39306 40116 82241 333 10320 29052 55065 58000;
0143831820999992009122512004-11300-041867FM-12+074799999V0200901N002110450019N0100001N1+02611+01861101221ADDGF108991021021008001041011MA1999999093121MD1999999-0061REMSYN076AAXX  25124 83182 32597 80904 10261 20186 39312 40122 82241 333 2//// 59006;
0165831820999992009122518004-11300-041867FM-12+074799999V0203601N003610450019N0100001N1+03181+01611100631ADDAY121061AY221061GF108991031031008001021011MA1999999092591MD1999999-0281MW1151REMSYN076AAXX  25184 83182 31597 83607 10318 20161 39259 40063 71522 83321 333 59028;
0213831820999992009122600004-11300-041867FM-12+074799999V0200901N002110042019N0010001N1+02161+02041101151ADDAA106000891AY161061AY221061GF108991061071004501021999KA1240M+03271MA1999999092991MD1999999-0071MW1021REMSYN100AAXX  26004 83182 21494 80904 10216 20204 39299 40115 70262 8672/ 333 10327 29072 55081 59007 69981;
0160831820999992009122612004-11300-041867FM-12+074799999V0203601N002110042019N0100001N1+02221+01941101371ADDAA124000891GF108991051071004501021999MA1999999093131MD1999999+0011REMSYN082AAXX  26124 83182 22497 83604 10222 20194 39313 40137 8572/ 333 2//// 58001 69984;
0182831820999992009122618004-11300-041867FM-12+074799999V0200501N004110450019N0100001N1+02481+01831101081ADDAA106000591AY161061AY221061GF108991041031008001021999MA1999999092871MD1999999+0281MW1021REMSYN082AAXX  26184 83182 21597 80508 10248 20183 39287 40108 70262 8432/ 333 58028 69941;
0168831820999992009122700004-11300-041867FM-12+074799999V0201401N001010075019N0010001N1+02291+02081101081ADDGF108991081051008001999999KA1240M+02821MA1999999092851MD1999999-0141REMSYN088AAXX  27004 83182 32594 81402 10229 20208 39285 40108 885// 333 10282 29080 55080 59014;
0143831820999992009122712004-11300-041867FM-12+074799999V0200501N004110075019N0100001N1+02521+01841101171ADDGF108991051031008001041999MA1999999093011MD1999999+0161REMSYN076AAXX  27124 83182 32597 80508 10252 20184 39301 40117 8534/ 333 2//// 58016;
0182831820999992009122718004-11300-041867FM-12+074799999V0203601N003610075019N0100001N1+02391+01971100811ADDAA106001091AY121061AY221061GF108991061031008001021999MA1999999092641MD1999999-0231MW1951REMSYN082AAXX  27184 83182 21597 83607 10239 20197 39264 40081 79522 8632/ 333 59023 60011;
0213831820999992009122800004-11300-041867FM-12+074799999V0200901N003110042019N0010001N1+02231+02051101061ADDAA106002091AY161061AY221061GF108991051071004501021999KA1240M+03151MA1999999092911MD1999999+0061MW1021REMSYN100AAXX  28004 83182 21494 80906 10223 20205 39291 40106 70262 8572/ 333 10315 29080 55010 58006 60021;
0188831820999992009122812004-11300-041867FM-12+074799999V0201801N001010075019N0100001N1+02271+02171101211ADDAA124009991AY161061AY261061GF108991051021008001041011MA1999999092991MD1999999-0021MW1021REMSYN088AAXX  28124 83182 21597 81802 10227 20217 39299 40121 70266 85241 333 2//// 59002 60104;
0165831820999992009122818004-11300-041867FM-12+074799999V0203601N001510075019N0100001N1+02811+01641100861ADDAY121061AY221061GF108991061031008001041999MA1999999092721MD1999999+0081MW1151REMSYN076AAXX  28184 83182 31597 83603 10281 20164 39272 40086 71522 8634/ 333 58008;
0168831820999992009122900004-11300-041867FM-12+074799999V0203601N001010450019N0010001N1+02351+02141101111ADDGF108991021071004501021999KA1240M+02971MA1999999092921MD1999999+0011REMSYN088AAXX  29004 83182 32494 83602 10235 20214 39292 40111 8272/ 333 10297 29080 55018 58001;
0143831820999992009122912004-11300-041867FM-12+074799999V0200901N001510450019N0100001N1+02371+02081101191ADDGF108991021071004501021999MA1999999093011MD1999999+0021REMSYN076AAXX  29124 83182 32497 80903 10237 20208 39301 40119 8272/ 333 2//// 58002;
0137831820999992009122918004-11300-041867FM-12+074799999V0202701N001010450019N0100001N1+03001+01751100731ADDGF108991021021008001041021MA1999999092671MD1999999-0051REMSYN070AAXX  29184 83182 32597 82702 10300 20175 39267 40073 82242 333 59005;
0213831820999992009123000004-11300-041867FM-12+074799999V0200901N001510450019N0010001N1+02271+02061101001ADDAA106006191AY161061AY221061GF108991021071004501021999KA1240M+03051MA1999999092821MD1999999-0101MW1021REMSYN100AAXX  30004 83182 21494 80903 10227 20206 39282 40100 70262 8272/ 333 10305 29076 55021 59010 60061;
0160831820999992009123012004-11300-041867FM-12+074799999V0200901N002610450019N0100001N1+02421+01951101151ADDAA124006191GF108991031021008001041999MA1999999092971MD1999999-0041REMSYN082AAXX  30124 83182 22597 80905 10242 20195 39297 40115 8324/ 333 2//// 59004 60064;
0165831820999992009123018004-11300-041867FM-12+074799999V0200901N005110450019N0100001N1+02631+01771100831ADDAY121061AY221061GF108991041031008001021011MA1999999092691MD1999999+0021MW1151REMSYN076AAXX  30184 83182 31597 80910 10263 20177 39269 40083 71522 84321 333 58002;
0213831820999992009123100004-11300-041867FM-12+074799999V0201801N001010042019N0010001N1+02211+02071101101ADDAA106008991AY161061AY261061GF108991061071004501021999KA1240M+03171MA1999999092911MD1999999+0091MW1611REMSYN100AAXX  31004 83182 21494 81802 10221 20207 39291 40110 76166 8672/ 333 10317 29080 55064 58009 60091;
0188831820999992009123112004-11300-041867FM-12+074799999V0202701N000510075019N0100001N1+02221+01641101231ADDAA124011991AY161061AY221061GF108991081051008001999999MA1999999092991MD1999999+0021MW1021REMSYN088AAXX  31124 83182 21597 82701 10222 20164 39299 40123 70262 885// 333 2//// 58002 60124;
0137831820999992009123118004-11300-041867FM-12+074799999V0202701N002110450019N0100001N1+02601+01921100941ADDGF108991031021008001021999MA1999999092761MD1999999+0071REMSYN070AAXX  31184 83182 32597 82704 10260 20192 39276 40094 8322/ 333 58007;
