0072832880999992009010110004-13267-043417FM-15+0443SBLP V0209999C00001220001CN0099001N1+02501+01901999999ADDMA1101291999999REMMET045METAR SBLP 011000Z 00000KT CAVOK 25/19 Q1013;
0072832880999992009010111004-13267-043417FM-15+0443SBLP V0209999C00001220001CN0099001N1+02801+02001999999ADDMA1101291999999REMMET045METAR SBLP 011100Z 00000KT CAVOK 28/20 Q1013;
0072832880999992009010112004-13267-043417FM-15+0443SBLP V0209999C00001220001CN0099001N1+03001+02001999999ADDMA1101391999999REMMET045METAR SBLP 011200Z 00000KT CAVOK 30/20 Q1014;
0072832880999992009010113004-13267-043417FM-15+0443SBLP V0202301N00311220001CN0099001N1+03101+01901999999ADDMA1101391999999REMMET045METAR SBLP 011300Z 23006KT CAVOK 31/19 Q1014;
0120832880999992009010114004-13267-043417FM-15+0443SBLP V0203501N001012200019N0112651N1+03201+02101999999ADDGA1021+009001999GF102991999999999999999999MA1101391999999REMMET051METAR SBLP 011400Z 35002KT 9999 FEW030 32/21 Q1014;
0120832880999992009010115004-13267-043417FM-15+0443SBLP V0202701N003112200019N0112651N1+03301+02001999999ADDGA1021+009001999GF102991999999999999999999MA1101291999999REMMET051METAR SBLP 011500Z 27006KT 9999 FEW030 33/20 Q1013;
0120832880999992009010116004-13267-043417FM-15+0443SBLP V0201801N003112200019N0112651N1+03301+02001999999ADDGA1041+009001999GF104991999999999999999999MA1101191999999REMMET051METAR SBLP 011600Z 18006KT 9999 SCT030 33/20 Q1012;
0120832880999992009010117004-13267-043417FM-15+0443SBLP V0201801N003112200019N0112651N1+03501+01901999999ADDGA1041+009001999GF104991999999999999999999MA1101081999999REMMET051METAR SBLP 011700Z 18006KT 9999 SCT030 35/19 Q1011;
0120832880999992009010118004-13267-043417FM-15+0443SBLP V0201801N002112200019N0112651N1+03501+01801999999ADDGA1041+009001999GF104991999999999999999999MA1101021999999REMMET051METAR SBLP 011800Z 18004KT 9999 SCT030 35/18 Q1010;
0120832880999992009010119004-13267-043417FM-15+0443SBLP V0209999C000012200019N0112651N1+03501+01801999999ADDGA1021+009001999GF102991999999999999999999MA1101021999999REMMET051METAR SBLP 011900Z 00000KT 9999 FEW030 35/18 Q1010;
0120832880999992009010120004-13267-043417FM-15+0443SBLP V0209999C000012200019N0112651N1+03401+01801999999ADDGA1021+009001999GF102991999999999999999999MA1100911999999REMMET051METAR SBLP 012000Z 00000KT 9999 FEW030 34/18 Q1009;
0072832880999992009010121004-13267-043417FM-15+0443SBLP V0209999C00001220001CN0099001N1+03401+01801999999ADDMA1100911999999REMMET045METAR SBLP 012100Z 00000KT CAVOK 34/18 Q1009;
0072832880999992009010210004-13267-043417FM-15+0443SBLP V0209999C00001220001CN0099001N1+02601+02101999999ADDMA1101191999999REMMET045METAR SBLP 021000Z 00000KT CAVOK 26/21 Q1012;
0072832880999992009010211004-13267-043417FM-15+0443SBLP V0209999C00001220001CN0099001N1+02801+02001999999ADDMA1101291999999REMMET045METAR SBLP 021100Z 00000KT CAVOK 28/20 Q1013;
0072832880999992009010212004-13267-043417FM-15+0443SBLP V0203601N00311220001CN0099001N1+03001+02001999999ADDMA1101291999999REMMET045METAR SBLP 021200Z 36006KT CAVOK 30/20 Q1013;
0072832880999992009010213004-13267-043417FM-15+0443SBLP V0203601N00311220001CN0099001N1+03101+02001999999ADDMA1101291999999REMMET045METAR SBLP 021300Z 36006KT CAVOK 31/20 Q1013;
0120832880999992009010214004-13267-043417FM-15+0443SBLP V0203601N003112200019N0112651N1+03201+02001999999ADDGA1021+009001999GF102991999999999999999999MA1101291999999REMMET051METAR SBLP 021400Z 36006KT 9999 FEW030 32/20 Q1013;
0120832880999992009010215004-13267-043417FM-15+0443SBLP V0203601N003112200019N0112651N1+03301+02001999999ADDGA1021+009001999GF102991999999999999999999MA1101191999999REMMET051METAR SBLP 021500Z 36006KT 9999 FEW030 33/20 Q1012;
0120832880999992009010216004-13267-043417FM-15+0443SBLP V0202901N002612200019N0112651N1+03401+02001999999ADDGA1021+009001999GF102991999999999999999999MA1101081999999REMMET051METAR SBLP 021600Z 29005KT 9999 FEW030 34/20 Q1011;
0120832880999992009010217004-13267-043417FM-15+0443SBLP V0203401N002112200019N0112651N1+03401+01901999999ADDGA1021+009001999GF102991999999999999999999MA1100911999999REMMET051METAR SBLP 021700Z 34004KT 9999 FEW030 34/19 Q1009;
0120832880999992009010218004-13267-043417FM-15+0443SBLP V0203601N002612200019N0112651N1+03501+02001999999ADDGA1021+009001999GF102991999999999999999999MA1100911999999REMMET051METAR SBLP 021800Z 36005KT 9999 FEW030 35/20 Q1009;
0120832880999992009010219004-13267-043417FM-15+0443SBLP V0203601N002112200019N0112651N1+03501+01901999999ADDGA1021+009001999GF102991999999999999999999MA1100811999999REMMET051METAR SBLP 021900Z 36004KT 9999 FEW030 35/19 Q1008;
0120832880999992009010220004-13267-043417FM-15+0443SBLP V0203601N002612200019N0112651N1+03501+01901999999ADDGA1021+009001999GF102991999999999999999999MA1100811999999REMMET051METAR SBLP 022000Z 36005KT 9999 FEW030 35/19 Q1008;
0072832880999992009010221004-13267-043417FM-15+0443SBLP V0203501N00211220001CN0099001N1+03401+01901999999ADDMA1100811999999REMMET045METAR SBLP 022100Z 35004KT CAVOK 34/19 Q1008;
0120832880999992009010310004-13267-043417FM-15+0443SBLP V0209999C000012200019N0112651N1+02501+02201999999ADDGA1041+008101999GF104991999999999999999999MA1101191999999REMMET051METAR SBLP 031000Z 00000KT 9999 SCT027 25/22 Q1012;
0120832880999992009010311004-13267-043417FM-15+0443SBLP V0202401N002112200019N0112651N1+02601+02201999999ADDGA1041+008101999GF104991999999999999999999MA1101191999999REMMET051METAR SBLP 031100Z 24004KT 9999 SCT027 26/22 Q1012;
0120832880999992009010312004-13267-043417FM-15+0443SBLP V0209999C000012200019N0112651N1+02901+02101999999ADDGA1021+009001999GF102991999999999999999999MA1101291999999REMMET051METAR SBLP 031200Z 00000KT 9999 FEW030 29/21 Q1013;
0143832880999992009010313004-13267-043417FM-15+0443SBLP V0203601N002112200019N0112651N1+03101+02101999999ADDGA1041+009001999GA2041+030001999GF104991999999999999999999MA1101291999999REMMET058METAR SBLP 031300Z 36004KT 9999 SCT030 SCT100 31/21 Q1013;
0120832880999992009010314004-13267-043417FM-15+0443SBLP V0203301N002112200019N0112651N1+03201+02101999999ADDGA1021+009001999GF102991999999999999999999MA1101191999999REMMET051METAR SBLP 031400Z 33004KT 9999 FEW030 32/21 Q1012;
0143832880999992009010315004-13267-043417FM-15+0443SBLP V0202401N001512200019N0112651N1+03101+02101999999ADDGA1021+009001999GA2041+030001999GF104991999999999999999999MA1101081999999REMMET058METAR SBLP 031500Z 24003KT 9999 FEW030 SCT100 31/21 Q1011;
0120832880999992009010316004-13267-043417FM-15+0443SBLP V0209999C000012200019N0112651N1+03301+02301999999ADDGA1041+009001999GF104991999999999999999999MA1101021999999REMMET051METAR SBLP 031600Z 00000KT 9999 SCT030 33/23 Q1010;
0120832880999992009010317004-13267-043417FM-15+0443SBLP V0200101N004112200019N0112651N1+03501+02201999999ADDGA1021+009001999GF102991999999999999999999MA1100911999999REMMET051METAR SBLP 031700Z 01008KT 9999 FEW030 35/22 Q1009;
0120832880999992009010318004-13267-043417FM-15+0443SBLP V0203301N004110090019N0112651N1+03001+02201999999ADDGA1071+009001999GF107991999999999999999999MA1100811999999REMMET051METAR SBLP 031800Z 33008KT 9999 BKN030 30/22 Q1008;
0120832880999992009010319004-13267-043417FM-15+0443SBLP V0203601N001512200019N0112651N1+03101+02001999999ADDGA1041+009001999GF104991999999999999999999MA1100811999999REMMET051METAR SBLP 031900Z 36003KT 9999 SCT030 31/20 Q1008;
0120832880999992009010320004-13267-043417FM-15+0443SBLP V0203601N005112200019N0112651N1+03101+02101999999ADDGA1041+009001999GF104991999999999999999999MA1100811999999REMMET051METAR SBLP 032000Z 36010KT 9999 SCT030 31/21 Q1008;
0120832880999992009010321004-13267-043417FM-15+0443SBLP V0202801N003112200019N0112651N1+02901+02201999999ADDGA1021+009001999GF102991999999999999999999MA1100911999999REMMET051METAR SBLP 032100Z 28006KT 9999 FEW030 29/22 Q1009;
0072832880999992009010410004-13267-043417FM-15+0443SBLP V0202701N00151220001CN0099001N1+02501+02201999999ADDMA1101191999999REMMET045METAR SBLP 041000Z 27003KT CAVOK 25/22 Q1012;
0072832880999992009010411004-13267-043417FM-15+0443SBLP V0209999C00001220001CN0099001N1+02801+02101999999ADDMA1101191999999REMMET045METAR SBLP 041100Z 00000KT CAVOK 28/21 Q1012;
0143832880999992009010412004-13267-043417FM-15+0443SBLP V0202701N001510300019N0112651N1+02901+02101999999ADDGA1021+009001999GA2071+030001999GF107991999999999999999999MA1101291999999REMMET058METAR SBLP 041200Z 27003KT 9999 FEW030 BKN100 29/21 Q1013;
0143832880999992009010413004-13267-043417FM-15+0443SBLP V0209999C000012200019N0112651N1+03101+02101999999ADDGA1021+009001999GA2041+030001999GF104991999999999999999999MA1101291999999REMMET058METAR SBLP 041300Z 00000KT 9999 FEW030 SCT100 31/21 Q1013;
0143832880999992009010414004-13267-043417FM-15+0443SBLP V0202101N002110300019N0112651N1+03101+02101999999ADDGA1021+009001999GA2071+030001999GF107991999999999999999999MA1101191999999REMMET058METAR SBLP 041400Z 21004KT 9999 FEW030 BKN100 31/21 Q1012;
0143832880999992009010415004-13267-043417FM-15+0443SBLP V0209999C000012200019N0112651N1+03201+02101999999ADDGA1021+009001999GA2041+030001999GF104991999999999999999999MA1101081999999REMMET058METAR SBLP 041500Z 00000KT 9999 FEW030 SCT100 32/21 Q1011;
0143832880999992009010416004-13267-043417FM-15+0443SBLP V0202601N003112200019N0112651N1+03101+02201999999ADDGA1041+009001999GA2041+030001999GF104991999999999999999999MA1101021999999REMMET058METAR SBLP 041600Z 26006KT 9999 SCT030 SCT100 31/22 Q1010;
0120832880999992009010417004-13267-043417FM-15+0443SBLP V0209999C000012200019N0112651N1+03301+02001999999ADDGA1041+009001999GF104991999999999999999999MA1100911999999REMMET051METAR SBLP 041700Z 00000KT 9999 SCT030 33/20 Q1009;
0154832880999992009010418004-13267-043417FM-15+0443SBLP V0202701N003112200019N0112651N1+03301+02001999999ADDGA1021+009001091GA2021+009001999GF102991999999999999999999MA1100811999999MW1171REMMET063METAR SBLP 041800Z 27006KT 9999 TS FEW030 FEW030CB 33/20 Q1008;
0125832880999992009010419004-13267-043417FM-15+0443SBLP V0209999C000012200019N0112651N1+03001+02201999999ADDGA1021+009001999GF102991999999999999999999MA1100711999999REMMET056METAR SBLP 041900Z 00000KT 9999 FEW030 30/22 Q1007 RETS;
0143832880999992009010420004-13267-043417FM-15+0443SBLP V0202501N002110300019N0112651N1+02901+02401999999ADDGA1021+009001999GA2071+030001999GF107991999999999999999999MA1100811999999REMMET058METAR SBLP 042000Z 25004KT 9999 FEW030 BKN100 29/24 Q1008;
0143832880999992009010421004-13267-043417FM-15+0443SBLP V0202101N003110300019N0112651N1+02701+02301999999ADDGA1041+006001999GA2071+030001999GF107991999999999999999999MA1100911999999REMMET058METAR SBLP 042100Z 21006KT 9999 SCT020 BKN100 27/23 Q1009;
0143832880999992009010510004-13267-043417FM-15+0443SBLP V0200501N002110300019N0112651N1+02301+02201999999ADDGA1041+006001999GA2071+030001999GF107991999999999999999999MA1101291999999REMMET058METAR SBLP 051000Z 05004KT 9999 SCT020 BKN100 23/22 Q1013;
0143832880999992009010511004-13267-043417FM-15+0443SBLP V0200601N002110300019N0112651N1+02501+02201999999ADDGA1041+006001999GA2071+030001999GF107991999999999999999999MA1101291999999REMMET058METAR SBLP 051100Z 06004KT 9999 SCT020 BKN100 25/22 Q1013;
0143832880999992009010512004-13267-043417FM-15+0443SBLP V0200301N003110300019N0112651N1+02601+02201999999ADDGA1021+006001999GA2071+030001999GF107991999999999999999999MA1101391999999REMMET058METAR SBLP 051200Z 03006KT 9999 FEW020 BKN100 26/22 Q1014;
0143832880999992009010513004-13267-043417FM-15+0443SBLP V0201801N003110300019N0112651N1+02801+02201999999ADDGA1021+009001999GA2071+030001999GF107991999999999999999999MA1101391999999REMMET058METAR SBLP 051300Z 18006KT 9999 FEW030 BKN100 28/22 Q1014;
0143832880999992009010514004-13267-043417FM-15+0443SBLP V0203601N002110300019N0112651N1+02801+02201999999ADDGA1021+009001999GA2071+030001999GF107991999999999999999999MA1101391999999REMMET058METAR SBLP 051400Z 36004KT 9999 FEW030 BKN100 28/22 Q1014;
0143832880999992009010515004-13267-043417FM-15+0443SBLP V0201801N002110300019N0112651N1+02901+02301999999ADDGA1021+009001999GA2071+030001999GF107991999999999999999999MA1101291999999REMMET058METAR SBLP 051500Z 18004KT 9999 FEW030 BKN100 29/23 Q1013;
0143832880999992009010516004-13267-043417FM-15+0443SBLP V0203601N003112200019N0112651N1+03001+02201999999ADDGA1041+009001999GA2041+030001999GF104991999999999999999999MA1101191999999REMMET058METAR SBLP 051600Z 36006KT 9999 SCT030 SCT100 30/22 Q1012;
0143832880999992009010517004-13267-043417FM-15+0443SBLP V0203601N003112200019N0112651N1+03201+02001999999ADDGA1041+009001999GA2041+030001999GF104991999999999999999999MA1101081999999REMMET058METAR SBLP 051700Z 36006KT 9999 SCT030 SCT100 32/20 Q1011;
0153832880999992009010518004-13267-043417FM-15+0443SBLP V0209999C000010300019N0090001N1+02801+02101999999ADDGA1041+009001999GA2071+030001999GF107991999999999999999999MA1101021999999MW1611REMMET062METAR SBLP 051800Z 00000KT 9000 -RA SCT030 BKN100 28/21 Q1010;
0143832880999992009010519004-13267-043417FM-15+0443SBLP V0209999C000010300019N0112651N1+02701+02101999999ADDGA1041+009001999GA2071+030001999GF107991999999999999999999MA1101021999999REMMET058METAR SBLP 051900Z 00000KT 9999 SCT030 BKN100 27/21 Q1010;
0143832880999992009010520004-13267-043417FM-15+0443SBLP V0209999C000010300019N0112651N1+02601+02101999999ADDGA1041+009001999GA2071+030001999GF107991999999999999999999MA1101021999999REMMET058METAR SBLP 052000Z 00000KT 9999 SCT030 BKN100 26/21 Q1010;
0143832880999992009010521004-13267-043417FM-15+0443SBLP V0209999C000010300019N0112651N1+02601+02101999999ADDGA1041+009001999GA2071+030001999GF107991999999999999999999MA1101081999999REMMET058METAR SBLP 052100Z 00000KT 9999 SCT030 BKN100 26/21 Q1011;
0143832880999992009010610004-13267-043417FM-15+0443SBLP V0209999C000010300019N0112651N1+02201+02101999999ADDGA1041+003001999GA2071+030001999GF107991999999999999999999MA1101291999999REMMET058METAR SBLP 061000Z 00000KT 9999 SCT010 BKN100 22/21 Q1013;
0143832880999992009010611004-13267-043417FM-15+0443SBLP V0209999C000010300019N0112651N1+02401+02101999999ADDGA1041+004501999GA2071+030001999GF107991999999999999999999MA1101291999999REMMET058METAR SBLP 061100Z 00000KT 9999 SCT015 BKN100 24/21 Q1013;
0143832880999992009010612004-13267-043417FM-15+0443SBLP V0209999C000010300019N0112651N1+02501+02101999999ADDGA1041+004501999GA2071+030001999GF107991999999999999999999MA1101391999999REMMET058METAR SBLP 061200Z 00000KT 9999 SCT015 BKN100 25/21 Q1014;
0143832880999992009010613004-13267-043417FM-15+0443SBLP V0209999C000010300019N0112651N1+02601+02101999999ADDGA1041+004501999GA2071+030001999GF107991999999999999999999MA1101391999999REMMET058METAR SBLP 061300Z 00000KT 9999 SCT015 BKN100 26/21 Q1014;
0143832880999992009010614004-13267-043417FM-15+0443SBLP V0209999C000010300019N0112651N1+02801+02101999999ADDGA1021+006001999GA2071+030001999GF107991999999999999999999MA1101291999999REMMET058METAR SBLP 061400Z 00000KT 9999 FEW020 BKN100 28/21 Q1013;
0143832880999992009010615004-13267-043417FM-15+0443SBLP V0203601N003110300019N0112651N1+02901+02101999999ADDGA1021+006001999GA2071+030001999GF107991999999999999999999MA1101291999999REMMET058METAR SBLP 061500Z 36006KT 9999 FEW020 BKN100 29/21 Q1013;
0143832880999992009010616004-13267-043417FM-15+0443SBLP V0202701N001510300019N0112651N1+02901+02101999999ADDGA1021+006001999GA2071+030001999GF107991999999999999999999MA1101081999999REMMET058METAR SBLP 061600Z 27003KT 9999 FEW020 BKN100 29/21 Q1011;
0120832880999992009010617004-13267-043417FM-15+0443SBLP V0202701N001512200019N0112651N1+03101+02001999999ADDGA1021+009001999GF102991999999999999999999MA1101021999999REMMET051METAR SBLP 061700Z 27003KT 9999 FEW030 31/20 Q1010;
0120832880999992009010618004-13267-043417FM-15+0443SBLP V0201701N001512200019N0112651N1+03201+02001999999ADDGA1021+009001999GF102991999999999999999999MA1100911999999REMMET051METAR SBLP 061800Z 17003KT 9999 FEW030 32/20 Q1009;
0143832880999992009010619004-13267-043417FM-15+0443SBLP V0209999C000012200019N0112651N1+03201+02201999999ADDGA1021+009001999GA2041+030001999GF104991999999999999999999MA1100911999999REMMET058METAR SBLP 061900Z 00000KT 9999 FEW030 SCT100 32/22 Q1009;
0143832880999992009010620004-13267-043417FM-15+0443SBLP V0209999C000012200019N0112651N1+03101+02101999999ADDGA1021+009001999GA2041+030001999GF104991999999999999999999MA1100911999999REMMET058METAR SBLP 062000Z 00000KT 9999 FEW030 SCT100 31/21 Q1009;
0143832880999992009010621004-13267-043417FM-15+0443SBLP V0209999C000010300019N0112651N1+02901+02001999999ADDGA1021+009001999GA2071+030001999GF107991999999999999999999MA1101021999999REMMET058METAR SBLP 062100Z 00000KT 9999 FEW030 BKN100 29/20 Q1010;
0143832880999992009010710004-13267-043417FM-15+0443SBLP V0209999C000010300019N0112651N1+02301+02101999999ADDGA1041+004501999GA2071+030001999GF107991999999999999999999MA1101391999999REMMET058METAR SBLP 071000Z 00000KT 9999 SCT015 BKN100 23/21 Q1014;
0143832880999992009010711004-13267-043417FM-15+0443SBLP V0209999C000010300019N0112651N1+02501+02101999999ADDGA1021+004501999GA2071+030001999GF107991999999999999999999MA1101391999999REMMET058METAR SBLP 071100Z 00000KT 9999 FEW015 BKN100 25/21 Q1014;
0143832880999992009010712004-13267-043417FM-15+0443SBLP V0209999C000010300019N0112651N1+02601+02101999999ADDGA1021+006001999GA2071+030001999GF107991999999999999999999MA1101391999999REMMET058METAR SBLP 071200Z 00000KT 9999 FEW020 BKN100 26/21 Q1014;
0143832880999992009010713004-13267-043417FM-15+0443SBLP V0209999C000010300019N0112651N1+02701+02101999999ADDGA1021+006001999GA2071+030001999GF107991999999999999999999MA1101391999999REMMET058METAR SBLP 071300Z 00000KT 9999 FEW020 BKN100 27/21 Q1014;
0143832880999992009010714004-13267-043417FM-15+0443SBLP V0209999C000012200019N0112651N1+02901+02101999999ADDGA1041+006001999GA2041+030001999GF104991999999999999999999MA1101391999999REMMET058METAR SBLP 071400Z 00000KT 9999 SCT020 SCT100 29/21 Q1014;
0143832880999992009010715004-13267-043417FM-15+0443SBLP V0209999C000012200019N0112651N1+03001+02101999999ADDGA1041+006001999GA2041+030001999GF104991999999999999999999MA1101291999999REMMET058METAR SBLP 071500Z 00000KT 9999 SCT020 SCT100 30/21 Q1013;
0143832880999992009010716004-13267-043417FM-15+0443SBLP V0200301N002110300019N0112651N1+03001+02101999999ADDGA1021+008101999GA2071+030001999GF107991999999999999999999MA1101191999999REMMET058METAR SBLP 071600Z 03004KT 9999 FEW027 BKN100 30/21 Q1012;
0153832880999992009010717004-13267-043417FM-15+0443SBLP V0200401N005112200019N0112651N1+03101+02101999999ADDGA1041+008101999GA2041+030001999GF104991999999999999999999MA1101081999999MW1611REMMET062METAR SBLP 071700Z 04010KT 9999 -RA SCT027 SCT100 31/21 Q1011;
0154832880999992009010718004-13267-043417FM-15+0443SBLP V0203401N002112200019N0112651N1+02701+02201999999ADDGA1021+009001999GA2021+012001091GF102991999999999999999999MA1101081999999MW1171REMMET063METAR SBLP 071800Z 34004KT 9999 TS FEW030 FEW040CB 27/22 Q1011;
0154832880999992009010719004-13267-043417FM-15+0443SBLP V0203501N004112200019N0112651N1+02501+02301999999ADDGA1021+009001999GA2021+012001091GF102991999999999999999999MA1101191999999MW1171REMMET063METAR SBLP 071900Z 35008KT 9999 TS FEW030 FEW040CB 25/23 Q1012;
0177832880999992009010720004-13267-043417FM-15+0443SBLP V0203001N003112200019N0112651N1+02401+02201999999ADDGA1041+004501999GA2021+012001091GA3041+030001999GF104991999999999999999999MA1101191999999MW1171REMMET070METAR SBLP 072000Z 30006KT 9999 TS SCT015 FEW040CB SCT100 24/22 Q1012;
0153832880999992009010721004-13267-043417FM-15+0443SBLP V0203101N002110060019N0112651N1+02301+02201999999ADDGA1071+006001999GA2071+030001999GF107991999999999999999999MA1101291999999MW1611REMMET062METAR SBLP 072100Z 31004KT 9999 -RA BKN020 BKN100 23/22 Q1013;
0143832880999992009010810004-13267-043417FM-15+0443SBLP V0202501N001512200019N0112651N1+02201+02101999999ADDGA1041+003001999GA2041+030001999GF104991999999999999999999MA1101391999999REMMET058METAR SBLP 081000Z 25003KT 9999 SCT010 SCT100 22/21 Q1014;
0143832880999992009010811004-13267-043417FM-15+0443SBLP V0201901N001512200019N0112651N1+02401+02201999999ADDGA1041+004501999GA2041+030001999GF104991999999999999999999MA1101491999999REMMET058METAR SBLP 081100Z 19003KT 9999 SCT015 SCT100 24/22 Q1015;
0143832880999992009010812004-13267-043417FM-15+0443SBLP V0209999C000012200019N0112651N1+02401+02101999999ADDGA1021+006001999GA2041+030001999GF104991999999999999999999MA1101491999999REMMET058METAR SBLP 081200Z 00000KT 9999 FEW020 SCT100 24/21 Q1015;
0143832880999992009010813004-13267-043417FM-15+0443SBLP V0201901N001512200019N0112651N1+02701+02301999999ADDGA1021+008101999GA2041+030001999GF104991999999999999999999MA1101491999999REMMET058METAR SBLP 081300Z 19003KT 9999 FEW027 SCT100 27/23 Q1015;
0143832880999992009010814004-13267-043417FM-15+0443SBLP V0202401N002112200019N0112651N1+02801+02201999999ADDGA1021+008101999GA2041+030001999GF104991999999999999999999MA1101491999999REMMET058METAR SBLP 081400Z 24004KT 9999 FEW027 SCT100 28/22 Q1015;
0120832880999992009010815004-13267-043417FM-15+0443SBLP V0202401N003112200019N0112651N1+03001+02301999999ADDGA1021+009001999GF102991999999999999999999MA1101391999999REMMET051METAR SBLP 081500Z 24006KT 9999 FEW030 30/23 Q1014;
0131832880999992009010816004-13267-043417FM-15+0443SBLP V0202501N003112200019N0080001N1+03001+02201999999ADDGA1041+009001999GF104991999999999999999999MA1101291999999MW1161REMMET056METAR SBLP 081600Z 25006KT 8000 VCSH SCT030 30/22 Q1013;
0156832880999992009010817004-13267-043417FM-15+0443SBLP V0200301N00411220001CN0050001N1+02501+02301999999ADDGA1021+009001091GA2071+009001999MA1101391999999MW1801MW2951REMMET066METAR SBLP 081700Z 03008KT 5000 -TSRA BKN030 FEW030CB 25/23 Q1014;EQDQ01+000022SCOTCV
0148832880999992009010818004-13267-043417FM-15+0443SBLP V0203601N004110300019N0112651N1+02701+02301999999ADDGA1041+009001999GA2071+030001999GF107991999999999999999999MA1101191999999REMMET063METAR SBLP 081800Z 36008KT 9999 SCT030 BKN100 27/23 Q1012 RERA;
0188832880999992009010819004-13267-043417FM-15+0443SBLP V0201001N002110300019N0080001N1+02601+02301999999ADDGA1021+009001091GA2041+009001999GA3071+030001999GF107991999999999999999999MA1101291999999MW1161MW2171REMMET075METAR SBLP 081900Z 10004KT 8000 TS VCSH SCT030 FEW030CB BKN100 26/23 Q1013;
0143832880999992009010820004-13267-043417FM-15+0443SBLP V0200601N002110300019N0112651N1+02501+02201999999ADDGA1041+009001999GA2071+030001999GF107991999999999999999999MA1101191999999REMMET058METAR SBLP 082000Z 06004KT 9999 SCT030 BKN100 25/22 Q1012;
0143832880999992009010821004-13267-043417FM-15+0443SBLP V0201101N002110300019N0112651N1+02401+02201999999ADDGA1021+009001999GA2071+030001999GF107991999999999999999999MA1101191999999REMMET058METAR SBLP 082100Z 11004KT 9999 FEW030 BKN100 24/22 Q1012;
0072832880999992009010910004-13267-043417FM-15+0443SBLP V0209999C00001220001CN0099001N1+02501+02301999999ADDMA1101591999999REMMET045METAR SBLP 091000Z 00000KT CAVOK 25/23 Q1016;
0072832880999992009010911004-13267-043417FM-15+0443SBLP V0200901N00151220001CN0099001N1+02801+02001999999ADDMA1101591999999REMMET045METAR SBLP 091100Z 09003KT CAVOK 28/20 Q1016;
0120832880999992009010912004-13267-043417FM-15+0443SBLP V0201501N001512200019N0112651N1+02901+02101999999ADDGA1021+009001999GF102991999999999999999999MA1101691999999REMMET051METAR SBLP 091200Z 15003KT 9999 FEW030 29/21 Q1017;
0143832880999992009010913004-13267-043417FM-15+0443SBLP V0201601N002112200019N0112651N1+03001+02001999999ADDGA1041+009001999GA2041+030001999GF104991999999999999999999MA1101691999999REMMET058METAR SBLP 091300Z 16004KT 9999 SCT030 SCT100 30/20 Q1017;
0143832880999992009010914004-13267-043417FM-15+0443SBLP V0209999C000012200019N0112651N1+03101+02001999999ADDGA1021+009001999GA2041+030001999GF104991999999999999999999MA1101691999999REMMET058METAR SBLP 091400Z 00000KT 9999 FEW030 SCT100 31/20 Q1017;
0120832880999992009010915004-13267-043417FM-15+0443SBLP V0200901N002112200019N0112651N1+03201+02001999999ADDGA1041+009001999GF104991999999999999999999MA1101591999999REMMET051METAR SBLP 091500Z 09004KT 9999 SCT030 32/20 Q1016;
0120832880999992009010916004-13267-043417FM-15+0443SBLP V0209999C000012200019N0112651N1+03201+01901999999ADDGA1041+009001999GF104991999999999999999999MA1101591999999REMMET051METAR SBLP 091600Z 00000KT 9999 SCT030 32/19 Q1016;
0120832880999992009010917004-13267-043417FM-15+0443SBLP V0203601N003112200019N0112651N1+03301+01901999999ADDGA1041+009001999GF104991999999999999999999MA1101491999999REMMET051METAR SBLP 091700Z 36006KT 9999 SCT030 33/19 Q1015;
0120832880999992009010918004-13267-043417FM-15+0443SBLP V0203601N003112200019N0112651N1+03401+01901999999ADDGA1041+009001999GF104991999999999999999999MA1101391999999REMMET051METAR SBLP 091800Z 36006KT 9999 SCT030 34/19 Q1014;
0120832880999992009010919004-13267-043417FM-15+0443SBLP V0209999C000012200019N0112651N1+03301+01901999999ADDGA1041+009001999GF104991999999999999999999MA1101291999999REMMET051METAR SBLP 091900Z 00000KT 9999 SCT030 33/19 Q1013;
0120832880999992009010920004-13267-043417FM-15+0443SBLP V0209999C000012200019N0112651N1+03301+01901999999ADDGA1041+009001999GF104991999999999999999999MA1101291999999REMMET051METAR SBLP 092000Z 00000KT 9999 SCT030 33/19 Q1013;
0120832880999992009010921004-13267-043417FM-15+0443SBLP V0209999C000012200019N0112651N1+03201+01901999999ADDGA1041+009001999GF104991999999999999999999MA1101291999999REMMET051METAR SBLP 092100Z 00000KT 9999 SCT030 32/19 Q1013;
0072832880999992009011010004-13267-043417FM-15+0443SBLP V0209999C00001220001CN0099001N1+02501+02001999999ADDMA1101691999999REMMET045METAR SBLP 101000Z 00000KT CAVOK 25/20 Q1017;
0072832880999992009011011004-13267-043417FM-15+0443SBLP V0201801N00311220001CN0099001N1+02701+02001999999ADDMA1101801999999REMMET045METAR SBLP 101100Z 18006KT CAVOK 27/20 Q1018;
0120832880999992009011012004-13267-043417FM-15+0443SBLP V0201801N003112200019N0112651N1+02801+02001999999ADDGA1021+009001999GF102991999999999999999999MA1101801999999REMMET051METAR SBLP 101200Z 18006KT 9999 FEW030 28/20 Q1018;
0120832880999992009011013004-13267-043417FM-15+0443SBLP V0201801N003112200019N0112651N1+03001+02001999999ADDGA1021+009001999GF102991999999999999999999MA1101801999999REMMET051METAR SBLP 101300Z 18006KT 9999 FEW030 30/20 Q1018;
0120832880999992009011014004-13267-043417FM-15+0443SBLP V0201801N003112200019N0112651N1+03101+01901999999ADDGA1041+009001999GF104991999999999999999999MA1101801999999REMMET051METAR SBLP 101400Z 18006KT 9999 SCT030 31/19 Q1018;
0120832880999992009011015004-13267-043417FM-15+0443SBLP V0200901N003112200019N0112651N1+03101+01901999999ADDGA1041+009001999GF104991999999999999999999MA1101691999999REMMET051METAR SBLP 101500Z 09006KT 9999 SCT030 31/19 Q1017;
0120832880999992009011016004-13267-043417FM-15+0443SBLP V0201401N003112200019N0112651N1+03201+02101999999ADDGA1041+009001999GF104991999999999999999999MA1101591999999REMMET051METAR SBLP 101600Z 14006KT 9999 SCT030 32/21 Q1016;
0120832880999992009011017004-13267-043417FM-15+0443SBLP V0201201N003112200019N0112651N1+03301+02001999999ADDGA1041+009001999GF104991999999999999999999MA1101591999999REMMET051METAR SBLP 101700Z 12006KT 9999 SCT030 33/20 Q1016;
0120832880999992009011018004-13267-043417FM-15+0443SBLP V0201801N002112200019N0112651N1+03201+02001999999ADDGA1041+009001999GF104991999999999999999999MA1101491999999REMMET051METAR SBLP 101800Z 18004KT 9999 SCT030 32/20 Q1015;
0120832880999992009011019004-13267-043417FM-15+0443SBLP V0201501N003112200019N0112651N1+03201+02001999999ADDGA1041+009001999GF104991999999999999999999MA1101391999999REMMET051METAR SBLP 101900Z 15006KT 9999 SCT030 32/20 Q1014;
0120832880999992009011020004-13267-043417FM-15+0443SBLP V0201801N004112200019N0112651N1+03001+02101999999ADDGA1041+009001999GF104991999999999999999999MA1101391999999REMMET051METAR SBLP 102000Z 18008KT 9999 SCT030 30/21 Q1014;
0120832880999992009011021004-13267-043417FM-15+0443SBLP V0201501N004112200019N0112651N1+03101+02001999999ADDGA1041+009001999GF104991999999999999999999MA1101391999999REMMET051METAR SBLP 102100Z 15008KT 9999 SCT030 31/20 Q1014;
0072832880999992009011109084-13267-043417FM-15+0443SBLP V0201801N00211220001CN0099001N1+02101+01801999999ADDMA1101591999999REMMET045METAR SBLP 110908Z 18004KT CAVOK 21/18 Q1016;
0072832880999992009011110004-13267-043417FM-15+0443SBLP V0201801N00411220001CN0099001N1+02301+01801999999ADDMA1101691999999REMMET045METAR SBLP 111000Z 18008KT CAVOK 23/18 Q1017;
0072832880999992009011111004-13267-043417FM-15+0443SBLP V0201501N00211220001CN0099001N1+02601+01901999999ADDMA1101801999999REMMET045METAR SBLP 111100Z 15004KT CAVOK 26/19 Q1018;
0120832880999992009011112004-13267-043417FM-15+0443SBLP V0200901N002112200019N0112651N1+02701+01901999999ADDGA1041+009001999GF104991999999999999999999MA1101801999999REMMET051METAR SBLP 111200Z 09004KT 9999 SCT030 27/19 Q1018;
0120832880999992009011113004-13267-043417FM-15+0443SBLP V0201701N003112200019N0112651N1+03001+02001999999ADDGA1041+009001999GF104991999999999999999999MA1101801999999REMMET051METAR SBLP 111300Z 17006KT 9999 SCT030 30/20 Q1018;
0120832880999992009011114004-13267-043417FM-15+0443SBLP V0201301N003112200019N0112651N1+03001+02101999999ADDGA1041+009001999GF104991999999999999999999MA1101801999999REMMET051METAR SBLP 111400Z 13006KT 9999 SCT030 30/21 Q1018;
0120832880999992009011115004-13267-043417FM-15+0443SBLP V0201401N003112200019N0112651N1+03101+02001999999ADDGA1041+009001999GF104991999999999999999999MA1101691999999REMMET051METAR SBLP 111500Z 14006KT 9999 SCT030 31/20 Q1017;
0120832880999992009011116004-13267-043417FM-15+0443SBLP V0201801N003112200019N0112651N1+03101+01901999999ADDGA1041+009001999GF104991999999999999999999MA1101591999999REMMET051METAR SBLP 111600Z 18006KT 9999 SCT030 31/19 Q1016;
0120832880999992009011117004-13267-043417FM-15+0443SBLP V0201801N003112200019N0112651N1+03201+01901999999ADDGA1041+009001999GF104991999999999999999999MA1101491999999REMMET051METAR SBLP 111700Z 18006KT 9999 SCT030 32/19 Q1015;
0120832880999992009011118004-13267-043417FM-15+0443SBLP V0201801N003112200019N0112651N1+03301+01901999999ADDGA1041+009001999GF104991999999999999999999MA1101391999999REMMET051METAR SBLP 111800Z 18006KT 9999 SCT030 33/19 Q1014;
0120832880999992009011119004-13267-043417FM-15+0443SBLP V0201801N003112200019N0112651N1+03301+01901999999ADDGA1041+009001999GF104991999999999999999999MA1101291999999REMMET051METAR SBLP 111900Z 18006KT 9999 SCT030 33/19 Q1013;
0120832880999992009011120004-13267-043417FM-15+0443SBLP V0201801N003112200019N0112651N1+03201+01901999999ADDGA1021+009001999GF102991999999999999999999MA1101291999999REMMET051METAR SBLP 112000Z 18006KT 9999 FEW030 32/19 Q1013;
0120832880999992009011121004-13267-043417FM-15+0443SBLP V0201801N003112200019N0112651N1+03201+01901999999ADDGA1021+009001999GF102991999999999999999999MA1101291999999REMMET051METAR SBLP 112100Z 18006KT 9999 FEW030 32/19 Q1013;
0072832880999992009011210004-13267-043417FM-15+0443SBLP V0209999C00001220001CN0099001N1+02601+02101999999ADDMA1101591999999REMMET045METAR SBLP 121000Z 00000KT CAVOK 26/21 Q1016;
0072832880999992009011211004-13267-043417FM-15+0443SBLP V0209999C00001220001CN0099001N1+02701+02101999999ADDMA1101691999999REMMET045METAR SBLP 121100Z 00000KT CAVOK 27/21 Q1017;
0120832880999992009011212004-13267-043417FM-15+0443SBLP V0201801N003112200019N0112651N1+02801+02101999999ADDGA1021+009001999GF102991999999999999999999MA1101691999999REMMET051METAR SBLP 121200Z 18006KT 9999 FEW030 28/21 Q1017;
0120832880999992009011213004-13267-043417FM-15+0443SBLP V0201801N003112200019N0112651N1+03001+02001999999ADDGA1021+009001999GF102991999999999999999999MA1101691999999REMMET051METAR SBLP 121300Z 18006KT 9999 FEW030 30/20 Q1017;
0120832880999992009011214004-13267-043417FM-15+0443SBLP V0201801N003112200019N0112651N1+03101+02001999999ADDGA1041+009001999GF104991999999999999999999MA1101591999999REMMET051METAR SBLP 121400Z 18006KT 9999 SCT030 31/20 Q1016;
0120832880999992009011215004-13267-043417FM-15+0443SBLP V0201801N003112200019N0112651N1+03201+02001999999ADDGA1041+009001999GF104991999999999999999999MA1101491999999REMMET051METAR SBLP 121500Z 18006KT 9999 SCT030 32/20 Q1015;
0120832880999992009011216004-13267-043417FM-15+0443SBLP V0201201N003112200019N0112651N1+03301+01801999999ADDGA1041+009001999GF104991999999999999999999MA1101391999999REMMET051METAR SBLP 121600Z 12006KT 9999 SCT030 33/18 Q1014;
0120832880999992009011217004-13267-043417FM-15+0443SBLP V0201901N004112200019N0112651N1+03301+02101999999ADDGA1041+009001999GF104991999999999999999999MA1101291999999REMMET051METAR SBLP 121700Z 19008KT 9999 SCT030 33/21 Q1013;
0169832880999992009011218004-13267-043417FM-15+0443SBLP V0201801N004112200019N0112651N1+03201+02101999999ADDGA1041+009001999GA2021+012001021GA3041+030001999GF104991999999999999999999MA1101291999999REMMET068METAR SBLP 121800Z 18008KT 9999 SCT030 FEW040TCU SCT100 32/21 Q1013;
0143832880999992009011219004-13267-043417FM-15+0443SBLP V0201901N003110300019N0112651N1+03101+02201999999ADDGA1041+009001999GA2071+030001999GF107991999999999999999999MA1101191999999REMMET058METAR SBLP 121900Z 19006KT 9999 SCT030 BKN100 31/22 Q1012;
0143832880999992009011220004-13267-043417FM-15+0443SBLP V0201901N002110300019N0112651N1+03101+02201999999ADDGA1021+009001999GA2071+030001999GF107991999999999999999999MA1101081999999REMMET058METAR SBLP 122000Z 19004KT 9999 FEW030 BKN100 31/22 Q1011;
0143832880999992009011221004-13267-043417FM-15+0443SBLP V0201801N002110300019N0112651N1+03001+02201999999ADDGA1021+009001999GA2071+030001999GF107991999999999999999999MA1101191999999REMMET058METAR SBLP 122100Z 18004KT 9999 FEW030 BKN100 30/22 Q1012;
0072832880999992009011310004-13267-043417FM-15+0443SBLP V0201701N00151220001CN0099001N1+02601+02001999999ADDMA1101391999999REMMET045METAR SBLP 131000Z 17003KT CAVOK 26/20 Q1014;
0072832880999992009011311004-13267-043417FM-15+0443SBLP V0201501N00151220001CN0099001N1+02701+02101999999ADDMA1101491999999REMMET045METAR SBLP 131100Z 15003KT CAVOK 27/21 Q1015;
0120832880999992009011312004-13267-043417FM-15+0443SBLP V0209999C000012200019N0112651N1+02901+02001999999ADDGA1021+009001999GF102991999999999999999999MA1101591999999REMMET051METAR SBLP 131200Z 00000KT 9999 FEW030 29/20 Q1016;
0120832880999992009011313004-13267-043417FM-15+0443SBLP V0201801N002112200019N0112651N1+03001+01901999999ADDGA1041+009001999GF104991999999999999999999MA1101591999999REMMET051METAR SBLP 131300Z 18004KT 9999 SCT030 30/19 Q1016;
0120832880999992009011314004-13267-043417FM-15+0443SBLP V0202101N003112200019N0112651N1+03201+02001999999ADDGA1041+009001999GF104991999999999999999999MA1101591999999REMMET051METAR SBLP 131400Z 21006KT 9999 SCT030 32/20 Q1016;
0120832880999992009011315004-13267-043417FM-15+0443SBLP V0201801N002112200019N0112651N1+03201+02001999999ADDGA1041+009001999GF104991999999999999999999MA1101491999999REMMET051METAR SBLP 131500Z 18004KT 9999 SCT030 32/20 Q1015;
0120832880999992009011316004-13267-043417FM-15+0443SBLP V0202101N003112200019N0112651N1+03201+02201999999ADDGA1041+009001999GF104991999999999999999999MA1101391999999REMMET051METAR SBLP 131600Z 21006KT 9999 SCT030 32/22 Q1014;
0130832880999992009011317004-13267-043417FM-15+0443SBLP V0202901N001512200019N0060001N1+02901+02301999999ADDGA1041+009001999GF104991999999999999999999MA1101391999999MW1611REMMET055METAR SBLP 131700Z 29003KT 6000 -RA SCT030 29/23 Q1014;
0182832880999992009011318004-13267-043417FM-15+0443SBLP V0201201N006210300019N0112651N1+02801+02301999999ADDGA1021+009001091GA2041+009001999GA3071+030001999GF107991999999999999999999MA1101291999999MW1171REMMET075METAR SBLP 131800Z 12012KT 9999 TS SCT030 FEW030CB BKN100 28/23 Q1013 RERA;
0143832880999992009011319004-13267-043417FM-15+0443SBLP V0201901N001510300019N0112651N1+02801+02101999999ADDGA1041+009001999GA2071+030001999GF107991999999999999999999MA1101191999999REMMET058METAR SBLP 131900Z 19003KT 9999 SCT030 BKN100 28/21 Q1012;
0120832880999992009011320004-13267-043417FM-15+0443SBLP V0202501N001512200019N0112651N1+03001+02201999999ADDGA1021+009001999GF102991999999999999999999MA1101191999999REMMET051METAR SBLP 132000Z 25003KT 9999 FEW030 30/22 Q1012;
0120832880999992009011321004-13267-043417FM-15+0443SBLP V0209999C000012200019N0112651N1+03001+02201999999ADDGA1021+009001999GF102991999999999999999999MA1101191999999REMMET051METAR SBLP 132100Z 00000KT 9999 FEW030 30/22 Q1012;
0072832880999992009011410004-13267-043417FM-15+0443SBLP V0209999C00001220001CN0099001N1+02501+02001999999ADDMA1101491999999REMMET045METAR SBLP 141000Z 00000KT CAVOK 25/20 Q1015;
0072832880999992009011411004-13267-043417FM-15+0443SBLP V0200901N00151220001CN0099001N1+02701+02001999999ADDMA1101491999999REMMET045METAR SBLP 141100Z 09003KT CAVOK 27/20 Q1015;
0072832880999992009011412004-13267-043417FM-15+0443SBLP V0201501N00311220001CN0099001N1+02901+02001999999ADDMA1101491999999REMMET045METAR SBLP 141200Z 15006KT CAVOK 29/20 Q1015;
0120832880999992009011413004-13267-043417FM-15+0443SBLP V0201601N003112200019N0112651N1+03001+02001999999ADDGA1021+009001999GF102991999999999999999999MA1101491999999REMMET051METAR SBLP 141300Z 16006KT 9999 FEW030 30/20 Q1015;
0120832880999992009011414004-13267-043417FM-15+0443SBLP V0201801N001512200019N0112651N1+03101+01901999999ADDGA1021+009001999GF102991999999999999999999MA1101491999999REMMET051METAR SBLP 141400Z 18003KT 9999 FEW030 31/19 Q1015;
0120832880999992009011415004-13267-043417FM-15+0443SBLP V0201601N004112200019N0112651N1+03201+02001999999ADDGA1021+009001999GF102991999999999999999999MA1101391999999REMMET051METAR SBLP 141500Z 16008KT 9999 FEW030 32/20 Q1014;
0120832880999992009011416004-13267-043417FM-15+0443SBLP V0201201N003112200019N0112651N1+03301+02001999999ADDGA1021+009001999GF102991999999999999999999MA1101291999999REMMET051METAR SBLP 141600Z 12006KT 9999 FEW030 33/20 Q1013;
0120832880999992009011417004-13267-043417FM-15+0443SBLP V0209999C000012200019N0112651N1+03301+02001999999ADDGA1021+009001999GF102991999999999999999999MA1101191999999REMMET051METAR SBLP 141700Z 00000KT 9999 FEW030 33/20 Q1012;
0120832880999992009011418004-13267-043417FM-15+0443SBLP V0202601N003112200019N0112651N1+03401+02001999999ADDGA1021+009001999GF102991999999999999999999MA1101191999999REMMET051METAR SBLP 141800Z 26006KT 9999 FEW030 34/20 Q1012;
0120832880999992009011419004-13267-043417FM-15+0443SBLP V0209999C000012200019N0112651N1+03401+02001999999ADDGA1021+009001999GF102991999999999999999999MA1101081999999REMMET051METAR SBLP 141900Z 00000KT 9999 FEW030 34/20 Q1011;
0120832880999992009011420004-13267-043417FM-15+0443SBLP V0209999C000012200019N0112651N1+03401+02001999999ADDGA1021+009001999GF102991999999999999999999MA1101081999999REMMET051METAR SBLP 142000Z 00000KT 9999 FEW030 34/20 Q1011;
0072832880999992009011421004-13267-043417FM-15+0443SBLP V0209999C00001220001CN0099001N1+03101+02101999999ADDMA1101081999999REMMET045METAR SBLP 142100Z 00000KT CAVOK 31/21 Q1011;
0072832880999992009011510004-13267-043417FM-15+0443SBLP V0209999C00001220001CN0099001N1+02501+02101999999ADDMA1101391999999REMMET045METAR SBLP 151000Z 00000KT CAVOK 25/21 Q1014;
0072832880999992009011511004-13267-043417FM-15+0443SBLP V0201201N00151220001CN0099001N1+02701+01901999999ADDMA1101491999999REMMET045METAR SBLP 151100Z 12003KT CAVOK 27/19 Q1015;
0072832880999992009011512004-13267-043417FM-15+0443SBLP V0200901N00211220001CN0099001N1+02901+01901999999ADDMA1101491999999REMMET045METAR SBLP 151200Z 09004KT CAVOK 29/19 Q1015;
0072832880999992009011513004-13267-043417FM-15+0443SBLP V0203601N00211220001CN0099001N1+03101+01901999999ADDMA1101491999999REMMET045METAR SBLP 151300Z 36004KT CAVOK 31/19 Q1015;
0072832880999992009011514004-13267-043417FM-15+0443SBLP V0209999C00001220001CN0099001N1+03101+02001999999ADDMA1101391999999REMMET045METAR SBLP 151400Z 00000KT CAVOK 31/20 Q1014;
0120832880999992009011515004-13267-043417FM-15+0443SBLP V0203301N002112200019N0112651N1+03201+02101999999ADDGA1021+009001999GF102991999999999999999999MA1101291999999REMMET051METAR SBLP 151500Z 33004KT 9999 FEW030 32/21 Q1013;
0120832880999992009011516004-13267-043417FM-15+0443SBLP V0203601N003112200019N0112651N1+03301+02001999999ADDGA1021+009001999GF102991999999999999999999MA1101191999999REMMET051METAR SBLP 151600Z 36006KT 9999 FEW030 33/20 Q1012;
0120832880999992009011517004-13267-043417FM-15+0443SBLP V0203601N003112200019N0112651N1+03401+01901999999ADDGA1041+009001999GF104991999999999999999999MA1101191999999REMMET051METAR SBLP 151700Z 36006KT 9999 SCT030 34/19 Q1012;
0120832880999992009011518004-13267-043417FM-15+0443SBLP V0203601N003112200019N0112651N1+03501+01801999999ADDGA1041+009001999GF104991999999999999999999MA1101081999999REMMET051METAR SBLP 151800Z 36006KT 9999 SCT030 35/18 Q1011;
0120832880999992009011519004-13267-043417FM-15+0443SBLP V0209999C000012200019N0112651N1+03401+01801999999ADDGA1021+009001999GF102991999999999999999999MA1101021999999REMMET051METAR SBLP 151900Z 00000KT 9999 FEW030 34/18 Q1010;
0120832880999992009011520004-13267-043417FM-15+0443SBLP V0209999C000012200019N0112651N1+03401+01901999999ADDGA1021+009001999GF102991999999999999999999MA1101021999999REMMET051METAR SBLP 152000Z 00000KT 9999 FEW030 34/19 Q1010;
0120832880999992009011521004-13267-043417FM-15+0443SBLP V0209999C000012200019N0112651N1+03301+01901999999ADDGA1021+009001999GF102991999999999999999999MA1101021999999REMMET051METAR SBLP 152100Z 00000KT 9999 FEW030 33/19 Q1010;
0072832880999992009011610004-13267-043417FM-15+0443SBLP V0209999C00001220001CN0099001N1+02501+02001999999ADDMA1101491999999REMMET045METAR SBLP 161000Z 00000KT CAVOK 25/20 Q1015;
0072832880999992009011611004-13267-043417FM-15+0443SBLP V0209999C00001220001CN0099001N1+02701+02001999999ADDMA1101591999999REMMET045METAR SBLP 161100Z 00000KT CAVOK 27/20 Q1016;
0120832880999992009011612004-13267-043417FM-15+0443SBLP V0203601N003112200019N0112651N1+02801+02001999999ADDGA1021+009001999GF102991999999999999999999MA1101591999999REMMET051METAR SBLP 161200Z 36006KT 9999 FEW030 28/20 Q1016;
0120832880999992009011613004-13267-043417FM-15+0443SBLP V0203601N003112200019N0112651N1+02901+02001999999ADDGA1021+009001999GF102991999999999999999999MA1101591999999REMMET051METAR SBLP 161300Z 36006KT 9999 FEW030 29/20 Q1016;
0120832880999992009011614004-13267-043417FM-15+0443SBLP V0203601N003112200019N0112651N1+03101+01901999999ADDGA1041+009001999GF104991999999999999999999MA1101491999999REMMET051METAR SBLP 161400Z 36006KT 9999 SCT030 31/19 Q1015;
0120832880999992009011615004-13267-043417FM-15+0443SBLP V0203601N003112200019N0112651N1+03201+01901999999ADDGA1041+009001999GF104991999999999999999999MA1101491999999REMMET051METAR SBLP 161500Z 36006KT 9999 SCT030 32/19 Q1015;
0120832880999992009011616004-13267-043417FM-15+0443SBLP V0200401N001512200019N0112651N1+03301+02001999999ADDGA1021+009001999GF102991999999999999999999MA1101391999999REMMET051METAR SBLP 161600Z 04003KT 9999 FEW030 33/20 Q1014;
0120832880999992009011617004-13267-043417FM-15+0443SBLP V0203301N001512200019N0112651N1+03301+01901999999ADDGA1021+009001999GF102991999999999999999999MA1101191999999REMMET051METAR SBLP 161700Z 33003KT 9999 FEW030 33/19 Q1012;
0120832880999992009011618004-13267-043417FM-15+0443SBLP V0203001N002612200019N0112651N1+03301+02101999999ADDGA1021+009001999GF102991999999999999999999MA1101191999999REMMET051METAR SBLP 161800Z 30005KT 9999 FEW030 33/21 Q1012;
0120832880999992009011619004-13267-043417FM-15+0443SBLP V0203601N002112200019N0112651N1+03401+01901999999ADDGA1021+009001999GF102991999999999999999999MA1101081999999REMMET051METAR SBLP 161900Z 36004KT 9999 FEW030 34/19 Q1011;
0120832880999992009011620004-13267-043417FM-15+0443SBLP V0200101N002112200019N0112651N1+03301+01901999999ADDGA1021+009001999GF102991999999999999999999MA1101081999999REMMET051METAR SBLP 162000Z 01004KT 9999 FEW030 33/19 Q1011;
0120832880999992009011621004-13267-043417FM-15+0443SBLP V0200901N002112200019N0112651N1+03201+02101999999ADDGA1021+009001999GF102991999999999999999999MA1101081999999REMMET051METAR SBLP 162100Z 09004KT 9999 FEW030 32/21 Q1011;
0072832880999992009011710004-13267-043417FM-15+0443SBLP V0201701N00151220001CN0099001N1+02501+02201999999ADDMA1101491999999REMMET045METAR SBLP 171000Z 17003KT CAVOK 25/22 Q1015;
0072832880999992009011711004-13267-043417FM-15+0443SBLP V0209999C00001220001CN0099001N1+02701+02201999999ADDMA1101591999999REMMET045METAR SBLP 171100Z 00000KT CAVOK 27/22 Q1016;
0072832880999992009011712004-13267-043417FM-15+0443SBLP V0202101N00151220001CN0099001N1+02901+02201999999ADDMA1101591999999REMMET045METAR SBLP 171200Z 21003KT CAVOK 29/22 Q1016;
0072832880999992009011713004-13267-043417FM-15+0443SBLP V0201501N00151220001CN0099001N1+03001+02101999999ADDMA1101591999999REMMET045METAR SBLP 171300Z 15003KT CAVOK 30/21 Q1016;
0120832880999992009011714004-13267-043417FM-15+0443SBLP V0202101N002112200019N0112651N1+03101+02001999999ADDGA1021+009001999GF102991999999999999999999MA1101591999999REMMET051METAR SBLP 171400Z 21004KT 9999 FEW030 31/20 Q1016;
0120832880999992009011715004-13267-043417FM-15+0443SBLP V0202401N001512200019N0112651N1+03101+02001999999ADDGA1021+009001999GF102991999999999999999999MA1101491999999REMMET051METAR SBLP 171500Z 24003KT 9999 FEW030 31/20 Q1015;
0143832880999992009011716004-13267-043417FM-15+0443SBLP V0209999C000010900019N0112651N1+03201+02101999999ADDGA1021+009001999GA2071+090001999GF107991999999999999999999MA1101391999999REMMET058METAR SBLP 171600Z 00000KT 9999 FEW030 BKN300 32/21 Q1014;
0143832880999992009011717004-13267-043417FM-15+0443SBLP V0209999C000010900019N0112651N1+03301+02101999999ADDGA1021+009001999GA2071+090001999GF107991999999999999999999MA1101291999999REMMET058METAR SBLP 171700Z 00000KT 9999 FEW030 BKN300 33/21 Q1013;
0143832880999992009011718004-13267-043417FM-15+0443SBLP V0202401N003110900019N0112651N1+03401+02101999999ADDGA1021+009001999GA2071+090001999GF107991999999999999999999MA1101191999999REMMET058METAR SBLP 171800Z 24006KT 9999 FEW030 BKN300 34/21 Q1012;
0143832880999992009011719004-13267-043417FM-15+0443SBLP V0201801N002112200019N0112651N1+03401+02101999999ADDGA1021+009001999GA2041+090001999GF104991999999999999999999MA1101191999999REMMET058METAR SBLP 171900Z 18004KT 9999 FEW030 SCT300 34/21 Q1012;
0143832880999992009011720004-13267-043417FM-15+0443SBLP V0209999C000012200019N0112651N1+03301+02101999999ADDGA1021+009001999GA2041+090001999GF104991999999999999999999MA1101191999999REMMET058METAR SBLP 172000Z 00000KT 9999 FEW030 SCT300 33/21 Q1012;
0143832880999992009011721004-13267-043417FM-15+0443SBLP V0209999C000012200019N0112651N1+03001+02201999999ADDGA1021+009001999GA2041+090001999GF104991999999999999999999MA1101291999999REMMET058METAR SBLP 172100Z 00000KT 9999 FEW030 SCT300 30/22 Q1013;
0072832880999992009011810004-13267-043417FM-15+0443SBLP V0209999C00001220001CN0099001N1+02401+02101999999ADDMA1101491999999REMMET045METAR SBLP 181000Z 00000KT CAVOK 24/21 Q1015;
0072832880999992009011811004-13267-043417FM-15+0443SBLP V0209999C00001220001CN0099001N1+02701+02101999999ADDMA1101491999999REMMET045METAR SBLP 181100Z 00000KT CAVOK 27/21 Q1015;
0072832880999992009011812004-13267-043417FM-15+0443SBLP V0209999C00001220001CN0099001N1+02901+02201999999ADDMA1101591999999REMMET045METAR SBLP 181200Z 00000KT CAVOK 29/22 Q1016;
0072832880999992009011813004-13267-043417FM-15+0443SBLP V0209999C00001220001CN0099001N1+02901+02201999999ADDMA1101591999999REMMET045METAR SBLP 181300Z 00000KT CAVOK 29/22 Q1016;
0143832880999992009011815004-13267-043417FM-15+0443SBLP V0202701N003112200019N0112651N1+03101+02101999999ADDGA1021+009001999GA2041+090001999GF104991999999999999999999MA1101491999999REMMET058METAR SBLP 181500Z 27006KT 9999 FEW030 SCT300 31/21 Q1015;
0120832880999992009011816004-13267-043417FM-15+0443SBLP V0202401N002112200019N0112651N1+03301+02101999999ADDGA1021+009001999GF102991999999999999999999MA1101391999999REMMET051METAR SBLP 181600Z 24004KT 9999 FEW030 33/21 Q1014;
0120832880999992009011817004-13267-043417FM-15+0443SBLP V0202101N003112200019N0112651N1+03401+02001999999ADDGA1021+009001999GF102991999999999999999999MA1101291999999REMMET051METAR SBLP 181700Z 21006KT 9999 FEW030 34/20 Q1013;
0120832880999992009011818004-13267-043417FM-15+0443SBLP V0202401N003112200019N0112651N1+03501+01901999999ADDGA1021+009001999GF102991999999999999999999MA1101081999999REMMET051METAR SBLP 181800Z 24006KT 9999 FEW030 35/19 Q1011;
0120832880999992009011819004-13267-043417FM-15+0443SBLP V0201201N002112200019N0112651N1+03301+02001999999ADDGA1041+009001999GF104991999999999999999999MA1101081999999REMMET051METAR SBLP 181900Z 12004KT 9999 SCT030 33/20 Q1011;
0120832880999992009011820004-13267-043417FM-15+0443SBLP V0200901N001512200019N0112651N1+03201+01601999999ADDGA1021+009001999GF102991999999999999999999MA1101081999999REMMET051METAR SBLP 182000Z 09003KT 9999 FEW030 32/16 Q1011;
0120832880999992009011821004-13267-043417FM-15+0443SBLP V0200901N002112200019N0112651N1+03001+02201999999ADDGA1021+009001999GF102991999999999999999999MA1101191999999REMMET051METAR SBLP 182100Z 09004KT 9999 FEW030 30/22 Q1012;
0072832880999992009011910004-13267-043417FM-15+0443SBLP V0209999C00001220001CN0099001N1+02401+02101999999ADDMA1101491999999REMMET045METAR SBLP 191000Z 00000KT CAVOK 24/21 Q1015;
0072832880999992009011911004-13267-043417FM-15+0443SBLP V0201801N00311220001CN0099001N1+02601+02101999999ADDMA1101591999999REMMET045METAR SBLP 191100Z 18006KT CAVOK 26/21 Q1016;
0072832880999992009011912004-13267-043417FM-15+0443SBLP V0209999C00001220001CN0099001N1+02801+02001999999ADDMA1101591999999REMMET045METAR SBLP 191200Z 00000KT CAVOK 28/20 Q1016;
0072832880999992009011913004-13267-043417FM-15+0443SBLP V0201201N00211220001CN0099001N1+02901+02001999999ADDMA1101591999999REMMET045METAR SBLP 191300Z 12004KT CAVOK 29/20 Q1016;
0120832880999992009011914004-13267-043417FM-15+0443SBLP V0201801N002112200019N0112651N1+03001+02001999999ADDGA1021+009001999GF102991999999999999999999MA1101491999999REMMET051METAR SBLP 191400Z 18004KT 9999 FEW030 30/20 Q1015;
0143832880999992009011915004-13267-043417FM-15+0443SBLP V0209999C000010900019N0112651N1+03101+02001999999ADDGA1021+009001999GA2071+090001999GF107991999999999999999999MA1101391999999REMMET058METAR SBLP 191500Z 00000KT 9999 FEW030 BKN300 31/20 Q1014;
0120832880999992009011916004-13267-043417FM-15+0443SBLP V0209999C000012200019N0112651N1+03201+01901999999ADDGA1021+009001999GF102991999999999999999999MA1101291999999REMMET051METAR SBLP 191600Z 00000KT 9999 FEW030 32/19 Q1013;
0120832880999992009011917004-13267-043417FM-15+0443SBLP V0209999C000012200019N0112651N1+03301+01901999999ADDGA1021+009001999GF102991999999999999999999MA1101191999999REMMET051METAR SBLP 191700Z 00000KT 9999 FEW030 33/19 Q1012;
0120832880999992009011918004-13267-043417FM-15+0443SBLP V0209999C000012200019N0112651N1+03301+01901999999ADDGA1021+009001999GF102991999999999999999999MA1101081999999REMMET051METAR SBLP 191800Z 00000KT 9999 FEW030 33/19 Q1011;
0120832880999992009011919004-13267-043417FM-15+0443SBLP V0209999C000012200019N0112651N1+03401+01901999999ADDGA1041+009001999GF104991999999999999999999MA1101021999999REMMET051METAR SBLP 191900Z 00000KT 9999 SCT030 34/19 Q1010;
0120832880999992009011920004-13267-043417FM-15+0443SBLP V0209999C000012200019N0112651N1+03301+01901999999ADDGA1041+009001999GF104991999999999999999999MA1101021999999REMMET051METAR SBLP 192000Z 00000KT 9999 SCT030 33/19 Q1010;
0120832880999992009011921004-13267-043417FM-15+0443SBLP V0209999C000012200019N0112651N1+03201+01901999999ADDGA1041+009001999GF104991999999999999999999MA1101081999999REMMET051METAR SBLP 192100Z 00000KT 9999 SCT030 32/19 Q1011;
0072832880999992009012010004-13267-043417FM-15+0443SBLP V0209999C00001220001CN0099001N1+02501+02201999999ADDMA1101291999999REMMET045METAR SBLP 201000Z 00000KT CAVOK 25/22 Q1013;
0072832880999992009012011004-13267-043417FM-15+0443SBLP V0203601N00211220001CN0099001N1+02601+02201999999ADDMA1101291999999REMMET045METAR SBLP 201100Z 36004KT CAVOK 26/22 Q1013;
0072832880999992009012012004-13267-043417FM-15+0443SBLP V0209999C00001220001CN0099001N1+02801+02101999999ADDMA1101391999999REMMET045METAR SBLP 201200Z 00000KT CAVOK 28/21 Q1014;
0143832880999992009012013004-13267-043417FM-15+0443SBLP V0203601N002112200019N0112651N1+03001+02001999999ADDGA1021+009001999GA2041+030001999GF104991999999999999999999MA1101391999999REMMET058METAR SBLP 201300Z 36004KT 9999 FEW030 SCT100 30/20 Q1014;
0143832880999992009012014004-13267-043417FM-15+0443SBLP V0203601N003112200019N0112651N1+03001+02001999999ADDGA1021+009001999GA2041+030001999GF104991999999999999999999MA1101291999999REMMET058METAR SBLP 201400Z 36006KT 9999 FEW030 SCT100 30/20 Q1013;
0143832880999992009012015004-13267-043417FM-15+0443SBLP V0209999C000012200019N0112651N1+03001+02001999999ADDGA1021+009001999GA2041+030001999GF104991999999999999999999MA1101291999999REMMET058METAR SBLP 201500Z 00000KT 9999 FEW030 SCT100 30/20 Q1013;
0143832880999992009012016004-13267-043417FM-15+0443SBLP V0203601N003112200019N0112651N1+03301+01901999999ADDGA1041+009001999GA2041+030001999GF104991999999999999999999MA1101191999999REMMET058METAR SBLP 201600Z 36006KT 9999 SCT030 SCT100 33/19 Q1012;
0120832880999992009012017004-13267-043417FM-15+0443SBLP V0203601N003112200019N0112651N1+03301+01901999999ADDGA1041+009001999GF104991999999999999999999MA1101021999999REMMET051METAR SBLP 201700Z 36006KT 9999 SCT030 33/19 Q1010;
0120832880999992009012018004-13267-043417FM-15+0443SBLP V0203601N003112200019N0112651N1+03501+01901999999ADDGA1041+009001999GF104991999999999999999999MA1101021999999REMMET051METAR SBLP 201800Z 36006KT 9999 SCT030 35/19 Q1010;
0120832880999992009012019004-13267-043417FM-15+0443SBLP V0203601N003112200019N0112651N1+03401+01901999999ADDGA1041+009001999GF104991999999999999999999MA1100911999999REMMET051METAR SBLP 201900Z 36006KT 9999 SCT030 34/19 Q1009;
0120832880999992009012020004-13267-043417FM-15+0443SBLP V0209999C000012200019N0112651N1+03301+01901999999ADDGA1041+009001999GF104991999999999999999999MA1100911999999REMMET051METAR SBLP 202000Z 00000KT 9999 SCT030 33/19 Q1009;
0120832880999992009012021004-13267-043417FM-15+0443SBLP V0209999C000012200019N0112651N1+03301+01901999999ADDGA1041+009001999GF104991999999999999999999MA1100911999999REMMET051METAR SBLP 202100Z 00000KT 9999 SCT030 33/19 Q1009;
0143832880999992009012110004-13267-043417FM-15+0443SBLP V0209999C000010300019N0112651N1+02401+02101999999ADDGA1041+003001999GA2071+030001999GF107991999999999999999999MA1101491999999REMMET058METAR SBLP 211000Z 00000KT 9999 SCT010 BKN100 24/21 Q1015;
0143832880999992009012111004-13267-043417FM-15+0443SBLP V0209999C000010300019N0112651N1+02401+02101999999ADDGA1041+003001999GA2071+030001999GF107991999999999999999999MA1101491999999REMMET058METAR SBLP 211100Z 00000KT 9999 SCT010 BKN100 24/21 Q1015;
0143832880999992009012112004-13267-043417FM-15+0443SBLP V0209999C000010300019N0112651N1+02501+02101999999ADDGA1041+003001999GA2071+030001999GF107991999999999999999999MA1101591999999REMMET058METAR SBLP 211200Z 00000KT 9999 SCT010 BKN100 25/21 Q1016;
0143832880999992009012113004-13267-043417FM-15+0443SBLP V0209999C000010300019N0112651N1+02601+02101999999ADDGA1041+003001999GA2071+030001999GF107991999999999999999999MA1101591999999REMMET058METAR SBLP 211300Z 00000KT 9999 SCT010 BKN100 26/21 Q1016;
0143832880999992009012114004-13267-043417FM-15+0443SBLP V0209999C000010300019N0112651N1+02801+02101999999ADDGA1041+004501999GA2071+030001999GF107991999999999999999999MA1101591999999REMMET058METAR SBLP 211400Z 00000KT 9999 SCT015 BKN100 28/21 Q1016;
0143832880999992009012115004-13267-043417FM-15+0443SBLP V0209999C000010300019N0112651N1+02801+02101999999ADDGA1021+006001999GA2071+030001999GF107991999999999999999999MA1101491999999REMMET058METAR SBLP 211500Z 00000KT 9999 FEW020 BKN100 28/21 Q1015;
0143832880999992009012116004-13267-043417FM-15+0443SBLP V0209999C000010300019N0112651N1+02801+02201999999ADDGA1021+006001999GA2071+030001999GF107991999999999999999999MA1101391999999REMMET058METAR SBLP 211600Z 00000KT 9999 FEW020 BKN100 28/22 Q1014;
0143832880999992009012117004-13267-043417FM-15+0443SBLP V0200601N001510300019N0112651N1+03001+02201999999ADDGA1021+006001999GA2071+030001999GF107991999999999999999999MA1101291999999REMMET058METAR SBLP 211700Z 06003KT 9999 FEW020 BKN100 30/22 Q1013;
0143832880999992009012118004-13267-043417FM-15+0443SBLP V0209999C000010300019N0112651N1+03101+02201999999ADDGA1021+009001999GA2071+030001999GF107991999999999999999999MA1101191999999REMMET058METAR SBLP 211800Z 00000KT 9999 FEW030 BKN100 31/22 Q1012;
0168832880999992009012119004-13267-043417FM-15+0443SBLP V0203301N00511012001CN0112651N1+03101+02201999999ADDGA1041+008101999GA2021+012001091GA3071+030001999GF107991999999999999999999MA1101191999999REMMET067METAR SBLP 211900Z 33010KT 9999 SCT027 FEW040CB BKN100 31/22 Q1012;
0168832880999992009012120004-13267-043417FM-15+0443SBLP V0202401N003110300019N0112651N1+02601+02001999999ADDGA1021+009001999GA2021+012001091GA3071+030001999GF107991999999999999999999MA1101191999999REMMET067METAR SBLP 212000Z 24006KT 9999 FEW030 FEW040CB BKN100 26/20 Q1012;
0143832880999992009012121004-13267-043417FM-15+0443SBLP V0203401N002112200019N0112651N1+02601+02101999999ADDGA1021+009001999GA2041+030001999GF104991999999999999999999MA1101191999999REMMET058METAR SBLP 212100Z 34004KT 9999 FEW030 SCT100 26/21 Q1012;
0143832880999992009012210004-13267-043417FM-15+0443SBLP V0203601N001512200019N0112651N1+02401+02101999999ADDGA1021+006901999GA2041+030001999GF104991999999999999999999MA1101491999999REMMET058METAR SBLP 221000Z 36003KT 9999 FEW023 SCT100 24/21 Q1015;
0143832880999992009012211004-13267-043417FM-15+0443SBLP V0203301N001512200019N0112651N1+02501+02201999999ADDGA1041+006901999GA2041+030001999GF104991999999999999999999MA1101491999999REMMET058METAR SBLP 221100Z 33003KT 9999 SCT023 SCT100 25/22 Q1015;
0143832880999992009012212004-13267-043417FM-15+0443SBLP V0203101N002112200019N0112651N1+02701+02201999999ADDGA1041+008101999GA2041+030001999GF104991999999999999999999MA1101591999999REMMET058METAR SBLP 221200Z 31004KT 9999 SCT027 SCT100 27/22 Q1016;
0143832880999992009012213004-13267-043417FM-15+0443SBLP V0203001N001512200019N0112651N1+02801+02201999999ADDGA1041+008101999GA2041+030001999GF104991999999999999999999MA1101591999999REMMET058METAR SBLP 221300Z 30003KT 9999 SCT027 SCT100 28/22 Q1016;
0136832880999992009012214004-13267-043417FM-15+0443SBLP V0203501N00311220001CN0112651N1+02901+02301999999ADDGA1071+008101999GA2041+030001999MA1101491999999REMMET058METAR SBLP 221400Z 35006KT 9999 BKN027 SCT100 29/23 Q1015;EQDQ01+000042SCOTCV
0136832880999992009012215004-13267-043417FM-15+0443SBLP V0202801N00151220001CN0112651N1+03001+02201999999ADDGA1071+008101999GA2041+030001999MA1101491999999REMMET058METAR SBLP 221500Z 28003KT 9999 BKN027 SCT100 30/22 Q1015;EQDQ01+000042SCOTCV
0143832880999992009012216004-13267-043417FM-15+0443SBLP V0200401N003110081019N0112651N1+02901+02301999999ADDGA1071+008101999GA2071+030001999GF107991999999999999999999MA1101391999999REMMET058METAR SBLP 221600Z 04006KT 9999 BKN027 BKN100 29/23 Q1014;
0143832880999992009012217004-13267-043417FM-15+0443SBLP V0200901N003110300019N0112651N1+02501+02401999999ADDGA1041+009001999GA2071+030001999GF107991999999999999999999MA1101291999999REMMET058METAR SBLP 221700Z 09006KT 9999 SCT030 BKN100 25/24 Q1013;
0143832880999992009012218004-13267-043417FM-15+0443SBLP V0200901N003110300019N0112651N1+02501+02401999999ADDGA1041+009001999GA2071+030001999GF107991999999999999999999MA1101291999999REMMET058METAR SBLP 221800Z 09006KT 9999 SCT030 BKN100 25/24 Q1013;
0143832880999992009012219004-13267-043417FM-15+0443SBLP V0209999C000010300019N0112651N1+02901+02101999999ADDGA1021+009001999GA2071+030001999GF107991999999999999999999MA1101191999999REMMET058METAR SBLP 221900Z 00000KT 9999 FEW030 BKN100 29/21 Q1012;
0143832880999992009012220004-13267-043417FM-15+0443SBLP V0209999C000010300019N0112651N1+02901+02201999999ADDGA1021+009001999GA2071+030001999GF107991999999999999999999MA1101191999999REMMET058METAR SBLP 222000Z 00000KT 9999 FEW030 BKN100 29/22 Q1012;
0143832880999992009012221004-13267-043417FM-15+0443SBLP V0209999C000012200019N0112651N1+02701+02301999999ADDGA1021+009001999GA2041+030001999GF104991999999999999999999MA1101191999999REMMET058METAR SBLP 222100Z 00000KT 9999 FEW030 SCT100 27/23 Q1012;
0143832880999992009012310004-13267-043417FM-15+0443SBLP V0209999C000010300019N0112651N1+02301+02201999999ADDGA1021+006001999GA2071+030001999GF107991999999999999999999MA1101491999999REMMET058METAR SBLP 231000Z 00000KT 9999 FEW020 BKN100 23/22 Q1015;
0143832880999992009012311004-13267-043417FM-15+0443SBLP V0209999C000010300019N0112651N1+02601+02201999999ADDGA1021+006001999GA2071+030001999GF107991999999999999999999MA1101491999999REMMET058METAR SBLP 231100Z 00000KT 9999 FEW020 BKN100 26/22 Q1015;
0143832880999992009012312004-13267-043417FM-15+0443SBLP V0209999C000010300019N0112651N1+02701+02101999999ADDGA1021+006001999GA2071+030001999GF107991999999999999999999MA1101591999999REMMET058METAR SBLP 231200Z 00000KT 9999 FEW020 BKN100 27/21 Q1016;
0143832880999992009012313004-13267-043417FM-15+0443SBLP V0209999C000010300019N0112651N1+02901+02101999999ADDGA1021+006001999GA2071+030001999GF107991999999999999999999MA1101591999999REMMET058METAR SBLP 231300Z 00000KT 9999 FEW020 BKN100 29/21 Q1016;
0143832880999992009012314004-13267-043417FM-15+0443SBLP V0209999C000012200019N0112651N1+02901+02201999999ADDGA1021+009001999GA2041+030001999GF104991999999999999999999MA1101491999999REMMET058METAR SBLP 231400Z 00000KT 9999 FEW030 SCT100 29/22 Q1015;
0143832880999992009012315004-13267-043417FM-15+0443SBLP V0209999C000012200019N0112651N1+03001+02201999999ADDGA1021+009001999GA2041+030001999GF104991999999999999999999MA1101491999999REMMET058METAR SBLP 231500Z 00000KT 9999 FEW030 SCT100 30/22 Q1015;
0143832880999992009012316004-13267-043417FM-15+0443SBLP V0200201N002610300019N0112651N1+03101+02101999999ADDGA1021+009001999GA2071+030001999GF107991999999999999999999MA1101391999999REMMET058METAR SBLP 231600Z 02005KT 9999 FEW030 BKN100 31/21 Q1014;
0143832880999992009012317004-13267-043417FM-15+0443SBLP V0200301N001510300019N0112651N1+03101+02101999999ADDGA1021+009001999GA2071+030001999GF107991999999999999999999MA1101291999999REMMET058METAR SBLP 231700Z 03003KT 9999 FEW030 BKN100 31/21 Q1013;
0143832880999992009012318004-13267-043417FM-15+0443SBLP V0202401N002112200019N0112651N1+03201+02201999999ADDGA1041+009001999GA2041+030001999GF104991999999999999999999MA1101291999999REMMET058METAR SBLP 231800Z 24004KT 9999 SCT030 SCT100 32/22 Q1013;
0143832880999992009012319004-13267-043417FM-15+0443SBLP V0201901N004112200019N0112651N1+03201+02201999999ADDGA1021+009001999GA2041+030001999GF104991999999999999999999MA1101191999999REMMET058METAR SBLP 231900Z 19008KT 9999 FEW030 SCT100 32/22 Q1012;
0168832880999992009012320004-13267-043417FM-15+0443SBLP V0201801N004112200019N0112651N1+03001+02201999999ADDGA1021+009001999GA2021+012001091GA3041+030001999GF104991999999999999999999MA1101191999999REMMET067METAR SBLP 232000Z 18008KT 9999 FEW030 FEW040CB SCT100 30/22 Q1012;
0168832880999992009012321004-13267-043417FM-15+0443SBLP V0201801N003110300019N0112651N1+02801+02201999999ADDGA1021+009001999GA2021+012001091GA3071+030001999GF107991999999999999999999MA1101191999999REMMET067METAR SBLP 232100Z 18006KT 9999 FEW030 FEW040CB BKN100 28/22 Q1012;
0143832880999992009012410004-13267-043417FM-15+0443SBLP V0200601N001512200019N0112651N1+02301+02201999999ADDGA1041+006001999GA2041+030001999GF104991999999999999999999MA1101391999999REMMET058METAR SBLP 241000Z 06003KT 9999 SCT020 SCT100 23/22 Q1014;
0143832880999992009012411004-13267-043417FM-15+0443SBLP V0201201N001512200019N0112651N1+02401+02201999999ADDGA1041+005101999GA2041+030001999GF104991999999999999999999MA1101391999999REMMET058METAR SBLP 241100Z 12003KT 9999 SCT017 SCT100 24/22 Q1014;
0120832880999992009012412004-13267-043417FM-15+0443SBLP V0201401N002112200019N0112651N1+02801+02101999999ADDGA1041+008101999GF104991999999999999999999MA1101391999999REMMET051METAR SBLP 241200Z 14004KT 9999 SCT027 28/21 Q1014;
0120832880999992009012413004-13267-043417FM-15+0443SBLP V0209999C000010081019N0112651N1+03101+02101999999ADDGA1071+008101999GF107991999999999999999999MA1101391999999REMMET051METAR SBLP 241300Z 00000KT 9999 BKN027 31/21 Q1014;
0120832880999992009012414004-13267-043417FM-15+0443SBLP V0201301N002110081019N0112651N1+03001+02101999999ADDGA1071+008101999GF107991999999999999999999MA1101391999999REMMET051METAR SBLP 241400Z 13004KT 9999 BKN027 30/21 Q1014;
0120832880999992009012415004-13267-043417FM-15+0443SBLP V0202401N002610090019N0112651N1+03001+02201999999ADDGA1071+009001999GF107991999999999999999999MA1101291999999REMMET051METAR SBLP 241500Z 24005KT 9999 BKN030 30/22 Q1013;
0120832880999992009012416004-13267-043417FM-15+0443SBLP V0201801N003110090019N0112651N1+03201+02001999999ADDGA1071+009001999GF107991999999999999999999MA1101191999999REMMET051METAR SBLP 241600Z 18006KT 9999 BKN030 32/20 Q1012;
0120832880999992009012417004-13267-043417FM-15+0443SBLP V0201801N003110090019N0112651N1+03301+01901999999ADDGA1071+009001999GF107991999999999999999999MA1101081999999REMMET051METAR SBLP 241700Z 18006KT 9999 BKN030 33/19 Q1011;
0120832880999992009012418004-13267-043417FM-15+0443SBLP V0200901N003110090019N0112651N1+03401+01901999999ADDGA1071+009001999GF107991999999999999999999MA1101021999999REMMET051METAR SBLP 241800Z 09006KT 9999 BKN030 34/19 Q1010;
0143832880999992009012419004-13267-043417FM-15+0443SBLP V0209999C000012200019N0112651N1+03201+02001999999ADDGA1041+009001999GA2041+030001999GF104991999999999999999999MA1100911999999REMMET058METAR SBLP 241900Z 00000KT 9999 SCT030 SCT100 32/20 Q1009;
0143832880999992009012420004-13267-043417FM-15+0443SBLP V0209999C000012200019N0112651N1+03101+02001999999ADDGA1041+009001999GA2041+030001999GF104991999999999999999999MA1100911999999REMMET058METAR SBLP 242000Z 00000KT 9999 SCT030 SCT100 31/20 Q1009;
0143832880999992009012421004-13267-043417FM-15+0443SBLP V0209999C000012200019N0112651N1+03101+02001999999ADDGA1021+009001999GA2041+030001999GF104991999999999999999999MA1100911999999REMMET058METAR SBLP 242100Z 00000KT 9999 FEW030 SCT100 31/20 Q1009;
0143832880999992009012510004-13267-043417FM-15+0443SBLP V0209999C000010300019N0112651N1+02501+02101999999ADDGA1021+004501999GA2071+030001999GF107991999999999999999999MA1101191999999REMMET058METAR SBLP 251000Z 00000KT 9999 FEW015 BKN100 25/21 Q1012;
0143832880999992009012511004-13267-043417FM-15+0443SBLP V0209999C000012200019N0112651N1+02701+02001999999ADDGA1021+006001999GA2041+030001999GF104991999999999999999999MA1101291999999REMMET058METAR SBLP 251100Z 00000KT 9999 FEW020 SCT100 27/20 Q1013;
0143832880999992009012512004-13267-043417FM-15+0443SBLP V0209999C000012200019N0112651N1+02801+02001999999ADDGA1021+006001999GA2041+030001999GF104991999999999999999999MA1101391999999REMMET058METAR SBLP 251200Z 00000KT 9999 FEW020 SCT100 28/20 Q1014;
0143832880999992009012513004-13267-043417FM-15+0443SBLP V0209999C000012200019N0112651N1+03001+02001999999ADDGA1021+006001999GA2041+030001999GF104991999999999999999999MA1101391999999REMMET058METAR SBLP 251300Z 00000KT 9999 FEW020 SCT100 30/20 Q1014;
0120832880999992009012514004-13267-043417FM-15+0443SBLP V0209999C000012200019N0112651N1+03101+02001999999ADDGA1041+006001999GF104991999999999999999999MA1101291999999REMMET051METAR SBLP 251400Z 00000KT 9999 SCT020 31/20 Q1013;
0120832880999992009012515004-13267-043417FM-15+0443SBLP V0209999C000012200019N0112651N1+03101+02001999999ADDGA1041+009001999GF104991999999999999999999MA1101191999999REMMET051METAR SBLP 251500Z 00000KT 9999 SCT030 31/20 Q1012;
0143832880999992009012516004-13267-043417FM-15+0443SBLP V0201801N002112200019N0112651N1+03201+02001999999ADDGA1041+008101999GA2041+030001999GF104991999999999999999999MA1101081999999REMMET058METAR SBLP 251600Z 18004KT 9999 SCT027 SCT100 32/20 Q1011;
0143832880999992009012517004-13267-043417FM-15+0443SBLP V0209999C000010300019N0112651N1+02801+02201999999ADDGA1041+009001999GA2071+030001999GF107991999999999999999999MA1101081999999REMMET058METAR SBLP 251700Z 00000KT 9999 SCT030 BKN100 28/22 Q1011;
0143832880999992009012518004-13267-043417FM-15+0443SBLP V0201801N003110300019N0112651N1+02801+02201999999ADDGA1041+009001999GA2071+030001999GF107991999999999999999999MA1101021999999REMMET058METAR SBLP 251800Z 18006KT 9999 SCT030 BKN100 28/22 Q1010;
0143832880999992009012519004-13267-043417FM-15+0443SBLP V0201801N003110300019N0112651N1+02901+02201999999ADDGA1041+009001999GA2071+030001999GF107991999999999999999999MA1100911999999REMMET058METAR SBLP 251900Z 18006KT 9999 SCT030 BKN100 29/22 Q1009;
0143832880999992009012520004-13267-043417FM-15+0443SBLP V0209999C000010300019N0112651N1+02901+02101999999ADDGA1041+009001999GA2071+030001999GF107991999999999999999999MA1100911999999REMMET058METAR SBLP 252000Z 00000KT 9999 SCT030 BKN100 29/21 Q1009;
0143832880999992009012521004-13267-043417FM-15+0443SBLP V0209999C000012200019N0112651N1+02901+02101999999ADDGA1021+009001999GA2041+030001999GF104991999999999999999999MA1101081999999REMMET058METAR SBLP 252100Z 00000KT 9999 FEW030 SCT100 29/21 Q1011;
0143832880999992009012610004-13267-043417FM-15+0443SBLP V0209999C000012200019N0112651N1+02401+02101999999ADDGA1041+004501999GA2041+030001999GF104991999999999999999999MA1101491999999REMMET058METAR SBLP 261000Z 00000KT 9999 SCT015 SCT100 24/21 Q1015;
0120832880999992009012611004-13267-043417FM-15+0443SBLP V0209999C000012200019N0112651N1+02401+02101999999ADDGA1041+004501999GF104991999999999999999999MA1101491999999REMMET051METAR SBLP 261100Z 00000KT 9999 SCT015 24/21 Q1015;
0120832880999992009012612004-13267-043417FM-15+0443SBLP V0209999C000012200019N0112651N1+02601+02101999999ADDGA1041+006001999GF104991999999999999999999MA1101491999999REMMET051METAR SBLP 261200Z 00000KT 9999 SCT020 26/21 Q1015;
0120832880999992009012613004-13267-043417FM-15+0443SBLP V0209999C000012200019N0112651N1+02701+02101999999ADDGA1021+006001999GF102991999999999999999999MA1101591999999REMMET051METAR SBLP 261300Z 00000KT 9999 FEW020 27/21 Q1016;
0120832880999992009012614004-13267-043417FM-15+0443SBLP V0209999C000012200019N0112651N1+02901+02101999999ADDGA1041+006001999GF104991999999999999999999MA1101491999999REMMET051METAR SBLP 261400Z 00000KT 9999 SCT020 29/21 Q1015;
0120832880999992009012615004-13267-043417FM-15+0443SBLP V0201801N003112200019N0112651N1+03001+02101999999ADDGA1041+009001999GF104991999999999999999999MA1101391999999REMMET051METAR SBLP 261500Z 18006KT 9999 SCT030 30/21 Q1014;
0120832880999992009012616004-13267-043417FM-15+0443SBLP V0200401N001512200019N0112651N1+03201+02001999999ADDGA1041+009001999GF104991999999999999999999MA1101291999999REMMET051METAR SBLP 261600Z 04003KT 9999 SCT030 32/20 Q1013;
0120832880999992009012617004-13267-043417FM-15+0443SBLP V0203301N002610090019N0112651N1+03301+02001999999ADDGA1071+009001999GF107991999999999999999999MA1101191999999REMMET051METAR SBLP 261700Z 33005KT 9999 BKN030 33/20 Q1012;
0120832880999992009012618004-13267-043417FM-15+0443SBLP V0209999C000010090019N0112651N1+03301+02001999999ADDGA1071+009001999GF107991999999999999999999MA1101081999999REMMET051METAR SBLP 261800Z 00000KT 9999 BKN030 33/20 Q1011;
0120832880999992009012619004-13267-043417FM-15+0443SBLP V0202701N001512200019N0112651N1+03301+02001999999ADDGA1041+009001999GF104991999999999999999999MA1101021999999REMMET051METAR SBLP 261900Z 27003KT 9999 SCT030 33/20 Q1010;
0120832880999992009012620004-13267-043417FM-15+0443SBLP V0209999C000012200019N0112651N1+03301+02001999999ADDGA1041+009001999GF104991999999999999999999MA1101021999999REMMET051METAR SBLP 262000Z 00000KT 9999 SCT030 33/20 Q1010;
0120832880999992009012621004-13267-043417FM-15+0443SBLP V0202101N001512200019N0112651N1+03201+02101999999ADDGA1021+009001999GF102991999999999999999999MA1101081999999REMMET051METAR SBLP 262100Z 21003KT 9999 FEW030 32/21 Q1011;
0120832880999992009012710004-13267-043417FM-15+0443SBLP V0209999C000010060019N0112651N1+02501+02301999999ADDGA1071+006001999GF107991999999999999999999MA1101591999999REMMET051METAR SBLP 271000Z 00000KT 9999 BKN020 25/23 Q1016;
0120832880999992009012711004-13267-043417FM-15+0443SBLP V0202701N002110045019N0112651N1+02601+02401999999ADDGA1071+004501999GF107991999999999999999999MA1101591999999REMMET051METAR SBLP 271100Z 27004KT 9999 BKN015 26/24 Q1016;
0139832880999992009012712004-13267-043417FM-15+0443SBLP V0209999C000012200019N0112651N1+02801+02301999999ADDGA1041+006901999GA2021+009001021MA1101691999999REMMET061METAR SBLP 271200Z 00000KT 9999 SCT023 FEW030TCU 28/23 Q1017;EQDQ01+000022SCOTCV
0120832880999992009012713004-13267-043417FM-15+0443SBLP V0203401N001510069019N0112651N1+02901+02301999999ADDGA1071+006901999GF107991999999999999999999MA1101691999999REMMET051METAR SBLP 271300Z 34003KT 9999 BKN023 29/23 Q1017;
0169832880999992009012714004-13267-043417FM-15+0443SBLP V0201801N001512200019N0112651N1+03001+02201999999ADDGA1041+006901999GA2021+009001021GA3041+030001999GF104991999999999999999999MA1101591999999REMMET068METAR SBLP 271400Z 18003KT 9999 SCT023 FEW030TCU SCT100 30/22 Q1016;
0136832880999992009012715004-13267-043417FM-15+0443SBLP V0209999C00001220001CN0112651N1+03201+02101999999ADDGA1071+008101999GA2041+030001999MA1101591999999REMMET058METAR SBLP 271500Z 00000KT 9999 BKN027 SCT100 32/21 Q1016;EQDQ01+000042SCOTCV
0143832880999992009012716004-13267-043417FM-15+0443SBLP V0209999C000012200019N0112651N1+03201+02101999999ADDGA1041+009001999GA2041+030001999GF104991999999999999999999MA1101491999999REMMET058METAR SBLP 271600Z 00000KT 9999 SCT030 SCT100 32/21 Q1015;
0143832880999992009012717004-13267-043417FM-15+0443SBLP V0209999C000012200019N0112651N1+03201+02101999999ADDGA1021+009001999GA2041+030001999GF104991999999999999999999MA1101391999999REMMET058METAR SBLP 271700Z 00000KT 9999 FEW030 SCT100 32/21 Q1014;
0143832880999992009012718004-13267-043417FM-15+0443SBLP V0209999C000012200019N0112651N1+03301+02101999999ADDGA1021+009001999GA2041+030001999GF104991999999999999999999MA1101291999999REMMET058METAR SBLP 271800Z 00000KT 9999 FEW030 SCT100 33/21 Q1013;
0143832880999992009012719004-13267-043417FM-15+0443SBLP V0209999C000012200019N0112651N1+03401+02001999999ADDGA1021+009001999GA2041+030001999GF104991999999999999999999MA1101191999999REMMET058METAR SBLP 271900Z 00000KT 9999 FEW030 SCT100 34/20 Q1012;
0143832880999992009012720004-13267-043417FM-15+0443SBLP V0209999C000012200019N0112651N1+03101+02101999999ADDGA1021+009001999GA2041+030001999GF104991999999999999999999MA1101191999999REMMET058METAR SBLP 272000Z 00000KT 9999 FEW030 SCT100 31/21 Q1012;
0143832880999992009012721004-13267-043417FM-15+0443SBLP V0209999C000012200019N0112651N1+03101+02101999999ADDGA1021+009001999GA2041+030001999GF104991999999999999999999MA1101191999999REMMET058METAR SBLP 272100Z 00000KT 9999 FEW030 SCT100 31/21 Q1012;
0072832880999992009012810004-13267-043417FM-15+0443SBLP V0201201N00151220001CN0099001N1+02301+02101999999ADDMA1101491999999REMMET045METAR SBLP 281000Z 12003KT CAVOK 23/21 Q1015;
0072832880999992009012811004-13267-043417FM-15+0443SBLP V0201201N00261220001CN0099001N1+02701+02001999999ADDMA1101491999999REMMET045METAR SBLP 281100Z 12005KT CAVOK 27/20 Q1015;
0072832880999992009012812004-13267-043417FM-15+0443SBLP V0201201N00261220001CN0099001N1+02701+02001999999ADDMA1101491999999REMMET045METAR SBLP 281200Z 12005KT CAVOK 27/20 Q1015;
0120832880999992009012813004-13267-043417FM-15+0443SBLP V0201101N002112200019N0112651N1+03001+01801999999ADDGA1021+009001999GF102991999999999999999999MA1101491999999REMMET051METAR SBLP 281300Z 11004KT 9999 FEW030 30/18 Q1015;
0120832880999992009012814004-13267-043417FM-15+0443SBLP V0201201N002612200019N0112651N1+03101+01901999999ADDGA1021+009001999GF102991999999999999999999MA1101491999999REMMET051METAR SBLP 281400Z 12005KT 9999 FEW030 31/19 Q1015;
0120832880999992009012815004-13267-043417FM-15+0443SBLP V0201201N002112200019N0112651N1+03201+01901999999ADDGA1041+009001999GF104991999999999999999999MA1101391999999REMMET051METAR SBLP 281500Z 12004KT 9999 SCT030 32/19 Q1014;
0120832880999992009012816004-13267-043417FM-15+0443SBLP V0209999C000012200019N0112651N1+03201+01901999999ADDGA1041+009001999GF104991999999999999999999MA1101291999999REMMET051METAR SBLP 281600Z 00000KT 9999 SCT030 32/19 Q1013;
0120832880999992009012817004-13267-043417FM-15+0443SBLP V0203001N002112200019N0112651N1+03301+01901999999ADDGA1041+009001999GF104991999999999999999999MA1101291999999REMMET051METAR SBLP 281700Z 30004KT 9999 SCT030 33/19 Q1013;
0120832880999992009012818004-13267-043417FM-15+0443SBLP V0209999C000012200019N0112651N1+03401+02001999999ADDGA1041+009001999GF104991999999999999999999MA1101191999999REMMET051METAR SBLP 281800Z 00000KT 9999 SCT030 34/20 Q1012;
0120832880999992009012819004-13267-043417FM-15+0443SBLP V0209999C000012200019N0112651N1+03301+02001999999ADDGA1041+009001999GF104991999999999999999999MA1101081999999REMMET051METAR SBLP 281900Z 00000KT 9999 SCT030 33/20 Q1011;
0120832880999992009012820004-13267-043417FM-15+0443SBLP V0209999C000012200019N0112651N1+03201+02101999999ADDGA1021+009001999GF102991999999999999999999MA1101081999999REMMET051METAR SBLP 282000Z 00000KT 9999 FEW030 32/21 Q1011;
0120832880999992009012821004-13267-043417FM-15+0443SBLP V0209999C000012200019N0112651N1+03001+02101999999ADDGA1021+009001999GF102991999999999999999999MA1101191999999REMMET051METAR SBLP 282100Z 00000KT 9999 FEW030 30/21 Q1012;
0072832880999992009012910004-13267-043417FM-15+0443SBLP V0209999C00001220001CN0099001N1+02401+02101999999ADDMA1101491999999REMMET045METAR SBLP 291000Z 00000KT CAVOK 24/21 Q1015;
0072832880999992009012911004-13267-043417FM-15+0443SBLP V0209999C00001220001CN0099001N1+02601+02101999999ADDMA1101491999999REMMET045METAR SBLP 291100Z 00000KT CAVOK 26/21 Q1015;
0072832880999992009012912004-13267-043417FM-15+0443SBLP V0209999C00001220001CN0099001N1+02901+02101999999ADDMA1101491999999REMMET045METAR SBLP 291200Z 00000KT CAVOK 29/21 Q1015;
0072832880999992009012913004-13267-043417FM-15+0443SBLP V0209999C00001220001CN0099001N1+03001+02201999999ADDMA1101491999999REMMET045METAR SBLP 291300Z 00000KT CAVOK 30/22 Q1015;
0072832880999992009012914004-13267-043417FM-15+0443SBLP V0209999C00001220001CN0099001N1+03201+02101999999ADDMA1101391999999REMMET045METAR SBLP 291400Z 00000KT CAVOK 32/21 Q1014;
0072832880999992009012915004-13267-043417FM-15+0443SBLP V0209999C00001220001CN0099001N1+03201+02101999999ADDMA1101391999999REMMET045METAR SBLP 291500Z 00000KT CAVOK 32/21 Q1014;
0072832880999992009012916004-13267-043417FM-15+0443SBLP V0209999C00001220001CN0099001N1+03301+02001999999ADDMA1101291999999REMMET045METAR SBLP 291600Z 00000KT CAVOK 33/20 Q1013;
0072832880999992009012917004-13267-043417FM-15+0443SBLP V0209999C00001220001CN0099001N1+03501+01901999999ADDMA1101191999999REMMET045METAR SBLP 291700Z 00000KT CAVOK 35/19 Q1012;
0072832880999992009012918004-13267-043417FM-15+0443SBLP V0209999C00001220001CN0099001N1+03501+01801999999ADDMA1101081999999REMMET045METAR SBLP 291800Z 00000KT CAVOK 35/18 Q1011;
0072832880999992009012919004-13267-043417FM-15+0443SBLP V0209999C00001220001CN0099001N1+03501+01801999999ADDMA1101081999999REMMET045METAR SBLP 291900Z 00000KT CAVOK 35/18 Q1011;
0072832880999992009012920004-13267-043417FM-15+0443SBLP V0209999C00001220001CN0099001N1+03401+01801999999ADDMA1101081999999REMMET045METAR SBLP 292000Z 00000KT CAVOK 34/18 Q1011;
0072832880999992009012921004-13267-043417FM-15+0443SBLP V0209999C00001220001CN0099001N1+03301+01901999999ADDMA1101191999999REMMET045METAR SBLP 292100Z 00000KT CAVOK 33/19 Q1012;
0072832880999992009013010004-13267-043417FM-15+0443SBLP V0209999C00001220001CN0099001N1+02301+02001999999ADDMA1101491999999REMMET045METAR SBLP 301000Z 00000KT CAVOK 23/20 Q1015;
0072832880999992009013011004-13267-043417FM-15+0443SBLP V0209999C00001220001CN0099001N1+02601+01901999999ADDMA1101491999999REMMET045METAR SBLP 301100Z 00000KT CAVOK 26/19 Q1015;
0072832880999992009013012004-13267-043417FM-15+0443SBLP V0209999C00001220001CN0099001N1+02601+01901999999ADDMA1101491999999REMMET045METAR SBLP 301200Z 00000KT CAVOK 26/19 Q1015;
0072832880999992009013013004-13267-043417FM-15+0443SBLP V0209999C00001220001CN0099001N1+03001+02001999999ADDMA1101491999999REMMET045METAR SBLP 301300Z 00000KT CAVOK 30/20 Q1015;
0072832880999992009013014004-13267-043417FM-15+0443SBLP V0209999C00001220001CN0099001N1+03001+02101999999ADDMA1101491999999REMMET045METAR SBLP 301400Z 00000KT CAVOK 30/21 Q1015;
0072832880999992009013015004-13267-043417FM-15+0443SBLP V0202101N00311220001CN0099001N1+03101+02001999999ADDMA1101391999999REMMET045METAR SBLP 301500Z 21006KT CAVOK 31/20 Q1014;
0072832880999992009013016004-13267-043417FM-15+0443SBLP V0201801N00311220001CN0099001N1+03301+02001999999ADDMA1101291999999REMMET045METAR SBLP 301600Z 18006KT CAVOK 33/20 Q1013;
0072832880999992009013017004-13267-043417FM-15+0443SBLP V0201801N00311220001CN0099001N1+03401+01901999999ADDMA1101191999999REMMET045METAR SBLP 301700Z 18006KT CAVOK 34/19 Q1012;
0072832880999992009013018004-13267-043417FM-15+0443SBLP V0201801N00311220001CN0099001N1+03501+01901999999ADDMA1101081999999REMMET045METAR SBLP 301800Z 18006KT CAVOK 35/19 Q1011;
0072832880999992009013019004-13267-043417FM-15+0443SBLP V0201801N00311220001CN0099001N1+03501+01901999999ADDMA1101081999999REMMET045METAR SBLP 301900Z 18006KT CAVOK 35/19 Q1011;
0072832880999992009013020004-13267-043417FM-15+0443SBLP V0201801N00311220001CN0099001N1+03401+01901999999ADDMA1101081999999REMMET045METAR SBLP 302000Z 18006KT CAVOK 34/19 Q1011;
0072832880999992009013021004-13267-043417FM-15+0443SBLP V0201801N00311220001CN0099001N1+03301+01901999999ADDMA1101021999999REMMET045METAR SBLP 302100Z 18006KT CAVOK 33/19 Q1010;
0072832880999992009013110004-13267-043417FM-15+0443SBLP V0209999C00001220001CN0099001N1+02401+01901999999ADDMA1101491999999REMMET045METAR SBLP 311000Z 00000KT CAVOK 24/19 Q1015;
0072832880999992009013111004-13267-043417FM-15+0443SBLP V0209999C00001220001CN0099001N1+02601+01901999999ADDMA1101491999999REMMET045METAR SBLP 311100Z 00000KT CAVOK 26/19 Q1015;
0072832880999992009013112004-13267-043417FM-15+0443SBLP V0209999C00001220001CN0099001N1+02901+01901999999ADDMA1101491999999REMMET045METAR SBLP 311200Z 00000KT CAVOK 29/19 Q1015;
0072832880999992009013113004-13267-043417FM-15+0443SBLP V0209999C00001220001CN0099001N1+03101+01901999999ADDMA1101391999999REMMET045METAR SBLP 311300Z 00000KT CAVOK 31/19 Q1014;
0072832880999992009013114004-13267-043417FM-15+0443SBLP V0209999C00001220001CN0099001N1+03201+01901999999ADDMA1101391999999REMMET045METAR SBLP 311400Z 00000KT CAVOK 32/19 Q1014;
0120832880999992009013115004-13267-043417FM-15+0443SBLP V0203601N003112200019N0112651N1+03301+01801999999ADDGA1021+009001999GF102991999999999999999999MA1101291999999REMMET051METAR SBLP 311500Z 36006KT 9999 FEW030 33/18 Q1013;
0120832880999992009013116004-13267-043417FM-15+0443SBLP V0202101N003112200019N0112651N1+03401+01701999999ADDGA1021+009001999GF102991999999999999999999MA1101191999999REMMET051METAR SBLP 311600Z 21006KT 9999 FEW030 34/17 Q1012;
0120832880999992009013117004-13267-043417FM-15+0443SBLP V0201801N002612200019N0112651N1+03501+01701999999ADDGA1021+009001999GF102991999999999999999999MA1101081999999REMMET051METAR SBLP 311700Z 18005KT 9999 FEW030 35/17 Q1011;
0120832880999992009013118004-13267-043417FM-15+0443SBLP V0202401N003112200019N0112651N1+03501+01701999999ADDGA1021+009001999GF102991999999999999999999MA1101021999999REMMET051METAR SBLP 311800Z 24006KT 9999 FEW030 35/17 Q1010;
0120832880999992009013119004-13267-043417FM-15+0443SBLP V0201901N003112200019N0112651N1+03501+01801999999ADDGA1021+009001999GF102991999999999999999999MA1101021999999REMMET051METAR SBLP 311900Z 19006KT 9999 FEW030 35/18 Q1010;
0120832880999992009013120004-13267-043417FM-15+0443SBLP V0201901N002112200019N0112651N1+03501+01801999999ADDGA1021+009001999GF102991999999999999999999MA1100911999999REMMET051METAR SBLP 312000Z 19004KT 9999 FEW030 35/18 Q1009;
0120832880999992009013121004-13267-043417FM-15+0443SBLP V0201901N002112200019N0112651N1+03301+01801999999ADDGA1021+009001999GF102991999999999999999999MA1100911999999REMMET051METAR SBLP 312100Z 19004KT 9999 FEW030 33/18 Q1009;
0072832880999992009020110004-13267-043417FM-15+0443SBLP V0200201N00211999999CY0099001N1+02401+02001999999ADDMA1101391999999REMMET045METAR SBLP 011000Z 02004KT CAVOK 24/20 Q1014;
0072832880999992009020111004-13267-043417FM-15+0443SBLP V0203501N00151999999CY0099001N1+02701+02201999999ADDMA1101391999999REMMET045METAR SBLP 011100Z 35003KT CAVOK 27/22 Q1014;
0120832880999992009020112004-13267-043417FM-15+0443SBLP V0203601N001512200019N0112651N1+02901+02101999999ADDGA1021+009001999GF102991999999999999999999MA1101391999999REMMET051METAR SBLP 011200Z 36003KT 9999 FEW030 29/21 Q1014;
0120832880999992009020113004-13267-043417FM-15+0443SBLP V0209999C000012200019N0112651N1+03001+02101999999ADDGA1021+009001999GF102991999999999999999999MA1101391999999REMMET051METAR SBLP 011300Z 00000KT 9999 FEW030 30/21 Q1014;
0120832880999992009020114004-13267-043417FM-15+0443SBLP V0203401N002612200019N0112651N1+03101+02101999999ADDGA1021+009001999GF102991999999999999999999MA1101391999999REMMET051METAR SBLP 011400Z 34005KT 9999 FEW030 31/21 Q1014;
0120832880999992009020115004-13267-043417FM-15+0443SBLP V0203601N002112200019N0112651N1+03301+02001999999ADDGA1021+009001999GF102991999999999999999999MA1101291999999REMMET051METAR SBLP 011500Z 36004KT 9999 FEW030 33/20 Q1013;
0120832880999992009020116004-13267-043417FM-15+0443SBLP V0209999C000012200019N0112651N1+03301+01901999999ADDGA1021+009001999GF102991999999999999999999MA1101191999999REMMET051METAR SBLP 011600Z 00000KT 9999 FEW030 33/19 Q1012;
0120832880999992009020117004-13267-043417FM-15+0443SBLP V0209999C000012200019N0112651N1+03501+01901999999ADDGA1041+009001999GF104991999999999999999999MA1101081999999REMMET051METAR SBLP 011700Z 00000KT 9999 SCT030 35/19 Q1011;
0120832880999992009020118004-13267-043417FM-15+0443SBLP V0209999C000012200019N0112651N1+03501+01801999999ADDGA1041+009001999GF104991999999999999999999MA1101021999999REMMET051METAR SBLP 011800Z 00000KT 9999 SCT030 35/18 Q1010;
0120832880999992009020119004-13267-043417FM-15+0443SBLP V0209999C000012200019N0112651N1+03501+01801999999ADDGA1021+009001999GF102991999999999999999999MA1101021999999REMMET051METAR SBLP 011900Z 00000KT 9999 FEW030 35/18 Q1010;
0120832880999992009020120004-13267-043417FM-15+0443SBLP V0209999C000012200019N0112651N1+03401+01801999999ADDGA1021+009001999GF102991999999999999999999MA1100911999999REMMET051METAR SBLP 012000Z 00000KT 9999 FEW030 34/18 Q1009;
0072832880999992009020121004-13267-043417FM-15+0443SBLP V0209999C00001999999CY0099001N1+03401+01801999999ADDMA1100911999999REMMET045METAR SBLP 012100Z 00000KT CAVOK 34/18 Q1009;
0072832880999992009020210004-13267-043417FM-15+0443SBLP V0202101N00211999999CY0099001N1+02601+02101999999ADDMA1101391999999REMMET045METAR SBLP 021000Z 21004KT CAVOK 26/21 Q1014;
0072832880999992009020211004-13267-043417FM-15+0443SBLP V0200601N00211999999CY0099001N1+02801+02101999999ADDMA1101391999999REMMET045METAR SBLP 021100Z 06004KT CAVOK 28/21 Q1014;
0072832880999992009020212004-13267-043417FM-15+0443SBLP V0200601N00411999999CY0099001N1+03001+02101999999ADDMA1101391999999REMMET045METAR SBLP 021200Z 06008KT CAVOK 30/21 Q1014;
0120832880999992009020213004-13267-043417FM-15+0443SBLP V0203601N003112200019N0112651N1+03201+01901999999ADDGA1021+009001999GF102991999999999999999999MA1101391999999REMMET051METAR SBLP 021300Z 36006KT 9999 FEW030 32/19 Q1014;
0120832880999992009020214004-13267-043417FM-15+0443SBLP V0203401N003112200019N0112651N1+03201+01901999999ADDGA1041+009001999GF104991999999999999999999MA1101391999999REMMET051METAR SBLP 021400Z 34006KT 9999 SCT030 32/19 Q1014;
0120832880999992009020215004-13267-043417FM-15+0443SBLP V0203101N002112200019N0112651N1+03301+01801999999ADDGA1041+009001999GF104991999999999999999999MA1101291999999REMMET051METAR SBLP 021500Z 31004KT 9999 SCT030 33/18 Q1013;
0120832880999992009020216004-13267-043417FM-15+0443SBLP V0209999C000012200019N0112651N1+03301+01801999999ADDGA1041+009001999GF104991999999999999999999MA1101191999999REMMET051METAR SBLP 021600Z 00000KT 9999 SCT030 33/18 Q1012;
0120832880999992009020217004-13267-043417FM-15+0443SBLP V0209999C000012200019N0112651N1+03401+01801999999ADDGA1041+009001999GF104991999999999999999999MA1101081999999REMMET051METAR SBLP 021700Z 00000KT 9999 SCT030 34/18 Q1011;
0143832880999992009020218004-13267-043417FM-15+0443SBLP V0203601N004112200019N0112651N1+03201+01901999999ADDGA1041+009001999GA2041+030001999GF104991999999999999999999MA1101081999999REMMET058METAR SBLP 021800Z 36008KT 9999 SCT030 SCT100 32/19 Q1011;
0143832880999992009020219004-13267-043417FM-15+0443SBLP V0209999C000010300019N0112651N1+03001+02001999999ADDGA1041+009001999GA2071+030001999GF107991999999999999999999MA1101021999999REMMET058METAR SBLP 021900Z 00000KT 9999 SCT030 BKN100 30/20 Q1010;
0146832880999992009020221004-13267-043417FM-15+0443SBLP V0201401N003112200019N0112651N1+02901+02101999999ADDGA1021+009001021GA2041+030001999GF104991999999999999999999MA1101021999999REMMET061METAR SBLP 022100Z 14006KT 9999 FEW030TCU SCT100 29/21 Q1010;
0143832880999992009020310004-13267-043417FM-15+0443SBLP V0209999C000010300019N0112651N1+02301+02101999999ADDGA1041+006001999GA2071+030001999GF107991999999999999999999MA1101591999999REMMET058METAR SBLP 031000Z 00000KT 9999 SCT020 BKN100 23/21 Q1016;
0143832880999992009020311004-13267-043417FM-15+0443SBLP V0209999C000010300019N0112651N1+02501+02101999999ADDGA1041+006001999GA2071+030001999GF107991999999999999999999MA1101691999999REMMET058METAR SBLP 031100Z 00000KT 9999 SCT020 BKN100 25/21 Q1017;
0143832880999992009020312004-13267-043417FM-15+0443SBLP V0209999C000010300019N0112651N1+02501+02101999999ADDGA1041+006001999GA2071+030001999GF107991999999999999999999MA1101691999999REMMET058METAR SBLP 031200Z 00000KT 9999 SCT020 BKN100 25/21 Q1017;
0143832880999992009020313004-13267-043417FM-15+0443SBLP V0209999C000012200019N0112651N1+02701+02101999999ADDGA1021+009001999GA2041+030001999GF104991999999999999999999MA1101691999999REMMET058METAR SBLP 031300Z 00000KT 9999 FEW030 SCT100 27/21 Q1017;
0120832880999992009020314004-13267-043417FM-15+0443SBLP V0209999C000012200019N0112651N1+02901+02001999999ADDGA1021+009001999GF102991999999999999999999MA1101691999999REMMET051METAR SBLP 031400Z 00000KT 9999 FEW030 29/20 Q1017;
0120832880999992009020315004-13267-043417FM-15+0443SBLP V0209999C000012200019N0112651N1+03001+02001999999ADDGA1021+009001999GF102991999999999999999999MA1101591999999REMMET051METAR SBLP 031500Z 00000KT 9999 FEW030 30/20 Q1016;
0120832880999992009020316004-13267-043417FM-15+0443SBLP V0209999C000012200019N0112651N1+03101+02101999999ADDGA1021+009001999GF102991999999999999999999MA1101491999999REMMET051METAR SBLP 031600Z 00000KT 9999 FEW030 31/21 Q1015;
0120832880999992009020317004-13267-043417FM-15+0443SBLP V0202401N003112200019N0112651N1+03201+02101999999ADDGA1021+009001999GF102991999999999999999999MA1101391999999REMMET051METAR SBLP 031700Z 24006KT 9999 FEW030 32/21 Q1014;
0120832880999992009020318004-13267-043417FM-15+0443SBLP V0201901N004112200019N0112651N1+03301+02001999999ADDGA1041+009001999GF104991999999999999999999MA1101291999999REMMET051METAR SBLP 031800Z 19008KT 9999 SCT030 33/20 Q1013;
0146832880999992009020319004-13267-043417FM-15+0443SBLP V0201701N002112200019N0112651N1+03301+02001999999ADDGA1021+009001999GA2021+009001021GF102991999999999999999999MA1101191999999REMMET061METAR SBLP 031900Z 17004KT 9999 FEW030 FEW030TCU 33/20 Q1012;
0149832880999992009020320004-13267-043417FM-15+0443SBLP V0200301N006212200019N0080001N1+02801+02101999999ADDGA1021+009001091GA2041+009001999MA1101391999999MW1161REMMET065METAR SBLP 032000Z 03012KT 8000 VCSH SCT030 FEW030CB 28/21 Q1014;EQDQ01+000022SCOTCV
0143832880999992009020321004-13267-043417FM-15+0443SBLP V0200601N003110900019N0112651N1+02601+01901999999ADDGA1041+009001999GA2071+090001999GF107991999999999999999999MA1101291999999REMMET058METAR SBLP 032100Z 06006KT 9999 SCT030 BKN300 26/19 Q1013;
0072832880999992009020410004-13267-043417FM-15+0443SBLP V0209999C00001999999CY0099001N1+02501+02101999999ADDMA1101591999999REMMET045METAR SBLP 041000Z 00000KT CAVOK 25/21 Q1016;
0072832880999992009020411004-13267-043417FM-15+0443SBLP V0209999C00001999999CY0099001N1+02701+02101999999ADDMA1101691999999REMMET045METAR SBLP 041100Z 00000KT CAVOK 27/21 Q1017;
0120832880999992009020412004-13267-043417FM-15+0443SBLP V0209999C000012200019N0112651N1+02901+02001999999ADDGA1021+009001999GF102991999999999999999999MA1101691999999REMMET051METAR SBLP 041200Z 00000KT 9999 FEW030 29/20 Q1017;
0120832880999992009020413004-13267-043417FM-15+0443SBLP V0209999C000012200019N0112651N1+03101+02001999999ADDGA1021+009001999GF102991999999999999999999MA1101691999999REMMET051METAR SBLP 041300Z 00000KT 9999 FEW030 31/20 Q1017;
0120832880999992009020414004-13267-043417FM-15+0443SBLP V0209999C000012200019N0112651N1+03301+01901999999ADDGA1041+009001999GF104991999999999999999999MA1101591999999REMMET051METAR SBLP 041400Z 00000KT 9999 SCT030 33/19 Q1016;
0120832880999992009020415004-13267-043417FM-15+0443SBLP V0209999C000012200019N0112651N1+03301+01901999999ADDGA1041+009001999GF104991999999999999999999MA1101591999999REMMET051METAR SBLP 041500Z 00000KT 9999 SCT030 33/19 Q1016;
0120832880999992009020416004-13267-043417FM-15+0443SBLP V0202701N002112200019N0112651N1+03201+02101999999ADDGA1041+009001999GF104991999999999999999999MA1101491999999REMMET051METAR SBLP 041600Z 27004KT 9999 SCT030 32/21 Q1015;
0120832880999992009020417004-13267-043417FM-15+0443SBLP V0202401N002112200019N0112651N1+03301+02001999999ADDGA1041+009001999GF104991999999999999999999MA1101391999999REMMET051METAR SBLP 041700Z 24004KT 9999 SCT030 33/20 Q1014;
0120832880999992009020418004-13267-043417FM-15+0443SBLP V0202101N003112200019N0112651N1+03301+01901999999ADDGA1041+009001999GF104991999999999999999999MA1101291999999REMMET051METAR SBLP 041800Z 21006KT 9999 SCT030 33/19 Q1013;
0150832880999992009020419004-13267-043417FM-15+0443SBLP V0202101N002112200019N0080001N1+03301+01801999999ADDGA1041+009001999GA2021+009001021MA1101191999999MW1161REMMET066METAR SBLP 041900Z 21004KT 8000 VCSH SCT030 FEW030TCU 33/18 Q1012;EQDQ01+000022SCOTCV
0120832880999992009020420004-13267-043417FM-15+0443SBLP V0201201N002112200019N0112651N1+03001+02001999999ADDGA1021+009001999GF102991999999999999999999MA1101191999999REMMET051METAR SBLP 042000Z 12004KT 9999 FEW030 30/20 Q1012;
0120832880999992009020421004-13267-043417FM-15+0443SBLP V0201201N001512200019N0112651N1+02801+02201999999ADDGA1021+009001999GF102991999999999999999999MA1101191999999REMMET051METAR SBLP 042100Z 12003KT 9999 FEW030 28/22 Q1012;
0072832880999992009020510004-13267-043417FM-15+0443SBLP V0200601N00151999999CY0099001N1+02401+02001999999ADDMA1101591999999REMMET045METAR SBLP 051000Z 06003KT CAVOK 24/20 Q1016;
0072832880999992009020511004-13267-043417FM-15+0443SBLP V0203601N00151999999CY0099001N1+02701+02001999999ADDMA1101591999999REMMET045METAR SBLP 051100Z 36003KT CAVOK 27/20 Q1016;
0072832880999992009020512004-13267-043417FM-15+0443SBLP V0203601N00211999999CY0099001N1+02901+02101999999ADDMA1101591999999REMMET045METAR SBLP 051200Z 36004KT CAVOK 29/21 Q1016;
0120832880999992009020513004-13267-043417FM-15+0443SBLP V0209999C000012200019N0112651N1+03101+02001999999ADDGA1021+009001999GF102991999999999999999999MA1101591999999REMMET051METAR SBLP 051300Z 00000KT 9999 FEW030 31/20 Q1016;
0120832880999992009020514004-13267-043417FM-15+0443SBLP V0202401N003112200019N0112651N1+03101+02101999999ADDGA1041+009001999GF104991999999999999999999MA1101591999999REMMET051METAR SBLP 051400Z 24006KT 9999 SCT030 31/21 Q1016;
0120832880999992009020515004-13267-043417FM-15+0443SBLP V0201801N003112200019N0112651N1+03301+02101999999ADDGA1041+009001999GF104991999999999999999999MA1101491999999REMMET051METAR SBLP 051500Z 18006KT 9999 SCT030 33/21 Q1015;
0120832880999992009020516004-13267-043417FM-15+0443SBLP V0202701N003112200019N0112651N1+03301+02001999999ADDGA1041+009001999GF104991999999999999999999MA1101291999999REMMET051METAR SBLP 051600Z 27006KT 9999 SCT030 33/20 Q1013;
0120832880999992009020517004-13267-043417FM-15+0443SBLP V0209999C000012200019N0112651N1+03401+02001999999ADDGA1041+009001999GF104991999999999999999999MA1101191999999REMMET051METAR SBLP 051700Z 00000KT 9999 SCT030 34/20 Q1012;
0120832880999992009020518004-13267-043417FM-15+0443SBLP V0209999C000012200019N0112651N1+03501+01901999999ADDGA1041+009001999GF104991999999999999999999MA1101081999999REMMET051METAR SBLP 051800Z 00000KT 9999 SCT030 35/19 Q1011;
0120832880999992009020519004-13267-043417FM-15+0443SBLP V0209999C000012200019N0112651N1+03501+01801999999ADDGA1041+009001999GF104991999999999999999999MA1101021999999REMMET051METAR SBLP 051900Z 00000KT 9999 SCT030 35/18 Q1010;
0120832880999992009020520004-13267-043417FM-15+0443SBLP V0209999C000012200019N0112651N1+03501+01901999999ADDGA1041+009001999GF104991999999999999999999MA1101021999999REMMET051METAR SBLP 052000Z 00000KT 9999 SCT030 35/19 Q1010;
0120832880999992009020521004-13267-043417FM-15+0443SBLP V0209999C000012200019N0112651N1+03301+01901999999ADDGA1041+009001999GF104991999999999999999999MA1101021999999REMMET051METAR SBLP 052100Z 00000KT 9999 SCT030 33/19 Q1010;
0072832880999992009020610004-13267-043417FM-15+0443SBLP V0209999C00001999999CY0099001N1+02501+02101999999ADDMA1101491999999REMMET045METAR SBLP 061000Z 00000KT CAVOK 25/21 Q1015;
0072832880999992009020611004-13267-043417FM-15+0443SBLP V0209999C00001999999CY0099001N1+02801+02001999999ADDMA1101591999999REMMET045METAR SBLP 061100Z 00000KT CAVOK 28/20 Q1016;
0072832880999992009020612004-13267-043417FM-15+0443SBLP V0209999C00001999999CY0099001N1+03001+02001999999ADDMA1101591999999REMMET045METAR SBLP 061200Z 00000KT CAVOK 30/20 Q1016;
0120832880999992009020613004-13267-043417FM-15+0443SBLP V0209999C000012200019N0112651N1+03201+02001999999ADDGA1021+009001999GF102991999999999999999999MA1101591999999REMMET051METAR SBLP 061300Z 00000KT 9999 FEW030 32/20 Q1016;
0120832880999992009020614004-13267-043417FM-15+0443SBLP V0209999C000012200019N0112651N1+03201+02001999999ADDGA1021+009001999GF102991999999999999999999MA1101491999999REMMET051METAR SBLP 061400Z 00000KT 9999 FEW030 32/20 Q1015;
0120832880999992009020615004-13267-043417FM-15+0443SBLP V0209999C000012200019N0112651N1+03301+02001999999ADDGA1041+009001999GF104991999999999999999999MA1101391999999REMMET051METAR SBLP 061500Z 00000KT 9999 SCT030 33/20 Q1014;
0120832880999992009020616004-13267-043417FM-15+0443SBLP V0202501N002112200019N0112651N1+03401+02001999999ADDGA1041+009001999GF104991999999999999999999MA1101291999999REMMET051METAR SBLP 061600Z 25004KT 9999 SCT030 34/20 Q1013;
0120832880999992009020617004-13267-043417FM-15+0443SBLP V0209999C000012200019N0112651N1+03501+01901999999ADDGA1041+009001999GF104991999999999999999999MA1101191999999REMMET051METAR SBLP 061700Z 00000KT 9999 SCT030 35/19 Q1012;
0120832880999992009020618004-13267-043417FM-15+0443SBLP V0200201N002112200019N0112651N1+03501+01901999999ADDGA1041+009001999GF104991999999999999999999MA1101081999999REMMET051METAR SBLP 061800Z 02004KT 9999 SCT030 35/19 Q1011;
0120832880999992009020619004-13267-043417FM-15+0443SBLP V0202601N001512200019N0112651N1+03501+01901999999ADDGA1041+009001999GF104991999999999999999999MA1101021999999REMMET051METAR SBLP 061900Z 26003KT 9999 SCT030 35/19 Q1010;
0120832880999992009020620004-13267-043417FM-15+0443SBLP V0201801N002112200019N0112651N1+03601+02001999999ADDGA1041+009001999GF104991999999999999999999MA1101081999999REMMET051METAR SBLP 062000Z 18004KT 9999 SCT030 36/20 Q1011;
0154832880999992009020621004-13267-043417FM-15+0443SBLP V0201801N002112200019N0112651N1+03501+02001999999ADDGA1021+009001999GA2021+012001091GF102991999999999999999999MA1101081999999MW1171REMMET063METAR SBLP 062100Z 18004KT 9999 TS FEW030 FEW040CB 35/20 Q1011;
0120832880999992009020710004-13267-043417FM-15+0443SBLP V0203501N001512200019N0112651N1+02501+02201999999ADDGA1041+006901999GF104991999999999999999999MA1101491999999REMMET051METAR SBLP 071000Z 35003KT 9999 SCT023 25/22 Q1015;
0120832880999992009020711004-13267-043417FM-15+0443SBLP V0203501N001512200019N0112651N1+02501+02201999999ADDGA1041+006901999GF104991999999999999999999MA1101491999999REMMET051METAR SBLP 071100Z 35003KT 9999 SCT023 25/22 Q1015;
0072832880999992009020712004-13267-043417FM-15+0443SBLP V0200901N00211999999CY0099001N1+03001+02201999999ADDMA1101591999999REMMET045METAR SBLP 071200Z 09004KT CAVOK 30/22 Q1016;
0120832880999992009020714004-13267-043417FM-15+0443SBLP V0201901N002612200019N0112651N1+03301+02001999999ADDGA1021+009001999GF102991999999999999999999MA1101491999999REMMET051METAR SBLP 071400Z 19005KT 9999 FEW030 33/20 Q1015;
0120832880999992009020715004-13267-043417FM-15+0443SBLP V0203301N002110090019N0112651N1+03201+02101999999ADDGA1071+009001999GF107991999999999999999999MA1101491999999REMMET051METAR SBLP 071500Z 33004KT 9999 BKN030 32/21 Q1015;
0120832880999992009020716004-13267-043417FM-15+0443SBLP V0203601N002112200019N0112651N1+03301+02101999999ADDGA1041+009001999GF104991999999999999999999MA1101391999999REMMET051METAR SBLP 071600Z 36004KT 9999 SCT030 33/21 Q1014;
0120832880999992009020717004-13267-043417FM-15+0443SBLP V0203601N003112200019N0112651N1+03401+02001999999ADDGA1041+009001999GF104991999999999999999999MA1101191999999REMMET051METAR SBLP 071700Z 36006KT 9999 SCT030 34/20 Q1012;
0120832880999992009020718004-13267-043417FM-15+0443SBLP V0209999C000012200019N0112651N1+03501+02001999999ADDGA1041+009001999GF104991999999999999999999MA1101081999999REMMET051METAR SBLP 071800Z 00000KT 9999 SCT030 35/20 Q1011;
0120832880999992009020719004-13267-043417FM-15+0443SBLP V0209999C000012200019N0112651N1+03501+02001999999ADDGA1041+009001999GF104991999999999999999999MA1101081999999REMMET051METAR SBLP 071900Z 00000KT 9999 SCT030 35/20 Q1011;
0120832880999992009020720004-13267-043417FM-15+0443SBLP V0209999C000012200019N0112651N1+03301+02101999999ADDGA1021+009001999GF102991999999999999999999MA1101021999999REMMET051METAR SBLP 072000Z 00000KT 9999 FEW030 33/21 Q1010;
0120832880999992009020721004-13267-043417FM-15+0443SBLP V0209999C000012200019N0112651N1+03001+02201999999ADDGA1021+009001999GF102991999999999999999999MA1101021999999REMMET051METAR SBLP 072100Z 00000KT 9999 FEW030 30/22 Q1010;
0120832880999992009020810004-13267-043417FM-15+0443SBLP V0209999C000012200019N0112651N1+02501+02101999999ADDGA1021+009001999GF102991999999999999999999MA1101391999999REMMET051METAR SBLP 081000Z 00000KT 9999 FEW030 25/21 Q1014;
0120832880999992009020811004-13267-043417FM-15+0443SBLP V0200601N002112200019N0112651N1+02801+02101999999ADDGA1021+009001999GF102991999999999999999999MA1101391999999REMMET051METAR SBLP 081100Z 06004KT 9999 FEW030 28/21 Q1014;
0120832880999992009020812004-13267-043417FM-15+0443SBLP V0200401N001512200019N0112651N1+03101+02101999999ADDGA1021+009001999GF102991999999999999999999MA1101491999999REMMET051METAR SBLP 081200Z 04003KT 9999 FEW030 31/21 Q1015;
0120832880999992009020813004-13267-043417FM-15+0443SBLP V0200501N002112200019N0112651N1+03201+02001999999ADDGA1021+009001999GF102991999999999999999999MA1101491999999REMMET051METAR SBLP 081300Z 05004KT 9999 FEW030 32/20 Q1015;
0120832880999992009020814004-13267-043417FM-15+0443SBLP V0209999C000012200019N0112651N1+03301+01901999999ADDGA1041+009001999GF104991999999999999999999MA1101391999999REMMET051METAR SBLP 081400Z 00000KT 9999 SCT030 33/19 Q1014;
0120832880999992009020815004-13267-043417FM-15+0443SBLP V0202701N002110090019N0112651N1+03301+01901999999ADDGA1071+009001999GF107991999999999999999999MA1101391999999REMMET051METAR SBLP 081500Z 27004KT 9999 BKN030 33/19 Q1014;
0120832880999992009020816004-13267-043417FM-15+0443SBLP V0200201N002110090019N0112651N1+03401+01901999999ADDGA1071+009001999GF107991999999999999999999MA1101291999999REMMET051METAR SBLP 081600Z 02004KT 9999 BKN030 34/19 Q1013;
0120832880999992009020817004-13267-043417FM-15+0443SBLP V0209999C000012200019N0112651N1+03501+01901999999ADDGA1041+009001999GF104991999999999999999999MA1101081999999REMMET051METAR SBLP 081700Z 00000KT 9999 SCT030 35/19 Q1011;
0120832880999992009020818004-13267-043417FM-15+0443SBLP V0203601N003112200019N0112651N1+03501+01901999999ADDGA1041+009001999GF104991999999999999999999MA1101021999999REMMET051METAR SBLP 081800Z 36006KT 9999 SCT030 35/19 Q1010;
0120832880999992009020819004-13267-043417FM-15+0443SBLP V0209999C000012200019N0112651N1+03601+01901999999ADDGA1021+009001999GF102991999999999999999999MA1100911999999REMMET051METAR SBLP 081900Z 00000KT 9999 FEW030 36/19 Q1009;
0120832880999992009020820004-13267-043417FM-15+0443SBLP V0203401N003112200019N0112651N1+03401+02001999999ADDGA1041+009001999GF104991999999999999999999MA1101021999999REMMET051METAR SBLP 082000Z 34006KT 9999 SCT030 34/20 Q1010;
0120832880999992009020821004-13267-043417FM-15+0443SBLP V0209999C000012200019N0112651N1+03201+01901999999ADDGA1041+009001999GF104991999999999999999999MA1101021999999REMMET051METAR SBLP 082100Z 00000KT 9999 SCT030 32/19 Q1010;
0120832880999992009020910004-13267-043417FM-15+0443SBLP V0209999C000012200019N0112651N1+02401+02201999999ADDGA1021+006001999GF102991999999999999999999MA1101391999999REMMET051METAR SBLP 091000Z 00000KT 9999 FEW020 24/22 Q1014;
0120832880999992009020911004-13267-043417FM-15+0443SBLP V0203601N003112200019N0112651N1+02601+02201999999ADDGA1021+006001999GF102991999999999999999999MA1101491999999REMMET051METAR SBLP 091100Z 36006KT 9999 FEW020 26/22 Q1015;
0120832880999992009020912004-13267-043417FM-15+0443SBLP V0209999C000012200019N0112651N1+02901+02101999999ADDGA1021+006001999GF102991999999999999999999MA1101491999999REMMET051METAR SBLP 091200Z 00000KT 9999 FEW020 29/21 Q1015;
0120832880999992009020913004-13267-043417FM-15+0443SBLP V0209999C000012200019N0112651N1+03001+02001999999ADDGA1021+009001999GF102991999999999999999999MA1101491999999REMMET051METAR SBLP 091300Z 00000KT 9999 FEW030 30/20 Q1015;
0120832880999992009020914004-13267-043417FM-15+0443SBLP V0209999C000012200019N0112651N1+03001+02101999999ADDGA1041+009001999GF104991999999999999999999MA1101491999999REMMET051METAR SBLP 091400Z 00000KT 9999 SCT030 30/21 Q1015;
0120832880999992009020915004-13267-043417FM-15+0443SBLP V0202701N003112200019N0112651N1+03201+02101999999ADDGA1041+009001999GF104991999999999999999999MA1101391999999REMMET051METAR SBLP 091500Z 27006KT 9999 SCT030 32/21 Q1014;
0120832880999992009020916004-13267-043417FM-15+0443SBLP V0202101N002112200019N0112651N1+03301+02001999999ADDGA1041+009001999GF104991999999999999999999MA1101291999999REMMET051METAR SBLP 091600Z 21004KT 9999 SCT030 33/20 Q1013;
0120832880999992009020917004-13267-043417FM-15+0443SBLP V0209999C000012200019N0112651N1+03401+02001999999ADDGA1041+009001999GF104991999999999999999999MA1101081999999REMMET051METAR SBLP 091700Z 00000KT 9999 SCT030 34/20 Q1011;
0120832880999992009020918004-13267-043417FM-15+0443SBLP V0201801N002112200019N0112651N1+03501+01801999999ADDGA1041+009001999GF104991999999999999999999MA1101021999999REMMET051METAR SBLP 091800Z 18004KT 9999 SCT030 35/18 Q1010;
0120832880999992009020919004-13267-043417FM-15+0443SBLP V0202101N002112200019N0112651N1+03501+01901999999ADDGA1041+009001999GF104991999999999999999999MA1100911999999REMMET051METAR SBLP 091900Z 21004KT 9999 SCT030 35/19 Q1009;
0120832880999992009020920004-13267-043417FM-15+0443SBLP V0202101N003112200019N0112651N1+03401+01901999999ADDGA1021+009001999GF102991999999999999999999MA1100911999999REMMET051METAR SBLP 092000Z 21006KT 9999 FEW030 34/19 Q1009;
0120832880999992009020921004-13267-043417FM-15+0443SBLP V0202101N002112200019N0112651N1+03301+02001999999ADDGA1021+009001999GF102991999999999999999999MA1101021999999REMMET051METAR SBLP 092100Z 21004KT 9999 FEW030 33/20 Q1010;
0143832880999992009021010004-13267-043417FM-15+0443SBLP V0200801N003110900019N0112651N1+02301+02101999999ADDGA1021+009001999GA2071+090001999GF107991999999999999999999MA1101491999999REMMET058METAR SBLP 101000Z 08006KT 9999 FEW030 BKN300 23/21 Q1015;
0072832880999992009021011004-13267-043417FM-15+0443SBLP V0201001N00411999999CY0099001N1+02501+02201999999ADDMA1101491999999REMMET045METAR SBLP 101100Z 10008KT CAVOK 25/22 Q1015;
0072832880999992009021012004-13267-043417FM-15+0443SBLP V0209999C00001999999CY0099001N1+02801+02201999999ADDMA1101491999999REMMET045METAR SBLP 101200Z 00000KT CAVOK 28/22 Q1015;
0120832880999992009021013004-13267-043417FM-15+0443SBLP V0202801N003112200019N0112651N1+02801+02201999999ADDGA1041+009001999GF104991999999999999999999MA1101591999999REMMET051METAR SBLP 101300Z 28006KT 9999 SCT030 28/22 Q1016;
0120832880999992009021014004-13267-043417FM-15+0443SBLP V0202701N001512200019N0112651N1+02901+02201999999ADDGA1041+009001999GF104991999999999999999999MA1101591999999REMMET051METAR SBLP 101400Z 27003KT 9999 SCT030 29/22 Q1016;
0120832880999992009021015004-13267-043417FM-15+0443SBLP V0202401N002112200019N0112651N1+03101+02201999999ADDGA1041+009001999GF104991999999999999999999MA1101491999999REMMET051METAR SBLP 101500Z 24004KT 9999 SCT030 31/22 Q1015;
0120832880999992009021016004-13267-043417FM-15+0443SBLP V0203601N003112200019N0112651N1+03301+02101999999ADDGA1041+009001999GF104991999999999999999999MA1101291999999REMMET051METAR SBLP 101600Z 36006KT 9999 SCT030 33/21 Q1013;
0120832880999992009021017004-13267-043417FM-15+0443SBLP V0203601N003112200019N0112651N1+03301+02001999999ADDGA1041+009001999GF104991999999999999999999MA1101191999999REMMET051METAR SBLP 101700Z 36006KT 9999 SCT030 33/20 Q1012;
0120832880999992009021018004-13267-043417FM-15+0443SBLP V0203601N003112200019N0112651N1+03401+02001999999ADDGA1041+009001999GF104991999999999999999999MA1101081999999REMMET051METAR SBLP 101800Z 36006KT 9999 SCT030 34/20 Q1011;
0120832880999992009021019004-13267-043417FM-15+0443SBLP V0209999C000012200019N0112651N1+03501+01901999999ADDGA1021+009001999GF102991999999999999999999MA1101081999999REMMET051METAR SBLP 101900Z 00000KT 9999 FEW030 35/19 Q1011;
0120832880999992009021020004-13267-043417FM-15+0443SBLP V0209999C000012200019N0112651N1+03401+01901999999ADDGA1021+009001999GF102991999999999999999999MA1101081999999REMMET051METAR SBLP 102000Z 00000KT 9999 FEW030 34/19 Q1011;
0120832880999992009021021004-13267-043417FM-15+0443SBLP V0209999C000012200019N0112651N1+03301+01901999999ADDGA1041+009001999GF104991999999999999999999MA1101081999999REMMET051METAR SBLP 102100Z 00000KT 9999 SCT030 33/19 Q1011;
0072832880999992009021110004-13267-043417FM-15+0443SBLP V0209999C00001999999CY0099001N1+02501+02101999999ADDMA1101491999999REMMET045METAR SBLP 111000Z 00000KT CAVOK 25/21 Q1015;
0072832880999992009021111004-13267-043417FM-15+0443SBLP V0209999C00001999999CY0099001N1+02501+02101999999ADDMA1101491999999REMMET045METAR SBLP 111100Z 00000KT CAVOK 25/21 Q1015;
0120832880999992009021112004-13267-043417FM-15+0443SBLP V0209999C000012200019N0112651N1+03001+02101999999ADDGA1021+009001999GF102991999999999999999999MA1101591999999REMMET051METAR SBLP 111200Z 00000KT 9999 FEW030 30/21 Q1016;
0120832880999992009021113004-13267-043417FM-15+0443SBLP V0209999C000012200019N0112651N1+03101+02101999999ADDGA1021+009001999GF102991999999999999999999MA1101591999999REMMET051METAR SBLP 111300Z 00000KT 9999 FEW030 31/21 Q1016;
0120832880999992009021114004-13267-043417FM-15+0443SBLP V0209999C000012200019N0112651N1+03101+02101999999ADDGA1021+009001999GF102991999999999999999999MA1101591999999REMMET051METAR SBLP 111400Z 00000KT 9999 FEW030 31/21 Q1016;
0120832880999992009021115004-13267-043417FM-15+0443SBLP V0209999C000012200019N0112651N1+03301+02101999999ADDGA1041+009001999GF104991999999999999999999MA1101491999999REMMET051METAR SBLP 111500Z 00000KT 9999 SCT030 33/21 Q1015;
0120832880999992009021116004-13267-043417FM-15+0443SBLP V0209999C000012200019N0112651N1+03301+02101999999ADDGA1041+009001999GF104991999999999999999999MA1101391999999REMMET051METAR SBLP 111600Z 00000KT 9999 SCT030 33/21 Q1014;
0120832880999992009021117004-13267-043417FM-15+0443SBLP V0209999C000012200019N0112651N1+03401+02001999999ADDGA1041+009001999GF104991999999999999999999MA1101291999999REMMET051METAR SBLP 111700Z 00000KT 9999 SCT030 34/20 Q1013;
0120832880999992009021118004-13267-043417FM-15+0443SBLP V0209999C000012200019N0112651N1+03501+01901999999ADDGA1041+009001999GF104991999999999999999999MA1101191999999REMMET051METAR SBLP 111800Z 00000KT 9999 SCT030 35/19 Q1012;
0120832880999992009021119004-13267-043417FM-15+0443SBLP V0209999C000012200019N0112651N1+03601+01801999999ADDGA1021+009001999GF102991999999999999999999MA1101081999999REMMET051METAR SBLP 111900Z 00000KT 9999 FEW030 36/18 Q1011;
0120832880999992009021120004-13267-043417FM-15+0443SBLP V0209999C000012200019N0112651N1+03501+01901999999ADDGA1021+009001999GF102991999999999999999999MA1101021999999REMMET051METAR SBLP 112000Z 00000KT 9999 FEW030 35/19 Q1010;
0120832880999992009021121004-13267-043417FM-15+0443SBLP V0209999C000012200019N0112651N1+03401+01901999999ADDGA1021+009001999GF102991999999999999999999MA1101021999999REMMET051METAR SBLP 112100Z 00000KT 9999 FEW030 34/19 Q1010;
0072832880999992009021210004-13267-043417FM-15+0443SBLP V0209999C00001999999CY0099001N1+02501+02101999999ADDMA1101291999999REMMET045METAR SBLP 121000Z 00000KT CAVOK 25/21 Q1013;
0072832880999992009021211004-13267-043417FM-15+0443SBLP V0209999C00001999999CY0099001N1+02801+02101999999ADDMA1101291999999REMMET045METAR SBLP 121100Z 00000KT CAVOK 28/21 Q1013;
0072832880999992009021212004-13267-043417FM-15+0443SBLP V0209999C00001999999CY0099001N1+02901+02201999999ADDMA1101391999999REMMET045METAR SBLP 121200Z 00000KT CAVOK 29/22 Q1014;
0072832880999992009021213004-13267-043417FM-15+0443SBLP V0209999C00001999999CY0099001N1+03001+02201999999ADDMA1101391999999REMMET045METAR SBLP 121300Z 00000KT CAVOK 30/22 Q1014;
0072832880999992009021214004-13267-043417FM-15+0443SBLP V0209999C00001999999CY0099001N1+03201+02201999999ADDMA1101291999999REMMET045METAR SBLP 121400Z 00000KT CAVOK 32/22 Q1013;
0120832880999992009021215004-13267-043417FM-15+0443SBLP V0209999C000012200019N0112651N1+03301+02201999999ADDGA1021+009001999GF102991999999999999999999MA1101191999999REMMET051METAR SBLP 121500Z 00000KT 9999 FEW030 33/22 Q1012;
0120832880999992009021217004-13267-043417FM-15+0443SBLP V0203401N004112200019N0112651N1+03301+02101999999ADDGA1041+009001999GF104991999999999999999999MA1101021999999REMMET051METAR SBLP 121700Z 34008KT 9999 SCT030 33/21 Q1010;
0120832880999992009021218004-13267-043417FM-15+0443SBLP V0203401N002112200019N0112651N1+03401+02001999999ADDGA1021+009001999GF102991999999999999999999MA1100811999999REMMET051METAR SBLP 121800Z 34004KT 9999 FEW030 34/20 Q1008;
0120832880999992009021219004-13267-043417FM-15+0443SBLP V0202901N002112200019N0112651N1+03401+01801999999ADDGA1021+009001999GF102991999999999999999999MA1100811999999REMMET051METAR SBLP 121900Z 29004KT 9999 FEW030 34/18 Q1008;
0120832880999992009021220004-13267-043417FM-15+0443SBLP V0209999C000012200019N0112651N1+03401+01701999999ADDGA1021+009001999GF102991999999999999999999MA1100711999999REMMET051METAR SBLP 122000Z 00000KT 9999 FEW030 34/17 Q1007;
0120832880999992009021221004-13267-043417FM-15+0443SBLP V0209999C000012200019N0112651N1+03301+01601999999ADDGA1021+009001999GF102991999999999999999999MA1100711999999REMMET051METAR SBLP 122100Z 00000KT 9999 FEW030 33/16 Q1007;
0143832880999992009021310004-13267-043417FM-15+0443SBLP V0209999C000012200019N0112651N1+02601+02101999999ADDGA1021+009001999GA2041+030001999GF104991999999999999999999MA1101021999999REMMET058METAR SBLP 131000Z 00000KT 9999 FEW030 SCT100 26/21 Q1010;
0143832880999992009021311004-13267-043417FM-15+0443SBLP V0200301N003110300019N0112651N1+02701+02101999999ADDGA1021+009001999GA2071+030001999GF107991999999999999999999MA1101081999999REMMET058METAR SBLP 131100Z 03006KT 9999 FEW030 BKN100 27/21 Q1011;
0143832880999992009021312004-13267-043417FM-15+0443SBLP V0200401N003112200019N0112651N1+02801+02101999999ADDGA1021+009001999GA2041+030001999GF104991999999999999999999MA1101081999999REMMET058METAR SBLP 131200Z 04006KT 9999 FEW030 SCT100 28/21 Q1011;
0143832880999992009021313004-13267-043417FM-15+0443SBLP V0209999C000012200019N0112651N1+03001+02101999999ADDGA1021+009001999GA2041+030001999GF104991999999999999999999MA1101081999999REMMET058METAR SBLP 131300Z 00000KT 9999 FEW030 SCT100 30/21 Q1011;
0143832880999992009021314004-13267-043417FM-15+0443SBLP V0200401N003112200019N0112651N1+03201+02101999999ADDGA1041+009001999GA2041+030001999GF104991999999999999999999MA1101081999999REMMET058METAR SBLP 131400Z 04006KT 9999 SCT030 SCT100 32/21 Q1011;
0143832880999992009021315004-13267-043417FM-15+0443SBLP V0203601N003112200019N0112651N1+03201+02101999999ADDGA1041+009001999GA2041+030001999GF104991999999999999999999MA1101021999999REMMET058METAR SBLP 131500Z 36006KT 9999 SCT030 SCT100 32/21 Q1010;
0120832880999992009021316004-13267-043417FM-15+0443SBLP V0203301N004112200019N0112651N1+03401+02101999999ADDGA1041+009001999GF104991999999999999999999MA1100911999999REMMET051METAR SBLP 131600Z 33008KT 9999 SCT030 34/21 Q1009;
0120832880999992009021317004-13267-043417FM-15+0443SBLP V0203601N004112200019N0112651N1+03301+02101999999ADDGA1041+009001999GF104991999999999999999999MA1100811999999REMMET051METAR SBLP 131700Z 36008KT 9999 SCT030 33/21 Q1008;
0120832880999992009021318004-13267-043417FM-15+0443SBLP V0203201N004112200019N0112651N1+03201+02201999999ADDGA1041+009001999GF104991999999999999999999MA1100711999999REMMET051METAR SBLP 131800Z 32008KT 9999 SCT030 32/22 Q1007;
0143832880999992009021319004-13267-043417FM-15+0443SBLP V0203501N003110300019N0112651N1+03201+02201999999ADDGA1021+009001999GA2071+030001999GF107991999999999999999999MA1100711999999REMMET058METAR SBLP 131900Z 35006KT 9999 FEW030 BKN100 32/22 Q1007;
0143832880999992009021320004-13267-043417FM-15+0443SBLP V0202901N003110300019N0112651N1+03101+02301999999ADDGA1021+009001999GA2071+030001999GF107991999999999999999999MA1100711999999REMMET058METAR SBLP 132000Z 29006KT 9999 FEW030 BKN100 31/23 Q1007;
0120832880999992009021321004-13267-043417FM-15+0443SBLP V0203001N001512200019N0112651N1+02901+02201999999ADDGA1021+009001999GF102991999999999999999999MA1100711999999REMMET051METAR SBLP 132100Z 30003KT 9999 FEW030 29/22 Q1007;
0178832880999992009021410004-13267-043417FM-15+0443SBLP V0202101N00311030001CN0060001N1+02101+02001999999ADDGA1021+009001091GA2071+009001999GA3081+030001999GF108991999999999999999999MA1101291999999MW1611REMMET071METAR SBLP 141000Z 21006KT 6000 -RA BKN030 FEW030CB OVC100 21/20 Q1013;
0158832880999992009021411004-13267-043417FM-15+0443SBLP V0202101N002110090019N0070001N1+02201+02101999999ADDGA1071+009001999GA2081+030001999GF108991999999999999999999MA1101291999999MW1611REMMET067METAR SBLP 141100Z 21004KT 7000 -RA BKN030 OVC100 22/21 Q1013 RETS;
0153832880999992009021412004-13267-043417FM-15+0443SBLP V0201801N002110060019N0080001N1+02201+02101999999ADDGA1071+006001999GA2081+030001999GF108991999999999999999999MA1101391999999MW1611REMMET062METAR SBLP 141200Z 18004KT 8000 -RA BKN020 OVC100 22/21 Q1014;
0148832880999992009021413004-13267-043417FM-15+0443SBLP V0209999C000010300019N0112651N1+02201+02201999999ADDGA1041+006001999GA2071+030001999GF107991999999999999999999MA1101391999999REMMET063METAR SBLP 141300Z 00000KT 9999 SCT020 BKN100 22/22 Q1014 RERA;
0143832880999992009021414004-13267-043417FM-15+0443SBLP V0209999C000010300019N0112651N1+02401+02201999999ADDGA1021+009001999GA2071+030001999GF107991999999999999999999MA1101391999999REMMET058METAR SBLP 141400Z 00000KT 9999 FEW030 BKN100 24/22 Q1014;
0143832880999992009021415004-13267-043417FM-15+0443SBLP V0209999C000010300019N0112651N1+02601+02201999999ADDGA1021+009001999GA2071+030001999GF107991999999999999999999MA1101291999999REMMET058METAR SBLP 141500Z 00000KT 9999 FEW030 BKN100 26/22 Q1013;
0143832880999992009021416004-13267-043417FM-15+0443SBLP V0209999C000010300019N0112651N1+02701+02101999999ADDGA1041+009001999GA2071+030001999GF107991999999999999999999MA1101191999999REMMET058METAR SBLP 141600Z 00000KT 9999 SCT030 BKN100 27/21 Q1012;
0143832880999992009021417004-13267-043417FM-15+0443SBLP V0209999C000012200019N0112651N1+02801+02101999999ADDGA1041+009001999GA2041+030001999GF104991999999999999999999MA1101081999999REMMET058METAR SBLP 141700Z 00000KT 9999 SCT030 SCT100 28/21 Q1011;
0143832880999992009021418004-13267-043417FM-15+0443SBLP V0209999C000012200019N0112651N1+03001+02101999999ADDGA1041+009001999GA2041+030001999GF104991999999999999999999MA1101021999999REMMET058METAR SBLP 141800Z 00000KT 9999 SCT030 SCT100 30/21 Q1010;
0143832880999992009021419004-13267-043417FM-15+0443SBLP V0209999C000012200019N0112651N1+03001+02101999999ADDGA1041+009001999GA2041+030001999GF104991999999999999999999MA1101021999999REMMET058METAR SBLP 141900Z 00000KT 9999 SCT030 SCT100 30/21 Q1010;
0143832880999992009021420004-13267-043417FM-15+0443SBLP V0209999C000012200019N0112651N1+02901+02101999999ADDGA1041+009001999GA2041+030001999GF104991999999999999999999MA1101021999999REMMET058METAR SBLP 142000Z 00000KT 9999 SCT030 SCT100 29/21 Q1010;
0143832880999992009021421004-13267-043417FM-15+0443SBLP V0209999C000010300019N0112651N1+02801+02101999999ADDGA1041+009001999GA2071+030001999GF107991999999999999999999MA1101021999999REMMET058METAR SBLP 142100Z 00000KT 9999 SCT030 BKN100 28/21 Q1010;
0143832880999992009021510004-13267-043417FM-15+0443SBLP V0201801N003112200019N0112651N1+02201+02101999999ADDGA1021+009001999GA2041+030001999GF104991999999999999999999MA1101291999999REMMET058METAR SBLP 151000Z 18006KT 9999 FEW030 SCT100 22/21 Q1013;
0120832880999992009021511004-13267-043417FM-15+0443SBLP V0201601N003112200019N0112651N1+02301+02101999999ADDGA1041+009001999GF104991999999999999999999MA1101391999999REMMET051METAR SBLP 151100Z 16006KT 9999 SCT030 23/21 Q1014;
0120832880999992009021512004-13267-043417FM-15+0443SBLP V0201801N003112200019N0112651N1+02601+02201999999ADDGA1041+009001999GF104991999999999999999999MA1101391999999REMMET051METAR SBLP 151200Z 18006KT 9999 SCT030 26/22 Q1014;
0120832880999992009021513004-13267-043417FM-15+0443SBLP V0201801N002112200019N0112651N1+02701+02201999999ADDGA1041+009001999GF104991999999999999999999MA1101391999999REMMET051METAR SBLP 151300Z 18004KT 9999 SCT030 27/22 Q1014;
0120832880999992009021514004-13267-043417FM-15+0443SBLP V0202401N003112200019N0112651N1+02801+02201999999ADDGA1041+009001999GF104991999999999999999999MA1101391999999REMMET051METAR SBLP 151400Z 24006KT 9999 SCT030 28/22 Q1014;
0120832880999992009021515004-13267-043417FM-15+0443SBLP V0202401N003112200019N0112651N1+02901+02201999999ADDGA1041+009001999GF104991999999999999999999MA1101291999999REMMET051METAR SBLP 151500Z 24006KT 9999 SCT030 29/22 Q1013;
0120832880999992009021516004-13267-043417FM-15+0443SBLP V0202701N003112200019N0112651N1+03001+02101999999ADDGA1041+009001999GF104991999999999999999999MA1101191999999REMMET051METAR SBLP 151600Z 27006KT 9999 SCT030 30/21 Q1012;
0120832880999992009021517004-13267-043417FM-15+0443SBLP V0202701N003112200019N0112651N1+03201+02001999999ADDGA1041+009001999GF104991999999999999999999MA1101081999999REMMET051METAR SBLP 151700Z 27006KT 9999 SCT030 32/20 Q1011;
0120832880999992009021518004-13267-043417FM-15+0443SBLP V0209999C000012200019N0112651N1+03401+01901999999ADDGA1041+009001999GF104991999999999999999999MA1101021999999REMMET051METAR SBLP 151800Z 00000KT 9999 SCT030 34/19 Q1010;
0120832880999992009021519004-13267-043417FM-15+0443SBLP V0209999C000010090019N0112651N1+03401+01701999999ADDGA1071+009001999GF107991999999999999999999MA1100911999999REMMET051METAR SBLP 151900Z 00000KT 9999 BKN030 34/17 Q1009;
0120832880999992009021520004-13267-043417FM-15+0443SBLP V0201801N003110090019N0112651N1+03301+01901999999ADDGA1071+009001999GF107991999999999999999999MA1100911999999REMMET051METAR SBLP 152000Z 18006KT 9999 BKN030 33/19 Q1009;
0120832880999992009021521004-13267-043417FM-15+0443SBLP V0201801N003112200019N0112651N1+03101+02001999999ADDGA1041+009001999GF104991999999999999999999MA1101021999999REMMET051METAR SBLP 152100Z 18006KT 9999 SCT030 31/20 Q1010;
0072832880999992009021610004-13267-043417FM-15+0443SBLP V0209999C00001999999CY0099001N1+02401+02001999999ADDMA1101191999999REMMET045METAR SBLP 161000Z 00000KT CAVOK 24/20 Q1012;
0072832880999992009021611004-13267-043417FM-15+0443SBLP V0209999C00001999999CY0099001N1+02501+02001999999ADDMA1101291999999REMMET045METAR SBLP 161100Z 00000KT CAVOK 25/20 Q1013;
0072832880999992009021612004-13267-043417FM-15+0443SBLP V0209999C00001999999CY0099001N1+02801+02001999999ADDMA1101391999999REMMET045METAR SBLP 161200Z 00000KT CAVOK 28/20 Q1014;
0120832880999992009021613004-13267-043417FM-15+0443SBLP V0209999C000012200019N0112651N1+02901+02001999999ADDGA1021+009001999GF102991999999999999999999MA1101391999999REMMET051METAR SBLP 161300Z 00000KT 9999 FEW030 29/20 Q1014;
0120832880999992009021614004-13267-043417FM-15+0443SBLP V0209999C000012200019N0112651N1+03101+01901999999ADDGA1021+009001999GF102991999999999999999999MA1101391999999REMMET051METAR SBLP 161400Z 00000KT 9999 FEW030 31/19 Q1014;
0120832880999992009021615004-13267-043417FM-15+0443SBLP V0209999C000012200019N0112651N1+03201+01901999999ADDGA1041+009001999GF104991999999999999999999MA1101291999999REMMET051METAR SBLP 161500Z 00000KT 9999 SCT030 32/19 Q1013;
0120832880999992009021616004-13267-043417FM-15+0443SBLP V0202701N002112200019N0112651N1+03101+01801999999ADDGA1041+009001999GF104991999999999999999999MA1101291999999REMMET051METAR SBLP 161600Z 27004KT 9999 SCT030 31/18 Q1013;
0120832880999992009021617004-13267-043417FM-15+0443SBLP V0202301N002612200019N0112651N1+03201+01801999999ADDGA1041+009001999GF104991999999999999999999MA1101191999999REMMET051METAR SBLP 161700Z 23005KT 9999 SCT030 32/18 Q1012;
0120832880999992009021618004-13267-043417FM-15+0443SBLP V0202001N002112200019N0112651N1+03301+01901999999ADDGA1041+009001999GF104991999999999999999999MA1101081999999REMMET051METAR SBLP 161800Z 20004KT 9999 SCT030 33/19 Q1011;
0120832880999992009021619004-13267-043417FM-15+0443SBLP V0202101N002612200019N0112651N1+03301+01901999999ADDGA1021+009001999GF102991999999999999999999MA1101021999999REMMET051METAR SBLP 161900Z 21005KT 9999 FEW030 33/19 Q1010;
0120832880999992009021620004-13267-043417FM-15+0443SBLP V0202301N002112200019N0112651N1+03301+01901999999ADDGA1021+009001999GF102991999999999999999999MA1101021999999REMMET051METAR SBLP 162000Z 23004KT 9999 FEW030 33/19 Q1010;
0120832880999992009021621004-13267-043417FM-15+0443SBLP V0202401N002112200019N0112651N1+03101+02001999999ADDGA1021+009001999GF102991999999999999999999MA1101021999999REMMET051METAR SBLP 162100Z 24004KT 9999 FEW030 31/20 Q1010;
0072832880999992009021710004-13267-043417FM-15+0443SBLP V0209999C00001999999CY0099001N1+02201+02001999999ADDMA1101391999999REMMET045METAR SBLP 171000Z 00000KT CAVOK 22/20 Q1014;
0072832880999992009021711004-13267-043417FM-15+0443SBLP V0209999C00001999999CY0099001N1+02201+02001999999ADDMA1101391999999REMMET045METAR SBLP 171100Z 00000KT CAVOK 22/20 Q1014;
0072832880999992009021712004-13267-043417FM-15+0443SBLP V0209999C00001999999CY0099001N1+02801+02001999999ADDMA1101491999999REMMET045METAR SBLP 171200Z 00000KT CAVOK 28/20 Q1015;
0072832880999992009021713004-13267-043417FM-15+0443SBLP V0209999C00001999999CY0099001N1+03001+02001999999ADDMA1101491999999REMMET045METAR SBLP 171300Z 00000KT CAVOK 30/20 Q1015;
0072832880999992009021714004-13267-043417FM-15+0443SBLP V0209999C00001999999CY0099001N1+03001+02101999999ADDMA1101491999999REMMET045METAR SBLP 171400Z 00000KT CAVOK 30/21 Q1015;
0072832880999992009021715004-13267-043417FM-15+0443SBLP V0209999C00001999999CY0099001N1+03101+02101999999ADDMA1101391999999REMMET045METAR SBLP 171500Z 00000KT CAVOK 31/21 Q1014;
0120832880999992009021716004-13267-043417FM-15+0443SBLP V0202101N003112200019N0112651N1+03301+02101999999ADDGA1021+009001999GF102991999999999999999999MA1101291999999REMMET051METAR SBLP 171600Z 21006KT 9999 FEW030 33/21 Q1013;
0120832880999992009021717004-13267-043417FM-15+0443SBLP V0202301N003112200019N0112651N1+03301+01801999999ADDGA1021+009001999GF102991999999999999999999MA1101191999999REMMET051METAR SBLP 171700Z 23006KT 9999 FEW030 33/18 Q1012;
0120832880999992009021718004-13267-043417FM-15+0443SBLP V0201801N004112200019N0112651N1+03401+01801999999ADDGA1021+009001999GF102991999999999999999999MA1101081999999REMMET051METAR SBLP 171800Z 18008KT 9999 FEW030 34/18 Q1011;
0120832880999992009021719004-13267-043417FM-15+0443SBLP V0201901N003112200019N0112651N1+03401+01901999999ADDGA1021+009001999GF102991999999999999999999MA1101021999999REMMET051METAR SBLP 171900Z 19006KT 9999 FEW030 34/19 Q1010;
0120832880999992009021720004-13267-043417FM-15+0443SBLP V0201801N002612200019N0112651N1+03301+01701999999ADDGA1021+009001999GF102991999999999999999999MA1101021999999REMMET051METAR SBLP 172000Z 18005KT 9999 FEW030 33/17 Q1010;
0120832880999992009021721004-13267-043417FM-15+0443SBLP V0202001N002612200019N0112651N1+03201+02001999999ADDGA1021+009001999GF102991999999999999999999MA1101021999999REMMET051METAR SBLP 172100Z 20005KT 9999 FEW030 32/20 Q1010;
0072832880999992009021810004-13267-043417FM-15+0443SBLP V0209999C00001999999CY0099001N1+02301+01901999999ADDMA1101391999999REMMET045METAR SBLP 181000Z 00000KT CAVOK 23/19 Q1014;
0072832880999992009021811004-13267-043417FM-15+0443SBLP V0209999C00001999999CY0099001N1+02701+01901999999ADDMA1101491999999REMMET045METAR SBLP 181100Z 00000KT CAVOK 27/19 Q1015;
0120832880999992009021812004-13267-043417FM-15+0443SBLP V0202001N002112200019N0112651N1+03001+01701999999ADDGA1021+009001999GF102991999999999999999999MA1101491999999REMMET051METAR SBLP 181200Z 20004KT 9999 FEW030 30/17 Q1015;
0120832880999992009021813004-13267-043417FM-15+0443SBLP V0202001N002112200019N0112651N1+03001+01901999999ADDGA1021+009001999GF102991999999999999999999MA1101491999999REMMET051METAR SBLP 181300Z 20004KT 9999 FEW030 30/19 Q1015;
0120832880999992009021814004-13267-043417FM-15+0443SBLP V0201501N002612200019N0112651N1+03101+01901999999ADDGA1041+009001999GF104991999999999999999999MA1101491999999REMMET051METAR SBLP 181400Z 15005KT 9999 SCT030 31/19 Q1015;
0120832880999992009021816004-13267-043417FM-15+0443SBLP V0209999C000012200019N0112651N1+03201+01901999999ADDGA1041+009001999GF104991999999999999999999MA1101291999999REMMET051METAR SBLP 181600Z 00000KT 9999 SCT030 32/19 Q1013;
0120832880999992009021817004-13267-043417FM-15+0443SBLP V0209999C000012200019N0112651N1+03201+01901999999ADDGA1041+009001999GF104991999999999999999999MA1101191999999REMMET051METAR SBLP 181700Z 00000KT 9999 SCT030 32/19 Q1012;
0120832880999992009021818004-13267-043417FM-15+0443SBLP V0202401N003112200019N0112651N1+03301+01901999999ADDGA1041+009001999GF104991999999999999999999MA1101081999999REMMET051METAR SBLP 181800Z 24006KT 9999 SCT030 33/19 Q1011;
0120832880999992009021819004-13267-043417FM-15+0443SBLP V0201801N003112200019N0112651N1+03301+01901999999ADDGA1041+009001999GF104991999999999999999999MA1101021999999REMMET051METAR SBLP 181900Z 18006KT 9999 SCT030 33/19 Q1010;
0120832880999992009021820004-13267-043417FM-15+0443SBLP V0209999C000012200019N0112651N1+03401+01901999999ADDGA1041+009001999GF104991999999999999999999MA1101021999999REMMET051METAR SBLP 182000Z 00000KT 9999 SCT030 34/19 Q1010;
0120832880999992009021821004-13267-043417FM-15+0443SBLP V0209999C000012200019N0112651N1+03201+01901999999ADDGA1041+009001999GF104991999999999999999999MA1101021999999REMMET051METAR SBLP 182100Z 00000KT 9999 SCT030 32/19 Q1010;
0072832880999992009021910004-13267-043417FM-15+0443SBLP V0201601N00311999999CY0099001N1+02201+02001999999ADDMA1101391999999REMMET045METAR SBLP 191000Z 16006KT CAVOK 22/20 Q1014;
0072832880999992009021911004-13267-043417FM-15+0443SBLP V0201601N00311999999CY0099001N1+02501+02001999999ADDMA1101491999999REMMET045METAR SBLP 191100Z 16006KT CAVOK 25/20 Q1015;
0072832880999992009021912004-13267-043417FM-15+0443SBLP V0209999C00001999999CY0099001N1+02801+02101999999ADDMA1101591999999REMMET045METAR SBLP 191200Z 00000KT CAVOK 28/21 Q1016;
0143832880999992009021913004-13267-043417FM-15+0443SBLP V0209999C000010300019N0112651N1+02801+02001999999ADDGA1041+009001999GA2071+030001999GF107991999999999999999999MA1101591999999REMMET058METAR SBLP 191300Z 00000KT 9999 SCT030 BKN100 28/20 Q1016;
0143832880999992009021914004-13267-043417FM-15+0443SBLP V0209999C000010300019N0112651N1+03001+02001999999ADDGA1041+009001999GA2071+030001999GF107991999999999999999999MA1101591999999REMMET058METAR SBLP 191400Z 00000KT 9999 SCT030 BKN100 30/20 Q1016;
0143832880999992009021915004-13267-043417FM-15+0443SBLP V0209999C000012200019N0112651N1+03001+02101999999ADDGA1041+009001999GA2041+030001999GF104991999999999999999999MA1101491999999REMMET058METAR SBLP 191500Z 00000KT 9999 SCT030 SCT100 30/21 Q1015;
0143832880999992009021916004-13267-043417FM-15+0443SBLP V0209999C000012200019N0112651N1+03101+02001999999ADDGA1041+009001999GA2041+030001999GF104991999999999999999999MA1101391999999REMMET058METAR SBLP 191600Z 00000KT 9999 SCT030 SCT100 31/20 Q1014;
0120832880999992009021917004-13267-043417FM-15+0443SBLP V0209999C000012200019N0112651N1+03101+02001999999ADDGA1041+009001999GF104991999999999999999999MA1101291999999REMMET051METAR SBLP 191700Z 00000KT 9999 SCT030 31/20 Q1013;
0120832880999992009021918004-13267-043417FM-15+0443SBLP V0209999C000012200019N0112651N1+03301+01901999999ADDGA1041+009001999GF104991999999999999999999MA1101191999999REMMET051METAR SBLP 191800Z 00000KT 9999 SCT030 33/19 Q1012;
0120832880999992009021919004-13267-043417FM-15+0443SBLP V0209999C000012200019N0112651N1+03301+01801999999ADDGA1041+009001999GF104991999999999999999999MA1101191999999REMMET051METAR SBLP 191900Z 00000KT 9999 SCT030 33/18 Q1012;
0120832880999992009021920004-13267-043417FM-15+0443SBLP V0209999C000012200019N0112651N1+03201+01901999999ADDGA1041+009001999GF104991999999999999999999MA1101081999999REMMET051METAR SBLP 192000Z 00000KT 9999 SCT030 32/19 Q1011;
0120832880999992009021921004-13267-043417FM-15+0443SBLP V0209999C000012200019N0112651N1+03001+01901999999ADDGA1041+009001999GF104991999999999999999999MA1101081999999REMMET051METAR SBLP 192100Z 00000KT 9999 SCT030 30/19 Q1011;
0072832880999992009022010004-13267-043417FM-15+0443SBLP V0209999C00001999999CY0099001N1+02401+02001999999ADDMA1101191999999REMMET045METAR SBLP 201000Z 00000KT CAVOK 24/20 Q1012;
0072832880999992009022011004-13267-043417FM-15+0443SBLP V0209999C00001999999CY0099001N1+02701+02001999999ADDMA1101291999999REMMET045METAR SBLP 201100Z 00000KT CAVOK 27/20 Q1013;
0072832880999992009022012004-13267-043417FM-15+0443SBLP V0209999C00001999999CY0099001N1+02801+02001999999ADDMA1101391999999REMMET045METAR SBLP 201200Z 00000KT CAVOK 28/20 Q1014;
0120832880999992009022013004-13267-043417FM-15+0443SBLP V0201801N003112200019N0112651N1+02901+02001999999ADDGA1021+009001999GF102991999999999999999999MA1101391999999REMMET051METAR SBLP 201300Z 18006KT 9999 FEW030 29/20 Q1014;
0120832880999992009022014004-13267-043417FM-15+0443SBLP V0201801N003112200019N0112651N1+03101+01901999999ADDGA1021+009001999GF102991999999999999999999MA1101291999999REMMET051METAR SBLP 201400Z 18006KT 9999 FEW030 31/19 Q1013;
0120832880999992009022015004-13267-043417FM-15+0443SBLP V0201801N003112200019N0112651N1+03201+01801999999ADDGA1021+009001999GF102991999999999999999999MA1101191999999REMMET051METAR SBLP 201500Z 18006KT 9999 FEW030 32/18 Q1012;
0120832880999992009022016004-13267-043417FM-15+0443SBLP V0201501N002112200019N0112651N1+03201+01801999999ADDGA1021+009001999GF102991999999999999999999MA1101081999999REMMET051METAR SBLP 201600Z 15004KT 9999 FEW030 32/18 Q1011;
0120832880999992009022017004-13267-043417FM-15+0443SBLP V0201501N003112200019N0112651N1+03301+01801999999ADDGA1021+009001999GF102991999999999999999999MA1101021999999REMMET051METAR SBLP 201700Z 15006KT 9999 FEW030 33/18 Q1010;
0120832880999992009022018004-13267-043417FM-15+0443SBLP V0202101N003112200019N0112651N1+03401+01601999999ADDGA1021+009001999GF102991999999999999999999MA1100911999999REMMET051METAR SBLP 201800Z 21006KT 9999 FEW030 34/16 Q1009;
0120832880999992009022019004-13267-043417FM-15+0443SBLP V0202301N002112200019N0112651N1+03401+01901999999ADDGA1041+009001999GF104991999999999999999999MA1100911999999REMMET051METAR SBLP 201900Z 23004KT 9999 SCT030 34/19 Q1009;
0120832880999992009022020004-13267-043417FM-15+0443SBLP V0202101N002612200019N0112651N1+03301+01901999999ADDGA1041+009001999GF104991999999999999999999MA1100911999999REMMET051METAR SBLP 202000Z 21005KT 9999 SCT030 33/19 Q1009;
0120832880999992009022021004-13267-043417FM-15+0443SBLP V0201801N002612200019N0112651N1+03101+02001999999ADDGA1021+009001999GF102991999999999999999999MA1100911999999REMMET051METAR SBLP 202100Z 18005KT 9999 FEW030 31/20 Q1009;
0072832880999992009022110004-13267-043417FM-15+0443SBLP V0201701N00211999999CY0099001N1+02401+02101999999ADDMA1101291999999REMMET045METAR SBLP 211000Z 17004KT CAVOK 24/21 Q1013;
0072832880999992009022111004-13267-043417FM-15+0443SBLP V0209999C00001999999CY0099001N1+02701+01901999999ADDMA1101291999999REMMET045METAR SBLP 211100Z 00000KT CAVOK 27/19 Q1013;
0072832880999992009022112004-13267-043417FM-15+0443SBLP V0200901N00261999999CY0099001N1+02901+01801999999ADDMA1101291999999REMMET045METAR SBLP 211200Z 09005KT CAVOK 29/18 Q1013;
0072832880999992009022113004-13267-043417FM-15+0443SBLP V0200701N00211999999CY0099001N1+03101+01801999999ADDMA1101291999999REMMET045METAR SBLP 211300Z 07004KT CAVOK 31/18 Q1013;
0120832880999992009022114004-13267-043417FM-15+0443SBLP V0209999C000012200019N0112651N1+03201+01801999999ADDGA1021+009001999GF102991999999999999999999MA1101291999999REMMET051METAR SBLP 211400Z 00000KT 9999 FEW030 32/18 Q1013;
0120832880999992009022115004-13267-043417FM-15+0443SBLP V0202501N002112200019N0112651N1+03201+01901999999ADDGA1021+009001999GF102991999999999999999999MA1101191999999REMMET051METAR SBLP 211500Z 25004KT 9999 FEW030 32/19 Q1012;
0120832880999992009022116004-13267-043417FM-15+0443SBLP V0209999C000012200019N0112651N1+03201+01901999999ADDGA1021+009001999GF102991999999999999999999MA1101081999999REMMET051METAR SBLP 211600Z 00000KT 9999 FEW030 32/19 Q1011;
0120832880999992009022117004-13267-043417FM-15+0443SBLP V0209999C000012200019N0112651N1+03301+02001999999ADDGA1021+009001999GF102991999999999999999999MA1101021999999REMMET051METAR SBLP 211700Z 00000KT 9999 FEW030 33/20 Q1010;
0120832880999992009022118004-13267-043417FM-15+0443SBLP V0202001N003112200019N0112651N1+03401+02001999999ADDGA1041+009001999GF104991999999999999999999MA1100911999999REMMET051METAR SBLP 211800Z 20006KT 9999 SCT030 34/20 Q1009;
0120832880999992009022119004-13267-043417FM-15+0443SBLP V0209999C000012200019N0112651N1+03501+02001999999ADDGA1021+009001999GF102991999999999999999999MA1100811999999REMMET051METAR SBLP 211900Z 00000KT 9999 FEW030 35/20 Q1008;
0120832880999992009022120004-13267-043417FM-15+0443SBLP V0209999C000012200019N0112651N1+03401+02001999999ADDGA1041+009001999GF104991999999999999999999MA1100811999999REMMET051METAR SBLP 212000Z 00000KT 9999 SCT030 34/20 Q1008;
0120832880999992009022121004-13267-043417FM-15+0443SBLP V0209999C000012200019N0112651N1+03401+02001999999ADDGA1041+009001999GF104991999999999999999999MA1100811999999REMMET051METAR SBLP 212100Z 00000KT 9999 SCT030 34/20 Q1008;
0072832880999992009022210004-13267-043417FM-15+0443SBLP V0201701N00151999999CY0099001N1+02501+02101999999ADDMA1101391999999REMMET045METAR SBLP 221000Z 17003KT CAVOK 25/21 Q1014;
0072832880999992009022211004-13267-043417FM-15+0443SBLP V0201701N00211999999CY0099001N1+02901+01901999999ADDMA1101391999999REMMET045METAR SBLP 221100Z 17004KT CAVOK 29/19 Q1014;
0072832880999992009022212004-13267-043417FM-15+0443SBLP V0200601N00261999999CY0099001N1+02601+01401999999ADDMA1101491999999REMMET045METAR SBLP 221200Z 06005KT CAVOK 26/14 Q1015;
0072832880999992009022213004-13267-043417FM-15+0443SBLP V0200301N00211999999CY0099001N1+03001+01601999999ADDMA1101491999999REMMET045METAR SBLP 221300Z 03004KT CAVOK 30/16 Q1015;
0120832880999992009022214004-13267-043417FM-15+0443SBLP V0209999C000012200019N0112651N1+03101+01701999999ADDGA1021+009001999GF102991999999999999999999MA1101491999999REMMET051METAR SBLP 221400Z 00000KT 9999 FEW030 31/17 Q1015;
0120832880999992009022215004-13267-043417FM-15+0443SBLP V0202101N002112200019N0112651N1+03401+01801999999ADDGA1021+009001999GF102991999999999999999999MA1101391999999REMMET051METAR SBLP 221500Z 21004KT 9999 FEW030 34/18 Q1014;
0120832880999992009022216004-13267-043417FM-15+0443SBLP V0202201N003112200019N0112651N1+03401+01801999999ADDGA1021+009001999GF102991999999999999999999MA1101291999999REMMET051METAR SBLP 221600Z 22006KT 9999 FEW030 34/18 Q1013;
0120832880999992009022217004-13267-043417FM-15+0443SBLP V0202601N003112200019N0112651N1+03501+02001999999ADDGA1041+009001999GF104991999999999999999999MA1101081999999REMMET051METAR SBLP 221700Z 26006KT 9999 SCT030 35/20 Q1011;
0120832880999992009022218004-13267-043417FM-15+0443SBLP V0209999C000012200019N0112651N1+03501+02001999999ADDGA1041+009001999GF104991999999999999999999MA1101081999999REMMET051METAR SBLP 221800Z 00000KT 9999 SCT030 35/20 Q1011;
0143832880999992009022219004-13267-043417FM-15+0443SBLP V0209999C000012200019N0112651N1+03101+02201999999ADDGA1041+009001999GA2041+030001999GF104991999999999999999999MA1101021999999REMMET058METAR SBLP 221900Z 00000KT 9999 SCT030 SCT100 31/22 Q1010;
0143832880999992009022220004-13267-043417FM-15+0443SBLP V0209999C000012200019N0112651N1+03101+02201999999ADDGA1021+009001999GA2041+030001999GF104991999999999999999999MA1101021999999REMMET058METAR SBLP 222000Z 00000KT 9999 FEW030 SCT100 31/22 Q1010;
0143832880999992009022221004-13267-043417FM-15+0443SBLP V0209999C000012200019N0112651N1+03001+02201999999ADDGA1021+009001999GA2041+030001999GF104991999999999999999999MA1101021999999REMMET058METAR SBLP 222100Z 00000KT 9999 FEW030 SCT100 30/22 Q1010;
0072832880999992009022310004-13267-043417FM-15+0443SBLP V0209999C00001999999CY0099001N1+02201+02001999999ADDMA1101391999999REMMET045METAR SBLP 231000Z 00000KT CAVOK 22/20 Q1014;
0072832880999992009022311004-13267-043417FM-15+0443SBLP V0209999C00001999999CY0099001N1+02501+01901999999ADDMA1101491999999REMMET045METAR SBLP 231100Z 00000KT CAVOK 25/19 Q1015;
0072832880999992009022312004-13267-043417FM-15+0443SBLP V0209999C00001999999CY0099001N1+02901+01901999999ADDMA1101591999999REMMET045METAR SBLP 231200Z 00000KT CAVOK 29/19 Q1016;
0143832880999992009022313004-13267-043417FM-15+0443SBLP V0209999C000012200019N0112651N1+03101+01901999999ADDGA1021+009001999GA2041+090001999GF104991999999999999999999MA1101591999999REMMET058METAR SBLP 231300Z 00000KT 9999 FEW030 SCT300 31/19 Q1016;
0143832880999992009022314004-13267-043417FM-15+0443SBLP V0209999C000012200019N0112651N1+03101+01901999999ADDGA1021+009001999GA2041+090001999GF104991999999999999999999MA1101491999999REMMET058METAR SBLP 231400Z 00000KT 9999 FEW030 SCT300 31/19 Q1015;
0143832880999992009022315004-13267-043417FM-15+0443SBLP V0209999C000012200019N0112651N1+03201+02001999999ADDGA1021+009001999GA2041+090001999GF104991999999999999999999MA1101391999999REMMET058METAR SBLP 231500Z 00000KT 9999 FEW030 SCT300 32/20 Q1014;
0143832880999992009022316004-13267-043417FM-15+0443SBLP V0209999C000012200019N0112651N1+03301+02001999999ADDGA1041+009001999GA2041+090001999GF104991999999999999999999MA1101291999999REMMET058METAR SBLP 231600Z 00000KT 9999 SCT030 SCT300 33/20 Q1013;
0120832880999992009022317004-13267-043417FM-15+0443SBLP V0209999C000012200019N0112651N1+03401+01901999999ADDGA1041+009001999GF104991999999999999999999MA1101191999999REMMET051METAR SBLP 231700Z 00000KT 9999 SCT030 34/19 Q1012;
0120832880999992009022318004-13267-043417FM-15+0443SBLP V0209999C000012200019N0112651N1+03501+01901999999ADDGA1041+009001999GF104991999999999999999999MA1101081999999REMMET051METAR SBLP 231800Z 00000KT 9999 SCT030 35/19 Q1011;
0120832880999992009022319004-13267-043417FM-15+0443SBLP V0209999C000012200019N0112651N1+03401+02001999999ADDGA1041+009001999GF104991999999999999999999MA1101021999999REMMET051METAR SBLP 231900Z 00000KT 9999 SCT030 34/20 Q1010;
0120832880999992009022320004-13267-043417FM-15+0443SBLP V0209999C000012200019N0112651N1+03301+02001999999ADDGA1041+009001999GF104991999999999999999999MA1100911999999REMMET051METAR SBLP 232000Z 00000KT 9999 SCT030 33/20 Q1009;
0120832880999992009022321004-13267-043417FM-15+0443SBLP V0209999C000012200019N0112651N1+03201+02001999999ADDGA1041+009001999GF104991999999999999999999MA1101021999999REMMET051METAR SBLP 232100Z 00000KT 9999 SCT030 32/20 Q1010;
0072832880999992009022410004-13267-043417FM-15+0443SBLP V0209999C00001999999CY0099001N1+02301+02101999999ADDMA1101391999999REMMET045METAR SBLP 241000Z 00000KT CAVOK 23/21 Q1014;
0072832880999992009022411004-13267-043417FM-15+0443SBLP V0209999C00001999999CY0099001N1+02501+02201999999ADDMA1101391999999REMMET045METAR SBLP 241100Z 00000KT CAVOK 25/22 Q1014;
0120832880999992009022412004-13267-043417FM-15+0443SBLP V0209999C000012200019N0112651N1+02801+02101999999ADDGA1021+009001999GF102991999999999999999999MA1101491999999REMMET051METAR SBLP 241200Z 00000KT 9999 FEW030 28/21 Q1015;
0120832880999992009022413004-13267-043417FM-15+0443SBLP V0200401N003112200019N0112651N1+02901+02001999999ADDGA1021+009001999GF102991999999999999999999MA1101491999999REMMET051METAR SBLP 241300Z 04006KT 9999 FEW030 29/20 Q1015;
0120832880999992009022415004-13267-043417FM-15+0443SBLP V0209999C000012200019N0112651N1+03001+02101999999ADDGA1041+009001999GF104991999999999999999999MA1101291999999REMMET051METAR SBLP 241500Z 00000KT 9999 SCT030 30/21 Q1013;
0120832880999992009022417004-13267-043417FM-15+0443SBLP V0209999C000012200019N0112651N1+03201+02001999999ADDGA1041+009001999GF104991999999999999999999MA1101021999999REMMET051METAR SBLP 241700Z 00000KT 9999 SCT030 32/20 Q1010;
0120832880999992009022418004-13267-043417FM-15+0443SBLP V0209999C000012200019N0112651N1+03401+01901999999ADDGA1041+009001999GF104991999999999999999999MA1100911999999REMMET051METAR SBLP 241800Z 00000KT 9999 SCT030 34/19 Q1009;
0120832880999992009022419004-13267-043417FM-15+0443SBLP V0209999C000012200019N0112651N1+03401+01901999999ADDGA1041+009001999GF104991999999999999999999MA1100811999999REMMET051METAR SBLP 241900Z 00000KT 9999 SCT030 34/19 Q1008;
0120832880999992009022420004-13267-043417FM-15+0443SBLP V0209999C000012200019N0112651N1+03301+01901999999ADDGA1041+009001999GF104991999999999999999999MA1100811999999REMMET051METAR SBLP 242000Z 00000KT 9999 SCT030 33/19 Q1008;
0120832880999992009022421004-13267-043417FM-15+0443SBLP V0209999C000012200019N0112651N1+03301+01901999999ADDGA1041+009001999GF104991999999999999999999MA1100911999999REMMET051METAR SBLP 242100Z 00000KT 9999 SCT030 33/19 Q1009;
0072832880999992009022509004-13267-043417FM-15+0443SBLP V0209999C00001999999CY0099001N1+02201+02101999999ADDMA1101291999999REMMET045METAR SBLP 250900Z 00000KT CAVOK 22/21 Q1013;
0072832880999992009022510004-13267-043417FM-15+0443SBLP V0209999C00001999999CY0099001N1+02301+02101999999ADDMA1101391999999REMMET045METAR SBLP 251000Z 00000KT CAVOK 23/21 Q1014;
0072832880999992009022511004-13267-043417FM-15+0443SBLP V0209999C00001999999CY0099001N1+02601+02101999999ADDMA1101491999999REMMET045METAR SBLP 251100Z 00000KT CAVOK 26/21 Q1015;
0072832880999992009022512004-13267-043417FM-15+0443SBLP V0209999C00001999999CY0099001N1+02801+02001999999ADDMA1101491999999REMMET045METAR SBLP 251200Z 00000KT CAVOK 28/20 Q1015;
0120832880999992009022513004-13267-043417FM-15+0443SBLP V0209999C000012200019N0112651N1+02901+02001999999ADDGA1021+009001999GF102991999999999999999999MA1101491999999REMMET051METAR SBLP 251300Z 00000KT 9999 FEW030 29/20 Q1015;
0120832880999992009022514004-13267-043417FM-15+0443SBLP V0209999C000012200019N0112651N1+03001+02001999999ADDGA1021+009001999GF102991999999999999999999MA1101491999999REMMET051METAR SBLP 251400Z 00000KT 9999 FEW030 30/20 Q1015;
0120832880999992009022515004-13267-043417FM-15+0443SBLP V0209999C000012200019N0112651N1+03201+02001999999ADDGA1041+009001999GF104991999999999999999999MA1101391999999REMMET051METAR SBLP 251500Z 00000KT 9999 SCT030 32/20 Q1014;
0120832880999992009022516004-13267-043417FM-15+0443SBLP V0202701N002112200019N0112651N1+03201+01901999999ADDGA1041+009001999GF104991999999999999999999MA1101291999999REMMET051METAR SBLP 251600Z 27004KT 9999 SCT030 32/19 Q1013;
0120832880999992009022517004-13267-043417FM-15+0443SBLP V0202301N002612200019N0112651N1+03301+02001999999ADDGA1021+009001999GF102991999999999999999999MA1101081999999REMMET051METAR SBLP 251700Z 23005KT 9999 FEW030 33/20 Q1011;
0120832880999992009022518004-13267-043417FM-15+0443SBLP V0202401N002112200019N0112651N1+03301+02001999999ADDGA1021+009001999GF102991999999999999999999MA1101021999999REMMET051METAR SBLP 251800Z 24004KT 9999 FEW030 33/20 Q1010;
0120832880999992009022519004-13267-043417FM-15+0443SBLP V0202701N002112200019N0112651N1+03401+02001999999ADDGA1021+009001999GF102991999999999999999999MA1100911999999REMMET051METAR SBLP 251900Z 27004KT 9999 FEW030 34/20 Q1009;
0120832880999992009022520004-13267-043417FM-15+0443SBLP V0202401N002112200019N0112651N1+03301+01801999999ADDGA1021+009001999GF102991999999999999999999MA1100911999999REMMET051METAR SBLP 252000Z 24004KT 9999 FEW030 33/18 Q1009;
0120832880999992009022521004-13267-043417FM-15+0443SBLP V0209999C000012200019N0112651N1+03201+02001999999ADDGA1021+009001999GF102991999999999999999999MA1100911999999REMMET051METAR SBLP 252100Z 00000KT 9999 FEW030 32/20 Q1009;
0072832880999992009022610004-13267-043417FM-15+0443SBLP V0209999C00001999999CY0099001N1+02501+02001999999ADDMA1101191999999REMMET045METAR SBLP 261000Z 00000KT CAVOK 25/20 Q1012;
0072832880999992009022611004-13267-043417FM-15+0443SBLP V0209999C00001999999CY0099001N1+02801+02001999999ADDMA1101291999999REMMET045METAR SBLP 261100Z 00000KT CAVOK 28/20 Q1013;
0072832880999992009022612004-13267-043417FM-15+0443SBLP V0209999C00001999999CY0099001N1+02901+02001999999ADDMA1101291999999REMMET045METAR SBLP 261200Z 00000KT CAVOK 29/20 Q1013;
0072832880999992009022613004-13267-043417FM-15+0443SBLP V0209999C00001999999CY0099001N1+03101+01901999999ADDMA1101291999999REMMET045METAR SBLP 261300Z 00000KT CAVOK 31/19 Q1013;
0120832880999992009022614004-13267-043417FM-15+0443SBLP V0209999C000012200019N0112651N1+03201+01901999999ADDGA1021+009001999GF102991999999999999999999MA1101291999999REMMET051METAR SBLP 261400Z 00000KT 9999 FEW030 32/19 Q1013;
0120832880999992009022615004-13267-043417FM-15+0443SBLP V0201801N003112200019N0112651N1+03201+01901999999ADDGA1021+009001999GF102991999999999999999999MA1101291999999REMMET051METAR SBLP 261500Z 18006KT 9999 FEW030 32/19 Q1013;
0120832880999992009022616004-13267-043417FM-15+0443SBLP V0201101N003112200019N0112651N1+03301+01801999999ADDGA1041+009001999GF104991999999999999999999MA1101081999999REMMET051METAR SBLP 261600Z 11006KT 9999 SCT030 33/18 Q1011;
0120832880999992009022617004-13267-043417FM-15+0443SBLP V0202101N002112200019N0112651N1+03501+01901999999ADDGA1021+009001999GF102991999999999999999999MA1101021999999REMMET051METAR SBLP 261700Z 21004KT 9999 FEW030 35/19 Q1010;
0120832880999992009022618004-13267-043417FM-15+0443SBLP V0201801N003112200019N0112651N1+03601+01801999999ADDGA1041+009001999GF104991999999999999999999MA1100911999999REMMET051METAR SBLP 261800Z 18006KT 9999 SCT030 36/18 Q1009;
0158832880999992009022619004-13267-043417FM-15+0443SBLP V0202301N002612200019N0080001N1+03601+01901999999ADDGA1041+009001999GA2021+012001091MA1100911999999MW1161MW2171REMMET068METAR SBLP 261900Z 23005KT 8000 TS VCSH SCT030 FEW040CB 36/19 Q1009;EQDQ01+000022SCOTCV
0147832880999992009022620004-13267-043417FM-15+0443SBLP V0202901N002612200019N0112651N1+02601+02201999999ADDGA1041+009001999GA2021+012001091MA1100911999999MW1171REMMET063METAR SBLP 262000Z 29005KT 9999 TS SCT030 FEW040CB 26/22 Q1009;EQDQ01+000022SCOTCV
0148832880999992009022621004-13267-043417FM-15+0443SBLP V0203301N001512200019N0112651N1+02801+02301999999ADDGA1021+009001999GA2041+030001999GF104991999999999999999999MA1100811999999REMMET063METAR SBLP 262100Z 33003KT 9999 FEW030 SCT100 28/23 Q1008 RETS;
0072832880999992009022710004-13267-043417FM-15+0443SBLP V0209999C00001999999CY0099001N1+02301+02001999999ADDMA1101391999999REMMET045METAR SBLP 271000Z 00000KT CAVOK 23/20 Q1014;
0072832880999992009022711004-13267-043417FM-15+0443SBLP V0209999C00001999999CY0099001N1+02401+01901999999ADDMA1101491999999REMMET045METAR SBLP 271100Z 00000KT CAVOK 24/19 Q1015;
0072832880999992009022712004-13267-043417FM-15+0443SBLP V0209999C00001999999CY0099001N1+02801+01901999999ADDMA1101491999999REMMET045METAR SBLP 271200Z 00000KT CAVOK 28/19 Q1015;
0143832880999992009022713004-13267-043417FM-15+0443SBLP V0201201N003112200019N0112651N1+03001+01901999999ADDGA1021+009001999GA2041+090001999GF104991999999999999999999MA1101491999999REMMET058METAR SBLP 271300Z 12006KT 9999 FEW030 SCT300 30/19 Q1015;
0120832880999992009022714004-13267-043417FM-15+0443SBLP V0202001N003112200019N0112651N1+03101+01901999999ADDGA1021+009001999GF102991999999999999999999MA1101391999999REMMET051METAR SBLP 271400Z 20006KT 9999 FEW030 31/19 Q1014;
0120832880999992009022715004-13267-043417FM-15+0443SBLP V0202201N003112200019N0112651N1+03101+02001999999ADDGA1041+009001999GF104991999999999999999999MA1101391999999REMMET051METAR SBLP 271500Z 22006KT 9999 SCT030 31/20 Q1014;
0120832880999992009022716004-13267-043417FM-15+0443SBLP V0202401N005112200019N0112651N1+03301+01901999999ADDGA1041+009001999GF104991999999999999999999MA1101191999999REMMET051METAR SBLP 271600Z 24010KT 9999 SCT030 33/19 Q1012;
0120832880999992009022717004-13267-043417FM-15+0443SBLP V0202101N004112200019N0112651N1+03401+02001999999ADDGA1041+009001999GF104991999999999999999999MA1101081999999REMMET051METAR SBLP 271700Z 21008KT 9999 SCT030 34/20 Q1011;
0120832880999992009022718004-13267-043417FM-15+0443SBLP V0201801N005112200019N0112651N1+03501+01901999999ADDGA1041+009001999GF104991999999999999999999MA1101021999999REMMET051METAR SBLP 271800Z 18010KT 9999 SCT030 35/19 Q1010;
0120832880999992009022719004-13267-043417FM-15+0443SBLP V0201801N004112200019N0112651N1+03501+01901999999ADDGA1041+009001999GF104991999999999999999999MA1101021999999REMMET051METAR SBLP 271900Z 18008KT 9999 SCT030 35/19 Q1010;
0120832880999992009022720004-13267-043417FM-15+0443SBLP V0202101N003112200019N0112651N1+03301+01801999999ADDGA1041+009001999GF104991999999999999999999MA1100911999999REMMET051METAR SBLP 272000Z 21006KT 9999 SCT030 33/18 Q1009;
0120832880999992009022721004-13267-043417FM-15+0443SBLP V0202101N003112200019N0112651N1+03101+01901999999ADDGA1041+009001999GF104991999999999999999999MA1101021999999REMMET051METAR SBLP 272100Z 21006KT 9999 SCT030 31/19 Q1010;
0072832880999992009022810004-13267-043417FM-15+0443SBLP V0209999C00001999999CY0099001N1+02301+02001999999ADDMA1101391999999REMMET045METAR SBLP 281000Z 00000KT CAVOK 23/20 Q1014;
0072832880999992009022811004-13267-043417FM-15+0443SBLP V0201801N00211999999CY0099001N1+02701+02001999999ADDMA1101491999999REMMET045METAR SBLP 281100Z 18004KT CAVOK 27/20 Q1015;
0072832880999992009022812004-13267-043417FM-15+0443SBLP V0200901N00211999999CY0099001N1+02801+01901999999ADDMA1101591999999REMMET045METAR SBLP 281200Z 09004KT CAVOK 28/19 Q1016;
0120832880999992009022813004-13267-043417FM-15+0443SBLP V0200801N002112200019N0112651N1+02901+01901999999ADDGA1021+009001999GF102991999999999999999999MA1101491999999REMMET051METAR SBLP 281300Z 08004KT 9999 FEW030 29/19 Q1015;
0120832880999992009022814004-13267-043417FM-15+0443SBLP V0202401N003112200019N0112651N1+03101+01901999999ADDGA1021+009001999GF102991999999999999999999MA1101491999999REMMET051METAR SBLP 281400Z 24006KT 9999 FEW030 31/19 Q1015;
0120832880999992009022815004-13267-043417FM-15+0443SBLP V0202401N004112200019N0112651N1+03101+01901999999ADDGA1021+009001999GF102991999999999999999999MA1101391999999REMMET051METAR SBLP 281500Z 24008KT 9999 FEW030 31/19 Q1014;
0120832880999992009022816004-13267-043417FM-15+0443SBLP V0202701N003112200019N0112651N1+03301+01901999999ADDGA1041+009001999GF104991999999999999999999MA1101291999999REMMET051METAR SBLP 281600Z 27006KT 9999 SCT030 33/19 Q1013;
0120832880999992009022817004-13267-043417FM-15+0443SBLP V0209999C000012200019N0112651N1+03401+01801999999ADDGA1041+009001999GF104991999999999999999999MA1101191999999REMMET051METAR SBLP 281700Z 00000KT 9999 SCT030 34/18 Q1012;
0120832880999992009022818004-13267-043417FM-15+0443SBLP V0209999C000012200019N0112651N1+03501+01801999999ADDGA1041+009001999GF104991999999999999999999MA1101081999999REMMET051METAR SBLP 281800Z 00000KT 9999 SCT030 35/18 Q1011;
0120832880999992009022819004-13267-043417FM-15+0443SBLP V0209999C000012200019N0112651N1+03501+01801999999ADDGA1041+009001999GF104991999999999999999999MA1101081999999REMMET051METAR SBLP 281900Z 00000KT 9999 SCT030 35/18 Q1011;
0120832880999992009022820004-13267-043417FM-15+0443SBLP V0209999C000012200019N0112651N1+03401+01901999999ADDGA1041+009001999GF104991999999999999999999MA1101081999999REMMET051METAR SBLP 282000Z 00000KT 9999 SCT030 34/19 Q1011;
0120832880999992009022821004-13267-043417FM-15+0443SBLP V0209999C000012200019N0112651N1+03201+01901999999ADDGA1041+009001999GF104991999999999999999999MA1101081999999REMMET051METAR SBLP 282100Z 00000KT 9999 SCT030 32/19 Q1011;
0072832880999992009030110004-13267-043417FM-15+0443SBLP V0209999C00001999999CY0099001N1+02401+02101999999ADDMA1101491999999REMMET045METAR SBLP 011000Z 00000KT CAVOK 24/21 Q1015;
0072832880999992009030111004-13267-043417FM-15+0443SBLP V0200901N00211999999CY0099001N1+02801+02001999999ADDMA1101591999999REMMET045METAR SBLP 011100Z 09004KT CAVOK 28/20 Q1016;
0120832880999992009030112004-13267-043417FM-15+0443SBLP V0200601N002112200019N0112651N1+03001+02001999999ADDGA1021+009001999GF102991999999999999999999MA1101591999999REMMET051METAR SBLP 011200Z 06004KT 9999 FEW030 30/20 Q1016;
0120832880999992009030113004-13267-043417FM-15+0443SBLP V0201101N003112200019N0112651N1+03101+02001999999ADDGA1041+009001999GF104991999999999999999999MA1101591999999REMMET051METAR SBLP 011300Z 11006KT 9999 SCT030 31/20 Q1016;
0120832880999992009030114004-13267-043417FM-15+0443SBLP V0201701N004112200019N0112651N1+03201+01901999999ADDGA1041+009001999GF104991999999999999999999MA1101491999999REMMET051METAR SBLP 011400Z 17008KT 9999 SCT030 32/19 Q1015;
0120832880999992009030115004-13267-043417FM-15+0443SBLP V0202601N003112200019N0112651N1+03301+02001999999ADDGA1041+009001999GF104991999999999999999999MA1101491999999REMMET051METAR SBLP 011500Z 26006KT 9999 SCT030 33/20 Q1015;
0120832880999992009030116004-13267-043417FM-15+0443SBLP V0202701N003112200019N0112651N1+03401+02001999999ADDGA1041+009001999GF104991999999999999999999MA1101291999999REMMET051METAR SBLP 011600Z 27006KT 9999 SCT030 34/20 Q1013;
0120832880999992009030117004-13267-043417FM-15+0443SBLP V0201801N003112200019N0112651N1+03501+01901999999ADDGA1041+009001999GF104991999999999999999999MA1101191999999REMMET051METAR SBLP 011700Z 18006KT 9999 SCT030 35/19 Q1012;
0120832880999992009030118004-13267-043417FM-15+0443SBLP V0201801N003112200019N0112651N1+03601+01801999999ADDGA1041+009001999GF104991999999999999999999MA1101081999999REMMET051METAR SBLP 011800Z 18006KT 9999 SCT030 36/18 Q1011;
0120832880999992009030119004-13267-043417FM-15+0443SBLP V0201801N003112200019N0112651N1+03601+01801999999ADDGA1021+009001999GF102991999999999999999999MA1101081999999REMMET051METAR SBLP 011900Z 18006KT 9999 FEW030 36/18 Q1011;
0120832880999992009030120004-13267-043417FM-15+0443SBLP V0209999C000012200019N0112651N1+03501+01801999999ADDGA1021+009001999GF102991999999999999999999MA1101081999999REMMET051METAR SBLP 012000Z 00000KT 9999 FEW030 35/18 Q1011;
0120832880999992009030121004-13267-043417FM-15+0443SBLP V0209999C000012200019N0112651N1+03301+01901999999ADDGA1021+009001999GF102991999999999999999999MA1101081999999REMMET051METAR SBLP 012100Z 00000KT 9999 FEW030 33/19 Q1011;
0072832880999992009030210004-13267-043417FM-15+0443SBLP V0209999C00001999999CY0099001N1+02501+01901999999ADDMA1101491999999REMMET045METAR SBLP 021000Z 00000KT CAVOK 25/19 Q1015;
0072832880999992009030211004-13267-043417FM-15+0443SBLP V0209999C00001999999CY0099001N1+02801+01901999999ADDMA1101591999999REMMET045METAR SBLP 021100Z 00000KT CAVOK 28/19 Q1016;
0072832880999992009030212004-13267-043417FM-15+0443SBLP V0209999C00001999999CY0099001N1+03001+01901999999ADDMA1101591999999REMMET045METAR SBLP 021200Z 00000KT CAVOK 30/19 Q1016;
0072832880999992009030213004-13267-043417FM-15+0443SBLP V0209999C00001999999CY0099001N1+03101+01901999999ADDMA1101591999999REMMET045METAR SBLP 021300Z 00000KT CAVOK 31/19 Q1016;
0120832880999992009030214004-13267-043417FM-15+0443SBLP V0209999C000012200019N0112651N1+03201+01901999999ADDGA1021+009001999GF102991999999999999999999MA1101491999999REMMET051METAR SBLP 021400Z 00000KT 9999 FEW030 32/19 Q1015;
0120832880999992009030220004-13267-043417FM-15+0443SBLP V0202101N002112200019N0112651N1+03501+01701999999ADDGA1021+009001999GF102991999999999999999999MA1101021999999REMMET051METAR SBLP 022000Z 21004KT 9999 FEW030 35/17 Q1010;
0072832880999992009030221004-13267-043417FM-15+0443SBLP V0202101N00211999999CY0099001N1+03301+01901999999ADDMA1101021999999REMMET045METAR SBLP 022100Z 21004KT CAVOK 33/19 Q1010;
0072832880999992009030310004-13267-043417FM-15+0443SBLP V0201801N00151999999CY0099001N1+02301+01901999999ADDMA1101491999999REMMET045METAR SBLP 031000Z 18003KT CAVOK 23/19 Q1015;
0072832880999992009030311004-13267-043417FM-15+0443SBLP V0200201N00151999999CY0099001N1+02801+02201999999ADDMA1101491999999REMMET045METAR SBLP 031100Z 02003KT CAVOK 28/22 Q1015;
0072832880999992009030312004-13267-043417FM-15+0443SBLP V0209999C00001999999CY0099001N1+03101+01901999999ADDMA1101591999999REMMET045METAR SBLP 031200Z 00000KT CAVOK 31/19 Q1016;
0072832880999992009030313004-13267-043417FM-15+0443SBLP V0202101N00211999999CY0099001N1+03101+01901999999ADDMA1101591999999REMMET045METAR SBLP 031300Z 21004KT CAVOK 31/19 Q1016;
0120832880999992009030314004-13267-043417FM-15+0443SBLP V0202101N003112200019N0112651N1+03201+01901999999ADDGA1021+009001999GF102991999999999999999999MA1101491999999REMMET051METAR SBLP 031400Z 21006KT 9999 FEW030 32/19 Q1015;
0120832880999992009030315004-13267-043417FM-15+0443SBLP V0202101N003112200019N0112651N1+03301+01801999999ADDGA1021+009001999GF102991999999999999999999MA1101491999999REMMET051METAR SBLP 031500Z 21006KT 9999 FEW030 33/18 Q1015;
0120832880999992009030316004-13267-043417FM-15+0443SBLP V0209999C000012200019N0112651N1+03401+01801999999ADDGA1021+009001999GF102991999999999999999999MA1101291999999REMMET051METAR SBLP 031600Z 00000KT 9999 FEW030 34/18 Q1013;
0120832880999992009030317004-13267-043417FM-15+0443SBLP V0209999C000012200019N0112651N1+03501+01801999999ADDGA1021+009001999GF102991999999999999999999MA1101191999999REMMET051METAR SBLP 031700Z 00000KT 9999 FEW030 35/18 Q1012;
0120832880999992009030318004-13267-043417FM-15+0443SBLP V0201801N003112200019N0112651N1+03701+01701999999ADDGA1021+009001999GF102991999999999999999999MA1101081999999REMMET051METAR SBLP 031800Z 18006KT 9999 FEW030 37/17 Q1011;
0120832880999992009030319004-13267-043417FM-15+0443SBLP V0209999C000012200019N0112651N1+03701+01801999999ADDGA1021+009001999GF102991999999999999999999MA1101021999999REMMET051METAR SBLP 031900Z 00000KT 9999 FEW030 37/18 Q1010;
0072832880999992009030320004-13267-043417FM-15+0443SBLP V0209999C00001999999CY0099001N1+03601+01801999999ADDMA1101021999999REMMET045METAR SBLP 032000Z 00000KT CAVOK 36/18 Q1010;
0072832880999992009030321004-13267-043417FM-15+0443SBLP V0209999C00001999999CY0099001N1+03601+01801999999ADDMA1101021999999REMMET045METAR SBLP 032100Z 00000KT CAVOK 36/18 Q1010;
0072832880999992009030410004-13267-043417FM-15+0443SBLP V0209999C00001999999CY0099001N1+02401+02001999999ADDMA1101291999999REMMET045METAR SBLP 041000Z 00000KT CAVOK 24/20 Q1013;
0072832880999992009030411004-13267-043417FM-15+0443SBLP V0209999C00001999999CY0099001N1+02801+02101999999ADDMA1101391999999REMMET045METAR SBLP 041100Z 00000KT CAVOK 28/21 Q1014;
0072832880999992009030412004-13267-043417FM-15+0443SBLP V0209999C00001999999CY0099001N1+03001+02101999999ADDMA1101391999999REMMET045METAR SBLP 041200Z 00000KT CAVOK 30/21 Q1014;
0072832880999992009030413004-13267-043417FM-15+0443SBLP V0209999C00001999999CY0099001N1+03101+02001999999ADDMA1101391999999REMMET045METAR SBLP 041300Z 00000KT CAVOK 31/20 Q1014;
0072832880999992009030414004-13267-043417FM-15+0443SBLP V0209999C00001999999CY0099001N1+03201+02001999999ADDMA1101291999999REMMET045METAR SBLP 041400Z 00000KT CAVOK 32/20 Q1013;
0120832880999992009030415004-13267-043417FM-15+0443SBLP V0202701N003112200019N0112651N1+03301+02001999999ADDGA1021+009001999GF102991999999999999999999MA1101191999999REMMET051METAR SBLP 041500Z 27006KT 9999 FEW030 33/20 Q1012;
0120832880999992009030416004-13267-043417FM-15+0443SBLP V0203301N002112200019N0112651N1+03501+01901999999ADDGA1021+009001999GF102991999999999999999999MA1101081999999REMMET051METAR SBLP 041600Z 33004KT 9999 FEW030 35/19 Q1011;
0120832880999992009030417004-13267-043417FM-15+0443SBLP V0202401N003112200019N0112651N1+03601+01601999999ADDGA1041+009001999GF104991999999999999999999MA1101021999999REMMET051METAR SBLP 041700Z 24006KT 9999 SCT030 36/16 Q1010;
0120832880999992009030418004-13267-043417FM-15+0443SBLP V0201801N004112200019N0112651N1+03601+01301999999ADDGA1021+009001999GF102991999999999999999999MA1100911999999REMMET051METAR SBLP 041800Z 18008KT 9999 FEW030 36/13 Q1009;
0120832880999992009030419004-13267-043417FM-15+0443SBLP V0202401N003112200019N0112651N1+03701+01201999999ADDGA1021+009001999GF102991999999999999999999MA1100911999999REMMET051METAR SBLP 041900Z 24006KT 9999 FEW030 37/12 Q1009;
0120832880999992009030420004-13267-043417FM-15+0443SBLP V0202401N002112200019N0112651N1+03601+01501999999ADDGA1021+009001999GF102991999999999999999999MA1100811999999REMMET051METAR SBLP 042000Z 24004KT 9999 FEW030 36/15 Q1008;
0120832880999992009030421004-13267-043417FM-15+0443SBLP V0202101N001512200019N0112651N1+03501+01801999999ADDGA1021+009001999GF102991999999999999999999MA1100911999999REMMET051METAR SBLP 042100Z 21003KT 9999 FEW030 35/18 Q1009;
0072832880999992009030510004-13267-043417FM-15+0443SBLP V0209999C00001999999CY0099001N1+02601+02101999999ADDMA1101291999999REMMET045METAR SBLP 051000Z 00000KT CAVOK 26/21 Q1013;
0072832880999992009030511004-13267-043417FM-15+0443SBLP V0209999C00001999999CY0099001N1+02801+02201999999ADDMA1101391999999REMMET045METAR SBLP 051100Z 00000KT CAVOK 28/22 Q1014;
0072832880999992009030512004-13267-043417FM-15+0443SBLP V0209999C00001999999CY0099001N1+03101+02101999999ADDMA1101391999999REMMET045METAR SBLP 051200Z 00000KT CAVOK 31/21 Q1014;
0072832880999992009030513004-13267-043417FM-15+0443SBLP V0209999C00001999999CY0099001N1+03201+02101999999ADDMA1101291999999REMMET045METAR SBLP 051300Z 00000KT CAVOK 32/21 Q1013;
0120832880999992009030514004-13267-043417FM-15+0443SBLP V0209999C000012200019N0112651N1+03301+02101999999ADDGA1021+009001999GF102991999999999999999999MA1101291999999REMMET051METAR SBLP 051400Z 00000KT 9999 FEW030 33/21 Q1013;
0120832880999992009030515004-13267-043417FM-15+0443SBLP V0203601N003112200019N0112651N1+03401+02101999999ADDGA1021+009001999GF102991999999999999999999MA1101191999999REMMET051METAR SBLP 051500Z 36006KT 9999 FEW030 34/21 Q1012;
0120832880999992009030516004-13267-043417FM-15+0443SBLP V0202701N003112200019N0112651N1+03601+01901999999ADDGA1041+009001999GF104991999999999999999999MA1101021999999REMMET051METAR SBLP 051600Z 27006KT 9999 SCT030 36/19 Q1010;
0120832880999992009030517004-13267-043417FM-15+0443SBLP V0202701N003112200019N0112651N1+03601+01901999999ADDGA1041+009001999GF104991999999999999999999MA1101021999999REMMET051METAR SBLP 051700Z 27006KT 9999 SCT030 36/19 Q1010;
0120832880999992009030518004-13267-043417FM-15+0443SBLP V0202101N002112200019N0112651N1+03701+01601999999ADDGA1041+009001999GF104991999999999999999999MA1100811999999REMMET051METAR SBLP 051800Z 21004KT 9999 SCT030 37/16 Q1008;
0120832880999992009030519004-13267-043417FM-15+0443SBLP V0202101N003112200019N0112651N1+03701+01601999999ADDGA1021+009001999GF102991999999999999999999MA1100711999999REMMET051METAR SBLP 051900Z 21006KT 9999 FEW030 37/16 Q1007;
0120832880999992009030520004-13267-043417FM-15+0443SBLP V0202601N002112200019N0112651N1+03701+01801999999ADDGA1041+009001999GF104991999999999999999999MA1100711999999REMMET051METAR SBLP 052000Z 26004KT 9999 SCT030 37/18 Q1007;
0120832880999992009030521004-13267-043417FM-15+0443SBLP V0209999C000012200019N0112651N1+03501+01901999999ADDGA1041+009001999GF104991999999999999999999MA1100711999999REMMET051METAR SBLP 052100Z 00000KT 9999 SCT030 35/19 Q1007;
0143832880999992009030610004-13267-043417FM-15+0443SBLP V0203601N004110300019N0112651N1+02501+02201999999ADDGA1041+009001999GA2071+030001999GF107991999999999999999999MA1101291999999REMMET058METAR SBLP 061000Z 36008KT 9999 SCT030 BKN100 25/22 Q1013;
0143832880999992009030611004-13267-043417FM-15+0443SBLP V0203601N003110300019N0112651N1+02601+02201999999ADDGA1041+009001999GA2071+030001999GF107991999999999999999999MA1101391999999REMMET058METAR SBLP 061100Z 36006KT 9999 SCT030 BKN100 26/22 Q1014;
0143832880999992009030612004-13267-043417FM-15+0443SBLP V0203301N004110300019N0112651N1+02601+02201999999ADDGA1041+006001999GA2071+030001999GF107991999999999999999999MA1101491999999REMMET058METAR SBLP 061200Z 33008KT 9999 SCT020 BKN100 26/22 Q1015;
0143832880999992009030613004-13267-043417FM-15+0443SBLP V0203301N003110300019N0112651N1+02701+02201999999ADDGA1021+006001999GA2071+030001999GF107991999999999999999999MA1101491999999REMMET058METAR SBLP 061300Z 33006KT 9999 FEW020 BKN100 27/22 Q1015;
0120832880999992009030614004-13267-043417FM-15+0443SBLP V0203401N003112200019N0112651N1+02801+02101999999ADDGA1021+009001999GF102991999999999999999999MA1101491999999REMMET051METAR SBLP 061400Z 34006KT 9999 FEW030 28/21 Q1015;
0143832880999992009030615004-13267-043417FM-15+0443SBLP V0203601N004110900019N0112651N1+03001+02101999999ADDGA1021+009001999GA2071+090001999GF107991999999999999999999MA1101491999999REMMET058METAR SBLP 061500Z 36008KT 9999 FEW030 BKN300 30/21 Q1015;
0120832880999992009030616004-13267-043417FM-15+0443SBLP V0203601N003112200019N0112651N1+03101+02001999999ADDGA1021+009001999GF102991999999999999999999MA1101291999999REMMET051METAR SBLP 061600Z 36006KT 9999 FEW030 31/20 Q1013;
0120832880999992009030617004-13267-043417FM-15+0443SBLP V0203601N003112200019N0112651N1+03201+02001999999ADDGA1021+009001999GF102991999999999999999999MA1101191999999REMMET051METAR SBLP 061700Z 36006KT 9999 FEW030 32/20 Q1012;
0120832880999992009030618004-13267-043417FM-15+0443SBLP V0203601N003112200019N0112651N1+03401+02001999999ADDGA1041+009001999GF104991999999999999999999MA1101081999999REMMET051METAR SBLP 061800Z 36006KT 9999 SCT030 34/20 Q1011;
0120832880999992009030619004-13267-043417FM-15+0443SBLP V0203601N003112200019N0112651N1+03301+02001999999ADDGA1041+009001999GF104991999999999999999999MA1101021999999REMMET051METAR SBLP 061900Z 36006KT 9999 SCT030 33/20 Q1010;
0120832880999992009030620004-13267-043417FM-15+0443SBLP V0203601N003112200019N0112651N1+03301+02001999999ADDGA1041+009001999GF104991999999999999999999MA1101021999999REMMET051METAR SBLP 062000Z 36006KT 9999 SCT030 33/20 Q1010;
0120832880999992009030621004-13267-043417FM-15+0443SBLP V0203601N003112200019N0112651N1+03201+02001999999ADDGA1041+009001999GF104991999999999999999999MA1101021999999REMMET051METAR SBLP 062100Z 36006KT 9999 SCT030 32/20 Q1010;
0143832880999992009030710004-13267-043417FM-15+0443SBLP V0209999C000010300019N0112651N1+02201+02101999999ADDGA1041+003001999GA2071+030001999GF107991999999999999999999MA1101491999999REMMET058METAR SBLP 071000Z 00000KT 9999 SCT010 BKN100 22/21 Q1015;
0143832880999992009030711004-13267-043417FM-15+0443SBLP V0209999C000010300019N0112651N1+02401+02101999999ADDGA1041+004501999GA2071+030001999GF107991999999999999999999MA1101591999999REMMET058METAR SBLP 071100Z 00000KT 9999 SCT015 BKN100 24/21 Q1016;
0143832880999992009030712004-13267-043417FM-15+0443SBLP V0209999C000010300019N0112651N1+02701+02101999999ADDGA1021+006001999GA2071+030001999GF107991999999999999999999MA1101591999999REMMET058METAR SBLP 071200Z 00000KT 9999 FEW020 BKN100 27/21 Q1016;
0143832880999992009030713004-13267-043417FM-15+0443SBLP V0209999C000010300019N0112651N1+02701+02101999999ADDGA1021+006001999GA2071+030001999GF107991999999999999999999MA1101591999999REMMET058METAR SBLP 071300Z 00000KT 9999 FEW020 BKN100 27/21 Q1016;
0143832880999992009030714004-13267-043417FM-15+0443SBLP V0209999C000012200019N0112651N1+02901+02001999999ADDGA1041+006001999GA2041+030001999GF104991999999999999999999MA1101591999999REMMET058METAR SBLP 071400Z 00000KT 9999 SCT020 SCT100 29/20 Q1016;
0143832880999992009030715004-13267-043417FM-15+0443SBLP V0209999C000012200019N0112651N1+03001+02001999999ADDGA1041+006001999GA2041+030001999GF104991999999999999999999MA1101491999999REMMET058METAR SBLP 071500Z 00000KT 9999 SCT020 SCT100 30/20 Q1015;
0143832880999992009030716004-13267-043417FM-15+0443SBLP V0202701N002112200019N0112651N1+03101+01901999999ADDGA1021+008101999GA2041+030001999GF104991999999999999999999MA1101391999999REMMET058METAR SBLP 071600Z 27004KT 9999 FEW027 SCT100 31/19 Q1014;
0143832880999992009030717004-13267-043417FM-15+0443SBLP V0202301N003112200019N0112651N1+03201+02101999999ADDGA1021+009001999GA2041+030001999GF104991999999999999999999MA1101191999999REMMET058METAR SBLP 071700Z 23006KT 9999 FEW030 SCT100 32/21 Q1012;
0120832880999992009030718004-13267-043417FM-15+0443SBLP V0202901N002112200019N0112651N1+03301+02101999999ADDGA1021+009001999GF102991999999999999999999MA1101081999999REMMET051METAR SBLP 071800Z 29004KT 9999 FEW030 33/21 Q1011;
0120832880999992009030719004-13267-043417FM-15+0443SBLP V0202401N003112200019N0112651N1+03301+02101999999ADDGA1021+009001999GF102991999999999999999999MA1101081999999REMMET051METAR SBLP 071900Z 24006KT 9999 FEW030 33/21 Q1011;
0120832880999992009030720004-13267-043417FM-15+0443SBLP V0202501N002112200019N0112651N1+03201+02101999999ADDGA1021+009001999GF102991999999999999999999MA1101081999999REMMET051METAR SBLP 072000Z 25004KT 9999 FEW030 32/21 Q1011;
0143832880999992009030721004-13267-043417FM-15+0443SBLP V0200401N004112200019N0112651N1+03001+02001999999ADDGA1021+009001999GA2041+030001999GF104991999999999999999999MA1101081999999REMMET058METAR SBLP 072100Z 04008KT 9999 FEW030 SCT100 30/20 Q1011;
0143832880999992009030810004-13267-043417FM-15+0443SBLP V0209999C000010300019N0112651N1+02301+02101999999ADDGA1041+003001999GA2071+030001999GF107991999999999999999999MA1101491999999REMMET058METAR SBLP 081000Z 00000KT 9999 SCT010 BKN100 23/21 Q1015;
0143832880999992009030811004-13267-043417FM-15+0443SBLP V0209999C000010300019N0112651N1+02501+02101999999ADDGA1041+004501999GA2071+030001999GF107991999999999999999999MA1101591999999REMMET058METAR SBLP 081100Z 00000KT 9999 SCT015 BKN100 25/21 Q1016;
0143832880999992009030812004-13267-043417FM-15+0443SBLP V0209999C000010300019N0112651N1+02701+02101999999ADDGA1021+006001999GA2071+030001999GF107991999999999999999999MA1101691999999REMMET058METAR SBLP 081200Z 00000KT 9999 FEW020 BKN100 27/21 Q1017;
0143832880999992009030813004-13267-043417FM-15+0443SBLP V0209999C000010300019N0112651N1+02801+02101999999ADDGA1021+006001999GA2071+030001999GF107991999999999999999999MA1101591999999REMMET058METAR SBLP 081300Z 00000KT 9999 FEW020 BKN100 28/21 Q1016;
0084832880999992009030814004-13267-043417FM-15+0443SBLP V02099999999992200019N0000001N1+03001+02101999999ADDMA1101501999999REMMET057METAR SBLP 081400Z 0000KT 9999 FEW030 SCT100 30/21 Q1015;
0143832880999992009030815004-13267-043417FM-15+0443SBLP V0201801N003112200019N0112651N1+03101+02101999999ADDGA1021+009001999GA2041+030001999GF104991999999999999999999MA1101391999999REMMET058METAR SBLP 081500Z 18006KT 9999 FEW030 SCT100 31/21 Q1014;
0143832880999992009030816004-13267-043417FM-15+0443SBLP V0202101N002112200019N0112651N1+03101+02001999999ADDGA1021+009001999GA2041+030001999GF104991999999999999999999MA1101191999999REMMET058METAR SBLP 081600Z 21004KT 9999 FEW030 SCT100 31/20 Q1012;
0143832880999992009030817004-13267-043417FM-15+0443SBLP V0202101N001512200019N0112651N1+03301+02001999999ADDGA1021+009001999GA2041+030001999GF104991999999999999999999MA1101081999999REMMET058METAR SBLP 081700Z 21003KT 9999 FEW030 SCT100 33/20 Q1011;
0143832880999992009030818004-13267-043417FM-15+0443SBLP V0201801N002112200019N0112651N1+03301+01901999999ADDGA1021+009001999GA2041+030001999GF104991999999999999999999MA1101021999999REMMET058METAR SBLP 081800Z 18004KT 9999 FEW030 SCT100 33/19 Q1010;
0143832880999992009030819004-13267-043417FM-15+0443SBLP V0202301N001512200019N0112651N1+03301+02001999999ADDGA1021+009001999GA2041+030001999GF104991999999999999999999MA1100911999999REMMET058METAR SBLP 081900Z 23003KT 9999 FEW030 SCT100 33/20 Q1009;
0120832880999992009030820004-13267-043417FM-15+0443SBLP V0202701N001512200019N0112651N1+03301+02001999999ADDGA1021+009001999GF102991999999999999999999MA1100911999999REMMET051METAR SBLP 082000Z 27003KT 9999 FEW030 33/20 Q1009;
0120832880999992009030821004-13267-043417FM-15+0443SBLP V0209999C000012200019N0112651N1+03201+02101999999ADDGA1021+009001999GF102991999999999999999999MA1100811999999REMMET051METAR SBLP 082100Z 00000KT 9999 FEW030 32/21 Q1008;
0072832880999992009030910004-13267-043417FM-15+0443SBLP V0209999C00001999999CY0099001N1+02401+02101999999ADDMA1101291999999REMMET045METAR SBLP 091000Z 00000KT CAVOK 24/21 Q1013;
0072832880999992009030911004-13267-043417FM-15+0443SBLP V0209999C00001999999CY0099001N1+02701+01901999999ADDMA1101391999999REMMET045METAR SBLP 091100Z 00000KT CAVOK 27/19 Q1014;
0072832880999992009030912004-13267-043417FM-15+0443SBLP V0200701N00151999999CY0099001N1+02901+01901999999ADDMA1101491999999REMMET045METAR SBLP 091200Z 07003KT CAVOK 29/19 Q1015;
0072832880999992009030913004-13267-043417FM-15+0443SBLP V0200301N00211999999CY0099001N1+03101+01901999999ADDMA1101491999999REMMET045METAR SBLP 091300Z 03004KT CAVOK 31/19 Q1015;
0120832880999992009030914004-13267-043417FM-15+0443SBLP V0203601N001512200019N0112651N1+03201+01901999999ADDGA1021+009001999GF102991999999999999999999MA1101491999999REMMET051METAR SBLP 091400Z 36003KT 9999 FEW030 32/19 Q1015;
0120832880999992009030915004-13267-043417FM-15+0443SBLP V0209999C000012200019N0112651N1+03301+01901999999ADDGA1021+009001999GF102991999999999999999999MA1101391999999REMMET051METAR SBLP 091500Z 00000KT 9999 FEW030 33/19 Q1014;
0120832880999992009030916004-13267-043417FM-15+0443SBLP V0209999C000012200019N0112651N1+03401+01801999999ADDGA1021+009001999GF102991999999999999999999MA1101291999999REMMET051METAR SBLP 091600Z 00000KT 9999 FEW030 34/18 Q1013;
0120832880999992009030917004-13267-043417FM-15+0443SBLP V0202001N003112200019N0112651N1+03501+01801999999ADDGA1041+009001999GF104991999999999999999999MA1101081999999REMMET051METAR SBLP 091700Z 20006KT 9999 SCT030 35/18 Q1011;
0120832880999992009030918004-13267-043417FM-15+0443SBLP V0202701N003112200019N0112651N1+03601+01901999999ADDGA1041+009001999GF104991999999999999999999MA1101021999999REMMET051METAR SBLP 091800Z 27006KT 9999 SCT030 36/19 Q1010;
0120832880999992009030919004-13267-043417FM-15+0443SBLP V0209999C000012200019N0112651N1+03601+01801999999ADDGA1021+009001999GF102991999999999999999999MA1100911999999REMMET051METAR SBLP 091900Z 00000KT 9999 FEW030 36/18 Q1009;
0120832880999992009030920004-13267-043417FM-15+0443SBLP V0209999C000012200019N0112651N1+03501+01801999999ADDGA1021+009001999GF102991999999999999999999MA1100911999999REMMET051METAR SBLP 092000Z 00000KT 9999 FEW030 35/18 Q1009;
0120832880999992009030921004-13267-043417FM-15+0443SBLP V0209999C000012200019N0112651N1+03301+02001999999ADDGA1041+009001999GF104991999999999999999999MA1100911999999REMMET051METAR SBLP 092100Z 00000KT 9999 SCT030 33/20 Q1009;
0072832880999992009031010004-13267-043417FM-15+0443SBLP V0209999C00001999999CY0099001N1+02401+02001999999ADDMA1101291999999REMMET045METAR SBLP 101000Z 00000KT CAVOK 24/20 Q1013;
0072832880999992009031011004-13267-043417FM-15+0443SBLP V0209999C00001999999CY0099001N1+02401+02001999999ADDMA1101291999999REMMET045METAR SBLP 101100Z 00000KT CAVOK 24/20 Q1013;
0072832880999992009031012004-13267-043417FM-15+0443SBLP V0200401N00311999999CY0099001N1+02901+02001999999ADDMA1101491999999REMMET045METAR SBLP 101200Z 04006KT CAVOK 29/20 Q1015;
0072832880999992009031013004-13267-043417FM-15+0443SBLP V0209999C00001999999CY0099001N1+03001+01901999999ADDMA1101491999999REMMET045METAR SBLP 101300Z 00000KT CAVOK 30/19 Q1015;
0072832880999992009031014004-13267-043417FM-15+0443SBLP V0209999C00001999999CY0099001N1+03201+01901999999ADDMA1101391999999REMMET045METAR SBLP 101400Z 00000KT CAVOK 32/19 Q1014;
0120832880999992009031015004-13267-043417FM-15+0443SBLP V0202701N003112200019N0112651N1+03301+02001999999ADDGA1021+009001999GF102991999999999999999999MA1101291999999REMMET051METAR SBLP 101500Z 27006KT 9999 FEW030 33/20 Q1013;
0120832880999992009031016004-13267-043417FM-15+0443SBLP V0209999C000012200019N0112651N1+03401+01901999999ADDGA1041+009001999GF104991999999999999999999MA1101191999999REMMET051METAR SBLP 101600Z 00000KT 9999 SCT030 34/19 Q1012;
0120832880999992009031017004-13267-043417FM-15+0443SBLP V0202801N002112200019N0112651N1+03501+01801999999ADDGA1041+009001999GF104991999999999999999999MA1101081999999REMMET051METAR SBLP 101700Z 28004KT 9999 SCT030 35/18 Q1011;
0120832880999992009031018004-13267-043417FM-15+0443SBLP V0202601N003112200019N0112651N1+03501+01701999999ADDGA1041+009001999GF104991999999999999999999MA1101021999999REMMET051METAR SBLP 101800Z 26006KT 9999 SCT030 35/17 Q1010;
0120832880999992009031019004-13267-043417FM-15+0443SBLP V0202101N003112200019N0112651N1+03601+01701999999ADDGA1041+009001999GF104991999999999999999999MA1100911999999REMMET051METAR SBLP 101900Z 21006KT 9999 SCT030 36/17 Q1009;
0120832880999992009031020004-13267-043417FM-15+0443SBLP V0202101N002112200019N0112651N1+03501+01801999999ADDGA1021+009001999GF102991999999999999999999MA1100911999999REMMET051METAR SBLP 102000Z 21004KT 9999 FEW030 35/18 Q1009;
0072832880999992009031021004-13267-043417FM-15+0443SBLP V0209999C00001999999CY0099001N1+03401+01901999999ADDMA1100911999999REMMET045METAR SBLP 102100Z 00000KT CAVOK 34/19 Q1009;
0072832880999992009031110004-13267-043417FM-15+0443SBLP V0201801N00211999999CY0099001N1+02401+02001999999ADDMA1101291999999REMMET045METAR SBLP 111000Z 18004KT CAVOK 24/20 Q1013;
0072832880999992009031111004-13267-043417FM-15+0443SBLP V0201201N00211999999CY0099001N1+02801+02001999999ADDMA1101391999999REMMET045METAR SBLP 111100Z 12004KT CAVOK 28/20 Q1014;
0072832880999992009031112004-13267-043417FM-15+0443SBLP V0201201N00311999999CY0099001N1+02901+02001999999ADDMA1101491999999REMMET045METAR SBLP 111200Z 12006KT CAVOK 29/20 Q1015;
0072832880999992009031113004-13267-043417FM-15+0443SBLP V0203601N00211999999CY0099001N1+03101+02001999999ADDMA1101391999999REMMET045METAR SBLP 111300Z 36004KT CAVOK 31/20 Q1014;
0120832880999992009031114004-13267-043417FM-15+0443SBLP V0203001N004112200019N0112651N1+03201+02101999999ADDGA1021+009001999GF102991999999999999999999MA1101391999999REMMET051METAR SBLP 111400Z 30008KT 9999 FEW030 32/21 Q1014;
0120832880999992009031115004-13267-043417FM-15+0443SBLP V0202101N002112200019N0112651N1+03201+02001999999ADDGA1041+009001999GF104991999999999999999999MA1101291999999REMMET051METAR SBLP 111500Z 21004KT 9999 SCT030 32/20 Q1013;
0120832880999992009031116004-13267-043417FM-15+0443SBLP V0209999C000012200019N0112651N1+03401+01901999999ADDGA1041+009001999GF104991999999999999999999MA1101191999999REMMET051METAR SBLP 111600Z 00000KT 9999 SCT030 34/19 Q1012;
0120832880999992009031117004-13267-043417FM-15+0443SBLP V0209999C000012200019N0112651N1+03501+01801999999ADDGA1041+009001999GF104991999999999999999999MA1101021999999REMMET051METAR SBLP 111700Z 00000KT 9999 SCT030 35/18 Q1010;
0120832880999992009031118004-13267-043417FM-15+0443SBLP V0201801N003112200019N0112651N1+03801+01701999999ADDGA1041+009001999GF104991999999999999999999MA1100911999999REMMET051METAR SBLP 111800Z 18006KT 9999 SCT030 38/17 Q1009;
0120832880999992009031119004-13267-043417FM-15+0443SBLP V0201801N003112200019N0112651N1+03701+01701999999ADDGA1021+009001999GF102991999999999999999999MA1100911999999REMMET051METAR SBLP 111900Z 18006KT 9999 FEW030 37/17 Q1009;
0120832880999992009031120004-13267-043417FM-15+0443SBLP V0201801N003112200019N0112651N1+03701+01701999999ADDGA1021+009001999GF102991999999999999999999MA1100811999999REMMET051METAR SBLP 112000Z 18006KT 9999 FEW030 37/17 Q1008;
0120832880999992009031121004-13267-043417FM-15+0443SBLP V0201801N003112200019N0112651N1+03501+01801999999ADDGA1021+009001999GF102991999999999999999999MA1100811999999REMMET051METAR SBLP 112100Z 18006KT 9999 FEW030 35/18 Q1008;
0072832880999992009031210004-13267-043417FM-15+0443SBLP V0209999C00001999999CY0099001N1+02401+02001999999ADDMA1101291999999REMMET045METAR SBLP 121000Z 00000KT CAVOK 24/20 Q1013;
0072832880999992009031211004-13267-043417FM-15+0443SBLP V0209999C00001999999CY0099001N1+02601+01901999999ADDMA1101391999999REMMET045METAR SBLP 121100Z 00000KT CAVOK 26/19 Q1014;
0072832880999992009031212004-13267-043417FM-15+0443SBLP V0209999C00001999999CY0099001N1+02901+01901999999ADDMA1101391999999REMMET045METAR SBLP 121200Z 00000KT CAVOK 29/19 Q1014;
0072832880999992009031213004-13267-043417FM-15+0443SBLP V0209999C00001999999CY0099001N1+03101+01901999999ADDMA1101391999999REMMET045METAR SBLP 121300Z 00000KT CAVOK 31/19 Q1014;
0120832880999992009031214004-13267-043417FM-15+0443SBLP V0202701N003112200019N0112651N1+03201+01901999999ADDGA1021+009001999GF102991999999999999999999MA1101291999999REMMET051METAR SBLP 121400Z 27006KT 9999 FEW030 32/19 Q1013;
0120832880999992009031215004-13267-043417FM-15+0443SBLP V0202701N003112200019N0112651N1+03201+01901999999ADDGA1021+009001999GF102991999999999999999999MA1101191999999REMMET051METAR SBLP 121500Z 27006KT 9999 FEW030 32/19 Q1012;
0120832880999992009031216004-13267-043417FM-15+0443SBLP V0202101N002112200019N0112651N1+03401+01801999999ADDGA1021+009001999GF102991999999999999999999MA1101081999999REMMET051METAR SBLP 121600Z 21004KT 9999 FEW030 34/18 Q1011;
0120832880999992009031217004-13267-043417FM-15+0443SBLP V0202501N003112200019N0112651N1+03501+01801999999ADDGA1021+009001999GF102991999999999999999999MA1101021999999REMMET051METAR SBLP 121700Z 25006KT 9999 FEW030 35/18 Q1010;
0120832880999992009031218004-13267-043417FM-15+0443SBLP V0202501N002112200019N0112651N1+03501+01601999999ADDGA1021+009001999GF102991999999999999999999MA1100911999999REMMET051METAR SBLP 121800Z 25004KT 9999 FEW030 35/16 Q1009;
0120832880999992009031219004-13267-043417FM-15+0443SBLP V0202401N002112200019N0112651N1+03501+01701999999ADDGA1021+009001999GF102991999999999999999999MA1100811999999REMMET051METAR SBLP 121900Z 24004KT 9999 FEW030 35/17 Q1008;
0120832880999992009031220004-13267-043417FM-15+0443SBLP V0202401N001512200019N0112651N1+03501+01801999999ADDGA1021+009001999GF102991999999999999999999MA1100811999999REMMET051METAR SBLP 122000Z 24003KT 9999 FEW030 35/18 Q1008;
0120832880999992009031221004-13267-043417FM-15+0443SBLP V0202401N001512200019N0112651N1+03501+01801999999ADDGA1021+009001999GF102991999999999999999999MA1100811999999REMMET051METAR SBLP 122100Z 24003KT 9999 FEW030 35/18 Q1008;
0072832880999992009031310004-13267-043417FM-15+0443SBLP V0209999C00001999999CY0099001N1+02301+01901999999ADDMA1101191999999REMMET045METAR SBLP 131000Z 00000KT CAVOK 23/19 Q1012;
0072832880999992009031311004-13267-043417FM-15+0443SBLP V0200901N00211999999CY0099001N1+02701+01701999999ADDMA1101291999999REMMET045METAR SBLP 131100Z 09004KT CAVOK 27/17 Q1013;
0072832880999992009031312004-13267-043417FM-15+0443SBLP V0200601N00211999999CY0099001N1+03001+01701999999ADDMA1101291999999REMMET045METAR SBLP 131200Z 06004KT CAVOK 30/17 Q1013;
0072832880999992009031313004-13267-043417FM-15+0443SBLP V0203101N00151999999CY0099001N1+03201+01801999999ADDMA1101291999999REMMET045METAR SBLP 131300Z 31003KT CAVOK 32/18 Q1013;
0120832880999992009031314004-13267-043417FM-15+0443SBLP V0203601N001512200019N0112651N1+03201+01901999999ADDGA1021+009001999GF102991999999999999999999MA1101291999999REMMET051METAR SBLP 131400Z 36003KT 9999 FEW030 32/19 Q1013;
0120832880999992009031315004-13267-043417FM-15+0443SBLP V0203001N003112200019N0112651N1+03301+01901999999ADDGA1021+009001999GF102991999999999999999999MA1101191999999REMMET051METAR SBLP 131500Z 30006KT 9999 FEW030 33/19 Q1012;
0120832880999992009031316004-13267-043417FM-15+0443SBLP V0209999C000012200019N0112651N1+03501+01901999999ADDGA1021+009001999GF102991999999999999999999MA1101081999999REMMET051METAR SBLP 131600Z 00000KT 9999 FEW030 35/19 Q1011;
0120832880999992009031317004-13267-043417FM-15+0443SBLP V0209999C000012200019N0112651N1+03501+01901999999ADDGA1021+009001999GF102991999999999999999999MA1101081999999REMMET051METAR SBLP 131700Z 00000KT 9999 FEW030 35/19 Q1011;
0120832880999992009031318004-13267-043417FM-15+0443SBLP V0201801N003112200019N0112651N1+03601+01901999999ADDGA1021+009001999GF102991999999999999999999MA1100811999999REMMET051METAR SBLP 131800Z 18006KT 9999 FEW030 36/19 Q1008;
0120832880999992009031319004-13267-043417FM-15+0443SBLP V0209999C000012200019N0112651N1+03701+01901999999ADDGA1021+009001999GF102991999999999999999999MA1100811999999REMMET051METAR SBLP 131900Z 00000KT 9999 FEW030 37/19 Q1008;
0072832880999992009031320004-13267-043417FM-15+0443SBLP V0209999C00001999999CY0099001N1+03501+01901999999ADDMA1100811999999REMMET045METAR SBLP 132000Z 00000KT CAVOK 35/19 Q1008;
0072832880999992009031321004-13267-043417FM-15+0443SBLP V0209999C00001999999CY0099001N1+03301+02001999999ADDMA1100811999999REMMET045METAR SBLP 132100Z 00000KT CAVOK 33/20 Q1008;
0072832880999992009031410004-13267-043417FM-15+0443SBLP V0209999C00001999999CY0099001N1+02401+01801999999ADDMA1101191999999REMMET045METAR SBLP 141000Z 00000KT CAVOK 24/18 Q1012;
0072832880999992009031411004-13267-043417FM-15+0443SBLP V0209999C00001999999CY0099001N1+02801+01701999999ADDMA1101291999999REMMET045METAR SBLP 141100Z 00000KT CAVOK 28/17 Q1013;
0072832880999992009031412004-13267-043417FM-15+0443SBLP V0209999C00001999999CY0099001N1+03001+01701999999ADDMA1101291999999REMMET045METAR SBLP 141200Z 00000KT CAVOK 30/17 Q1013;
0072832880999992009031413004-13267-043417FM-15+0443SBLP V0209999C00001999999CY0099001N1+03201+01801999999ADDMA1101291999999REMMET045METAR SBLP 141300Z 00000KT CAVOK 32/18 Q1013;
0072832880999992009031414004-13267-043417FM-15+0443SBLP V0209999C00001999999CY0099001N1+03201+01801999999ADDMA1101191999999REMMET045METAR SBLP 141400Z 00000KT CAVOK 32/18 Q1012;
0120832880999992009031415004-13267-043417FM-15+0443SBLP V0209999C000012200019N0112651N1+03501+01701999999ADDGA1021+009001999GF102991999999999999999999MA1101191999999REMMET051METAR SBLP 141500Z 00000KT 9999 FEW030 35/17 Q1012;
0120832880999992009031416004-13267-043417FM-15+0443SBLP V0203601N002112200019N0112651N1+03601+01801999999ADDGA1041+009001999GF104991999999999999999999MA1101021999999REMMET051METAR SBLP 141600Z 36004KT 9999 SCT030 36/18 Q1010;
0120832880999992009031417004-13267-043417FM-15+0443SBLP V0203401N003112200019N0112651N1+03601+01701999999ADDGA1041+009001999GF104991999999999999999999MA1101021999999REMMET051METAR SBLP 141700Z 34006KT 9999 SCT030 36/17 Q1010;
0120832880999992009031418004-13267-043417FM-15+0443SBLP V0202101N003112200019N0112651N1+03801+01501999999ADDGA1041+009001999GF104991999999999999999999MA1100811999999REMMET051METAR SBLP 141800Z 21006KT 9999 SCT030 38/15 Q1008;
0120832880999992009031419004-13267-043417FM-15+0443SBLP V0202401N003112200019N0112651N1+03801+01401999999ADDGA1021+009001999GF102991999999999999999999MA1100811999999REMMET051METAR SBLP 141900Z 24006KT 9999 FEW030 38/14 Q1008;
0120832880999992009031420004-13267-043417FM-15+0443SBLP V0201901N003112200019N0112651N1+03701+01501999999ADDGA1021+009001999GF102991999999999999999999MA1100811999999REMMET051METAR SBLP 142000Z 19006KT 9999 FEW030 37/15 Q1008;
0120832880999992009031421004-13267-043417FM-15+0443SBLP V0201801N002112200019N0112651N1+03501+01501999999ADDGA1021+009001999GF102991999999999999999999MA1100811999999REMMET051METAR SBLP 142100Z 18004KT 9999 FEW030 35/15 Q1008;
0143832880999992009031510004-13267-043417FM-15+0443SBLP V0200401N003112200019N0112651N1+02401+02101999999ADDGA1041+006001999GA2041+030001999GF104991999999999999999999MA1101291999999REMMET058METAR SBLP 151000Z 04006KT 9999 SCT020 SCT100 24/21 Q1013;
0143832880999992009031511004-13267-043417FM-15+0443SBLP V0203601N003112200019N0112651N1+02601+02001999999ADDGA1041+006001999GA2041+030001999GF104991999999999999999999MA1101491999999REMMET058METAR SBLP 151100Z 36006KT 9999 SCT020 SCT100 26/20 Q1015;
0143832880999992009031512004-13267-043417FM-15+0443SBLP V0203601N003110300019N0112651N1+02601+02001999999ADDGA1021+006001999GA2071+030001999GF107991999999999999999999MA1101591999999REMMET058METAR SBLP 151200Z 36006KT 9999 FEW020 BKN100 26/20 Q1016;
0143832880999992009031513004-13267-043417FM-15+0443SBLP V0209999C000010300019N0112651N1+02701+02101999999ADDGA1021+006001999GA2071+030001999GF107991999999999999999999MA1101591999999REMMET058METAR SBLP 151300Z 00000KT 9999 FEW020 BKN100 27/21 Q1016;
0143832880999992009031514004-13267-043417FM-15+0443SBLP V0203601N003112200019N0112651N1+02701+02001999999ADDGA1021+009001999GA2041+030001999GF104991999999999999999999MA1101591999999REMMET058METAR SBLP 151400Z 36006KT 9999 FEW030 SCT100 27/20 Q1016;
0143832880999992009031515004-13267-043417FM-15+0443SBLP V0203601N003112200019N0112651N1+02801+02001999999ADDGA1021+009001999GA2041+030001999GF104991999999999999999999MA1101491999999REMMET058METAR SBLP 151500Z 36006KT 9999 FEW030 SCT100 28/20 Q1015;
0120832880999992009031516004-13267-043417FM-15+0443SBLP V0203301N003112200019N0112651N1+03101+02001999999ADDGA1021+009001999GF102991999999999999999999MA1101391999999REMMET051METAR SBLP 151600Z 33006KT 9999 FEW030 31/20 Q1014;
0120832880999992009031517004-13267-043417FM-15+0443SBLP V0202801N001512200019N0112651N1+03201+01901999999ADDGA1021+009001999GF102991999999999999999999MA1101191999999REMMET051METAR SBLP 151700Z 28003KT 9999 FEW030 32/19 Q1012;
0120832880999992009031518004-13267-043417FM-15+0443SBLP V0202801N002112200019N0112651N1+03201+01901999999ADDGA1021+009001999GF102991999999999999999999MA1101081999999REMMET051METAR SBLP 151800Z 28004KT 9999 FEW030 32/19 Q1011;
0072832880999992009031519004-13267-043417FM-15+0443SBLP V0203301N00151999999CY0099001N1+03301+01801999999ADDMA1100911999999REMMET045METAR SBLP 151900Z 33003KT CAVOK 33/18 Q1009;
0072832880999992009031520004-13267-043417FM-15+0443SBLP V0202401N00151999999CY0099001N1+03301+01801999999ADDMA1100911999999REMMET045METAR SBLP 152000Z 24003KT CAVOK 33/18 Q1009;
0072832880999992009031521004-13267-043417FM-15+0443SBLP V0209999C00001999999CY0099001N1+03201+02001999999ADDMA1100911999999REMMET045METAR SBLP 152100Z 00000KT CAVOK 32/20 Q1009;
0143832880999992009031610004-13267-043417FM-15+0443SBLP V0201801N001512200019N0112651N1+02401+02101999999ADDGA1021+009001999GA2041+030001999GF104991999999999999999999MA1101291999999REMMET058METAR SBLP 161000Z 18003KT 9999 FEW030 SCT100 24/21 Q1013;
0143832880999992009031611004-13267-043417FM-15+0443SBLP V0209999C000012200019N0112651N1+02501+02101999999ADDGA1021+009001999GA2041+030001999GF104991999999999999999999MA1101391999999REMMET058METAR SBLP 161100Z 00000KT 9999 FEW030 SCT100 25/21 Q1014;
0143832880999992009031612004-13267-043417FM-15+0443SBLP V0209999C000012200019N0112651N1+02901+02101999999ADDGA1021+009001999GA2041+030001999GF104991999999999999999999MA1101391999999REMMET058METAR SBLP 161200Z 00000KT 9999 FEW030 SCT100 29/21 Q1014;
0120832880999992009031613004-13267-043417FM-15+0443SBLP V0202701N003112200019N0112651N1+03001+02201999999ADDGA1021+009001999GF102991999999999999999999MA1101391999999REMMET051METAR SBLP 161300Z 27006KT 9999 FEW030 30/22 Q1014;
0120832880999992009031614004-13267-043417FM-15+0443SBLP V0202401N003112200019N0112651N1+03101+02101999999ADDGA1041+009001999GF104991999999999999999999MA1101391999999REMMET051METAR SBLP 161400Z 24006KT 9999 SCT030 31/21 Q1014;
0120832880999992009031615004-13267-043417FM-15+0443SBLP V0203301N002112200019N0112651N1+03301+02101999999ADDGA1041+009001999GF104991999999999999999999MA1101291999999REMMET051METAR SBLP 161500Z 33004KT 9999 SCT030 33/21 Q1013;
0120832880999992009031616004-13267-043417FM-15+0443SBLP V0203601N003112200019N0112651N1+03301+02101999999ADDGA1041+009001999GF104991999999999999999999MA1101081999999REMMET051METAR SBLP 161600Z 36006KT 9999 SCT030 33/21 Q1011;
0120832880999992009031617004-13267-043417FM-15+0443SBLP V0203601N003112200019N0112651N1+03501+02001999999ADDGA1041+009001999GF104991999999999999999999MA1101021999999REMMET051METAR SBLP 161700Z 36006KT 9999 SCT030 35/20 Q1010;
0120832880999992009031618004-13267-043417FM-15+0443SBLP V0203601N003112200019N0112651N1+03601+01901999999ADDGA1041+009001999GF104991999999999999999999MA1100911999999REMMET051METAR SBLP 161800Z 36006KT 9999 SCT030 36/19 Q1009;
0120832880999992009031619004-13267-043417FM-15+0443SBLP V0209999C000012200019N0112651N1+03501+01901999999ADDGA1041+009001999GF104991999999999999999999MA1100911999999REMMET051METAR SBLP 161900Z 00000KT 9999 SCT030 35/19 Q1009;
0147832880999992009031620004-13267-043417FM-15+0443SBLP V0209999C000012200019N0112651N1+03501+01901999999ADDGA1021+009001091GA2041+009001999MA1100911999999MW1171REMMET063METAR SBLP 162000Z 00000KT 9999 TS SCT030 FEW030CB 35/19 Q1009;EQDQ01+000022SCOTCV
0147832880999992009031621004-13267-043417FM-15+0443SBLP V0209999C000012200019N0112651N1+03301+02001999999ADDGA1041+009001999GA2021+012001091MA1100911999999MW1171REMMET063METAR SBLP 162100Z 00000KT 9999 TS SCT030 FEW040CB 33/20 Q1009;EQDQ01+000022SCOTCV
0143832880999992009031710004-13267-043417FM-15+0443SBLP V0209999C000010300019N0112651N1+02601+02101999999ADDGA1041+004501999GA2071+030001999GF107991999999999999999999MA1101491999999REMMET058METAR SBLP 171000Z 00000KT 9999 SCT015 BKN100 26/21 Q1015;
0143832880999992009031711004-13267-043417FM-15+0443SBLP V0209999C000010300019N0112651N1+02701+02101999999ADDGA1021+006001999GA2071+030001999GF107991999999999999999999MA1101591999999REMMET058METAR SBLP 171100Z 00000KT 9999 FEW020 BKN100 27/21 Q1016;
0143832880999992009031712004-13267-043417FM-15+0443SBLP V0209999C000010300019N0112651N1+02801+02101999999ADDGA1021+006001999GA2071+030001999GF107991999999999999999999MA1101591999999REMMET058METAR SBLP 171200Z 00000KT 9999 FEW020 BKN100 28/21 Q1016;
0143832880999992009031713004-13267-043417FM-15+0443SBLP V0209999C000010300019N0112651N1+02801+02101999999ADDGA1021+006001999GA2071+030001999GF107991999999999999999999MA1101591999999REMMET058METAR SBLP 171300Z 00000KT 9999 FEW020 BKN100 28/21 Q1016;
0143832880999992009031714004-13267-043417FM-15+0443SBLP V0209999C000012200019N0112651N1+02901+02101999999ADDGA1041+006001999GA2041+030001999GF104991999999999999999999MA1101591999999REMMET058METAR SBLP 171400Z 00000KT 9999 SCT020 SCT100 29/21 Q1016;
0143832880999992009031715004-13267-043417FM-15+0443SBLP V0201801N003112200019N0112651N1+03001+02101999999ADDGA1041+006001999GA2041+030001999GF104991999999999999999999MA1101491999999REMMET058METAR SBLP 171500Z 18006KT 9999 SCT020 SCT100 30/21 Q1015;
0143832880999992009031716004-13267-043417FM-15+0443SBLP V0200101N002112200019N0112651N1+03201+02001999999ADDGA1041+008101999GA2041+030001999GF104991999999999999999999MA1101391999999REMMET058METAR SBLP 171600Z 01004KT 9999 SCT027 SCT100 32/20 Q1014;
0169832880999992009031717004-13267-043417FM-15+0443SBLP V0202301N001512200019N0112651N1+03201+02001999999ADDGA1021+008101999GA2021+009001021GA3041+030001999GF104991999999999999999999MA1101291999999REMMET068METAR SBLP 171700Z 23003KT 9999 FEW027 FEW030TCU SCT100 32/20 Q1013;
0169832880999992009031718004-13267-043417FM-15+0443SBLP V0202401N001512200019N0112651N1+03201+02001999999ADDGA1021+008101999GA2021+012001021GA3041+030001999GF104991999999999999999999MA1101191999999REMMET068METAR SBLP 171800Z 24003KT 9999 FEW027 FEW040TCU SCT100 32/20 Q1012;
0143832880999992009031719004-13267-043417FM-15+0443SBLP V0201301N002110300019N0112651N1+03201+01801999999ADDGA1021+008101999GA2071+030001999GF107991999999999999999999MA1101081999999REMMET058METAR SBLP 171900Z 13004KT 9999 FEW027 BKN100 32/18 Q1011;
0143832880999992009031720004-13267-043417FM-15+0443SBLP V0202701N001010300019N0112651N1+03201+01901999999ADDGA1021+008101999GA2071+030001999GF107991999999999999999999MA1101081999999REMMET058METAR SBLP 172000Z 27002KT 9999 FEW027 BKN100 32/19 Q1011;
0143832880999992009031721004-13267-043417FM-15+0443SBLP V0202701N001510300019N0112651N1+03001+02201999999ADDGA1021+008101999GA2071+030001999GF107991999999999999999999MA1101081999999REMMET058METAR SBLP 172100Z 27003KT 9999 FEW027 BKN100 30/22 Q1011;
0072832880999992009031810004-13267-043417FM-15+0443SBLP V0209999C00001999999CY0099001N1+02401+02001999999ADDMA1101391999999REMMET045METAR SBLP 181000Z 00000KT CAVOK 24/20 Q1014;
0072832880999992009031811004-13267-043417FM-15+0443SBLP V0209999C00001999999CY0099001N1+02701+02001999999ADDMA1101491999999REMMET045METAR SBLP 181100Z 00000KT CAVOK 27/20 Q1015;
0120832880999992009031812004-13267-043417FM-15+0443SBLP V0200901N001512200019N0112651N1+03001+01901999999ADDGA1021+009001999GF102991999999999999999999MA1101491999999REMMET051METAR SBLP 181200Z 09003KT 9999 FEW030 30/19 Q1015;
0120832880999992009031813004-13267-043417FM-15+0443SBLP V0200701N004112200019N0112651N1+03201+01901999999ADDGA1021+009001999GF102991999999999999999999MA1101491999999REMMET051METAR SBLP 181300Z 07008KT 9999 FEW030 32/19 Q1015;
0120832880999992009031814004-13267-043417FM-15+0443SBLP V0202401N001512200019N0112651N1+03101+02001999999ADDGA1041+009001999GF104991999999999999999999MA1101491999999REMMET051METAR SBLP 181400Z 24003KT 9999 SCT030 31/20 Q1015;
0120832880999992009031815004-13267-043417FM-15+0443SBLP V0202401N001512200019N0112651N1+03201+01901999999ADDGA1041+009001999GF104991999999999999999999MA1101391999999REMMET051METAR SBLP 181500Z 24003KT 9999 SCT030 32/19 Q1014;
0143832880999992009031816004-13267-043417FM-15+0443SBLP V0202001N002112200019N0112651N1+03201+01901999999ADDGA1041+009001999GA2041+030001999GF104991999999999999999999MA1101291999999REMMET058METAR SBLP 181600Z 20004KT 9999 SCT030 SCT100 32/19 Q1013;
0143832880999992009031817004-13267-043417FM-15+0443SBLP V0202701N003112200019N0112651N1+03301+01901999999ADDGA1041+009001999GA2041+030001999GF104991999999999999999999MA1101191999999REMMET058METAR SBLP 181700Z 27006KT 9999 SCT030 SCT100 33/19 Q1012;
0143832880999992009031818004-13267-043417FM-15+0443SBLP V0202001N003112200019N0112651N1+03401+01901999999ADDGA1021+009001999GA2041+030001999GF104991999999999999999999MA1101081999999REMMET058METAR SBLP 181800Z 20006KT 9999 FEW030 SCT100 34/19 Q1011;
0143832880999992009031819004-13267-043417FM-15+0443SBLP V0209999C000012200019N0112651N1+03601+01801999999ADDGA1021+009001999GA2041+030001999GF104991999999999999999999MA1101021999999REMMET058METAR SBLP 181900Z 00000KT 9999 FEW030 SCT100 36/18 Q1010;
0143832880999992009031820004-13267-043417FM-15+0443SBLP V0209999C000012200019N0112651N1+03501+01901999999ADDGA1021+009001999GA2041+030001999GF104991999999999999999999MA1101021999999REMMET058METAR SBLP 182000Z 00000KT 9999 FEW030 SCT100 35/19 Q1010;
0143832880999992009031821004-13267-043417FM-15+0443SBLP V0209999C000012200019N0112651N1+03301+02001999999ADDGA1021+009001999GA2041+030001999GF104991999999999999999999MA1101021999999REMMET058METAR SBLP 182100Z 00000KT 9999 FEW030 SCT100 33/20 Q1010;
0143832880999992009031910004-13267-043417FM-15+0443SBLP V0201801N001012200019N0112651N1+02401+02201999999ADDGA1021+006901999GA2041+027001999GF104991999999999999999999MA1101391999999REMMET058METAR SBLP 191000Z 18002KT 9999 FEW023 SCT090 24/22 Q1014;
0143832880999992009031911004-13267-043417FM-15+0443SBLP V0209999C000012200019N0112651N1+02501+02001999999ADDGA1021+008101999GA2041+027001999GF104991999999999999999999MA1101391999999REMMET058METAR SBLP 191100Z 00000KT 9999 FEW027 SCT090 25/20 Q1014;
0143832880999992009031912004-13267-043417FM-15+0443SBLP V0201201N001512200019N0112651N1+02801+02101999999ADDGA1021+009001999GA2041+030001999GF104991999999999999999999MA1101491999999REMMET058METAR SBLP 191200Z 12003KT 9999 FEW030 SCT100 28/21 Q1015;
0120832880999992009031913004-13267-043417FM-15+0443SBLP V0200601N001512200019N0112651N1+03001+01601999999ADDGA1021+009001999GF102991999999999999999999MA1101391999999REMMET051METAR SBLP 191300Z 06003KT 9999 FEW030 30/16 Q1014;
0120832880999992009031914004-13267-043417FM-15+0443SBLP V0202101N002612200019N0112651N1+03201+02001999999ADDGA1041+009001999GF104991999999999999999999MA1101291999999REMMET051METAR SBLP 191400Z 21005KT 9999 SCT030 32/20 Q1013;
0120832880999992009031915004-13267-043417FM-15+0443SBLP V0202701N002112200019N0112651N1+03201+02001999999ADDGA1041+009001999GF104991999999999999999999MA1101291999999REMMET051METAR SBLP 191500Z 27004KT 9999 SCT030 32/20 Q1013;
0120832880999992009031916004-13267-043417FM-15+0443SBLP V0209999C000012200019N0112651N1+03201+02001999999ADDGA1041+009001999GF104991999999999999999999MA1101191999999REMMET051METAR SBLP 191600Z 00000KT 9999 SCT030 32/20 Q1012;
0072832880999992009031917004-13267-043417FM-15+0443SBLP V0209999C00001999999CY0099001N1+03301+02001999999ADDMA1101021999999REMMET045METAR SBLP 191700Z 00000KT CAVOK 33/20 Q1010;
0147832880999992009031918004-13267-043417FM-15+0443SBLP V0202401N00311009001CN0112651N1+03501+02001999999ADDGA1071+009001999GA2021+012001091MA1100911999999MW1171REMMET063METAR SBLP 191800Z 24006KT 9999 TS BKN030 FEW040CB 35/20 Q1009;EQDQ01+000022SCOTCV
0156832880999992009031919004-13267-043417FM-15+0443SBLP V0202101N002112200019N0112651N1+02501+02301999999ADDGA1041+008101999GA2021+012001091MA1101021999999MW1801MW2951REMMET066METAR SBLP 191900Z 21004KT 9999 -TSRA SCT027 FEW040CB 25/23 Q1010;EQDQ01+000022SCOTCV
0120832880999992009031920004-13267-043417FM-15+0443SBLP V0209999C000012200019N0112651N1+02501+02301999999ADDGA1041+009001999GF104991999999999999999999MA1101021999999REMMET051METAR SBLP 192000Z 00000KT 9999 SCT030 25/23 Q1010;
0143832880999992009031921004-13267-043417FM-15+0443SBLP V0209999C000012200019N0112651N1+02402+02301999999ADDGA1041+009001999GA2041+030001999GF104991999999999999999999MA1101081999999REMMET058METAR SBLP 192100Z 00000KT 9999 SCT030 SCT100 24/23 Q1011;
0072832880999992009032010004-13267-043417FM-15+0443SBLP V0209999C00001999999CY0099001N1+02401+02001999999ADDMA1101291999999REMMET045METAR SBLP 201000Z 00000KT CAVOK 24/20 Q1013;
0072832880999992009032011004-13267-043417FM-15+0443SBLP V0209999C00001999999CY0099001N1+02601+02001999999ADDMA1101391999999REMMET045METAR SBLP 201100Z 00000KT CAVOK 26/20 Q1014;
0072832880999992009032012004-13267-043417FM-15+0443SBLP V0209999C00001999999CY0099001N1+02801+02001999999ADDMA1101391999999REMMET045METAR SBLP 201200Z 00000KT CAVOK 28/20 Q1014;
0072832880999992009032013004-13267-043417FM-15+0443SBLP V0209999C00001999999CY0099001N1+03001+01901999999ADDMA1101391999999REMMET045METAR SBLP 201300Z 00000KT CAVOK 30/19 Q1014;
0072832880999992009032014004-13267-043417FM-15+0443SBLP V0209999C00001999999CY0099001N1+03201+01901999999ADDMA1101391999999REMMET045METAR SBLP 201400Z 00000KT CAVOK 32/19 Q1014;
0120832880999992009032015004-13267-043417FM-15+0443SBLP V0202901N003112200019N0112651N1+03301+01901999999ADDGA1021+009001999GF102991999999999999999999MA1101291999999REMMET051METAR SBLP 201500Z 29006KT 9999 FEW030 33/19 Q1013;
0120832880999992009032016004-13267-043417FM-15+0443SBLP V0203301N003112200019N0112651N1+03401+02101999999ADDGA1041+009001999GF104991999999999999999999MA1101191999999REMMET051METAR SBLP 201600Z 33006KT 9999 SCT030 34/21 Q1012;
0143832880999992009032017004-13267-043417FM-15+0443SBLP V0200901N003110300019N0112651N1+03101+02001999999ADDGA1041+009001999GA2071+030001999GF107991999999999999999999MA1101081999999REMMET058METAR SBLP 201700Z 09006KT 9999 SCT030 BKN100 31/20 Q1011;
0143832880999992009032018004-13267-043417FM-15+0443SBLP V0203601N003110300019N0112651N1+03301+01901999999ADDGA1041+009001999GA2071+030001999GF107991999999999999999999MA1101081999999REMMET058METAR SBLP 201800Z 36006KT 9999 SCT030 BKN100 33/19 Q1011;
0143832880999992009032019004-13267-043417FM-15+0443SBLP V0203301N003110300019N0112651N1+02801+02101999999ADDGA1041+009001999GA2071+030001999GF107991999999999999999999MA1101021999999REMMET058METAR SBLP 201900Z 33006KT 9999 SCT030 BKN100 28/21 Q1010;
0143832880999992009032020004-13267-043417FM-15+0443SBLP V0209999C000010300019N0112651N1+02901+02101999999ADDGA1021+009001999GA2071+030001999GF107991999999999999999999MA1101021999999REMMET058METAR SBLP 202000Z 00000KT 9999 FEW030 BKN100 29/21 Q1010;
0143832880999992009032021004-13267-043417FM-15+0443SBLP V0209999C000012200019N0112651N1+02801+02101999999ADDGA1021+009001999GA2041+030001999GF104991999999999999999999MA1101021999999REMMET058METAR SBLP 202100Z 00000KT 9999 FEW030 SCT100 28/21 Q1010;
0072832880999992009032110004-13267-043417FM-15+0443SBLP V0202101N00151999999CY0099001N1+02601+02101999999ADDMA1101291999999REMMET045METAR SBLP 211000Z 21003KT CAVOK 26/21 Q1013;
0072832880999992009032111004-13267-043417FM-15+0443SBLP V0201801N00311999999CY0099001N1+02701+02101999999ADDMA1101291999999REMMET045METAR SBLP 211100Z 18006KT CAVOK 27/21 Q1013;
0072832880999992009032112004-13267-043417FM-15+0443SBLP V0209999C00001999999CY0099001N1+03001+02201999999ADDMA1101291999999REMMET045METAR SBLP 211200Z 00000KT CAVOK 30/22 Q1013;
0120832880999992009032113004-13267-043417FM-15+0443SBLP V0200901N003112200019N0112651N1+03101+02101999999ADDGA1021+009001999GF102991999999999999999999MA1101291999999REMMET051METAR SBLP 211300Z 09006KT 9999 FEW030 31/21 Q1013;
0120832880999992009032114004-13267-043417FM-15+0443SBLP V0203601N002112200019N0112651N1+03301+02201999999ADDGA1041+009001999GF104991999999999999999999MA1101291999999REMMET051METAR SBLP 211400Z 36004KT 9999 SCT030 33/22 Q1013;
0120832880999992009032115004-13267-043417FM-15+0443SBLP V0203201N002112200019N0112651N1+03201+02101999999ADDGA1041+009001999GF104991999999999999999999MA1101081999999REMMET051METAR SBLP 211500Z 32004KT 9999 SCT030 32/21 Q1011;
0120832880999992009032116004-13267-043417FM-15+0443SBLP V0203601N003110090019N0112651N1+03301+02101999999ADDGA1071+009001999GF107991999999999999999999MA1101021999999REMMET051METAR SBLP 211600Z 36006KT 9999 BKN030 33/21 Q1010;
0120832880999992009032117004-13267-043417FM-15+0443SBLP V0203601N003110090019N0112651N1+03401+02001999999ADDGA1071+009001999GF107991999999999999999999MA1100911999999REMMET051METAR SBLP 211700Z 36006KT 9999 BKN030 34/20 Q1009;
0120832880999992009032118004-13267-043417FM-15+0443SBLP V0203601N003110090019N0112651N1+03401+02001999999ADDGA1071+009001999GF107991999999999999999999MA1100911999999REMMET051METAR SBLP 211800Z 36006KT 9999 BKN030 34/20 Q1009;
0120832880999992009032119004-13267-043417FM-15+0443SBLP V0209999C000012200019N0112651N1+03401+01801999999ADDGA1041+009001999GF104991999999999999999999MA1100811999999REMMET051METAR SBLP 211900Z 00000KT 9999 SCT030 34/18 Q1008;
0120832880999992009032120004-13267-043417FM-15+0443SBLP V0209999C000012200019N0112651N1+03401+02001999999ADDGA1041+009001999GF104991999999999999999999MA1100811999999REMMET051METAR SBLP 212000Z 00000KT 9999 SCT030 34/20 Q1008;
0120832880999992009032121004-13267-043417FM-15+0443SBLP V0209999C000012200019N0112651N1+03301+02001999999ADDGA1041+009001999GF104991999999999999999999MA1100911999999REMMET051METAR SBLP 212100Z 00000KT 9999 SCT030 33/20 Q1009;
0148832880999992009032210004-13267-043417FM-15+0443SBLP V0200701N002112200019N0112651N1+02401+02301999999ADDGA1041+009001999GA2041+030001999GF104991999999999999999999MA1101191999999REMMET063METAR SBLP 221000Z 07004KT 9999 SCT030 SCT100 24/23 Q1012 RERA;
0143832880999992009032211004-13267-043417FM-15+0443SBLP V0203601N002110300019N0112651N1+02401+02301999999ADDGA1021+009001999GA2071+030001999GF107991999999999999999999MA1101291999999REMMET058METAR SBLP 221100Z 36004KT 9999 FEW030 BKN100 24/23 Q1013;
0072832880999992009032212004-13267-043417FM-15+0443SBLP V0209999C00001999999CY0099001N1+02501+02201999999ADDMA1101391999999REMMET045METAR SBLP 221200Z 00000KT CAVOK 25/22 Q1014;
0143832880999992009032213004-13267-043417FM-15+0443SBLP V0209999C000010300019N0112651N1+02701+02301999999ADDGA1021+009001999GA2071+030001999GF107991999999999999999999MA1101291999999REMMET058METAR SBLP 221300Z 00000KT 9999 FEW030 BKN100 27/23 Q1013;
0143832880999992009032214004-13267-043417FM-15+0443SBLP V0200901N003112200019N0112651N1+03101+02101999999ADDGA1021+009001999GA2041+090001999GF104991999999999999999999MA1101291999999REMMET058METAR SBLP 221400Z 09006KT 9999 FEW030 SCT300 31/21 Q1013;
0143832880999992009032215004-13267-043417FM-15+0443SBLP V0203301N003112200019N0112651N1+03101+02301999999ADDGA1021+009001999GA2041+090001999GF104991999999999999999999MA1101191999999REMMET058METAR SBLP 221500Z 33006KT 9999 FEW030 SCT300 31/23 Q1012;
0143832880999992009032216004-13267-043417FM-15+0443SBLP V0203601N003112200019N0112651N1+03201+02201999999ADDGA1021+009001999GA2041+090001999GF104991999999999999999999MA1101021999999REMMET058METAR SBLP 221600Z 36006KT 9999 FEW030 SCT300 32/22 Q1010;
0120832880999992009032217004-13267-043417FM-15+0443SBLP V0203601N003112200019N0112651N1+03401+02101999999ADDGA1041+009001999GF104991999999999999999999MA1100911999999REMMET051METAR SBLP 221700Z 36006KT 9999 SCT030 34/21 Q1009;
0120832880999992009032218004-13267-043417FM-15+0443SBLP V0203601N003112200019N0112651N1+03601+02001999999ADDGA1041+009001999GF104991999999999999999999MA1100811999999REMMET051METAR SBLP 221800Z 36006KT 9999 SCT030 36/20 Q1008;
0120832880999992009032219004-13267-043417FM-15+0443SBLP V0203601N003110090019N0112651N1+03501+02001999999ADDGA1071+009001999GF107991999999999999999999MA1100711999999REMMET051METAR SBLP 221900Z 36006KT 9999 BKN030 35/20 Q1007;
0143832880999992009032220004-13267-043417FM-15+0443SBLP V0200901N003112200019N0112651N1+03301+02101999999ADDGA1041+009001999GA2041+030001999GF104991999999999999999999MA1100811999999REMMET058METAR SBLP 222000Z 09006KT 9999 SCT030 SCT100 33/21 Q1008;
0143832880999992009032221004-13267-043417FM-15+0443SBLP V0200901N003112200019N0112651N1+03101+02101999999ADDGA1041+009001999GA2041+030001999GF104991999999999999999999MA1100811999999REMMET058METAR SBLP 222100Z 09006KT 9999 SCT030 SCT100 31/21 Q1008;
0143832880999992009032310004-13267-043417FM-15+0443SBLP V0209999C000010300019N0112651N1+02301+02101999999ADDGA1041+003001999GA2071+030001999GF107991999999999999999999MA1101191999999REMMET058METAR SBLP 231000Z 00000KT 9999 SCT010 BKN100 23/21 Q1012;
0153832880999992009032311004-13267-043417FM-15+0443SBLP V0209999C000010300019N0090001N1+02301+02101999999ADDGA1041+003001999GA2071+030001999GF107991999999999999999999MA1101291999999MW1611REMMET062METAR SBLP 231100Z 00000KT 9000 -RA SCT010 BKN100 23/21 Q1013;
0153832880999992009032312004-13267-043417FM-15+0443SBLP V0209999C000010300019N0090001N1+02301+02101999999ADDGA1041+003001999GA2081+030001999GF108991999999999999999999MA1101391999999MW1611REMMET062METAR SBLP 231200Z 00000KT 9000 -RA SCT010 OVC100 23/21 Q1014;
0143832880999992009032313004-13267-043417FM-15+0443SBLP V0209999C000010300019N0112651N1+02301+02101999999ADDGA1041+003001999GA2081+030001999GF108991999999999999999999MA1101491999999REMMET058METAR SBLP 231300Z 00000KT 9999 SCT010 OVC100 23/21 Q1015;
0153832880999992009032314004-13267-043417FM-15+0443SBLP V0209999C000010300019N0090001N1+02301+02101999999ADDGA1041+003001999GA2071+030001999GF107991999999999999999999MA1101391999999MW1611REMMET062METAR SBLP 231400Z 00000KT 9000 -RA SCT010 BKN100 23/21 Q1014;
0153832880999992009032315004-13267-043417FM-15+0443SBLP V0209999C000010300019N0090001N1+02201+02101999999ADDGA1041+004501999GA2081+030001999GF108991999999999999999999MA1101291999999MW1611REMMET062METAR SBLP 231500Z 00000KT 9000 -RA SCT015 OVC100 22/21 Q1013;
0143832880999992009032316004-13267-043417FM-15+0443SBLP V0209999C000010300019N0112651N1+02401+02201999999ADDGA1041+004501999GA2071+030001999GF107991999999999999999999MA1101191999999REMMET058METAR SBLP 231600Z 00000KT 9999 SCT015 BKN100 24/22 Q1012;
0143832880999992009032317004-13267-043417FM-15+0443SBLP V0201201N001510300019N0112651N1+02501+02301999999ADDGA1041+004501999GA2071+030001999GF107991999999999999999999MA1101021999999REMMET058METAR SBLP 231700Z 12003KT 9999 SCT015 BKN100 25/23 Q1010;
0143832880999992009032318004-13267-043417FM-15+0443SBLP V0202301N002110300019N0112651N1+02501+02301999999ADDGA1041+003001999GA2071+030001999GF107991999999999999999999MA1101021999999REMMET058METAR SBLP 231800Z 23004KT 9999 SCT010 BKN100 25/23 Q1010;
0143832880999992009032319004-13267-043417FM-15+0443SBLP V0202101N002610300019N0112651N1+02501+02201999999ADDGA1041+003001999GA2071+030001999GF107991999999999999999999MA1100811999999REMMET058METAR SBLP 231900Z 21005KT 9999 SCT010 BKN100 25/22 Q1008;
0143832880999992009032320004-13267-043417FM-15+0443SBLP V0202101N002110300019N0112651N1+02401+02201999999ADDGA1021+006001999GA2071+030001999GF107991999999999999999999MA1100811999999REMMET058METAR SBLP 232000Z 21004KT 9999 FEW020 BKN100 24/22 Q1008;
0143832880999992009032321004-13267-043417FM-15+0443SBLP V0202401N001510300019N0112651N1+02401+02201999999ADDGA1021+006001999GA2071+030001999GF107991999999999999999999MA1100911999999REMMET058METAR SBLP 232100Z 24003KT 9999 FEW020 BKN100 24/22 Q1009;
0153832880999992009032410004-13267-043417FM-15+0443SBLP V0209999C000010300019N0090001N1+02301+02301999999ADDGA1041+006001999GA2081+030001999GF108991999999999999999999MA1101191999999MW1611REMMET062METAR SBLP 241000Z 00000KT 9000 -RA SCT020 OVC100 23/23 Q1012;
0143832880999992009032411004-13267-043417FM-15+0443SBLP V0203601N003110300019N0112651N1+02501+02201999999ADDGA1041+006001999GA2071+030001999GF107991999999999999999999MA1101291999999REMMET058METAR SBLP 241100Z 36006KT 9999 SCT020 BKN100 25/22 Q1013;
0143832880999992009032412004-13267-043417FM-15+0443SBLP V0203401N003110300019N0112651N1+02501+02301999999ADDGA1041+006001999GA2071+030001999GF107991999999999999999999MA1101391999999REMMET058METAR SBLP 241200Z 34006KT 9999 SCT020 BKN100 25/23 Q1014;
0143832880999992009032413004-13267-043417FM-15+0443SBLP V0209999C000010300019N0112651N1+02601+02301999999ADDGA1041+006001999GA2071+030001999GF107991999999999999999999MA1101391999999REMMET058METAR SBLP 241300Z 00000KT 9999 SCT020 BKN100 26/23 Q1014;
0143832880999992009032414004-13267-043417FM-15+0443SBLP V0203401N003112200019N0112651N1+02801+02301999999ADDGA1021+006001999GA2041+030001999GF104991999999999999999999MA1101291999999REMMET058METAR SBLP 241400Z 34006KT 9999 FEW020 SCT100 28/23 Q1013;
0143832880999992009032415004-13267-043417FM-15+0443SBLP V0203601N003112200019N0112651N1+03001+02201999999ADDGA1041+006001999GA2041+030001999GF104991999999999999999999MA1101191999999REMMET058METAR SBLP 241500Z 36006KT 9999 SCT020 SCT100 30/22 Q1012;
0143832880999992009032416004-13267-043417FM-15+0443SBLP V0203501N002612200019N0112651N1+03001+02201999999ADDGA1021+006901999GA2041+030001999GF104991999999999999999999MA1101081999999REMMET058METAR SBLP 241600Z 35005KT 9999 FEW023 SCT100 30/22 Q1011;
0143832880999992009032417004-13267-043417FM-15+0443SBLP V0203601N002612200019N0112651N1+03101+02001999999ADDGA1021+009001999GA2041+030001999GF104991999999999999999999MA1101021999999REMMET058METAR SBLP 241700Z 36005KT 9999 FEW030 SCT100 31/20 Q1010;
0143832880999992009032418004-13267-043417FM-15+0443SBLP V0203601N003112200019N0112651N1+03201+02001999999ADDGA1021+009001999GA2041+030001999GF104991999999999999999999MA1100911999999REMMET058METAR SBLP 241800Z 36006KT 9999 FEW030 SCT100 32/20 Q1009;
0143832880999992009032419004-13267-043417FM-15+0443SBLP V0203601N002612200019N0112651N1+03201+02201999999ADDGA1021+009001999GA2041+030001999GF104991999999999999999999MA1100911999999REMMET058METAR SBLP 241900Z 36005KT 9999 FEW030 SCT100 32/22 Q1009;
0143832880999992009032420004-13267-043417FM-15+0443SBLP V0203601N002112200019N0112651N1+03201+02101999999ADDGA1021+009001999GA2041+030001999GF104991999999999999999999MA1100911999999REMMET058METAR SBLP 242000Z 36004KT 9999 FEW030 SCT100 32/21 Q1009;
0143832880999992009032421004-13267-043417FM-15+0443SBLP V0203601N002110300019N0080001N1+03001+02201999999ADDGA1021+009001999GA2071+030001999GF107991999999999999999999MA1100911999999REMMET058METAR SBLP 242100Z 36004KT 8000 FEW030 BKN100 30/22 Q1009;
0153832880999992009032510004-13267-043417FM-15+0443SBLP V0209999C000010300019N0090001N1+02301+02201999999ADDGA1041+004501999GA2071+030001999GF107991999999999999999999MA1101291999999MW1611REMMET062METAR SBLP 251000Z 00000KT 9000 -RA SCT015 BKN100 23/22 Q1013;
0153832880999992009032511004-13267-043417FM-15+0443SBLP V0209999C000010270019N0090001N1+02201+02201999999ADDGA1041+006001999GA2081+027001999GF108991999999999999999999MA1101291999999MW1611REMMET062METAR SBLP 251100Z 00000KT 9000 -RA SCT020 OVC090 22/22 Q1013;
0143832880999992009032512004-13267-043417FM-15+0443SBLP V0209999C000010300019N0112651N1+02301+02301999999ADDGA1041+006001999GA2071+030001999GF107991999999999999999999MA1101391999999REMMET058METAR SBLP 251200Z 00000KT 9999 SCT020 BKN100 23/23 Q1014;
0143832880999992009032513004-13267-043417FM-15+0443SBLP V0209999C000010300019N0112651N1+02501+02201999999ADDGA1041+006001999GA2071+030001999GF107991999999999999999999MA1101391999999REMMET058METAR SBLP 251300Z 00000KT 9999 SCT020 BKN100 25/22 Q1014;
0143832880999992009032514004-13267-043417FM-15+0443SBLP V0209999C000010300019N0112651N1+02801+02101999999ADDGA1041+006001999GA2071+030001999GF107991999999999999999999MA1101291999999REMMET058METAR SBLP 251400Z 00000KT 9999 SCT020 BKN100 28/21 Q1013;
0143832880999992009032515004-13267-043417FM-15+0443SBLP V0209999C000012200019N0112651N1+03001+02101999999ADDGA1021+006001999GA2041+030001999GF104991999999999999999999MA1101191999999REMMET058METAR SBLP 251500Z 00000KT 9999 FEW020 SCT100 30/21 Q1012;
0120832880999992009032516004-13267-043417FM-15+0443SBLP V0203601N002112200019N0112651N1+03001+02101999999ADDGA1041+009001999GF104991999999999999999999MA1101081999999REMMET051METAR SBLP 251600Z 36004KT 9999 SCT030 30/21 Q1011;
0120832880999992009032517004-13267-043417FM-15+0443SBLP V0209999C000012200019N0112651N1+03201+02301999999ADDGA1041+009001999GF104991999999999999999999MA1101021999999REMMET051METAR SBLP 251700Z 00000KT 9999 SCT030 32/23 Q1010;
0120832880999992009032518004-13267-043417FM-15+0443SBLP V0209999C000012200019N0112651N1+03001+02201999999ADDGA1041+009001999GF104991999999999999999999MA1100911999999REMMET051METAR SBLP 251800Z 00000KT 9999 SCT030 30/22 Q1009;
0143832880999992009032519004-13267-043417FM-15+0443SBLP V0209999C000010900019N0112651N1+03101+02301999999ADDGA1041+009001999GA2071+090001999GF107991999999999999999999MA1100811999999REMMET058METAR SBLP 251900Z 00000KT 9999 SCT030 BKN300 31/23 Q1008;
0120832880999992009032520004-13267-043417FM-15+0443SBLP V0209999C000012200019N0112651N1+03101+02201999999ADDGA1021+009001999GF102991999999999999999999MA1100811999999REMMET051METAR SBLP 252000Z 00000KT 9999 FEW030 31/22 Q1008;
0120832880999992009032521004-13267-043417FM-15+0443SBLP V0209999C000012200019N0112651N1+02901+02201999999ADDGA1021+009001999GF102991999999999999999999MA1100811999999REMMET051METAR SBLP 252100Z 00000KT 9999 FEW030 29/22 Q1008;
0120832880999992009032610004-13267-043417FM-15+0443SBLP V0209999C000012200019N0112651N1+02501+02301999999ADDGA1041+009001999GF104991999999999999999999MA1101191999999REMMET051METAR SBLP 261000Z 00000KT 9999 SCT030 25/23 Q1012;
0143832880999992009032611004-13267-043417FM-15+0443SBLP V0203301N002112200019N0112651N1+02601+02301999999ADDGA1021+009001999GA2041+030001999GF104991999999999999999999MA1101291999999REMMET058METAR SBLP 261100Z 33004KT 9999 FEW030 SCT100 26/23 Q1013;
0120832880999992009032612004-13267-043417FM-15+0443SBLP V0203601N002112200019N0112651N1+02801+02401999999ADDGA1021+009001999GF102991999999999999999999MA1101291999999REMMET051METAR SBLP 261200Z 36004KT 9999 FEW030 28/24 Q1013;
0143832880999992009032613004-13267-043417FM-15+0443SBLP V0203601N003112200019N0112651N1+03001+02201999999ADDGA1021+009001999GA2041+090001999GF104991999999999999999999MA1101291999999REMMET058METAR SBLP 261300Z 36006KT 9999 FEW030 SCT300 30/22 Q1013;
0120832880999992009032614004-13267-043417FM-15+0443SBLP V0203601N003112200019N0112651N1+03201+02201999999ADDGA1041+009001999GF104991999999999999999999MA1101191999999REMMET051METAR SBLP 261400Z 36006KT 9999 SCT030 32/22 Q1012;
0143832880999992009032615004-13267-043417FM-15+0443SBLP V0200601N002112200019N0112651N1+03201+02201999999ADDGA1041+009001999GA2041+090001999GF104991999999999999999999MA1101081999999REMMET058METAR SBLP 261500Z 06004KT 9999 SCT030 SCT300 32/22 Q1011;
0120832880999992009032616004-13267-043417FM-15+0443SBLP V0203601N003112200019N0112651N1+03301+02101999999ADDGA1041+009001999GF104991999999999999999999MA1101021999999REMMET051METAR SBLP 261600Z 36006KT 9999 SCT030 33/21 Q1010;
0120832880999992009032617004-13267-043417FM-15+0443SBLP V0203601N003112200019N0112651N1+03401+02101999999ADDGA1041+009001999GF104991999999999999999999MA1100911999999REMMET051METAR SBLP 261700Z 36006KT 9999 SCT030 34/21 Q1009;
0120832880999992009032618004-13267-043417FM-15+0443SBLP V0203601N003112200019N0112651N1+03501+02001999999ADDGA1041+009001999GF104991999999999999999999MA1100811999999REMMET051METAR SBLP 261800Z 36006KT 9999 SCT030 35/20 Q1008;
0120832880999992009032619004-13267-043417FM-15+0443SBLP V0203601N003112200019N0112651N1+03401+02001999999ADDGA1041+009001999GF104991999999999999999999MA1100811999999REMMET051METAR SBLP 261900Z 36006KT 9999 SCT030 34/20 Q1008;
0120832880999992009032620004-13267-043417FM-15+0443SBLP V0203601N003112200019N0112651N1+03301+02101999999ADDGA1041+009001999GF104991999999999999999999MA1100811999999REMMET051METAR SBLP 262000Z 36006KT 9999 SCT030 33/21 Q1008;
0120832880999992009032621004-13267-043417FM-15+0443SBLP V0203601N003112200019N0112651N1+03101+02101999999ADDGA1041+009001999GF104991999999999999999999MA1100911999999REMMET051METAR SBLP 262100Z 36006KT 9999 SCT030 31/21 Q1009;
0153832880999992009032710004-13267-043417FM-15+0443SBLP V0209999C000010300019N0090001N1+02101+02101999999ADDGA1041+003001999GA2081+030001999GF108991999999999999999999MA1101491999999MW1611REMMET062METAR SBLP 271000Z 00000KT 9000 -RA SCT010 OVC100 21/21 Q1015;
0153832880999992009032711004-13267-043417FM-15+0443SBLP V0209999C000010300019N0090001N1+02101+02101999999ADDGA1041+003001999GA2081+030001999GF108991999999999999999999MA1101491999999MW1611REMMET062METAR SBLP 271100Z 00000KT 9000 -RA SCT010 OVC100 21/21 Q1015;
0153832880999992009032712004-13267-043417FM-15+0443SBLP V0209999C000010300019N0090001N1+02201+02101999999ADDGA1041+003001999GA2081+030001999GF108991999999999999999999MA1101491999999MW1611REMMET062METAR SBLP 271200Z 00000KT 9000 -RA SCT010 OVC100 22/21 Q1015;
0143832880999992009032713004-13267-043417FM-15+0443SBLP V0209999C000010300019N0112651N1+02201+02101999999ADDGA1041+003001999GA2081+030001999GF108991999999999999999999MA1101591999999REMMET058METAR SBLP 271300Z 00000KT 9999 SCT010 OVC100 22/21 Q1016;
0143832880999992009032714004-13267-043417FM-15+0443SBLP V0209999C000010300019N0112651N1+02301+02101999999ADDGA1041+003001999GA2071+030001999GF107991999999999999999999MA1101591999999REMMET058METAR SBLP 271400Z 00000KT 9999 SCT010 BKN100 23/21 Q1016;
0143832880999992009032715004-13267-043417FM-15+0443SBLP V0201201N002110045019N0112651N1+02501+02201999999ADDGA1071+004501999GA2071+030001999GF107991999999999999999999MA1101591999999REMMET058METAR SBLP 271500Z 12004KT 9999 BKN015 BKN100 25/22 Q1016;
0143832880999992009032716004-13267-043417FM-15+0443SBLP V0209999C000010300019N0112651N1+02501+02201999999ADDGA1041+004501999GA2071+030001999GF107991999999999999999999MA1101491999999REMMET058METAR SBLP 271600Z 00000KT 9999 SCT015 BKN100 25/22 Q1015;
0143832880999992009032717004-13267-043417FM-15+0443SBLP V0209999C000010300019N0112651N1+02701+02101999999ADDGA1041+004501999GA2071+030001999GF107991999999999999999999MA1101291999999REMMET058METAR SBLP 271700Z 00000KT 9999 SCT015 BKN100 27/21 Q1013;
0143832880999992009032718004-13267-043417FM-15+0443SBLP V0209999C000010300019N0112651N1+02701+02101999999ADDGA1041+004501999GA2071+030001999GF107991999999999999999999MA1101191999999REMMET058METAR SBLP 271800Z 00000KT 9999 SCT015 BKN100 27/21 Q1012;
0143832880999992009032719004-13267-043417FM-15+0443SBLP V0201901N002110300019N0112651N1+02601+02101999999ADDGA1041+004501999GA2071+030001999GF107991999999999999999999MA1101191999999REMMET058METAR SBLP 271900Z 19004KT 9999 SCT015 BKN100 26/21 Q1012;
0143832880999992009032720004-13267-043417FM-15+0443SBLP V0202001N002110300019N0112651N1+02601+02101999999ADDGA1041+004501999GA2071+030001999GF107991999999999999999999MA1101081999999REMMET058METAR SBLP 272000Z 20004KT 9999 SCT015 BKN100 26/21 Q1011;
0143832880999992009032721004-13267-043417FM-15+0443SBLP V0209999C000010300019N0112651N1+02401+02201999999ADDGA1041+003001999GA2071+030001999GF107991999999999999999999MA1101081999999REMMET058METAR SBLP 272100Z 00000KT 9999 SCT010 BKN100 24/22 Q1011;
0072832880999992009032810004-13267-043417FM-15+0443SBLP V0209999C00001999999CY0099001N1+02201+02101999999ADDMA1101291999999REMMET045METAR SBLP 281000Z 00000KT CAVOK 22/21 Q1013;
0143832880999992009032811004-13267-043417FM-15+0443SBLP V0200801N001510030019N0112651N1+02301+02201999999ADDGA1071+003001999GA2071+030001999GF107991999999999999999999MA1101391999999REMMET058METAR SBLP 281100Z 08003KT 9999 BKN010 BKN100 23/22 Q1014;
0120832880999992009032812004-13267-043417FM-15+0443SBLP V0209999C000010060019N0112651N1+02401+02201999999ADDGA1071+006001999GF107991999999999999999999MA1101391999999REMMET051METAR SBLP 281200Z 00000KT 9999 BKN020 24/22 Q1014;
0120832880999992009032813004-13267-043417FM-15+0443SBLP V0209999C000012200019N0112651N1+02601+02201999999ADDGA1041+006001999GF104991999999999999999999MA1101391999999REMMET051METAR SBLP 281300Z 00000KT 9999 SCT020 26/22 Q1014;
0143832880999992009032814004-13267-043417FM-15+0443SBLP V0209999C000010300019N0112651N1+02801+02201999999ADDGA1021+009001999GA2071+030001999GF107991999999999999999999MA1101391999999REMMET058METAR SBLP 281400Z 00000KT 9999 FEW030 BKN100 28/22 Q1014;
0120832880999992009032815004-13267-043417FM-15+0443SBLP V0209999C000012200019N0112651N1+03001+02201999999ADDGA1041+009001999GF104991999999999999999999MA1101291999999REMMET051METAR SBLP 281500Z 00000KT 9999 SCT030 30/22 Q1013;
0120832880999992009032816004-13267-043417FM-15+0443SBLP V0202901N001512200019N0112651N1+03101+02301999999ADDGA1041+009001999GF104991999999999999999999MA1101081999999REMMET051METAR SBLP 281600Z 29003KT 9999 SCT030 31/23 Q1011;
0120832880999992009032817004-13267-043417FM-15+0443SBLP V0203001N001512200019N0112651N1+03301+02101999999ADDGA1021+009001999GF102991999999999999999999MA1101021999999REMMET051METAR SBLP 281700Z 30003KT 9999 FEW030 33/21 Q1010;
0120832880999992009032818004-13267-043417FM-15+0443SBLP V0202901N002112200019N0112651N1+03301+02001999999ADDGA1021+009001999GF102991999999999999999999MA1100911999999REMMET051METAR SBLP 281800Z 29004KT 9999 FEW030 33/20 Q1009;
0120832880999992009032819004-13267-043417FM-15+0443SBLP V0202701N002112200019N0112651N1+03401+02001999999ADDGA1021+009001999GF102991999999999999999999MA1100811999999REMMET051METAR SBLP 281900Z 27004KT 9999 FEW030 34/20 Q1008;
0120832880999992009032820004-13267-043417FM-15+0443SBLP V0209999C000012200019N0112651N1+03201+02001999999ADDGA1021+009001999GF102991999999999999999999MA1100811999999REMMET051METAR SBLP 282000Z 00000KT 9999 FEW030 32/20 Q1008;
0120832880999992009032821004-13267-043417FM-15+0443SBLP V0209999C000012200019N0112651N1+03101+02101999999ADDGA1021+009001999GF102991999999999999999999MA1100811999999REMMET051METAR SBLP 282100Z 00000KT 9999 FEW030 31/21 Q1008;
0188832880999992009032910004-13267-043417FM-15+0443SBLP V0202101N00211012001CN0080001N1+02301+02201999999ADDGA1041+003001999GA2021+012001091GA3071+027001999GF107991999999999999999999MA1101391999999MW1161MW2171REMMET075METAR SBLP 291000Z 21004KT 8000 TS VCSH SCT010 FEW040CB BKN090 23/22 Q1014;
0143832880999992009032911004-13267-043417FM-15+0443SBLP V0203301N001510270019N0112651N1+02401+02101999999ADDGA1041+003001999GA2071+027001999GF107991999999999999999999MA1101391999999REMMET058METAR SBLP 291100Z 33003KT 9999 SCT010 BKN090 24/21 Q1014;
0143832880999992009032912004-13267-043417FM-15+0443SBLP V0200301N002110270019N0112651N1+02601+02301999999ADDGA1021+004501999GA2071+027001999GF107991999999999999999999MA1101391999999REMMET058METAR SBLP 291200Z 03004KT 9999 FEW015 BKN090 26/23 Q1014;
0143832880999992009032913004-13267-043417FM-15+0443SBLP V0200301N002110270019N0112651N1+02601+02301999999ADDGA1021+004501999GA2071+027001999GF107991999999999999999999MA1101391999999REMMET058METAR SBLP 291300Z 03004KT 9999 FEW015 BKN090 26/23 Q1014;
0143832880999992009032914004-13267-043417FM-15+0443SBLP V0203501N001510300019N0112651N1+02901+02301999999ADDGA1021+006001999GA2071+030001999GF107991999999999999999999MA1101291999999REMMET058METAR SBLP 291400Z 35003KT 9999 FEW020 BKN100 29/23 Q1013;
0143832880999992009032915004-13267-043417FM-15+0443SBLP V0202701N002612200019N0112651N1+03001+02301999999ADDGA1021+008101999GA2041+030001999GF104991999999999999999999MA1101291999999REMMET058METAR SBLP 291500Z 27005KT 9999 FEW027 SCT100 30/23 Q1013;
0143832880999992009032916004-13267-043417FM-15+0443SBLP V0201901N003110300019N0112651N1+03201+02201999999ADDGA1041+009001999GA2071+030001999GF107991999999999999999999MA1101081999999REMMET058METAR SBLP 291600Z 19006KT 9999 SCT030 BKN100 32/22 Q1011;
0143832880999992009032917004-13267-043417FM-15+0443SBLP V0202401N003110300019N0112651N1+03101+02301999999ADDGA1041+009001999GA2071+030001999GF107991999999999999999999MA1101081999999REMMET058METAR SBLP 291700Z 24006KT 9999 SCT030 BKN100 31/23 Q1011;
0143832880999992009032918004-13267-043417FM-15+0443SBLP V0202401N003112200019N0112651N1+03101+02201999999ADDGA1041+009001999GA2041+030001999GF104991999999999999999999MA1101021999999REMMET058METAR SBLP 291800Z 24006KT 9999 SCT030 SCT100 31/22 Q1010;
0143832880999992009032919004-13267-043417FM-15+0443SBLP V0201801N002112200019N0112651N1+03001+02201999999ADDGA1021+009001999GA2041+030001999GF104991999999999999999999MA1100911999999REMMET058METAR SBLP 291900Z 18004KT 9999 FEW030 SCT100 30/22 Q1009;
0143832880999992009032920004-13267-043417FM-15+0443SBLP V0209999C000012200019N0112651N1+02901+02301999999ADDGA1021+009001999GA2041+030001999GF104991999999999999999999MA1100911999999REMMET058METAR SBLP 292000Z 00000KT 9999 FEW030 SCT100 29/23 Q1009;
0143832880999992009032921004-13267-043417FM-15+0443SBLP V0209999C000010300019N0112651N1+02701+02301999999ADDGA1041+009001999GA2071+030001999GF107991999999999999999999MA1100911999999REMMET058METAR SBLP 292100Z 00000KT 9999 SCT030 BKN100 27/23 Q1009;
0143832880999992009033010004-13267-043417FM-15+0443SBLP V0209999C000010300019N0112651N1+02301+02201999999ADDGA1021+006001999GA2071+030001999GF107991999999999999999999MA1101291999999REMMET058METAR SBLP 301000Z 00000KT 9999 FEW020 BKN100 23/22 Q1013;
0143832880999992009033011004-13267-043417FM-15+0443SBLP V0209999C000010300019N0112651N1+02501+02201999999ADDGA1021+006001999GA2071+030001999GF107991999999999999999999MA1101391999999REMMET058METAR SBLP 301100Z 00000KT 9999 FEW020 BKN100 25/22 Q1014;
0143832880999992009033012004-13267-043417FM-15+0443SBLP V0209999C000012200019N0112651N1+02801+02101999999ADDGA1021+006001999GA2041+030001999GF104991999999999999999999MA1101391999999REMMET058METAR SBLP 301200Z 00000KT 9999 FEW020 SCT100 28/21 Q1014;
0143832880999992009033013004-13267-043417FM-15+0443SBLP V0209999C000012200019N0112651N1+02901+02201999999ADDGA1021+009001999GA2041+030001999GF104991999999999999999999MA1101391999999REMMET058METAR SBLP 301300Z 00000KT 9999 FEW030 SCT100 29/22 Q1014;
0143832880999992009033014004-13267-043417FM-15+0443SBLP V0209999C000010300019N0112651N1+03001+02101999999ADDGA1021+009001999GA2071+030001999GF107991999999999999999999MA1101291999999REMMET058METAR SBLP 301400Z 00000KT 9999 FEW030 BKN100 30/21 Q1013;
0143832880999992009033015004-13267-043417FM-15+0443SBLP V0209999C000010300019N0112651N1+03101+02201999999ADDGA1021+009001999GA2071+030001999GF107991999999999999999999MA1101291999999REMMET058METAR SBLP 301500Z 00000KT 9999 FEW030 BKN100 31/22 Q1013;
0120832880999992009033016004-13267-043417FM-15+0443SBLP V0202701N001512200019N0112651N1+03301+02301999999ADDGA1041+009001999GF104991999999999999999999MA1101081999999REMMET051METAR SBLP 301600Z 27003KT 9999 SCT030 33/23 Q1011;
0120832880999992009033017004-13267-043417FM-15+0443SBLP V0209999C000012200019N0112651N1+03301+02101999999ADDGA1041+009001999GF104991999999999999999999MA1101021999999REMMET051METAR SBLP 301700Z 00000KT 9999 SCT030 33/21 Q1010;
0120832880999992009033018004-13267-043417FM-15+0443SBLP V0201801N004112200019N0112651N1+03201+02301999999ADDGA1041+009001999GF104991999999999999999999MA1100911999999REMMET051METAR SBLP 301800Z 18008KT 9999 SCT030 32/23 Q1009;
0120832880999992009033019004-13267-043417FM-15+0443SBLP V0201801N003112200019N0112651N1+03301+02201999999ADDGA1021+009001999GF102991999999999999999999MA1100911999999REMMET051METAR SBLP 301900Z 18006KT 9999 FEW030 33/22 Q1009;
0120832880999992009033020004-13267-043417FM-15+0443SBLP V0201601N002112200019N0112651N1+03201+02201999999ADDGA1021+009001999GF102991999999999999999999MA1100811999999REMMET051METAR SBLP 302000Z 16004KT 9999 FEW030 32/22 Q1008;
0120832880999992009033021004-13267-043417FM-15+0443SBLP V0201701N001512200019N0112651N1+03101+02301999999ADDGA1021+009001999GF102991999999999999999999MA1100811999999REMMET051METAR SBLP 302100Z 17003KT 9999 FEW030 31/23 Q1008;
0072832880999992009033110004-13267-043417FM-15+0443SBLP V0209999C00001999999CY0099001N1+02501+02301999999ADDMA1101081999999REMMET045METAR SBLP 311000Z 00000KT CAVOK 25/23 Q1011;
0143832880999992009033111004-13267-043417FM-15+0443SBLP V0209999C000010300019N0112651N1+02601+02301999999ADDGA1021+006001999GA2071+030001999GF107991999999999999999999MA1101191999999REMMET058METAR SBLP 311100Z 00000KT 9999 FEW020 BKN100 26/23 Q1012;
0143832880999992009033112004-13267-043417FM-15+0443SBLP V0201601N002112200019N0112651N1+02801+02301999999ADDGA1021+006001999GA2041+030001999GF104991999999999999999999MA1101191999999REMMET058METAR SBLP 311200Z 16004KT 9999 FEW020 SCT100 28/23 Q1012;
0143832880999992009033113004-13267-043417FM-15+0443SBLP V0200901N002112200019N0112651N1+02901+02301999999ADDGA1041+006001999GA2041+030001999GF104991999999999999999999MA1101291999999REMMET058METAR SBLP 311300Z 09004KT 9999 SCT020 SCT100 29/23 Q1013;
0120832880999992009033114004-13267-043417FM-15+0443SBLP V0200601N003112200019N0112651N1+03001+02301999999ADDGA1041+009001999GF104991999999999999999999MA1101191999999REMMET051METAR SBLP 311400Z 06006KT 9999 SCT030 30/23 Q1012;
0120832880999992009033115004-13267-043417FM-15+0443SBLP V0200901N002112200019N0112651N1+03101+02301999999ADDGA1041+009001999GF104991999999999999999999MA1101081999999REMMET051METAR SBLP 311500Z 09004KT 9999 SCT030 31/23 Q1011;
0120832880999992009033116004-13267-043417FM-15+0443SBLP V0203601N003112200019N0112651N1+03201+02101999999ADDGA1041+009001999GF104991999999999999999999MA1100911999999REMMET051METAR SBLP 311600Z 36006KT 9999 SCT030 32/21 Q1009;
0120832880999992009033117004-13267-043417FM-15+0443SBLP V0203601N003112200019N0112651N1+03401+02101999999ADDGA1041+009001999GF104991999999999999999999MA1100811999999REMMET051METAR SBLP 311700Z 36006KT 9999 SCT030 34/21 Q1008;
0120832880999992009033118004-13267-043417FM-15+0443SBLP V0203601N003110090019N0112651N1+03501+02001999999ADDGA1071+009001999GF107991999999999999999999MA1100811999999REMMET051METAR SBLP 311800Z 36006KT 9999 BKN030 35/20 Q1008;
0120832880999992009033119004-13267-043417FM-15+0443SBLP V0203601N003110090019N0112651N1+03401+02001999999ADDGA1071+009001999GF107991999999999999999999MA1100911999999REMMET051METAR SBLP 311900Z 36006KT 9999 BKN030 34/20 Q1009;
0120832880999992009033120004-13267-043417FM-15+0443SBLP V0209999C000010090019N0112651N1+03201+02001999999ADDGA1071+009001999GF107991999999999999999999MA1100911999999REMMET051METAR SBLP 312000Z 00000KT 9999 BKN030 32/20 Q1009;
0120832880999992009033121004-13267-043417FM-15+0443SBLP V0209999C000012200019N0112651N1+02901+02101999999ADDGA1041+009001999GF104991999999999999999999MA1100911999999REMMET051METAR SBLP 312100Z 00000KT 9999 SCT030 29/21 Q1009;
0143832880999992009040110004-13267-043417FM-15+0443SBLP V0203601N002110300019N0112651N1+02401+02301999999ADDGA1041+006001999GA2071+030001999GF107991999999999999999999MA1101191999999REMMET058METAR SBLP 011000Z 36004KT 9999 SCT020 BKN100 24/23 Q1012;
0143832880999992009040111004-13267-043417FM-15+0443SBLP V0200701N002110300019N0112651N1+02601+02301999999ADDGA1021+006001999GA2071+030001999GF107991999999999999999999MA1101291999999REMMET058METAR SBLP 011100Z 07004KT 9999 FEW020 BKN100 26/23 Q1013;
0143832880999992009040112004-13267-043417FM-15+0443SBLP V0203601N003110300019N0112651N1+02801+02301999999ADDGA1041+006001999GA2071+030001999GF107991999999999999999999MA1101391999999REMMET058METAR SBLP 011200Z 36006KT 9999 SCT020 BKN100 28/23 Q1014;
0143832880999992009040113004-13267-043417FM-15+0443SBLP V0202901N002110300019N0112651N1+02801+02201999999ADDGA1041+006001999GA2071+030001999GF107991999999999999999999MA1101391999999REMMET058METAR SBLP 011300Z 29004KT 9999 SCT020 BKN100 28/22 Q1014;
0143832880999992009040114004-13267-043417FM-15+0443SBLP V0203001N001510300019N0112651N1+02901+02201999999ADDGA1041+006001999GA2071+030001999GF107991999999999999999999MA1101291999999REMMET058METAR SBLP 011400Z 30003KT 9999 SCT020 BKN100 29/22 Q1013;
0148832880999992009040115004-13267-043417FM-15+0443SBLP V0200601N002110300019N0112651N1+02801+02401999999ADDGA1041+006001999GA2071+030001999GF107991999999999999999999MA1101191999999REMMET063METAR SBLP 011500Z 06004KT 9999 SCT020 BKN100 28/24 Q1012 RERA;
0143832880999992009040116004-13267-043417FM-15+0443SBLP V0203601N003110300019N0112651N1+02901+02201999999ADDGA1041+006001999GA2071+030001999GF107991999999999999999999MA1101081999999REMMET058METAR SBLP 011600Z 36006KT 9999 SCT020 BKN100 29/22 Q1011;
0143832880999992009040117004-13267-043417FM-15+0443SBLP V0203601N003110300019N0112651N1+03101+02101999999ADDGA1021+006001999GA2071+030001999GF107991999999999999999999MA1101021999999REMMET058METAR SBLP 011700Z 36006KT 9999 FEW020 BKN100 31/21 Q1010;
0143832880999992009040118004-13267-043417FM-15+0443SBLP V0203601N003110300019N0112651N1+03301+02001999999ADDGA1041+009001999GA2071+030001999GF107991999999999999999999MA1100911999999REMMET058METAR SBLP 011800Z 36006KT 9999 SCT030 BKN100 33/20 Q1009;
0143832880999992009040119004-13267-043417FM-15+0443SBLP V0203601N003112200019N0112651N1+03301+02001999999ADDGA1041+009001999GA2041+030001999GF104991999999999999999999MA1100911999999REMMET058METAR SBLP 011900Z 36006KT 9999 SCT030 SCT100 33/20 Q1009;
0143832880999992009040120004-13267-043417FM-15+0443SBLP V0203601N003112200019N0112651N1+03101+02001999999ADDGA1041+009001999GA2041+030001999GF104991999999999999999999MA1100911999999REMMET058METAR SBLP 012000Z 36006KT 9999 SCT030 SCT100 31/20 Q1009;
0120832880999992009040121004-13267-043417FM-15+0443SBLP V0203601N003112200019N0112651N1+03001+02101999999ADDGA1041+009001999GF104991999999999999999999MA1101021999999REMMET051METAR SBLP 012100Z 36006KT 9999 SCT030 30/21 Q1010;
0143832880999992009040210004-13267-043417FM-15+0443SBLP V0209999C000010300019N0112651N1+02401+02101999999ADDGA1041+003001999GA2071+030001999GF107991999999999999999999MA1101291999999REMMET058METAR SBLP 021000Z 00000KT 9999 SCT010 BKN100 24/21 Q1013;
0143832880999992009040211004-13267-043417FM-15+0443SBLP V0209999C000010300019N0112651N1+02701+02101999999ADDGA1021+004501999GA2071+030001999GF107991999999999999999999MA1101291999999REMMET058METAR SBLP 021100Z 00000KT 9999 FEW015 BKN100 27/21 Q1013;
0143832880999992009040212004-13267-043417FM-15+0443SBLP V0209999C000010300019N0112651N1+02801+02101999999ADDGA1021+006001999GA2071+030001999GF107991999999999999999999MA1101391999999REMMET058METAR SBLP 021200Z 00000KT 9999 FEW020 BKN100 28/21 Q1014;
0143832880999992009040213004-13267-043417FM-15+0443SBLP V0209999C000010300019N0112651N1+02901+02101999999ADDGA1021+006001999GA2071+030001999GF107991999999999999999999MA1101391999999REMMET058METAR SBLP 021300Z 00000KT 9999 FEW020 BKN100 29/21 Q1014;
0143832880999992009040214004-13267-043417FM-15+0443SBLP V0209999C000012200019N0112651N1+03101+02101999999ADDGA1041+006001999GA2041+030001999GF104991999999999999999999MA1101391999999REMMET058METAR SBLP 021400Z 00000KT 9999 SCT020 SCT100 31/21 Q1014;
0143832880999992009040215004-13267-043417FM-15+0443SBLP V0202701N003112200019N0112651N1+03101+02101999999ADDGA1041+009001999GA2041+030001999GF104991999999999999999999MA1101291999999REMMET058METAR SBLP 021500Z 27006KT 9999 SCT030 SCT100 31/21 Q1013;
0143832880999992009040216004-13267-043417FM-15+0443SBLP V0202701N002112200019N0112651N1+03201+02001999999ADDGA1041+009001999GA2041+030001999GF104991999999999999999999MA1101191999999REMMET058METAR SBLP 021600Z 27004KT 9999 SCT030 SCT100 32/20 Q1012;
0143832880999992009040217004-13267-043417FM-15+0443SBLP V0209999C000010300019N0112651N1+03201+02001999999ADDGA1021+009001999GA2071+030001999GF107991999999999999999999MA1101081999999REMMET058METAR SBLP 021700Z 00000KT 9999 FEW030 BKN100 32/20 Q1011;
0143832880999992009040218004-13267-043417FM-15+0443SBLP V0201501N001510270019N0112651N1+03101+02101999999ADDGA1021+008101999GA2071+027001999GF107991999999999999999999MA1101021999999REMMET058METAR SBLP 021800Z 15003KT 9999 FEW027 BKN090 31/21 Q1010;
0143832880999992009040219004-13267-043417FM-15+0443SBLP V0201501N001510270019N0112651N1+03101+02101999999ADDGA1021+008101999GA2071+027001999GF107991999999999999999999MA1100911999999REMMET058METAR SBLP 021900Z 15003KT 9999 FEW027 BKN090 31/21 Q1009;
0143832880999992009040220004-13267-043417FM-15+0443SBLP V0201801N002110270019N0112651N1+02901+02201999999ADDGA1021+008101999GA2071+027001999GF107991999999999999999999MA1100911999999REMMET058METAR SBLP 022000Z 18004KT 9999 FEW027 BKN090 29/22 Q1009;
0143832880999992009040221004-13267-043417FM-15+0443SBLP V0201501N001510270019N0112651N1+02801+02301999999ADDGA1021+006901999GA2071+027001999GF107991999999999999999999MA1100911999999REMMET058METAR SBLP 022100Z 15003KT 9999 FEW023 BKN090 28/23 Q1009;
0143832880999992009040310004-13267-043417FM-15+0443SBLP V0202101N002610270019N0112651N1+02401+02301999999ADDGA1021+008101999GA2071+027001999GF107991999999999999999999MA1101291999999REMMET058METAR SBLP 031000Z 21005KT 9999 FEW027 BKN090 24/23 Q1013;
0143832880999992009040311004-13267-043417FM-15+0443SBLP V0202101N003112200019N0112651N1+02501+02301999999ADDGA1041+004501999GA2041+027001999GF104991999999999999999999MA1101391999999REMMET058METAR SBLP 031100Z 21006KT 9999 SCT015 SCT090 25/23 Q1014;
0143832880999992009040312004-13267-043417FM-15+0443SBLP V0201801N002112200019N0112651N1+02701+02201999999ADDGA1041+004501999GA2041+030001999GF104991999999999999999999MA1101491999999REMMET058METAR SBLP 031200Z 18004KT 9999 SCT015 SCT100 27/22 Q1015;
0143832880999992009040313004-13267-043417FM-15+0443SBLP V0202101N003112200019N0112651N1+02901+02201999999ADDGA1041+006901999GA2041+030001999GF104991999999999999999999MA1101491999999REMMET058METAR SBLP 031300Z 21006KT 9999 SCT023 SCT100 29/22 Q1015;
0143832880999992009040314004-13267-043417FM-15+0443SBLP V0201501N001512200019N0112651N1+02901+02301999999ADDGA1041+008101999GA2041+030001999GF104991999999999999999999MA1101391999999REMMET058METAR SBLP 031400Z 15003KT 9999 SCT027 SCT100 29/23 Q1014;
0143832880999992009040315004-13267-043417FM-15+0443SBLP V0201801N001512200019N0112651N1+03101+02101999999ADDGA1041+008101999GA2041+030001999GF104991999999999999999999MA1101291999999REMMET058METAR SBLP 031500Z 18003KT 9999 SCT027 SCT100 31/21 Q1013;
0143832880999992009040316004-13267-043417FM-15+0443SBLP V0201201N002112200019N0112651N1+03201+02101999999ADDGA1041+009001999GA2041+030001999GF104991999999999999999999MA1101191999999REMMET058METAR SBLP 031600Z 12004KT 9999 SCT030 SCT100 32/21 Q1012;
0143832880999992009040317004-13267-043417FM-15+0443SBLP V0202601N001012200019N0112651N1+03301+02101999999ADDGA1041+009001999GA2041+030001999GF104991999999999999999999MA1101021999999REMMET058METAR SBLP 031700Z 26002KT 9999 SCT030 SCT100 33/21 Q1010;
0152832880999992009040318004-13267-043417FM-15+0443SBLP V0201201N003110300019N0050001N1+02601+02301999999ADDGA1041+008101999GA2071+030001999GF107991999999999999999999MA1101021999999MW1631REMMET061METAR SBLP 031800Z 12006KT 5000 RA SCT027 BKN100 26/23 Q1010;
0153832880999992009040319004-13267-043417FM-15+0443SBLP V0201201N003110300019N0090001N1+02501+02501999999ADDGA1041+008101999GA2071+030001999GF107991999999999999999999MA1101021999999MW1611REMMET062METAR SBLP 031900Z 12006KT 9000 -RA SCT027 BKN100 25/25 Q1010;
0143832880999992009040320004-13267-043417FM-15+0443SBLP V0209999C000010300019N0112651N1+02501+02401999999ADDGA1041+009001999GA2071+030001999GF107991999999999999999999MA1101021999999REMMET058METAR SBLP 032000Z 00000KT 9999 SCT030 BKN100 25/24 Q1010;
0143832880999992009040321004-13267-043417FM-15+0443SBLP V0209999C000010300019N0112651N1+02401+02401999999ADDGA1021+009001999GA2071+030001999GF107991999999999999999999MA1101081999999REMMET058METAR SBLP 032100Z 00000KT 9999 FEW030 BKN100 24/24 Q1011;
0143832880999992009040410004-13267-043417FM-15+0443SBLP V0209999C000010300019N0112651N1+02201+02201999999ADDGA1021+006001999GA2071+030001999GF107991999999999999999999MA1101391999999REMMET058METAR SBLP 041000Z 00000KT 9999 FEW020 BKN100 22/22 Q1014;
0143832880999992009040411004-13267-043417FM-15+0443SBLP V0209999C000010300019N0112651N1+02401+02201999999ADDGA1021+006001999GA2071+030001999GF107991999999999999999999MA1101491999999REMMET058METAR SBLP 041100Z 00000KT 9999 FEW020 BKN100 24/22 Q1015;
0143832880999992009040412004-13267-043417FM-15+0443SBLP V0209999C000010300019N0112651N1+02601+02201999999ADDGA1021+006001999GA2071+030001999GF107991999999999999999999MA1101491999999REMMET058METAR SBLP 041200Z 00000KT 9999 FEW020 BKN100 26/22 Q1015;
0143832880999992009040413004-13267-043417FM-15+0443SBLP V0201801N003110300019N0112651N1+02601+02201999999ADDGA1021+006001999GA2071+030001999GF107991999999999999999999MA1101491999999REMMET058METAR SBLP 041300Z 18006KT 9999 FEW020 BKN100 26/22 Q1015;
0143832880999992009040414004-13267-043417FM-15+0443SBLP V0201801N003110300019N0112651N1+02801+02201999999ADDGA1021+008101999GA2071+030001999GF107991999999999999999999MA1101491999999REMMET058METAR SBLP 041400Z 18006KT 9999 FEW027 BKN100 28/22 Q1015;
0143832880999992009040415004-13267-043417FM-15+0443SBLP V0202101N003110300019N0112651N1+02901+02201999999ADDGA1041+008101999GA2071+030001999GF107991999999999999999999MA1101391999999REMMET058METAR SBLP 041500Z 21006KT 9999 SCT027 BKN100 29/22 Q1014;
0131832880999992009040416004-13267-043417FM-15+0443SBLP V0202401N001512200019N0080001N1+03001+02201999999ADDGA1041+009001999GF104991999999999999999999MA1101291999999MW1161REMMET056METAR SBLP 041600Z 24003KT 8000 VCSH SCT030 30/22 Q1013;
0143832880999992009040417004-13267-043417FM-15+0443SBLP V0200301N003110300019N0112651N1+02801+02301999999ADDGA1041+009001999GA2071+030001999GF107991999999999999999999MA1101191999999REMMET058METAR SBLP 041700Z 03006KT 9999 SCT030 BKN100 28/23 Q1012;
0143832880999992009040418004-13267-043417FM-15+0443SBLP V0203601N004110090019N0112651N1+02901+02401999999ADDGA1071+009001999GA2071+030001999GF107991999999999999999999MA1101191999999REMMET058METAR SBLP 041800Z 36008KT 9999 BKN030 BKN100 29/24 Q1012;
0143832880999992009040419004-13267-043417FM-15+0443SBLP V0203601N005110300019N0112651N1+02801+02301999999ADDGA1041+009001999GA2071+030001999GF107991999999999999999999MA1101191999999REMMET058METAR SBLP 041900Z 36010KT 9999 SCT030 BKN100 28/23 Q1012;
0143832880999992009040420004-13267-043417FM-15+0443SBLP V0200301N003110300019N0112651N1+02801+02201999999ADDGA1041+009001999GA2071+030001999GF107991999999999999999999MA1101191999999REMMET058METAR SBLP 042000Z 03006KT 9999 SCT030 BKN100 28/22 Q1012;
0143832880999992009040421004-13267-043417FM-15+0443SBLP V0200601N002110300019N0112651N1+02501+02201999999ADDGA1041+009001999GA2071+030001999GF107991999999999999999999MA1101291999999REMMET058METAR SBLP 042100Z 06004KT 9999 SCT030 BKN100 25/22 Q1013;
0143832880999992009040510004-13267-043417FM-15+0443SBLP V0209999C000010045019N0112651N1+02301+02301999999ADDGA1071+004501999GA2071+030001999GF107991999999999999999999MA1101391999999REMMET058METAR SBLP 051000Z 00000KT 9999 BKN015 BKN100 23/23 Q1014;
0143832880999992009040511004-13267-043417FM-15+0443SBLP V0209999C000010300019N0112651N1+02401+02301999999ADDGA1041+004501999GA2071+030001999GF107991999999999999999999MA1101491999999REMMET058METAR SBLP 051100Z 00000KT 9999 SCT015 BKN100 24/23 Q1015;
0143832880999992009040512004-13267-043417FM-15+0443SBLP V0209999C000010300019N0112651N1+02601+02301999999ADDGA1041+006001999GA2071+030001999GF107991999999999999999999MA1101491999999REMMET058METAR SBLP 051200Z 00000KT 9999 SCT020 BKN100 26/23 Q1015;
0143832880999992009040513004-13267-043417FM-15+0443SBLP V0209999C000010300019N0112651N1+02801+02301999999ADDGA1041+006001999GA2071+030001999GF107991999999999999999999MA1101491999999REMMET058METAR SBLP 051300Z 00000KT 9999 SCT020 BKN100 28/23 Q1015;
0143832880999992009040514004-13267-043417FM-15+0443SBLP V0209999C000012200019N0112651N1+02901+02301999999ADDGA1041+008101999GA2041+030001999GF104991999999999999999999MA1101391999999REMMET058METAR SBLP 051400Z 00000KT 9999 SCT027 SCT100 29/23 Q1014;
0120832880999992009040515004-13267-043417FM-15+0443SBLP V0209999C000012200019N0112651N1+03001+02301999999ADDGA1041+008101999GF104991999999999999999999MA1101291999999REMMET051METAR SBLP 051500Z 00000KT 9999 SCT027 30/23 Q1013;
0120832880999992009040516004-13267-043417FM-15+0443SBLP V0203301N003112200019N0112651N1+03201+02301999999ADDGA1041+008101999GF104991999999999999999999MA1101191999999REMMET051METAR SBLP 051600Z 33006KT 9999 SCT027 32/23 Q1012;
0120832880999992009040517004-13267-043417FM-15+0443SBLP V0202101N001512200019N0112651N1+03101+02301999999ADDGA1041+008101999GF104991999999999999999999MA1101021999999REMMET051METAR SBLP 051700Z 21003KT 9999 SCT027 31/23 Q1010;
0143832880999992009040518004-13267-043417FM-15+0443SBLP V0209999C000010300019N0112651N1+03101+02201999999ADDGA1041+009001999GA2071+030001999GF107991999999999999999999MA1101021999999REMMET058METAR SBLP 051800Z 00000KT 9999 SCT030 BKN100 31/22 Q1010;
0143832880999992009040519004-13267-043417FM-15+0443SBLP V0200601N002110300019N0112651N1+03001+02201999999ADDGA1041+009001999GA2071+030001999GF107991999999999999999999MA1101021999999REMMET058METAR SBLP 051900Z 06004KT 9999 SCT030 BKN100 30/22 Q1010;
0120832880999992009040520004-13267-043417FM-15+0443SBLP V0200901N002112200019N0112651N1+02701+02301999999ADDGA1041+009001999GF104991999999999999999999MA1101021999999REMMET051METAR SBLP 052000Z 09004KT 9999 SCT030 27/23 Q1010;
0143832880999992009040521004-13267-043417FM-15+0443SBLP V0200901N001510900019N0112651N1+02601+02301999999ADDGA1041+009001999GA2071+090001999GF107991999999999999999999MA1101081999999REMMET058METAR SBLP 052100Z 09003KT 9999 SCT030 BKN300 26/23 Q1011;
0143832880999992009040609064-13267-043417FM-15+0443SBLP V0209999C000010300019N0112651N1+02201+02101999999ADDGA1021+006001999GA2071+030001999GF107991999999999999999999MA1101391999999REMMET058METAR SBLP 060906Z 00000KT 9999 FEW020 BKN100 22/21 Q1014;
0143832880999992009040610004-13267-043417FM-15+0443SBLP V0209999C000010060019N0112651N1+02301+02201999999ADDGA1071+006001999GA2071+030001999GF107991999999999999999999MA1101491999999REMMET058METAR SBLP 061000Z 00000KT 9999 BKN020 BKN100 23/22 Q1015;
0143832880999992009040611004-13267-043417FM-15+0443SBLP V0209999C000010300019N0112651N1+02401+02101999999ADDGA1041+006001999GA2071+030001999GF107991999999999999999999MA1101591999999REMMET058METAR SBLP 061100Z 00000KT 9999 SCT020 BKN100 24/21 Q1016;
0143832880999992009040612004-13267-043417FM-15+0443SBLP V0209999C000010300019N0112651N1+02601+02201999999ADDGA1041+006001999GA2071+030001999GF107991999999999999999999MA1101591999999REMMET058METAR SBLP 061200Z 00000KT 9999 SCT020 BKN100 26/22 Q1016;
0143832880999992009040613004-13267-043417FM-15+0443SBLP V0203501N002110300019N0112651N1+02801+02201999999ADDGA1041+006001999GA2071+030001999GF107991999999999999999999MA1101591999999REMMET058METAR SBLP 061300Z 35004KT 9999 SCT020 BKN100 28/22 Q1016;
0143832880999992009040614004-13267-043417FM-15+0443SBLP V0203301N002110300019N0112651N1+02801+02201999999ADDGA1041+006001999GA2071+030001999GF107991999999999999999999MA1101591999999REMMET058METAR SBLP 061400Z 33004KT 9999 SCT020 BKN100 28/22 Q1016;
0143832880999992009040615004-13267-043417FM-15+0443SBLP V0202701N002110300019N0112651N1+03001+02201999999ADDGA1041+006001999GA2071+030001999GF107991999999999999999999MA1101491999999REMMET058METAR SBLP 061500Z 27004KT 9999 SCT020 BKN100 30/22 Q1015;
0143832880999992009040616004-13267-043417FM-15+0443SBLP V0202701N003110300019N0112651N1+03001+02201999999ADDGA1041+006001999GA2071+030001999GF107991999999999999999999MA1101391999999REMMET058METAR SBLP 061600Z 27006KT 9999 SCT020 BKN100 30/22 Q1014;
0143832880999992009040617004-13267-043417FM-15+0443SBLP V0202701N003110300019N0112651N1+03001+02101999999ADDGA1021+006001999GA2071+030001999GF107991999999999999999999MA1101291999999REMMET058METAR SBLP 061700Z 27006KT 9999 FEW020 BKN100 30/21 Q1013;
0143832880999992009040618004-13267-043417FM-15+0443SBLP V0202701N003110300019N0112651N1+03001+02101999999ADDGA1021+006001999GA2071+030001999GF107991999999999999999999MA1101291999999REMMET058METAR SBLP 061800Z 27006KT 9999 FEW020 BKN100 30/21 Q1013;
0143832880999992009040619004-13267-043417FM-15+0443SBLP V0209999C000010300019N0112651N1+02901+02101999999ADDGA1041+006001999GA2071+030001999GF107991999999999999999999MA1101291999999REMMET058METAR SBLP 061900Z 00000KT 9999 SCT020 BKN100 29/21 Q1013;
0143832880999992009040620004-13267-043417FM-15+0443SBLP V0209999C000012200019N0112651N1+02901+02101999999ADDGA1041+009001999GA2041+030001999GF104991999999999999999999MA1101191999999REMMET058METAR SBLP 062000Z 00000KT 9999 SCT030 SCT100 29/21 Q1012;
0143832880999992009040621004-13267-043417FM-15+0443SBLP V0209999C000012200019N0112651N1+02801+02101999999ADDGA1041+009001999GA2041+030001999GF104991999999999999999999MA1101191999999REMMET058METAR SBLP 062100Z 00000KT 9999 SCT030 SCT100 28/21 Q1012;
0143832880999992009040710004-13267-043417FM-15+0443SBLP V0209999C000012200019N0112651N1+02301+02101999999ADDGA1041+003001999GA2041+030001999GF104991999999999999999999MA1101491999999REMMET058METAR SBLP 071000Z 00000KT 9999 SCT010 SCT100 23/21 Q1015;
0143832880999992009040711004-13267-043417FM-15+0443SBLP V0209999C000012200019N0112651N1+02401+02101999999ADDGA1041+003001999GA2041+030001999GF104991999999999999999999MA1101591999999REMMET058METAR SBLP 071100Z 00000KT 9999 SCT010 SCT100 24/21 Q1016;
0120832880999992009040712004-13267-043417FM-15+0443SBLP V0209999C000012200019N0112651N1+02501+02101999999ADDGA1041+003001999GF104991999999999999999999MA1101591999999REMMET051METAR SBLP 071200Z 00000KT 9999 SCT010 25/21 Q1016;
0120832880999992009040713004-13267-043417FM-15+0443SBLP V0209999C000012200019N0112651N1+02701+02101999999ADDGA1041+006001999GF104991999999999999999999MA1101591999999REMMET051METAR SBLP 071300Z 00000KT 9999 SCT020 27/21 Q1016;
0120832880999992009040714004-13267-043417FM-15+0443SBLP V0209999C000012200019N0112651N1+02901+02101999999ADDGA1041+006001999GF104991999999999999999999MA1101591999999REMMET051METAR SBLP 071400Z 00000KT 9999 SCT020 29/21 Q1016;
0120832880999992009040715004-13267-043417FM-15+0443SBLP V0209999C000012200019N0112651N1+03101+02101999999ADDGA1041+006001999GF104991999999999999999999MA1101391999999REMMET051METAR SBLP 071500Z 00000KT 9999 SCT020 31/21 Q1014;
0120832880999992009040716004-13267-043417FM-15+0443SBLP V0203301N002112200019N0112651N1+03201+02101999999ADDGA1041+008101999GF104991999999999999999999MA1101391999999REMMET051METAR SBLP 071600Z 33004KT 9999 SCT027 32/21 Q1014;
0120832880999992009040717004-13267-043417FM-15+0443SBLP V0209999C000012200019N0112651N1+03301+02101999999ADDGA1041+008101999GF104991999999999999999999MA1101191999999REMMET051METAR SBLP 071700Z 00000KT 9999 SCT027 33/21 Q1012;
0120832880999992009040718004-13267-043417FM-15+0443SBLP V0203301N001512200019N0112651N1+03401+02101999999ADDGA1021+009001999GF102991999999999999999999MA1101081999999REMMET051METAR SBLP 071800Z 33003KT 9999 FEW030 34/21 Q1011;
0120832880999992009040719004-13267-043417FM-15+0443SBLP V0209999C000012200019N0112651N1+03301+02101999999ADDGA1021+009001999GF102991999999999999999999MA1101021999999REMMET051METAR SBLP 071900Z 00000KT 9999 FEW030 33/21 Q1010;
0120832880999992009040720004-13267-043417FM-15+0443SBLP V0209999C000012200019N0112651N1+03301+02101999999ADDGA1021+009001999GF102991999999999999999999MA1101081999999REMMET051METAR SBLP 072000Z 00000KT 9999 FEW030 33/21 Q1011;
0120832880999992009040721004-13267-043417FM-15+0443SBLP V0209999C000012200019N0112651N1+03101+02101999999ADDGA1021+009001999GF102991999999999999999999MA1101081999999REMMET051METAR SBLP 072100Z 00000KT 9999 FEW030 31/21 Q1011;
0120832880999992009040810004-13267-043417FM-15+0443SBLP V0201901N002110069019N0112651N1+02401+02101999999ADDGA1071+006901999GF107991999999999999999999MA1101391999999REMMET051METAR SBLP 081000Z 19004KT 9999 BKN023 24/21 Q1014;
0120832880999992009040811004-13267-043417FM-15+0443SBLP V0201901N002110060019N0112651N1+02501+02301999999ADDGA1071+006001999GF107991999999999999999999MA1101491999999REMMET051METAR SBLP 081100Z 19004KT 9999 BKN020 25/23 Q1015;
0120832880999992009040812004-13267-043417FM-15+0443SBLP V0201801N002112200019N0112651N1+02801+02301999999ADDGA1041+006001999GF104991999999999999999999MA1101591999999REMMET051METAR SBLP 081200Z 18004KT 9999 SCT020 28/23 Q1016;
0120832880999992009040813004-13267-043417FM-15+0443SBLP V0201801N001512200019N0112651N1+02801+02301999999ADDGA1041+006001999GF104991999999999999999999MA1101591999999REMMET051METAR SBLP 081300Z 18003KT 9999 SCT020 28/23 Q1016;
0138832880999992009040814004-13267-043417FM-15+0443SBLP V0202401N001512200019N0112651N1+03001+02201999999ADDGA1041+006901999GF104991999999999999999999MA1101491999999MW1161REMMET063METAR SBLP 081400Z 24003KT 9999 8000SE VCSH SCT023 30/22 Q1015;
0120832880999992009040815004-13267-043417FM-15+0443SBLP V0209999C000012200019N0112651N1+03001+02201999999ADDGA1041+008101999GF104991999999999999999999MA1101391999999REMMET051METAR SBLP 081500Z 00000KT 9999 SCT027 30/22 Q1014;
0120832880999992009040816004-13267-043417FM-15+0443SBLP V0209999C000012200019N0112651N1+03101+02101999999ADDGA1041+008101999GF104991999999999999999999MA1101291999999REMMET051METAR SBLP 081600Z 00000KT 9999 SCT027 31/21 Q1013;
0120832880999992009040817004-13267-043417FM-15+0443SBLP V0202401N003112200019N0112651N1+03001+02201999999ADDGA1041+009001999GF104991999999999999999999MA1101191999999REMMET051METAR SBLP 081700Z 24006KT 9999 SCT030 30/22 Q1012;
0120832880999992009040818004-13267-043417FM-15+0443SBLP V0202701N003112200019N0112651N1+03001+02201999999ADDGA1041+009001999GF104991999999999999999999MA1101081999999REMMET051METAR SBLP 081800Z 27006KT 9999 SCT030 30/22 Q1011;
0120832880999992009040819004-13267-043417FM-15+0443SBLP V0209999C000012200019N0112651N1+03001+02201999999ADDGA1021+009001999GF102991999999999999999999MA1101081999999REMMET051METAR SBLP 081900Z 00000KT 9999 FEW030 30/22 Q1011;
0120832880999992009040820004-13267-043417FM-15+0443SBLP V0209999C000012200019N0112651N1+02901+02201999999ADDGA1021+009001999GF102991999999999999999999MA1101081999999REMMET051METAR SBLP 082000Z 00000KT 9999 FEW030 29/22 Q1011;
0072832880999992009040821004-13267-043417FM-15+0443SBLP V0209999C00001999999CY0099001N1+02801+02201999999ADDMA1101081999999REMMET045METAR SBLP 082100Z 00000KT CAVOK 28/22 Q1011;
0143832880999992009040910004-13267-043417FM-15+0443SBLP V0209999C000012200019N0112651N1+02401+02201999999ADDGA1021+006001999GA2041+030001999GF104991999999999999999999MA1101291999999REMMET058METAR SBLP 091000Z 00000KT 9999 FEW020 SCT100 24/22 Q1013;
0143832880999992009040911004-13267-043417FM-15+0443SBLP V0209999C000012200019N0112651N1+02501+02101999999ADDGA1021+006001999GA2041+030001999GF104991999999999999999999MA1101391999999REMMET058METAR SBLP 091100Z 00000KT 9999 FEW020 SCT100 25/21 Q1014;
0143832880999992009040912004-13267-043417FM-15+0443SBLP V0209999C000010300019N0112651N1+02601+02201999999ADDGA1041+006001999GA2071+030001999GF107991999999999999999999MA1101491999999REMMET058METAR SBLP 091200Z 00000KT 9999 SCT020 BKN100 26/22 Q1015;
0143832880999992009040913004-13267-043417FM-15+0443SBLP V0209999C000010300019N0112651N1+02801+02301999999ADDGA1021+006001999GA2071+030001999GF107991999999999999999999MA1101491999999REMMET058METAR SBLP 091300Z 00000KT 9999 FEW020 BKN100 28/23 Q1015;
0153832880999992009040914004-13267-043417FM-15+0443SBLP V0200901N001010300019N0090001N1+02901+02301999999ADDGA1041+006001999GA2071+030001999GF107991999999999999999999MA1101491999999MW1611REMMET062METAR SBLP 091400Z 09002KT 9000 -RA SCT020 BKN100 29/23 Q1015;
0153832880999992009040915004-13267-043417FM-15+0443SBLP V0201801N003110300019N0090001N1+02701+02401999999ADDGA1041+006001999GA2071+030001999GF107991999999999999999999MA1101391999999MW1611REMMET062METAR SBLP 091500Z 18006KT 9000 -RA SCT020 BKN100 27/24 Q1014;
0148832880999992009040916004-13267-043417FM-15+0443SBLP V0201501N002110300019N0112651N1+02701+02401999999ADDGA1041+009001999GA2071+030001999GF107991999999999999999999MA1101291999999REMMET063METAR SBLP 091600Z 15004KT 9999 SCT030 BKN100 27/24 Q1013 RERA;
0120832880999992009040917004-13267-043417FM-15+0443SBLP V0201801N003112200019N0112651N1+02901+02401999999ADDGA1021+009001999GF102991999999999999999999MA1101191999999REMMET051METAR SBLP 091700Z 18006KT 9999 FEW030 29/24 Q1012;
0120832880999992009040918004-13267-043417FM-15+0443SBLP V0202401N001512200019N0112651N1+02901+02401999999ADDGA1021+009001999GF102991999999999999999999MA1101081999999REMMET051METAR SBLP 091800Z 24003KT 9999 FEW030 29/24 Q1011;
0120832880999992009040919004-13267-043417FM-15+0443SBLP V0201801N004112200019N0112651N1+02801+02301999999ADDGA1021+009001999GF102991999999999999999999MA1101081999999REMMET051METAR SBLP 091900Z 18008KT 9999 FEW030 28/23 Q1011;
0120832880999992009040920004-13267-043417FM-15+0443SBLP V0200601N002112200019N0112651N1+02601+02301999999ADDGA1021+009001999GF102991999999999999999999MA1101081999999REMMET051METAR SBLP 092000Z 06004KT 9999 FEW030 26/23 Q1011;
0120832880999992009040921004-13267-043417FM-15+0443SBLP V0201201N002112200019N0112651N1+02501+02201999999ADDGA1021+009001999GF102991999999999999999999MA1101081999999REMMET051METAR SBLP 092100Z 12004KT 9999 FEW030 25/22 Q1011;
0072832880999992009041009084-13267-043417FM-16+0443SBLP V0200601N00211999999CY0099001N1+02101+02001999999ADDMA1101291999999REMMET045SPECI SBLP 100908Z 06004KT CAVOK 21/20 Q1013;
0120832880999992009041010004-13267-043417FM-15+0443SBLP V0209999C000010045019N0112651N1+02201+02001999999ADDGA1071+004501999GF107991999999999999999999MA1101391999999REMMET051METAR SBLP 101000Z 00000KT 9999 BKN015 22/20 Q1014;
0120832880999992009041011004-13267-043417FM-15+0443SBLP V0209999C000010045019N0112651N1+02401+02101999999ADDGA1071+004501999GF107991999999999999999999MA1101391999999REMMET051METAR SBLP 101100Z 00000KT 9999 BKN015 24/21 Q1014;
0143832880999992009041012004-13267-043417FM-15+0443SBLP V0202301N002110900019N0112651N1+02601+02201999999ADDGA1041+006001999GA2071+090001999GF107991999999999999999999MA1101491999999REMMET058METAR SBLP 101200Z 23004KT 9999 SCT020 BKN300 26/22 Q1015;
0072832880999992009041013004-13267-043417FM-15+0443SBLP V0209999C00001999999CY0099001N1+02701+02201999999ADDMA1101491999999REMMET045METAR SBLP 101300Z 00000KT CAVOK 27/22 Q1015;
0120832880999992009041014004-13267-043417FM-15+0443SBLP V0202701N002112200019N0112651N1+02901+02201999999ADDGA1021+009001999GF102991999999999999999999MA1101391999999REMMET051METAR SBLP 101400Z 27004KT 9999 FEW030 29/22 Q1014;
0120832880999992009041015004-13267-043417FM-15+0443SBLP V0203601N002112200019N0112651N1+03101+02101999999ADDGA1041+009001999GF104991999999999999999999MA1101291999999REMMET051METAR SBLP 101500Z 36004KT 9999 SCT030 31/21 Q1013;
0120832880999992009041016004-13267-043417FM-15+0443SBLP V0209999C000012200019N0112651N1+03101+02101999999ADDGA1041+009001999GF104991999999999999999999MA1101081999999REMMET051METAR SBLP 101600Z 00000KT 9999 SCT030 31/21 Q1011;
0120832880999992009041017004-13267-043417FM-15+0443SBLP V0209999C000012200019N0112651N1+03301+02001999999ADDGA1041+009001999GF104991999999999999999999MA1101021999999REMMET051METAR SBLP 101700Z 00000KT 9999 SCT030 33/20 Q1010;
0120832880999992009041018004-13267-043417FM-15+0443SBLP V0209999C000012200019N0112651N1+03301+01901999999ADDGA1041+006001999GF104991999999999999999999MA1101021999999REMMET051METAR SBLP 101800Z 00000KT 9999 SCT020 33/19 Q1010;
0120832880999992009041019004-13267-043417FM-15+0443SBLP V0200901N003110090019N0112651N1+03201+01901999999ADDGA1071+009001999GF107991999999999999999999MA1101021999999REMMET051METAR SBLP 101900Z 09006KT 9999 BKN030 32/19 Q1010;
0120832880999992009041020004-13267-043417FM-15+0443SBLP V0200901N003110090019N0112651N1+03101+02001999999ADDGA1071+009001999GF107991999999999999999999MA1101021999999REMMET051METAR SBLP 102000Z 09006KT 9999 BKN030 31/20 Q1010;
0120832880999992009041021004-13267-043417FM-15+0443SBLP V0209999C000012200019N0112651N1+02901+02001999999ADDGA1041+009001999GF104991999999999999999999MA1101081999999REMMET051METAR SBLP 102100Z 00000KT 9999 SCT030 29/20 Q1011;
0153832880999992009041109154-13267-043417FM-16+0443SBLP V0209999C000010300019N0090001N1+02201+02101999999ADDGA1041+003001999GA2071+030001999GF107991999999999999999999MA1101391999999MW1611REMMET062SPECI SBLP 110915Z 00000KT 9000 -RA SCT010 BKN100 22/21 Q1014;
0153832880999992009041110004-13267-043417FM-15+0443SBLP V0209999C000010300019N0090001N1+02201+02101999999ADDGA1041+003001999GA2081+030001999GF108991999999999999999999MA1101491999999MW1611REMMET062METAR SBLP 111000Z 00000KT 9000 -RA SCT010 OVC100 22/21 Q1015;
0143832880999992009041111004-13267-043417FM-15+0443SBLP V0209999C000010300019N0112651N1+02201+02101999999ADDGA1041+003001999GA2081+030001999GF108991999999999999999999MA1101491999999REMMET058METAR SBLP 111100Z 00000KT 9999 SCT010 OVC100 22/21 Q1015;
0143832880999992009041112004-13267-043417FM-15+0443SBLP V0209999C000010300019N0112651N1+02301+02101999999ADDGA1041+003001999GA2071+030001999GF107991999999999999999999MA1101591999999REMMET058METAR SBLP 111200Z 00000KT 9999 SCT010 BKN100 23/21 Q1016;
0143832880999992009041113004-13267-043417FM-15+0443SBLP V0209999C000010300019N0112651N1+02401+02101999999ADDGA1041+003001999GA2071+030001999GF107991999999999999999999MA1101591999999REMMET058METAR SBLP 111300Z 00000KT 9999 SCT010 BKN100 24/21 Q1016;
0143832880999992009041114004-13267-043417FM-15+0443SBLP V0209999C000010300019N0112651N1+02601+02101999999ADDGA1041+004501999GA2071+030001999GF107991999999999999999999MA1101491999999REMMET058METAR SBLP 111400Z 00000KT 9999 SCT015 BKN100 26/21 Q1015;
0143832880999992009041115004-13267-043417FM-15+0443SBLP V0209999C000010300019N0112651N1+02701+02101999999ADDGA1041+004501999GA2071+030001999GF107991999999999999999999MA1101391999999REMMET058METAR SBLP 111500Z 00000KT 9999 SCT015 BKN100 27/21 Q1014;
0143832880999992009041116004-13267-043417FM-15+0443SBLP V0200901N001510300019N0112651N1+02801+02201999999ADDGA1041+004501999GA2071+030001999GF107991999999999999999999MA1101291999999REMMET058METAR SBLP 111600Z 09003KT 9999 SCT015 BKN100 28/22 Q1013;
0168832880999992009041117004-13267-043417FM-15+0443SBLP V0201801N00311009001CN0112651N1+02901+02301999999ADDGA1041+004501999GA2021+009001091GA3071+030001999GF107991999999999999999999MA1101191999999REMMET067METAR SBLP 111700Z 18006KT 9999 SCT015 FEW030CB BKN100 29/23 Q1012;
0186832880999992009041118004-13267-043417FM-15+0443SBLP V0201801N002112200019N0112651N1+02801+02301999999ADDGA1041+008101999GA2021+012001091GA3041+030001999GF104991999999999999999999MA1101081999999MW1161REMMET079METAR SBLP 111800Z 18004KT 9999 8000NE VCSH SCT027 FEW040CB SCT100 28/23 Q1011;
0143832880999992009041119004-13267-043417FM-15+0443SBLP V0201801N002112200019N0112651N1+02801+02301999999ADDGA1041+008101999GA2041+030001999GF104991999999999999999999MA1101081999999REMMET058METAR SBLP 111900Z 18004KT 9999 SCT027 SCT100 28/23 Q1011;
0143832880999992009041120004-13267-043417FM-15+0443SBLP V0201901N001512200019N0112651N1+02701+02301999999ADDGA1021+008101999GA2041+030001999GF104991999999999999999999MA1101081999999REMMET058METAR SBLP 112000Z 19003KT 9999 FEW027 SCT100 27/23 Q1011;
0143832880999992009041121004-13267-043417FM-15+0443SBLP V0201801N002110300019N0112651N1+02701+02301999999ADDGA1021+006001999GA2071+030001999GF107991999999999999999999MA1101191999999REMMET058METAR SBLP 112100Z 18004KT 9999 FEW020 BKN100 27/23 Q1012;
0143832880999992009041209154-13267-043417FM-16+0443SBLP V0209999C000010300019N0112651N1+02201+02101999999ADDGA1041+003001999GA2071+030001999GF107991999999999999999999MA1101491999999REMMET058SPECI SBLP 120915Z 00000KT 9999 SCT010 BKN100 22/21 Q1015;
0143832880999992009041210004-13267-043417FM-15+0443SBLP V0209999C000012200019N0112651N1+02301+02101999999ADDGA1041+003001999GA2041+030001999GF104991999999999999999999MA1101591999999REMMET058METAR SBLP 121000Z 00000KT 9999 SCT010 SCT100 23/21 Q1016;
0143832880999992009041211004-13267-043417FM-15+0443SBLP V0209999C000012200019N0112651N1+02501+02101999999ADDGA1021+004501999GA2041+030001999GF104991999999999999999999MA1101591999999REMMET058METAR SBLP 121100Z 00000KT 9999 FEW015 SCT100 25/21 Q1016;
0143832880999992009041212004-13267-043417FM-15+0443SBLP V0209999C000012200019N0112651N1+02701+02101999999ADDGA1021+006001999GA2041+030001999GF104991999999999999999999MA1101591999999REMMET058METAR SBLP 121200Z 00000KT 9999 FEW020 SCT100 27/21 Q1016;
0120832880999992009041213004-13267-043417FM-15+0443SBLP V0209999C000012200019N0112651N1+02701+02101999999ADDGA1041+006001999GF104991999999999999999999MA1101591999999REMMET051METAR SBLP 121300Z 00000KT 9999 SCT020 27/21 Q1016;
0120832880999992009041214004-13267-043417FM-15+0443SBLP V0209999C000012200019N0112651N1+02801+02101999999ADDGA1041+006001999GF104991999999999999999999MA1101591999999REMMET051METAR SBLP 121400Z 00000KT 9999 SCT020 28/21 Q1016;
0120832880999992009041215004-13267-043417FM-15+0443SBLP V0201801N003112200019N0112651N1+02901+02101999999ADDGA1041+006001999GF104991999999999999999999MA1101491999999REMMET051METAR SBLP 121500Z 18006KT 9999 SCT020 29/21 Q1015;
0120832880999992009041216004-13267-043417FM-15+0443SBLP V0202701N002112200019N0112651N1+03001+02101999999ADDGA1041+008101999GF104991999999999999999999MA1101391999999REMMET051METAR SBLP 121600Z 27004KT 9999 SCT027 30/21 Q1014;
0120832880999992009041217004-13267-043417FM-15+0443SBLP V0202401N001512200019N0112651N1+03201+02201999999ADDGA1041+009001999GF104991999999999999999999MA1101291999999REMMET051METAR SBLP 121700Z 24003KT 9999 SCT030 32/22 Q1013;
0139832880999992009041218004-13267-043417FM-15+0443SBLP V0202401N001512200019N0112651N1+03201+02101999999ADDGA1041+009001999GA2021+012001021MA1101191999999REMMET061METAR SBLP 121800Z 24003KT 9999 SCT030 FEW040TCU 32/21 Q1012;EQDQ01+000022SCOTCV
0120832880999992009041219004-13267-043417FM-15+0443SBLP V0201801N002112200019N0112651N1+03101+02201999999ADDGA1041+009001999GF104991999999999999999999MA1101191999999REMMET051METAR SBLP 121900Z 18004KT 9999 SCT030 31/22 Q1012;
0120832880999992009041220004-13267-043417FM-15+0443SBLP V0202101N001512200019N0112651N1+03001+02201999999ADDGA1041+009001999GF104991999999999999999999MA1101191999999REMMET051METAR SBLP 122000Z 21003KT 9999 SCT030 30/22 Q1012;
0156832880999992009041221004-13267-043417FM-15+0443SBLP V0202101N001512200019N0112651N1+02801+02301999999ADDGA1041+006901999GA2021+012001091MA1101191999999MW1161REMMET072METAR SBLP 122100Z 21003KT 9999 8000SE VCSH SCT023 FEW040CB 28/23 Q1012;EQDQ01+000022SCOTCV
0161832880999992009041309064-13267-043417FM-16+0443SBLP V0201201N001512200019N0112651N1+02201+02201999999ADDGA1041+003001999GA2041+027001999GF104991999999999999999999MA1101591999999MW1161REMMET070SPECI SBLP 130906Z 12003KT 9999 8000SE VCSH SCT010 SCT090 22/22 Q1016;
0143832880999992009041310004-13267-043417FM-15+0443SBLP V0201201N002112200019N0112651N1+02301+02201999999ADDGA1041+004501999GA2041+027001999GF104991999999999999999999MA1101691999999REMMET058METAR SBLP 131000Z 12004KT 9999 SCT015 SCT090 23/22 Q1017;
0143832880999992009041311004-13267-043417FM-15+0443SBLP V0201901N002612200019N0112651N1+02401+02201999999ADDGA1041+004501999GA2041+027001999GF104991999999999999999999MA1101691999999REMMET058METAR SBLP 131100Z 19005KT 9999 SCT015 SCT090 24/22 Q1017;
0143832880999992009041312004-13267-043417FM-15+0443SBLP V0201801N004112200019N0112651N1+02601+02101999999ADDGA1041+004501999GA2041+027001999GF104991999999999999999999MA1101801999999REMMET058METAR SBLP 131200Z 18008KT 9999 SCT015 SCT090 26/21 Q1018;
0143832880999992009041313004-13267-043417FM-15+0443SBLP V0201201N001512200019N0112651N1+02801+02101999999ADDGA1041+006001999GA2041+027001999GF104991999999999999999999MA1101801999999REMMET058METAR SBLP 131300Z 12003KT 9999 SCT020 SCT090 28/21 Q1018;
0169832880999992009041316004-13267-043417FM-15+0443SBLP V0201801N00261012001CN0112651N1+03001+02201999999ADDGA1041+006901999GA2021+012001021GA3071+030001999GF107991999999999999999999MA1101491999999REMMET068METAR SBLP 131600Z 18005KT 9999 SCT023 FEW040TCU BKN100 30/22 Q1015;
0169832880999992009041317004-13267-043417FM-15+0443SBLP V0209999C00001012001CN0112651N1+03001+02201999999ADDGA1041+009001999GA2021+012001021GA3071+030001999GF107991999999999999999999MA1101491999999REMMET068METAR SBLP 131700Z 00000KT 9999 SCT030 FEW040TCU BKN100 30/22 Q1015;
0153832880999992009041318004-13267-043417FM-15+0443SBLP V0209999C000010300019N0090001N1+02701+02401999999ADDGA1041+006001999GA2071+030001999GF107991999999999999999999MA1101391999999MW1611REMMET062METAR SBLP 131800Z 00000KT 9000 -RA SCT020 BKN100 27/24 Q1014;
0153832880999992009041319004-13267-043417FM-15+0443SBLP V0209999C000010300019N0090001N1+02401+02401999999ADDGA1041+006001999GA2071+030001999GF107991999999999999999999MA1101391999999MW1611REMMET062METAR SBLP 131900Z 00000KT 9000 -RA SCT020 BKN100 24/24 Q1014;
0152832880999992009041320004-13267-043417FM-15+0443SBLP V0200901N003110270019N0080001N1+02401+02301999999ADDGA1041+004501999GA2081+027001999GF108991999999999999999999MA1101491999999MW1631REMMET061METAR SBLP 132000Z 09006KT 8000 RA SCT015 OVC090 24/23 Q1015;
0152832880999992009041321004-13267-043417FM-15+0443SBLP V0209999C000010270019N0090001N1+02201+02201999999ADDGA1041+004501999GA2081+027001999GF108991999999999999999999MA1101491999999MW1631REMMET061METAR SBLP 132100Z 00000KT 9000 RA SCT015 OVC090 22/22 Q1015;
0143832880999992009041409154-13267-043417FM-16+0443SBLP V0209999C000012200019N0112651N1+02001+01901999999ADDGA1021+006001999GA2041+030001999GF104991999999999999999999MA1101691999999REMMET058SPECI SBLP 140915Z 00000KT 9999 FEW020 SCT100 20/19 Q1017;
0072832880999992009041410004-13267-043417FM-15+0443SBLP V0201801N00311999999CY0099001N1+02001+02001999999ADDMA1101801999999REMMET045METAR SBLP 141000Z 18006KT CAVOK 20/20 Q1018;
0072832880999992009041411004-13267-043417FM-15+0443SBLP V0209999C00001999999CY0099001N1+02101+02001999999ADDMA1101801999999REMMET045METAR SBLP 141100Z 00000KT CAVOK 21/20 Q1018;
0072832880999992009041412004-13267-043417FM-15+0443SBLP V0209999C00001999999CY0099001N1+02501+02101999999ADDMA1101901999999REMMET045METAR SBLP 141200Z 00000KT CAVOK 25/21 Q1019;
0120832880999992009041413004-13267-043417FM-15+0443SBLP V0209999C000012200019N0112651N1+02801+02201999999ADDGA1021+009001999GF102991999999999999999999MA1101901999999REMMET051METAR SBLP 141300Z 00000KT 9999 FEW030 28/22 Q1019;
0120832880999992009041414004-13267-043417FM-15+0443SBLP V0209999C000012200019N0112651N1+02801+01901999999ADDGA1021+009001999GF102991999999999999999999MA1101801999999REMMET051METAR SBLP 141400Z 00000KT 9999 FEW030 28/19 Q1018;
0120832880999992009041415004-13267-043417FM-15+0443SBLP V0202101N003112200019N0112651N1+03001+02201999999ADDGA1041+009001999GF104991999999999999999999MA1101691999999REMMET051METAR SBLP 141500Z 21006KT 9999 SCT030 30/22 Q1017;
0120832880999992009041416004-13267-043417FM-15+0443SBLP V0202701N003112200019N0112651N1+03101+02101999999ADDGA1041+009001999GF104991999999999999999999MA1101591999999REMMET051METAR SBLP 141600Z 27006KT 9999 SCT030 31/21 Q1016;
0120832880999992009041417004-13267-043417FM-15+0443SBLP V0209999C000012200019N0112651N1+03201+02001999999ADDGA1041+009001999GF104991999999999999999999MA1101491999999REMMET051METAR SBLP 141700Z 00000KT 9999 SCT030 32/20 Q1015;
0120832880999992009041418004-13267-043417FM-15+0443SBLP V0209999C000012200019N0112651N1+03201+02001999999ADDGA1041+009001999GF104991999999999999999999MA1101391999999REMMET051METAR SBLP 141800Z 00000KT 9999 SCT030 32/20 Q1014;
0120832880999992009041419004-13267-043417FM-15+0443SBLP V0209999C000012200019N0112651N1+03201+02001999999ADDGA1041+009001999GF104991999999999999999999MA1101391999999REMMET051METAR SBLP 141900Z 00000KT 9999 SCT030 32/20 Q1014;
0120832880999992009041420004-13267-043417FM-15+0443SBLP V0209999C000012200019N0112651N1+03201+02001999999ADDGA1041+009001999GF104991999999999999999999MA1101391999999REMMET051METAR SBLP 142000Z 00000KT 9999 SCT030 32/20 Q1014;
0120832880999992009041421004-13267-043417FM-15+0443SBLP V0209999C000012200019N0112651N1+03001+02001999999ADDGA1021+009001999GF102991999999999999999999MA1101391999999REMMET051METAR SBLP 142100Z 00000KT 9999 FEW030 30/20 Q1014;
0072832880999992009041509154-13267-043417FM-16+0443SBLP V0209999C00001999999CY0099001N1+02201+02101999999ADDMA1101591999999REMMET045SPECI SBLP 150915Z 00000KT CAVOK 22/21 Q1016;
0072832880999992009041510004-13267-043417FM-15+0443SBLP V0209999C00001999999CY0099001N1+02401+02201999999ADDMA1101691999999REMMET045METAR SBLP 151000Z 00000KT CAVOK 24/22 Q1017;
0072832880999992009041511004-13267-043417FM-15+0443SBLP V0209999C00001999999CY0099001N1+02501+02201999999ADDMA1101801999999REMMET045METAR SBLP 151100Z 00000KT CAVOK 25/22 Q1018;
0072832880999992009041512004-13267-043417FM-15+0443SBLP V0200901N00311999999CY0099001N1+02701+02101999999ADDMA1101801999999REMMET045METAR SBLP 151200Z 09006KT CAVOK 27/21 Q1018;
0072832880999992009041513004-13267-043417FM-15+0443SBLP V0209999C00001999999CY0099001N1+03001+02001999999ADDMA1101801999999REMMET045METAR SBLP 151300Z 00000KT CAVOK 30/20 Q1018;
0120832880999992009041514004-13267-043417FM-15+0443SBLP V0201201N002112200019N0112651N1+03101+02101999999ADDGA1021+009001999GF102991999999999999999999MA1101691999999REMMET051METAR SBLP 151400Z 12004KT 9999 FEW030 31/21 Q1017;
0120832880999992009041515004-13267-043417FM-15+0443SBLP V0200901N003112200019N0112651N1+03201+02101999999ADDGA1041+009001999GF104991999999999999999999MA1101591999999REMMET051METAR SBLP 151500Z 09006KT 9999 SCT030 32/21 Q1016;
0120832880999992009041516004-13267-043417FM-15+0443SBLP V0209999C000012200019N0112651N1+03201+02101999999ADDGA1041+009001999GF104991999999999999999999MA1101491999999REMMET051METAR SBLP 151600Z 00000KT 9999 SCT030 32/21 Q1015;
0120832880999992009041517004-13267-043417FM-15+0443SBLP V0209999C000012200019N0112651N1+03301+02001999999ADDGA1041+009001999GF104991999999999999999999MA1101391999999REMMET051METAR SBLP 151700Z 00000KT 9999 SCT030 33/20 Q1014;
0120832880999992009041518004-13267-043417FM-15+0443SBLP V0209999C000012200019N0112651N1+03401+01901999999ADDGA1041+009001999GF104991999999999999999999MA1101291999999REMMET051METAR SBLP 151800Z 00000KT 9999 SCT030 34/19 Q1013;
0120832880999992009041519004-13267-043417FM-15+0443SBLP V0209999C000012200019N0112651N1+03301+01901999999ADDGA1021+009001999GF102991999999999999999999MA1101291999999REMMET051METAR SBLP 151900Z 00000KT 9999 FEW030 33/19 Q1013;
0120832880999992009041520004-13267-043417FM-15+0443SBLP V0209999C000012200019N0112651N1+03201+01901999999ADDGA1021+009001999GF102991999999999999999999MA1101291999999REMMET051METAR SBLP 152000Z 00000KT 9999 FEW030 32/19 Q1013;
0120832880999992009041521004-13267-043417FM-15+0443SBLP V0209999C000012200019N0112651N1+03201+01901999999ADDGA1021+009001999GF102991999999999999999999MA1101291999999REMMET051METAR SBLP 152100Z 00000KT 9999 FEW030 32/19 Q1013;
0072832880999992009041609154-13267-043417FM-16+0443SBLP V0209999C00001999999CY0099001N1+02201+02101999999ADDMA1101591999999REMMET045SPECI SBLP 160915Z 00000KT CAVOK 22/21 Q1016;
0072832880999992009041610004-13267-043417FM-15+0443SBLP V0209999C00001999999CY0099001N1+02401+02101999999ADDMA1101591999999REMMET045METAR SBLP 161000Z 00000KT CAVOK 24/21 Q1016;
0072832880999992009041611004-13267-043417FM-15+0443SBLP V0209999C00001999999CY0099001N1+02601+02101999999ADDMA1101691999999REMMET045METAR SBLP 161100Z 00000KT CAVOK 26/21 Q1017;
0072832880999992009041612004-13267-043417FM-15+0443SBLP V0209999C00001999999CY0099001N1+02801+02101999999ADDMA1101691999999REMMET045METAR SBLP 161200Z 00000KT CAVOK 28/21 Q1017;
0072832880999992009041613004-13267-043417FM-15+0443SBLP V0209999C00001999999CY0099001N1+02901+02101999999ADDMA1101691999999REMMET045METAR SBLP 161300Z 00000KT CAVOK 29/21 Q1017;
0120832880999992009041614004-13267-043417FM-15+0443SBLP V0209999C000012200019N0112651N1+03001+02101999999ADDGA1021+009001999GF102991999999999999999999MA1101691999999REMMET051METAR SBLP 161400Z 00000KT 9999 FEW030 30/21 Q1017;
0120832880999992009041615004-13267-043417FM-15+0443SBLP V0201801N003112200019N0112651N1+03101+02101999999ADDGA1021+009001999GF102991999999999999999999MA1101591999999REMMET051METAR SBLP 161500Z 18006KT 9999 FEW030 31/21 Q1016;
0120832880999992009041616004-13267-043417FM-15+0443SBLP V0202401N001512200019N0112651N1+03201+02001999999ADDGA1021+009001999GF102991999999999999999999MA1101491999999REMMET051METAR SBLP 161600Z 24003KT 9999 FEW030 32/20 Q1015;
0143832880999992009041617004-13267-043417FM-15+0443SBLP V0202001N002112200019N0112651N1+03301+02101999999ADDGA1021+009001999GA2041+090001999GF104991999999999999999999MA1101391999999REMMET058METAR SBLP 161700Z 20004KT 9999 FEW030 SCT300 33/21 Q1014;
0120832880999992009041618004-13267-043417FM-15+0443SBLP V0202301N001512200019N0112651N1+03201+02001999999ADDGA1021+009001999GF102991999999999999999999MA1101391999999REMMET051METAR SBLP 161800Z 23003KT 9999 FEW030 32/20 Q1014;
0120832880999992009041619004-13267-043417FM-15+0443SBLP V0202001N002612200019N0112651N1+03101+02201999999ADDGA1041+009001999GF104991999999999999999999MA1101391999999REMMET051METAR SBLP 161900Z 20005KT 9999 SCT030 31/22 Q1014;
0185832880999992009041620004-13267-043417FM-15+0443SBLP V0200901N003112200019N0112651N1+02901+02101999999ADDGA1021+009001999GA2021+012001091GA3041+030001999GF104991999999999999999999MA1101391999999MW1161REMMET078METAR SBLP 162000Z 09006KT 9999 8000E VCSH FEW030 FEW040CB SCT100 29/21 Q1014;
0143832880999992009041621004-13267-043417FM-15+0443SBLP V0209999C000010300019N0112651N1+02801+02201999999ADDGA1021+009001999GA2071+030001999GF107991999999999999999999MA1101391999999REMMET058METAR SBLP 162100Z 00000KT 9999 FEW030 BKN100 28/22 Q1014;
0072832880999992009041709154-13267-043417FM-16+0443SBLP V0209999C00001999999CY0099001N1+02201+02101999999ADDMA1101591999999REMMET045SPECI SBLP 170915Z 00000KT CAVOK 22/21 Q1016;
0072832880999992009041710004-13267-043417FM-15+0443SBLP V0209999C00001999999CY0099001N1+02301+02101999999ADDMA1101591999999REMMET045METAR SBLP 171000Z 00000KT CAVOK 23/21 Q1016;
0072832880999992009041711004-13267-043417FM-15+0443SBLP V0209999C00001999999CY0099001N1+02601+02101999999ADDMA1101691999999REMMET045METAR SBLP 171100Z 00000KT CAVOK 26/21 Q1017;
0072832880999992009041712004-13267-043417FM-15+0443SBLP V0209999C00001999999CY0099001N1+02801+02001999999ADDMA1101801999999REMMET045METAR SBLP 171200Z 00000KT CAVOK 28/20 Q1018;
0120832880999992009041713004-13267-043417FM-15+0443SBLP V0201801N003112200019N0112651N1+02901+02001999999ADDGA1021+009001999GF102991999999999999999999MA1101801999999REMMET051METAR SBLP 171300Z 18006KT 9999 FEW030 29/20 Q1018;
0120832880999992009041714004-13267-043417FM-15+0443SBLP V0209999C000012200019N0112651N1+03001+02001999999ADDGA1021+009001999GF102991999999999999999999MA1101691999999REMMET051METAR SBLP 171400Z 00000KT 9999 FEW030 30/20 Q1017;
0120832880999992009041715004-13267-043417FM-15+0443SBLP V0201801N003112200019N0112651N1+03001+02001999999ADDGA1041+009001999GF104991999999999999999999MA1101591999999REMMET051METAR SBLP 171500Z 18006KT 9999 SCT030 30/20 Q1016;
0120832880999992009041716004-13267-043417FM-15+0443SBLP V0201801N002612200019N0112651N1+03101+02101999999ADDGA1041+009001999GF104991999999999999999999MA1101491999999REMMET051METAR SBLP 171600Z 18005KT 9999 SCT030 31/21 Q1015;
0120832880999992009041717004-13267-043417FM-15+0443SBLP V0201601N002612200019N0112651N1+03001+02001999999ADDGA1041+009001999GF104991999999999999999999MA1101391999999REMMET051METAR SBLP 171700Z 16005KT 9999 SCT030 30/20 Q1014;
0120832880999992009041718004-13267-043417FM-15+0443SBLP V0201801N003112200019N0112651N1+03101+02001999999ADDGA1041+009001999GF104991999999999999999999MA1101391999999REMMET051METAR SBLP 171800Z 18006KT 9999 SCT030 31/20 Q1014;
0120832880999992009041719004-13267-043417FM-15+0443SBLP V0201801N002612200019N0112651N1+03101+02001999999ADDGA1021+009001999GF102991999999999999999999MA1101391999999REMMET051METAR SBLP 171900Z 18005KT 9999 FEW030 31/20 Q1014;
0143832880999992009041720004-13267-043417FM-15+0443SBLP V0201801N002112200019N0112651N1+02901+02101999999ADDGA1021+009001999GA2041+030001999GF104991999999999999999999MA1101391999999REMMET058METAR SBLP 172000Z 18004KT 9999 FEW030 SCT100 29/21 Q1014;
0120832880999992009041721004-13267-043417FM-15+0443SBLP V0201801N001512200019N0112651N1+02701+01901999999ADDGA1021+009001999GF102991999999999999999999MA1101391999999REMMET051METAR SBLP 172100Z 18003KT 9999 FEW030 27/19 Q1014;
0143832880999992009041809144-13267-043417FM-16+0443SBLP V0209999C000010300019N0112651N1+02101+02101999999ADDGA1021+006001999GA2071+030001999GF107991999999999999999999MA1101491999999REMMET058SPECI SBLP 180914Z 00000KT 9999 FEW020 BKN100 21/21 Q1015;
0143832880999992009041810004-13267-043417FM-15+0443SBLP V0201801N003110300019N0112651N1+02101+02101999999ADDGA1021+006001999GA2071+030001999GF107991999999999999999999MA1101591999999REMMET058METAR SBLP 181000Z 18006KT 9999 FEW020 BKN100 21/21 Q1016;
0072832880999992009041811004-13267-043417FM-15+0443SBLP V0201601N00211999999CY0099001N1+02301+01901999999ADDMA1101691999999REMMET045METAR SBLP 181100Z 16004KT CAVOK 23/19 Q1017;
0143832880999992009041812004-13267-043417FM-15+0443SBLP V0201601N002112200019N0112651N1+02601+01901999999ADDGA1021+009001999GA2041+030001999GF104991999999999999999999MA1101691999999REMMET058METAR SBLP 181200Z 16004KT 9999 FEW030 SCT100 26/19 Q1017;
0143832880999992009041814004-13267-043417FM-15+0443SBLP V0209999C000012200019N0112651N1+02801+01901999999ADDGA1021+009001999GA2041+030001999GF104991999999999999999999MA1101691999999REMMET058METAR SBLP 181400Z 00000KT 9999 FEW030 SCT100 28/19 Q1017;
0143832880999992009041815004-13267-043417FM-15+0443SBLP V0201601N003110300019N0112651N1+02901+01901999999ADDGA1041+008101999GA2071+030001999GF107991999999999999999999MA1101591999999REMMET058METAR SBLP 181500Z 16006KT 9999 SCT027 BKN100 29/19 Q1016;
0143832880999992009041816004-13267-043417FM-15+0443SBLP V0201501N002112200019N0112651N1+03001+01901999999ADDGA1041+008101999GA2041+030001999GF104991999999999999999999MA1101491999999REMMET058METAR SBLP 181600Z 15004KT 9999 SCT027 SCT100 30/19 Q1015;
0120832880999992009041817004-13267-043417FM-15+0443SBLP V0201801N003112200019N0112651N1+03001+01901999999ADDGA1041+008101999GF104991999999999999999999MA1101391999999REMMET051METAR SBLP 181700Z 18006KT 9999 SCT027 30/19 Q1014;
0120832880999992009041818004-13267-043417FM-15+0443SBLP V0201401N004112200019N0112651N1+03001+01901999999ADDGA1041+009001999GF104991999999999999999999MA1101391999999REMMET051METAR SBLP 181800Z 14008KT 9999 SCT030 30/19 Q1014;
0120832880999992009041819004-13267-043417FM-15+0443SBLP V0201701N002112200019N0112651N1+03001+01901999999ADDGA1021+009001999GF102991999999999999999999MA1101391999999REMMET051METAR SBLP 181900Z 17004KT 9999 FEW030 30/19 Q1014;
0143832880999992009041820004-13267-043417FM-15+0443SBLP V0201501N003112200019N0112651N1+02901+01901999999ADDGA1021+009001999GA2041+030001999GF104991999999999999999999MA1101391999999REMMET058METAR SBLP 182000Z 15006KT 9999 FEW030 SCT100 29/19 Q1014;
0143832880999992009041821004-13267-043417FM-15+0443SBLP V0201501N003112200019N0112651N1+02601+02101999999ADDGA1021+008101999GA2041+030001999GF104991999999999999999999MA1101391999999REMMET058METAR SBLP 182100Z 15006KT 9999 FEW027 SCT100 26/21 Q1014;
0143832880999992009041909134-13267-043417FM-16+0443SBLP V0201801N002110300019N0112651N1+02201+02001999999ADDGA1021+008101999GA2071+030001999GF107991999999999999999999MA1101591999999REMMET058SPECI SBLP 190913Z 18004KT 9999 FEW027 BKN100 22/20 Q1016;
0143832880999992009041910004-13267-043417FM-15+0443SBLP V0201801N002110300019N0112651N1+02201+02101999999ADDGA1021+008101999GA2071+030001999GF107991999999999999999999MA1101591999999REMMET058METAR SBLP 191000Z 18004KT 9999 FEW027 BKN100 22/21 Q1016;
0072832880999992009041911004-13267-043417FM-15+0443SBLP V0201801N00211999999CY0099001N1+02301+01901999999ADDMA1101691999999REMMET045METAR SBLP 191100Z 18004KT CAVOK 23/19 Q1017;
0072832880999992009041912004-13267-043417FM-15+0443SBLP V0201701N00151999999CY0099001N1+02601+02001999999ADDMA1101691999999REMMET045METAR SBLP 191200Z 17003KT CAVOK 26/20 Q1017;
0143832880999992009041913004-13267-043417FM-15+0443SBLP V0201201N002112200019N0112651N1+02801+01901999999ADDGA1021+008101999GA2041+030001999GF104991999999999999999999MA1101691999999REMMET058METAR SBLP 191300Z 12004KT 9999 FEW027 SCT100 28/19 Q1017;
0143832880999992009041914004-13267-043417FM-15+0443SBLP V0201801N002112200019N0112651N1+02801+02001999999ADDGA1021+008101999GA2041+030001999GF104991999999999999999999MA1101691999999REMMET058METAR SBLP 191400Z 18004KT 9999 FEW027 SCT100 28/20 Q1017;
0143832880999992009041915004-13267-043417FM-15+0443SBLP V0201501N002112200019N0112651N1+03001+02001999999ADDGA1041+008101999GA2041+030001999GF104991999999999999999999MA1101491999999REMMET058METAR SBLP 191500Z 15004KT 9999 SCT027 SCT100 30/20 Q1015;
0143832880999992009041916004-13267-043417FM-15+0443SBLP V0201801N003112200019N0112651N1+03001+01901999999ADDGA1041+008101999GA2041+030001999GF104991999999999999999999MA1101491999999REMMET058METAR SBLP 191600Z 18006KT 9999 SCT027 SCT100 30/19 Q1015;
0143832880999992009041917004-13267-043417FM-15+0443SBLP V0201801N003110300019N0112651N1+03001+02001999999ADDGA1041+008101999GA2071+030001999GF107991999999999999999999MA1101391999999REMMET058METAR SBLP 191700Z 18006KT 9999 SCT027 BKN100 30/20 Q1014;
0143832880999992009041918004-13267-043417FM-15+0443SBLP V0200901N003110300019N0112651N1+03001+02001999999ADDGA1041+008101999GA2071+030001999GF107991999999999999999999MA1101391999999REMMET058METAR SBLP 191800Z 09006KT 9999 SCT027 BKN100 30/20 Q1014;
0143832880999992009041919004-13267-043417FM-15+0443SBLP V0201201N003110300019N0112651N1+02901+02101999999ADDGA1041+009001999GA2071+030001999GF107991999999999999999999MA1101291999999REMMET058METAR SBLP 191900Z 12006KT 9999 SCT030 BKN100 29/21 Q1013;
0143832880999992009041920004-13267-043417FM-15+0443SBLP V0209999C000012200019N0112651N1+02801+02101999999ADDGA1021+009001999GA2041+030001999GF104991999999999999999999MA1101391999999REMMET058METAR SBLP 192000Z 00000KT 9999 FEW030 SCT100 28/21 Q1014;
0143832880999992009041921004-13267-043417FM-15+0443SBLP V0209999C000012200019N0112651N1+02801+02101999999ADDGA1021+009001999GA2041+030001999GF104991999999999999999999MA1101391999999REMMET058METAR SBLP 192100Z 00000KT 9999 FEW030 SCT100 28/21 Q1014;
0072832880999992009042009144-13267-043417FM-16+0443SBLP V0209999C00001999999CY0099001N1+02201+02101999999ADDMA1101491999999REMMET045SPECI SBLP 200914Z 00000KT CAVOK 22/21 Q1015;
0072832880999992009042010004-13267-043417FM-15+0443SBLP V0209999C00001999999CY0099001N1+02301+02101999999ADDMA1101591999999REMMET045METAR SBLP 201000Z 00000KT CAVOK 23/21 Q1016;
0072832880999992009042011004-13267-043417FM-15+0443SBLP V0201801N00311999999CY0099001N1+02501+02101999999ADDMA1101691999999REMMET045METAR SBLP 201100Z 18006KT CAVOK 25/21 Q1017;
0072832880999992009042012004-13267-043417FM-15+0443SBLP V0209999C00001999999CY0099001N1+02701+02001999999ADDMA1101691999999REMMET045METAR SBLP 201200Z 00000KT CAVOK 27/20 Q1017;
0072832880999992009042013004-13267-043417FM-15+0443SBLP V0201601N00311999999CY0099001N1+02901+01901999999ADDMA1101691999999REMMET045METAR SBLP 201300Z 16006KT CAVOK 29/19 Q1017;
0143832880999992009042014004-13267-043417FM-15+0443SBLP V0201801N003112200019N0112651N1+03001+02101999999ADDGA1021+009001999GA2041+030001999GF104991999999999999999999MA1101691999999REMMET058METAR SBLP 201400Z 18006KT 9999 FEW030 SCT100 30/21 Q1017;
0143832880999992009042015004-13267-043417FM-15+0443SBLP V0201801N003110300019N0112651N1+03101+02001999999ADDGA1041+009001999GA2071+030001999GF107991999999999999999999MA1101591999999REMMET058METAR SBLP 201500Z 18006KT 9999 SCT030 BKN100 31/20 Q1016;
0143832880999992009042016004-13267-043417FM-15+0443SBLP V0202101N004112200019N0112651N1+03101+02001999999ADDGA1041+009001999GA2041+030001999GF104991999999999999999999MA1101491999999REMMET058METAR SBLP 201600Z 21008KT 9999 SCT030 SCT100 31/20 Q1015;
0143832880999992009042017004-13267-043417FM-15+0443SBLP V0201001N004112200019N0112651N1+03101+02101999999ADDGA1041+009001999GA2041+030001999GF104991999999999999999999MA1101391999999REMMET058METAR SBLP 201700Z 10008KT 9999 SCT030 SCT100 31/21 Q1014;
0120832880999992009042018004-13267-043417FM-15+0443SBLP V0201801N004112200019N0112651N1+03101+02101999999ADDGA1041+009001999GF104991999999999999999999MA1101391999999REMMET051METAR SBLP 201800Z 18008KT 9999 SCT030 31/21 Q1014;
0120832880999992009042019004-13267-043417FM-15+0443SBLP V0201501N003112200019N0112651N1+03101+02101999999ADDGA1021+009001999GF102991999999999999999999MA1101291999999REMMET051METAR SBLP 201900Z 15006KT 9999 FEW030 31/21 Q1013;
0120832880999992009042020004-13267-043417FM-15+0443SBLP V0201501N003112200019N0112651N1+03001+02001999999ADDGA1021+009001999GF102991999999999999999999MA1101291999999REMMET051METAR SBLP 202000Z 15006KT 9999 FEW030 30/20 Q1013;
0120832880999992009042021004-13267-043417FM-15+0443SBLP V0201201N002112200019N0112651N1+02801+02001999999ADDGA1021+009001999GF102991999999999999999999MA1101391999999REMMET051METAR SBLP 202100Z 12004KT 9999 FEW030 28/20 Q1014;
0072832880999992009042109104-13267-043417FM-16+0443SBLP V0201801N00211999999CY0099001N1+02101+02001999999ADDMA1101591999999REMMET045SPECI SBLP 210910Z 18004KT CAVOK 21/20 Q1016;
0072832880999992009042110004-13267-043417FM-15+0443SBLP V0201501N00101999999CY0099001N1+02201+01901999999ADDMA1101691999999REMMET045METAR SBLP 211000Z 15002KT CAVOK 22/19 Q1017;
0072832880999992009042111004-13267-043417FM-15+0443SBLP V0201801N00211999999CY0099001N1+02501+02001999999ADDMA1101691999999REMMET045METAR SBLP 211100Z 18004KT CAVOK 25/20 Q1017;
0072832880999992009042112004-13267-043417FM-15+0443SBLP V0209999C00001999999CY0099001N1+02601+02001999999ADDMA1101801999999REMMET045METAR SBLP 211200Z 00000KT CAVOK 26/20 Q1018;
0072832880999992009042113004-13267-043417FM-15+0443SBLP V0201801N00311999999CY0099001N1+02701+02001999999ADDMA1101801999999REMMET045METAR SBLP 211300Z 18006KT CAVOK 27/20 Q1018;
0143832880999992009042114004-13267-043417FM-15+0443SBLP V0201501N002112200019N0112651N1+02901+02101999999ADDGA1021+009001999GA2041+030001999GF104991999999999999999999MA1101691999999REMMET058METAR SBLP 211400Z 15004KT 9999 FEW030 SCT100 29/21 Q1017;
0120832880999992009042115004-13267-043417FM-15+0443SBLP V0202101N002112200019N0112651N1+02901+02101999999ADDGA1021+009001999GF102991999999999999999999MA1101591999999REMMET051METAR SBLP 211500Z 21004KT 9999 FEW030 29/21 Q1016;
0120832880999992009042116004-13267-043417FM-15+0443SBLP V0201801N003112200019N0112651N1+03001+02101999999ADDGA1041+009001999GF104991999999999999999999MA1101491999999REMMET051METAR SBLP 211600Z 18006KT 9999 SCT030 30/21 Q1015;
0120832880999992009042117004-13267-043417FM-15+0443SBLP V0201801N003112200019N0112651N1+03201+02001999999ADDGA1041+009001999GF104991999999999999999999MA1101391999999REMMET051METAR SBLP 211700Z 18006KT 9999 SCT030 32/20 Q1014;
0120832880999992009042118004-13267-043417FM-15+0443SBLP V0201801N003112200019N0112651N1+03301+02001999999ADDGA1041+009001999GF104991999999999999999999MA1101391999999REMMET051METAR SBLP 211800Z 18006KT 9999 SCT030 33/20 Q1014;
0120832880999992009042119004-13267-043417FM-15+0443SBLP V0201801N003112200019N0112651N1+03201+02001999999ADDGA1041+009001999GF104991999999999999999999MA1101391999999REMMET051METAR SBLP 211900Z 18006KT 9999 SCT030 32/20 Q1014;
0120832880999992009042120004-13267-043417FM-15+0443SBLP V0201801N003112200019N0112651N1+03101+02101999999ADDGA1021+009001999GF102991999999999999999999MA1101391999999REMMET051METAR SBLP 212000Z 18006KT 9999 FEW030 31/21 Q1014;
0120832880999992009042121004-13267-043417FM-15+0443SBLP V0201801N003112200019N0112651N1+02901+02101999999ADDGA1021+009001999GF102991999999999999999999MA1101391999999REMMET051METAR SBLP 212100Z 18006KT 9999 FEW030 29/21 Q1014;
0072832880999992009042210004-13267-043417FM-15+0443SBLP V0209999C00001999999CY0099001N1+02401+02101999999ADDMA1101591999999REMMET045METAR SBLP 221000Z 00000KT CAVOK 24/21 Q1016;
0072832880999992009042211004-13267-043417FM-15+0443SBLP V0209999C00001999999CY0099001N1+02601+02101999999ADDMA1101691999999REMMET045METAR SBLP 221100Z 00000KT CAVOK 26/21 Q1017;
0120832880999992009042212004-13267-043417FM-15+0443SBLP V0209999C000012200019N0112651N1+02701+02101999999ADDGA1021+009001999GF102991999999999999999999MA1101691999999REMMET051METAR SBLP 221200Z 00000KT 9999 FEW030 27/21 Q1017;
0143832880999992009042213004-13267-043417FM-15+0443SBLP V0209999C000012200019N0112651N1+02801+02001999999ADDGA1021+009001999GA2041+030001999GF104991999999999999999999MA1101691999999REMMET058METAR SBLP 221300Z 00000KT 9999 FEW030 SCT100 28/20 Q1017;
0143832880999992009042214004-13267-043417FM-15+0443SBLP V0201801N003112200019N0112651N1+02901+02001999999ADDGA1041+009001999GA2041+030001999GF104991999999999999999999MA1101691999999REMMET058METAR SBLP 221400Z 18006KT 9999 SCT030 SCT100 29/20 Q1017;
0120832880999992009042215004-13267-043417FM-15+0443SBLP V0201801N003112200019N0112651N1+03001+02001999999ADDGA1041+009001999GF104991999999999999999999MA1101591999999REMMET051METAR SBLP 221500Z 18006KT 9999 SCT030 30/20 Q1016;
0143832880999992009042216004-13267-043417FM-15+0443SBLP V0201201N004112200019N0112651N1+03001+02001999999ADDGA1041+009001999GA2041+030001999GF104991999999999999999999MA1101491999999REMMET058METAR SBLP 221600Z 12008KT 9999 SCT030 SCT100 30/20 Q1015;
0143832880999992009042217004-13267-043417FM-15+0443SBLP V0201201N003112200019N0112651N1+03201+01901999999ADDGA1021+009001999GA2041+030001999GF104991999999999999999999MA1101291999999REMMET058METAR SBLP 221700Z 12006KT 9999 FEW030 SCT100 32/19 Q1013;
0120832880999992009042218004-13267-043417FM-15+0443SBLP V0202101N003112200019N0112651N1+03201+01901999999ADDGA1041+009001999GF104991999999999999999999MA1101191999999REMMET051METAR SBLP 221800Z 21006KT 9999 SCT030 32/19 Q1012;
0120832880999992009042219004-13267-043417FM-15+0443SBLP V0201801N003112200019N0112651N1+03301+01901999999ADDGA1041+009001999GF104991999999999999999999MA1101191999999REMMET051METAR SBLP 221900Z 18006KT 9999 SCT030 33/19 Q1012;
0120832880999992009042220004-13267-043417FM-15+0443SBLP V0201801N003112200019N0112651N1+03201+02001999999ADDGA1041+009001999GF104991999999999999999999MA1101191999999REMMET051METAR SBLP 222000Z 18006KT 9999 SCT030 32/20 Q1012;
0120832880999992009042221004-13267-043417FM-15+0443SBLP V0201801N003112200019N0112651N1+03201+02001999999ADDGA1041+009001999GF104991999999999999999999MA1101191999999REMMET051METAR SBLP 222100Z 18006KT 9999 SCT030 32/20 Q1012;
0072832880999992009042310004-13267-043417FM-15+0443SBLP V0209999C00001999999CY0099001N1+02001+01901999999ADDMA1101391999999REMMET045METAR SBLP 231000Z 00000KT CAVOK 20/19 Q1014;
0120832880999992009042311004-13267-043417FM-15+0443SBLP V0209999C000010300019N0112651N1+02201+02101999999ADDGA1071+030001999GF107991999999999999999999MA1101491999999REMMET051METAR SBLP 231100Z 00000KT 9999 BKN100 22/21 Q1015;
0143832880999992009042314004-13267-043417FM-15+0443SBLP V0209999C000010300019N0112651N1+02801+02201999999ADDGA1021+009001999GA2071+030001999GF107991999999999999999999MA1101491999999REMMET058METAR SBLP 231400Z 00000KT 9999 FEW030 BKN100 28/22 Q1015;
0143832880999992009042315004-13267-043417FM-15+0443SBLP V0209999C000012200019N0112651N1+02901+02001999999ADDGA1021+009001999GA2041+030001999GF104991999999999999999999MA1101391999999REMMET058METAR SBLP 231500Z 00000KT 9999 FEW030 SCT100 29/20 Q1014;
0120832880999992009042316004-13267-043417FM-15+0443SBLP V0201801N003112200019N0112651N1+03001+02001999999ADDGA1021+009001999GF102991999999999999999999MA1101291999999REMMET051METAR SBLP 231600Z 18006KT 9999 FEW030 30/20 Q1013;
0120832880999992009042317004-13267-043417FM-15+0443SBLP V0201601N002112200019N0112651N1+03001+02001999999ADDGA1021+009001999GF102991999999999999999999MA1101191999999REMMET051METAR SBLP 231700Z 16004KT 9999 FEW030 30/20 Q1012;
0120832880999992009042318004-13267-043417FM-15+0443SBLP V0201801N003112200019N0112651N1+03001+02001999999ADDGA1021+009001999GF102991999999999999999999MA1101081999999REMMET051METAR SBLP 231800Z 18006KT 9999 FEW030 30/20 Q1011;
0120832880999992009042319004-13267-043417FM-15+0443SBLP V0201801N002112200019N0112651N1+02901+01901999999ADDGA1021+009001999GF102991999999999999999999MA1101081999999REMMET051METAR SBLP 231900Z 18004KT 9999 FEW030 29/19 Q1011;
0120832880999992009042320004-13267-043417FM-15+0443SBLP V0201801N002112200019N0112651N1+02901+01901999999ADDGA1021+009001999GF102991999999999999999999MA1101191999999REMMET051METAR SBLP 232000Z 18004KT 9999 FEW030 29/19 Q1012;
0072832880999992009042321004-13267-043417FM-15+0443SBLP V0201801N00151999999CY0099001N1+02801+02101999999ADDMA1101191999999REMMET045METAR SBLP 232100Z 18003KT CAVOK 28/21 Q1012;
0120832880999992009042410004-13267-043417FM-15+0443SBLP V0201801N003110300019N0112651N1+02101+02101999999ADDGA1071+030001999GF107991999999999999999999MA1101391999999REMMET051METAR SBLP 241000Z 18006KT 9999 BKN100 21/21 Q1014;
0120832880999992009042411004-13267-043417FM-15+0443SBLP V0209999C000010300019N0112651N1+02301+02101999999ADDGA1071+030001999GF107991999999999999999999MA1101491999999REMMET051METAR SBLP 241100Z 00000KT 9999 BKN100 23/21 Q1015;
0120832880999992009042412004-13267-043417FM-15+0443SBLP V0209999C000010300019N0112651N1+02401+01901999999ADDGA1071+030001999GF107991999999999999999999MA1101591999999REMMET051METAR SBLP 241200Z 00000KT 9999 BKN100 24/19 Q1016;
0120832880999992009042413004-13267-043417FM-15+0443SBLP V0209999C000010300019N0112651N1+02501+01901999999ADDGA1071+030001999GF107991999999999999999999MA1101591999999REMMET051METAR SBLP 241300Z 00000KT 9999 BKN100 25/19 Q1016;
0120832880999992009042414004-13267-043417FM-15+0443SBLP V0209999C000010300019N0112651N1+02701+02001999999ADDGA1071+030001999GF107991999999999999999999MA1101491999999REMMET051METAR SBLP 241400Z 00000KT 9999 BKN100 27/20 Q1015;
0143832880999992009042415004-13267-043417FM-15+0443SBLP V0209999C000010300019N0112651N1+02801+02001999999ADDGA1021+009001999GA2071+030001999GF107991999999999999999999MA1101391999999REMMET058METAR SBLP 241500Z 00000KT 9999 FEW030 BKN100 28/20 Q1014;
0143832880999992009042416004-13267-043417FM-15+0443SBLP V0202201N002110300019N0112651N1+02901+02001999999ADDGA1021+009001999GA2071+030001999GF107991999999999999999999MA1101291999999REMMET058METAR SBLP 241600Z 22004KT 9999 FEW030 BKN100 29/20 Q1013;
0143832880999992009042417004-13267-043417FM-15+0443SBLP V0202101N002110300019N0112651N1+03001+02001999999ADDGA1021+009001999GA2071+030001999GF107991999999999999999999MA1101191999999REMMET058METAR SBLP 241700Z 21004KT 9999 FEW030 BKN100 30/20 Q1012;
0120832880999992009042418004-13267-043417FM-15+0443SBLP V0202401N001512200019N0112651N1+03001+02101999999ADDGA1021+009001999GF102991999999999999999999MA1101081999999REMMET051METAR SBLP 241800Z 24003KT 9999 FEW030 30/21 Q1011;
0120832880999992009042419004-13267-043417FM-15+0443SBLP V0202401N001512200019N0112651N1+03001+02101999999ADDGA1021+009001999GF102991999999999999999999MA1101081999999REMMET051METAR SBLP 241900Z 24003KT 9999 FEW030 30/21 Q1011;
0120832880999992009042420004-13267-043417FM-15+0443SBLP V0202101N002112200019N0112651N1+02901+02001999999ADDGA1021+009001999GF102991999999999999999999MA1101081999999REMMET051METAR SBLP 242000Z 21004KT 9999 FEW030 29/20 Q1011;
0120832880999992009042421004-13267-043417FM-15+0443SBLP V0209999C000012200019N0112651N1+02701+02101999999ADDGA1021+009001999GF102991999999999999999999MA1101191999999REMMET051METAR SBLP 242100Z 00000KT 9999 FEW030 27/21 Q1012;
0072832880999992009042510004-13267-043417FM-15+0443SBLP V0209999C00001999999CY0099001N1+02301+02101999999ADDMA1101491999999REMMET045METAR SBLP 251000Z 00000KT CAVOK 23/21 Q1015;
0072832880999992009042511004-13267-043417FM-15+0443SBLP V0209999C00001999999CY0099001N1+02601+02101999999ADDMA1101491999999REMMET045METAR SBLP 251100Z 00000KT CAVOK 26/21 Q1015;
0072832880999992009042512004-13267-043417FM-15+0443SBLP V0203601N00211999999CY0099001N1+02801+02201999999ADDMA1101491999999REMMET045METAR SBLP 251200Z 36004KT CAVOK 28/22 Q1015;
0120832880999992009042513004-13267-043417FM-15+0443SBLP V0200601N003112200019N0112651N1+03001+02101999999ADDGA1021+009001999GF102991999999999999999999MA1101491999999REMMET051METAR SBLP 251300Z 06006KT 9999 FEW030 30/21 Q1015;
0120832880999992009042514004-13267-043417FM-15+0443SBLP V0200601N003112200019N0112651N1+03001+02101999999ADDGA1041+009001999GF104991999999999999999999MA1101491999999REMMET051METAR SBLP 251400Z 06006KT 9999 SCT030 30/21 Q1015;
0120832880999992009042515004-13267-043417FM-15+0443SBLP V0203601N001512200019N0112651N1+03301+02001999999ADDGA1041+009001999GF104991999999999999999999MA1101391999999REMMET051METAR SBLP 251500Z 36003KT 9999 SCT030 33/20 Q1014;
0078832880999992009042516004-13267-043417FM-15+0443SBLP V0209999C000012200019N0112651N1+03401+02001999999ADDMA1101301999999REMMET051METAR SBLP 251600Z OOOOOKT 9999 SCT030 34/20 Q1013;
0120832880999992009042517004-13267-043417FM-15+0443SBLP V0209999C000012200019N0112651N1+03501+01901999999ADDGA1041+009001999GF104991999999999999999999MA1101191999999REMMET051METAR SBLP 251700Z 00000KT 9999 SCT030 35/19 Q1012;
0120832880999992009042518004-13267-043417FM-15+0443SBLP V0209999C000012200019N0112651N1+03501+01801999999ADDGA1041+009001999GF104991999999999999999999MA1101081999999REMMET051METAR SBLP 251800Z 00000KT 9999 SCT030 35/18 Q1011;
0120832880999992009042519004-13267-043417FM-15+0443SBLP V0209999C000012200019N0112651N1+03401+01901999999ADDGA1041+009001999GF104991999999999999999999MA1101081999999REMMET051METAR SBLP 251900Z 00000KT 9999 SCT030 34/19 Q1011;
0120832880999992009042520004-13267-043417FM-15+0443SBLP V0209999C000012200019N0112651N1+03201+02001999999ADDGA1041+009001999GF104991999999999999999999MA1101191999999REMMET051METAR SBLP 252000Z 00000KT 9999 SCT030 32/20 Q1012;
0120832880999992009042521004-13267-043417FM-15+0443SBLP V0209999C000012200019N0112651N1+03001+02101999999ADDGA1041+009001999GF104991999999999999999999MA1101191999999REMMET051METAR SBLP 252100Z 00000KT 9999 SCT030 30/21 Q1012;
0153832880999992009042610004-13267-043417FM-15+0443SBLP V0202201N001510045019N0070001N1+02201+02201999999ADDGA1071+004501999GA2081+030001999GF108991999999999999999999MA1101591999999MW1611REMMET062METAR SBLP 261000Z 22003KT 7000 -RA BKN015 OVC100 22/22 Q1016;
0153832880999992009042611004-13267-043417FM-15+0443SBLP V0209999C000010045019N0060001N1+02201+02201999999ADDGA1071+004501999GA2081+030001999GF108991999999999999999999MA1101691999999MW1611REMMET062METAR SBLP 261100Z 00000KT 6000 -RA BKN015 OVC100 22/22 Q1017;
0153832880999992009042612004-13267-043417FM-15+0443SBLP V0209999C000010045019N0060001N1+02301+02201999999ADDGA1071+004501999GA2081+030001999GF108991999999999999999999MA1101801999999MW1611REMMET062METAR SBLP 261200Z 00000KT 6000 -RA BKN015 OVC100 23/22 Q1018;
0153832880999992009042613004-13267-043417FM-15+0443SBLP V0209999C000010045019N0112651N1+02401+02301999999ADDGA1071+004501999GA2081+030001999GF108991999999999999999999MA1101801999999MW1611REMMET062METAR SBLP 261300Z 00000KT 9999 -RA BKN015 OVC100 24/23 Q1018;
0148832880999992009042614004-13267-043417FM-15+0443SBLP V0203601N002110045019N0112651N1+02401+02301999999ADDGA1071+004501999GA2071+030001999GF107991999999999999999999MA1101801999999REMMET063METAR SBLP 261400Z 36004KT 9999 BKN015 BKN100 24/23 Q1018 RERA;
0143832880999992009042615004-13267-043417FM-15+0443SBLP V0209999C000010300019N0112651N1+02501+02201999999ADDGA1041+006001999GA2071+030001999GF107991999999999999999999MA1101691999999REMMET058METAR SBLP 261500Z 00000KT 9999 SCT020 BKN100 25/22 Q1017;
0143832880999992009042616004-13267-043417FM-15+0443SBLP V0209999C000010300019N0112651N1+02501+02201999999ADDGA1041+003001999GA2071+030001999GF107991999999999999999999MA1101591999999REMMET058METAR SBLP 261600Z 00000KT 9999 SCT010 BKN100 25/22 Q1016;
0143832880999992009042617004-13267-043417FM-15+0443SBLP V0209999C000010300019N0112651N1+02501+02201999999ADDGA1041+003001999GA2071+030001999GF107991999999999999999999MA1101491999999REMMET058METAR SBLP 261700Z 00000KT 9999 SCT010 BKN100 25/22 Q1015;
0143832880999992009042618004-13267-043417FM-15+0443SBLP V0209999C000010300019N0112651N1+02601+02101999999ADDGA1041+003001999GA2071+030001999GF107991999999999999999999MA1101391999999REMMET058METAR SBLP 261800Z 00000KT 9999 SCT010 BKN100 26/21 Q1014;
0143832880999992009042619004-13267-043417FM-15+0443SBLP V0209999C000010300019N0112651N1+02701+02101999999ADDGA1041+004501999GA2071+030001999GF107991999999999999999999MA1101291999999REMMET058METAR SBLP 261900Z 00000KT 9999 SCT015 BKN100 27/21 Q1013;
0143832880999992009042620004-13267-043417FM-15+0443SBLP V0209999C000010300019N0112651N1+02601+02101999999ADDGA1041+004501999GA2071+030001999GF107991999999999999999999MA1101391999999REMMET058METAR SBLP 262000Z 00000KT 9999 SCT015 BKN100 26/21 Q1014;
0143832880999992009042621004-13267-043417FM-15+0443SBLP V0209999C000010300019N0112651N1+02501+02101999999ADDGA1041+006001999GA2071+030001999GF107991999999999999999999MA1101391999999REMMET058METAR SBLP 262100Z 00000KT 9999 SCT020 BKN100 25/21 Q1014;
0072832880999992009042709154-13267-043417FM-16+0443SBLP V0209999C00001999999CY0099001N1+02201+02101999999ADDMA1101491999999REMMET045SPECI SBLP 270915Z 00000KT CAVOK 22/21 Q1015;
0072832880999992009042710004-13267-043417FM-15+0443SBLP V0209999C00001999999CY0099001N1+02201+02101999999ADDMA1101491999999REMMET045METAR SBLP 271000Z 00000KT CAVOK 22/21 Q1015;
0072832880999992009042711004-13267-043417FM-15+0443SBLP V0209999C00001999999CY0099001N1+02501+02101999999ADDMA1101591999999REMMET045METAR SBLP 271100Z 00000KT CAVOK 25/21 Q1016;
0072832880999992009042712004-13267-043417FM-15+0443SBLP V0209999C00001999999CY0099001N1+02701+02101999999ADDMA1101591999999REMMET045METAR SBLP 271200Z 00000KT CAVOK 27/21 Q1016;
0072832880999992009042713004-13267-043417FM-15+0443SBLP V0209999C00001999999CY0099001N1+02901+02101999999ADDMA1101591999999REMMET045METAR SBLP 271300Z 00000KT CAVOK 29/21 Q1016;
0120832880999992009042714004-13267-043417FM-15+0443SBLP V0209999C000012200019N0112651N1+03001+02101999999ADDGA1021+006001999GF102991999999999999999999MA1101491999999REMMET051METAR SBLP 271400Z 00000KT 9999 FEW020 30/21 Q1015;
0120832880999992009042715004-13267-043417FM-15+0443SBLP V0209999C000012200019N0112651N1+03001+02101999999ADDGA1021+009001999GF102991999999999999999999MA1101391999999REMMET051METAR SBLP 271500Z 00000KT 9999 FEW030 30/21 Q1014;
0120832880999992009042716004-13267-043417FM-15+0443SBLP V0202301N002112200019N0112651N1+03101+02101999999ADDGA1021+009001999GF102991999999999999999999MA1101291999999REMMET051METAR SBLP 271600Z 23004KT 9999 FEW030 31/21 Q1013;
0120832880999992009042717004-13267-043417FM-15+0443SBLP V0202401N002612200019N0112651N1+03201+02201999999ADDGA1021+009001999GF102991999999999999999999MA1101191999999REMMET051METAR SBLP 271700Z 24005KT 9999 FEW030 32/22 Q1012;
0120832880999992009042718004-13267-043417FM-15+0443SBLP V0202401N002612200019N0112651N1+03201+02101999999ADDGA1021+009001999GF102991999999999999999999MA1101081999999REMMET051METAR SBLP 271800Z 24005KT 9999 FEW030 32/21 Q1011;
0120832880999992009042719004-13267-043417FM-15+0443SBLP V0202301N002112200019N0112651N1+03201+02001999999ADDGA1021+009001999GF102991999999999999999999MA1101081999999REMMET051METAR SBLP 271900Z 23004KT 9999 FEW030 32/20 Q1011;
0120832880999992009042720004-13267-043417FM-15+0443SBLP V0202101N001512200019N0112651N1+03101+02101999999ADDGA1021+009001999GF102991999999999999999999MA1101191999999REMMET051METAR SBLP 272000Z 21003KT 9999 FEW030 31/21 Q1012;
0120832880999992009042721004-13267-043417FM-15+0443SBLP V0202401N001512200019N0112651N1+03101+02201999999ADDGA1021+009001999GF102991999999999999999999MA1101191999999REMMET051METAR SBLP 272100Z 24003KT 9999 FEW030 31/22 Q1012;
0143832880999992009042809084-13267-043417FM-16+0443SBLP V0209999C000012200019N0112651N1+02401+02301999999ADDGA1041+006001999GA2041+030001999GF104991999999999999999999MA1101291999999REMMET058SPECI SBLP 280908Z 00000KT 9999 SCT020 SCT100 24/23 Q1013;
0143832880999992009042810004-13267-043417FM-15+0443SBLP V0209999C000012200019N0112651N1+02401+02301999999ADDGA1041+006001999GA2041+030001999GF104991999999999999999999MA1101391999999REMMET058METAR SBLP 281000Z 00000KT 9999 SCT020 SCT100 24/23 Q1014;
0143832880999992009042811004-13267-043417FM-15+0443SBLP V0209999C000012200019N0112651N1+02501+02101999999ADDGA1021+006901999GA2041+030001999GF104991999999999999999999MA1101391999999REMMET058METAR SBLP 281100Z 00000KT 9999 FEW023 SCT100 25/21 Q1014;
0143832880999992009042812004-13267-043417FM-15+0443SBLP V0209999C000012200019N0112651N1+02701+02201999999ADDGA1021+008101999GA2041+030001999GF104991999999999999999999MA1101491999999REMMET058METAR SBLP 281200Z 00000KT 9999 FEW027 SCT100 27/22 Q1015;
0143832880999992009042813004-13267-043417FM-15+0443SBLP V0202701N002612200019N0112651N1+02801+02301999999ADDGA1041+008101999GA2041+030001999GF104991999999999999999999MA1101491999999REMMET058METAR SBLP 281300Z 27005KT 9999 SCT027 SCT100 28/23 Q1015;
0143832880999992009042814004-13267-043417FM-15+0443SBLP V0209999C000012200019N0112651N1+03001+02201999999ADDGA1041+008101999GA2041+030001999GF104991999999999999999999MA1101491999999REMMET058METAR SBLP 281400Z 00000KT 9999 SCT027 SCT100 30/22 Q1015;
0169832880999992009042815004-13267-043417FM-15+0443SBLP V0203301N001512200019N0112651N1+03101+02201999999ADDGA1041+008101999GA2021+009001021GA3041+030001999GF104991999999999999999999MA1101391999999REMMET068METAR SBLP 281500Z 33003KT 9999 SCT027 FEW030TCU SCT100 31/22 Q1014;
0169832880999992009042816004-13267-043417FM-15+0443SBLP V0202701N003112200019N0112651N1+03101+02201999999ADDGA1041+008101999GA2021+009001021GA3041+030001999GF104991999999999999999999MA1101291999999REMMET068METAR SBLP 281600Z 27006KT 9999 SCT027 FEW030TCU SCT100 31/22 Q1013;
0169832880999992009042817004-13267-043417FM-15+0443SBLP V0209999C000010300019N0112651N1+03201+02201999999ADDGA1041+009001999GA2021+009001021GA3071+030001999GF107991999999999999999999MA1101191999999REMMET068METAR SBLP 281700Z 00000KT 9999 SCT030 FEW030TCU BKN100 32/22 Q1012;
0143832880999992009042818004-13267-043417FM-15+0443SBLP V0203601N003112200019N0112651N1+03001+02201999999ADDGA1041+008101999GA2041+030001999GF104991999999999999999999MA1101081999999REMMET058METAR SBLP 281800Z 36006KT 9999 SCT027 SCT100 30/22 Q1011;
0186832880999992009042819004-13267-043417FM-15+0443SBLP V0201801N00311012001CN0090001N1+02501+02401999999ADDGA1041+006001999GA2021+012001091GA3071+030001999GF107991999999999999999999MA1101191999999MW1801MW2951REMMET073METAR SBLP 281900Z 18006KT 9000 -TSRA SCT020 FEW040CB BKN100 25/24 Q1012;
0186832880999992009042820004-13267-043417FM-15+0443SBLP V0201201N00411012001CN0090001N1+02301+02301999999ADDGA1041+006001999GA2021+012001091GA3071+030001999GF107991999999999999999999MA1101291999999MW1801MW2951REMMET073METAR SBLP 282000Z 12008KT 9000 -TSRA SCT020 FEW040CB BKN100 23/23 Q1013;
0177832880999992009042821004-13267-043417FM-15+0443SBLP V0201601N00311012001CN0112651N1+02301+02301999999ADDGA1041+006001999GA2021+012001091GA3071+030001999GF107991999999999999999999MA1101291999999MW1171REMMET070METAR SBLP 282100Z 16006KT 9999 TS SCT020 FEW040CB BKN100 23/23 Q1013;
0153832880999992009042909054-13267-043417FM-16+0443SBLP V0200301N002110300019N0112651N1+02301+02301999999ADDGA1041+003001999GA2071+030001999GF107991999999999999999999MA1101491999999MW1611REMMET062SPECI SBLP 290905Z 03004KT 9999 -RA SCT010 BKN100 23/23 Q1015;
0143832880999992009042910004-13267-043417FM-15+0443SBLP V0209999C000010300019N0112651N1+02301+02201999999ADDGA1041+003001999GA2071+030001999GF107991999999999999999999MA1101591999999REMMET058METAR SBLP 291000Z 00000KT 9999 SCT010 BKN100 23/22 Q1016;
0143832880999992009042911004-13267-043417FM-15+0443SBLP V0209999C000010300019N0112651N1+02301+02201999999ADDGA1041+003001999GA2071+030001999GF107991999999999999999999MA1101591999999REMMET058METAR SBLP 291100Z 00000KT 9999 SCT010 BKN100 23/22 Q1016;
0143832880999992009042912004-13267-043417FM-15+0443SBLP V0209999C000010300019N0112651N1+02301+02201999999ADDGA1041+003001999GA2071+030001999GF107991999999999999999999MA1101591999999REMMET058METAR SBLP 291200Z 00000KT 9999 SCT010 BKN100 23/22 Q1016;
0143832880999992009042913004-13267-043417FM-15+0443SBLP V0200601N002110270019N0112651N1+02601+02301999999ADDGA1041+003001999GA2071+027001999GF107991999999999999999999MA1101691999999REMMET058METAR SBLP 291300Z 06004KT 9999 SCT010 BKN090 26/23 Q1017;
0143832880999992009042914004-13267-043417FM-15+0443SBLP V0200601N001510300019N0112651N1+02801+02201999999ADDGA1041+004501999GA2071+030001999GF107991999999999999999999MA1101691999999REMMET058METAR SBLP 291400Z 06003KT 9999 SCT015 BKN100 28/22 Q1017;
0143832880999992009042915004-13267-043417FM-15+0443SBLP V0203601N002110300019N0112651N1+02801+02201999999ADDGA1041+004501999GA2071+030001999GF107991999999999999999999MA1101591999999REMMET058METAR SBLP 291500Z 36004KT 9999 SCT015 BKN100 28/22 Q1016;
0143832880999992009042916004-13267-043417FM-15+0443SBLP V0209999C000010300019N0112651N1+02901+02201999999ADDGA1041+004501999GA2071+030001999GF107991999999999999999999MA1101491999999REMMET058METAR SBLP 291600Z 00000KT 9999 SCT015 BKN100 29/22 Q1015;
0143832880999992009042917004-13267-043417FM-15+0443SBLP V0209999C000010300019N0112651N1+02801+02201999999ADDGA1041+006001999GA2071+030001999GF107991999999999999999999MA1101391999999REMMET058METAR SBLP 291700Z 00000KT 9999 SCT020 BKN100 28/22 Q1014;
0143832880999992009042918004-13267-043417FM-15+0443SBLP V0202601N003110300019N0112651N1+02401+02401999999ADDGA1041+006001999GA2071+030001999GF107991999999999999999999MA1101391999999REMMET058METAR SBLP 291800Z 26006KT 9999 SCT020 BKN100 24/24 Q1014;
0143832880999992009042919004-13267-043417FM-15+0443SBLP V0201801N003110300019N0112651N1+02501+02401999999ADDGA1041+006001999GA2071+030001999GF107991999999999999999999MA1101291999999REMMET058METAR SBLP 291900Z 18006KT 9999 SCT020 BKN100 25/24 Q1013;
0143832880999992009042920004-13267-043417FM-15+0443SBLP V0202101N003110300019N0112651N1+02501+02401999999ADDGA1041+006001999GA2071+030001999GF107991999999999999999999MA1101391999999REMMET058METAR SBLP 292000Z 21006KT 9999 SCT020 BKN100 25/24 Q1014;
0143832880999992009042921004-13267-043417FM-15+0443SBLP V0209999C000010300019N0112651N1+02401+02401999999ADDGA1041+006001999GA2071+030001999GF107991999999999999999999MA1101391999999REMMET058METAR SBLP 292100Z 00000KT 9999 SCT020 BKN100 24/24 Q1014;
0143832880999992009043009114-13267-043417FM-16+0443SBLP V0209999C000010300019N0112651N1+02101+02101999999ADDGA1021+006001999GA2071+030001999GF107991999999999999999999MA1101591999999REMMET058SPECI SBLP 300911Z 00000KT 9999 FEW020 BKN100 21/21 Q1016;
0120832880999992009043010004-13267-043417FM-15+0443SBLP V0209999C000012200019N0112651N1+02201+02101999999ADDGA1041+030001999GF104991999999999999999999MA1101591999999REMMET051METAR SBLP 301000Z 00000KT 9999 SCT100 22/21 Q1016;
0120832880999992009043011004-13267-043417FM-15+0443SBLP V0209999C000012200019N0112651N1+02401+02101999999ADDGA1041+030001999GF104991999999999999999999MA1101691999999REMMET051METAR SBLP 301100Z 00000KT 9999 SCT100 24/21 Q1017;
0072832880999992009043012004-13267-043417FM-15+0443SBLP V0209999C000019999999Y0099001N1+02601+02201999999ADDMA1101691999999REMMET045METAR SBLP 301200Z 00000KT CAVOK 26/22 Q1017;
0072832880999992009043013004-13267-043417FM-15+0443SBLP V0209999C000019999999Y0099001N1+02601+02201999999ADDMA1101591999999REMMET045METAR SBLP 301300Z 00000KT CAVOK 26/22 Q1016;
0120832880999992009043014004-13267-043417FM-15+0443SBLP V0209999C000012200019N0112651N1+02901+02101999999ADDGA1021+009001999GF102991999999999999999999MA1101591999999REMMET051METAR SBLP 301400Z 00000KT 9999 FEW030 29/21 Q1016;
0072832880999992009043015004-13267-043417FM-15+0443SBLP V0209999C000019999999Y0099001N1+02601+02201999999ADDMA1101591999999REMMET045METAR SBLP 301500Z 00000KT CAVOK 26/22 Q1016;
0120832880999992009043016004-13267-043417FM-15+0443SBLP V0209999C000012200019N0112651N1+03101+02101999999ADDGA1041+009001999GF104991999999999999999999MA1101391999999REMMET051METAR SBLP 301600Z 00000KT 9999 SCT030 31/21 Q1014;
0120832880999992009043017004-13267-043417FM-15+0443SBLP V0209999C000012200019N0112651N1+03201+02001999999ADDGA1041+009001999GF104991999999999999999999MA1101291999999REMMET051METAR SBLP 301700Z 00000KT 9999 SCT030 32/20 Q1013;
0120832880999992009043018004-13267-043417FM-15+0443SBLP V0209999C000012200019N0112651N1+03201+02001999999ADDGA1041+009001999GF104991999999999999999999MA1101191999999REMMET051METAR SBLP 301800Z 00000KT 9999 SCT030 32/20 Q1012;
0120832880999992009043019004-13267-043417FM-15+0443SBLP V0209999C000012200019N0112651N1+03201+02001999999ADDGA1041+009001999GF104991999999999999999999MA1101191999999REMMET051METAR SBLP 301900Z 00000KT 9999 SCT030 32/20 Q1012;
0120832880999992009043020004-13267-043417FM-15+0443SBLP V0200901N003112200019N0112651N1+03101+02001999999ADDGA1041+009001999GF104991999999999999999999MA1101291999999REMMET051METAR SBLP 302000Z 09006KT 9999 SCT030 31/20 Q1013;
0120832880999992009043021004-13267-043417FM-15+0443SBLP V0200901N003110090019N0112651N1+02901+02101999999ADDGA1071+009001999GF107991999999999999999999MA1101291999999REMMET051METAR SBLP 302100Z 09006KT 9999 BKN030 29/21 Q1013;
0143832880999992009050109154-13267-043417FM-16+0443SBLP V0209999C000010300019N0112651N1+02301+02101999999ADDGA1021+006001999GA2071+030001999GF107991999999999999999999MA1101491999999REMMET058SPECI SBLP 010915Z 00000KT 9999 FEW020 BKN100 23/21 Q1015;
0143832880999992009050110004-13267-043417FM-15+0443SBLP V0209999C000010300019N0112651N1+02401+02101999999ADDGA1021+006001999GA2071+030001999GF107991999999999999999999MA1101491999999REMMET058METAR SBLP 011000Z 00000KT 9999 FEW020 BKN100 24/21 Q1015;
0143832880999992009050111004-13267-043417FM-15+0443SBLP V0209999C000010300019N0112651N1+02601+02101999999ADDGA1021+006001999GA2071+030001999GF107991999999999999999999MA1101591999999REMMET058METAR SBLP 011100Z 00000KT 9999 FEW020 BKN100 26/21 Q1016;
0143832880999992009050112004-13267-043417FM-15+0443SBLP V0209999C000010300019N0112651N1+02701+02101999999ADDGA1021+006001999GA2071+030001999GF107991999999999999999999MA1101591999999REMMET058METAR SBLP 011200Z 00000KT 9999 FEW020 BKN100 27/21 Q1016;
0143832880999992009050113004-13267-043417FM-15+0443SBLP V0209999C000010300019N0112651N1+02801+02101999999ADDGA1041+006001999GA2071+030001999GF107991999999999999999999MA1101591999999REMMET058METAR SBLP 011300Z 00000KT 9999 SCT020 BKN100 28/21 Q1016;
0143832880999992009050114004-13267-043417FM-15+0443SBLP V0209999C000010300019N0112651N1+02801+02101999999ADDGA1041+006001999GA2071+030001999GF107991999999999999999999MA1101591999999REMMET058METAR SBLP 011400Z 00000KT 9999 SCT020 BKN100 28/21 Q1016;
0143832880999992009050115004-13267-043417FM-15+0443SBLP V0209999C000010300019N0112651N1+02901+02101999999ADDGA1041+006001999GA2071+030001999GF107991999999999999999999MA1101491999999REMMET058METAR SBLP 011500Z 00000KT 9999 SCT020 BKN100 29/21 Q1015;
0143832880999992009050116004-13267-043417FM-15+0443SBLP V0201901N003110300019N0112651N1+02701+02201999999ADDGA1041+006901999GA2071+030001999GF107991999999999999999999MA1101391999999REMMET058METAR SBLP 011600Z 19006KT 9999 SCT023 BKN100 27/22 Q1014;
0143832880999992009050117004-13267-043417FM-15+0443SBLP V0201901N003110300019N0112651N1+02601+02101999999ADDGA1041+006901999GA2071+030001999GF107991999999999999999999MA1101391999999REMMET058METAR SBLP 011700Z 19006KT 9999 SCT023 BKN100 26/21 Q1014;
0143832880999992009050118004-13267-043417FM-15+0443SBLP V0201501N004110300019N0112651N1+02401+02001999999ADDGA1041+006901999GA2071+030001999GF107991999999999999999999MA1101391999999REMMET058METAR SBLP 011800Z 15008KT 9999 SCT023 BKN100 24/20 Q1014;
0143832880999992009050119004-13267-043417FM-15+0443SBLP V0201201N004110300019N0112651N1+02401+02101999999ADDGA1041+006901999GA2071+030001999GF107991999999999999999999MA1101391999999REMMET058METAR SBLP 011900Z 12008KT 9999 SCT023 BKN100 24/21 Q1014;
0143832880999992009050120004-13267-043417FM-15+0443SBLP V0201301N002610300019N0112651N1+02301+02201999999ADDGA1041+006901999GA2071+030001999GF107991999999999999999999MA1101391999999REMMET058METAR SBLP 012000Z 13005KT 9999 SCT023 BKN100 23/22 Q1014;
0153832880999992009050121004-13267-043417FM-15+0443SBLP V0201801N002110270019N0112651N1+02201+02101999999ADDGA1041+006001999GA2071+027001999GF107991999999999999999999MA1101491999999MW1611REMMET062METAR SBLP 012100Z 18004KT 9999 -RA SCT020 BKN090 22/21 Q1015;
0153832880999992009050209124-13267-043417FM-16+0443SBLP V0202101N003110300019N0112651N1+02001+02001999999ADDGA1041+004501999GA2071+030001999GF107991999999999999999999MA1101591999999MW1611REMMET062SPECI SBLP 020912Z 21006KT 9999 -RA SCT015 BKN100 20/20 Q1016;
0153832880999992009050210004-13267-043417FM-15+0443SBLP V0202101N003110300019N0112651N1+02001+02001999999ADDGA1041+004501999GA2071+030001999GF107991999999999999999999MA1101591999999MW1611REMMET062METAR SBLP 021000Z 21006KT 9999 -RA SCT015 BKN100 20/20 Q1016;
0143832880999992009050211004-13267-043417FM-15+0443SBLP V0209999C000010300019N0112651N1+02101+02001999999ADDGA1041+004501999GA2071+030001999GF107991999999999999999999MA1101691999999REMMET058METAR SBLP 021100Z 00000KT 9999 SCT015 BKN100 21/20 Q1017;
0143832880999992009050212004-13267-043417FM-15+0443SBLP V0201801N003110300019N0112651N1+02101+02101999999ADDGA1041+004501999GA2071+030001999GF107991999999999999999999MA1101801999999REMMET058METAR SBLP 021200Z 18006KT 9999 SCT015 BKN100 21/21 Q1018;
0143832880999992009050213004-13267-043417FM-15+0443SBLP V0201801N003110300019N0112651N1+02201+02201999999ADDGA1041+004501999GA2071+030001999GF107991999999999999999999MA1101801999999REMMET058METAR SBLP 021300Z 18006KT 9999 SCT015 BKN100 22/22 Q1018;
0143832880999992009050214004-13267-043417FM-15+0443SBLP V0201801N003110300019N0112651N1+02301+02201999999ADDGA1041+006001999GA2071+030001999GF107991999999999999999999MA1101691999999REMMET058METAR SBLP 021400Z 18006KT 9999 SCT020 BKN100 23/22 Q1017;
0143832880999992009050215004-13267-043417FM-15+0443SBLP V0201601N003110300019N0112651N1+02401+02201999999ADDGA1021+006001999GA2071+030001999GF107991999999999999999999MA1101591999999REMMET058METAR SBLP 021500Z 16006KT 9999 FEW020 BKN100 24/22 Q1016;
0143832880999992009050216004-13267-043417FM-15+0443SBLP V0201201N002110300019N0112651N1+02601+01801999999ADDGA1021+006001999GA2071+030001999GF107991999999999999999999MA1101491999999REMMET058METAR SBLP 021600Z 12004KT 9999 FEW020 BKN100 26/18 Q1015;
0143832880999992009050217004-13267-043417FM-15+0443SBLP V0201801N002110300019N0112651N1+02701+01801999999ADDGA1041+006001999GA2071+030001999GF107991999999999999999999MA1101491999999REMMET058METAR SBLP 021700Z 18004KT 9999 SCT020 BKN100 27/18 Q1015;
0143832880999992009050218004-13267-043417FM-15+0443SBLP V0201801N002110300019N0112651N1+02701+01701999999ADDGA1041+006001999GA2071+030001999GF107991999999999999999999MA1101391999999REMMET058METAR SBLP 021800Z 18004KT 9999 SCT020 BKN100 27/17 Q1014;
0143832880999992009050219004-13267-043417FM-15+0443SBLP V0209999C000010300019N0112651N1+02601+01901999999ADDGA1041+006001999GA2071+030001999GF107991999999999999999999MA1101391999999REMMET058METAR SBLP 021900Z 00000KT 9999 SCT020 BKN100 26/19 Q1014;
0143832880999992009050220004-13267-043417FM-15+0443SBLP V0209999C000010300019N0112651N1+02501+01901999999ADDGA1021+006001999GA2071+030001999GF107991999999999999999999MA1101491999999REMMET058METAR SBLP 022000Z 00000KT 9999 FEW020 BKN100 25/19 Q1015;
0153832880999992009050221004-13267-043417FM-15+0443SBLP V0201801N002110300019N0112651N1+02401+02001999999ADDGA1041+004501999GA2071+030001999GF107991999999999999999999MA1101491999999MW1611REMMET062METAR SBLP 022100Z 18004KT 9999 -RA SCT015 BKN100 24/20 Q1015;
0072832880999992009050310004-13267-043417FM-15+0443SBLP V0201801N002619999999Y0099001N1+02001+01901999999ADDMA1101591999999REMMET045METAR SBLP 031000Z 18005KT CAVOK 20/19 Q1016;
0143832880999992009050311004-13267-043417FM-15+0443SBLP V0201801N003110300019N0112651N1+02201+01901999999ADDGA1021+006001999GA2071+030001999GF107991999999999999999999MA1101591999999REMMET058METAR SBLP 031100Z 18006KT 9999 FEW020 BKN100 22/19 Q1016;
0143832880999992009050312004-13267-043417FM-15+0443SBLP V0201801N001510300019N0112651N1+02301+01901999999ADDGA1021+006001999GA2071+030001999GF107991999999999999999999MA1101691999999REMMET058METAR SBLP 031200Z 18003KT 9999 FEW020 BKN100 23/19 Q1017;
0120832880999992009050313004-13267-043417FM-15+0443SBLP V0201801N001512200019N0112651N1+02501+02001999999ADDGA1021+008101999GF102991999999999999999999MA1101691999999REMMET051METAR SBLP 031300Z 18003KT 9999 FEW027 25/20 Q1017;
0143832880999992009050314004-13267-043417FM-15+0443SBLP V0209999C000012200019N0112651N1+02601+01901999999ADDGA1041+008101999GA2041+030001999GF104991999999999999999999MA1101691999999REMMET058METAR SBLP 031400Z 00000KT 9999 SCT027 SCT100 26/19 Q1017;
0143832880999992009050315004-13267-043417FM-15+0443SBLP V0202401N001512200019N0112651N1+02801+02001999999ADDGA1041+008101999GA2041+030001999GF104991999999999999999999MA1101591999999REMMET058METAR SBLP 031500Z 24003KT 9999 SCT027 SCT100 28/20 Q1016;
0143832880999992009050316004-13267-043417FM-15+0443SBLP V0202201N003110300019N0112651N1+02701+02101999999ADDGA1041+008101999GA2071+030001999GF107991999999999999999999MA1101491999999REMMET058METAR SBLP 031600Z 22006KT 9999 SCT027 BKN100 27/21 Q1015;
0143832880999992009050317004-13267-043417FM-15+0443SBLP V0209999C000012200019N0112651N1+02801+02101999999ADDGA1041+008101999GA2041+030001999GF104991999999999999999999MA1101391999999REMMET058METAR SBLP 031700Z 00000KT 9999 SCT027 SCT100 28/21 Q1014;
0143832880999992009050318004-13267-043417FM-15+0443SBLP V0209999C000010300019N0112651N1+02801+02101999999ADDGA1041+008101999GA2071+030001999GF107991999999999999999999MA1101291999999REMMET058METAR SBLP 031800Z 00000KT 9999 SCT027 BKN100 28/21 Q1013;
0143832880999992009050319004-13267-043417FM-15+0443SBLP V0209999C000010300019N0112651N1+02701+02101999999ADDGA1041+008101999GA2071+030001999GF107991999999999999999999MA1101291999999REMMET058METAR SBLP 031900Z 00000KT 9999 SCT027 BKN100 27/21 Q1013;
0143832880999992009050320004-13267-043417FM-15+0443SBLP V0209999C000010300019N0112651N1+02401+02201999999ADDGA1041+008101999GA2071+030001999GF107991999999999999999999MA1101391999999REMMET058METAR SBLP 032000Z 00000KT 9999 SCT027 BKN100 24/22 Q1014;
0143832880999992009050321004-13267-043417FM-15+0443SBLP V0209999C000010300019N0112651N1+02401+02301999999ADDGA1041+008101999GA2071+030001999GF107991999999999999999999MA1101391999999REMMET058METAR SBLP 032100Z 00000KT 9999 SCT027 BKN100 24/23 Q1014;
0120832880999992009050410004-13267-043417FM-15+0443SBLP V0209999C000010300019N0112651N1+02101+02101999999ADDGA1071+030001999GF107991999999999999999999MA1101591999999REMMET051METAR SBLP 041000Z 00000KT 9999 BKN100 21/21 Q1016;
0120832880999992009050411004-13267-043417FM-15+0443SBLP V0209999C000010300019N0112651N1+02401+02201999999ADDGA1071+030001999GF107991999999999999999999MA1101691999999REMMET051METAR SBLP 041100Z 00000KT 9999 BKN100 24/22 Q1017;
0120832880999992009050412004-13267-043417FM-15+0443SBLP V0209999C000012200019N0112651N1+02401+02201999999ADDGA1041+030001999GF104991999999999999999999MA1101691999999REMMET051METAR SBLP 041200Z 00000KT 9999 SCT100 24/22 Q1017;
0143832880999992009050413004-13267-043417FM-15+0443SBLP V0209999C000010300019N0112651N1+02501+02201999999ADDGA1021+009001999GA2071+030001999GF107991999999999999999999MA1101691999999REMMET058METAR SBLP 041300Z 00000KT 9999 FEW030 BKN100 25/22 Q1017;
0144832880999992009050414004-13267-043417FM-15+0443SBLP V0209999C000010300019N0112651N1+02801+02101999999ADDGA1021+009001999GA2071+030001999GF107991999999999999999999MA1101691999999REMMET059METAR SBLP 041400Z 00000KT 9999 FEW030 BKN100 28/21 Q10170;
0143832880999992009050415004-13267-043417FM-15+0443SBLP V0209999C000010300019N0112651N1+02801+02201999999ADDGA1041+008101999GA2071+030001999GF107991999999999999999999MA1101591999999REMMET058METAR SBLP 041500Z 00000KT 9999 SCT027 BKN100 28/22 Q1016;
0143832880999992009050416004-13267-043417FM-15+0443SBLP V0202001N002110300019N0112651N1+02801+01901999999ADDGA1021+008101999GA2071+030001999GF107991999999999999999999MA1101491999999REMMET058METAR SBLP 041600Z 20004KT 9999 FEW027 BKN100 28/19 Q1015;
0143832880999992009050417004-13267-043417FM-15+0443SBLP V0202701N002110300019N0112651N1+02801+02001999999ADDGA1021+008101999GA2071+030001999GF107991999999999999999999MA1101391999999REMMET058METAR SBLP 041700Z 27004KT 9999 FEW027 BKN100 28/20 Q1014;
0143832880999992009050418004-13267-043417FM-15+0443SBLP V0202101N002110300019N0112651N1+02801+02001999999ADDGA1021+009001999GA2071+030001999GF107991999999999999999999MA1101391999999REMMET058METAR SBLP 041800Z 21004KT 9999 FEW030 BKN100 28/20 Q1014;
0148832880999992009050419004-13267-043417FM-15+0443SBLP V0201801N003110300019N0112651N1+02601+02101999999ADDGA1021+009001999GA2071+030001999GF107991999999999999999999MA1101391999999REMMET063METAR SBLP 041900Z 18006KT 9999 FEW030 BKN100 26/21 Q1014 RERA;
0153832880999992009050420004-13267-043417FM-15+0443SBLP V0200901N005110300019N0112651N1+02501+02201999999ADDGA1041+006001999GA2071+030001999GF107991999999999999999999MA1101491999999MW1611REMMET062METAR SBLP 042000Z 09010KT 9999 -RA SCT020 BKN100 25/22 Q1015;
0153832880999992009050421004-13267-043417FM-15+0443SBLP V0201301N003110060019N0112651N1+02201+02101999999ADDGA1071+006001999GA2071+030001999GF107991999999999999999999MA1101491999999MW1611REMMET062METAR SBLP 042100Z 13006KT 9999 -RA BKN020 BKN100 22/21 Q1015;
0143832880999992009050510004-13267-043417FM-15+0443SBLP V0201801N003110300019N0112651N1+02101+02001999999ADDGA1041+006001999GA2071+030001999GF107991999999999999999999MA1101691999999REMMET058METAR SBLP 051000Z 18006KT 9999 SCT020 BKN100 21/20 Q1017;
0143832880999992009050511004-13267-043417FM-15+0443SBLP V0201801N003110300019N0112651N1+02201+02101999999ADDGA1041+006001999GA2071+030001999GF107991999999999999999999MA1101801999999REMMET058METAR SBLP 051100Z 18006KT 9999 SCT020 BKN100 22/21 Q1018;
0143832880999992009050512004-13267-043417FM-15+0443SBLP V0201801N003110300019N0112651N1+02301+02101999999ADDGA1041+006001999GA2071+030001999GF107991999999999999999999MA1101901999999REMMET058METAR SBLP 051200Z 18006KT 9999 SCT020 BKN100 23/21 Q1019;
0143832880999992009050513004-13267-043417FM-15+0443SBLP V0202001N004110300019N0112651N1+02301+02101999999ADDGA1041+006001999GA2071+030001999GF107991999999999999999999MA1101901999999REMMET058METAR SBLP 051300Z 20008KT 9999 SCT020 BKN100 23/21 Q1019;
0143832880999992009050514004-13267-043417FM-15+0443SBLP V0201801N003110300019N0112651N1+02501+02101999999ADDGA1021+006001999GA2071+030001999GF107991999999999999999999MA1101901999999REMMET058METAR SBLP 051400Z 18006KT 9999 FEW020 BKN100 25/21 Q1019;
0143832880999992009050515004-13267-043417FM-15+0443SBLP V0201801N004110300019N0112651N1+02501+02101999999ADDGA1021+006001999GA2071+030001999GF107991999999999999999999MA1101801999999REMMET058METAR SBLP 051500Z 18008KT 9999 FEW020 BKN100 25/21 Q1018;
0143832880999992009050516004-13267-043417FM-15+0443SBLP V0201801N003110300019N0112651N1+02701+02001999999ADDGA1021+006001999GA2071+030001999GF107991999999999999999999MA1101691999999REMMET058METAR SBLP 051600Z 18006KT 9999 FEW020 BKN100 27/20 Q1017;
0143832880999992009050517004-13267-043417FM-15+0443SBLP V0201801N003110300019N0112651N1+02801+02001999999ADDGA1041+006001999GA2071+030001999GF107991999999999999999999MA1101591999999REMMET058METAR SBLP 051700Z 18006KT 9999 SCT020 BKN100 28/20 Q1016;
0143832880999992009050518004-13267-043417FM-15+0443SBLP V0201801N003110300019N0112651N1+02901+02001999999ADDGA1041+006001999GA2071+030001999GF107991999999999999999999MA1101491999999REMMET058METAR SBLP 051800Z 18006KT 9999 SCT020 BKN100 29/20 Q1015;
0143832880999992009050519004-13267-043417FM-15+0443SBLP V0201801N003112200019N0112651N1+02901+02001999999ADDGA1041+006001999GA2041+030001999GF104991999999999999999999MA1101491999999REMMET058METAR SBLP 051900Z 18006KT 9999 SCT020 SCT100 29/20 Q1015;
0143832880999992009050520004-13267-043417FM-15+0443SBLP V0201801N003112200019N0112651N1+02801+02101999999ADDGA1041+006001999GA2041+030001999GF104991999999999999999999MA1101491999999REMMET058METAR SBLP 052000Z 18006KT 9999 SCT020 SCT100 28/21 Q1015;
0143832880999992009050521004-13267-043417FM-15+0443SBLP V0209999C000012200019N0112651N1+02701+02101999999ADDGA1041+006001999GA2041+030001999GF104991999999999999999999MA1101591999999REMMET058METAR SBLP 052100Z 00000KT 9999 SCT020 SCT100 27/21 Q1016;
0143832880999992009050609154-13267-043417FM-16+0443SBLP V0209999C000010300019N0112651N1+02201+02101999999ADDGA1021+006001999GA2071+030001999GF107991999999999999999999MA1101591999999REMMET058SPECI SBLP 060915Z 00000KT 9999 FEW020 BKN100 22/21 Q1016;
0143832880999992009050610004-13267-043417FM-15+0443SBLP V0209999C000010300019N0112651N1+02301+02101999999ADDGA1021+006001999GA2071+030001999GF107991999999999999999999MA1101591999999REMMET058METAR SBLP 061000Z 00000KT 9999 FEW020 BKN100 23/21 Q1016;
0143832880999992009050611004-13267-043417FM-15+0443SBLP V0209999C000012200019N0112651N1+02501+02001999999ADDGA1021+006001999GA2041+030001999GF104991999999999999999999MA1101691999999REMMET058METAR SBLP 061100Z 00000KT 9999 FEW020 SCT100 25/20 Q1017;
0143832880999992009050612004-13267-043417FM-15+0443SBLP V0209999C000012200019N0112651N1+02701+02001999999ADDGA1021+006001999GA2041+030001999GF104991999999999999999999MA1101801999999REMMET058METAR SBLP 061200Z 00000KT 9999 FEW020 SCT100 27/20 Q1018;
0120832880999992009050613004-13267-043417FM-15+0443SBLP V0209999C000012200019N0112651N1+02801+02001999999ADDGA1041+006001999GF104991999999999999999999MA1101801999999REMMET051METAR SBLP 061300Z 00000KT 9999 SCT020 28/20 Q1018;
0120832880999992009050614004-13267-043417FM-15+0443SBLP V0209999C000012200019N0112651N1+02901+02001999999ADDGA1041+006001999GF104991999999999999999999MA1101691999999REMMET051METAR SBLP 061400Z 00000KT 9999 SCT020 29/20 Q1017;
0120832880999992009050615004-13267-043417FM-15+0443SBLP V0201801N003112200019N0112651N1+03001+02001999999ADDGA1041+009001999GF104991999999999999999999MA1101591999999REMMET051METAR SBLP 061500Z 18006KT 9999 SCT030 30/20 Q1016;
0120832880999992009050616004-13267-043417FM-15+0443SBLP V0203001N003112200019N0112651N1+03001+02001999999ADDGA1041+009001999GF104991999999999999999999MA1101491999999REMMET051METAR SBLP 061600Z 30006KT 9999 SCT030 30/20 Q1015;
0120832880999992009050617004-13267-043417FM-15+0443SBLP V0201801N003112200019N0112651N1+03101+02101999999ADDGA1041+009001999GF104991999999999999999999MA1101391999999REMMET051METAR SBLP 061700Z 18006KT 9999 SCT030 31/21 Q1014;
0120832880999992009050618004-13267-043417FM-15+0443SBLP V0201801N003112200019N0112651N1+03101+02001999999ADDGA1041+009001999GF104991999999999999999999MA1101291999999REMMET051METAR SBLP 061800Z 18006KT 9999 SCT030 31/20 Q1013;
0146832880999992009050619004-13267-043417FM-15+0443SBLP V0201801N003112200019N0112651N1+03101+01901999999ADDGA1021+009001999GA2021+009001021GF102991999999999999999999MA1101291999999REMMET061METAR SBLP 061900Z 18006KT 9999 FEW030 FEW030TCU 31/19 Q1013;
0120832880999992009050620004-13267-043417FM-15+0443SBLP V0201701N004112200019N0112651N1+03001+02101999999ADDGA1041+009001999GF104991999999999999999999MA1101291999999REMMET051METAR SBLP 062000Z 17008KT 9999 SCT030 30/21 Q1013;
0120832880999992009050621004-13267-043417FM-15+0443SBLP V0201201N002112200019N0112651N1+02701+02101999999ADDGA1021+009001999GF102991999999999999999999MA1101391999999REMMET051METAR SBLP 062100Z 12004KT 9999 FEW030 27/21 Q1014;
0072832880999992009050709154-13267-043417FM-16+0443SBLP V0209999C000019999999Y0099001N1+02201+02101999999ADDMA1101491999999REMMET045SPECI SBLP 070915Z 00000KT CAVOK 22/21 Q1015;
0072832880999992009050710004-13267-043417FM-15+0443SBLP V0209999C000019999999Y0099001N1+02401+02101999999ADDMA1101491999999REMMET045METAR SBLP 071000Z 00000KT CAVOK 24/21 Q1015;
0072832880999992009050711004-13267-043417FM-15+0443SBLP V0209999C000019999999Y0099001N1+02501+02001999999ADDMA1101591999999REMMET045METAR SBLP 071100Z 00000KT CAVOK 25/20 Q1016;
0072832880999992009050712004-13267-043417FM-15+0443SBLP V0209999C000019999999Y0099001N1+02701+02001999999ADDMA1101691999999REMMET045METAR SBLP 071200Z 00000KT CAVOK 27/20 Q1017;
0072832880999992009050713004-13267-043417FM-15+0443SBLP V0209999C000019999999Y0099001N1+02801+02001999999ADDMA1101691999999REMMET045METAR SBLP 071300Z 00000KT CAVOK 28/20 Q1017;
0143832880999992009050714004-13267-043417FM-15+0443SBLP V0201801N003112200019N0112651N1+02901+02001999999ADDGA1021+006001999GA2041+030001999GF104991999999999999999999MA1101691999999REMMET058METAR SBLP 071400Z 18006KT 9999 FEW020 SCT100 29/20 Q1017;
0143832880999992009050715004-13267-043417FM-15+0443SBLP V0201801N003112200019N0112651N1+03101+02001999999ADDGA1021+009001999GA2041+030001999GF104991999999999999999999MA1101591999999REMMET058METAR SBLP 071500Z 18006KT 9999 FEW030 SCT100 31/20 Q1016;
0143832880999992009050716004-13267-043417FM-15+0443SBLP V0209999C000012200019N0112651N1+03101+02001999999ADDGA1021+009001999GA2041+030001999GF104991999999999999999999MA1101391999999REMMET058METAR SBLP 071600Z 00000KT 9999 FEW030 SCT100 31/20 Q1014;
0143832880999992009050717004-13267-043417FM-15+0443SBLP V0209999C000012200019N0112651N1+03201+02001999999ADDGA1041+009001999GA2041+030001999GF104991999999999999999999MA1101291999999REMMET058METAR SBLP 071700Z 00000KT 9999 SCT030 SCT100 32/20 Q1013;
0143832880999992009050718004-13267-043417FM-15+0443SBLP V0201801N003112200019N0112651N1+03201+01901999999ADDGA1021+009001999GA2041+030001999GF104991999999999999999999MA1101191999999REMMET058METAR SBLP 071800Z 18006KT 9999 FEW030 SCT100 32/19 Q1012;
0143832880999992009050719004-13267-043417FM-15+0443SBLP V0209999C000012200019N0112651N1+03201+01901999999ADDGA1021+009001999GA2041+030001999GF104991999999999999999999MA1101191999999REMMET058METAR SBLP 071900Z 00000KT 9999 FEW030 SCT100 32/19 Q1012;
0120832880999992009050720004-13267-043417FM-15+0443SBLP V0201201N003112200019N0112651N1+03001+02101999999ADDGA1021+009001999GF102991999999999999999999MA1101291999999REMMET051METAR SBLP 072000Z 12006KT 9999 FEW030 30/21 Q1013;
0072832880999992009050721004-13267-043417FM-15+0443SBLP V0209999C000019999999Y0099001N1+02701+02101999999ADDMA1101291999999REMMET045METAR SBLP 072100Z 00000KT CAVOK 27/21 Q1013;
0072832880999992009050809114-13267-043417FM-16+0443SBLP V0209999C000019999999Y0099001N1+02201+02001999999ADDMA1101491999999REMMET045SPECI SBLP 080911Z 00000KT CAVOK 22/20 Q1015;
0072832880999992009050810004-13267-043417FM-15+0443SBLP V0209999C000019999999Y0099001N1+02201+02001999999ADDMA1101591999999REMMET045METAR SBLP 081000Z 00000KT CAVOK 22/20 Q1016;
0072832880999992009050811004-13267-043417FM-15+0443SBLP V0201801N003119999999Y0099001N1+02501+01901999999ADDMA1101691999999REMMET045METAR SBLP 081100Z 18006KT CAVOK 25/19 Q1017;
0072832880999992009050812004-13267-043417FM-15+0443SBLP V0201201N003119999999Y0099001N1+02701+02001999999ADDMA1101691999999REMMET045METAR SBLP 081200Z 12006KT CAVOK 27/20 Q1017;
0072832880999992009050813004-13267-043417FM-15+0443SBLP V0200901N003119999999Y0099001N1+02801+01901999999ADDMA1101691999999REMMET045METAR SBLP 081300Z 09006KT CAVOK 28/19 Q1017;
0143832880999992009050814004-13267-043417FM-15+0443SBLP V0200901N003112200019N0112651N1+03001+01901999999ADDGA1021+009001999GA2041+030001999GF104991999999999999999999MA1101691999999REMMET058METAR SBLP 081400Z 09006KT 9999 FEW030 SCT100 30/19 Q1017;
0143832880999992009050815004-13267-043417FM-15+0443SBLP V0209999C000012200019N0112651N1+03101+01901999999ADDGA1021+009001999GA2041+030001999GF104991999999999999999999MA1101591999999REMMET058METAR SBLP 081500Z 00000KT 9999 FEW030 SCT100 31/19 Q1016;
0120832880999992009050816004-13267-043417FM-15+0443SBLP V0201801N001512200019N0112651N1+03201+02001999999ADDGA1041+009001999GF104991999999999999999999MA1101491999999REMMET051METAR SBLP 081600Z 18003KT 9999 SCT030 32/20 Q1015;
0120832880999992009050817004-13267-043417FM-15+0443SBLP V0200701N001512200019N0112651N1+03201+01901999999ADDGA1041+009001999GF104991999999999999999999MA1101391999999REMMET051METAR SBLP 081700Z 07003KT 9999 SCT030 32/19 Q1014;
0120832880999992009050818004-13267-043417FM-15+0443SBLP V0201801N003112200019N0112651N1+03201+02001999999ADDGA1041+009001999GF104991999999999999999999MA1101291999999REMMET051METAR SBLP 081800Z 18006KT 9999 SCT030 32/20 Q1013;
0120832880999992009050819004-13267-043417FM-15+0443SBLP V0202001N003112200019N0112651N1+03201+01901999999ADDGA1041+009001999GF104991999999999999999999MA1101291999999REMMET051METAR SBLP 081900Z 20006KT 9999 SCT030 32/19 Q1013;
0120832880999992009050820004-13267-043417FM-15+0443SBLP V0202001N002112200019N0112651N1+03101+02101999999ADDGA1041+009001999GF104991999999999999999999MA1101291999999REMMET051METAR SBLP 082000Z 20004KT 9999 SCT030 31/21 Q1013;
0120832880999992009050821004-13267-043417FM-15+0443SBLP V0201801N003112200019N0112651N1+02901+02101999999ADDGA1041+009001999GF104991999999999999999999MA1101291999999REMMET051METAR SBLP 082100Z 18006KT 9999 SCT030 29/21 Q1013;
0073832880999992009050909094-13267-043417FM-16+0443SBLP V0201801N001519999999Y0099001N1+02301+02001999999ADDMA1101591999999REMMET046SPECI SBLP 090909Z 18003KT CAVOK 23/20 Q1016S;
0072832880999992009050910004-13267-043417FM-15+0443SBLP V0202101N002119999999Y0099001N1+02301+02001999999ADDMA1101591999999REMMET045METAR SBLP 091000Z 21004KT CAVOK 23/20 Q1016;
0072832880999992009050911004-13267-043417FM-15+0443SBLP V0201801N003119999999Y0099001N1+02501+02101999999ADDMA1101691999999REMMET045METAR SBLP 091100Z 18006KT CAVOK 25/21 Q1017;
0072832880999992009050912004-13267-043417FM-15+0443SBLP V0201801N003119999999Y0099001N1+02701+02001999999ADDMA1101691999999REMMET045METAR SBLP 091200Z 18006KT CAVOK 27/20 Q1017;
0072832880999992009050913004-13267-043417FM-15+0443SBLP V0201801N003119999999Y0099001N1+02901+02001999999ADDMA1101691999999REMMET045METAR SBLP 091300Z 18006KT CAVOK 29/20 Q1017;
0072832880999992009050914004-13267-043417FM-15+0443SBLP V0201501N004119999999Y0099001N1+03001+02001999999ADDMA1101691999999REMMET045METAR SBLP 091400Z 15008KT CAVOK 30/20 Q1017;
0120832880999992009050915004-13267-043417FM-15+0443SBLP V0201801N003112200019N0112651N1+03101+02001999999ADDGA1021+009001999GF102991999999999999999999MA1101591999999REMMET051METAR SBLP 091500Z 18006KT 9999 FEW030 31/20 Q1016;
0120832880999992009050916004-13267-043417FM-15+0443SBLP V0209999C000012200019N0112651N1+03101+02001999999ADDGA1041+009001999GF104991999999999999999999MA1101491999999REMMET051METAR SBLP 091600Z 00000KT 9999 SCT030 31/20 Q1015;
0120832880999992009050917004-13267-043417FM-15+0443SBLP V0209999C000012200019N0112651N1+03201+01901999999ADDGA1041+009001999GF104991999999999999999999MA1101391999999REMMET051METAR SBLP 091700Z 00000KT 9999 SCT030 32/19 Q1014;
0120832880999992009050918004-13267-043417FM-15+0443SBLP V0202601N003112200019N0112651N1+03301+01901999999ADDGA1041+009001999GF104991999999999999999999MA1101291999999REMMET051METAR SBLP 091800Z 26006KT 9999 SCT030 33/19 Q1013;
0120832880999992009050919004-13267-043417FM-15+0443SBLP V0202201N003112200019N0112651N1+03001+02001999999ADDGA1041+009001999GF104991999999999999999999MA1101291999999REMMET051METAR SBLP 091900Z 22006KT 9999 SCT030 30/20 Q1013;
0120832880999992009050920004-13267-043417FM-15+0443SBLP V0201801N003112200019N0112651N1+02901+02101999999ADDGA1041+009001999GF104991999999999999999999MA1101291999999REMMET051METAR SBLP 092000Z 18006KT 9999 SCT030 29/21 Q1013;
0072832880999992009050921004-13267-043417FM-15+0443SBLP V0201801N003119999999Y0099001N1+02801+02201999999ADDMA1101391999999REMMET045METAR SBLP 092100Z 18006KT CAVOK 28/22 Q1014;
0072832880999992009051009144-13267-043417FM-16+0443SBLP V0209999C000019999999Y0099001N1+01901+01801999999ADDMA1101591999999REMMET045SPECI SBLP 100914Z 00000KT CAVOK 19/18 Q1016;
0072832880999992009051010004-13267-043417FM-15+0443SBLP V0201801N003119999999Y0099001N1+02001+01901999999ADDMA1101591999999REMMET045METAR SBLP 101000Z 18006KT CAVOK 20/19 Q1016;
0072832880999992009051011004-13267-043417FM-15+0443SBLP V0201801N003119999999Y0099001N1+02101+01901999999ADDMA1101691999999REMMET045METAR SBLP 101100Z 18006KT CAVOK 21/19 Q1017;
0072832880999992009051012004-13267-043417FM-15+0443SBLP V0209999C000019999999Y0099001N1+02501+02001999999ADDMA1101691999999REMMET045METAR SBLP 101200Z 00000KT CAVOK 25/20 Q1017;
0072832880999992009051013004-13267-043417FM-15+0443SBLP V0209999C000019999999Y0099001N1+02701+02001999999ADDMA1101691999999REMMET045METAR SBLP 101300Z 00000KT CAVOK 27/20 Q1017;
0120832880999992009051014004-13267-043417FM-15+0443SBLP V0201201N003112200019N0112651N1+02901+02001999999ADDGA1021+009001999GF102991999999999999999999MA1101591999999REMMET051METAR SBLP 101400Z 12006KT 9999 FEW030 29/20 Q1016;
0120832880999992009051015004-13267-043417FM-15+0443SBLP V0209999C000012200019N0112651N1+03001+02101999999ADDGA1021+009001999GF102991999999999999999999MA1101591999999REMMET051METAR SBLP 101500Z 00000KT 9999 FEW030 30/21 Q1016;
0120832880999992009051016004-13267-043417FM-15+0443SBLP V0209999C000012200019N0112651N1+03101+02001999999ADDGA1021+009001999GF102991999999999999999999MA1101491999999REMMET051METAR SBLP 101600Z 00000KT 9999 FEW030 31/20 Q1015;
0120832880999992009051017004-13267-043417FM-15+0443SBLP V0202101N003112200019N0112651N1+03101+02001999999ADDGA1021+009001999GF102991999999999999999999MA1101391999999REMMET051METAR SBLP 101700Z 21006KT 9999 FEW030 31/20 Q1014;
0120832880999992009051018004-13267-043417FM-15+0443SBLP V0201801N002112200019N0112651N1+03101+01901999999ADDGA1021+009001999GF102991999999999999999999MA1101291999999REMMET051METAR SBLP 101800Z 18004KT 9999 FEW030 31/19 Q1013;
0120832880999992009051019004-13267-043417FM-15+0443SBLP V0202101N004112200019N0112651N1+03001+02001999999ADDGA1021+009001999GF102991999999999999999999MA1101291999999REMMET051METAR SBLP 101900Z 21008KT 9999 FEW030 30/20 Q1013;
0072832880999992009051020004-13267-043417FM-15+0443SBLP V0201801N002119999999Y0099001N1+02901+02001999999ADDMA1101291999999REMMET045METAR SBLP 102000Z 18004KT CAVOK 29/20 Q1013;
0072832880999992009051021004-13267-043417FM-15+0443SBLP V0201801N002119999999Y0099001N1+02601+02001999999ADDMA1101291999999REMMET045METAR SBLP 102100Z 18004KT CAVOK 26/20 Q1013;
0072832880999992009051109114-13267-043417FM-16+0443SBLP V0209999C000019999999Y0099001N1+01801+01701999999ADDMA1101391999999REMMET045SPECI SBLP 110911Z 00000KT CAVOK 18/17 Q1014;
0072832880999992009051110004-13267-043417FM-15+0443SBLP V0209999C000019999999Y0099001N1+01901+01801999999ADDMA1101491999999REMMET045METAR SBLP 111000Z 00000KT CAVOK 19/18 Q1015;
0072832880999992009051111004-13267-043417FM-15+0443SBLP V0202101N002119999999Y0099001N1+02201+01801999999ADDMA1101591999999REMMET045METAR SBLP 111100Z 21004KT CAVOK 22/18 Q1016;
0072832880999992009051112004-13267-043417FM-15+0443SBLP V0209999C000019999999Y0099001N1+02501+01901999999ADDMA1101591999999REMMET045METAR SBLP 111200Z 00000KT CAVOK 25/19 Q1016;
0072832880999992009051113004-13267-043417FM-15+0443SBLP V0201801N002119999999Y0099001N1+02701+01901999999ADDMA1101591999999REMMET045METAR SBLP 111300Z 18004KT CAVOK 27/19 Q1016;
0072832880999992009051114004-13267-043417FM-15+0443SBLP V0202301N002119999999Y0099001N1+02801+01901999999ADDMA1101591999999REMMET045METAR SBLP 111400Z 23004KT CAVOK 28/19 Q1016;
0120832880999992009051115004-13267-043417FM-15+0443SBLP V0202401N002112200019N0112651N1+02901+02001999999ADDGA1041+009001999GF104991999999999999999999MA1101491999999REMMET051METAR SBLP 111500Z 24004KT 9999 SCT030 29/20 Q1015;
0120832880999992009051116004-13267-043417FM-15+0443SBLP V0201801N003112200019N0112651N1+03001+02001999999ADDGA1041+009001999GF104991999999999999999999MA1101391999999REMMET051METAR SBLP 111600Z 18006KT 9999 SCT030 30/20 Q1014;
0120832880999992009051117004-13267-043417FM-15+0443SBLP V0201801N003112200019N0112651N1+03201+01901999999ADDGA1041+009001999GF104991999999999999999999MA1101291999999REMMET051METAR SBLP 111700Z 18006KT 9999 SCT030 32/19 Q1013;
0120832880999992009051118004-13267-043417FM-15+0443SBLP V0201801N003112200019N0112651N1+03201+01901999999ADDGA1041+009001999GF104991999999999999999999MA1101291999999REMMET051METAR SBLP 111800Z 18006KT 9999 SCT030 32/19 Q1013;
0120832880999992009051119004-13267-043417FM-15+0443SBLP V0201801N003112200019N0112651N1+03101+01901999999ADDGA1021+009001999GF102991999999999999999999MA1101291999999REMMET051METAR SBLP 111900Z 18006KT 9999 FEW030 31/19 Q1013;
0120832880999992009051120004-13267-043417FM-15+0443SBLP V0201801N002112200019N0112651N1+03101+01901999999ADDGA1021+009001999GF102991999999999999999999MA1101291999999REMMET051METAR SBLP 112000Z 18004KT 9999 FEW030 31/19 Q1013;
0072832880999992009051121004-13267-043417FM-15+0443SBLP V0209999C000019999999Y0099001N1+02901+01901999999ADDMA1101291999999REMMET045METAR SBLP 112100Z 00000KT CAVOK 29/19 Q1013;
0072832880999992009051209154-13267-043417FM-16+0443SBLP V0209999C000019999999Y0099001N1+02001+01901999999ADDMA1101491999999REMMET045SPECI SBLP 120915Z 00000KT CAVOK 20/19 Q1015;
0072832880999992009051210004-13267-043417FM-15+0443SBLP V0209999C000019999999Y0099001N1+02201+01901999999ADDMA1101491999999REMMET045METAR SBLP 121000Z 00000KT CAVOK 22/19 Q1015;
0072832880999992009051211004-13267-043417FM-15+0443SBLP V0209999C000019999999Y0099001N1+02401+01901999999ADDMA1101591999999REMMET045METAR SBLP 121100Z 00000KT CAVOK 24/19 Q1016;
0072832880999992009051212004-13267-043417FM-15+0443SBLP V0209999C000019999999Y0099001N1+02601+01901999999ADDMA1101591999999REMMET045METAR SBLP 121200Z 00000KT CAVOK 26/19 Q1016;
0072832880999992009051213004-13267-043417FM-15+0443SBLP V0209999C000019999999Y0099001N1+02801+01901999999ADDMA1101591999999REMMET045METAR SBLP 121300Z 00000KT CAVOK 28/19 Q1016;
0072832880999992009051214004-13267-043417FM-15+0443SBLP V0209999C000019999999Y0099001N1+02901+01801999999ADDMA1101591999999REMMET045METAR SBLP 121400Z 00000KT CAVOK 29/18 Q1016;
0072832880999992009051215004-13267-043417FM-15+0443SBLP V0209999C000019999999Y0099001N1+03001+01701999999ADDMA1101391999999REMMET045METAR SBLP 121500Z 00000KT CAVOK 30/17 Q1014;
0072832880999992009051216004-13267-043417FM-15+0443SBLP V0201801N002619999999Y0099001N1+03101+01501999999ADDMA1101391999999REMMET045METAR SBLP 121600Z 18005KT CAVOK 31/15 Q1014;
0072832880999992009051217004-13267-043417FM-15+0443SBLP V0201901N001519999999Y0099001N1+03001+01801999999ADDMA1101291999999REMMET045METAR SBLP 121700Z 19003KT CAVOK 30/18 Q1013;
0072832880999992009051218004-13267-043417FM-15+0443SBLP V0209999C000019999999Y0099001N1+03101+01701999999ADDMA1101291999999REMMET045METAR SBLP 121800Z 00000KT CAVOK 31/17 Q1013;
0072832880999992009051219004-13267-043417FM-15+0443SBLP V0202401N002619999999Y0099001N1+03201+01801999999ADDMA1101191999999REMMET045METAR SBLP 121900Z 24005KT CAVOK 32/18 Q1012;
0072832880999992009051220004-13267-043417FM-15+0443SBLP V0209999C000019999999Y0099001N1+02801+02001999999ADDMA1101291999999REMMET045METAR SBLP 122000Z 00000KT CAVOK 28/20 Q1013;
0072832880999992009051221004-13267-043417FM-15+0443SBLP V0209999C000019999999Y0099001N1+02701+02001999999ADDMA1101291999999REMMET045METAR SBLP 122100Z 00000KT CAVOK 27/20 Q1013;
0072832880999992009051309114-13267-043417FM-16+0443SBLP V0209999C000019999999Y0099001N1+01801+01701999999ADDMA1101391999999REMMET045SPECI SBLP 130911Z 00000KT CAVOK 18/17 Q1014;
0072832880999992009051310004-13267-043417FM-15+0443SBLP V0202301N001519999999Y0099001N1+01901+01801999999ADDMA1101491999999REMMET045METAR SBLP 131000Z 23003KT CAVOK 19/18 Q1015;
0072832880999992009051311004-13267-043417FM-15+0443SBLP V0202101N001519999999Y0099001N1+02201+01801999999ADDMA1101491999999REMMET045METAR SBLP 131100Z 21003KT CAVOK 22/18 Q1015;
0072832880999992009051312004-13267-043417FM-15+0443SBLP V0201801N001519999999Y0099001N1+02501+01801999999ADDMA1101591999999REMMET045METAR SBLP 131200Z 18003KT CAVOK 25/18 Q1016;
0072832880999992009051313004-13267-043417FM-15+0443SBLP V0202101N001019999999Y0099001N1+02701+01801999999ADDMA1101591999999REMMET045METAR SBLP 131300Z 21002KT CAVOK 27/18 Q1016;
0072832880999992009051314004-13267-043417FM-15+0443SBLP V0209999C000019999999Y0099001N1+02901+01701999999ADDMA1101591999999REMMET045METAR SBLP 131400Z 00000KT CAVOK 29/17 Q1016;
0120832880999992009051315004-13267-043417FM-15+0443SBLP V0201801N002112200019N0112651N1+03101+01801999999ADDGA1021+009001999GF102991999999999999999999MA1101491999999REMMET051METAR SBLP 131500Z 18004KT 9999 FEW030 31/18 Q1015;
0120832880999992009051316004-13267-043417FM-15+0443SBLP V0201801N003112200019N0112651N1+03101+01801999999ADDGA1021+009001999GF102991999999999999999999MA1101391999999REMMET051METAR SBLP 131600Z 18006KT 9999 FEW030 31/18 Q1014;
0120832880999992009051317004-13267-043417FM-15+0443SBLP V0202101N003112200019N0112651N1+03101+01901999999ADDGA1021+009001999GF102991999999999999999999MA1101291999999REMMET051METAR SBLP 131700Z 21006KT 9999 FEW030 31/19 Q1013;
0120832880999992009051318004-13267-043417FM-15+0443SBLP V0201801N003112200019N0112651N1+03201+01901999999ADDGA1021+009001999GF102991999999999999999999MA1101191999999REMMET051METAR SBLP 131800Z 18006KT 9999 FEW030 32/19 Q1012;
0072832880999992009051319004-13267-043417FM-15+0443SBLP V0202101N003119999999Y0099001N1+03201+01801999999ADDMA1101191999999REMMET045METAR SBLP 131900Z 21006KT CAVOK 32/18 Q1012;
0072832880999992009051320004-13267-043417FM-15+0443SBLP V0209999C000019999999Y0099001N1+03001+01801999999ADDMA1101191999999REMMET045METAR SBLP 132000Z 00000KT CAVOK 30/18 Q1012;
0072832880999992009051321004-13267-043417FM-15+0443SBLP V0209999C000019999999Y0099001N1+02801+01901999999ADDMA1101191999999REMMET045METAR SBLP 132100Z 00000KT CAVOK 28/19 Q1012;
0072832880999992009051410004-13267-043417FM-15+0443SBLP V0209999C000019999999Y0099001N1+01901+01801999999ADDMA1101491999999REMMET045METAR SBLP 141000Z 00000KT CAVOK 19/18 Q1015;
0072832880999992009051411004-13267-043417FM-15+0443SBLP V0209999C000019999999Y0099001N1+02101+01801999999ADDMA1101491999999REMMET045METAR SBLP 141100Z 00000KT CAVOK 21/18 Q1015;
0072832880999992009051412004-13267-043417FM-15+0443SBLP V0209999C000019999999Y0099001N1+02601+01701999999ADDMA1101591999999REMMET045METAR SBLP 141200Z 00000KT CAVOK 26/17 Q1016;
0072832880999992009051413004-13267-043417FM-15+0443SBLP V0209999C000019999999Y0099001N1+02801+02101999999ADDMA1101591999999REMMET045METAR SBLP 141300Z 00000KT CAVOK 28/21 Q1016;
0072832880999992009051414004-13267-043417FM-15+0443SBLP V0202701N003119999999Y0099001N1+02901+02101999999ADDMA1101491999999REMMET045METAR SBLP 141400Z 27006KT CAVOK 29/21 Q1015;
0143832880999992009051415004-13267-043417FM-15+0443SBLP V0202201N003112200019N0112651N1+03001+02001999999ADDGA1021+009001999GA2041+090001999GF104991999999999999999999MA1101491999999REMMET058METAR SBLP 141500Z 22006KT 9999 FEW030 SCT300 30/20 Q1015;
0120832880999992009051416004-13267-043417FM-15+0443SBLP V0209999C000012200019N0112651N1+03101+01901999999ADDGA1021+009001999GF102991999999999999999999MA1101391999999REMMET051METAR SBLP 141600Z 00000KT 9999 FEW030 31/19 Q1014;
0120832880999992009051417004-13267-043417FM-15+0443SBLP V0201801N003112200019N0112651N1+03201+01901999999ADDGA1021+009001999GF102991999999999999999999MA1101291999999REMMET051METAR SBLP 141700Z 18006KT 9999 FEW030 32/19 Q1013;
0120832880999992009051418004-13267-043417FM-15+0443SBLP V0202401N003112200019N0112651N1+03201+01901999999ADDGA1021+009001999GF102991999999999999999999MA1101191999999REMMET051METAR SBLP 141800Z 24006KT 9999 FEW030 32/19 Q1012;
0120832880999992009051419004-13267-043417FM-15+0443SBLP V0209999C000012200019N0112651N1+03201+01901999999ADDGA1021+009001999GF102991999999999999999999MA1101191999999REMMET051METAR SBLP 141900Z 00000KT 9999 FEW030 32/19 Q1012;
0120832880999992009051420004-13267-043417FM-15+0443SBLP V0209999C000012200019N0112651N1+03201+01801999999ADDGA1021+009001999GF102991999999999999999999MA1101081999999REMMET051METAR SBLP 142000Z 00000KT 9999 FEW030 32/18 Q1011;
0072832880999992009051421004-13267-043417FM-15+0443SBLP V0209999C000019999999Y0099001N1+02801+02001999999ADDMA1101191999999REMMET045METAR SBLP 142100Z 00000KT CAVOK 28/20 Q1012;
0072832880999992009051509134-13267-043417FM-15+0443SBLP V0209999C000019999999Y0099001N1+02101+02001999999ADDMA1101291999999REMMET045METAR SBLP 150913Z 00000KT CAVOK 21/20 Q1013;
0072832880999992009051510004-13267-043417FM-15+0443SBLP V0209999C000019999999Y0099001N1+02101+02001999999ADDMA1101291999999REMMET045METAR SBLP 151000Z 00000KT CAVOK 21/20 Q1013;
0072832880999992009051511004-13267-043417FM-15+0443SBLP V0209999C000019999999Y0099001N1+02201+02001999999ADDMA1101391999999REMMET045METAR SBLP 151100Z 00000KT CAVOK 22/20 Q1014;
0072832880999992009051512004-13267-043417FM-15+0443SBLP V0202001N001519999999Y0099001N1+02401+02001999999ADDMA1101391999999REMMET045METAR SBLP 151200Z 20003KT CAVOK 24/20 Q1014;
0072832880999992009051513004-13267-043417FM-15+0443SBLP V0209999C000019999999Y0099001N1+02801+01901999999ADDMA1101391999999REMMET045METAR SBLP 151300Z 00000KT CAVOK 28/19 Q1014;
0072832880999992009051514004-13267-043417FM-15+0443SBLP V0209999C000019999999Y0099001N1+03001+02001999999ADDMA1101391999999REMMET045METAR SBLP 151400Z 00000KT CAVOK 30/20 Q1014;
0120832880999992009051515004-13267-043417FM-15+0443SBLP V0209999C000012200019N0112651N1+03101+02001999999ADDGA1021+009001999GF102991999999999999999999MA1101291999999REMMET051METAR SBLP 151500Z 00000KT 9999 FEW030 31/20 Q1013;
0143832880999992009051516004-13267-043417FM-15+0443SBLP V0209999C000010900019N0112651N1+03101+02001999999ADDGA1021+009001999GA2071+090001999GF107991999999999999999999MA1101291999999REMMET058METAR SBLP 151600Z 00000KT 9999 FEW030 BKN300 31/20 Q1013;
0143832880999992009051517004-13267-043417FM-15+0443SBLP V0209999C000010900019N0112651N1+03101+02001999999ADDGA1021+009001999GA2071+090001999GF107991999999999999999999MA1101081999999REMMET058METAR SBLP 151700Z 00000KT 9999 FEW030 BKN300 31/20 Q1011;
0120832880999992009051518004-13267-043417FM-15+0443SBLP V0209999C000012200019N0112651N1+03201+02001999999ADDGA1041+009001999GF104991999999999999999999MA1101021999999REMMET051METAR SBLP 151800Z 00000KT 9999 SCT030 32/20 Q1010;
0120832880999992009051519004-13267-043417FM-15+0443SBLP V0209999C000012200019N0112651N1+03201+02001999999ADDGA1041+009001999GF104991999999999999999999MA1101081999999REMMET051METAR SBLP 151900Z 00000KT 9999 SCT030 32/20 Q1011;
0120832880999992009051520004-13267-043417FM-15+0443SBLP V0209999C000012200019N0112651N1+03001+02001999999ADDGA1021+009001999GF102991999999999999999999MA1101081999999REMMET051METAR SBLP 152000Z 00000KT 9999 FEW030 30/20 Q1011;
0120832880999992009051521004-13267-043417FM-15+0443SBLP V0209999C000012200019N0112651N1+02801+02101999999ADDGA1021+009001999GF102991999999999999999999MA1101081999999REMMET051METAR SBLP 152100Z 00000KT 9999 FEW030 28/21 Q1011;
0072832880999992009051610004-13267-043417FM-15+0443SBLP V0209999C000019999999Y0099001N1+02401+02001999999ADDMA1101391999999REMMET045METAR SBLP 161000Z 00000KT CAVOK 24/20 Q1014;
0072832880999992009051611004-13267-043417FM-15+0443SBLP V0209999C000019999999Y0099001N1+02601+02001999999ADDMA1101391999999REMMET045METAR SBLP 161100Z 00000KT CAVOK 26/20 Q1014;
0072832880999992009051612004-13267-043417FM-15+0443SBLP V0209999C000019999999Y0099001N1+02801+02001999999ADDMA1101491999999REMMET045METAR SBLP 161200Z 00000KT CAVOK 28/20 Q1015;
0072832880999992009051613004-13267-043417FM-15+0443SBLP V0209999C000019999999Y0099001N1+02801+02001999999ADDMA1101491999999REMMET045METAR SBLP 161300Z 00000KT CAVOK 28/20 Q1015;
0072832880999992009051614004-13267-043417FM-15+0443SBLP V0209999C000019999999Y0099001N1+03001+02001999999ADDMA1101391999999REMMET045METAR SBLP 161400Z 00000KT CAVOK 30/20 Q1014;
0120832880999992009051615004-13267-043417FM-15+0443SBLP V0209999C000012200019N0112651N1+03101+02001999999ADDGA1021+009001999GF102991999999999999999999MA1101291999999REMMET051METAR SBLP 161500Z 00000KT 9999 FEW030 31/20 Q1013;
0143832880999992009051616004-13267-043417FM-15+0443SBLP V0202401N001512200019N0112651N1+03201+01901999999ADDGA1021+009001999GA2041+030001999GF104991999999999999999999MA1101291999999REMMET058METAR SBLP 161600Z 24003KT 9999 FEW030 SCT100 32/19 Q1013;
0143832880999992009051617004-13267-043417FM-15+0443SBLP V0201701N001012200019N0112651N1+03301+01901999999ADDGA1021+009001999GA2041+030001999GF104991999999999999999999MA1101191999999REMMET058METAR SBLP 161700Z 17002KT 9999 FEW030 SCT100 33/19 Q1012;
0143832880999992009051618004-13267-043417FM-15+0443SBLP V0201801N001512200019N0112651N1+03201+01801999999ADDGA1021+009001999GA2041+030001999GF104991999999999999999999MA1101081999999REMMET058METAR SBLP 161800Z 18003KT 9999 FEW030 SCT100 32/18 Q1011;
0143832880999992009051619004-13267-043417FM-15+0443SBLP V0202101N001510300019N0112651N1+03101+02001999999ADDGA1021+009001999GA2071+030001999GF107991999999999999999999MA1101081999999REMMET058METAR SBLP 161900Z 21003KT 9999 FEW030 BKN100 31/20 Q1011;
0143832880999992009051620004-13267-043417FM-15+0443SBLP V0202101N001512200019N0112651N1+03101+02101999999ADDGA1021+009001999GA2041+030001999GF104991999999999999999999MA1101081999999REMMET058METAR SBLP 162000Z 21003KT 9999 FEW030 SCT100 31/21 Q1011;
0072832880999992009051621004-13267-043417FM-15+0443SBLP V0201801N001519999999Y0099001N1+02801+02101999999ADDMA1101081999999REMMET045METAR SBLP 162100Z 18003KT CAVOK 28/21 Q1011;
0072832880999992009051710004-13267-043417FM-15+0443SBLP V0209999C000019999999Y0099001N1+02401+02001999999ADDMA1101491999999REMMET045METAR SBLP 171000Z 00000KT CAVOK 24/20 Q1015;
0072832880999992009051711004-13267-043417FM-15+0443SBLP V0209999C000019999999Y0099001N1+02601+02001999999ADDMA1101491999999REMMET045METAR SBLP 171100Z 00000KT CAVOK 26/20 Q1015;
0072832880999992009051712004-13267-043417FM-15+0443SBLP V0209999C000019999999Y0099001N1+02801+02001999999ADDMA1101591999999REMMET045METAR SBLP 171200Z 00000KT CAVOK 28/20 Q1016;
0072832880999992009051713004-13267-043417FM-15+0443SBLP V0209999C000019999999Y0099001N1+02901+02001999999ADDMA1101591999999REMMET045METAR SBLP 171300Z 00000KT CAVOK 29/20 Q1016;
0072832880999992009051714004-13267-043417FM-15+0443SBLP V0209999C000019999999Y0099001N1+03001+02001999999ADDMA1101591999999REMMET045METAR SBLP 171400Z 00000KT CAVOK 30/20 Q1016;
0120832880999992009051715004-13267-043417FM-15+0443SBLP V0209999C000012200019N0112651N1+03101+02001999999ADDGA1021+009001999GF102991999999999999999999MA1101491999999REMMET051METAR SBLP 171500Z 00000KT 9999 FEW030 31/20 Q1015;
0143832880999992009051716004-13267-043417FM-15+0443SBLP V0201501N001512200019N0112651N1+03201+01901999999ADDGA1021+009001999GA2041+090001999GF104991999999999999999999MA1101391999999REMMET058METAR SBLP 171600Z 15003KT 9999 FEW030 SCT300 32/19 Q1014;
0120832880999992009051717004-13267-043417FM-15+0443SBLP V0201301N001512200019N0112651N1+03401+01801999999ADDGA1021+009001999GF102991999999999999999999MA1101291999999REMMET051METAR SBLP 171700Z 13003KT 9999 FEW030 34/18 Q1013;
0120832880999992009051718004-13267-043417FM-15+0443SBLP V0201901N001512200019N0112651N1+03201+01501999999ADDGA1021+009001999GF102991999999999999999999MA1101291999999REMMET051METAR SBLP 171800Z 19003KT 9999 FEW030 32/15 Q1013;
0120832880999992009051719004-13267-043417FM-15+0443SBLP V0201801N001512200019N0112651N1+03301+01601999999ADDGA1021+009001999GF102991999999999999999999MA1101291999999REMMET051METAR SBLP 171900Z 18003KT 9999 FEW030 33/16 Q1013;
0120832880999992009051720004-13267-043417FM-15+0443SBLP V0201901N001012200019N0112651N1+03101+02001999999ADDGA1021+009001999GF102991999999999999999999MA1101291999999REMMET051METAR SBLP 172000Z 19002KT 9999 FEW030 31/20 Q1013;
0120832880999992009051721004-13267-043417FM-15+0443SBLP V0200801N002112200019N0112651N1+02801+01901999999ADDGA1021+009001999GF102991999999999999999999MA1101391999999REMMET051METAR SBLP 172100Z 08004KT 9999 FEW030 28/19 Q1014;
0072832880999992009051810004-13267-043417FM-15+0443SBLP V0201601N003119999999Y0099001N1+02201+02101999999ADDMA1101801999999REMMET045METAR SBLP 181000Z 16006KT CAVOK 22/21 Q1018;
0072832880999992009051811004-13267-043417FM-15+0443SBLP V0201801N003119999999Y0099001N1+02401+02001999999ADDMA1101801999999REMMET045METAR SBLP 181100Z 18006KT CAVOK 24/20 Q1018;
0072832880999992009051812004-13267-043417FM-15+0443SBLP V0209999C000019999999Y0099001N1+02701+02001999999ADDMA1101801999999REMMET045METAR SBLP 181200Z 00000KT CAVOK 27/20 Q1018;
0120832880999992009051813004-13267-043417FM-15+0443SBLP V0201801N003112200019N0112651N1+02801+02001999999ADDGA1021+009001999GF102991999999999999999999MA1101801999999REMMET051METAR SBLP 181300Z 18006KT 9999 FEW030 28/20 Q1018;
0120832880999992009051814004-13267-043417FM-15+0443SBLP V0201201N004112200019N0112651N1+03001+01901999999ADDGA1021+009001999GF102991999999999999999999MA1101801999999REMMET051METAR SBLP 181400Z 12008KT 9999 FEW030 30/19 Q1018;
0120832880999992009051815004-13267-043417FM-15+0443SBLP V0201201N004112200019N0112651N1+03101+01901999999ADDGA1041+009001999GF104991999999999999999999MA1101691999999REMMET051METAR SBLP 181500Z 12008KT 9999 SCT030 31/19 Q1017;
0120832880999992009051816004-13267-043417FM-15+0443SBLP V0201001N002112200019N0112651N1+03201+01801999999ADDGA1041+009001999GF104991999999999999999999MA1101591999999REMMET051METAR SBLP 181600Z 10004KT 9999 SCT030 32/18 Q1016;
0120832880999992009051817004-13267-043417FM-15+0443SBLP V0201001N003112200019N0112651N1+03201+01901999999ADDGA1041+009001999GF104991999999999999999999MA1101491999999REMMET051METAR SBLP 181700Z 10006KT 9999 SCT030 32/19 Q1015;
0120832880999992009051818004-13267-043417FM-15+0443SBLP V0200901N002112200019N0112651N1+03201+01901999999ADDGA1041+009001999GF104991999999999999999999MA1101491999999REMMET051METAR SBLP 181800Z 09004KT 9999 SCT030 32/19 Q1015;
0120832880999992009051819004-13267-043417FM-15+0443SBLP V0201301N003112200019N0112651N1+03001+01901999999ADDGA1041+009001999GF104991999999999999999999MA1101491999999REMMET051METAR SBLP 181900Z 13006KT 9999 SCT030 30/19 Q1015;
0120832880999992009051820004-13267-043417FM-15+0443SBLP V0201301N002612200019N0112651N1+02801+01901999999ADDGA1021+009001999GF102991999999999999999999MA1101591999999REMMET051METAR SBLP 182000Z 13005KT 9999 FEW030 28/19 Q1016;
0120832880999992009051821004-13267-043417FM-15+0443SBLP V0201701N002112200019N0112651N1+02601+01901999999ADDGA1021+009001999GF102991999999999999999999MA1101591999999REMMET051METAR SBLP 182100Z 17004KT 9999 FEW030 26/19 Q1016;
0072832880999992009051909124-13267-043417FM-16+0443SBLP V0209999C000019999999Y0099001N1+02001+01901999999ADDMA1101691999999REMMET045SPECI SBLP 190912Z 00000KT CAVOK 20/19 Q1017;
0072832880999992009051910004-13267-043417FM-15+0443SBLP V0209999C000019999999Y0099001N1+02001+01801999999ADDMA1101801999999REMMET045METAR SBLP 191000Z 00000KT CAVOK 20/18 Q1018;
0072832880999992009051911004-13267-043417FM-15+0443SBLP V0209999C000019999999Y0099001N1+02201+01901999999ADDMA1101901999999REMMET045METAR SBLP 191100Z 00000KT CAVOK 22/19 Q1019;
0072832880999992009051912004-13267-043417FM-15+0443SBLP V0201601N003119999999Y0099001N1+02401+01901999999ADDMA1101901999999REMMET045METAR SBLP 191200Z 16006KT CAVOK 24/19 Q1019;
0072832880999992009051913004-13267-043417FM-15+0443SBLP V0201601N003119999999Y0099001N1+02601+02001999999ADDMA1101901999999REMMET045METAR SBLP 191300Z 16006KT CAVOK 26/20 Q1019;
0072832880999992009051914004-13267-043417FM-15+0443SBLP V0209999C000019999999Y0099001N1+02801+01901999999ADDMA1101901999999REMMET045METAR SBLP 191400Z 00000KT CAVOK 28/19 Q1019;
0120832880999992009051915004-13267-043417FM-15+0443SBLP V0209999C000012200019N0112651N1+03001+02001999999ADDGA1021+009001999GF102991999999999999999999MA1101801999999REMMET051METAR SBLP 191500Z 00000KT 9999 FEW030 30/20 Q1018;
0143832880999992009051916004-13267-043417FM-15+0443SBLP V0202001N004110900019N0112651N1+02901+01701999999ADDGA1021+009001999GA2071+090001999GF107991999999999999999999MA1101691999999REMMET058METAR SBLP 191600Z 20008KT 9999 FEW030 BKN300 29/17 Q1017;
0120832880999992009051917004-13267-043417FM-15+0443SBLP V0202101N003112200019N0112651N1+02901+01801999999ADDGA1021+009001999GF102991999999999999999999MA1101591999999REMMET051METAR SBLP 191700Z 21006KT 9999 FEW030 29/18 Q1016;
0120832880999992009051918004-13267-043417FM-15+0443SBLP V0201801N003112200019N0112651N1+02801+01801999999ADDGA1041+009001999GF104991999999999999999999MA1101591999999REMMET051METAR SBLP 191800Z 18006KT 9999 SCT030 28/18 Q1016;
0120832880999992009051919004-13267-043417FM-15+0443SBLP V0201801N003112200019N0112651N1+02701+01801999999ADDGA1041+009001999GF104991999999999999999999MA1101591999999REMMET051METAR SBLP 191900Z 18006KT 9999 SCT030 27/18 Q1016;
0120832880999992009051920004-13267-043417FM-15+0443SBLP V0201501N003112200019N0112651N1+02601+01801999999ADDGA1021+009001999GF102991999999999999999999MA1101591999999REMMET051METAR SBLP 192000Z 15006KT 9999 FEW030 26/18 Q1016;
0072832880999992009051921004-13267-043417FM-15+0443SBLP V0201801N002119999999Y0099001N1+02401+01801999999ADDMA1101591999999REMMET045METAR SBLP 192100Z 18004KT CAVOK 24/18 Q1016;
0072832880999992009052009134-13267-043417FM-16+0443SBLP V0201901N001519999999Y0099001N1+01801+01601999999ADDMA1101691999999REMMET045SPECI SBLP 200913Z 19003KT CAVOK 18/16 Q1017;
0072832880999992009052010004-13267-043417FM-15+0443SBLP V0202101N002119999999Y0099001N1+01801+01601999999ADDMA1101801999999REMMET045METAR SBLP 201000Z 21004KT CAVOK 18/16 Q1018;
0072832880999992009052011004-13267-043417FM-15+0443SBLP V0201801N003119999999Y0099001N1+02101+01601999999ADDMA1101901999999REMMET045METAR SBLP 201100Z 18006KT CAVOK 21/16 Q1019;
0072832880999992009052012004-13267-043417FM-15+0443SBLP V0201801N003119999999Y0099001N1+02401+01701999999ADDMA1101901999999REMMET045METAR SBLP 201200Z 18006KT CAVOK 24/17 Q1019;
0072832880999992009052013004-13267-043417FM-15+0443SBLP V0201501N003119999999Y0099001N1+02501+01801999999ADDMA1101901999999REMMET045METAR SBLP 201300Z 15006KT CAVOK 25/18 Q1019;
0120832880999992009052014004-13267-043417FM-15+0443SBLP V0201501N005112200019N0112651N1+02701+01801999999ADDGA1021+009001999GF102991999999999999999999MA1101901999999REMMET051METAR SBLP 201400Z 15010KT 9999 FEW030 27/18 Q1019;
0120832880999992009052015004-13267-043417FM-15+0443SBLP V0201801N004112200019N0112651N1+02701+01701999999ADDGA1021+009001999GF102991999999999999999999MA1101801999999REMMET051METAR SBLP 201500Z 18008KT 9999 FEW030 27/17 Q1018;
0120832880999992009052016004-13267-043417FM-15+0443SBLP V0201801N004112200019N0112651N1+02801+01701999999ADDGA1021+009001999GF102991999999999999999999MA1101691999999REMMET051METAR SBLP 201600Z 18008KT 9999 FEW030 28/17 Q1017;
0120832880999992009052017004-13267-043417FM-15+0443SBLP V0201801N003112200019N0112651N1+02901+01701999999ADDGA1021+009001999GF102991999999999999999999MA1101591999999REMMET051METAR SBLP 201700Z 18006KT 9999 FEW030 29/17 Q1016;
0120832880999992009052018004-13267-043417FM-15+0443SBLP V0201801N003112200019N0112651N1+03001+01701999999ADDGA1021+009001999GF102991999999999999999999MA1101591999999REMMET051METAR SBLP 201800Z 18006KT 9999 FEW030 30/17 Q1016;
0120832880999992009052019004-13267-043417FM-15+0443SBLP V0201801N003112200019N0112651N1+03001+01701999999ADDGA1021+009001999GF102991999999999999999999MA1101591999999REMMET051METAR SBLP 201900Z 18006KT 9999 FEW030 30/17 Q1016;
0120832880999992009052020004-13267-043417FM-15+0443SBLP V0201801N003112200019N0112651N1+02901+01801999999ADDGA1041+009001999GF104991999999999999999999MA1101591999999REMMET051METAR SBLP 202000Z 18006KT 9999 SCT030 29/18 Q1016;
0120832880999992009052021004-13267-043417FM-15+0443SBLP V0201801N003112200019N0112651N1+02701+01801999999ADDGA1041+009001999GF104991999999999999999999MA1101691999999REMMET051METAR SBLP 202100Z 18006KT 9999 SCT030 27/18 Q1017;
0072832880999992009052109114-13267-043417FM-16+0443SBLP V0202101N003119999999Y0099001N1+01701+01501999999ADDMA1101691999999REMMET045SPECI SBLP 210911Z 21006KT CAVOK 17/15 Q1017;
0072832880999992009052110004-13267-043417FM-15+0443SBLP V0202101N003119999999Y0099001N1+01801+01501999999ADDMA1101801999999REMMET045METAR SBLP 211000Z 21006KT CAVOK 18/15 Q1018;
0072832880999992009052111004-13267-043417FM-15+0443SBLP V0201801N003119999999Y0099001N1+02001+01501999999ADDMA1101901999999REMMET045METAR SBLP 211100Z 18006KT CAVOK 20/15 Q1019;
0072832880999992009052112004-13267-043417FM-15+0443SBLP V0201501N004119999999Y0099001N1+02301+01601999999ADDMA1101901999999REMMET045METAR SBLP 211200Z 15008KT CAVOK 23/16 Q1019;
0072832880999992009052113004-13267-043417FM-15+0443SBLP V0201501N005119999999Y0099001N1+02601+01601999999ADDMA1101901999999REMMET045METAR SBLP 211300Z 15010KT CAVOK 26/16 Q1019;
0072832880999992009052114004-13267-043417FM-15+0443SBLP V0201501N005119999999Y0099001N1+02701+01501999999ADDMA1101901999999REMMET045METAR SBLP 211400Z 15010KT CAVOK 27/15 Q1019;
0120832880999992009052115004-13267-043417FM-15+0443SBLP V0201501N003112200019N0112651N1+02801+01601999999ADDGA1021+009001999GF102991999999999999999999MA1101801999999REMMET051METAR SBLP 211500Z 15006KT 9999 FEW030 28/16 Q1018;
0120832880999992009052116004-13267-043417FM-15+0443SBLP V0201801N003112200019N0112651N1+02901+01601999999ADDGA1021+009001999GF102991999999999999999999MA1101691999999REMMET051METAR SBLP 211600Z 18006KT 9999 FEW030 29/16 Q1017;
0120832880999992009052117004-13267-043417FM-15+0443SBLP V0201801N003112200019N0112651N1+03001+01601999999ADDGA1041+009001999GF104991999999999999999999MA1101591999999REMMET051METAR SBLP 211700Z 18006KT 9999 SCT030 30/16 Q1016;
0120832880999992009052118004-13267-043417FM-15+0443SBLP V0201801N003112200019N0112651N1+03101+01601999999ADDGA1041+009001999GF104991999999999999999999MA1101491999999REMMET051METAR SBLP 211800Z 18006KT 9999 SCT030 31/16 Q1015;
0120832880999992009052119004-13267-043417FM-15+0443SBLP V0201801N003112200019N0112651N1+03101+01601999999ADDGA1021+009001999GF102991999999999999999999MA1101491999999REMMET051METAR SBLP 211900Z 18006KT 9999 FEW030 31/16 Q1015;
0120832880999992009052120004-13267-043417FM-15+0443SBLP V0201801N003112200019N0112651N1+02901+01601999999ADDGA1021+009001999GF102991999999999999999999MA1101591999999REMMET051METAR SBLP 212000Z 18006KT 9999 FEW030 29/16 Q1016;
0072832880999992009052121004-13267-043417FM-15+0443SBLP V0209999C000019999999Y0099001N1+02701+01701999999ADDMA1101591999999REMMET045METAR SBLP 212100Z 00000KT CAVOK 27/17 Q1016;
0072832880999992009052209104-13267-043417FM-16+0443SBLP V0209999C000019999999Y0099001N1+01901+01801999999ADDMA1101801999999REMMET045SPECI SBLP 220910Z 00000KT CAVOK 19/18 Q1018;
0072832880999992009052210004-13267-043417FM-15+0443SBLP V0209999C000019999999Y0099001N1+02001+01801999999ADDMA1101801999999REMMET045METAR SBLP 221000Z 00000KT CAVOK 20/18 Q1018;
0072832880999992009052211004-13267-043417FM-15+0443SBLP V0201801N003119999999Y0099001N1+02201+01701999999ADDMA1101901999999REMMET045METAR SBLP 221100Z 18006KT CAVOK 22/17 Q1019;
0072832880999992009052212004-13267-043417FM-15+0443SBLP V0201801N003119999999Y0099001N1+02501+01701999999ADDMA1102001999999REMMET045METAR SBLP 221200Z 18006KT CAVOK 25/17 Q1020;
0072832880999992009052213004-13267-043417FM-15+0443SBLP V0201801N003119999999Y0099001N1+02701+01701999999ADDMA1102001999999REMMET045METAR SBLP 221300Z 18006KT CAVOK 27/17 Q1020;
0072832880999992009052214004-13267-043417FM-15+0443SBLP V0201801N003119999999Y0099001N1+02801+01701999999ADDMA1101901999999REMMET045METAR SBLP 221400Z 18006KT CAVOK 28/17 Q1019;
0120832880999992009052215004-13267-043417FM-15+0443SBLP V0201801N003112200019N0112651N1+02901+01701999999ADDGA1021+009001999GF102991999999999999999999MA1101801999999REMMET051METAR SBLP 221500Z 18006KT 9999 FEW030 29/17 Q1018;
0120832880999992009052216004-13267-043417FM-15+0443SBLP V0201701N004112200019N0112651N1+03101+01501999999ADDGA1021+008101999GF102991999999999999999999MA1101691999999REMMET051METAR SBLP 221600Z 17008KT 9999 FEW027 31/15 Q1017;
0143832880999992009052217004-13267-043417FM-15+0443SBLP V0201501N004112200019N0112651N1+03001+01701999999ADDGA1021+008101999GA2041+030001999GF104991999999999999999999MA1101591999999REMMET058METAR SBLP 221700Z 15008KT 9999 FEW027 SCT100 30/17 Q1016;
0143832880999992009052218004-13267-043417FM-15+0443SBLP V0201801N004112200019N0112651N1+03001+01701999999ADDGA1041+008101999GA2041+030001999GF104991999999999999999999MA1101591999999REMMET058METAR SBLP 221800Z 18008KT 9999 SCT027 SCT100 30/17 Q1016;
0143832880999992009052219004-13267-043417FM-15+0443SBLP V0201501N003112200019N0112651N1+02901+01801999999ADDGA1021+008101999GA2041+030001999GF104991999999999999999999MA1101591999999REMMET058METAR SBLP 221900Z 15006KT 9999 FEW027 SCT100 29/18 Q1016;
0143832880999992009052220004-13267-043417FM-15+0443SBLP V0201301N001510300019N0112651N1+02801+01801999999ADDGA1021+008101999GA2071+030001999GF107991999999999999999999MA1101591999999REMMET058METAR SBLP 222000Z 13003KT 9999 FEW027 BKN100 28/18 Q1016;
0143832880999992009052221004-13267-043417FM-15+0443SBLP V0201301N001510300019N0112651N1+02701+01901999999ADDGA1021+008101999GA2071+030001999GF107991999999999999999999MA1101691999999REMMET058METAR SBLP 222100Z 13003KT 9999 FEW027 BKN100 27/19 Q1017;
0072832880999992009052310004-13267-043417FM-15+0443SBLP V0201801N002619999999Y0099001N1+01901+01701999999ADDMA1101901999999REMMET045METAR SBLP 231000Z 18005KT CAVOK 19/17 Q1019;
0072832880999992009052311004-13267-043417FM-15+0443SBLP V0201601N002619999999Y0099001N1+02201+01701999999ADDMA1102001999999REMMET045METAR SBLP 231100Z 16005KT CAVOK 22/17 Q1020;
0072832880999992009052312004-13267-043417FM-15+0443SBLP V0201401N004119999999Y0099001N1+02501+01701999999ADDMA1102001999999REMMET045METAR SBLP 231200Z 14008KT CAVOK 25/17 Q1020;
0120832880999992009052313004-13267-043417FM-15+0443SBLP V0201501N005112200019N0112651N1+02801+01801999999ADDGA1021+009001999GF102991999999999999999999MA1102001999999REMMET051METAR SBLP 231300Z 15010KT 9999 FEW030 28/18 Q1020;
0120832880999992009052314004-13267-043417FM-15+0443SBLP V0201301N006212200019N0112651N1+02901+01801999999ADDGA1041+009001999GF104991999999999999999999MA1102001999999REMMET051METAR SBLP 231400Z 13012KT 9999 SCT030 29/18 Q1020;
0120832880999992009052315004-13267-043417FM-15+0443SBLP V0201201N004112200019N0112651N1+02901+01601999999ADDGA1041+009001999GF104991999999999999999999MA1101901999999REMMET051METAR SBLP 231500Z 12008KT 9999 SCT030 29/16 Q1019;
0120832880999992009052316004-13267-043417FM-15+0443SBLP V0201401N003112200019N0112651N1+03001+01601999999ADDGA1041+009001999GF104991999999999999999999MA1101801999999REMMET051METAR SBLP 231600Z 14006KT 9999 SCT030 30/16 Q1018;
0120832880999992009052317004-13267-043417FM-15+0443SBLP V0201401N003112200019N0112651N1+03101+01701999999ADDGA1041+009001999GF104991999999999999999999MA1101691999999REMMET051METAR SBLP 231700Z 14006KT 9999 SCT030 31/17 Q1017;
0120832880999992009052318004-13267-043417FM-15+0443SBLP V0201401N003112200019N0112651N1+03101+01701999999ADDGA1041+009001999GF104991999999999999999999MA1101591999999REMMET051METAR SBLP 231800Z 14006KT 9999 SCT030 31/17 Q1016;
0120832880999992009052319004-13267-043417FM-15+0443SBLP V0201601N003112200019N0112651N1+02901+01701999999ADDGA1041+009001999GF104991999999999999999999MA1101591999999REMMET051METAR SBLP 231900Z 16006KT 9999 SCT030 29/17 Q1016;
0120832880999992009052320004-13267-043417FM-15+0443SBLP V0201601N003112200019N0112651N1+02901+01701999999ADDGA1021+009001999GF102991999999999999999999MA1101591999999REMMET051METAR SBLP 232000Z 16006KT 9999 FEW030 29/17 Q1016;
0072832880999992009052321004-13267-043417FM-15+0443SBLP V0201801N003119999999Y0099001N1+02801+01801999999ADDMA1101691999999REMMET045METAR SBLP 232100Z 18006KT CAVOK 28/18 Q1017;
0072832880999992009052410004-13267-043417FM-15+0443SBLP V0201801N002119999999Y0099001N1+02001+01701999999ADDMA1101901999999REMMET045METAR SBLP 241000Z 18004KT CAVOK 20/17 Q1019;
0072832880999992009052411004-13267-043417FM-15+0443SBLP V0201701N003119999999Y0099001N1+02201+01601999999ADDMA1101901999999REMMET045METAR SBLP 241100Z 17006KT CAVOK 22/16 Q1019;
0072832880999992009052412004-13267-043417FM-15+0443SBLP V0201601N003119999999Y0099001N1+02501+01501999999ADDMA1102001999999REMMET045METAR SBLP 241200Z 16006KT CAVOK 25/15 Q1020;
0072832880999992009052413004-13267-043417FM-15+0443SBLP V0201301N001519999999Y0099001N1+02701+01601999999ADDMA1102001999999REMMET045METAR SBLP 241300Z 13003KT CAVOK 27/16 Q1020;
0072832880999992009052414004-13267-043417FM-15+0443SBLP V0201901N003119999999Y0099001N1+02701+01501999999ADDMA1101901999999REMMET045METAR SBLP 241400Z 19006KT CAVOK 27/15 Q1019;
0120832880999992009052415004-13267-043417FM-15+0443SBLP V0201801N002112200019N0112651N1+02901+01601999999ADDGA1021+009001999GF102991999999999999999999MA1101801999999REMMET051METAR SBLP 241500Z 18004KT 9999 FEW030 29/16 Q1018;
0120832880999992009052416004-13267-043417FM-15+0443SBLP V0202001N004112200019N0112651N1+02901+01501999999ADDGA1021+009001999GF102991999999999999999999MA1101691999999REMMET051METAR SBLP 241600Z 20008KT 9999 FEW030 29/15 Q1017;
0120832880999992009052417004-13267-043417FM-15+0443SBLP V0201601N002112200019N0112651N1+03001+01701999999ADDGA1021+009001999GF102991999999999999999999MA1101491999999REMMET051METAR SBLP 241700Z 16004KT 9999 FEW030 30/17 Q1015;
0120832880999992009052418004-13267-043417FM-15+0443SBLP V0201801N004112200019N0112651N1+03001+01801999999ADDGA1021+009001999GF102991999999999999999999MA1101491999999REMMET051METAR SBLP 241800Z 18008KT 9999 FEW030 30/18 Q1015;
0072832880999992009052419004-13267-043417FM-15+0443SBLP V0201801N003119999999Y0099001N1+03001+01501999999ADDMA1101491999999REMMET045METAR SBLP 241900Z 18006KT CAVOK 30/15 Q1015;
0072832880999992009052420004-13267-043417FM-15+0443SBLP V0209999C000019999999Y0099001N1+02801+01901999999ADDMA1101491999999REMMET045METAR SBLP 242000Z 00000KT CAVOK 28/19 Q1015;
0072832880999992009052421004-13267-043417FM-15+0443SBLP V0209999C000019999999Y0099001N1+02501+02101999999ADDMA1101491999999REMMET045METAR SBLP 242100Z 00000KT CAVOK 25/21 Q1015;
0072832880999992009052510004-13267-043417FM-15+0443SBLP V0202101N003119999999Y0099001N1+01701+01501999999ADDMA1101691999999REMMET045METAR SBLP 251000Z 21006KT CAVOK 17/15 Q1017;
0072832880999992009052511004-13267-043417FM-15+0443SBLP V0201801N003119999999Y0099001N1+01801+01501999999ADDMA1101691999999REMMET045METAR SBLP 251100Z 18006KT CAVOK 18/15 Q1017;
0072832880999992009052512004-13267-043417FM-15+0443SBLP V0201801N003119999999Y0099001N1+02401+01801999999ADDMA1101801999999REMMET045METAR SBLP 251200Z 18006KT CAVOK 24/18 Q1018;
0072832880999992009052513004-13267-043417FM-15+0443SBLP V0202201N003119999999Y0099001N1+02601+01901999999ADDMA1101691999999REMMET045METAR SBLP 251300Z 22006KT CAVOK 26/19 Q1017;
0072832880999992009052514004-13267-043417FM-15+0443SBLP V0202201N003119999999Y0099001N1+02801+01901999999ADDMA1101691999999REMMET045METAR SBLP 251400Z 22006KT CAVOK 28/19 Q1017;
0072832880999992009052515004-13267-043417FM-15+0443SBLP V0202101N003119999999Y0099001N1+02901+01901999999ADDMA1101591999999REMMET045METAR SBLP 251500Z 21006KT CAVOK 29/19 Q1016;
0072832880999992009052516004-13267-043417FM-15+0443SBLP V0202101N005119999999Y0099001N1+03001+01501999999ADDMA1101491999999REMMET045METAR SBLP 251600Z 21010KT CAVOK 30/15 Q1015;
0072832880999992009052517004-13267-043417FM-15+0443SBLP V0201801N003119999999Y0099001N1+03001+01401999999ADDMA1101391999999REMMET045METAR SBLP 251700Z 18006KT CAVOK 30/14 Q1014;
0072832880999992009052518004-13267-043417FM-15+0443SBLP V0201701N003119999999Y0099001N1+03001+01301999999ADDMA1101291999999REMMET045METAR SBLP 251800Z 17006KT CAVOK 30/13 Q1013;
0072832880999992009052519004-13267-043417FM-15+0443SBLP V0201801N003119999999Y0099001N1+03001+01501999999ADDMA1101391999999REMMET045METAR SBLP 251900Z 18006KT CAVOK 30/15 Q1014;
0072832880999992009052520004-13267-043417FM-15+0443SBLP V0209999C000019999999Y0099001N1+02901+01401999999ADDMA1101391999999REMMET045METAR SBLP 252000Z 00000KT CAVOK 29/14 Q1014;
0072832880999992009052521004-13267-043417FM-15+0443SBLP V0209999C000019999999Y0099001N1+02601+01501999999ADDMA1101391999999REMMET045METAR SBLP 252100Z 00000KT CAVOK 26/15 Q1014;
0092832880999992009052609044-13267-043417FM-16+0443SBLP V0202101N002119999999Y0099001N1+01601+99999999999ADDMA1101591999999REMMET046SPECI SBLP 260904Z 21004KT CAVOK 16/M12 Q1016;EQDQ01 -01203ATOD  
0091832880999992009052610004-13267-043417FM-15+0443SBLP V0202101N003119999999Y0099001N1+01601+01502999999ADDMA1101691999999REMMET045METAR SBLP 261000Z 21006KT CAVOK 16/15 Q1017;EQDQ01+001503ATOD  
0072832880999992009052611004-13267-043417FM-15+0443SBLP V0201501N001519999999Y0099001N1+01901+01601999999ADDMA1101691999999REMMET045METAR SBLP 261100Z 15003KT CAVOK 19/16 Q1017;
0072832880999992009052612004-13267-043417FM-15+0443SBLP V0201501N003119999999Y0099001N1+02301+01601999999ADDMA1101801999999REMMET045METAR SBLP 261200Z 15006KT CAVOK 23/16 Q1018;
0072832880999992009052613004-13267-043417FM-15+0443SBLP V0201201N002119999999Y0099001N1+02501+01601999999ADDMA1101801999999REMMET045METAR SBLP 261300Z 12004KT CAVOK 25/16 Q1018;
0072832880999992009052614004-13267-043417FM-15+0443SBLP V0202401N002119999999Y0099001N1+02701+01601999999ADDMA1101691999999REMMET045METAR SBLP 261400Z 24004KT CAVOK 27/16 Q1017;
0072832880999992009052615004-13267-043417FM-15+0443SBLP V0202101N005119999999Y0099001N1+02801+01601999999ADDMA1101691999999REMMET045METAR SBLP 261500Z 21010KT CAVOK 28/16 Q1017;
0072832880999992009052616004-13267-043417FM-15+0443SBLP V0201801N003119999999Y0099001N1+02901+01601999999ADDMA1101591999999REMMET045METAR SBLP 261600Z 18006KT CAVOK 29/16 Q1016;
0072832880999992009052617004-13267-043417FM-15+0443SBLP V0201801N003119999999Y0099001N1+02901+01601999999ADDMA1101491999999REMMET045METAR SBLP 261700Z 18006KT CAVOK 29/16 Q1015;
0072832880999992009052618004-13267-043417FM-15+0443SBLP V0201801N003119999999Y0099001N1+03001+01601999999ADDMA1101391999999REMMET045METAR SBLP 261800Z 18006KT CAVOK 30/16 Q1014;
0072832880999992009052619004-13267-043417FM-15+0443SBLP V0201801N003119999999Y0099001N1+03001+01601999999ADDMA1101391999999REMMET045METAR SBLP 261900Z 18006KT CAVOK 30/16 Q1014;
0072832880999992009052620004-13267-043417FM-15+0443SBLP V0201801N003119999999Y0099001N1+02901+01601999999ADDMA1101391999999REMMET045METAR SBLP 262000Z 18006KT CAVOK 29/16 Q1014;
0072832880999992009052621004-13267-043417FM-15+0443SBLP V0201801N003119999999Y0099001N1+02801+01601999999ADDMA1101391999999REMMET045METAR SBLP 262100Z 18006KT CAVOK 28/16 Q1014;
0072832880999992009052709154-13267-043417FM-16+0443SBLP V0209999C000019999999Y0099001N1+01701+01601999999ADDMA1101591999999REMMET045SPECI SBLP 270915Z 00000KT CAVOK 17/16 Q1016;
0072832880999992009052710004-13267-043417FM-15+0443SBLP V0209999C000019999999Y0099001N1+01801+01601999999ADDMA1101591999999REMMET045METAR SBLP 271000Z 00000KT CAVOK 18/16 Q1016;
0072832880999992009052711004-13267-043417FM-15+0443SBLP V0209999C000019999999Y0099001N1+02001+01601999999ADDMA1101691999999REMMET045METAR SBLP 271100Z 00000KT CAVOK 20/16 Q1017;
0072832880999992009052712004-13267-043417FM-15+0443SBLP V0209999C000019999999Y0099001N1+02301+01601999999ADDMA1101801999999REMMET045METAR SBLP 271200Z 00000KT CAVOK 23/16 Q1018;
0072832880999992009052713004-13267-043417FM-15+0443SBLP V0209999C000019999999Y0099001N1+02501+01601999999ADDMA1101691999999REMMET045METAR SBLP 271300Z 00000KT CAVOK 25/16 Q1017;
0072832880999992009052714004-13267-043417FM-15+0443SBLP V0209999C000019999999Y0099001N1+02701+01601999999ADDMA1101691999999REMMET045METAR SBLP 271400Z 00000KT CAVOK 27/16 Q1017;
0072832880999992009052715004-13267-043417FM-15+0443SBLP V0209999C000019999999Y0099001N1+02701+01601999999ADDMA1101691999999REMMET045METAR SBLP 271500Z 00000KT CAVOK 27/16 Q1017;
0072832880999992009052716004-13267-043417FM-15+0443SBLP V0201801N002619999999Y0099001N1+03001+00901999999ADDMA1101491999999REMMET045METAR SBLP 271600Z 18005KT CAVOK 30/09 Q1015;
0072832880999992009052717004-13267-043417FM-15+0443SBLP V0201801N002619999999Y0099001N1+03101+00901999999ADDMA1101391999999REMMET045METAR SBLP 271700Z 18005KT CAVOK 31/09 Q1014;
0072832880999992009052718004-13267-043417FM-15+0443SBLP V0201801N002119999999Y0099001N1+03101+01001999999ADDMA1101291999999REMMET045METAR SBLP 271800Z 18004KT CAVOK 31/10 Q1013;
0072832880999992009052719004-13267-043417FM-15+0443SBLP V0202001N002119999999Y0099001N1+03001+01401999999ADDMA1101291999999REMMET045METAR SBLP 271900Z 20004KT CAVOK 30/14 Q1013;
0072832880999992009052720004-13267-043417FM-15+0443SBLP V0202101N001519999999Y0099001N1+02801+01601999999ADDMA1101291999999REMMET045METAR SBLP 272000Z 21003KT CAVOK 28/16 Q1013;
0072832880999992009052721004-13267-043417FM-15+0443SBLP V0201901N001519999999Y0099001N1+02701+01601999999ADDMA1101391999999REMMET045METAR SBLP 272100Z 19003KT CAVOK 27/16 Q1014;
0072832880999992009052809154-13267-043417FM-16+0443SBLP V0209999C000019999999Y0099001N1+01801+01601999999ADDMA1101591999999REMMET045SPECI SBLP 280915Z 00000KT CAVOK 18/16 Q1016;
0072832880999992009052810004-13267-043417FM-15+0443SBLP V0209999C000019999999Y0099001N1+01801+01601999999ADDMA1101691999999REMMET045METAR SBLP 281000Z 00000KT CAVOK 18/16 Q1017;
0072832880999992009052811004-13267-043417FM-15+0443SBLP V0209999C000019999999Y0099001N1+02001+01601999999ADDMA1101691999999REMMET045METAR SBLP 281100Z 00000KT CAVOK 20/16 Q1017;
0072832880999992009052812004-13267-043417FM-15+0443SBLP V0209999C000019999999Y0099001N1+02401+01901999999ADDMA1101801999999REMMET045METAR SBLP 281200Z 00000KT CAVOK 24/19 Q1018;
0072832880999992009052813004-13267-043417FM-15+0443SBLP V0209999C000019999999Y0099001N1+02801+01801999999ADDMA1101801999999REMMET045METAR SBLP 281300Z 00000KT CAVOK 28/18 Q1018;
0072832880999992009052814004-13267-043417FM-15+0443SBLP V0209999C000019999999Y0099001N1+03001+01801999999ADDMA1101691999999REMMET045METAR SBLP 281400Z 00000KT CAVOK 30/18 Q1017;
0120832880999992009052815004-13267-043417FM-15+0443SBLP V0209999C000012200019N0112651N1+03101+01801999999ADDGA1021+009001999GF102991999999999999999999MA1101591999999REMMET051METAR SBLP 281500Z 00000KT 9999 FEW030 31/18 Q1016;
0120832880999992009052816004-13267-043417FM-15+0443SBLP V0202101N002112200019N0112651N1+03101+01901999999ADDGA1021+009001999GF102991999999999999999999MA1101491999999REMMET051METAR SBLP 281600Z 21004KT 9999 FEW030 31/19 Q1015;
0120832880999992009052817004-13267-043417FM-15+0443SBLP V0202401N002112200019N0112651N1+03101+01901999999ADDGA1021+009001999GF102991999999999999999999MA1101491999999REMMET051METAR SBLP 281700Z 24004KT 9999 FEW030 31/19 Q1015;
0120832880999992009052818004-13267-043417FM-15+0443SBLP V0202101N002612200019N0112651N1+03201+01901999999ADDGA1021+009001999GF102991999999999999999999MA1101391999999REMMET051METAR SBLP 281800Z 21005KT 9999 FEW030 32/19 Q1014;
0120832880999992009052819004-13267-043417FM-15+0443SBLP V0202001N002612200019N0112651N1+03201+01901999999ADDGA1021+009001999GF102991999999999999999999MA1101391999999REMMET051METAR SBLP 281900Z 20005KT 9999 FEW030 32/19 Q1014;
0072832880999992009052820004-13267-043417FM-15+0443SBLP V0202101N001519999999Y0099001N1+03101+01901999999ADDMA1101391999999REMMET045METAR SBLP 282000Z 21003KT CAVOK 31/19 Q1014;
0072832880999992009052821004-13267-043417FM-15+0443SBLP V0201901N001519999999Y0099001N1+02901+02001999999ADDMA1101391999999REMMET045METAR SBLP 282100Z 19003KT CAVOK 29/20 Q1014;
0072832880999992009052910004-13267-043417FM-15+0443SBLP V0202101N002119999999Y0099001N1+02001+01801999999ADDMA1101691999999REMMET045METAR SBLP 291000Z 21004KT CAVOK 20/18 Q1017;
0072832880999992009052911004-13267-043417FM-15+0443SBLP V0202101N003119999999Y0099001N1+02301+01901999999ADDMA1101691999999REMMET045METAR SBLP 291100Z 21006KT CAVOK 23/19 Q1017;
0072832880999992009052912004-13267-043417FM-15+0443SBLP V0201801N002119999999Y0099001N1+02501+02001999999ADDMA1101801999999REMMET045METAR SBLP 291200Z 18004KT CAVOK 25/20 Q1018;
0072832880999992009052913004-13267-043417FM-15+0443SBLP V0201901N002119999999Y0099001N1+02701+01901999999ADDMA1101801999999REMMET045METAR SBLP 291300Z 19004KT CAVOK 27/19 Q1018;
0120832880999992009052914004-13267-043417FM-15+0443SBLP V0201901N001012200019N0112651N1+02901+01901999999ADDGA1021+009001999GF102991999999999999999999MA1101691999999REMMET051METAR SBLP 291400Z 19002KT 9999 FEW030 29/19 Q1017;
0120832880999992009052915004-13267-043417FM-15+0443SBLP V0202101N002112200019N0112651N1+03101+01901999999ADDGA1041+009001999GF104991999999999999999999MA1101591999999REMMET051METAR SBLP 291500Z 21004KT 9999 SCT030 31/19 Q1016;
0120832880999992009052916004-13267-043417FM-15+0443SBLP V0201801N002112200019N0112651N1+03101+01901999999ADDGA1041+009001999GF104991999999999999999999MA1101491999999REMMET051METAR SBLP 291600Z 18004KT 9999 SCT030 31/19 Q1015;
0120832880999992009052917004-13267-043417FM-15+0443SBLP V0201201N004112200019N0112651N1+03201+01901999999ADDGA1041+009001999GF104991999999999999999999MA1101391999999REMMET051METAR SBLP 291700Z 12008KT 9999 SCT030 32/19 Q1014;
0120832880999992009052918004-13267-043417FM-15+0443SBLP V0201801N004112200019N0112651N1+03301+01901999999ADDGA1041+009001999GF104991999999999999999999MA1101291999999REMMET051METAR SBLP 291800Z 18008KT 9999 SCT030 33/19 Q1013;
0120832880999992009052919004-13267-043417FM-15+0443SBLP V0201801N003112200019N0112651N1+03201+01801999999ADDGA1021+009001999GF102991999999999999999999MA1101291999999REMMET051METAR SBLP 291900Z 18006KT 9999 FEW030 32/18 Q1013;
0072832880999992009052920004-13267-043417FM-15+0443SBLP V0202101N003119999999Y0099001N1+03201+01801999999ADDMA1101291999999REMMET045METAR SBLP 292000Z 21006KT CAVOK 32/18 Q1013;
0072832880999992009052921004-13267-043417FM-15+0443SBLP V0201701N002119999999Y0099001N1+02901+01901999999ADDMA1101391999999REMMET045METAR SBLP 292100Z 17004KT CAVOK 29/19 Q1014;
0072832880999992009053010004-13267-043417FM-15+0443SBLP V0209999C000019999999Y0099001N1+02401+01901999999ADDMA1101691999999REMMET045METAR SBLP 301000Z 00000KT CAVOK 24/19 Q1017;
0072832880999992009053011004-13267-043417FM-15+0443SBLP V0209999C000019999999Y0099001N1+02601+01901999999ADDMA1101691999999REMMET045METAR SBLP 301100Z 00000KT CAVOK 26/19 Q1017;
0072832880999992009053012004-13267-043417FM-15+0443SBLP V0209999C000019999999Y0099001N1+02801+01801999999ADDMA1101691999999REMMET045METAR SBLP 301200Z 00000KT CAVOK 28/18 Q1017;
0072832880999992009053013004-13267-043417FM-15+0443SBLP V0209999C000019999999Y0099001N1+03001+01701999999ADDMA1101691999999REMMET045METAR SBLP 301300Z 00000KT CAVOK 30/17 Q1017;
0072832880999992009053014004-13267-043417FM-15+0443SBLP V0201801N003119999999Y0099001N1+03001+01701999999ADDMA1101691999999REMMET045METAR SBLP 301400Z 18006KT CAVOK 30/17 Q1017;
0072832880999992009053015004-13267-043417FM-15+0443SBLP V0201801N003119999999Y0099001N1+03001+01701999999ADDMA1101591999999REMMET045METAR SBLP 301500Z 18006KT CAVOK 30/17 Q1016;
0120832880999992009053016004-13267-043417FM-15+0443SBLP V0202401N002112200019N0112651N1+03101+01901999999ADDGA1041+009001999GF104991999999999999999999MA1101491999999REMMET051METAR SBLP 301600Z 24004KT 9999 SCT030 31/19 Q1015;
0120832880999992009053017004-13267-043417FM-15+0443SBLP V0202301N003112200019N0112651N1+03201+01901999999ADDGA1041+009001999GF104991999999999999999999MA1101391999999REMMET051METAR SBLP 301700Z 23006KT 9999 SCT030 32/19 Q1014;
0120832880999992009053018004-13267-043417FM-15+0443SBLP V0202201N003112200019N0112651N1+03201+01901999999ADDGA1041+009001999GF104991999999999999999999MA1101291999999REMMET051METAR SBLP 301800Z 22006KT 9999 SCT030 32/19 Q1013;
0120832880999992009053019004-13267-043417FM-15+0443SBLP V0202001N002112200019N0112651N1+03101+01901999999ADDGA1041+009001999GF104991999999999999999999MA1101291999999REMMET051METAR SBLP 301900Z 20004KT 9999 SCT030 31/19 Q1013;
0120832880999992009053020004-13267-043417FM-15+0443SBLP V0202101N002112200019N0112651N1+03101+02001999999ADDGA1041+009001999GF104991999999999999999999MA1101291999999REMMET051METAR SBLP 302000Z 21004KT 9999 SCT030 31/20 Q1013;
0130832880999992009053021004-13267-043417FM-15+0443SBLP V0201501N003112200019N0112651N1+02501+02201999999ADDGA1041+009001999GF104991999999999999999999MA1101391999999MW1611REMMET055METAR SBLP 302100Z 15006KT 9999 -RA SCT030 25/22 Q1014;
0072832880999992009053109104-13267-043417FM-16+0443SBLP V0202101N001519999999Y0099001N1+02001+01901999999ADDMA1101591999999REMMET045SPECI SBLP 310910Z 21003KT CAVOK 20/19 Q1016;
0072832880999992009053110004-13267-043417FM-15+0443SBLP V0202101N003119999999Y0099001N1+02001+01901999999ADDMA1101691999999REMMET045METAR SBLP 311000Z 21006KT CAVOK 20/19 Q1017;
0072832880999992009053111004-13267-043417FM-15+0443SBLP V0201801N003119999999Y0099001N1+02201+01901999999ADDMA1101691999999REMMET045METAR SBLP 311100Z 18006KT CAVOK 22/19 Q1017;
0072832880999992009053112004-13267-043417FM-15+0443SBLP V0209999C000019999999Y0099001N1+02501+01901999999ADDMA1101801999999REMMET045METAR SBLP 311200Z 00000KT CAVOK 25/19 Q1018;
0072832880999992009053113004-13267-043417FM-15+0443SBLP V0201201N003119999999Y0099001N1+02801+01801999999ADDMA1101801999999REMMET045METAR SBLP 311300Z 12006KT CAVOK 28/18 Q1018;
0072832880999992009053114004-13267-043417FM-15+0443SBLP V0200901N003119999999Y0099001N1+03001+01801999999ADDMA1101691999999REMMET045METAR SBLP 311400Z 09006KT CAVOK 30/18 Q1017;
0072832880999992009053115004-13267-043417FM-15+0443SBLP V0209999C000019999999Y0099001N1+03101+01801999999ADDMA1101491999999REMMET045METAR SBLP 311500Z 00000KT CAVOK 31/18 Q1015;
0072832880999992009053116004-13267-043417FM-15+0443SBLP V0209999C000019999999Y0099001N1+03201+01801999999ADDMA1101391999999REMMET045METAR SBLP 311600Z 00000KT CAVOK 32/18 Q1014;
0072832880999992009053117004-13267-043417FM-15+0443SBLP V0209999C000019999999Y0099001N1+03201+01801999999ADDMA1101291999999REMMET045METAR SBLP 311700Z 00000KT CAVOK 32/18 Q1013;
0072832880999992009053118004-13267-043417FM-15+0443SBLP V0209999C000019999999Y0099001N1+03301+01801999999ADDMA1101291999999REMMET045METAR SBLP 311800Z 00000KT CAVOK 33/18 Q1013;
0072832880999992009053119004-13267-043417FM-15+0443SBLP V0209999C000019999999Y0099001N1+03201+01801999999ADDMA1101291999999REMMET045METAR SBLP 311900Z 00000KT CAVOK 32/18 Q1013;
0072832880999992009053120004-13267-043417FM-15+0443SBLP V0209999C000019999999Y0099001N1+03101+01801999999ADDMA1101291999999REMMET045METAR SBLP 312000Z 00000KT CAVOK 31/18 Q1013;
0072832880999992009053121004-13267-043417FM-15+0443SBLP V0209999C000019999999Y0099001N1+02901+01801999999ADDMA1101291999999REMMET045METAR SBLP 312100Z 00000KT CAVOK 29/18 Q1013;
0072832880999992009060109154-13267-043417FM-16+0443SBLP V0209999C000019999999Y0099001N1+02101+02001999999ADDMA1101491999999REMMET045SPECI SBLP 010915Z 00000KT CAVOK 21/20 Q1015;
0072832880999992009060110004-13267-043417FM-15+0443SBLP V0209999C000019999999Y0099001N1+02301+02001999999ADDMA1101491999999REMMET045METAR SBLP 011000Z 00000KT CAVOK 23/20 Q1015;
0072832880999992009060111004-13267-043417FM-15+0443SBLP V0209999C000019999999Y0099001N1+02501+02001999999ADDMA1101591999999REMMET045METAR SBLP 011100Z 00000KT CAVOK 25/20 Q1016;
0072832880999992009060112004-13267-043417FM-15+0443SBLP V0209999C000019999999Y0099001N1+02701+01901999999ADDMA1101691999999REMMET045METAR SBLP 011200Z 00000KT CAVOK 27/19 Q1017;
0072832880999992009060113004-13267-043417FM-15+0443SBLP V0209999C000019999999Y0099001N1+02901+01901999999ADDMA1101591999999REMMET045METAR SBLP 011300Z 00000KT CAVOK 29/19 Q1016;
0072832880999992009060114004-13267-043417FM-15+0443SBLP V0209999C000019999999Y0099001N1+02901+01901999999ADDMA1101591999999REMMET045METAR SBLP 011400Z 00000KT CAVOK 29/19 Q1016;
0120832880999992009060115004-13267-043417FM-15+0443SBLP V0201801N003112200019N0112651N1+03001+01901999999ADDGA1021+009001999GF102991999999999999999999MA1101491999999REMMET051METAR SBLP 011500Z 18006KT 9999 FEW030 30/19 Q1015;
0120832880999992009060116004-13267-043417FM-15+0443SBLP V0202701N001012200019N0112651N1+03101+01901999999ADDGA1021+009001999GF102991999999999999999999MA1101391999999REMMET051METAR SBLP 011600Z 27002KT 9999 FEW030 31/19 Q1014;
0120832880999992009060117004-13267-043417FM-15+0443SBLP V0202701N002112200019N0112651N1+03201+01901999999ADDGA1021+009001999GF102991999999999999999999MA1101291999999REMMET051METAR SBLP 011700Z 27004KT 9999 FEW030 32/19 Q1013;
0120832880999992009060118004-13267-043417FM-15+0443SBLP V0202401N001512200019N0112651N1+03101+01901999999ADDGA1021+009001999GF102991999999999999999999MA1101191999999REMMET051METAR SBLP 011800Z 24003KT 9999 FEW030 31/19 Q1012;
0120832880999992009060119004-13267-043417FM-15+0443SBLP V0202401N001012200019N0112651N1+02901+02101999999ADDGA1021+009001999GF102991999999999999999999MA1101191999999REMMET051METAR SBLP 011900Z 24002KT 9999 FEW030 29/21 Q1012;
0153832880999992009060120004-13267-043417FM-15+0443SBLP V0202401N001512200019N0112651N1+02701+02001999999ADDGA1021+009001999GA2041+030001999GF104991999999999999999999MA1101291999999MW1611REMMET062METAR SBLP 012000Z 24003KT 9999 -RA FEW030 SCT100 27/20 Q1013;
0143832880999992009060121004-13267-043417FM-15+0443SBLP V0202301N002110300019N0112651N1+02501+02101999999ADDGA1021+008101999GA2071+030001999GF107991999999999999999999MA1101291999999REMMET058METAR SBLP 012100Z 23004KT 9999 FEW027 BKN100 25/21 Q1013;
0072832880999992009060210004-13267-043417FM-15+0443SBLP V0209999C000019999999Y0099001N1+02101+02001999999ADDMA1101491999999REMMET045METAR SBLP 021000Z 00000KT CAVOK 21/20 Q1015;
0072832880999992009060211004-13267-043417FM-15+0443SBLP V0209999C000019999999Y0099001N1+02201+01901999999ADDMA1101591999999REMMET045METAR SBLP 021100Z 00000KT CAVOK 22/19 Q1016;
0143832880999992009060212004-13267-043417FM-15+0443SBLP V0203301N003112200019N0112651N1+02401+01801999999ADDGA1021+009001999GA2041+030001999GF104991999999999999999999MA1101691999999REMMET058METAR SBLP 021200Z 33006KT 9999 FEW030 SCT100 24/18 Q1017;
0143832880999992009060213004-13267-043417FM-15+0443SBLP V0203301N003112200019N0112651N1+02701+01901999999ADDGA1021+009001999GA2041+030001999GF104991999999999999999999MA1101591999999REMMET058METAR SBLP 021300Z 33006KT 9999 FEW030 SCT100 27/19 Q1016;
0143832880999992009060214004-13267-043417FM-15+0443SBLP V0203201N003112200019N0112651N1+02901+01901999999ADDGA1021+009001999GA2041+030001999GF104991999999999999999999MA1101491999999REMMET058METAR SBLP 021400Z 32006KT 9999 FEW030 SCT100 29/19 Q1015;
0120832880999992009060215004-13267-043417FM-15+0443SBLP V0202701N003112200019N0112651N1+03001+01901999999ADDGA1021+009001999GF102991999999999999999999MA1101491999999REMMET051METAR SBLP 021500Z 27006KT 9999 FEW030 30/19 Q1015;
0120832880999992009060216004-13267-043417FM-15+0443SBLP V0202001N002112200019N0112651N1+03201+01901999999ADDGA1041+009001999GF104991999999999999999999MA1101291999999REMMET051METAR SBLP 021600Z 20004KT 9999 SCT030 32/19 Q1013;
0120832880999992009060217004-13267-043417FM-15+0443SBLP V0209999C000012200019N0112651N1+03201+01901999999ADDGA1041+009001999GF104991999999999999999999MA1101191999999REMMET051METAR SBLP 021700Z 00000KT 9999 SCT030 32/19 Q1012;
0143832880999992009060218004-13267-043417FM-15+0443SBLP V0203601N001012200019N0112651N1+03201+01801999999ADDGA1021+009001999GA2041+030001999GF104991999999999999999999MA1101081999999REMMET058METAR SBLP 021800Z 36002KT 9999 FEW030 SCT100 32/18 Q1011;
0143832880999992009060219004-13267-043417FM-15+0443SBLP V0201501N002112200019N0112651N1+03201+01901999999ADDGA1021+009001999GA2041+030001999GF104991999999999999999999MA1101191999999REMMET058METAR SBLP 021900Z 15004KT 9999 FEW030 SCT100 32/19 Q1012;
0143832880999992009060220004-13267-043417FM-15+0443SBLP V0201801N001012200019N0112651N1+02901+02101999999ADDGA1021+009001999GA2041+030001999GF104991999999999999999999MA1101191999999REMMET058METAR SBLP 022000Z 18002KT 9999 FEW030 SCT100 29/21 Q1012;
0168832880999992009060221004-13267-043417FM-15+0443SBLP V0201901N001010300019N0112651N1+02901+02101999999ADDGA1021+009001999GA2021+012001091GA3071+030001999GF107991999999999999999999MA1101291999999REMMET067METAR SBLP 022100Z 19002KT 9999 FEW030 FEW040CB BKN100 29/21 Q1013;
0153832880999992009060310004-13267-043417FM-15+0443SBLP V0209999C000010300019N0090001N1+02101+02101999999ADDGA1021+006001999GA2071+030001999GF107991999999999999999999MA1101691999999MW1611REMMET062METAR SBLP 031000Z 00000KT 9000 -RA FEW020 BKN100 21/21 Q1017;
0153832880999992009060311004-13267-043417FM-15+0443SBLP V0209999C000010300019N0090001N1+02101+02101999999ADDGA1041+006001999GA2071+030001999GF107991999999999999999999MA1101801999999MW1611REMMET062METAR SBLP 031100Z 00000KT 9000 -RA SCT020 BKN100 21/21 Q1018;
0153832880999992009060312004-13267-043417FM-15+0443SBLP V0209999C000010270019N0090001N1+02101+02101999999ADDGA1041+006001999GA2081+027001999GF108991999999999999999999MA1101901999999MW1611REMMET062METAR SBLP 031200Z 00000KT 9000 -RA SCT020 OVC090 21/21 Q1019;
0153832880999992009060313004-13267-043417FM-15+0443SBLP V0209999C000010270019N0090001N1+02201+02201999999ADDGA1041+006001999GA2081+027001999GF108991999999999999999999MA1101901999999MW1611REMMET062METAR SBLP 031300Z 00000KT 9000 -RA SCT020 OVC090 22/22 Q1019;
0153832880999992009060314004-13267-043417FM-15+0443SBLP V0209999C000010300019N0090001N1+02201+02201999999ADDGA1041+006001999GA2081+030001999GF108991999999999999999999MA1101901999999MW1611REMMET062METAR SBLP 031400Z 00000KT 9000 -RA SCT020 OVC100 22/22 Q1019;
0153832880999992009060315004-13267-043417FM-15+0443SBLP V0209999C000010270019N0090001N1+02201+02201999999ADDGA1041+006001999GA2081+027001999GF108991999999999999999999MA1101801999999MW1611REMMET062METAR SBLP 031500Z 00000KT 9000 -RA SCT020 OVC090 22/22 Q1018;
0153832880999992009060316004-13267-043417FM-15+0443SBLP V0202101N001510270019N0112651N1+02301+02101999999ADDGA1041+006001999GA2071+027001999GF107991999999999999999999MA1101691999999MW1611REMMET062METAR SBLP 031600Z 21003KT 9999 -RA SCT020 BKN090 23/21 Q1017;
0153832880999992009060317004-13267-043417FM-15+0443SBLP V0202401N003110045019N0112651N1+02301+02101999999ADDGA1071+004501999GA2071+027001999GF107991999999999999999999MA1101591999999MW1611REMMET062METAR SBLP 031700Z 24006KT 9999 -RA BKN015 BKN090 23/21 Q1016;
0148832880999992009060318004-13267-043417FM-15+0443SBLP V0202101N001510300019N0112651N1+02301+02101999999ADDGA1041+006001999GA2071+030001999GF107991999999999999999999MA1101591999999REMMET063METAR SBLP 031800Z 21003KT 9999 SCT020 BKN100 23/21 Q1016 RERA;
0143832880999992009060319004-13267-043417FM-15+0443SBLP V0209999C000010300019N0112651N1+02301+02101999999ADDGA1041+006001999GA2071+030001999GF107991999999999999999999MA1101591999999REMMET058METAR SBLP 031900Z 00000KT 9999 SCT020 BKN100 23/21 Q1016;
0143832880999992009060320004-13267-043417FM-15+0443SBLP V0209999C000010300019N0112651N1+02301+02101999999ADDGA1041+006001999GA2071+030001999GF107991999999999999999999MA1101691999999REMMET058METAR SBLP 032000Z 00000KT 9999 SCT020 BKN100 23/21 Q1017;
0143832880999992009060321004-13267-043417FM-15+0443SBLP V0209999C000010300019N0112651N1+02201+02101999999ADDGA1021+006001999GA2071+030001999GF107991999999999999999999MA1101591999999REMMET058METAR SBLP 032100Z 00000KT 9999 FEW020 BKN100 22/21 Q1016;
0143832880999992009060410004-13267-043417FM-15+0443SBLP V0202001N003110300019N0112651N1+02101+02001999999ADDGA1041+006001999GA2071+030001999GF107991999999999999999999MA1101801999999REMMET058METAR SBLP 041000Z 20006KT 9999 SCT020 BKN100 21/20 Q1018;
0072832880999992009060411004-13267-043417FM-15+0443SBLP V0201601N003119999999Y0099001N1+02301+02001999999ADDMA1101901999999REMMET045METAR SBLP 041100Z 16006KT CAVOK 23/20 Q1019;
0072832880999992009060412004-13267-043417FM-15+0443SBLP V0201701N003119999999Y0099001N1+02501+02101999999ADDMA1102001999999REMMET045METAR SBLP 041200Z 17006KT CAVOK 25/21 Q1020;
0143832880999992009060413004-13267-043417FM-15+0443SBLP V0201601N003110300019N0112651N1+02601+02201999999ADDGA1021+009001999GA2071+030001999GF107991999999999999999999MA1102001999999REMMET058METAR SBLP 041300Z 16006KT 9999 FEW030 BKN100 26/22 Q1020;
0143832880999992009060414004-13267-043417FM-15+0443SBLP V0200801N002110300019N0112651N1+02801+02101999999ADDGA1041+009001999GA2071+030001999GF107991999999999999999999MA1101901999999REMMET058METAR SBLP 041400Z 08004KT 9999 SCT030 BKN100 28/21 Q1019;
0143832880999992009060415004-13267-043417FM-15+0443SBLP V0209999C000010300019N0112651N1+02901+02101999999ADDGA1041+009001999GA2071+030001999GF107991999999999999999999MA1101801999999REMMET058METAR SBLP 041500Z 00000KT 9999 SCT030 BKN100 29/21 Q1018;
0143832880999992009060416004-13267-043417FM-15+0443SBLP V0201801N003110300019N0112651N1+03001+02001999999ADDGA1041+009001999GA2071+030001999GF107991999999999999999999MA1101691999999REMMET058METAR SBLP 041600Z 18006KT 9999 SCT030 BKN100 30/20 Q1017;
0143832880999992009060417004-13267-043417FM-15+0443SBLP V0201801N003110300019N0112651N1+03001+02001999999ADDGA1041+009001999GA2071+030001999GF107991999999999999999999MA1101591999999REMMET058METAR SBLP 041700Z 18006KT 9999 SCT030 BKN100 30/20 Q1016;
0143832880999992009060418004-13267-043417FM-15+0443SBLP V0201801N003110300019N0112651N1+03101+02001999999ADDGA1041+009001999GA2071+030001999GF107991999999999999999999MA1101591999999REMMET058METAR SBLP 041800Z 18006KT 9999 SCT030 BKN100 31/20 Q1016;
0143832880999992009060419004-13267-043417FM-15+0443SBLP V0201801N003110300019N0112651N1+03001+02001999999ADDGA1041+009001999GA2071+030001999GF107991999999999999999999MA1101591999999REMMET058METAR SBLP 041900Z 18006KT 9999 SCT030 BKN100 30/20 Q1016;
0143832880999992009060420004-13267-043417FM-15+0443SBLP V0201801N003112200019N0112651N1+02901+02001999999ADDGA1021+009001999GA2041+030001999GF104991999999999999999999MA1101591999999REMMET058METAR SBLP 042000Z 18006KT 9999 FEW030 SCT100 29/20 Q1016;
0143832880999992009060421004-13267-043417FM-15+0443SBLP V0201801N003112200019N0112651N1+02801+02001999999ADDGA1021+009001999GA2041+030001999GF104991999999999999999999MA1101591999999REMMET058METAR SBLP 042100Z 18006KT 9999 FEW030 SCT100 28/20 Q1016;
0072832880999992009060509154-13267-043417FM-16+0443SBLP V0209999C000019999999Y0099001N1+02101+01901999999ADDMA1101801999999REMMET045SPECI SBLP 050915Z 00000KT CAVOK 21/19 Q1018;
0072832880999992009060510004-13267-043417FM-15+0443SBLP V0209999C000019999999Y0099001N1+02301+01901999999ADDMA1101901999999REMMET045METAR SBLP 051000Z 00000KT CAVOK 23/19 Q1019;
0072832880999992009060511004-13267-043417FM-15+0443SBLP V0209999C000019999999Y0099001N1+02501+01901999999ADDMA1102001999999REMMET045METAR SBLP 051100Z 00000KT CAVOK 25/19 Q1020;
0072832880999992009060512004-13267-043417FM-15+0443SBLP V0201801N003119999999Y0099001N1+02701+01901999999ADDMA1102001999999REMMET045METAR SBLP 051200Z 18006KT CAVOK 27/19 Q1020;
0120832880999992009060513004-13267-043417FM-15+0443SBLP V0201801N003112200019N0112651N1+02801+01901999999ADDGA1021+009001999GF102991999999999999999999MA1102001999999REMMET051METAR SBLP 051300Z 18006KT 9999 FEW030 28/19 Q1020;
0120832880999992009060514004-13267-043417FM-15+0443SBLP V0201801N003112200019N0112651N1+02801+01901999999ADDGA1021+009001999GF102991999999999999999999MA1102001999999REMMET051METAR SBLP 051400Z 18006KT 9999 FEW030 28/19 Q1020;
0120832880999992009060515004-13267-043417FM-15+0443SBLP V0201801N003112200019N0112651N1+02901+01901999999ADDGA1041+009001999GF104991999999999999999999MA1101901999999REMMET051METAR SBLP 051500Z 18006KT 9999 SCT030 29/19 Q1019;
0120832880999992009060516004-13267-043417FM-15+0443SBLP V0201501N003112200019N0112651N1+02901+01801999999ADDGA1041+009001999GF104991999999999999999999MA1101801999999REMMET051METAR SBLP 051600Z 15006KT 9999 SCT030 29/18 Q1018;
0120832880999992009060517004-13267-043417FM-15+0443SBLP V0201501N003112200019N0112651N1+02901+01801999999ADDGA1041+009001999GF104991999999999999999999MA1101801999999REMMET051METAR SBLP 051700Z 15006KT 9999 SCT030 29/18 Q1018;
0120832880999992009060518004-13267-043417FM-15+0443SBLP V0201801N004112200019N0112651N1+03001+01801999999ADDGA1041+009001999GF104991999999999999999999MA1101691999999REMMET051METAR SBLP 051800Z 18008KT 9999 SCT030 30/18 Q1017;
0120832880999992009060519004-13267-043417FM-15+0443SBLP V0201801N002612200019N0112651N1+03001+01901999999ADDGA1041+009001999GF104991999999999999999999MA1101591999999REMMET051METAR SBLP 051900Z 18005KT 9999 SCT030 30/19 Q1016;
0120832880999992009060520004-13267-043417FM-15+0443SBLP V0201901N002112200019N0112651N1+03001+01901999999ADDGA1021+009001999GF102991999999999999999999MA1101691999999REMMET051METAR SBLP 052000Z 19004KT 9999 FEW030 30/19 Q1017;
0120832880999992009060521004-13267-043417FM-15+0443SBLP V0209999C000012200019N0112651N1+02701+02001999999ADDGA1021+009001999GF102991999999999999999999MA1101691999999REMMET051METAR SBLP 052100Z 00000KT 9999 FEW030 27/20 Q1017;
0072832880999992009060610004-13267-043417FM-15+0443SBLP V0201901N002119999999Y0099001N1+02001+01901999999ADDMA1101901999999REMMET045METAR SBLP 061000Z 19004KT CAVOK 20/19 Q1019;
0072832880999992009060611004-13267-043417FM-15+0443SBLP V0201801N003119999999Y0099001N1+02501+01901999999ADDMA1102001999999REMMET045METAR SBLP 061100Z 18006KT CAVOK 25/19 Q1020;
0072832880999992009060612004-13267-043417FM-15+0443SBLP V0201801N002119999999Y0099001N1+02601+02001999999ADDMA1102001999999REMMET045METAR SBLP 061200Z 18004KT CAVOK 26/20 Q1020;
0072832880999992009060613004-13267-043417FM-15+0443SBLP V0201901N002119999999Y0099001N1+02801+01901999999ADDMA1102001999999REMMET045METAR SBLP 061300Z 19004KT CAVOK 28/19 Q1020;
0120832880999992009060614004-13267-043417FM-15+0443SBLP V0201601N002112200019N0112651N1+02801+01801999999ADDGA1021+009001999GF102991999999999999999999MA1101901999999REMMET051METAR SBLP 061400Z 16004KT 9999 FEW030 28/18 Q1019;
0120832880999992009060615004-13267-043417FM-15+0443SBLP V0201801N004112200019N0112651N1+03001+01501999999ADDGA1021+009001999GF102991999999999999999999MA1101801999999REMMET051METAR SBLP 061500Z 18008KT 9999 FEW030 30/15 Q1018;
0120832880999992009060616004-13267-043417FM-15+0443SBLP V0201801N004112200019N0112651N1+03201+01501999999ADDGA1041+009001999GF104991999999999999999999MA1101691999999REMMET051METAR SBLP 061600Z 18008KT 9999 SCT030 32/15 Q1017;
0120832880999992009060617004-13267-043417FM-15+0443SBLP V0201801N004112200019N0112651N1+03201+01601999999ADDGA1041+009001999GF104991999999999999999999MA1101491999999REMMET051METAR SBLP 061700Z 18008KT 9999 SCT030 32/16 Q1015;
0120832880999992009060618004-13267-043417FM-15+0443SBLP V0201601N003112200019N0112651N1+03201+01601999999ADDGA1021+009001999GF102991999999999999999999MA1101491999999REMMET051METAR SBLP 061800Z 16006KT 9999 FEW030 32/16 Q1015;
0120832880999992009060619004-13267-043417FM-15+0443SBLP V0201601N003112200019N0112651N1+03101+01801999999ADDGA1021+009001999GF102991999999999999999999MA1101491999999REMMET051METAR SBLP 061900Z 16006KT 9999 FEW030 31/18 Q1015;
0072832880999992009060620004-13267-043417FM-15+0443SBLP V0201601N003119999999Y0099001N1+02901+01801999999ADDMA1101491999999REMMET045METAR SBLP 062000Z 16006KT CAVOK 29/18 Q1015;
0072832880999992009060621004-13267-043417FM-15+0443SBLP V0201601N003119999999Y0099001N1+02801+01901999999ADDMA1101491999999REMMET045METAR SBLP 062100Z 16006KT CAVOK 28/19 Q1015;
0072832880999992009060709144-13267-043417FM-16+0443SBLP V0209999C000019999999Y0099001N1+02001+01901999999ADDMA1101691999999REMMET045SPECI SBLP 070914Z 00000KT CAVOK 20/19 Q1017;
0072832880999992009060710004-13267-043417FM-15+0443SBLP V0209999C000019999999Y0099001N1+02101+01901999999ADDMA1101691999999REMMET045METAR SBLP 071000Z 00000KT CAVOK 21/19 Q1017;
0072832880999992009060711004-13267-043417FM-15+0443SBLP V0201601N003119999999Y0099001N1+02201+01901999999ADDMA1101801999999REMMET045METAR SBLP 071100Z 16006KT CAVOK 22/19 Q1018;
0072832880999992009060712004-13267-043417FM-15+0443SBLP V0201801N003119999999Y0099001N1+02601+01901999999ADDMA1101901999999REMMET045METAR SBLP 071200Z 18006KT CAVOK 26/19 Q1019;
0143832880999992009060713004-13267-043417FM-15+0443SBLP V0200901N003112200019N0112651N1+02801+01901999999ADDGA1021+009001999GA2041+030001999GF104991999999999999999999MA1101801999999REMMET058METAR SBLP 071300Z 09006KT 9999 FEW030 SCT100 28/19 Q1018;
0120832880999992009060714004-13267-043417FM-15+0443SBLP V0201601N003112200019N0112651N1+03001+02001999999ADDGA1021+009001999GF102991999999999999999999MA1101801999999REMMET051METAR SBLP 071400Z 16006KT 9999 FEW030 30/20 Q1018;
0120832880999992009060715004-13267-043417FM-15+0443SBLP V0201201N004112200019N0112651N1+03001+02001999999ADDGA1041+009001999GF104991999999999999999999MA1101691999999REMMET051METAR SBLP 071500Z 12008KT 9999 SCT030 30/20 Q1017;
0120832880999992009060716004-13267-043417FM-15+0443SBLP V0201101N004112200019N0112651N1+03101+01801999999ADDGA1021+009001999GF102991999999999999999999MA1101591999999REMMET051METAR SBLP 071600Z 11008KT 9999 FEW030 31/18 Q1016;
0120832880999992009060717004-13267-043417FM-15+0443SBLP V0200901N006212200019N0112651N1+03201+01401999999ADDGA1021+009001999GF102991999999999999999999MA1101491999999REMMET051METAR SBLP 071700Z 09012KT 9999 FEW030 32/14 Q1015;
0120832880999992009060718004-13267-043417FM-15+0443SBLP V0201201N004112200019N0112651N1+03101+01401999999ADDGA1021+009001999GF102991999999999999999999MA1101391999999REMMET051METAR SBLP 071800Z 12008KT 9999 FEW030 31/14 Q1014;
0120832880999992009060719004-13267-043417FM-15+0443SBLP V0201501N005112200019N0112651N1+03001+01501999999ADDGA1021+009001999GF102991999999999999999999MA1101491999999REMMET051METAR SBLP 071900Z 15010KT 9999 FEW030 30/15 Q1015;
0120832880999992009060720004-13267-043417FM-15+0443SBLP V0201301N003112200019N0112651N1+02901+01401999999ADDGA1021+009001999GF102991999999999999999999MA1101491999999REMMET051METAR SBLP 072000Z 13006KT 9999 FEW030 29/14 Q1015;
0120832880999992009060721004-13267-043417FM-15+0443SBLP V0201301N002112200019N0112651N1+02701+01601999999ADDGA1021+009001999GF102991999999999999999999MA1101591999999REMMET051METAR SBLP 072100Z 13004KT 9999 FEW030 27/16 Q1016;
0072832880999992009060809114-13267-043417FM-16+0443SBLP V0209999C000019999999Y0099001N1+01801+01701999999ADDMA1101801999999REMMET045SPECI SBLP 080911Z 00000KT CAVOK 18/17 Q1018;
0072832880999992009060810004-13267-043417FM-15+0443SBLP V0209999C000019999999Y0099001N1+01801+01601999999ADDMA1101901999999REMMET045METAR SBLP 081000Z 00000KT CAVOK 18/16 Q1019;
0072832880999992009060811004-13267-043417FM-15+0443SBLP V0201801N003119999999Y0099001N1+02201+01801999999ADDMA1101901999999REMMET045METAR SBLP 081100Z 18006KT CAVOK 22/18 Q1019;
0072832880999992009060812004-13267-043417FM-15+0443SBLP V0201801N003119999999Y0099001N1+02201+01801999999ADDMA1101901999999REMMET045METAR SBLP 081200Z 18006KT CAVOK 22/18 Q1019;
0143832880999992009060813004-13267-043417FM-15+0443SBLP V0201201N004112200019N0112651N1+02601+01801999999ADDGA1021+009001999GA2041+030001999GF104991999999999999999999MA1101901999999REMMET058METAR SBLP 081300Z 12008KT 9999 FEW030 SCT100 26/18 Q1019;
0120832880999992009060814004-13267-043417FM-15+0443SBLP V0201201N004112200019N0112651N1+02801+01901999999ADDGA1021+009001999GF102991999999999999999999MA1101901999999REMMET051METAR SBLP 081400Z 12008KT 9999 FEW030 28/19 Q1019;
0120832880999992009060815004-13267-043417FM-15+0443SBLP V0201201N004112200019N0112651N1+02901+01701999999ADDGA1041+009001999GF104991999999999999999999MA1101801999999REMMET051METAR SBLP 081500Z 12008KT 9999 SCT030 29/17 Q1018;
0120832880999992009060816004-13267-043417FM-15+0443SBLP V0201801N003112200019N0112651N1+02901+01701999999ADDGA1041+009001999GF104991999999999999999999MA1101691999999REMMET051METAR SBLP 081600Z 18006KT 9999 SCT030 29/17 Q1017;
0120832880999992009060817004-13267-043417FM-15+0443SBLP V0201801N003112200019N0112651N1+02901+01701999999ADDGA1041+009001999GF104991999999999999999999MA1101691999999REMMET051METAR SBLP 081700Z 18006KT 9999 SCT030 29/17 Q1017;
0120832880999992009060818004-13267-043417FM-15+0443SBLP V0201801N003112200019N0112651N1+03001+01701999999ADDGA1041+009001999GF104991999999999999999999MA1101691999999REMMET051METAR SBLP 081800Z 18006KT 9999 SCT030 30/17 Q1017;
0120832880999992009060819004-13267-043417FM-15+0443SBLP V0200901N003112200019N0112651N1+02901+01701999999ADDGA1041+009001999GF104991999999999999999999MA1101691999999REMMET051METAR SBLP 081900Z 09006KT 9999 SCT030 29/17 Q1017;
0120832880999992009060820004-13267-043417FM-15+0443SBLP V0200901N003112200019N0112651N1+02801+01701999999ADDGA1041+009001999GF104991999999999999999999MA1101691999999REMMET051METAR SBLP 082000Z 09006KT 9999 SCT030 28/17 Q1017;
0120832880999992009060821004-13267-043417FM-15+0443SBLP V0200901N003112200019N0112651N1+02701+01701999999ADDGA1041+009001999GF104991999999999999999999MA1101691999999REMMET051METAR SBLP 082100Z 09006KT 9999 SCT030 27/17 Q1017;
0072832880999992009060909004-13267-043417FM-15+0443SBLP V0201801N003119999999Y0099001N1+01701+01501999999ADDMA1102001999999REMMET045METAR SBLP 090900Z 18006KT CAVOK 17/15 Q1020;
0072832880999992009060910004-13267-043417FM-15+0443SBLP V0201801N003119999999Y0099001N1+01801+01501999999ADDMA1102001999999REMMET045METAR SBLP 091000Z 18006KT CAVOK 18/15 Q1020;
0072832880999992009060911004-13267-043417FM-15+0443SBLP V0201801N003119999999Y0099001N1+02101+01701999999ADDMA1102001999999REMMET045METAR SBLP 091100Z 18006KT CAVOK 21/17 Q1020;
0072832880999992009060912004-13267-043417FM-15+0443SBLP V0201801N003119999999Y0099001N1+02301+01801999999ADDMA1102101999999REMMET045METAR SBLP 091200Z 18006KT CAVOK 23/18 Q1021;
0120832880999992009060913004-13267-043417FM-15+0443SBLP V0201801N003112200019N0112651N1+02601+02001999999ADDGA1021+009001999GF102991999999999999999999MA1102101999999REMMET051METAR SBLP 091300Z 18006KT 9999 FEW030 26/20 Q1021;
0120832880999992009060914004-13267-043417FM-15+0443SBLP V0200901N003112200019N0112651N1+02601+02001999999ADDGA1041+009001999GF104991999999999999999999MA1102001999999REMMET051METAR SBLP 091400Z 09006KT 9999 SCT030 26/20 Q1020;
0120832880999992009060915004-13267-043417FM-15+0443SBLP V0201501N003112200019N0112651N1+02801+02001999999ADDGA1041+009001999GF104991999999999999999999MA1101901999999REMMET051METAR SBLP 091500Z 15006KT 9999 SCT030 28/20 Q1019;
0120832880999992009060916004-13267-043417FM-15+0443SBLP V0201801N003112200019N0112651N1+02901+01901999999ADDGA1041+009001999GF104991999999999999999999MA1101801999999REMMET051METAR SBLP 091600Z 18006KT 9999 SCT030 29/19 Q1018;
0120832880999992009060917004-13267-043417FM-15+0443SBLP V0201801N003112200019N0112651N1+03001+01901999999ADDGA1041+009001999GF104991999999999999999999MA1101691999999REMMET051METAR SBLP 091700Z 18006KT 9999 SCT030 30/19 Q1017;
0120832880999992009060918004-13267-043417FM-15+0443SBLP V0200901N003112200019N0112651N1+03101+01801999999ADDGA1041+009001999GF104991999999999999999999MA1101591999999REMMET051METAR SBLP 091800Z 09006KT 9999 SCT030 31/18 Q1016;
0120832880999992009060919004-13267-043417FM-15+0443SBLP V0200901N003112200019N0112651N1+03101+01701999999ADDGA1021+009001999GF102991999999999999999999MA1101591999999REMMET051METAR SBLP 091900Z 09006KT 9999 FEW030 31/17 Q1016;
0120832880999992009060920004-13267-043417FM-15+0443SBLP V0200901N003112200019N0112651N1+03001+01801999999ADDGA1021+009001999GF102991999999999999999999MA1101591999999REMMET051METAR SBLP 092000Z 09006KT 9999 FEW030 30/18 Q1016;
0120832880999992009060921004-13267-043417FM-15+0443SBLP V0200901N003112200019N0112651N1+02801+01901999999ADDGA1041+009001999GF104991999999999999999999MA1101691999999REMMET051METAR SBLP 092100Z 09006KT 9999 SCT030 28/19 Q1017;
0072832880999992009061009154-13267-043417FM-16+0443SBLP V0209999C000019999999Y0099001N1+01901+01601999999ADDMA1102001999999REMMET045SPECI SBLP 100915Z 00000KT CAVOK 19/16 Q1020;
0072832880999992009061010004-13267-043417FM-15+0443SBLP V0209999C000019999999Y0099001N1+02101+01601999999ADDMA1102001999999REMMET045METAR SBLP 101000Z 00000KT CAVOK 21/16 Q1020;
0072832880999992009061011004-13267-043417FM-15+0443SBLP V0200901N003119999999Y0099001N1+02301+01601999999ADDMA1102101999999REMMET045METAR SBLP 101100Z 09006KT CAVOK 23/16 Q1021;
0072832880999992009061012004-13267-043417FM-15+0443SBLP V0200901N003119999999Y0099001N1+02501+01601999999ADDMA1102101999999REMMET045METAR SBLP 101200Z 09006KT CAVOK 25/16 Q1021;
0120832880999992009061013004-13267-043417FM-15+0443SBLP V0200901N003112200019N0112651N1+02701+01601999999ADDGA1021+009001999GF102991999999999999999999MA1102101999999REMMET051METAR SBLP 101300Z 09006KT 9999 FEW030 27/16 Q1021;
0120832880999992009061014004-13267-043417FM-15+0443SBLP V0201801N003112200019N0112651N1+02901+01601999999ADDGA1021+009001999GF102991999999999999999999MA1102001999999REMMET051METAR SBLP 101400Z 18006KT 9999 FEW030 29/16 Q1020;
0120832880999992009061015004-13267-043417FM-15+0443SBLP V0201801N003112200019N0112651N1+02901+01701999999ADDGA1041+009001999GF104991999999999999999999MA1101901999999REMMET051METAR SBLP 101500Z 18006KT 9999 SCT030 29/17 Q1019;
0120832880999992009061016004-13267-043417FM-15+0443SBLP V0202401N002612200019N0112651N1+02901+01401999999ADDGA1021+009001999GF102991999999999999999999MA1101801999999REMMET051METAR SBLP 101600Z 24005KT 9999 FEW030 29/14 Q1018;
0120832880999992009061017004-13267-043417FM-15+0443SBLP V0202101N003112200019N0112651N1+03001+01401999999ADDGA1021+009001999GF102991999999999999999999MA1101691999999REMMET051METAR SBLP 101700Z 21006KT 9999 FEW030 30/14 Q1017;
0120832880999992009061018004-13267-043417FM-15+0443SBLP V0202001N003112200019N0112651N1+03001+01301999999ADDGA1021+009001999GF102991999999999999999999MA1101591999999REMMET051METAR SBLP 101800Z 20006KT 9999 FEW030 30/13 Q1016;
0120832880999992009061019004-13267-043417FM-15+0443SBLP V0202101N002612200019N0112651N1+03001+01701999999ADDGA1021+009001999GF102991999999999999999999MA1101591999999REMMET051METAR SBLP 101900Z 21005KT 9999 FEW030 30/17 Q1016;
0120832880999992009061020004-13267-043417FM-15+0443SBLP V0202101N002112200019N0112651N1+03001+01701999999ADDGA1021+009001999GF102991999999999999999999MA1101691999999REMMET051METAR SBLP 102000Z 21004KT 9999 FEW030 30/17 Q1017;
0072832880999992009061021004-13267-043417FM-15+0443SBLP V0202101N001019999999Y0099001N1+02701+01701999999ADDMA1101691999999REMMET045METAR SBLP 102100Z 21002KT CAVOK 27/17 Q1017;
0072832880999992009061110004-13267-043417FM-15+0443SBLP V0209999C000019999999Y0099001N1+02201+01801999999ADDMA1101901999999REMMET045METAR SBLP 111000Z 00000KT CAVOK 22/18 Q1019;
0072832880999992009061111004-13267-043417FM-15+0443SBLP V0209999C000019999999Y0099001N1+02401+01801999999ADDMA1102001999999REMMET045METAR SBLP 111100Z 00000KT CAVOK 24/18 Q1020;
0072832880999992009061112004-13267-043417FM-15+0443SBLP V0209999C000019999999Y0099001N1+02601+01801999999ADDMA1102101999999REMMET045METAR SBLP 111200Z 00000KT CAVOK 26/18 Q1021;
0120832880999992009061113004-13267-043417FM-15+0443SBLP V0201801N003112200019N0112651N1+02801+01701999999ADDGA1021+009001999GF102991999999999999999999MA1102101999999REMMET051METAR SBLP 111300Z 18006KT 9999 FEW030 28/17 Q1021;
0120832880999992009061114004-13267-043417FM-15+0443SBLP V0201801N003112200019N0112651N1+02901+01701999999ADDGA1021+009001999GF102991999999999999999999MA1102001999999REMMET051METAR SBLP 111400Z 18006KT 9999 FEW030 29/17 Q1020;
0120832880999992009061115004-13267-043417FM-15+0443SBLP V0200901N003112200019N0112651N1+03001+01701999999ADDGA1041+009001999GF104991999999999999999999MA1101901999999REMMET051METAR SBLP 111500Z 09006KT 9999 SCT030 30/17 Q1019;
0120832880999992009061116004-13267-043417FM-15+0443SBLP V0202101N003112200019N0112651N1+03101+01701999999ADDGA1041+009001999GF104991999999999999999999MA1101801999999REMMET051METAR SBLP 111600Z 21006KT 9999 SCT030 31/17 Q1018;
0120832880999992009061117004-13267-043417FM-15+0443SBLP V0202101N003112200019N0112651N1+03101+01801999999ADDGA1041+009001999GF104991999999999999999999MA1101691999999REMMET051METAR SBLP 111700Z 21006KT 9999 SCT030 31/18 Q1017;
0120832880999992009061118004-13267-043417FM-15+0443SBLP V0202101N003112200019N0112651N1+03101+01801999999ADDGA1041+009001999GF104991999999999999999999MA1101691999999REMMET051METAR SBLP 111800Z 21006KT 9999 SCT030 31/18 Q1017;
0120832880999992009061119004-13267-043417FM-15+0443SBLP V0209999C000012200019N0112651N1+03001+01901999999ADDGA1041+009001999GF104991999999999999999999MA1101691999999REMMET051METAR SBLP 111900Z 00000KT 9999 SCT030 30/19 Q1017;
0120832880999992009061120004-13267-043417FM-15+0443SBLP V0201801N003112200019N0112651N1+02801+02001999999ADDGA1021+009001999GF102991999999999999999999MA1101691999999REMMET051METAR SBLP 112000Z 18006KT 9999 FEW030 28/20 Q1017;
0072832880999992009061121004-13267-043417FM-15+0443SBLP V0201801N003119999999Y0099001N1+02601+02101999999ADDMA1101691999999REMMET045METAR SBLP 112100Z 18006KT CAVOK 26/21 Q1017;
0072832880999992009061210004-13267-043417FM-15+0443SBLP V0202001N001519999999Y0099001N1+01801+01701999999ADDMA1101801999999REMMET045METAR SBLP 121000Z 20003KT CAVOK 18/17 Q1018;
0072832880999992009061211004-13267-043417FM-15+0443SBLP V0201801N001519999999Y0099001N1+02001+01801999999ADDMA1101901999999REMMET045METAR SBLP 121100Z 18003KT CAVOK 20/18 Q1019;
0120832880999992009061212004-13267-043417FM-15+0443SBLP V0202101N001512200019N0112651N1+02401+01801999999ADDGA1021+009001999GF102991999999999999999999MA1101901999999REMMET051METAR SBLP 121200Z 21003KT 9999 FEW030 24/18 Q1019;
0072832880999992009061213004-13267-043417FM-15+0443SBLP V0201301N001019999999Y0099001N1+02701+01701999999ADDMA1101901999999REMMET045METAR SBLP 121300Z 13002KT CAVOK 27/17 Q1019;
0072832880999992009061214004-13267-043417FM-15+0443SBLP V0201801N002119999999Y0099001N1+02801+01801999999ADDMA1101901999999REMMET045METAR SBLP 121400Z 18004KT CAVOK 28/18 Q1019;
0120832880999992009061215004-13267-043417FM-15+0443SBLP V0202301N002612200019N0112651N1+02901+01601999999ADDGA1021+009001999GF102991999999999999999999MA1101801999999REMMET051METAR SBLP 121500Z 23005KT 9999 FEW030 29/16 Q1018;
0143832880999992009061216004-13267-043417FM-15+0443SBLP V0202101N003112200019N0112651N1+03001+01701999999ADDGA1021+009001999GA2041+090001999GF104991999999999999999999MA1101691999999REMMET058METAR SBLP 121600Z 21006KT 9999 FEW030 SCT300 30/17 Q1017;
0143832880999992009061217004-13267-043417FM-15+0443SBLP V0209999C000010900019N0112651N1+03001+01601999999ADDGA1021+009001999GA2071+090001999GF107991999999999999999999MA1101591999999REMMET058METAR SBLP 121700Z 00000KT 9999 FEW030 BKN300 30/16 Q1016;
0120832880999992009061218004-13267-043417FM-15+0443SBLP V0201801N003112200019N0112651N1+03101+01701999999ADDGA1021+009001999GF102991999999999999999999MA1101591999999REMMET051METAR SBLP 121800Z 18006KT 9999 FEW030 31/17 Q1016;
0120832880999992009061219004-13267-043417FM-15+0443SBLP V0201801N003112200019N0112651N1+03101+01701999999ADDGA1021+009001999GF102991999999999999999999MA1101591999999REMMET051METAR SBLP 121900Z 18006KT 9999 FEW030 31/17 Q1016;
0120832880999992009061220004-13267-043417FM-15+0443SBLP V0209999C000012200019N0112651N1+02801+01701999999ADDGA1021+009001999GF102991999999999999999999MA1101591999999REMMET051METAR SBLP 122000Z 00000KT 9999 FEW030 28/17 Q1016;
0072832880999992009061221004-13267-043417FM-15+0443SBLP V0209999C000019999999Y0099001N1+02801+01701999999ADDMA1101591999999REMMET045METAR SBLP 122100Z 00000KT CAVOK 28/17 Q1016;
0072832880999992009061309154-13267-043417FM-16+0443SBLP V0209999C000019999999Y0099001N1+01901+01801999999ADDMA1101691999999REMMET045SPECI SBLP 130915Z 00000KT CAVOK 19/18 Q1017;
0072832880999992009061310004-13267-043417FM-15+0443SBLP V0209999C000019999999Y0099001N1+02101+01801999999ADDMA1101691999999REMMET045METAR SBLP 131000Z 00000KT CAVOK 21/18 Q1017;
0072832880999992009061311004-13267-043417FM-15+0443SBLP V0209999C000019999999Y0099001N1+02401+01801999999ADDMA1101801999999REMMET045METAR SBLP 131100Z 00000KT CAVOK 24/18 Q1018;
0072832880999992009061312004-13267-043417FM-15+0443SBLP V0209999C000019999999Y0099001N1+02601+01701999999ADDMA1101801999999REMMET045METAR SBLP 131200Z 00000KT CAVOK 26/17 Q1018;
0072832880999992009061313004-13267-043417FM-15+0443SBLP V0209999C000019999999Y0099001N1+02801+01701999999ADDMA1101801999999REMMET045METAR SBLP 131300Z 00000KT CAVOK 28/17 Q1018;
0120832880999992009061314004-13267-043417FM-15+0443SBLP V0203601N003112200019N0112651N1+02801+01701999999ADDGA1021+009001999GF102991999999999999999999MA1101691999999REMMET051METAR SBLP 131400Z 36006KT 9999 FEW030 28/17 Q1017;
0120832880999992009061315004-13267-043417FM-15+0443SBLP V0203601N003112200019N0112651N1+02901+01701999999ADDGA1021+009001999GF102991999999999999999999MA1101591999999REMMET051METAR SBLP 131500Z 36006KT 9999 FEW030 29/17 Q1016;
0120832880999992009061316004-13267-043417FM-15+0443SBLP V0209999C000012200019N0112651N1+03001+01701999999ADDGA1021+009001999GF102991999999999999999999MA1101491999999REMMET051METAR SBLP 131600Z 00000KT 9999 FEW030 30/17 Q1015;
0120832880999992009061317004-13267-043417FM-15+0443SBLP V0209999C000012200019N0112651N1+03201+01601999999ADDGA1021+009001999GF102991999999999999999999MA1101391999999REMMET051METAR SBLP 131700Z 00000KT 9999 FEW030 32/16 Q1014;
0120832880999992009061318004-13267-043417FM-15+0443SBLP V0201801N003112200019N0112651N1+03201+01701999999ADDGA1021+009001999GF102991999999999999999999MA1101391999999REMMET051METAR SBLP 131800Z 18006KT 9999 FEW030 32/17 Q1014;
0120832880999992009061319004-13267-043417FM-15+0443SBLP V0202101N003112200019N0112651N1+03201+01701999999ADDGA1021+009001999GF102991999999999999999999MA1101391999999REMMET051METAR SBLP 131900Z 21006KT 9999 FEW030 32/17 Q1014;
0072832880999992009061320004-13267-043417FM-15+0443SBLP V0201801N003119999999Y0099001N1+03001+01901999999ADDMA1101391999999REMMET045METAR SBLP 132000Z 18006KT CAVOK 30/19 Q1014;
0072832880999992009061321004-13267-043417FM-15+0443SBLP V0201801N003119999999Y0099001N1+03001+01901999999ADDMA1101391999999REMMET045METAR SBLP 132100Z 18006KT CAVOK 30/19 Q1014;
0072832880999992009061410004-13267-043417FM-15+0443SBLP V0202101N001519999999Y0099001N1+01901+01701999999ADDMA1101691999999REMMET045METAR SBLP 141000Z 21003KT CAVOK 19/17 Q1017;
0072832880999992009061411004-13267-043417FM-15+0443SBLP V0202101N001519999999Y0099001N1+02001+01801999999ADDMA1101691999999REMMET045METAR SBLP 141100Z 21003KT CAVOK 20/18 Q1017;
0072832880999992009061412004-13267-043417FM-15+0443SBLP V0201801N001019999999Y0099001N1+02401+01801999999ADDMA1101801999999REMMET045METAR SBLP 141200Z 18002KT CAVOK 24/18 Q1018;
0072832880999992009061413004-13267-043417FM-15+0443SBLP V0201801N001019999999Y0099001N1+02701+01701999999ADDMA1101691999999REMMET045METAR SBLP 141300Z 18002KT CAVOK 27/17 Q1017;
0072832880999992009061414004-13267-043417FM-15+0443SBLP V0201801N002619999999Y0099001N1+02901+01801999999ADDMA1101691999999REMMET045METAR SBLP 141400Z 18005KT CAVOK 29/18 Q1017;
0120832880999992009061415004-13267-043417FM-15+0443SBLP V0202101N001512200019N0112651N1+03101+01501999999ADDGA1021+009001999GF102991999999999999999999MA1101591999999REMMET051METAR SBLP 141500Z 21003KT 9999 FEW030 31/15 Q1016;
0120832880999992009061416004-13267-043417FM-15+0443SBLP V0201801N003112200019N0112651N1+03101+01601999999ADDGA1021+009001999GF102991999999999999999999MA1101491999999REMMET051METAR SBLP 141600Z 18006KT 9999 FEW030 31/16 Q1015;
0120832880999992009061417004-13267-043417FM-15+0443SBLP V0201801N003112200019N0112651N1+03201+01601999999ADDGA1041+009001999GF104991999999999999999999MA1101391999999REMMET051METAR SBLP 141700Z 18006KT 9999 SCT030 32/16 Q1014;
0120832880999992009061418004-13267-043417FM-15+0443SBLP V0201801N003112200019N0112651N1+03301+01601999999ADDGA1041+009001999GF104991999999999999999999MA1101391999999REMMET051METAR SBLP 141800Z 18006KT 9999 SCT030 33/16 Q1014;
0120832880999992009061419004-13267-043417FM-15+0443SBLP V0201801N003112200019N0112651N1+03201+01601999999ADDGA1021+009001999GF102991999999999999999999MA1101391999999REMMET051METAR SBLP 141900Z 18006KT 9999 FEW030 32/16 Q1014;
0120832880999992009061420004-13267-043417FM-15+0443SBLP V0201801N003112200019N0112651N1+03201+01601999999ADDGA1021+009001999GF102991999999999999999999MA1101391999999REMMET051METAR SBLP 142000Z 18006KT 9999 FEW030 32/16 Q1014;
0120832880999992009061421004-13267-043417FM-15+0443SBLP V0201801N003112200019N0112651N1+02901+01701999999ADDGA1021+009001999GF102991999999999999999999MA1101491999999REMMET051METAR SBLP 142100Z 18006KT 9999 FEW030 29/17 Q1015;
0072832880999992009061510004-13267-043417FM-15+0443SBLP V0209999C000019999999Y0099001N1+02101+01801999999ADDMA1101691999999REMMET045METAR SBLP 151000Z 00000KT CAVOK 21/18 Q1017;
0072832880999992009061511004-13267-043417FM-15+0443SBLP V0209999C000019999999Y0099001N1+02301+01801999999ADDMA1101901999999REMMET045METAR SBLP 151100Z 00000KT CAVOK 23/18 Q1019;
0072832880999992009061512004-13267-043417FM-15+0443SBLP V0209999C000019999999Y0099001N1+02501+01801999999ADDMA1101901999999REMMET045METAR SBLP 151200Z 00000KT CAVOK 25/18 Q1019;
0072832880999992009061513004-13267-043417FM-15+0443SBLP V0209999C000019999999Y0099001N1+02701+01801999999ADDMA1101901999999REMMET045METAR SBLP 151300Z 00000KT CAVOK 27/18 Q1019;
0072832880999992009061514004-13267-043417FM-15+0443SBLP V0201801N003119999999Y0099001N1+02801+01701999999ADDMA1101801999999REMMET045METAR SBLP 151400Z 18006KT CAVOK 28/17 Q1018;
0072832880999992009061515004-13267-043417FM-15+0443SBLP V0201801N003119999999Y0099001N1+02901+01701999999ADDMA1101691999999REMMET045METAR SBLP 151500Z 18006KT CAVOK 29/17 Q1017;
0072832880999992009061516004-13267-043417FM-15+0443SBLP V0201501N002619999999Y0099001N1+03101+01501999999ADDMA1101591999999REMMET045METAR SBLP 151600Z 15005KT CAVOK 31/15 Q1016;
0120832880999992009061517004-13267-043417FM-15+0443SBLP V0201701N003112200019N0112651N1+03201+01501999999ADDGA1021+009001999GF102991999999999999999999MA1101491999999REMMET051METAR SBLP 151700Z 17006KT 9999 FEW030 32/15 Q1015;
0120832880999992009061518004-13267-043417FM-15+0443SBLP V0201401N002612200019N0112651N1+03201+01501999999ADDGA1021+009001999GF102991999999999999999999MA1101491999999REMMET051METAR SBLP 151800Z 14005KT 9999 FEW030 32/15 Q1015;
0120832880999992009061519004-13267-043417FM-15+0443SBLP V0201801N002612200019N0112651N1+03101+01601999999ADDGA1021+009001999GF102991999999999999999999MA1101491999999REMMET051METAR SBLP 151900Z 18005KT 9999 FEW030 31/16 Q1015;
0072832880999992009061520004-13267-043417FM-15+0443SBLP V0201601N003119999999Y0099001N1+03001+01701999999ADDMA1101491999999REMMET045METAR SBLP 152000Z 16006KT CAVOK 30/17 Q1015;
0072832880999992009061521004-13267-043417FM-15+0443SBLP V0201801N002619999999Y0099001N1+02701+01701999999ADDMA1101591999999REMMET045METAR SBLP 152100Z 18005KT CAVOK 27/17 Q1016;
0072832880999992009061609004-13267-043417FM-15+0443SBLP V0209999C000019999999Y0099001N1+01601+01501999999ADDMA1101801999999REMMET045METAR SBLP 160900Z 00000KT CAVOK 16/15 Q1018;
0072832880999992009061610004-13267-043417FM-15+0443SBLP V0209999C000019999999Y0099001N1+01701+01501999999ADDMA1101801999999REMMET045METAR SBLP 161000Z 00000KT CAVOK 17/15 Q1018;
0072832880999992009061611004-13267-043417FM-15+0443SBLP V0209999C000019999999Y0099001N1+01801+01501999999ADDMA1101901999999REMMET045METAR SBLP 161100Z 00000KT CAVOK 18/15 Q1019;
0072832880999992009061612004-13267-043417FM-15+0443SBLP V0209999C000019999999Y0099001N1+02001+01701999999ADDMA1101901999999REMMET045METAR SBLP 161200Z 00000KT CAVOK 20/17 Q1019;
0072832880999992009061613004-13267-043417FM-15+0443SBLP V0209999C000019999999Y0099001N1+02601+01801999999ADDMA1101901999999REMMET045METAR SBLP 161300Z 00000KT CAVOK 26/18 Q1019;
0072832880999992009061614004-13267-043417FM-15+0443SBLP V0201801N003119999999Y0099001N1+02801+01701999999ADDMA1101801999999REMMET045METAR SBLP 161400Z 18006KT CAVOK 28/17 Q1018;
0072832880999992009061615004-13267-043417FM-15+0443SBLP V0209999C000019999999Y0099001N1+02901+01901999999ADDMA1101691999999REMMET045METAR SBLP 161500Z 00000KT CAVOK 29/19 Q1017;
0120832880999992009061616004-13267-043417FM-15+0443SBLP V0202101N002612200019N0112651N1+03001+01701999999ADDGA1021+009001999GF102991999999999999999999MA1101591999999REMMET051METAR SBLP 161600Z 21005KT 9999 FEW030 30/17 Q1016;
0120832880999992009061617004-13267-043417FM-15+0443SBLP V0201801N002612200019N0112651N1+03101+01601999999ADDGA1021+009001999GF102991999999999999999999MA1101491999999REMMET051METAR SBLP 161700Z 18005KT 9999 FEW030 31/16 Q1015;
0120832880999992009061618004-13267-043417FM-15+0443SBLP V0202301N004112200019N0112651N1+03201+01501999999ADDGA1021+009001999GF102991999999999999999999MA1101391999999REMMET051METAR SBLP 161800Z 23008KT 9999 FEW030 32/15 Q1014;
0120832880999992009061619004-13267-043417FM-15+0443SBLP V0202101N002112200019N0112651N1+03201+01501999999ADDGA1021+009001999GF102991999999999999999999MA1101391999999REMMET051METAR SBLP 161900Z 21004KT 9999 FEW030 32/15 Q1014;
0072832880999992009061620004-13267-043417FM-15+0443SBLP V0201801N001519999999Y0099001N1+03001+01601999999ADDMA1101391999999REMMET045METAR SBLP 162000Z 18003KT CAVOK 30/16 Q1014;
0072832880999992009061621004-13267-043417FM-15+0443SBLP V0201901N001019999999Y0099001N1+02701+01501999999ADDMA1101491999999REMMET045METAR SBLP 162100Z 19002KT CAVOK 27/15 Q1015;
0072832880999992009061710004-13267-043417FM-15+0443SBLP V0209999C000019999999Y0099001N1+01701+01501999999ADDMA1101691999999REMMET045METAR SBLP 171000Z 00000KT CAVOK 17/15 Q1017;
0072832880999992009061711004-13267-043417FM-15+0443SBLP V0209999C000019999999Y0099001N1+02101+01501999999ADDMA1101691999999REMMET045METAR SBLP 171100Z 00000KT CAVOK 21/15 Q1017;
0072832880999992009061712004-13267-043417FM-15+0443SBLP V0209999C000019999999Y0099001N1+02301+01701999999ADDMA1101691999999REMMET045METAR SBLP 171200Z 00000KT CAVOK 23/17 Q1017;
0072832880999992009061713004-13267-043417FM-15+0443SBLP V0209999C000019999999Y0099001N1+02701+01901999999ADDMA1101691999999REMMET045METAR SBLP 171300Z 00000KT CAVOK 27/19 Q1017;
0072832880999992009061714004-13267-043417FM-15+0443SBLP V0209999C000019999999Y0099001N1+02801+01901999999ADDMA1101591999999REMMET045METAR SBLP 171400Z 00000KT CAVOK 28/19 Q1016;
0120832880999992009061715004-13267-043417FM-15+0443SBLP V0209999C000012200019N0112651N1+02901+01901999999ADDGA1021+009001999GF102991999999999999999999MA1101591999999REMMET051METAR SBLP 171500Z 00000KT 9999 FEW030 29/19 Q1016;
0120832880999992009061716004-13267-043417FM-15+0443SBLP V0202101N002112200019N0112651N1+03101+01601999999ADDGA1021+009001999GF102991999999999999999999MA1101491999999REMMET051METAR SBLP 171600Z 21004KT 9999 FEW030 31/16 Q1015;
0120832880999992009061717004-13267-043417FM-15+0443SBLP V0209999C000012200019N0112651N1+03201+01301999999ADDGA1021+009001999GF102991999999999999999999MA1101391999999REMMET051METAR SBLP 171700Z 00000KT 9999 FEW030 32/13 Q1014;
0120832880999992009061718004-13267-043417FM-15+0443SBLP V0202101N003112200019N0112651N1+03201+01301999999ADDGA1021+009001999GF102991999999999999999999MA1101291999999REMMET051METAR SBLP 171800Z 21006KT 9999 FEW030 32/13 Q1013;
0120832880999992009061719004-13267-043417FM-15+0443SBLP V0202001N003112200019N0112651N1+03201+01401999999ADDGA1021+009001999GF102991999999999999999999MA1101291999999REMMET051METAR SBLP 171900Z 20006KT 9999 FEW030 32/14 Q1013;
0072832880999992009061720004-13267-043417FM-15+0443SBLP V0201801N002119999999Y0099001N1+03001+01501999999ADDMA1101391999999REMMET045METAR SBLP 172000Z 18004KT CAVOK 30/15 Q1014;
0072832880999992009061721004-13267-043417FM-15+0443SBLP V0209999C000019999999Y0099001N1+02701+01501999999ADDMA1101391999999REMMET045METAR SBLP 172100Z 00000KT CAVOK 27/15 Q1014;
0072832880999992009061810004-13267-043417FM-15+0443SBLP V0209999C000019999999Y0099001N1+01801+01601999999ADDMA1101591999999REMMET045METAR SBLP 181000Z 00000KT CAVOK 18/16 Q1016;
0072832880999992009061811004-13267-043417FM-15+0443SBLP V0209999C000019999999Y0099001N1+02001+01601999999ADDMA1101691999999REMMET045METAR SBLP 181100Z 00000KT CAVOK 20/16 Q1017;
0072832880999992009061812004-13267-043417FM-15+0443SBLP V0209999C000019999999Y0099001N1+02501+02101999999ADDMA1101801999999REMMET045METAR SBLP 181200Z 00000KT CAVOK 25/21 Q1018;
0072832880999992009061813004-13267-043417FM-15+0443SBLP V0209999C000019999999Y0099001N1+02701+02001999999ADDMA1101691999999REMMET045METAR SBLP 181300Z 00000KT CAVOK 27/20 Q1017;
0072832880999992009061814004-13267-043417FM-15+0443SBLP V0209999C000019999999Y0099001N1+02801+02001999999ADDMA1101691999999REMMET045METAR SBLP 181400Z 00000KT CAVOK 28/20 Q1017;
0120832880999992009061815004-13267-043417FM-15+0443SBLP V0209999C000012200019N0112651N1+03101+01901999999ADDGA1021+009001999GF102991999999999999999999MA1101591999999REMMET051METAR SBLP 181500Z 00000KT 9999 FEW030 31/19 Q1016;
0120832880999992009061816004-13267-043417FM-15+0443SBLP V0202101N004112200019N0112651N1+03201+01701999999ADDGA1021+009001999GF102991999999999999999999MA1101491999999REMMET051METAR SBLP 181600Z 21008KT 9999 FEW030 32/17 Q1015;
0120832880999992009061817004-13267-043417FM-15+0443SBLP V0202401N002112200019N0112651N1+03201+01601999999ADDGA1041+009001999GF104991999999999999999999MA1101391999999REMMET051METAR SBLP 181700Z 24004KT 9999 SCT030 32/16 Q1014;
0120832880999992009061818004-13267-043417FM-15+0443SBLP V0202301N004112200019N0112651N1+03301+01501999999ADDGA1041+009001999GF104991999999999999999999MA1101391999999REMMET051METAR SBLP 181800Z 23008KT 9999 SCT030 33/15 Q1014;
0120832880999992009061819004-13267-043417FM-15+0443SBLP V0202401N002112200019N0112651N1+03301+01501999999ADDGA1021+009001999GF102991999999999999999999MA1101391999999REMMET051METAR SBLP 181900Z 24004KT 9999 FEW030 33/15 Q1014;
0120832880999992009061820004-13267-043417FM-15+0443SBLP V0202101N001012200019N0112651N1+03101+01601999999ADDGA1021+009001999GF102991999999999999999999MA1101391999999REMMET051METAR SBLP 182000Z 21002KT 9999 FEW030 31/16 Q1014;
0072832880999992009061821004-13267-043417FM-15+0443SBLP V0209999C000019999999Y0099001N1+02801+01801999999ADDMA1101491999999REMMET045METAR SBLP 182100Z 00000KT CAVOK 28/18 Q1015;
0072832880999992009061909074-13267-043417FM-16+0443SBLP V0202101N002119999999Y0099001N1+01901+01601999999ADDMA1101591999999REMMET045SPECI SBLP 190907Z 21004KT CAVOK 19/16 Q1016;
0072832880999992009061910004-13267-043417FM-15+0443SBLP V0201801N002119999999Y0099001N1+01901+01701999999ADDMA1101691999999REMMET045METAR SBLP 191000Z 18004KT CAVOK 19/17 Q1017;
0072832880999992009061911004-13267-043417FM-15+0443SBLP V0209999C000019999999Y0099001N1+02101+01601999999ADDMA1101691999999REMMET045METAR SBLP 191100Z 00000KT CAVOK 21/16 Q1017;
0072832880999992009061912004-13267-043417FM-15+0443SBLP V0200901N002119999999Y0099001N1+02601+01601999999ADDMA1101801999999REMMET045METAR SBLP 191200Z 09004KT CAVOK 26/16 Q1018;
0072832880999992009061913004-13267-043417FM-15+0443SBLP V0209999C000019999999Y0099001N1+02801+01601999999ADDMA1101801999999REMMET045METAR SBLP 191300Z 00000KT CAVOK 28/16 Q1018;
0072832880999992009061914004-13267-043417FM-15+0443SBLP V0209999C000019999999Y0099001N1+03001+01601999999ADDMA1101691999999REMMET045METAR SBLP 191400Z 00000KT CAVOK 30/16 Q1017;
0072832880999992009061915004-13267-043417FM-15+0443SBLP V0209999C000019999999Y0099001N1+03001+01501999999ADDMA1101691999999REMMET045METAR SBLP 191500Z 00000KT CAVOK 30/15 Q1017;
0120832880999992009061916004-13267-043417FM-15+0443SBLP V0209999C000012200019N0112651N1+03201+01601999999ADDGA1021+009001999GF102991999999999999999999MA1101491999999REMMET051METAR SBLP 191600Z 00000KT 9999 FEW030 32/16 Q1015;
0120832880999992009061917004-13267-043417FM-15+0443SBLP V0209999C000012200019N0112651N1+03301+01601999999ADDGA1021+009001999GF102991999999999999999999MA1101391999999REMMET051METAR SBLP 191700Z 00000KT 9999 FEW030 33/16 Q1014;
0120832880999992009061918004-13267-043417FM-15+0443SBLP V0201801N003112200019N0112651N1+03401+01601999999ADDGA1041+009001999GF104991999999999999999999MA1101391999999REMMET051METAR SBLP 191800Z 18006KT 9999 SCT030 34/16 Q1014;
0120832880999992009061919004-13267-043417FM-15+0443SBLP V0201801N003112200019N0112651N1+03301+01601999999ADDGA1041+009001999GF104991999999999999999999MA1101391999999REMMET051METAR SBLP 191900Z 18006KT 9999 SCT030 33/16 Q1014;
0120832880999992009061920004-13267-043417FM-15+0443SBLP V0201801N003112200019N0112651N1+03201+01601999999ADDGA1041+009001999GF104991999999999999999999MA1101491999999REMMET051METAR SBLP 192000Z 18006KT 9999 SCT030 32/16 Q1015;
0120832880999992009061921004-13267-043417FM-15+0443SBLP V0201801N003112200019N0112651N1+03001+01701999999ADDGA1021+009001999GF102991999999999999999999MA1101491999999REMMET051METAR SBLP 192100Z 18006KT 9999 FEW030 30/17 Q1015;
0072832880999992009062010004-13267-043417FM-15+0443SBLP V0209999C000019999999Y0099001N1+02101+01801999999ADDMA1101801999999REMMET045METAR SBLP 201000Z 00000KT CAVOK 21/18 Q1018;
0072832880999992009062011004-13267-043417FM-15+0443SBLP V0209999C000019999999Y0099001N1+02401+01801999999ADDMA1101901999999REMMET045METAR SBLP 201100Z 00000KT CAVOK 24/18 Q1019;
0072832880999992009062012004-13267-043417FM-15+0443SBLP V0209999C000019999999Y0099001N1+02601+01701999999ADDMA1101901999999REMMET045METAR SBLP 201200Z 00000KT CAVOK 26/17 Q1019;
0072832880999992009062013004-13267-043417FM-15+0443SBLP V0200901N003119999999Y0099001N1+02801+01701999999ADDMA1101901999999REMMET045METAR SBLP 201300Z 09006KT CAVOK 28/17 Q1019;
0072832880999992009062014004-13267-043417FM-15+0443SBLP V0200901N003119999999Y0099001N1+02901+01601999999ADDMA1101901999999REMMET045METAR SBLP 201400Z 09006KT CAVOK 29/16 Q1019;
0072832880999992009062015004-13267-043417FM-15+0443SBLP V0209999C000019999999Y0099001N1+03001+01601999999ADDMA1101801999999REMMET045METAR SBLP 201500Z 00000KT CAVOK 30/16 Q1018;
0120832880999992009062016004-13267-043417FM-15+0443SBLP V0202401N002612200019N0112651N1+03001+01501999999ADDGA1021+009001999GF102991999999999999999999MA1101691999999REMMET051METAR SBLP 201600Z 24005KT 9999 FEW030 30/15 Q1017;
0120832880999992009062017004-13267-043417FM-15+0443SBLP V0201601N003612200019N0112651N1+03101+01401999999ADDGA1021+009001999GF102991999999999999999999MA1101591999999REMMET051METAR SBLP 201700Z 16007KT 9999 FEW030 31/14 Q1016;
0120832880999992009062018004-13267-043417FM-15+0443SBLP V0201701N004112200019N0112651N1+03201+01201999999ADDGA1021+009001999GF102991999999999999999999MA1101491999999REMMET051METAR SBLP 201800Z 17008KT 9999 FEW030 32/12 Q1015;
0120832880999992009062019004-13267-043417FM-15+0443SBLP V0201901N004112200019N0112651N1+03101+01401999999ADDGA1021+009001999GF102991999999999999999999MA1101491999999REMMET051METAR SBLP 201900Z 19008KT 9999 FEW030 31/14 Q1015;
0072832880999992009062020004-13267-043417FM-15+0443SBLP V0201501N002619999999Y0099001N1+03001+01301999999ADDMA1101491999999REMMET045METAR SBLP 202000Z 15005KT CAVOK 30/13 Q1015;
0072832880999992009062021004-13267-043417FM-15+0443SBLP V0201501N003119999999Y0099001N1+02701+01301999999ADDMA1101591999999REMMET045METAR SBLP 202100Z 15006KT CAVOK 27/13 Q1016;
0072832880999992009062109094-13267-043417FM-16+0443SBLP V0201801N002119999999Y0099001N1+01701+01501999999ADDMA1101691999999REMMET045SPECI SBLP 210909Z 18004KT CAVOK 17/15 Q1017;
0072832880999992009062110004-13267-043417FM-15+0443SBLP V0201801N002119999999Y0099001N1+01801+01501999999ADDMA1101801999999REMMET045METAR SBLP 211000Z 18004KT CAVOK 18/15 Q1018;
0072832880999992009062111004-13267-043417FM-15+0443SBLP V0201501N002119999999Y0099001N1+02001+01601999999ADDMA1101901999999REMMET045METAR SBLP 211100Z 15004KT CAVOK 20/16 Q1019;
0072832880999992009062112004-13267-043417FM-15+0443SBLP V0201701N002619999999Y0099001N1+02401+01501999999ADDMA1101901999999REMMET045METAR SBLP 211200Z 17005KT CAVOK 24/15 Q1019;
0072832880999992009062113004-13267-043417FM-15+0443SBLP V0201801N001519999999Y0099001N1+02601+01501999999ADDMA1101901999999REMMET045METAR SBLP 211300Z 18003KT CAVOK 26/15 Q1019;
0120832880999992009062114004-13267-043417FM-15+0443SBLP V0201901N003112200019N0112651N1+02801+01401999999ADDGA1021+009001999GF102991999999999999999999MA1101901999999REMMET051METAR SBLP 211400Z 19006KT 9999 FEW030 28/14 Q1019;
0120832880999992009062115004-13267-043417FM-15+0443SBLP V0201601N002112200019N0112651N1+02901+01401999999ADDGA1021+009001999GF102991999999999999999999MA1101691999999REMMET051METAR SBLP 211500Z 16004KT 9999 FEW030 29/14 Q1017;
0120832880999992009062116004-13267-043417FM-15+0443SBLP V0201801N003112200019N0112651N1+03001+01401999999ADDGA1021+009001999GF102991999999999999999999MA1101591999999REMMET051METAR SBLP 211600Z 18006KT 9999 FEW030 30/14 Q1016;
0120832880999992009062117004-13267-043417FM-15+0443SBLP V0201801N003112200019N0112651N1+03201+01401999999ADDGA1041+009001999GF104991999999999999999999MA1101491999999REMMET051METAR SBLP 211700Z 18006KT 9999 SCT030 32/14 Q1015;
0120832880999992009062118004-13267-043417FM-15+0443SBLP V0201801N003112200019N0112651N1+03301+01401999999ADDGA1041+009001999GF104991999999999999999999MA1101391999999REMMET051METAR SBLP 211800Z 18006KT 9999 SCT030 33/14 Q1014;
0120832880999992009062119004-13267-043417FM-15+0443SBLP V0201801N003112200019N0112651N1+03201+01401999999ADDGA1021+009001999GF102991999999999999999999MA1101391999999REMMET051METAR SBLP 211900Z 18006KT 9999 FEW030 32/14 Q1014;
0120832880999992009062120004-13267-043417FM-15+0443SBLP V0201801N003112200019N0112651N1+03101+01401999999ADDGA1021+009001999GF102991999999999999999999MA1101491999999REMMET051METAR SBLP 212000Z 18006KT 9999 FEW030 31/14 Q1015;
0072832880999992009062121004-13267-043417FM-15+0443SBLP V0209999C000019999999Y0099001N1+02901+01501999999ADDMA1101491999999REMMET045METAR SBLP 212100Z 00000KT CAVOK 29/15 Q1015;
0120832880999992009062210004-13267-043417FM-15+0443SBLP V0202001N002112200019N0112651N1+01601+01501999999ADDGA1021+009001999GF102991999999999999999999MA1101691999999REMMET051METAR SBLP 221000Z 20004KT 9999 FEW030 16/15 Q1017;
0072832880999992009062211004-13267-043417FM-15+0443SBLP V0201801N001519999999Y0099001N1+01901+01501999999ADDMA1101801999999REMMET045METAR SBLP 221100Z 18003KT CAVOK 19/15 Q1018;
0072832880999992009062212004-13267-043417FM-15+0443SBLP V0202101N001519999999Y0099001N1+02301+01601999999ADDMA1101801999999REMMET045METAR SBLP 221200Z 21003KT CAVOK 23/16 Q1018;
0072832880999992009062213004-13267-043417FM-15+0443SBLP V0201901N001519999999Y0099001N1+02601+01501999999ADDMA1101801999999REMMET045METAR SBLP 221300Z 19003KT CAVOK 26/15 Q1018;
0072832880999992009062214004-13267-043417FM-15+0443SBLP V0201201N001519999999Y0099001N1+02801+01501999999ADDMA1101801999999REMMET045METAR SBLP 221400Z 12003KT CAVOK 28/15 Q1018;
0120832880999992009062215004-13267-043417FM-15+0443SBLP V0201901N003112200019N0112651N1+02901+01601999999ADDGA1021+009001999GF102991999999999999999999MA1101691999999REMMET051METAR SBLP 221500Z 19006KT 9999 FEW030 29/16 Q1017;
0120832880999992009062216004-13267-043417FM-15+0443SBLP V0202701N003112200019N0112651N1+02901+01601999999ADDGA1021+009001999GF102991999999999999999999MA1101591999999REMMET051METAR SBLP 221600Z 27006KT 9999 FEW030 29/16 Q1016;
0120832880999992009062217004-13267-043417FM-15+0443SBLP V0202701N003112200019N0112651N1+03001+01501999999ADDGA1021+009001999GF102991999999999999999999MA1101491999999REMMET051METAR SBLP 221700Z 27006KT 9999 FEW030 30/15 Q1015;
0120832880999992009062218004-13267-043417FM-15+0443SBLP V0202101N003112200019N0112651N1+03101+01601999999ADDGA1021+009001999GF102991999999999999999999MA1101391999999REMMET051METAR SBLP 221800Z 21006KT 9999 FEW030 31/16 Q1014;
0120832880999992009062219004-13267-043417FM-15+0443SBLP V0209999C000012200019N0112651N1+03101+01601999999ADDGA1021+009001999GF102991999999999999999999MA1101291999999REMMET051METAR SBLP 221900Z 00000KT 9999 FEW030 31/16 Q1013;
0120832880999992009062220004-13267-043417FM-15+0443SBLP V0202101N003112200019N0112651N1+03201+01601999999ADDGA1021+009001999GF102991999999999999999999MA1101291999999REMMET051METAR SBLP 222000Z 21006KT 9999 FEW030 32/16 Q1013;
0072832880999992009062221004-13267-043417FM-15+0443SBLP V0209999C000019999999Y0099001N1+03001+01701999999ADDMA1101391999999REMMET045METAR SBLP 222100Z 00000KT CAVOK 30/17 Q1014;
0072832880999992009062310004-13267-043417FM-15+0443SBLP V0202101N003119999999Y0099001N1+01701+01501999999ADDMA1101691999999REMMET045METAR SBLP 231000Z 21006KT CAVOK 17/15 Q1017;
0072832880999992009062311004-13267-043417FM-15+0443SBLP V0209999C000019999999Y0099001N1+02001+01601999999ADDMA1101801999999REMMET045METAR SBLP 231100Z 00000KT CAVOK 20/16 Q1018;
0072832880999992009062312004-13267-043417FM-15+0443SBLP V0209999C000019999999Y0099001N1+02401+01701999999ADDMA1101901999999REMMET045METAR SBLP 231200Z 00000KT CAVOK 24/17 Q1019;
0072832880999992009062313004-13267-043417FM-15+0443SBLP V0200301N003119999999Y0099001N1+02701+01501999999ADDMA1101901999999REMMET045METAR SBLP 231300Z 03006KT CAVOK 27/15 Q1019;
0120832880999992009062314004-13267-043417FM-15+0443SBLP V0209999C000012200019N0112651N1+02901+01601999999ADDGA1021+009001999GF102991999999999999999999MA1101801999999REMMET051METAR SBLP 231400Z 00000KT 9999 FEW030 29/16 Q1018;
0120832880999992009062315004-13267-043417FM-15+0443SBLP V0209999C000012200019N0112651N1+03001+01501999999ADDGA1021+009001999GF102991999999999999999999MA1101691999999REMMET051METAR SBLP 231500Z 00000KT 9999 FEW030 30/15 Q1017;
0120832880999992009062316004-13267-043417FM-15+0443SBLP V0201201N003112200019N0112651N1+03101+01401999999ADDGA1021+009001999GF102991999999999999999999MA1101591999999REMMET051METAR SBLP 231600Z 12006KT 9999 FEW030 31/14 Q1016;
0072832880999992009062317004-13267-043417FM-15+0443SBLP V0209999C000019999999Y0099001N1+03201+01301999999ADDMA1101491999999REMMET045METAR SBLP 231700Z 00000KT CAVOK 32/13 Q1015;
0072832880999992009062318004-13267-043417FM-15+0443SBLP V0202401N001519999999Y0099001N1+03201+01301999999ADDMA1101391999999REMMET045METAR SBLP 231800Z 24003KT CAVOK 32/13 Q1014;
0072832880999992009062319004-13267-043417FM-15+0443SBLP V0201801N002119999999Y0099001N1+03201+01301999999ADDMA1101391999999REMMET045METAR SBLP 231900Z 18004KT CAVOK 32/13 Q1014;
0072832880999992009062320004-13267-043417FM-15+0443SBLP V0201801N002119999999Y0099001N1+03101+01601999999ADDMA1101391999999REMMET045METAR SBLP 232000Z 18004KT CAVOK 31/16 Q1014;
0072832880999992009062321004-13267-043417FM-15+0443SBLP V0202001N002119999999Y0099001N1+02801+01701999999ADDMA1101491999999REMMET045METAR SBLP 232100Z 20004KT CAVOK 28/17 Q1015;
0072832880999992009062409094-13267-043417FM-16+0443SBLP V0202101N001519999999Y0099001N1+01801+01601999999ADDMA1101801999999REMMET045SPECI SBLP 240909Z 21003KT CAVOK 18/16 Q1018;
0072832880999992009062410004-13267-043417FM-15+0443SBLP V0202101N002119999999Y0099001N1+01801+01701999999ADDMA1101801999999REMMET045METAR SBLP 241000Z 21004KT CAVOK 18/17 Q1018;
0072832880999992009062411004-13267-043417FM-15+0443SBLP V0202101N002119999999Y0099001N1+02001+01701999999ADDMA1101901999999REMMET045METAR SBLP 241100Z 21004KT CAVOK 20/17 Q1019;
0072832880999992009062412004-13267-043417FM-15+0443SBLP V0202301N002119999999Y0099001N1+02401+01801999999ADDMA1101901999999REMMET045METAR SBLP 241200Z 23004KT CAVOK 24/18 Q1019;
0072832880999992009062413004-13267-043417FM-15+0443SBLP V0201801N003119999999Y0099001N1+02701+01701999999ADDMA1101901999999REMMET045METAR SBLP 241300Z 18006KT CAVOK 27/17 Q1019;
0072832880999992009062414004-13267-043417FM-15+0443SBLP V0202101N002119999999Y0099001N1+02901+01701999999ADDMA1101901999999REMMET045METAR SBLP 241400Z 21004KT CAVOK 29/17 Q1019;
0072832880999992009062415004-13267-043417FM-15+0443SBLP V0202101N004119999999Y0099001N1+03101+01601999999ADDMA1101691999999REMMET045METAR SBLP 241500Z 21008KT CAVOK 31/16 Q1017;
0120832880999992009062416004-13267-043417FM-15+0443SBLP V0201801N003112200019N0112651N1+03301+01401999999ADDGA1021+009001999GF102991999999999999999999MA1101691999999REMMET051METAR SBLP 241600Z 18006KT 9999 FEW030 33/14 Q1017;
0120832880999992009062417004-13267-043417FM-15+0443SBLP V0201801N002112200019N0112651N1+03301+01301999999ADDGA1021+009001999GF102991999999999999999999MA1101491999999REMMET051METAR SBLP 241700Z 18004KT 9999 FEW030 33/13 Q1015;
0120832880999992009062418004-13267-043417FM-15+0443SBLP V0202101N001012200019N0112651N1+03401+01501999999ADDGA1021+009001999GF102991999999999999999999MA1101491999999REMMET051METAR SBLP 241800Z 21002KT 9999 FEW030 34/15 Q1015;
0120832880999992009062419004-13267-043417FM-15+0443SBLP V0201301N001512200019N0112651N1+03401+01401999999ADDGA1021+009001999GF102991999999999999999999MA1101491999999REMMET051METAR SBLP 241900Z 13003KT 9999 FEW030 34/14 Q1015;
0072832880999992009062421004-13267-043417FM-15+0443SBLP V0201801N001019999999Y0099001N1+03001+01701999999ADDMA1101491999999REMMET045METAR SBLP 242100Z 18002KT CAVOK 30/17 Q1015;
0072832880999992009062510004-13267-043417FM-15+0443SBLP V0209999C000019999999Y0099001N1+01801+01601999999ADDMA1101801999999REMMET045METAR SBLP 251000Z 00000KT CAVOK 18/16 Q1018;
0072832880999992009062511004-13267-043417FM-15+0443SBLP V0209999C000019999999Y0099001N1+02001+01701999999ADDMA1101901999999REMMET045METAR SBLP 251100Z 00000KT CAVOK 20/17 Q1019;
0072832880999992009062512004-13267-043417FM-15+0443SBLP V0209999C000019999999Y0099001N1+02501+01701999999ADDMA1102001999999REMMET045METAR SBLP 251200Z 00000KT CAVOK 25/17 Q1020;
0072832880999992009062513004-13267-043417FM-15+0443SBLP V0209999C000019999999Y0099001N1+02801+01601999999ADDMA1102001999999REMMET045METAR SBLP 251300Z 00000KT CAVOK 28/16 Q1020;
0072832880999992009062514004-13267-043417FM-15+0443SBLP V0203301N003119999999Y0099001N1+03001+01601999999ADDMA1101901999999REMMET045METAR SBLP 251400Z 33006KT CAVOK 30/16 Q1019;
0120832880999992009062516004-13267-043417FM-15+0443SBLP V0201201N002112200019N0112651N1+03201+01201999999ADDGA1021+009001999GF102991999999999999999999MA1101691999999REMMET051METAR SBLP 251600Z 12004KT 9999 FEW030 32/12 Q1017;
0120832880999992009062517004-13267-043417FM-15+0443SBLP V0209999C000012200019N0112651N1+03301+01201999999ADDGA1021+009001999GF102991999999999999999999MA1101591999999REMMET051METAR SBLP 251700Z 00000KT 9999 FEW030 33/12 Q1016;
0120832880999992009062518004-13267-043417FM-15+0443SBLP V0209999C000012200019N0112651N1+03401+01201999999ADDGA1021+009001999GF102991999999999999999999MA1101491999999REMMET051METAR SBLP 251800Z 00000KT 9999 FEW030 34/12 Q1015;
0120832880999992009062519004-13267-043417FM-15+0443SBLP V0200601N003112200019N0112651N1+03401+01101999999ADDGA1021+009001999GF102991999999999999999999MA1101491999999REMMET051METAR SBLP 251900Z 06006KT 9999 FEW030 34/11 Q1015;
0120832880999992009062520004-13267-043417FM-15+0443SBLP V0201701N001512200019N0112651N1+03301+01401999999ADDGA1021+009001999GF102991999999999999999999MA1101491999999REMMET051METAR SBLP 252000Z 17003KT 9999 FEW030 33/14 Q1015;
0072832880999992009062521004-13267-043417FM-15+0443SBLP V0201801N001019999999Y0099001N1+02901+01601999999ADDMA1101591999999REMMET045METAR SBLP 252100Z 18002KT CAVOK 29/16 Q1016;
0072832880999992009062610004-13267-043417FM-15+0443SBLP V0202301N001519999999Y0099001N1+01801+01601999999ADDMA1101901999999REMMET045METAR SBLP 261000Z 23003KT CAVOK 18/16 Q1019;
0072832880999992009062611004-13267-043417FM-15+0443SBLP V0209999C000019999999Y0099001N1+02101+01601999999ADDMA1101901999999REMMET045METAR SBLP 261100Z 00000KT CAVOK 21/16 Q1019;
0072832880999992009062612004-13267-043417FM-15+0443SBLP V0202201N001519999999Y0099001N1+02401+01801999999ADDMA1102001999999REMMET045METAR SBLP 261200Z 22003KT CAVOK 24/18 Q1020;
0072832880999992009062613004-13267-043417FM-15+0443SBLP V0209999C000019999999Y0099001N1+02701+01601999999ADDMA1102001999999REMMET045METAR SBLP 261300Z 00000KT CAVOK 27/16 Q1020;
0072832880999992009062614004-13267-043417FM-15+0443SBLP V0202101N001519999999Y0099001N1+02901+01501999999ADDMA1101901999999REMMET045METAR SBLP 261400Z 21003KT CAVOK 29/15 Q1019;
0120832880999992009062615004-13267-043417FM-15+0443SBLP V0202501N002112200019N0112651N1+03001+01401999999ADDGA1021+009001999GF102991999999999999999999MA1101801999999REMMET051METAR SBLP 261500Z 25004KT 9999 FEW030 30/14 Q1018;
0120832880999992009062616004-13267-043417FM-15+0443SBLP V0202401N003112200019N0112651N1+03001+01401999999ADDGA1021+009001999GF102991999999999999999999MA1101691999999REMMET051METAR SBLP 261600Z 24006KT 9999 FEW030 30/14 Q1017;
0120832880999992009062617004-13267-043417FM-15+0443SBLP V0202401N003112200019N0112651N1+03201+01301999999ADDGA1021+009001999GF102991999999999999999999MA1101591999999REMMET051METAR SBLP 261700Z 24006KT 9999 FEW030 32/13 Q1016;
0120832880999992009062618004-13267-043417FM-15+0443SBLP V0209999C000012200019N0112651N1+03301+01301999999ADDGA1021+009001999GF102991999999999999999999MA1101591999999REMMET051METAR SBLP 261800Z 00000KT 9999 FEW030 33/13 Q1016;
0072832880999992009062619004-13267-043417FM-15+0443SBLP V0202101N003119999999Y0099001N1+03201+01301999999ADDMA1101591999999REMMET045METAR SBLP 261900Z 21006KT CAVOK 32/13 Q1016;
0072832880999992009062620004-13267-043417FM-15+0443SBLP V0209999C000019999999Y0099001N1+02901+01501999999ADDMA1101591999999REMMET045METAR SBLP 262000Z 00000KT CAVOK 29/15 Q1016;
0072832880999992009062621004-13267-043417FM-15+0443SBLP V0209999C000019999999Y0099001N1+02801+01601999999ADDMA1101691999999REMMET045METAR SBLP 262100Z 00000KT CAVOK 28/16 Q1017;
0072832880999992009062709124-13267-043417FM-16+0443SBLP V0209999C000019999999Y0099001N1+01901+01601999999ADDMA1101901999999REMMET045SPECI SBLP 270912Z 00000KT CAVOK 19/16 Q1019;
0072832880999992009062710004-13267-043417FM-15+0443SBLP V0209999C000019999999Y0099001N1+01801+01601999999ADDMA1102001999999REMMET045METAR SBLP 271000Z 00000KT CAVOK 18/16 Q1020;
0072832880999992009062711004-13267-043417FM-15+0443SBLP V0209999C000019999999Y0099001N1+02101+01601999999ADDMA1102001999999REMMET045METAR SBLP 271100Z 00000KT CAVOK 21/16 Q1020;
0072832880999992009062712004-13267-043417FM-15+0443SBLP V0209999C000019999999Y0099001N1+02401+02101999999ADDMA1102101999999REMMET045METAR SBLP 271200Z 00000KT CAVOK 24/21 Q1021;
0072832880999992009062713004-13267-043417FM-15+0443SBLP V0209999C000019999999Y0099001N1+02701+01801999999ADDMA1102101999999REMMET045METAR SBLP 271300Z 00000KT CAVOK 27/18 Q1021;
0072832880999992009062714004-13267-043417FM-15+0443SBLP V0209999C000019999999Y0099001N1+02801+01901999999ADDMA1102001999999REMMET045METAR SBLP 271400Z 00000KT CAVOK 28/19 Q1020;
0120832880999992009062720004-13267-043417FM-15+0443SBLP V0201501N005112200019N0112651N1+03101+01401999999ADDGA1021+009001999GF102991999999999999999999MA1101691999999REMMET051METAR SBLP 272000Z 15010KT 9999 FEW030 31/14 Q1017;
0120832880999992009062721004-13267-043417FM-15+0443SBLP V0201501N004112200019N0112651N1+02901+01501999999ADDGA1041+009001999GF104991999999999999999999MA1101691999999REMMET051METAR SBLP 272100Z 15008KT 9999 SCT030 29/15 Q1017;
0072832880999992009062809124-13267-043417FM-16+0443SBLP V0209999C000019999999Y0099001N1+01901+01601999999ADDMA1101901999999REMMET045SPECI SBLP 280912Z 00000KT CAVOK 19/16 Q1019;
0072832880999992009062810004-13267-043417FM-15+0443SBLP V0209999C000019999999Y0099001N1+01801+01501999999ADDMA1102001999999REMMET045METAR SBLP 281000Z 00000KT CAVOK 18/15 Q1020;
0072832880999992009062811004-13267-043417FM-15+0443SBLP V0209999C000019999999Y0099001N1+02201+01501999999ADDMA1102001999999REMMET045METAR SBLP 281100Z 00000KT CAVOK 22/15 Q1020;
0072832880999992009062812004-13267-043417FM-15+0443SBLP V0209999C000019999999Y0099001N1+02401+01801999999ADDMA1102001999999REMMET045METAR SBLP 281200Z 00000KT CAVOK 24/18 Q1020;
0072832880999992009062813004-13267-043417FM-15+0443SBLP V0202101N003119999999Y0099001N1+02701+02001999999ADDMA1102001999999REMMET045METAR SBLP 281300Z 21006KT CAVOK 27/20 Q1020;
0072832880999992009062814004-13267-043417FM-15+0443SBLP V0209999C000019999999Y0099001N1+02901+02001999999ADDMA1102001999999REMMET045METAR SBLP 281400Z 00000KT CAVOK 29/20 Q1020;
0072832880999992009062815004-13267-043417FM-15+0443SBLP V0202101N003119999999Y0099001N1+03001+02001999999ADDMA1101801999999REMMET045METAR SBLP 281500Z 21006KT CAVOK 30/20 Q1018;
0120832880999992009062816004-13267-043417FM-15+0443SBLP V0202701N003112200019N0112651N1+03101+01801999999ADDGA1021+009001999GF102991999999999999999999MA1101691999999REMMET051METAR SBLP 281600Z 27006KT 9999 FEW030 31/18 Q1017;
0120832880999992009062817004-13267-043417FM-15+0443SBLP V0202101N003112200019N0112651N1+03201+01601999999ADDGA1021+009001999GF102991999999999999999999MA1101591999999REMMET051METAR SBLP 281700Z 21006KT 9999 FEW030 32/16 Q1016;
0120832880999992009062818004-13267-043417FM-15+0443SBLP V0202201N004112200019N0112651N1+03201+01501999999ADDGA1021+009001999GF102991999999999999999999MA1101491999999REMMET051METAR SBLP 281800Z 22008KT 9999 FEW030 32/15 Q1015;
0120832880999992009062819004-13267-043417FM-15+0443SBLP V0202101N002112200019N0112651N1+03201+01501999999ADDGA1021+009001999GF102991999999999999999999MA1101491999999REMMET051METAR SBLP 281900Z 21004KT 9999 FEW030 32/15 Q1015;
0120832880999992009062820004-13267-043417FM-15+0443SBLP V0202101N001512200019N0112651N1+03101+01501999999ADDGA1021+009001999GF102991999999999999999999MA1101491999999REMMET051METAR SBLP 282000Z 21003KT 9999 FEW030 31/15 Q1015;
0120832880999992009062821004-13267-043417FM-15+0443SBLP V0209999C000012200019N0112651N1+02901+01601999999ADDGA1021+009001999GF102991999999999999999999MA1101591999999REMMET051METAR SBLP 282100Z 00000KT 9999 FEW030 29/16 Q1016;
0072832880999992009062910004-13267-043417FM-15+0443SBLP V0202101N002119999999Y0099001N1+01801+01601999999ADDMA1101691999999REMMET045METAR SBLP 291000Z 21004KT CAVOK 18/16 Q1017;
0072832880999992009062911004-13267-043417FM-15+0443SBLP V0201801N003119999999Y0099001N1+02001+01601999999ADDMA1101801999999REMMET045METAR SBLP 291100Z 18006KT CAVOK 20/16 Q1018;
0072832880999992009062912004-13267-043417FM-15+0443SBLP V0201801N002119999999Y0099001N1+02401+01701999999ADDMA1101801999999REMMET045METAR SBLP 291200Z 18004KT CAVOK 24/17 Q1018;
0072832880999992009062913004-13267-043417FM-15+0443SBLP V0202101N003119999999Y0099001N1+02701+01701999999ADDMA1101801999999REMMET045METAR SBLP 291300Z 21006KT CAVOK 27/17 Q1018;
0072832880999992009062914004-13267-043417FM-15+0443SBLP V0202101N003119999999Y0099001N1+02901+01701999999ADDMA1101691999999REMMET045METAR SBLP 291400Z 21006KT CAVOK 29/17 Q1017;
0120832880999992009062915004-13267-043417FM-15+0443SBLP V0201701N005112200019N0112651N1+03101+01501999999ADDGA1021+009001999GF102991999999999999999999MA1101691999999REMMET051METAR SBLP 291500Z 17010KT 9999 FEW030 31/15 Q1017;
0120832880999992009062916004-13267-043417FM-15+0443SBLP V0201801N003112200019N0112651N1+03101+01501999999ADDGA1021+009001999GF102991999999999999999999MA1101491999999REMMET051METAR SBLP 291600Z 18006KT 9999 FEW030 31/15 Q1015;
0120832880999992009062917004-13267-043417FM-15+0443SBLP V0201801N003112200019N0112651N1+03201+01501999999ADDGA1041+009001999GF104991999999999999999999MA1101391999999REMMET051METAR SBLP 291700Z 18006KT 9999 SCT030 32/15 Q1014;
0120832880999992009062918004-13267-043417FM-15+0443SBLP V0201801N003112200019N0112651N1+03401+01501999999ADDGA1041+009001999GF104991999999999999999999MA1101391999999REMMET051METAR SBLP 291800Z 18006KT 9999 SCT030 34/15 Q1014;
0120832880999992009062919004-13267-043417FM-15+0443SBLP V0201801N003112200019N0112651N1+03301+01501999999ADDGA1021+009001999GF102991999999999999999999MA1101391999999REMMET051METAR SBLP 291900Z 18006KT 9999 FEW030 33/15 Q1014;
0120832880999992009062920004-13267-043417FM-15+0443SBLP V0201801N003112200019N0112651N1+03201+01501999999ADDGA1021+009001999GF102991999999999999999999MA1101391999999REMMET051METAR SBLP 292000Z 18006KT 9999 FEW030 32/15 Q1014;
0072832880999992009062921004-13267-043417FM-15+0443SBLP V0201801N003119999999Y0099001N1+03001+01601999999ADDMA1101391999999REMMET045METAR SBLP 292100Z 18006KT CAVOK 30/16 Q1014;
0072832880999992009063010004-13267-043417FM-15+0443SBLP V0209999C000019999999Y0099001N1+02101+01801999999ADDMA1101691999999REMMET045METAR SBLP 301000Z 00000KT CAVOK 21/18 Q1017;
0072832880999992009063011004-13267-043417FM-15+0443SBLP V0209999C000019999999Y0099001N1+02301+01701999999ADDMA1101901999999REMMET045METAR SBLP 301100Z 00000KT CAVOK 23/17 Q1019;
0072832880999992009063012004-13267-043417FM-15+0443SBLP V0209999C000019999999Y0099001N1+02501+01701999999ADDMA1101901999999REMMET045METAR SBLP 301200Z 00000KT CAVOK 25/17 Q1019;
0072832880999992009063013004-13267-043417FM-15+0443SBLP V0209999C000019999999Y0099001N1+02701+01601999999ADDMA1101901999999REMMET045METAR SBLP 301300Z 00000KT CAVOK 27/16 Q1019;
0072832880999992009063014004-13267-043417FM-15+0443SBLP V0209999C000019999999Y0099001N1+03001+01601999999ADDMA1101801999999REMMET045METAR SBLP 301400Z 00000KT CAVOK 30/16 Q1018;
0120832880999992009063015004-13267-043417FM-15+0443SBLP V0201801N003112200019N0112651N1+03001+01601999999ADDGA1021+009001999GF102991999999999999999999MA1101691999999REMMET051METAR SBLP 301500Z 18006KT 9999 FEW030 30/16 Q1017;
0120832880999992009063016004-13267-043417FM-15+0443SBLP V0202401N002612200019N0112651N1+03101+01401999999ADDGA1021+009001999GF102991999999999999999999MA1101591999999REMMET051METAR SBLP 301600Z 24005KT 9999 FEW030 31/14 Q1016;
0120832880999992009063017004-13267-043417FM-15+0443SBLP V0202301N002112200019N0112651N1+03101+01101999999ADDGA1021+009001999GF102991999999999999999999MA1101491999999REMMET051METAR SBLP 301700Z 23004KT 9999 FEW030 31/11 Q1015;
0120832880999992009063018004-13267-043417FM-15+0443SBLP V0202401N002112200019N0112651N1+03201+01201999999ADDGA1021+009001999GF102991999999999999999999MA1101391999999REMMET051METAR SBLP 301800Z 24004KT 9999 FEW030 32/12 Q1014;
0120832880999992009063019004-13267-043417FM-15+0443SBLP V0202001N002112200019N0112651N1+03101+01401999999ADDGA1021+009001999GF102991999999999999999999MA1101391999999REMMET051METAR SBLP 301900Z 20004KT 9999 FEW030 31/14 Q1014;
0072832880999992009063020004-13267-043417FM-15+0443SBLP V0202401N001519999999Y0099001N1+03101+01401999999ADDMA1101391999999REMMET045METAR SBLP 302000Z 24003KT CAVOK 31/14 Q1014;
0072832880999992009063021004-13267-043417FM-15+0443SBLP V0202101N001519999999Y0099001N1+02801+01501999999ADDMA1101491999999REMMET045METAR SBLP 302100Z 21003KT CAVOK 28/15 Q1015;
0072832880999992009070109144-13267-043417FM-16+0443SBLP V0209999C000019999999Y0099001N1+01601+01401999999ADDMA1101591999999REMMET045SPECI SBLP 010914Z 00000KT CAVOK 16/14 Q1016;
0072832880999992009070110004-13267-043417FM-15+0443SBLP V0209999C000019999999Y0099001N1+01601+01401999999ADDMA1101691999999REMMET045METAR SBLP 011000Z 00000KT CAVOK 16/14 Q1017;
0072832880999992009070111004-13267-043417FM-15+0443SBLP V0202301N002119999999Y0099001N1+02001+01501999999ADDMA1101801999999REMMET045METAR SBLP 011100Z 23004KT CAVOK 20/15 Q1018;
0072832880999992009070112004-13267-043417FM-15+0443SBLP V0209999C000019999999Y0099001N1+02401+01601999999ADDMA1101901999999REMMET045METAR SBLP 011200Z 00000KT CAVOK 24/16 Q1019;
0072832880999992009070113004-13267-043417FM-15+0443SBLP V0202401N003119999999Y0099001N1+02601+01701999999ADDMA1101801999999REMMET045METAR SBLP 011300Z 24006KT CAVOK 26/17 Q1018;
0072832880999992009070114004-13267-043417FM-15+0443SBLP V0209999C000019999999Y0099001N1+02801+01701999999ADDMA1101801999999REMMET045METAR SBLP 011400Z 00000KT CAVOK 28/17 Q1018;
0072832880999992009070115004-13267-043417FM-15+0443SBLP V0209999C000019999999Y0099001N1+03001+01601999999ADDMA1101691999999REMMET045METAR SBLP 011500Z 00000KT CAVOK 30/16 Q1017;
0120832880999992009070116004-13267-043417FM-15+0443SBLP V0202501N002112200019N0112651N1+03101+01101999999ADDGA1021+009001999GF102991999999999999999999MA1101591999999REMMET051METAR SBLP 011600Z 25004KT 9999 FEW030 31/11 Q1016;
0120832880999992009070117004-13267-043417FM-15+0443SBLP V0209999C000012200019N0112651N1+03201+00801999999ADDGA1021+009001999GF102991999999999999999999MA1101391999999REMMET051METAR SBLP 011700Z 00000KT 9999 FEW030 32/08 Q1014;
0120832880999992009070118004-13267-043417FM-15+0443SBLP V0202101N001512200019N0112651N1+03301+00801999999ADDGA1021+009001999GF102991999999999999999999MA1101391999999REMMET051METAR SBLP 011800Z 21003KT 9999 FEW030 33/08 Q1014;
0120832880999992009070119004-13267-043417FM-15+0443SBLP V0202501N002612200019N0112651N1+03201+01001999999ADDGA1021+009001999GF102991999999999999999999MA1101391999999REMMET051METAR SBLP 011900Z 25005KT 9999 FEW030 32/10 Q1014;
0120832880999992009070120004-13267-043417FM-15+0443SBLP V0202101N002112200019N0112651N1+03101+01101999999ADDGA1021+009001999GF102991999999999999999999MA1101391999999REMMET051METAR SBLP 012000Z 21004KT 9999 FEW030 31/11 Q1014;
0120832880999992009070121004-13267-043417FM-15+0443SBLP V0201801N001512200019N0112651N1+02801+01201999999ADDGA1021+009001999GF102991999999999999999999MA1101491999999REMMET051METAR SBLP 012100Z 18003KT 9999 FEW030 28/12 Q1015;
0072832880999992009070209104-13267-043417FM-16+0443SBLP V0209999C000019999999Y0099001N1+01801+01401999999ADDMA1101691999999REMMET045SPECI SBLP 020910Z 00000KT CAVOK 18/14 Q1017;
0072832880999992009070210004-13267-043417FM-15+0443SBLP V0209999C000019999999Y0099001N1+01801+01401999999ADDMA1101691999999REMMET045METAR SBLP 021000Z 00000KT CAVOK 18/14 Q1017;
0072832880999992009070211004-13267-043417FM-15+0443SBLP V0202101N003119999999Y0099001N1+02001+01501999999ADDMA1101801999999REMMET045METAR SBLP 021100Z 21006KT CAVOK 20/15 Q1018;
0072832880999992009070212004-13267-043417FM-15+0443SBLP V0201801N003119999999Y0099001N1+02401+01901999999ADDMA1101901999999REMMET045METAR SBLP 021200Z 18006KT CAVOK 24/19 Q1019;
0072832880999992009070213004-13267-043417FM-15+0443SBLP V0202601N003119999999Y0099001N1+02701+01801999999ADDMA1101901999999REMMET045METAR SBLP 021300Z 26006KT CAVOK 27/18 Q1019;
0072832880999992009070214004-13267-043417FM-15+0443SBLP V0209999C000019999999Y0099001N1+02901+01701999999ADDMA1101801999999REMMET045METAR SBLP 021400Z 00000KT CAVOK 29/17 Q1018;
0120832880999992009070215004-13267-043417FM-15+0443SBLP V0209999C000012200019N0112651N1+02901+01601999999ADDGA1021+009001999GF102991999999999999999999MA1101691999999REMMET051METAR SBLP 021500Z 00000KT 9999 FEW030 29/16 Q1017;
0120832880999992009070216004-13267-043417FM-15+0443SBLP V0202601N002112200019N0112651N1+03201+01101999999ADDGA1021+009001999GF102991999999999999999999MA1101591999999REMMET051METAR SBLP 021600Z 26004KT 9999 FEW030 32/11 Q1016;
0120832880999992009070217004-13267-043417FM-15+0443SBLP V0209999C000012200019N0112651N1+03201+00901999999ADDGA1021+009001999GF102991999999999999999999MA1101491999999REMMET051METAR SBLP 021700Z 00000KT 9999 FEW030 32/09 Q1015;
0120832880999992009070218004-13267-043417FM-15+0443SBLP V0201801N001512200019N0112651N1+03201+01001999999ADDGA1021+009001999GF102991999999999999999999MA1101391999999REMMET051METAR SBLP 021800Z 18003KT 9999 FEW030 32/10 Q1014;
0120832880999992009070219004-13267-043417FM-15+0443SBLP V0202001N002112200019N0112651N1+03201+01101999999ADDGA1021+009001999GF102991999999999999999999MA1101391999999REMMET051METAR SBLP 021900Z 20004KT 9999 FEW030 32/11 Q1014;
0120832880999992009070220004-13267-043417FM-15+0443SBLP V0202001N001512200019N0112651N1+03001+01201999999ADDGA1021+009001999GF102991999999999999999999MA1101391999999REMMET051METAR SBLP 022000Z 20003KT 9999 FEW030 30/12 Q1014;
0072832880999992009070221004-13267-043417FM-15+0443SBLP V0209999C000019999999Y0099001N1+02801+01401999999ADDMA1101491999999REMMET045METAR SBLP 022100Z 00000KT CAVOK 28/14 Q1015;
0072832880999992009070309134-13267-043417FM-16+0443SBLP V0209999C000019999999Y0099001N1+01701+01401999999ADDMA1101691999999REMMET045SPECI SBLP 030913Z 00000KT CAVOK 17/14 Q1017;
0072832880999992009070310004-13267-043417FM-15+0443SBLP V0209999C000019999999Y0099001N1+01701+01301999999ADDMA1101801999999REMMET045METAR SBLP 031000Z 00000KT CAVOK 17/13 Q1018;
0072832880999992009070311004-13267-043417FM-15+0443SBLP V0209999C000019999999Y0099001N1+01901+01401999999ADDMA1101901999999REMMET045METAR SBLP 031100Z 00000KT CAVOK 19/14 Q1019;
0072832880999992009070312004-13267-043417FM-15+0443SBLP V0209999C000019999999Y0099001N1+02401+01101999999ADDMA1101901999999REMMET045METAR SBLP 031200Z 00000KT CAVOK 24/11 Q1019;
0072832880999992009070313004-13267-043417FM-15+0443SBLP V0202401N001519999999Y0099001N1+02801+01301999999ADDMA1101901999999REMMET045METAR SBLP 031300Z 24003KT CAVOK 28/13 Q1019;
0120832880999992009070314004-13267-043417FM-15+0443SBLP V0209999C000012200019N0112651N1+02901+01501999999ADDGA1021+009001999GF102991999999999999999999MA1101901999999REMMET051METAR SBLP 031400Z 00000KT 9999 FEW030 29/15 Q1019;
0120832880999992009070315004-13267-043417FM-15+0443SBLP V0209999C000012200019N0112651N1+02901+01601999999ADDGA1021+009001999GF102991999999999999999999MA1101801999999REMMET051METAR SBLP 031500Z 00000KT 9999 FEW030 29/16 Q1018;
0120832880999992009070316004-13267-043417FM-15+0443SBLP V0202101N004112200019N0112651N1+03101+01501999999ADDGA1041+009001999GF104991999999999999999999MA1101591999999REMMET051METAR SBLP 031600Z 21008KT 9999 SCT030 31/15 Q1016;
0120832880999992009070317004-13267-043417FM-15+0443SBLP V0202101N003112200019N0112651N1+03201+01301999999ADDGA1021+009001999GF102991999999999999999999MA1101491999999REMMET051METAR SBLP 031700Z 21006KT 9999 FEW030 32/13 Q1015;
0120832880999992009070318004-13267-043417FM-15+0443SBLP V0202401N002112200019N0112651N1+03201+01201999999ADDGA1021+009001999GF102991999999999999999999MA1101491999999REMMET051METAR SBLP 031800Z 24004KT 9999 FEW030 32/12 Q1015;
0120832880999992009070319004-13267-043417FM-15+0443SBLP V0202301N002112200019N0112651N1+03301+01201999999ADDGA1021+009001999GF102991999999999999999999MA1101391999999REMMET051METAR SBLP 031900Z 23004KT 9999 FEW030 33/12 Q1014;
0072832880999992009070320004-13267-043417FM-15+0443SBLP V0209999C000019999999Y0099001N1+03101+01201999999ADDMA1101391999999REMMET045METAR SBLP 032000Z 00000KT CAVOK 31/12 Q1014;
0072832880999992009070321004-13267-043417FM-15+0443SBLP V0209999C000019999999Y0099001N1+02801+01601999999ADDMA1101491999999REMMET045METAR SBLP 032100Z 00000KT CAVOK 28/16 Q1015;
0072832880999992009070410004-13267-043417FM-15+0443SBLP V0202101N002119999999Y0099001N1+01701+01501999999ADDMA1101691999999REMMET045METAR SBLP 041000Z 21004KT CAVOK 17/15 Q1017;
0072832880999992009070411004-13267-043417FM-15+0443SBLP V0201901N002119999999Y0099001N1+01901+01501999999ADDMA1101801999999REMMET045METAR SBLP 041100Z 19004KT CAVOK 19/15 Q1018;
0072832880999992009070412004-13267-043417FM-15+0443SBLP V0202201N002119999999Y0099001N1+02401+01601999999ADDMA1101901999999REMMET045METAR SBLP 041200Z 22004KT CAVOK 24/16 Q1019;
0072832880999992009070413004-13267-043417FM-15+0443SBLP V0200601N002119999999Y0099001N1+02701+01701999999ADDMA1101901999999REMMET045METAR SBLP 041300Z 06004KT CAVOK 27/17 Q1019;
0072832880999992009070414004-13267-043417FM-15+0443SBLP V0209999C000019999999Y0099001N1+02901+01601999999ADDMA1101801999999REMMET045METAR SBLP 041400Z 00000KT CAVOK 29/16 Q1018;
0120832880999992009070415004-13267-043417FM-15+0443SBLP V0201201N003112200019N0112651N1+03001+01501999999ADDGA1021+009001999GF102991999999999999999999MA1101691999999REMMET051METAR SBLP 041500Z 12006KT 9999 FEW030 30/15 Q1017;
0120832880999992009070416004-13267-043417FM-15+0443SBLP V0201801N003112200019N0112651N1+03101+01501999999ADDGA1021+009001999GF102991999999999999999999MA1101591999999REMMET051METAR SBLP 041600Z 18006KT 9999 FEW030 31/15 Q1016;
0120832880999992009070417004-13267-043417FM-15+0443SBLP V0201801N003112200019N0112651N1+03201+01501999999ADDGA1021+009001999GF102991999999999999999999MA1101491999999REMMET051METAR SBLP 041700Z 18006KT 9999 FEW030 32/15 Q1015;
0120832880999992009070418004-13267-043417FM-15+0443SBLP V0201801N003112200019N0112651N1+03301+01501999999ADDGA1021+009001999GF102991999999999999999999MA1101391999999REMMET051METAR SBLP 041800Z 18006KT 9999 FEW030 33/15 Q1014;
0120832880999992009070419004-13267-043417FM-15+0443SBLP V0201801N003112200019N0112651N1+03201+01501999999ADDGA1021+009001999GF102991999999999999999999MA1101391999999REMMET051METAR SBLP 041900Z 18006KT 9999 FEW030 32/15 Q1014;
0072832880999992009070420004-13267-043417FM-15+0443SBLP V0201801N003119999999Y0099001N1+03101+01501999999ADDMA1101491999999REMMET045METAR SBLP 042000Z 18006KT CAVOK 31/15 Q1015;
0072832880999992009070421004-13267-043417FM-15+0443SBLP V0209999C000019999999Y0099001N1+02901+01601999999ADDMA1101491999999REMMET045METAR SBLP 042100Z 00000KT CAVOK 29/16 Q1015;
0072832880999992009070510004-13267-043417FM-15+0443SBLP V0202101N002119999999Y0099001N1+01801+01501999999ADDMA1101801999999REMMET045METAR SBLP 051000Z 21004KT CAVOK 18/15 Q1018;
0072832880999992009070511004-13267-043417FM-15+0443SBLP V0202101N002119999999Y0099001N1+01901+01601999999ADDMA1101901999999REMMET045METAR SBLP 051100Z 21004KT CAVOK 19/16 Q1019;
0072832880999992009070512004-13267-043417FM-15+0443SBLP V0202201N002119999999Y0099001N1+02301+01701999999ADDMA1102001999999REMMET045METAR SBLP 051200Z 22004KT CAVOK 23/17 Q1020;
0072832880999992009070513004-13267-043417FM-15+0443SBLP V0202401N003119999999Y0099001N1+02601+01701999999ADDMA1102001999999REMMET045METAR SBLP 051300Z 24006KT CAVOK 26/17 Q1020;
0120832880999992009070514004-13267-043417FM-15+0443SBLP V0209999C000012200019N0112651N1+02801+01601999999ADDGA1021+009001999GF102991999999999999999999MA1101901999999REMMET051METAR SBLP 051400Z 00000KT 9999 FEW030 28/16 Q1019;
0120832880999992009070515004-13267-043417FM-15+0443SBLP V0202301N004112200019N0112651N1+02901+01701999999ADDGA1041+009001999GF104991999999999999999999MA1101801999999REMMET051METAR SBLP 051500Z 23008KT 9999 SCT030 29/17 Q1018;
0120832880999992009070516004-13267-043417FM-15+0443SBLP V0202701N003112200019N0112651N1+03101+01701999999ADDGA1041+009001999GF104991999999999999999999MA1101691999999REMMET051METAR SBLP 051600Z 27006KT 9999 SCT030 31/17 Q1017;
0120832880999992009070517004-13267-043417FM-15+0443SBLP V0201801N003112200019N0112651N1+03201+01701999999ADDGA1041+009001999GF104991999999999999999999MA1101591999999REMMET051METAR SBLP 051700Z 18006KT 9999 SCT030 32/17 Q1016;
0120832880999992009070518004-13267-043417FM-15+0443SBLP V0201801N003112200019N0112651N1+03301+01701999999ADDGA1041+009001999GF104991999999999999999999MA1101491999999REMMET051METAR SBLP 051800Z 18006KT 9999 SCT030 33/17 Q1015;
0120832880999992009070519004-13267-043417FM-15+0443SBLP V0201801N003112200019N0112651N1+03201+01701999999ADDGA1021+009001999GF102991999999999999999999MA1101491999999REMMET051METAR SBLP 051900Z 18006KT 9999 FEW030 32/17 Q1015;
0120832880999992009070520004-13267-043417FM-15+0443SBLP V0201801N003112200019N0112651N1+03101+01701999999ADDGA1021+009001999GF102991999999999999999999MA1101591999999REMMET051METAR SBLP 052000Z 18006KT 9999 FEW030 31/17 Q1016;
0072832880999992009070521004-13267-043417FM-15+0443SBLP V0201801N003119999999Y0099001N1+03001+01701999999ADDMA1101591999999REMMET045METAR SBLP 052100Z 18006KT CAVOK 30/17 Q1016;
0072832880999992009070610004-13267-043417FM-15+0443SBLP V0209999C000019999999Y0099001N1+02201+01701999999ADDMA1101901999999REMMET045METAR SBLP 061000Z 00000KT CAVOK 22/17 Q1019;
0072832880999992009070611004-13267-043417FM-15+0443SBLP V0201801N003119999999Y0099001N1+02401+01701999999ADDMA1102001999999REMMET045METAR SBLP 061100Z 18006KT CAVOK 24/17 Q1020;
0072832880999992009070612004-13267-043417FM-15+0443SBLP V0201801N003119999999Y0099001N1+02601+01601999999ADDMA1102101999999REMMET045METAR SBLP 061200Z 18006KT CAVOK 26/16 Q1021;
0072832880999992009070613004-13267-043417FM-15+0443SBLP V0201801N003119999999Y0099001N1+02801+01501999999ADDMA1102101999999REMMET045METAR SBLP 061300Z 18006KT CAVOK 28/15 Q1021;
0072832880999992009070614004-13267-043417FM-15+0443SBLP V0201801N003119999999Y0099001N1+02901+01401999999ADDMA1102001999999REMMET045METAR SBLP 061400Z 18006KT CAVOK 29/14 Q1020;
0120832880999992009070615004-13267-043417FM-15+0443SBLP V0200901N003112200019N0112651N1+03001+01401999999ADDGA1021+009001999GF102991999999999999999999MA1101901999999REMMET051METAR SBLP 061500Z 09006KT 9999 FEW030 30/14 Q1019;
0120832880999992009070616004-13267-043417FM-15+0443SBLP V0202301N002112200019N0112651N1+03001+01201999999ADDGA1021+009001999GF102991999999999999999999MA1101801999999REMMET051METAR SBLP 061600Z 23004KT 9999 FEW030 30/12 Q1018;
0120832880999992009070617004-13267-043417FM-15+0443SBLP V0201601N001512200019N0112651N1+03101+01201999999ADDGA1021+009001999GF102991999999999999999999MA1101691999999REMMET051METAR SBLP 061700Z 16003KT 9999 FEW030 31/12 Q1017;
0120832880999992009070618004-13267-043417FM-15+0443SBLP V0201201N001012200019N0112651N1+03201+01101999999ADDGA1041+009001999GF104991999999999999999999MA1101591999999REMMET051METAR SBLP 061800Z 12002KT 9999 SCT030 32/11 Q1016;
0120832880999992009070619004-13267-043417FM-15+0443SBLP V0201301N002112200019N0112651N1+03101+01101999999ADDGA1021+009001999GF102991999999999999999999MA1101591999999REMMET051METAR SBLP 061900Z 13004KT 9999 FEW030 31/11 Q1016;
0120832880999992009070620004-13267-043417FM-15+0443SBLP V0201301N003112200019N0112651N1+03001+01201999999ADDGA1021+009001999GF102991999999999999999999MA1101591999999REMMET051METAR SBLP 062000Z 13006KT 9999 FEW030 30/12 Q1016;
0120832880999992009070621004-13267-043417FM-15+0443SBLP V0201501N002112200019N0112651N1+02701+01301999999ADDGA1021+009001999GF102991999999999999999999MA1101691999999REMMET051METAR SBLP 062100Z 15004KT 9999 FEW030 27/13 Q1017;
0072832880999992009070710004-13267-043417FM-15+0443SBLP V0209999C000019999999Y0099001N1+01701+01401999999ADDMA1101901999999REMMET045METAR SBLP 071000Z 00000KT CAVOK 17/14 Q1019;
0072832880999992009070711004-13267-043417FM-15+0443SBLP V0202001N003119999999Y0099001N1+02001+01501999999ADDMA1102001999999REMMET045METAR SBLP 071100Z 20006KT CAVOK 20/15 Q1020;
0072832880999992009070712004-13267-043417FM-15+0443SBLP V0201601N003119999999Y0099001N1+02301+01601999999ADDMA1102101999999REMMET045METAR SBLP 071200Z 16006KT CAVOK 23/16 Q1021;
0072832880999992009070713004-13267-043417FM-15+0443SBLP V0201601N003119999999Y0099001N1+02701+01501999999ADDMA1102001999999REMMET045METAR SBLP 071300Z 16006KT CAVOK 27/15 Q1020;
0072832880999992009070714004-13267-043417FM-15+0443SBLP V0201201N003119999999Y0099001N1+02801+01401999999ADDMA1102001999999REMMET045METAR SBLP 071400Z 12006KT CAVOK 28/14 Q1020;
0120832880999992009070715004-13267-043417FM-15+0443SBLP V0200601N003112200019N0112651N1+03001+01401999999ADDGA1021+009001999GF102991999999999999999999MA1101901999999REMMET051METAR SBLP 071500Z 06006KT 9999 FEW030 30/14 Q1019;
0120832880999992009070716004-13267-043417FM-15+0443SBLP V0200601N001512200019N0112651N1+03101+01201999999ADDGA1021+009001999GF102991999999999999999999MA1101801999999REMMET051METAR SBLP 071600Z 06003KT 9999 FEW030 31/12 Q1018;
0120832880999992009070717004-13267-043417FM-15+0443SBLP V0202701N001512200019N0112651N1+03201+01101999999ADDGA1021+009001999GF102991999999999999999999MA1101691999999REMMET051METAR SBLP 071700Z 27003KT 9999 FEW030 32/11 Q1017;
0120832880999992009070718004-13267-043417FM-15+0443SBLP V0203001N001012200019N0112651N1+03101+01301999999ADDGA1041+009001999GF104991999999999999999999MA1101591999999REMMET051METAR SBLP 071800Z 30002KT 9999 SCT030 31/13 Q1016;
0120832880999992009070719004-13267-043417FM-15+0443SBLP V0201901N003112200019N0112651N1+03101+01301999999ADDGA1041+009001999GF104991999999999999999999MA1101591999999REMMET051METAR SBLP 071900Z 19006KT 9999 SCT030 31/13 Q1016;
0120832880999992009070720004-13267-043417FM-15+0443SBLP V0202101N002112200019N0112651N1+02901+01401999999ADDGA1021+009001999GF102991999999999999999999MA1101591999999REMMET051METAR SBLP 072000Z 21004KT 9999 FEW030 29/14 Q1016;
0120832880999992009070721004-13267-043417FM-15+0443SBLP V0201801N002612200019N0112651N1+02701+01501999999ADDGA1021+009001999GF102991999999999999999999MA1101691999999REMMET051METAR SBLP 072100Z 18005KT 9999 FEW030 27/15 Q1017;
0072832880999992009070809154-13267-043417FM-16+0443SBLP V0209999C000019999999Y0099001N1+01701+01401999999ADDMA1101901999999REMMET045SPECI SBLP 080915Z 00000KT CAVOK 17/14 Q1019;
0072832880999992009070810004-13267-043417FM-15+0443SBLP V0209999C000019999999Y0099001N1+01901+01501999999ADDMA1101901999999REMMET045METAR SBLP 081000Z 00000KT CAVOK 19/15 Q1019;
0072832880999992009070811004-13267-043417FM-15+0443SBLP V0209999C000019999999Y0099001N1+02001+01601999999ADDMA1102001999999REMMET045METAR SBLP 081100Z 00000KT CAVOK 20/16 Q1020;
0072832880999992009070812004-13267-043417FM-15+0443SBLP V0201501N003119999999Y0099001N1+02301+01801999999ADDMA1102101999999REMMET045METAR SBLP 081200Z 15006KT CAVOK 23/18 Q1021;
0143832880999992009070813004-13267-043417FM-15+0443SBLP V0201301N003112200019N0112651N1+02601+01801999999ADDGA1021+009001999GA2041+030001999GF104991999999999999999999MA1102001999999REMMET058METAR SBLP 081300Z 13006KT 9999 FEW030 SCT100 26/18 Q1020;
0120832880999992009070814004-13267-043417FM-15+0443SBLP V0201201N003112200019N0112651N1+02801+01701999999ADDGA1041+009001999GF104991999999999999999999MA1102001999999REMMET051METAR SBLP 081400Z 12006KT 9999 SCT030 28/17 Q1020;
0120832880999992009070815004-13267-043417FM-15+0443SBLP V0201201N003112200019N0112651N1+02801+01701999999ADDGA1041+009001999GF104991999999999999999999MA1101901999999REMMET051METAR SBLP 081500Z 12006KT 9999 SCT030 28/17 Q1019;
0120832880999992009070816004-13267-043417FM-15+0443SBLP V0202501N003110090019N0112651N1+02901+01701999999ADDGA1071+009001999GF107991999999999999999999MA1101801999999REMMET051METAR SBLP 081600Z 25006KT 9999 BKN030 29/17 Q1018;
0120832880999992009070817004-13267-043417FM-15+0443SBLP V0201501N003110090019N0112651N1+02901+01601999999ADDGA1071+009001999GF107991999999999999999999MA1101691999999REMMET051METAR SBLP 081700Z 15006KT 9999 BKN030 29/16 Q1017;
0120832880999992009070818004-13267-043417FM-15+0443SBLP V0202501N002110090019N0112651N1+03001+01501999999ADDGA1071+009001999GF107991999999999999999999MA1101591999999REMMET051METAR SBLP 081800Z 25004KT 9999 BKN030 30/15 Q1016;
0120832880999992009070819004-13267-043417FM-15+0443SBLP V0201501N002110090019N0112651N1+03001+01601999999ADDGA1071+009001999GF107991999999999999999999MA1101591999999REMMET051METAR SBLP 081900Z 15004KT 9999 BKN030 30/16 Q1016;
0120832880999992009070820004-13267-043417FM-15+0443SBLP V0201801N003110090019N0112651N1+02801+01601999999ADDGA1071+009001999GF107991999999999999999999MA1101591999999REMMET051METAR SBLP 082000Z 18006KT 9999 BKN030 28/16 Q1016;
0120832880999992009070821004-13267-043417FM-15+0443SBLP V0209999C000010090019N0112651N1+02701+01601999999ADDGA1071+009001999GF107991999999999999999999MA1101591999999REMMET051METAR SBLP 082100Z 00000KT 9999 BKN030 27/16 Q1016;
0072832880999992009070910004-13267-043417FM-15+0443SBLP V0209999C000019999999Y0099001N1+01901+01701999999ADDMA1101901999999REMMET045METAR SBLP 091000Z 00000KT CAVOK 19/17 Q1019;
0120832880999992009070911004-13267-043417FM-15+0443SBLP V0209999C000012200019N0112651N1+02101+01701999999ADDGA1041+006001999GF104991999999999999999999MA1101901999999REMMET051METAR SBLP 091100Z 00000KT 9999 SCT020 21/17 Q1019;
0143832880999992009070912004-13267-043417FM-15+0443SBLP V0201501N002112200019N0112651N1+02501+01701999999ADDGA1021+006001999GA2041+030001999GF104991999999999999999999MA1102001999999REMMET058METAR SBLP 091200Z 15004KT 9999 FEW020 SCT100 25/17 Q1020;
0120832880999992009070913004-13267-043417FM-15+0443SBLP V0200901N002110060019N0112651N1+02601+01701999999ADDGA1071+006001999GF107991999999999999999999MA1102001999999REMMET051METAR SBLP 091300Z 09004KT 9999 BKN020 26/17 Q1020;
0120832880999992009070914004-13267-043417FM-15+0443SBLP V0200101N001510060019N0112651N1+02801+01701999999ADDGA1071+006001999GF107991999999999999999999MA1101901999999REMMET051METAR SBLP 091400Z 01003KT 9999 BKN020 28/17 Q1019;
0120832880999992009070915004-13267-043417FM-15+0443SBLP V0202401N005110060019N0112651N1+02701+01701999999ADDGA1071+006001999GF107991999999999999999999MA1101901999999REMMET051METAR SBLP 091500Z 24010KT 9999 BKN020 27/17 Q1019;
0120832880999992009070916004-13267-043417FM-15+0443SBLP V0201801N003110060019N0112651N1+02801+01701999999ADDGA1071+006001999GF107991999999999999999999MA1101801999999REMMET051METAR SBLP 091600Z 18006KT 9999 BKN020 28/17 Q1018;
0120832880999992009070917004-13267-043417FM-15+0443SBLP V0201801N003110060019N0112651N1+02901+01701999999ADDGA1071+006001999GF107991999999999999999999MA1101691999999REMMET051METAR SBLP 091700Z 18006KT 9999 BKN020 29/17 Q1017;
0120832880999992009070918004-13267-043417FM-15+0443SBLP V0201801N003110060019N0112651N1+03001+01701999999ADDGA1071+006001999GF107991999999999999999999MA1101591999999REMMET051METAR SBLP 091800Z 18006KT 9999 BKN020 30/17 Q1016;
0120832880999992009070920004-13267-043417FM-15+0443SBLP V0209999C000012200019N0112651N1+02901+01801999999ADDGA1041+006001999GF104991999999999999999999MA1101591999999REMMET051METAR SBLP 092000Z 00000KT 9999 SCT020 29/18 Q1016;
0120832880999992009070921004-13267-043417FM-15+0443SBLP V0209999C000012200019N0112651N1+02701+01801999999ADDGA1021+006001999GF102991999999999999999999MA1101591999999REMMET051METAR SBLP 092100Z 00000KT 9999 FEW020 27/18 Q1016;
0072832880999992009071009154-13267-043417FM-16+0443SBLP V0209999C000019999999Y0099001N1+01901+01801999999ADDMA1101901999999REMMET045SPECI SBLP 100915Z 00000KT CAVOK 19/18 Q1019;
0072832880999992009071010004-13267-043417FM-15+0443SBLP V0209999C000019999999Y0099001N1+02101+01701999999ADDMA1101901999999REMMET045METAR SBLP 101000Z 00000KT CAVOK 21/17 Q1019;
0072832880999992009071011004-13267-043417FM-15+0443SBLP V0209999C000019999999Y0099001N1+02401+01701999999ADDMA1101901999999REMMET045METAR SBLP 101100Z 00000KT CAVOK 24/17 Q1019;
0074832880999992009071012004-13267-043417FM-15+0443SBLP V0209999C000019999999Y0099001N1+02601+01701999999REMMET046METAR SBLP 101200Z 00000KT CAVOK 26/17 Q10119;EQDQ01+101083APOA  
0072832880999992009071013004-13267-043417FM-15+0443SBLP V0200901N003119999999Y0099001N1+02801+01701999999ADDMA1101901999999REMMET045METAR SBLP 101300Z 09006KT CAVOK 28/17 Q1019;
0072832880999992009071014004-13267-043417FM-15+0443SBLP V0209999C000019999999Y0099001N1+02901+01701999999ADDMA1101801999999REMMET045METAR SBLP 101400Z 00000KT CAVOK 29/17 Q1018;
0120832880999992009071015004-13267-043417FM-15+0443SBLP V0200901N003112200019N0112651N1+03001+01601999999ADDGA1021+009001999GF102991999999999999999999MA1101691999999REMMET051METAR SBLP 101500Z 09006KT 9999 FEW030 30/16 Q1017;
0120832880999992009071016004-13267-043417FM-15+0443SBLP V0202401N002612200019N0112651N1+03101+01401999999ADDGA1021+009001999GF102991999999999999999999MA1101591999999REMMET051METAR SBLP 101600Z 24005KT 9999 FEW030 31/14 Q1016;
0120832880999992009071017004-13267-043417FM-15+0443SBLP V0202101N002112200019N0112651N1+03101+01401999999ADDGA1041+009001999GF104991999999999999999999MA1101491999999REMMET051METAR SBLP 101700Z 21004KT 9999 SCT030 31/14 Q1015;
0120832880999992009071018004-13267-043417FM-15+0443SBLP V0202401N002612200019N0112651N1+03101+01401999999ADDGA1041+009001999GF104991999999999999999999MA1101391999999REMMET051METAR SBLP 101800Z 24005KT 9999 SCT030 31/14 Q1014;
0120832880999992009071019004-13267-043417FM-15+0443SBLP V0201801N001512200019N0112651N1+03201+01501999999ADDGA1021+009001999GF102991999999999999999999MA1101391999999REMMET051METAR SBLP 101900Z 18003KT 9999 FEW030 32/15 Q1014;
0120832880999992009071020004-13267-043417FM-15+0443SBLP V0202101N001512200019N0112651N1+03101+01601999999ADDGA1021+009001999GF102991999999999999999999MA1101291999999REMMET051METAR SBLP 102000Z 21003KT 9999 FEW030 31/16 Q1013;
0120832880999992009071021004-13267-043417FM-15+0443SBLP V0201801N001512200019N0112651N1+02901+01601999999ADDGA1041+009001999GF104991999999999999999999MA1101391999999REMMET051METAR SBLP 102100Z 18003KT 9999 SCT030 29/16 Q1014;
0143832880999992009071109124-13267-043417FM-16+0443SBLP V0209999C000012200019N0112651N1+02001+01701999999ADDGA1041+006901999GA2041+030001999GF104991999999999999999999MA1101691999999REMMET058SPECI SBLP 110912Z 00000KT 9999 SCT023 SCT100 20/17 Q1017;
0143832880999992009071110004-13267-043417FM-15+0443SBLP V0209999C000012200019N0112651N1+02101+01901999999ADDGA1041+006901999GA2041+030001999GF104991999999999999999999MA1101691999999REMMET058METAR SBLP 111000Z 00000KT 9999 SCT023 SCT100 21/19 Q1017;
0120832880999992009071111004-13267-043417FM-15+0443SBLP V0201401N001512200019N0112651N1+02301+01901999999ADDGA1021+006901999GF102991999999999999999999MA1101801999999REMMET051METAR SBLP 111100Z 14003KT 9999 FEW023 23/19 Q1018;
0120832880999992009071112004-13267-043417FM-15+0443SBLP V0201201N001512200019N0112651N1+02601+01801999999ADDGA1021+009001999GF102991999999999999999999MA1101901999999REMMET051METAR SBLP 111200Z 12003KT 9999 FEW030 26/18 Q1019;
0120832880999992009071113004-13267-043417FM-15+0443SBLP V0200301N002612200019N0112651N1+02701+01701999999ADDGA1041+009001999GF104991999999999999999999MA1101901999999REMMET051METAR SBLP 111300Z 03005KT 9999 SCT030 27/17 Q1019;
0120832880999992009071114004-13267-043417FM-15+0443SBLP V0209999C000012200019N0112651N1+02901+01701999999ADDGA1041+009001999GF104991999999999999999999MA1101801999999REMMET051METAR SBLP 111400Z 00000KT 9999 SCT030 29/17 Q1018;
0120832880999992009071115004-13267-043417FM-15+0443SBLP V0200201N003110090019N0112651N1+03001+01601999999ADDGA1071+009001999GF107991999999999999999999MA1101691999999REMMET051METAR SBLP 111500Z 02006KT 9999 BKN030 30/16 Q1017;
0120832880999992009071116004-13267-043417FM-15+0443SBLP V0203501N003110090019N0112651N1+03001+01701999999ADDGA1071+009001999GF107991999999999999999999MA1101591999999REMMET051METAR SBLP 111600Z 35006KT 9999 BKN030 30/17 Q1016;
0120832880999992009071117004-13267-043417FM-15+0443SBLP V0209999C000010081019N0112651N1+03001+01601999999ADDGA1071+008101999GF107991999999999999999999MA1101491999999REMMET051METAR SBLP 111700Z 00000KT 9999 BKN027 30/16 Q1015;
0120832880999992009071118004-13267-043417FM-15+0443SBLP V0209999C000010090019N0112651N1+02901+01701999999ADDGA1071+009001999GF107991999999999999999999MA1101491999999REMMET051METAR SBLP 111800Z 00000KT 9999 BKN030 29/17 Q1015;
0120832880999992009071119004-13267-043417FM-15+0443SBLP V0209999C000012200019N0112651N1+02801+01701999999ADDGA1041+009001999GF104991999999999999999999MA1101491999999REMMET051METAR SBLP 111900Z 00000KT 9999 SCT030 28/17 Q1015;
0120832880999992009071120004-13267-043417FM-15+0443SBLP V0209999C000012200019N0112651N1+02701+01801999999ADDGA1041+009001999GF104991999999999999999999MA1101491999999REMMET051METAR SBLP 112000Z 00000KT 9999 SCT030 27/18 Q1015;
0120832880999992009071121004-13267-043417FM-15+0443SBLP V0209999C000012200019N0112651N1+02501+01901999999ADDGA1041+009001999GF104991999999999999999999MA1101491999999REMMET051METAR SBLP 112100Z 00000KT 9999 SCT030 25/19 Q1015;
0072832880999992009071210004-13267-043417FM-15+0443SBLP V0209999C000019999999Y0099001N1+01901+01801999999ADDMA1101691999999REMMET045METAR SBLP 121000Z 00000KT CAVOK 19/18 Q1017;
0072832880999992009071211004-13267-043417FM-15+0443SBLP V0209999C000019999999Y0099001N1+02201+01801999999ADDMA1101801999999REMMET045METAR SBLP 121100Z 00000KT CAVOK 22/18 Q1018;
0072832880999992009071212004-13267-043417FM-15+0443SBLP V0201801N001019999999Y0099001N1+02601+01801999999ADDMA1101801999999REMMET045METAR SBLP 121200Z 18002KT CAVOK 26/18 Q1018;
0072832880999992009071213004-13267-043417FM-15+0443SBLP V0202401N001519999999Y0099001N1+02801+01801999999ADDMA1101801999999REMMET045METAR SBLP 121300Z 24003KT CAVOK 28/18 Q1018;
0120832880999992009071214004-13267-043417FM-15+0443SBLP V0203301N002112200019N0112651N1+03001+01601999999ADDGA1021+009001999GF102991999999999999999999MA1101691999999REMMET051METAR SBLP 121400Z 33004KT 9999 FEW030 30/16 Q1017;
0120832880999992009071215004-13267-043417FM-15+0443SBLP V0202101N002112200019N0112651N1+03201+01501999999ADDGA1021+009001999GF102991999999999999999999MA1101691999999REMMET051METAR SBLP 121500Z 21004KT 9999 FEW030 32/15 Q1017;
0120832880999992009071216004-13267-043417FM-15+0443SBLP V0202701N003112200019N0112651N1+03301+01501999999ADDGA1021+009001999GF102991999999999999999999MA1101591999999REMMET051METAR SBLP 121600Z 27006KT 9999 FEW030 33/15 Q1016;
0120832880999992009071217004-13267-043417FM-15+0443SBLP V0201801N003112200019N0112651N1+03301+01401999999ADDGA1021+009001999GF102991999999999999999999MA1101391999999REMMET051METAR SBLP 121700Z 18006KT 9999 FEW030 33/14 Q1014;
0120832880999992009071218004-13267-043417FM-15+0443SBLP V0209999C000012200019N0112651N1+03401+01401999999ADDGA1021+009001999GF102991999999999999999999MA1101291999999REMMET051METAR SBLP 121800Z 00000KT 9999 FEW030 34/14 Q1013;
0120832880999992009071219004-13267-043417FM-15+0443SBLP V0202301N003112200019N0112651N1+03401+01401999999ADDGA1021+009001999GF102991999999999999999999MA1101291999999REMMET051METAR SBLP 121900Z 23006KT 9999 FEW030 34/14 Q1013;
0072832880999992009071220004-13267-043417FM-15+0443SBLP V0209999C000019999999Y0099001N1+03401+01401999999ADDMA1101291999999REMMET045METAR SBLP 122000Z 00000KT CAVOK 34/14 Q1013;
0072832880999992009071221004-13267-043417FM-15+0443SBLP V0209999C000019999999Y0099001N1+03001+01601999999ADDMA1101291999999REMMET045METAR SBLP 122100Z 00000KT CAVOK 30/16 Q1013;
0072832880999992009071309134-13267-043417FM-16+0443SBLP V0209999C000019999999Y0099001N1+01901+01701999999ADDMA1101691999999REMMET045SPECI SBLP 130913Z 00000KT CAVOK 19/17 Q1017;
0072832880999992009071310004-13267-043417FM-15+0443SBLP V0209999C000019999999Y0099001N1+02001+01701999999ADDMA1101691999999REMMET045METAR SBLP 131000Z 00000KT CAVOK 20/17 Q1017;
0072832880999992009071311004-13267-043417FM-15+0443SBLP V0209999C000019999999Y0099001N1+02101+01801999999ADDMA1101801999999REMMET045METAR SBLP 131100Z 00000KT CAVOK 21/18 Q1018;
0072832880999992009071312004-13267-043417FM-15+0443SBLP V0209999C000019999999Y0099001N1+02501+01801999999ADDMA1101901999999REMMET045METAR SBLP 131200Z 00000KT CAVOK 25/18 Q1019;
0072832880999992009071313004-13267-043417FM-15+0443SBLP V0209999C000019999999Y0099001N1+02801+01701999999ADDMA1101901999999REMMET045METAR SBLP 131300Z 00000KT CAVOK 28/17 Q1019;
0072832880999992009071314004-13267-043417FM-15+0443SBLP V0209999C000019999999Y0099001N1+03001+01701999999ADDMA1101801999999REMMET045METAR SBLP 131400Z 00000KT CAVOK 30/17 Q1018;
0120832880999992009071315004-13267-043417FM-15+0443SBLP V0209999C000012200019N0112651N1+03301+01501999999ADDGA1021+009001999GF102991999999999999999999MA1101691999999REMMET051METAR SBLP 131500Z 00000KT 9999 FEW030 33/15 Q1017;
0120832880999992009071316004-13267-043417FM-15+0443SBLP V0202401N001512200019N0112651N1+03401+01601999999ADDGA1041+009001999GF104991999999999999999999MA1101591999999REMMET051METAR SBLP 131600Z 24003KT 9999 SCT030 34/16 Q1016;
0120832880999992009071317004-13267-043417FM-15+0443SBLP V0202001N001012200019N0112651N1+03501+01601999999ADDGA1041+009001999GF104991999999999999999999MA1101491999999REMMET051METAR SBLP 131700Z 20002KT 9999 SCT030 35/16 Q1015;
0120832880999992009071318004-13267-043417FM-15+0443SBLP V0201801N005112200019N0112651N1+03501+01301999999ADDGA1041+009001999GF104991999999999999999999MA1101491999999REMMET051METAR SBLP 131800Z 18010KT 9999 SCT030 35/13 Q1015;
0139832880999992009071319004-13267-043417FM-15+0443SBLP V0201301N005112200019N0112651N1+03301+01401999999ADDGA1041+009001999GA2021+009001021MA1101491999999REMMET061METAR SBLP 131900Z 13010KT 9999 SCT030 FEW030TCU 33/14 Q1015;EQDQ01+000022SCOTCV
0120832880999992009071320004-13267-043417FM-15+0443SBLP V0201201N004112200019N0112651N1+03301+01201999999ADDGA1041+009001999GF104991999999999999999999MA1101491999999REMMET051METAR SBLP 132000Z 12008KT 9999 SCT030 33/12 Q1015;
0072832880999992009071321004-13267-043417FM-15+0443SBLP V0201501N002119999999Y0099001N1+03101+01301999999ADDMA1101591999999REMMET045METAR SBLP 132100Z 15004KT CAVOK 31/13 Q1016;
0072832880999992009071409094-13267-043417FM-16+0443SBLP V0202101N002119999999Y0099001N1+01901+01601999999ADDMA1102001999999REMMET045SPECI SBLP 140909Z 21004KT CAVOK 19/16 Q1020;
0072832880999992009071410004-13267-043417FM-15+0443SBLP V0202101N001019999999Y0099001N1+01901+01701999999ADDMA1102101999999REMMET045METAR SBLP 141000Z 21002KT CAVOK 19/17 Q1021;
0072832880999992009071411004-13267-043417FM-15+0443SBLP V0201801N002119999999Y0099001N1+02201+01701999999ADDMA1102101999999REMMET045METAR SBLP 141100Z 18004KT CAVOK 22/17 Q1021;
0072832880999992009071412004-13267-043417FM-15+0443SBLP V0201201N002119999999Y0099001N1+02601+01701999999ADDMA1102201999999REMMET045METAR SBLP 141200Z 12004KT CAVOK 26/17 Q1022;
0120832880999992009071413004-13267-043417FM-15+0443SBLP V0201201N005112200019N0112651N1+02801+01701999999ADDGA1021+009001999GF102991999999999999999999MA1102101999999REMMET051METAR SBLP 141300Z 12010KT 9999 FEW030 28/17 Q1021;
0120832880999992009071414004-13267-043417FM-15+0443SBLP V0201501N004112200019N0112651N1+03001+01601999999ADDGA1021+009001999GF102991999999999999999999MA1102101999999REMMET051METAR SBLP 141400Z 15008KT 9999 FEW030 30/16 Q1021;
0120832880999992009071415004-13267-043417FM-15+0443SBLP V0201501N002112200019N0112651N1+03101+01601999999ADDGA1041+009001999GF104991999999999999999999MA1101901999999REMMET051METAR SBLP 141500Z 15004KT 9999 SCT030 31/16 Q1019;
0120832880999992009071416004-13267-043417FM-15+0443SBLP V0201801N003112200019N0112651N1+03201+01501999999ADDGA1041+009001999GF104991999999999999999999MA1101801999999REMMET051METAR SBLP 141600Z 18006KT 9999 SCT030 32/15 Q1018;
0120832880999992009071417004-13267-043417FM-15+0443SBLP V0200901N003112200019N0112651N1+03301+01501999999ADDGA1041+009001999GF104991999999999999999999MA1101691999999REMMET051METAR SBLP 141700Z 09006KT 9999 SCT030 33/15 Q1017;
0120832880999992009071418004-13267-043417FM-15+0443SBLP V0200901N003112200019N0112651N1+03401+01501999999ADDGA1041+009001999GF104991999999999999999999MA1101591999999REMMET051METAR SBLP 141800Z 09006KT 9999 SCT030 34/15 Q1016;
0120832880999992009071419004-13267-043417FM-15+0443SBLP V0201801N003112200019N0112651N1+03301+01501999999ADDGA1041+009001999GF104991999999999999999999MA1101591999999REMMET051METAR SBLP 141900Z 18006KT 9999 SCT030 33/15 Q1016;
0120832880999992009071420004-13267-043417FM-15+0443SBLP V0201801N003112200019N0112651N1+03201+01501999999ADDGA1021+009001999GF102991999999999999999999MA1101691999999REMMET051METAR SBLP 142000Z 18006KT 9999 FEW030 32/15 Q1017;
0120832880999992009071421004-13267-043417FM-15+0443SBLP V0209999C000012200019N0112651N1+03001+01501999999ADDGA1021+009001999GF102991999999999999999999MA1101691999999REMMET051METAR SBLP 142100Z 00000KT 9999 FEW030 30/15 Q1017;
0120832880999992009071514004-13267-043417FM-15+0443SBLP V0201101N001512200019N0112651N1+03001+01501999999ADDGA1021+009001999GF102991999999999999999999MA1101901999999REMMET051METAR SBLP 151400Z 11003KT 9999 FEW030 30/15 Q1019;
0120832880999992009071515004-13267-043417FM-15+0443SBLP V0201801N001012200019N0112651N1+03101+01601999999ADDGA1041+009001999GF104991999999999999999999MA1101801999999REMMET051METAR SBLP 151500Z 18002KT 9999 SCT030 31/16 Q1018;
0120832880999992009071516004-13267-043417FM-15+0443SBLP V0201801N003112200019N0112651N1+03201+01501999999ADDGA1041+009001999GF104991999999999999999999MA1101691999999REMMET051METAR SBLP 151600Z 18006KT 9999 SCT030 32/15 Q1017;
0120832880999992009071517004-13267-043417FM-15+0443SBLP V0201801N003112200019N0112651N1+03301+01501999999ADDGA1041+009001999GF104991999999999999999999MA1101591999999REMMET051METAR SBLP 151700Z 18006KT 9999 SCT030 33/15 Q1016;
0120832880999992009071518004-13267-043417FM-15+0443SBLP V0201801N003112200019N0112651N1+03501+01501999999ADDGA1041+009001999GF104991999999999999999999MA1101491999999REMMET051METAR SBLP 151800Z 18006KT 9999 SCT030 35/15 Q1015;
0120832880999992009071519004-13267-043417FM-15+0443SBLP V0201801N003112200019N0112651N1+03401+01501999999ADDGA1041+009001999GF104991999999999999999999MA1101591999999REMMET051METAR SBLP 151900Z 18006KT 9999 SCT030 34/15 Q1016;
0120832880999992009071520004-13267-043417FM-15+0443SBLP V0201801N003112200019N0112651N1+03201+01501999999ADDGA1021+009001999GF102991999999999999999999MA1101591999999REMMET051METAR SBLP 152000Z 18006KT 9999 FEW030 32/15 Q1016;
0120832880999992009071521004-13267-043417FM-15+0443SBLP V0201801N003112200019N0112651N1+03001+01501999999ADDGA1021+009001999GF102991999999999999999999MA1101691999999REMMET051METAR SBLP 152100Z 18006KT 9999 FEW030 30/15 Q1017;
0072832880999992009071609154-13267-043417FM-16+0443SBLP V0209999C000019999999Y0099001N1+01901+01801999999ADDMA1102001999999REMMET045SPECI SBLP 160915Z 00000KT CAVOK 19/18 Q1020;
0072832880999992009071610004-13267-043417FM-15+0443SBLP V0209999C000019999999Y0099001N1+02101+01801999999ADDMA1102001999999REMMET045METAR SBLP 161000Z 00000KT CAVOK 21/18 Q1020;
0072832880999992009071611004-13267-043417FM-15+0443SBLP V0201801N003119999999Y0099001N1+02401+01801999999ADDMA1102101999999REMMET045METAR SBLP 161100Z 18006KT CAVOK 24/18 Q1021;
0072832880999992009071612004-13267-043417FM-15+0443SBLP V0201801N003119999999Y0099001N1+02601+01701999999ADDMA1102101999999REMMET045METAR SBLP 161200Z 18006KT CAVOK 26/17 Q1021;
0120832880999992009071613004-13267-043417FM-15+0443SBLP V0200901N003112200019N0112651N1+02801+01701999999ADDGA1021+009001999GF102991999999999999999999MA1102101999999REMMET051METAR SBLP 161300Z 09006KT 9999 FEW030 28/17 Q1021;
0120832880999992009071614004-13267-043417FM-15+0443SBLP V0200901N003112200019N0112651N1+02901+01601999999ADDGA1021+009001999GF102991999999999999999999MA1102101999999REMMET051METAR SBLP 161400Z 09006KT 9999 FEW030 29/16 Q1021;
0120832880999992009071615004-13267-043417FM-15+0443SBLP V0200901N003112200019N0112651N1+03001+01601999999ADDGA1041+009001999GF104991999999999999999999MA1102001999999REMMET051METAR SBLP 161500Z 09006KT 9999 SCT030 30/16 Q1020;
0120832880999992009071616004-13267-043417FM-15+0443SBLP V0201201N002612200019N0112651N1+03001+01001999999ADDGA1041+009001999GF104991999999999999999999MA1101901999999REMMET051METAR SBLP 161600Z 12005KT 9999 SCT030 30/10 Q1019;
0120832880999992009071617004-13267-043417FM-15+0443SBLP V0201301N004112200019N0112651N1+03101+01401999999ADDGA1041+009001999GF104991999999999999999999MA1101801999999REMMET051METAR SBLP 161700Z 13008KT 9999 SCT030 31/14 Q1018;
0120832880999992009071618004-13267-043417FM-15+0443SBLP V0201401N001512200019N0112651N1+03101+01301999999ADDGA1041+009001999GF104991999999999999999999MA1101691999999REMMET051METAR SBLP 161800Z 14003KT 9999 SCT030 31/13 Q1017;
0120832880999992009071619004-13267-043417FM-15+0443SBLP V0201201N002112200019N0112651N1+03001+01501999999ADDGA1021+009001999GF102991999999999999999999MA1101691999999REMMET051METAR SBLP 161900Z 12004KT 9999 FEW030 30/15 Q1017;
0120832880999992009071620004-13267-043417FM-15+0443SBLP V0201301N002612200019N0112651N1+03001+01501999999ADDGA1021+009001999GF102991999999999999999999MA1101691999999REMMET051METAR SBLP 162000Z 13005KT 9999 FEW030 30/15 Q1017;
0120832880999992009071621004-13267-043417FM-15+0443SBLP V0201401N002112200019N0112651N1+02701+01401999999ADDGA1021+009001999GF102991999999999999999999MA1101801999999REMMET051METAR SBLP 162100Z 14004KT 9999 FEW030 27/14 Q1018;
0072832880999992009071709044-13267-043417FM-16+0443SBLP V0201601N002119999999Y0099001N1+02001+01601999999ADDMA1102001999999REMMET045SPECI SBLP 170904Z 16004KT CAVOK 20/16 Q1020;
0072832880999992009071710004-13267-043417FM-15+0443SBLP V0201701N002119999999Y0099001N1+01901+01501999999ADDMA1102101999999REMMET045METAR SBLP 171000Z 17004KT CAVOK 19/15 Q1021;
0072832880999992009071711004-13267-043417FM-15+0443SBLP V0201701N001519999999Y0099001N1+02101+01501999999ADDMA1102201999999REMMET045METAR SBLP 171100Z 17003KT CAVOK 21/15 Q1022;
0072832880999992009071712004-13267-043417FM-15+0443SBLP V0200901N003119999999Y0099001N1+02501+01401999999ADDMA1102201999999REMMET045METAR SBLP 171200Z 09006KT CAVOK 25/14 Q1022;
0072832880999992009071713004-13267-043417FM-15+0443SBLP V0201201N001019999999Y0099001N1+02801+01501999999ADDMA1102201999999REMMET045METAR SBLP 171300Z 12002KT CAVOK 28/15 Q1022;
0072832880999992009071714004-13267-043417FM-15+0443SBLP V0201101N003119999999Y0099001N1+02901+01301999999ADDMA1102101999999REMMET045METAR SBLP 171400Z 11006KT CAVOK 29/13 Q1021;
0072832880999992009071715004-13267-043417FM-15+0443SBLP V0201201N003119999999Y0099001N1+03101+01401999999ADDMA1102001999999REMMET045METAR SBLP 171500Z 12006KT CAVOK 31/14 Q1020;
0120832880999992009071716004-13267-043417FM-15+0443SBLP V0201601N003112200019N0112651N1+03101+01401999999ADDGA1021+009001999GF102991999999999999999999MA1101901999999REMMET051METAR SBLP 171600Z 16006KT 9999 FEW030 31/14 Q1019;
0120832880999992009071717004-13267-043417FM-15+0443SBLP V0201601N003112200019N0112651N1+03101+01401999999ADDGA1021+009001999GF102991999999999999999999MA1101901999999REMMET051METAR SBLP 171700Z 16006KT 9999 FEW030 31/14 Q1019;
0120832880999992009071718004-13267-043417FM-15+0443SBLP V0201201N004112200019N0112651N1+03201+01401999999ADDGA1021+009001999GF102991999999999999999999MA1101691999999REMMET051METAR SBLP 171800Z 12008KT 9999 FEW030 32/14 Q1017;
0072832880999992009071719004-13267-043417FM-15+0443SBLP V0201501N003119999999Y0099001N1+03101+01401999999ADDMA1101691999999REMMET045METAR SBLP 171900Z 15006KT CAVOK 31/14 Q1017;
0072832880999992009071720004-13267-043417FM-15+0443SBLP V0201201N003119999999Y0099001N1+02901+01601999999ADDMA1101691999999REMMET045METAR SBLP 172000Z 12006KT CAVOK 29/16 Q1017;
0072832880999992009071721004-13267-043417FM-15+0443SBLP V0201201N003119999999Y0099001N1+02801+01701999999ADDMA1101801999999REMMET045METAR SBLP 172100Z 12006KT CAVOK 28/17 Q1018;
0143832880999992009071809104-13267-043417FM-16+0443SBLP V0201901N001512200019N0112651N1+02001+01801999999ADDGA1041+008101999GA2041+030001999GF104991999999999999999999MA1101901999999REMMET058SPECI SBLP 180910Z 19003KT 9999 SCT027 SCT100 20/18 Q1019;
0120832880999992009071810004-13267-043417FM-15+0443SBLP V0209999C000012200019N0112651N1+02001+01701999999ADDGA1021+008101999GF102991999999999999999999MA1102001999999REMMET051METAR SBLP 181000Z 00000KT 9999 FEW027 20/17 Q1020;
0072832880999992009071811004-13267-043417FM-15+0443SBLP V0201201N002119999999Y0099001N1+02401+01701999999ADDMA1102101999999REMMET045METAR SBLP 181100Z 12004KT CAVOK 24/17 Q1021;
0072832880999992009071812004-13267-043417FM-15+0443SBLP V0201501N003119999999Y0099001N1+02601+01501999999ADDMA1102101999999REMMET045METAR SBLP 181200Z 15006KT CAVOK 26/15 Q1021;
0072832880999992009071813004-13267-043417FM-15+0443SBLP V0201701N004119999999Y0099001N1+02701+01301999999ADDMA1102101999999REMMET045METAR SBLP 181300Z 17008KT CAVOK 27/13 Q1021;
0072832880999992009071814004-13267-043417FM-15+0443SBLP V0209999C000019999999Y0099001N1+02601+01501999999ADDMA1102001999999REMMET045METAR SBLP 181400Z 00000KT CAVOK 26/15 Q1020;
0072832880999992009071815004-13267-043417FM-15+0443SBLP V0201801N003119999999Y0099001N1+03001+01101999999ADDMA1102001999999REMMET045METAR SBLP 181500Z 18006KT CAVOK 30/11 Q1020;
0072832880999992009071816004-13267-043417FM-15+0443SBLP V0201801N002119999999Y0099001N1+03101+01101999999ADDMA1101801999999REMMET045METAR SBLP 181600Z 18004KT CAVOK 31/11 Q1018;
0072832880999992009071817004-13267-043417FM-15+0443SBLP V0201601N006219999999Y0099001N1+03201+01101999999ADDMA1101691999999REMMET045METAR SBLP 181700Z 16012KT CAVOK 32/11 Q1017;
0072832880999992009071818004-13267-043417FM-15+0443SBLP V0201301N003119999999Y0099001N1+03201+01101999999ADDMA1101591999999REMMET045METAR SBLP 181800Z 13006KT CAVOK 32/11 Q1016;
0072832880999992009071819004-13267-043417FM-15+0443SBLP V0201301N003119999999Y0099001N1+03201+01101999999ADDMA1101591999999REMMET045METAR SBLP 181900Z 13006KT CAVOK 32/11 Q1016;
0072832880999992009071820004-13267-043417FM-15+0443SBLP V0201801N004119999999Y0099001N1+03101+01101999999ADDMA1101491999999REMMET045METAR SBLP 182000Z 18008KT CAVOK 31/11 Q1015;
0072832880999992009071821004-13267-043417FM-15+0443SBLP V0201801N003119999999Y0099001N1+02701+01201999999ADDMA1101491999999REMMET045METAR SBLP 182100Z 18006KT CAVOK 27/12 Q1015;
0072832880999992009071910004-13267-043417FM-15+0443SBLP V0202101N001519999999Y0099001N1+01801+01401999999ADDMA1101691999999REMMET045METAR SBLP 191000Z 21003KT CAVOK 18/14 Q1017;
0072832880999992009071911004-13267-043417FM-15+0443SBLP V0202301N001519999999Y0099001N1+01801+01501999999ADDMA1101801999999REMMET045METAR SBLP 191100Z 23003KT CAVOK 18/15 Q1018;
0072832880999992009071912004-13267-043417FM-15+0443SBLP V0209999C000019999999Y0099001N1+02301+01501999999ADDMA1101901999999REMMET045METAR SBLP 191200Z 00000KT CAVOK 23/15 Q1019;
0072832880999992009071913004-13267-043417FM-15+0443SBLP V0202501N001519999999Y0099001N1+02601+01301999999ADDMA1101901999999REMMET045METAR SBLP 191300Z 25003KT CAVOK 26/13 Q1019;
0072832880999992009071914004-13267-043417FM-15+0443SBLP V0203301N001019999999Y0099001N1+02801+01301999999ADDMA1101801999999REMMET045METAR SBLP 191400Z 33002KT CAVOK 28/13 Q1018;
0072832880999992009071915004-13267-043417FM-15+0443SBLP V0202501N002619999999Y0099001N1+03001+01101999999ADDMA1101691999999REMMET045METAR SBLP 191500Z 25005KT CAVOK 30/11 Q1017;
0072832880999992009071916004-13267-043417FM-15+0443SBLP V0202401N003119999999Y0099001N1+03101+01201999999ADDMA1101591999999REMMET045METAR SBLP 191600Z 24006KT CAVOK 31/12 Q1016;
0072832880999992009071917004-13267-043417FM-15+0443SBLP V0202501N003119999999Y0099001N1+03101+01201999999ADDMA1101391999999REMMET045METAR SBLP 191700Z 25006KT CAVOK 31/12 Q1014;
0072832880999992009071918004-13267-043417FM-15+0443SBLP V0202801N002119999999Y0099001N1+03201+01001999999ADDMA1101291999999REMMET045METAR SBLP 191800Z 28004KT CAVOK 32/10 Q1013;
0072832880999992009071919004-13267-043417FM-15+0443SBLP V0202101N001519999999Y0099001N1+03201+01001999999ADDMA1101291999999REMMET045METAR SBLP 191900Z 21003KT CAVOK 32/10 Q1013;
0072832880999992009071920004-13267-043417FM-15+0443SBLP V0202201N001519999999Y0099001N1+03101+01101999999ADDMA1101291999999REMMET045METAR SBLP 192000Z 22003KT CAVOK 31/11 Q1013;
0072832880999992009071921004-13267-043417FM-15+0443SBLP V0209999C000019999999Y0099001N1+02801+01301999999ADDMA1101391999999REMMET045METAR SBLP 192100Z 00000KT CAVOK 28/13 Q1014;
0072832880999992009072009084-13267-043417FM-16+0443SBLP V0209999C000019999999Y0099001N1+01601+01001999999ADDMA1101591999999REMMET045SPECI SBLP 200908Z 00000KT CAVOK 16/10 Q1016;
0072832880999992009072010004-13267-043417FM-15+0443SBLP V0209999C000019999999Y0099001N1+01601+01101999999ADDMA1101591999999REMMET045METAR SBLP 201000Z 00000KT CAVOK 16/11 Q1016;
0072832880999992009072011004-13267-043417FM-15+0443SBLP V0209999C000019999999Y0099001N1+02001+01201999999ADDMA1101691999999REMMET045METAR SBLP 201100Z 00000KT CAVOK 20/12 Q1017;
0072832880999992009072012004-13267-043417FM-15+0443SBLP V0202901N001019999999Y0099001N1+02201+01301999999ADDMA1101801999999REMMET045METAR SBLP 201200Z 29002KT CAVOK 22/13 Q1018;
0072832880999992009072013004-13267-043417FM-15+0443SBLP V0203301N002119999999Y0099001N1+02701+01401999999ADDMA1101691999999REMMET045METAR SBLP 201300Z 33004KT CAVOK 27/14 Q1017;
0072832880999992009072014004-13267-043417FM-15+0443SBLP V0209999C000019999999Y0099001N1+03001+01201999999ADDMA1101691999999REMMET045METAR SBLP 201400Z 00000KT CAVOK 30/12 Q1017;
0143832880999992009072015004-13267-043417FM-15+0443SBLP V0202301N003112200019N0112651N1+03201+01001999999ADDGA1021+009001999GA2041+090001999GF104991999999999999999999MA1101591999999REMMET058METAR SBLP 201500Z 23006KT 9999 FEW030 SCT300 32/10 Q1016;
0072832880999992009072016004-13267-043417FM-15+0443SBLP V0202701N003119999999Y0099001N1+03201+01001999999ADDMA1101491999999REMMET045METAR SBLP 201600Z 27006KT CAVOK 32/10 Q1015;
0072832880999992009072017004-13267-043417FM-15+0443SBLP V0202701N003119999999Y0099001N1+03301+01001999999ADDMA1101391999999REMMET045METAR SBLP 201700Z 27006KT CAVOK 33/10 Q1014;
0072832880999992009072018004-13267-043417FM-15+0443SBLP V0202701N003119999999Y0099001N1+03401+01001999999ADDMA1101291999999REMMET045METAR SBLP 201800Z 27006KT CAVOK 34/10 Q1013;
0072832880999992009072019004-13267-043417FM-15+0443SBLP V0201801N003119999999Y0099001N1+03401+01001999999ADDMA1101291999999REMMET045METAR SBLP 201900Z 18006KT CAVOK 34/10 Q1013;
0072832880999992009072020004-13267-043417FM-15+0443SBLP V0201801N003119999999Y0099001N1+03301+01001999999ADDMA1101291999999REMMET045METAR SBLP 202000Z 18006KT CAVOK 33/10 Q1013;
0072832880999992009072021004-13267-043417FM-15+0443SBLP V0201801N003119999999Y0099001N1+03101+01101999999ADDMA1101291999999REMMET045METAR SBLP 202100Z 18006KT CAVOK 31/11 Q1013;
0072832880999992009072112004-13267-043417FM-15+0443SBLP V0200901N003119999999Y0099001N1+02601+01401999999ADDMA1101691999999REMMET045METAR SBLP 211200Z 09006KT CAVOK 26/14 Q1017;
0072832880999992009072114004-13267-043417FM-15+0443SBLP V0200901N003119999999Y0099001N1+03001+01301999999ADDMA1101691999999REMMET045METAR SBLP 211400Z 09006KT CAVOK 30/13 Q1017;
0120832880999992009072115004-13267-043417FM-15+0443SBLP V0200901N003112200019N0112651N1+03201+01301999999ADDGA1021+009001999GF102991999999999999999999MA1101591999999REMMET051METAR SBLP 211500Z 09006KT 9999 FEW030 32/13 Q1016;
0120832880999992009072116004-13267-043417FM-15+0443SBLP V0202401N002112200019N0112651N1+03301+01301999999ADDGA1021+009001999GF102991999999999999999999MA1101391999999REMMET051METAR SBLP 211600Z 24004KT 9999 FEW030 33/13 Q1014;
0120832880999992009072117004-13267-043417FM-15+0443SBLP V0202101N004112200019N0112651N1+03401+01301999999ADDGA1021+009001999GF102991999999999999999999MA1101291999999REMMET051METAR SBLP 211700Z 21008KT 9999 FEW030 34/13 Q1013;
0120832880999992009072118004-13267-043417FM-15+0443SBLP V0202401N001512200019N0112651N1+03401+01201999999ADDGA1021+009001999GF102991999999999999999999MA1101191999999REMMET051METAR SBLP 211800Z 24003KT 9999 FEW030 34/12 Q1012;
0120832880999992009072119004-13267-043417FM-15+0443SBLP V0201801N003112200019N0112651N1+03401+01301999999ADDGA1021+009001999GF102991999999999999999999MA1101191999999REMMET051METAR SBLP 211900Z 18006KT 9999 FEW030 34/13 Q1012;
0120832880999992009072120004-13267-043417FM-15+0443SBLP V0202201N001512200019N0112651N1+03301+01301999999ADDGA1021+009001999GF102991999999999999999999MA1101191999999REMMET051METAR SBLP 212000Z 22003KT 9999 FEW030 33/13 Q1012;
0072832880999992009072121004-13267-043417FM-15+0443SBLP V0201901N001519999999Y0099001N1+03001+01501999999ADDMA1101291999999REMMET045METAR SBLP 212100Z 19003KT CAVOK 30/15 Q1013;
0072832880999992009072210004-13267-043417FM-15+0443SBLP V0202101N001519999999Y0099001N1+01901+01701999999ADDMA1101691999999REMMET045METAR SBLP 221000Z 21003KT CAVOK 19/17 Q1017;
0072832880999992009072211004-13267-043417FM-15+0443SBLP V0201301N001519999999Y0099001N1+02101+01601999999ADDMA1101801999999REMMET045METAR SBLP 221100Z 13003KT CAVOK 21/16 Q1018;
0072832880999992009072212004-13267-043417FM-15+0443SBLP V0202101N002619999999Y0099001N1+02601+01601999999ADDMA1101901999999REMMET045METAR SBLP 221200Z 21005KT CAVOK 26/16 Q1019;
0120832880999992009072215004-13267-043417FM-15+0443SBLP V0209999C000012200019N0112651N1+03101+01601999999ADDGA1021+009001999GF102991999999999999999999MA1101691999999REMMET051METAR SBLP 221500Z 00000KT 9999 FEW030 31/16 Q1017;
0120832880999992009072216004-13267-043417FM-15+0443SBLP V0202401N003112200019N0112651N1+03201+01701999999ADDGA1021+009001999GF102991999999999999999999MA1101591999999REMMET051METAR SBLP 221600Z 24006KT 9999 FEW030 32/17 Q1016;
0120832880999992009072217004-13267-043417FM-15+0443SBLP V0202701N003112200019N0112651N1+03301+01701999999ADDGA1021+009001999GF102991999999999999999999MA1101491999999REMMET051METAR SBLP 221700Z 27006KT 9999 FEW030 33/17 Q1015;
0120832880999992009072218004-13267-043417FM-15+0443SBLP V0202401N003112200019N0112651N1+03301+01701999999ADDGA1021+009001999GF102991999999999999999999MA1101391999999REMMET051METAR SBLP 221800Z 24006KT 9999 FEW030 33/17 Q1014;
0120832880999992009072219004-13267-043417FM-15+0443SBLP V0202401N003112200019N0112651N1+03401+01701999999ADDGA1021+009001999GF102991999999999999999999MA1101391999999REMMET051METAR SBLP 221900Z 24006KT 9999 FEW030 34/17 Q1014;
0072832880999992009072220004-13267-043417FM-15+0443SBLP V0202401N001019999999Y0099001N1+03201+01801999999ADDMA1101391999999REMMET045METAR SBLP 222000Z 24002KT CAVOK 32/18 Q1014;
0072832880999992009072221004-13267-043417FM-15+0443SBLP V0209999C000019999999Y0099001N1+03001+01901999999ADDMA1101391999999REMMET045METAR SBLP 222100Z 00000KT CAVOK 30/19 Q1014;
0072832880999992009072310004-13267-043417FM-15+0443SBLP V0209999C000019999999Y0099001N1+01801+01501999999ADDMA1101591999999REMMET045METAR SBLP 231000Z 00000KT CAVOK 18/15 Q1016;
0072832880999992009072311004-13267-043417FM-15+0443SBLP V0209999C000019999999Y0099001N1+02001+01601999999ADDMA1101691999999REMMET045METAR SBLP 231100Z 00000KT CAVOK 20/16 Q1017;
0072832880999992009072312004-13267-043417FM-15+0443SBLP V0209999C000019999999Y0099001N1+02501+01801999999ADDMA1101691999999REMMET045METAR SBLP 231200Z 00000KT CAVOK 25/18 Q1017;
0072832880999992009072313004-13267-043417FM-15+0443SBLP V0201201N002119999999Y0099001N1+02701+01801999999ADDMA1101691999999REMMET045METAR SBLP 231300Z 12004KT CAVOK 27/18 Q1017;
0072832880999992009072314004-13267-043417FM-15+0443SBLP V0201201N003119999999Y0099001N1+03101+01701999999ADDMA1101691999999REMMET045METAR SBLP 231400Z 12006KT CAVOK 31/17 Q1017;
0120832880999992009072315004-13267-043417FM-15+0443SBLP V0202101N003112200019N0112651N1+03201+01701999999ADDGA1021+009001999GF102991999999999999999999MA1101591999999REMMET051METAR SBLP 231500Z 21006KT 9999 FEW030 32/17 Q1016;
0120832880999992009072316004-13267-043417FM-15+0443SBLP V0202701N002112200019N0112651N1+03201+01501999999ADDGA1021+009001999GF102991999999999999999999MA1101391999999REMMET051METAR SBLP 231600Z 27004KT 9999 FEW030 32/15 Q1014;
0120832880999992009072317004-13267-043417FM-15+0443SBLP V0202401N001512200019N0112651N1+03401+01401999999ADDGA1021+009001999GF102991999999999999999999MA1101291999999REMMET051METAR SBLP 231700Z 24003KT 9999 FEW030 34/14 Q1013;
0072832880999992009072318004-13267-043417FM-15+0443SBLP V0202701N003119999999Y0099001N1+03401+01301999999ADDMA1101191999999REMMET045METAR SBLP 231800Z 27006KT CAVOK 34/13 Q1012;
0072832880999992009072319004-13267-043417FM-15+0443SBLP V0202201N003119999999Y0099001N1+03401+01301999999ADDMA1101191999999REMMET045METAR SBLP 231900Z 22006KT CAVOK 34/13 Q1012;
0072832880999992009072320004-13267-043417FM-15+0443SBLP V0202101N001519999999Y0099001N1+03301+01401999999ADDMA1101191999999REMMET045METAR SBLP 232000Z 21003KT CAVOK 33/14 Q1012;
0072832880999992009072321004-13267-043417FM-15+0443SBLP V0209999C000019999999Y0099001N1+03101+01401999999ADDMA1101191999999REMMET045METAR SBLP 232100Z 00000KT CAVOK 31/14 Q1012;
0072832880999992009072410004-13267-043417FM-15+0443SBLP V0209999C000019999999Y0099001N1+01901+01501999999ADDMA1101591999999REMMET045METAR SBLP 241000Z 00000KT CAVOK 19/15 Q1016;
0072832880999992009072411004-13267-043417FM-15+0443SBLP V0209999C000019999999Y0099001N1+02101+01601999999ADDMA1101691999999REMMET045METAR SBLP 241100Z 00000KT CAVOK 21/16 Q1017;
0072832880999992009072412004-13267-043417FM-15+0443SBLP V0209999C000019999999Y0099001N1+02501+01601999999ADDMA1101691999999REMMET045METAR SBLP 241200Z 00000KT CAVOK 25/16 Q1017;
0072832880999992009072413004-13267-043417FM-15+0443SBLP V0202501N002119999999Y0099001N1+02801+01601999999ADDMA1101691999999REMMET045METAR SBLP 241300Z 25004KT CAVOK 28/16 Q1017;
0072832880999992009072414004-13267-043417FM-15+0443SBLP V0203601N001019999999Y0099001N1+03001+01601999999ADDMA1101691999999REMMET045METAR SBLP 241400Z 36002KT CAVOK 30/16 Q1017;
0120832880999992009072415004-13267-043417FM-15+0443SBLP V0202101N003112200019N0112651N1+03201+01601999999ADDGA1021+009001999GF102991999999999999999999MA1101591999999REMMET051METAR SBLP 241500Z 21006KT 9999 FEW030 32/16 Q1016;
0120832880999992009072416004-13267-043417FM-15+0443SBLP V0202301N003112200019N0112651N1+03201+01501999999ADDGA1021+009001999GF102991999999999999999999MA1101491999999REMMET051METAR SBLP 241600Z 23006KT 9999 FEW030 32/15 Q1015;
0120832880999992009072417004-13267-043417FM-15+0443SBLP V0202401N003112200019N0112651N1+03301+01701999999ADDGA1021+009001999GF102991999999999999999999MA1101391999999REMMET051METAR SBLP 241700Z 24006KT 9999 FEW030 33/17 Q1014;
0072832880999992009072418004-13267-043417FM-15+0443SBLP V0202101N003119999999Y0099001N1+03401+01701999999ADDMA1101291999999REMMET045METAR SBLP 241800Z 21006KT CAVOK 34/17 Q1013;
0072832880999992009072419004-13267-043417FM-15+0443SBLP V0202101N003119999999Y0099001N1+03401+01701999999ADDMA1101291999999REMMET045METAR SBLP 241900Z 21006KT CAVOK 34/17 Q1013;
0072832880999992009072420004-13267-043417FM-15+0443SBLP V0201801N003119999999Y0099001N1+03401+01701999999ADDMA1101291999999REMMET045METAR SBLP 242000Z 18006KT CAVOK 34/17 Q1013;
0072832880999992009072421004-13267-043417FM-15+0443SBLP V0209999C000019999999Y0099001N1+03201+01701999999ADDMA1101291999999REMMET045METAR SBLP 242100Z 00000KT CAVOK 32/17 Q1013;
0072832880999992009072510004-13267-043417FM-15+0443SBLP V0202301N001519999999Y0099001N1+01901+01501999999ADDMA1101801999999REMMET045METAR SBLP 251000Z 23003KT CAVOK 19/15 Q1018;
0072832880999992009072511004-13267-043417FM-15+0443SBLP V0202101N001519999999Y0099001N1+02101+01501999999ADDMA1101801999999REMMET045METAR SBLP 251100Z 21003KT CAVOK 21/15 Q1018;
0072832880999992009072512004-13267-043417FM-15+0443SBLP V0209999C000019999999Y0099001N1+02701+01401999999ADDMA1101901999999REMMET045METAR SBLP 251200Z 00000KT CAVOK 27/14 Q1019;
0072832880999992009072513004-13267-043417FM-15+0443SBLP V0200901N004119999999Y0099001N1+02901+01501999999ADDMA1101901999999REMMET045METAR SBLP 251300Z 09008KT CAVOK 29/15 Q1019;
0072832880999992009072514004-13267-043417FM-15+0443SBLP V0209999C000019999999Y0099001N1+03101+01501999999ADDMA1101801999999REMMET045METAR SBLP 251400Z 00000KT CAVOK 31/15 Q1018;
0120832880999992009072515004-13267-043417FM-15+0443SBLP V0201501N005112200019N0112651N1+03201+01301999999ADDGA1021+009001999GF102991999999999999999999MA1101691999999REMMET051METAR SBLP 251500Z 15010KT 9999 FEW030 32/13 Q1017;
0120832880999992009072516004-13267-043417FM-15+0443SBLP V0201201N003112200019N0112651N1+03401+01201999999ADDGA1021+009001999GF102991999999999999999999MA1101591999999REMMET051METAR SBLP 251600Z 12006KT 9999 FEW030 34/12 Q1016;
0072832880999992009072517004-13267-043417FM-15+0443SBLP V0201501N003119999999Y0099001N1+03501+01201999999ADDMA1101491999999REMMET045METAR SBLP 251700Z 15006KT CAVOK 35/12 Q1015;
0120832880999992009072518004-13267-043417FM-15+0443SBLP V0200901N003112200019N0112651N1+03501+01201999999ADDGA1021+009001999GF102991999999999999999999MA1101391999999REMMET051METAR SBLP 251800Z 09006KT 9999 FEW030 35/12 Q1014;
0072832880999992009072519004-13267-043417FM-15+0443SBLP V0201201N003119999999Y0099001N1+03401+01201999999ADDMA1101391999999REMMET045METAR SBLP 251900Z 12006KT CAVOK 34/12 Q1014;
0072832880999992009072520004-13267-043417FM-15+0443SBLP V0201201N003119999999Y0099001N1+03301+01701999999ADDMA1101491999999REMMET045METAR SBLP 252000Z 12006KT CAVOK 33/17 Q1015;
0072832880999992009072521004-13267-043417FM-15+0443SBLP V0201201N003119999999Y0099001N1+03001+01801999999ADDMA1101491999999REMMET045METAR SBLP 252100Z 12006KT CAVOK 30/18 Q1015;
0072832880999992009072610004-13267-043417FM-15+0443SBLP V0209999C000019999999Y0099001N1+01801+01601999999ADDMA1102001999999REMMET045METAR SBLP 261000Z 00000KT CAVOK 18/16 Q1020;
0072832880999992009072611004-13267-043417FM-15+0443SBLP V0209999C000019999999Y0099001N1+02201+01601999999ADDMA1102001999999REMMET045METAR SBLP 261100Z 00000KT CAVOK 22/16 Q1020;
0072832880999992009072612004-13267-043417FM-15+0443SBLP V0201801N003119999999Y0099001N1+02501+01601999999ADDMA1102101999999REMMET045METAR SBLP 261200Z 18006KT CAVOK 25/16 Q1021;
0072832880999992009072613004-13267-043417FM-15+0443SBLP V0209999C000019999999Y0099001N1+02801+01701999999ADDMA1102001999999REMMET045METAR SBLP 261300Z 00000KT CAVOK 28/17 Q1020;
0120832880999992009072614004-13267-043417FM-15+0443SBLP V0200401N003112200019N0112651N1+02901+01901999999ADDGA1021+009001999GF102991999999999999999999MA1102001999999REMMET051METAR SBLP 261400Z 04006KT 9999 FEW030 29/19 Q1020;
0120832880999992009072615004-13267-043417FM-15+0443SBLP V0202201N003112200019N0112651N1+03001+01901999999ADDGA1021+009001999GF102991999999999999999999MA1101901999999REMMET051METAR SBLP 261500Z 22006KT 9999 FEW030 30/19 Q1019;
0120832880999992009072616004-13267-043417FM-15+0443SBLP V0202701N003112200019N0112651N1+03101+01801999999ADDGA1021+009001999GF102991999999999999999999MA1101801999999REMMET051METAR SBLP 261600Z 27006KT 9999 FEW030 31/18 Q1018;
0072832880999992009072618004-13267-043417FM-15+0443SBLP V0202201N003119999999Y0099001N1+03201+01801999999ADDMA1101591999999REMMET045METAR SBLP 261800Z 22006KT CAVOK 32/18 Q1016;
0072832880999992009072710004-13267-043417FM-15+0443SBLP V0202101N001519999999Y0099001N1+01601+01301999999ADDMA1101901999999REMMET045METAR SBLP 271000Z 21003KT CAVOK 16/13 Q1019;
0072832880999992009072711004-13267-043417FM-15+0443SBLP V0202101N001519999999Y0099001N1+01901+01401999999ADDMA1102001999999REMMET045METAR SBLP 271100Z 21003KT CAVOK 19/14 Q1020;
0072832880999992009072712004-13267-043417FM-15+0443SBLP V0202401N002119999999Y0099001N1+02401+01601999999ADDMA1102001999999REMMET045METAR SBLP 271200Z 24004KT CAVOK 24/16 Q1020;
0072832880999992009072713004-13267-043417FM-15+0443SBLP V0202401N001019999999Y0099001N1+02701+01501999999ADDMA1102001999999REMMET045METAR SBLP 271300Z 24002KT CAVOK 27/15 Q1020;
0072832880999992009072714004-13267-043417FM-15+0443SBLP V0202401N001019999999Y0099001N1+03001+01501999999ADDMA1101901999999REMMET045METAR SBLP 271400Z 24002KT CAVOK 30/15 Q1019;
0072832880999992009072715004-13267-043417FM-15+0443SBLP V0202101N002119999999Y0099001N1+03101+01601999999ADDMA1101801999999REMMET045METAR SBLP 271500Z 21004KT CAVOK 31/16 Q1018;
0072832880999992009072716004-13267-043417FM-15+0443SBLP V0202401N003119999999Y0099001N1+03101+01601999999ADDMA1101691999999REMMET045METAR SBLP 271600Z 24006KT CAVOK 31/16 Q1017;
0072832880999992009072717004-13267-043417FM-15+0443SBLP V0202401N003119999999Y0099001N1+03201+01701999999ADDMA1101491999999REMMET045METAR SBLP 271700Z 24006KT CAVOK 32/17 Q1015;
0072832880999992009072718004-13267-043417FM-15+0443SBLP V0202701N003119999999Y0099001N1+03301+01701999999ADDMA1101491999999REMMET045METAR SBLP 271800Z 27006KT CAVOK 33/17 Q1015;
0072832880999992009072719004-13267-043417FM-15+0443SBLP V0202101N003119999999Y0099001N1+03401+01601999999ADDMA1101391999999REMMET045METAR SBLP 271900Z 21006KT CAVOK 34/16 Q1014;
0072832880999992009072720004-13267-043417FM-15+0443SBLP V0202401N001019999999Y0099001N1+03401+01501999999ADDMA1101491999999REMMET045METAR SBLP 272000Z 24002KT CAVOK 34/15 Q1015;
0072832880999992009072721004-13267-043417FM-15+0443SBLP V0209999C000019999999Y0099001N1+03201+01601999999ADDMA1101491999999REMMET045METAR SBLP 272100Z 00000KT CAVOK 32/16 Q1015;
0072832880999992009072810004-13267-043417FM-15+0443SBLP V0209999C000019999999Y0099001N1+01801+01501999999ADDMA1101801999999REMMET045METAR SBLP 281000Z 00000KT CAVOK 18/15 Q1018;
0072832880999992009072811004-13267-043417FM-15+0443SBLP V0209999C000019999999Y0099001N1+01901+01501999999ADDMA1101801999999REMMET045METAR SBLP 281100Z 00000KT CAVOK 19/15 Q1018;
0072832880999992009072812004-13267-043417FM-15+0443SBLP V0209999C000019999999Y0099001N1+02401+01801999999ADDMA1101901999999REMMET045METAR SBLP 281200Z 00000KT CAVOK 24/18 Q1019;
0072832880999992009072813004-13267-043417FM-15+0443SBLP V0209999C000019999999Y0099001N1+02901+01501999999ADDMA1101801999999REMMET045METAR SBLP 281300Z 00000KT CAVOK 29/15 Q1018;
0072832880999992009072814004-13267-043417FM-15+0443SBLP V0201601N003119999999Y0099001N1+03201+01601999999ADDMA1101801999999REMMET045METAR SBLP 281400Z 16006KT CAVOK 32/16 Q1018;
0072832880999992009072815004-13267-043417FM-15+0443SBLP V0201601N003119999999Y0099001N1+03301+01601999999ADDMA1101691999999REMMET045METAR SBLP 281500Z 16006KT CAVOK 33/16 Q1017;
0072832880999992009072816004-13267-043417FM-15+0443SBLP V0202701N003119999999Y0099001N1+03301+01501999999ADDMA1101591999999REMMET045METAR SBLP 281600Z 27006KT CAVOK 33/15 Q1016;
0072832880999992009072817004-13267-043417FM-15+0443SBLP V0201901N002119999999Y0099001N1+03401+01501999999ADDMA1101391999999REMMET045METAR SBLP 281700Z 19004KT CAVOK 34/15 Q1014;
0072832880999992009072818004-13267-043417FM-15+0443SBLP V0201801N002119999999Y0099001N1+03401+01501999999ADDMA1101391999999REMMET045METAR SBLP 281800Z 18004KT CAVOK 34/15 Q1014;
0072832880999992009072819004-13267-043417FM-15+0443SBLP V0202101N003119999999Y0099001N1+03501+01101999999ADDMA1101291999999REMMET045METAR SBLP 281900Z 21006KT CAVOK 35/11 Q1013;
0072832880999992009072820004-13267-043417FM-15+0443SBLP V0209999C000019999999Y0099001N1+03401+01101999999ADDMA1101391999999REMMET045METAR SBLP 282000Z 00000KT CAVOK 34/11 Q1014;
0072832880999992009072821004-13267-043417FM-15+0443SBLP V0209999C000019999999Y0099001N1+03101+01001999999ADDMA1101391999999REMMET045METAR SBLP 282100Z 00000KT CAVOK 31/10 Q1014;
0072832880999992009072910004-13267-043417FM-15+0443SBLP V0209999C000019999999Y0099001N1+01701+01401999999ADDMA1101691999999REMMET045METAR SBLP 291000Z 00000KT CAVOK 17/14 Q1017;
0072832880999992009072911004-13267-043417FM-15+0443SBLP V0202001N002119999999Y0099001N1+02001+01501999999ADDMA1101801999999REMMET045METAR SBLP 291100Z 20004KT CAVOK 20/15 Q1018;
0072832880999992009072912004-13267-043417FM-15+0443SBLP V0202701N001519999999Y0099001N1+02401+01501999999ADDMA1101901999999REMMET045METAR SBLP 291200Z 27003KT CAVOK 24/15 Q1019;
0072832880999992009072913004-13267-043417FM-15+0443SBLP V0209999C000019999999Y0099001N1+02701+01601999999ADDMA1101901999999REMMET045METAR SBLP 291300Z 00000KT CAVOK 27/16 Q1019;
0072832880999992009072914004-13267-043417FM-15+0443SBLP V0202601N003119999999Y0099001N1+02801+01601999999ADDMA1101901999999REMMET045METAR SBLP 291400Z 26006KT CAVOK 28/16 Q1019;
0072832880999992009072915004-13267-043417FM-15+0443SBLP V0209999C000019999999Y0099001N1+03101+01601999999ADDMA1101691999999REMMET045METAR SBLP 291500Z 00000KT CAVOK 31/16 Q1017;
0072832880999992009072916004-13267-043417FM-15+0443SBLP V0209999C000019999999Y0099001N1+03301+01601999999ADDMA1101591999999REMMET045METAR SBLP 291600Z 00000KT CAVOK 33/16 Q1016;
0072832880999992009072917004-13267-043417FM-15+0443SBLP V0209999C000019999999Y0099001N1+03301+01601999999ADDMA1101491999999REMMET045METAR SBLP 291700Z 00000KT CAVOK 33/16 Q1015;
0072832880999992009072918004-13267-043417FM-15+0443SBLP V0201801N003119999999Y0099001N1+03501+01601999999ADDMA1101391999999REMMET045METAR SBLP 291800Z 18006KT CAVOK 35/16 Q1014;
0072832880999992009072919004-13267-043417FM-15+0443SBLP V0201801N003119999999Y0099001N1+03401+01601999999ADDMA1101391999999REMMET045METAR SBLP 291900Z 18006KT CAVOK 34/16 Q1014;
0072832880999992009072920004-13267-043417FM-15+0443SBLP V0201801N003119999999Y0099001N1+03301+01601999999ADDMA1101391999999REMMET045METAR SBLP 292000Z 18006KT CAVOK 33/16 Q1014;
0072832880999992009072921004-13267-043417FM-15+0443SBLP V0209999C000019999999Y0099001N1+03101+01701999999ADDMA1101491999999REMMET045METAR SBLP 292100Z 00000KT CAVOK 31/17 Q1015;
0072832880999992009073010004-13267-043417FM-15+0443SBLP V0209999C000019999999Y0099001N1+02001+01701999999ADDMA1101801999999REMMET045METAR SBLP 301000Z 00000KT CAVOK 20/17 Q1018;
0072832880999992009073011004-13267-043417FM-15+0443SBLP V0209999C000019999999Y0099001N1+02201+01701999999ADDMA1101901999999REMMET045METAR SBLP 301100Z 00000KT CAVOK 22/17 Q1019;
0072832880999992009073012004-13267-043417FM-15+0443SBLP V0209999C000019999999Y0099001N1+02501+01601999999ADDMA1101901999999REMMET045METAR SBLP 301200Z 00000KT CAVOK 25/16 Q1019;
0072832880999992009073013004-13267-043417FM-15+0443SBLP V0209999C000019999999Y0099001N1+02701+01501999999ADDMA1101901999999REMMET045METAR SBLP 301300Z 00000KT CAVOK 27/15 Q1019;
0072832880999992009073014004-13267-043417FM-15+0443SBLP V0200901N003119999999Y0099001N1+03001+01401999999ADDMA1101801999999REMMET045METAR SBLP 301400Z 09006KT CAVOK 30/14 Q1018;
0072832880999992009073015004-13267-043417FM-15+0443SBLP V0201801N003119999999Y0099001N1+03001+01301999999ADDMA1101691999999REMMET045METAR SBLP 301500Z 18006KT CAVOK 30/13 Q1017;
0072832880999992009073016004-13267-043417FM-15+0443SBLP V0202701N003119999999Y0099001N1+03301+01201999999ADDMA1101591999999REMMET045METAR SBLP 301600Z 27006KT CAVOK 33/12 Q1016;
0072832880999992009073017004-13267-043417FM-15+0443SBLP V0202301N002619999999Y0099001N1+03401+01101999999ADDMA1101491999999REMMET045METAR SBLP 301700Z 23005KT CAVOK 34/11 Q1015;
0072832880999992009073018004-13267-043417FM-15+0443SBLP V0203001N001519999999Y0099001N1+03601+00601999999ADDMA1101391999999REMMET045METAR SBLP 301800Z 30003KT CAVOK 36/06 Q1014;
0072832880999992009073019004-13267-043417FM-15+0443SBLP V0200901N002119999999Y0099001N1+03601+00601999999ADDMA1101391999999REMMET045METAR SBLP 301900Z 09004KT CAVOK 36/06 Q1014;
0072832880999992009073020004-13267-043417FM-15+0443SBLP V0200701N002119999999Y0099001N1+03501+00801999999ADDMA1101391999999REMMET045METAR SBLP 302000Z 07004KT CAVOK 35/08 Q1014;
0072832880999992009073021004-13267-043417FM-15+0443SBLP V0200501N001519999999Y0099001N1+03101+00501999999ADDMA1101491999999REMMET045METAR SBLP 302100Z 05003KT CAVOK 31/05 Q1015;
0072832880999992009073110004-13267-043417FM-15+0443SBLP V0201801N001519999999Y0099001N1+01801+01601999999ADDMA1101901999999REMMET045METAR SBLP 311000Z 18003KT CAVOK 18/16 Q1019;
0072832880999992009073111004-13267-043417FM-15+0443SBLP V0202001N001519999999Y0099001N1+02101+01401999999ADDMA1102101999999REMMET045METAR SBLP 311100Z 20003KT CAVOK 21/14 Q1021;
0072832880999992009073112004-13267-043417FM-15+0443SBLP V0202101N001519999999Y0099001N1+02501+01401999999ADDMA1102101999999REMMET045METAR SBLP 311200Z 21003KT CAVOK 25/14 Q1021;
0072832880999992009073113004-13267-043417FM-15+0443SBLP V0202301N002119999999Y0099001N1+02801+01501999999ADDMA1102101999999REMMET045METAR SBLP 311300Z 23004KT CAVOK 28/15 Q1021;
0072832880999992009073114004-13267-043417FM-15+0443SBLP V0200901N001519999999Y0099001N1+03001+01301999999ADDMA1102101999999REMMET045METAR SBLP 311400Z 09003KT CAVOK 30/13 Q1021;
0072832880999992009073115004-13267-043417FM-15+0443SBLP V0202701N001019999999Y0099001N1+03101+01401999999ADDMA1101901999999REMMET045METAR SBLP 311500Z 27002KT CAVOK 31/14 Q1019;
0072832880999992009073116004-13267-043417FM-15+0443SBLP V0209999C000019999999Y0099001N1+03201+01401999999ADDMA1101801999999REMMET045METAR SBLP 311600Z 00000KT CAVOK 32/14 Q1018;
0072832880999992009073117004-13267-043417FM-15+0443SBLP V0209999C000019999999Y0099001N1+03401+01601999999ADDMA1101591999999REMMET045METAR SBLP 311700Z 00000KT CAVOK 34/16 Q1016;
0072832880999992009073118004-13267-043417FM-15+0443SBLP V0200301N003119999999Y0099001N1+03501+01601999999ADDMA1101491999999REMMET045METAR SBLP 311800Z 03006KT CAVOK 35/16 Q1015;
0072832880999992009073120004-13267-043417FM-15+0443SBLP V0209999C000019999999Y0099001N1+03401+01601999999ADDMA1101491999999REMMET045METAR SBLP 312000Z 00000KT CAVOK 34/16 Q1015;
0072832880999992009073121004-13267-043417FM-15+0443SBLP V0209999C000019999999Y0099001N1+03201+01601999999ADDMA1101591999999REMMET045METAR SBLP 312100Z 00000KT CAVOK 32/16 Q1016;
0072832880999992009080110004-13267-043417FM-15+0443SBLP V0209999C000019999999Y0099001N1+01901+01701999999ADDMA1102001999999REMMET045METAR SBLP 011000Z 00000KT CAVOK 19/17 Q1020;
0072832880999992009080111004-13267-043417FM-15+0443SBLP V0201201N003119999999Y0099001N1+02201+01701999999ADDMA1102101999999REMMET045METAR SBLP 011100Z 12006KT CAVOK 22/17 Q1021;
0072832880999992009080112004-13267-043417FM-15+0443SBLP V0201201N003119999999Y0099001N1+02701+01701999999ADDMA1102101999999REMMET045METAR SBLP 011200Z 12006KT CAVOK 27/17 Q1021;
0120832880999992009080113004-13267-043417FM-15+0443SBLP V0201801N002112200019N0112651N1+02901+01701999999ADDGA1021+009001999GF102991999999999999999999MA1102101999999REMMET051METAR SBLP 011300Z 18004KT 9999 FEW030 29/17 Q1021;
0120832880999992009080114004-13267-043417FM-15+0443SBLP V0209999C000012200019N0112651N1+03001+01701999999ADDGA1021+009001999GF102991999999999999999999MA1102001999999REMMET051METAR SBLP 011400Z 00000KT 9999 FEW030 30/17 Q1020;
0120832880999992009080115004-13267-043417FM-15+0443SBLP V0202701N003110090019N0112651N1+03001+01701999999ADDGA1071+009001999GF107991999999999999999999MA1101901999999REMMET051METAR SBLP 011500Z 27006KT 9999 BKN030 30/17 Q1019;
0120832880999992009080116004-13267-043417FM-15+0443SBLP V0202401N003110090019N0112651N1+03001+01701999999ADDGA1071+009001999GF107991999999999999999999MA1101801999999REMMET051METAR SBLP 011600Z 24006KT 9999 BKN030 30/17 Q1018;
0120832880999992009080117004-13267-043417FM-15+0443SBLP V0202401N001510090019N0112651N1+03001+02001999999ADDGA1071+009001999GF107991999999999999999999MA1101691999999REMMET051METAR SBLP 011700Z 24003KT 9999 BKN030 30/20 Q1017;
0120832880999992009080118004-13267-043417FM-15+0443SBLP V0201801N003112200019N0112651N1+03101+02001999999ADDGA1041+009001999GF104991999999999999999999MA1101591999999REMMET051METAR SBLP 011800Z 18006KT 9999 SCT030 31/20 Q1016;
0130832880999992009080119004-13267-043417FM-15+0443SBLP V0201201N005112200019N0112651N1+03201+01701999999ADDGA1041+009001999GF104991999999999999999999MA1101591999999MW1611REMMET055METAR SBLP 011900Z 12010KT 9999 -RA SCT030 32/17 Q1016;
0120832880999992009080120004-13267-043417FM-15+0443SBLP V0201301N004112200019N0112651N1+03201+01701999999ADDGA1041+009001999GF104991999999999999999999MA1101591999999REMMET051METAR SBLP 012000Z 13008KT 9999 SCT030 32/17 Q1016;
0120832880999992009080121004-13267-043417FM-15+0443SBLP V0201801N002112200019N0112651N1+02801+01901999999ADDGA1041+009001999GF104991999999999999999999MA1101591999999REMMET051METAR SBLP 012100Z 18004KT 9999 SCT030 28/19 Q1016;
0072832880999992009080210004-13267-043417FM-15+0443SBLP V0201801N001019999999Y0099001N1+01801+01601999999ADDMA1102001999999REMMET045METAR SBLP 021000Z 18002KT CAVOK 18/16 Q1020;
0072832880999992009080211004-13267-043417FM-15+0443SBLP V0209999C000019999999Y0099001N1+02101+01601999999ADDMA1102101999999REMMET045METAR SBLP 021100Z 00000KT CAVOK 21/16 Q1021;
0072832880999992009080212004-13267-043417FM-15+0443SBLP V0209999C000019999999Y0099001N1+02601+01601999999ADDMA1102101999999REMMET045METAR SBLP 021200Z 00000KT CAVOK 26/16 Q1021;
0072832880999992009080213004-13267-043417FM-15+0443SBLP V0201101N003119999999Y0099001N1+02801+01601999999ADDMA1102101999999REMMET045METAR SBLP 021300Z 11006KT CAVOK 28/16 Q1021;
0120832880999992009080214004-13267-043417FM-15+0443SBLP V0201801N003112200019N0112651N1+02901+01601999999ADDGA1021+009001999GF102991999999999999999999MA1102001999999REMMET051METAR SBLP 021400Z 18006KT 9999 FEW030 29/16 Q1020;
0120832880999992009080215004-13267-043417FM-15+0443SBLP V0200901N003112200019N0112651N1+03101+01601999999ADDGA1041+009001999GF104991999999999999999999MA1101901999999REMMET051METAR SBLP 021500Z 09006KT 9999 SCT030 31/16 Q1019;
0120832880999992009080216004-13267-043417FM-15+0443SBLP V0202701N003112200019N0112651N1+03201+01601999999ADDGA1041+009001999GF104991999999999999999999MA1101801999999REMMET051METAR SBLP 021600Z 27006KT 9999 SCT030 32/16 Q1018;
0120832880999992009080217004-13267-043417FM-15+0443SBLP V0209999C000012200019N0112651N1+03201+01701999999ADDGA1041+009001999GF104991999999999999999999MA1101691999999REMMET051METAR SBLP 021700Z 00000KT 9999 SCT030 32/17 Q1017;
0120832880999992009080218004-13267-043417FM-15+0443SBLP V0201801N003112200019N0112651N1+03301+01601999999ADDGA1041+009001999GF104991999999999999999999MA1101491999999REMMET051METAR SBLP 021800Z 18006KT 9999 SCT030 33/16 Q1015;
0120832880999992009080219004-13267-043417FM-15+0443SBLP V0202101N003112200019N0112651N1+03201+01601999999ADDGA1021+009001999GF102991999999999999999999MA1101491999999REMMET051METAR SBLP 021900Z 21006KT 9999 FEW030 32/16 Q1015;
0120832880999992009080220004-13267-043417FM-15+0443SBLP V0202101N003112200019N0112651N1+03001+01701999999ADDGA1021+009001999GF102991999999999999999999MA1101591999999REMMET051METAR SBLP 022000Z 21006KT 9999 FEW030 30/17 Q1016;
0072832880999992009080221004-13267-043417FM-15+0443SBLP V0209999C000019999999Y0099001N1+02901+01801999999ADDMA1101591999999REMMET045METAR SBLP 022100Z 00000KT CAVOK 29/18 Q1016;
0072832880999992009080310004-13267-043417FM-15+0443SBLP V0209999C000019999999Y0099001N1+01901+01501999999ADDMA1102001999999REMMET045METAR SBLP 031000Z 00000KT CAVOK 19/15 Q1020;
0072832880999992009080311004-13267-043417FM-15+0443SBLP V0209999C000019999999Y0099001N1+02001+01501999999ADDMA1102101999999REMMET045METAR SBLP 031100Z 00000KT CAVOK 20/15 Q1021;
0072832880999992009080312004-13267-043417FM-15+0443SBLP V0209999C000019999999Y0099001N1+02501+01801999999ADDMA1102101999999REMMET045METAR SBLP 031200Z 00000KT CAVOK 25/18 Q1021;
0072832880999992009080313004-13267-043417FM-15+0443SBLP V0209999C000019999999Y0099001N1+02901+01601999999ADDMA1102101999999REMMET045METAR SBLP 031300Z 00000KT CAVOK 29/16 Q1021;
0072832880999992009080314004-13267-043417FM-15+0443SBLP V0201801N003119999999Y0099001N1+03001+01501999999ADDMA1102001999999REMMET045METAR SBLP 031400Z 18006KT CAVOK 30/15 Q1020;
0120832880999992009080315004-13267-043417FM-15+0443SBLP V0201801N003112200019N0112651N1+03101+01601999999ADDGA1021+009001999GF102991999999999999999999MA1101901999999REMMET051METAR SBLP 031500Z 18006KT 9999 FEW030 31/16 Q1019;
0120832880999992009080316004-13267-043417FM-15+0443SBLP V0201501N004112200019N0112651N1+03301+01601999999ADDGA1021+009001999GF102991999999999999999999MA1101801999999REMMET051METAR SBLP 031600Z 15008KT 9999 FEW030 33/16 Q1018;
0120832880999992009080317004-13267-043417FM-15+0443SBLP V0209999C000012200019N0112651N1+03401+01401999999ADDGA1041+009001999GF104991999999999999999999MA1101691999999REMMET051METAR SBLP 031700Z 00000KT 9999 SCT030 34/14 Q1017;
0120832880999992009080318004-13267-043417FM-15+0443SBLP V0209999C000012200019N0112651N1+03501+01101999999ADDGA1021+009001999GF102991999999999999999999MA1101591999999REMMET051METAR SBLP 031800Z 00000KT 9999 FEW030 35/11 Q1016;
0072832880999992009080319004-13267-043417FM-15+0443SBLP V0202101N002119999999Y0099001N1+03501+01401999999ADDMA1101591999999REMMET045METAR SBLP 031900Z 21004KT CAVOK 35/14 Q1016;
0072832880999992009080320004-13267-043417FM-15+0443SBLP V0202101N001519999999Y0099001N1+03401+01401999999ADDMA1101591999999REMMET045METAR SBLP 032000Z 21003KT CAVOK 34/14 Q1016;
0072832880999992009080321004-13267-043417FM-15+0443SBLP V0200901N002119999999Y0099001N1+03101+01301999999ADDMA1101591999999REMMET045METAR SBLP 032100Z 09004KT CAVOK 31/13 Q1016;
0072832880999992009080410004-13267-043417FM-15+0443SBLP V0202101N002119999999Y0099001N1+01801+01401999999ADDMA1101801999999REMMET045METAR SBLP 041000Z 21004KT CAVOK 18/14 Q1018;
0072832880999992009080411004-13267-043417FM-15+0443SBLP V0201901N001519999999Y0099001N1+02001+01501999999ADDMA1101901999999REMMET045METAR SBLP 041100Z 19003KT CAVOK 20/15 Q1019;
0072832880999992009080412004-13267-043417FM-15+0443SBLP V0202301N001019999999Y0099001N1+02401+01601999999ADDMA1101901999999REMMET045METAR SBLP 041200Z 23002KT CAVOK 24/16 Q1019;
0072832880999992009080413004-13267-043417FM-15+0443SBLP V0200901N002119999999Y0099001N1+02801+01601999999ADDMA1101901999999REMMET045METAR SBLP 041300Z 09004KT CAVOK 28/16 Q1019;
0072832880999992009080414004-13267-043417FM-15+0443SBLP V0209999C000019999999Y0099001N1+03101+01401999999ADDMA1101901999999REMMET045METAR SBLP 041400Z 00000KT CAVOK 31/14 Q1019;
0072832880999992009080415004-13267-043417FM-15+0443SBLP V0201901N003119999999Y0099001N1+03201+01301999999ADDMA1101691999999REMMET045METAR SBLP 041500Z 19006KT CAVOK 32/13 Q1017;
0072832880999992009080416004-13267-043417FM-15+0443SBLP V0201201N004119999999Y0099001N1+03401+00701999999ADDMA1101591999999REMMET045METAR SBLP 041600Z 12008KT CAVOK 34/07 Q1016;
0072832880999992009080417004-13267-043417FM-15+0443SBLP V0201501N003119999999Y0099001N1+03501+00701999999ADDMA1101491999999REMMET045METAR SBLP 041700Z 15006KT CAVOK 35/07 Q1015;
0072832880999992009080418004-13267-043417FM-15+0443SBLP V0201101N002619999999Y0099001N1+03601+00701999999ADDMA1101391999999REMMET045METAR SBLP 041800Z 11005KT CAVOK 36/07 Q1014;
0072832880999992009080419004-13267-043417FM-15+0443SBLP V0201301N003119999999Y0099001N1+03501+00501999999ADDMA1101391999999REMMET045METAR SBLP 041900Z 13006KT CAVOK 35/05 Q1014;
0072832880999992009080420004-13267-043417FM-15+0443SBLP V0201301N002619999999Y0099001N1+03301+00501999999ADDMA1101391999999REMMET045METAR SBLP 042000Z 13005KT CAVOK 33/05 Q1014;
0072832880999992009080421004-13267-043417FM-15+0443SBLP V0201201N002119999999Y0099001N1+03001+00801999999ADDMA1101491999999REMMET045METAR SBLP 042100Z 12004KT CAVOK 30/08 Q1015;
0072832880999992009080510004-13267-043417FM-15+0443SBLP V0209999C000019999999Y0099001N1+01601+01201999999ADDMA1101801999999REMMET045METAR SBLP 051000Z 00000KT CAVOK 16/12 Q1018;
0072832880999992009080511004-13267-043417FM-15+0443SBLP V0202301N002119999999Y0099001N1+02001+01401999999ADDMA1101901999999REMMET045METAR SBLP 051100Z 23004KT CAVOK 20/14 Q1019;
0072832880999992009080512004-13267-043417FM-15+0443SBLP V0201801N001519999999Y0099001N1+02501+01401999999ADDMA1101901999999REMMET045METAR SBLP 051200Z 18003KT CAVOK 25/14 Q1019;
0072832880999992009080513004-13267-043417FM-15+0443SBLP V0200901N002119999999Y0099001N1+02801+01201999999ADDMA1101901999999REMMET045METAR SBLP 051300Z 09004KT CAVOK 28/12 Q1019;
0072832880999992009080514004-13267-043417FM-15+0443SBLP V0201101N003119999999Y0099001N1+03101+01201999999ADDMA1101801999999REMMET045METAR SBLP 051400Z 11006KT CAVOK 31/12 Q1018;
0072832880999992009080515004-13267-043417FM-15+0443SBLP V0200601N002619999999Y0099001N1+03201+01301999999ADDMA1101691999999REMMET045METAR SBLP 051500Z 06005KT CAVOK 32/13 Q1017;
0072832880999992009080516004-13267-043417FM-15+0443SBLP V0200901N003119999999Y0099001N1+03201+01401999999ADDMA1101591999999REMMET045METAR SBLP 051600Z 09006KT CAVOK 32/14 Q1016;
0072832880999992009080517004-13267-043417FM-15+0443SBLP V0200601N003119999999Y0099001N1+03301+01401999999ADDMA1101491999999REMMET045METAR SBLP 051700Z 06006KT CAVOK 33/14 Q1015;
0072832880999992009080518004-13267-043417FM-15+0443SBLP V0201201N003119999999Y0099001N1+03401+01401999999ADDMA1101391999999REMMET045METAR SBLP 051800Z 12006KT CAVOK 34/14 Q1014;
0072832880999992009080519004-13267-043417FM-15+0443SBLP V0200201N003119999999Y0099001N1+03401+01401999999ADDMA1101391999999REMMET045METAR SBLP 051900Z 02006KT CAVOK 34/14 Q1014;
0072832880999992009080520004-13267-043417FM-15+0443SBLP V0200201N003119999999Y0099001N1+03201+01401999999ADDMA1101391999999REMMET045METAR SBLP 052000Z 02006KT CAVOK 32/14 Q1014;
0072832880999992009080521004-13267-043417FM-15+0443SBLP V0200401N003119999999Y0099001N1+03001+01501999999ADDMA1101391999999REMMET045METAR SBLP 052100Z 04006KT CAVOK 30/15 Q1014;
0072832880999992009080610004-13267-043417FM-15+0443SBLP V0202001N001019999999Y0099001N1+01801+01301999999ADDMA1101901999999REMMET045METAR SBLP 061000Z 20002KT CAVOK 18/13 Q1019;
0072832880999992009080611004-13267-043417FM-15+0443SBLP V0201801N001519999999Y0099001N1+02101+01501999999ADDMA1101901999999REMMET045METAR SBLP 061100Z 18003KT CAVOK 21/15 Q1019;
0072832880999992009080612004-13267-043417FM-15+0443SBLP V0201201N001519999999Y0099001N1+02501+01601999999ADDMA1102001999999REMMET045METAR SBLP 061200Z 12003KT CAVOK 25/16 Q1020;
0072832880999992009080613004-13267-043417FM-15+0443SBLP V0200601N002619999999Y0099001N1+02801+01501999999ADDMA1102001999999REMMET045METAR SBLP 061300Z 06005KT CAVOK 28/15 Q1020;
0120832880999992009080614004-13267-043417FM-15+0443SBLP V0203601N002112200019N0112651N1+03101+01401999999ADDGA1021+009001999GF102991999999999999999999MA1101901999999REMMET051METAR SBLP 061400Z 36004KT 9999 FEW030 31/14 Q1019;
0120832880999992009080615004-13267-043417FM-15+0443SBLP V0202101N003112200019N0112651N1+03201+01501999999ADDGA1021+009001999GF102991999999999999999999MA1101801999999REMMET051METAR SBLP 061500Z 21006KT 9999 FEW030 32/15 Q1018;
0120832880999992009080616004-13267-043417FM-15+0443SBLP V0201801N003112200019N0112651N1+03101+01401999999ADDGA1041+009001999GF104991999999999999999999MA1101691999999REMMET051METAR SBLP 061600Z 18006KT 9999 SCT030 31/14 Q1017;
0120832880999992009080617004-13267-043417FM-15+0443SBLP V0202301N003112200019N0112651N1+03201+01401999999ADDGA1041+009001999GF104991999999999999999999MA1101591999999REMMET051METAR SBLP 061700Z 23006KT 9999 SCT030 32/14 Q1016;
0120832880999992009080618004-13267-043417FM-15+0443SBLP V0209999C000012200019N0112651N1+03301+01301999999ADDGA1041+009001999GF104991999999999999999999MA1101591999999REMMET051METAR SBLP 061800Z 00000KT 9999 SCT030 33/13 Q1016;
0120832880999992009080619004-13267-043417FM-15+0443SBLP V0202101N003112200019N0112651N1+03201+01301999999ADDGA1041+009001999GF104991999999999999999999MA1101491999999REMMET051METAR SBLP 061900Z 21006KT 9999 SCT030 32/13 Q1015;
0120832880999992009080620004-13267-043417FM-15+0443SBLP V0202101N003112200019N0112651N1+03001+01501999999ADDGA1021+009001999GF102991999999999999999999MA1101591999999REMMET051METAR SBLP 062000Z 21006KT 9999 FEW030 30/15 Q1016;
0072832880999992009080621004-13267-043417FM-15+0443SBLP V0209999C000019999999Y0099001N1+02801+01201999999ADDMA1101591999999REMMET045METAR SBLP 062100Z 00000KT CAVOK 28/12 Q1016;
0072832880999992009080710004-13267-043417FM-15+0443SBLP V0209999C000019999999Y0099001N1+01701+01301999999ADDMA1101901999999REMMET045METAR SBLP 071000Z 00000KT CAVOK 17/13 Q1019;
0072832880999992009080711004-13267-043417FM-15+0443SBLP V0202101N003119999999Y0099001N1+02001+01401999999ADDMA1101901999999REMMET045METAR SBLP 071100Z 21006KT CAVOK 20/14 Q1019;
0072832880999992009080712004-13267-043417FM-15+0443SBLP V0202101N003119999999Y0099001N1+02401+01401999999ADDMA1102001999999REMMET045METAR SBLP 071200Z 21006KT CAVOK 24/14 Q1020;
0072832880999992009080713004-13267-043417FM-15+0443SBLP V0202401N003119999999Y0099001N1+02701+01501999999ADDMA1102001999999REMMET045METAR SBLP 071300Z 24006KT CAVOK 27/15 Q1020;
0072832880999992009080714004-13267-043417FM-15+0443SBLP V0202101N003119999999Y0099001N1+03001+01401999999ADDMA1101901999999REMMET045METAR SBLP 071400Z 21006KT CAVOK 30/14 Q1019;
0072832880999992009080715004-13267-043417FM-15+0443SBLP V0202101N003119999999Y0099001N1+03101+01401999999ADDMA1101801999999REMMET045METAR SBLP 071500Z 21006KT CAVOK 31/14 Q1018;
0072832880999992009080716004-13267-043417FM-15+0443SBLP V0200901N005119999999Y0099001N1+03301+01301999999ADDMA1101691999999REMMET045METAR SBLP 071600Z 09010KT CAVOK 33/13 Q1017;
0072832880999992009080717004-13267-043417FM-15+0443SBLP V0201501N005119999999Y0099001N1+03401+01101999999ADDMA1101591999999REMMET045METAR SBLP 071700Z 15010KT CAVOK 34/11 Q1016;
0072832880999992009080718004-13267-043417FM-15+0443SBLP V0201201N005119999999Y0099001N1+03401+01201999999ADDMA1101491999999REMMET045METAR SBLP 071800Z 12010KT CAVOK 34/12 Q1015;
0072832880999992009080719004-13267-043417FM-15+0443SBLP V0201801N003119999999Y0099001N1+03401+01001999999ADDMA1101491999999REMMET045METAR SBLP 071900Z 18006KT CAVOK 34/10 Q1015;
0072832880999992009080720004-13267-043417FM-15+0443SBLP V0201801N006219999999Y0099001N1+03301+01201999999ADDMA1101491999999REMMET045METAR SBLP 072000Z 18012KT CAVOK 33/12 Q1015;
0072832880999992009080810004-13267-043417FM-15+0443SBLP V0201601N003119999999Y0099001N1+01701+01501999999ADDMA1101901999999REMMET045METAR SBLP 081000Z 16006KT CAVOK 17/15 Q1019;
0072832880999992009080811004-13267-043417FM-15+0443SBLP V0201601N003119999999Y0099001N1+02201+01401999999ADDMA1102001999999REMMET045METAR SBLP 081100Z 16006KT CAVOK 22/14 Q1020;
0072832880999992009080812004-13267-043417FM-15+0443SBLP V0201501N002119999999Y0099001N1+02501+01301999999ADDMA1102101999999REMMET045METAR SBLP 081200Z 15004KT CAVOK 25/13 Q1021;
0072832880999992009080813004-13267-043417FM-15+0443SBLP V0200901N003119999999Y0099001N1+02801+01201999999ADDMA1102101999999REMMET045METAR SBLP 081300Z 09006KT CAVOK 28/12 Q1021;
0120832880999992009080814004-13267-043417FM-15+0443SBLP V0200901N003112200019N0112651N1+03001+01301999999ADDGA1021+009001999GF102991999999999999999999MA1102001999999REMMET051METAR SBLP 081400Z 09006KT 9999 FEW030 30/13 Q1020;
0120832880999992009080815004-13267-043417FM-15+0443SBLP V0200201N002112200019N0112651N1+03101+01201999999ADDGA1041+009001999GF104991999999999999999999MA1101901999999REMMET051METAR SBLP 081500Z 02004KT 9999 SCT030 31/12 Q1019;
0120832880999992009080816004-13267-043417FM-15+0443SBLP V0201501N005112200019N0112651N1+03201+01301999999ADDGA1041+009001999GF104991999999999999999999MA1101801999999REMMET051METAR SBLP 081600Z 15010KT 9999 SCT030 32/13 Q1018;
0120832880999992009080817004-13267-043417FM-15+0443SBLP V0200601N004112200019N0112651N1+03401+01401999999ADDGA1041+009001999GF104991999999999999999999MA1101691999999REMMET051METAR SBLP 081700Z 06008KT 9999 SCT030 34/14 Q1017;
0120832880999992009080818004-13267-043417FM-15+0443SBLP V0200901N003112200019N0112651N1+03301+01301999999ADDGA1041+009001999GF104991999999999999999999MA1101591999999REMMET051METAR SBLP 081800Z 09006KT 9999 SCT030 33/13 Q1016;
0120832880999992009080819004-13267-043417FM-15+0443SBLP V0201201N001512200019N0112651N1+03301+01401999999ADDGA1041+009001999GF104991999999999999999999MA1101591999999REMMET051METAR SBLP 081900Z 12003KT 9999 SCT030 33/14 Q1016;
0120832880999992009080820004-13267-043417FM-15+0443SBLP V0200901N003112200019N0112651N1+03301+01601999999ADDGA1041+009001999GF104991999999999999999999MA1101591999999REMMET051METAR SBLP 082000Z 09006KT 9999 SCT030 33/16 Q1016;
0120832880999992009080821004-13267-043417FM-15+0443SBLP V0201201N003112200019N0112651N1+03101+01801999999ADDGA1041+009001999GF104991999999999999999999MA1101691999999REMMET051METAR SBLP 082100Z 12006KT 9999 SCT030 31/18 Q1017;
0072832880999992009080910004-13267-043417FM-15+0443SBLP V0209999C000019999999Y0099001N1+01801+01601999999ADDMA1101901999999REMMET045METAR SBLP 091000Z 00000KT CAVOK 18/16 Q1019;
0072832880999992009080911004-13267-043417FM-15+0443SBLP V0209999C000019999999Y0099001N1+02101+01501999999ADDMA1102001999999REMMET045METAR SBLP 091100Z 00000KT CAVOK 21/15 Q1020;
0072832880999992009080912004-13267-043417FM-15+0443SBLP V0209999C000019999999Y0099001N1+02501+01601999999ADDMA1102001999999REMMET045METAR SBLP 091200Z 00000KT CAVOK 25/16 Q1020;
0072832880999992009080913004-13267-043417FM-15+0443SBLP V0202601N003119999999Y0099001N1+02701+01701999999ADDMA1102001999999REMMET045METAR SBLP 091300Z 26006KT CAVOK 27/17 Q1020;
0120832880999992009080914004-13267-043417FM-15+0443SBLP V0202701N001512200019N0112651N1+02801+01601999999ADDGA1021+009001999GF102991999999999999999999MA1101901999999REMMET051METAR SBLP 091400Z 27003KT 9999 FEW030 28/16 Q1019;
0120832880999992009080915004-13267-043417FM-15+0443SBLP V0202101N003112200019N0112651N1+03101+01601999999ADDGA1021+009001999GF102991999999999999999999MA1101801999999REMMET051METAR SBLP 091500Z 21006KT 9999 FEW030 31/16 Q1018;
0120832880999992009080916004-13267-043417FM-15+0443SBLP V0209999C000012200019N0112651N1+03101+01501999999ADDGA1021+009001999GF102991999999999999999999MA1101691999999REMMET051METAR SBLP 091600Z 00000KT 9999 FEW030 31/15 Q1017;
0120832880999992009080917004-13267-043417FM-15+0443SBLP V0202701N003112200019N0112651N1+03201+01401999999ADDGA1041+009001999GF104991999999999999999999MA1101591999999REMMET051METAR SBLP 091700Z 27006KT 9999 SCT030 32/14 Q1016;
0120832880999992009080918004-13267-043417FM-15+0443SBLP V0202001N003112200019N0112651N1+03301+01301999999ADDGA1021+009001999GF102991999999999999999999MA1101491999999REMMET051METAR SBLP 091800Z 20006KT 9999 FEW030 33/13 Q1015;
0120832880999992009080919004-13267-043417FM-15+0443SBLP V0202101N003112200019N0112651N1+03401+01401999999ADDGA1021+009001999GF102991999999999999999999MA1101491999999REMMET051METAR SBLP 091900Z 21006KT 9999 FEW030 34/14 Q1015;
0072832880999992009080920004-13267-043417FM-15+0443SBLP V0202401N003119999999Y0099001N1+03301+01401999999ADDMA1101491999999REMMET045METAR SBLP 092000Z 24006KT CAVOK 33/14 Q1015;
0072832880999992009080921004-13267-043417FM-15+0443SBLP V0202101N003119999999Y0099001N1+03001+01601999999ADDMA1101491999999REMMET045METAR SBLP 092100Z 21006KT CAVOK 30/16 Q1015;
0072832880999992009081010004-13267-043417FM-15+0443SBLP V0202101N002119999999Y0099001N1+01801+01501999999ADDMA1101801999999REMMET045METAR SBLP 101000Z 21004KT CAVOK 18/15 Q1018;
0072832880999992009081011004-13267-043417FM-15+0443SBLP V0202201N001519999999Y0099001N1+02101+01601999999ADDMA1101901999999REMMET045METAR SBLP 101100Z 22003KT CAVOK 21/16 Q1019;
0072832880999992009081012004-13267-043417FM-15+0443SBLP V0202401N001519999999Y0099001N1+02501+01601999999ADDMA1101901999999REMMET045METAR SBLP 101200Z 24003KT CAVOK 25/16 Q1019;
0072832880999992009081013004-13267-043417FM-15+0443SBLP V0202101N001519999999Y0099001N1+02801+01601999999ADDMA1102001999999REMMET045METAR SBLP 101300Z 21003KT CAVOK 28/16 Q1020;
0072832880999992009081014004-13267-043417FM-15+0443SBLP V0209999C000019999999Y0099001N1+03001+01501999999ADDMA1101901999999REMMET045METAR SBLP 101400Z 00000KT CAVOK 30/15 Q1019;
0120832880999992009081015004-13267-043417FM-15+0443SBLP V0202701N003112200019N0112651N1+03101+01501999999ADDGA1021+009001999GF102991999999999999999999MA1101801999999REMMET051METAR SBLP 101500Z 27006KT 9999 FEW030 31/15 Q1018;
0120832880999992009081016004-13267-043417FM-15+0443SBLP V0202701N003112200019N0112651N1+03201+01401999999ADDGA1021+009001999GF102991999999999999999999MA1101691999999REMMET051METAR SBLP 101600Z 27006KT 9999 FEW030 32/14 Q1017;
0120832880999992009081017004-13267-043417FM-15+0443SBLP V0202101N003112200019N0112651N1+03301+01501999999ADDGA1021+009001999GF102991999999999999999999MA1101591999999REMMET051METAR SBLP 101700Z 21006KT 9999 FEW030 33/15 Q1016;
0072832880999992009081018004-13267-043417FM-15+0443SBLP V0202401N003119999999Y0099001N1+03301+01401999999ADDMA1101491999999REMMET045METAR SBLP 101800Z 24006KT CAVOK 33/14 Q1015;
0072832880999992009081019004-13267-043417FM-15+0443SBLP V0202401N003119999999Y0099001N1+03301+01401999999ADDMA1101491999999REMMET045METAR SBLP 101900Z 24006KT CAVOK 33/14 Q1015;
0072832880999992009081020004-13267-043417FM-15+0443SBLP V0202401N003119999999Y0099001N1+03301+01501999999ADDMA1101491999999REMMET045METAR SBLP 102000Z 24006KT CAVOK 33/15 Q1015;
0072832880999992009081021004-13267-043417FM-15+0443SBLP V0209999C000019999999Y0099001N1+03001+01501999999ADDMA1101491999999REMMET045METAR SBLP 102100Z 00000KT CAVOK 30/15 Q1015;
0072832880999992009081110004-13267-043417FM-15+0443SBLP V0209999C000019999999Y0099001N1+01801+01401999999ADDMA1101691999999REMMET045METAR SBLP 111000Z 00000KT CAVOK 18/14 Q1017;
0072832880999992009081113004-13267-043417FM-15+0443SBLP V0200901N003119999999Y0099001N1+02901+01401999999ADDMA1101801999999REMMET045METAR SBLP 111300Z 09006KT CAVOK 29/14 Q1018;
0072832880999992009081114004-13267-043417FM-15+0443SBLP V0209999C000019999999Y0099001N1+03201+01301999999ADDMA1101801999999REMMET045METAR SBLP 111400Z 00000KT CAVOK 32/13 Q1018;
0072832880999992009081115004-13267-043417FM-15+0443SBLP V0209999C000019999999Y0099001N1+03401+01301999999ADDMA1101691999999REMMET045METAR SBLP 111500Z 00000KT CAVOK 34/13 Q1017;
0072832880999992009081116004-13267-043417FM-15+0443SBLP V0201201N006219999999Y0099001N1+03501+01301999999ADDMA1101491999999REMMET045METAR SBLP 111600Z 12012KT CAVOK 35/13 Q1015;
0072832880999992009081117004-13267-043417FM-15+0443SBLP V0201501N005119999999Y0099001N1+03601+01201999999ADDMA1101391999999REMMET045METAR SBLP 111700Z 15010KT CAVOK 36/12 Q1014;
0072832880999992009081118004-13267-043417FM-15+0443SBLP V0201501N005119999999Y0099001N1+03501+01201999999ADDMA1101391999999REMMET045METAR SBLP 111800Z 15010KT CAVOK 35/12 Q1014;
0072832880999992009081119004-13267-043417FM-15+0443SBLP V0201101N002119999999Y0099001N1+03501+01101999999ADDMA1101291999999REMMET045METAR SBLP 111900Z 11004KT CAVOK 35/11 Q1013;
0072832880999992009081120004-13267-043417FM-15+0443SBLP V0200901N004119999999Y0099001N1+03501+01201999999ADDMA1101391999999REMMET045METAR SBLP 112000Z 09008KT CAVOK 35/12 Q1014;
0072832880999992009081121004-13267-043417FM-15+0443SBLP V0201201N004119999999Y0099001N1+03201+01301999999ADDMA1101491999999REMMET045METAR SBLP 112100Z 12008KT CAVOK 32/13 Q1015;
0072832880999992009081210004-13267-043417FM-15+0443SBLP V0209999C000019999999Y0099001N1+01901+01401999999ADDMA1102001999999REMMET045METAR SBLP 121000Z 00000KT CAVOK 19/14 Q1020;
0072832880999992009081211004-13267-043417FM-15+0443SBLP V0209999C000019999999Y0099001N1+02201+01601999999ADDMA1102101999999REMMET045METAR SBLP 121100Z 00000KT CAVOK 22/16 Q1021;
0072832880999992009081212004-13267-043417FM-15+0443SBLP V0201201N004119999999Y0099001N1+02501+01501999999ADDMA1102101999999REMMET045METAR SBLP 121200Z 12008KT CAVOK 25/15 Q1021;
0072832880999992009081213004-13267-043417FM-15+0443SBLP V0201501N004119999999Y0099001N1+02901+01101999999ADDMA1102101999999REMMET045METAR SBLP 121300Z 15008KT CAVOK 29/11 Q1021;
0072832880999992009081215004-13267-043417FM-15+0443SBLP V0201401N006219999999Y0099001N1+03101+01101999999ADDMA1102001999999REMMET045METAR SBLP 121500Z 14012KT CAVOK 31/11 Q1020;
0072832880999992009081216004-13267-043417FM-15+0443SBLP V0201801N003119999999Y0099001N1+03201+01201999999ADDMA1101801999999REMMET045METAR SBLP 121600Z 18006KT CAVOK 32/12 Q1018;
0120832880999992009081217004-13267-043417FM-15+0443SBLP V0201801N004112200019N0112651N1+03301+01201999999ADDGA1021+009001999GF102991999999999999999999MA1101691999999REMMET051METAR SBLP 121700Z 18008KT 9999 FEW030 33/12 Q1017;
0120832880999992009081218004-13267-043417FM-15+0443SBLP V0209999C000012200019N0112651N1+03401+01201999999ADDGA1021+009001999GF102991999999999999999999MA1101691999999REMMET051METAR SBLP 121800Z 00000KT 9999 FEW030 34/12 Q1017;
0120832880999992009081219004-13267-043417FM-15+0443SBLP V0201201N003112200019N0112651N1+03401+01201999999ADDGA1021+009001999GF102991999999999999999999MA1101691999999REMMET051METAR SBLP 121900Z 12006KT 9999 FEW030 34/12 Q1017;
0072832880999992009081220004-13267-043417FM-15+0443SBLP V0201201N004119999999Y0099001N1+03201+01301999999ADDMA1101691999999REMMET045METAR SBLP 122000Z 12008KT CAVOK 32/13 Q1017;
0072832880999992009081221004-13267-043417FM-15+0443SBLP V0201201N003119999999Y0099001N1+02901+01501999999ADDMA1101801999999REMMET045METAR SBLP 122100Z 12006KT CAVOK 29/15 Q1018;
0072832880999992009081310004-13267-043417FM-15+0443SBLP V0209999C000019999999Y0099001N1+01801+01301999999ADDMA1102101999999REMMET045METAR SBLP 131000Z 00000KT CAVOK 18/13 Q1021;
0072832880999992009081311004-13267-043417FM-15+0443SBLP V0200901N003119999999Y0099001N1+02301+01301999999ADDMA1102201999999REMMET045METAR SBLP 131100Z 09006KT CAVOK 23/13 Q1022;
0072832880999992009081312004-13267-043417FM-15+0443SBLP V0201201N003119999999Y0099001N1+02601+01301999999ADDMA1102201999999REMMET045METAR SBLP 131200Z 12006KT CAVOK 26/13 Q1022;
0072832880999992009081313004-13267-043417FM-15+0443SBLP V0200401N003119999999Y0099001N1+02701+01301999999ADDMA1102201999999REMMET045METAR SBLP 131300Z 04006KT CAVOK 27/13 Q1022;
0120832880999992009081314004-13267-043417FM-15+0443SBLP V0201801N003112200019N0112651N1+02901+01301999999ADDGA1021+009001999GF102991999999999999999999MA1102101999999REMMET051METAR SBLP 131400Z 18006KT 9999 FEW030 29/13 Q1021;
0120832880999992009081315004-13267-043417FM-15+0443SBLP V0201801N003112200019N0112651N1+03001+01301999999ADDGA1021+009001999GF102991999999999999999999MA1102001999999REMMET051METAR SBLP 131500Z 18006KT 9999 FEW030 30/13 Q1020;
0120832880999992009081316004-13267-043417FM-15+0443SBLP V0201801N002112200019N0112651N1+03101+01301999999ADDGA1021+009001999GF102991999999999999999999MA1101901999999REMMET051METAR SBLP 131600Z 18004KT 9999 FEW030 31/13 Q1019;
0120832880999992009081317004-13267-043417FM-15+0443SBLP V0201801N003112200019N0112651N1+03201+01301999999ADDGA1021+009001999GF102991999999999999999999MA1101691999999REMMET051METAR SBLP 131700Z 18006KT 9999 FEW030 32/13 Q1017;
0120832880999992009081318004-13267-043417FM-15+0443SBLP V0201001N004112200019N0112651N1+03201+01101999999ADDGA1021+009001999GF102991999999999999999999MA1101591999999REMMET051METAR SBLP 131800Z 10008KT 9999 FEW030 32/11 Q1016;
0072832880999992009081319004-13267-043417FM-15+0443SBLP V0201701N004119999999Y0099001N1+03201+01101999999ADDMA1101591999999REMMET045METAR SBLP 131900Z 17008KT CAVOK 32/11 Q1016;
0072832880999992009081320004-13267-043417FM-15+0443SBLP V0201301N003119999999Y0099001N1+03101+01201999999ADDMA1101591999999REMMET045METAR SBLP 132000Z 13006KT CAVOK 31/12 Q1016;
0072832880999992009081321004-13267-043417FM-15+0443SBLP V0201801N005119999999Y0099001N1+02901+01201999999ADDMA1101691999999REMMET045METAR SBLP 132100Z 18010KT CAVOK 29/12 Q1017;
0072832880999992009081410004-13267-043417FM-15+0443SBLP V0201801N002119999999Y0099001N1+01801+01501999999ADDMA1101901999999REMMET045METAR SBLP 141000Z 18004KT CAVOK 18/15 Q1019;
0072832880999992009081411004-13267-043417FM-15+0443SBLP V0201501N003119999999Y0099001N1+02201+01501999999ADDMA1101901999999REMMET045METAR SBLP 141100Z 15006KT CAVOK 22/15 Q1019;
0072832880999992009081412004-13267-043417FM-15+0443SBLP V0201401N001019999999Y0099001N1+02401+01401999999ADDMA1102001999999REMMET045METAR SBLP 141200Z 14002KT CAVOK 24/14 Q1020;
0072832880999992009081413004-13267-043417FM-15+0443SBLP V0201201N002119999999Y0099001N1+02701+01401999999ADDMA1101901999999REMMET045METAR SBLP 141300Z 12004KT CAVOK 27/14 Q1019;
0120832880999992009081414004-13267-043417FM-15+0443SBLP V0200401N002112200019N0112651N1+03001+01401999999ADDGA1021+009001999GF102991999999999999999999MA1101901999999REMMET051METAR SBLP 141400Z 04004KT 9999 FEW030 30/14 Q1019;
0120832880999992009081415004-13267-043417FM-15+0443SBLP V0200901N004112200019N0112651N1+03101+01201999999ADDGA1021+009001999GF102991999999999999999999MA1101691999999REMMET051METAR SBLP 141500Z 09008KT 9999 FEW030 31/12 Q1017;
0120832880999992009081416004-13267-043417FM-15+0443SBLP V0209999C000012200019N0112651N1+03201+01101999999ADDGA1021+009001999GF102991999999999999999999MA1101591999999REMMET051METAR SBLP 141600Z 00000KT 9999 FEW030 32/11 Q1016;
0120832880999992009081417004-13267-043417FM-15+0443SBLP V0202201N003112200019N0112651N1+03201+01001999999ADDGA1021+009001999GF102991999999999999999999MA1101491999999REMMET051METAR SBLP 141700Z 22006KT 9999 FEW030 32/10 Q1015;
0120832880999992009081418004-13267-043417FM-15+0443SBLP V0202201N006212200019N0112651N1+03301+01301999999ADDGA1041+009001999GF104991999999999999999999MA1101391999999REMMET051METAR SBLP 141800Z 22012KT 9999 SCT030 33/13 Q1014;
0120832880999992009081419004-13267-043417FM-15+0443SBLP V0202201N005112200019N0112651N1+03301+01201999999ADDGA1041+009001999GF104991999999999999999999MA1101291999999REMMET051METAR SBLP 141900Z 22010KT 9999 SCT030 33/12 Q1013;
0120832880999992009081420004-13267-043417FM-15+0443SBLP V0201801N005112200019N0112651N1+03101+01101999999ADDGA1021+009001999GF102991999999999999999999MA1101391999999REMMET051METAR SBLP 142000Z 18010KT 9999 FEW030 31/11 Q1014;
0072832880999992009081421004-13267-043417FM-15+0443SBLP V0201801N005119999999Y0099001N1+02901+01101999999ADDMA1101391999999REMMET045METAR SBLP 142100Z 18010KT CAVOK 29/11 Q1014;
0072832880999992009081509004-13267-043417FM-15+0443SBLP V0209999C000019999999Y0099001N1+01701+01401999999ADDMA1101691999999REMMET045METAR SBLP 150900Z 00000KT CAVOK 17/14 Q1017;
0072832880999992009081510004-13267-043417FM-15+0443SBLP V0209999C000019999999Y0099001N1+01801+01401999999ADDMA1101691999999REMMET045METAR SBLP 151000Z 00000KT CAVOK 18/14 Q1017;
0072832880999992009081511004-13267-043417FM-15+0443SBLP V0209999C000019999999Y0099001N1+02101+01401999999ADDMA1101801999999REMMET045METAR SBLP 151100Z 00000KT CAVOK 21/14 Q1018;
0072832880999992009081512004-13267-043417FM-15+0443SBLP V0201201N003119999999Y0099001N1+02501+01401999999ADDMA1101901999999REMMET045METAR SBLP 151200Z 12006KT CAVOK 25/14 Q1019;
0072832880999992009081513004-13267-043417FM-15+0443SBLP V0201201N003119999999Y0099001N1+02601+01501999999ADDMA1101901999999REMMET045METAR SBLP 151300Z 12006KT CAVOK 26/15 Q1019;
0072832880999992009081514004-13267-043417FM-15+0443SBLP V0209999C000019999999Y0099001N1+02901+01401999999ADDMA1101801999999REMMET045METAR SBLP 151400Z 00000KT CAVOK 29/14 Q1018;
0120832880999992009081515004-13267-043417FM-15+0443SBLP V0209999C000012200019N0112651N1+03101+01401999999ADDGA1021+009001999GF102991999999999999999999MA1101591999999REMMET051METAR SBLP 151500Z 00000KT 9999 FEW030 31/14 Q1016;
0120832880999992009081516004-13267-043417FM-15+0443SBLP V0209999C000012200019N0112651N1+03201+01301999999ADDGA1021+009001999GF102991999999999999999999MA1101491999999REMMET051METAR SBLP 151600Z 00000KT 9999 FEW030 32/13 Q1015;
0120832880999992009081517004-13267-043417FM-15+0443SBLP V0200901N003112200019N0112651N1+03201+01301999999ADDGA1041+009001999GF104991999999999999999999MA1101391999999REMMET051METAR SBLP 151700Z 09006KT 9999 SCT030 32/13 Q1014;
0120832880999992009081518004-13267-043417FM-15+0443SBLP V0209999C000012200019N0112651N1+03301+01201999999ADDGA1021+009001999GF102991999999999999999999MA1101291999999REMMET051METAR SBLP 151800Z 00000KT 9999 FEW030 33/12 Q1013;
0120832880999992009081519004-13267-043417FM-15+0443SBLP V0201401N002112200019N0112651N1+03101+01301999999ADDGA1021+009001999GF102991999999999999999999MA1101291999999REMMET051METAR SBLP 151900Z 14004KT 9999 FEW030 31/13 Q1013;
0120832880999992009081520004-13267-043417FM-15+0443SBLP V0201801N003112200019N0112651N1+03101+01301999999ADDGA1021+009001999GF102991999999999999999999MA1101291999999REMMET051METAR SBLP 152000Z 18006KT 9999 FEW030 31/13 Q1013;
0072832880999992009081521004-13267-043417FM-15+0443SBLP V0201601N003119999999Y0099001N1+03001+01401999999ADDMA1101391999999REMMET045METAR SBLP 152100Z 16006KT CAVOK 30/14 Q1014;
0072832880999992009081610004-13267-043417FM-15+0443SBLP V0209999C000019999999Y0099001N1+01801+01401999999ADDMA1101801999999REMMET045METAR SBLP 161000Z 00000KT CAVOK 18/14 Q1018;
0072832880999992009081611004-13267-043417FM-15+0443SBLP V0201801N003119999999Y0099001N1+02101+01301999999ADDMA1101901999999REMMET045METAR SBLP 161100Z 18006KT CAVOK 21/13 Q1019;
0072832880999992009081612004-13267-043417FM-15+0443SBLP V0209999C000019999999Y0099001N1+02501+01501999999ADDMA1102001999999REMMET045METAR SBLP 161200Z 00000KT CAVOK 25/15 Q1020;
0072832880999992009081613004-13267-043417FM-15+0443SBLP V0200301N002119999999Y0099001N1+02701+01301999999ADDMA1102001999999REMMET045METAR SBLP 161300Z 03004KT CAVOK 27/13 Q1020;
0120832880999992009081614004-13267-043417FM-15+0443SBLP V0200301N003112200019N0112651N1+03001+01301999999ADDGA1021+009001999GF102991999999999999999999MA1101901999999REMMET051METAR SBLP 161400Z 03006KT 9999 FEW030 30/13 Q1019;
0120832880999992009081615004-13267-043417FM-15+0443SBLP V0209999C000012200019N0112651N1+03101+01401999999ADDGA1041+009001999GF104991999999999999999999MA1101801999999REMMET051METAR SBLP 161500Z 00000KT 9999 SCT030 31/14 Q1018;
0120832880999992009081616004-13267-043417FM-15+0443SBLP V0209999C000012200019N0112651N1+03101+01201999999ADDGA1041+009001999GF104991999999999999999999MA1101691999999REMMET051METAR SBLP 161600Z 00000KT 9999 SCT030 31/12 Q1017;
0120832880999992009081617004-13267-043417FM-15+0443SBLP V0201801N003112200019N0112651N1+03301+01101999999ADDGA1041+009001999GF104991999999999999999999MA1101491999999REMMET051METAR SBLP 161700Z 18006KT 9999 SCT030 33/11 Q1015;
0120832880999992009081618004-13267-043417FM-15+0443SBLP V0203601N002112200019N0112651N1+03401+01001999999ADDGA1041+009001999GF104991999999999999999999MA1101391999999REMMET051METAR SBLP 161800Z 36004KT 9999 SCT030 34/10 Q1014;
0120832880999992009081619004-13267-043417FM-15+0443SBLP V0201501N005112200019N0112651N1+03201+00801999999ADDGA1041+009001999GF104991999999999999999999MA1101391999999REMMET051METAR SBLP 161900Z 15010KT 9999 SCT030 32/08 Q1014;
0120832880999992009081620004-13267-043417FM-15+0443SBLP V0201501N003112200019N0112651N1+03301+01101999999ADDGA1041+009001999GF104991999999999999999999MA1101391999999REMMET051METAR SBLP 162000Z 15006KT 9999 SCT030 33/11 Q1014;
0120832880999992009081621004-13267-043417FM-15+0443SBLP V0201401N002112200019N0112651N1+03001+01201999999ADDGA1021+009001999GF102991999999999999999999MA1101391999999REMMET051METAR SBLP 162100Z 14004KT 9999 FEW030 30/12 Q1014;
0072832880999992009081709074-13267-043417FM-16+0443SBLP V0209999C000019999999Y0099001N1+01801+01301999999ADDMA1101801999999REMMET045SPECI SBLP 170907Z 00000KT CAVOK 18/13 Q1018;
0072832880999992009081710004-13267-043417FM-15+0443SBLP V0202101N002119999999Y0099001N1+01801+01401999999ADDMA1101801999999REMMET045METAR SBLP 171000Z 21004KT CAVOK 18/14 Q1018;
0072832880999992009081711004-13267-043417FM-15+0443SBLP V0202101N002119999999Y0099001N1+01801+01401999999ADDMA1101801999999REMMET045METAR SBLP 171100Z 21004KT CAVOK 18/14 Q1018;
0072832880999992009081712004-13267-043417FM-15+0443SBLP V0200801N003119999999Y0099001N1+02501+01501999999ADDMA1101901999999REMMET045METAR SBLP 171200Z 08006KT CAVOK 25/15 Q1019;
0120832880999992009081713004-13267-043417FM-15+0443SBLP V0200901N004112200019N0112651N1+02701+01501999999ADDGA1021+009001999GF102991999999999999999999MA1101901999999REMMET051METAR SBLP 171300Z 09008KT 9999 FEW030 27/15 Q1019;
0120832880999992009081714004-13267-043417FM-15+0443SBLP V0200901N004112200019N0112651N1+03001+01401999999ADDGA1021+009001999GF102991999999999999999999MA1101801999999REMMET051METAR SBLP 171400Z 09008KT 9999 FEW030 30/14 Q1018;
0120832880999992009081715004-13267-043417FM-15+0443SBLP V0201501N004112200019N0112651N1+03101+01301999999ADDGA1041+009001999GF104991999999999999999999MA1101691999999REMMET051METAR SBLP 171500Z 15008KT 9999 SCT030 31/13 Q1017;
0120832880999992009081716004-13267-043417FM-15+0443SBLP V0200201N003112200019N0112651N1+03201+01301999999ADDGA1041+009001999GF104991999999999999999999MA1101491999999REMMET051METAR SBLP 171600Z 02006KT 9999 SCT030 32/13 Q1015;
0120832880999992009081717004-13267-043417FM-15+0443SBLP V0200401N003112200019N0112651N1+03201+01201999999ADDGA1021+009001999GF102991999999999999999999MA1101391999999REMMET051METAR SBLP 171700Z 04006KT 9999 FEW030 32/12 Q1014;
0072832880999992009081718004-13267-043417FM-15+0443SBLP V0200301N003119999999Y0099001N1+03301+01201999999ADDMA1101291999999REMMET045METAR SBLP 171800Z 03006KT CAVOK 33/12 Q1013;
0072832880999992009081719004-13267-043417FM-15+0443SBLP V0200401N003119999999Y0099001N1+03201+01301999999ADDMA1101291999999REMMET045METAR SBLP 171900Z 04006KT CAVOK 32/13 Q1013;
0072832880999992009081720004-13267-043417FM-15+0443SBLP V0209999C000019999999Y0099001N1+03201+01201999999ADDMA1101291999999REMMET045METAR SBLP 172000Z 00000KT CAVOK 32/12 Q1013;
0072832880999992009081721004-13267-043417FM-15+0443SBLP V0209999C000019999999Y0099001N1+03001+01401999999ADDMA1101291999999REMMET045METAR SBLP 172100Z 00000KT CAVOK 30/14 Q1013;
0120832880999992009081816004-13267-043417FM-15+0443SBLP V0209999C000012200019N0112651N1+03301+01201999999ADDGA1041+009001999GF104991999999999999999999MA1101391999999REMMET051METAR SBLP 181600Z 00000KT 9999 SCT030 33/12 Q1014;
0120832880999992009081817004-13267-043417FM-15+0443SBLP V0202101N003112200019N0112651N1+03301+01301999999ADDGA1041+009001999GF104991999999999999999999MA1101291999999REMMET051METAR SBLP 181700Z 21006KT 9999 SCT030 33/13 Q1013;
0120832880999992009081818004-13267-043417FM-15+0443SBLP V0202201N001512200019N0112651N1+03301+01201999999ADDGA1041+009001999GF104991999999999999999999MA1101191999999REMMET051METAR SBLP 181800Z 22003KT 9999 SCT030 33/12 Q1012;
0120832880999992009081819004-13267-043417FM-15+0443SBLP V0200901N001012200019N0112651N1+03301+01201999999ADDGA1021+009001999GF102991999999999999999999MA1101081999999REMMET051METAR SBLP 181900Z 09002KT 9999 FEW030 33/12 Q1011;
0072832880999992009081820004-13267-043417FM-15+0443SBLP V0202901N002119999999Y0099001N1+03301+01201999999ADDMA1101081999999REMMET045METAR SBLP 182000Z 29004KT CAVOK 33/12 Q1011;
0072832880999992009081821004-13267-043417FM-15+0443SBLP V0203301N001519999999Y0099001N1+03001+01301999999ADDMA1101081999999REMMET045METAR SBLP 182100Z 33003KT CAVOK 30/13 Q1011;
0072832880999992009081909114-13267-043417FM-16+0443SBLP V0209999C000019999999Y0099001N1+01901+01501999999ADDMA1101391999999REMMET045SPECI SBLP 190911Z 00000KT CAVOK 19/15 Q1014;
0072832880999992009081910004-13267-043417FM-15+0443SBLP V0209999C000019999999Y0099001N1+01901+01601999999ADDMA1101391999999REMMET045METAR SBLP 191000Z 00000KT CAVOK 19/16 Q1014;
0072832880999992009081911004-13267-043417FM-15+0443SBLP V0200601N001519999999Y0099001N1+02401+01501999999ADDMA1101491999999REMMET045METAR SBLP 191100Z 06003KT CAVOK 24/15 Q1015;
0072832880999992009081912004-13267-043417FM-15+0443SBLP V0209999C000019999999Y0099001N1+02701+01601999999ADDMA1101491999999REMMET045METAR SBLP 191200Z 00000KT CAVOK 27/16 Q1015;
0072832880999992009081913004-13267-043417FM-15+0443SBLP V0202401N001519999999Y0099001N1+03001+01501999999ADDMA1101491999999REMMET045METAR SBLP 191300Z 24003KT CAVOK 30/15 Q1015;
0120832880999992009081914004-13267-043417FM-15+0443SBLP V0209999C000012200019N0112651N1+03201+01401999999ADDGA1021+009001999GF102991999999999999999999MA1101491999999REMMET051METAR SBLP 191400Z 00000KT 9999 FEW030 32/14 Q1015;
0120832880999992009081915004-13267-043417FM-15+0443SBLP V0202201N003112200019N0112651N1+03301+01501999999ADDGA1041+009001999GF104991999999999999999999MA1101391999999REMMET051METAR SBLP 191500Z 22006KT 9999 SCT030 33/15 Q1014;
0120832880999992009081916004-13267-043417FM-15+0443SBLP V0209999C000012200019N0112651N1+03401+01401999999ADDGA1021+009001999GF102991999999999999999999MA1101291999999REMMET051METAR SBLP 191600Z 00000KT 9999 FEW030 34/14 Q1013;
0120832880999992009081917004-13267-043417FM-15+0443SBLP V0203001N003112200019N0112651N1+03501+01401999999ADDGA1021+009001999GF102991999999999999999999MA1101081999999REMMET051METAR SBLP 191700Z 30006KT 9999 FEW030 35/14 Q1011;
0120832880999992009081918004-13267-043417FM-15+0443SBLP V0203601N003112200019N0112651N1+03501+01501999999ADDGA1021+009001999GF102991999999999999999999MA1101021999999REMMET051METAR SBLP 191800Z 36006KT 9999 FEW030 35/15 Q1010;
0072832880999992009081919004-13267-043417FM-15+0443SBLP V0202601N002119999999Y0099001N1+03501+01401999999ADDMA1101021999999REMMET045METAR SBLP 191900Z 26004KT CAVOK 35/14 Q1010;
0072832880999992009081920004-13267-043417FM-15+0443SBLP V0203001N002119999999Y0099001N1+03501+01401999999ADDMA1101021999999REMMET045METAR SBLP 192000Z 30004KT CAVOK 35/14 Q1010;
0072832880999992009081921004-13267-043417FM-15+0443SBLP V0209999C000019999999Y0099001N1+03201+01301999999ADDMA1101021999999REMMET045METAR SBLP 192100Z 00000KT CAVOK 32/13 Q1010;
0072832880999992009082009104-13267-043417FM-16+0443SBLP V0209999C000019999999Y0099001N1+02001+01501999999ADDMA1101291999999REMMET045SPECI SBLP 200910Z 00000KT CAVOK 20/15 Q1013;
0072832880999992009082010004-13267-043417FM-15+0443SBLP V0209999C000019999999Y0099001N1+02101+01501999999ADDMA1101391999999REMMET045METAR SBLP 201000Z 00000KT CAVOK 21/15 Q1014;
0072832880999992009082011004-13267-043417FM-15+0443SBLP V0209999C000019999999Y0099001N1+02501+01601999999ADDMA1101491999999REMMET045METAR SBLP 201100Z 00000KT CAVOK 25/16 Q1015;
0072832880999992009082012004-13267-043417FM-15+0443SBLP V0209999C000019999999Y0099001N1+02801+01401999999ADDMA1101491999999REMMET045METAR SBLP 201200Z 00000KT CAVOK 28/14 Q1015;
0072832880999992009082013004-13267-043417FM-15+0443SBLP V0202701N003119999999Y0099001N1+03001+01501999999ADDMA1101591999999REMMET045METAR SBLP 201300Z 27006KT CAVOK 30/15 Q1016;
0120832880999992009082014004-13267-043417FM-15+0443SBLP V0202701N002112200019N0112651N1+03201+01501999999ADDGA1021+009001999GF102991999999999999999999MA1101491999999REMMET051METAR SBLP 201400Z 27004KT 9999 FEW030 32/15 Q1015;
0120832880999992009082015004-13267-043417FM-15+0443SBLP V0203001N003112200019N0112651N1+03301+01401999999ADDGA1021+009001999GF102991999999999999999999MA1101391999999REMMET051METAR SBLP 201500Z 30006KT 9999 FEW030 33/14 Q1014;
0120832880999992009082016004-13267-043417FM-15+0443SBLP V0202701N003112200019N0112651N1+03501+01401999999ADDGA1041+009001999GF104991999999999999999999MA1101191999999REMMET051METAR SBLP 201600Z 27006KT 9999 SCT030 35/14 Q1012;
0120832880999992009082017004-13267-043417FM-15+0443SBLP V0202701N003112200019N0112651N1+03601+01401999999ADDGA1041+009001999GF104991999999999999999999MA1101081999999REMMET051METAR SBLP 201700Z 27006KT 9999 SCT030 36/14 Q1011;
0120832880999992009082018004-13267-043417FM-15+0443SBLP V0202701N003112200019N0112651N1+03701+01401999999ADDGA1041+009001999GF104991999999999999999999MA1101021999999REMMET051METAR SBLP 201800Z 27006KT 9999 SCT030 37/14 Q1010;
0120832880999992009082019004-13267-043417FM-15+0443SBLP V0201801N003112200019N0112651N1+03601+01401999999ADDGA1021+009001999GF102991999999999999999999MA1101021999999REMMET051METAR SBLP 201900Z 18006KT 9999 FEW030 36/14 Q1010;
0120832880999992009082020004-13267-043417FM-15+0443SBLP V0201801N003112200019N0112651N1+03501+01401999999ADDGA1021+009001999GF102991999999999999999999MA1101021999999REMMET051METAR SBLP 202000Z 18006KT 9999 FEW030 35/14 Q1010;
0072832880999992009082021004-13267-043417FM-15+0443SBLP V0209999C000019999999Y0099001N1+03401+01501999999ADDMA1101021999999REMMET045METAR SBLP 202100Z 00000KT CAVOK 34/15 Q1010;
0072832880999992009082110004-13267-043417FM-15+0443SBLP V0203501N003119999999Y0099001N1+02401+01801999999ADDMA1101391999999REMMET045METAR SBLP 211000Z 35006KT CAVOK 24/18 Q1014;
0072832880999992009082111004-13267-043417FM-15+0443SBLP V0203001N002119999999Y0099001N1+02501+01801999999ADDMA1101491999999REMMET045METAR SBLP 211100Z 30004KT CAVOK 25/18 Q1015;
0072832880999992009082112004-13267-043417FM-15+0443SBLP V0203601N002119999999Y0099001N1+02801+01601999999ADDMA1101491999999REMMET045METAR SBLP 211200Z 36004KT CAVOK 28/16 Q1015;
0072832880999992009082113004-13267-043417FM-15+0443SBLP V0203501N003119999999Y0099001N1+03001+01601999999ADDMA1101491999999REMMET045METAR SBLP 211300Z 35006KT CAVOK 30/16 Q1015;
0120832880999992009082114004-13267-043417FM-15+0443SBLP V0203601N003112200019N0112651N1+03201+01601999999ADDGA1021+009001999GF102991999999999999999999MA1101391999999REMMET051METAR SBLP 211400Z 36006KT 9999 FEW030 32/16 Q1014;
0120832880999992009082115004-13267-043417FM-15+0443SBLP V0209999C000012200019N0112651N1+03401+01501999999ADDGA1021+009001999GF102991999999999999999999MA1101291999999REMMET051METAR SBLP 211500Z 00000KT 9999 FEW030 34/15 Q1013;
0120832880999992009082116004-13267-043417FM-15+0443SBLP V0202401N001512200019N0112651N1+03601+01501999999ADDGA1021+009001999GF102991999999999999999999MA1101191999999REMMET051METAR SBLP 211600Z 24003KT 9999 FEW030 36/15 Q1012;
0120832880999992009082117004-13267-043417FM-15+0443SBLP V0201201N001512200019N0112651N1+03701+01401999999ADDGA1021+009001999GF102991999999999999999999MA1101021999999REMMET051METAR SBLP 211700Z 12003KT 9999 FEW030 37/14 Q1010;
0120832880999992009082118004-13267-043417FM-15+0443SBLP V0201501N001512200019N0112651N1+03701+01301999999ADDGA1021+009001999GF102991999999999999999999MA1100911999999REMMET051METAR SBLP 211800Z 15003KT 9999 FEW030 37/13 Q1009;
0120832880999992009082119004-13267-043417FM-15+0443SBLP V0202101N002612200019N0112651N1+03701+01201999999ADDGA1021+009001999GF102991999999999999999999MA1100911999999REMMET051METAR SBLP 211900Z 21005KT 9999 FEW030 37/12 Q1009;
0120832880999992009082120004-13267-043417FM-15+0443SBLP V0201801N002112200019N0112651N1+03601+01601999999ADDGA1021+009001999GF102991999999999999999999MA1100911999999REMMET051METAR SBLP 212000Z 18004KT 9999 FEW030 36/16 Q1009;
0072832880999992009082121004-13267-043417FM-15+0443SBLP V0201901N001019999999Y0099001N1+03301+01601999999ADDMA1100911999999REMMET045METAR SBLP 212100Z 19002KT CAVOK 33/16 Q1009;
0072832880999992009082209114-13267-043417FM-16+0443SBLP V0200901N001519999999Y0099001N1+02101+01401999999ADDMA1101191999999REMMET045SPECI SBLP 220911Z 09003KT CAVOK 21/14 Q1012;
0072832880999992009082210004-13267-043417FM-15+0443SBLP V0209999C000019999999Y0099001N1+02201+01301999999ADDMA1101191999999REMMET045METAR SBLP 221000Z 00000KT CAVOK 22/13 Q1012;
0072832880999992009082211004-13267-043417FM-15+0443SBLP V0202301N002119999999Y0099001N1+02501+01501999999ADDMA1101291999999REMMET045METAR SBLP 221100Z 23004KT CAVOK 25/15 Q1013;
0072832880999992009082212004-13267-043417FM-15+0443SBLP V0201501N001519999999Y0099001N1+02901+01501999999ADDMA1101391999999REMMET045METAR SBLP 221200Z 15003KT CAVOK 29/15 Q1014;
0072832880999992009082213004-13267-043417FM-15+0443SBLP V0200901N002619999999Y0099001N1+03201+01401999999ADDMA1101391999999REMMET045METAR SBLP 221300Z 09005KT CAVOK 32/14 Q1014;
0120832880999992009082214004-13267-043417FM-15+0443SBLP V0200401N001512200019N0112651N1+03501+01401999999ADDGA1021+009001999GF102991999999999999999999MA1101291999999REMMET051METAR SBLP 221400Z 04003KT 9999 FEW030 35/14 Q1013;
0120832880999992009082215004-13267-043417FM-15+0443SBLP V0201501N002112200019N0112651N1+03601+01401999999ADDGA1021+009001999GF102991999999999999999999MA1101191999999REMMET051METAR SBLP 221500Z 15004KT 9999 FEW030 36/14 Q1012;
0120832880999992009082216004-13267-043417FM-15+0443SBLP V0202801N002112200019N0112651N1+03501+01701999999ADDGA1041+009001999GF104991999999999999999999MA1101081999999REMMET051METAR SBLP 221600Z 28004KT 9999 SCT030 35/17 Q1011;
0120832880999992009082217004-13267-043417FM-15+0443SBLP V0202301N003112200019N0112651N1+03701+01601999999ADDGA1041+009001999GF104991999999999999999999MA1101021999999REMMET051METAR SBLP 221700Z 23006KT 9999 SCT030 37/16 Q1010;
0120832880999992009082218004-13267-043417FM-15+0443SBLP V0201201N006210090019N0112651N1+03501+01701999999ADDGA1071+009001999GF107991999999999999999999MA1101021999999REMMET051METAR SBLP 221800Z 12012KT 9999 BKN030 35/17 Q1010;
0120832880999992009082219004-13267-043417FM-15+0443SBLP V0201201N006210090019N0112651N1+03401+01801999999ADDGA1071+009001999GF107991999999999999999999MA1101021999999REMMET051METAR SBLP 221900Z 12012KT 9999 BKN030 34/18 Q1010;
0130832880999992009082220004-13267-043417FM-15+0443SBLP V0201801N006210090019N0112651N1+02801+02201999999ADDGA1071+009001999GF107991999999999999999999MA1101081999999MW1611REMMET055METAR SBLP 222000Z 18012KT 9999 -RA BKN030 28/22 Q1011;
0120832880999992009082221004-13267-043417FM-15+0443SBLP V0201501N005112200019N0112651N1+02701+02001999999ADDGA1041+009001999GF104991999999999999999999MA1101191999999REMMET051METAR SBLP 222100Z 15010KT 9999 SCT030 27/20 Q1012;
0072832880999992009082310004-13267-043417FM-15+0443SBLP V0201401N001519999999Y0099001N1+02101+01701999999ADDMA1101591999999REMMET045METAR SBLP 231000Z 14003KT CAVOK 21/17 Q1016;
0072832880999992009082311004-13267-043417FM-15+0443SBLP V0201101N002619999999Y0099001N1+02501+01501999999ADDMA1101691999999REMMET045METAR SBLP 231100Z 11005KT CAVOK 25/15 Q1017;
0120832880999992009082312004-13267-043417FM-15+0443SBLP V0200901N004112200019N0112651N1+02701+01701999999ADDGA1021+009001999GF102991999999999999999999MA1101801999999REMMET051METAR SBLP 231200Z 09008KT 9999 FEW030 27/17 Q1018;
0120832880999992009082313004-13267-043417FM-15+0443SBLP V0200701N004112200019N0112651N1+03001+01701999999ADDGA1021+009001999GF102991999999999999999999MA1101691999999REMMET051METAR SBLP 231300Z 07008KT 9999 FEW030 30/17 Q1017;
0120832880999992009082314004-13267-043417FM-15+0443SBLP V0200701N004112200019N0112651N1+03101+01701999999ADDGA1021+009001999GF102991999999999999999999MA1101691999999REMMET051METAR SBLP 231400Z 07008KT 9999 FEW030 31/17 Q1017;
0120832880999992009082315004-13267-043417FM-15+0443SBLP V0200901N003112200019N0112651N1+03201+01601999999ADDGA1021+009001999GF102991999999999999999999MA1101591999999REMMET051METAR SBLP 231500Z 09006KT 9999 FEW030 32/16 Q1016;
0143832880999992009082316004-13267-043417FM-15+0443SBLP V0200701N005110300019N0112651N1+03201+01901999999ADDGA1041+009001999GA2071+030001999GF107991999999999999999999MA1101491999999REMMET058METAR SBLP 231600Z 07010KT 9999 SCT030 BKN100 32/19 Q1015;
0143832880999992009082317004-13267-043417FM-15+0443SBLP V0201401N003110300019N0112651N1+03301+01701999999ADDGA1041+009001999GA2071+030001999GF107991999999999999999999MA1101291999999REMMET058METAR SBLP 231700Z 14006KT 9999 SCT030 BKN100 33/17 Q1013;
0143832880999992009082318004-13267-043417FM-15+0443SBLP V0201201N004110300019N0112651N1+03201+01801999999ADDGA1041+009001999GA2071+030001999GF107991999999999999999999MA1101291999999REMMET058METAR SBLP 231800Z 12008KT 9999 SCT030 BKN100 32/18 Q1013;
0143832880999992009082319004-13267-043417FM-15+0443SBLP V0201201N005110300019N0112651N1+03301+01801999999ADDGA1041+009001999GA2071+030001999GF107991999999999999999999MA1101291999999REMMET058METAR SBLP 231900Z 12010KT 9999 SCT030 BKN100 33/18 Q1013;
0084832880999992009082320004-13267-043417FM-15+0443SBLP V02099999999992200019N0020151N1+03201+01901999999ADDMA1101301999999REMMET057METAR SBLP 232000Z 2015KT 9999 FEW030 BKN100 32/19 Q1013;
0072832880999992009082321004-13267-043417FM-15+0443SBLP V0201201N006219999999Y0099001N1+02901+01901999999ADDMA1101291999999REMMET045METAR SBLP 232100Z 12012KT CAVOK 29/19 Q1013;
0072832880999992009082409054-13267-043417FM-16+0443SBLP V0201301N001519999999Y0099001N1+02101+01701999999ADDMA1101691999999REMMET045SPECI SBLP 240905Z 13003KT CAVOK 21/17 Q1017;
0072832880999992009082410004-13267-043417FM-15+0443SBLP V0201501N001019999999Y0099001N1+02001+01801999999ADDMA1101691999999REMMET045METAR SBLP 241000Z 15002KT CAVOK 20/18 Q1017;
0072832880999992009082411004-13267-043417FM-15+0443SBLP V0201801N003119999999Y0099001N1+02401+01801999999ADDMA1101801999999REMMET045METAR SBLP 241100Z 18006KT CAVOK 24/18 Q1018;
0120832880999992009082412004-13267-043417FM-15+0443SBLP V0201201N003112200019N0112651N1+02701+01701999999ADDGA1021+009001999GF102991999999999999999999MA1101901999999REMMET051METAR SBLP 241200Z 12006KT 9999 FEW030 27/17 Q1019;
0120832880999992009082413004-13267-043417FM-15+0443SBLP V0201001N002110090019N0112651N1+02801+01701999999ADDGA1071+009001999GF107991999999999999999999MA1101801999999REMMET051METAR SBLP 241300Z 10004KT 9999 BKN030 28/17 Q1018;
0120832880999992009082414004-13267-043417FM-15+0443SBLP V0201601N002610090019N0112651N1+03101+01601999999ADDGA1071+009001999GF107991999999999999999999MA1101801999999REMMET051METAR SBLP 241400Z 16005KT 9999 BKN030 31/16 Q1018;
0120832880999992009082415004-13267-043417FM-15+0443SBLP V0201201N002110090019N0112651N1+03101+01601999999ADDGA1071+009001999GF107991999999999999999999MA1101691999999REMMET051METAR SBLP 241500Z 12004KT 9999 BKN030 31/16 Q1017;
0120832880999992009082416004-13267-043417FM-15+0443SBLP V0201801N003112200019N0112651N1+03201+01601999999ADDGA1041+009001999GF104991999999999999999999MA1101491999999REMMET051METAR SBLP 241600Z 18006KT 9999 SCT030 32/16 Q1015;
0120832880999992009082417004-13267-043417FM-15+0443SBLP V0201801N003112200019N0112651N1+03301+01601999999ADDGA1041+009001999GF104991999999999999999999MA1101391999999REMMET051METAR SBLP 241700Z 18006KT 9999 SCT030 33/16 Q1014;
0120832880999992009082418004-13267-043417FM-15+0443SBLP V0201801N003112200019N0112651N1+03501+01601999999ADDGA1041+009001999GF104991999999999999999999MA1101291999999REMMET051METAR SBLP 241800Z 18006KT 9999 SCT030 35/16 Q1013;
0120832880999992009082419004-13267-043417FM-15+0443SBLP V0201801N003112200019N0112651N1+03401+01601999999ADDGA1041+009001999GF104991999999999999999999MA1101291999999REMMET051METAR SBLP 241900Z 18006KT 9999 SCT030 34/16 Q1013;
0120832880999992009082420004-13267-043417FM-15+0443SBLP V0201801N003112200019N0112651N1+03301+01601999999ADDGA1041+009001999GF104991999999999999999999MA1101291999999REMMET051METAR SBLP 242000Z 18006KT 9999 SCT030 33/16 Q1013;
0120832880999992009082421004-13267-043417FM-15+0443SBLP V0201801N003112200019N0112651N1+03101+01701999999ADDGA1041+009001999GF104991999999999999999999MA1101391999999REMMET051METAR SBLP 242100Z 18006KT 9999 SCT030 31/17 Q1014;
0072832880999992009082510004-13267-043417FM-15+0443SBLP V0209999C000019999999Y0099001N1+02401+01901999999ADDMA1101691999999REMMET045METAR SBLP 251000Z 00000KT CAVOK 24/19 Q1017;
0072832880999992009082511004-13267-043417FM-15+0443SBLP V0200901N003119999999Y0099001N1+02601+01801999999ADDMA1101801999999REMMET045METAR SBLP 251100Z 09006KT CAVOK 26/18 Q1018;
0072832880999992009082512004-13267-043417FM-15+0443SBLP V0200901N003119999999Y0099001N1+02801+01701999999ADDMA1101801999999REMMET045METAR SBLP 251200Z 09006KT CAVOK 28/17 Q1018;
0072832880999992009082513004-13267-043417FM-15+0443SBLP V0200901N003119999999Y0099001N1+03001+01701999999ADDMA1101801999999REMMET045METAR SBLP 251300Z 09006KT CAVOK 30/17 Q1018;
0120832880999992009082514004-13267-043417FM-15+0443SBLP V0200901N003112200019N0112651N1+03101+01801999999ADDGA1021+009001999GF102991999999999999999999MA1101691999999REMMET051METAR SBLP 251400Z 09006KT 9999 FEW030 31/18 Q1017;
0120832880999992009082515004-13267-043417FM-15+0443SBLP V0201801N003112200019N0112651N1+03201+01601999999ADDGA1021+009001999GF102991999999999999999999MA1101591999999REMMET051METAR SBLP 251500Z 18006KT 9999 FEW030 32/16 Q1016;
0120832880999992009082516004-13267-043417FM-15+0443SBLP V0201501N003112200019N0112651N1+03301+01201999999ADDGA1021+009001999GF102991999999999999999999MA1101491999999REMMET051METAR SBLP 251600Z 15006KT 9999 FEW030 33/12 Q1015;
0120832880999992009082517004-13267-043417FM-15+0443SBLP V0201801N004112200019N0112651N1+03401+01301999999ADDGA1021+009001999GF102991999999999999999999MA1101291999999REMMET051METAR SBLP 251700Z 18008KT 9999 FEW030 34/13 Q1013;
0120832880999992009082518004-13267-043417FM-15+0443SBLP V0200901N002112200019N0112651N1+03501+01201999999ADDGA1021+009001999GF102991999999999999999999MA1101191999999REMMET051METAR SBLP 251800Z 09004KT 9999 FEW030 35/12 Q1012;
0120832880999992009082519004-13267-043417FM-15+0443SBLP V0201401N003112200019N0112651N1+03501+01201999999ADDGA1021+009001999GF102991999999999999999999MA1101191999999REMMET051METAR SBLP 251900Z 14006KT 9999 FEW030 35/12 Q1012;
0120832880999992009082520004-13267-043417FM-15+0443SBLP V0201801N003112200019N0112651N1+03501+01201999999ADDGA1021+009001999GF102991999999999999999999MA1101191999999REMMET051METAR SBLP 252000Z 18006KT 9999 FEW030 35/12 Q1012;
0120832880999992009082521004-13267-043417FM-15+0443SBLP V0202101N002112200019N0112651N1+03101+01301999999ADDGA1021+009001999GF102991999999999999999999MA1101291999999REMMET051METAR SBLP 252100Z 21004KT 9999 FEW030 31/13 Q1013;
0072832880999992009082609084-13267-043417FM-16+0443SBLP V0201901N001519999999Y0099001N1+01901+01601999999ADDMA1101591999999REMMET045SPECI SBLP 260908Z 19003KT CAVOK 19/16 Q1016;
0072832880999992009082610004-13267-043417FM-15+0443SBLP V0202101N002119999999Y0099001N1+01901+01501999999ADDMA1101591999999REMMET045METAR SBLP 261000Z 21004KT CAVOK 19/15 Q1016;
0072832880999992009082611004-13267-043417FM-15+0443SBLP V0201701N002619999999Y0099001N1+02501+01401999999ADDMA1101691999999REMMET045METAR SBLP 261100Z 17005KT CAVOK 25/14 Q1017;
0072832880999992009082612004-13267-043417FM-15+0443SBLP V0201201N002619999999Y0099001N1+02701+01301999999ADDMA1101691999999REMMET045METAR SBLP 261200Z 12005KT CAVOK 27/13 Q1017;
0072832880999992009082613004-13267-043417FM-15+0443SBLP V0200801N003119999999Y0099001N1+03001+01101999999ADDMA1101691999999REMMET045METAR SBLP 261300Z 08006KT CAVOK 30/11 Q1017;
0072832880999992009082614004-13267-043417FM-15+0443SBLP V0201101N005119999999Y0099001N1+03201+01201999999ADDMA1101691999999REMMET045METAR SBLP 261400Z 11010KT CAVOK 32/12 Q1017;
0072832880999992009082615004-13267-043417FM-15+0443SBLP V0201201N003119999999Y0099001N1+03301+01001999999ADDMA1101591999999REMMET045METAR SBLP 261500Z 12006KT CAVOK 33/10 Q1016;
0072832880999992009082616004-13267-043417FM-15+0443SBLP V0200901N003119999999Y0099001N1+03401+01001999999ADDMA1101491999999REMMET045METAR SBLP 261600Z 09006KT CAVOK 34/10 Q1015;
0072832880999992009082617004-13267-043417FM-15+0443SBLP V0200801N004119999999Y0099001N1+03501+01001999999ADDMA1101391999999REMMET045METAR SBLP 261700Z 08008KT CAVOK 35/10 Q1014;
0072832880999992009082618004-13267-043417FM-15+0443SBLP V0201801N003119999999Y0099001N1+03501+00901999999ADDMA1101291999999REMMET045METAR SBLP 261800Z 18006KT CAVOK 35/09 Q1013;
0072832880999992009082619004-13267-043417FM-15+0443SBLP V0200901N003119999999Y0099001N1+03401+01001999999ADDMA1101291999999REMMET045METAR SBLP 261900Z 09006KT CAVOK 34/10 Q1013;
0072832880999992009082620004-13267-043417FM-15+0443SBLP V0201201N003119999999Y0099001N1+03301+01101999999ADDMA1101391999999REMMET045METAR SBLP 262000Z 12006KT CAVOK 33/11 Q1014;
0072832880999992009082621004-13267-043417FM-15+0443SBLP V0201201N003119999999Y0099001N1+03101+01201999999ADDMA1101391999999REMMET045METAR SBLP 262100Z 12006KT CAVOK 31/12 Q1014;
0072832880999992009082710004-13267-043417FM-15+0443SBLP V0209999C000019999999Y0099001N1+02001+01701999999ADDMA1101901999999REMMET045METAR SBLP 271000Z 00000KT CAVOK 20/17 Q1019;
0072832880999992009082711004-13267-043417FM-15+0443SBLP V0201401N003119999999Y0099001N1+02401+01601999999ADDMA1101901999999REMMET045METAR SBLP 271100Z 14006KT CAVOK 24/16 Q1019;
0072832880999992009082712004-13267-043417FM-15+0443SBLP V0201201N003119999999Y0099001N1+02701+01601999999ADDMA1101901999999REMMET045METAR SBLP 271200Z 12006KT CAVOK 27/16 Q1019;
0072832880999992009082713004-13267-043417FM-15+0443SBLP V0201501N003119999999Y0099001N1+02901+01501999999ADDMA1101901999999REMMET045METAR SBLP 271300Z 15006KT CAVOK 29/15 Q1019;
0072832880999992009082714004-13267-043417FM-15+0443SBLP V0201201N003119999999Y0099001N1+03101+01401999999ADDMA1101801999999REMMET045METAR SBLP 271400Z 12006KT CAVOK 31/14 Q1018;
0072832880999992009082715004-13267-043417FM-15+0443SBLP V0200401N003119999999Y0099001N1+03301+01301999999ADDMA1101691999999REMMET045METAR SBLP 271500Z 04006KT CAVOK 33/13 Q1017;
0072832880999992009082716004-13267-043417FM-15+0443SBLP V0201701N002119999999Y0099001N1+03401+01001999999ADDMA1101591999999REMMET045METAR SBLP 271600Z 17004KT CAVOK 34/10 Q1016;
0072832880999992009082717004-13267-043417FM-15+0443SBLP V0202201N001519999999Y0099001N1+03401+00901999999ADDMA1101491999999REMMET045METAR SBLP 271700Z 22003KT CAVOK 34/09 Q1015;
0072832880999992009082718004-13267-043417FM-15+0443SBLP V0202401N001519999999Y0099001N1+03401+00601999999ADDMA1101391999999REMMET045METAR SBLP 271800Z 24003KT CAVOK 34/06 Q1014;
0072832880999992009082719004-13267-043417FM-15+0443SBLP V0202201N004119999999Y0099001N1+03401+00901999999ADDMA1101391999999REMMET045METAR SBLP 271900Z 22008KT CAVOK 34/09 Q1014;
0072832880999992009082720004-13267-043417FM-15+0443SBLP V0202101N002119999999Y0099001N1+03301+01101999999ADDMA1101391999999REMMET045METAR SBLP 272000Z 21004KT CAVOK 33/11 Q1014;
0072832880999992009082721004-13267-043417FM-15+0443SBLP V0202101N002119999999Y0099001N1+03001+01201999999ADDMA1101491999999REMMET045METAR SBLP 272100Z 21004KT CAVOK 30/12 Q1015;
0072832880999992009082810004-13267-043417FM-15+0443SBLP V0201801N002119999999Y0099001N1+02001+01401999999ADDMA1101901999999REMMET045METAR SBLP 281000Z 18004KT CAVOK 20/14 Q1019;
0072832880999992009082811004-13267-043417FM-15+0443SBLP V0201801N002119999999Y0099001N1+02501+01501999999ADDMA1101901999999REMMET045METAR SBLP 281100Z 18004KT CAVOK 25/15 Q1019;
0072832880999992009082812004-13267-043417FM-15+0443SBLP V0201301N005119999999Y0099001N1+02701+01601999999ADDMA1102001999999REMMET045METAR SBLP 281200Z 13010KT CAVOK 27/16 Q1020;
0072832880999992009082813004-13267-043417FM-15+0443SBLP V0201501N003119999999Y0099001N1+02901+01601999999ADDMA1101901999999REMMET045METAR SBLP 281300Z 15006KT CAVOK 29/16 Q1019;
0072832880999992009082814004-13267-043417FM-15+0443SBLP V0201501N002119999999Y0099001N1+03101+01601999999ADDMA1101801999999REMMET045METAR SBLP 281400Z 15004KT CAVOK 31/16 Q1018;
0120832880999992009082815004-13267-043417FM-15+0443SBLP V0202101N005112200019N0112651N1+03201+01501999999ADDGA1021+009001999GF102991999999999999999999MA1101691999999REMMET051METAR SBLP 281500Z 21010KT 9999 FEW030 32/15 Q1017;
0120832880999992009082816004-13267-043417FM-15+0443SBLP V0202701N003112200019N0112651N1+03201+01501999999ADDGA1021+009001999GF102991999999999999999999MA1101591999999REMMET051METAR SBLP 281600Z 27006KT 9999 FEW030 32/15 Q1016;
0120832880999992009082817004-13267-043417FM-15+0443SBLP V0202701N003112200019N0112651N1+03301+01501999999ADDGA1041+009001999GF104991999999999999999999MA1101491999999REMMET051METAR SBLP 281700Z 27006KT 9999 SCT030 33/15 Q1015;
0120832880999992009082818004-13267-043417FM-15+0443SBLP V0201801N003112200019N0112651N1+03601+01501999999ADDGA1041+009001999GF104991999999999999999999MA1101391999999REMMET051METAR SBLP 281800Z 18006KT 9999 SCT030 36/15 Q1014;
0120832880999992009082819004-13267-043417FM-15+0443SBLP V0201801N003112200019N0112651N1+03601+01501999999ADDGA1021+009001999GF102991999999999999999999MA1101391999999REMMET051METAR SBLP 281900Z 18006KT 9999 FEW030 36/15 Q1014;
0120832880999992009082820004-13267-043417FM-15+0443SBLP V0201801N003112200019N0112651N1+03401+01601999999ADDGA1021+009001999GF102991999999999999999999MA1101391999999REMMET051METAR SBLP 282000Z 18006KT 9999 FEW030 34/16 Q1014;
0072832880999992009082821004-13267-043417FM-15+0443SBLP V0201801N003119999999Y0099001N1+03201+01601999999ADDMA1101491999999REMMET045METAR SBLP 282100Z 18006KT CAVOK 32/16 Q1015;
0072832880999992009082910004-13267-043417FM-15+0443SBLP V0209999C000019999999Y0099001N1+02301+01601999999ADDMA1101801999999REMMET045METAR SBLP 291000Z 00000KT CAVOK 23/16 Q1018;
0072832880999992009082911004-13267-043417FM-15+0443SBLP V0209999C000019999999Y0099001N1+02601+01501999999ADDMA1101901999999REMMET045METAR SBLP 291100Z 00000KT CAVOK 26/15 Q1019;
0072832880999992009082912004-13267-043417FM-15+0443SBLP V0209999C000019999999Y0099001N1+02901+01401999999ADDMA1101901999999REMMET045METAR SBLP 291200Z 00000KT CAVOK 29/14 Q1019;
0072832880999992009082913004-13267-043417FM-15+0443SBLP V0209999C000019999999Y0099001N1+03001+01401999999ADDMA1101901999999REMMET045METAR SBLP 291300Z 00000KT CAVOK 30/14 Q1019;
0072832880999992009082914004-13267-043417FM-15+0443SBLP V0200901N003119999999Y0099001N1+03201+01401999999ADDMA1101801999999REMMET045METAR SBLP 291400Z 09006KT CAVOK 32/14 Q1018;
0120832880999992009082915004-13267-043417FM-15+0443SBLP V0200901N003112200019N0112651N1+03201+01401999999ADDGA1021+009001999GF102991999999999999999999MA1101691999999REMMET051METAR SBLP 291500Z 09006KT 9999 FEW030 32/14 Q1017;
0120832880999992009082916004-13267-043417FM-15+0443SBLP V0201201N003112200019N0112651N1+03401+01501999999ADDGA1021+009001999GF102991999999999999999999MA1101491999999REMMET051METAR SBLP 291600Z 12006KT 9999 FEW030 34/15 Q1015;
0120832880999992009082917004-13267-043417FM-15+0443SBLP V0201201N002612200019N0112651N1+03401+01301999999ADDGA1041+009001999GF104991999999999999999999MA1101391999999REMMET051METAR SBLP 291700Z 12005KT 9999 SCT030 34/13 Q1014;
0120832880999992009082918004-13267-043417FM-15+0443SBLP V0201501N003110090019N0112651N1+03301+01501999999ADDGA1071+009001999GF107991999999999999999999MA1101291999999REMMET051METAR SBLP 291800Z 15006KT 9999 BKN030 33/15 Q1013;
0120832880999992009082919004-13267-043417FM-15+0443SBLP V0202001N004112200019N0112651N1+03401+01301999999ADDGA1041+009001999GF104991999999999999999999MA1101291999999REMMET051METAR SBLP 291900Z 20008KT 9999 SCT030 34/13 Q1013;
0120832880999992009082920004-13267-043417FM-15+0443SBLP V0201801N003110090019N0112651N1+03301+01301999999ADDGA1071+009001999GF107991999999999999999999MA1101391999999REMMET051METAR SBLP 292000Z 18006KT 9999 BKN030 33/13 Q1014;
0120832880999992009082921004-13267-043417FM-15+0443SBLP V0201301N002612200019N0112651N1+03101+01401999999ADDGA1041+009001999GF104991999999999999999999MA1101391999999REMMET051METAR SBLP 292100Z 13005KT 9999 SCT030 31/14 Q1014;
0072832880999992009083009094-13267-043417FM-16+0443SBLP V0209999C000019999999Y0099001N1+02001+01701999999ADDMA1101691999999REMMET045SPECI SBLP 300909Z 00000KT CAVOK 20/17 Q1017;
0072832880999992009083010004-13267-043417FM-15+0443SBLP V0201801N001519999999Y0099001N1+02201+01701999999ADDMA1101801999999REMMET045METAR SBLP 301000Z 18003KT CAVOK 22/17 Q1018;
0072832880999992009083011004-13267-043417FM-15+0443SBLP V0209999C000019999999Y0099001N1+02501+01701999999ADDMA1101901999999REMMET045METAR SBLP 301100Z 00000KT CAVOK 25/17 Q1019;
0120832880999992009083012004-13267-043417FM-15+0443SBLP V0200201N001512200019N0112651N1+02701+01501999999ADDGA1021+009001999GF102991999999999999999999MA1101901999999REMMET051METAR SBLP 301200Z 02003KT 9999 FEW030 27/15 Q1019;
0120832880999992009083013004-13267-043417FM-15+0443SBLP V0201201N003112200019N0112651N1+03001+01601999999ADDGA1021+009001999GF102991999999999999999999MA1101901999999REMMET051METAR SBLP 301300Z 12006KT 9999 FEW030 30/16 Q1019;
0120832880999992009083014004-13267-043417FM-15+0443SBLP V0201501N001512200019N0112651N1+03201+01401999999ADDGA1021+009001999GF102991999999999999999999MA1101801999999REMMET051METAR SBLP 301400Z 15003KT 9999 FEW030 32/14 Q1018;
0120832880999992009083015004-13267-043417FM-15+0443SBLP V0200701N003112200019N0112651N1+03201+01401999999ADDGA1021+009001999GF102991999999999999999999MA1101691999999REMMET051METAR SBLP 301500Z 07006KT 9999 FEW030 32/14 Q1017;
0120832880999992009083016004-13267-043417FM-15+0443SBLP V0200901N003112200019N0112651N1+03201+01401999999ADDGA1021+009001999GF102991999999999999999999MA1101591999999REMMET051METAR SBLP 301600Z 09006KT 9999 FEW030 32/14 Q1016;
0120832880999992009083017004-13267-043417FM-15+0443SBLP V0209999C000012200019N0112651N1+03401+01401999999ADDGA1021+009001999GF102991999999999999999999MA1101391999999REMMET051METAR SBLP 301700Z 00000KT 9999 FEW030 34/14 Q1014;
0120832880999992009083018004-13267-043417FM-15+0443SBLP V0209999C000012200019N0112651N1+03501+01401999999ADDGA1041+009001999GF104991999999999999999999MA1101291999999REMMET051METAR SBLP 301800Z 00000KT 9999 SCT030 35/14 Q1013;
0120832880999992009083019004-13267-043417FM-15+0443SBLP V0209999C000012200019N0112651N1+03501+01401999999ADDGA1041+009001999GF104991999999999999999999MA1101291999999REMMET051METAR SBLP 301900Z 00000KT 9999 SCT030 35/14 Q1013;
0120832880999992009083020004-13267-043417FM-15+0443SBLP V0200901N003112200019N0112651N1+03401+01501999999ADDGA1041+009001999GF104991999999999999999999MA1101391999999REMMET051METAR SBLP 302000Z 09006KT 9999 SCT030 34/15 Q1014;
0120832880999992009083021004-13267-043417FM-15+0443SBLP V0200901N003112200019N0112651N1+03201+01601999999ADDGA1041+009001999GF104991999999999999999999MA1101391999999REMMET051METAR SBLP 302100Z 09006KT 9999 SCT030 32/16 Q1014;
0143832880999992009083110004-13267-043417FM-15+0443SBLP V0201801N001510300019N0112651N1+01901+01501999999ADDGA1021+006901999GA2071+030001999GF107991999999999999999999MA1101801999999REMMET058METAR SBLP 311000Z 18003KT 9999 FEW023 BKN100 19/15 Q1018;
0143832880999992009083111004-13267-043417FM-15+0443SBLP V0201601N002112200019N0112651N1+02201+01501999999ADDGA1021+006901999GA2041+030001999GF104991999999999999999999MA1101901999999REMMET058METAR SBLP 311100Z 16004KT 9999 FEW023 SCT100 22/15 Q1019;
0143832880999992009083112004-13267-043417FM-15+0443SBLP V0201401N002612200019N0112651N1+02501+01501999999ADDGA1021+009001999GA2041+030001999GF104991999999999999999999MA1101901999999REMMET058METAR SBLP 311200Z 14005KT 9999 FEW030 SCT100 25/15 Q1019;
0143832880999992009083113004-13267-043417FM-15+0443SBLP V0200701N001512200019N0112651N1+02701+01501999999ADDGA1021+009001999GA2041+030001999GF104991999999999999999999MA1101901999999REMMET058METAR SBLP 311300Z 07003KT 9999 FEW030 SCT100 27/15 Q1019;
0143832880999992009083114004-13267-043417FM-15+0443SBLP V0201201N003112200019N0112651N1+03001+01601999999ADDGA1021+009001999GA2041+030001999GF104991999999999999999999MA1101901999999REMMET058METAR SBLP 311400Z 12006KT 9999 FEW030 SCT100 30/16 Q1019;
0120832880999992009083115004-13267-043417FM-15+0443SBLP V0201201N002112200019N0112651N1+03101+01501999999ADDGA1021+009001999GF102991999999999999999999MA1101691999999REMMET051METAR SBLP 311500Z 12004KT 9999 FEW030 31/15 Q1017;
0143832880999992009083116004-13267-043417FM-15+0443SBLP V0201801N003112200019N0112651N1+03201+01401999999ADDGA1041+009001999GA2041+030001999GF104991999999999999999999MA1101591999999REMMET058METAR SBLP 311600Z 18006KT 9999 SCT030 SCT100 32/14 Q1016;
0120832880999992009083117004-13267-043417FM-15+0443SBLP V0202401N003112200019N0112651N1+03301+01401999999ADDGA1041+009001999GF104991999999999999999999MA1101491999999REMMET051METAR SBLP 311700Z 24006KT 9999 SCT030 33/14 Q1015;
0120832880999992009083119004-13267-043417FM-15+0443SBLP V0202101N003112200019N0112651N1+03301+01501999999ADDGA1041+009001999GF104991999999999999999999MA1101391999999REMMET051METAR SBLP 311900Z 21006KT 9999 SCT030 33/15 Q1014;
0120832880999992009083120004-13267-043417FM-15+0443SBLP V0202101N003112200019N0112651N1+03201+01501999999ADDGA1041+009001999GF104991999999999999999999MA1101391999999REMMET051METAR SBLP 312000Z 21006KT 9999 SCT030 32/15 Q1014;
0120832880999992009083121004-13267-043417FM-15+0443SBLP V0201801N002112200019N0112651N1+03001+01701999999ADDGA1041+009001999GF104991999999999999999999MA1101391999999REMMET051METAR SBLP 312100Z 18004KT 9999 SCT030 30/17 Q1014;
0072832880999992009090110004-13267-043417FM-15+0443SBLP V0209999C000019999999Y0099001N1+02001+01601999999ADDMA1101801999999REMMET045METAR SBLP 011000Z 00000KT CAVOK 20/16 Q1018;
0072832880999992009090111004-13267-043417FM-15+0443SBLP V0200901N003119999999Y0099001N1+02401+01601999999ADDMA1101901999999REMMET045METAR SBLP 011100Z 09006KT CAVOK 24/16 Q1019;
0072832880999992009090112004-13267-043417FM-15+0443SBLP V0209999C000019999999Y0099001N1+02701+01301999999ADDMA1102001999999REMMET045METAR SBLP 011200Z 00000KT CAVOK 27/13 Q1020;
0072832880999992009090113004-13267-043417FM-15+0443SBLP V0209999C000019999999Y0099001N1+02901+01301999999ADDMA1102001999999REMMET045METAR SBLP 011300Z 00000KT CAVOK 29/13 Q1020;
0072832880999992009090114004-13267-043417FM-15+0443SBLP V0209999C000019999999Y0099001N1+03001+01401999999ADDMA1101901999999REMMET045METAR SBLP 011400Z 00000KT CAVOK 30/14 Q1019;
0120832880999992009090115004-13267-043417FM-15+0443SBLP V0202101N002112200019N0112651N1+03001+01401999999ADDGA1021+009001999GF102991999999999999999999MA1101801999999REMMET051METAR SBLP 011500Z 21004KT 9999 FEW030 30/14 Q1018;
0143832880999992009090116004-13267-043417FM-15+0443SBLP V0202401N004112200019N0112651N1+03301+01501999999ADDGA1021+009001999GA2041+090001999GF104991999999999999999999MA1101691999999REMMET058METAR SBLP 011600Z 24008KT 9999 FEW030 SCT300 33/15 Q1017;
0120832880999992009090117004-13267-043417FM-15+0443SBLP V0202301N004112200019N0112651N1+03301+01501999999ADDGA1021+009001999GF102991999999999999999999MA1101491999999REMMET051METAR SBLP 011700Z 23008KT 9999 FEW030 33/15 Q1015;
0120832880999992009090118004-13267-043417FM-15+0443SBLP V0202401N004112200019N0112651N1+03401+01601999999ADDGA1021+009001999GF102991999999999999999999MA1101391999999REMMET051METAR SBLP 011800Z 24008KT 9999 FEW030 34/16 Q1014;
0120832880999992009090119004-13267-043417FM-15+0443SBLP V0202801N003112200019N0112651N1+03401+01401999999ADDGA1021+009001999GF102991999999999999999999MA1101391999999REMMET051METAR SBLP 011900Z 28006KT 9999 FEW030 34/14 Q1014;
0072832880999992009090120004-13267-043417FM-15+0443SBLP V0202101N003119999999Y0099001N1+03401+01401999999ADDMA1101391999999REMMET045METAR SBLP 012000Z 21006KT CAVOK 34/14 Q1014;
0072832880999992009090121004-13267-043417FM-15+0443SBLP V0202101N002119999999Y0099001N1+03201+01501999999ADDMA1101391999999REMMET045METAR SBLP 012100Z 21004KT CAVOK 32/15 Q1014;
0072832880999992009090210004-13267-043417FM-15+0443SBLP V0200401N002119999999Y0099001N1+02301+01601999999ADDMA1101691999999REMMET045METAR SBLP 021000Z 04004KT CAVOK 23/16 Q1017;
0072832880999992009090211004-13267-043417FM-15+0443SBLP V0200901N003119999999Y0099001N1+02601+01501999999ADDMA1101801999999REMMET045METAR SBLP 021100Z 09006KT CAVOK 26/15 Q1018;
0072832880999992009090212004-13267-043417FM-15+0443SBLP V0201201N002119999999Y0099001N1+02801+01401999999ADDMA1101801999999REMMET045METAR SBLP 021200Z 12004KT CAVOK 28/14 Q1018;
0072832880999992009090213004-13267-043417FM-15+0443SBLP V0201501N003119999999Y0099001N1+03101+01401999999ADDMA1101801999999REMMET045METAR SBLP 021300Z 15006KT CAVOK 31/14 Q1018;
0072832880999992009090214004-13267-043417FM-15+0443SBLP V0202101N003119999999Y0099001N1+03301+01301999999ADDMA1101691999999REMMET045METAR SBLP 021400Z 21006KT CAVOK 33/13 Q1017;
0072832880999992009090215004-13267-043417FM-15+0443SBLP V0200401N003119999999Y0099001N1+03401+01301999999ADDMA1101591999999REMMET045METAR SBLP 021500Z 04006KT CAVOK 34/13 Q1016;
0072832880999992009090216004-13267-043417FM-15+0443SBLP V0201501N004119999999Y0099001N1+03501+01301999999ADDMA1101491999999REMMET045METAR SBLP 021600Z 15008KT CAVOK 35/13 Q1015;
0072832880999992009090217004-13267-043417FM-15+0443SBLP V0200701N003119999999Y0099001N1+03601+01301999999ADDMA1101291999999REMMET045METAR SBLP 021700Z 07006KT CAVOK 36/13 Q1013;
0072832880999992009090218004-13267-043417FM-15+0443SBLP V0201201N005119999999Y0099001N1+03701+01301999999ADDMA1101191999999REMMET045METAR SBLP 021800Z 12010KT CAVOK 37/13 Q1012;
0072832880999992009090219004-13267-043417FM-15+0443SBLP V0201101N003119999999Y0099001N1+03701+01201999999ADDMA1101191999999REMMET045METAR SBLP 021900Z 11006KT CAVOK 37/12 Q1012;
0072832880999992009090220004-13267-043417FM-15+0443SBLP V0201201N004119999999Y0099001N1+03601+01001999999ADDMA1101191999999REMMET045METAR SBLP 022000Z 12008KT CAVOK 36/10 Q1012;
0072832880999992009090221004-13267-043417FM-15+0443SBLP V0201201N004119999999Y0099001N1+03401+01201999999ADDMA1101291999999REMMET045METAR SBLP 022100Z 12008KT CAVOK 34/12 Q1013;
0072832880999992009090310004-13267-043417FM-15+0443SBLP V0209999C000019999999Y0099001N1+02201+01501999999ADDMA1101691999999REMMET045METAR SBLP 031000Z 00000KT CAVOK 22/15 Q1017;
0072832880999992009090311004-13267-043417FM-15+0443SBLP V0200601N002119999999Y0099001N1+02701+01401999999ADDMA1101801999999REMMET045METAR SBLP 031100Z 06004KT CAVOK 27/14 Q1018;
0072832880999992009090312004-13267-043417FM-15+0443SBLP V0200301N001519999999Y0099001N1+03001+01501999999ADDMA1101901999999REMMET045METAR SBLP 031200Z 03003KT CAVOK 30/15 Q1019;
0072832880999992009090313004-13267-043417FM-15+0443SBLP V0201001N002119999999Y0099001N1+03001+01501999999ADDMA1101801999999REMMET045METAR SBLP 031300Z 10004KT CAVOK 30/15 Q1018;
0072832880999992009090314004-13267-043417FM-15+0443SBLP V0209999C000019999999Y0099001N1+03201+01401999999ADDMA1101801999999REMMET045METAR SBLP 031400Z 00000KT CAVOK 32/14 Q1018;
0072832880999992009090315004-13267-043417FM-15+0443SBLP V0200901N002119999999Y0099001N1+03401+01401999999ADDMA1101691999999REMMET045METAR SBLP 031500Z 09004KT CAVOK 34/14 Q1017;
0072832880999992009090316004-13267-043417FM-15+0443SBLP V0201801N003119999999Y0099001N1+03501+01401999999ADDMA1101491999999REMMET045METAR SBLP 031600Z 18006KT CAVOK 35/14 Q1015;
0072832880999992009090317004-13267-043417FM-15+0443SBLP V0201801N003119999999Y0099001N1+03601+01401999999ADDMA1101391999999REMMET045METAR SBLP 031700Z 18006KT CAVOK 36/14 Q1014;
0120832880999992009090318004-13267-043417FM-15+0443SBLP V0201801N003112200019N0112651N1+03801+01401999999ADDGA1021+009001999GF102991999999999999999999MA1101291999999REMMET051METAR SBLP 031800Z 18006KT 9999 FEW030 38/14 Q1013;
0120832880999992009090319004-13267-043417FM-15+0443SBLP V0201801N003112200019N0112651N1+03701+01401999999ADDGA1021+009001999GF102991999999999999999999MA1101191999999REMMET051METAR SBLP 031900Z 18006KT 9999 FEW030 37/14 Q1012;
0120832880999992009090320004-13267-043417FM-15+0443SBLP V0209999C000012200019N0112651N1+03501+01401999999ADDGA1041+009001999GF104991999999999999999999MA1101191999999REMMET051METAR SBLP 032000Z 00000KT 9999 SCT030 35/14 Q1012;
0120832880999992009090321004-13267-043417FM-15+0443SBLP V0209999C000012200019N0112651N1+03301+01601999999ADDGA1041+009001999GF104991999999999999999999MA1101291999999REMMET051METAR SBLP 032100Z 00000KT 9999 SCT030 33/16 Q1013;
0072832880999992009090410004-13267-043417FM-15+0443SBLP V0209999C000019999999Y0099001N1+02401+01501999999ADDMA1101691999999REMMET045METAR SBLP 041000Z 00000KT CAVOK 24/15 Q1017;
0072832880999992009090411004-13267-043417FM-15+0443SBLP V0209999C000019999999Y0099001N1+02701+01501999999ADDMA1101691999999REMMET045METAR SBLP 041100Z 00000KT CAVOK 27/15 Q1017;
0072832880999992009090412004-13267-043417FM-15+0443SBLP V0209999C000019999999Y0099001N1+03001+01501999999ADDMA1101801999999REMMET045METAR SBLP 041200Z 00000KT CAVOK 30/15 Q1018;
0072832880999992009090413004-13267-043417FM-15+0443SBLP V0200901N003119999999Y0099001N1+03301+01401999999ADDMA1101691999999REMMET045METAR SBLP 041300Z 09006KT CAVOK 33/14 Q1017;
0072832880999992009090414004-13267-043417FM-15+0443SBLP V0200901N003119999999Y0099001N1+03401+01301999999ADDMA1101591999999REMMET045METAR SBLP 041400Z 09006KT CAVOK 34/13 Q1016;
0120832880999992009090415004-13267-043417FM-15+0443SBLP V0200901N003112200019N0112651N1+03501+01301999999ADDGA1021+009001999GF102991999999999999999999MA1101491999999REMMET051METAR SBLP 041500Z 09006KT 9999 FEW030 35/13 Q1015;
0120832880999992009090417004-13267-043417FM-15+0443SBLP V0201601N004112200019N0112651N1+03701+01001999999ADDGA1021+009001999GF102991999999999999999999MA1101291999999REMMET051METAR SBLP 041700Z 16008KT 9999 FEW030 37/10 Q1013;
0120832880999992009090418004-13267-043417FM-15+0443SBLP V0202501N003112200019N0112651N1+03801+01001999999ADDGA1021+009001999GF102991999999999999999999MA1101191999999REMMET051METAR SBLP 041800Z 25006KT 9999 FEW030 38/10 Q1012;
0120832880999992009090419004-13267-043417FM-15+0443SBLP V0202701N002112200019N0112651N1+03801+01101999999ADDGA1021+009001999GF102991999999999999999999MA1101191999999REMMET051METAR SBLP 041900Z 27004KT 9999 FEW030 38/11 Q1012;
0120832880999992009090420004-13267-043417FM-15+0443SBLP V0201901N002112200019N0112651N1+03701+01301999999ADDGA1021+009001999GF102991999999999999999999MA1101191999999REMMET051METAR SBLP 042000Z 19004KT 9999 FEW030 37/13 Q1012;
0072832880999992009090421004-13267-043417FM-15+0443SBLP V0201901N001519999999Y0099001N1+03301+01101999999ADDMA1101191999999REMMET045METAR SBLP 042100Z 19003KT CAVOK 33/11 Q1012;
0120832880999992009090509074-13267-043417FM-16+0443SBLP V0201901N001512200019N0112651N1+02101+01501999999ADDGA1021+009001999GF102991999999999999999999MA1101491999999REMMET051SPECI SBLP 050907Z 19003KT 9999 FEW030 21/15 Q1015;
0072832880999992009090510004-13267-043417FM-15+0443SBLP V0202201N001519999999Y0099001N1+02201+01501999999ADDMA1101591999999REMMET045METAR SBLP 051000Z 22003KT CAVOK 22/15 Q1016;
0072832880999992009090511004-13267-043417FM-15+0443SBLP V0201901N001019999999Y0099001N1+02601+01401999999ADDMA1101691999999REMMET045METAR SBLP 051100Z 19002KT CAVOK 26/14 Q1017;
0072832880999992009090512004-13267-043417FM-15+0443SBLP V0209999C000019999999Y0099001N1+03001+01501999999ADDMA1101691999999REMMET045METAR SBLP 051200Z 00000KT CAVOK 30/15 Q1017;
0072832880999992009090513004-13267-043417FM-15+0443SBLP V0202401N001519999999Y0099001N1+03201+01501999999ADDMA1101691999999REMMET045METAR SBLP 051300Z 24003KT CAVOK 32/15 Q1017;
0072832880999992009090514004-13267-043417FM-15+0443SBLP V0202101N002619999999Y0099001N1+03401+01501999999ADDMA1101591999999REMMET045METAR SBLP 051400Z 21005KT CAVOK 34/15 Q1016;
0120832880999992009090515004-13267-043417FM-15+0443SBLP V0202001N001512200019N0112651N1+03501+01401999999ADDGA1021+009001999GF102991999999999999999999MA1101491999999REMMET051METAR SBLP 051500Z 20003KT 9999 FEW030 35/14 Q1015;
0120832880999992009090516004-13267-043417FM-15+0443SBLP V0202701N003112200019N0112651N1+03601+01401999999ADDGA1021+009001999GF102991999999999999999999MA1101291999999REMMET051METAR SBLP 051600Z 27006KT 9999 FEW030 36/14 Q1013;
0120832880999992009090517004-13267-043417FM-15+0443SBLP V0202101N003112200019N0112651N1+03701+01301999999ADDGA1021+009001999GF102991999999999999999999MA1101191999999REMMET051METAR SBLP 051700Z 21006KT 9999 FEW030 37/13 Q1012;
0120832880999992009090518004-13267-043417FM-15+0443SBLP V0202401N003112200019N0112651N1+03701+01201999999ADDGA1021+009001999GF102991999999999999999999MA1101081999999REMMET051METAR SBLP 051800Z 24006KT 9999 FEW030 37/12 Q1011;
0120832880999992009090519004-13267-043417FM-15+0443SBLP V0202101N003112200019N0112651N1+03801+01201999999ADDGA1021+009001999GF102991999999999999999999MA1101081999999REMMET051METAR SBLP 051900Z 21006KT 9999 FEW030 38/12 Q1011;
0072832880999992009090520004-13267-043417FM-15+0443SBLP V0202101N003119999999Y0099001N1+03701+01301999999ADDMA1101081999999REMMET045METAR SBLP 052000Z 21006KT CAVOK 37/13 Q1011;
0072832880999992009090521004-13267-043417FM-15+0443SBLP V0209999C000019999999Y0099001N1+03601+01401999999ADDMA1101191999999REMMET045METAR SBLP 052100Z 00000KT CAVOK 36/14 Q1012;
0072832880999992009090610004-13267-043417FM-15+0443SBLP V0209999C000019999999Y0099001N1+02501+01601999999ADDMA1101591999999REMMET045METAR SBLP 061000Z 00000KT CAVOK 25/16 Q1016;
0072832880999992009090611004-13267-043417FM-15+0443SBLP V0209999C000019999999Y0099001N1+02801+01701999999ADDMA1101591999999REMMET045METAR SBLP 061100Z 00000KT CAVOK 28/17 Q1016;
0072832880999992009090612004-13267-043417FM-15+0443SBLP V0203601N002119999999Y0099001N1+03201+01701999999ADDMA1101691999999REMMET045METAR SBLP 061200Z 36004KT CAVOK 32/17 Q1017;
0072832880999992009090613004-13267-043417FM-15+0443SBLP V0203301N001019999999Y0099001N1+03401+01601999999ADDMA1101691999999REMMET045METAR SBLP 061300Z 33002KT CAVOK 34/16 Q1017;
0120832880999992009090614004-13267-043417FM-15+0443SBLP V0202201N001512200019N0112651N1+03501+01701999999ADDGA1021+009001999GF102991999999999999999999MA1101591999999REMMET051METAR SBLP 061400Z 22003KT 9999 FEW030 35/17 Q1016;
0120832880999992009090615004-13267-043417FM-15+0443SBLP V0202401N002112200019N0112651N1+03601+01501999999ADDGA1021+009001999GF102991999999999999999999MA1101491999999REMMET051METAR SBLP 061500Z 24004KT 9999 FEW030 36/15 Q1015;
0120832880999992009090616004-13267-043417FM-15+0443SBLP V0202401N003112200019N0112651N1+03701+01501999999ADDGA1041+009001999GF104991999999999999999999MA1101391999999REMMET051METAR SBLP 061600Z 24006KT 9999 SCT030 37/15 Q1014;
0120832880999992009090617004-13267-043417FM-15+0443SBLP V0202101N003112200019N0112651N1+03701+01501999999ADDGA1041+009001999GF104991999999999999999999MA1101191999999REMMET051METAR SBLP 061700Z 21006KT 9999 SCT030 37/15 Q1012;
0120832880999992009090618004-13267-043417FM-15+0443SBLP V0209999C000012200019N0112651N1+03801+01501999999ADDGA1041+009001999GF104991999999999999999999MA1101081999999REMMET051METAR SBLP 061800Z 00000KT 9999 SCT030 38/15 Q1011;
0120832880999992009090619004-13267-043417FM-15+0443SBLP V0200901N004112200019N0112651N1+03501+01601999999ADDGA1041+009001999GF104991999999999999999999MA1101081999999REMMET051METAR SBLP 061900Z 09008KT 9999 SCT030 35/16 Q1011;
0120832880999992009090620004-13267-043417FM-15+0443SBLP V0200901N003112200019N0112651N1+03401+01701999999ADDGA1041+009001999GF104991999999999999999999MA1101081999999REMMET051METAR SBLP 062000Z 09006KT 9999 SCT030 34/17 Q1011;
0120832880999992009090621004-13267-043417FM-15+0443SBLP V0200601N002112200019N0112651N1+03301+01701999999ADDGA1041+009001999GF104991999999999999999999MA1101191999999REMMET051METAR SBLP 062100Z 06004KT 9999 SCT030 33/17 Q1012;
0072832880999992009090709154-13267-043417FM-16+0443SBLP V0209999C000019999999Y0099001N1+02401+01601999999ADDMA1101491999999REMMET045SPECI SBLP 070915Z 00000KT CAVOK 24/16 Q1015;
0072832880999992009090710004-13267-043417FM-15+0443SBLP V0202101N002119999999Y0099001N1+02301+01801999999ADDMA1101591999999REMMET045METAR SBLP 071000Z 21004KT CAVOK 23/18 Q1016;
0072832880999992009090711004-13267-043417FM-15+0443SBLP V0202101N003119999999Y0099001N1+02501+01801999999ADDMA1101691999999REMMET045METAR SBLP 071100Z 21006KT CAVOK 25/18 Q1017;
0072832880999992009090712004-13267-043417FM-15+0443SBLP V0209999C000019999999Y0099001N1+02901+01601999999ADDMA1101691999999REMMET045METAR SBLP 071200Z 00000KT CAVOK 29/16 Q1017;
0072832880999992009090713004-13267-043417FM-15+0443SBLP V0202701N003119999999Y0099001N1+03201+01401999999ADDMA1101691999999REMMET045METAR SBLP 071300Z 27006KT CAVOK 32/14 Q1017;
0120832880999992009090714004-13267-043417FM-15+0443SBLP V0209999C000012200019N0112651N1+03301+01401999999ADDGA1021+009001999GF102991999999999999999999MA1101591999999REMMET051METAR SBLP 071400Z 00000KT 9999 FEW030 33/14 Q1016;
0120832880999992009090715004-13267-043417FM-15+0443SBLP V0209999C000012200019N0112651N1+03401+01301999999ADDGA1021+009001999GF102991999999999999999999MA1101491999999REMMET051METAR SBLP 071500Z 00000KT 9999 FEW030 34/13 Q1015;
0120832880999992009090716004-13267-043417FM-15+0443SBLP V0203601N002112200019N0112651N1+03401+01701999999ADDGA1041+009001999GF104991999999999999999999MA1101291999999REMMET051METAR SBLP 071600Z 36004KT 9999 SCT030 34/17 Q1013;
0120832880999992009090717004-13267-043417FM-15+0443SBLP V0202701N001512200019N0112651N1+03501+01501999999ADDGA1041+009001999GF104991999999999999999999MA1101191999999REMMET051METAR SBLP 071700Z 27003KT 9999 SCT030 35/15 Q1012;
0120832880999992009090718004-13267-043417FM-15+0443SBLP V0203001N003112200019N0112651N1+03601+01401999999ADDGA1041+009001999GF104991999999999999999999MA1101081999999REMMET051METAR SBLP 071800Z 30006KT 9999 SCT030 36/14 Q1011;
0120832880999992009090719004-13267-043417FM-15+0443SBLP V0200901N005112200019N0112651N1+03501+01701999999ADDGA1041+009001999GF104991999999999999999999MA1101081999999REMMET051METAR SBLP 071900Z 09010KT 9999 SCT030 35/17 Q1011;
0120832880999992009090720004-13267-043417FM-15+0443SBLP V0201201N004112200019N0112651N1+03501+01601999999ADDGA1041+009001999GF104991999999999999999999MA1101081999999REMMET051METAR SBLP 072000Z 12008KT 9999 SCT030 35/16 Q1011;
0120832880999992009090721004-13267-043417FM-15+0443SBLP V0200901N004112200019N0112651N1+03301+01801999999ADDGA1041+009001999GF104991999999999999999999MA1101081999999REMMET051METAR SBLP 072100Z 09008KT 9999 SCT030 33/18 Q1011;
0072832880999992009090810004-13267-043417FM-15+0443SBLP V0200701N001519999999Y0099001N1+02501+01701999999ADDMA1101491999999REMMET045METAR SBLP 081000Z 07003KT CAVOK 25/17 Q1015;
0072832880999992009090811004-13267-043417FM-15+0443SBLP V0200401N003119999999Y0099001N1+02801+01701999999ADDMA1101491999999REMMET045METAR SBLP 081100Z 04006KT CAVOK 28/17 Q1015;
0072832880999992009090812004-13267-043417FM-15+0443SBLP V0200801N001519999999Y0099001N1+03101+01701999999ADDMA1101591999999REMMET045METAR SBLP 081200Z 08003KT CAVOK 31/17 Q1016;
0072832880999992009090813004-13267-043417FM-15+0443SBLP V0201301N003119999999Y0099001N1+03201+01701999999ADDMA1101491999999REMMET045METAR SBLP 081300Z 13006KT CAVOK 32/17 Q1015;
0143832880999992009090814004-13267-043417FM-15+0443SBLP V0209999C000010300019N0112651N1+03301+01801999999ADDGA1021+009001999GA2071+030001999GF107991999999999999999999MA1101491999999REMMET058METAR SBLP 081400Z 00000KT 9999 FEW030 BKN100 33/18 Q1015;
0143832880999992009090815004-13267-043417FM-15+0443SBLP V0202101N004112200019N0112651N1+03301+01801999999ADDGA1021+009001999GA2041+030001999GF104991999999999999999999MA1101391999999REMMET058METAR SBLP 081500Z 21008KT 9999 FEW030 SCT100 33/18 Q1014;
0120832880999992009090816004-13267-043417FM-15+0443SBLP V0209999C000012200019N0112651N1+03401+01801999999ADDGA1041+009001999GF104991999999999999999999MA1101291999999REMMET051METAR SBLP 081600Z 00000KT 9999 SCT030 34/18 Q1013;
0120832880999992009090817004-13267-043417FM-15+0443SBLP V0209999C000012200019N0112651N1+03501+01801999999ADDGA1041+009001999GF104991999999999999999999MA1101191999999REMMET051METAR SBLP 081700Z 00000KT 9999 SCT030 35/18 Q1012;
0120832880999992009090818004-13267-043417FM-15+0443SBLP V0203601N003110090019N0112651N1+03501+01801999999ADDGA1071+009001999GF107991999999999999999999MA1101081999999REMMET051METAR SBLP 081800Z 36006KT 9999 BKN030 35/18 Q1011;
0120832880999992009090819004-13267-043417FM-15+0443SBLP V0203601N003112200019N0112651N1+03401+01801999999ADDGA1041+009001999GF104991999999999999999999MA1101081999999REMMET051METAR SBLP 081900Z 36006KT 9999 SCT030 34/18 Q1011;
0120832880999992009090820004-13267-043417FM-15+0443SBLP V0200901N003112200019N0112651N1+03301+01801999999ADDGA1041+009001999GF104991999999999999999999MA1101081999999REMMET051METAR SBLP 082000Z 09006KT 9999 SCT030 33/18 Q1011;
0120832880999992009090821004-13267-043417FM-15+0443SBLP V0200901N003112200019N0112651N1+03101+01901999999ADDGA1041+009001999GF104991999999999999999999MA1101191999999REMMET051METAR SBLP 082100Z 09006KT 9999 SCT030 31/19 Q1012;
0072832880999992009090909104-13267-043417FM-16+0443SBLP V0209999C000019999999Y0099001N1+02401+01701999999ADDMA1101591999999REMMET045SPECI SBLP 090910Z 00000KT CAVOK 24/17 Q1016;
0072832880999992009090910004-13267-043417FM-15+0443SBLP V0209999C000019999999Y0099001N1+02601+01601999999ADDMA1101691999999REMMET045METAR SBLP 091000Z 00000KT CAVOK 26/16 Q1017;
0072832880999992009090911004-13267-043417FM-15+0443SBLP V0200901N003119999999Y0099001N1+02801+01501999999ADDMA1101691999999REMMET045METAR SBLP 091100Z 09006KT CAVOK 28/15 Q1017;
0072832880999992009090912004-13267-043417FM-15+0443SBLP V0200901N003119999999Y0099001N1+03001+01501999999ADDMA1101691999999REMMET045METAR SBLP 091200Z 09006KT CAVOK 30/15 Q1017;
0072832880999992009090913004-13267-043417FM-15+0443SBLP V0200901N003119999999Y0099001N1+03101+01501999999ADDMA1101691999999REMMET045METAR SBLP 091300Z 09006KT CAVOK 31/15 Q1017;
0120832880999992009090914004-13267-043417FM-15+0443SBLP V0200901N003112200019N0112651N1+03301+01501999999ADDGA1021+009001999GF102991999999999999999999MA1101591999999REMMET051METAR SBLP 091400Z 09006KT 9999 FEW030 33/15 Q1016;
0120832880999992009090915004-13267-043417FM-15+0443SBLP V0200901N003112200019N0112651N1+03301+01501999999ADDGA1021+009001999GF102991999999999999999999MA1101491999999REMMET051METAR SBLP 091500Z 09006KT 9999 FEW030 33/15 Q1015;
0120832880999992009090916004-13267-043417FM-15+0443SBLP V0201501N004112200019N0112651N1+03401+01301999999ADDGA1021+009001999GF102991999999999999999999MA1101391999999REMMET051METAR SBLP 091600Z 15008KT 9999 FEW030 34/13 Q1014;
0120832880999992009090917004-13267-043417FM-15+0443SBLP V0209999C000012200019N0112651N1+03501+01201999999ADDGA1021+009001999GF102991999999999999999999MA1101291999999REMMET051METAR SBLP 091700Z 00000KT 9999 FEW030 35/12 Q1013;
0120832880999992009090918004-13267-043417FM-15+0443SBLP V0200601N002612200019N0112651N1+03601+01101999999ADDGA1021+009001999GF102991999999999999999999MA1101191999999REMMET051METAR SBLP 091800Z 06005KT 9999 FEW030 36/11 Q1012;
0120832880999992009090919004-13267-043417FM-15+0443SBLP V0200901N003112200019N0112651N1+03501+01201999999ADDGA1021+009001999GF102991999999999999999999MA1101191999999REMMET051METAR SBLP 091900Z 09006KT 9999 FEW030 35/12 Q1012;
0120832880999992009090920004-13267-043417FM-15+0443SBLP V0200601N001512200019N0112651N1+03501+01501999999ADDGA1021+009001999GF102991999999999999999999MA1101191999999REMMET051METAR SBLP 092000Z 06003KT 9999 FEW030 35/15 Q1012;
0120832880999992009090921004-13267-043417FM-15+0443SBLP V0200901N001512200019N0112651N1+03301+01101999999ADDGA1041+009001999GF104991999999999999999999MA1101291999999REMMET051METAR SBLP 092100Z 09003KT 9999 SCT030 33/11 Q1013;
0072832880999992009091010004-13267-043417FM-15+0443SBLP V0201801N003119999999Y0099001N1+02201+01401999999ADDMA1101901999999REMMET045METAR SBLP 101000Z 18006KT CAVOK 22/14 Q1019;
0072832880999992009091011004-13267-043417FM-15+0443SBLP V0201501N004119999999Y0099001N1+02601+01501999999ADDMA1102001999999REMMET045METAR SBLP 101100Z 15008KT CAVOK 26/15 Q1020;
0120832880999992009091012004-13267-043417FM-15+0443SBLP V0200901N003112200019N0112651N1+02801+01401999999ADDGA1021+009001999GF102991999999999999999999MA1102001999999REMMET051METAR SBLP 101200Z 09006KT 9999 FEW030 28/14 Q1020;
0120832880999992009091013004-13267-043417FM-15+0443SBLP V0201201N004112200019N0112651N1+02901+01501999999ADDGA1041+009001999GF104991999999999999999999MA1102001999999REMMET051METAR SBLP 101300Z 12008KT 9999 SCT030 29/15 Q1020;
0120832880999992009091014004-13267-043417FM-15+0443SBLP V0201201N004112200019N0112651N1+02901+01601999999ADDGA1041+009001999GF104991999999999999999999MA1102001999999REMMET051METAR SBLP 101400Z 12008KT 9999 SCT030 29/16 Q1020;
0120832880999992009091015004-13267-043417FM-15+0443SBLP V0200901N004112200019N0112651N1+03101+01501999999ADDGA1041+009001999GF104991999999999999999999MA1101901999999REMMET051METAR SBLP 101500Z 09008KT 9999 SCT030 31/15 Q1019;
0120832880999992009091016004-13267-043417FM-15+0443SBLP V0200901N003112200019N0112651N1+03201+01201999999ADDGA1041+009001999GF104991999999999999999999MA1101801999999REMMET051METAR SBLP 101600Z 09006KT 9999 SCT030 32/12 Q1018;
0120832880999992009091017004-13267-043417FM-15+0443SBLP V0200601N002112200019N0112651N1+03301+01501999999ADDGA1041+009001999GF104991999999999999999999MA1101691999999REMMET051METAR SBLP 101700Z 06004KT 9999 SCT030 33/15 Q1017;
0120832880999992009091018004-13267-043417FM-15+0443SBLP V0200901N004112200019N0112651N1+03301+01501999999ADDGA1041+009001999GF104991999999999999999999MA1101591999999REMMET051METAR SBLP 101800Z 09008KT 9999 SCT030 33/15 Q1016;
0120832880999992009091019004-13267-043417FM-15+0443SBLP V0201201N005112200019N0112651N1+03301+01501999999ADDGA1041+009001999GF104991999999999999999999MA1101591999999REMMET051METAR SBLP 101900Z 12010KT 9999 SCT030 33/15 Q1016;
0120832880999992009091020004-13267-043417FM-15+0443SBLP V0201201N005112200019N0112651N1+03101+01501999999ADDGA1041+009001999GF104991999999999999999999MA1101691999999REMMET051METAR SBLP 102000Z 12010KT 9999 SCT030 31/15 Q1017;
0120832880999992009091021004-13267-043417FM-15+0443SBLP V0201201N004112200019N0112651N1+03001+01501999999ADDGA1041+009001999GF104991999999999999999999MA1101691999999REMMET051METAR SBLP 102100Z 12008KT 9999 SCT030 30/15 Q1017;
0072832880999992009091109064-13267-043417FM-16+0443SBLP V0201201N001519999999Y0099001N1+02001+01601999999ADDMA1102001999999REMMET045SPECI SBLP 110906Z 12003KT CAVOK 20/16 Q1020;
0072832880999992009091110004-13267-043417FM-15+0443SBLP V0201701N001019999999Y0099001N1+02201+01601999999ADDMA1102101999999REMMET045METAR SBLP 111000Z 17002KT CAVOK 22/16 Q1021;
0120832880999992009091111004-13267-043417FM-15+0443SBLP V0201301N004112200019N0112651N1+02601+01601999999ADDGA1021+009001999GF102991999999999999999999MA1102101999999REMMET051METAR SBLP 111100Z 13008KT 9999 FEW030 26/16 Q1021;
0120832880999992009091112004-13267-043417FM-15+0443SBLP V0200701N002612200019N0112651N1+02701+01501999999ADDGA1041+009001999GF104991999999999999999999MA1102201999999REMMET051METAR SBLP 111200Z 07005KT 9999 SCT030 27/15 Q1022;
0120832880999992009091113004-13267-043417FM-15+0443SBLP V0200601N001510090019N0112651N1+02801+01501999999ADDGA1071+009001999GF107991999999999999999999MA1102201999999REMMET051METAR SBLP 111300Z 06003KT 9999 BKN030 28/15 Q1022;
0120832880999992009091114004-13267-043417FM-15+0443SBLP V0200601N001510090019N0112651N1+02801+01501999999ADDGA1071+009001999GF107991999999999999999999MA1102201999999REMMET051METAR SBLP 111400Z 06003KT 9999 BKN030 28/15 Q1022;
0120832880999992009091115004-13267-043417FM-15+0443SBLP V0200601N001510090019N0112651N1+03001+01501999999ADDGA1071+009001999GF107991999999999999999999MA1102001999999REMMET051METAR SBLP 111500Z 06003KT 9999 BKN030 30/15 Q1020;
0120832880999992009091116004-13267-043417FM-15+0443SBLP V0201801N004110090019N0112651N1+03201+01601999999ADDGA1071+009001999GF107991999999999999999999MA1101801999999REMMET051METAR SBLP 111600Z 18008KT 9999 BKN030 32/16 Q1018;
0120832880999992009091117004-13267-043417FM-15+0443SBLP V0202201N003110090019N0112651N1+03301+01501999999ADDGA1071+009001999GF107991999999999999999999MA1101691999999REMMET051METAR SBLP 111700Z 22006KT 9999 BKN030 33/15 Q1017;
0120832880999992009091118004-13267-043417FM-15+0443SBLP V0203301N003112200019N0112651N1+03401+01501999999ADDGA1041+009001999GF104991999999999999999999MA1101591999999REMMET051METAR SBLP 111800Z 33006KT 9999 SCT030 34/15 Q1016;
0120832880999992009091119004-13267-043417FM-15+0443SBLP V0200901N003112200019N0112651N1+03501+01501999999ADDGA1041+009001999GF104991999999999999999999MA1101491999999REMMET051METAR SBLP 111900Z 09006KT 9999 SCT030 35/15 Q1015;
0120832880999992009091120004-13267-043417FM-15+0443SBLP V0202401N001512200019N0112651N1+03401+01601999999ADDGA1041+009001999GF104991999999999999999999MA1101491999999REMMET051METAR SBLP 112000Z 24003KT 9999 SCT030 34/16 Q1015;
0120832880999992009091121004-13267-043417FM-15+0443SBLP V0201201N005112200019N0112651N1+03101+01301999999ADDGA1041+009001999GF104991999999999999999999MA1101491999999REMMET051METAR SBLP 112100Z 12010KT 9999 SCT030 31/13 Q1015;
0072832880999992009091210004-13267-043417FM-15+0443SBLP V0201501N003119999999Y0099001N1+02301+01501999999ADDMA1102001999999REMMET045METAR SBLP 121000Z 15006KT CAVOK 23/15 Q1020;
0072832880999992009091211004-13267-043417FM-15+0443SBLP V0201201N003119999999Y0099001N1+02501+01501999999ADDMA1102001999999REMMET045METAR SBLP 121100Z 12006KT CAVOK 25/15 Q1020;
0072832880999992009091212004-13267-043417FM-15+0443SBLP V0201501N005119999999Y0099001N1+02701+01501999999ADDMA1102001999999REMMET045METAR SBLP 121200Z 15010KT CAVOK 27/15 Q1020;
0120832880999992009091213004-13267-043417FM-15+0443SBLP V0201801N003112200019N0112651N1+02901+01401999999ADDGA1021+009001999GF102991999999999999999999MA1102001999999REMMET051METAR SBLP 121300Z 18006KT 9999 FEW030 29/14 Q1020;
0120832880999992009091214004-13267-043417FM-15+0443SBLP V0201001N001512200019N0112651N1+03101+01401999999ADDGA1041+009001999GF104991999999999999999999MA1101901999999REMMET051METAR SBLP 121400Z 10003KT 9999 SCT030 31/14 Q1019;
0120832880999992009091215004-13267-043417FM-15+0443SBLP V0201801N003112200019N0112651N1+03101+01501999999ADDGA1041+009001999GF104991999999999999999999MA1101801999999REMMET051METAR SBLP 121500Z 18006KT 9999 SCT030 31/15 Q1018;
0120832880999992009091216004-13267-043417FM-15+0443SBLP V0200901N003112200019N0112651N1+03201+01501999999ADDGA1041+009001999GF104991999999999999999999MA1101691999999REMMET051METAR SBLP 121600Z 09006KT 9999 SCT030 32/15 Q1017;
0120832880999992009091217004-13267-043417FM-15+0443SBLP V0200901N003112200019N0112651N1+03301+01501999999ADDGA1041+009001999GF104991999999999999999999MA1101591999999REMMET051METAR SBLP 121700Z 09006KT 9999 SCT030 33/15 Q1016;
0120832880999992009091218004-13267-043417FM-15+0443SBLP V0201801N003112200019N0112651N1+03401+01501999999ADDGA1041+009001999GF104991999999999999999999MA1101491999999REMMET051METAR SBLP 121800Z 18006KT 9999 SCT030 34/15 Q1015;
0120832880999992009091219004-13267-043417FM-15+0443SBLP V0201801N003112200019N0112651N1+03401+01501999999ADDGA1041+009001999GF104991999999999999999999MA1101391999999REMMET051METAR SBLP 121900Z 18006KT 9999 SCT030 34/15 Q1014;
0120832880999992009091220004-13267-043417FM-15+0443SBLP V0201801N003112200019N0112651N1+03201+01601999999ADDGA1041+009001999GF104991999999999999999999MA1101391999999REMMET051METAR SBLP 122000Z 18006KT 9999 SCT030 32/16 Q1014;
0120832880999992009091221004-13267-043417FM-15+0443SBLP V0201801N003112200019N0112651N1+03101+01601999999ADDGA1021+009001999GF102991999999999999999999MA1101491999999REMMET051METAR SBLP 122100Z 18006KT 9999 FEW030 31/16 Q1015;
0072832880999992009091309144-13267-043417FM-16+0443SBLP V0209999C000019999999Y0099001N1+02001+01701999999ADDMA1101691999999REMMET045SPECI SBLP 130914Z 00000KT CAVOK 20/17 Q1017;
0072832880999992009091310004-13267-043417FM-15+0443SBLP V0202201N002119999999Y0099001N1+02101+01701999999ADDMA1101801999999REMMET045METAR SBLP 131000Z 22004KT CAVOK 21/17 Q1018;
0072832880999992009091311004-13267-043417FM-15+0443SBLP V0201501N002119999999Y0099001N1+02501+01601999999ADDMA1101801999999REMMET045METAR SBLP 131100Z 15004KT CAVOK 25/16 Q1018;
0072832880999992009091312004-13267-043417FM-15+0443SBLP V0202701N001519999999Y0099001N1+02701+01501999999ADDMA1101901999999REMMET045METAR SBLP 131200Z 27003KT CAVOK 27/15 Q1019;
0072832880999992009091313004-13267-043417FM-15+0443SBLP V0201801N004119999999Y0099001N1+03001+01501999999ADDMA1101901999999REMMET045METAR SBLP 131300Z 18008KT CAVOK 30/15 Q1019;
0120832880999992009091314004-13267-043417FM-15+0443SBLP V0201801N003112200019N0112651N1+03201+01501999999ADDGA1021+009001999GF102991999999999999999999MA1101801999999REMMET051METAR SBLP 131400Z 18006KT 9999 FEW030 32/15 Q1018;
0120832880999992009091315004-13267-043417FM-15+0443SBLP V0201501N002112200019N0112651N1+03201+01501999999ADDGA1041+009001999GF104991999999999999999999MA1101691999999REMMET051METAR SBLP 131500Z 15004KT 9999 SCT030 32/15 Q1017;
0120832880999992009091316004-13267-043417FM-15+0443SBLP V0201801N003112200019N0112651N1+03401+01501999999ADDGA1041+009001999GF104991999999999999999999MA1101491999999REMMET051METAR SBLP 131600Z 18006KT 9999 SCT030 34/15 Q1015;
0120832880999992009091317004-13267-043417FM-15+0443SBLP V0201801N003112200019N0112651N1+03501+01501999999ADDGA1041+009001999GF104991999999999999999999MA1101391999999REMMET051METAR SBLP 131700Z 18006KT 9999 SCT030 35/15 Q1014;
0120832880999992009091318004-13267-043417FM-15+0443SBLP V0201801N003112200019N0112651N1+03501+01501999999ADDGA1041+009001999GF104991999999999999999999MA1101291999999REMMET051METAR SBLP 131800Z 18006KT 9999 SCT030 35/15 Q1013;
0120832880999992009091319004-13267-043417FM-15+0443SBLP V0201801N003112200019N0112651N1+03501+01501999999ADDGA1021+009001999GF102991999999999999999999MA1101291999999REMMET051METAR SBLP 131900Z 18006KT 9999 FEW030 35/15 Q1013;
0120832880999992009091320004-13267-043417FM-15+0443SBLP V0201801N003112200019N0112651N1+03501+01501999999ADDGA1021+009001999GF102991999999999999999999MA1101391999999REMMET051METAR SBLP 132000Z 18006KT 9999 FEW030 35/15 Q1014;
0072832880999992009091321004-13267-043417FM-15+0443SBLP V0201801N003119999999Y0099001N1+03301+01601999999ADDMA1101391999999REMMET045METAR SBLP 132100Z 18006KT CAVOK 33/16 Q1014;
0072832880999992009091409104-13267-043417FM-16+0443SBLP V0209999C000019999999Y0099001N1+02201+01701999999ADDMA1101801999999REMMET045SPECI SBLP 140910Z 00000KT CAVOK 22/17 Q1018;
0072832880999992009091410004-13267-043417FM-15+0443SBLP V0209999C000019999999Y0099001N1+02401+01601999999ADDMA1101901999999REMMET045METAR SBLP 141000Z 00000KT CAVOK 24/16 Q1019;
0072832880999992009091411004-13267-043417FM-15+0443SBLP V0209999C000019999999Y0099001N1+02701+01601999999ADDMA1101901999999REMMET045METAR SBLP 141100Z 00000KT CAVOK 27/16 Q1019;
0072832880999992009091412004-13267-043417FM-15+0443SBLP V0200901N003119999999Y0099001N1+02801+01501999999ADDMA1101901999999REMMET045METAR SBLP 141200Z 09006KT CAVOK 28/15 Q1019;
0072832880999992009091413004-13267-043417FM-15+0443SBLP V0200901N003119999999Y0099001N1+03001+01501999999ADDMA1101901999999REMMET045METAR SBLP 141300Z 09006KT CAVOK 30/15 Q1019;
0072832880999992009091414004-13267-043417FM-15+0443SBLP V0200901N003119999999Y0099001N1+03201+01401999999ADDMA1101801999999REMMET045METAR SBLP 141400Z 09006KT CAVOK 32/14 Q1018;
0120832880999992009091415004-13267-043417FM-15+0443SBLP V0201801N003112200019N0112651N1+03301+01401999999ADDGA1021+009001999GF102991999999999999999999MA1101591999999REMMET051METAR SBLP 141500Z 18006KT 9999 FEW030 33/14 Q1016;
0120832880999992009091416004-13267-043417FM-15+0443SBLP V0202101N003112200019N0112651N1+03601+01301999999ADDGA1021+009001999GF102991999999999999999999MA1101491999999REMMET051METAR SBLP 141600Z 21006KT 9999 FEW030 36/13 Q1015;
0120832880999992009091417004-13267-043417FM-15+0443SBLP V0202101N003112200019N0112651N1+03701+01301999999ADDGA1021+009001999GF102991999999999999999999MA1101291999999REMMET051METAR SBLP 141700Z 21006KT 9999 FEW030 37/13 Q1013;
0120832880999992009091418004-13267-043417FM-15+0443SBLP V0201601N003112200019N0112651N1+03601+01201999999ADDGA1021+009001999GF102991999999999999999999MA1101291999999REMMET051METAR SBLP 141800Z 16006KT 9999 FEW030 36/12 Q1013;
0120832880999992009091419004-13267-043417FM-15+0443SBLP V0201201N003112200019N0112651N1+03601+01201999999ADDGA1021+009001999GF102991999999999999999999MA1101291999999REMMET051METAR SBLP 141900Z 12006KT 9999 FEW030 36/12 Q1013;
0072832880999992009091420004-13267-043417FM-15+0443SBLP V0201801N003119999999Y0099001N1+03501+01401999999ADDMA1101291999999REMMET045METAR SBLP 142000Z 18006KT CAVOK 35/14 Q1013;
0072832880999992009091421004-13267-043417FM-15+0443SBLP V0209999C000019999999Y0099001N1+03301+01501999999ADDMA1101391999999REMMET045METAR SBLP 142100Z 00000KT CAVOK 33/15 Q1014;
0072832880999992009091510004-13267-043417FM-15+0443SBLP V0209999C000019999999Y0099001N1+02401+01601999999ADDMA1101591999999REMMET045METAR SBLP 151000Z 00000KT CAVOK 24/16 Q1016;
0072832880999992009091511004-13267-043417FM-15+0443SBLP V0200901N003119999999Y0099001N1+02701+01601999999ADDMA1101691999999REMMET045METAR SBLP 151100Z 09006KT CAVOK 27/16 Q1017;
0072832880999992009091512004-13267-043417FM-15+0443SBLP V0200901N003119999999Y0099001N1+03001+01501999999ADDMA1101801999999REMMET045METAR SBLP 151200Z 09006KT CAVOK 30/15 Q1018;
0072832880999992009091513004-13267-043417FM-15+0443SBLP V0200901N003119999999Y0099001N1+03201+01401999999ADDMA1101801999999REMMET045METAR SBLP 151300Z 09006KT CAVOK 32/14 Q1018;
0072832880999992009091514004-13267-043417FM-15+0443SBLP V0200901N003119999999Y0099001N1+03401+01301999999ADDMA1101691999999REMMET045METAR SBLP 151400Z 09006KT CAVOK 34/13 Q1017;
0120832880999992009091515004-13267-043417FM-15+0443SBLP V0200901N003112200019N0112651N1+03501+01301999999ADDGA1021+009001999GF102991999999999999999999MA1101591999999REMMET051METAR SBLP 151500Z 09006KT 9999 FEW030 35/13 Q1016;
0120832880999992009091516004-13267-043417FM-15+0443SBLP V0202401N002112200019N0112651N1+03601+01301999999ADDGA1021+009001999GF102991999999999999999999MA1101391999999REMMET051METAR SBLP 151600Z 24004KT 9999 FEW030 36/13 Q1014;
0120832880999992009091517004-13267-043417FM-15+0443SBLP V0201801N003112200019N0112651N1+03701+01101999999ADDGA1021+009001999GF102991999999999999999999MA1101291999999REMMET051METAR SBLP 151700Z 18006KT 9999 FEW030 37/11 Q1013;
0120832880999992009091518004-13267-043417FM-15+0443SBLP V0202101N003112200019N0112651N1+03701+01101999999ADDGA1021+009001999GF102991999999999999999999MA1101191999999REMMET051METAR SBLP 151800Z 21006KT 9999 FEW030 37/11 Q1012;
0120832880999992009091519004-13267-043417FM-15+0443SBLP V0201801N003112200019N0112651N1+03701+01101999999ADDGA1021+009001999GF102991999999999999999999MA1101191999999REMMET051METAR SBLP 151900Z 18006KT 9999 FEW030 37/11 Q1012;
0120832880999992009091520004-13267-043417FM-15+0443SBLP V0201501N003112200019N0112651N1+03601+01201999999ADDGA1021+009001999GF102991999999999999999999MA1101191999999REMMET051METAR SBLP 152000Z 15006KT 9999 FEW030 36/12 Q1012;
0072832880999992009091521004-13267-043417FM-15+0443SBLP V0201501N003119999999Y0099001N1+03401+01401999999ADDMA1101291999999REMMET045METAR SBLP 152100Z 15006KT CAVOK 34/14 Q1013;
0072832880999992009091609124-13267-043417FM-15+0443SBLP V0209999C000019999999Y0099001N1+02101+01601999999ADDMA1101591999999REMMET045METAR SBLP 160912Z 00000KT CAVOK 21/16 Q1016;
0072832880999992009091610004-13267-043417FM-15+0443SBLP V0201501N003119999999Y0099001N1+02301+01601999999ADDMA1101691999999REMMET045METAR SBLP 161000Z 15006KT CAVOK 23/16 Q1017;
0072832880999992009091611004-13267-043417FM-15+0443SBLP V0209999C000019999999Y0099001N1+02701+01601999999ADDMA1101691999999REMMET045METAR SBLP 161100Z 00000KT CAVOK 27/16 Q1017;
0072832880999992009091612004-13267-043417FM-15+0443SBLP V0201201N003119999999Y0099001N1+03001+01601999999ADDMA1101801999999REMMET045METAR SBLP 161200Z 12006KT CAVOK 30/16 Q1018;
0072832880999992009091613004-13267-043417FM-15+0443SBLP V0209999C000019999999Y0099001N1+03101+01601999999ADDMA1101691999999REMMET045METAR SBLP 161300Z 00000KT CAVOK 31/16 Q1017;
0072832880999992009091614004-13267-043417FM-15+0443SBLP V0201201N004119999999Y0099001N1+03401+00901999999ADDMA1101591999999REMMET045METAR SBLP 161400Z 12008KT CAVOK 34/09 Q1016;
0120832880999992009091615004-13267-043417FM-15+0443SBLP V0202101N003112200019N0112651N1+03501+01501999999ADDGA1021+009001999GF102991999999999999999999MA1101491999999REMMET051METAR SBLP 161500Z 21006KT 9999 FEW030 35/15 Q1015;
0120832880999992009091616004-13267-043417FM-15+0443SBLP V0200601N002112200019N0112651N1+03601+01201999999ADDGA1021+009001999GF102991999999999999999999MA1101391999999REMMET051METAR SBLP 161600Z 06004KT 9999 FEW030 36/12 Q1014;
0120832880999992009091617004-13267-043417FM-15+0443SBLP V0201301N001512200019N0112651N1+03701+01101999999ADDGA1021+009001999GF102991999999999999999999MA1101191999999REMMET051METAR SBLP 161700Z 13003KT 9999 FEW030 37/11 Q1012;
0120832880999992009091618004-13267-043417FM-15+0443SBLP V0201301N002612200019N0112651N1+03801+00901999999ADDGA1021+009001999GF102991999999999999999999MA1101191999999REMMET051METAR SBLP 161800Z 13005KT 9999 FEW030 38/09 Q1012;
0120832880999992009091619004-13267-043417FM-15+0443SBLP V0209999C000012200019N0112651N1+03701+00901999999ADDGA1021+009001999GF102991999999999999999999MA1101081999999REMMET051METAR SBLP 161900Z 00000KT 9999 FEW030 37/09 Q1011;
0120832880999992009091620004-13267-043417FM-15+0443SBLP V0201501N004112200019N0112651N1+03601+01001999999ADDGA1021+009001999GF102991999999999999999999MA1101081999999REMMET051METAR SBLP 162000Z 15008KT 9999 FEW030 36/10 Q1011;
0120832880999992009091621004-13267-043417FM-15+0443SBLP V0201701N003112200019N0112651N1+03401+00901999999ADDGA1021+009001999GF102991999999999999999999MA1101191999999REMMET051METAR SBLP 162100Z 17006KT 9999 FEW030 34/09 Q1012;
0072832880999992009091710004-13267-043417FM-15+0443SBLP V0209999C000019999999Y0099001N1+02301+01601999999ADDMA1101491999999REMMET045METAR SBLP 171000Z 00000KT CAVOK 23/16 Q1015;
0072832880999992009091711004-13267-043417FM-15+0443SBLP V0200901N003119999999Y0099001N1+02701+01701999999ADDMA1101591999999REMMET045METAR SBLP 171100Z 09006KT CAVOK 27/17 Q1016;
0072832880999992009091712004-13267-043417FM-15+0443SBLP V0200601N003119999999Y0099001N1+03001+01601999999ADDMA1101591999999REMMET045METAR SBLP 171200Z 06006KT CAVOK 30/16 Q1016;
0072832880999992009091713004-13267-043417FM-15+0443SBLP V0201201N003119999999Y0099001N1+03201+01701999999ADDMA1101591999999REMMET045METAR SBLP 171300Z 12006KT CAVOK 32/17 Q1016;
0072832880999992009091714004-13267-043417FM-15+0443SBLP V0201201N003119999999Y0099001N1+03401+01601999999ADDMA1101491999999REMMET045METAR SBLP 171400Z 12006KT CAVOK 34/16 Q1015;
0120832880999992009091715004-13267-043417FM-15+0443SBLP V0209999C000012200019N0112651N1+03501+01501999999ADDGA1021+009001999GF102991999999999999999999MA1101391999999REMMET051METAR SBLP 171500Z 00000KT 9999 FEW030 35/15 Q1014;
0120832880999992009091716004-13267-043417FM-15+0443SBLP V0209999C000012200019N0112651N1+03601+01501999999ADDGA1021+009001999GF102991999999999999999999MA1101291999999REMMET051METAR SBLP 171600Z 00000KT 9999 FEW030 36/15 Q1013;
0120832880999992009091717004-13267-043417FM-15+0443SBLP V0201801N003112200019N0112651N1+03601+01501999999ADDGA1041+009001999GF104991999999999999999999MA1101191999999REMMET051METAR SBLP 171700Z 18006KT 9999 SCT030 36/15 Q1012;
0120832880999992009091718004-13267-043417FM-15+0443SBLP V0201801N003112200019N0112651N1+03801+01401999999ADDGA1041+009001999GF104991999999999999999999MA1101081999999REMMET051METAR SBLP 171800Z 18006KT 9999 SCT030 38/14 Q1011;
0120832880999992009091719004-13267-043417FM-15+0443SBLP V0201801N003112200019N0112651N1+03801+01401999999ADDGA1041+009001999GF104991999999999999999999MA1101021999999REMMET051METAR SBLP 171900Z 18006KT 9999 SCT030 38/14 Q1010;
0120832880999992009091720004-13267-043417FM-15+0443SBLP V0201801N003112200019N0112651N1+03701+01401999999ADDGA1021+009001999GF102991999999999999999999MA1101021999999REMMET051METAR SBLP 172000Z 18006KT 9999 FEW030 37/14 Q1010;
0120832880999992009091721004-13267-043417FM-15+0443SBLP V0201801N003112200019N0112651N1+03401+01501999999ADDGA1021+009001999GF102991999999999999999999MA1101081999999REMMET051METAR SBLP 172100Z 18006KT 9999 FEW030 34/15 Q1011;
0072832880999992009091809104-13267-043417FM-16+0443SBLP V0209999C000019999999Y0099001N1+02301+01901999999ADDMA1101391999999REMMET045SPECI SBLP 180910Z 00000KT CAVOK 23/19 Q1014;
0072832880999992009091810004-13267-043417FM-15+0443SBLP V0209999C000019999999Y0099001N1+02501+01801999999ADDMA1101491999999REMMET045METAR SBLP 181000Z 00000KT CAVOK 25/18 Q1015;
0072832880999992009091811004-13267-043417FM-15+0443SBLP V0200901N003119999999Y0099001N1+02801+01701999999ADDMA1101591999999REMMET045METAR SBLP 181100Z 09006KT CAVOK 28/17 Q1016;
0072832880999992009091812004-13267-043417FM-15+0443SBLP V0200901N003119999999Y0099001N1+03001+01601999999ADDMA1101591999999REMMET045METAR SBLP 181200Z 09006KT CAVOK 30/16 Q1016;
0072832880999992009091813004-13267-043417FM-15+0443SBLP V0200901N003119999999Y0099001N1+03201+01501999999ADDMA1101591999999REMMET045METAR SBLP 181300Z 09006KT CAVOK 32/15 Q1016;
0072832880999992009091814004-13267-043417FM-15+0443SBLP V0200901N003119999999Y0099001N1+03401+01501999999ADDMA1101491999999REMMET045METAR SBLP 181400Z 09006KT CAVOK 34/15 Q1015;
0120832880999992009091815004-13267-043417FM-15+0443SBLP V0200901N003112200019N0112651N1+03501+01401999999ADDGA1021+009001999GF102991999999999999999999MA1101291999999REMMET051METAR SBLP 181500Z 09006KT 9999 FEW030 35/14 Q1013;
0120832880999992009091816004-13267-043417FM-15+0443SBLP V0202401N002612200019N0112651N1+03601+01301999999ADDGA1021+009001999GF102991999999999999999999MA1101191999999REMMET051METAR SBLP 181600Z 24005KT 9999 FEW030 36/13 Q1012;
0120832880999992009091817004-13267-043417FM-15+0443SBLP V0202401N002612200019N0112651N1+03701+01001999999ADDGA1021+009001999GF102991999999999999999999MA1101081999999REMMET051METAR SBLP 181700Z 24005KT 9999 FEW030 37/10 Q1011;
0120832880999992009091818004-13267-043417FM-15+0443SBLP V0202101N003112200019N0112651N1+03701+01101999999ADDGA1021+009001999GF102991999999999999999999MA1101021999999REMMET051METAR SBLP 181800Z 21006KT 9999 FEW030 37/11 Q1010;
0120832880999992009091819004-13267-043417FM-15+0443SBLP V0202101N003112200019N0112651N1+03701+01101999999ADDGA1021+009001999GF102991999999999999999999MA1101021999999REMMET051METAR SBLP 181900Z 21006KT 9999 FEW030 37/11 Q1010;
0120832880999992009091820004-13267-043417FM-15+0443SBLP V0202101N001512200019N0112651N1+03701+01101999999ADDGA1021+009001999GF102991999999999999999999MA1101021999999REMMET051METAR SBLP 182000Z 21003KT 9999 FEW030 37/11 Q1010;
0120832880999992009091821004-13267-043417FM-15+0443SBLP V0201801N001512200019N0112651N1+03401+01201999999ADDGA1021+009001999GF102991999999999999999999MA1101021999999REMMET051METAR SBLP 182100Z 18003KT 9999 FEW030 34/12 Q1010;
0072832880999992009091909104-13267-043417FM-16+0443SBLP V0209999C000019999999Y0099001N1+02301+01901999999ADDMA1101491999999REMMET045SPECI SBLP 190910Z 00000KT CAVOK 23/19 Q1015;
0072832880999992009091912004-13267-043417FM-15+0443SBLP V0209999C000019999999Y0099001N1+03001+01601999999ADDMA1101691999999REMMET045METAR SBLP 191200Z 00000KT CAVOK 30/16 Q1017;
0072832880999992009091913004-13267-043417FM-15+0443SBLP V0209999C000019999999Y0099001N1+03201+01501999999ADDMA1101691999999REMMET045METAR SBLP 191300Z 00000KT CAVOK 32/15 Q1017;
0072832880999992009091914004-13267-043417FM-15+0443SBLP V0209999C000019999999Y0099001N1+03301+01501999999ADDMA1101591999999REMMET045METAR SBLP 191400Z 00000KT CAVOK 33/15 Q1016;
0120832880999992009091915004-13267-043417FM-15+0443SBLP V0200901N003112200019N0112651N1+03501+01401999999ADDGA1021+009001999GF102991999999999999999999MA1101491999999REMMET051METAR SBLP 191500Z 09006KT 9999 FEW030 35/14 Q1015;
0120832880999992009091916004-13267-043417FM-15+0443SBLP V0202501N001512200019N0112651N1+03501+01401999999ADDGA1021+009001999GF102991999999999999999999MA1101291999999REMMET051METAR SBLP 191600Z 25003KT 9999 FEW030 35/14 Q1013;
0120832880999992009091917004-13267-043417FM-15+0443SBLP V0202401N001512200019N0112651N1+03801+01201999999ADDGA1021+009001999GF102991999999999999999999MA1101191999999REMMET051METAR SBLP 191700Z 24003KT 9999 FEW030 38/12 Q1012;
0120832880999992009091918004-13267-043417FM-15+0443SBLP V0202501N002112200019N0112651N1+03801+01201999999ADDGA1021+009001999GF102991999999999999999999MA1101081999999REMMET051METAR SBLP 191800Z 25004KT 9999 FEW030 38/12 Q1011;
0120832880999992009091919004-13267-043417FM-15+0443SBLP V0202701N002612200019N0112651N1+03801+01201999999ADDGA1021+009001999GF102991999999999999999999MA1101021999999REMMET051METAR SBLP 191900Z 27005KT 9999 FEW030 38/12 Q1010;
0120832880999992009091920004-13267-043417FM-15+0443SBLP V0202301N002612200019N0112651N1+03701+01201999999ADDGA1021+009001999GF102991999999999999999999MA1101021999999REMMET051METAR SBLP 192000Z 23005KT 9999 FEW030 37/12 Q1010;
0120832880999992009091921004-13267-043417FM-15+0443SBLP V0209999C000012200019N0112651N1+03501+01201999999ADDGA1021+009001999GF102991999999999999999999MA1101021999999REMMET051METAR SBLP 192100Z 00000KT 9999 FEW030 35/12 Q1010;
0072832880999992009092010004-13267-043417FM-15+0443SBLP V0209999C000019999999Y0099001N1+02501+02001999999ADDMA1101491999999REMMET045METAR SBLP 201000Z 00000KT CAVOK 25/20 Q1015;
0072832880999992009092011004-13267-043417FM-15+0443SBLP V0200201N001519999999Y0099001N1+02901+01501999999ADDMA1101591999999REMMET045METAR SBLP 201100Z 02003KT CAVOK 29/15 Q1016;
0072832880999992009092012004-13267-043417FM-15+0443SBLP V0203601N002119999999Y0099001N1+03201+01701999999ADDMA1101591999999REMMET045METAR SBLP 201200Z 36004KT CAVOK 32/17 Q1016;
0072832880999992009092013004-13267-043417FM-15+0443SBLP V0203301N001519999999Y0099001N1+03401+01401999999ADDMA1101591999999REMMET045METAR SBLP 201300Z 33003KT CAVOK 34/14 Q1016;
0120832880999992009092014004-13267-043417FM-15+0443SBLP V0202901N002612200019N0112651N1+03601+01301999999ADDGA1021+009001999GF102991999999999999999999MA1101491999999REMMET051METAR SBLP 201400Z 29005KT 9999 FEW030 36/13 Q1015;
0120832880999992009092015004-13267-043417FM-15+0443SBLP V0203101N001512200019N0112651N1+03601+01301999999ADDGA1021+009001999GF102991999999999999999999MA1101391999999REMMET051METAR SBLP 201500Z 31003KT 9999 FEW030 36/13 Q1014;
0120832880999992009092016004-13267-043417FM-15+0443SBLP V0203601N003112200019N0112651N1+03801+01201999999ADDGA1021+009001999GF102991999999999999999999MA1101191999999REMMET051METAR SBLP 201600Z 36006KT 9999 FEW030 38/12 Q1012;
0120832880999992009092017004-13267-043417FM-15+0443SBLP V0202601N002112200019N0112651N1+03801+01201999999ADDGA1021+009001999GF102991999999999999999999MA1101081999999REMMET051METAR SBLP 201700Z 26004KT 9999 FEW030 38/12 Q1011;
0120832880999992009092018004-13267-043417FM-15+0443SBLP V0209999C000012200019N0112651N1+03801+01201999999ADDGA1021+009001999GF102991999999999999999999MA1101021999999REMMET051METAR SBLP 201800Z 00000KT 9999 FEW030 38/12 Q1010;
0120832880999992009092019004-13267-043417FM-15+0443SBLP V0209999C000012200019N0112651N1+03901+01201999999ADDGA1021+009001999GF102991999999999999999999MA1101021999999REMMET051METAR SBLP 201900Z 00000KT 9999 FEW030 39/12 Q1010;
0120832880999992009092020004-13267-043417FM-15+0443SBLP V0202401N002112200019N0112651N1+03701+01201999999ADDGA1021+009001999GF102991999999999999999999MA1101021999999REMMET051METAR SBLP 202000Z 24004KT 9999 FEW030 37/12 Q1010;
0072832880999992009092021004-13267-043417FM-15+0443SBLP V0209999C000019999999Y0099001N1+03501+01401999999ADDMA1101021999999REMMET045METAR SBLP 202100Z 00000KT CAVOK 35/14 Q1010;
0143832880999992009092114004-13267-043417FM-15+0443SBLP V0202501N002112200019N0112651N1+03501+01301999999ADDGA1021+009001999GA2041+030001999GF104991999999999999999999MA1101391999999REMMET058METAR SBLP 211400Z 25004KT 9999 FEW030 SCT100 35/13 Q1014;
0143832880999992009092115004-13267-043417FM-15+0443SBLP V0202401N001512200019N0112651N1+03601+01201999999ADDGA1021+009001999GA2041+030001999GF104991999999999999999999MA1101291999999REMMET058METAR SBLP 211500Z 24003KT 9999 FEW030 SCT100 36/12 Q1013;
0143832880999992009092116004-13267-043417FM-15+0443SBLP V0202701N002112200019N0112651N1+03701+01101999999ADDGA1021+009001999GA2041+030001999GF104991999999999999999999MA1101081999999REMMET058METAR SBLP 211600Z 27004KT 9999 FEW030 SCT100 37/11 Q1011;
0143832880999992009092117004-13267-043417FM-15+0443SBLP V0209999C000012200019N0112651N1+03801+01101999999ADDGA1021+009001999GA2041+030001999GF104991999999999999999999MA1101021999999REMMET058METAR SBLP 211700Z 00000KT 9999 FEW030 SCT100 38/11 Q1010;
0143832880999992009092118004-13267-043417FM-15+0443SBLP V0202101N003112200019N0112651N1+03701+01201999999ADDGA1021+009001999GA2041+030001999GF104991999999999999999999MA1100911999999REMMET058METAR SBLP 211800Z 21006KT 9999 FEW030 SCT100 37/12 Q1009;
0143832880999992009092119004-13267-043417FM-15+0443SBLP V0209999C000012200019N0112651N1+03801+01101999999ADDGA1021+009001999GA2041+030001999GF104991999999999999999999MA1100811999999REMMET058METAR SBLP 211900Z 00000KT 9999 FEW030 SCT100 38/11 Q1008;
0143832880999992009092120004-13267-043417FM-15+0443SBLP V0209999C000012200019N0112651N1+03701+01201999999ADDGA1021+009001999GA2041+030001999GF104991999999999999999999MA1100811999999REMMET058METAR SBLP 212000Z 00000KT 9999 FEW030 SCT100 37/12 Q1008;
0143832880999992009092121004-13267-043417FM-15+0443SBLP V0209999C000012200019N0112651N1+03501+01401999999ADDGA1021+009001999GA2041+030001999GF104991999999999999999999MA1100811999999REMMET058METAR SBLP 212100Z 00000KT 9999 FEW030 SCT100 35/14 Q1008;
0072832880999992009092210004-13267-043417FM-15+0443SBLP V0209999C000019999999Y0099001N1+02701+01601999999ADDMA1101291999999REMMET045METAR SBLP 221000Z 00000KT CAVOK 27/16 Q1013;
0072832880999992009092211004-13267-043417FM-15+0443SBLP V0200901N003119999999Y0099001N1+03001+01501999999ADDMA1101391999999REMMET045METAR SBLP 221100Z 09006KT CAVOK 30/15 Q1014;
0120832880999992009092212004-13267-043417FM-15+0443SBLP V0200901N003112200019N0112651N1+03501+01401999999ADDGA1021+009001999GF102991999999999999999999MA1101391999999REMMET051METAR SBLP 221200Z 09006KT 9999 FEW030 35/14 Q1014;
0120832880999992009092213004-13267-043417FM-15+0443SBLP V0209999C000012200019N0112651N1+03501+01401999999ADDGA1021+009001999GF102991999999999999999999MA1101391999999REMMET051METAR SBLP 221300Z 00000KT 9999 FEW030 35/14 Q1014;
0120832880999992009092214004-13267-043417FM-15+0443SBLP V0209999C000012200019N0112651N1+03601+01401999999ADDGA1021+009001999GF102991999999999999999999MA1101291999999REMMET051METAR SBLP 221400Z 00000KT 9999 FEW030 36/14 Q1013;
0143832880999992009092215004-13267-043417FM-15+0443SBLP V0202401N003112200019N0112651N1+03701+01301999999ADDGA1041+009001999GA2041+030001999GF104991999999999999999999MA1101191999999REMMET058METAR SBLP 221500Z 24006KT 9999 SCT030 SCT100 37/13 Q1012;
0120832880999992009092216004-13267-043417FM-15+0443SBLP V0201801N003112200019N0112651N1+03701+01401999999ADDGA1041+009001999GF104991999999999999999999MA1101081999999REMMET051METAR SBLP 221600Z 18006KT 9999 SCT030 37/14 Q1011;
0120832880999992009092217004-13267-043417FM-15+0443SBLP V0201801N003112200019N0112651N1+03701+01401999999ADDGA1041+009001999GF104991999999999999999999MA1101021999999REMMET051METAR SBLP 221700Z 18006KT 9999 SCT030 37/14 Q1010;
0120832880999992009092218004-13267-043417FM-15+0443SBLP V0201801N003112200019N0112651N1+03801+01401999999ADDGA1041+009001999GF104991999999999999999999MA1100911999999REMMET051METAR SBLP 221800Z 18006KT 9999 SCT030 38/14 Q1009;
0120832880999992009092219004-13267-043417FM-15+0443SBLP V0201801N003112200019N0112651N1+03701+01401999999ADDGA1041+009001999GF104991999999999999999999MA1100811999999REMMET051METAR SBLP 221900Z 18006KT 9999 SCT030 37/14 Q1008;
0120832880999992009092220004-13267-043417FM-15+0443SBLP V0201801N003112200019N0112651N1+03601+01401999999ADDGA1041+009001999GF104991999999999999999999MA1100811999999REMMET051METAR SBLP 222000Z 18006KT 9999 SCT030 36/14 Q1008;
0120832880999992009092221004-13267-043417FM-15+0443SBLP V0201801N003112200019N0112651N1+03301+01601999999ADDGA1041+009001999GF104991999999999999999999MA1100911999999REMMET051METAR SBLP 222100Z 18006KT 9999 SCT030 33/16 Q1009;
0072832880999992009092310004-13267-043417FM-15+0443SBLP V0200801N001519999999Y0099001N1+02701+01901999999ADDMA1101391999999REMMET045METAR SBLP 231000Z 08003KT CAVOK 27/19 Q1014;
0072832880999992009092311004-13267-043417FM-15+0443SBLP V0200201N001519999999Y0099001N1+03001+01901999999ADDMA1101491999999REMMET045METAR SBLP 231100Z 02003KT CAVOK 30/19 Q1015;
0072832880999992009092312004-13267-043417FM-15+0443SBLP V0202601N002119999999Y0099001N1+03101+01501999999ADDMA1101491999999REMMET045METAR SBLP 231200Z 26004KT CAVOK 31/15 Q1015;
0143832880999992009092313004-13267-043417FM-15+0443SBLP V0202401N001512200019N0112651N1+03301+01601999999ADDGA1021+009001999GA2041+030001999GF104991999999999999999999MA1101491999999REMMET058METAR SBLP 231300Z 24003KT 9999 FEW030 SCT100 33/16 Q1015;
0143832880999992009092314004-13267-043417FM-15+0443SBLP V0202101N001510300019N0112651N1+03301+01701999999ADDGA1021+009001999GA2071+030001999GF107991999999999999999999MA1101391999999REMMET058METAR SBLP 231400Z 21003KT 9999 FEW030 BKN100 33/17 Q1014;
0143832880999992009092315004-13267-043417FM-15+0443SBLP V0203601N001012200019N0112651N1+03601+01501999999ADDGA1021+009001999GA2041+030001999GF104991999999999999999999MA1101291999999REMMET058METAR SBLP 231500Z 36002KT 9999 FEW030 SCT100 36/15 Q1013;
0143832880999992009092316004-13267-043417FM-15+0443SBLP V0203601N003112200019N0112651N1+03601+01501999999ADDGA1041+009001999GA2041+030001999GF104991999999999999999999MA1101191999999REMMET058METAR SBLP 231600Z 36006KT 9999 SCT030 SCT100 36/15 Q1012;
0120832880999992009092317004-13267-043417FM-15+0443SBLP V0203601N003112200019N0112651N1+03601+01501999999ADDGA1041+009001999GF104991999999999999999999MA1101081999999REMMET051METAR SBLP 231700Z 36006KT 9999 SCT030 36/15 Q1011;
0120832880999992009092318004-13267-043417FM-15+0443SBLP V0201801N003112200019N0112651N1+03701+01501999999ADDGA1041+009001999GF104991999999999999999999MA1101021999999REMMET051METAR SBLP 231800Z 18006KT 9999 SCT030 37/15 Q1010;
0120832880999992009092319004-13267-043417FM-15+0443SBLP V0201801N003112200019N0112651N1+03701+01501999999ADDGA1041+009001999GF104991999999999999999999MA1100911999999REMMET051METAR SBLP 231900Z 18006KT 9999 SCT030 37/15 Q1009;
0120832880999992009092320004-13267-043417FM-15+0443SBLP V0201801N003112200019N0112651N1+03601+01601999999ADDGA1041+009001999GF104991999999999999999999MA1100911999999REMMET051METAR SBLP 232000Z 18006KT 9999 SCT030 36/16 Q1009;
0120832880999992009092321004-13267-043417FM-15+0443SBLP V0201801N003112200019N0112651N1+03201+01701999999ADDGA1041+009001999GF104991999999999999999999MA1101081999999REMMET051METAR SBLP 232100Z 18006KT 9999 SCT030 32/17 Q1011;
0120832880999992009092410004-13267-043417FM-15+0443SBLP V0201801N003112200019N0112651N1+02601+02001999999ADDGA1041+009001999GF104991999999999999999999MA1101491999999REMMET051METAR SBLP 241000Z 18006KT 9999 SCT030 26/20 Q1015;
0143832880999992009092411004-13267-043417FM-15+0443SBLP V0201801N003112200019N0112651N1+02701+02001999999ADDGA1021+009001999GA2041+030001999GF104991999999999999999999MA1101591999999REMMET058METAR SBLP 241100Z 18006KT 9999 FEW030 SCT100 27/20 Q1016;
0143832880999992009092412004-13267-043417FM-15+0443SBLP V0201001N003112200019N0112651N1+02801+02001999999ADDGA1021+009001999GA2041+030001999GF104991999999999999999999MA1101591999999REMMET058METAR SBLP 241200Z 10006KT 9999 FEW030 SCT100 28/20 Q1016;
0143832880999992009092413004-13267-043417FM-15+0443SBLP V0201801N003112200019N0112651N1+02901+01901999999ADDGA1021+009001999GA2041+030001999GF104991999999999999999999MA1101591999999REMMET058METAR SBLP 241300Z 18006KT 9999 FEW030 SCT100 29/19 Q1016;
0143832880999992009092414004-13267-043417FM-15+0443SBLP V0201801N003112200019N0112651N1+03101+01901999999ADDGA1021+009001999GA2041+030001999GF104991999999999999999999MA1101491999999REMMET058METAR SBLP 241400Z 18006KT 9999 FEW030 SCT100 31/19 Q1015;
0120832880999992009092415004-13267-043417FM-15+0443SBLP V0201801N003112200019N0112651N1+03201+01801999999ADDGA1021+009001999GF102991999999999999999999MA1101391999999REMMET051METAR SBLP 241500Z 18006KT 9999 FEW030 32/18 Q1014;
0143832880999992009092416004-13267-043417FM-15+0443SBLP V0202101N004112200019N0112651N1+03401+01801999999ADDGA1021+009001999GA2041+030001999GF104991999999999999999999MA1101291999999REMMET058METAR SBLP 241600Z 21008KT 9999 FEW030 SCT100 34/18 Q1013;
0143832880999992009092417004-13267-043417FM-15+0443SBLP V0202701N003112200019N0112651N1+03301+01801999999ADDGA1021+009001999GA2041+030001999GF104991999999999999999999MA1101191999999REMMET058METAR SBLP 241700Z 27006KT 9999 FEW030 SCT100 33/18 Q1012;
0143832880999992009092418004-13267-043417FM-15+0443SBLP V0202701N003112200019N0112651N1+03501+01701999999ADDGA1021+009001999GA2041+030001999GF104991999999999999999999MA1101081999999REMMET058METAR SBLP 241800Z 27006KT 9999 FEW030 SCT100 35/17 Q1011;
0143832880999992009092419004-13267-043417FM-15+0443SBLP V0202101N003112200019N0112651N1+03301+01801999999ADDGA1021+009001999GA2041+030001999GF104991999999999999999999MA1101081999999REMMET058METAR SBLP 241900Z 21006KT 9999 FEW030 SCT100 33/18 Q1011;
0143832880999992009092420004-13267-043417FM-15+0443SBLP V0209999C000012200019N0112651N1+03401+01701999999ADDGA1021+009001999GA2041+030001999GF104991999999999999999999MA1101081999999REMMET058METAR SBLP 242000Z 00000KT 9999 FEW030 SCT100 34/17 Q1011;
0143832880999992009092421004-13267-043417FM-15+0443SBLP V0209999C000012200019N0112651N1+03201+01701999999ADDGA1021+009001999GA2041+030001999GF104991999999999999999999MA1101081999999REMMET058METAR SBLP 242100Z 00000KT 9999 FEW030 SCT100 32/17 Q1011;
0072832880999992009092510004-13267-043417FM-15+0443SBLP V0209999C000019999999Y0099001N1+02601+02001999999ADDMA1101391999999REMMET045METAR SBLP 251000Z 00000KT CAVOK 26/20 Q1014;
0143832880999992009092511004-13267-043417FM-15+0443SBLP V0209999C000012200019N0112651N1+02701+02001999999ADDGA1021+009001999GA2041+030001999GF104991999999999999999999MA1101491999999REMMET058METAR SBLP 251100Z 00000KT 9999 FEW030 SCT100 27/20 Q1015;
0143832880999992009092512004-13267-043417FM-15+0443SBLP V0209999C000010300019N0112651N1+02901+01901999999ADDGA1021+009001999GA2071+030001999GF107991999999999999999999MA1101491999999REMMET058METAR SBLP 251200Z 00000KT 9999 FEW030 BKN100 29/19 Q1015;
0143832880999992009092513004-13267-043417FM-15+0443SBLP V0209999C000010300019N0112651N1+03201+01901999999ADDGA1021+009001999GA2071+030001999GF107991999999999999999999MA1101491999999REMMET058METAR SBLP 251300Z 00000KT 9999 FEW030 BKN100 32/19 Q1015;
0143832880999992009092514004-13267-043417FM-15+0443SBLP V0209999C000010300019N0112651N1+03501+01701999999ADDGA1021+009001999GA2071+030001999GF107991999999999999999999MA1101391999999REMMET058METAR SBLP 251400Z 00000KT 9999 FEW030 BKN100 35/17 Q1014;
0120832880999992009092515004-13267-043417FM-15+0443SBLP V0202701N003112200019N0112651N1+03601+01701999999ADDGA1041+009001999GF104991999999999999999999MA1101291999999REMMET051METAR SBLP 251500Z 27006KT 9999 SCT030 36/17 Q1013;
0143832880999992009092516004-13267-043417FM-15+0443SBLP V0202101N002112200019N0112651N1+03601+01701999999ADDGA1041+009001999GA2041+030001999GF104991999999999999999999MA1101081999999REMMET058METAR SBLP 251600Z 21004KT 9999 SCT030 SCT100 36/17 Q1011;
0136832880999992009092517004-13267-043417FM-15+0443SBLP V0202101N00511009001CN0112651N1+03601+01801999999ADDGA1071+009001999GA2041+030001999MA1101081999999REMMET058METAR SBLP 251700Z 21010KT 9999 BKN030 SCT100 36/18 Q1011;EQDQ01+000042SCOTCV
0143832880999992009092518004-13267-043417FM-15+0443SBLP V0201501N005112200019N0112651N1+03201+02001999999ADDGA1041+009001999GA2041+030001999GF104991999999999999999999MA1101081999999REMMET058METAR SBLP 251800Z 15010KT 9999 SCT030 SCT100 32/20 Q1011;
0143832880999992009092519004-13267-043417FM-15+0443SBLP V0201301N004110300019N0112651N1+03301+01801999999ADDGA1021+009001999GA2071+030001999GF107991999999999999999999MA1101081999999REMMET058METAR SBLP 251900Z 13008KT 9999 FEW030 BKN100 33/18 Q1011;
0143832880999992009092520004-13267-043417FM-15+0443SBLP V0201201N002110300019N0112651N1+03101+01901999999ADDGA1021+009001999GA2071+030001999GF107991999999999999999999MA1101081999999REMMET058METAR SBLP 252000Z 12004KT 9999 FEW030 BKN100 31/19 Q1011;
0143832880999992009092521004-13267-043417FM-15+0443SBLP V0201501N002110300019N0112651N1+03001+01801999999ADDGA1021+009001999GA2071+030001999GF107991999999999999999999MA1101081999999REMMET058METAR SBLP 252100Z 15004KT 9999 FEW030 BKN100 30/18 Q1011;
0143832880999992009092610004-13267-043417FM-15+0443SBLP V0201201N001510300019N0112651N1+02501+02001999999ADDGA1021+006901999GA2071+030001999GF107991999999999999999999MA1101691999999REMMET058METAR SBLP 261000Z 12003KT 9999 FEW023 BKN100 25/20 Q1017;
0143832880999992009092611004-13267-043417FM-15+0443SBLP V0209999C000010300019N0112651N1+02501+02001999999ADDGA1021+006901999GA2071+030001999GF107991999999999999999999MA1101691999999REMMET058METAR SBLP 261100Z 00000KT 9999 FEW023 BKN100 25/20 Q1017;
0072832880999992009092612004-13267-043417FM-15+0443SBLP V0201501N003119999999Y0099001N1+02901+01901999999ADDMA1101801999999REMMET045METAR SBLP 261200Z 15006KT CAVOK 29/19 Q1018;
0072832880999992009092613004-13267-043417FM-15+0443SBLP V0201801N003119999999Y0099001N1+03001+01901999999ADDMA1101691999999REMMET045METAR SBLP 261300Z 18006KT CAVOK 30/19 Q1017;
0072832880999992009092614004-13267-043417FM-15+0443SBLP V0201501N003119999999Y0099001N1+03101+01701999999ADDMA1101691999999REMMET045METAR SBLP 261400Z 15006KT CAVOK 31/17 Q1017;
0072832880999992009092615004-13267-043417FM-15+0443SBLP V0201201N001519999999Y0099001N1+03201+01601999999ADDMA1101491999999REMMET045METAR SBLP 261500Z 12003KT CAVOK 32/16 Q1015;
0143832880999992009092616004-13267-043417FM-15+0443SBLP V0201801N003112200019N0112651N1+03501+01601999999ADDGA1021+009001999GA2041+030001999GF104991999999999999999999MA1101291999999REMMET058METAR SBLP 261600Z 18006KT 9999 FEW030 SCT100 35/16 Q1013;
0143832880999992009092617004-13267-043417FM-15+0443SBLP V0201801N003112200019N0112651N1+03501+01601999999ADDGA1021+009001999GA2041+030001999GF104991999999999999999999MA1101291999999REMMET058METAR SBLP 261700Z 18006KT 9999 FEW030 SCT100 35/16 Q1013;
0143832880999992009092618004-13267-043417FM-15+0443SBLP V0202101N003112200019N0112651N1+03501+01701999999ADDGA1021+009001999GA2041+030001999GF104991999999999999999999MA1101191999999REMMET058METAR SBLP 261800Z 21006KT 9999 FEW030 SCT100 35/17 Q1012;
0143832880999992009092619004-13267-043417FM-15+0443SBLP V0202101N003110300019N0112651N1+03401+01801999999ADDGA1021+009001999GA2071+030001999GF107991999999999999999999MA1101191999999REMMET058METAR SBLP 261900Z 21006KT 9999 FEW030 BKN100 34/18 Q1012;
0143832880999992009092620004-13267-043417FM-15+0443SBLP V0201801N003112200019N0112651N1+03201+02001999999ADDGA1021+009001999GA2041+030001999GF104991999999999999999999MA1101191999999REMMET058METAR SBLP 262000Z 18006KT 9999 FEW030 SCT100 32/20 Q1012;
0072832880999992009092621004-13267-043417FM-15+0443SBLP V0201801N003119999999Y0099001N1+03001+02001999999ADDMA1101191999999REMMET045METAR SBLP 262100Z 18006KT CAVOK 30/20 Q1012;
0120832880999992009092713004-13267-043417FM-15+0443SBLP V0209999C000012200019N0112651N1+03001+01901999999ADDGA1041+009001999GF104991999999999999999999MA1101801999999REMMET051METAR SBLP 271300Z 00000KT 9999 SCT030 30/19 Q1018;
0120832880999992009092714004-13267-043417FM-15+0443SBLP V0201201N003112200019N0112651N1+03301+01801999999ADDGA1041+009001999GF104991999999999999999999MA1101691999999REMMET051METAR SBLP 271400Z 12006KT 9999 SCT030 33/18 Q1017;
0120832880999992009092715004-13267-043417FM-15+0443SBLP V0200401N003112200019N0112651N1+03501+01701999999ADDGA1041+009001999GF104991999999999999999999MA1101591999999REMMET051METAR SBLP 271500Z 04006KT 9999 SCT030 35/17 Q1016;
0120832880999992009092716004-13267-043417FM-15+0443SBLP V0203601N003112200019N0112651N1+03601+01701999999ADDGA1041+009001999GF104991999999999999999999MA1101391999999REMMET051METAR SBLP 271600Z 36006KT 9999 SCT030 36/17 Q1014;
0120832880999992009092717004-13267-043417FM-15+0443SBLP V0203601N003112200019N0112651N1+03701+01601999999ADDGA1041+009001999GF104991999999999999999999MA1101291999999REMMET051METAR SBLP 271700Z 36006KT 9999 SCT030 37/16 Q1013;
0120832880999992009092718004-13267-043417FM-15+0443SBLP V0203601N003112200019N0112651N1+03801+01501999999ADDGA1041+009001999GF104991999999999999999999MA1101191999999REMMET051METAR SBLP 271800Z 36006KT 9999 SCT030 38/15 Q1012;
0120832880999992009092719004-13267-043417FM-15+0443SBLP V0209999C000012200019N0112651N1+03701+01501999999ADDGA1021+009001999GF102991999999999999999999MA1101191999999REMMET051METAR SBLP 271900Z 00000KT 9999 FEW030 37/15 Q1012;
0120832880999992009092720004-13267-043417FM-15+0443SBLP V0209999C000012200019N0112651N1+03601+01601999999ADDGA1021+009001999GF102991999999999999999999MA1101191999999REMMET051METAR SBLP 272000Z 00000KT 9999 FEW030 36/16 Q1012;
0072832880999992009092721004-13267-043417FM-15+0443SBLP V0209999C000019999999Y0099001N1+03401+01701999999ADDMA1101291999999REMMET045METAR SBLP 272100Z 00000KT CAVOK 34/17 Q1013;
0072832880999992009092810004-13267-043417FM-15+0443SBLP V0209999C000019999999Y0099001N1+02501+01801999999ADDMA1101691999999REMMET045METAR SBLP 281000Z 00000KT CAVOK 25/18 Q1017;
0072832880999992009092811004-13267-043417FM-15+0443SBLP V0209999C000019999999Y0099001N1+02801+01601999999ADDMA1101901999999REMMET045METAR SBLP 281100Z 00000KT CAVOK 28/16 Q1019;
0072832880999992009092812004-13267-043417FM-15+0443SBLP V0209999C000019999999Y0099001N1+03001+01501999999ADDMA1101901999999REMMET045METAR SBLP 281200Z 00000KT CAVOK 30/15 Q1019;
0072832880999992009092813004-13267-043417FM-15+0443SBLP V0209999C000019999999Y0099001N1+03201+01401999999ADDMA1101901999999REMMET045METAR SBLP 281300Z 00000KT CAVOK 32/14 Q1019;
0072832880999992009092814004-13267-043417FM-15+0443SBLP V0200901N003119999999Y0099001N1+03401+01301999999ADDMA1101691999999REMMET045METAR SBLP 281400Z 09006KT CAVOK 34/13 Q1017;
0072832880999992009092815004-13267-043417FM-15+0443SBLP V0203601N003119999999Y0099001N1+03501+01301999999ADDMA1101591999999REMMET045METAR SBLP 281500Z 36006KT CAVOK 35/13 Q1016;
0072832880999992009092816004-13267-043417FM-15+0443SBLP V0200501N003119999999Y0099001N1+03801+01001999999ADDMA1101491999999REMMET045METAR SBLP 281600Z 05006KT CAVOK 38/10 Q1015;
0072832880999992009092817004-13267-043417FM-15+0443SBLP V0200601N002119999999Y0099001N1+03801+00801999999ADDMA1101391999999REMMET045METAR SBLP 281700Z 06004KT CAVOK 38/08 Q1014;
0072832880999992009092818004-13267-043417FM-15+0443SBLP V0203601N002119999999Y0099001N1+03901+00601999999ADDMA1101291999999REMMET045METAR SBLP 281800Z 36004KT CAVOK 39/06 Q1013;
0072832880999992009092819004-13267-043417FM-15+0443SBLP V0200601N001519999999Y0099001N1+03801+00601999999ADDMA1101291999999REMMET045METAR SBLP 281900Z 06003KT CAVOK 38/06 Q1013;
0072832880999992009092820004-13267-043417FM-15+0443SBLP V0201101N002619999999Y0099001N1+03801+00601999999ADDMA1101291999999REMMET045METAR SBLP 282000Z 11005KT CAVOK 38/06 Q1013;
0072832880999992009092821004-13267-043417FM-15+0443SBLP V0209999C000019999999Y0099001N1+03501+00601999999ADDMA1101291999999REMMET045METAR SBLP 282100Z 00000KT CAVOK 35/06 Q1013;
0072832880999992009092910004-13267-043417FM-15+0443SBLP V0209999C000019999999Y0099001N1+02201+01301999999ADDMA1101591999999REMMET045METAR SBLP 291000Z 00000KT CAVOK 22/13 Q1016;
0072832880999992009092911004-13267-043417FM-15+0443SBLP V0209999C000019999999Y0099001N1+02901+01201999999ADDMA1101691999999REMMET045METAR SBLP 291100Z 00000KT CAVOK 29/12 Q1017;
0072832880999992009092912004-13267-043417FM-15+0443SBLP V0209999C000019999999Y0099001N1+03101+01301999999ADDMA1101691999999REMMET045METAR SBLP 291200Z 00000KT CAVOK 31/13 Q1017;
0072832880999992009092913004-13267-043417FM-15+0443SBLP V0209999C000019999999Y0099001N1+03401+01201999999ADDMA1101691999999REMMET045METAR SBLP 291300Z 00000KT CAVOK 34/12 Q1017;
0072832880999992009092914004-13267-043417FM-15+0443SBLP V0203001N003119999999Y0099001N1+03601+01501999999ADDMA1101591999999REMMET045METAR SBLP 291400Z 30006KT CAVOK 36/15 Q1016;
0120832880999992009092915004-13267-043417FM-15+0443SBLP V0202401N001512200019N0112651N1+03701+01101999999ADDGA1021+009001999GF102991999999999999999999MA1101491999999REMMET051METAR SBLP 291500Z 24003KT 9999 FEW030 37/11 Q1015;
0120832880999992009092916004-13267-043417FM-15+0443SBLP V0202701N003112200019N0112651N1+03801+01101999999ADDGA1021+009001999GF102991999999999999999999MA1101291999999REMMET051METAR SBLP 291600Z 27006KT 9999 FEW030 38/11 Q1013;
0072832880999992009092917004-13267-043417FM-15+0443SBLP V0202701N003119999999Y0099001N1+03901+01101999999ADDMA1101191999999REMMET045METAR SBLP 291700Z 27006KT CAVOK 39/11 Q1012;
0072832880999992009092918004-13267-043417FM-15+0443SBLP V0202701N003119999999Y0099001N1+03901+01101999999ADDMA1101081999999REMMET045METAR SBLP 291800Z 27006KT CAVOK 39/11 Q1011;
0072832880999992009092919004-13267-043417FM-15+0443SBLP V0202701N003119999999Y0099001N1+03901+01101999999ADDMA1101081999999REMMET045METAR SBLP 291900Z 27006KT CAVOK 39/11 Q1011;
0072832880999992009092920004-13267-043417FM-15+0443SBLP V0201801N003119999999Y0099001N1+03701+01101999999ADDMA1101081999999REMMET045METAR SBLP 292000Z 18006KT CAVOK 37/11 Q1011;
0072832880999992009092921004-13267-043417FM-15+0443SBLP V0201801N003119999999Y0099001N1+03501+01201999999ADDMA1101191999999REMMET045METAR SBLP 292100Z 18006KT CAVOK 35/12 Q1012;
0072832880999992009093010004-13267-043417FM-15+0443SBLP V0209999C000019999999Y0099001N1+02701+01601999999ADDMA1101491999999REMMET045METAR SBLP 301000Z 00000KT CAVOK 27/16 Q1015;
0072832880999992009093011004-13267-043417FM-15+0443SBLP V0209999C000019999999Y0099001N1+03001+01401999999ADDMA1101591999999REMMET045METAR SBLP 301100Z 00000KT CAVOK 30/14 Q1016;
0072832880999992009093012004-13267-043417FM-15+0443SBLP V0209999C000019999999Y0099001N1+03201+01201999999ADDMA1101591999999REMMET045METAR SBLP 301200Z 00000KT CAVOK 32/12 Q1016;
0072832880999992009093013004-13267-043417FM-15+0443SBLP V0209999C000019999999Y0099001N1+03401+01101999999ADDMA1101591999999REMMET045METAR SBLP 301300Z 00000KT CAVOK 34/11 Q1016;
0072832880999992009093014004-13267-043417FM-15+0443SBLP V0209999C000019999999Y0099001N1+03601+01001999999ADDMA1101491999999REMMET045METAR SBLP 301400Z 00000KT CAVOK 36/10 Q1015;
0120832880999992009093021004-13267-043417FM-15+0443SBLP V0201601N001512200019N0112651N1+03701+00801999999ADDGA1041+009001999GF104991999999999999999999MA1101081999999REMMET051METAR SBLP 302100Z 16003KT 9999 SCT030 37/08 Q1011;
0072832880999992009100110004-13267-043417FM-15+0443SBLP V0209999C000019999999Y0099001N1+02501+01801999999ADDMA1101691999999REMMET045METAR SBLP 011000Z 00000KT CAVOK 25/18 Q1017;
0072832880999992009100111004-13267-043417FM-15+0443SBLP V0201501N002119999999Y0099001N1+02901+01901999999ADDMA1101801999999REMMET045METAR SBLP 011100Z 15004KT CAVOK 29/19 Q1018;
0120832880999992009100112004-13267-043417FM-15+0443SBLP V0209999C000012200019N0112651N1+03001+01901999999ADDGA1021+009001999GF102991999999999999999999MA1101801999999REMMET051METAR SBLP 011200Z 00000KT 9999 FEW030 30/19 Q1018;
0120832880999992009100113004-13267-043417FM-15+0443SBLP V0209999C000012200019N0112651N1+03201+01801999999ADDGA1021+009001999GF102991999999999999999999MA1101801999999REMMET051METAR SBLP 011300Z 00000KT 9999 FEW030 32/18 Q1018;
0072832880999992009100114004-13267-043417FM-15+0443SBLP V0209999C000019999999Y0099001N1+03401+01701999999ADDMA1101691999999REMMET045METAR SBLP 011400Z 00000KT CAVOK 34/17 Q1017;
0120832880999992009100115004-13267-043417FM-15+0443SBLP V0209999C000012200019N0112651N1+03401+01701999999ADDGA1021+009001999GF102991999999999999999999MA1101591999999REMMET051METAR SBLP 011500Z 00000KT 9999 FEW030 34/17 Q1016;
0120832880999992009100116004-13267-043417FM-15+0443SBLP V0201201N002612200019N0112651N1+03701+01501999999ADDGA1021+009001999GF102991999999999999999999MA1101391999999REMMET051METAR SBLP 011600Z 12005KT 9999 FEW030 37/15 Q1014;
0120832880999992009100117004-13267-043417FM-15+0443SBLP V0201301N002112200019N0112651N1+03801+01301999999ADDGA1021+009001999GF102991999999999999999999MA1101291999999REMMET051METAR SBLP 011700Z 13004KT 9999 FEW030 38/13 Q1013;
0120832880999992009100118004-13267-043417FM-15+0443SBLP V0201501N002612200019N0112651N1+03701+01501999999ADDGA1041+009001999GF104991999999999999999999MA1101191999999REMMET051METAR SBLP 011800Z 15005KT 9999 SCT030 37/15 Q1012;
0120832880999992009100119004-13267-043417FM-15+0443SBLP V0201801N003112200019N0112651N1+03701+01501999999ADDGA1041+009001999GF104991999999999999999999MA1101191999999REMMET051METAR SBLP 011900Z 18006KT 9999 SCT030 37/15 Q1012;
0120832880999992009100120004-13267-043417FM-15+0443SBLP V0201901N003112200019N0112651N1+03701+01401999999ADDGA1041+009001999GF104991999999999999999999MA1101191999999REMMET051METAR SBLP 012000Z 19006KT 9999 SCT030 37/14 Q1012;
0120832880999992009100121004-13267-043417FM-15+0443SBLP V0201501N003112200019N0112651N1+03501+01401999999ADDGA1021+009001999GF102991999999999999999999MA1101291999999REMMET051METAR SBLP 012100Z 15006KT 9999 FEW030 35/14 Q1013;
0072832880999992009100209134-13267-043417FM-16+0443SBLP V0209999C000019999999Y0099001N1+02301+01801999999ADDMA1101691999999REMMET045SPECI SBLP 020913Z 00000KT CAVOK 23/18 Q1017;
0072832880999992009100210004-13267-043417FM-15+0443SBLP V0201301N002119999999Y0099001N1+02501+01701999999ADDMA1101691999999REMMET045METAR SBLP 021000Z 13004KT CAVOK 25/17 Q1017;
0072832880999992009100211004-13267-043417FM-15+0443SBLP V0209999C000019999999Y0099001N1+02801+01601999999ADDMA1101801999999REMMET045METAR SBLP 021100Z 00000KT CAVOK 28/16 Q1018;
0072832880999992009100212004-13267-043417FM-15+0443SBLP V0209999C000019999999Y0099001N1+03001+01901999999ADDMA1101801999999REMMET045METAR SBLP 021200Z 00000KT CAVOK 30/19 Q1018;
0072832880999992009100213004-13267-043417FM-15+0443SBLP V0209999C000019999999Y0099001N1+03301+01801999999ADDMA1101691999999REMMET045METAR SBLP 021300Z 00000KT CAVOK 33/18 Q1017;
0120832880999992009100214004-13267-043417FM-15+0443SBLP V0209999C000012200019N0112651N1+03401+01701999999ADDGA1021+009001999GF102991999999999999999999MA1101591999999REMMET051METAR SBLP 021400Z 00000KT 9999 FEW030 34/17 Q1016;
0120832880999992009100215004-13267-043417FM-15+0443SBLP V0201201N003112200019N0112651N1+03501+01701999999ADDGA1021+009001999GF102991999999999999999999MA1101491999999REMMET051METAR SBLP 021500Z 12006KT 9999 FEW030 35/17 Q1015;
0120832880999992009100216004-13267-043417FM-15+0443SBLP V0201801N003112200019N0112651N1+03601+01601999999ADDGA1041+009001999GF104991999999999999999999MA1101291999999REMMET051METAR SBLP 021600Z 18006KT 9999 SCT030 36/16 Q1013;
0120832880999992009100217004-13267-043417FM-15+0443SBLP V0202701N003112200019N0112651N1+03701+01601999999ADDGA1041+009001999GF104991999999999999999999MA1101191999999REMMET051METAR SBLP 021700Z 27006KT 9999 SCT030 37/16 Q1012;
0120832880999992009100218004-13267-043417FM-15+0443SBLP V0202701N003112200019N0112651N1+03801+01601999999ADDGA1041+009001999GF104991999999999999999999MA1101081999999REMMET051METAR SBLP 021800Z 27006KT 9999 SCT030 38/16 Q1011;
0120832880999992009100219004-13267-043417FM-15+0443SBLP V0202701N003112200019N0112651N1+03701+01601999999ADDGA1041+009001999GF104991999999999999999999MA1101081999999REMMET051METAR SBLP 021900Z 27006KT 9999 SCT030 37/16 Q1011;
0120832880999992009100220004-13267-043417FM-15+0443SBLP V0203601N003112200019N0112651N1+03501+01601999999ADDGA1041+009001999GF104991999999999999999999MA1101081999999REMMET051METAR SBLP 022000Z 36006KT 9999 SCT030 35/16 Q1011;
0120832880999992009100221004-13267-043417FM-15+0443SBLP V0200901N003112200019N0112651N1+03401+01701999999ADDGA1041+009001999GF104991999999999999999999MA1101191999999REMMET051METAR SBLP 022100Z 09006KT 9999 SCT030 34/17 Q1012;
0072832880999992009100310004-13267-043417FM-15+0443SBLP V0209999C000019999999Y0099001N1+02601+01701999999ADDMA1101591999999REMMET045METAR SBLP 031000Z 00000KT CAVOK 26/17 Q1016;
0072832880999992009100311004-13267-043417FM-15+0443SBLP V0200901N003119999999Y0099001N1+02901+01501999999ADDMA1101691999999REMMET045METAR SBLP 031100Z 09006KT CAVOK 29/15 Q1017;
0072832880999992009100312004-13267-043417FM-15+0443SBLP V0200901N003119999999Y0099001N1+03201+01401999999ADDMA1101691999999REMMET045METAR SBLP 031200Z 09006KT CAVOK 32/14 Q1017;
0072832880999992009100313004-13267-043417FM-15+0443SBLP V0200901N003119999999Y0099001N1+03301+01401999999ADDMA1101691999999REMMET045METAR SBLP 031300Z 09006KT CAVOK 33/14 Q1017;
0072832880999992009100314004-13267-043417FM-15+0443SBLP V0200901N003119999999Y0099001N1+03401+01401999999ADDMA1101591999999REMMET045METAR SBLP 031400Z 09006KT CAVOK 34/14 Q1016;
0120832880999992009100315004-13267-043417FM-15+0443SBLP V0200901N003112200019N0112651N1+03501+01401999999ADDGA1021+009001999GF102991999999999999999999MA1101491999999REMMET051METAR SBLP 031500Z 09006KT 9999 FEW030 35/14 Q1015;
0120832880999992009100316004-13267-043417FM-15+0443SBLP V0202101N001512200019N0112651N1+03601+01501999999ADDGA1021+009001999GF102991999999999999999999MA1101291999999REMMET051METAR SBLP 031600Z 21003KT 9999 FEW030 36/15 Q1013;
0120832880999992009100317004-13267-043417FM-15+0443SBLP V0201201N003112200019N0112651N1+03901+01301999999ADDGA1021+009001999GF102991999999999999999999MA1101191999999REMMET051METAR SBLP 031700Z 12006KT 9999 FEW030 39/13 Q1012;
0120832880999992009100318004-13267-043417FM-15+0443SBLP V0202101N002112200019N0112651N1+03901+01301999999ADDGA1041+009001999GF104991999999999999999999MA1101081999999REMMET051METAR SBLP 031800Z 21004KT 9999 SCT030 39/13 Q1011;
0120832880999992009100319004-13267-043417FM-15+0443SBLP V0201601N001512200019N0112651N1+03801+01101999999ADDGA1041+009001999GF104991999999999999999999MA1101081999999REMMET051METAR SBLP 031900Z 16003KT 9999 SCT030 38/11 Q1011;
0120832880999992009100320004-13267-043417FM-15+0443SBLP V0201201N002112200019N0112651N1+03801+01301999999ADDGA1021+009001999GF102991999999999999999999MA1101081999999REMMET051METAR SBLP 032000Z 12004KT 9999 FEW030 38/13 Q1011;
0120832880999992009100321004-13267-043417FM-15+0443SBLP V0201201N002612200019N0112651N1+03701+01201999999ADDGA1021+009001999GF102991999999999999999999MA1101081999999REMMET051METAR SBLP 032100Z 12005KT 9999 FEW030 37/12 Q1011;
0072832880999992009100409064-13267-043417FM-16+0443SBLP V0209999C000019999999Y0099001N1+02401+01701999999ADDMA1101491999999REMMET045SPECI SBLP 040906Z 00000KT CAVOK 24/17 Q1015;
0072832880999992009100410004-13267-043417FM-15+0443SBLP V0201501N003119999999Y0099001N1+02601+01701999999ADDMA1101591999999REMMET045METAR SBLP 041000Z 15006KT CAVOK 26/17 Q1016;
0072832880999992009100411004-13267-043417FM-15+0443SBLP V0201501N002119999999Y0099001N1+02901+01701999999ADDMA1101591999999REMMET045METAR SBLP 041100Z 15004KT CAVOK 29/17 Q1016;
0072832880999992009100412004-13267-043417FM-15+0443SBLP V0201801N003119999999Y0099001N1+03001+01601999999ADDMA1101691999999REMMET045METAR SBLP 041200Z 18006KT CAVOK 30/16 Q1017;
0072832880999992009100413004-13267-043417FM-15+0443SBLP V0201201N002619999999Y0099001N1+03401+01601999999ADDMA1101591999999REMMET045METAR SBLP 041300Z 12005KT CAVOK 34/16 Q1016;
0072832880999992009100414004-13267-043417FM-15+0443SBLP V0200901N002619999999Y0099001N1+03401+01501999999ADDMA1101491999999REMMET045METAR SBLP 041400Z 09005KT CAVOK 34/15 Q1015;
0072832880999992009100415004-13267-043417FM-15+0443SBLP V0200201N001519999999Y0099001N1+03601+01301999999ADDMA1101391999999REMMET045METAR SBLP 041500Z 02003KT CAVOK 36/13 Q1014;
0072832880999992009100416004-13267-043417FM-15+0443SBLP V0201801N003119999999Y0099001N1+03701+01301999999ADDMA1101191999999REMMET045METAR SBLP 041600Z 18006KT CAVOK 37/13 Q1012;
0072832880999992009100417004-13267-043417FM-15+0443SBLP V0201801N003119999999Y0099001N1+03801+01301999999ADDMA1101081999999REMMET045METAR SBLP 041700Z 18006KT CAVOK 38/13 Q1011;
0072832880999992009100418004-13267-043417FM-15+0443SBLP V0200901N003119999999Y0099001N1+03901+01301999999ADDMA1101021999999REMMET045METAR SBLP 041800Z 09006KT CAVOK 39/13 Q1010;
0072832880999992009100419004-13267-043417FM-15+0443SBLP V0200901N003119999999Y0099001N1+03801+01301999999ADDMA1101021999999REMMET045METAR SBLP 041900Z 09006KT CAVOK 38/13 Q1010;
0072832880999992009100420004-13267-043417FM-15+0443SBLP V0201801N003119999999Y0099001N1+03701+01401999999ADDMA1101021999999REMMET045METAR SBLP 042000Z 18006KT CAVOK 37/14 Q1010;
0072832880999992009100421004-13267-043417FM-15+0443SBLP V0201801N003119999999Y0099001N1+03501+01501999999ADDMA1101021999999REMMET045METAR SBLP 042100Z 18006KT CAVOK 35/15 Q1010;
0072832880999992009100509094-13267-043417FM-16+0443SBLP V0201801N001519999999Y0099001N1+02201+01301999999ADDMA1101391999999REMMET045SPECI SBLP 050909Z 18003KT CAVOK 22/13 Q1014;
0072832880999992009100510004-13267-043417FM-15+0443SBLP V0201501N003119999999Y0099001N1+02401+01301999999ADDMA1101491999999REMMET045METAR SBLP 051000Z 15006KT CAVOK 24/13 Q1015;
0072832880999992009100511004-13267-043417FM-15+0443SBLP V0200901N001519999999Y0099001N1+02901+01501999999ADDMA1101591999999REMMET045METAR SBLP 051100Z 09003KT CAVOK 29/15 Q1016;
0072832880999992009100512004-13267-043417FM-15+0443SBLP V0200901N001519999999Y0099001N1+03001+01501999999ADDMA1101591999999REMMET045METAR SBLP 051200Z 09003KT CAVOK 30/15 Q1016;
0072832880999992009100513004-13267-043417FM-15+0443SBLP V0201601N002619999999Y0099001N1+03201+01501999999ADDMA1101591999999REMMET045METAR SBLP 051300Z 16005KT CAVOK 32/15 Q1016;
0072832880999992009100514004-13267-043417FM-15+0443SBLP V0201901N002619999999Y0099001N1+03301+01401999999ADDMA1101491999999REMMET045METAR SBLP 051400Z 19005KT CAVOK 33/14 Q1015;
0072832880999992009100515004-13267-043417FM-15+0443SBLP V0200601N001519999999Y0099001N1+03501+01301999999ADDMA1101291999999REMMET045METAR SBLP 051500Z 06003KT CAVOK 35/13 Q1013;
0120832880999992009100516004-13267-043417FM-15+0443SBLP V0203001N003112200019N0112651N1+03601+01301999999ADDGA1021+009001999GF102991999999999999999999MA1101191999999REMMET051METAR SBLP 051600Z 30006KT 9999 FEW030 36/13 Q1012;
0120832880999992009100517004-13267-043417FM-15+0443SBLP V0201301N003112200019N0112651N1+03701+01301999999ADDGA1021+009001999GF102991999999999999999999MA1101081999999REMMET051METAR SBLP 051700Z 13006KT 9999 FEW030 37/13 Q1011;
0120832880999992009100518004-13267-043417FM-15+0443SBLP V0201301N003112200019N0112651N1+03801+01301999999ADDGA1021+009001999GF102991999999999999999999MA1101021999999REMMET051METAR SBLP 051800Z 13006KT 9999 FEW030 38/13 Q1010;
0120832880999992009100519004-13267-043417FM-15+0443SBLP V0203101N003112200019N0112651N1+03801+01401999999ADDGA1021+009001999GF102991999999999999999999MA1101021999999REMMET051METAR SBLP 051900Z 31006KT 9999 FEW030 38/14 Q1010;
0120832880999992009100520004-13267-043417FM-15+0443SBLP V0202401N003112200019N0112651N1+03701+01401999999ADDGA1021+009001999GF102991999999999999999999MA1101021999999REMMET051METAR SBLP 052000Z 24006KT 9999 FEW030 37/14 Q1010;
0072832880999992009100521004-13267-043417FM-15+0443SBLP V0209999C000019999999Y0099001N1+03401+01601999999ADDMA1101081999999REMMET045METAR SBLP 052100Z 00000KT CAVOK 34/16 Q1011;
0072832880999992009100610004-13267-043417FM-15+0443SBLP V0202101N003119999999Y0099001N1+02501+01701999999ADDMA1101491999999REMMET045METAR SBLP 061000Z 21006KT CAVOK 25/17 Q1015;
0072832880999992009100611004-13267-043417FM-15+0443SBLP V0209999C000019999999Y0099001N1+02801+01901999999ADDMA1101591999999REMMET045METAR SBLP 061100Z 00000KT CAVOK 28/19 Q1016;
0072832880999992009100612004-13267-043417FM-15+0443SBLP V0209999C000019999999Y0099001N1+03001+01801999999ADDMA1101591999999REMMET045METAR SBLP 061200Z 00000KT CAVOK 30/18 Q1016;
0072832880999992009100613004-13267-043417FM-15+0443SBLP V0209999C000019999999Y0099001N1+03201+01701999999ADDMA1101591999999REMMET045METAR SBLP 061300Z 00000KT CAVOK 32/17 Q1016;
0120832880999992009100614004-13267-043417FM-15+0443SBLP V0202701N002112200019N0112651N1+03401+01601999999ADDGA1021+009001999GF102991999999999999999999MA1101491999999REMMET051METAR SBLP 061400Z 27004KT 9999 FEW030 34/16 Q1015;
0120832880999992009100615004-13267-043417FM-15+0443SBLP V0203001N003112200019N0112651N1+03601+01501999999ADDGA1021+009001999GF102991999999999999999999MA1101391999999REMMET051METAR SBLP 061500Z 30006KT 9999 FEW030 36/15 Q1014;
0120832880999992009100616004-13267-043417FM-15+0443SBLP V0202401N002612200019N0112651N1+03701+01301999999ADDGA1021+009001999GF102991999999999999999999MA1101291999999REMMET051METAR SBLP 061600Z 24005KT 9999 FEW030 37/13 Q1013;
0120832880999992009100617004-13267-043417FM-15+0443SBLP V0202401N002612200019N0112651N1+03801+01201999999ADDGA1021+009001999GF102991999999999999999999MA1101191999999REMMET051METAR SBLP 061700Z 24005KT 9999 FEW030 38/12 Q1012;
0120832880999992009100618004-13267-043417FM-15+0443SBLP V0202701N001512200019N0112651N1+03801+01101999999ADDGA1021+009001999GF102991999999999999999999MA1101081999999REMMET051METAR SBLP 061800Z 27003KT 9999 FEW030 38/11 Q1011;
0120832880999992009100619004-13267-043417FM-15+0443SBLP V0202701N002612200019N0112651N1+03801+01201999999ADDGA1021+009001999GF102991999999999999999999MA1101081999999REMMET051METAR SBLP 061900Z 27005KT 9999 FEW030 38/12 Q1011;
0120832880999992009100620004-13267-043417FM-15+0443SBLP V0202401N001512200019N0112651N1+03701+01201999999ADDGA1021+009001999GF102991999999999999999999MA1101081999999REMMET051METAR SBLP 062000Z 24003KT 9999 FEW030 37/12 Q1011;
0120832880999992009100621004-13267-043417FM-15+0443SBLP V0202101N001512200019N0112651N1+03501+01201999999ADDGA1021+009001999GF102991999999999999999999MA1101081999999REMMET051METAR SBLP 062100Z 21003KT 9999 FEW030 35/12 Q1011;
0072832880999992009100709104-13267-043417FM-16+0443SBLP V0209999C000019999999Y0099001N1+02401+01901999999ADDMA1101591999999REMMET045SPECI SBLP 070910Z 00000KT CAVOK 24/19 Q1016;
0072832880999992009100710004-13267-043417FM-15+0443SBLP V0209999C000019999999Y0099001N1+02601+01801999999ADDMA1101591999999REMMET045METAR SBLP 071000Z 00000KT CAVOK 26/18 Q1016;
0072832880999992009100711004-13267-043417FM-15+0443SBLP V0200901N003119999999Y0099001N1+02901+01701999999ADDMA1101591999999REMMET045METAR SBLP 071100Z 09006KT CAVOK 29/17 Q1016;
0072832880999992009100712004-13267-043417FM-15+0443SBLP V0200901N003119999999Y0099001N1+03201+01701999999ADDMA1101591999999REMMET045METAR SBLP 071200Z 09006KT CAVOK 32/17 Q1016;
0072832880999992009100713004-13267-043417FM-15+0443SBLP V0203601N003119999999Y0099001N1+03301+01701999999ADDMA1101591999999REMMET045METAR SBLP 071300Z 36006KT CAVOK 33/17 Q1016;
0120832880999992009100714004-13267-043417FM-15+0443SBLP V0203601N003112200019N0112651N1+03501+01601999999ADDGA1021+009001999GF102991999999999999999999MA1101491999999REMMET051METAR SBLP 071400Z 36006KT 9999 FEW030 35/16 Q1015;
0120832880999992009100715004-13267-043417FM-15+0443SBLP V0203601N003112200019N0112651N1+03601+01601999999ADDGA1021+009001999GF102991999999999999999999MA1101391999999REMMET051METAR SBLP 071500Z 36006KT 9999 FEW030 36/16 Q1014;
0120832880999992009100716004-13267-043417FM-15+0443SBLP V0203601N001512200019N0112651N1+03801+01501999999ADDGA1041+009001999GF104991999999999999999999MA1101291999999REMMET051METAR SBLP 071600Z 36003KT 9999 SCT030 38/15 Q1013;
0120832880999992009100717004-13267-043417FM-15+0443SBLP V0202401N003112200019N0112651N1+03801+01501999999ADDGA1041+009001999GF104991999999999999999999MA1101191999999REMMET051METAR SBLP 071700Z 24006KT 9999 SCT030 38/15 Q1012;
0120832880999992009100718004-13267-043417FM-15+0443SBLP V0201801N003112200019N0112651N1+03901+01301999999ADDGA1041+009001999GF104991999999999999999999MA1101081999999REMMET051METAR SBLP 071800Z 18006KT 9999 SCT030 39/13 Q1011;
0120832880999992009100720004-13267-043417FM-15+0443SBLP V0202101N003112200019N0112651N1+03701+01401999999ADDGA1021+009001999GF102991999999999999999999MA1101081999999REMMET051METAR SBLP 072000Z 21006KT 9999 FEW030 37/14 Q1011;
0120832880999992009100721004-13267-043417FM-15+0443SBLP V0200901N004112200019N0112651N1+03501+01501999999ADDGA1021+009001999GF102991999999999999999999MA1101081999999REMMET051METAR SBLP 072100Z 09008KT 9999 FEW030 35/15 Q1011;
0072832880999992009100810004-13267-043417FM-15+0443SBLP V0209999C000019999999Y0099001N1+02801+01701999999ADDMA1101491999999REMMET045METAR SBLP 081000Z 00000KT CAVOK 28/17 Q1015;
0072832880999992009100811004-13267-043417FM-15+0443SBLP V0200901N003119999999Y0099001N1+03001+01601999999ADDMA1101491999999REMMET045METAR SBLP 081100Z 09006KT CAVOK 30/16 Q1015;
0072832880999992009100812004-13267-043417FM-15+0443SBLP V0200901N003119999999Y0099001N1+03201+01601999999ADDMA1101491999999REMMET045METAR SBLP 081200Z 09006KT CAVOK 32/16 Q1015;
0072832880999992009100813004-13267-043417FM-15+0443SBLP V0200901N003119999999Y0099001N1+03301+01601999999ADDMA1101491999999REMMET045METAR SBLP 081300Z 09006KT CAVOK 33/16 Q1015;
0153832880999992009100914004-13267-043417FM-15+0443SBLP V0201201N001510270019N0112651N1+02301+02201999999ADDGA1041+003001999GA2081+027001999GF108991999999999999999999MA1101691999999MW1611REMMET062METAR SBLP 091400Z 12003KT 9999 -RA SCT010 OVC090 23/22 Q1017;
0153832880999992009100915004-13267-043417FM-15+0443SBLP V0209999C000010270019N0112651N1+02401+02201999999ADDGA1041+004501999GA2081+027001999GF108991999999999999999999MA1101591999999MW1611REMMET062METAR SBLP 091500Z 00000KT 9999 -RA SCT015 OVC090 24/22 Q1016;
0153832880999992009100916004-13267-043417FM-15+0443SBLP V0209999C000010270019N0112651N1+02401+02201999999ADDGA1041+004501999GA2081+027001999GF108991999999999999999999MA1101491999999MW1611REMMET062METAR SBLP 091600Z 00000KT 9999 -RA SCT015 OVC090 24/22 Q1015;
0153832880999992009100917004-13267-043417FM-15+0443SBLP V0203001N002110270019N0090001N1+02401+02201999999ADDGA1041+004501999GA2081+027001999GF108991999999999999999999MA1101391999999MW1611REMMET062METAR SBLP 091700Z 30004KT 9000 -RA SCT015 OVC090 24/22 Q1014;
0153832880999992009100918004-13267-043417FM-15+0443SBLP V0203201N001010270019N0090001N1+02401+02201999999ADDGA1041+004501999GA2081+027001999GF108991999999999999999999MA1101391999999MW1611REMMET062METAR SBLP 091800Z 32002KT 9000 -RA SCT015 OVC090 24/22 Q1014;
0143832880999992009100919004-13267-043417FM-15+0443SBLP V0203601N003110300019N0112651N1+02401+02301999999ADDGA1041+006001999GA2071+030001999GF107991999999999999999999MA1101291999999REMMET058METAR SBLP 091900Z 36006KT 9999 SCT020 BKN100 24/23 Q1013;
0143832880999992009100920004-13267-043417FM-15+0443SBLP V0203601N003110300019N0112651N1+02301+02201999999ADDGA1041+006001999GA2071+030001999GF107991999999999999999999MA1101291999999REMMET058METAR SBLP 092000Z 36006KT 9999 SCT020 BKN100 23/22 Q1013;
0153832880999992009100921004-13267-043417FM-15+0443SBLP V0209999C000010300019N0090001N1+02301+02301999999ADDGA1041+006001999GA2071+030001999GF107991999999999999999999MA1101391999999MW1611REMMET062METAR SBLP 092100Z 00000KT 9000 -RA SCT020 BKN100 23/23 Q1014;
0143832880999992009101009124-13267-043417FM-16+0443SBLP V0209999C000010300019N0112651N1+02201+02201999999ADDGA1021+006001999GA2071+030001999GF107991999999999999999999MA1101291999999REMMET058SPECI SBLP 100912Z 00000KT 9999 FEW020 BKN100 22/22 Q1013;
0143832880999992009101010004-13267-043417FM-15+0443SBLP V0209999C000010300019N0112651N1+02301+02201999999ADDGA1021+006001999GA2071+030001999GF107991999999999999999999MA1101391999999REMMET058METAR SBLP 101000Z 00000KT 9999 FEW020 BKN100 23/22 Q1014;
0143832880999992009101011004-13267-043417FM-15+0443SBLP V0209999C000010300019N0112651N1+02401+02201999999ADDGA1021+006001999GA2071+030001999GF107991999999999999999999MA1101491999999REMMET058METAR SBLP 101100Z 00000KT 9999 FEW020 BKN100 24/22 Q1015;
0143832880999992009101012004-13267-043417FM-15+0443SBLP V0209999C000010300019N0112651N1+02401+02301999999ADDGA1021+006001999GA2071+030001999GF107991999999999999999999MA1101491999999REMMET058METAR SBLP 101200Z 00000KT 9999 FEW020 BKN100 24/23 Q1015;
0143832880999992009101013004-13267-043417FM-15+0443SBLP V0201801N002110300019N0112651N1+02501+02201999999ADDGA1021+006001999GA2071+030001999GF107991999999999999999999MA1101491999999REMMET058METAR SBLP 101300Z 18004KT 9999 FEW020 BKN100 25/22 Q1015;
0143832880999992009101015004-13267-043417FM-15+0443SBLP V0201801N002112200019N0112651N1+02801+02101999999ADDGA1021+009001999GA2041+030001999GF104991999999999999999999MA1101291999999REMMET058METAR SBLP 101500Z 18004KT 9999 FEW030 SCT100 28/21 Q1013;
0143832880999992009101016004-13267-043417FM-15+0443SBLP V0202801N001012200019N0112651N1+02901+02101999999ADDGA1041+009001999GA2041+030001999GF104991999999999999999999MA1101191999999REMMET058METAR SBLP 101600Z 28002KT 9999 SCT030 SCT100 29/21 Q1012;
0143832880999992009101017004-13267-043417FM-15+0443SBLP V0203301N004110300019N0112651N1+03101+02001999999ADDGA1041+009001999GA2071+030001999GF107991999999999999999999MA1101081999999REMMET058METAR SBLP 101700Z 33008KT 9999 SCT030 BKN100 31/20 Q1011;
0143832880999992009101018004-13267-043417FM-15+0443SBLP V0209999C000010300019N0112651N1+03101+01901999999ADDGA1041+009001999GA2071+030001999GF107991999999999999999999MA1101021999999REMMET058METAR SBLP 101800Z 00000KT 9999 SCT030 BKN100 31/19 Q1010;
0143832880999992009101019004-13267-043417FM-15+0443SBLP V0209999C000012200019N0112651N1+03101+02101999999ADDGA1041+009001999GA2041+030001999GF104991999999999999999999MA1101021999999REMMET058METAR SBLP 101900Z 00000KT 9999 SCT030 SCT100 31/21 Q1010;
0143832880999992009101020004-13267-043417FM-15+0443SBLP V0209999C000012200019N0112651N1+03001+02001999999ADDGA1021+009001999GA2041+030001999GF104991999999999999999999MA1101021999999REMMET058METAR SBLP 102000Z 00000KT 9999 FEW030 SCT100 30/20 Q1010;
0143832880999992009101021004-13267-043417FM-15+0443SBLP V0209999C000012200019N0112651N1+02901+02001999999ADDGA1021+009001999GA2041+030001999GF104991999999999999999999MA1101021999999REMMET058METAR SBLP 102100Z 00000KT 9999 FEW030 SCT100 29/20 Q1010;
0072832880999992009101110004-13267-043417FM-15+0443SBLP V0201801N003119999999Y0099001N1+02501+02101999999ADDMA1101291999999REMMET045METAR SBLP 111000Z 18006KT CAVOK 25/21 Q1013;
0120832880999992009101111004-13267-043417FM-15+0443SBLP V0201501N002112200019N0112651N1+02701+02001999999ADDGA1021+009001999GF102991999999999999999999MA1101391999999REMMET051METAR SBLP 111100Z 15004KT 9999 FEW030 27/20 Q1014;
0120832880999992009101112004-13267-043417FM-15+0443SBLP V0200601N003112200019N0112651N1+02901+02101999999ADDGA1021+009001999GF102991999999999999999999MA1101391999999REMMET051METAR SBLP 111200Z 06006KT 9999 FEW030 29/21 Q1014;
0120832880999992009101113004-13267-043417FM-15+0443SBLP V0200601N001012200019N0112651N1+03001+02201999999ADDGA1041+009001999GF104991999999999999999999MA1101291999999REMMET051METAR SBLP 111300Z 06002KT 9999 SCT030 30/22 Q1013;
0120832880999992009101114004-13267-043417FM-15+0443SBLP V0200901N003112200019N0112651N1+03101+02201999999ADDGA1041+009001999GF104991999999999999999999MA1101291999999REMMET051METAR SBLP 111400Z 09006KT 9999 SCT030 31/22 Q1013;
0120832880999992009101115004-13267-043417FM-15+0443SBLP V0203001N003112200019N0112651N1+03201+02101999999ADDGA1041+009001999GF104991999999999999999999MA1101081999999REMMET051METAR SBLP 111500Z 30006KT 9999 SCT030 32/21 Q1011;
0120832880999992009101116004-13267-043417FM-15+0443SBLP V0209999C000012200019N0112651N1+03301+01901999999ADDGA1041+009001999GF104991999999999999999999MA1101021999999REMMET051METAR SBLP 111600Z 00000KT 9999 SCT030 33/19 Q1010;
0120832880999992009101117004-13267-043417FM-15+0443SBLP V0201801N004112200019N0112651N1+03401+02001999999ADDGA1041+009001999GF104991999999999999999999MA1100911999999REMMET051METAR SBLP 111700Z 18008KT 9999 SCT030 34/20 Q1009;
0120832880999992009101118004-13267-043417FM-15+0443SBLP V0202301N005112200019N0112651N1+03401+01901999999ADDGA1041+009001999GF104991999999999999999999MA1100911999999REMMET051METAR SBLP 111800Z 23010KT 9999 SCT030 34/19 Q1009;
0120832880999992009101119004-13267-043417FM-15+0443SBLP V0201301N005112200019N0112651N1+03401+02001999999ADDGA1041+009001999GF104991999999999999999999MA1100911999999REMMET051METAR SBLP 111900Z 13010KT 9999 SCT030 34/20 Q1009;
0120832880999992009101120004-13267-043417FM-15+0443SBLP V0200601N003112200019N0112651N1+02901+02001999999ADDGA1041+009001999GF104991999999999999999999MA1100911999999REMMET051METAR SBLP 112000Z 06006KT 9999 SCT030 29/20 Q1009;
0143832880999992009101121004-13267-043417FM-15+0443SBLP V0200901N005110300019N0112651N1+02901+02001999999ADDGA1021+009001999GA2071+030001999GF107991999999999999999999MA1101021999999REMMET058METAR SBLP 112100Z 09010KT 9999 FEW030 BKN100 29/20 Q1010;
0072832880999992009101211004-13267-043417FM-15+0443SBLP V0203601N001519999999Y0099001N1+02501+02201999999ADDMA1101491999999REMMET045METAR SBLP 121100Z 36003KT CAVOK 25/22 Q1015;
0120832880999992009101212004-13267-043417FM-15+0443SBLP V0203101N001512200019N0112651N1+02601+02201999999ADDGA1021+009001999GF102991999999999999999999MA1101491999999REMMET051METAR SBLP 121200Z 31003KT 9999 FEW030 26/22 Q1015;
0120832880999992009101213004-13267-043417FM-15+0443SBLP V0209999C000012200019N0112651N1+02801+02201999999ADDGA1041+009001999GF104991999999999999999999MA1101491999999REMMET051METAR SBLP 121300Z 00000KT 9999 SCT030 28/22 Q1015;
0120832880999992009101214004-13267-043417FM-15+0443SBLP V0203301N004112200019N0112651N1+03001+02101999999ADDGA1041+009001999GF104991999999999999999999MA1101391999999REMMET051METAR SBLP 121400Z 33008KT 9999 SCT030 30/21 Q1014;
0120832880999992009101215004-13267-043417FM-15+0443SBLP V0203301N003112200019N0112651N1+03201+02101999999ADDGA1041+009001999GF104991999999999999999999MA1101291999999REMMET051METAR SBLP 121500Z 33006KT 9999 SCT030 32/21 Q1013;
0120832880999992009101216004-13267-043417FM-15+0443SBLP V0203601N003112200019N0112651N1+03201+02101999999ADDGA1041+009001999GF104991999999999999999999MA1101081999999REMMET051METAR SBLP 121600Z 36006KT 9999 SCT030 32/21 Q1011;
0120832880999992009101217004-13267-043417FM-15+0443SBLP V0203601N003112200019N0112651N1+03301+02001999999ADDGA1041+009001999GF104991999999999999999999MA1101021999999REMMET051METAR SBLP 121700Z 36006KT 9999 SCT030 33/20 Q1010;
0120832880999992009101218004-13267-043417FM-15+0443SBLP V0203601N003112200019N0112651N1+03501+01801999999ADDGA1041+009001999GF104991999999999999999999MA1100911999999REMMET051METAR SBLP 121800Z 36006KT 9999 SCT030 35/18 Q1009;
0120832880999992009101219004-13267-043417FM-15+0443SBLP V0203601N003112200019N0112651N1+03501+01801999999ADDGA1041+009001999GF104991999999999999999999MA1100811999999REMMET051METAR SBLP 121900Z 36006KT 9999 SCT030 35/18 Q1008;
0120832880999992009101220004-13267-043417FM-15+0443SBLP V0203601N003112200019N0112651N1+03401+01801999999ADDGA1041+009001999GF104991999999999999999999MA1100811999999REMMET051METAR SBLP 122000Z 36006KT 9999 SCT030 34/18 Q1008;
0120832880999992009101221004-13267-043417FM-15+0443SBLP V0200901N006210090019N0112651N1+03101+01901999999ADDGA1071+009001999GF107991999999999999999999MA1100911999999REMMET051METAR SBLP 122100Z 09012KT 9999 BKN030 31/19 Q1009;
0072832880999992009101310004-13267-043417FM-15+0443SBLP V0209999C000019999999Y0099001N1+02601+02001999999ADDMA1101291999999REMMET045METAR SBLP 131000Z 00000KT CAVOK 26/20 Q1013;
0072832880999992009101311004-13267-043417FM-15+0443SBLP V0209999C000019999999Y0099001N1+02601+02001999999ADDMA1101291999999REMMET045METAR SBLP 131100Z 00000KT CAVOK 26/20 Q1013;
0120832880999992009101312004-13267-043417FM-15+0443SBLP V0209999C000012200019N0112651N1+03001+01901999999ADDGA1021+009001999GF102991999999999999999999MA1101491999999REMMET051METAR SBLP 131200Z 00000KT 9999 FEW030 30/19 Q1015;
0120832880999992009101314004-13267-043417FM-15+0443SBLP V0200901N003112200019N0112651N1+03201+01901999999ADDGA1041+009001999GF104991999999999999999999MA1101291999999REMMET051METAR SBLP 131400Z 09006KT 9999 SCT030 32/19 Q1013;
0120832880999992009101315004-13267-043417FM-15+0443SBLP V0200901N003112200019N0112651N1+03301+01901999999ADDGA1041+009001999GF104991999999999999999999MA1101191999999REMMET051METAR SBLP 131500Z 09006KT 9999 SCT030 33/19 Q1012;
0120832880999992009101316004-13267-043417FM-15+0443SBLP V0202401N002612200019N0112651N1+03401+01901999999ADDGA1041+009001999GF104991999999999999999999MA1101021999999REMMET051METAR SBLP 131600Z 24005KT 9999 SCT030 34/19 Q1010;
0120832880999992009101317004-13267-043417FM-15+0443SBLP V0202101N003112200019N0112651N1+03501+01801999999ADDGA1041+009001999GF104991999999999999999999MA1100911999999REMMET051METAR SBLP 131700Z 21006KT 9999 SCT030 35/18 Q1009;
0120832880999992009101318004-13267-043417FM-15+0443SBLP V0202701N001512200019N0112651N1+03601+01901999999ADDGA1041+009001999GF104991999999999999999999MA1100811999999REMMET051METAR SBLP 131800Z 27003KT 9999 SCT030 36/19 Q1008;
0179832880999992009101319004-13267-043417FM-15+0443SBLP V0202501N002112200019N0112651N1+03701+99999999999ADDGA1041+009001999GA2021+012001091MA1100811999999MW1171REMMET063METAR SBLP 131900Z 25004KT 9999 TS SCT030 FEW040CB 37/28 Q1008;EQDQ01+000022SCOTCVQ02+002803ATOD  Q03 +02803ATOD  
0151832880999992009101320004-13267-043417FM-15+0443SBLP V0203301N001012200019N0112651N1+03401+01801999999ADDGA1021+009001999GA2021+012001021GF102991999999999999999999MA1100811999999REMMET066METAR SBLP 132000Z 33002KT 9999 FEW030 FEW040TCU 34/18 Q1008 RETS;
0120832880999992009101321004-13267-043417FM-15+0443SBLP V0203401N001512200019N0112651N1+03401+01901999999ADDGA1021+009001999GF102991999999999999999999MA1100911999999REMMET051METAR SBLP 132100Z 34003KT 9999 FEW030 34/19 Q1009;
0072832880999992009101410004-13267-043417FM-15+0443SBLP V0201101N001019999999Y0099001N1+02801+02001999999ADDMA1101291999999REMMET045METAR SBLP 141000Z 11002KT CAVOK 28/20 Q1013;
0072832880999992009101411004-13267-043417FM-15+0443SBLP V0201201N001519999999Y0099001N1+03001+01801999999ADDMA1101391999999REMMET045METAR SBLP 141100Z 12003KT CAVOK 30/18 Q1014;
0072832880999992009101412004-13267-043417FM-15+0443SBLP V0203601N002119999999Y0099001N1+03201+01701999999ADDMA1101391999999REMMET045METAR SBLP 141200Z 36004KT CAVOK 32/17 Q1014;
0120832880999992009101413004-13267-043417FM-15+0443SBLP V0200901N002112200019N0112651N1+03301+01701999999ADDGA1021+009001999GF102991999999999999999999MA1101291999999REMMET051METAR SBLP 141300Z 09004KT 9999 FEW030 33/17 Q1013;
0120832880999992009101414004-13267-043417FM-15+0443SBLP V0202301N002112200019N0112651N1+03401+01801999999ADDGA1041+009001999GF104991999999999999999999MA1101191999999REMMET051METAR SBLP 141400Z 23004KT 9999 SCT030 34/18 Q1012;
0120832880999992009101415004-13267-043417FM-15+0443SBLP V0202501N002112200019N0112651N1+03501+01801999999ADDGA1041+009001999GF104991999999999999999999MA1101081999999REMMET051METAR SBLP 141500Z 25004KT 9999 SCT030 35/18 Q1011;
0120832880999992009101416004-13267-043417FM-15+0443SBLP V0202401N003112200019N0112651N1+03501+01901999999ADDGA1041+009001999GF104991999999999999999999MA1100911999999REMMET051METAR SBLP 141600Z 24006KT 9999 SCT030 35/19 Q1009;
0155832880999992009101417004-13267-043417FM-15+0443SBLP V0202401N003112200019N0112651N1+03601+01801999999ADDGA1041+009001999GF104991999999999999999999MA1999999999999REMMET051METAR SBLP 141700Z 24006KT 9999 SCT030 36/18 Q1018;EQDQ01+101803APOA  Q02 101803APOA  
0120832880999992009101419004-13267-043417FM-15+0443SBLP V0201601N003112200019N0112651N1+03701+01801999999ADDGA1041+009001999GF104991999999999999999999MA1100611999999REMMET051METAR SBLP 141900Z 16006KT 9999 SCT030 37/18 Q1006;
0120832880999992009101420004-13267-043417FM-15+0443SBLP V0201801N003112200019N0112651N1+03501+01801999999ADDGA1041+009001999GF104991999999999999999999MA1100711999999REMMET051METAR SBLP 142000Z 18006KT 9999 SCT030 35/18 Q1007;
0120832880999992009101421004-13267-043417FM-15+0443SBLP V0201201N003112200019N0112651N1+03401+01901999999ADDGA1021+009001999GF102991999999999999999999MA1100711999999REMMET051METAR SBLP 142100Z 12006KT 9999 FEW030 34/19 Q1007;
0072832880999992009101510004-13267-043417FM-15+0443SBLP V0209999C000019999999Y0099001N1+02601+02001999999ADDMA1101291999999REMMET045METAR SBLP 151000Z 00000KT CAVOK 26/20 Q1013;
0072832880999992009101511004-13267-043417FM-15+0443SBLP V0209999C000019999999Y0099001N1+02901+02001999999ADDMA1101391999999REMMET045METAR SBLP 151100Z 00000KT CAVOK 29/20 Q1014;
0120832880999992009101512004-13267-043417FM-15+0443SBLP V0209999C000012200019N0112651N1+03101+01901999999ADDGA1021+009001999GF102991999999999999999999MA1101391999999REMMET051METAR SBLP 151200Z 00000KT 9999 FEW030 31/19 Q1014;
0120832880999992009101513004-13267-043417FM-15+0443SBLP V0202401N003112200019N0112651N1+03201+02001999999ADDGA1021+009001999GF102991999999999999999999MA1101391999999REMMET051METAR SBLP 151300Z 24006KT 9999 FEW030 32/20 Q1014;
0120832880999992009101514004-13267-043417FM-15+0443SBLP V0202101N003112200019N0112651N1+03201+02001999999ADDGA1041+009001999GF104991999999999999999999MA1101291999999REMMET051METAR SBLP 151400Z 21006KT 9999 SCT030 32/20 Q1013;
0120832880999992009101515004-13267-043417FM-15+0443SBLP V0202701N003112200019N0112651N1+03301+02001999999ADDGA1041+009001999GF104991999999999999999999MA1101191999999REMMET051METAR SBLP 151500Z 27006KT 9999 SCT030 33/20 Q1012;
0120832880999992009101516004-13267-043417FM-15+0443SBLP V0209999C000012200019N0112651N1+03501+01801999999ADDGA1041+009001999GF104991999999999999999999MA1101021999999REMMET051METAR SBLP 151600Z 00000KT 9999 SCT030 35/18 Q1010;
0120832880999992009101517004-13267-043417FM-15+0443SBLP V0202701N001512200019N0112651N1+03501+01601999999ADDGA1041+009001999GF104991999999999999999999MA1100911999999REMMET051METAR SBLP 151700Z 27003KT 9999 SCT030 35/16 Q1009;
0120832880999992009101518004-13267-043417FM-15+0443SBLP V0202701N002612200019N0112651N1+03601+01701999999ADDGA1041+009001999GF104991999999999999999999MA1100811999999REMMET051METAR SBLP 151800Z 27005KT 9999 SCT030 36/17 Q1008;
0120832880999992009101519004-13267-043417FM-15+0443SBLP V0202701N003112200019N0112651N1+03601+01601999999ADDGA1021+009001999GF102991999999999999999999MA1100811999999REMMET051METAR SBLP 151900Z 27006KT 9999 FEW030 36/16 Q1008;
0120832880999992009101520004-13267-043417FM-15+0443SBLP V0202701N002112200019N0112651N1+03501+01701999999ADDGA1021+009001999GF102991999999999999999999MA1100811999999REMMET051METAR SBLP 152000Z 27004KT 9999 FEW030 35/17 Q1008;
0120832880999992009101521004-13267-043417FM-15+0443SBLP V0202701N002112200019N0112651N1+03501+01701999999ADDGA1021+009001999GF102991999999999999999999MA1100811999999REMMET051METAR SBLP 152100Z 27004KT 9999 FEW030 35/17 Q1008;
0143832880999992009101609154-13267-043417FM-15+0443SBLP V0209999C000012200019N0112651N1+02501+02101999999ADDGA1021+009001999GA2041+030001999GF104991999999999999999999MA1101391999999REMMET058METAR SBLP 160915Z 00000KT 9999 FEW030 SCT100 25/21 Q1014;
0143832880999992009101610004-13267-043417FM-15+0443SBLP V0209999C000012200019N0112651N1+02501+02101999999ADDGA1021+009001999GA2041+030001999GF104991999999999999999999MA1101391999999REMMET058METAR SBLP 161000Z 00000KT 9999 FEW030 SCT100 25/21 Q1014;
0072832880999992009101611004-13267-043417FM-15+0443SBLP V0209999C000019999999Y0099001N1+02901+02001999999ADDMA1101491999999REMMET045METAR SBLP 161100Z 00000KT CAVOK 29/20 Q1015;
0072832880999992009101612004-13267-043417FM-15+0443SBLP V0203601N003119999999Y0099001N1+03101+01901999999ADDMA1101491999999REMMET045METAR SBLP 161200Z 36006KT CAVOK 31/19 Q1015;
0072832880999992009101613004-13267-043417FM-15+0443SBLP V0202701N003119999999Y0099001N1+03201+01901999999ADDMA1101491999999REMMET045METAR SBLP 161300Z 27006KT CAVOK 32/19 Q1015;
0120832880999992009101614004-13267-043417FM-15+0443SBLP V0209999C000012200019N0112651N1+03301+01901999999ADDGA1021+009001999GF102991999999999999999999MA1101391999999REMMET051METAR SBLP 161400Z 00000KT 9999 FEW030 33/19 Q1014;
0120832880999992009101616004-13267-043417FM-15+0443SBLP V0202401N002112200019N0112651N1+03601+01701999999ADDGA1041+009001999GF104991999999999999999999MA1101081999999REMMET051METAR SBLP 161600Z 24004KT 9999 SCT030 36/17 Q1011;
0120832880999992009101617004-13267-043417FM-15+0443SBLP V0203001N001510090019N0112651N1+03701+01701999999ADDGA1071+009001999GF107991999999999999999999MA1101021999999REMMET051METAR SBLP 161700Z 30003KT 9999 BKN030 37/17 Q1010;
0143832880999992009101618004-13267-043417FM-15+0443SBLP V0201501N004110300019N0112651N1+03501+01701999999ADDGA1041+009001999GA2071+030001999GF107991999999999999999999MA1101021999999REMMET058METAR SBLP 161800Z 15008KT 9999 SCT030 BKN100 35/17 Q1010;
0143832880999992009101619004-13267-043417FM-15+0443SBLP V0201501N003110300019N0112651N1+03501+01701999999ADDGA1021+009001999GA2071+030001999GF107991999999999999999999MA1100911999999REMMET058METAR SBLP 161900Z 15006KT 9999 FEW030 BKN100 35/17 Q1009;
0120832880999992009101620004-13267-043417FM-15+0443SBLP V0200601N004112200019N0112651N1+03601+01701999999ADDGA1021+009001999GF102991999999999999999999MA1100911999999REMMET051METAR SBLP 162000Z 06008KT 9999 FEW030 36/17 Q1009;
0143832880999992009101621004-13267-043417FM-15+0443SBLP V0200401N003112200019N0112651N1+03401+01801999999ADDGA1021+009001999GA2041+030001999GF104991999999999999999999MA1101021999999REMMET058METAR SBLP 162100Z 04006KT 9999 FEW030 SCT100 34/18 Q1010;
0072832880999992009101709054-13267-043417FM-15+0443SBLP V0209999C000019999999Y0099001N1+02501+01901999999ADDMA1101391999999REMMET045METAR SBLP 170905Z 00000KT CAVOK 25/19 Q1014;
0072832880999992009101710004-13267-043417FM-15+0443SBLP V0202801N001519999999Y0099001N1+02801+02001999999ADDMA1101491999999REMMET045METAR SBLP 171000Z 28003KT CAVOK 28/20 Q1015;
0072832880999992009101711004-13267-043417FM-15+0443SBLP V0203301N001519999999Y0099001N1+02901+02001999999ADDMA1101591999999REMMET045METAR SBLP 171100Z 33003KT CAVOK 29/20 Q1016;
0072832880999992009101712004-13267-043417FM-15+0443SBLP V0209999C000019999999Y0099001N1+03001+01901999999ADDMA1101591999999REMMET045METAR SBLP 171200Z 00000KT CAVOK 30/19 Q1016;
0143832880999992009101713004-13267-043417FM-15+0443SBLP V0203501N002112200019N0112651N1+03301+01801999999ADDGA1021+009001999GA2041+030001999GF104991999999999999999999MA1101591999999REMMET058METAR SBLP 171300Z 35004KT 9999 FEW030 SCT100 33/18 Q1016;
0143832880999992009101714004-13267-043417FM-15+0443SBLP V0202401N002112200019N0112651N1+03401+01801999999ADDGA1041+009001999GA2041+030001999GF104991999999999999999999MA1101491999999REMMET058METAR SBLP 171400Z 24004KT 9999 SCT030 SCT100 34/18 Q1015;
0120832880999992009101715004-13267-043417FM-15+0443SBLP V0203301N004112200019N0112651N1+03501+01901999999ADDGA1041+009001999GF104991999999999999999999MA1101391999999REMMET051METAR SBLP 171500Z 33008KT 9999 SCT030 35/19 Q1014;
0120832880999992009101716004-13267-043417FM-15+0443SBLP V0202701N003112200019N0112651N1+03501+01801999999ADDGA1041+009001999GF104991999999999999999999MA1101191999999REMMET051METAR SBLP 171600Z 27006KT 9999 SCT030 35/18 Q1012;
0120832880999992009101717004-13267-043417FM-15+0443SBLP V0202701N003112200019N0112651N1+03701+01701999999ADDGA1041+009001999GF104991999999999999999999MA1101081999999REMMET051METAR SBLP 171700Z 27006KT 9999 SCT030 37/17 Q1011;
0120832880999992009101718004-13267-043417FM-15+0443SBLP V0202701N003112200019N0112651N1+03801+01601999999ADDGA1041+009001999GF104991999999999999999999MA1101021999999REMMET051METAR SBLP 171800Z 27006KT 9999 SCT030 38/16 Q1010;
0120832880999992009101719004-13267-043417FM-15+0443SBLP V0201801N003112200019N0112651N1+03701+01601999999ADDGA1021+009001999GF102991999999999999999999MA1100911999999REMMET051METAR SBLP 171900Z 18006KT 9999 FEW030 37/16 Q1009;
0120832880999992009101720004-13267-043417FM-15+0443SBLP V0209999C000012200019N0112651N1+03601+01601999999ADDGA1021+009001999GF102991999999999999999999MA1100911999999REMMET051METAR SBLP 172000Z 00000KT 9999 FEW030 36/16 Q1009;
0120832880999992009101721004-13267-043417FM-15+0443SBLP V0209999C000012200019N0112651N1+03401+01701999999ADDGA1021+009001999GF102991999999999999999999MA1101021999999REMMET051METAR SBLP 172100Z 00000KT 9999 FEW030 34/17 Q1010;
0072832880999992009101810004-13267-043417FM-15+0443SBLP V0209999C000019999999Y0099001N1+02701+02001999999ADDMA1101391999999REMMET045METAR SBLP 181000Z 00000KT CAVOK 27/20 Q1014;
0072832880999992009101811004-13267-043417FM-15+0443SBLP V0201801N001519999999Y0099001N1+03001+01801999999ADDMA1101391999999REMMET045METAR SBLP 181100Z 18003KT CAVOK 30/18 Q1014;
0072832880999992009101812004-13267-043417FM-15+0443SBLP V0209999C000019999999Y0099001N1+03201+01601999999ADDMA1101391999999REMMET045METAR SBLP 181200Z 00000KT CAVOK 32/16 Q1014;
0072832880999992009101813004-13267-043417FM-15+0443SBLP V0202801N001519999999Y0099001N1+03201+01501999999ADDMA1101391999999REMMET045METAR SBLP 181300Z 28003KT CAVOK 32/15 Q1014;
0120832880999992009101814004-13267-043417FM-15+0443SBLP V0202701N003112200019N0112651N1+03401+01601999999ADDGA1021+009001999GF102991999999999999999999MA1101291999999REMMET051METAR SBLP 181400Z 27006KT 9999 FEW030 34/16 Q1013;
0120832880999992009101815004-13267-043417FM-15+0443SBLP V0202601N001512200019N0112651N1+03501+01701999999ADDGA1041+009001999GF104991999999999999999999MA1101191999999REMMET051METAR SBLP 181500Z 26003KT 9999 SCT030 35/17 Q1012;
0120832880999992009101816004-13267-043417FM-15+0443SBLP V0202701N003112200019N0112651N1+03601+01701999999ADDGA1041+009001999GF104991999999999999999999MA1101081999999REMMET051METAR SBLP 181600Z 27006KT 9999 SCT030 36/17 Q1011;
0120832880999992009101817004-13267-043417FM-15+0443SBLP V0202701N003112200019N0112651N1+03701+01701999999ADDGA1041+009001999GF104991999999999999999999MA1100911999999REMMET051METAR SBLP 181700Z 27006KT 9999 SCT030 37/17 Q1009;
0120832880999992009101818004-13267-043417FM-15+0443SBLP V0202701N003112200019N0112651N1+03801+01601999999ADDGA1041+009001999GF104991999999999999999999MA1100811999999REMMET051METAR SBLP 181800Z 27006KT 9999 SCT030 38/16 Q1008;
0120832880999992009101819004-13267-043417FM-15+0443SBLP V0202701N003112200019N0112651N1+03801+01701999999ADDGA1041+009001999GF104991999999999999999999MA1100711999999REMMET051METAR SBLP 181900Z 27006KT 9999 SCT030 38/17 Q1007;
0120832880999992009101820004-13267-043417FM-15+0443SBLP V0209999C000012200019N0112651N1+03601+01701999999ADDGA1041+009001999GF104991999999999999999999MA1100711999999REMMET051METAR SBLP 182000Z 00000KT 9999 SCT030 36/17 Q1007;
0120832880999992009101821004-13267-043417FM-15+0443SBLP V0209999C000012200019N0112651N1+03301+01801999999ADDGA1041+009001999GF104991999999999999999999MA1100811999999REMMET051METAR SBLP 182100Z 00000KT 9999 SCT030 33/18 Q1008;
0072832880999992009101910004-13267-043417FM-15+0443SBLP V0209999C000019999999Y0099001N1+02701+01901999999ADDMA1101191999999REMMET045METAR SBLP 191000Z 00000KT CAVOK 27/19 Q1012;
0072832880999992009101911004-13267-043417FM-15+0443SBLP V0203601N003119999999Y0099001N1+03001+01801999999ADDMA1101291999999REMMET045METAR SBLP 191100Z 36006KT CAVOK 30/18 Q1013;
0072832880999992009101913004-13267-043417FM-15+0443SBLP V0203601N003119999999Y0099001N1+03501+01501999999ADDMA1101291999999REMMET045METAR SBLP 191300Z 36006KT CAVOK 35/15 Q1013;
0120832880999992009101914004-13267-043417FM-15+0443SBLP V0203601N003112200019N0112651N1+03601+01501999999ADDGA1021+009001999GF102991999999999999999999MA1101081999999REMMET051METAR SBLP 191400Z 36006KT 9999 FEW030 36/15 Q1011;
0120832880999992009101915004-13267-043417FM-15+0443SBLP V0202701N003112200019N0112651N1+03601+01601999999ADDGA1021+009001999GF102991999999999999999999MA1101021999999REMMET051METAR SBLP 191500Z 27006KT 9999 FEW030 36/16 Q1010;
0120832880999992009101916004-13267-043417FM-15+0443SBLP V0203601N001512200019N0112651N1+03601+01701999999ADDGA1041+009001999GF104991999999999999999999MA1100811999999REMMET051METAR SBLP 191600Z 36003KT 9999 SCT030 36/17 Q1008;
0120832880999992009101917004-13267-043417FM-15+0443SBLP V0209999C000012200019N0112651N1+03801+01501999999ADDGA1041+009001999GF104991999999999999999999MA1100711999999REMMET051METAR SBLP 191700Z 00000KT 9999 SCT030 38/15 Q1007;
0120832880999992009101918004-13267-043417FM-15+0443SBLP V0209999C000012200019N0112651N1+03601+01601999999ADDGA1041+009001999GF104991999999999999999999MA1100611999999REMMET051METAR SBLP 191800Z 00000KT 9999 SCT030 36/16 Q1006;
0143832880999992009101919004-13267-043417FM-15+0443SBLP V0203301N001512200019N0112651N1+03601+01601999999ADDGA1041+009001999GA2041+030001999GF104991999999999999999999MA1100611999999REMMET058METAR SBLP 191900Z 33003KT 9999 SCT030 SCT100 36/16 Q1006;
0143832880999992009101920004-13267-043417FM-15+0443SBLP V0203601N002612200019N0112651N1+03501+01601999999ADDGA1021+009001999GA2041+030001999GF104991999999999999999999MA1100611999999REMMET058METAR SBLP 192000Z 36005KT 9999 FEW030 SCT100 35/16 Q1006;
0143832880999992009101921004-13267-043417FM-15+0443SBLP V0200201N001512200019N0112651N1+03401+01601999999ADDGA1021+009001999GA2041+030001999GF104991999999999999999999MA1100711999999REMMET058METAR SBLP 192100Z 02003KT 9999 FEW030 SCT100 34/16 Q1007;
0143832880999992009102009094-13267-043417FM-16+0443SBLP V0209999C000010300019N0112651N1+02701+01901999999ADDGA1021+009001999GA2071+030001999GF107991999999999999999999MA1101081999999REMMET058SPECI SBLP 200909Z 00000KT 9999 FEW030 BKN100 27/19 Q1011;
0143832880999992009102010004-13267-043417FM-15+0443SBLP V0203601N002110300019N0112651N1+02801+01801999999ADDGA1021+009001999GA2071+030001999GF107991999999999999999999MA1101191999999REMMET058METAR SBLP 201000Z 36004KT 9999 FEW030 BKN100 28/18 Q1012;
0143832880999992009102011004-13267-043417FM-15+0443SBLP V0203601N002110300019N0112651N1+02801+01801999999ADDGA1021+009001999GA2071+030001999GF107991999999999999999999MA1101191999999REMMET058METAR SBLP 201100Z 36004KT 9999 FEW030 BKN100 28/18 Q1012;
0072832880999992009102012004-13267-043417FM-15+0443SBLP V0203001N002119999999Y0099001N1+03101+01801999999ADDMA1101391999999REMMET045METAR SBLP 201200Z 30004KT CAVOK 31/18 Q1014;
0120832880999992009102013004-13267-043417FM-15+0443SBLP V0201801N002112200019N0112651N1+03201+01701999999ADDGA1021+009001999GF102991999999999999999999MA1101391999999REMMET051METAR SBLP 201300Z 18004KT 9999 FEW030 32/17 Q1014;
0120832880999992009102014004-13267-043417FM-15+0443SBLP V0203601N004112200019N0112651N1+03401+01601999999ADDGA1021+009001999GF102991999999999999999999MA1101291999999REMMET051METAR SBLP 201400Z 36008KT 9999 FEW030 34/16 Q1013;
0120832880999992009102015004-13267-043417FM-15+0443SBLP V0203601N003112200019N0112651N1+03501+01701999999ADDGA1021+009001999GF102991999999999999999999MA1101191999999REMMET051METAR SBLP 201500Z 36006KT 9999 FEW030 35/17 Q1012;
0143832880999992009102016004-13267-043417FM-15+0443SBLP V0203601N003110900019N0112651N1+03501+01601999999ADDGA1021+009001999GA2071+090001999GF107991999999999999999999MA1101021999999REMMET058METAR SBLP 201600Z 36006KT 9999 FEW030 BKN300 35/16 Q1010;
0143832880999992009102017004-13267-043417FM-15+0443SBLP V0203601N003110900019N0112651N1+03601+01601999999ADDGA1041+009001999GA2071+090001999GF107991999999999999999999MA1100911999999REMMET058METAR SBLP 201700Z 36006KT 9999 SCT030 BKN300 36/16 Q1009;
0143832880999992009102018004-13267-043417FM-15+0443SBLP V0203601N003112200019N0112651N1+03801+01601999999ADDGA1041+009001999GA2041+090001999GF104991999999999999999999MA1100911999999REMMET058METAR SBLP 201800Z 36006KT 9999 SCT030 SCT300 38/16 Q1009;
0120832880999992009102019004-13267-043417FM-15+0443SBLP V0203601N003112200019N0112651N1+03801+01601999999ADDGA1021+009001999GF102991999999999999999999MA1100811999999REMMET051METAR SBLP 201900Z 36006KT 9999 FEW030 38/16 Q1008;
0120832880999992009102020004-13267-043417FM-15+0443SBLP V0209999C000012200019N0112651N1+03601+01601999999ADDGA1021+009001999GF102991999999999999999999MA1100811999999REMMET051METAR SBLP 202000Z 00000KT 9999 FEW030 36/16 Q1008;
0120832880999992009102021004-13267-043417FM-15+0443SBLP V0209999C000012200019N0112651N1+03301+01601999999ADDGA1021+009001999GF102991999999999999999999MA1100911999999REMMET051METAR SBLP 202100Z 00000KT 9999 FEW030 33/16 Q1009;
0120832880999992009102109104-13267-043417FM-16+0443SBLP V0202401N002112200019N0112651N1+02501+02101999999ADDGA1041+009001999GF104991999999999999999999MA1101191999999REMMET051SPECI SBLP 210910Z 24004KT 9999 SCT030 25/21 Q1012;
0120832880999992009102110004-13267-043417FM-15+0443SBLP V0203001N002112200019N0112651N1+02601+02201999999ADDGA1041+009001999GF104991999999999999999999MA1101291999999REMMET051METAR SBLP 211000Z 30004KT 9999 SCT030 26/22 Q1013;
0072832880999992009102111004-13267-043417FM-15+0443SBLP V0209999C000019999999Y0099001N1+02901+02001999999ADDMA1101391999999REMMET045METAR SBLP 211100Z 00000KT CAVOK 29/20 Q1014;
0072832880999992009102112004-13267-043417FM-15+0443SBLP V0202501N003119999999Y0099001N1+03101+02001999999ADDMA1101391999999REMMET045METAR SBLP 211200Z 25006KT CAVOK 31/20 Q1014;
0072832880999992009102113004-13267-043417FM-15+0443SBLP V0203301N002119999999Y0099001N1+03201+02101999999ADDMA1101391999999REMMET045METAR SBLP 211300Z 33004KT CAVOK 32/21 Q1014;
0120832880999992009102114004-13267-043417FM-15+0443SBLP V0209999C000012200019N0112651N1+03401+02001999999ADDGA1041+009001999GF104991999999999999999999MA1101291999999REMMET051METAR SBLP 211400Z 00000KT 9999 SCT030 34/20 Q1013;
0120832880999992009102115004-13267-043417FM-15+0443SBLP V0203601N003112200019N0112651N1+03501+01901999999ADDGA1041+009001999GF104991999999999999999999MA1101191999999REMMET051METAR SBLP 211500Z 36006KT 9999 SCT030 35/19 Q1012;
0120832880999992009102116004-13267-043417FM-15+0443SBLP V0201801N003112200019N0112651N1+03601+01901999999ADDGA1041+009001999GF104991999999999999999999MA1101021999999REMMET051METAR SBLP 211600Z 18006KT 9999 SCT030 36/19 Q1010;
0120832880999992009102117004-13267-043417FM-15+0443SBLP V0203001N003112200019N0112651N1+03701+01901999999ADDGA1021+009001999GF102991999999999999999999MA1100911999999REMMET051METAR SBLP 211700Z 30006KT 9999 FEW030 37/19 Q1009;
0120832880999992009102118004-13267-043417FM-15+0443SBLP V0203001N003112200019N0112651N1+03801+01801999999ADDGA1021+009001999GF102991999999999999999999MA1100811999999REMMET051METAR SBLP 211800Z 30006KT 9999 FEW030 38/18 Q1008;
0120832880999992009102119004-13267-043417FM-15+0443SBLP V0202601N003112200019N0112651N1+03801+01701999999ADDGA1021+009001999GF102991999999999999999999MA1100811999999REMMET051METAR SBLP 211900Z 26006KT 9999 FEW030 38/17 Q1008;
0120832880999992009102120004-13267-043417FM-15+0443SBLP V0202101N003112200019N0112651N1+03701+01901999999ADDGA1021+009001999GF102991999999999999999999MA1100811999999REMMET051METAR SBLP 212000Z 21006KT 9999 FEW030 37/19 Q1008;
0120832880999992009102121004-13267-043417FM-15+0443SBLP V0202101N003112200019N0112651N1+03501+01901999999ADDGA1021+009001999GF102991999999999999999999MA1100911999999REMMET051METAR SBLP 212100Z 21006KT 9999 FEW030 35/19 Q1009;
0143832880999992009102209134-13267-043417FM-16+0443SBLP V0209999C000010300019N0112651N1+02601+02101999999ADDGA1021+009001999GA2071+030001999GF107991999999999999999999MA1101081999999REMMET058SPECI SBLP 220913Z 00000KT 9999 FEW030 BKN100 26/21 Q1011;
0143832880999992009102210004-13267-043417FM-15+0443SBLP V0209999C000010300019N0112651N1+02601+02101999999ADDGA1041+009001999GA2071+030001999GF107991999999999999999999MA1101191999999REMMET058METAR SBLP 221000Z 00000KT 9999 SCT030 BKN100 26/21 Q1012;
0143832880999992009102211004-13267-043417FM-15+0443SBLP V0209999C000010300019N0112651N1+02701+02101999999ADDGA1021+009001999GA2071+030001999GF107991999999999999999999MA1101191999999REMMET058METAR SBLP 221100Z 00000KT 9999 FEW030 BKN100 27/21 Q1012;
0143832880999992009102212004-13267-043417FM-15+0443SBLP V0209999C000010300019N0112651N1+02801+02101999999ADDGA1041+009001999GA2071+030001999GF107991999999999999999999MA1101191999999REMMET058METAR SBLP 221200Z 00000KT 9999 SCT030 BKN100 28/21 Q1012;
0143832880999992009102213004-13267-043417FM-15+0443SBLP V0209999C000010300019N0112651N1+02901+02101999999ADDGA1021+009001999GA2071+030001999GF107991999999999999999999MA1101191999999REMMET058METAR SBLP 221300Z 00000KT 9999 FEW030 BKN100 29/21 Q1012;
0143832880999992009102214004-13267-043417FM-15+0443SBLP V0202401N001510300019N0112651N1+03201+02001999999ADDGA1021+009001999GA2071+030001999GF107991999999999999999999MA1101191999999REMMET058METAR SBLP 221400Z 24003KT 9999 FEW030 BKN100 32/20 Q1012;
0143832880999992009102215004-13267-043417FM-15+0443SBLP V0203601N003112200019N0112651N1+03401+02001999999ADDGA1021+009001999GA2041+030001999GF104991999999999999999999MA1101081999999REMMET058METAR SBLP 221500Z 36006KT 9999 FEW030 SCT100 34/20 Q1011;
0143832880999992009102216004-13267-043417FM-15+0443SBLP V0203601N003112200019N0112651N1+03601+01801999999ADDGA1021+009001999GA2041+030001999GF104991999999999999999999MA1100911999999REMMET058METAR SBLP 221600Z 36006KT 9999 FEW030 SCT100 36/18 Q1009;
0120832880999992009102217004-13267-043417FM-15+0443SBLP V0203601N003112200019N0112651N1+03701+01701999999ADDGA1041+009001999GF104991999999999999999999MA1100811999999REMMET051METAR SBLP 221700Z 36006KT 9999 SCT030 37/17 Q1008;
0120832880999992009102218004-13267-043417FM-15+0443SBLP V0203601N003112200019N0112651N1+03801+01701999999ADDGA1041+009001999GF104991999999999999999999MA1100711999999REMMET051METAR SBLP 221800Z 36006KT 9999 SCT030 38/17 Q1007;
0120832880999992009102219004-13267-043417FM-15+0443SBLP V0203601N003112200019N0112651N1+03701+01701999999ADDGA1041+009001999GF104991999999999999999999MA1100711999999REMMET051METAR SBLP 221900Z 36006KT 9999 SCT030 37/17 Q1007;
0120832880999992009102220004-13267-043417FM-15+0443SBLP V0209999C000012200019N0112651N1+03601+01701999999ADDGA1021+009001999GF102991999999999999999999MA1100711999999REMMET051METAR SBLP 222000Z 00000KT 9999 FEW030 36/17 Q1007;
0120832880999992009102221004-13267-043417FM-15+0443SBLP V0209999C000012200019N0112651N1+03401+01801999999ADDGA1021+009001999GF102991999999999999999999MA1100811999999REMMET051METAR SBLP 222100Z 00000KT 9999 FEW030 34/18 Q1008;
0143832880999992009102310004-13267-043417FM-15+0443SBLP V0209999C000012200019N0112651N1+02501+02101999999ADDGA1041+006001999GA2041+030001999GF104991999999999999999999MA1101191999999REMMET058METAR SBLP 231000Z 00000KT 9999 SCT020 SCT100 25/21 Q1012;
0143832880999992009102311004-13267-043417FM-15+0443SBLP V0209999C000012200019N0112651N1+02701+02101999999ADDGA1021+006001999GA2041+030001999GF104991999999999999999999MA1101291999999REMMET058METAR SBLP 231100Z 00000KT 9999 FEW020 SCT100 27/21 Q1013;
0143832880999992009102312004-13267-043417FM-15+0443SBLP V0203601N003110300019N0112651N1+02801+02101999999ADDGA1021+006001999GA2071+030001999GF107991999999999999999999MA1101291999999REMMET058METAR SBLP 231200Z 36006KT 9999 FEW020 BKN100 28/21 Q1013;
0088832880999992009102313004-13267-043417FM-15+0443SBLP V02099999999992200019N0060061N1+02701+02101999999ADDMA1101301999999REMMET061METAR SBLP 231300Z 6006KT 9000 -RA FEW020 BKN100 27/21 Q1013;
0153832880999992009102314004-13267-043417FM-15+0443SBLP V0203601N003110300019N0090001N1+02501+02101999999ADDGA1021+006001999GA2071+030001999GF107991999999999999999999MA1101291999999MW1611REMMET062METAR SBLP 231400Z 36006KT 9000 -RA FEW020 BKN100 25/21 Q1013;
0143832880999992009102315004-13267-043417FM-15+0443SBLP V0203601N003110300019N0112651N1+02701+02101999999ADDGA1021+006001999GA2071+030001999GF107991999999999999999999MA1101191999999REMMET058METAR SBLP 231500Z 36006KT 9999 FEW020 BKN100 27/21 Q1012;
0143832880999992009102316004-13267-043417FM-15+0443SBLP V0202501N002112200019N0112651N1+02901+02301999999ADDGA1021+006901999GA2041+030001999GF104991999999999999999999MA1101021999999REMMET058METAR SBLP 231600Z 25004KT 9999 FEW023 SCT100 29/23 Q1010;
0143832880999992009102317004-13267-043417FM-15+0443SBLP V0203601N001512200019N0112651N1+03201+02001999999ADDGA1021+009001999GA2041+030001999GF104991999999999999999999MA1100911999999REMMET058METAR SBLP 231700Z 36003KT 9999 FEW030 SCT100 32/20 Q1009;
0143832880999992009102318004-13267-043417FM-15+0443SBLP V0209999C000012200019N0112651N1+03301+02001999999ADDGA1021+009001999GA2041+090001999GF104991999999999999999999MA1100811999999REMMET058METAR SBLP 231800Z 00000KT 9999 FEW030 SCT300 33/20 Q1008;
0120832880999992009102319004-13267-043417FM-15+0443SBLP V0203301N002112200019N0112651N1+03301+02101999999ADDGA1021+009001999GF102991999999999999999999MA1100711999999REMMET051METAR SBLP 231900Z 33004KT 9999 FEW030 33/21 Q1007;
0120832880999992009102320004-13267-043417FM-15+0443SBLP V0203001N001012200019N0112651N1+03301+02101999999ADDGA1021+009001999GF102991999999999999999999MA1100711999999REMMET051METAR SBLP 232000Z 30002KT 9999 FEW030 33/21 Q1007;
0120832880999992009102321004-13267-043417FM-15+0443SBLP V0209999C000012200019N0112651N1+03101+02201999999ADDGA1021+009001999GF102991999999999999999999MA1100811999999REMMET051METAR SBLP 232100Z 00000KT 9999 FEW030 31/22 Q1008;
0143832880999992009102410004-13267-043417FM-15+0443SBLP V0200301N001510300019N0112651N1+02301+02201999999ADDGA1021+006901999GA2071+030001999GF107991999999999999999999MA1101291999999REMMET058METAR SBLP 241000Z 03003KT 9999 FEW023 BKN100 23/22 Q1013;
0143832880999992009102411004-13267-043417FM-15+0443SBLP V0203301N002110300019N0112651N1+02301+02201999999ADDGA1041+006001999GA2071+030001999GF107991999999999999999999MA1101391999999REMMET058METAR SBLP 241100Z 33004KT 9999 SCT020 BKN100 23/22 Q1014;
0143832880999992009102412004-13267-043417FM-15+0443SBLP V0203501N001510300019N0112651N1+02501+02301999999ADDGA1041+006001999GA2071+030001999GF107991999999999999999999MA1101391999999REMMET058METAR SBLP 241200Z 35003KT 9999 SCT020 BKN100 25/23 Q1014;
0120832880999992009102413004-13267-043417FM-15+0443SBLP V0203501N002112200019N0112651N1+02701+02201999999ADDGA1041+006901999GF104991999999999999999999MA1101391999999REMMET051METAR SBLP 241300Z 35004KT 9999 SCT023 27/22 Q1014;
0120832880999992009102414004-13267-043417FM-15+0443SBLP V0203301N003112200019N0112651N1+02901+02201999999ADDGA1041+008101999GF104991999999999999999999MA1101291999999REMMET051METAR SBLP 241400Z 33006KT 9999 SCT027 29/22 Q1013;
0120832880999992009102415004-13267-043417FM-15+0443SBLP V0203301N003112200019N0112651N1+03001+02201999999ADDGA1041+009001999GF104991999999999999999999MA1101191999999REMMET051METAR SBLP 241500Z 33006KT 9999 SCT030 30/22 Q1012;
0143832880999992009102416004-13267-043417FM-15+0443SBLP V0203601N003112200019N0112651N1+03201+02201999999ADDGA1041+009001999GA2041+030001999GF104991999999999999999999MA1101021999999REMMET058METAR SBLP 241600Z 36006KT 9999 SCT030 SCT100 32/22 Q1010;
0143832880999992009102417004-13267-043417FM-15+0443SBLP V0203301N003112200019N0112651N1+03301+02101999999ADDGA1041+009001999GA2041+030001999GF104991999999999999999999MA1100911999999REMMET058METAR SBLP 241700Z 33006KT 9999 SCT030 SCT100 33/21 Q1009;
0143832880999992009102418004-13267-043417FM-15+0443SBLP V0203301N003110300019N0112651N1+03201+02101999999ADDGA1041+009001999GA2071+030001999GF107991999999999999999999MA1100911999999REMMET058METAR SBLP 241800Z 33006KT 9999 SCT030 BKN100 32/21 Q1009;
0143832880999992009102419004-13267-043417FM-15+0443SBLP V0203501N004110300019N0112651N1+03201+02201999999ADDGA1021+009001999GA2071+030001999GF107991999999999999999999MA1100811999999REMMET058METAR SBLP 241900Z 35008KT 9999 FEW030 BKN100 32/22 Q1008;
0143832880999992009102420004-13267-043417FM-15+0443SBLP V0203601N003110300019N0112651N1+03001+02201999999ADDGA1021+009001999GA2071+030001999GF107991999999999999999999MA1100911999999REMMET058METAR SBLP 242000Z 36006KT 9999 FEW030 BKN100 30/22 Q1009;
0143832880999992009102421004-13267-043417FM-15+0443SBLP V0200601N003110300019N0112651N1+02901+02301999999ADDGA1021+009001999GA2071+030001999GF107991999999999999999999MA1101021999999REMMET058METAR SBLP 242100Z 06006KT 9999 FEW030 BKN100 29/23 Q1010;
0143832880999992009102509064-13267-043417FM-16+0443SBLP V0203601N002610300019N0112651N1+02401+02101999999ADDGA1021+006901999GA2071+030001999GF107991999999999999999999MA1101191999999REMMET058SPECI SBLP 250906Z 36005KT 9999 FEW023 BKN100 24/21 Q1012;
0143832880999992009102510004-13267-043417FM-15+0443SBLP V0203501N003110300019N0112651N1+02501+02101999999ADDGA1021+006901999GA2071+030001999GF107991999999999999999999MA1101191999999REMMET058METAR SBLP 251000Z 35006KT 9999 FEW023 BKN100 25/21 Q1012;
0143832880999992009102511004-13267-043417FM-15+0443SBLP V0209999C000010300019N0112651N1+02501+02201999999ADDGA1021+006901999GA2071+030001999GF107991999999999999999999MA1101291999999REMMET058METAR SBLP 251100Z 00000KT 9999 FEW023 BKN100 25/22 Q1013;
0143832880999992009102512004-13267-043417FM-15+0443SBLP V0202701N002110300019N0112651N1+02501+02301999999ADDGA1041+006001999GA2071+030001999GF107991999999999999999999MA1101391999999REMMET058METAR SBLP 251200Z 27004KT 9999 SCT020 BKN100 25/23 Q1014;
0143832880999992009102513004-13267-043417FM-15+0443SBLP V0209999C000010300019N0112651N1+02601+02201999999ADDGA1021+006901999GA2071+030001999GF107991999999999999999999MA1101291999999REMMET058METAR SBLP 251300Z 00000KT 9999 FEW023 BKN100 26/22 Q1013;
0143832880999992009102514004-13267-043417FM-15+0443SBLP V0209999C000010300019N0112651N1+02601+02201999999ADDGA1041+006001999GA2071+030001999GF107991999999999999999999MA1101291999999REMMET058METAR SBLP 251400Z 00000KT 9999 SCT020 BKN100 26/22 Q1013;
0143832880999992009102515004-13267-043417FM-15+0443SBLP V0202501N001010300019N0112651N1+02701+02101999999ADDGA1021+006901999GA2071+030001999GF107991999999999999999999MA1101191999999REMMET058METAR SBLP 251500Z 25002KT 9999 FEW023 BKN100 27/21 Q1012;
0143832880999992009102516004-13267-043417FM-15+0443SBLP V0203601N003110300019N0112651N1+02801+02201999999ADDGA1021+006001999GA2071+030001999GF107991999999999999999999MA1101021999999REMMET058METAR SBLP 251600Z 36006KT 9999 FEW020 BKN100 28/22 Q1010;
0143832880999992009102517004-13267-043417FM-15+0443SBLP V0200301N003110300019N0112651N1+02901+02101999999ADDGA1021+006001999GA2071+030001999GF107991999999999999999999MA1100911999999REMMET058METAR SBLP 251700Z 03006KT 9999 FEW020 BKN100 29/21 Q1009;
0143832880999992009102519004-13267-043417FM-15+0443SBLP V0203601N003112200019N0112651N1+03301+02101999999ADDGA1021+009001999GA2041+030001999GF104991999999999999999999MA1100811999999REMMET058METAR SBLP 251900Z 36006KT 9999 FEW030 SCT100 33/21 Q1008;
0143832880999992009102520004-13267-043417FM-15+0443SBLP V0203601N003112200019N0112651N1+03001+02201999999ADDGA1021+009001999GA2041+030001999GF104991999999999999999999MA1100811999999REMMET058METAR SBLP 252000Z 36006KT 9999 FEW030 SCT100 30/22 Q1008;
0072832880999992009102521004-13267-043417FM-15+0443SBLP V0203501N002119999999Y0099001N1+02701+02301999999ADDMA1100811999999REMMET045METAR SBLP 252100Z 35004KT CAVOK 27/23 Q1008;
0153832880999992009102610004-13267-043417FM-15+0443SBLP V0200901N003110270019N0112651N1+02201+02201999999ADDGA1041+004501999GA2081+027001999GF108991999999999999999999MA1101291999999MW1611REMMET062METAR SBLP 261000Z 09006KT 9999 -RA SCT015 OVC090 22/22 Q1013;
0153832880999992009102611004-13267-043417FM-15+0443SBLP V0200601N003110300019N0090001N1+02301+02301999999ADDGA1041+004501999GA2071+030001999GF107991999999999999999999MA1101291999999MW1611REMMET062METAR SBLP 261100Z 06006KT 9000 -RA SCT015 BKN100 23/23 Q1013;
0143832880999992009102612004-13267-043417FM-15+0443SBLP V0200901N003110300019N0112651N1+02401+02401999999ADDGA1041+006001999GA2071+030001999GF107991999999999999999999MA1101291999999REMMET058METAR SBLP 261200Z 09006KT 9999 SCT020 BKN100 24/24 Q1013;
0143832880999992009102613004-13267-043417FM-15+0443SBLP V0200601N003110300019N0112651N1+02601+02301999999ADDGA1041+006001999GA2071+030001999GF107991999999999999999999MA1101291999999REMMET058METAR SBLP 261300Z 06006KT 9999 SCT020 BKN100 26/23 Q1013;
0143832880999992009102614004-13267-043417FM-15+0443SBLP V0203601N003110300019N0112651N1+02801+02401999999ADDGA1041+006001999GA2071+030001999GF107991999999999999999999MA1101291999999REMMET058METAR SBLP 261400Z 36006KT 9999 SCT020 BKN100 28/24 Q1013;
0143832880999992009102616004-13267-043417FM-15+0443SBLP V0200301N005110300019N0112651N1+03001+02301999999ADDGA1041+006001999GA2071+030001999GF107991999999999999999999MA1101081999999REMMET058METAR SBLP 261600Z 03010KT 9999 SCT020 BKN100 30/23 Q1011;
0143832880999992009102617004-13267-043417FM-15+0443SBLP V0203601N004110300019N0112651N1+03001+02301999999ADDGA1041+006001999GA2071+030001999GF107991999999999999999999MA1101021999999REMMET058METAR SBLP 261700Z 36008KT 9999 SCT020 BKN100 30/23 Q1010;
0143832880999992009102618004-13267-043417FM-15+0443SBLP V0200401N003110300019N0112651N1+03001+02301999999ADDGA1041+009001999GA2071+030001999GF107991999999999999999999MA1100911999999REMMET058METAR SBLP 261800Z 04006KT 9999 SCT030 BKN100 30/23 Q1009;
0120832880999992009102619004-13267-043417FM-15+0443SBLP V0203601N003112200019N0112651N1+03101+02101999999ADDGA1021+009001999GF102991999999999999999999MA1100811999999REMMET051METAR SBLP 261900Z 36006KT 9999 FEW030 31/21 Q1008;
0143832880999992009102620004-13267-043417FM-15+0443SBLP V0203601N002110300019N0112651N1+02901+02201999999ADDGA1021+009001999GA2071+030001999GF107991999999999999999999MA1100911999999REMMET058METAR SBLP 262000Z 36004KT 9999 FEW030 BKN100 29/22 Q1009;
0143832880999992009102621004-13267-043417FM-15+0443SBLP V0203601N002110300019N0112651N1+02801+02301999999ADDGA1021+009001999GA2071+030001999GF107991999999999999999999MA1100911999999REMMET058METAR SBLP 262100Z 36004KT 9999 FEW030 BKN100 28/23 Q1009;
0143832880999992009102709024-13267-043417FM-16+0443SBLP V0200301N002110300019N0112651N1+02401+02301999999ADDGA1041+006001999GA2071+030001999GF107991999999999999999999MA1101191999999REMMET058SPECI SBLP 270902Z 03004KT 9999 SCT020 BKN100 24/23 Q1012;
0143832880999992009102710004-13267-043417FM-15+0443SBLP V0203601N003110300019N0112651N1+02401+02301999999ADDGA1021+006001999GA2071+030001999GF107991999999999999999999MA1101191999999REMMET058METAR SBLP 271000Z 36006KT 9999 FEW020 BKN100 24/23 Q1012;
0072832880999992009102711004-13267-043417FM-15+0443SBLP V0203601N003119999999Y0099001N1+02601+02301999999ADDMA1101291999999REMMET045METAR SBLP 271100Z 36006KT CAVOK 26/23 Q1013;
0143832880999992009102713004-13267-043417FM-15+0443SBLP V0203601N005110300019N0112651N1+02801+02301999999ADDGA1041+006001999GA2071+030001999GF107991999999999999999999MA1101291999999REMMET058METAR SBLP 271300Z 36010KT 9999 SCT020 BKN100 28/23 Q1013;
0143832880999992009102714004-13267-043417FM-15+0443SBLP V0203601N003110300019N0112651N1+03001+02201999999ADDGA1041+006001999GA2071+030001999GF107991999999999999999999MA1101191999999REMMET058METAR SBLP 271400Z 36006KT 9999 SCT020 BKN100 30/22 Q1012;
0143832880999992009102715004-13267-043417FM-15+0443SBLP V0203301N004110300019N0112651N1+03001+02301999999ADDGA1041+009001999GA2071+030001999GF107991999999999999999999MA1101191999999REMMET058METAR SBLP 271500Z 33008KT 9999 SCT030 BKN100 30/23 Q1012;
0143832880999992009102716004-13267-043417FM-15+0443SBLP V0203601N003110300019N0112651N1+03001+02201999999ADDGA1041+009001999GA2071+030001999GF107991999999999999999999MA1101021999999REMMET058METAR SBLP 271600Z 36006KT 9999 SCT030 BKN100 30/22 Q1010;
0143832880999992009102717004-13267-043417FM-15+0443SBLP V0203601N003110300019N0112651N1+02901+02201999999ADDGA1041+009001999GA2071+030001999GF107991999999999999999999MA1100911999999REMMET058METAR SBLP 271700Z 36006KT 9999 SCT030 BKN100 29/22 Q1009;
0143832880999992009102719004-13267-043417FM-15+0443SBLP V0203601N003110300019N0112651N1+02901+02101999999ADDGA1041+009001999GA2071+030001999GF107991999999999999999999MA1100911999999REMMET058METAR SBLP 271900Z 36006KT 9999 SCT030 BKN100 29/21 Q1009;
0143832880999992009102720004-13267-043417FM-15+0443SBLP V0203601N003110300019N0112651N1+02801+02101999999ADDGA1041+009001999GA2071+030001999GF107991999999999999999999MA1101021999999REMMET058METAR SBLP 272000Z 36006KT 9999 SCT030 BKN100 28/21 Q1010;
0143832880999992009102721004-13267-043417FM-15+0443SBLP V0203601N003110300019N0112651N1+02601+02101999999ADDGA1041+009001999GA2071+030001999GF107991999999999999999999MA1101081999999REMMET058METAR SBLP 272100Z 36006KT 9999 SCT030 BKN100 26/21 Q1011;
0153832880999992009102809084-13267-043417FM-16+0443SBLP V0203601N002110045019N0112651N1+02301+02201999999ADDGA1071+004501999GA2071+030001999GF107991999999999999999999MA1101291999999MW1611REMMET062SPECI SBLP 280908Z 36004KT 9999 -RA BKN015 BKN100 23/22 Q1013;
0186832880999992009102810004-13267-043417FM-15+0443SBLP V0209999C000010045019N0060001N1+02301+02201999999ADDGA1071+004501999GA2021+009001091GA3081+030001999GF108991999999999999999999MA1101291999999MW1801MW2951REMMET073METAR SBLP 281000Z 00000KT 6000 -TSRA BKN015 FEW030CB OVC100 23/22 Q1013;
0153832880999992009102811004-13267-043417FM-15+0443SBLP V0209999C000010045019N0112651N1+02401+02301999999ADDGA1071+004501999GA2071+030001999GF107991999999999999999999MA1101391999999MW1611REMMET062METAR SBLP 281100Z 00000KT 9999 -RA BKN015 BKN100 24/23 Q1014;
0143832880999992009102812004-13267-043417FM-15+0443SBLP V0209999C000010300019N0112651N1+02501+02201999999ADDGA1041+006001999GA2071+030001999GF107991999999999999999999MA1101391999999REMMET058METAR SBLP 281200Z 00000KT 9999 SCT020 BKN100 25/22 Q1014;
0143832880999992009102813004-13267-043417FM-15+0443SBLP V0203301N001510300019N0112651N1+02601+02301999999ADDGA1041+006001999GA2071+030001999GF107991999999999999999999MA1101391999999REMMET058METAR SBLP 281300Z 33003KT 9999 SCT020 BKN100 26/23 Q1014;
0148832880999992009102814004-13267-043417FM-15+0443SBLP V0200301N003110300019N0112651N1+02801+02301999999ADDGA1021+006001999GA2071+030001999GF107991999999999999999999MA1101291999999REMMET063METAR SBLP 281400Z 03006KT 9999 FEW020 BKN100 28/23 Q1013 RERA;
0143832880999992009102815004-13267-043417FM-15+0443SBLP V0203301N003112200019N0112651N1+02901+02301999999ADDGA1021+009001999GA2041+090001999GF104991999999999999999999MA1101191999999REMMET058METAR SBLP 281500Z 33006KT 9999 FEW030 SCT300 29/23 Q1012;
0143832880999992009102816004-13267-043417FM-15+0443SBLP V0203601N003112200019N0112651N1+03001+02201999999ADDGA1021+009001999GA2041+090001999GF104991999999999999999999MA1101021999999REMMET058METAR SBLP 281600Z 36006KT 9999 FEW030 SCT300 30/22 Q1010;
0120832880999992009102817004-13267-043417FM-15+0443SBLP V0203601N003112200019N0112651N1+03001+02101999999ADDGA1041+009001999GF104991999999999999999999MA1100911999999REMMET051METAR SBLP 281700Z 36006KT 9999 SCT030 30/21 Q1009;
0143832880999992009102818004-13267-043417FM-15+0443SBLP V0203601N003112200019N0112651N1+02901+02101999999ADDGA1041+009001999GA2041+030001999GF104991999999999999999999MA1100911999999REMMET058METAR SBLP 281800Z 36006KT 9999 SCT030 SCT100 29/21 Q1009;
0143832880999992009102819004-13267-043417FM-15+0443SBLP V0203601N003110300019N0112651N1+02801+02101999999ADDGA1041+009001999GA2071+030001999GF107991999999999999999999MA1100911999999REMMET058METAR SBLP 281900Z 36006KT 9999 SCT030 BKN100 28/21 Q1009;
0143832880999992009102820004-13267-043417FM-15+0443SBLP V0203601N003110300019N0112651N1+02701+02101999999ADDGA1041+009001999GA2071+030001999GF107991999999999999999999MA1100911999999REMMET058METAR SBLP 282000Z 36006KT 9999 SCT030 BKN100 27/21 Q1009;
0178832880999992009102821004-13267-043417FM-15+0443SBLP V0203601N00311012001CN0090001N1+02501+02101999999ADDGA1041+009001999GA2021+012001091GA3071+030001999GF107991999999999999999999MA1101021999999MW1611REMMET071METAR SBLP 282100Z 36006KT 9000 -RA SCT030 FEW040CB BKN100 25/21 Q1010;
0153832880999992009102910004-13267-043417FM-15+0443SBLP V0209999C000010300019N0090001N1+02201+02101999999ADDGA1041+003001999GA2071+030001999GF107991999999999999999999MA1101291999999MW1611REMMET062METAR SBLP 291000Z 00000KT 9000 -RA SCT010 BKN100 22/21 Q1013;
0153832880999992009102911004-13267-043417FM-15+0443SBLP V0209999C000010300019N0090001N1+02201+02101999999ADDGA1041+003001999GA2081+030001999GF108991999999999999999999MA1101291999999MW1611REMMET062METAR SBLP 291100Z 00000KT 9000 -RA SCT010 OVC100 22/21 Q1013;
0153832880999992009102912004-13267-043417FM-15+0443SBLP V0209999C000010300019N0090001N1+02201+02101999999ADDGA1041+003001999GA2081+030001999GF108991999999999999999999MA1101291999999MW1611REMMET062METAR SBLP 291200Z 00000KT 9000 -RA SCT010 OVC100 22/21 Q1013;
0153832880999992009102913004-13267-043417FM-15+0443SBLP V0209999C000010300019N0090001N1+02201+02101999999ADDGA1041+003001999GA2081+030001999GF108991999999999999999999MA1101291999999MW1611REMMET062METAR SBLP 291300Z 00000KT 9000 -RA SCT010 OVC100 22/21 Q1013;
0120832880999992009102914004-13267-043417FM-15+0443SBLP V0209999C000010300019N0112651N1+02401+02101999999ADDGA1071+030001999GF107991999999999999999999MA1101291999999REMMET051METAR SBLP 291400Z 00000KT 9999 BKN100 24/21 Q1013;
0143832880999992009102915004-13267-043417FM-15+0443SBLP V0203601N003110300019N0112651N1+02501+02101999999ADDGA1041+004501999GA2071+030001999GF107991999999999999999999MA1101191999999REMMET058METAR SBLP 291500Z 36006KT 9999 SCT015 BKN100 25/21 Q1012;
0143832880999992009102916004-13267-043417FM-15+0443SBLP V0200301N001010300019N0112651N1+02801+02301999999ADDGA1021+006001999GA2071+030001999GF107991999999999999999999MA1101081999999REMMET058METAR SBLP 291600Z 03002KT 9999 FEW020 BKN100 28/23 Q1011;
0143832880999992009102918004-13267-043417FM-15+0443SBLP V0209999C000010300019N0112651N1+02801+02201999999ADDGA1021+008101999GA2071+030001999GF107991999999999999999999MA1101021999999REMMET058METAR SBLP 291800Z 00000KT 9999 FEW027 BKN100 28/22 Q1010;
0143832880999992009102919004-13267-043417FM-15+0443SBLP V0209999C000010300019N0112651N1+02801+02101999999ADDGA1021+008101999GA2071+030001999GF107991999999999999999999MA1100911999999REMMET058METAR SBLP 291900Z 00000KT 9999 FEW027 BKN100 28/21 Q1009;
0143832880999992009102920004-13267-043417FM-15+0443SBLP V0209999C000010300019N0112651N1+02801+02201999999ADDGA1021+008101999GA2071+030001999GF107991999999999999999999MA1100911999999REMMET058METAR SBLP 292000Z 00000KT 9999 FEW027 BKN100 28/22 Q1009;
0143832880999992009102921004-13267-043417FM-15+0443SBLP V0209999C000010300019N0112651N1+02801+02301999999ADDGA1021+006901999GA2071+030001999GF107991999999999999999999MA1101021999999REMMET058METAR SBLP 292100Z 00000KT 9999 FEW023 BKN100 28/23 Q1010;
0154832880999992009103009114-13267-043417FM-16+0443SBLP V0209999C000010300019N0050001N1+02701+02701999999ADDGA1041+006001999GA2071+030001999GF107991999999999999999999MA1101901999999MW1411REMMET063SPECI SBLP 300911Z 00000KT 5000 BCFG SCT020 BKN100 27/27 Q1019;
0162832880999992009103010004-13267-043417FM-15+0443SBLP V0202101N003110300019N0112651N1+02801+02801999999ADDGA1041+006901999GA2071+030001999GF107991999999999999999999MA1101022999999REMMET058METAR SBLP 301000Z 21006KT 9999 SCT023 BKN100 28/28 Q1010;EQDQ01+101023APOA  
0143832880999992009103011004-13267-043417FM-15+0443SBLP V0202101N002610300019N0112651N1+02301+02201999999ADDGA1041+003001999GA2071+030001999GF107991999999999999999999MA1101081999999REMMET058METAR SBLP 301100Z 21005KT 9999 SCT010 BKN100 23/22 Q1011;
0143832880999992009103012004-13267-043417FM-15+0443SBLP V0202001N002110300019N0112651N1+02401+02201999999ADDGA1041+004501999GA2071+030001999GF107991999999999999999999MA1101191999999REMMET058METAR SBLP 301200Z 20004KT 9999 SCT015 BKN100 24/22 Q1012;
0143832880999992009103013004-13267-043417FM-15+0443SBLP V0201801N002610300019N0112651N1+02501+02201999999ADDGA1041+004501999GA2071+030001999GF107991999999999999999999MA1101081999999REMMET058METAR SBLP 301300Z 18005KT 9999 SCT015 BKN100 25/22 Q1011;
0143832880999992009103014004-13267-043417FM-15+0443SBLP V0201801N003110300019N0112651N1+02601+02201999999ADDGA1041+004501999GA2071+030001999GF107991999999999999999999MA1101081999999REMMET058METAR SBLP 301400Z 18006KT 9999 SCT015 BKN100 26/22 Q1011;
0143832880999992009103015004-13267-043417FM-15+0443SBLP V0201201N001510300019N0112651N1+02701+02201999999ADDGA1041+004501999GA2071+030001999GF107991999999999999999999MA1101021999999REMMET058METAR SBLP 301500Z 12003KT 9999 SCT015 BKN100 27/22 Q1010;
0143832880999992009103016004-13267-043417FM-15+0443SBLP V0209999C000010300019N0112651N1+02701+02201999999ADDGA1041+006001999GA2071+030001999GF107991999999999999999999MA1100811999999REMMET058METAR SBLP 301600Z 00000KT 9999 SCT020 BKN100 27/22 Q1008;
0143832880999992009103017004-13267-043417FM-15+0443SBLP V0209999C000010300019N0112651N1+02701+02201999999ADDGA1041+006001999GA2071+030001999GF107991999999999999999999MA1100811999999REMMET058METAR SBLP 301700Z 00000KT 9999 SCT020 BKN100 27/22 Q1008;
0143832880999992009103018004-13267-043417FM-15+0443SBLP V0209999C000010300019N0112651N1+02701+02301999999ADDGA1041+006001999GA2071+030001999GF107991999999999999999999MA1100811999999REMMET058METAR SBLP 301800Z 00000KT 9999 SCT020 BKN100 27/23 Q1008;
0153832880999992009103019004-13267-043417FM-15+0443SBLP V0201801N002110300019N0090001N1+02601+02301999999ADDGA1041+006001999GA2071+030001999GF107991999999999999999999MA1100711999999MW1611REMMET062METAR SBLP 301900Z 18004KT 9000 -RA SCT020 BKN100 26/23 Q1007;
0143832880999992009103020004-13267-043417FM-15+0443SBLP V0202101N002110300019N0112651N1+02401+02401999999ADDGA1041+006001999GA2071+030001999GF107991999999999999999999MA1100811999999REMMET058METAR SBLP 302000Z 21004KT 9999 SCT020 BKN100 24/24 Q1008;
0153832880999992009103021004-13267-043417FM-15+0443SBLP V0200901N002110300019N0090001N1+02401+02401999999ADDGA1041+004501999GA2071+030001999GF107991999999999999999999MA1100911999999MW1611REMMET062METAR SBLP 302100Z 09004KT 9000 -RA SCT015 BKN100 24/24 Q1009;
0153832880999992009103109084-13267-043417FM-16+0443SBLP V0209999C000010045019N0112651N1+02101+02101999999ADDGA1071+004501999GA2071+030001999GF107991999999999999999999MA1101291999999MW1611REMMET062SPECI SBLP 310908Z 00000KT 9999 -RA BKN015 BKN100 21/21 Q1013;
0153832880999992009103110004-13267-043417FM-15+0443SBLP V0201501N001510240019N0112651N1+02101+02101999999ADDGA1041+003001999GA2081+024001999GF108991999999999999999999MA1101291999999MW1611REMMET062METAR SBLP 311000Z 15003KT 9999 -RA SCT010 OVC083 21/21 Q1013;
0143832880999992009103111004-13267-043417FM-15+0443SBLP V0201501N001510240019N0112651N1+02201+02101999999ADDGA1041+003001999GA2081+024001999GF108991999999999999999999MA1101391999999REMMET058METAR SBLP 311100Z 15003KT 9999 SCT010 OVC083 22/21 Q1014;
0143832880999992009103112004-13267-043417FM-15+0443SBLP V0200901N001510045019N0112651N1+02301+02201999999ADDGA1071+004501999GA2071+030001999GF107991999999999999999999MA1101391999999REMMET058METAR SBLP 311200Z 09003KT 9999 BKN015 BKN100 23/22 Q1014;
0143832880999992009103113004-13267-043417FM-15+0443SBLP V0209999C000010045019N0112651N1+02401+02101999999ADDGA1071+004501999GA2071+030001999GF107991999999999999999999MA1101391999999REMMET058METAR SBLP 311300Z 00000KT 9999 BKN015 BKN100 24/21 Q1014;
0143832880999992009103114004-13267-043417FM-15+0443SBLP V0209999C000010300019N0112651N1+02601+02201999999ADDGA1041+006001999GA2071+030001999GF107991999999999999999999MA1101291999999REMMET058METAR SBLP 311400Z 00000KT 9999 SCT020 BKN100 26/22 Q1013;
0143832880999992009103115004-13267-043417FM-15+0443SBLP V0209999C000010300019N0112651N1+02701+02101999999ADDGA1041+006001999GA2071+030001999GF107991999999999999999999MA1101291999999REMMET058METAR SBLP 311500Z 00000KT 9999 SCT020 BKN100 27/21 Q1013;
0143832880999992009103116004-13267-043417FM-15+0443SBLP V0209999C000010300019N0112651N1+02801+02201999999ADDGA1041+006001999GA2071+030001999GF107991999999999999999999MA1101081999999REMMET058METAR SBLP 311600Z 00000KT 9999 SCT020 BKN100 28/22 Q1011;
0143832880999992009103117004-13267-043417FM-15+0443SBLP V0203601N001510300019N0112651N1+02901+02201999999ADDGA1041+006001999GA2071+030001999GF107991999999999999999999MA1101021999999REMMET058METAR SBLP 311700Z 36003KT 9999 SCT020 BKN100 29/22 Q1010;
0143832880999992009103118004-13267-043417FM-15+0443SBLP V0209999C000010300019N0112651N1+02901+02201999999ADDGA1041+006001999GA2071+030001999GF107991999999999999999999MA1100911999999REMMET058METAR SBLP 311800Z 00000KT 9999 SCT020 BKN100 29/22 Q1009;
0143832880999992009103119004-13267-043417FM-15+0443SBLP V0209999C000010300019N0112651N1+02801+02301999999ADDGA1021+006001999GA2071+030001999GF107991999999999999999999MA1100911999999REMMET058METAR SBLP 311900Z 00000KT 9999 FEW020 BKN100 28/23 Q1009;
0143832880999992009103120004-13267-043417FM-15+0443SBLP V0209999C000010300019N0112651N1+02701+02301999999ADDGA1021+006001999GA2071+030001999GF107991999999999999999999MA1100911999999REMMET058METAR SBLP 312000Z 00000KT 9999 FEW020 BKN100 27/23 Q1009;
0143832880999992009103121004-13267-043417FM-15+0443SBLP V0209999C000010300019N0112651N1+02601+02301999999ADDGA1021+006001999GA2071+030001999GF107991999999999999999999MA1100911999999REMMET058METAR SBLP 312100Z 00000KT 9999 FEW020 BKN100 26/23 Q1009;
0143832880999992009110109144-13267-043417FM-16+0443SBLP V0201801N003110300019N0112651N1+02201+02201999999ADDGA1041+004501999GA2071+030001999GF107991999999999999999999MA1101081999999REMMET058SPECI SBLP 010914Z 18006KT 9999 SCT015 BKN100 22/22 Q1011;
0143832880999992009110110004-13267-043417FM-15+0443SBLP V0201801N003110300019N0112651N1+02301+02301999999ADDGA1041+004501999GA2071+030001999GF107991999999999999999999MA1101191999999REMMET058METAR SBLP 011000Z 18006KT 9999 SCT015 BKN100 23/23 Q1012;
0143832880999992009110111004-13267-043417FM-15+0443SBLP V0201601N003110300019N0112651N1+02401+02201999999ADDGA1041+004501999GA2071+030001999GF107991999999999999999999MA1101291999999REMMET058METAR SBLP 011100Z 16006KT 9999 SCT015 BKN100 24/22 Q1013;
0143832880999992009110112004-13267-043417FM-15+0443SBLP V0201801N003110300019N0112651N1+02501+02201999999ADDGA1021+006001999GA2071+030001999GF107991999999999999999999MA1101391999999REMMET058METAR SBLP 011200Z 18006KT 9999 FEW020 BKN100 25/22 Q1014;
0143832880999992009110113004-13267-043417FM-15+0443SBLP V0201801N003110300019N0112651N1+02701+02101999999ADDGA1021+006001999GA2071+030001999GF107991999999999999999999MA1101391999999REMMET058METAR SBLP 011300Z 18006KT 9999 FEW020 BKN100 27/21 Q1014;
0143832880999992009110114004-13267-043417FM-15+0443SBLP V0201801N003110300019N0112651N1+02901+02101999999ADDGA1021+006001999GA2071+030001999GF107991999999999999999999MA1101291999999REMMET058METAR SBLP 011400Z 18006KT 9999 FEW020 BKN100 29/21 Q1013;
0143832880999992009110115004-13267-043417FM-15+0443SBLP V0201801N003110300019N0112651N1+03001+02101999999ADDGA1021+006001999GA2071+030001999GF107991999999999999999999MA1101291999999REMMET058METAR SBLP 011500Z 18006KT 9999 FEW020 BKN100 30/21 Q1013;
0120832880999992009110116004-13267-043417FM-15+0443SBLP V0201901N003112200019N0112651N1+03001+02301999999ADDGA1041+009001999GF104991999999999999999999MA1101081999999REMMET051METAR SBLP 011600Z 19006KT 9999 SCT030 30/23 Q1011;
0120832880999992009110117004-13267-043417FM-15+0443SBLP V0209999C000012200019N0112651N1+03201+02301999999ADDGA1041+009001999GF104991999999999999999999MA1101081999999REMMET051METAR SBLP 011700Z 00000KT 9999 SCT030 32/23 Q1011;
0177832880999992009110118004-13267-043417FM-15+0443SBLP V0201701N001510300019N0112651N1+03001+02201999999ADDGA1021+009001091GA2041+009001999GA3071+030001999GF107991999999999999999999MA1101021999999MW1171REMMET070METAR SBLP 011800Z 17003KT 9999 TS SCT030 FEW030CB BKN100 30/22 Q1010;
0143832880999992009110119004-13267-043417FM-15+0443SBLP V0201501N002110300019N0112651N1+02601+02001999999ADDGA1041+009001999GA2071+030001999GF107991999999999999999999MA1101021999999REMMET058METAR SBLP 011900Z 15004KT 9999 SCT030 BKN100 26/20 Q1010;
0143832880999992009110120004-13267-043417FM-15+0443SBLP V0202301N006210300019N0112651N1+02401+02101999999ADDGA1041+009001999GA2071+030001999GF107991999999999999999999MA1101191999999REMMET058METAR SBLP 012000Z 23012KT 9999 SCT030 BKN100 24/21 Q1012;
0143832880999992009110121004-13267-043417FM-15+0443SBLP V0202501N004110300019N0112651N1+02301+02001999999ADDGA1021+009001999GA2071+030001999GF107991999999999999999999MA1101291999999REMMET058METAR SBLP 012100Z 25008KT 9999 FEW030 BKN100 23/20 Q1013;
0072832880999992009110210004-13267-043417FM-15+0443SBLP V0209999C000019999999Y0099001N1+02201+02101999999ADDMA1101491999999REMMET045METAR SBLP 021000Z 00000KT CAVOK 22/21 Q1015;
0072832880999992009110211004-13267-043417FM-15+0443SBLP V0209999C000019999999Y0099001N1+02501+02101999999ADDMA1101491999999REMMET045METAR SBLP 021100Z 00000KT CAVOK 25/21 Q1015;
0072832880999992009110212004-13267-043417FM-15+0443SBLP V0209999C000019999999Y0099001N1+02701+02201999999ADDMA1101491999999REMMET045METAR SBLP 021200Z 00000KT CAVOK 27/22 Q1015;
0143832880999992009110213004-13267-043417FM-15+0443SBLP V0209999C000012200019N0112651N1+02901+02201999999ADDGA1021+009001999GA2041+030001999GF104991999999999999999999MA1101491999999REMMET058METAR SBLP 021300Z 00000KT 9999 FEW030 SCT100 29/22 Q1015;
0120832880999992009110214004-13267-043417FM-15+0443SBLP V0201501N002112200019N0112651N1+03001+02101999999ADDGA1021+009001999GF102991999999999999999999MA1101391999999REMMET051METAR SBLP 021400Z 15004KT 9999 FEW030 30/21 Q1014;
0120832880999992009110215004-13267-043417FM-15+0443SBLP V0201801N002112200019N0112651N1+03101+02001999999ADDGA1021+009001999GF102991999999999999999999MA1101291999999REMMET051METAR SBLP 021500Z 18004KT 9999 FEW030 31/20 Q1013;
0120832880999992009110217004-13267-043417FM-15+0443SBLP V0202701N003112200019N0112651N1+03301+01901999999ADDGA1041+009001999GF104991999999999999999999MA1101081999999REMMET051METAR SBLP 021700Z 27006KT 9999 SCT030 33/19 Q1011;
0120832880999992009110218004-13267-043417FM-15+0443SBLP V0202701N003112200019N0112651N1+03401+01901999999ADDGA1041+009001999GF104991999999999999999999MA1101081999999REMMET051METAR SBLP 021800Z 27006KT 9999 SCT030 34/19 Q1011;
0120832880999992009110219004-13267-043417FM-15+0443SBLP V0202701N003112200019N0112651N1+03401+01901999999ADDGA1041+009001999GF104991999999999999999999MA1101021999999REMMET051METAR SBLP 021900Z 27006KT 9999 SCT030 34/19 Q1010;
0120832880999992009110220004-13267-043417FM-15+0443SBLP V0203601N003112200019N0112651N1+03301+01901999999ADDGA1041+009001999GF104991999999999999999999MA1101021999999REMMET051METAR SBLP 022000Z 36006KT 9999 SCT030 33/19 Q1010;
0120832880999992009110221004-13267-043417FM-15+0443SBLP V0200901N003112200019N0112651N1+03101+02001999999ADDGA1041+009001999GF104991999999999999999999MA1101081999999REMMET051METAR SBLP 022100Z 09006KT 9999 SCT030 31/20 Q1011;
0072832880999992009110310004-13267-043417FM-15+0443SBLP V0209999C000019999999Y0099001N1+02601+02101999999ADDMA1101291999999REMMET045METAR SBLP 031000Z 00000KT CAVOK 26/21 Q1013;
0072832880999992009110311004-13267-043417FM-15+0443SBLP V0209999C000019999999Y0099001N1+02801+02001999999ADDMA1101291999999REMMET045METAR SBLP 031100Z 00000KT CAVOK 28/20 Q1013;
0143832880999992009110312004-13267-043417FM-15+0443SBLP V0200901N003112200019N0112651N1+02801+02001999999ADDGA1021+006001999GA2041+030001999GF104991999999999999999999MA1101391999999REMMET058METAR SBLP 031200Z 09006KT 9999 FEW020 SCT100 28/20 Q1014;
0143832880999992009110313004-13267-043417FM-15+0443SBLP V0200901N003110300019N0112651N1+03001+02001999999ADDGA1021+006001999GA2071+030001999GF107991999999999999999999MA1101391999999REMMET058METAR SBLP 031300Z 09006KT 9999 FEW020 BKN100 30/20 Q1014;
0143832880999992009110314004-13267-043417FM-15+0443SBLP V0200901N003110300019N0112651N1+03001+02001999999ADDGA1041+009001999GA2071+030001999GF107991999999999999999999MA1101391999999REMMET058METAR SBLP 031400Z 09006KT 9999 SCT030 BKN100 30/20 Q1014;
0143832880999992009110315004-13267-043417FM-15+0443SBLP V0200901N003112200019N0112651N1+03001+02001999999ADDGA1041+009001999GA2041+030001999GF104991999999999999999999MA1101291999999REMMET058METAR SBLP 031500Z 09006KT 9999 SCT030 SCT100 30/20 Q1013;
0143832880999992009110316004-13267-043417FM-15+0443SBLP V0200301N002112200019N0112651N1+03101+01901999999ADDGA1021+009001999GA2041+030001999GF104991999999999999999999MA1101081999999REMMET058METAR SBLP 031600Z 03004KT 9999 FEW030 SCT100 31/19 Q1011;
0120832880999992009110317004-13267-043417FM-15+0443SBLP V0202701N001512200019N0112651N1+03101+02101999999ADDGA1021+009001999GF102991999999999999999999MA1101081999999REMMET051METAR SBLP 031700Z 27003KT 9999 FEW030 31/21 Q1011;
0180832880999992009110318004-13267-043417FM-15+0443SBLP V0201501N004112200019N0080001N1+02901+02101999999ADDGA1041+009001999GA2021+012001021GA3041+030001999GF104991999999999999999999MA1101021999999MW1161REMMET073METAR SBLP 031800Z 15008KT 8000 VCSH SCT030 FEW040TCU SCT100 29/21 Q1010;
0143832880999992009110319004-13267-043417FM-15+0443SBLP V0209999C000010300019N0112651N1+02801+02201999999ADDGA1021+009001999GA2071+030001999GF107991999999999999999999MA1101021999999REMMET058METAR SBLP 031900Z 00000KT 9999 FEW030 BKN100 28/22 Q1010;
0143832880999992009110320004-13267-043417FM-15+0443SBLP V0203201N001012200019N0112651N1+02801+02201999999ADDGA1021+009001999GA2041+030001999GF104991999999999999999999MA1100911999999REMMET058METAR SBLP 032000Z 32002KT 9999 FEW030 SCT100 28/22 Q1009;
0143832880999992009110321004-13267-043417FM-15+0443SBLP V0202301N002110900019N0112651N1+02701+02201999999ADDGA1021+009001999GA2071+090001999GF107991999999999999999999MA1101021999999REMMET058METAR SBLP 032100Z 23004KT 9999 FEW030 BKN300 27/22 Q1010;
0072832880999992009110410004-13267-043417FM-15+0443SBLP V0200301N001519999999Y0099001N1+02501+01901999999ADDMA1101391999999REMMET045METAR SBLP 041000Z 03003KT CAVOK 25/19 Q1014;
0072832880999992009110411004-13267-043417FM-15+0443SBLP V0200601N001019999999Y0099001N1+02801+01801999999ADDMA1101491999999REMMET045METAR SBLP 041100Z 06002KT CAVOK 28/18 Q1015;
0120832880999992009110412004-13267-043417FM-15+0443SBLP V0201101N002612200019N0112651N1+02901+01701999999ADDGA1021+009001999GF102991999999999999999999MA1101491999999REMMET051METAR SBLP 041200Z 11005KT 9999 FEW030 29/17 Q1015;
0072832880999992009110413004-13267-043417FM-15+0443SBLP V0200901N001519999999Y0099001N1+03001+01801999999ADDMA1101491999999REMMET045METAR SBLP 041300Z 09003KT CAVOK 30/18 Q1015;
0064832880999992009110414004-13267-043417FM-15+0443SBLP V02099999999999999999Y0099001N1+03101+01901999999ADDMA1101491999999REMMET037METAR SBLP 041400Z CAVOK 31/19 Q1015;
0073832880999992009110415004-13267-043417FM-15+0443SBLP V0201801N002112200019N9999999N1+03201+01901999999ADDMA1101401999999REMMET046METAR SBLP 041500Z 18004KT FEW030 32/19 Q1014;
0080832880999992009110416004-13267-043417FM-15+0443SBLP V0209999C000012200019N9999999N1+03201+01901999999ADDMA1101301999999REMMET053METAR SBLP 041600Z 00000KT FEW030 SCT100 32/19 Q1013;
0143832880999992009110417004-13267-043417FM-15+0443SBLP V0209999C000010300019N0112651N1+03201+01901999999ADDGA1041+009001999GA2071+030001999GF107991999999999999999999MA1101191999999REMMET058METAR SBLP 041700Z 00000KT 9999 SCT030 BKN100 32/19 Q1012;
0143832880999992009110418004-13267-043417FM-15+0443SBLP V0209999C000010300019N0112651N1+03301+01801999999ADDGA1041+009001999GA2071+030001999GF107991999999999999999999MA1101081999999REMMET058METAR SBLP 041800Z 00000KT 9999 SCT030 BKN100 33/18 Q1011;
0143832880999992009110419004-13267-043417FM-15+0443SBLP V0209999C000012200019N0112651N1+03201+01801999999ADDGA1021+009001999GA2041+030001999GF104991999999999999999999MA1101081999999REMMET058METAR SBLP 041900Z 00000KT 9999 FEW030 SCT100 32/18 Q1011;
0143832880999992009110420004-13267-043417FM-15+0443SBLP V0209999C000012200019N0112651N1+03101+01801999999ADDGA1021+009001999GA2041+030001999GF104991999999999999999999MA1101081999999REMMET058METAR SBLP 042000Z 00000KT 9999 FEW030 SCT100 31/18 Q1011;
0143832880999992009110421004-13267-043417FM-15+0443SBLP V0209999C000012200019N0112651N1+02901+01901999999ADDGA1021+009001999GA2041+030001999GF104991999999999999999999MA1101191999999REMMET058METAR SBLP 042100Z 00000KT 9999 FEW030 SCT100 29/19 Q1012;
0072832880999992009110511004-13267-043417FM-15+0443SBLP V0200401N003119999999Y0099001N1+02701+01901999999ADDMA1101691999999REMMET045METAR SBLP 051100Z 04006KT CAVOK 27/19 Q1017;
0072832880999992009110512004-13267-043417FM-15+0443SBLP V0200901N003119999999Y0099001N1+02901+01901999999ADDMA1101691999999REMMET045METAR SBLP 051200Z 09006KT CAVOK 29/19 Q1017;
0072832880999992009110513004-13267-043417FM-15+0443SBLP V0200901N003119999999Y0099001N1+03001+01901999999ADDMA1101691999999REMMET045METAR SBLP 051300Z 09006KT CAVOK 30/19 Q1017;
0143832880999992009110514004-13267-043417FM-15+0443SBLP V0209999C000012200019N0112651N1+03101+01901999999ADDGA1021+009001999GA2041+030001999GF104991999999999999999999MA1101691999999REMMET058METAR SBLP 051400Z 00000KT 9999 FEW030 SCT100 31/19 Q1017;
0143832880999992009110515004-13267-043417FM-15+0443SBLP V0200401N003112200019N0112651N1+03101+01901999999ADDGA1021+009001999GA2041+030001999GF104991999999999999999999MA1101591999999REMMET058METAR SBLP 051500Z 04006KT 9999 FEW030 SCT100 31/19 Q1016;
0120832880999992009110516004-13267-043417FM-15+0443SBLP V0203601N001512200019N0112651N1+03201+02001999999ADDGA1041+009001999GF104991999999999999999999MA1101491999999REMMET051METAR SBLP 051600Z 36003KT 9999 SCT030 32/20 Q1015;
0120832880999992009110517004-13267-043417FM-15+0443SBLP V0200301N003112200019N0112651N1+03201+01901999999ADDGA1041+009001999GF104991999999999999999999MA1101391999999REMMET051METAR SBLP 051700Z 03006KT 9999 SCT030 32/19 Q1014;
0120832880999992009110518004-13267-043417FM-15+0443SBLP V0209999C000012200019N0112651N1+03101+01901999999ADDGA1041+009001999GF104991999999999999999999MA1101391999999REMMET051METAR SBLP 051800Z 00000KT 9999 SCT030 31/19 Q1014;
0120832880999992009110519004-13267-043417FM-15+0443SBLP V0203301N003112200019N0112651N1+03301+01901999999ADDGA1021+009001999GF102991999999999999999999MA1101291999999REMMET051METAR SBLP 051900Z 33006KT 9999 FEW030 33/19 Q1013;
0120832880999992009110520004-13267-043417FM-15+0443SBLP V0209999C000012200019N0112651N1+03101+02001999999ADDGA1021+009001999GF102991999999999999999999MA1101291999999REMMET051METAR SBLP 052000Z 00000KT 9999 FEW030 31/20 Q1013;
0120832880999992009110521004-13267-043417FM-15+0443SBLP V0209999C000012200019N0112651N1+02901+02001999999ADDGA1021+009001999GF102991999999999999999999MA1101291999999REMMET051METAR SBLP 052100Z 00000KT 9999 FEW030 29/20 Q1013;
0072832880999992009110610004-13267-043417FM-15+0443SBLP V0201801N002119999999Y0099001N1+02301+01901999999ADDMA1101491999999REMMET045METAR SBLP 061000Z 18004KT CAVOK 23/19 Q1015;
0072832880999992009110611004-13267-043417FM-15+0443SBLP V0201201N002119999999Y0099001N1+02501+02001999999ADDMA1101591999999REMMET045METAR SBLP 061100Z 12004KT CAVOK 25/20 Q1016;
0072832880999992009110612004-13267-043417FM-15+0443SBLP V0201201N002119999999Y0099001N1+02701+02001999999ADDMA1101591999999REMMET045METAR SBLP 061200Z 12004KT CAVOK 27/20 Q1016;
0072832880999992009110613004-13267-043417FM-15+0443SBLP V0201501N002119999999Y0099001N1+02801+01901999999ADDMA1101591999999REMMET045METAR SBLP 061300Z 15004KT CAVOK 28/19 Q1016;
0072832880999992009110614004-13267-043417FM-15+0443SBLP V0201201N003119999999Y0099001N1+02801+01901999999ADDMA1101591999999REMMET045METAR SBLP 061400Z 12006KT CAVOK 28/19 Q1016;
0072832880999992009110615004-13267-043417FM-15+0443SBLP V0201401N002119999999Y0099001N1+03001+02001999999ADDMA1101491999999REMMET045METAR SBLP 061500Z 14004KT CAVOK 30/20 Q1015;
0120832880999992009110616004-13267-043417FM-15+0443SBLP V0201801N003112200019N0112651N1+03201+01901999999ADDGA1021+009001999GF102991999999999999999999MA1101291999999REMMET051METAR SBLP 061600Z 18006KT 9999 FEW030 32/19 Q1013;
0120832880999992009110617004-13267-043417FM-15+0443SBLP V0201801N003112200019N0112651N1+03301+01901999999ADDGA1021+009001999GF102991999999999999999999MA1101191999999REMMET051METAR SBLP 061700Z 18006KT 9999 FEW030 33/19 Q1012;
0120832880999992009110618004-13267-043417FM-15+0443SBLP V0201801N003112200019N0112651N1+03301+01901999999ADDGA1041+009001999GF104991999999999999999999MA1101191999999REMMET051METAR SBLP 061800Z 18006KT 9999 SCT030 33/19 Q1012;
0120832880999992009110619004-13267-043417FM-15+0443SBLP V0201801N003112200019N0112651N1+03201+01901999999ADDGA1041+009001999GF104991999999999999999999MA1101081999999REMMET051METAR SBLP 061900Z 18006KT 9999 SCT030 32/19 Q1011;
0120832880999992009110620004-13267-043417FM-15+0443SBLP V0201801N003112200019N0112651N1+03101+01901999999ADDGA1021+009001999GF102991999999999999999999MA1101081999999REMMET051METAR SBLP 062000Z 18006KT 9999 FEW030 31/19 Q1011;
0120832880999992009110621004-13267-043417FM-15+0443SBLP V0201801N003112200019N0112651N1+02901+02001999999ADDGA1021+009001999GF102991999999999999999999MA1101081999999REMMET051METAR SBLP 062100Z 18006KT 9999 FEW030 29/20 Q1011;
0072832880999992009110709104-13267-043417FM-16+0443SBLP V0209999C000019999999Y0099001N1+02101+01901999999ADDMA1101291999999REMMET045SPECI SBLP 070910Z 00000KT CAVOK 21/19 Q1013;
0072832880999992009110710004-13267-043417FM-15+0443SBLP V0209999C000019999999Y0099001N1+02401+01901999999ADDMA1101391999999REMMET045METAR SBLP 071000Z 00000KT CAVOK 24/19 Q1014;
0072832880999992009110711004-13267-043417FM-15+0443SBLP V0209999C000019999999Y0099001N1+02701+01901999999ADDMA1101391999999REMMET045METAR SBLP 071100Z 00000KT CAVOK 27/19 Q1014;
0072832880999992009110712004-13267-043417FM-15+0443SBLP V0200901N003119999999Y0099001N1+03001+01901999999ADDMA1101391999999REMMET045METAR SBLP 071200Z 09006KT CAVOK 30/19 Q1014;
0072832880999992009110713004-13267-043417FM-15+0443SBLP V0200901N003119999999Y0099001N1+03101+01901999999ADDMA1101391999999REMMET045METAR SBLP 071300Z 09006KT CAVOK 31/19 Q1014;
0072832880999992009110714004-13267-043417FM-15+0443SBLP V0200901N003119999999Y0099001N1+03201+01901999999ADDMA1101391999999REMMET045METAR SBLP 071400Z 09006KT CAVOK 32/19 Q1014;
0120832880999992009110715004-13267-043417FM-15+0443SBLP V0200901N003112200019N0112651N1+03301+01901999999ADDGA1021+009001999GF102991999999999999999999MA1101191999999REMMET051METAR SBLP 071500Z 09006KT 9999 FEW030 33/19 Q1012;
0120832880999992009110716004-13267-043417FM-15+0443SBLP V0202101N001512200019N0112651N1+03401+01801999999ADDGA1021+009001999GF102991999999999999999999MA1101081999999REMMET051METAR SBLP 071600Z 21003KT 9999 FEW030 34/18 Q1011;
0120832880999992009110717004-13267-043417FM-15+0443SBLP V0202401N002612200019N0112651N1+03401+01601999999ADDGA1021+009001999GF102991999999999999999999MA1101081999999REMMET051METAR SBLP 071700Z 24005KT 9999 FEW030 34/16 Q1011;
0120832880999992009110718004-13267-043417FM-15+0443SBLP V0202301N001512200019N0112651N1+03501+01701999999ADDGA1021+009001999GF102991999999999999999999MA1101021999999REMMET051METAR SBLP 071800Z 23003KT 9999 FEW030 35/17 Q1010;
0120832880999992009110719004-13267-043417FM-15+0443SBLP V0202901N001512200019N0112651N1+03501+01701999999ADDGA1021+009001999GF102991999999999999999999MA1101021999999REMMET051METAR SBLP 071900Z 29003KT 9999 FEW030 35/17 Q1010;
0120832880999992009110720004-13267-043417FM-15+0443SBLP V0201501N001512200019N0112651N1+03401+01701999999ADDGA1021+009001999GF102991999999999999999999MA1101021999999REMMET051METAR SBLP 072000Z 15003KT 9999 FEW030 34/17 Q1010;
0120832880999992009110721004-13267-043417FM-15+0443SBLP V0201201N001512200019N0112651N1+03101+01801999999ADDGA1021+009001999GF102991999999999999999999MA1101021999999REMMET051METAR SBLP 072100Z 12003KT 9999 FEW030 31/18 Q1010;
0072832880999992009110810004-13267-043417FM-15+0443SBLP V0209999C000019999999Y0099001N1+02601+01801999999ADDMA1101291999999REMMET045METAR SBLP 081000Z 00000KT CAVOK 26/18 Q1013;
0072832880999992009110811004-13267-043417FM-15+0443SBLP V0209999C000019999999Y0099001N1+02801+01801999999ADDMA1101391999999REMMET045METAR SBLP 081100Z 00000KT CAVOK 28/18 Q1014;
0072832880999992009110812004-13267-043417FM-15+0443SBLP V0209999C000019999999Y0099001N1+03001+01801999999ADDMA1101391999999REMMET045METAR SBLP 081200Z 00000KT CAVOK 30/18 Q1014;
0072832880999992009110813004-13267-043417FM-15+0443SBLP V0209999C000019999999Y0099001N1+03001+01801999999ADDMA1101391999999REMMET045METAR SBLP 081300Z 00000KT CAVOK 30/18 Q1014;
0143832880999992009110814004-13267-043417FM-15+0443SBLP V0202201N003110900019N0112651N1+02901+01901999999ADDGA1021+009001999GA2071+090001999GF107991999999999999999999MA1101391999999REMMET058METAR SBLP 081400Z 22006KT 9999 FEW030 BKN300 29/19 Q1014;
0120832880999992009110815004-13267-043417FM-15+0443SBLP V0202701N003112200019N0112651N1+03101+01901999999ADDGA1021+009001999GF102991999999999999999999MA1101291999999REMMET051METAR SBLP 081500Z 27006KT 9999 FEW030 31/19 Q1013;
0120832880999992009110816004-13267-043417FM-15+0443SBLP V0202101N003112200019N0112651N1+03201+01801999999ADDGA1021+009001999GF102991999999999999999999MA1101191999999REMMET051METAR SBLP 081600Z 21006KT 9999 FEW030 32/18 Q1012;
0120832880999992009110817004-13267-043417FM-15+0443SBLP V0201601N003112200019N0112651N1+03201+01801999999ADDGA1021+009001999GF102991999999999999999999MA1101081999999REMMET051METAR SBLP 081700Z 16006KT 9999 FEW030 32/18 Q1011;
0120832880999992009110818004-13267-043417FM-15+0443SBLP V0209999C000012200019N0112651N1+03201+01801999999ADDGA1021+009001999GF102991999999999999999999MA1101021999999REMMET051METAR SBLP 081800Z 00000KT 9999 FEW030 32/18 Q1010;
0120832880999992009110819004-13267-043417FM-15+0443SBLP V0209999C000012200019N0112651N1+03101+01801999999ADDGA1021+009001999GF102991999999999999999999MA1101021999999REMMET051METAR SBLP 081900Z 00000KT 9999 FEW030 31/18 Q1010;
0072832880999992009110820004-13267-043417FM-15+0443SBLP V0200901N002119999999Y0099001N1+02901+02001999999ADDMA1101021999999REMMET045METAR SBLP 082000Z 09004KT CAVOK 29/20 Q1010;
0072832880999992009110821004-13267-043417FM-15+0443SBLP V0209999C000019999999Y0099001N1+02901+02001999999ADDMA1101021999999REMMET045METAR SBLP 082100Z 00000KT CAVOK 29/20 Q1010;
0072832880999992009110910004-13267-043417FM-15+0443SBLP V0201801N001019999999Y0099001N1+02601+02201999999ADDMA1101291999999REMMET045METAR SBLP 091000Z 18002KT CAVOK 26/22 Q1013;
0072832880999992009110911004-13267-043417FM-15+0443SBLP V0201501N001519999999Y0099001N1+02901+02101999999ADDMA1101291999999REMMET045METAR SBLP 091100Z 15003KT CAVOK 29/21 Q1013;
0072832880999992009110912004-13267-043417FM-15+0443SBLP V0200301N001519999999Y0099001N1+03101+02001999999ADDMA1101391999999REMMET045METAR SBLP 091200Z 03003KT CAVOK 31/20 Q1014;
0120832880999992009110913004-13267-043417FM-15+0443SBLP V0201901N002112200019N0112651N1+03401+02101999999ADDGA1021+009001999GF102991999999999999999999MA1101291999999REMMET051METAR SBLP 091300Z 19004KT 9999 FEW030 34/21 Q1013;
0120832880999992009110914004-13267-043417FM-15+0443SBLP V0202101N002112200019N0112651N1+03301+02001999999ADDGA1041+009001999GF104991999999999999999999MA1101291999999REMMET051METAR SBLP 091400Z 21004KT 9999 SCT030 33/20 Q1013;
0120832880999992009110915004-13267-043417FM-15+0443SBLP V0203401N002612200019N0112651N1+03401+02001999999ADDGA1021+009001999GF102991999999999999999999MA1101191999999REMMET051METAR SBLP 091500Z 34005KT 9999 FEW030 34/20 Q1012;
0120832880999992009110916004-13267-043417FM-15+0443SBLP V0202701N003112200019N0112651N1+03501+02001999999ADDGA1041+009001999GF104991999999999999999999MA1101021999999REMMET051METAR SBLP 091600Z 27006KT 9999 SCT030 35/20 Q1010;
0120832880999992009110917004-13267-043417FM-15+0443SBLP V0203301N003112200019N0112651N1+03601+01901999999ADDGA1041+009001999GF104991999999999999999999MA1100911999999REMMET051METAR SBLP 091700Z 33006KT 9999 SCT030 36/19 Q1009;
0143832880999992009110918004-13267-043417FM-15+0443SBLP V0209999C000012200019N0112651N1+03601+02001999999ADDGA1021+009001999GA2041+030001999GF104991999999999999999999MA1100911999999REMMET058METAR SBLP 091800Z 00000KT 9999 FEW030 SCT100 36/20 Q1009;
0143832880999992009110919004-13267-043417FM-15+0443SBLP V0201601N003110300019N0112651N1+03201+02101999999ADDGA1041+009001999GA2071+030001999GF107991999999999999999999MA1100911999999REMMET058METAR SBLP 091900Z 16006KT 9999 SCT030 BKN100 32/21 Q1009;
0143832880999992009110920004-13267-043417FM-15+0443SBLP V0200901N003110300019N0112651N1+02901+01901999999ADDGA1041+009001999GA2071+030001999GF107991999999999999999999MA1101021999999REMMET058METAR SBLP 092000Z 09006KT 9999 SCT030 BKN100 29/19 Q1010;
0143832880999992009110921004-13267-043417FM-15+0443SBLP V0201201N003112200019N0112651N1+02701+02101999999ADDGA1021+009001999GA2041+030001999GF104991999999999999999999MA1101021999999REMMET058METAR SBLP 092100Z 12006KT 9999 FEW030 SCT100 27/21 Q1010;
0072832880999992009111010004-13267-043417FM-15+0443SBLP V0201801N003119999999Y0099001N1+02401+02101999999ADDMA1101291999999REMMET045METAR SBLP 101000Z 18006KT CAVOK 24/21 Q1013;
0072832880999992009111011004-13267-043417FM-15+0443SBLP V0202101N003119999999Y0099001N1+02601+02201999999ADDMA1101291999999REMMET045METAR SBLP 101100Z 21006KT CAVOK 26/22 Q1013;
0072832880999992009111012004-13267-043417FM-15+0443SBLP V0209999C000019999999Y0099001N1+02801+02201999999ADDMA1101291999999REMMET045METAR SBLP 101200Z 00000KT CAVOK 28/22 Q1013;
0072832880999992009111013004-13267-043417FM-15+0443SBLP V0209999C000019999999Y0099001N1+02801+02201999999ADDMA1101291999999REMMET045METAR SBLP 101300Z 00000KT CAVOK 28/22 Q1013;
0072832880999992009111014004-13267-043417FM-15+0443SBLP V0202101N003119999999Y0099001N1+02901+02201999999ADDMA1101291999999REMMET045METAR SBLP 101400Z 21006KT CAVOK 29/22 Q1013;
0072832880999992009111015004-13267-043417FM-15+0443SBLP V0203301N001019999999Y0099001N1+03001+02201999999ADDMA1101291999999REMMET045METAR SBLP 101500Z 33002KT CAVOK 30/22 Q1013;
0143832880999992009111016004-13267-043417FM-15+0443SBLP V0203301N003110300019N0112651N1+03201+02201999999ADDGA1021+009001999GA2071+030001999GF107991999999999999999999MA1101081999999REMMET058METAR SBLP 101600Z 33006KT 9999 FEW030 BKN100 32/22 Q1011;
0143832880999992009111017004-13267-043417FM-15+0443SBLP V0203301N003110300019N0112651N1+03101+02201999999ADDGA1021+009001999GA2071+030001999GF107991999999999999999999MA1101021999999REMMET058METAR SBLP 101700Z 33006KT 9999 FEW030 BKN100 31/22 Q1010;
0177832880999992009111018004-13267-043417FM-15+0443SBLP V0200101N003110300019N0112651N1+02901+02201999999ADDGA1021+009001091GA2021+009001999GA3071+030001999GF107991999999999999999999MA1101021999999MW1171REMMET070METAR SBLP 101800Z 01006KT 9999 TS FEW030 FEW030CB BKN100 29/22 Q1010;
0143832880999992009111019004-13267-043417FM-15+0443SBLP V0200601N001510300019N0112651N1+02901+02101999999ADDGA1021+009001999GA2071+030001999GF107991999999999999999999MA1101021999999REMMET058METAR SBLP 101900Z 06003KT 9999 FEW030 BKN100 29/21 Q1010;
0143832880999992009111020004-13267-043417FM-15+0443SBLP V0209999C000010300019N0112651N1+02701+02201999999ADDGA1021+009001999GA2071+030001999GF107991999999999999999999MA1101021999999REMMET058METAR SBLP 102000Z 00000KT 9999 FEW030 BKN100 27/22 Q1010;
0143832880999992009111021004-13267-043417FM-15+0443SBLP V0201501N002110300019N0112651N1+02601+02301999999ADDGA1021+009001999GA2071+030001999GF107991999999999999999999MA1101081999999REMMET058METAR SBLP 102100Z 15004KT 9999 FEW030 BKN100 26/23 Q1011;
0072832880999992009111110004-13267-043417FM-15+0443SBLP V0202201N003119999999Y0099001N1+02601+02201999999ADDMA1101391999999REMMET045METAR SBLP 111000Z 22006KT CAVOK 26/22 Q1014;
0120832880999992009111111004-13267-043417FM-15+0443SBLP V0201601N003110060019N0112651N1+02801+02301999999ADDGA1071+006001999GF107991999999999999999999MA1101391999999REMMET051METAR SBLP 111100Z 16006KT 9999 BKN020 28/23 Q1014;
0120832880999992009111112004-13267-043417FM-15+0443SBLP V0201801N003110060019N0112651N1+02901+02201999999ADDGA1071+006001999GF107991999999999999999999MA1101391999999REMMET051METAR SBLP 111200Z 18006KT 9999 BKN020 29/22 Q1014;
0120832880999992009111113004-13267-043417FM-15+0443SBLP V0201901N002112200019N0112651N1+03001+02201999999ADDGA1041+009001999GF104991999999999999999999MA1101291999999REMMET051METAR SBLP 111300Z 19004KT 9999 SCT030 30/22 Q1013;
0120832880999992009111114004-13267-043417FM-15+0443SBLP V0202401N003112200019N0112651N1+03101+02201999999ADDGA1041+009001999GF104991999999999999999999MA1101291999999REMMET051METAR SBLP 111400Z 24006KT 9999 SCT030 31/22 Q1013;
0120832880999992009111115004-13267-043417FM-15+0443SBLP V0202401N003112200019N0112651N1+03101+02201999999ADDGA1041+009001999GF104991999999999999999999MA1101291999999REMMET051METAR SBLP 111500Z 24006KT 9999 SCT030 31/22 Q1013;
0120832880999992009111116004-13267-043417FM-15+0443SBLP V0201801N003112200019N0112651N1+03201+02101999999ADDGA1041+009001999GF104991999999999999999999MA1101081999999REMMET051METAR SBLP 111600Z 18006KT 9999 SCT030 32/21 Q1011;
0120832880999992009111117004-13267-043417FM-15+0443SBLP V0201801N003112200019N0112651N1+03401+02001999999ADDGA1041+009001999GF104991999999999999999999MA1101021999999REMMET051METAR SBLP 111700Z 18006KT 9999 SCT030 34/20 Q1010;
0120832880999992009111118004-13267-043417FM-15+0443SBLP V0201801N003112200019N0112651N1+03501+01901999999ADDGA1041+009001999GF104991999999999999999999MA1100911999999REMMET051METAR SBLP 111800Z 18006KT 9999 SCT030 35/19 Q1009;
0120832880999992009111119004-13267-043417FM-15+0443SBLP V0201801N003112200019N0112651N1+03401+01901999999ADDGA1041+009001999GF104991999999999999999999MA1100911999999REMMET051METAR SBLP 111900Z 18006KT 9999 SCT030 34/19 Q1009;
0120832880999992009111120004-13267-043417FM-15+0443SBLP V0201801N003112200019N0112651N1+03301+01901999999ADDGA1041+009001999GF104991999999999999999999MA1100911999999REMMET051METAR SBLP 112000Z 18006KT 9999 SCT030 33/19 Q1009;
0120832880999992009111121004-13267-043417FM-15+0443SBLP V0201801N003112200019N0112651N1+03201+01901999999ADDGA1041+009001999GF104991999999999999999999MA1101021999999REMMET051METAR SBLP 112100Z 18006KT 9999 SCT030 32/19 Q1010;
0072832880999992009111209064-13267-043417FM-16+0443SBLP V0209999C000019999999Y0099001N1+02301+02201999999ADDMA1101191999999REMMET045SPECI SBLP 120906Z 00000KT CAVOK 23/22 Q1012;
0072832880999992009111210004-13267-043417FM-15+0443SBLP V0200901N001519999999Y0099001N1+02501+02201999999ADDMA1101191999999REMMET045METAR SBLP 121000Z 09003KT CAVOK 25/22 Q1012;
0072832880999992009111211004-13267-043417FM-15+0443SBLP V0200601N003119999999Y0099001N1+02801+02201999999ADDMA1101191999999REMMET045METAR SBLP 121100Z 06006KT CAVOK 28/22 Q1012;
0120832880999992009111212004-13267-043417FM-15+0443SBLP V0200301N004112200019N0112651N1+03001+02201999999ADDGA1021+009001999GF102991999999999999999999MA1101291999999REMMET051METAR SBLP 121200Z 03008KT 9999 FEW030 30/22 Q1013;
0120832880999992009111213004-13267-043417FM-15+0443SBLP V0200501N003112200019N0112651N1+03201+02201999999ADDGA1041+009001999GF104991999999999999999999MA1101191999999REMMET051METAR SBLP 121300Z 05006KT 9999 SCT030 32/22 Q1012;
0120832880999992009111214004-13267-043417FM-15+0443SBLP V0209999C000012200019N0112651N1+03301+02101999999ADDGA1041+009001999GF104991999999999999999999MA1101081999999REMMET051METAR SBLP 121400Z 00000KT 9999 SCT030 33/21 Q1011;
0120832880999992009111215004-13267-043417FM-15+0443SBLP V0201501N001512200019N0112651N1+03401+02201999999ADDGA1041+009001999GF104991999999999999999999MA1101021999999REMMET051METAR SBLP 121500Z 15003KT 9999 SCT030 34/22 Q1010;
0120832880999992009111216004-13267-043417FM-15+0443SBLP V0201801N003112200019N0112651N1+03401+02101999999ADDGA1041+009001999GF104991999999999999999999MA1100911999999REMMET051METAR SBLP 121600Z 18006KT 9999 SCT030 34/21 Q1009;
0120832880999992009111217004-13267-043417FM-15+0443SBLP V0201801N003112200019N0112651N1+03501+02001999999ADDGA1041+009001999GF104991999999999999999999MA1100811999999REMMET051METAR SBLP 121700Z 18006KT 9999 SCT030 35/20 Q1008;
0120832880999992009111218004-13267-043417FM-15+0443SBLP V0201801N003112200019N0112651N1+03501+02001999999ADDGA1041+009001999GF104991999999999999999999MA1100811999999REMMET051METAR SBLP 121800Z 18006KT 9999 SCT030 35/20 Q1008;
0120832880999992009111219004-13267-043417FM-15+0443SBLP V0201801N003112200019N0112651N1+03601+01901999999ADDGA1041+009001999GF104991999999999999999999MA1100711999999REMMET051METAR SBLP 121900Z 18006KT 9999 SCT030 36/19 Q1007;
0120832880999992009111221004-13267-043417FM-15+0443SBLP V0209999C000012200019N0112651N1+03301+01901999999ADDGA1021+009001999GF102991999999999999999999MA1100811999999REMMET051METAR SBLP 122100Z 00000KT 9999 FEW030 33/19 Q1008;
0072832880999992009111309104-13267-043417FM-16+0443SBLP V0209999C000019999999Y0099001N1+02401+02101999999ADDMA1101081999999REMMET045SPECI SBLP 130910Z 00000KT CAVOK 24/21 Q1011;
0072832880999992009111310004-13267-043417FM-15+0443SBLP V0209999C000019999999Y0099001N1+02601+02001999999ADDMA1101191999999REMMET045METAR SBLP 131000Z 00000KT CAVOK 26/20 Q1012;
0072832880999992009111311004-13267-043417FM-15+0443SBLP V0209999C000019999999Y0099001N1+02801+01901999999ADDMA1101291999999REMMET045METAR SBLP 131100Z 00000KT CAVOK 28/19 Q1013;
0072832880999992009111312004-13267-043417FM-15+0443SBLP V0200901N003119999999Y0099001N1+03001+01801999999ADDMA1101291999999REMMET045METAR SBLP 131200Z 09006KT CAVOK 30/18 Q1013;
0072832880999992009111313004-13267-043417FM-15+0443SBLP V0200901N003119999999Y0099001N1+03101+01801999999ADDMA1101291999999REMMET045METAR SBLP 131300Z 09006KT CAVOK 31/18 Q1013;
0072832880999992009111314004-13267-043417FM-15+0443SBLP V0200901N003119999999Y0099001N1+03201+01801999999ADDMA1101291999999REMMET045METAR SBLP 131400Z 09006KT CAVOK 32/18 Q1013;
0120832880999992009111315004-13267-043417FM-15+0443SBLP V0200901N003112200019N0112651N1+03201+01801999999ADDGA1021+009001999GF102991999999999999999999MA1101191999999REMMET051METAR SBLP 131500Z 09006KT 9999 FEW030 32/18 Q1012;
0120832880999992009111316004-13267-043417FM-15+0443SBLP V0201501N002612200019N0112651N1+03401+01701999999ADDGA1021+009001999GF102991999999999999999999MA1101081999999REMMET051METAR SBLP 131600Z 15005KT 9999 FEW030 34/17 Q1011;
0120832880999992009111317004-13267-043417FM-15+0443SBLP V0200601N002612200019N0112651N1+03501+01301999999ADDGA1021+009001999GF102991999999999999999999MA1100911999999REMMET051METAR SBLP 131700Z 06005KT 9999 FEW030 35/13 Q1009;
0120832880999992009111318004-13267-043417FM-15+0443SBLP V0201501N002612200019N0112651N1+03501+01401999999ADDGA1021+009001999GF102991999999999999999999MA1100911999999REMMET051METAR SBLP 131800Z 15005KT 9999 FEW030 35/14 Q1009;
0120832880999992009111319004-13267-043417FM-15+0443SBLP V0201201N002112200019N0112651N1+03501+01301999999ADDGA1021+009001999GF102991999999999999999999MA1100911999999REMMET051METAR SBLP 131900Z 12004KT 9999 FEW030 35/13 Q1009;
0120832880999992009111320004-13267-043417FM-15+0443SBLP V0200601N001512200019N0112651N1+03401+01601999999ADDGA1021+009001999GF102991999999999999999999MA1100911999999REMMET051METAR SBLP 132000Z 06003KT 9999 FEW030 34/16 Q1009;
0072832880999992009111321004-13267-043417FM-15+0443SBLP V0209999C000019999999Y0099001N1+03201+01501999999ADDMA1100911999999REMMET045METAR SBLP 132100Z 00000KT CAVOK 32/15 Q1009;
0120832880999992009111410004-13267-043417FM-15+0443SBLP V0201501N001512200019N0112651N1+02501+01901999999ADDGA1021+009001999GF102991999999999999999999MA1101391999999REMMET051METAR SBLP 141000Z 15003KT 9999 FEW030 25/19 Q1014;
0120832880999992009111411004-13267-043417FM-15+0443SBLP V0201501N001512200019N0112651N1+02801+01901999999ADDGA1021+009001999GF102991999999999999999999MA1101391999999REMMET051METAR SBLP 141100Z 15003KT 9999 FEW030 28/19 Q1014;
0072832880999992009111412004-13267-043417FM-15+0443SBLP V0201201N003119999999Y0099001N1+03001+01801999999ADDMA1101491999999REMMET045METAR SBLP 141200Z 12006KT CAVOK 30/18 Q1015;
0072832880999992009111413004-13267-043417FM-15+0443SBLP V0201101N002119999999Y0099001N1+03101+01801999999ADDMA1101391999999REMMET045METAR SBLP 141300Z 11004KT CAVOK 31/18 Q1014;
0120832880999992009111414004-13267-043417FM-15+0443SBLP V0201101N002112200019N0112651N1+03201+01701999999ADDGA1021+009001999GF102991999999999999999999MA1101391999999REMMET051METAR SBLP 141400Z 11004KT 9999 FEW030 32/17 Q1014;
0120832880999992009111415004-13267-043417FM-15+0443SBLP V0209999C000012200019N0112651N1+03201+01601999999ADDGA1021+009001999GF102991999999999999999999MA1101291999999REMMET051METAR SBLP 141500Z 00000KT 9999 FEW030 32/16 Q1013;
0120832880999992009111416004-13267-043417FM-15+0443SBLP V0201401N003112200019N0112651N1+03401+01601999999ADDGA1021+009001999GF102991999999999999999999MA1101191999999REMMET051METAR SBLP 141600Z 14006KT 9999 FEW030 34/16 Q1012;
0120832880999992009111417004-13267-043417FM-15+0443SBLP V0202701N003112200019N0112651N1+03501+01601999999ADDGA1021+009001999GF102991999999999999999999MA1101081999999REMMET051METAR SBLP 141700Z 27006KT 9999 FEW030 35/16 Q1011;
0120832880999992009111418004-13267-043417FM-15+0443SBLP V0209999C000012200019N0112651N1+03501+01601999999ADDGA1021+009001999GF102991999999999999999999MA1101021999999REMMET051METAR SBLP 141800Z 00000KT 9999 FEW030 35/16 Q1010;
0120832880999992009111419004-13267-043417FM-15+0443SBLP V0209999C000012200019N0112651N1+03401+01601999999ADDGA1021+009001999GF102991999999999999999999MA1101021999999REMMET051METAR SBLP 141900Z 00000KT 9999 FEW030 34/16 Q1010;
0120832880999992009111420004-13267-043417FM-15+0443SBLP V0209999C000012200019N0112651N1+03301+01701999999ADDGA1021+009001999GF102991999999999999999999MA1101081999999REMMET051METAR SBLP 142000Z 00000KT 9999 FEW030 33/17 Q1011;
0072832880999992009111421004-13267-043417FM-15+0443SBLP V0209999C000019999999Y0099001N1+03001+01801999999ADDMA1101081999999REMMET045METAR SBLP 142100Z 00000KT CAVOK 30/18 Q1011;
0072832880999992009111510004-13267-043417FM-15+0443SBLP V0202101N001019999999Y0099001N1+02501+02001999999ADDMA1101291999999REMMET045METAR SBLP 151000Z 21002KT CAVOK 25/20 Q1013;
0072832880999992009111511004-13267-043417FM-15+0443SBLP V0200601N001019999999Y0099001N1+02901+01901999999ADDMA1101391999999REMMET045METAR SBLP 151100Z 06002KT CAVOK 29/19 Q1014;
0072832880999992009111512004-13267-043417FM-15+0443SBLP V0200901N001519999999Y0099001N1+03101+01901999999ADDMA1101391999999REMMET045METAR SBLP 151200Z 09003KT CAVOK 31/19 Q1014;
0072832880999992009111513004-13267-043417FM-15+0443SBLP V0209999C000019999999Y0099001N1+03201+01901999999ADDMA1101291999999REMMET045METAR SBLP 151300Z 00000KT CAVOK 32/19 Q1013;
0072832880999992009111514004-13267-043417FM-15+0443SBLP V0202501N001519999999Y0099001N1+03201+01901999999ADDMA1101291999999REMMET045METAR SBLP 151400Z 25003KT CAVOK 32/19 Q1013;
0120832880999992009111515004-13267-043417FM-15+0443SBLP V0203101N001512200019N0112651N1+03301+01901999999ADDGA1021+009001999GF102991999999999999999999MA1101191999999REMMET051METAR SBLP 151500Z 31003KT 9999 FEW030 33/19 Q1012;
0120832880999992009111615004-13267-043417FM-15+0443SBLP V0203401N003112200019N0112651N1+03501+01701999999ADDGA1021+009001999GF102991999999999999999999MA1101081999999REMMET051METAR SBLP 161500Z 34006KT 9999 FEW030 35/17 Q1011;
0120832880999992009111616004-13267-043417FM-15+0443SBLP V0202701N003112200019N0112651N1+03501+01701999999ADDGA1021+009001999GF102991999999999999999999MA1101021999999REMMET051METAR SBLP 161600Z 27006KT 9999 FEW030 35/17 Q1010;
0120832880999992009111617004-13267-043417FM-15+0443SBLP V0202701N003112200019N0112651N1+03601+01701999999ADDGA1041+009001999GF104991999999999999999999MA1100911999999REMMET051METAR SBLP 161700Z 27006KT 9999 SCT030 36/17 Q1009;
0120832880999992009111618004-13267-043417FM-15+0443SBLP V0202701N003112200019N0112651N1+03701+01701999999ADDGA1041+009001999GF104991999999999999999999MA1100811999999REMMET051METAR SBLP 161800Z 27006KT 9999 SCT030 37/17 Q1008;
0072832880999992009111621004-13267-043417FM-15+0443SBLP V0209999C000019999999Y0099001N1+03301+01801999999ADDMA1100811999999REMMET045METAR SBLP 162100Z 00000KT CAVOK 33/18 Q1008;
0072832880999992009111709154-13267-043417FM-15+0443SBLP V0209999C000019999999Y0099001N1+02301+01901999999ADDMA1101191999999REMMET045METAR SBLP 170915Z 00000KT CAVOK 23/19 Q1012;
0072832880999992009111710004-13267-043417FM-15+0443SBLP V0209999C000019999999Y0099001N1+02601+01901999999ADDMA1101191999999REMMET045METAR SBLP 171000Z 00000KT CAVOK 26/19 Q1012;
0072832880999992009111711004-13267-043417FM-15+0443SBLP V0203601N003119999999Y0099001N1+02801+01801999999ADDMA1101291999999REMMET045METAR SBLP 171100Z 36006KT CAVOK 28/18 Q1013;
0072832880999992009111712004-13267-043417FM-15+0443SBLP V0203601N003119999999Y0099001N1+03101+01801999999ADDMA1101291999999REMMET045METAR SBLP 171200Z 36006KT CAVOK 31/18 Q1013;
0072832880999992009111713004-13267-043417FM-15+0443SBLP V0203601N003119999999Y0099001N1+03301+01801999999ADDMA1101291999999REMMET045METAR SBLP 171300Z 36006KT CAVOK 33/18 Q1013;
0120832880999992009111714004-13267-043417FM-15+0443SBLP V0203601N003112200019N0112651N1+03301+01801999999ADDGA1021+009001999GF102991999999999999999999MA1101191999999REMMET051METAR SBLP 171400Z 36006KT 9999 FEW030 33/18 Q1012;
0120832880999992009111715004-13267-043417FM-15+0443SBLP V0203601N003112200019N0112651N1+03401+01801999999ADDGA1021+009001999GF102991999999999999999999MA1101081999999REMMET051METAR SBLP 171500Z 36006KT 9999 FEW030 34/18 Q1011;
0120832880999992009111716004-13267-043417FM-15+0443SBLP V0203601N002612200019N0112651N1+03601+01801999999ADDGA1041+009001999GF104991999999999999999999MA1101021999999REMMET051METAR SBLP 171600Z 36005KT 9999 SCT030 36/18 Q1010;
0120832880999992009111717004-13267-043417FM-15+0443SBLP V0203601N002612200019N0112651N1+03701+02001999999ADDGA1021+009001999GF102991999999999999999999MA1101021999999REMMET051METAR SBLP 171700Z 36005KT 9999 FEW030 37/20 Q1010;
0120832880999992009111719004-13267-043417FM-15+0443SBLP V0209999C000012200019N0112651N1+03701+01901999999ADDGA1021+009001999GF102991999999999999999999MA1100811999999REMMET051METAR SBLP 171900Z 00000KT 9999 FEW030 37/19 Q1008;
0120832880999992009111720004-13267-043417FM-15+0443SBLP V0209999C000012200019N0112651N1+03501+02001999999ADDGA1021+009001999GF102991999999999999999999MA1100911999999REMMET051METAR SBLP 172000Z 00000KT 9999 FEW030 35/20 Q1009;
0143832880999992009111810004-13267-043417FM-15+0443SBLP V0209999C000010300019N0112651N1+02601+02101999999ADDGA1021+009001999GA2071+030001999GF107991999999999999999999MA1101291999999REMMET058METAR SBLP 181000Z 00000KT 9999 FEW030 BKN100 26/21 Q1013;
0143832880999992009111811004-13267-043417FM-15+0443SBLP V0209999C000010300019N0112651N1+02701+02101999999ADDGA1021+009001999GA2071+030001999GF107991999999999999999999MA1101491999999REMMET058METAR SBLP 181100Z 00000KT 9999 FEW030 BKN100 27/21 Q1015;
0143832880999992009111812004-13267-043417FM-15+0443SBLP V0201801N003112200019N0112651N1+02901+02001999999ADDGA1021+009001999GA2041+030001999GF104991999999999999999999MA1101491999999REMMET058METAR SBLP 181200Z 18006KT 9999 FEW030 SCT100 29/20 Q1015;
0143832880999992009111813004-13267-043417FM-15+0443SBLP V0200901N003112200019N0112651N1+03101+02001999999ADDGA1021+009001999GA2041+030001999GF104991999999999999999999MA1101391999999REMMET058METAR SBLP 181300Z 09006KT 9999 FEW030 SCT100 31/20 Q1014;
0120832880999992009111814004-13267-043417FM-15+0443SBLP V0200901N003112200019N0112651N1+03201+02001999999ADDGA1041+009001999GF104991999999999999999999MA1101391999999REMMET051METAR SBLP 181400Z 09006KT 9999 SCT030 32/20 Q1014;
0120832880999992009111815004-13267-043417FM-15+0443SBLP V0200901N003112200019N0112651N1+03301+02001999999ADDGA1041+009001999GF104991999999999999999999MA1101291999999REMMET051METAR SBLP 181500Z 09006KT 9999 SCT030 33/20 Q1013;
0120832880999992009111816004-13267-043417FM-15+0443SBLP V0200701N002110090019N0112651N1+03301+02001999999ADDGA1071+009001999GF107991999999999999999999MA1101081999999REMMET051METAR SBLP 181600Z 07004KT 9999 BKN030 33/20 Q1011;
0120832880999992009111817004-13267-043417FM-15+0443SBLP V0209999C000010090019N0112651N1+03201+02001999999ADDGA1071+009001999GF107991999999999999999999MA1101021999999REMMET051METAR SBLP 181700Z 00000KT 9999 BKN030 32/20 Q1010;
0139832880999992009111818004-13267-043417FM-15+0443SBLP V0200301N002612200019N0112651N1+03001+02201999999ADDGA1041+009001999GA2021+012001021MA1101021999999REMMET061METAR SBLP 181800Z 03005KT 9999 SCT030 FEW040TCU 30/22 Q1010;EQDQ01+000022SCOTCV
0120832880999992009111819004-13267-043417FM-15+0443SBLP V0203301N002110090019N0112651N1+02701+02301999999ADDGA1071+009001999GF107991999999999999999999MA1101021999999REMMET051METAR SBLP 181900Z 33004KT 9999 BKN030 27/23 Q1010;
0120832880999992009111820004-13267-043417FM-15+0443SBLP V0203501N001512200019N0112651N1+02901+02101999999ADDGA1041+009001999GF104991999999999999999999MA1101021999999REMMET051METAR SBLP 182000Z 35003KT 9999 SCT030 29/21 Q1010;
0120832880999992009111821004-13267-043417FM-15+0443SBLP V0201801N004112200019N0112651N1+02801+02401999999ADDGA1041+009001999GF104991999999999999999999MA1101081999999REMMET051METAR SBLP 182100Z 18008KT 9999 SCT030 28/24 Q1011;
0072832880999992009111910004-13267-043417FM-15+0443SBLP V0209999C000019999999Y0099001N1+02601+02101999999ADDMA1101491999999REMMET045METAR SBLP 191000Z 00000KT CAVOK 26/21 Q1015;
0072832880999992009111911004-13267-043417FM-15+0443SBLP V0201701N002119999999Y0099001N1+02801+02201999999ADDMA1101491999999REMMET045METAR SBLP 191100Z 17004KT CAVOK 28/22 Q1015;
0072832880999992009111912004-13267-043417FM-15+0443SBLP V0201101N002119999999Y0099001N1+02901+02201999999ADDMA1101491999999REMMET045METAR SBLP 191200Z 11004KT CAVOK 29/22 Q1015;
0143832880999992009111913004-13267-043417FM-15+0443SBLP V0201301N002112200019N0112651N1+03101+02001999999ADDGA1021+009001999GA2041+030001999GF104991999999999999999999MA1101491999999REMMET058METAR SBLP 191300Z 13004KT 9999 FEW030 SCT100 31/20 Q1015;
0143832880999992009111914004-13267-043417FM-15+0443SBLP V0201201N002612200019N0112651N1+03201+02001999999ADDGA1021+009001999GA2041+030001999GF104991999999999999999999MA1101391999999REMMET058METAR SBLP 191400Z 12005KT 9999 FEW030 SCT100 32/20 Q1014;
0143832880999992009111915004-13267-043417FM-15+0443SBLP V0200401N002612200019N0112651N1+03301+01901999999ADDGA1021+009001999GA2041+030001999GF104991999999999999999999MA1101291999999REMMET058METAR SBLP 191500Z 04005KT 9999 FEW030 SCT100 33/19 Q1013;
0143832880999992009111916004-13267-043417FM-15+0443SBLP V0200601N003112200019N0112651N1+03301+01901999999ADDGA1041+009001999GA2041+030001999GF104991999999999999999999MA1101191999999REMMET058METAR SBLP 191600Z 06006KT 9999 SCT030 SCT100 33/19 Q1012;
0153832880999992009111917004-13267-043417FM-15+0443SBLP V0202601N003110300019N0090001N1+02901+02101999999ADDGA1041+008101999GA2071+030001999GF107991999999999999999999MA1101191999999MW1611REMMET062METAR SBLP 191700Z 26006KT 9000 -RA SCT027 BKN100 29/21 Q1012;
0143832880999992009111918004-13267-043417FM-15+0443SBLP V0203301N003110300019N0112651N1+02901+02101999999ADDGA1041+009001999GA2071+030001999GF107991999999999999999999MA1101081999999REMMET058METAR SBLP 191800Z 33006KT 9999 SCT030 BKN100 29/21 Q1011;
0143832880999992009111919004-13267-043417FM-15+0443SBLP V0201801N003110300019N0112651N1+02901+02201999999ADDGA1041+009001999GA2071+030001999GF107991999999999999999999MA1101081999999REMMET058METAR SBLP 191900Z 18006KT 9999 SCT030 BKN100 29/22 Q1011;
0143832880999992009111920004-13267-043417FM-15+0443SBLP V0201801N003112200019N0112651N1+02701+02201999999ADDGA1021+009001999GA2041+030001999GF104991999999999999999999MA1101081999999REMMET058METAR SBLP 192000Z 18006KT 9999 FEW030 SCT100 27/22 Q1011;
0143832880999992009111921004-13267-043417FM-15+0443SBLP V0209999C000010300019N0112651N1+02601+02301999999ADDGA1021+009001999GA2071+030001999GF107991999999999999999999MA1101191999999REMMET058METAR SBLP 192100Z 00000KT 9999 FEW030 BKN100 26/23 Q1012;
0072832880999992009112010004-13267-043417FM-15+0443SBLP V0201601N003119999999Y0099001N1+02501+02101999999ADDMA1101491999999REMMET045METAR SBLP 201000Z 16006KT CAVOK 25/21 Q1015;
0072832880999992009112011004-13267-043417FM-15+0443SBLP V0209999C000019999999Y0099001N1+02701+02001999999ADDMA1101591999999REMMET045METAR SBLP 201100Z 00000KT CAVOK 27/20 Q1016;
0143832880999992009112012004-13267-043417FM-15+0443SBLP V0209999C000012200019N0112651N1+03001+01901999999ADDGA1021+009001999GA2041+030001999GF104991999999999999999999MA1101591999999REMMET058METAR SBLP 201200Z 00000KT 9999 FEW030 SCT100 30/19 Q1016;
0143832880999992009112014004-13267-043417FM-15+0443SBLP V0209999C000012200019N0112651N1+03001+01901999999ADDGA1021+009001999GA2041+030001999GF104991999999999999999999MA1101591999999REMMET058METAR SBLP 201400Z 00000KT 9999 FEW030 SCT100 30/19 Q1016;
0143832880999992009112015004-13267-043417FM-15+0443SBLP V0209999C000012200019N0112651N1+03201+01901999999ADDGA1021+009001999GA2041+030001999GF104991999999999999999999MA1101391999999REMMET058METAR SBLP 201500Z 00000KT 9999 FEW030 SCT100 32/19 Q1014;
0120832880999992009112017004-13267-043417FM-15+0443SBLP V0200901N003112200019N0112651N1+03401+01801999999ADDGA1041+009001999GF104991999999999999999999MA1101191999999REMMET051METAR SBLP 201700Z 09006KT 9999 SCT030 34/18 Q1012;
0120832880999992009112019004-13267-043417FM-15+0443SBLP V0200901N003112200019N0112651N1+03301+01701999999ADDGA1041+009001999GF104991999999999999999999MA1101081999999REMMET051METAR SBLP 201900Z 09006KT 9999 SCT030 33/17 Q1011;
0120832880999992009112020004-13267-043417FM-15+0443SBLP V0201001N002112200019N0112651N1+03201+01901999999ADDGA1041+009001999GF104991999999999999999999MA1101081999999REMMET051METAR SBLP 202000Z 10004KT 9999 SCT030 32/19 Q1011;
0120832880999992009112021004-13267-043417FM-15+0443SBLP V0200301N002112200019N0112651N1+03201+01801999999ADDGA1021+009001999GF102991999999999999999999MA1101081999999REMMET051METAR SBLP 202100Z 03004KT 9999 FEW030 32/18 Q1011;
0072832880999992009112110004-13267-043417FM-15+0443SBLP V0209999C000019999999Y0099001N1+02401+01801999999ADDMA1101591999999REMMET045METAR SBLP 211000Z 00000KT CAVOK 24/18 Q1016;
0072832880999992009112111004-13267-043417FM-15+0443SBLP V0209999C000019999999Y0099001N1+02701+01801999999ADDMA1101591999999REMMET045METAR SBLP 211100Z 00000KT CAVOK 27/18 Q1016;
0072832880999992009112112004-13267-043417FM-15+0443SBLP V0200901N003119999999Y0099001N1+02901+01901999999ADDMA1101591999999REMMET045METAR SBLP 211200Z 09006KT CAVOK 29/19 Q1016;
0072832880999992009112113004-13267-043417FM-15+0443SBLP V0201101N002119999999Y0099001N1+03101+01801999999ADDMA1101591999999REMMET045METAR SBLP 211300Z 11004KT CAVOK 31/18 Q1016;
0072832880999992009112114004-13267-043417FM-15+0443SBLP V0201201N002119999999Y0099001N1+03301+01801999999ADDMA1101491999999REMMET045METAR SBLP 211400Z 12004KT CAVOK 33/18 Q1015;
0120832880999992009112115004-13267-043417FM-15+0443SBLP V0200901N003112200019N0112651N1+03401+01601999999ADDGA1021+009001999GF102991999999999999999999MA1101491999999REMMET051METAR SBLP 211500Z 09006KT 9999 FEW030 34/16 Q1015;
0143832880999992009112116004-13267-043417FM-15+0443SBLP V0200901N003110900019N0112651N1+03501+01601999999ADDGA1021+009001999GA2071+090001999GF107991999999999999999999MA1101391999999REMMET058METAR SBLP 211600Z 09006KT 9999 FEW030 BKN300 35/16 Q1014;
0143832880999992009112117004-13267-043417FM-15+0443SBLP V0200901N003112200019N0112651N1+03601+01601999999ADDGA1041+009001999GA2041+090001999GF104991999999999999999999MA1101291999999REMMET058METAR SBLP 211700Z 09006KT 9999 SCT030 SCT300 36/16 Q1013;
0143832880999992009112118004-13267-043417FM-15+0443SBLP V0201801N003112200019N0112651N1+03601+01601999999ADDGA1041+009001999GA2041+090001999GF104991999999999999999999MA1101191999999REMMET058METAR SBLP 211800Z 18006KT 9999 SCT030 SCT300 36/16 Q1012;
0120832880999992009112119004-13267-043417FM-15+0443SBLP V0202701N003112200019N0112651N1+03501+01601999999ADDGA1041+009001999GF104991999999999999999999MA1101191999999REMMET051METAR SBLP 211900Z 27006KT 9999 SCT030 35/16 Q1012;
0120832880999992009112120004-13267-043417FM-15+0443SBLP V0209999C000012200019N0112651N1+03401+01701999999ADDGA1041+009001999GF104991999999999999999999MA1101191999999REMMET051METAR SBLP 212000Z 00000KT 9999 SCT030 34/17 Q1012;
0120832880999992009112121004-13267-043417FM-15+0443SBLP V0209999C000012200019N0112651N1+03301+01701999999ADDGA1021+009001999GF102991999999999999999999MA1101191999999REMMET051METAR SBLP 212100Z 00000KT 9999 FEW030 33/17 Q1012;
0072832880999992009112210004-13267-043417FM-15+0443SBLP V0209999C000019999999Y0099001N1+02501+01801999999ADDMA1101491999999REMMET045METAR SBLP 221000Z 00000KT CAVOK 25/18 Q1015;
0072832880999992009112211004-13267-043417FM-15+0443SBLP V0201201N003119999999Y0099001N1+02801+01801999999ADDMA1101591999999REMMET045METAR SBLP 221100Z 12006KT CAVOK 28/18 Q1016;
0072832880999992009112212004-13267-043417FM-15+0443SBLP V0209999C000019999999Y0099001N1+03001+01801999999ADDMA1101591999999REMMET045METAR SBLP 221200Z 00000KT CAVOK 30/18 Q1016;
0072832880999992009112214004-13267-043417FM-15+0443SBLP V0201801N003119999999Y0099001N1+03201+01801999999ADDMA1101491999999REMMET045METAR SBLP 221400Z 18006KT CAVOK 32/18 Q1015;
0072832880999992009112216004-13267-043417FM-15+0443SBLP V0201801N003119999999Y0099001N1+03401+01701999999ADDMA1101291999999REMMET045METAR SBLP 221600Z 18006KT CAVOK 34/17 Q1013;
0072832880999992009112217004-13267-043417FM-15+0443SBLP V0201801N003119999999Y0099001N1+03601+01701999999ADDMA1101191999999REMMET045METAR SBLP 221700Z 18006KT CAVOK 36/17 Q1012;
0072832880999992009112218004-13267-043417FM-15+0443SBLP V0201801N003119999999Y0099001N1+03701+01601999999ADDMA1101191999999REMMET045METAR SBLP 221800Z 18006KT CAVOK 37/16 Q1012;
0072832880999992009112219004-13267-043417FM-15+0443SBLP V0201801N003119999999Y0099001N1+03601+01701999999ADDMA1101081999999REMMET045METAR SBLP 221900Z 18006KT CAVOK 36/17 Q1011;
0072832880999992009112220004-13267-043417FM-15+0443SBLP V0201801N003119999999Y0099001N1+03401+01701999999ADDMA1101081999999REMMET045METAR SBLP 222000Z 18006KT CAVOK 34/17 Q1011;
0072832880999992009112221004-13267-043417FM-15+0443SBLP V0201801N003119999999Y0099001N1+03201+01801999999ADDMA1101081999999REMMET045METAR SBLP 222100Z 18006KT CAVOK 32/18 Q1011;
0072832880999992009112310004-13267-043417FM-15+0443SBLP V0209999C000019999999Y0099001N1+02501+01801999999ADDMA1101291999999REMMET045METAR SBLP 231000Z 00000KT CAVOK 25/18 Q1013;
0072832880999992009112311004-13267-043417FM-15+0443SBLP V0200901N003119999999Y0099001N1+02801+01701999999ADDMA1101391999999REMMET045METAR SBLP 231100Z 09006KT CAVOK 28/17 Q1014;
0072832880999992009112312004-13267-043417FM-15+0443SBLP V0200901N003119999999Y0099001N1+03001+01701999999ADDMA1101391999999REMMET045METAR SBLP 231200Z 09006KT CAVOK 30/17 Q1014;
0072832880999992009112313004-13267-043417FM-15+0443SBLP V0200901N003119999999Y0099001N1+03201+01701999999ADDMA1101291999999REMMET045METAR SBLP 231300Z 09006KT CAVOK 32/17 Q1013;
0072832880999992009112314004-13267-043417FM-15+0443SBLP V0200901N003119999999Y0099001N1+03301+01601999999ADDMA1101191999999REMMET045METAR SBLP 231400Z 09006KT CAVOK 33/16 Q1012;
0072832880999992009112315004-13267-043417FM-15+0443SBLP V0200901N003119999999Y0099001N1+03301+01601999999ADDMA1101081999999REMMET045METAR SBLP 231500Z 09006KT CAVOK 33/16 Q1011;
0120832880999992009112316004-13267-043417FM-15+0443SBLP V0202101N001512200019N0112651N1+03401+01501999999ADDGA1021+009001999GF102991999999999999999999MA1101021999999REMMET051METAR SBLP 231600Z 21003KT 9999 FEW030 34/15 Q1010;
0120832880999992009112317004-13267-043417FM-15+0443SBLP V0202001N002112200019N0112651N1+03501+01501999999ADDGA1021+009001999GF102991999999999999999999MA1100911999999REMMET051METAR SBLP 231700Z 20004KT 9999 FEW030 35/15 Q1009;
0120832880999992009112318004-13267-043417FM-15+0443SBLP V0202501N002112200019N0112651N1+03501+01401999999ADDGA1021+009001999GF102991999999999999999999MA1100811999999REMMET051METAR SBLP 231800Z 25004KT 9999 FEW030 35/14 Q1008;
0120832880999992009112319004-13267-043417FM-15+0443SBLP V0202701N001512200019N0112651N1+03601+01401999999ADDGA1021+009001999GF102991999999999999999999MA1100811999999REMMET051METAR SBLP 231900Z 27003KT 9999 FEW030 36/14 Q1008;
0120832880999992009112320004-13267-043417FM-15+0443SBLP V0201701N002612200019N0112651N1+03401+01501999999ADDGA1021+009001999GF102991999999999999999999MA1100811999999REMMET051METAR SBLP 232000Z 17005KT 9999 FEW030 34/15 Q1008;
0072832880999992009112321004-13267-043417FM-15+0443SBLP V0201501N001519999999Y0099001N1+03201+01501999999ADDMA1100911999999REMMET045METAR SBLP 232100Z 15003KT CAVOK 32/15 Q1009;
0072832880999992009112410004-13267-043417FM-15+0443SBLP V0209999C000019999999Y0099001N1+02501+01901999999ADDMA1101191999999REMMET045METAR SBLP 241000Z 00000KT CAVOK 25/19 Q1012;
0072832880999992009112411004-13267-043417FM-15+0443SBLP V0209999C000019999999Y0099001N1+02901+01901999999ADDMA1101191999999REMMET045METAR SBLP 241100Z 00000KT CAVOK 29/19 Q1012;
0072832880999992009112412004-13267-043417FM-15+0443SBLP V0209999C000019999999Y0099001N1+03101+01801999999ADDMA1101291999999REMMET045METAR SBLP 241200Z 00000KT CAVOK 31/18 Q1013;
0072832880999992009112413004-13267-043417FM-15+0443SBLP V0209999C000019999999Y0099001N1+03201+01801999999ADDMA1101191999999REMMET045METAR SBLP 241300Z 00000KT CAVOK 32/18 Q1012;
0120832880999992009112414004-13267-043417FM-15+0443SBLP V0202401N003112200019N0112651N1+03401+01701999999ADDGA1021+009001999GF102991999999999999999999MA1101191999999REMMET051METAR SBLP 241400Z 24006KT 9999 FEW030 34/17 Q1012;
0120832880999992009112415004-13267-043417FM-15+0443SBLP V0201801N003112200019N0112651N1+03401+01801999999ADDGA1021+009001999GF102991999999999999999999MA1101081999999REMMET051METAR SBLP 241500Z 18006KT 9999 FEW030 34/18 Q1011;
0120832880999992009112416004-13267-043417FM-15+0443SBLP V0202201N002112200019N0112651N1+03601+01701999999ADDGA1021+009001999GF102991999999999999999999MA1101021999999REMMET051METAR SBLP 241600Z 22004KT 9999 FEW030 36/17 Q1010;
0120832880999992009112417004-13267-043417FM-15+0443SBLP V0201801N001512200019N0112651N1+03601+01601999999ADDGA1021+009001999GF102991999999999999999999MA1100811999999REMMET051METAR SBLP 241700Z 18003KT 9999 FEW030 36/16 Q1008;
0120832880999992009112418004-13267-043417FM-15+0443SBLP V0202201N002112200019N0112651N1+03601+01701999999ADDGA1021+009001999GF102991999999999999999999MA1101021999999REMMET051METAR SBLP 241800Z 22004KT 9999 FEW030 36/17 Q1010;
0120832880999992009112419004-13267-043417FM-15+0443SBLP V0202001N002612200019N0112651N1+03601+01501999999ADDGA1021+009001999GF102991999999999999999999MA1100711999999REMMET051METAR SBLP 241900Z 20005KT 9999 FEW030 36/15 Q1007;
0120832880999992009112420004-13267-043417FM-15+0443SBLP V0202001N002612200019N0112651N1+03601+01501999999ADDGA1021+009001999GF102991999999999999999999MA1100711999999REMMET051METAR SBLP 242000Z 20005KT 9999 FEW030 36/15 Q1007;
0072832880999992009112421004-13267-043417FM-15+0443SBLP V0201801N001519999999Y0099001N1+03401+01801999999ADDMA1100711999999REMMET045METAR SBLP 242100Z 18003KT CAVOK 34/18 Q1007;
0143832880999992009112510004-13267-043417FM-15+0443SBLP V0209999C000010300019N0112651N1+02501+02001999999ADDGA1021+009001999GA2071+030001999GF107991999999999999999999MA1101191999999REMMET058METAR SBLP 251000Z 00000KT 9999 FEW030 BKN100 25/20 Q1012;
0072832880999992009112511004-13267-043417FM-15+0443SBLP V0209999C000019999999Y0099001N1+02801+02001999999ADDMA1101291999999REMMET045METAR SBLP 251100Z 00000KT CAVOK 28/20 Q1013;
0072832880999992009112512004-13267-043417FM-15+0443SBLP V0209999C000019999999Y0099001N1+03101+01901999999ADDMA1101291999999REMMET045METAR SBLP 251200Z 00000KT CAVOK 31/19 Q1013;
0072832880999992009112513004-13267-043417FM-15+0443SBLP V0203301N003119999999Y0099001N1+03201+01901999999ADDMA1101291999999REMMET045METAR SBLP 251300Z 33006KT CAVOK 32/19 Q1013;
0072832880999992009112514004-13267-043417FM-15+0443SBLP V0209999C000019999999Y0099001N1+03201+01901999999ADDMA1101291999999REMMET045METAR SBLP 251400Z 00000KT CAVOK 32/19 Q1013;
0143832880999992009112515004-13267-043417FM-15+0443SBLP V0203301N003112200019N0112651N1+03501+01701999999ADDGA1021+009001999GA2041+030001999GF104991999999999999999999MA1101191999999REMMET058METAR SBLP 251500Z 33006KT 9999 FEW030 SCT100 35/17 Q1012;
0143832880999992009112516004-13267-043417FM-15+0443SBLP V0203601N001512200019N0112651N1+03601+01801999999ADDGA1041+009001999GA2041+030001999GF104991999999999999999999MA1101081999999REMMET058METAR SBLP 251600Z 36003KT 9999 SCT030 SCT100 36/18 Q1011;
0120832880999992009112518004-13267-043417FM-15+0443SBLP V0202201N002112200019N0112651N1+03601+01801999999ADDGA1041+009001999GF104991999999999999999999MA1100911999999REMMET051METAR SBLP 251800Z 22004KT 9999 SCT030 36/18 Q1009;
0120832880999992009112519004-13267-043417FM-15+0443SBLP V0202201N004112200019N0112651N1+03701+01701999999ADDGA1021+009001999GF102991999999999999999999MA1100911999999REMMET051METAR SBLP 251900Z 22008KT 9999 FEW030 37/17 Q1009;
0120832880999992009112520004-13267-043417FM-15+0443SBLP V0201201N002112200019N0112651N1+03601+01701999999ADDGA1021+009001999GF102991999999999999999999MA1100811999999REMMET051METAR SBLP 252000Z 12004KT 9999 FEW030 36/17 Q1008;
0072832880999992009112521004-13267-043417FM-15+0443SBLP V0200901N002119999999Y0099001N1+03401+01801999999ADDMA1100911999999REMMET045METAR SBLP 252100Z 09004KT CAVOK 34/18 Q1009;
0072832880999992009112610004-13267-043417FM-15+0443SBLP V0200601N003119999999Y0099001N1+02701+01901999999ADDMA1101391999999REMMET045METAR SBLP 261000Z 06006KT CAVOK 27/19 Q1014;
0072832880999992009112611004-13267-043417FM-15+0443SBLP V0200301N003119999999Y0099001N1+02901+02001999999ADDMA1101491999999REMMET045METAR SBLP 261100Z 03006KT CAVOK 29/20 Q1015;
0072832880999992009112612004-13267-043417FM-15+0443SBLP V0200601N003119999999Y0099001N1+03001+01901999999ADDMA1101491999999REMMET045METAR SBLP 261200Z 06006KT CAVOK 30/19 Q1015;
0072832880999992009112613004-13267-043417FM-15+0443SBLP V0209999C000019999999Y0099001N1+03101+02001999999ADDMA1101491999999REMMET045METAR SBLP 261300Z 00000KT CAVOK 31/20 Q1015;
0072832880999992009112614004-13267-043417FM-15+0443SBLP V0202701N001519999999Y0099001N1+03201+01901999999ADDMA1101491999999REMMET045METAR SBLP 261400Z 27003KT CAVOK 32/19 Q1015;
0120832880999992009112615004-13267-043417FM-15+0443SBLP V0209999C000012200019N0112651N1+03301+01801999999ADDGA1021+009001999GF102991999999999999999999MA1101391999999REMMET051METAR SBLP 261500Z 00000KT 9999 FEW030 33/18 Q1014;
0120832880999992009112616004-13267-043417FM-15+0443SBLP V0209999C000012200019N0112651N1+03401+01801999999ADDGA1021+009001999GF102991999999999999999999MA1101291999999REMMET051METAR SBLP 261600Z 00000KT 9999 FEW030 34/18 Q1013;
0120832880999992009112617004-13267-043417FM-15+0443SBLP V0209999C000012200019N0112651N1+03501+01801999999ADDGA1041+009001999GF104991999999999999999999MA1101191999999REMMET051METAR SBLP 261700Z 00000KT 9999 SCT030 35/18 Q1012;
0120832880999992009112618004-13267-043417FM-15+0443SBLP V0201801N003112200019N0112651N1+03701+01701999999ADDGA1041+009001999GF104991999999999999999999MA1101081999999REMMET051METAR SBLP 261800Z 18006KT 9999 SCT030 37/17 Q1011;
0120832880999992009112621004-13267-043417FM-15+0443SBLP V0200901N003112200019N0112651N1+03201+01901999999ADDGA1041+009001999GF104991999999999999999999MA1101081999999REMMET051METAR SBLP 262100Z 09006KT 9999 SCT030 32/19 Q1011;
0072832880999992009112710004-13267-043417FM-15+0443SBLP V0200901N002119999999Y0099001N1+02601+01801999999ADDMA1101391999999REMMET045METAR SBLP 271000Z 09004KT CAVOK 26/18 Q1014;
0072832880999992009112711004-13267-043417FM-15+0443SBLP V0200901N002619999999Y0099001N1+02901+01801999999ADDMA1101491999999REMMET045METAR SBLP 271100Z 09005KT CAVOK 29/18 Q1015;
0072832880999992009112712004-13267-043417FM-15+0443SBLP V0201201N002119999999Y0099001N1+03101+01801999999ADDMA1101491999999REMMET045METAR SBLP 271200Z 12004KT CAVOK 31/18 Q1015;
0072832880999992009112713004-13267-043417FM-15+0443SBLP V0200601N001519999999Y0099001N1+03301+01801999999ADDMA1101491999999REMMET045METAR SBLP 271300Z 06003KT CAVOK 33/18 Q1015;
0072832880999992009112714004-13267-043417FM-15+0443SBLP V0200601N001519999999Y0099001N1+03301+01801999999ADDMA1101491999999REMMET045METAR SBLP 271400Z 06003KT CAVOK 33/18 Q1015;
0120832880999992009112715004-13267-043417FM-15+0443SBLP V0201801N001512200019N0112651N1+03501+01701999999ADDGA1021+009001999GF102991999999999999999999MA1101291999999REMMET051METAR SBLP 271500Z 18003KT 9999 FEW030 35/17 Q1013;
0120832880999992009112716004-13267-043417FM-15+0443SBLP V0201801N003112200019N0112651N1+03601+01601999999ADDGA1021+009001999GF102991999999999999999999MA1101191999999REMMET051METAR SBLP 271600Z 18006KT 9999 FEW030 36/16 Q1012;
0120832880999992009112717004-13267-043417FM-15+0443SBLP V0201801N003112200019N0112651N1+03601+01601999999ADDGA1041+009001999GF104991999999999999999999MA1101081999999REMMET051METAR SBLP 271700Z 18006KT 9999 SCT030 36/16 Q1011;
0120832880999992009112718004-13267-043417FM-15+0443SBLP V0209999C000012200019N0112651N1+03801+01601999999ADDGA1041+009001999GF104991999999999999999999MA1101021999999REMMET051METAR SBLP 271800Z 00000KT 9999 SCT030 38/16 Q1010;
0120832880999992009112719004-13267-043417FM-15+0443SBLP V0209999C000012200019N0112651N1+03701+01601999999ADDGA1041+009001999GF104991999999999999999999MA1100911999999REMMET051METAR SBLP 271900Z 00000KT 9999 SCT030 37/16 Q1009;
0120832880999992009112720004-13267-043417FM-15+0443SBLP V0209999C000012200019N0112651N1+03501+01601999999ADDGA1041+009001999GF104991999999999999999999MA1100911999999REMMET051METAR SBLP 272000Z 00000KT 9999 SCT030 35/16 Q1009;
0120832880999992009112721004-13267-043417FM-15+0443SBLP V0209999C000012200019N0112651N1+03301+01701999999ADDGA1041+009001999GF104991999999999999999999MA1100911999999REMMET051METAR SBLP 272100Z 00000KT 9999 SCT030 33/17 Q1009;
0072832880999992009112810004-13267-043417FM-15+0443SBLP V0209999C000019999999Y0099001N1+02601+01701999999ADDMA1101291999999REMMET045METAR SBLP 281000Z 00000KT CAVOK 26/17 Q1013;
0072832880999992009112811004-13267-043417FM-15+0443SBLP V0200301N001519999999Y0099001N1+03001+01501999999ADDMA1101291999999REMMET045METAR SBLP 281100Z 03003KT CAVOK 30/15 Q1013;
0072832880999992009112812004-13267-043417FM-15+0443SBLP V0209999C000019999999Y0099001N1+03201+01401999999ADDMA1101291999999REMMET045METAR SBLP 281200Z 00000KT CAVOK 32/14 Q1013;
0072832880999992009112813004-13267-043417FM-15+0443SBLP V0209999C000019999999Y0099001N1+03301+01501999999ADDMA1101291999999REMMET045METAR SBLP 281300Z 00000KT CAVOK 33/15 Q1013;
0072832880999992009112814004-13267-043417FM-15+0443SBLP V0201801N001519999999Y0099001N1+03501+01601999999ADDMA1101291999999REMMET045METAR SBLP 281400Z 18003KT CAVOK 35/16 Q1013;
0120832880999992009112815004-13267-043417FM-15+0443SBLP V0202701N001512200019N0112651N1+03501+01401999999ADDGA1021+009001999GF102991999999999999999999MA1101191999999REMMET051METAR SBLP 281500Z 27003KT 9999 FEW030 35/14 Q1012;
0120832880999992009112816004-13267-043417FM-15+0443SBLP V0202401N003112200019N0112651N1+03701+01401999999ADDGA1021+009001999GF102991999999999999999999MA1101081999999REMMET051METAR SBLP 281600Z 24006KT 9999 FEW030 37/14 Q1011;
0120832880999992009112817004-13267-043417FM-15+0443SBLP V0202401N003112200019N0112651N1+03701+01501999999ADDGA1021+009001999GF102991999999999999999999MA1100911999999REMMET051METAR SBLP 281700Z 24006KT 9999 FEW030 37/15 Q1009;
0120832880999992009112818004-13267-043417FM-15+0443SBLP V0209999C000012200019N0112651N1+03701+01401999999ADDGA1021+009001999GF102991999999999999999999MA1100811999999REMMET051METAR SBLP 281800Z 00000KT 9999 FEW030 37/14 Q1008;
0120832880999992009112819004-13267-043417FM-15+0443SBLP V0209999C000012200019N0112651N1+03701+01501999999ADDGA1021+009001999GF102991999999999999999999MA1100811999999REMMET051METAR SBLP 281900Z 00000KT 9999 FEW030 37/15 Q1008;
0120832880999992009112820004-13267-043417FM-15+0443SBLP V0201801N003112200019N0112651N1+03701+01501999999ADDGA1021+009001999GF102991999999999999999999MA1100811999999REMMET051METAR SBLP 282000Z 18006KT 9999 FEW030 37/15 Q1008;
0072832880999992009112821004-13267-043417FM-15+0443SBLP V0209999C000019999999Y0099001N1+03401+01601999999ADDMA1100811999999REMMET045METAR SBLP 282100Z 00000KT CAVOK 34/16 Q1008;
0072832880999992009112910004-13267-043417FM-15+0443SBLP V0209999C000019999999Y0099001N1+02501+01801999999ADDMA1101191999999REMMET045METAR SBLP 291000Z 00000KT CAVOK 25/18 Q1012;
0072832880999992009112911004-13267-043417FM-15+0443SBLP V0209999C000019999999Y0099001N1+02801+01801999999ADDMA1101291999999REMMET045METAR SBLP 291100Z 00000KT CAVOK 28/18 Q1013;
0072832880999992009112912004-13267-043417FM-15+0443SBLP V0209999C000019999999Y0099001N1+03101+01801999999ADDMA1101291999999REMMET045METAR SBLP 291200Z 00000KT CAVOK 31/18 Q1013;
0072832880999992009112913004-13267-043417FM-15+0443SBLP V0201201N002119999999Y0099001N1+03201+01801999999ADDMA1101291999999REMMET045METAR SBLP 291300Z 12004KT CAVOK 32/18 Q1013;
0072832880999992009112914004-13267-043417FM-15+0443SBLP V0209999C000019999999Y0099001N1+03401+01701999999ADDMA1101191999999REMMET045METAR SBLP 291400Z 00000KT CAVOK 34/17 Q1012;
0120832880999992009112915004-13267-043417FM-15+0443SBLP V0201201N003112200019N0112651N1+03501+01601999999ADDGA1021+009001999GF102991999999999999999999MA1101191999999REMMET051METAR SBLP 291500Z 12006KT 9999 FEW030 35/16 Q1012;
0120832880999992009112916004-13267-043417FM-15+0443SBLP V0203501N002112200019N0112651N1+03701+01301999999ADDGA1021+009001999GF102991999999999999999999MA1101021999999REMMET051METAR SBLP 291600Z 35004KT 9999 FEW030 37/13 Q1010;
0120832880999992009112917004-13267-043417FM-15+0443SBLP V0209999C000012200019N0112651N1+03801+01601999999ADDGA1021+009001999GF102991999999999999999999MA1100811999999REMMET051METAR SBLP 291700Z 00000KT 9999 FEW030 38/16 Q1008;
0120832880999992009112918004-13267-043417FM-15+0443SBLP V0201301N001512200019N0112651N1+03801+01401999999ADDGA1021+009001999GF102991999999999999999999MA1100811999999REMMET051METAR SBLP 291800Z 13003KT 9999 FEW030 38/14 Q1008;
0120832880999992009112919004-13267-043417FM-15+0443SBLP V0200401N002612200019N0112651N1+03701+01401999999ADDGA1021+009001999GF102991999999999999999999MA1100811999999REMMET051METAR SBLP 291900Z 04005KT 9999 FEW030 37/14 Q1008;
0120832880999992009112920004-13267-043417FM-15+0443SBLP V0200501N002612200019N0112651N1+03401+01501999999ADDGA1021+009001999GF102991999999999999999999MA1100811999999REMMET051METAR SBLP 292000Z 05005KT 9999 FEW030 34/15 Q1008;
0120832880999992009112921004-13267-043417FM-15+0443SBLP V0202701N001012200019N0112651N1+03401+01501999999ADDGA1021+009001999GF102991999999999999999999MA1100811999999REMMET051METAR SBLP 292100Z 27002KT 9999 FEW030 34/15 Q1008;
0072832880999992009113010004-13267-043417FM-15+0443SBLP V0202101N003119999999Y0099001N1+02701+01901999999ADDMA1101191999999REMMET045METAR SBLP 301000Z 21006KT CAVOK 27/19 Q1012;
0072832880999992009113011004-13267-043417FM-15+0443SBLP V0201801N003119999999Y0099001N1+03001+02001999999ADDMA1101191999999REMMET045METAR SBLP 301100Z 18006KT CAVOK 30/20 Q1012;
0072832880999992009113012004-13267-043417FM-15+0443SBLP V0209999C000019999999Y0099001N1+03201+01901999999ADDMA1101291999999REMMET045METAR SBLP 301200Z 00000KT CAVOK 32/19 Q1013;
0072832880999992009113013004-13267-043417FM-15+0443SBLP V0209999C000019999999Y0099001N1+03301+01701999999ADDMA1101291999999REMMET045METAR SBLP 301300Z 00000KT CAVOK 33/17 Q1013;
0120832880999992009113014004-13267-043417FM-15+0443SBLP V0202701N003112200019N0112651N1+03501+01701999999ADDGA1021+009001999GF102991999999999999999999MA1101191999999REMMET051METAR SBLP 301400Z 27006KT 9999 FEW030 35/17 Q1012;
0120832880999992009113015004-13267-043417FM-15+0443SBLP V0203601N003112200019N0112651N1+03501+01701999999ADDGA1021+009001999GF102991999999999999999999MA1101081999999REMMET051METAR SBLP 301500Z 36006KT 9999 FEW030 35/17 Q1011;
0143832880999992009113016004-13267-043417FM-15+0443SBLP V0209999C000010300019N0112651N1+03601+01701999999ADDGA1041+009001999GA2071+030001999GF107991999999999999999999MA1101021999999REMMET058METAR SBLP 301600Z 00000KT 9999 SCT030 BKN100 36/17 Q1010;
0143832880999992009113017004-13267-043417FM-15+0443SBLP V0209999C000012200019N0112651N1+03701+01601999999ADDGA1021+009001999GA2041+030001999GF104991999999999999999999MA1100811999999REMMET058METAR SBLP 301700Z 00000KT 9999 FEW030 SCT100 37/16 Q1008;
0120832880999992009113018004-13267-043417FM-15+0443SBLP V0209999C000012200019N0112651N1+03801+01601999999ADDGA1021+009001999GF102991999999999999999999MA1100811999999REMMET051METAR SBLP 301800Z 00000KT 9999 FEW030 38/16 Q1008;
0120832880999992009113019004-13267-043417FM-15+0443SBLP V0209999C000012200019N0112651N1+03701+01601999999ADDGA1021+009001999GF102991999999999999999999MA1100711999999REMMET051METAR SBLP 301900Z 00000KT 9999 FEW030 37/16 Q1007;
0120832880999992009113020004-13267-043417FM-15+0443SBLP V0202101N002112200019N0112651N1+03501+01601999999ADDGA1021+009001999GF102991999999999999999999MA1100711999999REMMET051METAR SBLP 302000Z 21004KT 9999 FEW030 35/16 Q1007;
0120832880999992009113021004-13267-043417FM-15+0443SBLP V0201901N002112200019N0112651N1+03401+01701999999ADDGA1021+009001999GF102991999999999999999999MA1100811999999REMMET051METAR SBLP 302100Z 19004KT 9999 FEW030 34/17 Q1008;
0143832880999992009120110004-13267-043417FM-15+0443SBLP V0202101N002110300019N0112651N1+02301+02201999999ADDGA1041+006001999GA2071+030001999GF107991999999999999999999MA1101391999999REMMET058METAR SBLP 011000Z 21004KT 9999 SCT020 BKN100 23/22 Q1014;
0148832880999992009120111004-13267-043417FM-15+0443SBLP V0202101N003110300019N0112651N1+02301+02201999999ADDGA1041+006001999GA2071+030001999GF107991999999999999999999MA1101391999999REMMET063METAR SBLP 011100Z 21006KT 9999 SCT020 BKN100 23/22 Q1014 RERA;
0153832880999992009120112004-13267-043417FM-15+0443SBLP V0202101N003110060019N0112651N1+02401+02201999999ADDGA1071+006001999GA2071+030001999GF107991999999999999999999MA1101491999999REMMET068METAR SBLP 011200Z 21006KT 9999 BKN020 BKN100 24/22 Q1015 RERA RERA;
0143832880999992009120113004-13267-043417FM-15+0443SBLP V0201801N003110300019N0112651N1+02401+02201999999ADDGA1041+006001999GA2071+030001999GF107991999999999999999999MA1101491999999REMMET058METAR SBLP 011300Z 18006KT 9999 SCT020 BKN100 24/22 Q1015;
0143832880999992009120114004-13267-043417FM-15+0443SBLP V0202101N004110300019N0112651N1+02601+02101999999ADDGA1041+006001999GA2071+030001999GF107991999999999999999999MA1101391999999REMMET058METAR SBLP 011400Z 21008KT 9999 SCT020 BKN100 26/21 Q1014;
0143832880999992009120115004-13267-043417FM-15+0443SBLP V0202301N004110300019N0112651N1+02801+02101999999ADDGA1041+009001999GA2071+030001999GF107991999999999999999999MA1101291999999REMMET058METAR SBLP 011500Z 23008KT 9999 SCT030 BKN100 28/21 Q1013;
0143832880999992009120116004-13267-043417FM-15+0443SBLP V0201801N003110300019N0112651N1+02901+02001999999ADDGA1021+006001999GA2071+030001999GF107991999999999999999999MA1101191999999REMMET058METAR SBLP 011600Z 18006KT 9999 FEW020 BKN100 29/20 Q1012;
0143832880999992009120117004-13267-043417FM-15+0443SBLP V0201801N003110300019N0112651N1+03001+02001999999ADDGA1021+006001999GA2071+030001999GF107991999999999999999999MA1101021999999REMMET058METAR SBLP 011700Z 18006KT 9999 FEW020 BKN100 30/20 Q1010;
0143832880999992009120118004-13267-043417FM-15+0443SBLP V0201801N003112200019N0112651N1+03101+02001999999ADDGA1041+009001999GA2041+030001999GF104991999999999999999999MA1101021999999REMMET058METAR SBLP 011800Z 18006KT 9999 SCT030 SCT100 31/20 Q1010;
0143832880999992009120119004-13267-043417FM-15+0443SBLP V0201801N003112200019N0112651N1+03201+02001999999ADDGA1041+009001999GA2041+030001999GF104991999999999999999999MA1100911999999REMMET058METAR SBLP 011900Z 18006KT 9999 SCT030 SCT100 32/20 Q1009;
0143832880999992009120120004-13267-043417FM-15+0443SBLP V0201801N003112200019N0112651N1+03101+02001999999ADDGA1041+009001999GA2041+030001999GF104991999999999999999999MA1101021999999REMMET058METAR SBLP 012000Z 18006KT 9999 SCT030 SCT100 31/20 Q1010;
0143832880999992009120121004-13267-043417FM-15+0443SBLP V0201801N003112200019N0112651N1+02901+02001999999ADDGA1021+009001999GA2041+030001999GF104991999999999999999999MA1101021999999REMMET058METAR SBLP 012100Z 18006KT 9999 FEW030 SCT100 29/20 Q1010;
0143832880999992009120210004-13267-043417FM-15+0443SBLP V0209999C000010300019N0112651N1+02401+02101999999ADDGA1021+004501999GA2071+030001999GF107991999999999999999999MA1101291999999REMMET058METAR SBLP 021000Z 00000KT 9999 FEW015 BKN100 24/21 Q1013;
0143832880999992009120211004-13267-043417FM-15+0443SBLP V0209999C000010300019N0112651N1+02501+02101999999ADDGA1021+006001999GA2071+030001999GF107991999999999999999999MA1101291999999REMMET058METAR SBLP 021100Z 00000KT 9999 FEW020 BKN100 25/21 Q1013;
0143832880999992009120212004-13267-043417FM-15+0443SBLP V0209999C000010300019N0112651N1+02601+02101999999ADDGA1021+006001999GA2071+030001999GF107991999999999999999999MA1101391999999REMMET058METAR SBLP 021200Z 00000KT 9999 FEW020 BKN100 26/21 Q1014;
0143832880999992009120213004-13267-043417FM-15+0443SBLP V0209999C000012200019N0112651N1+02801+02101999999ADDGA1021+006001999GA2041+030001999GF104991999999999999999999MA1101391999999REMMET058METAR SBLP 021300Z 00000KT 9999 FEW020 SCT100 28/21 Q1014;
0153832880999992009120214004-13267-043417FM-15+0443SBLP V0200901N003112200019N0090001N1+02701+02101999999ADDGA1041+006001999GA2041+030001999GF104991999999999999999999MA1101391999999MW1611REMMET062METAR SBLP 021400Z 09006KT 9000 -RA SCT020 SCT100 27/21 Q1014;
0153832880999992009120215004-13267-043417FM-15+0443SBLP V0200901N003110300019N0112651N1+02601+02101999999ADDGA1041+006001999GA2071+030001999GF107991999999999999999999MA1101291999999MW1611REMMET062METAR SBLP 021500Z 09006KT 9999 -RA SCT020 BKN100 26/21 Q1013;
0153832880999992009120216004-13267-043417FM-15+0443SBLP V0201801N001010300019N0080001N1+02601+02301999999ADDGA1041+006001999GA2071+030001999GF107991999999999999999999MA1101291999999MW1611REMMET062METAR SBLP 021600Z 18002KT 8000 -RA SCT020 BKN100 26/23 Q1013;
0143832880999992009120217004-13267-043417FM-15+0443SBLP V0203601N002610300019N0112651N1+02501+02201999999ADDGA1041+006001999GA2071+030001999GF107991999999999999999999MA1101191999999REMMET058METAR SBLP 021700Z 36005KT 9999 SCT020 BKN100 25/22 Q1012;
0168832880999992009120218004-13267-043417FM-15+0443SBLP V0200401N002112200019N0112651N1+02801+02301999999ADDGA1021+009001999GA2021+012001091GA3041+030001999GF104991999999999999999999MA1101081999999REMMET067METAR SBLP 021800Z 04004KT 9999 FEW030 FEW040CB SCT100 28/23 Q1011;
0143832880999992009120219004-13267-043417FM-15+0443SBLP V0209999C000012200019N0112651N1+02901+02101999999ADDGA1021+009001999GA2041+030001999GF104991999999999999999999MA1101081999999REMMET058METAR SBLP 021900Z 00000KT 9999 FEW030 SCT100 29/21 Q1011;
0143832880999992009120220004-13267-043417FM-15+0443SBLP V0209999C000012200019N0112651N1+02901+02101999999ADDGA1021+009001999GA2041+030001999GF104991999999999999999999MA1101081999999REMMET058METAR SBLP 022000Z 00000KT 9999 FEW030 SCT100 29/21 Q1011;
0143832880999992009120221004-13267-043417FM-15+0443SBLP V0201801N001510300019N0112651N1+02701+02201999999ADDGA1021+008101999GA2071+030001999GF107991999999999999999999MA1101191999999REMMET058METAR SBLP 022100Z 18003KT 9999 FEW027 BKN100 27/22 Q1012;
0143832880999992009120310004-13267-043417FM-15+0443SBLP V0200301N001510300019N0112651N1+02301+02101999999ADDGA1021+006901999GA2071+030001999GF107991999999999999999999MA1101491999999REMMET058METAR SBLP 031000Z 03003KT 9999 FEW023 BKN100 23/21 Q1015;
0143832880999992009120311004-13267-043417FM-15+0443SBLP V0203301N001510300019N0112651N1+02401+02101999999ADDGA1021+006901999GA2071+030001999GF107991999999999999999999MA1101491999999REMMET058METAR SBLP 031100Z 33003KT 9999 FEW023 BKN100 24/21 Q1015;
0143832880999992009120312004-13267-043417FM-15+0443SBLP V0202701N001010300019N0112651N1+02501+02101999999ADDGA1021+008101999GA2071+030001999GF107991999999999999999999MA1101491999999REMMET058METAR SBLP 031200Z 27002KT 9999 FEW027 BKN100 25/21 Q1015;
0143832880999992009120313004-13267-043417FM-15+0443SBLP V0203301N001510300019N0112651N1+02801+02101999999ADDGA1021+009001999GA2071+030001999GF107991999999999999999999MA1101491999999REMMET058METAR SBLP 031300Z 33003KT 9999 FEW030 BKN100 28/21 Q1015;
0143832880999992009120314004-13267-043417FM-15+0443SBLP V0203301N002612200019N0112651N1+02901+02001999999ADDGA1021+009001999GA2041+030001999GF104991999999999999999999MA1101491999999REMMET058METAR SBLP 031400Z 33005KT 9999 FEW030 SCT100 29/20 Q1015;
0143832880999992009120315004-13267-043417FM-15+0443SBLP V0203301N002612200019N0112651N1+02901+02001999999ADDGA1021+009001999GA2041+030001999GF104991999999999999999999MA1101491999999REMMET058METAR SBLP 031500Z 33005KT 9999 FEW030 SCT100 29/20 Q1015;
0120832880999992009120316004-13267-043417FM-15+0443SBLP V0203601N003112200019N0112651N1+03101+01801999999ADDGA1041+009001999GF104991999999999999999999MA1101291999999REMMET051METAR SBLP 031600Z 36006KT 9999 SCT030 31/18 Q1013;
0120832880999992009120317004-13267-043417FM-15+0443SBLP V0203601N003112200019N0112651N1+03301+01801999999ADDGA1041+009001999GF104991999999999999999999MA1101081999999REMMET051METAR SBLP 031700Z 36006KT 9999 SCT030 33/18 Q1011;
0120832880999992009120318004-13267-043417FM-15+0443SBLP V0203601N003112200019N0112651N1+03301+01801999999ADDGA1041+009001999GF104991999999999999999999MA1101021999999REMMET051METAR SBLP 031800Z 36006KT 9999 SCT030 33/18 Q1010;
0120832880999992009120319004-13267-043417FM-15+0443SBLP V0203601N003112200019N0112651N1+03301+01801999999ADDGA1041+009001999GF104991999999999999999999MA1101021999999REMMET051METAR SBLP 031900Z 36006KT 9999 SCT030 33/18 Q1010;
0120832880999992009120320004-13267-043417FM-15+0443SBLP V0203601N003112200019N0112651N1+03201+01801999999ADDGA1041+009001999GF104991999999999999999999MA1101021999999REMMET051METAR SBLP 032000Z 36006KT 9999 SCT030 32/18 Q1010;
0120832880999992009120321004-13267-043417FM-15+0443SBLP V0203601N003112200019N0112651N1+03101+01801999999ADDGA1041+009001999GF104991999999999999999999MA1101021999999REMMET051METAR SBLP 032100Z 36006KT 9999 SCT030 31/18 Q1010;
0143832880999992009120410004-13267-043417FM-15+0443SBLP V0209999C000010300019N0112651N1+02501+02101999999ADDGA1021+003001999GA2071+030001999GF107991999999999999999999MA1101291999999REMMET058METAR SBLP 041000Z 00000KT 9999 FEW010 BKN100 25/21 Q1013;
0143832880999992009120411004-13267-043417FM-15+0443SBLP V0209999C000010300019N0112651N1+02701+02101999999ADDGA1021+006001999GA2071+030001999GF107991999999999999999999MA1101291999999REMMET058METAR SBLP 041100Z 00000KT 9999 FEW020 BKN100 27/21 Q1013;
0143832880999992009120412004-13267-043417FM-15+0443SBLP V0209999C000012200019N0112651N1+02801+02101999999ADDGA1021+006001999GA2041+030001999GF104991999999999999999999MA1101291999999REMMET058METAR SBLP 041200Z 00000KT 9999 FEW020 SCT100 28/21 Q1013;
0143832880999992009120413004-13267-043417FM-15+0443SBLP V0200901N003112200019N0112651N1+03001+02001999999ADDGA1041+006001999GA2041+030001999GF104991999999999999999999MA1101291999999REMMET058METAR SBLP 041300Z 09006KT 9999 SCT020 SCT100 30/20 Q1013;
0120832880999992009120414004-13267-043417FM-15+0443SBLP V0200901N003112200019N0112651N1+03001+02001999999ADDGA1041+006001999GF104991999999999999999999MA1101191999999REMMET051METAR SBLP 041400Z 09006KT 9999 SCT020 30/20 Q1012;
0120832880999992009120416004-13267-043417FM-15+0443SBLP V0209999C000010090019N0112651N1+03401+01901999999ADDGA1071+009001999GF107991999999999999999999MA1101021999999REMMET051METAR SBLP 041600Z 00000KT 9999 BKN030 34/19 Q1010;
0129832880999992009120417004-13267-043417FM-15+0443SBLP V0200601N007710090019N0040001N1+02501+02401999999ADDGA1071+009001999GF107991999999999999999999MA1101021999999MW1631REMMET054METAR SBLP 041700Z 06015KT 4000 RA BKN030 25/24 Q1010;
0182832880999992009120418004-13267-043417FM-15+0443SBLP V0203501N00211012001CN0112651N1+02401+02201999999ADDGA1041+009001999GA2021+012001091GA3071+030001999GF107991999999999999999999MA1101021999999MW1171REMMET075METAR SBLP 041800Z 35004KT 9999 TS SCT030 FEW040CB BKN100 24/22 Q1010 RERA;
0158832880999992009120419004-13267-043417FM-15+0443SBLP V0200901N001510300019N0112651N1+02401+02301999999ADDGA1021+009001999GA2071+030001999GF107991999999999999999999MA1100911999999MW1611REMMET067METAR SBLP 041900Z 09003KT 9999 -RA FEW030 BKN100 24/23 Q1009 RETS;
0143832880999992009120420004-13267-043417FM-15+0443SBLP V0200901N001510300019N0112651N1+02501+02301999999ADDGA1021+006901999GA2071+030001999GF107991999999999999999999MA1100911999999REMMET058METAR SBLP 042000Z 09003KT 9999 FEW023 BKN100 25/23 Q1009;
0143832880999992009120421004-13267-043417FM-15+0443SBLP V0209999C000010300019N0112651N1+02501+02301999999ADDGA1021+006901999GA2071+030001999GF107991999999999999999999MA1100911999999REMMET058METAR SBLP 042100Z 00000KT 9999 FEW023 BKN100 25/23 Q1009;
0153832880999992009120510004-13267-043417FM-15+0443SBLP V0209999C000010300019N0080001N1+02201+02101999999ADDGA1041+006001999GA2081+030001999GF108991999999999999999999MA1101291999999MW1611REMMET062METAR SBLP 051000Z 00000KT 8000 -RA SCT020 OVC100 22/21 Q1013;
0143832880999992009120511004-13267-043417FM-15+0443SBLP V0209999C000010300019N0112651N1+02301+02101999999ADDGA1041+006001999GA2071+030001999GF107991999999999999999999MA1101391999999REMMET058METAR SBLP 051100Z 00000KT 9999 SCT020 BKN100 23/21 Q1014;
0143832880999992009120512004-13267-043417FM-15+0443SBLP V0209999C000010300019N0112651N1+02501+02201999999ADDGA1041+006001999GA2071+030001999GF107991999999999999999999MA1101391999999REMMET058METAR SBLP 051200Z 00000KT 9999 SCT020 BKN100 25/22 Q1014;
0143832880999992009120513004-13267-043417FM-15+0443SBLP V0203001N001510300019N0112651N1+02601+02101999999ADDGA1041+006001999GA2071+030001999GF107991999999999999999999MA1101391999999REMMET058METAR SBLP 051300Z 30003KT 9999 SCT020 BKN100 26/21 Q1014;
0143832880999992009120514004-13267-043417FM-15+0443SBLP V0202901N002110300019N0112651N1+02801+02201999999ADDGA1041+006901999GA2071+030001999GF107991999999999999999999MA1101391999999REMMET058METAR SBLP 051400Z 29004KT 9999 SCT023 BKN100 28/22 Q1014;
0143832880999992009120515004-13267-043417FM-15+0443SBLP V0203101N001510300019N0112651N1+02901+02101999999ADDGA1041+006901999GA2071+030001999GF107991999999999999999999MA1101291999999REMMET058METAR SBLP 051500Z 31003KT 9999 SCT023 BKN100 29/21 Q1013;
0154832880999992009120516004-13267-043417FM-15+0443SBLP V0203401N005110069019N0080001N1+02901+02101999999ADDGA1071+006901999GA2071+030001999GF107991999999999999999999MA1101191999999MW1161REMMET063METAR SBLP 051600Z 34010KT 8000 VCSH BKN023 BKN100 29/21 Q1012;
0153832880999992009120517004-13267-043417FM-15+0443SBLP V0203601N005110051019N0080001N1+02301+02101999999ADDGA1071+005101999GA2071+030001999GF107991999999999999999999MA1101191999999MW1611REMMET062METAR SBLP 051700Z 36010KT 8000 -RA BKN017 BKN100 23/21 Q1012;
0153832880999992009120518004-13267-043417FM-15+0443SBLP V0200401N002110051019N0112651N1+02401+02201999999ADDGA1071+005101999GA2071+030001999GF107991999999999999999999MA1101081999999MW1611REMMET062METAR SBLP 051800Z 04004KT 9999 -RA BKN017 BKN100 24/22 Q1011;
0148832880999992009120519004-13267-043417FM-15+0443SBLP V0200601N002110300019N0112651N1+02501+02201999999ADDGA1021+006001999GA2071+030001999GF107991999999999999999999MA1101021999999REMMET063METAR SBLP 051900Z 06004KT 9999 FEW020 BKN100 25/22 Q1010 RERA;
0143832880999992009120520004-13267-043417FM-15+0443SBLP V0200701N003110300019N0112651N1+02501+02301999999ADDGA1021+009001999GA2071+030001999GF107991999999999999999999MA1101021999999REMMET058METAR SBLP 052000Z 07006KT 9999 FEW030 BKN100 25/23 Q1010;
0143832880999992009120521004-13267-043417FM-15+0443SBLP V0200601N004110300019N0112651N1+02401+02201999999ADDGA1041+009001999GA2071+030001999GF107991999999999999999999MA1101081999999REMMET058METAR SBLP 052100Z 06008KT 9999 SCT030 BKN100 24/22 Q1011;
0143832880999992009120610004-13267-043417FM-15+0443SBLP V0209999C000010300019N0112651N1+02201+02201999999ADDGA1021+006001999GA2071+030001999GF107991999999999999999999MA1101391999999REMMET058METAR SBLP 061000Z 00000KT 9999 FEW020 BKN100 22/22 Q1014;
0143832880999992009120611004-13267-043417FM-15+0443SBLP V0209999C000012200019N0112651N1+02301+02101999999ADDGA1021+006001999GA2041+030001999GF104991999999999999999999MA1101391999999REMMET058METAR SBLP 061100Z 00000KT 9999 FEW020 SCT100 23/21 Q1014;
0143832880999992009120612004-13267-043417FM-15+0443SBLP V0209999C000010300019N0112651N1+02701+02001999999ADDGA1021+006001999GA2071+030001999GF107991999999999999999999MA1101491999999REMMET058METAR SBLP 061200Z 00000KT 9999 FEW020 BKN100 27/20 Q1015;
0143832880999992009120613004-13267-043417FM-15+0443SBLP V0202101N003110300019N0112651N1+02701+02101999999ADDGA1041+006001999GA2071+030001999GF107991999999999999999999MA1101491999999REMMET058METAR SBLP 061300Z 21006KT 9999 SCT020 BKN100 27/21 Q1015;
0143832880999992009120614004-13267-043417FM-15+0443SBLP V0209999C000010300019N0112651N1+03001+02001999999ADDGA1021+009001999GA2071+030001999GF107991999999999999999999MA1101391999999REMMET058METAR SBLP 061400Z 00000KT 9999 FEW030 BKN100 30/20 Q1014;
0143832880999992009120615004-13267-043417FM-15+0443SBLP V0200901N003110300019N0112651N1+03101+01901999999ADDGA1041+009001999GA2071+030001999GF107991999999999999999999MA1101291999999REMMET058METAR SBLP 061500Z 09006KT 9999 SCT030 BKN100 31/19 Q1013;
0143832880999992009120616004-13267-043417FM-15+0443SBLP V0200601N001510300019N0112651N1+03101+02101999999ADDGA1041+009001999GA2071+030001999GF107991999999999999999999MA1101291999999REMMET058METAR SBLP 061600Z 06003KT 9999 SCT030 BKN100 31/21 Q1013;
0143832880999992009120617004-13267-043417FM-15+0443SBLP V0200601N003110300019N0112651N1+03101+02101999999ADDGA1041+009001999GA2071+030001999GF107991999999999999999999MA1101191999999REMMET058METAR SBLP 061700Z 06006KT 9999 SCT030 BKN100 31/21 Q1012;
0143832880999992009120618004-13267-043417FM-15+0443SBLP V0203601N002110300019N0112651N1+03201+02101999999ADDGA1021+009001999GA2071+030001999GF107991999999999999999999MA1101081999999REMMET058METAR SBLP 061800Z 36004KT 9999 FEW030 BKN100 32/21 Q1011;
0143832880999992009120619004-13267-043417FM-15+0443SBLP V0200601N002110300019N0112651N1+03101+02101999999ADDGA1021+009001999GA2071+030001999GF107991999999999999999999MA1101081999999REMMET058METAR SBLP 061900Z 06004KT 9999 FEW030 BKN100 31/21 Q1011;
0143832880999992009120620004-13267-043417FM-15+0443SBLP V0200901N002110300019N0112651N1+03101+02001999999ADDGA1021+009001999GA2071+030001999GF107991999999999999999999MA1101081999999REMMET058METAR SBLP 062000Z 09004KT 9999 FEW030 BKN100 31/20 Q1011;
0143832880999992009120621004-13267-043417FM-15+0443SBLP V0201401N004110300019N0112651N1+02901+02201999999ADDGA1021+009001999GA2071+030001999GF107991999999999999999999MA1101191999999REMMET058METAR SBLP 062100Z 14008KT 9999 FEW030 BKN100 29/22 Q1012;
0072832880999992009120710004-13267-043417FM-15+0443SBLP V0201601N001519999999Y0099001N1+02401+02101999999ADDMA1101491999999REMMET045METAR SBLP 071000Z 16003KT CAVOK 24/21 Q1015;
0143832880999992009120711004-13267-043417FM-15+0443SBLP V0201801N003112200019N0112651N1+02601+02101999999ADDGA1021+006901999GA2041+030001999GF104991999999999999999999MA1101491999999REMMET058METAR SBLP 071100Z 18006KT 9999 FEW023 SCT100 26/21 Q1015;
0120832880999992009120712004-13267-043417FM-15+0443SBLP V0201801N004112200019N0112651N1+02701+02201999999ADDGA1041+006901999GF104991999999999999999999MA1101491999999REMMET051METAR SBLP 071200Z 18008KT 9999 SCT023 27/22 Q1015;
0120832880999992009120713004-13267-043417FM-15+0443SBLP V0209999C000012200019N0112651N1+02901+02201999999ADDGA1041+009001999GF104991999999999999999999MA1101491999999REMMET051METAR SBLP 071300Z 00000KT 9999 SCT030 29/22 Q1015;
0120832880999992009120714004-13267-043417FM-15+0443SBLP V0202101N002112200019N0112651N1+03001+02201999999ADDGA1041+009001999GF104991999999999999999999MA1101391999999REMMET051METAR SBLP 071400Z 21004KT 9999 SCT030 30/22 Q1014;
0143832880999992009120715004-13267-043417FM-15+0443SBLP V0202101N002110900019N0112651N1+03101+02101999999ADDGA1041+009001999GA2071+090001999GF107991999999999999999999MA1101291999999REMMET058METAR SBLP 071500Z 21004KT 9999 SCT030 BKN300 31/21 Q1013;
0120832880999992009120716004-13267-043417FM-15+0443SBLP V0203601N003112200019N0112651N1+03101+02101999999ADDGA1041+009001999GF104991999999999999999999MA1101191999999REMMET051METAR SBLP 071600Z 36006KT 9999 SCT030 31/21 Q1012;
0120832880999992009120717004-13267-043417FM-15+0443SBLP V0203601N003112200019N0112651N1+03201+02001999999ADDGA1041+009001999GF104991999999999999999999MA1101081999999REMMET051METAR SBLP 071700Z 36006KT 9999 SCT030 32/20 Q1011;
0120832880999992009120718004-13267-043417FM-15+0443SBLP V0203601N003112200019N0112651N1+03401+01901999999ADDGA1041+009001999GF104991999999999999999999MA1101081999999REMMET051METAR SBLP 071800Z 36006KT 9999 SCT030 34/19 Q1011;
0120832880999992009120719004-13267-043417FM-15+0443SBLP V0203601N003112200019N0112651N1+03301+01901999999ADDGA1041+009001999GF104991999999999999999999MA1101021999999REMMET051METAR SBLP 071900Z 36006KT 9999 SCT030 33/19 Q1010;
0120832880999992009120720004-13267-043417FM-15+0443SBLP V0203601N003112200019N0112651N1+03201+02001999999ADDGA1041+009001999GF104991999999999999999999MA1101021999999REMMET051METAR SBLP 072000Z 36006KT 9999 SCT030 32/20 Q1010;
0120832880999992009120721004-13267-043417FM-15+0443SBLP V0203601N003112200019N0112651N1+03001+02001999999ADDGA1041+009001999GF104991999999999999999999MA1101081999999REMMET051METAR SBLP 072100Z 36006KT 9999 SCT030 30/20 Q1011;
0072832880999992009120810004-13267-043417FM-15+0443SBLP V0209999C000019999999Y0099001N1+02501+02101999999ADDMA1101291999999REMMET045METAR SBLP 081000Z 00000KT CAVOK 25/21 Q1013;
0072832880999992009120811004-13267-043417FM-15+0443SBLP V0209999C000019999999Y0099001N1+02801+02001999999ADDMA1101391999999REMMET045METAR SBLP 081100Z 00000KT CAVOK 28/20 Q1014;
0072832880999992009120812004-13267-043417FM-15+0443SBLP V0209999C000019999999Y0099001N1+03001+02001999999ADDMA1101391999999REMMET045METAR SBLP 081200Z 00000KT CAVOK 30/20 Q1014;
0072832880999992009120813004-13267-043417FM-15+0443SBLP V0209999C000019999999Y0099001N1+03201+01901999999ADDMA1101391999999REMMET045METAR SBLP 081300Z 00000KT CAVOK 32/19 Q1014;
0072832880999992009120814004-13267-043417FM-15+0443SBLP V0209999C000019999999Y0099001N1+03301+01801999999ADDMA1101291999999REMMET045METAR SBLP 081400Z 00000KT CAVOK 33/18 Q1013;
0120832880999992009120815004-13267-043417FM-15+0443SBLP V0200901N003112200019N0112651N1+03401+01801999999ADDGA1021+009001999GF102991999999999999999999MA1101191999999REMMET051METAR SBLP 081500Z 09006KT 9999 FEW030 34/18 Q1012;
0120832880999992009120816004-13267-043417FM-15+0443SBLP V0201701N001512200019N0112651N1+03501+01801999999ADDGA1021+009001999GF102991999999999999999999MA1101081999999REMMET051METAR SBLP 081600Z 17003KT 9999 FEW030 35/18 Q1011;
0120832880999992009120817004-13267-043417FM-15+0443SBLP V0209999C000012200019N0112651N1+03501+01801999999ADDGA1041+009001999GF104991999999999999999999MA1101021999999REMMET051METAR SBLP 081700Z 00000KT 9999 SCT030 35/18 Q1010;
0120832880999992009120818004-13267-043417FM-15+0443SBLP V0201901N001512200019N0112651N1+03601+01801999999ADDGA1041+009001999GF104991999999999999999999MA1100911999999REMMET051METAR SBLP 081800Z 19003KT 9999 SCT030 36/18 Q1009;
0120832880999992009120819004-13267-043417FM-15+0443SBLP V0201901N001512200019N0112651N1+03601+01801999999ADDGA1041+009001999GF104991999999999999999999MA1100911999999REMMET051METAR SBLP 081900Z 19003KT 9999 SCT030 36/18 Q1009;
0120832880999992009120820004-13267-043417FM-15+0443SBLP V0201201N001512200019N0112651N1+03601+01801999999ADDGA1021+009001999GF102991999999999999999999MA1100811999999REMMET051METAR SBLP 082000Z 12003KT 9999 FEW030 36/18 Q1008;
0072832880999992009120821004-13267-043417FM-15+0443SBLP V0201301N002119999999Y0099001N1+03301+01901999999ADDMA1100911999999REMMET045METAR SBLP 082100Z 13004KT CAVOK 33/19 Q1009;
0072832880999992009120910004-13267-043417FM-15+0443SBLP V0201601N001519999999Y0099001N1+02601+02201999999ADDMA1101291999999REMMET045METAR SBLP 091000Z 16003KT CAVOK 26/22 Q1013;
0072832880999992009120911004-13267-043417FM-15+0443SBLP V0201801N001519999999Y0099001N1+03001+02101999999ADDMA1101391999999REMMET045METAR SBLP 091100Z 18003KT CAVOK 30/21 Q1014;
0072832880999992009120912004-13267-043417FM-15+0443SBLP V0209999C000019999999Y0099001N1+03201+02001999999ADDMA1101391999999REMMET045METAR SBLP 091200Z 00000KT CAVOK 32/20 Q1014;
0072832880999992009120913004-13267-043417FM-15+0443SBLP V0202101N002119999999Y0099001N1+03301+02001999999ADDMA1101391999999REMMET045METAR SBLP 091300Z 21004KT CAVOK 33/20 Q1014;
0120832880999992009120914004-13267-043417FM-15+0443SBLP V0209999C000012200019N0112651N1+03401+01901999999ADDGA1021+009001999GF102991999999999999999999MA1101291999999REMMET051METAR SBLP 091400Z 00000KT 9999 FEW030 34/19 Q1013;
0120832880999992009120915004-13267-043417FM-15+0443SBLP V0202701N002112200019N0112651N1+03501+01901999999ADDGA1021+009001999GF102991999999999999999999MA1101191999999REMMET051METAR SBLP 091500Z 27004KT 9999 FEW030 35/19 Q1012;
0120832880999992009120916004-13267-043417FM-15+0443SBLP V0201801N003112200019N0112651N1+03601+01901999999ADDGA1021+009001999GF102991999999999999999999MA1101081999999REMMET051METAR SBLP 091600Z 18006KT 9999 FEW030 36/19 Q1011;
0120832880999992009120917004-13267-043417FM-15+0443SBLP V0201201N002112200019N0112651N1+03701+01801999999ADDGA1021+009001999GF102991999999999999999999MA1101021999999REMMET051METAR SBLP 091700Z 12004KT 9999 FEW030 37/18 Q1010;
0120832880999992009120918004-13267-043417FM-15+0443SBLP V0209999C000012200019N0112651N1+03801+01801999999ADDGA1041+009001999GF104991999999999999999999MA1100911999999REMMET051METAR SBLP 091800Z 00000KT 9999 SCT030 38/18 Q1009;
0120832880999992009120919004-13267-043417FM-15+0443SBLP V0201201N003112200019N0112651N1+03701+01801999999ADDGA1021+009001999GF102991999999999999999999MA1100911999999REMMET051METAR SBLP 091900Z 12006KT 9999 FEW030 37/18 Q1009;
0120832880999992009120920004-13267-043417FM-15+0443SBLP V0201501N002112200019N0112651N1+03601+01801999999ADDGA1021+009001999GF102991999999999999999999MA1100911999999REMMET051METAR SBLP 092000Z 15004KT 9999 FEW030 36/18 Q1009;
0072832880999992009120921004-13267-043417FM-15+0443SBLP V0209999C000019999999Y0099001N1+03401+01901999999ADDMA1100911999999REMMET045METAR SBLP 092100Z 00000KT CAVOK 34/19 Q1009;
0072832880999992009121010004-13267-043417FM-15+0443SBLP V0209999C000019999999Y0099001N1+02501+01901999999ADDMA1101291999999REMMET045METAR SBLP 101000Z 00000KT CAVOK 25/19 Q1013;
0072832880999992009121011004-13267-043417FM-15+0443SBLP V0209999C000019999999Y0099001N1+03001+01901999999ADDMA1101391999999REMMET045METAR SBLP 101100Z 00000KT CAVOK 30/19 Q1014;
0072832880999992009121012004-13267-043417FM-15+0443SBLP V0200901N003119999999Y0099001N1+03201+01801999999ADDMA1101391999999REMMET045METAR SBLP 101200Z 09006KT CAVOK 32/18 Q1014;
0072832880999992009121013004-13267-043417FM-15+0443SBLP V0200901N003119999999Y0099001N1+03401+01701999999ADDMA1101391999999REMMET045METAR SBLP 101300Z 09006KT CAVOK 34/17 Q1014;
0072832880999992009121014004-13267-043417FM-15+0443SBLP V0200401N003119999999Y0099001N1+03501+01701999999ADDMA1101291999999REMMET045METAR SBLP 101400Z 04006KT CAVOK 35/17 Q1013;
0072832880999992009121015004-13267-043417FM-15+0443SBLP V0200401N003119999999Y0099001N1+03501+01701999999ADDMA1101291999999REMMET045METAR SBLP 101500Z 04006KT CAVOK 35/17 Q1013;
0120832880999992009121016004-13267-043417FM-15+0443SBLP V0201801N001512200019N0112651N1+03701+01401999999ADDGA1021+009001999GF102991999999999999999999MA1101081999999REMMET051METAR SBLP 101600Z 18003KT 9999 FEW030 37/14 Q1011;
0120832880999992009121017004-13267-043417FM-15+0443SBLP V0201801N002112200019N0112651N1+03701+01701999999ADDGA1021+009001999GF102991999999999999999999MA1101021999999REMMET051METAR SBLP 101700Z 18004KT 9999 FEW030 37/17 Q1010;
0120832880999992009121018004-13267-043417FM-15+0443SBLP V0201801N004112200019N0112651N1+03701+01601999999ADDGA1021+009001999GF102991999999999999999999MA1101021999999REMMET051METAR SBLP 101800Z 18008KT 9999 FEW030 37/16 Q1010;
0120832880999992009121019004-13267-043417FM-15+0443SBLP V0201801N004112200019N0112651N1+03601+01401999999ADDGA1021+009001999GF102991999999999999999999MA1100911999999REMMET051METAR SBLP 101900Z 18008KT 9999 FEW030 36/14 Q1009;
0120832880999992009121020004-13267-043417FM-15+0443SBLP V0201701N004112200019N0112651N1+03501+01201999999ADDGA1021+009001999GF102991999999999999999999MA1101021999999REMMET051METAR SBLP 102000Z 17008KT 9999 FEW030 35/12 Q1010;
0072832880999992009121021004-13267-043417FM-15+0443SBLP V0201501N003119999999Y0099001N1+03301+01201999999ADDMA1101081999999REMMET045METAR SBLP 102100Z 15006KT CAVOK 33/12 Q1011;
0072832880999992009121110004-13267-043417FM-15+0443SBLP V0209999C000019999999Y0099001N1+02501+01801999999ADDMA1101491999999REMMET045METAR SBLP 111000Z 00000KT CAVOK 25/18 Q1015;
0072832880999992009121111004-13267-043417FM-15+0443SBLP V0209999C000019999999Y0099001N1+02801+01701999999ADDMA1101491999999REMMET045METAR SBLP 111100Z 00000KT CAVOK 28/17 Q1015;
0072832880999992009121112004-13267-043417FM-15+0443SBLP V0200901N003119999999Y0099001N1+03101+01701999999ADDMA1101491999999REMMET045METAR SBLP 111200Z 09006KT CAVOK 31/17 Q1015;
0072832880999992009121113004-13267-043417FM-15+0443SBLP V0209999C000019999999Y0099001N1+03101+01801999999ADDMA1101491999999REMMET045METAR SBLP 111300Z 00000KT CAVOK 31/18 Q1015;
0120832880999992009121114004-13267-043417FM-15+0443SBLP V0209999C000012200019N0112651N1+03201+01801999999ADDGA1021+009001999GF102991999999999999999999MA1101391999999REMMET051METAR SBLP 111400Z 00000KT 9999 FEW030 32/18 Q1014;
0120832880999992009121115004-13267-043417FM-15+0443SBLP V0203301N003112200019N0112651N1+03301+01801999999ADDGA1041+009001999GF104991999999999999999999MA1101391999999REMMET051METAR SBLP 111500Z 33006KT 9999 SCT030 33/18 Q1014;
0120832880999992009121116004-13267-043417FM-15+0443SBLP V0202701N003112200019N0112651N1+03501+01801999999ADDGA1041+009001999GF104991999999999999999999MA1101291999999REMMET051METAR SBLP 111600Z 27006KT 9999 SCT030 35/18 Q1013;
0120832880999992009121117004-13267-043417FM-15+0443SBLP V0202701N003112200019N0112651N1+03601+01801999999ADDGA1041+009001999GF104991999999999999999999MA1101081999999REMMET051METAR SBLP 111700Z 27006KT 9999 SCT030 36/18 Q1011;
0120832880999992009121118004-13267-043417FM-15+0443SBLP V0202701N003112200019N0112651N1+03601+01801999999ADDGA1041+009001999GF104991999999999999999999MA1101081999999REMMET051METAR SBLP 111800Z 27006KT 9999 SCT030 36/18 Q1011;
0120832880999992009121119004-13267-043417FM-15+0443SBLP V0202701N003112200019N0112651N1+03601+01801999999ADDGA1021+009001999GF102991999999999999999999MA1101081999999REMMET051METAR SBLP 111900Z 27006KT 9999 FEW030 36/18 Q1011;
0120832880999992009121120004-13267-043417FM-15+0443SBLP V0202701N003112200019N0112651N1+03501+01801999999ADDGA1021+009001999GF102991999999999999999999MA1101081999999REMMET051METAR SBLP 112000Z 27006KT 9999 FEW030 35/18 Q1011;
0120832880999992009121121004-13267-043417FM-15+0443SBLP V0201801N003112200019N0112651N1+03401+01801999999ADDGA1021+009001999GF102991999999999999999999MA1101081999999REMMET051METAR SBLP 112100Z 18006KT 9999 FEW030 34/18 Q1011;
0072832880999992009121210004-13267-043417FM-15+0443SBLP V0209999C000019999999Y0099001N1+02501+01801999999ADDMA1101391999999REMMET045METAR SBLP 121000Z 00000KT CAVOK 25/18 Q1014;
0072832880999992009121211004-13267-043417FM-15+0443SBLP V0209999C000019999999Y0099001N1+02801+01801999999ADDMA1101491999999REMMET045METAR SBLP 121100Z 00000KT CAVOK 28/18 Q1015;
0072832880999992009121212004-13267-043417FM-15+0443SBLP V0200901N003119999999Y0099001N1+03101+01801999999ADDMA1101491999999REMMET045METAR SBLP 121200Z 09006KT CAVOK 31/18 Q1015;
0072832880999992009121213004-13267-043417FM-15+0443SBLP V0200901N003119999999Y0099001N1+03201+01701999999ADDMA1101391999999REMMET045METAR SBLP 121300Z 09006KT CAVOK 32/17 Q1014;
0120832880999992009121214004-13267-043417FM-15+0443SBLP V0203601N003112200019N0112651N1+03301+01701999999ADDGA1021+009001999GF102991999999999999999999MA1101391999999REMMET051METAR SBLP 121400Z 36006KT 9999 FEW030 33/17 Q1014;
0120832880999992009121215004-13267-043417FM-15+0443SBLP V0203601N003112200019N0112651N1+03401+01701999999ADDGA1041+009001999GF104991999999999999999999MA1101291999999REMMET051METAR SBLP 121500Z 36006KT 9999 SCT030 34/17 Q1013;
0120832880999992009121216004-13267-043417FM-15+0443SBLP V0203101N002112200019N0112651N1+03501+01701999999ADDGA1041+009001999GF104991999999999999999999MA1101191999999REMMET051METAR SBLP 121600Z 31004KT 9999 SCT030 35/17 Q1012;
0120832880999992009121217004-13267-043417FM-15+0443SBLP V0203601N001512200019N0112651N1+03601+01601999999ADDGA1041+009001999GF104991999999999999999999MA1101081999999REMMET051METAR SBLP 121700Z 36003KT 9999 SCT030 36/16 Q1011;
0120832880999992009121218004-13267-043417FM-15+0443SBLP V0203301N002112200019N0112651N1+03601+01601999999ADDGA1021+009001999GF102991999999999999999999MA1101021999999REMMET051METAR SBLP 121800Z 33004KT 9999 FEW030 36/16 Q1010;
0120832880999992009121219004-13267-043417FM-15+0443SBLP V0200201N001512200019N0112651N1+03601+01701999999ADDGA1021+009001999GF102991999999999999999999MA1100911999999REMMET051METAR SBLP 121900Z 02003KT 9999 FEW030 36/17 Q1009;
0120832880999992009121220004-13267-043417FM-15+0443SBLP V0202501N001512200019N0112651N1+03601+01601999999ADDGA1021+009001999GF102991999999999999999999MA1100911999999REMMET051METAR SBLP 122000Z 25003KT 9999 FEW030 36/16 Q1009;
0120832880999992009121221004-13267-043417FM-15+0443SBLP V0209999C000012200019N0112651N1+03501+01601999999ADDGA1021+009001999GF102991999999999999999999MA1100911999999REMMET051METAR SBLP 122100Z 00000KT 9999 FEW030 35/16 Q1009;
0130832880999992009121310004-13267-043417FM-15+0443SBLP V0203301N003110090019N0112651N1+02501+02101999999ADDGA1071+009001999GF107991999999999999999999MA1101291999999MW1611REMMET055METAR SBLP 131000Z 33006KT 9999 -RA BKN030 25/21 Q1013;
0143832880999992009121311004-13267-043417FM-15+0443SBLP V0209999C000012200019N0112651N1+02501+02201999999ADDGA1041+009001999GA2041+030001999GF104991999999999999999999MA1101391999999REMMET058METAR SBLP 131100Z 00000KT 9999 SCT030 SCT100 25/22 Q1014;
0143832880999992009121312004-13267-043417FM-15+0443SBLP V0203301N002110300019N0112651N1+02501+02201999999ADDGA1041+006901999GA2071+030001999GF107991999999999999999999MA1101391999999REMMET058METAR SBLP 131200Z 33004KT 9999 SCT023 BKN100 25/22 Q1014;
0143832880999992009121313004-13267-043417FM-15+0443SBLP V0200201N001510300019N0112651N1+02601+02201999999ADDGA1021+006901999GA2071+030001999GF107991999999999999999999MA1101391999999REMMET058METAR SBLP 131300Z 02003KT 9999 FEW023 BKN100 26/22 Q1014;
0143832880999992009121314004-13267-043417FM-15+0443SBLP V0209999C000010300019N0112651N1+02801+02201999999ADDGA1021+008101999GA2071+030001999GF107991999999999999999999MA1101291999999REMMET058METAR SBLP 131400Z 00000KT 9999 FEW027 BKN100 28/22 Q1013;
0143832880999992009121315004-13267-043417FM-15+0443SBLP V0202701N001512200019N0112651N1+02901+02101999999ADDGA1021+009001999GA2041+030001999GF104991999999999999999999MA1101191999999REMMET058METAR SBLP 131500Z 27003KT 9999 FEW030 SCT100 29/21 Q1012;
0143832880999992009121316004-13267-043417FM-15+0443SBLP V0203601N003112200019N0112651N1+03101+01901999999ADDGA1021+009001999GA2041+030001999GF104991999999999999999999MA1101081999999REMMET058METAR SBLP 131600Z 36006KT 9999 FEW030 SCT100 31/19 Q1011;
0120832880999992009121317004-13267-043417FM-15+0443SBLP V0203601N003112200019N0112651N1+03301+01901999999ADDGA1021+009001999GF102991999999999999999999MA1101021999999REMMET051METAR SBLP 131700Z 36006KT 9999 FEW030 33/19 Q1010;
0120832880999992009121318004-13267-043417FM-15+0443SBLP V0203601N003112200019N0112651N1+03501+01801999999ADDGA1041+009001999GF104991999999999999999999MA1100811999999REMMET051METAR SBLP 131800Z 36006KT 9999 SCT030 35/18 Q1008;
0120832880999992009121319004-13267-043417FM-15+0443SBLP V0209999C000012200019N0112651N1+03401+01801999999ADDGA1041+009001999GF104991999999999999999999MA1100811999999REMMET051METAR SBLP 131900Z 00000KT 9999 SCT030 34/18 Q1008;
0120832880999992009121320004-13267-043417FM-15+0443SBLP V0209999C000012200019N0112651N1+03301+01901999999ADDGA1041+009001999GF104991999999999999999999MA1100811999999REMMET051METAR SBLP 132000Z 00000KT 9999 SCT030 33/19 Q1008;
0120832880999992009121321004-13267-043417FM-15+0443SBLP V0209999C000012200019N0112651N1+03101+01901999999ADDGA1041+009001999GF104991999999999999999999MA1100911999999REMMET051METAR SBLP 132100Z 00000KT 9999 SCT030 31/19 Q1009;
0120832880999992009121410004-13267-043417FM-15+0443SBLP V0202101N001010069019N0112651N1+02501+02201999999ADDGA1071+006901999GF107991999999999999999999MA1101291999999REMMET051METAR SBLP 141000Z 21002KT 9999 BKN023 25/22 Q1013;
0143832880999992009121411004-13267-043417FM-15+0443SBLP V0202401N001512200019N0112651N1+02701+02201999999ADDGA1021+006901999GA2041+030001999GF104991999999999999999999MA1101291999999REMMET058METAR SBLP 141100Z 24003KT 9999 FEW023 SCT100 27/22 Q1013;
0143832880999992009121412004-13267-043417FM-15+0443SBLP V0202101N002112200019N0112651N1+02801+02201999999ADDGA1041+006901999GA2041+030001999GF104991999999999999999999MA1101391999999REMMET058METAR SBLP 141200Z 21004KT 9999 SCT023 SCT100 28/22 Q1014;
0143832880999992009121413004-13267-043417FM-15+0443SBLP V0201801N003112200019N0112651N1+03001+02101999999ADDGA1021+009001999GA2041+030001999GF104991999999999999999999MA1101391999999REMMET058METAR SBLP 141300Z 18006KT 9999 FEW030 SCT100 30/21 Q1014;
0120832880999992009121414004-13267-043417FM-15+0443SBLP V0202201N003112200019N0112651N1+03101+02101999999ADDGA1041+009001999GF104991999999999999999999MA1101291999999REMMET051METAR SBLP 141400Z 22006KT 9999 SCT030 31/21 Q1013;
0120832880999992009121415004-13267-043417FM-15+0443SBLP V0209999C000012200019N0112651N1+03201+02001999999ADDGA1041+009001999GF104991999999999999999999MA1101191999999REMMET051METAR SBLP 141500Z 00000KT 9999 SCT030 32/20 Q1012;
0186832880999992009121416004-13267-043417FM-15+0443SBLP V0201801N002110300019N0080001N1+03201+02201999999ADDGA1021+009001091GA2041+009001999GA3071+030001999GF107991999999999999999999MA1101081999999MW1801MW2951REMMET073METAR SBLP 141600Z 18004KT 8000 -TSRA SCT030 FEW030CB BKN100 32/22 Q1011;
0158832880999992009121417004-13267-043417FM-15+0443SBLP V0202401N003110090019N0112651N1+02302+02101999999ADDGA1071+009001999GA2071+030001999GF107991999999999999999999MA1101081999999MW1611REMMET067METAR SBLP 141700Z 24006KT 9999 -RA BKN030 BKN100 23/21 Q1011 RETS;
0125832880999992009121418004-13267-043417FM-15+0443SBLP V0209999C000012200019N0112651N1+02801+02101999999ADDGA1041+009001999GF104991999999999999999999MA1101021999999REMMET056METAR SBLP 141800Z 00000KT 9999 SCT030 28/21 Q1010 RERA;
0120832880999992009121419004-13267-043417FM-15+0443SBLP V0209999C000012200019N0112651N1+03101+02101999999ADDGA1041+009001999GF104991999999999999999999MA1101021999999REMMET051METAR SBLP 141900Z 00000KT 9999 SCT030 31/21 Q1010;
0120832880999992009121420004-13267-043417FM-15+0443SBLP V0209999C000012200019N0112651N1+03101+02001999999ADDGA1021+009001999GF102991999999999999999999MA1101021999999REMMET051METAR SBLP 142000Z 00000KT 9999 FEW030 31/20 Q1010;
0120832880999992009121421004-13267-043417FM-15+0443SBLP V0209999C000012200019N0112651N1+02901+02101999999ADDGA1021+009001999GF102991999999999999999999MA1101021999999REMMET051METAR SBLP 142100Z 00000KT 9999 FEW030 29/21 Q1010;
0120832880999992009121510004-13267-043417FM-15+0443SBLP V0201501N001512200019N0112651N1+02501+02101999999ADDGA1021+009001999GF102991999999999999999999MA1101391999999REMMET051METAR SBLP 151000Z 15003KT 9999 FEW030 25/21 Q1014;
0072832880999992009121511004-13267-043417FM-15+0443SBLP V0200901N001519999999Y0099001N1+02701+02001999999ADDMA1101491999999REMMET045METAR SBLP 151100Z 09003KT CAVOK 27/20 Q1015;
0072832880999992009121512004-13267-043417FM-15+0443SBLP V0200901N003119999999Y0099001N1+02801+02001999999ADDMA1101491999999REMMET045METAR SBLP 151200Z 09006KT CAVOK 28/20 Q1015;
0120832880999992009121513004-13267-043417FM-15+0443SBLP V0201201N001512200019N0112651N1+02901+02001999999ADDGA1021+009001999GF102991999999999999999999MA1101491999999REMMET051METAR SBLP 151300Z 12003KT 9999 FEW030 29/20 Q1015;
0120832880999992009121514004-13267-043417FM-15+0443SBLP V0201201N001512200019N0112651N1+03001+01901999999ADDGA1021+009001999GF102991999999999999999999MA1101391999999REMMET051METAR SBLP 151400Z 12003KT 9999 FEW030 30/19 Q1014;
0120832880999992009121515004-13267-043417FM-15+0443SBLP V0209999C000012200019N0112651N1+03201+01801999999ADDGA1021+009001999GF102991999999999999999999MA1101291999999REMMET051METAR SBLP 151500Z 00000KT 9999 FEW030 32/18 Q1013;
0120832880999992009121516004-13267-043417FM-15+0443SBLP V0200901N002112200019N0112651N1+03301+01801999999ADDGA1041+009001999GF104991999999999999999999MA1101191999999REMMET051METAR SBLP 151600Z 09004KT 9999 SCT030 33/18 Q1012;
0120832880999992009121517004-13267-043417FM-15+0443SBLP V0202601N004112200019N0112651N1+03401+01901999999ADDGA1041+009001999GF104991999999999999999999MA1101081999999REMMET051METAR SBLP 151700Z 26008KT 9999 SCT030 34/19 Q1011;
0120832880999992009121518004-13267-043417FM-15+0443SBLP V0202401N003112200019N0112651N1+03401+01801999999ADDGA1041+009001999GF104991999999999999999999MA1101021999999REMMET051METAR SBLP 151800Z 24006KT 9999 SCT030 34/18 Q1010;
0120832880999992009121519004-13267-043417FM-15+0443SBLP V0200401N003112200019N0112651N1+03501+01701999999ADDGA1041+009001999GF104991999999999999999999MA1101021999999REMMET051METAR SBLP 151900Z 04006KT 9999 SCT030 35/17 Q1010;
0120832880999992009121520004-13267-043417FM-15+0443SBLP V0201201N002112200019N0112651N1+03301+01801999999ADDGA1041+009001999GF104991999999999999999999MA1101021999999REMMET051METAR SBLP 152000Z 12004KT 9999 SCT030 33/18 Q1010;
0120832880999992009121521004-13267-043417FM-15+0443SBLP V0201301N002112200019N0112651N1+03301+01601999999ADDGA1021+009001999GF102991999999999999999999MA1101021999999REMMET051METAR SBLP 152100Z 13004KT 9999 FEW030 33/16 Q1010;
0072832880999992009121610004-13267-043417FM-15+0443SBLP V0201501N001519999999Y0099001N1+02501+01901999999ADDMA1101491999999REMMET045METAR SBLP 161000Z 15003KT CAVOK 25/19 Q1015;
0072832880999992009121611004-13267-043417FM-15+0443SBLP V0200901N003119999999Y0099001N1+02901+01901999999ADDMA1101491999999REMMET045METAR SBLP 161100Z 09006KT CAVOK 29/19 Q1015;
0072832880999992009121612004-13267-043417FM-15+0443SBLP V0200901N005119999999Y0099001N1+03101+01901999999ADDMA1101591999999REMMET045METAR SBLP 161200Z 09010KT CAVOK 31/19 Q1016;
0072832880999992009121613004-13267-043417FM-15+0443SBLP V0200301N006219999999Y0099001N1+03201+01901999999ADDMA1101491999999REMMET045METAR SBLP 161300Z 03012KT CAVOK 32/19 Q1015;
0072832880999992009121614004-13267-043417FM-15+0443SBLP V0200901N005119999999Y0099001N1+03301+01901999999ADDMA1101491999999REMMET045METAR SBLP 161400Z 09010KT CAVOK 33/19 Q1015;
0120832880999992009121615004-13267-043417FM-15+0443SBLP V0200601N005112200019N0112651N1+03501+01801999999ADDGA1021+009001999GF102991999999999999999999MA1101391999999REMMET051METAR SBLP 161500Z 06010KT 9999 FEW030 35/18 Q1014;
0120832880999992009121616004-13267-043417FM-15+0443SBLP V0200901N003112200019N0112651N1+03601+01801999999ADDGA1021+009001999GF102991999999999999999999MA1101291999999REMMET051METAR SBLP 161600Z 09006KT 9999 FEW030 36/18 Q1013;
0120832880999992009121617004-13267-043417FM-15+0443SBLP V0200901N003112200019N0112651N1+03701+01701999999ADDGA1041+009001999GF104991999999999999999999MA1101191999999REMMET051METAR SBLP 161700Z 09006KT 9999 SCT030 37/17 Q1012;
0120832880999992009121618004-13267-043417FM-15+0443SBLP V0201801N003112200019N0112651N1+03701+01601999999ADDGA1041+009001999GF104991999999999999999999MA1101081999999REMMET051METAR SBLP 161800Z 18006KT 9999 SCT030 37/16 Q1011;
0120832880999992009121619004-13267-043417FM-15+0443SBLP V0201801N003112200019N0112651N1+03601+01601999999ADDGA1041+009001999GF104991999999999999999999MA1101081999999REMMET051METAR SBLP 161900Z 18006KT 9999 SCT030 36/16 Q1011;
0120832880999992009121620004-13267-043417FM-15+0443SBLP V0202701N003112200019N0112651N1+03401+01701999999ADDGA1041+009001999GF104991999999999999999999MA1101081999999REMMET051METAR SBLP 162000Z 27006KT 9999 SCT030 34/17 Q1011;
0120832880999992009121621004-13267-043417FM-15+0443SBLP V0203601N003112200019N0112651N1+03001+01901999999ADDGA1041+009001999GF104991999999999999999999MA1101191999999REMMET051METAR SBLP 162100Z 36006KT 9999 SCT030 30/19 Q1012;
0072832880999992009121710004-13267-043417FM-15+0443SBLP V0201101N001519999999Y0099001N1+02601+01901999999ADDMA1101491999999REMMET045METAR SBLP 171000Z 11003KT CAVOK 26/19 Q1015;
0120832880999992009121711004-13267-043417FM-15+0443SBLP V0200901N005112200019N0112651N1+02901+01901999999ADDGA1021+009001999GF102991999999999999999999MA1101491999999REMMET051METAR SBLP 171100Z 09010KT 9999 FEW030 29/19 Q1015;
0120832880999992009121712004-13267-043417FM-15+0443SBLP V0200901N002112200019N0112651N1+03001+01901999999ADDGA1021+009001999GF102991999999999999999999MA1101591999999REMMET051METAR SBLP 171200Z 09004KT 9999 FEW030 30/19 Q1016;
0120832880999992009121713004-13267-043417FM-15+0443SBLP V0200801N003112200019N0112651N1+03101+01901999999ADDGA1021+009001999GF102991999999999999999999MA1101491999999REMMET051METAR SBLP 171300Z 08006KT 9999 FEW030 31/19 Q1015;
0120832880999992009121714004-13267-043417FM-15+0443SBLP V0200401N006212200019N0112651N1+03301+01801999999ADDGA1021+009001999GF102991999999999999999999MA1101491999999REMMET051METAR SBLP 171400Z 04012KT 9999 FEW030 33/18 Q1015;
0143832880999992009121715004-13267-043417FM-15+0443SBLP V0200301N004112200019N0112651N1+03301+01801999999ADDGA1021+009001999GA2041+030001999GF104991999999999999999999MA1101391999999REMMET058METAR SBLP 171500Z 03008KT 9999 FEW030 SCT100 33/18 Q1014;
0120832880999992009121716004-13267-043417FM-15+0443SBLP V0203601N003112200019N0112651N1+03501+01701999999ADDGA1041+009001999GF104991999999999999999999MA1101291999999REMMET051METAR SBLP 171600Z 36006KT 9999 SCT030 35/17 Q1013;
0120832880999992009121717004-13267-043417FM-15+0443SBLP V0203601N003112200019N0112651N1+03601+01701999999ADDGA1041+009001999GF104991999999999999999999MA1101191999999REMMET051METAR SBLP 171700Z 36006KT 9999 SCT030 36/17 Q1012;
0120832880999992009121718004-13267-043417FM-15+0443SBLP V0203601N003112200019N0112651N1+03701+01601999999ADDGA1041+009001999GF104991999999999999999999MA1101081999999REMMET051METAR SBLP 171800Z 36006KT 9999 SCT030 37/16 Q1011;
0120832880999992009121719004-13267-043417FM-15+0443SBLP V0209999C000012200019N0112651N1+03601+01601999999ADDGA1041+009001999GF104991999999999999999999MA1101021999999REMMET051METAR SBLP 171900Z 00000KT 9999 SCT030 36/16 Q1010;
0120832880999992009121720004-13267-043417FM-15+0443SBLP V0209999C000012200019N0112651N1+03401+01701999999ADDGA1021+009001999GF102991999999999999999999MA1101021999999REMMET051METAR SBLP 172000Z 00000KT 9999 FEW030 34/17 Q1010;
0120832880999992009121721004-13267-043417FM-15+0443SBLP V0209999C000012200019N0112651N1+03401+01701999999ADDGA1021+009001999GF102991999999999999999999MA1101021999999REMMET051METAR SBLP 172100Z 00000KT 9999 FEW030 34/17 Q1010;
0072832880999992009121810004-13267-043417FM-15+0443SBLP V0209999C000019999999Y0099001N1+02601+02001999999ADDMA1101491999999REMMET045METAR SBLP 181000Z 00000KT CAVOK 26/20 Q1015;
0072832880999992009121811004-13267-043417FM-15+0443SBLP V0200901N003119999999Y0099001N1+02901+01901999999ADDMA1101491999999REMMET045METAR SBLP 181100Z 09006KT CAVOK 29/19 Q1015;
0072832880999992009121812004-13267-043417FM-15+0443SBLP V0200901N003119999999Y0099001N1+03101+01901999999ADDMA1101491999999REMMET045METAR SBLP 181200Z 09006KT CAVOK 31/19 Q1015;
0072832880999992009121813004-13267-043417FM-15+0443SBLP V0200901N003119999999Y0099001N1+03301+01801999999ADDMA1101491999999REMMET045METAR SBLP 181300Z 09006KT CAVOK 33/18 Q1015;
0072832880999992009121814004-13267-043417FM-15+0443SBLP V0203601N003119999999Y0099001N1+03401+01801999999ADDMA1101391999999REMMET045METAR SBLP 181400Z 36006KT CAVOK 34/18 Q1014;
0120832880999992009121815004-13267-043417FM-15+0443SBLP V0203601N003112200019N0112651N1+03401+01801999999ADDGA1021+009001999GF102991999999999999999999MA1101291999999REMMET051METAR SBLP 181500Z 36006KT 9999 FEW030 34/18 Q1013;
0120832880999992009121816004-13267-043417FM-15+0443SBLP V0202701N002612200019N0112651N1+03601+01701999999ADDGA1021+009001999GF102991999999999999999999MA1101291999999REMMET051METAR SBLP 181600Z 27005KT 9999 FEW030 36/17 Q1013;
0120832880999992009121817004-13267-043417FM-15+0443SBLP V0209999C000012200019N0112651N1+03701+01501999999ADDGA1021+009001999GF102991999999999999999999MA1101081999999REMMET051METAR SBLP 181700Z 00000KT 9999 FEW030 37/15 Q1011;
0120832880999992009121818004-13267-043417FM-15+0443SBLP V0202101N001512200019N0112651N1+03701+01501999999ADDGA1021+009001999GF102991999999999999999999MA1101021999999REMMET051METAR SBLP 181800Z 21003KT 9999 FEW030 37/15 Q1010;
0120832880999992009121819004-13267-043417FM-15+0443SBLP V0200601N002612200019N0112651N1+03801+01401999999ADDGA1021+009001999GF102991999999999999999999MA1101021999999REMMET051METAR SBLP 181900Z 06005KT 9999 FEW030 38/14 Q1010;
0120832880999992009121820004-13267-043417FM-15+0443SBLP V0200601N002612200019N0112651N1+03701+01601999999ADDGA1021+009001999GF102991999999999999999999MA1101021999999REMMET051METAR SBLP 182000Z 06005KT 9999 FEW030 37/16 Q1010;
0120832880999992009121821004-13267-043417FM-15+0443SBLP V0200301N001512200019N0112651N1+03501+01601999999ADDGA1021+009001999GF102991999999999999999999MA1101021999999REMMET051METAR SBLP 182100Z 03003KT 9999 FEW030 35/16 Q1010;
0072832880999992009121910004-13267-043417FM-15+0443SBLP V0209999C000019999999Y0099001N1+02501+02001999999ADDMA1101491999999REMMET045METAR SBLP 191000Z 00000KT CAVOK 25/20 Q1015;
0072832880999992009121911004-13267-043417FM-15+0443SBLP V0209999C000019999999Y0099001N1+02901+01901999999ADDMA1101491999999REMMET045METAR SBLP 191100Z 00000KT CAVOK 29/19 Q1015;
0072832880999992009121912004-13267-043417FM-15+0443SBLP V0209999C000019999999Y0099001N1+03101+01901999999ADDMA1101491999999REMMET045METAR SBLP 191200Z 00000KT CAVOK 31/19 Q1015;
0072832880999992009121913004-13267-043417FM-15+0443SBLP V0209999C000019999999Y0099001N1+03201+01801999999ADDMA1101491999999REMMET045METAR SBLP 191300Z 00000KT CAVOK 32/18 Q1015;
0120832880999992009121914004-13267-043417FM-15+0443SBLP V0202701N003112200019N0112651N1+03301+01801999999ADDGA1021+009001999GF102991999999999999999999MA1101491999999REMMET051METAR SBLP 191400Z 27006KT 9999 FEW030 33/18 Q1015;
0120832880999992009121915004-13267-043417FM-15+0443SBLP V0202701N003112200019N0112651N1+03301+01801999999ADDGA1021+009001999GF102991999999999999999999MA1101391999999REMMET051METAR SBLP 191500Z 27006KT 9999 FEW030 33/18 Q1014;
0120832880999992009121916004-13267-043417FM-15+0443SBLP V0202101N003112200019N0112651N1+03601+01801999999ADDGA1041+009001999GF104991999999999999999999MA1101291999999REMMET051METAR SBLP 191600Z 21006KT 9999 SCT030 36/18 Q1013;
0120832880999992009121917004-13267-043417FM-15+0443SBLP V0202501N003110090019N0112651N1+03601+01701999999ADDGA1071+009001999GF107991999999999999999999MA1101191999999REMMET051METAR SBLP 191700Z 25006KT 9999 BKN030 36/17 Q1012;
0158832880999992009121918004-13267-043417FM-15+0443SBLP V0201501N004112200019N0080001N1+03301+01901999999ADDGA1041+009001999GA2021+012001091MA1101191999999MW1161MW2171REMMET068METAR SBLP 191800Z 15008KT 8000 TS VCSH SCT030 FEW040CB 33/19 Q1012;EQDQ01+000022SCOTCV
0147832880999992009121919004-13267-043417FM-15+0443SBLP V0201301N002612200019N0112651N1+03301+01901999999ADDGA1041+009001999GA2021+012001091MA1101081999999MW1171REMMET063METAR SBLP 191900Z 13005KT 9999 TS SCT030 FEW040CB 33/19 Q1011;EQDQ01+000022SCOTCV
0125832880999992009121920004-13267-043417FM-15+0443SBLP V0201801N004112200019N0112651N1+03001+01901999999ADDGA1041+009001999GF104991999999999999999999MA1101191999999REMMET056METAR SBLP 192000Z 18008KT 9999 SCT030 30/19 Q1012 RETS;
0120832880999992009121921004-13267-043417FM-15+0443SBLP V0201501N002112200019N0112651N1+02801+02001999999ADDGA1041+009001999GF104991999999999999999999MA1101191999999REMMET051METAR SBLP 192100Z 15004KT 9999 SCT030 28/20 Q1012;
0120832880999992009122010004-13267-043417FM-15+0443SBLP V0201501N002110069019N0112651N1+02301+02201999999ADDGA1071+006901999GF107991999999999999999999MA1101591999999REMMET051METAR SBLP 201000Z 15004KT 9999 BKN023 23/22 Q1016;
0143832880999992009122011004-13267-043417FM-15+0443SBLP V0201801N002112200019N0112651N1+02401+02101999999ADDGA1041+006901999GA2041+030001999GF104991999999999999999999MA1101591999999REMMET058METAR SBLP 201100Z 18004KT 9999 SCT023 SCT100 24/21 Q1016;
0143832880999992009122012004-13267-043417FM-15+0443SBLP V0201501N002610300019N0112651N1+02501+02101999999ADDGA1021+006901999GA2071+030001999GF107991999999999999999999MA1101691999999REMMET058METAR SBLP 201200Z 15005KT 9999 FEW023 BKN100 25/21 Q1017;
0143832880999992009122013004-13267-043417FM-15+0443SBLP V0201401N001510300019N0112651N1+02801+02101999999ADDGA1021+006901999GA2071+030001999GF107991999999999999999999MA1101691999999REMMET058METAR SBLP 201300Z 14003KT 9999 FEW023 BKN100 28/21 Q1017;
0143832880999992009122014004-13267-043417FM-15+0443SBLP V0200901N002110300019N0112651N1+03001+02101999999ADDGA1021+008101999GA2071+030001999GF107991999999999999999999MA1101591999999REMMET058METAR SBLP 201400Z 09004KT 9999 FEW027 BKN100 30/21 Q1016;
0143832880999992009122015004-13267-043417FM-15+0443SBLP V0201101N002610300019N0112651N1+03001+02101999999ADDGA1021+008101999GA2071+030001999GF107991999999999999999999MA1101491999999REMMET058METAR SBLP 201500Z 11005KT 9999 FEW027 BKN100 30/21 Q1015;
0143832880999992009122016004-13267-043417FM-15+0443SBLP V0200601N003110300019N0112651N1+03101+02101999999ADDGA1021+009001999GA2071+030001999GF107991999999999999999999MA1101491999999REMMET058METAR SBLP 201600Z 06006KT 9999 FEW030 BKN100 31/21 Q1015;
0143832880999992009122017004-13267-043417FM-15+0443SBLP V0200101N002110300019N0112651N1+03101+02101999999ADDGA1021+009001999GA2071+030001999GF107991999999999999999999MA1101491999999REMMET058METAR SBLP 201700Z 01004KT 9999 FEW030 BKN100 31/21 Q1015;
0143832880999992009122018004-13267-043417FM-15+0443SBLP V0203101N002110300019N0112651N1+03101+02201999999ADDGA1021+009001999GA2071+030001999GF107991999999999999999999MA1101291999999REMMET058METAR SBLP 201800Z 31004KT 9999 FEW030 BKN100 31/22 Q1013;
0143832880999992009122019004-13267-043417FM-15+0443SBLP V0203501N002110300019N0112651N1+03001+02101999999ADDGA1021+009001999GA2071+030001999GF107991999999999999999999MA1101291999999REMMET058METAR SBLP 201900Z 35004KT 9999 FEW030 BKN100 30/21 Q1013;
0143832880999992009122020004-13267-043417FM-15+0443SBLP V0203301N001510300019N0112651N1+02901+02101999999ADDGA1021+009001999GA2071+030001999GF107991999999999999999999MA1101291999999REMMET058METAR SBLP 202000Z 33003KT 9999 FEW030 BKN100 29/21 Q1013;
0143832880999992009122021004-13267-043417FM-15+0443SBLP V0203601N005110300019N0112651N1+02601+01901999999ADDGA1041+006001999GA2071+030001999GF107991999999999999999999MA1101391999999REMMET058METAR SBLP 202100Z 36010KT 9999 SCT020 BKN100 26/19 Q1014;
0072832880999992009122110004-13267-043417FM-15+0443SBLP V0201801N002119999999Y0099001N1+02301+02001999999ADDMA1101691999999REMMET045METAR SBLP 211000Z 18004KT CAVOK 23/20 Q1017;
0143832880999992009122111004-13267-043417FM-15+0443SBLP V0201501N003110300019N0112651N1+02401+02001999999ADDGA1021+009001999GA2071+030001999GF107991999999999999999999MA1101691999999REMMET058METAR SBLP 211100Z 15006KT 9999 FEW030 BKN100 24/20 Q1017;
0072832880999992009122112004-13267-043417FM-15+0443SBLP V0209999C000019999999Y0099001N1+02601+02101999999ADDMA1101691999999REMMET045METAR SBLP 211200Z 00000KT CAVOK 26/21 Q1017;
0072832880999992009122113004-13267-043417FM-15+0443SBLP V0201001N002119999999Y0099001N1+02901+02001999999ADDMA1101691999999REMMET045METAR SBLP 211300Z 10004KT CAVOK 29/20 Q1017;
0072832880999992009122114004-13267-043417FM-15+0443SBLP V0209999C000019999999Y0099001N1+03101+02101999999ADDMA1101691999999REMMET045METAR SBLP 211400Z 00000KT CAVOK 31/21 Q1017;
0143832880999992009122115004-13267-043417FM-15+0443SBLP V0202101N002110300019N0112651N1+03101+02001999999ADDGA1021+009001999GA2071+030001999GF107991999999999999999999MA1101591999999REMMET058METAR SBLP 211500Z 21004KT 9999 FEW030 BKN100 31/20 Q1016;
0143832880999992009122116004-13267-043417FM-15+0443SBLP V0202701N003110300019N0112651N1+03201+02001999999ADDGA1021+009001999GA2071+030001999GF107991999999999999999999MA1101491999999REMMET058METAR SBLP 211600Z 27006KT 9999 FEW030 BKN100 32/20 Q1015;
0143832880999992009122117004-13267-043417FM-15+0443SBLP V0202701N003110300019N0112651N1+03201+02001999999ADDGA1041+009001999GA2071+030001999GF107991999999999999999999MA1101491999999REMMET058METAR SBLP 211700Z 27006KT 9999 SCT030 BKN100 32/20 Q1015;
0143832880999992009122118004-13267-043417FM-15+0443SBLP V0202701N003110300019N0112651N1+03201+02001999999ADDGA1041+009001999GA2071+030001999GF107991999999999999999999MA1101391999999REMMET058METAR SBLP 211800Z 27006KT 9999 SCT030 BKN100 32/20 Q1014;
0143832880999992009122119004-13267-043417FM-15+0443SBLP V0202701N003110300019N0112651N1+03101+02001999999ADDGA1041+009001999GA2071+030001999GF107991999999999999999999MA1101291999999REMMET058METAR SBLP 211900Z 27006KT 9999 SCT030 BKN100 31/20 Q1013;
0143832880999992009122120004-13267-043417FM-15+0443SBLP V0201801N003110300019N0112651N1+03001+02101999999ADDGA1021+009001999GA2071+030001999GF107991999999999999999999MA1101291999999REMMET058METAR SBLP 212000Z 18006KT 9999 FEW030 BKN100 30/21 Q1013;
0143832880999992009122121004-13267-043417FM-15+0443SBLP V0201801N003110300019N0112651N1+02901+02101999999ADDGA1021+009001999GA2071+030001999GF107991999999999999999999MA1101291999999REMMET058METAR SBLP 212100Z 18006KT 9999 FEW030 BKN100 29/21 Q1013;
0143832880999992009122210004-13267-043417FM-15+0443SBLP V0209999C000010300019N0112651N1+02301+02001999999ADDGA1041+006001999GA2071+030001999GF107991999999999999999999MA1101591999999REMMET058METAR SBLP 221000Z 00000KT 9999 SCT020 BKN100 23/20 Q1016;
0072832880999992009122211004-13267-043417FM-15+0443SBLP V0201801N002119999999Y0099001N1+02401+02001999999ADDMA1101691999999REMMET045METAR SBLP 221100Z 18004KT CAVOK 24/20 Q1017;
0072832880999992009122212004-13267-043417FM-15+0443SBLP V0201801N002119999999Y0099001N1+02601+02001999999ADDMA1101801999999REMMET045METAR SBLP 221200Z 18004KT CAVOK 26/20 Q1018;
0143832880999992009122213004-13267-043417FM-15+0443SBLP V0202101N002110300019N0112651N1+02801+02101999999ADDGA1021+009001999GA2071+030001999GF107991999999999999999999MA1101801999999REMMET058METAR SBLP 221300Z 21004KT 9999 FEW030 BKN100 28/21 Q1018;
0143832880999992009122214004-13267-043417FM-15+0443SBLP V0201801N002612200019N0112651N1+03101+01901999999ADDGA1021+009001999GA2041+030001999GF104991999999999999999999MA1101691999999REMMET058METAR SBLP 221400Z 18005KT 9999 FEW030 SCT100 31/19 Q1017;
0143832880999992009122215004-13267-043417FM-15+0443SBLP V0202101N003112200019N0112651N1+03301+01901999999ADDGA1021+009001999GA2041+030001999GF104991999999999999999999MA1101691999999REMMET058METAR SBLP 221500Z 21006KT 9999 FEW030 SCT100 33/19 Q1017;
0143832880999992009122216004-13267-043417FM-15+0443SBLP V0202701N003112200019N0112651N1+03401+01801999999ADDGA1041+009001999GA2041+030001999GF104991999999999999999999MA1101491999999REMMET058METAR SBLP 221600Z 27006KT 9999 SCT030 SCT100 34/18 Q1015;
0120832880999992009122217004-13267-043417FM-15+0443SBLP V0203601N003112200019N0112651N1+03501+01801999999ADDGA1041+009001999GF104991999999999999999999MA1101391999999REMMET051METAR SBLP 221700Z 36006KT 9999 SCT030 35/18 Q1014;
0120832880999992009122218004-13267-043417FM-15+0443SBLP V0203601N003112200019N0112651N1+03601+01801999999ADDGA1041+009001999GF104991999999999999999999MA1101291999999REMMET051METAR SBLP 221800Z 36006KT 9999 SCT030 36/18 Q1013;
0120832880999992009122219004-13267-043417FM-15+0443SBLP V0200901N003112200019N0112651N1+03501+01801999999ADDGA1041+009001999GF104991999999999999999999MA1101191999999REMMET051METAR SBLP 221900Z 09006KT 9999 SCT030 35/18 Q1012;
0120832880999992009122220004-13267-043417FM-15+0443SBLP V0200901N003112200019N0112651N1+03301+01801999999ADDGA1021+009001999GF102991999999999999999999MA1101191999999REMMET051METAR SBLP 222000Z 09006KT 9999 FEW030 33/18 Q1012;
0120832880999992009122221004-13267-043417FM-15+0443SBLP V0200901N003112200019N0112651N1+03101+01901999999ADDGA1021+009001999GF102991999999999999999999MA1101291999999REMMET051METAR SBLP 222100Z 09006KT 9999 FEW030 31/19 Q1013;
0072832880999992009122310004-13267-043417FM-15+0443SBLP V0209999C000019999999Y0099001N1+02401+02001999999ADDMA1101691999999REMMET045METAR SBLP 231000Z 00000KT CAVOK 24/20 Q1017;
0072832880999992009122311004-13267-043417FM-15+0443SBLP V0200901N003119999999Y0099001N1+02701+02001999999ADDMA1101801999999REMMET045METAR SBLP 231100Z 09006KT CAVOK 27/20 Q1018;
0072832880999992009122312004-13267-043417FM-15+0443SBLP V0200901N003119999999Y0099001N1+02901+02001999999ADDMA1101801999999REMMET045METAR SBLP 231200Z 09006KT CAVOK 29/20 Q1018;
0120832880999992009122313004-13267-043417FM-15+0443SBLP V0200901N003112200019N0112651N1+03101+01901999999ADDGA1021+009001999GF102991999999999999999999MA1101801999999REMMET051METAR SBLP 231300Z 09006KT 9999 FEW030 31/19 Q1018;
0120832880999992009122314004-13267-043417FM-15+0443SBLP V0203601N003112200019N0112651N1+03201+01901999999ADDGA1021+009001999GF102991999999999999999999MA1101691999999REMMET051METAR SBLP 231400Z 36006KT 9999 FEW030 32/19 Q1017;
0120832880999992009122315004-13267-043417FM-15+0443SBLP V0202701N003112200019N0112651N1+03201+01901999999ADDGA1041+009001999GF104991999999999999999999MA1101591999999REMMET051METAR SBLP 231500Z 27006KT 9999 SCT030 32/19 Q1016;
0120832880999992009122316004-13267-043417FM-15+0443SBLP V0201801N001512200019N0112651N1+03301+01801999999ADDGA1041+009001999GF104991999999999999999999MA1101491999999REMMET051METAR SBLP 231600Z 18003KT 9999 SCT030 33/18 Q1015;
0120832880999992009122317004-13267-043417FM-15+0443SBLP V0202701N002112200019N0112651N1+03501+01701999999ADDGA1021+009001999GF102991999999999999999999MA1101391999999REMMET051METAR SBLP 231700Z 27004KT 9999 FEW030 35/17 Q1014;
0147832880999992009122318004-13267-043417FM-15+0443SBLP V0201601N001512200019N0112651N1+03401+01801999999ADDGA1041+009001999GA2021+012001091MA1101291999999MW1171REMMET063METAR SBLP 231800Z 16003KT 9999 TS SCT030 FEW040CB 34/18 Q1013;EQDQ01+000022SCOTCV
0125832880999992009122319004-13267-043417FM-15+0443SBLP V0201301N002612200019N0112651N1+03401+01701999999ADDGA1041+009001999GF104991999999999999999999MA1101191999999REMMET056METAR SBLP 231900Z 13005KT 9999 SCT030 34/17 Q1012 RETS;
0120832880999992009122320004-13267-043417FM-15+0443SBLP V0201801N003112200019N0112651N1+03001+01901999999ADDGA1041+009001999GF104991999999999999999999MA1101191999999REMMET051METAR SBLP 232000Z 18006KT 9999 SCT030 30/19 Q1012;
0120832880999992009122321004-13267-043417FM-15+0443SBLP V0201801N001512200019N0112651N1+03001+02001999999ADDGA1041+009001999GF104991999999999999999999MA1101191999999REMMET051METAR SBLP 232100Z 18003KT 9999 SCT030 30/20 Q1012;
0072832880999992009122410004-13267-043417FM-15+0443SBLP V0209999C000019999999Y0099001N1+02501+01901999999ADDMA1101591999999REMMET045METAR SBLP 241000Z 00000KT CAVOK 25/19 Q1016;
0072832880999992009122411004-13267-043417FM-15+0443SBLP V0209999C000019999999Y0099001N1+02801+01901999999ADDMA1101591999999REMMET045METAR SBLP 241100Z 00000KT CAVOK 28/19 Q1016;
0072832880999992009122412004-13267-043417FM-15+0443SBLP V0200901N003119999999Y0099001N1+03101+01901999999ADDMA1101591999999REMMET045METAR SBLP 241200Z 09006KT CAVOK 31/19 Q1016;
0120832880999992009122414004-13267-043417FM-15+0443SBLP V0200901N003112200019N0112651N1+03301+01801999999ADDGA1021+009001999GF102991999999999999999999MA1101491999999REMMET051METAR SBLP 241400Z 09006KT 9999 FEW030 33/18 Q1015;
0120832880999992009122415004-13267-043417FM-15+0443SBLP V0203601N003112200019N0112651N1+03301+01801999999ADDGA1041+009001999GF104991999999999999999999MA1101491999999REMMET051METAR SBLP 241500Z 36006KT 9999 SCT030 33/18 Q1015;
0120832880999992009122416004-13267-043417FM-15+0443SBLP V0209999C000012200019N0112651N1+03301+01801999999ADDGA1041+009001999GF104991999999999999999999MA1101391999999REMMET051METAR SBLP 241600Z 00000KT 9999 SCT030 33/18 Q1014;
0120832880999992009122417004-13267-043417FM-15+0443SBLP V0203001N001512200019N0112651N1+03501+01801999999ADDGA1041+009001999GF104991999999999999999999MA1101291999999REMMET051METAR SBLP 241700Z 30003KT 9999 SCT030 35/18 Q1013;
0120832880999992009122418004-13267-043417FM-15+0443SBLP V0202701N001512200019N0112651N1+03501+01801999999ADDGA1041+009001999GF104991999999999999999999MA1101081999999REMMET051METAR SBLP 241800Z 27003KT 9999 SCT030 35/18 Q1011;
0120832880999992009122419004-13267-043417FM-15+0443SBLP V0202101N002112200019N0112651N1+03601+01701999999ADDGA1041+009001999GF104991999999999999999999MA1101081999999REMMET051METAR SBLP 241900Z 21004KT 9999 SCT030 36/17 Q1011;
0120832880999992009122420004-13267-043417FM-15+0443SBLP V0209999C000012200019N0112651N1+03501+01701999999ADDGA1041+009001999GF104991999999999999999999MA1101021999999REMMET051METAR SBLP 242000Z 00000KT 9999 SCT030 35/17 Q1010;
0120832880999992009122421004-13267-043417FM-15+0443SBLP V0201401N002612200019N0112651N1+03301+01801999999ADDGA1041+009001999GF104991999999999999999999MA1101081999999REMMET051METAR SBLP 242100Z 14005KT 9999 SCT030 33/18 Q1011;
0143832880999992009122510004-13267-043417FM-15+0443SBLP V0209999C000010300019N0112651N1+02201+02101999999ADDGA1021+006901999GA2071+030001999GF107991999999999999999999MA1101491999999REMMET058METAR SBLP 251000Z 00000KT 9999 FEW023 BKN100 22/21 Q1015;
0143832880999992009122511004-13267-043417FM-15+0443SBLP V0203601N002110300019N0112651N1+02401+02201999999ADDGA1021+006901999GA2071+030001999GF107991999999999999999999MA1101591999999REMMET058METAR SBLP 251100Z 36004KT 9999 FEW023 BKN100 24/22 Q1016;
0143832880999992009122512004-13267-043417FM-15+0443SBLP V0203501N002110300019N0112651N1+02501+02301999999ADDGA1021+006901999GA2071+030001999GF107991999999999999999999MA1101591999999REMMET058METAR SBLP 251200Z 35004KT 9999 FEW023 BKN100 25/23 Q1016;
0143832880999992009122513004-13267-043417FM-15+0443SBLP V0200201N002112200019N0112651N1+02701+02301999999ADDGA1021+006901999GA2041+030001999GF104991999999999999999999MA1101591999999REMMET058METAR SBLP 251300Z 02004KT 9999 FEW023 SCT100 27/23 Q1016;
0143832880999992009122514004-13267-043417FM-15+0443SBLP V0203601N002610300019N0112651N1+02901+02201999999ADDGA1021+009001999GA2071+030001999GF107991999999999999999999MA1101491999999REMMET058METAR SBLP 251400Z 36005KT 9999 FEW030 BKN100 29/22 Q1015;
0143832880999992009122515004-13267-043417FM-15+0443SBLP V0202901N002610300019N0112651N1+02901+02201999999ADDGA1021+009001999GA2071+030001999GF107991999999999999999999MA1101491999999REMMET058METAR SBLP 251500Z 29005KT 9999 FEW030 BKN100 29/22 Q1015;
0143832880999992009122516004-13267-043417FM-15+0443SBLP V0203601N003110300019N0112651N1+03001+02201999999ADDGA1021+009001999GA2071+030001999GF107991999999999999999999MA1101291999999REMMET058METAR SBLP 251600Z 36006KT 9999 FEW030 BKN100 30/22 Q1013;
0143832880999992009122517004-13267-043417FM-15+0443SBLP V0202701N003110300019N0112651N1+02901+02101999999ADDGA1021+009001999GA2071+030001999GF107991999999999999999999MA1101291999999REMMET058METAR SBLP 251700Z 27006KT 9999 FEW030 BKN100 29/21 Q1013;
0143832880999992009122518004-13267-043417FM-15+0443SBLP V0202401N002110300019N0112651N1+02801+02201999999ADDGA1021+009001999GA2071+030001999GF107991999999999999999999MA1101291999999REMMET058METAR SBLP 251800Z 24004KT 9999 FEW030 BKN100 28/22 Q1013;
0143832880999992009122519004-13267-043417FM-15+0443SBLP V0202301N002110300019N0112651N1+02801+02201999999ADDGA1021+009001999GA2071+030001999GF107991999999999999999999MA1101191999999REMMET058METAR SBLP 251900Z 23004KT 9999 FEW030 BKN100 28/22 Q1012;
0143832880999992009122520004-13267-043417FM-15+0443SBLP V0202001N001510300019N0112651N1+02801+02201999999ADDGA1021+009001999GA2071+030001999GF107991999999999999999999MA1101081999999REMMET058METAR SBLP 252000Z 20003KT 9999 FEW030 BKN100 28/22 Q1011;
0143832880999992009122521004-13267-043417FM-15+0443SBLP V0202001N001510300019N0112651N1+02801+02201999999ADDGA1021+009001999GA2071+030001999GF107991999999999999999999MA1101081999999REMMET058METAR SBLP 252100Z 20003KT 9999 FEW030 BKN100 28/22 Q1011;
0072832880999992009122610004-13267-043417FM-15+0443SBLP V0202601N003119999999Y0099001N1+02301+02101999999ADDMA1101391999999REMMET045METAR SBLP 261000Z 26006KT CAVOK 23/21 Q1014;
0072832880999992009122611004-13267-043417FM-15+0443SBLP V0203601N003119999999Y0099001N1+02501+02101999999ADDMA1101491999999REMMET045METAR SBLP 261100Z 36006KT CAVOK 25/21 Q1015;
0143832880999992009122612004-13267-043417FM-15+0443SBLP V0200301N003110300019N0112651N1+02701+02201999999ADDGA1041+006001999GA2071+030001999GF107991999999999999999999MA1101491999999REMMET058METAR SBLP 261200Z 03006KT 9999 SCT020 BKN100 27/22 Q1015;
0143832880999992009122613004-13267-043417FM-15+0443SBLP V0200301N002110300019N0112651N1+02801+02201999999ADDGA1041+006001999GA2071+030001999GF107991999999999999999999MA1101491999999REMMET058METAR SBLP 261300Z 03004KT 9999 SCT020 BKN100 28/22 Q1015;
0143832880999992009122614004-13267-043417FM-15+0443SBLP V0203501N003110300019N0112651N1+02801+02201999999ADDGA1041+006001999GA2071+030001999GF107991999999999999999999MA1101491999999REMMET058METAR SBLP 261400Z 35006KT 9999 SCT020 BKN100 28/22 Q1015;
0143832880999992009122615004-13267-043417FM-15+0443SBLP V0203601N004110300019N0112651N1+02901+02201999999ADDGA1041+006901999GA2071+030001999GF107991999999999999999999MA1101391999999REMMET058METAR SBLP 261500Z 36008KT 9999 SCT023 BKN100 29/22 Q1014;
0143832880999992009122616004-13267-043417FM-15+0443SBLP V0203601N003110300019N0112651N1+03001+02101999999ADDGA1041+009001999GA2071+030001999GF107991999999999999999999MA1101191999999REMMET058METAR SBLP 261600Z 36006KT 9999 SCT030 BKN100 30/21 Q1012;
0143832880999992009122617004-13267-043417FM-15+0443SBLP V0203601N003112200019N0112651N1+03101+02001999999ADDGA1041+009001999GA2041+030001999GF104991999999999999999999MA1101081999999REMMET058METAR SBLP 261700Z 36006KT 9999 SCT030 SCT100 31/20 Q1011;
0143832880999992009122618004-13267-043417FM-15+0443SBLP V0203601N003112200019N0112651N1+03201+02001999999ADDGA1041+009001999GA2041+030001999GF104991999999999999999999MA1101021999999REMMET058METAR SBLP 261800Z 36006KT 9999 SCT030 SCT100 32/20 Q1010;
0143832880999992009122619004-13267-043417FM-15+0443SBLP V0203601N003112200019N0112651N1+03201+02001999999ADDGA1041+009001999GA2041+030001999GF104991999999999999999999MA1101021999999REMMET058METAR SBLP 261900Z 36006KT 9999 SCT030 SCT100 32/20 Q1010;
0143832880999992009122620004-13267-043417FM-15+0443SBLP V0203601N003112200019N0112651N1+03101+02001999999ADDGA1041+009001999GA2041+030001999GF104991999999999999999999MA1101021999999REMMET058METAR SBLP 262000Z 36006KT 9999 SCT030 SCT100 31/20 Q1010;
0143832880999992009122621004-13267-043417FM-15+0443SBLP V0203601N003112200019N0112651N1+03001+02001999999ADDGA1041+009001999GA2041+030001999GF104991999999999999999999MA1101021999999REMMET058METAR SBLP 262100Z 36006KT 9999 SCT030 SCT100 30/20 Q1010;
0148832880999992009122710004-13267-043417FM-15+0443SBLP V0203301N004110045019N0112651N1+02301+02101999999ADDGA1071+004501999GA2071+030001999GF107991999999999999999999MA1101391999999REMMET063METAR SBLP 271000Z 33008KT 9999 BKN015 BKN100 23/21 Q1014 RERA;
0153832880999992009122711004-13267-043417FM-15+0443SBLP V0203601N003110045019N0080001N1+02301+02201999999ADDGA1071+004501999GA2071+030001999GF107991999999999999999999MA1101491999999MW1611REMMET062METAR SBLP 271100Z 36006KT 8000 -RA BKN015 BKN100 23/22 Q1015;
0148832880999992009122712004-13267-043417FM-15+0443SBLP V0200601N004110300019N0112651N1+02501+02201999999ADDGA1041+006001999GA2071+030001999GF107991999999999999999999MA1101491999999REMMET063METAR SBLP 271200Z 06008KT 9999 SCT020 BKN100 25/22 Q1015 RERA;
0143832880999992009122713004-13267-043417FM-15+0443SBLP V0209999C000010300019N0112651N1+02701+02301999999ADDGA1041+006001999GA2071+030001999GF107991999999999999999999MA1101491999999REMMET058METAR SBLP 271300Z 00000KT 9999 SCT020 BKN100 27/23 Q1015;
0143832880999992009122714004-13267-043417FM-15+0443SBLP V0203501N004110300019N0112651N1+02801+02101999999ADDGA1021+006001999GA2071+030001999GF107991999999999999999999MA1101391999999REMMET058METAR SBLP 271400Z 35008KT 9999 FEW020 BKN100 28/21 Q1014;
0143832880999992009122715004-13267-043417FM-15+0443SBLP V0200101N004110300019N0112651N1+02801+02201999999ADDGA1021+009001999GA2071+030001999GF107991999999999999999999MA1101291999999REMMET058METAR SBLP 271500Z 01008KT 9999 FEW030 BKN100 28/22 Q1013;
0143832880999992009122716004-13267-043417FM-15+0443SBLP V0203601N003110300019N0112651N1+03101+02101999999ADDGA1021+009001999GA2071+030001999GF107991999999999999999999MA1101191999999REMMET058METAR SBLP 271600Z 36006KT 9999 FEW030 BKN100 31/21 Q1012;
0143832880999992009122717004-13267-043417FM-15+0443SBLP V0203601N003110300019N0112651N1+03101+02101999999ADDGA1041+009001999GA2071+030001999GF107991999999999999999999MA1101191999999REMMET058METAR SBLP 271700Z 36006KT 9999 SCT030 BKN100 31/21 Q1012;
0143832880999992009122718004-13267-043417FM-15+0443SBLP V0203601N003110300019N0112651N1+02901+02101999999ADDGA1041+009001999GA2071+030001999GF107991999999999999999999MA1101191999999REMMET058METAR SBLP 271800Z 36006KT 9999 SCT030 BKN100 29/21 Q1012;
0143832880999992009122719004-13267-043417FM-15+0443SBLP V0203601N003110300019N0112651N1+02901+02101999999ADDGA1041+009001999GA2071+030001999GF107991999999999999999999MA1101081999999REMMET058METAR SBLP 271900Z 36006KT 9999 SCT030 BKN100 29/21 Q1011;
0143832880999992009122720004-13267-043417FM-15+0443SBLP V0203601N003110300019N0112651N1+02801+02101999999ADDGA1021+009001999GA2071+030001999GF107991999999999999999999MA1101081999999REMMET058METAR SBLP 272000Z 36006KT 9999 FEW030 BKN100 28/21 Q1011;
0143832880999992009122721004-13267-043417FM-15+0443SBLP V0203601N003110300019N0112651N1+02701+02101999999ADDGA1021+009001999GA2071+030001999GF107991999999999999999999MA1101081999999REMMET058METAR SBLP 272100Z 36006KT 9999 FEW030 BKN100 27/21 Q1011;
0143832880999992009122810004-13267-043417FM-15+0443SBLP V0209999C000010300019N0112651N1+02201+02101999999ADDGA1041+003001999GA2071+030001999GF107991999999999999999999MA1101391999999REMMET058METAR SBLP 281000Z 00000KT 9999 SCT010 BKN100 22/21 Q1014;
0143832880999992009122811004-13267-043417FM-15+0443SBLP V0209999C000010300019N0112651N1+02201+02101999999ADDGA1041+003001999GA2071+030001999GF107991999999999999999999MA1101491999999REMMET058METAR SBLP 281100Z 00000KT 9999 SCT010 BKN100 22/21 Q1015;
0143832880999992009122812004-13267-043417FM-15+0443SBLP V0209999C000010300019N0112651N1+02301+02101999999ADDGA1041+003001999GA2071+030001999GF107991999999999999999999MA1101491999999REMMET058METAR SBLP 281200Z 00000KT 9999 SCT010 BKN100 23/21 Q1015;
0143832880999992009122813004-13267-043417FM-15+0443SBLP V0203601N003112200019N0112651N1+02601+02101999999ADDGA1041+004501999GA2041+030001999GF104991999999999999999999MA1101491999999REMMET058METAR SBLP 281300Z 36006KT 9999 SCT015 SCT100 26/21 Q1015;
0143832880999992009122814004-13267-043417FM-15+0443SBLP V0203601N003112200019N0112651N1+02801+02101999999ADDGA1041+006001999GA2041+030001999GF104991999999999999999999MA1101491999999REMMET058METAR SBLP 281400Z 36006KT 9999 SCT020 SCT100 28/21 Q1015;
0143832880999992009122815004-13267-043417FM-15+0443SBLP V0203601N003112200019N0112651N1+02901+02101999999ADDGA1021+006001999GA2041+030001999GF104991999999999999999999MA1101391999999REMMET058METAR SBLP 281500Z 36006KT 9999 FEW020 SCT100 29/21 Q1014;
0143832880999992009122816004-13267-043417FM-15+0443SBLP V0202701N003110300019N0112651N1+02801+02201999999ADDGA1021+006001999GA2071+030001999GF107991999999999999999999MA1101291999999REMMET058METAR SBLP 281600Z 27006KT 9999 FEW020 BKN100 28/22 Q1013;
0143832880999992009122817004-13267-043417FM-15+0443SBLP V0209999C000010300019N0112651N1+02801+02201999999ADDGA1021+006001999GA2071+030001999GF107991999999999999999999MA1101191999999REMMET058METAR SBLP 281700Z 00000KT 9999 FEW020 BKN100 28/22 Q1012;
0143832880999992009122818004-13267-043417FM-15+0443SBLP V0209999C000012200019N0112651N1+02901+02201999999ADDGA1021+006001999GA2041+030001999GF104991999999999999999999MA1101021999999REMMET058METAR SBLP 281800Z 00000KT 9999 FEW020 SCT100 29/22 Q1010;
0143832880999992009122819004-13267-043417FM-15+0443SBLP V0202701N003112200019N0112651N1+03001+02101999999ADDGA1021+006001999GA2041+030001999GF104991999999999999999999MA1100911999999REMMET058METAR SBLP 281900Z 27006KT 9999 FEW020 SCT100 30/21 Q1009;
0143832880999992009122820004-13267-043417FM-15+0443SBLP V0203401N003112200019N0112651N1+02901+02201999999ADDGA1021+006001999GA2041+030001999GF104991999999999999999999MA1101021999999REMMET058METAR SBLP 282000Z 34006KT 9999 FEW020 SCT100 29/22 Q1010;
0143832880999992009122821004-13267-043417FM-15+0443SBLP V0203601N004110300019N0112651N1+02801+02201999999ADDGA1021+006001999GA2071+030001999GF107991999999999999999999MA1101021999999REMMET058METAR SBLP 282100Z 36008KT 9999 FEW020 BKN100 28/22 Q1010;
0143832880999992009122910004-13267-043417FM-15+0443SBLP V0209999C000010300019N0112651N1+02101+02001999999ADDGA1041+004501999GA2071+030001999GF107991999999999999999999MA1101491999999REMMET058METAR SBLP 291000Z 00000KT 9999 SCT015 BKN100 21/20 Q1015;
0143832880999992009122911004-13267-043417FM-15+0443SBLP V0209999C000010300019N0112651N1+02301+02101999999ADDGA1041+004501999GA2071+030001999GF107991999999999999999999MA1101491999999REMMET058METAR SBLP 291100Z 00000KT 9999 SCT015 BKN100 23/21 Q1015;
0143832880999992009122912004-13267-043417FM-15+0443SBLP V0209999C000010300019N0112651N1+02501+02101999999ADDGA1021+006001999GA2071+030001999GF107991999999999999999999MA1101491999999REMMET058METAR SBLP 291200Z 00000KT 9999 FEW020 BKN100 25/21 Q1015;
0143832880999992009122913004-13267-043417FM-15+0443SBLP V0201401N002110300019N0112651N1+02501+02201999999ADDGA1041+006001999GA2071+030001999GF107991999999999999999999MA1101491999999REMMET058METAR SBLP 291300Z 14004KT 9999 SCT020 BKN100 25/22 Q1015;
0143832880999992009122914004-13267-043417FM-15+0443SBLP V0209999C000010300019N0112651N1+02701+02001999999ADDGA1041+006001999GA2071+030001999GF107991999999999999999999MA1101391999999REMMET058METAR SBLP 291400Z 00000KT 9999 SCT020 BKN100 27/20 Q1014;
0143832880999992009122915004-13267-043417FM-15+0443SBLP V0200601N002110300019N0112651N1+02801+02101999999ADDGA1041+006001999GA2071+030001999GF107991999999999999999999MA1101391999999REMMET058METAR SBLP 291500Z 06004KT 9999 SCT020 BKN100 28/21 Q1014;
0143832880999992009122916004-13267-043417FM-15+0443SBLP V0203301N002110300019N0112651N1+02901+02201999999ADDGA1021+009001999GA2071+030001999GF107991999999999999999999MA1101291999999REMMET058METAR SBLP 291600Z 33004KT 9999 FEW030 BKN100 29/22 Q1013;
0143832880999992009122917004-13267-043417FM-15+0443SBLP V0202401N002112200019N0112651N1+03001+02001999999ADDGA1041+009001999GA2041+030001999GF104991999999999999999999MA1101191999999REMMET058METAR SBLP 291700Z 24004KT 9999 SCT030 SCT100 30/20 Q1012;
0143832880999992009122918004-13267-043417FM-15+0443SBLP V0209999C000012200019N0112651N1+03101+02101999999ADDGA1021+009001999GA2041+030001999GF104991999999999999999999MA1101021999999REMMET058METAR SBLP 291800Z 00000KT 9999 FEW030 SCT100 31/21 Q1010;
0120832880999992009122919004-13267-043417FM-15+0443SBLP V0209999C000012200019N0112651N1+03001+02101999999ADDGA1021+009001999GF102991999999999999999999MA1101021999999REMMET051METAR SBLP 291900Z 00000KT 9999 FEW030 30/21 Q1010;
0143832880999992009122920004-13267-043417FM-15+0443SBLP V0209999C000012200019N0112651N1+03001+02101999999ADDGA1021+009001999GA2041+030001999GF104991999999999999999999MA1100911999999REMMET058METAR SBLP 292000Z 00000KT 9999 FEW030 SCT100 30/21 Q1009;
0143832880999992009122921004-13267-043417FM-15+0443SBLP V0209999C000010300019N0112651N1+02901+02201999999ADDGA1041+009001999GA2071+030001999GF107991999999999999999999MA1101021999999REMMET058METAR SBLP 292100Z 00000KT 9999 SCT030 BKN100 29/22 Q1010;
0143832880999992009123010004-13267-043417FM-15+0443SBLP V0200601N002110300019N0112651N1+02301+02201999999ADDGA1021+006001999GA2071+030001999GF107991999999999999999999MA1101291999999REMMET058METAR SBLP 301000Z 06004KT 9999 FEW020 BKN100 23/22 Q1013;
0143832880999992009123011004-13267-043417FM-15+0443SBLP V0200401N003112200019N0112651N1+02601+02201999999ADDGA1021+006001999GA2041+030001999GF104991999999999999999999MA1101391999999REMMET058METAR SBLP 301100Z 04006KT 9999 FEW020 SCT100 26/22 Q1014;
0143832880999992009123012004-13267-043417FM-15+0443SBLP V0209999C000010300019N0112651N1+02601+02201999999ADDGA1021+006001999GA2071+030001999GF107991999999999999999999MA1101391999999REMMET058METAR SBLP 301200Z 00000KT 9999 FEW020 BKN100 26/22 Q1014;
0143832880999992009123013004-13267-043417FM-15+0443SBLP V0209999C000012200019N0112651N1+02701+02201999999ADDGA1021+009001999GA2041+030001999GF104991999999999999999999MA1101391999999REMMET058METAR SBLP 301300Z 00000KT 9999 FEW030 SCT100 27/22 Q1014;
0143832880999992009123014004-13267-043417FM-15+0443SBLP V0209999C000012200019N0112651N1+03001+02201999999ADDGA1041+009001999GA2041+030001999GF104991999999999999999999MA1101391999999REMMET058METAR SBLP 301400Z 00000KT 9999 SCT030 SCT100 30/22 Q1014;
0143832880999992009123015004-13267-043417FM-15+0443SBLP V0209999C000012200019N0112651N1+03101+02101999999ADDGA1021+009001999GA2041+030001999GF104991999999999999999999MA1101291999999REMMET058METAR SBLP 301500Z 00000KT 9999 FEW030 SCT100 31/21 Q1013;
0120832880999992009123016004-13267-043417FM-15+0443SBLP V0209999C000012200019N0112651N1+03201+02301999999ADDGA1041+009001999GF104991999999999999999999MA1101191999999REMMET051METAR SBLP 301600Z 00000KT 9999 SCT030 32/23 Q1012;
0120832880999992009123017004-13267-043417FM-15+0443SBLP V0209999C000012200019N0112651N1+03201+02201999999ADDGA1041+009001999GF104991999999999999999999MA1101081999999REMMET051METAR SBLP 301700Z 00000KT 9999 SCT030 32/22 Q1011;
0120832880999992009123018004-13267-043417FM-15+0443SBLP V0209999C000012200019N0112651N1+03301+02201999999ADDGA1041+009001999GF104991999999999999999999MA1100911999999REMMET051METAR SBLP 301800Z 00000KT 9999 SCT030 33/22 Q1009;
0120832880999992009123019004-13267-043417FM-15+0443SBLP V0203301N004112200019N0112651N1+03201+02301999999ADDGA1041+009001999GF104991999999999999999999MA1100911999999REMMET051METAR SBLP 301900Z 33008KT 9999 SCT030 32/23 Q1009;
0120832880999992009123020004-13267-043417FM-15+0443SBLP V0203201N002112200019N0112651N1+03101+02201999999ADDGA1041+009001999GF104991999999999999999999MA1100911999999REMMET051METAR SBLP 302000Z 32004KT 9999 SCT030 31/22 Q1009;
0143832880999992009123021004-13267-043417FM-15+0443SBLP V0203301N002110300019N0112651N1+03001+02201999999ADDGA1021+009001999GA2071+030001999GF107991999999999999999999MA1100911999999REMMET058METAR SBLP 302100Z 33004KT 9999 FEW030 BKN100 30/22 Q1009;
0153832880999992009123110004-13267-043417FM-15+0443SBLP V0203601N003110045019N0112651N1+02101+02101999999ADDGA1071+004501999GA2071+027001999GF107991999999999999999999MA1101391999999MW1611REMMET062METAR SBLP 311000Z 36006KT 9999 -RA BKN015 BKN090 21/21 Q1014;
0148832880999992009123111004-13267-043417FM-15+0443SBLP V0203601N002110270019N0112651N1+02201+02101999999ADDGA1041+004501999GA2071+027001999GF107991999999999999999999MA1101391999999REMMET063METAR SBLP 311100Z 36004KT 9999 SCT015 BKN090 22/21 Q1014 RERA;
0143832880999992009123112004-13267-043417FM-15+0443SBLP V0200301N002110300019N0112651N1+02201+02101999999ADDGA1041+006001999GA2071+030001999GF107991999999999999999999MA1101491999999REMMET058METAR SBLP 311200Z 03004KT 9999 SCT020 BKN100 22/21 Q1015;
0143832880999992009123113004-13267-043417FM-15+0443SBLP V0200401N002110300019N0112651N1+02301+02201999999ADDGA1041+006001999GA2071+030001999GF107991999999999999999999MA1101491999999REMMET058METAR SBLP 311300Z 04004KT 9999 SCT020 BKN100 23/22 Q1015;
0143832880999992009123114004-13267-043417FM-15+0443SBLP V0209999C000010300019N0112651N1+02401+02201999999ADDGA1041+006001999GA2071+030001999GF107991999999999999999999MA1101391999999REMMET058METAR SBLP 311400Z 00000KT 9999 SCT020 BKN100 24/22 Q1014;
0143832880999992009123115004-13267-043417FM-15+0443SBLP V0200601N002110060019N0112651N1+02501+02201999999ADDGA1071+006001999GA2071+030001999GF107991999999999999999999MA1101391999999REMMET058METAR SBLP 311500Z 06004KT 9999 BKN020 BKN100 25/22 Q1014;
0143832880999992009123116004-13267-043417FM-15+0443SBLP V0203601N003110060019N0112651N1+02501+02201999999ADDGA1071+006001999GA2071+030001999GF107991999999999999999999MA1101291999999REMMET058METAR SBLP 311600Z 36006KT 9999 BKN020 BKN100 25/22 Q1013;
0143832880999992009123117004-13267-043417FM-15+0443SBLP V0203601N003110300019N0112651N1+02601+02101999999ADDGA1041+004501999GA2071+030001999GF107991999999999999999999MA1101191999999REMMET058METAR SBLP 311700Z 36006KT 9999 SCT015 BKN100 26/21 Q1012;
0143832880999992009123118004-13267-043417FM-15+0443SBLP V0203601N003110300019N0112651N1+02701+02101999999ADDGA1041+003001999GA2071+030001999GF107991999999999999999999MA1101191999999REMMET058METAR SBLP 311800Z 36006KT 9999 SCT010 BKN100 27/21 Q1012;
0143832880999992009123119004-13267-043417FM-15+0443SBLP V0203601N003110300019N0112651N1+02701+02101999999ADDGA1041+003001999GA2071+030001999GF107991999999999999999999MA1101081999999REMMET058METAR SBLP 311900Z 36006KT 9999 SCT010 BKN100 27/21 Q1011;
0143832880999992009123120004-13267-043417FM-15+0443SBLP V0203601N003110300019N0112651N1+02601+02101999999ADDGA1041+003001999GA2071+030001999GF107991999999999999999999MA1101081999999REMMET058METAR SBLP 312000Z 36006KT 9999 SCT010 BKN100 26/21 Q1011;
0143832880999992009123121004-13267-043417FM-15+0443SBLP V0203601N003110300019N0112651N1+02601+02101999999ADDGA1041+003001999GA2071+030001999GF107991999999999999999999MA1101081999999REMMET058METAR SBLP 312100Z 36006KT 9999 SCT010 BKN100 26/21 Q1011;
