0178833390999992009010100004-14050-042617FM-12+088299999V0201401N001012200019N0020001N1+02331+01671101001ADDGA1001+999999999GF100991001001999999001001KA1240M+02921MA1999999091461MD1999999+0071REMSYN082AAXX  01004 83339 32995 01402 10233 20167 39146 40100 333 10292 29065 55090 58007;
0156833390999992009010112004-14050-042617FM-12+088299999V0200901N003112200019N0100001N1+02331+01931101101ADDGF102991011011004501001011KA1240N+01841MA1999999091551MD1999999-0121REMSYN076AAXX  01124 83339 32497 20906 10233 20193 39155 40110 81101 333 20184 59012;
0137833390999992009010118004-14050-042617FM-12+088299999V0201401N002112200019N0100001N1+02901+01841100701ADDGF104991031021004501001011MA1999999091271MD1999999-0021REMSYN070AAXX  01184 83339 32497 41404 10290 20184 39127 40070 83201 333 59002;
0178833390999992009010200004-14050-042617FM-12+088299999V0209999C000012200019N0020001N1+02441+01741100801ADDGA1001+999999999GF100991001001999999001001KA1240M+02981MA1999999091321MD1999999-0141REMSYN082AAXX  02004 83339 32995 00000 10244 20174 39132 40080 333 10298 29065 55111 59014;
0175833390999992009010212004-14050-042617FM-12+088299999V0200501N002612200019N0100001N1+02561+02021101181ADDGF102991001001999999001011KA1240N+01961MA1999999091461MD1999999-0091REMSYN076AAXX  02124 83339 32897 20505 10256 20202 39146 40118 80001 333 20196 59009;EQDQ01+022502SCOLCB
0137833390999992009010218004-14050-042617FM-12+088299999V0203201N001512200019N0100001N1+02761+01941100541ADDGF106991031021004501001041MA1999999091131MD1999999-0141REMSYN070AAXX  02184 83339 32497 63203 10276 20194 39113 40054 83204 333 59014;
0168833390999992009010300004-14050-042617FM-12+088299999V0202301N001012200019N0020001N1+02361+01911100701ADDGF102991021021004501001001KA1240M+02901MA1999999091251MD1999999-0071REMSYN088AAXX  03004 83339 32495 22302 10236 20191 39125 40070 82200 333 10290 29071 55060 59007;
0156833390999992009010312004-14050-042617FM-12+088299999V0202701N003112200019N0100001N1+02481+01981100901ADDGF104991011011004501001041KA1240N+02241MA1999999091411MD1999999-0051REMSYN076AAXX  03124 83339 32497 42706 10248 20198 39141 40090 81104 333 20224 59005;
0182833390999992009010318004-14050-042617FM-12+088299999V0203201N001510042019N0100001N1+02451+02211100511ADDAA106009991AY161061AY221061GF106991061021004501001001MA1999999091051MD1999999-0081MW1021REMSYN082AAXX  03184 83339 21497 63203 10245 20221 39105 40051 70262 86200 333 59008 60101;
0213833390999992009010400004-14050-042617FM-12+088299999V0203201N000510042019N0020001N1+02181+01971100791ADDAA106000391AY121061AY221061GF108991051021004501021999KA1240M+02861MA1999999091291MD1999999+0041MW1601REMSYN100AAXX  04004 83339 21495 83201 10218 20197 39129 40079 76022 8522/ 333 10286 29084 55018 58004 69931;
0201833390999992009010412004-14050-042617FM-12+088299999V0203201N001010042019N0100001N1+02431+02031100971ADDAA124010991AY161061AY221061GF106991061021004501001001KA1240N+02131MA1999999091441MD1999999+0031MW1021REMSYN088AAXX  04124 83339 21497 63202 10243 20203 39144 40097 70262 86200 333 20213 58003 60114;
0182833390999992009010418004-14050-042617FM-12+088299999V0200501N001010450019N0100001N1+02381+02131100601ADDAA106008991AY161061AY221061GF106991031021004501021001MA1999999091081MD1999999+0031MW1021REMSYN082AAXX  04184 83339 21497 60502 10238 20213 39108 40060 70262 83220 333 58003 60091;
0196833390999992009010500004-14050-042617FM-12+088299999V0202301N001510042019N0100001N1+02191+01971100831ADDAY121061AY221061GF108991051021004501021999KA1240M+02521MA1999999091311MD1999999+0021MW1131REMSYN094AAXX  05004 83339 31497 82303 10219 20197 39131 40083 71322 8522/ 333 10252 29084 55008 58002;
0201833390999992009010512004-14050-042617FM-12+088299999V0203601N000510042019N0040001N1+02191+01951101041ADDAA124022191AY161061AY261061GF107991061021004501021999KA1240N+01981MA1999999091451MD1999999+0011MW1101REMSYN088AAXX  05124 83339 21496 73601 10219 20195 39145 40104 71066 8622/ 333 20198 58001 60224;
0137833390999992009010518004-14050-042617FM-12+088299999V0203201N002610042019N0100001N1+02571+01901100591ADDGF106991051021004501021001MA1999999091091MD1999999+0011REMSYN070AAXX  05184 83339 32497 63205 10257 20190 39109 40059 85220 333 58001;
0232833390999992009010600004-14050-042617FM-12+088299999V0200901N001510042019N0020001N1+02171+01901100911ADDAA106000091AY161061AY261061GF106991051021004501021999KA1240M+02741MA1999999091341MD1999999+0031MW1131REMSYN100AAXX  06004 83339 21495 60903 10217 20190 39134 40091 71366 8522/ 333 10274 29081 55025 58003 69921;EQDQ01  00002PRCP06
0201833390999992009010612004-14050-042617FM-12+088299999V0202701N001510042019N0100001N1+02251+01901101021ADDAA124000591AY161061AY261061GF106991061021004501001001KA1240N+01981MA1999999091441MD1999999-0011MW1101REMSYN088AAXX  06124 83339 21497 62703 10225 20190 39144 40102 71066 86200 333 20198 59001 69964;
0165833390999992009010618004-14050-042617FM-12+088299999V0200501N000510042019N0100001N1+02311+01791100671ADDAY101061AY291061GF106991061021004501001001MA1999999091131MD1999999+0041MW1021REMSYN076AAXX  06184 83339 31497 60501 10231 20179 39113 40067 70209 86200 333 58004;
0213833390999992009010700004-14050-042617FM-12+088299999V0209999C000010042019N0020001N1+02091+01891101001ADDAA106004191AY191061AY261061GF108991081051004501999999KA1240M+02801MA1999999091401MD1999999+0061MW1101REMSYN100AAXX  07004 83339 21495 80000 10209 20189 39140 40100 71096 885// 333 10280 29083 55038 58006 60041;
0201833390999992009010712004-14050-042617FM-12+088299999V0201401N000510042019N0040001N1+02151+01991100981ADDAA124005191AY161061AY261061GF107991061021004501021999KA1240N+01941MA1999999091361MD1999999-0081MW1101REMSYN088AAXX  07124 83339 21496 71401 10215 20199 39136 40098 71066 8622/ 333 20194 59008 60054;
0137833390999992009010718004-14050-042617FM-12+088299999V0201401N003610042019N0100001N1+02391+01911100831ADDGF106991061021004501001001MA1999999091261MD1999999+0131REMSYN070AAXX  07184 83339 32497 61407 10239 20191 39126 40083 86200 333 58013;
0213833390999992009010800004-14050-042617FM-12+088299999V0202701N003110042019N0020001N1+02091+01951101051ADDAA106001091AY161061AY261061GF107991061021004501031999KA1240M+02471MA1999999091431MD1999999+0031MW1101REMSYN100AAXX  08004 83339 21495 72706 10209 20195 39143 40105 71066 8623/ 333 10247 29088 55010 58003 60011;
0201833390999992009010812004-14050-042617FM-12+088299999V0200901N003110042019N0020001N1+02141+02021101211ADDAA124005191AY161061AY241061GF108991051021004501021999KA1240N+01921MA1999999091571MD1999999+0211MW1401REMSYN088AAXX  08124 83339 21495 80906 10214 20202 39157 40121 74064 8522/ 333 20192 58021 60054;
0165833390999992009010818004-14050-042617FM-12+088299999V0201401N005712200019N0100001N1+02651+02041100891ADDAY141061AY221061GF105991031021004501001011MA1999999091381MD1999999+0121MW1021REMSYN076AAXX  08184 83339 31497 51411 10265 20204 39138 40089 70242 83201 333 58012;
0196833390999992009010900004-14050-042617FM-12+088299999V0201401N003112200019N0020001N1+02151+01801101111ADDAY101061AY201061GF103991031021004501001001KA1240M+02701MA1999999091501MD1999999+0071MW1101REMSYN094AAXX  09004 83339 31495 31406 10215 20180 39150 40111 71000 83200 333 10270 29081 55056 58007;
0156833390999992009010912004-14050-042617FM-12+088299999V0201401N005710042019N0100001N1+02171+01681101291ADDGF106991061021004501001001KA1240N+01861MA1999999091661MD1999999+0091REMSYN076AAXX  09124 83339 32497 61411 10217 20168 39166 40129 86200 333 20186 58009;
0137833390999992009010918004-14050-042617FM-12+088299999V0201401N004110042019N0100001N1+02591+01691101061ADDGF105991051021004501001001MA1999999091521MD1999999+0141REMSYN070AAXX  09184 83339 32497 51408 10259 20169 39152 40106 85200 333 58014;
0196833390999992009011000004-14050-042617FM-12+088299999V0201401N002612200019N0020001N1+02151+01861101331ADDAY101061AY201061GF104991031021004501031001KA1240M+02681MA1999999091701MD1999999+0201MW1101REMSYN094AAXX  10004 83339 31495 41405 10215 20186 39170 40133 71000 83230 333 10268 29076 55093 58020;
0201833390999992009011012004-14050-042617FM-12+088299999V0201401N004110042019N0040001N1+01931+01871101511ADDAA124000891AY161061AY261061GF108991081051004501999999KA1240N+01821MA1999999091831MD1999999+0171MW1501REMSYN088AAXX  10124 83339 21496 81408 10193 20187 39183 40151 75066 885// 333 20182 58017 69984;
0165833390999992009011018004-14050-042617FM-12+088299999V0201401N006212200019N0100001N1+02591+01661101161ADDAY101061AY251061GF103991031021004501001001MA1999999091611MD1999999+0091MW1021REMSYN076AAXX  10184 83339 31497 31412 10259 20166 39161 40116 70205 83200 333 58009;
0196833390999992009011100004-14050-042617FM-12+088299999V0201401N006210042019N0020001N1+02131+01801101391ADDAY101061AY201061GF106991061021004501001001KA1240M+02661MA1999999091721MD1999999+0021MW1101REMSYN094AAXX  11004 83339 31495 61412 10213 20180 39172 40139 71000 86200 333 10266 29080 55073 58002;
0201833390999992009011112004-14050-042617FM-12+088299999V0201401N002110042019N0040001N1+01951+01771101471ADDAA124000891AY161061AY261061GF108991081051004501999999KA1240N+01801MA1999999091791MD1999999-0041MW1101REMSYN088AAXX  11124 83339 21496 81404 10195 20177 39179 40147 71066 885// 333 20180 59004 69984;
0137833390999992009011118004-14050-042617FM-12+088299999V0201401N005112200019N0100001N1+02551+01711101021ADDGF102991011021004501001041MA1999999091581MD1999999-0031REMSYN070AAXX  11184 83339 32497 21410 10255 20171 39158 40102 81204 333 59003;
0178833390999992009011200004-14050-042617FM-12+088299999V0201401N003112200019N0020001N1+02171+01661101261ADDGA1001+999999999GF100991001001999999001001KA1240M+02631MA1999999091601MD1999999-0121REMSYN082AAXX  12004 83339 32995 01406 10217 20166 39160 40126 333 10263 29074 55077 59012;
0156833390999992009011212004-14050-042617FM-12+088299999V0201401N003610042019N0100001N1+02101+01891101421ADDGF108991051021004501021999KA1240N+01941MA1999999091821MD1999999+0031REMSYN076AAXX  12124 83339 32497 81407 10210 20189 39182 40142 8522/ 333 20194 58003;
0137833390999992009011218004-14050-042617FM-12+088299999V0201401N006212200019N0100001N1+02701+01831101081ADDGF103991031021004501001001MA1999999091571MD1999999-0011REMSYN070AAXX  12184 83339 32497 31412 10270 20183 39157 40108 83200 333 59001;
0213833390999992009011300004-14050-042617FM-12+088299999V0201401N002612200019N0020001N1+02151+02011101261ADDAA106000591AY161061AY221061GF104991021021004501001041KA1240M+02801MA1999999091621MD1999999+0021MW1021REMSYN100AAXX  13004 83339 21495 41405 10215 20201 39162 40126 70262 82204 333 10280 29082 55071 58002 69961;
0201833390999992009011312004-14050-042617FM-12+088299999V0201401N004110042019N0100001N1+02151+01971101331ADDAA124000591AY161061AY221061GF108991061021004501021999KA1240N+01951MA1999999091701MD1999999-0121MW1021REMSYN088AAXX  13124 83339 21497 81408 10215 20197 39170 40133 70262 8622/ 333 20195 59012 69964;
0137833390999992009011318004-14050-042617FM-12+088299999V0201401N005710042019N0100001N1+02641+01931101061ADDGF106991051021004501031001MA1999999091541MD1999999-0031REMSYN070AAXX  13184 83339 32497 61411 10264 20193 39154 40106 85230 333 59003;
0168833390999992009011400004-14050-042617FM-12+088299999V0201401N003112200019N0020001N1+02271+01881101221ADDGF102991021021004501001001KA1240M+02701MA1999999091621MD1999999+0001REMSYN088AAXX  14004 83339 32495 21406 10227 20188 39162 40122 82200 333 10270 29078 55056 58000;
0156833390999992009011412004-14050-042617FM-12+088299999V0201401N004110042019N0100001N1+02121+01781101351ADDGF106991061021004501001001KA1240N+01891MA1999999091741MD1999999+0041REMSYN076AAXX  14124 83339 32497 61408 10212 20178 39174 40135 86200 333 20189 58004;
0137833390999992009011418004-14050-042617FM-12+088299999V0200901N005112200019N0100001N1+02711+01711100931ADDGF102991021021004501001001MA1999999091441MD1999999-0101REMSYN070AAXX  14184 83339 32497 20910 10271 20171 39144 40093 82200 333 59010;
0178833390999992009011500004-14050-042617FM-12+088299999V0201401N002112200019N0020001N1+02211+01551101101ADDGA1001+999999999GF100991001001999999001001KA1240M+02751MA1999999091491MD1999999-0131REMSYN082AAXX  15004 83339 32995 01404 10221 20155 39149 40110 333 10275 29067 55097 59013;
0156833390999992009011512004-14050-042617FM-12+088299999V0201401N002110042019N0100001N1+02171+01901101301ADDGF106991061021004501001001KA1240N+01891MA1999999091691MD1999999-0051REMSYN076AAXX  15124 83339 32497 61404 10217 20190 39169 40130 86200 333 20189 59005;
0137833390999992009011518004-14050-042617FM-12+088299999V0201401N002112200019N0100001N1+02871+01801100761ADDGF103991021021004501001011MA1999999091301MD1999999-0141REMSYN070AAXX  15184 83339 32497 31404 10287 20180 39130 40076 82201 333 59014;
0178833390999992009011600004-14050-042617FM-12+088299999V0201401N002612200019N0020001N1+02311+01871100971ADDGA1001+999999999GF100991001001999999001001KA1240M+02941MA1999999091421MD1999999-0071REMSYN082AAXX  16004 83339 32995 01405 10231 20187 39142 40097 333 10294 29072 55092 59007;
0156833390999992009011612004-14050-042617FM-12+088299999V0201401N002612200019N0100001N1+02241+01901101321ADDGF106991041021004501001011KA1240N+01841MA1999999091731MD1999999+0041REMSYN076AAXX  16124 83339 32497 61405 10224 20190 39173 40132 84201 333 20184 58004;
0137833390999992009011618004-14050-042617FM-12+088299999V0201401N002612200019N0100001N1+02931+01761100831ADDGF105991041021004501001011MA1999999091391MD1999999+0091REMSYN070AAXX  16184 83339 32497 51405 10293 20176 39139 40083 84201 333 58009;
0178833390999992009011700004-14050-042617FM-12+088299999V0201401N004112200019N0020001N1+02241+01881101141ADDGA1001+999999999GF100991001001999999001001KA1240M+03001MA1999999091571MD1999999+0151REMSYN082AAXX  17004 83339 32995 01408 10224 20188 39157 40114 333 10300 29073 55076 58015;
0184833390999992009011712004-14050-042617FM-12+088299999V0201401N002610042019N0040001N1+02211+01901101291ADDAY101061AY201061GF107991061021004501021999KA1240N+01841MA1999999091681MD1999999-0051MW1101REMSYN082AAXX  17124 83339 31496 71405 10221 20190 39168 40129 71000 8622/ 333 20184 59005;
0137833390999992009011718004-14050-042617FM-12+088299999V0201401N004612200019N0100001N1+02771+01771100931ADDGF104991031021004501021001MA1999999091441MD1999999+0051REMSYN070AAXX  17184 83339 32497 41409 10277 20177 39144 40093 83220 333 58005;
0178833390999992009011800004-14050-042617FM-12+088299999V0201801N001512200019N0020001N1+02271+01821101181ADDGA1001+999999999GF100991001001999999001001KA1240M+02861MA1999999091611MD1999999+0041REMSYN082AAXX  18004 83339 32995 01803 10227 20182 39161 40118 333 10286 29072 55072 58004;
0184833390999992009011812004-14050-042617FM-12+088299999V0201401N001510042019N0040001N1+02091+01891101311ADDAY101061AY201061GF108991081051004501999999KA1240N+01901MA1999999091701MD1999999+0021MW1011REMSYN082AAXX  18124 83339 31496 81403 10209 20189 39170 40131 70100 885// 333 20190 58002;
0137833390999992009011818004-14050-042617FM-12+088299999V0200901N003612200019N0100001N1+02711+01881100921ADDGF104991031021004501001021MA1999999091431MD1999999-0011REMSYN070AAXX  18184 83339 32497 40907 10271 20188 39143 40092 83202 333 59001;
0178833390999992009011900004-14050-042617FM-12+088299999V0201801N000512200019N0020001N1+02291+01831101171ADDGA1001+999999999GF100991001001999999001001KA1240M+02821MA1999999091571MD1999999-0041REMSYN082AAXX  19004 83339 32995 01801 10229 20183 39157 40117 333 10282 29076 55081 59004;
0156833390999992009011912004-14050-042617FM-12+088299999V0201401N002110042019N0100001N1+02231+01821101241ADDGF106991061021004501001001KA1240N+01881MA1999999091651MD1999999-0051REMSYN076AAXX  19124 83339 32497 61404 10223 20182 39165 40124 86200 333 20188 59005;
0137833390999992009011918004-14050-042617FM-12+088299999V0201401N002610450019N0100001N1+02891+01861100691ADDGF105991041021004501021001MA1999999091261MD1999999-0171REMSYN070AAXX  19184 83339 32497 51405 10289 20186 39126 40069 84220 333 59017;
0178833390999992009012000004-14050-042617FM-12+088299999V0201801N003112200019N0020001N1+02271+01641100961ADDGA1001+999999999GF100991001001999999001001KA1240M+02941MA1999999091411MD1999999-0161REMSYN082AAXX  20004 83339 32995 01806 10227 20164 39141 40096 333 10294 29067 55096 59016;
0156833390999992009012012004-14050-042617FM-12+088299999V0200901N002110042019N0100001N1+02351+01761101011ADDGF106991051021004501021001KA1240N+01841MA1999999091471MD1999999-0181REMSYN076AAXX  20124 83339 32497 60904 10235 20176 39147 40101 85220 333 20184 59018;
0137833390999992009012018004-14050-042617FM-12+088299999V0201401N004110042019N0100001N1+02851+01761100651ADDGF105991051021004501001001MA1999999091201MD1999999-0061REMSYN070AAXX  20184 83339 32497 51408 10285 20176 39120 40065 85200 333 59006;
0215833390999992009012100004-14050-042617FM-12+088299999V0201801N002612200019N0020001N1+02271+01621100901ADDAY101061AY201061GF103991999021004501001001KA1240M+03021MA1999999091371MD1999999-0041MW1131REMSYN094AAXX  21004 83339 31495 31805 10227 20162 39137 40090 71300 82200 333 10302 29063 55101 59004;EQDQ01+000022SCOTLC
0156833390999992009012112004-14050-042617FM-12+088299999V0203201N001510042019N0100001N1+02411+01891101021ADDGF105991051021004501001001KA1240N+02041MA1999999091501MD1999999+0031REMSYN076AAXX  21124 83339 32497 53203 10241 20189 39150 40102 85200 333 20204 58003;
0165833390999992009012118004-14050-042617FM-12+088299999V0203201N002610042019N0100001N1+02831+01891100711ADDAY101061AY201061GF106991051021004501021001MA1999999091281MD1999999+0081MW1171REMSYN076AAXX  21184 83339 31497 63205 10283 20189 39128 40071 71700 85220 333 58008;
0196833390999992009012200004-14050-042617FM-12+088299999V0209999C000012200019N0020001N1+02331+01981100991ADDAY101061AY291061GF102991021021004501001001KA1240M+02901MA1999999091471MD1999999+0101MW1101REMSYN094AAXX  22004 83339 31495 20000 10233 20198 39147 40099 71009 82200 333 10290 29073 55061 58010;
0156833390999992009012212004-14050-042617FM-12+088299999V0203601N002110042019N0100001N1+02271+01821101141ADDGF106991051021004501001021KA1240N+02001MA1999999091591MD1999999+0091REMSYN076AAXX  22124 83339 32497 63604 10227 20182 39159 40114 85202 333 20200 58009;
0182833390999992009012218004-14050-042617FM-12+088299999V0203201N003110042019N0100001N1+02731+01771100711ADDAA106006191AY191061AY261061GF106991051021004501021001MA1999999091251MD1999999-0031MW1021REMSYN082AAXX  22184 83339 21497 63206 10273 20177 39125 40071 70296 85220 333 59003 60061;
0196833390999992009012300004-14050-042617FM-12+088299999V0202701N001512200019N0020001N1+02351+02001100961ADDAY101061AY201061GF104991041021004501001001KA1240M+02821MA1999999091431MD1999999-0041MW1101REMSYN094AAXX  23004 83339 31495 42703 10235 20200 39143 40096 71000 84200 333 10282 29074 55053 59004;
0201833390999992009012312004-14050-042617FM-12+088299999V0200501N001510042019N0100001N1+02311+01981101101ADDAA124006191AY161061AY261061GF106991051021004501031001KA1240N+02181MA1999999091571MD1999999-0021MW1101REMSYN088AAXX  23124 83339 21497 60503 10231 20198 39157 40110 71066 85230 333 20218 59002 60064;
0182833390999992009012318004-14050-042617FM-12+088299999V0202301N003110042019N0040001N1+02411+01991100891ADDAA106004191AY161061AY261061GF107991061021004501021999MA1999999091381MD1999999+0131MW1021REMSYN082AAXX  23184 83339 21496 72306 10241 20199 39138 40089 70266 8622/ 333 58013 60041;
0196833390999992009012400004-14050-042617FM-12+088299999V0202701N000512200019N0020001N1+02131+01951101061ADDAY101061AY201061GF103991031021004501001001KA1240M+02601MA1999999091471MD1999999+0041MW1101REMSYN094AAXX  24004 83339 31495 32701 10213 20195 39147 40106 71000 83200 333 10260 29085 55023 58004;
0201833390999992009012412004-14050-042617FM-12+088299999V0201401N004610042019N0040001N1+02031+01891101151ADDAA124004191AY161061AY261061GF108991081051004501999999KA1240N+01921MA1999999091521MD1999999-0051MW1101REMSYN088AAXX  24124 83339 21496 81409 10203 20189 39152 40115 71066 885// 333 20192 59005 60044;
0137833390999992009012418004-14050-042617FM-12+088299999V0201401N003612200019N0100001N1+02731+01881100691ADDGF103991031021004501001001MA1999999091201MD1999999-0181REMSYN070AAXX  24184 83339 32497 31407 10273 20188 39120 40069 83200 333 59018;
0168833390999992009012500004-14050-042617FM-12+088299999V0201401N004112200019N0020001N1+02251+01781100891ADDGF103991031021004501001001KA1240M+02821MA1999999091301MD1999999-0171REMSYN088AAXX  25004 83339 32495 31408 10225 20178 39130 40089 83200 333 10282 29074 55079 59017;
0184833390999992009012512004-14050-042617FM-12+088299999V0201401N004110042019N0100001N1+02191+01951100981ADDAY101061AY201061GF106991061021004501001001KA1240N+02001MA1999999091401MD1999999-0121MW1101REMSYN082AAXX  25124 83339 31497 61408 10219 20195 39140 40098 71000 86200 333 20200 59012;
0137833390999992009012518004-14050-042617FM-12+088299999V0201401N003112200019N0100001N1+02791+01791100561ADDGF102991021021004501001001MA1999999091121MD1999999-0081REMSYN070AAXX  25184 83339 32497 21406 10279 20179 39112 40056 82200 333 59008;
0196833390999992009012600004-14050-042617FM-12+088299999V0200901N004612200019N0020001N1+02231+01711100951ADDAY101061AY201061GF103991031021004501001001KA1240M+02961MA1999999091371MD1999999+0071MW1131REMSYN094AAXX  26004 83339 31495 30909 10223 20171 39137 40095 71300 83200 333 10296 29072 55094 58007;
0184833390999992009012612004-14050-042617FM-12+088299999V0201401N002610042019N0100001N1+02211+01971101151ADDAY101061AY201061GF106991061021004501001001KA1240N+02001MA1999999091551MD1999999+0151MW1101REMSYN082AAXX  26124 83339 31497 61405 10221 20197 39155 40115 71000 86200 333 20200 58015;
0137833390999992009012618004-14050-042617FM-12+088299999V0201401N003612200019N0100001N1+02811+01751100631ADDGF104991031021004501001041MA1999999091181MD1999999+0061REMSYN070AAXX  26184 83339 32497 41407 10281 20175 39118 40063 83204 333 58006;
0168833390999992009012700004-14050-042617FM-12+088299999V0201401N004612200019N0020001N1+02331+01941100921ADDGF102991021021004501001001KA1240M+02761MA1999999091371MD1999999+0001REMSYN088AAXX  27004 83339 32495 21409 10233 20194 39137 40092 82200 333 10276 29074 55084 58000;
0156833390999992009012712004-14050-042617FM-12+088299999V0201401N003110042019N0100001N1+02251+01731101161ADDGF106991061021004501001001KA1240N+01961MA1999999091611MD1999999+0061REMSYN076AAXX  27124 83339 32497 61406 10225 20173 39161 40116 86200 333 20196 58006;
0137833390999992009012718004-14050-042617FM-12+088299999V0201401N003112200019N0100001N1+02851+01701100761ADDGF102991011021004501001021MA1999999091331MD1999999-0151REMSYN070AAXX  27184 83339 32497 21406 10285 20170 39133 40076 81202 333 59015;
0168833390999992009012800004-14050-042617FM-12+088299999V0201401N003612200019N0020001N1+02271+01791100981ADDGF104991041021004501001001KA1240M+02921MA1999999091431MD1999999+0061REMSYN088AAXX  28004 83339 32495 41407 10227 20179 39143 40098 84200 333 10292 29068 55102 58006;
0156833390999992009012812004-14050-042617FM-12+088299999V0201401N004112200019N0100001N1+02251+01731101101ADDGF103991031021004501001001KA1240N+01851MA1999999091541MD1999999-0071REMSYN076AAXX  28124 83339 32497 31408 10225 20173 39154 40110 83200 333 20185 59007;
0137833390999992009012818004-14050-042617FM-12+088299999V0201401N004612200019N0100001N1+02771+01391100811ADDGF102991021021004501001001MA1999999091331MD1999999+0001REMSYN070AAXX  28184 83339 32497 21409 10277 20139 39133 40081 82200 333 58000;
0168833390999992009012900004-14050-042617FM-12+088299999V0201401N004612200019N0020001N1+02351+01271101031ADDGF102991021021004501001001KA1240M+02841MA1999999091491MD1999999+0061REMSYN088AAXX  29004 83339 32495 21409 10235 20127 39149 40103 82200 333 10284 29054 55108 58006;
0156833390999992009012912004-14050-042617FM-12+088299999V0201401N003112200019N0100001N1+02211+01581101071ADDGF102991011021004501021001KA1240N+01781MA1999999091531MD1999999-0011REMSYN076AAXX  29124 83339 32497 21406 10221 20158 39153 40107 81220 333 20178 59001;
0137833390999992009012918004-14050-042617FM-12+088299999V0201401N004612200019N0100001N1+02911+01591100701ADDGF102991011021004501001041MA1999999091271MD1999999-0061REMSYN070AAXX  29184 83339 32497 21409 10291 20159 39127 40070 81204 333 59006;
0178833390999992009013000004-14050-042617FM-12+088299999V0201401N003112200019N0020001N1+02351+01411100961ADDGA1001+999999999GF100991001001999999001001KA1240M+02951MA1999999091431MD1999999+0061REMSYN082AAXX  30004 83339 32995 01406 10235 20141 39143 40096 333 10295 29056 55117 58006;
0156833390999992009013012004-14050-042617FM-12+088299999V0201401N001512200019N0100001N1+02321+01761101051ADDGF102991021021004501001001KA1240N+01821MA1999999091531MD1999999+0001REMSYN076AAXX  30124 83339 32497 21403 10232 20176 39153 40105 82200 333 20182 58000;
0137833390999992009013018004-14050-042617FM-12+088299999V0200901N004612200019N0100001N1+02951+01551100681ADDGF102991021021004501001001MA1999999091251MD1999999-0021REMSYN070AAXX  30184 83339 32497 20909 10295 20155 39125 40068 82200 333 59002;
0178833390999992009013100004-14050-042617FM-12+088299999V0201401N001512200019N0020001N1+02331+01251100711ADDGA1001+999999999GF100991001001999999001001KA1240M+03001MA1999999091201MD1999999-0231REMSYN082AAXX  31004 83339 32995 01403 10233 20125 39120 40071 333 10300 29054 55117 59023;
0156833390999992009013112004-14050-042617FM-12+088299999V0200501N003612200019N0100001N1+02331+01791100991ADDGF102991021021004501001001KA1240N+01741MA1999999091471MD1999999-0061REMSYN076AAXX  31124 83339 32497 20507 10233 20179 39147 40099 82200 333 20174 59006;
0137833390999992009013118004-14050-042617FM-12+088299999V0200901N004612200019N0100001N1+02951+01481100581ADDGF102991021021004501001001MA1999999091161MD1999999-0091REMSYN070AAXX  31184 83339 32497 20909 10295 20148 39116 40058 82200 333 59009;
0178833390999992009020100004-14050-042617FM-12+088299999V0201801N000512200019N0020001N1+02331+01471100701ADDGA1001+999999999GF100991001001999999001001KA1240M+03041MA1999999091211MD1999999+0011REMSYN082AAXX  01004 83339 32995 01801 10233 20147 39121 40070 333 10304 29058 55115 58001;
0166833390999992009020112004-14050-042617FM-12+088299999V0200901N003112200019N0100001N1+02411+01821100921ADDGA1001+999999999GF100991001001999999001001KA1240N+01821MA1999999091411MD1999999+0061REMSYN070AAXX  01124 83339 32997 00906 10241 20182 39141 40092 333 20182 58006;
0137833390999992009020118004-14050-042617FM-12+088299999V0201401N003112200019N0100001N1+03131+01211100481ADDGF102991011021004501021001MA1999999091111MD1999999-0051REMSYN070AAXX  01184 83339 32497 21406 10313 20121 39111 40048 81220 333 59005;
0213833390999992009020200004-14050-042617FM-12+088299999V0201401N003112200019N0020001N1+02471+01661100691ADDGA1001+999999999GF100991001001999999001001KA1240M+03001MA1999999999999MD1999999+0031REMSYN082AAXX  02004 83339 32995 01406 10247 20166 30124 40069 333 10300 29058 55118 58003;EQDQ01+101243APOSP Q02 101243APOSP 
0156833390999992009020212004-14050-042617FM-12+088299999V0201401N004110042019N0100001N1+02301+01921100951ADDGF107991061021004501021999KA1240N+01941MA1999999091451MD1999999+0041REMSYN076AAXX  02124 83339 32497 71408 10230 20192 39145 40095 8622/ 333 20194 58004;
0137833390999992009020218004-14050-042617FM-12+088299999V0201401N004612200019N0100001N1+02891+01781100571ADDGF104991041021004501001001MA1999999091111MD1999999+0001REMSYN070AAXX  02184 83339 32497 41409 10289 20178 39111 40057 84200 333 58000;
0178833390999992009020300004-14050-042617FM-12+088299999V0201401N003612200019N0020001N1+02461+01301100771ADDGA1001+999999999GF100991001001999999001001KA1240M+03001MA1999999091241MD1999999+0001REMSYN082AAXX  03004 83339 32995 01407 10246 20130 39124 40077 333 10300 29/// 55082 58000;
0184833390999992009020312004-14050-042617FM-12+088299999V0201401N004610042019N0040001N1+02151+01821101121ADDAY101061AY201061GF108991081051004501999999KA1240N+01921MA1999999091591MD1999999+0141MW1101REMSYN082AAXX  03124 83339 31496 81409 10215 20182 39159 40112 71000 885// 333 20192 58014;
0137833390999992009020318004-14050-042617FM-12+088299999V0200501N003112200019N0100001N1+02871+01531100881ADDGF104991041021004501001001MA1999999091931MD1999999+0201REMSYN070AAXX  03184 83339 32497 40506 10287 20153 39193 40088 84200 333 58020;
0196833390999992009020400004-14050-042617FM-12+088299999V0201401N004612200019N0020001N1+02431+01781100971ADDAY101061AY201061GF102991021021004501001001KA1240M+02971MA1999999091441MD1999999+0201MW1131REMSYN094AAXX  04004 83339 31495 21409 10243 20178 39144 40097 71300 82200 333 10297 29066 55094 58020;
0156833390999992009020412004-14050-042617FM-12+088299999V0201401N004612200019N0100001N1+02471+01711101101ADDGF103991031021004501001001KA1240N+02001MA1999999091611MD1999999+0021REMSYN076AAXX  04124 83339 32497 31409 10247 20171 39161 40110 83200 333 20200 58002;
0137833390999992009020418004-14050-042617FM-12+088299999V0200901N003112200019N0100001N1+02851+01811100951ADDGF104991041021004501001001MA1999999091371MD1999999+0061REMSYN070AAXX  04184 83339 32497 40906 10285 20181 39137 40095 84200 333 58006;
0168833390999992009020500004-14050-042617FM-12+088299999V0201401N004612200019N0020001N1+02411+01731100871ADDGF102991021021004501001001KA1240M+02921MA1999999091401MD1999999-0041REMSYN088AAXX  05004 83339 32495 21409 10241 20173 39140 40087 82200 333 10292 29066 55116 59004;
0203833390999992009020512004-14050-042617FM-12+088299999V0200901N001512200019N0040001N1+02151+01951101031ADDAY101061AY201061GF102991999051004501999999KA1240N+02001MA1999999091531MD1999999-0081MW1101REMSYN082AAXX  05124 83339 31496 20903 10215 20195 39153 40103 71000 885// 333 20200 59008;EQDQ01+000082SCOTLC
0137833390999992009020518004-14050-042617FM-12+088299999V0201401N004612200019N0100001N1+02971+01531100491ADDGF102991021021004501001001MA1999999091121MD1999999-0251REMSYN070AAXX  05184 83339 32497 21409 10297 20153 39112 40049 82200 333 59025;
0168833390999992009020600004-14050-042617FM-12+088299999V0201401N002112200019N0020001N1+02491+01531100861ADDGF102991021021004501001001KA1240M+03101MA1999999091341MD1999999-0061REMSYN088AAXX  06004 83339 32495 21404 10249 20153 39134 40086 82200 333 10310 29061 55077 59006;
0184833390999992009020612004-14050-042617FM-12+088299999V0201401N003110042019N0040001N1+02131+01931101101ADDAY101061AY201061GF108991081051004501999999KA1240N+01901MA1999999091551MD1999999+0021MW1101REMSYN082AAXX  06124 83339 31496 81406 10213 20193 39155 40110 71000 885// 333 20190 58002;
0137833390999992009020618004-14050-042617FM-12+088299999V0201401N004112200019N0100001N1+02961+01871100611ADDGF103991031021004501001001MA1999999091211MD1999999+0091REMSYN070AAXX  06184 83339 32497 31408 10296 20187 39121 40061 83200 333 58009;
0196833390999992009020700004-14050-042617FM-12+088299999V0200901N001512200019N0020001N1+02451+01711100851ADDAY101061AY201061GF102991021021004501001001KA1240M+03091MA1999999091331MD1999999-0011MW1131REMSYN094AAXX  07004 83339 31495 20903 10245 20171 39133 40085 71300 82200 333 10309 29067 55075 59001;
0156833390999992009020712004-14050-042617FM-12+088299999V0200501N003110042019N0100001N1+02351+01911101061ADDGF106991061021004501001001KA1240N+01941MA1999999091551MD1999999+0001REMSYN076AAXX  07124 83339 32497 60506 10235 20191 39155 40106 86200 333 20194 58000;
0137833390999992009020718004-14050-042617FM-12+088299999V0201401N001512200019N0100001N1+03051+01781100591ADDGF102991021021004501001001MA1999999091211MD1999999+0001REMSYN070AAXX  07184 83339 32497 21403 10305 20178 39121 40059 82200 333 58000;
0178833390999992009020800004-14050-042617FM-12+088299999V0209999C000012200019N0020001N1+02471+01551100731ADDGA1001+999999999GF100991001001999999001001KA1240M+03161MA1999999091251MD1999999-0081REMSYN082AAXX  08004 83339 32995 00000 10247 20155 39125 40073 333 10316 29060 55104 59008;
0156833390999992009020812004-14050-042617FM-12+088299999V0200501N004112200019N0100001N1+02451+01861101061ADDGF102991021021004501001001KA1240N+01941MA1999999091571MD1999999+0021REMSYN076AAXX  08124 83339 32497 20508 10245 20186 39157 40106 82200 333 20194 58002;
0137833390999992009020818004-14050-042617FM-12+088299999V0201401N005112200019N0100001N1+02991+01661100481ADDGF103991031021004501001001MA1999999091111MD1999999-0101REMSYN070AAXX  08184 83339 32497 31410 10299 20166 39111 40048 83200 333 59010;
0178833390999992009020900004-14050-042617FM-12+088299999V0209999C000012200019N0020001N1+02471+01611100691ADDGA1001+999999999GF100991001001999999001001KA1240M+03121MA1999999091241MD1999999-0011REMSYN082AAXX  09004 83339 32995 00000 10247 20161 39124 40069 333 10312 29058 55116 59001;
0184833390999992009020912004-14050-042617FM-12+088299999V0201401N001510042019N0040001N1+02211+01941101001ADDAY101061AY201061GF108991081051004501999999KA1240N+01981MA1999999091461MD1999999-0111MW1101REMSYN082AAXX  09124 83339 31496 81403 10221 20194 39146 40100 71000 885// 333 20198 59011;
0137833390999992009020918004-14050-042617FM-12+088299999V0200501N004112200019N0100001N1+03031+01511100551ADDGF102991021021004501001001MA1999999091171MD1999999+0061REMSYN070AAXX  09184 83339 32497 20508 10303 20151 39117 40055 82200 333 58006;
0178833390999992009021000004-14050-042617FM-12+088299999V0202301N001512200019N0020001N1+02521+01581100691ADDGA1001+999999999GF100991001001999999001001KA1240M+03161MA1999999091201MD1999999-0041REMSYN082AAXX  10004 83339 32995 02303 10252 20158 39120 40069 333 10316 29059 55085 59004;
0184833390999992009021012004-14050-042617FM-12+088299999V0201401N004110042019N0100001N1+02291+01941100971ADDAY101061AY201061GF106991061021004501001001KA1240N+02001MA1999999091471MD1999999+0011MW1101REMSYN082AAXX  10124 83339 31497 61408 10229 20194 39147 40097 71000 86200 333 20200 58001;
0137833390999992009021018004-14050-042617FM-12+088299999V0200901N005712200019N0100001N1+03071+01771100491ADDGF103991031021004501001001MA1999999091141MD1999999-0031REMSYN070AAXX  10184 83339 32497 30911 10307 20177 39114 40049 83200 333 59003;
0168833390999992009021100004-14050-042617FM-12+088299999V0201401N004112200019N0020001N1+02591+01721100691ADDGF102991021021004501001001KA1240M+03141MA1999999091241MD1999999+0041REMSYN088AAXX  11004 83339 32495 21408 10259 20172 39124 40069 82200 333 10314 29061 55091 58004;
0156833390999992009021112004-14050-042617FM-12+088299999V0201401N003612200019N0100001N1+02411+01751100931ADDGF102991021021004501001001KA1240N+01941MA1999999091471MD1999999+0001REMSYN076AAXX  11124 83339 32497 21407 10241 20175 39147 40093 82200 333 20194 58000;
0137833390999992009021118004-14050-042617FM-12+088299999V0201401N004112200019N0100001N1+03071+01381100571ADDGF103991031021004501001001MA1999999091211MD1999999+0071REMSYN070AAXX  11184 83339 32497 31408 10307 20138 39121 40057 83200 333 58007;
0168833390999992009021200004-14050-042617FM-12+088299999V0201401N002112200019N0020001N1+02451+01201100601ADDGF102991021011004501001001KA1240M+03141MA1999999091151MD1999999-0091REMSYN088AAXX  12004 83339 32495 21404 10245 20120 39115 40060 82100 333 10314 29049 55117 59009;
0156833390999992009021212004-14050-042617FM-12+088299999V0200501N001510450019N0100001N1+02251+01841100811ADDGF105991041021004501021001KA1240N+01901MA1999999091311MD1999999-0161REMSYN076AAXX  12124 83339 32497 50503 10225 20184 39131 40081 84220 333 20190 59016;
0137833390999992009021218004-14050-042617FM-12+088299999V0201401N002112200019N0100001N1+02911+01481100261ADDGF103991021021004501001021MA1999999090891MD1999999-0321REMSYN070AAXX  12184 83339 32497 31404 10291 20148 39089 40026 82202 333 59032;
0168833390999992009021300004-14050-042617FM-12+088299999V0201401N005712200019N0020001N1+02591+01581100341ADDGF102991021021004501001001KA1240M+03231MA1999999090901MD1999999-0251REMSYN088AAXX  13004 83339 32495 21411 10259 20158 39090 40034 82200 333 10323 29057 55087 59025;
0156833390999992009021312004-14050-042617FM-12+088299999V0200901N002110042019N0100001N1+02451+01791100481ADDGF106991051021004501021001KA1240N+01941MA1999999091071MD1999999-0241REMSYN076AAXX  13124 83339 32497 60904 10245 20179 39107 40048 85220 333 20194 59024;
0137833390999992009021318004-14050-042617FM-12+088299999V0203601N003110042019N0100001N1+03091+01681100051ADDGF106991051021004501001021MA1999999090741MD1999999-0151REMSYN070AAXX  13184 83339 32497 63606 10309 20168 39074 40005 85202 333 59015;
0201833390999992009021412004-14050-042617FM-12+088299999V0201401N001510042019N0040001N1+02151+01931100881ADDAA124041991AY161061AY261061GF108991081051004501999999KA1240N+01841MA1999999091271MD1999999+0201MW1101REMSYN088AAXX  14124 83339 21496 81403 10215 20193 39127 40088 71066 885// 333 20184 58020 60424;
0165833390999992009021418004-14050-042617FM-12+088299999V0200901N004111050019N0100001N1+02751+01811100451ADDAY101061AY201061GF106991041021004501001021MA1999999090981MD1999999+0241MW1171REMSYN076AAXX  14184 83339 31497 60908 10275 20181 39098 40045 71700 84202 333 58024;
0213833390999992009021500004-14050-042617FM-12+088299999V0202301N001510042019N0020001N1+02191+01761100681ADDAA106000591AY161061AY261061GF106991061021004501001001KA1240M+02901MA1999999091111MD1999999+0151MW1131REMSYN100AAXX  15004 83339 21495 62303 10219 20176 39111 40068 71366 86200 333 10290 29075 55041 58015 69961;
0201833390999992009021512004-14050-042617FM-12+088299999V0201401N007210042019N0100001N1+02251+01751101161ADDAA124000591AY161061AY221061GF105991051021004501001001KA1240N+01891MA1999999091561MD1999999+0291MW1021REMSYN088AAXX  15124 83339 21497 51414 10225 20175 39156 40116 70262 85200 333 20189 58029 69964;
0137833390999992009021518004-14050-042617FM-12+088299999V0201401N005110042019N0100001N1+02651+01651100781ADDGF106991061021004501001041MA1999999091281MD1999999+0301REMSYN070AAXX  15184 83339 32497 61410 10265 20165 39128 40078 86204 333 58030;
0178833390999992009021600004-14050-042617FM-12+088299999V0201401N006212200019N0020001N1+02331+01571100881ADDGA1001+999999999GF100991001001999999001001KA1240M+02761MA1999999091351MD1999999+0241REMSYN082AAXX  16004 83339 32995 01412 10233 20157 39135 40088 333 10276 29063 55064 58024;
0156833390999992009021612004-14050-042617FM-12+088299999V0201401N003110042019N0100001N1+02091+01781101181ADDGF108991061021004501021999KA1240N+01871MA1999999091581MD1999999+0021REMSYN076AAXX  16124 83339 32497 81406 10209 20178 39158 40118 8622/ 333 20187 58002;
0137833390999992009021618004-14050-042617FM-12+088299999V0200901N004110042019N0100001N1+02701+01751100851ADDGF105991051021004501001001MA1999999091361MD1999999+0081REMSYN070AAXX  16184 83339 32497 50908 10270 20175 39136 40085 85200 333 58008;
0168833390999992009021700004-14050-042617FM-12+088299999V0201401N004612200019N0020001N1+02351+01711100911ADDGF102991021021004501001001KA1240M+02781MA1999999091431MD1999999+0081REMSYN088AAXX  17004 83339 32495 21409 10235 20171 39143 40091 82200 333 10278 29068 55078 58008;
0156833390999992009021712004-14050-042617FM-12+088299999V0201401N006710042019N0100001N1+02171+01721101251ADDGF106991061021004501001001KA1240N+01851MA1999999091661MD1999999+0081REMSYN076AAXX  17124 83339 32497 61413 10217 20172 39166 40125 86200 333 20185 58008;
0137833390999992009021718004-14050-042617FM-12+088299999V0200901N003612200019N0100001N1+02851+01651100751ADDGF103991031021004501001001MA1999999091321MD1999999-0041REMSYN070AAXX  17184 83339 32497 30907 10285 20165 39132 40075 83200 333 59004;
0178833390999992009021800004-14050-042617FM-12+088299999V0201401N002612200019N0020001N1+02451+01581100951ADDGA1001+999999999GF100991001001999999001001KA1240M+02911MA1999999091421MD1999999-0011REMSYN082AAXX  18004 83339 32995 01405 10245 20158 39142 40095 333 10291 29060 55112 59001;
0156833390999992009021812004-14050-042617FM-12+088299999V0201401N007710042019N0100001N1+02201+01801101181ADDGF106991061021004501001001KA1240N+01991MA1999999091631MD1999999-0031REMSYN076AAXX  18124 83339 32497 61415 10220 20180 39163 40118 86200 333 20199 59003;
0137833390999992009021818004-14050-042617FM-12+088299999V0201401N005710042019N0100001N1+02821+01741100771ADDGF105991051021004501001001MA1999999091341MD1999999+0021REMSYN070AAXX  18184 83339 32497 51411 10282 20174 39134 40077 85200 333 58002;
0168833390999992009021900004-14050-042617FM-12+088299999V0201401N005710450019N0020001N1+02181+01741101091ADDGF106991041021004501021001KA1240M+02861MA1999999091501MD1999999+0081REMSYN088AAXX  19004 83339 32495 61411 10218 20174 39150 40109 84220 333 10286 29071 55081 58008;
0156833390999992009021912004-14050-042617FM-12+088299999V0201401N004110042019N0100001N1+02051+01701101301ADDGF108991051021004501021999KA1240N+01781MA1999999091651MD1999999+0021REMSYN076AAXX  19124 83339 32497 81408 10205 20170 39165 40130 8522/ 333 20178 58002;
0137833390999992009021918004-14050-042617FM-12+088299999V0201401N002612200019N0100001N1+02691+01661100841ADDGF103991021021004501001011MA1999999091341MD1999999+0001REMSYN070AAXX  19184 83339 32497 31405 10269 20166 39134 40084 82201 333 58000;
0213833390999992009022000004-14050-042617FM-12+088299999V0201401N001510042019N0020001N1+02011+01801101241ADDAA106001091AY161061AY221061GF106991061021004501001001KA1240M+02781MA1999999091581MD1999999+0081MW1021REMSYN100AAXX  20004 83339 21495 61403 10201 20180 39158 40124 70262 86200 333 10278 29077 55048 58008 60011;
0201833390999992009022012004-14050-042617FM-12+088299999V0201401N005710042019N0100001N1+01991+01701101231ADDAA124001091AY161061AY221061GF106991061021004501001001KA1240N+01781MA1999999091551MD1999999-0101MW1021REMSYN088AAXX  20124 83339 21497 61411 10199 20170 39155 40123 70262 86200 333 20178 59010 60014;
0156833390999992009022018004-14050-042617FM-12+088299999V0201401N004112200019N0100001N1+02751+01531100701ADDGF104991031021004501001011MA1999999061212MD1999999-0131REMSYN070AAXX  20184 83339 32497 41408 10275 20153 36121 40070 83201 333 59013;EQDQ01+061213APOSP 
0156833390999992009022112004-14050-042617FM-12+088299999V0201401N004612200019N0100001N1+02251+01791101061ADDGF104991041021004501001001KA1240N+01841MA1999999091501MD1999999-0051REMSYN076AAXX  21124 83339 32497 41409 10225 20179 39150 40106 84200 333 20184 59005;
0137833390999992009022118004-14050-042617FM-12+088299999V0201401N004112200019N0100001N1+02921+01501100551ADDGF102991021021004501001001MA1999999091141MD1999999-0071REMSYN070AAXX  21184 83339 32497 21408 10292 20150 39114 40055 82200 333 59007;
0156833390999992009022212004-14050-042617FM-12+088299999V0200901N001512200019N0100001N1+02261+01821101161ADDGF102991021011004501001001KA1240N+01851MA1999999091631MD1999999+0131REMSYN076AAXX  22124 83339 32497 20903 10226 20182 39163 40116 82100 333 20185 58013;
0137833390999992009022218004-14050-042617FM-12+088299999V0201401N004112200019N0100001N1+03001+01411100701ADDGF105991041021004501001011MA1999999091311MD1999999+0171REMSYN070AAXX  22184 83339 32497 51408 10300 20141 39131 40070 84201 333 58017;
0156833390999992009022312004-14050-042617FM-12+088299999V0201401N003110450019N0100001N1+02271+01731101171ADDGF105991041021004501031001KA1240N+01831MA1999999091641MD1999999+0011REMSYN076AAXX  23124 83339 32497 51406 10227 20173 39164 40117 84230 333 20183 58001;
0137833390999992009022318004-14050-042617FM-12+088299999V0200901N002110042019N0100001N1+02851+01601100681ADDGF106991061021004501001001MA1999999091251MD1999999-0061REMSYN070AAXX  23184 83339 32497 60904 10285 20160 39125 40068 86200 333 59006;
0156833390999992009022412004-14050-042617FM-12+088299999V0201401N001010042019N0100001N1+02291+01731101051ADDGF106991051021004501031001KA1240N+01881MA1999999091491MD1999999-0151REMSYN076AAXX  24124 83339 32497 61402 10229 20173 39149 40105 85230 333 20188 59015;
0137833390999992009022418004-14050-042617FM-12+088299999V0201401N004612200019N0100001N1+02971+01571100521ADDGF103991021021004501001021MA1999999091111MD1999999-0141REMSYN070AAXX  24184 83339 32497 31409 10297 20157 39111 40052 82202 333 59014;
0156833390999992009022512004-14050-042617FM-12+088299999V0201401N002612200019N0100001N1+02351+01851101021ADDGF103991031021004501001001KA1240N+01901MA1999999091521MD1999999+0031REMSYN076AAXX  25124 83339 32497 31405 10235 20185 39152 40102 83200 333 20190 58003;
0137833390999992009022518004-14050-042617FM-12+088299999V0201401N003112200019N0100001N1+03051+01571100611ADDGF104991031021004501021001MA1999999091231MD1999999+0121REMSYN070AAXX  25184 83339 32497 41406 10305 20157 39123 40061 83220 333 58012;
0168833390999992009022600004-14050-042617FM-12+088299999V0201401N004612200019N0020001N1+02571+01561100821ADDGF102991021021004501001001KA1240M+03131MA1999999091351MD1999999+0091REMSYN088AAXX  26004 83339 32495 21409 10257 20156 39135 40082 82200 333 10313 29056 55110 58009;
0156833390999992009022612004-14050-042617FM-12+088299999V0201401N004610042019N0100001N1+02291+01771100901ADDGF106991061021004501001001KA1240N+02081MA1999999091431MD1999999-0091REMSYN076AAXX  26124 83339 32497 61409 10229 20177 39143 40090 86200 333 20208 59009;
0137833390999992009022618004-14050-042617FM-12+088299999V0201401N003612200019N0100001N1+02991+01621100531ADDGF104991031021004501021001MA1999999091171MD1999999-0061REMSYN070AAXX  26184 83339 32497 41407 10299 20162 39117 40053 83220 333 59006;
0168833390999992009022700004-14050-042617FM-12+088299999V0201801N006712200019N0020001N1+02371+01951100871ADDGF102991021021004501001001KA1240M+03081MA1999999091361MD1999999+0011REMSYN088AAXX  27004 83339 32495 21813 10237 20195 39136 40087 82200 333 10308 29068 55085 58001;
0156833390999992009022712004-14050-042617FM-12+088299999V0201401N003610042019N0100001N1+02251+01691101061ADDGF106991061021004501001001KA1240N+01851MA1999999091521MD1999999+0091REMSYN076AAXX  27124 83339 32497 61407 10225 20169 39152 40106 86200 333 20185 58009;
0137833390999992009022718004-14050-042617FM-12+088299999V0201401N003610042019N0100001N1+02651+01631100791ADDGF106991051021004501001021MA1999999091311MD1999999+0141REMSYN070AAXX  27184 83339 32497 61407 10265 20163 39131 40079 85202 333 58014;
0168833390999992009022800004-14050-042617FM-12+088299999V0201401N003112200019N0020001N1+02251+01641100961ADDGF102991021021004501001001KA1240M+02761MA1999999091411MD1999999+0051REMSYN088AAXX  28004 83339 32495 21406 10225 20164 39141 40096 82200 333 10276 29066 55066 58005;
0156833390999992009022812004-14050-042617FM-12+088299999V0202301N006210042019N0100001N1+02151+01761101201ADDGF106991061021004501001001KA1240N+01901MA1999999091601MD1999999+0081REMSYN076AAXX  28124 83339 32497 62312 10215 20176 39160 40120 86200 333 20190 58008;
0156833390999992009022818004-14050-042617FM-12+088299999V0201401N001519999999N0100001N1+02871+01521100781ADDGF105991999021004501001001MA1999999091321MD1999999+0011REMSYN070AAXX  28184 83339 32497 51403 10287 20152 39132 40078 81200 333 58001;EQDQ01+000012SCOTLC
0168833390999992009030100004-14050-042617FM-12+088299999V0201401N004612200019N0020001N1+02451+01561100991ADDGF102991021021004501001001KA1240M+02981MA1999999091451MD1999999+0041REMSYN088AAXX  01004 83339 32495 21409 10245 20156 39145 40099 82200 333 10298 29060 55097 58004;
0156833390999992009030112004-14050-042617FM-12+088299999V0201401N004610042019N0100001N1+02331+01761101211ADDGF105991051021004501001001KA1240N+01971MA1999999091691MD1999999+0091REMSYN076AAXX  01124 83339 32497 51409 10233 20176 39169 40121 85200 333 20197 58009;
0137833390999992009030118004-14050-042617FM-12+088299999V0200501N001512200019N0100001N1+03111+01371100751ADDGF103991021021004501001021MA1999999091371MD1999999+0051REMSYN070AAXX  01184 83339 32497 30503 10311 20137 39137 40075 82202 333 58005;
0168833390999992009030200004-14050-042617FM-12+088299999V0201801N002612200019N0020001N1+02471+01411101431ADDGF104991041021004501001001KA1240M+03061MA1999999091461MD1999999+0011REMSYN088AAXX  02004 83339 32495 41805 10247 20141 39146 40143 84200 333 10306 29053 55098 58001;
0156833390999992009030212004-14050-042617FM-12+088299999V0200501N006712200019N0100001N1+02391+01701101271ADDGF102991021011004501001001KA1240N+02041MA1999999091761MD1999999+0071REMSYN076AAXX  02124 83339 32497 20513 10239 20170 39176 40127 82100 333 20204 58007;
0178833390999992009030300004-14050-042617FM-12+088299999V0201401N001512200019N0020001N1+02571+01361100911ADDGA1001+999999999GF100991001001999999001001KA1240M+03121MA1999999091451MD1999999-0011REMSYN082AAXX  03004 83339 32995 01403 10257 20136 39145 40091 333 10312 29048 55114 59001;
0156833390999992009030312004-14050-042617FM-12+088299999V0201401N004612200019N0100001N1+02331+01871101241ADDGF104991041021004501001001KA1240N+01991MA1999999091741MD1999999-0021REMSYN076AAXX  03124 83339 32497 41409 10233 20187 39174 40124 84200 333 20199 59002;
0137833390999992009030318004-14050-042617FM-12+088299999V0201401N003112200019N0100001N1+03111+01351100631ADDGF102991021011004501001001MA1999999091281MD1999999-0081REMSYN070AAXX  03184 83339 32497 21406 10311 20135 39128 40063 82100 333 59008;
0178833390999992009030400004-14050-042617FM-12+088299999V0202301N002112200019N0020001N1+02561+01281100641ADDGA1001+999999999GF100991001001999999001001KA1240M+03221MA1999999091371MD1999999-0081REMSYN082AAXX  04004 83339 32995 02304 10256 20128 39137 40064 333 10322 29050 55094 59008;
0150833390999992009030412004-14050-042617FM-12+088299999V0203601N001519999999N0100001N1+02421+01991101011ADDGF105991999999008001999999KA1240N+01891MA1999999092961MD1999999-0171REMSYN070AAXX  04124 83339 32597 53603 10242 20199 39296 40101 333 20189 59017;
0156833390999992009030418004-14050-042617FM-12+088299999V0203601N001512200019N0100001N1+03301+01091100461ADDGF102991021011004501001001MA1999999091152MD1999999-0131REMSYN070AAXX  04184 83339 32497 23603 10330 20109 39115 40046 82100 333 59013;EQDQ01+091153APOSP 
0168833390999992009030500004-14050-042617FM-12+088299999V0200901N001512200019N0020001N1+02611+01191100711ADDGF102991021011004501001001KA1240M+03361MA1999999091301MD1999999-0071REMSYN088AAXX  05004 83339 32495 20903 10261 20119 39130 40071 82100 333 10336 29042 55114 59007;
0166833390999992009030512004-14050-042617FM-12+088299999V0201401N002112200019N0020001N1+02651+01711100921ADDGA1001+999999999GF100991001001999999001001KA1240N+02081MA1999999091531MD1999999-0041REMSYN070AAXX  05124 83339 32995 01404 10265 20171 39153 40092 333 20208 59004;
0137833390999992009030518004-14050-042617FM-12+088299999V0201801N002612200019N0100001N1+03311+01331100331ADDGF102991021021004501001001MA1999999091071MD1999999-0081REMSYN070AAXX  05184 83339 32497 21805 10331 20133 39107 40033 82200 333 59008;
0178833390999992009030600004-14050-042617FM-12+088299999V0209999C000012200019N0020001N1+02771+01411100571ADDGA1001+999999999GF100991001001999999001001KA1240M+03371MA1999999091231MD1999999-0071REMSYN082AAXX  06004 83339 32995 00000 10277 20141 39123 40057 333 10337 29043 55105 59007;
0156833390999992009030612004-14050-042617FM-12+088299999V0200901N001512200019N0100001N1+02571+01881100901ADDGF104991011011004501001011KA1240N+02081MA1999999091551MD1999999+0021REMSYN076AAXX  06124 83339 32497 40903 10257 20188 39155 40090 81101 333 20208 58002;
0137833390999992009030618004-14050-042617FM-12+088299999V0203201N000510042019N0100001N1+03251+01641100421ADDGF106991051021004501001011MA1999999091151MD1999999+0081REMSYN070AAXX  06184 83339 32497 63201 10325 20164 39115 40042 85201 333 58008;
0196833390999992009030700004-14050-042617FM-12+088299999V0202701N005110042019N0020001N1+02541+01951100781ADDAY121061AY221061GF107991071021004501001001KA1240M+03311MA1999999091361MD1999999+0131MW1131REMSYN094AAXX  07004 83339 31495 72710 10254 20195 39136 40078 71322 87200 333 10331 29061 55073 58013;
0156833390999992009030712004-14050-042617FM-12+088299999V0202701N004112200019N0100001N1+02421+01841101111ADDGF103991011011004501001011KA1240N+02191MA1999999091641MD1999999+0091REMSYN076AAXX  07124 83339 32497 32708 10242 20184 39164 40111 81101 333 20219 58009;
0137833390999992009030718004-14050-042617FM-12+088299999V0202701N002110042019N0100001N1+03231+01711100501ADDGF105991051021004501001001MA1999999091211MD1999999+0061REMSYN070AAXX  07184 83339 32497 52704 10323 20171 39121 40050 85200 333 58006;
0213833390999992009030800004-14050-042617FM-12+088299999V0202701N004610042019N0020001N1+02131+01501100991ADDAA106030091AY161061AY291061GF108991061021004501021999KA1240M+03291MA1999999091451MD1999999+0091MW1131REMSYN100AAXX  08004 83339 21495 82709 10213 20150 39145 40099 71369 8622/ 333 10329 29061 55087 58009 60301;
0201833390999992009030812004-14050-042617FM-12+088299999V0200901N003110042019N0100001N1+02201+01991101351ADDAA124030091AY161061AY221061GF108991051021004501021999KA1240N+01751MA1999999091721MD1999999+0081MW1021REMSYN088AAXX  08124 83339 21497 80906 10220 20199 39172 40135 70262 8522/ 333 20175 58008 60304;
0137833390999992009030818004-14050-042617FM-12+088299999V0201401N002112200019N0100001N1+02931+01761100681ADDGF104991031021004501001011MA1999999091231MD1999999+0021REMSYN070AAXX  08184 83339 32497 41404 10293 20176 39123 40068 83201 333 58002;
0168833390999992009030900004-14050-042617FM-12+088299999V0201401N003112200019N0020001N1+02571+01611100801ADDGF102991021011004501001001KA1240M+02981MA1999999091321MD1999999-0131REMSYN088AAXX  09004 83339 32495 21406 10257 20161 39132 40080 82100 333 10298 29062 55084 59013;
0156833390999992009030912004-14050-042617FM-12+088299999V0201401N004610042019N0100001N1+02291+01771101081ADDGF106991061021004501001001KA1240N+01921MA1999999091591MD1999999-0131REMSYN076AAXX  09124 83339 32497 61409 10229 20177 39159 40108 86200 333 20192 59013;
0137833390999992009030918004-14050-042617FM-12+088299999V0200501N001512200019N0100001N1+02951+01691100581ADDGF103991031021004501001001MA1999999091201MD1999999-0031REMSYN070AAXX  09184 83339 32497 30503 10295 20169 39120 40058 83200 333 59003;
0168833390999992009031000004-14050-042617FM-12+088299999V0201401N001512200019N0020001N1+02611+01511100771ADDGF102991021021004501001001KA1240M+03021MA1999999091311MD1999999-0011REMSYN088AAXX  10004 83339 32495 21403 10261 20151 39131 40077 82200 333 10302 29056 55105 59001;
0156833390999992009031012004-14050-042617FM-12+088299999V0200901N003112200019N0100001N1+02291+01811101011ADDGF102991011021004501001021KA1240N+01881MA1999999091531MD1999999-0061REMSYN076AAXX  10124 83339 32497 20906 10229 20181 39153 40101 81202 333 20188 59006;
0137833390999992009031018004-14050-042617FM-12+088299999V0201401N003612200019N0100001N1+02951+01481100601ADDGF102991021021004501001001MA1999999091221MD1999999+0021REMSYN070AAXX  10184 83339 32497 21407 10295 20148 39122 40060 82200 333 58002;
0178833390999992009031100004-14050-042617FM-12+088299999V0201801N003612200019N0020001N1+02491+01071100741ADDGA1001+999999999GF100991001001999999001001KA1240M+03041MA1999999091261MD1999999-0051REMSYN082AAXX  11004 83339 32995 01807 10249 20107 39126 40074 333 10304 29050 55109 59005;
0156833390999992009031112004-14050-042617FM-12+088299999V0201401N003112200019N0100001N1+02291+01731101031ADDGF102991021021004501001001KA1240N+01931MA1999999091531MD1999999+0001REMSYN076AAXX  11124 83339 32497 21406 10229 20173 39153 40103 82200 333 20193 58000;
0147833390999992009031118004-14050-042617FM-12+088299999V0201401N003612200019N0100001N1+03071+00831100471ADDGA1001+999999999GF100991001001999999001001MA1999999091161MD1999999-0061REMSYN064AAXX  11184 83339 32997 01407 10307 20083 39116 40047 333 59006;
0168833390999992009031200004-14050-042617FM-12+088299999V0201401N002612200019N0020001N1+02571+01171100721ADDGF103991031021004501001001KA1240M+03151MA1999999091261MD1999999+0001REMSYN088AAXX  12004 83339 32495 31405 10257 20117 39126 40072 83200 333 10315 29045 55114 58000;
0156833390999992009031212004-14050-042617FM-12+088299999V0201401N006712200019N0100001N1+02311+01751100951ADDGF104991041021004501001001KA1240N+01961MA1999999091471MD1999999-0061REMSYN076AAXX  12124 83339 32497 41413 10231 20175 39147 40095 84200 333 20196 59006;
0137833390999992009031218004-14050-042617FM-12+088299999V0201401N002612200019N0100001N1+02951+01321100501ADDGF102991011021004501021001MA1999999091131MD1999999-0031REMSYN070AAXX  12184 83339 32497 21405 10295 20132 39113 40050 81220 333 59003;
0178833390999992009031300004-14050-042617FM-12+088299999V0200901N001512200019N0020001N1+02531+01241100601ADDGA1001+999999999GF100991001001999999001001KA1240M+03051MA1999999091141MD1999999-0121REMSYN082AAXX  13004 83339 32995 00903 10253 20124 39114 40060 333 10305 29050 55111 59012;
0160833390999992009031312004-14050-042617FM-12+088299999V0201401N003112200019N0100001N1+02331+01811100871ADDGF102991021021004501001001KA1240N+01921MD1999999-0071REMSYN076AAXX  13124 83339 32497 21406 10233 20181 33914 40087 82200 333 20192 59007;EQDQ01+039141APOSP 
0137833390999992009031318004-14050-042617FM-12+088299999V0201401N003112200019N0100001N1+03051+01371100401ADDGF103991021021004501021001MA1999999091051MD1999999-0081REMSYN070AAXX  13184 83339 32497 31406 10305 20137 39105 40040 82220 333 59008;
0178833390999992009031400004-14050-042617FM-12+088299999V0209999C000012200019N0020001N1+02511+01191100631ADDGA1001+999999999GF100991001001999999001001KA1240M+03141MA1999999091161MD1999999+0021REMSYN082AAXX  14004 83339 32995 00000 10251 20119 39116 40063 333 10314 29049 55108 58002;
0166833390999992009031412004-14050-042617FM-12+088299999V0200901N002112200019N0100001N1+02411+01651100851ADDGA1001+999999999GF100991001001999999001001KA1240N+01981MA1999999091381MD1999999-0021REMSYN070AAXX  14124 83339 32997 00904 10241 20165 39138 40085 333 20198 59002;
0137833390999992009031418004-14050-042617FM-12+088299999V0203201N000512200019N0100001N1+03311+01091100361ADDGF104991041021004501001001MA1999999091041MD1999999-0011REMSYN070AAXX  14184 83339 32497 43201 10331 20109 39104 40036 84200 333 59001;
0178833390999992009031500004-14050-042617FM-12+088299999V0202301N002112200019N0020001N1+02721+00951100561ADDGA1001+999999999GF100991001001999999001001KA1240M+03461MA1999999091161MD1999999+0001REMSYN082AAXX  15004 83339 32995 02304 10272 20095 39116 40056 333 10346 29039 55114 58000;
0156833390999992009031512004-14050-042617FM-12+088299999V0200501N001512200019N0100001N1+02711+01751100851ADDGF102991021021004501001001KA1240N+02161MA1999999091481MD1999999+0101REMSYN076AAXX  15124 83339 32497 20503 10271 20175 39148 40085 82200 333 20216 58010;
0137833390999992009031518004-14050-042617FM-12+088299999V0203601N006210042019N0100001N1+03031+01831100461ADDGF106991051021004501021001MA1999999091151MD1999999+0111REMSYN070AAXX  15184 83339 32497 63612 10303 20183 39115 40046 85220 333 58011;
0168833390999992009031600004-14050-042617FM-12+088299999V0202701N000512200019N0020001N1+02571+01801100601ADDGF103991031021004501001001KA1240M+03201MA1999999091241MD1999999+0081REMSYN088AAXX  16004 83339 32495 32701 10257 20180 39124 40060 83200 333 10320 29058 55062 58008;
0201833390999992009031612004-14050-042617FM-12+088299999V0200501N002611050019N0100001N1+02531+02111100971ADDAA124034091AY191061AY261061GF105991011011004501031011KA1240N+01991MA1999999091541MD1999999+0061MW1021REMSYN088AAXX  16124 83339 21497 50505 10253 20211 39154 40097 70296 81131 333 20199 58006 60344;
0137833390999992009031618004-14050-042617FM-12+088299999V0201401N003112200019N0100001N1+03051+01771100471ADDGF105991041021004501001011MA1999999091121MD1999999-0031REMSYN070AAXX  16184 83339 32497 51406 10305 20177 39112 40047 84201 333 59003;
0178833390999992009031700004-14050-042617FM-12+088299999V0201401N001512200019N0020001N1+02631+01601100781ADDGA1001+999999999GF100991001001999999001001KA1240M+03121MA1999999091381MD1999999+0141REMSYN082AAXX  17004 83339 32995 01403 10263 20160 39138 40078 333 10312 29057 55094 58014;
0156833390999992009031712004-14050-042617FM-12+088299999V0201401N003612200019N0100001N1+02231+01801101201ADDGF106991021011004501001011KA1240N+02041MA1999999091701MD1999999+0161REMSYN076AAXX  17124 83339 32497 61407 10223 20180 39170 40120 82101 333 20204 58016;
0137833390999992009031718004-14050-042617FM-12+088299999V0201401N001510450019N0100001N1+02891+01591100771ADDGF105991031021004501031011MA1999999091371MD1999999+0251REMSYN070AAXX  17184 83339 32497 51403 10289 20159 39137 40077 83231 333 58025;
0168833390999992009031800004-14050-042617FM-12+088299999V0201401N006712200019N0020001N1+02341+01831101151ADDGF102991021011004501001001KA1240M+02981MA1999999091601MD1999999+0221REMSYN088AAXX  18004 83339 32495 21413 10234 20183 39160 40115 82100 333 10298 29067 55085 58022;
0156833390999992009031812004-14050-042617FM-12+088299999V0201401N004610042019N0100001N1+02231+01841101251ADDGF106991061021004501001001KA1240N+02031MA1999999091691MD1999999-0011REMSYN076AAXX  18124 83339 32497 61409 10223 20184 39169 40125 86200 333 20203 59001;
0137833390999992009031818004-14050-042617FM-12+088299999V0200901N003112200019N0100001N1+02931+01591100741ADDGF104991041021004501001001MA1999999091331MD1999999-0041REMSYN070AAXX  18184 83339 32497 40906 10293 20159 39133 40074 84200 333 59004;
0168833390999992009031900004-14050-042617FM-12+088299999V0201801N003112200019N0020001N1+02501+01671101001ADDGF102991021021004501001001KA1240M+02981MA1999999091481MD1999999-0121REMSYN088AAXX  19004 83339 32495 21806 10250 20167 39148 40100 82200 333 10298 29061 55073 59012;
0220833390999992009031912004-14050-042617FM-12+088299999V0201401N005110042019N0100001N1+02191+01991101141ADDAA124023191AY161061AY221061GF106991061021004501001001KA1240N+02041MA1999999999999MD1999999-0081MW1021REMSYN088AAXX  19124 83339 21497 61410 10219 20199 30161 40114 70262 86200 333 20204 59008 60234;EQDQ01 101613APOSP 
0156833390999992009031918004-14050-042617FM-12+088299999V0201401N001010042019N0100001N1+02351+02051100851ADDGF105991051021004501001001MA1999999091332MD1999999+0001REMSYN070AAXX  19184 83339 32497 51402 10235 20205 39133 40085 85200 333 58000;EQDQ01+091333APOSP 
0178833390999992009032000004-14050-042617FM-12+088299999V0201401N004112200019N0020001N1+02231+01961100941ADDGA1001+999999999GF100991001001999999001001KA1240M+02751MA1999999091361MD1999999-0121REMSYN082AAXX  20004 83339 32995 01408 10223 20196 39136 40094 333 10275 29085 55043 59012;
0156833390999992009032012004-14050-042617FM-12+088299999V0201401N005112200019N0100001N1+02301+01921101151ADDGF104991041021004501001001KA1240N+02001MA1999999091581MD1999999-0031REMSYN076AAXX  20124 83339 32497 41410 10230 20192 39158 40115 84200 333 20200 59003;
0137833390999992009032018004-14050-042617FM-12+088299999V0201401N002612200019N0100001N1+02821+01741100651ADDGF102991021021004501001001MA1999999091201MD1999999-0131REMSYN070AAXX  20184 83339 32497 21405 10282 20174 39120 40065 82200 333 59013;
0178833390999992009032100004-14050-042617FM-12+088299999V0202301N001512200019N0020001N1+02351+01731100901ADDGA1001+999999999GF100991001001999999001001KA1240M+02891MA1999999091371MD1999999+0011REMSYN082AAXX  21004 83339 32995 02303 10235 20173 39137 40090 333 10289 29067 55107 58001;
0156833390999992009032112004-14050-042617FM-12+088299999V0201401N003110042019N0100001N1+02271+02001101081ADDGF106991061021004501001001KA1240N+02061MA1999999091541MD1999999-0041REMSYN076AAXX  21124 83339 32497 61406 10227 20200 39154 40108 86200 333 20206 59004;
0137833390999992009032118004-14050-042617FM-12+088299999V0201401N003112200019N0100001N1+02931+01821100461ADDGF102991021021004501001001MA1999999091071MD1999999-0131REMSYN070AAXX  21184 83339 32497 21406 10293 20182 39107 40046 82200 333 59013;
0178833390999992009032200004-14050-042617FM-12+088299999V0201401N003112200019N0020001N1+02531+01781100771ADDGA1001+999999999GF100991001001999999001001KA1240M+02981MA1999999091291MD1999999-0081REMSYN082AAXX  22004 83339 32995 01406 10253 20178 39129 40077 333 10298 29065 55087 59008;
0156833390999992009032212004-14050-042617FM-12+088299999V0201401N002610042019N0100001N1+02271+02031100981ADDGF106991061021004501001001KA1240N+02081MA1999999091481MD1999999-0061REMSYN076AAXX  22124 83339 32497 61405 10227 20203 39148 40098 86200 333 20208 59006;
0137833390999992009032218004-14050-042617FM-12+088299999V0203201N002110042019N0100001N1+02771+02011100401ADDGF106991051021004501001041MA1999999091021MD1999999-0051REMSYN070AAXX  22184 83339 32497 63204 10277 20201 39102 40040 85204 333 59005;
0168833390999992009032300004-14050-042617FM-12+088299999V0209999C000012200019N0020001N1+02351+02011100681ADDGF104991041021004501001001KA1240M+03011MA1999999091191MD1999999-0101REMSYN088AAXX  23004 83339 32495 40000 10235 20201 39119 40068 84200 333 10301 29078 55049 59010;
0201833390999992009032312004-14050-042617FM-12+088299999V0201401N003110042019N0040001N1+02091+02011101001ADDAA124003091AY191061AY261061GF108991081051004501999999KA1240N+01961MA1999999091421MD1999999-0061MW1101REMSYN088AAXX  23124 83339 21496 81406 10209 20201 39142 40100 71096 885// 333 20196 59006 60034;
0137833390999992009032318004-14050-042617FM-12+088299999V0201401N001510042019N0100001N1+02611+02081100581ADDGF106991051021004501021001MA1999999091121MD1999999+0101REMSYN070AAXX  23184 83339 32497 61403 10261 20208 39112 40058 85220 333 58010;
0196833390999992009032400004-14050-042617FM-12+088299999V0202701N001512200019N0020001N1+02321+02021100901ADDAY101061AY201061GF104991041021004501001001KA1240M+02661MA1999999091331MD1999999+0141MW1131REMSYN094AAXX  24004 83339 31495 42703 10232 20202 39133 40090 71300 84200 333 10266 29084 55028 58014;
0184833390999992009032412004-14050-042617FM-12+088299999V0200901N001510042019N0040001N1+02231+02011101051ADDAY101061AY201061GF107991061021004501021999KA1240N+02001MA1999999091491MD1999999+0071MW1101REMSYN082AAXX  24124 83339 31496 70903 10223 20201 39149 40105 71000 8622/ 333 20200 58007;
0182833390999992009032418004-14050-042617FM-12+088299999V0202301N002110042019N0040001N1+02231+02031100801ADDAA106055191AY191061AY261061GF106991051021004501021001MA1999999091241MD1999999+0121MW1101REMSYN082AAXX  24184 83339 21496 62304 10223 20203 39124 40080 71096 85220 333 58012 60551;
0196833390999992009032500004-14050-042617FM-12+088299999V0209999C000010042019N0020001N1+02151+02071100931ADDAY101061AY201061GF108991081051004501999999KA1240M+02801MA1999999091351MD1999999+0021MW1101REMSYN094AAXX  25004 83339 31495 80000 10215 20207 39135 40093 71000 885// 333 10280 29092 55016 58002;
0201833390999992009032512004-14050-042617FM-12+088299999V0203601N001510042019N0040001N1+02291+02051101021ADDAA124055191AY161061AY261061GF108991081051004501999999KA1240N+02061MA1999999091441MD1999999-0051MW1101REMSYN088AAXX  25124 83339 21496 83603 10229 20205 39144 40102 71066 885// 333 20206 59005 60554;
0182833390999992009032518004-14050-042617FM-12+088299999V0202701N002110042019N0040001N1+02331+01981100751ADDAA106007191AY161061AY261061GF108991081051004501999999MA1999999091191MD1999999-0051MW1101REMSYN082AAXX  25184 83339 21496 82704 10233 20198 39119 40075 71066 885// 333 59005 60071;
0196833390999992009032600004-14050-042617FM-12+088299999V0201801N001010042019N0020001N1+02131+02021100891ADDAY101061AY201061GF106991061021004501001001KA1240M+02401MA1999999091321MD1999999-0031MW1101REMSYN094AAXX  26004 83339 31495 61802 10213 20202 39132 40089 71000 86200 333 10240 29089 55000 59003;
0201833390999992009032612004-14050-042617FM-12+088299999V0200901N001510042019N0100001N1+02251+02011101091ADDAA124007191AY161061AY261061GF106991051021004501031001KA1240N+01971MA1999999091501MD1999999+0061MW1101REMSYN088AAXX  26124 83339 21497 60903 10225 20201 39150 40109 71066 85230 333 20197 58006 60074;
0182833390999992009032618004-14050-042617FM-12+088299999V0201801N001510042019N0100001N1+02331+02091100751ADDAA106000891AY191061AY261061GF106991051021004501021001MA1999999091191MD1999999+0001MW1171REMSYN082AAXX  26184 83339 21497 61803 10233 20209 39119 40075 71796 85220 333 58000 69981;
0196833390999992009032700004-14050-042617FM-12+088299999V0202701N001512200019N0020001N1+02271+02011100881ADDAY101061AY201061GF104991041021004501001001KA1240M+02861MA1999999091341MD1999999+0021MW1101REMSYN094AAXX  27004 83339 31495 42703 10227 20201 39134 40088 71000 84200 333 10286 29086 55043 58002;
0201833390999992009032712004-14050-042617FM-12+088299999V0202301N001510042019N0040001N1+01931+01871101371ADDAA124024991AY191061AY261061GF108991081051004501999999KA1240N+01901MA1999999091721MD1999999+0221MW1621REMSYN088AAXX  27124 83339 21496 82303 10193 20187 39172 40137 76296 885// 333 20190 58022 60254;
0182833390999992009032718004-14050-042617FM-12+088299999V0200901N001510042019N0040001N1+02261+02051101001ADDAA106005191AY161061AY261061GF107991061021004501021999MA1999999091401MD1999999+0211MW1101REMSYN082AAXX  27184 83339 21496 70903 10226 20205 39140 40100 71066 8622/ 333 58021 60051;
0196833390999992009032800004-14050-042617FM-12+088299999V0209999C000012200019N0020001N1+02011+01831101131ADDAY101061AY201061GF102991021021004501001001KA1240M+02341MA1999999091441MD1999999+0101MW1101REMSYN094AAXX  28004 83339 31495 20000 10201 20183 39144 40113 71000 82200 333 10234 29091 55006 58010;
0201833390999992009032812004-14050-042617FM-12+088299999V0200901N002112200019N0100001N1+02311+01961101131ADDAA124005191AY161061AY261061GF102991011021004501001021KA1240N+01801MA1999999091521MD1999999-0201MW1101REMSYN088AAXX  28124 83339 21497 20904 10231 20196 39152 40113 71066 81202 333 20180 59020 60054;
0137833390999992009032818004-14050-042617FM-12+088299999V0201401N002612200019N0100001N1+02771+01941100671ADDGF104991041021004501001001MA1999999091181MD1999999-0221REMSYN070AAXX  28184 83339 32497 41405 10277 20194 39118 40067 84200 333 59022;
0196833390999992009032900004-14050-042617FM-12+088299999V0202701N001012200019N0020001N1+02371+01891100841ADDAY101061AY201061GF102991021021004501001001KA1240M+02921MA1999999091341MD1999999-0101MW1131REMSYN094AAXX  29004 83339 31495 22702 10237 20189 39134 40084 71300 82200 333 10292 29073 55094 59010;
0201833390999992009032912004-14050-042617FM-12+088299999V0202301N003610042019N0100001N1+02331+01941101021ADDAA124000891AY161061AY261061GF106991051021004501021001KA1240N+02001MA1999999091501MD1999999-0021MW1021REMSYN088AAXX  29124 83339 21497 62307 10233 20194 39150 40102 70266 85220 333 20200 59002 69984;
0137833390999992009032918004-14050-042617FM-12+088299999V0202701N005110450019N0100001N1+02751+01971100631ADDGF105991041021004501021001MA1999999091181MD1999999+0001REMSYN070AAXX  29184 83339 32497 52710 10275 20197 39118 40063 84220 333 58000;
0196833390999992009033000004-14050-042617FM-12+088299999V0202701N001512200019N0020001N1+02331+02001100811ADDAY101061AY201061GF103991031021004501001001KA1240M+02841MA1999999091311MD1999999-0031MW1131REMSYN094AAXX  30004 83339 31495 32703 10233 20200 39131 40081 71300 83200 333 10284 29076 55057 59003;
0201833390999992009033012004-14050-042617FM-12+088299999V0202301N001012200019N0100001N1+02201+02031101121ADDAA124004191AY161061AY261061GF105991041021004501001011KA1240N+02121MA1999999091551MD1999999+0051MW1021REMSYN088AAXX  30124 83339 21497 52302 10220 20203 39155 40112 70266 84201 333 20212 58005 60044;
0137833390999992009033018004-14050-042617FM-12+088299999V0200501N001512200019N0100001N1+02401+02131100671ADDGF106991041021004501001041MA1999999091161MD1999999-0021REMSYN070AAXX  30184 83339 32497 60503 10240 20213 39116 40067 84204 333 59002;
0168833390999992009033100004-14050-042617FM-12+088299999V0209999C000012200019N0020001N1+02311+01981100711ADDGF103991031021004501001001KA1240M+02871MA1999999091681MD1999999-0131REMSYN088AAXX  31004 83339 32495 30000 10231 20198 39168 40071 83200 333 10287 29084 55029 59013;
0156833390999992009033112004-14050-042617FM-12+088299999V0200901N002612200019N0100001N1+02531+01861100851ADDGF102991011021004501001011KA1240N+02061MA1999999091361MD1999999-0191REMSYN076AAXX  31124 83339 32497 20905 10253 20186 39136 40085 81201 333 20206 59019;
0182833390999992009033118004-14050-042617FM-12+088299999V0203601N001510042019N0100001N1+02501+02071100601ADDAA106001091AY161061AY221061GF108991061021004501021999MA1999999091121MD1999999-0041MW1021REMSYN082AAXX  31184 83339 21497 83603 10250 20207 39112 40060 70262 8622/ 333 59004 60011;
0168833390999992009040100004-14050-042617FM-12+088299999V0202301N001512200019N0020001N1+02351+01801100671ADDGF103991031021004501001001KA1240M+02821MA1999999091221MD1999999+0041REMSYN088AAXX  01004 83339 32495 32303 10235 20180 39122 40067 83200 333 10282 29071 55043 58004;
0201833390999992009040112004-14050-042617FM-12+088299999V0203201N001510042019N0020001N1+02161+02061101051ADDAA124003091AY161061AY241061GF108991061021004501021999KA1240N+02141MA1999999091491MD1999999+0131MW1601REMSYN088AAXX  01124 83339 21495 83203 10216 20206 39149 40105 76064 8622/ 333 20214 58013 60034;
0182833390999992009040118004-14050-042617FM-12+088299999V0203201N004610042019N0100001N1+02601+02011100581ADDAA106000591AY161061AY221061GF106991051021004501001011MA1999999091121MD1999999+0001MW1021REMSYN082AAXX  01184 83339 21497 63209 10260 20201 39112 40058 70262 85201 333 58000 69961;
0168833390999992009040200004-14050-042617FM-12+088299999V0202701N002110042019N0020001N1+02391+02051100891ADDGF106991061021004501001001KA1240M+02661MA1999999091361MD1999999+0141REMSYN088AAXX  02004 83339 32495 62704 10239 20205 39136 40089 86200 333 10266 29082 55025 58014;
0201833390999992009040212004-14050-042617FM-12+088299999V0200501N001510042019N0100001N1+02261+02091101081ADDAA124000591AY161061AY221061GF108991051021004501021999KA1240N+02141MA1999999091541MD1999999-0051MW1021REMSYN088AAXX  02124 83339 21497 80503 10226 20209 39154 40108 70262 8522/ 333 20214 59005 69964;
0137833390999992009040218004-14050-042617FM-12+088299999V0200901N001510042019N0100001N1+02651+02141100721ADDGF106991051021004501021001MA1999999091261MD1999999+0141REMSYN070AAXX  02184 83339 32497 60903 10265 20214 39126 40072 85220 333 58014;
0168833390999992009040300004-14050-042617FM-12+088299999V0209999C000010042019N0020001N1+02261+02141100941ADDGF105991051021004501001001KA1240M+02761MA1999999091391MD1999999+0031REMSYN088AAXX  03004 83339 32495 50000 10226 20214 39139 40094 85200 333 10276 29087 55014 58003;
0201833390999992009040312004-14050-042617FM-12+088299999V0201401N002110042019N0020001N1+02111+02051101201ADDAA124000591AY161061AY241061GF108991061021004501021999KA1240N+02081MA1999999091581MD1999999+0041MW1401REMSYN088AAXX  03124 83339 21495 81404 10211 20205 39158 40120 74064 8622/ 333 20208 58004 69964;
0182833390999992009040318004-14050-042617FM-12+088299999V0201401N002111050019N0100001N1+02431+02051100731ADDAA106001091AY161061AY241061GF105991021021004501031011MA1999999091201MD1999999-0061MW1021REMSYN082AAXX  03184 83339 21497 51404 10243 20205 39120 40073 70264 82231 333 59006 60011;
0168833390999992009040400004-14050-042617FM-12+088299999V0200901N001010042019N0020001N1+02131+01971101061ADDGF108991081021004501999999KA1240M+02551MA1999999091441MD1999999+0051REMSYN088AAXX  04004 83339 32495 80902 10213 20197 39144 40106 882// 333 10255 29089 55028 58005;
0201833390999992009040412004-14050-042617FM-12+088299999V0201401N004110042019N0100001N1+02111+01861101301ADDAA124001091AY161061AY221061GF106991051021004501031001KA1240N+01941MA1999999091651MD1999999+0071MW1021REMSYN088AAXX  04124 83339 21497 61408 10211 20186 39165 40130 70262 85230 333 20194 58007 60014;
0137833390999992009040418004-14050-042617FM-12+088299999V0200901N004112200019N0100001N1+02621+01931100781ADDGF104991041021004501001001MA1999999091281MD1999999+0081REMSYN070AAXX  04184 83339 32497 40908 10262 20193 39128 40078 84200 333 58008;
0168833390999992009040500004-14050-042617FM-12+088299999V0202301N001510450019N0020001N1+02231+02031101181ADDGF108991041021004501021999KA1240M+02721MA1999999091561MD1999999+0121REMSYN088AAXX  05004 83339 32495 82303 10223 20203 39156 40118 8422/ 333 10272 29082 55056 58012;
0201833390999992009040512004-14050-042617FM-12+088299999V0200901N003110042019N0020001N1+02181+02041101171ADDAA124018091AY161061AY221061GF108991051021004501021999KA1240N+01981MA1999999091571MD1999999-0081MW1401REMSYN088AAXX  05124 83339 21495 80906 10218 20204 39157 40117 74062 8522/ 333 20198 59008 60184;
0165833390999992009040518004-14050-042617FM-12+088299999V0202301N001510042019N0100001N1+02731+02101100751ADDAY141061AY221061GF106991061021004501001001MA1999999091271MD1999999-0011MW1021REMSYN076AAXX  05184 83339 31497 62303 10273 20210 39127 40075 70242 86200 333 59001;
0213833390999992009040600004-14050-042617FM-12+088299999V0209999C000010042019N0020001N1+02171+02131101091ADDAA106003091AY161061AY221061GF108991061021004501021999KA1240M+02781MA1999999091501MD1999999-0061MW1401REMSYN100AAXX  06004 83339 21495 80000 10217 20213 39150 40109 74062 8622/ 333 10278 29089 55044 59006 60031;
0201833390999992009040612004-14050-042617FM-12+088299999V0200901N001510042019N0040001N1+02191+02081101271ADDAA124004191AY161061AY261061GF108991081051004501999999KA1240N+02041MA1999999091661MD1999999+0091MW1101REMSYN088AAXX  06124 83339 21496 80903 10219 20208 39166 40127 71066 885// 333 20204 58009 60044;
0137833390999992009040618004-14050-042617FM-12+088299999V0202701N004110042019N0100001N1+02491+02031100921ADDGF106991051021004501031001MA1999999091391MD1999999+0121REMSYN070AAXX  06184 83339 32497 62708 10249 20203 39139 40092 85230 333 58012;
0196833390999992009040700004-14050-042617FM-12+088299999V0203601N000512200019N0020001N1+02131+01951101091ADDAY101061AY201061GF104991041021004501001001KA1240M+02581MA1999999091481MD1999999-0021MW1131REMSYN094AAXX  07004 83339 31495 43601 10213 20195 39148 40109 71300 84200 333 10258 29088 55004 59002;
0156833390999992009040712004-14050-042617FM-12+088299999V0201401N001010042019N0100001N1+02191+01971101351ADDGF106991061021004501001001KA1240N+01901MA1999999091721MD1999999+0061REMSYN076AAXX  07124 83339 32497 61402 10219 20197 39172 40135 86200 333 20190 58006;
0137833390999992009040718004-14050-042617FM-12+088299999V0201401N004610042019N0100001N1+02751+01891100791ADDGF105991051021004501001001MA1999999091311MD1999999-0081REMSYN070AAXX  07184 83339 32497 51409 10275 20189 39131 40079 85200 333 59008;
0232833390999992009040800004-14050-042617FM-12+088299999V0201801N001512200019N0020001N1+02291+01831101021ADDAA106000091AY161061AY261061GF102991021021004501001001KA1240M+02901MA1999999091461MD1999999-0021MW1021REMSYN100AAXX  08004 83339 21495 21803 10229 20183 39146 40102 70266 82200 333 10290 29075 55069 59002 69921;EQDQ01  00002PRCP06
0236833390999992009040812004-14050-042617FM-12+088299999V0203601N046820042019N0100001N1+02151+01911101171ADDAA124000091AY161061AY261061GF106991061021004501001001KA1240N+02061MA1999999091571MD1999999-0151MW1101REMSYN088AAXX  08124 83339 21497 63691 10215 20191 39157 40117 71066 86200 333 20206 59015 69924;EQDQ01+004683WOSPD Q02  00002PRCP24
0137833390999992009040818004-14050-042617FM-12+088299999V0202701N004112200019N0100001N1+02891+01891100631ADDGF104991041021004501001001MA1999999091231MD1999999-0081REMSYN070AAXX  08184 83339 32497 42708 10289 20189 39123 40063 84200 333 59008;
0196833390999992009040900004-14050-042617FM-12+088299999V0201401N000512200019N0020001N1+02271+02071100981ADDAY101061AY201061GF102991021021004501001001KA1240M+02951MA1999999091401MD1999999-0061MW1101REMSYN094AAXX  09004 83339 31495 21401 10227 20207 39140 40098 71000 82200 333 10295 29078 55069 59006;
0184833390999992009040912004-14050-042617FM-12+088299999V0203601N000510042019N0100001N1+02321+02001101121ADDAY101061AY201061GF106991061021004501001001KA1240N+02081MA1999999091571MD1999999+0001MW1101REMSYN082AAXX  09124 83339 31497 63601 10232 20200 39157 40112 71000 86200 333 20208 58000;
0137833390999992009040918004-14050-042617FM-12+088299999V0202701N003110042019N0100001N1+02411+01971100801ADDGF106991051021004501021001MA1999999091281MD1999999+0051REMSYN070AAXX  09184 83339 32497 62706 10241 20197 39128 40080 85220 333 58005;
0196833390999992009041000004-14050-042617FM-12+088299999V0209999C000012200019N0020001N1+02151+02001101031ADDAY101061AY201061GF103991031021004501001001KA1240M+02601MA1999999091471MD1999999+0071MW1101REMSYN094AAXX  10004 83339 31495 30000 10215 20200 39147 40103 71000 83200 333 10260 29086 55025 58007;
0184833390999992009041012004-14050-042617FM-12+088299999V0200901N003110042019N0100001N1+02231+02031101091ADDAY101061AY201061GF106991061021004501001001KA1240N+01981MA1999999091501MD1999999-0071MW1101REMSYN082AAXX  10124 83339 31497 60906 10223 20203 39150 40109 71000 86200 333 20198 59007;
0137833390999992009041018004-14050-042617FM-12+088299999V0201801N001510042019N0100001N1+02531+02071100711ADDGF106991051021004501021001MA1999999091201MD1999999-0081REMSYN070AAXX  10184 83339 32497 61803 10253 20207 39120 40071 85220 333 59008;
0196833390999992009041100004-14050-042617FM-12+088299999V0202701N001510042019N0020001N1+02291+02001100941ADDAY101061AY201061GF107991061021004501021999KA1240M+02781MA1999999091391MD1999999-0081MW1131REMSYN094AAXX  11004 83339 31495 72703 10229 20200 39139 40094 71300 8622/ 333 10278 29083 55041 59008;
0201833390999992009041112004-14050-042617FM-12+088299999V0209999C000010042019N0040001N1+02011+01931101281ADDAA124010991AY161061AY211061GF108991081051004501999999KA1240N+02001MA1999999091651MD1999999+0151MW1601REMSYN088AAXX  11124 83339 21496 80000 10201 20193 39165 40128 76061 885// 333 20200 58015 60114;
0182833390999992009041118004-14050-042617FM-12+088299999V0201401N004110042019N0100001N1+02431+01951100831ADDAA106000891AY161061AY261061GF106991051021004501021001MA1999999091311MD1999999+0111MW1021REMSYN082AAXX  11184 83339 21497 61408 10243 20195 39131 40083 70266 85220 333 58011 69981;
0196833390999992009041200004-14050-042617FM-12+088299999V0201401N004610042019N0020001N1+02211+01971101171ADDAY101061AY201061GF105991051021004501001001KA1240M+02521MA1999999091541MD1999999+0151MW1101REMSYN094AAXX  12004 83339 31495 51409 10221 20197 39154 40117 71000 85200 333 10252 29086 55022 58015;
0201833390999992009041212004-14050-042617FM-12+088299999V0201401N006210042019N0100001N1+02171+01841101291ADDAA124001091AY161061AY261061GF105991051021004501001001KA1240N+01921MA1999999091681MD1999999+0031MW1101REMSYN088AAXX  12124 83339 21497 51412 10217 20184 39168 40129 71066 85200 333 20192 58003 60014;
0137833390999992009041218004-14050-042617FM-12+088299999V0201401N004112200019N0100001N1+02531+01741101021ADDGF104991041021004501001001MA1999999091481MD1999999+0171REMSYN070AAXX  12184 83339 32497 41408 10253 20174 39148 40102 84200 333 58017;
0168833390999992009041300004-14050-042617FM-12+088299999V0201401N004610042019N0020001N1+02271+01861101291ADDGF106991061021004501001001KA1240M+02661MA1999999091681MD1999999+0141REMSYN088AAXX  13004 83339 32495 61409 10227 20186 39168 40129 86200 333 10266 29075 55096 58014;
0201833390999992009041312004-14050-042617FM-12+088299999V0201401N005110042019N0020001N1+01891+01851101551ADDAA124017091AY161061AY241061GF108991051021004501021999KA1240N+01871MA1999999091881MD1999999+0201MW1501REMSYN088AAXX  13124 83339 21495 81410 10189 20185 39188 40155 75064 8522/ 333 20187 58020 60174;
0182833390999992009041318004-14050-042617FM-12+088299999V0201401N005110042019N0020001N1+02011+01991101301ADDAA106007991AY161061AY241061GF108991061021004501021999MA1999999091641MD1999999+0161MW1401REMSYN082AAXX  13184 83339 21495 81410 10201 20199 39164 40130 74064 8622/ 333 58016 60081;
0196833390999992009041400004-14050-042617FM-12+088299999V0201401N005110042019N0020001N1+02051+02011101521ADDAY141061AY241061GF105991051021004501001001KA1240M+02341MA1999999091791MD1999999+0111MW1401REMSYN094AAXX  14004 83339 31495 51410 10205 20201 39179 40152 74044 85200 333 10234 29097 55001 58011;
0137833390999992009041418004-14050-042617FM-12+088299999V0201401N002612200019N0100001N1+02571+01851101181ADDGF102991021011004501001001MA1999999091611MD1999999-0031REMSYN070AAXX  14184 83339 32497 21405 10257 20185 39161 40118 82100 333 59003;
0178833390999992009041500004-14050-042617FM-12+088299999V0201401N003112200019N0020001N1+02251+01821101321ADDGA1001+999999999GF100991001001999999001001KA1240M+02621MA1999999091711MD1999999-0081REMSYN082AAXX  15004 83339 32995 01406 10225 20182 39171 40132 333 10262 29076 55090 59008;
0156833390999992009041512004-14050-042617FM-12+088299999V0201401N002610042019N0100001N1+02141+01911101551ADDGF106991061021004501001001KA1240N+01951MA1999999091921MD1999999-0031REMSYN076AAXX  15124 83339 32497 61405 10214 20191 39192 40155 86200 333 20195 59003;
0137833390999992009041518004-14050-042617FM-12+088299999V0201001N005112200019N0100001N1+02651+01851101061ADDGF102991021021004501001001MA1999999091551MD1999999-0061REMSYN070AAXX  15184 83339 32497 21010 10265 20185 39155 40106 82200 333 59006;
0178833390999992009041600004-14050-042617FM-12+088299999V0202301N001512200019N0020001N1+02171+01841101321ADDGA1001+999999999GF100991001001999999001001KA1240M+02741MA1999999091691MD1999999-0021REMSYN082AAXX  16004 83339 32995 02303 10217 20184 39169 40132 333 10274 29078 55085 59002;
0156833390999992009041612004-14050-042617FM-12+088299999V0201401N003110042019N0100001N1+02291+01981101481ADDGF106991061021004501001001KA1240N+01841MA1999999091871MD1999999-0051REMSYN076AAXX  16124 83339 32497 61406 10229 20198 39187 40148 86200 333 20184 59005;
0137833390999992009041618004-14050-042617FM-12+088299999V0200901N004112200019N0100001N1+02561+01931101161ADDGF106991041021004501001041MA1999999091611MD1999999+0061REMSYN070AAXX  16184 83339 32497 60908 10256 20193 39161 40116 84204 333 58006;
0168833390999992009041700004-14050-042617FM-12+088299999V0201401N007712200019N0020001N1+02171+01881101471ADDGF102991021021004501001001KA1240M+02661MA1999999091861MD1999999+0171REMSYN088AAXX  17004 83339 32495 21415 10217 20188 39186 40147 82200 333 10266 29079 55078 58017;
0156833390999992009041712004-14050-042617FM-12+088299999V0201401N005110042019N0100001N1+02131+01781101531ADDGF106991061021004501001001KA1240N+01881MA1999999091881MD1999999+0011REMSYN076AAXX  17124 83339 32497 61410 10213 20178 39188 40153 86200 333 20188 58001;
0137833390999992009041718004-14050-042617FM-12+088299999V0201401N003110042019N0100001N1+02381+01801101181ADDGF106991061021004501001001MA1999999091611MD1999999+0001REMSYN070AAXX  17184 83339 32497 61406 10238 20180 39161 40118 86200 333 58000;
0187833390999992009041800004-14050-042617FM-12+088299999V0201401N011319999999N0020001N1+02131+01821101391ADDGF108991999011004501001001KA1240M+02581MA1999999091751MD1999999-0111REMSYN088AAXX  18004 83339 32495 81422 10213 20182 39175 40139 82100 333 10258 29079 55055 59011;EQDQ01+000022SCOTLC
0156833390999992009041812004-14050-042617FM-12+088299999V0201401N003610042019N0100001N1+01931+01681101491ADDGF108991051021004501021999KA1240N+01821MA1999999091831MD1999999-0051REMSYN076AAXX  18124 83339 32497 81407 10193 20168 39183 40149 8522/ 333 20182 59005;
0137833390999992009041818004-14050-042617FM-12+088299999V0201401N003610042019N0100001N1+02301+01751101211ADDGF106991061021004501001001MA1999999091591MD1999999-0021REMSYN070AAXX  18184 83339 32497 61407 10230 20175 39159 40121 86200 333 59002;
0178833390999992009041900004-14050-042617FM-12+088299999V0201401N004112200019N0020001N1+02101+01721101361ADDGA1001+999999999GF100991001001999999001001KA1240M+02361MA1999999091711MD1999999-0041REMSYN082AAXX  19004 83339 32995 01408 10210 20172 39171 40136 333 10236 29079 55024 59004;
0156833390999992009041912004-14050-042617FM-12+088299999V0201801N005110042019N0100001N1+01951+01791101501ADDGF108991051021004501021999KA1240N+01851MA1999999091821MD1999999-0011REMSYN076AAXX  19124 83339 32497 81810 10195 20179 39182 40150 8522/ 333 20185 59001;
0137833390999992009041918004-14050-042617FM-12+088299999V0201401N005110042019N0100001N1+02351+01781101151ADDGF108991061021004501021999MA1999999091541MD1999999-0051REMSYN070AAXX  19184 83339 32497 81410 10235 20178 39154 40115 8622/ 333 59005;
0178833390999992009042000004-14050-042617FM-12+088299999V0201401N003112200019N0020001N1+02051+01841101421ADDGA1001+999999999GF100991001001999999001001KA1240M+02471MA1999999091721MD1999999+0011REMSYN082AAXX  20004 83339 32995 01406 10205 20184 39172 40142 333 10247 29084 55031 58001;
0184833390999992009042012004-14050-042617FM-12+088299999V0201401N004610042019N0100001N1+02071+01801101471ADDAY101061AY201061GF106991061021004501001001KA1240N+01901MA1999999091791MD1999999-0031MW1101REMSYN082AAXX  20124 83339 31497 61409 10207 20180 39179 40147 71000 86200 333 20190 59003;
0137833390999992009042018004-14050-042617FM-12+088299999V0201401N002610042019N0100001N1+02451+01711101111ADDGF105991051021004501001001MA1999999091521MD1999999-0021REMSYN070AAXX  20184 83339 32497 51405 10245 20171 39152 40111 85200 333 59002;
0168833390999992009042100004-14050-042617FM-12+088299999V0200901N001512200019N0020001N1+02171+01741101361ADDGF102991021021004501001001KA1240M+02601MA1999999091711MD1999999-0011REMSYN088AAXX  21004 83339 32495 20903 10217 20174 39171 40136 82200 333 10260 29076 55040 59001;
0184833390999992009042112004-14050-042617FM-12+088299999V0201401N006210042019N0040001N1+02011+01881101491ADDAY101061AY201061GF108991081051004501999999KA1240N+01921MA1999999091831MD1999999+0041MW1101REMSYN082AAXX  21124 83339 31496 81412 10201 20188 39183 40149 71000 885// 333 20192 58004;
0137833390999992009042118004-14050-042617FM-12+088299999V0201401N005110042019N0100001N1+02491+01801101101ADDGF106991051021004501021001MA1999999091541MD1999999+0021REMSYN070AAXX  21184 83339 32497 61410 10249 20180 39154 40110 85220 333 58002;
0168833390999992009042200004-14050-042617FM-12+088299999V0201401N003112200019N0020001N1+02191+01741101351ADDGF102991021021004501001001KA1240M+02561MA1999999091701MD1999999-0011REMSYN088AAXX  22004 83339 32495 21406 10219 20174 39170 40135 82200 333 10256 29076 55042 59001;
0201833390999992009042212004-14050-042617FM-12+088299999V0201401N006210450019N0100001N1+02031+01521101451ADDAA124000391AY161061AY261061GF105991041021004501031001KA1240N+01781MA1999999091791MD1999999-0041MW1021REMSYN088AAXX  22124 83339 21497 51412 10203 20152 39179 40145 70266 84230 333 20178 59004 69934;
0137833390999992009042218004-14050-042617FM-12+088299999V0201401N005110042019N0100001N1+02421+01591101081ADDGF106991061021004501001001MA1999999091491MD1999999-0051REMSYN070AAXX  22184 83339 32497 61410 10242 20159 39149 40108 86200 333 59005;
0184833390999992009042312004-14050-042617FM-12+088299999V0200901N004610042019N0100001N1+02011+01661101291ADDAY101061AY201061GF106991051021004501031001KA1240N+01741MA1999999091631MD1999999-0161MW1101REMSYN082AAXX  23124 83339 31497 60909 10201 20166 39163 40129 71000 85230 333 20174 59016;
0137833390999992009042318004-14050-042617FM-12+088299999V0201401N003112200019N0100001N1+02371+01561100961ADDGF104991031021004501021001MA1999999091361MD1999999-0131REMSYN070AAXX  23184 83339 32497 41406 10237 20156 39136 40096 83220 333 59013;
0196833390999992009042400004-14050-042617FM-12+088299999V0209999C000012200019N0020001N1+02011+01701101161ADDAY101061AY201061GF102991021021004501001001KA1240M+02461MA1999999091491MD1999999-0111MW1101REMSYN094AAXX  24004 83339 31495 20000 10201 20170 39149 40116 71000 82200 333 10246 29077 55040 59011;
0184833390999992009042412004-14050-042617FM-12+088299999V0200901N002110042019N0040001N1+02071+01871101281ADDAY101061AY201061GF107991061021004501021999KA1240N+01761MA1999999091621MD1999999-0011MW1101REMSYN082AAXX  24124 83339 31496 70904 10207 20187 39162 40128 71000 8622/ 333 20176 59001;
0137833390999992009042418004-14050-042617FM-12+088299999V0201401N003612200019N0100001N1+02631+01671100841ADDGF103991021021004501001021MA1999999091301MD1999999-0061REMSYN070AAXX  24184 83339 32497 31407 10263 20167 39130 40084 82202 333 59006;
0178833390999992009042500004-14050-042617FM-12+088299999V0202701N001512200019N0020001N1+02221+01731101111ADDGA1001+999999999GF100991001001999999001001KA1240M+02581MA1999999091501MD1999999+0011REMSYN082AAXX  25004 83339 32995 02703 10222 20173 39150 40111 333 10258 29073 55057 58001;
0156833390999992009042512004-14050-042617FM-12+088299999V0200501N003112200019N0100001N1+02331+01871101181ADDGF102991021021004501001001KA1240N+01801MA1999999091611MD1999999-0011REMSYN076AAXX  25124 83339 32497 20506 10233 20187 39161 40118 82200 333 20180 59001;
0137833390999992009042518004-14050-042617FM-12+088299999V0201401N003612200019N0100001N1+02751+01731100811ADDGF104991041021004501001001MA1999999091331MD1999999+0031REMSYN070AAXX  25184 83339 32497 41407 10275 20173 39133 40081 84200 333 58003;
0168833390999992009042600004-14050-042617FM-12+088299999V0209999C000012200019N0020001N1+02311+01631101111ADDGF102991021021004501001001KA1240M+02841MA1999999091561MD1999999+0061REMSYN088AAXX  26004 83339 32495 20000 10231 20163 39156 40111 82200 333 10284 29066 55097 58006;
0184833390999992009042612004-14050-042617FM-12+088299999V0203601N001510042019N0040001N1+02091+01821101341ADDAY101061AY201061GF106991051021004501021001KA1240N+01981MA1999999091731MD1999999+0121MW1101REMSYN082AAXX  26124 83339 31496 63603 10209 20182 39173 40134 71000 85220 333 20198 58012;
0137833390999992009042618004-14050-042617FM-12+088299999V0202701N004610042019N0100001N1+02561+01851100951ADDGF106991061021004501001001MA1999999091441MD1999999+0111REMSYN070AAXX  26184 83339 32497 62709 10256 20185 39144 40095 86200 333 58011;
0215833390999992009042700004-14050-042617FM-12+088299999V0202701N001012200019N0020001N1+02151+01861101261ADDAY101061AY201061GF102991999021004501001001KA1240M+02641MA1999999091621MD1999999+0061MW1101REMSYN094AAXX  27004 83339 31495 22702 10215 20186 39162 40126 71000 83200 333 10264 29080 55004 58006;EQDQ01+000032SCOTLC
0156833390999992009042712004-14050-042617FM-12+088299999V0209999C000012200019N0100001N1+02291+02001101291ADDGF105991031021004501001011KA1240N+01941MA1999999091681MD1999999-0051REMSYN076AAXX  27124 83339 32497 50000 10229 20200 39168 40129 83201 333 20194 59005;
0137833390999992009042718004-14050-042617FM-12+088299999V0201401N002610042019N0100001N1+02751+01891100781ADDGF105991051021004501001001MA1999999091301MD1999999-0141REMSYN070AAXX  27184 83339 32497 51405 10275 20189 39130 40078 85200 333 59014;
0178833390999992009042800004-14050-042617FM-12+088299999V0209999C000012200019N0020001N1+02371+01911101031ADDGA1001+999999999GF100991001001999999001001KA1240M+02901MA1999999091511MD1999999-0111REMSYN082AAXX  28004 83339 32995 00000 10237 20191 39151 40103 333 10290 29073 55086 59011;
0201833390999992009042812004-14050-042617FM-12+088299999V0201401N001510042019N0020001N1+02171+02081101211ADDAA124007991AY161061AY221061GF108991051021004501021999KA1240N+02101MA1999999091641MD1999999-0041MW1401REMSYN088AAXX  28124 83339 21495 81403 10217 20208 39164 40121 74062 8522/ 333 20210 59004 60084;
0165833390999992009042818004-14050-042617FM-12+088299999V0201401N005110042019N0100001N1+02191+02011100981ADDAY141061AY221061GF108991061021004501021999MA1999999091401MD1999999+0101MW1021REMSYN076AAXX  28184 83339 31497 81410 10219 20201 39140 40098 70242 8622/ 333 58010;
0213833390999992009042900004-14050-042617FM-12+088299999V0201401N003110042019N0020001N1+01991+01951101311ADDAA106007191AY161061AY221061GF108991061021004501021999KA1240M+02441MA1999999091661MD1999999+0151MW1401REMSYN100AAXX  29004 83339 21495 81406 10199 20195 39166 40131 74062 8622/ 333 10244 29094 55018 58015 60071;
0201833390999992009042912004-14050-042617FM-12+088299999V0201401N003110042019N0020001N1+01931+01891101521ADDAA124007191AY161061AY241061GF108991051021004501021999KA1240N+01901MA1999999091791MD1999999+0151MW1401REMSYN088AAXX  29124 83339 21495 81406 10193 20189 39179 40152 74064 8522/ 333 20190 58015 60074;
0165833390999992009042918004-14050-042617FM-12+088299999V0200901N003110450019N0100001N1+02091+01891101251ADDAY141061AY241061GF108991041021004501021999MA1999999091571MD1999999+0171MW1021REMSYN076AAXX  29184 83339 31497 80906 10209 20189 39157 40125 70244 8422/ 333 58017;
0168833390999992009043000004-14050-042617FM-12+088299999V0201401N004610042019N0020001N1+01941+01821101421ADDGF108991051021004501021999KA1240M+02161MA1999999091701MD1999999+0041REMSYN088AAXX  30004 83339 32495 81409 10194 20182 39170 40142 8522/ 333 10216 29093 55000 58004;
0156833390999992009043012004-14050-042617FM-12+088299999V0200901N002610042019N0100001N1+02011+01831101571ADDGF106991061021004501001001KA1240N+01811MA1999999091851MD1999999+0061REMSYN076AAXX  30124 83339 32497 60905 10201 20183 39185 40157 86200 333 20181 58006;
0137833390999992009043018004-14050-042617FM-12+088299999V0201401N002612200019N0100001N1+02511+01891101051ADDGF104991041021004501001001MA1999999091461MD1999999-0111REMSYN070AAXX  30184 83339 32497 41405 10251 20189 39146 40105 84200 333 59011;
0168833390999992009050100004-14050-042617FM-12+088299999V0209999C000012200019N0020001N1+02121+01841101341ADDGF103991011021004501031001KA1240M+02581MA1999999091671MD1999999-0031REMSYN088AAXX  01004 83339 32495 30000 10212 20184 39167 40134 81230 333 10258 29081 55057 59003;
0156833390999992009050112004-14050-042617FM-12+088299999V0201401N004110042019N0100001N1+02071+01821101441ADDGF106991061021004501001001KA1240N+01891MA1999999091781MD1999999-0071REMSYN076AAXX  01124 83339 32497 61408 10207 20182 39178 40144 86200 333 20189 59007;
0137833390999992009050118004-14050-042617FM-12+088299999V0201401N005110450019N0100001N1+02191+01691101151ADDGF106991031011004501081001MA1999999091521MD1999999+0061REMSYN070AAXX  01184 83339 32497 61410 10219 20169 39152 40115 83180 333 58006;
0168833390999992009050200004-14050-042617FM-12+088299999V0201401N005110450019N0020001N1+02031+01601101401ADDGF108991041021004501021999KA1240M+02241MA1999999091731MD1999999+0061REMSYN088AAXX  02004 83339 32495 81410 10203 20160 39173 40140 8422/ 333 10224 29078 55003 58006;
0201833390999992009050212004-14050-042617FM-12+088299999V0201401N006710042019N0020001N1+01771+01631101411ADDAA124002091AY161061AY241061GF108991051021004501021999KA1240N+01741MA1999999091841MD1999999+0061MW1401REMSYN088AAXX  02124 83339 21495 81413 10177 20163 39184 40141 74064 8522/ 333 20174 58006 60024;
0165833390999992009050218004-14050-042617FM-12+088299999V0201401N003110042019N0100001N1+02081+01581101211ADDAY141061AY221061GF108991051051004501021999MA1999999091541MD1999999+0021MW1021REMSYN076AAXX  02184 83339 31497 81406 10208 20158 39154 40121 70242 8552/ 333 58002;
0168833390999992009050300004-14050-042617FM-12+088299999V0201401N003110042019N0020001N1+01851+01661101571ADDGF108991061021004501021999KA1240M+02131MA1999999091781MD1999999+0051REMSYN088AAXX  03004 83339 32495 81406 10185 20166 39178 40157 8622/ 333 10213 29085 55000 58005;
0184833390999992009050312004-14050-042617FM-12+088299999V0201401N005710042019N0020001N1+01741+01681101621ADDAY121061AY221061GF106991061021004501001001KA1240N+01691MA1999999091831MD1999999-0011MW1401REMSYN082AAXX  03124 83339 31495 61411 10174 20168 39183 40162 74022 86200 333 20169 59001;
0165833390999992009050318004-14050-042617FM-12+088299999V0201401N005110450019N0100001N1+02161+01701101231ADDAY141061AY221061GF106991041021004501031001MA1999999091531MD1999999-0011MW1021REMSYN076AAXX  03184 83339 31497 61410 10216 20170 39153 40123 70242 84230 333 59001;
0168833390999992009050400004-14050-042617FM-12+088299999V0201401N006210450019N0020001N1+01951+01721101441ADDGF105991031011004501031001KA1240M+02201MA1999999091681MD1999999-0101REMSYN088AAXX  04004 83339 32495 51412 10195 20172 39168 40144 83130 333 10220 29086 55023 59010;
0184833390999992009050412004-14050-042617FM-12+088299999V0201401N004610042019N0040001N1+01911+01621101521ADDAY101061AY201061GF107991061021004501021999KA1240N+01741MA1999999091791MD1999999-0041MW1101REMSYN082AAXX  04124 83339 31496 71409 10191 20162 39179 40152 71000 8622/ 333 20174 59004;
0137833390999992009050418004-14050-042617FM-12+088299999V0201401N003610042019N0100001N1+02311+01681101171ADDGF106991051021004501031001MA1999999091521MD1999999-0011REMSYN070AAXX  04184 83339 32497 61407 10231 20168 39152 40117 85230 333 59001;
0196833390999992009050500004-14050-042617FM-12+088299999V0201801N005710042019N0020001N1+01971+01721101391ADDAY101061AY201061GF106991061021004501001001KA1240M+02401MA1999999091671MD1999999-0011MW1101REMSYN094AAXX  05004 83339 31495 61811 10197 20172 39167 40139 71000 86200 333 10240 29081 55015 59001;
0184833390999992009050512004-14050-042617FM-12+088299999V0201401N004610042019N0040001N1+01931+01751101591ADDAY101061AY201061GF108991081051004501999999KA1240N+01821MA1999999091851MD1999999+0061MW1101REMSYN082AAXX  05124 83339 31496 81409 10193 20175 39185 40159 71000 885// 333 20182 58006;
0165833390999992009050518004-14050-042617FM-12+088299999V0200901N001510042019N0100001N1+02191+01861101241ADDAY101061AY201061GF106991061021004501001001MA1999999091581MD1999999+0061MW1101REMSYN076AAXX  05184 83339 31497 60903 10219 20186 39158 40124 71000 86200 333 58006;
0196833390999992009050600004-14050-042617FM-12+088299999V0201801N005110042019N0020001N1+01961+01931101501ADDAY101061AY201061GF108991081051004501999999KA1240M+02241MA1999999091771MD1999999+0101MW1101REMSYN094AAXX  06004 83339 31495 81810 10196 20193 39177 40150 71000 885// 333 10224 29092 55011 58010;
0156833390999992009050612004-14050-042617FM-12+088299999V0201401N001512200019N0100001N1+02151+01681101381ADDGF102991011021004501031001KA1240N+01781MA1999999091711MD1999999-0141REMSYN076AAXX  06124 83339 32497 21403 10215 20168 39171 40138 81230 333 20178 59014;
0137833390999992009050618004-14050-042617FM-12+088299999V0201401N003612200019N0100001N1+02551+01761101051ADDGF103991031021004501001001MA1999999091461MD1999999-0121REMSYN070AAXX  06184 83339 32497 31407 10255 20176 39146 40105 83200 333 59012;
0168833390999992009050700004-14050-042617FM-12+088299999V0201401N000510042019N0020001N1+02191+01761101291ADDGF106991061021004501001001KA1240M+02661MA1999999091661MD1999999-0111REMSYN088AAXX  07004 83339 32495 61401 10219 20176 39166 40129 86200 333 10266 29073 55087 59011;
0156833390999992009050712004-14050-042617FM-12+088299999V0200901N002110450019N0100001N1+02311+01661101361ADDGF105991041021004501031001KA1240N+01761MA1999999091731MD1999999+0021REMSYN076AAXX  07124 83339 32497 50904 10231 20166 39173 40136 84230 333 20176 58002;
0137833390999992009050718004-14050-042617FM-12+088299999V0201401N003112200019N0100001N1+02611+01791100961ADDGF103991031021004501001001MA1999999091431MD1999999-0031REMSYN070AAXX  07184 83339 32497 31406 10261 20179 39143 40096 83200 333 59003;
0168833390999992009050800004-14050-042617FM-12+088299999V0209999C000010042019N0020001N1+02231+01731101201ADDGF106991061021004501001001KA1240M+02721MA1999999091601MD1999999-0061REMSYN088AAXX  08004 83339 32495 60000 10223 20173 39160 40120 86200 333 10272 29071 55057 59006;
0184833390999992009050812004-14050-042617FM-12+088299999V0201401N004610042019N0040001N1+02091+01871101421ADDAY101061AY201061GF106991051021004501031001KA1240N+01981MA1999999091781MD1999999+0051MW1101REMSYN082AAXX  08124 83339 31496 61409 10209 20187 39178 40142 71000 85230 333 20198 58005;
0137833390999992009050818004-14050-042617FM-12+088299999V0201401N005712200019N0100001N1+02531+01761101031ADDGF103991021021004501001021MA1999999091491MD1999999+0061REMSYN070AAXX  08184 83339 32497 31411 10253 20176 39149 40103 82202 333 58006;
0168833390999992009050900004-14050-042617FM-12+088299999V0201401N007212200019N0020001N1+02191+01701101291ADDGF102991021021004501001001KA1240M+02621MA1999999091661MD1999999+0061REMSYN088AAXX  09004 83339 32495 21414 10219 20170 39166 40129 82200 333 10262 29074 55080 58006;
0184833390999992009050912004-14050-042617FM-12+088299999V0201401N007710042019N0040001N1+01951+01771101481ADDAY101061AY201061GF108991081051004501999999KA1240N+01881MA1999999091801MD1999999+0021MW1101REMSYN082AAXX  09124 83339 31496 81415 10195 20177 39180 40148 71000 885// 333 20188 58002;
0137833390999992009050918004-14050-042617FM-12+088299999V0201401N003610042019N0100001N1+02331+01721101091ADDGF105991051021004501001001MA1999999091501MD1999999+0011REMSYN070AAXX  09184 83339 32497 51407 10233 20172 39150 40109 85200 333 58001;
0196833390999992009051000004-14050-042617FM-12+088299999V0201401N004112200019N0020001N1+02031+01741101401ADDAY101061AY201061GF102991021021004501001001KA1240M+02401MA1999999091701MD1999999+0041MW1101REMSYN094AAXX  10004 83339 31495 21408 10203 20174 39170 40140 71000 82200 333 10240 29082 55028 58004;
0184833390999992009051012004-14050-042617FM-12+088299999V0201401N003110042019N0040001N1+01931+01721101431ADDAY101061AY201061GF108991081051004501999999KA1240N+01781MA1999999091731MD1999999-0071MW1101REMSYN082AAXX  10124 83339 31496 81406 10193 20172 39173 40143 71000 885// 333 20178 59007;
0137833390999992009051018004-14050-042617FM-12+088299999V0200901N003111050019N0100001N1+02471+01611101041ADDGF105991041021004501001021MA1999999091451MD1999999-0051REMSYN070AAXX  10184 83339 32497 50906 10247 20161 39145 40104 84202 333 59005;
0168833390999992009051100004-14050-042617FM-12+088299999V0201401N005112200019N0020001N1+02031+01581101261ADDGF102991021021004501001001KA1240M+02541MA1999999091581MD1999999-0121REMSYN088AAXX  11004 83339 32495 21410 10203 20158 39158 40126 82200 333 10254 29075 55047 59012;
0156833390999992009051112004-14050-042617FM-12+088299999V0201401N003110042019N0100001N1+02011+01681101411ADDGF105991051021004501001001KA1240N+01781MA1999999091711MD1999999-0021REMSYN076AAXX  11124 83339 32497 51406 10201 20168 39171 40141 85200 333 20178 59002;
0137833390999992009051118004-14050-042617FM-12+088299999V0201401N002112200019N0100001N1+02531+01511101011ADDGF102991011011004501001011MA1999999091431MD1999999-0021REMSYN070AAXX  11184 83339 32497 21404 10253 20151 39143 40101 81101 333 59002;
0178833390999992009051200004-14050-042617FM-12+088299999V0201801N002612200019N0020001N1+01981+01501101271ADDGA1001+999999999GF100991001001999999001001KA1240M+02601MA1999999091591MD1999999+0011REMSYN082AAXX  12004 83339 32995 01805 10198 20150 39159 40127 333 10260 29071 55092 58001;
0191833390999992009051212004-14050-042617FM-12+088299999V0201401N003112200019N0100001N1+02111+01481101401ADDGF102991001001999999001011KA1240N+01541MA1999999999999MD1999999+0021REMSYN076AAXX  12124 83339 32897 21406 10211 20148 30173 40140 80001 333 20154 58002;EQDQ01+022502SCOLCBQ02 101733APOSP 
0156833390999992009051218004-14050-042617FM-12+088299999V0201401N002612200019N0100001N1+02511+01521101021ADDGF103991011011004501001041MA1999999091422MD1999999-0011REMSYN070AAXX  12184 83339 32497 31405 10251 20152 39142 40102 81104 333 59001;EQDQ01+091423APOSP 
0178833390999992009051300004-14050-042617FM-12+088299999V0209999C000012200019N0020001N1+02031+01581101241ADDGA1001+999999999GF100991001001999999001001KA1240M+02581MA1999999091581MD1999999-0011REMSYN082AAXX  13004 83339 32995 00000 10203 20158 39158 40124 333 10258 29068 55093 59001;
0156833390999992009051312004-14050-042617FM-12+088299999V0201401N003110042019N0100001N1+01991+01661101441ADDGF105991051021004501001001KA1240N+01611MA1999999091741MD1999999+0011REMSYN076AAXX  13124 83339 32497 51406 10199 20166 39174 40144 85200 333 20161 58001;
0137833390999992009051318004-14050-042617FM-12+088299999V0201401N002612200019N0100001N1+02591+01451100991ADDGF102991011011004501001011MA1999999091411MD1999999-0011REMSYN070AAXX  13184 83339 32497 21405 10259 20145 39141 40099 81101 333 59001;
0178833390999992009051400004-14050-042617FM-12+088299999V0209999C000012200019N0020001N1+02071+01541101241ADDGA1001+999999999GF100991001001999999001001KA1240M+02641MA1999999091581MD1999999+0001REMSYN082AAXX  14004 83339 32995 00000 10207 20154 39158 40124 333 10264 29068 55104 58000;
0156833390999992009051412004-14050-042617FM-12+088299999V0201401N003110042019N0100001N1+01971+01781101431ADDGF108991051051004501021999KA1240N+01631MA1999999091731MD1999999-0011REMSYN076AAXX  14124 83339 32497 81406 10197 20178 39173 40143 8552/ 333 20163 59001;
0137833390999992009051418004-14050-042617FM-12+088299999V0201401N002612200019N0100001N1+02511+01741101011ADDGF102991011011004501001011MA1999999091431MD1999999+0021REMSYN070AAXX  14184 83339 32497 21405 10251 20174 39143 40101 81101 333 58002;
0178833390999992009051500004-14050-042617FM-12+088299999V0209999C000012200019N0020001N1+02041+01761101181ADDGA1001+999999999GF100991001001999999001001KA1240M+02581MA1999999091511MD1999999-0071REMSYN082AAXX  15004 83339 32995 00000 10204 20176 39151 40118 333 10258 29080 55056 59007;
0156833390999992009051512004-14050-042617FM-12+088299999V0200501N001512200019N0100001N1+02191+01861101211ADDGF104991011011004501001011KA1240N+01751MA1999999091571MD1999999-0161REMSYN076AAXX  15124 83339 32497 40503 10219 20186 39157 40121 81101 333 20175 59016;
0137833390999992009051518004-14050-042617FM-12+088299999V0203201N002610450019N0100001N1+02831+01571100701ADDGF106991021011004501031011MA1999999091211MD1999999-0221REMSYN070AAXX  15184 83339 32497 63205 10283 20157 39121 40070 82131 333 59022;
0178833390999992009051600004-14050-042617FM-12+088299999V0209999C000012200019N0020001N1+02231+01821101041ADDGA1001+999999999GF100991001001999999001001KA1240M+02941MA1999999091451MD1999999-0061REMSYN082AAXX  16004 83339 32995 00000 10223 20182 39145 40104 333 10294 29070 55048 59006;
0156833390999992009051612004-14050-042617FM-12+088299999V0200901N002111050019N0100001N1+02331+01951101141ADDGF105991011011004501031011KA1240N+01861MA1999999091591MD1999999+0021REMSYN076AAXX  16124 83339 32497 50904 10233 20195 39159 40114 81131 333 20186 58002;
0137833390999992009051618004-14050-042617FM-12+088299999V0201401N002110450019N0100001N1+02691+01801100811ADDGF106991031021004501031001MA1999999091311MD1999999+0101REMSYN070AAXX  16184 83339 32497 61404 10269 20180 39131 40081 83230 333 58010;
0178833390999992009051700004-14050-042617FM-12+088299999V0201401N001012200019N0020001N1+02181+01881101081ADDGA1001+999999999GF100991001001999999001001KA1240M+02951MA1999999091521MD1999999+0071REMSYN082AAXX  17004 83339 32995 01402 10218 20188 39152 40108 333 10295 29076 55040 58007;
0184833390999992009051712004-14050-042617FM-12+088299999V0201401N006210042019N0020001N1+02031+01971101381ADDAY121061AY221061GF108991051021004501021999KA1240N+02031MA1999999091731MD1999999+0141MW1401REMSYN082AAXX  17124 83339 31495 81412 10203 20197 39173 40138 74022 8522/ 333 20203 58014;
0165833390999992009051718004-14050-042617FM-12+088299999V0201401N005712200019N0100001N1+02651+01771101021ADDAY141061AY221061GF104991041021004501001001MA1999999091521MD1999999+0211MW1021REMSYN076AAXX  17184 83339 31497 41411 10265 20177 39152 40102 70242 84200 333 58021;
0168833390999992009051800004-14050-042617FM-12+088299999V0201401N009312200019N0020001N1+02141+01861101431ADDGF103991031021004501001001KA1240M+02761MA1999999091771MD1999999+0251REMSYN088AAXX  18004 83339 32495 31418 10214 20186 39177 40143 83200 333 10276 29081 55060 58025;
0184833390999992009051812004-14050-042617FM-12+088299999V0201401N007710042019N0100001N1+01891+01681101681ADDAY101061AY201061GF106991061021004501001001KA1240N+01801MA1999999091951MD1999999+0221MW1101REMSYN082AAXX  18124 83339 31497 61415 10189 20168 39195 40168 71000 86200 333 20180 58022;
0137833390999992009051818004-14050-042617FM-12+088299999V0201401N007210042019N0040001N1+02151+01681101381ADDGF107991061021004501021999MA1999999091711MD1999999+0191REMSYN070AAXX  18184 83339 32496 71414 10215 20168 39171 40138 8622/ 333 58019;
0196833390999992009051900004-14050-042617FM-12+088299999V0201401N004610042019N0020001N1+01811+01801101631ADDAY101061AY201061GF108991081051004501999999KA1240M+02341MA1999999091851MD1999999+0081MW1101REMSYN094AAXX  19004 83339 31495 81409 10181 20180 39185 40163 71000 885// 333 10234 29088 55027 58008;
0201833390999992009051912004-14050-042617FM-12+088299999V0201401N004610042019N0040001N1+01771+01501101781ADDAA124000891AY161061AY261061GF107991061021004501021999KA1240N+01581MA1999999091961MD1999999+0011MW1101REMSYN088AAXX  19124 83339 21496 71409 10177 20150 39196 40178 71066 8622/ 333 20158 58001 69984;
0137833390999992009051918004-14050-042617FM-12+088299999V0201401N006210042019N0100001N1+02091+01421101471ADDGF106991051021004501021001MA1999999091731MD1999999+0021REMSYN070AAXX  19184 83339 32497 61412 10209 20142 39173 40147 85220 333 58002;
0168833390999992009052000004-14050-042617FM-12+088299999V0201401N000512200019N0020001N1+01811+01411101621ADDGF102991021021004501001001KA1240M+02161MA1999999091831MD1999999-0021REMSYN088AAXX  20004 83339 32495 21401 10181 20141 39183 40162 82200 333 10216 29077 55013 59002;
0184833390999992009052012004-14050-042617FM-12+088299999V0201401N007710042019N0040001N1+01751+01491101721ADDAY101061AY201061GF107991061021004501021999KA1240N+01641MA1999999091921MD1999999-0041MW1101REMSYN082AAXX  20124 83339 31496 71415 10175 20149 39192 40172 71000 8622/ 333 20164 59004;
0137833390999992009052018004-14050-042617FM-12+088299999V0201401N003610042019N0100001N1+02011+01411101501ADDGF106991061021004501001001MA1999999091741MD1999999+0011REMSYN070AAXX  20184 83339 32497 61407 10201 20141 39174 40150 86200 333 58001;
0168833390999992009052100004-14050-042617FM-12+088299999V0200901N003612200019N0020001N1+01711+01251101611ADDGF102991021021004501001001KA1240M+02121MA1999999091791MD1999999-0041REMSYN088AAXX  21004 83339 32495 20907 10171 20125 39179 40161 82200 333 10212 29075 55025 59004;
0156833390999992009052112004-14050-042617FM-12+088299999V0201401N007210042019N0100001N1+01771+01271101711ADDGF106991061021004501001001KA1240N+01521MA1999999091881MD1999999-0041REMSYN076AAXX  21124 83339 32497 61414 10177 20127 39188 40171 86200 333 20152 59004;
0137833390999992009052118004-14050-042617FM-12+088299999V0201401N004612200019N0100001N1+02271+01311101381ADDGF104991041021004501001001MA1999999091661MD1999999-0081REMSYN070AAXX  21184 83339 32497 41409 10227 20131 39166 40138 84200 333 59008;
0178833390999992009052200004-14050-042617FM-12+088299999V0201401N003112200019N0020001N1+01891+01251101581ADDGA1001+999999999GF100991001001999999001001KA1240M+02351MA1999999091811MD1999999+0021REMSYN082AAXX  22004 83339 32995 01406 10189 20125 39181 40158 333 10235 29066 55101 58002;
0156833390999992009052212004-14050-042617FM-12+088299999V0201401N006710042019N0100001N1+01871+01351101731ADDGF105991051021004501001001KA1240N+01631MA1999999091961MD1999999+0081REMSYN076AAXX  22124 83339 32497 51413 10187 20135 39196 40173 85200 333 20163 58008;
0137833390999992009052218004-14050-042617FM-12+088299999V0201401N005712200019N0100001N1+02351+01521101391ADDGF103991031021004501001001MA1999999091721MD1999999+0061REMSYN070AAXX  22184 83339 32497 31411 10235 20152 39172 40139 83200 333 58006;
0168833390999992009052300004-14050-042617FM-12+088299999V0201401N006212200019N0020001N1+01931+01511101701ADDGF102991021021004501001001KA1240M+02421MA1999999091941MD1999999+0131REMSYN088AAXX  23004 83339 32495 21412 10193 20151 39194 40170 82200 333 10242 29072 55081 58013;
0184833390999992009052312004-14050-042617FM-12+088299999V0201401N012910042019N0040001N1+01851+01641101721ADDAY101061AY201061GF108991081051004501999999KA1240N+01681MA1999999091951MD1999999-0011MW1101REMSYN082AAXX  23124 83339 31496 81425 10185 20164 39195 40172 71000 885// 333 20168 59001;
0137833390999992009052318004-14050-042617FM-12+088299999V0200901N005110042019N0100001N1+02371+01691101411ADDGF106991051021004501021001MA1999999091751MD1999999+0031REMSYN070AAXX  23184 83339 32497 60910 10237 20169 39175 40141 85220 333 58003;
0213833390999992009052400004-14050-042617FM-12+088299999V0201401N005710042019N0020001N1+01831+01671101721ADDAA106001091AY161061AY261061GF108991081051004501999999KA1240M+02461MA1999999091941MD1999999+0001MW1501REMSYN100AAXX  24004 83339 21495 81411 10183 20167 39194 40172 75066 885// 333 10246 29084 55049 58000 60011;
0201833390999992009052412004-14050-042617FM-12+088299999V0200901N004610042019N0100001N1+01791+01431101851ADDAA124001091AY161061AY261061GF105991051021004501001001KA1240N+01521MA1999999092031MD1999999+0081MW1101REMSYN088AAXX  24124 83339 21497 50909 10179 20143 39203 40185 71066 85200 333 20152 58008 60014;
0137833390999992009052418004-14050-042617FM-12+088299999V0200901N004610042019N0100001N1+02261+01471101351ADDGF106991051021004501021001MA1999999091641MD1999999-0111REMSYN070AAXX  24184 83339 32497 60909 10226 20147 39164 40135 85220 333 59011;
0168833390999992009052500004-14050-042617FM-12+088299999V0201801N001512200019N0020001N1+01891+01471101541ADDGF102991021021004501001001KA1240M+02321MA1999999091771MD1999999-0171REMSYN088AAXX  25004 83339 32495 21803 10189 20147 39177 40154 82200 333 10232 29074 55079 59017;
0156833390999992009052512004-14050-042617FM-12+088299999V0200901N001010042019N0100001N1+01721+01521101681ADDGF106991061021004501001001KA1240N+01381MA1999999091881MD1999999-0151REMSYN076AAXX  25124 83339 32497 60902 10172 20152 39188 40168 86200 333 20138 59015;
0156833390999992009052518004-14050-042617FM-12+088299999V0201401N003612200019N0100001N1+02391+01441101201ADDGF102991001001999999001041MA1999999091531MD1999999-0111REMSYN070AAXX  25184 83339 32897 21407 10239 20144 39153 40120 80004 333 59011;EQDQ01+022502SCOLCB
0178833390999992009052600004-14050-042617FM-12+088299999V0201401N001012200019N0020001N1+01921+01381101491ADDGA1001+999999999GF100991001001999999001001KA1240M+02441MA1999999091711MD1999999-0061REMSYN082AAXX  26004 83339 32995 01402 10192 20138 39171 40149 333 10244 29071 55066 59006;
0156833390999992009052612004-14050-042617FM-12+088299999V0201401N001510042019N0100001N1+01701+01521101671ADDGF108991051051004501021999KA1240N+01361MA1999999091871MD1999999-0011REMSYN076AAXX  26124 83339 32497 81403 10170 20152 39187 40167 8552/ 333 20136 59001;
0137833390999992009052618004-14050-042617FM-12+088299999V0200901N003112200019N0100001N1+02231+01321101291ADDGF105991021011004501001011MA1999999091581MD1999999+0051REMSYN070AAXX  26184 83339 32497 50906 10223 20132 39158 40129 82101 333 58005;
0178833390999992009052700004-14050-042617FM-12+088299999V0202301N001012200019N0020001N1+01751+01391101551ADDGA1001+999999999GF100991001001999999001001KA1240M+02291MA1999999091721MD1999999+0011REMSYN082AAXX  27004 83339 32995 02302 10175 20139 39172 40155 333 10229 29076 55038 58001;
0156833390999992009052712004-14050-042617FM-12+088299999V0201401N001012200019N0100001N1+01941+01491101561ADDGF102991021011004501001001KA1240N+01491MA1999999091791MD1999999-0081REMSYN076AAXX  27124 83339 32497 21402 10194 20149 39179 40156 82100 333 20149 59008;
0156833390999992009052718004-14050-042617FM-12+088299999V0201401N002612200019N0100001N1+02491+01221101151ADDGF102991001001999999001011MA1999999091501MD1999999-0081REMSYN070AAXX  27184 83339 32897 21405 10249 20122 39150 40115 80001 333 59008;EQDQ01+022502SCOLCB
0178833390999992009052800004-14050-042617FM-12+088299999V0201401N004112200019N0020001N1+02011+01681101381ADDGA1001+999999999GF100991001001999999001001KA1240M+02541MA1999999091661MD1999999-0061REMSYN082AAXX  28004 83339 32995 01408 10201 20168 39166 40138 333 10254 29071 55094 59006;
0184833390999992009052812004-14050-042617FM-12+088299999V0201401N005710042019N0020001N1+01991+01831101601ADDAY121061AY221061GF108991051051004501021999KA1240N+01821MA1999999091881MD1999999+0091MW1401REMSYN082AAXX  28124 83339 31495 81411 10199 20183 39188 40160 74022 8552/ 333 20182 58009;
0165833390999992009052818004-14050-042617FM-12+088299999V0201401N004112200019N0100001N1+02491+01751101191ADDAY141061AY221061GF102991021011004501001001MA1999999091591MD1999999+0091MW1021REMSYN076AAXX  28184 83339 31497 21408 10249 20175 39159 40119 70242 82100 333 58009;
0178833390999992009052900004-14050-042617FM-12+088299999V0201401N005112200019N0020001N1+02071+01761101371ADDGA1001+999999999GF100991001001999999001001KA1240M+02541MA1999999091701MD1999999+0041REMSYN082AAXX  29004 83339 32995 01410 10207 20176 39170 40137 333 10254 29079 55052 58004;
0156833390999992009052912004-14050-042617FM-12+088299999V0200901N003110450019N0100001N1+01971+01811101641ADDGF108991041051004501021999KA1240N+01861MA1999999091921MD1999999+0041REMSYN076AAXX  29124 83339 32497 80906 10197 20181 39192 40164 8452/ 333 20186 58004;
0137833390999992009052918004-14050-042617FM-12+088299999V0201401N003112200019N0100001N1+02591+01601101111ADDGF102991021011004501001001MA1999999091561MD1999999-0031REMSYN070AAXX  29184 83339 32497 21406 10259 20160 39156 40111 82100 333 59003;
0168833390999992009053000004-14050-042617FM-12+088299999V0201401N005712200019N0020001N1+02191+01671101451ADDGF102991021011004501001001KA1240M+02661MA1999999091791MD1999999+0091REMSYN088AAXX  30004 83339 32495 21411 10219 20167 39179 40145 82100 333 10266 29072 55072 58009;
0156833390999992009053012004-14050-042617FM-12+088299999V0201401N006710042019N0100001N1+01961+01761101601ADDGF106991061021004501001001KA1240N+01861MA1999999091931MD1999999+0011REMSYN076AAXX  30124 83339 32497 61413 10196 20176 39193 40160 86200 333 20186 58001;
0137833390999992009053018004-14050-042617FM-12+088299999V0201401N005712200019N0100001N1+02381+01681101191ADDGF102991021011004501001001MA1999999091591MD1999999+0031REMSYN070AAXX  30184 83339 32497 21411 10238 20168 39159 40119 82100 333 58003;
0178833390999992009053100004-14050-042617FM-12+088299999V0201401N004612200019N0020001N1+02101+01621101481ADDGA1001+999999999GF100991001001999999001001KA1240M+02461MA1999999091801MD1999999+0011REMSYN082AAXX  31004 83339 32995 01409 10210 20162 39180 40148 333 10246 29075 55073 58001;
0156833390999992009053112004-14050-042617FM-12+088299999V0201401N003110042019N0100001N1+01951+01871101621ADDGF106991061021004501001001KA1240N+01841MA1999999091931MD1999999+0001REMSYN076AAXX  31124 83339 32497 61406 10195 20187 39193 40162 86200 333 20184 58000;
0137833390999992009053118004-14050-042617FM-12+088299999V0201401N002612200019N0100001N1+02311+01701101131ADDGF102991021011004501001001MA1999999091521MD1999999-0071REMSYN070AAXX  31184 83339 32497 21405 10231 20170 39152 40113 82100 333 59007;
0178833390999992009060100004-14050-042617FM-12+088299999V0201801N001512200019N0020001N1+02011+01641101321ADDGA1001+999999999GF100991001001999999001001KA1240M+02441MA1999999091641MD1999999-0161REMSYN082AAXX  01004 83339 32995 01803 10201 20164 39164 40132 333 10244 29079 55077 59016;
0156833390999992009060112004-14050-042617FM-12+088299999V0203601N001512200019N0100001N1+02151+01701101321ADDGF103991021021004501021001KA1240N+01681MA1999999091671MD1999999-0261REMSYN076AAXX  01124 83339 32497 33603 10215 20170 39167 40132 82220 333 20168 59026;
0137833390999992009060118004-14050-042617FM-12+088299999V0201401N001510042019N0100001N1+02731+01651100821ADDGF106991051021004501021001MA1999999091341MD1999999-0181REMSYN070AAXX  01184 83339 32497 61403 10273 20165 39134 40082 85220 333 59018;
0168833390999992009060200004-14050-042617FM-12+088299999V0209999C000010042019N0020001N1+02271+01621101071ADDGF106991051021004501031001KA1240M+02861MA1999999091481MD1999999-0161REMSYN088AAXX  02004 83339 32495 60000 10227 20162 39148 40107 85230 333 10286 29066 55079 59016;
0156833390999992009060212004-14050-042617FM-12+088299999V0200501N001512200019N0100001N1+02451+01741101151ADDGF102991011021004501021001KA1240N+01921MA1999999091621MD1999999-0051REMSYN076AAXX  02124 83339 32497 20503 10245 20174 39162 40115 81220 333 20192 59005;
0137833390999992009060218004-14050-042617FM-12+088299999V0202701N003612200019N0100001N1+02851+01701100741ADDGF104991041021004501001001MA1999999091281MD1999999-0061REMSYN070AAXX  02184 83339 32497 42707 10285 20170 39128 40074 84200 333 59006;
0168833390999992009060300004-14050-042617FM-12+088299999V0203201N001510042019N0020001N1+02291+01731101061ADDGF106991061021004501001001KA1240M+02921MA1999999091541MD1999999+0061REMSYN088AAXX  03004 83339 32495 63203 10229 20173 39154 40106 86200 333 10292 29064 55084 58006;
0201833390999992009060312004-14050-042617FM-12+088299999V0201401N002610042019N0040001N1+02071+01871101381ADDAA124003091AY161061AY261061GF108991081051004501999999KA1240N+01921MA1999999091761MD1999999+0141MW1101REMSYN088AAXX  03124 83339 21496 81405 10207 20187 39176 40138 71066 885// 333 20192 58014 60034;
0182833390999992009060318004-14050-042617FM-12+088299999V0200901N001510042019N0040001N1+02131+01801101231ADDAA106000591AY161061AY261061GF108991081051004501999999MA1999999091591MD1999999+0311MW1101REMSYN082AAXX  03184 83339 21496 80903 10213 20180 39159 40123 71066 885// 333 58031 69961;
0213833390999992009060400004-14050-042617FM-12+088299999V0200901N002610042019N0020001N1+01991+01931101411ADDAA106002091AY161061AY261061GF108991081051004501999999KA1240M+02361MA1999999091741MD1999999+0201MW1401REMSYN100AAXX  04004 83339 21495 80905 10199 20193 39174 40141 74066 885// 333 10236 29091 55000 58020 60021;
0201833390999992009060412004-14050-042617FM-12+088299999V0201401N008210042019N0040001N1+01871+01811101761ADDAA124003091AY161061AY261061GF108991081051004501999999KA1240N+01861MA1999999092011MD1999999+0251MW1101REMSYN088AAXX  04124 83339 21496 81416 10187 20181 39201 40176 71066 885// 333 20186 58025 60034;
0182833390999992009060418004-14050-042617FM-12+088299999V0201401N004610042019N0040001N1+02011+01831101441ADDAA106000591AY161061AY261061GF107991061021004501021999MA1999999091721MD1999999+0131MW1101REMSYN082AAXX  04184 83339 21496 71409 10201 20183 39172 40144 71066 8622/ 333 58013 69941;
0196833390999992009060500004-14050-042617FM-12+088299999V0201401N008710042019N0020001N1+01851+01741101601ADDAY101061AY201061GF108991081051004501999999KA1240M+02181MA1999999091831MD1999999+0091MW1101REMSYN094AAXX  05004 83339 31495 81417 10185 20174 39183 40160 71000 885// 333 10218 29094 55008 58009;
0201833390999992009060512004-14050-042617FM-12+088299999V0201401N006710042019N0040001N1+01731+01671101781ADDAA124002091AY161061AY261061GF108991081051004501999999KA1240N+01661MA1999999091961MD1999999-0051MW1501REMSYN088AAXX  05124 83339 21496 81413 10173 20167 39196 40178 75066 885// 333 20166 59005 60024;
0165833390999992009060518004-14050-042617FM-12+088299999V0201401N004110042019N0100001N1+02271+01731101461ADDAY151061AY251061GF106991061021004501001001MA1999999091751MD1999999+0051MW1021REMSYN076AAXX  05184 83339 31497 61408 10227 20173 39175 40146 70255 86200 333 58005;
0196833390999992009060600004-14050-042617FM-12+088299999V0201401N002610042019N0020001N1+02051+01721101691ADDAY101061AY201061GF106991061021004501001001KA1240M+02331MA1999999091931MD1999999+0101MW1101REMSYN094AAXX  06004 83339 31495 61405 10205 20172 39193 40169 71000 86200 333 10233 29083 55035 58010;
0201833390999992009060612004-14050-042617FM-12+088299999V0201401N005112200019N0100001N1+01981+01811101851ADDAA124001091AY161061AY241061GF103991031021004501001001KA1240N+01731MA1999999092111MD1999999+0151MW1021REMSYN088AAXX  06124 83339 21497 31410 10198 20181 39211 40185 70264 83200 333 20173 58015 60014;
0137833390999992009060618004-14050-042617FM-12+088299999V0201401N004612200019N0100001N1+02451+01581101341ADDGF102991021011004501001001MA1999999091711MD1999999-0041REMSYN070AAXX  06184 83339 32497 21409 10245 20158 39171 40134 82100 333 59004;
0168833390999992009060700004-14050-042617FM-12+088299999V0200901N003112200019N0020001N1+02041+01721101581ADDGF104991041021004501001001KA1240M+02511MA1999999091861MD1999999-0071REMSYN088AAXX  07004 83339 32495 40906 10204 20172 39186 40158 84200 333 10251 29078 55086 59007;
0156833390999992009060712004-14050-042617FM-12+088299999V0201401N005710042019N0100001N1+02051+01801101601ADDGF105991051021004501001001KA1240N+01801MA1999999091911MD1999999-0201REMSYN076AAXX  07124 83339 32497 51411 10205 20180 39191 40160 85200 333 20180 59020;
0137833390999992009060718004-14050-042617FM-12+088299999V0201401N008212200019N0100001N1+02411+01491101231ADDGF104991041021004501001001MA1999999091611MD1999999-0101REMSYN070AAXX  07184 83339 32497 41416 10241 20149 39161 40123 84200 333 59010;
0168833390999992009060800004-14050-042617FM-12+088299999V0201401N008210042019N0020001N1+01861+01601101601ADDGF105991051021004501001001KA1240M+02441MA1999999091861MD1999999+0001REMSYN088AAXX  08004 83339 32495 51416 10186 20160 39186 40160 85200 333 10244 29078 55079 58000;
0220833390999992009060812004-14050-042617FM-12+088299999V0201401N008210042019N0010001N1+01701+01601101921ADDAA124000891AY161061AY241061GF108991999021004501001001KA1240N+01641MA1999999092051MD1999999+0141MW1401REMSYN088AAXX  08124 83339 21494 81416 10170 20160 39205 40192 74064 86200 333 20164 58014 69984;EQDQ01+000062SCOTLC
0165833390999992009060818004-14050-042617FM-12+088299999V0201401N009312200019N0100001N1+02031+01521101521ADDAY141061AY221061GF104991041021004501001001MA1999999091771MD1999999+0161MW1021REMSYN076AAXX  08184 83339 31497 41418 10203 20152 39177 40152 70242 84200 333 58016;
0168833390999992009060900004-14050-042617FM-12+088299999V0201401N007210042019N0020001N1+01731+01471101811ADDGF106991061021004501001001KA1240M+02061MA1999999091951MD1999999+0091REMSYN088AAXX  09004 83339 32495 61414 10173 20147 39195 40181 86200 333 10206 29084 55047 58009;
0156833390999992009060912004-14050-042617FM-12+088299999V0201401N005112200019N0100001N1+01751+01391101921ADDGF102991021011004501001001KA1240N+01541MA1999999092071MD1999999+0021REMSYN076AAXX  09124 83339 32497 21410 10175 20139 39207 40192 82100 333 20154 58002;
0137833390999992009060918004-14050-042617FM-12+088299999V0200901N005110042019N0100001N1+02111+01441101591ADDGF106991061051004501001001MA1999999091841MD1999999+0071REMSYN070AAXX  09184 83339 32497 60910 10211 20144 39184 40159 86500 333 58007;
0168833390999992009061000004-14050-042617FM-12+088299999V0201401N009310042019N0020001N1+01901+01471101771ADDGF108991051051004501021999KA1240M+02181MA1999999091981MD1999999+0031REMSYN088AAXX  10004 83339 32495 81418 10190 20147 39198 40177 8552/ 333 10218 29074 55069 58003;
0184833390999992009061012004-14050-042617FM-12+088299999V0201401N005110042019N0010001N1+01661+01601101941ADDAY141061AY221061GF108991061051004501021999KA1240N+01621MA1999999092111MD1999999+0041MW1401REMSYN082AAXX  10124 83339 31494 81410 10166 20160 39211 40194 74042 8652/ 333 20162 58004;
0165833390999992009061018004-14050-042617FM-12+088299999V0200901N005112200019N0100001N1+02201+01581101521ADDAY141061AY221061GF104991041011004501001001MA1999999091811MD1999999-0031MW1021REMSYN076AAXX  10184 83339 31497 40910 10220 20158 39181 40152 70242 84100 333 59003;
0168833390999992009061100004-14050-042617FM-12+088299999V0201401N002612200019N0020001N1+01981+01701101821ADDGF103991031011004501001001KA1240M+02381MA1999999092001MD1999999+0021REMSYN088AAXX  11004 83339 32495 31405 10198 20170 39200 40182 83100 333 10238 29083 55039 58002;
0156833390999992009061112004-14050-042617FM-12+088299999V0200901N004610042019N0100001N1+01891+01731101881ADDGF108991051051004501021999KA1240N+01651MA1999999092121MD1999999+0011REMSYN076AAXX  11124 83339 32497 80909 10189 20173 39212 40188 8552/ 333 20165 58001;
0137833390999992009061118004-14050-042617FM-12+088299999V0200901N004610042019N0100001N1+02351+01641101531ADDGF105991051021004501001001MA1999999091861MD1999999+0051REMSYN070AAXX  11184 83339 32497 50909 10235 20164 39186 40153 85200 333 58005;
0178833390999992009061200004-14050-042617FM-12+088299999V0209999C000012200019N0020001N1+01951+01531101701ADDGA1001+999999999GF100991001001999999001001KA1240M+02431MA1999999091941MD1999999-0061REMSYN082AAXX  12004 83339 32995 00000 10195 20153 39194 40170 333 10243 29077 55048 59006;
0184833390999992009061212004-14050-042617FM-12+088299999V0201401N002610450019N0010001N1+01781+01681101821ADDAY121061AY221061GF108991041051004501021999KA1240N+01601MA1999999092031MD1999999-0091MW1401REMSYN082AAXX  12124 83339 31494 81405 10178 20168 39203 40182 74022 8452/ 333 20160 59009;
0165833390999992009061218004-14050-042617FM-12+088299999V0200901N002610450019N0100001N1+02431+01561101421ADDAY141061AY221061GF106991031011004501021011MA1999999091761MD1999999-0101MW1021REMSYN076AAXX  12184 83339 31497 60905 10243 20156 39176 40142 70242 83121 333 59010;
0178833390999992009061300004-14050-042617FM-12+088299999V0209999C000012200019N0020001N1+01901+01551101601ADDGA1001+999999999GF100991001001999999001001KA1240M+02481MA1999999091831MD1999999-0111REMSYN082AAXX  13004 83339 32995 00000 10190 20155 39183 40160 333 10248 29078 55028 59011;
0175833390999992009061312004-14050-042617FM-12+088299999V0200501N001012200019N0100001N1+02001+01641101591ADDGF102991001001999999001011KA1240N+01561MA1999999091851MD1999999-0181REMSYN076AAXX  13124 83339 32897 20502 10200 20164 39185 40159 80001 333 20156 59018;EQDQ01+022502SCOLCB
0137833390999992009061318004-14050-042617FM-12+088299999V0201401N005112200019N0100001N1+02481+01621101221ADDGF105991041021004501001011MA1999999091581MD1999999-0181REMSYN070AAXX  13184 83339 32497 51410 10248 20162 39158 40122 84201 333 59018;
0178833390999992009061400004-14050-042617FM-12+088299999V0202301N001512200019N0020001N1+02041+01521101441ADDGA1001+999999999GF100991001001999999001001KA1240M+02691MA1999999091741MD1999999-0091REMSYN082AAXX  14004 83339 32995 02303 10204 20152 39174 40144 333 10269 29071 55075 59009;
0156833390999992009061412004-14050-042617FM-12+088299999V0201401N003610042019N0100001N1+01781+01611101681ADDGF108991051051004501021999KA1240N+01651MA1999999091921MD1999999+0071REMSYN076AAXX  14124 83339 32497 81407 10178 20161 39192 40168 8552/ 333 20165 58007;
0137833390999992009061418004-14050-042617FM-12+088299999V0200901N006212200019N0100001N1+02381+01451101281ADDGF103991021011004501001011MA1999999091641MD1999999+0061REMSYN070AAXX  14184 83339 32497 30912 10238 20145 39164 40128 82101 333 58006;
0178833390999992009061500004-14050-042617FM-12+088299999V0201401N005112200019N0020001N1+02051+01451101611ADDGA1001+999999999GF100991001001999999001001KA1240M+02441MA1999999091851MD1999999+0111REMSYN082AAXX  15004 83339 32995 01410 10205 20145 39185 40161 333 10244 29071 55061 58011;
0156833390999992009061512004-14050-042617FM-12+088299999V0201401N005110450019N0100001N1+01701+01531101841ADDGF108991041051004501021999KA1240N+01651MA1999999092061MD1999999+0141REMSYN076AAXX  15124 83339 32497 81410 10170 20153 39206 40184 8452/ 333 20165 58014;
0137833390999992009061518004-14050-042617FM-12+088299999V0201401N003112200019N0100001N1+02271+01611101411ADDGF104991031011004501001011MA1999999091741MD1999999+0101REMSYN070AAXX  15184 83339 32497 41406 10227 20161 39174 40141 83101 333 58010;
0178833390999992009061600004-14050-042617FM-12+088299999V0201401N004612200019N0020001N1+01921+01531101731ADDGA1001+999999999GF100991001001999999001001KA1240M+02301MA1999999091931MD1999999+0081REMSYN082AAXX  16004 83339 32995 01409 10192 20153 39193 40173 333 10230 29078 55039 58008;
0156833390999992009061612004-14050-042617FM-12+088299999V0201401N003110042019N0100001N1+01801+01601101781ADDGF108991061051004501021999KA1240N+01701MA1999999091991MD1999999-0071REMSYN076AAXX  16124 83339 32497 81406 10180 20160 39199 40178 8652/ 333 20170 59007;
0137833390999992009061618004-14050-042617FM-12+088299999V0201401N004112200019N0100001N1+02391+01521101341ADDGF102991011011004501001011MA1999999091691MD1999999-0051REMSYN070AAXX  16184 83339 32497 21408 10239 20152 39169 40134 81101 333 59005;
0178833390999992009061700004-14050-042617FM-12+088299999V0209999C000012200019N0020001N1+01811+01551101671ADDGA1001+999999999GF100991001001999999001001KA1240M+02441MA1999999091871MD1999999-0061REMSYN082AAXX  17004 83339 32995 00000 10181 20155 39187 40167 333 10244 29078 55060 59006;
0184833390999992009061712004-14050-042617FM-12+088299999V0200501N001010042019N0010001N1+01631+01591101711ADDAY121061AY221061GF108991051051004501021999KA1240N+01421MA1999999091861MD1999999-0131MW1401REMSYN082AAXX  17124 83339 31494 80502 10163 20159 39186 40171 74022 8552/ 333 20142 59013;
0165833390999992009061718004-14050-042617FM-12+088299999V0201401N004112200019N0100001N1+02541+01481101141ADDAY141061AY221061GF102991021011004501001001MA1999999091511MD1999999-0181MW1021REMSYN076AAXX  17184 83339 31497 21408 10254 20148 39151 40114 70242 82100 333 59018;
0178833390999992009061800004-14050-042617FM-12+088299999V0202301N001512200019N0020001N1+02001+01271101501ADDGA1001+999999999GF100991001001999999001001KA1240M+02601MA1999999091721MD1999999-0151REMSYN082AAXX  18004 83339 32995 02303 10200 20127 39172 40150 333 10260 29069 55077 59015;
0156833390999992009061812004-14050-042617FM-12+088299999V0201401N002612200019N0100001N1+01771+01611101641ADDGF103991031021004501001001KA1240N+01491MA1999999091881MD1999999+0021REMSYN076AAXX  18124 83339 32497 31405 10177 20161 39188 40164 83200 333 20149 58002;
0137833390999992009061818004-14050-042617FM-12+088299999V0201401N003112200019N0100001N1+02651+01471101161ADDGF102991021011004501001001MA1999999091561MD1999999+0051REMSYN070AAXX  18184 83339 32497 21406 10265 20147 39156 40116 82100 333 58005;
0178833390999992009061900004-14050-042617FM-12+088299999V0201401N000512200019N0020001N1+02111+01461101601ADDGA1001+999999999GF100991001001999999001001KA1240M+02701MA1999999091781MD1999999+0061REMSYN082AAXX  19004 83339 32995 01401 10211 20146 39178 40160 333 10270 29068 55087 58006;
0184833390999992009061912004-14050-042617FM-12+088299999V0201401N003110042019N0020001N1+01791+01671101671ADDAY121061AY221061GF108991051051004501021999KA1240N+01661MA1999999091931MD1999999+0051MW1401REMSYN082AAXX  19124 83339 31495 81406 10179 20167 39193 40167 74022 8552/ 333 20166 58005;
0165833390999992009061918004-14050-042617FM-12+088299999V0200901N005112200019N0100001N1+02501+01421101291ADDAY141061AY221061GF102991021011004501001001MA1999999091681MD1999999+0121MW1021REMSYN076AAXX  19184 83339 31497 20910 10250 20142 39168 40129 70242 82100 333 58012;
0178833390999992009062000004-14050-042617FM-12+088299999V0201401N005112200019N0020001N1+02081+01451101571ADDGA1001+999999999GF100991001001999999001001KA1240M+02531MA1999999091841MD1999999+0061REMSYN082AAXX  20004 83339 32995 01410 10208 20145 39184 40157 333 10253 29069 55083 58006;
0156833390999992009062012004-14050-042617FM-12+088299999V0201401N005112200019N0100001N1+01841+01471101831ADDGF102991021011004501001001KA1240N+01671MA1999999092071MD1999999+0141REMSYN076AAXX  20124 83339 32497 21410 10184 20147 39207 40183 82100 333 20167 58014;
0137833390999992009062018004-14050-042617FM-12+088299999V0200901N005712200019N0100001N1+02211+01381101471ADDGF102991021011004501001001MA1999999091791MD1999999+0111REMSYN070AAXX  20184 83339 32497 20911 10221 20138 39179 40147 82100 333 58011;
0178833390999992009062100004-14050-042617FM-12+088299999V0201401N004112200019N0020001N1+01891+01411101671ADDGA1001+999999999GF100991001001999999001001KA1240M+02291MA1999999091891MD1999999+0051REMSYN082AAXX  21004 83339 32995 01408 10189 20141 39189 40167 333 10229 29071 55092 58005;
0156833390999992009062112004-14050-042617FM-12+088299999V0201401N005112200019N0100001N1+01691+01461101861ADDGF104991041021004501001001KA1240N+01561MA1999999092041MD1999999-0031REMSYN076AAXX  21124 83339 32497 41410 10169 20146 39204 40186 84200 333 20156 59003;
0137833390999992009062118004-14050-042617FM-12+088299999V0201401N005712200019N0100001N1+02311+01221101351ADDGF102991021011004501001001MA1999999091651MD1999999-0141REMSYN070AAXX  21184 83339 32497 21411 10231 20122 39165 40135 82100 333 59014;
0178833390999992009062200004-14050-042617FM-12+088299999V0201401N001512200019N0020001N1+01851+01241101611ADDGA1001+999999999GF100991001001999999001001KA1240M+02361MA1999999091791MD1999999-0101REMSYN082AAXX  22004 83339 32995 01403 10185 20124 39179 40161 333 10236 29068 55055 59010;
0156833390999992009062212004-14050-042617FM-12+088299999V0201401N004610042019N0100001N1+01641+01391101801ADDGF106991061021004501001001KA1240N+01541MA1999999091961MD1999999-0081REMSYN076AAXX  22124 83339 32497 61409 10164 20139 39196 40180 86200 333 20154 59008;
0137833390999992009062218004-14050-042617FM-12+088299999V0201401N005112200019N0100001N1+02401+01261101261ADDGF102991021011004501001001MA1999999091601MD1999999-0051REMSYN070AAXX  22184 83339 32497 21410 10240 20126 39160 40126 82100 333 59005;
0178833390999992009062300004-14050-042617FM-12+088299999V0201401N002612200019N0020001N1+02011+01321101521ADDGA1001+999999999GF100991001001999999001001KA1240M+02441MA1999999091751MD1999999-0041REMSYN082AAXX  23004 83339 32995 01405 10201 20132 39175 40152 333 10244 29066 55080 59004;
0156833390999992009062312004-14050-042617FM-12+088299999V0201401N004112200019N0100001N1+01881+01551101701ADDGF102991021021004501001001KA1240N+01541MA1999999091951MD1999999-0011REMSYN076AAXX  23124 83339 32497 21408 10188 20155 39195 40170 82200 333 20154 59001;
0137833390999992009062318004-14050-042617FM-12+088299999V0200901N002612200019N0100001N1+02491+01481101281ADDGF102991021011004501001001MA1999999091651MD1999999+0051REMSYN070AAXX  23184 83339 32497 20905 10249 20148 39165 40128 82100 333 58005;
0178833390999992009062400004-14050-042617FM-12+088299999V0200501N001012200019N0020001N1+02031+01521101611ADDGA1001+999999999GF100991001001999999001001KA1240M+02541MA1999999091871MD1999999+0121REMSYN082AAXX  24004 83339 32995 00502 10203 20152 39187 40161 333 10254 29070 55098 58012;
0156833390999992009062412004-14050-042617FM-12+088299999V0200901N001510042019N0100001N1+01891+01701101811ADDGF106991061021004501001001KA1240N+01641MA1999999092051MD1999999+0101REMSYN076AAXX  24124 83339 32497 60903 10189 20170 39205 40181 86200 333 20164 58010;
0137833390999992009062418004-14050-042617FM-12+088299999V0201401N003612200019N0100001N1+02571+01411101311ADDGF103991021021004501001021MA1999999091701MD1999999+0051REMSYN070AAXX  24184 83339 32497 31407 10257 20141 39170 40131 82202 333 58005;
0178833390999992009062500004-14050-042617FM-12+088299999V0202301N001012200019N0020001N1+02061+01381101581ADDGA1001+999999999GF100991001001999999001001KA1240M+02661MA1999999091861MD1999999-0011REMSYN082AAXX  25004 83339 32995 02302 10206 20138 39186 40158 333 10266 29068 55067 59001;
0184833390999992009062512004-14050-042617FM-12+088299999V0201401N004610042019N0020001N1+01791+01691101791ADDAY121061AY221061GF108991051051004501021999KA1240N+01651MA1999999092041MD1999999-0011MW1401REMSYN082AAXX  25124 83339 31495 81409 10179 20169 39204 40179 74022 8552/ 333 20165 59001;
0165833390999992009062518004-14050-042617FM-12+088299999V0200501N003112200019N0100001N1+02611+01401101331ADDAY141061AY221061GF102991011011004501001011MA1999999091741MD1999999+0041MW1021REMSYN076AAXX  25184 83339 31497 20506 10261 20140 39174 40133 70242 81101 333 58004;
0178833390999992009062600004-14050-042617FM-12+088299999V0209999C000012200019N0020001N1+02071+01421101661ADDGA1001+999999999GF100991001001999999001001KA1240M+02661MA1999999091921MD1999999+0061REMSYN082AAXX  26004 83339 32995 00000 10207 20142 39192 40166 333 10266 29068 55068 58006;
0166833390999992009062612004-14050-042617FM-12+088299999V0201401N002112200019N0100001N1+02031+01641101781ADDGA1001+999999999GF100991001001999999001001KA1240N+01541MA1999999092061MD1999999+0021REMSYN070AAXX  26124 83339 32997 01404 10203 20164 39206 40178 333 20154 58002;
0137833390999992009062618004-14050-042617FM-12+088299999V0201801N002612200019N0100001N1+02731+01411101371ADDGF103991031011004501001001MA1999999091771MD1999999+0031REMSYN070AAXX  26184 83339 32497 31805 10273 20141 39177 40137 83100 333 58003;
0168833390999992009062700004-14050-042617FM-12+088299999V0201401N001512200019N0020001N1+02171+01261101651ADDGF102991021011999999001001KA1240M+02801MA1999999091971MD1999999+0051REMSYN088AAXX  27004 83339 32995 21403 10217 20126 39197 40165 82100 333 10280 29059 55101 58005;
0156833390999992009062712004-14050-042617FM-12+088299999V0201401N005112200019N0100001N1+02001+01621101931ADDGF102991021011004501001001KA1240N+01691MA1999999092231MD1999999+0171REMSYN076AAXX  27124 83339 32497 21410 10200 20162 39223 40193 82100 333 20169 58017;
0168833390999992009062800004-14050-042617FM-12+088299999V0209999C000012200019N0020001N1+01931+01421101821ADDGF102991021011004501001001KA1240M+02471MA1999999092061MD1999999+0091REMSYN088AAXX  28004 83339 32495 20000 10193 20142 39206 40182 82100 333 10247 29070 55104 58009;
0156833390999992009062812004-14050-042617FM-12+088299999V0200901N002610042019N0100001N1+01831+01621101951ADDGF106991061021004501001001KA1240N+01581MA1999999092161MD1999999-0071REMSYN076AAXX  28124 83339 32497 60905 10183 20162 39216 40195 86200 333 20158 59007;
0137833390999992009062818004-14050-042617FM-12+088299999V0201801N002612200019N0100001N1+02431+01481101451ADDGF102991021011004501001001MA1999999091791MD1999999-0171REMSYN070AAXX  28184 83339 32497 21805 10243 20148 39179 40145 82100 333 59017;
0178833390999992009062900004-14050-042617FM-12+088299999V0209999C000012200019N0020001N1+01911+01471101631ADDGA1001+999999999GF100991001001999999001001KA1240M+02501MA1999999091891MD1999999-0171REMSYN082AAXX  29004 83339 32995 00000 10191 20147 39189 40163 333 10250 29073 55069 59017;
0184833390999992009062912004-14050-042617FM-12+088299999V0201401N003110042019N0100001N1+01671+01601101771ADDAY121061AY221061GF108991061051004501021999KA1240N+01461MA1999999091951MD1999999-0211MW1401REMSYN082AAXX  29124 83339 31497 81406 10167 20160 39195 40177 74022 8652/ 333 20146 59021;
0165833390999992009062918004-14050-042617FM-12+088299999V0201401N005112200019N0100001N1+02441+01451101271ADDAY141061AY221061GF102991021011004501001001MA1999999091611MD1999999-0181MW1021REMSYN076AAXX  29184 83339 31497 21410 10244 20145 39161 40127 70242 82100 333 59018;
0178833390999992009063000004-14050-042617FM-12+088299999V0209999C000012200019N0020001N1+01881+01391101541ADDGA1001+999999999GF100991001001999999001001KA1240M+02501MA1999999091751MD1999999-0141REMSYN082AAXX  30004 83339 32995 00000 10188 20139 39175 40154 333 10250 29074 55062 59014;
0156833390999992009063012004-14050-042617FM-12+088299999V0201401N005110042019N0100001N1+01931+01621101731ADDGF105991051021004501001001KA1240N+01641MA1999999091971MD1999999+0021REMSYN076AAXX  30124 83339 32497 51410 10193 20162 39197 40173 85200 333 20164 58002;
0137833390999992009063018004-14050-042617FM-12+088299999V0200901N001512200019N0100001N1+02491+01011101261ADDGF102991021011004501001001MA1999999091641MD1999999+0031REMSYN070AAXX  30184 83339 32497 20903 10249 20101 39164 40126 82100 333 58003;
0178833390999992009070100004-14050-042617FM-12+088299999V0202301N001012200019N0020001N1+01951+01211101441ADDGA1001+999999999GF100991001001999999001001KA1240M+02641MA1999999091721MD1999999-0031REMSYN082AAXX  01004 83339 32995 02302 10195 20121 39172 40144 333 10264 29061 55091 59003;
0156833390999992009070112004-14050-042617FM-12+088299999V0201401N002610042019N0100001N1+01761+01581101761ADDGF108991051021004501021999KA1240N+01441MA1999999091971MD1999999+0001REMSYN076AAXX  01124 83339 32497 81405 10176 20158 39197 40176 8522/ 333 20144 58000;
0137833390999992009070118004-14050-042617FM-12+088299999V0200901N003112200019N0100001N1+02571+01191101201ADDGF103991031011004501001001MA1999999091581MD1999999-0061REMSYN070AAXX  01184 83339 32497 30906 10257 20119 39158 40120 83100 333 59006;
0178833390999992009070200004-14050-042617FM-12+088299999V0201801N001512200019N0020001N1+02031+01261101551ADDGA1001+999999999GF100991001001999999001001KA1240M+02621MA1999999091801MD1999999+0081REMSYN082AAXX  02004 83339 32995 01803 10203 20126 39180 40155 333 10262 29063 55064 58008;
0156833390999992009070212004-14050-042617FM-12+088299999V0201401N003110450019N0100001N1+01941+01591101681ADDGF106991021011004501081001KA1240N+01621MA1999999091951MD1999999-0021REMSYN076AAXX  02124 83339 32497 61406 10194 20159 39195 40168 82180 333 20162 59002;
0137833390999992009070218004-14050-042617FM-12+088299999V0200501N002112200019N0100001N1+02561+01171101191ADDGF104991041021004501001001MA1999999091591MD1999999+0011REMSYN070AAXX  02184 83339 32497 40504 10256 20117 39159 40119 84200 333 58001;
0187833390999992009070300004-14050-042617FM-12+088299999V0201401N001512200019N0020001N1+02011+01171101531ADDGF102991999001004501081001KA1240M+02681MA1999999091821MD1999999+0021REMSYN088AAXX  03004 83339 32495 21403 10201 20117 39182 40153 80080 333 10268 29060 55069 58002;EQDQ01+000002SCOTLC
0137833390999992009070312004-14050-042617FM-12+088299999V0201401N002112200019N0100001N1+02051+01621101691ADDGF102991021011004501001001MA1999999091991MD1999999+0041REMSYN070AAXX  03124 83339 32497 21404 10205 20162 39199 40169 82100 333 58004;
0137833390999992009070318004-14050-042617FM-12+088299999V0200901N002612200019N0100001N1+02591+01141101231ADDGF103991031011004501001001MA1999999091631MD1999999+0041REMSYN070AAXX  03184 83339 32497 30905 10259 20114 39163 40123 83100 333 58004;
0168833390999992009070400004-14050-042617FM-12+088299999V0201401N002112200019N0020001N1+02131+01201101441ADDGF102991021011004501001001KA1240M+02731MA1999999091781MD1999999-0041REMSYN088AAXX  04004 83339 32495 21404 10213 20120 39178 40144 82100 333 10273 29057 55100 59004;
0156833390999992009070412004-14050-042617FM-12+088299999V0201401N005110042019N0100001N1+01871+01621101711ADDGF106991061021004501001001KA1240N+01631MA1999999091981MD1999999-0011REMSYN076AAXX  04124 83339 32497 61410 10187 20162 39198 40171 86200 333 20163 59001;
0137833390999992009070418004-14050-042617FM-12+088299999V0201401N001512200019N0100001N1+02481+01211101261ADDGF102991021011004501001001MA1999999091651MD1999999+0021REMSYN070AAXX  04184 83339 32497 21403 10248 20121 39165 40126 82100 333 58002;
0178833390999992009070500004-14050-042617FM-12+088299999V0201401N003112200019N0020001N1+02051+01231101611ADDGA1001+999999999GF100991001001999999001001KA1240M+02601MA1999999091871MD1999999+0091REMSYN082AAXX  05004 83339 32995 01406 10205 20123 39187 40161 333 10260 29062 55096 58009;
0156833390999992009070512004-14050-042617FM-12+088299999V0201401N005710042019N0100001N1+01791+01531101861ADDGF106991061021004501001001KA1240N+01641MA1999999092081MD1999999+0101REMSYN076AAXX  05124 83339 32497 61411 10179 20153 39208 40186 86200 333 20164 58010;
0137833390999992009070518004-14050-042617FM-12+088299999V0201401N004112200019N0100001N1+02371+01241101421ADDGF103991031021004501001001MA1999999091761MD1999999+0111REMSYN070AAXX  05184 83339 32497 31408 10237 20124 39176 40142 83200 333 58011;
0168833390999992009070600004-14050-042617FM-12+088299999V0201401N004612200019N0020001N1+02041+01291101781ADDGF102991021021004501001001KA1240M+02501MA1999999092011MD1999999+0141REMSYN088AAXX  06004 83339 32495 21409 10204 20129 39201 40178 82200 333 10250 29064 55088 58014;
0156833390999992009070612004-14050-042617FM-12+088299999V0201401N005712200019N0100001N1+01871+01391101931ADDGF103991031021004501001001KA1240N+01561MA1999999092161MD1999999+0081REMSYN076AAXX  06124 83339 32497 31411 10187 20139 39216 40193 83200 333 20156 58008;
0137833390999992009070618004-14050-042617FM-12+088299999V0201401N008712200019N0100001N1+02331+01161101511ADDGF102991021021004501001001MA1999999091831MD1999999+0071REMSYN070AAXX  06184 83339 32497 21417 10233 20116 39183 40151 82200 333 58007;
0168833390999992009070700004-14050-042617FM-12+088299999V0201401N004112200019N0020001N1+01921+01271101581ADDGF102991021021004501001001KA1240M+02251MA1999999091831MD1999999-0181REMSYN088AAXX  07004 83339 32495 21408 10192 20127 39183 40158 82200 333 10225 29064 55101 59018;
0184833390999992009070712004-14050-042617FM-12+088299999V0201401N005110042019N0040001N1+01631+01571101901ADDAY101061AY201061GF108991081051004501999999KA1240N+01581MA1999999092051MD1999999-0111MW1501REMSYN082AAXX  07124 83339 31496 81410 10163 20157 39205 40190 75000 885// 333 20158 59011;
0184833390999992009070718004-14050-042617FM-12+088299999V0201401N006712200019N0100001N1+02131+01461101591ADDAY151061AY251061GF104991999021004501001001MA1999999091851MD1999999+0021MW1021REMSYN076AAXX  07184 83339 31497 41413 10213 20146 39185 40159 70255 85200 333 58002;EQDQ01+000052SCOTLC
0168833390999992009070800004-14050-042617FM-12+088299999V0201401N005110042019N0020001N1+01811+01391101891ADDGF105991051021004501001001KA1240M+02241MA1999999092031MD1999999+0201REMSYN088AAXX  08004 83339 32495 51410 10181 20139 39203 40189 85200 333 10224 29079 55049 58020;
0201833390999992009070812004-14050-042617FM-12+088299999V0200901N005110042019N0040001N1+01491+01431101981ADDAA124002091AY161061AY261061GF108991081051004501999999KA1240N+01461MA1999999092091MD1999999+0041MW1101REMSYN088AAXX  08124 83339 21496 80910 10149 20143 39209 40198 71066 885// 333 20146 58004 60024;
0165833390999992009070818004-14050-042617FM-12+088299999V0200901N002110042019N0040001N1+01951+01641101651ADDAY101061AY201061GF108991081051004501999999MA1999999091851MD1999999+0001MW1101REMSYN076AAXX  08184 83339 31496 80904 10195 20164 39185 40165 71000 885// 333 58000;
0196833390999992009070900004-14050-042617FM-12+088299999V0200901N001510042019N0020001N1+01791+01611101881ADDAY101061AY201061GF106991051021004501031001KA1240M+02021MA1999999092001MD1999999-0031MW1101REMSYN094AAXX  09004 83339 31495 60903 10179 20161 39200 40188 71000 85230 333 10202 29090 55001 59003;
0184833390999992009070912004-14050-042617FM-12+088299999V0201401N006710042019N0040001N1+01651+01491101841ADDAY101061AY201061GF108991081051004501999999KA1240N+01501MA1999999091981MD1999999-0111MW1101REMSYN082AAXX  09124 83339 31496 81413 10165 20149 39198 40184 71000 885// 333 20150 59011;
0137833390999992009070918004-14050-042617FM-12+088299999V0200901N006710042019N0100001N1+02291+01511101521ADDGF106991061021004501001001MA1999999091791MD1999999-0061REMSYN070AAXX  09184 83339 32497 60913 10229 20151 39179 40152 86200 333 59006;
0213833390999992009071000004-14050-042617FM-12+088299999V0201401N001510042019N0020001N1+01771+01591101771ADDAA106005191AY161061AY261061GF108991081051004501999999KA1240M+02341MA1999999091921MD1999999-0081MW1101REMSYN100AAXX  10004 83339 21495 81403 10177 20159 39192 40177 71066 885// 333 10234 29083 55023 59008 60051;
0201833390999992009071012004-14050-042617FM-12+088299999V0201401N006210042019N0040001N1+01651+01491101821ADDAA124005191AY161061AY261061GF107991061021004501021999KA1240N+01521MA1999999091961MD1999999-0021MW1101REMSYN088AAXX  10124 83339 21496 71412 10165 20149 39196 40182 71066 8622/ 333 20152 59002 60054;
0137833390999992009071018004-14050-042617FM-12+088299999V0201401N006210042019N0100001N1+02271+01591101391ADDGF106991061021004501001001MA1999999091671MD1999999-0121REMSYN070AAXX  10184 83339 32497 61412 10227 20159 39167 40139 86200 333 59012;
0196833390999992009071100004-14050-042617FM-12+088299999V0201401N004110042019N0020001N1+01831+01741101631ADDAY101061AY201061GF108991081051004501999999KA1240M+02321MA1999999091811MD1999999-0111MW1501REMSYN094AAXX  11004 83339 31495 81408 10183 20174 39181 40163 75000 885// 333 10232 29087 55051 59011;
0201833390999992009071112004-14050-042617FM-12+088299999V0201401N004610042019N0040001N1+01851+01661101641ADDAA124003091AY161061AY261061GF107991061021004501031001KA1240N+01681MA1999999091881MD1999999-0081MW1101REMSYN088AAXX  11124 83339 21496 71409 10185 20166 39188 40164 71066 86230 333 20168 59008 60034;
0137833390999992009071118004-14050-042617FM-12+088299999V0200901N002610042019N0100001N1+02551+01391101241ADDGF106991061021004501001001MA1999999091621MD1999999-0051REMSYN070AAXX  11184 83339 32497 60905 10255 20139 39162 40124 86200 333 59005;
0184833390999992009071212004-14050-042617FM-12+088299999V0203601N001510042019N0040001N1+01711+01521101661ADDAY101061AY201061GF106991061021004501001001KA1240N+01581MA1999999091901MD1999999+0021MW1101REMSYN082AAXX  12124 83339 31496 63603 10171 20152 39190 40166 71000 86200 333 20158 58002;
0137833390999992009071218004-14050-042617FM-12+088299999V0200901N003612200019N0100001N1+02771+01431101081ADDGF103991031021004501001001MA1999999091541MD1999999-0081REMSYN070AAXX  12184 83339 32497 30907 10277 20143 39154 40108 83200 333 59008;
0178833390999992009071300004-14050-042617FM-12+088299999V0201401N001512200019N0020001N1+02291+01541101431ADDGA1001+999999999GF100991001001999999001001KA1240M+02861MA1999999091731MD1999999-0031REMSYN082AAXX  13004 83339 32995 01403 10229 20154 39173 40143 333 10286 29065 55080 59003;
0156833390999992009071312004-14050-042617FM-12+088299999V0201401N002612200019N0100001N1+02081+01741101661ADDGF102991021011004501001001KA1240N+01621MA1999999092021MD1999999+0121REMSYN076AAXX  13124 83339 32497 21405 10208 20174 39202 40166 82100 333 20162 58012;
0137833390999992009071318004-14050-042617FM-12+088299999V0201401N005712200019N0100001N1+02701+01341101351ADDGF102991021011004501001001MA1999999091801MD1999999+0261REMSYN070AAXX  13184 83339 32497 21411 10270 20134 39180 40135 82100 333 58026;
0178833390999992009071400004-14050-042617FM-12+088299999V0201801N006212200019N0020001N1+02201+01411101691ADDGA1001+999999999GF100991001001999999001001KA1240M+02781MA1999999092031MD1999999+0301REMSYN082AAXX  14004 83339 32995 01812 10220 20141 39203 40169 333 10278 29062 55105 58030;
0156833390999992009071412004-14050-042617FM-12+088299999V0201401N002610042019N0100001N1+01921+01681102051ADDGF106991061021004501001001KA1240N+01781MA1999999092271MD1999999+0251REMSYN076AAXX  14124 83339 32497 61405 10192 20168 39227 40205 86200 333 20178 58025;
0137833390999992009071418004-14050-042617FM-12+088299999V0200901N005110042019N0100001N1+02511+01491101501ADDGF105991051021004501001001MA1999999091891MD1999999+0091REMSYN070AAXX  14184 83339 32497 50910 10251 20149 39189 40150 85200 333 58009;
0178833390999992009071500004-14050-042617FM-12+088299999V0201401N004112200019N0020001N1+02131+01551101691ADDGA1001+999999999GF100991001001999999001001KA1240M+02601MA1999999091991MD1999999-0041REMSYN082AAXX  15004 83339 32995 01408 10213 20155 39199 40169 333 10260 29069 55050 59004;
0156833390999992009071512004-14050-042617FM-12+088299999V0200901N004110042019N0100001N1+01811+01651101861ADDGF108991061021004501021999KA1240N+01701MA1999999092101MD1999999-0171REMSYN076AAXX  15124 83339 32497 80908 10181 20165 39210 40186 8622/ 333 20170 59017;
0137833390999992009071518004-14050-042617FM-12+088299999V0201401N006210042019N0100001N1+02431+01361101451ADDGF105991051021004501001001MA1999999091831MD1999999-0061REMSYN070AAXX  15184 83339 32497 51412 10243 20136 39183 40145 85200 333 59006;
0168833390999992009071600004-14050-042617FM-12+088299999V0201401N004612200019N0020001N1+02051+01281101771ADDGF102991021011004501001001KA1240M+02511MA1999999092021MD1999999+0031REMSYN088AAXX  16004 83339 32495 21409 10205 20128 39202 40177 82100 333 10251 29066 55059 58003;
0201833390999992009071612004-14050-042617FM-12+088299999V0201401N005110042019N0020001N1+01671+01571102041ADDAA124002091AY161061AY241061GF106991061021004501001001KA1240N+01571MA1999999092231MD1999999+0131MW1401REMSYN088AAXX  16124 83339 21495 61410 10167 20157 39223 40204 74064 86200 333 20157 58013 60024;
0165833390999992009071618004-14050-042617FM-12+088299999V0201401N005712200019N0100001N1+02171+01491101691ADDAY141061AY221061GF104991021011004501001011MA1999999091961MD1999999+0131MW1021REMSYN076AAXX  16184 83339 31497 41411 10217 20149 39196 40169 70242 82101 333 58013;
0168833390999992009071700004-14050-042617FM-12+088299999V0201401N007710042019N0020001N1+01931+01421101951ADDGF105991051021004501001001KA1240M+02261MA1999999092121MD1999999+0101REMSYN088AAXX  17004 83339 32495 51415 10193 20142 39212 40195 85200 333 10226 29076 55062 58010;
0201833390999992009071712004-14050-042617FM-12+088299999V0201401N005110042019N0100001N1+01711+01521102071ADDAA124001091AY161061AY221061GF108991061021004501021999KA1240N+01581MA1999999092231MD1999999+0001MW1021REMSYN088AAXX  17124 83339 21497 81410 10171 20152 39223 40207 70262 8622/ 333 20158 58000 60014;
0137833390999992009071718004-14050-042617FM-12+088299999V0200901N004112200019N0100001N1+02321+01451101591ADDGF104991041021004501001001MA1999999091901MD1999999-0061REMSYN070AAXX  17184 83339 32497 40908 10232 20145 39190 40159 84200 333 59006;
0168833390999992009071800004-14050-042617FM-12+088299999V0201401N005710042019N0020001N1+01951+01681101911ADDGF108991051021004501021999KA1240M+02421MA1999999092111MD1999999-0011REMSYN088AAXX  18004 83339 32495 81411 10195 20168 39211 40191 8522/ 333 10242 29079 55066 59001;
0201833390999992009071812004-14050-042617FM-12+088299999V0201401N005110042019N0100001N1+01661+01481102011ADDAA124005191AY161061AY241061GF106991061021004501001001KA1240N+01501MA1999999092171MD1999999-0061MW1021REMSYN088AAXX  18124 83339 21497 61410 10166 20148 39217 40201 70264 86200 333 20150 59006 60054;
0147833390999992009071818004-14050-042617FM-12+088299999V0200901N005112200019N0100001N1+02291+01351101491ADDGA1001+999999999GF100991001001999999001001MA1999999091781MD1999999-0121REMSYN064AAXX  18184 83339 32497 00910 10229 20135 39178 40149 333 59012;
0178833390999992009071900004-14050-042617FM-12+088299999V0209999C000012200019N0020001N1+01791+01271101711ADDGA1001+999999999GF100991001001999999001001KA1240M+02331MA1999999091881MD1999999-0021REMSYN082AAXX  19004 83339 32995 00000 10179 20127 39188 40171 333 10233 29072 55084 59002;
0166833390999992009071912004-14050-042617FM-12+088299999V0200501N000512200019N0100001N1+01841+01471101691ADDGA1001+999999999GF100991001001999999001001KA1240N+01411MA1999999091891MD1999999-0281REMSYN070AAXX  19124 83339 32997 00501 10184 20147 39189 40169 333 20141 59028;
0137833390999992009071918004-14050-042617FM-12+088299999V0203201N001512200019N0100001N1+02651+00971101171ADDGF102991021011004501001001MA1999999091541MD1999999-0241REMSYN070AAXX  19184 83339 32497 23203 10265 20097 39154 40117 82100 333 59024;
0178833390999992009072000004-14050-042617FM-12+088299999V0201801N001512200019N0020001N1+02131+01031101391ADDGA1001+999999999GF100991001001999999001001KA1240M+02701MA1999999091691MD1999999-0191REMSYN082AAXX  20004 83339 32995 01803 10213 20103 39169 40139 333 10270 29053 55106 59019;
0156833390999992009072012004-14050-042617FM-12+088299999V0200501N000512200019N0100001N1+01971+01531101521ADDGF102991011021004501021001KA1240N+01461MA1999999091841MD1999999-0051REMSYN076AAXX  20124 83339 32497 20501 10197 20153 39184 40152 81220 333 20146 59005;
0137833390999992009072018004-14050-042617FM-12+088299999V0201401N003612200019N0100001N1+02771+00991101041ADDGF102991021021004501001001MA1999999091501MD1999999-0041REMSYN070AAXX  20184 83339 32497 21407 10277 20099 39150 40104 82200 333 59004;
0178833390999992009072100004-14050-042617FM-12+088299999V0201801N000512200019N0020001N1+02211+01021101321ADDGA1001+999999999GF100991001001999999001001KA1240M+02351MA1999999091671MD1999999-0021REMSYN082AAXX  21004 83339 32995 01801 10221 20102 39167 40132 333 10235 29051 55104 59002;
0184833390999992009072112004-14050-042617FM-12+088299999V0201401N003110042019N0040001N1+01831+01561101611ADDAY101061AY201061GF106991051021004501021001KA1240N+01731MA1999999091891MD1999999+0051MW1101REMSYN082AAXX  21124 83339 31496 61406 10183 20156 39189 40161 71000 85220 333 20173 58005;
0137833390999992009072118004-14050-042617FM-12+088299999V0201401N006212200019N0100001N1+02551+01451101131ADDGF102991021021004501001001MA1999999091561MD1999999+0061REMSYN070AAXX  21184 83339 32497 21412 10255 20145 39156 40113 82200 333 58006;
0178833390999992009072200004-14050-042617FM-12+088299999V0201401N004612200019N0020001N1+02191+01321101471ADDGA1001+999999999GF100991001001999999001001KA1240M+02631MA1999999091761MD1999999+0091REMSYN082AAXX  22004 83339 32995 01409 10219 20132 39176 40147 333 10263 29063 55081 58009;
0156833390999992009072212004-14050-042617FM-12+088299999V0201401N002610042019N0100001N1+01911+01531101701ADDGF106991061021004501001001KA1240N+01741MA1999999092001MD1999999+0111REMSYN076AAXX  22124 83339 32497 61405 10191 20153 39200 40170 86200 333 20174 58011;
0137833390999992009072218004-14050-042617FM-12+088299999V0201801N003112200019N0100001N1+02651+01281101151ADDGF103991031021004501001001MA1999999091601MD1999999+0041REMSYN070AAXX  22184 83339 32497 31806 10265 20128 39160 40115 83200 333 58004;
0178833390999992009072300004-14050-042617FM-12+088299999V0201801N002612200019N0020001N1+02171+01251101441ADDGA1001+999999999GF100991001001999999001001KA1240M+02781MA1999999091761MD1999999+0001REMSYN082AAXX  23004 83339 32995 01805 10217 20125 39176 40144 333 10278 29058 55095 58000;
0184833390999992009072312004-14050-042617FM-12+088299999V0200901N003110042019N0040001N1+01851+01641101541ADDAY101061AY201061GF106991061021004501001001KA1240N+01681MA1999999091831MD1999999-0171MW1101REMSYN082AAXX  23124 83339 31496 60906 10185 20164 39183 40154 71000 86200 333 20168 59017;
0137833390999992009072318004-14050-042617FM-12+088299999V0200901N003612200019N0100001N1+02671+01231100991ADDGF102991021011004501001001MA1999999091451MD1999999-0151REMSYN070AAXX  23184 83339 32497 20907 10267 20123 39145 40099 82100 333 59015;
0178833390999992009072400004-14050-042617FM-12+088299999V0201401N001512200019N0020001N1+02191+01121101351ADDGA1001+999999999GF100991001001999999001001KA1240M+02761MA1999999091651MD1999999-0111REMSYN082AAXX  24004 83339 32995 01403 10219 20112 39165 40135 333 10276 29058 55084 59011;
0184833390999992009072412004-14050-042617FM-12+088299999V0200901N001510042019N0040001N1+01771+01591101571ADDAY101061AY201061GF108991081051004501999999KA1240N+01561MA1999999091851MD1999999+0021MW1101REMSYN082AAXX  24124 83339 31496 80903 10177 20159 39185 40157 71000 885// 333 20156 58002;
0137833390999992009072418004-14050-042617FM-12+088299999V0201401N003612200019N0100001N1+02691+01141101071ADDGF102991021021004501001001MA1999999091531MD1999999+0081REMSYN070AAXX  24184 83339 32497 21407 10269 20114 39153 40107 82200 333 58008;
0178833390999992009072500004-14050-042617FM-12+088299999V0200901N001512200019N0020001N1+02211+01171101421ADDGA1001+999999999GF100991001001999999001001KA1240M+02781MA1999999091721MD1999999+0071REMSYN082AAXX  25004 83339 32995 00903 10221 20117 39172 40142 333 10278 29058 55075 58007;
0184833390999992009072512004-14050-042617FM-12+088299999V0201401N003110042019N0040001N1+01791+01611101791ADDAY101061AY201061GF108991081051004501999999KA1240N+01661MA1999999092051MD1999999+0201MW1101REMSYN082AAXX  25124 83339 31496 81406 10179 20161 39205 40179 71000 885// 333 20166 58020;
0137833390999992009072518004-14050-042617FM-12+088299999V0201401N005712200019N0100001N1+02551+01161101271ADDGF103991031021004501001001MA1999999091681MD1999999+0151REMSYN070AAXX  25184 83339 32497 31411 10255 20116 39168 40127 83200 333 58015;
0178833390999992009072600004-14050-042617FM-12+088299999V0201401N001512200019N0020001N1+01991+01461101681ADDGA1001+999999999GF100991001001999999001001KA1240M+02651MA1999999091921MD1999999+0201REMSYN082AAXX  26004 83339 32995 01403 10199 20146 39192 40168 333 10265 29069 55077 58020;
0184833390999992009072612004-14050-042617FM-12+088299999V0201401N006710042019N0200001N1+01771+01491101911ADDAY101061AY201061GF106991061021004501001001KA1240N+01601MA1999999092131MD1999999+0081MW1101REMSYN082AAXX  26124 83339 31498 61413 10177 20149 39213 40191 71000 86200 333 20160 58008;
0137833390999992009072618004-14050-042617FM-12+088299999V0200501N003112200019N0100001N1+02471+01011101441ADDGF102991021011004501001001MA1999999091801MD1999999+0121REMSYN070AAXX  26184 83339 32497 20506 10247 20101 39180 40144 82100 333 58012;
0178833390999992009072700004-14050-042617FM-12+088299999V0201801N004112200019N0020001N1+02051+01191101681ADDGA1001+999999999GF100991001001999999001001KA1240M+02561MA1999999091921MD1999999+0001REMSYN082AAXX  27004 83339 32995 01808 10205 20119 39192 40168 333 10256 29060 55078 58000;
0166833390999992009072712004-14050-042617FM-12+088299999V0201401N003112200019N0020001N1+02001+01391101831ADDGA1001+999999999GF100991001001999999001001KA1240N+01421MA1999999092091MD1999999-0041REMSYN070AAXX  27124 83339 32995 01406 10200 20139 39209 40183 333 20142 59004;
0147833390999992009072718004-14050-042617FM-12+088299999V0200501N001012200019N0100001N1+02761+01161101281ADDGA1001+999999999GF100991001001999999001001MA1999999091691MD1999999-0111REMSYN064AAXX  27184 83339 32997 00502 10276 20116 39169 40128 333 59011;
0178833390999992009072800004-14050-042617FM-12+088299999V0201401N004112200019N0020001N1+02261+01201101551ADDGA1001+999999999GF100991001001999999001001KA1240M+02801MA1999999091901MD1999999-0021REMSYN082AAXX  28004 83339 32995 01408 10226 20120 39190 40155 333 10280 29052 55107 59002;
0166833390999992009072812004-14050-042617FM-12+088299999V0200901N002612200019N0100001N1+02131+01551101621ADDGA1001+999999999GF100991001001999999001001KA1240N+01521MA1999999091981MD1999999-0111REMSYN070AAXX  28124 83339 32997 00905 10213 20155 39198 40162 333 20152 59011;
0137833390999992009072818004-14050-042617FM-12+088299999V0201401N004112200019N0100001N1+02711+01351101191ADDGF102991021011004501001001MA1999999091641MD1999999-0051REMSYN070AAXX  28184 83339 32497 21408 10271 20135 39164 40119 82100 333 59005;
0178833390999992009072900004-14050-042617FM-12+088299999V0201401N002612200019N0020001N1+02171+01211101471ADDGA1001+999999999GF100991001001999999001001KA1240M+02811MA1999999091831MD1999999-0071REMSYN082AAXX  29004 83339 32995 01405 10217 20121 39183 40147 333 10281 29055 55108 59007;
0156833390999992009072912004-14050-042617FM-12+088299999V0201401N004610042019N0100001N1+01671+01501101811ADDGF106991061021004501001001KA1240N+01401MA1999999092041MD1999999+0061REMSYN076AAXX  29124 83339 32497 61409 10167 20150 39204 40181 86200 333 20140 58006;
0147833390999992009072918004-14050-042617FM-12+088299999V0201401N004612200019N0100001N1+02651+01031101281ADDGA1001+999999999GF100991001001999999001001MA1999999091671MD1999999+0031REMSYN064AAXX  29184 83339 32997 01409 10265 20103 39167 40128 333 58003;
0178833390999992009073000004-14050-042617FM-12+088299999V0201401N000512200019N0020001N1+02141+00801101661ADDGA1001+999999999GF100991001001999999001001KA1240M+02761MA1999999091901MD1999999+0071REMSYN082AAXX  30004 83339 32995 01401 10214 20080 39190 40166 333 10276 29052 55081 58007;
0184833390999992009073012004-14050-042617FM-12+088299999V0200901N002610042019N0020001N1+01661+01501101841ADDAY121061AY221061GF108991051021004501021999KA1240N+01381MA1999999092061MD1999999+0021MW1401REMSYN082AAXX  30124 83339 31495 80905 10166 20150 39206 40184 74022 8522/ 333 20138 58002;
0175833390999992009073018004-14050-042617FM-12+088299999V0200901N007212200019N0100001N1+02791+00881101241ADDAY141061AY221061GA1001+999999999GF100991001001999999001001MA1999999091681MD1999999+0011MW1021REMSYN070AAXX  30184 83339 31497 00914 10279 20088 39168 40124 70242 333 58001;
0178833390999992009073100004-14050-042617FM-12+088299999V0201401N001512200019N0020001N1+02151+00981101741ADDGA1001+999999999GF100991001001999999001001KA1240M+02841MA1999999091971MD1999999+0071REMSYN082AAXX  31004 83339 32995 01403 10215 20098 39197 40174 333 10284 29054 55082 58007;
0156833390999992009073112004-14050-042617FM-12+088299999V0201401N005119999999N0100001N1+01671+01461102001ADDGF106991061021999999001001KA1240N+01521MA1999999092211MD1999999+0051REMSYN076AAXX  31124 83339 32997 61410 10167 20146 39221 40200 86200 333 20152 58005;
0147833390999992009073118004-14050-042617FM-12+088299999V0200901N005112200019N0100001N1+02541+01161101451ADDGA1001+999999999GF100991001001999999001001MA1999999091831MD1999999+0151REMSYN064AAXX  31184 83339 32997 00910 10254 20116 39183 40145 333 58015;
0178833390999992009080100004-14050-042617FM-12+088299999V0201401N006712200019N0020001N1+02041+01261101791ADDGA1001+999999999GF100991001001999999001001KA1240M+02561MA1999999092001MD1999999+0031REMSYN082AAXX  01004 83339 32995 01413 10204 20126 39200 40179 333 10256 29063 55084 58003;
0156833390999992009080112004-14050-042617FM-12+088299999V0201401N005110042019N0100001N1+01821+01551101901ADDGF108991051021004501021999KA1240N+01641MA1999999092141MD1999999-0071REMSYN076AAXX  01124 83339 32497 81410 10182 20155 39214 40190 8522/ 333 20164 59007;
0137833390999992009080118004-14050-042617FM-12+088299999V0201401N006712200019N0100001N1+02551+01531101541ADDGF104991041021004501001001MA1999999091771MD1999999-0061REMSYN070AAXX  01184 83339 32497 41413 10255 20153 39177 40154 84200 333 59006;
0168833390999992009080200004-14050-042617FM-12+088299999V0201401N004610042019N0020001N1+02101+01551101781ADDGF105991051021004501001001KA1240M+02641MA1999999092031MD1999999+0031REMSYN088AAXX  02004 83339 32495 51409 10210 20155 39203 40178 85200 333 10264 29070 55049 58003;
0156833390999992009080212004-14050-042617FM-12+088299999V0201401N005110042019N0100001N1+01791+01581101951ADDGF106991061021004501001001KA1240N+01631MA1999999092181MD1999999+0041REMSYN076AAXX  02124 83339 32497 61410 10179 20158 39218 40195 86200 333 20163 58004;
0137833390999992009080218004-14050-042617FM-12+088299999V0200901N006712200019N0100001N1+02521+01241101381ADDGF102991021021004501001001MA1999999091811MD1999999+0041REMSYN070AAXX  02184 83339 32497 20913 10252 20124 39181 40138 82200 333 58004;
0178833390999992009080300004-14050-042617FM-12+088299999V0201401N004112200019N0020001N1+02091+01511101851ADDGA1001+999999999GF100991001001999999001001KA1240M+02541MA1999999092091MD1999999+0061REMSYN082AAXX  03004 83339 32995 01408 10209 20151 39209 40185 333 10254 29068 55066 58006;
0156833390999992009080312004-14050-042617FM-12+088299999V0200501N005112200019N0100001N1+01971+01571101931ADDGF104991041021004501001001KA1240N+01721MA1999999092201MD1999999+0021REMSYN076AAXX  03124 83339 32497 40510 10197 20157 39220 40193 84200 333 20172 58002;
0137833390999992009080318004-14050-042617FM-12+088299999V0201401N006712200019N0100001N1+02691+01211101431ADDGF102991021021004501001001MA1999999091851MD1999999+0041REMSYN070AAXX  03184 83339 32497 21413 10269 20121 39185 40143 82200 333 58004;
0178833390999992009080400004-14050-042617FM-12+088299999V0200901N001512200019N0020001N1+02111+01021101631ADDGA1001+999999999GF100991001001999999001001KA1240M+02661MA1999999091941MD1999999-0151REMSYN082AAXX  04004 83339 32995 00903 10211 20102 39194 40163 333 10266 29054 55094 59015;
0156833390999992009080412004-14050-042617FM-12+088299999V0201401N004610042019N0100001N1+01891+01451101741ADDGF105991051021004501001001KA1240N+01461MA1999999092011MD1999999-0191REMSYN076AAXX  04124 83339 32497 51409 10189 20145 39201 40174 85200 333 20146 59019;
0137833390999992009080418004-14050-042617FM-12+088299999V0201401N005112200019N0100001N1+02611+01101101331ADDGF104991031021004501021001MA1999999091721MD1999999-0131REMSYN070AAXX  04184 83339 32497 41410 10261 20110 39172 40133 83220 333 59013;
0168833390999992009080500004-14050-042617FM-12+088299999V0201801N005110042019N0020001N1+02131+00881101551ADDGF106991051021004501021001KA1240M+02651MA1999999091841MD1999999-0101REMSYN088AAXX  05004 83339 32495 61810 10213 20088 39184 40155 85220 333 10265 29051 55083 59010;
0156833390999992009080512004-14050-042617FM-12+088299999V0201401N006212200019N0100001N1+01811+01391101751ADDGF104991041021004501001001KA1240N+01521MA1999999092001MD1999999-0011REMSYN076AAXX  05124 83339 32497 41412 10181 20139 39200 40175 84200 333 20152 59001;
0147833390999992009080518004-14050-042617FM-12+088299999V0200901N007212200019N0100001N1+02591+00741101261ADDGA1001+999999999GF100991001001999999001001MA1999999091651MD1999999-0071REMSYN064AAXX  05184 83339 32997 00914 10259 20074 39165 40126 333 59007;
0178833390999992009080600004-14050-042617FM-12+088299999V0200901N002612200019N0020001N1+02071+00981101551ADDGA1001+999999999GF100991001001999999001001KA1240M+02671MA1999999091821MD1999999-0021REMSYN082AAXX  06004 83339 32995 00905 10207 20098 39182 40155 333 10267 29052 55103 59002;
0156833390999992009080612004-14050-042617FM-12+088299999V0201401N003610042019N0100001N1+01851+01411101811ADDGF106991061021004501001001KA1240N+01621MA1999999092051MD1999999+0051REMSYN076AAXX  06124 83339 32497 61407 10185 20141 39205 40181 86200 333 20162 58005;
0137833390999992009080618004-14050-042617FM-12+088299999V0201401N003612200019N0100001N1+02611+01021101341ADDGF104991041021004501001001MA1999999091731MD1999999+0081REMSYN070AAXX  06184 83339 32497 41407 10261 20102 39173 40134 84200 333 58008;
0168833390999992009080700004-14050-042617FM-12+088299999V0201801N003112200019N0020001N1+02171+01011101581ADDGF102991021021004501001001KA1240M+02721MA1999999091861MD1999999+0041REMSYN088AAXX  07004 83339 32495 21806 10217 20101 39186 40158 82200 333 10272 29052 55083 58004;
0156833390999992009080712004-14050-042617FM-12+088299999V0201401N004612200019N0100001N1+02051+01501101721ADDGF102991021021004501001001KA1240N+01641MA1999999092041MD1999999-0011REMSYN076AAXX  07124 83339 32497 21409 10205 20150 39204 40172 82200 333 20164 59001;
0147833390999992009080718004-14050-042617FM-12+088299999V0201401N007712200019N0100001N1+02631+00871101311ADDGA1001+999999999GF100991001001999999001001MA1999999091721MD1999999-0011REMSYN064AAXX  07184 83339 32997 01415 10263 20087 39172 40131 333 59001;
0168833390999992009080800004-14050-042617FM-12+088299999V0201401N004612200019N0020001N1+02191+01001101601ADDGF102991021021004501001001KA1240M+02741MA1999999091931MD1999999+0071REMSYN088AAXX  08004 83339 32495 21409 10219 20100 39193 40160 82200 333 10274 29050 55105 58007;
0184833390999992009080812004-14050-042617FM-12+088299999V0201401N006210042019N0040001N1+01731+01501101901ADDAY101061AY201061GF108991081051004501999999KA1240N+01621MA1999999092141MD1999999+0101MW1501REMSYN082AAXX  08124 83339 31496 81412 10173 20150 39214 40190 75000 885// 333 20162 58010;
0165833390999992009080818004-14050-042617FM-12+088299999V0200901N007212200019N0100001N1+02461+01351101531ADDAY151061AY251061GF103991031021004501001001MA1999999091901MD1999999+0181MW1021REMSYN076AAXX  08184 83339 31497 30914 10246 20135 39190 40153 70255 83200 333 58018;
0178833390999992009080900004-14050-042617FM-12+088299999V0201401N005712200019N0020001N1+02151+01201101661ADDGA1001+999999999GF100991001001999999001001KA1240M+02541MA1999999091921MD1999999-0011REMSYN082AAXX  09004 83339 32995 01411 10215 20120 39192 40166 333 10254 29062 55056 59001;
0156833390999992009080912004-14050-042617FM-12+088299999V0201401N004612200019N0100001N1+01851+01411101811ADDGF102991021021004501001001KA1240N+01521MA1999999092071MD1999999-0071REMSYN076AAXX  09124 83339 32497 21409 10185 20141 39207 40181 82200 333 20152 59007;
0137833390999992009080918004-14050-042617FM-12+088299999V0201401N003612200019N0100001N1+02611+00851101321ADDGF102991021011004501001001MA1999999091711MD1999999-0191REMSYN070AAXX  09184 83339 32497 21407 10261 20085 39171 40132 82100 333 59019;
0178833390999992009081000004-14050-042617FM-12+088299999V0201401N003612200019N0020001N1+02231+01041101551ADDGA1001+999999999GF100991001001999999001001KA1240M+02681MA1999999091861MD1999999-0061REMSYN082AAXX  10004 83339 32995 01407 10223 20104 39186 40155 333 10268 29051 55105 59006;
0156833390999992009081012004-14050-042617FM-12+088299999V0201401N004110042019N0100001N1+01801+01561101811ADDGF106991061021004501001001KA1240N+01641MA1999999092071MD1999999+0001REMSYN076AAXX  10124 83339 32497 61408 10180 20156 39207 40181 86200 333 20164 58000;
0137833390999992009081018004-14050-042617FM-12+088299999V0200501N002112200019N0100001N1+02721+01081101251ADDGF102991021011004501001001MA1999999091711MD1999999+0001REMSYN070AAXX  10184 83339 32497 20504 10272 20108 39171 40125 82100 333 58000;
0178833390999992009081100004-14050-042617FM-12+088299999V0209999C000012200019N0020001N1+02151+01071101551ADDGA1001+999999999GF100991001001999999001001KA1240M+02781MA1999999091841MD1999999-0021REMSYN082AAXX  11004 83339 32995 00000 10215 20107 39184 40155 333 10278 29056 55072 59002;
0166833390999992009081112004-14050-042617FM-12+088299999V0201401N001512200019N0100001N1+02131+01431101651ADDGA1001+999999999GF100991001001999999001001KA1240N+01471MA1999999091991MD1999999-0081REMSYN070AAXX  11124 83339 32997 01403 10213 20143 39199 40165 333 20147 59008;
0147833390999992009081118004-14050-042617FM-12+088299999V0201401N004612200019N0100001N1+02811+01091101221ADDGA1001+999999999GF100991001001999999001001MA1999999091661MD1999999-0051REMSYN064AAXX  11184 83339 32997 01409 10281 20109 39166 40122 333 59005;
0178833390999992009081200004-14050-042617FM-12+088299999V0201401N006712200019N0020001N1+02231+01151101561ADDGA1001+999999999GF100991001001999999001001KA1240M+02861MA1999999091931MD1999999+0091REMSYN082AAXX  12004 83339 32995 01413 10223 20115 39193 40156 333 10286 29050 55108 58009;
0166833390999992009081212004-14050-042617FM-12+088299999V0200901N006712200019N0100001N1+01971+01001101961ADDGA1001+999999999GF100991001001999999001001KA1240N+01531MA1999999092251MD1999999+0261REMSYN070AAXX  12124 83339 32997 00913 10197 20100 39225 40196 333 20153 58026;
0137833390999992009081218004-14050-042617FM-12+088299999V0201401N006212200019N0100001N1+02431+01201101581ADDGF103991031021004501001001MA1999999091931MD1999999+0271REMSYN070AAXX  12184 83339 32497 31412 10243 20120 39193 40158 83200 333 58027;
0168833390999992009081300004-14050-042617FM-12+088299999V0201401N005112200019N0020001N1+01991+01251101871ADDGF102991021021004501001001KA1240M+02561MA1999999092131MD1999999+0201REMSYN088AAXX  13004 83339 32495 21410 10199 20125 39213 40187 82200 333 10256 29056 55105 58020;
0156833390999992009081312004-14050-042617FM-12+088299999V0201401N006710042019N0100001N1+01751+01451102081ADDGF105991051021004501001001KA1240N+01561MA1999999092251MD1999999+0001REMSYN076AAXX  13124 83339 32497 51413 10175 20145 39225 40208 85200 333 20156 58000;
0137833390999992009081318004-14050-042617FM-12+088299999V0200901N006712200019N0100001N1+02351+01321101611ADDGF102991021021004501001001MA1999999091921MD1999999-0011REMSYN070AAXX  13184 83339 32497 20913 10235 20132 39192 40161 82200 333 59001;
0168833390999992009081400004-14050-042617FM-12+088299999V0201401N008710042019N0020001N1+01851+01571101971ADDGF106991061021004501001001KA1240M+02441MA1999999092071MD1999999-0061REMSYN088AAXX  14004 83339 32495 61417 10185 20157 39207 40197 86200 333 10244 29075 55081 59006;
0156833390999992009081412004-14050-042617FM-12+088299999V0200901N006710042019N0100001N1+01801+01311101901ADDGF106991061021004501001001KA1240N+01511MA1999999092071MD1999999-0181REMSYN076AAXX  14124 83339 32497 60913 10180 20131 39207 40190 86200 333 20151 59018;
0137833390999992009081418004-14050-042617FM-12+088299999V0201401N005112200019N0100001N1+02331+01241101381ADDGF102991021011004501001001MA1999999091681MD1999999-0241REMSYN070AAXX  14184 83339 32497 21410 10233 20124 39168 40138 82100 333 59024;
0178833390999992009081500004-14050-042617FM-12+088299999V0201401N005712200019N0020001N1+02031+01311101521ADDGA1001+999999999GF100991001001999999001001KA1240M+02381MA1999999091771MD1999999-0301REMSYN082AAXX  15004 83339 32995 01411 10203 20131 39177 40152 333 10238 29062 55092 59030;
0156833390999992009081512004-14050-042617FM-12+088299999V0201401N004610042019N0100001N1+01641+01331101831ADDGF106991061021004501001001KA1240N+01501MA1999999092041MD1999999-0031REMSYN076AAXX  15124 83339 32497 61409 10164 20133 39204 40183 86200 333 20150 59003;
0137833390999992009081518004-14050-042617FM-12+088299999V0201401N005712200019N0100001N1+02391+01071101271ADDGF102991011011004501001011MA1999999091621MD1999999-0061REMSYN070AAXX  15184 83339 32497 21411 10239 20107 39162 40127 81101 333 59006;
0178833390999992009081600004-14050-042617FM-12+088299999V0201401N007712200019N0020001N1+02031+01161101591ADDGA1001+999999999GF100991001001999999001001KA1240M+02461MA1999999091821MD1999999+0051REMSYN082AAXX  16004 83339 32995 01415 10203 20116 39182 40159 333 10246 29060 55073 58005;
0156833390999992009081612004-14050-042617FM-12+088299999V0201401N006210042019N0100001N1+01731+01571101901ADDGF108991061021004501021999KA1240N+01561MA1999999092121MD1999999+0081REMSYN076AAXX  16124 83339 32497 81412 10173 20157 39212 40190 8622/ 333 20156 58008;
0137833390999992009081618004-14050-042617FM-12+088299999V0200901N006212200019N0100001N1+02381+01361101381ADDGF103991031021004501001001MA1999999091731MD1999999+0111REMSYN070AAXX  16184 83339 32497 30912 10238 20136 39173 40138 83200 333 58011;
0178833390999992009081700004-14050-042617FM-12+088299999V0201401N003112200019N0020001N1+01871+01361101711ADDGA1001+999999999GF100991001001999999001001KA1240M+02461MA1999999091921MD1999999+0101REMSYN082AAXX  17004 83339 32995 01406 10187 20136 39192 40171 333 10246 29072 55062 58010;
0184833390999992009081712004-14050-042617FM-12+088299999V0201401N005110042019N0040001N1+01631+01401101811ADDAY101061AY201061GF108991081051004501999999KA1240N+01501MA1999999091981MD1999999-0141MW1101REMSYN082AAXX  17124 83339 31496 81410 10163 20140 39198 40181 71000 885// 333 20150 59014;
0137833390999992009081718004-14050-042617FM-12+088299999V0201401N007210042019N0100001N1+02391+01241101211ADDGF105991051021004501001001MA1999999091551MD1999999-0181REMSYN070AAXX  17184 83339 32497 51414 10239 20124 39155 40121 85200 333 59018;
0168833390999992009081800004-14050-042617FM-12+088299999V0201401N003612200019N0020001N1+02051+01261101491ADDGF102991021021004501001001KA1240M+02501MA1999999091731MD1999999-0191REMSYN088AAXX  18004 83339 32495 21407 10205 20126 39173 40149 82200 333 10250 29064 55073 59019;
0156833390999992009081812004-14050-042617FM-12+088299999V0200901N004610042019N0100001N1+01931+01401101581ADDGF106991061021004501001001KA1240N+01621MA1999999091871MD1999999-0121REMSYN076AAXX  18124 83339 32497 60909 10193 20140 39187 40158 86200 333 20162 59012;
0137833390999992009081818004-14050-042617FM-12+088299999V0200501N004112200019N0100001N1+02651+01091100951ADDGF103991031021004501001001MA1999999091401MD1999999-0151REMSYN070AAXX  18184 83339 32497 30508 10265 20109 39140 40095 83200 333 59015;
0178833390999992009081900004-14050-042617FM-12+088299999V0201401N004612200019N0020001N1+02211+01231101171ADDGA1001+999999999GF100991001001999999001001KA1240M+02721MA1999999091521MD1999999-0211REMSYN082AAXX  19004 83339 32995 01409 10221 20123 39152 40117 333 10272 29054 55073 59021;
0166833390999992009081912004-14050-042617FM-12+088299999V0201401N002612200019N0100001N1+02111+01461101261ADDGA1001+999999999GF100991001001999999001001KA1240N+01501MA1999999091641MD1999999-0221REMSYN070AAXX  19124 83339 32997 01405 10211 20146 39164 40126 333 20150 59022;
0137833390999992009081918004-14050-042617FM-12+088299999V0201401N005712200019N0100001N1+02891+01181100771ADDGF103991031021004501001001MA1999999091271MD1999999-0131REMSYN070AAXX  19184 83339 32497 31411 10289 20118 39127 40077 83200 333 59013;
0168833390999992009082000004-14050-042617FM-12+088299999V0201401N002612200019N0020001N1+02431+01281100981ADDGF102991021021004501001001KA1240M+03021MA1999999091431MD1999999-0091REMSYN088AAXX  20004 83339 32495 21405 10243 20128 39143 40098 82200 333 10302 29050 55103 59009;
0156833390999992009082012004-14050-042617FM-12+088299999V0201401N003112200019N0100001N1+02151+01701101171ADDGF102991011021004501001021KA1240N+01661MA1999999091621MD1999999-0021REMSYN076AAXX  20124 83339 32497 21406 10215 20170 39162 40117 81202 333 20166 59002;
0137833390999992009082018004-14050-042617FM-12+088299999V0200501N001512200019N0100001N1+03071+01251100641ADDGF104991041021004501001001MA1999999091241MD1999999-0031REMSYN070AAXX  20184 83339 32497 40503 10307 20125 39124 40064 84200 333 59003;
0178833390999992009082100004-14050-042617FM-12+088299999V0201401N003112200019N0020001N1+02571+01061100931ADDGA1001+999999999GF100991001001999999001001KA1240M+03121MA1999999091421MD1999999-0011REMSYN082AAXX  21004 83339 32995 01406 10257 20106 39142 40093 333 10312 29047 55084 59001;
0156833390999992009082112004-14050-042617FM-12+088299999V0200501N000512200019N0100001N1+02331+01631101101ADDGF102991011021004501001021KA1240N+01801MA1999999091611MD1999999-0011REMSYN076AAXX  21124 83339 32497 20501 10233 20163 39161 40110 81202 333 20180 59001;
0137833390999992009082118004-14050-042617FM-12+088299999V0203201N003112200019N0100001N1+03271+01061100491ADDGF104991041021004501001001MA1999999091151MD1999999-0091REMSYN070AAXX  21184 83339 32497 43206 10327 20106 39115 40049 84200 333 59009;
0178833390999992009082200004-14050-042617FM-12+088299999V0202701N002612200019N0020001N1+02691+00961100801ADDGA1001+999999999GF100991001001999999001001KA1240M+03411MA1999999091361MD1999999-0061REMSYN082AAXX  22004 83339 32995 02705 10269 20096 39136 40080 333 10341 29040 55107 59006;
0156833390999992009082212004-14050-042617FM-12+088299999V0201401N006212200019N0100001N1+02311+01611101011ADDGF102991021021004501001001KA1240N+01941MA1999999091521MD1999999-0091REMSYN076AAXX  22124 83339 32497 21412 10231 20161 39152 40101 82200 333 20194 59009;
0137833390999992009082218004-14050-042617FM-12+088299999V0201401N008212200019N0100001N1+02631+00871100831ADDGF104991041021004501001001MA1999999091361MD1999999+0211REMSYN070AAXX  22184 83339 32497 41416 10263 20087 39136 40083 84200 333 58021;
0168833390999992009082300004-14050-042617FM-12+088299999V0201401N011310042019N0020001N1+01951+01571101261ADDGF106991061021004501001001KA1240M+02751MA1999999091641MD1999999+0281REMSYN088AAXX  23004 83339 32495 61422 10195 20157 39164 40126 86200 333 10275 29064 55102 58028;
0201833390999992009082312004-14050-042617FM-12+088299999V0201401N008210042019N0040001N1+01691+01551101551ADDAA124000591AY101061AY201061GF108991081051004501999999KA1240N+01581MA1999999091761MD1999999+0241MW1501REMSYN088AAXX  23124 83339 21496 81416 10169 20155 39176 40155 75000 885// 333 20158 58024 69964;
0165833390999992009082318004-14050-042617FM-12+088299999V0201401N008210042019N0040001N1+02161+01571101221ADDAY151061AY251061GF108991081051004501999999MA1999999091521MD1999999+0161MW1021REMSYN076AAXX  23184 83339 31496 81416 10216 20157 39152 40122 70255 885// 333 58016;
0196833390999992009082400004-14050-042617FM-12+088299999V0201401N006210042019N0020001N1+01871+01731101461ADDAY101061AY201061GF108991081051004501999999KA1240M+02281MA1999999091681MD1999999+0041MW1501REMSYN094AAXX  24004 83339 31495 81412 10187 20173 39168 40146 75000 885// 333 10228 29086 55002 58004;
0201833390999992009082412004-14050-042617FM-12+088299999V0201401N007210042019N0100001N1+01971+01611101721ADDAA124000591AY161061AY221061GF108991061021004501021999KA1240N+01691MA1999999091951MD1999999+0191MW1021REMSYN088AAXX  24124 83339 21497 81414 10197 20161 39195 40172 70262 8622/ 333 20169 58019 69964;
0137833390999992009082418004-14050-042617FM-12+088299999V0200901N004612200019N0100001N1+02451+01521101271ADDGF104991041011004501001001MA1999999091631MD1999999+0111REMSYN070AAXX  24184 83339 32497 40909 10245 20152 39163 40127 84100 333 58011;
0178833390999992009082500004-14050-042617FM-12+088299999V0201401N002612200019N0020001N1+02111+01511101431ADDGA1001+999999999GF100991001001999999001001KA1240M+02581MA1999999091751MD1999999+0051REMSYN082AAXX  25004 83339 32995 01405 10211 20151 39175 40143 333 10258 29068 55041 58005;
0156833390999992009082512004-14050-042617FM-12+088299999V0200901N005712200019N0100001N1+02191+01461101571ADDGF102991021011004501001001KA1240N+01741MA1999999091921MD1999999-0031REMSYN076AAXX  25124 83339 32497 20911 10219 20146 39192 40157 82100 333 20174 59003;
0137833390999992009082518004-14050-042617FM-12+088299999V0201401N003112200019N0100001N1+02671+01241101081ADDGF102991021011004501001001MA1999999091541MD1999999-0091REMSYN070AAXX  25184 83339 32497 21406 10267 20124 39154 40108 82100 333 59009;
0178833390999992009082600004-14050-042617FM-12+088299999V0201401N003112200019N0020001N1+02261+01231101371ADDGA1001+999999999GF100991001001999999001001KA1240M+02781MA1999999091751MD1999999+0001REMSYN082AAXX  26004 83339 32995 01406 10226 20123 39175 40137 333 10278 29052 55107 58000;
0156833390999992009082612004-14050-042617FM-12+088299999V0201401N005110042019N0100001N1+01841+01471101651ADDGF106991061021004501001001KA1240N+01581MA1999999091931MD1999999+0011REMSYN076AAXX  26124 83339 32497 61410 10184 20147 39193 40165 86200 333 20158 58001;
0137833390999992009082618004-14050-042617FM-12+088299999V0200901N007212200019N0100001N1+02631+01131101151ADDGF103991011011004501001011MA1999999091601MD1999999+0061REMSYN070AAXX  26184 83339 32497 30914 10263 20113 39160 40115 81101 333 58006;
0178833390999992009082700004-14050-042617FM-12+088299999V0201401N005112200019N0020001N1+02141+01381101631ADDGA1001+999999999GF100991001001999999001001KA1240M+02721MA1999999091911MD1999999+0161REMSYN082AAXX  27004 83339 32995 01410 10214 20138 39191 40163 333 10272 29061 55090 58016;
0156833390999992009082712004-14050-042617FM-12+088299999V0201401N005112200019N0100001N1+01931+01531101771ADDGF104991041021004501001001KA1240N+01681MA1999999092051MD1999999+0121REMSYN076AAXX  27124 83339 32497 41410 10193 20153 39205 40177 84200 333 20168 58012;
0137833390999992009082718004-14050-042617FM-12+088299999V0200901N004612200019N0100001N1+02771+00911101201ADDGF102991001001999999001011MA1999999091661MD1999999+0061REMSYN070AAXX  27184 83339 32997 20909 10277 20091 39166 40120 80001 333 58006;
0178833390999992009082800004-14050-042617FM-12+088299999V0201401N005112200019N0020001N1+02211+01271101631ADDGA1001+999999999GF100991001001999999001001KA1240M+02811MA1999999091941MD1999999+0031REMSYN082AAXX  28004 83339 32995 01410 10221 20127 39194 40163 333 10281 29055 55086 58003;
0156833390999992009082812004-14050-042617FM-12+088299999V0201401N006210042019N0100001N1+01861+01531101821ADDGF108991051051004501021999KA1240N+01721MA1999999092101MD1999999+0051REMSYN076AAXX  28124 83339 32497 81412 10186 20153 39210 40182 8552/ 333 20172 58005;
0137833390999992009082818004-14050-042617FM-12+088299999V0201401N003112200019N0100001N1+02631+01251101221ADDGF102991011011004501001011MA1999999091661MD1999999+0001REMSYN070AAXX  28184 83339 32497 21406 10263 20125 39166 40122 81101 333 58000;
0178833390999992009082900004-14050-042617FM-12+088299999V0201401N005712200019N0020001N1+02311+01251101491ADDGA1001+999999999GF100991001001999999001001KA1240M+02741MA1999999091831MD1999999-0111REMSYN082AAXX  29004 83339 32995 01411 10231 20125 39183 40149 333 10274 29056 55069 59011;
0156833390999992009082912004-14050-042617FM-12+088299999V0201401N006712200019N0100001N1+02061+01431101671ADDGF103991031011004501001001KA1240N+01711MA1999999092031MD1999999-0071REMSYN076AAXX  29124 83339 32497 31413 10206 20143 39203 40167 83100 333 20171 59007;
0137833390999992009082918004-14050-042617FM-12+088299999V0201401N006212200019N0100001N1+02721+01281101141ADDGF102991011011004501001011MA1999999091611MD1999999-0051REMSYN070AAXX  29184 83339 32497 21412 10272 20128 39161 40114 81101 333 59005;
0178833390999992009083000004-14050-042617FM-12+088299999V0201401N006212200019N0020001N1+02291+01321101431ADDGA1001+999999999GF100991001001999999001001KA1240M+02761MA1999999091811MD1999999-0021REMSYN082AAXX  30004 83339 32995 01412 10229 20132 39181 40143 333 10276 29054 55097 59002;
0156833390999992009083012004-14050-042617FM-12+088299999V0201401N008210042019N0100001N1+01811+01471101731ADDGF106991061021004501001001KA1240N+01701MA1999999092031MD1999999+0001REMSYN076AAXX  30124 83339 32497 61416 10181 20147 39203 40173 86200 333 20170 58000;
0137833390999992009083018004-14050-042617FM-12+088299999V0201401N005712200019N0100001N1+02471+01431101281ADDGF104991041011004501001001MA1999999091691MD1999999+0081REMSYN070AAXX  30184 83339 32497 41411 10247 20143 39169 40128 84100 333 58008;
0168833390999992009083100004-14050-042617FM-12+088299999V0201401N005110450019N0020001N1+02091+01441101641ADDGF105991021011004501031001KA1240M+02511MA1999999091901MD1999999+0091REMSYN088AAXX  31004 83339 32495 51410 10209 20144 39190 40164 82130 333 10251 29066 55069 58009;
0156833390999992009083112004-14050-042617FM-12+088299999V0201401N007210042019N0100001N1+01791+01251101701ADDGF106991051021004501021001KA1240N+01561MA1999999091951MD1999999-0081REMSYN076AAXX  31124 83339 32497 61414 10179 20125 39195 40170 85220 333 20156 59008;
0137833390999992009083118004-14050-042617FM-12+088299999V0200501N007710042019N0100001N1+02471+01441101251ADDGF106991051021004501001021MA1999999091631MD1999999-0061REMSYN070AAXX  31184 83339 32497 60515 10247 20144 39163 40125 85202 333 59006;
0168833390999992009090100004-14050-042617FM-12+088299999V0201401N007210042019N0020001N1+02011+01461101571ADDGF106991061021004501001001KA1240M+02541MA1999999091821MD1999999+0081REMSYN088AAXX  01004 83339 32495 61414 10201 20146 39182 40157 86200 333 10254 29066 55050 58008;
0156833390999992009090112004-14050-042617FM-12+088299999V0200501N003110042019N0100001N1+02031+01431101711ADDGF106991061021004501001001KA1240N+01601MA1999999091981MD1999999+0031REMSYN076AAXX  01124 83339 32497 60506 10203 20143 39198 40171 86200 333 20160 58003;
0137833390999992009090118004-14050-042617FM-12+088299999V0201401N003112200019N0100001N1+02731+01281101151ADDGF103991021021004501001041MA1999999091581MD1999999-0051REMSYN070AAXX  01184 83339 32497 31406 10273 20128 39158 40115 82204 333 59005;
0168833390999992009090200004-14050-042617FM-12+088299999V0201401N003112200019N0020001N1+02271+01341101471ADDGF102991021021004501001001KA1240M+02791MA1999999091831MD1999999+0011REMSYN088AAXX  02004 83339 32495 21406 10227 20134 39183 40147 82200 333 10279 29056 55097 58001;
0156833390999992009090212004-14050-042617FM-12+088299999V0200501N005112200019N0100001N1+02161+01541101521ADDGF102991021021004501001001KA1240N+01681MA1999999091891MD1999999-0091REMSYN076AAXX  02124 83339 32497 20510 10216 20154 39189 40152 82200 333 20168 59009;
0147833390999992009090218004-14050-042617FM-12+088299999V0201401N006712200019N0100001N1+02811+00981101011ADDGA1001+999999999GF100991001001999999001001MA1999999091511MD1999999-0071REMSYN064AAXX  02184 83339 32997 01413 10281 20098 39151 40101 333 59007;
0178833390999992009090300004-14050-042617FM-12+088299999V0201401N003112200019N0020001N1+02311+01141101331ADDGA1001+999999999GF100991001001999999001001KA1240M+02871MA1999999091741MD1999999-0091REMSYN082AAXX  03004 83339 32995 01406 10231 20114 39174 40133 333 10287 29049 55107 59009;
0166833390999992009090312004-14050-042617FM-12+088299999V0201401N006212200019N0100001N1+02191+01441101441ADDGA1001+999999999GF100991001001999999001001KA1240N+01741MA1999999091841MD1999999-0051REMSYN070AAXX  03124 83339 32997 01412 10219 20144 39184 40144 333 20174 59005;
0137833390999992009090318004-14050-042617FM-12+088299999V0201401N005112200019N0100001N1+02921+01171100961ADDGF102991021021004501001001MA1999999091481MD1999999-0031REMSYN070AAXX  03184 83339 32497 21410 10292 20117 39148 40096 82200 333 59003;
0168833390999992009090400004-14050-042617FM-12+088299999V0201401N003112200019N0020001N1+02411+01031101231ADDGF103991021021004501031001KA1240M+03001MA1999999091671MD1999999-0071REMSYN088AAXX  04004 83339 32495 31406 10241 20103 39167 40123 82230 333 10300 29045 55101 59007;
0156833390999992009090412004-14050-042617FM-12+088299999V0201401N003112200019N0100001N1+02271+01541101381ADDGF102991021011004501001001KA1240N+01651MA1999999091831MD1999999-0011REMSYN076AAXX  04124 83339 32497 21406 10227 20154 39183 40138 82100 333 20165 59001;
0137833390999992009090418004-14050-042617FM-12+088299999V0201401N003112200019N0100001N1+03111+01091100861ADDGF103991031021004501001001MA1999999091441MD1999999-0041REMSYN070AAXX  04184 83339 32497 31406 10311 20109 39144 40086 83200 333 59004;
0178833390999992009090500004-14050-042617FM-12+088299999V0201801N001512200019N0020001N1+02611+01141100991ADDGA1001+999999999GF100991001001999999001001KA1240M+03231MA1999999091511MD1999999-0161REMSYN082AAXX  05004 83339 32995 01803 10261 20114 39151 40099 333 10323 29043 55108 59016;
0156833390999992009090512004-14050-042617FM-12+088299999V0200501N003612200019N0100001N1+02371+01711101281ADDGF104991031021004501031001KA1240N+01901MA1999999091791MD1999999-0041REMSYN076AAXX  05124 83339 32497 40507 10237 20171 39179 40128 83230 333 20190 59004;
0137833390999992009090518004-14050-042617FM-12+088299999V0201401N004110042019N0100001N1+03131+01301100691ADDGF105991051021004501001001MA1999999091341MD1999999-0101REMSYN070AAXX  05184 83339 32497 51408 10313 20130 39134 40069 85200 333 59010;
0168833390999992009090600004-14050-042617FM-12+088299999V0201401N003612200019N0020001N1+02651+01391101071ADDGF102991021011004501001001KA1240M+03281MA1999999091601MD1999999+0091REMSYN088AAXX  06004 83339 32495 21407 10265 20139 39160 40107 82100 333 10328 29048 55101 58009;
0156833390999992009090612004-14050-042617FM-12+088299999V0201401N003110042019N0100001N1+02211+01721101331ADDGF106991061021004501001001KA1240N+01921MA1999999091821MD1999999+0031REMSYN076AAXX  06124 83339 32497 61406 10221 20172 39182 40133 86200 333 20192 58003;
0137833390999992009090618004-14050-042617FM-12+088299999V0201401N004112200019N0100001N1+03031+01391100791ADDGF104991041021004501001001MA1999999091411MD1999999+0071REMSYN070AAXX  06184 83339 32497 41408 10303 20139 39141 40079 84200 333 58007;
0201833390999992009090712004-14050-042617FM-12+088299999V0201401N002610042019N0100001N1+01961+01771101501ADDAA124002091AY161061AY221061GF108991061021004501021999KA1240N+01821MA1999999091891MD1999999+0071MW1021REMSYN088AAXX  07124 83339 21497 81405 10196 20177 39189 40150 70262 8622/ 333 20182 58007 60024;
0137833390999992009090718004-14050-042617FM-12+088299999V0201401N005110450019N0100001N1+02811+01681100851ADDGF105991031021004501031001MA1999999091411MD1999999+0001REMSYN070AAXX  07184 83339 32497 51410 10281 20168 39141 40085 83230 333 58000;
0178833390999992009090800004-14050-042617FM-12+088299999V0201401N005112200019N0020001N1+02291+01701101211ADDGA1001+999999999GF100991001001999999001001KA1240M+02881MA1999999091591MD1999999+0011REMSYN082AAXX  08004 83339 32995 01410 10229 20170 39159 40121 333 10288 29069 55065 58001;
0156833390999992009090812004-14050-042617FM-12+088299999V0200901N004112200019N0100001N1+02311+01721101341ADDGF103991031021004501001001KA1240N+01851MA1999999091771MD1999999-0121REMSYN076AAXX  08124 83339 32497 30908 10231 20172 39177 40134 83200 333 20185 59012;
0137833390999992009090818004-14050-042617FM-12+088299999V0201401N005112200019N0100001N1+02861+01521100901ADDGF104991041021004501001001MA1999999091431MD1999999+0021REMSYN070AAXX  08184 83339 32497 41410 10286 20152 39143 40090 84200 333 58002;
0178833390999992009090900004-14050-042617FM-12+088299999V0201401N003612200019N0020001N1+02441+01271101101ADDGA1001+999999999GF100991001001999999001001KA1240M+02881MA1999999091591MD1999999+0001REMSYN082AAXX  09004 83339 32995 01407 10244 20127 39159 40110 333 10288 29052 55098 58000;
0156833390999992009090912004-14050-042617FM-12+088299999V0200901N004610042019N0100001N1+02191+01611101481ADDGF106991061021004501001001KA1240N+01801MA1999999091901MD1999999+0131REMSYN076AAXX  09124 83339 32497 60909 10219 20161 39190 40148 86200 333 20180 58013;
0137833390999992009090918004-14050-042617FM-12+088299999V0200901N008210042019N0100001N1+02791+01201101001ADDGF105991051021004501001001MA1999999091521MD1999999+0091REMSYN070AAXX  09184 83339 32497 50916 10279 20120 39152 40100 85200 333 58009;
0168833390999992009091000004-14050-042617FM-12+088299999V0201401N004112200019N0020001N1+02131+01481101471ADDGF102991021021004501001001KA1240M+02861MA1999999091831MD1999999+0241REMSYN088AAXX  10004 83339 32495 21408 10213 20148 39183 40147 82200 333 10286 29060 55089 58024;
0201833390999992009091012004-14050-042617FM-12+088299999V0201401N005710042019N0020001N1+01711+01661101981ADDAA124000591AY151061AY241061GF108991051051004501021999KA1240N+01681MA1999999092191MD1999999+0291MW1501REMSYN088AAXX  10124 83339 21495 81411 10171 20166 39219 40198 75054 8552/ 333 20168 58029 69944;
0182833390999992009091018004-14050-042617FM-12+088299999V0200901N006710042019N0100001N1+02461+01471101551ADDAA106000391AY151061AY221061GF105991051021004501001001MA1999999091921MD1999999+0401MW1021REMSYN082AAXX  10184 83339 21497 50913 10246 20147 39192 40155 70252 85200 333 58040 69931;
0178833390999992009091100004-14050-042617FM-12+088299999V0201401N005112200019N0020001N1+02191+01281101821ADDGA1001+999999999GF100991001001999999001001KA1240M+02541MA1999999092061MD1999999+0231REMSYN082AAXX  11004 83339 32995 01410 10219 20128 39206 40182 333 10254 29066 55063 58023;
0201833390999992009091112004-14050-042617FM-12+088299999V0200901N005710042019N0100001N1+01821+01671101931ADDAA124000391AY151061AY221061GF106991061021004501001001KA1240N+01681MA1999999092181MD1999999-0011MW1021REMSYN088AAXX  11124 83339 21497 60911 10182 20167 39218 40193 70252 86200 333 20168 59001 69934;
0137833390999992009091118004-14050-042617FM-12+088299999V0201401N005710042019N0100001N1+02651+01471101391ADDGF105991051021004501001001MA1999999091821MD1999999-0101REMSYN070AAXX  11184 83339 32497 51411 10265 20147 39182 40139 85200 333 59010;
0213833390999992009091200004-14050-042617FM-12+088299999V0201401N005110042019N0020001N1+01851+01811101891ADDAA106005191AY121061AY221061GF108991051021004501021999KA1240M+02761MA1999999092091MD1999999+0031MW1601REMSYN100AAXX  12004 83339 21495 81410 10185 20181 39209 40189 76022 8522/ 333 10276 29083 55068 58003 60051;
0201833390999992009091212004-14050-042617FM-12+088299999V0201801N005112200019N0100001N1+01911+01401101891ADDAA124009991AY161061AY261061GF102991021011004501001001KA1240N+01521MA1999999092111MD1999999-0071MW1021REMSYN088AAXX  12124 83339 21497 21810 10191 20140 39211 40189 70266 82100 333 20152 59007 60104;
0137833390999992009091218004-14050-042617FM-12+088299999V0201401N003612200019N0100001N1+02591+01381101391ADDGF104991041021004501001001MA1999999091751MD1999999-0071REMSYN070AAXX  12184 83339 32497 41407 10259 20138 39175 40139 84200 333 59007;
0178833390999992009091300004-14050-042617FM-12+088299999V0201401N003612200019N0020001N1+02191+01411101551ADDGA1001+999999999GF100991001001999999001001KA1240M+02661MA1999999091861MD1999999-0231REMSYN082AAXX  13004 83339 32995 01407 10219 20141 39186 40155 333 10266 29060 55108 59023;
0156833390999992009091312004-14050-042617FM-12+088299999V0201401N004110042019N0100001N1+01901+01451101781ADDGF106991061021004501001001KA1240N+01611MA1999999092061MD1999999-0051REMSYN076AAXX  13124 83339 32497 61408 10190 20145 39206 40178 86200 333 20161 59005;
0147833390999992009091318004-14050-042617FM-12+088299999V0201401N003612200019N0100001N1+02651+01071101171ADDGA1001+999999999GF100991001001999999001001MA1999999091621MD1999999-0131REMSYN064AAXX  13184 83339 32997 01407 10265 20107 39162 40117 333 59013;
0178833390999992009091400004-14050-042617FM-12+088299999V0201401N002612200019N0020001N1+02211+01041101521ADDGA1001+999999999GF100991001001999999001001KA1240M+02741MA1999999091841MD1999999-0021REMSYN082AAXX  14004 83339 32995 01405 10221 20104 39184 40152 333 10274 29052 55093 59002;
0156833390999992009091412004-14050-042617FM-12+088299999V0200901N002612200019N0100001N1+01991+01521101711ADDGF102991021021004501001001KA1240N+01561MA1999999092031MD1999999-0031REMSYN076AAXX  14124 83339 32497 20905 10199 20152 39203 40171 82200 333 20156 59003;
0137833390999992009091418004-14050-042617FM-12+088299999V0201801N003612200019N0100001N1+02921+01261101071ADDGF102991021021004501001001MA1999999091561MD1999999-0061REMSYN070AAXX  14184 83339 32497 21807 10292 20126 39156 40107 82200 333 59006;
0178833390999992009091500004-14050-042617FM-12+088299999V0201401N002612200019N0020001N1+02451+01071101351ADDGA1001+999999999GF100991001001999999001001KA1240M+03001MA1999999091741MD1999999-0101REMSYN082AAXX  15004 83339 32995 01405 10245 20107 39174 40135 333 10300 29049 55093 59010;
0166833390999992009091512004-14050-042617FM-12+088299999V0200501N004612200019N0100001N1+02111+01551101521ADDGA1001+999999999GF100991001001999999001001KA1240N+01721MA1999999091941MD1999999-0091REMSYN070AAXX  15124 83339 32997 00509 10211 20155 39194 40152 333 20172 59009;
0137833390999992009091518004-14050-042617FM-12+088299999V0201801N004612200019N0100001N1+02951+01101101021ADDGF102991021021004501001001MA1999999091551MD1999999-0011REMSYN070AAXX  15184 83339 32497 21809 10295 20110 39155 40102 82200 333 59001;
0156833390999992009091612004-14050-042617FM-12+088299999V0201401N004110042019N0100001N1+02051+01621101441ADDGF106991061021004501001001KA1240N+01751MA1999999091841MD1999999-0101REMSYN076AAXX  16124 83339 32497 61408 10205 20162 39184 40144 86200 333 20175 59010;
0137833390999992009091618004-14050-042617FM-12+088299999V0201401N002612200019N0100001N1+02911+01111100941ADDGF102991021021004501001001MA1999999091481MD1999999-0071REMSYN070AAXX  16184 83339 32497 21405 10291 20111 39148 40094 82200 333 59007;
0178833390999992009091700004-14050-042617FM-12+088299999V0201801N003112200019N0020001N1+02451+01101101191ADDGA1001+999999999GF100991001001999999001001KA1240M+02961MA1999999091621MD1999999-0071REMSYN082AAXX  17004 83339 32995 01806 10245 20110 39162 40119 333 10296 29049 55093 59007;
0156833390999992009091712004-14050-042617FM-12+088299999V0201401N005710042019N0100001N1+02211+01581101301ADDGF105991051021004501001001KA1240N+01761MA1999999091751MD1999999-0091REMSYN076AAXX  17124 83339 32497 51411 10221 20158 39175 40130 85200 333 20176 59009;
0137833390999992009091718004-14050-042617FM-12+088299999V0201401N006212200019N0100001N1+02891+01141100811ADDGF102991021021004501001001MA1999999091371MD1999999-0111REMSYN070AAXX  17184 83339 32497 21412 10289 20114 39137 40081 82200 333 59011;
0178833390999992009091800004-14050-042617FM-12+088299999V0201401N005112200019N0020001N1+02471+00971101011ADDGA1001+999999999GF100991001001999999001001KA1240M+02981MA1999999091491MD1999999-0131REMSYN082AAXX  18004 83339 32995 01410 10247 20097 39149 40101 333 10298 29045 55099 59013;
0156833390999992009091812004-14050-042617FM-12+088299999V0201401N004612200019N0100001N1+02231+01581101241ADDGF102991021021004501001001KA1240N+01741MA1999999091701MD1999999-0051REMSYN076AAXX  18124 83339 32497 21409 10223 20158 39170 40124 82200 333 20174 59005;
0137833390999992009091818004-14050-042617FM-12+088299999V0200901N004112200019N0100001N1+02971+01291100731ADDGF104991041021004501001001MA1999999091321MD1999999-0051REMSYN070AAXX  18184 83339 32497 40908 10297 20129 39132 40073 84200 333 59005;
0178833390999992009091900004-14050-042617FM-12+088299999V0201401N003112200019N0020001N1+02531+01141100971ADDGA1001+999999999GF100991001001999999001001KA1240M+03081MA1999999091471MD1999999-0021REMSYN082AAXX  19004 83339 32995 01406 10253 20114 39147 40097 333 10308 29047 55106 59002;
0166833390999992009091912004-14050-042617FM-12+088299999V0200501N003112200019N0100001N1+02371+01611101301ADDGA1001+999999999GF100991001001999999001001KA1240N+01821MA1999999091791MD1999999+0091REMSYN070AAXX  19124 83339 32997 00506 10237 20161 39179 40130 333 20182 58009;
0137833390999992009091918004-14050-042617FM-12+088299999V0201401N004112200019N0100001N1+03171+01141100731ADDGF104991041021004501001001MA1999999091351MD1999999+0031REMSYN070AAXX  19184 83339 32497 41408 10317 20114 39135 40073 84200 333 58003;
0178833390999992009092000004-14050-042617FM-12+088299999V0201401N002112200019N0020001N1+02671+01151100941ADDGA1001+999999999GF100991001001999999001001KA1240M+03271MA1999999091481MD1999999+0011REMSYN082AAXX  20004 83339 32995 01404 10267 20115 39148 40094 333 10327 29042 55110 58001;
0156833390999992009092012004-14050-042617FM-12+088299999V0200901N002112200019N0100001N1+02451+01561101171ADDGF103991021021004501001041KA1240N+01931MA1999999091721MD1999999-0071REMSYN076AAXX  20124 83339 32497 30904 10245 20156 39172 40117 82204 333 20193 59007;
0137833390999992009092018004-14050-042617FM-12+088299999V0201401N004612200019N0100001N1+03231+01191100631ADDGF102991011021004501031001MA1999999091301MD1999999-0051REMSYN070AAXX  20184 83339 32497 21409 10323 20119 39130 40063 81230 333 59005;
0178833390999992009092100004-14050-042617FM-12+088299999V0201801N003612200019N0020001N1+02731+00951100881ADDGA1001+999999999GF100991001001999999001001KA1240M+03331MA1999999091471MD1999999-0011REMSYN082AAXX  21004 83339 32995 01807 10273 20095 39147 40088 333 10333 29040 55104 59001;
0156833390999992009092112004-14050-042617FM-12+088299999V0201401N003112200019N0100001N1+02551+01621101071ADDGF103991031021004501001001KA1240N+02041MA1999999091661MD1999999-0061REMSYN076AAXX  21124 83339 32497 31406 10255 20162 39166 40107 83200 333 20204 59006;
0137833390999992009092118004-14050-042617FM-12+088299999V0201401N005712200019N0100001N1+03231+01411100521ADDGF102991021011004501001001MA1999999091231MD1999999-0071REMSYN070AAXX  21184 83339 32497 21411 10323 20141 39123 40052 82100 333 59007;
0178833390999992009092200004-14050-042617FM-12+088299999V0201401N004112200019N0020001N1+02701+01411100761ADDGA1001+999999999GF100991001001999999001001KA1240M+03291MA1999999091381MD1999999-0091REMSYN082AAXX  22004 83339 32995 01408 10270 20141 39138 40076 333 10329 29045 55106 59009;
0156833390999992009092212004-14050-042617FM-12+088299999V0200901N005112200019N0100001N1+02431+01761101081ADDGF103991011011004501001011KA1240N+01961MA1999999091641MD1999999-0021REMSYN076AAXX  22124 83339 32497 30910 10243 20176 39164 40108 81101 333 20196 59002;
0137833390999992009092218004-14050-042617FM-12+088299999V0201401N004612200019N0100001N1+03171+01261100511ADDGF104991031021004501001011MA1999999091201MD1999999-0031REMSYN070AAXX  22184 83339 32497 41409 10317 20126 39120 40051 83201 333 59003;
0178833390999992009092300004-14050-042617FM-12+088299999V0201401N001512200019N0020001N1+02591+01211100841ADDGA1001+999999999GF100991001001999999001001KA1240M+03231MA1999999091401MD1999999+0021REMSYN082AAXX  23004 83339 32995 01403 10259 20121 39140 40084 333 10323 29045 55101 58002;
0175833390999992009092312004-14050-042617FM-12+088299999V0201401N003112200019N0100001N1+02471+01701101121ADDGF102991001001999999001011KA1240N+01921MA1999999091671MD1999999+0031REMSYN076AAXX  23124 83339 32897 21406 10247 20170 39167 40112 80001 333 20192 58003;EQDQ01+022502SCOLCB
0137833390999992009092318004-14050-042617FM-12+088299999V0201801N001510042019N0100001N1+03001+01411100631ADDGF108991081021004501999999MA1999999091261MD1999999+0061REMSYN070AAXX  23184 83339 32497 81803 10300 20141 39126 40063 882// 333 58006;
0213833390999992009092400004-14050-042617FM-12+088299999V0201801N002610042019N0020001N1+02471+01701100951ADDAA106000591AY161061AY221061GF105991051021004501001001KA1240M+03161MA1999999091471MD1999999+0071MW1021REMSYN100AAXX  24004 83339 21495 51805 10247 20170 39147 40095 70262 85200 333 10316 29056 55070 58007 69961;
0201833390999992009092412004-14050-042617FM-12+088299999V0200501N001510450019N0100001N1+02431+01611101191ADDAA124000591AY161061AY221061GF106991041021004501031001KA1240N+02161MA1999999091691MD1999999+0021MW1021REMSYN088AAXX  24124 83339 21497 60503 10243 20161 39169 40119 70262 84230 333 20216 58002 69964;
0137833390999992009092418004-14050-042617FM-12+088299999V0203201N003110450019N0100001N1+03181+01571100551ADDGF105991041021004501031001MA1999999091241MD1999999-0021REMSYN070AAXX  24184 83339 32497 53206 10318 20157 39124 40055 84230 333 59002;
0168833390999992009092500004-14050-042617FM-12+088299999V0202701N001012200019N0020001N1+02771+01551100891ADDGF104991031021004501031001KA1240M+03311MA1999999091481MD1999999+0011REMSYN088AAXX  25004 83339 32495 42702 10277 20155 39148 40089 83230 333 10331 29048 55057 58001;
0156833390999992009092512004-14050-042617FM-12+088299999V0201401N005712200019N0100001N1+02551+01881101101ADDGF102991021011004501001001KA1240N+02121MA1999999091691MD1999999+0001REMSYN076AAXX  25124 83339 32497 21411 10255 20188 39169 40110 82100 333 20212 58000;
0137833390999992009092518004-14050-042617FM-12+088299999V0200901N005711050019N0100001N1+02791+01751100831ADDGF106991021021004501031041MA1999999091431MD1999999+0191REMSYN070AAXX  25184 83339 32497 60911 10279 20175 39143 40083 82234 333 58019;
0168833390999992009092600004-14050-042617FM-12+088299999V0201401N008210450019N0020001N1+02311+01761101231ADDGF105991041021004501031001KA1240M+03081MA1999999091731MD1999999+0251REMSYN088AAXX  26004 83339 32495 51416 10231 20176 39173 40123 84230 333 10308 29065 55061 58025;
0201833390999992009092612004-14050-042617FM-12+088299999V0200901N005710450019N0100001N1+02111+01641101631ADDAA124000891AY161061AY221061GF106991031021004501031001KA1240N+01831MA1999999091991MD1999999+0301MW1021REMSYN088AAXX  26124 83339 21497 60911 10211 20164 39199 40163 70262 83230 333 20183 58030 69974;
0137833390999992009092618004-14050-042617FM-12+088299999V0200901N006212200019N0100001N1+02761+01561101061ADDGF102991021011004501001001MA1999999091551MD1999999+0071REMSYN070AAXX  26184 83339 32497 20912 10276 20156 39155 40106 82100 333 58007;
0168833390999992009092700004-14050-042617FM-12+088299999V0201401N005112200019N0020001N1+02251+01711101381ADDGF102991011011004501031001KA1240M+02881MA1999999091761MD1999999+0031REMSYN088AAXX  27004 83339 32495 21410 10225 20171 39176 40138 81130 333 10288 29066 55082 58003;
0156833390999992009092712004-14050-042617FM-12+088299999V0200901N007710042019N0100001N1+02181+01521101611ADDGF105991051021004501001001KA1240N+01881MA1999999091971MD1999999-0021REMSYN076AAXX  27124 83339 32497 50915 10218 20152 39197 40161 85200 333 20188 59002;
0147833390999992009092718004-14050-042617FM-12+088299999V0201401N005112200019N0100001N1+02871+01181101021ADDGA1001+999999999GF100991001001999999001001MA1999999091541MD1999999-0011REMSYN064AAXX  27184 83339 32997 01410 10287 20118 39154 40102 333 59001;
0178833390999992009092800004-14050-042617FM-12+088299999V0201401N004612200019N0020001N1+02521+00991101271ADDGA1001+999999999GF100991001001999999001001KA1240M+02961MA1999999091731MD1999999-0031REMSYN082AAXX  28004 83339 32995 01409 10252 20099 39173 40127 333 10296 29044 55087 59003;
0166833390999992009092812004-14050-042617FM-12+088299999V0201401N001512200019N0100001N1+02371+01561101541ADDGA1001+999999999GF100991001001999999001001KA1240N+01731MA1999999092011MD1999999+0041REMSYN070AAXX  28124 83339 32997 01403 10237 20156 39201 40154 333 20173 58004;
0137833390999992009092818004-14050-042617FM-12+088299999V0200501N003112200019N0100001N1+03351+00661100881ADDGF102991021021004501001001MA1999999091531MD1999999-0011REMSYN070AAXX  28184 83339 32497 20506 10335 20066 39153 40088 82200 333 59001;
0178833390999992009092900004-14050-042617FM-12+088299999V0201401N003112200019N0020001N1+02691+01051101191ADDGA1001+999999999GF100991001001999999001001KA1240M+03411MA1999999091741MD1999999+0011REMSYN082AAXX  29004 83339 32995 01406 10269 20105 39174 40119 333 10341 29038 55113 58001;
0166833390999992009092912004-14050-042617FM-12+088299999V0200501N003112200019N0100001N1+02631+01151101251ADDGA1001+999999999GF100991001001999999001001KA1240N+01861MA1999999091831MD1999999-0181REMSYN070AAXX  29124 83339 32997 00506 10263 20115 39183 40125 333 20186 59018;
0137833390999992009092918004-14050-042617FM-12+088299999V0201401N005112200019N0100001N1+03351+00661100741ADDGF102991011021004501001041MA1999999091431MD1999999-0101REMSYN070AAXX  29184 83339 32497 21410 10335 20066 39143 40074 81204 333 59010;
0178833390999992009093000004-14050-042617FM-12+088299999V0201401N003112200019N0020001N1+02791+00711101011ADDGA1001+999999999GF100991001001999999001001KA1240M+03471MA1999999091631MD1999999-0111REMSYN082AAXX  30004 83339 32995 01406 10279 20071 39163 40101 333 10347 29028 55113 59011;
0166833390999992009093012004-14050-042617FM-12+088299999V0200501N002612200019N0100001N1+02791+01091101111ADDGA1001+999999999GF100991001001999999001001KA1240N+02001MA1999999091761MD1999999-0071REMSYN070AAXX  30124 83339 32997 00505 10279 20109 39176 40111 333 20200 59007;
0137833390999992009093018004-14050-042617FM-12+088299999V0200901N004612200019N0100001N1+03251+01211100701ADDGF103991031021004501001001MA1999999091391MD1999999-0041REMSYN070AAXX  30184 83339 32497 30909 10325 20121 39139 40070 83200 333 59004;
0168833390999992009100100004-14050-042617FM-12+088299999V0201401N008212200019N0020001N1+02491+01431101151ADDGF102991021021004501001001KA1240M+03371MA1999999091741MD1999999+0111REMSYN088AAXX  01004 83339 32495 21416 10249 20143 39174 40115 82200 333 10337 29042 55109 58011;
0156833390999992009100112004-14050-042617FM-12+088299999V0201401N003110042019N0100001N1+02191+01671101491ADDGF106991051021004501021001KA1240N+02001MA1999999091931MD1999999+0171REMSYN076AAXX  01124 83339 32497 61406 10219 20167 39193 40149 85220 333 20200 58017;
0137833390999992009100118004-14050-042617FM-12+088299999V0201401N006212200019N0100001N1+02931+01571101001ADDGF104991041021004501001001MA1999999091581MD1999999+0191REMSYN070AAXX  01184 83339 32497 41412 10293 20157 39158 40100 84200 333 58019;
0168833390999992009100200004-14050-042617FM-12+088299999V0201401N005712200019N0020001N1+02211+01441101461ADDGF103991031021004501001001KA1240M+02971MA1999999091841MD1999999+0101REMSYN088AAXX  02004 83339 32495 31411 10221 20144 39184 40146 83200 333 10297 29060 55093 58010;
0156833390999992009100212004-14050-042617FM-12+088299999V0201401N005710042019N0100001N1+02111+01701101621ADDGF106991061021004501001001KA1240N+01801MA1999999091961MD1999999+0031REMSYN076AAXX  02124 83339 32497 61411 10211 20170 39196 40162 86200 333 20180 58003;
0137833390999992009100218004-14050-042617FM-12+088299999V0201401N005112200019N0100001N1+02791+01551101021ADDGF102991021021004501001001MA1999999091521MD1999999-0061REMSYN070AAXX  02184 83339 32497 21410 10279 20155 39152 40102 82200 333 59006;
0178833390999992009100300004-14050-042617FM-12+088299999V0201401N005112200019N0020001N1+02311+01561101261ADDGA1001+999999999GF100991001001999999001001KA1240M+02421MA1999999091651MD1999999-0191REMSYN082AAXX  03004 83339 32995 01410 10231 20156 39165 40126 333 10242 29063 55104 59019;
0156833390999992009100312004-14050-042617FM-12+088299999V0201401N003112200019N0100001N1+02191+01741101441ADDGF104991041021004501001001KA1240N+01821MA1999999091841MD1999999-0121REMSYN076AAXX  03124 83339 32497 41406 10219 20174 39184 40144 84200 333 20182 59012;
0137833390999992009100318004-14050-042617FM-12+088299999V0201401N004112200019N0100001N1+03191+01211100861ADDGF102991021021004501001001MA1999999091451MD1999999-0071REMSYN070AAXX  03184 83339 32497 21408 10319 20121 39145 40086 82200 333 59007;
0178833390999992009100400004-14050-042617FM-12+088299999V0201401N003112200019N0020001N1+02651+01391101111ADDGA1001+999999999GF100991001001999999001001KA1240M+03241MA1999999091601MD1999999-0051REMSYN082AAXX  04004 83339 32995 01406 10265 20139 39160 40111 333 10324 29050 55092 59005;
0156833390999992009100412004-14050-042617FM-12+088299999V0201401N004112200019N0100001N1+02151+01571101261ADDGF103991031021004501001001KA1240N+01901MA1999999091741MD1999999-0101REMSYN076AAXX  04124 83339 32497 31408 10215 20157 39174 40126 83200 333 20190 59010;
0137833390999992009100418004-14050-042617FM-12+088299999V0200501N006212200019N0100001N1+03031+00971100701ADDGF102991011021004501021001MA1999999091331MD1999999-0121REMSYN070AAXX  04184 83339 32497 20512 10303 20097 39133 40070 81220 333 59012;
0178833390999992009100500004-14050-042617FM-12+088299999V0201401N005112200019N0020001N1+02531+01031101091ADDGA1001+999999999GF100991001001999999001001KA1240M+03101MA1999999091561MD1999999-0041REMSYN082AAXX  05004 83339 32995 01410 10253 20103 39156 40109 333 10310 29044 55111 59004;
0166833390999992009100512004-14050-042617FM-12+088299999V0201401N007212200019N0100001N1+02231+01261101241ADDGA1001+999999999GF100991001001999999001001KA1240N+01781MA1999999091721MD1999999-0021REMSYN070AAXX  05124 83339 32997 01414 10223 20126 39172 40124 333 20178 59002;
0156833390999992009100518004-14050-042617FM-12+088299999V0201401N004612200019N0100001N1+02971+01041100791ADDGF102991001001999999001011MA1999999091371MD1999999+0041REMSYN070AAXX  05184 83339 32897 21409 10297 20104 39137 40079 80001 333 58004;EQDQ01+022502SCOLCB
0178833390999992009100600004-14050-042617FM-12+088299999V0201401N003112200019N0020001N1+02491+00891101111ADDGA1001+999999999GF100991001001999999001001KA1240M+03021MA1999999091581MD1999999+0021REMSYN082AAXX  06004 83339 32995 01406 10249 20089 39158 40111 333 10302 29039 55111 58002;
0156833390999992009100612004-14050-042617FM-12+088299999V0201401N005112200019N0100001N1+02311+01701101401ADDGF102991021011004501001001KA1240N+01871MA1999999091861MD1999999+0141REMSYN076AAXX  06124 83339 32497 21410 10231 20170 39186 40140 82100 333 20187 58014;
0137833390999992009100618004-14050-042617FM-12+088299999V0201401N002612200019N0100001N1+03111+01251100821ADDGF102991011011004501001011MA1999999091441MD1999999+0071REMSYN070AAXX  06184 83339 32497 21405 10311 20125 39144 40082 81101 333 58007;
0178833390999992009100700004-14050-042617FM-12+088299999V0201401N004112200019N0020001N1+02521+01371101211ADDGA1001+999999999GF100991001001999999001001KA1240M+03201MA1999999091691MD1999999+0111REMSYN082AAXX  07004 83339 32995 01408 10252 20137 39169 40121 333 10320 29050 55109 58011;
0166833390999992009100712004-14050-042617FM-12+088299999V0200901N004112200019N0100001N1+02451+01781101261ADDGA1001+999999999GF100991001001999999001001KA1240N+01921MA1999999091771MD1999999-0091REMSYN070AAXX  07124 83339 32997 00908 10245 20178 39177 40126 333 20192 59009;
0137833390999992009100718004-14050-042617FM-12+088299999V0201401N003112200019N0100001N1+03151+01471100791ADDGF102991021021004501001001MA1999999091431MD1999999-0011REMSYN070AAXX  07184 83339 32497 21406 10315 20147 39143 40079 82200 333 59001;
0178833390999992009100800004-14050-042617FM-12+088299999V0201401N003112200019N0020001N1+02641+01351101071ADDGA1001+999999999GF100991001001999999001001KA1240M+03291MA1999999091631MD1999999-0061REMSYN082AAXX  08004 83339 32995 01406 10264 20135 39163 40107 333 10329 29048 55105 59006;
0156833390999992009100812004-14050-042617FM-12+088299999V0201401N004612200019N0100001N1+02531+01731101151ADDGF102991021011004501001001KA1240N+01961MA1999999091721MD1999999-0051REMSYN076AAXX  08124 83339 32497 21409 10253 20173 39172 40115 82100 333 20196 59005;
0137833390999992009100818004-14050-042617FM-12+088299999V0201401N004110042019N0100001N1+03131+01361100561ADDGF105991051021004501001001MA1999999091221MD1999999-0211REMSYN070AAXX  08184 83339 32497 51408 10313 20136 39122 40056 85200 333 59021;
0168833390999992009100900004-14050-042617FM-12+088299999V0202301N004110042019N0020001N1+02411+01791100991ADDGF108991051021004501021999KA1240M+03271MA1999999091511MD1999999-0121REMSYN088AAXX  09004 83339 32495 82308 10241 20179 39151 40099 8522/ 333 10327 29058 55084 59012;
0201833390999992009100912004-14050-042617FM-12+088299999V0209999C000010042019N0020001N1+02041+01911101291ADDAA124030091AY161061AY221061GF108991061021004501021999KA1240N+01981MA1999999091681MD1999999-0041MW1601REMSYN088AAXX  09124 83339 21495 80000 10204 20191 39168 40129 76062 8622/ 333 20198 59004 60304;
0182833390999992009100918004-14050-042617FM-12+088299999V0203201N002610450019N0100001N1+02141+01931101061ADDAA106005191AY161061AY261061GF108991041021004501021999MA1999999091451MD1999999+0231MW1021REMSYN082AAXX  09184 83339 21497 83205 10214 20193 39145 40106 70266 8422/ 333 58023 60051;
0213833390999992009101000004-14050-042617FM-12+088299999V0203201N002110042019N0020001N1+01991+01871101241ADDAA106000591AY161061AY221061GF108991051021004501021999KA1240M+02441MA1999999091561MD1999999+0051MW1021REMSYN100AAXX  10004 83339 21495 83204 10199 20187 39156 40124 70262 8522/ 333 10244 29091 55000 58005 69941;
0201833390999992009101012004-14050-042617FM-12+088299999V0200901N002610042019N0100001N1+02221+02011101231ADDAA124007191AY161061AY221061GF106991061021004501001001KA1240N+01901MA1999999091591MD1999999-0091MW1021REMSYN088AAXX  10124 83339 21497 60905 10222 20201 39159 40123 70262 86200 333 20190 59009 60074;
0182833390999992009101018004-14050-042617FM-12+088299999V0201801N002110042019N0020001N1+02161+02021100911ADDAA106013091AY161061AY221061GF108991061021004501021999MA1999999091261MD1999999-0191MW1601REMSYN082AAXX  10184 83339 21495 81804 10216 20202 39126 40091 76062 8622/ 333 59019 60131;
0213833390999992009101100004-14050-042617FM-12+088299999V0201401N002610042019N0020001N1+02071+01911101071ADDAA106003091AY161061AY261061GF108991061021004501021999KA1240M+02581MA1999999091461MD1999999-0101MW1021REMSYN100AAXX  11004 83339 21495 81405 10207 20191 39146 40107 70266 8622/ 333 10258 29090 55011 59010 60031;
0201833390999992009101112004-14050-042617FM-12+088299999V0201401N003610042019N0020001N1+01871+01831101321ADDAA124017091AY161061AY241061GF108991051021004501021999KA1240N+01801MA1999999091611MD1999999+0021MW1401REMSYN088AAXX  11124 83339 21495 81407 10187 20183 39161 40132 74064 8522/ 333 20180 58002 60174;
0165833390999992009101118004-14050-042617FM-12+088299999V0201401N004612200019N0100001N1+02591+01841100791ADDAY141061AY221061GF104991031021004501001011MA1999999091251MD1999999-0011MW1021REMSYN076AAXX  11184 83339 31497 41409 10259 20184 39125 40079 70242 83201 333 59001;
0168833390999992009101200004-14050-042617FM-12+088299999V0201401N007712200019N0020001N1+02151+01741101141ADDGF102991021021004501001001KA1240M+02661MA1999999091471MD1999999+0011REMSYN088AAXX  12004 83339 32495 21415 10215 20174 39147 40114 82200 333 10266 29079 55044 58001;
0184833390999992009101212004-14050-042617FM-12+088299999V0201401N001510042019N0040001N1+02131+01821101221ADDAY101061AY201061GF107991061021004501031001KA1240N+01831MA1999999091601MD1999999-0011MW1101REMSYN082AAXX  12124 83339 31496 71403 10213 20182 39160 40122 71000 86230 333 20183 59001;
0137833390999992009101218004-14050-042617FM-12+088299999V0201401N002112200019N0100001N1+02851+01461100661ADDGF103991031021004501001001MA1999999091191MD1999999-0061REMSYN070AAXX  12184 83339 32497 31404 10285 20146 39119 40066 83200 333 59006;
0168833390999992009101300004-14050-042617FM-12+088299999V0200901N001012200019N0020001N1+02431+01371100841ADDGF102991021021004501001001KA1240M+02961MA1999999091321MD1999999-0151REMSYN088AAXX  13004 83339 32495 20902 10243 20137 39132 40084 82200 333 10296 29058 55072 59015;
0156833390999992009101312004-14050-042617FM-12+088299999V0201401N003110450019N0100001N1+02351+01851101041ADDGF105991041021004501021001KA1240N+01841MA1999999091541MD1999999-0061REMSYN076AAXX  13124 83339 32497 51406 10235 20185 39154 40104 84220 333 20184 59006;
0137833390999992009101318004-14050-042617FM-12+088299999V0201401N002612200019N0100001N1+03151+01221100441ADDGF104991031021004501001021MA1999999091091MD1999999-0101REMSYN070AAXX  13184 83339 32497 41405 10315 20122 39109 40044 83202 333 59010;
0178833390999992009101400004-14050-042617FM-12+088299999V0201801N000512200019N0020001N1+02711+01371100711ADDGA1001+999999999GF100991001001999999001001KA1240M+03231MA1999999091301MD1999999-0021REMSYN082AAXX  14004 83339 32995 01801 10271 20137 39130 40071 333 10323 29048 55110 59002;
0156833390999992009101412004-14050-042617FM-12+088299999V0201401N002112200019N0100001N1+02421+01821100951ADDGF103991031021004501001001KA1240N+02041MA1999999091521MD1999999-0021REMSYN076AAXX  14124 83339 32497 31404 10242 20182 39152 40095 83200 333 20204 59002;
0137833390999992009101418004-14050-042617FM-12+088299999V0201401N005112200019N0100001N1+03071+01381100351ADDGF104991041021004501001001MA1999999091031MD1999999-0061REMSYN070AAXX  14184 83339 32497 41410 10307 20138 39103 40035 84200 333 59006;
0168833390999992009101500004-14050-042617FM-12+088299999V0201401N003612200019N0020001N1+02591+01361100801ADDGF102991021021004501001001KA1240M+03201MA1999999091361MD1999999+0061REMSYN088AAXX  15004 83339 32495 21407 10259 20136 39136 40080 82200 333 10320 29050 55109 58006;
0156833390999992009101512004-14050-042617FM-12+088299999V0200501N004610450019N0100001N1+02391+01731100961ADDGF105991041021004501021001KA1240N+01831MA1999999091501MD1999999-0021REMSYN076AAXX  15124 83339 32497 50509 10239 20173 39150 40096 84220 333 20183 59002;
0137833390999992009101518004-14050-042617FM-12+088299999V0201401N003112200019N0100001N1+03021+01071100501ADDGF102991021021004501001001MA1999999091131MD1999999+0101REMSYN070AAXX  15184 83339 32497 21406 10302 20107 39113 40050 82200 333 58010;
0178833390999992009101600004-14050-042617FM-12+088299999V0201401N002612200019N0020001N1+02451+01421100851ADDGA1001+999999999GF100991001001999999001001KA1240M+03081MA1999999091361MD1999999+0001REMSYN082AAXX  16004 83339 32995 01405 10245 20142 39136 40085 333 10308 29051 55110 58000;
0156833390999992009101612004-14050-042617FM-12+088299999V0201401N003112200019N0100001N1+02471+01781101101ADDGF102991021021004501001001KA1240N+01961MA1999999091611MD1999999+0111REMSYN076AAXX  16124 83339 32497 21406 10247 20178 39161 40110 82200 333 20196 58011;
0137833390999992009101618004-14050-042617FM-12+088299999V0201801N003112200019N0100001N1+03091+01221100571ADDGF104991041021004501001001MA1999999091211MD1999999+0081REMSYN070AAXX  16184 83339 32497 41806 10309 20122 39121 40057 84200 333 58008;
0178833390999992009101700004-14050-042617FM-12+088299999V0201401N004112200019N0020001N1+02591+01361100841ADDGA1001+999999999GF100991001001999999001001KA1240M+03201MA1999999091421MD1999999+0061REMSYN082AAXX  17004 83339 32995 01408 10259 20136 39142 40084 333 10320 29048 55111 58006;
0156833390999992009101712004-14050-042617FM-12+088299999V0201401N003112200019N0100001N1+02471+01761101141ADDGF102991011021004501021001KA1240N+01941MA1999999091691MD1999999+0081REMSYN076AAXX  17124 83339 32497 21406 10247 20176 39169 40114 81220 333 20194 58008;
0137833390999992009101718004-14050-042617FM-12+088299999V0201401N002112200019N0100001N1+03151+01121100631ADDGF103991031021004501001001MA1999999091281MD1999999+0071REMSYN070AAXX  17184 83339 32497 31404 10315 20112 39128 40063 83200 333 58007;
0178833390999992009101800004-14050-042617FM-12+088299999V0201401N003612200019N0020001N1+02611+01141100831ADDGA1001+999999999GF100991001001999999001001KA1240M+03231MA1999999091411MD1999999-0011REMSYN082AAXX  18004 83339 32995 01407 10261 20114 39141 40083 333 10323 29044 55115 59001;
0175833390999992009101812004-14050-042617FM-12+088299999V0201401N004112200019N0100001N1+02451+01641100991ADDGF102991999021004501001001KA1240N+01901MA1999999091531MD1999999-0161REMSYN076AAXX  18124 83339 32497 21408 10245 20164 39153 40099 81200 333 20190 59016;EQDQ01+000012SCOTLC
0137833390999992009101818004-14050-042617FM-12+088299999V0201401N004612200019N0100001N1+03131+01251100441ADDGF104991031021004501001041MA1999999091111MD1999999-0171REMSYN070AAXX  18184 83339 32497 41409 10313 20125 39111 40044 83204 333 59017;
0168833390999992009101900004-14050-042617FM-12+088299999V0201401N003112200019N0020001N1+02651+01171100601ADDGF102991021021004501001001KA1240M+03241MA1999999091201MD1999999-0211REMSYN088AAXX  19004 83339 32495 21406 10265 20117 39120 40060 82200 333 10324 29043 55111 59021;
0156833390999992009101912004-14050-042617FM-12+088299999V0201401N002110450019N0100001N1+02351+01731100991ADDGF106991021011004501031001KA1240N+02151MA1999999091531MD1999999+0001REMSYN076AAXX  19124 83339 32497 61404 10235 20173 39153 40099 82130 333 20215 58000;
0137833390999992009101918004-14050-042617FM-12+088299999V0200901N003612200019N0100001N1+03211+01391100231ADDGF104991041021004501001001MA1999999090961MD1999999-0151REMSYN070AAXX  19184 83339 32497 40907 10321 20139 39096 40023 84200 333 59015;
0178833390999992009102000004-14050-042617FM-12+088299999V0201401N003112200019N0020001N1+02681+01351100691ADDGA1001+999999999GF100991001001999999001001KA1240M+03271MA1999999091261MD1999999+0061REMSYN082AAXX  20004 83339 32995 01406 10268 20135 39126 40069 333 10327 29047 55085 58006;
0156833390999992009102012004-14050-042617FM-12+088299999V0200901N001510450019N0100001N1+02391+01681100951ADDGF108991041021004501021999KA1240N+02151MA1999999091521MD1999999-0011REMSYN076AAXX  20124 83339 32497 80903 10239 20168 39152 40095 8422/ 333 20215 59001;
0137833390999992009102018004-14050-042617FM-12+088299999V0201401N002610042019N0100001N1+02931+01591100511ADDGF107991051021004501021001MA1999999091151MD1999999+0191REMSYN070AAXX  20184 83339 32497 71405 10293 20159 39115 40051 85220 333 58019;
0178833390999992009102100004-14050-042617FM-12+088299999V0201401N003112200019N0020001N1+02531+01511100791ADDGA1001+999999999GF100991001001999999001001KA1240M+03011MA1999999091331MD1999999+0071REMSYN082AAXX  21004 83339 32995 01406 10253 20151 39133 40079 333 10301 29054 55016 58007;
0175833390999992009102112004-14050-042617FM-12+088299999V0200501N001012200019N0100001N1+02651+01681100951ADDGF103991999001008001031011KA1240N+01961MA1999999091541MD1999999+0021REMSYN076AAXX  21124 83339 32597 30502 10265 20168 39154 40095 80031 333 20196 58002;EQDQ01+000002SCOTLC
0137833390999992009102118004-14050-042617FM-12+088299999V0203201N003110450019N0100001N1+03151+01551100451ADDGF106991041021004501031011MA1999999091121MD1999999-0031REMSYN070AAXX  21184 83339 32497 63206 10315 20155 39112 40045 84231 333 59003;
0168833390999992009102200004-14050-042617FM-12+088299999V0201401N005710042019N0020001N1+02531+01761100811ADDGF105991051021004501001001KA1240M+03271MA1999999091411MD1999999+0081REMSYN088AAXX  22004 83339 32495 51411 10253 20176 39141 40081 85200 333 10327 29054 55072 58008;
0220833390999992009102212004-14050-042617FM-12+088299999V0201401N002610042019N0100001N1+02371+01891100871ADDAA124000091AY161061AY261061GF106991051021004501021001KA1240N+02121MA1999999091401MD1999999-0141MW1021REMSYN088AAXX  22124 83339 21497 61405 10237 20189 39140 40087 70266 85220 333 20212 59014 69924;EQDQ01  00002PRCP24
0182833390999992009102218004-14050-042617FM-12+088299999V0203201N001510042019N0100001N1+02581+01941100561ADDAA106003091AY161061AY261061GF106991051021004501031001MA1999999091081MD1999999-0041MW1021REMSYN082AAXX  22184 83339 21497 63203 10258 20194 39108 40056 70266 85230 333 59004 60031;
0168833390999992009102300004-14050-042617FM-12+088299999V0209999C000010042019N0020001N1+02491+01771100721ADDGF105991051021004501001001KA1240M+03271MA1999999091261MD1999999-0151REMSYN088AAXX  23004 83339 32495 50000 10249 20177 39126 40072 85200 333 10327 29068 55007 59015;
0201833390999992009102312004-14050-042617FM-12+088299999V0200501N002112200019N0100001N1+02401+02031100851ADDAA124004191AY161061AY221061GF104991021021004501001041KA1240N+02091MA1999999091381MD1999999-0021MW1021REMSYN088AAXX  23124 83339 21497 40504 10240 20203 39138 40085 70262 82204 333 20209 59002 60044;
0137833390999992009102318004-14050-042617FM-12+088299999V0200501N004610042019N0100001N1+02601+01991100441ADDGF106991061021004501001001MA1999999091011MD1999999-0071REMSYN070AAXX  23184 83339 32497 60509 10260 20199 39101 40044 86200 333 59007;
0213833390999992009102400004-14050-042617FM-12+088299999V0202301N001510042019N0020001N1+02331+02051100811ADDAA106001091AY161061AY221061GF108991051021004501021999KA1240M+03061MA1999999091311MD1999999+0051MW1021REMSYN100AAXX  24004 83339 21495 82303 10233 20205 39131 40081 70262 8522/ 333 10306 29079 55044 58005 60011;
0201833390999992009102412004-14050-042617FM-12+088299999V0200501N001510450019N0100001N1+02191+02031101041ADDAA124009991AY161061AY221061GF105991021011004501031001KA1240N+01981MA1999999091481MD1999999+0101MW1021REMSYN088AAXX  24124 83339 21497 50503 10219 20203 39148 40104 70262 82130 333 20198 58010 60104;
0182833390999992009102418004-14050-042617FM-12+088299999V0209999C000012200019N0100001N1+02351+01991100641ADDAA106007191AY161061AY221061GF105991041021004501001041MA1999999091071MD1999999+0061MW1021REMSYN082AAXX  24184 83339 21497 50000 10235 20199 39107 40064 70262 84204 333 58006 60071;
0232833390999992009102500004-14050-042617FM-12+088299999V0209999C000010450019N0020001N1+02251+01941100961ADDAA106000091AY161061AY221061GF106991041021004501021001KA1240M+02791MA1999999091381MD1999999+0071MW1021REMSYN100AAXX  25004 83339 21495 60000 10225 20194 39138 40096 70262 84220 333 10279 29084 55030 58007 69921;EQDQ01  00002PRCP06
0201833390999992009102512004-14050-042617FM-12+088299999V0209999C000010450019N0100001N1+02351+02091100911ADDAA124006191AY161061AY221061GF106991031021004501031001KA1240N+02041MA1999999091381MD1999999-0101MW1021REMSYN088AAXX  25124 83339 21497 60000 10235 20209 39138 40091 70262 83230 333 20204 59010 60064;
0201833390999992009102518004-14050-042617FM-12+088299999V0201401N006710042019N0100001N1+02381+02091100641ADDAA106000091AY161061AY221061GF108991061021004501021999MA1999999091121MD1999999+0051MW1171REMSYN082AAXX  25184 83339 21497 81413 10238 20209 39112 40064 71762 8622/ 333 58005 69921;EQDQ01  00002PRCP06
0213833390999992009102600004-14050-042617FM-12+088299999V0201801N001510042019N0020001N1+02251+02051100831ADDAA106000591AY161061AY261061GF108991081051004501999999KA1240M+02901MA1999999091311MD1999999-0071MW1101REMSYN100AAXX  26004 83339 21495 81803 10225 20205 39131 40083 71066 885// 333 10290 29087 55043 59007 69961;
0201833390999992009102612004-14050-042617FM-12+088299999V0200901N002610042019N0040001N1+02211+02011100961ADDAA124023991AY161061AY261061GF108991081051004501999999KA1240N+02001MA1999999091411MD1999999+0031MW1101REMSYN088AAXX  26124 83339 21496 80905 10221 20201 39141 40096 71066 885// 333 20200 58003 60244;
0165833390999992009102618004-14050-042617FM-12+088299999V0200901N001510042019N0040001N1+02391+02031100611ADDAY101061AY201061GF106991051021004501021001MA1999999091091MD1999999-0031MW1101REMSYN076AAXX  26184 83339 31496 60903 10239 20203 39109 40061 71000 85220 333 59003;
0196833390999992009102700004-14050-042617FM-12+088299999V0209999C000010042019N0020001N1+02251+01961100871ADDAY101061AY201061GF106991051021004501021001KA1240M+02521MA1999999091331MD1999999+0021MW1131REMSYN094AAXX  27004 83339 31495 60000 10225 20196 39133 40087 71300 85220 333 10252 29084 55012 58002;
0184833390999992009102712004-14050-042617FM-12+088299999V0201401N002110042019N0100001N1+02311+01961100921ADDAY101061AY201061GF106991061021004501001001KA1240N+02101MA1999999091391MD1999999-0021MW1101REMSYN082AAXX  27124 83339 31497 61404 10231 20196 39139 40092 71000 86200 333 20210 59002;
0182833390999992009102718004-14050-042617FM-12+088299999V0200501N000510042019N0040001N1+02211+02151100671ADDAA106006191AY161061AY261061GF107991061021004501021999MA1999999091131MD1999999+0041MW1101REMSYN082AAXX  27184 83339 21496 70501 10221 20215 39113 40067 71066 8622/ 333 58004 60061;
0213833390999992009102800004-14050-042617FM-12+088299999V0202701N003610042019N0020001N1+02091+02011101021ADDAA106003091AY191061AY261061GF108991081051004501999999KA1240M+02581MA1999999091441MD1999999+0111MW1611REMSYN100AAXX  28004 83339 21495 82707 10209 20201 39144 40102 76196 885// 333 10258 29092 55014 58011 60031;
0201833390999992009102812004-14050-042617FM-12+088299999V0200901N001510042019N0040001N1+02171+01971101041ADDAA124018091AY161061AY261061GF106991051021004501031001KA1240N+01931MA1999999091441MD1999999+0051MW1101REMSYN088AAXX  28124 83339 21496 60903 10217 20197 39144 40104 71066 85230 333 20193 58005 60184;
0182833390999992009102818004-14050-042617FM-12+088299999V0201401N002610042019N0040001N1+02271+02071100711ADDAA106002091AY161061AY261061GF108991081051004501999999MA1999999091141MD1999999+0011MW1601REMSYN082AAXX  28184 83339 21496 81405 10227 20207 39114 40071 76066 885// 333 58001 60021;
0201833390999992009102912004-14050-042617FM-12+088299999V0201401N003110042019N0040001N1+01871+01811101171ADDAA124080091AY191061AY261061GF108991081051004501999999KA1240N+01831MA1999999091471MD1999999+0031MW1631REMSYN088AAXX  29124 83339 21496 81406 10187 20181 39147 40117 76396 885// 333 20183 58003 60804;
0182833390999992009102918004-14050-042617FM-12+088299999V0201401N002610042019N0040001N1+02091+01841100841ADDAA106001091AY161061AY261061GF107991061021004501021999MA1999999091201MD1999999+0061MW1101REMSYN082AAXX  29184 83339 21496 71405 10209 20184 39120 40084 71066 8622/ 333 58006 60011;
0196833390999992009103000004-14050-042617FM-12+088299999V0200901N000510042019N0020001N1+01951+01891100931ADDAY101061AY201061GF108991081051004501999999KA1240M+02141MA1999999091241MD1999999-0171MW1101REMSYN094AAXX  30004 83339 31495 80901 10195 20189 39124 40093 71000 885// 333 10214 29094 55000 59017;
0201833390999992009103012004-14050-042617FM-12+088299999V0202301N000510042019N0040001N1+02031+01921100961ADDAA124001091AY161061AY261061GF108991081051004501999999KA1240N+01821MA1999999091311MD1999999-0161MW1101REMSYN088AAXX  30124 83339 21496 82301 10203 20192 39131 40096 71066 885// 333 20182 59016 60014;
0165833390999992009103018004-14050-042617FM-12+088299999V0201401N004110042019N0040001N1+02251+01961100531ADDAY101061AY201061GF107991061021004501021999MA1999999090941MD1999999-0261MW1101REMSYN076AAXX  30184 83339 31496 71408 10225 20196 39094 40053 71000 8622/ 333 59026;
0213833390999992009103100004-14050-042617FM-12+088299999V0203201N002110042019N0020001N1+01931+01751100941ADDAA106003091AY191061AY261061GF108991081051004501999999KA1240M+02341MA1999999091291MD1999999+0051MW1601REMSYN100AAXX  31004 83339 21495 83204 10193 20175 39129 40094 76096 885// 333 10234 29090 55000 58005 60031;
0201833390999992009103112004-14050-042617FM-12+088299999V0202701N003110042019N0040001N1+01991+01851101151ADDAA124014091AY161061AY261061GF108991081051004501999999KA1240N+01901MA1999999091451MD1999999+0141MW1601REMSYN088AAXX  31124 83339 21496 82706 10199 20185 39145 40115 76066 885// 333 20190 58014 60144;
0182833390999992009103118004-14050-042617FM-12+088299999V0202701N001510042019N0100001N1+02451+01941100641ADDAA106000021AY161061AY221061GF108991051021004501021999MA1999999091141MD1999999+0201MW1021REMSYN082AAXX  31184 83339 21497 82703 10245 20194 39114 40064 70262 8522/ 333 58020 69901;
0168833390999992009110100004-14050-042617FM-12+088299999V0201401N002110042019N0100001N1+02121+01931101001ADDGF108991061021004501021999KA1240M+02501MA1999999091361MD1999999+0071REMSYN088AAXX  01004 83339 32497 81404 10212 20193 39136 40100 8622/ 333 10250 29086 55000 58007;
0156833390999992009110112004-14050-042617FM-12+088299999V0201401N002110042019N0100001N1+02111+01951101131ADDGF108991051021004501021999KA1240N+01871MA1999999091501MD1999999+0051REMSYN076AAXX  01124 83339 32497 81404 10211 20195 39150 40113 8522/ 333 20187 58005;
0182833390999992009110118004-14050-042617FM-12+088299999V0200901N003110042019N0100001N1+02231+01901100861ADDAA106008991AY161061AY221061GF108991061021004501021999MA1999999091251MD1999999+0111MW1171REMSYN082AAXX  01184 83339 21497 80906 10223 20190 39125 40086 71762 8622/ 333 58011 60091;
0213833390999992009110200004-14050-042617FM-12+088299999V0202301N003110042019N0020001N1+01951+01891101371ADDAA106031091AY191061AY261061GF108991061021004501021999KA1240M+02611MA1999999091701MD1999999+0341MW1601REMSYN100AAXX  02004 83339 21495 82306 10195 20189 39170 40137 76096 8622/ 333 10261 29091 55017 58034 60311;
0201833390999992009110212004-14050-042617FM-12+088299999V0201401N002610450019N0100001N1+02051+01911101421ADDAA124043991AY161061AY241061GF108991041021004501021999KA1240N+01831MA1999999091681MD1999999+0181MW1021REMSYN088AAXX  02124 83339 21497 81405 10205 20191 39168 40142 70264 8422/ 333 20183 58018 60444;
0137833390999992009110218004-14050-042617FM-12+088299999V0200901N003612200019N0100001N1+02711+01771100801ADDGF103991031021004501001001MA1999999091281MD1999999+0031REMSYN070AAXX  02184 83339 32497 30907 10271 20177 39128 40080 83200 333 58003;
0168833390999992009110300004-14050-042617FM-12+088299999V0201401N003112200019N0020001N1+02371+01751101061ADDGF102991021011004501001001KA1240M+02801MA1999999091471MD1999999-0231REMSYN088AAXX  03004 83339 32495 21406 10237 20175 39147 40106 82100 333 10280 29070 55066 59023;
0156833390999992009110312004-14050-042617FM-12+088299999V0201401N004612200019N0100001N1+02151+01641101131ADDGF103991021021004501031001KA1240N+01821MA1999999091561MD1999999-0121REMSYN076AAXX  03124 83339 32497 31409 10215 20164 39156 40113 82230 333 20182 59012;
0137833390999992009110318004-14050-042617FM-12+088299999V0200901N005112200019N0100001N1+02671+01651100751ADDGF104991031021004501001021MA1999999091271MD1999999-0011REMSYN070AAXX  03184 83339 32497 40910 10267 20165 39127 40075 83202 333 59001;
0168833390999992009110400004-14050-042617FM-12+088299999V0201401N005112200019N0100001N1+02311+01391100971ADDGF103991011011004501001011KA1240M+02761MA1999999091421MD1999999-0051REMSYN088AAXX  04004 83339 32497 31410 10231 20139 39142 40097 81101 333 10276 29060 55088 59005;
0156833390999992009110412004-14050-042617FM-12+088299999V0201401N004112200019N0100001N1+02251+01661101221ADDGF103991011011004501001011KA1240N+01821MA1999999091661MD1999999+0111REMSYN076AAXX  04124 83339 32497 31408 10225 20166 39166 40122 81101 333 20182 58011;
0137833390999992009110418004-14050-042617FM-12+088299999V0201401N004112200019N0100001N1+02631+01321100891ADDGF103991011011004501031011MA1999999091381MD1999999+0111REMSYN070AAXX  04184 83339 32497 31408 10263 20132 39138 40089 81131 333 58011;
0178833390999992009110500004-14050-042617FM-12+088299999V0201401N004612200019N0020001N1+02211+01551101211ADDGA1001+999999999GF100991001001999999001001KA1240M+02701MA1999999091641MD1999999+0221REMSYN082AAXX  05004 83339 32995 01409 10221 20155 39164 40121 333 10270 29061 55112 58022;
0156833390999992009110512004-14050-042617FM-12+088299999V0201401N002612200019N0100001N1+02251+01791101491ADDGF104991041011004501001001KA1240N+01821MA1999999091881MD1999999+0221REMSYN076AAXX  05124 83339 32497 41405 10225 20179 39188 40149 84100 333 20182 58022;
0137833390999992009110518004-14050-042617FM-12+088299999V0200901N004112200019N0100001N1+02671+01671101131ADDGF105991031011004501001011MA1999999091601MD1999999+0221REMSYN070AAXX  05184 83339 32497 50908 10267 20167 39160 40113 83101 333 58022;
0178833390999992009110600004-14050-042617FM-12+088299999V0201401N003112200019N0020001N1+02231+01691101261ADDGA1001+999999999GF100991001001999999001001KA1240M+02801MA1999999091671MD1999999+0031REMSYN082AAXX  06004 83339 32995 01406 10223 20169 39167 40126 333 10280 29068 55101 58003;
0156833390999992009110612004-14050-042617FM-12+088299999V0200901N004110042019N0100001N1+02201+01781101411ADDGF105991051021004501001001KA1240N+01851MA1999999091791MD1999999-0091REMSYN076AAXX  06124 83339 32497 50908 10220 20178 39179 40141 85200 333 20185 59009;
0137833390999992009110618004-14050-042617FM-12+088299999V0201401N003110450019N0100001N1+02631+01691100911ADDGF106991021011004501031011MA1999999091401MD1999999-0201REMSYN070AAXX  06184 83339 32497 61406 10263 20169 39140 40091 82131 333 59020;
0178833390999992009110700004-14050-042617FM-12+088299999V0201401N003612200019N0020001N1+02311+01701101021ADDGA1001+999999999GF100991001001999999001001KA1240M+02681MA1999999091461MD1999999-0211REMSYN082AAXX  07004 83339 32995 01407 10231 20170 39146 40102 333 10268 29068 55048 59021;
0156833390999992009110712004-14050-042617FM-12+088299999V0201401N003112200019N0100001N1+02211+01711101251ADDGF103991011011004501031011KA1240N+01791MA1999999091661MD1999999-0131REMSYN076AAXX  07124 83339 32497 31406 10221 20171 39166 40125 81131 333 20179 59013;
0137833390999992009110718004-14050-042617FM-12+088299999V0201401N003112200019N0100001N1+02551+01591100861ADDGF106991021011004501001041MA1999999091341MD1999999-0061REMSYN070AAXX  07184 83339 32497 61406 10255 20159 39134 40086 82104 333 59006;
0178833390999992009110800004-14050-042617FM-12+088299999V0201401N001512200019N0020001N1+02191+01541101011ADDGA1001+999999999GF100991001001999999001001KA1240M+02671MA1999999091431MD1999999-0031REMSYN082AAXX  08004 83339 32995 01403 10219 20154 39143 40101 333 10267 29065 55075 59003;
0156833390999992009110812004-14050-042617FM-12+088299999V0200501N001512200019N0100001N1+02201+01921101181ADDGF102991011011004501001011KA1240N+01701MA1999999091581MD1999999-0081REMSYN076AAXX  08124 83339 32497 20503 10220 20192 39158 40118 81101 333 20170 59008;
0137833390999992009110818004-14050-042617FM-12+088299999V0202701N003110042019N0100001N1+02931+01821100651ADDGF106991051021004501001011MA1999999091201MD1999999-0141REMSYN070AAXX  08184 83339 32497 62706 10293 20182 39120 40065 85201 333 59014;
0178833390999992009110900004-14050-042617FM-12+088299999V0209999C000012200019N0020001N1+02331+01741100921ADDGA1001+999999999GF100991001001999999001001KA1240M+03021MA1999999091371MD1999999-0061REMSYN082AAXX  09004 83339 32995 00000 10233 20174 39137 40092 333 10302 29068 55085 59006;
0156833390999992009110912004-14050-042617FM-12+088299999V0200501N001512200019N0100001N1+02711+01881100951ADDGF102991021021004501001001KA1240N+02071MA1999999091491MD1999999-0091REMSYN076AAXX  09124 83339 32497 20503 10271 20188 39149 40095 82200 333 20207 59009;
0182833390999992009110918004-14050-042617FM-12+088299999V0201801N000510042019N0040001N1+02571+01991100641ADDAA106000591AY161061AY261061GF106991051021004501021001MA1999999091171MD1999999-0031MW1021REMSYN082AAXX  09184 83339 21496 61801 10257 20199 39117 40064 70266 85220 333 59003 69961;
0196833390999992009111000004-14050-042617FM-12+088299999V0200901N001510042019N0020001N1+02291+01941100791ADDAY101061AY201061GF105991051021004501001001KA1240M+03001MA1999999091351MD1999999-0021MW1101REMSYN094AAXX  10004 83339 31495 50903 10229 20194 39135 40079 71000 85200 333 10300 29074 55057 59002;
0201833390999992009111012004-14050-042617FM-12+088299999V0201401N003610042019N0100001N1+02371+01951101001ADDAA124000591AY161061AY261061GF106991061021004501001001KA1240N+02061MA1999999091481MD1999999-0011MW1021REMSYN088AAXX  10124 83339 21497 61407 10237 20195 39148 40100 70266 86200 333 20206 59001 69964;
0137833390999992009111018004-14050-042617FM-12+088299999V0201401N004112200019N0100001N1+02771+01941100601ADDGF104991041021004501001001MA1999999091151MD1999999-0021REMSYN070AAXX  10184 83339 32497 41408 10277 20194 39115 40060 84200 333 59002;
0168833390999992009111100004-14050-042617FM-12+088299999V0201401N002112200019N0020001N1+02271+01751100911ADDGF102991021021004501001001KA1240M+02851MA1999999091381MD1999999+0031REMSYN088AAXX  11004 83339 32495 21404 10227 20175 39138 40091 82200 333 10285 29071 55045 58003;
0156833390999992009111112004-14050-042617FM-12+088299999V0200901N002112200019N0100001N1+02311+01851100971ADDGF102991021021004501001001KA1240N+01821MA1999999091441MD1999999-0041REMSYN076AAXX  11124 83339 32497 20904 10231 20185 39144 40097 82200 333 20182 59004;
0137833390999992009111118004-14050-042617FM-12+088299999V0201401N002612200019N0100001N1+02831+01611100581ADDGF103991031021004501001001MA1999999091141MD1999999-0011REMSYN070AAXX  11184 83339 32497 31405 10283 20161 39114 40058 83200 333 59001;
0178833390999992009111200004-14050-042617FM-12+088299999V0201401N003612200019N0020001N1+02351+01441100771ADDGA1001+999999999GF100991001001999999001001KA1240M+02921MA1999999091271MD1999999-0111REMSYN082AAXX  12004 83339 32995 01407 10235 20144 39127 40077 333 10292 29059 55094 59011;
0184833390999992009111212004-14050-042617FM-12+088299999V0201401N003110042019N0040001N1+02151+01861100951ADDAY101061AY201061GF108991081051004501999999KA1240N+01881MA1999999091401MD1999999-0041MW1101REMSYN082AAXX  12124 83339 31496 81406 10215 20186 39140 40095 71000 885// 333 20188 59004;
0137833390999992009111218004-14050-042617FM-12+088299999V0201401N004612200019N0100001N1+02751+01701100471ADDGF102991021021004501001001MA1999999091041MD1999999-0101REMSYN070AAXX  12184 83339 32497 21409 10275 20170 39104 40047 82200 333 59010;
0178833390999992009111300004-14050-042617FM-12+088299999V0201401N004112200019N0020001N1+02331+01581100681ADDGA1001+999999999GF100991001001999999001001KA1240M+02841MA1999999091151MD1999999-0121REMSYN082AAXX  13004 83339 32995 01408 10233 20158 39115 40068 333 10284 29066 55075 59012;
0156833390999992009111312004-14050-042617FM-12+088299999V0201401N002612200019N0100001N1+02271+01641100921ADDGF102991021021004501001001KA1240N+01761MA1999999091391MD1999999-0011REMSYN076AAXX  13124 83339 32497 21405 10227 20164 39139 40092 82200 333 20176 59001;
0137833390999992009111318004-14050-042617FM-12+088299999V0201401N005112200019N0100001N1+02811+01071100601ADDGF102991021021004501001001MA1999999091141MD1999999+0101REMSYN070AAXX  13184 83339 32497 21410 10281 20107 39114 40060 82200 333 58010;
0178833390999992009111400004-14050-042617FM-12+088299999V0201401N002612200019N0020001N1+02221+01551100861ADDGA1001+999999999GF100991001001999999001001KA1240M+02901MA1999999091321MD1999999+0171REMSYN082AAXX  14004 83339 32995 01405 10222 20155 39132 40086 333 10290 29058 55118 58017;
0156833390999992009111412004-14050-042617FM-12+088299999V0201401N004612200019N0100001N1+02131+01641101141ADDGF104991041021004501001001KA1240N+01831MA1999999091531MD1999999+0141REMSYN076AAXX  14124 83339 32497 41409 10213 20164 39153 40114 84200 333 20183 58014;
0137833390999992009111418004-14050-042617FM-12+088299999V0200501N001510042019N0100001N1+02791+01441100661ADDGF105991051021004501001001MA1999999091191MD1999999+0051REMSYN070AAXX  14184 83339 32497 50503 10279 20144 39119 40066 85200 333 58005;
0168833390999992009111500004-14050-042617FM-12+088299999V0201801N002612200019N0020001N1+02351+01441101021ADDGF102991021021004501001001KA1240M+02901MA1999999091461MD1999999+0141REMSYN088AAXX  15004 83339 32495 21805 10235 20144 39146 40102 82200 333 10290 29058 55087 58014;
0156833390999992009111512004-14050-042617FM-12+088299999V0201401N003610042019N0100001N1+02311+01851101011ADDGF106991061021004501001001KA1240N+01941MA1999999091491MD1999999-0041REMSYN076AAXX  15124 83339 32497 61407 10231 20185 39149 40101 86200 333 20194 59004;
0137833390999992009111518004-14050-042617FM-12+088299999V0201401N001512200019N0100001N1+02851+01531100511ADDGF103991031021004501001001MA1999999091101MD1999999-0091REMSYN070AAXX  15184 83339 32497 31403 10285 20153 39110 40051 83200 333 59009;
0178833390999992009111600004-14050-042617FM-12+088299999V0202301N001512200019N0020001N1+02511+01421100661ADDGA1001+999999999GF100991001001999999001001KA1240M+03081MA1999999091191MD1999999-0271REMSYN082AAXX  16004 83339 32995 02303 10251 20142 39119 40066 333 10308 29056 55082 59027;
0175833390999992009111612004-14050-042617FM-12+088299999V0200501N003119999999N0100001N1+02631+01851100841ADDGF105991001001999999001011KA1240N+01981MA1999999091421MD1999999-0071REMSYN076AAXX  16124 83339 32897 50506 10263 20185 39142 40084 80001 333 20198 59007;EQDQ01+022502SCOLCB
0137833390999992009111618004-14050-042617FM-12+088299999V0201801N002612200019N0100001N1+03171+01571100391ADDGF103991031021004501001001MA1999999091061MD1999999-0041REMSYN070AAXX  16184 83339 32497 31805 10317 20157 39106 40039 83200 333 59004;
0178833390999992009111700004-14050-042617FM-12+088299999V0209999C000012200019N0020001N1+02471+01601100601ADDGA1001+999999999GF100991001001999999001001KA1240M+03331MA1999999091201MD1999999+0011REMSYN082AAXX  17004 83339 32995 00000 10247 20160 39120 40060 333 10333 29054 55093 58001;
0156833390999992009111712004-14050-042617FM-12+088299999V0201401N005712200019N0100001N1+02511+01911101001ADDGF103991011011004501001011KA1240N+01991MA1999999091541MD1999999+0121REMSYN076AAXX  17124 83339 32497 31411 10251 20191 39154 40100 81101 333 20199 58012;
0137833390999992009111718004-14050-042617FM-12+088299999V0201401N002612200019N0100001N1+03031+01711100561ADDGF105991021011004501001011MA1999999091201MD1999999+0141REMSYN070AAXX  17184 83339 32497 51405 10303 20171 39120 40056 82101 333 58014;
0168833390999992009111800004-14050-042617FM-12+088299999V0201401N005112200019N0020001N1+02571+01821100931ADDGF104991041021004501001001KA1240M+03081MA1999999091501MD1999999+0301REMSYN088AAXX  18004 83339 32495 41410 10257 20182 39150 40093 84200 333 10308 29060 55102 58030;
0156833390999992009111812004-14050-042617FM-12+088299999V0201401N005710042019N0100001N1+02171+01841101251ADDGF108991051021004501021999KA1240N+02041MA1999999091711MD1999999+0171REMSYN076AAXX  18124 83339 32497 81411 10217 20184 39171 40125 8522/ 333 20204 58017;
0137833390999992009111818004-14050-042617FM-12+088299999V0200901N005112200019N0100001N1+02691+01831100711ADDGF102991021021004501001001MA1999999091281MD1999999+0081REMSYN070AAXX  18184 83339 32497 20910 10269 20183 39128 40071 82200 333 58008;
0178833390999992009111900004-14050-042617FM-12+088299999V0201401N004612200019N0020001N1+02251+01941101131ADDGA1001+999999999GF100991001001999999001001KA1240M+02741MA1999999091541MD1999999+0041REMSYN082AAXX  19004 83339 32995 01409 10225 20194 39154 40113 333 10274 29073 55073 58004;
0156833390999992009111912004-14050-042617FM-12+088299999V0201401N004610042019N0100001N1+02211+01941101291ADDGF106991061021004501001001KA1240N+02001MA1999999091701MD1999999-0011REMSYN076AAXX  19124 83339 32497 61409 10221 20194 39170 40129 86200 333 20200 59001;
0137833390999992009111918004-14050-042617FM-12+088299999V0200901N005712200019N0100001N1+02741+01811100761ADDGF103991031021004501001001MA1999999091301MD1999999+0021REMSYN070AAXX  19184 83339 32497 30911 10274 20181 39130 40076 83200 333 58002;
0178833390999992009112000004-14050-042617FM-12+088299999V0201401N004612200019N0020001N1+02271+01661101161ADDGA1001+999999999GF100991001001999999001001KA1240M+02791MA1999999091591MD1999999+0051REMSYN082AAXX  20004 83339 32995 01409 10227 20166 39159 40116 333 10279 29069 55057 58005;
0156833390999992009112012004-14050-042617FM-12+088299999V0201401N006212200019N0100001N1+02321+01651101271ADDGF104991041021004501001001KA1240N+01841MA1999999091711MD1999999+0011REMSYN076AAXX  20124 83339 32497 41412 10232 20165 39171 40127 84200 333 20184 58001;
0137833390999992009112018004-14050-042617FM-12+088299999V0201401N005112200019N0100001N1+02831+01461100861ADDGF102991021011004501001001MA1999999091391MD1999999+0091REMSYN070AAXX  20184 83339 32497 21410 10283 20146 39139 40086 82100 333 58009;
0178833390999992009112100004-14050-042617FM-12+088299999V0201401N003612200019N0020001N1+02331+01381101031ADDGA1001+999999999GF100991001001999999001001KA1240M+02901MA1999999091491MD1999999-0101REMSYN082AAXX  21004 83339 32995 01407 10233 20138 39149 40103 333 10290 29055 55098 59010;
0175833390999992009112112004-14050-042617FM-12+088299999V0201401N003112200019N0100001N1+02291+01751101391ADDGF103991001001999999001011KA1240N+01821MA1999999091821MD1999999+0111REMSYN076AAXX  21124 83339 32897 31406 10229 20175 39182 40139 80001 333 20182 58011;EQDQ01+022502SCOLCB
0137833390999992009112118004-14050-042617FM-12+088299999V0200501N003112200019N0100001N1+02931+01191100981ADDGF102991011011004501001011MA1999999091521MD1999999+0131REMSYN070AAXX  21184 83339 32497 20506 10293 20119 39152 40098 81101 333 58013;
0178833390999992009112200004-14050-042617FM-12+088299999V0201401N003112200019N0020001N1+02431+01301101201ADDGA1001+999999999GF100991001001999999001001KA1240M+03011MA1999999091661MD1999999+0171REMSYN082AAXX  22004 83339 32995 01406 10243 20130 39166 40120 333 10301 29051 55114 58017;
0166833390999992009112212004-14050-042617FM-12+088299999V0201401N004612200019N0100001N1+02331+01671101311ADDGA1001+999999999GF100991001001999999001001KA1240N+01771MA1999999091781MD1999999-0041REMSYN070AAXX  22124 83339 32997 01409 10233 20167 39178 40131 333 20177 59004;
0147833390999992009112218004-14050-042617FM-12+088299999V0201401N003112200019N0100001N1+02911+01111100881ADDGA1001+999999999GF100991001001999999001001MA1999999091441MD1999999-0081REMSYN064AAXX  22184 83339 32997 01406 10291 20111 39144 40088 333 59008;
0178833390999992009112300004-14050-042617FM-12+088299999V0209999C000012200019N0020001N1+02301+00711101041ADDGA1001+999999999GF100991001001999999001001KA1240M+02981MA1999999091501MD1999999-0161REMSYN082AAXX  23004 83339 32995 00000 10230 20071 39150 40104 333 10298 29043 55118 59016;
0156833390999992009112312004-14050-042617FM-12+088299999V0201401N003112200019N0100001N1+02351+01691101051ADDGF102991011021004501021001KA1240N+01781MA1999999091511MD1999999-0271REMSYN076AAXX  23124 83339 32497 21406 10235 20169 39151 40105 81220 333 20178 59027;
0137833390999992009112318004-14050-042617FM-12+088299999V0202301N001512200019N0100001N1+03031+01091100521ADDGF104991041021004501001001MA1999999091131MD1999999-0311REMSYN070AAXX  23184 83339 32497 42303 10303 20109 39113 40052 84200 333 59031;
0178833390999992009112400004-14050-042617FM-12+088299999V0201401N004112200019N0020001N1+02431+01401100731ADDGA1001+999999999GF100991001001999999001001KA1240M+03101MA1999999091231MD1999999-0251REMSYN082AAXX  24004 83339 32995 01408 10243 20140 39123 40073 333 10310 29051 55119 59025;
0156833390999992009112412004-14050-042617FM-12+088299999V0200501N006212200019N0100001N1+02411+01891100891ADDGF102991021021004501001001KA1240N+01761MA1999999091401MD1999999-0111REMSYN076AAXX  24124 83339 32497 20512 10241 20189 39140 40089 82200 333 20176 59011;
0137833390999992009112418004-14050-042617FM-12+088299999V0201801N001012200019N0100001N1+02991+01401100501ADDGF104991041021004501001001MA1999999091111MD1999999-0021REMSYN070AAXX  24184 83339 32497 41802 10299 20140 39111 40050 84200 333 59002;
0178833390999992009112500004-14050-042617FM-12+088299999V0201401N003612200019N0020001N1+02451+01421100721ADDGA1001+999999999GF100991001001999999001001KA1240M+03081MA1999999091261MD1999999+0011REMSYN082AAXX  25004 83339 32995 01407 10245 20142 39126 40072 333 10308 29054 55117 58001;
0156833390999992009112512004-14050-042617FM-12+088299999V0200901N002112200019N0100001N1+02451+01831100951ADDGF102991011021004501021001KA1240N+01801MA1999999091471MD1999999+0071REMSYN076AAXX  25124 83339 32497 20904 10245 20183 39147 40095 81220 333 20180 58007;
0137833390999992009112518004-14050-042617FM-12+088299999V0200901N003112200019N0100001N1+03051+01531100581ADDGF103991031021004501001001MA1999999091201MD1999999+0091REMSYN070AAXX  25184 83339 32497 30906 10305 20153 39120 40058 83200 333 58009;
0178833390999992009112600004-14050-042617FM-12+088299999V0201401N003612200019N0020001N1+02491+01461100871ADDGA1001+999999999GF100991001001999999001001KA1240M+03181MA1999999091401MD1999999+0141REMSYN082AAXX  26004 83339 32995 01407 10249 20146 39140 40087 333 10318 29054 55115 58014;
0156833390999992009112612004-14050-042617FM-12+088299999V0201401N003110042019N0100001N1+02351+01761101151ADDGF106991051021004501021001KA1240N+01921MA1999999091641MD1999999+0171REMSYN076AAXX  26124 83339 32497 61406 10235 20176 39164 40115 85220 333 20192 58017;
0137833390999992009112618004-14050-042617FM-12+088299999V0201401N002610042019N0100001N1+02971+01571100741ADDGF106991051021004501021001MA1999999091341MD1999999+0141REMSYN070AAXX  26184 83339 32497 61405 10297 20157 39134 40074 85220 333 58014;
0168833390999992009112700004-14050-042617FM-12+088299999V0201401N003112200019N0020001N1+02491+01621100911ADDGF103991031021004501001001KA1240M+03041MA1999999091421MD1999999+0021REMSYN088AAXX  27004 83339 32495 31406 10249 20162 39142 40091 83200 333 10304 29055 55111 58002;
0156833390999992009112712004-14050-042617FM-12+088299999V0201401N003612200019N0100001N1+02331+01721101121ADDGF102991021021004501001001KA1240N+01841MA1999999091611MD1999999-0031REMSYN076AAXX  27124 83339 32497 21407 10233 20172 39161 40112 82200 333 20184 59003;
0137833390999992009112718004-14050-042617FM-12+088299999V0201401N004612200019N0100001N1+03111+01501100651ADDGF104991041021004501001001MA1999999091281MD1999999-0061REMSYN070AAXX  27184 83339 32497 41409 10311 20150 39128 40065 84200 333 59006;
0178833390999992009112800004-14050-042617FM-12+088299999V0201401N004612200019N0020001N1+02571+01241100831ADDGA1001+999999999GF100991001001999999001001KA1240M+03161MA1999999091361MD1999999-0061REMSYN082AAXX  28004 83339 32995 01409 10257 20124 39136 40083 333 10316 29049 55118 59006;
0166833390999992009112812004-14050-042617FM-12+088299999V0200501N006212200019N0100001N1+02431+01671100951ADDGA1001+999999999GF100991001001999999001001KA1240N+01731MA1999999091491MD1999999-0121REMSYN070AAXX  28124 83339 32997 00512 10243 20167 39149 40095 333 20173 59012;
0137833390999992009112818004-14050-042617FM-12+088299999V0202301N001512200019N0100001N1+03251+00731100441ADDGF102991011021004501001021MA1999999091111MD1999999-0171REMSYN070AAXX  28184 83339 32497 22303 10325 20073 39111 40044 81202 333 59017;
0168833390999992009112900004-14050-042617FM-12+088299999V0201801N004612200019N0020001N1+02591+01261100681ADDGF102991021021004501001001KA1240M+03321MA1999999091251MD1999999-0111REMSYN088AAXX  29004 83339 32495 21809 10259 20126 39125 40068 82200 333 10332 29043 55120 59011;
0156833390999992009112912004-14050-042617FM-12+088299999V0201401N002610450019N0100001N1+02521+01771100891ADDGF105991041011004501021001KA1240N+01821MA1999999091461MD1999999-0031REMSYN076AAXX  29124 83339 32497 51405 10252 20177 39146 40089 84120 333 20182 59003;
0137833390999992009112918004-14050-042617FM-12+088299999V0203201N003610042019N0100001N1+03121+01211100451ADDGF106991061021004501001001MA1999999091101MD1999999-0011REMSYN070AAXX  29184 83339 32497 63207 10312 20121 39110 40045 86200 333 59001;
0168833390999992009113000004-14050-042617FM-12+088299999V0201801N001512200019N0020001N1+02651+01091100601ADDGF102991021021004501001001KA1240M+03381MA1999999091221MD1999999-0031REMSYN088AAXX  30004 83339 32495 21803 10265 20109 39122 40060 82200 333 10338 29042 55103 59003;
0166833390999992009113012004-14050-042617FM-12+088299999V0200501N001512200019N0100001N1+02591+01511100811ADDGA1001+999999999GF100991001001999999001001KA1240N+02081MA1999999091411MD1999999-0051REMSYN070AAXX  30124 83339 32997 00503 10259 20151 39141 40081 333 20208 59005;
0137833390999992009113018004-14050-042617FM-12+088299999V0200501N001510042019N0100001N1+03151+01291100361ADDGF105991051021004501001001MA1999999091061MD1999999-0041REMSYN070AAXX  30184 83339 32497 50503 10315 20129 39106 40036 85200 333 59004;
0168833390999992009120100004-14050-042617FM-12+088299999V0203201N001010042019N0020001N1+02581+01721100701ADDGF106991061021004501001001KA1240M+03311MA1999999091311MD1999999+0091REMSYN088AAXX  01004 83339 32495 63202 10258 20172 39131 40070 86200 333 10331 29050 55061 58009;
0201833390999992009120112004-14050-042617FM-12+088299999V0201401N002110042019N0100001N1+02331+01891100961ADDAA124001091AY161061AY221061GF108991061051004501021999KA1240N+02111MA1999999091721MD1999999+0071MW1021REMSYN088AAXX  01124 83339 21497 81404 10233 20189 39172 40096 70262 8652/ 333 20211 58007 60014;
0137833390999992009120118004-14050-042617FM-12+088299999V0203201N002110042019N0100001N1+02611+01861100591ADDGF108991061021004501021999MA1999999091171MD1999999+0111REMSYN070AAXX  01184 83339 32497 83204 10261 20186 39117 40059 8622/ 333 58011;
0213833390999992009120200004-14050-042617FM-12+088299999V0202301N001010042019N0020001N1+02031+01761100961ADDAA106001091AY161061AY221061GF108991051051004501021999KA1240M+02681MA1999999091381MD1999999+0071MW1021REMSYN100AAXX  02004 83339 21495 82302 10203 20176 39138 40096 70262 8552/ 333 10268 29077 55000 58007 60011;
0201833390999992009120212004-14050-042617FM-12+088299999V0201401N002110042019N0100001N1+02041+01891101191ADDAA124002091AY161061AY221061GF108991061021004501021999KA1240N+01881MA1999999091541MD1999999+0061MW1021REMSYN088AAXX  02124 83339 21497 81404 10204 20189 39154 40119 70262 8622/ 333 20188 58006 60024;
0137833390999992009120218004-14050-042617FM-12+088299999V0200501N001510042019N0100001N1+02601+01761100831ADDGF106991061021004501001001MA1999999091311MD1999999+0141REMSYN070AAXX  02184 83339 32497 60503 10260 20176 39131 40083 86200 333 58014;
0168833390999992009120300004-14050-042617FM-12+088299999V0202301N002610042019N0020001N1+02331+01871101001ADDGF108991051021004501031999KA1240M+02671MA1999999091421MD1999999+0041REMSYN088AAXX  03004 83339 32495 82305 10233 20187 39142 40100 8523/ 333 10267 29075 55003 58004;
0156833390999992009120312004-14050-042617FM-12+088299999V0200501N001510042019N0100001N1+02431+01921101081ADDGF106991061021004501001001KA1240N+02041MA1999999091571MD1999999+0031REMSYN076AAXX  03124 83339 32497 60503 10243 20192 39157 40108 86200 333 20204 58003;
0182833390999992009120318004-14050-042617FM-12+088299999V0200501N000510450019N0100001N1+02221+02081100871ADDAA106050091AY191061AY261061GF106991041021004501031001MA1999999091301MD1999999-0011MW1021REMSYN082AAXX  03184 83339 21497 60501 10222 20208 39130 40087 70296 84230 333 59001 60501;
0168833390999992009120400004-14050-042617FM-12+088299999V0209999C000010450019N0020001N1+02141+01911100891ADDGF105991021011004501031001KA1240M+02521MA1999999091361MD1999999-0061REMSYN088AAXX  04004 83339 32495 50000 10214 20191 39136 40089 82130 333 10252 29086 55015 59006;
0201833390999992009120412004-14050-042617FM-12+088299999V0200901N002110042019N0100001N1+02191+01991101101ADDAA124050091AY161061AY221061GF108991061021004501999999KA1240N+01981MA1999999091491MD1999999-0081MW1021REMSYN088AAXX  04124 83339 21497 80904 10219 20199 39149 40110 70262 862// 333 20198 59008 60504;
0182833390999992009120418004-14050-042617FM-12+088299999V0201401N002110042019N0100001N1+02261+02091100701ADDAA106011991AY161061AY221061GF106991051021004501031001MA1999999091131MD1999999-0171MW1021REMSYN082AAXX  04184 83339 21497 61404 10226 20209 39113 40070 70262 85230 333 59017 60121;
0196833390999992009120500004-14050-042617FM-12+088299999V0209999C000010042019N0020001N1+02181+02101100871ADDAY121061AY221061GF108991051021004501021999KA1240M+02501MA1999999091301MD1999999-0061MW1401REMSYN094AAXX  05004 83339 31495 80000 10218 20210 39130 40087 74022 8522/ 333 10250 29092 55018 59006;
0201833390999992009120512004-14050-042617FM-12+088299999V0201401N001510042019N0020001N1+02091+02021101111ADDAA124011991AY161061AY241061GF108991051021004501021999KA1240N+02091MA1999999091501MD1999999+0011MW1401REMSYN088AAXX  05124 83339 21495 81403 10209 20202 39150 40111 74064 8522/ 333 20209 58001 60124;
0182833390999992009120518004-14050-042617FM-12+088299999V0201401N002110450019N0020001N1+02151+02061100791ADDAA106007991AY161061AY241061GF108991041051004501021999MA1999999091211MD1999999+0081MW1401REMSYN082AAXX  05184 83339 21495 81404 10215 20206 39121 40079 74064 8452/ 333 58008 60081;
0213833390999992009120600004-14050-042617FM-12+088299999V0209999C000010042019N0020001N1+01971+01831101181ADDAA106021191AY161061AY241061GF108991051021004501021999KA1240M+02471MA1999999091531MD1999999+0231MW1601REMSYN100AAXX  06004 83339 21495 80000 10197 20183 39153 40118 76064 8522/ 333 10247 29093 55101 58023 60211;
0201833390999992009120612004-14050-042617FM-12+088299999V0201401N003110042019N0020001N1+02021+01901101301ADDAA124029091AY161061AY241061GF108991061021004501021999KA1240N+01821MA1999999091621MD1999999+0121MW1401REMSYN088AAXX  06124 83339 21495 81406 10202 20190 39162 40130 74064 8622/ 333 20182 58012 60294;
0165833390999992009120618004-14050-042617FM-12+088299999V0201401N004110450019N0100001N1+02551+01971100871ADDAY141061AY221061GF106991041021004501031001MA1999999091331MD1999999+0121MW1021REMSYN076AAXX  06184 83339 31497 61408 10255 20197 39133 40087 70242 84230 333 58012;
0168833390999992009120700004-14050-042617FM-12+088299999V0209999C000012200019N0020001N1+02231+01961101161ADDGF102991021011004501001001KA1240M+02611MA1999999091531MD1999999+0001REMSYN088AAXX  07004 83339 32495 20000 10223 20196 39153 40116 82100 333 10261 29083 55004 58000;
0184833390999992009120712004-14050-042617FM-12+088299999V0200901N002610042019N0040001N1+02211+01921101211ADDAY101061AY201061GF106991061021004501001001KA1240N+01921MA1999999091611MD1999999-0011MW1101REMSYN082AAXX  07124 83339 31496 60905 10221 20192 39161 40121 71000 86200 333 20192 59001;
0137833390999992009120718004-14050-042617FM-12+088299999V0201401N004610042019N0100001N1+02771+01751100771ADDGF106991051021004501021001MA1999999091291MD1999999-0041REMSYN070AAXX  07184 83339 32497 61409 10277 20175 39129 40077 85220 333 59004;
0168833390999992009120800004-14050-042617FM-12+088299999V0201801N003612200019N0020001N1+02351+01551100951ADDGF102991021021004501001001KA1240M+02841MA1999999091421MD1999999-0111REMSYN088AAXX  08004 83339 32495 21807 10235 20155 39142 40095 82200 333 10284 29065 55090 59011;
0184833390999992009120812004-14050-042617FM-12+088299999V0201401N003110042019N0040001N1+02111+01881101141ADDAY101061AY201061GF108991081051004501999999KA1240N+01821MA1999999091571MD1999999-0041MW1101REMSYN082AAXX  08124 83339 31496 81406 10211 20188 39157 40114 71000 885// 333 20182 59004;
0137833390999992009120818004-14050-042617FM-12+088299999V0201401N003112200019N0100001N1+02871+01781100671ADDGF103991021021004501001041MA1999999091221MD1999999-0071REMSYN070AAXX  08184 83339 32497 31406 10287 20178 39122 40067 82204 333 59007;
0168833390999992009120900004-14050-042617FM-12+088299999V0209999C000012200019N0020001N1+02351+01831100871ADDGF102991021021004501001001KA1240M+02921MA1999999091331MD1999999-0091REMSYN088AAXX  09004 83339 32495 20000 10235 20183 39133 40087 82200 333 10292 29071 55078 59009;
0156833390999992009120912004-14050-042617FM-12+088299999V0200501N002112200019N0100001N1+02531+01911101011ADDGF102991021011004501001001KA1240N+01921MA1999999091531MD1999999-0041REMSYN076AAXX  09124 83339 32497 20504 10253 20191 39153 40101 82100 333 20192 59004;
0137833390999992009120918004-14050-042617FM-12+088299999V0201401N003112200019N0100001N1+03031+01551100611ADDGF104991031021004501021001MA1999999091231MD1999999+0011REMSYN070AAXX  09184 83339 32497 41406 10303 20155 39123 40061 83220 333 58001;
0168833390999992009121000004-14050-042617FM-12+088299999V0201401N001512200019N0020001N1+02511+01421100741ADDGF102991021021004501001001KA1240M+03121MA1999999091311MD1999999-0021REMSYN088AAXX  10004 83339 32495 21403 10251 20142 39131 40074 82200 333 10312 29053 55116 59002;
0156833390999992009121012004-14050-042617FM-12+088299999V0201401N004612200019N0100001N1+02311+01851100991ADDGF103991021021004501001041KA1240N+01921MA1999999091491MD1999999-0041REMSYN076AAXX  10124 83339 32497 31409 10231 20185 39149 40099 82204 333 20192 59004;
0137833390999992009121018004-14050-042617FM-12+088299999V0201401N004112200019N0100001N1+02851+01561100661ADDGF102991021021004501001001MA1999999091251MD1999999+0021REMSYN070AAXX  10184 83339 32497 21408 10285 20156 39125 40066 82200 333 58002;
0178833390999992009121100004-14050-042617FM-12+088299999V0201801N004112200019N0020001N1+02431+01191100921ADDGA1001+999999999GF100991001001999999001001KA1240M+02941MA1999999091411MD1999999+0101REMSYN082AAXX  11004 83339 32995 01808 10243 20119 39141 40092 333 10294 29053 55119 58010;
0156833390999992009121112004-14050-042617FM-12+088299999V0201401N005112200019N0100001N1+02151+01641101181ADDGF103991031021004501001001KA1240N+01821MA1999999091631MD1999999+0141REMSYN076AAXX  11124 83339 32497 31410 10215 20164 39163 40118 83200 333 20182 58014;
0137833390999992009121118004-14050-042617FM-12+088299999V0201401N002612200019N0100001N1+02831+01441100801ADDGF102991021021004501001001MA1999999091341MD1999999+0091REMSYN070AAXX  11184 83339 32497 21405 10283 20144 39134 40080 82200 333 58009;
0178833390999992009121200004-14050-042617FM-12+088299999V0201801N002612200019N0020001N1+02351+01211100871ADDGA1001+999999999GF100991001001999999001001KA1240M+02921MA1999999091331MD1999999-0081REMSYN082AAXX  12004 83339 32995 01805 10235 20121 39133 40087 333 10292 29054 55120 59008;
0156833390999992009121212004-14050-042617FM-12+088299999V0201401N001512200019N0100001N1+02391+01821101081ADDGF102991021021004501001001KA1240N+01801MA1999999091551MD1999999-0081REMSYN076AAXX  12124 83339 32497 21403 10239 20182 39155 40108 82200 333 20180 59008;
0137833390999992009121218004-14050-042617FM-12+088299999V0200901N003112200019N0100001N1+03031+01551100551ADDGF103991031021004501001001MA1999999091151MD1999999-0191REMSYN070AAXX  12184 83339 32497 30906 10303 20155 39115 40055 83200 333 59019;
0178833390999992009121300004-14050-042617FM-12+088299999V0200901N001012200019N0020001N1+02491+01491100691ADDGA1001+999999999GF100991001001999999001001KA1240M+03231MA1999999091241MD1999999-0091REMSYN082AAXX  13004 83339 32995 00902 10249 20149 39124 40069 333 10323 29055 55118 59009;
0156833390999992009121312004-14050-042617FM-12+088299999V0203601N002112200019N0100001N1+02671+01651100801ADDGF102991021011004501001001KA1240N+02121MA1999999091401MD1999999-0151REMSYN076AAXX  13124 83339 32497 23604 10267 20165 39140 40080 82100 333 20212 59015;
0137833390999992009121318004-14050-042617FM-12+088299999V0202701N001510042019N0100001N1+03051+01891100371ADDGF106991061021004501001001MA1999999091031MD1999999-0121REMSYN070AAXX  13184 83339 32497 62703 10305 20189 39103 40037 86200 333 59012;
0213833390999992009121400004-14050-042617FM-12+088299999V0202701N001510042019N0020001N1+02291+01961100611ADDAA106010991AY191061AY261061GF105991051021004501001001KA1240M+03231MA1999999091191MD1999999-0051MW1101REMSYN100AAXX  14004 83339 21495 52703 10229 20196 39119 40061 71096 85200 333 10323 29066 55083 59005 60111;
0201833390999992009121412004-14050-042617FM-12+088299999V0200901N002110042019N0100001N1+02721+02101100871ADDAA124010991AY161061AY221061GF106991051021004501031001KA1240N+02181MA1999999091501MD1999999+0101MW1021REMSYN088AAXX  14124 83339 21497 60904 10272 20210 39150 40087 70262 85230 333 20218 58010 60114;
0137833390999992009121418004-14050-042617FM-12+088299999V0201401N006210042019N0100001N1+03031+01731100521ADDGF106991061021004501001001MA1999999091161MD1999999+0131REMSYN070AAXX  14184 83339 32497 61412 10303 20173 39116 40052 86200 333 58013;
0168833390999992009121500004-14050-042617FM-12+088299999V0201401N002110450019N0020001N1+02711+01741100821ADDGF105991041021004501031001KA1240M+03181MA1999999091451MD1999999+0261REMSYN088AAXX  15004 83339 32495 51404 10271 20174 39145 40082 84230 333 10318 29056 55103 58026;
0156833390999992009121512004-14050-042617FM-12+088299999V0200901N008212200019N0100001N1+02261+01641101101ADDGF105991041021004501001011KA1240N+01901MA1999999091631MD1999999+0131REMSYN076AAXX  15124 83339 32497 50916 10226 20164 39163 40110 84201 333 20190 58013;
0137833390999992009121518004-14050-042617FM-12+088299999V0200901N006712200019N0100001N1+02831+01271100721ADDGF102991011011004501001011MA1999999091311MD1999999+0151REMSYN070AAXX  15184 83339 32497 20913 10283 20127 39131 40072 81101 333 58015;
0178833390999992009121600004-14050-042617FM-12+088299999V0201401N005112200019N0020001N1+02341+01711101031ADDGA1001+999999999GF100991001001999999001001KA1240M+02921MA1999999091491MD1999999+0041REMSYN082AAXX  16004 83339 32995 01410 10234 20171 39149 40103 333 10292 29061 55097 58004;
0156833390999992009121612004-14050-042617FM-12+088299999V0201401N005712200019N0100001N1+02311+01601101321ADDGF103991011011004501001011KA1240N+01941MA1999999091751MD1999999+0121REMSYN076AAXX  16124 83339 32497 31411 10231 20160 39175 40132 81101 333 20194 58012;
0137833390999992009121618004-14050-042617FM-12+088299999V0201401N005112200019N0100001N1+02911+01461100841ADDGF103991021011004501001011MA1999999091421MD1999999+0111REMSYN070AAXX  16184 83339 32497 31410 10291 20146 39142 40084 82101 333 58011;
0178833390999992009121700004-14050-042617FM-12+088299999V0201401N003112200019N0020001N1+02481+01431100981ADDGA1001+999999999GF100991001001999999001001KA1240M+02941MA1999999091481MD1999999-0011REMSYN082AAXX  17004 83339 32995 01406 10248 20143 39148 40098 333 10294 29052 55109 59001;
0156833390999992009121712004-14050-042617FM-12+088299999V0201401N005712200019N0100001N1+02401+01651101261ADDGF102991011011004501001011KA1240N+01881MA1999999091751MD1999999+0001REMSYN076AAXX  17124 83339 32497 21411 10240 20165 39175 40126 81101 333 20188 58000;
0137833390999992009121718004-14050-042617FM-12+088299999V0200901N005712200019N0100001N1+02891+01591100781ADDGF104991031021004501001011MA1999999091361MD1999999-0061REMSYN070AAXX  17184 83339 32497 40911 10289 20159 39136 40078 83201 333 59006;
0178833390999992009121800004-14050-042617FM-12+088299999V0201401N003112200019N0020001N1+02471+01621100941ADDGA1001+999999999GF100991001001999999001001KA1240M+03001MA1999999091461MD1999999-0021REMSYN082AAXX  18004 83339 32995 01406 10247 20162 39146 40094 333 10300 29057 55092 59002;
0166833390999992009121812004-14050-042617FM-12+088299999V0201401N003612200019N0100001N1+02461+01811101221ADDGA1001+999999999GF100991001001999999001001KA1240N+01961MA1999999091721MD1999999-0031REMSYN070AAXX  18124 83339 32997 01407 10246 20181 39172 40122 333 20196 59003;
0147833390999992009121818004-14050-042617FM-12+088299999V0201401N004112200019N0100001N1+03131+01171100761ADDGA1001+999999999GF100991001001999999001001MA1999999091401MD1999999+0041REMSYN064AAXX  18184 83339 32997 01408 10313 20117 39140 40076 333 58004;
0178833390999992009121900004-14050-042617FM-12+088299999V0201401N002112200019N0020001N1+02611+01331100941ADDGA1001+999999999GF100991001001999999001001KA1240M+03181MA1999999091511MD1999999+0051REMSYN082AAXX  19004 83339 32995 01404 10261 20133 39151 40094 333 10318 29047 55116 58005;
0156833390999992009121912004-14050-042617FM-12+088299999V0201401N004112200019N0100001N1+02351+01891101211ADDGF105991041021004501001011KA1240N+01891MA1999999091731MD1999999+0011REMSYN076AAXX  19124 83339 32497 51408 10235 20189 39173 40121 84201 333 20189 58001;
0137833390999992009121918004-14050-042617FM-12+088299999V0201401N004612200019N0100001N1+02911+01601100861ADDGF102991011011004501001011MA1999999091451MD1999999+0051REMSYN070AAXX  19184 83339 32497 21409 10291 20160 39145 40086 81101 333 58005;
0168833390999992009122000004-14050-042617FM-12+088299999V0203201N001512200019N0020001N1+02411+01491101181ADDGF105991041021004501001011KA1240M+02981MA1999999091661MD1999999+0151REMSYN088AAXX  20004 83339 32495 53203 10241 20149 39166 40118 84201 333 10298 29058 55100 58015;
0156833390999992009122012004-14050-042617FM-12+088299999V0201401N008210042019N0100001N1+02171+01841101361ADDGF108991051051004501021999KA1240N+02041MA1999999091791MD1999999+0061REMSYN076AAXX  20124 83339 32497 81416 10217 20184 39179 40136 8552/ 333 20204 58006;
0137833390999992009122018004-14050-042617FM-12+088299999V0200901N005110450019N0100001N1+02591+01651101031ADDGF108991031051004501021999MA1999999091531MD1999999+0081REMSYN070AAXX  20184 83339 32497 80910 10259 20165 39153 40103 8352/ 333 58008;
0168833390999992009122100004-14050-042617FM-12+088299999V0209999C000012200019N0020001N1+02351+01561101291ADDGF103991031021004501001001KA1240M+02631MA1999999091701MD1999999+0041REMSYN088AAXX  21004 83339 32495 30000 10235 20156 39170 40129 83200 333 10263 29065 55000 58004;
0156833390999992009122112004-14050-042617FM-12+088299999V0201401N003110042019N0100001N1+02271+01711101431ADDGF106991051021004501031001KA1240N+01931MA1999999091851MD1999999+0061REMSYN076AAXX  21124 83339 32497 61406 10227 20171 39185 40143 85230 333 20193 58006;
0137833390999992009122118004-14050-042617FM-12+088299999V0201401N002610042019N0040001N1+02591+01431101091ADDGF107991061021004501021999MA1999999091561MD1999999+0031REMSYN070AAXX  21184 83339 32496 71405 10259 20143 39156 40109 8622/ 333 58003;
0168833390999992009122200004-14050-042617FM-12+088299999V0201801N006210042019N0020001N1+02471+01411101101ADDGF106991061021004501001001KA1240M+02681MA1999999091571MD1999999-0131REMSYN088AAXX  22004 83339 32495 61812 10247 20141 39157 40110 86200 333 10268 29056 55009 59013;
0156833390999992009122212004-14050-042617FM-12+088299999V0201401N006710042019N0100001N1+02231+01711101321ADDGF106991061021004501001001KA1240N+02001MA1999999091771MD1999999-0081REMSYN076AAXX  22124 83339 32497 61413 10223 20171 39177 40132 86200 333 20200 59008;
0137833390999992009122218004-14050-042617FM-12+088299999V02099999999991050019N0100001N1+02731+01351101021ADDGF105991041021004501001021MA1999999091551MD1999999-0011REMSYN070AAXX  22184 83339 32497 514// 10273 20135 39155 40102 84202 333 59001;
0168833390999992009122300004-14050-042617FM-12+088299999V02099999999992200019N0020001N1+02411+01701101211ADDGF103991031021004501001001KA1240M+02861MA1999999091651MD1999999+0081REMSYN088AAXX  23004 83339 32495 314// 10241 20170 39165 40121 83200 333 10286 29062 55048 58008;
0156833390999992009122312004-14050-042617FM-12+088299999V0201401N004612200019N0100001N1+02411+01771101331ADDGF102991021021004501001001KA1240N+01861MA1999999091801MD1999999+0031REMSYN076AAXX  23124 83339 32497 21409 10241 20177 39180 40133 82200 333 20186 58003;
0137833390999992009122318004-14050-042617FM-12+088299999V0200501N002612200019N0100001N1+03031+01351100891ADDGF104991041021004501001001MA1999999091481MD1999999-0071REMSYN070AAXX  23184 83339 32497 40505 10303 20135 39148 40089 84200 333 59007;
0178833390999992009122400004-14050-042617FM-12+088299999V0201801N003112200019N0020001N1+02451+01361101051ADDGA1001+999999999GF100991001001999999001001KA1240M+03151MA1999999091561MD1999999-0091REMSYN082AAXX  24004 83339 32995 01806 10245 20136 39156 40105 333 10315 29050 55108 59009;
0156833390999992009122412004-14050-042617FM-12+088299999V0200501N004612200019N0100001N1+02451+01861101151ADDGF104991041021004501001001KA1240N+01931MA1999999091651MD1999999-0151REMSYN076AAXX  24124 83339 32497 40509 10245 20186 39165 40115 84200 333 20193 59015;
0137833390999992009122418004-14050-042617FM-12+088299999V0200901N002612200019N0100001N1+03051+01451100721ADDGF103991031021004501001001MA1999999091331MD1999999-0151REMSYN070AAXX  24184 83339 32497 30905 10305 20145 39133 40072 83200 333 59015;
0168833390999992009122500004-14050-042617FM-12+088299999V0201801N001512200019N0020001N1+02471+01381100831ADDGF102991021021004501001001KA1240M+03141MA1999999091361MD1999999-0201REMSYN088AAXX  25004 83339 32495 21803 10247 20138 39136 40083 82200 333 10314 29052 55110 59020;
0156833390999992009122512004-14050-042617FM-12+088299999V0203601N001010042019N0040001N1+02411+01751101041ADDGF107991061021004501021999KA1240N+02101MA1999999091551MD1999999-0101REMSYN076AAXX  25124 83339 32496 73602 10241 20175 39155 40104 8622/ 333 20210 59010;
0137833390999992009122518004-14050-042617FM-12+088299999V0202701N007710042019N0040001N1+02331+01761100791ADDGF107991061021004501031999MA1999999091271MD1999999-0061REMSYN070AAXX  25184 83339 32496 72715 10233 20176 39127 40079 8623/ 333 59006;
0196833390999992009122600004-14050-042617FM-12+088299999V0202701N001510042019N0020001N1+02191+01821100991ADDAY101061AY201061GF106991051021004501021001KA1240M+02961MA1999999091451MD1999999+0091MW1101REMSYN094AAXX  26004 83339 31495 62703 10219 20182 39145 40099 71000 85220 333 10296 29074 55005 58009;
0156833390999992009122612004-14050-042617FM-12+088299999V0200501N002610042019N0100001N1+02271+01901101041ADDGF106991051021004501031001KA1240N+02051MA1999999091481MD1999999-0071REMSYN076AAXX  26124 83339 32497 60505 10227 20190 39148 40104 85230 333 20205 59007;
0182833390999992009122618004-14050-042617FM-12+088299999V0202701N002610042019N0040001N1+02251+01991100751ADDAA106024991AY161061AY261061GF108991081051004501999999MA1999999091191MD1999999-0081MW1601REMSYN082AAXX  26184 83339 21496 82705 10225 20199 39119 40075 76066 885// 333 59008 60251;
0213833390999992009122700004-14050-042617FM-12+088299999V0203201N000510042019N0020001N1+02111+01911100901ADDAA106000591AY161061AY261061GF107991061021004501021999KA1240M+02521MA1999999091331MD1999999-0121MW1101REMSYN100AAXX  27004 83339 21495 73201 10211 20191 39133 40090 71066 8622/ 333 10252 29086 55002 59012 69961;
0201833390999992009122712004-14050-042617FM-12+088299999V0203201N002110042019N0040001N1+02291+01791101051ADDAA124025991AY161061AY261061GF107991061021004501021999KA1240N+02051MA1999999091461MD1999999-0091MW1021REMSYN088AAXX  27124 83339 21496 73204 10229 20179 39146 40105 70266 8622/ 333 20205 59009 60264;
0182833390999992009122718004-14050-042617FM-12+088299999V0203201N003110042019N0100001N1+02471+01851100721ADDAA106003091AY161061AY261061GF106991051021004501021001MA1999999091191MD1999999+0001MW1021REMSYN082AAXX  27184 83339 21497 63206 10247 20185 39119 40072 70266 85220 333 58000 60031;
0168833390999992009122800004-14050-042617FM-12+088299999V0202701N001010042019N0020001N1+02171+01681100881ADDGF107991061021004501021999KA1240M+02601MA1999999091341MD1999999+0011REMSYN088AAXX  28004 83339 32495 72702 10217 20168 39134 40088 8622/ 333 10260 29073 55006 58001;
0201833390999992009122812004-14050-042617FM-12+088299999V0203201N003110042019N0100001N1+02131+01911101241ADDAA124003091AY161061AY221061GF108991051021004501021999KA1240N+02041MA1999999091621MD1999999+0161MW1021REMSYN088AAXX  28124 83339 21497 83206 10213 20191 39162 40124 70262 8522/ 333 20204 58016 60034;
0137833390999992009122818004-14050-042617FM-12+088299999V0203201N004110042019N0100001N1+02591+02011100691ADDGF107991051021004501001011MA1999999091201MD1999999+0011REMSYN070AAXX  28184 83339 32497 73208 10259 20201 39120 40069 85201 333 58001;
0213833390999992009122900004-14050-042617FM-12+088299999V0202301N001010042019N0020001N1+02211+02031101071ADDAA106005191AY161061AY221061GF108991061021004501021999KA1240M+02761MA1999999091461MD1999999+0121MW1021REMSYN100AAXX  29004 83339 21495 82302 10221 20203 39146 40107 70262 8622/ 333 10276 29084 55012 58012 60051;
0201833390999992009122912004-14050-042617FM-12+088299999V0202701N002610042019N0100001N1+02211+01961101221ADDAA124034091AY161061AY221061GF108991051021004501021999KA1240N+01921MA1999999091621MD1999999+0001MW1021REMSYN088AAXX  29124 83339 21497 82705 10221 20196 39162 40122 70262 8522/ 333 20192 58000 60344;
0137833390999992009122918004-14050-042617FM-12+088299999V0202701N002610450019N0100001N1+02671+01941100701ADDGF105991031021004501031011MA1999999091211MD1999999+0011REMSYN070AAXX  29184 83339 32497 52705 10267 20194 39121 40070 83231 333 58001;
0168833390999992009123000004-14050-042617FM-12+088299999V0209999C000010042019N0020001N1+02251+01921100971ADDGF108991061021004501031999KA1240M+02751MA1999999091421MD1999999-0021REMSYN088AAXX  30004 83339 32495 80000 10225 20192 39142 40097 8623/ 333 10275 29078 55014 59002;
0156833390999992009123012004-14050-042617FM-12+088299999V0203201N001510450019N0100001N1+02421+01911101011ADDGF105991021021004501031001KA1240N+02041MA1999999091491MD1999999-0131REMSYN076AAXX  30124 83339 32497 53203 10242 20191 39149 40101 82230 333 20204 59013;
0137833390999992009123018004-14050-042617FM-12+088299999V0202301N002112200019N0100001N1+02981+01831100481ADDGF103991021021004501001011MA1999999091091MD1999999-0121REMSYN070AAXX  30184 83339 32497 32304 10298 20183 39109 40048 82201 333 59012;
0168833390999992009123100004-14050-042617FM-12+088299999V0209999C000010450019N0020001N1+02291+01981100871ADDGF106991041021004501031001KA1240M+03031MA1999999091361MD1999999-0061REMSYN088AAXX  31004 83339 32495 60000 10229 20198 39136 40087 84230 333 10303 29072 55064 59006;
0201833390999992009123112004-14050-042617FM-12+088299999V0203201N004110042019N0100001N1+02061+01911101141ADDAA124007991AY161061AY221061GF108991051051004501021999KA1240N+01981MA1999999091531MD1999999+0041MW1511REMSYN088AAXX  31124 83339 21497 83208 10206 20191 39153 40114 75162 8552/ 333 20198 58004 60084;
0182833390999992009123118004-14050-042617FM-12+088299999V0203201N002110450019N0100001N1+02501+01941100851ADDAA106000021AY151061AY221061GF108991041021004501021999MA1999999091331MD1999999+0241MW1021REMSYN082AAXX  31184 83339 21497 83204 10250 20194 39133 40085 70252 8422/ 333 58024 69921;
