0168833980999992009010100004-15667-038950FM-12+000599999V0200501N002112200019N0010001N1+02641+02391101371ADDGF103991031011008001001001KA1240M+03041MA1999999101321MD1999999+0031REMSYN088AAXX  01004 83398 32594 30504 10264 20239 30132 40137 83100 333 10304 29076 55115 58003;
0156833980999992009010112004-15667-038950FM-12+000599999V0203201N003110450019N0040001N1+02941+02311101331ADDGF107991031051008001041011KA1240N+02201MA1999999101281MD1999999-0161REMSYN076AAXX  01124 83398 32596 73206 10294 20231 30128 40133 83541 333 20220 59016;
0137833980999992009010118004-15667-038950FM-12+000599999V0203601N003110450019N0040001N1+02961+02381101081ADDGF107991031021008001041011MA1999999101031MD1999999-0141REMSYN070AAXX  01184 83398 32596 73606 10296 20238 30103 40108 83241 333 59014;
0168833980999992009010200004-15667-038950FM-12+000599999V0200501N002112200019N0010001N1+02601+02401101141ADDGF102991021011008001001001KA1240M+03041MA1999999101091MD1999999-0231REMSYN088AAXX  02004 83398 32594 20504 10260 20240 30109 40114 82100 333 10304 29080 55104 59023;
0156833980999992009010212004-15667-038950FM-12+000599999V0203201N002110450019N0040001N1+02861+02441101231ADDGF106991041051008001021001KA1240N+02181MA1999999101181MD1999999-0101REMSYN076AAXX  02124 83398 32596 63204 10286 20244 30118 40123 84520 333 20218 59010;
0137833980999992009010218004-15667-038950FM-12+000599999V0203601N005110450019N0040001N1+02961+02471100891ADDGF105991031021008001041001MA1999999100841MD1999999-0191REMSYN070AAXX  02184 83398 32596 53610 10296 20247 30084 40089 83240 333 59019;
0168833980999992009010300004-15667-038950FM-12+000599999V0209999C000010450019N0010001N1+02621+02481101021ADDGF105991031011008001041001KA1240M+03141MA1999999100971MD1999999-0121REMSYN088AAXX  03004 83398 32594 50000 10262 20248 30097 40102 83140 333 10314 29084 55108 59012;
0156833980999992009010312004-15667-038950FM-12+000599999V0202301N005110075019N0040001N1+02921+02521101141ADDGF107991051051008001021001KA1240N+02501MA1999999101091MD1999999-0091REMSYN076AAXX  03124 83398 32596 72310 10292 20252 30109 40114 85520 333 20250 59009;
0137833980999992009010318004-15667-038950FM-12+000599999V0203601N005110075019N0040001N1+02841+02601100851ADDGF107991051051008001021001MA1999999100801MD1999999-0041REMSYN070AAXX  03184 83398 32596 73610 10284 20260 30080 40085 85520 333 59004;
0168833980999992009010400004-15667-038950FM-12+000599999V0209999C000010450019N0010001N1+02681+02481100951ADDGF105991031051008001041001KA1240M+03121MA1999999100901MD1999999-0071REMSYN088AAXX  04004 83398 32594 50000 10268 20248 30090 40095 83540 333 10312 29086 55050 59007;
0156833980999992009010412004-15667-038950FM-12+000599999V0203201N003110450019N0040001N1+03041+02481101041ADDGF106991041051008001021001KA1240N+02501MA1999999100991MD1999999-0101REMSYN076AAXX  04124 83398 32596 63206 10304 20248 30099 40104 84520 333 20250 59010;
0137833980999992009010418004-15667-038950FM-12+000599999V0203601N007212200019N0040001N1+02981+02371100741ADDGF104991021021008001041001MA1999999100691MD1999999-0111REMSYN070AAXX  04184 83398 32596 43614 10298 20237 30069 40074 82240 333 59011;
0168833980999992009010500004-15667-038950FM-12+000599999V0209999C000010450019N0010001N1+02701+02521101021ADDGF105991031051008001021001KA1240M+03181MA1999999100971MD1999999+0071REMSYN088AAXX  05004 83398 32594 50000 10270 20252 30097 40102 83520 333 10318 29081 55045 58007;
0156833980999992009010512004-15667-038950FM-12+000599999V0203201N005110075019N0040001N1+02841+02331101141ADDGF108991051051008001021999KA1240N+02511MA1999999101091MD1999999+0101REMSYN076AAXX  05124 83398 32596 83210 10284 20233 30109 40114 8552/ 333 20251 58010;
0137833980999992009010518004-15667-038950FM-12+000599999V0209999C000010075019N0040001N1+02631+02261101051ADDGF108991051051008001021999MA1999999101001MD1999999+0311REMSYN070AAXX  05184 83398 32596 80000 10263 20226 30100 40105 8552/ 333 58031;
0168833980999992009010600004-15667-038950FM-12+000599999V0209999C000010075019N0010001N1+02461+02321101181ADDGF108991051051008001021999KA1240M+03121MA1999999101131MD1999999+0161REMSYN088AAXX  06004 83398 32594 80000 10246 20232 30113 40118 8552/ 333 10312 29084 55012 58016;
0201833980999992009010612004-15667-038950FM-12+000599999V0209999C000010450019N0040001N1+02681+02431101251ADDAA124001091AY161061AY221061GF107991041051008001021001KA1240N+02301MA1999999101201MD1999999+0111MW1021REMSYN088AAXX  06124 83398 21596 70000 10268 20243 30120 40125 70262 84520 333 20230 58011 60014;
0137833980999992009010618004-15667-038950FM-12+000599999V0200501N004110075019N0040001N1+02761+02441100951ADDGF108991051051008001021999MA1999999100901MD1999999-0101REMSYN070AAXX  06184 83398 32596 80508 10276 20244 30090 40095 8552/ 333 59010;
0168833980999992009010700004-15667-038950FM-12+000599999V0203601N008210075019N0010001N1+02541+02311101211ADDGF108991051051008001021999KA1240M+03051MA1999999101161MD1999999+0031REMSYN088AAXX  07004 83398 32594 83616 10254 20231 30116 40121 8552/ 333 10305 29086 55013 58003;
0201833980999992009010712004-15667-038950FM-12+000599999V0209999C000010075019N0040001N1+02421+02351101391ADDAA124018091AY161061AY221061GF108991051051008001021999KA1240N+02351MA1999999101341MD1999999+0141MW1611REMSYN088AAXX  07124 83398 21596 80000 10242 20235 30134 40139 76162 8552/ 333 20235 58014 60184;
0182833980999992009010718004-15667-038950FM-12+000599999V0203601N004110075019N0040001N1+02571+02261101141ADDAA106005191AY161061AY221061GF108991051051008001021999MA1999999101091MD1999999+0191MW1021REMSYN082AAXX  07184 83398 21596 83608 10257 20226 30109 40114 70262 8552/ 333 58019 60051;
0168833980999992009010800004-15667-038950FM-12+000599999V0209999C000010075019N0010001N1+02381+02331101321ADDGF108991051051008001021999KA1240M+02831MA1999999101271MD1999999+0111REMSYN088AAXX  08004 83398 32594 80000 10238 20233 30127 40132 8552/ 333 10283 29093 55000 58011;
0173833980999992009010812004-15667-038950FM-12+000599999V0209999C000010450019N0040001N1+02851+02321101431ADDAA124005191GF107991041051008001021001KA1240N+02271MA1999999101381MD1999999+0041REMSYN082AAXX  08124 83398 22596 70000 10285 20232 30138 40143 84520 333 20227 58004 60054;
0137833980999992009010818004-15667-038950FM-12+000599999V0200501N002110450019N0040001N1+02901+02321101281ADDGF106991031021008001041001MA1999999101231MD1999999+0141REMSYN070AAXX  08184 83398 32596 60504 10290 20232 30123 40128 83240 333 58014;
0168833980999992009010900004-15667-038950FM-12+000599999V0209999C000010450019N0010001N1+02641+02351101531ADDGF106991031021008001041001KA1240M+03041MA1999999101481MD1999999+0211REMSYN088AAXX  09004 83398 32594 60000 10264 20235 30148 40153 83240 333 10304 29078 55106 58021;
0156833980999992009010912004-15667-038950FM-12+000599999V0200901N003110450019N0040001N1+02861+02311101691ADDGF106991031021008001041011KA1240N+02281MA1999999101631MD1999999+0351REMSYN076AAXX  09124 83398 32596 60906 10286 20231 30163 40169 83241 333 20228 58035;
0137833980999992009010918004-15667-038950FM-12+000599999V0200901N004110450019N0040001N1+02971+02341101661ADDGF106991031021008001041001MA1999999101601MD1999999+0371REMSYN070AAXX  09184 83398 32596 60908 10297 20234 30160 40166 83240 333 58037;
0168833980999992009011000004-15667-038950FM-12+000599999V0209999C000010075019N0010001N1+02561+02131101761ADDGF108991051051008001021999KA1240M+03031MA1999999101701MD1999999+0221REMSYN088AAXX  10004 83398 32594 80000 10256 20213 30170 40176 8552/ 333 10303 29074 55083 58022;
0156833980999992009011012004-15667-038950FM-12+000599999V0200501N003112200019N0040001N1+02841+02331101861ADDGF103991011011008001041011KA1240N+02271MA1999999101801MD1999999+0171REMSYN076AAXX  10124 83398 32596 30506 10284 20233 30180 40186 81141 333 20227 58017;
0137833980999992009011018004-15667-038950FM-12+000599999V0200901N003112200019N0040001N1+02921+02321101721ADDGF103991021011008001041001MA1999999101661MD1999999+0061REMSYN070AAXX  10184 83398 32596 30906 10292 20232 30166 40172 82140 333 58006;
0168833980999992009011100004-15667-038950FM-12+000599999V0209999C000010075019N0010001N1+02661+02291101841ADDGF108991051051008001021999KA1240M+03051MA1999999101781MD1999999+0081REMSYN088AAXX  11004 83398 32594 80000 10266 20229 30178 40184 8552/ 333 10305 29076 55110 58008;
0201833980999992009011112004-15667-038950FM-12+000599999V0200901N004110075019N0040001N1+02841+02381101721ADDAA124003091AY161061AY221061GF108991051051008001021001KA1240N+02401MA1999999101661MD1999999-0141MW1021REMSYN088AAXX  11124 83398 21596 80908 10284 20238 30166 40172 70262 85520 333 20240 59014 60034;
0137833980999992009011118004-15667-038950FM-12+000599999V0200901N003112200019N0040001N1+02921+02291101491ADDGF104991021021008001041001MA1999999101441MD1999999-0221REMSYN070AAXX  11184 83398 32596 40906 10292 20229 30144 40149 82240 333 59022;
0168833980999992009011200004-15667-038950FM-12+000599999V0209999C000010450019N0010001N1+02541+02401101621ADDGF106991031021008001041001KA1240M+03031MA1999999101561MD1999999-0221REMSYN088AAXX  12004 83398 32594 60000 10254 20240 30156 40162 83240 333 10303 29082 55109 59022;
0201833980999992009011212004-15667-038950FM-12+000599999V0209999C000010075019N0040001N1+02701+02651101631ADDAA124010991AY161061AY221061GF108991051051008001021999KA1240N+02301MA1999999101571MD1999999-0091MW1021REMSYN088AAXX  12124 83398 21596 80000 10270 20265 30157 40163 70262 8552/ 333 20230 59009 60114;
0182833980999992009011218004-15667-038950FM-12+000599999V0203601N002110450019N0040001N1+02801+02521101391ADDAA106024991AY161061AY221061GF107991041051008001021001MA1999999101341MD1999999-0101MW1021REMSYN082AAXX  12184 83398 21596 73604 10280 20252 30134 40139 70262 84520 333 59010 60251;
0213833980999992009011300004-15667-038950FM-12+000599999V0209999C000010075019N0010001N1+02541+02491101551ADDAA106002091AY161061AY221061GF108991051051008001021999KA1240M+02861MA1999999101501MD1999999-0061MW1021REMSYN100AAXX  13004 83398 21594 80000 10254 20249 30150 40155 70262 8552/ 333 10286 29094 55018 59006 60021;
0201833980999992009011312004-15667-038950FM-12+000599999V0200501N002110450019N0040001N1+02861+02311101621ADDAA124050091AY161061AY221061GF106991041051008001021001KA1240N+02401MA1999999101561MD1999999-0011MW1021REMSYN088AAXX  13124 83398 21596 60504 10286 20231 30156 40162 70262 84520 333 20240 59001 60504;
0137833980999992009011318004-15667-038950FM-12+000599999V0200501N003111050019N0040001N1+02921+02321101501ADDGF105991021051008001041011MA1999999101451MD1999999+0111REMSYN070AAXX  13184 83398 32596 50506 10292 20232 30145 40150 82541 333 58011;
0168833980999992009011400004-15667-038950FM-12+000599999V0209999C000012200019N0010001N1+02681+02311101581ADDGF103991031011008001001001KA1240M+03021MA1999999101531MD1999999+0031REMSYN088AAXX  14004 83398 32594 30000 10268 20231 30153 40158 83100 333 10302 29076 55113 58003;
0201833980999992009011412004-15667-038950FM-12+000599999V0200901N003110450019N0040001N1+02801+02421101591ADDAA124007191AY161061AY221061GF106991041051008001021001KA1240N+02221MA1999999101541MD1999999-0021MW1021REMSYN088AAXX  14124 83398 21596 60906 10280 20242 30154 40159 70262 84520 333 20222 59002 60074;
0137833980999992009011418004-15667-038950FM-12+000599999V0200501N003110450019N0040001N1+02901+02341101361ADDGF105991031051008001041001MA1999999101311MD1999999-0141REMSYN070AAXX  14184 83398 32596 50506 10290 20234 30131 40136 83540 333 59014;
0168833980999992009011500004-15667-038950FM-12+000599999V0209999C000012200019N0010001N1+02641+02391101421ADDGF103991031011008001001001KA1240M+03001MA1999999101371MD1999999-0161REMSYN088AAXX  15004 83398 32594 30000 10264 20239 30137 40142 83100 333 10300 29081 55103 59016;
0201833980999992009011512004-15667-038950FM-12+000599999V0209999C000010450019N0040001N1+02741+02451101521ADDAA124004191AY161061AY221061GF106991041051008001021001KA1240N+02201MA1999999101471MD1999999-0071MW1021REMSYN088AAXX  15124 83398 21596 60000 10274 20245 30147 40152 70262 84520 333 20220 59007 60044;
0146833980999992009011518004-15667-038950FM-12+000599999V0203601N005110450019N0040001N1+02901+02481999999ADDGF106991031051008001021011MA1999999101131MD1999999-0181ME1101189REMSYN070AAXX  15184 83398 32596 63610 10290 20248 30113 41118 83521 333 59018;
0168833980999992009011600004-15667-038950FM-12+000599999V0203601N004112200019N0010001N1+02701+02481101361ADDGF102991021011008001001001KA1240M+03021MA1999999101311MD1999999-0061REMSYN088AAXX  16004 83398 32594 23608 10270 20248 30131 40136 82100 333 10302 29085 55108 59006;
0156833980999992009011612004-15667-038950FM-12+000599999V0203601N005110450019N0040001N1+02941+02471101561ADDGF106991041051008001021001KA1240N+02301MA1999999101511MD1999999+0041REMSYN076AAXX  16124 83398 32596 63610 10294 20247 30151 40156 84520 333 20230 58004;
0137833980999992009011618004-15667-038950FM-12+000599999V0203601N005110450019N0040001N1+02881+02481101321ADDGF106991041051008001021001MA1999999101271MD1999999+0141REMSYN070AAXX  16184 83398 32596 63610 10288 20248 30127 40132 84520 333 58014;
0168833980999992009011700004-15667-038950FM-12+000599999V0203601N002110450019N0010001N1+02621+02481101501ADDGF105991031051008001021001KA1240M+03061MA1999999101451MD1999999+0141REMSYN088AAXX  17004 83398 32594 53604 10262 20248 30145 40150 83520 333 10306 29085 55064 58014;
0156833980999992009011712004-15667-038950FM-12+000599999V0203601N002110450019N0040001N1+02761+02481101531ADDGF106991041051008001021001KA1240N+02281MA1999999101481MD1999999-0031REMSYN076AAXX  17124 83398 32596 63604 10276 20248 30148 40153 84520 333 20228 59003;
0137833980999992009011718004-15667-038950FM-12+000599999V0200501N003110450019N0040001N1+02901+02521101331ADDGF106991031051008001021011MA1999999101281MD1999999+0011REMSYN070AAXX  17184 83398 32596 60506 10290 20252 30128 40133 83521 333 58001;
0168833980999992009011800004-15667-038950FM-12+000599999V0203601N002110450019N0010001N1+02661+02411101561ADDGF105991031051008001021001KA1240M+03041MA1999999101511MD1999999+0061REMSYN088AAXX  18004 83398 32594 53604 10266 20241 30151 40156 83520 333 10304 29084 55092 58006;
0156833980999992009011812004-15667-038950FM-12+000599999V0203201N003110450019N0040001N1+02901+02431101581ADDGF106991041051008001021001KA1240N+02221MA1999999101531MD1999999+0051REMSYN076AAXX  18124 83398 32596 63206 10290 20243 30153 40158 84520 333 20222 58005;
0137833980999992009011818004-15667-038950FM-12+000599999V0203601N005110450019N0040001N1+02921+02341101391ADDGF106991031021008001041011MA1999999101341MD1999999+0061REMSYN070AAXX  18184 83398 32596 63610 10292 20234 30134 40139 83241 333 58006;
0168833980999992009011900004-15667-038950FM-12+000599999V0209999C000010450019N0010001N1+02581+02291101501ADDGF105991031051008001021001KA1240M+03061MA1999999101451MD1999999-0061REMSYN088AAXX  19004 83398 32594 50000 10258 20229 30145 40150 83520 333 10306 29079 55107 59006;
0156833980999992009011912004-15667-038950FM-12+000599999V0203601N005110450019N0040001N1+02901+02221101541ADDGF105991021021008001041001KA1240N+02021MA1999999101491MD1999999-0041REMSYN076AAXX  19124 83398 32596 53610 10290 20222 30149 40154 82240 333 20202 59004;
0137833980999992009011918004-15667-038950FM-12+000599999V0200501N003112200019N0040001N1+02841+02261101211ADDGF103991011011008001041011MA1999999101161MD1999999-0181REMSYN070AAXX  19184 83398 32596 30506 10284 20226 30116 40121 81141 333 59018;
0168833980999992009012000004-15667-038950FM-12+000599999V0209999C000012200019N0010001N1+02551+02261101331ADDGF103991021011008001041001KA1240M+03041MA1999999101281MD1999999+0171REMSYN088AAXX  20004 83398 32594 30000 10255 20226 30128 40133 82140 333 10304 29076 55104 58017;
0156833980999992009012012004-15667-038950FM-12+000599999V0203601N003110450019N0040001N1+02821+02241101401ADDGF105991021011008001041001KA1240N+02221MA1999999101351MD1999999-0141REMSYN076AAXX  20124 83398 32596 53606 10282 20224 30135 40140 82140 333 20222 59014;
0137833980999992009012018004-15667-038950FM-12+000599999V0203601N003112200019N0040001N1+02941+02211101161ADDGF102991011011008001041001MA1999999101111MD1999999-0051REMSYN070AAXX  20184 83398 32596 23606 10294 20221 30111 40116 81140 333 59005;
0168833980999992009012100004-15667-038950FM-12+000599999V0209999C000012200019N0010001N1+02541+02291101281ADDGF102991011011008001041001KA1240M+03041MA1999999101231MD1999999-0051REMSYN088AAXX  21004 83398 32594 20000 10254 20229 30123 40128 81140 333 10304 29077 55098 59005;
0156833980999992009012112004-15667-038950FM-12+000599999V0203601N002110450019N0040001N1+02881+02441101411ADDGF106991041051008001021001KA1240N+02201MA1999999101361MD1999999+0011REMSYN076AAXX  21124 83398 32596 63604 10288 20244 30136 40141 84520 333 20220 58001;
0137833980999992009012118004-15667-038950FM-12+000599999V0203601N003112200019N0040001N1+02941+02431101121ADDGF102991011011008001041001MA1999999101071MD1999999-0041REMSYN070AAXX  21184 83398 32596 23606 10294 20243 30107 40112 81140 333 59004;
0168833980999992009012200004-15667-038950FM-12+000599999V0209999C000012200019N0010001N1+02621+02461101311ADDGF102991011011008001041001KA1240M+03061MA1999999101261MD1999999+0031REMSYN088AAXX  22004 83398 32594 20000 10262 20246 30126 40131 81140 333 10306 29082 55103 58003;
0156833980999992009012212004-15667-038950FM-12+000599999V0203601N002110075019N0040001N1+02721+02451101411ADDGF108991051051008001021001KA1240N+02331MA1999999101361MD1999999+0001REMSYN076AAXX  22124 83398 32596 83604 10272 20245 30136 40141 85520 333 20233 58000;
0137833980999992009012218004-15667-038950FM-12+000599999V0203601N004112200019N0040001N1+02941+02431101021ADDGF102991011011008001041001MA1999999100971MD1999999-0101REMSYN070AAXX  22184 83398 32596 23608 10294 20243 30097 40102 81140 333 59010;
0168833980999992009012300004-15667-038950FM-12+000599999V0209999C000012200019N0010001N1+02641+02481101241ADDGF104991021021008001041001KA1240M+03131MA1999999101191MD1999999-0071REMSYN088AAXX  23004 83398 32594 40000 10264 20248 30119 40124 82240 333 10313 29080 55090 59007;
0156833980999992009012312004-15667-038950FM-12+000599999V0209999C000010450019N0040001N1+02901+02341101391ADDGF106991041051008001021001KA1240N+02481MA1999999101341MD1999999-0021REMSYN076AAXX  23124 83398 32596 60000 10290 20234 30134 40139 84520 333 20248 59002;
0182833980999992009012318004-15667-038950FM-12+000599999V0200901N006210075019N0040001N1+02721+02391101211ADDAA106002091AY161061AY221061GF108991051051008001021001MA1999999101161MD1999999+0191MW1021REMSYN082AAXX  23184 83398 21596 80912 10272 20239 30116 40121 70262 85520 333 58019 60021;
0213833980999992009012400004-15667-038950FM-12+000599999V0209999C000012200019N0010001N1+02341+02271101411ADDAA106000391AY151061AY211061GF103991021021008001041001KA1240M+03101MA1999999101361MD1999999+0171MW1021REMSYN100AAXX  24004 83398 21594 30000 10234 20227 30136 40141 70251 82240 333 10310 29086 55037 58017 69931;
0201833980999992009012412004-15667-038950FM-12+000599999V0201801N003110450019N0040001N1+02741+02481101321ADDAA124004191AY161061AY221061GF106991041051008001021001KA1240N+02101MA1999999101271MD1999999-0071MW1021REMSYN088AAXX  24124 83398 21596 61806 10274 20248 30127 40132 70262 84520 333 20210 59007 60044;
0137833980999992009012418004-15667-038950FM-12+000599999V0200901N003110450019N0040001N1+02781+02421101021ADDGF106991041051008001021001MA1999999100971MD1999999-0191REMSYN070AAXX  24184 83398 32596 60906 10278 20242 30097 40102 84520 333 59019;
0168833980999992009012500004-15667-038950FM-12+000599999V0201401N002110450019N0010001N1+02521+02431101241ADDGF105991031051008001021001KA1240M+03121MA1999999101191MD1999999-0171REMSYN088AAXX  25004 83398 32594 51404 10252 20243 30119 40124 83520 333 10312 29090 55079 59017;
0201833980999992009012512004-15667-038950FM-12+000599999V0201801N002110450019N0040001N1+02601+02511101301ADDAA124016091AY161061AY221061GF106991041051008001021001KA1240N+02301MA1999999101251MD1999999-0021MW1021REMSYN088AAXX  25124 83398 21596 61804 10260 20251 30125 40130 70262 84520 333 20230 59002 60164;
0137833980999992009012518004-15667-038950FM-12+000599999V0200501N003110450019N0040001N1+02881+02481101121ADDGF106991041051008001021001MA1999999101071MD1999999+0101REMSYN070AAXX  25184 83398 32596 60506 10288 20248 30107 40112 84520 333 58010;
0168833980999992009012600004-15667-038950FM-12+000599999V0209999C000010450019N0010001N1+02621+02441101351ADDGF106991041051008001021001KA1240M+03001MA1999999101301MD1999999+0111REMSYN088AAXX  26004 83398 32594 60000 10262 20244 30130 40135 84520 333 10300 29089 55038 58011;
0201833980999992009012612004-15667-038950FM-12+000599999V0209999C000010075019N0040001N1+02421+02351101591ADDAA124008991AY161061AY221061GF108991051051008001021999KA1240N+02341MA1999999101541MD1999999+0291MW1021REMSYN088AAXX  26124 83398 21596 80000 10242 20235 30154 40159 70262 8552/ 333 20234 58029 60094;
0182833980999992009012618004-15667-038950FM-12+000599999V0200501N003110450019N0040001N1+02761+02501101331ADDAA106003091AY161061AY221061GF106991041051008001021001MA1999999101281MD1999999+0211MW1021REMSYN082AAXX  26184 83398 21596 60506 10276 20250 30128 40133 70262 84520 333 58021 60031;
0213833980999992009012700004-15667-038950FM-12+000599999V0209999C000010450019N0010001N1+02441+02391101481ADDAA106004191AY161061AY221061GF106991041051008001021001KA1240M+02901MA1999999101431MD1999999+0131MW1021REMSYN100AAXX  27004 83398 21594 60000 10244 20239 30143 40148 70262 84520 333 10290 29094 55017 58013 60041;
0201833980999992009012712004-15667-038950FM-12+000599999V0203601N002110450019N0040001N1+02861+02501101651ADDAA124015091AY161061AY221061GF106991041051008001021001KA1240N+02201MA1999999101591MD1999999+0051MW1021REMSYN088AAXX  27124 83398 21596 63604 10286 20250 30159 40165 70262 84520 333 20220 58005 60154;
0137833980999992009012718004-15667-038950FM-12+000599999V0203601N003110450019N0040001N1+03001+02441101441ADDGF106991041051008001021011MA1999999101391MD1999999+0111REMSYN070AAXX  27184 83398 32596 63606 10300 20244 30139 40144 84521 333 58011;
0168833980999992009012800004-15667-038950FM-12+000599999V0200901N003110450019N0010001N1+02601+02421101571ADDGF105991031051008001021001KA1240M+03061MA1999999101521MD1999999+0091REMSYN088AAXX  28004 83398 32594 50906 10260 20242 30152 40157 83520 333 10306 29083 55104 58009;
0156833980999992009012812004-15667-038950FM-12+000599999V0200501N002110450019N0040001N1+02901+02341101721ADDGF105991031051008001021001KA1240N+02401MA1999999101661MD1999999+0071REMSYN076AAXX  28124 83398 32596 50504 10290 20234 30166 40172 83520 333 20240 58007;
0182833980999992009012818004-15667-038950FM-12+000599999V0200501N002110450019N0040001N1+02861+02331101431ADDAA106002091AY161061AY221061GF106991041051008001021001MA1999999101381MD1999999-0011MW1021REMSYN082AAXX  28184 83398 21596 60504 10286 20233 30138 40143 70262 84520 333 59001 60021;
0168833980999992009012900004-15667-038950FM-12+000599999V0209999C000010450019N0010001N1+02501+02361101641ADDGF105991031051008001021001KA1240M+03041MA1999999101581MD1999999+0061REMSYN088AAXX  29004 83398 32594 50000 10250 20236 30158 40164 83520 333 10304 29082 55082 58006;
0173833980999992009012912004-15667-038950FM-12+000599999V0209999C000010450019N0040001N1+02901+02371101631ADDAA124002091GF105991031051008001021011KA1240N+02201MA1999999101571MD1999999-0091REMSYN082AAXX  29124 83398 22596 50000 10290 20237 30157 40163 83521 333 20220 59009 60024;
0137833980999992009012918004-15667-038950FM-12+000599999V0200501N003111050019N0040001N1+02961+02331101391ADDGF105991021051008001041011MA1999999101341MD1999999-0041REMSYN070AAXX  29184 83398 32596 50506 10296 20233 30134 40139 82541 333 59004;
0168833980999992009013000004-15667-038950FM-12+000599999V0209999C000010450019N0010001N1+02701+02331101561ADDGF105991031051008001021001KA1240M+03061MA1999999101511MD1999999-0071REMSYN088AAXX  30004 83398 32594 50000 10270 20233 30151 40156 83520 333 10306 29076 55116 59007;
0156833980999992009013012004-15667-038950FM-12+000599999V0200501N003111050019N0040001N1+02921+02411101521ADDGF105991021051008001041011KA1240N+02181MA1999999101471MD1999999-0101REMSYN076AAXX  30124 83398 32596 50506 10292 20241 30147 40152 82541 333 20218 59010;
0137833980999992009013018004-15667-038950FM-12+000599999V0200501N003110450019N0040001N1+03041+02261101231ADDGF105991031021008001041011MA1999999101181MD1999999-0161REMSYN070AAXX  30184 83398 32596 50506 10304 20226 30118 40123 83241 333 59016;
0168833980999992009013100004-15667-038950FM-12+000599999V0200501N002112200019N0010001N1+02641+02391101341ADDGF103991031011008001001001KA1240M+03101MA1999999101291MD1999999-0221REMSYN088AAXX  31004 83398 32594 30504 10264 20239 30129 40134 83100 333 10310 29077 55115 59022;
0201833980999992009013112004-15667-038950FM-12+000599999V0209999C000010450019N0040001N1+02701+02411101441ADDAA124003091AY161061AY221061GF106991031051008001021001KA1240N+02231MA1999999101391MD1999999-0081MW1021REMSYN088AAXX  31124 83398 21596 60000 10270 20241 30139 40144 70262 83520 333 20223 59008 60034;
0137833980999992009013118004-15667-038950FM-12+000599999V0200501N003110450019N0040001N1+02981+02371101131ADDGF105991031021008001041001MA1999999101081MD1999999-0101REMSYN070AAXX  31184 83398 32596 50506 10298 20237 30108 40113 83240 333 59010;
0168833980999992009020100004-15667-038950FM-12+000599999V0203601N002110450019N0010001N1+02681+02261101211ADDGF105991031021008001041001KA1240M+03041MA1999999101161MD1999999-0131REMSYN088AAXX  01004 83398 32594 53604 10268 20226 30116 40121 83240 333 10304 29077 55073 59013;
0156833980999992009020112004-15667-038950FM-12+000599999V0200501N003110450019N0040001N1+02881+02371101351ADDGF105991031021008001041001KA1240N+02251MA1999999101301MD1999999-0091REMSYN076AAXX  01124 83398 32596 50506 10288 20237 30130 40135 83240 333 20225 59009;
0137833980999992009020118004-15667-038950FM-12+000599999V0203601N003112200019N0040001N1+02961+02281101131ADDGF104991021011008001041001MA1999999101081MD1999999+0001REMSYN070AAXX  01184 83398 32596 43606 10296 20228 30108 40113 82140 333 58000;
0168833980999992009020200004-15667-038950FM-12+000599999V0209999C000012200019N0010001N1+02661+02391101271ADDGF102991011011008001041001KA1240M+03051MA1999999101221MD1999999+0061REMSYN088AAXX  02004 83398 32594 20000 10266 20239 30122 40127 81140 333 10305 29078 55115 58006;
0156833980999992009020212004-15667-038950FM-12+000599999V0209999C000010450019N0040001N1+02881+02391101461ADDGF105991021021008001041001KA1240N+02241MA1999999101411MD1999999+0111REMSYN076AAXX  02124 83398 32596 50000 10288 20239 30141 40146 82240 333 20224 58011;
0137833980999992009020218004-15667-038950FM-12+000599999V0200501N005112200019N0040001N1+03001+02271101201ADDGF103991021011008001041001MA1999999101151MD1999999+0071REMSYN070AAXX  02184 83398 32596 30510 10300 20227 30115 40120 82140 333 58007;
0168833980999992009020300004-15667-038950FM-12+000599999V0209999C000012200019N0010001N1+02721+02301101271ADDGF102991011011008001041001KA1240M+03081MA1999999101221MD1999999+0001REMSYN088AAXX  03004 83398 32594 20000 10272 20230 30122 40127 81140 333 10308 29073 55106 58000;
0201833980999992009020312004-15667-038950FM-12+000599999V0209999C000010450019N0040001N1+02861+02331101591ADDAA124000591AY151061AY211061GF107991031051008001041001KA1240N+02251MA1999999101541MD1999999+0131MW1021REMSYN088AAXX  03124 83398 21596 70000 10286 20233 30154 40159 70251 83540 333 20225 58013 69944;
0137833980999992009020318004-15667-038950FM-12+000599999V0200501N003110450019N0040001N1+02941+02401101401ADDGF105991031011008001041001MA1999999101351MD1999999+0201REMSYN070AAXX  03184 83398 32596 50506 10294 20240 30135 40140 83140 333 58020;
0168833980999992009020400004-15667-038950FM-12+000599999V0209999C000012200019N0010001N1+02701+02371101561ADDGF102991011011008001041001KA1240M+03101MA1999999101511MD1999999+0291REMSYN088AAXX  04004 83398 32594 20000 10270 20237 30151 40156 81140 333 10310 29077 55110 58029;
0201833980999992009020412004-15667-038950FM-12+000599999V0209999C000010450019N0040001N1+02781+02321101661ADDAA124002091AY161061AY221061GF105991031021008001041001KA1240N+02351MA1999999101601MD1999999+0061MW1021REMSYN088AAXX  04124 83398 21596 50000 10278 20232 30160 40166 70262 83240 333 20235 58006 60024;
0172833980999992009020418004-15667-038950FM-12+000599999V0200201N999992200019N0040001N1+02961+02281101361ADDGF102991011011008001041001MA1999999101311MD1999999+0041REMSYN070AAXX  04184 83398 32596 20256 10296 20228 30131 40136 81140 333 58004;EQDQ01+002883WOSPD Q020002883WOSPD 
0168833980999992009020500004-15667-038950FM-12+000599999V0209999C000012200019N0010001N1+02461+02321101491ADDGF102991011011008001041001KA1240M+03041MA1999999101441MD1999999-0071REMSYN088AAXX  05004 83398 32594 20000 10246 20232 30144 40149 81140 333 10304 29082 55092 59007;
0156833980999992009020512004-15667-038950FM-12+000599999V0203601N001012200019N0040001N1+02821+02361101521ADDGF103991021011008001041001KA1240N+02271MA1999999101471MD1999999-0131REMSYN076AAXX  05124 83398 32596 33602 10282 20236 30147 40152 82140 333 20227 59013;
0137833980999992009020518004-15667-038950FM-12+000599999V0200501N003112200019N0040001N1+02961+02311101231ADDGF102991011011008001041001MA1999999101181MD1999999-0131REMSYN070AAXX  05184 83398 32596 20506 10296 20231 30118 40123 81140 333 59013;
0168833980999992009020600004-15667-038950FM-12+000599999V0209999C000012200019N0010001N1+02721+02321101401ADDGF102991011011008001041001KA1240M+03081MA1999999101351MD1999999-0091REMSYN088AAXX  06004 83398 32594 20000 10272 20232 30135 40140 81140 333 10308 29075 55105 59009;
0156833980999992009020612004-15667-038950FM-12+000599999V0203201N001010450019N0040001N1+02971+02341101561ADDGF105991031051008001041001KA1240N+02281MA1999999101511MD1999999+0041REMSYN076AAXX  06124 83398 32596 53202 10297 20234 30151 40156 83540 333 20228 58004;
0137833980999992009020618004-15667-038950FM-12+000599999V0203601N002112200019N0040001N1+02991+02381101291ADDGF102991011011008001041001MA1999999101241MD1999999+0061REMSYN070AAXX  06184 83398 32596 23604 10299 20238 30124 40129 81140 333 58006;
0168833980999992009020700004-15667-038950FM-12+000599999V0209999C000012200019N0010001N1+02661+02431101421ADDGF102991011011008001041001KA1240M+03141MA1999999101371MD1999999+0021REMSYN088AAXX  07004 83398 32594 20000 10266 20243 30137 40142 81140 333 10314 29078 55109 58002;
0156833980999992009020712004-15667-038950FM-12+000599999V0209999C000010450019N0040001N1+02821+02481101551ADDGF105991031021008001041001KA1240N+02271MA1999999101501MD1999999-0011REMSYN076AAXX  07124 83398 32596 50000 10282 20248 30150 40155 83240 333 20227 59001;
0137833980999992009020718004-15667-038950FM-12+000599999V0203601N004112200019N0040001N1+03011+02301101251ADDGF102991011011008001041001MA1999999101201MD1999999-0041REMSYN070AAXX  07184 83398 32596 23608 10301 20230 30120 40125 81140 333 59004;
0168833980999992009020800004-15667-038950FM-12+000599999V0203601N002112200019N0010001N1+02671+02441101411ADDGF103991021021008001041001KA1240M+03101MA1999999101361MD1999999-0011REMSYN088AAXX  08004 83398 32594 33604 10267 20244 30136 40141 82240 333 10310 29080 55114 59001;
0156833980999992009020812004-15667-038950FM-12+000599999V0200501N004110450019N0040001N1+02981+02471101421ADDGF106991041021008001041001KA1240N+02331MA1999999101371MD1999999-0131REMSYN076AAXX  08124 83398 32596 60508 10298 20247 30137 40142 84240 333 20233 59013;
0137833980999992009020818004-15667-038950FM-12+000599999V0200501N003110450019N0040001N1+02981+02491101221ADDGF107991041051008001021001MA1999999101971MD1999999-0031REMSYN070AAXX  08184 83398 32596 70506 10298 20249 30197 40122 84520 333 59003;
0168833980999992009020900004-15667-038950FM-12+000599999V0209999C000012200019N0010001N1+02661+02411101331ADDGF102991011011008001041001KA1240M+03051MA1999999101281MD1999999-0081REMSYN088AAXX  09004 83398 32594 20000 10266 20241 30128 40133 81140 333 10305 29080 55075 59008;
0156833980999992009020912004-15667-038950FM-12+000599999V0203201N002110450019N0040001N1+02901+02621101441ADDGF106991041051008001021001KA1240N+02241MA1999999101391MD1999999+0021REMSYN076AAXX  09124 83398 32596 63204 10290 20262 30139 40144 84520 333 20224 58002;
0137833980999992009020918004-15667-038950FM-12+000599999V0203201N003110450019N0040001N1+02981+02401101211ADDGF106991041051008001021001MA1999999101161MD1999999-0011REMSYN070AAXX  09184 83398 32596 63206 10298 20240 30116 40121 84520 333 59001;
0168833980999992009021000004-15667-038950FM-12+000599999V0209999C000012200019N0010001N1+02661+02411101331ADDGF103991031011008001001001KA1240M+03141MA1999999101281MD1999999+0001REMSYN088AAXX  10004 83398 32594 30000 10266 20241 30128 40133 83100 333 10314 29082 55081 58000;
0156833980999992009021012004-15667-038950FM-12+000599999V0209999C000010450019N0040001N1+02941+02431101511ADDGF106991041051008001021001KA1240N+02261MA1999999101461MD1999999+0071REMSYN076AAXX  10124 83398 32596 60000 10294 20243 30146 40151 84520 333 20226 58007;
0137833980999992009021018004-15667-038950FM-12+000599999V0200501N003110450019N0040001N1+02981+02371101311ADDGF106991031021008001041011MA1999999101261MD1999999+0101REMSYN070AAXX  10184 83398 32596 60506 10298 20237 30126 40131 83241 333 58010;
0168833980999992009021100004-15667-038950FM-12+000599999V0200501N002112200019N0010001N1+02681+02541101431ADDGF102991021011008001001001KA1240M+03151MA1999999101381MD1999999+0101REMSYN088AAXX  11004 83398 32594 20504 10268 20254 30138 40143 82100 333 10315 29085 55115 58010;
0156833980999992009021112004-15667-038950FM-12+000599999V0200501N002110450019N0040001N1+02961+02401101531ADDGF106991041051008001021001KA1240N+02301MA1999999101481MD1999999+0021REMSYN076AAXX  11124 83398 32596 60504 10296 20240 30148 40153 84520 333 20230 58002;
0137833980999992009021118004-15667-038950FM-12+000599999V0200501N003110450019N0040001N1+02961+02331101381ADDGF106991031021008001041011MA1999999101331MD1999999+0071REMSYN070AAXX  11184 83398 32596 60506 10296 20233 30133 40138 83241 333 58007;
0168833980999992009021200004-15667-038950FM-12+000599999V0200501N002112200019N0010001N1+02561+02381101371ADDGF104991011011008001041001KA1240M+03131MA1999999101321MD1999999-0061REMSYN088AAXX  12004 83398 32594 40504 10256 20238 30132 40137 81140 333 10313 29080 55088 59006;
0156833980999992009021212004-15667-038950FM-12+000599999V0209999C000010075019N0040001N1+02641+02391101331ADDGF107991051051008001021001KA1240N+02201MA1999999101281MD1999999-0201REMSYN076AAXX  12124 83398 32596 70000 10264 20239 30128 40133 85520 333 20220 59020;
0137833980999992009021218004-15667-038950FM-12+000599999V0200501N004110450019N0040001N1+02961+02281100931ADDGF105991031021008001041001MA1999999100881MD1999999-0451REMSYN070AAXX  12184 83398 32596 50508 10296 20228 30088 40093 83240 333 59045;
0168833980999992009021300004-15667-038950FM-12+000599999V0203601N002110450019N0010001N1+02661+02351100981ADDGF105991031051008001041001KA1240M+03101MA1999999100931MD1999999-0391REMSYN088AAXX  13004 83398 32594 53604 10266 20235 30093 40098 83540 333 10310 29080 55062 59039;
0156833980999992009021312004-15667-038950FM-12+000599999V0203601N004110450019N0040001N1+02941+02331101101ADDGF106991041051008001021001KA1240N+02201MA1999999101051MD1999999-0231REMSYN076AAXX  13124 83398 32596 63608 10294 20233 30105 40110 84520 333 20220 59023;
0137833980999992009021318004-15667-038950FM-12+000599999V0203601N004111050019N0040001N1+03021+02311100871ADDGF105991021021008001041011MA1999999100821MD1999999-0061REMSYN070AAXX  13184 83398 32596 53608 10302 20231 30082 40087 82241 333 59006;
0156833980999992009021412004-15667-038950FM-12+000599999V0203601N002110450019N0040001N1+02981+02301101291ADDGF105991031021008001041011KA1240N+02221MA1999999101241MD1999999+0191REMSYN076AAXX  14124 83398 32596 53604 10298 20230 30124 40129 83241 333 20222 58019;
0137833980999992009021418004-15667-038950FM-12+000599999V0200501N003110450019N0040001N1+03001+02241101121ADDGF106991031021008001041011MA1999999101071MD1999999+0251REMSYN070AAXX  14184 83398 32596 60506 10300 20224 30107 40112 83241 333 58025;
0168833980999992009021500004-15667-038950FM-12+000599999V0203601N002110450019N0010001N1+02681+02431101321ADDGF105991031051008001021001KA1240M+03161MA1999999101271MD1999999+0251REMSYN088AAXX  15004 83398 32594 53604 10268 20243 30127 40132 83520 333 10316 29076 55087 58025;
0201833980999992009021512004-15667-038950FM-12+000599999V0200501N002110450019N0040001N1+02801+02311101441ADDAA124004191AY161061AY221061GF106991041051008001021001KA1240N+02201MA1999999101391MD1999999+0151MW1021REMSYN088AAXX  15124 83398 21596 60504 10280 20231 30139 40144 70262 84520 333 20220 58015 60044;
0137833980999992009021518004-15667-038950FM-12+000599999V0203601N003110450019N0040001N1+02961+02311101291ADDGF105991031051008001041001MA1999999101241MD1999999+0171REMSYN070AAXX  15184 83398 32596 53606 10296 20231 30124 40129 83540 333 58017;
0168833980999992009021600004-15667-038950FM-12+000599999V0209999C000010075019N0010001N1+02541+02381101411ADDGF105991051051008001001001KA1240M+03021MA1999999101361MD1999999+0091REMSYN088AAXX  16004 83398 32594 50000 10254 20238 30136 40141 85500 333 10302 29081 55080 58009;
0201833980999992009021612004-15667-038950FM-12+000599999V0209999C000010075019N0040001N1+02421+02251101451ADDAA124007191AY161061AY221061GF108991051051008001021999KA1240N+02141MA1999999101401MD1999999+0011MW1021REMSYN088AAXX  16124 83398 21596 80000 10242 20225 30140 40145 70262 8552/ 333 20214 58001 60074;
0182833980999992009021618004-15667-038950FM-12+000599999V0200901N002110450019N0040001N1+02901+02301101231ADDAA106002091AY161061AY221061GF106991031051008001041001MA1999999101181MD1999999-0061MW1021REMSYN082AAXX  16184 83398 21596 60904 10290 20230 30118 40123 70262 83540 333 59006 60021;
0168833980999992009021700004-15667-038950FM-12+000599999V0209999C000012200019N0010001N1+02381+02261101401ADDGF104991021021008001041001KA1240M+03001MA1999999101351MD1999999-0011REMSYN088AAXX  17004 83398 32594 40000 10238 20226 30135 40140 82240 333 10300 29086 55069 59001;
0201833980999992009021712004-15667-038950FM-12+000599999V0201801N002110450019N0040001N1+02771+02391101491ADDAA124014091AY161061AY221061GF106991031021008001041001KA1240N+02201MA1999999101441MD1999999+0041MW1021REMSYN088AAXX  17124 83398 21596 61804 10277 20239 30144 40149 70262 83240 333 20220 58004 60144;
0137833980999992009021718004-15667-038950FM-12+000599999V0201401N004110450019N0040001N1+02921+02291101221ADDGF107991041051008001021001MA1999999101171MD1999999-0011REMSYN070AAXX  17184 83398 32596 71408 10292 20229 30117 40122 84520 333 59001;
0168833980999992009021800004-15667-038950FM-12+000599999V0209999C000010075019N0010001N1+02541+02251101361ADDGF108991051051008001021999KA1240M+03111MA1999999101311MD1999999-0041REMSYN088AAXX  18004 83398 32594 80000 10254 20225 30131 40136 8552/ 333 10311 29079 55083 59004;
0156833980999992009021812004-15667-038950FM-12+000599999V0200501N003110075019N0040001N1+02781+02401101491ADDGF108991051051008001021999KA1240N+02221MA1999999101441MD1999999+0001REMSYN076AAXX  18124 83398 32596 80506 10278 20240 30144 40149 8552/ 333 20222 58000;
0137833980999992009021818004-15667-038950FM-12+000599999V0201401N002110450019N0040001N1+02941+02331101321ADDGF107991041051008001021001MA1999999101271MD1999999+0101REMSYN070AAXX  18184 83398 32596 71404 10294 20233 30127 40132 84520 333 58010;
0168833980999992009021900004-15667-038950FM-12+000599999V0209999C000010450019N0010001N1+02511+02301101351ADDGF106991031051008001021001KA1240M+03061MA1999999101301MD1999999-0011REMSYN088AAXX  19004 83398 32594 60000 10251 20230 30130 40135 83520 333 10306 29081 55045 59001;
0201833980999992009021912004-15667-038950FM-12+000599999V0201401N003110450019N0040001N1+02851+02391101411ADDAA124002091AY161061AY221061GF107991031051008001021001KA1240N+02241MA1999999101361MD1999999-0081MW1021REMSYN088AAXX  19124 83398 21596 71406 10285 20239 30136 40141 70262 83520 333 20224 59008 60024;
0137833980999992009021918004-15667-038950FM-12+000599999V0200901N003110450019N0040001N1+02901+02221101251ADDGF107991031051008001021001MA1999999101201MD1999999-0071REMSYN070AAXX  19184 83398 32596 70906 10290 20222 30120 40125 83520 333 59007;
0168833980999992009022000004-15667-038950FM-12+000599999V0209999C000010450019N0010001N1+02441+02341101401ADDGF105991031021008001041001KA1240M+03051MA1999999101351MD1999999+0051REMSYN088AAXX  20004 83398 32594 50000 10244 20234 30135 40140 83240 333 10305 29083 55067 58005;
0156833980999992009022012004-15667-038950FM-12+000599999V0201401N002110450019N0040001N1+02861+02371101381ADDGF106991031051008001021001KA1240N+02171MA1999999101331MD1999999-0031REMSYN076AAXX  20124 83398 32596 61404 10286 20237 30133 40138 83520 333 20217 59003;
0137833980999992009022018004-15667-038950FM-12+000599999V0200501N004112200019N0040001N1+02981+02251101091ADDGF103991021011008001041001MA1999999101041MD1999999-0161REMSYN070AAXX  20184 83398 32596 30508 10298 20225 30104 40109 82140 333 59016;
0156833980999992009022112004-15667-038950FM-12+000599999V0209999C000012200019N0040001N1+02861+02371101331ADDGF104991021011008001041001KA1240N+02151MA1999999101281MD1999999-0051REMSYN076AAXX  21124 83398 32596 40000 10286 20237 30128 40133 82140 333 20215 59005;
0137833980999992009022118004-15667-038950FM-12+000599999V0200501N003112200019N0040001N1+02951+02271101101ADDGF104991021011008001041001MA1999999101051MD1999999+0011REMSYN070AAXX  21184 83398 32596 40506 10295 20227 30105 40110 82140 333 58001;
0156833980999992009022212004-15667-038950FM-12+000599999V0209999C000012200019N0040001N1+02871+02221101451ADDGF104991021021008001041001KA1240N+02151MA1999999101401MD1999999+0121REMSYN076AAXX  22124 83398 32596 40000 10287 20222 30140 40145 82240 333 20215 58012;
0137833980999992009022218004-15667-038950FM-12+000599999V0200501N003110075019N0040001N1+02901+02221101341ADDGF108991051051008001021001MA1999999101291MD1999999+0241REMSYN070AAXX  22184 83398 32596 80506 10290 20222 30129 40134 85520 333 58024;
0156833980999992009022312004-15667-038950FM-12+000599999V0209999C000010450019N0040001N1+02861+02391101461ADDGF107991041051008001021001KA1240N+02271MA1999999101411MD1999999+0011REMSYN076AAXX  23124 83398 32596 70000 10286 20239 30141 40146 84520 333 20227 58001;
0137833980999992009022318004-15667-038950FM-12+000599999V0200501N005110450019N0040001N1+03011+02351101221ADDGF107991041051008001021001MA1999999101171MD1999999-0121REMSYN070AAXX  23184 83398 32596 70510 10301 20235 30117 40122 84520 333 59012;
0156833980999992009022412004-15667-038950FM-12+000599999V0209999C000010450019N0040001N1+02801+02361101371ADDGF107991041051008001021001KA1240N+02311MA1999999101321MD1999999-0091REMSYN076AAXX  24124 83398 32596 70000 10280 20236 30132 40137 84520 333 20231 59009;
0137833980999992009022418004-15667-038950FM-12+000599999V0200501N003110450019N0040001N1+03021+02311101091ADDGF106991031051008001041001MA1999999101041MD1999999-0131REMSYN070AAXX  24184 83398 32596 60506 10302 20231 30104 40109 83540 333 59013;
0201833980999992009022512004-15667-038950FM-12+000599999V0209999C000010450019N0040001N1+02821+02481101431ADDAA124003091AY161061AY221061GF107991041051008001021001KA1240N+02271MA1999999101381MD1999999+0061MW1021REMSYN088AAXX  25124 83398 21596 70000 10282 20248 30138 40143 70262 84520 333 20227 58006 60034;
0137833980999992009022518004-15667-038950FM-12+000599999V0200901N003112200019N0040001N1+03011+02351101191ADDGF103991021011008001041001MA1999999101141MD1999999+0101REMSYN070AAXX  25184 83398 32596 30906 10301 20235 30114 40119 82140 333 58010;
0168833980999992009022600004-15667-038950FM-12+000599999V0200501N003110450019N0010001N1+02711+02441101351ADDGF105991031021008001041001KA1240M+03181MA1999999101301MD1999999+0171REMSYN088AAXX  26004 83398 32594 50506 10271 20244 30130 40135 83240 333 10318 29080 55101 58017;
0201833980999992009022612004-15667-038950FM-12+000599999V0209999C000010075019N0040001N1+02581+02511101371ADDAA124006191AY161061AY221061GF108991051051008001021999KA1240N+02421MA1999999101321MD1999999-0061MW1021REMSYN088AAXX  26124 83398 21596 80000 10258 20251 30132 40137 70262 8552/ 333 20242 59006 60064;
0137833980999992009022618004-15667-038950FM-12+000599999V0200501N003110075019N0040001N1+02861+02371101161ADDGF108991051051008001021001MA1999999101111MD1999999-0031REMSYN070AAXX  26184 83398 32596 80506 10286 20237 30111 40116 85520 333 59003;
0168833980999992009022700004-15667-038950FM-12+000599999V0209999C000010075019N0010001N1+02681+02311101321ADDGF108991051051008001021999KA1240M+03001MA1999999101271MD1999999-0031REMSYN088AAXX  27004 83398 32594 80000 10268 20231 30127 40132 8552/ 333 10300 29083 55018 59003;
0156833980999992009022712004-15667-038950FM-12+000599999V0201401N003110450019N0040001N1+02861+02261101441ADDGF107991041051008001021001KA1240N+02251MA1999999101391MD1999999+0071REMSYN076AAXX  27124 83398 32596 71406 10286 20226 30139 40144 84520 333 20225 58007;
0137833980999992009022718004-15667-038950FM-12+000599999V0200901N003112200019N0040001N1+02961+02231101211ADDGF104991021011008001041001MA1999999101161MD1999999+0051REMSYN070AAXX  27184 83398 32596 40906 10296 20223 30116 40121 82140 333 58005;
0168833980999992009022800004-15667-038950FM-12+000599999V0209999C000012200019N0010001N1+02661+02291101371ADDGF103991021021008001041001KA1240M+03041MA1999999101321MD1999999+0051REMSYN088AAXX  28004 83398 32594 30000 10266 20229 30132 40137 82240 333 10304 29074 55094 58005;
0201833980999992009022812004-15667-038950FM-12+000599999V0209999C000010450019N0040001N1+02761+02441101501ADDAA124002091AY161061AY221061GF107991041051008001021001KA1240N+02161MA1999999101451MD1999999+0061MW1021REMSYN088AAXX  28124 83398 21596 70000 10276 20244 30145 40150 70262 84520 333 20216 58006 60024;
0137833980999992009022818004-15667-038950FM-12+000599999V0200901N003110450019N0040001N1+02941+02331101251ADDGF105991031021008001041001MA1999999101201MD1999999+0041REMSYN070AAXX  28184 83398 32596 50906 10294 20233 30120 40125 83240 333 58004;
0168833980999992009030100004-15667-038950FM-12+000599999V0209999C000010450019N0010001N1+02681+02261101491ADDGF105991031021008001041001KA1240M+03121MA1999999101441MD1999999+0121REMSYN088AAXX  01004 83398 32594 50000 10268 20226 30144 40149 83240 333 10312 29077 55065 58012;
0156833980999992009030112004-15667-038950FM-12+000599999V0200501N001012200019N0040001N1+02961+02281101571ADDGF103991021011008001041001KA1240N+02341MA1999999101521MD1999999+0071REMSYN076AAXX  01124 83398 32596 30502 10296 20228 30152 40157 82140 333 20234 58007;
0137833980999992009030118004-15667-038950FM-12+000599999V0209999C000012200019N0040001N1+03001+02111101321ADDGF103991021011008001041001MA1999999101271MD1999999+0071REMSYN070AAXX  01184 83398 32596 30000 10300 20211 30127 40132 82140 333 58007;
0168833980999992009030200004-15667-038950FM-12+000599999V0209999C000010450019N0010001N1+02721+02301101501ADDGF105991031021008001041001KA1240M+03131MA1999999101451MD1999999+0011REMSYN088AAXX  02004 83398 32594 50000 10272 20230 30145 40150 83240 333 10313 29070 55085 58001;
0201833980999992009030212004-15667-038950FM-12+000599999V0209999C000010450019N0040001N1+02741+02501101591ADDAA124002091AY161061AY221061GF106991041051008001021001KA1240N+02241MA1999999101541MD1999999+0021MW1021REMSYN088AAXX  02124 83398 21596 60000 10274 20250 30154 40159 70262 84520 333 20224 58002 60024;
0178833980999992009030300004-15667-038950FM-12+000599999V0209999C000012200019N0010001N1+02701+02331101441ADDGA1001+999999999GF100991001001999999001001KA1240M+03121MA1999999101391MD1999999-0061REMSYN082AAXX  03004 83398 32594 00000 10270 20233 30139 40144 333 10312 29079 55104 59006;
0156833980999992009030312004-15667-038950FM-12+000599999V0209999C000010021019N0040001N1+02761+02481101501ADDGF105991051021002501001001KA1240N+02141MA1999999101451MD1999999-0091REMSYN076AAXX  03124 83398 32396 50000 10276 20248 30145 40150 85200 333 20214 59009;
0137833980999992009030318004-15667-038950FM-12+000599999V0200501N003112200019N0040001N1+03001+02371101121ADDGF103991031021008001001001MA1999999101071MD1999999-0161REMSYN070AAXX  03184 83398 32596 30506 10300 20237 30107 40112 83200 333 59016;
0168833980999992009030400004-15667-038950FM-12+000599999V0200501N002112200019N0010001N1+02681+02331101291ADDGF101991011011008001001001KA1240M+03161MA1999999101241MD1999999-0151REMSYN088AAXX  04004 83398 32594 10504 10268 20233 30124 40129 81100 333 10316 29079 55105 59015;
0156833980999992009030412004-15667-038950FM-12+000599999V0209999C000012200019N0040001N1+02861+02371101301ADDGF104991041051008001001001KA1240N+02201MA1999999101251MD1999999-0201REMSYN076AAXX  04124 83398 32596 40000 10286 20237 30125 40130 84500 333 20220 59020;
0137833980999992009030418004-15667-038950FM-12+000599999V0200501N003110450019N0040001N1+03041+02361101001ADDGF105991031021008001041001MA1999999100951MD1999999-0121REMSYN070AAXX  04184 83398 32596 50506 10304 20236 30095 40100 83240 333 59012;
0187833980999992009030500004-15667-038950FM-12+000599999V0200501N002112200019N0010001N1+02701+02391101191ADDGF103991999011008001001001KA1240M+03241MA1999999101141MD1999999-0101REMSYN088AAXX  05004 83398 32594 30504 10270 20239 30114 40119 82100 333 10324 29077 55102 59010;EQDQ01+000022SCOTLC
0156833980999992009030512004-15667-038950FM-12+000599999V0203601N002110450019N0040001N1+02901+02501101301ADDGF105991031051008001041001KA1240N+02231MA1999999101251MD1999999+0001REMSYN076AAXX  05124 83398 32596 53604 10290 20250 30125 40130 83540 333 20223 58000;
0137833980999992009030518004-15667-038950FM-12+000599999V0200501N003110450019N0040001N1+03041+02381100981ADDGF105991041051008001041001MA1999999100931MD1999999-0021REMSYN070AAXX  05184 83398 32596 50506 10304 20238 30093 40098 84540 333 59002;
0168833980999992009030600004-15667-038950FM-12+000599999V0200501N003112200019N0010001N1+02761+02481101191ADDGF102991021011008001001001KA1240M+03241MA1999999101141MD1999999+0001REMSYN088AAXX  06004 83398 32594 20506 10276 20248 30114 40119 82100 333 10324 29079 55109 58000;
0156833980999992009030612004-15667-038950FM-12+000599999V0203601N002112200019N0040001N1+03021+02391101311ADDGF104991041051008001001001KA1240N+02221MA1999999101261MD1999999+0011REMSYN076AAXX  06124 83398 32596 43604 10302 20239 30126 40131 84500 333 20222 58001;
0137833980999992009030618004-15667-038950FM-12+000599999V0200501N003110450019N0040001N1+03101+02391101061ADDGF105991031021008001041001MA1999999101011MD1999999+0081REMSYN070AAXX  06184 83398 32596 50506 10310 20239 30101 40106 83240 333 58008;
0178833980999992009030700004-15667-038950FM-12+000599999V0200501N003112200019N0010001N1+02701+02501101241ADDGA1001+999999999GF100991001001999999001001KA1240M+03261MA1999999101191MD1999999+0051REMSYN082AAXX  07004 83398 32594 00506 10270 20250 30119 40124 333 10326 29078 55104 58005;
0156833980999992009030712004-15667-038950FM-12+000599999V0209999C000010450019N0040001N1+02781+02521101341ADDGF105991041051008001011001KA1240N+02361MA1999999101291MD1999999+0031REMSYN076AAXX  07124 83398 32596 50000 10278 20252 30129 40134 84510 333 20236 58003;
0137833980999992009030718004-15667-038950FM-12+000599999V0200901N002110450019N0040001N1+02841+02461101121ADDGF106991041051008001021001MA1999999101071MD1999999+0061REMSYN070AAXX  07184 83398 32596 60904 10284 20246 30107 40112 84520 333 58006;
0168833980999992009030800004-15667-038950FM-12+000599999V0200901N003110450019N0010001N1+02721+02561101341ADDGF106991041051008001021001KA1240M+02961MA1999999101291MD1999999+0101REMSYN088AAXX  08004 83398 32594 60906 10272 20256 30129 40134 84520 333 10296 29087 55005 58010;
0201833980999992009030812004-15667-038950FM-12+000599999V0209999C000010450019N0040001N1+02441+02421101531ADDAA124033091AY191061AY261061GF108991041071008001021999KA1240N+02301MA1999999101481MD1999999+0191MW1521REMSYN088AAXX  08124 83398 21596 80000 10244 20242 30148 40153 75296 8472/ 333 20230 58019 60334;
0182833980999992009030818004-15667-038950FM-12+000599999V0200501N002110450019N0040001N1+02841+02461101211ADDAA106003091AY161061AY221061GF106991041051008001021001MA1999999101161MD1999999+0091MW1021REMSYN082AAXX  08184 83398 21596 60504 10284 20246 30116 40121 70262 84520 333 58009 60031;
0168833980999992009030900004-15667-038950FM-12+000599999V0200501N002110450019N0010001N1+02701+02481101271ADDGF105991041051008001021001KA1240M+03041MA1999999101221MD1999999-0071REMSYN088AAXX  09004 83398 32594 50504 10270 20248 30122 40127 84520 333 10304 29089 55031 59007;
0173833980999992009030912004-15667-038950FM-12+000599999V0209999C000010450019N0040001N1+02841+02381101471ADDAA124003091GF106991031021008001041001KA1240N+02201MA1999999101421MD1999999-0061REMSYN082AAXX  09124 83398 22596 60000 10284 20238 30142 40147 83240 333 20220 59006 60034;
0137833980999992009030918004-15667-038950FM-12+000599999V0200901N003111050019N0040001N1+02921+02431101241ADDGF105991021011008001041011MA1999999101191MD1999999+0031REMSYN070AAXX  09184 83398 32596 50906 10292 20243 30119 40124 82141 333 58003;
0168833980999992009031000004-15667-038950FM-12+000599999V0209999C000012200019N0010001N1+02701+02261101351ADDGF103991011011008001041011KA1240M+03101MA1999999101301MD1999999+0081REMSYN088AAXX  10004 83398 32594 30000 10270 20226 30130 40135 81141 333 10310 29076 55087 58008;
0201833980999992009031012004-15667-038950FM-12+000599999V0209999C000012200019N0040001N1+02891+02491101451ADDAA124001091AY161061AY221061GF104991021011008001041001KA1240N+02321MA1999999101401MD1999999-0021MW1021REMSYN088AAXX  10124 83398 21596 40000 10289 20249 30140 40145 70262 82140 333 20232 59002 60014;
0137833980999992009031018004-15667-038950FM-12+000599999V0200501N003112200019N0040001N1+02991+02291101151ADDGF102991011011008001041001MA1999999101101MD1999999-0091REMSYN070AAXX  10184 83398 32596 20506 10299 20229 30110 40115 81140 333 59009;
0168833980999992009031100004-15667-038950FM-12+000599999V0200501N004112200019N0010001N1+02761+02191101331ADDGF102991011011008001041001KA1240M+03101MA1999999101281MD1999999-0021REMSYN088AAXX  11004 83398 32594 20508 10276 20219 30128 40133 81140 333 10310 29072 55097 59002;
0156833980999992009031112004-15667-038950FM-12+000599999V0209999C000010450019N0040001N1+02701+02461101471ADDGF106991041051008001041001KA1240N+02181MA1999999101421MD1999999-0021REMSYN076AAXX  11124 83398 32596 60000 10270 20246 30142 40147 84540 333 20218 59002;
0137833980999992009031118004-15667-038950FM-12+000599999V0209999C000012200019N0040001N1+02961+02281101151ADDGF102991011011008001041001MA1999999101101MD1999999+0001REMSYN070AAXX  11184 83398 32596 20000 10296 20228 30110 40115 81140 333 58000;
0168833980999992009031200004-15667-038950FM-12+000599999V0200501N003110450019N0010001N1+02721+02321101301ADDGF106991041051008001041001KA1240M+03101MA1999999101251MD1999999-0031REMSYN088AAXX  12004 83398 32594 60506 10272 20232 30125 40130 84540 333 10310 29078 55076 59003;
0156833980999992009031212004-15667-038950FM-12+000599999V0209999C000010450019N0040001N1+02921+02361101361ADDGF105991031021008001041001KA1240N+02171MA1999999101311MD1999999-0111REMSYN076AAXX  12124 83398 32596 50000 10292 20236 30131 40136 83240 333 20217 59011;
0137833980999992009031218004-15667-038950FM-12+000599999V0200501N003112200019N0040001N1+02981+02371101041ADDGF102991011011008001041001MA1999999100991MD1999999-0111REMSYN070AAXX  12184 83398 32596 20506 10298 20237 30099 40104 81140 333 59011;
0168833980999992009031300004-15667-038950FM-12+000599999V0200501N002112200019N0010001N1+02721+02321101171ADDGF103991021011008001041001KA1240M+03091MA1999999101121MD1999999-0131REMSYN088AAXX  13004 83398 32594 30504 10272 20232 30112 40117 82140 333 10309 29075 55096 59013;
0156833980999992009031312004-15667-038950FM-12+000599999V0209999C000010450019N0040001N1+02871+02431101261ADDGF107991041051008001021001KA1240N+02171MA1999999101211MD1999999-0101REMSYN076AAXX  13124 83398 32596 70000 10287 20243 30121 40126 84520 333 20217 59010;
0137833980999992009031318004-15667-038950FM-12+000599999V0200501N004112200019N0040001N1+02981+02351100881ADDGF103991021011008001041001MA1999999100831MD1999999-0161REMSYN070AAXX  13184 83398 32596 30508 10298 20235 30083 40088 82140 333 59016;
0168833980999992009031400004-15667-038950FM-12+000599999V0200501N002112200019N0010001N1+02721+02371101031ADDGF102991011011008001041001KA1240M+03141MA1999999100981MD1999999-0141REMSYN088AAXX  14004 83398 32594 20504 10272 20237 30098 40103 81140 333 10314 29077 55084 59014;
0156833980999992009031412004-15667-038950FM-12+000599999V0209999C000010450019N0040001N1+02941+02401101211ADDGF106991041051008001021001KA1240N+02211MA1999999101161MD1999999-0051REMSYN076AAXX  14124 83398 32596 60000 10294 20240 30116 40121 84520 333 20221 59005;
0137833980999992009031418004-15667-038950FM-12+000599999V0203601N004112200019N0040001N1+03021+02311100901ADDGF102991011011008001041001MA1999999100851MD1999999+0021REMSYN070AAXX  14184 83398 32596 23608 10302 20231 30085 40090 81140 333 58002;
0168833980999992009031500004-15667-038950FM-12+000599999V0203601N004112200019N0010001N1+02681+02411101041ADDGF102991011011008001041001KA1240M+03101MA1999999100991MD1999999+0011REMSYN088AAXX  15004 83398 32594 23608 10268 20241 30099 40104 81140 333 10310 29077 55096 58001;
0156833980999992009031512004-15667-038950FM-12+000599999V0203601N004110450019N0040001N1+03031+02391101311ADDGF106991031021008001041001KA1240N+02291MA1999999101261MD1999999+0101REMSYN076AAXX  15124 83398 32596 63608 10303 20239 30126 40131 83240 333 20229 58010;
0137833980999992009031518004-15667-038950FM-12+000599999V0203601N004112200019N0040001N1+02971+02431100971ADDGF101991011011008001001001MA1999999100921MD1999999+0071REMSYN070AAXX  15184 83398 32596 13608 10297 20243 30092 40097 81100 333 58007;
0168833980999992009031600004-15667-038950FM-12+000599999V0203601N003112200019N0010001N1+02681+02481101171ADDGF103991021011008001041001KA1240M+03181MA1999999101121MD1999999+0131REMSYN088AAXX  16004 83398 32594 33606 10268 20248 30112 40117 82140 333 10318 29080 55093 58013;
0156833980999992009031612004-15667-038950FM-12+000599999V0200501N003110450019N0040001N1+02981+02491101391ADDGF105991031051008001021001KA1240N+02301MA1999999101341MD1999999+0081REMSYN076AAXX  16124 83398 32596 50506 10298 20249 30134 40139 83520 333 20230 58008;
0137833980999992009031618004-15667-038950FM-12+000599999V0200501N004110450019N0040001N1+03061+02541101041ADDGF106991031021008001041011MA1999999100991MD1999999+0071REMSYN070AAXX  16184 83398 32596 60508 10306 20254 30099 40104 83241 333 58007;
0168833980999992009031700004-15667-038950FM-12+000599999V0200501N003110450019N0010001N1+02781+02401101361ADDGF106991041051008001021001KA1240M+03161MA1999999101311MD1999999+0191REMSYN088AAXX  17004 83398 32594 60506 10278 20240 30131 40136 84520 333 10316 29077 55093 58019;
0201833980999992009031712004-15667-038950FM-12+000599999V0202701N001010075019N0040001N1+02701+02611101541ADDAA124003091AY161061AY221061GF108991051051008001021999KA1240N+02341MA1999999101491MD1999999+0151MW1021REMSYN088AAXX  17124 83398 21596 82702 10270 20261 30149 40154 70262 8552/ 333 20234 58015 60034;
0182833980999992009031718004-15667-038950FM-12+000599999V0209999C000010450019N0040001N1+02901+02621101291ADDAA106018091AY161061AY221061GF106991041051008001021001MA1999999101241MD1999999+0251MW1021REMSYN082AAXX  17184 83398 21596 60000 10290 20262 30124 40129 70262 84520 333 58025 60181;
0168833980999992009031800004-15667-038950FM-12+000599999V0209999C000010450019N0010001N1+02501+02451101461ADDGF105991031051008001021001KA1240M+03061MA1999999101411MD1999999+0101REMSYN088AAXX  18004 83398 32594 50000 10250 20245 30141 40146 83520 333 10306 29094 55061 58010;
0156833980999992009031812004-15667-038950FM-12+000599999V0201801N002110450019N0040001N1+02821+02561101461ADDGF106991041051008001021001KA1240N+02301MA1999999101411MD1999999-0081REMSYN076AAXX  18124 83398 32596 61804 10282 20256 30141 40146 84520 333 20230 59008;
0182833980999992009031818004-15667-038950FM-12+000599999V0201401N003110450019N0040001N1+02961+02531101151ADDAA106002091AY161061AY221061GF106991041051008001021001MA1999999101101MD1999999-0141MW1021REMSYN082AAXX  18184 83398 21596 61406 10296 20253 30110 40115 70262 84520 333 59014 60021;
0168833980999992009031900004-15667-038950FM-12+000599999V0209999C000010075019N0010001N1+02501+02471101331ADDGF105991051051008001001001KA1240M+03061MA1999999101281MD1999999-0131REMSYN088AAXX  19004 83398 32594 50000 10250 20247 30128 40133 85500 333 10306 29090 55055 59013;
0201833980999992009031912004-15667-038950FM-12+000599999V0201801N002110450019N0040001N1+02501+02471101341ADDAA124017091AY191061AY261061GF108991041071008001021999KA1240N+02341MA1999999101291MD1999999-0121MW1511REMSYN088AAXX  19124 83398 21596 81804 10250 20247 30129 40134 75196 8472/ 333 20234 59012 60174;
0182833980999992009031918004-15667-038950FM-12+000599999V0209999C000010075019N0200001N1+02701+02521101061ADDAA106002091AY161061AY221061GF108991051051008001021999MA1999999101011MD1999999-0091MW1021REMSYN082AAXX  19184 83398 21598 80000 10270 20252 30101 40106 70262 8552/ 333 59009 60021;
0168833980999992009032000004-15667-038950FM-12+000599999V0209999C000010450019N0010001N1+02521+02431101241ADDGF106991041051008001021001KA1240M+02841MA1999999101191MD1999999-0091REMSYN088AAXX  20004 83398 32594 60000 10252 20243 30119 40124 84520 333 10284 29095 55000 59009;
0201833980999992009032012004-15667-038950FM-12+000599999V0201801N003110075019N0040001N1+02581+02421101241ADDAA124004191AY191061AY261061GF108991051051008001021999KA1240N+02341MA1999999101191MD1999999-0101MW1021REMSYN088AAXX  20124 83398 21596 81806 10258 20242 30119 40124 70296 8552/ 333 20234 59010 60044;
0137833980999992009032018004-15667-038950FM-12+000599999V0201801N003110075019N0040001N1+02761+02561101011ADDGF108991051051008001021999MA1999999100961MD1999999-0051REMSYN070AAXX  20184 83398 32596 81806 10276 20256 30096 40101 8552/ 333 59005;
0168833980999992009032100004-15667-038950FM-12+000599999V0209999C000010075019N0010001N1+02501+02451101171ADDGF105991051051008001001001KA1240M+02801MA1999999101121MD1999999-0071REMSYN088AAXX  21004 83398 32594 50000 10250 20245 30112 40117 85500 333 10280 29094 55000 59007;
0201833980999992009032112004-15667-038950FM-12+000599999V0209999C000010075019N0040001N1+02501+02461101241ADDAA124031091AY191061AY261061GF108991051071008001021999KA1240N+02341MA1999999101191MD1999999+0001MW1631REMSYN088AAXX  21124 83398 21596 80000 10250 20246 30119 40124 76396 8572/ 333 20234 58000 60314;
0182833980999992009032118004-15667-038950FM-12+000599999V0201401N001010075019N0040001N1+02741+02481100931ADDAA106002091AY161061AY221061GF108991051051008001021999MA1999999100881MD1999999-0081MW1021REMSYN082AAXX  21184 83398 21596 81402 10274 20248 30088 40093 70262 8552/ 333 59008 60021;
0168833980999992009032200004-15667-038950FM-12+000599999V0209999C000010075019N0010001N1+02501+02471101191ADDGF107991051051008001021001KA1240M+02901MA1999999101141MD1999999+0021REMSYN088AAXX  22004 83398 32594 70000 10250 20247 30114 40119 85520 333 10290 29095 55005 58002;
0201833980999992009032212004-15667-038950FM-12+000599999V0202701N002110075019N0040001N1+02601+02511101221ADDAA124008991AY161061AY221061GF108991051051008001021999KA1240N+02361MA1999999101171MD1999999-0021MW1021REMSYN088AAXX  22124 83398 21596 82704 10260 20251 30117 40122 70262 8552/ 333 20236 59002 60094;
0137833980999992009032218004-15667-038950FM-12+000599999V0200501N003110450019N0040001N1+02981+02531100851ADDGF107991031051008001041011MA1999999100801MD1999999-0081REMSYN070AAXX  22184 83398 32596 70506 10298 20253 30080 40085 83541 333 59008;
0168833980999992009032300004-15667-038950FM-12+000599999V0209999C000010075019N0010001N1+02641+02591101091ADDGF105991051051008001001001KA1240M+03061MA1999999101041MD1999999-0101REMSYN088AAXX  23004 83398 32594 50000 10264 20259 30104 40109 85500 333 10306 29092 55033 59010;
0156833980999992009032312004-15667-038950FM-12+000599999V0209999C000010450019N0040001N1+02871+02631101131ADDGF106991041051008001041001KA1240N+02321MA1999999101081MD1999999-0091REMSYN076AAXX  23124 83398 32596 60000 10287 20263 30108 40113 84540 333 20232 59009;
0137833980999992009032318004-15667-038950FM-12+000599999V0203601N003110450019N0040001N1+02981+02491100851ADDGF105991031021008001041001MA1999999100801MD1999999+0001REMSYN070AAXX  23184 83398 32596 53606 10298 20249 30080 40085 83240 333 58000;
0168833980999992009032400004-15667-038950FM-12+000599999V0209999C000010450019N0010001N1+02741+02431101011ADDGF105991031021008001041001KA1240M+03041MA1999999100961MD1999999-0081REMSYN088AAXX  24004 83398 32594 50000 10274 20243 30096 40101 83240 333 10304 29080 55086 59008;
0201833980999992009032412004-15667-038950FM-12+000599999V0209999C000010075019N0040001N1+02901+02431101201ADDAA124004191AY161061AY221061GF108991051051008001021001KA1240N+02381MA1999999101151MD1999999+0071MW1021REMSYN088AAXX  24124 83398 21596 80000 10290 20243 30115 40120 70262 85520 333 20238 58007 60044;
0137833980999992009032418004-15667-038950FM-12+000599999V0200501N003110450019N0040001N1+02881+02441100821ADDGF107991041051008001021001MA1999999100771MD1999999-0031REMSYN070AAXX  24184 83398 32596 70506 10288 20244 30077 40082 84520 333 59003;
0168833980999992009032500004-15667-038950FM-12+000599999V0200501N002110450019N0010001N1+02721+02451101021ADDGF106991041051008001021001KA1240M+03101MA1999999100971MD1999999+0011REMSYN088AAXX  25004 83398 32594 60504 10272 20245 30097 40102 84520 333 10310 29081 55070 58001;
0156833980999992009032512004-15667-038950FM-12+000599999V0209999C000010450019N0040001N1+02941+02431101111ADDGF107991041051008001021001KA1240N+02381MA1999999101061MD1999999-0091REMSYN076AAXX  25124 83398 32596 70000 10294 20243 30106 40111 84520 333 20238 59009;
0137833980999992009032518004-15667-038950FM-12+000599999V0203601N005110450019N0040001N1+02981+02471100741ADDGF106991031051008001021001MA1999999100691MD1999999-0081REMSYN070AAXX  25184 83398 32596 63610 10298 20247 30069 40074 83520 333 59008;
0168833980999992009032600004-15667-038950FM-12+000599999V0209999C000010075019N0010001N1+02751+02531100951ADDGF108991051051008001021999KA1240M+03121MA1999999100901MD1999999-0071REMSYN088AAXX  26004 83398 32594 80000 10275 20253 30090 40095 8552/ 333 10312 29081 55068 59007;
0201833980999992009032612004-15667-038950FM-12+000599999V0209999C000010450019N0040001N1+02521+02311101231ADDAA124087991AY161061AY291061GF107991041051008001021001KA1240N+02381MA1999999101181MD1999999+0121MW1021REMSYN088AAXX  26124 83398 21596 70000 10252 20231 30118 40123 70269 84520 333 20238 58012 60884;
0137833980999992009032618004-15667-038950FM-12+000599999V0203601N002112200019N0040001N1+03021+02241100801ADDGF104991021011008001041001MA1999999100751MD1999999+0061REMSYN070AAXX  26184 83398 32596 43604 10302 20224 30075 40080 82140 333 58006;
0168833980999992009032700004-15667-038950FM-12+000599999V0209999C000010075019N0010001N1+02701+02501101121ADDGF108991051051008001021999KA1240M+03101MA1999999101071MD1999999+0171REMSYN088AAXX  27004 83398 32594 80000 10270 20250 30107 40112 8552/ 333 10310 29082 55052 58017;
0201833980999992009032712004-15667-038950FM-12+000599999V0209999C000010075019N0040001N1+02541+02451101311ADDAA124020191AY161061AY221061GF108991051051008001021001KA1240N+02351MA1999999101261MD1999999+0081MW1021REMSYN088AAXX  27124 83398 21596 80000 10254 20245 30126 40131 70262 85520 333 20235 58008 60204;
0137833980999992009032718004-15667-038950FM-12+000599999V0200501N003110075019N0040001N1+02841+02401100971ADDGF108991051051008001021999MA1999999100921MD1999999+0171REMSYN070AAXX  27184 83398 32596 80506 10284 20240 30092 40097 8552/ 333 58017;
0168833980999992009032800004-15667-038950FM-12+000599999V0209999C000010450019N0010001N1+02421+02321101111ADDGF106991031051008001021001KA1240M+03011MA1999999101061MD1999999+0011REMSYN088AAXX  28004 83398 32594 60000 10242 20232 30106 40111 83520 333 10301 29090 55009 58001;
0156833980999992009032812004-15667-038950FM-12+000599999V0209999C000010450019N0040001N1+02921+02471101191ADDGF106991041051008001041001KA1240N+02311MA1999999101141MD1999999-0121REMSYN076AAXX  28124 83398 32596 60000 10292 20247 30114 40119 84540 333 20231 59012;
0137833980999992009032818004-15667-038950FM-12+000599999V0203601N005112200019N0040001N1+02921+02501100861ADDGF103991021011008001041001MA1999999100811MD1999999-0111REMSYN070AAXX  28184 83398 32596 33610 10292 20250 30081 40086 82140 333 59011;
0168833980999992009032900004-15667-038950FM-12+000599999V0209999C000012200019N0010001N1+02641+02481101031ADDGF102991011011008001041001KA1240M+03081MA1999999100981MD1999999-0081REMSYN088AAXX  29004 83398 32594 20000 10264 20248 30098 40103 81140 333 10308 29084 55079 59008;
0156833980999992009032912004-15667-038950FM-12+000599999V0203601N003110450019N0040001N1+02981+02531101111ADDGF106991031021008001041001KA1240N+02311MA1999999101061MD1999999-0081REMSYN076AAXX  29124 83398 32596 63606 10298 20253 30106 40111 83240 333 20231 59008;
0137833980999992009032918004-15667-038950FM-12+000599999V0200501N003110450019N0040001N1+02951+02371100741ADDGF107991041051008001021001MA1999999100691MD1999999-0121REMSYN070AAXX  29184 83398 32596 70506 10295 20237 30069 40074 84520 333 59012;
0168833980999992009033000004-15667-038950FM-12+000599999V0209999C000010450019N0010001N1+02801+02501100931ADDGF106991031051008001021001KA1240M+03041MA1999999100881MD1999999-0101REMSYN088AAXX  30004 83398 32594 60000 10280 20250 30088 40093 83520 333 10304 29079 55065 59010;
0143833980999992009033012004-15667-038950FM-12+000599999V0209999C000010450019N0040001N1+02901+02431101101ADDGF106991041051008001021001MA1999999101051MD1999999-0011REMSYN076AAXX  30124 83398 32596 60000 10290 20243 30105 40110 84520 333 2//// 59001;
0137833980999992009033018004-15667-038950FM-12+000599999V0203601N002110450019N0040001N1+03001+02551100801ADDGF106991041051008001021001MA1999999100751MD1999999+0061REMSYN070AAXX  30184 83398 32596 63604 10300 20255 30075 40080 84520 333 58006;
0168833980999992009033100004-15667-038950FM-12+000599999V0209999C000012200019N0010001N1+02701+02521100861ADDGF104991041051008001001001KA1240M+03241MA1999999100811MD1999999-0071REMSYN088AAXX  31004 83398 32594 40000 10270 20252 30081 40086 84500 333 10324 29083 55041 59007;
0156833980999992009033112004-15667-038950FM-12+000599999V0203601N003110450019N0040001N1+03001+02571101061ADDGF106991041051008001021001KA1240N+02401MA1999999101011MD1999999-0041REMSYN076AAXX  31124 83398 32596 63606 10300 20257 30101 40106 84520 333 20240 59004;
0137833980999992009033118004-15667-038950FM-12+000599999V0203601N004110450019N0040001N1+02921+02521100691ADDGF106991031051008001041011MA1999999100641MD1999999-0111REMSYN070AAXX  31184 83398 32596 63608 10292 20252 30064 40069 83541 333 59011;
0168833980999992009040100004-15667-038950FM-12+000599999V0209999C000012200019N0010001N1+02721+02561100861ADDGF102991021011008001001001KA1240M+03211MA1999999100811MD1999999+0001REMSYN088AAXX  01004 83398 32594 20000 10272 20256 30081 40086 82100 333 10321 29085 55057 58000;
0156833980999992009040112004-15667-038950FM-12+000599999V0202701N002110450019N0040001N1+03101+02541101071ADDGF105991031051008001041001KA1240N+02441MA1999999101021MD1999999+0011REMSYN076AAXX  01124 83398 32596 52704 10310 20254 30102 40107 83540 333 20244 58001;
0137833980999992009040118004-15667-038950FM-12+000599999V0200501N003110450019N0040001N1+03001+02551100691ADDGF106991031021008001041011MA1999999100641MD1999999+0001REMSYN070AAXX  01184 83398 32596 60506 10300 20255 30064 40069 83241 333 58000;
0168833980999992009040200004-15667-038950FM-12+000599999V0209999C000010075019N0010001N1+02721+02631100971ADDGF105991051051008001001001KA1240M+03261MA1999999100921MD1999999+0111REMSYN088AAXX  02004 83398 32594 50000 10272 20263 30092 40097 85500 333 10326 29085 55074 58011;
0201833980999992009040212004-15667-038950FM-12+000599999V0209999C000010075019N0040001N1+02341+02271101301ADDAA124022191AY191061AY261061GF108991051071008001021999KA1240N+02241MA1999999101251MD1999999+0231MW1611REMSYN088AAXX  02124 83398 21596 80000 10234 20227 30125 40130 76196 8572/ 333 20224 58023 60224;
0182833980999992009040218004-15667-038950FM-12+000599999V0201801N002110075019N0040001N1+02341+02271100981ADDAA106033091AY191061AY261061GF108991051051008001021999MA1999999100931MD1999999+0291MW1021REMSYN082AAXX  02184 83398 21596 81804 10234 20227 30093 40098 70296 8552/ 333 58029 60331;
0213833980999992009040300004-15667-038950FM-12+000599999V0209999C000010075019N0010001N1+02381+02361101181ADDAA106001091AY161061AY221061GF108991051051008001021999KA1240M+02441MA1999999101131MD1999999+0211MW1021REMSYN100AAXX  03004 83398 21594 80000 10238 20236 30113 40118 70262 8552/ 333 10244 29098 55000 58021 60011;
0173833980999992009040312004-15667-038950FM-12+000599999V0201801N002110075019N0040001N1+02521+02381101241ADDAA124034091GF108991051051008001021999KA1240N+02361MA1999999101191MD1999999-0061REMSYN082AAXX  03124 83398 22596 81804 10252 20238 30119 40124 8552/ 333 20236 59006 60344;
0137833980999992009040318004-15667-038950FM-12+000599999V0201801N002110075019N0040001N1+02701+02521100951ADDGF108991051051008001021999MA1999999100901MD1999999-0031REMSYN070AAXX  03184 83398 32596 81804 10270 20252 30090 40095 8552/ 333 59003;
0168833980999992009040400004-15667-038950FM-12+000599999V0201801N002110075019N0010001N1+02461+02371101161ADDGF108991051051008001021999KA1240M+02841MA1999999101111MD1999999-0021REMSYN088AAXX  04004 83398 32594 81804 10246 20237 30111 40116 8552/ 333 10284 29093 55009 59002;
0201833980999992009040412004-15667-038950FM-12+000599999V0201801N002110075019N0040001N1+02521+02451101291ADDAA124037191AY161061AY221061GF108991051051008001021999KA1240N+02301MA1999999101241MD1999999+0051MW1021REMSYN088AAXX  04124 83398 21596 81804 10252 20245 30124 40129 70262 8552/ 333 20230 58005 60374;
0137833980999992009040418004-15667-038950FM-12+000599999V0201801N002110075019N0040001N1+02801+02481101071ADDGF107991051051008001021001MA1999999101021MD1999999+0121REMSYN070AAXX  04184 83398 32596 71804 10280 20248 30102 40107 85520 333 58012;
0213833980999992009040500004-15667-038950FM-12+000599999V0209999C000010075019N0010001N1+02481+02461101331ADDAA106002091AY161061AY221061GF107991051051008001021001KA1240M+02961MA1999999101281MD1999999+0171MW1021REMSYN100AAXX  05004 83398 21594 70000 10248 20246 30128 40133 70262 85520 333 10296 29094 55027 58017 60021;
0201833980999992009040512004-15667-038950FM-12+000599999V0209999C000010075019N0040001N1+02521+02451101301ADDAA124009991AY161061AY221061GF108991051051008001021999KA1240N+02361MA1999999101251MD1999999+0011MW1021REMSYN088AAXX  05124 83398 21596 80000 10252 20245 30125 40130 70262 8552/ 333 20236 58001 60104;
0137833980999992009040518004-15667-038950FM-12+000599999V0201401N002110075019N0040001N1+02701+02461101031ADDGF108991051051008001021999MA1999999100981MD1999999-0041REMSYN070AAXX  05184 83398 32596 81404 10270 20246 30098 40103 8552/ 333 59004;
0168833980999992009040600004-15667-038950FM-12+000599999V0209999C000010450019N0010001N1+02501+02471101321ADDGF106991041051008001021001KA1240M+02901MA1999999101271MD1999999-0011REMSYN088AAXX  06004 83398 32594 60000 10250 20247 30127 40132 84520 333 10290 29095 55042 59001;
0201833980999992009040612004-15667-038950FM-12+000599999V0209999C000010450019N0040001N1+02761+02441101411ADDAA124001091AY161061AY221061GF107991041051008001021001KA1240N+02291MA1999999101361MD1999999+0111MW1021REMSYN088AAXX  06124 83398 21596 70000 10276 20244 30136 40141 70262 84520 333 20229 58011 60014;
0137833980999992009040618004-15667-038950FM-12+000599999V0200501N002112200019N0040001N1+02921+02471101121ADDGF104991021011008001041001MA1999999101071MD1999999+0091REMSYN070AAXX  06184 83398 32596 40504 10292 20247 30107 40112 82140 333 58009;
0168833980999992009040700004-15667-038950FM-12+000599999V0209999C000010450019N0010001N1+02741+02381101311ADDGF105991031021008001041001KA1240M+03101MA1999999101261MD1999999-0011REMSYN088AAXX  07004 83398 32594 50000 10274 20238 30126 40131 83240 333 10310 29080 55065 59001;
0156833980999992009040712004-15667-038950FM-12+000599999V0200501N003110450019N0040001N1+02861+02461101471ADDGF107991041051008001021001KA1240N+02371MA1999999101421MD1999999+0061REMSYN076AAXX  07124 83398 32596 70506 10286 20246 30142 40147 84520 333 20237 58006;
0137833980999992009040718004-15667-038950FM-12+000599999V0200501N003112200019N0040001N1+02951+02411101101ADDGF103991021011008001041001MA1999999101051MD1999999-0021REMSYN070AAXX  07184 83398 32596 30506 10295 20241 30105 40110 82140 333 59002;
0168833980999992009040800004-15667-038950FM-12+000599999V0209999C000012200019N0010001N1+02721+02451101321ADDGF104991021021008001041001KA1240M+03131MA1999999101271MD1999999+0011REMSYN088AAXX  08004 83398 32594 40000 10272 20245 30127 40132 82240 333 10313 29080 55075 58001;
0156833980999992009040812004-15667-038950FM-12+000599999V0209999C000010450019N0040001N1+02941+02491101271ADDGF107991041051008001021001KA1240N+02351MA1999999101221MD1999999-0201REMSYN076AAXX  08124 83398 32596 70000 10294 20249 30122 40127 84520 333 20235 59020;
0137833980999992009040818004-15667-038950FM-12+000599999V0200501N003112200019N0040001N1+02981+02401100871ADDGF103991021011008001041001MA1999999100821MD1999999-0231REMSYN070AAXX  08184 83398 32596 30506 10298 20240 30082 40087 82140 333 59023;
0168833980999992009040900004-15667-038950FM-12+000599999V0209999C000012200019N0010001N1+02681+02541101071ADDGF103991021011008001041001KA1240M+03081MA1999999101021MD1999999-0251REMSYN088AAXX  09004 83398 32594 30000 10268 20254 30102 40107 82140 333 10308 29083 55084 59025;
0201833980999992009040912004-15667-038950FM-12+000599999V0200501N001010075019N0040001N1+02641+02501101321ADDAA124000891AY151061AY211061GF108991051051008001021999KA1240N+02471MA1999999101271MD1999999+0051MW1021REMSYN088AAXX  09124 83398 21596 80502 10264 20250 30127 40132 70251 8552/ 333 20247 58005 69974;
0137833980999992009040918004-15667-038950FM-12+000599999V0209999C000010075019N0040001N1+02641+02351101031ADDGF108991051051008001021999MA1999999100981MD1999999+0161REMSYN070AAXX  09184 83398 32596 80000 10264 20235 30098 40103 8552/ 333 58016;
0168833980999992009041000004-15667-038950FM-12+000599999V0209999C000010450019N0010001N1+02401+02371101291ADDGF106991031051008001021001KA1240M+02871MA1999999101241MD1999999+0221REMSYN088AAXX  10004 83398 32594 60000 10240 20237 30124 40129 83520 333 10287 29093 55008 58022;
0156833980999992009041012004-15667-038950FM-12+000599999V0209999C000010075019N0040001N1+02761+02441101311ADDGF108991051051008001021001KA1240N+02251MA1999999101261MD1999999-0011REMSYN076AAXX  10124 83398 32596 80000 10276 20244 30126 40131 85520 333 20225 59001;
0137833980999992009041018004-15667-038950FM-12+000599999V0200501N003110450019N0040001N1+02761+02421100951ADDGF107991041051008001021001MA1999999100901MD1999999-0081REMSYN070AAXX  10184 83398 32596 70506 10276 20242 30090 40095 84520 333 59008;
0168833980999992009041100004-15667-038950FM-12+000599999V0209999C000010450019N0010001N1+02621+02481101221ADDGF107991041051008001021001KA1240M+03011MA1999999101171MD1999999-0071REMSYN088AAXX  11004 83398 32594 70000 10262 20248 30117 40122 84520 333 10301 29087 55048 59007;
0201833980999992009041112004-15667-038950FM-12+000599999V0209999C000010075019N0040001N1+02651+02431101471ADDAA124002091AY161061AY221061GF108991051051008001021999KA1240N+02411MA1999999101421MD1999999+0161MW1021REMSYN088AAXX  11124 83398 21596 80000 10265 20243 30142 40147 70262 8552/ 333 20241 58016 60024;
0137833980999992009041118004-15667-038950FM-12+000599999V0200901N002110075019N0040001N1+02791+02331101201ADDGF108991051051008001021999MA1999999101151MD1999999+0251REMSYN070AAXX  11184 83398 32596 80904 10279 20233 30115 40120 8552/ 333 58025;
0168833980999992009041200004-15667-038950FM-12+000599999V0209999C000010075019N0010001N1+02521+02381101481ADDGF108991051051008001021999KA1240M+03061MA1999999101431MD1999999+0261REMSYN088AAXX  12004 83398 32594 80000 10252 20238 30143 40148 8552/ 333 10306 29087 55025 58026;
0156833980999992009041212004-15667-038950FM-12+000599999V0200901N001010075019N0040001N1+02781+02461101631ADDGF108991051051008001021999KA1240N+02291MA1999999101571MD1999999+0151REMSYN076AAXX  12124 83398 32596 80902 10278 20246 30157 40163 8552/ 333 20229 58015;
0137833980999992009041218004-15667-038950FM-12+000599999V0201401N003110450019N0040001N1+02881+02301101381ADDGF105991031021008001041001MA1999999101331MD1999999+0181REMSYN070AAXX  12184 83398 32596 51406 10288 20230 30133 40138 83240 333 58018;
0213833980999992009041300004-15667-038950FM-12+000599999V0200501N003110075019N0010001N1+02601+02211101611ADDAA106001091AY161061AY221061GF108991051051008001021999KA1240M+03051MA1999999101551MD1999999+0121MW1021REMSYN100AAXX  13004 83398 21594 80506 10260 20221 30155 40161 70262 8552/ 333 10305 29078 55057 58012 60011;
0201833980999992009041312004-15667-038950FM-12+000599999V0203601N003110450019N0040001N1+02701+02411101711ADDAA124019191AY161061AY221061GF106991041051008001021001KA1240N+02281MA1999999101651MD1999999+0081MW1021REMSYN088AAXX  13124 83398 21596 63606 10270 20241 30165 40171 70262 84520 333 20228 58008 60194;
0137833980999992009041318004-15667-038950FM-12+000599999V0200901N004110450019N0040001N1+02881+02371101461ADDGF106991041051008001021001MA1999999101411MD1999999+0081REMSYN070AAXX  13184 83398 32596 60908 10288 20237 30141 40146 84520 333 58008;
0168833980999992009041400004-15667-038950FM-12+000599999V0209999C000010450019N0010001N1+02441+02391101691ADDGF106991041051008001021001KA1240M+03061MA1999999101631MD1999999+0081REMSYN088AAXX  14004 83398 32594 60000 10244 20239 30163 40169 84520 333 10306 29088 55036 58008;
0182833980999992009041418004-15667-038950FM-12+000599999V0209999C000010450019N0040001N1+02841+02441101471ADDAA106002091AY191061AY261061GF106991041051008001021001MA1999999101421MD1999999+0011MW1021REMSYN082AAXX  14184 83398 21596 60000 10284 20244 30142 40147 70296 84520 333 58001 60021;
0168833980999992009041500004-15667-038950FM-12+000599999V0209999C000010450019N0010001N1+02421+02391101651ADDGF106991041051008001021001KA1240M+02961MA1999999101591MD1999999-0041REMSYN088AAXX  15004 83398 32594 60000 10242 20239 30159 40165 84520 333 10296 29093 55025 59004;
0201833980999992009041512004-15667-038950FM-12+000599999V0200501N002110450019N0040001N1+02741+02381101691ADDAA124005191AY161061AY221061GF105991031051008001021001KA1240N+02221MA1999999101631MD1999999-0141MW1021REMSYN088AAXX  15124 83398 21596 50504 10274 20238 30163 40169 70262 83520 333 20222 59014 60054;
0137833980999992009041518004-15667-038950FM-12+000599999V0200501N003112200019N0040001N1+02901+02321101351ADDGF104991031021008001041001MA1999999101301MD1999999-0121REMSYN070AAXX  15184 83398 32596 40506 10290 20232 30130 40135 83240 333 59012;
0168833980999992009041600004-15667-038950FM-12+000599999V0209999C000012200019N0010001N1+02501+02401101571ADDGF103991031051008001001001KA1240M+03021MA1999999101491MD1999999-0101REMSYN088AAXX  16004 83398 32594 30000 10250 20240 30149 40157 83500 333 10302 29085 55081 59010;
0201833980999992009041612004-15667-038950FM-12+000599999V0200901N002110075019N0040001N1+02501+02401101841ADDAA124005191AY161061AY221061GF108991051051008001021999KA1240N+02201MA1999999101781MD1999999+0151MW1021REMSYN088AAXX  16124 83398 21596 80904 10250 20240 30178 40184 70262 8552/ 333 20220 58015 60054;
0137833980999992009041618004-15667-038950FM-12+000599999V0201801N002110450019N0040001N1+02801+02401101521ADDGF106991041051008001021001MA1999999101471MD1999999+0171REMSYN070AAXX  16184 83398 32596 61804 10280 20240 30147 40152 84520 333 58017;
0168833980999992009041700004-15667-038950FM-12+000599999V0201801N002110075019N0010001N1+02461+02371101781ADDGF107991051051008001021001KA1240M+02981MA1999999101731MD1999999+0241REMSYN088AAXX  17004 83398 32594 71804 10246 20237 30173 40178 85520 333 10298 29091 55052 58024;
0156833980999992009041712004-15667-038950FM-12+000599999V0200901N002110450019N0040001N1+02661+02411101771ADDGF106991041051008001021001KA1240N+02201MA1999999101711MD1999999-0071REMSYN076AAXX  17124 83398 32596 60904 10266 20241 30171 40177 84520 333 20220 59007;
0137833980999992009041718004-15667-038950FM-12+000599999V0201401N003110450019N0040001N1+02701+02301101431ADDGF106991041051008001021001MA1999999101381MD1999999-0091REMSYN070AAXX  17184 83398 32596 61406 10270 20230 30138 40143 84520 333 59009;
0168833980999992009041800004-15667-038950FM-12+000599999V0201401N002110450019N0010001N1+02321+02161101691ADDGF106991041051008001021001KA1240M+02961MA1999999101631MD1999999-0101REMSYN088AAXX  18004 83398 32594 61404 10232 20216 30163 40169 84520 333 10296 29087 55047 59010;
0201833980999992009041812004-15667-038950FM-12+000599999V0200901N002110450019N0040001N1+02561+02361101711ADDAA124016091AY161061AY221061GF106991041051008001021001KA1240N+02141MA1999999101651MD1999999-0061MW1021REMSYN088AAXX  18124 83398 21596 60904 10256 20236 30165 40171 70262 84520 333 20214 59006 60164;
0182833980999992009041818004-15667-038950FM-12+000599999V0200901N002110075019N0040001N1+02461+02371101421ADDAA106001091AY161061AY221061GF107991051051008001021001MA1999999101371MD1999999-0011MW1011REMSYN082AAXX  18184 83398 21596 70904 10246 20237 30137 40142 70162 85520 333 59001 60011;
0168833980999992009041900004-15667-038950FM-12+000599999V0200901N002110450019N0010001N1+02241+02171101651ADDGF106991041051008001021001KA1240M+02961MA1999999101591MD1999999-0041REMSYN088AAXX  19004 83398 32594 60904 10224 20217 30159 40165 84520 333 10296 29094 55052 59004;
0173833980999992009041912004-15667-038950FM-12+000599999V0200901N003110450019N0040001N1+02641+02351101651ADDAA124001091GF106991041051008001021001KA1240N+02161MA1999999100591MD1999999-0061REMSYN082AAXX  19124 83398 22596 60906 10264 20235 30059 40165 84520 333 20216 59006 60014;
0182833980999992009041918004-15667-038950FM-12+000599999V0201401N004110075019N0040001N1+02661+02411101371ADDAA106002091AY161061AY221061GF107991051051008001021001MA1999999101321MD1999999-0051MW1021REMSYN082AAXX  19184 83398 21596 71408 10266 20241 30132 40137 70262 85520 333 59005 60021;
0168833980999992009042000004-15667-038950FM-12+000599999V0200901N002110450019N0010001N1+02361+02241101581ADDGF106991041051008001021001KA1240M+02861MA1999999101531MD1999999-0061REMSYN088AAXX  20004 83398 32594 60904 10236 20224 30153 40158 84520 333 10286 29090 55035 59006;
0201833980999992009042012004-15667-038950FM-12+000599999V0209999C000010075019N0040001N1+02341+02291101701ADDAA124021191AY161061AY221061GF108991051051008001021999KA1240N+02211MA1999999101641MD1999999+0051MW1521REMSYN088AAXX  20124 83398 21596 80000 10234 20229 30164 40170 75262 8552/ 333 20221 58005 60214;
0182833980999992009042018004-15667-038950FM-12+000599999V0200901N003110450019N0040001N1+02671+02321101411ADDAA106015091AY161061AY221061GF107991041051008001021001MA1999999101361MD1999999+0041MW1021REMSYN082AAXX  20184 83398 21596 70906 10267 20232 30136 40141 70262 84520 333 58004 60151;
0168833980999992009042100004-15667-038950FM-12+000599999V0209999C000010450019N0010001N1+02401+02311101681ADDGF107991041051008001021001KA1240M+02731MA1999999101621MD1999999+0091REMSYN088AAXX  21004 83398 32594 70000 10240 20231 30162 40168 84520 333 10273 29092 55009 58009;
0173833980999992009042112004-15667-038950FM-12+000599999V0200901N002110075019N0040001N1+02671+02381101781ADDAA124015091GF108991051051008001021999KA1240N+02241MA1999999101721MD1999999+0081REMSYN082AAXX  21124 83398 22596 80904 10267 20238 30172 40178 8552/ 333 20224 58008 60154;
0182833980999992009042118004-15667-038950FM-12+000599999V0200901N002110075019N0040001N1+02421+02281101511ADDAA106004191AY161061AY221061GF108991051051008001021999MA1999999101461MD1999999+0101MW1021REMSYN082AAXX  21184 83398 21596 80904 10242 20228 30146 40151 70262 8552/ 333 58010 60041;
0213833980999992009042200004-15667-038950FM-12+000599999V0200501N002110075019N0010001N1+02341+02271101731ADDAA106015091AY161061AY221061GF108991051051008001021999KA1240M+02941MA1999999101671MD1999999+0051MW1521REMSYN100AAXX  22004 83398 21594 80504 10234 20227 30167 40173 75262 8552/ 333 10294 29092 55035 58005 60151;
0201833980999992009042212004-15667-038950FM-12+000599999V0209999C000010075019N0040001N1+02301+02271101841ADDAA124052191AY161061AY221061GF108991051051008001021999KA1240N+02181MA1999999101781MD1999999+0061MW1621REMSYN088AAXX  22124 83398 21596 80000 10230 20227 30178 40184 76262 8552/ 333 20218 58006 60524;
0182833980999992009042218004-15667-038950FM-12+000599999V0209999C000010075019N0040001N1+02481+02341101371ADDAA106004191AY161061AY221061GF108991051051008001021999MA1999999101321MD1999999-0141MW1511REMSYN082AAXX  22184 83398 21596 80000 10248 20234 30132 40137 75162 8552/ 333 59014 60041;
0201833980999992009042312004-15667-038950FM-12+000599999V0209999C000010075019N0040001N1+02531+02341101481ADDAA124005191AY161061AY221061GF108991051051008001021999KA1240N+02251MA1999999101431MD1999999-0351MW1021REMSYN088AAXX  23124 83398 21596 80000 10253 20234 30143 40148 70262 8552/ 333 20225 59035 60054;
0137833980999992009042318004-15667-038950FM-12+000599999V0200501N002110075019N0040001N1+02561+02221101181ADDGF108991051051008001021999MA1999999101131MD1999999-0191REMSYN070AAXX  23184 83398 32596 80504 10256 20222 30113 40118 8552/ 333 59019;
0168833980999992009042400004-15667-038950FM-12+000599999V0209999C000010075019N0010001N1+02391+02291101331ADDGF108991051051008001021999KA1240M+02841MA1999999101281MD1999999-0151REMSYN088AAXX  24004 83398 32594 80000 10239 20229 30128 40133 8552/ 333 10284 29090 55020 59015;
0156833980999992009042412004-15667-038950FM-12+000599999V0209999C000012200019N0040001N1+02761+02361101511ADDGF104991021011008001041001KA1240N+02181MA1999999101461MD1999999+0031REMSYN076AAXX  24124 83398 32596 40000 10276 20236 30146 40151 82140 333 20218 58003;
0137833980999992009042418004-15667-038950FM-12+000599999V0209999C000010450019N0040001N1+02821+02311101051ADDGF107991041051008001021001MA1999999101001MD1999999-0131REMSYN070AAXX  24184 83398 32596 70000 10282 20231 30100 40105 84520 333 59013;
0168833980999992009042500004-15667-038950FM-12+000599999V0209999C000010450019N0010001N1+02401+02311101301ADDGF105991031011008001041001KA1240M+02951MA1999999101251MD1999999-0031REMSYN088AAXX  25004 83398 32594 50000 10240 20231 30125 40130 83140 333 10295 29086 55075 59003;
0156833980999992009042512004-15667-038950FM-12+000599999V0209999C000012200019N0040001N1+02741+02451101451ADDGF104991021011008001041001KA1240N+02111MA1999999101401MD1999999-0061REMSYN076AAXX  25124 83398 32596 40000 10274 20245 30140 40145 82140 333 20211 59006;
0137833980999992009042518004-15667-038950FM-12+000599999V0200901N002112200019N0040001N1+02901+02271101191ADDGF102991011011008001041001MA1999999101141MD1999999+0141REMSYN070AAXX  25184 83398 32596 20904 10290 20227 30114 40119 81140 333 58014;
0168833980999992009042600004-15667-038950FM-12+000599999V0209999C000012200019N0010001N1+02441+02351101451ADDGF103991021011008001041001KA1240M+03021MA1999999101401MD1999999+0151REMSYN088AAXX  26004 83398 32594 30000 10244 20235 30140 40145 82140 333 10302 29086 55084 58015;
0156833980999992009042612004-15667-038950FM-12+000599999V0209999C000012200019N0040001N1+02681+02391101511ADDGF104991021011008001041001KA1240N+02181MA1999999101461MD1999999+0061REMSYN076AAXX  26124 83398 32596 40000 10268 20239 30146 40151 82140 333 20218 58006;
0137833980999992009042618004-15667-038950FM-12+000599999V0200901N001012200019N0040001N1+02891+02241101141ADDGF104991021011008001041001MA1999999101091MD1999999-0051REMSYN070AAXX  26184 83398 32596 40902 10289 20224 30109 40114 82140 333 59005;
0168833980999992009042700004-15667-038950FM-12+000599999V0209999C000012200019N0010001N1+02481+02341101351ADDGF104991021021008001041001KA1240M+03021MA1999999101301MD1999999-0101REMSYN088AAXX  27004 83398 32594 40000 10248 20234 30130 40135 82240 333 10302 29084 55070 59010;
0156833980999992009042712004-15667-038950FM-12+000599999V0209999C000010450019N0040001N1+02841+02501101361ADDGF105991031051008001021001KA1240N+02201MA1999999101311MD1999999-0051REMSYN076AAXX  27124 83398 32596 50000 10284 20250 30131 40136 83520 333 20220 59005;
0137833980999992009042718004-15667-038950FM-12+000599999V0200901N003110450019N0040001N1+02901+02431101011ADDGF106991041051008001021001MA1999999100961MD1999999-0131REMSYN070AAXX  27184 83398 32596 60906 10290 20243 30096 40101 84520 333 59013;
0213833980999992009042800004-15667-038950FM-12+000599999V0209999C000010075019N0010001N1+02461+02411101361ADDAA106004191AY191061AY261061GF108991051071008001021999KA1240M+03101MA1999999101311MD1999999+0011MW1601REMSYN100AAXX  28004 83398 21594 80000 10246 20241 30131 40136 76096 8572/ 333 10310 29088 55059 58001 60041;
0201833980999992009042812004-15667-038950FM-12+000599999V0209999C000010075019N0040001N1+02341+02261101501ADDAA124064091AY191061AY261061GF108991051051008001021999KA1240N+02221MA1999999101451MD1999999+0141MW1021REMSYN088AAXX  28124 83398 21596 80000 10234 20226 30145 40150 70296 8552/ 333 20222 58014 60644;
0137833980999992009042818004-15667-038950FM-12+000599999V0200901N004110075019N0040001N1+02801+02401101181ADDGF108991051051008001021999MA1999999101131MD1999999+0171REMSYN070AAXX  28184 83398 32596 80908 10280 20240 30113 40118 8552/ 333 58017;
0168833980999992009042900004-15667-038950FM-12+000599999V0209999C000010450019N0010001N1+02421+02331101471ADDGF106991041051008001021001KA1240M+02881MA1999999101421MD1999999+0111REMSYN088AAXX  29004 83398 32594 60000 10242 20233 30142 40147 84520 333 10288 29090 55008 58011;
0201833980999992009042912004-15667-038950FM-12+000599999V0201401N003110075019N0040001N1+02501+02321101621ADDAA124002091AY161061AY221061GF108991051051008001021999KA1240N+02201MA1999999101561MD1999999+0111MW1021REMSYN088AAXX  29124 83398 21596 81406 10250 20232 30156 40162 70262 8552/ 333 20220 58011 60024;
0137833980999992009042918004-15667-038950FM-12+000599999V0200901N002110075019N0040001N1+02681+02331101401ADDGF108991051051008001021999MA1999999101351MD1999999+0221REMSYN070AAXX  29184 83398 32596 80904 10268 20233 30135 40140 8552/ 333 58022;
0168833980999992009043000004-15667-038950FM-12+000599999V0209999C000010075019N0010001N1+02301+02251101561ADDGF108991051051008001021999KA1240M+02841MA1999999101511MD1999999+0091REMSYN088AAXX  30004 83398 32594 80000 10230 20225 30151 40156 8552/ 333 10284 29091 55006 58009;
0156833980999992009043012004-15667-038950FM-12+000599999V0209999C000012200019N0040001N1+02641+02411101661ADDGF102991011011008001041001KA1240N+02141MA1999999101601MD1999999+0041REMSYN076AAXX  30124 83398 32596 20000 10264 20241 30160 40166 81140 333 20214 58004;
0137833980999992009043018004-15667-038950FM-12+000599999V0200901N002112200019N0040001N1+02781+01981101361ADDGF102991011011008001041001MA1999999101311MD1999999-0041REMSYN070AAXX  30184 83398 32596 20904 10278 20198 30131 40136 81140 333 59004;
0168833980999992009050100004-15667-038950FM-12+000599999V0209999C000010450019N0010001N1+02281+02161101591ADDGF105991031051008001021001KA1240M+02901MA1999999101541MD1999999+0031REMSYN088AAXX  01004 83398 32594 50000 10228 20216 30154 40159 83520 333 10290 29084 55082 58003;
0156833980999992009050112004-15667-038950FM-12+000599999V0200901N002110450019N0040001N1+02561+02461101671ADDGF106991041051008001021001KA1240N+01981MA1999999101611MD1999999+0011REMSYN076AAXX  01124 83398 32596 60904 10256 20246 30161 40167 84520 333 20198 58001;
0137833980999992009050118004-15667-038950FM-12+000599999V0200901N002110075019N0040001N1+02721+02101101411ADDGF108991051051008001021999MA1999999101361MD1999999+0051REMSYN070AAXX  01184 83398 32596 80904 10272 20210 30136 40141 8552/ 333 58005;
0168833980999992009050200004-15667-038950FM-12+000599999V0209999C000010450019N0010001N1+02281+02161101611ADDGF105991031011008001041001KA1240M+02861MA1999999101551MD1999999+0011REMSYN088AAXX  02004 83398 32594 50000 10228 20216 30155 40161 83140 333 10286 29087 55035 58001;
0156833980999992009050212004-15667-038950FM-12+000599999V0201801N003110075019N0040001N1+02301+02181101681ADDGF108991051051008001021999KA1240N+02061MA1999999101621MD1999999+0011REMSYN076AAXX  02124 83398 32596 81806 10230 20218 30162 40168 8552/ 333 20206 58001;
0137833980999992009050218004-15667-038950FM-12+000599999V0201401N003110075019N0040001N1+02561+02171101411ADDGF108991051051008001021999MA1999999101361MD1999999+0001REMSYN070AAXX  02184 83398 32596 81406 10256 20217 30136 40141 8552/ 333 58000;
0213833980999992009050300004-15667-038950FM-12+000599999V0201801N002110075019N0010001N1+02181+02151101691ADDAA106002091AY161061AY221061GF108991051071008001021999KA1240M+02581MA1999999101631MD1999999+0081MW1601REMSYN100AAXX  03004 83398 21594 81804 10218 20215 30163 40169 76062 8572/ 333 10258 29092 55002 58008 60021;
0201833980999992009050312004-15667-038950FM-12+000599999V0201401N002110075019N0040001N1+02501+02251101681ADDAA124008991AY161061AY221061GF107991051051008001021001KA1240N+02081MA1999999101621MD1999999+0001MW1021REMSYN088AAXX  03124 83398 21596 71404 10250 20225 30162 40168 70262 85520 333 20208 58000 60094;
0137833980999992009050318004-15667-038950FM-12+000599999V0201401N002110450019N0040001N1+02701+02201101381ADDGF106991041051008001041001MA1999999101331MD1999999-0031REMSYN070AAXX  03184 83398 32596 61404 10270 20220 30133 40138 84540 333 59003;
0168833980999992009050400004-15667-038950FM-12+000599999V0209999C000010075019N0010001N1+02281+02161101611ADDGF107991051051008001021001KA1240M+02781MA1999999101561MD1999999-0071REMSYN088AAXX  04004 83398 32594 70000 10228 20216 30156 40161 85520 333 10278 29087 55054 59007;
0156833980999992009050412004-15667-038950FM-12+000599999V0201401N003110450019N0040001N1+02531+02241101661ADDGF107991041051008001021001KA1240N+02131MA1999999101601MD1999999-0021REMSYN076AAXX  04124 83398 32596 71406 10253 20224 30160 40166 84520 333 20213 59002;
0213833980999992009050500004-15667-038950FM-12+000599999V0201401N002110075019N0010001N1+02261+02231101701ADDAA106036191AY161061AY221061GF108991051051008001021999KA1240M+02781MA1999999101641MD1999999+0081MW1021REMSYN100AAXX  05004 83398 21594 81404 10226 20223 30164 40170 70262 8552/ 333 10278 29093 55014 58008 60361;
0201833980999992009050512004-15667-038950FM-12+000599999V0201401N001010075019N0040001N1+02341+02241101831ADDAA124038191AY161061AY221061GF108991051051008001021999KA1240N+02181MA1999999101771MD1999999+0171MW1021REMSYN088AAXX  05124 83398 21596 81402 10234 20224 30177 40183 70262 8552/ 333 20218 58017 60384;
0168833980999992009050600004-15667-038950FM-12+000599999V0209999C000010075019N0010001N1+02351+02161101711ADDGF108991051051008001021999KA1240M+02721MA1999999101651MD1999999+0011REMSYN088AAXX  06004 83398 32594 80000 10235 20216 30165 40171 8552/ 333 10272 29091 55002 58001;
0156833980999992009050612004-15667-038950FM-12+000599999V0201401N001012200019N0040001N1+02571+02261101701ADDGF104991021011008001041001KA1240N+02061MA1999999101641MD1999999-0131REMSYN076AAXX  06124 83398 32596 41402 10257 20226 30164 40170 82140 333 20206 59013;
0168833980999992009050700004-15667-038950FM-12+000599999V0209999C000012200019N0010001N1+02321+02251101681ADDGF103991021011008001041001KA1240M+02881MA1999999101621MD1999999-0031REMSYN088AAXX  07004 83398 32594 30000 10232 20225 30162 40168 82140 333 10288 29092 55061 59003;
0156833980999992009050712004-15667-038950FM-12+000599999V0209999C000012200019N0040001N1+02621+02271101681ADDGF103991021011008001041001KA1240N+02091MA1999999101621MD1999999-0021REMSYN076AAXX  07124 83398 32596 30000 10262 20227 30162 40168 82140 333 20209 59002;
0168833980999992009050800004-15667-038950FM-12+000599999V0209999C000012200019N0010001N1+02401+02311101531ADDGF102991011011008001041001KA1240M+02951MA1999999101481MD1999999-0141REMSYN088AAXX  08004 83398 32594 20000 10240 20231 30148 40153 81140 333 10295 29090 55083 59014;
0207833980999992009050812004-15667-038950FM-12+000599999V0209999C000010075019N0040001N1+02421+02351101751ADDAA124005091AY161061AY221061GF108991051051008001021999KA1240N+02151MA1999999101691MD1999999+0071MW1021REMSYN094AAXX  08124 83398 21596 80000 10242 20235 30169 40175 70262 8552/ 333 20215 58007 60054 10050;
0213833980999992009050900004-15667-038950FM-12+000599999V0209999C000010075019N0010001N1+02401+02311101711ADDAA106000591AY151061AY211061GF108991051051008001021999KA1240M+02891MA1999999101651MD1999999+0171MW1511REMSYN100AAXX  09004 83398 21594 80000 10240 20231 30165 40171 75151 8552/ 333 10289 29/// 55038 58017 69951;
0201833980999992009050912004-15667-038950FM-12+000599999V0209999C000010075019N0040001N1+02441+02271101801ADDAA124027991AY161061AY221061GF108991051051008001021999KA1240N+02241MA1999999101741MD1999999+0051MW1021REMSYN088AAXX  09124 83398 21596 80000 10244 20227 30174 40180 70262 8552/ 333 20224 58005 60284;
0168833980999992009051000004-15667-038950FM-12+000599999V0209999C000010450019N0010001N1+02361+02241101691ADDGF106991031051008001021001KA1240M+02881MA1999999101631MD1999999-0021REMSYN088AAXX  10004 83398 32594 60000 10236 20224 30163 40169 83520 333 10288 29092 55019 59002;
0156833980999992009051012004-15667-038950FM-12+000599999V0209999C000012200019N0040001N1+02701+02301101671ADDGF104991021021008001041001KA1240N+02121MA1999999101611MD1999999-0131REMSYN076AAXX  10124 83398 32596 40000 10270 20230 30161 40167 82240 333 20212 59013;
0168833980999992009051100004-15667-038950FM-12+000599999V0209999C000012200019N0010001N1+02221+02101101581ADDGF103991021021008001041001KA1240M+02831MA1999999101531MD1999999-0101REMSYN088AAXX  11004 83398 32594 30000 10222 20210 30153 40158 82240 333 10283 29088 55044 59010;
0156833980999992009051112004-15667-038950FM-12+000599999V0200901N001012200019N0040001N1+02511+02141101491ADDGF102991011011008001041001KA1240N+01881MA1999999101441MD1999999-0171REMSYN076AAXX  11124 83398 32596 20902 10251 20214 30144 40149 81140 333 20188 59017;
0168833980999992009051200004-15667-038950FM-12+000599999V0209999C000012200019N0010001N1+02201+02101101511ADDGF103991021011008001041001KA1240M+02901MA1999999101461MD1999999-0071REMSYN088AAXX  12004 83398 32594 30000 10220 20210 30146 40151 82140 333 10290 29089 55078 59007;
0156833980999992009051212004-15667-038950FM-12+000599999V0201401N002110450019N0040001N1+02481+02211101501ADDGF105991021021008001041001KA1240N+01921MA1999999101451MD1999999+0011REMSYN076AAXX  12124 83398 32596 51404 10248 20221 30145 40150 82240 333 20192 58001;
0168833980999992009051300004-15667-038950FM-12+000599999V0209999C000012200019N0010001N1+02211+02141101461ADDGF102991011011008001041001KA1240M+02931MA1999999101411MD1999999+0051REMSYN088AAXX  13004 83398 32594 20000 10221 20214 30141 40146 81140 333 10293 29092 55056 58005;
0156833980999992009051312004-15667-038950FM-12+000599999V0201401N002112200019N0040001N1+02551+02391101521ADDGF103991021011008001041001KA1240N+01951MA1999999101471MD1999999+0021REMSYN076AAXX  13124 83398 32596 31404 10255 20239 30147 40152 82140 333 20195 58002;
0168833980999992009051400004-15667-038950FM-12+000599999V0209999C000012200019N0010001N1+02361+02321101471ADDGF102991011011008001041001KA1240M+02941MA1999999101421MD1999999+0011REMSYN088AAXX  14004 83398 32594 20000 10236 20232 30142 40147 81140 333 10294 29095 55093 58001;
0201833980999992009051412004-15667-038950FM-12+000599999V0209999C000010450019N0040001N1+02751+02441101491ADDAA124001091AY161061AY221061GF106991041021008001041001KA1240N+02181MA1999999101441MD1999999-0031MW1021REMSYN088AAXX  14124 83398 21596 60000 10275 20244 30144 40149 70262 84240 333 20218 59003 60014;
0213833980999992009051500004-15667-038950FM-12+000599999V0209999C000012200019N0010001N1+02281+02231101271ADDAA106003091AY161061AY221061GF102991011011008001041001KA1240M+02951MA1999999101221MD1999999-0201MW1021REMSYN100AAXX  15004 83398 21594 20000 10228 20223 30122 40127 70262 81140 333 10295 29/// 55045 59020 60031;
0173833980999992009051512004-15667-038950FM-12+000599999V0209999C000012200019N0010001N1+02741+02431101221ADDAA124003091GF102991011011008001041001KA1240N+02141MA1999999101171MD1999999-0271REMSYN082AAXX  15124 83398 22594 20000 10274 20243 30117 40122 81140 333 20214 59027 60034;
0168833980999992009051600004-15667-038950FM-12+000599999V0209999C000012200019N0010001N1+02581+02441101161ADDGF102991011011008001041001KA1240M+03021MA1999999101111MD1999999-0111REMSYN088AAXX  16004 83398 32594 20000 10258 20244 30111 40116 81140 333 10302 29/// 55083 59011;
0156833980999992009051612004-15667-038950FM-12+000599999V0200501N003112200019N0040001N1+02921+02781101211ADDGF104991021021008001041001KA1240N+02241MA1999999101161MD1999999-0011REMSYN076AAXX  16124 83398 32596 40506 10292 20278 30116 40121 82240 333 20224 59001;
0168833980999992009051700004-15667-038950FM-12+000599999V0209999C000010450019N0010001N1+02581+02441101351ADDGF106991041021008001041001KA1240M+03121MA1999999101301MD1999999+0191REMSYN088AAXX  17004 83398 32594 60000 10258 20244 30130 40135 84240 333 10312 29/// 55078 58019;
0156833980999992009051712004-15667-038950FM-12+000599999V0209999C000010075019N0040001N1+02471+02311101651ADDGF108991051051008001021999KA1240N+02271MA1999999101591MD1999999+0431REMSYN076AAXX  17124 83398 32596 80000 10247 20231 30159 40165 8552/ 333 20227 58043;
0213833980999992009051800004-15667-038950FM-12+000599999V0201801N006210075019N0010001N1+02361+02281101711ADDAA106005191AY161061AY221061GF108991051051008001021999KA1240M+02871MA1999999101651MD1999999+0351MW1521REMSYN100AAXX  18004 83398 21594 81812 10236 20228 30165 40171 75262 8552/ 333 10287 29094 55014 58035 60051;
0201833980999992009051812004-15667-038950FM-12+000599999V0201401N003110075019N0040001N1+02481+02271101931ADDAA124007991AY161061AY221061GF108991051051008001021999KA1240N+02161MA1999999101871MD1999999+0281MW1021REMSYN088AAXX  18124 83398 21596 81406 10248 20227 30187 40193 70262 8552/ 333 20216 58028 60084;
0168833980999992009051900004-15667-038950FM-12+000599999V0209999C000010075019N0010001N1+02201+01991101881ADDGF108991051051008001021999KA1240M+02801MA1999999101821MD1999999+0171REMSYN088AAXX  19004 83398 32594 80000 10220 20199 30182 40188 8552/ 333 10280 29088 55014 58017;
0156833980999992009051912004-15667-038950FM-12+000599999V0201801N003110075019N0040001N1+02261+02011101891ADDGF108991051051008001021999KA1240N+01981MA1999999101831MD1999999-0041REMSYN076AAXX  19124 83398 32596 81806 10226 20201 30183 40189 8552/ 333 20198 59004;
0168833980999992009052000004-15667-038950FM-12+000599999V0200901N001010450019N0010001N1+02101+01911101791ADDGF106991041051008001021001KA1240M+02771MA1999999101721MD1999999-0101REMSYN088AAXX  20004 83398 32594 60902 10210 20191 30172 40179 84520 333 10277 29088 55023 59010;
0201833980999992009052012004-15667-038950FM-12+000599999V0209999C000010075019N0040001N1+02141+02041102001ADDAA124000891AY151061AY211061GF108991051051008001021999KA1240N+01951MA1999999101941MD1999999+0111MW1511REMSYN088AAXX  20124 83398 21596 80000 10214 20204 30194 40200 75151 8552/ 333 20195 58011 69984;
0213833980999992009052100004-15667-038950FM-12+000599999V0209999C000010075019N0010001N1+02161+01951101821ADDAA106000891AY151061AY211061GF108991051051008001021999KA1240M+02561MA1999999101761MD1999999+0041MW1021REMSYN100AAXX  21004 83398 21594 80000 10216 20195 30176 40182 70251 8552/ 333 10256 29090 55002 58004 69971;
0173833980999992009052112004-15667-038950FM-12+000599999V0201401N002110450019N0040001N1+02401+01971101901ADDAA124000891GF105991031051008001041001KA1240N+01911MA1999999101841MD1999999-0101REMSYN082AAXX  21124 83398 22596 51404 10240 20197 30184 40190 83540 333 20191 59010 69974;
0168833980999992009052200004-15667-038950FM-12+000599999V0209999C000010075019N0010001N1+02241+02071101841ADDGF108991051051008001021999KA1240M+02731MA1999999101781MD1999999+0021REMSYN088AAXX  22004 83398 32594 80000 10224 20207 30178 40184 8552/ 333 10273 29086 55043 58002;
0156833980999992009052212004-15667-038950FM-12+000599999V0201401N003110450019N0040001N1+02481+02171101971ADDGF106991041051008001041001KA1240N+02051MA1999999101911MD1999999+0071REMSYN076AAXX  22124 83398 32596 61406 10248 20217 30191 40197 84540 333 20205 58007;
0213833980999992009052300004-15667-038950FM-12+000599999V0209999C000010075019N0010001N1+02241+02211102011ADDAA106001091AY151061AY211061GF108991051051008001021999KA1240M+02741MA1999999101951MD1999999+0171MW1021REMSYN100AAXX  23004 83398 21594 80000 10224 20221 30195 40201 70251 8552/ 333 10274 29/// 55042 58017 69991;
0201833980999992009052312004-15667-038950FM-12+000599999V0201401N003110075019N0040001N1+02341+02181102101ADDAA124016091AY161061AY221061GF108991051051008001021999KA1240N+02141MA1999999102041MD1999999+0131MW1021REMSYN088AAXX  23124 83398 21596 81406 10234 20218 30204 40210 70262 8552/ 333 20214 58013 60164;
0168833980999992009052400004-15667-038950FM-12+000599999V0209999C000012200019N0010001N1+02161+02081102031ADDGF103991021021008001041001KA1240M+02751MA1999999101971MD1999999+0021REMSYN088AAXX  24004 83398 32594 30000 10216 20208 30197 40203 82240 333 10275 29094 55024 58002;
0156833980999992009052412004-15667-038950FM-12+000599999V0201401N002110450019N0040001N1+02381+02011101961ADDGF105991031021008001041001KA1240N+01881MA1999999101901MD1999999-0141REMSYN076AAXX  24124 83398 32596 51404 10238 20201 30190 40196 83240 333 20188 59014;
0168833980999992009052500004-15667-038950FM-12+000599999V0209999C000010075019N0010001N1+02161+02081101781ADDGF108991051051008001021999KA1240M+02821MA1999999101721MD1999999-0251REMSYN088AAXX  25004 83398 32594 80000 10216 20208 30172 40178 8552/ 333 10282 29089 55067 59025;
0156833980999992009052512004-15667-038950FM-12+000599999V0201801N003110075019N0040001N1+02441+02111101761ADDGF108991051051008001021999KA1240N+02041MA1999999101701MD1999999-0201REMSYN076AAXX  25124 83398 32596 81806 10244 20211 30170 40176 8552/ 333 20204 59020;
0213833980999992009052600004-15667-038950FM-12+000599999V0209999C000010075019N0010001N1+02241+02141101661ADDAA106004191AY161061AY221061GF108991051051008001021999KA1240M+02761MA1999999101601MD1999999-0121MW1021REMSYN100AAXX  26004 83398 21594 80000 10224 20214 30160 40166 70262 8552/ 333 10276 29090 55036 59012 60041;
0201833980999992009052612004-15667-038950FM-12+000599999V0209999C000012200019N0040001N1+02501+02211101681ADDAA124007191AY161061AY221061GF102991011011008001041001KA1240N+01951MA1999999101621MD1999999-0081MW1021REMSYN088AAXX  26124 83398 21596 20000 10250 20221 30162 40168 70262 81140 333 20195 59008 60074;
0168833980999992009052700004-15667-038950FM-12+000599999V0209999C000012200019N0010001N1+02201+02131101621ADDGF103991021021008001041001KA1240M+02821MA1999999101561MD1999999-0041REMSYN088AAXX  27004 83398 32594 30000 10220 20213 30156 40162 82240 333 10282 29092 55079 59004;
0156833980999992009052712004-15667-038950FM-12+000599999V0209999C000010075019N0040001N1+02281+02231101681ADDGF108991051051008001021999KA1240N+02041MA1999999101621MD1999999+0001REMSYN076AAXX  27124 83398 32596 80000 10228 20223 30162 40168 8552/ 333 20204 58000;
0213833980999992009052800004-15667-038950FM-12+000599999V0201401N002110075019N0010001N1+02341+02311101631ADDAA106016091AY161061AY221061GF108991051051008001021999KA1240M+02781MA1999999101571MD1999999+0011MW1611REMSYN100AAXX  28004 83398 21594 81404 10234 20231 30157 40163 76162 8552/ 333 10278 29098 55019 58001 60161;
0201833980999992009052812004-15667-038950FM-12+000599999V0209999C000010075019N0040001N1+02481+02381101801ADDAA124025991AY161061AY221061GF108991051051008001021999KA1240N+02241MA1999999101741MD1999999+0121MW1021REMSYN088AAXX  28124 83398 21596 80000 10248 20238 30174 40180 70262 8552/ 333 20224 58012 60264;
0213833980999992009052900004-15667-038950FM-12+000599999V0209999C000010450019N0010001N1+02201+02201101651ADDAA106027991AY161061AY221061GF106991041051008001021001KA1240M+02531MA1999999101591MD1999999+0021MW1021REMSYN100AAXX  29004 83398 21594 60000 10220 20220 30159 40165 70262 84520 333 10253 29098 55000 58002 60281;
0173833980999992009052912004-15667-038950FM-12+000599999V0201401N001012200019N0040001N1+02561+02331101761ADDAA124027991GF104991021011008001041001KA1240N+02101MA1999999101701MD1999999-0041REMSYN082AAXX  29124 83398 22596 41402 10256 20233 30170 40176 82140 333 20210 59004 60284;
0168833980999992009053000004-15667-038950FM-12+000599999V0209999C000012200019N0010001N1+02301+02271101761ADDGF104991021011008001041001KA1240M+02941MA1999999101701MD1999999+0111REMSYN088AAXX  30004 83398 32594 40000 10230 20227 30170 40176 82140 333 10294 29094 55079 58011;
0156833980999992009053012004-15667-038950FM-12+000599999V0201401N001010450019N0040001N1+02541+02331101811ADDGF106991041051008001041001KA1240N+02131MA1999999101751MD1999999+0051REMSYN076AAXX  30124 83398 32596 61402 10254 20233 30175 40181 84540 333 20213 58005;
0168833980999992009053100004-15667-038950FM-12+000599999V0200901N003110075019N0010001N1+02321+02251101751ADDGF108991051051008001021999KA1240M+02881MA1999999101691MD1999999-0011REMSYN088AAXX  31004 83398 32594 80906 10232 20225 30169 40175 8552/ 333 10288 29/// 55079 59001;
0201833980999992009053112004-15667-038950FM-12+000599999V0201401N002112200019N0040001N1+02501+02251101731ADDAA124009991AY161061AY221061GF104991021011008001041001KA1240N+02091MA1999999101671MD1999999-0081MW1021REMSYN088AAXX  31124 83398 21596 41404 10250 20225 30167 40173 70262 82140 333 20209 59008 60104;
0168833980999992009060100004-15667-038950FM-12+000599999V0209999C000010075019N0010001N1+02361+02281101491ADDGF108991051051008001021999KA1240M+02781MA1999999101441MD1999999-0251REMSYN088AAXX  01004 83398 32594 80000 10236 20228 30144 40149 8552/ 333 10278 29092 55041 59025;
0156833980999992009060112004-15667-038950FM-12+000599999V0209999C000010450019N0040001N1+02501+02361101551ADDGF106991041051008001021001KA1240N+02101MA1999999101501MD1999999-0171REMSYN076AAXX  01124 83398 32596 60000 10250 20236 30150 40155 84520 333 20210 59017;
0137833980999992009060118004-15667-038950FM-12+000599999V0200501N003112200019N0040001N1+02761+02191101071ADDGF102991011011008001041001MA1999999101021MD1999999+0001REMSYN070AAXX  01184 83398 32596 20506 10276 20219 30102 40107 81140 333 58000;
0168833980999992009060200004-15667-038950FM-12+000599999V0209999C000012200019N0010001N1+02481+02321101301ADDGF102991011011008001041001KA1240M+02911MA1999999101251MD1999999-0191REMSYN088AAXX  02004 83398 32594 20000 10248 20232 30125 40130 81140 333 10291 29086 55067 59019;
0156833980999992009060212004-15667-038950FM-12+000599999V0203201N001010450019N0040001N1+02681+02331101421ADDGF106991041051008001021001KA1240N+02201MA1999999101371MD1999999-0131REMSYN076AAXX  02124 83398 32596 63202 10268 20233 30137 40142 84520 333 20220 59013;
0137833980999992009060218004-15667-038950FM-12+000599999V0203601N004110450019N0040001N1+02751+02331101081ADDGF107991041051008001021001MA1999999101031MD1999999+0011REMSYN070AAXX  02184 83398 32596 73608 10275 20233 30103 40108 84520 333 58001;
0168833980999992009060300004-15667-038950FM-12+000599999V0209999C000010075019N0010001N1+02421+02351101381ADDGF108991051051008001021999KA1240M+02991MA1999999101331MD1999999+0081REMSYN088AAXX  03004 83398 32594 80000 10242 20235 30133 40138 8552/ 333 10299 29088 55044 58008;
0156833980999992009060312004-15667-038950FM-12+000599999V0209999C000010075019N0040001N1+02521+02341101671ADDGF108991051051008001021999KA1240N+02281MA1999999101611MD1999999+0241REMSYN076AAXX  03124 83398 32596 80000 10252 20234 30161 40167 8552/ 333 20228 58024;
0182833980999992009060318004-15667-038950FM-12+000599999V0209999C000010075019N0040001N1+02441+02351101501ADDAA106001091AY161061AY221061GF108991051051008001021999MA1999999101451MD1999999+0421MW1021REMSYN082AAXX  03184 83398 21596 80000 10244 20235 30145 40150 70262 8552/ 333 58042 60011;
0168833980999992009060400004-15667-038950FM-12+000599999V0200501N002110075019N0010001N1+02291+02191101811ADDGF108991051051008001021999KA1240M+02581MA1999999101751MD1999999+0421REMSYN088AAXX  04004 83398 32594 80504 10229 20219 30175 40181 8552/ 333 10258 29093 55004 58042;
0201833980999992009060412004-15667-038950FM-12+000599999V0201801N001010075019N0040001N1+02291+02221102051ADDAA124027991AY161061AY221061GF108991051051008001021999KA1240N+02121MA1999999101991MD1999999+0381MW1021REMSYN088AAXX  04124 83398 21596 81802 10229 20222 30199 40205 70262 8552/ 333 20212 58038 60284;
0182833980999992009060418004-15667-038950FM-12+000599999V0201401N002110075019N0040001N1+02401+02311101771ADDAA106021191AY161061AY221061GF108991051051008001021999MA1999999101711MD1999999+0261MW1021REMSYN082AAXX  04184 83398 21596 81404 10240 20231 30171 40177 70262 8552/ 333 58026 60211;
0213833980999992009060500004-15667-038950FM-12+000599999V0209999C000010075019N0010001N1+02181+02151101941ADDAA106030091AY161061AY221061GF108991051051008001021999KA1240M+02451MA1999999101881MD1999999+0131MW1021REMSYN100AAXX  05004 83398 21594 80000 10218 20215 30188 40194 70262 8552/ 333 10245 29097 55000 58013 60301;
0201833980999992009060512004-15667-038950FM-12+000599999V0209999C000010075019N0040001N1+02251+02231102021ADDAA124099191AY161061AY221061GF108991051051008001021999KA1240N+02091MA1999999101961MD1999999-0031MW1521REMSYN088AAXX  05124 83398 21596 80000 10225 20223 30196 40202 75262 8552/ 333 20209 59003 60994;
0182833980999992009060518004-15667-038950FM-12+000599999V0200901N001010450019N0040001N1+02621+02291101701ADDAA106002091AY161061AY221061GF106991041021008001041001MA1999999101641MD1999999-0071MW1021REMSYN082AAXX  05184 83398 21596 60902 10262 20229 30164 40170 70262 84240 333 59007 60021;
0168833980999992009060600004-15667-038950FM-12+000599999V0209999C000010450019N0010001N1+02341+02261101911ADDGF106991031021008001041001KA1240M+02681MA1999999101851MD1999999-0031REMSYN088AAXX  06004 83398 32594 60000 10234 20226 30185 40191 83240 333 10268 29093 55009 59003;
0137833980999992009060618004-15667-038950FM-12+000599999V0200901N001010450019N0040001N1+02721+02301101621ADDGF106991041051008001041001MA1999999101561MD1999999-0081REMSYN070AAXX  06184 83398 32596 60902 10272 20230 30156 40162 84540 333 59008;
0168833980999992009060700004-15667-038950FM-12+000599999V0209999C000012200019N0010001N1+02261+02211101771ADDGF102991011011008001041001KA1240M+02821MA1999999101711MD1999999-0141REMSYN088AAXX  07004 83398 32594 20000 10226 20221 30171 40177 81140 333 10282 29089 55052 59014;
0201833980999992009060712004-15667-038950FM-12+000599999V0201401N002110075019N0040001N1+02421+02331101931ADDAA124006191AY161061AY221061GF107991051051008001021001KA1240N+02081MA1999999100871MD1999999+0011MW1021REMSYN088AAXX  07124 83398 21596 71404 10242 20233 30087 40193 70262 85520 333 20208 58001 60064;
0137833980999992009060718004-15667-038950FM-12+000599999V0200901N002110075019N0040001N1+02381+02211101711ADDGF107991051051008001021001MA1999999101651MD1999999+0091REMSYN070AAXX  07184 83398 32596 70904 10238 20221 30165 40171 85520 333 58009;
0213833980999992009060800004-15667-038950FM-12+000599999V0201401N002110075019N0010001N1+02321+02161101941ADDAA106003091AY161061AY221061GF107991051051008001021999KA1240M+02821MA1999999101881MD1999999+0071MW1021REMSYN100AAXX  08004 83398 21594 71404 10232 20216 30188 40194 70262 8552/ 333 10282 29092 55067 58007 60031;
0201833980999992009060812004-15667-038950FM-12+000599999V0200501N004110075019N0040001N1+02251+01971102091ADDAA124043991AY161061AY221061GF108991051051008001021999KA1240N+02081MA1999999102031MD1999999+0161MW1021REMSYN088AAXX  08124 83398 21596 80508 10225 20197 30203 40209 70262 8552/ 333 20208 58016 60444;
0137833980999992009060818004-15667-038950FM-12+000599999V0201801N006210450019N0040001N1+02511+01811101851ADDGF106991041021008001041001MA1999999101791MD1999999+0141REMSYN070AAXX  08184 83398 32596 61812 10251 20181 30179 40185 84240 333 58014;
0213833980999992009060900004-15667-038950FM-12+000599999V0209999C000010450019N0010001N1+02101+01951102031ADDAA106000591AY151061AY211061GF105991021021008001041001KA1240M+02581MA1999999101971MD1999999+0091MW1021REMSYN100AAXX  09004 83398 21594 50000 10210 20195 30197 40203 70251 82240 333 10258 29083 55020 58009 69941;
0201833980999992009060912004-15667-038950FM-12+000599999V0201401N003112200019N0040001N1+02301+02031102081ADDAA124001091AY161061AY221061GF103991021041008001011001KA1240N+01901MA1999999102021MD1999999-0011MW1021REMSYN088AAXX  09124 83398 21596 31406 10230 20203 30202 40208 70262 82410 333 20190 59001 60014;
0137833980999992009060918004-15667-038950FM-12+000599999V0201401N002110450019N0040001N1+02551+01921101851ADDGF106991031021008001041001MA1999999101791MD1999999+0001REMSYN070AAXX  09184 83398 32596 61404 10255 20192 30179 40185 83240 333 58000;
0168833980999992009061000004-15667-038950FM-12+000599999V0209999C000012200019N0010001N1+02101+01981102011ADDGF103991021021008001041001KA1240M+02671MA1999999101951MD1999999+0021REMSYN088AAXX  10004 83398 32594 30000 10210 20198 30195 40201 82240 333 10267 29055 55055 58002;
0201833980999992009061012004-15667-038950FM-12+000599999V0209999C000010450019N0040001N1+02401+02241102091ADDAA124005191AY161061AY221061GF106991041051008001021001KA1240N+01981MA1999999102031MD1999999+0011MW1021REMSYN088AAXX  10124 83398 21596 60000 10240 20224 30203 40209 70262 84520 333 20198 58001 60054;
0137833980999992009061018004-15667-038950FM-12+000599999V0200901N002112200019N0040001N1+02661+02181101771ADDGF103991021011008001041001MA1999999101711MD1999999-0081REMSYN070AAXX  10184 83398 32596 30904 10266 20218 30171 40177 82140 333 59008;
0168833980999992009061100004-15667-038950FM-12+000599999V0209999C000010450019N0010001N1+02241+02171101971ADDGF106991041051008001021001KA1240M+02821MA1999999101911MD1999999-0041REMSYN088AAXX  11004 83398 32594 60000 10224 20217 30191 40197 84520 333 10282 29090 55063 59004;
0201833980999992009061112004-15667-038950FM-12+000599999V0201801N002110450019N0040001N1+02421+02301102091ADDAA124010991AY161061AY221061GF106991041051008001021001KA1240N+02061MA1999999102031MD1999999+0001MW1021REMSYN088AAXX  11124 83398 21596 61804 10242 20230 30203 40209 70262 84520 333 20206 58000 60114;
0137833980999992009061118004-15667-038950FM-12+000599999V0200901N001010450019N0040001N1+02661+02201101801ADDGF105991031051008001021001MA1999999101741MD1999999+0031REMSYN070AAXX  11184 83398 32596 50902 10266 20220 30174 40180 83520 333 58003;
0168833980999992009061200004-15667-038950FM-12+000599999V0209999C000010450019N0010001N1+02221+02191101901ADDGF106991041051008001021001KA1240M+02781MA1999999101841MD1999999-0071REMSYN088AAXX  12004 83398 32594 60000 10222 20219 30184 40190 84520 333 10278 29092 55048 59007;
0156833980999992009061212004-15667-038950FM-12+000599999V0201401N002110450019N0040001N1+02481+02321101901ADDGF106991041051008001021001KA1240N+01961MA1999999101841MD1999999-0191REMSYN076AAXX  12124 83398 32596 61404 10248 20232 30184 40190 84520 333 20196 59019;
0137833980999992009061218004-15667-038950FM-12+000599999V0200501N002110450019N0040001N1+02641+02181101691ADDGF106991031051008001041001MA1999999101631MD1999999-0111REMSYN070AAXX  12184 83398 32596 60504 10264 20218 30163 40169 83540 333 59011;
0168833980999992009061300004-15667-038950FM-12+000599999V0209999C000010450019N0010001N1+02221+02081101781ADDGF105991031051008001021001KA1240M+02801MA1999999101721MD1999999-0121REMSYN088AAXX  13004 83398 32594 50000 10222 20208 30172 40178 83520 333 10280 29088 55077 59012;
0156833980999992009061312004-15667-038950FM-12+000599999V0209999C000010450019N0040001N1+02401+02241101761ADDGF106991041051008001021001KA1240N+01861MA1999999101701MD1999999-0141REMSYN076AAXX  13124 83398 32596 60000 10240 20224 30170 40176 84520 333 20186 59014;
0137833980999992009061318004-15667-038950FM-12+000599999V0200901N002110450019N0040001N1+02621+02251101521ADDGF106991041051008001021001MA1999999101471MD1999999-0161REMSYN070AAXX  13184 83398 32596 60904 10262 20225 30147 40152 84520 333 59016;
0168833980999992009061400004-15667-038950FM-12+000599999V0209999C000010450019N0010001N1+02261+02181101841ADDGF106991041051008001021001KA1240M+02791MA1999999101781MD1999999-0041REMSYN088AAXX  14004 83398 32594 60000 10226 20218 30178 40184 84520 333 10279 29090 55050 59004;
0201833980999992009061412004-15667-038950FM-12+000599999V0201401N003110075019N0040001N1+02291+02041101881ADDAA124002091AY161061AY221061GF108991051051008001021999KA1240N+01971MA1999999101821MD1999999+0121MW1021REMSYN088AAXX  14124 83398 21596 81406 10229 20204 30182 40188 70262 8552/ 333 20197 58012 60024;
0137833980999992009061418004-15667-038950FM-12+000599999V0201801N003110450019N0040001N1+02461+02031101711ADDGF106991041051008001021001MA1999999101651MD1999999+0181REMSYN070AAXX  14184 83398 32596 61806 10246 20203 30165 40171 84520 333 58018;
0213833980999992009061500004-15667-038950FM-12+000599999V0201401N002110075019N0010001N1+02101+02051101941ADDAA106001091AY161061AY221061GF108991051051008001021999KA1240M+02571MA1999999101881MD1999999+0101MW1511REMSYN100AAXX  15004 83398 21594 81404 10210 20205 30188 40194 75162 8552/ 333 10257 29089 55020 58010 60011;
0201833980999992009061512004-15667-038950FM-12+000599999V0200901N001010075019N0040001N1+02181+02031102071ADDAA124003091AY161061AY221061GF108991051051008001021999KA1240N+01961MA1999999102011MD1999999+0191MW1021REMSYN088AAXX  15124 83398 21596 80902 10218 20203 30201 40207 70262 8552/ 333 20196 58019 60034;
0137833980999992009061518004-15667-038950FM-12+000599999V0200901N003110075019N0040001N1+02501+02001101771ADDGF108991051051008001021999MA1999999101711MD1999999+0061REMSYN070AAXX  15184 83398 32596 80906 10250 20200 30171 40177 8552/ 333 58006;
0168833980999992009061600004-15667-038950FM-12+000599999V0209999C000010075019N0010001N1+02121+01981102011ADDGF108991051051008001021999KA1240M+02601MA1999999101951MD1999999+0071REMSYN088AAXX  16004 83398 32594 80000 10212 20198 30195 40201 8552/ 333 10260 29087 55002 58007;
0156833980999992009061612004-15667-038950FM-12+000599999V0200901N001010450019N0040001N1+02301+02091101971ADDGF106991041051008001021001KA1240N+01781MA1999999101911MD1999999-0101REMSYN076AAXX  16124 83398 32596 60902 10230 20209 30191 40197 84520 333 20178 59010;
0137833980999992009061618004-15667-038950FM-12+000599999V0200901N003110450019N0040001N1+02641+01901101691ADDGF105991031021008001041001MA1999999101631MD1999999-0081REMSYN070AAXX  16184 83398 32596 50906 10264 20190 30163 40169 83240 333 59008;
0168833980999992009061700004-15667-038950FM-12+000599999V0209999C000010450019N0010001N1+02061+01981101831ADDGF105991031051008001021001KA1240M+02761MA1999999101771MD1999999-0181REMSYN088AAXX  17004 83398 32594 50000 10206 20198 30177 40183 83520 333 10276 29086 55076 59018;
0156833980999992009061712004-15667-038950FM-12+000599999V0209999C000010450019N0040001N1+02361+02111101801ADDGF105991021051008001041001KA1240N+01701MA1999999101741MD1999999-0171REMSYN076AAXX  17124 83398 32596 50000 10236 20211 30174 40180 82540 333 20170 59017;
0137833980999992009061718004-15667-038950FM-12+000599999V0200501N003110450019N0040001N1+02601+02101101471ADDGF106991041051008001021001MA1999999101421MD1999999-0211REMSYN070AAXX  17184 83398 32596 60506 10260 20210 30142 40147 84520 333 59021;
0168833980999992009061800004-15667-038950FM-12+000599999V0200501N001010450019N0010001N1+02461+02171101711ADDGF105991031051008001021001KA1240M+02761MA1999999101651MD1999999-0121REMSYN088AAXX  18004 83398 32594 50502 10246 20217 30165 40171 83520 333 10276 29082 55070 59012;
0156833980999992009061812004-15667-038950FM-12+000599999V0209999C000010450019N0040001N1+02501+02321101771ADDGF105991031021008001041001KA1240N+01861MA1999999101711MD1999999-0031REMSYN076AAXX  18124 83398 32596 50000 10250 20232 30171 40177 83240 333 20186 59003;
0137833980999992009061818004-15667-038950FM-12+000599999V0200501N002110450019N0040001N1+02661+02111101501ADDGF105991031051008001041001MA1999999101451MD1999999+0031REMSYN070AAXX  18184 83398 32596 50504 10266 20211 30145 40150 83540 333 58003;
0168833980999992009061900004-15667-038950FM-12+000599999V0209999C000012200019N0010001N1+02441+02131101781ADDGF104991041011008001001001KA1240M+02801MA1999999101721MD1999999+0071REMSYN088AAXX  19004 83398 32594 40000 10244 20213 30172 40178 84100 333 10280 29082 55080 58007;
0156833980999992009061912004-15667-038950FM-12+000599999V0209999C000010450019N0040001N1+02441+02231101961ADDGF105991031051008001041001KA1240N+02301MA1999999101901MD1999999+0191REMSYN076AAXX  19124 83398 32596 50000 10244 20223 30190 40196 83540 333 20230 58019;
0137833980999992009061918004-15667-038950FM-12+000599999V0200901N003110450019N0040001N1+02701+02031101771ADDGF105991021051008001041001MA1999999101711MD1999999+0261REMSYN070AAXX  19184 83398 32596 50906 10270 20203 30171 40177 82540 333 58026;
0168833980999992009062000004-15667-038950FM-12+000599999V0209999C000012200019N0010001N1+02241+02121101931ADDGF103991031011008001001001KA1240M+02821MA1999999101871MD1999999+0051REMSYN088AAXX  20004 83398 32594 30000 10224 20212 30187 40193 83100 333 10282 29085 55081 58005;
0156833980999992009062012004-15667-038950FM-12+000599999V0200901N002110450019N0040001N1+02301+02141102021ADDGF106991041051008001021001KA1240N+01941MA1999999101961MD1999999+0061REMSYN076AAXX  20124 83398 32596 60904 10230 20214 30196 40202 84520 333 20194 58006;
0137833980999992009062018004-15667-038950FM-12+000599999V0200901N003110450019N0040001N1+02641+02141101771ADDGF106991041051008001021001MA1999999101711MD1999999+0001REMSYN070AAXX  20184 83398 32596 60906 10264 20214 30171 40177 84520 333 58000;
0168833980999992009062100004-15667-038950FM-12+000599999V0200901N002110450019N0010001N1+02141+02041102021ADDGF105991031051008001021001KA1240M+02801MA1999999101961MD1999999+0091REMSYN088AAXX  21004 83398 32594 50904 10214 20204 30196 40202 83520 333 10280 29088 55040 58009;
0156833980999992009062112004-15667-038950FM-12+000599999V0209999C000010450019N0040001N1+02341+02071102001ADDGF105991031021008001041001KA1240N+01881MA1999999101941MD1999999-0021REMSYN076AAXX  21124 83398 32596 50000 10234 20207 30194 40200 83240 333 20188 59002;
0137833980999992009062118004-15667-038950FM-12+000599999V0200901N003110075019N0040001N1+02601+02101101701ADDGF105991051021008001001001MA1999999101641MD1999999-0071REMSYN070AAXX  21184 83398 32596 50906 10260 20210 30164 40170 85200 333 59007;
0168833980999992009062200004-15667-038950FM-12+000599999V0209999C000012200019N0010001N1+02061+01981101891ADDGF103991031011008001001001KA1240M+02781MA1999999101831MD1999999-0131REMSYN088AAXX  22004 83398 32594 30000 10206 20198 30183 40189 83100 333 10278 29087 55086 59013;
0156833980999992009062212004-15667-038950FM-12+000599999V0200901N001012200019N0040001N1+02281+02051101931ADDGF103991011021008001041001KA1240N+01741MA1999999101871MD1999999-0071REMSYN076AAXX  22124 83398 32596 30902 10228 20205 30187 40193 81240 333 20174 59007;
0137833980999992009062218004-15667-038950FM-12+000599999V0200501N003110450019N0040001N1+02641+01901101641ADDGF105991031021008001041001MA1999999101581MD1999999-0061REMSYN070AAXX  22184 83398 32596 50506 10264 20190 30158 40164 83240 333 59006;
0168833980999992009062300004-15667-038950FM-12+000599999V0209999C000010450019N0010001N1+02221+02071101831ADDGF106991041051008001021001KA1240M+02761MA1999999101771MD1999999-0061REMSYN088AAXX  23004 83398 32594 60000 10222 20207 30177 40183 84520 333 10276 29087 55078 59006;
0201833980999992009062312004-15667-038950FM-12+000599999V0200901N001010450019N0040001N1+02321+02161101881ADDAA124001091AY161061AY221061GF106991041051008001021001KA1240N+01961MA1999999101821MD1999999-0051MW1021REMSYN088AAXX  23124 83398 21596 60902 10232 20216 30182 40188 70262 84520 333 20196 59005 60014;
0182833980999992009062318004-15667-038950FM-12+000599999V0200901N003110450019N0040001N1+02661+01441101641ADDAA106001091AY161061AY221061GF106991041051008001021001MA1999999101581MD1999999+0001MW1021REMSYN082AAXX  23184 83398 21596 60906 10266 20144 30158 40164 70262 84520 333 58000 60011;
0213833980999992009062400004-15667-038950FM-12+000599999V0209999C000010075019N0010001N1+02281+02201101881ADDAA106001091AY161061AY221061GF107991051051008001021001KA1240M+02801MA1999999101821MD1999999+0051MW1021REMSYN100AAXX  24004 83398 21594 70000 10228 20220 30182 40188 70262 85520 333 10280 29092 55052 58005 60011;
0220833980999992009062412004-15667-038950FM-12+000599999V0209999C000010075019N0040001N1+02361+02241101981ADDAA124018091AY161061AY221061GF107991051051008001021001KA1240N+02081MA1999999999999MD1999999+0101MW1021REMSYN088AAXX  24124 83398 21596 70000 10236 20224 39102 40198 70262 85520 333 20208 58010 60184;EQDQ01 091023APOSP 
0156833980999992009062418004-15667-038950FM-12+000599999V0209999C000010450019N0040001N1+02661+02331101671ADDGF105991031051008001041001MA1999999101612MD1999999+0031REMSYN070AAXX  24184 83398 32596 50000 10266 20233 30161 40167 83540 333 58003;EQDQ01+101613APOSP 
0168833980999992009062500004-15667-038950FM-12+000599999V0209999C000010075019N0010001N1+02281+02231101871ADDGF105991051051008001001001KA1240M+02781MA1999999101811MD1999999-0011REMSYN088AAXX  25004 83398 32594 50000 10228 20223 30181 40187 85500 333 10278 29092 55052 59001;
0201833980999992009062512004-15667-038950FM-12+000599999V0201401N001010075019N0040001N1+02361+02281101951ADDAA124001091AY161061AY221061GF108991051051008001021999KA1240N+01941MA1999999101891MD1999999-0031MW1021REMSYN088AAXX  25124 83398 21596 81402 10236 20228 30189 40195 70262 8552/ 333 20194 59003 60014;
0137833980999992009062518004-15667-038950FM-12+000599999V0200501N002110075019N0040001N1+02601+02141101751ADDGF106991051051008001021001MA1999999101691MD1999999+0081REMSYN070AAXX  25184 83398 32596 60504 10260 20214 30169 40175 85520 333 58008;
0168833980999992009062600004-15667-038950FM-12+000599999V0209999C000010450019N0010001N1+02361+02281101901ADDGF105991031051008001021001KA1240M+02841MA1999999101841MD1999999+0031REMSYN088AAXX  26004 83398 32594 50000 10236 20228 30184 40190 83520 333 10284 29090 55042 58003;
0156833980999992009062612004-15667-038950FM-12+000599999V0200901N002112200019N0040001N1+02541+02351101971ADDGF103991031021008001001001KA1240N+02001MA1999999101911MD1999999+0021REMSYN076AAXX  26124 83398 32596 30904 10254 20235 30191 40197 83200 333 20200 58002;
0137833980999992009062618004-15667-038950FM-12+000599999V0200501N002112200019N0040001N1+02721+02301101761ADDGF103991031021008001001001MA1999999101701MD1999999+0011REMSYN070AAXX  26184 83398 32596 30504 10272 20230 30170 40176 83200 333 58001;
0168833980999992009062700004-15667-038950FM-12+000599999V0209999C000012200019N0010001N1+02281+02161102021ADDGF102991021011008001001001KA1240M+02821MA1999999101961MD1999999+0121REMSYN088AAXX  27004 83398 32594 20000 10228 20216 30196 40202 82100 333 10282 29088 55073 58012;
0156833980999992009062712004-15667-038950FM-12+000599999V0201401N002112200019N0040001N1+02501+02231102161ADDGF103991021011008001041001KA1240N+01961MA1999999102101MD1999999+0191REMSYN076AAXX  27124 83398 32596 31404 10250 20223 30210 40216 82140 333 20196 58019;
0213833980999992009062800004-15667-038950FM-12+000599999V0209999C000010075019N0010001N1+02261+02211102111ADDAA106001091AY161061AY221061GF105991051051008001001001KA1240M+02861MA1999999102051MD1999999+0091MW1021REMSYN100AAXX  28004 83398 21594 50000 10226 20221 30205 40211 70262 85500 333 10286 29089 55074 58009 60011;
0173833980999992009062812004-15667-038950FM-12+000599999V0201401N001012200019N0040001N1+02401+02151102041ADDAA124001091GF103991021011008001041001KA1240N+02061MA1999999101981MD1999999-0121REMSYN082AAXX  28124 83398 22596 31402 10240 20215 30198 40204 82140 333 20206 59012 60014;
0182833980999992009062818004-15667-038950FM-12+000599999V0200901N001012200019N0040001N1+02641+02141101721ADDAA106002091AY161061AY221061GF104991031051008001041001MA1999999101661MD1999999-0241MW1021REMSYN082AAXX  28184 83398 21596 40902 10264 20214 30166 40172 70262 83540 333 59024 60021;
0168833980999992009062900004-15667-038950FM-12+000599999V0209999C000012200019N0010001N1+02141+02071101901ADDGF103991021021008001041001KA1240M+02761MA1999999101841MD1999999-0211REMSYN088AAXX  29004 83398 32594 30000 10214 20207 30184 40190 82240 333 10276 29088 55066 59021;
0173833980999992009062912004-15667-038950FM-12+000599999V0201401N001010450019N0040001N1+02361+02191101861ADDAA124002091GF105991031021008001041001KA1240N+01861MA1999999101801MD1999999-0181REMSYN082AAXX  29124 83398 22596 51402 10236 20219 30180 40186 83240 333 20186 59018 60024;
0137833980999992009062918004-15667-038950FM-12+000599999V0209999C000010450019N0040001N1+02581+02041101611ADDGF106991041051008001041001MA1999999101551MD1999999-0111REMSYN070AAXX  29184 83398 32596 60000 10258 20204 30155 40161 84540 333 59011;
0168833980999992009063000004-15667-038950FM-12+000599999V0209999C000012200019N0010001N1+02141+02071101751ADDGF103991021021008001041001KA1240M+02821MA1999999101691MD1999999-0151REMSYN088AAXX  30004 83398 32594 30000 10214 20207 30169 40175 82240 333 10282 29088 55072 59015;
0156833980999992009063012004-15667-038950FM-12+000599999V0209999C000010450019N0040001N1+02281+02131101881ADDGF107991041051008001021001KA1240N+01851MA1999999101821MD1999999+0021REMSYN076AAXX  30124 83398 32596 70000 10228 20213 30182 40188 84520 333 20185 58002;
0182833980999992009063018004-15667-038950FM-12+000599999V0209999C000010075019N0040001N1+02401+02151101591ADDAA106001091AY161061AY221061GF108991051051008001021999MA1999999101541MD1999999-0011MW1021REMSYN082AAXX  30184 83398 21596 80000 10240 20215 30154 40159 70262 8552/ 333 59001 60011;
0168833980999992009070100004-15667-038950FM-12+000599999V0209999C000010450019N0010001N1+02161+02091101751ADDGF106991041051008001021001KA1240M+02751MA1999999101691MD1999999+0001REMSYN088AAXX  01004 83398 32594 60000 10216 20209 30169 40175 84520 333 10275 29092 55029 58000;
0173833980999992009070112004-15667-038950FM-12+000599999V0209999C000012200019N0040001N1+02431+02181101781ADDAA124001091GF102991011011008001041001KA1240N+01891MA1999999101721MD1999999-0101REMSYN082AAXX  01124 83398 22596 20000 10243 20218 30172 40178 81140 333 20189 59010 60014;
0137833980999992009070118004-15667-038950FM-12+000599999V0200501N001012200019N0040001N1+02661+02091101521ADDGF102991011011008001041001MA1999999101471MD1999999-0071REMSYN070AAXX  01184 83398 32596 20502 10266 20209 30147 40152 81140 333 59007;
0168833980999992009070200004-15667-038950FM-12+000599999V0209999C000012200019N0010001N1+02141+02041101741ADDGF102991011011008001041001KA1240M+02811MA1999999101681MD1999999-0011REMSYN088AAXX  02004 83398 32594 20000 10214 20204 30168 40174 81140 333 10281 29086 55074 59001;
0156833980999992009070212004-15667-038950FM-12+000599999V0209999C000012200019N0040001N1+02471+02261101871ADDGF102991011011008001041001KA1240N+01821MA1999999101811MD1999999+0091REMSYN076AAXX  02124 83398 32596 20000 10247 20226 30181 40187 81140 333 20182 58009;
0137833980999992009070218004-15667-038950FM-12+000599999V0200501N002112200019N0040001N1+02681+02161101541ADDGF102991011011008001041001MA1999999101491MD1999999+0021REMSYN070AAXX  02184 83398 32596 20504 10268 20216 30149 40154 81140 333 58002;
0168833980999992009070300004-15667-038950FM-12+000599999V0209999C000012200019N0010001N1+02451+02101101791ADDGF103991021011008001041001KA1240M+02861MA1999999101731MD1999999+0051REMSYN088AAXX  03004 83398 32594 30000 10245 20210 30173 40179 82140 333 10286 29081 55080 58005;
0156833980999992009070312004-15667-038950FM-12+000599999V0209999C000012200019N0040001N1+02481+02211101941ADDGF102991011011008001041001KA1240N+01861MA1999999101881MD1999999+0071REMSYN076AAXX  03124 83398 32596 20000 10248 20221 30188 40194 81140 333 20186 58007;
0137833980999992009070318004-15667-038950FM-12+000599999V0200501N002112200019N0040001N1+02701+02031101631ADDGF104991021021008001041001MA1999999101571MD1999999+0081REMSYN070AAXX  03184 83398 32596 40504 10270 20203 30157 40163 82240 333 58008;
0168833980999992009070400004-15667-038950FM-12+000599999V0209999C000012200019N0010001N1+02461+02071101811ADDGF102991011011008001041001KA1240M+02861MA1999999101751MD1999999+0021REMSYN088AAXX  04004 83398 32594 20000 10246 20207 30175 40181 81140 333 10286 29077 55080 58002;
0156833980999992009070412004-15667-038950FM-12+000599999V0209999C000010450019N0040001N1+02401+02171101921ADDGF106991041051008001041001KA1240N+01931MA1999999101861MD1999999-0021REMSYN076AAXX  04124 83398 32596 60000 10240 20217 30186 40192 84540 333 20193 59002;
0137833980999992009070418004-15667-038950FM-12+000599999V0200901N001010075019N0040001N1+02641+01951101691ADDGF108991051051008001021999MA1999999101631MD1999999+0061REMSYN070AAXX  04184 83398 32596 80902 10264 20195 30163 40169 8552/ 333 58006;
0168833980999992009070500004-15667-038950FM-12+000599999V0209999C000012200019N0010001N1+02111+01991101941ADDGF103991021011008001041001KA1240M+02861MA1999999101881MD1999999+0131REMSYN088AAXX  05004 83398 32594 30000 10211 20199 30188 40194 82140 333 10286 29085 55063 58013;
0156833980999992009070512004-15667-038950FM-12+000599999V0201401N001012200019N0040001N1+02461+02111102061ADDGF103991021011008001041001KA1240N+01801MA1999999102001MD1999999+0141REMSYN076AAXX  05124 83398 32596 31402 10246 20211 30200 40206 82140 333 20180 58014;
0137833980999992009070518004-15667-038950FM-12+000599999V0200901N001012200019N0040001N1+02701+01961101871ADDGF104991021011008001041001MA1999999101811MD1999999+0181REMSYN070AAXX  05184 83398 32596 40902 10270 20196 30181 40187 82140 333 58018;
0168833980999992009070600004-15667-038950FM-12+000599999V0209999C000012200019N0010001N1+02061+01981102101ADDGF102991021021008001001001KA1240M+02831MA1999999102041MD1999999+0161REMSYN088AAXX  06004 83398 32594 20000 10206 20198 30204 40210 82200 333 10283 29084 55082 58016;
0201833980999992009070612004-15667-038950FM-12+000599999V0200901N002110450019N0040001N1+02321+02131102151ADDAA124002091AY161061AY221061GF105991031051008001021001KA1240N+01881MA1999999102091MD1999999+0091MW1021REMSYN088AAXX  06124 83398 21596 50904 10232 20213 30209 40215 70262 83520 333 20188 58009 60024;
0137833980999992009070618004-15667-038950FM-12+000599999V0201401N003110450019N0040001N1+02601+01921101931ADDGF106991041051008001021001MA1999999101871MD1999999+0061REMSYN070AAXX  06184 83398 32596 61406 10260 20192 30187 40193 84520 333 58006;
0213833980999992009070700004-15667-038950FM-12+000599999V0200901N001010075019N0010001N1+02161+02131102111ADDAA106002091AY161061AY221061GF107991051051008001021001KA1240M+02821MA1999999102051MD1999999+0011MW1021REMSYN100AAXX  07004 83398 21594 70902 10216 20213 30205 40211 70262 85520 333 10282 29088 55074 58001 60021;
0201833980999992009070712004-15667-038950FM-12+000599999V0200901N001010450019N0040001N1+02101+02021102121ADDAA124039991AY161061AY221061GF108991041071008001021999KA1240N+01981MA1999999102061MD1999999-0031MW1601REMSYN088AAXX  07124 83398 21596 80902 10210 20202 30206 40212 76062 8472/ 333 20198 59003 60404;
0182833980999992009070718004-15667-038950FM-12+000599999V0200901N003110450019N0040001N1+02161+02021101941ADDAA106001091AY161061AY221061GF108991031071008001021999MA1999999101881MD1999999+0011MW1511REMSYN082AAXX  07184 83398 21596 80906 10216 20202 30188 40194 75162 8372/ 333 58001 60011;
0201833980999992009070812004-15667-038950FM-12+000599999V0200901N002110450019N0040001N1+02321+02131101971ADDAA124026991AY161061AY221061GF106991041051008001021001KA1240N+01901MA1999999101911MD1999999-0151MW1021REMSYN088AAXX  08124 83398 21596 60904 10232 20213 30191 40197 70262 84520 333 20190 59015 60274;
0137833980999992009070818004-15667-038950FM-12+000599999V0200901N003110075019N0040001N1+02541+02021101871ADDGF105991051051008001001001MA1999999101811MD1999999-0071REMSYN070AAXX  08184 83398 32596 50906 10254 20202 30181 40187 85500 333 59007;
0168833980999992009070900004-15667-038950FM-12+000599999V0200901N003110075019N0010001N1+02421+02051102081ADDGF108991051051008001021999KA1240M+02781MA1999999102021MD1999999-0031REMSYN088AAXX  09004 83398 32594 80906 10242 20205 30202 40208 8552/ 333 10278 29085 55068 59003;
0201833980999992009070912004-15667-038950FM-12+000599999V0200901N001010450019N0040001N1+02441+02281102081ADDAA124011991AY161061AY221061GF106991041051008001021001KA1240N+02041MA1999999102021MD1999999-0031MW1021REMSYN088AAXX  09124 83398 21596 60902 10244 20228 30202 40208 70262 84520 333 20204 59003 60124;
0137833980999992009070918004-15667-038950FM-12+000599999V0200901N003110450019N0040001N1+02701+01941101851ADDGF105991031051008001041001MA1999999101791MD1999999-0021REMSYN070AAXX  09184 83398 32596 50906 10270 20194 30179 40185 83540 333 59002;
0168833980999992009071000004-15667-038950FM-12+000599999V0209999C000012200019N0010001N1+02281+02071102001ADDGF103991031051008001001001KA1240M+02801MA1999999101941MD1999999-0081REMSYN088AAXX  10004 83398 32594 30000 10228 20207 30194 40200 83500 333 10280 29083 55065 59008;
0156833980999992009071012004-15667-038950FM-12+000599999V0200901N002110450019N0040001N1+02341+02181102001ADDGF106991041051008001021001KA1240N+01881MA1999999101941MD1999999-0081REMSYN076AAXX  10124 83398 32596 60904 10234 20218 30194 40200 84520 333 20188 59008;
0137833980999992009071018004-15667-038950FM-12+000599999V0200901N003112200019N0040001N1+02701+01941101671ADDGF104991041051008001001001MA1999999101611MD1999999-0181REMSYN070AAXX  10184 83398 32596 40906 10270 20194 30161 40167 84500 333 59018;
0168833980999992009071100004-15667-038950FM-12+000599999V0200901N003110450019N0010001N1+02441+02011101781ADDGF105991031051008001021001KA1240M+02821MA1999999101721MD1999999-0221REMSYN088AAXX  11004 83398 32594 50906 10244 20201 30172 40178 83520 333 10282 29078 55072 59022;
0201833980999992009071112004-15667-038950FM-12+000599999V0200901N002110450019N0040001N1+02361+02191101841ADDAA124001091AY161061AY221061GF106991041051008001021001KA1240N+01981MA1999999101781MD1999999-0161MW1021REMSYN088AAXX  11124 83398 21596 60904 10236 20219 30178 40184 70262 84520 333 20198 59016 60014;
0137833980999992009071118004-15667-038950FM-12+000599999V0200501N003110450019N0040001N1+02701+02151101581ADDGF105991031051008001041001MA1999999101531MD1999999-0081REMSYN070AAXX  11184 83398 32596 50506 10270 20215 30153 40158 83540 333 59008;
0156833980999992009071212004-15667-038950FM-12+000599999V0203601N002112200019N0040001N1+02701+02331101811ADDGF104991041051008001001001KA1240N+01961MA1999999101751MD1999999-0031REMSYN076AAXX  12124 83398 32596 43604 10270 20233 30175 40181 84500 333 20196 59003;
0137833980999992009071218004-15667-038950FM-12+000599999V0203601N004110450019N0040001N1+02701+02221101511ADDGF105991031021008001041001MA1999999101461MD1999999-0071REMSYN070AAXX  12184 83398 32596 53608 10270 20222 30146 40151 83240 333 59007;
0168833980999992009071300004-15667-038950FM-12+000599999V0209999C000012200019N0010001N1+02301+02181101741ADDGF103991031051008001001001KA1240M+02841MA1999999101691MD1999999+0001REMSYN088AAXX  13004 83398 32594 30000 10230 20218 30169 40174 83500 333 10284 29085 55079 58000;
0156833980999992009071312004-15667-038950FM-12+000599999V0209999C000012200019N0040001N1+02561+02291102001ADDGF104991021011008001041001KA1240N+02001MA1999999101941MD1999999+0191REMSYN076AAXX  13124 83398 32596 40000 10256 20229 30194 40200 82140 333 20200 58019;
0137833980999992009071318004-15667-038950FM-12+000599999V0200901N001010450019N0040001N1+02731+02181101811ADDGF106991031051008001041001MA1999999101751MD1999999+0291REMSYN070AAXX  13184 83398 32596 60902 10273 20218 30175 40181 83540 333 58029;
0213833980999992009071400004-15667-038950FM-12+000599999V0209999C000010075019N0010001N1+02291+02211102071ADDAA106000891AY151061AY211061GF108991051051008001021999KA1240M+02881MA1999999102011MD1999999+0321MW1021REMSYN100AAXX  14004 83398 21594 80000 10229 20221 30201 40207 70251 8552/ 333 10288 29087 55075 58032 69971;
0201833980999992009071412004-15667-038950FM-12+000599999V0209999C000010450019N0040001N1+02441+02231102171ADDAA124007191AY161061AY221061GF107991041051008001021001KA1240N+02061MA1999999102111MD1999999+0171MW1021REMSYN088AAXX  14124 83398 21596 70000 10244 20223 30211 40217 70262 84520 333 20206 58017 60074;
0137833980999992009071418004-15667-038950FM-12+000599999V0200901N002110450019N0040001N1+02611+02101101931ADDGF105991031051008001021001MA1999999101871MD1999999+0121REMSYN070AAXX  14184 83398 32596 50904 10261 20210 30187 40193 83520 333 58012;
0168833980999992009071500004-15667-038950FM-12+000599999V0209999C000012200019N0010001N1+02181+02111101991ADDGF103991021021008001041001KA1240M+02801MA1999999101931MD1999999-0081REMSYN088AAXX  15004 83398 32594 30000 10218 20211 30193 40199 82240 333 10280 29088 55063 59008;
0156833980999992009071512004-15667-038950FM-12+000599999V0200901N001010450019N0040001N1+02501+02191102101ADDGF105991031021008001041001KA1240N+01941MA1999999102041MD1999999-0071REMSYN076AAXX  15124 83398 32596 50902 10250 20219 30204 40210 83240 333 20194 59007;
0137833980999992009071518004-15667-038950FM-12+000599999V0201401N003110450019N0040001N1+02581+01901101931ADDGF105991031051008001041001MA1999999101871MD1999999+0001REMSYN070AAXX  15184 83398 32596 51406 10258 20190 30187 40193 83540 333 58000;
0168833980999992009071600004-15667-038950FM-12+000599999V0209999C000012200019N0010001N1+02121+02051102151ADDGF104991021051008001041001KA1240M+02801MA1999999102091MD1999999+0161REMSYN088AAXX  16004 83398 32594 40000 10212 20205 30209 40215 82540 333 10280 29085 55079 58016;
0201833980999992009071612004-15667-038950FM-12+000599999V0201401N001010450019N0040001N1+02281+02211102201ADDAA124004191AY161061AY221061GF106991041051008001021001KA1240N+01981MA1999999102141MD1999999+0101MW1021REMSYN088AAXX  16124 83398 21596 61402 10228 20221 30214 40220 70262 84520 333 20198 58010 60044;
0137833980999992009071618004-15667-038950FM-12+000599999V0201401N005110450019N0040001N1+02601+02011101951ADDGF106991031051008001041001MA1999999101891MD1999999+0021REMSYN070AAXX  16184 83398 32596 61410 10260 20201 30189 40195 83540 333 58002;
0168833980999992009071700004-15667-038950FM-12+000599999V0209999C000010450019N0010001N1+02101+01981102191ADDGF105991031021008001041001KA1240M+02741MA1999999102131MD1999999+0041REMSYN088AAXX  17004 83398 32594 50000 10210 20198 30213 40219 83240 333 10274 29088 55073 58004;
0201833980999992009071712004-15667-038950FM-12+000599999V0209999C000010075019N0040001N1+02191+02141102301ADDAA124005191AY161061AY221061GF108991051051008001021999KA1240N+01951MA1999999102241MD1999999+0101MW1021REMSYN088AAXX  17124 83398 21596 80000 10219 20214 30224 40230 70262 8552/ 333 20195 58010 60054;
0182833980999992009071718004-15667-038950FM-12+000599999V0201401N005110450019N0040001N1+02601+01941101971ADDAA106007191AY161061AY221061GF107991041051008001021001MA1999999101911MD1999999+0021MW1021REMSYN082AAXX  17184 83398 21596 71410 10260 20194 30191 40197 70262 84520 333 58002 60071;
0168833980999992009071800004-15667-038950FM-12+000599999V0209999C000010450019N0010001N1+02131+01921102191ADDGF106991041051008001021001KA1240M+02661MA1999999102131MD1999999+0001REMSYN088AAXX  18004 83398 32594 60000 10213 20192 30213 40219 84520 333 10266 29085 55007 58000;
0201833980999992009071812004-15667-038950FM-12+000599999V0200901N001010450019N0040001N1+02301+02091102151ADDAA124011991AY161061AY221061GF105991021011008001041001KA1240N+01881MA1999999102091MD1999999-0151MW1021REMSYN088AAXX  18124 83398 21596 50902 10230 20209 30209 40215 70262 82140 333 20188 59015 60124;
0137833980999992009071818004-15667-038950FM-12+000599999V0201401N002112200019N0040001N1+02601+02011101751ADDGF102991011011008001041001MA1999999101691MD1999999-0221REMSYN070AAXX  18184 83398 32596 21404 10260 20201 30169 40175 81140 333 59022;
0168833980999992009071900004-15667-038950FM-12+000599999V0209999C000012200019N0010001N1+02041+01941101841ADDGF102991011011008001041001KA1240M+02721MA1999999101781MD1999999-0351REMSYN088AAXX  19004 83398 32594 20000 10204 20194 30178 40184 81140 333 10272 29086 55071 59035;
0156833980999992009071912004-15667-038950FM-12+000599999V0200901N002110450019N0040001N1+02341+02221101771ADDGF105991031051008001021001KA1240N+01781MA1999999101711MD1999999-0381REMSYN076AAXX  19124 83398 32596 50904 10234 20222 30171 40177 83520 333 20178 59038;
0137833980999992009071918004-15667-038950FM-12+000599999V0200901N002110450019N0040001N1+02601+02401101471ADDGF106991041051008001021001MA1999999101421MD1999999-0271REMSYN070AAXX  19184 83398 32596 60904 10260 20240 30142 40147 84520 333 59027;
0168833980999992009072000004-15667-038950FM-12+000599999V0209999C000012200019N0010001N1+02221+02121101651ADDGF103991031011008001001001KA1240M+02681MA1999999101591MD1999999-0191REMSYN088AAXX  20004 83398 32594 30000 10222 20212 30159 40165 83100 333 10268 29089 55026 59019;
0156833980999992009072012004-15667-038950FM-12+000599999V0200901N002110075019N0040001N1+02401+02131101741ADDGF105991051051008001001001KA1240N+01881MA1999999101691MD1999999-0021REMSYN076AAXX  20124 83398 32596 50904 10240 20213 30169 40174 85500 333 20188 59002;
0137833980999992009072018004-15667-038950FM-12+000599999V0200501N002110450019N0040001N1+02641+02161101521ADDGF105991031051008001041001MA1999999101471MD1999999+0051REMSYN070AAXX  20184 83398 32596 50504 10264 20216 30147 40152 83540 333 58005;
0168833980999992009072100004-15667-038950FM-12+000599999V0209999C000010450019N0010001N1+02181+02101101851ADDGF105991031051008001021001KA1240M+02821MA1999999101791MD1999999+0201REMSYN088AAXX  21004 83398 32594 50000 10218 20210 30179 40185 83520 333 10282 29088 55073 58020;
0156833980999992009072112004-15667-038950FM-12+000599999V0200901N002110450019N0040001N1+02441+02171101931ADDGF105991031051008001021001KA1240N+01981MA1999999101871MD1999999+0181REMSYN076AAXX  21124 83398 32596 50904 10244 20217 30187 40193 83520 333 20198 58018;
0137833980999992009072118004-15667-038950FM-12+000599999V0200901N003110450019N0040001N1+02581+02121101671ADDGF106991041051008001021001MA1999999101611MD1999999+0141REMSYN070AAXX  21184 83398 32596 60906 10258 20212 30161 40167 84520 333 58014;
0168833980999992009072200004-15667-038950FM-12+000599999V0209999C000012200019N0010001N1+02221+02121101911ADDGF104991041051008001001001KA1240M+02781MA1999999101851MD1999999+0061REMSYN088AAXX  22004 83398 32594 40000 10222 20212 30185 40191 84500 333 10278 29087 55077 58006;
0201833980999992009072212004-15667-038950FM-12+000599999V0209999C000010450019N0040001N1+02301+02181102061ADDAA124007191AY161061AY221061GF106991041051008001021001KA1240N+02061MA1999999102001MD1999999+0131MW1021REMSYN088AAXX  22124 83398 21596 60000 10230 20218 30200 40206 70262 84520 333 20206 58013 60074;
0137833980999992009072218004-15667-038950FM-12+000599999V0203601N002110075019N0040001N1+02341+02171101681ADDGF108991051051008001021999MA1999999101621MD1999999+0011REMSYN070AAXX  22184 83398 32596 83604 10234 20217 30162 40168 8552/ 333 58001;
0213833980999992009072300004-15667-038950FM-12+000599999V0209999C000010075019N0010001N1+02161+02081101851ADDAA106001091AY191061AY261061GF108991051051008001021999KA1240M+02641MA1999999101801MD1999999-0051MW1021REMSYN100AAXX  23004 83398 21594 80000 10216 20208 30180 40185 70296 8552/ 333 10264 29093 55003 59005 60011;
0201833980999992009072312004-15667-038950FM-12+000599999V0209999C000010075019N0040001N1+02341+02201101801ADDAA124003091AY161061AY221061GF108991051051008001021999KA1240N+01981MA1999999101741MD1999999-0261MW1021REMSYN088AAXX  23124 83398 21596 80000 10234 20220 30174 40180 70262 8552/ 333 20198 59026 60034;
0137833980999992009072318004-15667-038950FM-12+000599999V0209999C000010450019N0040001N1+02581+02211101511ADDGF106991041051008001021001MA1999999101461MD1999999-0161REMSYN070AAXX  23184 83398 32596 60000 10258 20221 30146 40151 84520 333 59016;
0168833980999992009072400004-15667-038950FM-12+000599999V0209999C000012200019N0010001N1+02141+02071101751ADDGF104991041051008001001001KA1240M+02661MA1999999101691MD1999999-0111REMSYN088AAXX  24004 83398 32594 40000 10214 20207 30169 40175 84500 333 10266 29091 55025 59011;
0156833980999992009072412004-15667-038950FM-12+000599999V0209999C000010075019N0040001N1+02361+02281101811ADDGF107991051051008001021001KA1240N+02001MA1999999101751MD1999999+0011REMSYN076AAXX  24124 83398 32596 70000 10236 20228 30175 40181 85520 333 20200 58001;
0182833980999992009072418004-15667-038950FM-12+000599999V0200501N003110075019N0040001N1+02381+02261101591ADDAA106002091AY161061AY221061GF108991051051008001021999MA1999999101541MD1999999+0081MW1021REMSYN082AAXX  24184 83398 21596 80506 10238 20226 30154 40159 70262 8552/ 333 58008 60021;
0168833980999992009072500004-15667-038950FM-12+000599999V0209999C000010450019N0010001N1+02401+02091101801ADDGF106991041051008001021001KA1240M+02621MA1999999101741MD1999999+0051REMSYN088AAXX  25004 83398 32594 60000 10240 20209 30174 40180 84520 333 10262 29089 55014 58005;
0201833980999992009072512004-15667-038950FM-12+000599999V0203201N002110075019N0040001N1+02291+02231102081ADDAA124006191AY161061AY221061GF107991051051008001021001KA1240N+01981MA1999999102021MD1999999+0271MW1021REMSYN088AAXX  25124 83398 21596 73204 10229 20223 30202 40208 70262 85520 333 20198 58027 60064;
0137833980999992009072518004-15667-038950FM-12+000599999V0200901N002110450019N0040001N1+02581+01991101831ADDGF105991031051008001021001MA1999999101771MD1999999+0231REMSYN070AAXX  25184 83398 32596 50904 10258 20199 30177 40183 83520 333 58023;
0168833980999992009072600004-15667-038950FM-12+000599999V0209999C000012200019N0010001N1+02021+01951102041ADDGF103991031011008001001001KA1240M+02741MA1999999101981MD1999999+0241REMSYN088AAXX  26004 83398 32594 30000 10202 20195 30198 40204 83100 333 10274 29090 55024 58024;
0156833980999992009072612004-15667-038950FM-12+000599999V0209999C000010450019N0040001N1+02221+01961102161ADDGF106991041051008001021001KA1240N+01711MA1999999102101MD1999999+0081REMSYN076AAXX  26124 83398 32596 60000 10222 20196 30210 40216 84520 333 20171 58008;
0137833980999992009072618004-15667-038950FM-12+000599999V0200901N001012200019N0040001N1+02601+01791101831ADDGF101991011011008001001001MA1999999101771MD1999999+0001REMSYN070AAXX  26184 83398 32596 10902 10260 20179 30177 40183 81100 333 58000;
0168833980999992009072700004-15667-038950FM-12+000599999V0209999C000010075019N0010001N1+02061+01931102061ADDGF108991051051008001021999KA1240M+02771MA1999999102001MD1999999+0021REMSYN088AAXX  27004 83398 32594 80000 10206 20193 30200 40206 8552/ 333 10277 29082 55079 58002;
0156833980999992009072712004-15667-038950FM-12+000599999V0201801N001012200019N0040001N1+02451+02021101991ADDGF103991021011008001041001KA1240N+01921MA1999999101931MD1999999-0171REMSYN076AAXX  27124 83398 32596 31802 10245 20202 30193 40199 82140 333 20192 59017;
0137833980999992009072718004-15667-038950FM-12+000599999V0201401N003110075019N0040001N1+02501+02171101741ADDGF108991051051008001021999MA1999999101681MD1999999-0091REMSYN070AAXX  27184 83398 32596 81406 10250 20217 30168 40174 8552/ 333 59009;
0168833980999992009072800004-15667-038950FM-12+000599999V0209999C000010450019N0010001N1+02341+02171101971ADDGF106991031051008001021001KA1240M+02821MA1999999101911MD1999999-0091REMSYN088AAXX  28004 83398 32594 60000 10234 20217 30191 40197 83520 333 10282 29085 55059 59009;
0201833980999992009072812004-15667-038950FM-12+000599999V0209999C000010450019N0040001N1+02521+02171101971ADDAA124002091AY161061AY221061GF106991031051008001021001KA1240N+02061MA1999999101911MD1999999-0021MW1021REMSYN088AAXX  28124 83398 21596 60000 10252 20217 30191 40197 70262 83520 333 20206 59002 60024;
0137833980999992009072818004-15667-038950FM-12+000599999V0200501N001012200019N0040001N1+02651+01701101711ADDGF101991011011008001001001MA1999999101651MD1999999-0031REMSYN070AAXX  28184 83398 32596 10502 10265 20170 30165 40171 81100 333 59003;
0168833980999992009072900004-15667-038950FM-12+000599999V0209999C000012200019N0010001N1+01971+01851101851ADDGF102991011011008001041001KA1240M+02761MA1999999101791MD1999999-0121REMSYN088AAXX  29004 83398 32594 20000 10197 20185 30179 40185 81140 333 10276 29081 55070 59012;
0156833980999992009072912004-15667-038950FM-12+000599999V0209999C000012200019N0040001N1+02301+02001101991ADDGF101991011001008001041001KA1240N+01601MA1999999101931MD1999999+0021REMSYN076AAXX  29124 83398 32596 10000 10230 20200 30193 40199 81040 333 20160 58002;
0137833980999992009072918004-15667-038950FM-12+000599999V0200901N002112200019N0040001N1+02641+01931101681ADDGF102991011011008001041001MA1999999101621MD1999999+0031REMSYN070AAXX  29184 83398 32596 20904 10264 20193 30162 40168 81140 333 58003;
0168833980999992009073000004-15667-038950FM-12+000599999V0200501N001012200019N0010001N1+02391+01941101891ADDGF102991011011008001041001KA1240M+02781MA1999999101831MD1999999-0041REMSYN088AAXX  30004 83398 32594 20502 10239 20194 30183 40189 81140 333 10278 29075 55082 59004;
0156833980999992009073012004-15667-038950FM-12+000599999V0209999C000012200019N0040001N1+02341+02051102091ADDGF102991011011008001041001KA1240N+01681MA1999999102031MD1999999+0101REMSYN076AAXX  30124 83398 32596 20000 10234 20205 30203 40209 81140 333 20168 58010;
0137833980999992009073018004-15667-038950FM-12+000599999V0200501N001012200019N0040001N1+02641+01951101801ADDGF102991011011008001041001MA1999999101741MD1999999+0121REMSYN070AAXX  30184 83398 32596 20502 10264 20195 30174 40180 81140 333 58012;
0168833980999992009073100004-15667-038950FM-12+000599999V0209999C000012200019N0010001N1+02361+01911102011ADDGF101991011011008001001001KA1240M+02781MA1999999101951MD1999999+0121REMSYN088AAXX  31004 83398 32594 10000 10236 20191 30195 40201 81100 333 10278 29075 55082 58012;
0156833980999992009073112004-15667-038950FM-12+000599999V0209999C000012200019N0040001N1+02491+02101102241ADDGF102991011011008001041001KA1240N+01761MA1999999102181MD1999999+0151REMSYN076AAXX  31124 83398 32596 20000 10249 20210 30218 40224 81140 333 20176 58015;
0137833980999992009073118004-15667-038950FM-12+000599999V0201401N002112200019N0040001N1+02631+01971101951ADDGF103991021011008001041001MA1999999101891MD1999999+0151REMSYN070AAXX  31184 83398 32596 31404 10263 20197 30189 40195 82140 333 58015;
0168833980999992009080100004-15667-038950FM-12+000599999V0209999C000012200019N0010001N1+02121+02021102101ADDGF104991021011008001041001KA1240M+02821MA1999999102041MD1999999+0091REMSYN088AAXX  01004 83398 32594 40000 10212 20202 30204 40210 82140 333 10282 29083 55079 58009;
0201833980999992009080112004-15667-038950FM-12+000599999V0200901N003110450019N0040001N1+02561+02211102161ADDAA124004191AY161061AY221061GF106991031051008001021001KA1240N+02021MA1999999102101MD1999999+0001MW1021REMSYN088AAXX  01124 83398 21596 60906 10256 20221 30210 40216 70262 83520 333 20202 58000 60044;
0137833980999992009080118004-15667-038950FM-12+000599999V0200501N004110075019N0040001N1+02531+02061101911ADDGF108991051051008001021999MA1999999101851MD1999999-0041REMSYN070AAXX  01184 83398 32596 80508 10253 20206 30185 40191 8552/ 333 59004;
0213833980999992009080200004-15667-038950FM-12+000599999V0200501N002110450019N0010001N1+02451+02061102081ADDAA106004191AY161061AY221061GF105991031021008001041001KA1240M+02741MA1999999102021MD1999999-0021MW1021REMSYN100AAXX  02004 83398 21594 50504 10245 20206 30202 40208 70262 83240 333 10274 29078 55050 59002 60041;
0173833980999992009080212004-15667-038950FM-12+000599999V0201401N003110450019N0040001N1+02691+02051102171ADDAA124004191GF106991031021008001041001KA1240N+02091MA1999999102111MD1999999+0011REMSYN082AAXX  02124 83398 22596 61406 10269 20205 30211 40217 83240 333 20209 58001 60044;
0137833980999992009080218004-15667-038950FM-12+000599999V0201401N001010450019N0040001N1+02581+02101101911ADDGF107991041051008001021001MA1999999101861MD1999999+0011REMSYN070AAXX  02184 83398 32596 71402 10258 20210 30186 40191 84520 333 58001;
0168833980999992009080300004-15667-038950FM-12+000599999V0209999C000010075019N0010001N1+02361+02151102091ADDGF108991051051008001021999KA1240M+02811MA1999999102031MD1999999+0011REMSYN088AAXX  03004 83398 32594 80000 10236 20215 30203 40209 8552/ 333 10281 29080 55055 58001;
0201833980999992009080312004-15667-038950FM-12+000599999V0200901N001010450019N0040001N1+02281+02201102251ADDAA124001091AY161061AY221061GF106991041051008001021001KA1240N+01981MA1999999102191MD1999999+0081MW1021REMSYN088AAXX  03124 83398 21596 60902 10228 20220 30219 40225 70262 84520 333 20198 58008 60014;
0137833980999992009080318004-15667-038950FM-12+000599999V0200501N003110450019N0040001N1+02681+01991101981ADDGF105991031051008001021001MA1999999101921MD1999999+0061REMSYN070AAXX  03184 83398 32596 50506 10268 20199 30192 40198 83520 333 58006;
0168833980999992009080400004-15667-038950FM-12+000599999V0209999C000010450019N0010001N1+02081+01961102111ADDGF105991031051008001021001KA1240M+02741MA1999999102051MD1999999+0021REMSYN088AAXX  04004 83398 32594 50000 10208 20196 30205 40211 83520 333 10274 29087 55062 58002;
0156833980999992009080412004-15667-038950FM-12+000599999V0200901N002110450019N0040001N1+02301+02221102141ADDGF106991041051008001021001KA1240N+01741MA1999999102081MD1999999-0111REMSYN076AAXX  04124 83398 32596 60904 10230 20222 30208 40214 84520 333 20174 59011;
0137833980999992009080418004-15667-038950FM-12+000599999V0200501N003110450019N0040001N1+02661+01821101831ADDGF105991031021008001041001MA1999999101771MD1999999-0151REMSYN070AAXX  04184 83398 32596 50506 10266 20182 30177 40183 83240 333 59015;
0168833980999992009080500004-15667-038950FM-12+000599999V0209999C000012200019N0010001N1+02181+02011101991ADDGF104991041011008001001001KA1240M+02821MA1999999101931MD1999999-0121REMSYN088AAXX  05004 83398 32594 40000 10218 20201 30193 40199 84100 333 10282 29084 55073 59012;
0156833980999992009080512004-15667-038950FM-12+000599999V0209999C000010450019N0040001N1+02441+02151102061ADDGF105991031021008001041001KA1240N+01741MA1999999102001MD1999999-0081REMSYN076AAXX  05124 83398 32596 50000 10244 20215 30200 40206 83240 333 20174 59008;
0137833980999992009080518004-15667-038950FM-12+000599999V0200901N004110450019N0040001N1+02741+02021101801ADDGF106991041051008001021001MA1999999101741MD1999999-0031REMSYN070AAXX  05184 83398 32596 60908 10274 20202 30174 40180 84520 333 59003;
0213833980999992009080600004-15667-038950FM-12+000599999V0209999C000010075019N0010001N1+02141+02071101971ADDAA106001091AY161061AY221061GF107991051051008001021001KA1240M+02821MA1999999101911MD1999999-0021MW1021REMSYN100AAXX  06004 83398 21594 70000 10214 20207 30191 40197 70262 85520 333 10282 29085 55083 59002 60011;
0201833980999992009080612004-15667-038950FM-12+000599999V0209999C000010450019N0040001N1+02441+02111102111ADDAA124009991AY161061AY221061GF106991041051008001021001KA1240N+01981MA1999999102051MD1999999+0051MW1021REMSYN088AAXX  06124 83398 21596 60000 10244 20211 30205 40211 70262 84520 333 20198 58005 60104;
0137833980999992009080618004-15667-038950FM-12+000599999V0200501N002110450019N0040001N1+02641+02051101781ADDGF105991041021008001041001MA1999999101721MD1999999-0021REMSYN070AAXX  06184 83398 32596 50504 10264 20205 30172 40178 84240 333 59002;
0168833980999992009080700004-15667-038950FM-12+000599999V0209999C000012200019N0010001N1+02361+02111101971ADDGF104991031011008001041001KA1240M+02781MA1999999101911MD1999999+0001REMSYN088AAXX  07004 83398 32594 40000 10236 20211 30191 40197 83140 333 10278 29081 55079 58000;
0156833980999992009080712004-15667-038950FM-12+000599999V0209999C000010450019N0040001N1+02501+02211102101ADDGF106991041051008001021001KA1240N+01761MA1999999102041MD1999999-0011REMSYN076AAXX  07124 83398 32596 60000 10250 20221 30204 40210 84520 333 20176 59001;
0137833980999992009080718004-15667-038950FM-12+000599999V0200501N002110450019N0040001N1+02701+02111101901ADDGF105991031021008001041001MA1999999101841MD1999999+0121REMSYN070AAXX  07184 83398 32596 50504 10270 20211 30184 40190 83240 333 58012;
0168833980999992009080800004-15667-038950FM-12+000599999V0200501N002110450019N0010001N1+02381+02111102111ADDGF105991021051008001041001KA1240M+02801MA1999999102061MD1999999+0151REMSYN088AAXX  08004 83398 32594 50504 10238 20211 30206 40211 82540 333 10280 29081 55081 58015;
0156833980999992009080812004-15667-038950FM-12+000599999V0200901N002110450019N0040001N1+02501+02051102271ADDGF105991031051008001021001KA1240N+01901MA1999999102211MD1999999+0171REMSYN076AAXX  08124 83398 32596 50904 10250 20205 30221 40227 83520 333 20190 58017;
0137833980999992009080818004-15667-038950FM-12+000599999V0200901N002110450019N0040001N1+02561+01951102041ADDGF106991041051008001021001MA1999999101981MD1999999+0141REMSYN070AAXX  08184 83398 32596 60904 10256 20195 30198 40204 84520 333 58014;
0168833980999992009080900004-15667-038950FM-12+000599999V0209999C000010075019N0010001N1+02101+02031102151ADDGF107991051051008001021001KA1240M+02701MA1999999102091MD1999999+0031REMSYN088AAXX  09004 83398 32594 70000 10210 20203 30209 40215 85520 333 10270 29084 55053 58003;
0201833980999992009080912004-15667-038950FM-12+000599999V0200901N003110075019N0040001N1+02281+02111102191ADDAA124010991AY161061AY221061GF108991051051008001021999KA1240N+01881MA1999999102131MD1999999-0081MW1021REMSYN088AAXX  09124 83398 21596 80906 10228 20211 30213 40219 70262 8552/ 333 20188 59008 60114;
0137833980999992009080918004-15667-038950FM-12+000599999V0200901N001010450019N0040001N1+02561+02131101861ADDGF106991041051008001021001MA1999999101801MD1999999-0181REMSYN070AAXX  09184 83398 32596 60902 10256 20213 30180 40186 84520 333 59018;
0168833980999992009081000004-15667-038950FM-12+000599999V0209999C000012200019N0010001N1+02201+02051102041ADDGF103991031011008001001001KA1240M+02681MA1999999101981MD1999999-0111REMSYN088AAXX  10004 83398 32594 30000 10220 20205 30198 40204 83100 333 10268 29087 55026 59011;
0156833980999992009081012004-15667-038950FM-12+000599999V0209999C000010450019N0040001N1+02371+02101102031ADDGF106991041021008001041001KA1240N+01721MA1999999101971MD1999999-0061REMSYN076AAXX  10124 83398 32596 60000 10237 20210 30197 40203 84240 333 20172 59006;
0137833980999992009081018004-15667-038950FM-12+000599999V0200501N002110450019N0040001N1+02721+01711101711ADDGF107991041051008001021001MA1999999101651MD1999999-0151REMSYN070AAXX  10184 83398 32596 70504 10272 20171 30165 40171 84520 333 59015;
0168833980999992009081100004-15667-038950FM-12+000599999V0200501N001010450019N0010001N1+02401+01991101881ADDGF105991031021008001041001KA1240M+02751MA1999999101821MD1999999-0161REMSYN088AAXX  11004 83398 32594 50502 10240 20199 30182 40188 83240 333 10275 29074 55051 59016;
0156833980999992009081112004-15667-038950FM-12+000599999V0209999C000010450019N0040001N1+02441+02111101951ADDGF105991021011008001041001KA1240N+01741MA1999999101891MD1999999-0081REMSYN076AAXX  11124 83398 32596 50000 10244 20211 30189 40195 82140 333 20174 59008;
0137833980999992009081118004-15667-038950FM-12+000599999V0200501N002110450019N0040001N1+02681+01991101781ADDGF105991031011008001041001MA1999999101721MD1999999+0071REMSYN070AAXX  11184 83398 32596 50504 10268 20199 30172 40178 83140 333 58007;
0168833980999992009081200004-15667-038950FM-12+000599999V0209999C000012200019N0010001N1+02161+02011102091ADDGF104991021011008001041001KA1240M+02801MA1999999102031MD1999999+0211REMSYN088AAXX  12004 83398 32594 40000 10216 20201 30203 40209 82140 333 10280 29082 55082 58021;
0156833980999992009081212004-15667-038950FM-12+000599999V0209999C000012200019N0040001N1+02481+02051102261ADDGF104991021011008001041001KA1240N+01891MA1999999102201MD1999999+0311REMSYN076AAXX  12124 83398 32596 40000 10248 20205 30220 40226 82140 333 20189 58031;
0137833980999992009081218004-15667-038950FM-12+000599999V0201401N001010450019N0040001N1+02641+01771102031ADDGF106991031021008001041001MA1999999101971MD1999999+0251REMSYN070AAXX  12184 83398 32596 61402 10264 20177 30197 40203 83240 333 58025;
0168833980999992009081300004-15667-038950FM-12+000599999V0209999C000010450019N0010001N1+02051+01931102221ADDGF106991031021008001041001KA1240M+02771MA1999999102161MD1999999+0131REMSYN088AAXX  13004 83398 32594 60000 10205 20193 30216 40222 83240 333 10277 29080 55079 58013;
0201833980999992009081312004-15667-038950FM-12+000599999V0200901N001010075019N0040001N1+02321+02071102271ADDAA124001091AY161061AY221061GF108991051051008001021001KA1240N+01911MA1999999102211MD1999999+0011MW1021REMSYN088AAXX  13124 83398 21596 80902 10232 20207 30221 40227 70262 85520 333 20191 58001 60014;
0137833980999992009081318004-15667-038950FM-12+000599999V0201401N003110450019N0040001N1+02641+01931101991ADDGF106991041051008001021001MA1999999101931MD1999999-0041REMSYN070AAXX  13184 83398 32596 61406 10264 20193 30193 40199 84520 333 59004;
0168833980999992009081400004-15667-038950FM-12+000599999V0209999C000010075019N0010001N1+02061+01951102141ADDGF107991051051008001021001KA1240M+02781MA1999999102081MD1999999-0081REMSYN088AAXX  14004 83398 32594 70000 10206 20195 30208 40214 85520 333 10278 29085 55069 59008;
0201833980999992009081412004-15667-038950FM-12+000599999V0200901N001010450019N0040001N1+02221+01991102061ADDAA124002091AY161061AY221061GF106991041051008001021001KA1240N+01871MA1999999102001MD1999999-0211MW1021REMSYN088AAXX  14124 83398 21596 60902 10222 20199 30200 40206 70262 84520 333 20187 59021 60024;
0182833980999992009081418004-15667-038950FM-12+000599999V0200901N001010450019N0040001N1+02561+01751101741ADDAA106000891AY151061AY211061GF106991031021008001041001MA1999999101681MD1999999-0251MW1021REMSYN082AAXX  14184 83398 21596 60902 10256 20175 30168 40174 70251 83240 333 59025 69981;
0168833980999992009081500004-15667-038950FM-12+000599999V0209999C000010450019N0010001N1+01961+01841101911ADDGF106991031021008001041001KA1240M+02721MA1999999101851MD1999999-0231REMSYN088AAXX  15004 83398 32594 60000 10196 20184 30185 40191 83240 333 10272 29083 55062 59023;
0201833980999992009081512004-15667-038950FM-12+000599999V0201401N003110450019N0040001N1+02561+02061102011ADDAA124003091AY161061AY221061GF107991041051008001021001KA1240N+01841MA1999999101951MD1999999-0021MW1021REMSYN088AAXX  15124 83398 21596 71406 10256 20206 30195 40201 70262 84520 333 20184 59002 60034;
0137833980999992009081518004-15667-038950FM-12+000599999V0201401N003110450019N0040001N1+02621+01981101731ADDGF107991041051008001021001MA1999999101671MD1999999-0011REMSYN070AAXX  15184 83398 32596 71406 10262 20198 30167 40173 84520 333 59001;
0168833980999992009081600004-15667-038950FM-12+000599999V0209999C000010450019N0010001N1+02141+01951101941ADDGF106991031021008001041001KA1240M+02741MA1999999101881MD1999999+0031REMSYN088AAXX  16004 83398 32594 60000 10214 20195 30188 40194 83240 333 10274 29080 55070 58003;
0201833980999992009081612004-15667-038950FM-12+000599999V0201401N004110450019N0040001N1+02591+02001102131ADDAA124003091AY161061AY221061GF107991041051008001021001KA1240N+01921MA1999999102071MD1999999+0121MW1021REMSYN088AAXX  16124 83398 21596 71408 10259 20200 30207 40213 70262 84520 333 20192 58012 60034;
0137833980999992009081618004-15667-038950FM-12+000599999V0201401N003110450019N0040001N1+02641+02001101861ADDGF106991031021008001041001MA1999999101801MD1999999+0131REMSYN070AAXX  16184 83398 32596 61406 10264 20200 30180 40186 83240 333 58013;
0168833980999992009081700004-15667-038950FM-12+000599999V0200901N001012200019N0010001N1+02401+01801102001ADDGF104991021011008001041001KA1240M+02741MA1999999101941MD1999999+0061REMSYN088AAXX  17004 83398 32594 40902 10240 20180 30194 40200 82140 333 10274 29069 55074 58006;
0201833980999992009081712004-15667-038950FM-12+000599999V0200901N003110450019N0040001N1+02561+01951102021ADDAA124001091AY161061AY221061GF106991041051008001021001KA1240N+01801MA1999999101961MD1999999-0111MW1021REMSYN088AAXX  17124 83398 21596 60906 10256 20195 30196 40202 70262 84520 333 20180 59011 60014;
0137833980999992009081718004-15667-038950FM-12+000599999V0200901N003110450019N0040001N1+02681+01891101671ADDGF105991031051008001041001MA1999999101611MD1999999-0191REMSYN070AAXX  17184 83398 32596 50906 10268 20189 30161 40167 83540 333 59019;
0168833980999992009081800004-15667-038950FM-12+000599999V0200901N002110450019N0010001N1+02401+01861101891ADDGF105991041051008001021001KA1240M+02791MA1999999101831MD1999999-0111REMSYN088AAXX  18004 83398 32594 50904 10240 20186 30183 40189 84520 333 10279 29069 55070 59011;
0156833980999992009081812004-15667-038950FM-12+000599999V0209999C000012200019N0040001N1+02401+02191101881ADDGF104991041021008001001001KA1240N+01701MA1999999101821MD1999999-0141REMSYN076AAXX  18124 83398 32596 40000 10240 20219 30182 40188 84200 333 20170 59014;
0137833980999992009081818004-15667-038950FM-12+000599999V0201401N003110450019N0040001N1+02641+01831101441ADDGF105991031021008001041001MA1999999101391MD1999999-0221REMSYN070AAXX  18184 83398 32596 51406 10264 20183 30139 40144 83240 333 59022;
0168833980999992009081900004-15667-038950FM-12+000599999V0201401N002112200019N0010001N1+02401+01801101651ADDGF103991031051008001001001KA1240M+02781MA1999999101591MD1999999-0241REMSYN088AAXX  19004 83398 32594 31404 10240 20180 30159 40165 83500 333 10278 29072 55084 59024;
0156833980999992009081912004-15667-038950FM-12+000599999V0203201N001010450019N0040001N1+02541+02191101681ADDGF105991031021008001041001KA1240N+01821MA1999999101621MD1999999-0201REMSYN076AAXX  19124 83398 32596 53202 10254 20219 30162 40168 83240 333 20182 59020;
0137833980999992009081918004-15667-038950FM-12+000599999V0200501N003110450019N0040001N1+02601+02211101351ADDGF106991041051008001021001MA1999999101301MD1999999-0091REMSYN070AAXX  19184 83398 32596 60506 10260 20221 30130 40135 84520 333 59009;
0155833980999992009082000004-15667-038950FM-12+000599999V0209999C000010450019N0010001N1+02401+02241101561ADDGF106991041051008001021001MA1999999101511MD1999999-0081REMSYN088AAXX  20004 83398 32594 60000 10240 20224 30151 40156 84520 333 1//// 29086 55070 59008;
0156833980999992009082012004-15667-038950FM-12+000599999V0203201N001010450019N0040001N1+02681+02201101641ADDGF105991031021008001041001KA1240N+02001MA1999999101581MD1999999-0041REMSYN076AAXX  20124 83398 32596 53202 10268 20220 30158 40164 83240 333 20200 59004;
0137833980999992009082018004-15667-038950FM-12+000599999V0200501N003110450019N0040001N1+02741+02241101281ADDGF105991041021008001041001MA1999999101231MD1999999-0071REMSYN070AAXX  20184 83398 32596 50506 10274 20224 30123 40128 84240 333 59007;
0155833980999992009082100004-15667-038950FM-12+000599999V0203601N002112200019N0010001N1+02501+02311101471ADDGF103991031051008001001001MA1999999101421MD1999999-0091REMSYN088AAXX  21004 83398 32594 33604 10250 20231 30142 40147 83500 333 1//// 29083 55078 59009;
0156833980999992009082112004-15667-038950FM-12+000599999V0203601N003110075019N0040001N1+02741+02301101481ADDGF105991051051008001001001KA1240N+02221MA1999999101431MD1999999-0151REMSYN076AAXX  21124 83398 32596 53606 10274 20230 30143 40148 85500 333 20222 59015;
0137833980999992009082118004-15667-038950FM-12+000599999V0203601N005111050019N0040001N1+02741+02281101131ADDGF105991021021008001041011MA1999999101081MD1999999-0151REMSYN070AAXX  21184 83398 32596 53610 10274 20228 30108 40113 82241 333 59015;
0155833980999992009082200004-15667-038950FM-12+000599999V0203601N003112200019N0010001N1+02501+02291101291ADDGF103991031011008001001001MA1999999101241MD1999999-0181REMSYN088AAXX  22004 83398 32594 33606 10250 20229 30124 40129 83100 333 1//// 29082 55084 59018;
0201833980999992009082212004-15667-038950FM-12+000599999V0200901N003110075019N0040001N1+02201+02131101691ADDAA124033091AY161061AY221061GF108991051071008001021999KA1240N+02161MA1999999101631MD1999999+0201MW1631REMSYN088AAXX  22124 83398 21596 80906 10220 20213 30163 40169 76362 8572/ 333 20216 58020 60334;
0182833980999992009082218004-15667-038950FM-12+000599999V0200901N002110075019N0040001N1+02361+02221101611ADDAA106011991AY161061AY221061GF108991051051008001021999MA1999999101551MD1999999+0471MW1021REMSYN082AAXX  22184 83398 21596 80904 10236 20222 30155 40161 70262 8552/ 333 58047 60121;
0200833980999992009082300004-15667-038950FM-12+000599999V0201801N002110075019N0010001N1+02181+02101101851ADDAA106003091AY161061AY221061GF108991051071008001021999MA1999999101791MD1999999+0551MW1621REMSYN100AAXX  23004 83398 21594 81804 10218 20210 30179 40185 76262 8572/ 333 1//// 29095 55000 58055 60031;
0201833980999992009082312004-15667-038950FM-12+000599999V0201401N003110075019N0040001N1+02341+02241101881ADDAA124023991AY161061AY221061GF108991051051008001021999KA1240N+02001MA1999999101821MD1999999+0191MW1021REMSYN088AAXX  23124 83398 21596 81406 10234 20224 30182 40188 70262 8552/ 333 20200 58019 60244;
0182833980999992009082318004-15667-038950FM-12+000599999V0200901N004110075019N0040001N1+02321+02251101701ADDAA106002091AY161061AY221061GF108991051051008001021999MA1999999101641MD1999999+0091MW1021REMSYN082AAXX  23184 83398 21596 80908 10232 20225 30164 40170 70262 8552/ 333 58009 60021;
0200833980999992009082400004-15667-038950FM-12+000599999V0200901N002110075019N0010001N1+02241+02171101831ADDAA106002091AY161061AY221061GF108991051051008001021999MA1999999101771MD1999999-0021MW1021REMSYN100AAXX  24004 83398 21594 80904 10224 20217 30177 40183 70262 8552/ 333 1//// 29096 55002 59002 60021;
0201833980999992009082412004-15667-038950FM-12+000599999V0209999C000010450019N0040001N1+02601+02251101911ADDAA124024991AY161061AY221061GF107991041051008001021001KA1240N+02121MA1999999101851MD1999999+0031MW1021REMSYN088AAXX  24124 83398 21596 70000 10260 20225 30185 40191 70262 84520 333 20212 58003 60254;
0137833980999992009082418004-15667-038950FM-12+000599999V0201401N002110450019N0040001N1+02621+02101101621ADDGF105991031021008001041001MA1999999101561MD1999999-0081REMSYN070AAXX  24184 83398 32596 51404 10262 20210 30156 40162 83240 333 59008;
0155833980999992009082500004-15667-038950FM-12+000599999V0209999C000010450019N0010001N1+02401+02051101801ADDGF105991031051008001041001MA1999999101741MD1999999-0031REMSYN088AAXX  25004 83398 32594 50000 10240 20205 30174 40180 83540 333 1//// 29079 55073 59003;
0156833980999992009082512004-15667-038950FM-12+000599999V0200901N001012200019N0040001N1+02641+01931101891ADDGF104991021011008001041001KA1240N+01901MA1999999101831MD1999999-0021REMSYN076AAXX  25124 83398 32596 40902 10264 20193 30183 40189 82140 333 20190 59002;
0137833980999992009082518004-15667-038950FM-12+000599999V0201401N001012200019N0040001N1+02651+01941101591ADDGF102991011011008001041001MA1999999101541MD1999999-0021REMSYN070AAXX  25184 83398 32596 21402 10265 20194 30154 40159 81140 333 59002;
0155833980999992009082600004-15667-038950FM-12+000599999V0209999C000012200019N0010001N1+02221+02031101781ADDGF102991011011008001041001MA1999999101721MD1999999-0021REMSYN088AAXX  26004 83398 32594 20000 10222 20203 30172 40178 81140 333 1//// 29077 55078 59002;
0156833980999992009082612004-15667-038950FM-12+000599999V0209999C000010450019N0040001N1+02441+02091101911ADDGF107991041021008001041001KA1240N+01781MA1999999101851MD1999999+0021REMSYN076AAXX  26124 83398 32596 70000 10244 20209 30185 40191 84240 333 20178 58002;
0137833980999992009082618004-15667-038950FM-12+000599999V0201401N002112200019N0040001N1+02641+01931101721ADDGF102991011011008001041001MA1999999101661MD1999999+0121REMSYN070AAXX  26184 83398 32596 21404 10264 20193 30166 40172 81140 333 58012;
0155833980999992009082700004-15667-038950FM-12+000599999V0209999C000012200019N0010001N1+02061+01961101961ADDGF102991011011008001041001MA1999999101901MD1999999+0181REMSYN088AAXX  27004 83398 32594 20000 10206 20196 30190 40196 81140 333 1//// 29082 55085 58018;
0156833980999992009082712004-15667-038950FM-12+000599999V0201401N001010450019N0040001N1+02561+02081102051ADDGF106991031021008001041001KA1240N+01861MA1999999101991MD1999999+0141REMSYN076AAXX  27124 83398 32596 61402 10256 20208 30199 40205 83240 333 20186 58014;
0137833980999992009082718004-15667-038950FM-12+000599999V0200901N002112200019N0040001N1+02651+02011101791ADDGF104991021011008001041001MA1999999101731MD1999999+0071REMSYN070AAXX  27184 83398 32596 40904 10265 20201 30173 40179 82140 333 58007;
0155833980999992009082800004-15667-038950FM-12+000599999V0209999C000012200019N0010001N1+02121+02021102051ADDGF104991021011008001041001MA1999999101991MD1999999+0091REMSYN088AAXX  28004 83398 32594 40000 10212 20202 30199 40205 82140 333 1//// 29083 55077 58009;
0156833980999992009082812004-15667-038950FM-12+000599999V0209999C000010450019N0040001N1+02401+02131102061ADDGF106991031021008001041001KA1240N+01821MA1999999102001MD1999999+0011REMSYN076AAXX  28124 83398 32596 60000 10240 20213 30200 40206 83240 333 20182 58001;
0137833980999992009082818004-15667-038950FM-12+000599999V0200901N002111050019N0040001N1+02581+01941101711ADDGF105991021011008001041011MA1999999101651MD1999999-0081REMSYN070AAXX  28184 83398 32596 50904 10258 20194 30165 40171 82141 333 59008;
0155833980999992009082900004-15667-038950FM-12+000599999V0209999C000010450019N0010001N1+02091+01991101951ADDGF105991031011008001041001MA1999999101891MD1999999-0101REMSYN088AAXX  29004 83398 32594 50000 10209 20199 30189 40195 83140 333 1//// 29085 55076 59010;
0156833980999992009082912004-15667-038950FM-12+000599999V0201401N001010450019N0040001N1+02561+02131102041ADDGF107991031021008001041001KA1240N+01791MA1999999101981MD1999999-0021REMSYN076AAXX  29124 83398 32596 71402 10256 20213 30198 40204 83240 333 20179 59002;
0137833980999992009082918004-15667-038950FM-12+000599999V0201401N003110450019N0040001N1+03601+02141101741ADDGF107991031051008001021001MA1999999101681MD1999999+0031REMSYN070AAXX  29184 83398 32596 71406 10360 20214 30168 40174 83520 333 58003;
0200833980999992009083000004-15667-038950FM-12+000599999V0209999C000010075019N0010001N1+02161+02081101991ADDAA106002091AY161061AY221061GF108991051051008001021999MA1999999101931MD1999999+0041MW1021REMSYN100AAXX  30004 83398 21594 80000 10216 20208 30193 40199 70262 8552/ 333 1//// 29086 55072 58004 60021;
0173833980999992009083012004-15667-038950FM-12+000599999V0200501N003110450019N0040001N1+02411+01941102121ADDAA124002091GF107991041051008001021001KA1240N+01861MA1999999102061MD1999999+0081REMSYN082AAXX  30124 83398 22596 70506 10241 20194 30206 40212 84520 333 20186 58008 60024;
0137833980999992009083018004-15667-038950FM-12+000599999V0201801N005110450019N0040001N1+02601+01711101831ADDGF105991031011008001041001MA1999999101771MD1999999+0091REMSYN070AAXX  30184 83398 32596 51810 10260 20171 30177 40183 83140 333 58009;
0155833980999992009083100004-15667-038950FM-12+000599999V0209999C000010075019N0010001N1+02101+01801102071ADDGF108991051051008001021999MA1999999102011MD1999999+0081REMSYN088AAXX  31004 83398 32594 80000 10210 20180 30201 40207 8552/ 333 1//// 29073 55078 58008;
0156833980999992009083112004-15667-038950FM-12+000599999V0200901N003110450019N0040001N1+02601+01841102091ADDGF106991041051008001021001KA1240N+01881MA1999999102031MD1999999-0031REMSYN076AAXX  31124 83398 32596 60906 10260 20184 30203 40209 84520 333 20188 59003;
0137833980999992009083118004-15667-038950FM-12+000599999V0200901N003110450019N0040001N1+02641+02141101861ADDGF106991041051008001021001MA1999999101801MD1999999+0031REMSYN070AAXX  31184 83398 32596 60906 10264 20214 30180 40186 84520 333 58003;
0155833980999992009090100004-15667-038950FM-12+000599999V0209999C000010450019N0010001N1+02141+02041102051ADDGF106991041051008001021001MA1999999101991MD1999999-0021REMSYN088AAXX  01004 83398 32594 60000 10214 20204 30199 40205 84520 333 1//// 29081 55071 59002;
0201833980999992009090112004-15667-038950FM-12+000599999V0209999C000010075019N0040001N1+02241+02171102101ADDAA124003091AY161061AY221061GF108991051051008001021999KA1240N+01921MA1999999102041MD1999999+0011MW1021REMSYN088AAXX  01124 83398 21596 80000 10224 20217 30204 40210 70262 8552/ 333 20192 58001 60034;
0137833980999992009090118004-15667-038950FM-12+000599999V0200901N003110450019N0040001N1+02501+02321101791ADDGF108991041051008001021999MA1999999101731MD1999999-0071REMSYN070AAXX  01184 83398 32596 80906 10250 20232 30173 40179 8452/ 333 59007;
0155833980999992009090200004-15667-038950FM-12+000599999V0209999C000010450019N0010001N1+02161+02081102031ADDGF105991031051008001041001MA1999999101971MD1999999-0021REMSYN088AAXX  02004 83398 32594 50000 10216 20208 30197 40203 83540 333 1//// 29094 55024 59002;
0156833980999992009090212004-15667-038950FM-12+000599999V0200501N002110450019N0040001N1+02701+02221102051ADDGF105991031051008001041001KA1240N+01801MA1999999101991MD1999999-0051REMSYN076AAXX  02124 83398 32596 50504 10270 20222 30199 40205 83540 333 20180 59005;
0137833980999992009090218004-15667-038950FM-12+000599999V0203601N003110450019N0040001N1+02721+02341101701ADDGF105991021051008001041001MA1999999101641MD1999999-0091REMSYN070AAXX  02184 83398 32596 53606 10272 20234 30164 40170 82540 333 59009;
0155833980999992009090300004-15667-038950FM-12+000599999V0209999C000012200019N0010001N1+02381+02111101911ADDGF103991031011008001001001MA1999999101851MD1999999-0121REMSYN088AAXX  03004 83398 32594 30000 10238 20211 30185 40191 83100 333 1//// 29081 55083 59012;
0156833980999992009090312004-15667-038950FM-12+000599999V0209999C000010450019N0040001N1+02681+02161102001ADDGF105991031051008001021001KA1240N+01901MA1999999101941MD1999999-0051REMSYN076AAXX  03124 83398 32596 50000 10268 20216 30194 40200 83520 333 20190 59005;
0137833980999992009090318004-15667-038950FM-12+000599999V0203601N003110450019N0040001N1+02701+02111101671ADDGF105991031021008001041001MA1999999101611MD1999999-0031REMSYN070AAXX  03184 83398 32596 53606 10270 20211 30161 40167 83240 333 59003;
0155833980999992009090400004-15667-038950FM-12+000599999V0203601N003110075019N0010001N1+02521+02191101871ADDGF105991051051008001001001MA1999999101811MD1999999-0041REMSYN088AAXX  04004 83398 32594 53606 10252 20219 30181 40187 85500 333 1//// 29077 55085 59004;
0156833980999992009090412004-15667-038950FM-12+000599999V0203201N003110450019N0040001N1+02661+02291101931ADDGF106991041051008001021001KA1240N+01981MA1999999101871MD1999999-0071REMSYN076AAXX  04124 83398 32596 63206 10266 20229 30187 40193 84520 333 20198 59007;
0137833980999992009090418004-15667-038950FM-12+000599999V0201401N003110450019N0040001N1+02661+02331101611ADDGF106991041051008001021001MA1999999101551MD1999999-0061REMSYN070AAXX  04184 83398 32596 61406 10266 20233 30155 40161 84520 333 59006;
0155833980999992009090500004-15667-038950FM-12+000599999V0200901N003110450019N0010001N1+02481+02321101721ADDGF106991041051008001021001MA1999999101661MD1999999-0151REMSYN088AAXX  05004 83398 32594 60906 10248 20232 30166 40172 84520 333 1//// 29086 55077 59015;
0156833980999992009090512004-15667-038950FM-12+000599999V0203601N004110450019N0040001N1+02761+02281101861ADDGF106991041051008001021001KA1240N+02301MA1999999101801MD1999999-0071REMSYN076AAXX  05124 83398 32596 63608 10276 20228 30180 40186 84520 333 20230 59007;
0137833980999992009090518004-15667-038950FM-12+000599999V0203601N005110450019N0040001N1+02761+02231101551ADDGF106991041051008001021001MA1999999101501MD1999999-0051REMSYN070AAXX  05184 83398 32596 63610 10276 20223 30150 40155 84520 333 59005;
0155833980999992009090600004-15667-038950FM-12+000599999V0203601N003112200019N0040001N1+02501+02271101841ADDGF103991031011008001001001MA1999999101781MD1999999+0121REMSYN088AAXX  06004 83398 32596 33606 10250 20227 30178 40184 83100 333 1//// 29081 55069 58012;
0156833980999992009090612004-15667-038950FM-12+000599999V0203601N004110075019N0040001N1+02761+02381102031ADDGF105991051051008001001001KA1240N+02081MA1999999101971MD1999999+0171REMSYN076AAXX  06124 83398 32596 53608 10276 20238 30197 40203 85500 333 20208 58017;
0137833980999992009090618004-15667-038950FM-12+000599999V0203601N005110450019N0040001N1+02761+02281101701ADDGF106991031051008001021001MA1999999101641MD1999999+0141REMSYN070AAXX  06184 83398 32596 63610 10276 20228 30164 40170 83520 333 58014;
0156833980999992009090712004-15667-038950FM-12+000599999V0200501N003110450019N0040001N1+02781+02211101871ADDGF106991031051008001021001KA1240N+02441MA1999999101811MD1999999-0161REMSYN076AAXX  07124 83398 32596 60506 10278 20221 30181 40187 83520 333 20244 59016;
0137833980999992009090718004-15667-038950FM-12+000599999V0200501N004110450019N0040001N1+02771+02171101511ADDGF105991031021008001041001MA1999999101461MD1999999-0181REMSYN070AAXX  07184 83398 32596 50508 10277 20217 30146 40151 83240 333 59018;
0155833980999992009090800004-15667-038950FM-12+000599999V0200501N003112200019N0010001N1+02501+02171101691ADDGF103991021011008001041001MA1999999101631MD1999999-0141REMSYN088AAXX  08004 83398 32594 30506 10250 20217 30163 40169 82140 333 1//// 29076 55088 59014;
0156833980999992009090812004-15667-038950FM-12+000599999V0200501N005110450019N0040001N1+02771+02101101821ADDGF107991041051008001021001KA1240N+02291MA1999999101761MD1999999-0051REMSYN076AAXX  08124 83398 32596 70510 10277 20210 30176 40182 84520 333 20229 59005;
0137833980999992009090818004-15667-038950FM-12+000599999V0200501N004110450019N0040001N1+02781+02181101541ADDGF107991041051008001021001MA1999999101491MD1999999+0031REMSYN070AAXX  08184 83398 32596 70508 10278 20218 30149 40154 84520 333 58003;
0155833980999992009090900004-15667-038950FM-12+000599999V0200501N002110450019N0010001N1+02521+02151101741ADDGF106991031051008001021001MA1999999101691MD1999999+0061REMSYN088AAXX  09004 83398 32594 60504 10252 20215 30169 40174 83520 333 1//// 29074 55073 58006;
0156833980999992009090912004-15667-038950FM-12+000599999V0200901N004110450019N0040001N1+02761+02071102001ADDGF107991031051008001021001KA1240N+02021MA1999999101941MD1999999+0181REMSYN076AAXX  09124 83398 32596 70908 10276 20207 30194 40200 83520 333 20202 58018;
0137833980999992009090918004-15667-038950FM-12+000599999V0200501N004110450019N0040001N1+02751+02131101741ADDGF106991031051008001021001MA1999999101691MD1999999+0201REMSYN070AAXX  09184 83398 32596 60508 10275 20213 30169 40174 83520 333 58020;
0155833980999992009091000004-15667-038950FM-12+000599999V0200501N006210075019N0010001N1+02521+02111101981ADDGF108991051051008001021999MA1999999101921MD1999999+0231REMSYN088AAXX  10004 83398 32594 80512 10252 20211 30192 40198 8552/ 333 1//// 29073 55079 58023;
0156833980999992009091012004-15667-038950FM-12+000599999V0200901N004110450019N0040001N1+02781+02091102241ADDGF107991041021008001041001KA1240N+02251MA1999999102181MD1999999+0241REMSYN076AAXX  10124 83398 32596 70908 10278 20209 30218 40224 84240 333 20225 58024;
0182833980999992009091018004-15667-038950FM-12+000599999V0209999C000010075019N0040001N1+02261+02111102091ADDAA106007191AY161061AY221061GF108991051051008001021999MA1999999102031MD1999999+0341MW1021REMSYN082AAXX  10184 83398 21596 80000 10226 20211 30203 40209 70262 8552/ 333 58034 60071;
0200833980999992009091100004-15667-038950FM-12+000599999V0209999C000010075019N0010001N1+02181+02131102251ADDAA106005191AY161061AY221061GF108991051051008001021999MA1999999102191MD1999999+0271MW1021REMSYN100AAXX  11004 83398 21594 80000 10218 20213 30219 40225 70262 8552/ 333 1//// 29088 55066 58027 60051;
0201833980999992009091112004-15667-038950FM-12+000599999V0209999C000010075019N0040001N1+02291+02221102291ADDAA124019191AY161061AY221061GF108991051051008001021999KA1240N+02141MA1999999102231MD1999999+0051MW1621REMSYN088AAXX  11124 83398 21596 80000 10229 20222 30223 40229 76262 8552/ 333 20214 58005 60194;
0182833980999992009091118004-15667-038950FM-12+000599999V0201401N001010075019N0040001N1+02171+02121102001ADDAA106017091AY161061AY221061GF108991051051008001021999MA1999999101941MD1999999-0091MW1521REMSYN082AAXX  11184 83398 21596 81402 10217 20212 30194 40200 75262 8552/ 333 59009 60171;
0200833980999992009091200004-15667-038950FM-12+000599999V0209999C000012200019N0010001N1+02121+01971102151ADDAA106002091AY161061AY221061GF104991021021008001041001MA1999999102091MD1999999-0101MW1021REMSYN100AAXX  12004 83398 21594 40000 10212 20197 30209 40215 70262 82240 333 1//// 29094 55000 59010 60021;
0201833980999992009091212004-15667-038950FM-12+000599999V0209999C000010075019N0040001N1+02381+02151102141ADDAA124023191AY161061AY221061GF108991051051008001021999KA1240N+01901MA1999999102081MD1999999-0151MW1021REMSYN088AAXX  12124 83398 21596 80000 10238 20215 30208 40214 70262 8552/ 333 20190 59015 60234;
0137833980999992009091218004-15667-038950FM-12+000599999V0200901N001010075019N0040001N1+02571+01891101811ADDGF108991051051008001021999MA1999999101751MD1999999-0191REMSYN070AAXX  12184 83398 32596 80902 10257 20189 30175 40181 8552/ 333 59019;
0155833980999992009091300004-15667-038950FM-12+000599999V0209999C000010075019N0010001N1+02361+01991101971ADDGF108991051051008001021999MA1999999101911MD1999999-0181REMSYN088AAXX  13004 83398 32594 80000 10236 20199 30191 40197 8552/ 333 1//// 29078 55051 59018;
0156833980999992009091312004-15667-038950FM-12+000599999V0201401N001010450019N0010001N1+02661+01871102041ADDGF105991031021008001041001KA1240N+01971MA1999999101981MD1999999-0101REMSYN076AAXX  13124 83398 32594 51402 10266 20187 30198 40204 83240 333 20197 59010;
0137833980999992009091318004-15667-038950FM-12+000599999V0201801N003112200019N0040001N1+02601+01991101731ADDGF104991021011008001041001MA1999999101671MD1999999-0081REMSYN070AAXX  13184 83398 32596 41806 10260 20199 30167 40173 82140 333 59008;
0155833980999992009091400004-15667-038950FM-12+000599999V0200901N001012200019N0010001N1+02381+01841101981ADDGF103991021011008001041001MA1999999101921MD1999999+0011REMSYN088AAXX  14004 83398 32594 30902 10238 20184 30192 40198 82140 333 1//// 29069 55084 58001;
0156833980999992009091412004-15667-038950FM-12+000599999V0202701N001010450019N0040001N1+02641+02071102031ADDGF105991031021008001041001KA1240N+01701MA1999999101971MD1999999-0011REMSYN076AAXX  14124 83398 32596 52702 10264 20207 30197 40203 83240 333 20170 59001;
0137833980999992009091418004-15667-038950FM-12+000599999V0200501N003110450019N0040001N1+02681+01971101661ADDGF105991031021008001041001MA1999999101601MD1999999-0071REMSYN070AAXX  14184 83398 32596 50506 10268 20197 30160 40166 83240 333 59007;
0155833980999992009091500004-15667-038950FM-12+000599999V0209999C000012200019N0010001N1+02041+01911101971ADDGF103991031011008001001001MA1999999101911MD1999999-0011REMSYN088AAXX  15004 83398 32594 30000 10204 20191 30191 40197 83100 333 1//// 29080 55090 59001;
0156833980999992009091512004-15667-038950FM-12+000599999V0202701N001010450019N0040001N1+02641+02071101991ADDGF105991031021008001041001KA1240N+01761MA1999999101931MD1999999-0041REMSYN076AAXX  15124 83398 32596 52702 10264 20207 30193 40199 83240 333 20176 59004;
0137833980999992009091518004-15667-038950FM-12+000599999V0200501N003110450019N0040001N1+02741+02101101641ADDGF105991031021008001041001MA1999999101581MD1999999-0021REMSYN070AAXX  15184 83398 32596 50506 10274 20210 30158 40164 83240 333 59002;
0156833980999992009091612004-15667-038950FM-12+000599999V0200901N001010450019N0040001N1+02621+02211101971ADDGF106991041051008001021001KA1240N+01981MA1999999101911MD1999999-0021REMSYN076AAXX  16124 83398 32596 60902 10262 20221 30191 40197 84520 333 20198 59002;
0137833980999992009091618004-15667-038950FM-12+000599999V0200901N003110450019N0040001N1+02761+02121101581ADDGF105991031021008001041001MA1999999101531MD1999999-0051REMSYN070AAXX  16184 83398 32596 50906 10276 20212 30153 40158 83240 333 59005;
0155833980999992009091700004-15667-038950FM-12+000599999V0209999C000012200019N0010001N1+02261+02161101751ADDGF103991031011008001001001MA1999999101691MD1999999-0191REMSYN088AAXX  17004 83398 32594 30000 10226 20216 30169 40175 83100 333 1//// 29083 55089 59019;
0156833980999992009091712004-15667-038950FM-12+000599999V0200501N001010450019N0040001N1+02681+02061101801ADDGF105991031051008001041001KA1240N+01921MA1999999101741MD1999999-0171REMSYN076AAXX  17124 83398 32596 50502 10268 20206 30174 40180 83540 333 20192 59017;
0137833980999992009091718004-15667-038950FM-12+000599999V0200501N002112200019N0040001N1+02701+02061101411ADDGF102991011011008001041001MA1999999101361MD1999999-0171REMSYN070AAXX  17184 83398 32596 20504 10270 20206 30136 40141 81140 333 59017;
0155833980999992009091800004-15667-038950FM-12+000599999V0209999C000012200019N0010001N1+02441+02051101651ADDGF102991011011008001041001MA1999999101591MD1999999-0101REMSYN088AAXX  18004 83398 32594 20000 10244 20205 30159 40165 81140 333 1//// 29074 55083 59010;
0156833980999992009091812004-15667-038950FM-12+000599999V0203601N001010450019N0040001N1+02641+02161101761ADDGF107991031051008001021001KA1240N+02001MA1999999101701MD1999999-0041REMSYN076AAXX  18124 83398 32596 73602 10264 20216 30170 40176 83520 333 20200 59004;
0137833980999992009091818004-15667-038950FM-12+000599999V0200501N003112200019N0040001N1+02691+02001101381ADDGF102991011011008001041001MA1999999101331MD1999999-0031REMSYN070AAXX  18184 83398 32596 20506 10269 20200 30133 40138 81140 333 59003;
0155833980999992009091900004-15667-038950FM-12+000599999V0200501N002112200019N0010001N1+02481+02111101651ADDGF103991031011008001001001MA1999999101591MD1999999+0001REMSYN088AAXX  19004 83398 32594 30504 10248 20211 30159 40165 83100 333 1//// 29072 55086 58000;
0156833980999992009091912004-15667-038950FM-12+000599999V0202701N001010450019N0040001N1+02601+02271101871ADDGF106991041051008001021001KA1240N+01981MA1999999101811MD1999999+0111REMSYN076AAXX  19124 83398 32596 62702 10260 20227 30181 40187 84520 333 20198 58011;
0137833980999992009091918004-15667-038950FM-12+000599999V0203601N003112200019N0040001N1+02761+02121101591ADDGF104991021021008001041001MA1999999101541MD1999999+0211REMSYN070AAXX  19184 83398 32596 43606 10276 20212 30154 40159 82240 333 58021;
0155833980999992009092000004-15667-038950FM-12+000599999V0200501N003112200019N0010001N1+02481+02011101651ADDGF103991021011008001041001MA1999999101591MD1999999+0001REMSYN088AAXX  20004 83398 32594 30506 10248 20201 30159 40165 82140 333 1//// 29075 55006 58000;
0156833980999992009092012004-15667-038950FM-12+000599999V0202701N001010450019N0040001N1+02541+02351101741ADDGF106991041051008001021001KA1240N+01981MA1999999101681MD1999999-0131REMSYN076AAXX  20124 83398 32596 62702 10254 20235 30168 40174 84520 333 20198 59013;
0137833980999992009092018004-15667-038950FM-12+000599999V0203601N003112200019N0040001N1+02801+02251101371ADDGF104991031021008001041001MA1999999101321MD1999999-0221REMSYN070AAXX  20184 83398 32596 43606 10280 20225 30132 40137 83240 333 59022;
0155833980999992009092100004-15667-038950FM-12+000599999V0203601N005112200019N0010001N1+02601+02311101631ADDGF103991031011008001001001MA1999999101571MD1999999-0021REMSYN088AAXX  21004 83398 32594 33610 10260 20231 30157 40163 83100 333 1//// 29082 55082 59002;
0201833980999992009092112004-15667-038950FM-12+000599999V0203601N004110450019N0040001N1+02801+02421101691ADDAA124001091AY161061AY221061GF106991041051008001021001KA1240N+02301MA1999999101631MD1999999-0051MW1021REMSYN088AAXX  21124 83398 21596 63608 10280 20242 30163 40169 70262 84520 333 20230 59005 60014;
0137833980999992009092118004-15667-038950FM-12+000599999V0203601N003110450019N0040001N1+02821+02401101361ADDGF105991031021008001041001MA1999999101311MD1999999-0011REMSYN070AAXX  21184 83398 32596 53606 10282 20240 30131 40136 83240 333 59001;
0155833980999992009092200004-15667-038950FM-12+000599999V0200501N003112200019N0010001N1+02541+02311101451ADDGF104991021021008001041001MA1999999101401MD1999999-0171REMSYN088AAXX  22004 83398 32594 40506 10254 20231 30140 40145 82240 333 1//// 29083 55083 59017;
0156833980999992009092212004-15667-038950FM-12+000599999V0200501N004110075019N0040001N1+02741+02321101621ADDGF108991051051008001021001KA1240N+02441MA1999999101561MD1999999-0071REMSYN076AAXX  22124 83398 32596 80508 10274 20232 30156 40162 85520 333 20244 59007;
0137833980999992009092218004-15667-038950FM-12+000599999V0203601N004112200019N0040001N1+02781+02181101371ADDGF104991021011008001041001MA1999999101321MD1999999+0011REMSYN070AAXX  22184 83398 32596 43608 10278 20218 30132 40137 82140 333 58001;
0155833980999992009092300004-15667-038950FM-12+000599999V0203601N004110450019N0010001N1+02541+02191101541ADDGF106991041021008001041001MA1999999101491MD1999999+0091REMSYN088AAXX  23004 83398 32594 63608 10254 20219 30149 40154 84240 333 1//// 29077 55081 58009;
0156833980999992009092312004-15667-038950FM-12+000599999V0203601N003110450019N0040001N1+02801+02201101631ADDGF106991041051008001021001KA1240N+02401MA1999999101571MD1999999+0011REMSYN076AAXX  23124 83398 32596 63606 10280 20220 30157 40163 84520 333 20240 58001;
0137833980999992009092318004-15667-038950FM-12+000599999V0203601N005110450019N0040001N1+02781+02211101261ADDGF105991031021008001041001MA1999999101211MD1999999-0111REMSYN070AAXX  23184 83398 32596 53610 10278 20221 30121 40126 83240 333 59011;
0155833980999992009092400004-15667-038950FM-12+000599999V0203601N004112200019N0010001N1+02561+02171101411ADDGF104991041051008001001001MA1999999101361MD1999999-0131REMSYN088AAXX  24004 83398 32594 43608 10256 20217 30136 40141 84500 333 1//// 29075 55093 59013;
0156833980999992009092412004-15667-038950FM-12+000599999V0203601N004110075019N0040001N1+02641+02161101501ADDGF108991051051008001021999KA1240N+02251MA1999999101451MD1999999-0121REMSYN076AAXX  24124 83398 32596 83608 10264 20216 30145 40150 8552/ 333 20225 59012;
0137833980999992009092418004-15667-038950FM-12+000599999V0203601N005112200019N0040001N1+02761+02091101151ADDGF101991011011008001001001MA1999999101101MD1999999-0111REMSYN070AAXX  24184 83398 32596 13610 10276 20209 30110 40115 81100 333 59011;
0155833980999992009092500004-15667-038950FM-12+000599999V0203601N004110450019N0010001N1+02541+02151101411ADDGF106991031051008001021001MA1999999101361MD1999999+0001REMSYN088AAXX  25004 83398 32594 63608 10254 20215 30136 40141 83520 333 1//// 29075 55070 58000;
0156833980999992009092512004-15667-038950FM-12+000599999V0200901N001010075019N0040001N1+02701+02221101731ADDGF108991051051008001021001KA1240N+02231MA1999999101671MD1999999+0221REMSYN076AAXX  25124 83398 32596 80902 10270 20222 30167 40173 85520 333 20223 58022;
0137833980999992009092518004-15667-038950FM-12+000599999V0200901N001010450019N0040001N1+02701+02221101511ADDGF106991031051008001021001MA1999999101461MD1999999+0361REMSYN070AAXX  25184 83398 32596 60902 10270 20222 30146 40151 83520 333 58036;
0155833980999992009092600004-15667-038950FM-12+000599999V0209999C000010075019N0010001N1+02321+02161101871ADDGF108991051051008001021999MA1999999101811MD1999999+0451REMSYN088AAXX  26004 83398 32594 80000 10232 20216 30181 40187 8552/ 333 1//// 29083 55041 58045;
0156833980999992009092612004-15667-038950FM-12+000599999V0209999C000010075019N0040001N1+02361+02201102001ADDGF108991051051008001021999KA1240N+02181MA1999999101941MD1999999+0271REMSYN076AAXX  26124 83398 32596 80000 10236 20220 30194 40200 8552/ 333 20218 58027;
0182833980999992009092618004-15667-038950FM-12+000599999V0201401N001010075019N0040001N1+02441+02271101711ADDAA106001091AY161061AY221061GF108991051051008001021999MA1999999101651MD1999999+0191MW1021REMSYN082AAXX  26184 83398 21596 81402 10244 20227 30165 40171 70262 8552/ 333 58019 60011;
0155833980999992009092700004-15667-038950FM-12+000599999V0209999C000010075019N0010001N1+02221+02151101901ADDGF108991051051008001021999MA1999999101841MD1999999+0031REMSYN088AAXX  27004 83398 32594 80000 10222 20215 30184 40190 8552/ 333 1//// 29093 55042 58003;
0201833980999992009092712004-15667-038950FM-12+000599999V0200501N002110450019N0040001N1+02721+02171101991ADDAA124004191AY161061AY221061GF106991031051008001021001KA1240N+02121MA1999999101931MD1999999-0011MW1021REMSYN088AAXX  27124 83398 21596 60504 10272 20217 30193 40199 70262 83520 333 20212 59001 60044;
0137833980999992009092718004-15667-038950FM-12+000599999V0203601N001012200019N0040001N1+02741+02051101621ADDGF102991011011008001041001MA1999999101561MD1999999-0091REMSYN070AAXX  27184 83398 32596 23602 10274 20205 30156 40162 81140 333 59009;
0155833980999992009092800004-15667-038950FM-12+000599999V0203601N002112200019N0010001N1+02481+01961101911ADDGF102991011011008001041001MA1999999101851MD1999999+0011REMSYN088AAXX  28004 83398 32594 23604 10248 20196 30185 40191 81140 333 1//// 29071 55085 58001;
0156833980999992009092812004-15667-038950FM-12+000599999V0200501N003110450019N0040001N1+02721+02301102061ADDGF105991031051008001021001KA1240N+01841MA1999999102001MD1999999+0071REMSYN076AAXX  28124 83398 32596 50506 10272 20230 30200 40206 83520 333 20184 58007;
0137833980999992009092818004-15667-038950FM-12+000599999V0203601N005112200019N0040001N1+02781+02111101691ADDGF104991041001008001041001MA1999999101631MD1999999+0071REMSYN070AAXX  28184 83398 32596 43610 10278 20211 30163 40169 84040 333 58007;
0155833980999992009092900004-15667-038950FM-12+000599999V0200501N002112200019N0010001N1+02461+02231101791ADDGF102991021011008001001001MA1999999101731MD1999999-0121REMSYN088AAXX  29004 83398 32594 20504 10246 20223 30173 40179 82100 333 1//// 29080 55087 59012;
0156833980999992009092912004-15667-038950FM-12+000599999V0202701N002110450019N0040001N1+02701+02221101811ADDGF106991041051008001021001KA1240N+01961MA1999999101751MD1999999-0251REMSYN076AAXX  29124 83398 32596 62704 10270 20222 30175 40181 84520 333 20196 59025;
0137833980999992009092918004-15667-038950FM-12+000599999V0203601N005112200019N0040001N1+02781+02341101351ADDGF104991041001008001041001MA1999999101301MD1999999-0331REMSYN070AAXX  29184 83398 32596 43610 10278 20234 30130 40135 84040 333 59033;
0155833980999992009093000004-15667-038950FM-12+000599999V0200501N002112200019N0010001N1+02521+02341101581ADDGF104991041051008001001001MA1999999101531MD1999999-0201REMSYN088AAXX  30004 83398 32594 40504 10252 20234 30153 40158 84500 333 1//// 29083 55085 59020;
0156833980999992009093012004-15667-038950FM-12+000599999V0202701N001010075019N0040001N1+02661+02291101871ADDGF107991051051008001021001KA1240N+02161MA1999999101811MD1999999+0061REMSYN076AAXX  30124 83398 32596 72702 10266 20229 30181 40187 85520 333 20216 58006;
0137833980999992009093018004-15667-038950FM-12+000599999V0203601N003110450019N0040001N1+02781+02251101531ADDGF106991041051008001021001MA1999999101481MD1999999+0181REMSYN070AAXX  30184 83398 32596 63606 10278 20225 30148 40153 84520 333 58018;
0200833980999992009100100004-15667-038950FM-12+000599999V0200901N002110075019N0010001N1+02341+02311101951ADDAA106001091AY161061AY221061GF108991051051008001021999MA1999999101891MD1999999+0361MW1601REMSYN100AAXX  01004 83398 21594 80904 10234 20231 30189 40195 76062 8552/ 333 1//// 29087 55023 58036 60011;
0201833980999992009100112004-15667-038950FM-12+000599999V0203601N001010075019N0040001N1+02351+02191102051ADDAA124007991AY161061AY221061GF108991051051008001021999KA1240N+02151MA1999999101991MD1999999+0181MW1021REMSYN088AAXX  01124 83398 21596 83602 10235 20219 30199 40205 70262 8552/ 333 20215 58018 60084;
0137833980999992009100118004-15667-038950FM-12+000599999V0200901N003110075019N0040001N1+02401+02241101811ADDGF108991051051008001021999MA1999999101751MD1999999+0271REMSYN070AAXX  01184 83398 32596 80906 10240 20224 30175 40181 8552/ 333 58027;
0200833980999992009100200004-15667-038950FM-12+000599999V0209999C000010450019N0010001N1+02141+02111102091ADDAA106001091AY161061AY221061GF108991041071008001021999MA1999999102031MD1999999+0141MW1521REMSYN100AAXX  02004 83398 21594 80000 10214 20211 30203 40209 75262 8472/ 333 1//// 29095 55000 58014 60011;
0201833980999992009100212004-15667-038950FM-12+000599999V0200901N001010075019N0040001N1+02461+02171102001ADDAA124003091AY161061AY221061GF108991051051008001021999KA1240N+02061MA1999999101941MD1999999-0051MW1021REMSYN088AAXX  02124 83398 21596 80902 10246 20217 30194 40200 70262 8552/ 333 20206 59005 60034;
0137833980999992009100218004-15667-038950FM-12+000599999V0200901N003110450019N0040001N1+02581+01941101641ADDGF106991041051008001021001MA1999999101581MD1999999-0171REMSYN070AAXX  02184 83398 32596 60906 10258 20194 30158 40164 84520 333 59017;
0155833980999992009100300004-15667-038950FM-12+000599999V0209999C000010450019N0010001N1+02401+02031101801ADDGF106991041051008001021001MA1999999101741MD1999999-0191REMSYN088AAXX  03004 83398 32594 60000 10240 20203 30174 40180 84520 333 1//// 29078 55012 59019;
0156833980999992009100312004-15667-038950FM-12+000599999V0200901N002110450019N0040001N1+02781+02211101901ADDGF105991041051008001021001KA1240N+01981MA1999999101841MD1999999-0101REMSYN076AAXX  03124 83398 32596 50904 10278 20221 30184 40190 84520 333 20198 59010;
0137833980999992009100318004-15667-038950FM-12+000599999V0200901N003110450019N0040001N1+02741+02051101561ADDGF105991031051008001041001MA1999999101511MD1999999-0071REMSYN070AAXX  03184 83398 32596 50906 10274 20205 30151 40156 83540 333 59007;
0155833980999992009100400004-15667-038950FM-12+000599999V0200901N002110075019N0010001N1+02401+02081101771ADDGF105991051051008001001001MA1999999101711MD1999999-0031REMSYN088AAXX  04004 83398 32594 50904 10240 20208 30171 40177 85500 333 1//// 29074 55096 59003;
0156833980999992009100412004-15667-038950FM-12+000599999V0200901N001010450019N0040001N1+02681+01991101871ADDGF106991041051008001021001KA1240N+01901MA1999999101811MD1999999-0031REMSYN076AAXX  04124 83398 32596 60902 10268 20199 30181 40187 84520 333 20190 59003;
0137833980999992009100418004-15667-038950FM-12+000599999V0200901N003112200019N0040001N1+02721+02031101491ADDGF105991021021008001001011MA1999999101441MD1999999-0071REMSYN070AAXX  04184 83398 32596 50906 10272 20203 30144 40149 82201 333 59007;
0155833980999992009100500004-15667-038950FM-12+000599999V0209999C000012200019N0010001N1+02201+02051101751ADDGF104991041011008001001001MA1999999101691MD1999999-0021REMSYN088AAXX  05004 83398 32594 40000 10220 20205 30169 40175 84100 333 1//// 29079 55097 59002;
0156833980999992009100512004-15667-038950FM-12+000599999V0201401N003110450019N0040001N1+02761+02021101791ADDGF106991031021008001041001KA1240N+01871MA1999999101731MD1999999-0081REMSYN076AAXX  05124 83398 32596 61406 10276 20202 30173 40179 83240 333 20187 59008;
0137833980999992009100518004-15667-038950FM-12+000599999V0200901N003112200019N0040001N1+02781+02041101481ADDGF104991021011008001041001MA1999999101431MD1999999-0011REMSYN070AAXX  05184 83398 32596 40906 10278 20204 30143 40148 82140 333 59001;
0155833980999992009100600004-15667-038950FM-12+000599999V0209999C000012200019N0010001N1+02201+02051101671ADDGF103991021011008001041001MA1999999101611MD1999999-0081REMSYN088AAXX  06004 83398 32594 30000 10220 20205 30161 40167 82140 333 1//// 29077 55102 59008;
0156833980999992009100612004-15667-038950FM-12+000599999V0201401N001010450019N0040001N1+02801+02111101821ADDGF107991041051008001021001KA1240N+01871MA1999999101761MD1999999+0031REMSYN076AAXX  06124 83398 32596 71402 10280 20211 30176 40182 84520 333 20187 58003;
0137833980999992009100618004-15667-038950FM-12+000599999V0201401N003110075019N0040001N1+02681+02061101551ADDGF108991051051008001021999MA1999999101501MD1999999+0071REMSYN070AAXX  06184 83398 32596 81406 10268 20206 30150 40155 8552/ 333 58007;
0155833980999992009100700004-15667-038950FM-12+000599999V0209999C000012200019N0010001N1+02401+02131101761ADDGF102991021011008001001001MA1999999101701MD1999999+0091REMSYN088AAXX  07004 83398 32594 20000 10240 20213 30170 40176 82100 333 1//// 29076 55033 58009;
0156833980999992009100712004-15667-038950FM-12+000599999V0200501N002112200019N0040001N1+02801+02201101791ADDGF104991021021008001041001KA1240N+01981MA1999999101731MD1999999-0031REMSYN076AAXX  07124 83398 32596 40504 10280 20220 30173 40179 82240 333 20198 59003;
0137833980999992009100718004-15667-038950FM-12+000599999V0200501N002112200019N0040001N1+02801+02151101551ADDGF102991011011008001041001MA1999999101501MD1999999+0001REMSYN070AAXX  07184 83398 32596 20504 10280 20215 30150 40155 81140 333 58000;
0155833980999992009100800004-15667-038950FM-12+000599999V0200501N001012200019N0010001N1+02541+02351101741ADDGF103991021011008001041001MA1999999101681MD1999999-0021REMSYN088AAXX  08004 83398 32594 30502 10254 20235 30168 40174 82140 333 1//// 29079 55100 59002;
0201833980999992009100812004-15667-038950FM-12+000599999V0200501N004110075019N0040001N1+02761+02341101681ADDAA124007991AY161061AY221061GF108991051051008001021001KA1240N+02351MA1999999101621MD1999999-0111MW1021REMSYN088AAXX  08124 83398 21596 80508 10276 20234 30162 40168 70262 85520 333 20235 59011 60084;
0137833980999992009100818004-15667-038950FM-12+000599999V0200501N003110075019N0040001N1+02691+02231101341ADDGF108991051051008001021001MA1999999101291MD1999999-0211REMSYN070AAXX  08184 83398 32596 80506 10269 20223 30129 40134 85520 333 59021;
0155833980999992009100900004-15667-038950FM-12+000599999V0200501N003110450019N0010001N1+02571+02201101481ADDGF106991031051008001021001MA1999999101431MD1999999-0251REMSYN088AAXX  09004 83398 32594 60506 10257 20220 30143 40148 83520 333 1//// 29078 55043 59025;
0201833980999992009100912004-15667-038950FM-12+000599999V0203601N001010075019N0040001N1+02621+02351101401ADDAA124003091AY161061AY221061GF108991051051008001021001KA1240N+02381MA1999999101351MD1999999-0271MW1021REMSYN088AAXX  09124 83398 21596 83602 10262 20235 30135 40140 70262 85520 333 20238 59027 60034;
0182833980999992009100918004-15667-038950FM-12+000599999V0203601N004110075019N0040001N1+02681+02331101081ADDAA106002091AY161061AY221061GF108991051051008001021001MA1999999101031MD1999999-0261MW1021REMSYN082AAXX  09184 83398 21596 83608 10268 20233 30103 40108 70262 85520 333 59026 60021;
0200833980999992009101000004-15667-038950FM-12+000599999V0209999C000010075019N0010001N1+02221+02151101431ADDAA106007991AY161061AY221061GF108991051051008001021999MA1999999101381MD1999999-0051MW1521REMSYN100AAXX  10004 83398 21594 80000 10222 20215 30138 40143 75262 8552/ 333 1//// 29089 55019 59005 60081;
0201833980999992009101012004-15667-038950FM-12+000599999V0201401N003110075019N0040001N1+02581+02231101461ADDAA124014091AY161061AY221061GF108991051051008001021999KA1240N+02171MA1999999101411MD1999999+0061MW1021REMSYN088AAXX  10124 83398 21596 81406 10258 20223 30141 40146 70262 8552/ 333 20217 58006 60144;
0137833980999992009101018004-15667-038950FM-12+000599999V0201401N002110075019N0040001N1+02381+02221101211ADDGF108991051051008001021999MA1999999101161MD1999999+0131REMSYN070AAXX  10184 83398 32596 81404 10238 20222 30116 40121 8552/ 333 58013;
0155833980999992009101100004-15667-038950FM-12+000599999V0201801N002110450019N0010001N1+02271+02061101431ADDGF106991041051008001021001MA1999999101381MD1999999+0001REMSYN088AAXX  11004 83398 32594 61804 10227 20206 30138 40143 84520 333 1//// 29087 55002 58000;
0201833980999992009101112004-15667-038950FM-12+000599999V0209999C000010075019N0040001N1+02421+02281101431ADDAA124003091AY161061AY221061GF108991051051008001021999KA1240N+02151MA1999999101381MD1999999-0031MW1021REMSYN088AAXX  11124 83398 21596 80000 10242 20228 30138 40143 70262 8552/ 333 20215 59003 60034;
0182833980999992009101118004-15667-038950FM-12+000599999V0201801N003110450019N0040001N1+02661+02221101181ADDAA106002091AY161061AY221061GF106991041051008001021001MA1999999101131MD1999999-0031MW1021REMSYN082AAXX  11184 83398 21596 61806 10266 20222 30113 40118 70262 84520 333 59003 60021;
0155833980999992009101200004-15667-038950FM-12+000599999V0209999C000010450019N0010001N1+02261+02161101421ADDGF106991041051008001021001MA1999999101371MD1999999+0011REMSYN088AAXX  12004 83398 32594 60000 10226 20216 30137 40142 84520 333 1//// 29089 55020 58001;
0201833980999992009101212004-15667-038950FM-12+000599999V0200901N002110075019N0040001N1+02401+02351101481ADDAA124005191AY161061AY221061GF108991061051008001021999KA1240N+02121MA1999999101431MD1999999+0051MW1021REMSYN088AAXX  12124 83398 21596 80904 10240 20235 30143 40148 70262 8652/ 333 20212 58005 60054;
0137833980999992009101218004-15667-038950FM-12+000599999V0200901N002110450019N0040001N1+02761+02341101111ADDGF106991041051008001021001MA1999999101061MD1999999-0071REMSYN070AAXX  12184 83398 32596 60904 10276 20234 30106 40111 84520 333 59007;
0155833980999992009101300004-15667-038950FM-12+000599999V0209999C000010450019N0010001N1+02441+02341101431ADDGF106991041051008001021001MA1999999101381MD1999999+0011REMSYN088AAXX  13004 83398 32594 60000 10244 20234 30138 40143 84520 333 1//// 29091 55055 58001;
0156833980999992009101312004-15667-038950FM-12+000599999V0200501N002110450019N0010001N1+02841+02311101401ADDGF105991031051008001021001KA1240N+02001MA1999999101351MD1999999-0081REMSYN076AAXX  13124 83398 32594 50504 10284 20231 30135 40140 83520 333 20200 59008;
0137833980999992009101318004-15667-038950FM-12+000599999V0200901N003110450019N0040001N1+02841+02381101011ADDGF105991031051008001041001MA1999999100961MD1999999-0101REMSYN070AAXX  13184 83398 32596 50906 10284 20238 30096 40101 83540 333 59010;
0155833980999992009101400004-15667-038950FM-12+000599999V0209999C000010450019N0010001N1+02581+02421101331ADDGF106991041051008001021001MA1999999101281MD1999999-0101REMSYN088AAXX  14004 83398 32594 60000 10258 20242 30128 40133 84520 333 1//// 29083 55094 59010;
0156833980999992009101412004-15667-038950FM-12+000599999V0200501N002110450019N0040001N1+02801+02361101421ADDGF105991031051008001041001KA1240N+02161MA1999999101371MD1999999+0021REMSYN076AAXX  14124 83398 32596 50504 10280 20236 30137 40142 83540 333 20216 58002;
0137833980999992009101418004-15667-038950FM-12+000599999V0200901N003110450019N0040001N1+02901+02371101141ADDGF105991021021008001041001MA1999999101091MD1999999+0131REMSYN070AAXX  14184 83398 32596 50906 10290 20237 30109 40114 82240 333 58013;
0155833980999992009101500004-15667-038950FM-12+000599999V0200901N003110075019N0010001N1+02601+02421101421ADDGF105991051051008001001001MA1999999101371MD1999999-0091REMSYN088AAXX  15004 83398 32594 50906 10260 20242 30137 40142 85500 333 1//// 29083 55098 59009;
0201833980999992009101512004-15667-038950FM-12+000599999V0209999C000010075019N0040001N1+02401+02351101471ADDAA124046091AY161061AY221061GF108991051071008001021999KA1240N+02241MA1999999101421MD1999999+0051MW1621REMSYN088AAXX  15124 83398 21596 80000 10240 20235 30142 40147 76262 8572/ 333 20224 58005 60464;
0182833980999992009101518004-15667-038950FM-12+000599999V0203601N004110450019N0040001N1+02761+02361101141ADDAA106003091AY161061AY221061GF106991041051008001021001MA1999999101091MD1999999+0001MW1021REMSYN082AAXX  15184 83398 21596 63608 10276 20236 30109 40114 70262 84520 333 58000 60031;
0155833980999992009101600004-15667-038950FM-12+000599999V0203601N004110075019N0010001N1+02601+02421101451ADDGF105991051051008001001001MA1999999101401MD1999999+0031REMSYN088AAXX  16004 83398 32594 53608 10260 20242 30140 40145 85500 333 1//// 29089 55075 58003;
0173833980999992009101612004-15667-038950FM-12+000599999V0203601N005110450019N0040001N1+02901+02431101591ADDAA124003091GF106991041051008001021001KA1240N+02401MA1999999101541MD1999999+0121REMSYN082AAXX  16124 83398 22596 63610 10290 20243 30154 40159 84520 333 20240 58012 60034;
0137833980999992009101618004-15667-038950FM-12+000599999V0203601N004110450019N0040001N1+02861+02391101351ADDGF106991041051008001021001MA1999999101301MD1999999+0211REMSYN070AAXX  16184 83398 32596 63608 10286 20239 30130 40135 84520 333 58021;
0155833980999992009101700004-15667-038950FM-12+000599999V0203601N003110450019N0010001N1+02601+02421101541ADDGF106991041051008001021001MA1999999101491MD1999999+0091REMSYN088AAXX  17004 83398 32594 63606 10260 20242 30149 40154 84520 333 1//// 29083 55104 58009;
0156833980999992009101712004-15667-038950FM-12+000599999V0203601N003110075019N0040001N1+02861+02331101701ADDGF105991051051008001001001KA1240N+02201MA1999999101641MD1999999+0101REMSYN076AAXX  17124 83398 32596 53606 10286 20233 30164 40170 85500 333 20220 58010;
0137833980999992009101718004-15667-038950FM-12+000599999V0200501N003110450019N0040001N1+02921+02321101381ADDGF105991031021008001041001MA1999999101331MD1999999+0031REMSYN070AAXX  17184 83398 32596 50506 10292 20232 30133 40138 83240 333 58003;
0155833980999992009101800004-15667-038950FM-12+000599999V0200501N002112200019N0010001N1+02561+02331101551ADDGF103991031011008001001001MA1999999101501MD1999999+0011REMSYN088AAXX  18004 83398 32594 30504 10256 20233 30150 40155 83100 333 1//// 29079 55103 58001;
0156833980999992009101812004-15667-038950FM-12+000599999V0203601N003110450019N0040001N1+02861+02391101571ADDGF106991041051008001021001KA1240N+02161MA1999999101521MD1999999-0121REMSYN076AAXX  18124 83398 32596 63606 10286 20239 30152 40157 84520 333 20216 59012;
0137833980999992009101818004-15667-038950FM-12+000599999V0203601N003110450019N0040001N1+02841+02331101191ADDGF106991021051008001041011MA1999999101141MD1999999-0191REMSYN070AAXX  18184 83398 32596 63606 10284 20233 30114 40119 82541 333 59019;
0155833980999992009101900004-15667-038950FM-12+000599999V0209999C000010075019N0040001N1+02581+02331101271ADDGF105991051051008001001001MA1999999101221MD1999999-0281REMSYN088AAXX  19004 83398 32596 50000 10258 20233 30122 40127 85500 333 1//// 29081 55101 59028;
0156833980999992009101912004-15667-038950FM-12+000599999V0200501N005110450019N0040001N1+02841+02291101431ADDGF106991041051008001021001KA1240N+02181MA1999999101381MD1999999-0141REMSYN076AAXX  19124 83398 32596 60510 10284 20229 30138 40143 84520 333 20218 59014;
0137833980999992009101918004-15667-038950FM-12+000599999V0203601N006212200019N0040001N1+02831+02161101001ADDGF102991011011008001041011MA1999999100951MD1999999-0191REMSYN070AAXX  19184 83398 32596 23612 10283 20216 30095 40100 81141 333 59019;
0155833980999992009102000004-15667-038950FM-12+000599999V0203601N001012200019N0010001N1+02521+02191101301ADDGF102991011011008001041001MA1999999101251MD1999999+0031REMSYN088AAXX  20004 83398 32594 23602 10252 20219 30125 40130 81140 333 1//// 29076 55102 58003;
0156833980999992009102012004-15667-038950FM-12+000599999V0203601N004110450019N0040001N1+02811+02281101381ADDGF106991031051008001041001KA1240N+02131MA1999999101331MD1999999-0051REMSYN076AAXX  20124 83398 32596 63608 10281 20228 30133 40138 83540 333 20213 59005;
0137833980999992009102018004-15667-038950FM-12+000599999V0200501N004112200019N0040001N1+02851+02231101111ADDGF103991011011008001041011MA1999999101061MD1999999+0111REMSYN070AAXX  20184 83398 32596 30508 10285 20223 30106 40111 81141 333 58011;
0155833980999992009102100004-15667-038950FM-12+000599999V0200501N002112200019N0010001N1+02561+02291101261ADDGF102991011011008001041001MA1999999101211MD1999999-0041REMSYN088AAXX  21004 83398 32594 20504 10256 20229 30121 40126 81140 333 1//// 29078 55089 59004;
0156833980999992009102112004-15667-038950FM-12+000599999V0203201N003110450019N0040001N1+02831+02341101361ADDGF107991041051008001021001KA1240N+02211MA1999999101311MD1999999-0021REMSYN076AAXX  21124 83398 32596 73206 10283 20234 30131 40136 84520 333 20221 59002;
0137833980999992009102118004-15667-038950FM-12+000599999V0203201N003112200019N0040001N1+02841+02381101061ADDGF102991011011008001041001MA1999999101011MD1999999-0051REMSYN070AAXX  21184 83398 32596 23206 10284 20238 30101 40106 81140 333 59005;
0155833980999992009102200004-15667-038950FM-12+000599999V0203601N003112200019N0010001N1+02601+02421101261ADDGF102991011011008001041001MA1999999101211MD1999999+0001REMSYN088AAXX  22004 83398 32594 23606 10260 20242 30121 40126 81140 333 1//// 29083 55087 58000;
0156833980999992009102212004-15667-038950FM-12+000599999V0203601N006210450019N0040001N1+02951+02341101151ADDGF107991041051008001021001KA1240N+02451MA1999999101101MD1999999-0111REMSYN076AAXX  22124 83398 32596 73612 10295 20234 30110 40115 84520 333 20245 59011;
0137833980999992009102218004-15667-038950FM-12+000599999V0203601N006210450019N0040001N1+02841+02351100881ADDGF107991041051008001021001MA1999999100831MD1999999-0181REMSYN070AAXX  22184 83398 32596 73612 10284 20235 30083 40088 84520 333 59018;
0155833980999992009102300004-15667-038950FM-12+000599999V0203601N003110450019N0010001N1+02601+02331101121ADDGF107991041051008001021001MA1999999101071MD1999999-0141REMSYN088AAXX  23004 83398 32594 73606 10260 20233 30107 40112 84520 333 1//// 29079 55077 59014;
0201833980999992009102312004-15667-038950FM-12+000599999V0203201N005110075019N0040001N1+02841+02331101051ADDAA124016091AY161061AY221061GF108991051051008001021999KA1240N+02221MA1999999101001MD1999999-0101MW1021REMSYN088AAXX  23124 83398 21596 83210 10284 20233 30100 40105 70262 8552/ 333 20222 59010 60164;
0137833980999992009102318004-15667-038950FM-12+000599999V0203601N008212200019N0040001N1+02801+02341100741ADDGF104991021011008001041011MA1999999100691MD1999999-0141REMSYN070AAXX  23184 83398 32596 43616 10280 20234 30069 40074 82141 333 59014;
0200833980999992009102400004-15667-038950FM-12+000599999V0209999C000010075019N0010001N1+02501+02451101211ADDAA106003091AY161061AY221061GF108991051051008001021999MA1999999101161MD1999999+0091MW1511REMSYN100AAXX  24004 83398 21594 80000 10250 20245 30116 40121 75162 8552/ 333 1//// 29086 55064 58009 60031;
0201833980999992009102412004-15667-038950FM-12+000599999V0200501N003110075019N0040001N1+02631+02341101291ADDAA124007191AY161061AY221061GF108991051051008001021001KA1240N+02251MA1999999101241MD1999999+0241MW1021REMSYN088AAXX  24124 83398 21596 80506 10263 20234 30124 40129 70262 85520 333 20225 58024 60074;
0137833980999992009102418004-15667-038950FM-12+000599999V0200501N003110075019N0040001N1+02741+02341100891ADDGF108991051051008001021001MA1999999100841MD1999999+0151REMSYN070AAXX  24184 83398 32596 80506 10274 20234 30084 40089 85520 333 58015;
0155833980999992009102500004-15667-038950FM-12+000599999V0209999C000010450019N0010001N1+02541+02421101221ADDGF107991041051008001021001MA1999999101171MD1999999+0011REMSYN088AAXX  25004 83398 32594 70000 10254 20242 30117 40122 84520 333 1//// 29087 55050 58001;
0156833980999992009102512004-15667-038950FM-12+000599999V0209999C000010075019N0040001N1+02801+02361101121ADDGF108991051051008001021001KA1240N+02301MA1999999101071MD1999999-0171REMSYN076AAXX  25124 83398 32596 80000 10280 20236 30107 40112 85520 333 20230 59017;
0137833980999992009102518004-15667-038950FM-12+000599999V0203601N004110450019N0040001N1+02841+02461100831ADDGF107991041051008001021001MA1999999100781MD1999999-0061REMSYN070AAXX  25184 83398 32596 73608 10284 20246 30078 40083 84520 333 59006;
0155833980999992009102600004-15667-038950FM-12+000599999V0200501N003112200019N0010001N1+02561+02401101161ADDGF104991021021008001041001MA1999999101111MD1999999-0061REMSYN088AAXX  26004 83398 32594 40506 10256 20240 30111 40116 82240 333 1//// 29085 55071 59006;
0201833980999992009102612004-15667-038950FM-12+000599999V0209999C000010075019N0040001N1+02441+02421101361ADDAA124008991AY161061AY221061GF108991051071008001021999KA1240N+02241MA1999999101311MD1999999+0241MW1631REMSYN088AAXX  26124 83398 21596 80000 10244 20242 30131 40136 76362 8572/ 333 20224 58024 60094;
0182833980999992009102618004-15667-038950FM-12+000599999V0203601N003110075019N0040001N1+02541+02471101091ADDAA106021191AY161061AY221061GF107991051051008001021001MA1999999101041MD1999999+0261MW1021REMSYN082AAXX  26184 83398 21596 73606 10254 20247 30104 40109 70262 85520 333 58026 60211;
0200833980999992009102700004-15667-038950FM-12+000599999V0203601N002110075019N0010001N1+02441+02391101321ADDAA106001091AY161061AY221061GF108991051051008001021999MA1999999101271MD1999999+0161MW1021REMSYN100AAXX  27004 83398 21594 83604 10244 20239 30127 40132 70262 8552/ 333 1//// 29097 55000 58016 60011;
0201833980999992009102712004-15667-038950FM-12+000599999V0203601N002110450019N0040001N1+02381+02361101351ADDAA124057991AY161061AY221061GF108991041071008001021999KA1240N+02261MA1999999101301MD1999999-0011MW1621REMSYN088AAXX  27124 83398 21596 83604 10238 20236 30130 40135 76262 8472/ 333 20226 59001 60584;
0182833980999992009102718004-15667-038950FM-12+000599999V0203601N004110075019N0040001N1+02541+02451101101ADDAA106004191AY161061AY221061GF108991051051008001021999MA1999999101051MD1999999+0011MW1021REMSYN082AAXX  27184 83398 21596 83608 10254 20245 30105 40110 70262 8552/ 333 58001 60041;
0200833980999992009102800004-15667-038950FM-12+000599999V0203601N002110075019N0010001N1+02521+02451101351ADDAA106005191AY161061AY221061GF108991051051008001021999MA1999999101301MD1999999+0031MW1021REMSYN100AAXX  28004 83398 21594 83604 10252 20245 30130 40135 70262 8552/ 333 1//// 29097 55007 58003 60051;
0201833980999992009102812004-15667-038950FM-12+000599999V0203601N002110075019N0040001N1+02401+02351101481ADDAA124046091AY161061AY221061GF108991051071008001021999KA1240N+02301MA1999999101431MD1999999+0131MW1601REMSYN088AAXX  28124 83398 21596 83604 10240 20235 30143 40148 76062 8572/ 333 20230 58013 60464;
0182833980999992009102818004-15667-038950FM-12+000599999V0203601N004110450019N0040001N1+02501+02361101181ADDAA106002091AY161061AY221061GF108991031071008001021999MA1999999101131MD1999999+0081MW1531REMSYN082AAXX  28184 83398 21596 83608 10250 20236 30113 40118 75362 8372/ 333 58008 60021;
0201833980999992009102912004-15667-038950FM-12+000599999V0203601N005110075019N0040001N1+02701+02411101371ADDAA124018091AY161061AY221061GF108991051051008001021999KA1240N+02261MA1999999101321MD1999999-0111MW1021REMSYN088AAXX  29124 83398 21596 83610 10270 20241 30132 40137 70262 8552/ 333 20226 59011 60184;
0137833980999992009102918004-15667-038950FM-12+000599999V0203601N005110450019N0040001N1+02801+02461101121ADDGF107991041051008001021001MA1999999101071MD1999999-0061REMSYN070AAXX  29184 83398 32596 73610 10280 20246 30107 40112 84520 333 59006;
0200833980999992009103000004-15667-038950FM-12+000599999V0203601N003110075019N0010001N1+02421+02331101251ADDAA106001091AY161061AY221061GF108991051051008001021999MA1999999101221MD1999999-0121MW1021REMSYN100AAXX  30004 83398 21594 83606 10242 20233 30122 40125 70262 8552/ 333 1//// 29089 55011 59012 60011;
0201833980999992009103012004-15667-038950FM-12+000599999V0203601N003110075019N0040001N1+02661+02431101121ADDAA124005191AY161061AY221061GF108991051051008001021999KA1240N+02281MA1999999101071MD1999999-0251MW1021REMSYN088AAXX  30124 83398 21596 83606 10266 20243 30107 40112 70262 8552/ 333 20228 59025 60054;
0182833980999992009103018004-15667-038950FM-12+000599999V0203601N005110075019N0040001N1+02661+02481100861ADDAA106001091AY161061AY221061GF108991051051008001021999MA1999999100811MD1999999-0261MW1021REMSYN082AAXX  30184 83398 21596 83610 10266 20248 30081 40086 70262 8552/ 333 59026 60011;
0155833980999992009103100004-15667-038950FM-12+000599999V0203601N003110075019N0010001N1+02541+02441101161ADDGF108991051051008001021001MA1999999101111MD1999999-0111REMSYN088AAXX  31004 83398 32594 83606 10254 20244 30111 40116 85520 333 1//// 29091 55000 59011;
0201833980999992009103112004-15667-038950FM-12+000599999V0203601N006210450019N0040001N1+02421+02351101271ADDAA124004191AY161061AY221061GF108991041071008001021999KA1240N+02301MA1999999101221MD1999999+0151MW1621REMSYN088AAXX  31124 83398 21596 83612 10242 20235 30122 40127 76262 8472/ 333 20230 58015 60044;
0182833980999992009103118004-15667-038950FM-12+000599999V0203601N003110075019N0040001N1+02621+02411101031ADDAA106003091AY161061AY221061GF108991051051008001021999MA1999999100981MD1999999+0171MW1021REMSYN082AAXX  31184 83398 21596 83606 10262 20241 30098 40103 70262 8552/ 333 58017 60031;
0155833980999992009110100004-15667-038950FM-12+000599999V0203601N002110075019N0010001N1+02501+02411101261ADDGF108991051051008001021999MA1999999101211MD1999999+0101REMSYN088AAXX  01004 83398 32594 83604 10250 20241 30121 40126 8552/ 333 1//// 29094 55001 58010;
0173833980999992009110112004-15667-038950FM-12+000599999V0203601N003110450019N0040001N1+02801+02501101271ADDAA124003091GF108991041051008001021001KA1240N+02361MA1999999101321MD1999999+0101REMSYN082AAXX  01124 83398 22596 83606 10280 20250 30132 40127 84520 333 20236 58010 60034;
0137833980999992009110118004-15667-038950FM-12+000599999V0203601N004110450019N0040001N1+02841+02381101161ADDGF105991031051008001021001MA1999999101111MD1999999+0131REMSYN070AAXX  01184 83398 32596 53608 10284 20238 30111 40116 83520 333 58013;
0155833980999992009110200004-15667-038950FM-12+000599999V0203601N002110450019N0010001N1+02561+02381101471ADDGF106991041051008001021001MA1999999101421MD1999999+0211REMSYN088AAXX  02004 83398 32594 63604 10256 20238 30142 40147 84520 333 1//// 29085 55096 58021;
0156833980999992009110212004-15667-038950FM-12+000599999V0203601N003110075019N0040001N1+02781+02211101581ADDGF108991051051008001021001KA1240N+02331MA1999999101531MD1999999+0211REMSYN076AAXX  02124 83398 32596 83606 10278 20221 30153 40158 85520 333 20233 58021;
0137833980999992009110218004-15667-038950FM-12+000599999V0203601N002110450019N0040001N1+02791+02191101281ADDGF105991021021008001041001MA1999999101231MD1999999+0121REMSYN070AAXX  02184 83398 32596 53604 10279 20219 30123 40128 82240 333 58012;
0155833980999992009110300004-15667-038950FM-12+000599999V0203601N001012200019N0010001N1+02501+02311101501ADDGF103991011011008001041011MA1999999101451MD1999999+0031REMSYN088AAXX  03004 83398 32594 33602 10250 20231 30145 40150 81141 333 1//// 29080 55083 58003;
0156833980999992009110312004-15667-038950FM-12+000599999V0203601N003112200019N0040001N1+02821+02241101471ADDGF103991021011008001041001KA1240N+02211MA1999999101421MD1999999-0111REMSYN076AAXX  03124 83398 32596 33606 10282 20224 30142 40147 82140 333 20221 59011;
0137833980999992009110318004-15667-038950FM-12+000599999V0203601N003112200019N0040001N1+02801+02251101231ADDGF104991011011008001041011MA1999999101181MD1999999-0051REMSYN070AAXX  03184 83398 32596 43606 10280 20225 30118 40123 81141 333 59005;
0155833980999992009110400004-15667-038950FM-12+000599999V0209999C000012200019N0010001N1+02501+02211101431ADDGF103991011011008001041001MA1999999101381MD1999999-0071REMSYN088AAXX  04004 83398 32594 30000 10250 20221 30138 40143 81140 333 1//// 29078 55104 59007;
0156833980999992009110412004-15667-038950FM-12+000599999V0203601N001011050019N0040001N1+02801+02151101581ADDGF105991021021008001041011KA1240N+02021MA1999999101531MD1999999+0111REMSYN076AAXX  04124 83398 32596 53602 10280 20215 30153 40158 82241 333 20202 58011;
0137833980999992009110418004-15667-038950FM-12+000599999V0203601N003110450019N0040001N1+02691+02211101381ADDGF106991031021008001041011MA1999999101331MD1999999+0151REMSYN070AAXX  04184 83398 32596 63606 10269 20221 30133 40138 83241 333 58015;
0155833980999992009110500004-15667-038950FM-12+000599999V0209999C000010450019N0010001N1+02441+02231101651ADDGF106991031051008001041011MA1999999101591MD1999999+0211REMSYN088AAXX  05004 83398 32594 60000 10244 20223 30159 40165 83541 333 1//// 29080 55093 58021;
0201833980999992009110512004-15667-038950FM-12+000599999V0203601N001010450019N0040001N1+02801+02401101811ADDAA124002091AY161061AY221061GF107991041051008001021001KA1240N+02181MA1999999101751MD1999999+0221MW1021REMSYN088AAXX  05124 83398 21596 73602 10280 20240 30175 40181 70262 84520 333 20218 58022 60024;
0137833980999992009110518004-15667-038950FM-12+000599999V0203601N002110075019N0040001N1+02761+02281101611ADDGF108991051051008001021001MA1999999101551MD1999999+0221REMSYN070AAXX  05184 83398 32596 83604 10276 20228 30155 40161 85520 333 58022;
0155833980999992009110600004-15667-038950FM-12+000599999V0209999C000010450019N0010001N1+02521+02341101681ADDGF106991031051008001021001MA1999999101621MD1999999+0031REMSYN088AAXX  06004 83398 32594 60000 10252 20234 30162 40168 83520 333 1//// 29083 55018 58003;
0156833980999992009110612004-15667-038950FM-12+000599999V0203601N003110075019N0040001N1+02881+02321101711ADDGF108991051051008001021001KA1240N+02301MA1999999101651MD1999999-0101REMSYN076AAXX  06124 83398 32596 83606 10288 20232 30165 40171 85520 333 20230 59010;
0137833980999992009110618004-15667-038950FM-12+000599999V0203601N003112200019N0040001N1+02821+02201101391ADDGF102991011011008001041001MA1999999101341MD1999999-0211REMSYN070AAXX  06184 83398 32596 23606 10282 20220 30134 40139 81140 333 59021;
0155833980999992009110700004-15667-038950FM-12+000599999V0209999C000012200019N0010001N1+02521+02291101491ADDGF102991011011008001041001MA1999999101441MD1999999+0181REMSYN088AAXX  07004 83398 32594 20000 10252 20229 30144 40149 81140 333 1//// 29079 55102 58018;
0156833980999992009110712004-15667-038950FM-12+000599999V0200501N003112200019N0040001N1+02861+02211101511ADDGF104991021021008001041001KA1240N+02211MA1999999101461MD1999999-0191REMSYN076AAXX  07124 83398 32596 40506 10286 20221 30146 40151 82240 333 20221 59019;
0137833980999992009110718004-15667-038950FM-12+000599999V0200501N003112200019N0040001N1+02821+02171101211ADDGF103991011011008001041001MA1999999101161MD1999999-0181REMSYN070AAXX  07184 83398 32596 30506 10282 20217 30116 40121 81140 333 59018;
0155833980999992009110800004-15667-038950FM-12+000599999V0209999C000012200019N0010001N1+02501+02211101331ADDGF102991011011008001041001MA1999999101281MD1999999-0161REMSYN088AAXX  08004 83398 32594 20000 10250 20221 30128 40133 81140 333 1//// 29076 55114 59016;
0156833980999992009110812004-15667-038950FM-12+000599999V0200501N005110450019N0040001N1+02861+02231101391ADDGF106991031051008001021001KA1240N+02061MA1999999101341MD1999999-0121REMSYN076AAXX  08124 83398 32596 60510 10286 20223 30134 40139 83520 333 20206 59012;
0137833980999992009110818004-15667-038950FM-12+000599999V0203601N004111050019N0040001N1+02801+02341101001ADDGF105991021011008001041011MA1999999100951MD1999999-0211REMSYN070AAXX  08184 83398 32596 53608 10280 20234 30095 40100 82141 333 59021;
0155833980999992009110900004-15667-038950FM-12+000599999V0209999C000012200019N0010001N1+02561+02311101291ADDGF102991011011008001041001MA1999999101241MD1999999-0041REMSYN088AAXX  09004 83398 32594 20000 10256 20231 30124 40129 81140 333 1//// 29079 55103 59004;
0156833980999992009110912004-15667-038950FM-12+000599999V0203601N004110450019N0040001N1+02881+02301101381ADDGF106991031051008001021001KA1240N+02241MA1999999101331MD1999999-0011REMSYN076AAXX  09124 83398 32596 63608 10288 20230 30133 40138 83520 333 20224 59001;
0137833980999992009110918004-15667-038950FM-12+000599999V0203601N004110450019N0040001N1+02781+02341101041ADDGF105991021011008001041001MA1999999100991MD1999999+0041REMSYN070AAXX  09184 83398 32596 53608 10278 20234 30099 40104 82140 333 58004;
0155833980999992009111000004-15667-038950FM-12+000599999V0203601N002112200019N0010001N1+02561+02291101271ADDGF102991011011008001041001MA1999999101221MD1999999-0021REMSYN088AAXX  10004 83398 32594 23604 10256 20229 30122 40127 81140 333 1//// 29079 55092 59002;
0156833980999992009111012004-15667-038950FM-12+000599999V0203601N004110450019N0040001N1+02901+02301101481ADDGF105991031021008001041001KA1240N+02141MA1999999101431MD1999999+0101REMSYN076AAXX  10124 83398 32596 53608 10290 20230 30143 40148 83240 333 20214 58010;
0137833980999992009111018004-15667-038950FM-12+000599999V0203601N003112200019N0040001N1+02861+02231101131ADDGF102991011011008001041001MA1999999101081MD1999999+0091REMSYN070AAXX  10184 83398 32596 23606 10286 20223 30108 40113 81140 333 58009;
0155833980999992009111100004-15667-038950FM-12+000599999V0203601N002110450019N0010001N1+02581+02291101401ADDGF107991041051008001021001MA1999999101351MD1999999+0131REMSYN088AAXX  11004 83398 32594 73604 10258 20229 30135 40140 84520 333 1//// 29077 55114 58013;
0201833980999992009111112004-15667-038950FM-12+000599999V0209999C000010075019N0040001N1+02461+02341101441ADDAA124002091AY161061AY221061GF108991051051008001021999KA1240N+02261MA1999999101391MD1999999-0041MW1021REMSYN088AAXX  11124 83398 21596 80000 10246 20234 30139 40144 70262 8552/ 333 20226 59004 60024;
0137833980999992009111118004-15667-038950FM-12+000599999V0203601N001010450019N0040001N1+02801+02181101111ADDGF106991031051008001021001MA1999999101061MD1999999-0021REMSYN070AAXX  11184 83398 32596 63602 10280 20218 30106 40111 83520 333 59002;
0155833980999992009111200004-15667-038950FM-12+000599999V0209999C000012200019N0010001N1+02361+02221101401ADDGF102991011011008001041001MA1999999101351MD1999999+0001REMSYN088AAXX  12004 83398 32594 20000 10236 20222 30135 40140 81140 333 1//// 29086 55046 58000;
0156833980999992009111212004-15667-038950FM-12+000599999V0200501N003110450019N0040001N1+02901+02201101361ADDGF106991031021008001041001KA1240N+02051MA1999999101311MD1999999-0081REMSYN076AAXX  12124 83398 32596 60506 10290 20220 30131 40136 83240 333 20205 59008;
0137833980999992009111218004-15667-038950FM-12+000599999V0200501N003112200019N0040001N1+02841+02171100971ADDGF102991011011008001041001MA1999999100921MD1999999-0141REMSYN070AAXX  12184 83398 32596 20506 10284 20217 30092 40097 81140 333 59014;
0155833980999992009111300004-15667-038950FM-12+000599999V0209999C000012200019N0010001N1+02561+02151101231ADDGF102991011011008001041001MA1999999101181MD1999999-0171REMSYN088AAXX  13004 83398 32594 20000 10256 20215 30118 40123 81140 333 1//// 29072 55117 59017;
0175833980999992009111312004-15667-038950FM-12+000599999V0200901N002119999999N0040001N1+02881+02211101391ADDGF106991999021008001001001KA1240N+02031MA1999999101341MD1999999+0031REMSYN076AAXX  13124 83398 32596 60904 10288 20221 30134 40139 83200 333 20203 58003;EQDQ01+000032SCOTLC
0137833980999992009111318004-15667-038950FM-12+000599999V0201401N002112200019N0040001N1+02851+02231101161ADDGF103991011011008001041011MA1999999101111MD1999999+0191REMSYN070AAXX  13184 83398 32596 31404 10285 20223 30111 40116 81141 333 58019;
0155833980999992009111400004-15667-038950FM-12+000599999V0200501N002112200019N0010001N1+02601+02191101361ADDGF102991011011008001041001MA1999999101311MD1999999+0131REMSYN088AAXX  14004 83398 32594 20504 10260 20219 30131 40136 81140 333 1//// 29073 55112 58013;
0201833980999992009111412004-15667-038950FM-12+000599999V0200901N001010075019N0040001N1+02441+02341101561ADDAA124003091AY161061AY221061GF108991051051008001021999KA1240N+02201MA1999999101511MD1999999+0171MW1021REMSYN088AAXX  14124 83398 21596 80902 10244 20234 30151 40156 70262 8552/ 333 20220 58017 60034;
0137833980999992009111418004-15667-038950FM-12+000599999V0200501N002110450019N0040001N1+02661+02221101241ADDGF107991041051008001021001MA1999999101191MD1999999+0081REMSYN070AAXX  14184 83398 32596 70504 10266 20222 30119 40124 84520 333 58008;
0155833980999992009111500004-15667-038950FM-12+000599999V0209999C000012200019N0010001N1+02361+02291101551ADDGF102991011021008001041001MA1999999101501MD1999999+0191REMSYN088AAXX  15004 83398 32594 20000 10236 20229 30150 40155 81240 333 1//// 29091 55058 58019;
0156833980999992009111512004-15667-038950FM-12+000599999V0203601N004112200019N0040001N1+02841+02221101391ADDGF103991021011008001041001KA1240N+02071MA1999999101341MD1999999-0171REMSYN076AAXX  15124 83398 32596 33608 10284 20222 30134 40139 82140 333 20207 59017;
0137833980999992009111518004-15667-038950FM-12+000599999V0203601N006212200019N0040001N1+02821+02171100991ADDGF102991011011008001041001MA1999999100941MD1999999-0251REMSYN070AAXX  15184 83398 32596 23612 10282 20217 30094 40099 81140 333 59025;
0155833980999992009111600004-15667-038950FM-12+000599999V0203601N002112200019N0010001N1+02561+02291101131ADDGF102991011011008001041001MA1999999101081MD1999999-0421REMSYN088AAXX  16004 83398 32594 23604 10256 20229 30108 40113 81140 333 1//// 29077 55104 59042;
0156833980999992009111612004-15667-038950FM-12+000599999V0203601N002110450019N0040001N1+02801+02421101201ADDGF106991041051008001021001KA1240N+02201MA1999999101151MD1999999-0191REMSYN076AAXX  16124 83398 32596 63604 10280 20242 30115 40120 84520 333 20220 59019;
0137833980999992009111618004-15667-038950FM-12+000599999V0203601N007212200019N0040001N1+02821+02401100861ADDGF104991021011008001041001MA1999999100811MD1999999-0131REMSYN070AAXX  16184 83398 32596 43614 10282 20240 30081 40086 82140 333 59013;
0155833980999992009111700004-15667-038950FM-12+000599999V0203601N002112200019N0010001N1+02541+02331100981ADDGF102991011011008001041001MA1999999100931MD1999999-0151REMSYN088AAXX  17004 83398 32594 23604 10254 20233 30093 40098 81140 333 1//// 29083 55094 59015;
0156833980999992009111712004-15667-038950FM-12+000599999V0209999C000010075019N0040001N1+02801+02221101281ADDGF108991051051008001021999KA1240N+02171MA1999999101231MD1999999+0081REMSYN076AAXX  17124 83398 32596 80000 10280 20222 30123 40128 8552/ 333 20217 58008;
0182833980999992009111718004-15667-038950FM-12+000599999V0209999C000010075019N0040001N1+02641+02481101171ADDAA106000591AY151061AY211061GF108991051051008001021999MA1999999101121MD1999999+0311MW1021REMSYN082AAXX  17184 83398 21596 80000 10264 20248 30112 40117 70251 8552/ 333 58031 69951;
0155833980999992009111800004-15667-038950FM-12+000599999V0209999C000010075019N0010001N1+02441+02421101511ADDGF108991051051008001021999MA1999999101461MD1999999+0531REMSYN088AAXX  18004 83398 32594 80000 10244 20242 30146 40151 8552/ 333 1//// 29090 55015 58053;
0201833980999992009111812004-15667-038950FM-12+000599999V0209999C000010075019N0040001N1+02461+02321101561ADDAA124002091AY161061AY221061GF108991051051008001021999KA1240N+02301MA1999999101511MD1999999+0281MW1021REMSYN088AAXX  18124 83398 21596 80000 10246 20232 30151 40156 70262 8552/ 333 20230 58028 60024;
0141833980999992009111818004-15667-038950FM-12+000599999V0200901N002112200019N0040001N1+02831+02251101211ADDGF104991021011008001041001MD1999999+0041REMSYN070AAXX  18184 83398 32596 40904 10283 20225 30016 40121 82140 333 58004;EQDQ01+100163APOSP 
0155833980999992009111900004-15667-038950FM-12+000599999V0209999C000010075019N0010001N1+02601+02311101541ADDGF108991051051008001021999MA1999999101491MD1999999+0031REMSYN088AAXX  19004 83398 32594 80000 10260 20231 30149 40154 8552/ 333 1//// 29083 55044 58003;
0201833980999992009111912004-15667-038950FM-12+000599999V0200501N003110450019N0040001N1+02821+02311101681ADDAA124007191AY161061AY221061GF106991041051008001021001KA1240N+02251MA1999999101621MD1999999+0111MW1021REMSYN088AAXX  19124 83398 21596 60506 10282 20231 30162 40168 70262 84520 333 20225 58011 60074;
0137833980999992009111918004-15667-038950FM-12+000599999V0203601N003110450019N0040001N1+02821+02291101351ADDGF105991021021008001041001MA1999999101301MD1999999+0141REMSYN070AAXX  19184 83398 32596 53606 10282 20229 30130 40135 82240 333 58014;
0155833980999992009112000004-15667-038950FM-12+000599999V0209999C000010075019N0010001N1+02491+02121101651ADDGF108991051051008001021999MA1999999101591MD1999999+0101REMSYN088AAXX  20004 83398 32594 80000 10249 20212 30159 40165 8552/ 333 1//// 29077 55092 58010;
0201833980999992009112012004-15667-038950FM-12+000599999V0200501N003112200019N0040001N1+02851+02231101731ADDAA124001091AY161061AY221061GF104991021021008001041001KA1240N+02171MA1999999101671MD1999999+0051MW1021REMSYN088AAXX  20124 83398 21596 40506 10285 20223 30167 40173 70262 82240 333 20217 58005 60014;
0182833980999992009112018004-15667-038950FM-12+000599999V0200501N003110450019N0040001N1+02801+02311101461ADDAA106000891AY151061AY211061GF105991031021008001041001MA1999999101411MD1999999+0111MW1021REMSYN082AAXX  20184 83398 21596 50506 10280 20231 30141 40146 70251 83240 333 58011 69971;
0155833980999992009112100004-15667-038950FM-12+000599999V0203601N001012200019N0010001N1+02521+02311101531ADDGF103991011021008001041001MA1999999101481MD1999999-0111REMSYN088AAXX  21004 83398 32594 33602 10252 20231 30148 40153 81240 333 1//// 29080 55104 59011;
0173833980999992009112112004-15667-038950FM-12+000599999V0203601N003110450019N0040001N1+02841+02351101811ADDAA124000891GF106991041051008001021001KA1240N+02081MA1999999101751MD1999999+0081REMSYN082AAXX  21124 83398 22596 63606 10284 20235 30175 40181 84520 333 20208 58008 69974;
0137833980999992009112118004-15667-038950FM-12+000599999V0200901N005110450019N0040001N1+02901+02221101651ADDGF106991021051008001041011MA1999999101591MD1999999+0081REMSYN070AAXX  21184 83398 32596 60910 10290 20222 30159 40165 82541 333 58008;
0155833980999992009112200004-15667-038950FM-12+000599999V0203601N002112200019N0010001N1+02561+02271101721ADDGF101991011011008001001001MA1999999101661MD1999999+0181REMSYN088AAXX  22004 83398 32594 13604 10256 20227 30166 40172 81100 333 1//// 29078 55115 58018;
0156833980999992009112212004-15667-038950FM-12+000599999V0200901N002110450019N0040001N1+02901+02151101751ADDGF105991031051008001041001KA1240N+02041MA1999999101691MD1999999-0061REMSYN076AAXX  22124 83398 32596 50904 10290 20215 30169 40175 83540 333 20204 59006;
0137833980999992009112218004-15667-038950FM-12+000599999V0200501N001510450019N0040001N1+02701+02301101701ADDGF106991031051008001021001MA1999999101641MD1999999+0051REMSYN070AAXX  22184 83398 32596 60503 10270 20230 30164 40170 83520 333 58005;
0155833980999992009112300004-15667-038950FM-12+000599999V0209999C000012200019N0010001N1+02481+02321101551ADDGF102991021011008001001001MA1999999101501MD1999999-0161REMSYN088AAXX  23004 83398 32594 20000 10248 20232 30150 40155 82100 333 1//// 29081 55059 59016;
0201833980999992009112312004-15667-038950FM-12+000599999V0200901N001010450019N0040001N1+02821+02241101401ADDAA124003091AY161061AY221061GF105991031021008001041001KA1240N+02041MA1999999101351MD1999999-0341MW1021REMSYN088AAXX  23124 83398 21596 50902 10282 20224 30135 40140 70262 83240 333 20204 59034 60034;
0137833980999992009112318004-15667-038950FM-12+000599999V0200501N003112200019N0040001N1+02821+02201101041ADDGF102991011011008001041001MA1999999100991MD1999999-0651REMSYN070AAXX  23184 83398 32596 20506 10282 20220 30099 40104 81140 333 59065;
0155833980999992009112400004-15667-038950FM-12+000599999V0209999C000012200019N0010001N1+02561+02291101301ADDGF102991011011008001041001MA1999999101251MD1999999-0251REMSYN088AAXX  24004 83398 32594 20000 10256 20229 30125 40130 81140 333 1//// 29077 55111 59025;
0156833980999992009112412004-15667-038950FM-12+000599999V0200501N003112200019N0040001N1+02851+02021101331ADDGF103991021011008001041001KA1240N+02021MA1999999101281MD1999999-0071REMSYN076AAXX  24124 83398 32596 30506 10285 20202 30128 40133 82140 333 20202 59007;
0137833980999992009112418004-15667-038950FM-12+000599999V0200501N004112200019N0040001N1+02781+02211101031ADDGF102991011011008001041001MA1999999100981MD1999999-0011REMSYN070AAXX  24184 83398 32596 20508 10278 20221 30098 40103 81140 333 59001;
0155833980999992009112500004-15667-038950FM-12+000599999V0200501N001012200019N0010001N1+02561+02271101281ADDGF101991011011008001001001MA1999999101231MD1999999-0021REMSYN088AAXX  25004 83398 32594 10502 10256 20227 30123 40128 81100 333 1//// 29074 55112 59002;
0156833980999992009112512004-15667-038950FM-12+000599999V0200501N002110450019N0040001N1+02901+02121101431ADDGF106991031021008001041001KA1240N+02061MA1999999101381MD1999999+0101REMSYN076AAXX  25124 83398 32596 60504 10290 20212 30138 40143 83240 333 20206 58010;
0137833980999992009112518004-15667-038950FM-12+000599999V0200501N003112200019N0040001N1+02921+02091101211ADDGF103991031011008001041001MA1999999101161MD1999999+0181REMSYN070AAXX  25184 83398 32596 30506 10292 20209 30116 40121 83140 333 58018;
0155833980999992009112600004-15667-038950FM-12+000599999V0209999C000012200019N0010001N1+02601+02271101451ADDGF102991011011008001041001MA1999999101401MD1999999+0171REMSYN088AAXX  26004 83398 32594 20000 10260 20227 30140 40145 81140 333 1//// 29072 55112 58017;
0156833980999992009112612004-15667-038950FM-12+000599999V0200501N002110075019N0040001N1+02761+02361101561ADDGF108991051051008001021999KA1240N+02161MA1999999101511MD1999999+0131REMSYN076AAXX  26124 83398 32596 80504 10276 20236 30151 40156 8552/ 333 20216 58013;
0137833980999992009112618004-15667-038950FM-12+000599999V0203601N003110450019N0040001N1+02941+02401101391ADDGF105991021021008001041001MA1999999101341MD1999999+0181REMSYN070AAXX  26184 83398 32596 53606 10294 20240 30134 40139 82240 333 58018;
0155833980999992009112700004-15667-038950FM-12+000599999V0200501N001012200019N0010001N1+02591+02361101541ADDGF103991011011008001041011MA1999999101491MD1999999+0091REMSYN088AAXX  27004 83398 32594 30502 10259 20236 30149 40154 81141 333 1//// 29081 55064 58009;
0156833980999992009112712004-15667-038950FM-12+000599999V0203601N004110450019N0040001N1+02901+02221101601ADDGF106991021021008001041001KA1240N+02251MA1999999101551MD1999999+0041REMSYN076AAXX  27124 83398 32596 63608 10290 20222 30155 40160 82240 333 20225 58004;
0137833980999992009112718004-15667-038950FM-12+000599999V0200501N003112200019N0040001N1+02881+02131101321ADDGF102991011011008001041011MA1999999101271MD1999999-0071REMSYN070AAXX  27184 83398 32596 20506 10288 20213 30127 40132 81141 333 59007;
0155833980999992009112800004-15667-038950FM-12+000599999V0200501N002112200019N0010001N1+02601+02191101431ADDGF102991011011004501041001MA1999999101381MD1999999-0111REMSYN088AAXX  28004 83398 32494 20504 10260 20219 30138 40143 81140 333 1//// 29072 55111 59011;
0156833980999992009112812004-15667-038950FM-12+000599999V0200501N006210450019N0040001N1+02911+02311101421ADDGF106991031021008001041001KA1240N+02061MA1999999101371MD1999999-0181REMSYN076AAXX  28124 83398 32596 60512 10291 20231 30137 40142 83240 333 20206 59018;
0137833980999992009112818004-15667-038950FM-12+000599999V0203601N006212200019N0040001N1+02901+02341101061ADDGF102991011011008001041001MA1999999101011MD1999999-0261REMSYN070AAXX  28184 83398 32596 23612 10290 20234 30101 40106 81140 333 59026;
0155833980999992009112900004-15667-038950FM-12+000599999V0203601N003110450019N0010001N1+02641+02391101281ADDGF106991031051008001041001MA1999999101231MD1999999-0151REMSYN088AAXX  29004 83398 32594 63606 10264 20239 30123 40128 83540 333 1//// 29078 55109 59015;
0156833980999992009112912004-15667-038950FM-12+000599999V0203601N006210450019N0040001N1+02981+02231101371ADDGF106991031051008001041001KA1240N+02451MA1999999101321MD1999999-0071REMSYN076AAXX  29124 83398 32596 63612 10298 20223 30132 40137 83540 333 20245 59007;
0137833980999992009112918004-15667-038950FM-12+000599999V0203601N009312200019N0040001N1+02901+02271100981ADDGF102991011011008001001011MA1999999100931MD1999999-0081REMSYN070AAXX  29184 83398 32596 23618 10290 20227 30093 40098 81101 333 59008;
0155833980999992009113000004-15667-038950FM-12+000599999V0209999C000012200019N0010001N1+02561+02291101181ADDGF102991011011008001041001MA1999999101131MD1999999-0101REMSYN088AAXX  30004 83398 32594 20000 10256 20229 30113 40118 81140 333 1//// 29076 55114 59010;
0156833980999992009113012004-15667-038950FM-12+000599999V0203601N007210450019N0040001N1+02981+02201101201ADDGF107991031021008001041011KA1240N+02271MA1999999101151MD1999999-0171REMSYN076AAXX  30124 83398 32596 73614 10298 20220 30115 40120 83241 333 20227 59017;
0137833980999992009113018004-15667-038950FM-12+000599999V0203601N009310450019N0040001N1+02811+02391100931ADDGF107991041051008001021001MA1999999100881MD1999999-0051REMSYN070AAXX  30184 83398 32596 73618 10281 20239 30088 40093 84520 333 59005;
0155833980999992009120100004-15667-038950FM-12+000599999V0209999C000010450019N0010001N1+02641+02481101201ADDGF107991041051008001021001MA1999999101151MD1999999+0021REMSYN088AAXX  01004 83398 32594 70000 10264 20248 30115 40120 84520 333 1//// 29081 55073 58002;
0156833980999992009120112004-15667-038950FM-12+000599999V0203601N007210075019N0040001N1+02851+02341101251ADDGF108991051051008001021001KA1240N+02431MA1999999101201MD1999999+0051REMSYN076AAXX  01124 83398 32596 83614 10285 20234 30120 40125 85520 333 20243 58005;
0137833980999992009120118004-15667-038950FM-12+000599999V0203601N006210450019N0040001N1+02901+02221100951ADDGF106991031051008001041011MA1999999100901MD1999999+0021REMSYN070AAXX  01184 83398 32596 63612 10290 20222 30090 40095 83541 333 58002;
0155833980999992009120200004-15667-038950FM-12+000599999V0209999C000010450019N0010001N1+02561+02441101181ADDGF105991031021008001041011MA1999999101131MD1999999-0021REMSYN088AAXX  02004 83398 32594 50000 10256 20244 30113 40118 83241 333 1//// 29082 55027 59002;
0156833980999992009120212004-15667-038950FM-12+000599999V0203601N006212200019N0040001N1+02941+02261101421ADDGF104991021011008001041001KA1240N+02401MA1999999101371MD1999999+0171REMSYN076AAXX  02124 83398 32596 43612 10294 20226 30137 40142 82140 333 20240 58017;
0137833980999992009120218004-15667-038950FM-12+000599999V0200501N005112200019N0040001N1+02901+02321101171ADDGF102991011011008001041001MA1999999101121MD1999999+0221REMSYN070AAXX  02184 83398 32596 20510 10290 20232 30112 40117 81140 333 58022;
0155833980999992009120300004-15667-038950FM-12+000599999V0203601N002112200019N0010001N1+02581+02291101331ADDGF102991011011008001041001MA1999999101281MD1999999+0151REMSYN088AAXX  03004 83398 32594 23604 10258 20229 30128 40133 81140 333 1//// 29076 55115 58015;
0156833980999992009120312004-15667-038950FM-12+000599999V0203601N006210450019N0040001N1+02941+02311101411ADDGF106991031051008001041001KA1240N+02071MA1999999101361MD1999999-0011REMSYN076AAXX  03124 83398 32596 63612 10294 20231 30136 40141 83540 333 20207 59001;
0137833980999992009120318004-15667-038950FM-12+000599999V0203601N006212200019N0040001N1+02941+02311101021ADDGF101991011001008001041001MA1999999100971MD1999999-0151REMSYN070AAXX  03184 83398 32596 13612 10294 20231 30097 40102 81040 333 59015;
0155833980999992009120400004-15667-038950FM-12+000599999V0203601N003112200019N0010001N1+02611+02341101231ADDGF104991021021008001041001MA1999999101181MD1999999-0101REMSYN088AAXX  04004 83398 32594 43606 10261 20234 30118 40123 82240 333 1//// 29077 55112 59010;
0156833980999992009120412004-15667-038950FM-12+000599999V0203601N005110450019N0040001N1+02921+02471101111ADDGF106991041051008001021001KA1240N+02181MA1999999101061MD1999999-0101REMSYN076AAXX  04124 83398 32596 63610 10292 20247 30106 40111 84520 333 20218 59010;
0137833980999992009120418004-15667-038950FM-12+000599999V0203601N005110450019N0040001N1+02861+02311101001ADDGF106991041051008001021001MA1999999100951MD1999999-0021REMSYN070AAXX  04184 83398 32596 63610 10286 20231 30095 40100 84520 333 59002;
0155833980999992009120500004-15667-038950FM-12+000599999V0209999C000010450019N0010001N1+02601+02421101191ADDGF106991041051008001021001MA1999999101141MD1999999-0041REMSYN088AAXX  05004 83398 32594 60000 10260 20242 30114 40119 84520 333 1//// 29082 55038 59004;
0156833980999992009120512004-15667-038950FM-12+000599999V0203601N005110075019N0040001N1+02821+02361101291ADDGF107991051051008001021001KA1240N+02401MA1999999101241MD1999999-0021REMSYN076AAXX  05124 83398 32596 73610 10282 20236 30124 40129 85520 333 20240 59002;
0137833980999992009120518004-15667-038950FM-12+000599999V0203601N006210075019N0040001N1+02901+02341101141ADDGF107991051051008001021001MA1999999101091MD1999999+0051REMSYN070AAXX  05184 83398 32596 73612 10290 20234 30109 40114 85520 333 58005;
0155833980999992009120600004-15667-038950FM-12+000599999V0203601N002110450019N0010001N1+02641+02481101391ADDGF106991041051008001021001MA1999999101341MD1999999+0201REMSYN088AAXX  06004 83398 32594 63604 10264 20248 30134 40139 84520 333 1//// 29083 55004 58020;
0156833980999992009120612004-15667-038950FM-12+000599999V0203601N004110450019N0010001N1+02931+02321101531ADDGF106991031011008001041011KA1240N+02401MA1999999101481MD1999999+0241REMSYN076AAXX  06124 83398 32594 63608 10293 20232 30148 40153 83141 333 20240 58024;
0137833980999992009120618004-15667-038950FM-12+000599999V0200501N004110450019N0040001N1+02951+02341101271ADDGF106991031051008001041011MA1999999101221MD1999999+0131REMSYN070AAXX  06184 83398 32596 60508 10295 20234 30122 40127 83541 333 58013;
0155833980999992009120700004-15667-038950FM-12+000599999V0209999C000012200019N0010001N1+02581+02381101481ADDGF102991011011008001041001MA1999999101431MD1999999+0091REMSYN088AAXX  07004 83398 32594 20000 10258 20238 30143 40148 81140 333 1//// 29079 55097 58009;
0156833980999992009120712004-15667-038950FM-12+000599999V0203601N001010450019N0040001N1+02921+02431101571ADDGF105991031051008001021001KA1240N+01981MA1999999101521MD1999999+0041REMSYN076AAXX  07124 83398 32596 53602 10292 20243 30152 40157 83520 333 20198 58004;
0137833980999992009120718004-15667-038950FM-12+000599999V0203601N005110450019N0040001N1+03001+02271101261ADDGF105991031051008001041001MA1999999101211MD1999999-0011REMSYN070AAXX  07184 83398 32596 53610 10300 20227 30121 40126 83540 333 59001;
0155833980999992009120800004-15667-038950FM-12+000599999V0209999C000012200019N0010001N1+02611+02301101431ADDGF102991011011008001041001MA1999999101381MD1999999-0051REMSYN088AAXX  08004 83398 32594 20000 10261 20230 30138 40143 81140 333 1//// 29076 55113 59005;
0156833980999992009120812004-15667-038950FM-12+000599999V0200501N003110450019N0040001N1+02921+02221101441ADDGF106991031051008001041001KA1240N+02081MA1999999101391MD1999999-0131REMSYN076AAXX  08124 83398 32596 60506 10292 20222 30139 40144 83540 333 20208 59013;
0137833980999992009120818004-15667-038950FM-12+000599999V0200501N004112200019N0040001N1+02901+02221101091ADDGF102991011011008001041011MA1999999101041MD1999999-0171REMSYN070AAXX  08184 83398 32596 20508 10290 20222 30104 40109 81141 333 59017;
0155833980999992009120900004-15667-038950FM-12+000599999V0200501N002112200019N0010001N1+02561+02291101311ADDGF102991011011008001041011MA1999999101261MD1999999-0121REMSYN088AAXX  09004 83398 32594 20504 10256 20229 30126 40131 81141 333 1//// 29076 55113 59012;
0156833980999992009120912004-15667-038950FM-12+000599999V0203601N004112200019N0040001N1+03001+02141101461ADDGF103991011011008001041001KA1240N+02081MA1999999101411MD1999999+0021REMSYN076AAXX  09124 83398 32596 33608 10300 20214 30141 40146 81140 333 20208 58002;
0137833980999992009120918004-15667-038950FM-12+000599999V0200501N004112200019N0040001N1+02921+02221101181ADDGF102991011011008001041011MA1999999101131MD1999999+0091REMSYN070AAXX  09184 83398 32596 20508 10292 20222 30113 40118 81141 333 58009;
0155833980999992009121000004-15667-038950FM-12+000599999V0209999C000012200019N0010001N1+02521+02311101381ADDGF102991011011008001041001MA1999999101331MD1999999+0071REMSYN088AAXX  10004 83398 32594 20000 10252 20231 30133 40138 81140 333 1//// 29075 55109 58007;
0156833980999992009121012004-15667-038950FM-12+000599999V0200901N001010075019N0040001N1+02881+02101101521ADDGF108991051051008001021999KA1240N+02081MA1999999101471MD1999999+0061REMSYN076AAXX  10124 83398 32596 80902 10288 20210 30147 40152 8552/ 333 20208 58006;
0137833980999992009121018004-15667-038950FM-12+000599999V0200901N002112200019N0040001N1+02981+02091101311ADDGF102991011011008001041011MA1999999101261MD1999999+0131REMSYN070AAXX  10184 83398 32596 20904 10298 20209 30126 40131 81141 333 58013;
0155833980999992009121100004-15667-038950FM-12+000599999V0209999C000012200019N0010001N1+02601+02191101561ADDGF103991011011008001041011MA1999999101511MD1999999+0181REMSYN088AAXX  11004 83398 32594 30000 10260 20219 30151 40156 81141 333 1//// 29069 55079 58018;
0156833980999992009121112004-15667-038950FM-12+000599999V0200901N001011050019N0040001N1+03001+02221101631ADDGF105991021021008001041011KA1240N+02121MA1999999101571MD1999999+0101REMSYN076AAXX  11124 83398 32596 50902 10300 20222 30157 40163 82241 333 20212 58010;
0137833980999992009121118004-15667-038950FM-12+000599999V0200901N002110450019N0040001N1+02921+02191101271ADDGF106991021011008001041011MA1999999101221MD1999999-0041REMSYN070AAXX  11184 83398 32596 60904 10292 20219 30122 40127 82141 333 59004;
0155833980999992009121200004-15667-038950FM-12+000599999V0209999C000012200019N0010001N1+02621+02271101481ADDGF102991011011008001041001MA1999999101431MD1999999-0081REMSYN088AAXX  12004 83398 32594 20000 10262 20227 30143 40148 81140 333 1//// 29072 55115 59008;
0156833980999992009121212004-15667-038950FM-12+000599999V0200901N002111050019N0040001N1+02981+02281101451ADDGF105991021021008001041011KA1240N+02081MA1999999101401MD1999999-0171REMSYN076AAXX  12124 83398 32596 50904 10298 20228 30140 40145 82241 333 20208 59017;
0137833980999992009121218004-15667-038950FM-12+000599999V0200901N002112200019N0040001N1+03001+02221101111ADDGF102991011011008001041001MA1999999101061MD1999999-0161REMSYN070AAXX  12184 83398 32596 20904 10300 20222 30106 40111 81140 333 59016;
0155833980999992009121300004-15667-038950FM-12+000599999V0200901N002112200019N0010001N1+02651+02331101221ADDGF103991021011008001041001MA1999999101171MD1999999-0261REMSYN088AAXX  13004 83398 32594 30904 10265 20233 30117 40122 82140 333 1//// 29071 55120 59026;
0156833980999992009121312004-15667-038950FM-12+000599999V0200501N003112200019N0040001N1+02981+02301101241ADDGF103991021021008001041001KA1240N+02081MA1999999101191MD1999999-0211REMSYN076AAXX  13124 83398 32596 30506 10298 20230 30119 40124 82240 333 20208 59021;
0137833980999992009121318004-15667-038950FM-12+000599999V0203601N009312200019N0040001N1+02941+02401100941ADDGF102991011011008001041001MA1999999100891MD1999999-0221REMSYN070AAXX  13184 83398 32596 23618 10294 20240 30089 40094 81140 333 59022;
0155833980999992009121400004-15667-038950FM-12+000599999V0200501N002112200019N0010001N1+02661+02411101061ADDGF103991021011008001041001MA1999999101011MD1999999-0161REMSYN088AAXX  14004 83398 32594 30504 10266 20241 30101 40106 82140 333 1//// 29078 55108 59016;
0156833980999992009121412004-15667-038950FM-12+000599999V0203601N004110450019N0040001N1+02981+02331101411ADDGF105991041051008001041001KA1240N+02401MA1999999101361MD1999999+0171REMSYN076AAXX  14124 83398 32596 53608 10298 20233 30136 40141 84540 333 20240 58017;
0137833980999992009121418004-15667-038950FM-12+000599999V0203601N005110075019N0040001N1+03001+02291101171ADDGF105991051021008001001001MA1999999101121MD1999999+0281REMSYN070AAXX  14184 83398 32596 53610 10300 20229 30112 40117 85200 333 58028;
0155833980999992009121500004-15667-038950FM-12+000599999V0209999C000012200019N0010001N1+02681+02371101551ADDGF101991011011008001001001MA1999999101501MD1999999+0491REMSYN088AAXX  15004 83398 32594 10000 10268 20237 30150 40155 81100 333 1//// 29078 55115 58049;
0201833980999992009121512004-15667-038950FM-12+000599999V0209999C000010075019N0040001N1+02581+02421101641ADDAA124002091AY161061AY221061GF108991051051008001021999KA1240N+02241MA1999999101581MD1999999+0221MW1021REMSYN088AAXX  15124 83398 21596 80000 10258 20242 30158 40164 70262 8552/ 333 20224 58022 60024;
0137833980999992009121518004-15667-038950FM-12+000599999V0200901N002110450019N0040001N1+02861+02441101321ADDGF106991041051008001021001MA1999999101271MD1999999+0051REMSYN070AAXX  15184 83398 32596 60904 10286 20244 30127 40132 84520 333 58005;
0155833980999992009121600004-15667-038950FM-12+000599999V0209999C000010450019N0010001N1+02461+02391101541ADDGF105991031051008001021001MA1999999101491MD1999999-0011REMSYN088AAXX  16004 83398 32594 50000 10246 20239 30149 40154 83520 333 1//// 29090 55044 59001;
0156833980999992009121612004-15667-038950FM-12+000599999V0200901N002110075019N0040001N1+02951+02471101641ADDGF105991051051008001001001KA1240N+02211MA1999999101581MD1999999+0001REMSYN076AAXX  16124 83398 32596 50904 10295 20247 30158 40164 85500 333 20221 58000;
0137833980999992009121618004-15667-038950FM-12+000599999V0200901N003110450019N0040001N1+03001+02321101411ADDGF105991031021008001041001MA1999999101361MD1999999+0091REMSYN070AAXX  16184 83398 32596 50906 10300 20232 30136 40141 83240 333 58009;
0155833980999992009121700004-15667-038950FM-12+000599999V0203601N002110450019N0010001N1+02701+02521101521ADDGF105991031051008001021001MA1999999101471MD1999999-0021REMSYN088AAXX  17004 83398 32594 53604 10270 20252 30147 40152 83520 333 1//// 29081 55106 59002;
0156833980999992009121712004-15667-038950FM-12+000599999V0200901N002110450019N0040001N1+02901+02581101631ADDGF106991041051008001021001KA1240N+02301MA1999999101571MD1999999-0011REMSYN076AAXX  17124 83398 32596 60904 10290 20258 30157 40163 84520 333 20230 59001;
0137833980999992009121718004-15667-038950FM-12+000599999V0200501N003110450019N0040001N1+02901+02481101321ADDGF106991041051008001021001MA1999999101271MD1999999-0091REMSYN070AAXX  17184 83398 32596 60506 10290 20248 30127 40132 84520 333 59009;
0155833980999992009121800004-15667-038950FM-12+000599999V0203601N002110450019N0010001N1+02701+02451101421ADDGF106991041051008001021001MA1999999101371MD1999999-0101REMSYN088AAXX  18004 83398 32594 63604 10270 20245 30137 40142 84520 333 1//// 29083 55058 59010;
0156833980999992009121812004-15667-038950FM-12+000599999V0203601N003110075019N0040001N1+03001+02441101561ADDGF105991051051008001001001KA1240N+02301MA1999999101511MD1999999-0061REMSYN076AAXX  18124 83398 32596 53606 10300 20244 30151 40156 85500 333 20230 59006;
0137833980999992009121818004-15667-038950FM-12+000599999V0203601N003112200019N0040001N1+03081+02401101381ADDGF104991031021008001041001MA1999999101331MD1999999+0061REMSYN070AAXX  18184 83398 32596 43606 10308 20240 30133 40138 83240 333 58006;
0155833980999992009121900004-15667-038950FM-12+000599999V0203601N002112200019N0010001N1+02841+02501101541ADDGF101991011011008001001001MA1999999101491MD1999999+0121REMSYN088AAXX  19004 83398 32594 13604 10284 20250 30149 40154 81100 333 1//// 29076 55113 58012;
0156833980999992009121912004-15667-038950FM-12+000599999V0200501N003112200019N0040001N1+03001+02321101661ADDGF104991041051008001001001KA1240N+02261MA1999999101601MD1999999+0091REMSYN076AAXX  19124 83398 32596 40506 10300 20232 30160 40166 84500 333 20226 58009;
0137833980999992009121918004-15667-038950FM-12+000599999V0200501N003110450019N0040001N1+03061+02381101481ADDGF105991031021008001041001MA1999999101431MD1999999+0101REMSYN070AAXX  19184 83398 32596 50506 10306 20238 30143 40148 83240 333 58010;
0155833980999992009122000004-15667-038950FM-12+000599999V0200501N003112200019N0010001N1+02721+02341101591ADDGF104991041051008001001001MA1999999101541MD1999999+0051REMSYN088AAXX  20004 83398 32594 40506 10272 20234 30154 40159 84500 333 1//// 29074 55109 58005;
0156833980999992009122012004-15667-038950FM-12+000599999V0201401N001010450019N0040001N1+02861+02501101721ADDGF106991041051008001021001KA1240N+02161MA1999999101671MD1999999+0071REMSYN076AAXX  20124 83398 32596 61402 10286 20250 30167 40172 84520 333 20216 58007;
0137833980999992009122018004-15667-038950FM-12+000599999V0200901N003110450019N0040001N1+02981+02401101491ADDGF106991041051008001021001MA1999999101441MD1999999+0011REMSYN070AAXX  20184 83398 32596 60906 10298 20240 30144 40149 84520 333 58001;
0155833980999992009122100004-15667-038950FM-12+000599999V0209999C000010075019N0010001N1+02721+02411101681ADDGF105991051051008001001001MA1999999101621MD1999999+0081REMSYN088AAXX  21004 83398 32594 50000 10272 20241 30162 40168 85500 333 1//// 29080 55039 58008;
0156833980999992009122112004-15667-038950FM-12+000599999V0209999C000010450019N0040001N1+03021+02311101721ADDGF106991031051008001021001KA1240N+02181MA1999999101661MD1999999+0011REMSYN076AAXX  21124 83398 32596 60000 10302 20231 30166 40172 83520 333 20218 58001;
0137833980999992009122118004-15667-038950FM-12+000599999V0200901N003110450019N0040001N1+03081+02351101531ADDGF106991041051008001041001MA1999999101481MD1999999+0041REMSYN070AAXX  21184 83398 32596 60906 10308 20235 30148 40153 84540 333 58004;
0155833980999992009122200004-15667-038950FM-12+000599999V0209999C000010450019N0010001N1+02701+02501101711ADDGF106991041051008001021001MA1999999101651MD1999999+0031REMSYN088AAXX  22004 83398 32594 60000 10270 20250 30165 40171 84520 333 1//// 29077 55071 58003;
0156833980999992009122212004-15667-038950FM-12+000599999V0200501N003110450019N0040001N1+03001+02271101751ADDGF107991041051008001021001KA1240N+02381MA1999999101691MD1999999+0031REMSYN076AAXX  22124 83398 32596 70506 10300 20227 30169 40175 84520 333 20238 58003;
0137833980999992009122218004-15667-038950FM-12+000599999V0200501N003110450019N0040001N1+02981+02201101591ADDGF106991031021008001041011MA1999999101541MD1999999+0061REMSYN070AAXX  22184 83398 32596 60506 10298 20220 30154 40159 83241 333 58006;
0155833980999992009122300004-15667-038950FM-12+000599999V0200501N002111050019N0010001N1+02721+02371101761ADDGF105991021011008001041011MA1999999101701MD1999999+0051REMSYN088AAXX  23004 83398 32594 50504 10272 20237 30170 40176 82141 333 1//// 29072 55059 58005;
0201833980999992009122312004-15667-038950FM-12+000599999V0201401N003110075019N0040001N1+02581+02481101781ADDAA124003091AY161061AY221061GF106991051051008001021001KA1240N+02141MA1999999101731MD1999999+0041MW1021REMSYN088AAXX  23124 83398 21596 61406 10258 20248 30173 40178 70262 85520 333 20214 58004 60034;
0137833980999992009122318004-15667-038950FM-12+000599999V0201401N003110450019N0040001N1+03001+02271101541ADDGF106991041051008001021001MA1999999101491MD1999999-0051REMSYN070AAXX  23184 83398 32596 61406 10300 20227 30149 40154 84520 333 59005;
0155833980999992009122400004-15667-038950FM-12+000599999V0209999C000010450019N0010001N1+02741+02361101671ADDGF105991031051008001021001MA1999999101611MD1999999-0091REMSYN088AAXX  24004 83398 32594 50000 10274 20236 30161 40167 83520 333 1//// 29080 55087 59009;
0156833980999992009122412004-15667-038950FM-12+000599999V0203601N003110450019N0040001N1+02981+02301101811ADDGF105991041051008001021001KA1240N+02201MA1999999101751MD1999999+0021REMSYN076AAXX  24124 83398 32596 53606 10298 20230 30175 40181 84520 333 20220 58002;
0137833980999992009122418004-15667-038950FM-12+000599999V0203601N005110450019N0040001N1+03021+02361101291ADDGF105991031021008001041001MA1999999101241MD1999999-0251REMSYN070AAXX  24184 83398 32596 53610 10302 20236 30124 40129 83240 333 59025;
0155833980999992009122500004-15667-038950FM-12+000599999V0209999C000012200019N0010001N1+02701+02391101391ADDGF102991021011008001001001MA1999999101341MD1999999-0271REMSYN088AAXX  25004 83398 32594 20000 10270 20239 30134 40139 82100 333 1//// 29075 55108 59027;
0156833980999992009122512004-15667-038950FM-12+000599999V0203601N004110450019N0040001N1+03021+02311101441ADDGF105991031021008001041001KA1240N+02141MA1999999101391MD1999999-0361REMSYN076AAXX  25124 83398 32596 53608 10302 20231 30139 40144 83240 333 20214 59036;
0137833980999992009122518004-15667-038950FM-12+000599999V0203601N005110450019N0040001N1+03001+02441101011ADDGF106991031021008001041011MA1999999100961MD1999999-0281REMSYN070AAXX  25184 83398 32596 63610 10300 20244 30096 40101 83241 333 59028;
0155833980999992009122600004-15667-038950FM-12+000599999V0203601N002110450019N0010001N1+02741+02471101231ADDGF106991041051008001021001MA1999999101181MD1999999-0161REMSYN088AAXX  26004 83398 32594 63604 10274 20247 30118 40123 84520 333 1//// 29077 55101 59016;
0156833980999992009122612004-15667-038950FM-12+000599999V0203201N002110450019N0040001N1+02601+02421101401ADDGF106991041051008001021001KA1240N+02161MA1999999101351MD1999999-0041REMSYN076AAXX  26124 83398 32596 63204 10260 20242 30135 40140 84520 333 20216 59004;
0137833980999992009122618004-15667-038950FM-12+000599999V0203601N003110450019N0040001N1+03121+02121100891ADDGF106991041051008001021001MA1999999100841MD1999999-0121REMSYN070AAXX  26184 83398 32596 63606 10312 20212 30084 40089 84520 333 59012;
0155833980999992009122700004-15667-038950FM-12+000599999V0203601N003110450019N0010001N1+02661+02431101091ADDGF106991041051008001021001MA1999999101041MD1999999-0141REMSYN088AAXX  27004 83398 32594 63606 10266 20243 30104 40109 84520 333 1//// 29080 55023 59014;
0156833980999992009122712004-15667-038950FM-12+000599999V0203601N005110450019N0010001N1+02921+02411101261ADDGF106991041051008001021001KA1240N+02401MA1999999101211MD1999999-0141REMSYN076AAXX  27124 83398 32594 63610 10292 20241 30121 40126 84520 333 20240 59014;
0137833980999992009122718004-15667-038950FM-12+000599999V0203601N006210450019N0040001N1+03021+02311100871ADDGF106991021051008001041011MA1999999100821MD1999999-0021REMSYN070AAXX  27184 83398 32596 63612 10302 20231 30082 40087 82541 333 59002;
0155833980999992009122800004-15667-038950FM-12+000599999V0209999C000010075019N0010001N1+02701+02561101111ADDGF105991051051008001001001MA1999999101061MD1999999+0021REMSYN088AAXX  28004 83398 32594 50000 10270 20256 30106 40111 85500 333 1//// 29081 55072 58002;
0156833980999992009122812004-15667-038950FM-12+000599999V0203201N003110075019N0040001N1+02981+02371101241ADDGF108991051051008001021999KA1240N+02591MA1999999101191MD1999999-0021REMSYN076AAXX  28124 83398 32596 83206 10298 20237 30119 40124 8552/ 333 20259 59002;
0137833980999992009122818004-15667-038950FM-12+000599999V0203201N006210075019N0040001N1+02921+02471100931ADDGF108991051051008001021999MA1999999100881MD1999999+0061REMSYN070AAXX  28184 83398 32596 83212 10292 20247 30088 40093 8552/ 333 58006;
0155833980999992009122900004-15667-038950FM-12+000599999V0203201N003110450019N0010001N1+02721+02501101231ADDGF106991031051008001021001MA1999999101181MD1999999+0121REMSYN088AAXX  29004 83398 32594 63206 10272 20250 30118 40123 83520 333 1//// 29081 55042 58012;
0156833980999992009122912004-15667-038950FM-12+000599999V0203201N003110075019N0040001N1+03041+02311101281ADDGF108991051051008001021999KA1240N+02511MA1999999101231MD1999999+0041REMSYN076AAXX  29124 83398 32596 83206 10304 20231 30123 40128 8552/ 333 20251 58004;
0137833980999992009122918004-15667-038950FM-12+000599999V0203601N004110075019N0040001N1+02821+02481100931ADDGF108991051051008001021999MA1999999100881MD1999999+0001REMSYN070AAXX  29184 83398 32596 83608 10282 20248 30088 40093 8552/ 333 58000;
0155833980999992009123000004-15667-038950FM-12+000599999V0203601N003110450019N0010001N1+02661+02431101141ADDGF108991041051008001021999MA1999999101091MD1999999-0091REMSYN088AAXX  30004 83398 32594 83606 10266 20243 30109 40114 8452/ 333 1//// 29080 55029 59009;
0156833980999992009123012004-15667-038950FM-12+000599999V0203601N006210450019N0040001N1+03001+02321101271ADDGF107991041051008001021001KA1240N+02471MA1999999101221MD1999999-0011REMSYN076AAXX  30124 83398 32596 73612 10300 20232 30122 40127 84520 333 20247 59001;
0137833980999992009123018004-15667-038950FM-12+000599999V0203601N006210450019N0040001N1+02981+02331100891ADDGF106991041051008001021001MA1999999100841MD1999999-0041REMSYN070AAXX  30184 83398 32596 63612 10298 20233 30084 40089 84520 333 59004;
0155833980999992009123100004-15667-038950FM-12+000599999V0203601N004110450019N0010001N1+02661+02411101151ADDGF108991041051008001021999MA1999999101101MD1999999+0011REMSYN088AAXX  31004 83398 32594 83608 10266 20241 30110 40115 8452/ 333 1//// 29077 55068 58001;
0156833980999992009123112004-15667-038950FM-12+000599999V0203201N006210450019N0040001N1+03021+02241101261ADDGF106991031021008001041001KA1240N+02351MA1999999101211MD1999999-0011REMSYN076AAXX  31124 83398 32596 63212 10302 20224 30121 40126 83240 333 20235 59001;
0137833980999992009123118004-15667-038950FM-12+000599999V0203601N005110450019N0040001N1+02941+02431101011ADDGF106991031011008001041001MA1999999100961MD1999999+0121REMSYN070AAXX  31184 83398 32596 63610 10294 20243 30096 40101 83140 333 58012;
