0168834980999992009010100004-17733-039250FM-12+000399999V0200501N001012200019N0020001N1+02521+02091101211ADDGF101991011011008001001001KA1240M+03071MA1999999101161MD1999999-0041REMSYN088AAXX  01004 83498 32595 10502 10252 20209 30116 40121 81100 333 10307 29076 55048 59004;
0156834980999992009010112004-17733-039250FM-12+000399999V0203601N001510450019N0020001N1+02761+02341101171ADDGF106991031021008001041001KA1240N+02171MA1999999101121MD1999999-0191REMSYN076AAXX  01124 83498 32595 63603 10276 20234 30112 40117 83240 333 20217 59019;
0137834980999992009010118004-17733-039250FM-12+000399999V0200501N003112200019N0020001N1+02901+02341101161ADDGF104991021011008001031001MA1999999101111MD1999999-0251REMSYN070AAXX  01184 83498 32595 40506 10290 20234 30111 40116 82130 333 59025;
0168834980999992009010200004-17733-039250FM-12+000399999V0200501N002112200019N0020001N1+02581+02171101021ADDGF101991011011008001001001KA1240M+03091MA1999999100971MD1999999-0191REMSYN088AAXX  02004 83498 32595 10504 10258 20217 30097 40102 81100 333 10309 29076 55042 59019;
0156834980999992009010212004-17733-039250FM-12+000399999V0200501N002610450019N0020001N1+02781+02341101071ADDGF106991021021008001051001KA1240N+02301MA1999999101021MD1999999-0101REMSYN076AAXX  02124 83498 32595 60505 10278 20234 30102 40107 82250 333 20230 59010;
0137834980999992009010218004-17733-039250FM-12+000399999V0200501N003110450019N0020001N1+02921+02341101101ADDGF105991031011008001041001MA1999999101051MD1999999-0061REMSYN070AAXX  02184 83498 32595 50506 10292 20234 30105 40110 83140 333 59006;
0168834980999992009010300004-17733-039250FM-12+000399999V0203601N004610450019N0020001N1+02621+02231100871ADDGF105991031011008001051001KA1240M+03051MA1999999100821MD1999999-0151REMSYN088AAXX  03004 83498 32595 53609 10262 20223 30082 40087 83150 333 10305 29076 55037 59015;
0156834980999992009010312004-17733-039250FM-12+000399999V0203601N004110450019N0020001N1+02761+02361100911ADDGF108991041051008001011999KA1240N+02361MA1999999100861MD1999999-0161REMSYN076AAXX  03124 83498 32595 83608 10276 20236 30086 40091 8451/ 333 20236 59016;
0182834980999992009010318004-17733-039250FM-12+000399999V0203601N003110450019N0020001N1+02901+02341101001ADDAA106006191AY161061AY221061GF108991031061008001021999MA1999999100951MD1999999-0101MW1631REMSYN082AAXX  03184 83498 21595 83606 10290 20234 30095 40100 76362 8362/ 333 59010 60061;
0213834980999992009010400004-17733-039250FM-12+000399999V0203601N001512200019N0020001N1+02521+02171100771ADDAA106036191AY161061AY261061GF104991021011008001041001KA1240M+03041MA1999999100721MD1999999-0101MW1211REMSYN100AAXX  04004 83498 21595 43603 10252 20217 30072 40077 72166 82140 333 10304 29078 55000 59010 60361;
0173834980999992009010412004-17733-039250FM-12+000399999V0203601N004110450019N0020001N1+02881+02391100771ADDAA124037191GF106991021011008001041021KA1240N+02121MA1999999100721MD1999999-0141REMSYN082AAXX  04124 83498 22595 63608 10288 20239 30072 40077 82142 333 20212 59014 60374;
0137834980999992009010418004-17733-039250FM-12+000399999V0203601N004610450019N0020001N1+02941+02381100811ADDGF105991031011008001031001MA1999999100761MD1999999-0191REMSYN070AAXX  04184 83498 32595 53609 10294 20238 30076 40081 83130 333 59019;
0213834980999992009010500004-17733-039250FM-12+000399999V0203601N005110450019N0020001N1+02641+02271100711ADDAA106002091AY161061AY261061GF108991031051008001041011KA1240M+03161MA1999999100661MD1999999-0061MW1211REMSYN100AAXX  05004 83498 21595 83610 10264 20227 30066 40071 72166 83541 333 10316 29077 55008 59006 60021;
0173834980999992009010512004-17733-039250FM-12+000399999V0201801N002610450019N0020001N1+02581+02231101041ADDAA124002091GF108991041051008001011999KA1240N+02331MA1999999100991MD1999999+0271REMSYN082AAXX  05124 83498 22595 81805 10258 20223 30099 40104 8451/ 333 20233 58027 60024;
0182834980999992009010518004-17733-039250FM-12+000399999V0201401N003110450019N0020001N1+02901+02261101131ADDAA106007991AY161061AY221061GF108991031051008001011999MA1999999101081MD1999999+0321MW1211REMSYN082AAXX  05184 83498 21595 81406 10290 20226 30108 40113 72162 8351/ 333 58032 60081;
0213834980999992009010600004-17733-039250FM-12+000399999V0203601N000510075019N0020001N1+02441+02091101091ADDAA106023991AY161061AY261061GF108991051071008001011999KA1240M+02751MA1999999101041MD1999999+0381MW1211REMSYN100AAXX  06004 83498 21595 83601 10244 20209 30104 40109 72166 8571/ 333 10275 29077 55000 58038 60241;
0173834980999992009010612004-17733-039250FM-12+000399999V0200501N001510450019N0020001N1+02601+02251101191ADDAA124032091GF108991041061008001011999KA1240N+02161MA1999999101141MD1999999+0151REMSYN082AAXX  06124 83498 22595 80503 10260 20225 30114 40119 8461/ 333 20216 58015 60324;
0137834980999992009010618004-17733-039250FM-12+000399999V0200501N002110450019N0020001N1+02801+02251101191ADDGF106991031011008001041001MA1999999101141MD1999999+0061REMSYN070AAXX  06184 83498 32595 60504 10280 20225 30114 40119 83140 333 58006;
0168834980999992009010700004-17733-039250FM-12+000399999V0200501N001012200019N0020001N1+02561+02211101051ADDGF102991021011008001001001KA1240M+02951MA1999999101001MD1999999-0041REMSYN088AAXX  07004 83498 32595 20502 10256 20221 30100 40105 82100 333 10295 29079 55010 59004;
0201834980999992009010712004-17733-039250FM-12+000399999V0200501N001010450019N0020001N1+02361+02001101301ADDAA124007991AY161061AY221061GF108991041071008001021999KA1240N+02071MA1999999101251MD1999999+0111MW1611REMSYN088AAXX  07124 83498 21595 80502 10236 20200 30125 40130 76162 8472/ 333 20207 58011 60084;
0182834980999992009010718004-17733-039250FM-12+000399999V0200501N001510450019N0020001N1+02641+02271101211ADDAA106015091AY161061AY261061GF108991041071008001021999MA1999999101261MD1999999+0121MW1211REMSYN082AAXX  07184 83498 21595 80503 10264 20227 30126 40121 72166 8472/ 333 58012 60151;
0213834980999992009010800004-17733-039250FM-12+000399999V0200901N000511050019N0020001N1+02441+02091101301ADDAA106004191AY161061AY261061GF106991031011008001001021KA1240M+02691MA1999999101251MD1999999+0251MW1211REMSYN100AAXX  08004 83498 21595 60901 10244 20209 30125 40130 72166 83102 333 10269 29081 55000 58025 60041;
0173834980999992009010812004-17733-039250FM-12+000399999V0200501N003110450019N0020001N1+02821+02241101381ADDAA124019191GF106991021011008001031021KA1240N+02151MA1999999101331MD1999999+0081REMSYN082AAXX  08124 83498 22595 60506 10282 20224 30133 40138 82132 333 20215 58008 60194;
0137834980999992009010818004-17733-039250FM-12+000399999V0200501N004110450019N0020001N1+02901+02301101291ADDGF105991031011008001041001MA1999999101241MD1999999-0021REMSYN070AAXX  08184 83498 32595 50508 10290 20230 30124 40129 83140 333 59002;
0168834980999992009010900004-17733-039250FM-12+000399999V0200901N001511050019N0020001N1+02521+02091101441ADDGF106991021011008001001021KA1240M+02981MA1999999101391MD1999999+0141REMSYN088AAXX  09004 83498 32595 60903 10252 20209 30139 40144 82102 333 10298 29074 55032 58014;
0156834980999992009010912004-17733-039250FM-12+000399999V0200501N002112200019N0020001N1+02781+02321101671ADDGF106991031011008001001011KA1240N+02161MA1999999101621MD1999999+0281REMSYN076AAXX  09124 83498 32595 60504 10278 20232 30162 40167 83101 333 20216 58028;
0137834980999992009010918004-17733-039250FM-12+000399999V0200501N003112200019N0020001N1+02901+02341101641ADDGF105991021011008001001011MA1999999101591MD1999999+0351REMSYN070AAXX  09184 83498 32595 50506 10290 20234 30159 40164 82101 333 58035;
0168834980999992009011000004-17733-039250FM-12+000399999V0200501N001510075019N0020001N1+02561+02151101691ADDGF105991051021008001001001KA1240M+02981MA1999999101641MD1999999+0251REMSYN088AAXX  10004 83498 32595 50503 10256 20215 30164 40169 85200 333 10298 29076 55049 58025;
0156834980999992009011012004-17733-039250FM-12+000399999V0200901N002612200019N0020001N1+02721+02241101921ADDGF105991021011008001001011KA1240N+02331MA1999999101871MD1999999+0251REMSYN076AAXX  10124 83498 32595 50905 10272 20224 30187 40192 82101 333 20233 58025;
0137834980999992009011018004-17733-039250FM-12+000399999V0200501N003112200019N0020001N1+02901+02301101741ADDGF103991031011008001001001MA1999999101691MD1999999+0101REMSYN070AAXX  10184 83498 32595 30506 10290 20230 30169 40174 83100 333 58010;
0168834980999992009011100004-17733-039250FM-12+000399999V0200901N001512200019N0020001N1+02621+02181101841ADDGF104991041021008001001001KA1240M+02921MA1999999101781MD1999999+0151REMSYN088AAXX  11004 83498 32595 40903 10262 20218 30178 40184 84200 333 10292 29075 55045 58015;
0156834980999992009011112004-17733-039250FM-12+000399999V0200901N002610450019N0020001N1+02851+02441101761ADDGF107991041051008001041001KA1240N+02431MA1999999101711MD1999999-0161REMSYN076AAXX  11124 83498 32595 70905 10285 20244 30171 40176 84540 333 20243 59016;
0137834980999992009011118004-17733-039250FM-12+000399999V0200901N003110450019N0020001N1+02871+02521101551ADDGF106991041051008001041001MA1999999101501MD1999999-0191REMSYN070AAXX  11184 83498 32595 60906 10287 20252 30150 40155 84540 333 59019;
0168834980999992009011200004-17733-039250FM-12+000399999V0200901N002610450019N0020001N1+02671+02481101771ADDGF107991041051008001041001KA1240M+02931MA1999999101721MD1999999-0071REMSYN088AAXX  12004 83498 32595 70905 10267 20248 30172 40177 84540 333 10293 29085 55026 59007;
0201834980999992009011212004-17733-039250FM-12+000399999V0200901N003612200019N0020001N1+02911+02461101631ADDAA124002091AY121061AY211061GF104991031011008001001011KA1240N+02451MA1999999101581MD1999999-0131MW1031REMSYN088AAXX  12124 83498 21595 40907 10291 20246 30158 40163 70321 83101 333 20245 59013 60024;
0182834980999992009011218004-17733-039250FM-12+000399999V0200501N004110450019N0020001N1+02851+02481101381ADDAA106000021AY161061AY261061GF106991041051008001041001MA1999999101331MD1999999-0171MW1211REMSYN082AAXX  12184 83498 21595 60508 10285 20248 30133 40138 72166 84540 333 59017 69921;
0187834980999992009011300004-17733-039250FM-12+000399999V0200501N001512200019N0020001N1+02591+02351101591ADDGF103991001001999999001011KA1240M+03031MA1999999101541MD1999999-0181REMSYN088AAXX  13004 83498 32595 30503 10259 20235 30154 40159 80001 333 10303 29083 55039 59018;EQDQ01+008002SCOLCB
0173834980999992009011312004-17733-039250FM-12+000399999V0200501N002612200019N0020001N1+02991+02401101601ADDAA124000021GF103991011011008001001011KA1240N+02221MA1999999101551MD1999999-0031REMSYN082AAXX  13124 83498 22595 30505 10299 20240 30155 40160 81101 333 20222 59003 69924;
0137834980999992009011318004-17733-039250FM-12+000399999V0200901N003112200019N0020001N1+02911+02431101411ADDGF103991031011008001001001MA1999999101361MD1999999+0031REMSYN070AAXX  13184 83498 32595 30906 10291 20243 30136 40141 83100 333 58003;
0168834980999992009011400004-17733-039250FM-12+000399999V0200901N001012200019N0020001N1+02541+02401101501ADDGF102991021011008001001001KA1240M+03081MA1999999101451MD1999999-0091REMSYN088AAXX  14004 83498 32595 20902 10254 20240 30145 40150 82100 333 10308 29083 55064 59009;
0156834980999992009011412004-17733-039250FM-12+000399999V0200901N003110075019N0020001N1+02831+02381101511ADDGF105991051021008001001001KA1240N+02121MA1999999101461MD1999999-0091REMSYN076AAXX  14124 83498 32595 50906 10283 20238 30146 40151 85200 333 20212 59009;
0137834980999992009011418004-17733-039250FM-12+000399999V0200901N003612200019N0020001N1+02951+02381101221ADDGF104991031021008001001011MA1999999101171MD1999999-0191REMSYN070AAXX  14184 83498 32595 40907 10295 20238 30117 40122 83201 333 59019;
0178834980999992009011500004-17733-039250FM-12+000399999V0200901N001512200019N0020001N1+02531+02311101351ADDGA1001+999999999GF100991001001999999001001KA1240M+03011MA1999999101301MD1999999-0151REMSYN082AAXX  15004 83498 32995 00903 10253 20231 30130 40135 333 10301 29081 55051 59015;
0156834980999992009011512004-17733-039250FM-12+000399999V0200501N003110450019N0020001N1+02841+02351101361ADDGF105991031051008001041001KA1240N+02171MA1999999101311MD1999999-0151REMSYN076AAXX  15124 83498 32595 50506 10284 20235 30131 40136 83540 333 20217 59015;
0137834980999992009011518004-17733-039250FM-12+000399999V0203601N005112200019N0020001N1+02971+02381101041ADDGF103991011011008001001011MA1999999100991MD1999999-0181REMSYN070AAXX  15184 83498 32595 33610 10297 20238 30099 40104 81101 333 59018;
0178834980999992009011600004-17733-039250FM-12+000399999V0200501N003112200019N0020001N1+02651+02351101161ADDGA1001+999999999GF100991001001999999001001KA1240M+03091MA1999999101111MD1999999-0191REMSYN082AAXX  16004 83498 32995 00506 10265 20235 30111 40116 333 10309 29079 55052 59019;
0156834980999992009011612004-17733-039250FM-12+000399999V0203601N005110450019N0020001N1+02931+02361101451ADDGF106991031021008001041001KA1240N+02401MA1999999101401MD1999999+0091REMSYN076AAXX  16124 83498 32595 63610 10293 20236 30140 40145 83240 333 20240 58009;
0137834980999992009011618004-17733-039250FM-12+000399999V0203601N005711050019N0020001N1+02961+02421101171ADDGF105991031021008001001021MA1999999101121MD1999999+0131REMSYN070AAXX  16184 83498 32595 53611 10296 20242 30112 40117 83202 333 58013;
0178834980999992009011700004-17733-039250FM-12+000399999V0203601N002112200019N0020001N1+02591+02381101321ADDGA1001+999999999GF100991001001999999001001KA1240M+03101MA1999999101271MD1999999+0161REMSYN082AAXX  17004 83498 32995 03604 10259 20238 30127 40132 333 10310 29081 55034 58016;
0156834980999992009011712004-17733-039250FM-12+000399999V0203601N004610450019N0020001N1+02931+02411101431ADDGF105991031051008001041001KA1240N+02281MA1999999101381MD1999999-0021REMSYN076AAXX  17124 83498 32595 53609 10293 20241 30138 40143 83540 333 20228 59002;
0137834980999992009011718004-17733-039250FM-12+000399999V0200501N005110450019N0020001N1+02911+02461101271ADDGF106991031021008001041001MA1999999101221MD1999999+0101REMSYN070AAXX  17184 83498 32595 60510 10291 20246 30122 40127 83240 333 58010;
0178834980999992009011800004-17733-039250FM-12+000399999V0200501N001512200019N0020001N1+02571+02381101451ADDGA1001+999999999GF100991001001999999001001KA1240M+03091MA1999999101401MD1999999+0131REMSYN082AAXX  18004 83498 32995 00503 10257 20238 30140 40145 333 10309 29083 55015 58013;
0156834980999992009011812004-17733-039250FM-12+000399999V0203601N002610450019N0020001N1+02771+02321101461ADDGF105991031021008001041001KA1240N+02231MA1999999101411MD1999999+0031REMSYN076AAXX  18124 83498 32595 53605 10277 20232 30141 40146 83240 333 20223 58003;
0156834980999992009011818004-17733-039250FM-12+000399999V0200501N004112200019N0020001N1+02971+02281101191ADDGF103991001001999999001021MA1999999101141MD1999999-0081REMSYN070AAXX  18184 83498 32595 30508 10297 20228 30114 40119 80002 333 59008;EQDQ01+008002SCOLCB
0178834980999992009011900004-17733-039250FM-12+000399999V0200501N002112200019N0020001N1+02541+02291101351ADDGA1001+999999999GF100991001001999999001001KA1240M+03061MA1999999101301MD1999999-0101REMSYN082AAXX  19004 83498 32995 00504 10254 20229 30130 40135 333 10306 29079 55035 59010;
0156834980999992009011912004-17733-039250FM-12+000399999V0203601N003610450019N0020001N1+02851+02261101421ADDGF106991011011008001041011KA1240N+02121MA1999999101371MD1999999-0041REMSYN076AAXX  19124 83498 32595 63607 10285 20226 30137 40142 81141 333 20212 59004;
0137834980999992009011918004-17733-039250FM-12+000399999V0203601N005112200019N0020001N1+02951+02241101071ADDGF104991011011008001001011MA1999999101021MD1999999-0121REMSYN070AAXX  19184 83498 32595 43610 10295 20224 30102 40107 81101 333 59012;
0178834980999992009012000004-17733-039250FM-12+000399999V0203601N001512200019N0020001N1+02511+02321101251ADDGA1001+999999999GF100991001001999999001001KA1240M+03061MA1999999101201MD1999999-0101REMSYN082AAXX  20004 83498 32995 03603 10251 20232 30120 40125 333 10306 29079 55029 59010;
0156834980999992009012012004-17733-039250FM-12+000399999V0203601N005112200019N0020001N1+02871+02391101311ADDGF103991021011008001001011KA1240N+02121MA1999999101261MD1999999-0111REMSYN076AAXX  20124 83498 32595 33610 10287 20239 30126 40131 82101 333 20212 59011;
0137834980999992009012018004-17733-039250FM-12+000399999V0203601N005712200019N0020001N1+02921+02341100981ADDGF103991011011008001001011MA1999999100931MD1999999-0091REMSYN070AAXX  20184 83498 32595 33611 10292 20234 30093 40098 81101 333 59009;
0178834980999992009012100004-17733-039250FM-12+000399999V0203601N002112200019N0020001N1+02501+02291101171ADDGA1001+999999999GF100991001001999999001001KA1240M+03041MA1999999101121MD1999999-0081REMSYN082AAXX  21004 83498 32995 03604 10250 20229 30112 40117 333 10304 29081 55063 59008;
0156834980999992009012112004-17733-039250FM-12+000399999V0203601N004110450019N0020001N1+02851+02331101261ADDGF105991021011008001031001KA1240N+02171MA1999999101211MD1999999-0051REMSYN076AAXX  21124 83498 32595 53608 10285 20233 30121 40126 82130 333 20217 59005;
0137834980999992009012118004-17733-039250FM-12+000399999V0203601N003610450019N0020001N1+02931+02361101031ADDGF105991021011008001041001MA1999999100981MD1999999+0051REMSYN070AAXX  21184 83498 32595 53607 10293 20236 30098 40103 82140 333 58005;
0180834980999992009012200004-17733-039250FM-12+000399999V0203601N001510075019N0020001N1+02641+02421101251ADDGF108991051051008001021999KA1240M+03051MA1999999101201MD1999999+0081MW1131REMSYN094AAXX  22004 83498 31595 83603 10264 20242 30120 40125 713// 8552/ 333 10305 29081 55027 58008;
0156834980999992009012212004-17733-039250FM-12+000399999V0203601N003110450019N0020001N1+02831+02401101271ADDGF106991041051008001011001KA1240N+02431MA1999999101221MD1999999+0011REMSYN076AAXX  22124 83498 32595 63606 10283 20240 30122 40127 84510 333 20243 58001;
0137834980999992009012218004-17733-039250FM-12+000399999V0200501N004110450019N0020001N1+02961+02471101001ADDGF105991021031008001041001MA1999999100951MD1999999-0031REMSYN070AAXX  22184 83498 32595 50508 10296 20247 30095 40100 82340 333 59003;
0180834980999992009012300004-17733-039250FM-12+000399999V0200501N001012200019N0020001N1+02611+02421101211ADDGF102991021021008001001001KA1240M+03131MA1999999101161MD1999999-0041MW1131REMSYN094AAXX  23004 83498 31595 20502 10261 20242 30116 40121 713// 82200 333 10313 29083 55020 59004;
0201834980999992009012312004-17733-039250FM-12+000399999V0203601N001510450019N0020001N1+02571+02351101411ADDAA124003091AY161061AY261061GF108991031071008001021999KA1240N+02351MA1999999101361MD1999999+0141MW1211REMSYN088AAXX  23124 83498 21595 83603 10257 20235 30136 40141 72166 8372/ 333 20235 58014 60034;
0182834980999992009012318004-17733-039250FM-12+000399999V0202301N001510450019N0020001N1+02621+02371101251ADDAA106000391AY161061AY261061GF108991021071008001021999MA1999999101201MD1999999+0251MW1211REMSYN082AAXX  23184 83498 21595 82303 10262 20237 30120 40125 72166 8272/ 333 58025 69931;
0213834980999992009012400004-17733-039250FM-12+000399999V0200901N001512200019N0020001N1+02651+02441101361ADDAA106000021AY121061AY211061GF103991031061008001001001KA1240M+02911MA1999999101311MD1999999+0151MW1031REMSYN100AAXX  24004 83498 21595 30903 10265 20244 30131 40136 70321 83600 333 10291 29088 55004 58015 69921;
0201834980999992009012412004-17733-039250FM-12+000399999V0202301N001510450019N0020001N1+02691+02461101291ADDAA124007191AY161061AY261061GF107991041061008001071001KA1240N+02271MA1999999101241MD1999999-0121MW1611REMSYN088AAXX  24124 83498 21595 72303 10269 20246 30124 40129 76166 84670 333 20227 59012 60074;
0137834980999992009012418004-17733-039250FM-12+000399999V0201401N004110450019N0020001N1+02871+02441101051ADDGF106991041051008001041001MA1999999101001MD1999999-0201REMSYN070AAXX  24184 83498 32595 61408 10287 20244 30100 40105 84540 333 59020;
0213834980999992009012500004-17733-039250FM-12+000399999V0200501N002112200019N0020001N1+02571+02351101221ADDAA106000391AY121061AY211061GF103991031061008001001001KA1240M+02951MA1999999101171MD1999999-0141MW1031REMSYN100AAXX  25004 83498 21595 30504 10257 20235 30117 40122 70321 83600 333 10295 29085 55009 59014 69931;
0201834980999992009012512004-17733-039250FM-12+000399999V0200501N002110450019N0020001N1+02671+02371101291ADDAA124048091AY161061AY261061GF107991041061008001011001KA1240N+02201MA1999999101241MD1999999+0001MW1211REMSYN088AAXX  25124 83498 21595 70504 10267 20237 30124 40129 72166 84610 333 20220 58000 60484;
0182834980999992009012518004-17733-039250FM-12+000399999V0200501N005110075019N0020001N1+02661+02391101161ADDAA106003091AY161061AY261061GF108991051051008001021999MA1999999101111MD1999999+0111MW1211REMSYN082AAXX  25184 83498 21595 80510 10266 20239 30111 40116 72166 8552/ 333 58011 60031;
0213834980999992009012600004-17733-039250FM-12+000399999V0209999C000010450019N0020001N1+02511+02401101351ADDAA106000591AY121061AY211061GF106991031061008001011001KA1240M+02991MA1999999101301MD1999999+0131MW1031REMSYN100AAXX  26004 83498 21595 60000 10251 20240 30130 40135 70321 83610 333 10299 29089 55000 58013 69941;
0201834980999992009012612004-17733-039250FM-12+000399999V0203601N001510450019N0020001N1+02441+02341101521ADDAA124023991AY161061AY261061GF107991031071008001011001KA1240N+02131MA1999999101471MD1999999+0231MW1611REMSYN088AAXX  26124 83498 21595 73603 10244 20234 30147 40152 76166 83710 333 20213 58023 60244;
0182834980999992009012618004-17733-039250FM-12+000399999V0200501N003110450019N0020001N1+02631+02331101271ADDAA106000891AY121061AY211061GF107991041051008001011001MA1999999101221MD1999999+0111MW1031REMSYN082AAXX  26184 83498 21595 70506 10263 20233 30122 40127 70321 84510 333 58011 69981;
0178834980999992009012700004-17733-039250FM-12+000399999V0209999C000010012019N0020001N1+02501+02361101481ADDGA1091+999999999GF109991091999999999999999KA1240M+02671MA1999999101431MD1999999+0131REMSYN082AAXX  27004 83498 32/95 90000 10250 20236 30143 40148 333 10267 29081 55000 58013;
0201834980999992009012712004-17733-039250FM-12+000399999V0202701N000510450019N0020001N1+02621+02441101581ADDAA124014091AY161061AY261061GF107991021071008001011001KA1240N+02311MA1999999101531MD1999999+0061MW1211REMSYN088AAXX  27124 83498 21595 72701 10262 20244 30153 40158 72166 82710 333 20231 58006 60144;
0182834980999992009012718004-17733-039250FM-12+000399999V0200501N003110450019N0020001N1+02831+02401101381ADDAA106002091AY121061AY211061GF106991021021008001041001MA1999999101331MD1999999+0111MW1031REMSYN082AAXX  27184 83498 21595 60506 10283 20240 30133 40138 70321 82240 333 58011 60021;
0168834980999992009012800004-17733-039250FM-12+000399999V0200501N001512200019N0020001N1+02501+02311101511ADDGF103991031061008001001001KA1240M+02891MA1999999101461MD1999999+0031REMSYN088AAXX  28004 83498 32595 30503 10250 20231 30146 40151 83600 333 10289 29087 55011 58003;
0201834980999992009012812004-17733-039250FM-12+000399999V0203601N003110450019N0020001N1+02891+02351101521ADDAA124004191AY121061AY211061GF105991031021008001041001KA1240N+02221MA1999999101471MD1999999-0061MW1031REMSYN088AAXX  28124 83498 21595 53606 10289 20235 30147 40152 70321 83240 333 20222 59006 60044;
0137834980999992009012818004-17733-039250FM-12+000399999V0200501N003612200019N0020001N1+02951+02361101281ADDGF104991021011008001001011MA1999999101231MD1999999-0101REMSYN070AAXX  28184 83498 32595 40507 10295 20236 30123 40128 82101 333 59010;
0178834980999992009012900004-17733-039250FM-12+000399999V0209999C000012200019N0020001N1+02481+02321101531ADDGA1001+999999999GF100991001001999999001001KA1240M+03051MA1999999101481MD1999999+0021REMSYN082AAXX  29004 83498 32995 00000 10248 20232 30148 40153 333 10305 29082 55060 58002;
0156834980999992009012912004-17733-039250FM-12+000399999V0203601N002610450019N0020001N1+02831+02311101541ADDGF106991041021008001041001KA1240N+02081MA1999999101491MD1999999+0021REMSYN076AAXX  29124 83498 32595 63605 10283 20231 30149 40154 84240 333 20208 58002;
0137834980999992009012918004-17733-039250FM-12+000399999V0200901N003612200019N0020001N1+02971+02401101251ADDGF103991011011008001001011MA1999999101201MD1999999-0031REMSYN070AAXX  29184 83498 32595 30907 10297 20240 30120 40125 81101 333 59003;
0178834980999992009013000004-17733-039250FM-12+000399999V0209999C000012200019N0020001N1+02501+02311101451ADDGA1001+999999999GF100991001001999999001001KA1240M+03041MA1999999101401MD1999999-0081REMSYN082AAXX  30004 83498 32995 00000 10250 20231 30140 40145 333 10304 29082 55061 59008;
0156834980999992009013012004-17733-039250FM-12+000399999V0203601N000512200019N0020001N1+02811+02361101431ADDGF105991041021008001001011KA1240N+02171MA1999999101381MD1999999-0111REMSYN076AAXX  30124 83498 32595 53601 10281 20236 30138 40143 84201 333 20217 59011;
0137834980999992009013018004-17733-039250FM-12+000399999V0200501N003111050019N0020001N1+03011+02371101141ADDGF106991011011008001001021MA1999999101091MD1999999-0111REMSYN070AAXX  30184 83498 32595 60506 10301 20237 30109 40114 81102 333 59011;
0178834980999992009013100004-17733-039250FM-12+000399999V0200501N001512200019N0020001N1+02551+02291101181ADDGA1001+999999999GF100991001001999999001001KA1240M+03071MA1999999101131MD1999999-0301REMSYN082AAXX  31004 83498 32995 00503 10255 20229 30113 40118 333 10307 29080 55035 59030;
0156834980999992009013112004-17733-039250FM-12+000399999V0203601N003112200019N0020001N1+02931+02341101321ADDGF104991041011008001001001KA1240N+02121MA1999999101271MD1999999-0111REMSYN076AAXX  31124 83498 32595 43606 10293 20234 30127 40132 84100 333 20212 59011;
0137834980999992009013118004-17733-039250FM-12+000399999V0200501N003112200019N0020001N1+03011+02321101021ADDGF101991011011008001001001MA1999999100971MD1999999-0121REMSYN070AAXX  31184 83498 32595 10506 10301 20232 30097 40102 81100 333 59012;
0178834980999992009020100004-17733-039250FM-12+000399999V0200501N001512200019N0020001N1+02591+02371101101ADDGA1001+999999999GF100991001001999999001001KA1240M+03111MA1999999101051MD1999999-0081REMSYN082AAXX  01004 83498 32995 00503 10259 20237 30105 40110 333 10311 29079 55087 59008;
0156834980999992009020112004-17733-039250FM-12+000399999V0203601N003112200019N0020001N1+02931+02361101211ADDGF103991031011008001001001KA1240N+02221MA1999999101161MD1999999-0111REMSYN076AAXX  01124 83498 32595 33606 10293 20236 30116 40121 83100 333 20222 59011;
0137834980999992009020118004-17733-039250FM-12+000399999V0203601N003112200019N0020001N1+03031+02461101021ADDGF101991011011008001001001MA1999999100971MD1999999+0001REMSYN070AAXX  01184 83498 32595 13606 10303 20246 30097 40102 81100 333 58000;
0178834980999992009020200004-17733-039250FM-12+000399999V0200501N001512200019N0020001N1+02571+02401101191ADDGA1001+999999999GF100991001001999999001001KA1240M+03091MA1999999101141MD1999999+0091REMSYN082AAXX  02004 83498 32995 00503 10257 20240 30114 40119 333 10309 29082 55082 58009;
0156834980999992009020212004-17733-039250FM-12+000399999V0203601N002112200019N0020001N1+02991+02121101401ADDGF102991021011008001001001KA1240N+02171MA1999999101351MD1999999+0191REMSYN076AAXX  02124 83498 32595 23604 10299 20212 30135 40140 82100 333 20217 58019;
0137834980999992009020218004-17733-039250FM-12+000399999V0200901N004112200019N0020001N1+02991+02031101121ADDGF101991011011008001001001MA1999999101071MD1999999+0101REMSYN070AAXX  02184 83498 32595 10908 10299 20203 30107 40112 81100 333 58010;
0178834980999992009020300004-17733-039250FM-12+000399999V0200501N001512200019N0020001N1+02631+02371101361ADDGA1001+999999999GF100991001001999999001001KA1240M+03131MA1999999101311MD1999999+0021REMSYN082AAXX  03004 83498 32995 00503 10263 20237 30131 40136 333 10313 29075 55081 58002;
0220834980999992009020312004-17733-039250FM-12+000399999V0201401N001010450019N0020001N1+02811+02381101611ADDAA124000091AY121061AY211061GF106991041051008001041001KA1240N+02331MA1999999101561MD1999999+0211MW1031REMSYN088AAXX  03124 83498 21595 61402 10281 20238 30156 40161 70321 84540 333 20233 58021 69924;EQDQ01  00002PRCP24
0137834980999992009020318004-17733-039250FM-12+000399999V0200901N003612200019N0020001N1+02991+02431101351ADDGF102991021011008001001001MA1999999101301MD1999999+0281REMSYN070AAXX  03184 83498 32595 20907 10299 20243 30130 40135 82100 333 58028;
0178834980999992009020400004-17733-039250FM-12+000399999V0200901N002612200019N0020001N1+02611+02351101521ADDGA1001+999999999GF100991001001999999001001KA1240M+03051MA1999999101471MD1999999+0161REMSYN082AAXX  04004 83498 32995 00905 10261 20235 30147 40152 333 10305 29081 55077 58016;
0201834980999992009020412004-17733-039250FM-12+000399999V0203601N000510450019N0020001N1+02591+02371101581ADDAA124002091AY161061AY261061GF107991021071008001011001KA1240N+02241MA1999999101531MD1999999-0031MW1601REMSYN088AAXX  04124 83498 21595 73601 10259 20237 30153 40158 76066 82710 333 20224 59003 60024;
0182834980999992009020418004-17733-039250FM-12+000399999V0200501N003112200019N0020001N1+03001+02391101281ADDAA106000021AY121061AY211061GF101991011011008001001001MA1999999101231MD1999999-0071MW1031REMSYN082AAXX  04184 83498 21595 10506 10300 20239 30123 40128 70321 81100 333 59007 69921;
0168834980999992009020500004-17733-039250FM-12+000399999V0209999C000012200019N0020001N1+02561+02461101441ADDGF103991031021008001001001KA1240M+03111MA1999999101391MD1999999-0071REMSYN088AAXX  05004 83498 32595 30000 10256 20246 30139 40144 83200 333 10311 29086 55047 59007;
0173834980999992009020512004-17733-039250FM-12+000399999V0203601N002610450019N0020001N1+02731+02371101461ADDAA124000021GF107991041051008001011001KA1240N+02231MA1999999101411MD1999999-0121REMSYN082AAXX  05124 83498 22595 73605 10273 20237 30141 40146 84510 333 20223 59012 69924;
0137834980999992009020518004-17733-039250FM-12+000399999V0200501N004112200019N0020001N1+03041+02361101101ADDGF102991021011008001001001MA1999999101051MD1999999-0181REMSYN070AAXX  05184 83498 32595 20508 10304 20236 30105 40110 82100 333 59018;
0178834980999992009020600004-17733-039250FM-12+000399999V0200501N001512200019N0020001N1+02651+02291101331ADDGA1001+999999999GF100991001001999999001001KA1240M+03111MA1999999101281MD1999999-0131REMSYN082AAXX  06004 83498 32995 00503 10265 20229 30128 40133 333 10311 29078 55068 59013;
0156834980999992009020612004-17733-039250FM-12+000399999V0203601N004612200019N0020001N1+02991+02371101461ADDGF104991041021008001001001KA1240N+02251MA1999999101411MD1999999+0001REMSYN076AAXX  06124 83498 32595 43609 10299 20237 30141 40146 84200 333 20225 58000;
0137834980999992009020618004-17733-039250FM-12+000399999V0200501N003112200019N0020001N1+03051+02501101201ADDGF101991011011008001001001MA1999999101151MD1999999-0101REMSYN070AAXX  06184 83498 32595 10506 10305 20250 30115 40120 81100 333 59010;
0168834980999992009020700004-17733-039250FM-12+000399999V0200501N001012200019N0020001N1+02571+02401101361ADDGF101991011011008001001001KA1240M+03141MA1999999101311MD1999999-0031REMSYN088AAXX  07004 83498 32595 10502 10257 20240 30131 40136 81100 333 10314 29081 55080 59003;
0156834980999992009020712004-17733-039250FM-12+000399999V0200501N002612200019N0020001N1+02971+02431101461ADDGF104991041021008001001001KA1240N+02241MA1999999101411MD1999999+0261REMSYN076AAXX  07124 83498 32595 40505 10297 20243 30141 40146 84200 333 20224 58026;
0137834980999992009020718004-17733-039250FM-12+000399999V0200501N004612200019N0020001N1+03011+02421101111ADDGF101991011011008001001001MA1999999101061MD1999999+0011REMSYN070AAXX  07184 83498 32595 10509 10301 20242 30106 40111 81100 333 58001;
0168834980999992009020800004-17733-039250FM-12+000399999V0209999C000012200019N0020001N1+02611+02421101331ADDGF101991011011008001001001KA1240M+03151MA1999999101281MD1999999-0131REMSYN088AAXX  08004 83498 32595 10000 10261 20242 30128 40133 81100 333 10315 29081 55077 59013;
0201834980999992009020812004-17733-039250FM-12+000399999V0203601N001510450019N0020001N1+02821+02441101351ADDAA124000391AY121061AY211061GF106991041051008001011001KA1240N+02311MA1999999101301MD1999999-0241MW1031REMSYN088AAXX  08124 83498 21595 63603 10282 20244 30130 40135 70321 84510 333 20231 59024 69934;
0182834980999992009020818004-17733-039250FM-12+000399999V0200501N002610450019N0020001N1+02891+02411101111ADDAA106000391AY121061AY211061GF106991041051008001041001MA1999999101061MD1999999+0001MW1031REMSYN082AAXX  08184 83498 21595 60505 10289 20241 30106 40111 70321 84540 333 58000 69931;
0168834980999992009020900004-17733-039250FM-12+000399999V0209999C000012200019N0020001N1+02611+02421101311ADDGF102991021041008001001001KA1240M+03091MA1999999101261MD1999999-0021REMSYN088AAXX  09004 83498 32595 20000 10261 20242 30126 40131 82400 333 10309 29084 55027 59002;
0201834980999992009020912004-17733-039250FM-12+000399999V0203601N003110450019N0020001N1+02781+02501101351ADDAA124002091AY161061AY261061GF106991041051008001041001KA1240N+02361MA1999999101301MD1999999+0001MW1211REMSYN088AAXX  09124 83498 21595 63606 10278 20250 30130 40135 72166 84540 333 20236 58000 60024;
0137834980999992009020918004-17733-039250FM-12+000399999V0200501N003112200019N0020001N1+02991+02531101021ADDGF102991021011008001001001MA1999999100971MD1999999-0091REMSYN070AAXX  09184 83498 32595 20506 10299 20253 30097 40102 82100 333 59009;
0168834980999992009021000004-17733-039250FM-12+000399999V0209999C000012200019N0020001N1+02611+02421101241ADDGF102991021011008001001001KA1240M+03131MA1999999101191MD1999999-0091REMSYN088AAXX  10004 83498 32595 20000 10261 20242 30119 40124 82100 333 10313 29086 55050 59009;
0156834980999992009021012004-17733-039250FM-12+000399999V0200501N002110450019N0020001N1+02931+02451101431ADDGF106991041051008001041001KA1240N+02301MA1999999101381MD1999999+0081REMSYN076AAXX  10124 83498 32595 60504 10293 20245 30138 40143 84540 333 20230 58008;
0137834980999992009021018004-17733-039250FM-12+000399999V0200501N003112200019N0020001N1+03081+02441101201ADDGF103991011011008001001011MA1999999101151MD1999999+0181REMSYN070AAXX  10184 83498 32595 30506 10308 20244 30115 40120 81101 333 58018;
0168834980999992009021100004-17733-039250FM-12+000399999V0200901N002112200019N0020001N1+02621+02421101371ADDGF105991011011008001001081KA1240M+03151MA1999999101321MD1999999+0151REMSYN088AAXX  11004 83498 32595 50904 10262 20242 30132 40137 81108 333 10315 29081 55069 58015;
0156834980999992009021112004-17733-039250FM-12+000399999V0203601N003110450019N0020001N1+02781+02361101481ADDGF107991031021008001031011KA1240N+02201MA1999999101431MD1999999+0051REMSYN076AAXX  11124 83498 32595 73606 10278 20236 30143 40148 83231 333 20220 58005;
0137834980999992009021118004-17733-039250FM-12+000399999V0200501N003612200019N0020001N1+03061+02331101201ADDGF104991031011008001031001MA1999999101151MD1999999+0001REMSYN070AAXX  11184 83498 32595 40507 10306 20233 30115 40120 83130 333 58000;
0168834980999992009021200004-17733-039250FM-12+000399999V0200501N000512200019N0020001N1+02481+02011101211ADDGF101991011011008001001001KA1240M+03091MA1999999101161MD1999999-0161REMSYN088AAXX  12004 83498 32595 10501 10248 20201 30116 40121 81100 333 10309 29075 55053 59016;
0156834980999992009021212004-17733-039250FM-12+000399999V0203601N003112200019N0020001N1+02871+02231101181ADDGF103991031011008001001001KA1240N+02131MA1999999101131MD1999999-0301REMSYN076AAXX  12124 83498 32595 33606 10287 20223 30113 40118 83100 333 20213 59030;
0137834980999992009021218004-17733-039250FM-12+000399999V0203601N003611050019N0020001N1+03011+02271100761ADDGF106991021021008001001081MA1999999100711MD1999999-0441REMSYN070AAXX  12184 83498 32595 63607 10301 20227 30071 40076 82208 333 59044;
0187834980999992009021300004-17733-039250FM-12+000399999V0203601N001512200019N0020001N1+02591+02351100881ADDGF104991001001999999001081KA1240M+03101MA1999999100831MD1999999-0331REMSYN088AAXX  13004 83498 32595 43603 10259 20235 30083 40088 80008 333 10310 29077 55060 59033;EQDQ01+008002SCOLCB
0156834980999992009021312004-17733-039250FM-12+000399999V0203601N003610450019N0020001N1+02881+02321100961ADDGF106991021011008001031021KA1240N+02201MA1999999100911MD1999999-0221REMSYN076AAXX  13124 83498 32595 63607 10288 20232 30091 40096 82132 333 20220 59022;
0137834980999992009021318004-17733-039250FM-12+000399999V0203601N004112200019N0020001N1+03041+02281100611ADDGF104991021011008001001021MA1999999100561MD1999999-0151REMSYN070AAXX  13184 83498 32595 43608 10304 20228 30056 40061 82102 333 59015;
0156834980999992009021412004-17733-039250FM-12+000399999V0203601N003612200019N0020001N1+02951+02381101251ADDGF104991021021008001031001KA1240N+02261MA1999999101201MD1999999+0291REMSYN076AAXX  14124 83498 32595 43607 10295 20238 30120 40125 82230 333 20226 58029;
0137834980999992009021418004-17733-039250FM-12+000399999V0200501N003110450019N0020001N1+03031+02261101071ADDGF106991011011008001031081MA1999999101021MD1999999+0461REMSYN070AAXX  14184 83498 32595 60506 10303 20226 30102 40107 81138 333 58046;
0168834980999992009021500004-17733-039250FM-12+000399999V0200901N001512200019N0020001N1+02611+02391101241ADDGF102991021011008001001001KA1240M+03191MA1999999101191MD1999999+0281REMSYN088AAXX  15004 83498 32595 20903 10261 20239 30119 40124 82100 333 10319 29078 55043 58028;
0201834980999992009021512004-17733-039250FM-12+000399999V0200901N001512200019N0020001N1+02941+02291101411ADDAA124000591AY161061AY211061GF104991021011008001001011KA1240N+02201MA1999999101361MD1999999+0161MW1211REMSYN088AAXX  15124 83498 21595 40903 10294 20229 30136 40141 72161 82101 333 20220 58016 69964;
0137834980999992009021518004-17733-039250FM-12+000399999V0200501N003112200019N0020001N1+03061+02301101161ADDGF103991021011008001031001MA1999999101111MD1999999+0091REMSYN070AAXX  15184 83498 32595 30506 10306 20230 30111 40116 82130 333 58009;
0213834980999992009021600004-17733-039250FM-12+000399999V0200501N001012200019N0020001N1+02581+02171101351ADDAA106003091AY161061AY211061GF101991011011008001001001KA1240M+03031MA1999999101301MD1999999+0111MW1211REMSYN100AAXX  16004 83498 21595 10502 10258 20217 30130 40135 72161 81100 333 10303 29072 55050 58011 60031;
0173834980999992009021612004-17733-039250FM-12+000399999V0200901N004110450019N0020001N1+02911+02461101411ADDAA124003091GF106991041051008001041001KA1240N+02431MA1999999101361MD1999999+0001REMSYN082AAXX  16124 83498 22595 60908 10291 20246 30136 40141 84540 333 20243 58000 60034;
0137834980999992009021618004-17733-039250FM-12+000399999V0200901N004112200019N0020001N1+02981+02441101221ADDGF104991031021008001041001MA1999999101171MD1999999+0061REMSYN070AAXX  16184 83498 32595 40908 10298 20244 30117 40122 83240 333 58006;
0168834980999992009021700004-17733-039250FM-12+000399999V0200901N001512200019N0020001N1+02701+02411101381ADDGF103991031021008001001001KA1240M+03021MA1999999101331MD1999999+0031REMSYN088AAXX  17004 83498 32595 30903 10270 20241 30133 40138 83200 333 10302 29080 55074 58003;
0156834980999992009021712004-17733-039250FM-12+000399999V0201401N001010450019N0020001N1+02801+02341101501ADDGF107991021011008001041001KA1240N+02171MA1999999101451MD1999999+0091REMSYN076AAXX  17124 83498 32595 71402 10280 20234 30145 40150 82140 333 20217 58009;
0137834980999992009021718004-17733-039250FM-12+000399999V0200901N002110450019N0020001N1+02961+02331101361ADDGF105991031011008001031001MA1999999101311MD1999999+0141REMSYN070AAXX  17184 83498 32595 50904 10296 20233 30131 40136 83130 333 58014;
0168834980999992009021800004-17733-039250FM-12+000399999V0200901N001512200019N0020001N1+02681+02241101441ADDGF103991031011008001001001KA1240M+02991MA1999999101391MD1999999+0061REMSYN088AAXX  18004 83498 32595 30903 10268 20224 30139 40144 83100 333 10299 29075 55060 58006;
0175834980999992009021812004-17733-039250FM-12+000399999V0200901N003112200019N0020001N1+02981+02471101531ADDGF104991999011008001001001KA1240N+02431MA1999999101481MD1999999+0031REMSYN076AAXX  18124 83498 32595 40906 10298 20247 30148 40153 82100 333 20243 58003;EQDQ01+000022SCOTLC
0137834980999992009021818004-17733-039250FM-12+000399999V0200901N002612200019N0020001N1+02951+02381101311ADDGF104991011011008001001011MA1999999101261MD1999999-0051REMSYN070AAXX  18184 83498 32595 40905 10295 20238 30126 40131 81101 333 59005;
0168834980999992009021900004-17733-039250FM-12+000399999V0201401N003112200019N0020001N1+02681+02351101401ADDGF102991021011008001001001KA1240M+03041MA1999999101351MD1999999-0041REMSYN088AAXX  19004 83498 32595 21406 10268 20235 30135 40140 82100 333 10304 29078 55078 59004;
0156834980999992009021912004-17733-039250FM-12+000399999V0201401N001510450019N0020001N1+02781+02301101421ADDGF106991031011008001041001KA1240N+02281MA1999999101371MD1999999-0111REMSYN076AAXX  19124 83498 32595 61403 10278 20230 30137 40142 83140 333 20228 59011;
0137834980999992009021918004-17733-039250FM-12+000399999V0200901N002612200019N0020001N1+03101+02261101161ADDGF104991021011008001031001MA1999999101111MD1999999-0151REMSYN070AAXX  19184 83498 32595 40905 10310 20226 30111 40116 82130 333 59015;
0168834980999992009022000004-17733-039250FM-12+000399999V0200901N001012200019N0020001N1+02621+02211101391ADDGF102991021011008001001001KA1240M+03051MA1999999101341MD1999999-0011REMSYN088AAXX  20004 83498 32595 20902 10262 20221 30134 40139 82100 333 10305 29073 55079 59001;
0156834980999992009022012004-17733-039250FM-12+000399999V0200901N002110450019N0020001N1+02841+02351101341ADDGF106991041021008001041001KA1240N+02181MA1999999101291MD1999999-0081REMSYN076AAXX  20124 83498 32595 60904 10284 20235 30129 40134 84240 333 20218 59008;
0137834980999992009022018004-17733-039250FM-12+000399999V0200901N003112200019N0020001N1+02951+02361101031ADDGF102991021021008001001001MA1999999100981MD1999999-0131REMSYN070AAXX  20184 83498 32595 20906 10295 20236 30098 40103 82200 333 59013;
0156834980999992009022112004-17733-039250FM-12+000399999V0200901N002112200019N0020001N1+02821+02241101231ADDGF104991021011008001031001KA1240N+02081MA1999999101181MD1999999-0111REMSYN076AAXX  21124 83498 32595 40904 10282 20224 30118 40123 82130 333 20208 59011;
0137834980999992009022118004-17733-039250FM-12+000399999V0200901N002612200019N0020001N1+03041+02281100961ADDGF103991021011008001031001MA1999999100911MD1999999-0071REMSYN070AAXX  21184 83498 32595 30905 10304 20228 30091 40096 82130 333 59007;
0156834980999992009022212004-17733-039250FM-12+000399999V0203601N002610450019N0020001N1+03011+02321101391ADDGF106991041021008001031001KA1240N+02251MA1999999101341MD1999999+0161REMSYN076AAXX  22124 83498 32595 63605 10301 20232 30134 40139 84230 333 20225 58016;
0137834980999992009022218004-17733-039250FM-12+000399999V0203601N004111050019N0020001N1+03011+02491101231ADDGF106991021021008001001021MA1999999101181MD1999999+0271REMSYN070AAXX  22184 83498 32595 63608 10301 20249 30118 40123 82202 333 58027;
0201834980999992009022312004-17733-039250FM-12+000399999V0200901N002110450019N0020001N1+02801+02291101351ADDAA124000591AY161061AY221061GF106991031011008001041001KA1240N+02121MA1999999101301MD1999999-0041MW1211REMSYN088AAXX  23124 83498 21595 60904 10280 20229 30130 40135 72162 83140 333 20212 59004 69964;
0137834980999992009022318004-17733-039250FM-12+000399999V0200501N003112200019N0020001N1+03041+02281101111ADDGF104991021011008001041001MA1999999101061MD1999999-0121REMSYN070AAXX  23184 83498 32595 40506 10304 20228 30106 40111 82140 333 59012;
0156834980999992009022412004-17733-039250FM-12+000399999V0203601N001510450019N0020001N1+02831+02381101291ADDGF106991021071008001011001KA1240N+02201MA1999999101241MD1999999-0061REMSYN076AAXX  24124 83498 32595 63603 10283 20238 30124 40129 82710 333 20220 59006;
0182834980999992009022418004-17733-039250FM-12+000399999V0200501N004612200019N0020001N1+03031+02411100961ADDAA106000391AY121061AY211061GF102991021011008001001001MA1999999100911MD1999999-0151MW1011REMSYN082AAXX  24184 83498 21595 20509 10303 20241 30091 40096 70121 82100 333 59015 69931;
0173834980999992009022512004-17733-039250FM-12+000399999V0200901N000510450019N0020001N1+02621+02251101401ADDAA124000391GF106991031051008001031001KA1240N+02171MA1999999101351MD1999999+0111REMSYN082AAXX  25124 83498 22595 60901 10262 20225 30135 40140 83530 333 20217 58011 69934;
0137834980999992009022518004-17733-039250FM-12+000399999V0200501N002112200019N0020001N1+02961+02231101201ADDGF104991031011008001031001MA1999999101151MD1999999+0181REMSYN070AAXX  25184 83498 32595 40504 10296 20223 30115 40120 83130 333 58018;
0168834980999992009022600004-17733-039250FM-12+000399999V0200901N001012200019N0020001N1+02641+02231101331ADDGF102991021011008001001001KA1240M+03091MA1999999101281MD1999999+0171REMSYN088AAXX  26004 83498 32595 20902 10264 20223 30128 40133 82100 333 10309 29076 55062 58017;
0175834980999992009022612004-17733-039250FM-12+000399999V0200901N003119999999N0020001N1+02951+02451101371ADDGF106991999021008001001001KA1240N+02021MA1999999101321MD1999999-0031REMSYN076AAXX  26124 83498 32595 60906 10295 20245 30132 40137 84200 333 20202 59003;EQDQ01+000042SCOTLC
0137834980999992009022618004-17733-039250FM-12+000399999V0200901N001510450019N0020001N1+02911+02431101161ADDGF106991031031008001041001MA1999999101111MD1999999-0031REMSYN070AAXX  26184 83498 32595 60903 10291 20243 30111 40116 83340 333 59003;
0213834980999992009022700004-17733-039250FM-12+000399999V0209999C000012200019N0020001N1+02481+02341101341ADDAA106003091AY161061AY261061GF103991031061008001001001KA1240M+03121MA1999999101291MD1999999+0011MW1211REMSYN100AAXX  27004 83498 21595 30000 10248 20234 30129 40134 72166 83600 333 10312 29084 55023 58001 60031;
0173834980999992009022712004-17733-039250FM-12+000399999V0200901N001510450019N0020001N1+02781+02301101441ADDAA124003091GF108991031051008001041001KA1240N+02171MA1999999101391MD1999999+0071REMSYN082AAXX  27124 83498 22595 80903 10278 20230 30139 40144 83540 333 20217 58007 60034;
0137834980999992009022718004-17733-039250FM-12+000399999V0200901N003110450019N0020001N1+02881+02321101291ADDGF106991031011008001041001MA1999999101241MD1999999+0131REMSYN070AAXX  27184 83498 32595 60906 10288 20232 30124 40129 83140 333 58013;
0168834980999992009022800004-17733-039250FM-12+000399999V0200901N000512200019N0020001N1+02561+02081101311ADDGF102991021011008001001001KA1240M+03061MA1999999101261MD1999999-0031REMSYN088AAXX  28004 83498 32595 20901 10256 20208 30126 40131 82100 333 10306 29074 55042 59003;
0220834980999992009022812004-17733-039250FM-12+000399999V0202301N001510450019N0020001N1+02761+02441101511ADDAA124000091AY121061AY211061GF107991041051008001041001KA1240N+02191MA1999999101461MD1999999+0071MW1031REMSYN088AAXX  28124 83498 21595 72303 10276 20244 30146 40151 70321 84540 333 20219 58007 69914;EQDQ01  00002PRCP24
0182834980999992009022818004-17733-039250FM-12+000399999V0200901N002612200019N0020001N1+03031+02341101221ADDAA106002091AY121061AY211061GF102991011011008001001011MA1999999101171MD1999999-0071MW1031REMSYN082AAXX  28184 83498 21595 20905 10303 20234 30117 40122 70321 81101 333 59007 60021;
0178834980999992009030100004-17733-039250FM-12+000399999V0209999C000012200019N0020001N1+02511+02291101451ADDGA1001+999999999GF100991001001999999001001KA1240M+03091MA1999999101401MD1999999+0141REMSYN082AAXX  01004 83498 32995 00000 10251 20229 30140 40145 333 10309 29082 55043 58014;
0173834980999992009030112004-17733-039250FM-12+000399999V0200501N001510450019N0020001N1+02861+02311101521ADDAA124002091GF106991041021008001041001KA1240N+02141MA1999999101471MD1999999+0011REMSYN082AAXX  01124 83498 22595 60503 10286 20231 30147 40152 84240 333 20214 58001 60024;
0137834980999992009030118004-17733-039250FM-12+000399999V0200501N002610450019N0020001N1+03061+02301101191ADDGF105991021011008001041001MA1999999101141MD1999999-0031REMSYN070AAXX  01184 83498 32595 50505 10306 20230 30114 40119 82140 333 59003;
0168834980999992009030200004-17733-039250FM-12+000399999V0200901N000512200019N0020001N1+02561+02081101481ADDGF101991011011008001001001KA1240M+03181MA1999999101431MD1999999+0031REMSYN088AAXX  02004 83498 32595 10901 10256 20208 30143 40148 81100 333 10318 29072 55049 58003;
0156834980999992009030212004-17733-039250FM-12+000399999V0209999C000010450019N0020001N1+02851+02401101521ADDGF105991041021008001041001KA1240N+02171MA1999999101471MD1999999+0001REMSYN076AAXX  02124 83498 32595 50000 10285 20240 30147 40152 84240 333 20217 58000;
0168834980999992009030300004-17733-039250FM-12+000399999V0200501N001012200019N0020001N1+02551+02291101341ADDGF102991021011008001001001KA1240M+03211MA1999999101291MD1999999-0141REMSYN088AAXX  03004 83498 32595 20502 10255 20229 30129 40134 82100 333 10321 29078 55070 59014;
0156834980999992009030312004-17733-039250FM-12+000399999V0203601N002610075019N0020001N1+02801+02271101351ADDGF105991051021008001001001KA1240N+02111MA1999999101301MD1999999-0171REMSYN076AAXX  03124 83498 32595 53605 10280 20227 30130 40135 85200 333 20211 59017;
0137834980999992009030318004-17733-039250FM-12+000399999V0200501N003112200019N0020001N1+03081+02291100961ADDGF103991021011008001001011MA1999999100911MD1999999-0201REMSYN070AAXX  03184 83498 32595 30506 10308 20229 30091 40096 82101 333 59020;
0168834980999992009030400004-17733-039250FM-12+000399999V0200501N001012200019N0020001N1+02541+02111101111ADDGF102991021011008001001001KA1240M+03271MA1999999101061MD1999999-0231REMSYN088AAXX  04004 83498 32595 20502 10254 20211 30106 40111 82100 333 10327 29072 55052 59023;
0156834980999992009030412004-17733-039250FM-12+000399999V0203601N003112200019N0020001N1+02911+02321101161ADDGF103991031021008001001001KA1240N+02181MA1999999101111MD1999999-0191REMSYN076AAXX  04124 83498 32595 33606 10291 20232 30111 40116 83200 333 20218 59019;
0137834980999992009030418004-17733-039250FM-12+000399999V0200501N004112200019N0020001N1+03131+02351100851ADDGF101991011011008001001001MA1999999100801MD1999999-0111REMSYN070AAXX  04184 83498 32595 10508 10313 20235 30080 40085 81100 333 59011;
0178834980999992009030500004-17733-039250FM-12+000399999V0209999C000012200019N0020001N1+02541+02351101101ADDGA1001+999999999GF100991001001999999001001KA1240M+03331MA1999999101051MD1999999-0011REMSYN082AAXX  05004 83498 32995 00000 10254 20235 30105 40110 333 10333 29078 55079 59001;
0156834980999992009030512004-17733-039250FM-12+000399999V0203601N002110075019N0020001N1+02821+02241101201ADDGF105991051021008001001001KA1240N+02131MA1999999101151MD1999999+0041REMSYN076AAXX  05124 83498 32595 53604 10282 20224 30115 40120 85200 333 20213 58004;
0137834980999992009030518004-17733-039250FM-12+000399999V0200501N002612200019N0020001N1+03081+02291100961ADDGF103991031011008001031001MA1999999100911MD1999999+0111REMSYN070AAXX  05184 83498 32595 30505 10308 20229 30091 40096 83130 333 58011;
0168834980999992009030600004-17733-039250FM-12+000399999V0200901N000512200019N0020001N1+02561+02131100991ADDGF101991011011008001001001KA1240M+03191MA1999999100941MD1999999-0111REMSYN088AAXX  06004 83498 32595 10901 10256 20213 30094 40099 81100 333 10319 29072 55075 59011;
0156834980999992009030612004-17733-039250FM-12+000399999V0203601N004612200019N0020001N1+02971+02401101141ADDGF103991031011008001001001KA1240N+02221MA1999999101091MD1999999-0061REMSYN076AAXX  06124 83498 32595 33609 10297 20240 30109 40114 83100 333 20222 59006;
0137834980999992009030618004-17733-039250FM-12+000399999V0203601N005112200019N0020001N1+03131+02411100881ADDGF102991021011008001001001MA1999999100831MD1999999-0081REMSYN070AAXX  06184 83498 32595 23610 10313 20241 30083 40088 82100 333 59008;
0168834980999992009030700004-17733-039250FM-12+000399999V0203601N002612200019N0020001N1+02651+02461101121ADDGF101991011011008001001001KA1240M+03231MA1999999101071MD1999999+0131REMSYN088AAXX  07004 83498 32595 13605 10265 20246 30107 40112 81100 333 10323 29080 55085 58013;
0156834980999992009030712004-17733-039250FM-12+000399999V0203601N002610450019N0020001N1+02821+02401101221ADDGF106991041051008001031001KA1240N+02321MA1999999101171MD1999999+0081REMSYN076AAXX  07124 83498 32595 63605 10282 20240 30117 40122 84530 333 20232 58008;
0182834980999992009030718004-17733-039250FM-12+000399999V0200501N003110450019N0020001N1+03001+02461100891ADDAA106000021AY161061AY221061GF105991021011008001031001MA1999999100841MD1999999+0011MW1211REMSYN082AAXX  07184 83498 21595 50506 10300 20246 30084 40089 72162 82130 333 58001 69911;
0168834980999992009030800004-17733-039250FM-12+000399999V0200901N000512200019N0020001N1+02581+02171101231ADDGF103991021011008001001011KA1240M+03171MA1999999101181MD1999999+0111REMSYN088AAXX  08004 83498 32595 30901 10258 20217 30118 40123 82101 333 10317 29077 55057 58011;
0156834980999992009030812004-17733-039250FM-12+000399999V0209999C000010075019N0020001N1+02811+02441101441ADDGF107991051051008001041001KA1240N+02351MA1999999101391MD1999999+0221REMSYN076AAXX  08124 83498 32595 70000 10281 20244 30139 40144 85540 333 20235 58022;
0201834980999992009030818004-17733-039250FM-12+000399999V0200901N003112200019N0020001N1+03031+02391101091ADDAA106000091AY121061AY211061GF102991011011008001001011MA1999999101041MD1999999+0201MW1011REMSYN082AAXX  08184 83498 21595 20906 10303 20239 30104 40109 70121 81101 333 58020 69921;EQDQ01  00002PRCP06
0168834980999992009030900004-17733-039250FM-12+000399999V0209999C000012200019N0020001N1+02511+02271101211ADDGF101991011011008001001001KA1240M+03151MA1999999101161MD1999999-0021REMSYN088AAXX  09004 83498 32595 10000 10251 20227 30116 40121 81100 333 10315 29081 55050 59002;
0201834980999992009030912004-17733-039250FM-12+000399999V0201801N000510450019N0020001N1+02761+02301101401ADDAA124002091AY161061AY221061GF106991041051008001031001KA1240N+02211MA1999999101251MD1999999-0041MW1211REMSYN088AAXX  09124 83498 21595 61801 10276 20230 30125 40140 72162 84530 333 20221 59004 60024;
0137834980999992009030918004-17733-039250FM-12+000399999V0203601N002110450019N0020001N1+02981+02331101001ADDGF105991031011008001031001MA1999999100951MD1999999-0091REMSYN070AAXX  09184 83498 32595 53604 10298 20233 30095 40100 83130 333 59009;
0168834980999992009031000004-17733-039250FM-12+000399999V0201401N001012200019N0020001N1+02521+02091101241ADDGF102991021011008001001001KA1240M+03081MA1999999101191MD1999999+0031REMSYN088AAXX  10004 83498 32595 21402 10252 20209 30119 40124 82100 333 10308 29074 55060 58003;
0201834980999992009031012004-17733-039250FM-12+000399999V0203601N002110450019N0020001N1+02661+02431101441ADDAA124003091AY161061AY261061GF107991041051008001011001KA1240N+02211MA1999999101391MD1999999+0041MW1611REMSYN088AAXX  10124 83498 21595 73604 10266 20243 30139 40144 76166 84510 333 20221 58004 60034;
0137834980999992009031018004-17733-039250FM-12+000399999V0200901N004112200019N0020001N1+02991+02301101081ADDGF102991021011008001001001MA1999999101031MD1999999+0081REMSYN070AAXX  10184 83498 32595 20908 10299 20230 30103 40108 82100 333 58008;
0187834980999992009031100004-17733-039250FM-12+000399999V0200901N002112200019N0020001N1+02621+02311101251ADDGF101991001001999999001011KA1240M+03191MA1999999101201MD1999999+0011REMSYN088AAXX  11004 83498 32595 10904 10262 20231 30120 40125 80001 333 10319 29080 55072 58001;EQDQ01+008002SCOLCB
0156834980999992009031112004-17733-039250FM-12+000399999V0200901N002110450019N0020001N1+02821+02291101431ADDGF106991031021008001031001KA1240N+02121MA1999999101381MD1999999-0011REMSYN076AAXX  11124 83498 32595 60904 10282 20229 30138 40143 83230 333 20212 59001;
0137834980999992009031118004-17733-039250FM-12+000399999V0200901N002612200019N0020001N1+03021+02311101031ADDGF104991021011008001031001MA1999999100981MD1999999-0051REMSYN070AAXX  11184 83498 32595 40905 10302 20231 30098 40103 82130 333 59005;
0168834980999992009031200004-17733-039250FM-12+000399999V0200901N000512200019N0020001N1+02581+02101101311ADDGF101991011011008001001001KA1240M+03171MA1999999101261MD1999999+0061REMSYN088AAXX  12004 83498 32595 10901 10258 20210 30126 40131 81100 333 10317 29072 55073 58006;
0156834980999992009031212004-17733-039250FM-12+000399999V0209999C000010450019N0020001N1+02751+02261101311ADDGF106991041051008001041001KA1240N+02171MA1999999101261MD1999999-0121REMSYN076AAXX  12124 83498 32595 60000 10275 20226 30126 40131 84540 333 20217 59012;
0137834980999992009031218004-17733-039250FM-12+000399999V0200501N003112200019N0020001N1+03011+02291100951ADDGF102991021011008001001001MA1999999100901MD1999999-0081REMSYN070AAXX  12184 83498 32595 20506 10301 20229 30090 40095 82100 333 59008;
0178834980999992009031300004-17733-039250FM-12+000399999V0209999C000012200019N0020001N1+02461+02211101131ADDGA1001+999999999GF100991001001999999001001KA1240M+03121MA1999999101081MD1999999-0181REMSYN082AAXX  13004 83498 32995 00000 10246 20221 30108 40113 333 10312 29078 55055 59018;
0156834980999992009031312004-17733-039250FM-12+000399999V0203601N003112200019N0020001N1+02931+02361101121ADDGF104991021021008001001011KA1240N+02071MA1999999101071MD1999999-0191REMSYN076AAXX  13124 83498 32595 43606 10293 20236 30107 40112 82201 333 20207 59019;
0137834980999992009031318004-17733-039250FM-12+000399999V0200901N003111050019N0020001N1+03151+02301100741ADDGF105991011011008001001021MA1999999100691MD1999999-0211REMSYN070AAXX  13184 83498 32595 50906 10315 20230 30069 40074 81102 333 59021;
0203834980999992009031400004-17733-039250FM-12+000399999V0209999C000012200019N0020001N1+03541+02381100951ADDGF102991001001999999001021KA1240M+99999MA1999999100901MD1999999-0181REMSYN088AAXX  14004 83498 32595 20000 10354 20238 30090 40095 80002 333 10343 29079 55086 59018;EQDQ01+008002SCOLCBQ02 +03432ATMX  
0156834980999992009031412004-17733-039250FM-12+000399999V0203601N005112200019N0020001N1+03011+02291101051ADDGF104991011011008001001011KA1240N+02201MA1999999101001MD1999999-0071REMSYN076AAXX  14124 83498 32595 43610 10301 20229 30100 40105 81101 333 20220 59007;
0156834980999992009031418004-17733-039250FM-12+000399999V0203601N004119999999N0020001N1+03071+02401100701ADDGF105991001001999999001081MA1999999100651MD1999999-0041REMSYN070AAXX  14184 83498 32595 53608 10307 20240 30065 40070 80008 333 59004;EQDQ01+008002SCOLCB
0187834980999992009031500004-17733-039250FM-12+000399999V0203601N002612200019N0020001N1+02631+02371100891ADDGF104991001001999999001081KA1240M+03291MA1999999100841MD1999999-0061REMSYN088AAXX  15004 83498 32595 43605 10263 20237 30084 40089 80008 333 10329 29077 55062 59006;EQDQ01+008002SCOLCB
0156834980999992009031512004-17733-039250FM-12+000399999V0203601N004610450019N0020001N1+02921+02321101211ADDGF106991041021008001031001KA1240N+02271MA1999999101161MD1999999+0161REMSYN076AAXX  15124 83498 32595 63609 10292 20232 30116 40121 84230 333 20227 58016;
0137834980999992009031518004-17733-039250FM-12+000399999V0203601N005110450019N0020001N1+03061+02301100931ADDGF105991031011008001031001MA1999999100881MD1999999+0231REMSYN070AAXX  15184 83498 32595 53610 10306 20230 30088 40093 83130 333 58023;
0168834980999992009031600004-17733-039250FM-12+000399999V0203601N003112200019N0020001N1+02641+02181101011ADDGF102991021011008001001001KA1240M+03261MA1999999100961MD1999999+0121REMSYN088AAXX  16004 83498 32595 23606 10264 20218 30096 40101 82100 333 10326 29072 55050 58012;
0156834980999992009031612004-17733-039250FM-12+000399999V0203601N002112200019N0020001N1+03111+02291101261ADDGF103991031021008001001001KA1240N+02301MA1999999101211MD1999999+0051REMSYN076AAXX  16124 83498 32595 33604 10311 20229 30121 40126 83200 333 20230 58005;
0137834980999992009031618004-17733-039250FM-12+000399999V0203601N003112200019N0020001N1+03141+02241100971ADDGF103991031001008001001081MA1999999100921MD1999999+0041REMSYN070AAXX  16184 83498 32595 33606 10314 20224 30092 40097 83008 333 58004;
0178834980999992009031700004-17733-039250FM-12+000399999V0203601N002612200019N0020001N1+02691+02431101321ADDGA1001+999999999GF100991001001999999001001KA1240M+03291MA1999999101271MD1999999+0311REMSYN082AAXX  17004 83498 32995 03605 10269 20243 30127 40132 333 10329 29073 55087 58031;
0156834980999992009031712004-17733-039250FM-12+000399999V0200901N003610450019N0020001N1+02921+02431101481ADDGF106991041021008001041001KA1240N+02371MA1999999101431MD1999999+0221REMSYN076AAXX  17124 83498 32595 60907 10292 20243 30143 40148 84240 333 20237 58022;
0137834980999992009031718004-17733-039250FM-12+000399999V0200901N004110450019N0020001N1+03161+02261101101ADDGF105991021011008001041001MA1999999101051MD1999999+0131REMSYN070AAXX  17184 83498 32595 50908 10316 20226 30105 40110 82140 333 58013;
0168834980999992009031800004-17733-039250FM-12+000399999V0200901N001512200019N0020001N1+02681+02261101351ADDGF101991011011008001001001KA1240M+03191MA1999999101301MD1999999+0031REMSYN088AAXX  18004 83498 32595 10903 10268 20226 30130 40135 81100 333 10319 29072 55054 58003;
0156834980999992009031812004-17733-039250FM-12+000399999V0202301N004110075019N0020001N1+02711+02561101391ADDGF107991051051008001051001KA1240N+02281MA1999999101341MD1999999-0091REMSYN076AAXX  18124 83498 32595 72308 10271 20256 30134 40139 85550 333 20228 59009;
0182834980999992009031818004-17733-039250FM-12+000399999V0201401N003110075019N0020001N1+02871+02351101151ADDAA106006191AY121061AY211061GF107991051051008001051001MA1999999101101MD1999999+0051MW1031REMSYN082AAXX  18184 83498 21595 71406 10287 20235 30110 40115 70321 85550 333 58005 60061;
0213834980999992009031900004-17733-039250FM-12+000399999V0201401N001510075019N0020001N1+02611+02421101321ADDAA106000391AY161061AY261061GF108991051051008001021999KA1240M+02951MA1999999101271MD1999999-0031MW1211REMSYN100AAXX  19004 83498 21595 81403 10261 20242 30127 40132 72166 8552/ 333 10295 29087 55005 59003 69931;
0173834980999992009031912004-17733-039250FM-12+000399999V0201801N004110450019N0020001N1+02841+02351101251ADDAA124006191GF105991031021008001031001KA1240N+02351MA1999999101231MD1999999-0111REMSYN082AAXX  19124 83498 22595 51808 10284 20235 30123 40125 83230 333 20235 59011 60064;
0137834980999992009031918004-17733-039250FM-12+000399999V0201401N004612200019N0020001N1+02981+02661101001ADDGF104991021011008001031001MA1999999100951MD1999999-0151REMSYN070AAXX  19184 83498 32595 41409 10298 20266 30095 40100 82130 333 59015;
0213834980999992009032000004-17733-039250FM-12+000399999V0201401N003110450019N0020001N1+02641+02231101171ADDAA106000891AY161061AY221061GF106991021051008001031001KA1240M+03001MA1999999101121MD1999999-0151MW1211REMSYN100AAXX  20004 83498 21595 61406 10264 20223 30112 40117 72162 82530 333 10300 29072 55040 59015 69981;
0201834980999992009032012004-17733-039250FM-12+000399999V0202301N003110450019N0020001N1+02531+02451101241ADDAA124039191AY161061AY261061GF108991031071008001021999KA1240N+02281MA1999999101191MD1999999-0041MW1611REMSYN088AAXX  20124 83498 21595 82306 10253 20245 30119 40124 76166 8372/ 333 20228 59004 60394;
0182834980999992009032018004-17733-039250FM-12+000399999V0201801N003610075019N0020001N1+02751+02481100991ADDAA106000891AY121061AY211061GF107991051051008001011001MA1999999100941MD1999999-0011MW1031REMSYN082AAXX  20184 83498 21595 71807 10275 20248 30094 40099 70321 85510 333 59001 69971;
0213834980999992009032100004-17733-039250FM-12+000399999V0201801N002110450019N0020001N1+02681+02411101201ADDAA106005191AY161061AY261061GF108991031071008001021999KA1240M+02841MA1999999101151MD1999999+0031MW1211REMSYN100AAXX  21004 83498 21595 81804 10268 20241 30115 40120 72166 8372/ 333 10284 29088 55002 58003 60051;
0201834980999992009032112004-17733-039250FM-12+000399999V0200901N002610450019N0020001N1+02801+02381101211ADDAA124023991AY161061AY261061GF106991041051008001011001KA1240N+02291MA1999999101161MD1999999-0031MW1211REMSYN088AAXX  21124 83498 21595 60905 10280 20238 30116 40121 72166 84510 333 20229 59003 60244;
0182834980999992009032118004-17733-039250FM-12+000399999V0200901N003610075019N0020001N1+02881+02391100951ADDAA106000591AY161061AY261061GF105991051051008001001001MA1999999100901MD1999999-0041MW1211REMSYN082AAXX  21184 83498 21595 50907 10288 20239 30090 40095 72166 85500 333 59004 69961;
0168834980999992009032200004-17733-039250FM-12+000399999V0200901N002112200019N0020001N1+02661+02161101061ADDGF104991041051008001001001KA1240M+02951MA1999999101011MD1999999-0141REMSYN088AAXX  22004 83498 32595 40904 10266 20216 30101 40106 84500 333 10295 29075 55054 59014;
0188834980999992009032212004-17733-039250FM-12+000399999V0202701N001510450019N0020001N1+02621+02411101141ADDAA124006191AY161061AY261061GF107991041051008001041001MA1999999101091MD1999999-0071MW1211REMSYN088AAXX  22124 83498 21595 72703 10262 20241 30109 40114 72166 84540 333 2//// 59007 60064;
0182834980999992009032218004-17733-039250FM-12+000399999V0200901N001510450019N0020001N1+02891+02501100771ADDAA106004191AY161061AY261061GF107991041051008001041001MA1999999100721MD1999999-0181MW1211REMSYN082AAXX  22184 83498 21595 70903 10289 20250 30072 40077 72166 84540 333 59018 60041;
0155834980999992009032300004-17733-039250FM-12+000399999V0209999C000010450019N0020001N1+02691+02431101021ADDGF106991031051008001011001MA1999999100971MD1999999-0041REMSYN088AAXX  23004 83498 32595 60000 10269 20243 30097 40102 83510 333 1//// 29085 55009 59004;
0188834980999992009032312004-17733-039250FM-12+000399999V0202301N001511050019N0020001N1+02761+02361101081ADDAA124005191AY161061AY221061GF106991031051008001001021MA1999999101031MD1999999-0061MW1211REMSYN088AAXX  23124 83498 21595 62303 10276 20236 30103 40108 72162 83502 333 2//// 59006 60054;
0182834980999992009032318004-17733-039250FM-12+000399999V0201401N001510450019N0020001N1+02781+02601100781ADDAA106005191AY161061AY291061GF108991041061008001021999MA1999999100721MD1999999+0001MW1921REMSYN082AAXX  23184 83498 21595 81403 10278 20260 30072 40078 79269 8462/ 333 58000 60051;
0155834980999992009032400004-17733-039250FM-12+000399999V0200901N001510450019N0020001N1+02721+02431100961ADDGF107991041051008001011001MA1999999100911MD1999999-0061REMSYN088AAXX  24004 83498 32595 70903 10272 20243 30091 40096 84510 333 1//// 29084 55014 59006;
0188834980999992009032412004-17733-039250FM-12+000399999V0202701N001510075019N0020001N1+02791+02421101131ADDAA124006191AY121061AY211061GF107991051051008001041001MA1999999101081MD1999999+0031MW1031REMSYN088AAXX  24124 83498 21595 72703 10279 20242 30108 40113 70321 85540 333 2//// 58003 60064;
0182834980999992009032418004-17733-039250FM-12+000399999V0203601N002110075019N0020001N1+02921+02321100861ADDAA106006191AY161061AY261061GF107991051051008001041001MA1999999100811MD1999999+0091MW1211REMSYN082AAXX  24184 83498 21595 73604 10292 20232 30081 40086 72166 85540 333 58009 60061;
0168834980999992009032500004-17733-039250FM-12+000399999V0209999C000010075019N0020001N1+02651+02441101121ADDGF108991051051008001011001KA1240M+03231MA1999999101071MD1999999+0161REMSYN088AAXX  25004 83498 32595 80000 10265 20244 30107 40112 85510 333 10323 29082 55006 58016;
0201834980999992009032512004-17733-039250FM-12+000399999V0202301N001510450019N0020001N1+02681+02521101131ADDAA124009991AY161061AY221061GF108991041051008001011999KA1240N+01921MA1999999101081MD1999999+0001MW1211REMSYN088AAXX  25124 83498 21595 82303 10268 20252 30108 40113 72162 8451/ 333 20192 58000 60104;
0182834980999992009032518004-17733-039250FM-12+000399999V0200901N002110450019N0020001N1+02601+02331100831ADDAA106005191AY161061AY261061GF108991031051008001011021MA1999999100781MD1999999-0031MW1921REMSYN082AAXX  25184 83498 21595 80904 10260 20233 30078 40083 79266 83512 333 59003 60051;
0213834980999992009032600004-17733-039250FM-12+000399999V0201801N004110450019N0020001N1+02621+02461101051ADDAA106006191AY161061AY291061GF108991041071008001021999KA1240M+02921MA1999999101001MD1999999-0071MW1921REMSYN100AAXX  26004 83498 21595 81808 10262 20246 30100 40105 79269 8472/ 333 10292 29090 55000 59007 60061;
0201834980999992009032612004-17733-039250FM-12+000399999V0202701N001510450019N0020001N1+02641+02391101251ADDAA124036191AY161061AY261061GF107991041051008001011001KA1240N+02291MA1999999101201MD1999999+0121MW1211REMSYN088AAXX  26124 83498 21595 72703 10264 20239 30120 40125 72166 84510 333 20229 58012 60364;
0182834980999992009032618004-17733-039250FM-12+000399999V0200901N002610450019N0020001N1+02811+02421101001ADDAA106000591AY121061AY211061GF106991041051008001041001MA1999999100951MD1999999+0171MW1031REMSYN082AAXX  26184 83498 21595 60905 10281 20242 30095 40100 70321 84540 333 58017 69941;
0168834980999992009032700004-17733-039250FM-12+000399999V0201801N003112200019N0020001N1+02591+02401101171ADDGF103991031061008001001001KA1240M+02951MA1999999101121MD1999999+0121REMSYN088AAXX  27004 83498 32595 31806 10259 20240 30112 40117 83600 333 10295 29087 55005 58012;
0201834980999992009032712004-17733-039250FM-12+000399999V0202301N002610450019N0020001N1+02621+02421101331ADDAA124005191AY161061AY221061GF108991041061008001021999KA1240N+02351MA1999999101281MD1999999+0081MW1211REMSYN088AAXX  27124 83498 21595 82305 10262 20242 30128 40133 72162 8462/ 333 20235 58008 60054;
0137834980999992009032718004-17733-039250FM-12+000399999V0201401N003110450019N0020001N1+02861+02461100961ADDGF108991031051008001011999MA1999999100911MD1999999+0061REMSYN070AAXX  27184 83498 32595 81406 10286 20246 30091 40096 8351/ 333 58006;
0168834980999992009032800004-17733-039250FM-12+000399999V0201401N001012200019N0020001N1+02681+02391101161ADDGF102991021011008001001001KA1240M+02991MA1999999101111MD1999999-0011REMSYN088AAXX  28004 83498 32595 21402 10268 20239 30111 40116 82100 333 10299 29084 55037 59001;
0156834980999992009032812004-17733-039250FM-12+000399999V0202301N001011050019N0020001N1+02911+02461101181ADDGF106991031011008001001021KA1240N+02401MA1999999101131MD1999999-0151REMSYN076AAXX  28124 83498 32595 62302 10291 20246 30113 40118 83102 333 20240 59015;
0137834980999992009032818004-17733-039250FM-12+000399999V0200901N003112200019N0020001N1+02991+02471100821ADDGF102991021011008001001001MA1999999100771MD1999999-0141REMSYN070AAXX  28184 83498 32595 20906 10299 20247 30077 40082 82100 333 59014;
0184834980999992009032900004-17733-039250FM-12+000399999V0200901N000510012019N0020001N1+02651+02501101011ADDGA1091+999999999GF109991091999999999999999KA1240M+03131MA1999999100961MD1999999-0151REMSYN088AAXX  29004 83498 32/95 90901 10265 20250 30096 40101 8//// 333 10313 29084 55086 59015;
0156834980999992009032912004-17733-039250FM-12+000399999V0203601N002610450019N0020001N1+02941+02331101101ADDGF108991041021008001041999KA1240N+02401MA1999999101051MD1999999-0081REMSYN076AAXX  29124 83498 32595 83605 10294 20233 30105 40110 8424/ 333 20240 59008;
0137834980999992009032918004-17733-039250FM-12+000399999V0200501N003110450019N0020001N1+03001+02371100831ADDGF106991031011008001041001MA1999999100781MD1999999+0011REMSYN070AAXX  29184 83498 32595 60506 10300 20237 30078 40083 83140 333 58001;
0168834980999992009033000004-17733-039250FM-12+000399999V0200501N001012200019N0020001N1+02761+02461100951ADDGF103991031011008001001001KA1240M+03351MA1999999100901MD1999999-0061REMSYN088AAXX  30004 83498 32595 30502 10276 20246 30090 40095 83100 333 10335 29077 55024 59006;
0201834980999992009033012004-17733-039250FM-12+000399999V0202301N002110450019N0020001N1+02521+02311101221ADDAA124002091AY161061AY261061GF108991031071008001021999KA1240N+02381MA1999999101171MD1999999+0121MW1211REMSYN088AAXX  30124 83498 21595 82304 10252 20231 30117 40122 72166 8372/ 333 20238 58012 60024;
0182834980999992009033018004-17733-039250FM-12+000399999V0209999C000010075019N0020001N1+02751+02431100751ADDAA106002091AY121061AY211061GF108991051051008001021999MA1999999100701MD1999999-0081MW1031REMSYN082AAXX  30184 83498 21595 80000 10275 20243 30070 40075 70321 8552/ 333 59008 60021;
0178834980999992009033100004-17733-039250FM-12+000399999V0209999C000012200019N0020001N1+02441+02351100891ADDGA1001+999999999GF100991001001999999001001KA1240M+02771MA1999999100841MD1999999-0061REMSYN082AAXX  31004 83498 32995 00000 10244 20235 30084 40089 333 10277 29090 55000 59006;
0156834980999992009033112004-17733-039250FM-12+000399999V0202301N001011050019N0020001N1+02861+02271100961ADDGF105991021011008001001021KA1240N+02351MA1999999100911MD1999999-0261REMSYN076AAXX  31124 83498 32595 52302 10286 20227 30091 40096 82102 333 20235 59026;
0137834980999992009033118004-17733-039250FM-12+000399999V0201401N001012200019N0020001N1+02901+02391100571ADDGF103991031011008001001001MA1999999100521MD1999999-0181REMSYN070AAXX  31184 83498 32595 31402 10290 20239 30052 40057 83100 333 59018;
0168834980999992009040100004-17733-039250FM-12+000399999V0200901N001512200019N0020001N1+02681+02411100921ADDGF103991031011008001001001KA1240M+03071MA1999999100871MD1999999+0031REMSYN088AAXX  01004 83498 32595 30903 10268 20241 30087 40092 83100 333 10307 29080 55049 58003;
0201834980999992009040112004-17733-039250FM-12+000399999V0203601N001510075019N0020001N1+02611+02371101041ADDAA124000391AY121061AY211061GF108991051051008001021999KA1240N+02431MA1999999100991MD1999999+0081MW1031REMSYN088AAXX  01124 83498 21595 83603 10261 20237 30099 40104 70321 8552/ 333 20243 58008 69934;
0137834980999992009040118004-17733-039250FM-12+000399999V0203601N002110450019N0020001N1+03091+02561100661ADDGF106991041021008001041001MA1999999100611MD1999999+0091REMSYN070AAXX  01184 83498 32595 63604 10309 20256 30061 40066 84240 333 58009;
0201834980999992009040212004-17733-039250FM-12+000399999V0202301N003110450019N0020001N1+02621+02421101131ADDAA124019191AY161061AY221061GF108991041061008001021999KA1240N+02251MA1999999101081MD1999999+0091MW1211REMSYN088AAXX  02124 83498 21595 82306 10262 20242 30108 40113 72162 8462/ 333 20225 58009 60194;
0182834980999992009040218004-17733-039250FM-12+000399999V0201801N001510450019N0020001N1+02601+02461100971ADDAA106010991AY161061AY261061GF108991041071008001021999MA1999999100921MD1999999+0311MW1631REMSYN082AAXX  02184 83498 21595 81803 10260 20246 30092 40097 76366 8472/ 333 58031 60111;
0213834980999992009040300004-17733-039250FM-12+000399999V0201801N003610450019N0020001N1+02581+02381101151ADDAA106000891AY161061AY261061GF108991031071008001021999KA1240M+02831MA1999999101101MD1999999+0111MW1211REMSYN100AAXX  03004 83498 21595 81807 10258 20238 30110 40115 72166 8372/ 333 10283 29090 55000 58011 69981;
0201834980999992009040312004-17733-039250FM-12+000399999V0201801N004610450019N0020001N1+02791+02421101351ADDAA124018091AY161061AY261061GF107991041051008001011001KA1240N+02411MA1999999101301MD1999999+0121MW1611REMSYN088AAXX  03124 83498 21595 71809 10279 20242 30130 40135 76166 84510 333 20241 58012 60184;
0137834980999992009040318004-17733-039250FM-12+000399999V0201801N005110450019N0020001N1+02851+02351101101ADDGF106991041051008001041001MA1999999102051MD1999999+0131REMSYN070AAXX  03184 83498 32595 61810 10285 20235 30205 40110 84540 333 58013;
0187834980999992009040400004-17733-039250FM-12+000399999V0201801N002612200019N0020001N1+02711+02371101251ADDGF104991041001008001031001KA1240M+02961MA1999999101202MD1999999+0101REMSYN088AAXX  04004 83498 32595 41805 10271 20237 30120 40125 84030 333 10296 29080 55033 58010;EQDQ01+101203APOSP 
0201834980999992009040412004-17733-039250FM-12+000399999V0200901N000510450019N0020001N1+02561+02421101361ADDAA124017091AY161061AY221061GF108991041071008001021999KA1240N+02401MA1999999101311MD1999999+0011MW1631REMSYN088AAXX  04124 83498 21595 80901 10256 20242 30131 40136 76362 8472/ 333 20240 58001 60174;
0182834980999992009040418004-17733-039250FM-12+000399999V0201401N003610450019N0020001N1+02861+02561101151ADDAA106000391AY161061AY261061GF108991031061008001021999MA1999999101101MD1999999+0051MW1211REMSYN082AAXX  04184 83498 21595 81407 10286 20256 30110 40115 72166 8362/ 333 58005 69931;
0213834980999992009040500004-17733-039250FM-12+000399999V0201401N001510450019N0020001N1+02581+02441101361ADDAA106017091AY161061AY261061GF108991031051008001011999KA1240M+02891MA1999999101211MD1999999+0111MW1211REMSYN100AAXX  05004 83498 21595 81403 10258 20244 30121 40136 72166 8351/ 333 10289 29090 55005 58011 60171;
0201834980999992009040512004-17733-039250FM-12+000399999V0201801N001510450019N0020001N1+02751+02501101281ADDAA124019191AY121061AY211061GF107991041051008001051001KA1240N+02481MA1999999101231MD1999999-0081MW1031REMSYN088AAXX  05124 83498 21595 71803 10275 20250 30123 40128 70321 84550 333 20248 59008 60194;
0137834980999992009040518004-17733-039250FM-12+000399999V0201801N003612200019N0020001N1+02851+02481101011ADDGF103991021011008001031001MA1999999100961MD1999999-0141REMSYN070AAXX  05184 83498 32595 31807 10285 20248 30096 40101 82130 333 59014;
0168834980999992009040600004-17733-039250FM-12+000399999V0209999C000012200019N0020001N1+02541+02361101341ADDGF102991021041008001001001KA1240M+02971MA1999999101291MD1999999-0021REMSYN088AAXX  06004 83498 32595 20000 10254 20236 30129 40134 82400 333 10297 29090 55035 59002;
0156834980999992009040612004-17733-039250FM-12+000399999V0203601N002110450019N0020001N1+02841+02381101401ADDGF106991041021008001011001KA1240N+02301MA1999999101351MD1999999+0121REMSYN076AAXX  06124 83498 32595 63604 10284 20238 30135 40140 84210 333 20230 58012;
0182834980999992009040618004-17733-039250FM-12+000399999V0200501N002110075019N0020001N1+02921+02411101151ADDAA106000591AY161061AY221061GF108991051051008001011999MA1999999101101MD1999999+0141MW1211REMSYN082AAXX  06184 83498 21595 80504 10292 20241 30110 40115 72162 8551/ 333 58014 69951;
0168834980999992009040700004-17733-039250FM-12+000399999V0200501N001510450019N0020001N1+02761+02381101281ADDGF106991021011008001051011KA1240M+03041MA1999999101231MD1999999-0061REMSYN088AAXX  07004 83498 32595 60503 10276 20238 30123 40128 82151 333 10304 29078 55055 59006;
0201834980999992009040712004-17733-039250FM-12+000399999V0203601N003110450019N0020001N1+02891+02501101411ADDAA124007991AY121061AY211061GF107991041051008001051001KA1240N+02321MA1999999101361MD1999999+0011MW1031REMSYN088AAXX  07124 83498 21595 73606 10289 20250 30136 40141 70321 84550 333 20232 58001 60084;
0137834980999992009040718004-17733-039250FM-12+000399999V0200501N004112200019N0020001N1+03031+02461101061ADDGF102991011011008001041001MA1999999101011MD1999999-0091REMSYN070AAXX  07184 83498 32595 20508 10303 20246 30101 40106 81140 333 59009;
0187834980999992009040800004-17733-039250FM-12+000399999V0203601N002112200019N0020001N1+02661+02481101261ADDGF103991001001999999001011KA1240M+03091MA1999999101211MD1999999-0021REMSYN088AAXX  08004 83498 32595 33604 10266 20248 30121 40126 80001 333 10309 29083 55063 59002;EQDQ01+008002SCOLCB
0156834980999992009040812004-17733-039250FM-12+000399999V0203601N003610450019N0020001N1+02821+02401101211ADDGF108991041051008001011999KA1240N+02431MA1999999101161MD1999999-0201REMSYN076AAXX  08124 83498 32595 83607 10282 20240 30116 40121 8451/ 333 20243 59020;
0137834980999992009040818004-17733-039250FM-12+000399999V0203601N004112200019N0020001N1+02981+02371100831ADDGF104991031011008001031001MA1999999100781MD1999999-0231REMSYN070AAXX  08184 83498 32595 43608 10298 20237 30078 40083 83130 333 59023;
0168834980999992009040900004-17733-039250FM-12+000399999V0203601N002110450019N0020001N1+02761+02461101051ADDGF108991041051008001011999KA1240M+03271MA1999999101001MD1999999-0211REMSYN088AAXX  09004 83498 32595 83604 10276 20246 30100 40105 8451/ 333 10327 29079 55067 59021;
0201834980999992009040912004-17733-039250FM-12+000399999V0202701N002610075019N0020001N1+02571+02401101351ADDAA124038191AY161061AY261061GF108991051051008001021999KA1240N+02391MA1999999101301MD1999999+0141MW1211REMSYN088AAXX  09124 83498 21595 82705 10257 20240 30130 40135 72166 8552/ 333 20239 58014 60384;
0182834980999992009040918004-17733-039250FM-12+000399999V0201801N003110450019N0020001N1+02651+02471101071ADDAA106001091AY161061AY261061GF108991041051008001021999MA1999999101021MD1999999+0241MW1211REMSYN082AAXX  09184 83498 21595 81806 10265 20247 30102 40107 72166 8452/ 333 58024 60011;
0168834980999992009041000004-17733-039250FM-12+000399999V0201401N001512200019N0020001N1+02631+02441101261ADDGF103991031031008001001001KA1240M+02811MA1999999101211MD1999999+0211REMSYN088AAXX  10004 83498 32595 31403 10263 20244 30121 40126 83300 333 10281 29089 55000 58021;
0173834980999992009041012004-17733-039250FM-12+000399999V0201801N001510450019N0020001N1+02761+02401101321ADDAA124001091GF108991031051008001031001KA1240N+02351MA1999999101271MD1999999-0031REMSYN082AAXX  10124 83498 22595 81803 10276 20240 30127 40132 83530 333 20235 59003 60014;
0137834980999992009041018004-17733-039250FM-12+000399999V0201401N002610450019N0020001N1+02881+02411100951ADDGF106991021011008001031001MA1999999100901MD1999999-0121REMSYN070AAXX  10184 83498 32595 61405 10288 20241 30090 40095 82130 333 59012;
0168834980999992009041100004-17733-039250FM-12+000399999V0200501N000510450019N0020001N1+02641+02461101221ADDGF105991021011008001051001KA1240M+02971MA1999999101171MD1999999-0041REMSYN088AAXX  11004 83498 32595 50501 10264 20246 30117 40122 82150 333 10297 29084 55059 59004;
0156834980999992009041112004-17733-039250FM-12+000399999V0201401N001510450019N0020001N1+02851+02561101521ADDGF107991021071008001011001KA1240N+02411MA1999999101471MD1999999+0201REMSYN076AAXX  11124 83498 32595 71403 10285 20256 30147 40152 82710 333 20241 58020;
0137834980999992009041118004-17733-039250FM-12+000399999V0200901N001510450019N0020001N1+02801+02361101301ADDGF107991041051008001011001MA1999999101251MD1999999+0351REMSYN070AAXX  11184 83498 32595 70903 10280 20236 30125 40130 84510 333 58035;
0168834980999992009041200004-17733-039250FM-12+000399999V0200901N001510450019N0020001N1+02711+02391101591ADDGF106991041051008001011001KA1240M+02941MA1999999101541MD1999999+0371REMSYN088AAXX  12004 83498 32595 60903 10271 20239 30154 40159 84510 333 10294 29082 55027 58037;
0156834980999992009041212004-17733-039250FM-12+000399999V0200901N001510450019N0020001N1+02861+02371101701ADDGF106991031021008001041001KA1240N+02531MA1999999101651MD1999999+0181REMSYN076AAXX  12124 83498 32595 60903 10286 20237 30165 40170 83240 333 20253 58018;
0137834980999992009041218004-17733-039250FM-12+000399999V0200501N003112200019N0020001N1+02941+02381101411ADDGF104991021011008001041001MA1999999101361MD1999999+0111REMSYN070AAXX  12184 83498 32595 40506 10294 20238 30136 40141 82140 333 58011;
0187834980999992009041300004-17733-039250FM-12+000399999V0200901N003612200019N0020001N1+02741+02301101761ADDGF104991041021008001001001KA1240M+99999MA1999999101711MD1999999+0171REMSYN088AAXX  13004 83498 32595 40907 10274 20230 30171 40176 84200 333 10203 29075 55058 58017;EQDQ01 +02032ATMX  
0156834980999992009041312004-17733-039250FM-12+000399999V0201401N003111050019N0020001N1+02891+02351101821ADDGF106991021011008001001021KA1240N+02651MA1999999101771MD1999999+0121REMSYN076AAXX  13124 83498 32595 61406 10289 20235 30177 40182 82102 333 20265 58012;
0137834980999992009041318004-17733-039250FM-12+000399999V0201401N003110450019N0020001N1+02821+02331101571ADDGF106991011011008001031021MA1999999101521MD1999999+0161REMSYN070AAXX  13184 83498 32595 61406 10282 20233 30152 40157 81132 333 58016;
0168834980999992009041400004-17733-039250FM-12+000399999V0201401N001510450019N0020001N1+02671+02411101731ADDGF106991021071008001011001KA1240M+02931MA1999999101681MD1999999-0031REMSYN088AAXX  14004 83498 32595 61403 10267 20241 30168 40173 82710 333 10293 29080 55036 59003;
0137834980999992009041418004-17733-039250FM-12+000399999V0201401N002112200019N0020001N1+02881+02411101631ADDGF103991031011008001001001MA1999999101581MD1999999+0061REMSYN070AAXX  14184 83498 32595 31404 10288 20241 30158 40163 83100 333 58006;
0168834980999992009041500004-17733-039250FM-12+000399999V0200901N000512200019N0020001N1+02521+02231101681ADDGF101991011011008001001001KA1240M+02991MA1999999101631MD1999999-0051REMSYN088AAXX  15004 83498 32595 10901 10252 20223 30163 40168 81100 333 10299 29082 55044 59005;
0156834980999992009041512004-17733-039250FM-12+000399999V0200501N002112200019N0020001N1+02871+02441101671ADDGF103991031021008001001001KA1240N+02301MA1999999101621MD1999999-0151REMSYN076AAXX  15124 83498 32595 30504 10287 20244 30162 40167 83200 333 20230 59015;
0137834980999992009041518004-17733-039250FM-12+000399999V0200501N003112200019N0020001N1+03011+02371101351ADDGF103991021011008001001011MA1999999101301MD1999999-0281REMSYN070AAXX  15184 83498 32595 30506 10301 20237 30130 40135 82101 333 59028;
0180834980999992009041600004-17733-039250FM-12+000399999V0209999C000012200019N0020001N1+02511+02321101631ADDGF102991021011008001001001KA1240M+03101MA1999999101581MD1999999-0051MW1131REMSYN094AAXX  16004 83498 31595 20000 10251 20232 30158 40163 713// 82100 333 10310 29082 55095 59005;
0201834980999992009041612004-17733-039250FM-12+000399999V0200901N001010450019N0020001N1+02701+02251101881ADDAA124011991AY161061AY221061GF108991031051008001011999KA1240N+02251MA1999999101831MD1999999+0211MW1211REMSYN088AAXX  16124 83498 21595 80902 10270 20225 30183 40188 72162 8351/ 333 20225 58021 60124;
0137834980999992009041618004-17733-039250FM-12+000399999V0201401N002610450019N0020001N1+03001+02321101601ADDGF106991031051008001031001MA1999999101551MD1999999+0251REMSYN070AAXX  16184 83498 32595 61405 10300 20232 30155 40160 83530 333 58025;
0168834980999992009041700004-17733-039250FM-12+000399999V0201801N003612200019N0020001N1+02681+02241101871ADDGF104991041051008001001001KA1240M+03021MA1999999101821MD1999999+0241REMSYN088AAXX  17004 83498 32595 41807 10268 20224 30182 40187 84500 333 10302 29074 55006 58024;
0201834980999992009041712004-17733-039250FM-12+000399999V0201801N003110450019N0020001N1+02381+02281101921ADDAA124023191AY161061AY261061GF108991031071008001021999KA1240N+02291MA1999999101871MD1999999+0041MW1611REMSYN088AAXX  17124 83498 21595 81806 10238 20228 30187 40192 76166 8372/ 333 20229 58004 60234;
0182834980999992009041718004-17733-039250FM-12+000399999V0201801N003110075019N0020001N1+02561+02211101641ADDAA106000591AY121061AY211061GF107991051051008001011001MA1999999101591MD1999999+0041MW1031REMSYN082AAXX  17184 83498 21595 71806 10256 20221 30159 40164 70321 85510 333 58004 69941;
0168834980999992009041800004-17733-039250FM-12+000399999V0201801N001510450019N0020001N1+02451+02151101811ADDGF106991041051008001011001KA1240M+02641MA1999999101761MD1999999-0061REMSYN088AAXX  18004 83498 32595 61803 10245 20215 30176 40181 84510 333 10264 29086 55003 59006;
0201834980999992009041812004-17733-039250FM-12+000399999V0201401N003110450019N0020001N1+02561+02291101811ADDAA124000891AY161061AY221061GF108991041051008001011999KA1240N+02181MA1999999101761MD1999999-0111MW1211REMSYN088AAXX  18124 83498 21595 81406 10256 20229 30176 40181 72162 8451/ 333 20218 59011 69974;
0182834980999992009041818004-17733-039250FM-12+000399999V0201401N003610075019N0020001N1+02601+02291101471ADDAA106000591AY161061AY261061GF108991051051008001011999MA1999999101421MD1999999-0171MW1211REMSYN082AAXX  18184 83498 21595 81407 10260 20229 30142 40147 72166 8551/ 333 59017 69941;
0213834980999992009041900004-17733-039250FM-12+000399999V0201801N002612200019N0020001N1+02541+02211101721ADDAA106001091AY161061AY261061GF102991021051008001001001KA1240M+02801MA1999999101671MD1999999-0091MW1211REMSYN100AAXX  19004 83498 21595 21805 10254 20221 30167 40172 72166 82500 333 10280 29083 55019 59009 60011;
0173834980999992009041912004-17733-039250FM-12+000399999V0201801N003112200019N0020001N1+02691+02221101751ADDAA124001091GF104991041021008001001001KA1240N+02131MA1999999101701MD1999999-0061REMSYN082AAXX  19124 83498 22595 41806 10269 20222 30170 40175 84200 333 20213 59006 60014;
0137834980999992009041918004-17733-039250FM-12+000399999V0201801N002612200019N0020001N1+02771+02191101441ADDGF102991021011008001001001MA1999999101391MD1999999-0031REMSYN070AAXX  19184 83498 32595 21805 10277 20219 30139 40144 82100 333 59003;
0178834980999992009042000004-17733-039250FM-12+000399999V0209999C000012200019N0020001N1+02271+02161101651ADDGA1001+999999999GF100991001001999999001001KA1240M+02831MA1999999101601MD1999999-0071REMSYN082AAXX  20004 83498 32995 00000 10227 20216 30160 40165 333 10283 29084 55093 59007;
0156834980999992009042012004-17733-039250FM-12+000399999V0201801N001012200019N0020001N1+02641+02331101751ADDGF104991021011008001041001KA1240N+02121MA1999999101701MD1999999+0001REMSYN076AAXX  20124 83498 32595 41802 10264 20233 30170 40175 82140 333 20212 58000;
0137834980999992009042018004-17733-039250FM-12+000399999V0201401N003112200019N0020001N1+02801+02381101491ADDGF102991021011008001001001MA1999999101441MD1999999+0051REMSYN070AAXX  20184 83498 32595 21406 10280 20238 30144 40149 82100 333 58005;
0168834980999992009042100004-17733-039250FM-12+000399999V0200901N000512200019N0020001N1+02501+02271101771ADDGF104991041051008001001001KA1240M+02891MA1999999101721MD1999999+0121REMSYN088AAXX  21004 83498 32595 40901 10250 20227 30172 40177 84500 333 10289 29084 55042 58012;
0201834980999992009042112004-17733-039250FM-12+000399999V0201801N002610450019N0020001N1+02551+02291101911ADDAA124000591AY121061AY211061GF108991031071008001021999KA1240N+02341MA1999999101861MD1999999+0161MW1031REMSYN088AAXX  21124 83498 21595 81805 10255 20229 30186 40191 70321 8372/ 333 20234 58016 69944;
0182834980999992009042118004-17733-039250FM-12+000399999V0201801N004110450019N0020001N1+02771+02321101641ADDAA106001091AY161061AY261061GF106991041051008001041001MA1999999101591MD1999999+0151MW1601REMSYN082AAXX  21184 83498 21595 61808 10277 20232 30159 40164 76066 84540 333 58015 60011;
0168834980999992009042200004-17733-039250FM-12+000399999V0201401N002612200019N0020001N1+02591+02061101811ADDGF102991021051008001001001KA1240M+02851MA1999999101761MD1999999+0041REMSYN088AAXX  22004 83498 32595 21405 10259 20206 30176 40181 82500 333 10285 29077 55023 58004;
0173834980999992009042212004-17733-039250FM-12+000399999V0201801N000512200019N0020001N1+02621+02231101811ADDAA124001091GF103991021011008001041001KA1240N+02121MA1999999101761MD1999999-0101REMSYN082AAXX  22124 83498 22595 31801 10262 20223 30176 40181 82140 333 20212 59010 60014;
0156834980999992009042218004-17733-039250FM-12+000399999V0201401N001512200019N0020001N1+02761+02341101471ADDGF103991999011008001001001MA1999999101421MD1999999-0171REMSYN070AAXX  22184 83498 32595 31403 10276 20234 30142 40147 82100 333 59017;EQDQ01+000022SCOTLC
0156834980999992009042312004-17733-039250FM-12+000399999V0202301N000512200019N0020001N1+02671+02311101481ADDGF103991011011008001041001KA1240N+02221MA1999999101431MD1999999-0331REMSYN076AAXX  23124 83498 32595 32301 10267 20231 30143 40148 81140 333 20222 59033;
0182834980999992009042318004-17733-039250FM-12+000399999V0200901N001510450019N0020001N1+02711+02331101131ADDAA106000591AY121061AY211061GF107991041051008001051001MA1999999101081MD1999999-0341MW1031REMSYN082AAXX  23184 83498 21595 70903 10271 20233 30108 40113 70321 84550 333 59034 69941;
0184834980999992009042400004-17733-039250FM-12+000399999V0209999C000010012019N0020001N1+02401+02301101361ADDGA1091+999999999GF109991091999999999999999KA1240M+02851MA1999999101311MD1999999-0221REMSYN088AAXX  24004 83498 32/95 90000 10240 20230 30131 40136 8//// 333 10285 29088 55039 59022;
0173834980999992009042412004-17733-039250FM-12+000399999V0203601N002112200019N0020001N1+02741+02171101411ADDAA124000591GF104991021011008001041001KA1240N+02171MA1999999101361MD1999999-0071REMSYN082AAXX  24124 83498 22595 43604 10274 20217 30136 40141 82140 333 20217 59007 69944;
0137834980999992009042418004-17733-039250FM-12+000399999V0200501N002612200019N0020001N1+02801+02251101181ADDGF103991011011008001041001MA1999999101131MD1999999+0051REMSYN070AAXX  24184 83498 32595 30505 10280 20225 30113 40118 81140 333 58005;
0178834980999992009042500004-17733-039250FM-12+000399999V0209999C000012200019N0020001N1+02461+02211101251ADDGA1001+999999999GF100991001001999999001001KA1240M+03091MA1999999101201MD1999999-0111REMSYN082AAXX  25004 83498 32995 00000 10246 20221 30120 40125 333 10309 29079 55066 59011;
0156834980999992009042512004-17733-039250FM-12+000399999V0202301N000512200019N0020001N1+02751+02471101481ADDGF104991031021008001001011KA1240N+02251MA1999999101431MD1999999+0071REMSYN076AAXX  25124 83498 32595 42301 10275 20247 30143 40148 83201 333 20225 58007;
0137834980999992009042518004-17733-039250FM-12+000399999V0200901N002112200019N0020001N1+02891+02371101241ADDGF103991031011008001001001MA1999999101191MD1999999+0061REMSYN070AAXX  25184 83498 32595 30904 10289 20237 30119 40124 83100 333 58006;
0178834980999992009042600004-17733-039250FM-12+000399999V0209999C000012200019N0020001N1+02481+02321101441ADDGA1001+999999999GF100991001001999999001001KA1240M+02981MA1999999101391MD1999999+0191REMSYN082AAXX  26004 83498 32995 00000 10248 20232 30139 40144 333 10298 29088 55093 58019;
0156834980999992009042612004-17733-039250FM-12+000399999V0202701N002110450019N0020001N1+02741+02381101501ADDGF105991021011008001041001KA1240N+02281MA1999999101451MD1999999+0021REMSYN076AAXX  26124 83498 32595 52704 10274 20238 30145 40150 82140 333 20228 58002;
0137834980999992009042618004-17733-039250FM-12+000399999V0200501N003112200019N0020001N1+02901+02411101171ADDGF103991031011008001001001MA1999999101121MD1999999-0071REMSYN070AAXX  26184 83498 32595 30506 10290 20241 30112 40117 83100 333 59007;
0178834980999992009042700004-17733-039250FM-12+000399999V0209999C000012200019N0020001N1+02641+02391101381ADDGA1001+999999999GF100991001001999999001001KA1240M+03121MA1999999101331MD1999999-0061REMSYN082AAXX  27004 83498 32995 00000 10264 20239 30133 40138 333 10312 29082 55060 59006;
0156834980999992009042712004-17733-039250FM-12+000399999V0201401N000510450019N0020001N1+02841+02421101431ADDGF107991041051008001041001KA1240N+02431MA1999999101381MD1999999-0071REMSYN076AAXX  27124 83498 32595 71401 10284 20242 30138 40143 84540 333 20243 59007;
0182834980999992009042718004-17733-039250FM-12+000399999V0201801N002110450019N0020001N1+02691+02371101121ADDAA106003091AY121061AY211061GF107991041051008001041001MA1999999101071MD1999999-0051MW1031REMSYN082AAXX  27184 83498 21595 71804 10269 20237 30107 40112 70321 84540 333 59005 60031;
0178834980999992009042800004-17733-039250FM-12+000399999V0201401N001510012019N0020001N1+02671+02291101391ADDGA1091+999999999GF109991091999999999999999KA1240M+02911MA1999999101341MD1999999+0011REMSYN082AAXX  28004 83498 32/95 91403 10267 20229 30134 40139 333 10291 29080 55010 58001;
0173834980999992009042812004-17733-039250FM-12+000399999V0202301N002610450019N0020001N1+02641+02371101501ADDAA124003091GF108991041051008001011999KA1240N+02401MA1999999101451MD1999999+0071REMSYN082AAXX  28124 83498 22595 82305 10264 20237 30145 40150 8451/ 333 20240 58007 60034;
0137834980999992009042818004-17733-039250FM-12+000399999V0201401N003110450019N0020001N1+02801+02361101261ADDGF106991021051008001031001MA1999999101211MD1999999+0141REMSYN070AAXX  28184 83498 32595 61406 10280 20236 30121 40126 82530 333 58014;
0168834980999992009042900004-17733-039250FM-12+000399999V0201801N003112200019N0020001N1+02601+02061101491ADDGF103991031011008001001001KA1240M+02851MA1999999101441MD1999999+0101REMSYN088AAXX  29004 83498 32595 31806 10260 20206 30144 40149 83100 333 10285 29076 55045 58010;
0156834980999992009042912004-17733-039250FM-12+000399999V0202301N002610075019N0020001N1+02501+02271101661ADDGF107991051051008001041001KA1240N+02221MA1999999101611MD1999999+0161REMSYN076AAXX  29124 83498 32595 72305 10250 20227 30161 40166 85540 333 20222 58016;
0137834980999992009042918004-17733-039250FM-12+000399999V0200901N001010450019N0020001N1+02691+02061101471ADDGF106991021021008001021001MA1999999101421MD1999999+0211REMSYN070AAXX  29184 83498 32595 60902 10269 20206 30142 40147 82220 333 58021;
0168834980999992009043000004-17733-039250FM-12+000399999V0209999C000012200019N0020001N1+02321+02131101601ADDGF102991021011008001001001KA1240M+02791MA1999999101551MD1999999+0111REMSYN088AAXX  30004 83498 32595 20000 10232 20213 30155 40160 82100 333 10279 29084 55008 58011;
0156834980999992009043012004-17733-039250FM-12+000399999V0202301N001012200019N0020001N1+02521+02231101711ADDGF104991021011008001051001KA1240N+02071MA1999999101661MD1999999+0051REMSYN076AAXX  30124 83498 32595 42302 10252 20223 30166 40171 82150 333 20207 58005;
0137834980999992009043018004-17733-039250FM-12+000399999V0200901N002612200019N0020001N1+02741+02261101471ADDGF103991031011008001001001MA1999999101421MD1999999+0001REMSYN070AAXX  30184 83498 32595 30905 10274 20226 30142 40147 83100 333 58000;
0178834980999992009050100004-17733-039250FM-12+000399999V0209999C000012200019N0020001N1+02341+02031101611ADDGA1001+999999999GF100991001001999999001001KA1240M+02851MA1999999101561MD1999999+0011REMSYN082AAXX  01004 83498 32995 00000 10234 20203 30156 40161 333 10285 29081 55086 58001;
0156834980999992009050112004-17733-039250FM-12+000399999V0201801N000511050019N0020001N1+02611+02101101701ADDGF106991021011008001001021KA1240N+02021MA1999999101651MD1999999-0011REMSYN076AAXX  01124 83498 32595 61801 10261 20210 30165 40170 82102 333 20202 59001;
0137834980999992009050118004-17733-039250FM-12+000399999V0200901N001510450019N0020001N1+02741+02071101471ADDGF106991021011008001051001MA1999999101421MD1999999+0001REMSYN070AAXX  01184 83498 32595 60903 10274 20207 30142 40147 82150 333 58000;
0168834980999992009050200004-17733-039250FM-12+000399999V0201801N001510075019N0020001N1+02461+02031101611ADDGF108991051051008001021999KA1240M+02871MA1999999101561MD1999999+0001REMSYN088AAXX  02004 83498 32595 81803 10246 20203 30156 40161 8552/ 333 10287 29076 55053 58000;
0201834980999992009050212004-17733-039250FM-12+000399999V0201801N001010450019N0020001N1+02361+02131101761ADDAA124006191AY161061AY221061GF108991041051008001011999KA1240N+02151MA1999999101711MD1999999+0061MW1211REMSYN088AAXX  02124 83498 21595 81802 10236 20213 30171 40176 72162 8451/ 333 20215 58006 60064;
0182834980999992009050218004-17733-039250FM-12+000399999V0201801N004110450019N0020001N1+02321+02151101451ADDAA106014091AY161061AY261061GF108991041071008001021999MA1999999101401MD1999999+0021MW1211REMSYN082AAXX  02184 83498 21595 81808 10232 20215 30140 40145 72166 8472/ 333 58002 60141;
0213834980999992009050300004-17733-039250FM-12+000399999V0201801N004610450019N0020001N1+02541+02331101831ADDAA106000591AY161061AY261061GF108991031071008001011999KA1240M+02571MA1999999101781MD1999999+0221MW1211REMSYN100AAXX  03004 83498 21595 81809 10254 20233 30178 40183 72166 8371/ 333 10257 29088 55000 58022 69961;
0201834980999992009050312004-17733-039250FM-12+000399999V0201801N005710450019N0020001N1+02531+02171101741ADDAA124005191AY121061AY211061GF105991031021008001041001KA1240N+02021MA1999999101691MD1999999-0021MW1031REMSYN088AAXX  03124 83498 21595 51811 10253 20217 30169 40174 70321 83240 333 20202 59002 60054;
0137834980999992009050318004-17733-039250FM-12+000399999V0201801N003110450019N0020001N1+02631+02051101521ADDGF106991041051008001011001MA1999999101471MD1999999+0071REMSYN070AAXX  03184 83498 32595 61806 10263 20205 30147 40152 84510 333 58007;
0168834980999992009050400004-17733-039250FM-12+000399999V0201801N002112200019N0020001N1+02461+02091101681ADDGF102991021011008001001001KA1240M+02691MA1999999101631MD1999999-0151REMSYN088AAXX  04004 83498 32595 21804 10246 20209 30163 40168 82100 333 10269 29078 55041 59015;
0201834980999992009050412004-17733-039250FM-12+000399999V0200901N003110450019N0020001N1+02501+02071101761ADDAA124000891AY161061AY221061GF108991031051008001011999KA1240N+02231MA1999999101711MD1999999+0021MW1211REMSYN088AAXX  04124 83498 21595 80906 10250 20207 30171 40176 72162 8351/ 333 20223 58002 69984;
0137834980999992009050418004-17733-039250FM-12+000399999V0200901N003610450019N0020001N1+02601+02101101631ADDGF108991021051008001011999MA1999999101581MD1999999+0111REMSYN070AAXX  04184 83498 32595 80907 10260 20210 30158 40163 8251/ 333 58011;
0213834980999992009050500004-17733-039250FM-12+000399999V0200901N001512200019N0020001N1+02541+02001101801ADDAA106000391AY161061AY261061GF104991041051008001001001KA1240M+02691MA1999999101751MD1999999+0121MW1211REMSYN100AAXX  05004 83498 21595 40903 10254 20200 30175 40180 72166 84500 333 10269 29074 55000 58012 69931;
0173834980999992009050512004-17733-039250FM-12+000399999V0209999C000010075019N0020001N1+02481+02151101861ADDAA124000391GF107991051051008001011001KA1240N+02261MA1999999101811MD1999999+0101REMSYN082AAXX  05124 83498 22595 70000 10248 20215 30181 40186 85510 333 20226 58010 69934;
0182834980999992009050518004-17733-039250FM-12+000399999V0209999C000010075019N0020001N1+02531+02131101611ADDAA106000591AY161061AY261061GF108991051051008001021999MA1999999101561MD1999999-0021MW1211REMSYN082AAXX  05184 83498 21595 80000 10253 20213 30156 40161 72166 8552/ 333 59002 69941;
0213834980999992009050600004-17733-039250FM-12+000399999V0209999C000010450019N0020001N1+02361+02221101811ADDAA106000391AY161061AY261061GF108991031071008001021999KA1240M+02611MA1999999101761MD1999999+0011MW1601REMSYN100AAXX  06004 83498 21595 80000 10236 20222 30176 40181 76066 8372/ 333 10261 29086 55000 58001 69931;
0173834980999992009050612004-17733-039250FM-12+000399999V0201801N001012200019N0020001N1+02641+02251101751ADDAA124000891GF103991031011008001001001KA1240N+02121MA1999999101701MD1999999-0111REMSYN082AAXX  06124 83498 22595 31802 10264 20225 30170 40175 83100 333 20212 59011 69974;
0137834980999992009050618004-17733-039250FM-12+000399999V0200901N001512200019N0020001N1+02701+02281101501ADDGF102991021011008001001001MA1999999101451MD1999999-0111REMSYN070AAXX  06184 83498 32595 20903 10270 20228 30145 40150 82100 333 59011;
0168834980999992009050700004-17733-039250FM-12+000399999V0209999C000012200019N0020001N1+02341+02131101651ADDGF104991021011008001001091KA1240M+02791MA1999999101601MD1999999-0161REMSYN088AAXX  07004 83498 32595 40000 10234 20213 30160 40165 82109 333 10279 29081 55039 59016;
0192834980999992009050712004-17733-039250FM-12+000399999V0202701N003112200019N0020001N1+02751+02321101641ADDAA124002091GF103991001001999999001011KA1240N+02071MA1999999101591MD1999999-0011REMSYN082AAXX  07124 83498 22595 32706 10275 20232 30159 40164 80001 333 20207 59001 60024;EQDQ01+008002SCOLCB
0137834980999992009050718004-17733-039250FM-12+000399999V0200501N001012200019N0020001N1+02891+02251101341ADDGF102991011011008001001011MA1999999101291MD1999999-0161REMSYN070AAXX  07184 83498 32595 20502 10289 20225 30129 40134 81101 333 59016;
0178834980999992009050800004-17733-039250FM-12+000399999V0209999C000012200019N0020001N1+02421+02281101631ADDGA1001+999999999GF100991001001999999001001KA1240M+03081MA1999999101581MD1999999-0021REMSYN082AAXX  08004 83498 32995 00000 10242 20228 30158 40163 333 10308 29083 55087 59002;
0207834980999992009050812004-17733-039250FM-12+000399999V0201801N003610450019N0020001N1+02641+02161101851ADDAA124007091AY161061AY221061GF108991031051008001011999KA1240N+02241MA1999999101801MD1999999+0211MW1211REMSYN094AAXX  08124 83498 21595 81807 10264 20216 30180 40185 72162 8351/ 333 20224 58021 60074 10069;
0137834980999992009050818004-17733-039250FM-12+000399999V0201401N004110450019N0020001N1+02801+02251101571ADDGF106991021051008001041001MA1999999101521MD1999999+0231REMSYN070AAXX  08184 83498 32595 61408 10280 20225 30152 40157 82540 333 58023;
0168834980999992009050900004-17733-039250FM-12+000399999V0201401N001512200019N0020001N1+02501+02071101791ADDGF104991021011008001041001KA1240M+02771MA1999999101741MD1999999+0161REMSYN088AAXX  09004 83498 32595 41403 10250 20207 30174 40179 82140 333 10277 29075 55026 58016;
0156834980999992009050912004-17733-039250FM-12+000399999V0202301N001512200019N0020001N1+02571+02251101881ADDGF104991041021008001001001KA1240N+02041MA1999999101831MD1999999+0031REMSYN076AAXX  09124 83498 32595 42303 10257 20225 30183 40188 84200 333 20204 58003;
0137834980999992009050918004-17733-039250FM-12+000399999V0200901N003110450019N0020001N1+02621+02141101541ADDGF105991031021008001041001MA1999999101491MD1999999-0031REMSYN070AAXX  09184 83498 32595 50906 10262 20214 30149 40154 83240 333 59003;
0168834980999992009051000004-17733-039250FM-12+000399999V0200901N001512200019N0020001N1+02421+01991101761ADDGF102991021011008001001001KA1240M+02831MA1999999101711MD1999999-0031REMSYN088AAXX  10004 83498 32595 20903 10242 20199 30171 40176 82100 333 10283 29078 55068 59003;
0156834980999992009051012004-17733-039250FM-12+000399999V0202301N000512200019N0020001N1+02481+02111101751ADDGF102991021011008001001001KA1240N+02101MA1999999101701MD1999999-0131REMSYN076AAXX  10124 83498 32595 22301 10248 20211 30170 40175 82100 333 20210 59013;
0137834980999992009051018004-17733-039250FM-12+000399999V0200901N000512200019N0020001N1+02601+02191101381ADDGF101991011011008001001001MA1999999101331MD1999999-0161REMSYN070AAXX  10184 83498 32595 10901 10260 20219 30133 40138 81100 333 59016;
0178834980999992009051100004-17733-039250FM-12+000399999V0209999C000012200019N0020001N1+02461+02031101611ADDGA1001+999999999GF100991001001999999001001KA1240M+02811MA1999999101561MD1999999-0151REMSYN082AAXX  11004 83498 32995 00000 10246 20203 30156 40161 333 10281 29078 55084 59015;
0156834980999992009051112004-17733-039250FM-12+000399999V0202301N001512200019N0020001N1+02481+02191101591ADDGF103991011011008001041001KA1240N+01941MA1999999101541MD1999999-0161REMSYN076AAXX  11124 83498 32595 32303 10248 20219 30154 40159 81140 333 20194 59016;
0137834980999992009051118004-17733-039250FM-12+000399999V0201401N002610450019N0020001N1+02611+02101101361ADDGF105991021011008001041001MA1999999101311MD1999999-0021REMSYN070AAXX  11184 83498 32595 51405 10261 20210 30131 40136 82140 333 59002;
0187834980999992009051200004-17733-039250FM-12+000399999V0209999C000012200019N0020001N1+02261+02101101541ADDGF103991001001999999001011KA1240M+02751MA1999999101491MD1999999-0071REMSYN088AAXX  12004 83498 32595 30000 10226 20210 30149 40154 80001 333 10275 29086 55034 59007;EQDQ01+008002SCOLCB
0156834980999992009051212004-17733-039250FM-12+000399999V0201801N001512200019N0020001N1+02481+02271101611ADDGF104991021011008001001011KA1240N+02021MA1999999101561MD1999999+0021REMSYN076AAXX  12124 83498 32595 41803 10248 20227 30156 40161 82101 333 20202 58002;
0137834980999992009051218004-17733-039250FM-12+000399999V0200901N002612200019N0020001N1+02781+02161101331ADDGF105991031011008001001011MA1999999101281MD1999999-0031REMSYN070AAXX  12184 83498 32595 50905 10278 20216 30128 40133 83101 333 59003;
0168834980999992009051300004-17733-039250FM-12+000399999V0200901N001012200019N0020001N1+02401+02071101501ADDGF102991021011008001001001KA1240M+02801MA1999999101451MD1999999-0041REMSYN088AAXX  13004 83498 32595 20902 10240 20207 30145 40150 82100 333 10280 29082 55073 59004;
0156834980999992009051312004-17733-039250FM-12+000399999V0202301N001512200019N0020001N1+02511+02211101581ADDGF102991021011008001001001KA1240N+01991MA1999999101531MD1999999-0031REMSYN076AAXX  13124 83498 32595 22303 10251 20221 30153 40158 82100 333 20199 59003;
0137834980999992009051318004-17733-039250FM-12+000399999V0201401N003112200019N0020001N1+02731+02281101331ADDGF103991031021008001001001MA1999999101281MD1999999+0001REMSYN070AAXX  13184 83498 32595 31406 10273 20228 30128 40133 83200 333 58000;
0178834980999992009051400004-17733-039250FM-12+000399999V0209999C000012200019N0020001N1+02481+02321101511ADDGA1001+999999999GF100991001001999999001001KA1240M+02851MA1999999101461MD1999999+0011REMSYN082AAXX  14004 83498 32995 00000 10248 20232 30146 40151 333 10285 29086 55055 58001;
0201834980999992009051412004-17733-039250FM-12+000399999V0202301N000512200019N0020001N1+02501+02311101531ADDAA124000021AY161061AY211061GF104991021011008001031001KA1240N+02231MA1999999101481MD1999999-0051MW1211REMSYN088AAXX  14124 83498 21595 42301 10250 20231 30148 40153 72161 82130 333 20223 59005 69924;
0182834980999992009051418004-17733-039250FM-12+000399999V0203601N003112200019N0020001N1+02841+02241101261ADDAA106001091AY161061AY261061GF102991021011008001001001MA1999999101211MD1999999-0071MW1211REMSYN082AAXX  14184 83498 21595 23606 10284 20224 30121 40126 72166 82100 333 59007 60011;
0168834980999992009051500004-17733-039250FM-12+000399999V0203201N001012200019N0020001N1+02481+02251101211ADDGF101991011011008001001001KA1240M+02811MA1999999101161MD1999999-0301REMSYN088AAXX  15004 83498 32595 13202 10248 20225 30116 40121 81100 333 10281 29083 55029 59030;
0173834980999992009051512004-17733-039250FM-12+000399999V0203601N003112200019N0020001N1+02791+02341101161ADDAA124001091GF104991011011008001001011KA1240N+02121MA1999999101111MD1999999-0371REMSYN082AAXX  15124 83498 22595 43606 10279 20234 30111 40116 81101 333 20212 59037 60014;
0137834980999992009051518004-17733-039250FM-12+000399999V0203601N002112200019N0020001N1+03031+02341100851ADDGF102991011011008001001011MA1999999100801MD1999999-0411REMSYN070AAXX  15184 83498 32595 23604 10303 20234 30080 40085 81101 333 59041;
0178834980999992009051600004-17733-039250FM-12+000399999V0200501N001512200019N0020001N1+02531+02401101141ADDGA1001+999999999GF100991001001999999001001KA1240M+03211MA1999999101091MD1999999-0071REMSYN082AAXX  16004 83498 32995 00503 10253 20240 30109 40114 333 10321 29083 55077 59007;
0156834980999992009051612004-17733-039250FM-12+000399999V0202301N002111050019N0020001N1+02801+02361101271ADDGF106991031011008001001021KA1240N+02331MA1999999101221MD1999999+0111REMSYN076AAXX  16124 83498 32595 62304 10280 20236 30122 40127 83102 333 20233 58011;
0182834980999992009051618004-17733-039250FM-12+000399999V0201801N003610450019N0020001N1+02621+02351101151ADDAA106001091AY161061AY221061GF108991041051008001011999MA1999999101101MD1999999+0201MW1621REMSYN082AAXX  16184 83498 21595 81807 10262 20235 30110 40115 76262 8451/ 333 58020 60011;
0213834980999992009051700004-17733-039250FM-12+000399999V0201801N003110450019N0020001N1+02561+02271101501ADDAA106004191AY161061AY261061GF108991041061008001011999KA1240M+03011MA1999999101451MD1999999+0361MW1211REMSYN100AAXX  17004 83498 21595 81806 10256 20227 30145 40150 72166 8461/ 333 10301 29082 55033 58036 60041;
0201834980999992009051712004-17733-039250FM-12+000399999V0201401N003610075019N0020001N1+02631+02231101781ADDAA124006191AY121061AY211061GF108991051051008001021999KA1240N+02401MA1999999101731MD1999999+0511MW1031REMSYN088AAXX  17124 83498 21595 81407 10263 20223 30173 40178 70321 8552/ 333 20240 58051 60064;
0137834980999992009051718004-17733-039250FM-12+000399999V0201801N005110075019N0020001N1+02601+02191101641ADDGF108991051051008001021999MA1999999101591MD1999999+0491REMSYN070AAXX  17184 83498 32595 81810 10260 20219 30159 40164 8552/ 333 58049;
0168834980999992009051800004-17733-039250FM-12+000399999V0201801N005110075019N0020001N1+02571+01951101881ADDGF108991051051008001021999KA1240M+02741MA1999999101831MD1999999+0381REMSYN088AAXX  18004 83498 32595 81810 10257 20195 30183 40188 8552/ 333 10274 29074 55000 58038;
0156834980999992009051812004-17733-039250FM-12+000399999V0201401N004111050019N0020001N1+02621+01911102071ADDGF106991031011008001001021KA1240N+02411MA1999999102021MD1999999+0291REMSYN076AAXX  18124 83498 32595 61408 10262 20191 30202 40207 83102 333 20241 58029;
0137834980999992009051818004-17733-039250FM-12+000399999V0201801N003610450019N0020001N1+02681+01941101821ADDGF106991021011008001031021MA1999999101771MD1999999+0181REMSYN070AAXX  18184 83498 32595 61807 10268 20194 30177 40182 82132 333 58018;
0168834980999992009051900004-17733-039250FM-12+000399999V0200901N002612200019N0020001N1+02521+02481101961ADDGF104991011011008001001011KA1240M+02711MA1999999101911MD1999999+0081REMSYN088AAXX  19004 83498 32595 40905 10252 20248 30191 40196 81101 333 10271 29065 55012 58008;
0156834980999992009051912004-17733-039250FM-12+000399999V0201801N003610450019N0020001N1+02481+01961101961ADDGF106991011011008001041011KA1240N+01921MA1999999101911MD1999999-0111REMSYN076AAXX  19124 83498 32595 61807 10248 20196 30191 40196 81141 333 20192 59011;
0137834980999992009051918004-17733-039250FM-12+000399999V0201801N001510450019N0020001N1+02571+01781101731ADDGF107991041051008001011001MA1999999101681MD1999999-0091REMSYN070AAXX  19184 83498 32595 71803 10257 20178 30168 40173 84510 333 59009;
0178834980999992009052000004-17733-039250FM-12+000399999V0209999C000012200019N0020001N1+02001+01851101871ADDGA1001+999999999GF100991001001999999001001KA1240M+02711MA1999999101821MD1999999-0091REMSYN082AAXX  20004 83498 32995 00000 10200 20185 30182 40187 333 10271 29079 55013 59009;
0156834980999992009052012004-17733-039250FM-12+000399999V0202301N001510450019N0020001N1+02241+02031102021ADDGF106991021011008001051011KA1240N+01831MA1999999101971MD1999999+0061REMSYN076AAXX  20124 83498 32595 62303 10224 20203 30197 40202 82151 333 20183 58006;
0182834980999992009052018004-17733-039250FM-12+000399999V0201801N003610450019N0020001N1+02361+01871101791ADDAA106000591AY161061AY221061GF108991041061008001011999MA1999999101741MD1999999+0061MW1211REMSYN082AAXX  20184 83498 21595 81807 10236 20187 30174 40179 72162 8461/ 333 58006 69961;
0168834980999992009052100004-17733-039250FM-12+000399999V0201801N002612200019N0020001N1+02441+01831101951ADDGF104991041051008001001001KA1240M+02651MA1999999101901MD1999999+0081REMSYN088AAXX  21004 83498 32595 41805 10244 20183 30190 40195 84500 333 10265 29075 55015 58008;
0173834980999992009052112004-17733-039250FM-12+000399999V0200901N003110450019N0020001N1+02651+01931101981ADDAA124000591GF106991031021008001031001KA1240N+02261MA1999999101931MD1999999-0041REMSYN082AAXX  21124 83498 22595 60906 10265 20193 30193 40198 83230 333 20226 59004 69964;
0137834980999992009052118004-17733-039250FM-12+000399999V0201401N003112200019N0020001N1+02611+01941101761ADDGF104991041021008001001001MA1999999101711MD1999999-0031REMSYN070AAXX  21184 83498 32595 41406 10261 20194 30171 40176 84200 333 59003;
0168834980999992009052200004-17733-039250FM-12+000399999V0201401N003110075019N0020001N1+02341+02071101971ADDGF108991051061008001021999KA1240M+02751MA1999999101921MD1999999+0021REMSYN088AAXX  22004 83498 32595 81406 10234 20207 30192 40197 8562/ 333 10275 29073 55065 58002;
0179834980999992009052212004-17733-039250FM-12+000399999V0201401N003112200019N0020001N1+02641+02091102101ADDAA124001091GF104991041021008001001001KA1240N+02231MA1999999102051MD1999999+0121REMSYN088AAXX  22124 83498 21595 41406 10264 20209 30205 40210 84200 333 20223 58012 60014 10011;
0182834980999992009052218004-17733-039250FM-12+000399999V0201801N003110450019N0020001N1+02461+02171101871ADDAA106001091AY161061AY261061GF106991031051008001031001MA1999999101821MD1999999+0111MW1211REMSYN082AAXX  22184 83498 21595 61806 10246 20217 30182 40187 72166 83530 333 58011 60011;
0213834980999992009052300004-17733-039250FM-12+000399999V0201401N003610450019N0020001N1+02441+02111102131ADDAA106000591AY161061AY261061GF108991041061008001011999KA1240M+02651MA1999999102081MD1999999+0161MW1211REMSYN100AAXX  23004 83498 21595 81407 10244 20211 30208 40213 72166 8461/ 333 10265 29080 55024 58016 69941;
0201834980999992009052312004-17733-039250FM-12+000399999V0200901N003610450019N0020001N1+02551+01981102211ADDAA124002091AY121061AY211061GF106991041051008001041001KA1240N+02251MA1999999102161MD1999999+0111MW1031REMSYN088AAXX  23124 83498 21595 60907 10255 20198 30216 40221 70321 84540 333 20225 58011 60024;
0137834980999992009052318004-17733-039250FM-12+000399999V0200901N003112200019N0020001N1+02671+01671101951ADDGF102991021011008001001001MA1999999101901MD1999999+0081REMSYN070AAXX  23184 83498 32595 20906 10267 20167 30190 40195 82100 333 58008;
0178834980999992009052400004-17733-039250FM-12+000399999V0209999C000012200019N0020001N1+02041+01921102121ADDGA1001+999999999GF100991001001999999001001KA1240M+02791MA1999999102071MD1999999-0011REMSYN082AAXX  24004 83498 32995 00000 10204 20192 30207 40212 333 10279 29079 55054 59001;
0201834980999992009052412004-17733-039250FM-12+000399999V0202701N001510450019N0020001N1+02441+02151102051ADDAA124000591AY161061AY221061GF106991031021008001051001KA1240N+01961MA1999999102001MD1999999-0161MW1211REMSYN088AAXX  24124 83498 21595 62703 10244 20215 30200 40205 72162 83250 333 20196 59016 69954;
0137834980999992009052418004-17733-039250FM-12+000399999V0201401N002112200019N0020001N1+02701+01881101671ADDGF103991031011008001001001MA1999999101621MD1999999-0281REMSYN070AAXX  24184 83498 32595 31404 10270 20188 30162 40167 83100 333 59028;
0168834980999992009052500004-17733-039250FM-12+000399999V0200901N000512200019N0020001N1+02241+01881101771ADDGF101991011011008001001001KA1240M+02751MA1999999101721MD1999999-0351REMSYN088AAXX  25004 83498 32595 10901 10224 20188 30172 40177 81100 333 10275 29076 55056 59035;
0156834980999992009052512004-17733-039250FM-12+000399999V0209999C000012200019N0020001N1+02381+02031101771ADDGF102991021041008001001001KA1240N+01841MA1999999101721MD1999999-0281REMSYN076AAXX  25124 83498 32595 20000 10238 20203 30172 40177 82400 333 20184 59028;
0137834980999992009052518004-17733-039250FM-12+000399999V0201401N001510450019N0020001N1+02551+02091101531ADDGF107991041051008001051001MA1999999101481MD1999999-0141REMSYN070AAXX  25184 83498 32595 71403 10255 20209 30148 40153 84550 333 59014;
0178834980999992009052600004-17733-039250FM-12+000399999V0209999C000012200019N0020001N1+02161+02021101671ADDGA1001+999999999GF100991001001999999001001KA1240M+02731MA1999999101621MD1999999-0101REMSYN082AAXX  26004 83498 32995 00000 10216 20202 30162 40167 333 10273 29085 55053 59010;
0156834980999992009052612004-17733-039250FM-12+000399999V0202301N001012200019N0020001N1+02341+02071101741ADDGF103991021011008001001011KA1240N+01911MA1999999101691MD1999999-0031REMSYN076AAXX  26124 83498 32595 32302 10234 20207 30169 40174 82101 333 20191 59003;
0137834980999992009052618004-17733-039250FM-12+000399999V0201401N002612200019N0020001N1+02761+02161101431ADDGF102991021011008001001001MA1999999101381MD1999999-0101REMSYN070AAXX  26184 83498 32595 21405 10276 20216 30138 40143 82100 333 59010;
0178834980999992009052700004-17733-039250FM-12+000399999V0209999C000012200019N0020001N1+02261+02071101611ADDGA1001+999999999GF100991001001999999001001KA1240M+02801MA1999999101561MD1999999-0061REMSYN082AAXX  27004 83498 32995 00000 10226 20207 30156 40161 333 10280 29083 55062 59006;
0156834980999992009052712004-17733-039250FM-12+000399999V0201801N001010450019N0020001N1+02531+02291101701ADDGF106991041051008001041001KA1240N+01921MA1999999101651MD1999999-0041REMSYN076AAXX  27124 83498 32595 61802 10253 20229 30165 40170 84540 333 20192 59004;
0201834980999992009052718004-17733-039250FM-12+000399999V0200901N001512200019N0020001N1+02691+02351101441ADDAA106000091AY121061AY211061GF102991021011008001001001MA1999999101391MD1999999+0011MW1011REMSYN082AAXX  27184 83498 21595 20903 10269 20235 30139 40144 70121 82100 333 58001 69921;EQDQ01  00002PRCP06
0178834980999992009052800004-17733-039250FM-12+000399999V0209999C000012200019N0020001N1+02351+02221101661ADDGA1001+999999999GF100991001001999999001001KA1240M+02791MA1999999101611MD1999999+0051REMSYN082AAXX  28004 83498 32995 00000 10235 20222 30161 40166 333 10279 29089 55073 58005;
0201834980999992009052812004-17733-039250FM-12+000399999V0201801N001510450019N0020001N1+02461+02321101871ADDAA124004191AY161061AY221061GF107991031051008001031011KA1240N+02171MA1999999101821MD1999999+0171MW1211REMSYN088AAXX  28124 83498 21595 71803 10246 20232 30182 40187 72162 83531 333 20217 58017 60044;
0182834980999992009052818004-17733-039250FM-12+000399999V0200501N001510450019N0020001N1+02561+02331101601ADDAA106001091AY161061AY261061GF106991031051008001031001MA1999999101551MD1999999+0161MW1211REMSYN082AAXX  28184 83498 21595 60503 10256 20233 30155 40160 72166 83530 333 58016 60011;
0178834980999992009052900004-17733-039250FM-12+000399999V0209999C000012200019N0020001N1+02301+02131101711ADDGA1001+999999999GF100991001001999999001001KA1240M+02741MA1999999101661MD1999999+0051REMSYN082AAXX  29004 83498 32995 00000 10230 20213 30166 40171 333 10274 29090 55002 58005;
0173834980999992009052912004-17733-039250FM-12+000399999V0201801N001512200019N0020001N1+02631+02271101811ADDAA124001091GF103991031051008001001001KA1240N+02151MA1999999101761MD1999999-0061REMSYN082AAXX  29124 83498 22595 31803 10263 20227 30176 40181 83500 333 20215 59006 60014;
0137834980999992009052918004-17733-039250FM-12+000399999V0200501N001512200019N0020001N1+02741+02301101581ADDGF102991021011008001001001MA1999999101531MD1999999-0021REMSYN070AAXX  29184 83498 32595 20503 10274 20230 30153 40158 82100 333 59002;
0168834980999992009053000004-17733-039250FM-12+000399999V0200901N001010450019N0020001N1+02501+02211101821ADDGF106991041051008001051001KA1240M+02821MA1999999101771MD1999999+0111REMSYN088AAXX  30004 83498 32595 60902 10250 20221 30177 40182 84550 333 10282 29082 55034 58011;
0201834980999992009053012004-17733-039250FM-12+000399999V0201801N002610450019N0020001N1+02561+02381101911ADDAA124001091AY161061AY221061GF108991041061008001011999KA1240N+02201MA1999999101861MD1999999+0101MW1211REMSYN088AAXX  30124 83498 21595 81805 10256 20238 30186 40191 72162 8461/ 333 20220 58010 60014;
0137834980999992009053018004-17733-039250FM-12+000399999V0201801N004110075019N0020001N1+02681+02201101661ADDGF108991051061008001021999MA1999999101611MD1999999+0081REMSYN070AAXX  30184 83498 32595 81808 10268 20220 30161 40166 8562/ 333 58008;
0213834980999992009053100004-17733-039250FM-12+000399999V0201401N003610450019N0020001N1+02541+02041101761ADDAA106000021AY161061AY221061GF108991041051008001011999KA1240M+02721MA1999999101711MD1999999-0061MW1211REMSYN100AAXX  31004 83498 21595 81407 10254 20204 30171 40176 72162 8451/ 333 10272 29078 55006 59006 69921;
0201834980999992009053112004-17733-039250FM-12+000399999V0209999C000012200019N0020001N1+02501+02131101791ADDAA124002091AY121061AY211061GF103991011011008001001011KA1240N+02061MA1999999101741MD1999999-0121MW1031REMSYN088AAXX  31124 83498 21595 30000 10250 20213 30174 40179 70321 81101 333 20206 59012 60024;
0137834980999992009053118004-17733-039250FM-12+000399999V0201401N001012200019N0020001N1+02611+02171101401ADDGF103991031021008001001001MA1999999101351MD1999999-0261REMSYN070AAXX  31184 83498 32595 31402 10261 20217 30135 40140 83200 333 59026;
0178834980999992009060100004-17733-039250FM-12+000399999V0209999C000012200019N0020001N1+02111+02001101471ADDGA1001+999999999GF100991001001999999001001KA1240M+02731MA1999999101421MD1999999-0271REMSYN082AAXX  01004 83498 32995 00000 10211 20200 30142 40147 333 10273 29086 55034 59027;
0156834980999992009060112004-17733-039250FM-12+000399999V0203601N004112200019N0020001N1+02661+02201101391ADDGF103991031011008001001001KA1240N+01961MA1999999101341MD1999999-0401REMSYN076AAXX  01124 83498 32595 33608 10266 20220 30134 40139 83100 333 20196 59040;
0137834980999992009060118004-17733-039250FM-12+000399999V0203601N004612200019N0020001N1+02901+02301101061ADDGF104991021011008001051001MA1999999101011MD1999999-0341REMSYN070AAXX  01184 83498 32595 43609 10290 20230 30101 40106 82150 333 59034;
0168834980999992009060200004-17733-039250FM-12+000399999V0203601N003610450019N0020001N1+02601+02371101291ADDGF108991041021008001041001KA1240M+03071MA1999999101241MD1999999-0181REMSYN088AAXX  02004 83498 32595 83607 10260 20237 30124 40129 84240 333 10307 29080 55054 59018;
0156834980999992009060212004-17733-039250FM-12+000399999V0201801N001510450019N0020001N1+02651+02351101421ADDGF108991041061008001021999KA1240N+02261MA1999999101371MD1999999+0031REMSYN076AAXX  02124 83498 32595 81803 10265 20235 30137 40142 8462/ 333 20226 58003;
0182834980999992009060218004-17733-039250FM-12+000399999V0201801N002110450019N0020001N1+02481+02341101211ADDAA106001091AY161061AY261061GF108991031071008001021999MA1999999101161MD1999999+0151MW1211REMSYN082AAXX  02184 83498 21595 81804 10248 20234 30116 40121 72166 8372/ 333 58015 60011;
0213834980999992009060300004-17733-039250FM-12+000399999V0209999C000010450019N0020001N1+02461+02281101431ADDAA106001091AY161061AY261061GF108991031071008001021999KA1240M+02691MA1999999101381MD1999999+0141MW1601REMSYN100AAXX  03004 83498 21595 80000 10246 20228 30138 40143 76066 8372/ 333 10269 29090 55002 58014 60011;
0201834980999992009060312004-17733-039250FM-12+000399999V0202701N001510075019N0020001N1+02301+02181101731ADDAA124021191AY161061AY261061GF108991081071008001999999KA1240N+02171MA1999999101681MD1999999+0311MW1641REMSYN088AAXX  03124 83498 21595 82703 10230 20218 30168 40173 76466 887// 333 20217 58031 60214;
0182834980999992009060318004-17733-039250FM-12+000399999V0201801N003610450019N0020001N1+02461+02191101621ADDAA106000591AY161061AY261061GF108991041071008001021999MA1999999101571MD1999999+0411MW1211REMSYN082AAXX  03184 83498 21595 81807 10246 20219 30157 40162 72166 8472/ 333 58041 69941;
0213834980999992009060400004-17733-039250FM-12+000399999V0201801N004610075019N0020001N1+02401+02111101971ADDAA106000591AY161061AY261061GF108991051071008001021999KA1240M+02521MA1999999101921MD1999999+0541MW1211REMSYN100AAXX  04004 83498 21595 81809 10240 20211 30192 40197 72166 8572/ 333 10252 29086 55000 58054 69951;
0201834980999992009060412004-17733-039250FM-12+000399999V0201301N003610075019N0020001N1+02401+01971102241ADDAA124002091AY121061AY211061GF108991051051008001021999KA1240N+02171MA1999999102191MD1999999+0511MW1031REMSYN088AAXX  04124 83498 21595 81307 10240 20197 30219 40224 70321 8552/ 333 20217 58051 60024;
0182834980999992009060418004-17733-039250FM-12+000399999V0201801N002610450019N0020001N1+02211+02061101941ADDAA106001091AY161061AY261061GF108991031071008001021999MA1999999101891MD1999999+0321MW1601REMSYN082AAXX  04184 83498 21595 81805 10221 20206 30189 40194 76066 8372/ 333 58032 60011;
0213834980999992009060500004-17733-039250FM-12+000399999V0201401N001510450019N0020001N1+02381+02091102091ADDAA106004191AY161061AY261061GF108991031071008001021999KA1240M+02431MA1999999102041MD1999999+0121MW1611REMSYN100AAXX  05004 83498 21595 81403 10238 20209 30204 40209 76166 8372/ 333 10243 29087 55000 58012 60041;
0173834980999992009060512004-17733-039250FM-12+000399999V0200901N001510450019N0020001N1+02561+02231102101ADDAA124005191GF108991031061008001011999KA1240N+02071MA1999999102051MD1999999-0141REMSYN082AAXX  05124 83498 22595 80903 10256 20223 30205 40210 8361/ 333 20207 59014 60054;
0182834980999992009060518004-17733-039250FM-12+000399999V0200901N003610450019N0020001N1+02661+02291101841ADDAA106000591AY161061AY221061GF108991031051008001041999MA1999999101791MD1999999-0101MW1211REMSYN082AAXX  05184 83498 21595 80907 10266 20229 30179 40184 72162 8354/ 333 59010 69941;
0168834980999992009060600004-17733-039250FM-12+000399999V0201401N000512200019N0020001N1+02261+02111102041ADDGF103991021011008001051001KA1240M+02701MA1999999101991MD1999999-0051REMSYN088AAXX  06004 83498 32595 31401 10226 20211 30199 40204 82150 333 10270 29086 55000 59005;
0201834980999992009060612004-17733-039250FM-12+000399999V0209999C000010450019N0020001N1+02481+02321102041ADDAA124002091AY121061AY211061GF106991041051008001051001KA1240N+02121MA1999999101991MD1999999-0061MW1031REMSYN088AAXX  06124 83498 21595 60000 10248 20232 30199 40204 70321 84550 333 20212 59006 60024;
0137834980999992009060618004-17733-039250FM-12+000399999V0200501N002112200019N0020001N1+02751+02301101621ADDGF102991021011008001001001MA1999999101571MD1999999-0221REMSYN070AAXX  06184 83498 32595 20504 10275 20230 30157 40162 82100 333 59022;
0168834980999992009060700004-17733-039250FM-12+000399999V0209999C000012200019N0020001N1+02241+02191101841ADDGF101991011041008001001001KA1240M+02811MA1999999101791MD1999999-0201REMSYN088AAXX  07004 83498 32595 10000 10224 20219 30179 40184 81400 333 10281 29090 55032 59020;
0201834980999992009060712004-17733-039250FM-12+000399999V0201801N004610450019N0020001N1+02521+02151102041ADDAA124000021AY161061AY221061GF108991041061008001011999KA1240N+02171MA1999999101991MD1999999+0001MW1211REMSYN088AAXX  07124 83498 21595 81809 10252 20215 30199 40204 72162 8461/ 333 20217 58000 69924;
0137834980999992009060718004-17733-039250FM-12+000399999V0201801N005110450019N0020001N1+02461+01991101851ADDGF108991031051008001011999MA1999999101801MD1999999+0231REMSYN070AAXX  07184 83498 32595 81810 10246 20199 30180 40185 8351/ 333 58023;
0168834980999992009060800004-17733-039250FM-12+000399999V0201801N006210075019N0020001N1+02401+01861102111ADDGF108991051051008001011999KA1240M+02671MA1999999102061MD1999999+0271REMSYN088AAXX  08004 83498 32595 81812 10240 20186 30206 40211 8551/ 333 10267 29075 55000 58027;
0201834980999992009060812004-17733-039250FM-12+000399999V0201401N001510450019N0020001N1+02471+01761102261ADDAA124000391AY121061AY211061GF106991041051008001041001KA1240N+02261MA1999999102211MD1999999+0221MW1031REMSYN088AAXX  08124 83498 21595 61403 10247 20176 30221 40226 70321 84540 333 20226 58022 69934;
0137834980999992009060818004-17733-039250FM-12+000399999V0201401N003112200019N0020001N1+02511+01891102011ADDGF104991021011008001041001MA1999999101961MD1999999+0161REMSYN070AAXX  08184 83498 32595 41406 10251 20189 30196 40201 82140 333 58016;
0168834980999992009060900004-17733-039250FM-12+000399999V0201401N002112200019N0020001N1+02321+01811102181ADDGF104991021011008001031001KA1240M+02611MA1999999102131MD1999999+0071REMSYN088AAXX  09004 83498 32595 41404 10232 20181 30213 40218 82130 333 10261 29070 55020 58007;
0201834980999992009060912004-17733-039250FM-12+000399999V0202301N002112200019N0020001N1+02301+02051102211ADDAA124000591AY161061AY211061GF104991021011008001031001KA1240N+01841MA1999999102161MD1999999-0051MW1211REMSYN088AAXX  09124 83498 21595 42304 10230 20205 30216 40221 72161 82130 333 20184 59005 69964;
0137834980999992009060918004-17733-039250FM-12+000399999V0200901N003611050019N0020001N1+02641+01881101961ADDGF105991021011008001051011MA1999999101911MD1999999-0051REMSYN070AAXX  09184 83498 32595 50907 10264 20188 30191 40196 82151 333 59005;
0168834980999992009061000004-17733-039250FM-12+000399999V0200901N000512200019N0020001N1+02101+01911102111ADDGF103991021011008001001011KA1240M+02691MA1999999102061MD1999999-0071REMSYN088AAXX  10004 83498 32595 30901 10210 20191 30206 40211 82101 333 10269 29082 55044 59007;
0201834980999992009061012004-17733-039250FM-12+000399999V0209999C000010075019N0020001N1+02161+02111102161ADDAA124004191AY161061AY261061GF107991051051008001011001KA1240N+01941MA1999999102111MD1999999-0051MW1601REMSYN088AAXX  10124 83498 21595 70000 10216 20211 30211 40216 76066 85510 333 20194 59005 60044;
0137834980999992009061018004-17733-039250FM-12+000399999V0200901N001512200019N0020001N1+02611+02101101871ADDGF104991021051008001041001MA1999999101821MD1999999-0091REMSYN070AAXX  10184 83498 32595 40903 10261 20210 30182 40187 82540 333 59009;
0168834980999992009061100004-17733-039250FM-12+000399999V0209999C000010075019N0020001N1+02381+02211102031ADDGF108991061061008001021999KA1240M+02721MA1999999101981MD1999999-0081REMSYN088AAXX  11004 83498 32595 80000 10238 20221 30198 40203 8662/ 333 10272 29088 55004 59008;
0156834980999992009061112004-17733-039250FM-12+000399999V0202301N001512200019N0020001N1+02401+02231102091ADDGF103991021011008001001011KA1240N+01971MA1999999102041MD1999999-0071REMSYN076AAXX  11124 83498 32595 32303 10240 20223 30204 40209 82101 333 20197 59007;
0137834980999992009061118004-17733-039250FM-12+000399999V0200901N003110450019N0020001N1+02761+02161101771ADDGF106991031011008001031021MA1999999101721MD1999999-0101REMSYN070AAXX  11184 83498 32595 60906 10276 20216 30172 40177 83132 333 59010;
0178834980999992009061200004-17733-039250FM-12+000399999V0209999C000012200019N0020001N1+02201+02061101911ADDGA1001+999999999GF100991001001999999001001KA1240M+02811MA1999999101861MD1999999-0121REMSYN082AAXX  12004 83498 32995 00000 10220 20206 30186 40191 333 10281 29086 55040 59012;
0156834980999992009061212004-17733-039250FM-12+000399999V0202301N001010450019N0020001N1+02421+02251101931ADDGF106991041021008001041001KA1240N+01741MA1999999101881MD1999999-0161REMSYN076AAXX  12124 83498 32595 62302 10242 20225 30188 40193 84240 333 20174 59016;
0137834980999992009061218004-17733-039250FM-12+000399999V0200501N001510450019N0020001N1+02651+02121101711ADDGF106991011011008001021001MA1999999101661MD1999999-0061REMSYN070AAXX  12184 83498 32595 60503 10265 20212 30166 40171 81120 333 59006;
0168834980999992009061300004-17733-039250FM-12+000399999V0209999C000010450019N0020001N1+02211+02101101721ADDGF106991041051008001011001KA1240M+02751MA1999999101671MD1999999-0191REMSYN088AAXX  13004 83498 32595 60000 10221 20210 30167 40172 84510 333 10275 29090 55022 59019;
0156834980999992009061312004-17733-039250FM-12+000399999V0201801N003610450019N0020001N1+02301+02161101751ADDGF108991041051008001011999KA1240N+02101MA1999999101701MD1999999-0181REMSYN076AAXX  13124 83498 32595 81807 10230 20216 30170 40175 8451/ 333 20210 59018;
0182834980999992009061318004-17733-039250FM-12+000399999V0201801N005710450019N0020001N1+02201+02011101701ADDAA106009991AY161061AY221061GF108991041071008001021999MA1999999101651MD1999999-0011MW1211REMSYN082AAXX  13184 83498 21595 81811 10220 20201 30165 40170 72162 8472/ 333 59001 60101;
0168834980999992009061400004-17733-039250FM-12+000399999V0202301N002110450019N0020001N1+02201+02031101811ADDGF108991031061008001011999KA1240M+02511MA1999999101761MD1999999+0091REMSYN088AAXX  14004 83498 32595 82304 10220 20203 30176 40181 8361/ 333 10251 29090 55000 58009;
0201834980999992009061412004-17733-039250FM-12+000399999V0202701N002110450019N0020001N1+02041+01971101981ADDAA124017091AY161061AY261061GF108991031071008001021999KA1240N+01921MA1999999101931MD1999999+0231MW1611REMSYN088AAXX  14124 83498 21595 82704 10204 20197 30193 40198 76166 8372/ 333 20192 58023 60174;
0182834980999992009061418004-17733-039250FM-12+000399999V0201401N003110450019N0020001N1+02421+01971101751ADDAA106000591AY121061AY211061GF106991041051008001041001MA1999999101701MD1999999+0051MW1031REMSYN082AAXX  14184 83498 21595 61406 10242 20197 30170 40175 70321 84540 333 58005 69951;
0168834980999992009061500004-17733-039250FM-12+000399999V0201401N002610450019N0020001N1+02281+01831102011ADDGF106991041051008001011001KA1240M+02451MA1999999101961MD1999999+0201REMSYN088AAXX  15004 83498 32595 61405 10228 20183 30196 40201 84510 333 10245 29081 55000 58020;
0173834980999992009061512004-17733-039250FM-12+000399999V0202301N002110450019N0020001N1+02201+01991102071ADDAA124000591GF108991031051008001031001KA1240N+01861MA1999999102021MD1999999+0091REMSYN082AAXX  15124 83498 22595 82304 10220 20199 30202 40207 83530 333 20186 58009 69954;
0137834980999992009061518004-17733-039250FM-12+000399999V0201401N002610450019N0020001N1+02561+01851101891ADDGF107991041021008001031001MA1999999101841MD1999999+0141REMSYN070AAXX  15184 83498 32595 71405 10256 20185 30184 40189 84230 333 58014;
0168834980999992009061600004-17733-039250FM-12+000399999V0201401N000512200019N0020001N1+02101+01891102051ADDGF104991041021008001001001KA1240M+02601MA1999999102001MD1999999+0041REMSYN088AAXX  16004 83498 32595 41401 10210 20189 30200 40205 84200 333 10260 29082 55004 58004;
0175834980999992009061612004-17733-039250FM-12+000399999V0202301N001019999999N0020001N1+02341+01951102011ADDGF105991999011008001001001KA1240N+01761MA1999999101961MD1999999-0061REMSYN076AAXX  16124 83498 32595 52302 10234 20195 30196 40201 82100 333 20176 59006;EQDQ01+000022SCOTLC
0137834980999992009061618004-17733-039250FM-12+000399999V0200901N002612200019N0020001N1+02461+02011101671ADDGF102991011011008001001011MA1999999101621MD1999999-0221REMSYN070AAXX  16184 83498 32595 20905 10246 20201 30162 40167 81101 333 59022;
0178834980999992009061700004-17733-039250FM-12+000399999V0209999C000012200019N0020001N1+01921+01841101791ADDGA1001+999999999GF100991001001999999001001KA1240M+02571MA1999999101741MD1999999-0261REMSYN082AAXX  17004 83498 32995 00000 10192 20184 30174 40179 333 10257 29087 55048 59026;
0156834980999992009061712004-17733-039250FM-12+000399999V0203601N002112200019N0020001N1+02361+02011101741ADDGF102991021011008001001001KA1240N+01761MA1999999101691MD1999999-0271REMSYN076AAXX  17124 83498 32595 23604 10236 20201 30169 40174 82100 333 20176 59027;
0137834980999992009061718004-17733-039250FM-12+000399999V0203601N003612200019N0020001N1+02701+01991101461ADDGF104991041021008001001001MA1999999101411MD1999999-0211REMSYN070AAXX  17184 83498 32595 43607 10270 20199 30141 40146 84200 333 59021;
0168834980999992009061800004-17733-039250FM-12+000399999V0200501N000512200019N0020001N1+02201+01971101601ADDGF102991021011008001001001KA1240M+02741MA1999999101551MD1999999-0191REMSYN088AAXX  18004 83498 32595 20501 10220 20197 30155 40160 82100 333 10274 29080 55029 59019;
0156834980999992009061812004-17733-039250FM-12+000399999V0203601N003112200019N0020001N1+02561+02111101741ADDGF105991021021008001001011KA1240N+01781MA1999999101691MD1999999+0001REMSYN076AAXX  18124 83498 32595 53606 10256 20211 30169 40174 82201 333 20178 58000;
0137834980999992009061818004-17733-039250FM-12+000399999V0203601N002612200019N0020001N1+02771+02091101481ADDGF103991011011008001001011MA1999999101431MD1999999+0021REMSYN070AAXX  18184 83498 32595 33605 10277 20209 30143 40148 81101 333 58002;
0178834980999992009061900004-17733-039250FM-12+000399999V0209999C000012200019N0020001N1+02201+02081101791ADDGA1001+999999999GF100991001001999999001001KA1240M+02851MA1999999101741MD1999999+0191REMSYN082AAXX  19004 83498 32995 00000 10220 20208 30174 40179 333 10285 29082 55007 58019;
0201834980999992009061912004-17733-039250FM-12+000399999V0200901N000510450019N0020001N1+02301+02131101971ADDAA124001091AY161061AY221061GF108991041061008001011999KA1240N+02021MA1999999101921MD1999999+0231MW1211REMSYN088AAXX  19124 83498 21595 80901 10230 20213 30192 40197 72162 8461/ 333 20202 58023 60014;
0137834980999992009061918004-17733-039250FM-12+000399999V0201401N001010450019N0020001N1+02501+02071101791ADDGF108991041051008001011999MA1999999101741MD1999999+0311REMSYN070AAXX  19184 83498 32595 81402 10250 20207 30174 40179 8451/ 333 58031;
0178834980999992009062000004-17733-039250FM-12+000399999V0209999C000012200019N0020001N1+02201+02031101981ADDGA1001+999999999GF100991001001999999001001KA1240M+02611MA1999999101931MD1999999+0191REMSYN082AAXX  20004 83498 32995 00000 10220 20203 30193 40198 333 10261 29087 55002 58019;
0156834980999992009062012004-17733-039250FM-12+000399999V0201801N001510075019N0020001N1+02201+02101102141ADDGF108991051051008001021999KA1240N+01871MA1999999102091MD1999999+0171REMSYN076AAXX  20124 83498 32595 81803 10220 20210 30209 40214 8552/ 333 20187 58017;
0137834980999992009062018004-17733-039250FM-12+000399999V0200901N001510075019N0020001N1+02241+01961101931ADDGF108991051051008001021999MA1999999101881MD1999999+0141REMSYN070AAXX  20184 83498 32595 80903 10224 20196 30188 40193 8552/ 333 58014;
0168834980999992009062100004-17733-039250FM-12+000399999V0201801N002110450019N0020001N1+02281+01941102051ADDGF107991031051008001011001KA1240M+02471MA1999999102001MD1999999+0071REMSYN088AAXX  21004 83498 32595 71804 10228 20194 30200 40205 83510 333 10247 29085 55000 58007;
0156834980999992009062112004-17733-039250FM-12+000399999V0201801N002110450019N0020001N1+02401+02051102021ADDGF107991031051008001031001KA1240N+01961MA1999999101971MD1999999-0121REMSYN076AAXX  21124 83498 32595 71804 10240 20205 30197 40202 83530 333 20196 59012;
0137834980999992009062118004-17733-039250FM-12+000399999V0201401N003110450019N0020001N1+02501+02071101731ADDGF105991021051008001031001MA1999999101681MD1999999-0201REMSYN070AAXX  21184 83498 32595 51406 10250 20207 30168 40173 82530 333 59020;
0178834980999992009062200004-17733-039250FM-12+000399999V0209999C000012200019N0020001N1+02201+01971101931ADDGA1001+999999999GF100991001001999999001001KA1240M+02671MA1999999101881MD1999999-0121REMSYN082AAXX  22004 83498 32995 00000 10220 20197 30188 40193 333 10267 29084 55018 59012;
0156834980999992009062212004-17733-039250FM-12+000399999V0202301N001512200019N0020001N1+02311+02051101971ADDGF103991031011008001001001KA1240N+01971MA1999999101921MD1999999-0071REMSYN076AAXX  22124 83498 32595 32303 10231 20205 30192 40197 83100 333 20197 59007;
0137834980999992009062218004-17733-039250FM-12+000399999V0200901N001512200019N0020001N1+02521+01981101671ADDGF102991021011008001001001MA1999999101621MD1999999-0061REMSYN070AAXX  22184 83498 32595 20903 10252 20198 30162 40167 82100 333 59006;
0178834980999992009062300004-17733-039250FM-12+000399999V0200901N000512200019N0020001N1+02171+01861101871ADDGA1001+999999999GF100991001001999999001001KA1240M+02651MA1999999101821MD1999999-0061REMSYN082AAXX  23004 83498 32995 00901 10217 20186 30182 40187 333 10265 29081 55060 59006;
0156834980999992009062312004-17733-039250FM-12+000399999V0202301N001012200019N0020001N1+02221+02051101951ADDGF104991021011008001051001KA1240N+01871MA1999999101901MD1999999-0021REMSYN076AAXX  23124 83498 32595 42302 10222 20205 30190 40195 82150 333 20187 59002;
0137834980999992009062318004-17733-039250FM-12+000399999V0200901N001512200019N0020001N1+02521+01931101591ADDGF103991021011008001031001MA1999999101541MD1999999-0081REMSYN070AAXX  23184 83498 32595 30903 10252 20193 30154 40159 82130 333 59008;
0178834980999992009062400004-17733-039250FM-12+000399999V0209999C000012200019N0020001N1+02161+01991101811ADDGA1001+999999999GF100991001001999999001001KA1240M+02671MA1999999101761MD1999999-0061REMSYN082AAXX  24004 83498 32995 00000 10216 20199 30176 40181 333 10267 29085 55034 59006;
0156834980999992009062412004-17733-039250FM-12+000399999V0202301N001010450019N0020001N1+02311+02181102001ADDGF106991041051008001041001KA1240N+01891MA1999999101951MD1999999+0051REMSYN076AAXX  24124 83498 32595 62302 10231 20218 30195 40200 84540 333 20189 58005;
0137834980999992009062418004-17733-039250FM-12+000399999V0200501N001512200019N0020001N1+02721+02051101651ADDGF102991021011008001001001MA1999999101601MD1999999+0061REMSYN070AAXX  24184 83498 32595 20503 10272 20205 30160 40165 82100 333 58006;
0178834980999992009062500004-17733-039250FM-12+000399999V0209999C000012200019N0020001N1+02161+02111101851ADDGA1001+999999999GF100991001001999999001001KA1240M+02891MA1999999101801MD1999999+0041REMSYN082AAXX  25004 83498 32995 00000 10216 20211 30180 40185 333 10289 29089 55035 58004;
0156834980999992009062512004-17733-039250FM-12+000399999V0202301N001010450019N0020001N1+02301+02181101971ADDGF108991031011008001031999KA1240N+02071MA1999999101921MD1999999-0031REMSYN076AAXX  25124 83498 32595 82302 10230 20218 30192 40197 8313/ 333 20207 59003;
0137834980999992009062518004-17733-039250FM-12+000399999V0200501N003612200019N0020001N1+02701+02331101731ADDGF104991021011008001031001MA1999999101681MD1999999+0081REMSYN070AAXX  25184 83498 32595 40507 10270 20233 30168 40173 82130 333 58008;
0187834980999992009062600004-17733-039250FM-12+000399999V0200501N001012200019N0020001N1+02201+02061101881ADDGF102991999011008001001001KA1240M+02781MA1999999101831MD1999999+0031REMSYN088AAXX  26004 83498 32595 20502 10220 20206 30183 40188 81100 333 10278 29089 55013 58003;EQDQ01+000012SCOTLC
0156834980999992009062612004-17733-039250FM-12+000399999V0209999C000012200019N0020001N1+02441+02271101991ADDGF103991011011008001001011KA1240N+01971MA1999999101941MD1999999+0021REMSYN076AAXX  26124 83498 32595 30000 10244 20227 30194 40199 81101 333 20197 58002;
0137834980999992009062618004-17733-039250FM-12+000399999V0201401N001512200019N0020001N1+02671+02311101821ADDGF102991021011008001001001MA1999999101771MD1999999+0091REMSYN070AAXX  26184 83498 32595 21403 10267 20231 30177 40182 82100 333 58009;
0168834980999992009062700004-17733-039250FM-12+000399999V0201801N002112200019N0020001N1+02441+02171102101ADDGF103991031051008001001001KA1240M+02841MA1999999102051MD1999999+0221REMSYN088AAXX  27004 83498 32595 31804 10244 20217 30205 40210 83500 333 10284 29086 55042 58022;
0201834980999992009062712004-17733-039250FM-12+000399999V0201401N003610450019N0020001N1+02421+02131102261ADDAA124003091AY161061AY221061GF108991031051008001011999KA1240N+02201MA1999999102211MD1999999+0271MW1211REMSYN088AAXX  27124 83498 21595 81407 10242 20213 30221 40226 72162 8351/ 333 20220 58027 60034;
0168834980999992009062800004-17733-039250FM-12+000399999V0200901N001512200019N0020001N1+02381+02091102111ADDGF101991011011008001001001KA1240M+02631MA1999999102061MD1999999+0011REMSYN088AAXX  28004 83498 32595 10903 10238 20209 30206 40211 81100 333 10263 29081 55000 58001;
0156834980999992009062812004-17733-039250FM-12+000399999V0201801N001510450019N0020001N1+02321+02181102131ADDGF106991031061008001051001KA1240N+01931MA1999999102081MD1999999-0131REMSYN076AAXX  28124 83498 32595 61803 10232 20218 30208 40213 83650 333 20193 59013;
0182834980999992009062818004-17733-039250FM-12+000399999V0200501N001010450019N0020001N1+02321+02151101851ADDAA106000391AY161061AY261061GF108991031071008001021999MA1999999101801MD1999999-0171MW1601REMSYN082AAXX  28184 83498 21595 80502 10232 20215 30180 40185 76066 8372/ 333 59017 69931;
0213834980999992009062900004-17733-039250FM-12+000399999V0209999C000010075019N0020001N1+02181+02131101871ADDAA106000391AY121061AY211061GF108991051051008001021999KA1240M+02741MA1999999101821MD1999999-0241MW1031REMSYN100AAXX  29004 83498 21595 80000 10218 20213 30182 40187 70321 8552/ 333 10274 29094 55001 59024 69931;
0173834980999992009062912004-17733-039250FM-12+000399999V0202301N001510450019N0020001N1+02371+02191101911ADDAA124000591GF106991031021008001031001KA1240N+01971MA1999999101861MD1999999-0221REMSYN082AAXX  29124 83498 22595 62303 10237 20219 30186 40191 83230 333 20197 59022 69964;
0137834980999992009062918004-17733-039250FM-12+000399999V0201401N002612200019N0020001N1+02531+02131101701ADDGF103991031011008001001001MA1999999101651MD1999999-0151REMSYN070AAXX  29184 83498 32595 31405 10253 20213 30165 40170 83100 333 59015;
0168834980999992009063000004-17733-039250FM-12+000399999V0209999C000012200019N0020001N1+02101+02021101811ADDGF102991021011008001001001KA1240M+02591MA1999999101761MD1999999-0061REMSYN088AAXX  30004 83498 32595 20000 10210 20202 30176 40181 82100 333 10259 29090 55032 59006;
0156834980999992009063012004-17733-039250FM-12+000399999V0202301N002610075019N0020001N1+02061+02011101941ADDGF107991051051008001011001KA1240N+01771MA1999999101891MD1999999+0031REMSYN076AAXX  30124 83498 32595 72305 10206 20201 30189 40194 85510 333 20177 58003;
0137834980999992009063018004-17733-039250FM-12+000399999V0200901N002112200019N0020001N1+02591+01971101591ADDGF102991021011008001001001MA1999999101541MD1999999-0111REMSYN070AAXX  30184 83498 32595 20904 10259 20197 30154 40159 82100 333 59011;
0168834980999992009070100004-17733-039250FM-12+000399999V0209999C000012200019N0020001N1+02201+02061101701ADDGF102991021011008001001001KA1240M+02691MA1999999101651MD1999999-0111REMSYN088AAXX  01004 83498 32595 20000 10220 20206 30165 40170 82100 333 10269 29088 55057 59011;
0156834980999992009070112004-17733-039250FM-12+000399999V0202701N001512200019N0020001N1+02421+02051101781ADDGF102991021011008001001001KA1240N+01971MA1999999101731MD1999999-0161REMSYN076AAXX  01124 83498 32595 22703 10242 20205 30173 40178 82100 333 20197 59016;
0137834980999992009070118004-17733-039250FM-12+000399999V0200501N002112200019N0020001N1+02801+02031101481ADDGF102991011011008001001011MA1999999101431MD1999999-0111REMSYN070AAXX  01184 83498 32595 20504 10280 20203 30143 40148 81101 333 59011;
0178834980999992009070200004-17733-039250FM-12+000399999V0209999C000012200019N0020001N1+02261+02091101671ADDGA1001+999999999GF100991001001999999001001KA1240M+02971MA1999999101621MD1999999-0031REMSYN082AAXX  02004 83498 32995 00000 10226 20209 30162 40167 333 10297 29081 55067 59003;
0156834980999992009070212004-17733-039250FM-12+000399999V0203601N002612200019N0020001N1+02481+02251101871ADDGF102991021011008001001001KA1240N+01891MA1999999101821MD1999999+0091REMSYN076AAXX  02124 83498 32595 23605 10248 20225 30182 40187 82100 333 20189 58009;
0137834980999992009070218004-17733-039250FM-12+000399999V0200501N003112200019N0020001N1+02781+02251101621ADDGF104991031011008001041001MA1999999101571MD1999999+0141REMSYN070AAXX  02184 83498 32595 40506 10278 20225 30157 40162 83140 333 58014;
0178834980999992009070300004-17733-039250FM-12+000399999V0209999C000012200019N0020001N1+02301+02161101711ADDGA1001+999999999GF100991001001999999001001KA1240M+02911MA1999999101661MD1999999+0041REMSYN082AAXX  03004 83498 32995 00000 10230 20216 30166 40171 333 10291 29086 55066 58004;
0156834980999992009070312004-17733-039250FM-12+000399999V0202701N001510450019N0020001N1+02401+02231101911ADDGF106991021011008001041011KA1240N+01941MA1999999101861MD1999999+0041REMSYN076AAXX  03124 83498 32595 62703 10240 20223 30186 40191 82141 333 20194 58004;
0137834980999992009070318004-17733-039250FM-12+000399999V0200501N002612200019N0020001N1+02821+02241101631ADDGF104991021011008001041001MA1999999101581MD1999999+0011REMSYN070AAXX  03184 83498 32595 40505 10282 20224 30158 40163 82140 333 58001;
0178834980999992009070400004-17733-039250FM-12+000399999V0209999C000012200019N0020001N1+02241+02071101831ADDGA1001+999999999GF100991001001999999001001KA1240M+02821MA1999999101781MD1999999+0121REMSYN082AAXX  04004 83498 32995 00000 10224 20207 30178 40183 333 10282 29085 55055 58012;
0156834980999992009070412004-17733-039250FM-12+000399999V0202301N001010450019N0020001N1+02261+02211102011ADDGF106991041051008001041001KA1240N+01941MA1999999101961MD1999999+0101REMSYN076AAXX  04124 83498 32595 62302 10226 20221 30196 40201 84540 333 20194 58010;
0182834980999992009070418004-17733-039250FM-12+000399999V0202701N001510450019N0020001N1+02321+02151101761ADDAA106005191AY161061AY261061GF107991041051008001011001MA1999999101711MD1999999+0111MW1211REMSYN082AAXX  04184 83498 21595 72703 10232 20215 30171 40176 72166 84510 333 58011 60051;
0168834980999992009070500004-17733-039250FM-12+000399999V0209999C000012200019N0020001N1+02081+02031102001ADDGF102991021041008001001001KA1240M+02591MA1999999101951MD1999999+0171REMSYN088AAXX  05004 83498 32595 20000 10208 20203 30195 40200 82400 333 10259 29095 55009 58017;
0173834980999992009070512004-17733-039250FM-12+000399999V0201401N001012200019N0020001N1+02441+02031102181ADDAA124005191GF102991021011008001001001KA1240N+01941MA1999999102131MD1999999+0171REMSYN082AAXX  05124 83498 22595 21402 10244 20203 30213 40218 82100 333 20194 58017 60054;
0137834980999992009070518004-17733-039250FM-12+000399999V0201401N002110450019N0020001N1+02551+02041102001ADDGF106991041021008001041001MA1999999101951MD1999999+0241REMSYN070AAXX  05184 83498 32595 61404 10255 20204 30195 40200 84240 333 58024;
0168834980999992009070600004-17733-039250FM-12+000399999V0201401N000512200019N0020001N1+02311+02071102201ADDGF103991031021008001001001KA1240M+02711MA1999999102151MD1999999+0201REMSYN088AAXX  06004 83498 32595 31401 10231 20207 30215 40220 83200 333 10271 29082 55070 58020;
0201834980999992009070612004-17733-039250FM-12+000399999V0201801N003110450019N0020001N1+02191+02041102251ADDAA124000591AY161061AY261061GF108991031071008001021999KA1240N+02071MA1999999102201MD1999999+0071MW1601REMSYN088AAXX  06124 83498 21595 81806 10219 20204 30220 40225 76066 8372/ 333 20207 58007 69964;
0182834980999992009070618004-17733-039250FM-12+000399999V0200901N005110075019N0020001N1+02461+01881102041ADDAA106001091AY161061AY261061GF108991051051008001021999MA1999999101991MD1999999+0041MW1211REMSYN082AAXX  06184 83498 21595 80910 10246 20188 30199 40204 72166 8552/ 333 58004 60011;
0168834980999992009070700004-17733-039250FM-12+000399999V0201401N003110075019N0020001N1+02341+01951102241ADDGF108991051051008001021999KA1240M+02531MA1999999102191MD1999999+0041REMSYN088AAXX  07004 83498 32595 81406 10234 20195 30219 40224 8552/ 333 10253 29080 55000 58004;
0192834980999992009070712004-17733-039250FM-12+000399999V0201401N001512200019N0020001N1+02521+01821102221ADDAA124001091GF104991999021008001001001KA1240N+02081MA1999999102171MD1999999-0031REMSYN082AAXX  07124 83498 22595 41403 10252 20182 30217 40222 85200 333 20208 59003 60014;EQDQ01+000052SCOTLC
0137834980999992009070718004-17733-039250FM-12+000399999V0201401N002112200019N0020001N1+02681+01971101991ADDGF103991031011008001001001MA1999999101941MD1999999-0051REMSYN070AAXX  07184 83498 32595 31404 10268 20197 30194 40199 83100 333 59005;
0168834980999992009070800004-17733-039250FM-12+000399999V0201801N000510450019N0020001N1+02101+01911102171ADDGF106991011011008001051091KA1240M+02641MA1999999102121MD1999999-0071REMSYN088AAXX  08004 83498 32595 61801 10210 20191 30212 40217 81159 333 10264 29077 55053 59007;
0201834980999992009070812004-17733-039250FM-12+000399999V0201801N000512200019N0020001N1+02301+01981102181ADDAA124000591AY161061AY211061GF103991031021008001001001KA1240N+01971MA1999999102131MD1999999-0041MW1211REMSYN088AAXX  08124 83498 21595 31801 10230 20198 30213 40218 72161 83200 333 20197 59004 69944;
0137834980999992009070818004-17733-039250FM-12+000399999V0200901N001512200019N0020001N1+02521+02001102001ADDGF104991021011008001031001MA1999999101951MD1999999+0011REMSYN070AAXX  08184 83498 32595 40903 10252 20200 30195 40200 82130 333 58001;
0168834980999992009070900004-17733-039250FM-12+000399999V0201401N000512200019N0020001N1+02301+01921102171ADDGF103991031021008001001001KA1240M+02711MA1999999102121MD1999999+0001REMSYN088AAXX  09004 83498 32595 31401 10230 20192 30212 40217 83200 333 10271 29078 55066 58000;
0156834980999992009070912004-17733-039250FM-12+000399999V0202701N001012200019N0020001N1+02101+01951102141ADDGF105991031021008001001011KA1240N+01761MA1999999102091MD1999999-0051REMSYN076AAXX  09124 83498 32595 52702 10210 20195 30209 40214 83201 333 20176 59005;
0137834980999992009070918004-17733-039250FM-12+000399999V0200901N002612200019N0020001N1+02461+02071101941ADDGF104991021011008001001011MA1999999101891MD1999999-0061REMSYN070AAXX  09184 83498 32595 40905 10246 20207 30189 40194 82101 333 59006;
0168834980999992009071000004-17733-039250FM-12+000399999V0200901N000512200019N0020001N1+02121+01951102011ADDGF105991021011008001001011KA1240M+02781MA1999999101961MD1999999-0161REMSYN088AAXX  10004 83498 32595 50901 10212 20195 30196 40201 82101 333 10278 29088 55051 59016;
0156834980999992009071012004-17733-039250FM-12+000399999V0209999C000012200019N0020001N1+02421+02191102041ADDGF103991031021008001001001KA1240N+01921MA1999999101991MD1999999-0101REMSYN076AAXX  10124 83498 32595 30000 10242 20219 30199 40204 83200 333 20192 59010;
0137834980999992009071018004-17733-039250FM-12+000399999V0200501N002112200019N0020001N1+02711+01991101671ADDGF103991031021008001001001MA1999999101621MD1999999-0271REMSYN070AAXX  10184 83498 32595 30504 10271 20199 30162 40167 83200 333 59027;
0178834980999992009071100004-17733-039250FM-12+000399999V0200901N000512200019N0020001N1+02151+01861101811ADDGA1001+999999999GF100991001001999999001001KA1240M+02781MA1999999101761MD1999999-0201REMSYN082AAXX  11004 83498 32995 00901 10215 20186 30176 40181 333 10278 29080 55053 59020;
0156834980999992009071112004-17733-039250FM-12+000399999V0202701N001012200019N0020001N1+02401+02111101831ADDGF102991011011008001001011KA1240N+01721MA1999999101781MD1999999-0211REMSYN076AAXX  11124 83498 32595 22702 10240 20211 30178 40183 81101 333 20172 59021;
0137834980999992009071118004-17733-039250FM-12+000399999V0200901N002112200019N0020001N1+02721+02151101521ADDGF104991021011008001001011MA1999999101471MD1999999-0151REMSYN070AAXX  11184 83498 32595 40904 10272 20215 30147 40152 82101 333 59015;
0156834980999992009071212004-17733-039250FM-12+000399999V0203601N003111050019N0020001N1+02591+02231101711ADDGF106991021011008001001021KA1240N+02121MA1999999101661MD1999999-0121REMSYN076AAXX  12124 83498 32595 63606 10259 20223 30166 40171 82102 333 20212 59012;
0137834980999992009071218004-17733-039250FM-12+000399999V0203601N006211050019N0020001N1+02741+02171101371ADDGF105991011011008001001021MA1999999101321MD1999999-0151REMSYN070AAXX  12184 83498 32595 53612 10274 20217 30132 40137 81102 333 59015;
0178834980999992009071300004-17733-039250FM-12+000399999V0200501N002112200019N0020001N1+02431+02211101711ADDGA1001+999999999GF100991001001999999001001KA1240M+02871MA1999999101661MD1999999+0081REMSYN082AAXX  13004 83498 32995 00504 10243 20221 30166 40171 333 10287 29082 55014 58008;
0156834980999992009071312004-17733-039250FM-12+000399999V0202301N001010450019N0020001N1+02401+02261102201ADDGF108991041051008001011999KA1240N+01671MA1999999102151MD1999999+0491REMSYN076AAXX  13124 83498 32595 82302 10240 20226 30215 40220 8451/ 333 20167 58049;
0182834980999992009071318004-17733-039250FM-12+000399999V0201801N002610075019N0020001N1+02361+02171101991ADDAA106031091AY161061AY221061GF108991051071008001021999MA1999999101941MD1999999+0621MW1641REMSYN082AAXX  13184 83498 21595 81805 10236 20217 30194 40199 76462 8572/ 333 58062 60311;
0168834980999992009071400004-17733-039250FM-12+000399999V0201801N003610450019N0020001N1+02341+02151102191ADDGF108991041061008001021999KA1240M+02491MA1999999102141MD1999999+0481REMSYN088AAXX  14004 83498 32595 81807 10234 20215 30214 40219 8462/ 333 10249 29090 55000 58048;
0201834980999992009071412004-17733-039250FM-12+000399999V0202701N001510450019N0020001N1+02291+02161102241ADDAA124034091AY121061AY211061GF106991041051008001041001KA1240N+02071MA1999999102191MD1999999+0041MW1031REMSYN088AAXX  14124 83498 21595 62703 10229 20216 30219 40224 70321 84540 333 20207 58004 60344;
0137834980999992009071418004-17733-039250FM-12+000399999V0200501N001512200019N0020001N1+02741+02101101891ADDGF102991021011008001001001MA1999999101841MD1999999-0101REMSYN070AAXX  14184 83498 32595 20503 10274 20210 30184 40189 82100 333 59010;
0178834980999992009071500004-17733-039250FM-12+000399999V0209999C000012200019N0020001N1+02261+02111102051ADDGA1001+999999999GF100991001001999999001001KA1240M+02771MA1999999102001MD1999999-0141REMSYN082AAXX  15004 83498 32995 00000 10226 20211 30200 40205 333 10277 29086 55025 59014;
0201834980999992009071512004-17733-039250FM-12+000399999V0201801N002110450019N0020001N1+02301+02121102201ADDAA124000391AY161061AY221061GF108991041071008001021999KA1240N+02041MA1999999102151MD1999999-0041MW1611REMSYN088AAXX  15124 83498 21595 81804 10230 20212 30215 40220 76162 8472/ 333 20204 59004 69934;
0182834980999992009071518004-17733-039250FM-12+000399999V0201801N003110450019N0020001N1+02441+02091102071ADDAA106007191AY161061AY261061GF108991031061008001021999MA1999999102021MD1999999+0181MW1211REMSYN082AAXX  15184 83498 21595 81806 10244 20209 30202 40207 72166 8362/ 333 58018 60071;
0168834980999992009071600004-17733-039250FM-12+000399999V0201801N003112200019N0020001N1+02381+01931102271ADDGF102991021011008001001001KA1240M+02451MA1999999102221MD1999999+0221REMSYN088AAXX  16004 83498 32595 21806 10238 20193 30222 40227 82100 333 10245 29081 55000 58022;
0201834980999992009071612004-17733-039250FM-12+000399999V0202301N001510450019N0020001N1+02271+02111102351ADDAA124008991AY161061AY261061GF107991041051008001011001KA1240N+01971MA1999999102301MD1999999+0151MW1211REMSYN088AAXX  16124 83498 21595 72303 10227 20211 30230 40235 72166 84510 333 20197 58015 60094;
0182834980999992009071618004-17733-039250FM-12+000399999V0200901N001010450019N0020001N1+02381+02131102101ADDAA106003091AY161061AY261061GF107991041051008001011001MA1999999102051MD1999999+0031MW1601REMSYN082AAXX  16184 83498 21595 70902 10238 20213 30205 40210 76066 84510 333 58003 60031;
0168834980999992009071700004-17733-039250FM-12+000399999V0200901N001012200019N0020001N1+02281+02051102321ADDGF103991031061008001001001KA1240M+02651MA1999999102271MD1999999+0051REMSYN088AAXX  17004 83498 32595 30902 10228 20205 30227 40232 83600 333 10265 29088 55025 58005;
0173834980999992009071712004-17733-039250FM-12+000399999V0202301N000510450019N0020001N1+02201+02081102411ADDAA124002091GF106991021011008001031011KA1240N+01921MA1999999102361MD1999999+0061REMSYN082AAXX  17124 83498 22595 62301 10220 20208 30236 40241 82131 333 20192 58006 60024;
0137834980999992009071718004-17733-039250FM-12+000399999V0200901N001510450019N0020001N1+02401+02111102191ADDGF105991021011008001031001MA1999999102141MD1999999+0091REMSYN070AAXX  17184 83498 32595 50903 10240 20211 30214 40219 82130 333 58009;
0178834980999992009071800004-17733-039250FM-12+000399999V0209999C000012200019N0020001N1+02261+01941102281ADDGA1001+999999999GF100991001001999999001001KA1240M+02691MA1999999102231MD1999999-0041REMSYN082AAXX  18004 83498 32995 00000 10226 20194 30223 40228 333 10269 29085 55051 59004;
0156834980999992009071812004-17733-039250FM-12+000399999V0209999C000010450019N0020001N1+02341+02111102231ADDGF106991041051008001041001KA1240N+01861MA1999999102181MD1999999-0181REMSYN076AAXX  18124 83498 32595 60000 10234 20211 30218 40223 84540 333 20186 59018;
0137834980999992009071818004-17733-039250FM-12+000399999V0201401N001012200019N0020001N1+02571+01951101761ADDGF102991021011008001001001MA1999999101711MD1999999-0431REMSYN070AAXX  18184 83498 32595 21402 10257 20195 30171 40176 82100 333 59043;
0178834980999992009071900004-17733-039250FM-12+000399999V0209999C000012200019N0020001N1+02051+01911101871ADDGA1001+999999999GF100991001001999999001001KA1240M+02691MA1999999101821MD1999999-0411REMSYN082AAXX  19004 83498 32995 00000 10205 20191 30182 40187 333 10269 29085 55055 59041;
0156834980999992009071912004-17733-039250FM-12+000399999V0203201N001512200019N0020001N1+02301+02071101751ADDGF103991031011008001001001KA1240N+01821MA1999999101701MD1999999-0481REMSYN076AAXX  19124 83498 32595 33203 10230 20207 30170 40175 83100 333 20182 59048;
0137834980999992009071918004-17733-039250FM-12+000399999V0200901N002112200019N0020001N1+02581+02171101411ADDGF102991021011008001001001MA1999999101361MD1999999-0351REMSYN070AAXX  19184 83498 32595 20904 10258 20217 30136 40141 82100 333 59035;
0178834980999992009072000004-17733-039250FM-12+000399999V0209999C000012200019N0020001N1+02201+02011101601ADDGA1001+999999999GF100991001001999999001001KA1240M+02891MA1999999101551MD1999999-0271REMSYN082AAXX  20004 83498 32995 00000 10220 20201 30155 40160 333 10289 29086 55084 59027;
0156834980999992009072012004-17733-039250FM-12+000399999V0201801N006710450019N0020001N1+02181+01991101891ADDGF107991041051008001011001KA1240N+01881MA1999999101841MD1999999+0141REMSYN076AAXX  20124 83498 32595 71813 10218 20199 30184 40189 84510 333 20188 58014;
0137834980999992009072018004-17733-039250FM-12+000399999V0201801N003110450019N0020001N1+02301+02031101661ADDGF107991041051008001011001MA1999999101611MD1999999+0251REMSYN070AAXX  20184 83498 32595 71806 10230 20203 30161 40166 84510 333 58025;
0178834980999992009072100004-17733-039250FM-12+000399999V0209999C000012200019N0020001N1+02241+01961101881ADDGA1001+999999999GF100991001001999999001001KA1240M+02371MA1999999101831MD1999999+0281REMSYN082AAXX  21004 83498 32995 00000 10224 20196 30183 40188 333 10237 29086 55000 58028;
0156834980999992009072112004-17733-039250FM-12+000399999V0202701N000510450019N0020001N1+02161+02021102001ADDGF108991041051008001011999KA1240N+01961MA1999999101951MD1999999+0111REMSYN076AAXX  21124 83498 32595 82701 10216 20202 30195 40200 8451/ 333 20196 58011;
0137834980999992009072118004-17733-039250FM-12+000399999V0201401N001010450019N0020001N1+02401+02111101891ADDGF108991031051008001011999MA1999999101841MD1999999+0231REMSYN070AAXX  21184 83498 32595 81402 10240 20211 30184 40189 8351/ 333 58023;
0168834980999992009072200004-17733-039250FM-12+000399999V0201401N001512200019N0020001N1+02301+02131101911ADDGF103991031011008001001001KA1240M+02611MA1999999101861MD1999999+0031REMSYN088AAXX  22004 83498 32595 31403 10230 20213 30186 40191 83100 333 10261 29089 55002 58003;
0201834980999992009072212004-17733-039250FM-12+000399999V0202701N001510450019N0020001N1+02281+02111101981ADDAA124002091AY121061AY211061GF106991041051008001041001KA1240N+01971MA1999999101931MD1999999-0021MW1031REMSYN088AAXX  22124 83498 21595 62703 10228 20211 30193 40198 70321 84540 333 20197 59002 60024;
0137834980999992009072218004-17733-039250FM-12+000399999V0200901N002612200019N0020001N1+02551+02111101641ADDGF103991021011008001041001MA1999999101591MD1999999-0291REMSYN070AAXX  22184 83498 32595 30905 10255 20211 30159 40164 82140 333 59029;
0178834980999992009072300004-17733-039250FM-12+000399999V0209999C000012200019N0020001N1+02121+02021101801ADDGA1001+999999999GF100991001001999999001001KA1240M+02691MA1999999101751MD1999999-0111REMSYN082AAXX  23004 83498 32995 00000 10212 20202 30175 40180 333 10269 29088 55049 59011;
0156834980999992009072312004-17733-039250FM-12+000399999V0203601N001012200019N0020001N1+02441+02151101801ADDGF102991021011008001001001KA1240N+01901MA1999999101751MD1999999-0181REMSYN076AAXX  23124 83498 32595 23602 10244 20215 30175 40180 82100 333 20190 59018;
0137834980999992009072318004-17733-039250FM-12+000399999V0200501N003112200019N0020001N1+02691+02201101441ADDGF102991021011008001001001MA1999999101391MD1999999-0201REMSYN070AAXX  23184 83498 32595 20506 10269 20220 30139 40144 82100 333 59020;
0178834980999992009072400004-17733-039250FM-12+000399999V0209999C000012200019N0020001N1+02301+02151101771ADDGA1001+999999999GF100991001001999999001001KA1240M+02811MA1999999101721MD1999999-0031REMSYN082AAXX  24004 83498 32995 00000 10230 20215 30172 40177 333 10281 29084 55079 59003;
0156834980999992009072412004-17733-039250FM-12+000399999V0203601N003110075019N0020001N1+02561+02191101761ADDGF106991061021008001001001KA1240N+02081MA1999999101711MD1999999-0041REMSYN076AAXX  24124 83498 32595 63606 10256 20219 30171 40176 86200 333 20208 59004;
0137834980999992009072418004-17733-039250FM-12+000399999V0200501N003612200019N0020001N1+02761+02211101501ADDGF103991031011008001001001MA1999999101451MD1999999+0061REMSYN070AAXX  24184 83498 32595 30507 10276 20221 30145 40150 83100 333 58006;
0178834980999992009072500004-17733-039250FM-12+000399999V0200501N001512200019N0020001N1+02341+02111101781ADDGA1001+999999999GF100991001001999999001001KA1240M+02821MA1999999101731MD1999999+0011REMSYN082AAXX  25004 83498 32995 00503 10234 20211 30173 40178 333 10282 29082 55066 58001;
0173834980999992009072512004-17733-039250FM-12+000399999V0202701N000512200019N0020001N1+02441+02151102121ADDAA124000591GF105991031011008001001011KA1240N+02111MA1999999102071MD1999999+0361REMSYN082AAXX  25124 83498 21595 52701 10244 20215 30207 40212 83101 333 20211 58036 69954;
0137834980999992009072518004-17733-039250FM-12+000399999V0200501N002112200019N0020001N1+02681+02161101861ADDGF104991021011008001031001MA1999999101811MD1999999+0281REMSYN070AAXX  25184 83498 32595 40504 10268 20216 30181 40186 82130 333 58028;
0178834980999992009072600004-17733-039250FM-12+000399999V0209999C000012200019N0020001N1+02181+01921102051ADDGA1001+999999999GF100991001001999999001001KA1240M+02771MA1999999102001MD1999999+0271REMSYN082AAXX  26004 83498 32995 00000 10218 20192 30200 40205 333 10277 29082 55076 58027;
0156834980999992009072612004-17733-039250FM-12+000399999V0202701N001512200019N0020001N1+02341+02051102211ADDGF101991011011008001001001KA1240N+01871MA1999999102161MD1999999+0091REMSYN076AAXX  26124 83498 32595 12703 10234 20205 30216 40221 81100 333 20187 58009;
0137834980999992009072618004-17733-039250FM-12+000399999V0200901N002612200019N0020001N1+02651+01851101871ADDGF101991011011008001001001MA1999999101821MD1999999+0091REMSYN070AAXX  26184 83498 32595 10905 10265 20185 30182 40187 81100 333 58009;
0178834980999992009072700004-17733-039250FM-12+000399999V0209999C000012200019N0020001N1+02061+01761102001ADDGA1001+999999999GF100991001001999999001001KA1240M+02711MA1999999101951MD1999999-0051REMSYN082AAXX  27004 83498 32995 00000 10206 20176 30195 40200 333 10271 29083 55092 59005;
0156834980999992009072712004-17733-039250FM-12+000399999V0202301N000512200019N0020001N1+02201+01901102081ADDGF101991011011008001001001KA1240N+01761MA1999999102031MD1999999-0131REMSYN076AAXX  27124 83498 32595 12301 10220 20190 30203 40208 81100 333 20176 59013;
0137834980999992009072718004-17733-039250FM-12+000399999V0200501N001512200019N0020001N1+02621+02051101691ADDGF102991021011008001001001MA1999999101641MD1999999-0181REMSYN070AAXX  27184 83498 32595 20503 10262 20205 30164 40169 82100 333 59018;
0178834980999992009072800004-17733-039250FM-12+000399999V0209999C000012200019N0020001N1+02241+02031101951ADDGA1001+999999999GF100991001001999999001001KA1240M+02691MA1999999101901MD1999999-0051REMSYN082AAXX  28004 83498 32995 00000 10224 20203 30190 40195 333 10269 29082 55084 59005;
0156834980999992009072812004-17733-039250FM-12+000399999V0202701N002110450019N0020001N1+02441+02191102011ADDGF106991041021008001041001KA1240N+01901MA1999999101961MD1999999-0071REMSYN076AAXX  28124 83498 32595 62704 10244 20219 30196 40201 84240 333 20190 59007;
0137834980999992009072818004-17733-039250FM-12+000399999V0200501N004112200019N0020001N1+02651+02031101891ADDGF102991021011008001001001MA1999999101841MD1999999+0201REMSYN070AAXX  28184 83498 32595 20508 10265 20203 30184 40189 82100 333 58020;
0178834980999992009072900004-17733-039250FM-12+000399999V0209999C000012200019N0020001N1+02081+01891101841ADDGA1001+999999999GF100991001001999999001001KA1240M+02821MA1999999101791MD1999999-0111REMSYN082AAXX  29004 83498 32995 00000 10208 20189 30179 40184 333 10282 29084 55077 59011;
0156834980999992009072912004-17733-039250FM-12+000399999V0202701N000512200019N0020001N1+02421+02011102001ADDGF102991021011008001001001KA1240N+01771MA1999999101951MD1999999-0011REMSYN076AAXX  29124 83498 32595 22701 10242 20201 30195 40200 82100 333 20177 59001;
0137834980999992009072918004-17733-039250FM-12+000399999V0200501N001512200019N0020001N1+02641+02141101621ADDGF103991031011008001001001MA1999999101571MD1999999-0071REMSYN070AAXX  29184 83498 32595 30503 10264 20214 30157 40162 83100 333 59007;
0178834980999992009073000004-17733-039250FM-12+000399999V0209999C000012200019N0020001N1+02101+01801101831ADDGA1001+999999999GF100991001001999999001001KA1240M+02791MA1999999101781MD1999999-0011REMSYN082AAXX  30004 83498 32995 00000 10210 20180 30178 40183 333 10279 29080 55087 59001;
0156834980999992009073012004-17733-039250FM-12+000399999V0203601N003112200019N0020001N1+02571+02021102051ADDGF102991021011008001001001KA1240N+01621MA1999999102001MD1999999+0051REMSYN076AAXX  30124 83498 32595 23606 10257 20202 30200 40205 82100 333 20162 58005;
0137834980999992009073018004-17733-039250FM-12+000399999V0200901N003112200019N0020001N1+02651+02071101851ADDGF103991031011008001001001MA1999999101801MD1999999-0231REMSYN070AAXX  30184 83498 32595 30906 10265 20207 30180 40185 83100 333 59023;
0178834980999992009073100004-17733-039250FM-12+000399999V0209999C000012200019N0020001N1+01941+01751102071ADDGA1001+999999999GF100991001001999999001001KA1240M+02811MA1999999102021MD1999999+0241REMSYN082AAXX  31004 83498 32995 00000 10194 20175 30202 40207 333 10281 29080 55075 58024;
0156834980999992009073112004-17733-039250FM-12+000399999V0202301N000510450019N0020001N1+02001+01831102371ADDGF108991041051008001011999KA1240N+01761MA1999999102321MD1999999+0321REMSYN076AAXX  31124 83498 32595 82301 10200 20183 30232 40237 8451/ 333 20176 58032;
0182834980999992009073118004-17733-039250FM-12+000399999V0200901N003110450019N0020001N1+02541+02111102031ADDAA106007191AY161061AY221061GF105991021011008001031001MA1999999101981MD1999999+0181MW1211REMSYN082AAXX  31184 83498 21595 50906 10254 20211 30198 40203 72162 82130 333 58018 60071;
0168834980999992009080100004-17733-039250FM-12+000399999V0209999C000010450019N0020001N1+02301+02091102171ADDGF106991031051008001031001KA1240M+02611MA1999999102121MD1999999+0101REMSYN088AAXX  01004 83498 32595 60000 10230 20209 30212 40217 83530 333 10261 29084 55020 58010;
0201834980999992009080112004-17733-039250FM-12+000399999V0200901N002610450019N0020001N1+02611+02081102281ADDAA124007191AY121061AY211061GF106991041021008001041001KA1240N+02021MA1999999102231MD1999999+0091MW1031REMSYN088AAXX  01124 83498 21595 60905 10261 20208 30223 40228 70321 84240 333 20202 58009 60074;
0137834980999992009080118004-17733-039250FM-12+000399999V0201401N003110450019N0020001N1+02611+02171101981ADDGF105991031021008001041001MA1999999101931MD1999999-0051REMSYN070AAXX  01184 83498 32595 51406 10261 20217 30193 40198 83240 333 59005;
0178834980999992009080200004-17733-039250FM-12+000399999V0209999C000012200019N0020001N1+02241+02101102191ADDGA1001+999999999GF100991001001999999001001KA1240M+02701MA1999999102141MD1999999+0021REMSYN082AAXX  02004 83498 32995 00000 10224 20210 30214 40219 333 10270 29084 55029 58002;
0156834980999992009080212004-17733-039250FM-12+000399999V0200901N001010075019N0020001N1+02521+02091102201ADDGF106991061021008001001001KA1240N+01951MA1999999102151MD1999999-0181REMSYN076AAXX  02124 83498 32595 60902 10252 20209 30215 40220 86200 333 20195 59018;
0137834980999992009080218004-17733-039250FM-12+000399999V0200901N002110450019N0020001N1+02601+02121101781ADDGF105991021011008001031001MA1999999101731MD1999999-0201REMSYN070AAXX  02184 83498 32595 50904 10260 20212 30173 40178 82130 333 59020;
0178834980999992009080300004-17733-039250FM-12+000399999V0209999C000012200019N0020001N1+02261+01981102191ADDGA1001+999999999GF100991001001999999001001KA1240M+02781MA1999999102141MD1999999+0001REMSYN082AAXX  03004 83498 32995 00000 10226 20198 30214 40219 333 10278 29080 55044 58000;
0156834980999992009080312004-17733-039250FM-12+000399999V0200901N002112200019N0020001N1+02561+02151102211ADDGF103991011011008001001011KA1240N+01821MA1999999102161MD1999999+0011REMSYN076AAXX  03124 83498 32595 30904 10256 20215 30216 40221 81101 333 20182 58001;
0137834980999992009080318004-17733-039250FM-12+000399999V0200501N003112200019N0020001N1+02731+01981101911ADDGF102991021011008001001001MA1999999101861MD1999999+0131REMSYN070AAXX  03184 83498 32595 20506 10273 20198 30186 40191 82100 333 58013;
0197834980999992009080400004-17733-039250FM-12+000399999V0200501N000512200019N0020001N1+02121+02051101092ADDGA1001+999999999GF100991001001999999001001KA1240M+02831MA1999999102041MD1999999-0101REMSYN082AAXX  04004 83498 32995 00501 10212 20205 30204 40109 333 10283 29084 55064 59010;EQDQ01+101093APOSLP
0156834980999992009080412004-17733-039250FM-12+000399999V0202701N000510450019N0020001N1+02361+02071102141ADDGF105991021011008001041001KA1240N+01871MA1999999102091MD1999999-0071REMSYN076AAXX  04124 83498 32595 52701 10236 20207 30209 40214 82140 333 20187 59007;
0137834980999992009080418004-17733-039250FM-12+000399999V0200501N001512200019N0020001N1+02781+02231101861ADDGF104991021011008001031001MA1999999101811MD1999999-0051REMSYN070AAXX  04184 83498 32595 40503 10278 20223 30181 40186 82130 333 59005;
0178834980999992009080500004-17733-039250FM-12+000399999V0209999C000012200019N0020001N1+02181+01821101971ADDGA1001+999999999GF100991001001999999001001KA1240M+02811MA1999999101921MD1999999-0121REMSYN082AAXX  05004 83498 32995 00000 10218 20182 30192 40197 333 10281 29079 55055 59012;
0156834980999992009080512004-17733-039250FM-12+000399999V0202301N001012200019N0020001N1+02401+02031102151ADDGF102991021011008001001001KA1240N+01841MA1999999102101MD1999999+0011REMSYN076AAXX  05124 83498 32595 22302 10240 20203 30210 40215 82100 333 20184 58001;
0137834980999992009080518004-17733-039250FM-12+000399999V0201401N002612200019N0020001N1+02671+01901101861ADDGF101991011011008001001001MA1999999101811MD1999999+0001REMSYN070AAXX  05184 83498 32595 11405 10267 20190 30181 40186 81100 333 58000;
0178834980999992009080600004-17733-039250FM-12+000399999V0209999C000012200019N0020001N1+02061+01891101961ADDGA1001+999999999GF100991001001999999001001KA1240M+02731MA1999999101911MD1999999-0011REMSYN082AAXX  06004 83498 32995 00000 10206 20189 30191 40196 333 10273 29080 55091 59001;
0201834980999992009080612004-17733-039250FM-12+000399999V0202701N000510450019N0020001N1+02161+02021102101ADDAA124001091AY161061AY221061GF108991041051008001031999KA1240N+01861MA1999999102051MD1999999-0051MW1211REMSYN088AAXX  06124 83498 21595 82701 10216 20202 30205 40210 72162 8453/ 333 20186 59005 60014;
0137834980999992009080618004-17733-039250FM-12+000399999V0200901N001510450019N0020001N1+02501+02131101781ADDGF106991031011008001041001MA1999999101731MD1999999-0081REMSYN070AAXX  06184 83498 32595 60903 10250 20213 30173 40178 83140 333 59008;
0168834980999992009080700004-17733-039250FM-12+000399999V0200501N000512200019N0020001N1+02161+01901101951ADDGF101991011011008001001001KA1240M+02811MA1999999101901MD1999999-0011REMSYN088AAXX  07004 83498 32595 10501 10216 20190 30190 40195 81100 333 10281 29086 55033 59001;
0156834980999992009080712004-17733-039250FM-12+000399999V0203601N002112200019N0020001N1+02551+02001102131ADDGF104991041021008001001001KA1240N+01871MA1999999102081MD1999999+0031REMSYN076AAXX  07124 83498 32595 43604 10255 20200 30208 40213 84200 333 20187 58003;
0137834980999992009080718004-17733-039250FM-12+000399999V0200501N001512200019N0020001N1+02711+01941101941ADDGF102991021011008001001001MA1999999101891MD1999999+0161REMSYN070AAXX  07184 83498 32595 20503 10271 20194 30189 40194 82100 333 58016;
0178834980999992009080800004-17733-039250FM-12+000399999V0209999C000012200019N0020001N1+02111+01931102141ADDGA1001+999999999GF100991001001999999001001KA1240M+02831MA1999999102091MD1999999+0191REMSYN082AAXX  08004 83498 32995 00000 10211 20193 30209 40214 333 10283 29079 55076 58019;
0201834980999992009080812004-17733-039250FM-12+000399999V0200501N001010075019N0020001N1+02201+01971102331ADDAA124004191AY161061AY221061GF108991051061008001021999KA1240N+01971MA1999999102281MD1999999+0201MW1611REMSYN088AAXX  08124 83498 21595 80502 10220 20197 30228 40233 76162 8562/ 333 20197 58020 60044;
0182834980999992009080818004-17733-039250FM-12+000399999V0200501N003110450019N0020001N1+02681+02261102081ADDAA106001091AY161061AY261061GF106991041021008001041001MA1999999102031MD1999999+0141MW1211REMSYN082AAXX  08184 83498 21595 60506 10268 20226 30203 40208 72166 84240 333 58014 60011;
0168834980999992009080900004-17733-039250FM-12+000399999V0200501N000512200019N0020001N1+02281+01921102221ADDGF102991021011008001001001KA1240M+02711MA1999999102171MD1999999+0081REMSYN088AAXX  09004 83498 32595 20501 10228 20192 30217 40222 82100 333 10271 29081 55046 58008;
0201834980999992009080912004-17733-039250FM-12+000399999V0201801N002610450019N0020001N1+02101+02051102221ADDAA124008991AY161061AY261061GF108991041071008001021999KA1240N+02021MA1999999102171MD1999999-0111MW1601REMSYN088AAXX  09124 83498 21595 81805 10210 20205 30217 40222 76066 8472/ 333 20202 59011 60094;
0182834980999992009080918004-17733-039250FM-12+000399999V0203601N002610450019N0020001N1+02591+01971101831ADDAA106004191AY121061AY211061GF106991041051008001041001MA1999999101781MD1999999-0251MW1031REMSYN082AAXX  09184 83498 21595 63605 10259 20197 30178 40183 70321 84540 333 59025 60041;
0168834980999992009081000004-17733-039250FM-12+000399999V0209999C000010075019N0020001N1+02241+01991102041ADDGF107991051051008001011001KA1240M+02611MA1999999101991MD1999999-0181REMSYN088AAXX  10004 83498 32595 70000 10224 20199 30199 40204 85510 333 10261 29085 55001 59018;
0173834980999992009081012004-17733-039250FM-12+000399999V0202701N001012200019N0020001N1+02481+02091102031ADDAA124004191GF101991011011008001001001KA1240N+01891MA1999999101981MD1999999-0191REMSYN082AAXX  10124 83498 22595 12702 10248 20209 30198 40203 81100 333 20189 59019 60044;
0137834980999992009081018004-17733-039250FM-12+000399999V0200501N002112200019N0020001N1+02701+02281101701ADDGF103991031011008001001001MA1999999101651MD1999999-0131REMSYN070AAXX  10184 83498 32595 30504 10270 20228 30165 40170 83100 333 59013;
0168834980999992009081100004-17733-039250FM-12+000399999V0200501N001512200019N0020001N1+02301+01961101851ADDGF102991021011008001001001KA1240M+02771MA1999999101801MD1999999-0191REMSYN088AAXX  11004 83498 32595 20503 10230 20196 30180 40185 82100 333 10277 29080 55087 59019;
0156834980999992009081112004-17733-039250FM-12+000399999V0203601N003110075019N0020001N1+02531+02091101961ADDGF105991051021008001001001KA1240N+01981MA1999999101911MD1999999-0071REMSYN076AAXX  11124 83498 32595 53606 10253 20209 30191 40196 85200 333 20198 59007;
0137834980999992009081118004-17733-039250FM-12+000399999V0200901N002612200019N0020001N1+02691+02131101891ADDGF104991041011008001001001MA1999999101841MD1999999+0191REMSYN070AAXX  11184 83498 32595 40905 10269 20213 30184 40189 84100 333 58019;
0213834980999992009081200004-17733-039250FM-12+000399999V0201801N004610075019N0020001N1+02341+02051102191ADDAA106002091AY121061AY211061GF108991051051008001021999KA1240M+02831MA1999999102141MD1999999+0341MW1031REMSYN100AAXX  12004 83498 21595 81809 10234 20205 30214 40219 70321 8552/ 333 10283 29079 55080 58034 60021;
0201834980999992009081212004-17733-039250FM-12+000399999V0201801N003110450019N0020001N1+02221+02081102371ADDAA124039191AY161061AY261061GF108991031071008001021999KA1240N+02151MA1999999102321MD1999999+0411MW1611REMSYN088AAXX  12124 83498 21595 81806 10222 20208 30232 40237 76166 8372/ 333 20215 58041 60394;
0182834980999992009081218004-17733-039250FM-12+000399999V0209999C000010450019N0020001N1+02211+02031102221ADDAA106009991AY161061AY261061GF108991041051008001021999MA1999999102171MD1999999+0331MW1211REMSYN082AAXX  12184 83498 21595 80000 10221 20203 30217 40222 72166 8452/ 333 58033 60101;
0213834980999992009081300004-17733-039250FM-12+000399999V0201801N001510450019N0020001N1+02141+02041102351ADDAA106010991AY161061AY261061GF108991031071008001021999KA1240M+02401MA1999999102301MD1999999+0161MW1611REMSYN100AAXX  13004 83498 21595 81803 10214 20204 30230 40235 76166 8372/ 333 10240 29093 55000 58016 60111;
0201834980999992009081312004-17733-039250FM-12+000399999V0201801N003110075019N0020001N1+02371+02111102381ADDAA124021191AY161061AY261061GF108991051051008001021999KA1240N+01971MA1999999102331MD1999999+0011MW1211REMSYN088AAXX  13124 83498 21595 81806 10237 20211 30233 40238 72166 8552/ 333 20197 58001 60214;
0182834980999992009081318004-17733-039250FM-12+000399999V0201801N004110450019N0020001N1+02381+02071102121ADDAA106005191AY121061AY211061GF107991041051008001011001MA1999999102071MD1999999-0101MW1031REMSYN082AAXX  13184 83498 21595 71808 10238 20207 30207 40212 70321 84510 333 59010 60051;
0168834980999992009081400004-17733-039250FM-12+000399999V0209999C000010075019N0020001N1+02081+02031102261ADDGF108991051051008001021999KA1240M+02491MA1999999102211MD1999999-0091REMSYN088AAXX  14004 83498 32595 80000 10208 20203 30221 40226 8552/ 333 10249 29091 55024 59009;
0201834980999992009081412004-17733-039250FM-12+000399999V0201801N000510075019N0020001N1+02161+02021102151ADDAA124015091AY161061AY261061GF108991051061008001021999KA1240N+01951MA1999999102101MD1999999-0231MW1621REMSYN088AAXX  14124 83498 21595 81801 10216 20202 30210 40215 76266 8562/ 333 20195 59023 60154;
0182834980999992009081418004-17733-039250FM-12+000399999V0200901N003110075019N0020001N1+02561+01951101831ADDAA106001091AY161061AY261061GF105991051021008001001001MA1999999101781MD1999999-0291MW1211REMSYN082AAXX  14184 83498 21595 50906 10256 20195 30178 40183 72166 85200 333 59029 60011;
0168834980999992009081500004-17733-039250FM-12+000399999V0200901N001512200019N0020001N1+02301+01851101961ADDGF102991021011008001001001KA1240M+02591MA1999999101911MD1999999-0301REMSYN088AAXX  15004 83498 32595 20903 10230 20185 30191 40196 82100 333 10259 29078 55035 59030;
0179834980999992009081512004-17733-039250FM-12+000399999V0200501N001511050019N0020001N1+02521+01931102091ADDAA124002091GF105991031011008001001021KA1240N+01971MA1999999102041MD1999999-0061REMSYN088AAXX  15124 83498 21595 50503 10252 20193 30204 40209 7//// 83102 333 20197 59006 60024;
0137834980999992009081518004-17733-039250FM-12+000399999V0200901N003112200019N0020001N1+02681+01991101891ADDGF103991021011008001031001MA1999999101841MD1999999+0061REMSYN070AAXX  15184 83498 32595 30906 10268 20199 30184 40189 82130 333 58006;
0168834980999992009081600004-17733-039250FM-12+000399999V0200901N001510450019N0020001N1+02341+01671102091ADDGF108991041051008001011999KA1240M+02691MA1999999102041MD1999999+0131REMSYN088AAXX  16004 83498 32595 80903 10234 20167 30204 40209 8451/ 333 10269 29067 55059 58013;
0156834980999992009081612004-17733-039250FM-12+000399999V0200501N004111050019N0020001N1+02581+01971102211ADDGF105991031011008001001021KA1240N+02261MA1999999102161MD1999999+0121REMSYN076AAXX  16124 83498 32595 50508 10258 20197 30216 40221 83102 333 20226 58012;
0137834980999992009081618004-17733-039250FM-12+000399999V0200501N003612200019N0020001N1+02721+01981101981ADDGF103991031011008001001001MA1999999101931MD1999999+0091REMSYN070AAXX  16184 83498 32595 30507 10272 20198 30193 40198 83100 333 58009;
0187834980999992009081700004-17733-039250FM-12+000399999V0200901N000512200019N0020001N1+02261+01941101092ADDGF102991021011008001001001KA1240M+02691MA1999999102041MD1999999+0001REMSYN088AAXX  17004 83498 32595 20901 10226 20194 30204 40109 82100 333 10269 29074 55057 58000;EQDQ01+101093APOSLP
0156834980999992009081712004-17733-039250FM-12+000399999V0200501N001510450019N0020001N1+02491+01831102041ADDGF105991011011008001041001KA1240N+02091MA1999999101991MD1999999-0171REMSYN076AAXX  17124 83498 32595 50503 10249 20183 30199 40204 81140 333 20209 59017;
0137834980999992009081718004-17733-039250FM-12+000399999V0200501N002112200019N0020001N1+02671+01951101771ADDGF103991011011008001041001MA1999999101721MD1999999-0211REMSYN070AAXX  17184 83498 32595 30504 10267 20195 30172 40177 81140 333 59021;
0213834980999992009081800004-17733-039250FM-12+000399999V0209999C000012200019N0020001N1+02071+02011101961ADDAA106001091AY121061AY211061GF103991031061008001001001KA1240M+02691MA1999999101911MD1999999-0131MW1031REMSYN100AAXX  18004 83498 21595 30000 10207 20201 30191 40196 70321 83600 333 10269 29082 55063 59013 60011;
0201834980999992009081812004-17733-039250FM-12+000399999V0200901N000511050019N0020001N1+02241+02031101921ADDAA124002091AY161061AY261061GF106991031021008001001021KA1240N+01961MA1999999101871MD1999999-0121MW1611REMSYN088AAXX  18124 83498 21595 60901 10224 20203 30187 40192 76166 83202 333 20196 59012 60024;
0137834980999992009081818004-17733-039250FM-12+000399999V0200501N003112200019N0020001N1+02501+02071101491ADDGF105991021011008001001011MA1999999101441MD1999999-0281REMSYN070AAXX  18184 83498 32595 50506 10250 20207 30144 40149 82101 333 59028;
0168834980999992009081900004-17733-039250FM-12+000399999V0200901N000512200019N0020001N1+02181+01921101631ADDGF102991021011008001001001KA1240M+02801MA1999999101581MD1999999-0331REMSYN088AAXX  19004 83498 32595 20901 10218 20192 30158 40163 82100 333 10280 29084 55075 59033;
0156834980999992009081912004-17733-039250FM-12+000399999V0203601N003112200019N0020001N1+02561+02061101671ADDGF105991021011008001001011KA1240N+01841MA1999999101621MD1999999-0251REMSYN076AAXX  19124 83498 32595 53606 10256 20206 30162 40167 82101 333 20184 59025;
0137834980999992009081918004-17733-039250FM-12+000399999V0203601N004111050019N0020001N1+02711+02081101291ADDGF105991021011008001001021MA1999999101241MD1999999-0201REMSYN070AAXX  19184 83498 32595 53608 10271 20208 30124 40129 82102 333 59020;
0178834980999992009082000004-17733-039250FM-12+000399999V0200501N001512200019N0020001N1+02381+02091101461ADDGA1001+999999999GF100991001001999999001001KA1240M+02811MA1999999101411MD1999999-0171REMSYN082AAXX  20004 83498 32995 00503 10238 20209 30141 40146 333 10281 29078 55048 59017;
0156834980999992009082012004-17733-039250FM-12+000399999V0203601N003112200019N0020001N1+02601+02121101591ADDGF104991041011008001001001KA1240N+02081MA1999999101541MD1999999-0081REMSYN076AAXX  20124 83498 32595 43606 10260 20212 30154 40159 84100 333 20208 59008;
0137834980999992009082018004-17733-039250FM-12+000399999V0203601N003612200019N0020001N1+02701+02131101251ADDGF103991031011008001001001MA1999999101201MD1999999-0041REMSYN070AAXX  20184 83498 32595 33607 10270 20213 30120 40125 83100 333 59004;
0168834980999992009082100004-17733-039250FM-12+000399999V0200501N002112200019N0020001N1+02481+02191101411ADDGF102991021011008001001001KA1240M+02911MA1999999101361MD1999999-0051REMSYN088AAXX  21004 83498 32595 20504 10248 20219 30136 40141 82100 333 10291 29079 55080 59005;
0156834980999992009082112004-17733-039250FM-12+000399999V0203601N005110075019N0020001N1+02681+02221101381ADDGF105991051021008001001001KA1240N+02251MA1999999101331MD1999999-0211REMSYN076AAXX  21124 83498 32595 53610 10268 20222 30133 40138 85200 333 20225 59021;
0137834980999992009082118004-17733-039250FM-12+000399999V0203601N005712200019N0020001N1+02801+02251100981ADDGF104991021011008001041001MA1999999100931MD1999999-0271REMSYN070AAXX  21184 83498 32595 43611 10280 20225 30093 40098 82140 333 59027;
0168834980999992009082200004-17733-039250FM-12+000399999V0200501N001510450019N0020001N1+02501+02211101321ADDGF106991031051008001011001KA1240M+02941MA1999999101271MD1999999-0091REMSYN088AAXX  22004 83498 32595 60503 10250 20221 30127 40132 83510 333 10294 29079 55029 59009;
0201834980999992009082212004-17733-039250FM-12+000399999V0201801N005110450019N0020001N1+02381+01911101921ADDAA124002091AY161061AY221061GF108991041061008001011999KA1240N+02201MA1999999101871MD1999999+0541MW1211REMSYN088AAXX  22124 83498 21595 81810 10238 20191 30187 40192 72162 8461/ 333 20220 58054 60024;
0182834980999992009082218004-17733-039250FM-12+000399999V0201401N004610450019N0020001N1+02481+01871101901ADDAA106000591AY161061AY261061GF108991031061008001011999MA1999999101851MD1999999+0921MW1211REMSYN082AAXX  22184 83498 21595 81409 10248 20187 30185 40190 72166 8361/ 333 58092 69941;
0213834980999992009082300004-17733-039250FM-12+000399999V0201401N003610075019N0020001N1+02261+01881101971ADDAA106000021AY161061AY261061GF108991051061008001021999KA1240M+02531MA1999999101921MD1999999+0651MW1211REMSYN100AAXX  23004 83498 21595 81407 10226 20188 30192 40197 72166 8562/ 333 10253 29076 55000 58065 69921;
0173834980999992009082312004-17733-039250FM-12+000399999V0201401N003110450019N0020001N1+02441+01901102131ADDAA124000591GF108991031071008001021999KA1240N+02171MA1999999102081MD1999999+0211REMSYN082AAXX  23124 83498 22595 81406 10244 20190 30208 40213 8372/ 333 20217 58021 69964;
0137834980999992009082318004-17733-039250FM-12+000399999V0201401N004111050019N0020001N1+02511+01871101831ADDGF105991031021008001001021MA1999999101781MD1999999-0071REMSYN070AAXX  23184 83498 32595 51408 10251 20187 30178 40183 83202 333 59007;
0168834980999992009082400004-17733-039250FM-12+000399999V0201401N001510075019N0020001N1+02361+01801102021ADDGF108991051051008001021999KA1240M+02571MA1999999101971MD1999999+0051REMSYN088AAXX  24004 83498 32595 81403 10236 20180 30197 40202 8552/ 333 10257 29071 55004 58005;
0201834980999992009082412004-17733-039250FM-12+000399999V0201401N002110450019N0020001N1+02361+02071102021ADDAA124000021AY161061AY221061GF108991041051008001011999KA1240N+02101MA1999999101971MD1999999-0111MW1211REMSYN088AAXX  24124 83498 21595 81404 10236 20207 30197 40202 72162 8451/ 333 20210 59011 69924;
0182834980999992009082418004-17733-039250FM-12+000399999V0200901N003610450019N0020001N1+02541+02111101771ADDAA106003091AY161061AY261061GF107991031051008001011001MA1999999101721MD1999999-0061MW1211REMSYN082AAXX  24184 83498 21595 70907 10254 20211 30172 40177 72166 83510 333 59006 60031;
0213834980999992009082500004-17733-039250FM-12+000399999V0200901N001510450019N0020001N1+02281+02111101921ADDAA106001091AY161061AY261061GF106991031061008001021001KA1240M+02611MA1999999101871MD1999999-0101MW1211REMSYN100AAXX  25004 83498 21595 60903 10228 20211 30187 40192 72166 83620 333 10261 29085 55000 59010 60011;
0201834980999992009082512004-17733-039250FM-12+000399999V0200501N002612200019N0020001N1+02551+01981101971ADDAA124007991AY121061AY211061GF104991041021008001001001KA1240N+02071MA1999999101921MD1999999-0051MW1031REMSYN088AAXX  25124 83498 21595 40505 10255 20198 30192 40197 70321 84200 333 20207 59005 60084;
0137834980999992009082518004-17733-039250FM-12+000399999V0200501N003112200019N0020001N1+02731+01771101671ADDGF101991011011008001001001MA1999999101621MD1999999-0101REMSYN070AAXX  25184 83498 32595 10506 10273 20177 30162 40167 81100 333 59010;
0168834980999992009082600004-17733-039250FM-12+000399999V0209999C000012200019N0020001N1+02161+01951101841ADDGF102991021001008001031001KA1240M+02791MA1999999101791MD1999999-0081REMSYN088AAXX  26004 83498 32595 20000 10216 20195 30179 40184 82030 333 10279 29076 55084 59008;
0201834980999992009082612004-17733-039250FM-12+000399999V0202301N002110450019N0020001N1+02221+02121102061ADDAA124005191AY161061AY261061GF108991031071008001021999KA1240N+01771MA1999999102011MD1999999+0091MW1601REMSYN088AAXX  26124 83498 21595 82304 10222 20212 30201 40206 76066 8372/ 333 20177 58009 60054;
0182834980999992009082618004-17733-039250FM-12+000399999V0201801N003110450019N0020001N1+02471+02171101851ADDAA106001091AY121061AY211061GF106991041051008001041001MA1999999101801MD1999999+0181MW1031REMSYN082AAXX  26184 83498 21595 61806 10247 20217 30180 40185 70321 84540 333 58018 60011;
0168834980999992009082700004-17733-039250FM-12+000399999V0201801N002112200019N0020001N1+02341+02171102031ADDGF103991031051008001001001KA1240M+02531MA1999999101981MD1999999+0191REMSYN088AAXX  27004 83498 32595 31804 10234 20217 30198 40203 83500 333 10253 29090 55014 58019;
0201834980999992009082712004-17733-039250FM-12+000399999V0202701N001510450019N0020001N1+02121+02091102151ADDAA124023991AY161061AY261061GF108991031071008001021999KA1240N+01941MA1999999102101MD1999999+0091MW1611REMSYN088AAXX  27124 83498 21595 82703 10212 20209 30210 40215 76166 8372/ 333 20194 58009 60244;
0182834980999992009082718004-17733-039250FM-12+000399999V0201801N002110450019N0020001N1+02381+02211101931ADDAA106005191AY161061AY261061GF107991041051008001011001MA1999999101881MD1999999+0081MW1211REMSYN082AAXX  27184 83498 21595 71804 10238 20221 30188 40193 72166 84510 333 58008 60051;
0168834980999992009082800004-17733-039250FM-12+000399999V0202301N001010450019N0020001N1+02221+02171102111ADDGF107991041051008001011001KA1240M+02551MA1999999102061MD1999999+0081REMSYN088AAXX  28004 83498 32595 72302 10222 20217 30206 40211 84510 333 10255 29096 55000 58008;
0173834980999992009082812004-17733-039250FM-12+000399999V0202301N001511050019N0020001N1+02261+02121102151ADDAA124005191GF108991041021008001001021KA1240N+02021MA1999999102101MD1999999+0001REMSYN082AAXX  28124 83498 22595 82303 10226 20212 30210 40215 84202 333 20202 58000 60054;
0137834980999992009082818004-17733-039250FM-12+000399999V0200901N001512200019N0020001N1+02481+02011101861ADDGF107991031051008001001011MA1999999101811MD1999999-0071REMSYN070AAXX  28184 83498 32595 70903 10248 20201 30181 40186 83501 333 59007;
0168834980999992009082900004-17733-039250FM-12+000399999V0201401N000510075019N0020001N1+02361+02131102031ADDGF107991051051008001001091KA1240M+02621MA1999999101981MD1999999-0081REMSYN088AAXX  29004 83498 32595 71401 10236 20213 30198 40203 85509 333 10262 29085 55007 59008;
0201834980999992009082912004-17733-039250FM-12+000399999V0201401N003112200019N0020001N1+02551+02021102161ADDAA124004191AY121061AY211061GF104991021011008001001011KA1240N+02171MA1999999102111MD1999999+0011MW1031REMSYN088AAXX  29124 83498 21595 41406 10255 20202 30211 40216 70321 82101 333 20217 58001 60044;
0137834980999992009082918004-17733-039250FM-12+000399999V0201801N004612200019N0020001N1+02531+01891101921ADDGF106991041021008001001011MA1999999101871MD1999999+0061REMSYN070AAXX  29184 83498 32595 61809 10253 20189 30187 40192 84201 333 58006;
0168834980999992009083000004-17733-039250FM-12+000399999V0201401N003110450019N0020001N1+02321+02001102131ADDGF107991021021008001031001KA1240M+03071MA1999999102081MD1999999+0101REMSYN088AAXX  30004 83498 32595 71406 10232 20200 30208 40213 82230 333 10307 29076 55011 58010;
0156834980999992009083012004-17733-039250FM-12+000399999V0200901N001512200019N0020001N1+02501+01591102231ADDGF104991021011008001001011KA1240N+02081MA1999999102181MD1999999+0071REMSYN076AAXX  30124 83498 32595 40903 10250 20159 30218 40223 82101 333 20208 58007;
0156834980999992009083018004-17733-039250FM-12+000399999V0201401N002112200019N0020001N1+02701+01911101971ADDGF103991999011008001001001MA1999999101921MD1999999+0051REMSYN070AAXX  30184 83498 32595 31404 10270 20191 30192 40197 82100 333 58005;EQDQ01+000022SCOTLC
0168834980999992009083100004-17733-039250FM-12+000399999V0201401N001512200019N0020001N1+02281+01681102231ADDGF106991041021008001001011KA1240M+02611MA1999999102181MD1999999+0101REMSYN088AAXX  31004 83498 32595 61403 10228 20168 30218 40223 84201 333 10261 29064 55024 58010;
0156834980999992009083112004-17733-039250FM-12+000399999V0201401N000511050019N0020001N1+02261+01921102211ADDGF106991021011008001001021KA1240N+01791MA1999999102161MD1999999-0021REMSYN076AAXX  31124 83498 32595 61401 10226 20192 30216 40221 82102 333 20179 59002;
0137834980999992009083118004-17733-039250FM-12+000399999V0200901N003111050019N0020001N1+02661+01771101931ADDGF106991021011008001001021MA1999999101881MD1999999-0041REMSYN070AAXX  31184 83498 32595 60906 10266 20177 30188 40193 82102 333 59004;
0168834980999992009090100004-17733-039250FM-12+000399999V0200901N001019999999N0020001N1+02161+01801102061ADDGF105991051001008001011001KA1240M+02691MA1999999102011MD1999999-0171REMSYN088AAXX  01004 83498 32595 50902 10216 20180 30201 40206 85010 333 10269 29075 55035 59017;
0156834980999992009090112004-17733-039250FM-12+000399999V0202301N000512200019N0020001N1+02381+02051102141ADDGF104991021011008001051001KA1240N+01781MA1999999102091MD1999999+0071REMSYN076AAXX  01124 83498 32595 42301 10238 20205 30209 40214 82150 333 20178 58007;
0137834980999992009090118004-17733-039250FM-12+000399999V0200501N003110075019N0020001N1+02661+02091101841ADDGF105991051021008001001001MA1999999101791MD1999999-0091REMSYN070AAXX  01184 83498 32595 50506 10266 20209 30179 40184 85200 333 59009;
0168834980999992009090200004-17733-039250FM-12+000399999V0200501N002112200019N0020001N1+02241+02071101961ADDGF102991011011008001051001KA1240M+02741MA1999999101911MD1999999-0101REMSYN088AAXX  02004 83498 32595 20504 10224 20207 30191 40196 81150 333 10274 29083 55044 59010;
0201834980999992009090212004-17733-039250FM-12+000399999V0203601N002112200019N0020001N1+02571+02191102041ADDAA124001091AY121061AY211061GF104991041021008001001001KA1240N+02101MA1999999101991MD1999999-0101MW1031REMSYN088AAXX  02124 83498 21595 43604 10257 20219 30199 40204 70321 84200 333 20210 59010 60014;
0137834980999992009090218004-17733-039250FM-12+000399999V0200501N004612200019N0020001N1+02731+02081101681ADDGF102991021011008001001001MA1999999101631MD1999999-0131REMSYN070AAXX  02184 83498 32595 20509 10273 20208 30163 40168 82100 333 59013;
0178834980999992009090300004-17733-039250FM-12+000399999V0200501N001012200019N0020001N1+02221+02101101911ADDGA1001+999999999GF100991001001999999001001KA1240M+02841MA1999999101861MD1999999-0051REMSYN082AAXX  03004 83498 32995 00502 10222 20210 30186 40191 333 10284 29084 55098 59005;
0156834980999992009090312004-17733-039250FM-12+000399999V0200501N001010075019N0020001N1+02481+02131101971ADDGF105991051021008001001001KA1240N+01971MA1999999101921MD1999999-0071REMSYN076AAXX  03124 83498 32595 50502 10248 20213 30192 40197 85200 333 20197 59007;
0137834980999992009090318004-17733-039250FM-12+000399999V0203601N003112200019N0020001N1+02721+02051101691ADDGF102991021011008001001001MA1999999101641MD1999999+0011REMSYN070AAXX  03184 83498 32595 23606 10272 20205 30164 40169 82100 333 58001;
0168834980999992009090400004-17733-039250FM-12+000399999V0200501N000512200019N0020001N1+02301+01981101861ADDGF102991021011008001001001KA1240M+02821MA1999999101811MD1999999-0051REMSYN088AAXX  04004 83498 32595 20501 10230 20198 30181 40186 82100 333 10282 29077 55083 59005;
0156834980999992009090412004-17733-039250FM-12+000399999V0203601N003112200019N0020001N1+02591+02121101911ADDGF103991031021008001001001KA1240N+02021MA1999999101861MD1999999-0061REMSYN076AAXX  04124 83498 32595 33606 10259 20212 30186 40191 83200 333 20202 59006;
0137834980999992009090418004-17733-039250FM-12+000399999V0203601N005112200019N0020001N1+02771+02231101491ADDGF102991021011008001001001MA1999999101441MD1999999-0201REMSYN070AAXX  04184 83498 32595 23610 10277 20223 30144 40149 82100 333 59020;
0168834980999992009090500004-17733-039250FM-12+000399999V0200501N003112200019N0020001N1+02481+02191101651ADDGF102991021011008001001001KA1240M+02891MA1999999101601MD1999999-0211REMSYN088AAXX  05004 83498 32595 20506 10248 20219 30160 40165 82100 333 10289 29079 55091 59021;
0201834980999992009090512004-17733-039250FM-12+000399999V0202301N001510450019N0020001N1+02481+02231101871ADDAA124000021AY161061AY221061GF108991041051008001011999KA1240N+02201MA1999999101821MD1999999-0041MW1211REMSYN088AAXX  05124 83498 21595 82303 10248 20223 30182 40187 72162 8451/ 333 20220 59004 69924;
0182834980999992009090518004-17733-039250FM-12+000399999V0203601N004612200019N0020001N1+02781+02131101531ADDAA106000391AY161061AY261061GF104991041021008001001001MA1999999101481MD1999999+0041MW1211REMSYN082AAXX  05184 83498 21595 43609 10278 20213 30148 40153 72166 84200 333 58004 69931;
0168834980999992009090600004-17733-039250FM-12+000399999V0203601N003112200019N0020001N1+02441+02091101811ADDGF103991031021008001001001KA1240M+02821MA1999999101761MD1999999+0161REMSYN088AAXX  06004 83498 32595 33606 10244 20209 30176 40181 83200 333 10282 29079 55035 58016;
0201834980999992009090612004-17733-039250FM-12+000399999V0203601N004112200019N0020001N1+02741+02141101941ADDAA124002091AY121061AY211061GF104991041021008001001001KA1240N+02281MA1999999101891MD1999999+0071MW1031REMSYN088AAXX  06124 83498 21595 43608 10274 20214 30189 40194 70321 84200 333 20228 58007 60024;
0137834980999992009090618004-17733-039250FM-12+000399999V0203601N005112200019N0020001N1+02731+02151101661ADDGF104991041021008001001001MA1999999101611MD1999999+0131REMSYN070AAXX  06184 83498 32595 43610 10273 20215 30161 40166 84200 333 58013;
0156834980999992009090712004-17733-039250FM-12+000399999V0203601N003112200019N0020001N1+02641+02121101891ADDGF106991041021008001001011KA1240N+02331MA1999999101841MD1999999-0051REMSYN076AAXX  07124 83498 32595 63606 10264 20212 30184 40189 84201 333 20233 59005;
0137834980999992009090718004-17733-039250FM-12+000399999V0203601N003612200019N0020001N1+02741+02121101571ADDGF105991021021008001001011MA1999999101521MD1999999-0091REMSYN070AAXX  07184 83498 32595 53607 10274 20212 30152 40157 82201 333 59009;
0168834980999992009090800004-17733-039250FM-12+000399999V0203601N004110075019N0020001N1+02481+02191101671ADDGF105991051021008001001001KA1240M+02871MA1999999101621MD1999999-0191REMSYN088AAXX  08004 83498 32595 53608 10248 20219 30162 40167 85200 333 10287 29078 55056 59019;
0201834980999992009090812004-17733-039250FM-12+000399999V0203601N003610450019N0020001N1+02601+02191101831ADDAA124000891AY121061AY211061GF107991041051008001011001KA1240N+02251MA1999999101781MD1999999-0061MW1031REMSYN088AAXX  08124 83498 21595 73607 10260 20219 30178 40183 70321 84510 333 20225 59006 69984;
0137834980999992009090818004-17733-039250FM-12+000399999V0200501N005112200019N0020001N1+02731+02151101571ADDGF103991031011008001001001MA1999999101521MD1999999+0001REMSYN070AAXX  08184 83498 32595 30510 10273 20215 30152 40157 83100 333 58000;
0178834980999992009090900004-17733-039250FM-12+000399999V0200501N002612200019N0020001N1+02401+01841101761ADDGA1001+999999999GF100991001001999999001001KA1240M+02891MA1999999101711MD1999999+0091REMSYN082AAXX  09004 83498 32995 00505 10240 20184 30171 40176 333 10289 29079 55063 58009;
0156834980999992009090912004-17733-039250FM-12+000399999V0200501N004110450019N0020001N1+02661+02041102111ADDGF108991041051008001011999KA1240N+02221MA1999999102061MD1999999+0281REMSYN076AAXX  09124 83498 32595 80508 10266 20204 30206 40211 8451/ 333 20222 58028;
0137834980999992009090918004-17733-039250FM-12+000399999V0200501N003610450019N0020001N1+02761+02121101881ADDGF107991031051008001011001MA1999999101831MD1999999+0311REMSYN070AAXX  09184 83498 32595 70507 10276 20212 30183 40188 83510 333 58031;
0168834980999992009091000004-17733-039250FM-12+000399999V0200501N001512200019N0020001N1+02401+02051102091ADDGF103991031021008001001001KA1240M+02811MA1999999102041MD1999999+0331REMSYN088AAXX  10004 83498 32595 30503 10240 20205 30204 40209 83200 333 10281 29075 55037 58033;
0201834980999992009091012004-17733-039250FM-12+000399999V0200501N004610450019N0020001N1+02631+02101102411ADDAA124003091AY121061AY211061GF106991041021008001041001KA1240N+02121MA1999999102361MD1999999+0301MW1031REMSYN088AAXX  10124 83498 21595 60509 10263 20210 30236 40241 70321 84240 333 20212 58030 60034;
0137834980999992009091018004-17733-039250FM-12+000399999V0200901N004612200019N0020001N1+02711+02031102181ADDGF102991021011008001001001MA1999999102131MD1999999+0301REMSYN070AAXX  10184 83498 32595 20909 10271 20203 30213 40218 82100 333 58030;
0168834980999992009091100004-17733-039250FM-12+000399999V0200501N003112200019N0020001N1+02421+02071102421ADDGF101991011011008001001001KA1240M+02761MA1999999102371MD1999999+0331REMSYN088AAXX  11004 83498 32595 10506 10242 20207 30237 40242 81100 333 10276 29076 55071 58033;
0156834980999992009091112004-17733-039250FM-12+000399999V0200901N001512200019N0020001N1+02641+02051102381ADDGF104991041021008001001001KA1240N+02321MA1999999102331MD1999999-0031REMSYN076AAXX  11124 83498 32595 40903 10264 20205 30233 40238 84200 333 20232 59003;
0156834980999992009091118004-17733-039250FM-12+000399999V0200901N003110075019N0020001N1+02741+02121101162ADDGF105991051021008001001001MA1999999102111MD1999999-0021REMSYN070AAXX  11184 83498 32595 50906 10274 20212 30211 40116 85200 333 59002;EQDQ01+101163APOSLP
0168834980999992009091200004-17733-039250FM-12+000399999V0200901N002612200019N0020001N1+02361+01931102301ADDGF102991021011008001001001KA1240M+02771MA1999999102251MD1999999-0121REMSYN088AAXX  12004 83498 32595 20905 10236 20193 30225 40230 82100 333 10277 29073 55086 59012;
0201834980999992009091212004-17733-039250FM-12+000399999V0201401N001510450019N0020001N1+02461+01881102251ADDAA124002091AY121061AY211061GF107991031051008001041001KA1240N+02091MA1999999102201MD1999999-0131MW1031REMSYN088AAXX  12124 83498 21595 71403 10246 20188 30220 40225 70321 83540 333 20209 59013 60024;
0137834980999992009091218004-17733-039250FM-12+000399999V0200901N003612200019N0020001N1+02691+01941101891ADDGF103991031021008001001001MA1999999101841MD1999999-0271REMSYN070AAXX  12184 83498 32595 30907 10269 20194 30184 40189 83200 333 59027;
0178834980999992009091300004-17733-039250FM-12+000399999V0200501N001512200019N0020001N1+02141+01991102051ADDGA1001+999999999GF100991001001999999001001KA1240M+02771MA1999999102001MD1999999-0251REMSYN082AAXX  13004 83498 32995 00503 10214 20199 30200 40205 333 10277 29079 55058 59025;
0201834980999992009091312004-17733-039250FM-12+000399999V0203201N001510450019N0020001N1+02301+01981102121ADDAA124001091AY161061AY221061GF108991041051008001011999KA1240N+01741MA1999999102071MD1999999-0131MW1211REMSYN088AAXX  13124 83498 21595 83203 10230 20198 30207 40212 72162 8451/ 333 20174 59013 60014;
0182834980999992009091318004-17733-039250FM-12+000399999V0200501N003110450019N0020001N1+02661+02001101771ADDAA106004191AY161061AY261061GF107991031061008001011001MA1999999101721MD1999999-0121MW1211REMSYN082AAXX  13184 83498 21595 70506 10266 20200 30172 40177 72166 83610 333 59012 60041;
0168834980999992009091400004-17733-039250FM-12+000399999V0200501N000512200019N0020001N1+02201+01901102051ADDGF102991021011008001001001KA1240M+02711MA1999999102001MD1999999+0001REMSYN088AAXX  14004 83498 32595 20501 10220 20190 30200 40205 82100 333 10271 29079 55000 58000;
0173834980999992009091412004-17733-039250FM-12+000399999V0203601N001512200019N0020001N1+02611+02061102071ADDAA124004191GF104991041011008001001001KA1240N+01931MA1999999102021MD1999999-0051REMSYN082AAXX  14124 83498 22595 43603 10261 20206 30202 40207 84100 333 20193 59005 60044;
0137834980999992009091418004-17733-039250FM-12+000399999V0200501N003112200019N0020001N1+02801+01921101671ADDGF101991011011008001001001MA1999999101621MD1999999-0101REMSYN070AAXX  14184 83498 32595 10506 10280 20192 30162 40167 81100 333 59010;
0178834980999992009091500004-17733-039250FM-12+000399999V0209999C000012200019N0020001N1+02141+01971102041ADDGA1001+999999999GF100991001001999999001001KA1240M+02851MA1999999101991MD1999999-0011REMSYN082AAXX  15004 83498 32995 00000 10214 20197 30199 40204 333 10285 29078 55082 59001;
0156834980999992009091512004-17733-039250FM-12+000399999V0203201N001512200019N0020001N1+02521+02071102081ADDGF103991031011008001001001KA1240N+01901MA1999999102031MD1999999+0011REMSYN076AAXX  15124 83498 32595 33203 10252 20207 30203 40208 83100 333 20190 58001;
0137834980999992009091518004-17733-039250FM-12+000399999V0200901N003612200019N0020001N1+02721+02051101781ADDGF102991021011008001001001MA1999999101731MD1999999+0111REMSYN070AAXX  15184 83498 32595 20907 10272 20205 30173 40178 82100 333 58011;
0156834980999992009091612004-17733-039250FM-12+000399999V0201401N001010450019N0020001N1+02551+02171102031ADDGF106991041051008001041001KA1240N+02121MA1999999101981MD1999999-0051REMSYN076AAXX  16124 83498 32595 61402 10255 20217 30198 40203 84540 333 20212 59005;
0137834980999992009091618004-17733-039250FM-12+000399999V0201401N002612200019N0020001N1+02711+02031101641ADDGF102991021011008001001001MA1999999101591MD1999999-0141REMSYN070AAXX  16184 83498 32595 21405 10271 20203 30159 40164 82100 333 59014;
0168834980999992009091700004-17733-039250FM-12+000399999V0200901N001512200019N0020001N1+02431+02111101851ADDGF102991021011008001001001KA1240M+02811MA1999999101801MD1999999-0081REMSYN088AAXX  17004 83498 32595 20903 10243 20211 30180 40185 82100 333 10281 29078 55084 59008;
0156834980999992009091712004-17733-039250FM-12+000399999V0200901N001510450019N0020001N1+02601+01991101901ADDGF106991041021008001031001KA1240N+02151MA1999999101851MD1999999-0131REMSYN076AAXX  17124 83498 32595 60903 10260 20199 30185 40190 84230 333 20215 59013;
0137834980999992009091718004-17733-039250FM-12+000399999V0200501N003612200019N0020001N1+02741+02071101471ADDGF104991041021008001001001MA1999999101421MD1999999-0171REMSYN070AAXX  17184 83498 32595 40507 10274 20207 30142 40147 84200 333 59017;
0168834980999992009091800004-17733-039250FM-12+000399999V0200501N000512200019N0020001N1+02261+01941101701ADDGF101991011011008001001001KA1240M+02841MA1999999101651MD1999999-0151REMSYN088AAXX  18004 83498 32595 10501 10226 20194 30165 40170 81100 333 10284 29075 55082 59015;
0156834980999992009091812004-17733-039250FM-12+000399999V0203601N002610450019N0020001N1+02611+02081101801ADDGF106991041021008001041001KA1240N+02061MA1999999101751MD1999999-0101REMSYN076AAXX  18124 83498 32595 63605 10261 20208 30175 40180 84240 333 20206 59010;
0137834980999992009091818004-17733-039250FM-12+000399999V0200501N003112200019N0020001N1+02751+02021101401ADDGF102991011011008001001011MA1999999102351MD1999999-0071REMSYN070AAXX  18184 83498 32595 20506 10275 20202 30235 40140 81101 333 59007;
0168834980999992009091900004-17733-039250FM-12+000399999V0200501N003112200019N0020001N1+02401+02071101621ADDGF101991011011008001001001KA1240M+02871MA1999999101571MD1999999-0081REMSYN088AAXX  19004 83498 32595 10506 10240 20207 30157 40162 81100 333 10287 29076 55080 59008;
0156834980999992009091912004-17733-039250FM-12+000399999V0203601N004110075019N0020001N1+02741+02141101831ADDGF106991051021008001031001KA1240N+02141MA1999999101781MD1999999+0031REMSYN076AAXX  19124 83498 32595 63608 10274 20214 30178 40183 85230 333 20214 58003;
0137834980999992009091918004-17733-039250FM-12+000399999V0200501N004112200019N0020001N1+02841+02191101481ADDGF103991021011008001031001MA1999999101431MD1999999+0081REMSYN070AAXX  19184 83498 32595 30508 10284 20219 30143 40148 82130 333 58008;
0168834980999992009092000004-17733-039250FM-12+000399999V0200501N001512200019N0020001N1+02421+02051101611ADDGF102991021011008001001001KA1240M+02941MA1999999101561MD1999999-0011REMSYN088AAXX  20004 83498 32595 20503 10242 20205 30156 40161 82100 333 10294 29074 55077 59001;
0156834980999992009092012004-17733-039250FM-12+000399999V0203601N005112200019N0020001N1+02691+02031101731ADDGF103991031011008001001001KA1240N+02091MA1999999101681MD1999999-0101REMSYN076AAXX  20124 83498 32595 33610 10269 20203 30168 40173 83100 333 20209 59010;
0137834980999992009092018004-17733-039250FM-12+000399999V0203601N003612200019N0020001N1+02831+02221101331ADDGF101991011011008001001001MA1999999101281MD1999999-0151REMSYN070AAXX  20184 83498 32595 13607 10283 20222 30128 40133 81100 333 59015;
0168834980999992009092100004-17733-039250FM-12+000399999V0200501N003112200019N0020001N1+02581+02211101551ADDGF102991021011008001001001KA1240M+02961MA1999999101501MD1999999-0061REMSYN088AAXX  21004 83498 32595 20506 10258 20221 30150 40155 82100 333 10296 29074 55088 59006;
0156834980999992009092112004-17733-039250FM-12+000399999V0203601N004610075019N0020001N1+02781+02231101701ADDGF106991061021008001001001KA1240N+02401MA1999999101651MD1999999-0031REMSYN076AAXX  21124 83498 32595 63609 10278 20223 30165 40170 86200 333 20240 59003;
0137834980999992009092118004-17733-039250FM-12+000399999V0200501N005112200019N0020001N1+02821+02241101331ADDGF103991031021008001001001MA1999999101281MD1999999+0001REMSYN070AAXX  21184 83498 32595 30510 10282 20224 30128 40133 83200 333 58000;
0168834980999992009092200004-17733-039250FM-12+000399999V0200501N002612200019N0020001N1+02521+02271101441ADDGF104991041021008001001001KA1240M+02961MA1999999101391MD1999999-0111REMSYN088AAXX  22004 83498 32595 40505 10252 20227 30139 40144 84200 333 10296 29079 55041 59011;
0201834980999992009092212004-17733-039250FM-12+000399999V0209999C000010450019N0020001N1+02411+02241101761ADDAA124003091AY161061AY261061GF108991031071008001021999KA1240N+02291MA1999999101711MD1999999+0061MW1211REMSYN088AAXX  22124 83498 21595 80000 10241 20224 30171 40176 72166 8372/ 333 20229 58006 60034;
0182834980999992009092218004-17733-039250FM-12+000399999V0200501N003110075019N0020001N1+02631+02231101411ADDAA106005191AY121061AY211061GF108991051051008001021999MA1999999101361MD1999999+0081MW1031REMSYN082AAXX  22184 83498 21595 80506 10263 20223 30136 40141 70321 8552/ 333 58008 60051;
0168834980999992009092300004-17733-039250FM-12+000399999V0200501N001510450019N0020001N1+02441+02271101521ADDGF107991041051008001011001KA1240M+02631MA1999999101471MD1999999+0081REMSYN088AAXX  23004 83498 32595 70503 10244 20227 30147 40152 84510 333 10263 29088 55000 58008;
0156834980999992009092312004-17733-039250FM-12+000399999V0203601N003612200019N0020001N1+02701+02171101611ADDGF106991041021008001001011KA1240N+02241MA1999999101561MD1999999-0151REMSYN076AAXX  23124 83498 32595 63607 10270 20217 30156 40161 84201 333 20224 59015;
0137834980999992009092318004-17733-039250FM-12+000399999V0203601N005112200019N0020001N1+02861+02161101181ADDGF102991021011008001001001MA1999999101131MD1999999-0231REMSYN070AAXX  23184 83498 32595 23610 10286 20216 30113 40118 82100 333 59023;
0168834980999992009092400004-17733-039250FM-12+000399999V0203601N005112200019N0020001N1+02481+02151101261ADDGF102991011011008001001011KA1240M+02861MA1999999101211MD1999999-0261REMSYN088AAXX  24004 83498 32595 23610 10248 20215 30121 40126 81101 333 10286 29076 55060 59026;
0156834980999992009092412004-17733-039250FM-12+000399999V0203601N003610450019N0020001N1+02571+02231101461ADDGF106991041051008001041001KA1240N+02381MA1999999101411MD1999999-0151REMSYN076AAXX  24124 83498 32595 63607 10257 20223 30141 40146 84540 333 20238 59015;
0137834980999992009092418004-17733-039250FM-12+000399999V0203601N006212200019N0020001N1+02811+02201101111ADDGF103991011011008001041001MA1999999101061MD1999999-0071REMSYN070AAXX  24184 83498 32595 33612 10281 20220 30106 40111 81140 333 59007;
0168834980999992009092500004-17733-039250FM-12+000399999V0200501N002110075019N0020001N1+02521+02191101491ADDGF105991051061008001001001KA1240M+02951MA1999999101441MD1999999+0231REMSYN088AAXX  25004 83498 32595 50504 10252 20219 30144 40149 85600 333 10295 29079 55048 58023;
0201834980999992009092512004-17733-039250FM-12+000399999V0201801N006210450019N0020001N1+02341+02201101871ADDAA124062091AY161061AY221061GF108991041071008001021999KA1240N+02291MA1999999101821MD1999999+0411MW1211REMSYN088AAXX  25124 83498 21595 81812 10234 20220 30182 40187 72162 8472/ 333 20229 58041 60624;
0182834980999992009092518004-17733-039250FM-12+000399999V0201401N006210075019N0020001N1+02481+02011101771ADDAA106002091AY161061AY261061GF108991051071008001021999MA1999999101721MD1999999+0661MW1211REMSYN082AAXX  25184 83498 21595 81412 10248 20201 30172 40177 72166 8572/ 333 58066 60021;
0213834980999992009092600004-17733-039250FM-12+000399999V0200901N003610075019N0020001N1+02181+01941102011ADDAA106002091AY161061AY261061GF108991051071008001021999KA1240M+02531MA1999999101961MD1999999+0521MW1211REMSYN100AAXX  26004 83498 21595 80907 10218 20194 30196 40201 72166 8572/ 333 10253 29085 55000 58052 60021;
0173834980999992009092612004-17733-039250FM-12+000399999V0201401N002110075019N0020001N1+02481+01921102201ADDAA124004191GF108991051051008001021999KA1240N+02151MA1999999102151MD1999999+0331REMSYN082AAXX  26124 83498 22595 81404 10248 20192 30215 40220 8552/ 333 20215 58033 60044;
0137834980999992009092618004-17733-039250FM-12+000399999V0201401N003110075019N0020001N1+02501+01981101881ADDGF108991051051008001021999MA1999999101831MD1999999+0191REMSYN070AAXX  26184 83498 32595 81406 10250 20198 30183 40188 8552/ 333 58019;
0168834980999992009092700004-17733-039250FM-12+000399999V0200901N000510075019N0020001N1+02361+01951101971ADDGF106991061051008001001001KA1240M+02541MA1999999101921MD1999999-0041REMSYN088AAXX  27004 83498 32595 60901 10236 20195 30192 40197 86500 333 10254 29075 55006 59004;
0156834980999992009092712004-17733-039250FM-12+000399999V0200501N003112200019N0020001N1+02601+02121102031ADDGF107991041021008001001011KA1240N+02291MA1999999101981MD1999999-0171REMSYN076AAXX  27124 83498 32595 70506 10260 20212 30198 40203 84201 333 20229 59017;
0137834980999992009092718004-17733-039250FM-12+000399999V0200501N003110450019N0020001N1+02781+02231101651ADDGF105991031021008001031001MA1999999101601MD1999999-0231REMSYN070AAXX  27184 83498 32595 50506 10278 20223 30160 40165 83230 333 59023;
0168834980999992009092800004-17733-039250FM-12+000399999V0200501N000512200019N0020001N1+02301+02091101881ADDGF101991011011008001001001KA1240M+02811MA1999999101831MD1999999-0091REMSYN088AAXX  28004 83498 32595 10501 10230 20209 30183 40188 81100 333 10281 29081 55028 59009;
0156834980999992009092812004-17733-039250FM-12+000399999V0203601N003610075019N0020001N1+02671+02141102041ADDGF105991051021008001001001KA1240N+02081MA1999999101991MD1999999+0011REMSYN076AAXX  28124 83498 32595 53607 10267 20214 30199 40204 85200 333 20208 58001;
0137834980999992009092818004-17733-039250FM-12+000399999V0203601N005112200019N0020001N1+02771+02201101531ADDGF101991011011008001001001MA1999999101481MD1999999-0121REMSYN070AAXX  28184 83498 32595 13610 10277 20220 30148 40153 81100 333 59012;
0178834980999992009092900004-17733-039250FM-12+000399999V0203601N003612200019N0020001N1+02461+02111101751ADDGA1001+999999999GF100991001001999999001001KA1240M+02861MA1999999101701MD1999999-0131REMSYN082AAXX  29004 83498 32595 03607 10246 20211 30170 40175 333 10286 29077 55078 59013;
0156834980999992009092912004-17733-039250FM-12+000399999V0203601N005112200019N0020001N1+02741+02121101631ADDGF102991021011008001001001KA1240N+02201MA1999999101581MD1999999-0411REMSYN076AAXX  29124 83498 32595 23610 10274 20212 30158 40163 82100 333 20220 59041;
0137834980999992009092918004-17733-039250FM-12+000399999V0203601N005712200019N0020001N1+02901+02201101281ADDGF103991021011008001001011MA1999999101231MD1999999-0251REMSYN070AAXX  29184 83498 32595 33611 10290 20220 30123 40128 82101 333 59025;
0168834980999992009093000004-17733-039250FM-12+000399999V0200501N002112200019N0020001N1+02481+02191101681ADDGF102991021011008001001001KA1240M+03191MA1999999101631MD1999999-0071REMSYN088AAXX  30004 83498 32595 20504 10248 20219 30163 40168 82100 333 10319 29076 55079 59007;
0201834980999992009093012004-17733-039250FM-12+000399999V0201801N005110075019N0020001N1+02481+02271101961ADDAA124004191AY161061AY261061GF108991051051008001021999KA1240N+02381MA1999999101911MD1999999+0331MW1211REMSYN088AAXX  30124 83498 21595 81810 10248 20227 30191 40196 72166 8552/ 333 20238 58033 60044;
0137834980999992009093018004-17733-039250FM-12+000399999V0201801N004110075019N0020001N1+02481+02151101771ADDGF108991051051008001021999MA1999999101721MD1999999+0491REMSYN070AAXX  30184 83498 32595 81808 10248 20215 30172 40177 8552/ 333 58049;
0213834980999992009100100004-17733-039250FM-12+000399999V0201801N003610450019N0020001N1+02261+02091102121ADDAA106001091AY161061AY261061GF108991031071008001021999KA1240M+02591MA1999999102071MD1999999+0441MW1211REMSYN100AAXX  01004 83498 21595 81807 10226 20209 30207 40212 72166 8372/ 333 10259 29088 55000 58044 60011;
0201834980999992009100112004-17733-039250FM-12+000399999V0200901N003610450019N0020001N1+02341+01891102181ADDAA124003091AY161061AY261061GF108991041071008001021999KA1240N+02161MA1999999102131MD1999999+0221MW1211REMSYN088AAXX  01124 83498 21595 80907 10234 20189 30213 40218 72166 8472/ 333 20216 58022 60034;
0182834980999992009100118004-17733-039250FM-12+000399999V0201401N003110075019N0020001N1+02261+01901101971ADDAA106002091AY161061AY261061GF108991051071008001021999MA1999999101921MD1999999+0201MW1211REMSYN082AAXX  01184 83498 21595 81406 10226 20190 30192 40197 72166 8572/ 333 58020 60021;
0213834980999992009100200004-17733-039250FM-12+000399999V0201401N004110450019N0020001N1+02241+01841102171ADDAA106000021AY161061AY261061GF108991041051008001011999KA1240M+02451MA1999999102121MD1999999+0051MW1211REMSYN100AAXX  02004 83498 21595 81408 10224 20184 30212 40217 72166 8451/ 333 10245 29078 55000 58005 69921;
0201834980999992009100212004-17733-039250FM-12+000399999V0201401N001510075019N0020001N1+02421+01931102081ADDAA124004191AY121061AY211061GF107991051051008001011001KA1240N+02011MA1999999102031MD1999999-0101MW1031REMSYN088AAXX  02124 83498 21595 71403 10242 20193 30203 40208 70321 85510 333 20201 59010 60044;
0156834980999992009100218004-17733-039250FM-12+000399999V0201401N003110075019N0020001N1+02511+01911101701ADDGF107991051051008001011001MA1999999101162MD1999999-0271REMSYN070AAXX  02184 83498 32595 71406 10251 20191 30116 40170 85510 333 59027;EQDQ01+101163APOSP 
0178834980999992009100300004-17733-039250FM-12+000399999V0209999C000012200019N0020001N1+02081+01841101821ADDGA1001+999999999GF100991001001999999001001KA1240M+02551MA1999999101771MD1999999-0351REMSYN082AAXX  03004 83498 32995 00000 10208 20184 30177 40182 333 10255 29079 55005 59035;
0156834980999992009100312004-17733-039250FM-12+000399999V0202301N000510450019N0020001N1+02421+02071101931ADDGF108991041051008001051999KA1240N+01931MA1999999101881MD1999999-0151REMSYN076AAXX  03124 83498 32595 82301 10242 20207 30188 40193 8455/ 333 20193 59015;
0137834980999992009100318004-17733-039250FM-12+000399999V0200901N003612200019N0020001N1+02701+01991101671ADDGF104991021011008001001011MA1999999101621MD1999999-0031REMSYN070AAXX  03184 83498 32595 40907 10270 20199 30162 40167 82101 333 59003;
0168834980999992009100400004-17733-039250FM-12+000399999V0200901N000512200019N0020001N1+02241+01881101881ADDGF102991021011008001001001KA1240M+02721MA1999999101831MD1999999+0061REMSYN088AAXX  04004 83498 32595 20901 10224 20188 30183 40188 82100 333 10272 29076 55036 58006;
0156834980999992009100412004-17733-039250FM-12+000399999V0201401N002110450019N0020001N1+02531+01961101881ADDGF105991041051008001041001KA1240N+01821MA1999999101831MD1999999-0051REMSYN076AAXX  04124 83498 32595 51404 10253 20196 30183 40188 84540 333 20182 59005;
0137834980999992009100418004-17733-039250FM-12+000399999V0200901N003112200019N0020001N1+02651+01841101581ADDGF102991021011008001001001MA1999999101531MD1999999-0091REMSYN070AAXX  04184 83498 32595 20906 10265 20184 30153 40158 82100 333 59009;
0168834980999992009100500004-17733-039250FM-12+000399999V0200901N002112200019N0020001N1+02361+01931101811ADDGF103991021011008001001021KA1240M+02791MA1999999101761MD1999999-0071REMSYN088AAXX  05004 83498 32595 30904 10236 20193 30176 40181 82102 333 10279 29073 55075 59007;
0156834980999992009100512004-17733-039250FM-12+000399999V0200901N001512200019N0020001N1+02601+01991101871ADDGF104991041021008001001001KA1240N+02241MA1999999101821MD1999999-0011REMSYN076AAXX  05124 83498 32595 40903 10260 20199 30182 40187 84200 333 20224 59001;
0137834980999992009100518004-17733-039250FM-12+000399999V0200501N002112200019N0020001N1+02721+01981101571ADDGF102991021011008001001001MA1999999101521MD1999999-0011REMSYN070AAXX  05184 83498 32595 20504 10272 20198 30152 40157 82100 333 59001;
0168834980999992009100600004-17733-039250FM-12+000399999V0200901N000512200019N0020001N1+02241+01941101711ADDGF102991011011008001001011KA1240M+02791MA1999999101661MD1999999-0101REMSYN088AAXX  06004 83498 32595 20901 10224 20194 30166 40171 81101 333 10279 29075 55065 59010;
0156834980999992009100612004-17733-039250FM-12+000399999V0200501N002112200019N0020001N1+02631+02051101881ADDGF106991041021008001001011KA1240N+02021MA1999999101831MD1999999+0011REMSYN076AAXX  06124 83498 32595 60504 10263 20205 30183 40188 84201 333 20202 58001;
0137834980999992009100618004-17733-039250FM-12+000399999V0200501N003112200019N0020001N1+02811+01951101561ADDGF101991011011008001001001MA1999999101511MD1999999+0011REMSYN070AAXX  06184 83498 32595 10506 10281 20195 30151 40156 81100 333 58001;
0178834980999992009100700004-17733-039250FM-12+000399999V0209999C000012200019N0020001N1+02201+01801101831ADDGA1001+999999999GF100991001001999999001001KA1240M+02831MA1999999101781MD1999999+0121REMSYN082AAXX  07004 83498 32595 00000 10220 20180 30178 40183 333 10283 29077 55057 58012;
0156834980999992009100712004-17733-039250FM-12+000399999V0200501N001510075019N0020001N1+02621+02141101841ADDGF105991051021008001001001KA1240N+01981MA1999999101791MD1999999-0041REMSYN076AAXX  07124 83498 32595 50503 10262 20214 30179 40184 85200 333 20198 59004;
0137834980999992009100718004-17733-039250FM-12+000399999V0200501N003112200019N0020001N1+02801+02081101551ADDGF102991021011008001001001MA1999999101501MD1999999-0011REMSYN070AAXX  07184 83498 32595 20506 10280 20208 30150 40155 82100 333 59001;
0168834980999992009100800004-17733-039250FM-12+000399999V0200501N001512200019N0020001N1+02441+02151101801ADDGF103991031011008001001001KA1240M+02901MA1999999101751MD1999999-0031REMSYN088AAXX  08004 83498 32595 30503 10244 20215 30175 40180 83100 333 10290 29077 55056 59003;
0156834980999992009100812004-17733-039250FM-12+000399999V0203601N002112200019N0020001N1+02771+02161101731ADDGF105991041021008001001011KA1240N+02311MA1999999101681MD1999999-0191REMSYN076AAXX  08124 83498 32595 53604 10277 20216 30168 40173 84201 333 20231 59019;
0137834980999992009100818004-17733-039250FM-12+000399999V0200501N003110450019N0020001N1+02811+02201101361ADDGF105991031021008001031001MA1999999101311MD1999999-0191REMSYN070AAXX  08184 83498 32595 50506 10281 20220 30131 40136 83230 333 59019;
0168834980999992009100900004-17733-039250FM-12+000399999V0203601N003112200019N0020001N1+02511+02231101451ADDGF101991011011008001001001KA1240M+02931MA1999999101401MD1999999-0351REMSYN088AAXX  09004 83498 32595 13606 10251 20223 30140 40145 81100 333 10293 29078 55032 59035;
0156834980999992009100912004-17733-039250FM-12+000399999V0203201N002610450019N0020001N1+02561+02311101411ADDGF108991041051008001011999KA1240N+02201MA1999999101361MD1999999-0231REMSYN076AAXX  09124 83498 32595 83205 10256 20231 30136 40141 8451/ 333 20220 59023;
0137834980999992009100918004-17733-039250FM-12+000399999V0202701N000510450019N0020001N1+02601+02331101191ADDGF108991031051008001011999MA1999999101141MD1999999-0171REMSYN070AAXX  09184 83498 32595 82701 10260 20233 30114 40119 8351/ 333 59017;
0168834980999992009101000004-17733-039250FM-12+000399999V0201401N004110075019N0020001N1+02401+02171101461ADDGF108991061051008001011999KA1240M+02711MA1999999101411MD1999999+0011REMSYN088AAXX  10004 83498 32595 81408 10240 20217 30141 40146 8651/ 333 10271 29086 55000 58001;
0201834980999992009101012004-17733-039250FM-12+000399999V0201801N002110075019N0020001N1+02551+02091101561ADDAA124002091AY121061AY211061GF108991051051008001021999KA1240N+02251MA1999999101511MD1999999+0151MW1031REMSYN088AAXX  10124 83498 21595 81804 10255 20209 30151 40156 70321 8552/ 333 20225 58015 60024;
0137834980999992009101018004-17733-039250FM-12+000399999V0201801N003110075019N0020001N1+02461+02111101361ADDGF108991051051008001021999MA1999999101311MD1999999+0171REMSYN070AAXX  10184 83498 32595 81806 10246 20211 30131 40136 8552/ 333 58017;
0213834980999992009101100004-17733-039250FM-12+000399999V0201801N003110450019N0020001N1+02401+02111101541ADDAA106002091AY161061AY261061GF108991041061008001021999KA1240M+02511MA1999999101491MD1999999+0081MW1211REMSYN100AAXX  11004 83498 21595 81806 10240 20211 30149 40154 72166 8462/ 333 10251 29083 55000 58008 60021;
0201834980999992009101112004-17733-039250FM-12+000399999V0201401N003610450019N0020001N1+02561+02081101591ADDAA124004191AY161061AY261061GF108991031051008001011999KA1240N+02251MA1999999101541MD1999999+0031MW1211REMSYN088AAXX  11124 83498 21595 81407 10256 20208 30154 40159 72166 8351/ 333 20225 58003 60044;
0137834980999992009101118004-17733-039250FM-12+000399999V0201401N004111050019N0020001N1+02641+02051101381ADDGF106991031011008001001021MA1999999101331MD1999999+0021REMSYN070AAXX  11184 83498 32595 61408 10264 20205 30133 40138 83102 333 58002;
0168834980999992009101200004-17733-039250FM-12+000399999V0200901N001512200019N0020001N1+02421+02111101541ADDGF104991041021008001001001KA1240M+02741MA1999999101491MD1999999+0001REMSYN088AAXX  12004 83498 32595 40903 10242 20211 30149 40154 84200 333 10274 29078 55020 58000;
0156834980999992009101212004-17733-039250FM-12+000399999V0200901N001510075019N0020001N1+02731+02171101541ADDGF105991051021008001001001KA1240N+02181MA1999999101491MD1999999-0051REMSYN076AAXX  12124 83498 32595 50903 10273 20217 30149 40154 85200 333 20218 59005;
0137834980999992009101218004-17733-039250FM-12+000399999V0200901N003112200019N0020001N1+02751+02121101171ADDGF101991011011008001001001MA1999999101121MD1999999-0321REMSYN070AAXX  12184 83498 32595 10906 10275 20212 30112 40117 81100 333 59032;
0178834980999992009101300004-17733-039250FM-12+000399999V0200901N001012200019N0020001N1+02411+02191101391ADDGA1001+999999999GF100991001001999999001001KA1240M+02811MA1999999101341MD1999999-0151REMSYN082AAXX  13004 83498 32995 00902 10241 20219 30134 40139 333 10281 29079 55070 59015;
0175834980999992009101312004-17733-039250FM-12+000399999V0202701N001510075019N0020001N1+02681+02261101451ADDGF106991999021008001001001KA1240N+02121MA1999999101401MD1999999-0091REMSYN076AAXX  13124 83498 32595 62703 10268 20226 30140 40145 85200 333 20212 59009;EQDQ01+000052SCOTLC
0137834980999992009101318004-17733-039250FM-12+000399999V0200501N003612200019N0020001N1+02901+02201101081ADDGF103991021011008001001011MA1999999101031MD1999999-0091REMSYN070AAXX  13184 83498 32595 30507 10290 20220 30103 40108 82101 333 59009;
0168834980999992009101400004-17733-039250FM-12+000399999V0200901N001512200019N0020001N1+02421+02191101441ADDGF101991011011008001001001KA1240M+02981MA1999999101391MD1999999+0051REMSYN088AAXX  14004 83498 32595 10903 10242 20219 30139 40144 81100 333 10298 29080 55040 58005;
0220834980999992009101412004-17733-039250FM-12+000399999V0200901N002610450019N0020001N1+02631+02251101551ADDAA124000091AY121061AY211061GF106991041051008001041001KA1240N+02211MA1999999101501MD1999999+0101MW1031REMSYN088AAXX  14124 83498 21595 60905 10263 20225 30150 40155 70321 84540 333 20221 58010 69924;EQDQ01  00002PRCP24
0137834980999992009101418004-17733-039250FM-12+000399999V0200901N002112200019N0020001N1+02811+02311101241ADDGF103991031011008001001001MA1999999101191MD1999999+0161REMSYN070AAXX  14184 83498 32595 30904 10281 20231 30119 40124 83100 333 58016;
0168834980999992009101500004-17733-039250FM-12+000399999V0200901N001512200019N0020001N1+02511+02341101421ADDGF101991011011008001001001KA1240M+02941MA1999999101371MD1999999-0021REMSYN088AAXX  15004 83498 32595 10903 10251 20234 30137 40142 81100 333 10294 29084 55037 59002;
0156834980999992009101512004-17733-039250FM-12+000399999V0203601N003610075019N0020001N1+02801+02271101531ADDGF105991051021008001001001KA1240N+02281MA1999999101481MD1999999-0021REMSYN076AAXX  15124 83498 32595 53607 10280 20227 30148 40153 85200 333 20228 59002;
0182834980999992009101518004-17733-039250FM-12+000399999V0203601N003110450019N0020001N1+02841+02291101201ADDAA106002091AY161061AY221061GF107991031091008001031001MA1999999101151MD1999999-0041MW1211REMSYN082AAXX  15184 83498 21595 73606 10284 20229 30115 40120 72162 83930 333 59004 60021;
0168834980999992009101600004-17733-039250FM-12+000399999V0200501N001512200019N0020001N1+02581+02311101381ADDGF102991021011008001001001KA1240M+02911MA1999999101331MD1999999-0041REMSYN088AAXX  16004 83498 32595 20503 10258 20231 30133 40138 82100 333 10291 29079 55010 59004;
0173834980999992009101612004-17733-039250FM-12+000399999V0203601N005112200019N0020001N1+02771+02321101551ADDAA124002091GF104991041021008001001001KA1240N+02321MA1999999101501MD1999999+0021REMSYN082AAXX  16124 83498 22595 43610 10277 20232 30150 40155 84200 333 20232 58002 60024;
0137834980999992009101618004-17733-039250FM-12+000399999V0200501N003610450019N0020001N1+02811+02361101321ADDGF106991041041008001021001MA1999999101271MD1999999+0121REMSYN070AAXX  16184 83498 32595 60507 10281 20236 30127 40132 84420 333 58012;
0168834980999992009101700004-17733-039250FM-12+000399999V0200501N002612200019N0020001N1+02511+02321101591ADDGF101991011011008001001001KA1240M+03051MA1999999101541MD1999999+0211REMSYN088AAXX  17004 83498 32595 10505 10251 20232 30154 40159 81100 333 10305 29084 55000 58021;
0156834980999992009101712004-17733-039250FM-12+000399999V0203601N003110075019N0020001N1+02741+02241101731ADDGF105991051021008001001001KA1240N+02291MA1999999101681MD1999999+0181REMSYN076AAXX  17124 83498 32595 53606 10274 20224 30168 40173 85200 333 20229 58018;
0137834980999992009101718004-17733-039250FM-12+000399999V0200501N004612200019N0020001N1+02921+02221101351ADDGF102991021011008001001001MA1999999101301MD1999999+0031REMSYN070AAXX  17184 83498 32595 20509 10292 20222 30130 40135 82100 333 58003;
0168834980999992009101800004-17733-039250FM-12+000399999V0200501N001512200019N0020001N1+02421+02131101551ADDGF101991011011008001001001KA1240M+03051MA1999999101501MD1999999-0041REMSYN088AAXX  18004 83498 32595 10503 10242 20213 30150 40155 81100 333 10305 29077 55062 59004;
0156834980999992009101812004-17733-039250FM-12+000399999V0203601N002610450019N0020001N1+02731+02281101521ADDGF107991041051008001011001KA1240N+02291MA1999999101471MD1999999-0211REMSYN076AAXX  18124 83498 32595 73605 10273 20228 30147 40152 84510 333 20229 59021;
0137834980999992009101818004-17733-039250FM-12+000399999V0203601N003610450019N0020001N1+02871+02281101131ADDGF105991021011008001041001MA1999999101081MD1999999-0221REMSYN070AAXX  18184 83498 32595 53607 10287 20228 30108 40113 82140 333 59022;
0168834980999992009101900004-17733-039250FM-12+000399999V0203601N003112200019N0020001N1+02511+02271101301ADDGF101991011011008001001001KA1240M+02991MA1999999101251MD1999999-0251REMSYN088AAXX  19004 83498 32595 13606 10251 20227 30125 40130 81100 333 10299 29080 55017 59025;
0156834980999992009101912004-17733-039250FM-12+000399999V0203601N004110450019N0020001N1+02801+02251101371ADDGF106991031051008001041001KA1240N+02301MA1999999101321MD1999999-0151REMSYN076AAXX  19124 83498 32595 63608 10280 20225 30132 40137 83540 333 20230 59015;
0137834980999992009101918004-17733-039250FM-12+000399999V0203601N006210450019N0020001N1+02881+02251100941ADDGF106991021011008001041011MA1999999100891MD1999999-0191REMSYN070AAXX  19184 83498 32595 63612 10288 20225 30089 40094 82141 333 59019;
0168834980999992009102000004-17733-039250FM-12+000399999V0203601N003612200019N0020001N1+02521+02151101281ADDGF102991021011008001001001KA1240M+02991MA1999999101231MD1999999-0021REMSYN088AAXX  20004 83498 32595 23607 10252 20215 30123 40128 82100 333 10299 29075 55027 59002;
0156834980999992009102012004-17733-039250FM-12+000399999V0203601N003111050019N0020001N1+02911+02201101391ADDGF105991031021008001001021KA1240N+02221MA1999999101341MD1999999+0021REMSYN076AAXX  20124 83498 32595 53606 10291 20220 30134 40139 83202 333 20222 58002;
0137834980999992009102018004-17733-039250FM-12+000399999V0203601N003610450019N0020001N1+02831+02331101101ADDGF107991041061008001021001MA1999999101051MD1999999+0161REMSYN070AAXX  20184 83498 32595 73607 10283 20233 30105 40110 84620 333 58016;
0168834980999992009102100004-17733-039250FM-12+000399999V0203601N001512200019N0020001N1+02551+02311101221ADDGF101991011011008001001001KA1240M+03071MA1999999101161MD1999999-0071REMSYN088AAXX  21004 83498 32595 13603 10255 20231 30116 40122 81100 333 10307 29079 55029 59007;
0156834980999992009102112004-17733-039250FM-12+000399999V0203601N005110450019N0020001N1+02961+02231101331ADDGF106991021011008001041011KA1240N+02401MA1999999101281MD1999999-0061REMSYN076AAXX  21124 83498 32595 63610 10296 20223 30128 40133 82141 333 20240 59006;
0137834980999992009102118004-17733-039250FM-12+000399999V0203601N005712200019N0020001N1+02941+02291101021ADDGF102991021011008001001001MA1999999100971MD1999999-0081REMSYN070AAXX  21184 83498 32595 23611 10294 20229 30097 40102 82100 333 59008;
0168834980999992009102200004-17733-039250FM-12+000399999V0203601N002612200019N0020001N1+02601+02331101311ADDGF104991041021008001001001KA1240M+03051MA1999999101261MD1999999+0101REMSYN088AAXX  22004 83498 32595 43605 10260 20233 30126 40131 84200 333 10305 29076 55025 58010;
0156834980999992009102212004-17733-039250FM-12+000399999V0203601N004110450019N0020001N1+02831+02401101141ADDGF107991041051008001051001KA1240N+02551MA1999999101091MD1999999-0191REMSYN076AAXX  22124 83498 32595 73608 10283 20240 30109 40114 84550 333 20255 59019;
0137834980999992009102218004-17733-039250FM-12+000399999V0203601N004110450019N0020001N1+02871+02311100831ADDGF107991041051008001011001MA1999999100781MD1999999-0191REMSYN070AAXX  22184 83498 32595 73608 10287 20231 30078 40083 84510 333 59019;
0213834980999992009102300004-17733-039250FM-12+000399999V0203601N002610450019N0020001N1+02401+02261101211ADDAA106015091AY191061AY261061GF108991031071008001021999KA1240M+03051MA1999999101161MD1999999-0101MW1611REMSYN100AAXX  23004 83498 21595 83605 10240 20226 30116 40121 76196 8372/ 333 10305 29084 55003 59010 60151;
0201834980999992009102312004-17733-039250FM-12+000399999V0203201N003110450019N0020001N1+02681+02261101091ADDAA124018091AY161061AY261061GF108991031051008001051999KA1240N+02271MA1999999101041MD1999999-0051MW1211REMSYN088AAXX  23124 83498 21595 83206 10268 20226 30104 40109 72166 8355/ 333 20227 59005 60184;
0137834980999992009102318004-17733-039250FM-12+000399999V0200501N003111050019N0020001N1+02961+02401100751ADDGF105991021011008001001021MA1999999100701MD1999999-0081REMSYN070AAXX  23184 83498 32595 50506 10296 20240 30070 40075 82102 333 59008;
0213834980999992009102400004-17733-039250FM-12+000399999V0209999C000010450019N0020001N1+02581+02371101231ADDAA106000021AY191061AY261061GF108991041091008001011999KA1240M+03081MA1999999101181MD1999999+0021MW1611REMSYN100AAXX  24004 83498 21595 80000 10258 20237 30118 40123 76196 8491/ 333 10308 29082 55021 58002 69921;
0201834980999992009102412004-17733-039250FM-12+000399999V0201801N003610075019N0020001N1+02631+02331101331ADDAA124007991AY121061AY211061GF108991051051008001021999KA1240N+02491MA1999999101281MD1999999+0241MW1031REMSYN088AAXX  24124 83498 21595 81807 10263 20233 30128 40133 70321 8552/ 333 20249 58024 60084;
0137834980999992009102418004-17733-039250FM-12+000399999V0200901N003110450019N0020001N1+02791+02301101011ADDGF106991041031008001051001MA1999999100961MD1999999+0261REMSYN070AAXX  24184 83498 32595 60906 10279 20230 30096 40101 84350 333 58026;
0223834980999992009102500004-17733-039250FM-12+000399999V0209999C000012200019N0020001N1+02441+02241101291ADDAA106000591AY121061AY211061GA1001+999999999GF100991001001999999001001KA1240M+02851MA1999999101241MD1999999+0061MW1001REMSYN094AAXX  25004 83498 21995 00000 10244 20224 30124 40129 70021 333 10285 29087 55011 58006 69961;
0173834980999992009102512004-17733-039250FM-12+000399999V0203601N002110075019N0020001N1+02821+02331101181ADDAA124000591GF106991061021008001001001KA1240N+02301MA1999999101131MD1999999-0151REMSYN082AAXX  25124 83498 22595 63604 10282 20233 30113 40118 86200 333 20230 59015 69964;
0137834980999992009102518004-17733-039250FM-12+000399999V0200501N004112200019N0020001N1+02961+02421100891ADDGF104991041021008001001001MA1999999100841MD1999999-0121REMSYN070AAXX  25184 83498 32595 40508 10296 20242 30084 40089 84200 333 59012;
0168834980999992009102600004-17733-039250FM-12+000399999V0200501N003110450019N0020001N1+02561+02291101231ADDGF105991031021008001041001KA1240M+03131MA1999999101181MD1999999-0061REMSYN088AAXX  26004 83498 32595 50506 10256 20229 30118 40123 83240 333 10313 29080 55051 59006;
0156834980999992009102612004-17733-039250FM-12+000399999V0203601N003110450019N0020001N1+02791+02381101341ADDGF107991041051008001041001KA1240N+02471MA1999999101291MD1999999+0161REMSYN076AAXX  26124 83498 32595 73606 10279 20238 30129 40134 84540 333 20247 58016;
0137834980999992009102618004-17733-039250FM-12+000399999V0203601N004610450019N0020001N1+02851+02331101081ADDGF106991031031008001081001MA1999999101031MD1999999+0191REMSYN070AAXX  26184 83498 32595 63609 10285 20233 30103 40108 83380 333 58019;
0213834980999992009102700004-17733-039250FM-12+000399999V0203601N002610075019N0020001N1+02491+02301101341ADDAA106002091AY121061AY211061GF108991051051008001021999KA1240M+02971MA1999999101291MD1999999+0111MW1031REMSYN100AAXX  27004 83498 21595 83605 10249 20230 30129 40134 70321 8552/ 333 10297 29083 55011 58011 60021;
0201834980999992009102712004-17733-039250FM-12+000399999V0203601N001510075019N0020001N1+02501+02361101341ADDAA124007991AY161061AY261061GF108991051071008001021999KA1240N+02291MA1999999101291MD1999999+0001MW1621REMSYN088AAXX  27124 83498 21595 83603 10250 20236 30129 40134 76266 8572/ 333 20229 58000 60084;
0182834980999992009102718004-17733-039250FM-12+000399999V0200501N004110450019N0020001N1+02521+02361101131ADDAA106026991AY161061AY261061GF108991041071008001021999MA1999999101081MD1999999+0051MW1631REMSYN082AAXX  27184 83498 21595 80508 10252 20236 30108 40113 76366 8472/ 333 58005 60271;
0213834980999992009102800004-17733-039250FM-12+000399999V0203601N002110075019N0020001N1+02401+02261101411ADDAA106002091AY161061AY261061GF108991051071008001021999KA1240M+02761MA1999999101361MD1999999+0071MW1611REMSYN100AAXX  28004 83498 21595 83604 10240 20226 30136 40141 76166 8572/ 333 10276 29092 55000 58007 60021;
0201834980999992009102812004-17733-039250FM-12+000399999V0203601N002110450019N0020001N1+02381+02331101481ADDAA124050091AY161061AY261061GF108991041071008001021999KA1240N+02221MA1999999101431MD1999999+0141MW1611REMSYN088AAXX  28124 83498 21595 83604 10238 20233 30143 40148 76166 8472/ 333 20222 58014 60504;
0182834980999992009102818004-17733-039250FM-12+000399999V0203601N002110450019N0020001N1+02461+02321101241ADDAA106011991AY161061AY261061GF108991041071008001021999MA1999999101191MD1999999+0111MW1611REMSYN082AAXX  28184 83498 21595 83604 10246 20232 30119 40124 76166 8472/ 333 58011 60121;
0201834980999992009102912004-17733-039250FM-12+000399999V0203601N002110075019N0020001N1+02441+02301101381ADDAA124036191AY161061AY261061GF108991051071008001021999KA1240N+02181MA1999999101331MD1999999-0101MW1611REMSYN088AAXX  29124 83498 21595 83604 10244 20230 30133 40138 76166 8572/ 333 20218 59010 60364;
0182834980999992009102918004-17733-039250FM-12+000399999V0203601N003610450019N0020001N1+02481+02321101131ADDAA106007191AY161061AY261061GF108991041071008001021999MA1999999101081MD1999999-0111MW1611REMSYN082AAXX  29184 83498 21595 83607 10248 20232 30108 40113 76166 8472/ 333 59011 60071;
0168834980999992009103000004-17733-039250FM-12+000399999V0203601N001510450019N0020001N1+02481+02301101211ADDGF108991031061008001021999KA1240M+02541MA1999999101161MD1999999-0221REMSYN088AAXX  30004 83498 32595 83603 10248 20230 30116 40121 8362/ 333 10254 29091 55000 59022;
0201834980999992009103012004-17733-039250FM-12+000399999V0203601N002610450019N0020001N1+02361+02191101141ADDAA124041991AY161061AY261061GF108991031071008001021999KA1240N+02271MA1999999101091MD1999999-0241MW1611REMSYN088AAXX  30124 83498 21595 83605 10236 20219 30109 40114 76166 8372/ 333 20227 59024 60424;
0182834980999992009103018004-17733-039250FM-12+000399999V0203601N002110450019N0020001N1+02361+02281100921ADDAA106024991AY161061AY261061GF108991031071008001021999MA1999999100871MD1999999-0211MW1611REMSYN082AAXX  30184 83498 21595 83604 10236 20228 30087 40092 76166 8372/ 333 59021 60251;
0213834980999992009103100004-17733-039250FM-12+000399999V0200901N002110450019N0020001N1+02341+02291101181ADDAA106006191AY161061AY261061GF108991031071008001021999KA1240M+02511MA1999999101131MD1999999-0031MW1601REMSYN100AAXX  31004 83498 21595 80904 10234 20229 30113 40118 76066 8372/ 333 10251 29095 55000 59003 60061;
0201834980999992009103112004-17733-039250FM-12+000399999V0203601N003610075019N0020001N1+02421+02281101221ADDAA124066091AY161061AY261061GF108991051071008001021999KA1240N+02271MA1999999101171MD1999999+0081MW1601REMSYN088AAXX  31124 83498 21595 83607 10242 20228 30117 40122 76066 8572/ 333 20227 58008 60664;
0182834980999992009103118004-17733-039250FM-12+000399999V0203601N004110075019N0020001N1+02361+02221101001ADDAA106005191AY161061AY261061GF108991061071008001021999MA1999999100951MD1999999+0081MW1601REMSYN082AAXX  31184 83498 21595 83608 10236 20222 30095 40100 76066 8672/ 333 58008 60051;
0213834980999992009110100004-17733-039250FM-12+000399999V0203601N003110075019N0020001N1+02401+02261101281ADDAA106002091AY161061AY261061GF108991051071008001021999KA1240M+02531MA1999999101231MD1999999+0101MW1601REMSYN100AAXX  01004 83498 21595 83606 10240 20226 30123 40128 76066 8572/ 333 10253 29092 55000 58010 60021;
0201834980999992009110112004-17733-039250FM-12+000399999V0203601N003110075019N0020001N1+02591+02401101381ADDAA124027991AY161061AY261061GF107991051061008001011001KA1240N+02261MA1999999101331MD1999999+0161MW1611REMSYN088AAXX  01124 83498 21595 73606 10259 20240 30133 40138 76166 85610 333 20226 58016 60284;
0137834980999992009110118004-17733-039250FM-12+000399999V0203601N005110075019N0020001N1+02731+02341101201ADDGF107991051051008001051001MA1999999101151MD1999999+0201REMSYN070AAXX  01184 83498 32595 73610 10273 20234 30115 40120 85550 333 58020;
0168834980999992009110200004-17733-039250FM-12+000399999V0200501N004110075019N0020001N1+02511+02341101481ADDGF108991051051008001021999KA1240M+02791MA1999999101431MD1999999+0201REMSYN088AAXX  02004 83498 32595 80508 10251 20234 30143 40148 8552/ 333 10279 29088 55002 58020;
0201834980999992009110212004-17733-039250FM-12+000399999V0203601N004110450019N0020001N1+02691+02281101571ADDAA124000591AY161061AY261061GF107991041051008001011001KA1240N+02361MA1999999101521MD1999999+0191MW1601REMSYN088AAXX  02124 83498 21595 73608 10269 20228 30152 40157 76066 84510 333 20236 58019 69964;
0137834980999992009110218004-17733-039250FM-12+000399999V0203601N004610450019N0020001N1+02771+02281101311ADDGF106991031041008001011001MA1999999101261MD1999999+0111REMSYN070AAXX  02184 83498 32595 63609 10277 20228 30126 40131 83410 333 58011;
0168834980999992009110300004-17733-039250FM-12+000399999V0203601N002110450019N0020001N1+02511+02211101521ADDGF107991031061008001011001KA1240M+02881MA1999999101471MD1999999+0041REMSYN088AAXX  03004 83498 32595 73604 10251 20221 30147 40152 83610 333 10288 29081 55013 58004;
0156834980999992009110312004-17733-039250FM-12+000399999V0203601N003112200019N0020001N1+02721+02191101501ADDGF103991031011008001001001KA1240N+02361MA1999999101451MD1999999-0071REMSYN076AAXX  03124 83498 32595 33606 10272 20219 30145 40150 83100 333 20236 59007;
0137834980999992009110318004-17733-039250FM-12+000399999V0200501N003112200019N0020001N1+02801+02201101231ADDGF104991021011008001051001MA1999999101181MD1999999-0081REMSYN070AAXX  03184 83498 32595 40506 10280 20220 30118 40123 82150 333 59008;
0168834980999992009110400004-17733-039250FM-12+000399999V0200501N002110450019N0020001N1+02521+02211101401ADDGF107991021011008001051001KA1240M+02901MA1999999101351MD1999999-0121REMSYN088AAXX  04004 83498 32595 70504 10252 20221 30135 40140 82150 333 10290 29077 55069 59012;
0156834980999992009110412004-17733-039250FM-12+000399999V0203601N003610450019N0020001N1+02791+02211101651ADDGF105991041021008001031001KA1240N+02271MA1999999101601MD1999999+0151REMSYN076AAXX  04124 83498 32595 53607 10279 20221 30160 40165 84230 333 20227 58015;
0137834980999992009110418004-17733-039250FM-12+000399999V0200501N004112200019N0020001N1+02851+02171101421ADDGF103991011011008001041001MA1999999101371MD1999999+0191REMSYN070AAXX  04184 83498 32595 30508 10285 20217 30137 40142 81140 333 58019;
0168834980999992009110500004-17733-039250FM-12+000399999V0200501N001010450019N0020001N1+02511+02321101691ADDGF106991031051008001051001KA1240M+02931MA1999999101641MD1999999+0291REMSYN088AAXX  05004 83498 32595 60502 10251 20232 30164 40169 83550 333 10293 29080 55069 58029;
0156834980999992009110512004-17733-039250FM-12+000399999V0200501N002610450019N0020001N1+02671+02291101871ADDGF106991031051008001041001KA1240N+02431MA1999999101821MD1999999+0221REMSYN076AAXX  05124 83498 32595 60505 10267 20229 30182 40187 83540 333 20243 58022;
0137834980999992009110518004-17733-039250FM-12+000399999V0200501N005110450019N0020001N1+02761+02301101641ADDGF106991021011008001021001MA1999999101591MD1999999+0221REMSYN070AAXX  05184 83498 32595 60510 10276 20230 30159 40164 82120 333 58022;
0178834980999992009110600004-17733-039250FM-12+000399999V0203601N001512200019N0020001N1+02501+02361101731ADDGA1001+999999999GF100991001001999999001001KA1240M+02951MA1999999101681MD1999999+0041REMSYN082AAXX  06004 83498 32595 03603 10250 20236 30168 40173 333 10295 29085 55034 58004;
0156834980999992009110612004-17733-039250FM-12+000399999V0200501N003112200019N0020001N1+02781+02301101801ADDGF104991041021008001001001KA1240N+02381MA1999999101751MD1999999-0071REMSYN076AAXX  06124 83498 32595 40506 10278 20230 30175 40180 84200 333 20238 59007;
0137834980999992009110618004-17733-039250FM-12+000399999V0200501N003612200019N0020001N1+02841+02171101491ADDGF103991031011008001001001MA1999999101441MD1999999-0151REMSYN070AAXX  06184 83498 32595 30507 10284 20217 30144 40149 83100 333 59015;
0168834980999992009110700004-17733-039250FM-12+000399999V0200501N001512200019N0020001N1+02441+02211101511ADDGF101991011011008001001001KA1240M+02941MA1999999101461MD1999999-0221REMSYN088AAXX  07004 83498 32595 10503 10244 20221 30146 40151 81100 333 10294 29079 55076 59022;
0156834980999992009110712004-17733-039250FM-12+000399999V0200501N003112200019N0020001N1+02751+02171101591ADDGF103991031011008001001001KA1240N+02311MA1999999101541MD1999999-0211REMSYN076AAXX  07124 83498 32595 30506 10275 20217 30154 40159 83100 333 20231 59021;
0137834980999992009110718004-17733-039250FM-12+000399999V0203601N004612200019N0020001N1+02891+01971101231ADDGF101991011011008001001001MA1999999101181MD1999999-0261REMSYN070AAXX  07184 83498 32595 13609 10289 20197 30118 40123 81100 333 59026;
0178834980999992009110800004-17733-039250FM-12+000399999V0200501N002612200019N0020001N1+02461+02231101341ADDGA1001+999999999GF100991001001999999001001KA1240M+02971MA1999999101291MD1999999-0171REMSYN082AAXX  08004 83498 32995 00505 10246 20223 30129 40134 333 10297 29076 55083 59017;
0156834980999992009110812004-17733-039250FM-12+000399999V0203601N004112200019N0020001N1+02791+02251101351ADDGF104991041011008001001001KA1240N+02041MA1999999101301MD1999999-0241REMSYN076AAXX  08124 83498 32595 43608 10279 20225 30130 40135 84100 333 20204 59024;
0137834980999992009110818004-17733-039250FM-12+000399999V0203601N004112200019N0020001N1+02831+02201100981ADDGF102991021011008001001001MA1999999100931MD1999999-0251REMSYN070AAXX  08184 83498 32595 23608 10283 20220 30093 40098 82100 333 59025;
0178834980999992009110900004-17733-039250FM-12+000399999V0203601N003112200019N0020001N1+02511+02311101171ADDGA1001+999999999GF100991001001999999001001KA1240M+02971MA1999999101121MD1999999-0171REMSYN082AAXX  09004 83498 32995 03606 10251 20231 30112 40117 333 10297 29081 55073 59017;
0156834980999992009110912004-17733-039250FM-12+000399999V0203601N004112200019N0020001N1+02901+02301101331ADDGF103991031011008001001001KA1240N+02341MA1999999101281MD1999999-0021REMSYN076AAXX  09124 83498 32595 33608 10290 20230 30128 40133 83100 333 20234 59002;
0137834980999992009110918004-17733-039250FM-12+000399999V0203601N004112200019N0020001N1+02961+02281101021ADDGF102991011011008001001011MA1999999100971MD1999999+0041REMSYN070AAXX  09184 83498 32595 23608 10296 20228 30097 40102 81101 333 58004;
0168834980999992009111000004-17733-039250FM-12+000399999V0203601N003612200019N0020001N1+02501+02251101271ADDGF101991011011008001001001KA1240M+02981MA1999999101221MD1999999+0121REMSYN088AAXX  10004 83498 32595 13607 10250 20225 30122 40127 81100 333 10298 29077 55080 58012;
0156834980999992009111012004-17733-039250FM-12+000399999V0203601N005112200019N0020001N1+02771+02341101541ADDGF104991031011008001031001KA1240N+02381MA1999999101491MD1999999+0211REMSYN076AAXX  10124 83498 32595 43610 10277 20234 30149 40154 83130 333 20238 58021;
0137834980999992009111018004-17733-039250FM-12+000399999V0200501N003112200019N0020001N1+02891+02131101161ADDGF101991011011008001001001MA1999999101111MD1999999+0141REMSYN070AAXX  10184 83498 32595 10506 10289 20213 30111 40116 81100 333 58014;
0178834980999992009111100004-17733-039250FM-12+000399999V0200501N002112200019N0020001N1+02421+02281101401ADDGA1001+999999999GF100991001001999999001001KA1240M+02981MA1999999101351MD1999999+0131REMSYN082AAXX  11004 83498 32995 00504 10242 20228 30135 40140 333 10298 29081 55078 58013;
0156834980999992009111112004-17733-039250FM-12+000399999V0200501N003110450019N0020001N1+02751+02241101141ADDGF107991041051008001011001KA1240N+02281MA1999999101391MD1999999-0101REMSYN076AAXX  11124 83498 32595 70506 10275 20224 30139 40114 84510 333 20228 59010;
0137834980999992009111118004-17733-039250FM-12+000399999V0200501N004112200019N0020001N1+02881+02131101171ADDGF104991041011008001001001MA1999999101121MD1999999+0011REMSYN070AAXX  11184 83498 32595 40508 10288 20213 30112 40117 84100 333 58001;
0178834980999992009111200004-17733-039250FM-12+000399999V0203601N001512200019N0020001N1+02461+02271101341ADDGA1001+999999999GF100991001001999999001001KA1240M+02971MA1999999101291MD1999999-0061REMSYN082AAXX  12004 83498 32995 03603 10246 20227 30129 40134 333 10297 29079 55053 59006;
0156834980999992009111212004-17733-039250FM-12+000399999V0203601N004112200019N0020001N1+02781+02161101391ADDGF104991041021008001001001KA1240N+02171MA1999999101341MD1999999-0051REMSYN076AAXX  12124 83498 32595 43608 10278 20216 30134 40139 84200 333 20217 59005;
0137834980999992009111218004-17733-039250FM-12+000399999V0203601N005112200019N0020001N1+02861+02161101051ADDGF102991021011008001001001MA1999999101001MD1999999-0121REMSYN070AAXX  12184 83498 32595 23610 10286 20216 30100 40105 82100 333 59012;
0178834980999992009111300004-17733-039250FM-12+000399999V0200501N000512200019N0020001N1+02401+02191101291ADDGA1001+999999999GF100991001001999999001001KA1240M+02981MA1999999101241MD1999999-0051REMSYN082AAXX  13004 83498 32995 00501 10240 20219 30124 40129 333 10298 29078 55090 59005;
0156834980999992009111312004-17733-039250FM-12+000399999V0203601N003612200019N0020001N1+02801+02181101471ADDGF103991031021008001001001KA1240N+02171MA1999999101421MD1999999+0081REMSYN076AAXX  13124 83498 32595 33607 10280 20218 30142 40147 83200 333 20217 58008;
0137834980999992009111318004-17733-039250FM-12+000399999V0200501N004112200019N0020001N1+02851+02221101261ADDGF101991011011008001001001MA1999999101211MD1999999+0211REMSYN070AAXX  13184 83498 32595 10508 10285 20222 30121 40126 81100 333 58021;
0178834980999992009111400004-17733-039250FM-12+000399999V0200501N000512200019N0020001N1+02421+02231101471ADDGA1001+999999999GF100991001001999999001001KA1240M+02991MA1999999101421MD1999999+0181REMSYN082AAXX  14004 83498 32995 00501 10242 20223 30142 40147 333 10299 29079 55087 58018;
0175834980999992009111412004-17733-039250FM-12+000399999V0200501N003119999999N0020001N1+02851+02221101561ADDGF105991999021008001001001KA1240N+02121MA1999999101511MD1999999+0091REMSYN076AAXX  14124 83498 32595 50506 10285 20222 30151 40156 83200 333 20212 58009;EQDQ01+000032SCOTLC
0137834980999992009111418004-17733-039250FM-12+000399999V0200501N002612200019N0020001N1+02871+02161101311ADDGF102991011011008001001011MA1999999101261MD1999999+0051REMSYN070AAXX  14184 83498 32595 20505 10287 20216 30126 40131 81101 333 58005;
0178834980999992009111500004-17733-039250FM-12+000399999V0203601N000512200019N0020001N1+02441+02271101591ADDGA1001+999999999GF100991001001999999001001KA1240M+02971MA1999999101541MD1999999+0121REMSYN082AAXX  15004 83498 32995 03601 10244 20227 30154 40159 333 10297 29079 55069 58012;
0156834980999992009111512004-17733-039250FM-12+000399999V0203601N004112200019N0020001N1+02821+02201101361ADDGF104991041021008001001001KA1240N+02271MA1999999101311MD1999999+0201REMSYN076AAXX  15124 83498 32595 43608 10282 20220 30131 40136 84200 333 20227 58020;
0137834980999992009111518004-17733-039250FM-12+000399999V0203601N005112200019N0020001N1+02901+02201100951ADDGF102991021011008001001001MA1999999100901MD1999999-0361REMSYN070AAXX  15184 83498 32595 23610 10290 20220 30090 40095 82100 333 59036;
0178834980999992009111600004-17733-039250FM-12+000399999V0203601N003612200019N0020001N1+02481+02191101081ADDGA1001+999999999GF100991001001999999001001KA1240M+03051MA1999999101031MD1999999-0511REMSYN082AAXX  16004 83498 32995 03607 10248 20219 30103 40108 333 10305 29076 55073 59051;
0156834980999992009111612004-17733-039250FM-12+000399999V0203601N003611050019N0020001N1+02911+02251101161ADDGF105991021011008001001021KA1240N+02331MA1999999101111MD1999999-0201REMSYN076AAXX  16124 83498 32595 53607 10291 20225 30111 40116 82102 333 20233 59020;
0137834980999992009111618004-17733-039250FM-12+000399999V0203601N004112200019N0020001N1+02871+02331100851ADDGF104991011011008001001021MA1999999100801MD1999999-0101REMSYN070AAXX  16184 83498 32595 43608 10287 20233 30080 40085 81102 333 59010;
0178834980999992009111700004-17733-039250FM-12+000399999V0203601N001512200019N0020001N1+02501+02321101061ADDGA1001+999999999GF100991001001999999001001KA1240M+03031MA1999999101011MD1999999-0021REMSYN082AAXX  17004 83498 32995 03603 10250 20232 30101 40106 333 10303 29080 55058 59002;
0156834980999992009111712004-17733-039250FM-12+000399999V0201801N004110450019N0020001N1+02511+02341101431ADDGF107991031071008001021999KA1240N+01891MA1999999101381MD1999999+0271REMSYN076AAXX  17124 83498 32595 71808 10251 20234 30138 40143 8372/ 333 20189 58027;
0182834980999992009111718004-17733-039250FM-12+000399999V0201001N025210450019N0020001N1+02721+02281101321ADDAA106008991AY121061AY211061GF106991031051008001051001MA1999999101271MD1999999+0471MW1031REMSYN082AAXX  17184 83498 21595 61049 10272 20228 30127 40132 70321 83550 333 58047 60091;
0213834980999992009111800004-17733-039250FM-12+000399999V0201801N003110075019N0020001N1+02571+02191101651ADDAA106000891AY121061AY211061GF108991051051008001021999KA1240M+02751MA1999999101601MD1999999+0591MW1031REMSYN100AAXX  18004 83498 21595 81806 10257 20219 30160 40165 70321 8552/ 333 10275 29082 55002 58059 69971;
0201834980999992009111812004-17733-039250FM-12+000399999V0201801N003610450019N0020001N1+02561+02191101621ADDAA124011991AY161061AY261061GF108991041051008001011999KA1240N+02211MA1999999101571MD1999999+0191MW1611REMSYN088AAXX  18124 83498 21595 81807 10256 20219 30157 40162 76166 8451/ 333 20221 58019 60124;
0182834980999992009111818004-17733-039250FM-12+000399999V0200501N002610450019N0020001N1+02781+02111101311ADDAA106002091AY161061AY261061GF107991031011008001011001MA1999999101261MD1999999-0011MW1211REMSYN082AAXX  18184 83498 21595 70505 10278 20211 30126 40131 72166 83110 333 59001 60021;
0168834980999992009111900004-17733-039250FM-12+000399999V0200901N001512200019N0020001N1+02461+02281101561ADDGF104991021011008001011001KA1240M+02791MA1999999101511MD1999999-0091REMSYN088AAXX  19004 83498 32595 40903 10246 20228 30151 40156 82110 333 10279 29082 55018 59009;
0201834980999992009111912004-17733-039250FM-12+000399999V0200501N003110450019N0020001N1+02801+02311101701ADDAA124005191AY121061AY211061GF105991031021008001041001KA1240N+02271MA1999999101651MD1999999+0081MW1031REMSYN088AAXX  19124 83498 21595 50506 10280 20231 30165 40170 70321 83240 333 20227 58008 60054;
0137834980999992009111918004-17733-039250FM-12+000399999V0200501N002612200019N0020001N1+02851+02291101421ADDGF103991031011008001001001MA1999999101371MD1999999+0111REMSYN070AAXX  19184 83498 32595 30505 10285 20229 30137 40142 83100 333 58011;
0178834980999992009112000004-17733-039250FM-12+000399999V0209999C000012200019N0020001N1+02461+02301101741ADDGA1001+999999999GF100991001001999999001001KA1240M+02951MA1999999101691MD1999999+0181REMSYN082AAXX  20004 83498 32995 00000 10246 20230 30169 40174 333 10295 29082 55067 58018;
0156834980999992009112012004-17733-039250FM-12+000399999V0203601N002610450019N0020001N1+02831+02201101751ADDGF106991041021008001041001KA1240N+02121MA1999999101701MD1999999+0051REMSYN076AAXX  20124 83498 32595 63605 10283 20220 30170 40175 84240 333 20212 58005;
0137834980999992009112018004-17733-039250FM-12+000399999V0200501N002612200019N0020001N1+02891+02121101441ADDGF103991031011008001001001MA1999999101391MD1999999+0021REMSYN070AAXX  20184 83498 32595 30505 10289 20212 30139 40144 83100 333 58002;
0178834980999992009112100004-17733-039250FM-12+000399999V0203601N001012200019N0020001N1+02441+02191101591ADDGA1001+999999999GF100991001001999999001001KA1240M+03011MA1999999101541MD1999999-0151REMSYN082AAXX  21004 83498 32995 03602 10244 20219 30154 40159 333 10301 29076 55093 59015;
0156834980999992009112112004-17733-039250FM-12+000399999V0203601N003612200019N0020001N1+02841+02191101831ADDGF103991031011008001001001KA1240N+02241MA1999999101781MD1999999+0081REMSYN076AAXX  21124 83498 32595 33607 10284 20219 30178 40183 83100 333 20224 58008;
0137834980999992009112118004-17733-039250FM-12+000399999V0200501N004112200019N0020001N1+02901+02201101641ADDGF102991021011008001001001MA1999999101591MD1999999+0201REMSYN070AAXX  21184 83498 32595 20508 10290 20220 30159 40164 82100 333 58020;
0178834980999992009112200004-17733-039250FM-12+000399999V0200501N002112200019N0020001N1+02461+02171101731ADDGA1001+999999999GF100991001001999999001001KA1240M+02981MA1999999101681MD1999999+0141REMSYN082AAXX  22004 83498 32995 00504 10246 20217 30168 40173 333 10298 29076 55090 58014;
0156834980999992009112212004-17733-039250FM-12+000399999V0203601N002112200019N0020001N1+02751+02141101851ADDGF104991041021008001001001KA1240N+02191MA1999999101801MD1999999+0021REMSYN076AAXX  22124 83498 32595 43604 10275 20214 30180 40185 84200 333 20219 58002;
0156834980999992009112218004-17733-039250FM-12+000399999V0200501N003612200019N0020001N1+02951+02051101491ADDGF101991001001999999001011MA1999999101441MD1999999-0151REMSYN070AAXX  22184 83498 32595 10507 10295 20205 30144 40149 80001 333 59015;EQDQ01+008002SCOLCB
0178834980999992009112300004-17733-039250FM-12+000399999V0200501N002112200019N0020001N1+02421+02191101581ADDGA1001+999999999GF100991001001999999001001KA1240M+03081MA1999999101531MD1999999-0151REMSYN082AAXX  23004 83498 32995 00504 10242 20219 30153 40158 333 10308 29076 55094 59015;
0156834980999992009112312004-17733-039250FM-12+000399999V0203601N003110450019N0020001N1+02731+02081101461ADDGF105991031021008001041001KA1240N+02121MA1999999101411MD1999999-0391REMSYN076AAXX  23124 83498 32595 53606 10273 20208 30141 40146 83240 333 20212 59039;
0137834980999992009112318004-17733-039250FM-12+000399999V0200501N003112200019N0020001N1+02931+02121101071ADDGF102991021001008001001011MA1999999101021MD1999999-0421REMSYN070AAXX  23184 83498 32595 20506 10293 20212 30102 40107 82001 333 59042;
0178834980999992009112400004-17733-039250FM-12+000399999V0203601N001512200019N0020001N1+02491+02251101191ADDGA1001+999999999GF100991001001999999001001KA1240M+03041MA1999999101141MD1999999-0391REMSYN082AAXX  24004 83498 32995 03603 10249 20225 30114 40119 333 10304 29076 55091 59039;
0156834980999992009112412004-17733-039250FM-12+000399999V0203601N004612200019N0020001N1+02861+02191101311ADDGF103991021011008001001011KA1240N+02191MA1999999101261MD1999999-0151REMSYN076AAXX  24124 83498 32595 33609 10286 20219 30126 40131 82101 333 20219 59015;
0137834980999992009112418004-17733-039250FM-12+000399999V0200501N004112200019N0020001N1+02961+02181101051ADDGF102991021011008001001001MA1999999101001MD1999999-0021REMSYN070AAXX  24184 83498 32595 20508 10296 20218 30100 40105 82100 333 59002;
0168834980999992009112500004-17733-039250FM-12+000399999V0200501N001512200019N0020001N1+02461+02251101271ADDGF102991021001008001001091KA1240M+03041MA1999999101221MD1999999+0081REMSYN088AAXX  25004 83498 32595 20503 10246 20225 30122 40127 82009 333 10304 29076 55083 58008;
0156834980999992009112512004-17733-039250FM-12+000399999V0203601N004112200019N0020001N1+02851+02141101481ADDGF103991031011008001001001KA1240N+02161MA1999999101431MD1999999+0231REMSYN076AAXX  25124 83498 32595 33608 10285 20214 30143 40148 83100 333 20216 58023;
0137834980999992009112518004-17733-039250FM-12+000399999V0200501N003112200019N0020001N1+02951+02161101301ADDGF102991021011008001001001MA1999999101251MD1999999+0251REMSYN070AAXX  25184 83498 32595 20506 10295 20216 30125 40130 82100 333 58025;
0178834980999992009112600004-17733-039250FM-12+000399999V0200901N001012200019N0020001N1+02401+02231101481ADDGA1001+999999999GF100991001001999999001001KA1240M+02991MA1999999101431MD1999999+0211REMSYN082AAXX  26004 83498 32995 00902 10240 20223 30143 40148 333 10299 29078 55096 58021;
0156834980999992009112612004-17733-039250FM-12+000399999V0200501N003112200019N0020001N1+02911+02251101611ADDGF103991031021008001001001KA1240N+02221MA1999999101561MD1999999+0131REMSYN076AAXX  26124 83498 32595 30506 10291 20225 30156 40161 83200 333 20222 58013;
0137834980999992009112618004-17733-039250FM-12+000399999V0203601N005112200019N0020001N1+03031+02181101351ADDGF102991021011008001001001MA1999999101301MD1999999+0051REMSYN070AAXX  26184 83498 32595 23610 10303 20218 30130 40135 82100 333 58005;
0178834980999992009112700004-17733-039250FM-12+000399999V0203601N003112200019N0020001N1+02551+02381101481ADDGA1001+999999999GF100991001001999999001001KA1240M+03111MA1999999101431MD1999999+0001REMSYN082AAXX  27004 83498 32995 03606 10255 20238 30143 40148 333 10311 29078 55055 58000;
0156834980999992009112712004-17733-039250FM-12+000399999V0203601N005710075019N0020001N1+02921+02221101511ADDGF105991051021008001001001KA1240N+02331MA1999999101461MD1999999-0101REMSYN076AAXX  27124 83498 32595 53611 10292 20222 30146 40151 85200 333 20233 59010;
0137834980999992009112718004-17733-039250FM-12+000399999V0203601N005112200019N0020001N1+03001+02221101281ADDGF103991031011008001001001MA1999999101231MD1999999-0071REMSYN070AAXX  27184 83498 32595 33610 10300 20222 30123 40128 83100 333 59007;
0178834980999992009112800004-17733-039250FM-12+000399999V0200501N003112200019N0020001N1+02501+02211101351ADDGA1001+999999999GF100991001001999999001001KA1240M+03031MA1999999101301MD1999999-0131REMSYN082AAXX  28004 83498 32995 00506 10250 20221 30130 40135 333 10303 29074 55084 59013;
0156834980999992009112812004-17733-039250FM-12+000399999V0203601N005112200019N0020001N1+02871+02211101401ADDGF103991021011008001001011KA1240N+02221MA1999999101351MD1999999-0111REMSYN076AAXX  28124 83498 32595 33610 10287 20221 30135 40140 82101 333 20222 59011;
0156834980999992009112818004-17733-039250FM-12+000399999V0203601N005712200019N0020001N1+02971+02231101011ADDGF102991001001999999001011MA1999999100961MD1999999-0271REMSYN070AAXX  28184 83498 32595 23611 10297 20223 30096 40101 80001 333 59027;EQDQ01+008002SCOLCB
0178834980999992009112900004-17733-039250FM-12+000399999V0203601N004112200019N0020001N1+02561+02361101261ADDGA1001+999999999GF100991001001999999001001KA1240M+03051MA1999999101211MD1999999-0091REMSYN082AAXX  29004 83498 32995 03608 10256 20236 30121 40126 333 10305 29078 55086 59009;
0156834980999992009112912004-17733-039250FM-12+000399999V0203601N004110450019N0020001N1+02891+02131101301ADDGF106991041021008001011001KA1240N+02431MA1999999101251MD1999999-0101REMSYN076AAXX  29124 83498 32595 63608 10289 20213 30125 40130 84210 333 20243 59010;
0156834980999992009112918004-17733-039250FM-12+000399999V0203601N006212200019N0020001N1+02931+02291100891ADDGF103991001001999999001021MA1999999100841MD1999999-0121REMSYN070AAXX  29184 83498 32595 33612 10293 20229 30084 40089 80002 333 59012;EQDQ01+008002SCOLCB
0178834980999992009113000004-17733-039250FM-12+000399999V0203601N003112200019N0020001N1+02551+02331101091ADDGA1001+999999999GF100991001001999999001001KA1240M+03101MA1999999101041MD1999999-0171REMSYN082AAXX  30004 83498 32995 03606 10255 20233 30104 40109 333 10310 29078 55065 59017;
0156834980999992009113012004-17733-039250FM-12+000399999V0203601N005110450019N0020001N1+02741+02141101161ADDGF106991031021008001051001KA1240N+02331MA1999999101111MD1999999-0141REMSYN076AAXX  30124 83498 32595 63610 10274 20214 30111 40116 83250 333 20233 59014;
0137834980999992009113018004-17733-039250FM-12+000399999V0203601N004112200019N0020001N1+02981+02301100911ADDGF104991021011008001051001MA1999999100861MD1999999+0021REMSYN070AAXX  30184 83498 32595 43608 10298 20230 30086 40091 82150 333 58002;
0168834980999992009120100004-17733-039250FM-12+000399999V0200501N003110450019N0020001N1+02601+02371101101ADDGF108991041051008001011999KA1240M+03121MA1999999101051MD1999999+0011REMSYN088AAXX  01004 83498 32595 80506 10260 20237 30105 40110 8451/ 333 10312 29078 55034 58001;
0201834980999992009120112004-17733-039250FM-12+000399999V0203601N003110450019N0020001N1+02851+02381101201ADDAA124000591AY121061AY211061GF107991041051008001011001KA1240N+02361MA1999999101151MD1999999+0041MW1031REMSYN088AAXX  01124 83498 21595 73606 10285 20238 30115 40120 70321 84510 333 20236 58004 69944;
0201834980999992009120118004-17733-039250FM-12+000399999V0203601N001010450019N0020001N1+02711+02201100961ADDAA106000091AY121061AY211061GF107991041051008001011001MA1999999100911MD1999999+0051MW1031REMSYN082AAXX  01184 83498 21595 73602 10271 20220 30091 40096 70321 84510 333 58005 69911;EQDQ01  00002PRCP06
0187834980999992009120200004-17733-039250FM-12+000399999V0203601N003612200019N0020001N1+02571+02351101141ADDGF102991001001999999001081KA1240M+03171MA1999999101091MD1999999+0041REMSYN088AAXX  02004 83498 32595 23607 10257 20235 30109 40114 80008 333 10317 29082 55004 58004;EQDQ01+008002SCOLCB
0192834980999992009120212004-17733-039250FM-12+000399999V0203601N005110450019N0020001N1+02891+02301101391ADDAA124000091GF106991031051008001021999KA1240N+01331MA1999999101341MD1999999+0191REMSYN082AAXX  02124 83498 22595 63610 10289 20230 30134 40139 8352/ 333 20133 58019 69914;EQDQ01  00002PRCP24
0137834980999992009120218004-17733-039250FM-12+000399999V0203601N003112200019N0020001N1+02971+02261101151ADDGF102991021011008001001001MA1999999101101MD1999999+0191REMSYN070AAXX  02184 83498 32595 23606 10297 20226 30110 40115 82100 333 58019;
0178834980999992009120300004-17733-039250FM-12+000399999V0203601N003112200019N0020001N1+02551+02291101261ADDGA1001+999999999GF100991001001999999001001KA1240M+03251MA1999999101211MD1999999+0121REMSYN082AAXX  03004 83498 32995 03606 10255 20229 30121 40126 333 10325 29078 55062 58012;
0156834980999992009120312004-17733-039250FM-12+000399999V0203601N005110075019N0020001N1+02881+02211101411ADDGF105991051021008001001001KA1240N+02231MA1999999101361MD1999999+0021REMSYN076AAXX  03124 83498 32595 53610 10288 20221 30136 40141 85200 333 20223 58002;
0137834980999992009120318004-17733-039250FM-12+000399999V0203601N006212200019N0020001N1+02961+02211101011ADDGF102991021011008001001001MA1999999100961MD1999999-0141REMSYN070AAXX  03184 83498 32595 23612 10296 20221 30096 40101 82100 333 59014;
0168834980999992009120400004-17733-039250FM-12+000399999V0203601N004110450019N0020001N1+02581+02291101261ADDGF105991041021008001031001KA1240M+03121MA1999999101211MD1999999+0001REMSYN088AAXX  04004 83498 32595 53608 10258 20229 30121 40126 84230 333 10312 29075 55065 58000;
0175834980999992009120412004-17733-039250FM-12+000399999V0203601N005119999999N0020001N1+02941+02161101251ADDGF105991999011008001001001KA1240N+02391MA1999999101201MD1999999-0161REMSYN076AAXX  04124 83498 32595 53610 10294 20216 30120 40125 81100 333 20239 59016;EQDQ01+000012SCOTLC
0137834980999992009120418004-17733-039250FM-12+000399999V0203601N005110450019N0020001N1+02831+02301100901ADDGF107991041051008001041001MA1999999100851MD1999999-0111REMSYN070AAXX  04184 83498 32595 73610 10283 20230 30085 40090 84540 333 59011;
0168834980999992009120500004-17733-039250FM-12+000399999V0203601N003110450019N0020001N1+02591+02331101151ADDGF108991041051008001041001KA1240M+03091MA1999999101101MD1999999-0111REMSYN088AAXX  05004 83498 32595 83606 10259 20233 30110 40115 84540 333 10309 29076 55040 59011;
0156834980999992009120512004-17733-039250FM-12+000399999V0203601N003110450019N0020001N1+02641+02331101321ADDGF108991041041008001021999KA1240N+01821MA1999999101271MD1999999+0071REMSYN076AAXX  05124 83498 32595 83606 10264 20233 30127 40132 8442/ 333 20182 58007;
0137834980999992009120518004-17733-039250FM-12+000399999V0203601N001510075019N0020001N1+02631+02331101231ADDGF108991051061008001021999MA1999999101181MD1999999+0331REMSYN070AAXX  05184 83498 32595 83603 10263 20233 30118 40123 8562/ 333 58033;
0213834980999992009120600004-17733-039250FM-12+000399999V0200501N001510075019N0020001N1+02551+02361101401ADDAA106000591AY121061AY211061GF108991051061008001021999KA1240M+02791MA1999999101351MD1999999+0251MW1031REMSYN100AAXX  06004 83498 21595 80503 10255 20236 30135 40140 70321 8562/ 333 10279 29087 55000 58025 69941;
0173834980999992009120612004-17733-039250FM-12+000399999V0203601N003610075019N0020001N1+02801+02421101561ADDAA124000591GF108991051051008001011999KA1240N+02241MA1999999101511MD1999999+0241REMSYN082AAXX  06124 83498 22595 83607 10280 20242 30151 40156 8551/ 333 20224 58024 69944;
0137834980999992009120618004-17733-039250FM-12+000399999V0203601N004110450019N0020001N1+03001+02371101331ADDGF106991031011008001051001MA1999999101281MD1999999+0101REMSYN070AAXX  06184 83498 32595 63608 10300 20237 30128 40133 83150 333 58010;
0168834980999992009120700004-17733-039250FM-12+000399999V0200501N001512200019N0020001N1+02521+02291101521ADDGF104991041011008001001001KA1240M+03041MA1999999101471MD1999999+0121REMSYN088AAXX  07004 83498 32595 40503 10252 20229 30147 40152 84100 333 10304 29081 55000 58012;
0156834980999992009120712004-17733-039250FM-12+000399999V0203601N003112200019N0020001N1+02821+02171101571ADDGF105991041021008001001011KA1240N+02281MA1999999101521MD1999999+0011REMSYN076AAXX  07124 83498 32595 53606 10282 20217 30152 40157 84201 333 20228 58001;
0137834980999992009120718004-17733-039250FM-12+000399999V0200501N003112200019N0020001N1+02991+02121101271ADDGF102991011011008001001011MA1999999101221MD1999999-0061REMSYN070AAXX  07184 83498 32595 20506 10299 20212 30122 40127 81101 333 59006;
0178834980999992009120800004-17733-039250FM-12+000399999V0200501N000512200019N0020001N1+02441+02211101441ADDGA1001+999999999GF100991001001999999001001KA1240M+03071MA1999999101391MD1999999+0081REMSYN082AAXX  08004 83498 32995 00501 10244 20221 30139 40144 333 10307 29077 55092 58008;
0156834980999992009120812004-17733-039250FM-12+000399999V0200501N002112200019N0020001N1+02931+02061101451ADDGF102991021011008001001001KA1240N+02181MA1999999101401MD1999999-0121REMSYN076AAXX  08124 83498 32595 20504 10293 20206 30140 40145 82100 333 20218 59012;
0137834980999992009120818004-17733-039250FM-12+000399999V0200501N004612200019N0020001N1+03091+02001101091ADDGF102991021011008001001001MA1999999101041MD1999999-0221REMSYN070AAXX  08184 83498 32595 20509 10309 20200 30104 40109 82100 333 59022;
0178834980999992009120900004-17733-039250FM-12+000399999V0203601N001012200019N0020001N1+02481+02271101311ADDGA1001+999999999GF100991001001999999001001KA1240M+03191MA1999999101261MD1999999-0131REMSYN082AAXX  09004 83498 32995 03602 10248 20227 30126 40131 333 10319 29072 55094 59013;
0156834980999992009120912004-17733-039250FM-12+000399999V0203601N003612200019N0020001N1+02821+02331101481ADDGF106991041021008001001011KA1240N+02271MA1999999101431MD1999999+0031REMSYN076AAXX  09124 83498 32595 63607 10282 20233 30143 40148 84201 333 20227 58003;
0137834980999992009120918004-17733-039250FM-12+000399999V0203601N003112200019N0020001N1+03201+02061101171ADDGF104991021011008001001011MA1999999101121MD1999999+0081REMSYN070AAXX  09184 83498 32595 43606 10320 20206 30112 40117 82101 333 58008;
0168834980999992009121000004-17733-039250FM-12+000399999V0200501N001512200019N0020001N1+02481+02231101421ADDGF102991021011008001001001KA1240M+03271MA1999999101371MD1999999+0111REMSYN088AAXX  10004 83498 32595 20503 10248 20223 30137 40142 82100 333 10327 29074 55057 58011;
0156834980999992009121012004-17733-039250FM-12+000399999V0200501N003112200019N0020001N1+02931+02011101591ADDGF104991011011008001001021KA1240N+02291MA1999999101541MD1999999+0111REMSYN076AAXX  10124 83498 32595 40506 10293 20201 30154 40159 81102 333 20229 58011;
0156834980999992009121018004-17733-039250FM-12+000399999V0200501N004112200019N0020001N1+03031+02071101361ADDGF104991001001999999001061MA1999999101311MD1999999+0191REMSYN070AAXX  10184 83498 32595 40508 10303 20207 30131 40136 80006 333 58019;EQDQ01+008002SCOLCB
0178834980999992009121100004-17733-039250FM-12+000399999V0209999C000012200019N0020001N1+02441+02191101641ADDGA1001+999999999GF100991001001999999001001KA1240M+03161MA1999999101591MD1999999+0221REMSYN082AAXX  11004 83498 32995 00000 10244 20219 30159 40164 333 10316 29072 55033 58022;
0220834980999992009121112004-17733-039250FM-12+000399999V0203601N001010450019N0020001N1+02751+02111101681ADDAA124000091AY121061AY211061GF106991041051008001041001KA1240N+01801MA1999999101631MD1999999+0121MW1031REMSYN088AAXX  11124 83498 21595 63602 10275 20211 30163 40168 70321 84540 333 20180 58012 69914;EQDQ01  00002PRCP24
0137834980999992009121118004-17733-039250FM-12+000399999V0200501N004612200019N0020001N1+03051+02091101331ADDGF102991021011008001001001MA1999999101281MD1999999-0031REMSYN070AAXX  11184 83498 32595 20509 10305 20209 30128 40133 82100 333 59003;
0178834980999992009121200004-17733-039250FM-12+000399999V0200501N001512200019N0020001N1+02511+02291101481ADDGA1001+999999999GF100991001001999999001001KA1240M+03151MA1999999101431MD1999999-0161REMSYN082AAXX  12004 83498 32995 00503 10251 20229 30143 40148 333 10315 29078 55057 59016;
0156834980999992009121212004-17733-039250FM-12+000399999V0203601N003110075019N0020001N1+02941+02311101531ADDGF105991051021008001001001KA1240N+02251MA1999999101481MD1999999-0151REMSYN076AAXX  12124 83498 32595 53606 10294 20231 30148 40153 85200 333 20225 59015;
0137834980999992009121218004-17733-039250FM-12+000399999V0200501N003612200019N0020001N1+03061+02351101151ADDGF102991021011008001001001MA1999999101101MD1999999-0181REMSYN070AAXX  12184 83498 32595 20507 10306 20235 30110 40115 82100 333 59018;
0178834980999992009121300004-17733-039250FM-12+000399999V0200501N003112200019N0020001N1+02561+02291101151ADDGA1001+999999999GF100991001001999999001001KA1240M+03221MA1999999101101MD1999999-0331REMSYN082AAXX  13004 83498 32995 00506 10256 20229 30110 40115 333 10322 29076 55096 59033;
0156834980999992009121312004-17733-039250FM-12+000399999V0203601N005112200019N0020001N1+02481+02341101141ADDGF101991011011008001001001KA1240N+02331MA1999999101091MD1999999-0391REMSYN076AAXX  13124 83498 32595 13610 10248 20234 30109 40114 81100 333 20233 59039;
0137834980999992009121318004-17733-039250FM-12+000399999V0203601N003612200019N0020001N1+03071+02301100801ADDGF101991011011008001001001MA1999999100751MD1999999-0351REMSYN070AAXX  13184 83498 32595 13607 10307 20230 30075 40080 81100 333 59035;
0178834980999992009121400004-17733-039250FM-12+000399999V0203601N005112200019N0020001N1+02611+02401101001ADDGA1001+999999999GF100991001001999999001001KA1240M+03291MA1999999100951MD1999999-0151REMSYN082AAXX  14004 83498 32995 03610 10261 20240 30095 40100 333 10329 29084 55083 59015;
0156834980999992009121412004-17733-039250FM-12+000399999V0203601N003612200019N0020001N1+03001+02371101431ADDGF103991031011008001001001KA1240N+02361MA1999999101381MD1999999+0291REMSYN076AAXX  14124 83498 32595 33607 10300 20237 30138 40143 83100 333 20236 58029;
0137834980999992009121418004-17733-039250FM-12+000399999V0200501N002612200019N0020001N1+03161+02341101211ADDGF101991011011008001001001MA1999999101161MD1999999+0411REMSYN070AAXX  14184 83498 32595 10505 10316 20234 30116 40121 81100 333 58041;
0178834980999992009121500004-17733-039250FM-12+000399999V0200901N001512200019N0020001N1+02581+02331101631ADDGA1001+999999999GF100991001001999999001001KA1240M+03191MA1999999101581MD1999999+0631REMSYN082AAXX  15004 83498 32995 00903 10258 20233 30158 40163 333 10319 29076 55081 58063;
0156834980999992009121512004-17733-039250FM-12+000399999V0200501N002112200019N0020001N1+02991+02171101651ADDGF103991031021008001011001KA1240N+02431MA1999999101601MD1999999+0221REMSYN076AAXX  15124 83498 32595 30504 10299 20217 30160 40165 83210 333 20243 58022;
0137834980999992009121518004-17733-039250FM-12+000399999V0201401N002612200019N0040001N1+02931+02241101391ADDGF104991021021008001011001MA1999999101341MD1999999+0181REMSYN070AAXX  15184 83498 32596 41405 10293 20224 30134 40139 82210 333 58018;
0187834980999992009121600004-17733-039250FM-12+000399999V0200901N001012200019N0020001N1+02551+02351101631ADDGF101991001001999999001081KA1240M+03051MA1999999101581MD1999999-0011REMSYN088AAXX  16004 83498 32595 10902 10255 20235 30158 40163 80008 333 10305 29077 55074 59001;EQDQ01+008002SCOLCB
0156834980999992009121612004-17733-039250FM-12+000399999V0200901N002110450019N0020001N1+02981+02171101711ADDGF106991031021008001031001KA1240N+02351MA1999999101661MD1999999+0061REMSYN076AAXX  16124 83498 32595 60904 10298 20217 30166 40171 83230 333 20235 58006;
0137834980999992009121618004-17733-039250FM-12+000399999V0200501N003111050019N0020001N1+03021+02391101731ADDGF107991031011008001001021MA1999999101681MD1999999+0041REMSYN070AAXX  16184 83498 32595 70506 10302 20239 30168 40173 83102 333 58004;
0168834980999992009121700004-17733-039250FM-12+000399999V0200501N001512200019N0020001N1+02621+02351101551ADDGF102991021011008001001001KA1240M+03091MA1999999101501MD1999999-0071REMSYN088AAXX  17004 83498 32595 20503 10262 20235 30150 40155 82100 333 10309 29075 55049 59007;
0156834980999992009121712004-17733-039250FM-12+000399999V0200501N002110450019N0020001N1+02931+02141101661ADDGF105991041021008001011001KA1240N+02301MA1999999101611MD1999999-0041REMSYN076AAXX  17124 83498 32595 50504 10293 20214 30161 40166 84210 333 20230 59004;
0137834980999992009121718004-17733-039250FM-12+000399999V0203601N004112200019N0020001N1+03091+02211101361ADDGF102991021011008001021001MA1999999101311MD1999999-0071REMSYN070AAXX  17184 83498 32595 23608 10309 20221 30131 40136 82120 333 59007;
0178834980999992009121800004-17733-039250FM-12+000399999V0203601N003112200019N0020001N1+02611+02391101391ADDGA1001+999999999GF100991001001999999001001KA1240M+03171MA1999999101341MD1999999-0161REMSYN082AAXX  18004 83498 32995 03606 10261 20239 30134 40139 333 10317 29075 55072 59016;
0156834980999992009121812004-17733-039250FM-12+000399999V0203601N004110075019N0020001N1+03061+02301101571ADDGF105991051021008001001001KA1240N+02431MA1999999101521MD1999999-0101REMSYN076AAXX  18124 83498 32595 53608 10306 20230 30152 40157 85200 333 20243 59010;
0137834980999992009121818004-17733-039250FM-12+000399999V0203601N005112200019N0020001N1+03101+02291101331ADDGF103991031001008001001021MA1999999101281MD1999999+0031REMSYN070AAXX  18184 83498 32595 33610 10310 20229 30128 40133 83002 333 58003;
0168834980999992009121900004-17733-039250FM-12+000399999V0203601N003112200019N0020001N1+02621+02351101581ADDGF102991021011008001001001KA1240M+03271MA1999999101531MD1999999+0191REMSYN088AAXX  19004 83498 32595 23606 10262 20235 30153 40158 82100 333 10327 29074 55063 58019;
0137834980999992009121918004-17733-039250FM-12+000399999V0200901N001510450019N0020001N1+02941+02381101561ADDGF106991031051008001041001MA1999999101511MD1999999+0231REMSYN070AAXX  19184 83498 32595 60903 10294 20238 30151 40156 83540 333 58023;
0184834980999992009122000004-17733-039250FM-12+000399999V0209999C000010012019N0020001N1+02651+02391101671ADDGA1091+999999999GF109991091999999999999999KA1240M+03211MA1999999101621MD1999999+0091REMSYN088AAXX  20004 83498 32/95 90000 10265 20239 30162 40167 80321 333 10321 29078 55010 58009;
0156834980999992009122012004-17733-039250FM-12+000399999V0202301N001010450019N0020001N1+02601+02231101831ADDGF108991041051008001011999KA1240N+02291MA1999999101781MD1999999+0121REMSYN076AAXX  20124 83498 32595 82302 10260 20223 30178 40183 8451/ 333 20229 58012;
0137834980999992009122018004-17733-039250FM-12+000399999V0202701N002610450019N0020001N1+02861+02311101511ADDGF108991031041008001081011MA1999999101461MD1999999-0061REMSYN070AAXX  20184 83498 32595 82705 10286 20231 30146 40151 83481 333 59006;
0168834980999992009122100004-17733-039250FM-12+000399999V0200501N000510450019N0020001N1+02581+02311101721ADDGF105991021011008001031001KA1240M+02991MA1999999101671MD1999999+0051REMSYN088AAXX  21004 83498 32595 50501 10258 20231 30167 40172 82130 333 10299 29080 55002 58005;
0156834980999992009122112004-17733-039250FM-12+000399999V0200901N001510450019N0020001N1+02811+02271101791ADDGF106991031021008001071001KA1240N+02361MA1999999101741MD1999999-0041REMSYN076AAXX  21124 83498 32595 60903 10281 20227 30174 40179 83270 333 20236 59004;
0137834980999992009122118004-17733-039250FM-12+000399999V0203601N003110450019N0020001N1+02851+02171101591ADDGF107991041081008001051001MA1999999101541MD1999999+0121REMSYN070AAXX  21184 83498 32595 73606 10285 20217 30154 40159 84850 333 58012;
0178834980999992009122200004-17733-039250FM-12+000399999V0209999C000010012019N0020001N1+02591+02331101751ADDGA1091+999999999GF109991091999999999999999KA1240M+03131MA1999999101701MD1999999+0031REMSYN082AAXX  22004 83498 32/95 90000 10259 20233 30170 40175 333 10313 29078 55002 58003;
0201834980999992009122212004-17733-039250FM-12+000399999V0200501N001510450019N0020001N1+02721+02451101831ADDAA124000891AY191061AY261061GF107991031051008001011001KA1240N+02331MA1999999101781MD1999999+0041MW1911REMSYN088AAXX  22124 83498 21595 70503 10272 20245 30178 40183 79196 83510 333 20233 58004 69984;
0137834980999992009122218004-17733-039250FM-12+000399999V0200501N003611050019N0020001N1+03041+02331101571ADDGF105991021011008001001021MA1999999101521MD1999999-0021REMSYN070AAXX  22184 83498 32595 50507 10304 20233 30152 40157 82102 333 59002;
0168834980999992009122300004-17733-039250FM-12+000399999V0200501N000510450019N0020001N1+02561+02331101781ADDGF105991021011008001051001KA1240M+03211MA1999999101731MD1999999+0031REMSYN088AAXX  23004 83498 32595 50501 10256 20233 30173 40178 82150 333 10321 29081 55030 58003;
0156834980999992009122312004-17733-039250FM-12+000399999V0203601N001010450019N0020001N1+02811+02311101841ADDGF106991031021008001011001KA1240N+02311MA1999999101791MD1999999+0011REMSYN076AAXX  23124 83498 32595 63602 10281 20231 30179 40184 83210 333 20231 58001;
0137834980999992009122318004-17733-039250FM-12+000399999V0200501N004612200019N0020001N1+03071+02271101571ADDGF101991011011008001001001MA1999999101521MD1999999+0001REMSYN070AAXX  23184 83498 32595 10509 10307 20227 30152 40157 81100 333 58000;
0178834980999992009122400004-17733-039250FM-12+000399999V0209999C000012200019N0020001N1+02501+02311101681ADDGA1001+999999999GF100991001001999999001001KA1240M+03271MA1999999101631MD1999999-0101REMSYN082AAXX  24004 83498 32995 00000 10250 20231 30163 40168 333 10327 29079 55051 59010;
0156834980999992009122412004-17733-039250FM-12+000399999V0203601N003610075019N0020001N1+02981+02201101621ADDGF105991051021008001001001KA1240N+02361MA1999999101571MD1999999-0221REMSYN076AAXX  24124 83498 32595 53607 10298 20220 30157 40162 85200 333 20236 59022;
0137834980999992009122418004-17733-039250FM-12+000399999V0200501N004612200019N0020001N1+03061+02221101291ADDGF103991021011008001031001MA1999999101241MD1999999-0281REMSYN070AAXX  24184 83498 32595 30509 10306 20222 30124 40129 82130 333 59028;
0168834980999992009122500004-17733-039250FM-12+000399999V0200501N000512200019N0020001N1+02561+02291101391ADDGF103991011011008001001011KA1240M+03201MA1999999101341MD1999999-0291REMSYN088AAXX  25004 83498 32595 30501 10256 20229 30134 40139 81101 333 10320 29074 55065 59029;
0156834980999992009122512004-17733-039250FM-12+000399999V0203601N003110450019N0020001N1+02991+02231101401ADDGF106991021011008001031001KA1240N+02321MA1999999101351MD1999999-0221REMSYN076AAXX  25124 83498 32595 63606 10299 20223 30135 40140 82130 333 20232 59022;
0137834980999992009122518004-17733-039250FM-12+000399999V0203601N005110450019N0020001N1+03051+02121101061ADDGF105991021011008001031001MA1999999101011MD1999999+0231REMSYN070AAXX  25184 83498 32595 53610 10305 20212 30101 40106 82130 333 58023;
0168834980999992009122600004-17733-039250FM-12+000399999V0203601N001510075019N0020001N1+02671+02351101251ADDGF108991051051008001021999KA1240M+03181MA1999999101201MD1999999-0141REMSYN088AAXX  26004 83498 32595 83603 10267 20235 30120 40125 8552/ 333 10318 29072 55014 59014;
0156834980999992009122612004-17733-039250FM-12+000399999V0203601N004110450019N0020001N1+02761+02141101311ADDGF108991041051008001011999KA1240N+02361MA1999999101261MD1999999-0091REMSYN076AAXX  26124 83498 32595 83608 10276 20214 30126 40131 8451/ 333 20236 59009;
0137834980999992009122618004-17733-039250FM-12+000399999V0203601N004110450019N0020001N1+03061+02451100871ADDGF106991021011008001051011MA1999999100821MD1999999-0191REMSYN070AAXX  26184 83498 32595 63608 10306 20245 30082 40087 82151 333 59019;
0213834980999992009122700004-17733-039250FM-12+000399999V0203201N000510450019N0020001N1+02561+02291101031ADDAA106000391AY161061AY221061GF108991041061008001011999KA1240M+03291MA1999999100981MD1999999-0221MW1611REMSYN100AAXX  27004 83498 21595 83201 10256 20229 30098 40103 76162 8461/ 333 10329 29077 55002 59022 69931;
0201834980999992009122712004-17733-039250FM-12+000399999V0203601N004610450019N0020001N1+02651+02351101131ADDAA124002091AY161061AY261061GF108991041061008001021999KA1240N+02381MA1999999101081MD1999999-0181MW1211REMSYN088AAXX  27124 83498 21595 83609 10265 20235 30108 40113 72166 8462/ 333 20238 59018 60024;
0137834980999992009122718004-17733-039250FM-12+000399999V0200501N006712200019N0020001N1+03041+02201100761ADDGF103991031021008001011001MA1999999100711MD1999999-0111REMSYN070AAXX  27184 83498 32595 30513 10304 20220 30071 40076 83210 333 59011;
0168834980999992009122800004-17733-039250FM-12+000399999V0203601N003112200019N0020001N1+02671+02441101031ADDGF102991021021008001001001KA1240M+03311MA1999999100981MD1999999+0001REMSYN088AAXX  28004 83498 32595 23606 10267 20244 30098 40103 82200 333 10331 29081 55021 58000;
0201834980999992009122812004-17733-039250FM-12+000399999V0203601N003110450019N0020001N1+02821+02521101181ADDAA124005191AY161061AY221061GF108991041051008001011999KA1240N+02291MA1999999101131MD1999999+0051MW1211REMSYN088AAXX  28124 83498 21595 83606 10282 20252 30113 40118 72162 8451/ 333 20229 58005 60054;
0137834980999992009122818004-17733-039250FM-12+000399999V0203601N004610075019N0200001N1+02841+02521100861ADDGF108991051051008001011999MA1999999100811MD1999999+0101REMSYN070AAXX  28184 83498 32598 83609 10284 20252 30081 40086 8551/ 333 58010;
0213834980999992009122900004-17733-039250FM-12+000399999V0200501N002610075019N0020001N1+02601+02461101131ADDAA106003091AY161061AY221061GF108991051061008001011999KA1240M+03171MA1999999101081MD1999999+0101MW1211REMSYN100AAXX  29004 83498 21595 80505 10260 20246 30108 40113 72162 8561/ 333 10317 29088 55000 58010 60031;
0173834980999992009122912004-17733-039250FM-12+000399999V0203601N003110450019N0020001N1+02751+02431101231ADDAA124003091GF108991041061008001021999KA1240N+01921MA1999999101181MD1999999+0051REMSYN082AAXX  29124 83498 22595 83606 10275 20243 30118 40123 8462/ 333 20192 58005 60034;
0137834980999992009122918004-17733-039250FM-12+000399999V0203601N006210450019N0020001N1+02971+02191100841ADDGF107991031051008001011001MA1999999100791MD1999999-0021REMSYN070AAXX  29184 83498 32595 73612 10297 20219 30079 40084 83510 333 59002;
0168834980999992009123000004-17733-039250FM-12+000399999V0203601N002110450019N0020001N1+02651+02441101081ADDGF106991021021008001031001KA1240M+03261MA1999999101031MD1999999-0051REMSYN088AAXX  30004 83498 32595 63604 10265 20244 30103 40108 82230 333 10326 29083 55000 59005;
0156834980999992009123012004-17733-039250FM-12+000399999V0203601N005710450019N0020001N1+02981+02421101191ADDGF108991021051008001031021KA1240N+02431MA1999999101141MD1999999-0041REMSYN076AAXX  30124 83498 32595 83611 10298 20242 30114 40119 82532 333 20243 59004;
0137834980999992009123018004-17733-039250FM-12+000399999V0203601N006211050019N0020001N1+03061+02431100851ADDGF107991031021008001001021MA1999999100801MD1999999+0011REMSYN070AAXX  30184 83498 32595 73612 10306 20243 30080 40085 83202 333 58001;
0168834980999992009123100004-17733-039250FM-12+000399999V0203601N005112200019N0020001N1+02701+02431101181ADDGF104991021011008001031001KA1240M+03231MA1999999101131MD1999999+0101REMSYN088AAXX  31004 83498 32595 43610 10270 20243 30113 40118 82130 333 10323 29078 55000 58010;
0156834980999992009123112004-17733-039250FM-12+000399999V0203601N006212200019N0020001N1+03031+02291101181ADDGF104991011011008001041001KA1240N+02371MA1999999101131MD1999999-0111REMSYN076AAXX  31124 83498 32595 43612 10303 20229 30113 40118 81140 333 20237 59011;
0156834980999992009123118004-17733-039250FM-12+000399999V0200501N006712200019N0020001N1+03071+02271100981ADDGF101991001001999999001011MA1999999100931MD1999999+0131REMSYN070AAXX  31184 83498 32595 10513 10307 20227 30093 40098 80001 333 58013;EQDQ01+008002SCOLCB
